<?xml version="1.0" encoding="UTF-8" standalone="yes"?>
<!DOCTYPE earthquake SYSTEM "stationlist.dtd">
<stationlist created="" xmlns="ch.ethz.sed.shakemap.usgs.xml">
  <station code="CART" name="CART" netid="WM" insttype="FBA-EST/10.0" commtype="DIG" lat="37.5868" lon="-1.0012">
    <comp name="--.HLZ">
      <acc value="0.0734859376" flag="0"/>
      <vel value="0.0443378914" flag="0"/>
      <psa03 value="0.1724476590" flag="0"/>
      <psa10 value="0.0571025207" flag="0"/>
      <psa30 value="0.0077758541" flag="0"/>
    </comp>
    <comp name="--.HLN">
      <acc value="0.0936663708" flag="0"/>
      <vel value="0.0440075630" flag="0"/>
      <psa03 value="0.2379828825" flag="0"/>
      <psa10 value="0.0652008486" flag="0"/>
      <psa30 value="0.0122775914" flag="0"/>
    </comp>
    <comp name="--.HLE">
      <acc value="0.1237584991" flag="0"/>
      <vel value="0.0668777179" flag="0"/>
      <psa03 value="0.2858092497" flag="0"/>
      <psa10 value="0.0908645897" flag="0"/>
      <psa30 value="0.0101694636" flag="0"/>
    </comp>
  </station>
</stationlist>
