<?xml version="1.0" encoding="UTF-8" standalone="yes"?>
<!DOCTYPE earthquake SYSTEM "stationlist.dtd">
<stationlist created="" xmlns="ch.ethz.sed.shakemap.usgs.xml">
  <station code="ZKR" name="ZKR" netid="GE" source="GFZ" insttype="STS-2/N" lat="35.1147" lon="26.2169">
    <comp name="--.HHN">
      <acc value="0.0163884710" flag="0"/>
      <vel value="0.0106760073" flag="0"/>
      <psa03 value="0.0707647360" flag="0"/>
      <psa10 value="0.0091852272" flag="0"/>
      <psa30 value="0.0007385068" flag="0"/>
    </comp>
    <comp name="--.HHZ">
      <acc value="0.0178658158" flag="0"/>
      <vel value="0.0085398526" flag="0"/>
      <psa03 value="0.0476263000" flag="0"/>
      <psa10 value="0.0091839613" flag="0"/>
      <psa30 value="0.0005366168" flag="0"/>
    </comp>
    <comp name="--.HHE">
      <acc value="0.0253473166" flag="0"/>
      <vel value="0.0143192340" flag="0"/>
      <psa03 value="0.0791216800" flag="0"/>
      <psa10 value="0.0100487611" flag="0"/>
      <psa30 value="0.0006327429" flag="0"/>
    </comp>
  </station>
  <station code="NPS" name="NPS" netid="HL" source="NOA" insttype="CMG3ESPC-120s" lat="35.2613" lon="25.6104">
    <comp name="--.HHN">
      <acc value="0.0061616117" flag="0"/>
      <vel value="0.0047228436" flag="0"/>
      <psa03 value="0.0183098330" flag="0"/>
      <psa10 value="0.0060966320" flag="0"/>
      <psa30 value="0.0003483756" flag="0"/>
    </comp>
    <comp name="--.HHE">
      <acc value="0.0042583396" flag="0"/>
      <vel value="0.0038555963" flag="0"/>
      <psa03 value="0.0149523916" flag="0"/>
      <psa10 value="0.0040824919" flag="0"/>
      <psa30 value="0.0004914158" flag="0"/>
    </comp>
    <comp name="--.HHZ">
      <acc value="0.0073026269" flag="0"/>
      <vel value="0.0045872696" flag="0"/>
      <psa03 value="0.0152406461" flag="0"/>
      <psa10 value="0.0030373287" flag="0"/>
      <psa30 value="0.0003891513" flag="0"/>
    </comp>
  </station>
  <station code="ZKR" name="ZKR" netid="HL" source="NOA" insttype="120" lat="35.1147" lon="26.2169">
    <comp name="--.HHN">
      <acc value="0.0159175368" flag="0"/>
      <vel value="0.0104682281" flag="0"/>
      <psa03 value="0.0688574883" flag="0"/>
      <psa10 value="0.0090802009" flag="0"/>
      <psa30 value="0.0007326760" flag="0"/>
    </comp>
    <comp name="--.HHE">
      <acc value="0.0249770057" flag="0"/>
      <vel value="0.0139895058" flag="0"/>
      <psa03 value="0.0770097648" flag="0"/>
      <psa10 value="0.0099578372" flag="0"/>
      <psa30 value="0.0006320420" flag="0"/>
    </comp>
    <comp name="--.HHZ">
      <acc value="0.0174036690" flag="0"/>
      <vel value="0.0084211959" flag="0"/>
      <psa03 value="0.0462784533" flag="0"/>
      <psa10 value="0.0091252491" flag="0"/>
      <psa30 value="0.0005338082" flag="0"/>
    </comp>
  </station>
</stationlist>
