<?xml version="1.0" encoding="UTF-8" standalone="yes"?>
<!DOCTYPE earthquake SYSTEM "stationlist.dtd">
<stationlist created="" xmlns="ch.ethz.sed.shakemap.usgs.xml">
  <station code="BALB" name="BALB" netid="KO" insttype="CMG-5T" lat="39.6507" lon="27.8642">
    <comp name="--.HNE">
      <acc value="0.0883338180" flag="0"/>
      <vel value="0.0373808590" flag="0"/>
      <psa03 value="0.1583279570" flag="0"/>
      <psa10 value="0.0160495378" flag="0"/>
      <psa30 value="0.0010871891" flag="0"/>
    </comp>
    <comp name="--.HNN">
      <acc value="0.1017425619" flag="0"/>
      <vel value="0.0352950577" flag="0"/>
      <psa03 value="0.1699900599" flag="0"/>
      <psa10 value="0.0197766554" flag="0"/>
      <psa30 value="0.0017304522" flag="0"/>
    </comp>
    <comp name="--.HNZ">
      <acc value="0.0959690407" flag="0"/>
      <vel value="0.0209723585" flag="0"/>
      <psa03 value="0.0736276757" flag="0"/>
      <psa10 value="0.0066236693" flag="0"/>
      <psa30 value="0.0008624477" flag="0"/>
    </comp>
  </station>
  <station code="BIGA" name="BIGA" netid="KO" insttype="CMG-5T" lat="40.2813" lon="27.1505">
    <comp name="--.HNE">
      <acc value="0.0570313785" flag="0"/>
      <vel value="0.0125120383" flag="0"/>
      <psa03 value="0.0373196100" flag="0"/>
      <psa10 value="0.0035799109" flag="0"/>
      <psa30 value="0.0004311543" flag="0"/>
    </comp>
    <comp name="--.HNN">
      <acc value="0.1054410719" flag="0"/>
      <vel value="0.0201029738" flag="0"/>
      <psa03 value="0.0379854494" flag="0"/>
      <psa10 value="0.0039324494" flag="0"/>
      <psa30 value="0.0006261530" flag="0"/>
    </comp>
    <comp name="--.HNZ">
      <acc value="0.0430322223" flag="0"/>
      <vel value="0.0064992948" flag="0"/>
      <psa03 value="0.0094170669" flag="0"/>
      <psa10 value="0.0022593410" flag="0"/>
      <psa30 value="0.0003015274" flag="0"/>
    </comp>
  </station>
  <station code="BMYO" name="BMYO" netid="KO" insttype="CMG-5T" lat="39.8098" lon="26.6009">
    <comp name="--.HNN">
      <acc value="0.0544586160" flag="0"/>
      <vel value="0.0263064081" flag="0"/>
      <psa03 value="0.1013173077" flag="0"/>
      <psa10 value="0.0118935935" flag="0"/>
      <psa30 value="0.0013049213" flag="0"/>
    </comp>
    <comp name="--.HNE">
      <acc value="0.0428404141" flag="0"/>
      <vel value="0.0256944534" flag="0"/>
      <psa03 value="0.0938901018" flag="0"/>
      <psa10 value="0.0130991196" flag="0"/>
      <psa30 value="0.0010718360" flag="0"/>
    </comp>
    <comp name="--.HNZ">
      <acc value="0.0535193398" flag="0"/>
      <vel value="0.0087779470" flag="0"/>
      <psa03 value="0.0372140447" flag="0"/>
      <psa10 value="0.0102594755" flag="0"/>
      <psa30 value="0.0004965680" flag="0"/>
    </comp>
  </station>
  <station code="CANM" name="CANM" netid="KO" insttype="CMG-5T" lat="40.0113" lon="27.0529">
    <comp name="--.HNE">
      <acc value="0.0799330000" flag="0"/>
      <vel value="0.0142477234" flag="0"/>
      <psa03 value="0.0383867834" flag="0"/>
      <psa10 value="0.0064734082" flag="0"/>
      <psa30 value="0.0003865372" flag="0"/>
    </comp>
    <comp name="--.HNN">
      <acc value="0.0906955754" flag="0"/>
      <vel value="0.0167976510" flag="0"/>
      <psa03 value="0.0587669753" flag="0"/>
      <psa10 value="0.0088456569" flag="0"/>
      <psa30 value="0.0007538690" flag="0"/>
    </comp>
    <comp name="--.HNZ">
      <acc value="0.0679511062" flag="0"/>
      <vel value="0.0138286401" flag="0"/>
      <psa03 value="0.0313344329" flag="0"/>
      <psa10 value="0.0044234634" flag="0"/>
      <psa30 value="0.0003035111" flag="0"/>
    </comp>
  </station>
  <station code="DKL" name="DKL" netid="KO" insttype="CMG-3ESPC" lat="39.0713" lon="26.9053">
    <comp name="--.HHN">
      <acc value="0.0405163967" flag="0"/>
      <vel value="0.0108853110" flag="0"/>
      <psa03 value="0.0444200470" flag="0"/>
      <psa10 value="0.0064842767" flag="0"/>
      <psa30 value="0.0006601929" flag="0"/>
    </comp>
    <comp name="--.HHZ">
      <acc value="0.0423485362" flag="0"/>
      <vel value="0.0089950331" flag="0"/>
      <psa03 value="0.0457479057" flag="0"/>
      <psa10 value="0.0036965972" flag="0"/>
      <psa30 value="0.0003348385" flag="0"/>
    </comp>
  </station>
  <station code="DST" name="DST" netid="KO" insttype="CMG-5T" lat="39.6041" lon="28.6267">
    <comp name="--.HNZ">
      <acc value="0.0285519634" flag="0"/>
      <vel value="0.0110184211" flag="0"/>
      <psa03 value="0.0737323788" flag="0"/>
      <psa10 value="0.0037669663" flag="0"/>
      <psa30 value="0.0003497541" flag="0"/>
    </comp>
    <comp name="--.HNE">
      <acc value="0.0370374230" flag="0"/>
      <vel value="0.0102372122" flag="0"/>
      <psa03 value="0.0919809414" flag="0"/>
      <psa10 value="0.0030828547" flag="0"/>
      <psa30 value="0.0004333805" flag="0"/>
    </comp>
    <comp name="--.HNN">
      <acc value="0.0354054362" flag="0"/>
      <vel value="0.0128698140" flag="0"/>
      <psa03 value="0.0617943794" flag="0"/>
      <psa10 value="0.0074191478" flag="0"/>
      <psa30 value="0.0004709470" flag="0"/>
    </comp>
  </station>
  <station code="EDC" name="EDC" netid="KO" insttype="CMG-3T" lat="40.3465" lon="27.8618">
    <comp name="--.HHE">
      <acc value="0.0307663803" flag="0"/>
      <vel value="0.0082209015" flag="0"/>
      <psa03 value="0.0414949301" flag="0"/>
      <psa10 value="0.0082629656" flag="0"/>
      <psa30 value="0.0004432515" flag="0"/>
    </comp>
    <comp name="--.HHZ">
      <acc value="0.0191412750" flag="0"/>
      <vel value="0.0050696944" flag="0"/>
      <psa03 value="0.0145523267" flag="0"/>
      <psa10 value="0.0030914631" flag="0"/>
      <psa30 value="0.0001791874" flag="0"/>
    </comp>
    <comp name="--.HHN">
      <acc value="0.0355636341" flag="0"/>
      <vel value="0.0084569869" flag="0"/>
      <psa03 value="0.0516638104" flag="0"/>
      <psa10 value="0.0067340595" flag="0"/>
      <psa30 value="0.0003983602" flag="0"/>
    </comp>
  </station>
  <station code="EZN" name="EZN" netid="KO" insttype="CMG-3ESP" lat="39.8255" lon="26.3246">
    <comp name="--.HHZ">
      <acc value="0.0238490716" flag="0"/>
      <vel value="0.0030949163" flag="0"/>
      <psa03 value="0.0092263934" flag="0"/>
      <psa10 value="0.0025645582" flag="0"/>
      <psa30 value="0.0001612118" flag="0"/>
    </comp>
    <comp name="--.HHN">
      <acc value="0.0352817975" flag="0"/>
      <vel value="0.0046074154" flag="0"/>
      <psa03 value="0.0206925036" flag="0"/>
      <psa10 value="0.0035260977" flag="0"/>
      <psa30 value="0.0002957690" flag="0"/>
    </comp>
    <comp name="--.HHE">
      <acc value="0.0414953385" flag="0"/>
      <vel value="0.0069661253" flag="0"/>
      <psa03 value="0.0159942027" flag="0"/>
      <psa10 value="0.0040137072" flag="0"/>
      <psa30 value="0.0002872362" flag="0"/>
    </comp>
  </station>
  <station code="EZNE" name="EZNE" netid="KO" insttype="CMG-5T" lat="39.756" lon="26.3655">
    <comp name="--.HNE">
      <acc value="0.0204564374" flag="0"/>
      <vel value="0.0063984873" flag="0"/>
      <psa03 value="0.0163585199" flag="0"/>
      <psa10 value="0.0046331777" flag="0"/>
      <psa30 value="0.0004124571" flag="0"/>
    </comp>
    <comp name="--.HNN">
      <acc value="0.0315376890" flag="0"/>
      <vel value="0.0067715014" flag="0"/>
      <psa03 value="0.0339781496" flag="0"/>
      <psa10 value="0.0053584902" flag="0"/>
      <psa30 value="0.0005275456" flag="0"/>
    </comp>
    <comp name="--.HNZ">
      <acc value="0.0243435370" flag="0"/>
      <vel value="0.0046265966" flag="0"/>
      <psa03 value="0.0181563383" flag="0"/>
      <psa10 value="0.0068957623" flag="0"/>
      <psa30 value="0.0003365330" flag="0"/>
    </comp>
  </station>
  <station code="GAZK" name="GAZK" netid="KO" insttype="CMG-6T" lat="40.7479" lon="27.3275">
    <comp name="--.HHZ">
      <acc value="0.0181261052" flag="0"/>
      <vel value="0.0052519433" flag="0"/>
      <psa03 value="0.0258743624" flag="0"/>
      <psa10 value="0.0037210512" flag="0"/>
      <psa30 value="0.0003585429" flag="0"/>
    </comp>
    <comp name="--.HHN">
      <acc value="0.0299738991" flag="0"/>
      <vel value="0.0092030382" flag="0"/>
      <psa03 value="0.0308711416" flag="0"/>
      <psa10 value="0.0107884667" flag="0"/>
      <psa30 value="0.0006671508" flag="0"/>
    </comp>
    <comp name="--.HHE">
      <acc value="0.0363245969" flag="0"/>
      <vel value="0.0116758924" flag="0"/>
      <psa03 value="0.0466808112" flag="0"/>
      <psa10 value="0.0049027390" flag="0"/>
      <psa30 value="0.0008161950" flag="0"/>
    </comp>
  </station>
  <station code="GELI" name="GELI" netid="KO" insttype="CMG-3ESP" lat="40.398" lon="26.4742">
    <comp name="--.HHZ">
      <acc value="0.0061687964" flag="0"/>
      <vel value="0.0016898578" flag="0"/>
      <psa03 value="0.0065963472" flag="0"/>
      <psa10 value="0.0011018856" flag="0"/>
      <psa30 value="0.0000898451" flag="0"/>
    </comp>
  </station>
  <station code="GOMA" name="GOMA" netid="KO" insttype="CMG-5T" lat="38.7077" lon="27.9175">
    <comp name="--.HNE">
      <acc value="0.0097380638" flag="0"/>
      <vel value="0.0046180792" flag="0"/>
      <psa03 value="0.0179830237" flag="0"/>
      <psa10 value="0.0029294410" flag="0"/>
      <psa30 value="0.0002399328" flag="0"/>
    </comp>
    <comp name="--.HNZ">
      <acc value="0.0060262330" flag="0"/>
      <vel value="0.0019713637" flag="0"/>
      <psa03 value="0.0103059070" flag="0"/>
      <psa10 value="0.0013092040" flag="0"/>
      <psa30 value="0.0002452723" flag="0"/>
    </comp>
    <comp name="--.HNN">
      <acc value="0.0084732535" flag="0"/>
      <vel value="0.0036878250" flag="0"/>
      <psa03 value="0.0198693665" flag="0"/>
      <psa10 value="0.0033975614" flag="0"/>
      <psa30 value="0.0001628439" flag="0"/>
    </comp>
  </station>
  <station code="GONE" name="GONE" netid="KO" insttype="CMG-5T" lat="40.0466" lon="27.686">
    <comp name="--.HNE">
      <acc value="0.0639537709" flag="0"/>
      <vel value="0.0309782996" flag="0"/>
      <psa03 value="0.0640325559" flag="0"/>
      <psa10 value="0.0381936190" flag="0"/>
      <psa30 value="0.0019165426" flag="0"/>
    </comp>
    <comp name="--.HNN">
      <acc value="0.0664932962" flag="0"/>
      <vel value="0.0195834555" flag="0"/>
      <psa03 value="0.1140188502" flag="0"/>
      <psa10 value="0.0218209251" flag="0"/>
      <psa30 value="0.0010384435" flag="0"/>
    </comp>
    <comp name="--.HNZ">
      <acc value="0.0643837113" flag="0"/>
      <vel value="0.0128742041" flag="0"/>
      <psa03 value="0.0427969477" flag="0"/>
      <psa10 value="0.0117584949" flag="0"/>
      <psa30 value="0.0006173101" flag="0"/>
    </comp>
  </station>
  <station code="GORD" name="GORD" netid="KO" insttype="CMG-5T" lat="38.9088" lon="28.1769">
    <comp name="--.HNE">
      <acc value="0.0070457795" flag="0"/>
      <vel value="0.0041480968" flag="0"/>
      <psa03 value="0.0141313560" flag="0"/>
      <psa10 value="0.0049297076" flag="0"/>
      <psa30 value="0.0002534547" flag="0"/>
    </comp>
    <comp name="--.HNZ">
      <acc value="0.0064708894" flag="0"/>
      <vel value="0.0037774494" flag="0"/>
      <psa03 value="0.0141968141" flag="0"/>
      <psa10 value="0.0050706263" flag="0"/>
      <psa30 value="0.0002032141" flag="0"/>
    </comp>
    <comp name="--.HNN">
      <acc value="0.0074597367" flag="0"/>
      <vel value="0.0054540474" flag="0"/>
      <psa03 value="0.0183577368" flag="0"/>
      <psa10 value="0.0059803576" flag="0"/>
      <psa30 value="0.0002928820" flag="0"/>
    </comp>
  </station>
  <station code="KCTX" name="KCTX" netid="KO" insttype="CMG-3ESP" lat="40.2626" lon="28.3353">
    <comp name="--.HHN">
      <acc value="0.0304420402" flag="0"/>
      <vel value="0.0083725779" flag="0"/>
      <psa03 value="0.0405994712" flag="0"/>
      <psa10 value="0.0078589530" flag="0"/>
      <psa30 value="0.0004764720" flag="0"/>
    </comp>
    <comp name="--.HHE">
      <acc value="0.0156701382" flag="0"/>
      <vel value="0.0040246797" flag="0"/>
      <psa03 value="0.0270886574" flag="0"/>
      <psa10 value="0.0044819083" flag="0"/>
      <psa30 value="0.0002287010" flag="0"/>
    </comp>
    <comp name="--.HHZ">
      <acc value="0.0143843615" flag="0"/>
      <vel value="0.0059876787" flag="0"/>
      <psa03 value="0.0183229012" flag="0"/>
      <psa10 value="0.0034650318" flag="0"/>
      <psa30 value="0.0002098897" flag="0"/>
    </comp>
  </station>
  <station code="KRBG" name="KRBG" netid="KO" insttype="CMG-3ESP" lat="40.3932" lon="27.2977">
    <comp name="--.HHE">
      <acc value="0.0619276490" flag="0"/>
      <vel value="0.0139485350" flag="0"/>
      <psa03 value="0.0324586185" flag="0"/>
      <psa10 value="0.0044490747" flag="0"/>
      <psa30 value="0.0002947917" flag="0"/>
    </comp>
  </station>
  <station code="LAP" name="LAP" netid="KO" insttype="CMG-3ESP" lat="40.3703" lon="26.7593">
    <comp name="--.HHE">
      <acc value="0.0196689925" flag="0"/>
      <vel value="0.0026137276" flag="0"/>
      <psa03 value="0.0099158010" flag="0"/>
      <psa10 value="0.0021594121" flag="0"/>
      <psa30 value="0.0002239518" flag="0"/>
    </comp>
    <comp name="--.HHN">
      <acc value="0.0141687574" flag="0"/>
      <vel value="0.0019724552" flag="0"/>
      <psa03 value="0.0059015533" flag="0"/>
      <psa10 value="0.0022479008" flag="0"/>
      <psa30 value="0.0004616784" flag="0"/>
    </comp>
    <comp name="--.HHZ">
      <acc value="0.0089120671" flag="0"/>
      <vel value="0.0022350396" flag="0"/>
      <psa03 value="0.0053779755" flag="0"/>
      <psa10 value="0.0011655218" flag="0"/>
      <psa30 value="0.0001398074" flag="0"/>
    </comp>
  </station>
  <station code="LAPK" name="LAPK" netid="KO" insttype="CMG-5T" lat="40.3151" lon="26.6425">
    <comp name="--.HNN">
      <acc value="0.0506479116" flag="0"/>
      <vel value="0.0150719176" flag="0"/>
      <psa03 value="0.0411972143" flag="0"/>
      <psa10 value="0.0093286566" flag="0"/>
      <psa30 value="0.0006579902" flag="0"/>
    </comp>
    <comp name="--.HNE">
      <acc value="0.0631064572" flag="0"/>
      <vel value="0.0156117787" flag="0"/>
      <psa03 value="0.0342696096" flag="0"/>
      <psa10 value="0.0087778013" flag="0"/>
      <psa30 value="0.0005626896" flag="0"/>
    </comp>
    <comp name="--.HNZ">
      <acc value="0.0276065651" flag="0"/>
      <vel value="0.0052527682" flag="0"/>
      <psa03 value="0.0162441653" flag="0"/>
      <psa10 value="0.0051902632" flag="0"/>
      <psa30 value="0.0003785388" flag="0"/>
    </comp>
  </station>
  <station code="MRMT" name="MRMT" netid="KO" insttype="CMG-3T" lat="40.609" lon="27.5832">
    <comp name="--.HHE">
      <acc value="0.0239562246" flag="0"/>
      <vel value="0.0071075628" flag="0"/>
      <psa03 value="0.0166980886" flag="0"/>
      <psa10 value="0.0075491364" flag="0"/>
      <psa30 value="0.0004537933" flag="0"/>
    </comp>
    <comp name="--.HHZ">
      <acc value="0.0000317702" flag="0"/>
      <vel value="0.0000035777" flag="0"/>
      <psa03 value="0.0000107822" flag="0"/>
      <psa10 value="0.0000035577" flag="0"/>
      <psa30 value="0.0000008366" flag="0"/>
    </comp>
    <comp name="--.HHN">
      <acc value="0.0210341959" flag="0"/>
      <vel value="0.0054378680" flag="0"/>
      <psa03 value="0.0181647677" flag="0"/>
      <psa10 value="0.0027208732" flag="0"/>
      <psa30 value="0.0002136842" flag="0"/>
    </comp>
  </station>
  <station code="RKY" name="RKY" netid="KO" insttype="CMG-3ESP" lat="40.6874" lon="27.1776">
    <comp name="--.HHE">
      <acc value="0.0193412541" flag="0"/>
      <vel value="0.0065530396" flag="0"/>
      <psa03 value="0.0531816658" flag="0"/>
      <psa10 value="0.0057771248" flag="0"/>
      <psa30 value="0.0005322625" flag="0"/>
    </comp>
    <comp name="--.HHN">
      <acc value="0.0262542575" flag="0"/>
      <vel value="0.0128826296" flag="0"/>
      <psa03 value="0.0634797368" flag="0"/>
      <psa10 value="0.0092106118" flag="0"/>
      <psa30 value="0.0004106402" flag="0"/>
    </comp>
    <comp name="--.HHZ">
      <acc value="0.0110827051" flag="0"/>
      <vel value="0.0044121348" flag="0"/>
      <psa03 value="0.0218965906" flag="0"/>
      <psa10 value="0.0022306001" flag="0"/>
      <psa30 value="0.0002116273" flag="0"/>
    </comp>
  </station>
  <station code="SOMA" name="SOMA" netid="KO" insttype="CMG-5T" lat="39.1564" lon="27.5341">
    <comp name="--.HNN">
      <acc value="0.0416392284" flag="0"/>
      <vel value="0.0236950244" flag="0"/>
      <psa03 value="0.1163038238" flag="0"/>
      <psa10 value="0.0219016657" flag="0"/>
      <psa30 value="0.0012087746" flag="0"/>
    </comp>
    <comp name="--.HNE">
      <acc value="0.0441004629" flag="0"/>
      <vel value="0.0183507932" flag="0"/>
      <psa03 value="0.0753458773" flag="0"/>
      <psa10 value="0.0155262702" flag="0"/>
      <psa30 value="0.0008285894" flag="0"/>
    </comp>
    <comp name="--.HNZ">
      <acc value="0.0426649818" flag="0"/>
      <vel value="0.0196437702" flag="0"/>
      <psa03 value="0.0514129119" flag="0"/>
      <psa10 value="0.0118791204" flag="0"/>
      <psa30 value="0.0006391606" flag="0"/>
    </comp>
  </station>
  <station code="SUSR" name="SUSR" netid="KO" insttype="CMG-5T" lat="39.9627" lon="28.0835">
    <comp name="--.HNZ">
      <acc value="0.0486944589" flag="0"/>
      <vel value="0.0080617239" flag="0"/>
      <psa03 value="0.0265621693" flag="0"/>
      <psa10 value="0.0032256436" flag="0"/>
      <psa30 value="0.0002820339" flag="0"/>
    </comp>
    <comp name="--.HNN">
      <acc value="0.0388112704" flag="0"/>
      <vel value="0.0093775748" flag="0"/>
      <psa03 value="0.0434855187" flag="0"/>
      <psa10 value="0.0032133230" flag="0"/>
      <psa30 value="0.0002804865" flag="0"/>
    </comp>
    <comp name="--.HNE">
      <acc value="0.0458054767" flag="0"/>
      <vel value="0.0074799454" flag="0"/>
      <psa03 value="0.0265015406" flag="0"/>
      <psa10 value="0.0034223859" flag="0"/>
      <psa30 value="0.0003682904" flag="0"/>
    </comp>
  </station>
  <station code="YAYO" name="YAYO" netid="KO" insttype="CMG-6T" lat="39.6113" lon="27.0726">
    <comp name="--.HHE">
      <acc value="0.1099388629" flag="0"/>
      <vel value="0.0476723733" flag="0"/>
      <psa03 value="0.2393183549" flag="0"/>
      <psa10 value="0.0124224879" flag="0"/>
      <psa30 value="0.0010505998" flag="0"/>
    </comp>
    <comp name="--.HHN">
      <acc value="0.1609815835" flag="0"/>
      <vel value="0.0853904088" flag="0"/>
      <psa03 value="0.3453191363" flag="0"/>
      <psa10 value="0.0434198232" flag="0"/>
      <psa30 value="0.0038026092" flag="0"/>
    </comp>
    <comp name="--.HHZ">
      <acc value="0.1178658051" flag="0"/>
      <vel value="0.0394726223" flag="0"/>
      <psa03 value="0.1641694566" flag="0"/>
      <psa10 value="0.0115046409" flag="0"/>
      <psa30 value="0.0011738887" flag="0"/>
    </comp>
  </station>
  <station code="YENI" name="YENI" netid="KO" insttype="CMG-5T" lat="39.9364" lon="27.2422">
    <comp name="--.HNZ">
      <acc value="0.2599953942" flag="0"/>
      <vel value="0.0235817746" flag="0"/>
      <psa03 value="0.0576807811" flag="0"/>
      <psa10 value="0.0040448045" flag="0"/>
      <psa30 value="0.0006539711" flag="0"/>
    </comp>
    <comp name="--.HNE">
      <acc value="0.2228957495" flag="0"/>
      <vel value="0.0363823733" flag="0"/>
      <psa03 value="0.0931029390" flag="0"/>
      <psa10 value="0.0091481735" flag="0"/>
      <psa30 value="0.0005479774" flag="0"/>
    </comp>
    <comp name="--.HNN">
      <acc value="0.2159515171" flag="0"/>
      <vel value="0.0376023159" flag="0"/>
      <psa03 value="0.0971808750" flag="0"/>
      <psa10 value="0.0083384451" flag="0"/>
      <psa30 value="0.0006884773" flag="0"/>
    </comp>
  </station>
