<?xml version="1.0" encoding="UTF-8" standalone="yes"?>
<!DOCTYPE earthquake SYSTEM "stationlist.dtd">
<stationlist created="" xmlns="ch.ethz.sed.shakemap.usgs.xml">
  <station code="ARPRA" name="ARPRA" netid="KO" insttype="CMG-5T" lat="39.0929" lon="38.3356">
    <comp name="--.HNN">
      <acc value="0.5098450312" flag="0"/>
      <vel value="0.3118008080" flag="0"/>
      <psa03 value="1.7824451625" flag="0"/>
      <psa10 value="0.3576852266" flag="0"/>
      <psa30 value="0.0275523080" flag="0"/>
    </comp>
    <comp name="--.HNZ">
      <acc value="0.2565501905" flag="0"/>
      <vel value="0.1422094231" flag="0"/>
      <psa03 value="0.9153810485" flag="0"/>
      <psa10 value="0.2901933646" flag="0"/>
      <psa30 value="0.0107489637" flag="0"/>
    </comp>
    <comp name="--.HNE">
      <acc value="0.3907596117" flag="0"/>
      <vel value="0.2078881985" flag="0"/>
      <psa03 value="1.3532889821" flag="0"/>
      <psa10 value="0.3048884851" flag="0"/>
      <psa30 value="0.0152758914" flag="0"/>
    </comp>
  </station>
  <station code="DARE" name="DARE" netid="KO" insttype="CMG-3ESP" lat="38.5712" lon="37.4832">
    <comp name="--.HHE">
      <acc value="0.0548947934" flag="0"/>
      <vel value="0.0223206661" flag="0"/>
      <psa03 value="0.0709656439" flag="0"/>
      <psa10 value="0.0255223948" flag="0"/>
      <psa30 value="0.0030039210" flag="0"/>
    </comp>
    <comp name="--.HHZ">
      <acc value="0.0576833051" flag="0"/>
      <vel value="0.0225727900" flag="0"/>
      <psa03 value="0.1165360818" flag="0"/>
      <psa10 value="0.0274978827" flag="0"/>
      <psa30 value="0.0026070470" flag="0"/>
    </comp>
    <comp name="--.HHN">
      <acc value="0.0685683008" flag="0"/>
      <vel value="0.0311532046" flag="0"/>
      <psa03 value="0.1348895403" flag="0"/>
      <psa10 value="0.0412647183" flag="0"/>
      <psa30 value="0.0053759192" flag="0"/>
    </comp>
  </station>
  <station code="RFHY" name="RFHY" netid="KO" insttype="CMG-5T" lat="39.927" lon="38.833">
    <comp name="--.HNE">
      <acc value="0.0036429746" flag="0"/>
      <vel value="0.0028983905" flag="0"/>
      <psa03 value="0.0097875126" flag="0"/>
      <psa10 value="0.0029962747" flag="0"/>
      <psa30 value="0.0005883754" flag="0"/>
    </comp>
    <comp name="--.HNZ">
      <acc value="0.0232163313" flag="0"/>
      <vel value="0.0232406929" flag="0"/>
      <psa03 value="0.1021035646" flag="0"/>
      <psa10 value="0.0265950475" flag="0"/>
      <psa30 value="0.0020866544" flag="0"/>
    </comp>
    <comp name="--.HNN">
      <acc value="0.0753839780" flag="0"/>
      <vel value="0.0493316208" flag="0"/>
      <psa03 value="0.1488235654" flag="0"/>
      <psa10 value="0.0400292532" flag="0"/>
      <psa30 value="0.0044361500" flag="0"/>
    </comp>
  </station>
  <station code="SVRC" name="SVRC" netid="KO" insttype="CMG-3T" lat="38.3775" lon="39.306">
    <comp name="--.HHE">
      <acc value="0.0246601132" flag="0"/>
      <vel value="0.0176286945" flag="0"/>
      <psa03 value="0.1013524706" flag="0"/>
      <psa10 value="0.0160474387" flag="0"/>
      <psa30 value="0.0016262235" flag="0"/>
    </comp>
    <comp name="--.HHN">
      <acc value="0.0187189444" flag="0"/>
      <vel value="0.0133647766" flag="0"/>
      <psa03 value="0.0683763157" flag="0"/>
      <psa10 value="0.0207423723" flag="0"/>
      <psa30 value="0.0012461497" flag="0"/>
    </comp>
    <comp name="--.HHZ">
      <acc value="0.0141309539" flag="0"/>
      <vel value="0.0091195692" flag="0"/>
      <psa03 value="0.0294433653" flag="0"/>
      <psa10 value="0.0124229918" flag="0"/>
      <psa30 value="0.0011078421" flag="0"/>
    </comp>
  </station>
  <station code="SVSK" name="SVSK" netid="KO" insttype="CMG-3T" lat="39.9157" lon="36.9925">
    <comp name="--.HHE">
      <acc value="0.0563832204" flag="0"/>
      <vel value="0.0247227794" flag="0"/>
      <psa03 value="0.1074652356" flag="0"/>
      <psa10 value="0.0204831770" flag="0"/>
      <psa30 value="0.0025924889" flag="0"/>
    </comp>
    <comp name="--.HHN">
      <acc value="0.0486035463" flag="0"/>
      <vel value="0.0168536099" flag="0"/>
      <psa03 value="0.0829387143" flag="0"/>
      <psa10 value="0.0161264762" flag="0"/>
      <psa30 value="0.0017702708" flag="0"/>
    </comp>
    <comp name="--.HHZ">
      <acc value="0.0151610518" flag="0"/>
      <vel value="0.0089038224" flag="0"/>
      <psa03 value="0.0380944017" flag="0"/>
      <psa10 value="0.0157946100" flag="0"/>
      <psa30 value="0.0010206324" flag="0"/>
    </comp>
  </station>
  <station code="TUNC" name="TUNC" netid="KO" insttype="CMG-5T" lat="39.6942" lon="37.5388">
    <comp name="--.HNE">
      <acc value="0.0511424771" flag="0"/>
      <vel value="0.0336892103" flag="0"/>
      <psa03 value="0.1509385008" flag="0"/>
      <psa10 value="0.0463149156" flag="0"/>
      <psa30 value="0.0027456039" flag="0"/>
    </comp>
    <comp name="--.HNZ">
      <acc value="0.0411038408" flag="0"/>
      <vel value="0.0269109677" flag="0"/>
      <psa03 value="0.0749476057" flag="0"/>
      <psa10 value="0.0314368010" flag="0"/>
      <psa30 value="0.0027338767" flag="0"/>
    </comp>
    <comp name="--.HNN">
      <acc value="0.0766146154" flag="0"/>
      <vel value="0.0360086498" flag="0"/>
      <psa03 value="0.1370395870" flag="0"/>
      <psa10 value="0.0384279671" flag="0"/>
      <psa30 value="0.0026460350" flag="0"/>
    </comp>
  </station>
</stationlist>
