<?xml version="1.0" encoding="UTF-8" standalone="yes"?>
<!DOCTYPE earthquake SYSTEM "stationlist.dtd">
<stationlist created="" xmlns="ch.ethz.sed.shakemap.usgs.xml">
  <station code="ARPRA" name="ARPRA" netid="KO" insttype="CMG-5T" lat="39.0929" lon="38.3356">
    <comp name="--.HNN">
      <acc value="0.5098450331" flag="0"/>
      <vel value="0.3118008137" flag="0"/>
      <psa03 value="1.7824451625" flag="0"/>
      <psa10 value="0.3576852345" flag="0"/>
      <psa30 value="0.0275528280" flag="0"/>
    </comp>
    <comp name="--.HNZ">
      <acc value="0.2565501962" flag="0"/>
      <vel value="0.1422093961" flag="0"/>
      <psa03 value="0.9153810485" flag="0"/>
      <psa10 value="0.2901933564" flag="0"/>
      <psa30 value="0.0107495508" flag="0"/>
    </comp>
    <comp name="--.HNE">
      <acc value="0.3907596083" flag="0"/>
      <vel value="0.2078882074" flag="0"/>
      <psa03 value="1.3532889821" flag="0"/>
      <psa10 value="0.3048884888" flag="0"/>
      <psa30 value="0.0152760012" flag="0"/>
    </comp>
  </station>
  <station code="DARE" name="DARE" netid="KO" insttype="CMG-3ESP" lat="38.5712" lon="37.4832">
    <comp name="--.HHN">
      <acc value="0.0685683007" flag="0"/>
      <vel value="0.0311532024" flag="0"/>
      <psa03 value="0.1348895403" flag="0"/>
      <psa10 value="0.0412647182" flag="0"/>
      <psa30 value="0.0053759179" flag="0"/>
    </comp>
    <comp name="--.HHE">
      <acc value="0.0548947934" flag="0"/>
      <vel value="0.0223206657" flag="0"/>
      <psa03 value="0.0709656439" flag="0"/>
      <psa10 value="0.0255223947" flag="0"/>
      <psa30 value="0.0030039001" flag="0"/>
    </comp>
    <comp name="--.HHZ">
      <acc value="0.0576833051" flag="0"/>
      <vel value="0.0225727890" flag="0"/>
      <psa03 value="0.1165360818" flag="0"/>
      <psa10 value="0.0274978827" flag="0"/>
      <psa30 value="0.0026070515" flag="0"/>
    </comp>
  </station>
  <station code="SVRC" name="SVRC" netid="KO" insttype="CMG-3T" lat="38.3775" lon="39.306">
    <comp name="--.HHE">
      <acc value="0.0246601131" flag="0"/>
      <vel value="0.0176286941" flag="0"/>
      <psa03 value="0.1013524706" flag="0"/>
      <psa10 value="0.0160474387" flag="0"/>
      <psa30 value="0.0016262146" flag="0"/>
    </comp>
    <comp name="--.HHN">
      <acc value="0.0187189444" flag="0"/>
      <vel value="0.0133647762" flag="0"/>
      <psa03 value="0.0683763157" flag="0"/>
      <psa10 value="0.0207423723" flag="0"/>
      <psa30 value="0.0012461589" flag="0"/>
    </comp>
    <comp name="--.HHZ">
      <acc value="0.0141309537" flag="0"/>
      <vel value="0.0091195692" flag="0"/>
      <psa03 value="0.0294433653" flag="0"/>
      <psa10 value="0.0124229918" flag="0"/>
      <psa30 value="0.0011078403" flag="0"/>
    </comp>
  </station>
  <station code="SVSK" name="SVSK" netid="KO" insttype="CMG-3T" lat="39.9157" lon="36.9925">
    <comp name="--.HHE">
      <acc value="0.0563832204" flag="0"/>
      <vel value="0.0247227797" flag="0"/>
      <psa03 value="0.1074652356" flag="0"/>
      <psa10 value="0.0204831770" flag="0"/>
      <psa30 value="0.0025924825" flag="0"/>
    </comp>
    <comp name="--.HHN">
      <acc value="0.0486035464" flag="0"/>
      <vel value="0.0168536099" flag="0"/>
      <psa03 value="0.0829387143" flag="0"/>
      <psa10 value="0.0161264762" flag="0"/>
      <psa30 value="0.0017702748" flag="0"/>
    </comp>
    <comp name="--.HHZ">
      <acc value="0.0151610519" flag="0"/>
      <vel value="0.0089038224" flag="0"/>
      <psa03 value="0.0380944017" flag="0"/>
      <psa10 value="0.0157946100" flag="0"/>
      <psa30 value="0.0010206358" flag="0"/>
    </comp>
  </station>
  <station code="TUNC" name="TUNC" netid="KO" insttype="CMG-5T" lat="39.6942" lon="37.5388">
    <comp name="--.HNE">
      <acc value="0.0511424731" flag="0"/>
      <vel value="0.0336892164" flag="0"/>
      <psa03 value="0.1509385008" flag="0"/>
      <psa10 value="0.0463149154" flag="0"/>
      <psa30 value="0.0027456717" flag="0"/>
    </comp>
    <comp name="--.HNZ">
      <acc value="0.0411038459" flag="0"/>
      <vel value="0.0269109799" flag="0"/>
      <psa03 value="0.0749476057" flag="0"/>
      <psa10 value="0.0314368018" flag="0"/>
      <psa30 value="0.0027333607" flag="0"/>
    </comp>
    <comp name="--.HNN">
      <acc value="0.0766146223" flag="0"/>
      <vel value="0.0360086590" flag="0"/>
      <psa03 value="0.1370395870" flag="0"/>
      <psa10 value="0.0384279675" flag="0"/>
      <psa30 value="0.0026460242" flag="0"/>
    </comp>
  </station>
</stationlist>
