<stationlist created="1778135685">
	<station code="S2114" name="S2114" netid="S2" source="IceSMN Icelandic Strong Motion Network (IceSMN)" insttype="" lat="63.7515" lon="-20.2168">
		<comp name="00.HN1" depth="0.0">
			<acc value="0.0437122271140532" flag="0"/>
			<vel value="0.0226624171936767" flag="0"/>
			<psa03 value="0.184498076258603" flag="0"/>
			<psa10 value="0.0208821989682013" flag="0"/>
			<psa30 value="0.00203473354110996" flag="0"/>
		</comp>
		<comp name="00.HN2" depth="0.0">
			<acc value="0.0429414583207025" flag="0"/>
			<vel value="0.0134558437511915" flag="0"/>
			<psa03 value="0.0860725456338749" flag="0"/>
			<psa10 value="0.00994893656821893" flag="0"/>
			<psa30 value="0.000775124004411745" flag="0"/>
		</comp>
		<comp name="00.HNZ" depth="0.0">
			<acc value="0.0223715039095521" flag="0"/>
			<vel value="0.00663293744306226" flag="0"/>
			<psa03 value="0.0517576161880068" flag="0"/>
			<psa10 value="0.00818619041993006" flag="0"/>
			<psa30 value="0.0009202601293831" flag="0"/>
		</comp>
	</station>
	<station code="S2405" name="S2405" netid="S2" source="IceSMN Icelandic Strong Motion Network (IceSMN)" insttype="" lat="64.0447" lon="-21.9848">
		<comp name="00.HN1" depth="0.0">
			<acc value="0.20595772400015" flag="0"/>
			<vel value="0.0764471884311346" flag="0"/>
			<psa03 value="0.428925914236875" flag="0"/>
			<psa10 value="0.0775011715722631" flag="0"/>
			<psa30 value="0.00557248331633656" flag="0"/>
		</comp>
		<comp name="00.HN2" depth="0.0">
			<acc value="0.505985843341146" flag="0"/>
			<vel value="0.177907589202339" flag="0"/>
			<psa03 value="0.684470176125154" flag="0"/>
			<psa10 value="0.0821060116202019" flag="0"/>
			<psa30 value="0.00488175005865326" flag="0"/>
		</comp>
		<comp name="00.HNZ" depth="0.0">
			<acc value="0.395069655330676" flag="0"/>
			<vel value="0.0684039393727523" flag="0"/>
			<psa03 value="0.173578488306386" flag="0"/>
			<psa10 value="0.0356255187657655" flag="0"/>
			<psa30 value="0.00597494872771272" flag="0"/>
		</comp>
	</station>
	<station code="S2602" name="S2602" netid="S2" source="IceSMN Icelandic Strong Motion Network (IceSMN)" insttype="" lat="63.8464" lon="-22.4268">
		<comp name="00.HN1" depth="0.0">
			<acc value="0.507488448852262" flag="0"/>
			<vel value="0.358791867363515" flag="0"/>
			<psa03 value="0.705285388362227" flag="0"/>
			<psa10 value="0.362749140350394" flag="0"/>
			<psa30 value="0.021224079324446" flag="0"/>
		</comp>
		<comp name="00.HN2" depth="0.0">
			<acc value="1.00707920780223" flag="0"/>
			<vel value="0.530181364909964" flag="0"/>
			<psa03 value="2.31437481597535" flag="0"/>
			<psa10 value="0.288718726198697" flag="0"/>
			<psa30 value="0.0188965918064748" flag="0"/>
		</comp>
		<comp name="00.HNZ" depth="0.0">
			<acc value="1.31805180556196" flag="0"/>
			<vel value="0.311896007786096" flag="0"/>
			<psa03 value="0.848265610098732" flag="0"/>
			<psa10 value="0.114847743099187" flag="0"/>
			<psa30 value="0.0135035020407324" flag="0"/>
		</comp>
	</station>
	<station code="S2604" name="S2604" netid="S2" source="IceSMN Icelandic Strong Motion Network (IceSMN)" insttype="" lat="63.9843" lon="-21.6486">
		<comp name="00.HN1" depth="0.0">
			<acc value="0.0775670273471114" flag="0"/>
			<vel value="0.0484709567799783" flag="0"/>
			<psa03 value="0.191712804199187" flag="0"/>
			<psa10 value="0.0587880019166125" flag="0"/>
			<psa30 value="0.00503328718057831" flag="0"/>
		</comp>
		<comp name="00.HN2" depth="0.0">
			<acc value="0.058702817913688" flag="0"/>
			<vel value="0.0407722721853099" flag="0"/>
			<psa03 value="0.144558597131137" flag="0"/>
			<psa10 value="0.0678240680116935" flag="0"/>
			<psa30 value="0.00582920615630475" flag="0"/>
		</comp>
		<comp name="00.HNZ" depth="0.0">
			<acc value="0.0816251753589895" flag="0"/>
			<vel value="0.0285529055897671" flag="0"/>
			<psa03 value="0.179305107250174" flag="0"/>
			<psa10 value="0.026511929410194" flag="0"/>
			<psa30 value="0.0039329801239655" flag="0"/>
		</comp>
	</station>
</stationlist>
