<?xml version="1.0" encoding="UTF-8" standalone="yes"?>
<!DOCTYPE earthquake SYSTEM "stationlist.dtd">
<stationlist created="" xmlns="ch.ethz.sed.shakemap.usgs.xml">
  <station code="ASB" name="ASB" netid="VI" source="ODC" insttype="STS-2.5" lat="64.7482" lon="-21.3254">
    <comp name="--.HHE">
      <acc value="0.0335998805" flag="0"/>
      <vel value="0.0186924697" flag="0"/>
      <psa03 value="0.0672988700" flag="0"/>
      <psa10 value="0.0182180221" flag="0"/>
      <psa30 value="0.0010005047" flag="0"/>
    </comp>
    <comp name="--.HHZ">
      <acc value="0.0307502329" flag="0"/>
      <vel value="0.0081837271" flag="0"/>
      <psa03 value="0.0418491518" flag="0"/>
      <psa10 value="0.0056508120" flag="0"/>
      <psa30 value="0.0004886580" flag="0"/>
    </comp>
    <comp name="--.HHN">
      <acc value="0.0354727964" flag="0"/>
      <vel value="0.0156601554" flag="0"/>
      <psa03 value="0.1131356508" flag="0"/>
      <psa10 value="0.0091973111" flag="0"/>
      <psa30 value="0.0006702790" flag="0"/>
    </comp>
  </station>
</stationlist>
