<?xml version="1.0" encoding="UTF-8" standalone="yes"?>
<!DOCTYPE earthquake SYSTEM "stationlist.dtd">
<stationlist created="" xmlns="ch.ethz.sed.shakemap.usgs.xml">
  <station code="CEYT" name="CEYT" netid="KO" insttype="CMG-3ESP" lat="37.0105" lon="35.7478">
    <comp name="--.HHZ">
      <acc value="0.0058931547" flag="0"/>
      <vel value="0.0025506957" flag="0"/>
      <psa03 value="0.0155005279" flag="0"/>
      <psa10 value="0.0025498660" flag="0"/>
      <psa30 value="0.0006945788" flag="0"/>
    </comp>
    <comp name="--.HHN">
      <acc value="0.0072111157" flag="0"/>
      <vel value="0.0029298751" flag="0"/>
      <psa03 value="0.0171099051" flag="0"/>
      <psa10 value="0.0041868720" flag="0"/>
      <psa30 value="0.0006923396" flag="0"/>
    </comp>
    <comp name="--.HHE">
      <acc value="0.0090748776" flag="0"/>
      <vel value="0.0045393263" flag="0"/>
      <psa03 value="0.0203501697" flag="0"/>
      <psa10 value="0.0035681942" flag="0"/>
      <psa30 value="0.0005033625" flag="0"/>
    </comp>
  </station>
  <station code="GAZ" name="GAZ" netid="KO" insttype="CMG-3T" lat="37.1721" lon="37.2096">
    <comp name="--.HHE">
      <acc value="0.0412815050" flag="0"/>
      <vel value="0.0280765031" flag="0"/>
      <psa03 value="0.0791695421" flag="0"/>
      <psa10 value="0.0460320797" flag="0"/>
      <psa30 value="0.0020856049" flag="0"/>
    </comp>
    <comp name="--.HHN">
      <acc value="0.0295231318" flag="0"/>
      <vel value="0.0162459760" flag="0"/>
      <psa03 value="0.0578446839" flag="0"/>
      <psa10 value="0.0246876433" flag="0"/>
      <psa30 value="0.0010163429" flag="0"/>
    </comp>
    <comp name="--.HHZ">
      <acc value="0.0219626808" flag="0"/>
      <vel value="0.0127004995" flag="0"/>
      <psa03 value="0.0437382712" flag="0"/>
      <psa10 value="0.0094330498" flag="0"/>
      <psa30 value="0.0009038888" flag="0"/>
    </comp>
  </station>
  <station code="KHMN" name="KHMN" netid="KO" insttype="CMG-5T" lat="37.3916" lon="37.1574">
    <comp name="--.HNN">
      <acc value="0.0794013592" flag="0"/>
      <vel value="0.0179702441" flag="0"/>
      <psa03 value="0.0933233979" flag="0"/>
      <psa10 value="0.0150516963" flag="0"/>
      <psa30 value="0.0019942012" flag="0"/>
    </comp>
    <comp name="--.HNE">
      <acc value="0.0858177271" flag="0"/>
      <vel value="0.0245963526" flag="0"/>
      <psa03 value="0.1151226185" flag="0"/>
      <psa10 value="0.0159526914" flag="0"/>
      <psa30 value="0.0012211954" flag="0"/>
    </comp>
    <comp name="--.HNZ">
      <acc value="0.0415580808" flag="0"/>
      <vel value="0.0097165038" flag="0"/>
      <psa03 value="0.0436432541" flag="0"/>
      <psa10 value="0.0133313781" flag="0"/>
      <psa30 value="0.0011199471" flag="0"/>
    </comp>
  </station>
  <station code="TAHT" name="TAHT" netid="KO" insttype="CMG-3ESPC" lat="36.3755" lon="36.1855">
    <comp name="--.HHE">
      <acc value="0.1463428777" flag="0"/>
      <vel value="0.0439727560" flag="0"/>
      <psa03 value="0.2363641722" flag="0"/>
      <psa10 value="0.0212821402" flag="0"/>
      <psa30 value="0.0017434740" flag="0"/>
    </comp>
    <comp name="--.HHN">
      <acc value="0.0946870256" flag="0"/>
      <vel value="0.0211488560" flag="0"/>
      <psa03 value="0.1529011887" flag="0"/>
      <psa10 value="0.0124974643" flag="0"/>
      <psa30 value="0.0007949615" flag="0"/>
    </comp>
    <comp name="--.HHZ">
      <acc value="0.0843788933" flag="0"/>
      <vel value="0.0228257389" flag="0"/>
      <psa03 value="0.0936789690" flag="0"/>
      <psa10 value="0.0134068352" flag="0"/>
      <psa30 value="0.0006394306" flag="0"/>
    </comp>
  </station>
  <station code="ANDN" name="ANDN" netid="TU" insttype="T" lat="37.58" lon="36.3452">
    <comp name="--.HHZ">
      <acc value="0.0754663083" flag="0"/>
      <vel value="0.0386497355" flag="0"/>
      <psa03 value="0.1761631212" flag="0"/>
      <psa10 value="0.0290525961" flag="0"/>
      <psa30 value="0.0018646332" flag="0"/>
    </comp>
    <comp name="--.HHN">
      <acc value="0.2110527803" flag="0"/>
      <vel value="0.0801430034" flag="0"/>
      <psa03 value="0.3036563194" flag="0"/>
      <psa10 value="0.0740376733" flag="0"/>
      <psa30 value="0.0041685714" flag="0"/>
    </comp>
    <comp name="--.HHE">
      <acc value="0.2125769165" flag="0"/>
      <vel value="0.0549725093" flag="0"/>
      <psa03 value="0.3903524493" flag="0"/>
      <psa10 value="0.0692772220" flag="0"/>
      <psa30 value="0.0042474231" flag="0"/>
    </comp>
  </station>
</stationlist>
