<?xml version="1.0" encoding="UTF-8" standalone="yes"?>
<!DOCTYPE earthquake SYSTEM "stationlist.dtd">
<stationlist created="" xmlns="ch.ethz.sed.shakemap.usgs.xml">
  <station code="CEYT" name="CEYT" netid="KO" insttype="CMG-3ESP" lat="37.0105" lon="35.7478">
    <comp name="--.HHZ">
      <acc value="0.0058931546" flag="0"/>
      <vel value="0.0025506950" flag="0"/>
      <psa03 value="0.0155005279" flag="0"/>
      <psa10 value="0.0025498660" flag="0"/>
      <psa30 value="0.0006945804" flag="0"/>
    </comp>
    <comp name="--.HHE">
      <acc value="0.0090748777" flag="0"/>
      <vel value="0.0045393305" flag="0"/>
      <psa03 value="0.0203501697" flag="0"/>
      <psa10 value="0.0035681942" flag="0"/>
      <psa30 value="0.0005033630" flag="0"/>
    </comp>
    <comp name="--.HHN">
      <acc value="0.0072111156" flag="0"/>
      <vel value="0.0029298746" flag="0"/>
      <psa03 value="0.0171099051" flag="0"/>
      <psa10 value="0.0041868720" flag="0"/>
      <psa30 value="0.0006923394" flag="0"/>
    </comp>
  </station>
  <station code="GAZ" name="GAZ" netid="KO" insttype="CMG-3T" lat="37.1721" lon="37.2096">
    <comp name="--.HHE">
      <acc value="0.0412815049" flag="0"/>
      <vel value="0.0280765032" flag="0"/>
      <psa03 value="0.0791695421" flag="0"/>
      <psa10 value="0.0460320798" flag="0"/>
      <psa30 value="0.0020856610" flag="0"/>
    </comp>
    <comp name="--.HHN">
      <acc value="0.0295231309" flag="0"/>
      <vel value="0.0162459752" flag="0"/>
      <psa03 value="0.0578446839" flag="0"/>
      <psa10 value="0.0246876432" flag="0"/>
      <psa30 value="0.0010164398" flag="0"/>
    </comp>
    <comp name="--.HHZ">
      <acc value="0.0219626808" flag="0"/>
      <vel value="0.0127004996" flag="0"/>
      <psa03 value="0.0437382712" flag="0"/>
      <psa10 value="0.0094330499" flag="0"/>
      <psa30 value="0.0009038957" flag="0"/>
    </comp>
  </station>
  <station code="KHMN" name="KHMN" netid="KO" insttype="CMG-5T" lat="37.3916" lon="37.1574">
    <comp name="--.HNN">
      <acc value="0.0794013528" flag="0"/>
      <vel value="0.0179702374" flag="0"/>
      <psa03 value="0.0933233979" flag="0"/>
      <psa10 value="0.0150516966" flag="0"/>
      <psa30 value="0.0019945537" flag="0"/>
    </comp>
    <comp name="--.HNE">
      <acc value="0.0858177307" flag="0"/>
      <vel value="0.0245963582" flag="0"/>
      <psa03 value="0.1151226185" flag="0"/>
      <psa10 value="0.0159526960" flag="0"/>
      <psa30 value="0.0012209863" flag="0"/>
    </comp>
    <comp name="--.HNZ">
      <acc value="0.0415580847" flag="0"/>
      <vel value="0.0097165078" flag="0"/>
      <psa03 value="0.0436432541" flag="0"/>
      <psa10 value="0.0133313779" flag="0"/>
      <psa30 value="0.0011199641" flag="0"/>
    </comp>
  </station>
  <station code="SARI" name="SARI" netid="KO" insttype="CMG-3T" lat="38.4072" lon="36.4181">
    <comp name="--.HHE">
      <acc value="0.0283458580" flag="0"/>
      <vel value="0.0117310246" flag="0"/>
      <psa03 value="0.0387707351" flag="0"/>
      <psa10 value="0.0070569318" flag="0"/>
      <psa30 value="0.0006069963" flag="0"/>
    </comp>
    <comp name="--.HHN">
      <acc value="0.0263701942" flag="0"/>
      <vel value="0.0096489203" flag="0"/>
      <psa03 value="0.0332944615" flag="0"/>
      <psa10 value="0.0084802995" flag="0"/>
      <psa30 value="0.0004412187" flag="0"/>
    </comp>
    <comp name="--.HHZ">
      <acc value="0.0158815745" flag="0"/>
      <vel value="0.0076749298" flag="0"/>
      <psa03 value="0.0212282401" flag="0"/>
      <psa10 value="0.0092411645" flag="0"/>
      <psa30 value="0.0004284593" flag="0"/>
    </comp>
  </station>
  <station code="TAHT" name="TAHT" netid="KO" insttype="CMG-3ESPC" lat="36.3755" lon="36.1855">
    <comp name="--.HHE">
      <acc value="0.1463428778" flag="0"/>
      <vel value="0.0439727541" flag="0"/>
      <psa03 value="0.2363641722" flag="0"/>
      <psa10 value="0.0212821403" flag="0"/>
      <psa30 value="0.0017435275" flag="0"/>
    </comp>
    <comp name="--.HHN">
      <acc value="0.0946870256" flag="0"/>
      <vel value="0.0211488594" flag="0"/>
      <psa03 value="0.1529011887" flag="0"/>
      <psa10 value="0.0124974642" flag="0"/>
      <psa30 value="0.0007949733" flag="0"/>
    </comp>
    <comp name="--.HHZ">
      <acc value="0.0843788934" flag="0"/>
      <vel value="0.0228257386" flag="0"/>
      <psa03 value="0.0936789690" flag="0"/>
      <psa10 value="0.0134068352" flag="0"/>
      <psa30 value="0.0006394172" flag="0"/>
    </comp>
  </station>
  <station code="ANDN" name="ANDN" netid="TU" insttype="T" lat="37.58" lon="36.3452">
    <comp name="--.HHE">
      <acc value="0.2125769166" flag="0"/>
      <vel value="0.0549725096" flag="0"/>
      <psa03 value="0.3903524493" flag="0"/>
      <psa10 value="0.0692772219" flag="0"/>
      <psa30 value="0.0042474037" flag="0"/>
    </comp>
    <comp name="--.HHZ">
      <acc value="0.0754663083" flag="0"/>
      <vel value="0.0386497355" flag="0"/>
      <psa03 value="0.1761631212" flag="0"/>
      <psa10 value="0.0290525962" flag="0"/>
      <psa30 value="0.0018646643" flag="0"/>
    </comp>
    <comp name="--.HHN">
      <acc value="0.2110527802" flag="0"/>
      <vel value="0.0801430033" flag="0"/>
      <psa03 value="0.3036563194" flag="0"/>
      <psa10 value="0.0740376735" flag="0"/>
      <psa30 value="0.0041685884" flag="0"/>
    </comp>
  </station>
</stationlist>
