<?xml version="1.0" encoding="UTF-8" standalone="yes"?>
<!DOCTYPE earthquake SYSTEM "stationlist.dtd">
<stationlist created="" xmlns="ch.ethz.sed.shakemap.usgs.xml">
  <station code="DARE" name="DARE" netid="KO" insttype="CMG-3ESP" lat="38.5712" lon="37.4832">
    <comp name="--.HHE">
      <acc value="0.0032332800" flag="0"/>
      <vel value="0.0033737455" flag="0"/>
      <psa03 value="0.0085709624" flag="0"/>
      <psa10 value="0.0026024428" flag="0"/>
      <psa30 value="0.0002451689" flag="0"/>
    </comp>
    <comp name="--.HHN">
      <acc value="0.0035220673" flag="0"/>
      <vel value="0.0023816927" flag="0"/>
      <psa03 value="0.0085391179" flag="0"/>
      <psa10 value="0.0020369438" flag="0"/>
      <psa30 value="0.0002889365" flag="0"/>
    </comp>
    <comp name="--.HHZ">
      <acc value="0.0020395887" flag="0"/>
      <vel value="0.0014696892" flag="0"/>
      <psa03 value="0.0107045736" flag="0"/>
      <psa10 value="0.0018476649" flag="0"/>
      <psa30 value="0.0004062903" flag="0"/>
    </comp>
  </station>
  <station code="GAZ" name="GAZ" netid="KO" insttype="CMG-3T" lat="37.1721" lon="37.2096">
    <comp name="--.HHZ">
      <acc value="0.0071949211" flag="0"/>
      <vel value="0.0041999499" flag="0"/>
      <psa03 value="0.0210109061" flag="0"/>
      <psa10 value="0.0018547360" flag="0"/>
      <psa30 value="0.0006718980" flag="0"/>
    </comp>
    <comp name="--.HHE">
      <acc value="0.0137180369" flag="0"/>
      <vel value="0.0063739507" flag="0"/>
      <psa03 value="0.0275042005" flag="0"/>
      <psa10 value="0.0056326374" flag="0"/>
      <psa30 value="0.0003597826" flag="0"/>
    </comp>
    <comp name="--.HHN">
      <acc value="0.0091132635" flag="0"/>
      <vel value="0.0048985543" flag="0"/>
      <psa03 value="0.0257737289" flag="0"/>
      <psa10 value="0.0041344207" flag="0"/>
      <psa30 value="0.0003794507" flag="0"/>
    </comp>
  </station>
  <station code="SARI" name="SARI" netid="KO" insttype="CMG-3T" lat="38.4072" lon="36.4181">
    <comp name="--.HHN">
      <acc value="0.0313065723" flag="0"/>
      <vel value="0.0166664266" flag="0"/>
      <psa03 value="0.0751271105" flag="0"/>
      <psa10 value="0.0070069187" flag="0"/>
      <psa30 value="0.0004163725" flag="0"/>
    </comp>
    <comp name="--.HHE">
      <acc value="0.0375066956" flag="0"/>
      <vel value="0.0134877498" flag="0"/>
      <psa03 value="0.0866879182" flag="0"/>
      <psa10 value="0.0059965163" flag="0"/>
      <psa30 value="0.0006654583" flag="0"/>
    </comp>
    <comp name="--.HHZ">
      <acc value="0.0260989210" flag="0"/>
      <vel value="0.0093507418" flag="0"/>
      <psa03 value="0.0534742107" flag="0"/>
      <psa10 value="0.0075455945" flag="0"/>
      <psa30 value="0.0005887318" flag="0"/>
    </comp>
  </station>
  <station code="ANDN" name="ANDN" netid="TU" insttype="T" lat="37.58" lon="36.3452">
    <comp name="--.HHE">
      <acc value="0.0439062043" flag="0"/>
      <vel value="0.0245660996" flag="0"/>
      <psa03 value="0.0795415610" flag="0"/>
      <psa10 value="0.0520938264" flag="0"/>
      <psa30 value="0.0027368279" flag="0"/>
    </comp>
    <comp name="--.HHZ">
      <acc value="0.0334558049" flag="0"/>
      <vel value="0.0214794939" flag="0"/>
      <psa03 value="0.0552241939" flag="0"/>
      <psa10 value="0.0268706532" flag="0"/>
      <psa30 value="0.0021547003" flag="0"/>
    </comp>
    <comp name="--.HHN">
      <acc value="0.0862040308" flag="0"/>
      <vel value="0.0257168414" flag="0"/>
      <psa03 value="0.1229713135" flag="0"/>
      <psa10 value="0.0328054082" flag="0"/>
      <psa30 value="0.0038962190" flag="0"/>
    </comp>
  </station>
</stationlist>
