<?xml version="1.0" encoding="UTF-8" standalone="yes"?>
<!DOCTYPE earthquake SYSTEM "stationlist.dtd">
<stationlist created="" xmlns="ch.ethz.sed.shakemap.usgs.xml">
  <station code="CEYT" name="CEYT" netid="KO" insttype="CMG-3ESP" lat="37.0105" lon="35.7478">
    <comp name="--.HHE">
      <acc value="0.0023142086" flag="0"/>
      <vel value="0.0015450125" flag="0"/>
      <psa03 value="0.0056656821" flag="0"/>
      <psa10 value="0.0027340771" flag="0"/>
      <psa30 value="0.0003773765" flag="0"/>
    </comp>
    <comp name="--.HHZ">
      <acc value="0.0011686131" flag="0"/>
      <vel value="0.0013741358" flag="0"/>
      <psa03 value="0.0024782844" flag="0"/>
      <psa10 value="0.0024598144" flag="0"/>
      <psa30 value="0.0002826416" flag="0"/>
    </comp>
    <comp name="--.HHN">
      <acc value="0.0019192017" flag="0"/>
      <vel value="0.0014328200" flag="0"/>
      <psa03 value="0.0051007131" flag="0"/>
      <psa10 value="0.0021390662" flag="0"/>
      <psa30 value="0.0002924511" flag="0"/>
    </comp>
  </station>
  <station code="DARE" name="DARE" netid="KO" insttype="CMG-3ESP" lat="38.5712" lon="37.4832">
    <comp name="--.HHE">
      <acc value="0.0032332800" flag="0"/>
      <vel value="0.0033737464" flag="0"/>
      <psa03 value="0.0085709624" flag="0"/>
      <psa10 value="0.0026024428" flag="0"/>
      <psa30 value="0.0002451701" flag="0"/>
    </comp>
    <comp name="--.HHZ">
      <acc value="0.0020395888" flag="0"/>
      <vel value="0.0014696894" flag="0"/>
      <psa03 value="0.0107045736" flag="0"/>
      <psa10 value="0.0018476649" flag="0"/>
      <psa30 value="0.0004062915" flag="0"/>
    </comp>
    <comp name="--.HHN">
      <acc value="0.0035220673" flag="0"/>
      <vel value="0.0023816909" flag="0"/>
      <psa03 value="0.0085391179" flag="0"/>
      <psa10 value="0.0020369438" flag="0"/>
      <psa30 value="0.0002889352" flag="0"/>
    </comp>
  </station>
  <station code="GAZ" name="GAZ" netid="KO" insttype="CMG-3T" lat="37.1721" lon="37.2096">
    <comp name="--.HHE">
      <acc value="0.0137180374" flag="0"/>
      <vel value="0.0063739521" flag="0"/>
      <psa03 value="0.0275042005" flag="0"/>
      <psa10 value="0.0056326374" flag="0"/>
      <psa30 value="0.0003596968" flag="0"/>
    </comp>
    <comp name="--.HHZ">
      <acc value="0.0071949206" flag="0"/>
      <vel value="0.0041999499" flag="0"/>
      <psa03 value="0.0210109061" flag="0"/>
      <psa10 value="0.0018547360" flag="0"/>
      <psa30 value="0.0006719003" flag="0"/>
    </comp>
    <comp name="--.HHN">
      <acc value="0.0091132635" flag="0"/>
      <vel value="0.0048985537" flag="0"/>
      <psa03 value="0.0257737289" flag="0"/>
      <psa10 value="0.0041344208" flag="0"/>
      <psa30 value="0.0003794420" flag="0"/>
    </comp>
  </station>
  <station code="SARI" name="SARI" netid="KO" insttype="CMG-3T" lat="38.4072" lon="36.4181">
    <comp name="--.HHE">
      <acc value="0.0375066955" flag="0"/>
      <vel value="0.0134877507" flag="0"/>
      <psa03 value="0.0866879182" flag="0"/>
      <psa10 value="0.0059965166" flag="0"/>
      <psa30 value="0.0006655137" flag="0"/>
    </comp>
    <comp name="--.HHZ">
      <acc value="0.0260989211" flag="0"/>
      <vel value="0.0093507432" flag="0"/>
      <psa03 value="0.0534742107" flag="0"/>
      <psa10 value="0.0075455945" flag="0"/>
      <psa30 value="0.0005885913" flag="0"/>
    </comp>
    <comp name="--.HHN">
      <acc value="0.0313065724" flag="0"/>
      <vel value="0.0166664266" flag="0"/>
      <psa03 value="0.0751271105" flag="0"/>
      <psa10 value="0.0070069185" flag="0"/>
      <psa30 value="0.0004164422" flag="0"/>
    </comp>
  </station>
  <station code="ANDN" name="ANDN" netid="TU" insttype="T" lat="37.58" lon="36.3452">
    <comp name="--.HHZ">
      <acc value="0.0334558057" flag="0"/>
      <vel value="0.0214794927" flag="0"/>
      <psa03 value="0.0552241939" flag="0"/>
      <psa10 value="0.0268706532" flag="0"/>
      <psa30 value="0.0021550454" flag="0"/>
    </comp>
    <comp name="--.HHE">
      <acc value="0.0439062048" flag="0"/>
      <vel value="0.0245661019" flag="0"/>
      <psa03 value="0.0795415610" flag="0"/>
      <psa10 value="0.0520938262" flag="0"/>
      <psa30 value="0.0027368828" flag="0"/>
    </comp>
    <comp name="--.HHN">
      <acc value="0.0862040306" flag="0"/>
      <vel value="0.0257168423" flag="0"/>
      <psa03 value="0.1229713135" flag="0"/>
      <psa10 value="0.0328054096" flag="0"/>
      <psa30 value="0.0038962766" flag="0"/>
    </comp>
  </station>
</stationlist>
