<?xml version="1.0" encoding="UTF-8" standalone="yes"?>
<!DOCTYPE earthquake SYSTEM "stationlist.dtd">
<stationlist created="" xmlns="ch.ethz.sed.shakemap.usgs.xml">
  <station code="CEYT" name="CEYT" netid="KO" insttype="CMG-3ESP" lat="37.0105" lon="35.7478">
    <comp name="--.HHE">
      <acc value="0.0023142087" flag="0"/>
      <vel value="0.0015450147" flag="0"/>
      <psa03 value="0.0056656821" flag="0"/>
      <psa10 value="0.0027340771" flag="0"/>
      <psa30 value="0.0003773744" flag="0"/>
    </comp>
    <comp name="--.HHN">
      <acc value="0.0019192016" flag="0"/>
      <vel value="0.0014328192" flag="0"/>
      <psa03 value="0.0051007131" flag="0"/>
      <psa10 value="0.0021390662" flag="0"/>
      <psa30 value="0.0002924515" flag="0"/>
    </comp>
    <comp name="--.HHZ">
      <acc value="0.0011686129" flag="0"/>
      <vel value="0.0013741356" flag="0"/>
      <psa03 value="0.0024782844" flag="0"/>
      <psa10 value="0.0024598144" flag="0"/>
      <psa30 value="0.0002826474" flag="0"/>
    </comp>
  </station>
  <station code="DARE" name="DARE" netid="KO" insttype="CMG-3ESP" lat="38.5712" lon="37.4832">
    <comp name="--.HHZ">
      <acc value="0.0020395887" flag="0"/>
      <vel value="0.0014696896" flag="0"/>
      <psa03 value="0.0107045736" flag="0"/>
      <psa10 value="0.0018476649" flag="0"/>
      <psa30 value="0.0004062899" flag="0"/>
    </comp>
    <comp name="--.HHE">
      <acc value="0.0032332800" flag="0"/>
      <vel value="0.0033737458" flag="0"/>
      <psa03 value="0.0085709624" flag="0"/>
      <psa10 value="0.0026024428" flag="0"/>
      <psa30 value="0.0002451691" flag="0"/>
    </comp>
    <comp name="--.HHN">
      <acc value="0.0035220673" flag="0"/>
      <vel value="0.0023816926" flag="0"/>
      <psa03 value="0.0085391179" flag="0"/>
      <psa10 value="0.0020369438" flag="0"/>
      <psa30 value="0.0002889365" flag="0"/>
    </comp>
  </station>
  <station code="GAZ" name="GAZ" netid="KO" insttype="CMG-3T" lat="37.1721" lon="37.2096">
    <comp name="--.HHZ">
      <acc value="0.0071949212" flag="0"/>
      <vel value="0.0041999499" flag="0"/>
      <psa03 value="0.0210109061" flag="0"/>
      <psa10 value="0.0018547360" flag="0"/>
      <psa30 value="0.0006718978" flag="0"/>
    </comp>
    <comp name="--.HHN">
      <acc value="0.0091132633" flag="0"/>
      <vel value="0.0048985532" flag="0"/>
      <psa03 value="0.0257737289" flag="0"/>
      <psa10 value="0.0041344207" flag="0"/>
      <psa30 value="0.0003794499" flag="0"/>
    </comp>
    <comp name="--.HHE">
      <acc value="0.0137180369" flag="0"/>
      <vel value="0.0063739510" flag="0"/>
      <psa03 value="0.0275042005" flag="0"/>
      <psa10 value="0.0056326374" flag="0"/>
      <psa30 value="0.0003597878" flag="0"/>
    </comp>
  </station>
  <station code="SARI" name="SARI" netid="KO" insttype="CMG-3T" lat="38.4072" lon="36.4181">
    <comp name="--.HHZ">
      <acc value="0.0260989209" flag="0"/>
      <vel value="0.0093507421" flag="0"/>
      <psa03 value="0.0534742107" flag="0"/>
      <psa10 value="0.0075455945" flag="0"/>
      <psa30 value="0.0005886333" flag="0"/>
    </comp>
    <comp name="--.HHN">
      <acc value="0.0313065725" flag="0"/>
      <vel value="0.0166664266" flag="0"/>
      <psa03 value="0.0751271105" flag="0"/>
      <psa10 value="0.0070069187" flag="0"/>
      <psa30 value="0.0004163823" flag="0"/>
    </comp>
    <comp name="--.HHE">
      <acc value="0.0375066955" flag="0"/>
      <vel value="0.0134877496" flag="0"/>
      <psa03 value="0.0866879182" flag="0"/>
      <psa10 value="0.0059965165" flag="0"/>
      <psa30 value="0.0006655186" flag="0"/>
    </comp>
  </station>
  <station code="ANDN" name="ANDN" netid="TU" insttype="T" lat="37.58" lon="36.3452">
    <comp name="--.HHN">
      <acc value="0.0862040308" flag="0"/>
      <vel value="0.0257168414" flag="0"/>
      <psa03 value="0.1229713135" flag="0"/>
      <psa10 value="0.0328054076" flag="0"/>
      <psa30 value="0.0038962508" flag="0"/>
    </comp>
    <comp name="--.HHZ">
      <acc value="0.0334558052" flag="0"/>
      <vel value="0.0214794937" flag="0"/>
      <psa03 value="0.0552241939" flag="0"/>
      <psa10 value="0.0268706532" flag="0"/>
      <psa30 value="0.0021546227" flag="0"/>
    </comp>
    <comp name="--.HHE">
      <acc value="0.0439062043" flag="0"/>
      <vel value="0.0245661018" flag="0"/>
      <psa03 value="0.0795415610" flag="0"/>
      <psa10 value="0.0520938264" flag="0"/>
      <psa30 value="0.0027369020" flag="0"/>
    </comp>
  </station>
</stationlist>
