<stationlist created="1775820640">
	<station code="BLY" name="BLY" netid="MN" source="Mediterranean Very Broadband Seismographic Network (MedNet)" insttype="" lat="44.7488" lon="17.1839">
		<comp name="--.HNE" depth="1.0">
			<acc value="0.0184576836234628" flag="0"/>
			<vel value="0.014877962515278" flag="0"/>
			<psa03 value="0.0605141337644944" flag="0"/>
			<psa10 value="0.0170533659517858" flag="0"/>
			<psa30 value="0.00149055155422392" flag="0"/>
		</comp>
		<comp name="--.HNN" depth="1.0">
			<acc value="0.0210655681169466" flag="0"/>
			<vel value="0.0211288174270787" flag="0"/>
			<psa03 value="0.0424240421554135" flag="0"/>
			<psa10 value="0.0156097959473888" flag="0"/>
			<psa30 value="0.00225717452673404" flag="0"/>
		</comp>
		<comp name="--.HNZ" depth="1.0">
			<acc value="0.0138045904458204" flag="0"/>
			<vel value="0.0102297494443001" flag="0"/>
			<psa03 value="0.0541946005427851" flag="0"/>
			<psa10 value="0.00665748040038546" flag="0"/>
			<psa30 value="0.00246054758253665" flag="0"/>
		</comp>
	</station>
</stationlist>
