<?xml version="1.0" encoding="UTF-8" standalone="yes"?>
<!DOCTYPE earthquake SYSTEM "stationlist.dtd">
<stationlist created="" xmlns="ch.ethz.sed.shakemap.usgs.xml">
  <station code="BLY" name="BLY" netid="MN" insttype="" lat="44.7488" lon="17.1839">
    <comp name="--.HHE">
      <acc value="0.0182516710" flag="0"/>
      <vel value="0.0143116679" flag="0"/>
      <psa03 value="0.0608433992" flag="0"/>
      <psa10 value="0.0165748878" flag="0"/>
      <psa30 value="0.0012457168" flag="0"/>
    </comp>
    <comp name="--.HHZ">
      <acc value="0.0140052230" flag="0"/>
      <vel value="0.0105959669" flag="0"/>
      <psa03 value="0.0549236751" flag="0"/>
      <psa10 value="0.0066904981" flag="0"/>
      <psa30 value="0.0021803624" flag="0"/>
    </comp>
    <comp name="--.HHN">
      <acc value="0.0214148430" flag="0"/>
      <vel value="0.0209544071" flag="0"/>
      <psa03 value="0.0413110481" flag="0"/>
      <psa10 value="0.0154193244" flag="0"/>
      <psa30 value="0.0020606876" flag="0"/>
    </comp>
  </station>
</stationlist>
