<?xml version="1.0" encoding="UTF-8" standalone="yes"?>
<!DOCTYPE earthquake SYSTEM "stationlist.dtd">
<stationlist created="" xmlns="ch.ethz.sed.shakemap.usgs.xml">
  <station code="AYDB" name="AYDB" netid="KO" insttype="CMG-3ESPC" lat="37.9467" lon="27.8908">
    <comp name="--.HHZ">
      <acc value="0.0695293392" flag="0"/>
      <vel value="0.0226978566" flag="0"/>
      <psa03 value="0.0589295828" flag="0"/>
      <psa10 value="0.0136921564" flag="0"/>
      <psa30 value="0.0029445384" flag="0"/>
    </comp>
    <comp name="--.HHN">
      <acc value="0.0893168677" flag="0"/>
      <vel value="0.0286274531" flag="0"/>
      <psa03 value="0.1008907395" flag="0"/>
      <psa10 value="0.0233288286" flag="0"/>
      <psa30 value="0.0025944282" flag="0"/>
    </comp>
  </station>
  <station code="BLCB" name="BLCB" netid="KO" insttype="CMG-3T" lat="38.3853" lon="27.042">
    <comp name="--.HHN">
      <acc value="0.0000357757" flag="0"/>
      <vel value="0.0000082156" flag="0"/>
      <psa03 value="0.0000485581" flag="0"/>
      <psa10 value="0.0000041593" flag="0"/>
      <psa30 value="0.0000009516" flag="0"/>
    </comp>
    <comp name="--.HHE">
      <acc value="0.0335865384" flag="0"/>
      <vel value="0.0181793777" flag="0"/>
      <psa03 value="0.1219773486" flag="0"/>
      <psa10 value="0.0109947726" flag="0"/>
      <psa30 value="0.0012281084" flag="0"/>
    </comp>
    <comp name="--.HHZ">
      <acc value="0.0185058166" flag="0"/>
      <vel value="0.0053155730" flag="0"/>
      <psa03 value="0.0346648515" flag="0"/>
      <psa10 value="0.0046108920" flag="0"/>
      <psa30 value="0.0016129999" flag="0"/>
    </comp>
  </station>
  <station code="BODT" name="BODT" netid="KO" insttype="CMG-3ESP" lat="37.0622" lon="27.3103">
    <comp name="--.HHN">
      <acc value="0.0129405138" flag="0"/>
      <vel value="0.0090394414" flag="0"/>
      <psa03 value="0.0218543908" flag="0"/>
      <psa10 value="0.0120222354" flag="0"/>
      <psa30 value="0.0007917203" flag="0"/>
    </comp>
    <comp name="--.HHZ">
      <acc value="0.0085762925" flag="0"/>
      <vel value="0.0070522720" flag="0"/>
      <psa03 value="0.0119445938" flag="0"/>
      <psa10 value="0.0093805718" flag="0"/>
      <psa30 value="0.0010245330" flag="0"/>
    </comp>
    <comp name="--.HHE">
      <acc value="0.0135561144" flag="0"/>
      <vel value="0.0114263350" flag="0"/>
      <psa03 value="0.0274428037" flag="0"/>
      <psa10 value="0.0125301343" flag="0"/>
      <psa30 value="0.0007104213" flag="0"/>
    </comp>
  </station>
  <station code="KULA" name="KULA" netid="KO" insttype="CMG-3T" lat="38.5145" lon="28.6607">
    <comp name="--.HHE">
      <acc value="0.0040765944" flag="0"/>
      <vel value="0.0027090891" flag="0"/>
      <psa03 value="0.0064969829" flag="0"/>
      <psa10 value="0.0026871395" flag="0"/>
      <psa30 value="0.0003274975" flag="0"/>
    </comp>
    <comp name="--.HHN">
      <acc value="0.0056363520" flag="0"/>
      <vel value="0.0033066495" flag="0"/>
      <psa03 value="0.0159560985" flag="0"/>
      <psa10 value="0.0032038391" flag="0"/>
      <psa30 value="0.0004137488" flag="0"/>
    </comp>
    <comp name="--.HHZ">
      <acc value="0.0042334117" flag="0"/>
      <vel value="0.0026768606" flag="0"/>
      <psa03 value="0.0061593827" flag="0"/>
      <psa10 value="0.0028042925" flag="0"/>
      <psa30 value="0.0004519247" flag="0"/>
    </comp>
  </station>
  <station code="KUSD" name="KUSD" netid="KO" insttype="CMG-5T" lat="37.8606" lon="27.2868">
    <comp name="--.HNE">
      <acc value="0.0610597779" flag="0"/>
      <vel value="0.0232652701" flag="0"/>
      <psa03 value="0.0916830184" flag="0"/>
      <psa10 value="0.0319598501" flag="0"/>
      <psa30 value="0.0068594208" flag="0"/>
    </comp>
    <comp name="--.HNZ">
      <acc value="0.0537451002" flag="0"/>
      <vel value="0.0160302599" flag="0"/>
      <psa03 value="0.0549424929" flag="0"/>
      <psa10 value="0.0194954354" flag="0"/>
      <psa30 value="0.0040503569" flag="0"/>
    </comp>
    <comp name="--.HNN">
      <acc value="0.0972413131" flag="0"/>
      <vel value="0.0234602022" flag="0"/>
      <psa03 value="0.1678787027" flag="0"/>
      <psa10 value="0.0298362640" flag="0"/>
      <psa30 value="0.0029125913" flag="0"/>
    </comp>
  </station>
  <station code="MLSB" name="MLSB" netid="KO" insttype="CMG-3ESP" lat="37.2953" lon="27.7767">
    <comp name="--.HHZ">
      <acc value="0.0069798102" flag="0"/>
      <vel value="0.0069838183" flag="0"/>
      <psa03 value="0.0126143649" flag="0"/>
      <psa10 value="0.0092103317" flag="0"/>
      <psa30 value="0.0015202799" flag="0"/>
    </comp>
    <comp name="--.HHN">
      <acc value="0.0075209690" flag="0"/>
      <vel value="0.0057287358" flag="0"/>
      <psa03 value="0.0161382700" flag="0"/>
      <psa10 value="0.0109846771" flag="0"/>
      <psa30 value="0.0008228485" flag="0"/>
    </comp>
    <comp name="--.HHE">
      <acc value="0.0106238151" flag="0"/>
      <vel value="0.0118389695" flag="0"/>
      <psa03 value="0.0159839145" flag="0"/>
      <psa10 value="0.0167687686" flag="0"/>
      <psa30 value="0.0022144909" flag="0"/>
    </comp>
  </station>
  <station code="NAZL" name="NAZL" netid="KO" insttype="CMG-5T" lat="37.9641" lon="28.2922">
    <comp name="--.HNE">
      <acc value="0.0511296111" flag="0"/>
      <vel value="0.0219174666" flag="0"/>
      <psa03 value="0.1197569319" flag="0"/>
      <psa10 value="0.0104382995" flag="0"/>
      <psa30 value="0.0012327184" flag="0"/>
    </comp>
    <comp name="--.HNN">
      <acc value="0.0425158052" flag="0"/>
      <vel value="0.0190616077" flag="0"/>
      <psa03 value="0.1083289702" flag="0"/>
      <psa10 value="0.0110625005" flag="0"/>
      <psa30 value="0.0011327180" flag="0"/>
    </comp>
    <comp name="--.HNZ">
      <acc value="0.0200413614" flag="0"/>
      <vel value="0.0089802884" flag="0"/>
      <psa03 value="0.0455840264" flag="0"/>
      <psa10 value="0.0036281273" flag="0"/>
      <psa30 value="0.0011355091" flag="0"/>
    </comp>
  </station>
  <station code="YER" name="YER" netid="KO" insttype="CMG-3T" lat="37.1336" lon="28.284">
    <comp name="--.HHZ">
      <acc value="0.0024467642" flag="0"/>
      <vel value="0.0027250076" flag="0"/>
      <psa03 value="0.0038836125" flag="0"/>
      <psa10 value="0.0060422365" flag="0"/>
      <psa30 value="0.0009068180" flag="0"/>
    </comp>
    <comp name="--.HHE">
      <acc value="0.0031277703" flag="0"/>
      <vel value="0.0017748119" flag="0"/>
      <psa03 value="0.0053320509" flag="0"/>
      <psa10 value="0.0028951298" flag="0"/>
      <psa30 value="0.0007619316" flag="0"/>
    </comp>
    <comp name="--.HHN">
      <acc value="0.0034967665" flag="0"/>
      <vel value="0.0031075897" flag="0"/>
      <psa03 value="0.0076362840" flag="0"/>
      <psa10 value="0.0050191442" flag="0"/>
      <psa30 value="0.0005101657" flag="0"/>
    </comp>
  </station>
  <station code="AYDN" name="AYDN" netid="TU" insttype="T" lat="37.6608" lon="27.8792">
    <comp name="--.HHZ">
      <acc value="0.0602980159" flag="0"/>
      <vel value="0.0154748368" flag="0"/>
      <psa03 value="0.0252075809" flag="0"/>
      <psa10 value="0.0117909947" flag="0"/>
      <psa30 value="0.0022419533" flag="0"/>
    </comp>
    <comp name="--.HHE">
      <acc value="0.1018200642" flag="0"/>
      <vel value="0.0230451779" flag="0"/>
      <psa03 value="0.1281348961" flag="0"/>
      <psa10 value="0.0124825102" flag="0"/>
      <psa30 value="0.0020770508" flag="0"/>
    </comp>
    <comp name="--.HHN">
      <acc value="0.0863294296" flag="0"/>
      <vel value="0.0196175974" flag="0"/>
      <psa03 value="0.0896245247" flag="0"/>
      <psa10 value="0.0104776578" flag="0"/>
      <psa30 value="0.0021092617" flag="0"/>
    </comp>
  </station>
</stationlist>
