<stationlist created="1778136036">
	<station code="ANTO" name="ANTO" netid="IU" source="Global Seismograph Network - IRIS/USGS (GSN)" insttype="" lat="39.8681" lon="32.79356">
		<comp name="20.HN1" depth="0.0">
			<acc value="0.285957433299644" flag="0"/>
			<vel value="0.0928497149372963" flag="0"/>
			<psa03 value="0.35699806660719" flag="0"/>
			<psa10 value="0.0479148764895734" flag="0"/>
			<psa30 value="0.0043467053729651" flag="0"/>
		</comp>
		<comp name="20.HN2" depth="0.0">
			<acc value="0.245000260472758" flag="0"/>
			<vel value="0.0860684898698879" flag="0"/>
			<psa03 value="0.336953558042205" flag="0"/>
			<psa10 value="0.0505282687781467" flag="0"/>
			<psa30 value="0.00844777603159589" flag="0"/>
		</comp>
		<comp name="20.HNZ" depth="0.0">
			<acc value="0.125535859171585" flag="0"/>
			<vel value="0.0581907996921456" flag="0"/>
			<psa03 value="0.279236111504634" flag="0"/>
			<psa10 value="0.034566039145012" flag="0"/>
			<psa30 value="0.00473730483674261" flag="0"/>
		</comp>
	</station>
	<station code="KMON" name="KMON" netid="KO" source="Bogazici University Kandilli Observatory And Earthquake Research Institute (KOERI)" insttype="" lat="41.3738" lon="33.7839">
		<comp name="--.HNE" depth="0.0">
			<acc value="0.00856699425140269" flag="0"/>
			<vel value="0.0128096964641828" flag="0"/>
			<psa03 value="0.0227737831687003" flag="0"/>
			<psa10 value="0.0193165528633065" flag="0"/>
			<psa30 value="0.00467511316954321" flag="0"/>
		</comp>
		<comp name="--.HNN" depth="0.0">
			<acc value="0.00954752438510578" flag="0"/>
			<vel value="0.0108372401342773" flag="0"/>
			<psa03 value="0.016957296308325" flag="0"/>
			<psa10 value="0.0135260164827697" flag="0"/>
			<psa30 value="0.0024102626705263" flag="0"/>
		</comp>
		<comp name="--.HNZ" depth="0.0">
			<acc value="0.00720175718647535" flag="0"/>
			<vel value="0.00693341478913434" flag="0"/>
			<psa03 value="0.0187917267796741" flag="0"/>
			<psa10 value="0.0141018486819469" flag="0"/>
			<psa30 value="0.00112437165231717" flag="0"/>
		</comp>
	</station>
	<station code="KOZK" name="KOZK" netid="KO" source="Bogazici University Kandilli Observatory And Earthquake Research Institute (KOERI)" insttype="" lat="39.2101" lon="34.868">
		<comp name="--.HNE" depth="0.0">
			<acc value="0.339955148912176" flag="0"/>
			<vel value="0.223676231190657" flag="0"/>
			<psa03 value="1.43779080967816" flag="0"/>
			<psa10 value="0.190499787962748" flag="0"/>
			<psa30 value="0.0185326694033543" flag="0"/>
		</comp>
		<comp name="--.HNN" depth="0.0">
			<acc value="0.291096599483978" flag="0"/>
			<vel value="0.19813191667933" flag="0"/>
			<psa03 value="0.69847058751784" flag="0"/>
			<psa10 value="0.387378024900997" flag="0"/>
			<psa30 value="0.0309454997854615" flag="0"/>
		</comp>
		<comp name="--.HNZ" depth="0.0">
			<acc value="0.346270141926368" flag="0"/>
			<vel value="0.184578830487214" flag="0"/>
			<psa03 value="0.953456423035371" flag="0"/>
			<psa10 value="0.0818527350536649" flag="0"/>
			<psa30 value="0.00680931642523478" flag="0"/>
		</comp>
	</station>
	<station code="YUVA" name="YUVA" netid="KO" source="Bogazici University Kandilli Observatory And Earthquake Research Institute (KOERI)" insttype="" lat="40.391" lon="31.6872">
		<comp name="--.HNE" depth="0.0">
			<acc value="0.0700554033698995" flag="0"/>
			<vel value="0.0768369423778453" flag="0"/>
			<psa03 value="0.227156183000966" flag="0"/>
			<psa10 value="0.0511524225604715" flag="0"/>
			<psa30 value="0.0105470803661252" flag="0"/>
		</comp>
		<comp name="--.HNN" depth="0.0">
			<acc value="0.0819891768254631" flag="0"/>
			<vel value="0.101686302281459" flag="0"/>
			<psa03 value="0.256417586129315" flag="0"/>
			<psa10 value="0.106992038686273" flag="0"/>
			<psa30 value="0.0366546053499529" flag="0"/>
		</comp>
		<comp name="--.HNZ" depth="0.0">
			<acc value="0.0513920004071257" flag="0"/>
			<vel value="0.0435148007897188" flag="0"/>
			<psa03 value="0.147783508460152" flag="0"/>
			<psa10 value="0.063695900185904" flag="0"/>
			<psa30 value="0.0094441849729848" flag="0"/>
		</comp>
	</station>
</stationlist>
