<?xml version="1.0" encoding="UTF-8" standalone="yes"?>
<!DOCTYPE earthquake SYSTEM "stationlist.dtd">
<stationlist created="" xmlns="ch.ethz.sed.shakemap.usgs.xml">
  <station code="KULU" name="KULU" netid="KO" insttype="30s," lat="39.0343" lon="33.0023">
    <comp name="--.HHE">
      <acc value="0.0110623906" flag="0"/>
      <vel value="0.0059984031" flag="0"/>
      <psa03 value="0.0210696815" flag="0"/>
      <psa10 value="0.0119134527" flag="0"/>
      <psa30 value="0.0012227675" flag="0"/>
    </comp>
    <comp name="--.HHZ">
      <acc value="0.0120243159" flag="0"/>
      <vel value="0.0029214359" flag="0"/>
      <psa03 value="0.0125098859" flag="0"/>
      <psa10 value="0.0018823978" flag="0"/>
      <psa30 value="0.0005693216" flag="0"/>
    </comp>
    <comp name="--.HHN">
      <acc value="0.0099508560" flag="0"/>
      <vel value="0.0039122956" flag="0"/>
      <psa03 value="0.0218044801" flag="0"/>
      <psa10 value="0.0043725132" flag="0"/>
      <psa30 value="0.0003946332" flag="0"/>
    </comp>
  </station>
  <station code="SAFT" name="SAFT" netid="KO" insttype="100" lat="41.2398" lon="32.6872">
    <comp name="--.HNE">
      <acc value="0.0007070683" flag="0"/>
      <vel value="0.0005482597" flag="0"/>
      <psa03 value="0.0015051006" flag="0"/>
      <psa10 value="0.0009936236" flag="0"/>
      <psa30 value="0.0001255134" flag="0"/>
    </comp>
    <comp name="--.HNZ">
      <acc value="0.0009523803" flag="0"/>
      <vel value="0.0005681908" flag="0"/>
      <psa03 value="0.0018575718" flag="0"/>
      <psa10 value="0.0005023777" flag="0"/>
      <psa30 value="0.0001678127" flag="0"/>
    </comp>
    <comp name="--.HNN">
      <acc value="0.0008647302" flag="0"/>
      <vel value="0.0006366848" flag="0"/>
      <psa03 value="0.0021123045" flag="0"/>
      <psa10 value="0.0004670531" flag="0"/>
      <psa30 value="0.0001244458" flag="0"/>
    </comp>
  </station>
  <station code="SERE" name="SERE" netid="KO" insttype="30s," lat="38.9463" lon="33.564">
    <comp name="--.HHE">
      <acc value="0.0673869663" flag="0"/>
      <vel value="0.0316505667" flag="0"/>
      <psa03 value="0.1696728503" flag="0"/>
      <psa10 value="0.0193046291" flag="0"/>
      <psa30 value="0.0020030922" flag="0"/>
    </comp>
    <comp name="--.HHN">
      <acc value="0.0723683463" flag="0"/>
      <vel value="0.0272847268" flag="0"/>
      <psa03 value="0.1316383302" flag="0"/>
      <psa10 value="0.0187452217" flag="0"/>
      <psa30 value="0.0020653206" flag="0"/>
    </comp>
    <comp name="--.HHZ">
      <acc value="0.0490343215" flag="0"/>
      <vel value="0.0183409859" flag="0"/>
      <psa03 value="0.1034089977" flag="0"/>
      <psa10 value="0.0149218343" flag="0"/>
      <psa30 value="0.0012508816" flag="0"/>
    </comp>
  </station>
  <station code="TOS" name="TOS" netid="KO" insttype="100" lat="41.0362" lon="34.0225">
    <comp name="--.HNN">
      <acc value="0.0087124681" flag="0"/>
      <vel value="0.0057965728" flag="0"/>
      <psa03 value="0.0221473242" flag="0"/>
      <psa10 value="0.0113779403" flag="0"/>
      <psa30 value="0.0018109121" flag="0"/>
    </comp>
    <comp name="--.HNE">
      <acc value="0.0083123283" flag="0"/>
      <vel value="0.0076229834" flag="0"/>
      <psa03 value="0.0213581572" flag="0"/>
      <psa10 value="0.0083130790" flag="0"/>
      <psa30 value="0.0014365634" flag="0"/>
    </comp>
    <comp name="--.HNZ">
      <acc value="0.0117221115" flag="0"/>
      <vel value="0.0054365297" flag="0"/>
      <psa03 value="0.0583698969" flag="0"/>
      <psa10 value="0.0070316506" flag="0"/>
      <psa30 value="0.0009741612" flag="0"/>
    </comp>
  </station>
  <station code="YUVA" name="YUVA" netid="KO" insttype="100" lat="40.391" lon="31.6872">
    <comp name="--.HNE">
      <acc value="0.0110751369" flag="0"/>
      <vel value="0.0119836192" flag="0"/>
      <psa03 value="0.0364445298" flag="0"/>
      <psa10 value="0.0080998423" flag="0"/>
      <psa30 value="0.0014675025" flag="0"/>
    </comp>
    <comp name="--.HNN">
      <acc value="0.0132783168" flag="0"/>
      <vel value="0.0138348341" flag="0"/>
      <psa03 value="0.0400435734" flag="0"/>
      <psa10 value="0.0167985973" flag="0"/>
      <psa30 value="0.0051995064" flag="0"/>
    </comp>
    <comp name="--.HNZ">
      <acc value="0.0082180906" flag="0"/>
      <vel value="0.0065785130" flag="0"/>
      <psa03 value="0.0234714883" flag="0"/>
      <psa10 value="0.0101350224" flag="0"/>
      <psa30 value="0.0014032217" flag="0"/>
    </comp>
  </station>
</stationlist>
