<?xml version="1.0" encoding="UTF-8" standalone="yes"?>
<!DOCTYPE earthquake SYSTEM "stationlist.dtd">
<stationlist created="" xmlns="ch.ethz.sed.shakemap.usgs.xml">
  <station code="GVD" name="GVD" netid="GE" insttype="STS-2/N" lat="34.8391" lon="24.0874">
    <comp name="--.HHE">
      <acc value="0.2809233663" flag="0"/>
      <vel value="0.0820032786" flag="0"/>
      <psa03 value="0.4963338530" flag="0"/>
      <psa10 value="0.0583435134" flag="0"/>
      <psa30 value="0.0129592806" flag="0"/>
    </comp>
    <comp name="--.HHN">
      <acc value="0.1372680613" flag="0"/>
      <vel value="0.0694820929" flag="0"/>
      <psa03 value="0.3500914529" flag="0"/>
      <psa10 value="0.0261656533" flag="0"/>
      <psa30 value="0.0039553770" flag="0"/>
    </comp>
    <comp name="--.HHZ">
      <acc value="0.0890054421" flag="0"/>
      <vel value="0.0271650827" flag="0"/>
      <psa03 value="0.1272455628" flag="0"/>
      <psa10 value="0.0273652072" flag="0"/>
      <psa30 value="0.0018146379" flag="0"/>
    </comp>
  </station>
  <station code="IMMV" name="IMMV" netid="GE" insttype="STS-2/N" lat="35.4606" lon="23.9811">
    <comp name="--.HHN">
      <acc value="0.0582475649" flag="0"/>
      <vel value="0.0338789490" flag="0"/>
      <psa03 value="0.2148506550" flag="0"/>
      <psa10 value="0.0498772235" flag="0"/>
      <psa30 value="0.0033098648" flag="0"/>
    </comp>
    <comp name="--.HHZ">
      <acc value="0.0322961954" flag="0"/>
      <vel value="0.0234711841" flag="0"/>
      <psa03 value="0.0902193411" flag="0"/>
      <psa10 value="0.0199476811" flag="0"/>
      <psa30 value="0.0011127874" flag="0"/>
    </comp>
    <comp name="--.HHE">
      <acc value="0.0625779954" flag="0"/>
      <vel value="0.0434212172" flag="0"/>
      <psa03 value="0.2035026874" flag="0"/>
      <psa10 value="0.0296156314" flag="0"/>
      <psa30 value="0.0023588558" flag="0"/>
    </comp>
  </station>
  <station code="IDI" name="IDI" netid="MN" insttype="" lat="35.288" lon="24.89">
    <comp name="--.HHZ">
      <acc value="0.0049178578" flag="0"/>
      <vel value="0.0031049657" flag="0"/>
      <psa03 value="0.0194902036" flag="0"/>
      <psa10 value="0.0033963540" flag="0"/>
      <psa30 value="0.0006200903" flag="0"/>
    </comp>
    <comp name="--.HHE">
      <acc value="0.0060895371" flag="0"/>
      <vel value="0.0037136646" flag="0"/>
      <psa03 value="0.0192063785" flag="0"/>
      <psa10 value="0.0050511991" flag="0"/>
      <psa30 value="0.0005964476" flag="0"/>
    </comp>
    <comp name="--.HHN">
      <acc value="0.0064996213" flag="0"/>
      <vel value="0.0047234286" flag="0"/>
      <psa03 value="0.0226840267" flag="0"/>
      <psa10 value="0.0056909938" flag="0"/>
      <psa30 value="0.0007300600" flag="0"/>
    </comp>
  </station>
</stationlist>
