<stationlist xmlns:esm="https://esm-db.eu/esmws/shakemap/1/" created="1784080524">
	<station code="ABEA" name="ABEA" netid="HC" source="Seismological Network of Crete (HC)" insttype="" lat="35.5163" lon="24.0113" esm:processing="manual (Paolucci et al 2011)" esm:quality="good">
		<comp name="--.HNE" depth="0.0">
			<acc value="0.0352849486400637" flag="0"/>
			<vel value="0.0371540194582819" flag="0"/>
			<psa03 value="0.133605829897194" flag="0"/>
			<psa10 value="0.0582263234581691" flag="0"/>
			<psa30 value="0.00534577204782914" flag="0"/>
		</comp>
		<comp name="--.HNN" depth="0.0">
			<acc value="0.041240910369756" flag="0"/>
			<vel value="0.034717245443278" flag="0"/>
			<psa03 value="0.140584021334796" flag="0"/>
			<psa10 value="0.0770743933002946" flag="0"/>
			<psa30 value="0.00455996999229948" flag="0"/>
		</comp>
		<comp name="--.HNZ" depth="0.0">
			<acc value="0.0197820718488353" flag="0"/>
			<vel value="0.0207089638445813" flag="0"/>
			<psa03 value="0.0676718162590444" flag="0"/>
			<psa10 value="0.0327869107219255" flag="0"/>
			<psa30 value="0.00164181834574111" flag="0"/>
		</comp>
	</station>
	<station code="ATEI" name="ATEI" netid="HC" source="Seismological Network of Crete (HC)" insttype="" lat="35.5193" lon="24.0432" esm:processing="automatic (Paolucci et al 2011)" esm:quality="best">
		<comp name="--.HNE" depth="0.0">
			<acc value="0.0287611964937405" flag="0"/>
			<vel value="0.0270967045646721" flag="0"/>
			<psa03 value="0.0813201422688186" flag="0"/>
			<psa10 value="0.0353709444014635" flag="0"/>
			<psa30 value="0.00355240657950149" flag="0"/>
		</comp>
		<comp name="--.HNN" depth="0.0">
			<acc value="0.0241251178720624" flag="0"/>
			<vel value="0.0225549987122724" flag="0"/>
			<psa03 value="0.077494065893394" flag="0"/>
			<psa10 value="0.0422007543429261" flag="0"/>
			<psa30 value="0.00419810018686907" flag="0"/>
		</comp>
		<comp name="--.HNZ" depth="0.0">
			<acc value="0.0192873772314493" flag="0"/>
			<vel value="0.013336952669927" flag="0"/>
			<psa03 value="0.0667073357000647" flag="0"/>
			<psa10 value="0.0227370287165481" flag="0"/>
			<psa30 value="0.00162998933295922" flag="0"/>
		</comp>
	</station>
	<station code="DEYA" name="DEYA" netid="HC" source="Seismological Network of Crete (HC)" insttype="" lat="35.4825" lon="24.014" esm:processing="manual (Paolucci et al 2011)" esm:quality="good">
		<comp name="--.HNE" depth="0.0">
			<acc value="0.080496257135391" flag="0"/>
			<vel value="0.0620273915816505" flag="0"/>
			<psa03 value="0.326186483253675" flag="0"/>
			<psa10 value="0.0972801243308108" flag="0"/>
			<psa30 value="0.0050686391057985" flag="0"/>
		</comp>
		<comp name="--.HNN" depth="0.0">
			<acc value="0.049881251895506" flag="0"/>
			<vel value="0.0429553473075726" flag="0"/>
			<psa03 value="0.17657442635583" flag="0"/>
			<psa10 value="0.0935118897037603" flag="0"/>
			<psa30 value="0.00498708787009603" flag="0"/>
		</comp>
		<comp name="--.HNZ" depth="0.0">
			<acc value="0.0352684549668244" flag="0"/>
			<vel value="0.02891218412508" flag="0"/>
			<psa03 value="0.115830944064909" flag="0"/>
			<psa10 value="0.032742830301814" flag="0"/>
			<psa30 value="0.00198851110410154" flag="0"/>
		</comp>
	</station>
	<station code="G0LD" name="G0LD" netid="HC" source="Seismological Network of Crete (HC)" insttype="" lat="35.4955" lon="24.0306" esm:processing="manual (Paolucci et al 2011)" esm:quality="good">
		<comp name="--.HNE" depth="0.0">
			<acc value="0.0757322594276917" flag="0"/>
			<vel value="0.0866590319966527" flag="0"/>
			<psa03 value="0.257489411576491" flag="0"/>
			<psa10 value="0.160852085661254" flag="0"/>
			<psa30 value="0.00762684440767806" flag="0"/>
		</comp>
		<comp name="--.HNN" depth="0.0">
			<acc value="0.0753626903783185" flag="0"/>
			<vel value="0.0727074929736761" flag="0"/>
			<psa03 value="0.261477759118275" flag="0"/>
			<psa10 value="0.105007668742703" flag="0"/>
			<psa30 value="0.00928538844474747" flag="0"/>
		</comp>
		<comp name="--.HNZ" depth="0.0">
			<acc value="0.0604214357974522" flag="0"/>
			<vel value="0.0541314404842722" flag="0"/>
			<psa03 value="0.181983659690992" flag="0"/>
			<psa10 value="0.107767544070899" flag="0"/>
			<psa30 value="0.00420645699046473" flag="0"/>
		</comp>
	</station>
	<station code="LENT" name="LENT" netid="HC" source="Seismological Network of Crete (HC)" insttype="" lat="35.5074" lon="24.0402" esm:processing="manual (Paolucci et al 2011)" esm:quality="good">
		<comp name="--.HNE" depth="0.0">
			<acc value="0.0305801936749452" flag="0"/>
			<vel value="0.0233845587922845" flag="0"/>
			<psa03 value="0.104491390791823" flag="0"/>
			<psa10 value="0.0462023294275753" flag="0"/>
			<psa30 value="0.00328011354142416" flag="0"/>
		</comp>
		<comp name="--.HNN" depth="0.0">
			<acc value="0.039917742176914" flag="0"/>
			<vel value="0.0317912309412312" flag="0"/>
			<psa03 value="0.130037562266976" flag="0"/>
			<psa10 value="0.0547989376606808" flag="0"/>
			<psa30 value="0.0043786946503644" flag="0"/>
		</comp>
		<comp name="--.HNZ" depth="0.0">
			<acc value="0.0417913952679609" flag="0"/>
			<vel value="0.0247041685120849" flag="0"/>
			<psa03 value="0.110146317486297" flag="0"/>
			<psa10 value="0.0236448776070984" flag="0"/>
			<psa30 value="0.00170015793961956" flag="0"/>
		</comp>
	</station>
	<station code="NERO" name="NERO" netid="HC" source="Seismological Network of Crete (HC)" insttype="" lat="35.474" lon="24.0423" esm:processing="manual (Paolucci et al 2011)" esm:quality="good">
		<comp name="--.HNE" depth="0.0">
			<acc value="0.0423314766611446" flag="0"/>
			<vel value="0.0293772086996392" flag="0"/>
			<psa03 value="0.139307593027685" flag="0"/>
			<psa10 value="0.0359506015509163" flag="0"/>
			<psa30 value="0.0019603323623982" flag="0"/>
		</comp>
		<comp name="--.HNN" depth="0.0">
			<acc value="0.0532540291737284" flag="0"/>
			<vel value="0.0379650678546293" flag="0"/>
			<psa03 value="0.148167221601264" flag="0"/>
			<psa10 value="0.0463760821878429" flag="0"/>
			<psa30 value="0.00261996335138058" flag="0"/>
		</comp>
		<comp name="--.HNZ" depth="0.0">
			<acc value="0.0372394236765324" flag="0"/>
			<vel value="0.0349428462751122" flag="0"/>
			<psa03 value="0.102347613360422" flag="0"/>
			<psa10 value="0.0352749980454998" flag="0"/>
			<psa30 value="0.00193465316127715" flag="0"/>
		</comp>
	</station>
	<station code="PASK" name="PASK" netid="HC" source="Seismological Network of Crete (HC)" insttype="" lat="35.4996" lon="24.0121" esm:processing="automatic (Paolucci et al 2011)" esm:quality="best">
		<comp name="--.HNE" depth="0.0">
			<acc value="0.0756256700259721" flag="0"/>
			<vel value="0.0563548665790211" flag="0"/>
			<psa03 value="0.226069892687667" flag="0"/>
			<psa10 value="0.0430563360211229" flag="0"/>
			<psa30 value="0.00429669755179377" flag="0"/>
		</comp>
		<comp name="--.HNN" depth="0.0">
			<acc value="0.0649354047343952" flag="0"/>
			<vel value="0.0429432310770107" flag="0"/>
			<psa03 value="0.161609257903568" flag="0"/>
			<psa10 value="0.0604760712427956" flag="0"/>
			<psa30 value="0.00555248657499878" flag="0"/>
		</comp>
		<comp name="--.HNZ" depth="0.0">
			<acc value="0.0311580746975388" flag="0"/>
			<vel value="0.0252929067989096" flag="0"/>
			<psa03 value="0.113132546559127" flag="0"/>
			<psa10 value="0.0360033375444068" flag="0"/>
			<psa30 value="0.00201944440328253" flag="0"/>
		</comp>
	</station>
	<station code="POLY" name="POLY" netid="HC" source="Seismological Network of Crete (HC)" insttype="" lat="35.5226" lon="24.0602" esm:processing="manual (Paolucci et al 2011)" esm:quality="best">
		<comp name="--.HNE" depth="0.0">
			<acc value="0.030866194467869" flag="0"/>
			<vel value="0.0257772376532732" flag="0"/>
			<psa03 value="0.0783644100077235" flag="0"/>
			<psa10 value="0.0303864348271619" flag="0"/>
			<psa30 value="0.0039592097782161" flag="0"/>
		</comp>
		<comp name="--.HNN" depth="0.0">
			<acc value="0.0406851838635864" flag="0"/>
			<vel value="0.03243565188912" flag="0"/>
			<psa03 value="0.116923141417511" flag="0"/>
			<psa10 value="0.0442368542245484" flag="0"/>
			<psa30 value="0.0028166209623176" flag="0"/>
		</comp>
		<comp name="--.HNZ" depth="0.0">
			<acc value="0.0169242470937602" flag="0"/>
			<vel value="0.0150799741349437" flag="0"/>
			<psa03 value="0.0535004243489471" flag="0"/>
			<psa10 value="0.0202611278252737" flag="0"/>
			<psa30 value="0.00148382548365392" flag="0"/>
		</comp>
	</station>
	<station code="CH01" name="CH01" netid="HI" source="ITSAK Strong Motion Network" insttype="" lat="35.517" lon="24.0208" esm:processing="manual (Paolucci et al 2011)" esm:quality="best">
		<comp name="--.HNE" depth="0.0">
			<acc value="0.0323837305473149" flag="0"/>
			<vel value="0.0275314190550336" flag="0"/>
			<psa03 value="0.101419593550341" flag="0"/>
			<psa10 value="0.0439606071744113" flag="0"/>
			<psa30 value="0.00625686198642109" flag="0"/>
		</comp>
		<comp name="--.HNN" depth="0.0">
			<acc value="0.0494141963049105" flag="0"/>
			<vel value="0.0370736087732429" flag="0"/>
			<psa03 value="0.133672532232486" flag="0"/>
			<psa10 value="0.0569013419348382" flag="0"/>
			<psa30 value="0.00540355379226895" flag="0"/>
		</comp>
		<comp name="--.HNZ" depth="0.0">
			<acc value="0.0195693887393731" flag="0"/>
			<vel value="0.0207292265406588" flag="0"/>
			<psa03 value="0.0491334058884517" flag="0"/>
			<psa10 value="0.0275001048719651" flag="0"/>
			<psa30 value="0.00192017032685839" flag="0"/>
		</comp>
	</station>
	<station code="ANKY" name="ANKY" netid="HL" source="National Observatory of Athens Seismic Network" insttype="" lat="35.86704" lon="23.30117" esm:processing="manual (Paolucci et al 2011)" esm:quality="bad">
		<comp name="00.HNE" depth="0.0">
			<acc value="0.010348027741295" flag="0"/>
			<vel value="0.00940408938070304" flag="0"/>
			<psa03 value="0.0236118896926565" flag="0"/>
			<psa10 value="0.0271353557091517" flag="0"/>
			<psa30 value="0.00295685816900689" flag="0"/>
		</comp>
		<comp name="00.HNN" depth="0.0">
			<acc value="0.00880213568981571" flag="0"/>
			<vel value="0.00813356241322945" flag="0"/>
			<psa03 value="0.0276353202876914" flag="0"/>
			<psa10 value="0.0111926202061482" flag="0"/>
			<psa30 value="0.00193327786183622" flag="0"/>
		</comp>
		<comp name="00.HNZ" depth="0.0">
			<acc value="0.00965107180270965" flag="0"/>
			<vel value="0.00594905802092911" flag="0"/>
			<psa03 value="0.0334197737918176" flag="0"/>
			<psa10 value="0.00758127956629501" flag="0"/>
			<psa30 value="0.000969738302902962" flag="0"/>
		</comp>
	</station>
	<station code="IMMV" name="IMMV" netid="HL" source="National Observatory of Athens Seismic Network" insttype="" lat="35.4606" lon="23.9811" esm:processing="manual (Paolucci et al 2011)" esm:quality="best">
		<comp name="--.HNE" depth="0.0">
			<acc value="0.0587554571832596" flag="0"/>
			<vel value="0.0417413187041592" flag="0"/>
			<psa03 value="0.191460433313881" flag="0"/>
			<psa10 value="0.028686570969557" flag="0"/>
			<psa30 value="0.00223494451243886" flag="0"/>
		</comp>
		<comp name="--.HNN" depth="0.0">
			<acc value="0.0553026335849972" flag="0"/>
			<vel value="0.0329794924315073" flag="0"/>
			<psa03 value="0.203312176767059" flag="0"/>
			<psa10 value="0.0483164832298622" flag="0"/>
			<psa30 value="0.00317663439477246" flag="0"/>
		</comp>
		<comp name="--.HNZ" depth="0.0">
			<acc value="0.0315135747466468" flag="0"/>
			<vel value="0.0225995400041541" flag="0"/>
			<psa03 value="0.0880608335982075" flag="0"/>
			<psa10 value="0.0197136909352891" flag="0"/>
			<psa30 value="0.00117191398771813" flag="0"/>
		</comp>
	</station>
	<station code="KSTE" name="KSTE" netid="HL" source="National Observatory of Athens Seismic Network" insttype="" lat="35.1801" lon="25.3372" esm:processing="manual (Paolucci et al 2011)" esm:quality="best">
		<comp name="--.HNE" depth="0.0">
			<acc value="0.00203380390252515" flag="0"/>
			<vel value="0.00205581644163523" flag="0"/>
			<psa03 value="0.00445244371556354" flag="0"/>
			<psa10 value="0.00381130998057979" flag="0"/>
			<psa30 value="0.000681628435788309" flag="0"/>
		</comp>
		<comp name="--.HNN" depth="0.0">
			<acc value="0.00257424713889803" flag="0"/>
			<vel value="0.00288571052126778" flag="0"/>
			<psa03 value="0.00574167397753248" flag="0"/>
			<psa10 value="0.0040611276235046" flag="0"/>
			<psa30 value="0.000653165196073895" flag="0"/>
		</comp>
		<comp name="--.HNZ" depth="0.0">
			<acc value="0.00209982456430087" flag="0"/>
			<vel value="0.00158441020083351" flag="0"/>
			<psa03 value="0.00524750940559383" flag="0"/>
			<psa10 value="0.00204447348321084" flag="0"/>
			<psa30 value="0.000789900816635914" flag="0"/>
		</comp>
	</station>
	<station code="KTHA" name="KTHA" netid="HL" source="National Observatory of Athens Seismic Network" insttype="" lat="36.2566" lon="23.0621" esm:processing="manual (Paolucci et al 2011)" esm:quality="bad">
		<comp name="--.HNE" depth="0.0">
			<acc value="0.0714252368678451" flag="0"/>
			<vel value="0.0524733310099864" flag="0"/>
			<psa03 value="0.21333440319037" flag="0"/>
			<psa10 value="0.0967598823674006" flag="0"/>
			<psa30 value="0.00437735664506028" flag="0"/>
		</comp>
		<comp name="--.HNN" depth="0.0">
			<acc value="0.0402798081119776" flag="0"/>
			<vel value="0.0284707451006218" flag="0"/>
			<psa03 value="0.135221770278468" flag="0"/>
			<psa10 value="0.0512493350169097" flag="0"/>
			<psa30 value="0.00429963107945655" flag="0"/>
		</comp>
		<comp name="--.HNZ" depth="0.0">
			<acc value="0.0335799923440078" flag="0"/>
			<vel value="0.0265815300988792" flag="0"/>
			<psa03 value="0.107566813273645" flag="0"/>
			<psa10 value="0.0558537662880132" flag="0"/>
			<psa30 value="0.00222092400031456" flag="0"/>
		</comp>
	</station>
	<station code="SIVA" name="SIVA" netid="HL" source="National Observatory of Athens Seismic Network" insttype="" lat="35.01777" lon="24.81204" esm:processing="manual (Paolucci et al 2011)" esm:quality="best">
		<comp name="00.HNE" depth="0.0">
			<acc value="0.0296714189341407" flag="0"/>
			<vel value="0.0264436131669912" flag="0"/>
			<psa03 value="0.0860124479023926" flag="0"/>
			<psa10 value="0.0327982252214428" flag="0"/>
			<psa30 value="0.00202519436751958" flag="0"/>
		</comp>
		<comp name="00.HNN" depth="0.0">
			<acc value="0.0249039469636066" flag="0"/>
			<vel value="0.0193876004760859" flag="0"/>
			<psa03 value="0.0538878666818217" flag="0"/>
			<psa10 value="0.0312292431591032" flag="0"/>
			<psa30 value="0.0018418424296872" flag="0"/>
		</comp>
		<comp name="00.HNZ" depth="0.0">
			<acc value="0.0184288001915623" flag="0"/>
			<vel value="0.0110019523271677" flag="0"/>
			<psa03 value="0.0389392982874123" flag="0"/>
			<psa10 value="0.0109785241483388" flag="0"/>
			<psa30 value="0.00171426658257956" flag="0"/>
		</comp>
	</station>
	<station code="KTHA" name="KTHA" netid="GE" source="GEOFON" insttype="" lat="36.2566" lon="23.0621" esm:processing="automatic (Paolucci et al 2011)" esm:quality="bad">
		<comp name="--.HNE" depth="0.0">
			<acc value="0" flag="1"/>
			<vel value="0" flag="1"/>
			<psa03 value="0" flag="1"/>
			<psa10 value="0" flag="1"/>
			<psa30 value="0" flag="1"/>
		</comp>
		<comp name="--.HNN" depth="0.0">
			<acc value="0" flag="1"/>
			<vel value="0" flag="1"/>
			<psa03 value="0" flag="1"/>
			<psa10 value="0" flag="1"/>
			<psa30 value="0" flag="1"/>
		</comp>
		<comp name="--.HNZ" depth="0.0">
			<acc value="0" flag="1"/>
			<vel value="0" flag="1"/>
			<psa03 value="0" flag="1"/>
			<psa10 value="0" flag="1"/>
			<psa30 value="0" flag="1"/>
		</comp>
	</station>
	<station code="MULT" name="MULT" netid="HC" source="Seismological Network of Crete (HC)" insttype="" lat="35.5091" lon="24.0118" esm:processing="automatic (Paolucci et al 2011)" esm:quality="bad">
		<comp name="--.HNE" depth="0.0">
			<acc value="0" flag="1"/>
			<vel value="0" flag="1"/>
			<psa03 value="0" flag="1"/>
			<psa10 value="0" flag="1"/>
			<psa30 value="0" flag="1"/>
		</comp>
		<comp name="--.HNN" depth="0.0">
			<acc value="0" flag="1"/>
			<vel value="0" flag="1"/>
			<psa03 value="0" flag="1"/>
			<psa10 value="0" flag="1"/>
			<psa30 value="0" flag="1"/>
		</comp>
		<comp name="--.HNZ" depth="0.0">
			<acc value="0" flag="1"/>
			<vel value="0" flag="1"/>
			<psa03 value="0" flag="1"/>
			<psa10 value="0" flag="1"/>
			<psa30 value="0" flag="1"/>
		</comp>
	</station>
	<station code="SOUD" name="SOUD" netid="HC" source="Seismological Network of Crete (HC)" insttype="" lat="35.4878" lon="24.0678" esm:processing="automatic (Paolucci et al 2011)" esm:quality="bad">
		<comp name="--.HNE" depth="0.0">
			<acc value="0" flag="1"/>
			<vel value="0" flag="1"/>
			<psa03 value="0" flag="1"/>
			<psa10 value="0" flag="1"/>
			<psa30 value="0" flag="1"/>
		</comp>
		<comp name="--.HNN" depth="0.0">
			<acc value="0" flag="1"/>
			<vel value="0" flag="1"/>
			<psa03 value="0" flag="1"/>
			<psa10 value="0" flag="1"/>
			<psa30 value="0" flag="1"/>
		</comp>
		<comp name="--.HNZ" depth="0.0">
			<acc value="0" flag="1"/>
			<vel value="0" flag="1"/>
			<psa03 value="0" flag="1"/>
			<psa10 value="0" flag="1"/>
			<psa30 value="0" flag="1"/>
		</comp>
	</station>
	<station code="TEFL" name="TEFL" netid="HC" source="Seismological Network of Crete (HC)" insttype="" lat="35.093273" lon="25.163418" esm:processing="automatic (Paolucci et al 2011)" esm:quality="bad">
		<comp name="--.HNE" depth="0.0">
			<acc value="0" flag="1"/>
			<vel value="0" flag="1"/>
			<psa03 value="0" flag="1"/>
			<psa10 value="0" flag="1"/>
			<psa30 value="0" flag="1"/>
		</comp>
		<comp name="--.HNN" depth="0.0">
			<acc value="0" flag="1"/>
			<vel value="0" flag="1"/>
			<psa03 value="0" flag="1"/>
			<psa10 value="0" flag="1"/>
			<psa30 value="0" flag="1"/>
		</comp>
		<comp name="--.HNZ" depth="0.0">
			<acc value="0" flag="1"/>
			<vel value="0" flag="1"/>
			<psa03 value="0" flag="1"/>
			<psa10 value="0" flag="1"/>
			<psa30 value="0" flag="1"/>
		</comp>
	</station>
	<station code="NPS1" name="NPS1" netid="HI" source="ITSAK Strong Motion Network" insttype="" lat="36.51263" lon="23.06248" esm:processing="discarded" esm:quality="bad">
		<comp name="--.HNE" depth="0.0">
			<acc value="0" flag="1"/>
			<vel value="0" flag="1"/>
			<psa03 value="0" flag="1"/>
			<psa10 value="0" flag="1"/>
			<psa30 value="0" flag="1"/>
		</comp>
		<comp name="--.HNN" depth="0.0">
			<acc value="0" flag="1"/>
			<vel value="0" flag="1"/>
			<psa03 value="0" flag="1"/>
			<psa10 value="0" flag="1"/>
			<psa30 value="0" flag="1"/>
		</comp>
		<comp name="--.HNZ" depth="0.0">
			<acc value="0" flag="1"/>
			<vel value="0" flag="1"/>
			<psa03 value="0" flag="1"/>
			<psa10 value="0" flag="1"/>
			<psa30 value="0" flag="1"/>
		</comp>
	</station>
	<station code="IACM" name="IACM" netid="HL" source="National Observatory of Athens Seismic Network" insttype="" lat="35.3058" lon="25.0709" esm:processing="discarded" esm:quality="good">
		<comp name="--.HNE" depth="0.0">
			<acc value="0" flag="1"/>
			<vel value="0" flag="1"/>
			<psa03 value="0" flag="1"/>
			<psa10 value="0" flag="1"/>
			<psa30 value="0" flag="1"/>
		</comp>
		<comp name="--.HNN" depth="0.0">
			<acc value="0" flag="1"/>
			<vel value="0" flag="1"/>
			<psa03 value="0" flag="1"/>
			<psa10 value="0" flag="1"/>
			<psa30 value="0" flag="1"/>
		</comp>
		<comp name="--.HNZ" depth="0.0">
			<acc value="0" flag="1"/>
			<vel value="0" flag="1"/>
			<psa03 value="0" flag="1"/>
			<psa10 value="0" flag="1"/>
			<psa30 value="0" flag="1"/>
		</comp>
	</station>
	<station code="MNVA" name="MNVA" netid="HL" source="National Observatory of Athens Seismic Network" insttype="" lat="36.68709" lon="23.03734" esm:processing="discarded" esm:quality="bad">
		<comp name="00.HNE" depth="0.0">
			<acc value="0" flag="1"/>
			<vel value="0" flag="1"/>
			<psa03 value="0" flag="1"/>
			<psa10 value="0" flag="1"/>
			<psa30 value="0" flag="1"/>
		</comp>
