<?xml version="1.0" encoding="UTF-8" standalone="yes"?>
<!DOCTYPE earthquake SYSTEM "stationlist.dtd">
<stationlist created="" xmlns="ch.ethz.sed.shakemap.usgs.xml">
  <station code="GVD" name="GVD" netid="GE" insttype="STS-2/N" lat="34.8391" lon="24.0874">
    <comp name="--.HHE">
      <acc value="0.2809233664" flag="0"/>
      <vel value="0.0820025825" flag="0"/>
      <psa03 value="0.4963338530" flag="0"/>
      <psa10 value="0.0583435140" flag="0"/>
      <psa30 value="0.0133197567" flag="0"/>
    </comp>
    <comp name="--.HHN">
      <acc value="0.1372680612" flag="0"/>
      <vel value="0.0694820914" flag="0"/>
      <psa03 value="0.3500914529" flag="0"/>
      <psa10 value="0.0261656615" flag="0"/>
      <psa30 value="0.0039560627" flag="0"/>
    </comp>
    <comp name="--.HHZ">
      <acc value="0.0890054423" flag="0"/>
      <vel value="0.0271650820" flag="0"/>
      <psa03 value="0.1272455628" flag="0"/>
      <psa10 value="0.0273652063" flag="0"/>
      <psa30 value="0.0018141577" flag="0"/>
    </comp>
  </station>
  <station code="IMMV" name="IMMV" netid="GE" insttype="STS-2/N" lat="35.4606" lon="23.9811">
    <comp name="--.HHE">
      <acc value="0.0625779954" flag="0"/>
      <vel value="0.0434212197" flag="0"/>
      <psa03 value="0.2035026874" flag="0"/>
      <psa10 value="0.0296156312" flag="0"/>
      <psa30 value="0.0023586604" flag="0"/>
    </comp>
    <comp name="--.HHN">
      <acc value="0.0582475649" flag="0"/>
      <vel value="0.0338789451" flag="0"/>
      <psa03 value="0.2148506550" flag="0"/>
      <psa10 value="0.0498772231" flag="0"/>
      <psa30 value="0.0033099971" flag="0"/>
    </comp>
    <comp name="--.HHZ">
      <acc value="0.0322961954" flag="0"/>
      <vel value="0.0234711823" flag="0"/>
      <psa03 value="0.0902193411" flag="0"/>
      <psa10 value="0.0199476812" flag="0"/>
      <psa30 value="0.0011130557" flag="0"/>
    </comp>
  </station>
  <station code="KTHA" name="KTHA" netid="GE" insttype="STS-2/N" lat="36.2566" lon="23.0621">
    <comp name="--.HHE">
      <acc value="0.0090109114" flag="0"/>
      <vel value="0.0076670382" flag="0"/>
      <psa03 value="0.0284418930" flag="0"/>
      <psa10 value="0.0138989820" flag="0"/>
      <psa30 value="0.0014197639" flag="0"/>
    </comp>
    <comp name="--.HHN">
      <acc value="0.0057355580" flag="0"/>
      <vel value="0.0045903819" flag="0"/>
      <psa03 value="0.0141465144" flag="0"/>
      <psa10 value="0.0068839923" flag="0"/>
      <psa30 value="0.0008578673" flag="0"/>
    </comp>
    <comp name="--.HHZ">
      <acc value="0.0050311756" flag="0"/>
      <vel value="0.0039337015" flag="0"/>
      <psa03 value="0.0135669718" flag="0"/>
      <psa10 value="0.0057793739" flag="0"/>
      <psa30 value="0.0003689129" flag="0"/>
    </comp>
  </station>
  <station code="ABEA" name="ABEA" netid="HC" insttype="DC" lat="35.5163" lon="24.0113">
    <comp name="--.HNE">
      <acc value="0.0358513555" flag="0"/>
      <vel value="0.0371070149" flag="0"/>
      <psa03 value="0.1335578076" flag="0"/>
      <psa10 value="0.0583515964" flag="0"/>
      <psa30 value="0.0054862118" flag="0"/>
    </comp>
    <comp name="--.HNN">
      <acc value="0.0414332356" flag="0"/>
      <vel value="0.0349784203" flag="0"/>
      <psa03 value="0.1397156139" flag="0"/>
      <psa10 value="0.0772137972" flag="0"/>
      <psa30 value="0.0046468132" flag="0"/>
    </comp>
    <comp name="--.HNZ">
      <acc value="0.0199938222" flag="0"/>
      <vel value="0.0207382191" flag="0"/>
      <psa03 value="0.0678953613" flag="0"/>
      <psa10 value="0.0328038299" flag="0"/>
      <psa30 value="0.0016561201" flag="0"/>
    </comp>
  </station>
  <station code="ATEI" name="ATEI" netid="HC" insttype="DC" lat="35.5193" lon="24.0432">
    <comp name="--.HNE">
      <acc value="0.0293871800" flag="0"/>
      <vel value="0.0270598704" flag="0"/>
      <psa03 value="0.0813109084" flag="0"/>
      <psa10 value="0.0353231155" flag="0"/>
      <psa30 value="0.0032823129" flag="0"/>
    </comp>
    <comp name="--.HNN">
      <acc value="0.0246042227" flag="0"/>
      <vel value="0.0228102190" flag="0"/>
      <psa03 value="0.0774828028" flag="0"/>
      <psa10 value="0.0421778593" flag="0"/>
      <psa30 value="0.0039512517" flag="0"/>
    </comp>
    <comp name="--.HNZ">
      <acc value="0.0203370610" flag="0"/>
      <vel value="0.0132191940" flag="0"/>
      <psa03 value="0.0664845043" flag="0"/>
      <psa10 value="0.0227154074" flag="0"/>
      <psa30 value="0.0015124603" flag="0"/>
    </comp>
  </station>
  <station code="CHAN" name="CHAN" netid="HC" insttype="120" lat="35.5193" lon="24.0428">
    <comp name="--.HHZ">
      <acc value="0.0377664976" flag="0"/>
      <vel value="0.0245934046" flag="0"/>
      <psa03 value="0.1240578353" flag="0"/>
      <psa10 value="0.0423173495" flag="0"/>
      <psa30 value="0.0023161147" flag="0"/>
    </comp>
    <comp name="--.HHE">
      <acc value="0.0565637721" flag="0"/>
      <vel value="0.0532632231" flag="0"/>
      <psa03 value="0.1561250623" flag="0"/>
      <psa10 value="0.0680651584" flag="0"/>
      <psa30 value="0.0051970743" flag="0"/>
    </comp>
    <comp name="--.HHN">
      <acc value="0.0454834934" flag="0"/>
      <vel value="0.0431031681" flag="0"/>
      <psa03 value="0.1525217061" flag="0"/>
      <psa10 value="0.0754135840" flag="0"/>
      <psa30 value="0.0080742928" flag="0"/>
    </comp>
  </station>
  <station code="DEYA" name="DEYA" netid="HC" insttype="DC" lat="35.4825" lon="24.014">
    <comp name="--.HNE">
      <acc value="0.0082394033" flag="0"/>
      <vel value="0.0063470423" flag="0"/>
      <psa03 value="0.0331494930" flag="0"/>
      <psa10 value="0.0099280476" flag="0"/>
      <psa30 value="0.0005282951" flag="0"/>
    </comp>
    <comp name="--.HNZ">
      <acc value="0.0036587103" flag="0"/>
      <vel value="0.0029687633" flag="0"/>
      <psa03 value="0.0118312205" flag="0"/>
      <psa10 value="0.0033377309" flag="0"/>
      <psa30 value="0.0002061528" flag="0"/>
    </comp>
    <comp name="--.HNN">
      <acc value="0.0051268013" flag="0"/>
      <vel value="0.0043973881" flag="0"/>
      <psa03 value="0.0180528528" flag="0"/>
      <psa10 value="0.0095487678" flag="0"/>
      <psa30 value="0.0005252296" flag="0"/>
    </comp>
  </station>
  <station code="GVDS" name="GVDS" netid="HC" insttype="60" lat="34.8389" lon="24.0585">
    <comp name="--.HHE">
      <acc value="0.0814202679" flag="0"/>
      <vel value="0.0378449353" flag="0"/>
      <psa03 value="0.2563360919" flag="0"/>
      <psa10 value="0.0291719610" flag="0"/>
      <psa30 value="0.0022153841" flag="0"/>
    </comp>
    <comp name="--.HHZ">
      <acc value="0.0560090096" flag="0"/>
      <vel value="0.0227180724" flag="0"/>
      <psa03 value="0.1174018953" flag="0"/>
      <psa10 value="0.0167032079" flag="0"/>
      <psa30 value="0.0013204626" flag="0"/>
    </comp>
    <comp name="--.HHN">
      <acc value="0.0873611526" flag="0"/>
      <vel value="0.0417267933" flag="0"/>
      <psa03 value="0.2545512308" flag="0"/>
      <psa10 value="0.0208505513" flag="0"/>
      <psa30 value="0.0036774491" flag="0"/>
    </comp>
  </station>
  <station code="IMOD" name="IMOD" netid="HC" insttype="120" lat="34.9731" lon="24.7995">
    <comp name="--.HHZ">
      <acc value="0.0125502143" flag="0"/>
      <vel value="0.0098555606" flag="0"/>
      <psa03 value="0.0460864403" flag="0"/>
      <psa10 value="0.0109006727" flag="0"/>
      <psa30 value="0.0011497598" flag="0"/>
    </comp>
    <comp name="--.HHE">
      <acc value="0.0273406051" flag="0"/>
      <vel value="0.0226595868" flag="0"/>
      <psa03 value="0.0602574296" flag="0"/>
      <psa10 value="0.0385655172" flag="0"/>
      <psa30 value="0.0018864944" flag="0"/>
    </comp>
    <comp name="--.HHN">
      <acc value="0.0239996459" flag="0"/>
      <vel value="0.0220451162" flag="0"/>
      <psa03 value="0.0793797552" flag="0"/>
      <psa10 value="0.0212776020" flag="0"/>
      <psa30 value="0.0015801900" flag="0"/>
    </comp>
  </station>
  <station code="IPPL" name="IPPL" netid="HC" insttype="60" lat="35.3486" lon="24.4632">
    <comp name="--.HHE">
      <acc value="0.0295806886" flag="0"/>
      <vel value="0.0243370268" flag="0"/>
      <psa03 value="0.1018382368" flag="0"/>
      <psa10 value="0.0360807731" flag="0"/>
      <psa30 value="0.0027723110" flag="0"/>
    </comp>
    <comp name="--.HHN">
      <acc value="0.0339433691" flag="0"/>
      <vel value="0.0379288826" flag="0"/>
      <psa03 value="0.0867813551" flag="0"/>
      <psa10 value="0.0356336273" flag="0"/>
      <psa30 value="0.0032385469" flag="0"/>
    </comp>
    <comp name="--.HHZ">
      <acc value="0.0175521634" flag="0"/>
      <vel value="0.0156882114" flag="0"/>
      <psa03 value="0.0484976098" flag="0"/>
      <psa10 value="0.0203405208" flag="0"/>
      <psa30 value="0.0021172323" flag="0"/>
    </comp>
  </station>
  <station code="KNDR" name="KNDR" netid="HC" insttype="120" lat="35.2348" lon="23.6248">
    <comp name="--.HHE">
      <acc value="0.1673969996" flag="0"/>
      <vel value="0.0929618594" flag="0"/>
      <psa03 value="0.5855125413" flag="0"/>
      <psa10 value="0.0966285503" flag="0"/>
      <psa30 value="0.0040955509" flag="0"/>
    </comp>
    <comp name="--.HHN">
      <acc value="0.1162967926" flag="0"/>
      <vel value="0.0756274492" flag="0"/>
      <psa03 value="0.3729838673" flag="0"/>
      <psa10 value="0.1121418822" flag="0"/>
      <psa30 value="0.0035901070" flag="0"/>
    </comp>
    <comp name="--.HHZ">
      <acc value="0.0771828189" flag="0"/>
      <vel value="0.0367726710" flag="0"/>
      <psa03 value="0.1942331731" flag="0"/>
      <psa10 value="0.0454827022" flag="0"/>
      <psa30 value="0.0025554027" flag="0"/>
    </comp>
  </station>
  <station code="PASK" name="PASK" netid="HC" insttype="DC" lat="35.4996" lon="24.0121">
    <comp name="--.HNE">
      <acc value="0.0757594294" flag="0"/>
      <vel value="0.0561950730" flag="0"/>
      <psa03 value="0.2257408580" flag="0"/>
      <psa10 value="0.0429902112" flag="0"/>
      <psa30 value="0.0040487175" flag="0"/>
    </comp>
    <comp name="--.HNN">
      <acc value="0.0653644139" flag="0"/>
      <vel value="0.0429698776" flag="0"/>
      <psa03 value="0.1608427138" flag="0"/>
      <psa10 value="0.0603991033" flag="0"/>
      <psa30 value="0.0051107846" flag="0"/>
    </comp>
    <comp name="--.HNZ">
      <acc value="0.0316490520" flag="0"/>
      <vel value="0.0252701810" flag="0"/>
      <psa03 value="0.1129822741" flag="0"/>
      <psa10 value="0.0359786553" flag="0"/>
      <psa30 value="0.0019479384" flag="0"/>
    </comp>
  </station>
  <station code="RODP" name="RODP" netid="HC" insttype="120" lat="35.5604" lon="23.7577">
    <comp name="--.HHE">
      <acc value="0.0386052500" flag="0"/>
      <vel value="0.0256853709" flag="0"/>
      <psa03 value="0.1341242690" flag="0"/>
      <psa10 value="0.0278617429" flag="0"/>
      <psa30 value="0.0026515011" flag="0"/>
    </comp>
    <comp name="--.HHN">
      <acc value="0.0397408481" flag="0"/>
      <vel value="0.0287767880" flag="0"/>
      <psa03 value="0.1562907317" flag="0"/>
      <psa10 value="0.0277529845" flag="0"/>
      <psa30 value="0.0029105885" flag="0"/>
    </comp>
    <comp name="--.HHZ">
      <acc value="0.0215022336" flag="0"/>
      <vel value="0.0118818927" flag="0"/>
      <psa03 value="0.0776029822" flag="0"/>
      <psa10 value="0.0099503562" flag="0"/>
      <psa30 value="0.0012195100" flag="0"/>
    </comp>
  </station>
  <station code="CH01" name="CH01" netid="HI" insttype="CMG-5TD,ACCELEROMETER,GURALP" lat="35.517" lon="24.0208">
    <comp name="--.HNZ">
      <acc value="0.0198218552" flag="0"/>
      <vel value="0.0205013354" flag="0"/>
      <psa03 value="0.0488889266" flag="0"/>
      <psa10 value="0.0274600528" flag="0"/>
      <psa30 value="0.0018764104" flag="0"/>
    </comp>
    <comp name="--.HNN">
      <acc value="0.0493377902" flag="0"/>
      <vel value="0.0369888056" flag="0"/>
      <psa03 value="0.1322166162" flag="0"/>
      <psa10 value="0.0568390730" flag="0"/>
      <psa30 value="0.0051088775" flag="0"/>
    </comp>
    <comp name="--.HNE">
      <acc value="0.0322796956" flag="0"/>
      <vel value="0.0274977395" flag="0"/>
      <psa03 value="0.1013460224" flag="0"/>
      <psa10 value="0.0439231401" flag="0"/>
      <psa30 value="0.0059331769" flag="0"/>
    </comp>
  </station>
  <station code="ANKY" name="ANKY" netid="HL" insttype="60" lat="35.867" lon="23.3012">
    <comp name="--.HHN">
      <acc value="0.0091706171" flag="0"/>
      <vel value="0.0090323762" flag="0"/>
      <psa03 value="0.0280494590" flag="0"/>
      <psa10 value="0.0152918157" flag="0"/>
      <psa30 value="0.0019841118" flag="0"/>
    </comp>
    <comp name="--.HHZ">
      <acc value="0.0096387568" flag="0"/>
      <vel value="0.0061156987" flag="0"/>
      <psa03 value="0.0335716016" flag="0"/>
      <psa10 value="0.0076717135" flag="0"/>
      <psa30 value="0.0009437409" flag="0"/>
    </comp>
    <comp name="--.HHE">
      <acc value="0.0094710487" flag="0"/>
      <vel value="0.0087614571" flag="0"/>
      <psa03 value="0.0233287756" flag="0"/>
      <psa10 value="0.0239841929" flag="0"/>
      <psa30 value="0.0027906332" flag="0"/>
    </comp>
  </station>
  <station code="GVD" name="GVD" netid="HL" insttype="120" lat="34.8391" lon="24.0874">
    <comp name="--.HHN">
      <acc value="0.1338398053" flag="0"/>
      <vel value="0.0678471194" flag="0"/>
      <psa03 value="0.3396815425" flag="0"/>
      <psa10 value="0.0256461103" flag="0"/>
      <psa30 value="0.0039303865" flag="0"/>
    </comp>
    <comp name="--.HHE">
      <acc value="0.3225859522" flag="0"/>
      <vel value="0.0799349990" flag="0"/>
      <psa03 value="0.4829520020" flag="0"/>
      <psa10 value="0.0580219311" flag="0"/>
      <psa30 value="0.0133094774" flag="0"/>
    </comp>
    <comp name="--.HHZ">
      <acc value="0.0858251936" flag="0"/>
      <vel value="0.0264619332" flag="0"/>
      <psa03 value="0.1234346641" flag="0"/>
      <psa10 value="0.0270899660" flag="0"/>
      <psa30 value="0.0017990818" flag="0"/>
    </comp>
  </station>
  <station code="IDI" name="IDI" netid="HL" insttype="120" lat="35.288" lon="24.89">
    <comp name="--.HHE">
      <acc value="0.0059187914" flag="0"/>
      <vel value="0.0037000013" flag="0"/>
      <psa03 value="0.0190278702" flag="0"/>
      <psa10 value="0.0050924426" flag="0"/>
      <psa30 value="0.0006038167" flag="0"/>
    </comp>
    <comp name="--.HHN">
      <acc value="0.0064424014" flag="0"/>
      <vel value="0.0047394767" flag="0"/>
      <psa03 value="0.0222955818" flag="0"/>
      <psa10 value="0.0057271363" flag="0"/>
      <psa30 value="0.0007383049" flag="0"/>
    </comp>
    <comp name="--.HHZ">
      <acc value="0.0047039701" flag="0"/>
      <vel value="0.0030948247" flag="0"/>
      <psa03 value="0.0193369780" flag="0"/>
      <psa10 value="0.0034186387" flag="0"/>
      <psa30 value="0.0006276567" flag="0"/>
    </comp>
  </station>
  <station code="IMMV" name="IMMV" netid="HL" insttype="120" lat="35.4606" lon="23.9811">
    <comp name="--.HHN">
      <acc value="0.0567738727" flag="0"/>
      <vel value="0.0335741454" flag="0"/>
      <psa03 value="0.2089726842" flag="0"/>
      <psa10 value="0.0495429152" flag="0"/>
      <psa30 value="0.0032891854" flag="0"/>
    </comp>
    <comp name="--.HHZ">
      <acc value="0.0317031812" flag="0"/>
      <vel value="0.0229523382" flag="0"/>
      <psa03 value="0.0879098447" flag="0"/>
      <psa10 value="0.0197183717" flag="0"/>
      <psa30 value="0.0011082419" flag="0"/>
    </comp>
    <comp name="--.HHE">
      <acc value="0.0611692019" flag="0"/>
      <vel value="0.0428878412" flag="0"/>
      <psa03 value="0.1979029787" flag="0"/>
      <psa10 value="0.0293804594" flag="0"/>
      <psa30 value="0.0023284152" flag="0"/>
    </comp>
  </station>
  <station code="KTHA" name="KTHA" netid="HL" insttype="120" lat="36.2566" lon="23.0621">
    <comp name="--.HHE">
      <acc value="0.0087162445" flag="0"/>
      <vel value="0.0075895759" flag="0"/>
      <psa03 value="0.0278072852" flag="0"/>
      <psa10 value="0.0138174175" flag="0"/>
      <psa30 value="0.0014170987" flag="0"/>
    </comp>
    <comp name="--.HHN">
      <acc value="0.0055576946" flag="0"/>
      <vel value="0.0045443808" flag="0"/>
      <psa03 value="0.0137587667" flag="0"/>
      <psa10 value="0.0068418483" flag="0"/>
      <psa30 value="0.0008562067" flag="0"/>
    </comp>
    <comp name="--.HHZ">
      <acc value="0.0049337842" flag="0"/>
      <vel value="0.0038639420" flag="0"/>
      <psa03 value="0.0132174828" flag="0"/>
      <psa10 value="0.0057498510" flag="0"/>
      <psa30 value="0.0003664989" flag="0"/>
    </comp>
  </station>
  <station code="SIVA" name="SIVA" netid="HL" insttype="60" lat="35.0178" lon="24.812">
    <comp name="--.HHE">
      <acc value="0.0320532343" flag="0"/>
      <vel value="0.0280806374" flag="0"/>
      <psa03 value="0.0920990613" flag="0"/>
      <psa10 value="0.0349393361" flag="0"/>
      <psa30 value="0.0020912869" flag="0"/>
    </comp>
    <comp name="--.HHN">
      <acc value="0.0225877823" flag="0"/>
      <vel value="0.0170530329" flag="0"/>
      <psa03 value="0.0482467239" flag="0"/>
      <psa10 value="0.0265498654" flag="0"/>
      <psa30 value="0.0014848010" flag="0"/>
    </comp>
    <comp name="--.HHZ">
      <acc value="0.0184342186" flag="0"/>
      <vel value="0.0112622855" flag="0"/>
      <psa03 value="0.0397430344" flag="0"/>
      <psa10 value="0.0111378968" flag="0"/>
      <psa30 value="0.0015376010" flag="0"/>
    </comp>
  </station>
  <station code="VAM" name="VAM" netid="HL" insttype="CMG3ESPC-120s" lat="35.407" lon="24.1997">
    <comp name="--.HHE">
      <acc value="0.0313679334" flag="0"/>
      <vel value="0.0317663088" flag="0"/>
      <psa03 value="0.0980360121" flag="0"/>
      <psa10 value="0.0471892255" flag="0"/>
      <psa30 value="0.0030386865" flag="0"/>
    </comp>
    <comp name="--.HHN">
      <acc value="0.0345603423" flag="0"/>
      <vel value="0.0288140182" flag="0"/>
      <psa03 value="0.1053204596" flag="0"/>
      <psa10 value="0.0345852850" flag="0"/>
      <psa30 value="0.0025772962" flag="0"/>
    </comp>
    <comp name="--.HHZ">
      <acc value="0.0251160251" flag="0"/>
      <vel value="0.0160878722" flag="0"/>
      <psa03 value="0.0588571666" flag="0"/>
      <psa10 value="0.0207946687" flag="0"/>
      <psa30 value="0.0025789656" flag="0"/>
    </comp>
  </station>
  <station code="IDI" name="IDI" netid="MN" insttype="" lat="35.288" lon="24.89">
    <comp name="--.HHE">
      <acc value="0.0060895371" flag="0"/>
      <vel value="0.0037136659" flag="0"/>
      <psa03 value="0.0192063785" flag="0"/>
      <psa10 value="0.0050511991" flag="0"/>
      <psa30 value="0.0005964511" flag="0"/>
    </comp>
    <comp name="--.HHN">
      <acc value="0.0064996213" flag="0"/>
      <vel value="0.0047234292" flag="0"/>
      <psa03 value="0.0226840267" flag="0"/>
      <psa10 value="0.0056909938" flag="0"/>
      <psa30 value="0.0007300640" flag="0"/>
    </comp>
    <comp name="--.HHZ">
      <acc value="0.0049178578" flag="0"/>
      <vel value="0.0031049664" flag="0"/>
      <psa03 value="0.0194902036" flag="0"/>
      <psa10 value="0.0033963540" flag="0"/>
      <psa30 value="0.0006200983" flag="0"/>
    </comp>
  </station>
</stationlist>
