<?xml version="1.0" encoding="UTF-8" standalone="yes"?>
<!DOCTYPE earthquake SYSTEM "stationlist.dtd">
<stationlist created="" xmlns="ch.ethz.sed.shakemap.usgs.xml">
  <station code="GVD" name="GVD" netid="GE" insttype="STS-2/N" lat="34.8391" lon="24.0874">
    <comp name="--.HHE">
      <acc value="0.2809233663" flag="0"/>
      <vel value="0.0820032786" flag="0"/>
      <psa03 value="0.4963338530" flag="0"/>
      <psa10 value="0.0583435134" flag="0"/>
      <psa30 value="0.0129592806" flag="0"/>
    </comp>
    <comp name="--.HHN">
      <acc value="0.1372680613" flag="0"/>
      <vel value="0.0694820929" flag="0"/>
      <psa03 value="0.3500914529" flag="0"/>
      <psa10 value="0.0261656533" flag="0"/>
      <psa30 value="0.0039553770" flag="0"/>
    </comp>
    <comp name="--.HHZ">
      <acc value="0.0890054421" flag="0"/>
      <vel value="0.0271650827" flag="0"/>
      <psa03 value="0.1272455628" flag="0"/>
      <psa10 value="0.0273652072" flag="0"/>
      <psa30 value="0.0018146379" flag="0"/>
    </comp>
  </station>
  <station code="IMMV" name="IMMV" netid="GE" insttype="STS-2/N" lat="35.4606" lon="23.9811">
    <comp name="--.HHN">
      <acc value="0.0582475649" flag="0"/>
      <vel value="0.0338789490" flag="0"/>
      <psa03 value="0.2148506550" flag="0"/>
      <psa10 value="0.0498772235" flag="0"/>
      <psa30 value="0.0033098648" flag="0"/>
    </comp>
    <comp name="--.HHZ">
      <acc value="0.0322961954" flag="0"/>
      <vel value="0.0234711841" flag="0"/>
      <psa03 value="0.0902193411" flag="0"/>
      <psa10 value="0.0199476811" flag="0"/>
      <psa30 value="0.0011127874" flag="0"/>
    </comp>
    <comp name="--.HHE">
      <acc value="0.0625779954" flag="0"/>
      <vel value="0.0434212172" flag="0"/>
      <psa03 value="0.2035026874" flag="0"/>
      <psa10 value="0.0296156314" flag="0"/>
      <psa30 value="0.0023588558" flag="0"/>
    </comp>
  </station>
  <station code="KTHA" name="KTHA" netid="GE" insttype="STS-2/N" lat="36.2566" lon="23.0621">
    <comp name="--.HHN">
      <acc value="0.0057355581" flag="0"/>
      <vel value="0.0045903817" flag="0"/>
      <psa03 value="0.0141465144" flag="0"/>
      <psa10 value="0.0068839923" flag="0"/>
      <psa30 value="0.0008578673" flag="0"/>
    </comp>
    <comp name="--.HHE">
      <acc value="0.0090109113" flag="0"/>
      <vel value="0.0076670379" flag="0"/>
      <psa03 value="0.0284418930" flag="0"/>
      <psa10 value="0.0138989820" flag="0"/>
      <psa30 value="0.0014197607" flag="0"/>
    </comp>
    <comp name="--.HHZ">
      <acc value="0.0050311756" flag="0"/>
      <vel value="0.0039337010" flag="0"/>
      <psa03 value="0.0135669718" flag="0"/>
      <psa10 value="0.0057793740" flag="0"/>
      <psa30 value="0.0003689413" flag="0"/>
    </comp>
  </station>
  <station code="ABEA" name="ABEA" netid="HC" insttype="DC" lat="35.5163" lon="24.0113">
    <comp name="--.HNE">
      <acc value="0.0358513536" flag="0"/>
      <vel value="0.0371070380" flag="0"/>
      <psa03 value="0.1335578076" flag="0"/>
      <psa10 value="0.0583515982" flag="0"/>
      <psa30 value="0.0054911845" flag="0"/>
    </comp>
    <comp name="--.HNN">
      <acc value="0.0414332365" flag="0"/>
      <vel value="0.0349784436" flag="0"/>
      <psa03 value="0.1397156139" flag="0"/>
      <psa10 value="0.0772137971" flag="0"/>
      <psa30 value="0.0046475743" flag="0"/>
    </comp>
    <comp name="--.HNZ">
      <acc value="0.0199938194" flag="0"/>
      <vel value="0.0207382074" flag="0"/>
      <psa03 value="0.0678953613" flag="0"/>
      <psa10 value="0.0328038299" flag="0"/>
      <psa30 value="0.0016558576" flag="0"/>
    </comp>
  </station>
  <station code="ATEI" name="ATEI" netid="HC" insttype="DC" lat="35.5193" lon="24.0432">
    <comp name="--.HNE">
      <acc value="0.0293871825" flag="0"/>
      <vel value="0.0270598872" flag="0"/>
      <psa03 value="0.0813109084" flag="0"/>
      <psa10 value="0.0353231150" flag="0"/>
      <psa30 value="0.0032826935" flag="0"/>
    </comp>
    <comp name="--.HNN">
      <acc value="0.0246042244" flag="0"/>
      <vel value="0.0228102212" flag="0"/>
      <psa03 value="0.0774828028" flag="0"/>
      <psa10 value="0.0421778528" flag="0"/>
      <psa30 value="0.0039557075" flag="0"/>
    </comp>
    <comp name="--.HNZ">
      <acc value="0.0203370612" flag="0"/>
      <vel value="0.0132191949" flag="0"/>
      <psa03 value="0.0664845043" flag="0"/>
      <psa10 value="0.0227154072" flag="0"/>
      <psa30 value="0.0015130797" flag="0"/>
    </comp>
  </station>
  <station code="CHAN" name="CHAN" netid="HC" insttype="120" lat="35.5193" lon="24.0428">
    <comp name="--.HHE">
      <acc value="0.0565637722" flag="0"/>
      <vel value="0.0532632243" flag="0"/>
      <psa03 value="0.1561250623" flag="0"/>
      <psa10 value="0.0680651585" flag="0"/>
      <psa30 value="0.0051966648" flag="0"/>
    </comp>
    <comp name="--.HHN">
      <acc value="0.0454834936" flag="0"/>
      <vel value="0.0431031793" flag="0"/>
      <psa03 value="0.1525217061" flag="0"/>
      <psa10 value="0.0754135793" flag="0"/>
      <psa30 value="0.0080740521" flag="0"/>
    </comp>
    <comp name="--.HHZ">
      <acc value="0.0377664976" flag="0"/>
      <vel value="0.0245933989" flag="0"/>
      <psa03 value="0.1240578353" flag="0"/>
      <psa10 value="0.0423173495" flag="0"/>
      <psa30 value="0.0023161071" flag="0"/>
    </comp>
  </station>
  <station code="DEYA" name="DEYA" netid="HC" insttype="DC" lat="35.4825" lon="24.014">
    <comp name="--.HNE">
      <acc value="0.0082394033" flag="0"/>
      <vel value="0.0063470417" flag="0"/>
      <psa03 value="0.0331494930" flag="0"/>
      <psa10 value="0.0099280476" flag="0"/>
      <psa30 value="0.0005284982" flag="0"/>
    </comp>
    <comp name="--.HNN">
      <acc value="0.0051268016" flag="0"/>
      <vel value="0.0043973888" flag="0"/>
      <psa03 value="0.0180528528" flag="0"/>
      <psa10 value="0.0095487672" flag="0"/>
      <psa30 value="0.0005256995" flag="0"/>
    </comp>
    <comp name="--.HNZ">
      <acc value="0.0036587105" flag="0"/>
      <vel value="0.0029687617" flag="0"/>
      <psa03 value="0.0118312205" flag="0"/>
      <psa10 value="0.0033377309" flag="0"/>
      <psa30 value="0.0002061104" flag="0"/>
    </comp>
  </station>
  <station code="GVDS" name="GVDS" netid="HC" insttype="60" lat="34.8389" lon="24.0585">
    <comp name="--.HHE">
      <acc value="0.0814202676" flag="0"/>
      <vel value="0.0378449297" flag="0"/>
      <psa03 value="0.2563360919" flag="0"/>
      <psa10 value="0.0291719682" flag="0"/>
      <psa30 value="0.0022167177" flag="0"/>
    </comp>
    <comp name="--.HHN">
      <acc value="0.0873611534" flag="0"/>
      <vel value="0.0417267962" flag="0"/>
      <psa03 value="0.2545512308" flag="0"/>
      <psa10 value="0.0208505510" flag="0"/>
      <psa30 value="0.0036778578" flag="0"/>
    </comp>
    <comp name="--.HHZ">
      <acc value="0.0560090101" flag="0"/>
      <vel value="0.0227180711" flag="0"/>
      <psa03 value="0.1174018953" flag="0"/>
      <psa10 value="0.0167032065" flag="0"/>
      <psa30 value="0.0013194808" flag="0"/>
    </comp>
  </station>
  <station code="IMOD" name="IMOD" netid="HC" insttype="120" lat="34.9731" lon="24.7995">
    <comp name="--.HHE">
      <acc value="0.0273406051" flag="0"/>
      <vel value="0.0226595857" flag="0"/>
      <psa03 value="0.0602574296" flag="0"/>
      <psa10 value="0.0385655172" flag="0"/>
      <psa30 value="0.0018863156" flag="0"/>
    </comp>
    <comp name="--.HHN">
      <acc value="0.0239996457" flag="0"/>
      <vel value="0.0220451171" flag="0"/>
      <psa03 value="0.0793797552" flag="0"/>
      <psa10 value="0.0212776020" flag="0"/>
      <psa30 value="0.0015802016" flag="0"/>
    </comp>
    <comp name="--.HHZ">
      <acc value="0.0125502144" flag="0"/>
      <vel value="0.0098555582" flag="0"/>
      <psa03 value="0.0460864403" flag="0"/>
      <psa10 value="0.0109006727" flag="0"/>
      <psa30 value="0.0011498033" flag="0"/>
    </comp>
  </station>
  <station code="IPPL" name="IPPL" netid="HC" insttype="60" lat="35.3486" lon="24.4632">
    <comp name="--.HHE">
      <acc value="0.0295806885" flag="0"/>
      <vel value="0.0243370279" flag="0"/>
      <psa03 value="0.1018382368" flag="0"/>
      <psa10 value="0.0360807724" flag="0"/>
      <psa30 value="0.0027724396" flag="0"/>
    </comp>
    <comp name="--.HHN">
      <acc value="0.0339433691" flag="0"/>
      <vel value="0.0379288892" flag="0"/>
      <psa03 value="0.0867813551" flag="0"/>
      <psa10 value="0.0356336271" flag="0"/>
      <psa30 value="0.0032384851" flag="0"/>
    </comp>
    <comp name="--.HHZ">
      <acc value="0.0175521634" flag="0"/>
      <vel value="0.0156882099" flag="0"/>
      <psa03 value="0.0484976098" flag="0"/>
      <psa10 value="0.0203405211" flag="0"/>
      <psa30 value="0.0021174490" flag="0"/>
    </comp>
  </station>
  <station code="KNDR" name="KNDR" netid="HC" insttype="120" lat="35.2348" lon="23.6248">
    <comp name="--.HHN">
      <acc value="0.1162967925" flag="0"/>
      <vel value="0.0756274432" flag="0"/>
      <psa03 value="0.3729838672" flag="0"/>
      <psa10 value="0.1121418845" flag="0"/>
      <psa30 value="0.0035892280" flag="0"/>
    </comp>
    <comp name="--.HHE">
      <acc value="0.1673969996" flag="0"/>
      <vel value="0.0929618611" flag="0"/>
      <psa03 value="0.5855125413" flag="0"/>
      <psa10 value="0.0966285538" flag="0"/>
      <psa30 value="0.0040952045" flag="0"/>
    </comp>
    <comp name="--.HHZ">
      <acc value="0.0771828191" flag="0"/>
      <vel value="0.0367726660" flag="0"/>
      <psa03 value="0.1942331731" flag="0"/>
      <psa10 value="0.0454827049" flag="0"/>
      <psa30 value="0.0025552645" flag="0"/>
    </comp>
  </station>
  <station code="PASK" name="PASK" netid="HC" insttype="DC" lat="35.4996" lon="24.0121">
    <comp name="--.HNN">
      <acc value="0.0653644149" flag="0"/>
      <vel value="0.0429698645" flag="0"/>
      <psa03 value="0.1608427138" flag="0"/>
      <psa10 value="0.0603991030" flag="0"/>
      <psa30 value="0.0051110590" flag="0"/>
    </comp>
    <comp name="--.HNE">
      <acc value="0.0757594265" flag="0"/>
      <vel value="0.0561950699" flag="0"/>
      <psa03 value="0.2257408580" flag="0"/>
      <psa10 value="0.0429902111" flag="0"/>
      <psa30 value="0.0040487161" flag="0"/>
    </comp>
    <comp name="--.HNZ">
      <acc value="0.0316490524" flag="0"/>
      <vel value="0.0252701674" flag="0"/>
      <psa03 value="0.1129822741" flag="0"/>
      <psa10 value="0.0359786553" flag="0"/>
      <psa30 value="0.0019483119" flag="0"/>
    </comp>
  </station>
  <station code="RODP" name="RODP" netid="HC" insttype="120" lat="35.5604" lon="23.7577">
    <comp name="--.HHE">
      <acc value="0.0386052500" flag="0"/>
      <vel value="0.0256853788" flag="0"/>
      <psa03 value="0.1341242690" flag="0"/>
      <psa10 value="0.0278617441" flag="0"/>
      <psa30 value="0.0026511972" flag="0"/>
    </comp>
    <comp name="--.HHZ">
      <acc value="0.0215022336" flag="0"/>
      <vel value="0.0118818884" flag="0"/>
      <psa03 value="0.0776029822" flag="0"/>
      <psa10 value="0.0099503566" flag="0"/>
      <psa30 value="0.0012196768" flag="0"/>
    </comp>
    <comp name="--.HHN">
      <acc value="0.0397408482" flag="0"/>
      <vel value="0.0287767837" flag="0"/>
      <psa03 value="0.1562907317" flag="0"/>
      <psa10 value="0.0277529845" flag="0"/>
      <psa30 value="0.0029109313" flag="0"/>
    </comp>
  </station>
  <station code="CH01" name="CH01" netid="HI" insttype="CMG-5TD,ACCELEROMETER,GURALP" lat="35.517" lon="24.0208">
    <comp name="--.HNE">
      <acc value="0.0322796943" flag="0"/>
      <vel value="0.0274977330" flag="0"/>
      <psa03 value="0.1013460224" flag="0"/>
      <psa10 value="0.0439231402" flag="0"/>
      <psa30 value="0.0059334401" flag="0"/>
    </comp>
    <comp name="--.HNZ">
      <acc value="0.0198218571" flag="0"/>
      <vel value="0.0205013382" flag="0"/>
      <psa03 value="0.0488889266" flag="0"/>
      <psa10 value="0.0274600517" flag="0"/>
      <psa30 value="0.0018763001" flag="0"/>
    </comp>
    <comp name="--.HNN">
      <acc value="0.0493377908" flag="0"/>
      <vel value="0.0369888061" flag="0"/>
      <psa03 value="0.1322166162" flag="0"/>
      <psa10 value="0.0568390730" flag="0"/>
      <psa30 value="0.0051086377" flag="0"/>
    </comp>
  </station>
  <station code="ANKY" name="ANKY" netid="HL" insttype="60" lat="35.867" lon="23.3012">
    <comp name="--.HHN">
      <acc value="0.0091706171" flag="0"/>
      <vel value="0.0090323839" flag="0"/>
      <psa03 value="0.0280494590" flag="0"/>
      <psa10 value="0.0152918157" flag="0"/>
      <psa30 value="0.0019841916" flag="0"/>
    </comp>
    <comp name="--.HHZ">
      <acc value="0.0096387567" flag="0"/>
      <vel value="0.0061157074" flag="0"/>
      <psa03 value="0.0335716016" flag="0"/>
      <psa10 value="0.0076717134" flag="0"/>
      <psa30 value="0.0009436214" flag="0"/>
    </comp>
    <comp name="--.HHE">
      <acc value="0.0094710488" flag="0"/>
      <vel value="0.0087614653" flag="0"/>
      <psa03 value="0.0233287756" flag="0"/>
      <psa10 value="0.0239841928" flag="0"/>
      <psa30 value="0.0027906780" flag="0"/>
    </comp>
  </station>
  <station code="GVD" name="GVD" netid="HL" insttype="120" lat="34.8391" lon="24.0874">
    <comp name="--.HHZ">
      <acc value="0.0858251932" flag="0"/>
      <vel value="0.0264619377" flag="0"/>
      <psa03 value="0.1234346641" flag="0"/>
      <psa10 value="0.0270899661" flag="0"/>
      <psa30 value="0.0018001242" flag="0"/>
    </comp>
    <comp name="--.HHN">
      <acc value="0.1338398057" flag="0"/>
      <vel value="0.0678471239" flag="0"/>
      <psa03 value="0.3396815425" flag="0"/>
      <psa10 value="0.0256460995" flag="0"/>
      <psa30 value="0.0039292951" flag="0"/>
    </comp>
    <comp name="--.HHE">
      <acc value="0.3225859517" flag="0"/>
      <vel value="0.0799358669" flag="0"/>
      <psa03 value="0.4829520021" flag="0"/>
      <psa10 value="0.0580219294" flag="0"/>
      <psa30 value="0.0125887184" flag="0"/>
    </comp>
  </station>
  <station code="IDI" name="IDI" netid="HL" insttype="120" lat="35.288" lon="24.89">
    <comp name="--.HHE">
      <acc value="0.0059187914" flag="0"/>
      <vel value="0.0036999995" flag="0"/>
      <psa03 value="0.0190278702" flag="0"/>
      <psa10 value="0.0050924426" flag="0"/>
      <psa30 value="0.0006038105" flag="0"/>
    </comp>
    <comp name="--.HHN">
      <acc value="0.0064424014" flag="0"/>
      <vel value="0.0047394753" flag="0"/>
      <psa03 value="0.0222955818" flag="0"/>
      <psa10 value="0.0057271363" flag="0"/>
      <psa30 value="0.0007382941" flag="0"/>
    </comp>
    <comp name="--.HHZ">
      <acc value="0.0047039701" flag="0"/>
      <vel value="0.0030948229" flag="0"/>
      <psa03 value="0.0193369780" flag="0"/>
      <psa10 value="0.0034186387" flag="0"/>
      <psa30 value="0.0006276338" flag="0"/>
    </comp>
  </station>
  <station code="IMMV" name="IMMV" netid="HL" insttype="120" lat="35.4606" lon="23.9811">
    <comp name="--.HHE">
      <acc value="0.0611692018" flag="0"/>
      <vel value="0.0428878413" flag="0"/>
      <psa03 value="0.1979029787" flag="0"/>
      <psa10 value="0.0293804601" flag="0"/>
      <psa30 value="0.0023289246" flag="0"/>
    </comp>
    <comp name="--.HHZ">
      <acc value="0.0317031813" flag="0"/>
      <vel value="0.0229523415" flag="0"/>
      <psa03 value="0.0879098447" flag="0"/>
      <psa10 value="0.0197183715" flag="0"/>
      <psa30 value="0.0011075906" flag="0"/>
    </comp>
    <comp name="--.HHN">
      <acc value="0.0567738727" flag="0"/>
      <vel value="0.0335741567" flag="0"/>
      <psa03 value="0.2089726842" flag="0"/>
      <psa10 value="0.0495429165" flag="0"/>
      <psa30 value="0.0032888833" flag="0"/>
    </comp>
  </station>
  <station code="SIVA" name="SIVA" netid="HL" insttype="60" lat="35.0178" lon="24.812">
    <comp name="--.HHN">
      <acc value="0.0225877824" flag="0"/>
      <vel value="0.0170530349" flag="0"/>
      <psa03 value="0.0482467239" flag="0"/>
      <psa10 value="0.0265498654" flag="0"/>
      <psa30 value="0.0014848730" flag="0"/>
    </comp>
    <comp name="--.HHE">
      <acc value="0.0320532344" flag="0"/>
      <vel value="0.0280806378" flag="0"/>
      <psa03 value="0.0920990613" flag="0"/>
      <psa10 value="0.0349393361" flag="0"/>
      <psa30 value="0.0020913608" flag="0"/>
    </comp>
    <comp name="--.HHZ">
      <acc value="0.0184342188" flag="0"/>
      <vel value="0.0112622839" flag="0"/>
      <psa03 value="0.0397430344" flag="0"/>
      <psa10 value="0.0111378968" flag="0"/>
      <psa30 value="0.0015376023" flag="0"/>
    </comp>
  </station>
  <station code="VAM" name="VAM" netid="HL" insttype="CMG3ESPC-120s" lat="35.407" lon="24.1997">
    <comp name="--.HHE">
      <acc value="0.0313679334" flag="0"/>
      <vel value="0.0317663045" flag="0"/>
      <psa03 value="0.0980360121" flag="0"/>
      <psa10 value="0.0471892248" flag="0"/>
      <psa30 value="0.0030389370" flag="0"/>
    </comp>
    <comp name="--.HHN">
      <acc value="0.0345603421" flag="0"/>
      <vel value="0.0288140199" flag="0"/>
      <psa03 value="0.1053204596" flag="0"/>
      <psa10 value="0.0345852849" flag="0"/>
      <psa30 value="0.0025774629" flag="0"/>
    </comp>
    <comp name="--.HHZ">
      <acc value="0.0251160252" flag="0"/>
      <vel value="0.0160878692" flag="0"/>
      <psa03 value="0.0588571666" flag="0"/>
      <psa10 value="0.0207946696" flag="0"/>
      <psa30 value="0.0025793484" flag="0"/>
    </comp>
  </station>
  <station code="IDI" name="IDI" netid="MN" insttype="" lat="35.288" lon="24.89">
    <comp name="--.HHZ">
      <acc value="0.0049178578" flag="0"/>
      <vel value="0.0031049657" flag="0"/>
      <psa03 value="0.0194902036" flag="0"/>
      <psa10 value="0.0033963540" flag="0"/>
      <psa30 value="0.0006200903" flag="0"/>
    </comp>
    <comp name="--.HHE">
      <acc value="0.0060895371" flag="0"/>
      <vel value="0.0037136646" flag="0"/>
      <psa03 value="0.0192063785" flag="0"/>
      <psa10 value="0.0050511991" flag="0"/>
      <psa30 value="0.0005964476" flag="0"/>
    </comp>
    <comp name="--.HHN">
      <acc value="0.0064996213" flag="0"/>
      <vel value="0.0047234286" flag="0"/>
      <psa03 value="0.0226840267" flag="0"/>
      <psa10 value="0.0056909938" flag="0"/>
      <psa30 value="0.0007300600" flag="0"/>
    </comp>
  </station>
</stationlist>
