<?xml version="1.0" encoding="UTF-8" standalone="yes"?>
<!DOCTYPE earthquake SYSTEM "stationlist.dtd">
<stationlist created="" xmlns="ch.ethz.sed.shakemap.usgs.xml">
  <station code="GVD" name="GVD" netid="GE" insttype="STS-2/N" lat="34.8391" lon="24.0874">
    <comp name="--.HHE">
      <acc value="0.2809233669" flag="0"/>
      <vel value="0.0820024897" flag="0"/>
      <psa03 value="0.4963338530" flag="0"/>
      <psa10 value="0.0583435149" flag="0"/>
      <psa30 value="0.0134536151" flag="0"/>
    </comp>
    <comp name="--.HHN">
      <acc value="0.1372680618" flag="0"/>
      <vel value="0.0694820924" flag="0"/>
      <psa03 value="0.3500914529" flag="0"/>
      <psa10 value="0.0261656644" flag="0"/>
      <psa30 value="0.0039562063" flag="0"/>
    </comp>
    <comp name="--.HHZ">
      <acc value="0.0890054422" flag="0"/>
      <vel value="0.0271650833" flag="0"/>
      <psa03 value="0.1272455628" flag="0"/>
      <psa10 value="0.0273652044" flag="0"/>
      <psa30 value="0.0018141000" flag="0"/>
    </comp>
  </station>
  <station code="IMMV" name="IMMV" netid="GE" insttype="STS-2/N" lat="35.4606" lon="23.9811">
    <comp name="--.HHE">
      <acc value="0.0625779946" flag="0"/>
      <vel value="0.0434212199" flag="0"/>
      <psa03 value="0.2035026874" flag="0"/>
      <psa10 value="0.0296156312" flag="0"/>
      <psa30 value="0.0023586463" flag="0"/>
    </comp>
    <comp name="--.HHZ">
      <acc value="0.0322961964" flag="0"/>
      <vel value="0.0234711822" flag="0"/>
      <psa03 value="0.0902193411" flag="0"/>
      <psa10 value="0.0199476812" flag="0"/>
      <psa30 value="0.0011130771" flag="0"/>
    </comp>
    <comp name="--.HHN">
      <acc value="0.0582475645" flag="0"/>
      <vel value="0.0338789457" flag="0"/>
      <psa03 value="0.2148506550" flag="0"/>
      <psa10 value="0.0498772231" flag="0"/>
      <psa30 value="0.0033099954" flag="0"/>
    </comp>
  </station>
  <station code="ABEA" name="ABEA" netid="HC" insttype="DC" lat="35.5163" lon="24.0113">
    <comp name="--.HNN">
      <acc value="0.0414332621" flag="0"/>
      <vel value="0.0349784179" flag="0"/>
      <psa03 value="0.1397156139" flag="0"/>
      <psa10 value="0.0772137971" flag="0"/>
      <psa30 value="0.0046484759" flag="0"/>
    </comp>
    <comp name="--.HNZ">
      <acc value="0.0199938159" flag="0"/>
      <vel value="0.0207382224" flag="0"/>
      <psa03 value="0.0678953613" flag="0"/>
      <psa10 value="0.0328038300" flag="0"/>
      <psa30 value="0.0016561153" flag="0"/>
    </comp>
    <comp name="--.HNE">
      <acc value="0.0358513564" flag="0"/>
      <vel value="0.0371070129" flag="0"/>
      <psa03 value="0.1335578076" flag="0"/>
      <psa10 value="0.0583515963" flag="0"/>
      <psa30 value="0.0054861804" flag="0"/>
    </comp>
  </station>
  <station code="ATEI" name="ATEI" netid="HC" insttype="DC" lat="35.5193" lon="24.0432">
    <comp name="--.HNE">
      <acc value="0.0293871697" flag="0"/>
      <vel value="0.0270598706" flag="0"/>
      <psa03 value="0.0813109084" flag="0"/>
      <psa10 value="0.0353231155" flag="0"/>
      <psa30 value="0.0032823158" flag="0"/>
    </comp>
    <comp name="--.HNN">
      <acc value="0.0246042090" flag="0"/>
      <vel value="0.0228102219" flag="0"/>
      <psa03 value="0.0774828028" flag="0"/>
      <psa10 value="0.0421778595" flag="0"/>
      <psa30 value="0.0039521018" flag="0"/>
    </comp>
    <comp name="--.HNZ">
      <acc value="0.0203370726" flag="0"/>
      <vel value="0.0132191942" flag="0"/>
      <psa03 value="0.0664845043" flag="0"/>
      <psa10 value="0.0227154074" flag="0"/>
      <psa30 value="0.0015124569" flag="0"/>
    </comp>
  </station>
  <station code="CHAN" name="CHAN" netid="HC" insttype="120" lat="35.5193" lon="24.0428">
    <comp name="--.HHN">
      <acc value="0.0454834940" flag="0"/>
      <vel value="0.0431031679" flag="0"/>
      <psa03 value="0.1525217061" flag="0"/>
      <psa10 value="0.0754135841" flag="0"/>
      <psa30 value="0.0080742894" flag="0"/>
    </comp>
    <comp name="--.HHZ">
      <acc value="0.0377664983" flag="0"/>
      <vel value="0.0245934069" flag="0"/>
      <psa03 value="0.1240578353" flag="0"/>
      <psa10 value="0.0423173495" flag="0"/>
      <psa30 value="0.0023161215" flag="0"/>
    </comp>
    <comp name="--.HHE">
      <acc value="0.0565637716" flag="0"/>
      <vel value="0.0532632229" flag="0"/>
      <psa03 value="0.1561250623" flag="0"/>
      <psa10 value="0.0680651584" flag="0"/>
      <psa30 value="0.0051970826" flag="0"/>
    </comp>
  </station>
  <station code="DEYA" name="DEYA" netid="HC" insttype="DC" lat="35.4825" lon="24.014">
    <comp name="--.HNE">
      <acc value="0.0082394025" flag="0"/>
      <vel value="0.0063470422" flag="0"/>
      <psa03 value="0.0331494930" flag="0"/>
      <psa10 value="0.0099280476" flag="0"/>
      <psa30 value="0.0005283185" flag="0"/>
    </comp>
    <comp name="--.HNZ">
      <acc value="0.0036587093" flag="0"/>
      <vel value="0.0029687634" flag="0"/>
      <psa03 value="0.0118312205" flag="0"/>
      <psa10 value="0.0033377309" flag="0"/>
      <psa30 value="0.0002060865" flag="0"/>
    </comp>
    <comp name="--.HNN">
      <acc value="0.0051268007" flag="0"/>
      <vel value="0.0043973879" flag="0"/>
      <psa03 value="0.0180528528" flag="0"/>
      <psa10 value="0.0095487678" flag="0"/>
      <psa30 value="0.0005252239" flag="0"/>
    </comp>
  </station>
  <station code="GVDS" name="GVDS" netid="HC" insttype="60" lat="34.8389" lon="24.0585">
    <comp name="--.HHN">
      <acc value="0.0873611523" flag="0"/>
      <vel value="0.0417267957" flag="0"/>
      <psa03 value="0.2545512308" flag="0"/>
      <psa10 value="0.0208505514" flag="0"/>
      <psa30 value="0.0036774808" flag="0"/>
    </comp>
    <comp name="--.HHZ">
      <acc value="0.0560090103" flag="0"/>
      <vel value="0.0227180721" flag="0"/>
      <psa03 value="0.1174018953" flag="0"/>
      <psa10 value="0.0167032070" flag="0"/>
      <psa30 value="0.0013205103" flag="0"/>
    </comp>
    <comp name="--.HHE">
      <acc value="0.0814202675" flag="0"/>
      <vel value="0.0378449365" flag="0"/>
      <psa03 value="0.2563360919" flag="0"/>
      <psa10 value="0.0291719584" flag="0"/>
      <psa30 value="0.0022152115" flag="0"/>
    </comp>
  </station>
  <station code="IMOD" name="IMOD" netid="HC" insttype="120" lat="34.9731" lon="24.7995">
    <comp name="--.HHE">
      <acc value="0.0273406049" flag="0"/>
      <vel value="0.0226595876" flag="0"/>
      <psa03 value="0.0602574296" flag="0"/>
      <psa10 value="0.0385655172" flag="0"/>
      <psa30 value="0.0018865235" flag="0"/>
    </comp>
    <comp name="--.HHZ">
      <acc value="0.0125502143" flag="0"/>
      <vel value="0.0098555598" flag="0"/>
      <psa03 value="0.0460864403" flag="0"/>
      <psa10 value="0.0109006727" flag="0"/>
      <psa30 value="0.0011497441" flag="0"/>
    </comp>
    <comp name="--.HHN">
      <acc value="0.0239996455" flag="0"/>
      <vel value="0.0220451162" flag="0"/>
      <psa03 value="0.0793797552" flag="0"/>
      <psa10 value="0.0212776020" flag="0"/>
      <psa30 value="0.0015801827" flag="0"/>
    </comp>
  </station>
  <station code="IPPL" name="IPPL" netid="HC" insttype="60" lat="35.3486" lon="24.4632">
    <comp name="--.HHN">
      <acc value="0.0339433690" flag="0"/>
      <vel value="0.0379288824" flag="0"/>
      <psa03 value="0.0867813551" flag="0"/>
      <psa10 value="0.0356336273" flag="0"/>
      <psa30 value="0.0032385626" flag="0"/>
    </comp>
    <comp name="--.HHE">
      <acc value="0.0295806871" flag="0"/>
      <vel value="0.0243370259" flag="0"/>
      <psa03 value="0.1018382368" flag="0"/>
      <psa10 value="0.0360807732" flag="0"/>
      <psa30 value="0.0027722942" flag="0"/>
    </comp>
    <comp name="--.HHZ">
      <acc value="0.0175521624" flag="0"/>
      <vel value="0.0156882114" flag="0"/>
      <psa03 value="0.0484976098" flag="0"/>
      <psa10 value="0.0203405207" flag="0"/>
      <psa30 value="0.0021171905" flag="0"/>
    </comp>
  </station>
  <station code="KNDR" name="KNDR" netid="HC" insttype="120" lat="35.2348" lon="23.6248">
    <comp name="--.HHE">
      <acc value="0.1673969995" flag="0"/>
      <vel value="0.0929618613" flag="0"/>
      <psa03 value="0.5855125413" flag="0"/>
      <psa10 value="0.0966285501" flag="0"/>
      <psa30 value="0.0040955889" flag="0"/>
    </comp>
    <comp name="--.HHN">
      <acc value="0.1162967922" flag="0"/>
      <vel value="0.0756274466" flag="0"/>
      <psa03 value="0.3729838672" flag="0"/>
      <psa10 value="0.1121418819" flag="0"/>
      <psa30 value="0.0035900913" flag="0"/>
    </comp>
    <comp name="--.HHZ">
      <acc value="0.0771828187" flag="0"/>
      <vel value="0.0367726711" flag="0"/>
      <psa03 value="0.1942331731" flag="0"/>
      <psa10 value="0.0454827021" flag="0"/>
      <psa30 value="0.0025554050" flag="0"/>
    </comp>
  </station>
  <station code="PASK" name="PASK" netid="HC" insttype="DC" lat="35.4996" lon="24.0121">
    <comp name="--.HNE">
      <acc value="0.0757594095" flag="0"/>
      <vel value="0.0561950733" flag="0"/>
      <psa03 value="0.2257408580" flag="0"/>
      <psa10 value="0.0429902112" flag="0"/>
      <psa30 value="0.0040487176" flag="0"/>
    </comp>
    <comp name="--.HNZ">
      <acc value="0.0316490591" flag="0"/>
      <vel value="0.0252701810" flag="0"/>
      <psa03 value="0.1129822741" flag="0"/>
      <psa10 value="0.0359786553" flag="0"/>
      <psa30 value="0.0019479366" flag="0"/>
    </comp>
    <comp name="--.HNN">
      <acc value="0.0653644142" flag="0"/>
      <vel value="0.0429698792" flag="0"/>
      <psa03 value="0.1608427138" flag="0"/>
      <psa10 value="0.0603991033" flag="0"/>
      <psa30 value="0.0051116124" flag="0"/>
    </comp>
  </station>
  <station code="RODP" name="RODP" netid="HC" insttype="120" lat="35.5604" lon="23.7577">
    <comp name="--.HHE">
      <acc value="0.0386052500" flag="0"/>
      <vel value="0.0256853708" flag="0"/>
      <psa03 value="0.1341242690" flag="0"/>
      <psa10 value="0.0278617429" flag="0"/>
      <psa30 value="0.0026514931" flag="0"/>
    </comp>
    <comp name="--.HHZ">
      <acc value="0.0215022337" flag="0"/>
      <vel value="0.0118818937" flag="0"/>
      <psa03 value="0.0776029822" flag="0"/>
      <psa10 value="0.0099503562" flag="0"/>
      <psa30 value="0.0012195204" flag="0"/>
    </comp>
    <comp name="--.HHN">
      <acc value="0.0397408477" flag="0"/>
      <vel value="0.0287767881" flag="0"/>
      <psa03 value="0.1562907317" flag="0"/>
      <psa10 value="0.0277529845" flag="0"/>
      <psa30 value="0.0029105982" flag="0"/>
    </comp>
  </station>
  <station code="CH01" name="CH01" netid="HI" insttype="CMG-5TD,ACCELEROMETER,GURALP" lat="35.517" lon="24.0208">
    <comp name="--.HNE">
      <acc value="0.0322797076" flag="0"/>
      <vel value="0.0274977395" flag="0"/>
      <psa03 value="0.1013460224" flag="0"/>
      <psa10 value="0.0439231401" flag="0"/>
      <psa30 value="0.0059331723" flag="0"/>
    </comp>
    <comp name="--.HNN">
      <acc value="0.0493378005" flag="0"/>
      <vel value="0.0369888055" flag="0"/>
      <psa03 value="0.1322166162" flag="0"/>
      <psa10 value="0.0568390730" flag="0"/>
      <psa30 value="0.0051089271" flag="0"/>
    </comp>
    <comp name="--.HNZ">
      <acc value="0.0198218726" flag="0"/>
      <vel value="0.0205013355" flag="0"/>
      <psa03 value="0.0488889266" flag="0"/>
      <psa10 value="0.0274600528" flag="0"/>
      <psa30 value="0.0018764143" flag="0"/>
    </comp>
  </station>
  <station code="ANKY" name="ANKY" netid="HL" insttype="60" lat="35.867" lon="23.3012">
    <comp name="--.HHE">
      <acc value="0.0094710493" flag="0"/>
      <vel value="0.0087614567" flag="0"/>
      <psa03 value="0.0233287756" flag="0"/>
      <psa10 value="0.0239841929" flag="0"/>
      <psa30 value="0.0027906371" flag="0"/>
    </comp>
    <comp name="--.HHN">
      <acc value="0.0091706185" flag="0"/>
      <vel value="0.0090323743" flag="0"/>
      <psa03 value="0.0280494590" flag="0"/>
      <psa10 value="0.0152918158" flag="0"/>
      <psa30 value="0.0019841077" flag="0"/>
    </comp>
    <comp name="--.HHZ">
      <acc value="0.0096387571" flag="0"/>
      <vel value="0.0061157027" flag="0"/>
      <psa03 value="0.0335716016" flag="0"/>
      <psa10 value="0.0076717134" flag="0"/>
      <psa30 value="0.0009437176" flag="0"/>
    </comp>
  </station>
  <station code="GVD" name="GVD" netid="HL" insttype="120" lat="34.8391" lon="24.0874">
    <comp name="--.HHE">
      <acc value="0.3225859518" flag="0"/>
      <vel value="0.0799349054" flag="0"/>
      <psa03 value="0.4829520020" flag="0"/>
      <psa10 value="0.0580219320" flag="0"/>
      <psa30 value="0.0134427703" flag="0"/>
    </comp>
    <comp name="--.HHZ">
      <acc value="0.0858251935" flag="0"/>
      <vel value="0.0264619345" flag="0"/>
      <psa03 value="0.1234346641" flag="0"/>
      <psa10 value="0.0270899641" flag="0"/>
      <psa30 value="0.0017990222" flag="0"/>
    </comp>
    <comp name="--.HHN">
      <acc value="0.1338398059" flag="0"/>
      <vel value="0.0678471204" flag="0"/>
      <psa03 value="0.3396815425" flag="0"/>
      <psa10 value="0.0256461132" flag="0"/>
      <psa30 value="0.0039305479" flag="0"/>
    </comp>
  </station>
  <station code="IMMV" name="IMMV" netid="HL" insttype="120" lat="35.4606" lon="23.9811">
    <comp name="--.HHN">
      <acc value="0.0567738723" flag="0"/>
      <vel value="0.0335741460" flag="0"/>
      <psa03 value="0.2089726842" flag="0"/>
      <psa10 value="0.0495429152" flag="0"/>
      <psa30 value="0.0032891837" flag="0"/>
    </comp>
    <comp name="--.HHE">
      <acc value="0.0611692011" flag="0"/>
      <vel value="0.0428878414" flag="0"/>
      <psa03 value="0.1979029787" flag="0"/>
      <psa10 value="0.0293804594" flag="0"/>
      <psa30 value="0.0023284010" flag="0"/>
    </comp>
    <comp name="--.HHZ">
      <acc value="0.0317031822" flag="0"/>
      <vel value="0.0229523380" flag="0"/>
      <psa03 value="0.0879098447" flag="0"/>
      <psa10 value="0.0197183717" flag="0"/>
      <psa30 value="0.0011082634" flag="0"/>
    </comp>
  </station>
  <station code="SIVA" name="SIVA" netid="HL" insttype="60" lat="35.0178" lon="24.812">
    <comp name="--.HHE">
      <acc value="0.0320532335" flag="0"/>
      <vel value="0.0280806357" flag="0"/>
      <psa03 value="0.0920990613" flag="0"/>
      <psa10 value="0.0349393361" flag="0"/>
      <psa30 value="0.0020912637" flag="0"/>
    </comp>
    <comp name="--.HHN">
      <acc value="0.0225877831" flag="0"/>
      <vel value="0.0170530323" flag="0"/>
      <psa03 value="0.0482467239" flag="0"/>
      <psa10 value="0.0265498654" flag="0"/>
      <psa30 value="0.0014847801" flag="0"/>
    </comp>
    <comp name="--.HHZ">
      <acc value="0.0184342192" flag="0"/>
      <vel value="0.0112622850" flag="0"/>
      <psa03 value="0.0397430344" flag="0"/>
      <psa10 value="0.0111378968" flag="0"/>
      <psa30 value="0.0015376008" flag="0"/>
    </comp>
  </station>
  <station code="VAM" name="VAM" netid="HL" insttype="CMG3ESPC-120s" lat="35.407" lon="24.1997">
    <comp name="--.HHE">
      <acc value="0.0313679311" flag="0"/>
      <vel value="0.0317663091" flag="0"/>
      <psa03 value="0.0980360121" flag="0"/>
      <psa10 value="0.0471892255" flag="0"/>
      <psa30 value="0.0030386721" flag="0"/>
    </comp>
    <comp name="--.HHN">
      <acc value="0.0345603412" flag="0"/>
      <vel value="0.0288140178" flag="0"/>
      <psa03 value="0.1053204596" flag="0"/>
      <psa10 value="0.0345852850" flag="0"/>
      <psa30 value="0.0025772795" flag="0"/>
    </comp>
    <comp name="--.HHZ">
      <acc value="0.0251160247" flag="0"/>
      <vel value="0.0160878725" flag="0"/>
      <psa03 value="0.0588571666" flag="0"/>
      <psa10 value="0.0207946685" flag="0"/>
      <psa30 value="0.0025789388" flag="0"/>
    </comp>
  </station>
</stationlist>
