<?xml version="1.0" encoding="UTF-8" standalone="yes"?>
<!DOCTYPE earthquake SYSTEM "stationlist.dtd">
<stationlist created="" xmlns="ch.ethz.sed.shakemap.usgs.xml">
  <station code="BIR" name="BIR" netid="RO" insttype="MBB2/Quanterra" lat="46.2334" lon="27.6436">
    <comp name="--.HHE">
      <acc value="0.1030503935" flag="0"/>
      <vel value="0.0538962586" flag="0"/>
      <psa03 value="0.2764951370" flag="0"/>
      <psa10 value="0.0269653068" flag="0"/>
      <psa30 value="0.0022392412" flag="0"/>
    </comp>
    <comp name="--.HHN">
      <acc value="0.0813740253" flag="0"/>
      <vel value="0.0321575279" flag="0"/>
      <psa03 value="0.1454104143" flag="0"/>
      <psa10 value="0.0133463259" flag="0"/>
      <psa30 value="0.0011868930" flag="0"/>
    </comp>
    <comp name="--.HHZ">
      <acc value="0.0525315769" flag="0"/>
      <vel value="0.0195614069" flag="0"/>
      <psa03 value="0.1610396784" flag="0"/>
      <psa10 value="0.0066301646" flag="0"/>
      <psa30 value="0.0003773838" flag="0"/>
    </comp>
  </station>
  <station code="BISRR" name="BISRR" netid="RO" insttype="CMG40T.1to100/Basalt" lat="45.5481" lon="26.7099">
    <comp name="--.HHE">
      <acc value="0.0874271799" flag="0"/>
      <vel value="0.0328072253" flag="0"/>
      <psa03 value="0.2584874857" flag="0"/>
      <psa10 value="0.0276360028" flag="0"/>
      <psa30 value="0.0019482542" flag="0"/>
    </comp>
    <comp name="--.HHZ">
      <acc value="0.0678197570" flag="0"/>
      <vel value="0.0184613479" flag="0"/>
      <psa03 value="0.1390751443" flag="0"/>
      <psa10 value="0.0145250427" flag="0"/>
      <psa30 value="0.0008545466" flag="0"/>
    </comp>
    <comp name="--.HHN">
      <acc value="0.0753572501" flag="0"/>
      <vel value="0.0303167904" flag="0"/>
      <psa03 value="0.1941577297" flag="0"/>
      <psa10 value="0.0253082330" flag="0"/>
      <psa30 value="0.0014585717" flag="0"/>
    </comp>
  </station>
  <station code="BOSR" name="BOSR" netid="RO" insttype="Seismometer/Basalt" lat="46.0749" lon="25.6611">
    <comp name="--.HHZ">
      <acc value="0.0185905978" flag="0"/>
      <vel value="0.0058666473" flag="0"/>
      <psa03 value="0.0369769084" flag="0"/>
      <psa10 value="0.0029658059" flag="0"/>
      <psa30 value="0.0002324303" flag="0"/>
    </comp>
    <comp name="--.HHE">
      <acc value="0.0238491164" flag="0"/>
      <vel value="0.0136798334" flag="0"/>
      <psa03 value="0.0561468969" flag="0"/>
      <psa10 value="0.0132436099" flag="0"/>
      <psa30 value="0.0007980662" flag="0"/>
    </comp>
    <comp name="--.HHN">
      <acc value="0.0206303711" flag="0"/>
      <vel value="0.0085927663" flag="0"/>
      <psa03 value="0.0385429588" flag="0"/>
      <psa10 value="0.0053688566" flag="0"/>
      <psa30 value="0.0002907473" flag="0"/>
    </comp>
  </station>
  <station code="COPR" name="COPR" netid="RO" insttype="200" lat="45.8442" lon="26.1687">
    <comp name="--.HNE">
      <acc value="0.0249114544" flag="0"/>
      <vel value="0.0146410307" flag="0"/>
      <psa03 value="0.0727624501" flag="0"/>
      <psa10 value="0.0133791120" flag="0"/>
      <psa30 value="0.0007425079" flag="0"/>
    </comp>
    <comp name="--.HNZ">
      <acc value="0.0172887312" flag="0"/>
      <vel value="0.0075347411" flag="0"/>
      <psa03 value="0.0444503971" flag="0"/>
      <psa10 value="0.0054336218" flag="0"/>
      <psa30 value="0.0004118660" flag="0"/>
    </comp>
    <comp name="--.HNN">
      <acc value="0.0212158541" flag="0"/>
      <vel value="0.0136126059" flag="0"/>
      <psa03 value="0.0672910140" flag="0"/>
      <psa10 value="0.0080881123" flag="0"/>
      <psa30 value="0.0005359705" flag="0"/>
    </comp>
  </station>
  <station code="DOPR" name="DOPR" netid="RO" insttype="330" lat="45.9675" lon="25.3886">
    <comp name="--.HHE">
      <acc value="0.0166512838" flag="0"/>
      <vel value="0.0055512553" flag="0"/>
      <psa03 value="0.0369413623" flag="0"/>
      <psa10 value="0.0043526414" flag="0"/>
      <psa30 value="0.0003224480" flag="0"/>
    </comp>
    <comp name="--.HHZ">
      <acc value="0.0082644655" flag="0"/>
      <vel value="0.0034233210" flag="0"/>
      <psa03 value="0.0145930289" flag="0"/>
      <psa10 value="0.0017934419" flag="0"/>
      <psa30 value="0.0001290097" flag="0"/>
    </comp>
    <comp name="--.HHN">
      <acc value="0.0158405422" flag="0"/>
      <vel value="0.0073046590" flag="0"/>
      <psa03 value="0.0351316888" flag="0"/>
      <psa10 value="0.0037160545" flag="0"/>
      <psa30 value="0.0003274632" flag="0"/>
    </comp>
  </station>
  <station code="IZVR" name="IZVR" netid="RO" insttype="CMG40T.1to100/Quanterra" lat="45.5442" lon="27.7655">
    <comp name="--.HHZ">
      <acc value="0.0238723190" flag="0"/>
      <vel value="0.0070499499" flag="0"/>
      <psa03 value="0.0332560418" flag="0"/>
      <psa10 value="0.0018893931" flag="0"/>
      <psa30 value="0.0001377488" flag="0"/>
    </comp>
    <comp name="--.HHE">
      <acc value="0.0691831836" flag="0"/>
      <vel value="0.0196921398" flag="0"/>
      <psa03 value="0.0990206725" flag="0"/>
      <psa10 value="0.0053779004" flag="0"/>
      <psa30 value="0.0005042251" flag="0"/>
    </comp>
    <comp name="--.HHN">
      <acc value="0.1055746277" flag="0"/>
      <vel value="0.0289837166" flag="0"/>
      <psa03 value="0.1143459010" flag="0"/>
      <psa10 value="0.0113130717" flag="0"/>
      <psa30 value="0.0006425653" flag="0"/>
    </comp>
  </station>
  <station code="MLR" name="MLR" netid="RO" insttype="330HR" lat="45.4909" lon="25.945">
    <comp name="--.HHN">
      <acc value="0.0124078800" flag="0"/>
      <vel value="0.0073028712" flag="0"/>
      <psa03 value="0.0449899109" flag="0"/>
      <psa10 value="0.0051481539" flag="0"/>
      <psa30 value="0.0003968942" flag="0"/>
    </comp>
    <comp name="--.HHZ">
      <acc value="0.0203125903" flag="0"/>
      <vel value="0.0070666333" flag="0"/>
      <psa03 value="0.0358173960" flag="0"/>
      <psa10 value="0.0043063934" flag="0"/>
      <psa30 value="0.0002999646" flag="0"/>
    </comp>
    <comp name="--.HHE">
      <acc value="0.0168240478" flag="0"/>
      <vel value="0.0078369899" flag="0"/>
      <psa03 value="0.0612524950" flag="0"/>
      <psa10 value="0.0042684097" flag="0"/>
      <psa30 value="0.0004079261" flag="0"/>
    </comp>
  </station>
  <station code="MTUR" name="MTUR" netid="RO" insttype="200" lat="45.2349" lon="25.0739">
    <comp name="--.HNE">
      <acc value="0.0202337184" flag="0"/>
      <vel value="0.0082992845" flag="0"/>
      <psa03 value="0.0448879776" flag="0"/>
      <psa10 value="0.0097839779" flag="0"/>
      <psa30 value="0.0005455740" flag="0"/>
    </comp>
    <comp name="--.HNZ">
      <acc value="0.0135220131" flag="0"/>
      <vel value="0.0042320531" flag="0"/>
      <psa03 value="0.0255029316" flag="0"/>
      <psa10 value="0.0034123965" flag="0"/>
      <psa30 value="0.0002593685" flag="0"/>
    </comp>
    <comp name="--.HNN">
      <acc value="0.0337762261" flag="0"/>
      <vel value="0.0089216264" flag="0"/>
      <psa03 value="0.0623365528" flag="0"/>
      <psa10 value="0.0055985691" flag="0"/>
      <psa30 value="0.0007683487" flag="0"/>
    </comp>
  </station>
  <station code="NARR" name="NARR" netid="RO" insttype="OBS-SIO/Centaur" lat="45.8165" lon="26.7368">
    <comp name="--.HHN">
      <acc value="0.0939754242" flag="0"/>
      <vel value="0.0287094819" flag="0"/>
      <psa03 value="0.1503750465" flag="0"/>
      <psa10 value="0.0116862483" flag="0"/>
      <psa30 value="0.0006761515" flag="0"/>
    </comp>
    <comp name="--.HHZ">
      <acc value="0.0752537769" flag="0"/>
      <vel value="0.0206051051" flag="0"/>
      <psa03 value="0.0940599681" flag="0"/>
      <psa10 value="0.0057107023" flag="0"/>
      <psa30 value="0.0005041679" flag="0"/>
    </comp>
    <comp name="--.HHE">
      <acc value="0.1439471769" flag="0"/>
      <vel value="0.0380474340" flag="0"/>
      <psa03 value="0.1510246040" flag="0"/>
      <psa10 value="0.0088414759" flag="0"/>
      <psa30 value="0.0008119789" flag="0"/>
    </comp>
  </station>
  <station code="NEGRR" name="NEGRR" netid="RO" insttype="CMG40T.1to100/Quanterra" lat="45.5373" lon="27.8771">
    <comp name="--.HHE">
      <acc value="0.0414121976" flag="0"/>
      <vel value="0.0189745182" flag="0"/>
      <psa03 value="0.0708248180" flag="0"/>
      <psa10 value="0.0066952028" flag="0"/>
      <psa30 value="0.0004682845" flag="0"/>
    </comp>
    <comp name="--.HHZ">
      <acc value="0.0352689638" flag="0"/>
      <vel value="0.0083510964" flag="0"/>
      <psa03 value="0.0309524716" flag="0"/>
      <psa10 value="0.0017409465" flag="0"/>
      <psa30 value="0.0001534187" flag="0"/>
    </comp>
    <comp name="--.HHN">
      <acc value="0.0492842995" flag="0"/>
      <vel value="0.0121011934" flag="0"/>
      <psa03 value="0.0560029294" flag="0"/>
      <psa10 value="0.0038429332" flag="0"/>
      <psa30 value="0.0003966212" flag="0"/>
    </comp>
  </station>
  <station code="NEHR" name="NEHR" netid="RO" insttype="Seismometer/Basalt" lat="45.4272" lon="26.2952">
    <comp name="--.HHN">
      <acc value="0.0067067335" flag="0"/>
      <vel value="0.0020078371" flag="0"/>
      <psa03 value="0.0104182503" flag="0"/>
      <psa10 value="0.0012630174" flag="0"/>
      <psa30 value="0.0005636621" flag="0"/>
    </comp>
    <comp name="--.HHZ">
      <acc value="0.0037227177" flag="0"/>
      <vel value="0.0014794473" flag="0"/>
      <psa03 value="0.0094751287" flag="0"/>
      <psa10 value="0.0005404432" flag="0"/>
      <psa30 value="0.0000553887" flag="0"/>
    </comp>
    <comp name="--.HHE">
      <acc value="0.0063517072" flag="0"/>
      <vel value="0.0029381209" flag="0"/>
      <psa03 value="0.0245520023" flag="0"/>
      <psa10 value="0.0012490662" flag="0"/>
      <psa30 value="0.0000820001" flag="0"/>
    </comp>
  </station>
  <station code="ODBI" name="ODBI" netid="RO" insttype="200" lat="45.7633" lon="27.0558">
    <comp name="--.HNE">
      <acc value="0.0340572605" flag="0"/>
      <vel value="0.0113502600" flag="0"/>
      <psa03 value="0.0584680716" flag="0"/>
      <psa10 value="0.0053091176" flag="0"/>
      <psa30 value="0.0006092763" flag="0"/>
    </comp>
    <comp name="--.HNN">
      <acc value="0.0228184850" flag="0"/>
      <vel value="0.0092403978" flag="0"/>
      <psa03 value="0.0555675754" flag="0"/>
      <psa10 value="0.0067266928" flag="0"/>
      <psa30 value="0.0006057841" flag="0"/>
    </comp>
    <comp name="--.HNZ">
      <acc value="0.0663784725" flag="0"/>
      <vel value="0.0152981908" flag="0"/>
      <psa03 value="0.0785490816" flag="0"/>
      <psa10 value="0.0066021820" flag="0"/>
      <psa30 value="0.0005750644" flag="0"/>
    </comp>
  </station>
  <station code="ODSR" name="ODSR" netid="RO" insttype="CMG40T.1to100/Quanterra" lat="46.2969" lon="25.2919">
    <comp name="--.HHZ">
      <acc value="0.0050346877" flag="0"/>
      <vel value="0.0018586537" flag="0"/>
      <psa03 value="0.0119731900" flag="0"/>
      <psa10 value="0.0019771976" flag="0"/>
      <psa30 value="0.0001585564" flag="0"/>
    </comp>
    <comp name="--.HHN">
      <acc value="0.0048435201" flag="0"/>
      <vel value="0.0032317166" flag="0"/>
      <psa03 value="0.0244289098" flag="0"/>
      <psa10 value="0.0029044508" flag="0"/>
      <psa30 value="0.0002196431" flag="0"/>
    </comp>
    <comp name="--.HHE">
      <acc value="0.0090615165" flag="0"/>
      <vel value="0.0050002578" flag="0"/>
      <psa03 value="0.0200428030" flag="0"/>
      <psa10 value="0.0027344405" flag="0"/>
      <psa30 value="0.0003720958" flag="0"/>
    </comp>
  </station>
  <station code="PANC" name="PANC" netid="RO" insttype="Seismometer/Basalt" lat="45.8723" lon="27.1477">
    <comp name="--.HHE">
      <acc value="0.1291385581" flag="0"/>
      <vel value="0.0334316373" flag="0"/>
      <psa03 value="0.1271926186" flag="0"/>
      <psa10 value="0.0060667861" flag="0"/>
      <psa30 value="0.0008133570" flag="0"/>
    </comp>
    <comp name="--.HHN">
      <acc value="0.1436573928" flag="0"/>
      <vel value="0.0415660648" flag="0"/>
      <psa03 value="0.1153672466" flag="0"/>
      <psa10 value="0.0112784477" flag="0"/>
      <psa30 value="0.0005441012" flag="0"/>
    </comp>
    <comp name="--.HHZ">
      <acc value="0.1097307489" flag="0"/>
      <vel value="0.0305766337" flag="0"/>
      <psa03 value="0.0826715316" flag="0"/>
      <psa10 value="0.0078614742" flag="0"/>
      <psa30 value="0.0006002934" flag="0"/>
    </comp>
  </station>
  <station code="PGOR" name="PGOR" netid="RO" insttype="CMG40T.1to100/Quanterra" lat="44.9199" lon="26.9768">
    <comp name="--.HHE">
      <acc value="0.1002480415" flag="0"/>
      <vel value="0.0389521315" flag="0"/>
      <psa03 value="0.1885976939" flag="0"/>
      <psa10 value="0.0203133861" flag="0"/>
      <psa30 value="0.0016514878" flag="0"/>
    </comp>
    <comp name="--.HHN">
      <acc value="0.1354575671" flag="0"/>
      <vel value="0.0535903251" flag="0"/>
      <psa03 value="0.3244247589" flag="0"/>
      <psa10 value="0.0153939578" flag="0"/>
      <psa30 value="0.0015378347" flag="0"/>
    </comp>
    <comp name="--.HHZ">
      <acc value="0.0900217744" flag="0"/>
      <vel value="0.0119408877" flag="0"/>
      <psa03 value="0.0396534729" flag="0"/>
      <psa10 value="0.0035652727" flag="0"/>
      <psa30 value="0.0003351544" flag="0"/>
    </comp>
  </station>
  <station code="PLOR" name="PLOR" netid="RO" insttype="MBB2/Quanterra" lat="45.8512" lon="26.6498">
    <comp name="--.HHE">
      <acc value="0.0218826481" flag="0"/>
      <vel value="0.0117597235" flag="0"/>
      <psa03 value="0.0635780590" flag="0"/>
      <psa10 value="0.0071201151" flag="0"/>
      <psa30 value="0.0003720675" flag="0"/>
    </comp>
    <comp name="--.HHN">
      <acc value="0.0287770871" flag="0"/>
      <vel value="0.0106848297" flag="0"/>
      <psa03 value="0.0985525160" flag="0"/>
      <psa10 value="0.0042944449" flag="0"/>
      <psa30 value="0.0003463010" flag="0"/>
    </comp>
    <comp name="--.HHZ">
      <acc value="0.0249796467" flag="0"/>
      <vel value="0.0065843091" flag="0"/>
      <psa03 value="0.0389553000" flag="0"/>
      <psa10 value="0.0029899337" flag="0"/>
      <psa30 value="0.0001938252" flag="0"/>
    </comp>
  </station>
  <station code="PLOR4" name="PLOR4" netid="RO" insttype="MBB2/Quanterra" lat="45.8512" lon="26.6498">
    <comp name="--.HHE">
      <acc value="0.0218826481" flag="0"/>
      <vel value="0.0117597235" flag="0"/>
      <psa03 value="0.0635780590" flag="0"/>
      <psa10 value="0.0071201151" flag="0"/>
      <psa30 value="0.0003720675" flag="0"/>
    </comp>
    <comp name="--.HHN">
      <acc value="0.0287770871" flag="0"/>
      <vel value="0.0106848297" flag="0"/>
      <psa03 value="0.0985525160" flag="0"/>
      <psa10 value="0.0042944449" flag="0"/>
      <psa30 value="0.0003463010" flag="0"/>
    </comp>
    <comp name="--.HHZ">
      <acc value="0.0249796467" flag="0"/>
      <vel value="0.0065843091" flag="0"/>
      <psa03 value="0.0389553000" flag="0"/>
      <psa10 value="0.0029899337" flag="0"/>
      <psa30 value="0.0001938252" flag="0"/>
    </comp>
  </station>
  <station code="SCHL" name="SCHL" netid="RO" insttype="CMG40T.1to100/Quanterra" lat="45.5007" lon="27.8302">
    <comp name="--.HHN">
      <acc value="0.0437681949" flag="0"/>
      <vel value="0.0152398639" flag="0"/>
      <psa03 value="0.0842722500" flag="0"/>
      <psa10 value="0.0180626932" flag="0"/>
      <psa30 value="0.0007623148" flag="0"/>
    </comp>
    <comp name="--.HHE">
      <acc value="0.0536761116" flag="0"/>
      <vel value="0.0166955286" flag="0"/>
      <psa03 value="0.1481665733" flag="0"/>
      <psa10 value="0.0120193004" flag="0"/>
      <psa30 value="0.0004361949" flag="0"/>
    </comp>
    <comp name="--.HHZ">
      <acc value="0.0466846778" flag="0"/>
      <vel value="0.0071429774" flag="0"/>
      <psa03 value="0.0353842464" flag="0"/>
      <psa10 value="0.0026005442" flag="0"/>
      <psa30 value="0.0001261270" flag="0"/>
    </comp>
  </station>
  <station code="SCHLR" name="SCHLR" netid="RO" insttype="CMG40T.1to100/Quanterra" lat="45.4702" lon="27.8314">
    <comp name="--.HHE">
      <acc value="0.0402638578" flag="0"/>
      <vel value="0.0079118779" flag="0"/>
      <psa03 value="0.0360680344" flag="0"/>
      <psa10 value="0.0052475676" flag="0"/>
      <psa30 value="0.0002277400" flag="0"/>
    </comp>
    <comp name="--.HHN">
      <acc value="0.0441626460" flag="0"/>
      <vel value="0.0132688316" flag="0"/>
      <psa03 value="0.0712044088" flag="0"/>
      <psa10 value="0.0083329950" flag="0"/>
      <psa30 value="0.0003443871" flag="0"/>
    </comp>
    <comp name="--.HHZ">
      <acc value="0.0253412640" flag="0"/>
      <vel value="0.0033761525" flag="0"/>
      <psa03 value="0.0169490077" flag="0"/>
      <psa10 value="0.0012985212" flag="0"/>
      <psa30 value="0.0001037089" flag="0"/>
    </comp>
  </station>
  <station code="SULR" name="SULR" netid="RO" insttype="330" lat="44.6777" lon="26.2526">
    <comp name="--.HHN">
      <acc value="0.1124110186" flag="0"/>
      <vel value="0.0401503700" flag="0"/>
      <psa03 value="0.1516517014" flag="0"/>
      <psa10 value="0.0241472910" flag="0"/>
      <psa30 value="0.0024339602" flag="0"/>
    </comp>
    <comp name="--.HHZ">
      <acc value="0.0482929880" flag="0"/>
      <vel value="0.0166737159" flag="0"/>
      <psa03 value="0.0609413060" flag="0"/>
      <psa10 value="0.0046989178" flag="0"/>
      <psa30 value="0.0005595143" flag="0"/>
    </comp>
    <comp name="--.HHE">
      <acc value="0.1248030358" flag="0"/>
      <vel value="0.0424329104" flag="0"/>
      <psa03 value="0.2247674727" flag="0"/>
      <psa10 value="0.0154836543" flag="0"/>
      <psa30 value="0.0013986412" flag="0"/>
    </comp>
  </station>
  <station code="TESR" name="TESR" netid="RO" insttype="330" lat="46.5118" lon="26.6489">
    <comp name="--.HHN">
      <acc value="0.0234601417" flag="0"/>
      <vel value="0.0079945926" flag="0"/>
      <psa03 value="0.0653622949" flag="0"/>
      <psa10 value="0.0038489206" flag="0"/>
      <psa30 value="0.0003605997" flag="0"/>
    </comp>
    <comp name="--.HHE">
      <acc value="0.0228024525" flag="0"/>
      <vel value="0.0093507715" flag="0"/>
      <psa03 value="0.0774891926" flag="0"/>
      <psa10 value="0.0059265634" flag="0"/>
      <psa30 value="0.0003821219" flag="0"/>
    </comp>
    <comp name="--.HHZ">
      <acc value="0.0224194553" flag="0"/>
      <vel value="0.0040364438" flag="0"/>
      <psa03 value="0.0157172042" flag="0"/>
      <psa10 value="0.0016404153" flag="0"/>
      <psa30 value="0.0001048613" flag="0"/>
    </comp>
  </station>
  <station code="TUDR" name="TUDR" netid="RO" insttype="CMG40T.1to100/Quanterra" lat="45.5939" lon="27.6687">
    <comp name="--.HHZ">
      <acc value="0.1526809467" flag="0"/>
      <vel value="0.0114736914" flag="0"/>
      <psa03 value="0.0455510689" flag="0"/>
      <psa10 value="0.0032247672" flag="0"/>
      <psa30 value="0.0002199743" flag="0"/>
    </comp>
    <comp name="--.HHE">
      <acc value="0.1459593139" flag="0"/>
      <vel value="0.0552237183" flag="0"/>
      <psa03 value="0.2955897348" flag="0"/>
      <psa10 value="0.0127410289" flag="0"/>
      <psa30 value="0.0012324280" flag="0"/>
    </comp>
    <comp name="--.HHN">
      <acc value="0.1381016554" flag="0"/>
      <vel value="0.0461964555" flag="0"/>
      <psa03 value="0.2350100992" flag="0"/>
      <psa10 value="0.0211514898" flag="0"/>
      <psa30 value="0.0012381239" flag="0"/>
    </comp>
  </station>
  <station code="VARL" name="VARL" netid="RO" insttype="MBB2/Quanterra" lat="45.8996" lon="27.8487">
    <comp name="--.HHN">
      <acc value="0.0653535514" flag="0"/>
      <vel value="0.0206498118" flag="0"/>
      <psa03 value="0.1022464745" flag="0"/>
