<?xml version="1.0" encoding="UTF-8" standalone="yes"?>
<!DOCTYPE earthquake SYSTEM "stationlist.dtd">
<stationlist created="" xmlns="ch.ethz.sed.shakemap.usgs.xml">
  <station code="BIR" name="BIR" netid="RO" insttype="MBB2/Quanterra" lat="46.2334" lon="27.6436">
    <comp name="--.HHE">
      <acc value="0.1030503935" flag="0"/>
      <vel value="0.0538962586" flag="0"/>
      <psa03 value="0.2764951370" flag="0"/>
      <psa10 value="0.0269653068" flag="0"/>
      <psa30 value="0.0022392335" flag="0"/>
    </comp>
    <comp name="--.HHN">
      <acc value="0.0813740253" flag="0"/>
      <vel value="0.0321575268" flag="0"/>
      <psa03 value="0.1454104143" flag="0"/>
      <psa10 value="0.0133463259" flag="0"/>
      <psa30 value="0.0011869162" flag="0"/>
    </comp>
    <comp name="--.HHZ">
      <acc value="0.0525315769" flag="0"/>
      <vel value="0.0195614070" flag="0"/>
      <psa03 value="0.1610396784" flag="0"/>
      <psa10 value="0.0066301646" flag="0"/>
      <psa30 value="0.0003773799" flag="0"/>
    </comp>
  </station>
  <station code="BISRR" name="BISRR" netid="RO" insttype="CMG40T.1to100/Basalt" lat="45.5481" lon="26.7099">
    <comp name="--.HHZ">
      <acc value="0.0678197565" flag="0"/>
      <vel value="0.0184613501" flag="0"/>
      <psa03 value="0.1390751443" flag="0"/>
      <psa10 value="0.0145250427" flag="0"/>
      <psa30 value="0.0008545499" flag="0"/>
    </comp>
    <comp name="--.HHN">
      <acc value="0.0753572503" flag="0"/>
      <vel value="0.0303168196" flag="0"/>
      <psa03 value="0.1941577297" flag="0"/>
      <psa10 value="0.0253082331" flag="0"/>
      <psa30 value="0.0014587814" flag="0"/>
    </comp>
    <comp name="--.HHE">
      <acc value="0.0874271798" flag="0"/>
      <vel value="0.0328072029" flag="0"/>
      <psa03 value="0.2584874857" flag="0"/>
      <psa10 value="0.0276360029" flag="0"/>
      <psa30 value="0.0019481506" flag="0"/>
    </comp>
  </station>
  <station code="BOSR" name="BOSR" netid="RO" insttype="Seismometer/Basalt" lat="46.0749" lon="25.6611">
    <comp name="--.HHN">
      <acc value="0.0206303711" flag="0"/>
      <vel value="0.0085927664" flag="0"/>
      <psa03 value="0.0385429588" flag="0"/>
      <psa10 value="0.0053688566" flag="0"/>
      <psa30 value="0.0002907488" flag="0"/>
    </comp>
    <comp name="--.HHZ">
      <acc value="0.0185905978" flag="0"/>
      <vel value="0.0058666472" flag="0"/>
      <psa03 value="0.0369769084" flag="0"/>
      <psa10 value="0.0029658059" flag="0"/>
      <psa30 value="0.0002324325" flag="0"/>
    </comp>
    <comp name="--.HHE">
      <acc value="0.0238491164" flag="0"/>
      <vel value="0.0136798334" flag="0"/>
      <psa03 value="0.0561468969" flag="0"/>
      <psa10 value="0.0132436099" flag="0"/>
      <psa30 value="0.0007980648" flag="0"/>
    </comp>
  </station>
  <station code="COPR" name="COPR" netid="RO" insttype="200" lat="45.8442" lon="26.1687">
    <comp name="--.HNE">
      <acc value="0.0249114544" flag="0"/>
      <vel value="0.0146410314" flag="0"/>
      <psa03 value="0.0727624501" flag="0"/>
      <psa10 value="0.0133791123" flag="0"/>
      <psa30 value="0.0007423088" flag="0"/>
    </comp>
    <comp name="--.HNN">
      <acc value="0.0212158548" flag="0"/>
      <vel value="0.0136126055" flag="0"/>
      <psa03 value="0.0672910140" flag="0"/>
      <psa10 value="0.0080880986" flag="0"/>
      <psa30 value="0.0005358934" flag="0"/>
    </comp>
    <comp name="--.HNZ">
      <acc value="0.0172887308" flag="0"/>
      <vel value="0.0075347425" flag="0"/>
      <psa03 value="0.0444503971" flag="0"/>
      <psa10 value="0.0054336351" flag="0"/>
      <psa30 value="0.0004106325" flag="0"/>
    </comp>
  </station>
  <station code="DOPR" name="DOPR" netid="RO" insttype="330" lat="45.9675" lon="25.3886">
    <comp name="--.HHE">
      <acc value="0.0166512838" flag="0"/>
      <vel value="0.0055512553" flag="0"/>
      <psa03 value="0.0369413623" flag="0"/>
      <psa10 value="0.0043526414" flag="0"/>
      <psa30 value="0.0003224486" flag="0"/>
    </comp>
    <comp name="--.HHN">
      <acc value="0.0158405422" flag="0"/>
      <vel value="0.0073046589" flag="0"/>
      <psa03 value="0.0351316888" flag="0"/>
      <psa10 value="0.0037160545" flag="0"/>
      <psa30 value="0.0003274638" flag="0"/>
    </comp>
    <comp name="--.HHZ">
      <acc value="0.0082644655" flag="0"/>
      <vel value="0.0034233211" flag="0"/>
      <psa03 value="0.0145930289" flag="0"/>
      <psa10 value="0.0017934419" flag="0"/>
      <psa30 value="0.0001290085" flag="0"/>
    </comp>
  </station>
  <station code="INCR" name="INCR" netid="RO" insttype="200" lat="44.441" lon="26.1611">
    <comp name="--.HNE">
      <acc value="0.0482539993" flag="0"/>
      <vel value="0.0167681811" flag="0"/>
      <psa03 value="0.0929874975" flag="0"/>
      <psa10 value="0.0056848996" flag="0"/>
      <psa30 value="0.0005319432" flag="0"/>
    </comp>
    <comp name="--.HNN">
      <acc value="0.0717193688" flag="0"/>
      <vel value="0.0302679646" flag="0"/>
      <psa03 value="0.1100504243" flag="0"/>
      <psa10 value="0.0133678250" flag="0"/>
      <psa30 value="0.0014934082" flag="0"/>
    </comp>
    <comp name="--.HNZ">
      <acc value="0.0424640771" flag="0"/>
      <vel value="0.0083966991" flag="0"/>
      <psa03 value="0.0372448511" flag="0"/>
      <psa10 value="0.0033800427" flag="0"/>
      <psa30 value="0.0002547800" flag="0"/>
    </comp>
  </station>
  <station code="IZVR" name="IZVR" netid="RO" insttype="CMG40T.1to100/Quanterra" lat="45.5442" lon="27.7655">
    <comp name="--.HHE">
      <acc value="0.0691831836" flag="0"/>
      <vel value="0.0196921425" flag="0"/>
      <psa03 value="0.0990206725" flag="0"/>
      <psa10 value="0.0053779004" flag="0"/>
      <psa30 value="0.0005042125" flag="0"/>
    </comp>
    <comp name="--.HHZ">
      <acc value="0.0238723191" flag="0"/>
      <vel value="0.0070499509" flag="0"/>
      <psa03 value="0.0332560418" flag="0"/>
      <psa10 value="0.0018893931" flag="0"/>
      <psa30 value="0.0001377847" flag="0"/>
    </comp>
    <comp name="--.HHN">
      <acc value="0.1055746275" flag="0"/>
      <vel value="0.0289837175" flag="0"/>
      <psa03 value="0.1143459010" flag="0"/>
      <psa10 value="0.0113130718" flag="0"/>
      <psa30 value="0.0006425809" flag="0"/>
    </comp>
  </station>
  <station code="MLR" name="MLR" netid="RO" insttype="330HR" lat="45.4909" lon="25.945">
    <comp name="--.HHE">
      <acc value="0.0168240478" flag="0"/>
      <vel value="0.0078369900" flag="0"/>
      <psa03 value="0.0612524950" flag="0"/>
      <psa10 value="0.0042684097" flag="0"/>
      <psa30 value="0.0004078923" flag="0"/>
    </comp>
    <comp name="--.HHN">
      <acc value="0.0124078800" flag="0"/>
      <vel value="0.0073028708" flag="0"/>
      <psa03 value="0.0449899109" flag="0"/>
      <psa10 value="0.0051481539" flag="0"/>
      <psa30 value="0.0003968457" flag="0"/>
    </comp>
    <comp name="--.HHZ">
      <acc value="0.0203125903" flag="0"/>
      <vel value="0.0070666328" flag="0"/>
      <psa03 value="0.0358173960" flag="0"/>
      <psa10 value="0.0043063948" flag="0"/>
      <psa30 value="0.0002997584" flag="0"/>
    </comp>
  </station>
  <station code="MTUR" name="MTUR" netid="RO" insttype="200" lat="45.2349" lon="25.0739">
    <comp name="--.HNE">
      <acc value="0.0202337185" flag="0"/>
      <vel value="0.0082992849" flag="0"/>
      <psa03 value="0.0448879776" flag="0"/>
      <psa10 value="0.0097839779" flag="0"/>
      <psa30 value="0.0005455902" flag="0"/>
    </comp>
    <comp name="--.HNN">
      <acc value="0.0337762260" flag="0"/>
      <vel value="0.0089216266" flag="0"/>
      <psa03 value="0.0623365528" flag="0"/>
      <psa10 value="0.0055985691" flag="0"/>
      <psa30 value="0.0007683081" flag="0"/>
    </comp>
    <comp name="--.HNZ">
      <acc value="0.0135220129" flag="0"/>
      <vel value="0.0042320527" flag="0"/>
      <psa03 value="0.0255029316" flag="0"/>
      <psa10 value="0.0034123965" flag="0"/>
      <psa30 value="0.0002593662" flag="0"/>
    </comp>
  </station>
  <station code="NARR" name="NARR" netid="RO" insttype="OBS-SIO/Centaur" lat="45.8165" lon="26.7368">
    <comp name="--.HHZ">
      <acc value="0.0752537769" flag="0"/>
      <vel value="0.0206051061" flag="0"/>
      <psa03 value="0.0940599681" flag="0"/>
      <psa10 value="0.0057107020" flag="0"/>
      <psa30 value="0.0005043748" flag="0"/>
    </comp>
    <comp name="--.HHE">
      <acc value="0.1439471767" flag="0"/>
      <vel value="0.0380474353" flag="0"/>
      <psa03 value="0.1510246040" flag="0"/>
      <psa10 value="0.0088414758" flag="0"/>
      <psa30 value="0.0008119652" flag="0"/>
    </comp>
    <comp name="--.HHN">
      <acc value="0.0939754240" flag="0"/>
      <vel value="0.0287094836" flag="0"/>
      <psa03 value="0.1503750465" flag="0"/>
      <psa10 value="0.0116862483" flag="0"/>
      <psa30 value="0.0006761378" flag="0"/>
    </comp>
  </station>
  <station code="NEGRR" name="NEGRR" netid="RO" insttype="CMG40T.1to100/Quanterra" lat="45.5373" lon="27.8771">
    <comp name="--.HHE">
      <acc value="0.0414121976" flag="0"/>
      <vel value="0.0189745195" flag="0"/>
      <psa03 value="0.0708248180" flag="0"/>
      <psa10 value="0.0066952028" flag="0"/>
      <psa30 value="0.0004682992" flag="0"/>
    </comp>
    <comp name="--.HHZ">
      <acc value="0.0352689638" flag="0"/>
      <vel value="0.0083510957" flag="0"/>
      <psa03 value="0.0309524716" flag="0"/>
      <psa10 value="0.0017409465" flag="0"/>
      <psa30 value="0.0001534086" flag="0"/>
    </comp>
    <comp name="--.HHN">
      <acc value="0.0492842994" flag="0"/>
      <vel value="0.0121011918" flag="0"/>
      <psa03 value="0.0560029294" flag="0"/>
      <psa10 value="0.0038429332" flag="0"/>
      <psa30 value="0.0003966140" flag="0"/>
    </comp>
  </station>
  <station code="NEHR" name="NEHR" netid="RO" insttype="Seismometer/Basalt" lat="45.4272" lon="26.2952">
    <comp name="--.HHN">
      <acc value="0.0067067333" flag="0"/>
      <vel value="0.0020078375" flag="0"/>
      <psa03 value="0.0104182503" flag="0"/>
      <psa10 value="0.0012630178" flag="0"/>
      <psa30 value="0.0005636787" flag="0"/>
    </comp>
    <comp name="--.HHZ">
      <acc value="0.0037227177" flag="0"/>
      <vel value="0.0014794473" flag="0"/>
      <psa03 value="0.0094751287" flag="0"/>
      <psa10 value="0.0005404434" flag="0"/>
      <psa30 value="0.0000553798" flag="0"/>
    </comp>
    <comp name="--.HHE">
      <acc value="0.0063517073" flag="0"/>
      <vel value="0.0029381210" flag="0"/>
      <psa03 value="0.0245520023" flag="0"/>
      <psa10 value="0.0012490662" flag="0"/>
      <psa30 value="0.0000819841" flag="0"/>
    </comp>
  </station>
  <station code="ODBI" name="ODBI" netid="RO" insttype="200" lat="45.7633" lon="27.0558">
    <comp name="--.HNN">
      <acc value="0.0228184850" flag="0"/>
      <vel value="0.0092403978" flag="0"/>
      <psa03 value="0.0555675754" flag="0"/>
      <psa10 value="0.0067266928" flag="0"/>
      <psa30 value="0.0006056693" flag="0"/>
    </comp>
    <comp name="--.HNE">
      <acc value="0.0340572611" flag="0"/>
      <vel value="0.0113502581" flag="0"/>
      <psa03 value="0.0584680716" flag="0"/>
      <psa10 value="0.0053091177" flag="0"/>
      <psa30 value="0.0006092602" flag="0"/>
    </comp>
    <comp name="--.HNZ">
      <acc value="0.0663784712" flag="0"/>
      <vel value="0.0152981917" flag="0"/>
      <psa03 value="0.0785490816" flag="0"/>
      <psa10 value="0.0066022273" flag="0"/>
      <psa30 value="0.0005758156" flag="0"/>
    </comp>
  </station>
  <station code="ODSR" name="ODSR" netid="RO" insttype="CMG40T.1to100/Quanterra" lat="46.2969" lon="25.2919">
    <comp name="--.HHZ">
      <acc value="0.0050346875" flag="0"/>
      <vel value="0.0018586522" flag="0"/>
      <psa03 value="0.0119731900" flag="0"/>
      <psa10 value="0.0019771976" flag="0"/>
      <psa30 value="0.0001585495" flag="0"/>
    </comp>
    <comp name="--.HHN">
      <acc value="0.0048435200" flag="0"/>
      <vel value="0.0032317182" flag="0"/>
      <psa03 value="0.0244289098" flag="0"/>
      <psa10 value="0.0029044508" flag="0"/>
      <psa30 value="0.0002196430" flag="0"/>
    </comp>
    <comp name="--.HHE">
      <acc value="0.0090615164" flag="0"/>
      <vel value="0.0050002578" flag="0"/>
      <psa03 value="0.0200428030" flag="0"/>
      <psa10 value="0.0027344405" flag="0"/>
      <psa30 value="0.0003721263" flag="0"/>
    </comp>
  </station>
  <station code="PANC" name="PANC" netid="RO" insttype="Seismometer/Basalt" lat="45.8723" lon="27.1477">
    <comp name="--.HHE">
      <acc value="0.1291385583" flag="0"/>
      <vel value="0.0334316377" flag="0"/>
      <psa03 value="0.1271926186" flag="0"/>
      <psa10 value="0.0060667861" flag="0"/>
      <psa30 value="0.0008133018" flag="0"/>
    </comp>
    <comp name="--.HHN">
      <acc value="0.1436573930" flag="0"/>
      <vel value="0.0415660645" flag="0"/>
      <psa03 value="0.1153672466" flag="0"/>
      <psa10 value="0.0112784477" flag="0"/>
      <psa30 value="0.0005440268" flag="0"/>
    </comp>
    <comp name="--.HHZ">
      <acc value="0.1097307492" flag="0"/>
      <vel value="0.0305766333" flag="0"/>
      <psa03 value="0.0826715316" flag="0"/>
      <psa10 value="0.0078614714" flag="0"/>
      <psa30 value="0.0006000347" flag="0"/>
    </comp>
  </station>
  <station code="PGOR" name="PGOR" netid="RO" insttype="CMG40T.1to100/Quanterra" lat="44.9199" lon="26.9768">
    <comp name="--.HHN">
      <acc value="0.1354575672" flag="0"/>
      <vel value="0.0535903132" flag="0"/>
      <psa03 value="0.3244247588" flag="0"/>
      <psa10 value="0.0153939578" flag="0"/>
      <psa30 value="0.0015382258" flag="0"/>
    </comp>
    <comp name="--.HHZ">
      <acc value="0.0900217742" flag="0"/>
      <vel value="0.0119408918" flag="0"/>
      <psa03 value="0.0396534729" flag="0"/>
      <psa10 value="0.0035652726" flag="0"/>
      <psa30 value="0.0003352125" flag="0"/>
    </comp>
    <comp name="--.HHE">
      <acc value="0.1002480416" flag="0"/>
      <vel value="0.0389521462" flag="0"/>
      <psa03 value="0.1885976939" flag="0"/>
      <psa10 value="0.0203133862" flag="0"/>
      <psa30 value="0.0016514172" flag="0"/>
    </comp>
  </station>
  <station code="PLOR" name="PLOR" netid="RO" insttype="MBB2/Quanterra" lat="45.8512" lon="26.6498">
    <comp name="--.HHZ">
      <acc value="0.0249796467" flag="0"/>
      <vel value="0.0065843092" flag="0"/>
      <psa03 value="0.0389553000" flag="0"/>
      <psa10 value="0.0029899337" flag="0"/>
      <psa30 value="0.0001938147" flag="0"/>
    </comp>
    <comp name="--.HHN">
      <acc value="0.0287770871" flag="0"/>
      <vel value="0.0106848298" flag="0"/>
      <psa03 value="0.0985525160" flag="0"/>
      <psa10 value="0.0042944449" flag="0"/>
      <psa30 value="0.0003462618" flag="0"/>
    </comp>
    <comp name="--.HHE">
      <acc value="0.0218826476" flag="0"/>
      <vel value="0.0117597236" flag="0"/>
      <psa03 value="0.0635780590" flag="0"/>
      <psa10 value="0.0071201151" flag="0"/>
      <psa30 value="0.0003720788" flag="0"/>
    </comp>
  </station>
  <station code="PLOR4" name="PLOR4" netid="RO" insttype="MBB2/Quanterra" lat="45.8512" lon="26.6498">
    <comp name="--.HHZ">
      <acc value="0.0249796467" flag="0"/>
      <vel value="0.0065843092" flag="0"/>
      <psa03 value="0.0389553000" flag="0"/>
      <psa10 value="0.0029899337" flag="0"/>
      <psa30 value="0.0001938147" flag="0"/>
    </comp>
    <comp name="--.HHE">
      <acc value="0.0218826476" flag="0"/>
      <vel value="0.0117597236" flag="0"/>
      <psa03 value="0.0635780590" flag="0"/>
      <psa10 value="0.0071201151" flag="0"/>
      <psa30 value="0.0003720788" flag="0"/>
    </comp>
    <comp name="--.HHN">
      <acc value="0.0287770871" flag="0"/>
      <vel value="0.0106848298" flag="0"/>
      <psa03 value="0.0985525160" flag="0"/>
      <psa10 value="0.0042944449" flag="0"/>
      <psa30 value="0.0003462618" flag="0"/>
    </comp>
  </station>
  <station code="SCHL" name="SCHL" netid="RO" insttype="CMG40T.1to100/Quanterra" lat="45.5007" lon="27.8302">
    <comp name="--.HHE">
      <acc value="0.0536761117" flag="0"/>
      <vel value="0.0166955309" flag="0"/>
      <psa03 value="0.1481665733" flag="0"/>
      <psa10 value="0.0120193003" flag="0"/>
      <psa30 value="0.0004362639" flag="0"/>
    </comp>
    <comp name="--.HHN">
      <acc value="0.0437681948" flag="0"/>
      <vel value="0.0152398642" flag="0"/>
      <psa03 value="0.0842722500" flag="0"/>
      <psa10 value="0.0180626932" flag="0"/>
      <psa30 value="0.0007622826" flag="0"/>
    </comp>
    <comp name="--.HHZ">
      <acc value="0.0466846778" flag="0"/>
      <vel value="0.0071429762" flag="0"/>
      <psa03 value="0.0353842464" flag="0"/>
      <psa10 value="0.0026005441" flag="0"/>
      <psa30 value="0.0001261029" flag="0"/>
    </comp>
  </station>
  <station code="SCHLR" name="SCHLR" netid="RO" insttype="CMG40T.1to100/Quanterra" lat="45.4702" lon="27.8314">
    <comp name="--.HHZ">
      <acc value="0.0253412640" flag="0"/>
      <vel value="0.0033761529" flag="0"/>
      <psa03 value="0.0169490077" flag="0"/>
      <psa10 value="0.0012985212" flag="0"/>
      <psa30 value="0.0001037032" flag="0"/>
    </comp>
    <comp name="--.HHN">
      <acc value="0.0441626461" flag="0"/>
      <vel value="0.0132688342" flag="0"/>
      <psa03 value="0.0712044088" flag="0"/>
      <psa10 value="0.0083329950" flag="0"/>
      <psa30 value="0.0003443918" flag="0"/>
    </comp>
    <comp name="--.HHE">
      <acc value="0.0402638578" flag="0"/>
      <vel value="0.0079118776" flag="0"/>
      <psa03 value="0.0360680344" flag="0"/>
      <psa10 value="0.0052475676" flag="0"/>
      <psa30 value="0.0002277477" flag="0"/>
    </comp>
  </station>
  <station code="SCTR" name="SCTR" netid="RO" insttype="MBB2/Basalt" lat="45.6741" lon="27.9949">
    <comp name="--.HHE">
      <acc value="0.0418319649" flag="0"/>
      <vel value="0.0244438529" flag="0"/>
      <psa03 value="0.0983946329" flag="0"/>
      <psa10 value="0.0217350130" flag="0"/>
      <psa30 value="0.0014646447" flag="0"/>
    </comp>
    <comp name="--.HHN">
      <acc value="0.0564478073" flag="0"/>
      <vel value="0.0249050888" flag="0"/>
      <psa03 value="0.1477909879" flag="0"/>
      <psa10 value="0.0278141211" flag="0"/>
      <psa30 value="0.0009486507" flag="0"/>
    </comp>
    <comp name="--.HHZ">
      <acc value="0.0353823254" flag="0"/>
      <vel value="0.0106784696" flag="0"/>
      <psa03 value="0.0629023297" flag="0"/>
      <psa10 value="0.0117706556" flag="0"/>
      <psa30 value="0.0005169431" flag="0"/>
    </comp>
  </station>
  <station code="SULR" name="SULR" netid="RO" insttype="330" lat="44.6777" lon="26.2526">
    <comp name="--.HHZ">
      <acc value="0.0482929880" flag="0"/>
      <vel value="0.0166737169" flag="0"/>
      <psa03 value="0.0609413060" flag="0"/>
      <psa10 value="0.0046989181" flag="0"/>
      <psa30 value="0.0005594273" flag="0"/>
    </comp>
    <comp name="--.HHN">
      <acc value="0.1124110186" flag="0"/>
      <vel value="0.0401503702" flag="0"/>
      <psa03 value="0.1516517014" flag="0"/>
      <psa10 value="0.0241472911" flag="0"/>
      <psa30 value="0.0024341888" flag="0"/>
    </comp>
    <comp name="--.HHE">
      <acc value="0.1248030359" flag="0"/>
      <vel value="0.0424329082" flag="0"/>
      <psa03 value="0.2247674727" flag="0"/>
      <psa10 value="0.0154836543" flag="0"/>
      <psa30 value="0.0013984870" flag="0"/>
    </comp>
  </station>
  <station code="TESR" name="TESR" netid="RO" insttype="330" lat="46.5118" lon="26.6489">
    <comp name="--.HHE">
      <acc value="0.0228024522" flag="0"/>
      <vel value="0.0093507712" flag="0"/>
      <psa03 value="0.0774891926" flag="0"/>
      <psa10 value="0.0059265634" flag="0"/>
