<stationlist created="1739516553">
	<station code="RAZG" name="RAZG" netid="BS" source="National Seismic Network of Bulgaria (BS)" insttype="" lat="43.5662" lon="26.5079">
		<comp name=".HNE" depth="0.0">
			<acc value="0.05092450352496" flag="0"/>
			<vel value="0.0102634435408" flag="0"/>
			<psa03 value="0.0274619364059961" flag="0"/>
			<psa10 value="0.00174875420575922" flag="0"/>
			<psa30 value="0.000126363136562485" flag="0"/>
		</comp>
		<comp name=".HNN" depth="0.0">
			<acc value="0.029745140931276" flag="0"/>
			<vel value="0.00983468182959" flag="0"/>
			<psa03 value="0.0322813025403671" flag="0"/>
			<psa10 value="0.00598590559938554" flag="0"/>
			<psa30 value="0.000348946032628959" flag="0"/>
		</comp>
		<comp name=".HNZ" depth="0.0">
			<acc value="0.025228816085748" flag="0"/>
			<vel value="0.005970544585" flag="0"/>
			<psa03 value="0.0133522282696011" flag="0"/>
			<psa10 value="0.00172626724735744" flag="0"/>
			<psa30 value="0.000110992053199737" flag="0"/>
		</comp>
	</station>
	<station code="SILAM" name="SILAM" netid="BS" source="National Seismic Network of Bulgaria (BS)" insttype="" lat="44.1046" lon="27.2665">
		<comp name=".HNE" depth="0.0">
			<acc value="0.059650960480488" flag="0"/>
			<vel value="0.0213653885665" flag="0"/>
			<psa03 value="0.246489620394093" flag="0"/>
			<psa10 value="0.00549139549674967" flag="0"/>
			<psa30 value="0.000689368740214496" flag="0"/>
		</comp>
		<comp name=".HNN" depth="0.0">
			<acc value="0.067187854883484" flag="0"/>
			<vel value="0.0237214651934" flag="0"/>
			<psa03 value="0.258918735428912" flag="0"/>
			<psa10 value="0.00516150348678115" flag="0"/>
			<psa30 value="0.000648642656893761" flag="0"/>
		</comp>
		<comp name=".HNZ" depth="0.0">
			<acc value="0.031929105576966" flag="0"/>
			<vel value="0.00745536439613" flag="0"/>
			<psa03 value="0.0250618060549989" flag="0"/>
			<psa10 value="0.00193783915358466" flag="0"/>
			<psa30 value="0.000132458917982452" flag="0"/>
		</comp>
	</station>
	<station code="AMRR" name="AMRR" netid="RO" source="Romanian Seismic Network (NIEP)" insttype="" lat="44.6102" lon="27.3351">
		<comp name=".HNE" depth="0.0">
			<acc value="0.070708850856102" flag="0"/>
			<vel value="0.024292972997" flag="0"/>
			<psa03 value="0.182812860454834" flag="0"/>
			<psa10 value="0.0174376557841329" flag="0"/>
			<psa30 value="0.00144781111871269" flag="0"/>
		</comp>
		<comp name=".HNN" depth="0.0">
			<acc value="0.037000431747822" flag="0"/>
			<vel value="0.0215055664386" flag="0"/>
			<psa03 value="0.11637977208876" flag="0"/>
			<psa10 value="0.00640856000439493" flag="0"/>
			<psa30 value="0.000750171413922298" flag="0"/>
		</comp>
		<comp name=".HNZ" depth="0.0">
			<acc value="0.042363538761576" flag="0"/>
			<vel value="0.00658293221452" flag="0"/>
			<psa03 value="0.0459575705051369" flag="0"/>
			<psa10 value="0.00353094070436717" flag="0"/>
			<psa30 value="0.00025110728566697" flag="0"/>
		</comp>
	</station>
	<station code="ARR" name="ARR" netid="RO" source="Romanian Seismic Network (NIEP)" insttype="" lat="45.3657" lon="24.6332">
		<comp name=".HNE" depth="0.0">
			<acc value="0.0050769087101712" flag="0"/>
			<vel value="0.00189314009119" flag="0"/>
			<psa03 value="0.0135953407287477" flag="0"/>
			<psa10 value="0.00168365094767478" flag="0"/>
			<psa30 value="9.01958513347644e-05" flag="0"/>
		</comp>
		<comp name=".HNN" depth="0.0">
			<acc value="0.0042587474007858" flag="0"/>
			<vel value="0.00148739838524" flag="0"/>
			<psa03 value="0.00796542936329814" flag="0"/>
			<psa10 value="0.000918682830885061" flag="0"/>
			<psa30 value="0.000148364138291872" flag="0"/>
		</comp>
		<comp name=".HNZ" depth="0.0">
			<acc value="0.003510602542062" flag="0"/>
			<vel value="0.001202878289" flag="0"/>
			<psa03 value="0.00586597973820663" flag="0"/>
			<psa10 value="0.000711164181450431" flag="0"/>
			<psa30 value="7.25090221167872e-05" flag="0"/>
		</comp>
	</station>
	<station code="BAC" name="BAC" netid="RO" source="Romanian Seismic Network (NIEP)" insttype="" lat="46.5669" lon="26.9124">
		<comp name=".HNE" depth="0.0">
			<acc value="0.028200988356816" flag="0"/>
			<vel value="0.0115168130854" flag="0"/>
			<psa03 value="0.0440144157390518" flag="0"/>
			<psa10 value="0.00692690621731042" flag="0"/>
			<psa30 value="0.000422754047047593" flag="0"/>
		</comp>
		<comp name=".HNN" depth="0.0">
			<acc value="0.035144296606632" flag="0"/>
			<vel value="0.0152377449288" flag="0"/>
			<psa03 value="0.0656788717362816" flag="0"/>
			<psa10 value="0.00833818705146689" flag="0"/>
			<psa30 value="0.000731296986502487" flag="0"/>
		</comp>
		<comp name=".HNZ" depth="0.0">
			<acc value="0.041559327237564" flag="0"/>
			<vel value="0.00420166138477" flag="0"/>
			<psa03 value="0.0166780709861798" flag="0"/>
			<psa10 value="0.00309889614603412" flag="0"/>
			<psa30 value="0.000232120845617012" flag="0"/>
		</comp>
	</station>
	<station code="BAPR" name="BAPR" netid="RO" source="Romanian Seismic Network (NIEP)" insttype="" lat="44.4059" lon="26.119">
		<comp name=".HNE" depth="0.0">
			<acc value="0.062640515490066" flag="0"/>
			<vel value="0.0256086551106" flag="0"/>
			<psa03 value="0.107304264630728" flag="0"/>
			<psa10 value="0.0089950580659712" flag="0"/>
			<psa30 value="0.000947514747369022" flag="0"/>
		</comp>
		<comp name=".HNN" depth="0.0">
			<acc value="0.05368870741626" flag="0"/>
			<vel value="0.023226215612" flag="0"/>
			<psa03 value="0.103338699848148" flag="0"/>
			<psa10 value="0.00947197809706457" flag="0"/>
			<psa30 value="0.00148446813039694" flag="0"/>
		</comp>
		<comp name=".HNZ" depth="0.0">
			<acc value="0.032803124934426" flag="0"/>
			<vel value="0.00854627865723" flag="0"/>
			<psa03 value="0.0418465117093643" flag="0"/>
			<psa10 value="0.00333707583052012" flag="0"/>
			<psa30 value="0.000916902927819663" flag="0"/>
		</comp>
	</station>
	<station code="BIR" name="BIR" netid="RO" source="Romanian Seismic Network (NIEP)" insttype="" lat="46.2334" lon="27.6436">
		<comp name=".HNE" depth="0.0">
			<acc value="0.099489405342882" flag="0"/>
			<vel value="0.0533249522133" flag="0"/>
			<psa03 value="0.270657721412323" flag="0"/>
			<psa10 value="0.0270810877391488" flag="0"/>
			<psa30 value="0.0022272296263645" flag="0"/>
		</comp>
		<comp name=".HNN" depth="0.0">
			<acc value="0.082424598243816" flag="0"/>
			<vel value="0.0324252307026" flag="0"/>
			<psa03 value="0.149236490351872" flag="0"/>
			<psa10 value="0.0132095310041027" flag="0"/>
			<psa30 value="0.000942028550600909" flag="0"/>
		</comp>
		<comp name=".HNZ" depth="0.0">
			<acc value="0.052484556874932" flag="0"/>
			<vel value="0.0202734711842" flag="0"/>
			<psa03 value="0.165764022719719" flag="0"/>
			<psa10 value="0.00690112982223454" flag="0"/>
			<psa30 value="0.000395044034311893" flag="0"/>
		</comp>
	</station>
	<station code="BISRR" name="BISRR" netid="RO" source="Romanian Seismic Network (NIEP)" insttype="" lat="45.5481" lon="26.7099">
		<comp name=".HNE" depth="0.0">
			<acc value="0.042203378401356" flag="0"/>
			<vel value="0.0170830250068" flag="0"/>
			<psa03 value="0.130948310099501" flag="0"/>
			<psa10 value="0.0125325099047678" flag="0"/>
			<psa30 value="0.00098210110104629" flag="0"/>
		</comp>
		<comp name=".HNN" depth="0.0">
			<acc value="0.039533277549492" flag="0"/>
			<vel value="0.0163045015969" flag="0"/>
			<psa03 value="0.107247323359016" flag="0"/>
			<psa10 value="0.0130564777400908" flag="0"/>
			<psa30 value="0.000683618203017687" flag="0"/>
		</comp>
		<comp name=".HNZ" depth="0.0">
			<acc value="0.032245062142134" flag="0"/>
			<vel value="0.00953924743632" flag="0"/>
			<psa03 value="0.0705255105105264" flag="0"/>
			<psa10 value="0.00732123593342977" flag="0"/>
			<psa30 value="0.000465792731483113" flag="0"/>
		</comp>
	</station>
	<station code="BSTR" name="BSTR" netid="RO" source="Romanian Seismic Network (NIEP)" insttype="" lat="44.4458" lon="26.0984">
		<comp name=".HNE" depth="0.0">
			<acc value="0.068396009581692" flag="0"/>
			<vel value="0.0284662632097" flag="0"/>
			<psa03 value="0.17514283151953" flag="0"/>
			<psa10 value="0.00935046348482611" flag="0"/>
			<psa30 value="0.00106069880775902" flag="0"/>
		</comp>
		<comp name=".HNN" depth="0.0">
			<acc value="0.07206342048939" flag="0"/>
			<vel value="0.0320602828381" flag="0"/>
			<psa03 value="0.16814817024119" flag="0"/>
			<psa10 value="0.0163977606461731" flag="0"/>
			<psa30 value="0.00136871098288511" flag="0"/>
		</comp>
		<comp name=".HNZ" depth="0.0">
			<acc value="0.050282907039414" flag="0"/>
			<vel value="0.0127301360474" flag="0"/>
			<psa03 value="0.0929423444742411" flag="0"/>
			<psa10 value="0.00522159277989217" flag="0"/>
			<psa30 value="0.000944411208439558" flag="0"/>
		</comp>
	</station>
	<station code="BTMR" name="BTMR" netid="RO" source="Romanian Seismic Network (NIEP)" insttype="" lat="44.437" lon="26.1067">
		<comp name=".HNE" depth="0.0">
			<acc value="0.076982497437468" flag="0"/>
			<vel value="0.0316211246313" flag="0"/>
			<psa03 value="0.182968995798165" flag="0"/>
			<psa10 value="0.00825863021870609" flag="0"/>
			<psa30 value="0.000866206392340579" flag="0"/>
		</comp>
		<comp name=".HNN" depth="0.0">
			<acc value="0.070680300858018" flag="0"/>
			<vel value="0.0286907250107" flag="0"/>
			<psa03 value="0.109083757513445" flag="0"/>
			<psa10 value="0.0162978952805804" flag="0"/>
			<psa30 value="0.00154398978174554" flag="0"/>
		</comp>
		<comp name=".HNZ" depth="0.0">
			<acc value="0.045131979101394" flag="0"/>
			<vel value="0.0132374160795" flag="0"/>
			<psa03 value="0.0665794053507271" flag="0"/>
			<psa10 value="0.00339825175812744" flag="0"/>
			<psa30 value="0.000698466999179447" flag="0"/>
		</comp>
	</station>
	<station code="BUC1" name="BUC1" netid="RO" source="Romanian Seismic Network (NIEP)" insttype="" lat="44.3479" lon="26.0281">
		<comp name=".HNE" depth="0.0">
			<acc value="0.085795216147956" flag="0"/>
			<vel value="0.0296724736387" flag="0"/>
			<psa03 value="0.0876016365116413" flag="0"/>
			<psa10 value="0.0160885357865382" flag="0"/>
			<psa30 value="0.0013740333146324" flag="0"/>
		</comp>
		<comp name=".HNN" depth="0.0">
			<acc value="0.049072303523064" flag="0"/>
			<vel value="0.0194091000005" flag="0"/>
			<psa03 value="0.0859772945323013" flag="0"/>
			<psa10 value="0.0103036697550478" flag="0"/>
			<psa30 value="0.00114341064117472" flag="0"/>
		</comp>
		<comp name=".HNZ" depth="0.0">
			<acc value="0.057174744310044" flag="0"/>
			<vel value="0.0119720835093" flag="0"/>
			<psa03 value="0.0304301148041088" flag="0"/>
			<psa10 value="0.00470562141183726" flag="0"/>
			<psa30 value="0.000413155286176594" flag="0"/>
		</comp>
	</station>
	<station code="CFR" name="CFR" netid="RO" source="Romanian Seismic Network (NIEP)" insttype="" lat="45.178" lon="28.1362">
		<comp name=".HNE" depth="0.0">
			<acc value="0.042902520951816" flag="0"/>
			<vel value="0.011866853389" flag="0"/>
			<psa03 value="0.0746254331521435" flag="0"/>
			<psa10 value="0.00335788783421391" flag="0"/>
			<psa30 value="0.000279760511927467" flag="0"/>
		</comp>
		<comp name=".HNN" depth="0.0">
			<acc value="0.054072159132564" flag="0"/>
			<vel value="0.0167126636359" flag="0"/>
			<psa03 value="0.0501108091784907" flag="0"/>
			<psa10 value="0.00285353567335915" flag="0"/>
			<psa30 value="0.000290765329484462" flag="0"/>
		</comp>
		<comp name=".HNZ" depth="0.0">
			<acc value="0.028263940631238" flag="0"/>
			<vel value="0.00676603990862" flag="0"/>
			<psa03 value="0.0354453558933579" flag="0"/>
			<psa10 value="0.00187637140977029" flag="0"/>
			<psa30 value="0.00023486561077757" flag="0"/>
		</comp>
	</station>
	<station code="CIOR" name="CIOR" netid="RO" source="Romanian Seismic Network (NIEP)" insttype="" lat="44.4489" lon="25.8799">
		<comp name=".HNE" depth="0.0">
			<acc value="0.16102266809454" flag="0"/>
			<vel value="0.0615162704264" flag="0"/>
			<psa03 value="0.197194208982118" flag="0"/>
			<psa10 value="0.0116326359175336" flag="0"/>
			<psa30 value="0.000973564910562113" flag="0"/>
		</comp>
		<comp name=".HNN" depth="0.0">
			<acc value="0.083627994076128" flag="0"/>
			<vel value="0.0248315557508" flag="0"/>
			<psa03 value="0.11928204768352" flag="0"/>
			<psa10 value="0.0149285220663265" flag="0"/>
			<psa30 value="0.00112779804441906" flag="0"/>
		</comp>
		<comp name=".HNZ" depth="0.0">
			<acc value="0.05763650950434" flag="0"/>
			<vel value="0.010981083701" flag="0"/>
			<psa03 value="0.0721827348770918" flag="0"/>
			<psa10 value="0.00272802024920401" flag="0"/>
			<psa30 value="0.000329638659860199" flag="0"/>
		</comp>
	</station>
	<station code="CLISU" name="CLISU" netid="RO" source="Romanian Seismic Network (NIEP)" insttype="" lat="44.1901" lon="27.3557">
		<comp name=".HNE" depth="0.0">
			<acc value="0.063212662509576" flag="0"/>
			<vel value="0.0330436727067" flag="0"/>
			<psa03 value="0.164095974719866" flag="0"/>
			<psa10 value="0.0124486759136919" flag="0"/>
			<psa30 value="0.00105001382909781" flag="0"/>
		</comp>
		<comp name=".HNN" depth="0.0">
			<acc value="0.060840738732522" flag="0"/>
			<vel value="0.0225673151128" flag="0"/>
			<psa03 value="0.118746189268814" flag="0"/>
			<psa10 value="0.0222701865405687" flag="0"/>
			<psa30 value="0.00122361751699034" flag="0"/>
		</comp>
		<comp name=".HNZ" depth="0.0">
			<acc value="0.052403490970392" flag="0"/>
			<vel value="0.0140532717403" flag="0"/>
			<psa03 value="0.0638850706140052" flag="0"/>
			<psa10 value="0.00587097173555793" flag="0"/>
			<psa30 value="0.000319711726207774" flag="0"/>
		</comp>
	</station>
	<station code="COPA" name="COPA" netid="RO" source="Romanian Seismic Network (NIEP)" insttype="" lat="44.1343" lon="25.2172">
		<comp name=".HNE" depth="0.0">
			<acc value="0.1054986469557" flag="0"/>
			<vel value="0.0460474016107" flag="0"/>
			<psa03 value="0.201042297232386" flag="0"/>
			<psa10 value="0.0154759870831772" flag="0"/>
			<psa30 value="0.00104758304306972" flag="0"/>
		</comp>
		<comp name=".HNN" depth="0.0">
			<acc value="0.12197353408932" flag="0"/>
			<vel value="0.0256200635635" flag="0"/>
			<psa03 value="0.110294191865504" flag="0"/>
			<psa10 value="0.00471067487160701" flag="0"/>
			<psa30 value="0.000502551729085569" flag="0"/>
		</comp>
		<comp name=".HNZ" depth="0.0">
			<acc value="0.03942585426906" flag="0"/>
			<vel value="0.00647886196721" flag="0"/>
			<psa03 value="0.021535232593065" flag="0"/>
			<psa10 value="0.0025545173492383" flag="0"/>
			<psa30 value="0.000148810834549979" flag="0"/>
		</comp>
	</station>
	<station code="COPR" name="COPR" netid="RO" source="Romanian Seismic Network (NIEP)" insttype="" lat="45.8442" lon="26.1687">
		<comp name=".HNE" depth="0.0">
			<acc value="0.024968946776802" flag="0"/>
			<vel value="0.01466036262" flag="0"/>
			<psa03 value="0.0736599577357359" flag="0"/>
			<psa10 value="0.0133986588453948" flag="0"/>
			<psa30 value="0.000732016409162911" flag="0"/>
		</comp>
		<comp name=".HNN" depth="0.0">
			<acc value="0.021197419299846" flag="0"/>
			<vel value="0.0136864787818" flag="0"/>
			<psa03 value="0.0681753444068427" flag="0"/>
			<psa10 value="0.00811058634904592" flag="0"/>
			<psa30 value="0.000552457639272947" flag="0"/>
		</comp>
		<comp name=".HNZ" depth="0.0">
			<acc value="0.017072640653676" flag="0"/>
			<vel value="0.00751830262969" flag="0"/>
			<psa03 value="0.0443830547429108" flag="0"/>
			<psa10 value="0.00544149187837892" flag="0"/>
			<psa30 value="0.00040617570923076" flag="0"/>
		</comp>
	</station>
	<station code="CVD1" name="CVD1" netid="RO" source="Romanian Seismic Network (NIEP)" insttype="" lat="44.3207" lon="28.0624">
		<comp name=".HNE" depth="0.0">
			<acc value="0.078073172753988" flag="0"/>
			<vel value="0.0240055381448" flag="0"/>
			<psa03 value="0.111563380109711" flag="0"/>
			<psa10 value="0.00686357858464783" flag="0"/>
			<psa30 value="0.000732055682596728" flag="0"/>
		</comp>
		<comp name=".HNN" depth="0.0">
			<acc value="0.03633632033889" flag="0"/>
			<vel value="0.0138457771417" flag="0"/>
			<psa03 value="0.0518966097705174" flag="0"/>
			<psa10 value="0.00724714086875602" flag="0"/>
			<psa30 value="0.000478739109949869" flag="0"/>
		</comp>
		<comp name=".HNZ" depth="0.0">
			<acc value="0.019775903809902" flag="0"/>
			<vel value="0.00548737949464" flag="0"/>
			<psa03 value="0.0405873345450736" flag="0"/>
			<psa10 value="0.00246141649426145" flag="0"/>
			<psa30 value="0.000149411304015701" flag="0"/>
		</comp>
	</station>
	<station code="CVDA" name="CVDA" netid="RO" source="Romanian Seismic Network (NIEP)" insttype="" lat="44.3336" lon="28.0374">
		<comp name=".HNE" depth="0.0">
			<acc value="0.086016782872536" flag="0"/>
			<vel value="0.0410199934461" flag="0"/>
			<psa03 value="0.296396738995989" flag="0"/>
			<psa10 value="0.0150256703769087" flag="0"/>
			<psa30 value="0.00131838983685509" flag="0"/>
		</comp>
		<comp name=".HNN" depth="0.0">
			<acc value="0.12668944791588" flag="0"/>
			<vel value="0.064140442044" flag="0"/>
			<psa03 value="0.328875557225042" flag="0"/>
			<psa10 value="0.0188808620144306" flag="0"/>
			<psa30 value="0.00162626273192596" flag="0"/>
		</comp>
		<comp name=".HNZ" depth="0.0">
			<acc value="0.067941851378994" flag="0"/>
			<vel value="0.0286439702864" flag="0"/>
			<psa03 value="0.200477343140133" flag="0"/>
			<psa10 value="0.00730588851049352" flag="0"/>
			<psa30 value="0.000656222481937433" flag="0"/>
		</comp>
	</station>
	<station code="DOPR" name="DOPR" netid="RO" source="Romanian Seismic Network (NIEP)" insttype="" lat="45.9675" lon="25.3886">
		<comp name=".HNE" depth="0.0">
			<acc value="0.015585388966284" flag="0"/>
			<vel value="0.0059214344147" flag="0"/>
			<psa03 value="0.0416406517179792" flag="0"/>
			<psa10 value="0.00419385688493242" flag="0"/>
			<psa30 value="0.000261690564882248" flag="0"/>
		</comp>
		<comp name=".HNN" depth="0.0">
			<acc value="0.01618017733614" flag="0"/>
			<vel value="0.00640889926378" flag="0"/>
			<psa03 value="0.0325569562177494" flag="0"/>
			<psa10 value="0.0039645802902359" flag="0"/>
			<psa30 value="0.000338283373154889" flag="0"/>
		</comp>
		<comp name=".HNZ" depth="0.0">
			<acc value="0.0078476915330292" flag="0"/>
			<vel value="0.00348034794568" flag="0"/>
			<psa03 value="0.0141779730752849" flag="0"/>
			<psa10 value="0.0018095724534202" flag="0"/>
			<psa30 value="0.000155232327650817" flag="0"/>
		</comp>
	</station>
	<station code="GIRR" name="GIRR" netid="RO" source="Romanian Seismic Network (NIEP)" insttype="" lat="46.9551" lon="26.5009">
		<comp name=".HNE" depth="0.0">
			<acc value="0.012976146463992" flag="0"/>
			<vel value="0.00418485903223" flag="0"/>
			<psa03 value="0.0276246216622947" flag="0"/>
			<psa10 value="0.0028816130802239" flag="0"/>
			<psa30 value="0.00031225263832991" flag="0"/>
		</comp>
		<comp name=".HNN" depth="0.0">
			<acc value="0.017954280794664" flag="0"/>
			<vel value="0.00693053035985" flag="0"/>
			<psa03 value="0.0523881058717058" flag="0"/>
			<psa10 value="0.00230017057813517" flag="0"/>
			<psa30 value="0.000256614916145316" flag="0"/>
		</comp>
		<comp name=".HNZ" depth="0.0">
			<acc value="0.0069109438086402" flag="0"/>
			<vel value="0.00309117538166" flag="0"/>
			<psa03 value="0.0106883812298696" flag="0"/>
			<psa10 value="0.00152918981694621" flag="0"/>
			<psa30 value="0.00119641519413399" flag="0"/>
		</comp>
	</station>
	<station code="GISR" name="GISR" netid="RO" source="Romanian Seismic Network (NIEP)" insttype="" lat="45.4411" lon="28.0541">
		<comp name=".HNE" depth="0.0">
			<acc value="0.057718991181222" flag="0"/>
			<vel value="0.033296036634" flag="0"/>
			<psa03 value="0.218162618869323" flag="0"/>
			<psa10 value="0.0295232082676434" flag="0"/>
			<psa30 value="0.00133096566994147" flag="0"/>
		</comp>
		<comp name=".HNN" depth="0.0">
			<acc value="0.054113072106336" flag="0"/>
			<vel value="0.0243648680981" flag="0"/>
