<?xml version="1.0" encoding="UTF-8" standalone="yes"?>
<!DOCTYPE earthquake SYSTEM "stationlist.dtd">
<stationlist created="" xmlns="ch.ethz.sed.shakemap.usgs.xml">
  <station code="BIR" name="BIR" netid="RO" insttype="MBB2/Quanterra" lat="46.2334" lon="27.6436">
    <comp name="--.HHE">
      <acc value="0.1030503937" flag="0"/>
      <vel value="0.0538962578" flag="0"/>
      <psa03 value="0.2764951370" flag="0"/>
      <psa10 value="0.0269653068" flag="0"/>
      <psa30 value="0.0022392120" flag="0"/>
    </comp>
    <comp name="--.HHN">
      <acc value="0.0813740253" flag="0"/>
      <vel value="0.0321575306" flag="0"/>
      <psa03 value="0.1454104143" flag="0"/>
      <psa10 value="0.0133463259" flag="0"/>
      <psa30 value="0.0011868410" flag="0"/>
    </comp>
    <comp name="--.HHZ">
      <acc value="0.0525315768" flag="0"/>
      <vel value="0.0195614074" flag="0"/>
      <psa03 value="0.1610396784" flag="0"/>
      <psa10 value="0.0066301646" flag="0"/>
      <psa30 value="0.0003774130" flag="0"/>
    </comp>
  </station>
  <station code="BISRR" name="BISRR" netid="RO" insttype="CMG40T.1to100/Basalt" lat="45.5481" lon="26.7099">
    <comp name="--.HHN">
      <acc value="0.0753572499" flag="0"/>
      <vel value="0.0303167786" flag="0"/>
      <psa03 value="0.1941577297" flag="0"/>
      <psa10 value="0.0253082331" flag="0"/>
      <psa30 value="0.0014589617" flag="0"/>
    </comp>
    <comp name="--.HHE">
      <acc value="0.0874271800" flag="0"/>
      <vel value="0.0328071735" flag="0"/>
      <psa03 value="0.2584874856" flag="0"/>
      <psa10 value="0.0276360029" flag="0"/>
      <psa30 value="0.0019479483" flag="0"/>
    </comp>
    <comp name="--.HHZ">
      <acc value="0.0678197563" flag="0"/>
      <vel value="0.0184613506" flag="0"/>
      <psa03 value="0.1390751443" flag="0"/>
      <psa10 value="0.0145250426" flag="0"/>
      <psa30 value="0.0008546128" flag="0"/>
    </comp>
  </station>
  <station code="BOSR" name="BOSR" netid="RO" insttype="Seismometer/Basalt" lat="46.0749" lon="25.6611">
    <comp name="--.HHE">
      <acc value="0.0238491163" flag="0"/>
      <vel value="0.0136798334" flag="0"/>
      <psa03 value="0.0561468969" flag="0"/>
      <psa10 value="0.0132436099" flag="0"/>
      <psa30 value="0.0007980294" flag="0"/>
    </comp>
    <comp name="--.HHZ">
      <acc value="0.0185905983" flag="0"/>
      <vel value="0.0058666475" flag="0"/>
      <psa03 value="0.0369769084" flag="0"/>
      <psa10 value="0.0029658059" flag="0"/>
      <psa30 value="0.0002324259" flag="0"/>
    </comp>
    <comp name="--.HHN">
      <acc value="0.0206303712" flag="0"/>
      <vel value="0.0085927661" flag="0"/>
      <psa03 value="0.0385429588" flag="0"/>
      <psa10 value="0.0053688566" flag="0"/>
      <psa30 value="0.0002907577" flag="0"/>
    </comp>
  </station>
  <station code="COPR" name="COPR" netid="RO" insttype="200" lat="45.8442" lon="26.1687">
    <comp name="--.HNE">
      <acc value="0.0249114540" flag="0"/>
      <vel value="0.0146410293" flag="0"/>
      <psa03 value="0.0727624501" flag="0"/>
      <psa10 value="0.0133791123" flag="0"/>
      <psa30 value="0.0007421466" flag="0"/>
    </comp>
    <comp name="--.HNN">
      <acc value="0.0212158550" flag="0"/>
      <vel value="0.0136126036" flag="0"/>
      <psa03 value="0.0672910140" flag="0"/>
      <psa10 value="0.0080880990" flag="0"/>
      <psa30 value="0.0005354341" flag="0"/>
    </comp>
    <comp name="--.HNZ">
      <acc value="0.0172887306" flag="0"/>
      <vel value="0.0075347444" flag="0"/>
      <psa03 value="0.0444503971" flag="0"/>
      <psa10 value="0.0054336527" flag="0"/>
      <psa30 value="0.0004084323" flag="0"/>
    </comp>
  </station>
  <station code="DOPR" name="DOPR" netid="RO" insttype="330" lat="45.9675" lon="25.3886">
    <comp name="--.HHE">
      <acc value="0.0166512837" flag="0"/>
      <vel value="0.0055512550" flag="0"/>
      <psa03 value="0.0369413623" flag="0"/>
      <psa10 value="0.0043526414" flag="0"/>
      <psa30 value="0.0003224169" flag="0"/>
    </comp>
    <comp name="--.HHZ">
      <acc value="0.0082644654" flag="0"/>
      <vel value="0.0034233213" flag="0"/>
      <psa03 value="0.0145930289" flag="0"/>
      <psa10 value="0.0017934419" flag="0"/>
      <psa30 value="0.0001290289" flag="0"/>
    </comp>
    <comp name="--.HHN">
      <acc value="0.0158405421" flag="0"/>
      <vel value="0.0073046592" flag="0"/>
      <psa03 value="0.0351316888" flag="0"/>
      <psa10 value="0.0037160545" flag="0"/>
      <psa30 value="0.0003274632" flag="0"/>
    </comp>
  </station>
  <station code="INCR" name="INCR" netid="RO" insttype="200" lat="44.441" lon="26.1611">
    <comp name="--.HNE">
      <acc value="0.0482539993" flag="0"/>
      <vel value="0.0167681796" flag="0"/>
      <psa03 value="0.0929874975" flag="0"/>
      <psa10 value="0.0056848998" flag="0"/>
      <psa30 value="0.0005321835" flag="0"/>
    </comp>
    <comp name="--.HNN">
      <acc value="0.0717193693" flag="0"/>
      <vel value="0.0302679639" flag="0"/>
      <psa03 value="0.1100504243" flag="0"/>
      <psa10 value="0.0133678248" flag="0"/>
      <psa30 value="0.0014931319" flag="0"/>
    </comp>
    <comp name="--.HNZ">
      <acc value="0.0424640786" flag="0"/>
      <vel value="0.0083966989" flag="0"/>
      <psa03 value="0.0372448511" flag="0"/>
      <psa10 value="0.0033800423" flag="0"/>
      <psa30 value="0.0002546632" flag="0"/>
    </comp>
  </station>
  <station code="IZVR" name="IZVR" netid="RO" insttype="CMG40T.1to100/Quanterra" lat="45.5442" lon="27.7655">
    <comp name="--.HHN">
      <acc value="0.1055746272" flag="0"/>
      <vel value="0.0289837164" flag="0"/>
      <psa03 value="0.1143459010" flag="0"/>
      <psa10 value="0.0113130719" flag="0"/>
      <psa30 value="0.0006425776" flag="0"/>
    </comp>
    <comp name="--.HHZ">
      <acc value="0.0238723194" flag="0"/>
      <vel value="0.0070499507" flag="0"/>
      <psa03 value="0.0332560418" flag="0"/>
      <psa10 value="0.0018893932" flag="0"/>
      <psa30 value="0.0001378277" flag="0"/>
    </comp>
    <comp name="--.HHE">
      <acc value="0.0691831836" flag="0"/>
      <vel value="0.0196921405" flag="0"/>
      <psa03 value="0.0990206725" flag="0"/>
      <psa10 value="0.0053779005" flag="0"/>
      <psa30 value="0.0005041786" flag="0"/>
    </comp>
  </station>
  <station code="MLR" name="MLR" netid="RO" insttype="330HR" lat="45.4909" lon="25.945">
    <comp name="--.HHZ">
      <acc value="0.0203125908" flag="0"/>
      <vel value="0.0070666336" flag="0"/>
      <psa03 value="0.0358173960" flag="0"/>
      <psa10 value="0.0043063935" flag="0"/>
      <psa30 value="0.0002995679" flag="0"/>
    </comp>
    <comp name="--.HHE">
      <acc value="0.0168240479" flag="0"/>
      <vel value="0.0078369901" flag="0"/>
      <psa03 value="0.0612524950" flag="0"/>
      <psa10 value="0.0042684097" flag="0"/>
      <psa30 value="0.0004079018" flag="0"/>
    </comp>
    <comp name="--.HHN">
      <acc value="0.0124078798" flag="0"/>
      <vel value="0.0073028707" flag="0"/>
      <psa03 value="0.0449899109" flag="0"/>
      <psa10 value="0.0051481539" flag="0"/>
      <psa30 value="0.0003968267" flag="0"/>
    </comp>
  </station>
  <station code="MTUR" name="MTUR" netid="RO" insttype="200" lat="45.2349" lon="25.0739">
    <comp name="--.HNZ">
      <acc value="0.0135220117" flag="0"/>
      <vel value="0.0042320509" flag="0"/>
      <psa03 value="0.0255029316" flag="0"/>
      <psa10 value="0.0034123965" flag="0"/>
      <psa30 value="0.0002593516" flag="0"/>
    </comp>
    <comp name="--.HNN">
      <acc value="0.0337762247" flag="0"/>
      <vel value="0.0089216286" flag="0"/>
      <psa03 value="0.0623365528" flag="0"/>
      <psa10 value="0.0055985691" flag="0"/>
      <psa30 value="0.0007681465" flag="0"/>
    </comp>
    <comp name="--.HNE">
      <acc value="0.0202337183" flag="0"/>
      <vel value="0.0082992861" flag="0"/>
      <psa03 value="0.0448879776" flag="0"/>
      <psa10 value="0.0097839779" flag="0"/>
      <psa30 value="0.0005455660" flag="0"/>
    </comp>
  </station>
  <station code="NARR" name="NARR" netid="RO" insttype="OBS-SIO/Centaur" lat="45.8165" lon="26.7368">
    <comp name="--.HHE">
      <acc value="0.1439471769" flag="0"/>
      <vel value="0.0380474348" flag="0"/>
      <psa03 value="0.1510246040" flag="0"/>
      <psa10 value="0.0088414758" flag="0"/>
      <psa30 value="0.0008119479" flag="0"/>
    </comp>
    <comp name="--.HHN">
      <acc value="0.0939754238" flag="0"/>
      <vel value="0.0287094810" flag="0"/>
      <psa03 value="0.1503750465" flag="0"/>
      <psa10 value="0.0116862483" flag="0"/>
      <psa30 value="0.0006761089" flag="0"/>
    </comp>
    <comp name="--.HHZ">
      <acc value="0.0752537767" flag="0"/>
      <vel value="0.0206051073" flag="0"/>
      <psa03 value="0.0940599681" flag="0"/>
      <psa10 value="0.0057107039" flag="0"/>
      <psa30 value="0.0005045676" flag="0"/>
    </comp>
  </station>
  <station code="NEGRR" name="NEGRR" netid="RO" insttype="CMG40T.1to100/Quanterra" lat="45.5373" lon="27.8771">
    <comp name="--.HHN">
      <acc value="0.0492842993" flag="0"/>
      <vel value="0.0121011912" flag="0"/>
      <psa03 value="0.0560029294" flag="0"/>
      <psa10 value="0.0038429332" flag="0"/>
      <psa30 value="0.0003965776" flag="0"/>
    </comp>
    <comp name="--.HHE">
      <acc value="0.0414121975" flag="0"/>
      <vel value="0.0189745208" flag="0"/>
      <psa03 value="0.0708248180" flag="0"/>
      <psa10 value="0.0066952026" flag="0"/>
      <psa30 value="0.0004683028" flag="0"/>
    </comp>
    <comp name="--.HHZ">
      <acc value="0.0352689639" flag="0"/>
      <vel value="0.0083510955" flag="0"/>
      <psa03 value="0.0309524716" flag="0"/>
      <psa10 value="0.0017409465" flag="0"/>
      <psa30 value="0.0001534200" flag="0"/>
    </comp>
  </station>
  <station code="NEHR" name="NEHR" netid="RO" insttype="Seismometer/Basalt" lat="45.4272" lon="26.2952">
    <comp name="--.HHN">
      <acc value="0.0067067333" flag="0"/>
      <vel value="0.0020078376" flag="0"/>
      <psa03 value="0.0104182503" flag="0"/>
      <psa10 value="0.0012630178" flag="0"/>
      <psa30 value="0.0005636802" flag="0"/>
    </comp>
    <comp name="--.HHE">
      <acc value="0.0063517074" flag="0"/>
      <vel value="0.0029381213" flag="0"/>
      <psa03 value="0.0245520023" flag="0"/>
      <psa10 value="0.0012490662" flag="0"/>
      <psa30 value="0.0000819746" flag="0"/>
    </comp>
    <comp name="--.HHZ">
      <acc value="0.0037227177" flag="0"/>
      <vel value="0.0014794474" flag="0"/>
      <psa03 value="0.0094751287" flag="0"/>
      <psa10 value="0.0005404433" flag="0"/>
      <psa30 value="0.0000553768" flag="0"/>
    </comp>
  </station>
  <station code="ODBI" name="ODBI" netid="RO" insttype="200" lat="45.7633" lon="27.0558">
    <comp name="--.HNE">
      <acc value="0.0340572618" flag="0"/>
      <vel value="0.0113502569" flag="0"/>
      <psa03 value="0.0584680716" flag="0"/>
      <psa10 value="0.0053091177" flag="0"/>
      <psa30 value="0.0006093023" flag="0"/>
    </comp>
    <comp name="--.HNN">
      <acc value="0.0228184864" flag="0"/>
      <vel value="0.0092403965" flag="0"/>
      <psa03 value="0.0555675754" flag="0"/>
      <psa10 value="0.0067266929" flag="0"/>
      <psa30 value="0.0006056955" flag="0"/>
    </comp>
    <comp name="--.HNZ">
      <acc value="0.0663784702" flag="0"/>
      <vel value="0.0152981930" flag="0"/>
      <psa03 value="0.0785490816" flag="0"/>
      <psa10 value="0.0066022739" flag="0"/>
      <psa30 value="0.0005751013" flag="0"/>
    </comp>
  </station>
  <station code="ODSR" name="ODSR" netid="RO" insttype="CMG40T.1to100/Quanterra" lat="46.2969" lon="25.2919">
    <comp name="--.HHZ">
      <acc value="0.0050346880" flag="0"/>
      <vel value="0.0018586539" flag="0"/>
      <psa03 value="0.0119731900" flag="0"/>
      <psa10 value="0.0019771976" flag="0"/>
      <psa30 value="0.0001585626" flag="0"/>
    </comp>
    <comp name="--.HHE">
      <acc value="0.0090615166" flag="0"/>
      <vel value="0.0050002576" flag="0"/>
      <psa03 value="0.0200428030" flag="0"/>
      <psa10 value="0.0027344405" flag="0"/>
      <psa30 value="0.0003720767" flag="0"/>
    </comp>
    <comp name="--.HHN">
      <acc value="0.0048435201" flag="0"/>
      <vel value="0.0032317166" flag="0"/>
      <psa03 value="0.0244289098" flag="0"/>
      <psa10 value="0.0029044508" flag="0"/>
      <psa30 value="0.0002196446" flag="0"/>
    </comp>
  </station>
  <station code="PANC" name="PANC" netid="RO" insttype="Seismometer/Basalt" lat="45.8723" lon="27.1477">
    <comp name="--.HHN">
      <acc value="0.1436573933" flag="0"/>
      <vel value="0.0415660643" flag="0"/>
      <psa03 value="0.1153672466" flag="0"/>
      <psa10 value="0.0112784477" flag="0"/>
      <psa30 value="0.0005438895" flag="0"/>
    </comp>
    <comp name="--.HHE">
      <acc value="0.1291385585" flag="0"/>
      <vel value="0.0334316407" flag="0"/>
      <psa03 value="0.1271926186" flag="0"/>
      <psa10 value="0.0060667861" flag="0"/>
      <psa30 value="0.0008132314" flag="0"/>
    </comp>
    <comp name="--.HHZ">
      <acc value="0.1097307494" flag="0"/>
      <vel value="0.0305766326" flag="0"/>
      <psa03 value="0.0826715316" flag="0"/>
      <psa10 value="0.0078614684" flag="0"/>
      <psa30 value="0.0005995788" flag="0"/>
    </comp>
  </station>
  <station code="PGOR" name="PGOR" netid="RO" insttype="CMG40T.1to100/Quanterra" lat="44.9199" lon="26.9768">
    <comp name="--.HHN">
      <acc value="0.1354575672" flag="0"/>
      <vel value="0.0535903063" flag="0"/>
      <psa03 value="0.3244247588" flag="0"/>
      <psa10 value="0.0153939577" flag="0"/>
      <psa30 value="0.0015384313" flag="0"/>
    </comp>
    <comp name="--.HHE">
      <acc value="0.1002480416" flag="0"/>
      <vel value="0.0389521388" flag="0"/>
      <psa03 value="0.1885976939" flag="0"/>
      <psa10 value="0.0203133862" flag="0"/>
      <psa30 value="0.0016513772" flag="0"/>
    </comp>
    <comp name="--.HHZ">
      <acc value="0.0900217739" flag="0"/>
      <vel value="0.0119408906" flag="0"/>
      <psa03 value="0.0396534729" flag="0"/>
      <psa10 value="0.0035652726" flag="0"/>
      <psa30 value="0.0003351638" flag="0"/>
    </comp>
  </station>
  <station code="PLOR" name="PLOR" netid="RO" insttype="MBB2/Quanterra" lat="45.8512" lon="26.6498">
    <comp name="--.HHE">
      <acc value="0.0218826474" flag="0"/>
      <vel value="0.0117597239" flag="0"/>
      <psa03 value="0.0635780590" flag="0"/>
      <psa10 value="0.0071201150" flag="0"/>
      <psa30 value="0.0003720867" flag="0"/>
    </comp>
    <comp name="--.HHZ">
      <acc value="0.0249796468" flag="0"/>
      <vel value="0.0065843088" flag="0"/>
      <psa03 value="0.0389553000" flag="0"/>
      <psa10 value="0.0029899337" flag="0"/>
      <psa30 value="0.0001938127" flag="0"/>
    </comp>
    <comp name="--.HHN">
      <acc value="0.0287770871" flag="0"/>
      <vel value="0.0106848293" flag="0"/>
      <psa03 value="0.0985525160" flag="0"/>
      <psa10 value="0.0042944449" flag="0"/>
      <psa30 value="0.0003462145" flag="0"/>
    </comp>
  </station>
  <station code="PLOR4" name="PLOR4" netid="RO" insttype="MBB2/Quanterra" lat="45.8512" lon="26.6498">
    <comp name="--.HHZ">
      <acc value="0.0249796468" flag="0"/>
      <vel value="0.0065843088" flag="0"/>
      <psa03 value="0.0389553000" flag="0"/>
      <psa10 value="0.0029899337" flag="0"/>
      <psa30 value="0.0001938127" flag="0"/>
    </comp>
    <comp name="--.HHN">
      <acc value="0.0287770871" flag="0"/>
      <vel value="0.0106848293" flag="0"/>
      <psa03 value="0.0985525160" flag="0"/>
      <psa10 value="0.0042944449" flag="0"/>
      <psa30 value="0.0003462145" flag="0"/>
    </comp>
    <comp name="--.HHE">
      <acc value="0.0218826474" flag="0"/>
      <vel value="0.0117597239" flag="0"/>
      <psa03 value="0.0635780590" flag="0"/>
      <psa10 value="0.0071201150" flag="0"/>
      <psa30 value="0.0003720867" flag="0"/>
    </comp>
  </station>
  <station code="SCHL" name="SCHL" netid="RO" insttype="CMG40T.1to100/Quanterra" lat="45.5007" lon="27.8302">
    <comp name="--.HHE">
      <acc value="0.0536761117" flag="0"/>
      <vel value="0.0166955302" flag="0"/>
      <psa03 value="0.1481665733" flag="0"/>
      <psa10 value="0.0120193001" flag="0"/>
      <psa30 value="0.0004363919" flag="0"/>
    </comp>
    <comp name="--.HHN">
      <acc value="0.0437681947" flag="0"/>
      <vel value="0.0152398654" flag="0"/>
      <psa03 value="0.0842722500" flag="0"/>
      <psa10 value="0.0180626932" flag="0"/>
      <psa30 value="0.0007621787" flag="0"/>
    </comp>
    <comp name="--.HHZ">
      <acc value="0.0466846779" flag="0"/>
      <vel value="0.0071429769" flag="0"/>
      <psa03 value="0.0353842464" flag="0"/>
      <psa10 value="0.0026005441" flag="0"/>
      <psa30 value="0.0001260680" flag="0"/>
    </comp>
  </station>
  <station code="SCHLR" name="SCHLR" netid="RO" insttype="CMG40T.1to100/Quanterra" lat="45.4702" lon="27.8314">
    <comp name="--.HHZ">
      <acc value="0.0253412640" flag="0"/>
      <vel value="0.0033761523" flag="0"/>
      <psa03 value="0.0169490077" flag="0"/>
      <psa10 value="0.0012985213" flag="0"/>
      <psa30 value="0.0001037034" flag="0"/>
    </comp>
    <comp name="--.HHE">
      <acc value="0.0402638578" flag="0"/>
      <vel value="0.0079118775" flag="0"/>
      <psa03 value="0.0360680344" flag="0"/>
      <psa10 value="0.0052475676" flag="0"/>
      <psa30 value="0.0002277852" flag="0"/>
    </comp>
    <comp name="--.HHN">
      <acc value="0.0441626462" flag="0"/>
      <vel value="0.0132688344" flag="0"/>
      <psa03 value="0.0712044088" flag="0"/>
      <psa10 value="0.0083329950" flag="0"/>
      <psa30 value="0.0003444063" flag="0"/>
    </comp>
  </station>
  <station code="SCTR" name="SCTR" netid="RO" insttype="MBB2/Basalt" lat="45.6741" lon="27.9949">
    <comp name="--.HHE">
      <acc value="0.0418319648" flag="0"/>
      <vel value="0.0244438511" flag="0"/>
      <psa03 value="0.0983946329" flag="0"/>
      <psa10 value="0.0217350130" flag="0"/>
      <psa30 value="0.0014647187" flag="0"/>
    </comp>
    <comp name="--.HHN">
      <acc value="0.0564478069" flag="0"/>
      <vel value="0.0249050868" flag="0"/>
      <psa03 value="0.1477909879" flag="0"/>
      <psa10 value="0.0278141211" flag="0"/>
      <psa30 value="0.0009487348" flag="0"/>
    </comp>
    <comp name="--.HHZ">
      <acc value="0.0353823251" flag="0"/>
      <vel value="0.0106784692" flag="0"/>
      <psa03 value="0.0629023297" flag="0"/>
      <psa10 value="0.0117706557" flag="0"/>
      <psa30 value="0.0005169610" flag="0"/>
    </comp>
  </station>
  <station code="SULR" name="SULR" netid="RO" insttype="330" lat="44.6777" lon="26.2526">
    <comp name="--.HHE">
      <acc value="0.1248030358" flag="0"/>
      <vel value="0.0424329093" flag="0"/>
      <psa03 value="0.2247674727" flag="0"/>
      <psa10 value="0.0154836543" flag="0"/>
      <psa30 value="0.0013983148" flag="0"/>
    </comp>
    <comp name="--.HHZ">
      <acc value="0.0482929878" flag="0"/>
      <vel value="0.0166737155" flag="0"/>
      <psa03 value="0.0609413060" flag="0"/>
      <psa10 value="0.0046989182" flag="0"/>
      <psa30 value="0.0005593407" flag="0"/>
    </comp>
    <comp name="--.HHN">
      <acc value="0.1124110186" flag="0"/>
      <vel value="0.0401503724" flag="0"/>
      <psa03 value="0.1516517014" flag="0"/>
      <psa10 value="0.0241472911" flag="0"/>
      <psa30 value="0.0024343398" flag="0"/>
    </comp>
  </station>
  <station code="TESR" name="TESR" netid="RO" insttype="330" lat="46.5118" lon="26.6489">
    <comp name="--.HHE">
      <acc value="0.0228024530" flag="0"/>
      <vel value="0.0093507716" flag="0"/>
      <psa03 value="0.0774891926" flag="0"/>
      <psa10 value="0.0059265634" flag="0"/>
