<?xml version="1.0" encoding="UTF-8" standalone="yes"?>
<!DOCTYPE earthquake SYSTEM "stationlist.dtd">
<stationlist created="" xmlns="ch.ethz.sed.shakemap.usgs.xml">
  <station code="KARP" name="KARP" netid="GE" insttype="STS-2/N" lat="35.5471" lon="27.1611">
    <comp name="--.HHE">
      <acc value="0.1644697442" flag="0"/>
      <vel value="0.0233068416" flag="0"/>
      <psa03 value="0.0601080383" flag="0"/>
      <psa10 value="0.0142971557" flag="0"/>
      <psa30 value="0.0007350114" flag="0"/>
    </comp>
    <comp name="--.HHZ">
      <acc value="0.0698991633" flag="0"/>
      <vel value="0.0132670567" flag="0"/>
      <psa03 value="0.0554484003" flag="0"/>
      <psa10 value="0.0083165814" flag="0"/>
      <psa30 value="0.0007558628" flag="0"/>
    </comp>
    <comp name="--.HHN">
      <acc value="0.1096876021" flag="0"/>
      <vel value="0.0196528326" flag="0"/>
      <psa03 value="0.0702048538" flag="0"/>
      <psa10 value="0.0145151551" flag="0"/>
      <psa30 value="0.0007389882" flag="0"/>
    </comp>
  </station>
  <station code="THERA" name="THERA" netid="GE" insttype="STS-2/N" lat="36.367" lon="25.4753">
    <comp name="--.HHZ">
      <acc value="0.0151497180" flag="0"/>
      <vel value="0.0047617917" flag="0"/>
      <psa03 value="0.0378273195" flag="0"/>
      <psa10 value="0.0047816304" flag="0"/>
      <psa30 value="0.0006257051" flag="0"/>
    </comp>
    <comp name="--.HHE">
      <acc value="0.0202860165" flag="0"/>
      <vel value="0.0129068393" flag="0"/>
      <psa03 value="0.0681983621" flag="0"/>
      <psa10 value="0.0148267298" flag="0"/>
      <psa30 value="0.0009717819" flag="0"/>
    </comp>
    <comp name="--.HHN">
      <acc value="0.0136952599" flag="0"/>
      <vel value="0.0051592958" flag="0"/>
      <psa03 value="0.0454587377" flag="0"/>
      <psa10 value="0.0034426291" flag="0"/>
      <psa30 value="0.0003769222" flag="0"/>
    </comp>
  </station>
  <station code="ZKR" name="ZKR" netid="GE" insttype="STS-2/N" lat="35.1147" lon="26.2169">
    <comp name="--.HHE">
      <acc value="0.0846598094" flag="0"/>
      <vel value="0.0562816975" flag="0"/>
      <psa03 value="0.1301330078" flag="0"/>
      <psa10 value="0.0394536383" flag="0"/>
      <psa30 value="0.0024805542" flag="0"/>
    </comp>
    <comp name="--.HHN">
      <acc value="0.0421164664" flag="0"/>
      <vel value="0.0119522401" flag="0"/>
      <psa03 value="0.0933003617" flag="0"/>
      <psa10 value="0.0074913663" flag="0"/>
      <psa30 value="0.0005120557" flag="0"/>
    </comp>
    <comp name="--.HHZ">
      <acc value="0.0602883562" flag="0"/>
      <vel value="0.0177863856" flag="0"/>
      <psa03 value="0.0731635812" flag="0"/>
      <psa10 value="0.0195581651" flag="0"/>
      <psa30 value="0.0008409012" flag="0"/>
    </comp>
  </station>
  <station code="SNT5" name="SNT5" netid="HA" insttype="1s-100Hz," lat="36.4037" lon="25.3953">
    <comp name="--.HHN">
      <acc value="0.0508515457" flag="0"/>
      <vel value="0.0171565549" flag="0"/>
      <psa03 value="0.1062119381" flag="0"/>
      <psa10 value="0.0095025768" flag="0"/>
      <psa30 value="0.0012627714" flag="0"/>
    </comp>
    <comp name="--.HHZ">
      <acc value="0.0275504550" flag="0"/>
      <vel value="0.0071878101" flag="0"/>
      <psa03 value="0.0429085469" flag="0"/>
      <psa10 value="0.0067830308" flag="0"/>
      <psa30 value="0.0009027579" flag="0"/>
    </comp>
    <comp name="--.HHE">
      <acc value="0.0902194168" flag="0"/>
      <vel value="0.0314753635" flag="0"/>
      <psa03 value="0.2116186726" flag="0"/>
      <psa10 value="0.0156160609" flag="0"/>
      <psa30 value="0.0018927917" flag="0"/>
    </comp>
  </station>
  <station code="STIA" name="STIA" netid="HC" insttype="120" lat="35.2021" lon="26.0909">
    <comp name="--.HHN">
      <acc value="0.1176511633" flag="0"/>
      <vel value="0.0492312504" flag="0"/>
      <psa03 value="0.3193730030" flag="0"/>
      <psa10 value="0.0262904401" flag="0"/>
      <psa30 value="0.0023431453" flag="0"/>
    </comp>
    <comp name="--.HHE">
      <acc value="0.0931289588" flag="0"/>
      <vel value="0.0355677324" flag="0"/>
      <psa03 value="0.2024543284" flag="0"/>
      <psa10 value="0.0265713366" flag="0"/>
      <psa30 value="0.0026981235" flag="0"/>
    </comp>
    <comp name="--.HHZ">
      <acc value="0.1253417737" flag="0"/>
      <vel value="0.0373224579" flag="0"/>
      <psa03 value="0.3100276629" flag="0"/>
      <psa10 value="0.0209317363" flag="0"/>
      <psa30 value="0.0011598039" flag="0"/>
    </comp>
  </station>
  <station code="SIT2" name="SIT2" netid="HI" insttype="CMG-5TD,ACCELEROMETER,GURALP" lat="35.2059" lon="26.107">
    <comp name="--.HNZ">
      <acc value="0.2100050904" flag="0"/>
      <vel value="0.0827909320" flag="0"/>
      <psa03 value="0.6890087597" flag="0"/>
      <psa10 value="0.0281267054" flag="0"/>
      <psa30 value="0.0021863198" flag="0"/>
    </comp>
    <comp name="--.HNE">
      <acc value="0.2663026888" flag="0"/>
      <vel value="0.1355668726" flag="0"/>
      <psa03 value="0.9778311882" flag="0"/>
      <psa10 value="0.0531989051" flag="0"/>
      <psa30 value="0.0049576211" flag="0"/>
    </comp>
    <comp name="--.HNN">
      <acc value="0.3211442624" flag="0"/>
      <vel value="0.1802560078" flag="0"/>
      <psa03 value="1.4160207884" flag="0"/>
      <psa10 value="0.0645601189" flag="0"/>
      <psa30 value="0.0056534893" flag="0"/>
    </comp>
  </station>
  <station code="IACM" name="IACM" netid="HL" insttype="120" lat="35.3058" lon="25.0709">
    <comp name="--.HHN">
      <acc value="0.0835470923" flag="0"/>
      <vel value="0.0420249185" flag="0"/>
      <psa03 value="0.2360342854" flag="0"/>
      <psa10 value="0.0401631886" flag="0"/>
      <psa30 value="0.0014239632" flag="0"/>
    </comp>
    <comp name="--.HHE">
      <acc value="0.0959152292" flag="0"/>
      <vel value="0.0465138857" flag="0"/>
      <psa03 value="0.2389465037" flag="0"/>
      <psa10 value="0.0677652549" flag="0"/>
      <psa30 value="0.0022502313" flag="0"/>
    </comp>
    <comp name="--.HHZ">
      <acc value="0.0749186260" flag="0"/>
      <vel value="0.0282612223" flag="0"/>
      <psa03 value="0.1277603355" flag="0"/>
      <psa10 value="0.0139722498" flag="0"/>
      <psa30 value="0.0008796861" flag="0"/>
    </comp>
  </station>
  <station code="KARP" name="KARP" netid="HL" insttype="120" lat="35.5471" lon="27.1611">
    <comp name="--.HHZ">
      <acc value="0.0591710992" flag="0"/>
      <vel value="0.0126673399" flag="0"/>
      <psa03 value="0.0542299285" flag="0"/>
      <psa10 value="0.0082663425" flag="0"/>
      <psa30 value="0.0007548451" flag="0"/>
    </comp>
    <comp name="--.HHE">
      <acc value="0.1490085050" flag="0"/>
      <vel value="0.0215384657" flag="0"/>
      <psa03 value="0.0587550235" flag="0"/>
      <psa10 value="0.0142116739" flag="0"/>
      <psa30 value="0.0007183093" flag="0"/>
    </comp>
    <comp name="--.HHN">
      <acc value="0.1011778985" flag="0"/>
      <vel value="0.0187037141" flag="0"/>
      <psa03 value="0.0679059150" flag="0"/>
      <psa10 value="0.0143871217" flag="0"/>
      <psa30 value="0.0007357971" flag="0"/>
    </comp>
  </station>
  <station code="NPS" name="NPS" netid="HL" insttype="CMG3ESPC-120s" lat="35.2613" lon="25.6104">
    <comp name="--.HHN">
      <acc value="0.0953142660" flag="0"/>
      <vel value="0.0394672436" flag="0"/>
      <psa03 value="0.0988529704" flag="0"/>
      <psa10 value="0.0176408403" flag="0"/>
      <psa30 value="0.0008685162" flag="0"/>
    </comp>
    <comp name="--.HHE">
      <acc value="0.0715057566" flag="0"/>
      <vel value="0.0220453947" flag="0"/>
      <psa03 value="0.0818826744" flag="0"/>
      <psa10 value="0.0095524543" flag="0"/>
      <psa30 value="0.0004466043" flag="0"/>
    </comp>
    <comp name="--.HHZ">
      <acc value="0.0846786814" flag="0"/>
      <vel value="0.0279005168" flag="0"/>
      <psa03 value="0.1185765909" flag="0"/>
      <psa10 value="0.0147271295" flag="0"/>
      <psa30 value="0.0009811323" flag="0"/>
    </comp>
  </station>
  <station code="THERA" name="THERA" netid="HL" insttype="120" lat="36.367" lon="25.4753">
    <comp name="--.HHE">
      <acc value="0.0198875774" flag="0"/>
      <vel value="0.0126440686" flag="0"/>
      <psa03 value="0.0661419469" flag="0"/>
      <psa10 value="0.0147111940" flag="0"/>
      <psa30 value="0.0009657632" flag="0"/>
    </comp>
    <comp name="--.HHN">
      <acc value="0.0133059577" flag="0"/>
      <vel value="0.0050387802" flag="0"/>
      <psa03 value="0.0440665437" flag="0"/>
      <psa10 value="0.0034183957" flag="0"/>
      <psa30 value="0.0003757490" flag="0"/>
    </comp>
    <comp name="--.HHZ">
      <acc value="0.0146854145" flag="0"/>
      <vel value="0.0046347055" flag="0"/>
      <psa03 value="0.0366780479" flag="0"/>
      <psa10 value="0.0047570730" flag="0"/>
      <psa30 value="0.0006263702" flag="0"/>
    </comp>
  </station>
  <station code="ZKR" name="ZKR" netid="HL" insttype="120" lat="35.1147" lon="26.2169">
    <comp name="--.HHN">
      <acc value="0.0412981991" flag="0"/>
      <vel value="0.0117315295" flag="0"/>
      <psa03 value="0.0906159287" flag="0"/>
      <psa10 value="0.0074490310" flag="0"/>
      <psa30 value="0.0005076881" flag="0"/>
    </comp>
    <comp name="--.HHZ">
      <acc value="0.0599738193" flag="0"/>
      <vel value="0.0171727823" flag="0"/>
      <psa03 value="0.0710710365" flag="0"/>
      <psa10 value="0.0194087664" flag="0"/>
      <psa30 value="0.0008319897" flag="0"/>
    </comp>
    <comp name="--.HHE">
      <acc value="0.0829874299" flag="0"/>
      <vel value="0.0555586632" flag="0"/>
      <psa03 value="0.1274036664" flag="0"/>
      <psa10 value="0.0390124670" flag="0"/>
      <psa30 value="0.0024568562" flag="0"/>
    </comp>
  </station>
  <station code="CMBO" name="CMBO" netid="HT" insttype="120P," lat="36.4709" lon="25.4056">
    <comp name="--.HHZ">
      <acc value="0.0582970048" flag="0"/>
      <vel value="0.0213098719" flag="0"/>
      <psa03 value="0.1460381184" flag="0"/>
      <psa10 value="0.0122708541" flag="0"/>
      <psa30 value="0.0013691530" flag="0"/>
    </comp>
    <comp name="--.HHE">
      <acc value="0.0742313679" flag="0"/>
      <vel value="0.0455483326" flag="0"/>
      <psa03 value="0.1158665293" flag="0"/>
      <psa10 value="0.0419705613" flag="0"/>
      <psa30 value="0.0031338441" flag="0"/>
    </comp>
    <comp name="--.HHN">
      <acc value="0.0805622709" flag="0"/>
      <vel value="0.0354044783" flag="0"/>
      <psa03 value="0.1556082001" flag="0"/>
      <psa10 value="0.0473865810" flag="0"/>
      <psa30 value="0.0026081975" flag="0"/>
    </comp>
  </station>
</stationlist>
