<stationlist created="1631873545">
	<station code="KSS1" name="KSS1" netid="HI" source="ITSAK Strong Motion Network" insttype="" lat="35.4189" lon="26.9207">
		<comp name="--.HNE" depth="0.0">
			<acc value="-0.137477844" flag="0"/>
			<vel value="0.041601" flag="0"/>
			<psa03 value="0.154315870626" flag="0"/>
			<psa10 value="0.0155273353848" flag="0"/>
			<psa30 value="0.000991934720727" flag="0"/>
		</comp>
		<comp name="--.HNN" depth="0.0">
			<acc value="-0.19497861" flag="0"/>
			<vel value="0.095579" flag="0"/>
			<psa03 value="0.63520510736" flag="0"/>
			<psa10 value="0.0222561158381" flag="0"/>
			<psa30 value="0.00270108701355" flag="0"/>
		</comp>
		<comp name="--.HNZ" depth="0.0">
			<acc value="0.134001072" flag="0"/>
			<vel value="0.03119" flag="0"/>
			<psa03 value="0.143264545592" flag="0"/>
			<psa10 value="0.0129542110822" flag="0"/>
			<psa30 value="0.00136821667839" flag="0"/>
		</comp>
	</station>
	<station code="NAX1" name="NAX1" netid="HI" source="ITSAK Strong Motion Network" insttype="" lat="37.101394" lon="25.374103">
		<comp name="--.HNE" depth="0.0">
			<acc value="-0.003199332" flag="0"/>
			<vel value="0.00236" flag="0"/>
			<psa03 value="0.0155702879032" flag="0"/>
			<psa10 value="0.0024966151293" flag="0"/>
			<psa30 value="0.000386572665182" flag="0"/>
		</comp>
		<comp name="--.HNN" depth="0.0">
			<acc value="0.002729418" flag="0"/>
			<vel value="0.001375" flag="0"/>
			<psa03 value="0.00863524587733" flag="0"/>
			<psa10 value="0.00144562069584" flag="0"/>
			<psa30 value="0.000192838910525" flag="0"/>
		</comp>
		<comp name="--.HNZ" depth="0.0">
			<acc value="0.00225675" flag="0"/>
			<vel value="-0.00126" flag="0"/>
			<psa03 value="0.00653236216627" flag="0"/>
			<psa10 value="0.00180803256944" flag="0"/>
			<psa30 value="0.000254135733592" flag="0"/>
		</comp>
	</station>
	<station code="SIT2" name="SIT2" netid="HI" source="ITSAK Strong Motion Network" insttype="" lat="35.2059" lon="26.107">
		<comp name="--.HNE" depth="0.0">
			<acc value="-0.26633526" flag="0"/>
			<vel value="0.135754" flag="0"/>
			<psa03 value="0.968668773286" flag="0"/>
			<psa10 value="0.0533188402049" flag="0"/>
			<psa30 value="0.00501112714125" flag="0"/>
		</comp>
		<comp name="--.HNN" depth="0.0">
			<acc value="-0.320093544" flag="0"/>
			<vel value="-0.180398" flag="0"/>
			<psa03 value="1.39967044964" flag="0"/>
			<psa10 value="0.0648556181814" flag="0"/>
			<psa30 value="0.00574713644012" flag="0"/>
		</comp>
		<comp name="--.HNZ" depth="0.0">
			<acc value="-0.20956461" flag="0"/>
			<vel value="-0.082907" flag="0"/>
			<psa03 value="0.700081306956" flag="0"/>
			<psa10 value="0.0281795365723" flag="0"/>
			<psa30 value="0.00221518664967" flag="0"/>
		</comp>
	</station>
	<station code="IACM" name="IACM" netid="HL" source="National Observatory of Athens Seismic Network" insttype="" lat="35.3058" lon="25.0709">
		<comp name="--.HNE" depth="0.0">
			<acc value="0.093814296" flag="0"/>
			<vel value="0.045341" flag="0"/>
			<psa03 value="0.234359678267" flag="0"/>
			<psa10 value="0.0672878045332" flag="0"/>
			<psa30 value="0.00229080097886" flag="0"/>
		</comp>
		<comp name="--.HNN" depth="0.0">
			<acc value="0.085230792" flag="0"/>
			<vel value="0.043734" flag="0"/>
			<psa03 value="0.239236578788" flag="0"/>
			<psa10 value="0.0399498688674" flag="0"/>
			<psa30 value="0.00143219803385" flag="0"/>
		</comp>
		<comp name="--.HNZ" depth="0.0">
			<acc value="0.074788644" flag="0"/>
			<vel value="0.028175" flag="0"/>
			<psa03 value="0.130691985532" flag="0"/>
			<psa10 value="0.0136105792533" flag="0"/>
			<psa30 value="0.000879184360049" flag="0"/>
		</comp>
	</station>
	<station code="IMMV" name="IMMV" netid="HL" source="National Observatory of Athens Seismic Network" insttype="" lat="35.4606" lon="23.9811">
		<comp name="--.HNE" depth="0.0">
			<acc value="-0.005320728" flag="0"/>
			<vel value="-0.003084" flag="0"/>
			<psa03 value="0.0128857555061" flag="0"/>
			<psa10 value="0.00661603009264" flag="0"/>
			<psa30 value="0.000306036693269" flag="0"/>
		</comp>
		<comp name="--.HNN" depth="0.0">
			<acc value="0.008272098" flag="0"/>
			<vel value="-0.003202" flag="0"/>
			<psa03 value="0.0199102819451" flag="0"/>
			<psa10 value="0.00375297629114" flag="0"/>
			<psa30 value="0.000294851141614" flag="0"/>
		</comp>
		<comp name="--.HNZ" depth="0.0">
			<acc value="0.005563488" flag="0"/>
			<vel value="0.002034" flag="0"/>
			<psa03 value="0.01852327354" flag="0"/>
			<psa10 value="0.00229930199811" flag="0"/>
			<psa30 value="0.00015704514523" flag="0"/>
		</comp>
	</station>
	<station code="KARP" name="KARP" netid="HL" source="National Observatory of Athens Seismic Network" insttype="" lat="35.5471" lon="27.16106">
		<comp name="--.HNE" depth="0.0">
			<acc value="-0.124989066" flag="0"/>
			<vel value="-0.018983" flag="0"/>
			<psa03 value="0.0457712773705" flag="0"/>
			<psa10 value="0.012527370431" flag="0"/>
			<psa30 value="0.0006469723077" flag="0"/>
		</comp>
		<comp name="--.HNN" depth="0.0">
			<acc value="0.09071574" flag="0"/>
			<vel value="0.015886" flag="0"/>
			<psa03 value="0.0568226024052" flag="0"/>
			<psa10 value="0.011979725822" flag="0"/>
			<psa30 value="0.000645182619435" flag="0"/>
		</comp>
		<comp name="--.HNZ" depth="0.0">
			<acc value="0.0490722" flag="0"/>
			<vel value="0.010329" flag="0"/>
			<psa03 value="0.0446974644117" flag="0"/>
			<psa10 value="0.00678112883507" flag="0"/>
			<psa30 value="0.000677397008201" flag="0"/>
		</comp>
	</station>
	<station code="KLNA" name="KLNA" netid="HL" source="National Observatory of Athens Seismic Network" insttype="" lat="36.95708" lon="26.97274">
		<comp name="--.HNE" depth="0.0">
			<acc value="-0.011650542" flag="0"/>
			<vel value="0.004833" flag="0"/>
			<psa03 value="0.024384502607" flag="0"/>
			<psa10 value="0.0020375600894" flag="0"/>
			<psa30 value="0.000317222244924" flag="0"/>
		</comp>
		<comp name="--.HNN" depth="0.0">
			<acc value="-0.009968868" flag="0"/>
			<vel value="-0.003478" flag="0"/>
			<psa03 value="0.0165993586554" flag="0"/>
			<psa10 value="0.00200937249923" flag="0"/>
			<psa30 value="0.000312748024262" flag="0"/>
		</comp>
		<comp name="--.HNZ" depth="0.0">
			<acc value="0.010533846" flag="0"/>
			<vel value="-0.002779" flag="0"/>
			<psa03 value="0.0120356535803" flag="0"/>
			<psa10 value="0.00146978148741" flag="0"/>
			<psa30 value="0.000257267688055" flag="0"/>
		</comp>
	</station>
	<station code="SIVA" name="SIVA" netid="HL" source="National Observatory of Athens Seismic Network" insttype="" lat="35.01777" lon="24.81204">
		<comp name="--.HNE" depth="0.0">
			<acc value="-0.019877556" flag="0"/>
			<vel value="0.009243" flag="0"/>
			<psa03 value="0.0417444787748" flag="0"/>
			<psa10 value="0.0113797328313" flag="0"/>
			<psa30 value="0.000577621887442" flag="0"/>
		</comp>
		<comp name="--.HNN" depth="0.0">
			<acc value="0.017037264" flag="0"/>
			<vel value="0.011661" flag="0"/>
			<psa03 value="0.0659052703487" flag="0"/>
			<psa10 value="0.011093830131" flag="0"/>
			<psa30 value="0.000625048626457" flag="0"/>
		</comp>
		<comp name="--.HNZ" depth="0.0">
			<acc value="-0.012569256" flag="0"/>
			<vel value="-0.006242" flag="0"/>
			<psa03 value="0.031409029046" flag="0"/>
			<psa10 value="0.00364827952765" flag="0"/>
			<psa30 value="0.000319459355254" flag="0"/>
		</comp>
	</station>
	<station code="THRA" name="THRA" netid="HL" source="National Observatory of Athens Seismic Network" insttype="" lat="36.41502" lon="25.43244">
		<comp name="--.HNE" depth="0.0">
			<acc value="-0.0910146" flag="0"/>
			<vel value="-0.038489" flag="0"/>
			<psa03 value="0.116866643687" flag="0"/>
			<psa10 value="0.0547443269078" flag="0"/>
			<psa30 value="0.0037878752123" flag="0"/>
		</comp>
		<comp name="--.HNN" depth="0.0">
			<acc value="-0.05563386" flag="0"/>
			<vel value="-0.033515" flag="0"/>
			<psa03 value="0.117314065753" flag="0"/>
			<psa10 value="0.0417780354298" flag="0"/>
			<psa30 value="0.00271808905206" flag="0"/>
		</comp>
		<comp name="--.HNZ" depth="0.0">
			<acc value="0.048922872" flag="0"/>
			<vel value="-0.020448" flag="0"/>
			<psa03 value="0.117179839133" flag="0"/>
			<psa10 value="0.0182575048327" flag="0"/>
			<psa30 value="0.00114674275563" flag="0"/>
		</comp>
	</station>
</stationlist>
