<?xml version="1.0" encoding="UTF-8" standalone="yes"?>
<!DOCTYPE earthquake SYSTEM "stationlist.dtd">
<stationlist created="" xmlns="ch.ethz.sed.shakemap.usgs.xml">
  <station code="KMRS" name="KMRS" netid="KO" insttype="CMG-3T" lat="37.5053" lon="36.9">
    <comp name="--.HHZ">
      <acc value="0.0182587912" flag="0"/>
      <vel value="0.0099965264" flag="0"/>
      <psa03 value="0.0507703397" flag="0"/>
      <psa10 value="0.0032233861" flag="0"/>
      <psa30 value="0.0005283739" flag="0"/>
    </comp>
    <comp name="--.HHN">
      <acc value="0.0391036186" flag="0"/>
      <vel value="0.0205291353" flag="0"/>
      <psa03 value="0.1026561397" flag="0"/>
      <psa10 value="0.0070500929" flag="0"/>
      <psa30 value="0.0006032912" flag="0"/>
    </comp>
  </station>
  <station code="SARI" name="SARI" netid="KO" insttype="CMG-3T" lat="38.4072" lon="36.4181">
    <comp name="--.HHN">
      <acc value="0.0876375561" flag="0"/>
      <vel value="0.0164368486" flag="0"/>
      <psa03 value="0.0708184306" flag="0"/>
      <psa10 value="0.0085522811" flag="0"/>
      <psa30 value="0.0006738965" flag="0"/>
    </comp>
    <comp name="--.HHZ">
      <acc value="0.0503137124" flag="0"/>
      <vel value="0.0126546321" flag="0"/>
      <psa03 value="0.0592404115" flag="0"/>
      <psa10 value="0.0111359786" flag="0"/>
      <psa30 value="0.0008344402" flag="0"/>
    </comp>
  </station>
  <station code="ANDN" name="ANDN" netid="TU" insttype="T" lat="37.58" lon="36.3452">
    <comp name="--.HHN">
      <acc value="0.0999644370" flag="0"/>
      <vel value="0.0232881742" flag="0"/>
      <psa03 value="0.1333120684" flag="0"/>
      <psa10 value="0.0299881598" flag="0"/>
      <psa30 value="0.0013121259" flag="0"/>
    </comp>
    <comp name="--.HHZ">
      <acc value="0.0290076956" flag="0"/>
      <vel value="0.0134551619" flag="0"/>
      <psa03 value="0.0409692797" flag="0"/>
      <psa10 value="0.0196196265" flag="0"/>
      <psa30 value="0.0008174573" flag="0"/>
    </comp>
    <comp name="--.HHE">
      <acc value="0.0645029121" flag="0"/>
      <vel value="0.0186541799" flag="0"/>
      <psa03 value="0.1226191379" flag="0"/>
      <psa10 value="0.0146071734" flag="0"/>
      <psa30 value="0.0009267413" flag="0"/>
    </comp>
  </station>
</stationlist>
