<?xml version="1.0" encoding="UTF-8" standalone="yes"?>
<!DOCTYPE earthquake SYSTEM "stationlist.dtd">
<stationlist created="" xmlns="ch.ethz.sed.shakemap.usgs.xml">
  <station code="CEYT" name="CEYT" netid="KO" insttype="CMG-3ESP" lat="37.0105" lon="35.7478">
    <comp name="--.HHN">
      <acc value="0.0146984988" flag="0"/>
      <vel value="0.0109879604" flag="0"/>
      <psa03 value="0.0343867104" flag="0"/>
      <psa10 value="0.0123836363" flag="0"/>
      <psa30 value="0.0007438632" flag="0"/>
    </comp>
    <comp name="--.HHZ">
      <acc value="0.0080152004" flag="0"/>
      <vel value="0.0065538040" flag="0"/>
      <psa03 value="0.0264439267" flag="0"/>
      <psa10 value="0.0111754372" flag="0"/>
      <psa30 value="0.0006611795" flag="0"/>
    </comp>
    <comp name="--.HHE">
      <acc value="0.0112732613" flag="0"/>
      <vel value="0.0070805614" flag="0"/>
      <psa03 value="0.0339310924" flag="0"/>
      <psa10 value="0.0114228497" flag="0"/>
      <psa30 value="0.0008173512" flag="0"/>
    </comp>
  </station>
</stationlist>
