<stationlist xmlns:esm="https://esm-db.eu/esmws/shakemap/1/" created="1783994152">
	<station code="ARG2" name="ARG2" netid="HI" source="ITSAK Strong Motion Network" insttype="" lat="38.1783" lon="20.4878" esm:processing="manual (Paolucci et al 2011)" esm:quality="best">
		<comp name="--.HNE" depth="0.0">
			<acc value="0.130867543400079" flag="0"/>
			<vel value="0.0317145076647161" flag="0"/>
			<psa03 value="0.208498682841146" flag="0"/>
			<psa10 value="0.0151166019280493" flag="0"/>
			<psa30 value="0.00118164167678856" flag="0"/>
		</comp>
		<comp name="--.HNN" depth="0.0">
			<acc value="0.0793302071746975" flag="0"/>
			<vel value="0.0264410909668451" flag="0"/>
			<psa03 value="0.117045612513399" flag="0"/>
			<psa10 value="0.0134132661220917" flag="0"/>
			<psa30 value="0.0008232566017762" flag="0"/>
		</comp>
		<comp name="--.HNZ" depth="0.0">
			<acc value="0.0726192784671712" flag="0"/>
			<vel value="0.0193589095304745" flag="0"/>
			<psa03 value="0.12478601425836" flag="0"/>
			<psa10 value="0.00810191877443665" flag="0"/>
			<psa30 value="0.000931532741792418" flag="0"/>
		</comp>
	</station>
	<station code="ART2" name="ART2" netid="HI" source="ITSAK Strong Motion Network" insttype="" lat="39.1474" lon="20.9937" esm:processing="manual (Paolucci et al 2011)" esm:quality="bad">
		<comp name="--.HNE" depth="0.0">
			<acc value="0.00214729799080085" flag="0"/>
			<vel value="0.000953241084445052" flag="0"/>
			<psa03 value="0.00590996246953619" flag="0"/>
			<psa10 value="0.00162136635287418" flag="0"/>
			<psa30 value="9.30987584818779e-05" flag="0"/>
		</comp>
		<comp name="--.HNN" depth="0.0">
			<acc value="0.00195694388226605" flag="0"/>
			<vel value="0.00116572359588849" flag="0"/>
			<psa03 value="0.00503710093580148" flag="0"/>
			<psa10 value="0.00132017722088768" flag="0"/>
			<psa30 value="0.000102124349872481" flag="0"/>
		</comp>
		<comp name="--.HNZ" depth="0.0">
			<acc value="0.00120488639276994" flag="0"/>
			<vel value="0.000664913851551538" flag="0"/>
			<psa03 value="0.00428820073892117" flag="0"/>
			<psa10 value="0.00125937584934632" flag="0"/>
			<psa30 value="0.000170612708504502" flag="0"/>
		</comp>
	</station>
	<station code="KLV1" name="KLV1" netid="HI" source="ITSAK Strong Motion Network" insttype="" lat="38.03256" lon="22.10797" esm:processing="manual (Paolucci et al 2011)" esm:quality="good">
		<comp name="--.HNE" depth="0.0">
			<acc value="0.0105622147196613" flag="0"/>
			<vel value="0.00482003567416972" flag="0"/>
			<psa03 value="0.0326020998332801" flag="0"/>
			<psa10 value="0.00467293940307186" flag="0"/>
			<psa30 value="0.000351447552509014" flag="0"/>
		</comp>
		<comp name="--.HNN" depth="0.0">
			<acc value="0.00980750074888628" flag="0"/>
			<vel value="0.00433350765732514" flag="0"/>
			<psa03 value="0.0325548753507386" flag="0"/>
			<psa10 value="0.00592627993072412" flag="0"/>
			<psa30 value="0.0003141210954391" flag="0"/>
		</comp>
		<comp name="--.HNZ" depth="0.0">
			<acc value="0.00467552146189448" flag="0"/>
			<vel value="0.00293388299196996" flag="0"/>
			<psa03 value="0.0107295076522406" flag="0"/>
			<psa10 value="0.00352878665542118" flag="0"/>
			<psa30 value="0.000294254154351857" flag="0"/>
		</comp>
	</station>
	<station code="KRI1" name="KRI1" netid="HI" source="ITSAK Strong Motion Network" insttype="" lat="37.6621" lon="20.8172" esm:processing="manual (Paolucci et al 2011)" esm:quality="best">
		<comp name="--.HNE" depth="0.0">
			<acc value="0.75722302054291" flag="0"/>
			<vel value="0.268343488730083" flag="0"/>
			<psa03 value="1.27949288266272" flag="0"/>
			<psa10 value="0.0598784951172331" flag="0"/>
			<psa30 value="0.00490643037775968" flag="0"/>
		</comp>
		<comp name="--.HNN" depth="0.0">
			<acc value="0.457783670568314" flag="0"/>
			<vel value="0.141205093883474" flag="0"/>
			<psa03 value="0.890996302596264" flag="0"/>
			<psa10 value="0.0596086996113249" flag="0"/>
			<psa30 value="0.00283262910100278" flag="0"/>
		</comp>
		<comp name="--.HNZ" depth="0.0">
			<acc value="0.41018427114359" flag="0"/>
			<vel value="0.112215175352931" flag="0"/>
			<psa03 value="0.54496007661055" flag="0"/>
			<psa10 value="0.01746422550931" flag="0"/>
			<psa30 value="0.00180042639431925" flag="0"/>
		</comp>
	</station>
	<station code="MSL1" name="MSL1" netid="HI" source="ITSAK Strong Motion Network" insttype="" lat="38.3727" lon="21.4243" esm:processing="manual (Paolucci et al 2011)" esm:quality="best">
		<comp name="--.HNE" depth="0.0">
			<acc value="0.0202115059856943" flag="0"/>
			<vel value="0.012227337653054" flag="0"/>
			<psa03 value="0.0474597273073966" flag="0"/>
			<psa10 value="0.0142632308065249" flag="0"/>
			<psa30 value="0.00228265308956666" flag="0"/>
		</comp>
		<comp name="--.HNN" depth="0.0">
			<acc value="0.0197320938533373" flag="0"/>
			<vel value="0.00975142038544425" flag="0"/>
			<psa03 value="0.050673127679162" flag="0"/>
			<psa10 value="0.0135587625764643" flag="0"/>
			<psa30 value="0.00121534040616858" flag="0"/>
		</comp>
		<comp name="--.HNZ" depth="0.0">
			<acc value="0.00919582210393984" flag="0"/>
			<vel value="0.00459617823653602" flag="0"/>
			<psa03 value="0.0182546454785835" flag="0"/>
			<psa10 value="0.00854796657334052" flag="0"/>
			<psa30 value="0.000519314766638659" flag="0"/>
		</comp>
	</station>
	<station code="PYL1" name="PYL1" netid="HI" source="ITSAK Strong Motion Network" insttype="" lat="36.914188" lon="21.695161" esm:processing="manual (Paolucci et al 2011)" esm:quality="good">
		<comp name="--.HNE" depth="0.0">
			<acc value="0.0144561373704833" flag="0"/>
			<vel value="0.00480654722829657" flag="0"/>
			<psa03 value="0.0257267688055063" flag="0"/>
			<psa10 value="0.00409122737317477" flag="0"/>
			<psa30 value="0.000327960374511932" flag="0"/>
		</comp>
		<comp name="--.HNN" depth="0.0">
			<acc value="0.0157955370865655" flag="0"/>
			<vel value="0.00603718706651645" flag="0"/>
			<psa03 value="0.0264426441113986" flag="0"/>
			<psa10 value="0.00262949948295583" flag="0"/>
			<psa30 value="0.000320801621453008" flag="0"/>
		</comp>
		<comp name="--.HNZ" depth="0.0">
			<acc value="0.00680106846441672" flag="0"/>
			<vel value="0.00229684586730514" flag="0"/>
			<psa03 value="0.0124383334398795" flag="0"/>
			<psa10 value="0.00202145289501352" flag="0"/>
			<psa30 value="0.000221473922760445" flag="0"/>
		</comp>
	</station>
	<station code="ARTB" name="ARTB" netid="HL" source="National Observatory of Athens Seismic Network" insttype="" lat="39.15702" lon="20.9785" esm:processing="manual (Paolucci et al 2011)" esm:quality="good">
		<comp name="00.HNE" depth="0.0">
			<acc value="0.0109993702025291" flag="0"/>
			<vel value="0.00430591325323997" flag="0"/>
			<psa03 value="0.0294740436565857" flag="0"/>
			<psa10 value="0.00140650993219455" flag="0"/>
			<psa30 value="0.000152178127929302" flag="0"/>
		</comp>
		<comp name="00.HNN" depth="0.0">
			<acc value="0.00697706876148076" flag="0"/>
			<vel value="0.00248079870569538" flag="0"/>
			<psa03 value="0.0175791124465941" flag="0"/>
			<psa10 value="0.00130064967728385" flag="0"/>
			<psa30 value="0.000122822836930881" flag="0"/>
		</comp>
		<comp name="00.HNZ" depth="0.0">
			<acc value="0.00613258771998263" flag="0"/>
			<vel value="0.00162651110621348" flag="0"/>
			<psa03 value="0.0111584957059882" flag="0"/>
			<psa10 value="0.00102894781118175" flag="0"/>
			<psa30 value="0.000156031391001443" flag="0"/>
		</comp>
	</station>
	<station code="ITM" name="ITM" netid="HL" source="National Observatory of Athens Seismic Network" insttype="" lat="37.17872" lon="21.92522" esm:processing="manual (Paolucci et al 2011)" esm:quality="good">
		<comp name="--.HNE" depth="0.0">
			<acc value="0.0103496592474285" flag="0"/>
			<vel value="0.00530524678628208" flag="0"/>
			<psa03 value="0.0170105292078337" flag="0"/>
			<psa10 value="0.00467396603356176" flag="0"/>
			<psa30 value="0.000811034091613684" flag="0"/>
		</comp>
		<comp name="--.HNN" depth="0.0">
			<acc value="0.00819594356098507" flag="0"/>
			<vel value="0.00463318847282102" flag="0"/>
			<psa03 value="0.013566469024512" flag="0"/>
			<psa10 value="0.00438860681743197" flag="0"/>
			<psa30 value="0.000536233647847659" flag="0"/>
		</comp>
		<comp name="--.HNZ" depth="0.0">
			<acc value="0.00776672864462691" flag="0"/>
			<vel value="0.00565471277233369" flag="0"/>
			<psa03 value="0.0116182279839308" flag="0"/>
			<psa10 value="0.0048867227839165" flag="0"/>
			<psa30 value="0.000334031815468598" flag="0"/>
		</comp>
	</station>
	<station code="LXRA" name="LXRA" netid="HL" source="National Observatory of Athens Seismic Network" insttype="" lat="38.20006" lon="20.43718" esm:processing="manual (Paolucci et al 2011)" esm:quality="best">
		<comp name="00.HNE" depth="0.0">
			<acc value="0.10717423763059" flag="0"/>
			<vel value="0.0309040769889538" flag="0"/>
			<psa03 value="0.147462289486527" flag="0"/>
			<psa10 value="0.0199490959047135" flag="0"/>
			<psa30 value="0.00183169842436618" flag="0"/>
		</comp>
		<comp name="00.HNN" depth="0.0">
			<acc value="0.123469494233198" flag="0"/>
			<vel value="0.030319733416594" flag="0"/>
			<psa03 value="0.140756053564466" flag="0"/>
			<psa10 value="0.0233577342102573" flag="0"/>
			<psa30 value="0.00185060926044791" flag="0"/>
		</comp>
		<comp name="00.HNZ" depth="0.0">
			<acc value="0.109154128214099" flag="0"/>
			<vel value="0.0182621430563828" flag="0"/>
			<psa03 value="0.0581182354644155" flag="0"/>
			<psa10 value="0.00952410748788973" flag="0"/>
			<psa30 value="0.000953614526450117" flag="0"/>
		</comp>
	</station>
	<station code="PATC" name="PATC" netid="HL" source="National Observatory of Athens Seismic Network" insttype="" lat="38.26933" lon="21.76001" esm:processing="manual (Paolucci et al 2011)" esm:quality="best">
		<comp name="00.HNE" depth="0.0">
			<acc value="0.0143376705416634" flag="0"/>
			<vel value="0.0111713276476785" flag="0"/>
			<psa03 value="0.0515073027310151" flag="0"/>
			<psa10 value="0.0133735884346084" flag="0"/>
			<psa30 value="0.00105115661313458" flag="0"/>
		</comp>
		<comp name="00.HNN" depth="0.0">
			<acc value="0.01657532566551" flag="0"/>
			<vel value="0.00983287611226388" flag="0"/>
			<psa03 value="0.0673140477671319" flag="0"/>
			<psa10 value="0.00882185284196959" flag="0"/>
			<psa30 value="0.00112474388376286" flag="0"/>
		</comp>
		<comp name="00.HNZ" depth="0.0">
			<acc value="0.0114731154969924" flag="0"/>
			<vel value="0.00535141680383783" flag="0"/>
			<psa03 value="0.0200183235115117" flag="0"/>
			<psa10 value="0.00754191086457119" flag="0"/>
			<psa30 value="0.000414463341578827" flag="0"/>
		</comp>
	</station>
	<station code="PATG" name="PATG" netid="HL" source="National Observatory of Athens Seismic Network" insttype="" lat="38.23865" lon="21.72657" esm:processing="manual (Paolucci et al 2011)" esm:quality="good">
		<comp name="00.HNE" depth="0.0">
			<acc value="0.0164765307373397" flag="0"/>
			<vel value="0.00950744903701263" flag="0"/>
			<psa03 value="0.0447763828821044" flag="0"/>
			<psa10 value="0.012709110041163" flag="0"/>
			<psa30 value="0.000968348002469139" flag="0"/>
		</comp>
		<comp name="00.HNN" depth="0.0">
			<acc value="0.0237866176205312" flag="0"/>
			<vel value="0.0106288074228569" flag="0"/>
			<psa03 value="0.0532244216900489" flag="0"/>
			<psa10 value="0.017372881493149" flag="0"/>
			<psa30 value="0.00095701245987776" flag="0"/>
		</comp>
		<comp name="00.HNZ" depth="0.0">
			<acc value="0.0210506438480067" flag="0"/>
			<vel value="0.00452335469314106" flag="0"/>
			<psa03 value="0.0221833028682965" flag="0"/>
			<psa10 value="0.00902718081893438" flag="0"/>
			<psa30 value="0.000501864756493483" flag="0"/>
		</comp>
	</station>
	<station code="SMHA" name="SMHA" netid="HL" source="National Observatory of Athens Seismic Network" insttype="" lat="38.25123" lon="20.6477" esm:processing="manual (Paolucci et al 2011)" esm:quality="best">
		<comp name="00.HNE" depth="0.0">
			<acc value="0.140715235556511" flag="0"/>
			<vel value="0.048358435840124" flag="0"/>
			<psa03 value="0.278588080092975" flag="0"/>
			<psa10 value="0.0286845102080205" flag="0"/>
			<psa30 value="0.00162687423076887" flag="0"/>
		</comp>
		<comp name="00.HNN" depth="0.0">
			<acc value="0.0969498160997409" flag="0"/>
			<vel value="0.0439501632011771" flag="0"/>
			<psa03 value="0.258059720189843" flag="0"/>
			<psa10 value="0.017596951336684" flag="0"/>
			<psa30 value="0.00140829454260003" flag="0"/>
		</comp>
		<comp name="00.HNZ" depth="0.0">
			<acc value="0.0613813647315802" flag="0"/>
			<vel value="0.0215665821514564" flag="0"/>
			<psa03 value="0.11549740113596" flag="0"/>
			<psa10 value="0.0110315704749085" flag="0"/>
			<psa30 value="0.000684338250717789" flag="0"/>
		</comp>
	</station>
	<station code="ZARA" name="ZARA" netid="HL" source="National Observatory of Athens Seismic Network" insttype="" lat="37.4865" lon="21.6491" esm:processing="manual (Paolucci et al 2011)" esm:quality="good">
		<comp name="00.HNE" depth="0.0">
			<acc value="0.0825359432966339" flag="0"/>
			<vel value="0.0470248745584847" flag="0"/>
			<psa03 value="0.275904860676066" flag="0"/>
			<psa10 value="0.021564116016864" flag="0"/>
			<psa30 value="0.00228027459866815" flag="0"/>
		</comp>
		<comp name="00.HNN" depth="0.0">
			<acc value="0.063000045015886" flag="0"/>
			<vel value="0.0355803325808821" flag="0"/>
			<psa03 value="0.136479989046349" flag="0"/>
			<psa10 value="0.0220063265611191" flag="0"/>
			<psa30 value="0.00163430763985858" flag="0"/>
		</comp>
		<comp name="00.HNZ" depth="0.0">
			<acc value="0.0263762743604934" flag="0"/>
			<vel value="0.0123815762393377" flag="0"/>
			<psa03 value="0.0953564731483735" flag="0"/>
			<psa10 value="0.00910907593157352" flag="0"/>
			<psa30 value="0.000976957322792511" flag="0"/>
		</comp>
	</station>
	<station code="ANX" name="ANX" netid="HP" source="University of Patras, Seismological Laboratory (PSLNET)" insttype="" lat="38.5933" lon="21.9209" esm:processing="automatic (Paolucci et al 2011)" esm:quality="best">
		<comp name="--.HNE" depth="0.0">
			<acc value="0.00716864937691254" flag="0"/>
			<vel value="0.00519113230085527" flag="0"/>
			<psa03 value="0.0207983895099752" flag="0"/>
			<psa10 value="0.00424273902937048" flag="0"/>
			<psa30 value="0.000351470679041082" flag="0"/>
		</comp>
		<comp name="--.HNN" depth="0.0">
			<acc value="0.00937360948780189" flag="0"/>
			<vel value="0.00560181862510034" flag="0"/>
			<psa03 value="0.0322073054509023" flag="0"/>
			<psa10 value="0.00442034938894389" flag="0"/>
			<psa30 value="0.000243125324609729" flag="0"/>
		</comp>
		<comp name="--.HNZ" depth="0.0">
			<acc value="0.00339276750369807" flag="0"/>
			<vel value="0.00220843507615399" flag="0"/>
			<psa03 value="0.0104838299189457" flag="0"/>
			<psa10 value="0.00179580611177852" flag="0"/>
			<psa30 value="0.00016476730825483" flag="0"/>
		</comp>
	</station>
	<station code="FSK" name="FSK" netid="HP" source="University of Patras, Seismological Laboratory (PSLNET)" insttype="" lat="38.4593" lon="20.5623" esm:processing="manual (Paolucci et al 2011)" esm:quality="good">
		<comp name="--.HNE" depth="0.0">
			<acc value="0.0400806450705596" flag="0"/>
			<vel value="0.0103534793949234" flag="0"/>
			<psa03 value="0.0281369602896968" flag="0"/>
			<psa10 value="0.00779020543787791" flag="0"/>
			<psa30 value="0.00110774411177755" flag="0"/>
		</comp>
		<comp name="--.HNN" depth="0.0">
			<acc value="0.0137601249950291" flag="0"/>
			<vel value="0.0060273096926386" flag="0"/>
			<psa03 value="0.0327173887206008" flag="0"/>
			<psa10 value="0.00568449297601161" flag="0"/>
			<psa30 value="0.000347268968406516" flag="0"/>
		</comp>
		<comp name="--.HNZ" depth="0.0">
			<acc value="0.0183367843317626" flag="0"/>
			<vel value="0.0049174988288174" flag="0"/>
			<psa03 value="0.0186245918607227" flag="0"/>
			<psa10 value="0.00382006141969616" flag="0"/>
			<psa30 value="0.000397803487945425" flag="0"/>
		</comp>
	</station>
	<station code="ROD3" name="ROD3" netid="CL" source="Corinth Riff Laboratory (CRLNET)" insttype="" lat="38.30811" lon="21.89204" esm:processing="automatic (Paolucci et al 2011)" esm:quality="bad">
		<comp name="00.HNE" depth="0.0">
			<acc value="0" flag="1"/>
			<vel value="0" flag="1"/>
			<psa03 value="0" flag="1"/>
			<psa10 value="0" flag="1"/>
			<psa30 value="0" flag="1"/>
		</comp>
		<comp name="00.HNN" depth="0.0">
			<acc value="0" flag="1"/>
			<vel value="0" flag="1"/>
			<psa03 value="0" flag="1"/>
			<psa10 value="0" flag="1"/>
			<psa30 value="0" flag="1"/>
		</comp>
		<comp name="00.HNZ" depth="0.0">
			<acc value="0" flag="1"/>
			<vel value="0" flag="1"/>
			<psa03 value="0" flag="1"/>
			<psa10 value="0" flag="1"/>
			<psa30 value="0" flag="1"/>
		</comp>
	</station>
	<station code="ARS1" name="ARS1" netid="HI" source="ITSAK Strong Motion Network" insttype="" lat="37.6349" lon="22.7293" esm:processing="discarded" esm:quality="bad">
		<comp name="--.HNE" depth="0.0">
			<acc value="0" flag="1"/>
			<vel value="0" flag="1"/>
			<psa03 value="0" flag="1"/>
			<psa10 value="0" flag="1"/>
			<psa30 value="0" flag="1"/>
		</comp>
		<comp name="--.HNN" depth="0.0">
			<acc value="0" flag="1"/>
			<vel value="0" flag="1"/>
			<psa03 value="0" flag="1"/>
			<psa10 value="0" flag="1"/>
			<psa30 value="0" flag="1"/>
		</comp>
		<comp name="--.HNZ" depth="0.0">
			<acc value="0" flag="1"/>
			<vel value="0" flag="1"/>
			<psa03 value="0" flag="1"/>
			<psa10 value="0" flag="1"/>
			<psa30 value="0" flag="1"/>
		</comp>
	</station>
	<station code="LAM2" name="LAM2" netid="HI" source="ITSAK Strong Motion Network" insttype="" lat="38.90203" lon="22.431301" esm:processing="discarded" esm:quality="bad">
		<comp name="--.HNE" depth="0.0">
			<acc value="0" flag="1"/>
			<vel value="0" flag="1"/>
			<psa03 value="0" flag="1"/>
			<psa10 value="0" flag="1"/>
			<psa30 value="0" flag="1"/>
		</comp>
		<comp name="--.HNN" depth="0.0">
			<acc value="0" flag="1"/>
			<vel value="0" flag="1"/>
			<psa03 value="0" flag="1"/>
			<psa10 value="0" flag="1"/>
			<psa30 value="0" flag="1"/>
		</comp>
		<comp name="--.HNZ" depth="0.0">
			<acc value="0" flag="1"/>
			<vel value="0" flag="1"/>
			<psa03 value="0" flag="1"/>
			<psa10 value="0" flag="1"/>
			<psa30 value="0" flag="1"/>
		</comp>
	</station>
	<station code="NPS1" name="NPS1" netid="HI" source="ITSAK Strong Motion Network" insttype="" lat="36.51263" lon="23.06248" esm:processing="discarded" esm:quality="good">
		<comp name="--.HNE" depth="0.0">
			<acc value="0" flag="1"/>
			<vel value="0" flag="1"/>
			<psa03 value="0" flag="1"/>
			<psa10 value="0" flag="1"/>
			<psa30 value="0" flag="1"/>
		</comp>
		<comp name="--.HNN" depth="0.0">
			<acc value="0" flag="1"/>
			<vel value="0" flag="1"/>
			<psa03 value="0" flag="1"/>
			<psa10 value="0" flag="1"/>
			<psa30 value="0" flag="1"/>
		</comp>
		<comp name="--.HNZ" depth="0.0">
			<acc value="0" flag="1"/>
			<vel value="0" flag="1"/>
			<psa03 value="0" flag="1"/>
			<psa10 value="0" flag="1"/>
			<psa30 value="0" flag="1"/>
		</comp>
	</station>
	<station code="DLFA" name="DLFA" netid="HL" source="National Observatory of Athens Seismic Network" insttype="" lat="38.47836" lon="22.49583" esm:processing="discarded" esm:quality="bad">
		<comp name="00.HNE" depth="0.0">
			<acc value="0" flag="1"/>
			<vel value="0" flag="1"/>
			<psa03 value="0" flag="1"/>
			<psa10 value="0" flag="1"/>
			<psa30 value="0" flag="1"/>
		</comp>
		<comp name="00.HNN" depth="0.0">
			<acc value="0" flag="1"/>
			<vel value="0" flag="1"/>
			<psa03 value="0" flag="1"/>
			<psa10 value="0" flag="1"/>
			<psa30 value="0" flag="1"/>
		</comp>
		<comp name="00.HNZ" depth="0.0">
			<acc value="0" flag="1"/>
			<vel value="0" flag="1"/>
			<psa03 value="0" flag="1"/>
			<psa10 value="0" flag="1"/>
			<psa30 value="0" flag="1"/>
		</comp>
	</station>
