<?xml version="1.0" encoding="UTF-8" standalone="yes"?>
<!DOCTYPE earthquake SYSTEM "stationlist.dtd">
<stationlist created="" xmlns="ch.ethz.sed.shakemap.usgs.xml">
  <station code="ROD3" name="ROD3" netid="CL" source="RESIF" insttype="30" lat="38.3081" lon="21.892">
    <comp name="00.HHE">
      <acc value="0.0170692301" flag="0"/>
      <vel value="0.0086863011" flag="0"/>
      <psa03 value="0.0698606452" flag="0"/>
      <psa10 value="0.0064729178" flag="0"/>
      <psa30 value="0.0005913128" flag="0"/>
    </comp>
    <comp name="00.HHN">
      <acc value="0.0180851775" flag="0"/>
      <vel value="0.0100334724" flag="0"/>
      <psa03 value="0.0658082330" flag="0"/>
      <psa10 value="0.0072961077" flag="0"/>
      <psa30 value="0.0004849947" flag="0"/>
    </comp>
    <comp name="00.HHZ">
      <acc value="0.0098030592" flag="0"/>
      <vel value="0.0038292333" flag="0"/>
      <psa03 value="0.0261555587" flag="0"/>
      <psa10 value="0.0038474424" flag="0"/>
      <psa30 value="0.0002885618" flag="0"/>
    </comp>
  </station>
  <station code="ITM" name="ITM" netid="HL" source="NOA" insttype="DR24" lat="37.1787" lon="21.9252">
    <comp name="--.HHE">
      <acc value="0.0106874216" flag="0"/>
      <vel value="0.0053515464" flag="0"/>
      <psa03 value="0.0175957332" flag="0"/>
      <psa10 value="0.0047694505" flag="0"/>
      <psa30 value="0.0007368520" flag="0"/>
    </comp>
    <comp name="--.HHN">
      <acc value="0.0082957962" flag="0"/>
      <vel value="0.0046737771" flag="0"/>
      <psa03 value="0.0140351154" flag="0"/>
      <psa10 value="0.0044735391" flag="0"/>
      <psa30 value="0.0005049956" flag="0"/>
    </comp>
    <comp name="--.HHZ">
      <acc value="0.0081403588" flag="0"/>
      <vel value="0.0061298450" flag="0"/>
      <psa03 value="0.0123333996" flag="0"/>
      <psa10 value="0.0053703680" flag="0"/>
      <psa30 value="0.0003630266" flag="0"/>
    </comp>
  </station>
  <station code="AMT" name="AMT" netid="HP" source="NOA" insttype="CMG-3T," lat="37.5324" lon="21.7089">
    <comp name="00.HHE">
      <acc value="0.0344848359" flag="0"/>
      <vel value="0.0231955825" flag="0"/>
      <psa03 value="0.1493207822" flag="0"/>
      <psa10 value="0.0247902451" flag="0"/>
      <psa30 value="0.0009406854" flag="0"/>
    </comp>
    <comp name="00.HHN">
      <acc value="0.0416122841" flag="0"/>
      <vel value="0.0192410158" flag="0"/>
      <psa03 value="0.1295664123" flag="0"/>
      <psa10 value="0.0210506836" flag="0"/>
      <psa30 value="0.0014727674" flag="0"/>
    </comp>
    <comp name="00.HHZ">
      <acc value="0.0208325554" flag="0"/>
      <vel value="0.0102815307" flag="0"/>
      <psa03 value="0.0636155259" flag="0"/>
      <psa10 value="0.0074947925" flag="0"/>
      <psa30 value="0.0004732972" flag="0"/>
    </comp>
  </station>
  <station code="LTHK" name="LTHK" netid="HP" source="NOA" insttype="40," lat="37.7095" lon="20.8367">
    <comp name="--.HHE">
      <acc value="1.0382962334" flag="0"/>
      <vel value="0.1658502936" flag="0"/>
      <psa03 value="0.9697852863" flag="0"/>
      <psa10 value="0.0327311455" flag="0"/>
      <psa30 value="0.0028219674" flag="0"/>
    </comp>
    <comp name="--.HHN">
      <acc value="0.7667741123" flag="0"/>
      <vel value="0.2586193567" flag="0"/>
      <psa03 value="1.6085429317" flag="0"/>
      <psa10 value="0.0727999358" flag="0"/>
      <psa30 value="0.0067905543" flag="0"/>
    </comp>
    <comp name="--.HHZ">
      <acc value="0.3934488151" flag="0"/>
      <vel value="0.1401938429" flag="0"/>
      <psa03 value="0.6858723362" flag="0"/>
      <psa10 value="0.0249832886" flag="0"/>
      <psa30 value="0.0019955504" flag="0"/>
    </comp>
  </station>
</stationlist>
