<stationlist xmlns:esm="https://esm-db.eu/esmws/shakemap/1/" created="1784080575">
	<station code="ATEI" name="ATEI" netid="HC" source="Seismological Network of Crete (HC)" insttype="" lat="35.5193" lon="24.0432" esm:processing="manual (Paolucci et al 2011)" esm:quality="good">
		<comp name="--.HNE" depth="0.0">
			<acc value="0.0223163894369404" flag="0"/>
			<vel value="0.00636996857518972" flag="0"/>
			<psa03 value="0.0324338725432121" flag="0"/>
			<psa10 value="0.00270371887373122" flag="0"/>
			<psa30 value="0.000263634547828276" flag="0"/>
		</comp>
		<comp name="--.HNN" depth="0.0">
			<acc value="0.0188559500344439" flag="0"/>
			<vel value="0.00415841322117782" flag="0"/>
			<psa03 value="0.0245424721724999" flag="0"/>
			<psa10 value="0.00249291201818663" flag="0"/>
			<psa30 value="0.000306461160922878" flag="0"/>
		</comp>
		<comp name="--.HNZ" depth="0.0">
			<acc value="0.0210459261763631" flag="0"/>
			<vel value="0.00533788139127116" flag="0"/>
			<psa03 value="0.0163240657642425" flag="0"/>
			<psa10 value="0.0022315417349381" flag="0"/>
			<psa30 value="0.000251099576822965" flag="0"/>
		</comp>
	</station>
	<station code="LENT" name="LENT" netid="HC" source="Seismological Network of Crete (HC)" insttype="" lat="35.5074" lon="24.0402" esm:processing="manual (Paolucci et al 2011)" esm:quality="good">
		<comp name="--.HNE" depth="0.0">
			<acc value="0.0328090012937416" flag="0"/>
			<vel value="0.00712789674951313" flag="0"/>
			<psa03 value="0.023302056667727" flag="0"/>
			<psa10 value="0.00382795287996668" flag="0"/>
			<psa30 value="0.000348725835750161" flag="0"/>
		</comp>
		<comp name="--.HNN" depth="0.0">
			<acc value="0.0333739772974801" flag="0"/>
			<vel value="0.00738900855964022" flag="0"/>
			<psa03 value="0.0410184672721486" flag="0"/>
			<psa10 value="0.00323114959467799" flag="0"/>
			<psa30 value="0.000271235728452521" flag="0"/>
		</comp>
		<comp name="--.HNZ" depth="0.0">
			<acc value="0.022144247047589" flag="0"/>
			<vel value="0.00523800653811423" flag="0"/>
			<psa03 value="0.0217605235591407" flag="0"/>
			<psa10 value="0.00250925817916457" flag="0"/>
			<psa30 value="0.000259940527075863" flag="0"/>
		</comp>
	</station>
	<station code="MULT" name="MULT" netid="HC" source="Seismological Network of Crete (HC)" insttype="" lat="35.5091" lon="24.0118" esm:processing="automatic (Paolucci et al 2011)" esm:quality="good">
		<comp name="--.HNE" depth="0.0">
			<acc value="0.0682794857937537" flag="0"/>
			<vel value="0.0117096852851817" flag="0"/>
			<psa03 value="0.0482928918753049" flag="0"/>
			<psa10 value="0.00319029180992602" flag="0"/>
			<psa30 value="0.00107191142553587" flag="0"/>
		</comp>
		<comp name="--.HNN" depth="0.0">
			<acc value="0.0551878482249695" flag="0"/>
			<vel value="0.00926126100574828" flag="0"/>
			<psa03 value="0.0336581619797112" flag="0"/>
			<psa10 value="0.00339729333525952" flag="0"/>
			<psa30 value="0.00105842188609005" flag="0"/>
		</comp>
		<comp name="--.HNZ" depth="0.0">
			<acc value="0.0518506856396651" flag="0"/>
			<vel value="0.00848377653249542" flag="0"/>
			<psa03 value="0.0241457453704451" flag="0"/>
			<psa10 value="0.00354098246333501" flag="0"/>
			<psa30 value="0.00235908815301142" flag="0"/>
		</comp>
	</station>
	<station code="POLY" name="POLY" netid="HC" source="Seismological Network of Crete (HC)" insttype="" lat="35.5226" lon="24.0602" esm:processing="manual (Paolucci et al 2011)" esm:quality="good">
		<comp name="--.HNE" depth="0.0">
			<acc value="0.0163200950970651" flag="0"/>
			<vel value="0.00443826427722434" flag="0"/>
			<psa03 value="0.0163573791690088" flag="0"/>
			<psa10 value="0.00278727464326588" flag="0"/>
			<psa30 value="0.000316992353354358" flag="0"/>
		</comp>
		<comp name="--.HNN" depth="0.0">
			<acc value="0.0199908213949013" flag="0"/>
			<vel value="0.0059531260660679" flag="0"/>
			<psa03 value="0.028078875712712" flag="0"/>
			<psa10 value="0.00228064139379953" flag="0"/>
			<psa30 value="0.000371906616154764" flag="0"/>
		</comp>
		<comp name="--.HNZ" depth="0.0">
			<acc value="0.0234174243227076" flag="0"/>
			<vel value="0.00366436658334027" flag="0"/>
			<psa03 value="0.0123986494746783" flag="0"/>
			<psa10 value="0.00158280430614228" flag="0"/>
			<psa30 value="0.000307019244768193" flag="0"/>
		</comp>
	</station>
	<station code="AGN1" name="AGN1" netid="HI" source="ITSAK Strong Motion Network" insttype="" lat="35.1879" lon="25.7155" esm:processing="manual (Paolucci et al 2011)" esm:quality="good">
		<comp name="--.HNE" depth="0.0">
			<acc value="0.175261579100543" flag="0"/>
			<vel value="0.0738935841850913" flag="0"/>
			<psa03 value="0.41010391737184" flag="0"/>
			<psa10 value="0.0172362243152699" flag="0"/>
			<psa30 value="0.00147227898959082" flag="0"/>
		</comp>
		<comp name="--.HNN" depth="0.0">
			<acc value="0.266313735705722" flag="0"/>
			<vel value="0.0628706905102412" flag="0"/>
			<psa03 value="0.282466753702824" flag="0"/>
			<psa10 value="0.010368268721918" flag="0"/>
			<psa30 value="0.000926095099255286" flag="0"/>
		</comp>
		<comp name="--.HNZ" depth="0.0">
			<acc value="0.131056505901098" flag="0"/>
			<vel value="0.0292479765748814" flag="0"/>
			<psa03 value="0.117385099103386" flag="0"/>
			<psa10 value="0.00415721602015878" flag="0"/>
			<psa30 value="0.00036499519476535" flag="0"/>
		</comp>
	</station>
	<station code="ARK1" name="ARK1" netid="HI" source="ITSAK Strong Motion Network" insttype="" lat="35.148777" lon="25.264194" esm:processing="automatic (Paolucci et al 2011)" esm:quality="best">
		<comp name="--.HNE" depth="0.0">
			<acc value="0.0429489015100201" flag="0"/>
			<vel value="0.0199007216582096" flag="0"/>
			<psa03 value="0.102158069554075" flag="0"/>
			<psa10 value="0.007232956022839" flag="0"/>
			<psa30 value="0.000530338726087836" flag="0"/>
		</comp>
		<comp name="--.HNN" depth="0.0">
			<acc value="0.0422868650091904" flag="0"/>
			<vel value="0.0132390338038611" flag="0"/>
			<psa03 value="0.063140349404938" flag="0"/>
			<psa10 value="0.00722842103491831" flag="0"/>
			<psa30 value="0.000431918586444939" flag="0"/>
		</comp>
		<comp name="--.HNZ" depth="0.0">
			<acc value="0.0272505092500763" flag="0"/>
			<vel value="0.00835279923403991" flag="0"/>
			<psa03 value="0.0346513736084414" flag="0"/>
			<psa10 value="0.00506602216160546" flag="0"/>
			<psa30 value="0.000321245004863317" flag="0"/>
		</comp>
	</station>
	<station code="CH01" name="CH01" netid="HI" source="ITSAK Strong Motion Network" insttype="" lat="35.517" lon="24.0208" esm:processing="manual (Paolucci et al 2011)" esm:quality="good">
		<comp name="--.HNE" depth="0.0">
			<acc value="0.0272402345719358" flag="0"/>
			<vel value="0.0066112820339298" flag="0"/>
			<psa03 value="0.0282501787273627" flag="0"/>
			<psa10 value="0.00274359174948855" flag="0"/>
			<psa30 value="0.00020057953740996" flag="0"/>
		</comp>
		<comp name="--.HNN" depth="0.0">
			<acc value="0.0382139410496945" flag="0"/>
			<vel value="0.00872360107581213" flag="0"/>
			<psa03 value="0.0530428315356018" flag="0"/>
			<psa10 value="0.00234194787692816" flag="0"/>
			<psa30 value="0.000345978987118253" flag="0"/>
		</comp>
		<comp name="--.HNZ" depth="0.0">
			<acc value="0.0201495472988606" flag="0"/>
			<vel value="0.00407389040811152" flag="0"/>
			<psa03 value="0.0178067733613441" flag="0"/>
			<psa10 value="0.00279915707104341" flag="0"/>
			<psa30 value="0.00011437482937529" flag="0"/>
		</comp>
	</station>
	<station code="CH03" name="CH03" netid="HI" source="ITSAK Strong Motion Network" insttype="" lat="35.53303" lon="24.0705" esm:processing="manual (Paolucci et al 2011)" esm:quality="good">
		<comp name="--.HNE" depth="0.0">
			<acc value="0.0223467157069752" flag="0"/>
			<vel value="0.00583507493413596" flag="0"/>
			<psa03 value="0.0297075591258283" flag="0"/>
			<psa10 value="0.00393706143599804" flag="0"/>
			<psa30 value="0.000178602313297555" flag="0"/>
		</comp>
		<comp name="--.HNN" depth="0.0">
			<acc value="0.0184759428098868" flag="0"/>
			<vel value="0.0051370513889163" flag="0"/>
			<psa03 value="0.032716847018049" flag="0"/>
			<psa10 value="0.00236669693830702" flag="0"/>
			<psa30 value="0.000198961070819491" flag="0"/>
		</comp>
		<comp name="--.HNZ" depth="0.0">
			<acc value="0.0160055413073648" flag="0"/>
			<vel value="0.00501501443054609" flag="0"/>
			<psa03 value="0.0183817697853686" flag="0"/>
			<psa10 value="0.00193988760959616" flag="0"/>
			<psa30 value="0.000123582900302298" flag="0"/>
		</comp>
	</station>
	<station code="GOR1" name="GOR1" netid="HI" source="ITSAK Strong Motion Network" insttype="" lat="35.0582" lon="24.9628" esm:processing="automatic (Paolucci et al 2011)" esm:quality="best">
		<comp name="--.HNE" depth="0.0">
			<acc value="0.0206623785553833" flag="0"/>
			<vel value="0.00651498133809781" flag="0"/>
			<psa03 value="0.0279183364319392" flag="0"/>
			<psa10 value="0.00308724271780365" flag="0"/>
			<psa30 value="0.000199581645783704" flag="0"/>
		</comp>
		<comp name="--.HNN" depth="0.0">
			<acc value="0.0194053370448779" flag="0"/>
			<vel value="0.00634382477978401" flag="0"/>
			<psa03 value="0.023920829429219" flag="0"/>
			<psa10 value="0.0033840359726502" flag="0"/>
			<psa30 value="0.000177193964793045" flag="0"/>
		</comp>
		<comp name="--.HNZ" depth="0.0">
			<acc value="0.0170638529847034" flag="0"/>
			<vel value="0.00517830545300371" flag="0"/>
			<psa03 value="0.0234239267201865" flag="0"/>
			<psa10 value="0.00225707858287895" flag="0"/>
			<psa30 value="0.000158792211913061" flag="0"/>
		</comp>
	</station>
	<station code="HER3" name="HER3" netid="HI" source="ITSAK Strong Motion Network" insttype="" lat="35.3296" lon="25.1065" esm:processing="automatic (Paolucci et al 2011)" esm:quality="best">
		<comp name="--.HNE" depth="0.0">
			<acc value="0.148763539663579" flag="0"/>
			<vel value="0.0380738228833005" flag="0"/>
			<psa03 value="0.19923959447865" flag="0"/>
			<psa10 value="0.0141953006815032" flag="0"/>
			<psa30 value="0.000571089602716751" flag="0"/>
		</comp>
		<comp name="--.HNN" depth="0.0">
			<acc value="0.152332345105769" flag="0"/>
			<vel value="0.0523868744930312" flag="0"/>
			<psa03 value="0.328446695481643" flag="0"/>
			<psa10 value="0.0237776757793256" flag="0"/>
			<psa30 value="0.00117987097316147" flag="0"/>
		</comp>
		<comp name="--.HNZ" depth="0.0">
			<acc value="0.066941948079445" flag="0"/>
			<vel value="0.017462440966837" flag="0"/>
			<psa03 value="0.0784439829872231" flag="0"/>
			<psa10 value="0.0107645602867893" flag="0"/>
			<psa30 value="0.000492960208277808" flag="0"/>
		</comp>
	</station>
	<station code="KSS1" name="KSS1" netid="HI" source="ITSAK Strong Motion Network" insttype="" lat="35.4189" lon="26.9207" esm:processing="manual (Paolucci et al 2011)" esm:quality="good">
		<comp name="--.HNE" depth="0.0">
			<acc value="0.0165817574434277" flag="0"/>
			<vel value="0.00443464154590422" flag="0"/>
			<psa03 value="0.0292064998914464" flag="0"/>
			<psa10 value="0.00113982835959734" flag="0"/>
			<psa30 value="8.54553940733807e-05" flag="0"/>
		</comp>
		<comp name="--.HNN" depth="0.0">
			<acc value="0.0152411962473526" flag="0"/>
			<vel value="0.00519012298926363" flag="0"/>
			<psa03 value="0.0362082449726953" flag="0"/>
			<psa10 value="0.00130227330046493" flag="0"/>
			<psa30 value="0.000130001919280803" flag="0"/>
		</comp>
		<comp name="--.HNZ" depth="0.0">
			<acc value="0.0228152739879315" flag="0"/>
			<vel value="0.00428776105675309" flag="0"/>
			<psa03 value="0.0142742541930359" flag="0"/>
			<psa10 value="0.000873917580250726" flag="0"/>
			<psa30 value="6.19218363927644e-05" flag="0"/>
		</comp>
	</station>
	<station code="KTL1" name="KTL1" netid="HI" source="ITSAK Strong Motion Network" insttype="" lat="35.20778" lon="25.34272" esm:processing="automatic (Paolucci et al 2011)" esm:quality="best">
		<comp name="--.HNE" depth="0.0">
			<acc value="0.0360277627100748" flag="0"/>
			<vel value="0.01173619446001" flag="0"/>
			<psa03 value="0.0612388640658663" flag="0"/>
			<psa10 value="0.00450793362847909" flag="0"/>
			<psa30 value="0.000340883284969661" flag="0"/>
		</comp>
		<comp name="--.HNN" depth="0.0">
			<acc value="0.0661832155967056" flag="0"/>
			<vel value="0.0198927531999313" flag="0"/>
			<psa03 value="0.0749620752445902" flag="0"/>
			<psa10 value="0.00869984507203939" flag="0"/>
			<psa30 value="0.000481989533607786" flag="0"/>
		</comp>
		<comp name="--.HNZ" depth="0.0">
			<acc value="0.0487367425190935" flag="0"/>
			<vel value="0.00822616045270758" flag="0"/>
			<psa03 value="0.0219286974602529" flag="0"/>
			<psa10 value="0.002339062060757" flag="0"/>
			<psa30 value="0.000204924369504596" flag="0"/>
		</comp>
	</station>
	<station code="RTH1" name="RTH1" netid="HI" source="ITSAK Strong Motion Network" insttype="" lat="35.365393" lon="24.471773" esm:processing="automatic (Paolucci et al 2011)" esm:quality="best">
		<comp name="--.HNE" depth="0.0">
			<acc value="0.0170359134676047" flag="0"/>
			<vel value="0.00414335501714201" flag="0"/>
			<psa03 value="0.0263024168851997" flag="0"/>
			<psa10 value="0.0013369759899728" flag="0"/>
			<psa30 value="0.000103615770286262" flag="0"/>
		</comp>
		<comp name="--.HNN" depth="0.0">
			<acc value="0.0194272273004355" flag="0"/>
			<vel value="0.00567259172943327" flag="0"/>
			<psa03 value="0.0306607602915608" flag="0"/>
			<psa10 value="0.00136211484279842" flag="0"/>
			<psa30 value="0.000157062644212689" flag="0"/>
		</comp>
		<comp name="--.HNZ" depth="0.0">
			<acc value="0.0232397577155467" flag="0"/>
			<vel value="0.00539184745844661" flag="0"/>
			<psa03 value="0.0147447723417207" flag="0"/>
			<psa10 value="0.00120135364628313" flag="0"/>
			<psa30 value="7.76691491061978e-05" flag="0"/>
		</comp>
	</station>
	<station code="SFR2" name="SFR2" netid="HI" source="ITSAK Strong Motion Network" insttype="" lat="36.399841" lon="25.438209" esm:processing="automatic (Paolucci et al 2011)" esm:quality="best">
		<comp name="--.HNE" depth="0.0">
			<acc value="0.129961767339188" flag="0"/>
			<vel value="0.059026333091905" flag="0"/>
			<psa03 value="0.301299063750941" flag="0"/>
			<psa10 value="0.0219461219478731" flag="0"/>
			<psa30 value="0.00209031180623178" flag="0"/>
		</comp>
		<comp name="--.HNN" depth="0.0">
			<acc value="0.20922123741857" flag="0"/>
			<vel value="0.0679464429674412" flag="0"/>
			<psa03 value="0.372481008372096" flag="0"/>
			<psa10 value="0.0193071377531216" flag="0"/>
			<psa30 value="0.00146182569294456" flag="0"/>
		</comp>
		<comp name="--.HNZ" depth="0.0">
			<acc value="0.125197939553407" flag="0"/>
			<vel value="0.0343216012731456" flag="0"/>
			<psa03 value="0.214628613925663" flag="0"/>
			<psa10 value="0.0133166043471835" flag="0"/>
			<psa30 value="0.000955170358681863" flag="0"/>
		</comp>
	</station>
	<station code="AGNA" name="AGNA" netid="HL" source="National Observatory of Athens Seismic Network" insttype="" lat="35.1895" lon="25.71853" esm:processing="manual (Paolucci et al 2011)" esm:quality="good">
		<comp name="00.HNE" depth="0.0">
			<acc value="0.0676944769552889" flag="0"/>
			<vel value="0.0274844583359354" flag="0"/>
			<psa03 value="0.119953675509005" flag="0"/>
			<psa10 value="0.006440025057565" flag="0"/>
			<psa30 value="0.000581037865907047" flag="0"/>
		</comp>
		<comp name="00.HNN" depth="0.0">
			<acc value="0.155721291634282" flag="0"/>
			<vel value="0.0620083966172442" flag="0"/>
			<psa03 value="0.31834777647775" flag="0"/>
			<psa10 value="0.0174741588272802" flag="0"/>
			<psa30 value="0.00136211950456381" flag="0"/>
		</comp>
		<comp name="00.HNZ" depth="0.0">
			<acc value="0.0521409936447095" flag="0"/>
			<vel value="0.0140687328571902" flag="0"/>
			<psa03 value="0.0984315518572955" flag="0"/>
			<psa10 value="0.00294665832665315" flag="0"/>
			<psa30 value="0.000306342585359463" flag="0"/>
		</comp>
	</station>
	<station code="HERG" name="HERG" netid="HL" source="National Observatory of Athens Seismic Network" insttype="" lat="35.32622" lon="25.06586" esm:processing="manual (Paolucci et al 2011)" esm:quality="best">
		<comp name="00.HNE" depth="0.0">
			<acc value="0.0574132709552239" flag="0"/>
			<vel value="0.0205947759249223" flag="0"/>
			<psa03 value="0.101953545588659" flag="0"/>
			<psa10 value="0.0146220723905532" flag="0"/>
			<psa30 value="0.000866372549178022" flag="0"/>
		</comp>
		<comp name="00.HNN" depth="0.0">
			<acc value="0.0552684936627395" flag="0"/>
			<vel value="0.0189310178517712" flag="0"/>
			<psa03 value="0.109447156587153" flag="0"/>
			<psa10 value="0.0131428272103174" flag="0"/>
			<psa30 value="0.00054585480603732" flag="0"/>
		</comp>
		<comp name="00.HNZ" depth="0.0">
			<acc value="0.0553124470604182" flag="0"/>
			<vel value="0.0199452719638476" flag="0"/>
			<psa03 value="0.0742693678979052" flag="0"/>
			<psa10 value="0.00977997568790913" flag="0"/>
			<psa30 value="0.000736771151223241" flag="0"/>
		</comp>
	</station>
	<station code="IACM" name="IACM" netid="HL" source="National Observatory of Athens Seismic Network" insttype="" lat="35.3058" lon="25.0709" esm:processing="manual (Paolucci et al 2011)" esm:quality="best">
		<comp name="--.HNE" depth="0.0">
			<acc value="0.130202429693561" flag="0"/>
			<vel value="0.0453988566030123" flag="0"/>
			<psa03 value="0.28294099345203" flag="0"/>
			<psa10 value="0.0196386953421825" flag="0"/>
			<psa30 value="0.00100154957690983" flag="0"/>
		</comp>
		<comp name="--.HNN" depth="0.0">
			<acc value="0.115353114307213" flag="0"/>
			<vel value="0.0358276480219155" flag="0"/>
			<psa03 value="0.252536833492407" flag="0"/>
			<psa10 value="0.0175171254235767" flag="0"/>
			<psa30 value="0.000908145472680974" flag="0"/>
		</comp>
		<comp name="--.HNZ" depth="0.0">
			<acc value="0.134764199916893" flag="0"/>
			<vel value="0.0230152725387146" flag="0"/>
			<psa03 value="0.139338282560733" flag="0"/>
			<psa10 value="0.0132006532284725" flag="0"/>
			<psa30 value="0.000675164622176946" flag="0"/>
		</comp>
	</station>
	<station code="IMMV" name="IMMV" netid="HL" source="National Observatory of Athens Seismic Network" insttype="" lat="35.4606" lon="23.9811" esm:processing="manual (Paolucci et al 2011)" esm:quality="best">
		<comp name="--.HNE" depth="0.0">
			<acc value="0.0225547209612397" flag="0"/>
			<vel value="0.00514634311398614" flag="0"/>
			<psa03 value="0.0211212299069844" flag="0"/>
			<psa10 value="0.00203750528722423" flag="0"/>
			<psa30 value="0.000148355257495396" flag="0"/>
		</comp>
		<comp name="--.HNN" depth="0.0">
			<acc value="0.0151836891001349" flag="0"/>
			<vel value="0.00483929361178425" flag="0"/>
			<psa03 value="0.0247718311164197" flag="0"/>
			<psa10 value="0.00174046896940284" flag="0"/>
			<psa30 value="0.000152933386294576" flag="0"/>
		</comp>
		<comp name="--.HNZ" depth="0.0">
			<acc value="0.0152075080642743" flag="0"/>
			<vel value="0.00418921394756932" flag="0"/>
			<psa03 value="0.0201584265426722" flag="0"/>
			<psa10 value="0.00186375428488576" flag="0"/>
			<psa30 value="0.0001016494616426" flag="0"/>
		</comp>
	</station>
	<station code="SIVA" name="SIVA" netid="HL" source="National Observatory of Athens Seismic Network" insttype="" lat="35.01777" lon="24.81204" esm:processing="manual (Paolucci et al 2011)" esm:quality="best">
		<comp name="00.HNE" depth="0.0">
			<acc value="0.0162966209827336" flag="0"/>
			<vel value="0.00494818497924618" flag="0"/>
			<psa03 value="0.0310323291770076" flag="0"/>
			<psa10 value="0.00354079495091215" flag="0"/>
			<psa30 value="0.00021862404006145" flag="0"/>
		</comp>
		<comp name="00.HNN" depth="0.0">
			<acc value="0.0116113989634666" flag="0"/>
			<vel value="0.004494905510233" flag="0"/>
			<psa03 value="0.0262883768925976" flag="0"/>
			<psa10 value="0.00282530099044851" flag="0"/>
			<psa30 value="0.00019392516429888" flag="0"/>
		</comp>
		<comp name="00.HNZ" depth="0.0">
			<acc value="0.00799292055286846" flag="0"/>
