<?xml version="1.0" encoding="UTF-8" standalone="yes"?>
<!DOCTYPE earthquake SYSTEM "stationlist.dtd">
<stationlist created="" xmlns="ch.ethz.sed.shakemap.usgs.xml">
  <station code="THERA" name="THERA" netid="GE" insttype="STS-2/N" lat="36.367" lon="25.4753">
    <comp name="--.HHE">
      <acc value="0.0645227655" flag="0"/>
      <vel value="0.0165721426" flag="0"/>
      <psa03 value="0.0734070692" flag="0"/>
      <psa10 value="0.0043587904" flag="0"/>
      <psa30 value="0.0004991383" flag="0"/>
    </comp>
    <comp name="--.HHN">
      <acc value="0.0557963488" flag="0"/>
      <vel value="0.0128072455" flag="0"/>
      <psa03 value="0.0702043254" flag="0"/>
      <psa10 value="0.0038819440" flag="0"/>
      <psa30 value="0.0003058451" flag="0"/>
    </comp>
    <comp name="--.HHZ">
      <acc value="0.0569095743" flag="0"/>
      <vel value="0.0170761047" flag="0"/>
      <psa03 value="0.0718129009" flag="0"/>
      <psa10 value="0.0034920940" flag="0"/>
      <psa30 value="0.0002931985" flag="0"/>
    </comp>
  </station>
  <station code="SNT1" name="SNT1" netid="HA" insttype="30" lat="36.4159" lon="25.4282">
    <comp name="--.HHE">
      <acc value="0.0678806645" flag="0"/>
      <vel value="0.0246771688" flag="0"/>
      <psa03 value="0.1010145837" flag="0"/>
      <psa10 value="0.0104618179" flag="0"/>
      <psa30 value="0.0008973205" flag="0"/>
    </comp>
    <comp name="--.HHZ">
      <acc value="0.0426324325" flag="0"/>
      <vel value="0.0144800901" flag="0"/>
      <psa03 value="0.0586979810" flag="0"/>
      <psa10 value="0.0049494893" flag="0"/>
      <psa30 value="0.0002650192" flag="0"/>
    </comp>
    <comp name="--.HHN">
      <acc value="0.0435138408" flag="0"/>
      <vel value="0.0210581577" flag="0"/>
      <psa03 value="0.0923222230" flag="0"/>
      <psa10 value="0.0097252071" flag="0"/>
      <psa30 value="0.0006223119" flag="0"/>
    </comp>
  </station>
  <station code="SNT5" name="SNT5" netid="HA" insttype="1s-100Hz," lat="36.4037" lon="25.3953">
    <comp name="--.HHZ">
      <acc value="0.0531020159" flag="0"/>
      <vel value="0.0103866717" flag="0"/>
      <psa03 value="0.0506133326" flag="0"/>
      <psa10 value="0.0037743407" flag="0"/>
      <psa30 value="0.0002337154" flag="0"/>
    </comp>
    <comp name="--.HHE">
      <acc value="0.1273931549" flag="0"/>
      <vel value="0.0331443152" flag="0"/>
      <psa03 value="0.1095694680" flag="0"/>
      <psa10 value="0.0079062715" flag="0"/>
      <psa30 value="0.0007718956" flag="0"/>
    </comp>
    <comp name="--.HHN">
      <acc value="0.1099532889" flag="0"/>
      <vel value="0.0304736705" flag="0"/>
      <psa03 value="0.1359808502" flag="0"/>
      <psa10 value="0.0062649766" flag="0"/>
      <psa30 value="0.0005148024" flag="0"/>
    </comp>
  </station>
  <station code="KNSS" name="KNSS" netid="HC" insttype="60" lat="35.3042" lon="25.1802">
    <comp name="--.HHN">
      <acc value="0.0541397142" flag="0"/>
      <vel value="0.0112966268" flag="0"/>
      <psa03 value="0.0401969260" flag="0"/>
      <psa10 value="0.0026185127" flag="0"/>
      <psa30 value="0.0001996383" flag="0"/>
    </comp>
    <comp name="--.HHZ">
      <acc value="0.0502666879" flag="0"/>
      <vel value="0.0097862604" flag="0"/>
      <psa03 value="0.0305758169" flag="0"/>
      <psa10 value="0.0018173628" flag="0"/>
      <psa30 value="0.0001780716" flag="0"/>
    </comp>
    <comp name="--.HHE">
      <acc value="0.0518256153" flag="0"/>
      <vel value="0.0111100728" flag="0"/>
      <psa03 value="0.0516775761" flag="0"/>
      <psa10 value="0.0027986744" flag="0"/>
      <psa30 value="0.0002403495" flag="0"/>
    </comp>
  </station>
  <station code="PFKS" name="PFKS" netid="HC" insttype="120" lat="35.0429" lon="25.4733">
    <comp name="--.HHE">
      <acc value="0.0395487790" flag="0"/>
      <vel value="0.0116278568" flag="0"/>
      <psa03 value="0.0489732199" flag="0"/>
      <psa10 value="0.0041473514" flag="0"/>
      <psa30 value="0.0003642787" flag="0"/>
    </comp>
    <comp name="--.HHN">
      <acc value="0.0520681696" flag="0"/>
      <vel value="0.0142826661" flag="0"/>
      <psa03 value="0.0439303632" flag="0"/>
      <psa10 value="0.0044789100" flag="0"/>
      <psa30 value="0.0002737371" flag="0"/>
    </comp>
    <comp name="--.HHZ">
      <acc value="0.0286116078" flag="0"/>
      <vel value="0.0055047411" flag="0"/>
      <psa03 value="0.0259066809" flag="0"/>
      <psa10 value="0.0021463098" flag="0"/>
      <psa30 value="0.0001391632" flag="0"/>
    </comp>
  </station>
  <station code="STIA" name="STIA" netid="HC" insttype="120" lat="35.2021" lon="26.0909">
    <comp name="--.HHZ">
      <acc value="0.1062584377" flag="0"/>
      <vel value="0.0168194381" flag="0"/>
      <psa03 value="0.0743646877" flag="0"/>
      <psa10 value="0.0043686885" flag="0"/>
      <psa30 value="0.0002491376" flag="0"/>
    </comp>
    <comp name="--.HHE">
      <acc value="0.0954857319" flag="0"/>
      <vel value="0.0193565118" flag="0"/>
      <psa03 value="0.0935439504" flag="0"/>
      <psa10 value="0.0088147417" flag="0"/>
      <psa30 value="0.0005912207" flag="0"/>
    </comp>
    <comp name="--.HHN">
      <acc value="0.0865369408" flag="0"/>
      <vel value="0.0211554610" flag="0"/>
      <psa03 value="0.0529432234" flag="0"/>
      <psa10 value="0.0049311226" flag="0"/>
      <psa30 value="0.0003205229" flag="0"/>
    </comp>
  </station>
  <station code="KSS1" name="KSS1" netid="HI" insttype="CMG-5TD,ACCELEROMETER,GURALP" lat="35.4189" lon="26.9207">
    <comp name="--.HNN">
      <acc value="0.0157025176" flag="0"/>
      <vel value="0.0050487048" flag="0"/>
      <psa03 value="0.0349849322" flag="0"/>
      <psa10 value="0.0013000675" flag="0"/>
      <psa30 value="0.0001500686" flag="0"/>
    </comp>
    <comp name="--.HNZ">
      <acc value="0.0235964563" flag="0"/>
      <vel value="0.0041494901" flag="0"/>
      <psa03 value="0.0139826442" flag="0"/>
      <psa10 value="0.0008877365" flag="0"/>
      <psa30 value="0.0000903334" flag="0"/>
    </comp>
    <comp name="--.HNE">
      <acc value="0.0163547905" flag="0"/>
      <vel value="0.0043688224" flag="0"/>
      <psa03 value="0.0290262621" flag="0"/>
      <psa10 value="0.0011485693" flag="0"/>
      <psa30 value="0.0000964317" flag="0"/>
    </comp>
  </station>
  <station code="IACM" name="IACM" netid="HL" insttype="120" lat="35.3058" lon="25.0709">
    <comp name="--.HHN">
      <acc value="0.1124269993" flag="0"/>
      <vel value="0.0348031050" flag="0"/>
      <psa03 value="0.2368917009" flag="0"/>
      <psa10 value="0.0173458197" flag="0"/>
      <psa30 value="0.0009002633" flag="0"/>
    </comp>
    <comp name="--.HHE">
      <acc value="0.1305477689" flag="0"/>
      <vel value="0.0444589327" flag="0"/>
      <psa03 value="0.2924523383" flag="0"/>
      <psa10 value="0.0197455228" flag="0"/>
      <psa30 value="0.0009820096" flag="0"/>
    </comp>
    <comp name="--.HHZ">
      <acc value="0.1258758621" flag="0"/>
      <vel value="0.0230141616" flag="0"/>
      <psa03 value="0.1392742409" flag="0"/>
      <psa10 value="0.0133961520" flag="0"/>
      <psa30 value="0.0006834246" flag="0"/>
    </comp>
  </station>
  <station code="IDI" name="IDI" netid="HL" insttype="120" lat="35.288" lon="24.89">
    <comp name="--.HHE">
      <acc value="0.0373011746" flag="0"/>
      <vel value="0.0073544363" flag="0"/>
      <psa03 value="0.0387293954" flag="0"/>
      <psa10 value="0.0020831923" flag="0"/>
      <psa30 value="0.0001413292" flag="0"/>
    </comp>
    <comp name="--.HHN">
      <acc value="0.0415032997" flag="0"/>
      <vel value="0.0088340687" flag="0"/>
      <psa03 value="0.0259423907" flag="0"/>
      <psa10 value="0.0029702005" flag="0"/>
      <psa30 value="0.0001660879" flag="0"/>
    </comp>
    <comp name="--.HHZ">
      <acc value="0.0377148844" flag="0"/>
      <vel value="0.0077053033" flag="0"/>
      <psa03 value="0.0254821804" flag="0"/>
      <psa10 value="0.0019077580" flag="0"/>
      <psa30 value="0.0001731886" flag="0"/>
    </comp>
  </station>
  <station code="THERA" name="THERA" netid="HL" insttype="120" lat="36.367" lon="25.4753">
    <comp name="--.HHZ">
      <acc value="0.0560464880" flag="0"/>
      <vel value="0.0165897500" flag="0"/>
      <psa03 value="0.0697244933" flag="0"/>
      <psa10 value="0.0034485467" flag="0"/>
      <psa30 value="0.0002876612" flag="0"/>
    </comp>
    <comp name="--.HHN">
      <acc value="0.0544164355" flag="0"/>
      <vel value="0.0124676115" flag="0"/>
      <psa03 value="0.0681492870" flag="0"/>
      <psa10 value="0.0037980206" flag="0"/>
      <psa30 value="0.0002976759" flag="0"/>
    </comp>
    <comp name="--.HHE">
      <acc value="0.0630897275" flag="0"/>
      <vel value="0.0161830865" flag="0"/>
      <psa03 value="0.0713302921" flag="0"/>
      <psa10 value="0.0043278213" flag="0"/>
      <psa30 value="0.0004889086" flag="0"/>
    </comp>
  </station>
  <station code="THRA" name="THRA" netid="HL" insttype="CMG-5" lat="36.415" lon="25.4324">
    <comp name="00.HNN">
      <acc value="0.1715868675" flag="0"/>
      <vel value="0.0576102975" flag="0"/>
      <psa03 value="0.3650870481" flag="0"/>
      <psa10 value="0.0255111963" flag="0"/>
      <psa30 value="0.0016129977" flag="0"/>
    </comp>
    <comp name="00.HNE">
      <acc value="0.1310733402" flag="0"/>
      <vel value="0.0733965520" flag="0"/>
      <psa03 value="0.3856303860" flag="0"/>
      <psa10 value="0.0427808623" flag="0"/>
      <psa30 value="0.0021686776" flag="0"/>
    </comp>
    <comp name="00.HNZ">
      <acc value="0.1392753510" flag="0"/>
      <vel value="0.0416406459" flag="0"/>
      <psa03 value="0.2687482165" flag="0"/>
      <psa10 value="0.0150342897" flag="0"/>
      <psa30 value="0.0009848914" flag="0"/>
    </comp>
  </station>
  <station code="ZKR" name="ZKR" netid="HL" insttype="120" lat="35.1147" lon="26.2169">
    <comp name="--.HHE">
      <acc value="0.0479469387" flag="0"/>
      <vel value="0.0211459386" flag="0"/>
      <psa03 value="0.1088794236" flag="0"/>
      <psa10 value="0.0048482093" flag="0"/>
      <psa30 value="0.0005679581" flag="0"/>
    </comp>
    <comp name="--.HHN">
      <acc value="0.0181434988" flag="0"/>
      <vel value="0.0059172219" flag="0"/>
      <psa03 value="0.0270094996" flag="0"/>
      <psa10 value="0.0011553161" flag="0"/>
      <psa30 value="0.0001283630" flag="0"/>
    </comp>
    <comp name="--.HHZ">
      <acc value="0.0343072240" flag="0"/>
      <vel value="0.0082307770" flag="0"/>
      <psa03 value="0.0235609867" flag="0"/>
      <psa10 value="0.0021469477" flag="0"/>
      <psa30 value="0.0001191001" flag="0"/>
    </comp>
  </station>
  <station code="IDI" name="IDI" netid="MN" insttype="" lat="35.288" lon="24.89">
    <comp name="--.HHE">
      <acc value="0.0422877663" flag="0"/>
      <vel value="0.0078755982" flag="0"/>
      <psa03 value="0.0391925674" flag="0"/>
      <psa10 value="0.0020979438" flag="0"/>
      <psa30 value="0.0001416573" flag="0"/>
    </comp>
    <comp name="--.HHZ">
      <acc value="0.0376581961" flag="0"/>
      <vel value="0.0079242069" flag="0"/>
      <psa03 value="0.0258914145" flag="0"/>
      <psa10 value="0.0019139670" flag="0"/>
      <psa30 value="0.0001774864" flag="0"/>
    </comp>
    <comp name="--.HHN">
      <acc value="0.0423549286" flag="0"/>
      <vel value="0.0089490818" flag="0"/>
      <psa03 value="0.0264191670" flag="0"/>
      <psa10 value="0.0029558364" flag="0"/>
      <psa30 value="0.0001663649" flag="0"/>
    </comp>
  </station>
</stationlist>
