<?xml version="1.0" encoding="UTF-8" standalone="yes"?>
<!DOCTYPE earthquake SYSTEM "stationlist.dtd">
<stationlist created="" xmlns="ch.ethz.sed.shakemap.usgs.xml">
  <station code="IDI" name="IDI" netid="MN" insttype="" lat="35.288" lon="24.89">
    <comp name="--.HHE">
      <acc value="0.0422877663" flag="0"/>
      <vel value="0.0078755982" flag="0"/>
      <psa03 value="0.0391925674" flag="0"/>
      <psa10 value="0.0020979438" flag="0"/>
      <psa30 value="0.0001416573" flag="0"/>
    </comp>
    <comp name="--.HHZ">
      <acc value="0.0376581961" flag="0"/>
      <vel value="0.0079242069" flag="0"/>
      <psa03 value="0.0258914145" flag="0"/>
      <psa10 value="0.0019139670" flag="0"/>
      <psa30 value="0.0001774864" flag="0"/>
    </comp>
    <comp name="--.HHN">
      <acc value="0.0423549286" flag="0"/>
      <vel value="0.0089490818" flag="0"/>
      <psa03 value="0.0264191670" flag="0"/>
      <psa10 value="0.0029558364" flag="0"/>
      <psa30 value="0.0001663649" flag="0"/>
    </comp>
  </station>
</stationlist>
