<?xml version="1.0" encoding="UTF-8" standalone="yes"?>
<!DOCTYPE earthquake SYSTEM "stationlist.dtd">
<stationlist created="" xmlns="ch.ethz.sed.shakemap.usgs.xml">
  <station code="KARP" name="KARP" netid="GE" insttype="STS-2/N" lat="35.5471" lon="27.1611">
    <comp name="--.HHN">
      <acc value="0.1340771227" flag="0"/>
      <vel value="0.0441764283" flag="0"/>
      <psa03 value="0.0755022331" flag="0"/>
      <psa10 value="0.0766947241" flag="0"/>
      <psa30 value="0.0029188325" flag="0"/>
    </comp>
    <comp name="--.HHZ">
      <acc value="0.0520850323" flag="0"/>
      <vel value="0.0197681000" flag="0"/>
      <psa03 value="0.0740138933" flag="0"/>
      <psa10 value="0.0265539956" flag="0"/>
      <psa30 value="0.0016864194" flag="0"/>
    </comp>
    <comp name="--.HHE">
      <acc value="0.1213491660" flag="0"/>
      <vel value="0.0379805152" flag="0"/>
      <psa03 value="0.1240394585" flag="0"/>
      <psa10 value="0.0683470809" flag="0"/>
      <psa30 value="0.0021429957" flag="0"/>
    </comp>
  </station>
  <station code="THERA" name="THERA" netid="GE" insttype="STS-2/N" lat="36.367" lon="25.4753">
    <comp name="--.HHN">
      <acc value="0.0090678755" flag="0"/>
      <vel value="0.0047489468" flag="0"/>
      <psa03 value="0.0178632528" flag="0"/>
      <psa10 value="0.0061336005" flag="0"/>
      <psa30 value="0.0008797630" flag="0"/>
    </comp>
    <comp name="--.HHZ">
      <acc value="0.0071807039" flag="0"/>
      <vel value="0.0052889998" flag="0"/>
      <psa03 value="0.0202425870" flag="0"/>
      <psa10 value="0.0056683685" flag="0"/>
      <psa30 value="0.0021535404" flag="0"/>
    </comp>
    <comp name="--.HHE">
      <acc value="0.0120128711" flag="0"/>
      <vel value="0.0079826827" flag="0"/>
      <psa03 value="0.0236851419" flag="0"/>
      <psa10 value="0.0086530914" flag="0"/>
      <psa30 value="0.0015116363" flag="0"/>
    </comp>
  </station>
  <station code="SNT1" name="SNT1" netid="HA" insttype="30" lat="36.4159" lon="25.4282">
    <comp name="--.HHE">
      <acc value="0.0083833573" flag="0"/>
      <vel value="0.0078548624" flag="0"/>
      <psa03 value="0.0181167774" flag="0"/>
      <psa10 value="0.0093180319" flag="0"/>
      <psa30 value="0.0032054567" flag="0"/>
    </comp>
    <comp name="--.HHN">
      <acc value="0.0083828263" flag="0"/>
      <vel value="0.0085491724" flag="0"/>
      <psa03 value="0.0164127375" flag="0"/>
      <psa10 value="0.0103216598" flag="0"/>
      <psa30 value="0.0032969351" flag="0"/>
    </comp>
    <comp name="--.HHZ">
      <acc value="0.0034712379" flag="0"/>
      <vel value="0.0039995325" flag="0"/>
      <psa03 value="0.0113054399" flag="0"/>
      <psa10 value="0.0060831889" flag="0"/>
      <psa30 value="0.0010612413" flag="0"/>
    </comp>
  </station>
  <station code="SNT5" name="SNT5" netid="HA" insttype="1s-100Hz," lat="36.4037" lon="25.3953">
    <comp name="--.HHE">
      <acc value="0.0186330451" flag="0"/>
      <vel value="0.0113354071" flag="0"/>
      <psa03 value="0.0351046298" flag="0"/>
      <psa10 value="0.0103053377" flag="0"/>
      <psa30 value="0.0052662223" flag="0"/>
    </comp>
    <comp name="--.HHZ">
      <acc value="0.0064330937" flag="0"/>
      <vel value="0.0030677134" flag="0"/>
      <psa03 value="0.0101469661" flag="0"/>
      <psa10 value="0.0040059534" flag="0"/>
      <psa30 value="0.0012842254" flag="0"/>
    </comp>
    <comp name="--.HHN">
      <acc value="0.0132926758" flag="0"/>
      <vel value="0.0082573939" flag="0"/>
      <psa03 value="0.0218774018" flag="0"/>
      <psa10 value="0.0056848788" flag="0"/>
      <psa30 value="0.0055200342" flag="0"/>
    </comp>
  </station>
  <station code="RDI1" name="RDI1" netid="HI" insttype="CMG-5TD,ACCELEROMETER,GURALP" lat="36.4514" lon="28.224">
    <comp name="--.HNE">
      <acc value="0.0300358768" flag="0"/>
      <vel value="0.0579922013" flag="0"/>
      <psa03 value="0.0588722360" flag="0"/>
      <psa10 value="0.0784687662" flag="0"/>
      <psa30 value="0.0290036485" flag="0"/>
    </comp>
    <comp name="--.HNN">
      <acc value="0.0291812749" flag="0"/>
      <vel value="0.0410476200" flag="0"/>
      <psa03 value="0.0725690177" flag="0"/>
      <psa10 value="0.0967974613" flag="0"/>
      <psa30 value="0.0203146832" flag="0"/>
    </comp>
    <comp name="--.HNZ">
      <acc value="0.0201917215" flag="0"/>
      <vel value="0.0264830641" flag="0"/>
      <psa03 value="0.0550593314" flag="0"/>
      <psa10 value="0.0593299682" flag="0"/>
      <psa30 value="0.0079967112" flag="0"/>
    </comp>
  </station>
  <station code="ARG" name="ARG" netid="HL" insttype="LE3D20_DR24" lat="36.2136" lon="28.1212">
    <comp name="--.HHE">
      <acc value="0.1044934936" flag="0"/>
      <vel value="0.0886295741" flag="0"/>
      <psa03 value="0.2942777610" flag="0"/>
      <psa10 value="0.1072837399" flag="0"/>
      <psa30 value="0.0173695077" flag="0"/>
    </comp>
    <comp name="--.HHZ">
      <acc value="0.0629113692" flag="0"/>
      <vel value="0.0241445140" flag="0"/>
      <psa03 value="0.0871579693" flag="0"/>
      <psa10 value="0.0507448791" flag="0"/>
      <psa30 value="0.0078137749" flag="0"/>
    </comp>
    <comp name="--.HHN">
      <acc value="0.0674764214" flag="0"/>
      <vel value="0.0452945071" flag="0"/>
      <psa03 value="0.1898316158" flag="0"/>
      <psa10 value="0.0359129636" flag="0"/>
      <psa30 value="0.0054549411" flag="0"/>
    </comp>
  </station>
  <station code="KARP" name="KARP" netid="HL" insttype="120" lat="35.5471" lon="27.1611">
    <comp name="--.HHZ">
      <acc value="0.0482280978" flag="0"/>
      <vel value="0.0196395243" flag="0"/>
      <psa03 value="0.0724859560" flag="0"/>
      <psa10 value="0.0263503323" flag="0"/>
      <psa30 value="0.0016825636" flag="0"/>
    </comp>
    <comp name="--.HHE">
      <acc value="0.1048518391" flag="0"/>
      <vel value="0.0365788201" flag="0"/>
      <psa03 value="0.1209344084" flag="0"/>
      <psa10 value="0.0679938006" flag="0"/>
      <psa30 value="0.0021374303" flag="0"/>
    </comp>
    <comp name="--.HHN">
      <acc value="0.1112238238" flag="0"/>
      <vel value="0.0434246905" flag="0"/>
      <psa03 value="0.0735932298" flag="0"/>
      <psa10 value="0.0762247033" flag="0"/>
      <psa30 value="0.0029009670" flag="0"/>
    </comp>
  </station>
  <station code="KLNA" name="KLNA" netid="HL" insttype="CMG-5" lat="36.9571" lon="26.9727">
    <comp name="00.HNE">
      <acc value="0.1035870720" flag="0"/>
      <vel value="0.0462633720" flag="0"/>
      <psa03 value="0.2621928640" flag="0"/>
      <psa10 value="0.0329464694" flag="0"/>
      <psa30 value="0.0049072216" flag="0"/>
    </comp>
    <comp name="00.HNN">
      <acc value="0.0860634314" flag="0"/>
      <vel value="0.0464277593" flag="0"/>
      <psa03 value="0.2559961868" flag="0"/>
      <psa10 value="0.0350953828" flag="0"/>
      <psa30 value="0.0024126313" flag="0"/>
    </comp>
    <comp name="00.HNZ">
      <acc value="0.1251503300" flag="0"/>
      <vel value="0.0328283206" flag="0"/>
      <psa03 value="0.1060469584" flag="0"/>
      <psa10 value="0.0207133745" flag="0"/>
      <psa30 value="0.0033781916" flag="0"/>
    </comp>
  </station>
  <station code="NISR" name="NISR" netid="HL" insttype="65535" lat="36.6106" lon="27.131">
    <comp name="--.HHE">
      <acc value="7.9797992844" flag="0"/>
      <vel value="2.5799206399" flag="0"/>
      <psa03 value="16.6667419223" flag="0"/>
      <psa10 value="0.7485029365" flag="0"/>
      <psa30 value="0.0641872357" flag="0"/>
    </comp>
    <comp name="--.HHN">
      <acc value="4.9812308329" flag="0"/>
      <vel value="1.3619069611" flag="0"/>
      <psa03 value="5.4559620882" flag="0"/>
      <psa10 value="0.2610474675" flag="0"/>
      <psa30 value="0.1840619484" flag="0"/>
    </comp>
    <comp name="--.HHZ">
      <acc value="1.7986610836" flag="0"/>
      <vel value="0.5799040286" flag="0"/>
      <psa03 value="3.7167309896" flag="0"/>
      <psa10 value="0.1674715526" flag="0"/>
      <psa30 value="0.0165425436" flag="0"/>
    </comp>
  </station>
  <station code="SAP3" name="SAP3" netid="HL" insttype="LE3D20_SMART24" lat="36.4356" lon="25.3454">
    <comp name="--.HHZ">
      <acc value="0.0189684807" flag="0"/>
      <vel value="0.0114613908" flag="0"/>
      <psa03 value="0.0339841951" flag="0"/>
      <psa10 value="0.0128152691" flag="0"/>
      <psa30 value="0.0034274931" flag="0"/>
    </comp>
    <comp name="--.HHE">
      <acc value="0.0230593374" flag="0"/>
      <vel value="0.0324312530" flag="0"/>
      <psa03 value="0.0464400902" flag="0"/>
      <psa10 value="0.0278040207" flag="0"/>
      <psa30 value="0.0142095876" flag="0"/>
    </comp>
    <comp name="--.HHN">
      <acc value="0.0176663426" flag="0"/>
      <vel value="0.0191535443" flag="0"/>
      <psa03 value="0.0447870320" flag="0"/>
      <psa10 value="0.0259640841" flag="0"/>
      <psa30 value="0.0086435551" flag="0"/>
    </comp>
  </station>
  <station code="SMG" name="SMG" netid="HL" insttype="120" lat="37.7043" lon="26.8377">
    <comp name="--.HHZ">
      <acc value="0.0123626212" flag="0"/>
      <vel value="0.0068064492" flag="0"/>
      <psa03 value="0.0231956319" flag="0"/>
      <psa10 value="0.0093149735" flag="0"/>
      <psa30 value="0.0011647501" flag="0"/>
    </comp>
    <comp name="--.HHE">
      <acc value="0.0253826161" flag="0"/>
      <vel value="0.0159632041" flag="0"/>
      <psa03 value="0.0632083555" flag="0"/>
      <psa10 value="0.0113512707" flag="0"/>
      <psa30 value="0.0036181082" flag="0"/>
    </comp>
    <comp name="--.HHN">
      <acc value="0.0263941868" flag="0"/>
      <vel value="0.0124899534" flag="0"/>
      <psa03 value="0.0589696735" flag="0"/>
      <psa10 value="0.0179721256" flag="0"/>
      <psa30 value="0.0020643775" flag="0"/>
    </comp>
  </station>
  <station code="THERA" name="THERA" netid="HL" insttype="120" lat="36.367" lon="25.4753">
    <comp name="--.HHN">
      <acc value="0.0087834496" flag="0"/>
      <vel value="0.0046983512" flag="0"/>
      <psa03 value="0.0173815853" flag="0"/>
      <psa10 value="0.0060744391" flag="0"/>
      <psa30 value="0.0008793130" flag="0"/>
    </comp>
    <comp name="--.HHE">
      <acc value="0.0117499009" flag="0"/>
      <vel value="0.0078555691" flag="0"/>
      <psa03 value="0.0230133190" flag="0"/>
      <psa10 value="0.0085894526" flag="0"/>
      <psa30 value="0.0015128781" flag="0"/>
    </comp>
    <comp name="--.HHZ">
      <acc value="0.0071480768" flag="0"/>
      <vel value="0.0051813762" flag="0"/>
      <psa03 value="0.0197058482" flag="0"/>
      <psa10 value="0.0056236200" flag="0"/>
      <psa30 value="0.0021551230" flag="0"/>
    </comp>
  </station>
  <station code="CMBO" name="CMBO" netid="HT" insttype="120P," lat="36.4709" lon="25.4056">
    <comp name="--.HHN">
      <acc value="0.0522661553" flag="0"/>
      <vel value="0.0426322169" flag="0"/>
      <psa03 value="0.1529260962" flag="0"/>
      <psa10 value="0.0560857377" flag="0"/>
      <psa30 value="0.0066315359" flag="0"/>
    </comp>
    <comp name="--.HHZ">
      <acc value="0.0369180235" flag="0"/>
      <vel value="0.0237026824" flag="0"/>
      <psa03 value="0.1222040627" flag="0"/>
      <psa10 value="0.0122598076" flag="0"/>
      <psa30 value="0.0069398204" flag="0"/>
    </comp>
    <comp name="--.HHE">
      <acc value="0.0464530036" flag="0"/>
      <vel value="0.0487025041" flag="0"/>
      <psa03 value="0.1192108951" flag="0"/>
      <psa10 value="0.0526679435" flag="0"/>
      <psa30 value="0.0121375228" flag="0"/>
    </comp>
  </station>
  <station code="THT1" name="THT1" netid="HT" insttype="30" lat="36.3858" lon="25.4296">
    <comp name="--.HHE">
      <acc value="0.0122200351" flag="0"/>
      <vel value="0.0065095610" flag="0"/>
      <psa03 value="0.0256085978" flag="0"/>
      <psa10 value="0.0062149815" flag="0"/>
      <psa30 value="0.0014844587" flag="0"/>
    </comp>
    <comp name="--.HHN">
      <acc value="0.0141887257" flag="0"/>
      <vel value="0.0073193052" flag="0"/>
      <psa03 value="0.0221513491" flag="0"/>
      <psa10 value="0.0086149086" flag="0"/>
      <psa30 value="0.0011686578" flag="0"/>
    </comp>
    <comp name="--.HHZ">
      <acc value="0.0063970820" flag="0"/>
      <vel value="0.0050067033" flag="0"/>
      <psa03 value="0.0121672869" flag="0"/>
      <psa10 value="0.0045374891" flag="0"/>
      <psa30 value="0.0018841859" flag="0"/>
    </comp>
  </station>
</stationlist>
