<stationlist created="1778138260">
	<station code="KRL1" name="KRL1" netid="HI" source="ITSAK Strong Motion Network" insttype="" lat="37.7951" lon="26.7065">
		<comp name="--.HNE" depth="0.0">
			<acc value="0.0291358964822146" flag="0"/>
			<vel value="0.0349345655916544" flag="0"/>
			<psa03 value="0.0916934804932727" flag="0"/>
			<psa10 value="0.0577124269151371" flag="0"/>
			<psa30 value="0.00608521186541125" flag="0"/>
		</comp>
		<comp name="--.HNN" depth="0.0">
			<acc value="0.0252085815375978" flag="0"/>
			<vel value="0.025458075112322" flag="0"/>
			<psa03 value="0.0580808006927881" flag="0"/>
			<psa10 value="0.0467975013548055" flag="0"/>
			<psa30 value="0.00477239948139019" flag="0"/>
		</comp>
		<comp name="--.HNZ" depth="0.0">
			<acc value="0.0119610776842924" flag="0"/>
			<vel value="0.0120479989611675" flag="0"/>
			<psa03 value="0.0222935393375817" flag="0"/>
			<psa10 value="0.0234104383266369" flag="0"/>
			<psa30 value="0.00252116201460908" flag="0"/>
		</comp>
	</station>
	<station code="KSS1" name="KSS1" netid="HI" source="ITSAK Strong Motion Network" insttype="" lat="35.4189" lon="26.9207">
		<comp name="--.HNE" depth="0.0">
			<acc value="0.0147944391542599" flag="0"/>
			<vel value="0.00702580438785507" flag="0"/>
			<psa03 value="0.0637808345422282" flag="0"/>
			<psa10 value="0.00699012978054446" flag="0"/>
			<psa30 value="0.00135497142687458" flag="0"/>
		</comp>
		<comp name="--.HNN" depth="0.0">
			<acc value="0.0168067877912045" flag="0"/>
			<vel value="0.0082488104513411" flag="0"/>
			<psa03 value="0.0639494759224584" flag="0"/>
			<psa10 value="0.00589314601698294" flag="0"/>
			<psa30 value="0.00152898337097764" flag="0"/>
		</comp>
		<comp name="--.HNZ" depth="0.0">
			<acc value="0.00960128835958964" flag="0"/>
			<vel value="0.00585379130846786" flag="0"/>
			<psa03 value="0.0167120862603496" flag="0"/>
			<psa10 value="0.00655683076410251" flag="0"/>
			<psa30 value="0.00143709072104243" flag="0"/>
		</comp>
	</station>
	<station code="NAX1" name="NAX1" netid="HI" source="ITSAK Strong Motion Network" insttype="" lat="37.101394" lon="25.374103">
		<comp name="--.HNE" depth="0.0">
			<acc value="0.00513492023561745" flag="0"/>
			<vel value="0.00485197628905593" flag="0"/>
			<psa03 value="0.0149885970876803" flag="0"/>
			<psa10 value="0.00719168735150228" flag="0"/>
			<psa30 value="0.00178368670215787" flag="0"/>
		</comp>
		<comp name="--.HNN" depth="0.0">
			<acc value="0.00723329779638552" flag="0"/>
			<vel value="0.00672040994088867" flag="0"/>
			<psa03 value="0.0203532936183178" flag="0"/>
			<psa10 value="0.00967936496040653" flag="0"/>
			<psa30 value="0.0015862999804216" flag="0"/>
		</comp>
		<comp name="--.HNZ" depth="0.0">
			<acc value="0.00706605647597242" flag="0"/>
			<vel value="0.00949254829645161" flag="0"/>
			<psa03 value="0.0150674981478201" flag="0"/>
			<psa10 value="0.00690290275219393" flag="0"/>
			<psa30 value="0.0025930749034869" flag="0"/>
		</comp>
	</station>
	<station code="RDI1" name="RDI1" netid="HI" source="ITSAK Strong Motion Network" insttype="" lat="36.4514" lon="28.224">
		<comp name="--.HNE" depth="0.0">
			<acc value="0.0305302555952641" flag="0"/>
			<vel value="0.0644273914252214" flag="0"/>
			<psa03 value="0.0609871130135443" flag="0"/>
			<psa10 value="0.0784522270751139" flag="0"/>
			<psa30 value="0.0347811174116602" flag="0"/>
		</comp>
		<comp name="--.HNN" depth="0.0">
			<acc value="0.0297019075775685" flag="0"/>
			<vel value="0.043049061101485" flag="0"/>
			<psa03 value="0.0712808053366719" flag="0"/>
			<psa10 value="0.0958392938828557" flag="0"/>
			<psa30 value="0.0248769729773912" flag="0"/>
		</comp>
		<comp name="--.HNZ" depth="0.0">
			<acc value="0.0203931044309403" flag="0"/>
			<vel value="0.02881994407619" flag="0"/>
			<psa03 value="0.0547758057118562" flag="0"/>
			<psa10 value="0.0596321378365749" flag="0"/>
			<psa30 value="0.00988155377110863" flag="0"/>
		</comp>
	</station>
	<station code="KLNA" name="KLNA" netid="HL" source="National Observatory of Athens Seismic Network" insttype="" lat="36.95708" lon="26.97274">
		<comp name="00.HNE" depth="0.0">
			<acc value="0.103818528893648" flag="0"/>
			<vel value="0.0468075791902226" flag="0"/>
			<psa03 value="0.262695527289261" flag="0"/>
			<psa10 value="0.032892963997422" flag="0"/>
			<psa30 value="0.00501737237629719" flag="0"/>
		</comp>
		<comp name="00.HNN" depth="0.0">
			<acc value="0.0855730971517347" flag="0"/>
			<vel value="0.0464369893867594" flag="0"/>
			<psa03 value="0.25619232565079" flag="0"/>
			<psa10 value="0.0351272570083936" flag="0"/>
			<psa30 value="0.00253448060523317" flag="0"/>
		</comp>
		<comp name="00.HNZ" depth="0.0">
			<acc value="0.123751458584889" flag="0"/>
			<vel value="0.0334190688647686" flag="0"/>
			<psa03 value="0.106165512110617" flag="0"/>
			<psa10 value="0.0205959650065858" flag="0"/>
			<psa30 value="0.00356923936125548" flag="0"/>
		</comp>
	</station>
	<station code="NISR" name="NISR" netid="HL" source="National Observatory of Athens Seismic Network" insttype="" lat="36.6106" lon="27.131">
		<comp name="--.HNE" depth="0.0">
			<acc value="6.5231854356794" flag="0"/>
			<vel value="2.94492932725169" flag="0"/>
			<psa03 value="15.4265846022003" flag="0"/>
			<psa10 value="0.793554309077166" flag="0"/>
			<psa30 value="0.0763792997539191" flag="0"/>
		</comp>
		<comp name="--.HNN" depth="0.0">
			<acc value="5.44810713293317" flag="0"/>
			<vel value="1.70987620425581" flag="0"/>
			<psa03 value="6.3486305656357" flag="0"/>
			<psa10 value="0.198633138470529" flag="0"/>
			<psa30 value="0.0561416657766101" flag="0"/>
		</comp>
		<comp name="--.HNZ" depth="0.0">
			<acc value="1.4496708824333" flag="0"/>
			<vel value="0.404095467161002" flag="0"/>
			<psa03 value="2.90843666965727" flag="0"/>
			<psa10 value="0.164813878110478" flag="0"/>
			<psa30 value="0.0190118344407222" flag="0"/>
		</comp>
	</station>
</stationlist>
