<?xml version="1.0" encoding="UTF-8" standalone="yes"?>
<!DOCTYPE earthquake SYSTEM "stationlist.dtd">
<stationlist created="" xmlns="ch.ethz.sed.shakemap.usgs.xml">
  <station code="RP03B" name="RP03B" netid="5B" insttype="Compact" commtype="DIG" lat="37.2463" lon="21.832">
    <comp name="--.HHZ">
      <acc value="0.1512027077" flag="0"/>
      <vel value="0.0524716595" flag="0"/>
      <psa03 value="0.3851360549" flag="0"/>
      <psa10 value="0.0467187197" flag="0"/>
      <psa30 value="0.0022352283" flag="0"/>
    </comp>
    <comp name="--.HHE">
      <acc value="0.4085985923" flag="0"/>
      <vel value="0.1119825398" flag="0"/>
      <psa03 value="0.7283042000" flag="0"/>
      <psa10 value="0.0573956513" flag="0"/>
      <psa30 value="0.0038485422" flag="0"/>
    </comp>
    <comp name="--.HHN">
      <acc value="0.2340830974" flag="0"/>
      <vel value="0.0573784929" flag="0"/>
      <psa03 value="0.3615486334" flag="0"/>
      <psa10 value="0.0310405096" flag="0"/>
      <psa30 value="0.0030041276" flag="0"/>
    </comp>
  </station>
  <station code="RP05B" name="RP05B" netid="5B" insttype="Compact" commtype="DIG" lat="37.6182" lon="21.6541">
    <comp name="--.HHE">
      <acc value="1.4836455173" flag="0"/>
      <vel value="0.3516354135" flag="0"/>
      <psa03 value="1.8223829559" flag="0"/>
      <psa10 value="0.1802261385" flag="0"/>
      <psa30 value="0.0124646928" flag="0"/>
    </comp>
    <comp name="--.HHN">
      <acc value="1.1702701117" flag="0"/>
      <vel value="0.2804918776" flag="0"/>
      <psa03 value="1.2363235659" flag="0"/>
      <psa10 value="0.1399716820" flag="0"/>
      <psa30 value="0.0142940458" flag="0"/>
    </comp>
    <comp name="--.HHZ">
      <acc value="0.8924971769" flag="0"/>
      <vel value="0.1832074152" flag="0"/>
      <psa03 value="0.4888628208" flag="0"/>
      <psa10 value="0.0648196268" flag="0"/>
      <psa30 value="0.0092838927" flag="0"/>
    </comp>
  </station>
  <station code="RP08B" name="RP08B" netid="5B" insttype="Compact" commtype="DIG" lat="37.5664" lon="21.9493">
    <comp name="--.HHN">
      <acc value="0.3141610444" flag="0"/>
      <vel value="0.1143557087" flag="0"/>
      <psa03 value="0.4252723410" flag="0"/>
      <psa10 value="0.0456495899" flag="0"/>
      <psa30 value="0.0033124729" flag="0"/>
    </comp>
    <comp name="--.HHE">
      <acc value="0.3741069275" flag="0"/>
      <vel value="0.0789381381" flag="0"/>
      <psa03 value="0.5552039342" flag="0"/>
      <psa10 value="0.0289268064" flag="0"/>
      <psa30 value="0.0026124360" flag="0"/>
    </comp>
    <comp name="--.HHZ">
      <acc value="0.1830575855" flag="0"/>
      <vel value="0.0508355968" flag="0"/>
      <psa03 value="0.3005216064" flag="0"/>
      <psa10 value="0.0132076384" flag="0"/>
      <psa30 value="0.0013325935" flag="0"/>
    </comp>
  </station>
  <station code="AGRP" name="AGRP" netid="CL" insttype="CMG40-T" commtype="DIG" lat="38.3959" lon="21.7228">
    <comp name="00.HHZ">
      <acc value="0.0064506624" flag="0"/>
      <vel value="0.0033127307" flag="0"/>
      <psa03 value="0.0199265602" flag="0"/>
      <psa10 value="0.0053070484" flag="0"/>
      <psa30 value="0.0004214325" flag="0"/>
    </comp>
    <comp name="00.HHN">
      <acc value="0.0087148281" flag="0"/>
      <vel value="0.0094176390" flag="0"/>
      <psa03 value="0.0228275049" flag="0"/>
      <psa10 value="0.0107138281" flag="0"/>
      <psa30 value="0.0009680458" flag="0"/>
    </comp>
    <comp name="00.HHE">
      <acc value="0.0112732580" flag="0"/>
      <vel value="0.0091809281" flag="0"/>
      <psa03 value="0.0350931525" flag="0"/>
      <psa10 value="0.0093872116" flag="0"/>
      <psa30 value="0.0007819762" flag="0"/>
    </comp>
  </station>
  <station code="MALA" name="MALA" netid="CL" insttype="TRILLIUM-40" commtype="DIG" lat="38.3934" lon="21.8726">
    <comp name="01.HHE">
      <acc value="0.0249324270" flag="0"/>
      <vel value="0.0263648790" flag="0"/>
      <psa03 value="0.0547598898" flag="0"/>
      <psa10 value="0.0778277209" flag="0"/>
      <psa30 value="0.0025418920" flag="0"/>
    </comp>
    <comp name="01.HHN">
      <acc value="0.0175850640" flag="0"/>
      <vel value="0.0235288394" flag="0"/>
      <psa03 value="0.0398984429" flag="0"/>
      <psa10 value="0.0536240168" flag="0"/>
      <psa30 value="0.0021492064" flag="0"/>
    </comp>
    <comp name="01.HHZ">
      <acc value="0.0064970232" flag="0"/>
      <vel value="0.0046264319" flag="0"/>
      <psa03 value="0.0197935540" flag="0"/>
      <psa10 value="0.0097327132" flag="0"/>
      <psa30 value="0.0005916181" flag="0"/>
    </comp>
  </station>
  <station code="MG06" name="MG06" netid="CL" insttype="TRILLIUM-40" commtype="DIG" lat="38.4129" lon="21.9462">
    <comp name="06.HHE">
      <acc value="0.0121786858" flag="0"/>
      <vel value="0.0131516410" flag="0"/>
      <psa03 value="0.0256385049" flag="0"/>
      <psa10 value="0.0194536066" flag="0"/>
      <psa30 value="0.0013674561" flag="0"/>
    </comp>
    <comp name="06.HHN">
      <acc value="0.0145147693" flag="0"/>
      <vel value="0.0074853293" flag="0"/>
      <psa03 value="0.0302304764" flag="0"/>
      <psa10 value="0.0091883683" flag="0"/>
      <psa30 value="0.0004697854" flag="0"/>
    </comp>
    <comp name="06.HHZ">
      <acc value="0.0114607202" flag="0"/>
      <vel value="0.0043810153" flag="0"/>
      <psa03 value="0.0143167113" flag="0"/>
      <psa10 value="0.0063915935" flag="0"/>
      <psa30 value="0.0005066590" flag="0"/>
    </comp>
  </station>
  <station code="ROD3" name="ROD3" netid="CL" insttype="CMG40-T" commtype="DIG" lat="38.3081" lon="21.892">
    <comp name="00.HHE">
      <acc value="0.0432982551" flag="0"/>
      <vel value="0.0236902182" flag="0"/>
      <psa03 value="0.1410845510" flag="0"/>
      <psa10 value="0.0186367955" flag="0"/>
      <psa30 value="0.0013890922" flag="0"/>
    </comp>
    <comp name="00.HHN">
      <acc value="0.0540103701" flag="0"/>
      <vel value="0.0288866619" flag="0"/>
      <psa03 value="0.1535994993" flag="0"/>
      <psa10 value="0.0342962485" flag="0"/>
      <psa30 value="0.0016924309" flag="0"/>
    </comp>
    <comp name="00.HHZ">
      <acc value="0.0471463630" flag="0"/>
      <vel value="0.0163819345" flag="0"/>
      <psa03 value="0.0953002815" flag="0"/>
      <psa10 value="0.0181113514" flag="0"/>
      <psa30 value="0.0010675629" flag="0"/>
    </comp>
  </station>
  <station code="ZIRI" name="ZIRI" netid="CL" insttype="TRILLIUM-40" commtype="DIG" lat="38.3051" lon="21.9476">
    <comp name="01.HHE">
      <acc value="0.0727875804" flag="0"/>
      <vel value="0.0375779220" flag="0"/>
      <psa03 value="0.1701148326" flag="0"/>
      <psa10 value="0.0244093992" flag="0"/>
      <psa30 value="0.0017786838" flag="0"/>
    </comp>
    <comp name="01.HHN">
      <acc value="0.0610350164" flag="0"/>
      <vel value="0.0341125726" flag="0"/>
      <psa03 value="0.1764918746" flag="0"/>
      <psa10 value="0.0227953180" flag="0"/>
      <psa30 value="0.0015962441" flag="0"/>
    </comp>
    <comp name="01.HHZ">
      <acc value="0.0448903282" flag="0"/>
      <vel value="0.0114341405" flag="0"/>
      <psa03 value="0.0664115846" flag="0"/>
      <psa10 value="0.0110310254" flag="0"/>
      <psa30 value="0.0005990037" flag="0"/>
    </comp>
  </station>
  <station code="KALE" name="KALE" netid="HA" insttype="40," commtype="DIG" lat="38.3911" lon="22.1398">
    <comp name="--.HHN">
      <acc value="0.0146214991" flag="0"/>
      <vel value="0.0096877477" flag="0"/>
      <psa03 value="0.0342632628" flag="0"/>
      <psa10 value="0.0083167900" flag="0"/>
      <psa30 value="0.0006575092" flag="0"/>
    </comp>
    <comp name="--.HHZ">
      <acc value="0.0073741758" flag="0"/>
      <vel value="0.0044212885" flag="0"/>
      <psa03 value="0.0136023618" flag="0"/>
      <psa10 value="0.0048645325" flag="0"/>
      <psa30 value="0.0006303712" flag="0"/>
    </comp>
    <comp name="--.HHE">
      <acc value="0.0126909861" flag="0"/>
      <vel value="0.0067179690" flag="0"/>
      <psa03 value="0.0316552691" flag="0"/>
      <psa10 value="0.0128125433" flag="0"/>
      <psa30 value="0.0005628224" flag="0"/>
    </comp>
  </station>
  <station code="LAKA" name="LAKA" netid="HA" insttype="120s," commtype="DIG" lat="38.2401" lon="21.9785">
    <comp name="--.HHN">
      <acc value="0.0145847306" flag="0"/>
      <vel value="0.0119290428" flag="0"/>
      <psa03 value="0.0195374757" flag="0"/>
      <psa10 value="0.0181456964" flag="0"/>
      <psa30 value="0.0008939581" flag="0"/>
    </comp>
    <comp name="--.HHZ">
      <acc value="0.0128306511" flag="0"/>
      <vel value="0.0060855030" flag="0"/>
      <psa03 value="0.0196068632" flag="0"/>
      <psa10 value="0.0110161838" flag="0"/>
      <psa30 value="0.0005490293" flag="0"/>
    </comp>
    <comp name="--.HHE">
      <acc value="0.0135298252" flag="0"/>
      <vel value="0.0076777254" flag="0"/>
      <psa03 value="0.0258052455" flag="0"/>
      <psa10 value="0.0110764954" flag="0"/>
      <psa30 value="0.0007745126" flag="0"/>
    </comp>
  </station>
  <station code="AIG2" name="AIG2" netid="HI" insttype="unknown" commtype="DIG" lat="38.2417" lon="22.0726">
    <comp name="--.HNN">
      <acc value="0.0335188393" flag="0"/>
      <vel value="0.0219440437" flag="0"/>
      <psa03 value="0.0611618422" flag="0"/>
      <psa10 value="0.0370196415" flag="0"/>
      <psa30 value="0.0016138414" flag="0"/>
    </comp>
    <comp name="--.HNE">
      <acc value="0.0258998386" flag="0"/>
      <vel value="0.0160458212" flag="0"/>
      <psa03 value="0.0566721010" flag="0"/>
      <psa10 value="0.0162094553" flag="0"/>
      <psa30 value="0.0010473370" flag="0"/>
    </comp>
    <comp name="--.HNZ">
      <acc value="0.0125126668" flag="0"/>
      <vel value="0.0073754306" flag="0"/>
      <psa03 value="0.0419429567" flag="0"/>
      <psa10 value="0.0131221583" flag="0"/>
      <psa30 value="0.0007394221" flag="0"/>
    </comp>
  </station>
  <station code="AKR1" name="AKR1" netid="HI" insttype="unknown" commtype="DIG" lat="38.1536" lon="22.3133">
    <comp name="--.HNN">
      <acc value="0.0305830028" flag="0"/>
      <vel value="0.0120846148" flag="0"/>
      <psa03 value="0.1022288589" flag="0"/>
      <psa10 value="0.0114571087" flag="0"/>
      <psa30 value="0.0006175734" flag="0"/>
    </comp>
    <comp name="--.HNZ">
      <acc value="0.0117357362" flag="0"/>
      <vel value="0.0070147598" flag="0"/>
      <psa03 value="0.0323290740" flag="0"/>
      <psa10 value="0.0077954158" flag="0"/>
      <psa30 value="0.0006076062" flag="0"/>
    </comp>
    <comp name="--.HNE">
      <acc value="0.0259907748" flag="0"/>
      <vel value="0.0122956080" flag="0"/>
      <psa03 value="0.0651680430" flag="0"/>
      <psa10 value="0.0193297289" flag="0"/>
      <psa30 value="0.0009376939" flag="0"/>
    </comp>
  </station>
  <station code="ARE2" name="ARE2" netid="HI" insttype="unknown" commtype="DIG" lat="36.6663" lon="22.3826">
    <comp name="--.HNZ">
      <acc value="0.0212123121" flag="0"/>
      <vel value="0.0086624866" flag="0"/>
      <psa03 value="0.0427703291" flag="0"/>
      <psa10 value="0.0095773815" flag="0"/>
      <psa30 value="0.0004441735" flag="0"/>
    </comp>
    <comp name="--.HNE">
      <acc value="0.0355401752" flag="0"/>
      <vel value="0.0202210990" flag="0"/>
      <psa03 value="0.1145677678" flag="0"/>
      <psa10 value="0.0191472766" flag="0"/>
      <psa30 value="0.0015393310" flag="0"/>
    </comp>
    <comp name="--.HNN">
      <acc value="0.0403083159" flag="0"/>
      <vel value="0.0223411506" flag="0"/>
      <psa03 value="0.1233176150" flag="0"/>
      <psa10 value="0.0131904598" flag="0"/>
      <psa30 value="0.0008222324" flag="0"/>
    </comp>
  </station>
  <station code="GTH2" name="GTH2" netid="HI" insttype="unknown" commtype="DIG" lat="36.7603" lon="22.5659">
    <comp name="--.HNE">
      <acc value="0.0508768594" flag="0"/>
      <vel value="0.0389326657" flag="0"/>
      <psa03 value="0.1357996610" flag="0"/>
      <psa10 value="0.0176419659" flag="0"/>
      <psa30 value="0.0015090446" flag="0"/>
    </comp>
    <comp name="--.HNN">
      <acc value="0.0446274316" flag="0"/>
      <vel value="0.0225515116" flag="0"/>
      <psa03 value="0.0818487861" flag="0"/>
      <psa10 value="0.0108490459" flag="0"/>
      <psa30 value="0.0009549365" flag="0"/>
    </comp>
    <comp name="--.HNZ">
      <acc value="0.0324969116" flag="0"/>
      <vel value="0.0114625151" flag="0"/>
      <psa03 value="0.0691594298" flag="0"/>
      <psa10 value="0.0109219080" flag="0"/>
      <psa30 value="0.0004470991" flag="0"/>
    </comp>
  </station>
  <station code="KAL3" name="KAL3" netid="HI" insttype="unknown" commtype="DIG" lat="37.0246" lon="22.103">
    <comp name="--.HNN">
      <acc value="0.1808187475" flag="0"/>
      <vel value="0.1029737970" flag="0"/>
      <psa03 value="0.5040195795" flag="0"/>
      <psa10 value="0.0697204143" flag="0"/>
      <psa30 value="0.0041147324" flag="0"/>
    </comp>
    <comp name="--.HNE">
      <acc value="0.1927884712" flag="0"/>
      <vel value="0.0955152810" flag="0"/>
      <psa03 value="0.5957021356" flag="0"/>
      <psa10 value="0.0794915806" flag="0"/>
      <psa30 value="0.0048737590" flag="0"/>
    </comp>
    <comp name="--.HNZ">
      <acc value="0.1449344100" flag="0"/>
      <vel value="0.0313171989" flag="0"/>
      <psa03 value="0.2213573789" flag="0"/>
      <psa10 value="0.0433993240" flag="0"/>
      <psa30 value="0.0017002437" flag="0"/>
    </comp>
  </station>
  <station code="KLV1" name="KLV1" netid="HI" insttype="CMG-5TD,ACCELEROMETER,GURALP" commtype="DIG" lat="38.0326" lon="22.108">
    <comp name="--.HNE">
      <acc value="0.0464581488" flag="0"/>
      <vel value="0.0238730531" flag="0"/>
      <psa03 value="0.1102813719" flag="0"/>
      <psa10 value="0.0259821197" flag="0"/>
      <psa30 value="0.0013726102" flag="0"/>
    </comp>
    <comp name="--.HNZ">
      <acc value="0.0195907288" flag="0"/>
      <vel value="0.0107837219" flag="0"/>
      <psa03 value="0.0305122832" flag="0"/>
      <psa10 value="0.0170309765" flag="0"/>
      <psa30 value="0.0010464154" flag="0"/>
    </comp>
    <comp name="--.HNN">
      <acc value="0.0417053893" flag="0"/>
      <vel value="0.0220732562" flag="0"/>
      <psa03 value="0.0913332985" flag="0"/>
      <psa10 value="0.0297448269" flag="0"/>
      <psa30 value="0.0010936294" flag="0"/>
    </comp>
  </station>
  <station code="KRI1" name="KRI1" netid="HI" insttype="CMG-5TD,ACCELEROMETER,GURALP" commtype="DIG" lat="37.6621" lon="20.8172">
    <comp name="--.HNE">
      <acc value="0.0334748273" flag="0"/>
      <vel value="0.0179210599" flag="0"/>
      <psa03 value="0.0854547781" flag="0"/>
      <psa10 value="0.0232139716" flag="0"/>
      <psa30 value="0.0012522725" flag="0"/>
    </comp>
    <comp name="--.HNN">
      <acc value="0.0423067083" flag="0"/>
      <vel value="0.0256211463" flag="0"/>
      <psa03 value="0.0878278460" flag="0"/>
      <psa10 value="0.0246388331" flag="0"/>
      <psa30 value="0.0024323794" flag="0"/>
    </comp>
    <comp name="--.HNZ">
      <acc value="0.0216530169" flag="0"/>
      <vel value="0.0109104273" flag="0"/>
      <psa03 value="0.0564866513" flag="0"/>
      <psa10 value="0.0116418538" flag="0"/>
      <psa30 value="0.0006374286" flag="0"/>
    </comp>
  </station>
  <station code="KYP2" name="KYP2" netid="HI" insttype="unknown" commtype="DIG" lat="37.2497" lon="21.667">
    <comp name="--.HNN">
      <acc value="0.9584959991" flag="0"/>
      <vel value="0.1912188066" flag="0"/>
      <psa03 value="1.1120165432" flag="0"/>
      <psa10 value="0.0455448186" flag="0"/>
      <psa30 value="0.0058205864" flag="0"/>
    </comp>
    <comp name="--.HNZ">
      <acc value="0.7156005509" flag="0"/>
      <vel value="0.1468601131" flag="0"/>
      <psa03 value="0.6656961481" flag="0"/>
      <psa10 value="0.0587100947" flag="0"/>
      <psa30 value="0.0041490964" flag="0"/>
    </comp>
    <comp name="--.HNE">
      <acc value="1.7396447126" flag="0"/>
      <vel value="0.3025063925" flag="0"/>
      <psa03 value="1.3342398908" flag="0"/>
      <psa10 value="0.0592135406" flag="0"/>
      <psa30 value="0.0053193228" flag="0"/>
    </comp>
  </station>
  <station code="LEO1" name="LEO1" netid="HI" insttype="unknown" commtype="DIG" lat="37.1689" lon="22.8637">
    <comp name="--.HNE">
      <acc value="0.0223732594" flag="0"/>
      <vel value="0.0074414654" flag="0"/>
      <psa03 value="0.0406138276" flag="0"/>
      <psa10 value="0.0041591588" flag="0"/>
      <psa30 value="0.0002969289" flag="0"/>
    </comp>
    <comp name="--.HNN">
      <acc value="0.0130682244" flag="0"/>
      <vel value="0.0043008773" flag="0"/>
      <psa03 value="0.0279588632" flag="0"/>
      <psa10 value="0.0035625477" flag="0"/>
      <psa30 value="0.0002675419" flag="0"/>
    </comp>
    <comp name="--.HNZ">
      <acc value="0.0147625462" flag="0"/>
      <vel value="0.0044440255" flag="0"/>
      <psa03 value="0.0364447663" flag="0"/>
      <psa10 value="0.0021738743" flag="0"/>
      <psa30 value="0.0002227608" flag="0"/>
    </comp>
  </station>
  <station code="MSL1" name="MSL1" netid="HI" insttype="CMG-5TD,ACCELEROMETER,GURALP" commtype="DIG" lat="38.3727" lon="21.4243">
    <comp name="--.HNN">
      <acc value="0.0228780411" flag="0"/>
      <vel value="0.0201234803" flag="0"/>
      <psa03 value="0.0586324230" flag="0"/>
      <psa10 value="0.0194565615" flag="0"/>
      <psa30 value="0.0026733883" flag="0"/>
    </comp>
    <comp name="--.HNE">
      <acc value="0.0204404582" flag="0"/>
      <vel value="0.0221565928" flag="0"/>
      <psa03 value="0.0444338878" flag="0"/>
      <psa10 value="0.0344378202" flag="0"/>
      <psa30 value="0.0034137959" flag="0"/>
    </comp>
    <comp name="--.HNZ">
      <acc value="0.0087137932" flag="0"/>
      <vel value="0.0070419111" flag="0"/>
      <psa03 value="0.0189897762" flag="0"/>
      <psa10 value="0.0100445058" flag="0"/>
      <psa30 value="0.0006687775" flag="0"/>
    </comp>
  </station>
  <station code="NMA1" name="NMA1" netid="HI" insttype="unknown" commtype="DIG" lat="37.8187" lon="22.6627">
    <comp name="--.HNE">
      <acc value="0.0205853077" flag="0"/>
      <vel value="0.0102126970" flag="0"/>
      <psa03 value="0.0506385742" flag="0"/>
      <psa10 value="0.0140917579" flag="0"/>
      <psa30 value="0.0010030072" flag="0"/>
    </comp>
    <comp name="--.HNN">
      <acc value="0.0165165964" flag="0"/>
      <vel value="0.0079903704" flag="0"/>
      <psa03 value="0.0444078512" flag="0"/>
      <psa10 value="0.0133493289" flag="0"/>
      <psa30 value="0.0007800461" flag="0"/>
    </comp>
    <comp name="--.HNZ">
      <acc value="0.0142980509" flag="0"/>
      <vel value="0.0073656302" flag="0"/>
      <psa03 value="0.0339351872" flag="0"/>
      <psa10 value="0.0117912789" flag="0"/>
      <psa30 value="0.0006642270" flag="0"/>
    </comp>
  </station>
  <station code="PET1" name="PET1" netid="HI" insttype="unknown" commtype="DIG" lat="36.9639" lon="21.9254">
    <comp name="--.HNE">
      <acc value="0.2042251249" flag="0"/>
      <vel value="0.0880734966" flag="0"/>
      <psa03 value="0.4706487742" flag="0"/>
      <psa10 value="0.0671250140" flag="0"/>
      <psa30 value="0.0038109186" flag="0"/>
    </comp>
    <comp name="--.HNN">
      <acc value="0.1613781015" flag="0"/>
      <vel value="0.0902343352" flag="0"/>
      <psa03 value="0.5888960475" flag="0"/>
      <psa10 value="0.0446109064" flag="0"/>
      <psa30 value="0.0031872615" flag="0"/>
    </comp>
    <comp name="--.HNZ">
      <acc value="0.0890462178" flag="0"/>
      <vel value="0.0387484284" flag="0"/>
      <psa03 value="0.2327872243" flag="0"/>
      <psa10 value="0.0198376263" flag="0"/>
      <psa30 value="0.0015828194" flag="0"/>
    </comp>
  </station>
