<?xml version="1.0" encoding="UTF-8" standalone="yes"?>
<!DOCTYPE earthquake SYSTEM "stationlist.dtd">
<stationlist created="" xmlns="ch.ethz.sed.shakemap.usgs.xml">
  <station code="RP03B" name="RP03B" netid="5B" insttype="Compact" commtype="DIG" lat="37.2463" lon="21.832">
    <comp name="--.HHZ">
      <acc value="0.1512027076" flag="0"/>
      <vel value="0.0524716555" flag="0"/>
      <psa03 value="0.3851360549" flag="0"/>
      <psa10 value="0.0467187198" flag="0"/>
      <psa30 value="0.0022355020" flag="0"/>
    </comp>
    <comp name="--.HHN">
      <acc value="0.2340830966" flag="0"/>
      <vel value="0.0573784856" flag="0"/>
      <psa03 value="0.3615486334" flag="0"/>
      <psa10 value="0.0310405094" flag="0"/>
      <psa30 value="0.0030042102" flag="0"/>
    </comp>
    <comp name="--.HHE">
      <acc value="0.4085985940" flag="0"/>
      <vel value="0.1119825390" flag="0"/>
      <psa03 value="0.7283042000" flag="0"/>
      <psa10 value="0.0573956522" flag="0"/>
      <psa30 value="0.0038482683" flag="0"/>
    </comp>
  </station>
  <station code="RP05B" name="RP05B" netid="5B" insttype="Compact" commtype="DIG" lat="37.6182" lon="21.6541">
    <comp name="--.HHN">
      <acc value="1.1702701129" flag="0"/>
      <vel value="0.2804919220" flag="0"/>
      <psa03 value="1.2363235660" flag="0"/>
      <psa10 value="0.1399716824" flag="0"/>
      <psa30 value="0.0142927658" flag="0"/>
    </comp>
    <comp name="--.HHZ">
      <acc value="0.8924971763" flag="0"/>
      <vel value="0.1832074191" flag="0"/>
      <psa03 value="0.4888628208" flag="0"/>
      <psa10 value="0.0648196259" flag="0"/>
      <psa30 value="0.0092839389" flag="0"/>
    </comp>
    <comp name="--.HHE">
      <acc value="1.4836455179" flag="0"/>
      <vel value="0.3516353920" flag="0"/>
      <psa03 value="1.8223829558" flag="0"/>
      <psa10 value="0.1802261350" flag="0"/>
      <psa30 value="0.0124647063" flag="0"/>
    </comp>
  </station>
  <station code="RP08B" name="RP08B" netid="5B" insttype="Compact" commtype="DIG" lat="37.5664" lon="21.9493">
    <comp name="--.HHN">
      <acc value="0.3141610452" flag="0"/>
      <vel value="0.1143557098" flag="0"/>
      <psa03 value="0.4252723410" flag="0"/>
      <psa10 value="0.0456495901" flag="0"/>
      <psa30 value="0.0033125126" flag="0"/>
    </comp>
    <comp name="--.HHZ">
      <acc value="0.1830575871" flag="0"/>
      <vel value="0.0508356057" flag="0"/>
      <psa03 value="0.3005216064" flag="0"/>
      <psa10 value="0.0132076384" flag="0"/>
      <psa30 value="0.0013326150" flag="0"/>
    </comp>
    <comp name="--.HHE">
      <acc value="0.3741069277" flag="0"/>
      <vel value="0.0789381387" flag="0"/>
      <psa03 value="0.5552039342" flag="0"/>
      <psa10 value="0.0289268064" flag="0"/>
      <psa30 value="0.0026123907" flag="0"/>
    </comp>
  </station>
  <station code="AGRP" name="AGRP" netid="CL" insttype="CMG40-T" commtype="DIG" lat="38.3959" lon="21.7228">
    <comp name="00.HHE">
      <acc value="0.0112732586" flag="0"/>
      <vel value="0.0091809303" flag="0"/>
      <psa03 value="0.0350931525" flag="0"/>
      <psa10 value="0.0093872117" flag="0"/>
      <psa30 value="0.0007820420" flag="0"/>
    </comp>
    <comp name="00.HHN">
      <acc value="0.0087148294" flag="0"/>
      <vel value="0.0094176505" flag="0"/>
      <psa03 value="0.0228275049" flag="0"/>
      <psa10 value="0.0107138281" flag="0"/>
      <psa30 value="0.0009680838" flag="0"/>
    </comp>
    <comp name="00.HHZ">
      <acc value="0.0064506631" flag="0"/>
      <vel value="0.0033127233" flag="0"/>
      <psa03 value="0.0199265602" flag="0"/>
      <psa10 value="0.0053070485" flag="0"/>
      <psa30 value="0.0004214188" flag="0"/>
    </comp>
  </station>
  <station code="MALA" name="MALA" netid="CL" insttype="TRILLIUM-40" commtype="DIG" lat="38.3934" lon="21.8726">
    <comp name="01.HHE">
      <acc value="0.0249324284" flag="0"/>
      <vel value="0.0263648835" flag="0"/>
      <psa03 value="0.0547598898" flag="0"/>
      <psa10 value="0.0778277209" flag="0"/>
      <psa30 value="0.0025418895" flag="0"/>
    </comp>
    <comp name="01.HHZ">
      <acc value="0.0064970235" flag="0"/>
      <vel value="0.0046264303" flag="0"/>
      <psa03 value="0.0197935540" flag="0"/>
      <psa10 value="0.0097327132" flag="0"/>
      <psa30 value="0.0005916304" flag="0"/>
    </comp>
    <comp name="01.HHN">
      <acc value="0.0175850648" flag="0"/>
      <vel value="0.0235288307" flag="0"/>
      <psa03 value="0.0398984429" flag="0"/>
      <psa10 value="0.0536240168" flag="0"/>
      <psa30 value="0.0021493070" flag="0"/>
    </comp>
  </station>
  <station code="MG06" name="MG06" netid="CL" insttype="TRILLIUM-40" commtype="DIG" lat="38.4129" lon="21.9462">
    <comp name="06.HHN">
      <acc value="0.0145147690" flag="0"/>
      <vel value="0.0074853341" flag="0"/>
      <psa03 value="0.0302304764" flag="0"/>
      <psa10 value="0.0091883683" flag="0"/>
      <psa30 value="0.0004697846" flag="0"/>
    </comp>
    <comp name="06.HHE">
      <acc value="0.0121786865" flag="0"/>
      <vel value="0.0131516388" flag="0"/>
      <psa03 value="0.0256385049" flag="0"/>
      <psa10 value="0.0194536066" flag="0"/>
      <psa30 value="0.0013674868" flag="0"/>
    </comp>
    <comp name="06.HHZ">
      <acc value="0.0114607206" flag="0"/>
      <vel value="0.0043810148" flag="0"/>
      <psa03 value="0.0143167113" flag="0"/>
      <psa10 value="0.0063915935" flag="0"/>
      <psa30 value="0.0005066761" flag="0"/>
    </comp>
  </station>
  <station code="ROD3" name="ROD3" netid="CL" insttype="CMG40-T" commtype="DIG" lat="38.3081" lon="21.892">
    <comp name="00.HHZ">
      <acc value="0.0471463650" flag="0"/>
      <vel value="0.0163819331" flag="0"/>
      <psa03 value="0.0953002815" flag="0"/>
      <psa10 value="0.0181113513" flag="0"/>
      <psa30 value="0.0010675785" flag="0"/>
    </comp>
    <comp name="00.HHE">
      <acc value="0.0432982542" flag="0"/>
      <vel value="0.0236902232" flag="0"/>
      <psa03 value="0.1410845510" flag="0"/>
      <psa10 value="0.0186367955" flag="0"/>
      <psa30 value="0.0013888804" flag="0"/>
    </comp>
    <comp name="00.HHN">
      <acc value="0.0540103721" flag="0"/>
      <vel value="0.0288866654" flag="0"/>
      <psa03 value="0.1535994993" flag="0"/>
      <psa10 value="0.0342962485" flag="0"/>
      <psa30 value="0.0016923693" flag="0"/>
    </comp>
  </station>
  <station code="ZIRI" name="ZIRI" netid="CL" insttype="TRILLIUM-40" commtype="DIG" lat="38.3051" lon="21.9476">
    <comp name="01.HHE">
      <acc value="0.0727875802" flag="0"/>
      <vel value="0.0375779136" flag="0"/>
      <psa03 value="0.1701148326" flag="0"/>
      <psa10 value="0.0244093991" flag="0"/>
      <psa30 value="0.0017786887" flag="0"/>
    </comp>
    <comp name="01.HHN">
      <acc value="0.0610350158" flag="0"/>
      <vel value="0.0341125836" flag="0"/>
      <psa03 value="0.1764918746" flag="0"/>
      <psa10 value="0.0227953180" flag="0"/>
      <psa30 value="0.0015962852" flag="0"/>
    </comp>
    <comp name="01.HHZ">
      <acc value="0.0448903285" flag="0"/>
      <vel value="0.0114341392" flag="0"/>
      <psa03 value="0.0664115846" flag="0"/>
      <psa10 value="0.0110310254" flag="0"/>
      <psa30 value="0.0005990136" flag="0"/>
    </comp>
  </station>
  <station code="HAVD" name="HAVD" netid="HA" insttype="GEOtiny," commtype="DIG" lat="38.2036" lon="20.3848">
    <comp name="--.HHZ">
      <acc value="0.0048271703" flag="0"/>
      <vel value="0.0025753396" flag="0"/>
      <psa03 value="0.0120169859" flag="0"/>
      <psa10 value="0.0023014776" flag="0"/>
      <psa30 value="0.0003560351" flag="0"/>
    </comp>
    <comp name="--.HHN">
      <acc value="0.0081955563" flag="0"/>
      <vel value="0.0049723489" flag="0"/>
      <psa03 value="0.0193209366" flag="0"/>
      <psa10 value="0.0064221708" flag="0"/>
      <psa30 value="0.0007882856" flag="0"/>
    </comp>
    <comp name="--.HHE">
      <acc value="0.0056899001" flag="0"/>
      <vel value="0.0040458819" flag="0"/>
      <psa03 value="0.0188958981" flag="0"/>
      <psa10 value="0.0067943547" flag="0"/>
      <psa30 value="0.0005648296" flag="0"/>
    </comp>
  </station>
  <station code="KALE" name="KALE" netid="HA" insttype="40," commtype="DIG" lat="38.3911" lon="22.1398">
    <comp name="--.HHN">
      <acc value="0.0146214989" flag="0"/>
      <vel value="0.0096877464" flag="0"/>
      <psa03 value="0.0342632628" flag="0"/>
      <psa10 value="0.0083167900" flag="0"/>
      <psa30 value="0.0006574563" flag="0"/>
    </comp>
    <comp name="--.HHZ">
      <acc value="0.0073741766" flag="0"/>
      <vel value="0.0044212898" flag="0"/>
      <psa03 value="0.0136023618" flag="0"/>
      <psa10 value="0.0048645324" flag="0"/>
      <psa30 value="0.0006303817" flag="0"/>
    </comp>
    <comp name="--.HHE">
      <acc value="0.0126909849" flag="0"/>
      <vel value="0.0067179680" flag="0"/>
      <psa03 value="0.0316552691" flag="0"/>
      <psa10 value="0.0128125433" flag="0"/>
      <psa30 value="0.0005627624" flag="0"/>
    </comp>
  </station>
  <station code="LAKA" name="LAKA" netid="HA" insttype="120s," commtype="DIG" lat="38.2401" lon="21.9785">
    <comp name="--.HHE">
      <acc value="0.0135298250" flag="0"/>
      <vel value="0.0076777247" flag="0"/>
      <psa03 value="0.0258052455" flag="0"/>
      <psa10 value="0.0110764954" flag="0"/>
      <psa30 value="0.0007745571" flag="0"/>
    </comp>
    <comp name="--.HHZ">
      <acc value="0.0128306507" flag="0"/>
      <vel value="0.0060855036" flag="0"/>
      <psa03 value="0.0196068632" flag="0"/>
      <psa10 value="0.0110161838" flag="0"/>
      <psa30 value="0.0005490525" flag="0"/>
    </comp>
    <comp name="--.HHN">
      <acc value="0.0145847299" flag="0"/>
      <vel value="0.0119290428" flag="0"/>
      <psa03 value="0.0195374757" flag="0"/>
      <psa10 value="0.0181456964" flag="0"/>
      <psa30 value="0.0008940787" flag="0"/>
    </comp>
  </station>
  <station code="AIG2" name="AIG2" netid="HI" insttype="unknown" commtype="DIG" lat="38.2417" lon="22.0726">
    <comp name="--.HNE">
      <acc value="0.0258998354" flag="0"/>
      <vel value="0.0160458203" flag="0"/>
      <psa03 value="0.0566721010" flag="0"/>
      <psa10 value="0.0162094553" flag="0"/>
      <psa30 value="0.0010473202" flag="0"/>
    </comp>
    <comp name="--.HNZ">
      <acc value="0.0125126589" flag="0"/>
      <vel value="0.0073754326" flag="0"/>
      <psa03 value="0.0419429567" flag="0"/>
      <psa10 value="0.0131221582" flag="0"/>
      <psa30 value="0.0007396042" flag="0"/>
    </comp>
    <comp name="--.HNN">
      <acc value="0.0335188298" flag="0"/>
      <vel value="0.0219440440" flag="0"/>
      <psa03 value="0.0611618422" flag="0"/>
      <psa10 value="0.0370196416" flag="0"/>
      <psa30 value="0.0016137958" flag="0"/>
    </comp>
  </station>
  <station code="AKR1" name="AKR1" netid="HI" insttype="unknown" commtype="DIG" lat="38.1536" lon="22.3133">
    <comp name="--.HNE">
      <acc value="0.0259907754" flag="0"/>
      <vel value="0.0122956079" flag="0"/>
      <psa03 value="0.0651680430" flag="0"/>
      <psa10 value="0.0193297290" flag="0"/>
      <psa30 value="0.0009376545" flag="0"/>
    </comp>
    <comp name="--.HNN">
      <acc value="0.0305830035" flag="0"/>
      <vel value="0.0120846159" flag="0"/>
      <psa03 value="0.1022288589" flag="0"/>
      <psa10 value="0.0114571087" flag="0"/>
      <psa30 value="0.0006175752" flag="0"/>
    </comp>
    <comp name="--.HNZ">
      <acc value="0.0117357405" flag="0"/>
      <vel value="0.0070147588" flag="0"/>
      <psa03 value="0.0323290740" flag="0"/>
      <psa10 value="0.0077954158" flag="0"/>
      <psa30 value="0.0006076177" flag="0"/>
    </comp>
  </station>
  <station code="ARE2" name="ARE2" netid="HI" insttype="unknown" commtype="DIG" lat="36.6663" lon="22.3826">
    <comp name="--.HNE">
      <acc value="0.0355401703" flag="0"/>
      <vel value="0.0202211000" flag="0"/>
      <psa03 value="0.1145677678" flag="0"/>
      <psa10 value="0.0191472765" flag="0"/>
      <psa30 value="0.0015393198" flag="0"/>
    </comp>
    <comp name="--.HNZ">
      <acc value="0.0212123186" flag="0"/>
      <vel value="0.0086624871" flag="0"/>
      <psa03 value="0.0427703291" flag="0"/>
      <psa10 value="0.0095773815" flag="0"/>
      <psa30 value="0.0004442008" flag="0"/>
    </comp>
    <comp name="--.HNN">
      <acc value="0.0403083184" flag="0"/>
      <vel value="0.0223411488" flag="0"/>
      <psa03 value="0.1233176150" flag="0"/>
      <psa10 value="0.0131904598" flag="0"/>
      <psa30 value="0.0008221793" flag="0"/>
    </comp>
  </station>
  <station code="ARG2" name="ARG2" netid="HI" insttype="CMG-5TD,ACCELEROMETER,GURALP" commtype="DIG" lat="38.1783" lon="20.4878">
    <comp name="--.HNE">
      <acc value="0.0234452487" flag="0"/>
      <vel value="0.0098575981" flag="0"/>
      <psa03 value="0.0476991641" flag="0"/>
      <psa10 value="0.0049518256" flag="0"/>
      <psa30 value="0.0005531892" flag="0"/>
    </comp>
    <comp name="--.HNN">
      <acc value="0.0230143341" flag="0"/>
      <vel value="0.0096862937" flag="0"/>
      <psa03 value="0.0406200516" flag="0"/>
      <psa10 value="0.0078261164" flag="0"/>
      <psa30 value="0.0006442869" flag="0"/>
    </comp>
    <comp name="--.HNZ">
      <acc value="0.0099364346" flag="0"/>
      <vel value="0.0046359942" flag="0"/>
      <psa03 value="0.0364028859" flag="0"/>
      <psa10 value="0.0032488377" flag="0"/>
      <psa30 value="0.0005441745" flag="0"/>
    </comp>
  </station>
  <station code="GTH2" name="GTH2" netid="HI" insttype="unknown" commtype="DIG" lat="36.7603" lon="22.5659">
    <comp name="--.HNE">
      <acc value="0.0508768532" flag="0"/>
      <vel value="0.0389326667" flag="0"/>
      <psa03 value="0.1357996610" flag="0"/>
      <psa10 value="0.0176419659" flag="0"/>
      <psa30 value="0.0015090223" flag="0"/>
    </comp>
    <comp name="--.HNZ">
      <acc value="0.0324969210" flag="0"/>
      <vel value="0.0114625144" flag="0"/>
      <psa03 value="0.0691594298" flag="0"/>
      <psa10 value="0.0109219080" flag="0"/>
      <psa30 value="0.0004471002" flag="0"/>
    </comp>
    <comp name="--.HNN">
      <acc value="0.0446274312" flag="0"/>
      <vel value="0.0225515107" flag="0"/>
      <psa03 value="0.0818487861" flag="0"/>
      <psa10 value="0.0108490458" flag="0"/>
      <psa30 value="0.0009546490" flag="0"/>
    </comp>
  </station>
  <station code="KAL3" name="KAL3" netid="HI" insttype="unknown" commtype="DIG" lat="37.0246" lon="22.103">
    <comp name="--.HNE">
      <acc value="0.1927884692" flag="0"/>
      <vel value="0.0955152782" flag="0"/>
      <psa03 value="0.5957021356" flag="0"/>
      <psa10 value="0.0794915806" flag="0"/>
      <psa30 value="0.0048737178" flag="0"/>
    </comp>
    <comp name="--.HNN">
      <acc value="0.1808187496" flag="0"/>
      <vel value="0.1029737952" flag="0"/>
      <psa03 value="0.5040195795" flag="0"/>
      <psa10 value="0.0697204143" flag="0"/>
      <psa30 value="0.0041147960" flag="0"/>
    </comp>
    <comp name="--.HNZ">
      <acc value="0.1449344041" flag="0"/>
      <vel value="0.0313171959" flag="0"/>
      <psa03 value="0.2213573789" flag="0"/>
      <psa10 value="0.0433993240" flag="0"/>
      <psa30 value="0.0017005530" flag="0"/>
    </comp>
  </station>
  <station code="KLV1" name="KLV1" netid="HI" insttype="CMG-5TD,ACCELEROMETER,GURALP" commtype="DIG" lat="38.0326" lon="22.108">
    <comp name="--.HNE">
      <acc value="0.0464581508" flag="0"/>
      <vel value="0.0238730524" flag="0"/>
      <psa03 value="0.1102813719" flag="0"/>
      <psa10 value="0.0259821195" flag="0"/>
      <psa30 value="0.0013725568" flag="0"/>
    </comp>
    <comp name="--.HNN">
      <acc value="0.0417053883" flag="0"/>
      <vel value="0.0220732548" flag="0"/>
      <psa03 value="0.0913332985" flag="0"/>
      <psa10 value="0.0297448270" flag="0"/>
      <psa30 value="0.0010934946" flag="0"/>
    </comp>
    <comp name="--.HNZ">
      <acc value="0.0195907309" flag="0"/>
      <vel value="0.0107837213" flag="0"/>
      <psa03 value="0.0305122832" flag="0"/>
      <psa10 value="0.0170309764" flag="0"/>
      <psa30 value="0.0010465653" flag="0"/>
    </comp>
  </station>
  <station code="KRI1" name="KRI1" netid="HI" insttype="CMG-5TD,ACCELEROMETER,GURALP" commtype="DIG" lat="37.6621" lon="20.8172">
    <comp name="--.HNE">
      <acc value="0.0334748264" flag="0"/>
      <vel value="0.0179210592" flag="0"/>
      <psa03 value="0.0854547781" flag="0"/>
      <psa10 value="0.0232139717" flag="0"/>
      <psa30 value="0.0012521713" flag="0"/>
    </comp>
    <comp name="--.HNN">
      <acc value="0.0423066963" flag="0"/>
      <vel value="0.0256211469" flag="0"/>
      <psa03 value="0.0878278460" flag="0"/>
      <psa10 value="0.0246388331" flag="0"/>
      <psa30 value="0.0024323461" flag="0"/>
    </comp>
    <comp name="--.HNZ">
      <acc value="0.0216530128" flag="0"/>
      <vel value="0.0109104303" flag="0"/>
      <psa03 value="0.0564866513" flag="0"/>
      <psa10 value="0.0116418538" flag="0"/>
      <psa30 value="0.0006374041" flag="0"/>
    </comp>
  </station>
  <station code="KYP2" name="KYP2" netid="HI" insttype="unknown" commtype="DIG" lat="37.2497" lon="21.667">
    <comp name="--.HNE">
      <acc value="1.7396447139" flag="0"/>
      <vel value="0.3025063937" flag="0"/>
      <psa03 value="1.3342398908" flag="0"/>
      <psa10 value="0.0592135378" flag="0"/>
      <psa30 value="0.0053195060" flag="0"/>
    </comp>
    <comp name="--.HNZ">
      <acc value="0.7156005437" flag="0"/>
      <vel value="0.1051889455" flag="0"/>
      <psa03 value="0.6656961481" flag="0"/>
      <psa10 value="0.0587100951" flag="0"/>
      <psa30 value="0.0041488100" flag="0"/>
    </comp>
    <comp name="--.HNN">
      <acc value="0.9584959991" flag="0"/>
      <vel value="0.1912188055" flag="0"/>
      <psa03 value="1.1120165432" flag="0"/>
      <psa10 value="0.0455448133" flag="0"/>
      <psa30 value="0.0058206802" flag="0"/>
    </comp>
  </station>
  <station code="LEO1" name="LEO1" netid="HI" insttype="unknown" commtype="DIG" lat="37.1689" lon="22.8637">
    <comp name="--.HNE">
      <acc value="0.0223732671" flag="0"/>
      <vel value="0.0074414648" flag="0"/>
      <psa03 value="0.0406138276" flag="0"/>
      <psa10 value="0.0041591588" flag="0"/>
      <psa30 value="0.0002969696" flag="0"/>
    </comp>
    <comp name="--.HNZ">
      <acc value="0.0147625313" flag="0"/>
      <vel value="0.0044440251" flag="0"/>
      <psa03 value="0.0364447663" flag="0"/>
      <psa10 value="0.0021738744" flag="0"/>
      <psa30 value="0.0002227488" flag="0"/>
    </comp>
    <comp name="--.HNN">
      <acc value="0.0130682286" flag="0"/>
      <vel value="0.0043008758" flag="0"/>
      <psa03 value="0.0279588632" flag="0"/>
      <psa10 value="0.0035625477" flag="0"/>
      <psa30 value="0.0002675379" flag="0"/>
    </comp>
  </station>
  <station code="LXR2" name="LXR2" netid="HI" insttype="unknown" commtype="DIG" lat="38.2067" lon="20.4364">
    <comp name="--.HNE">
      <acc value="0.0134221522" flag="0"/>
      <vel value="0.0088485354" flag="0"/>
      <psa03 value="0.0441867702" flag="0"/>
      <psa10 value="0.0161937601" flag="0"/>
      <psa30 value="0.0010884877" flag="0"/>
    </comp>
    <comp name="--.HNZ">
      <acc value="0.0090668211" flag="0"/>
      <vel value="0.0053284372" flag="0"/>
      <psa03 value="0.0267126805" flag="0"/>
      <psa10 value="0.0089943156" flag="0"/>
      <psa30 value="0.0009346876" flag="0"/>
    </comp>
    <comp name="--.HNN">
      <acc value="0.0184290552" flag="0"/>
      <vel value="0.0093466270" flag="0"/>
      <psa03 value="0.0606482945" flag="0"/>
      <psa10 value="0.0130724708" flag="0"/>
      <psa30 value="0.0022025586" flag="0"/>
    </comp>
  </station>
