<stationlist xmlns:esm="https://esm-db.eu/esmws/shakemap/1/" created="1781488500">
	<station code="AGRP" name="AGRP" netid="CL" source="Corinth Riff Laboratory (CRLNET)" insttype="" lat="38.3959" lon="21.72277" esm:processing="automatic (Paolucci et al 2011)" esm:quality="best">
		<comp name="00.HNE" depth="0.0">
			<acc value="0.0110676303382245" flag="0"/>
			<vel value="0.00928721638377232" flag="0"/>
			<psa03 value="0.0345035226682089" flag="0"/>
			<psa10 value="0.0088957993030455" flag="0"/>
			<psa30 value="0.000768313032384377" flag="0"/>
		</comp>
		<comp name="00.HNN" depth="0.0">
			<acc value="0.00843006558888888" flag="0"/>
			<vel value="0.00901391768109156" flag="0"/>
			<psa03 value="0.0226227981285157" flag="0"/>
			<psa10 value="0.0104371148451358" flag="0"/>
			<psa30 value="0.000946278936335436" flag="0"/>
		</comp>
		<comp name="00.HNZ" depth="0.0">
			<acc value="0.00601152718159309" flag="0"/>
			<vel value="0.00332460983604793" flag="0"/>
			<psa03 value="0.0185480216841576" flag="0"/>
			<psa10 value="0.00524122392411238" flag="0"/>
			<psa30 value="0.000371200058932149" flag="0"/>
		</comp>
	</station>
	<station code="ROD3" name="ROD3" netid="CL" source="Corinth Riff Laboratory (CRLNET)" insttype="" lat="38.30811" lon="21.89204" esm:processing="automatic (Paolucci et al 2011)" esm:quality="best">
		<comp name="00.HNE" depth="0.0">
			<acc value="0.0349833483743245" flag="0"/>
			<vel value="0.0191562648368343" flag="0"/>
			<psa03 value="0.113652695599972" flag="0"/>
			<psa10 value="0.0166058075532533" flag="0"/>
			<psa30 value="0.00103966970634894" flag="0"/>
		</comp>
		<comp name="00.HNN" depth="0.0">
			<acc value="0.0450772050027748" flag="0"/>
			<vel value="0.0240258120376071" flag="0"/>
			<psa03 value="0.129398655359195" flag="0"/>
			<psa10 value="0.0282798846535678" flag="0"/>
			<psa30 value="0.00152068667552911" flag="0"/>
		</comp>
		<comp name="00.HNZ" depth="0.0">
			<acc value="0.037799599930025" flag="0"/>
			<vel value="0.0128601164712007" flag="0"/>
			<psa03 value="0.0780022922690474" flag="0"/>
			<psa10 value="0.0150205803522311" flag="0"/>
			<psa30 value="0.000828162778386322" flag="0"/>
		</comp>
	</station>
	<station code="AIG2" name="AIG2" netid="HI" source="ITSAK Strong Motion Network" insttype="" lat="38.2417" lon="22.0726" esm:processing="automatic (Paolucci et al 2011)" esm:quality="best">
		<comp name="--.HNE" depth="0.0">
			<acc value="0.0257550691159298" flag="0"/>
			<vel value="0.0159834963841628" flag="0"/>
			<psa03 value="0.0576099726279515" flag="0"/>
			<psa10 value="0.0162224609084195" flag="0"/>
			<psa30 value="0.00116078241697163" flag="0"/>
		</comp>
		<comp name="--.HNN" depth="0.0">
			<acc value="0.033812740459173" flag="0"/>
			<vel value="0.0219574268878726" flag="0"/>
			<psa03 value="0.0616865135121118" flag="0"/>
			<psa10 value="0.0370626289672751" flag="0"/>
			<psa30 value="0.00162943033759637" flag="0"/>
		</comp>
		<comp name="--.HNZ" depth="0.0">
			<acc value="0.0116737058449805" flag="0"/>
			<vel value="0.0074263471799198" flag="0"/>
			<psa03 value="0.0426496326205142" flag="0"/>
			<psa10 value="0.0131243938016782" flag="0"/>
			<psa30 value="0.00077773464610338" flag="0"/>
		</comp>
	</station>
	<station code="AKR1" name="AKR1" netid="HI" source="ITSAK Strong Motion Network" insttype="" lat="38.153583" lon="22.31326" esm:processing="automatic (Paolucci et al 2011)" esm:quality="best">
		<comp name="--.HNE" depth="0.0">
			<acc value="0.0256666833395694" flag="0"/>
			<vel value="0.0123243257951809" flag="0"/>
			<psa03 value="0.0666769326445543" flag="0"/>
			<psa10 value="0.0193503424902234" flag="0"/>
			<psa30 value="0.000975610046044171" flag="0"/>
		</comp>
		<comp name="--.HNN" depth="0.0">
			<acc value="0.0305069393792603" flag="0"/>
			<vel value="0.0122673596662732" flag="0"/>
			<psa03 value="0.099910201893875" flag="0"/>
			<psa10 value="0.011479015428436" flag="0"/>
			<psa30 value="0.000660209621063921" flag="0"/>
		</comp>
		<comp name="--.HNZ" depth="0.0">
			<acc value="0.0117028533201689" flag="0"/>
			<vel value="0.00697277028773873" flag="0"/>
			<psa03 value="0.0315646951728104" flag="0"/>
			<psa10 value="0.00783950010965799" flag="0"/>
			<psa30 value="0.000655884855402754" flag="0"/>
		</comp>
	</station>
	<station code="ARE2" name="ARE2" netid="HI" source="ITSAK Strong Motion Network" insttype="" lat="36.66629" lon="22.382635" esm:processing="automatic (Paolucci et al 2011)" esm:quality="best">
		<comp name="--.HNE" depth="0.0">
			<acc value="0.0354452271232148" flag="0"/>
			<vel value="0.0202544065524813" flag="0"/>
			<psa03 value="0.114089026588092" flag="0"/>
			<psa10 value="0.0191893799522452" flag="0"/>
			<psa30 value="0.00156257184604943" flag="0"/>
		</comp>
		<comp name="--.HNN" depth="0.0">
			<acc value="0.0404149979509808" flag="0"/>
			<vel value="0.0225786706365559" flag="0"/>
			<psa03 value="0.124697479346023" flag="0"/>
			<psa10 value="0.0132169771223688" flag="0"/>
			<psa30 value="0.000849355588555987" flag="0"/>
		</comp>
		<comp name="--.HNZ" depth="0.0">
			<acc value="0.0213405947415402" flag="0"/>
			<vel value="0.00869061481610892" flag="0"/>
			<psa03 value="0.0421280798410356" flag="0"/>
			<psa10 value="0.00958342985519487" flag="0"/>
			<psa30 value="0.000462410372001086" flag="0"/>
		</comp>
	</station>
	<station code="ARG2" name="ARG2" netid="HI" source="ITSAK Strong Motion Network" insttype="" lat="38.1783" lon="20.4878" esm:processing="automatic (Paolucci et al 2011)" esm:quality="best">
		<comp name="--.HNE" depth="0.0">
			<acc value="0.0235471908397137" flag="0"/>
			<vel value="0.00991483578815237" flag="0"/>
			<psa03 value="0.0473176970652074" flag="0"/>
			<psa10 value="0.00497625762139521" flag="0"/>
			<psa30 value="0.000554877018295933" flag="0"/>
		</comp>
		<comp name="--.HNN" depth="0.0">
			<acc value="0.0230110692401284" flag="0"/>
			<vel value="0.00973698193728037" flag="0"/>
			<psa03 value="0.0417922685326845" flag="0"/>
			<psa10 value="0.00784535096599851" flag="0"/>
			<psa30 value="0.000660369110796" flag="0"/>
		</comp>
		<comp name="--.HNZ" depth="0.0">
			<acc value="0.0100328606576999" flag="0"/>
			<vel value="0.00460591322896416" flag="0"/>
			<psa03 value="0.0370359326154395" flag="0"/>
			<psa10 value="0.00324415709698618" flag="0"/>
			<psa30 value="0.000547165205342839" flag="0"/>
		</comp>
	</station>
	<station code="GTH2" name="GTH2" netid="HI" source="ITSAK Strong Motion Network" insttype="" lat="36.7603" lon="22.5659" esm:processing="automatic (Paolucci et al 2011)" esm:quality="best">
		<comp name="--.HNE" depth="0.0">
			<acc value="0.0509083291705607" flag="0"/>
			<vel value="0.0390423491434295" flag="0"/>
			<psa03 value="0.135369207128948" flag="0"/>
			<psa10 value="0.0177394270249798" flag="0"/>
			<psa30 value="0.00149732429455269" flag="0"/>
		</comp>
		<comp name="--.HNN" depth="0.0">
			<acc value="0.0445273917991464" flag="0"/>
			<vel value="0.028752943331077" flag="0"/>
			<psa03 value="0.150063420131777" flag="0"/>
			<psa10 value="0.0235881982273677" flag="0"/>
			<psa30 value="0.0013335228185088" flag="0"/>
		</comp>
		<comp name="--.HNZ" depth="0.0">
			<acc value="0.0326893176595197" flag="0"/>
			<vel value="0.0116077381194816" flag="0"/>
			<psa03 value="0.070217958886831" flag="0"/>
			<psa10 value="0.0109261706801847" flag="0"/>
			<psa30 value="0.000455978852194463" flag="0"/>
		</comp>
	</station>
	<station code="KLV1" name="KLV1" netid="HI" source="ITSAK Strong Motion Network" insttype="" lat="38.03256" lon="22.10797" esm:processing="automatic (Paolucci et al 2011)" esm:quality="best">
		<comp name="--.HNE" depth="0.0">
			<acc value="0.0463950306725136" flag="0"/>
			<vel value="0.0240436167950694" flag="0"/>
			<psa03 value="0.111084254620029" flag="0"/>
			<psa10 value="0.0260149652387722" flag="0"/>
			<psa30 value="0.00145979889201227" flag="0"/>
		</comp>
		<comp name="--.HNN" depth="0.0">
			<acc value="0.041959712634237" flag="0"/>
			<vel value="0.0222109292525942" flag="0"/>
			<psa03 value="0.0913665109162779" flag="0"/>
			<psa10 value="0.0297795152467348" flag="0"/>
			<psa30 value="0.00111802073005307" flag="0"/>
		</comp>
		<comp name="--.HNZ" depth="0.0">
			<acc value="0.0194806206590038" flag="0"/>
			<vel value="0.0108176177491747" flag="0"/>
			<psa03 value="0.0302018861434005" flag="0"/>
			<psa10 value="0.0170590025751994" flag="0"/>
			<psa30 value="0.00108338395637014" flag="0"/>
		</comp>
	</station>
	<station code="KOR2" name="KOR2" netid="HI" source="ITSAK Strong Motion Network" insttype="" lat="37.9401" lon="22.9495" esm:processing="automatic (Paolucci et al 2011)" esm:quality="best">
		<comp name="--.HNE" depth="0.0">
			<acc value="0.0144463303294269" flag="0"/>
			<vel value="0.0108121171893084" flag="0"/>
			<psa03 value="0.0598251975007276" flag="0"/>
			<psa10 value="0.0186729426158062" flag="0"/>
			<psa30 value="0.00151208454318006" flag="0"/>
		</comp>
		<comp name="--.HNN" depth="0.0">
			<acc value="0.0139034672541771" flag="0"/>
			<vel value="0.00963087485631078" flag="0"/>
			<psa03 value="0.0422195312117401" flag="0"/>
			<psa10 value="0.0153419110138105" flag="0"/>
			<psa30 value="0.00116869085753367" flag="0"/>
		</comp>
		<comp name="--.HNZ" depth="0.0">
			<acc value="0.00906112963553209" flag="0"/>
			<vel value="0.00589648688906833" flag="0"/>
			<psa03 value="0.0340099248656103" flag="0"/>
			<psa10 value="0.00968541692383764" flag="0"/>
			<psa30 value="0.000443342858871919" flag="0"/>
		</comp>
	</station>
	<station code="KRI1" name="KRI1" netid="HI" source="ITSAK Strong Motion Network" insttype="" lat="37.6621" lon="20.8172" esm:processing="automatic (Paolucci et al 2011)" esm:quality="best">
		<comp name="--.HNE" depth="0.0">
			<acc value="0.0334971893929122" flag="0"/>
			<vel value="0.0179592382242337" flag="0"/>
			<psa03 value="0.0849786762952508" flag="0"/>
			<psa10 value="0.0232133890230974" flag="0"/>
			<psa30 value="0.00125820407901196" flag="0"/>
		</comp>
		<comp name="--.HNN" depth="0.0">
			<acc value="0.0424831431918201" flag="0"/>
			<vel value="0.0257049010178629" flag="0"/>
			<psa03 value="0.0864852708914155" flag="0"/>
			<psa10 value="0.0246849171296125" flag="0"/>
			<psa30 value="0.00241234793121125" flag="0"/>
		</comp>
		<comp name="--.HNZ" depth="0.0">
			<acc value="0.0214667639968487" flag="0"/>
			<vel value="0.0109520678284792" flag="0"/>
			<psa03 value="0.0562563933766358" flag="0"/>
			<psa10 value="0.0116589439103149" flag="0"/>
			<psa30 value="0.000647905733075059" flag="0"/>
		</comp>
	</station>
	<station code="KYP2" name="KYP2" netid="HI" source="ITSAK Strong Motion Network" insttype="" lat="37.2497" lon="21.667" esm:processing="automatic (Paolucci et al 2011)" esm:quality="best">
		<comp name="--.HNE" depth="0.0">
			<acc value="1.68343931902171" flag="0"/>
			<vel value="0.309434171673556" flag="0"/>
			<psa03 value="1.35342907470058" flag="0"/>
			<psa10 value="0.0597258977976096" flag="0"/>
			<psa30 value="0.00530967382316559" flag="0"/>
		</comp>
		<comp name="--.HNN" depth="0.0">
			<acc value="0.963464392501083" flag="0"/>
			<vel value="0.196624204810824" flag="0"/>
			<psa03 value="1.1235045933321" flag="0"/>
			<psa10 value="0.0459417696667699" flag="0"/>
			<psa30 value="0.00616589387687537" flag="0"/>
		</comp>
		<comp name="--.HNZ" depth="0.0">
			<acc value="0.636687247474931" flag="0"/>
			<vel value="0.148104804757575" flag="0"/>
			<psa03 value="0.681287173598333" flag="0"/>
			<psa10 value="0.0591392951880656" flag="0"/>
			<psa30 value="0.00399537675743522" flag="0"/>
		</comp>
	</station>
	<station code="LEO1" name="LEO1" netid="HI" source="ITSAK Strong Motion Network" insttype="" lat="37.1689" lon="22.8637" esm:processing="automatic (Paolucci et al 2011)" esm:quality="best">
		<comp name="--.HNE" depth="0.0">
			<acc value="0.0223703987989834" flag="0"/>
			<vel value="0.00760623916100634" flag="0"/>
			<psa03 value="0.0398740607316651" flag="0"/>
			<psa10 value="0.00415155783283163" flag="0"/>
			<psa30 value="0.000293282683746775" flag="0"/>
		</comp>
		<comp name="--.HNN" depth="0.0">
			<acc value="0.0129165069743525" flag="0"/>
			<vel value="0.00434018814963597" flag="0"/>
			<psa03 value="0.0276382032911601" flag="0"/>
			<psa10 value="0.00356405750756839" flag="0"/>
			<psa30 value="0.000252022815066301" flag="0"/>
		</comp>
		<comp name="--.HNZ" depth="0.0">
			<acc value="0.0145846273799639" flag="0"/>
			<vel value="0.00451407764329941" flag="0"/>
			<psa03 value="0.0357466310597057" flag="0"/>
			<psa10 value="0.00218401085187537" flag="0"/>
			<psa30 value="0.000218198048299839" flag="0"/>
		</comp>
	</station>
	<station code="LXR2" name="LXR2" netid="HI" source="ITSAK Strong Motion Network" insttype="" lat="38.206718" lon="20.436386" esm:processing="automatic (Paolucci et al 2011)" esm:quality="best">
		<comp name="--.HNE" depth="0.0">
			<acc value="0.0135368985036627" flag="0"/>
			<vel value="0.00888626620267991" flag="0"/>
			<psa03 value="0.0433928537302652" flag="0"/>
			<psa10 value="0.0161811912995104" flag="0"/>
			<psa30 value="0.00108409806617641" flag="0"/>
		</comp>
		<comp name="--.HNN" depth="0.0">
			<acc value="0.0183869209636672" flag="0"/>
			<vel value="0.00945429760237828" flag="0"/>
			<psa03 value="0.0597110597313272" flag="0"/>
			<psa10 value="0.0130643288851722" flag="0"/>
			<psa30 value="0.00220875277736484" flag="0"/>
		</comp>
		<comp name="--.HNZ" depth="0.0">
			<acc value="0.00903369578992616" flag="0"/>
			<vel value="0.00529439798700499" flag="0"/>
			<psa03 value="0.0270899898913795" flag="0"/>
			<psa10 value="0.00900641100552794" flag="0"/>
			<psa30 value="0.000929592935136414" flag="0"/>
		</comp>
	</station>
	<station code="MSL1" name="MSL1" netid="HI" source="ITSAK Strong Motion Network" insttype="" lat="38.3727" lon="21.4243" esm:processing="automatic (Paolucci et al 2011)" esm:quality="best">
		<comp name="--.HNE" depth="0.0">
			<acc value="0.0205347544858477" flag="0"/>
			<vel value="0.0221826332041448" flag="0"/>
			<psa03 value="0.0442426027302994" flag="0"/>
			<psa10 value="0.0345186629420111" flag="0"/>
			<psa30 value="0.00368409738670459" flag="0"/>
		</comp>
		<comp name="--.HNN" depth="0.0">
			<acc value="0.0229612650876696" flag="0"/>
			<vel value="0.0204301719374112" flag="0"/>
			<psa03 value="0.0588127293880174" flag="0"/>
			<psa10 value="0.0195211644313387" flag="0"/>
			<psa30 value="0.00289268350108539" flag="0"/>
		</comp>
		<comp name="--.HNZ" depth="0.0">
			<acc value="0.00956507165842703" flag="0"/>
			<vel value="0.00814267107762948" flag="0"/>
			<psa03 value="0.0210289243130311" flag="0"/>
			<psa10 value="0.0164855595874157" flag="0"/>
			<psa30 value="0.00110745127987887" flag="0"/>
		</comp>
	</station>
	<station code="NMA1" name="NMA1" netid="HI" source="ITSAK Strong Motion Network" insttype="" lat="37.81873" lon="22.662702" esm:processing="automatic (Paolucci et al 2011)" esm:quality="best">
		<comp name="--.HNE" depth="0.0">
			<acc value="0.0205594904727948" flag="0"/>
			<vel value="0.0102756877875103" flag="0"/>
			<psa03 value="0.0518578467861778" flag="0"/>
			<psa10 value="0.0141460580444202" flag="0"/>
			<psa30 value="0.00106722486507631" flag="0"/>
		</comp>
		<comp name="--.HNN" depth="0.0">
			<acc value="0.0166524036152771" flag="0"/>
			<vel value="0.00820854122570945" flag="0"/>
			<psa03 value="0.0448751446330962" flag="0"/>
			<psa10 value="0.0133871071426477" flag="0"/>
			<psa30 value="0.00082406849674359" flag="0"/>
		</comp>
		<comp name="--.HNZ" depth="0.0">
			<acc value="0.0140856238635929" flag="0"/>
			<vel value="0.00739915553024023" flag="0"/>
			<psa03 value="0.0337156137022735" flag="0"/>
			<psa10 value="0.0117937897181879" flag="0"/>
			<psa30 value="0.000696617241223411" flag="0"/>
		</comp>
	</station>
	<station code="PAT5" name="PAT5" netid="HI" source="ITSAK Strong Motion Network" insttype="" lat="38.29595" lon="21.795083" esm:processing="automatic (Paolucci et al 2011)" esm:quality="best">
		<comp name="--.HNE" depth="0.0">
			<acc value="0.0172576457861383" flag="0"/>
			<vel value="0.0111584234285843" flag="0"/>
			<psa03 value="0.0421613554828835" flag="0"/>
			<psa10 value="0.0177601921505675" flag="0"/>
			<psa30 value="0.00150297633563934" flag="0"/>
		</comp>
		<comp name="--.HNN" depth="0.0">
			<acc value="0.0179687053823602" flag="0"/>
			<vel value="0.0143883941985445" flag="0"/>
			<psa03 value="0.0434064483808441" flag="0"/>
			<psa10 value="0.0151328862294443" flag="0"/>
			<psa30 value="0.00191798414036965" flag="0"/>
		</comp>
		<comp name="--.HNZ" depth="0.0">
			<acc value="0.027100258515949" flag="0"/>
			<vel value="0.0130111612653951" flag="0"/>
			<psa03 value="0.0458133578267824" flag="0"/>
			<psa10 value="0.00919237176201541" flag="0"/>
			<psa30 value="0.00168353496342897" flag="0"/>
		</comp>
	</station>
	<station code="PET1" name="PET1" netid="HI" source="ITSAK Strong Motion Network" insttype="" lat="36.963862" lon="21.92538" esm:processing="automatic (Paolucci et al 2011)" esm:quality="best">
		<comp name="--.HNE" depth="0.0">
			<acc value="0.204931889175628" flag="0"/>
			<vel value="0.0890432185185272" flag="0"/>
			<psa03 value="0.473512242862212" flag="0"/>
			<psa10 value="0.0674919085077055" flag="0"/>
			<psa30 value="0.00390447698577146" flag="0"/>
		</comp>
		<comp name="--.HNN" depth="0.0">
			<acc value="0.160687782196519" flag="0"/>
			<vel value="0.0907176993561575" flag="0"/>
			<psa03 value="0.579973795417583" flag="0"/>
			<psa10 value="0.0448335600033185" flag="0"/>
			<psa30 value="0.00329062882134318" flag="0"/>
		</comp>
		<comp name="--.HNZ" depth="0.0">
			<acc value="0.0898790639210502" flag="0"/>
			<vel value="0.0394003079955525" flag="0"/>
			<psa03 value="0.233140736096238" flag="0"/>
			<psa10 value="0.0198098585559076" flag="0"/>
			<psa30 value="0.00162266655619571" flag="0"/>
		</comp>
	</station>
	<station code="PYL1" name="PYL1" netid="HI" source="ITSAK Strong Motion Network" insttype="" lat="36.914188" lon="21.695161" esm:processing="automatic (Paolucci et al 2011)" esm:quality="best">
		<comp name="--.HNE" depth="0.0">
			<acc value="0.112801966286045" flag="0"/>
			<vel value="0.0415081402718162" flag="0"/>
			<psa03 value="0.191548084953892" flag="0"/>
			<psa10 value="0.0238717507613315" flag="0"/>
			<psa30 value="0.00209230798013517" flag="0"/>
		</comp>
		<comp name="--.HNN" depth="0.0">
			<acc value="0.109182578857669" flag="0"/>
			<vel value="0.0401039743076281" flag="0"/>
			<psa03 value="0.297553211439942" flag="0"/>
			<psa10 value="0.0207551761785607" flag="0"/>
			<psa30 value="0.00129068612662153" flag="0"/>
		</comp>
		<comp name="--.HNZ" depth="0.0">
			<acc value="0.111403596632259" flag="0"/>
			<vel value="0.0222639236407675" flag="0"/>
			<psa03 value="0.114060358022273" flag="0"/>
			<psa10 value="0.0176485510048895" flag="0"/>
			<psa30 value="0.00141960122911439" flag="0"/>
		</comp>
	</station>
	<station code="TRP1" name="TRP1" netid="HI" source="ITSAK Strong Motion Network" insttype="" lat="37.511219" lon="22.363399" esm:processing="automatic (Paolucci et al 2011)" esm:quality="best">
		<comp name="--.HNE" depth="0.0">
			<acc value="0.0249985468583052" flag="0"/>
			<vel value="0.0115837248219452" flag="0"/>
			<psa03 value="0.048237638215127" flag="0"/>
			<psa10 value="0.00629889617720836" flag="0"/>
			<psa30 value="0.000596486233035536" flag="0"/>
		</comp>
		<comp name="--.HNN" depth="0.0">
			<acc value="0.0374818569110574" flag="0"/>
			<vel value="0.0135783752000942" flag="0"/>
			<psa03 value="0.116897170947207" flag="0"/>
			<psa10 value="0.00624210944661615" flag="0"/>
			<psa30 value="0.000829961907986495" flag="0"/>
		</comp>
		<comp name="--.HNZ" depth="0.0">
			<acc value="0.0219884517414481" flag="0"/>
			<vel value="0.00634341868086493" flag="0"/>
			<psa03 value="0.0436354349042441" flag="0"/>
