<?xml version="1.0" encoding="UTF-8" standalone="yes"?>
<!DOCTYPE earthquake SYSTEM "stationlist.dtd">
<stationlist created="" xmlns="ch.ethz.sed.shakemap.usgs.xml">
  <station code="RP03B" name="RP03B" netid="5B" insttype="Compact" commtype="DIG" lat="37.2463" lon="21.832">
    <comp name="--.HHE">
      <acc value="0.4085985935" flag="0"/>
      <vel value="0.1119825346" flag="0"/>
      <psa03 value="0.7283042000" flag="0"/>
      <psa10 value="0.0573956537" flag="0"/>
      <psa30 value="0.0038480159" flag="0"/>
    </comp>
    <comp name="--.HHN">
      <acc value="0.2340830965" flag="0"/>
      <vel value="0.0573784711" flag="0"/>
      <psa03 value="0.3615486335" flag="0"/>
      <psa10 value="0.0310405092" flag="0"/>
      <psa30 value="0.0030042722" flag="0"/>
    </comp>
    <comp name="--.HHZ">
      <acc value="0.1512027072" flag="0"/>
      <vel value="0.0524716534" flag="0"/>
      <psa03 value="0.3851360549" flag="0"/>
      <psa10 value="0.0467187200" flag="0"/>
      <psa30 value="0.0022357771" flag="0"/>
    </comp>
  </station>
  <station code="RP05B" name="RP05B" netid="5B" insttype="Compact" commtype="DIG" lat="37.6182" lon="21.6541">
    <comp name="--.HHN">
      <acc value="1.1702701108" flag="0"/>
      <vel value="0.2804919059" flag="0"/>
      <psa03 value="1.2363235660" flag="0"/>
      <psa10 value="0.1399716848" flag="0"/>
      <psa30 value="0.0142968321" flag="0"/>
    </comp>
    <comp name="--.HHZ">
      <acc value="0.8924971793" flag="0"/>
      <vel value="0.1832073886" flag="0"/>
      <psa03 value="0.4888628208" flag="0"/>
      <psa10 value="0.0648196315" flag="0"/>
      <psa30 value="0.0092838053" flag="0"/>
    </comp>
    <comp name="--.HHE">
      <acc value="1.4836455173" flag="0"/>
      <vel value="0.3516354217" flag="0"/>
      <psa03 value="1.8223829559" flag="0"/>
      <psa10 value="0.1802261545" flag="0"/>
      <psa30 value="0.0124644083" flag="0"/>
    </comp>
  </station>
  <station code="RP08B" name="RP08B" netid="5B" insttype="Compact" commtype="DIG" lat="37.5664" lon="21.9493">
    <comp name="--.HHE">
      <acc value="0.3741069275" flag="0"/>
      <vel value="0.0789381323" flag="0"/>
      <psa03 value="0.5552039342" flag="0"/>
      <psa10 value="0.0289268064" flag="0"/>
      <psa30 value="0.0026124281" flag="0"/>
    </comp>
    <comp name="--.HHZ">
      <acc value="0.1830575855" flag="0"/>
      <vel value="0.0508355969" flag="0"/>
      <psa03 value="0.3005216064" flag="0"/>
      <psa10 value="0.0132076384" flag="0"/>
      <psa30 value="0.0013325959" flag="0"/>
    </comp>
    <comp name="--.HHN">
      <acc value="0.3141610444" flag="0"/>
      <vel value="0.1143557086" flag="0"/>
      <psa03 value="0.4252723410" flag="0"/>
      <psa10 value="0.0456495899" flag="0"/>
      <psa30 value="0.0033124765" flag="0"/>
    </comp>
  </station>
  <station code="AGRP" name="AGRP" netid="CL" insttype="CMG40-T" commtype="DIG" lat="38.3959" lon="21.7228">
    <comp name="00.HHE">
      <acc value="0.0112732580" flag="0"/>
      <vel value="0.0091809281" flag="0"/>
      <psa03 value="0.0350931525" flag="0"/>
      <psa10 value="0.0093872116" flag="0"/>
      <psa30 value="0.0007819762" flag="0"/>
    </comp>
    <comp name="00.HHN">
      <acc value="0.0087148281" flag="0"/>
      <vel value="0.0094176390" flag="0"/>
      <psa03 value="0.0228275049" flag="0"/>
      <psa10 value="0.0107138281" flag="0"/>
      <psa30 value="0.0009680458" flag="0"/>
    </comp>
    <comp name="00.HHZ">
      <acc value="0.0064506624" flag="0"/>
      <vel value="0.0033127307" flag="0"/>
      <psa03 value="0.0199265602" flag="0"/>
      <psa10 value="0.0053070484" flag="0"/>
      <psa30 value="0.0004214325" flag="0"/>
    </comp>
  </station>
  <station code="MALA" name="MALA" netid="CL" insttype="TRILLIUM-40" commtype="DIG" lat="38.3934" lon="21.8726">
    <comp name="01.HHE">
      <acc value="0.0249324270" flag="0"/>
      <vel value="0.0263648799" flag="0"/>
      <psa03 value="0.0547598898" flag="0"/>
      <psa10 value="0.0778277209" flag="0"/>
      <psa30 value="0.0025418889" flag="0"/>
    </comp>
    <comp name="01.HHN">
      <acc value="0.0175850640" flag="0"/>
      <vel value="0.0235288330" flag="0"/>
      <psa03 value="0.0398984429" flag="0"/>
      <psa10 value="0.0536240168" flag="0"/>
      <psa30 value="0.0021492418" flag="0"/>
    </comp>
    <comp name="01.HHZ">
      <acc value="0.0064970231" flag="0"/>
      <vel value="0.0046264249" flag="0"/>
      <psa03 value="0.0197935540" flag="0"/>
      <psa10 value="0.0097327132" flag="0"/>
      <psa30 value="0.0005916383" flag="0"/>
    </comp>
  </station>
  <station code="MG06" name="MG06" netid="CL" insttype="TRILLIUM-40" commtype="DIG" lat="38.4129" lon="21.9462">
    <comp name="06.HHE">
      <acc value="0.0121786858" flag="0"/>
      <vel value="0.0131516391" flag="0"/>
      <psa03 value="0.0256385049" flag="0"/>
      <psa10 value="0.0194536066" flag="0"/>
      <psa30 value="0.0013674768" flag="0"/>
    </comp>
    <comp name="06.HHN">
      <acc value="0.0145147692" flag="0"/>
      <vel value="0.0074853276" flag="0"/>
      <psa03 value="0.0302304764" flag="0"/>
      <psa10 value="0.0091883683" flag="0"/>
      <psa30 value="0.0004697851" flag="0"/>
    </comp>
    <comp name="06.HHZ">
      <acc value="0.0114607203" flag="0"/>
      <vel value="0.0043810157" flag="0"/>
      <psa03 value="0.0143167113" flag="0"/>
      <psa10 value="0.0063915935" flag="0"/>
      <psa30 value="0.0005066692" flag="0"/>
    </comp>
  </station>
  <station code="ROD3" name="ROD3" netid="CL" insttype="CMG40-T" commtype="DIG" lat="38.3081" lon="21.892">
    <comp name="00.HHE">
      <acc value="0.0432982550" flag="0"/>
      <vel value="0.0236902172" flag="0"/>
      <psa03 value="0.1410845510" flag="0"/>
      <psa10 value="0.0186367955" flag="0"/>
      <psa30 value="0.0013891496" flag="0"/>
    </comp>
    <comp name="00.HHN">
      <acc value="0.0540103702" flag="0"/>
      <vel value="0.0288866615" flag="0"/>
      <psa03 value="0.1535994993" flag="0"/>
      <psa10 value="0.0342962485" flag="0"/>
      <psa30 value="0.0016924466" flag="0"/>
    </comp>
    <comp name="00.HHZ">
      <acc value="0.0471463630" flag="0"/>
      <vel value="0.0163819341" flag="0"/>
      <psa03 value="0.0953002815" flag="0"/>
      <psa10 value="0.0181113514" flag="0"/>
      <psa30 value="0.0010675553" flag="0"/>
    </comp>
  </station>
  <station code="ZIRI" name="ZIRI" netid="CL" insttype="TRILLIUM-40" commtype="DIG" lat="38.3051" lon="21.9476">
    <comp name="01.HHE">
      <acc value="0.0727875804" flag="0"/>
      <vel value="0.0375779215" flag="0"/>
      <psa03 value="0.1701148326" flag="0"/>
      <psa10 value="0.0244093992" flag="0"/>
      <psa30 value="0.0017786767" flag="0"/>
    </comp>
    <comp name="01.HHN">
      <acc value="0.0610350164" flag="0"/>
      <vel value="0.0341125727" flag="0"/>
      <psa03 value="0.1764918746" flag="0"/>
      <psa10 value="0.0227953180" flag="0"/>
      <psa30 value="0.0015962340" flag="0"/>
    </comp>
    <comp name="01.HHZ">
      <acc value="0.0448903282" flag="0"/>
      <vel value="0.0114341406" flag="0"/>
      <psa03 value="0.0664115846" flag="0"/>
      <psa10 value="0.0110310254" flag="0"/>
      <psa30 value="0.0005990033" flag="0"/>
    </comp>
  </station>
  <station code="KALE" name="KALE" netid="HA" insttype="40," commtype="DIG" lat="38.3911" lon="22.1398">
    <comp name="--.HHE">
      <acc value="0.0126909862" flag="0"/>
      <vel value="0.0067179678" flag="0"/>
      <psa03 value="0.0316552691" flag="0"/>
      <psa10 value="0.0128125433" flag="0"/>
      <psa30 value="0.0005627514" flag="0"/>
    </comp>
    <comp name="--.HHZ">
      <acc value="0.0073741756" flag="0"/>
      <vel value="0.0044212900" flag="0"/>
      <psa03 value="0.0136023618" flag="0"/>
      <psa10 value="0.0048645324" flag="0"/>
      <psa30 value="0.0006303839" flag="0"/>
    </comp>
    <comp name="--.HHN">
      <acc value="0.0146214990" flag="0"/>
      <vel value="0.0096877525" flag="0"/>
      <psa03 value="0.0342632628" flag="0"/>
      <psa10 value="0.0083167900" flag="0"/>
      <psa30 value="0.0006574553" flag="0"/>
    </comp>
  </station>
  <station code="LAKA" name="LAKA" netid="HA" insttype="120s," commtype="DIG" lat="38.2401" lon="21.9785">
    <comp name="--.HHN">
      <acc value="0.0145847305" flag="0"/>
      <vel value="0.0119290427" flag="0"/>
      <psa03 value="0.0195374757" flag="0"/>
      <psa10 value="0.0181456964" flag="0"/>
      <psa30 value="0.0008939130" flag="0"/>
    </comp>
    <comp name="--.HHE">
      <acc value="0.0135298252" flag="0"/>
      <vel value="0.0076777258" flag="0"/>
      <psa03 value="0.0258052455" flag="0"/>
      <psa10 value="0.0110764954" flag="0"/>
      <psa30 value="0.0007744936" flag="0"/>
    </comp>
    <comp name="--.HHZ">
      <acc value="0.0128306510" flag="0"/>
      <vel value="0.0060855028" flag="0"/>
      <psa03 value="0.0196068632" flag="0"/>
      <psa10 value="0.0110161838" flag="0"/>
      <psa30 value="0.0005490164" flag="0"/>
    </comp>
  </station>
  <station code="AIG2" name="AIG2" netid="HI" insttype="unknown" commtype="DIG" lat="38.2417" lon="22.0726">
    <comp name="--.HNE">
      <acc value="0.0258998385" flag="0"/>
      <vel value="0.0160458212" flag="0"/>
      <psa03 value="0.0566721010" flag="0"/>
      <psa10 value="0.0162094553" flag="0"/>
      <psa30 value="0.0010473379" flag="0"/>
    </comp>
    <comp name="--.HNN">
      <acc value="0.0335188393" flag="0"/>
      <vel value="0.0219440436" flag="0"/>
      <psa03 value="0.0611618422" flag="0"/>
      <psa10 value="0.0370196415" flag="0"/>
      <psa30 value="0.0016138413" flag="0"/>
    </comp>
    <comp name="--.HNZ">
      <acc value="0.0125126667" flag="0"/>
      <vel value="0.0073754305" flag="0"/>
      <psa03 value="0.0419429567" flag="0"/>
      <psa10 value="0.0131221583" flag="0"/>
      <psa30 value="0.0007394155" flag="0"/>
    </comp>
  </station>
  <station code="AKR1" name="AKR1" netid="HI" insttype="unknown" commtype="DIG" lat="38.1536" lon="22.3133">
    <comp name="--.HNN">
      <acc value="0.0305830029" flag="0"/>
      <vel value="0.0120846156" flag="0"/>
      <psa03 value="0.1022288589" flag="0"/>
      <psa10 value="0.0114571087" flag="0"/>
      <psa30 value="0.0006175748" flag="0"/>
    </comp>
    <comp name="--.HNE">
      <acc value="0.0259907748" flag="0"/>
      <vel value="0.0122956080" flag="0"/>
      <psa03 value="0.0651680430" flag="0"/>
      <psa10 value="0.0193297290" flag="0"/>
      <psa30 value="0.0009376681" flag="0"/>
    </comp>
    <comp name="--.HNZ">
      <acc value="0.0117357362" flag="0"/>
      <vel value="0.0070147592" flag="0"/>
      <psa03 value="0.0323290740" flag="0"/>
      <psa10 value="0.0077954158" flag="0"/>
      <psa30 value="0.0006076212" flag="0"/>
    </comp>
  </station>
  <station code="ARE2" name="ARE2" netid="HI" insttype="unknown" commtype="DIG" lat="36.6663" lon="22.3826">
    <comp name="--.HNN">
      <acc value="0.0403083162" flag="0"/>
      <vel value="0.0223411423" flag="0"/>
      <psa03 value="0.1233176150" flag="0"/>
      <psa10 value="0.0131904598" flag="0"/>
      <psa30 value="0.0008220276" flag="0"/>
    </comp>
    <comp name="--.HNE">
      <acc value="0.0355401734" flag="0"/>
      <vel value="0.0202211036" flag="0"/>
      <psa03 value="0.1145677678" flag="0"/>
      <psa10 value="0.0191472763" flag="0"/>
      <psa30 value="0.0015394085" flag="0"/>
    </comp>
    <comp name="--.HNZ">
      <acc value="0.0212123140" flag="0"/>
      <vel value="0.0086624906" flag="0"/>
      <psa03 value="0.0427703291" flag="0"/>
      <psa10 value="0.0095773814" flag="0"/>
      <psa30 value="0.0004441723" flag="0"/>
    </comp>
  </station>
  <station code="GTH2" name="GTH2" netid="HI" insttype="unknown" commtype="DIG" lat="36.7603" lon="22.5659">
    <comp name="--.HNZ">
      <acc value="0.0324969107" flag="0"/>
      <vel value="0.0114625123" flag="0"/>
      <psa03 value="0.0691594298" flag="0"/>
      <psa10 value="0.0109219078" flag="0"/>
      <psa30 value="0.0004471022" flag="0"/>
    </comp>
    <comp name="--.HNE">
      <acc value="0.0508768612" flag="0"/>
      <vel value="0.0389326748" flag="0"/>
      <psa03 value="0.1357996610" flag="0"/>
      <psa10 value="0.0176419660" flag="0"/>
      <psa30 value="0.0015090572" flag="0"/>
    </comp>
    <comp name="--.HNN">
      <acc value="0.0446274361" flag="0"/>
      <vel value="0.0225515169" flag="0"/>
      <psa03 value="0.0818487861" flag="0"/>
      <psa10 value="0.0108490456" flag="0"/>
      <psa30 value="0.0009536147" flag="0"/>
    </comp>
  </station>
  <station code="KAL3" name="KAL3" netid="HI" insttype="unknown" commtype="DIG" lat="37.0246" lon="22.103">
    <comp name="--.HNZ">
      <acc value="0.1449344110" flag="0"/>
      <vel value="0.0313171959" flag="0"/>
      <psa03 value="0.2213573789" flag="0"/>
      <psa10 value="0.0433993242" flag="0"/>
      <psa30 value="0.0017011394" flag="0"/>
    </comp>
    <comp name="--.HNN">
      <acc value="0.1808187483" flag="0"/>
      <vel value="0.1029737873" flag="0"/>
      <psa03 value="0.5040195795" flag="0"/>
      <psa10 value="0.0697204142" flag="0"/>
      <psa30 value="0.0041151307" flag="0"/>
    </comp>
    <comp name="--.HNE">
      <acc value="0.1927884711" flag="0"/>
      <vel value="0.0955152760" flag="0"/>
      <psa03 value="0.5957021356" flag="0"/>
      <psa10 value="0.0794915806" flag="0"/>
      <psa30 value="0.0048736459" flag="0"/>
    </comp>
  </station>
  <station code="KLV1" name="KLV1" netid="HI" insttype="CMG-5TD,ACCELEROMETER,GURALP" commtype="DIG" lat="38.0326" lon="22.108">
    <comp name="--.HNE">
      <acc value="0.0464581490" flag="0"/>
      <vel value="0.0238730532" flag="0"/>
      <psa03 value="0.1102813719" flag="0"/>
      <psa10 value="0.0259821197" flag="0"/>
      <psa30 value="0.0013726297" flag="0"/>
    </comp>
    <comp name="--.HNN">
      <acc value="0.0417053893" flag="0"/>
      <vel value="0.0220732565" flag="0"/>
      <psa03 value="0.0913332985" flag="0"/>
      <psa10 value="0.0297448269" flag="0"/>
      <psa30 value="0.0010936629" flag="0"/>
    </comp>
    <comp name="--.HNZ">
      <acc value="0.0195907285" flag="0"/>
      <vel value="0.0107837221" flag="0"/>
      <psa03 value="0.0305122832" flag="0"/>
      <psa10 value="0.0170309765" flag="0"/>
      <psa30 value="0.0010463822" flag="0"/>
    </comp>
  </station>
  <station code="KRI1" name="KRI1" netid="HI" insttype="CMG-5TD,ACCELEROMETER,GURALP" commtype="DIG" lat="37.6621" lon="20.8172">
    <comp name="--.HNE">
      <acc value="0.0334748274" flag="0"/>
      <vel value="0.0179210634" flag="0"/>
      <psa03 value="0.0854547781" flag="0"/>
      <psa10 value="0.0232139717" flag="0"/>
      <psa30 value="0.0012522726" flag="0"/>
    </comp>
    <comp name="--.HNN">
      <acc value="0.0423067086" flag="0"/>
      <vel value="0.0256211472" flag="0"/>
      <psa03 value="0.0878278460" flag="0"/>
      <psa10 value="0.0246388331" flag="0"/>
      <psa30 value="0.0024325931" flag="0"/>
    </comp>
    <comp name="--.HNZ">
      <acc value="0.0216530158" flag="0"/>
      <vel value="0.0109104242" flag="0"/>
      <psa03 value="0.0564866513" flag="0"/>
      <psa10 value="0.0116418539" flag="0"/>
      <psa30 value="0.0006374628" flag="0"/>
    </comp>
  </station>
  <station code="KYP2" name="KYP2" netid="HI" insttype="unknown" commtype="DIG" lat="37.2497" lon="21.667">
    <comp name="--.HNE">
      <acc value="1.7396447124" flag="0"/>
      <vel value="0.3025063935" flag="0"/>
      <psa03 value="1.3342398908" flag="0"/>
      <psa10 value="0.0592135369" flag="0"/>
      <psa30 value="0.0053195461" flag="0"/>
    </comp>
    <comp name="--.HNN">
      <acc value="0.9584960004" flag="0"/>
      <vel value="0.1912188048" flag="0"/>
      <psa03 value="1.1120165432" flag="0"/>
      <psa10 value="0.0455448116" flag="0"/>
      <psa30 value="0.0058207732" flag="0"/>
    </comp>
    <comp name="--.HNZ">
      <acc value="0.7156005502" flag="0"/>
      <vel value="0.1051889459" flag="0"/>
      <psa03 value="0.6656961481" flag="0"/>
      <psa10 value="0.0587100955" flag="0"/>
      <psa30 value="0.0041486616" flag="0"/>
    </comp>
  </station>
  <station code="LEO1" name="LEO1" netid="HI" insttype="unknown" commtype="DIG" lat="37.1689" lon="22.8637">
    <comp name="--.HNE">
      <acc value="0.0223732553" flag="0"/>
      <vel value="0.0074414638" flag="0"/>
      <psa03 value="0.0406138276" flag="0"/>
      <psa10 value="0.0041591588" flag="0"/>
      <psa30 value="0.0002970074" flag="0"/>
    </comp>
    <comp name="--.HNN">
      <acc value="0.0130682253" flag="0"/>
      <vel value="0.0043008754" flag="0"/>
      <psa03 value="0.0279588632" flag="0"/>
      <psa10 value="0.0035625478" flag="0"/>
      <psa30 value="0.0002675136" flag="0"/>
    </comp>
    <comp name="--.HNZ">
      <acc value="0.0147625466" flag="0"/>
      <vel value="0.0044440251" flag="0"/>
      <psa03 value="0.0364447663" flag="0"/>
      <psa10 value="0.0021738744" flag="0"/>
      <psa30 value="0.0002227654" flag="0"/>
    </comp>
  </station>
  <station code="MSL1" name="MSL1" netid="HI" insttype="CMG-5TD,ACCELEROMETER,GURALP" commtype="DIG" lat="38.3727" lon="21.4243">
    <comp name="--.HNZ">
      <acc value="0.0087137933" flag="0"/>
      <vel value="0.0070419119" flag="0"/>
      <psa03 value="0.0189897762" flag="0"/>
      <psa10 value="0.0100445058" flag="0"/>
      <psa30 value="0.0006687703" flag="0"/>
    </comp>
    <comp name="--.HNE">
      <acc value="0.0204404586" flag="0"/>
      <vel value="0.0221565935" flag="0"/>
      <psa03 value="0.0444338878" flag="0"/>
      <psa10 value="0.0344378202" flag="0"/>
      <psa30 value="0.0034137851" flag="0"/>
    </comp>
    <comp name="--.HNN">
      <acc value="0.0228780410" flag="0"/>
      <vel value="0.0201234801" flag="0"/>
      <psa03 value="0.0586324230" flag="0"/>
      <psa10 value="0.0194565615" flag="0"/>
      <psa30 value="0.0026733843" flag="0"/>
    </comp>
  </station>
  <station code="NMA1" name="NMA1" netid="HI" insttype="unknown" commtype="DIG" lat="37.8187" lon="22.6627">
    <comp name="--.HNE">
      <acc value="0.0205853090" flag="0"/>
      <vel value="0.0102126916" flag="0"/>
      <psa03 value="0.0506385742" flag="0"/>
      <psa10 value="0.0140917580" flag="0"/>
      <psa30 value="0.0010030814" flag="0"/>
    </comp>
    <comp name="--.HNN">
      <acc value="0.0165165966" flag="0"/>
      <vel value="0.0079903679" flag="0"/>
      <psa03 value="0.0444078512" flag="0"/>
      <psa10 value="0.0133493289" flag="0"/>
      <psa30 value="0.0007800398" flag="0"/>
    </comp>
    <comp name="--.HNZ">
      <acc value="0.0142980508" flag="0"/>
      <vel value="0.0073656273" flag="0"/>
      <psa03 value="0.0339351872" flag="0"/>
      <psa10 value="0.0117912794" flag="0"/>
      <psa30 value="0.0006642064" flag="0"/>
    </comp>
  </station>
  <station code="PET1" name="PET1" netid="HI" insttype="unknown" commtype="DIG" lat="36.9639" lon="21.9254">
    <comp name="--.HNE">
      <acc value="0.2042251263" flag="0"/>
      <vel value="0.0880734955" flag="0"/>
      <psa03 value="0.4706487742" flag="0"/>
      <psa10 value="0.0671250141" flag="0"/>
      <psa30 value="0.0038101395" flag="0"/>
    </comp>
    <comp name="--.HNN">
      <acc value="0.1613781002" flag="0"/>
      <vel value="0.0902343391" flag="0"/>
      <psa03 value="0.5888960475" flag="0"/>
      <psa10 value="0.0446109082" flag="0"/>
      <psa30 value="0.0031869502" flag="0"/>
    </comp>
    <comp name="--.HNZ">
      <acc value="0.0890462147" flag="0"/>
      <vel value="0.0387484290" flag="0"/>
      <psa03 value="0.2327872243" flag="0"/>
      <psa10 value="0.0198376269" flag="0"/>
      <psa30 value="0.0015829366" flag="0"/>
    </comp>
  </station>
