<?xml version="1.0" encoding="UTF-8" standalone="yes"?>
<!DOCTYPE earthquake SYSTEM "stationlist.dtd">
<stationlist created="" xmlns="ch.ethz.sed.shakemap.usgs.xml">
  <station code="ANDN" name="ANDN" netid="TU" insttype="T" lat="37.58" lon="36.3452">
    <comp name="--.HHE">
      <acc value="0.1041993039" flag="0"/>
      <vel value="0.0480251447" flag="0"/>
      <psa03 value="0.2417113439" flag="0"/>
      <psa10 value="0.0472954603" flag="0"/>
      <psa30 value="0.0100714326" flag="0"/>
    </comp>
    <comp name="--.HHN">
      <acc value="0.1780471630" flag="0"/>
      <vel value="0.0556393301" flag="0"/>
      <psa03 value="0.4506090676" flag="0"/>
      <psa10 value="0.0519770264" flag="0"/>
      <psa30 value="0.0054076484" flag="0"/>
    </comp>
    <comp name="--.HHZ">
      <acc value="0.0577421870" flag="0"/>
      <vel value="0.0325303031" flag="0"/>
      <psa03 value="0.1554044071" flag="0"/>
      <psa10 value="0.0439388744" flag="0"/>
      <psa30 value="0.0036549922" flag="0"/>
    </comp>
  </station>
</stationlist>
