<?xml version="1.0" encoding="UTF-8" standalone="yes"?>
<!DOCTYPE earthquake SYSTEM "stationlist.dtd">
<stationlist created="" xmlns="ch.ethz.sed.shakemap.usgs.xml">
  <station code="ANDN" name="ANDN" netid="TU" insttype="T" lat="37.58" lon="36.3452">
    <comp name="--.HHN">
      <acc value="0.1780471631" flag="0"/>
      <vel value="0.0556393308" flag="0"/>
      <psa03 value="0.4506090676" flag="0"/>
      <psa10 value="0.0519770289" flag="0"/>
      <psa30 value="0.0054076775" flag="0"/>
    </comp>
    <comp name="--.HHZ">
      <acc value="0.0577421867" flag="0"/>
      <vel value="0.0325303089" flag="0"/>
      <psa03 value="0.1554044071" flag="0"/>
      <psa10 value="0.0439388324" flag="0"/>
      <psa30 value="0.0036547855" flag="0"/>
    </comp>
    <comp name="--.HHE">
      <acc value="0.1041993037" flag="0"/>
      <vel value="0.0480251350" flag="0"/>
      <psa03 value="0.2417113439" flag="0"/>
      <psa10 value="0.0472954647" flag="0"/>
      <psa30 value="0.0100733989" flag="0"/>
    </comp>
  </station>
</stationlist>
