<stationlist created="1675764118">
	<station code="ARPRA" name="ARPRA" netid="KO" source="Bogazici University Kandilli Observatory And Earthquake Research Institute (KOERI)" insttype="" lat="39.0929" lon="38.3356">
		<comp name=".HNE" depth="0.0">
			<acc value="0.00434325680104" flag="0"/>
			<vel value="0.00370037311458" flag="0"/>
			<psa03 value="0.0101951304555" flag="0"/>
			<psa10 value="0.00464191406652" flag="0"/>
			<psa30 value="0.00158272203507" flag="0"/>
		</comp>
		<comp name=".HNN" depth="0.0">
			<acc value="0.00450599905536" flag="0"/>
			<vel value="0.00538765176588" flag="0"/>
			<psa03 value="0.0124334017769" flag="0"/>
			<psa10 value="0.0113085553863" flag="0"/>
			<psa30 value="0.0016166878268" flag="0"/>
		</comp>
		<comp name=".HNZ" depth="0.0">
			<acc value="0.00258162631484" flag="0"/>
			<vel value="0.00340182834607" flag="0"/>
			<psa03 value="0.00555336723227" flag="0"/>
			<psa10 value="0.00473420299272" flag="0"/>
			<psa30 value="0.00111728568136" flag="0"/>
		</comp>
	</station>
	<station code="CMRD" name="CMRD" netid="KO" source="Bogazici University Kandilli Observatory And Earthquake Research Institute (KOERI)" insttype="" lat="37.6623" lon="34.9902">
		<comp name=".HNE" depth="0.0">
			<acc value="0.0071742611634" flag="0"/>
			<vel value="0.0040266781936" flag="0"/>
			<psa03 value="0.0195180794353" flag="0"/>
			<psa10 value="0.00881706471227" flag="0"/>
			<psa30 value="0.00117208993687" flag="0"/>
		</comp>
		<comp name=".HNN" depth="0.0">
			<acc value="0.0105198700327" flag="0"/>
			<vel value="0.00716518237518" flag="0"/>
			<psa03 value="0.0281188028369" flag="0"/>
			<psa10 value="0.00823700159845" flag="0"/>
			<psa30 value="0.000590462709008" flag="0"/>
		</comp>
		<comp name=".HNZ" depth="0.0">
			<acc value="0.00598098599328" flag="0"/>
			<vel value="0.0038180925144" flag="0"/>
			<psa03 value="0.0218563072481" flag="0"/>
			<psa10 value="0.00681814760634" flag="0"/>
			<psa30 value="0.00154895021452" flag="0"/>
		</comp>
	</station>
	<station code="TUNC" name="TUNC" netid="KO" source="Bogazici University Kandilli Observatory And Earthquake Research Institute (KOERI)" insttype="" lat="39.6942" lon="37.5388">
		<comp name=".HNE" depth="0.0">
			<acc value="0.00713859774191" flag="0"/>
			<vel value="0.00844988894168" flag="0"/>
			<psa03 value="0.0108564802563" flag="0"/>
			<psa10 value="0.0133001988854" flag="0"/>
			<psa30 value="0.00129746522154" flag="0"/>
		</comp>
		<comp name=".HNN" depth="0.0">
			<acc value="0.00511694355453" flag="0"/>
			<vel value="0.00537101081942" flag="0"/>
			<psa03 value="0.0100320968689" flag="0"/>
			<psa10 value="0.00896325877189" flag="0"/>
			<psa30 value="0.00135767108488" flag="0"/>
		</comp>
		<comp name=".HNZ" depth="0.0">
			<acc value="0.00348953618607" flag="0"/>
			<vel value="0.00426273273649" flag="0"/>
			<psa03 value="0.00614254232994" flag="0"/>
			<psa10 value="0.00776009891223" flag="0"/>
			<psa30 value="0.00124033331183" flag="0"/>
		</comp>
	</station>
</stationlist>
