<?xml version="1.0" encoding="UTF-8" standalone="yes"?>
<!DOCTYPE earthquake SYSTEM "stationlist.dtd">
<stationlist created="" xmlns="ch.ethz.sed.shakemap.usgs.xml">
  <station code="ANDN" name="ANDN" netid="TU" insttype="T" lat="37.58" lon="36.3452">
    <comp name="--.HHN">
      <acc value="0.1780471630" flag="0"/>
      <vel value="0.0556393347" flag="0"/>
      <psa03 value="0.4506090676" flag="0"/>
      <psa10 value="0.0519770281" flag="0"/>
      <psa30 value="0.0054077344" flag="0"/>
    </comp>
    <comp name="--.HHZ">
      <acc value="0.0577421866" flag="0"/>
      <vel value="0.0325303082" flag="0"/>
      <psa03 value="0.1554044071" flag="0"/>
      <psa10 value="0.0439388502" flag="0"/>
      <psa30 value="0.0036547761" flag="0"/>
    </comp>
    <comp name="--.HHE">
      <acc value="0.1041993038" flag="0"/>
      <vel value="0.0480251429" flag="0"/>
      <psa03 value="0.2417113439" flag="0"/>
      <psa10 value="0.0472954639" flag="0"/>
      <psa30 value="0.0100729142" flag="0"/>
    </comp>
  </station>
</stationlist>
