<stationlist created="1778138537">
	<station code="0REN" name="0REN" netid="IT" source="Italian Strong Motion Network (RAN)" insttype="" lat="43.5462" lon="12.264">
		<comp name="--.HNE" depth="0.0">
			<acc value="0.048959706050688" flag="0"/>
			<vel value="0.0271573822106" flag="0"/>
			<psa03 value="0.115438168045383" flag="0"/>
			<psa10 value="0.017898062533789" flag="0"/>
			<psa30 value="0.00175353282961214" flag="0"/>
		</comp>
		<comp name="--.HNN" depth="0.0">
			<acc value="0.093553997402124" flag="0"/>
			<vel value="0.0430020504139" flag="0"/>
			<psa03 value="0.211672459761708" flag="0"/>
			<psa10 value="0.0192797759405532" flag="0"/>
			<psa30 value="0.00258278609690446" flag="0"/>
		</comp>
		<comp name="--.HNZ" depth="0.0">
			<acc value="0.047690006402964" flag="0"/>
			<vel value="0.022885177472" flag="0"/>
			<psa03 value="0.120698547769661" flag="0"/>
			<psa10 value="0.0196478346976025" flag="0"/>
			<psa30 value="0.00214117330055681" flag="0"/>
		</comp>
	</station>
	<station code="ANB" name="ANB" netid="IT" source="Italian Strong Motion Network (RAN)" insttype="" lat="43.5922" lon="13.5074">
		<comp name="--.HGE" depth="0.0">
			<acc value="0.67006031770098" flag="0"/>
			<vel value="0.304422935202" flag="0"/>
			<psa03 value="0.754236214449834" flag="0"/>
			<psa10 value="0.168158649685389" flag="0"/>
			<psa30 value="0.012773647024776" flag="0"/>
		</comp>
		<comp name="--.HGN" depth="0.0">
			<acc value="0.65515835753358" flag="0"/>
			<vel value="0.150266558738" flag="0"/>
			<psa03 value="0.624258187373665" flag="0"/>
			<psa10 value="0.0838836293787843" flag="0"/>
			<psa30 value="0.00568452907213633" flag="0"/>
		</comp>
		<comp name="--.HGZ" depth="0.0">
			<acc value="0.35549667741864" flag="0"/>
			<vel value="0.107589905991" flag="0"/>
			<psa03 value="0.446732843858524" flag="0"/>
			<psa10 value="0.0386604523152246" flag="0"/>
			<psa30 value="0.00421232446248769" flag="0"/>
		</comp>
	</station>
	<station code="APNO" name="APNO" netid="IT" source="Italian Strong Motion Network (RAN)" insttype="" lat="43.3638" lon="13.3451">
		<comp name="--.HNE" depth="0.0">
			<acc value="0.29891142358968" flag="0"/>
			<vel value="0.0998870879373" flag="0"/>
			<psa03 value="0.5631366383709" flag="0"/>
			<psa10 value="0.050111067112256" flag="0"/>
			<psa30 value="0.00362864037961513" flag="0"/>
		</comp>
		<comp name="--.HNN" depth="0.0">
			<acc value="0.43454768885166" flag="0"/>
			<vel value="0.109498137989" flag="0"/>
			<psa03 value="0.389400420866872" flag="0"/>
			<psa10 value="0.0464439541839468" flag="0"/>
			<psa30 value="0.00366220635319928" flag="0"/>
		</comp>
		<comp name="--.HNZ" depth="0.0">
			<acc value="0.18486906887952" flag="0"/>
			<vel value="0.0392987115742" flag="0"/>
			<psa03 value="0.27054483893462" flag="0"/>
			<psa10 value="0.0155756030572537" flag="0"/>
			<psa30 value="0.0016943908909149" flag="0"/>
		</comp>
	</station>
	<station code="ARCV" name="ARCV" netid="IT" source="Italian Strong Motion Network (RAN)" insttype="" lat="43.495" lon="12.9396">
		<comp name="--.HNE" depth="0.0">
			<acc value="0.35581132536012" flag="0"/>
			<vel value="0.0789751672501" flag="0"/>
			<psa03 value="0.246101344672744" flag="0"/>
			<psa10 value="0.0227055960093223" flag="0"/>
			<psa30 value="0.00194529282443677" flag="0"/>
		</comp>
		<comp name="--.HNN" depth="0.0">
			<acc value="0.31538983805874" flag="0"/>
			<vel value="0.0755049576048" flag="0"/>
			<psa03 value="0.203610717377429" flag="0"/>
			<psa10 value="0.0310899551819333" flag="0"/>
			<psa30 value="0.00243553988423014" flag="0"/>
		</comp>
		<comp name="--.HNZ" depth="0.0">
			<acc value="0.2104258063326" flag="0"/>
			<vel value="0.0402996134236" flag="0"/>
			<psa03 value="0.167489980805918" flag="0"/>
			<psa10 value="0.0168915989855425" flag="0"/>
			<psa30 value="0.00136130424222658" flag="0"/>
		</comp>
	</station>
	<station code="BDT" name="BDT" netid="IT" source="Italian Strong Motion Network (RAN)" insttype="" lat="43.7068" lon="12.188">
		<comp name="--.HNE" depth="0.0">
			<acc value="0.19917339614574" flag="0"/>
			<vel value="0.122687399732" flag="0"/>
			<psa03 value="0.429230559417988" flag="0"/>
			<psa10 value="0.112008955043737" flag="0"/>
			<psa30 value="0.00697483204837895" flag="0"/>
		</comp>
		<comp name="--.HNN" depth="0.0">
			<acc value="0.24275192175606" flag="0"/>
			<vel value="0.14551908861" flag="0"/>
			<psa03 value="0.67232895516065" flag="0"/>
			<psa10 value="0.0936820909786698" flag="0"/>
			<psa30 value="0.00549310055761825" flag="0"/>
		</comp>
		<comp name="--.HNZ" depth="0.0">
			<acc value="0.1315015186959" flag="0"/>
			<vel value="0.0650267443063" flag="0"/>
			<psa03 value="0.243635910516541" flag="0"/>
			<psa10 value="0.0420410200113935" flag="0"/>
			<psa30 value="0.00259211713170488" flag="0"/>
		</comp>
	</station>
	<station code="BGR" name="BGR" netid="IT" source="Italian Strong Motion Network (RAN)" insttype="" lat="43.8895" lon="11.9912">
		<comp name="--.HGE" depth="0.0">
			<acc value="0.09445841215095" flag="0"/>
			<vel value="0.0392663014025" flag="0"/>
			<psa03 value="0.185723428265474" flag="0"/>
			<psa10 value="0.0147898406918554" flag="0"/>
			<psa30 value="0.00230808664941271" flag="0"/>
		</comp>
		<comp name="--.HGN" depth="0.0">
			<acc value="0.06041832384201" flag="0"/>
			<vel value="0.0247751234362" flag="0"/>
			<psa03 value="0.137782908691576" flag="0"/>
			<psa10 value="0.0160112656677615" flag="0"/>
			<psa30 value="0.00127955716021606" flag="0"/>
		</comp>
		<comp name="--.HGZ" depth="0.0">
			<acc value="0.02808252550041" flag="0"/>
			<vel value="0.0149889117591" flag="0"/>
			<psa03 value="0.0598618770138303" flag="0"/>
			<psa10 value="0.0202795434202058" flag="0"/>
			<psa30 value="0.00175797687400904" flag="0"/>
		</comp>
	</station>
	<station code="CAGL" name="CAGL" netid="IT" source="Italian Strong Motion Network (RAN)" insttype="" lat="43.5475" lon="12.6495">
		<comp name="--.HNE" depth="0.0">
			<acc value="0.34682688953886" flag="0"/>
			<vel value="0.175093922598" flag="0"/>
			<psa03 value="0.667109942761164" flag="0"/>
			<psa10 value="0.0544844568278064" flag="0"/>
			<psa30 value="0.00580923816684586" flag="0"/>
		</comp>
		<comp name="--.HNN" depth="0.0">
			<acc value="0.40976658703344" flag="0"/>
			<vel value="0.0984091754519" flag="0"/>
			<psa03 value="0.364221586225828" flag="0"/>
			<psa10 value="0.0444380400519699" flag="0"/>
			<psa30 value="0.0040563191279022" flag="0"/>
		</comp>
		<comp name="--.HNZ" depth="0.0">
			<acc value="0.14950237790154" flag="0"/>
			<vel value="0.0537792639856" flag="0"/>
			<psa03 value="0.21667302019105" flag="0"/>
			<psa10 value="0.0430680517971426" flag="0"/>
			<psa30 value="0.00235705260150258" flag="0"/>
		</comp>
	</station>
	<station code="CLF" name="CLF" netid="IT" source="Italian Strong Motion Network (RAN)" insttype="" lat="43.0367" lon="12.9204">
		<comp name="--.HGE" depth="0.0">
			<acc value="0.11959901584098" flag="0"/>
			<vel value="0.106032708977" flag="0"/>
			<psa03 value="0.190589396445676" flag="0"/>
			<psa10 value="0.171892052004928" flag="0"/>
			<psa30 value="0.00567668355242475" flag="0"/>
		</comp>
		<comp name="--.HGN" depth="0.0">
			<acc value="0.072421682498058" flag="0"/>
			<vel value="0.043719863793" flag="0"/>
			<psa03 value="0.22439376081894" flag="0"/>
			<psa10 value="0.115017591850816" flag="0"/>
			<psa30 value="0.00291104721758981" flag="0"/>
		</comp>
		<comp name="--.HGZ" depth="0.0">
			<acc value="0.090768387718914" flag="0"/>
			<vel value="0.0427323235875" flag="0"/>
			<psa03 value="0.180904984067447" flag="0"/>
			<psa10 value="0.0407318532852305" flag="0"/>
			<psa30 value="0.00199255491364854" flag="0"/>
		</comp>
	</station>
	<station code="CMRN" name="CMRN" netid="IT" source="Italian Strong Motion Network (RAN)" insttype="" lat="43.1392" lon="13.0718">
		<comp name="--.HNE" depth="0.0">
			<acc value="0.1372294708227" flag="0"/>
			<vel value="0.047952076976" flag="0"/>
			<psa03 value="0.337748728362247" flag="0"/>
			<psa10 value="0.0644590150935796" flag="0"/>
			<psa30 value="0.00335650735213743" flag="0"/>
		</comp>
		<comp name="--.HNN" depth="0.0">
			<acc value="0.16601076948924" flag="0"/>
			<vel value="0.0732338978948" flag="0"/>
			<psa03 value="0.264306384000636" flag="0"/>
			<psa10 value="0.0424424128513623" flag="0"/>
			<psa30 value="0.00259274071467955" flag="0"/>
		</comp>
		<comp name="--.HNZ" depth="0.0">
			<acc value="0.053213424843528" flag="0"/>
			<vel value="0.0238285033157" flag="0"/>
			<psa03 value="0.159270727987438" flag="0"/>
			<psa10 value="0.0154016665348154" flag="0"/>
			<psa30 value="0.00161230566150346" flag="0"/>
		</comp>
	</station>
	<station code="CNTN" name="CNTN" netid="IT" source="Italian Strong Motion Network (RAN)" insttype="" lat="43.4729" lon="12.6303">
		<comp name="--.HNE" depth="0.0">
			<acc value="0.62449659282792" flag="0"/>
			<vel value="0.167078795766" flag="0"/>
			<psa03 value="0.708333256935332" flag="0"/>
			<psa10 value="0.0358219230266033" flag="0"/>
			<psa30 value="0.00354233716245006" flag="0"/>
		</comp>
		<comp name="--.HNN" depth="0.0">
			<acc value="0.97848599687166" flag="0"/>
			<vel value="0.144292575097" flag="0"/>
			<psa03 value="0.345001875514412" flag="0"/>
			<psa10 value="0.0218046063231622" flag="0"/>
			<psa30 value="0.00243525861559652" flag="0"/>
		</comp>
		<comp name="--.HNZ" depth="0.0">
			<acc value="0.22243389122454" flag="0"/>
			<vel value="0.0416292134273" flag="0"/>
			<psa03 value="0.255640372420081" flag="0"/>
			<psa10 value="0.0281488415975899" flag="0"/>
			<psa30 value="0.00138645851274028" flag="0"/>
		</comp>
	</station>
	<station code="CSA" name="CSA" netid="IT" source="Italian Strong Motion Network (RAN)" insttype="" lat="43.008" lon="12.5906">
		<comp name="--.HGE" depth="0.0">
			<acc value="0.095580350424936" flag="0"/>
			<vel value="0.100315166507" flag="0"/>
			<psa03 value="0.194271723714727" flag="0"/>
			<psa10 value="0.157937827605785" flag="0"/>
			<psa30 value="0.0121952853777882" flag="0"/>
		</comp>
		<comp name="--.HGN" depth="0.0">
			<acc value="0.10659964367364" flag="0"/>
			<vel value="0.0967662724247" flag="0"/>
			<psa03 value="0.218818349808484" flag="0"/>
			<psa10 value="0.134459802302002" flag="0"/>
			<psa30 value="0.0129978093744295" flag="0"/>
		</comp>
		<comp name="--.HGZ" depth="0.0">
			<acc value="0.02891741774304" flag="0"/>
			<vel value="0.0311866019127" flag="0"/>
			<psa03 value="0.0560266177385235" flag="0"/>
			<psa10 value="0.0448659771508361" flag="0"/>
			<psa30 value="0.00400083295221567" flag="0"/>
		</comp>
	</station>
	<station code="CSN" name="CSN" netid="IT" source="Italian Strong Motion Network (RAN)" insttype="" lat="44.137" lon="12.2414">
		<comp name="--.HNE" depth="0.0">
			<acc value="0.21071866779216" flag="0"/>
			<vel value="0.0471218249707" flag="0"/>
			<psa03 value="0.318021109004465" flag="0"/>
			<psa10 value="0.0208859398410231" flag="0"/>
			<psa30 value="0.0011278466934749" flag="0"/>
		</comp>
		<comp name="--.HNN" depth="0.0">
			<acc value="0.10954834848402" flag="0"/>
			<vel value="0.0315224816731" flag="0"/>
			<psa03 value="0.302355258718806" flag="0"/>
			<psa10 value="0.021441809164619" flag="0"/>
			<psa30 value="0.00147640249191903" flag="0"/>
		</comp>
		<comp name="--.HNZ" depth="0.0">
			<acc value="0.10862807866578" flag="0"/>
			<vel value="0.0170328191462" flag="0"/>
			<psa03 value="0.0900798944343647" flag="0"/>
			<psa10 value="0.00824811452208966" flag="0"/>
			<psa30 value="0.000788914136690488" flag="0"/>
		</comp>
	</station>
	<station code="CTL" name="CTL" netid="IT" source="Italian Strong Motion Network (RAN)" insttype="" lat="43.955" lon="12.7358">
		<comp name="--.HNE" depth="0.0">
			<acc value="0.6310722989256" flag="0"/>
			<vel value="0.184670587412" flag="0"/>
			<psa03 value="0.994957661063443" flag="0"/>
			<psa10 value="0.119967117232737" flag="0"/>
			<psa30 value="0.00998179624502063" flag="0"/>
		</comp>
		<comp name="--.HNN" depth="0.0">
			<acc value="0.41609079295614" flag="0"/>
			<vel value="0.198538553803" flag="0"/>
			<psa03 value="0.782613594308221" flag="0"/>
			<psa10 value="0.117261320487143" flag="0"/>
			<psa30 value="0.0104919575406861" flag="0"/>
		</comp>
		<comp name="--.HNZ" depth="0.0">
			<acc value="0.24425795709984" flag="0"/>
			<vel value="0.0627180915281" flag="0"/>
			<psa03 value="0.193211465977846" flag="0"/>
			<psa10 value="0.0302881801932893" flag="0"/>
			<psa30 value="0.00178200263226107" flag="0"/>
		</comp>
	</station>
	<station code="FBR" name="FBR" netid="IT" source="Italian Strong Motion Network (RAN)" insttype="" lat="43.3436" lon="12.9119">
		<comp name="--.HGE" depth="0.0">
			<acc value="0.28092387371736" flag="0"/>
			<vel value="0.0961604849955" flag="0"/>
			<psa03 value="0.722302265647892" flag="0"/>
			<psa10 value="0.0345720514787478" flag="0"/>
			<psa30 value="0.00323132510109412" flag="0"/>
		</comp>
		<comp name="--.HGN" depth="0.0">
			<acc value="0.17688860266584" flag="0"/>
			<vel value="0.0674025439922" flag="0"/>
			<psa03 value="0.451264394051958" flag="0"/>
			<psa10 value="0.0395527226737559" flag="0"/>
			<psa30 value="0.00307889187814311" flag="0"/>
		</comp>
		<comp name="--.HGZ" depth="0.0">
			<acc value="0.1523296179999" flag="0"/>
			<vel value="0.0359786185074" flag="0"/>
			<psa03 value="0.112403800366906" flag="0"/>
			<psa10 value="0.0302770625818119" flag="0"/>
			<psa30 value="0.00164400911587058" flag="0"/>
		</comp>
	</station>
	<station code="FOC" name="FOC" netid="IT" source="Italian Strong Motion Network (RAN)" insttype="" lat="43.0263" lon="12.8965">
		<comp name="--.HNE" depth="0.0">
			<acc value="0.19329847414164" flag="0"/>
			<vel value="0.0530108671812" flag="0"/>
			<psa03 value="0.183035729385459" flag="0"/>
			<psa10 value="0.0241993030850541" flag="0"/>
			<psa30 value="0.00179191599730556" flag="0"/>
		</comp>
		<comp name="--.HNN" depth="0.0">
			<acc value="0.13786682518914" flag="0"/>
			<vel value="0.0400334763205" flag="0"/>
			<psa03 value="0.247999720431075" flag="0"/>
			<psa10 value="0.0212944150254759" flag="0"/>
			<psa30 value="0.00117441040309138" flag="0"/>
		</comp>
		<comp name="--.HNZ" depth="0.0">
			<acc value="0.085819408000098" flag="0"/>
			<vel value="0.0161806378957" flag="0"/>
			<psa03 value="0.0788463169314492" flag="0"/>
			<psa10 value="0.008940838849184" flag="0"/>
			<psa30 value="0.000950450045986501" flag="0"/>
		</comp>
	</station>
	<station code="FOCC" name="FOCC" netid="IT" source="Italian Strong Motion Network (RAN)" insttype="" lat="42.9574" lon="12.7079">
		<comp name="--.HNE" depth="0.0">
			<acc value="0.039865097600706" flag="0"/>
			<vel value="0.0221074414895" flag="0"/>
			<psa03 value="0.0878789257143466" flag="0"/>
			<psa10 value="0.037493903787099" flag="0"/>
			<psa30 value="0.00166909431930745" flag="0"/>
		</comp>
		<comp name="--.HNN" depth="0.0">
			<acc value="0.040999758097032" flag="0"/>
			<vel value="0.020066089955" flag="0"/>
			<psa03 value="0.0794648579068609" flag="0"/>
			<psa10 value="0.0303046756610151" flag="0"/>
			<psa30 value="0.00221469296253867" flag="0"/>
		</comp>
		<comp name="--.HNZ" depth="0.0">
			<acc value="0.02810848907562" flag="0"/>
			<vel value="0.0155760286964" flag="0"/>
			<psa03 value="0.0714388835172612" flag="0"/>
			<psa10 value="0.022725365443942" flag="0"/>
			<psa30 value="0.00123115509965054" flag="0"/>
		</comp>
	</station>
	<station code="FOS" name="FOS" netid="IT" source="Italian Strong Motion Network (RAN)" insttype="" lat="43.0146" lon="12.8351">
		<comp name="--.HNE" depth="0.0">
			<acc value="0.11705348546568" flag="0"/>
			<vel value="0.0448839715126" flag="0"/>
			<psa03 value="0.301070173588274" flag="0"/>
			<psa10 value="0.0454141884669147" flag="0"/>
			<psa30 value="0.00264812105002312" flag="0"/>
		</comp>
		<comp name="--.HNN" depth="0.0">
			<acc value="0.11026636096614" flag="0"/>
			<vel value="0.0373993476878" flag="0"/>
			<psa03 value="0.175609258251392" flag="0"/>
			<psa10 value="0.0299912561485442" flag="0"/>
			<psa30 value="0.0015521111530802" flag="0"/>
		</comp>
		<comp name="--.HNZ" depth="0.0">
			<acc value="0.07186203875697" flag="0"/>
			<vel value="0.0201371965753" flag="0"/>
			<psa03 value="0.142540338431023" flag="0"/>
			<psa10 value="0.0229561351062686" flag="0"/>
			<psa30 value="0.00131470365516619" flag="0"/>
		</comp>
	</station>
	<station code="FSS" name="FSS" netid="IT" source="Italian Strong Motion Network (RAN)" insttype="" lat="43.6905" lon="12.8101">
		<comp name="--.HGE" depth="0.0">
			<acc value="1.1124496996284" flag="0"/>
			<vel value="0.141600637436" flag="0"/>
			<psa03 value="0.261466091678642" flag="0"/>
			<psa10 value="0.0289967240156506" flag="0"/>
			<psa30 value="0.00253867713323302" flag="0"/>
		</comp>
		<comp name="--.HGN" depth="0.0">
			<acc value="0.73777975616982" flag="0"/>
			<vel value="0.163765078116" flag="0"/>
			<psa03 value="0.440780157855476" flag="0"/>
			<psa10 value="0.0352419283547913" flag="0"/>
			<psa30 value="0.00292891048427636" flag="0"/>
		</comp>
		<comp name="--.HGZ" depth="0.0">
			<acc value="0.72743059001526" flag="0"/>
			<vel value="0.0868845868386" flag="0"/>
			<psa03 value="0.31497465719199" flag="0"/>
			<psa10 value="0.0216429518643429" flag="0"/>
			<psa30 value="0.00257764513133818" flag="0"/>
		</comp>
	</station>
	<station code="GBB" name="GBB" netid="IT" source="Italian Strong Motion Network (RAN)" insttype="" lat="43.3569" lon="12.5972">
		<comp name="--.HGE" depth="0.0">
			<acc value="0.47351386789602" flag="0"/>
			<vel value="0.208314535471" flag="0"/>
			<psa03 value="1.3340442072167" flag="0"/>
			<psa10 value="0.0474392176153174" flag="0"/>
			<psa30 value="0.00468002752886638" flag="0"/>
		</comp>
		<comp name="--.HGN" depth="0.0">
			<acc value="0.45549359751816" flag="0"/>
			<vel value="0.154457123577" flag="0"/>
			<psa03 value="0.609315530831892" flag="0"/>
			<psa10 value="0.0469841212176246" flag="0"/>
			<psa30 value="0.00429220308739081" flag="0"/>
		</comp>
		<comp name="--.HGZ" depth="0.0">
			<acc value="0.33950096528424" flag="0"/>
			<vel value="0.0833647747774" flag="0"/>
			<psa03 value="0.432846840645628" flag="0"/>
			<psa10 value="0.0381590065969142" flag="0"/>
			<psa30 value="0.00243699560566704" flag="0"/>
		</comp>
	</station>
	<station code="GBP" name="GBP" netid="IT" source="Italian Strong Motion Network (RAN)" insttype="" lat="43.3138" lon="12.5894">
		<comp name="--.HGE" depth="0.0">
			<acc value="0.24145493882316" flag="0"/>
			<vel value="0.138023509235" flag="0"/>
			<psa03 value="0.454132959077668" flag="0"/>
			<psa10 value="0.126132210640033" flag="0"/>
			<psa30 value="0.0099166627635528" flag="0"/>
		</comp>
		<comp name="--.HGN" depth="0.0">
			<acc value="0.3705642847272" flag="0"/>
			<vel value="0.194745457667" flag="0"/>
			<psa03 value="0.60940466173248" flag="0"/>
			<psa10 value="0.136499742437956" flag="0"/>
			<psa30 value="0.0143127764845537" flag="0"/>
		</comp>
		<comp name="--.HGZ" depth="0.0">
			<acc value="0.1338180328674" flag="0"/>
			<vel value="0.0654279741489" flag="0"/>
			<psa03 value="0.180748432030103" flag="0"/>
			<psa10 value="0.0554618690764432" flag="0"/>
			<psa30 value="0.00625578691517717" flag="0"/>
		</comp>
	</station>
	<station code="GBSL" name="GBSL" netid="IT" source="Italian Strong Motion Network (RAN)" insttype="" lat="43.3558" lon="12.5717">
		<comp name="--.HNE" depth="0.0">
			<acc value="0.32016298705554" flag="0"/>
			<vel value="0.159508040978" flag="0"/>
			<psa03 value="0.836764848229427" flag="0"/>
			<psa10 value="0.0494648468034217" flag="0"/>
			<psa30 value="0.00524037381570949" flag="0"/>
		</comp>
		<comp name="--.HNN" depth="0.0">
			<acc value="0.28622647911216" flag="0"/>
			<vel value="0.126744729442" flag="0"/>
			<psa03 value="0.596252207113867" flag="0"/>
			<psa10 value="0.0491195989325216" flag="0"/>
