<?xml version="1.0" encoding="UTF-8" standalone="yes"?>
<!DOCTYPE earthquake SYSTEM "stationlist.dtd">
<stationlist created="" xmlns="ch.ethz.sed.shakemap.usgs.xml">
  <station code="AOI" name="AOI" netid="IV" insttype="" lat="43.5502" lon="13.602">
    <comp name="--.HHE">
      <acc value="0.1716547324" flag="0"/>
      <vel value="0.0312818901" flag="0"/>
      <psa03 value="0.1616848721" flag="0"/>
      <psa10 value="0.0099561958" flag="0"/>
      <psa30 value="0.0015048494" flag="0"/>
    </comp>
    <comp name="--.HHZ">
      <acc value="0.0779496311" flag="0"/>
      <vel value="0.0225359819" flag="0"/>
      <psa03 value="0.1418897471" flag="0"/>
      <psa10 value="0.0112978791" flag="0"/>
      <psa30 value="0.0006543317" flag="0"/>
    </comp>
    <comp name="--.HHN">
      <acc value="0.2523808718" flag="0"/>
      <vel value="0.0639050831" flag="0"/>
      <psa03 value="0.3047860311" flag="0"/>
      <psa10 value="0.0221054507" flag="0"/>
      <psa30 value="0.0020760956" flag="0"/>
    </comp>
  </station>
  <station code="APEC" name="APEC" netid="IV" insttype="" lat="43.5585" lon="12.4199">
    <comp name="--.HHE">
      <acc value="0.1893199992" flag="0"/>
      <vel value="0.0830311981" flag="0"/>
      <psa03 value="0.5019413003" flag="0"/>
      <psa10 value="0.0568108564" flag="0"/>
      <psa30 value="0.0038929051" flag="0"/>
    </comp>
    <comp name="--.HHN">
      <acc value="0.3524803290" flag="0"/>
      <vel value="0.1195594890" flag="0"/>
      <psa03 value="0.7427452623" flag="0"/>
      <psa10 value="0.0440206318" flag="0"/>
      <psa30 value="0.0037046950" flag="0"/>
    </comp>
    <comp name="--.HHZ">
      <acc value="0.1330075140" flag="0"/>
      <vel value="0.0680314040" flag="0"/>
      <psa03 value="0.3825823911" flag="0"/>
      <psa10 value="0.0348818552" flag="0"/>
      <psa30 value="0.0030957840" flag="0"/>
    </comp>
  </station>
  <station code="ARVD" name="ARVD" netid="IV" insttype="" lat="43.4981" lon="12.9415">
    <comp name="--.HHE">
      <acc value="0.2283373956" flag="0"/>
      <vel value="0.0532335018" flag="0"/>
      <psa03 value="0.1338938567" flag="0"/>
      <psa10 value="0.0194889335" flag="0"/>
      <psa30 value="0.0018764878" flag="0"/>
    </comp>
    <comp name="--.HHN">
      <acc value="0.1931165454" flag="0"/>
      <vel value="0.0532929397" flag="0"/>
      <psa03 value="0.1687849674" flag="0"/>
      <psa10 value="0.0212304447" flag="0"/>
      <psa30 value="0.0016255264" flag="0"/>
    </comp>
    <comp name="--.HHZ">
      <acc value="0.1944354994" flag="0"/>
      <vel value="0.0485927129" flag="0"/>
      <psa03 value="0.1874220957" flag="0"/>
      <psa10 value="0.0166033286" flag="0"/>
      <psa30 value="0.0012106831" flag="0"/>
    </comp>
  </station>
  <station code="ASQU" name="ASQU" netid="IV" insttype="" lat="43.7967" lon="11.7893">
    <comp name="--.HHE">
      <acc value="0.0330161986" flag="0"/>
      <vel value="0.0221281572" flag="0"/>
      <psa03 value="0.0897631521" flag="0"/>
      <psa10 value="0.0172008918" flag="0"/>
      <psa30 value="0.0016693993" flag="0"/>
    </comp>
    <comp name="--.HHN">
      <acc value="0.0344927567" flag="0"/>
      <vel value="0.0189207920" flag="0"/>
      <psa03 value="0.0898199073" flag="0"/>
      <psa10 value="0.0252476870" flag="0"/>
      <psa30 value="0.0017105548" flag="0"/>
    </comp>
    <comp name="--.HHZ">
      <acc value="0.0308783825" flag="0"/>
      <vel value="0.0087787867" flag="0"/>
      <psa03 value="0.0449707788" flag="0"/>
      <psa10 value="0.0088918407" flag="0"/>
      <psa30 value="0.0008243823" flag="0"/>
    </comp>
  </station>
  <station code="ASSB" name="ASSB" netid="IV" insttype="" lat="43.0426" lon="12.6587">
    <comp name="--.HHE">
      <acc value="0.0624988406" flag="0"/>
      <vel value="0.0289696354" flag="0"/>
      <psa03 value="0.1531732309" flag="0"/>
      <psa10 value="0.0192753156" flag="0"/>
      <psa30 value="0.0019710245" flag="0"/>
    </comp>
    <comp name="--.HHN">
      <acc value="0.0535339148" flag="0"/>
      <vel value="0.0235526482" flag="0"/>
      <psa03 value="0.1048304655" flag="0"/>
      <psa10 value="0.0118502086" flag="0"/>
      <psa30 value="0.0007120665" flag="0"/>
    </comp>
    <comp name="--.HHZ">
      <acc value="0.0252642217" flag="0"/>
      <vel value="0.0103199810" flag="0"/>
      <psa03 value="0.0574480582" flag="0"/>
      <psa10 value="0.0069822087" flag="0"/>
      <psa30 value="0.0016686336" flag="0"/>
    </comp>
  </station>
  <station code="ATBU" name="ATBU" netid="IV" insttype="" lat="43.4757" lon="12.5483">
    <comp name="--.HNE">
      <acc value="0.2161281225" flag="0"/>
      <vel value="0.0743679269" flag="0"/>
      <psa03 value="0.7053616721" flag="0"/>
      <psa10 value="0.0482799901" flag="0"/>
      <psa30 value="0.0037434684" flag="0"/>
    </comp>
    <comp name="--.HNN">
      <acc value="0.2656730991" flag="0"/>
      <vel value="0.0922362945" flag="0"/>
      <psa03 value="0.6700710500" flag="0"/>
      <psa10 value="0.0717332021" flag="0"/>
      <psa30 value="0.0047948137" flag="0"/>
    </comp>
    <comp name="--.HNZ">
      <acc value="0.0832274740" flag="0"/>
      <vel value="0.0327369872" flag="0"/>
      <psa03 value="0.1683704214" flag="0"/>
      <psa10 value="0.0453463261" flag="0"/>
      <psa30 value="0.0032907956" flag="0"/>
    </comp>
  </station>
  <station code="ATCC" name="ATCC" netid="IV" insttype="" lat="43.1851" lon="12.6399">
    <comp name="--.HNE">
      <acc value="0.2740024628" flag="0"/>
      <vel value="0.0680031272" flag="0"/>
      <psa03 value="0.2019752778" flag="0"/>
      <psa10 value="0.0492297371" flag="0"/>
      <psa30 value="0.0022880792" flag="0"/>
    </comp>
    <comp name="--.HNN">
      <acc value="0.1372147652" flag="0"/>
      <vel value="0.0405155376" flag="0"/>
      <psa03 value="0.1994556027" flag="0"/>
      <psa10 value="0.0317031900" flag="0"/>
      <psa30 value="0.0021884544" flag="0"/>
    </comp>
    <comp name="--.HNZ">
      <acc value="0.0629426493" flag="0"/>
      <vel value="0.0285848862" flag="0"/>
      <psa03 value="0.1428865946" flag="0"/>
      <psa10 value="0.0253289661" flag="0"/>
      <psa30 value="0.0019442447" flag="0"/>
    </comp>
  </station>
  <station code="ATFO" name="ATFO" netid="IV" insttype="" lat="43.3666" lon="12.5715">
    <comp name="--.HHE">
      <acc value="0.2487329908" flag="0"/>
      <vel value="0.1099434410" flag="0"/>
      <psa03 value="0.8642153693" flag="0"/>
      <psa10 value="0.0643741176" flag="0"/>
      <psa30 value="0.0063088041" flag="0"/>
    </comp>
    <comp name="--.HHZ">
      <acc value="0.1311533464" flag="0"/>
      <vel value="0.0545726220" flag="0"/>
      <psa03 value="0.2804054921" flag="0"/>
      <psa10 value="0.0226299499" flag="0"/>
      <psa30 value="0.0020114200" flag="0"/>
    </comp>
    <comp name="--.HHN">
      <acc value="0.2841044371" flag="0"/>
      <vel value="0.1209556688" flag="0"/>
      <psa03 value="0.9679038046" flag="0"/>
      <psa10 value="0.0608449291" flag="0"/>
      <psa30 value="0.0053025588" flag="0"/>
    </comp>
  </station>
  <station code="ATLO" name="ATLO" netid="IV" insttype="" lat="43.3152" lon="12.4073">
    <comp name="--.HNN">
      <acc value="0.0535107782" flag="0"/>
      <vel value="0.0175246820" flag="0"/>
      <psa03 value="0.0821059932" flag="0"/>
      <psa10 value="0.0139122661" flag="0"/>
      <psa30 value="0.0012049594" flag="0"/>
    </comp>
    <comp name="--.HNE">
      <acc value="0.0477306805" flag="0"/>
      <vel value="0.0281153613" flag="0"/>
      <psa03 value="0.1478116226" flag="0"/>
      <psa10 value="0.0170298040" flag="0"/>
      <psa30 value="0.0014968077" flag="0"/>
    </comp>
    <comp name="--.HNZ">
      <acc value="0.0124342287" flag="0"/>
      <vel value="0.0035863851" flag="0"/>
      <psa03 value="0.0148120856" flag="0"/>
      <psa10 value="0.0044300202" flag="0"/>
      <psa30 value="0.0004343052" flag="0"/>
    </comp>
  </station>
  <station code="ATMI" name="ATMI" netid="IV" insttype="" lat="43.3342" lon="12.268">
    <comp name="--.HHE">
      <acc value="0.0554347140" flag="0"/>
      <vel value="0.0276613013" flag="0"/>
      <psa03 value="0.1378010806" flag="0"/>
      <psa10 value="0.0468850056" flag="0"/>
      <psa30 value="0.0031662498" flag="0"/>
    </comp>
    <comp name="--.HHN">
      <acc value="0.0607071677" flag="0"/>
      <vel value="0.0379271550" flag="0"/>
      <psa03 value="0.1735494143" flag="0"/>
      <psa10 value="0.0420425450" flag="0"/>
      <psa30 value="0.0027288991" flag="0"/>
    </comp>
    <comp name="--.HHZ">
      <acc value="0.0552508255" flag="0"/>
      <vel value="0.0385845736" flag="0"/>
      <psa03 value="0.1275774706" flag="0"/>
      <psa10 value="0.0466480608" flag="0"/>
      <psa30 value="0.0029249772" flag="0"/>
    </comp>
  </station>
  <station code="ATPC" name="ATPC" netid="IV" insttype="" lat="43.4807" lon="12.457">
    <comp name="--.HHE">
      <acc value="0.3415244682" flag="0"/>
      <vel value="0.1395230672" flag="0"/>
      <psa03 value="0.7497536751" flag="0"/>
      <psa10 value="0.1121981530" flag="0"/>
      <psa30 value="0.0062063439" flag="0"/>
    </comp>
    <comp name="--.HHN">
      <acc value="0.1953712740" flag="0"/>
      <vel value="0.0864925604" flag="0"/>
      <psa03 value="0.3684870112" flag="0"/>
      <psa10 value="0.0450117558" flag="0"/>
      <psa30 value="0.0042163758" flag="0"/>
    </comp>
    <comp name="--.HHZ">
      <acc value="0.1039113056" flag="0"/>
      <vel value="0.0357232537" flag="0"/>
      <psa03 value="0.1758991224" flag="0"/>
      <psa10 value="0.0336842261" flag="0"/>
      <psa30 value="0.0025575681" flag="0"/>
    </comp>
  </station>
  <station code="ATPI" name="ATPI" netid="IV" insttype="" lat="43.4507" lon="12.4022">
    <comp name="--.HNN">
      <acc value="0.0963015296" flag="0"/>
      <vel value="0.0644167606" flag="0"/>
      <psa03 value="0.2791707580" flag="0"/>
      <psa10 value="0.0323441589" flag="0"/>
      <psa30 value="0.0035770599" flag="0"/>
    </comp>
    <comp name="--.HNE">
      <acc value="0.0877659074" flag="0"/>
      <vel value="0.0669734222" flag="0"/>
      <psa03 value="0.3194175615" flag="0"/>
      <psa10 value="0.0508394676" flag="0"/>
      <psa30 value="0.0039633716" flag="0"/>
    </comp>
    <comp name="--.HNZ">
      <acc value="0.0666979726" flag="0"/>
      <vel value="0.0261096209" flag="0"/>
      <psa03 value="0.1492817779" flag="0"/>
      <psa10 value="0.0443400690" flag="0"/>
      <psa30 value="0.0027718502" flag="0"/>
    </comp>
  </station>
  <station code="ATVO" name="ATVO" netid="IV" insttype="" lat="43.3821" lon="12.4066">
    <comp name="--.HHE">
      <acc value="0.0731195599" flag="0"/>
      <vel value="0.0332500206" flag="0"/>
      <psa03 value="0.1883137532" flag="0"/>
      <psa10 value="0.0381524151" flag="0"/>
      <psa30 value="0.0024594935" flag="0"/>
    </comp>
    <comp name="--.HHZ">
      <acc value="0.0402606326" flag="0"/>
      <vel value="0.0156016679" flag="0"/>
      <psa03 value="0.0807536944" flag="0"/>
      <psa10 value="0.0170697893" flag="0"/>
      <psa30 value="0.0029218900" flag="0"/>
    </comp>
    <comp name="--.HHN">
      <acc value="0.0527180404" flag="0"/>
      <vel value="0.0274882356" flag="0"/>
      <psa03 value="0.1292091365" flag="0"/>
      <psa10 value="0.0373277294" flag="0"/>
      <psa30 value="0.0017126056" flag="0"/>
    </comp>
  </station>
  <station code="BOSL" name="BOSL" netid="IV" insttype="" lat="43.931" lon="11.3743">
    <comp name="--.HHE">
      <acc value="0.0027963142" flag="0"/>
      <vel value="0.0015658228" flag="0"/>
      <psa03 value="0.0085903906" flag="0"/>
      <psa10 value="0.0034477509" flag="0"/>
      <psa30 value="0.0001639883" flag="0"/>
    </comp>
    <comp name="--.HHN">
      <acc value="0.0042096871" flag="0"/>
      <vel value="0.0021778603" flag="0"/>
      <psa03 value="0.0149695830" flag="0"/>
      <psa10 value="0.0022535406" flag="0"/>
      <psa30 value="0.0001600255" flag="0"/>
    </comp>
    <comp name="--.HHZ">
      <acc value="0.0025019047" flag="0"/>
      <vel value="0.0011235131" flag="0"/>
      <psa03 value="0.0052438732" flag="0"/>
      <psa10 value="0.0018159321" flag="0"/>
      <psa30 value="0.0001173764" flag="0"/>
    </comp>
  </station>
  <station code="BRIS" name="BRIS" netid="IV" insttype="" lat="44.2245" lon="11.7666">
    <comp name="--.HHE">
      <acc value="0.0287307803" flag="0"/>
      <vel value="0.0092220979" flag="0"/>
      <psa03 value="0.0594023201" flag="0"/>
      <psa10 value="0.0074824037" flag="0"/>
      <psa30 value="0.0009558796" flag="0"/>
    </comp>
    <comp name="--.HHN">
      <acc value="0.0314233583" flag="0"/>
      <vel value="0.0110387066" flag="0"/>
      <psa03 value="0.0501791296" flag="0"/>
      <psa10 value="0.0094391574" flag="0"/>
      <psa30 value="0.0007433117" flag="0"/>
    </comp>
    <comp name="--.HHZ">
      <acc value="0.0210576223" flag="0"/>
      <vel value="0.0083990711" flag="0"/>
      <psa03 value="0.0447074342" flag="0"/>
      <psa10 value="0.0086270457" flag="0"/>
      <psa30 value="0.0005431155" flag="0"/>
    </comp>
  </station>
  <station code="CAFI" name="CAFI" netid="IV" insttype="" lat="43.3292" lon="11.9663">
    <comp name="--.HHZ">
      <acc value="0.0417656969" flag="0"/>
      <vel value="0.0187873449" flag="0"/>
      <psa03 value="0.0463059051" flag="0"/>
      <psa10 value="0.0151274975" flag="0"/>
      <psa30 value="0.0014956983" flag="0"/>
    </comp>
    <comp name="--.HHN">
      <acc value="0.0391388969" flag="0"/>
      <vel value="0.0253958439" flag="0"/>
      <psa03 value="0.0568726124" flag="0"/>
      <psa10 value="0.0304825060" flag="0"/>
      <psa30 value="0.0014636724" flag="0"/>
    </comp>
    <comp name="--.HHE">
      <acc value="0.0246296325" flag="0"/>
      <vel value="0.0145265588" flag="0"/>
      <psa03 value="0.0477093438" flag="0"/>
      <psa10 value="0.0135635194" flag="0"/>
      <psa30 value="0.0008371758" flag="0"/>
    </comp>
  </station>
  <station code="CDCA" name="CDCA" netid="IV" insttype="" lat="43.4584" lon="12.2336">
    <comp name="--.HNE">
      <acc value="0.1317467900" flag="0"/>
      <vel value="0.0571643299" flag="0"/>
      <psa03 value="0.2505215088" flag="0"/>
      <psa10 value="0.0820543138" flag="0"/>
      <psa30 value="0.0057428408" flag="0"/>
    </comp>
    <comp name="--.HNN">
      <acc value="0.1575612211" flag="0"/>
      <vel value="0.1012315790" flag="0"/>
      <psa03 value="0.3946170131" flag="0"/>
      <psa10 value="0.1527408942" flag="0"/>
      <psa30 value="0.0064250923" flag="0"/>
    </comp>
    <comp name="--.HNZ">
      <acc value="0.1514705240" flag="0"/>
      <vel value="0.0731885176" flag="0"/>
      <psa03 value="0.2628080763" flag="0"/>
      <psa10 value="0.0911616524" flag="0"/>
      <psa30 value="0.0051650212" flag="0"/>
    </comp>
  </station>
  <station code="CESI" name="CESI" netid="IV" insttype="" lat="43.0049" lon="12.9046">
    <comp name="--.HHE">
      <acc value="0.0656661129" flag="0"/>
      <vel value="0.0265516327" flag="0"/>
      <psa03 value="0.1299502575" flag="0"/>
      <psa10 value="0.0304316428" flag="0"/>
      <psa30 value="0.0021242903" flag="0"/>
    </comp>
    <comp name="--.HHN">
      <acc value="0.0555023368" flag="0"/>
      <vel value="0.0226240197" flag="0"/>
      <psa03 value="0.1756762967" flag="0"/>
      <psa10 value="0.0256230899" flag="0"/>
      <psa30 value="0.0010389415" flag="0"/>
    </comp>
    <comp name="--.HHZ">
      <acc value="0.0429211678" flag="0"/>
      <vel value="0.0194114315" flag="0"/>
      <psa03 value="0.1467229836" flag="0"/>
      <psa10 value="0.0197308545" flag="0"/>
      <psa30 value="0.0011955354" flag="0"/>
    </comp>
  </station>
  <station code="CING" name="CING" netid="IV" insttype="" lat="43.3756" lon="13.1954">
    <comp name="--.HHE">
      <acc value="0.0822512031" flag="0"/>
      <vel value="0.0196605534" flag="0"/>
      <psa03 value="0.0839182333" flag="0"/>
      <psa10 value="0.0066229072" flag="0"/>
      <psa30 value="0.0006619310" flag="0"/>
    </comp>
    <comp name="--.HHN">
      <acc value="0.0846234501" flag="0"/>
      <vel value="0.0186929320" flag="0"/>
      <psa03 value="0.0632048726" flag="0"/>
      <psa10 value="0.0078792418" flag="0"/>
      <psa30 value="0.0006144814" flag="0"/>
    </comp>
    <comp name="--.HHZ">
      <acc value="0.0494487470" flag="0"/>
      <vel value="0.0135759012" flag="0"/>
      <psa03 value="0.0875890670" flag="0"/>
      <psa10 value="0.0061908894" flag="0"/>
      <psa30 value="0.0004897510" flag="0"/>
    </comp>
  </station>
  <station code="COR1" name="COR1" netid="IV" insttype="" lat="43.6318" lon="13.0003">
    <comp name="--.HNE">
      <acc value="0.9004780692" flag="0"/>
      <vel value="0.4614303611" flag="0"/>
      <psa03 value="1.3857799360" flag="0"/>
      <psa10 value="0.2192235499" flag="0"/>
      <psa30 value="0.0149496418" flag="0"/>
    </comp>
    <comp name="--.HNN">
      <acc value="0.7126672295" flag="0"/>
      <vel value="0.2429550828" flag="0"/>
      <psa03 value="1.2884359487" flag="0"/>
      <psa10 value="0.0963543822" flag="0"/>
      <psa30 value="0.0063652998" flag="0"/>
    </comp>
    <comp name="--.HNZ">
      <acc value="0.2030883703" flag="0"/>
      <vel value="0.0672345117" flag="0"/>
      <psa03 value="0.4747687632" flag="0"/>
      <psa10 value="0.0611328370" flag="0"/>
      <psa30 value="0.0030198719" flag="0"/>
    </comp>
  </station>
  <station code="CRE" name="CRE" netid="IV" insttype="" lat="43.6189" lon="11.9517">
    <comp name="--.HHE">
      <acc value="0.0307475704" flag="0"/>
      <vel value="0.0204592757" flag="0"/>
      <psa03 value="0.1196275714" flag="0"/>
      <psa10 value="0.0220916835" flag="0"/>
      <psa30 value="0.0015138963" flag="0"/>
    </comp>
    <comp name="--.HHN">
      <acc value="0.0613975075" flag="0"/>
      <vel value="0.0338632027" flag="0"/>
      <psa03 value="0.1803441448" flag="0"/>
      <psa10 value="0.0351452373" flag="0"/>
      <psa30 value="0.0026088075" flag="0"/>
    </comp>
    <comp name="--.HHZ">
      <acc value="0.0519723141" flag="0"/>
      <vel value="0.0221971067" flag="0"/>
      <psa03 value="0.0870648208" flag="0"/>
      <psa10 value="0.0153341335" flag="0"/>
      <psa30 value="0.0020422244" flag="0"/>
    </comp>
  </station>
  <station code="CRTC" name="CRTC" netid="IV" insttype="" lat="43.7685" lon="12.883">
    <comp name="--.HHN">
      <acc value="1.8979839849" flag="0"/>
      <vel value="0.7719478291" flag="0"/>
      <psa03 value="2.7700690824" flag="0"/>
      <psa10 value="0.1990799530" flag="0"/>
      <psa30 value="0.0200424605" flag="0"/>
    </comp>
    <comp name="--.HHE">
      <acc value="1.1509619779" flag="0"/>
      <vel value="0.7511590128" flag="0"/>
      <psa03 value="3.6478372537" flag="0"/>
      <psa10 value="0.2841200220" flag="0"/>
      <psa30 value="0.0242106914" flag="0"/>
    </comp>
    <comp name="--.HHZ">
      <acc value="0.8665182764" flag="0"/>
      <vel value="0.2682931085" flag="0"/>
      <psa03 value="1.1283374504" flag="0"/>
      <psa10 value="0.0572669440" flag="0"/>
      <psa30 value="0.0047032722" flag="0"/>
    </comp>
  </station>
  <station code="FANO" name="FANO" netid="IV" insttype="" lat="43.8435" lon="13.0184">
    <comp name="--.HNE">
      <acc value="1.5109918933" flag="0"/>
      <vel value="0.7778902036" flag="0"/>
      <psa03 value="3.1947459274" flag="0"/>
      <psa10 value="0.2697934902" flag="0"/>
      <psa30 value="0.0253988121" flag="0"/>
    </comp>
    <comp name="--.HNN">
      <acc value="0.6648600326" flag="0"/>
      <vel value="0.2148292541" flag="0"/>
      <psa03 value="0.8993490970" flag="0"/>
      <psa10 value="0.1890343861" flag="0"/>
      <psa30 value="0.0155279082" flag="0"/>
    </comp>
