<stationlist created="1641763084">
	<station code="0REN" name="0REN" netid="IT" source="Italian Strong Motion Network (RAN)" insttype="" lat="43.5461997986" lon="12.263999939">
		<comp name="00.HNE" depth="0.0">
			<acc value="0.0489597060507" flag="0"/>
			<vel value="0.0271573822106" flag="0"/>
			<psa03 value="0.115438168045" flag="0"/>
			<psa10 value="0.0178980625338" flag="0"/>
			<psa30 value="0.00175353282961" flag="0"/>
		</comp>
		<comp name="00.HNN" depth="0.0">
			<acc value="0.0935539974021" flag="0"/>
			<vel value="0.0430020504139" flag="0"/>
			<psa03 value="0.211672459762" flag="0"/>
			<psa10 value="0.0192797759406" flag="0"/>
			<psa30 value="0.0025827860969" flag="0"/>
		</comp>
		<comp name="00.HNZ" depth="0.0">
			<acc value="0.047690006403" flag="0"/>
			<vel value="0.022885177472" flag="0"/>
			<psa03 value="0.12069854777" flag="0"/>
			<psa10 value="0.0196478346976" flag="0"/>
			<psa30 value="0.00214117330056" flag="0"/>
		</comp>
	</station>
	<station code="ANB" name="ANB" netid="IT" source="Italian Strong Motion Network (RAN)" insttype="" lat="43.59229" lon="13.507411">
		<comp name="00.HGE" depth="0.0">
			<acc value="0.670060317701" flag="0"/>
			<vel value="0.304422935202" flag="0"/>
			<psa03 value="0.75423621445" flag="0"/>
			<psa10 value="0.168158649685" flag="0"/>
			<psa30 value="0.0127736470248" flag="0"/>
		</comp>
		<comp name="00.HGN" depth="0.0">
			<acc value="0.655158357534" flag="0"/>
			<vel value="0.150266558738" flag="0"/>
			<psa03 value="0.624258187374" flag="0"/>
			<psa10 value="0.0838836293788" flag="0"/>
			<psa30 value="0.00568452907214" flag="0"/>
		</comp>
		<comp name="00.HGZ" depth="0.0">
			<acc value="0.355496677419" flag="0"/>
			<vel value="0.107589905991" flag="0"/>
			<psa03 value="0.446732843859" flag="0"/>
			<psa10 value="0.0386604523152" flag="0"/>
			<psa30 value="0.00421232446249" flag="0"/>
		</comp>
	</station>
	<station code="APNO" name="APNO" netid="IT" source="Italian Strong Motion Network (RAN)" insttype="" lat="43.3638000488" lon="13.3451004028">
		<comp name="00.HNE" depth="0.0">
			<acc value="0.29891142359" flag="0"/>
			<vel value="0.0998870879373" flag="0"/>
			<psa03 value="0.563136638371" flag="0"/>
			<psa10 value="0.0501110671123" flag="0"/>
			<psa30 value="0.00362864037962" flag="0"/>
		</comp>
		<comp name="00.HNN" depth="0.0">
			<acc value="0.434547688852" flag="0"/>
			<vel value="0.109498137989" flag="0"/>
			<psa03 value="0.389400420867" flag="0"/>
			<psa10 value="0.0464439541839" flag="0"/>
			<psa30 value="0.0036622063532" flag="0"/>
		</comp>
		<comp name="00.HNZ" depth="0.0">
			<acc value="0.18486906888" flag="0"/>
			<vel value="0.0392987115742" flag="0"/>
			<psa03 value="0.270544838935" flag="0"/>
			<psa10 value="0.0155756030573" flag="0"/>
			<psa30 value="0.00169439089091" flag="0"/>
		</comp>
	</station>
	<station code="BDT" name="BDT" netid="IT" source="Italian Strong Motion Network (RAN)" insttype="" lat="43.706772" lon="12.188036">
		<comp name="00.HNE" depth="0.0">
			<acc value="0.199173396146" flag="0"/>
			<vel value="0.122687399732" flag="0"/>
			<psa03 value="0.429230559418" flag="0"/>
			<psa10 value="0.112008955044" flag="0"/>
			<psa30 value="0.00697483204838" flag="0"/>
		</comp>
		<comp name="00.HNN" depth="0.0">
			<acc value="0.242751921756" flag="0"/>
			<vel value="0.14551908861" flag="0"/>
			<psa03 value="0.672328955161" flag="0"/>
			<psa10 value="0.0936820909787" flag="0"/>
			<psa30 value="0.00549310055762" flag="0"/>
		</comp>
		<comp name="00.HNZ" depth="0.0">
			<acc value="0.131501518696" flag="0"/>
			<vel value="0.0650267443063" flag="0"/>
			<psa03 value="0.243635910517" flag="0"/>
			<psa10 value="0.0420410200114" flag="0"/>
			<psa30 value="0.0025921171317" flag="0"/>
		</comp>
	</station>
	<station code="BGR" name="BGR" netid="IT" source="Italian Strong Motion Network (RAN)" insttype="" lat="43.889511" lon="11.991291">
		<comp name="00.HGE" depth="0.0">
			<acc value="0.0944584121509" flag="0"/>
			<vel value="0.0392663014025" flag="0"/>
			<psa03 value="0.185723428265" flag="0"/>
			<psa10 value="0.0147898406919" flag="0"/>
			<psa30 value="0.00230808664941" flag="0"/>
		</comp>
		<comp name="00.HGN" depth="0.0">
			<acc value="0.060418323842" flag="0"/>
			<vel value="0.0247751234362" flag="0"/>
			<psa03 value="0.137782908692" flag="0"/>
			<psa10 value="0.0160112656678" flag="0"/>
			<psa30 value="0.00127955716022" flag="0"/>
		</comp>
		<comp name="00.HGZ" depth="0.0">
			<acc value="0.0280825255004" flag="0"/>
			<vel value="0.0149889117591" flag="0"/>
			<psa03 value="0.0598618770138" flag="0"/>
			<psa10 value="0.0202795434202" flag="0"/>
			<psa30 value="0.00175797687401" flag="0"/>
		</comp>
	</station>
	<station code="CLF" name="CLF" netid="IT" source="Italian Strong Motion Network (RAN)" insttype="" lat="43.036714" lon="12.920428">
		<comp name="00.HGE" depth="0.0">
			<acc value="0.119599015841" flag="0"/>
			<vel value="0.106032708977" flag="0"/>
			<psa03 value="0.190589396446" flag="0"/>
			<psa10 value="0.171892052005" flag="0"/>
			<psa30 value="0.00567668355242" flag="0"/>
		</comp>
		<comp name="00.HGN" depth="0.0">
			<acc value="0.0724216824981" flag="0"/>
			<vel value="0.043719863793" flag="0"/>
			<psa03 value="0.224393760819" flag="0"/>
			<psa10 value="0.115017591851" flag="0"/>
			<psa30 value="0.00291104721759" flag="0"/>
		</comp>
		<comp name="00.HGZ" depth="0.0">
			<acc value="0.0907683877189" flag="0"/>
			<vel value="0.0427323235875" flag="0"/>
			<psa03 value="0.180904984067" flag="0"/>
			<psa10 value="0.0407318532852" flag="0"/>
			<psa30 value="0.00199255491365" flag="0"/>
		</comp>
	</station>
	<station code="CMRN" name="CMRN" netid="IT" source="Italian Strong Motion Network (RAN)" insttype="" lat="43.139198" lon="13.0718">
		<comp name="00.HNE" depth="0.0">
			<acc value="0.137229470823" flag="0"/>
			<vel value="0.047952076976" flag="0"/>
			<psa03 value="0.337748728362" flag="0"/>
			<psa10 value="0.0644590150936" flag="0"/>
			<psa30 value="0.00335650735214" flag="0"/>
		</comp>
		<comp name="00.HNN" depth="0.0">
			<acc value="0.166010769489" flag="0"/>
			<vel value="0.0732338978948" flag="0"/>
			<psa03 value="0.264306384001" flag="0"/>
			<psa10 value="0.0424424128514" flag="0"/>
			<psa30 value="0.00259274071468" flag="0"/>
		</comp>
		<comp name="00.HNZ" depth="0.0">
			<acc value="0.0532134248435" flag="0"/>
			<vel value="0.0238285033157" flag="0"/>
			<psa03 value="0.159270727987" flag="0"/>
			<psa10 value="0.0154016665348" flag="0"/>
			<psa30 value="0.0016123056615" flag="0"/>
		</comp>
	</station>
	<station code="CNTN" name="CNTN" netid="IT" source="Italian Strong Motion Network (RAN)" insttype="" lat="43.4729" lon="12.6303">
		<comp name="00.HNE" depth="0.0">
			<acc value="0.624496592828" flag="0"/>
			<vel value="0.167078795766" flag="0"/>
			<psa03 value="0.708333256935" flag="0"/>
			<psa10 value="0.0358219230266" flag="0"/>
			<psa30 value="0.00354233716245" flag="0"/>
		</comp>
		<comp name="00.HNN" depth="0.0">
			<acc value="0.978485996872" flag="0"/>
			<vel value="0.144292575097" flag="0"/>
			<psa03 value="0.345001875514" flag="0"/>
			<psa10 value="0.0218046063232" flag="0"/>
			<psa30 value="0.0024352586156" flag="0"/>
		</comp>
		<comp name="00.HNZ" depth="0.0">
			<acc value="0.222433891225" flag="0"/>
			<vel value="0.0416292134273" flag="0"/>
			<psa03 value="0.25564037242" flag="0"/>
			<psa10 value="0.0281488415976" flag="0"/>
			<psa30 value="0.00138645851274" flag="0"/>
		</comp>
	</station>
	<station code="CSA" name="CSA" netid="IT" source="Italian Strong Motion Network (RAN)" insttype="" lat="43.008015" lon="12.590602">
		<comp name="00.HGE" depth="0.0">
			<acc value="0.0955803504249" flag="0"/>
			<vel value="0.100315166507" flag="0"/>
			<psa03 value="0.194271723715" flag="0"/>
			<psa10 value="0.157937827606" flag="0"/>
			<psa30 value="0.0121952853778" flag="0"/>
		</comp>
		<comp name="00.HGN" depth="0.0">
			<acc value="0.106599643674" flag="0"/>
			<vel value="0.0967662724247" flag="0"/>
			<psa03 value="0.218818349808" flag="0"/>
			<psa10 value="0.134459802302" flag="0"/>
			<psa30 value="0.0129978093744" flag="0"/>
		</comp>
		<comp name="00.HGZ" depth="0.0">
			<acc value="0.028917417743" flag="0"/>
			<vel value="0.0311866019127" flag="0"/>
			<psa03 value="0.0560266177385" flag="0"/>
			<psa10 value="0.0448659771508" flag="0"/>
			<psa30 value="0.00400083295222" flag="0"/>
		</comp>
	</station>
	<station code="CSN" name="CSN" netid="IT" source="Italian Strong Motion Network (RAN)" insttype="" lat="44.137005" lon="12.241408">
		<comp name="00.HNE" depth="0.0">
			<acc value="0.210718667792" flag="0"/>
			<vel value="0.0471218249707" flag="0"/>
			<psa03 value="0.318021109004" flag="0"/>
			<psa10 value="0.020885939841" flag="0"/>
			<psa30 value="0.00112784669347" flag="0"/>
		</comp>
		<comp name="00.HNN" depth="0.0">
			<acc value="0.109548348484" flag="0"/>
			<vel value="0.0315224816731" flag="0"/>
			<psa03 value="0.302355258719" flag="0"/>
			<psa10 value="0.0214418091646" flag="0"/>
			<psa30 value="0.00147640249192" flag="0"/>
		</comp>
		<comp name="00.HNZ" depth="0.0">
			<acc value="0.108628078666" flag="0"/>
			<vel value="0.0170328191462" flag="0"/>
			<psa03 value="0.0900798944344" flag="0"/>
			<psa10 value="0.00824811452209" flag="0"/>
			<psa30 value="0.00078891413669" flag="0"/>
		</comp>
	</station>
	<station code="CTL" name="CTL" netid="IT" source="Italian Strong Motion Network (RAN)" insttype="" lat="43.955116" lon="12.735809">
		<comp name="00.HNE" depth="0.0">
			<acc value="0.631072298926" flag="0"/>
			<vel value="0.184670587412" flag="0"/>
			<psa03 value="0.994957661063" flag="0"/>
			<psa10 value="0.119967117233" flag="0"/>
			<psa30 value="0.00998179624502" flag="0"/>
		</comp>
		<comp name="00.HNN" depth="0.0">
			<acc value="0.416090792956" flag="0"/>
			<vel value="0.198538553803" flag="0"/>
			<psa03 value="0.782613594308" flag="0"/>
			<psa10 value="0.117261320487" flag="0"/>
			<psa30 value="0.0104919575407" flag="0"/>
		</comp>
		<comp name="00.HNZ" depth="0.0">
			<acc value="0.2442579571" flag="0"/>
			<vel value="0.0627180915281" flag="0"/>
			<psa03 value="0.193211465978" flag="0"/>
			<psa10 value="0.0302881801933" flag="0"/>
			<psa30 value="0.00178200263226" flag="0"/>
		</comp>
	</station>
	<station code="FBR" name="FBR" netid="IT" source="Italian Strong Motion Network (RAN)" insttype="" lat="43.343601" lon="12.9119">
		<comp name="00.HGE" depth="0.0">
			<acc value="0.280923873717" flag="0"/>
			<vel value="0.0961604849955" flag="0"/>
			<psa03 value="0.722302265648" flag="0"/>
			<psa10 value="0.0345720514787" flag="0"/>
			<psa30 value="0.00323132510109" flag="0"/>
		</comp>
		<comp name="00.HGN" depth="0.0">
			<acc value="0.176888602666" flag="0"/>
			<vel value="0.0674025439922" flag="0"/>
			<psa03 value="0.451264394052" flag="0"/>
			<psa10 value="0.0395527226738" flag="0"/>
			<psa30 value="0.00307889187814" flag="0"/>
		</comp>
		<comp name="00.HGZ" depth="0.0">
			<acc value="0.152329618" flag="0"/>
			<vel value="0.0359786185074" flag="0"/>
			<psa03 value="0.112403800367" flag="0"/>
			<psa10 value="0.0302770625818" flag="0"/>
			<psa30 value="0.00164400911587" flag="0"/>
		</comp>
	</station>
	<station code="FOC" name="FOC" netid="IT" source="Italian Strong Motion Network (RAN)" insttype="" lat="43.0263" lon="12.896506">
		<comp name="00.HNE" depth="0.0">
			<acc value="0.193298474142" flag="0"/>
			<vel value="0.0530108671812" flag="0"/>
			<psa03 value="0.183035729385" flag="0"/>
			<psa10 value="0.0241993030851" flag="0"/>
			<psa30 value="0.00179191599731" flag="0"/>
		</comp>
		<comp name="00.HNN" depth="0.0">
			<acc value="0.137866825189" flag="0"/>
			<vel value="0.0400334763205" flag="0"/>
			<psa03 value="0.247999720431" flag="0"/>
			<psa10 value="0.0212944150255" flag="0"/>
			<psa30 value="0.00117441040309" flag="0"/>
		</comp>
		<comp name="00.HNZ" depth="0.0">
			<acc value="0.0858194080001" flag="0"/>
			<vel value="0.0161806378957" flag="0"/>
			<psa03 value="0.0788463169314" flag="0"/>
			<psa10 value="0.00894083884918" flag="0"/>
			<psa30 value="0.000950450045987" flag="0"/>
		</comp>
	</station>
	<station code="FOCC" name="FOCC" netid="IT" source="Italian Strong Motion Network (RAN)" insttype="" lat="42.9574012756" lon="12.7079000473">
		<comp name="00.HNE" depth="0.0">
			<acc value="0.0398650976007" flag="0"/>
			<vel value="0.0221074414895" flag="0"/>
			<psa03 value="0.0878789257143" flag="0"/>
			<psa10 value="0.0374939037871" flag="0"/>
			<psa30 value="0.00166909431931" flag="0"/>
		</comp>
		<comp name="00.HNN" depth="0.0">
			<acc value="0.040999758097" flag="0"/>
			<vel value="0.020066089955" flag="0"/>
			<psa03 value="0.0794648579069" flag="0"/>
			<psa10 value="0.030304675661" flag="0"/>
			<psa30 value="0.00221469296254" flag="0"/>
		</comp>
		<comp name="00.HNZ" depth="0.0">
			<acc value="0.0281084890756" flag="0"/>
			<vel value="0.0155760286964" flag="0"/>
			<psa03 value="0.0714388835173" flag="0"/>
			<psa10 value="0.0227253654439" flag="0"/>
			<psa30 value="0.00123115509965" flag="0"/>
		</comp>
	</station>
	<station code="FOS" name="FOS" netid="IT" source="Italian Strong Motion Network (RAN)" insttype="" lat="43.01459" lon="12.83513">
		<comp name="00.HNE" depth="0.0">
			<acc value="0.117053485466" flag="0"/>
			<vel value="0.0448839715126" flag="0"/>
			<psa03 value="0.301070173588" flag="0"/>
			<psa10 value="0.0454141884669" flag="0"/>
			<psa30 value="0.00264812105002" flag="0"/>
		</comp>
		<comp name="00.HNN" depth="0.0">
			<acc value="0.110266360966" flag="0"/>
			<vel value="0.0373993476878" flag="0"/>
			<psa03 value="0.175609258251" flag="0"/>
			<psa10 value="0.0299912561485" flag="0"/>
			<psa30 value="0.00155211115308" flag="0"/>
		</comp>
		<comp name="00.HNZ" depth="0.0">
			<acc value="0.071862038757" flag="0"/>
			<vel value="0.0201371965753" flag="0"/>
			<psa03 value="0.142540338431" flag="0"/>
			<psa10 value="0.0229561351063" flag="0"/>
			<psa30 value="0.00131470365517" flag="0"/>
		</comp>
	</station>
	<station code="FSS" name="FSS" netid="IT" source="Italian Strong Motion Network (RAN)" insttype="" lat="43.690477" lon="12.810074">
		<comp name="00.HGE" depth="0.0">
			<acc value="1.11244969963" flag="0"/>
			<vel value="0.141600637436" flag="0"/>
			<psa03 value="0.261466091679" flag="0"/>
			<psa10 value="0.0289967240157" flag="0"/>
			<psa30 value="0.00253867713323" flag="0"/>
		</comp>
		<comp name="00.HGN" depth="0.0">
			<acc value="0.73777975617" flag="0"/>
			<vel value="0.163765078116" flag="0"/>
			<psa03 value="0.440780157855" flag="0"/>
			<psa10 value="0.0352419283548" flag="0"/>
			<psa30 value="0.00292891048428" flag="0"/>
		</comp>
		<comp name="00.HGZ" depth="0.0">
			<acc value="0.727430590015" flag="0"/>
			<vel value="0.0868845868386" flag="0"/>
			<psa03 value="0.314974657192" flag="0"/>
			<psa10 value="0.0216429518643" flag="0"/>
			<psa30 value="0.00257764513134" flag="0"/>
		</comp>
	</station>
	<station code="GBB" name="GBB" netid="IT" source="Italian Strong Motion Network (RAN)" insttype="" lat="43.356972" lon="12.597252">
		<comp name="00.HGE" depth="0.0">
			<acc value="0.473513867896" flag="0"/>
			<vel value="0.208314535471" flag="0"/>
			<psa03 value="1.33404420722" flag="0"/>
			<psa10 value="0.0474392176153" flag="0"/>
			<psa30 value="0.00468002752887" flag="0"/>
		</comp>
		<comp name="00.HGN" depth="0.0">
			<acc value="0.455493597518" flag="0"/>
			<vel value="0.154457123577" flag="0"/>
			<psa03 value="0.609315530832" flag="0"/>
			<psa10 value="0.0469841212176" flag="0"/>
			<psa30 value="0.00429220308739" flag="0"/>
		</comp>
		<comp name="00.HGZ" depth="0.0">
			<acc value="0.339500965284" flag="0"/>
			<vel value="0.0833647747774" flag="0"/>
			<psa03 value="0.432846840646" flag="0"/>
			<psa10 value="0.0381590065969" flag="0"/>
			<psa30 value="0.00243699560567" flag="0"/>
		</comp>
	</station>
	<station code="GBP" name="GBP" netid="IT" source="Italian Strong Motion Network (RAN)" insttype="" lat="43.31381" lon="12.58949">
		<comp name="00.HGE" depth="0.0">
			<acc value="0.241454938823" flag="0"/>
			<vel value="0.138023509235" flag="0"/>
			<psa03 value="0.454132959078" flag="0"/>
			<psa10 value="0.12613221064" flag="0"/>
			<psa30 value="0.00991666276355" flag="0"/>
		</comp>
		<comp name="00.HGN" depth="0.0">
			<acc value="0.370564284727" flag="0"/>
			<vel value="0.194745457667" flag="0"/>
			<psa03 value="0.609404661732" flag="0"/>
			<psa10 value="0.136499742438" flag="0"/>
			<psa30 value="0.0143127764846" flag="0"/>
		</comp>
		<comp name="00.HGZ" depth="0.0">
			<acc value="0.133818032867" flag="0"/>
			<vel value="0.0654279741489" flag="0"/>
			<psa03 value="0.18074843203" flag="0"/>
			<psa10 value="0.0554618690764" flag="0"/>
			<psa30 value="0.00625578691518" flag="0"/>
		</comp>
	</station>
	<station code="GLT" name="GLT" netid="IT" source="Italian Strong Motion Network (RAN)" insttype="" lat="43.233101" lon="12.789001">
		<comp name="00.HNE" depth="0.0">
			<acc value="0.048749003556" flag="0"/>
			<vel value="0.0270989000974" flag="0"/>
			<psa03 value="0.101328045819" flag="0"/>
			<psa10 value="0.0193665173117" flag="0"/>
			<psa30 value="0.000935916583215" flag="0"/>
		</comp>
		<comp name="00.HNN" depth="0.0">
			<acc value="0.0913938763114" flag="0"/>
			<vel value="0.0516128793181" flag="0"/>
			<psa03 value="0.252456828193" flag="0"/>
			<psa10 value="0.0159681190595" flag="0"/>
			<psa30 value="0.00178016105193" flag="0"/>
		</comp>
		<comp name="00.HNZ" depth="0.0">
			<acc value="0.0591488013144" flag="0"/>
			<vel value="0.0227481457674" flag="0"/>
			<psa03 value="0.1153048988" flag="0"/>
			<psa10 value="0.0209268681773" flag="0"/>
			<psa30 value="0.00132267251639" flag="0"/>
		</comp>
	</station>
	<station code="LSS" name="LSS" netid="IT" source="Italian Strong Motion Network (RAN)" insttype="" lat="42.558243" lon="12.968894">
		<comp name="00.HGE" depth="0.0">
			<acc value="0.0141439192208" flag="0"/>
			<vel value="0.00556263433175" flag="0"/>
			<psa03 value="0.0287202853905" flag="0"/>
			<psa10 value="0.00606211580417" flag="0"/>
			<psa30 value="0.000530294504407" flag="0"/>
		</comp>
		<comp name="00.HGN" depth="0.0">
			<acc value="0.0134528673322" flag="0"/>
			<vel value="0.00535037943039" flag="0"/>
			<psa03 value="0.0368568660657" flag="0"/>
			<psa10 value="0.00540196050962" flag="0"/>
			<psa30 value="0.000559241369912" flag="0"/>
		</comp>
		<comp name="00.HGZ" depth="0.0">
			<acc value="0.00826245478972" flag="0"/>
			<vel value="0.00346202784471" flag="0"/>
			<psa03 value="0.0166399239279" flag="0"/>
			<psa10 value="0.00356826528631" flag="0"/>
			<psa30 value="0.000360175734875" flag="0"/>
		</comp>
	</station>
	<station code="MCS" name="MCS" netid="IT" source="Italian Strong Motion Network (RAN)" insttype="" lat="43.994366" lon="12.107441">
		<comp name="00.HGE" depth="0.0">
			<acc value="0.108151362417" flag="0"/>
			<vel value="0.0323102415164" flag="0"/>
			<psa03 value="0.189204429698" flag="0"/>
			<psa10 value="0.0168530745585" flag="0"/>
			<psa30 value="0.00127593598283" flag="0"/>
		</comp>
		<comp name="00.HGN" depth="0.0">
			<acc value="0.140781481175" flag="0"/>
			<vel value="0.0511242237516" flag="0"/>
			<psa03 value="0.271653829066" flag="0"/>
			<psa10 value="0.0205085317146" flag="0"/>
			<psa30 value="0.00188330496805" flag="0"/>
		</comp>
		<comp name="00.HGZ" depth="0.0">
			<acc value="0.0541768979496" flag="0"/>
			<vel value="0.0182361118098" flag="0"/>
			<psa03 value="0.075663663388" flag="0"/>
			<psa10 value="0.00903817654735" flag="0"/>
			<psa30 value="0.00076556800679" flag="0"/>
		</comp>
	</station>
	<station code="MCT" name="MCT" netid="IT" source="Italian Strong Motion Network (RAN)" insttype="" lat="43.292511" lon="13.418895">
		<comp name="00.HNE" depth="0.0">
			<acc value="0.213049998803" flag="0"/>
