<stationlist xmlns:esm="https://esm-db.eu/esmws/shakemap/1/" created="1783734840">
	<station code="DRN" name="DRN" netid="IT" source="Italian Strong Motion Network (RAN)" insttype="" lat="46.1666" lon="13.6417" esm:processing="manual (Paolucci et al 2011)" esm:quality="best">
		<comp name="--.HNE" depth="0.0">
			<acc value="0.180727928864395" flag="0"/>
			<vel value="0.0375489045900196" flag="0"/>
			<psa03 value="0.124535989481665" flag="0"/>
			<psa10 value="0.00785888608139623" flag="0"/>
			<psa30 value="0.000641066530012703" flag="0"/>
		</comp>
		<comp name="--.HNN" depth="0.0">
			<acc value="0.234804868172134" flag="0"/>
			<vel value="0.0655371794833098" flag="0"/>
			<psa03 value="0.168407979118798" flag="0"/>
			<psa10 value="0.00806577463046566" flag="0"/>
			<psa30 value="0.000860223704347976" flag="0"/>
		</comp>
		<comp name="--.HNZ" depth="0.0">
			<acc value="0.187231725787913" flag="0"/>
			<vel value="0.0279729261991081" flag="0"/>
			<psa03 value="0.141136901710393" flag="0"/>
			<psa10 value="0.00477946005327842" flag="0"/>
			<psa30 value="0.000470964428247432" flag="0"/>
		</comp>
	</station>
	<station code="STAL" name="STAL" netid="IV" source="Italian National Seismic Network (INSN)" insttype="" lat="46.2601" lon="12.7104" esm:processing="manual (Paolucci et al 2011)" esm:quality="best">
		<comp name="--.HNE" depth="0.0">
			<acc value="0.0628737175909613" flag="0"/>
			<vel value="0.0186486920998148" flag="0"/>
			<psa03 value="0.104820516761401" flag="0"/>
			<psa10 value="0.00295057475797169" flag="0"/>
			<psa30 value="0.000331149853719302" flag="0"/>
		</comp>
		<comp name="--.HNN" depth="0.0">
			<acc value="0.0806569492299533" flag="0"/>
			<vel value="0.0176867784664136" flag="0"/>
			<psa03 value="0.0860410539641835" flag="0"/>
			<psa10 value="0.0038789166466927" flag="0"/>
			<psa30 value="0.000304979109619427" flag="0"/>
		</comp>
		<comp name="--.HNZ" depth="0.0">
			<acc value="0.03580810163836" flag="0"/>
			<vel value="0.00694238726198452" flag="0"/>
			<psa03 value="0.0239960766014587" flag="0"/>
			<psa10 value="0.00161535775171092" flag="0"/>
			<psa30 value="0.000125495097288344" flag="0"/>
		</comp>
	</station>
	<station code="DST2" name="DST2" netid="NI" source="North-East Italy Broadband Network (NI)" insttype="" lat="45.6589" lon="13.8013" esm:processing="manual (Paolucci et al 2011)" esm:quality="best">
		<comp name="--.HNE" depth="0.0">
			<acc value="0.103677282304746" flag="0"/>
			<vel value="0.0237555925738649" flag="0"/>
			<psa03 value="0.160887085063191" flag="0"/>
			<psa10 value="0.00751271471171413" flag="0"/>
			<psa30 value="0.000525926246283343" flag="0"/>
		</comp>
		<comp name="--.HNN" depth="0.0">
			<acc value="0.0622853737589753" flag="0"/>
			<vel value="0.0197537290734579" flag="0"/>
			<psa03 value="0.130486216988154" flag="0"/>
			<psa10 value="0.00711653565431328" flag="0"/>
			<psa30 value="0.000662371639287318" flag="0"/>
		</comp>
		<comp name="--.HNZ" depth="0.0">
			<acc value="0.0679816908890347" flag="0"/>
			<vel value="0.0189225893181428" flag="0"/>
			<psa03 value="0.169341968074401" flag="0"/>
			<psa10 value="0.00696585067216488" flag="0"/>
			<psa30 value="0.000528949519474874" flag="0"/>
		</comp>
	</station>
	<station code="ACOM" name="ACOM" netid="OX" source="North-East Italy Seismic Network" insttype="" lat="46.548" lon="13.5137" esm:processing="manual (Paolucci et al 2011)" esm:quality="good">
		<comp name="--.HNE" depth="0.0">
			<acc value="0.11238638452716" flag="0"/>
			<vel value="0.0243517489165111" flag="0"/>
			<psa03 value="0.108981334061656" flag="0"/>
			<psa10 value="0.00968137790628683" flag="0"/>
			<psa30 value="0.00064688894696935" flag="0"/>
		</comp>
		<comp name="--.HNN" depth="0.0">
			<acc value="0.0508404785918765" flag="0"/>
			<vel value="0.0175576448185725" flag="0"/>
			<psa03 value="0.0841896396505274" flag="0"/>
			<psa10 value="0.00914752535367416" flag="0"/>
			<psa30 value="0.000590530786431498" flag="0"/>
		</comp>
		<comp name="--.HNZ" depth="0.0">
			<acc value="0.0312336216567402" flag="0"/>
			<vel value="0.0116961754123588" flag="0"/>
			<psa03 value="0.0605165141304225" flag="0"/>
			<psa10 value="0.00550350926797221" flag="0"/>
			<psa30 value="0.00034721221985555" flag="0"/>
		</comp>
	</station>
	<station code="CIMO" name="CIMO" netid="OX" source="North-East Italy Seismic Network" insttype="" lat="46.3116" lon="12.4448" esm:processing="manual (Paolucci et al 2011)" esm:quality="best">
		<comp name="--.HNE" depth="0.0">
			<acc value="0.0081606772710459" flag="0"/>
			<vel value="0.00253031113418268" flag="0"/>
			<psa03 value="0.0151472990071574" flag="0"/>
			<psa10 value="0.00118514530693579" flag="0"/>
			<psa30 value="7.90972254799229e-05" flag="0"/>
		</comp>
		<comp name="--.HNN" depth="0.0">
			<acc value="0.0115683474424057" flag="0"/>
			<vel value="0.00339832176919046" flag="0"/>
			<psa03 value="0.0131139064923411" flag="0"/>
			<psa10 value="0.00223840633030812" flag="0"/>
			<psa30 value="0.0001261633837466" flag="0"/>
		</comp>
		<comp name="--.HNZ" depth="0.0">
			<acc value="0.00973102186962975" flag="0"/>
			<vel value="0.00301162619322937" flag="0"/>
			<psa03 value="0.0217360844401823" flag="0"/>
			<psa10 value="0.00163956056596434" flag="0"/>
			<psa30 value="0.000124775401174738" flag="0"/>
		</comp>
	</station>
	<station code="FUSE" name="FUSE" netid="OX" source="North-East Italy Seismic Network" insttype="" lat="46.4142" lon="13.0011" esm:processing="manual (Paolucci et al 2011)" esm:quality="good">
		<comp name="--.HNE" depth="0.0">
			<acc value="0.0119599917621542" flag="0"/>
			<vel value="0.00537380632694125" flag="0"/>
			<psa03 value="0.0246720797166813" flag="0"/>
			<psa10 value="0.00218847997605666" flag="0"/>
			<psa30 value="0.000148625952510706" flag="0"/>
		</comp>
		<comp name="--.HNN" depth="0.0">
			<acc value="0.0242251078997126" flag="0"/>
			<vel value="0.00699023851236911" flag="0"/>
			<psa03 value="0.0384321370863187" flag="0"/>
			<psa10 value="0.0027456656368748" flag="0"/>
			<psa30 value="0.000202285640014319" flag="0"/>
		</comp>
		<comp name="--.HNZ" depth="0.0">
			<acc value="0.00985339056592897" flag="0"/>
			<vel value="0.00308345849326964" flag="0"/>
			<psa03 value="0.0146238724056101" flag="0"/>
			<psa10 value="0.00210344496790518" flag="0"/>
			<psa30 value="0.000160762980487504" flag="0"/>
		</comp>
	</station>
	<station code="PRED" name="PRED" netid="OX" source="North-East Italy Seismic Network" insttype="" lat="46.4428" lon="13.565" esm:processing="manual (Paolucci et al 2011)" esm:quality="best">
		<comp name="--.HNE" depth="0.0">
			<acc value="0.0184843674254391" flag="0"/>
			<vel value="0.00409114892281551" flag="0"/>
			<psa03 value="0.0173029978011742" flag="0"/>
			<psa10 value="0.0019026645187494" flag="0"/>
			<psa30 value="0.00021666272523794" flag="0"/>
		</comp>
		<comp name="--.HNN" depth="0.0">
			<acc value="0.0189134637369033" flag="0"/>
			<vel value="0.00402407069764338" flag="0"/>
			<psa03 value="0.0204217656021716" flag="0"/>
			<psa10 value="0.00348626493231553" flag="0"/>
			<psa30 value="0.00018755913060116" flag="0"/>
		</comp>
		<comp name="--.HNZ" depth="0.0">
			<acc value="0.0192039226475449" flag="0"/>
			<vel value="0.00560376797448737" flag="0"/>
			<psa03 value="0.0298471881672288" flag="0"/>
			<psa10 value="0.00229331934302649" flag="0"/>
			<psa30 value="0.000206255642590693" flag="0"/>
		</comp>
	</station>
	<station code="SABO" name="SABO" netid="OX" source="North-East Italy Seismic Network" insttype="" lat="45.9875" lon="13.6337" esm:processing="manual (Paolucci et al 2011)" esm:quality="good">
		<comp name="--.HNE" depth="0.0">
			<acc value="0.637706752695963" flag="0"/>
			<vel value="0.198193002388185" flag="0"/>
			<psa03 value="0.726527295534019" flag="0"/>
			<psa10 value="0.0643433874334946" flag="0"/>
			<psa30 value="0.00308977218224507" flag="0"/>
		</comp>
		<comp name="--.HNN" depth="0.0">
			<acc value="0.351316693045728" flag="0"/>
			<vel value="0.117208763543642" flag="0"/>
			<psa03 value="0.665566673859319" flag="0"/>
			<psa10 value="0.0734355272434431" flag="0"/>
			<psa30 value="0.00469093533477234" flag="0"/>
		</comp>
		<comp name="--.HNZ" depth="0.0">
			<acc value="0.200409943530096" flag="0"/>
			<vel value="0.0612808172869238" flag="0"/>
			<psa03 value="0.431977699736034" flag="0"/>
			<psa10 value="0.0143819149187695" flag="0"/>
			<psa30 value="0.00105270431982798" flag="0"/>
		</comp>
	</station>
	<station code="BOJS" name="BOJS" netid="SL" source="Seismic Network of the Republic of Slovenia (SNRS)" insttype="" lat="45.5043" lon="15.2518" esm:processing="manual (Paolucci et al 2011)" esm:quality="best">
		<comp name="--.HNE" depth="0.0">
			<acc value="0.0173704484939582" flag="0"/>
			<vel value="0.0051942080850087" flag="0"/>
			<psa03 value="0.0302019226041281" flag="0"/>
			<psa10 value="0.00310987288881753" flag="0"/>
			<psa30 value="0.000235267043620382" flag="0"/>
		</comp>
		<comp name="--.HNN" depth="0.0">
			<acc value="0.0183559476746171" flag="0"/>
			<vel value="0.00506407996741763" flag="0"/>
			<psa03 value="0.0256245230197401" flag="0"/>
			<psa10 value="0.00273595624367386" flag="0"/>
			<psa30 value="0.000243411567530206" flag="0"/>
		</comp>
		<comp name="--.HNZ" depth="0.0">
			<acc value="0.0123539679892806" flag="0"/>
			<vel value="0.00416046535059432" flag="0"/>
			<psa03 value="0.0228554828135514" flag="0"/>
			<psa10 value="0.00192930370534058" flag="0"/>
			<psa30 value="0.000341220468764798" flag="0"/>
		</comp>
	</station>
	<station code="CADS" name="CADS" netid="SL" source="Seismic Network of the Republic of Slovenia (SNRS)" insttype="" lat="46.2281" lon="13.7368" esm:processing="manual (Paolucci et al 2011)" esm:quality="good">
		<comp name="--.HNE" depth="0.0">
			<acc value="0.18267494700925" flag="0"/>
			<vel value="0.0397500941255136" flag="0"/>
			<psa03 value="0.180356051869961" flag="0"/>
			<psa10 value="0.00746739061548022" flag="0"/>
			<psa30 value="0.0007158753398946" flag="0"/>
		</comp>
		<comp name="--.HNN" depth="0.0">
			<acc value="0.189821263731303" flag="0"/>
			<vel value="0.0386987717355328" flag="0"/>
			<psa03 value="0.161445507472537" flag="0"/>
			<psa10 value="0.00731010941512259" flag="0"/>
			<psa30 value="0.000703140017075299" flag="0"/>
		</comp>
		<comp name="--.HNZ" depth="0.0">
			<acc value="0.105776169744072" flag="0"/>
			<vel value="0.0183190126260185" flag="0"/>
			<psa03 value="0.0905531028653199" flag="0"/>
			<psa10 value="0.00373957616606811" flag="0"/>
			<psa30 value="0.000390057896713019" flag="0"/>
		</comp>
	</station>
	<station code="CEY" name="CEY" netid="SL" source="Seismic Network of the Republic of Slovenia (SNRS)" insttype="" lat="45.7381" lon="14.4221" esm:processing="manual (Paolucci et al 2011)" esm:quality="best">
		<comp name="--.HNE" depth="0.0">
			<acc value="0.13447811249084" flag="0"/>
			<vel value="0.0304222850927353" flag="0"/>
			<psa03 value="0.120898456845913" flag="0"/>
			<psa10 value="0.0107302530141058" flag="0"/>
			<psa30 value="0.000679261247724195" flag="0"/>
		</comp>
		<comp name="--.HNN" depth="0.0">
			<acc value="0.112194123007776" flag="0"/>
			<vel value="0.0327565624650381" flag="0"/>
			<psa03 value="0.125656147019901" flag="0"/>
			<psa10 value="0.0073730437404547" flag="0"/>
			<psa30 value="0.000565122801194958" flag="0"/>
		</comp>
		<comp name="--.HNZ" depth="0.0">
			<acc value="0.100090977485565" flag="0"/>
			<vel value="0.0271857368067251" flag="0"/>
			<psa03 value="0.281479938331133" flag="0"/>
			<psa10 value="0.00687272684694362" flag="0"/>
			<psa30 value="0.000804369118840002" flag="0"/>
		</comp>
	</station>
	<station code="CRES" name="CRES" netid="SL" source="Seismic Network of the Republic of Slovenia (SNRS)" insttype="" lat="45.826" lon="15.4569" esm:processing="manual (Paolucci et al 2011)" esm:quality="best">
		<comp name="--.HNE" depth="0.0">
			<acc value="0.0116372289640979" flag="0"/>
			<vel value="0.00499004732616326" flag="0"/>
			<psa03 value="0.0338606832082659" flag="0"/>
			<psa10 value="0.00316239582132713" flag="0"/>
			<psa30 value="0.000207032920644142" flag="0"/>
		</comp>
		<comp name="--.HNN" depth="0.0">
			<acc value="0.0120860574765837" flag="0"/>
			<vel value="0.00567892565413087" flag="0"/>
			<psa03 value="0.0361391388322374" flag="0"/>
			<psa10 value="0.00280233892245076" flag="0"/>
			<psa30 value="0.000200692956381918" flag="0"/>
		</comp>
		<comp name="--.HNZ" depth="0.0">
			<acc value="0.00778455647110578" flag="0"/>
			<vel value="0.00308478986774241" flag="0"/>
			<psa03 value="0.020695551968348" flag="0"/>
			<psa10 value="0.00146325165980451" flag="0"/>
			<psa30 value="0.000203214191109512" flag="0"/>
		</comp>
	</station>
	<station code="CRNS" name="CRNS" netid="SL" source="Seismic Network of the Republic of Slovenia (SNRS)" insttype="" lat="46.0807" lon="14.2613" esm:processing="manual (Paolucci et al 2011)" esm:quality="best">
		<comp name="--.HNE" depth="0.0">
			<acc value="3.54151895794441" flag="0"/>
			<vel value="1.05410334018543" flag="0"/>
			<psa03 value="3.80225921434638" flag="0"/>
			<psa10 value="0.182390107449455" flag="0"/>
			<psa30 value="0.0149824008438693" flag="0"/>
		</comp>
		<comp name="--.HNN" depth="0.0">
			<acc value="4.02478256680137" flag="0"/>
			<vel value="1.1272883039298" flag="0"/>
			<psa03 value="3.27560432604275" flag="0"/>
			<psa10 value="0.224153909096556" flag="0"/>
			<psa30 value="0.0159205763267175" flag="0"/>
		</comp>
		<comp name="--.HNZ" depth="0.0">
			<acc value="2.32304530147834" flag="0"/>
			<vel value="0.442689777600577" flag="0"/>
			<psa03 value="1.5142129758463" flag="0"/>
			<psa10 value="0.0818651856668718" flag="0"/>
			<psa30 value="0.00742947049929632" flag="0"/>
		</comp>
	</station>
	<station code="DOBS" name="DOBS" netid="SL" source="Seismic Network of the Republic of Slovenia (SNRS)" insttype="" lat="46.1495" lon="15.4695" esm:processing="manual (Paolucci et al 2011)" esm:quality="best">
		<comp name="--.HNE" depth="0.0">
			<acc value="0.043688198601204" flag="0"/>
			<vel value="0.00915275563834483" flag="0"/>
			<psa03 value="0.0215534108806128" flag="0"/>
			<psa10 value="0.00219384048741386" flag="0"/>
			<psa30 value="0.000186899021767729" flag="0"/>
		</comp>
		<comp name="--.HNN" depth="0.0">
			<acc value="0.0343242652569604" flag="0"/>
			<vel value="0.00799531668823535" flag="0"/>
			<psa03 value="0.0237121801905712" flag="0"/>
			<psa10 value="0.00217690764694915" flag="0"/>
			<psa30 value="0.000213019606295189" flag="0"/>
		</comp>
		<comp name="--.HNZ" depth="0.0">
			<acc value="0.0202956710337754" flag="0"/>
			<vel value="0.00393597381869604" flag="0"/>
			<psa03 value="0.0129737748135062" flag="0"/>
			<psa10 value="0.00151387684941282" flag="0"/>
			<psa30 value="0.000153988299927445" flag="0"/>
		</comp>
	</station>
	<station code="GBAS" name="GBAS" netid="SL" source="Seismic Network of the Republic of Slovenia (SNRS)" insttype="" lat="45.9348" lon="14.4434" esm:processing="manual (Paolucci et al 2011)" esm:quality="best">
		<comp name="--.HNE" depth="0.0">
			<acc value="0.102619363994569" flag="0"/>
			<vel value="0.0171285848220754" flag="0"/>
			<psa03 value="0.0820823594284136" flag="0"/>
			<psa10 value="0.0118281073040748" flag="0"/>
			<psa30 value="0.000847485829275416" flag="0"/>
		</comp>
		<comp name="--.HNN" depth="0.0">
			<acc value="0.127479523123142" flag="0"/>
			<vel value="0.0196486844677618" flag="0"/>
			<psa03 value="0.0712257600235712" flag="0"/>
			<psa10 value="0.00601328616318425" flag="0"/>
			<psa30 value="0.00045528510832047" flag="0"/>
		</comp>
		<comp name="--.HNZ" depth="0.0">
			<acc value="0.129876872464639" flag="0"/>
			<vel value="0.0201422522051881" flag="0"/>
			<psa03 value="0.0709034313792413" flag="0"/>
			<psa10 value="0.00532336795949609" flag="0"/>
			<psa30 value="0.00104856873336676" flag="0"/>
		</comp>
	</station>
	<station code="GBRS" name="GBRS" netid="SL" source="Seismic Network of the Republic of Slovenia (SNRS)" insttype="" lat="45.5311" lon="14.8101" esm:processing="manual (Paolucci et al 2011)" esm:quality="best">
		<comp name="--.HNE" depth="0.0">
			<acc value="0.0891618460573805" flag="0"/>
			<vel value="0.0117216971332824" flag="0"/>
			<psa03 value="0.0242285295003451" flag="0"/>
			<psa10 value="0.00252921864207325" flag="0"/>
			<psa30 value="0.000195192279489005" flag="0"/>
		</comp>
		<comp name="--.HNN" depth="0.0">
			<acc value="0.0793507075597691" flag="0"/>
			<vel value="0.00931642700721053" flag="0"/>
			<psa03 value="0.0207478952795913" flag="0"/>
			<psa10 value="0.00282137166765238" flag="0"/>
			<psa30 value="0.000168830155523306" flag="0"/>
		</comp>
		<comp name="--.HNZ" depth="0.0">
			<acc value="0.0412121521872622" flag="0"/>
			<vel value="0.00612865635143483" flag="0"/>
			<psa03 value="0.0299662663680776" flag="0"/>
			<psa10 value="0.0022371199950951" flag="0"/>
			<psa30 value="0.000245184393304233" flag="0"/>
		</comp>
	</station>
	<station code="GCIS" name="GCIS" netid="SL" source="Seismic Network of the Republic of Slovenia (SNRS)" insttype="" lat="45.8672" lon="15.6275" esm:processing="manual (Paolucci et al 2011)" esm:quality="best">
		<comp name="--.HNE" depth="0.0">
			<acc value="0.0150183165235913" flag="0"/>
			<vel value="0.00558384952676537" flag="0"/>
			<psa03 value="0.0381048888452325" flag="0"/>
			<psa10 value="0.00238577773356646" flag="0"/>
			<psa30 value="0.000160418244108973" flag="0"/>
		</comp>
		<comp name="--.HNN" depth="0.0">
			<acc value="0.0123835745645389" flag="0"/>
			<vel value="0.00390937507433398" flag="0"/>
			<psa03 value="0.031729570678347" flag="0"/>
			<psa10 value="0.00236324577218304" flag="0"/>
			<psa30 value="0.000196478536572289" flag="0"/>
		</comp>
		<comp name="--.HNZ" depth="0.0">
			<acc value="0.00653551957032324" flag="0"/>
			<vel value="0.00245047294416802" flag="0"/>
			<psa03 value="0.0112292490909753" flag="0"/>
			<psa10 value="0.00221324192891636" flag="0"/>
			<psa30 value="0.000189120744467218" flag="0"/>
		</comp>
	</station>
	<station code="GOLS" name="GOLS" netid="SL" source="Seismic Network of the Republic of Slovenia (SNRS)" insttype="" lat="46.0108" lon="15.6245" esm:processing="manual (Paolucci et al 2011)" esm:quality="best">
		<comp name="--.HNE" depth="0.0">
			<acc value="0.0311988967322759" flag="0"/>
			<vel value="0.00676021307180725" flag="0"/>
			<psa03 value="0.0456530763755029" flag="0"/>
			<psa10 value="0.00464921720657557" flag="0"/>
			<psa30 value="0.000479560726879525" flag="0"/>
		</comp>
		<comp name="--.HNN" depth="0.0">
			<acc value="0.0188136007728749" flag="0"/>
			<vel value="0.00556800811609911" flag="0"/>
			<psa03 value="0.0344505347830393" flag="0"/>
			<psa10 value="0.00313919279986506" flag="0"/>
			<psa30 value="0.000231877313858871" flag="0"/>
		</comp>
		<comp name="--.HNZ" depth="0.0">
			<acc value="0.011998730852741" flag="0"/>
			<vel value="0.00253186370788378" flag="0"/>
			<psa03 value="0.0203159656246824" flag="0"/>
			<psa10 value="0.00210421306566364" flag="0"/>
			<psa30 value="0.000453204032958668" flag="0"/>
		</comp>
	</station>
	<station code="GORS" name="GORS" netid="SL" source="Seismic Network of the Republic of Slovenia (SNRS)" insttype="" lat="46.3174" lon="13.9999" esm:processing="manual (Paolucci et al 2011)" esm:quality="best">
		<comp name="--.HNE" depth="0.0">
			<acc value="0.335882132007728" flag="0"/>
			<vel value="0.0472095184589087" flag="0"/>
			<psa03 value="0.150648865164506" flag="0"/>
			<psa10 value="0.0211505967482367" flag="0"/>
			<psa30 value="0.00160425783671006" flag="0"/>
		</comp>
		<comp name="--.HNN" depth="0.0">
			<acc value="0.42177125240619" flag="0"/>
			<vel value="0.0536653768495609" flag="0"/>
			<psa03 value="0.106315834568835" flag="0"/>
			<psa10 value="0.0150253975463644" flag="0"/>
			<psa30 value="0.000860357463210431" flag="0"/>
