<?xml version="1.0" encoding="UTF-8" standalone="yes"?>
<!DOCTYPE earthquake SYSTEM "stationlist.dtd">
<stationlist created="" xmlns="ch.ethz.sed.shakemap.usgs.xml">
  <station code="TRI" name="TRI" netid="MN" insttype="" lat="45.709" lon="13.764">
    <comp name="--.HHE">
      <acc value="0.0960636947" flag="0"/>
      <vel value="0.0165430283" flag="0"/>
      <psa03 value="0.0385307643" flag="0"/>
      <psa10 value="0.0033156456" flag="0"/>
      <psa30 value="0.0003632281" flag="0"/>
    </comp>
    <comp name="--.HHN">
      <acc value="0.0556142790" flag="0"/>
      <vel value="0.0109219742" flag="0"/>
      <psa03 value="0.0480301813" flag="0"/>
      <psa10 value="0.0038182107" flag="0"/>
      <psa30 value="0.0002953097" flag="0"/>
    </comp>
    <comp name="--.HHZ">
      <acc value="0.1240978256" flag="0"/>
      <vel value="0.0184142074" flag="0"/>
      <psa03 value="0.0949427438" flag="0"/>
      <psa10 value="0.0035652258" flag="0"/>
      <psa30 value="0.0003739107" flag="0"/>
    </comp>
  </station>
  <station code="DST2" name="DST2" netid="NI" insttype="" lat="45.6589" lon="13.8013">
    <comp name="--.HHN">
      <acc value="0.0481123159" flag="0"/>
      <vel value="0.0165438945" flag="0"/>
      <psa03 value="0.1109138232" flag="0"/>
      <psa10 value="0.0059956971" flag="0"/>
      <psa30 value="0.0005241178" flag="0"/>
    </comp>
    <comp name="--.HHE">
      <acc value="0.0880681197" flag="0"/>
      <vel value="0.0189961775" flag="0"/>
      <psa03 value="0.1300933801" flag="0"/>
      <psa10 value="0.0053455249" flag="0"/>
      <psa30 value="0.0003966350" flag="0"/>
    </comp>
    <comp name="--.HHZ">
      <acc value="0.0554810449" flag="0"/>
      <vel value="0.0145606337" flag="0"/>
      <psa03 value="0.1319099081" flag="0"/>
      <psa10 value="0.0054963226" flag="0"/>
      <psa30 value="0.0003805534" flag="0"/>
    </comp>
  </station>
  <station code="VINO" name="VINO" netid="NI" insttype="" lat="46.2538" lon="13.2755">
    <comp name="--.HHE">
      <acc value="0.0294234326" flag="0"/>
      <vel value="0.0055865124" flag="0"/>
      <psa03 value="0.0356254699" flag="0"/>
      <psa10 value="0.0020751419" flag="0"/>
      <psa30 value="0.0001923873" flag="0"/>
    </comp>
    <comp name="--.HHN">
      <acc value="0.0314500360" flag="0"/>
      <vel value="0.0103414032" flag="0"/>
      <psa03 value="0.0373976036" flag="0"/>
      <psa10 value="0.0027443256" flag="0"/>
      <psa30 value="0.0002554876" flag="0"/>
    </comp>
    <comp name="--.HHZ">
      <acc value="0.0378228063" flag="0"/>
      <vel value="0.0080570038" flag="0"/>
      <psa03 value="0.0234338647" flag="0"/>
      <psa10 value="0.0017555738" flag="0"/>
      <psa30 value="0.0001717574" flag="0"/>
    </comp>
  </station>
  <station code="MYKA" name="MYKA" netid="OE" insttype="STS-2" lat="46.6299" lon="13.6416">
    <comp name="--.HHZ">
      <acc value="0.0171773785" flag="0"/>
      <vel value="0.0040211582" flag="0"/>
      <psa03 value="0.0183016781" flag="0"/>
      <psa10 value="0.0014190768" flag="0"/>
      <psa30 value="0.0003048137" flag="0"/>
    </comp>
    <comp name="--.HHE">
      <acc value="0.0182789913" flag="0"/>
      <vel value="0.0050223667" flag="0"/>
      <psa03 value="0.0229512321" flag="0"/>
      <psa10 value="0.0016381046" flag="0"/>
      <psa30 value="0.0001813870" flag="0"/>
    </comp>
    <comp name="--.HHN">
      <acc value="0.0287893838" flag="0"/>
      <vel value="0.0061109865" flag="0"/>
      <psa03 value="0.0306758291" flag="0"/>
      <psa10 value="0.0017387645" flag="0"/>
      <psa30 value="0.0001902206" flag="0"/>
    </comp>
  </station>
  <station code="SOKA" name="SOKA" netid="OE" insttype="STS-2" lat="46.678" lon="15.0327">
    <comp name="--.HHE">
      <acc value="0.0101454632" flag="0"/>
      <vel value="0.0028700491" flag="0"/>
      <psa03 value="0.0114729619" flag="0"/>
      <psa10 value="0.0034563283" flag="0"/>
      <psa30 value="0.0001790226" flag="0"/>
    </comp>
    <comp name="--.HHN">
      <acc value="0.0080197117" flag="0"/>
      <vel value="0.0033733963" flag="0"/>
      <psa03 value="0.0174188230" flag="0"/>
      <psa10 value="0.0014318626" flag="0"/>
      <psa30 value="0.0001288535" flag="0"/>
    </comp>
    <comp name="--.HHZ">
      <acc value="0.0071523650" flag="0"/>
      <vel value="0.0022996618" flag="0"/>
      <psa03 value="0.0181035975" flag="0"/>
      <psa10 value="0.0013871995" flag="0"/>
      <psa30 value="0.0000947455" flag="0"/>
    </comp>
  </station>
  <station code="ACOM" name="ACOM" netid="OX" insttype="" lat="46.548" lon="13.5137">
    <comp name="--.HHE">
      <acc value="0.1175826739" flag="0"/>
      <vel value="0.0247459587" flag="0"/>
      <psa03 value="0.1101411904" flag="0"/>
      <psa10 value="0.0096493745" flag="0"/>
      <psa30 value="0.0005932761" flag="0"/>
    </comp>
    <comp name="--.HHN">
      <acc value="0.0532021614" flag="0"/>
      <vel value="0.0178588835" flag="0"/>
      <psa03 value="0.0833943124" flag="0"/>
      <psa10 value="0.0091398252" flag="0"/>
      <psa30 value="0.0005705025" flag="0"/>
    </comp>
    <comp name="--.HHZ">
      <acc value="0.0319200809" flag="0"/>
      <vel value="0.0119814410" flag="0"/>
      <psa03 value="0.0604452253" flag="0"/>
      <psa10 value="0.0055508295" flag="0"/>
      <psa30 value="0.0003888813" flag="0"/>
    </comp>
  </station>
  <station code="BAD" name="BAD" netid="OX" insttype="" lat="46.234" lon="13.2438">
    <comp name="--.HHE">
      <acc value="0.0210043498" flag="0"/>
      <vel value="0.0060091264" flag="0"/>
      <psa03 value="0.0344851532" flag="0"/>
      <psa10 value="0.0024758376" flag="0"/>
      <psa30 value="0.0002363807" flag="0"/>
    </comp>
    <comp name="--.HHZ">
      <acc value="0.0215672009" flag="0"/>
      <vel value="0.0082803967" flag="0"/>
      <psa03 value="0.0438890322" flag="0"/>
      <psa10 value="0.0019891936" flag="0"/>
      <psa30 value="0.0002906039" flag="0"/>
    </comp>
    <comp name="--.HHN">
      <acc value="0.0279510306" flag="0"/>
      <vel value="0.0086161229" flag="0"/>
      <psa03 value="0.0483207801" flag="0"/>
      <psa10 value="0.0034769993" flag="0"/>
      <psa30 value="0.0002666229" flag="0"/>
    </comp>
  </station>
  <station code="BOO" name="BOO" netid="OX" insttype="" lat="46.3195" lon="13.0984">
    <comp name="--.HHE">
      <acc value="0.0281524946" flag="0"/>
      <vel value="0.0063032765" flag="0"/>
      <psa03 value="0.0224983738" flag="0"/>
      <psa10 value="0.0020274730" flag="0"/>
      <psa30 value="0.0002050218" flag="0"/>
    </comp>
    <comp name="--.HHN">
      <acc value="0.0511844152" flag="0"/>
      <vel value="0.0139359699" flag="0"/>
      <psa03 value="0.0522776367" flag="0"/>
      <psa10 value="0.0030694812" flag="0"/>
      <psa30 value="0.0002054743" flag="0"/>
    </comp>
    <comp name="--.HHZ">
      <acc value="0.0178114476" flag="0"/>
      <vel value="0.0045518154" flag="0"/>
      <psa03 value="0.0126966046" flag="0"/>
      <psa10 value="0.0010643398" flag="0"/>
      <psa30 value="0.0001295953" flag="0"/>
    </comp>
  </station>
  <station code="DRE" name="DRE" netid="OX" insttype="" lat="46.1733" lon="13.645">
    <comp name="--.HHE">
      <acc value="1.0247774474" flag="0"/>
      <vel value="0.2440669955" flag="0"/>
      <psa03 value="0.4877371207" flag="0"/>
      <psa10 value="0.0259225643" flag="0"/>
      <psa30 value="0.0025925852" flag="0"/>
    </comp>
    <comp name="--.HHN">
      <acc value="0.9843947047" flag="0"/>
      <vel value="0.1824008184" flag="0"/>
      <psa03 value="0.4026700688" flag="0"/>
      <psa10 value="0.0174253388" flag="0"/>
      <psa30 value="0.0019357628" flag="0"/>
    </comp>
    <comp name="--.HHZ">
      <acc value="0.2334153163" flag="0"/>
      <vel value="0.0558507827" flag="0"/>
      <psa03 value="0.2114389285" flag="0"/>
      <psa10 value="0.0065808817" flag="0"/>
      <psa30 value="0.0006508411" flag="0"/>
    </comp>
  </station>
  <station code="FUSE" name="FUSE" netid="OX" insttype="" lat="46.4142" lon="13.0011">
    <comp name="--.HHE">
      <acc value="0.0129196875" flag="0"/>
      <vel value="0.0054877051" flag="0"/>
      <psa03 value="0.0244160204" flag="0"/>
      <psa10 value="0.0021259360" flag="0"/>
      <psa30 value="0.0001538533" flag="0"/>
    </comp>
    <comp name="--.HHZ">
      <acc value="0.0104934451" flag="0"/>
      <vel value="0.0032215839" flag="0"/>
      <psa03 value="0.0151178615" flag="0"/>
      <psa10 value="0.0021582309" flag="0"/>
      <psa30 value="0.0001492983" flag="0"/>
    </comp>
    <comp name="--.HHN">
      <acc value="0.0252162079" flag="0"/>
      <vel value="0.0071659145" flag="0"/>
      <psa03 value="0.0385877792" flag="0"/>
      <psa10 value="0.0028050240" flag="0"/>
      <psa30 value="0.0002189655" flag="0"/>
    </comp>
  </station>
  <station code="MPRI" name="MPRI" netid="OX" insttype="" lat="46.2408" lon="12.9877">
    <comp name="--.HHE">
      <acc value="0.0135412982" flag="0"/>
      <vel value="0.0053957795" flag="0"/>
      <psa03 value="0.0200142335" flag="0"/>
      <psa10 value="0.0031919875" flag="0"/>
      <psa30 value="0.0002517884" flag="0"/>
    </comp>
    <comp name="--.HHN">
      <acc value="0.0143862291" flag="0"/>
      <vel value="0.0058198262" flag="0"/>
      <psa03 value="0.0299675617" flag="0"/>
      <psa10 value="0.0030147612" flag="0"/>
      <psa30 value="0.0003675744" flag="0"/>
    </comp>
    <comp name="--.HHZ">
      <acc value="0.0116602245" flag="0"/>
      <vel value="0.0031562572" flag="0"/>
      <psa03 value="0.0231377208" flag="0"/>
      <psa10 value="0.0018482039" flag="0"/>
      <psa30 value="0.0002673349" flag="0"/>
    </comp>
  </station>
  <station code="PLRO" name="PLRO" netid="OX" insttype="" lat="46.5491" lon="13.1481">
    <comp name="--.HHE">
      <acc value="0.0376441770" flag="0"/>
      <vel value="0.0095928840" flag="0"/>
      <psa03 value="0.0542978538" flag="0"/>
      <psa10 value="0.0032381510" flag="0"/>
      <psa30 value="0.0002300269" flag="0"/>
    </comp>
    <comp name="--.HHN">
      <acc value="0.0450351813" flag="0"/>
      <vel value="0.0151651969" flag="0"/>
      <psa03 value="0.1127740091" flag="0"/>
      <psa10 value="0.0083971724" flag="0"/>
      <psa30 value="0.0004170565" flag="0"/>
    </comp>
    <comp name="--.HHZ">
      <acc value="0.0162528523" flag="0"/>
      <vel value="0.0055987631" flag="0"/>
      <psa03 value="0.0397879682" flag="0"/>
      <psa10 value="0.0016043952" flag="0"/>
      <psa30 value="0.0001717677" flag="0"/>
    </comp>
  </station>
  <station code="PRED" name="PRED" netid="OX" insttype="" lat="46.4428" lon="13.565">
    <comp name="--.HHE">
      <acc value="0.0209649413" flag="0"/>
      <vel value="0.0041047346" flag="0"/>
      <psa03 value="0.0176957928" flag="0"/>
      <psa10 value="0.0019601304" flag="0"/>
      <psa30 value="0.0002031467" flag="0"/>
    </comp>
    <comp name="--.HHN">
      <acc value="0.0183260227" flag="0"/>
      <vel value="0.0041321568" flag="0"/>
      <psa03 value="0.0201132409" flag="0"/>
      <psa10 value="0.0034234105" flag="0"/>
      <psa30 value="0.0001709657" flag="0"/>
    </comp>
    <comp name="--.HHZ">
      <acc value="0.0221944153" flag="0"/>
      <vel value="0.0056243492" flag="0"/>
      <psa03 value="0.0296394822" flag="0"/>
      <psa10 value="0.0022627324" flag="0"/>
      <psa30 value="0.0002150100" flag="0"/>
    </comp>
  </station>
  <station code="SABO" name="SABO" netid="OX" insttype="" lat="45.9875" lon="13.6336">
    <comp name="--.HHE">
      <acc value="0.1651368150" flag="0"/>
      <vel value="0.0498983621" flag="0"/>
      <psa03 value="0.1987882030" flag="0"/>
      <psa10 value="0.0151982793" flag="0"/>
      <psa30 value="0.0006944932" flag="0"/>
    </comp>
    <comp name="--.HHN">
      <acc value="0.0938456587" flag="0"/>
      <vel value="0.0313026955" flag="0"/>
      <psa03 value="0.1561541963" flag="0"/>
      <psa10 value="0.0196486553" flag="0"/>
      <psa30 value="0.0012571928" flag="0"/>
    </comp>
    <comp name="--.HHZ">
      <acc value="0.0503713463" flag="0"/>
      <vel value="0.0154936915" flag="0"/>
      <psa03 value="0.1085209691" flag="0"/>
      <psa10 value="0.0043960807" flag="0"/>
      <psa30 value="0.0004446071" flag="0"/>
    </comp>
  </station>
  <station code="GEPF" name="GEPF" netid="RF" insttype="" lat="46.275" lon="13.1386">
    <comp name="--.HHE">
      <acc value="0.0261003658" flag="0"/>
      <vel value="0.0069976345" flag="0"/>
      <psa03 value="0.0257346513" flag="0"/>
      <psa10 value="0.0025203288" flag="0"/>
      <psa30 value="0.0001765985" flag="0"/>
    </comp>
    <comp name="--.HHN">
      <acc value="0.0332501144" flag="0"/>
      <vel value="0.0092446331" flag="0"/>
      <psa03 value="0.0339977806" flag="0"/>
      <psa10 value="0.0029215402" flag="0"/>
      <psa30 value="0.0001556973" flag="0"/>
    </comp>
    <comp name="--.HHZ">
      <acc value="0.0273511309" flag="0"/>
      <vel value="0.0056582039" flag="0"/>
      <psa03 value="0.0132281101" flag="0"/>
      <psa10 value="0.0022521300" flag="0"/>
      <psa30 value="0.0000831984" flag="0"/>
    </comp>
  </station>
</stationlist>
