<?xml version="1.0" encoding="UTF-8" standalone="yes"?>
<!DOCTYPE earthquake SYSTEM "stationlist.dtd">
<stationlist created="" xmlns="ch.ethz.sed.shakemap.usgs.xml">
  <station code="ARPRA" name="ARPRA" netid="KO" insttype="CMG-5T" lat="39.0929" lon="38.3356">
    <comp name="--.HNN">
      <acc value="0.0470126537" flag="0"/>
      <vel value="0.0286949424" flag="0"/>
      <psa03 value="0.2113008488" flag="0"/>
      <psa10 value="0.0418753156" flag="0"/>
      <psa30 value="0.0023580339" flag="0"/>
    </comp>
    <comp name="--.HNE">
      <acc value="0.0626253067" flag="0"/>
      <vel value="0.0307053316" flag="0"/>
      <psa03 value="0.1688891594" flag="0"/>
      <psa10 value="0.0293582259" flag="0"/>
      <psa30 value="0.0035598553" flag="0"/>
    </comp>
    <comp name="--.HNZ">
      <acc value="0.0296133534" flag="0"/>
      <vel value="0.0158337568" flag="0"/>
      <psa03 value="0.1045785880" flag="0"/>
      <psa10 value="0.0275083897" flag="0"/>
      <psa30 value="0.0023301908" flag="0"/>
    </comp>
  </station>
  <station code="DARE" name="DARE" netid="KO" insttype="CMG-3ESP" lat="38.5712" lon="37.4832">
    <comp name="--.HHE">
      <acc value="0.0293170329" flag="0"/>
      <vel value="0.0130335371" flag="0"/>
      <psa03 value="0.0414185486" flag="0"/>
      <psa10 value="0.0126954574" flag="0"/>
      <psa30 value="0.0010970542" flag="0"/>
    </comp>
    <comp name="--.HHN">
      <acc value="0.0465722620" flag="0"/>
      <vel value="0.0155834289" flag="0"/>
      <psa03 value="0.0490420403" flag="0"/>
      <psa10 value="0.0134351976" flag="0"/>
      <psa30 value="0.0017303380" flag="0"/>
    </comp>
  </station>
  <station code="URFA" name="URFA" netid="KO" insttype="CMG-3ESP" lat="37.4409" lon="38.8213">
    <comp name="--.HHE">
      <acc value="0.0374420116" flag="0"/>
      <vel value="0.0094878053" flag="0"/>
      <psa03 value="0.0430059012" flag="0"/>
      <psa10 value="0.0138294638" flag="0"/>
      <psa30 value="0.0027856237" flag="0"/>
    </comp>
    <comp name="--.HHN">
      <acc value="0.0342564192" flag="0"/>
      <vel value="0.0109681729" flag="0"/>
      <psa03 value="0.0586030540" flag="0"/>
      <psa10 value="0.0157141617" flag="0"/>
      <psa30 value="0.0026323508" flag="0"/>
    </comp>
    <comp name="--.HHZ">
      <acc value="0.0426713350" flag="0"/>
      <vel value="0.0095169211" flag="0"/>
      <psa03 value="0.0354206242" flag="0"/>
      <psa10 value="0.0169274720" flag="0"/>
      <psa30 value="0.0017264533" flag="0"/>
    </comp>
  </station>
</stationlist>
