<?xml version="1.0" encoding="UTF-8" standalone="yes"?>
<!DOCTYPE earthquake SYSTEM "stationlist.dtd">
<stationlist created="" xmlns="ch.ethz.sed.shakemap.usgs.xml">
  <station code="AGRB" name="AGRB" netid="KO" insttype="120s," lat="39.5755" lon="42.992">
    <comp name="--.HHZ">
      <acc value="0.0175164489" flag="0"/>
      <vel value="0.0225860786" flag="0"/>
      <psa03 value="0.0265574333" flag="0"/>
      <psa10 value="0.0313111529" flag="0"/>
      <psa30 value="0.0070510788" flag="0"/>
    </comp>
    <comp name="--.HHN">
      <acc value="0.0196413479" flag="0"/>
      <vel value="0.0305318893" flag="0"/>
      <psa03 value="0.0375726659" flag="0"/>
      <psa10 value="0.0420267824" flag="0"/>
      <psa30 value="0.0137441022" flag="0"/>
    </comp>
    <comp name="--.HHE">
      <acc value="0.0194603981" flag="0"/>
      <vel value="0.0381357202" flag="0"/>
      <psa03 value="0.0410660283" flag="0"/>
      <psa10 value="0.0438528627" flag="0"/>
      <psa30 value="0.0152688338" flag="0"/>
    </comp>
  </station>
  <station code="KOPR" name="KOPR" netid="KO" insttype="120s," lat="39.9917" lon="41.8535">
    <comp name="--.HHE">
      <acc value="0.0656858052" flag="0"/>
      <vel value="0.1876373785" flag="0"/>
      <psa03 value="0.1288008148" flag="0"/>
      <psa10 value="0.0961038267" flag="0"/>
      <psa30 value="0.0944894212" flag="0"/>
    </comp>
    <comp name="--.HHN">
      <acc value="0.0394581839" flag="0"/>
      <vel value="0.1035650210" flag="0"/>
      <psa03 value="0.0909154739" flag="0"/>
      <psa10 value="0.0792888645" flag="0"/>
      <psa30 value="0.0440229847" flag="0"/>
    </comp>
    <comp name="--.HHZ">
      <acc value="0.0379987095" flag="0"/>
      <vel value="0.1283264207" flag="0"/>
      <psa03 value="0.0671584698" flag="0"/>
      <psa10 value="0.0561190774" flag="0"/>
      <psa30 value="0.0690984771" flag="0"/>
    </comp>
  </station>
  <station code="TASB" name="TASB" netid="KO" insttype="120s," lat="39.9839" lon="44.2384">
    <comp name="--.HHE">
      <acc value="0.0324745894" flag="0"/>
      <vel value="0.0765281540" flag="0"/>
      <psa03 value="0.0568176399" flag="0"/>
      <psa10 value="0.1092338656" flag="0"/>
      <psa30 value="0.0478073160" flag="0"/>
    </comp>
    <comp name="--.HHN">
      <acc value="0.0290356502" flag="0"/>
      <vel value="0.0745051224" flag="0"/>
      <psa03 value="0.0446709534" flag="0"/>
      <psa10 value="0.0907586869" flag="0"/>
      <psa30 value="0.0287546498" flag="0"/>
    </comp>
    <comp name="--.HHZ">
      <acc value="0.0193089449" flag="0"/>
      <vel value="0.0438634239" flag="0"/>
      <psa03 value="0.0259246305" flag="0"/>
      <psa10 value="0.0556394544" flag="0"/>
      <psa30 value="0.0258682692" flag="0"/>
    </comp>
  </station>
</stationlist>
