<?xml version="1.0" encoding="UTF-8" standalone="yes"?>
<!DOCTYPE earthquake SYSTEM "stationlist.dtd">
<stationlist created="" xmlns="ch.ethz.sed.shakemap.usgs.xml">
  <station code="AGRB" name="AGRB" netid="KO" insttype="120s," lat="39.5755" lon="42.992">
    <comp name="--.HHE">
      <acc value="0.0194603981" flag="0"/>
      <vel value="0.0381357140" flag="0"/>
      <psa03 value="0.0410660283" flag="0"/>
      <psa10 value="0.0438528627" flag="0"/>
      <psa30 value="0.0152688361" flag="0"/>
    </comp>
    <comp name="--.HHN">
      <acc value="0.0196413479" flag="0"/>
      <vel value="0.0305318931" flag="0"/>
      <psa03 value="0.0375726659" flag="0"/>
      <psa10 value="0.0420267823" flag="0"/>
      <psa30 value="0.0137441185" flag="0"/>
    </comp>
    <comp name="--.HHZ">
      <acc value="0.0175164489" flag="0"/>
      <vel value="0.0225860801" flag="0"/>
      <psa03 value="0.0265574333" flag="0"/>
      <psa10 value="0.0313111529" flag="0"/>
      <psa30 value="0.0070510818" flag="0"/>
    </comp>
  </station>
  <station code="KOPR" name="KOPR" netid="KO" insttype="120s," lat="39.9917" lon="41.8535">
    <comp name="--.HHE">
      <acc value="0.0656858059" flag="0"/>
      <vel value="0.1876374481" flag="0"/>
      <psa03 value="0.1288008148" flag="0"/>
      <psa10 value="0.0961038266" flag="0"/>
      <psa30 value="0.0944894995" flag="0"/>
    </comp>
    <comp name="--.HHN">
      <acc value="0.0394581835" flag="0"/>
      <vel value="0.1035650107" flag="0"/>
      <psa03 value="0.0909154739" flag="0"/>
      <psa10 value="0.0792888645" flag="0"/>
      <psa30 value="0.0440229910" flag="0"/>
    </comp>
    <comp name="--.HHZ">
      <acc value="0.0379987095" flag="0"/>
      <vel value="0.1283264170" flag="0"/>
      <psa03 value="0.0671584697" flag="0"/>
      <psa10 value="0.0561190774" flag="0"/>
      <psa30 value="0.0690984673" flag="0"/>
    </comp>
  </station>
  <station code="TASB" name="TASB" netid="KO" insttype="120s," lat="39.9839" lon="44.2384">
    <comp name="--.HHE">
      <acc value="0.0324745897" flag="0"/>
      <vel value="0.0765281543" flag="0"/>
      <psa03 value="0.0568176399" flag="0"/>
      <psa10 value="0.1092338656" flag="0"/>
      <psa30 value="0.0478046733" flag="0"/>
    </comp>
    <comp name="--.HHN">
      <acc value="0.0290356508" flag="0"/>
      <vel value="0.0745050819" flag="0"/>
      <psa03 value="0.0446709533" flag="0"/>
      <psa10 value="0.0907586870" flag="0"/>
      <psa30 value="0.0249276801" flag="0"/>
    </comp>
    <comp name="--.HHZ">
      <acc value="0.0193089446" flag="0"/>
      <vel value="0.0438634259" flag="0"/>
      <psa03 value="0.0259246305" flag="0"/>
      <psa10 value="0.0556394544" flag="0"/>
      <psa30 value="0.0222680357" flag="0"/>
    </comp>
  </station>
</stationlist>
