<stationlist created="1778205346">
	<station code="CHAY" name="CHAY" netid="KO" source="Bogazici University Kandilli Observatory And Earthquake Research Institute (KOERI)" insttype="" lat="41.0862" lon="40.7253">
		<comp name="--.HNE" depth="0.0">
			<acc value="0.0692637461945939" flag="0"/>
			<vel value="0.0546862027269745" flag="0"/>
			<psa03 value="0.137991005810429" flag="0"/>
			<psa10 value="0.0620168270603971" flag="0"/>
			<psa30 value="0.0137319821764099" flag="0"/>
		</comp>
		<comp name="--.HNN" depth="0.0">
			<acc value="0.109118115238482" flag="0"/>
			<vel value="0.106960772633336" flag="0"/>
			<psa03 value="0.220094726028674" flag="0"/>
			<psa10 value="0.104703268577742" flag="0"/>
			<psa30 value="0.0119851689586333" flag="0"/>
		</comp>
		<comp name="--.HNZ" depth="0.0">
			<acc value="0.0265327699292378" flag="0"/>
			<vel value="0.0278368260029428" flag="0"/>
			<psa03 value="0.0681024124924063" flag="0"/>
			<psa10 value="0.0449126377419786" flag="0"/>
			<psa30 value="0.0130083842416298" flag="0"/>
		</comp>
	</station>
	<station code="ERCV" name="ERCV" netid="KO" source="Bogazici University Kandilli Observatory And Earthquake Research Institute (KOERI)" insttype="" lat="39.0198" lon="43.3381">
		<comp name="--.HNE" depth="0.0">
			<acc value="0.0321601445195627" flag="0"/>
			<vel value="0.07269763297845" flag="0"/>
			<psa03 value="0.0350754173242779" flag="0"/>
			<psa10 value="0.0611587177148163" flag="0"/>
			<psa30 value="0.0303088044762266" flag="0"/>
		</comp>
		<comp name="--.HNN" depth="0.0">
			<acc value="0.0538547099480598" flag="0"/>
			<vel value="0.0582458831884949" flag="0"/>
			<psa03 value="0.0337096028874026" flag="0"/>
			<psa10 value="0.0796886014786325" flag="0"/>
			<psa30 value="0.0258457388200126" flag="0"/>
		</comp>
		<comp name="--.HNZ" depth="0.0">
			<acc value="0.104412733410056" flag="0"/>
			<vel value="0.0464274746042769" flag="0"/>
			<psa03 value="0.0245991738453859" flag="0"/>
			<psa10 value="0.0420432251571761" flag="0"/>
			<psa30 value="0.00849538611097503" flag="0"/>
		</comp>
	</station>
	<station code="HOPA" name="HOPA" netid="KO" source="Bogazici University Kandilli Observatory And Earthquake Research Institute (KOERI)" insttype="" lat="41.3867" lon="41.4458">
		<comp name="--.HNE" depth="0.0">
			<acc value="0.332759603185148" flag="0"/>
			<vel value="0.123707500457339" flag="0"/>
			<psa03 value="0.631435912864192" flag="0"/>
			<psa10 value="0.094954167747656" flag="0"/>
			<psa30 value="0.0122393307955891" flag="0"/>
		</comp>
		<comp name="--.HNN" depth="0.0">
			<acc value="0.258759529284606" flag="0"/>
			<vel value="0.0955427241763399" flag="0"/>
			<psa03 value="0.430107200824747" flag="0"/>
			<psa10 value="0.105497233674146" flag="0"/>
			<psa30 value="0.0112001369541122" flag="0"/>
		</comp>
		<comp name="--.HNZ" depth="0.0">
			<acc value="0.0694027646899457" flag="0"/>
			<vel value="0.0568963953440868" flag="0"/>
			<psa03 value="0.146571063780347" flag="0"/>
			<psa10 value="0.0432506363922032" flag="0"/>
			<psa30 value="0.00940703316977432" flag="0"/>
		</comp>
	</station>
</stationlist>
