<?xml version="1.0" encoding="UTF-8" standalone="yes"?>
<!DOCTYPE earthquake SYSTEM "stationlist.dtd">
<stationlist created="" xmlns="ch.ethz.sed.shakemap.usgs.xml">
  <station code="GOMA" name="GOMA" netid="KO" insttype="CMG-5T" commtype="DIG" lat="38.7077" lon="27.9175">
    <comp name="--.HNZ">
      <acc value="0.0494000467" flag="0"/>
      <vel value="0.0114531624" flag="0"/>
      <psa03 value="0.0291330712" flag="0"/>
      <psa10 value="0.0043442518" flag="0"/>
      <psa30 value="0.0005212733" flag="0"/>
    </comp>
  </station>
  <station code="GONE" name="GONE" netid="KO" insttype="CMG-5T" commtype="DIG" lat="40.0466" lon="27.686">
    <comp name="--.HNE">
      <acc value="0.0329814149" flag="0"/>
      <vel value="0.0183189903" flag="0"/>
      <psa03 value="0.0477610657" flag="0"/>
      <psa10 value="0.0201522375" flag="0"/>
      <psa30 value="0.0010763570" flag="0"/>
    </comp>
    <comp name="--.HNN">
      <acc value="0.0345917555" flag="0"/>
      <vel value="0.0179314633" flag="0"/>
      <psa03 value="0.0704921686" flag="0"/>
      <psa10 value="0.0140417412" flag="0"/>
      <psa30 value="0.0007399067" flag="0"/>
    </comp>
    <comp name="--.HNZ">
      <acc value="0.0125567099" flag="0"/>
      <vel value="0.0049001662" flag="0"/>
      <psa03 value="0.0276999314" flag="0"/>
      <psa10 value="0.0073781887" flag="0"/>
      <psa30 value="0.0003239468" flag="0"/>
    </comp>
  </station>
  <station code="GORD" name="GORD" netid="KO" insttype="CMG-5T" commtype="DIG" lat="38.9088" lon="28.1769">
    <comp name="--.HNN">
      <acc value="0.0439863395" flag="0"/>
      <vel value="0.0238504479" flag="0"/>
      <psa03 value="0.0501660448" flag="0"/>
      <psa10 value="0.0401094449" flag="0"/>
      <psa30 value="0.0017806164" flag="0"/>
    </comp>
    <comp name="--.HNE">
      <acc value="0.0322484310" flag="0"/>
      <vel value="0.0198624511" flag="0"/>
      <psa03 value="0.0395987880" flag="0"/>
      <psa10 value="0.0326368424" flag="0"/>
      <psa30 value="0.0022517012" flag="0"/>
    </comp>
    <comp name="--.HNZ">
      <acc value="0.0395084371" flag="0"/>
      <vel value="0.0118974127" flag="0"/>
      <psa03 value="0.0280718613" flag="0"/>
      <psa10 value="0.0122519683" flag="0"/>
      <psa30 value="0.0017415183" flag="0"/>
    </comp>
  </station>
  <station code="KCTX" name="KCTX" netid="KO" insttype="CMG-3ESP" commtype="DIG" lat="40.2626" lon="28.3353">
    <comp name="--.HHE">
      <acc value="0.0194944549" flag="0"/>
      <vel value="0.0107854389" flag="0"/>
      <psa03 value="0.0227578969" flag="0"/>
      <psa10 value="0.0176145978" flag="0"/>
      <psa30 value="0.0009658738" flag="0"/>
    </comp>
    <comp name="--.HHN">
      <acc value="0.0192982475" flag="0"/>
      <vel value="0.0091174793" flag="0"/>
      <psa03 value="0.0252849894" flag="0"/>
      <psa10 value="0.0078720555" flag="0"/>
      <psa30 value="0.0004208978" flag="0"/>
    </comp>
    <comp name="--.HHZ">
      <acc value="0.0144686865" flag="0"/>
      <vel value="0.0053101456" flag="0"/>
      <psa03 value="0.0184158197" flag="0"/>
      <psa10 value="0.0040908487" flag="0"/>
      <psa30 value="0.0002845506" flag="0"/>
    </comp>
  </station>
  <station code="YAYO" name="YAYO" netid="KO" insttype="CMG-6T" commtype="DIG" lat="39.6113" lon="27.0726">
    <comp name="--.HHN">
      <acc value="0.0239797652" flag="0"/>
      <vel value="0.0135662880" flag="0"/>
      <psa03 value="0.1225025075" flag="0"/>
      <psa10 value="0.0082979360" flag="0"/>
      <psa30 value="0.0004775165" flag="0"/>
    </comp>
    <comp name="--.HHE">
      <acc value="0.0313033045" flag="0"/>
      <vel value="0.0190094161" flag="0"/>
      <psa03 value="0.0832933392" flag="0"/>
      <psa10 value="0.0118832024" flag="0"/>
      <psa30 value="0.0008502620" flag="0"/>
    </comp>
    <comp name="--.HHZ">
      <acc value="0.0167692910" flag="0"/>
      <vel value="0.0115471495" flag="0"/>
      <psa03 value="0.0500318889" flag="0"/>
      <psa10 value="0.0073258820" flag="0"/>
      <psa30 value="0.0004844045" flag="0"/>
    </comp>
  </station>
</stationlist>
