<?xml version="1.0" encoding="UTF-8" standalone="yes"?>
<!DOCTYPE earthquake SYSTEM "stationlist.dtd">
<stationlist created="" xmlns="ch.ethz.sed.shakemap.usgs.xml">
  <station code="PDG" name="PDG" netid="MN" insttype="" lat="42.4297" lon="19.2608">
    <comp name="--.HHE">
      <acc value="0.0108687649" flag="0"/>
      <vel value="0.0049453227" flag="0"/>
      <psa03 value="0.0173609742" flag="0"/>
      <psa10 value="0.0042330223" flag="0"/>
      <psa30 value="0.0003716412" flag="0"/>
    </comp>
    <comp name="--.HHN">
      <acc value="0.0130838992" flag="0"/>
      <vel value="0.0052348968" flag="0"/>
      <psa03 value="0.0225152710" flag="0"/>
      <psa10 value="0.0042199508" flag="0"/>
      <psa30 value="0.0004403101" flag="0"/>
    </comp>
    <comp name="--.HHZ">
      <acc value="0.0075961865" flag="0"/>
      <vel value="0.0032888606" flag="0"/>
      <psa03 value="0.0190583461" flag="0"/>
      <psa10 value="0.0041933332" flag="0"/>
      <psa30 value="0.0002900450" flag="0"/>
    </comp>
  </station>
  <station code="BH01A" name="BH01A" netid="Y5" insttype="STS2_gen3" lat="43.6265" lon="18.9627">
    <comp name="--.HHZ">
      <acc value="0.0319685628" flag="0"/>
      <vel value="0.0096702796" flag="0"/>
      <psa03 value="0.0422977185" flag="0"/>
      <psa10 value="0.0112947519" flag="0"/>
      <psa30 value="0.0008437615" flag="0"/>
    </comp>
    <comp name="--.HH2">
      <acc value="0.0220141543" flag="0"/>
      <vel value="0.0089154511" flag="0"/>
      <psa03 value="0.0467700750" flag="0"/>
      <psa10 value="0.0095207298" flag="0"/>
      <psa30 value="0.0005410351" flag="0"/>
    </comp>
    <comp name="--.HH1">
      <acc value="0.0252661494" flag="0"/>
      <vel value="0.0119975598" flag="0"/>
      <psa03 value="0.0494392503" flag="0"/>
      <psa10 value="0.0098129689" flag="0"/>
      <psa30 value="0.0006002140" flag="0"/>
    </comp>
  </station>
  <station code="BH02A" name="BH02A" netid="Y5" insttype="STS2_gen3" lat="43.8746" lon="18.4241">
    <comp name="--.HHZ">
      <acc value="0.0292074495" flag="0"/>
      <vel value="0.0174362597" flag="0"/>
      <psa03 value="0.0834474543" flag="0"/>
      <psa10 value="0.0163382856" flag="0"/>
      <psa30 value="0.0008768935" flag="0"/>
    </comp>
    <comp name="--.HH2">
      <acc value="0.0333895167" flag="0"/>
      <vel value="0.0205795288" flag="0"/>
      <psa03 value="0.0893024564" flag="0"/>
      <psa10 value="0.0160680528" flag="0"/>
      <psa30 value="0.0011511103" flag="0"/>
    </comp>
    <comp name="--.HH1">
      <acc value="0.0227586990" flag="0"/>
      <vel value="0.0134507943" flag="0"/>
      <psa03 value="0.0774608235" flag="0"/>
      <psa10 value="0.0174266233" flag="0"/>
      <psa30 value="0.0012042738" flag="0"/>
    </comp>
  </station>
  <station code="BH04A" name="BH04A" netid="Y5" insttype="STS2_gen2" lat="43.3483" lon="17.7935">
    <comp name="--.HH1">
      <acc value="0.4467115207" flag="0"/>
      <vel value="0.1437237726" flag="0"/>
      <psa03 value="0.7982441331" flag="0"/>
      <psa10 value="0.0564706071" flag="0"/>
      <psa30 value="0.0042729672" flag="0"/>
    </comp>
    <comp name="--.HH2">
      <acc value="0.4414978701" flag="0"/>
      <vel value="0.1254663470" flag="0"/>
      <psa03 value="0.7863947020" flag="0"/>
      <psa10 value="0.0418585688" flag="0"/>
      <psa30 value="0.0025886566" flag="0"/>
    </comp>
    <comp name="--.HHZ">
      <acc value="0.4947071376" flag="0"/>
      <vel value="0.1064725076" flag="0"/>
      <psa03 value="0.4580392758" flag="0"/>
      <psa10 value="0.0392122103" flag="0"/>
      <psa30 value="0.0020183185" flag="0"/>
    </comp>
  </station>
  <station code="BH05A" name="BH05A" netid="Y5" insttype="STS2_gen2" lat="43.1695" lon="18.5854">
    <comp name="--.HH2">
      <acc value="0.1600937122" flag="0"/>
      <vel value="0.0327877042" flag="0"/>
      <psa03 value="0.1576416682" flag="0"/>
      <psa10 value="0.0129667784" flag="0"/>
      <psa30 value="0.0017173411" flag="0"/>
    </comp>
    <comp name="--.HHZ">
      <acc value="0.0861196157" flag="0"/>
      <vel value="0.0356746947" flag="0"/>
      <psa03 value="0.1124807514" flag="0"/>
      <psa10 value="0.0251536045" flag="0"/>
      <psa30 value="0.0022103098" flag="0"/>
    </comp>
    <comp name="--.HH1">
      <acc value="0.1420876120" flag="0"/>
      <vel value="0.0296607391" flag="0"/>
      <psa03 value="0.1118213068" flag="0"/>
      <psa10 value="0.0287879178" flag="0"/>
      <psa30 value="0.0017119588" flag="0"/>
    </comp>
  </station>
  <station code="BH06A" name="BH06A" netid="Y5" insttype="STS2_gen3" lat="43.5022" lon="18.4463">
    <comp name="--.HH1">
      <acc value="0.3276476572" flag="0"/>
      <vel value="0.2186828848" flag="0"/>
      <psa03 value="0.9164217241" flag="0"/>
      <psa10 value="0.1166690891" flag="0"/>
      <psa30 value="0.0078577981" flag="0"/>
    </comp>
    <comp name="--.HH2">
      <acc value="0.2777055402" flag="0"/>
      <vel value="0.1649965553" flag="0"/>
      <psa03 value="0.7835295380" flag="0"/>
      <psa10 value="0.1360729141" flag="0"/>
      <psa30 value="0.0073307744" flag="0"/>
    </comp>
    <comp name="--.HHZ">
      <acc value="0.2236891872" flag="0"/>
      <vel value="0.1447255175" flag="0"/>
      <psa03 value="0.7057924663" flag="0"/>
      <psa10 value="0.1057255291" flag="0"/>
      <psa30 value="0.0046201504" flag="0"/>
    </comp>
  </station>
  <station code="BH07A" name="BH07A" netid="Y5" insttype="STS2_gen3" lat="43.7511" lon="18.0361">
    <comp name="--.HH2">
      <acc value="0.1254629595" flag="0"/>
      <vel value="0.0301125177" flag="0"/>
      <psa03 value="0.1285344989" flag="0"/>
      <psa10 value="0.0228408648" flag="0"/>
      <psa30 value="0.0012601745" flag="0"/>
    </comp>
    <comp name="--.HHZ">
      <acc value="0.0712248320" flag="0"/>
      <vel value="0.0232713562" flag="0"/>
      <psa03 value="0.0637449284" flag="0"/>
      <psa10 value="0.0354791502" flag="0"/>
      <psa30 value="0.0016418755" flag="0"/>
    </comp>
    <comp name="--.HH1">
      <acc value="0.0965856053" flag="0"/>
      <vel value="0.0224130629" flag="0"/>
      <psa03 value="0.0725588127" flag="0"/>
      <psa10 value="0.0139902103" flag="0"/>
      <psa30 value="0.0007037022" flag="0"/>
    </comp>
  </station>
  <station code="BH08A" name="BH08A" netid="Y5" insttype="STS2_gen2" lat="44.2357" lon="18.0082">
    <comp name="--.HH2">
      <acc value="0.0207535547" flag="0"/>
      <vel value="0.0080573254" flag="0"/>
      <psa03 value="0.0385372446" flag="0"/>
      <psa10 value="0.0125002660" flag="0"/>
      <psa30 value="0.0005307253" flag="0"/>
    </comp>
    <comp name="--.HH1">
      <acc value="0.0150927672" flag="0"/>
      <vel value="0.0079918054" flag="0"/>
      <psa03 value="0.0435151044" flag="0"/>
      <psa10 value="0.0074538769" flag="0"/>
      <psa30 value="0.0004857257" flag="0"/>
    </comp>
    <comp name="--.HHZ">
      <acc value="0.0127940259" flag="0"/>
      <vel value="0.0063158153" flag="0"/>
      <psa03 value="0.0336895288" flag="0"/>
      <psa10 value="0.0100095220" flag="0"/>
      <psa30 value="0.0005332232" flag="0"/>
    </comp>
  </station>
  <station code="BH10A" name="BH10A" netid="Y5" insttype="STS2_gen3" lat="44.0685" lon="17.1657">
    <comp name="--.HH2">
      <acc value="0.0197146820" flag="0"/>
      <vel value="0.0093278665" flag="0"/>
      <psa03 value="0.0541650078" flag="0"/>
      <psa10 value="0.0094473564" flag="0"/>
      <psa30 value="0.0006695086" flag="0"/>
    </comp>
    <comp name="--.HHZ">
      <acc value="0.0088284453" flag="0"/>
      <vel value="0.0073461224" flag="0"/>
      <psa03 value="0.0280124199" flag="0"/>
      <psa10 value="0.0151299630" flag="0"/>
      <psa30 value="0.0005056101" flag="0"/>
    </comp>
    <comp name="--.HH1">
      <acc value="0.0177623763" flag="0"/>
      <vel value="0.0144383222" flag="0"/>
      <psa03 value="0.0392196975" flag="0"/>
      <psa10 value="0.0213479558" flag="0"/>
      <psa30 value="0.0008199749" flag="0"/>
    </comp>
  </station>
</stationlist>
