<?xml version="1.0" encoding="UTF-8" standalone="yes"?>
<!DOCTYPE earthquake SYSTEM "stationlist.dtd">
<stationlist created="" xmlns="ch.ethz.sed.shakemap.usgs.xml">
  <station code="CEYT" name="CEYT" netid="KO" insttype="CMG-3ESP" commtype="DIG" lat="37.0105" lon="35.7478">
    <comp name="--.HHE">
      <acc value="0.0132040494" flag="0"/>
      <vel value="0.0040130225" flag="0"/>
      <psa03 value="0.0230381436" flag="0"/>
      <psa10 value="0.0030118142" flag="0"/>
      <psa30 value="0.0001896983" flag="0"/>
    </comp>
    <comp name="--.HHN">
      <acc value="0.0122854179" flag="0"/>
      <vel value="0.0047777655" flag="0"/>
      <psa03 value="0.0250480072" flag="0"/>
      <psa10 value="0.0040153148" flag="0"/>
      <psa30 value="0.0002789268" flag="0"/>
    </comp>
    <comp name="--.HHZ">
      <acc value="0.0063003150" flag="0"/>
      <vel value="0.0023420594" flag="0"/>
      <psa03 value="0.0130447895" flag="0"/>
      <psa10 value="0.0017620630" flag="0"/>
      <psa30 value="0.0000868838" flag="0"/>
    </comp>
  </station>
</stationlist>
