<?xml version="1.0" encoding="UTF-8" standalone="yes"?>
<!DOCTYPE earthquake SYSTEM "stationlist.dtd">
<stationlist created="" xmlns="ch.ethz.sed.shakemap.usgs.xml">
  <station code="ADVT" name="ADVT" netid="KO" insttype="CMG-3ESP" commtype="DIG" lat="40.4332" lon="29.7383">
    <comp name="--.HHZ">
      <acc value="0.0078196987" flag="0"/>
      <vel value="0.0088426971" flag="0"/>
      <psa03 value="0.0148225007" flag="0"/>
      <psa10 value="0.0151980427" flag="0"/>
      <psa30 value="0.0024884795" flag="0"/>
    </comp>
  </station>
  <station code="AKS" name="AKS" netid="KO" insttype="CMG-5T" commtype="DIG" lat="38.8785" lon="27.8129">
    <comp name="--.HNE">
      <acc value="0.0506656270" flag="0"/>
      <vel value="0.0222247668" flag="0"/>
      <psa03 value="0.1040236391" flag="0"/>
      <psa10 value="0.0372330255" flag="0"/>
      <psa30 value="0.0033335674" flag="0"/>
    </comp>
    <comp name="--.HNN">
      <acc value="0.0708629148" flag="0"/>
      <vel value="0.0331656159" flag="0"/>
      <psa03 value="0.1073721148" flag="0"/>
      <psa10 value="0.0364251307" flag="0"/>
      <psa30 value="0.0040405344" flag="0"/>
    </comp>
    <comp name="--.HNZ">
      <acc value="0.0410445385" flag="0"/>
      <vel value="0.0135016641" flag="0"/>
      <psa03 value="0.0458879401" flag="0"/>
      <psa10 value="0.0182100219" flag="0"/>
      <psa30 value="0.0025817696" flag="0"/>
    </comp>
  </station>
  <station code="ALT" name="ALT" netid="KO" insttype="CMG-5T" commtype="DIG" lat="39.0541" lon="30.1104">
    <comp name="--.HNE">
      <acc value="0.0405753351" flag="0"/>
      <vel value="0.0093839556" flag="0"/>
      <psa03 value="0.0511190489" flag="0"/>
      <psa10 value="0.0038286455" flag="0"/>
      <psa30 value="0.0011771724" flag="0"/>
    </comp>
    <comp name="--.HNN">
      <acc value="0.0374797155" flag="0"/>
      <vel value="0.0141310625" flag="0"/>
      <psa03 value="0.0537063851" flag="0"/>
      <psa10 value="0.0073923589" flag="0"/>
      <psa30 value="0.0021769705" flag="0"/>
    </comp>
    <comp name="--.HNZ">
      <acc value="0.0185675273" flag="0"/>
      <vel value="0.0107839636" flag="0"/>
      <psa03 value="0.0278606682" flag="0"/>
      <psa10 value="0.0097468553" flag="0"/>
      <psa30 value="0.0017886481" flag="0"/>
    </comp>
  </station>
  <station code="ARMT" name="ARMT" netid="KO" insttype="CMG-3ESP" commtype="DIG" lat="40.5683" lon="28.866">
    <comp name="--.HHN">
      <acc value="0.0652792417" flag="0"/>
      <vel value="0.0249837103" flag="0"/>
      <psa03 value="0.1294819634" flag="0"/>
      <psa10 value="0.0239191087" flag="0"/>
      <psa30 value="0.0024271188" flag="0"/>
    </comp>
    <comp name="--.HHE">
      <acc value="0.0379616185" flag="0"/>
      <vel value="0.0131869628" flag="0"/>
      <psa03 value="0.0770304086" flag="0"/>
      <psa10 value="0.0127577785" flag="0"/>
      <psa30 value="0.0021541735" flag="0"/>
    </comp>
  </station>
  <station code="BALB" name="BALB" netid="KO" insttype="CMG-5T" commtype="DIG" lat="39.6507" lon="27.8642">
    <comp name="--.HNZ">
      <acc value="0.0391953085" flag="0"/>
      <vel value="0.0120052422" flag="0"/>
      <psa03 value="0.0557834677" flag="0"/>
      <psa10 value="0.0089414550" flag="0"/>
      <psa30 value="0.0020602969" flag="0"/>
    </comp>
    <comp name="--.HNE">
      <acc value="0.1257939314" flag="0"/>
      <vel value="0.0377596754" flag="0"/>
      <psa03 value="0.1833135538" flag="0"/>
      <psa10 value="0.0271713525" flag="0"/>
      <psa30 value="0.0020445007" flag="0"/>
    </comp>
    <comp name="--.HNN">
      <acc value="0.0700398746" flag="0"/>
      <vel value="0.0357846748" flag="0"/>
      <psa03 value="0.1500637931" flag="0"/>
      <psa10 value="0.0252806602" flag="0"/>
      <psa30 value="0.0044844200" flag="0"/>
    </comp>
  </station>
  <station code="GEML" name="GEML" netid="KO" insttype="CMG-3T" commtype="DIG" lat="40.4646" lon="29.2116">
    <comp name="--.HHE">
      <acc value="0.0530099049" flag="0"/>
      <vel value="0.0186716776" flag="0"/>
      <psa03 value="0.0950633433" flag="0"/>
      <psa10 value="0.0184534440" flag="0"/>
      <psa30 value="0.0012451801" flag="0"/>
    </comp>
    <comp name="--.HHN">
      <acc value="0.0447395217" flag="0"/>
      <vel value="0.0180572959" flag="0"/>
      <psa03 value="0.1038070032" flag="0"/>
      <psa10 value="0.0162341641" flag="0"/>
      <psa30 value="0.0023417894" flag="0"/>
    </comp>
    <comp name="--.HHZ">
      <acc value="0.0387044569" flag="0"/>
      <vel value="0.0128956103" flag="0"/>
      <psa03 value="0.0355286406" flag="0"/>
      <psa10 value="0.0116509133" flag="0"/>
      <psa30 value="0.0018585047" flag="0"/>
    </comp>
  </station>
  <station code="GOMA" name="GOMA" netid="KO" insttype="CMG-5T" commtype="DIG" lat="38.7077" lon="27.9175">
    <comp name="--.HNZ">
      <acc value="0.0435022241" flag="0"/>
      <vel value="0.0196488872" flag="0"/>
      <psa03 value="0.0810333023" flag="0"/>
      <psa10 value="0.0315952549" flag="0"/>
      <psa30 value="0.0039697845" flag="0"/>
    </comp>
    <comp name="--.HNE">
      <acc value="0.0615891782" flag="0"/>
      <vel value="0.0368154691" flag="0"/>
      <psa03 value="0.1353245975" flag="0"/>
      <psa10 value="0.0285249417" flag="0"/>
      <psa30 value="0.0049800019" flag="0"/>
    </comp>
    <comp name="--.HNN">
      <acc value="0.1483161689" flag="0"/>
      <vel value="0.0739936958" flag="0"/>
      <psa03 value="0.2164079869" flag="0"/>
      <psa10 value="0.0373469750" flag="0"/>
      <psa30 value="0.0043467012" flag="0"/>
    </comp>
  </station>
  <station code="GONE" name="GONE" netid="KO" insttype="CMG-5T" commtype="DIG" lat="40.0466" lon="27.686">
    <comp name="--.HNE">
      <acc value="0.0756779608" flag="0"/>
      <vel value="0.0632128887" flag="0"/>
      <psa03 value="0.1658619066" flag="0"/>
      <psa10 value="0.0307090620" flag="0"/>
      <psa30 value="0.0038425171" flag="0"/>
    </comp>
    <comp name="--.HNN">
      <acc value="0.0844608540" flag="0"/>
      <vel value="0.0498870847" flag="0"/>
      <psa03 value="0.1992415475" flag="0"/>
      <psa10 value="0.0790655781" flag="0"/>
      <psa30 value="0.0084294179" flag="0"/>
    </comp>
    <comp name="--.HNZ">
      <acc value="0.0587996076" flag="0"/>
      <vel value="0.0167366233" flag="0"/>
      <psa03 value="0.0788885045" flag="0"/>
      <psa10 value="0.0176023165" flag="0"/>
      <psa30 value="0.0024813999" flag="0"/>
    </comp>
  </station>
  <station code="GORD" name="GORD" netid="KO" insttype="CMG-5T" commtype="DIG" lat="38.9088" lon="28.1769">
    <comp name="--.HNE">
      <acc value="0.0880555112" flag="0"/>
      <vel value="0.0730453940" flag="0"/>
      <psa03 value="0.1008191481" flag="0"/>
      <psa10 value="0.1563892951" flag="0"/>
      <psa30 value="0.0070049123" flag="0"/>
    </comp>
    <comp name="--.HNZ">
      <acc value="0.0716577843" flag="0"/>
      <vel value="0.0464656259" flag="0"/>
      <psa03 value="0.0878519763" flag="0"/>
      <psa10 value="0.0479660603" flag="0"/>
      <psa30 value="0.0042824690" flag="0"/>
    </comp>
    <comp name="--.HNN">
      <acc value="0.0975519463" flag="0"/>
      <vel value="0.0794079444" flag="0"/>
      <psa03 value="0.1272331760" flag="0"/>
      <psa10 value="0.1292401426" flag="0"/>
      <psa30 value="0.0100343987" flag="0"/>
    </comp>
  </station>
  <station code="IZI" name="IZI" netid="KO" insttype="CMG-5T" commtype="DIG" lat="40.3483" lon="29.4612">
    <comp name="--.HNE">
      <acc value="0.0293038199" flag="0"/>
      <vel value="0.0198130900" flag="0"/>
      <psa03 value="0.0675932570" flag="0"/>
      <psa10 value="0.0421798223" flag="0"/>
      <psa30 value="0.0032468211" flag="0"/>
    </comp>
    <comp name="--.HNN">
      <acc value="0.0296799229" flag="0"/>
      <vel value="0.0194322543" flag="0"/>
      <psa03 value="0.0597663334" flag="0"/>
      <psa10 value="0.0375859272" flag="0"/>
      <psa30 value="0.0033854680" flag="0"/>
    </comp>
    <comp name="--.HNZ">
      <acc value="0.0205217129" flag="0"/>
      <vel value="0.0244102918" flag="0"/>
      <psa03 value="0.0431845968" flag="0"/>
      <psa10 value="0.0348076958" flag="0"/>
      <psa30 value="0.0027952124" flag="0"/>
    </comp>
  </station>
  <station code="KCTX" name="KCTX" netid="KO" insttype="CMG-3ESP" commtype="DIG" lat="40.2626" lon="28.3353">
    <comp name="--.HHN">
      <acc value="0.0861859627" flag="0"/>
      <vel value="0.0603398202" flag="0"/>
      <psa03 value="0.2960425311" flag="0"/>
      <psa10 value="0.0419341762" flag="0"/>
      <psa30 value="0.0038440352" flag="0"/>
    </comp>
    <comp name="--.HHZ">
      <acc value="0.0452402214" flag="0"/>
      <vel value="0.0251242339" flag="0"/>
      <psa03 value="0.0888518211" flag="0"/>
      <psa10 value="0.0202253455" flag="0"/>
      <psa30 value="0.0015935493" flag="0"/>
    </comp>
    <comp name="--.HHE">
      <acc value="0.0571033897" flag="0"/>
      <vel value="0.0334827215" flag="0"/>
      <psa03 value="0.1461863854" flag="0"/>
      <psa10 value="0.0324759681" flag="0"/>
      <psa30 value="0.0048448897" flag="0"/>
    </comp>
  </station>
  <station code="KULA" name="KULA" netid="KO" insttype="CMG-3T" commtype="DIG" lat="38.5145" lon="28.6607">
    <comp name="--.HHZ">
      <acc value="0.0810466049" flag="0"/>
      <vel value="0.0224829526" flag="0"/>
      <psa03 value="0.1018971592" flag="0"/>
      <psa10 value="0.0196071367" flag="0"/>
      <psa30 value="0.0023053449" flag="0"/>
    </comp>
  </station>
  <station code="MDNY" name="MDNY" netid="KO" insttype="CMG-5T" commtype="DIG" lat="40.3709" lon="28.8846">
    <comp name="--.HNE">
      <acc value="0.1324159623" flag="0"/>
      <vel value="0.0473003804" flag="0"/>
      <psa03 value="0.2692466036" flag="0"/>
      <psa10 value="0.0192990818" flag="0"/>
      <psa30 value="0.0036743255" flag="0"/>
    </comp>
    <comp name="--.HNN">
      <acc value="0.1669799961" flag="0"/>
      <vel value="0.0599393927" flag="0"/>
      <psa03 value="0.5091917869" flag="0"/>
      <psa10 value="0.0305317724" flag="0"/>
      <psa30 value="0.0031441817" flag="0"/>
    </comp>
    <comp name="--.HNZ">
      <acc value="0.0687292535" flag="0"/>
      <vel value="0.0257843550" flag="0"/>
      <psa03 value="0.0859060359" flag="0"/>
      <psa10 value="0.0181464175" flag="0"/>
      <psa30 value="0.0026094763" flag="0"/>
    </comp>
  </station>
  <station code="ORLT" name="ORLT" netid="KO" insttype="CMG-5T" commtype="DIG" lat="40.0452" lon="28.8914">
    <comp name="--.HNE">
      <acc value="0.0803734276" flag="0"/>
      <vel value="0.0351540908" flag="0"/>
      <psa03 value="0.2796578688" flag="0"/>
      <psa10 value="0.0328290818" flag="0"/>
      <psa30 value="0.0031172495" flag="0"/>
    </comp>
    <comp name="--.HNN">
      <acc value="0.0733976622" flag="0"/>
      <vel value="0.0366748153" flag="0"/>
      <psa03 value="0.2251813992" flag="0"/>
      <psa10 value="0.0742995984" flag="0"/>
      <psa30 value="0.0039654521" flag="0"/>
    </comp>
    <comp name="--.HNZ">
      <acc value="0.0311294423" flag="0"/>
      <vel value="0.0248056250" flag="0"/>
      <psa03 value="0.0501066766" flag="0"/>
      <psa10 value="0.0303774742" flag="0"/>
      <psa30 value="0.0036467825" flag="0"/>
    </comp>
  </station>
  <station code="SHAP" name="SHAP" netid="KO" insttype="CMG-5T" commtype="DIG" lat="39.0231" lon="29.222">
    <comp name="--.HNE">
      <acc value="1.6089403137" flag="0"/>
      <vel value="0.4144186210" flag="0"/>
      <psa03 value="2.1371348958" flag="0"/>
      <psa10 value="0.1138007977" flag="0"/>
      <psa30 value="0.0145637206" flag="0"/>
    </comp>
    <comp name="--.HNN">
      <acc value="1.5782610526" flag="0"/>
      <vel value="0.5147998205" flag="0"/>
      <psa03 value="1.8822596560" flag="0"/>
      <psa10 value="0.1381088103" flag="0"/>
      <psa30 value="0.0108968072" flag="0"/>
    </comp>
    <comp name="--.HNZ">
      <acc value="0.6918934423" flag="0"/>
      <vel value="0.2159919719" flag="0"/>
      <psa03 value="0.6176755331" flag="0"/>
      <psa10 value="0.0730581626" flag="0"/>
      <psa30 value="0.0076385101" flag="0"/>
    </comp>
  </station>
  <station code="SMAA" name="SMAA" netid="KO" insttype="CMG-5T" commtype="DIG" lat="39.1005" lon="28.9805">
    <comp name="--.HNE">
      <acc value="1.7653476341" flag="0"/>
      <vel value="0.9520469804" flag="0"/>
      <psa03 value="3.9368564479" flag="0"/>
      <psa10 value="1.5267099496" flag="0"/>
      <psa30 value="0.0855453944" flag="0"/>
    </comp>
    <comp name="--.HNN">
      <acc value="2.0379540196" flag="0"/>
      <vel value="0.9769034662" flag="0"/>
      <psa03 value="4.6523361812" flag="0"/>
      <psa10 value="1.3290114498" flag="0"/>
      <psa30 value="0.1076132133" flag="0"/>
    </comp>
    <comp name="--.HNZ">
      <acc value="2.6856613387" flag="0"/>
      <vel value="0.6971504441" flag="0"/>
      <psa03 value="2.1150762296" flag="0"/>
      <psa10 value="1.0498836059" flag="0"/>
      <psa30 value="0.0301491148" flag="0"/>
    </comp>
  </station>
  <station code="SUSR" name="SUSR" netid="KO" insttype="CMG-5T" commtype="DIG" lat="39.9627" lon="28.0835">
    <comp name="--.HNE">
      <acc value="0.1446070209" flag="0"/>
      <vel value="0.0584637366" flag="0"/>
      <psa03 value="0.3433734412" flag="0"/>
      <psa10 value="0.0186287942" flag="0"/>
      <psa30 value="0.0022164895" flag="0"/>
    </comp>
    <comp name="--.HNZ">
      <acc value="0.0952370879" flag="0"/>
      <vel value="0.0390222984" flag="0"/>
      <psa03 value="0.1361803573" flag="0"/>
      <psa10 value="0.0144061409" flag="0"/>
      <psa30 value="0.0014318179" flag="0"/>
    </comp>
    <comp name="--.HNN">
      <acc value="0.1736497316" flag="0"/>
      <vel value="0.0587553718" flag="0"/>
      <psa03 value="0.4460536237" flag="0"/>
      <psa10 value="0.0246921644" flag="0"/>
      <psa30 value="0.0046119513" flag="0"/>
    </comp>
  </station>
  <station code="TVSB" name="TVSB" netid="KO" insttype="CMG-3T" commtype="DIG" lat="39.4497" lon="29.4615">
    <comp name="--.HHN">
      <acc value="0.4814172637" flag="0"/>
      <vel value="0.1248138926" flag="0"/>
      <psa03 value="0.2891931850" flag="0"/>
      <psa10 value="0.0517237058" flag="0"/>
      <psa30 value="0.0070671219" flag="0"/>
    </comp>
    <comp name="--.HHE">
      <acc value="0.5202801677" flag="0"/>
      <vel value="0.1426481814" flag="0"/>
      <psa03 value="0.5293025738" flag="0"/>
      <psa10 value="0.0525273913" flag="0"/>
      <psa30 value="0.0055485333" flag="0"/>
    </comp>
    <comp name="--.HHZ">
      <acc value="0.2677376586" flag="0"/>
      <vel value="0.0674993083" flag="0"/>
      <psa03 value="0.1497711089" flag="0"/>
      <psa10 value="0.0734340994" flag="0"/>
      <psa30 value="0.0071762886" flag="0"/>
    </comp>
  </station>
</stationlist>
