<?xml version="1.0" encoding="UTF-8" standalone="yes"?>
<!DOCTYPE earthquake SYSTEM "stationlist.dtd">
<stationlist created="" xmlns="ch.ethz.sed.shakemap.usgs.xml">
  <station code="ADVT" name="ADVT" netid="KO" insttype="CMG-3ESP" commtype="DIG" lat="40.4332" lon="29.7383">
    <comp name="--.HHZ">
      <acc value="0.0078196986" flag="0"/>
      <vel value="0.0088426971" flag="0"/>
      <psa03 value="0.0148225007" flag="0"/>
      <psa10 value="0.0151980427" flag="0"/>
      <psa30 value="0.0024884804" flag="0"/>
    </comp>
  </station>
  <station code="AKS" name="AKS" netid="KO" insttype="CMG-5T" commtype="DIG" lat="38.8785" lon="27.8129">
    <comp name="--.HNN">
      <acc value="0.0708629119" flag="0"/>
      <vel value="0.0331656122" flag="0"/>
      <psa03 value="0.1073721148" flag="0"/>
      <psa10 value="0.0364251312" flag="0"/>
      <psa30 value="0.0040399034" flag="0"/>
    </comp>
    <comp name="--.HNE">
      <acc value="0.0506656318" flag="0"/>
      <vel value="0.0222247734" flag="0"/>
      <psa03 value="0.1040236391" flag="0"/>
      <psa10 value="0.0372330248" flag="0"/>
      <psa30 value="0.0033324522" flag="0"/>
    </comp>
    <comp name="--.HNZ">
      <acc value="0.0410445350" flag="0"/>
      <vel value="0.0135016672" flag="0"/>
      <psa03 value="0.0458879401" flag="0"/>
      <psa10 value="0.0182100228" flag="0"/>
      <psa30 value="0.0025818441" flag="0"/>
    </comp>
  </station>
  <station code="ALT" name="ALT" netid="KO" insttype="CMG-5T" commtype="DIG" lat="39.0541" lon="30.1104">
    <comp name="--.HNN">
      <acc value="0.0374797137" flag="0"/>
      <vel value="0.0141310578" flag="0"/>
      <psa03 value="0.0537063851" flag="0"/>
      <psa10 value="0.0073923581" flag="0"/>
      <psa30 value="0.0021771579" flag="0"/>
    </comp>
    <comp name="--.HNE">
      <acc value="0.0405753369" flag="0"/>
      <vel value="0.0093839586" flag="0"/>
      <psa03 value="0.0511190489" flag="0"/>
      <psa10 value="0.0038286455" flag="0"/>
      <psa30 value="0.0011770499" flag="0"/>
    </comp>
    <comp name="--.HNZ">
      <acc value="0.0185675237" flag="0"/>
      <vel value="0.0107839705" flag="0"/>
      <psa03 value="0.0278606682" flag="0"/>
      <psa10 value="0.0097468551" flag="0"/>
      <psa30 value="0.0017884288" flag="0"/>
    </comp>
  </station>
  <station code="ARMT" name="ARMT" netid="KO" insttype="CMG-3ESP" commtype="DIG" lat="40.5683" lon="28.866">
    <comp name="--.HHZ">
      <acc value="0.0239494986" flag="0"/>
      <vel value="0.0115038263" flag="0"/>
      <psa03 value="0.0623896842" flag="0"/>
      <psa10 value="0.0093473389" flag="0"/>
      <psa30 value="0.0025104934" flag="0"/>
    </comp>
    <comp name="--.HHN">
      <acc value="0.0652792417" flag="0"/>
      <vel value="0.0249837111" flag="0"/>
      <psa03 value="0.1294819634" flag="0"/>
      <psa10 value="0.0239191087" flag="0"/>
      <psa30 value="0.0024271166" flag="0"/>
    </comp>
    <comp name="--.HHE">
      <acc value="0.0379616185" flag="0"/>
      <vel value="0.0131869616" flag="0"/>
      <psa03 value="0.0770304086" flag="0"/>
      <psa10 value="0.0127577785" flag="0"/>
      <psa30 value="0.0021541717" flag="0"/>
    </comp>
  </station>
  <station code="BALB" name="BALB" netid="KO" insttype="CMG-5T" commtype="DIG" lat="39.6507" lon="27.8642">
    <comp name="--.HNE">
      <acc value="0.1257939317" flag="0"/>
      <vel value="0.0377596764" flag="0"/>
      <psa03 value="0.1833135538" flag="0"/>
      <psa10 value="0.0271713525" flag="0"/>
      <psa30 value="0.0020445032" flag="0"/>
    </comp>
    <comp name="--.HNN">
      <acc value="0.0700398740" flag="0"/>
      <vel value="0.0357846761" flag="0"/>
      <psa03 value="0.1500637931" flag="0"/>
      <psa10 value="0.0252806601" flag="0"/>
      <psa30 value="0.0044844516" flag="0"/>
    </comp>
    <comp name="--.HNZ">
      <acc value="0.0391953069" flag="0"/>
      <vel value="0.0120052411" flag="0"/>
      <psa03 value="0.0557834677" flag="0"/>
      <psa10 value="0.0089414550" flag="0"/>
      <psa30 value="0.0020602982" flag="0"/>
    </comp>
  </station>
  <station code="GEML" name="GEML" netid="KO" insttype="CMG-3T" commtype="DIG" lat="40.4646" lon="29.2116">
    <comp name="--.HHN">
      <acc value="0.0447395218" flag="0"/>
      <vel value="0.0180572958" flag="0"/>
      <psa03 value="0.1038070032" flag="0"/>
      <psa10 value="0.0162341641" flag="0"/>
      <psa30 value="0.0023417899" flag="0"/>
    </comp>
    <comp name="--.HHE">
      <acc value="0.0530099049" flag="0"/>
      <vel value="0.0186716775" flag="0"/>
      <psa03 value="0.0950633433" flag="0"/>
      <psa10 value="0.0184534440" flag="0"/>
      <psa30 value="0.0012451781" flag="0"/>
    </comp>
    <comp name="--.HHZ">
      <acc value="0.0387044569" flag="0"/>
      <vel value="0.0128956107" flag="0"/>
      <psa03 value="0.0355286406" flag="0"/>
      <psa10 value="0.0116509133" flag="0"/>
      <psa30 value="0.0018585116" flag="0"/>
    </comp>
  </station>
  <station code="GOMA" name="GOMA" netid="KO" insttype="CMG-5T" commtype="DIG" lat="38.7077" lon="27.9175">
    <comp name="--.HNE">
      <acc value="0.0615891698" flag="0"/>
      <vel value="0.0368154629" flag="0"/>
      <psa03 value="0.1353245975" flag="0"/>
      <psa10 value="0.0285249417" flag="0"/>
      <psa30 value="0.0049795454" flag="0"/>
    </comp>
    <comp name="--.HNN">
      <acc value="0.1483161721" flag="0"/>
      <vel value="0.0739936980" flag="0"/>
      <psa03 value="0.2164079869" flag="0"/>
      <psa10 value="0.0373469756" flag="0"/>
      <psa30 value="0.0043467195" flag="0"/>
    </comp>
    <comp name="--.HNZ">
      <acc value="0.0435022248" flag="0"/>
      <vel value="0.0196488916" flag="0"/>
      <psa03 value="0.0810333023" flag="0"/>
      <psa10 value="0.0315952545" flag="0"/>
      <psa30 value="0.0039697754" flag="0"/>
    </comp>
  </station>
  <station code="GONE" name="GONE" netid="KO" insttype="CMG-5T" commtype="DIG" lat="40.0466" lon="27.686">
    <comp name="--.HNZ">
      <acc value="0.0587996067" flag="0"/>
      <vel value="0.0167366251" flag="0"/>
      <psa03 value="0.0788885045" flag="0"/>
      <psa10 value="0.0176023260" flag="0"/>
      <psa30 value="0.0024813998" flag="0"/>
    </comp>
    <comp name="--.HNN">
      <acc value="0.0844608530" flag="0"/>
      <vel value="0.0498870847" flag="0"/>
      <psa03 value="0.1992415475" flag="0"/>
      <psa10 value="0.0790655781" flag="0"/>
      <psa30 value="0.0084293948" flag="0"/>
    </comp>
    <comp name="--.HNE">
      <acc value="0.0756779604" flag="0"/>
      <vel value="0.0632128896" flag="0"/>
      <psa03 value="0.1658619066" flag="0"/>
      <psa10 value="0.0307090620" flag="0"/>
      <psa30 value="0.0038425118" flag="0"/>
    </comp>
  </station>
  <station code="GORD" name="GORD" netid="KO" insttype="CMG-5T" commtype="DIG" lat="38.9088" lon="28.1769">
    <comp name="--.HNZ">
      <acc value="0.0716577839" flag="0"/>
      <vel value="0.0464656268" flag="0"/>
      <psa03 value="0.0878519763" flag="0"/>
      <psa10 value="0.0479660602" flag="0"/>
      <psa30 value="0.0042827884" flag="0"/>
    </comp>
    <comp name="--.HNN">
      <acc value="0.0975519464" flag="0"/>
      <vel value="0.0794079437" flag="0"/>
      <psa03 value="0.1272331760" flag="0"/>
      <psa10 value="0.1292401430" flag="0"/>
      <psa30 value="0.0100344136" flag="0"/>
    </comp>
    <comp name="--.HNE">
      <acc value="0.0880555112" flag="0"/>
      <vel value="0.0730453929" flag="0"/>
      <psa03 value="0.1008191481" flag="0"/>
      <psa10 value="0.1563892949" flag="0"/>
      <psa30 value="0.0070048135" flag="0"/>
    </comp>
  </station>
  <station code="IZI" name="IZI" netid="KO" insttype="CMG-5T" commtype="DIG" lat="40.3483" lon="29.4612">
    <comp name="--.HNE">
      <acc value="0.0293038178" flag="0"/>
      <vel value="0.0198130974" flag="0"/>
      <psa03 value="0.0675932570" flag="0"/>
      <psa10 value="0.0421798221" flag="0"/>
      <psa30 value="0.0032469175" flag="0"/>
    </comp>
    <comp name="--.HNN">
      <acc value="0.0296799174" flag="0"/>
      <vel value="0.0194322567" flag="0"/>
      <psa03 value="0.0597663334" flag="0"/>
      <psa10 value="0.0375859273" flag="0"/>
      <psa30 value="0.0033855347" flag="0"/>
    </comp>
    <comp name="--.HNZ">
      <acc value="0.0205217234" flag="0"/>
      <vel value="0.0244103027" flag="0"/>
      <psa03 value="0.0431845968" flag="0"/>
      <psa10 value="0.0348076958" flag="0"/>
      <psa30 value="0.0027952879" flag="0"/>
    </comp>
  </station>
  <station code="KCTX" name="KCTX" netid="KO" insttype="CMG-3ESP" commtype="DIG" lat="40.2626" lon="28.3353">
    <comp name="--.HHZ">
      <acc value="0.0452402214" flag="0"/>
      <vel value="0.0251242339" flag="0"/>
      <psa03 value="0.0888518211" flag="0"/>
      <psa10 value="0.0202253484" flag="0"/>
      <psa30 value="0.0015936360" flag="0"/>
    </comp>
    <comp name="--.HHE">
      <acc value="0.0571033897" flag="0"/>
      <vel value="0.0334827229" flag="0"/>
      <psa03 value="0.1461863854" flag="0"/>
      <psa10 value="0.0324759681" flag="0"/>
      <psa30 value="0.0048448835" flag="0"/>
    </comp>
    <comp name="--.HHN">
      <acc value="0.0861859627" flag="0"/>
      <vel value="0.0603398198" flag="0"/>
      <psa03 value="0.2960425311" flag="0"/>
      <psa10 value="0.0419341761" flag="0"/>
      <psa30 value="0.0038439906" flag="0"/>
    </comp>
  </station>
  <station code="KULA" name="KULA" netid="KO" insttype="CMG-3T" commtype="DIG" lat="38.5145" lon="28.6607">
    <comp name="--.HHZ">
      <acc value="0.0810466048" flag="0"/>
      <vel value="0.0224829527" flag="0"/>
      <psa03 value="0.1018971592" flag="0"/>
      <psa10 value="0.0196071367" flag="0"/>
      <psa30 value="0.0023053460" flag="0"/>
    </comp>
  </station>
  <station code="MDNY" name="MDNY" netid="KO" insttype="CMG-5T" commtype="DIG" lat="40.3709" lon="28.8846">
    <comp name="--.HNN">
      <acc value="0.1669799966" flag="0"/>
      <vel value="0.0599393924" flag="0"/>
      <psa03 value="0.5091917869" flag="0"/>
      <psa10 value="0.0305317724" flag="0"/>
      <psa30 value="0.0031441495" flag="0"/>
    </comp>
    <comp name="--.HNZ">
      <acc value="0.0687292541" flag="0"/>
      <vel value="0.0257843540" flag="0"/>
      <psa03 value="0.0859060359" flag="0"/>
      <psa10 value="0.0181464175" flag="0"/>
      <psa30 value="0.0026095060" flag="0"/>
    </comp>
    <comp name="--.HNE">
      <acc value="0.1324159624" flag="0"/>
      <vel value="0.0473003804" flag="0"/>
      <psa03 value="0.2692466036" flag="0"/>
      <psa10 value="0.0192990819" flag="0"/>
      <psa30 value="0.0036743374" flag="0"/>
    </comp>
  </station>
  <station code="ORLT" name="ORLT" netid="KO" insttype="CMG-5T" commtype="DIG" lat="40.0452" lon="28.8914">
    <comp name="--.HNE">
      <acc value="0.0803734270" flag="0"/>
      <vel value="0.0351540870" flag="0"/>
      <psa03 value="0.2796578688" flag="0"/>
      <psa10 value="0.0328290820" flag="0"/>
      <psa30 value="0.0031171652" flag="0"/>
    </comp>
    <comp name="--.HNZ">
      <acc value="0.0311294466" flag="0"/>
      <vel value="0.0248056304" flag="0"/>
      <psa03 value="0.0501066766" flag="0"/>
      <psa10 value="0.0303774749" flag="0"/>
      <psa30 value="0.0036468671" flag="0"/>
    </comp>
    <comp name="--.HNN">
      <acc value="0.0733976626" flag="0"/>
      <vel value="0.0366748325" flag="0"/>
      <psa03 value="0.2251813992" flag="0"/>
      <psa10 value="0.0742995975" flag="0"/>
      <psa30 value="0.0039663020" flag="0"/>
    </comp>
  </station>
  <station code="SHAP" name="SHAP" netid="KO" insttype="CMG-5T" commtype="DIG" lat="39.0231" lon="29.222">
    <comp name="--.HNE">
      <acc value="1.6089403130" flag="0"/>
      <vel value="0.4144186207" flag="0"/>
      <psa03 value="2.1371348958" flag="0"/>
      <psa10 value="0.1138007861" flag="0"/>
      <psa30 value="0.0145640916" flag="0"/>
    </comp>
    <comp name="--.HNZ">
      <acc value="0.6918934415" flag="0"/>
      <vel value="0.2159919732" flag="0"/>
      <psa03 value="0.6176755331" flag="0"/>
      <psa10 value="0.0730581542" flag="0"/>
      <psa30 value="0.0076378931" flag="0"/>
    </comp>
    <comp name="--.HNN">
      <acc value="1.5782610534" flag="0"/>
      <vel value="0.5147998185" flag="0"/>
      <psa03 value="1.8822596560" flag="0"/>
      <psa10 value="0.1381088023" flag="0"/>
      <psa30 value="0.0108979431" flag="0"/>
    </comp>
  </station>
  <station code="SMAA" name="SMAA" netid="KO" insttype="CMG-5T" commtype="DIG" lat="39.1005" lon="28.9805">
    <comp name="--.HNE">
      <acc value="1.7653476274" flag="0"/>
      <vel value="0.9520469682" flag="0"/>
      <psa03 value="3.9368564479" flag="0"/>
      <psa10 value="1.5267099516" flag="0"/>
      <psa30 value="0.0855434357" flag="0"/>
    </comp>
    <comp name="--.HNZ">
      <acc value="1.0956808913" flag="0"/>
      <vel value="0.4186590448" flag="0"/>
      <psa03 value="2.1150762287" flag="0"/>
      <psa10 value="1.0498835878" flag="0"/>
      <psa30 value="0.0301461371" flag="0"/>
    </comp>
    <comp name="--.HNN">
      <acc value="2.0379539740" flag="0"/>
      <vel value="0.9769034697" flag="0"/>
      <psa03 value="4.6523361812" flag="0"/>
      <psa10 value="1.3290114311" flag="0"/>
      <psa30 value="0.1076134923" flag="0"/>
    </comp>
  </station>
  <station code="TVSB" name="TVSB" netid="KO" insttype="CMG-3T" commtype="DIG" lat="39.4497" lon="29.4615">
    <comp name="--.HHN">
      <acc value="0.4814172639" flag="0"/>
      <vel value="0.1248138925" flag="0"/>
      <psa03 value="0.2891931850" flag="0"/>
      <psa10 value="0.0517237054" flag="0"/>
      <psa30 value="0.0070671214" flag="0"/>
    </comp>
    <comp name="--.HHE">
      <acc value="0.5202801676" flag="0"/>
      <vel value="0.1426481812" flag="0"/>
      <psa03 value="0.5293025738" flag="0"/>
      <psa10 value="0.0525273911" flag="0"/>
      <psa30 value="0.0055485473" flag="0"/>
    </comp>
    <comp name="--.HHZ">
      <acc value="0.2677376586" flag="0"/>
      <vel value="0.0674993082" flag="0"/>
      <psa03 value="0.1497711089" flag="0"/>
      <psa10 value="0.0734340995" flag="0"/>
      <psa30 value="0.0071763015" flag="0"/>
    </comp>
  </station>
</stationlist>
