<?xml version="1.0" encoding="UTF-8" standalone="yes"?>
<!DOCTYPE earthquake SYSTEM "stationlist.dtd">
<stationlist created="" xmlns="ch.ethz.sed.shakemap.usgs.xml">
  <station code="ADVT" name="ADVT" netid="KO" insttype="CMG-3ESP" commtype="DIG" lat="40.4332" lon="29.7383">
    <comp name="--.HHZ">
      <acc value="0.0078196987" flag="0"/>
      <vel value="0.0088426972" flag="0"/>
      <psa03 value="0.0148225007" flag="0"/>
      <psa10 value="0.0151980427" flag="0"/>
      <psa30 value="0.0024884785" flag="0"/>
    </comp>
  </station>
  <station code="AKS" name="AKS" netid="KO" insttype="CMG-5T" commtype="DIG" lat="38.8785" lon="27.8129">
    <comp name="--.HNE">
      <acc value="0.0506656280" flag="0"/>
      <vel value="0.0222247708" flag="0"/>
      <psa03 value="0.1040236390" flag="0"/>
      <psa10 value="0.0372330252" flag="0"/>
      <psa30 value="0.0033328709" flag="0"/>
    </comp>
    <comp name="--.HNN">
      <acc value="0.0708629141" flag="0"/>
      <vel value="0.0331656144" flag="0"/>
      <psa03 value="0.1073721148" flag="0"/>
      <psa10 value="0.0364251307" flag="0"/>
      <psa30 value="0.0040404365" flag="0"/>
    </comp>
    <comp name="--.HNZ">
      <acc value="0.0410445377" flag="0"/>
      <vel value="0.0135016656" flag="0"/>
      <psa03 value="0.0458879401" flag="0"/>
      <psa10 value="0.0182100221" flag="0"/>
      <psa30 value="0.0025817845" flag="0"/>
    </comp>
  </station>
  <station code="ALT" name="ALT" netid="KO" insttype="CMG-5T" commtype="DIG" lat="39.0541" lon="30.1104">
    <comp name="--.HNE">
      <acc value="0.0405753355" flag="0"/>
      <vel value="0.0093839567" flag="0"/>
      <psa03 value="0.0511190489" flag="0"/>
      <psa10 value="0.0038286455" flag="0"/>
      <psa30 value="0.0011771334" flag="0"/>
    </comp>
    <comp name="--.HNN">
      <acc value="0.0374797150" flag="0"/>
      <vel value="0.0141310617" flag="0"/>
      <psa03 value="0.0537063851" flag="0"/>
      <psa10 value="0.0073923587" flag="0"/>
      <psa30 value="0.0021770273" flag="0"/>
    </comp>
    <comp name="--.HNZ">
      <acc value="0.0185675268" flag="0"/>
      <vel value="0.0107839650" flag="0"/>
      <psa03 value="0.0278606682" flag="0"/>
      <psa10 value="0.0097468552" flag="0"/>
      <psa30 value="0.0017886016" flag="0"/>
    </comp>
  </station>
  <station code="ARMT" name="ARMT" netid="KO" insttype="CMG-3ESP" commtype="DIG" lat="40.5683" lon="28.866">
    <comp name="--.HHE">
      <acc value="0.0379616185" flag="0"/>
      <vel value="0.0131869618" flag="0"/>
      <psa03 value="0.0770304086" flag="0"/>
      <psa10 value="0.0127577785" flag="0"/>
      <psa30 value="0.0021541720" flag="0"/>
    </comp>
    <comp name="--.HHN">
      <acc value="0.0652792417" flag="0"/>
      <vel value="0.0249837099" flag="0"/>
      <psa03 value="0.1294819634" flag="0"/>
      <psa10 value="0.0239191087" flag="0"/>
      <psa30 value="0.0024271180" flag="0"/>
    </comp>
  </station>
  <station code="BALB" name="BALB" netid="KO" insttype="CMG-5T" commtype="DIG" lat="39.6507" lon="27.8642">
    <comp name="--.HNE">
      <acc value="0.1257939314" flag="0"/>
      <vel value="0.0377596757" flag="0"/>
      <psa03 value="0.1833135538" flag="0"/>
      <psa10 value="0.0271713525" flag="0"/>
      <psa30 value="0.0020445003" flag="0"/>
    </comp>
    <comp name="--.HNZ">
      <acc value="0.0391953082" flag="0"/>
      <vel value="0.0120052420" flag="0"/>
      <psa03 value="0.0557834677" flag="0"/>
      <psa10 value="0.0089414550" flag="0"/>
      <psa30 value="0.0020602955" flag="0"/>
    </comp>
    <comp name="--.HNN">
      <acc value="0.0700398745" flag="0"/>
      <vel value="0.0357846750" flag="0"/>
      <psa03 value="0.1500637931" flag="0"/>
      <psa10 value="0.0252806602" flag="0"/>
      <psa30 value="0.0044844227" flag="0"/>
    </comp>
  </station>
  <station code="GEML" name="GEML" netid="KO" insttype="CMG-3T" commtype="DIG" lat="40.4646" lon="29.2116">
    <comp name="--.HHE">
      <acc value="0.0530099049" flag="0"/>
      <vel value="0.0186716777" flag="0"/>
      <psa03 value="0.0950633433" flag="0"/>
      <psa10 value="0.0184534440" flag="0"/>
      <psa30 value="0.0012451788" flag="0"/>
    </comp>
    <comp name="--.HHZ">
      <acc value="0.0387044569" flag="0"/>
      <vel value="0.0128956105" flag="0"/>
      <psa03 value="0.0355286406" flag="0"/>
      <psa10 value="0.0116509133" flag="0"/>
      <psa30 value="0.0018585078" flag="0"/>
    </comp>
    <comp name="--.HHN">
      <acc value="0.0447395217" flag="0"/>
      <vel value="0.0180572957" flag="0"/>
      <psa03 value="0.1038070032" flag="0"/>
      <psa10 value="0.0162341641" flag="0"/>
      <psa30 value="0.0023417909" flag="0"/>
    </comp>
  </station>
  <station code="GOMA" name="GOMA" netid="KO" insttype="CMG-5T" commtype="DIG" lat="38.7077" lon="27.9175">
    <comp name="--.HNE">
      <acc value="0.0615891764" flag="0"/>
      <vel value="0.0368154670" flag="0"/>
      <psa03 value="0.1353245975" flag="0"/>
      <psa10 value="0.0285249417" flag="0"/>
      <psa30 value="0.0049797057" flag="0"/>
    </comp>
    <comp name="--.HNN">
      <acc value="0.1483161700" flag="0"/>
      <vel value="0.0739936961" flag="0"/>
      <psa03 value="0.2164079869" flag="0"/>
      <psa10 value="0.0373469752" flag="0"/>
      <psa30 value="0.0043467144" flag="0"/>
    </comp>
    <comp name="--.HNZ">
      <acc value="0.0435022243" flag="0"/>
      <vel value="0.0196488858" flag="0"/>
      <psa03 value="0.0810333022" flag="0"/>
      <psa10 value="0.0315952550" flag="0"/>
      <psa30 value="0.0039695368" flag="0"/>
    </comp>
  </station>
  <station code="GONE" name="GONE" netid="KO" insttype="CMG-5T" commtype="DIG" lat="40.0466" lon="27.686">
    <comp name="--.HNZ">
      <acc value="0.0587996075" flag="0"/>
      <vel value="0.0167366236" flag="0"/>
      <psa03 value="0.0788885045" flag="0"/>
      <psa10 value="0.0176023186" flag="0"/>
      <psa30 value="0.0024813974" flag="0"/>
    </comp>
    <comp name="--.HNE">
      <acc value="0.0756779607" flag="0"/>
      <vel value="0.0632128889" flag="0"/>
      <psa03 value="0.1658619066" flag="0"/>
      <psa10 value="0.0307090620" flag="0"/>
      <psa30 value="0.0038425163" flag="0"/>
    </comp>
    <comp name="--.HNN">
      <acc value="0.0844608538" flag="0"/>
      <vel value="0.0498870847" flag="0"/>
      <psa03 value="0.1992415475" flag="0"/>
      <psa10 value="0.0790655781" flag="0"/>
      <psa30 value="0.0084294138" flag="0"/>
    </comp>
  </station>
  <station code="GORD" name="GORD" netid="KO" insttype="CMG-5T" commtype="DIG" lat="38.9088" lon="28.1769">
    <comp name="--.HNE">
      <acc value="0.0880555112" flag="0"/>
      <vel value="0.0730453936" flag="0"/>
      <psa03 value="0.1008191481" flag="0"/>
      <psa10 value="0.1563892951" flag="0"/>
      <psa30 value="0.0070048547" flag="0"/>
    </comp>
    <comp name="--.HNN">
      <acc value="0.0975519463" flag="0"/>
      <vel value="0.0794079442" flag="0"/>
      <psa03 value="0.1272331760" flag="0"/>
      <psa10 value="0.1292401428" flag="0"/>
      <psa30 value="0.0100343986" flag="0"/>
    </comp>
    <comp name="--.HNZ">
      <acc value="0.0716577842" flag="0"/>
      <vel value="0.0464656261" flag="0"/>
      <psa03 value="0.0878519763" flag="0"/>
      <psa10 value="0.0479660602" flag="0"/>
      <psa30 value="0.0042825548" flag="0"/>
    </comp>
  </station>
  <station code="IZI" name="IZI" netid="KO" insttype="CMG-5T" commtype="DIG" lat="40.3483" lon="29.4612">
    <comp name="--.HNE">
      <acc value="0.0293038188" flag="0"/>
      <vel value="0.0198130913" flag="0"/>
      <psa03 value="0.0675932570" flag="0"/>
      <psa10 value="0.0421798222" flag="0"/>
      <psa30 value="0.0032468482" flag="0"/>
    </comp>
    <comp name="--.HNN">
      <acc value="0.0296799210" flag="0"/>
      <vel value="0.0194322547" flag="0"/>
      <psa03 value="0.0597663334" flag="0"/>
      <psa10 value="0.0375859273" flag="0"/>
      <psa30 value="0.0033854795" flag="0"/>
    </comp>
    <comp name="--.HNZ">
      <acc value="0.0205217161" flag="0"/>
      <vel value="0.0244102943" flag="0"/>
      <psa03 value="0.0431845968" flag="0"/>
      <psa10 value="0.0348076958" flag="0"/>
      <psa30 value="0.0027953015" flag="0"/>
    </comp>
  </station>
  <station code="KCTX" name="KCTX" netid="KO" insttype="CMG-3ESP" commtype="DIG" lat="40.2626" lon="28.3353">
    <comp name="--.HHN">
      <acc value="0.0861859627" flag="0"/>
      <vel value="0.0603398201" flag="0"/>
      <psa03 value="0.2960425311" flag="0"/>
      <psa10 value="0.0419341761" flag="0"/>
      <psa30 value="0.0038440256" flag="0"/>
    </comp>
    <comp name="--.HHE">
      <acc value="0.0571033897" flag="0"/>
      <vel value="0.0334827215" flag="0"/>
      <psa03 value="0.1461863854" flag="0"/>
      <psa10 value="0.0324759681" flag="0"/>
      <psa30 value="0.0048448878" flag="0"/>
    </comp>
    <comp name="--.HHZ">
      <acc value="0.0452402214" flag="0"/>
      <vel value="0.0251242338" flag="0"/>
      <psa03 value="0.0888518211" flag="0"/>
      <psa10 value="0.0202253462" flag="0"/>
      <psa30 value="0.0015935732" flag="0"/>
    </comp>
  </station>
  <station code="KULA" name="KULA" netid="KO" insttype="CMG-3T" commtype="DIG" lat="38.5145" lon="28.6607">
    <comp name="--.HHZ">
      <acc value="0.0810466049" flag="0"/>
      <vel value="0.0224829526" flag="0"/>
      <psa03 value="0.1018971592" flag="0"/>
      <psa10 value="0.0196071367" flag="0"/>
      <psa30 value="0.0023053452" flag="0"/>
    </comp>
  </station>
  <station code="MDNY" name="MDNY" netid="KO" insttype="CMG-5T" commtype="DIG" lat="40.3709" lon="28.8846">
    <comp name="--.HNN">
      <acc value="0.1669799962" flag="0"/>
      <vel value="0.0599393926" flag="0"/>
      <psa03 value="0.5091917869" flag="0"/>
      <psa10 value="0.0305317724" flag="0"/>
      <psa30 value="0.0031441732" flag="0"/>
    </comp>
    <comp name="--.HNE">
      <acc value="0.1324159623" flag="0"/>
      <vel value="0.0473003804" flag="0"/>
      <psa03 value="0.2692466036" flag="0"/>
      <psa10 value="0.0192990818" flag="0"/>
      <psa30 value="0.0036743366" flag="0"/>
    </comp>
    <comp name="--.HNZ">
      <acc value="0.0687292537" flag="0"/>
      <vel value="0.0257843548" flag="0"/>
      <psa03 value="0.0859060359" flag="0"/>
      <psa10 value="0.0181464175" flag="0"/>
      <psa30 value="0.0026094505" flag="0"/>
    </comp>
  </station>
  <station code="ORLT" name="ORLT" netid="KO" insttype="CMG-5T" commtype="DIG" lat="40.0452" lon="28.8914">
    <comp name="--.HNZ">
      <acc value="0.0311294435" flag="0"/>
      <vel value="0.0248056258" flag="0"/>
      <psa03 value="0.0501066766" flag="0"/>
      <psa10 value="0.0303774743" flag="0"/>
      <psa30 value="0.0036468055" flag="0"/>
    </comp>
    <comp name="--.HNN">
      <acc value="0.0733976623" flag="0"/>
      <vel value="0.0366748188" flag="0"/>
      <psa03 value="0.2251813992" flag="0"/>
      <psa10 value="0.0742995983" flag="0"/>
      <psa30 value="0.0039656242" flag="0"/>
    </comp>
    <comp name="--.HNE">
      <acc value="0.0803734275" flag="0"/>
      <vel value="0.0351540893" flag="0"/>
      <psa03 value="0.2796578688" flag="0"/>
      <psa10 value="0.0328290818" flag="0"/>
      <psa30 value="0.0031171274" flag="0"/>
    </comp>
  </station>
  <station code="SHAP" name="SHAP" netid="KO" insttype="CMG-5T" commtype="DIG" lat="39.0231" lon="29.222">
    <comp name="--.HNE">
      <acc value="1.6089403138" flag="0"/>
      <vel value="0.4144186208" flag="0"/>
      <psa03 value="2.1371348958" flag="0"/>
      <psa10 value="0.1138007952" flag="0"/>
      <psa30 value="0.0145638038" flag="0"/>
    </comp>
    <comp name="--.HNN">
      <acc value="1.5782610532" flag="0"/>
      <vel value="0.5147998201" flag="0"/>
      <psa03 value="1.8822596560" flag="0"/>
      <psa10 value="0.1381088080" flag="0"/>
      <psa30 value="0.0108970632" flag="0"/>
    </comp>
    <comp name="--.HNZ">
      <acc value="0.6918934421" flag="0"/>
      <vel value="0.2159919722" flag="0"/>
      <psa03 value="0.6176755331" flag="0"/>
      <psa10 value="0.0730581602" flag="0"/>
      <psa30 value="0.0076384167" flag="0"/>
    </comp>
  </station>
  <station code="SMAA" name="SMAA" netid="KO" insttype="CMG-5T" commtype="DIG" lat="39.1005" lon="28.9805">
    <comp name="--.HNE">
      <acc value="1.7653476327" flag="0"/>
      <vel value="0.9520469778" flag="0"/>
      <psa03 value="3.9368564479" flag="0"/>
      <psa10 value="1.5267099500" flag="0"/>
      <psa30 value="0.0855449356" flag="0"/>
    </comp>
    <comp name="--.HNN">
      <acc value="2.0379540091" flag="0"/>
      <vel value="0.9769034667" flag="0"/>
      <psa03 value="4.6523361812" flag="0"/>
      <psa10 value="1.3290114463" flag="0"/>
      <psa30 value="0.1076133276" flag="0"/>
    </comp>
    <comp name="--.HNZ">
      <acc value="2.6856613379" flag="0"/>
      <vel value="0.6971504438" flag="0"/>
      <psa03 value="2.1150762295" flag="0"/>
      <psa10 value="1.0498836043" flag="0"/>
      <psa30 value="0.0301492596" flag="0"/>
    </comp>
  </station>
  <station code="SUSR" name="SUSR" netid="KO" insttype="CMG-5T" commtype="DIG" lat="39.9627" lon="28.0835">
    <comp name="--.HNE">
      <acc value="0.1446070208" flag="0"/>
      <vel value="0.0584637365" flag="0"/>
      <psa03 value="0.3433734412" flag="0"/>
      <psa10 value="0.0186287942" flag="0"/>
      <psa30 value="0.0022164928" flag="0"/>
    </comp>
    <comp name="--.HNN">
      <acc value="0.1736497317" flag="0"/>
      <vel value="0.0587553718" flag="0"/>
      <psa03 value="0.4460536237" flag="0"/>
      <psa10 value="0.0246921645" flag="0"/>
      <psa30 value="0.0046119579" flag="0"/>
    </comp>
    <comp name="--.HNZ">
      <acc value="0.0952370879" flag="0"/>
      <vel value="0.0390222983" flag="0"/>
      <psa03 value="0.1361803573" flag="0"/>
      <psa10 value="0.0144061410" flag="0"/>
      <psa30 value="0.0014318008" flag="0"/>
    </comp>
  </station>
  <station code="TVSB" name="TVSB" netid="KO" insttype="CMG-3T" commtype="DIG" lat="39.4497" lon="29.4615">
    <comp name="--.HHE">
      <acc value="0.5202801676" flag="0"/>
      <vel value="0.1426481814" flag="0"/>
      <psa03 value="0.5293025738" flag="0"/>
      <psa10 value="0.0525273912" flag="0"/>
      <psa30 value="0.0055485358" flag="0"/>
    </comp>
    <comp name="--.HHN">
      <acc value="0.4814172639" flag="0"/>
      <vel value="0.1248138926" flag="0"/>
      <psa03 value="0.2891931850" flag="0"/>
      <psa10 value="0.0517237057" flag="0"/>
      <psa30 value="0.0070671221" flag="0"/>
    </comp>
    <comp name="--.HHZ">
      <acc value="0.2677376586" flag="0"/>
      <vel value="0.0674993082" flag="0"/>
      <psa03 value="0.1497711089" flag="0"/>
      <psa10 value="0.0734340994" flag="0"/>
      <psa30 value="0.0071762950" flag="0"/>
    </comp>
  </station>
</stationlist>
