<?xml version="1.0" encoding="UTF-8" standalone="yes"?>
<!DOCTYPE earthquake SYSTEM "stationlist.dtd">
<stationlist created="" xmlns="ch.ethz.sed.shakemap.usgs.xml">
  <station code="ADVT" name="ADVT" netid="KO" insttype="CMG-3ESP" commtype="DIG" lat="40.4332" lon="29.7383">
    <comp name="--.HHZ">
      <acc value="0.0078196987" flag="0"/>
      <vel value="0.0088426971" flag="0"/>
      <psa03 value="0.0148225007" flag="0"/>
      <psa10 value="0.0151980427" flag="0"/>
      <psa30 value="0.0024884792" flag="0"/>
    </comp>
  </station>
  <station code="AKS" name="AKS" netid="KO" insttype="CMG-5T" commtype="DIG" lat="38.8785" lon="27.8129">
    <comp name="--.HNE">
      <acc value="0.0506656296" flag="0"/>
      <vel value="0.0222247731" flag="0"/>
      <psa03 value="0.1040236390" flag="0"/>
      <psa10 value="0.0372330250" flag="0"/>
      <psa30 value="0.0033323962" flag="0"/>
    </comp>
    <comp name="--.HNN">
      <acc value="0.0708629131" flag="0"/>
      <vel value="0.0331656128" flag="0"/>
      <psa03 value="0.1073721148" flag="0"/>
      <psa10 value="0.0364251308" flag="0"/>
      <psa30 value="0.0040402389" flag="0"/>
    </comp>
    <comp name="--.HNZ">
      <acc value="0.0410445364" flag="0"/>
      <vel value="0.0135016666" flag="0"/>
      <psa03 value="0.0458879401" flag="0"/>
      <psa10 value="0.0182100225" flag="0"/>
      <psa30 value="0.0025818367" flag="0"/>
    </comp>
  </station>
  <station code="ALT" name="ALT" netid="KO" insttype="CMG-5T" commtype="DIG" lat="39.0541" lon="30.1104">
    <comp name="--.HNN">
      <acc value="0.0374797144" flag="0"/>
      <vel value="0.0141310605" flag="0"/>
      <psa03 value="0.0537063851" flag="0"/>
      <psa10 value="0.0073923584" flag="0"/>
      <psa30 value="0.0021771163" flag="0"/>
    </comp>
    <comp name="--.HNE">
      <acc value="0.0405753360" flag="0"/>
      <vel value="0.0093839578" flag="0"/>
      <psa03 value="0.0511190489" flag="0"/>
      <psa10 value="0.0038286455" flag="0"/>
      <psa30 value="0.0011771164" flag="0"/>
    </comp>
    <comp name="--.HNZ">
      <acc value="0.0185675257" flag="0"/>
      <vel value="0.0107839675" flag="0"/>
      <psa03 value="0.0278606682" flag="0"/>
      <psa10 value="0.0097468552" flag="0"/>
      <psa30 value="0.0017885539" flag="0"/>
    </comp>
  </station>
  <station code="ARMT" name="ARMT" netid="KO" insttype="CMG-3ESP" commtype="DIG" lat="40.5683" lon="28.866">
    <comp name="--.HHN">
      <acc value="0.0652792417" flag="0"/>
      <vel value="0.0249837098" flag="0"/>
      <psa03 value="0.1294819634" flag="0"/>
      <psa10 value="0.0239191087" flag="0"/>
      <psa30 value="0.0024271168" flag="0"/>
    </comp>
    <comp name="--.HHE">
      <acc value="0.0379616185" flag="0"/>
      <vel value="0.0131869616" flag="0"/>
      <psa03 value="0.0770304086" flag="0"/>
      <psa10 value="0.0127577785" flag="0"/>
      <psa30 value="0.0021541717" flag="0"/>
    </comp>
  </station>
  <station code="BALB" name="BALB" netid="KO" insttype="CMG-5T" commtype="DIG" lat="39.6507" lon="27.8642">
    <comp name="--.HNZ">
      <acc value="0.0391953077" flag="0"/>
      <vel value="0.0120052417" flag="0"/>
      <psa03 value="0.0557834677" flag="0"/>
      <psa10 value="0.0089414550" flag="0"/>
      <psa30 value="0.0020602965" flag="0"/>
    </comp>
    <comp name="--.HNN">
      <acc value="0.0700398743" flag="0"/>
      <vel value="0.0357846754" flag="0"/>
      <psa03 value="0.1500637931" flag="0"/>
      <psa10 value="0.0252806601" flag="0"/>
      <psa30 value="0.0044844281" flag="0"/>
    </comp>
    <comp name="--.HNE">
      <acc value="0.1257939315" flag="0"/>
      <vel value="0.0377596760" flag="0"/>
      <psa03 value="0.1833135538" flag="0"/>
      <psa10 value="0.0271713525" flag="0"/>
      <psa30 value="0.0020445013" flag="0"/>
    </comp>
  </station>
  <station code="GEML" name="GEML" netid="KO" insttype="CMG-3T" commtype="DIG" lat="40.4646" lon="29.2116">
    <comp name="--.HHZ">
      <acc value="0.0387044569" flag="0"/>
      <vel value="0.0128956107" flag="0"/>
      <psa03 value="0.0355286406" flag="0"/>
      <psa10 value="0.0116509133" flag="0"/>
      <psa30 value="0.0018585103" flag="0"/>
    </comp>
    <comp name="--.HHE">
      <acc value="0.0530099049" flag="0"/>
      <vel value="0.0186716774" flag="0"/>
      <psa03 value="0.0950633433" flag="0"/>
      <psa10 value="0.0184534440" flag="0"/>
      <psa30 value="0.0012451804" flag="0"/>
    </comp>
    <comp name="--.HHN">
      <acc value="0.0447395218" flag="0"/>
      <vel value="0.0180572957" flag="0"/>
      <psa03 value="0.1038070032" flag="0"/>
      <psa10 value="0.0162341641" flag="0"/>
      <psa30 value="0.0023417908" flag="0"/>
    </comp>
  </station>
  <station code="GOMA" name="GOMA" netid="KO" insttype="CMG-5T" commtype="DIG" lat="38.7077" lon="27.9175">
    <comp name="--.HNN">
      <acc value="0.1483161714" flag="0"/>
      <vel value="0.0739936967" flag="0"/>
      <psa03 value="0.2164079869" flag="0"/>
      <psa10 value="0.0373469754" flag="0"/>
      <psa30 value="0.0043467292" flag="0"/>
    </comp>
    <comp name="--.HNZ">
      <acc value="0.0435022247" flag="0"/>
      <vel value="0.0196488874" flag="0"/>
      <psa03 value="0.0810333022" flag="0"/>
      <psa10 value="0.0315952548" flag="0"/>
      <psa30 value="0.0039695118" flag="0"/>
    </comp>
    <comp name="--.HNE">
      <acc value="0.0615891735" flag="0"/>
      <vel value="0.0368154659" flag="0"/>
      <psa03 value="0.1353245975" flag="0"/>
      <psa10 value="0.0285249417" flag="0"/>
      <psa30 value="0.0049799244" flag="0"/>
    </comp>
  </station>
  <station code="GONE" name="GONE" netid="KO" insttype="CMG-5T" commtype="DIG" lat="40.0466" lon="27.686">
    <comp name="--.HNZ">
      <acc value="0.0587996073" flag="0"/>
      <vel value="0.0167366241" flag="0"/>
      <psa03 value="0.0788885045" flag="0"/>
      <psa10 value="0.0176023220" flag="0"/>
      <psa30 value="0.0024813942" flag="0"/>
    </comp>
    <comp name="--.HNE">
      <acc value="0.0756779605" flag="0"/>
      <vel value="0.0632128892" flag="0"/>
      <psa03 value="0.1658619066" flag="0"/>
      <psa10 value="0.0307090620" flag="0"/>
      <psa30 value="0.0038425145" flag="0"/>
    </comp>
    <comp name="--.HNN">
      <acc value="0.0844608535" flag="0"/>
      <vel value="0.0498870847" flag="0"/>
      <psa03 value="0.1992415475" flag="0"/>
      <psa10 value="0.0790655781" flag="0"/>
      <psa30 value="0.0084294066" flag="0"/>
    </comp>
  </station>
  <station code="GORD" name="GORD" netid="KO" insttype="CMG-5T" commtype="DIG" lat="38.9088" lon="28.1769">
    <comp name="--.HNE">
      <acc value="0.0880555112" flag="0"/>
      <vel value="0.0730453934" flag="0"/>
      <psa03 value="0.1008191481" flag="0"/>
      <psa10 value="0.1563892950" flag="0"/>
      <psa30 value="0.0070048870" flag="0"/>
    </comp>
    <comp name="--.HNN">
      <acc value="0.0975519463" flag="0"/>
      <vel value="0.0794079439" flag="0"/>
      <psa03 value="0.1272331760" flag="0"/>
      <psa10 value="0.1292401429" flag="0"/>
      <psa30 value="0.0100344030" flag="0"/>
    </comp>
    <comp name="--.HNZ">
      <acc value="0.0716577841" flag="0"/>
      <vel value="0.0464656265" flag="0"/>
      <psa03 value="0.0878519763" flag="0"/>
      <psa10 value="0.0479660602" flag="0"/>
      <psa30 value="0.0042826949" flag="0"/>
    </comp>
  </station>
  <station code="IZI" name="IZI" netid="KO" insttype="CMG-5T" commtype="DIG" lat="40.3483" lon="29.4612">
    <comp name="--.HNN">
      <acc value="0.0296799188" flag="0"/>
      <vel value="0.0194322556" flag="0"/>
      <psa03 value="0.0597663334" flag="0"/>
      <psa10 value="0.0375859273" flag="0"/>
      <psa30 value="0.0033854903" flag="0"/>
    </comp>
    <comp name="--.HNE">
      <acc value="0.0293038178" flag="0"/>
      <vel value="0.0198130946" flag="0"/>
      <psa03 value="0.0675932570" flag="0"/>
      <psa10 value="0.0421798222" flag="0"/>
      <psa30 value="0.0032470029" flag="0"/>
    </comp>
    <comp name="--.HNZ">
      <acc value="0.0205217202" flag="0"/>
      <vel value="0.0244102972" flag="0"/>
      <psa03 value="0.0431845968" flag="0"/>
      <psa10 value="0.0348076958" flag="0"/>
      <psa30 value="0.0027952669" flag="0"/>
    </comp>
  </station>
  <station code="KCTX" name="KCTX" netid="KO" insttype="CMG-3ESP" commtype="DIG" lat="40.2626" lon="28.3353">
    <comp name="--.HHN">
      <acc value="0.0861859628" flag="0"/>
      <vel value="0.0603398200" flag="0"/>
      <psa03 value="0.2960425311" flag="0"/>
      <psa10 value="0.0419341761" flag="0"/>
      <psa30 value="0.0038440108" flag="0"/>
    </comp>
    <comp name="--.HHZ">
      <acc value="0.0452402214" flag="0"/>
      <vel value="0.0251242338" flag="0"/>
      <psa03 value="0.0888518211" flag="0"/>
      <psa10 value="0.0202253472" flag="0"/>
      <psa30 value="0.0015936040" flag="0"/>
    </comp>
    <comp name="--.HHE">
      <acc value="0.0571033897" flag="0"/>
      <vel value="0.0334827225" flag="0"/>
      <psa03 value="0.1461863854" flag="0"/>
      <psa10 value="0.0324759681" flag="0"/>
      <psa30 value="0.0048448840" flag="0"/>
    </comp>
  </station>
  <station code="KULA" name="KULA" netid="KO" insttype="CMG-3T" commtype="DIG" lat="38.5145" lon="28.6607">
    <comp name="--.HHZ">
      <acc value="0.0810466048" flag="0"/>
      <vel value="0.0224829527" flag="0"/>
      <psa03 value="0.1018971592" flag="0"/>
      <psa10 value="0.0196071367" flag="0"/>
      <psa30 value="0.0023053457" flag="0"/>
    </comp>
  </station>
  <station code="MDNY" name="MDNY" netid="KO" insttype="CMG-5T" commtype="DIG" lat="40.3709" lon="28.8846">
    <comp name="--.HNE">
      <acc value="0.1324159623" flag="0"/>
      <vel value="0.0473003804" flag="0"/>
      <psa03 value="0.2692466036" flag="0"/>
      <psa10 value="0.0192990818" flag="0"/>
      <psa30 value="0.0036743449" flag="0"/>
    </comp>
    <comp name="--.HNZ">
      <acc value="0.0687292538" flag="0"/>
      <vel value="0.0257843546" flag="0"/>
      <psa03 value="0.0859060359" flag="0"/>
      <psa10 value="0.0181464175" flag="0"/>
      <psa30 value="0.0026094949" flag="0"/>
    </comp>
    <comp name="--.HNN">
      <acc value="0.1669799963" flag="0"/>
      <vel value="0.0599393926" flag="0"/>
      <psa03 value="0.5091917869" flag="0"/>
      <psa10 value="0.0305317724" flag="0"/>
      <psa30 value="0.0031441608" flag="0"/>
    </comp>
  </station>
  <station code="ORLT" name="ORLT" netid="KO" insttype="CMG-5T" commtype="DIG" lat="40.0452" lon="28.8914">
    <comp name="--.HNE">
      <acc value="0.0803734273" flag="0"/>
      <vel value="0.0351540890" flag="0"/>
      <psa03 value="0.2796578688" flag="0"/>
      <psa10 value="0.0328290819" flag="0"/>
      <psa30 value="0.0031173723" flag="0"/>
    </comp>
    <comp name="--.HNN">
      <acc value="0.0733976624" flag="0"/>
      <vel value="0.0366748237" flag="0"/>
      <psa03 value="0.2251813992" flag="0"/>
      <psa10 value="0.0742995980" flag="0"/>
      <psa30 value="0.0039659495" flag="0"/>
    </comp>
    <comp name="--.HNZ">
      <acc value="0.0311294450" flag="0"/>
      <vel value="0.0248056275" flag="0"/>
      <psa03 value="0.0501066766" flag="0"/>
      <psa10 value="0.0303774745" flag="0"/>
      <psa30 value="0.0036468470" flag="0"/>
    </comp>
  </station>
  <station code="SHAP" name="SHAP" netid="KO" insttype="CMG-5T" commtype="DIG" lat="39.0231" lon="29.222">
    <comp name="--.HNE">
      <acc value="1.6089403136" flag="0"/>
      <vel value="0.4144186207" flag="0"/>
      <psa03 value="2.1371348958" flag="0"/>
      <psa10 value="0.1138007913" flag="0"/>
      <psa30 value="0.0145639031" flag="0"/>
    </comp>
    <comp name="--.HNN">
      <acc value="1.5782610534" flag="0"/>
      <vel value="0.5147998195" flag="0"/>
      <psa03 value="1.8822596560" flag="0"/>
      <psa10 value="0.1381088050" flag="0"/>
      <psa30 value="0.0108974225" flag="0"/>
    </comp>
    <comp name="--.HNZ">
      <acc value="0.6918934408" flag="0"/>
      <vel value="0.2159919726" flag="0"/>
      <psa03 value="0.6176755331" flag="0"/>
      <psa10 value="0.0730581573" flag="0"/>
      <psa30 value="0.0076382322" flag="0"/>
    </comp>
  </station>
  <station code="SMAA" name="SMAA" netid="KO" insttype="CMG-5T" commtype="DIG" lat="39.1005" lon="28.9805">
    <comp name="--.HNE">
      <acc value="1.7653476297" flag="0"/>
      <vel value="0.9520469737" flag="0"/>
      <psa03 value="3.9368564479" flag="0"/>
      <psa10 value="1.5267099507" flag="0"/>
      <psa30 value="0.0855442921" flag="0"/>
    </comp>
    <comp name="--.HNZ">
      <acc value="2.6856613397" flag="0"/>
      <vel value="0.6971504432" flag="0"/>
      <psa03 value="2.1150762295" flag="0"/>
      <psa10 value="1.0498836015" flag="0"/>
      <psa30 value="0.0301482986" flag="0"/>
    </comp>
    <comp name="--.HNN">
      <acc value="2.0379539923" flag="0"/>
      <vel value="0.9769034677" flag="0"/>
      <psa03 value="4.6523361812" flag="0"/>
      <psa10 value="1.3290114404" flag="0"/>
      <psa30 value="0.1076135288" flag="0"/>
    </comp>
  </station>
  <station code="TVSB" name="TVSB" netid="KO" insttype="CMG-3T" commtype="DIG" lat="39.4497" lon="29.4615">
    <comp name="--.HHE">
      <acc value="0.5202801677" flag="0"/>
      <vel value="0.1426481813" flag="0"/>
      <psa03 value="0.5293025738" flag="0"/>
      <psa10 value="0.0525273911" flag="0"/>
      <psa30 value="0.0055485409" flag="0"/>
    </comp>
    <comp name="--.HHN">
      <acc value="0.4814172635" flag="0"/>
      <vel value="0.1248138925" flag="0"/>
      <psa03 value="0.2891931850" flag="0"/>
      <psa10 value="0.0517237056" flag="0"/>
      <psa30 value="0.0070671221" flag="0"/>
    </comp>
    <comp name="--.HHZ">
      <acc value="0.2677376586" flag="0"/>
      <vel value="0.0674993082" flag="0"/>
      <psa03 value="0.1497711089" flag="0"/>
      <psa10 value="0.0734340994" flag="0"/>
      <psa30 value="0.0071762981" flag="0"/>
    </comp>
  </station>
</stationlist>
