<?xml version="1.0" encoding="UTF-8" standalone="yes"?>
<!DOCTYPE earthquake SYSTEM "stationlist.dtd">
<stationlist created="" xmlns="ch.ethz.sed.shakemap.usgs.xml">
  <station code="CLDR" name="CLDR" netid="KO" insttype="CMG-3ESP" lat="39.144" lon="43.9172">
    <comp name="--.HHN">
      <acc value="0.0317339469" flag="0"/>
      <vel value="0.0243689662" flag="0"/>
      <psa03 value="0.1018922233" flag="0"/>
      <psa10 value="0.0421510340" flag="0"/>
      <psa30 value="0.0054612973" flag="0"/>
    </comp>
    <comp name="--.HHZ">
      <acc value="0.0198363612" flag="0"/>
      <vel value="0.0170497416" flag="0"/>
      <psa03 value="0.0475013090" flag="0"/>
      <psa10 value="0.0201096512" flag="0"/>
      <psa30 value="0.0034951220" flag="0"/>
    </comp>
    <comp name="--.HHE">
      <acc value="0.0410595413" flag="0"/>
      <vel value="0.0382646597" flag="0"/>
      <psa03 value="0.1550068246" flag="0"/>
      <psa10 value="0.0575844477" flag="0"/>
      <psa30 value="0.0091968881" flag="0"/>
    </comp>
  </station>
</stationlist>
