<stationlist created="1778069607">
	<station code="IMMV" name="IMMV" netid="GE" source="GEOFON" insttype="" lat="35.4606" lon="23.9811">
		<comp name="--.HNE" depth="0.0">
			<acc value="0.000485152831931402" flag="0"/>
			<vel value="0.000723622357532768" flag="0"/>
			<psa03 value="0.00138700840516642" flag="0"/>
			<psa10 value="0.00274627664222952" flag="0"/>
			<psa30 value="0.000587912594964091" flag="0"/>
		</comp>
		<comp name="--.HNN" depth="0.0">
			<acc value="0.000384676050699409" flag="0"/>
			<vel value="0.000571059703313693" flag="0"/>
			<psa03 value="0.00147649281840297" flag="0"/>
			<psa10 value="0.00273016944784694" flag="0"/>
			<psa30 value="0.000460844728168199" flag="0"/>
		</comp>
		<comp name="--.HNZ" depth="0.0">
			<acc value="0.000320944998955428" flag="0"/>
			<vel value="0.000337639247885644" flag="0"/>
			<psa03 value="0.0017449460581126" flag="0"/>
			<psa10 value="0.00158253184808827" flag="0"/>
			<psa30 value="0.000331539751041394" flag="0"/>
		</comp>
	</station>
	<station code="KARP" name="KARP" netid="GE" source="GEOFON" insttype="" lat="35.5471" lon="27.16106">
		<comp name="--.HNE" depth="0.0">
			<acc value="0.00557423065567192" flag="0"/>
			<vel value="0.00133452678960423" flag="0"/>
			<psa03 value="0.00138700840516642" flag="0"/>
			<psa10 value="0.0022550072135609" flag="0"/>
			<psa30 value="0.000599098146618659" flag="0"/>
		</comp>
		<comp name="--.HNN" depth="0.0">
			<acc value="0.00360808505936007" flag="0"/>
			<vel value="0.00152690802908683" flag="0"/>
			<psa03 value="0.00134226619854815" flag="0"/>
			<psa10 value="0.00175165738910534" flag="0"/>
			<psa30 value="0.000510955999580663" flag="0"/>
		</comp>
		<comp name="--.HNZ" depth="0.0">
			<acc value="0.00241112079452274" flag="0"/>
			<vel value="0.00132892467953561" flag="0"/>
			<psa03 value="0.00161071943825778" flag="0"/>
			<psa10 value="0.00124428076605414" flag="0"/>
			<psa30 value="0.000582543530169898" flag="0"/>
		</comp>
	</station>
</stationlist>
