<?xml version="1.0" encoding="UTF-8" standalone="yes"?>
<!DOCTYPE earthquake SYSTEM "stationlist.dtd">
<stationlist created="" xmlns="ch.ethz.sed.shakemap.usgs.xml">
  <station code="PSAM" name="PSAM" netid="CL" insttype="CMG40-T" lat="38.3218" lon="22.1842">
    <comp name="00.HHE">
      <acc value="0.0575848318" flag="0"/>
      <vel value="0.0437541625" flag="0"/>
      <psa03 value="0.1167057943" flag="0"/>
      <psa10 value="0.0440519592" flag="0"/>
      <psa30 value="0.0037121031" flag="0"/>
    </comp>
    <comp name="00.HHZ">
      <acc value="0.0229953921" flag="0"/>
      <vel value="0.0115190029" flag="0"/>
      <psa03 value="0.0433303607" flag="0"/>
      <psa10 value="0.0153272006" flag="0"/>
      <psa30 value="0.0016391706" flag="0"/>
    </comp>
    <comp name="00.HHN">
      <acc value="0.0431622825" flag="0"/>
      <vel value="0.0387199706" flag="0"/>
      <psa03 value="0.1102555352" flag="0"/>
      <psa10 value="0.0418073798" flag="0"/>
      <psa30 value="0.0051490895" flag="0"/>
    </comp>
  </station>
  <station code="ROD3" name="ROD3" netid="CL" insttype="CMG40-T" lat="38.3081" lon="21.892">
    <comp name="00.HHZ">
      <acc value="0.0337260370" flag="0"/>
      <vel value="0.0171479907" flag="0"/>
      <psa03 value="0.0757989748" flag="0"/>
      <psa10 value="0.0272103184" flag="0"/>
      <psa30 value="0.0031510776" flag="0"/>
    </comp>
    <comp name="00.HHN">
      <acc value="0.1093392360" flag="0"/>
      <vel value="0.0525173217" flag="0"/>
      <psa03 value="0.4152129574" flag="0"/>
      <psa10 value="0.0439796386" flag="0"/>
      <psa30 value="0.0040526670" flag="0"/>
    </comp>
    <comp name="00.HHE">
      <acc value="0.1113410933" flag="0"/>
      <vel value="0.0528501333" flag="0"/>
      <psa03 value="0.4355680790" flag="0"/>
      <psa10 value="0.0467539357" flag="0"/>
      <psa30 value="0.0029153413" flag="0"/>
    </comp>
  </station>
  <station code="ZIRI" name="ZIRI" netid="CL" insttype="TRILLIUM-40" lat="38.3051" lon="21.9476">
    <comp name="01.HHE">
      <acc value="0.0748232697" flag="0"/>
      <vel value="0.0584847174" flag="0"/>
      <psa03 value="0.2330231452" flag="0"/>
      <psa10 value="0.0541309904" flag="0"/>
      <psa30 value="0.0030455808" flag="0"/>
    </comp>
    <comp name="01.HHZ">
      <acc value="0.0360349068" flag="0"/>
      <vel value="0.0177151397" flag="0"/>
      <psa03 value="0.1236285737" flag="0"/>
      <psa10 value="0.0228574282" flag="0"/>
      <psa30 value="0.0028795399" flag="0"/>
    </comp>
    <comp name="01.HHN">
      <acc value="0.0841137472" flag="0"/>
      <vel value="0.0414619890" flag="0"/>
      <psa03 value="0.2385033858" flag="0"/>
      <psa10 value="0.0379174190" flag="0"/>
      <psa30 value="0.0036312546" flag="0"/>
    </comp>
  </station>
  <station code="KLV" name="KLV" netid="MN" insttype="" lat="38.0437" lon="22.1504">
    <comp name="--.HHE">
      <acc value="0.0464140586" flag="0"/>
      <vel value="0.0226883373" flag="0"/>
      <psa03 value="0.1089785678" flag="0"/>
      <psa10 value="0.0262343918" flag="0"/>
      <psa30 value="0.0019252257" flag="0"/>
    </comp>
    <comp name="--.HHN">
      <acc value="0.0441759072" flag="0"/>
      <vel value="0.0328831079" flag="0"/>
      <psa03 value="0.1211738033" flag="0"/>
      <psa10 value="0.0238845318" flag="0"/>
      <psa30 value="0.0025198106" flag="0"/>
    </comp>
    <comp name="--.HHZ">
      <acc value="0.0413669090" flag="0"/>
      <vel value="0.0210462002" flag="0"/>
      <psa03 value="0.0929568482" flag="0"/>
      <psa10 value="0.0291201306" flag="0"/>
      <psa30 value="0.0022933105" flag="0"/>
    </comp>
  </station>
</stationlist>
