<?xml version="1.0" encoding="UTF-8" standalone="yes"?>
<!DOCTYPE earthquake SYSTEM "stationlist.dtd">
<stationlist created="" xmlns="ch.ethz.sed.shakemap.usgs.xml">
  <station code="PSAM" name="PSAM" netid="CL" insttype="CMG40-T" lat="38.3218" lon="22.1842">
    <comp name="00.HHE">
      <acc value="0.0575848318" flag="0"/>
      <vel value="0.0437541625" flag="0"/>
      <psa03 value="0.1167057943" flag="0"/>
      <psa10 value="0.0440519592" flag="0"/>
      <psa30 value="0.0037121031" flag="0"/>
    </comp>
    <comp name="00.HHZ">
      <acc value="0.0229953921" flag="0"/>
      <vel value="0.0115190029" flag="0"/>
      <psa03 value="0.0433303607" flag="0"/>
      <psa10 value="0.0153272006" flag="0"/>
      <psa30 value="0.0016391706" flag="0"/>
    </comp>
    <comp name="00.HHN">
      <acc value="0.0431622825" flag="0"/>
      <vel value="0.0387199706" flag="0"/>
      <psa03 value="0.1102555352" flag="0"/>
      <psa10 value="0.0418073798" flag="0"/>
      <psa30 value="0.0051490895" flag="0"/>
    </comp>
  </station>
  <station code="ROD3" name="ROD3" netid="CL" insttype="CMG40-T" lat="38.3081" lon="21.892">
    <comp name="00.HHZ">
      <acc value="0.0337260370" flag="0"/>
      <vel value="0.0171479907" flag="0"/>
      <psa03 value="0.0757989748" flag="0"/>
      <psa10 value="0.0272103184" flag="0"/>
      <psa30 value="0.0031510776" flag="0"/>
    </comp>
    <comp name="00.HHN">
      <acc value="0.1093392360" flag="0"/>
      <vel value="0.0525173217" flag="0"/>
      <psa03 value="0.4152129574" flag="0"/>
      <psa10 value="0.0439796386" flag="0"/>
      <psa30 value="0.0040526670" flag="0"/>
    </comp>
    <comp name="00.HHE">
      <acc value="0.1113410933" flag="0"/>
      <vel value="0.0528501333" flag="0"/>
      <psa03 value="0.4355680790" flag="0"/>
      <psa10 value="0.0467539357" flag="0"/>
      <psa30 value="0.0029153413" flag="0"/>
    </comp>
  </station>
  <station code="TRIZ" name="TRIZ" netid="CL" insttype="STS-2" lat="38.3654" lon="22.0727">
    <comp name="00.HH2">
      <acc value="0.0231387917" flag="0"/>
      <vel value="0.0156822771" flag="0"/>
      <psa03 value="0.0982159512" flag="0"/>
      <psa10 value="0.0267512840" flag="0"/>
      <psa30 value="0.0051211735" flag="0"/>
    </comp>
    <comp name="00.HHZ">
      <acc value="0.0169422763" flag="0"/>
      <vel value="0.0104945128" flag="0"/>
      <psa03 value="0.0401608202" flag="0"/>
      <psa10 value="0.0155076983" flag="0"/>
      <psa30 value="0.0017371542" flag="0"/>
    </comp>
    <comp name="00.HH3">
      <acc value="0.0322901715" flag="0"/>
      <vel value="0.0181208656" flag="0"/>
      <psa03 value="0.1581537068" flag="0"/>
      <psa10 value="0.0262455412" flag="0"/>
      <psa30 value="0.0022427737" flag="0"/>
    </comp>
  </station>
  <station code="ZIRI" name="ZIRI" netid="CL" insttype="TRILLIUM-40" lat="38.3051" lon="21.9476">
    <comp name="01.HHE">
      <acc value="0.0748232697" flag="0"/>
      <vel value="0.0584847174" flag="0"/>
      <psa03 value="0.2330231452" flag="0"/>
      <psa10 value="0.0541309904" flag="0"/>
      <psa30 value="0.0030455808" flag="0"/>
    </comp>
    <comp name="01.HHZ">
      <acc value="0.0360349068" flag="0"/>
      <vel value="0.0177151397" flag="0"/>
      <psa03 value="0.1236285737" flag="0"/>
      <psa10 value="0.0228574282" flag="0"/>
      <psa30 value="0.0028795399" flag="0"/>
    </comp>
    <comp name="01.HHN">
      <acc value="0.0841137472" flag="0"/>
      <vel value="0.0414619890" flag="0"/>
      <psa03 value="0.2385033858" flag="0"/>
      <psa10 value="0.0379174190" flag="0"/>
      <psa30 value="0.0036312546" flag="0"/>
    </comp>
  </station>
  <station code="ACOR" name="ACOR" netid="HA" insttype="Horizon,120s,1200" lat="37.8905" lon="22.8694">
    <comp name="--.HHE">
      <acc value="0.1312463065" flag="0"/>
      <vel value="0.0622594775" flag="0"/>
      <psa03 value="0.4167384563" flag="0"/>
      <psa10 value="0.0735251317" flag="0"/>
      <psa30 value="0.0067677513" flag="0"/>
    </comp>
    <comp name="--.HHZ">
      <acc value="0.0892403820" flag="0"/>
      <vel value="0.0390813871" flag="0"/>
      <psa03 value="0.2110635397" flag="0"/>
      <psa10 value="0.0526168737" flag="0"/>
      <psa30 value="0.0038239978" flag="0"/>
    </comp>
    <comp name="--.HHN">
      <acc value="0.0980754718" flag="0"/>
      <vel value="0.0756764044" flag="0"/>
      <psa03 value="0.2137792458" flag="0"/>
      <psa10 value="0.0896097374" flag="0"/>
      <psa30 value="0.0069786822" flag="0"/>
    </comp>
  </station>
  <station code="AMPE" name="AMPE" netid="HA" insttype="1s-100Hz," lat="38.3015" lon="23.2688">
    <comp name="--.HHE">
      <acc value="0.0529544249" flag="0"/>
      <vel value="0.0409739235" flag="0"/>
      <psa03 value="0.1394828806" flag="0"/>
      <psa10 value="0.1030449618" flag="0"/>
      <psa30 value="0.0073142996" flag="0"/>
    </comp>
    <comp name="--.HHN">
      <acc value="0.0376487215" flag="0"/>
      <vel value="0.0456904351" flag="0"/>
      <psa03 value="0.1114838948" flag="0"/>
      <psa10 value="0.0792106611" flag="0"/>
      <psa30 value="0.0079604798" flag="0"/>
    </comp>
    <comp name="--.HHZ">
      <acc value="0.0276032382" flag="0"/>
      <vel value="0.0234176142" flag="0"/>
      <psa03 value="0.0808551907" flag="0"/>
      <psa10 value="0.0454044892" flag="0"/>
      <psa30 value="0.0037932800" flag="0"/>
    </comp>
  </station>
  <station code="ANTK" name="ANTK" netid="HA" insttype="25" lat="38.3605" lon="22.6385">
    <comp name="--.HHN">
      <acc value="0.0006082877" flag="0"/>
      <vel value="0.0002028530" flag="0"/>
      <psa03 value="0.0013396248" flag="0"/>
      <psa10 value="0.0001417691" flag="0"/>
      <psa30 value="0.0000171885" flag="0"/>
    </comp>
    <comp name="--.HHZ">
      <acc value="0.0076823190" flag="0"/>
      <vel value="0.0040164176" flag="0"/>
      <psa03 value="0.0221466280" flag="0"/>
      <psa10 value="0.0063820009" flag="0"/>
      <psa30 value="0.0004981692" flag="0"/>
    </comp>
    <comp name="--.HHE">
      <acc value="0.0129892683" flag="0"/>
      <vel value="0.0091307015" flag="0"/>
      <psa03 value="0.0342015043" flag="0"/>
      <psa10 value="0.0163819722" flag="0"/>
      <psa30 value="0.0015135916" flag="0"/>
    </comp>
  </station>
  <station code="ATHU" name="ATHU" netid="HA" insttype="60s," lat="37.9665" lon="23.7845">
    <comp name="--.HHE">
      <acc value="0.0276641989" flag="0"/>
      <vel value="0.0151662701" flag="0"/>
      <psa03 value="0.0622406606" flag="0"/>
      <psa10 value="0.0129165699" flag="0"/>
      <psa30 value="0.0031463890" flag="0"/>
    </comp>
    <comp name="--.HHZ">
      <acc value="0.0246382329" flag="0"/>
      <vel value="0.0209247650" flag="0"/>
      <psa03 value="0.0583762800" flag="0"/>
      <psa10 value="0.0164224048" flag="0"/>
      <psa30 value="0.0057736811" flag="0"/>
    </comp>
    <comp name="--.HHN">
      <acc value="0.0267115618" flag="0"/>
      <vel value="0.0226353213" flag="0"/>
      <psa03 value="0.0661708498" flag="0"/>
      <psa10 value="0.0180272091" flag="0"/>
      <psa30 value="0.0029223581" flag="0"/>
    </comp>
  </station>
  <station code="DOMV" name="DOMV" netid="HA" insttype="60" lat="38.2569" lon="22.9795">
    <comp name="--.HHE">
      <acc value="0.1275274698" flag="0"/>
      <vel value="0.0442895130" flag="0"/>
      <psa03 value="0.2060498573" flag="0"/>
      <psa10 value="0.0383159606" flag="0"/>
      <psa30 value="0.0056801811" flag="0"/>
    </comp>
    <comp name="--.HHN">
      <acc value="0.1484631374" flag="0"/>
      <vel value="0.0486795437" flag="0"/>
      <psa03 value="0.2482525016" flag="0"/>
      <psa10 value="0.0292941315" flag="0"/>
      <psa30 value="0.0023011593" flag="0"/>
    </comp>
    <comp name="--.HHZ">
      <acc value="0.0593216018" flag="0"/>
      <vel value="0.0209462000" flag="0"/>
      <psa03 value="0.1231264076" flag="0"/>
      <psa10 value="0.0350959470" flag="0"/>
      <psa30 value="0.0028582867" flag="0"/>
    </comp>
  </station>
  <station code="EPID" name="EPID" netid="HA" insttype="30" lat="37.6144" lon="23.1189">
    <comp name="--.HHZ">
      <acc value="0.5200360728" flag="0"/>
      <vel value="0.1516625460" flag="0"/>
      <psa03 value="0.9460746297" flag="0"/>
      <psa10 value="0.1387718398" flag="0"/>
      <psa30 value="0.0103185643" flag="0"/>
    </comp>
    <comp name="--.HHE">
      <acc value="0.8047484760" flag="0"/>
      <vel value="0.2149592363" flag="0"/>
      <psa03 value="1.0081395036" flag="0"/>
      <psa10 value="0.0898220222" flag="0"/>
      <psa30 value="0.0136372160" flag="0"/>
    </comp>
    <comp name="--.HHN">
      <acc value="0.7354889161" flag="0"/>
      <vel value="0.2372941290" flag="0"/>
      <psa03 value="0.9868285120" flag="0"/>
      <psa10 value="0.0807968472" flag="0"/>
      <psa30 value="0.0121803411" flag="0"/>
    </comp>
  </station>
  <station code="ERTR" name="ERTR" netid="HA" insttype="Horizon,120s,1200" lat="38.4066" lon="23.7865">
    <comp name="--.HHZ">
      <acc value="0.0157162597" flag="0"/>
      <vel value="0.0080724395" flag="0"/>
      <psa03 value="0.0380515971" flag="0"/>
      <psa10 value="0.0109521773" flag="0"/>
      <psa30 value="0.0017204582" flag="0"/>
    </comp>
    <comp name="--.HHN">
      <acc value="0.0174907835" flag="0"/>
      <vel value="0.0148941087" flag="0"/>
      <psa03 value="0.0453503222" flag="0"/>
      <psa10 value="0.0229375987" flag="0"/>
      <psa30 value="0.0018842848" flag="0"/>
    </comp>
    <comp name="--.HHE">
      <acc value="0.0180907034" flag="0"/>
      <vel value="0.0128957941" flag="0"/>
      <psa03 value="0.0620015113" flag="0"/>
      <psa10 value="0.0166178274" flag="0"/>
      <psa30 value="0.0019531743" flag="0"/>
    </comp>
  </station>
  <station code="KALE" name="KALE" netid="HA" insttype="40," lat="38.3911" lon="22.1398">
    <comp name="--.HHZ">
      <acc value="0.0242192725" flag="0"/>
      <vel value="0.0124686721" flag="0"/>
      <psa03 value="0.0529912450" flag="0"/>
      <psa10 value="0.0128617962" flag="0"/>
      <psa30 value="0.0015860915" flag="0"/>
    </comp>
    <comp name="--.HHE">
      <acc value="0.0443865503" flag="0"/>
      <vel value="0.0228512152" flag="0"/>
      <psa03 value="0.1219118496" flag="0"/>
      <psa10 value="0.0267132388" flag="0"/>
      <psa30 value="0.0022757641" flag="0"/>
    </comp>
    <comp name="--.HHN">
      <acc value="0.0377052232" flag="0"/>
      <vel value="0.0200039089" flag="0"/>
      <psa03 value="0.1438563346" flag="0"/>
      <psa10 value="0.0155219193" flag="0"/>
      <psa30 value="0.0020264161" flag="0"/>
    </comp>
  </station>
  <station code="KARY" name="KARY" netid="HA" insttype="60" lat="38.0321" lon="24.437">
    <comp name="--.HHZ">
      <acc value="0.0207972922" flag="0"/>
      <vel value="0.0106508246" flag="0"/>
      <psa03 value="0.0538782195" flag="0"/>
      <psa10 value="0.0136048539" flag="0"/>
      <psa30 value="0.0015705058" flag="0"/>
    </comp>
    <comp name="--.HHN">
      <acc value="0.0228681644" flag="0"/>
      <vel value="0.0098553295" flag="0"/>
      <psa03 value="0.0432114334" flag="0"/>
      <psa10 value="0.0093167219" flag="0"/>
      <psa30 value="0.0009804181" flag="0"/>
    </comp>
    <comp name="--.HHE">
      <acc value="0.0211290020" flag="0"/>
      <vel value="0.0090150546" flag="0"/>
      <psa03 value="0.0392693597" flag="0"/>
      <psa10 value="0.0093298264" flag="0"/>
      <psa30 value="0.0008504010" flag="0"/>
    </comp>
  </station>
  <station code="KIAS" name="KIAS" netid="HA" insttype="DC" lat="37.9875" lon="22.7543">
    <comp name="--.HNE">
      <acc value="0.3043093919" flag="0"/>
      <vel value="0.1515289955" flag="0"/>
      <psa03 value="0.5142522082" flag="0"/>
      <psa10 value="0.2724527862" flag="0"/>
      <psa30 value="0.0110668328" flag="0"/>
    </comp>
    <comp name="--.HNN">
      <acc value="0.3652649121" flag="0"/>
      <vel value="0.0995609580" flag="0"/>
      <psa03 value="0.5594093892" flag="0"/>
      <psa10 value="0.1814532089" flag="0"/>
      <psa30 value="0.0142993490" flag="0"/>
    </comp>
    <comp name="--.HNZ">
      <acc value="0.1589671661" flag="0"/>
      <vel value="0.0564543981" flag="0"/>
      <psa03 value="0.2765134540" flag="0"/>
      <psa10 value="0.0731997248" flag="0"/>
      <psa30 value="0.0114688046" flag="0"/>
    </comp>
  </station>
  <station code="LAKA" name="LAKA" netid="HA" insttype="120s," lat="38.2401" lon="21.9785">
    <comp name="--.HHN">
      <acc value="0.0177259070" flag="0"/>
      <vel value="0.0134847856" flag="0"/>
      <psa03 value="0.0430268209" flag="0"/>
      <psa10 value="0.0175894224" flag="0"/>
      <psa30 value="0.0020184405" flag="0"/>
    </comp>
    <comp name="--.HHE">
      <acc value="0.0190756610" flag="0"/>
      <vel value="0.0142038169" flag="0"/>
      <psa03 value="0.0529944056" flag="0"/>
      <psa10 value="0.0263220176" flag="0"/>
      <psa30 value="0.0021572836" flag="0"/>
    </comp>
    <comp name="--.HHZ">
      <acc value="0.0101980746" flag="0"/>
      <vel value="0.0094784312" flag="0"/>
      <psa03 value="0.0292631292" flag="0"/>
      <psa10 value="0.0141411041" flag="0"/>
      <psa30 value="0.0012153207" flag="0"/>
    </comp>
  </station>
  <station code="LOUT" name="LOUT" netid="HA" insttype="30" lat="37.9879" lon="22.9743">
    <comp name="--.HHE">
      <acc value="0.1883835841" flag="0"/>
      <vel value="0.0980966716" flag="0"/>
      <psa03 value="0.4544572329" flag="0"/>
      <psa10 value="0.0946493029" flag="0"/>
      <psa30 value="0.0055798631" flag="0"/>
    </comp>
    <comp name="--.HHN">
      <acc value="0.1553502640" flag="0"/>
      <vel value="0.0934540666" flag="0"/>
      <psa03 value="0.3499424132" flag="0"/>
      <psa10 value="0.1370333495" flag="0"/>
      <psa30 value="0.0045345969" flag="0"/>
    </comp>
    <comp name="--.HHZ">
      <acc value="0.1173574821" flag="0"/>
      <vel value="0.0517206294" flag="0"/>
      <psa03 value="0.4058160165" flag="0"/>
      <psa10 value="0.0445269529" flag="0"/>
      <psa30 value="0.0038221759" flag="0"/>
    </comp>
  </station>
  <station code="MDRA" name="MDRA" netid="HA" insttype="60" lat="38.0606" lon="23.4662">
    <comp name="--.HHE">
      <acc value="0.0595108596" flag="0"/>
      <vel value="0.0402665051" flag="0"/>
      <psa03 value="0.1994080509" flag="0"/>
      <psa10 value="0.0308124907" flag="0"/>
      <psa30 value="0.0061030703" flag="0"/>
    </comp>
    <comp name="--.HHN">
      <acc value="0.0756928244" flag="0"/>
      <vel value="0.0422710465" flag="0"/>
      <psa03 value="0.1941977183" flag="0"/>
      <psa10 value="0.0630871231" flag="0"/>
      <psa30 value="0.0037610555" flag="0"/>
    </comp>
    <comp name="--.HHZ">
      <acc value="0.0793725769" flag="0"/>
      <vel value="0.0460402920" flag="0"/>
      <psa03 value="0.2271291278" flag="0"/>
      <psa10 value="0.0399408422" flag="0"/>
      <psa30 value="0.0121774691" flag="0"/>
    </comp>
  </station>
  <station code="PRDM" name="PRDM" netid="HA" insttype="25" lat="38.2804" lon="22.847">
    <comp name="--.HHZ">
      <acc value="0.0117081020" flag="0"/>
      <vel value="0.0062703682" flag="0"/>
      <psa03 value="0.0284998239" flag="0"/>
      <psa10 value="0.0047088100" flag="0"/>
      <psa30 value="0.0006697703" flag="0"/>
    </comp>
    <comp name="--.HHE">
      <acc value="0.0246223240" flag="0"/>
      <vel value="0.0163343167" flag="0"/>
      <psa03 value="0.0599055665" flag="0"/>
      <psa10 value="0.0224678340" flag="0"/>
      <psa30 value="0.0023627241" flag="0"/>
    </comp>
    <comp name="--.HHN">
      <acc value="0.0245811613" flag="0"/>
      <vel value="0.0128244851" flag="0"/>
      <psa03 value="0.0357435870" flag="0"/>
      <psa10 value="0.0247150493" flag="0"/>
      <psa30 value="0.0010525349" flag="0"/>
    </comp>
  </station>
  <station code="SERI" name="SERI" netid="HA" insttype="30" lat="37.1609" lon="24.4853">
    <comp name="--.HHN">
      <acc value="0.0349633714" flag="0"/>
      <vel value="0.0150490816" flag="0"/>
      <psa03 value="0.0749044763" flag="0"/>
      <psa10 value="0.0177106715" flag="0"/>
      <psa30 value="0.0015964154" flag="0"/>
    </comp>
    <comp name="--.HHE">
      <acc value="0.0216573606" flag="0"/>
      <vel value="0.0100341064" flag="0"/>
      <psa03 value="0.0873082254" flag="0"/>
      <psa10 value="0.0072192966" flag="0"/>
      <psa30 value="0.0016528578" flag="0"/>
    </comp>
    <comp name="--.HHZ">
      <acc value="0.0231407175" flag="0"/>
      <vel value="0.0081635965" flag="0"/>
      <psa03 value="0.0677164887" flag="0"/>
      <psa10 value="0.0098952085" flag="0"/>
      <psa30 value="0.0017274833" flag="0"/>
    </comp>
  </station>
  <station code="STFN" name="STFN" netid="HA" insttype="1s-100Hz," lat="38.1766" lon="23.544">
    <comp name="--.HHZ">
      <acc value="0.0417964546" flag="0"/>
      <vel value="0.0399135288" flag="0"/>
      <psa03 value="0.1876213130" flag="0"/>
      <psa10 value="0.0596864706" flag="0"/>
      <psa30 value="0.0100547972" flag="0"/>
    </comp>
    <comp name="--.HHE">
      <acc value="0.0618268157" flag="0"/>
      <vel value="0.0427325190" flag="0"/>
      <psa03 value="0.1567975158" flag="0"/>
      <psa10 value="0.0859162179" flag="0"/>
      <psa30 value="0.0090302286" flag="0"/>
    </comp>
    <comp name="--.HHN">
      <acc value="0.0748545044" flag="0"/>
      <vel value="0.0461821151" flag="0"/>
      <psa03 value="0.2191941965" flag="0"/>
      <psa10 value="0.0653881984" flag="0"/>
      <psa30 value="0.0039881275" flag="0"/>
    </comp>
  </station>
  <station code="THAL" name="THAL" netid="HA" insttype="30" lat="38.0357" lon="22.6634">
    <comp name="--.HHE">
      <acc value="0.2897625928" flag="0"/>
      <vel value="0.1230942160" flag="0"/>
      <psa03 value="0.5684977649" flag="0"/>
      <psa10 value="0.1573178889" flag="0"/>
      <psa30 value="0.0083860979" flag="0"/>
    </comp>
    <comp name="--.HHZ">
      <acc value="0.1687959080" flag="0"/>
      <vel value="0.0644070502" flag="0"/>
      <psa03 value="0.2927121962" flag="0"/>
      <psa10 value="0.1459485281" flag="0"/>
      <psa30 value="0.0056180615" flag="0"/>
    </comp>
    <comp name="--.HHN">
      <acc value="0.3098425102" flag="0"/>
      <vel value="0.1086457230" flag="0"/>
      <psa03 value="0.8431963951" flag="0"/>
      <psa10 value="0.1222134604" flag="0"/>
      <psa30 value="0.0074429639" flag="0"/>
    </comp>
  </station>
  <station code="THIV" name="THIV" netid="HA" insttype="25" lat="38.299" lon="23.332">
    <comp name="--.HHN">
      <acc value="0.0345650455" flag="0"/>
      <vel value="0.0344741669" flag="0"/>
      <psa03 value="0.0855542610" flag="0"/>
      <psa10 value="0.0647001489" flag="0"/>
      <psa30 value="0.0051619196" flag="0"/>
    </comp>
    <comp name="--.HHE">
      <acc value="0.0333180681" flag="0"/>
      <vel value="0.0309167973" flag="0"/>
      <psa03 value="0.0815109794" flag="0"/>
      <psa10 value="0.0410148892" flag="0"/>
      <psa30 value="0.0072784975" flag="0"/>
    </comp>
    <comp name="--.HHZ">
      <acc value="0.0218653233" flag="0"/>
      <vel value="0.0213657417" flag="0"/>
      <psa03 value="0.0456558179" flag="0"/>
      <psa10 value="0.0238031313" flag="0"/>
      <psa30 value="0.0069981752" flag="0"/>
    </comp>
  </station>
  <station code="VILL" name="VILL" netid="HA" insttype="Horizon,120s,1200" lat="38.1642" lon="23.3122">
    <comp name="--.HHN">
      <acc value="0.0555971011" flag="0"/>
      <vel value="0.0341835356" flag="0"/>
      <psa03 value="0.1303448189" flag="0"/>
      <psa10 value="0.1002267113" flag="0"/>
      <psa30 value="0.0046730831" flag="0"/>
    </comp>
    <comp name="--.HHE">
      <acc value="0.0646464538" flag="0"/>
      <vel value="0.0692167092" flag="0"/>
