<stationlist created="1705402864">
	<station code="MALA" name="MALA" netid="CL" source="Corinth Riff Laboratory (CRLNET)" insttype="" lat="38.39341" lon="21.87263">
		<comp name="00.HNE" depth="0.0">
			<acc value="0.04538651782557" flag="0"/>
			<vel value="0.0747336377349" flag="0"/>
			<psa03 value="0.131695817951739" flag="0"/>
			<psa10 value="0.105250999862381" flag="0"/>
			<psa30 value="0.0125794074906584" flag="0"/>
		</comp>
		<comp name="00.HNN" depth="0.0">
			<acc value="0.037380615534372" flag="0"/>
			<vel value="0.0615487520487" flag="0"/>
			<psa03 value="0.139094776846136" flag="0"/>
			<psa10 value="0.0968129258812918" flag="0"/>
			<psa30 value="0.00983464983063906" flag="0"/>
		</comp>
		<comp name="00.HNZ" depth="0.0">
			<acc value="0.01619587766421" flag="0"/>
			<vel value="0.0167505456403" flag="0"/>
			<psa03 value="0.0495672835893727" flag="0"/>
			<psa10 value="0.0263387729394483" flag="0"/>
			<psa30 value="0.00442981220331893" flag="0"/>
		</comp>
	</station>
	<station code="ROD3" name="ROD3" netid="CL" source="Corinth Riff Laboratory (CRLNET)" insttype="" lat="38.30811" lon="21.89204">
		<comp name="00.HNE" depth="0.0">
			<acc value="0.089857447424208" flag="0"/>
			<vel value="0.0422709193906" flag="0"/>
			<psa03 value="0.360970162501839" flag="0"/>
			<psa10 value="0.0377679644422814" flag="0"/>
			<psa30 value="0.00238795944059427" flag="0"/>
		</comp>
		<comp name="00.HNN" depth="0.0">
			<acc value="0.089151479963784" flag="0"/>
			<vel value="0.0434401632156" flag="0"/>
			<psa03 value="0.345423236760658" flag="0"/>
			<psa10 value="0.0364904835654608" flag="0"/>
			<psa30 value="0.0037125276033981" flag="0"/>
		</comp>
		<comp name="00.HNZ" depth="0.0">
			<acc value="0.025965590007942" flag="0"/>
			<vel value="0.0139699147795" flag="0"/>
			<psa03 value="0.0592839220604807" flag="0"/>
			<psa10 value="0.0226868541427521" flag="0"/>
			<psa30 value="0.0029000712821576" flag="0"/>
		</comp>
	</station>
	<station code="AIGS" name="AIGS" netid="HA" source="Hellenic Seismological Network, University of Athens, Seismological Laboratory (HA)" insttype="" lat="38.25001" lon="22.0878">
		<comp name=".HNE" depth="0.0">
			<acc value="0.04305062434155" flag="0"/>
			<vel value="0.0365777661129" flag="0"/>
			<psa03 value="0.153794406874872" flag="0"/>
			<psa10 value="0.0404762701044318" flag="0"/>
			<psa30 value="0.00540910957698475" flag="0"/>
		</comp>
		<comp name=".HNN" depth="0.0">
			<acc value="0.051039608461908" flag="0"/>
			<vel value="0.0234180615992" flag="0"/>
			<psa03 value="0.140843590613428" flag="0"/>
			<psa10 value="0.0286193815185728" flag="0"/>
			<psa30 value="0.00414567588067932" flag="0"/>
		</comp>
		<comp name=".HNZ" depth="0.0">
			<acc value="0.032420800947972" flag="0"/>
			<vel value="0.0183517525358" flag="0"/>
			<psa03 value="0.0774055444040314" flag="0"/>
			<psa10 value="0.0395719426970086" flag="0"/>
			<psa30 value="0.00337962409184102" flag="0"/>
		</comp>
	</station>
	<station code="KIAS" name="KIAS" netid="HA" source="Hellenic Seismological Network, University of Athens, Seismological Laboratory (HA)" insttype="" lat="37.9875" lon="22.7543">
		<comp name=".HNE" depth="0.0">
			<acc value="0.29876071311534" flag="0"/>
			<vel value="0.154900366572" flag="0"/>
			<psa03 value="0.521067976528643" flag="0"/>
			<psa10 value="0.272519963110274" flag="0"/>
			<psa30 value="0.01431251313376" flag="0"/>
		</comp>
		<comp name=".HNN" depth="0.0">
			<acc value="0.3665748150465" flag="0"/>
			<vel value="0.100067594203" flag="0"/>
			<psa03 value="0.569057780617169" flag="0"/>
			<psa10 value="0.18162352666737" flag="0"/>
			<psa30 value="0.0162967695809839" flag="0"/>
		</comp>
		<comp name=".HNZ" depth="0.0">
			<acc value="0.15828906501618" flag="0"/>
			<vel value="0.0557559739748" flag="0"/>
			<psa03 value="0.273723903698553" flag="0"/>
			<psa10 value="0.0736085337042231" flag="0"/>
			<psa30 value="0.0128417123670715" flag="0"/>
		</comp>
	</station>
	<station code="ABEA" name="ABEA" netid="HC" source="Seismological Network of Crete (HC)" insttype="" lat="35.5163" lon="24.0113">
		<comp name=".HNE" depth="0.0">
			<acc value="0.035552648351694" flag="0"/>
			<vel value="0.0155591504279" flag="0"/>
			<psa03 value="0.0736477642195702" flag="0"/>
			<psa10 value="0.0247356579909438" flag="0"/>
			<psa30 value="0.00321816485429361" flag="0"/>
		</comp>
		<comp name=".HNN" depth="0.0">
			<acc value="0.033108870288264" flag="0"/>
			<vel value="0.018002942628" flag="0"/>
			<psa03 value="0.0515513994019979" flag="0"/>
			<psa10 value="0.0343270777504367" flag="0"/>
			<psa30 value="0.00242323011043381" flag="0"/>
		</comp>
		<comp name=".HNZ" depth="0.0">
			<acc value="0.016975699802676" flag="0"/>
			<vel value="0.00836668652174" flag="0"/>
			<psa03 value="0.0289407088465824" flag="0"/>
			<psa10 value="0.0174892648279764" flag="0"/>
			<psa30 value="0.00133888379864822" flag="0"/>
		</comp>
	</station>
	<station code="ATEI" name="ATEI" netid="HC" source="Seismological Network of Crete (HC)" insttype="" lat="35.5193" lon="24.0432">
		<comp name=".HNE" depth="0.0">
			<acc value="0.024103264453296" flag="0"/>
			<vel value="0.0171676525295" flag="0"/>
			<psa03 value="0.0836108096389441" flag="0"/>
			<psa10 value="0.0309385332759912" flag="0"/>
			<psa30 value="0.002190969724323" flag="0"/>
		</comp>
		<comp name=".HNN" depth="0.0">
			<acc value="0.028788171120132" flag="0"/>
			<vel value="0.0240313192479" flag="0"/>
			<psa03 value="0.0882446478580081" flag="0"/>
			<psa10 value="0.0240256872088565" flag="0"/>
			<psa30 value="0.00183216616368495" flag="0"/>
		</comp>
		<comp name=".HNZ" depth="0.0">
			<acc value="0.016166152853076" flag="0"/>
			<vel value="0.00759802349376" flag="0"/>
			<psa03 value="0.0368368360929505" flag="0"/>
			<psa10 value="0.0123014936635634" flag="0"/>
			<psa30 value="0.000966103999650513" flag="0"/>
		</comp>
	</station>
	<station code="G0LD" name="G0LD" netid="HC" source="Seismological Network of Crete (HC)" insttype="" lat="35.4955" lon="24.0306">
		<comp name=".HNE" depth="0.0">
			<acc value="0.032799123364062" flag="0"/>
			<vel value="0.0166953316551" flag="0"/>
			<psa03 value="0.0883267574643339" flag="0"/>
			<psa10 value="0.0279173425119456" flag="0"/>
			<psa30 value="0.0021447235357399" flag="0"/>
		</comp>
		<comp name=".HNN" depth="0.0">
			<acc value="0.033525141834546" flag="0"/>
			<vel value="0.0240682961316" flag="0"/>
			<psa03 value="0.0923080941248553" flag="0"/>
			<psa10 value="0.0467694382458663" flag="0"/>
			<psa30 value="0.00300652458416659" flag="0"/>
		</comp>
		<comp name=".HNZ" depth="0.0">
			<acc value="0.01769250703719" flag="0"/>
			<vel value="0.0143413400992" flag="0"/>
			<psa03 value="0.0389751652467511" flag="0"/>
			<psa10 value="0.0186118248170328" flag="0"/>
			<psa30 value="0.00217529264412827" flag="0"/>
		</comp>
	</station>
	<station code="LENT" name="LENT" netid="HC" source="Seismological Network of Crete (HC)" insttype="" lat="35.5074" lon="24.0402">
		<comp name=".HNE" depth="0.0">
			<acc value="0.024992503765542" flag="0"/>
			<vel value="0.0166224865025" flag="0"/>
			<psa03 value="0.0509197429748821" flag="0"/>
			<psa10 value="0.02552963808822" flag="0"/>
			<psa30 value="0.00246902251895789" flag="0"/>
		</comp>
		<comp name=".HNN" depth="0.0">
			<acc value="0.025336167337554" flag="0"/>
			<vel value="0.0222384054717" flag="0"/>
			<psa03 value="0.0832443218196636" flag="0"/>
			<psa10 value="0.0351902799333272" flag="0"/>
			<psa30 value="0.0025544690127041" flag="0"/>
		</comp>
		<comp name=".HNZ" depth="0.0">
			<acc value="0.015778058244672" flag="0"/>
			<vel value="0.00937281319594" flag="0"/>
			<psa03 value="0.0599273553097486" flag="0"/>
			<psa10 value="0.0266307879089919" flag="0"/>
			<psa30 value="0.000993331324156625" flag="0"/>
		</comp>
	</station>
	<station code="MULT" name="MULT" netid="HC" source="Seismological Network of Crete (HC)" insttype="" lat="35.5091" lon="24.0118">
		<comp name=".HNE" depth="0.0">
			<acc value="0.031448486886984" flag="0"/>
			<vel value="0.0185688346609" flag="0"/>
			<psa03 value="0.0599925158764929" flag="0"/>
			<psa10 value="0.043707472905675" flag="0"/>
			<psa30 value="0.00336483248697087" flag="0"/>
		</comp>
		<comp name=".HNN" depth="0.0">
			<acc value="0.038109647877702" flag="0"/>
			<vel value="0.0157914873839" flag="0"/>
			<psa03 value="0.0599810411577466" flag="0"/>
			<psa10 value="0.0308321781055024" flag="0"/>
			<psa30 value="0.00238072771152881" flag="0"/>
		</comp>
		<comp name=".HNZ" depth="0.0">
			<acc value="0.024295772964588" flag="0"/>
			<vel value="0.0103616921664" flag="0"/>
			<psa03 value="0.0304050871044521" flag="0"/>
			<psa10 value="0.0210333471059994" flag="0"/>
			<psa30 value="0.0034378737839326" flag="0"/>
		</comp>
	</station>
	<station code="PASK" name="PASK" netid="HC" source="Seismological Network of Crete (HC)" insttype="" lat="35.4996" lon="24.0121">
		<comp name=".HNE" depth="0.0">
			<acc value="0.032945433230268" flag="0"/>
			<vel value="0.0262459617193" flag="0"/>
			<psa03 value="0.0822223166166694" flag="0"/>
			<psa10 value="0.0404896397397884" flag="0"/>
			<psa30 value="0.00281604717430484" flag="0"/>
		</comp>
		<comp name=".HNN" depth="0.0">
			<acc value="0.037168395707904" flag="0"/>
			<vel value="0.0356824224699" flag="0"/>
			<psa03 value="0.0747293567031866" flag="0"/>
			<psa10 value="0.0385717289377373" flag="0"/>
			<psa30 value="0.00403218669591202" flag="0"/>
		</comp>
		<comp name=".HNZ" depth="0.0">
			<acc value="0.02189000770536" flag="0"/>
			<vel value="0.015372046459" flag="0"/>
			<psa03 value="0.0694317765978316" flag="0"/>
			<psa10 value="0.0172610453345427" flag="0"/>
			<psa30 value="0.0016123718117195" flag="0"/>
		</comp>
	</station>
	<station code="POLY" name="POLY" netid="HC" source="Seismological Network of Crete (HC)" insttype="" lat="35.5226" lon="24.0602">
		<comp name=".HNE" depth="0.0">
			<acc value="0.020286962510742" flag="0"/>
			<vel value="0.0166399853287" flag="0"/>
			<psa03 value="0.0415385824564149" flag="0"/>
			<psa10 value="0.0294327560256551" flag="0"/>
			<psa30 value="0.00228989752780804" flag="0"/>
		</comp>
		<comp name=".HNN" depth="0.0">
			<acc value="0.025605047425848" flag="0"/>
			<vel value="0.0137871395506" flag="0"/>
			<psa03 value="0.0497665155375168" flag="0"/>
			<psa10 value="0.0232985759163239" flag="0"/>
			<psa30 value="0.00194250284794711" flag="0"/>
		</comp>
		<comp name=".HNZ" depth="0.0">
			<acc value="0.018288842608428" flag="0"/>
			<vel value="0.0108859766752" flag="0"/>
			<psa03 value="0.0381850243621368" flag="0"/>
			<psa10 value="0.01898983298322" flag="0"/>
			<psa30 value="0.0010014739468985" flag="0"/>
		</comp>
	</station>
	<station code="SOUD" name="SOUD" netid="HC" source="Seismological Network of Crete (HC)" insttype="" lat="35.4878" lon="24.0678">
		<comp name=".HNE" depth="0.0">
			<acc value="0.051686055168936" flag="0"/>
			<vel value="0.038453684817" flag="0"/>
			<psa03 value="0.116630038667552" flag="0"/>
			<psa10 value="0.0485607444108464" flag="0"/>
			<psa30 value="0.00369099742713308" flag="0"/>
		</comp>
		<comp name=".HNN" depth="0.0">
			<acc value="0.044731231631364" flag="0"/>
			<vel value="0.0250633321169" flag="0"/>
			<psa03 value="0.0811535583164546" flag="0"/>
			<psa10 value="0.034771729706439" flag="0"/>
			<psa30 value="0.00205851032453902" flag="0"/>
		</comp>
		<comp name=".HNZ" depth="0.0">
			<acc value="0.0064177091732496" flag="0"/>
			<vel value="0.00506811542432" flag="0"/>
			<psa03 value="0.00684532586505682" flag="0"/>
			<psa10 value="0.00470556093906721" flag="0"/>
			<psa30 value="0.00279823557770818" flag="0"/>
		</comp>
	</station>
	<station code="ARS1" name="ARS1" netid="HI" source="ITSAK Strong Motion Network" insttype="" lat="37.6349" lon="22.7293">
		<comp name=".HNE" depth="0.0">
			<acc value="0.5476379750508" flag="0"/>
			<vel value="0.267751038826" flag="0"/>
			<psa03 value="1.68757779374636" flag="0"/>
			<psa10 value="0.298628712686463" flag="0"/>
			<psa30 value="0.0149604560567879" flag="0"/>
		</comp>
		<comp name=".HNN" depth="0.0">
			<acc value="0.36209213240034" flag="0"/>
			<vel value="0.184751344999" flag="0"/>
			<psa03 value="1.11262578933356" flag="0"/>
			<psa10 value="0.19274298327658" flag="0"/>
			<psa30 value="0.0165721078207984" flag="0"/>
		</comp>
		<comp name=".HNZ" depth="0.0">
			<acc value="0.28069299226098" flag="0"/>
			<vel value="0.126928925864" flag="0"/>
			<psa03 value="0.92846617299482" flag="0"/>
			<psa10 value="0.060189300995727" flag="0"/>
			<psa30 value="0.0122071036607088" flag="0"/>
		</comp>
	</station>
	<station code="ATH5" name="ATH5" netid="HI" source="ITSAK Strong Motion Network" insttype="" lat="37.975421" lon="23.737098">
		<comp name=".HNE" depth="0.0">
			<acc value="0.041123915721864" flag="0"/>
			<vel value="0.0307985339419" flag="0"/>
			<psa03 value="0.114482979768754" flag="0"/>
			<psa10 value="0.0393564534218913" flag="0"/>
			<psa30 value="0.00511224324437085" flag="0"/>
		</comp>
		<comp name=".HNN" depth="0.0">
			<acc value="0.045414938014986" flag="0"/>
			<vel value="0.0492484322318" flag="0"/>
			<psa03 value="0.180889545544448" flag="0"/>
			<psa10 value="0.0481344724225951" flag="0"/>
			<psa30 value="0.00773086796537474" flag="0"/>
		</comp>
		<comp name=".HNZ" depth="0.0">
			<acc value="0.023770022118774" flag="0"/>
			<vel value="0.0234015131848" flag="0"/>
			<psa03 value="0.077276624405405" flag="0"/>
			<psa10 value="0.0253431982375127" flag="0"/>
			<psa30 value="0.00942574524267468" flag="0"/>
		</comp>
	</station>
	<station code="CH01" name="CH01" netid="HI" source="ITSAK Strong Motion Network" insttype="" lat="35.517" lon="24.0208">
		<comp name=".HNE" depth="0.0">
			<acc value="0.024634632824466" flag="0"/>
			<vel value="0.0147120269214" flag="0"/>
			<psa03 value="0.0535767054439445" flag="0"/>
			<psa10 value="0.0248483942091831" flag="0"/>
			<psa30 value="0.00267807636774747" flag="0"/>
		</comp>
		<comp name=".HNN" depth="0.0">
			<acc value="0.023115488990262" flag="0"/>
			<vel value="0.0141998552566" flag="0"/>
			<psa03 value="0.053540588468108" flag="0"/>
			<psa10 value="0.0255446372068494" flag="0"/>
			<psa30 value="0.00216440192267149" flag="0"/>
		</comp>
		<comp name=".HNZ" depth="0.0">
			<acc value="0.013349787558054" flag="0"/>
			<vel value="0.00947705596587" flag="0"/>
			<psa03 value="0.0264849315800717" flag="0"/>
			<psa10 value="0.0130062065973425" flag="0"/>
			<psa30 value="0.00118209757899728" flag="0"/>
		</comp>
	</station>
	<station code="KLV1" name="KLV1" netid="HI" source="ITSAK Strong Motion Network" insttype="" lat="38.03256" lon="22.10797">
		<comp name=".HNE" depth="0.0">
			<acc value="0.1477726194675" flag="0"/>
			<vel value="0.070785905077" flag="0"/>
			<psa03 value="0.417997148593215" flag="0"/>
			<psa10 value="0.0558691948097873" flag="0"/>
			<psa30 value="0.00348014200066061" flag="0"/>
		</comp>
		<comp name=".HNN" depth="0.0">
			<acc value="0.2140726726707" flag="0"/>
			<vel value="0.0986151137022" flag="0"/>
			<psa03 value="0.495186803696941" flag="0"/>
			<psa10 value="0.0733951220664719" flag="0"/>
			<psa30 value="0.00310254365329205" flag="0"/>
		</comp>
		<comp name=".HNZ" depth="0.0">
			<acc value="0.057516690001422" flag="0"/>
			<vel value="0.0332191782081" flag="0"/>
			<psa03 value="0.137640430502794" flag="0"/>
			<psa10 value="0.0426543506413649" flag="0"/>
			<psa30 value="0.00226316929885841" flag="0"/>
		</comp>
	</station>
	<station code="MSL1" name="MSL1" netid="HI" source="ITSAK Strong Motion Network" insttype="" lat="38.3727" lon="21.4243">
		<comp name=".HNE" depth="0.0">
			<acc value="0.034025814278898" flag="0"/>
			<vel value="0.0351590519987" flag="0"/>
			<psa03 value="0.0797892283532888" flag="0"/>
			<psa10 value="0.0801488844702311" flag="0"/>
			<psa30 value="0.00690414236555589" flag="0"/>
		</comp>
		<comp name=".HNN" depth="0.0">
			<acc value="0.034060584702102" flag="0"/>
			<vel value="0.0376753449385" flag="0"/>
			<psa03 value="0.0950041268905101" flag="0"/>
			<psa10 value="0.0743232335494403" flag="0"/>
			<psa30 value="0.00894191902490519" flag="0"/>
		</comp>
		<comp name=".HNZ" depth="0.0">
			<acc value="0.014562819993774" flag="0"/>
			<vel value="0.0137332179989" flag="0"/>
			<psa03 value="0.0275105906708055" flag="0"/>
			<psa10 value="0.0361764190102301" flag="0"/>
			<psa30 value="0.00177934724802458" flag="0"/>
		</comp>
	</station>
	<station code="NPS1" name="NPS1" netid="HI" source="ITSAK Strong Motion Network" insttype="" lat="36.51263" lon="23.06248">
		<comp name=".HNE" depth="0.0">
			<acc value="0.100949320976826" flag="0"/>
			<vel value="0.0581215799414" flag="0"/>
			<psa03 value="0.312739946653176" flag="0"/>
			<psa10 value="0.0325373391890361" flag="0"/>
			<psa30 value="0.00334188909208339" flag="0"/>
		</comp>
		<comp name=".HNN" depth="0.0">
			<acc value="0.13437221099724" flag="0"/>
			<vel value="0.0760421673308" flag="0"/>
			<psa03 value="0.42637957888797" flag="0"/>
			<psa10 value="0.052785335519594" flag="0"/>
			<psa30 value="0.00285262168051894" flag="0"/>
		</comp>
		<comp name=".HNZ" depth="0.0">
			<acc value="0.091580774588214" flag="0"/>
			<vel value="0.0268143509272" flag="0"/>
			<psa03 value="0.221406062898613" flag="0"/>
			<psa10 value="0.0333986287452368" flag="0"/>
			<psa30 value="0.00202714199654324" flag="0"/>
		</comp>
	</station>
	<station code="ALNA" name="ALNA" netid="HL" source="National Observatory of Athens Seismic Network" insttype="" lat="39.14804" lon="23.86669">
		<comp name="00.HNE" depth="0.0">
			<acc value="0.013660806676236" flag="0"/>
			<vel value="0.0125924414067" flag="0"/>
			<psa03 value="0.0223452250531515" flag="0"/>
			<psa10 value="0.0267831098745671" flag="0"/>
			<psa30 value="0.00244370709193313" flag="0"/>
		</comp>
		<comp name="00.HNN" depth="0.0">
			<acc value="0.0085084933341606" flag="0"/>
			<vel value="0.00868802539548" flag="0"/>
			<psa03 value="0.0176061637177788" flag="0"/>
			<psa10 value="0.0167863801402891" flag="0"/>
			<psa30 value="0.00152811977209995" flag="0"/>
		</comp>
		<comp name="00.HNZ" depth="0.0">
			<acc value="0.0080547180255294" flag="0"/>
			<vel value="0.00839707962709" flag="0"/>
			<psa03 value="0.0196977905590453" flag="0"/>
			<psa10 value="0.00682052338871527" flag="0"/>
			<psa30 value="0.00360288075649992" flag="0"/>
		</comp>
	</station>
	<station code="ANKY" name="ANKY" netid="HL" source="National Observatory of Athens Seismic Network" insttype="" lat="35.86704" lon="23.30117">
		<comp name="00.HNE" depth="0.0">
			<acc value="0.01530031149219" flag="0"/>
			<vel value="0.0117302731536" flag="0"/>
			<psa03 value="0.0423729424161302" flag="0"/>
			<psa10 value="0.0187044934558804" flag="0"/>
			<psa30 value="0.00139028376614232" flag="0"/>
		</comp>
		<comp name="00.HNN" depth="0.0">
			<acc value="0.015660329303154" flag="0"/>
			<vel value="0.0102688678063" flag="0"/>
			<psa03 value="0.0657975514733289" flag="0"/>
			<psa10 value="0.0159367163542333" flag="0"/>
			<psa30 value="0.00141588306613716" flag="0"/>
		</comp>
		<comp name="00.HNZ" depth="0.0">
			<acc value="0.017232778493622" flag="0"/>
			<vel value="0.00708891945403" flag="0"/>
			<psa03 value="0.0285295149403511" flag="0"/>
			<psa10 value="0.00716653396643686" flag="0"/>
			<psa30 value="0.00074674123877735" flag="0"/>
		</comp>
	</station>
	<station code="ATHP" name="ATHP" netid="HL" source="National Observatory of Athens Seismic Network" insttype="" lat="38.000799" lon="23.773487">
		<comp name="00.HNE" depth="0.0">
			<acc value="0.096186227074644" flag="0"/>
			<vel value="0.0420293031116" flag="0"/>
			<psa03 value="0.227836072188106" flag="0"/>
			<psa10 value="0.0286203003294363" flag="0"/>
			<psa30 value="0.00408994510545651" flag="0"/>
		</comp>
		<comp name="00.HNN" depth="0.0">
			<acc value="0.070336541405598" flag="0"/>
