<stationlist created="1778550966">
	<station code="4802" name="4802" netid="TK" source="Turkish National Strong Motion Network (TNSMN)" insttype="" lat="37.03304" lon="27.43997">
		<comp name="00.HNE" depth="None">
			<acc value="0.15255617611567" flag="0"/>
			<vel value="0.0546059495432106" flag="0"/>
			<psa03 value="0.300757112888023" flag="0"/>
			<psa10 value="0.011234768081848" flag="0"/>
			<psa30 value="0.000999540895852191" flag="0"/>
		</comp>
		<comp name="00.HNN" depth="None">
			<acc value="0.136922880611069" flag="0"/>
			<vel value="0.0346342731726318" flag="0"/>
			<psa03 value="0.128454875201058" flag="0"/>
			<psa10 value="0.0114522152060128" flag="0"/>
			<psa30 value="0.000877394671784309" flag="0"/>
		</comp>
		<comp name="00.HNZ" depth="None">
			<acc value="0.106330389771404" flag="0"/>
			<vel value="0.0237144201716493" flag="0"/>
			<psa03 value="0.22755886286053" flag="0"/>
			<psa10 value="0.00936633353346901" flag="0"/>
			<psa30 value="0.000528852882227972" flag="0"/>
		</comp>
	</station>
</stationlist>
