<stationlist created="1675692201">
	<station code="ALAN" name="ALAN" netid="KO" source="Bogazici University Kandilli Observatory And Earthquake Research Institute (KOERI)" insttype="" lat="36.557" lon="32.0327">
		<comp name=".HNE" depth="0.0">
			<acc value="0.0506265710998" flag="0"/>
			<vel value="0.240419605852" flag="0"/>
			<psa03 value="0.0848402869193" flag="0"/>
			<psa10 value="0.0967743433252" flag="0"/>
			<psa30 value="0.0937389297442" flag="0"/>
		</comp>
		<comp name=".HNN" depth="0.0">
			<acc value="0.0498212286954" flag="0"/>
			<vel value="0.344875504571" flag="0"/>
			<psa03 value="0.0881396617368" flag="0"/>
			<psa10 value="0.123128591665" flag="0"/>
			<psa30 value="0.0875854221042" flag="0"/>
		</comp>
		<comp name=".HNZ" depth="0.0">
			<acc value="0.0487324922549" flag="0"/>
			<vel value="0.262970270765" flag="0"/>
			<psa03 value="0.0790115778791" flag="0"/>
			<psa10 value="0.121033170354" flag="0"/>
			<psa30 value="0.0945363225676" flag="0"/>
		</comp>
	</station>
	<station code="ARPRA" name="ARPRA" netid="KO" source="Bogazici University Kandilli Observatory And Earthquake Research Institute (KOERI)" insttype="" lat="39.0929" lon="38.3356">
		<comp name=".HNE" depth="0.0">
			<acc value="0.716611229848" flag="0"/>
			<vel value="1.00838498605" flag="0"/>
			<psa03 value="1.02833353872" flag="0"/>
			<psa10 value="1.576690488" flag="0"/>
			<psa30 value="0.666108873109" flag="0"/>
		</comp>
		<comp name=".HNN" depth="0.0">
			<acc value="0.530816093388" flag="0"/>
			<vel value="1.13957188713" flag="0"/>
			<psa03 value="1.1933809723" flag="0"/>
			<psa10 value="1.47625559469" flag="0"/>
			<psa30 value="0.466159734126" flag="0"/>
		</comp>
		<comp name=".HNZ" depth="0.0">
			<acc value="0.337367251992" flag="0"/>
			<vel value="0.810922778649" flag="0"/>
			<psa03 value="0.516863156312" flag="0"/>
			<psa10 value="1.12506168981" flag="0"/>
			<psa30 value="0.294325630962" flag="0"/>
		</comp>
	</station>
	<station code="BOZY" name="BOZY" netid="KO" source="Bogazici University Kandilli Observatory And Earthquake Research Institute (KOERI)" insttype="" lat="36.1069" lon="32.9763">
		<comp name=".HNE" depth="0.0">
			<acc value="0.0949903863946" flag="0"/>
			<vel value="0.175590450388" flag="0"/>
			<psa03 value="0.16941587922" flag="0"/>
			<psa10 value="0.20167274483" flag="0"/>
			<psa30 value="0.0745560723074" flag="0"/>
		</comp>
		<comp name=".HNN" depth="0.0">
			<acc value="0.0952880287256" flag="0"/>
			<vel value="0.208599312853" flag="0"/>
			<psa03 value="0.185869125418" flag="0"/>
			<psa10 value="0.217584508906" flag="0"/>
			<psa30 value="0.109491966639" flag="0"/>
		</comp>
		<comp name=".HNZ" depth="0.0">
			<acc value="0.0653750402381" flag="0"/>
			<vel value="0.262970356854" flag="0"/>
			<psa03 value="0.0890983189931" flag="0"/>
			<psa10 value="0.127936260149" flag="0"/>
			<psa30 value="0.0727816214253" flag="0"/>
		</comp>
	</station>
	<station code="CMRD" name="CMRD" netid="KO" source="Bogazici University Kandilli Observatory And Earthquake Research Institute (KOERI)" insttype="" lat="37.6623" lon="34.9902">
		<comp name=".HNE" depth="0.0">
			<acc value="0.164035578205" flag="0"/>
			<vel value="0.422148248893" flag="0"/>
			<psa03 value="0.438068894914" flag="0"/>
			<psa10 value="0.330622922146" flag="0"/>
			<psa30 value="0.0961732310046" flag="0"/>
		</comp>
		<comp name=".HNN" depth="0.0">
			<acc value="0.279778999688" flag="0"/>
			<vel value="0.857398989571" flag="0"/>
			<psa03 value="0.558485746941" flag="0"/>
			<psa10 value="0.376173649658" flag="0"/>
			<psa30 value="0.144325360847" flag="0"/>
		</comp>
		<comp name=".HNZ" depth="0.0">
			<acc value="0.193134635114" flag="0"/>
			<vel value="0.490150922166" flag="0"/>
			<psa03 value="0.354965056359" flag="0"/>
			<psa10 value="0.477821463325" flag="0"/>
			<psa30 value="0.151028311551" flag="0"/>
		</comp>
	</station>
	<station code="ERBG" name="ERBG" netid="KO" source="Bogazici University Kandilli Observatory And Earthquake Research Institute (KOERI)" insttype="" lat="40.712" lon="36.6768">
		<comp name=".HNE" depth="0.0">
			<acc value="0.0620067426572" flag="0"/>
			<vel value="0.227992698583" flag="0"/>
			<psa03 value="0.0663915022778" flag="0"/>
			<psa10 value="0.199832887948" flag="0"/>
			<psa30 value="0.0744894878964" flag="0"/>
		</comp>
		<comp name=".HNN" depth="0.0">
			<acc value="0.0862611759133" flag="0"/>
			<vel value="0.207546251678" flag="0"/>
			<psa03 value="0.0960526859359" flag="0"/>
			<psa10 value="0.295886171007" flag="0"/>
			<psa30 value="0.0781267488472" flag="0"/>
		</comp>
		<comp name=".HNZ" depth="0.0">
			<acc value="0.0655462257315" flag="0"/>
			<vel value="0.187500008258" flag="0"/>
			<psa03 value="0.0824500087836" flag="0"/>
			<psa10 value="0.189289529502" flag="0"/>
			<psa30 value="0.0432145060823" flag="0"/>
		</comp>
	</station>
	<station code="GUMT" name="GUMT" netid="KO" source="Bogazici University Kandilli Observatory And Earthquake Research Institute (KOERI)" insttype="" lat="40.4665" lon="39.478">
		<comp name=".HNE" depth="0.0">
			<acc value="0.0360896847799" flag="0"/>
			<vel value="0.230510735116" flag="0"/>
			<psa03 value="0.0457271281561" flag="0"/>
			<psa10 value="0.0930755032954" flag="0"/>
			<psa30 value="0.0463698517751" flag="0"/>
		</comp>
		<comp name=".HNN" depth="0.0">
			<acc value="0.0247906281003" flag="0"/>
			<vel value="0.175546612823" flag="0"/>
			<psa03 value="0.0282480561909" flag="0"/>
			<psa10 value="0.0652216206124" flag="0"/>
			<psa30 value="0.0421855479188" flag="0"/>
		</comp>
		<comp name=".HNZ" depth="0.0">
			<acc value="0.0253206947684" flag="0"/>
			<vel value="0.102174704765" flag="0"/>
			<psa03 value="0.0316462188025" flag="0"/>
			<psa10 value="0.066798337562" flag="0"/>
			<psa30 value="0.0299774191902" flag="0"/>
		</comp>
	</station>
	<station code="KHMN" name="KHMN" netid="KO" source="Bogazici University Kandilli Observatory And Earthquake Research Institute (KOERI)" insttype="" lat="37.3916" lon="37.1574">
		<comp name=".HNE" depth="0.0">
			<acc value="16.5087115101" flag="0"/>
			<vel value="11.5297633411" flag="0"/>
			<psa03 value="17.640169908" flag="0"/>
			<psa10 value="6.43962227337" flag="0"/>
			<psa30 value="4.04054243944" flag="0"/>
		</comp>
		<comp name=".HNN" depth="0.0">
			<acc value="7.42549177319" flag="0"/>
			<vel value="5.97612472949" flag="0"/>
			<psa03 value="14.2055450476" flag="0"/>
			<psa10 value="3.44228187428" flag="0"/>
			<psa30 value="1.68163545343" flag="0"/>
		</comp>
		<comp name=".HNZ" depth="0.0">
			<acc value="5.99034663285" flag="0"/>
			<vel value="4.08385841304" flag="0"/>
			<psa03 value="8.88769543285" flag="0"/>
			<psa10 value="4.64097288168" flag="0"/>
			<psa30 value="1.83730912605" flag="0"/>
		</comp>
	</station>
	<station code="KOZK" name="KOZK" netid="KO" source="Bogazici University Kandilli Observatory And Earthquake Research Institute (KOERI)" insttype="" lat="39.2101" lon="34.868">
		<comp name=".HNE" depth="0.0">
			<acc value="0.655454989504" flag="0"/>
			<vel value="1.38106069549" flag="0"/>
			<psa03 value="0.682647180357" flag="0"/>
			<psa10 value="1.75417264533" flag="0"/>
			<psa30 value="0.451876761283" flag="0"/>
		</comp>
		<comp name=".HNN" depth="0.0">
			<acc value="0.430771353828" flag="0"/>
			<vel value="0.951628833429" flag="0"/>
			<psa03 value="0.586281213253" flag="0"/>
			<psa10 value="1.30339998385" flag="0"/>
			<psa30 value="0.397700265691" flag="0"/>
		</comp>
		<comp name=".HNZ" depth="0.0">
			<acc value="0.16625070276" flag="0"/>
			<vel value="0.292373406041" flag="0"/>
			<psa03 value="0.24950417426" flag="0"/>
			<psa10 value="0.574446914288" flag="0"/>
			<psa30 value="0.1670292382" flag="0"/>
		</comp>
	</station>
	<station code="KRMN" name="KRMN" netid="KO" source="Bogazici University Kandilli Observatory And Earthquake Research Institute (KOERI)" insttype="" lat="37.174" lon="33.2636">
		<comp name=".HNE" depth="0.0">
			<acc value="0.154989324285" flag="0"/>
			<vel value="0.342877316595" flag="0"/>
			<psa03 value="0.335867187053" flag="0"/>
			<psa10 value="0.553476365092" flag="0"/>
			<psa30 value="0.0747922279513" flag="0"/>
		</comp>
		<comp name=".HNN" depth="0.0">
			<acc value="0.188186371961" flag="0"/>
			<vel value="0.483512859084" flag="0"/>
			<psa03 value="0.305120691915" flag="0"/>
			<psa10 value="0.57473361328" flag="0"/>
			<psa30 value="0.163918525464" flag="0"/>
		</comp>
		<comp name=".HNZ" depth="0.0">
			<acc value="0.0959264716953" flag="0"/>
			<vel value="0.373263890988" flag="0"/>
			<psa03 value="0.190423906316" flag="0"/>
			<psa10 value="0.193810018963" flag="0"/>
			<psa30 value="0.0652529160189" flag="0"/>
		</comp>
	</station>
	<station code="KRTS" name="KRTS" netid="KO" source="Bogazici University Kandilli Observatory And Earthquake Research Institute (KOERI)" insttype="" lat="36.573" lon="35.375">
		<comp name=".HNE" depth="0.0">
			<acc value="1.69782338534" flag="0"/>
			<vel value="4.33691632261" flag="0"/>
			<psa03 value="2.70689165162" flag="0"/>
			<psa10 value="2.63907322565" flag="0"/>
			<psa30 value="2.50070816631" flag="0"/>
		</comp>
		<comp name=".HNN" depth="0.0">
			<acc value="1.31296340333" flag="0"/>
			<vel value="2.51018283284" flag="0"/>
			<psa03 value="2.28516588103" flag="0"/>
			<psa10 value="2.40677191683" flag="0"/>
			<psa30 value="1.10856122341" flag="0"/>
		</comp>
		<comp name=".HNZ" depth="0.0">
			<acc value="0.636442124925" flag="0"/>
			<vel value="2.2158518025" flag="0"/>
			<psa03 value="1.11230710155" flag="0"/>
			<psa10 value="0.924388656212" flag="0"/>
			<psa30 value="1.18673994903" flag="0"/>
		</comp>
	</station>
	<station code="KYHL" name="KYHL" netid="KO" source="Bogazici University Kandilli Observatory And Earthquake Research Institute (KOERI)" insttype="" lat="40.3244" lon="37.8955">
		<comp name=".HNE" depth="0.0">
			<acc value="0.117939842337" flag="0"/>
			<vel value="0.300349120148" flag="0"/>
			<psa03 value="0.258419619032" flag="0"/>
			<psa10 value="0.323845503175" flag="0"/>
			<psa30 value="0.155828629549" flag="0"/>
		</comp>
		<comp name=".HNN" depth="0.0">
			<acc value="0.173295824761" flag="0"/>
			<vel value="0.250344671762" flag="0"/>
			<psa03 value="0.326146251422" flag="0"/>
			<psa10 value="0.263858689343" flag="0"/>
			<psa30 value="0.107202955003" flag="0"/>
		</comp>
		<comp name=".HNZ" depth="0.0">
			<acc value="0.0659001443192" flag="0"/>
			<vel value="0.212816408872" flag="0"/>
			<psa03 value="0.14362813966" flag="0"/>
			<psa10 value="0.159520012418" flag="0"/>
			<psa30 value="0.0995840036183" flag="0"/>
		</comp>
	</station>
	<station code="RFHY" name="RFHY" netid="KO" source="Bogazici University Kandilli Observatory And Earthquake Research Institute (KOERI)" insttype="" lat="39.927" lon="38.833">
		<comp name=".HNE" depth="0.0">
			<acc value="0.018865694866" flag="0"/>
			<vel value="0.0487979998611" flag="0"/>
			<psa03 value="0.0205657009184" flag="0"/>
			<psa10 value="0.037425746772" flag="0"/>
			<psa30 value="0.025386846754" flag="0"/>
		</comp>
		<comp name=".HNN" depth="0.0">
			<acc value="0.266106858027" flag="0"/>
			<vel value="0.631695485286" flag="0"/>
			<psa03 value="0.372098899726" flag="0"/>
			<psa10 value="0.915630596032" flag="0"/>
			<psa30 value="0.234264425535" flag="0"/>
		</comp>
		<comp name=".HNZ" depth="0.0">
			<acc value="0.140626706611" flag="0"/>
			<vel value="0.472236914865" flag="0"/>
			<psa03 value="0.187016097232" flag="0"/>
			<psa10 value="0.38314416142" flag="0"/>
			<psa30 value="0.330914161439" flag="0"/>
		</comp>
	</station>
	<station code="SEYD" name="SEYD" netid="KO" source="Bogazici University Kandilli Observatory And Earthquake Research Institute (KOERI)" insttype="" lat="37.4056" lon="31.8379">
		<comp name=".HNE" depth="0.0">
			<acc value="0.0223399839094" flag="0"/>
			<vel value="0.144262134726" flag="0"/>
			<psa03 value="0.034392150707" flag="0"/>
			<psa10 value="0.052053500789" flag="0"/>
			<psa30 value="0.0389664246677" flag="0"/>
		</comp>
		<comp name=".HNN" depth="0.0">
			<acc value="0.0333084561657" flag="0"/>
			<vel value="0.23418781713" flag="0"/>
			<psa03 value="0.0378431683825" flag="0"/>
			<psa10 value="0.0895473970754" flag="0"/>
			<psa30 value="0.0495485990184" flag="0"/>
		</comp>
		<comp name=".HNZ" depth="0.0">
			<acc value="0.0268746138353" flag="0"/>
			<vel value="0.185228264694" flag="0"/>
			<psa03 value="0.0303535342102" flag="0"/>
			<psa10 value="0.0632139551142" flag="0"/>
			<psa30 value="0.0416051528039" flag="0"/>
		</comp>
	</station>
	<station code="SLFK" name="SLFK" netid="KO" source="Bogazici University Kandilli Observatory And Earthquake Research Institute (KOERI)" insttype="" lat="36.3925" lon="33.9464">
		<comp name=".HNE" depth="0.0">
			<acc value="0.239152304938" flag="0"/>
			<vel value="0.337068782973" flag="0"/>
			<psa03 value="0.582113603837" flag="0"/>
			<psa10 value="0.342642378376" flag="0"/>
			<psa30 value="0.0926567047185" flag="0"/>
		</comp>
		<comp name=".HNN" depth="0.0">
			<acc value="0.212510190267" flag="0"/>
			<vel value="0.2801508534" flag="0"/>
			<psa03 value="0.405961809644" flag="0"/>
			<psa10 value="0.356671667747" flag="0"/>
			<psa30 value="0.121650512083" flag="0"/>
		</comp>
		<comp name=".HNZ" depth="0.0">
			<acc value="0.126692788236" flag="0"/>
			<vel value="0.28264237885" flag="0"/>
			<psa03 value="0.31101397815" flag="0"/>
			<psa10 value="0.260097550186" flag="0"/>
			<psa30 value="0.122366492846" flag="0"/>
		</comp>
	</station>
	<station code="TUNC" name="TUNC" netid="KO" source="Bogazici University Kandilli Observatory And Earthquake Research Institute (KOERI)" insttype="" lat="39.6942" lon="37.5388">
		<comp name=".HNE" depth="0.0">
			<acc value="0.256957581681" flag="0"/>
			<vel value="0.768861816832" flag="0"/>
			<psa03 value="0.525292964746" flag="0"/>
			<psa10 value="0.714555355787" flag="0"/>
			<psa30 value="0.550937830263" flag="0"/>
		</comp>
		<comp name=".HNN" depth="0.0">
			<acc value="0.231222293457" flag="0"/>
			<vel value="0.571446712152" flag="0"/>
			<psa03 value="0.349697540746" flag="0"/>
			<psa10 value="0.477944801496" flag="0"/>
			<psa30 value="0.303594404973" flag="0"/>
		</comp>
		<comp name=".HNZ" depth="0.0">
			<acc value="0.241350916276" flag="0"/>
			<vel value="0.471697638254" flag="0"/>
			<psa03 value="0.303555317383" flag="0"/>
			<psa10 value="0.818127196913" flag="0"/>
			<psa30 value="0.228400597085" flag="0"/>
		</comp>
	</station>
</stationlist>
