<?xml version="1.0" encoding="UTF-8" standalone="yes"?>
<!DOCTYPE earthquake SYSTEM "stationlist.dtd">
<stationlist created="" xmlns="ch.ethz.sed.shakemap.usgs.xml">
  <station code="ARPRA" name="ARPRA" netid="KO" insttype="CMG-5T" lat="39.0929" lon="38.3356">
    <comp name="--.HNE">
      <acc value="0.7199954936" flag="0"/>
      <vel value="1.0284447479" flag="0"/>
      <psa03 value="1.0251808678" flag="0"/>
      <psa10 value="1.5724887167" flag="0"/>
      <psa30 value="0.6696950571" flag="0"/>
    </comp>
    <comp name="--.HNN">
      <acc value="0.5261818104" flag="0"/>
      <vel value="1.0574116485" flag="0"/>
      <psa03 value="1.2072743096" flag="0"/>
      <psa10 value="1.4767018442" flag="0"/>
      <psa30 value="0.4650725600" flag="0"/>
    </comp>
    <comp name="--.HNZ">
      <acc value="0.3359096984" flag="0"/>
      <vel value="0.7835253851" flag="0"/>
      <psa03 value="0.5156729443" flag="0"/>
      <psa10 value="1.1258822825" flag="0"/>
      <psa30 value="0.2934329171" flag="0"/>
    </comp>
  </station>
  <station code="CMRD" name="CMRD" netid="KO" insttype="CMG-5T" lat="37.6623" lon="34.9902">
    <comp name="--.HNE">
      <acc value="0.1609730731" flag="0"/>
      <vel value="0.3980648126" flag="0"/>
      <psa03 value="0.4348758579" flag="0"/>
      <psa10 value="0.3312537985" flag="0"/>
      <psa30 value="0.0971209965" flag="0"/>
    </comp>
    <comp name="--.HNN">
      <acc value="0.2705459131" flag="0"/>
      <vel value="0.7215285694" flag="0"/>
      <psa03 value="0.5450873425" flag="0"/>
      <psa10 value="0.3657230114" flag="0"/>
      <psa30 value="0.1484753150" flag="0"/>
    </comp>
    <comp name="--.HNZ">
      <acc value="0.1957080472" flag="0"/>
      <vel value="0.4593406979" flag="0"/>
      <psa03 value="0.3532901058" flag="0"/>
      <psa10 value="0.4808292617" flag="0"/>
      <psa30 value="0.1510153782" flag="0"/>
    </comp>
  </station>
  <station code="KRTS" name="KRTS" netid="KO" insttype="CMG-5T" lat="36.573" lon="35.375">
    <comp name="--.HNZ">
      <acc value="0.6350948459" flag="0"/>
      <vel value="1.9823842684" flag="0"/>
      <psa03 value="1.1173756174" flag="0"/>
      <psa10 value="0.9220869417" flag="0"/>
      <psa30 value="1.1786813569" flag="0"/>
    </comp>
    <comp name="--.HNN">
      <acc value="1.3278608403" flag="0"/>
      <vel value="2.1196768189" flag="0"/>
      <psa03 value="2.3010753145" flag="0"/>
      <psa10 value="2.4217575094" flag="0"/>
      <psa30 value="1.1168200571" flag="0"/>
    </comp>
    <comp name="--.HNE">
      <acc value="1.6971826360" flag="0"/>
      <vel value="4.5308778209" flag="0"/>
      <psa03 value="2.7069235520" flag="0"/>
      <psa10 value="2.6372969835" flag="0"/>
      <psa30 value="2.4944258560" flag="0"/>
    </comp>
  </station>
</stationlist>
