<stationlist created="1658394019">
	<station code="AVCI" name="AVCI" netid="KO" source="Bogazici University Kandilli Observatory And Earthquake Research Institute (KOERI)" insttype="" lat="40.9958" lon="28.7225">
		<comp name=".HNE" depth="0.0">
			<acc value="0.0111932429023" flag="0"/>
			<vel value="0.0104467595447" flag="0"/>
			<psa03 value="0.0224843775005" flag="0"/>
			<psa10 value="0.0147182184472" flag="0"/>
			<psa30 value="0.00152997187396" flag="0"/>
		</comp>
		<comp name=".HNN" depth="0.0">
			<acc value="0.00924780220147" flag="0"/>
			<vel value="0.00758124369254" flag="0"/>
			<psa03 value="0.0313164730001" flag="0"/>
			<psa10 value="0.0108436933415" flag="0"/>
			<psa30 value="0.00124102637857" flag="0"/>
		</comp>
		<comp name=".HNZ" depth="0.0">
			<acc value="0.006993571668" flag="0"/>
			<vel value="0.00450789799788" flag="0"/>
			<psa03 value="0.0310970548189" flag="0"/>
			<psa10 value="0.00583047749051" flag="0"/>
			<psa30 value="0.000812100776857" flag="0"/>
		</comp>
	</station>
	<station code="BRGA" name="BRGA" netid="KO" source="Bogazici University Kandilli Observatory And Earthquake Research Institute (KOERI)" insttype="" lat="40.8846" lon="29.065">
		<comp name=".HNE" depth="0.0">
			<acc value="0.0116770090211" flag="0"/>
			<vel value="0.0130829525546" flag="0"/>
			<psa03 value="0.0324720990339" flag="0"/>
			<psa10 value="0.0218220824809" flag="0"/>
			<psa30 value="0.00083987725233" flag="0"/>
		</comp>
		<comp name=".HNN" depth="0.0">
			<acc value="0.0137507910747" flag="0"/>
			<vel value="0.00906781810496" flag="0"/>
			<psa03 value="0.046432372792" flag="0"/>
			<psa10 value="0.015654684546" flag="0"/>
			<psa30 value="0.00100102683395" flag="0"/>
		</comp>
		<comp name=".HNZ" depth="0.0">
			<acc value="0.0111068797282" flag="0"/>
			<vel value="0.00623837663879" flag="0"/>
			<psa03 value="0.0227332637796" flag="0"/>
			<psa10 value="0.014940322223" flag="0"/>
			<psa30 value="0.00120550392122" flag="0"/>
		</comp>
	</station>
	<station code="BUYA" name="BUYA" netid="KO" source="Bogazici University Kandilli Observatory And Earthquake Research Institute (KOERI)" insttype="" lat="40.8694" lon="29.1278">
		<comp name=".HNE" depth="0.0">
			<acc value="0.0273704763018" flag="0"/>
			<vel value="0.0113752292742" flag="0"/>
			<psa03 value="0.0731115255713" flag="0"/>
			<psa10 value="0.0116410036594" flag="0"/>
			<psa30 value="0.000725127254874" flag="0"/>
		</comp>
		<comp name=".HNN" depth="0.0">
			<acc value="0.0271457869338" flag="0"/>
			<vel value="0.0119303267458" flag="0"/>
			<psa03 value="0.102786006985" flag="0"/>
			<psa10 value="0.0112941900597" flag="0"/>
			<psa30 value="0.000801238546871" flag="0"/>
		</comp>
		<comp name=".HNZ" depth="0.0">
			<acc value="0.0129530482971" flag="0"/>
			<vel value="0.00542627538398" flag="0"/>
			<psa03 value="0.0546030390586" flag="0"/>
			<psa10 value="0.00401628824689" flag="0"/>
			<psa30 value="0.000659043085452" flag="0"/>
		</comp>
	</station>
	<station code="HYBA" name="HYBA" netid="KO" source="Bogazici University Kandilli Observatory And Earthquake Research Institute (KOERI)" insttype="" lat="40.8754" lon="29.0854">
		<comp name=".HNE" depth="0.0">
			<acc value="0.0105863674041" flag="0"/>
			<vel value="0.00674238673033" flag="0"/>
			<psa03 value="0.0201254881627" flag="0"/>
			<psa10 value="0.0140348031743" flag="0"/>
			<psa30 value="0.000654507628754" flag="0"/>
		</comp>
		<comp name=".HNN" depth="0.0">
			<acc value="0.0162477218354" flag="0"/>
			<vel value="0.012164250157" flag="0"/>
			<psa03 value="0.0528072013431" flag="0"/>
			<psa10 value="0.0156538051128" flag="0"/>
			<psa30 value="0.000802460294473" flag="0"/>
		</comp>
		<comp name=".HNZ" depth="0.0">
			<acc value="0.00881998090295" flag="0"/>
			<vel value="0.0068212962559" flag="0"/>
			<psa03 value="0.0306791286959" flag="0"/>
			<psa10 value="0.0116208713882" flag="0"/>
			<psa30 value="0.00113825863321" flag="0"/>
		</comp>
	</station>
	<station code="IZI" name="IZI" netid="KO" source="Bogazici University Kandilli Observatory And Earthquake Research Institute (KOERI)" insttype="" lat="40.3483" lon="29.4612">
		<comp name=".HNE" depth="0.0">
			<acc value="0.0114559391726" flag="0"/>
			<vel value="0.00723516148591" flag="0"/>
			<psa03 value="0.0351268087495" flag="0"/>
			<psa10 value="0.00638051986564" flag="0"/>
			<psa30 value="0.00046410668229" flag="0"/>
		</comp>
		<comp name=".HNN" depth="0.0">
			<acc value="0.00948111947591" flag="0"/>
			<vel value="0.00764553587951" flag="0"/>
			<psa03 value="0.0257770617705" flag="0"/>
			<psa10 value="0.0155235683602" flag="0"/>
			<psa30 value="0.000561091544562" flag="0"/>
		</comp>
		<comp name=".HNZ" depth="0.0">
			<acc value="0.00641451296748" flag="0"/>
			<vel value="0.00432859411877" flag="0"/>
			<psa03 value="0.0183048688577" flag="0"/>
			<psa10 value="0.00588537128321" flag="0"/>
			<psa30 value="0.000342331922602" flag="0"/>
		</comp>
	</station>
	<station code="KAVV" name="KAVV" netid="KO" source="Bogazici University Kandilli Observatory And Earthquake Research Institute (KOERI)" insttype="" lat="41.0638" lon="29.06">
		<comp name=".HNE" depth="0.0">
			<acc value="0.0205755811491" flag="0"/>
			<vel value="0.00582425475108" flag="0"/>
			<psa03 value="0.0315658723341" flag="0"/>
			<psa10 value="0.00276712432403" flag="0"/>
			<psa30 value="0.000425786539602" flag="0"/>
		</comp>
		<comp name=".HNN" depth="0.0">
			<acc value="0.0158657724253" flag="0"/>
			<vel value="0.00744167769744" flag="0"/>
			<psa03 value="0.0366979518926" flag="0"/>
			<psa10 value="0.00504113598177" flag="0"/>
			<psa30 value="0.000678907630549" flag="0"/>
		</comp>
		<comp name=".HNZ" depth="0.0">
			<acc value="0.00845661709455" flag="0"/>
			<vel value="0.00291732473309" flag="0"/>
			<psa03 value="0.0183353708784" flag="0"/>
			<psa10 value="0.00416667695939" flag="0"/>
			<psa30 value="0.000644084802873" flag="0"/>
		</comp>
	</station>
	<station code="KMON" name="KMON" netid="KO" source="Bogazici University Kandilli Observatory And Earthquake Research Institute (KOERI)" insttype="" lat="41.3738" lon="33.7839">
		<comp name=".HNE" depth="0.0">
			<acc value="0.0049368280094" flag="0"/>
			<vel value="0.00444310144354" flag="0"/>
			<psa03 value="0.0107815820655" flag="0"/>
			<psa10 value="0.00759297284093" flag="0"/>
			<psa30 value="0.000428689388151" flag="0"/>
		</comp>
		<comp name=".HNN" depth="0.0">
			<acc value="0.00581960027912" flag="0"/>
			<vel value="0.00555570250856" flag="0"/>
			<psa03 value="0.0106821926689" flag="0"/>
			<psa10 value="0.0143773621172" flag="0"/>
			<psa30 value="0.000579988160953" flag="0"/>
		</comp>
		<comp name=".HNZ" depth="0.0">
			<acc value="0.00568886037633" flag="0"/>
			<vel value="0.00274558199789" flag="0"/>
			<psa03 value="0.00886023473352" flag="0"/>
			<psa10 value="0.00437039326712" flag="0"/>
			<psa30 value="0.000252085162947" flag="0"/>
		</comp>
	</station>
	<station code="OSMT" name="OSMT" netid="KO" source="Bogazici University Kandilli Observatory And Earthquake Research Institute (KOERI)" insttype="" lat="40.6009" lon="29.7">
		<comp name=".HNE" depth="0.0">
			<acc value="0.0309119706989" flag="0"/>
			<vel value="0.0115474728544" flag="0"/>
			<psa03 value="0.070483914005" flag="0"/>
			<psa10 value="0.0108276282147" flag="0"/>
			<psa30 value="0.000540727018429" flag="0"/>
		</comp>
		<comp name=".HNN" depth="0.0">
			<acc value="0.0210812611787" flag="0"/>
			<vel value="0.0115946300213" flag="0"/>
			<psa03 value="0.0796688714215" flag="0"/>
			<psa10 value="0.0121741764794" flag="0"/>
			<psa30 value="0.000574342318193" flag="0"/>
		</comp>
		<comp name=".HNZ" depth="0.0">
			<acc value="0.0116294204171" flag="0"/>
			<vel value="0.00854151657284" flag="0"/>
			<psa03 value="0.0295607759647" flag="0"/>
			<psa10 value="0.00550211886338" flag="0"/>
			<psa30 value="0.000453246066996" flag="0"/>
		</comp>
	</station>
	<station code="TUZL" name="TUZL" netid="KO" source="Bogazici University Kandilli Observatory And Earthquake Research Institute (KOERI)" insttype="" lat="40.8128" lon="29.2657">
		<comp name=".HNE" depth="0.0">
			<acc value="0.0262386174834" flag="0"/>
			<vel value="0.0119139909461" flag="0"/>
			<psa03 value="0.108918267384" flag="0"/>
			<psa10 value="0.00909666448438" flag="0"/>
			<psa30 value="0.00114005646065" flag="0"/>
		</comp>
		<comp name=".HNN" depth="0.0">
			<acc value="0.038123072349" flag="0"/>
			<vel value="0.0137120948827" flag="0"/>
			<psa03 value="0.0668124364127" flag="0"/>
			<psa10 value="0.0113388573937" flag="0"/>
			<psa30 value="0.000654719830311" flag="0"/>
		</comp>
		<comp name=".HNZ" depth="0.0">
			<acc value="0.0079269830914" flag="0"/>
			<vel value="0.00460659508999" flag="0"/>
			<psa03 value="0.0165512865457" flag="0"/>
			<psa10 value="0.00504772282438" flag="0"/>
			<psa30 value="0.000562116716639" flag="0"/>
		</comp>
	</station>
	<station code="YLVH" name="YLVH" netid="KO" source="Bogazici University Kandilli Observatory And Earthquake Research Institute (KOERI)" insttype="" lat="40.6953" lon="29.3703">
		<comp name=".HNE" depth="0.0">
			<acc value="0.0263726924894" flag="0"/>
			<vel value="0.0262241083348" flag="0"/>
			<psa03 value="0.106082537864" flag="0"/>
			<psa10 value="0.0479305039106" flag="0"/>
			<psa30 value="0.00311807780735" flag="0"/>
		</comp>
		<comp name=".HNN" depth="0.0">
			<acc value="0.0317523233779" flag="0"/>
			<vel value="0.0216760258481" flag="0"/>
			<psa03 value="0.11743954021" flag="0"/>
			<psa10 value="0.036009187932" flag="0"/>
			<psa30 value="0.00302149120063" flag="0"/>
		</comp>
		<comp name=".HNZ" depth="0.0">
			<acc value="0.00905829759956" flag="0"/>
			<vel value="0.00842214149397" flag="0"/>
			<psa03 value="0.0345873537425" flag="0"/>
			<psa10 value="0.0168651203565" flag="0"/>
			<psa30 value="0.00119180686802" flag="0"/>
		</comp>
	</station>
	<station code="YUVA" name="YUVA" netid="KO" source="Bogazici University Kandilli Observatory And Earthquake Research Institute (KOERI)" insttype="" lat="40.391" lon="31.6872">
		<comp name=".HNE" depth="0.0">
			<acc value="0.0669259145668" flag="0"/>
			<vel value="0.0167993052794" flag="0"/>
			<psa03 value="0.0960972722226" flag="0"/>
			<psa10 value="0.0141276386992" flag="0"/>
			<psa30 value="0.00140709873422" flag="0"/>
		</comp>
		<comp name=".HNN" depth="0.0">
			<acc value="0.0683243604806" flag="0"/>
			<vel value="0.0188505102479" flag="0"/>
			<psa03 value="0.0719230978856" flag="0"/>
			<psa10 value="0.0102824292855" flag="0"/>
			<psa30 value="0.000829156802567" flag="0"/>
		</comp>
		<comp name=".HNZ" depth="0.0">
			<acc value="0.0442674700707" flag="0"/>
			<vel value="0.0115421081075" flag="0"/>
			<psa03 value="0.0822595274151" flag="0"/>
			<psa10 value="0.0090452467032" flag="0"/>
			<psa30 value="0.00164982825136" flag="0"/>
		</comp>
	</station>
</stationlist>
