<?xml version="1.0" encoding="UTF-8" standalone="yes"?>
<!DOCTYPE earthquake SYSTEM "stationlist.dtd">
<stationlist created="" xmlns="ch.ethz.sed.shakemap.usgs.xml">
  <station code="GPA" name="GPA" netid="KO" insttype="CMG-5T" lat="40.2911" lon="30.3171">
    <comp name="--.HNE">
      <acc value="0.0144874994" flag="0"/>
      <vel value="0.0063503445" flag="0"/>
      <psa03 value="0.0381278306" flag="0"/>
      <psa10 value="0.0058411512" flag="0"/>
      <psa30 value="0.0006101464" flag="0"/>
    </comp>
    <comp name="--.HNN">
      <acc value="0.0194323265" flag="0"/>
      <vel value="0.0076042835" flag="0"/>
      <psa03 value="0.0452499486" flag="0"/>
      <psa10 value="0.0068121309" flag="0"/>
      <psa30 value="0.0007308862" flag="0"/>
    </comp>
    <comp name="--.HNZ">
      <acc value="0.0087999361" flag="0"/>
      <vel value="0.0033729936" flag="0"/>
      <psa03 value="0.0167116103" flag="0"/>
      <psa10 value="0.0039681369" flag="0"/>
      <psa30 value="0.0004762540" flag="0"/>
    </comp>
  </station>
  <station code="GULT" name="GULT" netid="KO" insttype="30s," lat="40.432" lon="30.5156">
    <comp name="--.HHN">
      <acc value="0.0586857903" flag="0"/>
      <vel value="0.0261412871" flag="0"/>
      <psa03 value="0.1430299379" flag="0"/>
      <psa10 value="0.0178779804" flag="0"/>
      <psa30 value="0.0010897569" flag="0"/>
    </comp>
    <comp name="--.HHE">
      <acc value="0.0695760189" flag="0"/>
      <vel value="0.0340701450" flag="0"/>
      <psa03 value="0.1741303888" flag="0"/>
      <psa10 value="0.0228439014" flag="0"/>
      <psa30 value="0.0013629298" flag="0"/>
    </comp>
    <comp name="--.HHZ">
      <acc value="0.0593373332" flag="0"/>
      <vel value="0.0142565587" flag="0"/>
      <psa03 value="0.0508662885" flag="0"/>
      <psa10 value="0.0102265757" flag="0"/>
      <psa30 value="0.0007168758" flag="0"/>
    </comp>
  </station>
  <station code="SAFT" name="SAFT" netid="KO" insttype="CMG-5T" lat="41.2398" lon="32.6871">
    <comp name="--.HNE">
      <acc value="0.0264359506" flag="0"/>
      <vel value="0.0074286560" flag="0"/>
      <psa03 value="0.0279708560" flag="0"/>
      <psa10 value="0.0054254603" flag="0"/>
      <psa30 value="0.0003730145" flag="0"/>
    </comp>
    <comp name="--.HNZ">
      <acc value="0.0144565250" flag="0"/>
      <vel value="0.0053056043" flag="0"/>
      <psa03 value="0.0104770747" flag="0"/>
      <psa10 value="0.0055887806" flag="0"/>
      <psa30 value="0.0004257030" flag="0"/>
    </comp>
    <comp name="--.HNN">
      <acc value="0.0319242315" flag="0"/>
      <vel value="0.0085175509" flag="0"/>
      <psa03 value="0.0364222130" flag="0"/>
      <psa10 value="0.0069313193" flag="0"/>
      <psa30 value="0.0004504571" flag="0"/>
    </comp>
  </station>
  <station code="SAUV" name="SAUV" netid="KO" insttype="30s," lat="40.7402" lon="30.3272">
    <comp name="--.HHE">
      <acc value="0.0632165977" flag="0"/>
      <vel value="0.0221082739" flag="0"/>
      <psa03 value="0.1234806089" flag="0"/>
      <psa10 value="0.0148788107" flag="0"/>
      <psa30 value="0.0007916614" flag="0"/>
    </comp>
    <comp name="--.HHZ">
      <acc value="0.0276005428" flag="0"/>
      <vel value="0.0082516167" flag="0"/>
      <psa03 value="0.0405854329" flag="0"/>
      <psa10 value="0.0117510025" flag="0"/>
      <psa30 value="0.0004940512" flag="0"/>
    </comp>
    <comp name="--.HHN">
      <acc value="0.0470866624" flag="0"/>
      <vel value="0.0117536809" flag="0"/>
      <psa03 value="0.0469141327" flag="0"/>
      <psa10 value="0.0105510030" flag="0"/>
      <psa30 value="0.0009170858" flag="0"/>
    </comp>
  </station>
</stationlist>
