<?xml version="1.0" encoding="UTF-8" standalone="yes"?>
<!DOCTYPE earthquake SYSTEM "stationlist.dtd">
<stationlist created="" xmlns="ch.ethz.sed.shakemap.usgs.xml">
  <station code="GPA" name="GPA" netid="KO" insttype="CMG-5T" lat="40.2911" lon="30.3171">
    <comp name="--.HNE">
      <acc value="0.0144874989" flag="0"/>
      <vel value="0.0063503359" flag="0"/>
      <psa03 value="0.0381278306" flag="0"/>
      <psa10 value="0.0058411508" flag="0"/>
      <psa30 value="0.0006503678" flag="0"/>
    </comp>
    <comp name="--.HNN">
      <acc value="0.0194323230" flag="0"/>
      <vel value="0.0076043041" flag="0"/>
      <psa03 value="0.0452499486" flag="0"/>
      <psa10 value="0.0068121307" flag="0"/>
      <psa30 value="0.0007306344" flag="0"/>
    </comp>
    <comp name="--.HNZ">
      <acc value="0.0087999391" flag="0"/>
      <vel value="0.0033730003" flag="0"/>
      <psa03 value="0.0167116103" flag="0"/>
      <psa10 value="0.0039681935" flag="0"/>
      <psa30 value="0.0005864128" flag="0"/>
    </comp>
  </station>
  <station code="GULT" name="GULT" netid="KO" insttype="30s," lat="40.432" lon="30.5156">
    <comp name="--.HHN">
      <acc value="0.0586857903" flag="0"/>
      <vel value="0.0261412875" flag="0"/>
      <psa03 value="0.1430299379" flag="0"/>
      <psa10 value="0.0178779804" flag="0"/>
      <psa30 value="0.0010897504" flag="0"/>
    </comp>
    <comp name="--.HHZ">
      <acc value="0.0593373332" flag="0"/>
      <vel value="0.0142565588" flag="0"/>
      <psa03 value="0.0508662885" flag="0"/>
      <psa10 value="0.0102265757" flag="0"/>
      <psa30 value="0.0007168729" flag="0"/>
    </comp>
    <comp name="--.HHE">
      <acc value="0.0695760189" flag="0"/>
      <vel value="0.0340701425" flag="0"/>
      <psa03 value="0.1741303888" flag="0"/>
      <psa10 value="0.0228439014" flag="0"/>
      <psa30 value="0.0013629417" flag="0"/>
    </comp>
  </station>
  <station code="SAFT" name="SAFT" netid="KO" insttype="CMG-5T" lat="41.2398" lon="32.6871">
    <comp name="--.HNN">
      <acc value="0.0319242346" flag="0"/>
      <vel value="0.0085175500" flag="0"/>
      <psa03 value="0.0364222130" flag="0"/>
      <psa10 value="0.0069313191" flag="0"/>
      <psa30 value="0.0004509558" flag="0"/>
    </comp>
    <comp name="--.HNZ">
      <acc value="0.0144565214" flag="0"/>
      <vel value="0.0053056082" flag="0"/>
      <psa03 value="0.0104770747" flag="0"/>
      <psa10 value="0.0055887804" flag="0"/>
      <psa30 value="0.0004258969" flag="0"/>
    </comp>
    <comp name="--.HNE">
      <acc value="0.0264359453" flag="0"/>
      <vel value="0.0074286406" flag="0"/>
      <psa03 value="0.0279708560" flag="0"/>
      <psa10 value="0.0054254606" flag="0"/>
      <psa30 value="0.0003698475" flag="0"/>
    </comp>
  </station>
  <station code="SAUV" name="SAUV" netid="KO" insttype="30s," lat="40.7402" lon="30.3272">
    <comp name="--.HHE">
      <acc value="0.0632165981" flag="0"/>
      <vel value="0.0221082748" flag="0"/>
      <psa03 value="0.1234806089" flag="0"/>
      <psa10 value="0.0148788107" flag="0"/>
      <psa30 value="0.0007916621" flag="0"/>
    </comp>
    <comp name="--.HHN">
      <acc value="0.0470866624" flag="0"/>
      <vel value="0.0117536812" flag="0"/>
      <psa03 value="0.0469141327" flag="0"/>
      <psa10 value="0.0105510030" flag="0"/>
      <psa30 value="0.0009171008" flag="0"/>
    </comp>
    <comp name="--.HHZ">
      <acc value="0.0276005426" flag="0"/>
      <vel value="0.0082516165" flag="0"/>
      <psa03 value="0.0405854329" flag="0"/>
      <psa10 value="0.0117510025" flag="0"/>
      <psa30 value="0.0004940413" flag="0"/>
    </comp>
  </station>
</stationlist>
