<?xml version="1.0" encoding="UTF-8" standalone="yes"?>
<!DOCTYPE earthquake SYSTEM "stationlist.dtd">
<stationlist created="" xmlns="ch.ethz.sed.shakemap.usgs.xml">
  <station code="THERA" name="THERA" netid="GE" insttype="STS-2/N" lat="36.367" lon="25.4753">
    <comp name="--.HHZ">
      <acc value="0.0588763437" flag="0"/>
      <vel value="0.0153561245" flag="0"/>
      <psa03 value="0.0896898080" flag="0"/>
      <psa10 value="0.0097553414" flag="0"/>
      <psa30 value="0.0012774831" flag="0"/>
    </comp>
    <comp name="--.HHE">
      <acc value="0.0651687368" flag="0"/>
      <vel value="0.0179087932" flag="0"/>
      <psa03 value="0.0795786706" flag="0"/>
      <psa10 value="0.0118898732" flag="0"/>
      <psa30 value="0.0012500047" flag="0"/>
    </comp>
    <comp name="--.HHN">
      <acc value="0.0671735486" flag="0"/>
      <vel value="0.0145118586" flag="0"/>
      <psa03 value="0.0548941909" flag="0"/>
      <psa10 value="0.0051770935" flag="0"/>
      <psa30 value="0.0008233543" flag="0"/>
    </comp>
  </station>
</stationlist>
