<?xml version="1.0" encoding="UTF-8" standalone="yes"?>
<!DOCTYPE earthquake SYSTEM "stationlist.dtd">
<stationlist created="" xmlns="ch.ethz.sed.shakemap.usgs.xml">
  <station code="KARP" name="KARP" netid="GE" insttype="STS-2/N" lat="35.5471" lon="27.1611">
    <comp name="--.HHE">
      <acc value="0.2323969940" flag="0"/>
      <vel value="0.0623231971" flag="0"/>
      <psa03 value="0.2606091580" flag="0"/>
      <psa10 value="0.0962098864" flag="0"/>
      <psa30 value="0.0047849924" flag="0"/>
    </comp>
    <comp name="--.HHN">
      <acc value="0.2601496498" flag="0"/>
      <vel value="0.0625342526" flag="0"/>
      <psa03 value="0.2609074961" flag="0"/>
      <psa10 value="0.0585766375" flag="0"/>
      <psa30 value="0.0042048528" flag="0"/>
    </comp>
    <comp name="--.HHZ">
      <acc value="0.2115257306" flag="0"/>
      <vel value="0.0694875690" flag="0"/>
      <psa03 value="0.3108632836" flag="0"/>
      <psa10 value="0.0982815529" flag="0"/>
      <psa30 value="0.0054652304" flag="0"/>
    </comp>
  </station>
  <station code="ZKR" name="ZKR" netid="GE" insttype="STS-2/N" lat="35.1147" lon="26.2169">
    <comp name="--.HHE">
      <acc value="0.0299346744" flag="0"/>
      <vel value="0.0147549038" flag="0"/>
      <psa03 value="0.1240813471" flag="0"/>
      <psa10 value="0.0236622883" flag="0"/>
      <psa30 value="0.0015234277" flag="0"/>
    </comp>
    <comp name="--.HHN">
      <acc value="0.0152083522" flag="0"/>
      <vel value="0.0083417878" flag="0"/>
      <psa03 value="0.0463877973" flag="0"/>
      <psa10 value="0.0140309389" flag="0"/>
      <psa30 value="0.0009560939" flag="0"/>
    </comp>
    <comp name="--.HHZ">
      <acc value="0.0118454460" flag="0"/>
      <vel value="0.0082662685" flag="0"/>
      <psa03 value="0.0341069754" flag="0"/>
      <psa10 value="0.0128600312" flag="0"/>
      <psa30 value="0.0015701344" flag="0"/>
    </comp>
  </station>
  <station code="STIA" name="STIA" netid="HC" insttype="120" lat="35.2021" lon="26.0909">
    <comp name="--.HHN">
      <acc value="0.0246241798" flag="0"/>
      <vel value="0.0166910477" flag="0"/>
      <psa03 value="0.0751483720" flag="0"/>
      <psa10 value="0.0236812141" flag="0"/>
      <psa30 value="0.0021209490" flag="0"/>
    </comp>
    <comp name="--.HHZ">
      <acc value="0.0218419400" flag="0"/>
      <vel value="0.0114103617" flag="0"/>
      <psa03 value="0.0498617843" flag="0"/>
      <psa10 value="0.0112161834" flag="0"/>
      <psa30 value="0.0016965600" flag="0"/>
    </comp>
    <comp name="--.HHE">
      <acc value="0.0252603688" flag="0"/>
      <vel value="0.0184377031" flag="0"/>
      <psa03 value="0.0743336414" flag="0"/>
      <psa10 value="0.0249725769" flag="0"/>
      <psa30 value="0.0018670526" flag="0"/>
    </comp>
  </station>
  <station code="SIT2" name="SIT2" netid="HI" insttype="CMG-5TD,ACCELEROMETER,GURALP" lat="35.2059" lon="26.107">
    <comp name="--.HNE">
      <acc value="0.1078037373" flag="0"/>
      <vel value="0.0755113178" flag="0"/>
      <psa03 value="0.2405901314" flag="0"/>
      <psa10 value="0.0532038015" flag="0"/>
      <psa30 value="0.0031780144" flag="0"/>
    </comp>
    <comp name="--.HNZ">
      <acc value="0.0355023076" flag="0"/>
      <vel value="0.0171852522" flag="0"/>
      <psa03 value="0.1167693812" flag="0"/>
      <psa10 value="0.0108461369" flag="0"/>
      <psa30 value="0.0019361660" flag="0"/>
    </comp>
    <comp name="--.HNN">
      <acc value="0.0877126844" flag="0"/>
      <vel value="0.0692781534" flag="0"/>
      <psa03 value="0.2144340996" flag="0"/>
      <psa10 value="0.0528148408" flag="0"/>
      <psa30 value="0.0036873985" flag="0"/>
    </comp>
  </station>
  <station code="ARG" name="ARG" netid="HL" insttype="LE3D20_DR24" lat="36.2136" lon="28.1212">
    <comp name="--.HHE">
      <acc value="0.0390178511" flag="0"/>
      <vel value="0.0290741263" flag="0"/>
      <psa03 value="0.1213771030" flag="0"/>
      <psa10 value="0.0281731426" flag="0"/>
      <psa30 value="0.0057306545" flag="0"/>
    </comp>
    <comp name="--.HHN">
      <acc value="0.0275862767" flag="0"/>
      <vel value="0.0294065422" flag="0"/>
      <psa03 value="0.0941240605" flag="0"/>
      <psa10 value="0.0310571437" flag="0"/>
      <psa30 value="0.0051862762" flag="0"/>
    </comp>
    <comp name="--.HHZ">
      <acc value="0.0187126445" flag="0"/>
      <vel value="0.0249941275" flag="0"/>
      <psa03 value="0.0738087640" flag="0"/>
      <psa10 value="0.0440028336" flag="0"/>
      <psa30 value="0.0032921328" flag="0"/>
    </comp>
  </station>
  <station code="KARP" name="KARP" netid="HL" insttype="120" lat="35.5471" lon="27.1611">
    <comp name="--.HHZ">
      <acc value="0.2045955346" flag="0"/>
      <vel value="0.0676374227" flag="0"/>
      <psa03 value="0.3030404983" flag="0"/>
      <psa10 value="0.0974293146" flag="0"/>
      <psa30 value="0.0054105253" flag="0"/>
    </comp>
    <comp name="--.HHE">
      <acc value="0.2183911652" flag="0"/>
      <vel value="0.0611373464" flag="0"/>
      <psa03 value="0.2527460745" flag="0"/>
      <psa10 value="0.0954184746" flag="0"/>
      <psa30 value="0.0047775536" flag="0"/>
    </comp>
    <comp name="--.HHN">
      <acc value="0.2431928969" flag="0"/>
      <vel value="0.0602622902" flag="0"/>
      <psa03 value="0.2535447125" flag="0"/>
      <psa10 value="0.0582913563" flag="0"/>
      <psa30 value="0.0041577485" flag="0"/>
    </comp>
  </station>
  <station code="ZKR" name="ZKR" netid="HL" insttype="120" lat="35.1147" lon="26.2169">
    <comp name="--.HHE">
      <acc value="0.0292315361" flag="0"/>
      <vel value="0.0144258185" flag="0"/>
      <psa03 value="0.1205448412" flag="0"/>
      <psa10 value="0.0234740083" flag="0"/>
      <psa30 value="0.0015233202" flag="0"/>
    </comp>
    <comp name="--.HHN">
      <acc value="0.0148356695" flag="0"/>
      <vel value="0.0082185101" flag="0"/>
      <psa03 value="0.0450719624" flag="0"/>
      <psa10 value="0.0139484802" flag="0"/>
      <psa30 value="0.0009553443" flag="0"/>
    </comp>
    <comp name="--.HHZ">
      <acc value="0.0114509512" flag="0"/>
      <vel value="0.0081449094" flag="0"/>
      <psa03 value="0.0332103179" flag="0"/>
      <psa10 value="0.0127579592" flag="0"/>
      <psa30 value="0.0015700280" flag="0"/>
    </comp>
  </station>
</stationlist>
