<stationlist xmlns:esm="https://esm-db.eu/esmws/shakemap/1/" created="1783994348">
	<station code="AGN1" name="AGN1" netid="HI" source="ITSAK Strong Motion Network" insttype="" lat="35.1879" lon="25.7155" esm:processing="manual (Paolucci et al 2011)" esm:quality="good">
		<comp name="--.HNE" depth="0.0">
			<acc value="0.0162151111314533" flag="0"/>
			<vel value="0.0122068196827164" flag="0"/>
			<psa03 value="0.0428622951458628" flag="0"/>
			<psa10 value="0.0182475650616309" flag="0"/>
			<psa30 value="0.00178372941331954" flag="0"/>
		</comp>
		<comp name="--.HNN" depth="0.0">
			<acc value="0.0142941795542301" flag="0"/>
			<vel value="0.00782927001855795" flag="0"/>
			<psa03 value="0.0397039843607735" flag="0"/>
			<psa10 value="0.00933110657751606" flag="0"/>
			<psa30 value="0.00128305426688161" flag="0"/>
		</comp>
		<comp name="--.HNZ" depth="0.0">
			<acc value="0.0061240133070279" flag="0"/>
			<vel value="0.00430229180824843" flag="0"/>
			<psa03 value="0.0122279962426558" flag="0"/>
			<psa10 value="0.00651952938682568" flag="0"/>
			<psa30 value="0.0017802760595518" flag="0"/>
		</comp>
	</station>
	<station code="ARK1" name="ARK1" netid="HI" source="ITSAK Strong Motion Network" insttype="" lat="35.148777" lon="25.264194" esm:processing="automatic (Paolucci et al 2011)" esm:quality="best">
		<comp name="--.HNE" depth="0.0">
			<acc value="0.0069962041973897" flag="0"/>
			<vel value="0.0110327228180085" flag="0"/>
			<psa03 value="0.0195303458728974" flag="0"/>
			<psa10 value="0.0133749291484153" flag="0"/>
			<psa30 value="0.00417856930970941" flag="0"/>
		</comp>
		<comp name="--.HNN" depth="0.0">
			<acc value="0.00812118472911124" flag="0"/>
			<vel value="0.00945286590025804" flag="0"/>
			<psa03 value="0.0197035826093977" flag="0"/>
			<psa10 value="0.0169127353857159" flag="0"/>
			<psa30 value="0.0028432912707592" flag="0"/>
		</comp>
		<comp name="--.HNZ" depth="0.0">
			<acc value="0.00604622262763237" flag="0"/>
			<vel value="0.0073185324865761" flag="0"/>
			<psa03 value="0.0184636397921881" flag="0"/>
			<psa10 value="0.0107427957199935" flag="0"/>
			<psa30 value="0.00207581105396144" flag="0"/>
		</comp>
	</station>
	<station code="HER1" name="HER1" netid="HI" source="ITSAK Strong Motion Network" insttype="" lat="35.317672" lon="25.10217" esm:processing="automatic (Paolucci et al 2011)" esm:quality="best">
		<comp name="--.HNE" depth="0.0">
			<acc value="0.0180797095867095" flag="0"/>
			<vel value="0.0229745942597717" flag="0"/>
			<psa03 value="0.0367555702928116" flag="0"/>
			<psa10 value="0.0553164381925512" flag="0"/>
			<psa30 value="0.00270996202168413" flag="0"/>
		</comp>
		<comp name="--.HNN" depth="0.0">
			<acc value="0.0197808123287552" flag="0"/>
			<vel value="0.0243537947196139" flag="0"/>
			<psa03 value="0.0418432823287648" flag="0"/>
			<psa10 value="0.0696179318463177" flag="0"/>
			<psa30 value="0.00346714572305495" flag="0"/>
		</comp>
		<comp name="--.HNZ" depth="0.0">
			<acc value="0.0184082245035138" flag="0"/>
			<vel value="0.0194686640642814" flag="0"/>
			<psa03 value="0.0374053164603064" flag="0"/>
			<psa10 value="0.0313505018168851" flag="0"/>
			<psa30 value="0.00191382053121765" flag="0"/>
		</comp>
	</station>
	<station code="HER2" name="HER2" netid="HI" source="ITSAK Strong Motion Network" insttype="" lat="35.337866" lon="25.135624" esm:processing="automatic (Paolucci et al 2011)" esm:quality="best">
		<comp name="--.HNE" depth="0.0">
			<acc value="0.0128467083177112" flag="0"/>
			<vel value="0.0114271181067696" flag="0"/>
			<psa03 value="0.0435421396613922" flag="0"/>
			<psa10 value="0.0196785642333031" flag="0"/>
			<psa30 value="0.00141469184139154" flag="0"/>
		</comp>
		<comp name="--.HNN" depth="0.0">
			<acc value="0.0142611509448111" flag="0"/>
			<vel value="0.0119120353146293" flag="0"/>
			<psa03 value="0.044064851371811" flag="0"/>
			<psa10 value="0.0167770213953301" flag="0"/>
			<psa30 value="0.00183444152274791" flag="0"/>
		</comp>
		<comp name="--.HNZ" depth="0.0">
			<acc value="0.00850134762071358" flag="0"/>
			<vel value="0.00502705353619157" flag="0"/>
			<psa03 value="0.0273009595962538" flag="0"/>
			<psa10 value="0.00649817828491997" flag="0"/>
			<psa30 value="0.001379870888841" flag="0"/>
		</comp>
	</station>
	<station code="HER3" name="HER3" netid="HI" source="ITSAK Strong Motion Network" insttype="" lat="35.3296" lon="25.1065" esm:processing="automatic (Paolucci et al 2011)" esm:quality="best">
		<comp name="--.HNE" depth="0.0">
			<acc value="0.0206914188361102" flag="0"/>
			<vel value="0.0223927574419461" flag="0"/>
			<psa03 value="0.0516066895232417" flag="0"/>
			<psa10 value="0.0467810190129203" flag="0"/>
			<psa30 value="0.00257567687595226" flag="0"/>
		</comp>
		<comp name="--.HNN" depth="0.0">
			<acc value="0.023241141037099" flag="0"/>
			<vel value="0.0251465009066504" flag="0"/>
			<psa03 value="0.0676968231239598" flag="0"/>
			<psa10 value="0.05824274204582" flag="0"/>
			<psa30 value="0.00304365704400834" flag="0"/>
		</comp>
		<comp name="--.HNZ" depth="0.0">
			<acc value="0.0146339586431262" flag="0"/>
			<vel value="0.0156185815400884" flag="0"/>
			<psa03 value="0.030848415951994" flag="0"/>
			<psa10 value="0.0270901858418603" flag="0"/>
			<psa30 value="0.00188882866729598" flag="0"/>
		</comp>
	</station>
	<station code="KOS2" name="KOS2" netid="HI" source="ITSAK Strong Motion Network" insttype="" lat="36.8941" lon="27.2888" esm:processing="manual (Paolucci et al 2011)" esm:quality="good">
		<comp name="--.HNE" depth="0.0">
			<acc value="0.0160093260791373" flag="0"/>
			<vel value="0.0196119413140294" flag="0"/>
			<psa03 value="0.0609379535070185" flag="0"/>
			<psa10 value="0.0184271513333401" flag="0"/>
			<psa30 value="0.00764065615597193" flag="0"/>
		</comp>
		<comp name="--.HNN" depth="0.0">
			<acc value="0.0163964625851647" flag="0"/>
			<vel value="0.014713718180203" flag="0"/>
			<psa03 value="0.0385712660945808" flag="0"/>
			<psa10 value="0.0303833596234613" flag="0"/>
			<psa30 value="0.0040720210014069" flag="0"/>
		</comp>
		<comp name="--.HNZ" depth="0.0">
			<acc value="0.00636566121088327" flag="0"/>
			<vel value="0.00810734822959655" flag="0"/>
			<psa03 value="0.0187508567355676" flag="0"/>
			<psa10 value="0.0139032997753763" flag="0"/>
			<psa30 value="0.00223947127064759" flag="0"/>
		</comp>
	</station>
	<station code="RKL1" name="RKL1" netid="HI" source="ITSAK Strong Motion Network" insttype="" lat="36.336699" lon="28.171224" esm:processing="automatic (Paolucci et al 2011)" esm:quality="best">
		<comp name="--.HNE" depth="0.0">
			<acc value="0.0559701440175914" flag="0"/>
			<vel value="0.0495145762733659" flag="0"/>
			<psa03 value="0.142518180713363" flag="0"/>
			<psa10 value="0.100166660549669" flag="0"/>
			<psa30 value="0.00496724738909487" flag="0"/>
		</comp>
		<comp name="--.HNN" depth="0.0">
			<acc value="0.0493180391678413" flag="0"/>
			<vel value="0.0397369090379953" flag="0"/>
			<psa03 value="0.135587627848249" flag="0"/>
			<psa10 value="0.0478753077541789" flag="0"/>
			<psa30 value="0.00411688855699559" flag="0"/>
		</comp>
		<comp name="--.HNZ" depth="0.0">
			<acc value="0.0309878742352609" flag="0"/>
			<vel value="0.0268357260415076" flag="0"/>
			<psa03 value="0.075425788254968" flag="0"/>
			<psa10 value="0.0400657341582555" flag="0"/>
			<psa30 value="0.00330361884853539" flag="0"/>
		</comp>
	</station>
	<station code="RKT1" name="RKT1" netid="HI" source="ITSAK Strong Motion Network" insttype="" lat="35.954336" lon="27.767327" esm:processing="automatic (Paolucci et al 2011)" esm:quality="best">
		<comp name="--.HNE" depth="0.0">
			<acc value="0.0866006378721167" flag="0"/>
			<vel value="0.0683430788175904" flag="0"/>
			<psa03 value="0.244839636090947" flag="0"/>
			<psa10 value="0.0840957434302817" flag="0"/>
			<psa30 value="0.00531757976356201" flag="0"/>
		</comp>
		<comp name="--.HNN" depth="0.0">
			<acc value="0.131086577282979" flag="0"/>
			<vel value="0.0560352619664972" flag="0"/>
			<psa03 value="0.489018561746404" flag="0"/>
			<psa10 value="0.0791194337741895" flag="0"/>
			<psa30 value="0.00366704334029104" flag="0"/>
		</comp>
		<comp name="--.HNZ" depth="0.0">
			<acc value="0.049054493245064" flag="0"/>
			<vel value="0.0263281947489826" flag="0"/>
			<psa03 value="0.106806044126246" flag="0"/>
			<psa10 value="0.0790305603867637" flag="0"/>
			<psa30 value="0.00309747206732285" flag="0"/>
		</comp>
	</station>
	<station code="RPN1" name="RPN1" netid="HI" source="ITSAK Strong Motion Network" insttype="" lat="36.448678" lon="28.218047" esm:processing="automatic (Paolucci et al 2011)" esm:quality="best">
		<comp name="--.HNE" depth="0.0">
			<acc value="0.0425510111168198" flag="0"/>
			<vel value="0.0416384303330946" flag="0"/>
			<psa03 value="0.124609254751577" flag="0"/>
			<psa10 value="0.0558064794053766" flag="0"/>
			<psa30 value="0.0107123904766287" flag="0"/>
		</comp>
		<comp name="--.HNN" depth="0.0">
			<acc value="0.034396782666509" flag="0"/>
			<vel value="0.0420118563607399" flag="0"/>
			<psa03 value="0.164873047030211" flag="0"/>
			<psa10 value="0.0912561002687811" flag="0"/>
			<psa30 value="0.0103393374303619" flag="0"/>
		</comp>
		<comp name="--.HNZ" depth="0.0">
			<acc value="0.0216269135016225" flag="0"/>
			<vel value="0.0166338766357139" flag="0"/>
			<psa03 value="0.0512038867978714" flag="0"/>
			<psa10 value="0.0385011530124332" flag="0"/>
			<psa30 value="0.00384653981438486" flag="0"/>
		</comp>
	</station>
	<station code="RSO1" name="RSO1" netid="HI" source="ITSAK Strong Motion Network" insttype="" lat="36.3632" lon="28.0016" esm:processing="automatic (Paolucci et al 2011)" esm:quality="best">
		<comp name="--.HNE" depth="0.0">
			<acc value="0.0565038716267702" flag="0"/>
			<vel value="0.0462097435346422" flag="0"/>
			<psa03 value="0.180734243589973" flag="0"/>
			<psa10 value="0.0603979985709873" flag="0"/>
			<psa30 value="0.00993491063907182" flag="0"/>
		</comp>
		<comp name="--.HNN" depth="0.0">
			<acc value="0.0515118700135335" flag="0"/>
			<vel value="0.052527550010538" flag="0"/>
			<psa03 value="0.116903681795185" flag="0"/>
			<psa10 value="0.100122085096764" flag="0"/>
			<psa30 value="0.0113805314043528" flag="0"/>
		</comp>
		<comp name="--.HNZ" depth="0.0">
			<acc value="0.031820503401218" flag="0"/>
			<vel value="0.0185228525187205" flag="0"/>
			<psa03 value="0.0581486281028998" flag="0"/>
			<psa10 value="0.0417037114162101" flag="0"/>
			<psa30 value="0.00692698679554598" flag="0"/>
		</comp>
	</station>
	<station code="KARP" name="KARP" netid="HL" source="National Observatory of Athens Seismic Network" insttype="" lat="35.5471" lon="27.16106" esm:processing="manual (Paolucci et al 2011)" esm:quality="bad">
		<comp name="--.HNE" depth="0.0">
			<acc value="0.190364903284398" flag="0"/>
			<vel value="0.055829017150117" flag="0"/>
			<psa03 value="0.233040687801864" flag="0"/>
			<psa10 value="0.0892835595977694" flag="0"/>
			<psa30 value="0.00440583686506849" flag="0"/>
		</comp>
		<comp name="--.HNN" depth="0.0">
			<acc value="0.210648968937301" flag="0"/>
			<vel value="0.0507986197243232" flag="0"/>
			<psa03 value="0.238539156214984" flag="0"/>
			<psa10 value="0.052496438881259" flag="0"/>
			<psa30 value="0.00325270505907823" flag="0"/>
		</comp>
		<comp name="--.HNZ" depth="0.0">
			<acc value="0.169938592697187" flag="0"/>
			<vel value="0.0551631579980375" flag="0"/>
			<psa03 value="0.25411179199228" flag="0"/>
			<psa10 value="0.0798375013425076" flag="0"/>
			<psa30 value="0.00474204663732102" flag="0"/>
		</comp>
	</station>
	<station code="NISR" name="NISR" netid="HL" source="National Observatory of Athens Seismic Network" insttype="" lat="36.6106" lon="27.131" esm:processing="manual (Paolucci et al 2011)" esm:quality="good">
		<comp name="--.HNE" depth="0.0">
			<acc value="0.0126785157333697" flag="0"/>
			<vel value="0.00719925425130299" flag="0"/>
			<psa03 value="0.0354441631060215" flag="0"/>
			<psa10 value="0.00693163340544442" flag="0"/>
			<psa30 value="0.000986169078861607" flag="0"/>
		</comp>
		<comp name="--.HNN" depth="0.0">
			<acc value="0.00852940031438439" flag="0"/>
			<vel value="0.00442422105511494" flag="0"/>
			<psa03 value="0.0239413620394037" flag="0"/>
			<psa10 value="0.00425450637141707" flag="0"/>
			<psa30 value="0.000830004723322801" flag="0"/>
		</comp>
		<comp name="--.HNZ" depth="0.0">
			<acc value="0.00555503116525531" flag="0"/>
			<vel value="0.00373320969989249" flag="0"/>
			<psa03 value="0.015517776674464" flag="0"/>
			<psa10 value="0.00614749349127346" flag="0"/>
			<psa30 value="0.000875149015993967" flag="0"/>
		</comp>
	</station>
	<station code="YKAV" name="YKAV" netid="KO" source="Bogazici University Kandilli Observatory And Earthquake Research Institute (KOERI)" insttype="" lat="37.1246" lon="27.2801" esm:processing="automatic (Paolucci et al 2011)" esm:quality="good">
		<comp name="--.HNE" depth="0.0">
			<acc value="0.00491315025135593" flag="0"/>
			<vel value="0.0061088978441429" flag="0"/>
			<psa03 value="0.0137805996384277" flag="0"/>
			<psa10 value="0.00817842794775389" flag="0"/>
			<psa30 value="0.00114629533356012" flag="0"/>
		</comp>
		<comp name="--.HNN" depth="0.0">
			<acc value="0.00326943293894558" flag="0"/>
			<vel value="0.00271573728749865" flag="0"/>
			<psa03 value="0.00961957442292843" flag="0"/>
			<psa10 value="0.00394626262373157" flag="0"/>
			<psa30 value="0.000595071348023014" flag="0"/>
		</comp>
		<comp name="--.HNZ" depth="0.0">
			<acc value="0.00300050754002344" flag="0"/>
			<vel value="0.00370540110700495" flag="0"/>
			<psa03 value="0.0114540048942776" flag="0"/>
			<psa10 value="0.00869385816799638" flag="0"/>
			<psa30 value="0.000616547607199785" flag="0"/>
		</comp>
	</station>
	<station code="KSS1" name="KSS1" netid="HI" source="ITSAK Strong Motion Network" insttype="" lat="35.4189" lon="26.9207" esm:processing="discarded" esm:quality="good">
		<comp name="--.HNE" depth="0.0">
			<acc value="0" flag="1"/>
			<vel value="0" flag="1"/>
			<psa03 value="0" flag="1"/>
			<psa10 value="0" flag="1"/>
			<psa30 value="0" flag="1"/>
		</comp>
		<comp name="--.HNN" depth="0.0">
			<acc value="0" flag="1"/>
			<vel value="0" flag="1"/>
			<psa03 value="0" flag="1"/>
			<psa10 value="0" flag="1"/>
			<psa30 value="0" flag="1"/>
		</comp>
		<comp name="--.HNZ" depth="0.0">
			<acc value="0" flag="1"/>
			<vel value="0" flag="1"/>
			<psa03 value="0" flag="1"/>
			<psa10 value="0" flag="1"/>
			<psa30 value="0" flag="1"/>
		</comp>
	</station>
	<station code="RDI1" name="RDI1" netid="HI" source="ITSAK Strong Motion Network" insttype="" lat="36.4514" lon="28.224" esm:processing="discarded" esm:quality="bad">
		<comp name="--.HNE" depth="0.0">
			<acc value="0" flag="1"/>
			<vel value="0" flag="1"/>
			<psa03 value="0" flag="1"/>
			<psa10 value="0" flag="1"/>
			<psa30 value="0" flag="1"/>
		</comp>
		<comp name="--.HNN" depth="0.0">
			<acc value="0" flag="1"/>
			<vel value="0" flag="1"/>
			<psa03 value="0" flag="1"/>
			<psa10 value="0" flag="1"/>
			<psa30 value="0" flag="1"/>
		</comp>
		<comp name="--.HNZ" depth="0.0">
			<acc value="0" flag="1"/>
			<vel value="0" flag="1"/>
			<psa03 value="0" flag="1"/>
			<psa10 value="0" flag="1"/>
			<psa30 value="0" flag="1"/>
		</comp>
	</station>
	<station code="SIT2" name="SIT2" netid="HI" source="ITSAK Strong Motion Network" insttype="" lat="35.2059" lon="26.107" esm:processing="discarded" esm:quality="bad">
		<comp name="--.HNE" depth="0.0">
			<acc value="0" flag="1"/>
			<vel value="0" flag="1"/>
			<psa03 value="0" flag="1"/>
			<psa10 value="0" flag="1"/>
			<psa30 value="0" flag="1"/>
		</comp>
		<comp name="--.HNN" depth="0.0">
			<acc value="0" flag="1"/>
			<vel value="0" flag="1"/>
			<psa03 value="0" flag="1"/>
			<psa10 value="0" flag="1"/>
			<psa30 value="0" flag="1"/>
		</comp>
		<comp name="--.HNZ" depth="0.0">
			<acc value="0" flag="1"/>
			<vel value="0" flag="1"/>
			<psa03 value="0" flag="1"/>
			<psa10 value="0" flag="1"/>
			<psa30 value="0" flag="1"/>
		</comp>
	</station>
	<station code="KLNA" name="KLNA" netid="HL" source="National Observatory of Athens Seismic Network" insttype="" lat="36.95708" lon="26.97274" esm:processing="discarded" esm:quality="bad">
		<comp name="00.HNE" depth="0.0">
			<acc value="0" flag="1"/>
			<vel value="0" flag="1"/>
			<psa03 value="0" flag="1"/>
			<psa10 value="0" flag="1"/>
			<psa30 value="0" flag="1"/>
		</comp>
		<comp name="00.HNN" depth="0.0">
			<acc value="0" flag="1"/>
			<vel value="0" flag="1"/>
			<psa03 value="0" flag="1"/>
			<psa10 value="0" flag="1"/>
			<psa30 value="0" flag="1"/>
		</comp>
		<comp name="00.HNZ" depth="0.0">
			<acc value="0" flag="1"/>
			<vel value="0" flag="1"/>
			<psa03 value="0" flag="1"/>
			<psa10 value="0" flag="1"/>
			<psa30 value="0" flag="1"/>
		</comp>
	</station>
	<station code="RODB" name="RODB" netid="HL" source="National Observatory of Athens Seismic Network" insttype="" lat="36.4471" lon="28.22116" esm:processing="automatic (Paolucci et al 2011)" esm:quality="bad">
		<comp name="00.HNE" depth="0.0">
			<acc value="0" flag="1"/>
			<vel value="0" flag="1"/>
			<psa03 value="0" flag="1"/>
			<psa10 value="0" flag="1"/>
			<psa30 value="0" flag="1"/>
		</comp>
		<comp name="00.HNN" depth="0.0">
			<acc value="0" flag="1"/>
			<vel value="0" flag="1"/>
			<psa03 value="0" flag="1"/>
			<psa10 value="0" flag="1"/>
			<psa30 value="0" flag="1"/>
		</comp>
		<comp name="00.HNZ" depth="0.0">
			<acc value="0" flag="1"/>
			<vel value="0" flag="1"/>
			<psa03 value="0" flag="1"/>
			<psa10 value="0" flag="1"/>
			<psa30 value="0" flag="1"/>
		</comp>
	</station>
	<station code="FETI" name="FETI" netid="KO" source="Bogazici University Kandilli Observatory And Earthquake Research Institute (KOERI)" insttype="" lat="36.6903" lon="29.096" esm:processing="automatic (Paolucci et al 2011)" esm:quality="bad">
		<comp name="--.HNE" depth="0.0">
			<acc value="0" flag="1"/>
			<vel value="0" flag="1"/>
			<psa03 value="0" flag="1"/>
			<psa10 value="0" flag="1"/>
			<psa30 value="0" flag="1"/>
		</comp>
		<comp name="--.HNN" depth="0.0">
			<acc value="0" flag="1"/>
			<vel value="0" flag="1"/>
			<psa03 value="0" flag="1"/>
			<psa10 value="0" flag="1"/>
			<psa30 value="0" flag="1"/>
		</comp>
		<comp name="--.HNZ" depth="0.0">
			<acc value="0" flag="1"/>
			<vel value="0" flag="1"/>
			<psa03 value="0" flag="1"/>
			<psa10 value="0" flag="1"/>
			<psa30 value="0" flag="1"/>
		</comp>
	</station>
</stationlist>
