<stationlist created="1778136461">
	<station code="KARP" name="KARP" netid="HL" source="National Observatory of Athens Seismic Network" insttype="" lat="35.5471" lon="27.16106">
		<comp name="--.HNE" depth="0.0">
			<acc value="0.190364903284398" flag="0"/>
			<vel value="0.055829017150117" flag="0"/>
			<psa03 value="0.233040687801864" flag="0"/>
			<psa10 value="0.0892835595977694" flag="0"/>
			<psa30 value="0.00440583686506849" flag="0"/>
		</comp>
		<comp name="--.HNN" depth="0.0">
			<acc value="0.210648968937301" flag="0"/>
			<vel value="0.0507986197243232" flag="0"/>
			<psa03 value="0.238539156214984" flag="0"/>
			<psa10 value="0.052496438881259" flag="0"/>
			<psa30 value="0.00325270505907823" flag="0"/>
		</comp>
		<comp name="--.HNZ" depth="0.0">
			<acc value="0.169938592697187" flag="0"/>
			<vel value="0.0551631579980375" flag="0"/>
			<psa03 value="0.25411179199228" flag="0"/>
			<psa10 value="0.0798375013425076" flag="0"/>
			<psa30 value="0.00474204663732102" flag="0"/>
		</comp>
	</station>
	<station code="NISR" name="NISR" netid="HL" source="National Observatory of Athens Seismic Network" insttype="" lat="36.6106" lon="27.131">
		<comp name="--.HNE" depth="0.0">
			<acc value="0.0126570287754734" flag="0"/>
			<vel value="0.00716570920398397" flag="0"/>
			<psa03 value="0.0353463432284347" flag="0"/>
			<psa10 value="0.00695428117467798" flag="0"/>
			<psa30 value="0.00229214324505406" flag="0"/>
		</comp>
		<comp name="--.HNN" depth="0.0">
			<acc value="0.00852611465674655" flag="0"/>
			<vel value="0.00441383847623462" flag="0"/>
			<psa03 value="0.0238923383341571" flag="0"/>
			<psa10 value="0.00639052937128775" flag="0"/>
			<psa30 value="0.00139371973615916" flag="0"/>
		</comp>
		<comp name="--.HNZ" depth="0.0">
			<acc value="0.00571592723904829" flag="0"/>
			<vel value="0.00403279700722988" flag="0"/>
			<psa03 value="0.015480803489922" flag="0"/>
			<psa10 value="0.00634220778814002" flag="0"/>
			<psa30 value="0.00107873460156653" flag="0"/>
		</comp>
	</station>
	<station code="RODB" name="RODB" netid="HL" source="National Observatory of Athens Seismic Network" insttype="" lat="36.4471" lon="28.22116">
		<comp name="00.HNE" depth="0.0">
			<acc value="0.00982690253507119" flag="0"/>
			<vel value="0.00762721871248628" flag="0"/>
			<psa03 value="0.0432657137998688" flag="0"/>
			<psa10 value="0.006467038544605" flag="0"/>
			<psa30 value="0.00139416715822535" flag="0"/>
		</comp>
		<comp name="00.HNN" depth="0.0">
			<acc value="0.0130413836096352" flag="0"/>
			<vel value="0.00839546028144967" flag="0"/>
			<psa03 value="0.0473819968087498" flag="0"/>
			<psa10 value="0.00865359018203994" flag="0"/>
			<psa30 value="0.0015351051090729" flag="0"/>
		</comp>
		<comp name="00.HNZ" depth="0.0">
			<acc value="0.0144942304474649" flag="0"/>
			<vel value="0.00702694359913041" flag="0"/>
			<psa03 value="0.0363306717740367" flag="0"/>
			<psa10 value="0.0102401488287239" flag="0"/>
			<psa30 value="0.00105457380999267" flag="0"/>
		</comp>
	</station>
	<station code="FETI" name="FETI" netid="KO" source="Bogazici University Kandilli Observatory And Earthquake Research Institute (KOERI)" insttype="" lat="36.6903" lon="29.096">
		<comp name="--.HNE" depth="0.0">
			<acc value="0.00387691112757082" flag="0"/>
			<vel value="0.00536321664168152" flag="0"/>
			<psa03 value="0.00859050367070818" flag="0"/>
			<psa10 value="0.0102482024259151" flag="0"/>
			<psa30 value="0.00199729210343965" flag="0"/>
		</comp>
		<comp name="--.HNN" depth="0.0">
			<acc value="0.00238214003998332" flag="0"/>
			<vel value="0.00243230018875377" flag="0"/>
			<psa03 value="0.00255030577724149" flag="0"/>
			<psa10 value="0.00160266584106649" flag="0"/>
			<psa30 value="0.000969563617417949" flag="0"/>
		</comp>
		<comp name="--.HNZ" depth="0.0">
			<acc value="0.00480890553607918" flag="0"/>
			<vel value="0.00426372811890594" flag="0"/>
			<psa03 value="0.00774040174496101" flag="0"/>
			<psa10 value="0.00793279323341958" flag="0"/>
			<psa30 value="0.00195657669541702" flag="0"/>
		</comp>
	</station>
	<station code="YKAV" name="YKAV" netid="KO" source="Bogazici University Kandilli Observatory And Earthquake Research Institute (KOERI)" insttype="" lat="37.1246" lon="27.2801">
		<comp name="--.HNE" depth="0.0">
			<acc value="0.00491315025135593" flag="0"/>
			<vel value="0.0061088978441429" flag="0"/>
			<psa03 value="0.0137805996384277" flag="0"/>
			<psa10 value="0.00817842794775389" flag="0"/>
			<psa30 value="0.00114629533356012" flag="0"/>
		</comp>
		<comp name="--.HNN" depth="0.0">
			<acc value="0.00326943293894558" flag="0"/>
			<vel value="0.00271573728749865" flag="0"/>
			<psa03 value="0.00961957442292843" flag="0"/>
			<psa10 value="0.00394626262373157" flag="0"/>
			<psa30 value="0.000595071348023014" flag="0"/>
		</comp>
		<comp name="--.HNZ" depth="0.0">
			<acc value="0.00300050754002344" flag="0"/>
			<vel value="0.00370540110700495" flag="0"/>
			<psa03 value="0.0114540048942776" flag="0"/>
			<psa10 value="0.00869385816799638" flag="0"/>
			<psa30 value="0.000616547607199785" flag="0"/>
		</comp>
	</station>
</stationlist>
