<stationlist created="1778205403">
	<station code="3502" name="3502" netid="TK" source="Turkish National Strong Motion Network (TNSMN)" insttype="" lat="38.45514" lon="27.22673">
		<comp name="00.HNE" depth="None">
			<acc value="0.0937598599800107" flag="0"/>
			<vel value="0.0711406528028348" flag="0"/>
			<psa03 value="0.347915398663681" flag="0"/>
			<psa10 value="0.0742944340896402" flag="0"/>
			<psa30 value="0.00923255433568037" flag="0"/>
		</comp>
		<comp name="00.HNN" depth="None">
			<acc value="0.139905148521003" flag="0"/>
			<vel value="0.0787214778964013" flag="0"/>
			<psa03 value="0.348228594110009" flag="0"/>
			<psa10 value="0.0904298160623876" flag="0"/>
			<psa30 value="0.00534445658055256" flag="0"/>
		</comp>
		<comp name="00.HNZ" depth="None">
			<acc value="0.0534566993620222" flag="0"/>
			<vel value="0.0338170689923211" flag="0"/>
			<psa03 value="0.154897519312457" flag="0"/>
			<psa10 value="0.0481524576067164" flag="0"/>
			<psa30 value="0.00196373544847595" flag="0"/>
		</comp>
	</station>
</stationlist>
