<?xml version="1.0" encoding="UTF-8" standalone="yes"?>
<!DOCTYPE earthquake SYSTEM "stationlist.dtd">
<stationlist created="" xmlns="ch.ethz.sed.shakemap.usgs.xml">
  <station code="GULA" name="GULA" netid="KO" insttype="30s," lat="38.3444" lon="34.236">
    <comp name="--.HHE">
      <acc value="0.0567514413" flag="0"/>
      <vel value="0.0419454593" flag="0"/>
      <psa03 value="0.1357786408" flag="0"/>
      <psa10 value="0.0260949312" flag="0"/>
      <psa30 value="0.0061970757" flag="0"/>
    </comp>
    <comp name="--.HHZ">
      <acc value="0.0320211579" flag="0"/>
      <vel value="0.0186342732" flag="0"/>
      <psa03 value="0.1272781334" flag="0"/>
      <psa10 value="0.0119456291" flag="0"/>
      <psa30 value="0.0023761014" flag="0"/>
    </comp>
    <comp name="--.HHN">
      <acc value="0.0905970490" flag="0"/>
      <vel value="0.0537927430" flag="0"/>
      <psa03 value="0.1759547568" flag="0"/>
      <psa10 value="0.0249688574" flag="0"/>
      <psa30 value="0.0043791746" flag="0"/>
    </comp>
  </station>
  <station code="KOZK" name="KOZK" netid="KO" insttype="CMG-5T" lat="39.2101" lon="34.868">
    <comp name="--.HNN">
      <acc value="0.2153003504" flag="0"/>
      <vel value="0.1261483774" flag="0"/>
      <psa03 value="0.5410423328" flag="0"/>
      <psa10 value="0.1873635347" flag="0"/>
      <psa30 value="0.0104814833" flag="0"/>
    </comp>
    <comp name="--.HNZ">
      <acc value="0.1821009123" flag="0"/>
      <vel value="0.0936721826" flag="0"/>
      <psa03 value="0.4450572875" flag="0"/>
      <psa10 value="0.0727486590" flag="0"/>
      <psa30 value="0.0058653883" flag="0"/>
    </comp>
    <comp name="--.HNE">
      <acc value="0.2766849503" flag="0"/>
      <vel value="0.1478614431" flag="0"/>
      <psa03 value="0.6606669749" flag="0"/>
      <psa10 value="0.2447605426" flag="0"/>
      <psa30 value="0.0171815800" flag="0"/>
    </comp>
  </station>
  <station code="TOKT" name="TOKT" netid="KO" insttype="120s," lat="40.3173" lon="36.5445">
    <comp name="--.HHE">
      <acc value="0.0099629026" flag="0"/>
      <vel value="0.0120935539" flag="0"/>
      <psa03 value="0.0237289494" flag="0"/>
      <psa10 value="0.0226855343" flag="0"/>
      <psa30 value="0.0016822008" flag="0"/>
    </comp>
    <comp name="--.HHZ">
      <acc value="0.0105729519" flag="0"/>
      <vel value="0.0106037891" flag="0"/>
      <psa03 value="0.0291017218" flag="0"/>
      <psa10 value="0.0198058506" flag="0"/>
      <psa30 value="0.0025275058" flag="0"/>
    </comp>
  </station>
  <station code="TUNC" name="TUNC" netid="KO" insttype="CMG-5T" lat="39.6942" lon="37.5388">
    <comp name="--.HNE">
      <acc value="0.0299360377" flag="0"/>
      <vel value="0.0518089386" flag="0"/>
      <psa03 value="0.0643685091" flag="0"/>
      <psa10 value="0.0829155714" flag="0"/>
      <psa30 value="0.0188808530" flag="0"/>
    </comp>
    <comp name="--.HNN">
      <acc value="0.0357538236" flag="0"/>
      <vel value="0.0458543292" flag="0"/>
      <psa03 value="0.0682079679" flag="0"/>
      <psa10 value="0.0782485031" flag="0"/>
      <psa30 value="0.0156807440" flag="0"/>
    </comp>
    <comp name="--.HNZ">
      <acc value="0.0218712906" flag="0"/>
      <vel value="0.0296476828" flag="0"/>
      <psa03 value="0.0408440907" flag="0"/>
      <psa10 value="0.0425781338" flag="0"/>
      <psa30 value="0.0097575483" flag="0"/>
    </comp>
  </station>
  <station code="YOZ" name="YOZ" netid="KO" insttype="360s," lat="39.6376" lon="35.3152">
    <comp name="--.HHZ">
      <acc value="0.2923135694" flag="0"/>
      <vel value="0.1669382613" flag="0"/>
      <psa03 value="1.2762108063" flag="0"/>
      <psa10 value="0.1115901747" flag="0"/>
      <psa30 value="0.0078663594" flag="0"/>
    </comp>
    <comp name="--.HHE">
      <acc value="0.5551364899" flag="0"/>
      <vel value="0.2860277231" flag="0"/>
      <psa03 value="1.8258587613" flag="0"/>
      <psa10 value="0.3301640396" flag="0"/>
      <psa30 value="0.0219956845" flag="0"/>
    </comp>
    <comp name="--.HHN">
      <acc value="0.5301050911" flag="0"/>
      <vel value="0.2802630501" flag="0"/>
      <psa03 value="1.8177527646" flag="0"/>
      <psa10 value="0.1898084411" flag="0"/>
      <psa30 value="0.0171480913" flag="0"/>
    </comp>
  </station>
  <station code="ANDN" name="ANDN" netid="TU" source="ODC" insttype="T" lat="37.58" lon="36.3452">
    <comp name="--.HHE">
      <acc value="0.1088761108" flag="0"/>
      <vel value="0.1103868646" flag="0"/>
      <psa03 value="0.1623049435" flag="0"/>
      <psa10 value="0.1669957438" flag="0"/>
      <psa30 value="0.0267114694" flag="0"/>
    </comp>
    <comp name="--.HHN">
      <acc value="0.1460053608" flag="0"/>
      <vel value="0.2252423276" flag="0"/>
      <psa03 value="0.2723865465" flag="0"/>
      <psa10 value="0.3173486021" flag="0"/>
      <psa30 value="0.0312166238" flag="0"/>
    </comp>
    <comp name="--.HHZ">
      <acc value="0.0593197562" flag="0"/>
      <vel value="0.0757019676" flag="0"/>
      <psa03 value="0.1256799303" flag="0"/>
      <psa10 value="0.1325615087" flag="0"/>
      <psa30 value="0.0192619912" flag="0"/>
    </comp>
  </station>
</stationlist>
