<stationlist created="1778205331">
	<station code="ERBG" name="ERBG" netid="KO" source="Bogazici University Kandilli Observatory And Earthquake Research Institute (KOERI)" insttype="" lat="40.712" lon="36.6768">
		<comp name="--.HNE" depth="0.0">
			<acc value="0.019038708160636" flag="0"/>
			<vel value="0.0317438833606558" flag="0"/>
			<psa03 value="0.0353000962706257" flag="0"/>
			<psa10 value="0.0396911068410145" flag="0"/>
			<psa30 value="0.00537307677331932" flag="0"/>
		</comp>
		<comp name="--.HNN" depth="0.0">
			<acc value="0.0172364208333987" flag="0"/>
			<vel value="0.0197284920156863" flag="0"/>
			<psa03 value="0.0302076078765929" flag="0"/>
			<psa10 value="0.0366638950531199" flag="0"/>
			<psa30 value="0.00412620834105191" flag="0"/>
		</comp>
		<comp name="--.HNZ" depth="0.0">
			<acc value="0.0108897865811989" flag="0"/>
			<vel value="0.0133798409504821" flag="0"/>
			<psa03 value="0.0217301244099429" flag="0"/>
			<psa10 value="0.0275180516858904" flag="0"/>
			<psa30 value="0.00289343459250765" flag="0"/>
		</comp>
	</station>
	<station code="KHMN" name="KHMN" netid="KO" source="Bogazici University Kandilli Observatory And Earthquake Research Institute (KOERI)" insttype="" lat="37.3916" lon="37.1574">
		<comp name="--.HNE" depth="0.0">
			<acc value="0.0119004263483618" flag="0"/>
			<vel value="0.0160765898401096" flag="0"/>
			<psa03 value="0.0245246090099808" flag="0"/>
			<psa10 value="0.028231073295062" flag="0"/>
			<psa30 value="0.00391791704277687" flag="0"/>
		</comp>
		<comp name="--.HNN" depth="0.0">
			<acc value="0.0128733996806528" flag="0"/>
			<vel value="0.0145387006413517" flag="0"/>
			<psa03 value="0.0208369350321612" flag="0"/>
			<psa10 value="0.0300284679886193" flag="0"/>
			<psa30 value="0.00462359462378784" flag="0"/>
		</comp>
		<comp name="--.HNZ" depth="0.0">
			<acc value="0.00699364403129688" flag="0"/>
			<vel value="0.0099813032718118" flag="0"/>
			<psa03 value="0.0154824370937909" flag="0"/>
			<psa10 value="0.0129289936698976" flag="0"/>
			<psa30 value="0.00424939983521744" flag="0"/>
		</comp>
	</station>
	<station code="KMON" name="KMON" netid="KO" source="Bogazici University Kandilli Observatory And Earthquake Research Institute (KOERI)" insttype="" lat="41.3738" lon="33.7839">
		<comp name="--.HNE" depth="0.0">
			<acc value="0.0138489883236734" flag="0"/>
			<vel value="0.0202463073167854" flag="0"/>
			<psa03 value="0.0256256559072661" flag="0"/>
			<psa10 value="0.0333497892598574" flag="0"/>
			<psa30 value="0.00302735346397554" flag="0"/>
		</comp>
		<comp name="--.HNN" depth="0.0">
			<acc value="0.0158499334785342" flag="0"/>
			<vel value="0.0223763937145449" flag="0"/>
			<psa03 value="0.0206859862304774" flag="0"/>
			<psa10 value="0.0480233488112351" flag="0"/>
			<psa30 value="0.00412757676503884" flag="0"/>
		</comp>
		<comp name="--.HNZ" depth="0.0">
			<acc value="0.0079533601720265" flag="0"/>
			<vel value="0.00804788514332165" flag="0"/>
			<psa03 value="0.0143909976037777" flag="0"/>
			<psa10 value="0.0167404227208381" flag="0"/>
			<psa30 value="0.00172843616707871" flag="0"/>
		</comp>
	</station>
	<station code="KOZK" name="KOZK" netid="KO" source="Bogazici University Kandilli Observatory And Earthquake Research Institute (KOERI)" insttype="" lat="39.2101" lon="34.868">
		<comp name="--.HNE" depth="0.0">
			<acc value="0.276461821517774" flag="0"/>
			<vel value="0.148425152579832" flag="0"/>
			<psa03 value="0.660745479479102" flag="0"/>
			<psa10 value="0.244597953414167" flag="0"/>
			<psa30 value="0.0172351917468563" flag="0"/>
		</comp>
		<comp name="--.HNN" depth="0.0">
			<acc value="0.215518751799815" flag="0"/>
			<vel value="0.126984722815383" flag="0"/>
			<psa03 value="0.536348863812643" flag="0"/>
			<psa10 value="0.187716000263697" flag="0"/>
			<psa30 value="0.0104499080884718" flag="0"/>
		</comp>
		<comp name="--.HNZ" depth="0.0">
			<acc value="0.17954514756364" flag="0"/>
			<vel value="0.096226846419197" flag="0"/>
			<psa03 value="0.442662574223067" flag="0"/>
			<psa10 value="0.0728009402051494" flag="0"/>
			<psa30 value="0.00587111226571936" flag="0"/>
		</comp>
	</station>
	<station code="KRMN" name="KRMN" netid="KO" source="Bogazici University Kandilli Observatory And Earthquake Research Institute (KOERI)" insttype="" lat="37.174" lon="33.2636">
		<comp name="--.HNE" depth="0.0">
			<acc value="0.00457807500051957" flag="0"/>
			<vel value="0.00535431012542616" flag="0"/>
			<psa03 value="0.00954681732564438" flag="0"/>
			<psa10 value="0.00896871350825756" flag="0"/>
			<psa30 value="0.00200078420880071" flag="0"/>
		</comp>
		<comp name="--.HNN" depth="0.0">
			<acc value="0.00403603651894867" flag="0"/>
			<vel value="0.00482085791850757" flag="0"/>
			<psa03 value="0.00697106336121989" flag="0"/>
			<psa10 value="0.00771248903955787" flag="0"/>
			<psa30 value="0.00171751252677607" flag="0"/>
		</comp>
		<comp name="--.HNZ" depth="0.0">
			<acc value="0.00255977851629558" flag="0"/>
			<vel value="0.00238346586882181" flag="0"/>
			<psa03 value="0.00737224032787166" flag="0"/>
			<psa10 value="0.00282847932599769" flag="0"/>
			<psa30 value="0.00138554376463909" flag="0"/>
		</comp>
	</station>
	<station code="KRTS" name="KRTS" netid="KO" source="Bogazici University Kandilli Observatory And Earthquake Research Institute (KOERI)" insttype="" lat="36.573" lon="35.375">
		<comp name="--.HNE" depth="0.0">
			<acc value="0.00573607108611238" flag="0"/>
			<vel value="0.00747279232365704" flag="0"/>
			<psa03 value="0.0134270040564567" flag="0"/>
			<psa10 value="0.0114777169049286" flag="0"/>
			<psa30 value="0.00316078376141057" flag="0"/>
		</comp>
		<comp name="--.HNN" depth="0.0">
			<acc value="0.0063957472174778" flag="0"/>
			<vel value="0.0080748006593499" flag="0"/>
			<psa03 value="0.0145536724427036" flag="0"/>
			<psa10 value="0.0143520723168738" flag="0"/>
			<psa30 value="0.0021092911885229" flag="0"/>
		</comp>
		<comp name="--.HNZ" depth="0.0">
			<acc value="0.00635703690717412" flag="0"/>
			<vel value="0.00681844780113703" flag="0"/>
			<psa03 value="0.0128250930890515" flag="0"/>
			<psa10 value="0.00803160892967736" flag="0"/>
			<psa30 value="0.00255180841978573" flag="0"/>
		</comp>
	</station>
	<station code="RFHY" name="RFHY" netid="KO" source="Bogazici University Kandilli Observatory And Earthquake Research Institute (KOERI)" insttype="" lat="39.927" lon="38.833">
		<comp name="--.HNE" depth="0.0">
			<acc value="0.0133741052111545" flag="0"/>
			<vel value="0.0327274276200751" flag="0"/>
			<psa03 value="0.0186313592361205" flag="0"/>
			<psa10 value="0.0326024247506253" flag="0"/>
			<psa30 value="0.00762569266470431" flag="0"/>
		</comp>
		<comp name="--.HNN" depth="0.0">
			<acc value="0.0111364907590682" flag="0"/>
			<vel value="0.0215682226213815" flag="0"/>
			<psa03 value="0.0164461832289239" flag="0"/>
			<psa10 value="0.050042351310311" flag="0"/>
			<psa30 value="0.013229659733375" flag="0"/>
		</comp>
		<comp name="--.HNZ" depth="0.0">
			<acc value="0.00685022221998295" flag="0"/>
			<vel value="0.0153431849037184" flag="0"/>
			<psa03 value="0.0104938475096585" flag="0"/>
			<psa10 value="0.0185630584615374" flag="0"/>
			<psa30 value="0.00452624859174367" flag="0"/>
		</comp>
	</station>
	<station code="TOS" name="TOS" netid="KO" source="Bogazici University Kandilli Observatory And Earthquake Research Institute (KOERI)" insttype="" lat="41.0362" lon="34.0226">
		<comp name="--.HNE" depth="0.0">
			<acc value="0.0112850464824475" flag="0"/>
			<vel value="0.015035860014588" flag="0"/>
			<psa03 value="0.0237903077619842" flag="0"/>
			<psa10 value="0.0344324222289875" flag="0"/>
			<psa30 value="0.00248816212019711" flag="0"/>
		</comp>
		<comp name="--.HNN" depth="0.0">
			<acc value="0.0129968986628319" flag="0"/>
			<vel value="0.0137896396274816" flag="0"/>
			<psa03 value="0.0311955691575194" flag="0"/>
			<psa10 value="0.0236706868168405" flag="0"/>
			<psa30 value="0.00255227949265839" flag="0"/>
		</comp>
		<comp name="--.HNZ" depth="0.0">
			<acc value="0.00539297100037358" flag="0"/>
			<vel value="0.00734236795400097" flag="0"/>
			<psa03 value="0.0145265326240074" flag="0"/>
			<psa10 value="0.0128624436362758" flag="0"/>
			<psa30 value="0.00220685327653075" flag="0"/>
		</comp>
	</station>
	<station code="TUNC" name="TUNC" netid="KO" source="Bogazici University Kandilli Observatory And Earthquake Research Institute (KOERI)" insttype="" lat="39.6942" lon="37.5388">
		<comp name="--.HNE" depth="0.0">
			<acc value="0.0299615945184692" flag="0"/>
			<vel value="0.0507092033495082" flag="0"/>
			<psa03 value="0.0644928452512095" flag="0"/>
			<psa10 value="0.0824862868117039" flag="0"/>
			<psa30 value="0.019364387795674" flag="0"/>
		</comp>
		<comp name="--.HNN" depth="0.0">
			<acc value="0.0356512912297643" flag="0"/>
			<vel value="0.0423301610829631" flag="0"/>
			<psa03 value="0.0686779089491969" flag="0"/>
			<psa10 value="0.0783580883387558" flag="0"/>
			<psa30 value="0.0157414394597914" flag="0"/>
		</comp>
		<comp name="--.HNZ" depth="0.0">
			<acc value="0.0218185968009552" flag="0"/>
			<vel value="0.0298903148415849" flag="0"/>
			<psa03 value="0.0407393784713689" flag="0"/>
			<psa10 value="0.0425075884192289" flag="0"/>
			<psa30 value="0.00986822205459315" flag="0"/>
		</comp>
	</station>
</stationlist>
