<?xml version="1.0" encoding="UTF-8" standalone="yes"?>
<!DOCTYPE earthquake SYSTEM "stationlist.dtd">
<stationlist created="" xmlns="ch.ethz.sed.shakemap.usgs.xml">
  <station code="ADA" name="ADA" netid="VI" insttype="CMG-3ESP" commtype="DIG" lat="65.0188" lon="-15.5745">
    <comp name="--.HHN">
      <acc value="0.0248052086" flag="0"/>
      <vel value="0.1215118298" flag="0"/>
      <psa03 value="0.0305781688" flag="0"/>
      <psa10 value="0.0518745154" flag="0"/>
      <psa30 value="0.0719316621" flag="0"/>
    </comp>
    <comp name="--.HHZ">
      <acc value="0.0374964646" flag="0"/>
      <vel value="0.2048818036" flag="0"/>
      <psa03 value="0.0389780023" flag="0"/>
      <psa10 value="0.0450900437" flag="0"/>
      <psa30 value="0.1308829236" flag="0"/>
    </comp>
    <comp name="--.HHE">
      <acc value="0.0367295134" flag="0"/>
      <vel value="0.2024225063" flag="0"/>
      <psa03 value="0.0371333506" flag="0"/>
      <psa10 value="0.0676454326" flag="0"/>
      <psa30 value="0.1092249932" flag="0"/>
    </comp>
  </station>
  <station code="FAG" name="FAG" netid="VI" insttype="CMG-3T" commtype="DIG" lat="63.8748" lon="-16.6536">
    <comp name="--.HHN">
      <acc value="0.0261960638" flag="0"/>
      <vel value="0.1386347094" flag="0"/>
      <psa03 value="0.0302884826" flag="0"/>
      <psa10 value="0.0570070788" flag="0"/>
      <psa30 value="0.0663304597" flag="0"/>
    </comp>
    <comp name="--.HHZ">
      <acc value="0.0324401586" flag="0"/>
      <vel value="0.2114557552" flag="0"/>
      <psa03 value="0.0356647988" flag="0"/>
      <psa10 value="0.0467550747" flag="0"/>
      <psa30 value="0.0662807526" flag="0"/>
    </comp>
    <comp name="--.HHE">
      <acc value="0.0444576483" flag="0"/>
      <vel value="0.2560319519" flag="0"/>
      <psa03 value="0.0450633261" flag="0"/>
      <psa10 value="0.0525081390" flag="0"/>
      <psa30 value="0.1378592353" flag="0"/>
    </comp>
  </station>
  <station code="GIL" name="GIL" netid="VI" insttype="CMG-3ESP" commtype="DIG" lat="66.0773" lon="-16.3513">
    <comp name="--.HHE">
      <acc value="0.0167703442" flag="0"/>
      <vel value="0.0904638655" flag="0"/>
      <psa03 value="0.0172287659" flag="0"/>
      <psa10 value="0.0217709752" flag="0"/>
      <psa30 value="0.0398864759" flag="0"/>
    </comp>
    <comp name="--.HHN">
      <acc value="0.0141569676" flag="0"/>
      <vel value="0.0755793540" flag="0"/>
      <psa03 value="0.0146806623" flag="0"/>
      <psa10 value="0.0256122596" flag="0"/>
      <psa30 value="0.0319020060" flag="0"/>
    </comp>
    <comp name="--.HHZ">
      <acc value="0.0115396489" flag="0"/>
      <vel value="0.0618416226" flag="0"/>
      <psa03 value="0.0122239330" flag="0"/>
      <psa10 value="0.0162762344" flag="0"/>
      <psa30 value="0.0293402526" flag="0"/>
    </comp>
  </station>
  <station code="GOD" name="GOD" netid="VI" insttype="CMG-3ESP" commtype="DIG" lat="63.6598" lon="-19.3224">
    <comp name="--.HHN">
      <acc value="0.0593235341" flag="0"/>
      <vel value="0.3624258097" flag="0"/>
      <psa03 value="0.0601827952" flag="0"/>
      <psa10 value="0.0766272591" flag="0"/>
      <psa30 value="0.1816354127" flag="0"/>
    </comp>
    <comp name="--.HHZ">
      <acc value="0.0389909177" flag="0"/>
      <vel value="0.1934791801" flag="0"/>
      <psa03 value="0.0382597663" flag="0"/>
      <psa10 value="0.0572213510" flag="0"/>
      <psa30 value="0.0679052910" flag="0"/>
    </comp>
    <comp name="--.HHE">
      <acc value="0.0885247525" flag="0"/>
      <vel value="0.5031358090" flag="0"/>
      <psa03 value="0.0891285805" flag="0"/>
      <psa10 value="0.1063276078" flag="0"/>
      <psa30 value="0.2680602111" flag="0"/>
    </comp>
  </station>
  <station code="SKR" name="SKR" netid="VI" insttype="LE-3D/5s" commtype="DIG" lat="64.5601" lon="-18.3865">
    <comp name="--.HHZ">
      <acc value="0.1397887808" flag="0"/>
      <vel value="0.5554641297" flag="0"/>
      <psa03 value="0.1674424930" flag="0"/>
      <psa10 value="0.3176726103" flag="0"/>
      <psa30 value="0.4443988470" flag="0"/>
    </comp>
    <comp name="--.HHN">
      <acc value="0.2803115390" flag="0"/>
      <vel value="0.8968264333" flag="0"/>
      <psa03 value="0.2920107807" flag="0"/>
      <psa10 value="0.4168816500" flag="0"/>
      <psa30 value="0.3355900234" flag="0"/>
    </comp>
    <comp name="--.HHE">
      <acc value="0.2274110014" flag="0"/>
      <vel value="0.8361760208" flag="0"/>
      <psa03 value="0.2427685261" flag="0"/>
      <psa10 value="0.4339089608" flag="0"/>
      <psa30 value="0.5017011763" flag="0"/>
    </comp>
  </station>
</stationlist>
