<?xml version="1.0" encoding="UTF-8" standalone="yes"?>
<!DOCTYPE earthquake SYSTEM "stationlist.dtd">
<stationlist created="" xmlns="ch.ethz.sed.shakemap.usgs.xml">
  <station code="SARI" name="SARI" netid="KO" insttype="CMG-3T" lat="38.4072" lon="36.4181">
    <comp name="--.HHE">
      <acc value="0.2837077892" flag="0"/>
      <vel value="0.0679298230" flag="0"/>
      <psa03 value="0.3396203730" flag="0"/>
      <psa10 value="0.0409991394" flag="0"/>
      <psa30 value="0.0035979481" flag="0"/>
    </comp>
    <comp name="--.HHZ">
      <acc value="0.1689436556" flag="0"/>
      <vel value="0.0518312964" flag="0"/>
      <psa03 value="0.3645178188" flag="0"/>
      <psa10 value="0.0375793443" flag="0"/>
      <psa30 value="0.0017364637" flag="0"/>
    </comp>
    <comp name="--.HHN">
      <acc value="0.1712137784" flag="0"/>
      <vel value="0.0793421930" flag="0"/>
      <psa03 value="0.3288771991" flag="0"/>
      <psa10 value="0.1011803986" flag="0"/>
      <psa30 value="0.0041419045" flag="0"/>
    </comp>
  </station>
</stationlist>
