<stationlist created="1778135936">
	<station code="AGRP" name="AGRP" netid="CL" source="Corinth Riff Laboratory (CRLNET)" insttype="" lat="38.3959" lon="21.72277">
		<comp name="00.HNE" depth="0.0">
			<acc value="2.31734450274593" flag="0"/>
			<vel value="0.495305292468583" flag="0"/>
			<psa03 value="2.05165388448085" flag="0"/>
			<psa10 value="0.169632917640118" flag="0"/>
			<psa30 value="0.0207836498183196" flag="0"/>
		</comp>
		<comp name="00.HNN" depth="0.0">
			<acc value="1.85676920616227" flag="0"/>
			<vel value="0.768531028912148" flag="0"/>
			<psa03 value="3.15177526081092" flag="0"/>
			<psa10 value="0.280877255643392" flag="0"/>
			<psa30 value="0.0245035168765627" flag="0"/>
		</comp>
		<comp name="00.HNZ" depth="0.0">
			<acc value="2.08429251484901" flag="0"/>
			<vel value="0.381202922959105" flag="0"/>
			<psa03 value="1.15587016577643" flag="0"/>
			<psa10 value="0.188941416906234" flag="0"/>
			<psa30 value="0.0136566637260951" flag="0"/>
		</comp>
	</station>
	<station code="MALA" name="MALA" netid="CL" source="Corinth Riff Laboratory (CRLNET)" insttype="" lat="38.39341" lon="21.87263">
		<comp name="01.HNE" depth="0.0">
			<acc value="3.1606637978313" flag="0"/>
			<vel value="1.32273567672546" flag="0"/>
			<psa03 value="8.4666572427888" flag="0"/>
			<psa10 value="0.675970626653644" flag="0"/>
			<psa30 value="0.0581241531957306" flag="0"/>
		</comp>
		<comp name="01.HNN" depth="0.0">
			<acc value="3.34483435478295" flag="0"/>
			<vel value="1.0103886659456" flag="0"/>
			<psa03 value="4.22151667884718" flag="0"/>
			<psa10 value="0.278908151130122" flag="0"/>
			<psa30 value="0.017390848290456" flag="0"/>
		</comp>
		<comp name="01.HNZ" depth="0.0">
			<acc value="0.910187604349104" flag="0"/>
			<vel value="0.192420838650257" flag="0"/>
			<psa03 value="1.29944790681447" flag="0"/>
			<psa10 value="0.12936895848227" flag="0"/>
			<psa30 value="0.0110938301310005" flag="0"/>
		</comp>
	</station>
	<station code="AIGS" name="AIGS" netid="HA" source="Hellenic Seismological Network, University of Athens, Seismological Laboratory (HA)" insttype="" lat="38.25001" lon="22.0878">
		<comp name="--.HNE" depth="0.0">
			<acc value="0.90205679738321" flag="0"/>
			<vel value="0.300483175537361" flag="0"/>
			<psa03 value="2.16015373553016" flag="0"/>
			<psa10 value="0.0918230883764806" flag="0"/>
			<psa30 value="0.00791221181837518" flag="0"/>
		</comp>
		<comp name="--.HNN" depth="0.0">
			<acc value="0.59771787606409" flag="0"/>
			<vel value="0.162996724388352" flag="0"/>
			<psa03 value="0.52164938696243" flag="0"/>
			<psa10 value="0.0335271251073358" flag="0"/>
			<psa30 value="0.00383574937338444" flag="0"/>
		</comp>
		<comp name="--.HNZ" depth="0.0">
			<acc value="0.53612925893428" flag="0"/>
			<vel value="0.128804234479943" flag="0"/>
			<psa03 value="0.311584726889645" flag="0"/>
			<psa10 value="0.023093689946021" flag="0"/>
			<psa30 value="0.00300667628474786" flag="0"/>
		</comp>
	</station>
	<station code="ARS1" name="ARS1" netid="HI" source="ITSAK Strong Motion Network" insttype="" lat="37.6349" lon="22.7293">
		<comp name="--.HNE" depth="0.0">
			<acc value="0.0230377199086554" flag="0"/>
			<vel value="0.0173340564951666" flag="0"/>
			<psa03 value="0.0615713183811235" flag="0"/>
			<psa10 value="0.0196273245889108" flag="0"/>
			<psa30 value="0.00188746336851868" flag="0"/>
		</comp>
		<comp name="--.HNN" depth="0.0">
			<acc value="0.0221859349165282" flag="0"/>
			<vel value="0.0131231838693" flag="0"/>
			<psa03 value="0.0602214060392371" flag="0"/>
			<psa10 value="0.0175066622304543" flag="0"/>
			<psa30 value="0.00153069463017202" flag="0"/>
		</comp>
		<comp name="--.HNZ" depth="0.0">
			<acc value="0.0106282707410997" flag="0"/>
			<vel value="0.00701571771909964" flag="0"/>
			<psa03 value="0.0324518789443901" flag="0"/>
			<psa10 value="0.00588248781095752" flag="0"/>
			<psa30 value="0.0011718004385301" flag="0"/>
		</comp>
	</station>
	<station code="ART2" name="ART2" netid="HI" source="ITSAK Strong Motion Network" insttype="" lat="39.1474" lon="20.9937">
		<comp name="--.HNE" depth="0.0">
			<acc value="0.00517313353131786" flag="0"/>
			<vel value="0.00365915338105483" flag="0"/>
			<psa03 value="0.0152865855779232" flag="0"/>
			<psa10 value="0.00348137882738668" flag="0"/>
			<psa30 value="0.000279675636513184" flag="0"/>
		</comp>
		<comp name="--.HNN" depth="0.0">
			<acc value="0.00421969275099061" flag="0"/>
			<vel value="0.00354502940205972" flag="0"/>
			<psa03 value="0.0109093144854339" flag="0"/>
			<psa10 value="0.00406340543065315" flag="0"/>
			<psa30 value="0.000343216668711421" flag="0"/>
		</comp>
		<comp name="--.HNZ" depth="0.0">
			<acc value="0.003688475186809" flag="0"/>
			<vel value="0.00253449459973871" flag="0"/>
			<psa03 value="0.00915808063621292" flag="0"/>
			<psa10 value="0.00345496113984547" flag="0"/>
			<psa30 value="0.000182751155846374" flag="0"/>
		</comp>
	</station>
	<station code="ATH5" name="ATH5" netid="HI" source="ITSAK Strong Motion Network" insttype="" lat="37.975421" lon="23.737098">
		<comp name="--.HNE" depth="0.0">
			<acc value="0.00347928064862881" flag="0"/>
			<vel value="0.003172015689048" flag="0"/>
			<psa03 value="0.0119299973350171" flag="0"/>
			<psa10 value="0.00721032280476529" flag="0"/>
			<psa30 value="0.000241700490637948" flag="0"/>
		</comp>
		<comp name="--.HNN" depth="0.0">
			<acc value="0.00385691272017074" flag="0"/>
			<vel value="0.00314343396151168" flag="0"/>
			<psa03 value="0.0145412744859732" flag="0"/>
			<psa10 value="0.00594164516733146" flag="0"/>
			<psa30 value="0.000336441818869223" flag="0"/>
		</comp>
		<comp name="--.HNZ" depth="0.0">
			<acc value="0.00230337753307245" flag="0"/>
			<vel value="0.00150488462239954" flag="0"/>
			<psa03 value="0.00758165003358235" flag="0"/>
			<psa10 value="0.00396029750652334" flag="0"/>
			<psa30 value="0.000140869370966842" flag="0"/>
		</comp>
	</station>
	<station code="KLV1" name="KLV1" netid="HI" source="ITSAK Strong Motion Network" insttype="" lat="38.03256" lon="22.10797">
		<comp name="--.HNE" depth="0.0">
			<acc value="0.161145415467369" flag="0"/>
			<vel value="0.0475142074744953" flag="0"/>
			<psa03 value="0.410420261309407" flag="0"/>
			<psa10 value="0.03492845101862" flag="0"/>
			<psa30 value="0.00163756476222875" flag="0"/>
		</comp>
		<comp name="--.HNN" depth="0.0">
			<acc value="0.167398450570303" flag="0"/>
			<vel value="0.0623252934242231" flag="0"/>
			<psa03 value="0.297356705185034" flag="0"/>
			<psa10 value="0.0218735699715407" flag="0"/>
			<psa30 value="0.00146888664327786" flag="0"/>
		</comp>
		<comp name="--.HNZ" depth="0.0">
			<acc value="0.129727135243239" flag="0"/>
			<vel value="0.0270113706383303" flag="0"/>
			<psa03 value="0.148946805832227" flag="0"/>
			<psa10 value="0.0213460593555113" flag="0"/>
			<psa30 value="0.00149394227898409" flag="0"/>
		</comp>
	</station>
	<station code="KRK1" name="KRK1" netid="HI" source="ITSAK Strong Motion Network" insttype="" lat="39.618861" lon="19.9202">
		<comp name="--.HNE" depth="0.0">
			<acc value="0.00357298111623931" flag="0"/>
			<vel value="0.00202468756559051" flag="0"/>
			<psa03 value="0.00894092497468346" flag="0"/>
			<psa10 value="0.00143969142717988" flag="0"/>
			<psa30 value="0.000118688734942245" flag="0"/>
		</comp>
		<comp name="--.HNN" depth="0.0">
			<acc value="0.00372491096032582" flag="0"/>
			<vel value="0.0021324448455833" flag="0"/>
			<psa03 value="0.0077682717713236" flag="0"/>
			<psa10 value="0.00336506627850007" flag="0"/>
			<psa30 value="0.000155576816617026" flag="0"/>
		</comp>
		<comp name="--.HNZ" depth="0.0">
			<acc value="0.00148783206884538" flag="0"/>
			<vel value="0.000676359411625285" flag="0"/>
			<psa03 value="0.00564281586615051" flag="0"/>
			<psa10 value="0.000650818054908922" flag="0"/>
			<psa30 value="7.21620720495756e-05" flag="0"/>
		</comp>
	</station>
	<station code="LAM2" name="LAM2" netid="HI" source="ITSAK Strong Motion Network" insttype="" lat="38.90203" lon="22.431301">
		<comp name="--.HNE" depth="0.0">
			<acc value="0.0284523956607819" flag="0"/>
			<vel value="0.010236269440316" flag="0"/>
			<psa03 value="0.075705077590061" flag="0"/>
			<psa10 value="0.00495158333057729" flag="0"/>
			<psa30 value="0.000883976892464315" flag="0"/>
		</comp>
		<comp name="--.HNN" depth="0.0">
			<acc value="0.0395630360279788" flag="0"/>
			<vel value="0.0166769806016537" flag="0"/>
			<psa03 value="0.089261538138653" flag="0"/>
			<psa10 value="0.00798847450974414" flag="0"/>
			<psa30 value="0.00106947782682476" flag="0"/>
		</comp>
		<comp name="--.HNZ" depth="0.0">
			<acc value="0.016905748347975" flag="0"/>
			<vel value="0.00533377976756113" flag="0"/>
			<psa03 value="0.0304863008177987" flag="0"/>
			<psa10 value="0.00557997636478771" flag="0"/>
			<psa30 value="0.00044450580049457" flag="0"/>
		</comp>
	</station>
	<station code="MSL1" name="MSL1" netid="HI" source="ITSAK Strong Motion Network" insttype="" lat="38.3727" lon="21.4243">
		<comp name="--.HNE" depth="0.0">
			<acc value="0.262434554054081" flag="0"/>
			<vel value="0.117343572125154" flag="0"/>
			<psa03 value="1.19846474647703" flag="0"/>
			<psa10 value="0.161386034116239" flag="0"/>
			<psa30 value="0.00791310666250754" flag="0"/>
		</comp>
		<comp name="--.HNN" depth="0.0">
			<acc value="0.288121628500555" flag="0"/>
			<vel value="0.143801807777633" flag="0"/>
			<psa03 value="0.860840055335549" flag="0"/>
			<psa10 value="0.140909763257387" flag="0"/>
			<psa30 value="0.00802272506872231" flag="0"/>
		</comp>
		<comp name="--.HNZ" depth="0.0">
			<acc value="0.147551527835739" flag="0"/>
			<vel value="0.0609163594663084" flag="0"/>
			<psa03 value="0.433149302271489" flag="0"/>
			<psa10 value="0.0731709572814554" flag="0"/>
			<psa30 value="0.00377892677097923" flag="0"/>
		</comp>
	</station>
	<station code="PYL1" name="PYL1" netid="HI" source="ITSAK Strong Motion Network" insttype="" lat="36.914188" lon="21.695161">
		<comp name="--.HNE" depth="0.0">
			<acc value="0.00317043832016481" flag="0"/>
			<vel value="0.00201976267350429" flag="0"/>
			<psa03 value="0.0105247564582379" flag="0"/>
			<psa10 value="0.00183508164327668" flag="0"/>
			<psa30 value="0.000328877359427702" flag="0"/>
		</comp>
		<comp name="--.HNN" depth="0.0">
			<acc value="0.00281427786650023" flag="0"/>
			<vel value="0.00174926345343522" flag="0"/>
			<psa03 value="0.0116696558699399" flag="0"/>
			<psa10 value="0.00174017645002415" flag="0"/>
			<psa30 value="0.000144070663765957" flag="0"/>
		</comp>
		<comp name="--.HNZ" depth="0.0">
			<acc value="0.00415238343592238" flag="0"/>
			<vel value="0.00140287455939545" flag="0"/>
			<psa03 value="0.00944760307086144" flag="0"/>
			<psa10 value="0.00211731221466874" flag="0"/>
			<psa30 value="0.000208596852371713" flag="0"/>
		</comp>
	</station>
	<station code="SKO1" name="SKO1" netid="HI" source="ITSAK Strong Motion Network" insttype="" lat="39.123383" lon="23.728705">
		<comp name="--.HNE" depth="0.0">
			<acc value="0.00122612198903121" flag="0"/>
			<vel value="0.000719246328246729" flag="0"/>
			<psa03 value="0.00477359682632872" flag="0"/>
			<psa10 value="0.000626305376377419" flag="0"/>
			<psa30 value="7.96108272119065e-05" flag="0"/>
		</comp>
		<comp name="--.HNN" depth="0.0">
			<acc value="0.000958697192038861" flag="0"/>
			<vel value="0.000753175828570635" flag="0"/>
			<psa03 value="0.00352375003270753" flag="0"/>
			<psa10 value="0.00126239257262377" flag="0"/>
			<psa30 value="8.03891535117226e-05" flag="0"/>
		</comp>
		<comp name="--.HNZ" depth="0.0">
			<acc value="0.000767237823539318" flag="0"/>
			<vel value="0.000470774337963792" flag="0"/>
			<psa03 value="0.00268722782034156" flag="0"/>
			<psa10 value="0.000777097123400712" flag="0"/>
			<psa30 value="6.08469214347381e-05" flag="0"/>
		</comp>
	</station>
	<station code="VAS2" name="VAS2" netid="HI" source="ITSAK Strong Motion Network" insttype="" lat="38.630558" lon="20.608081">
		<comp name="--.HNE" depth="0.0">
			<acc value="0.0303554648577159" flag="0"/>
			<vel value="0.0255497411859784" flag="0"/>
			<psa03 value="0.0956580035399236" flag="0"/>
			<psa10 value="0.049958972036849" flag="0"/>
			<psa30 value="0.0014696050624556" flag="0"/>
		</comp>
		<comp name="--.HNN" depth="0.0">
			<acc value="0.0437827730225963" flag="0"/>
			<vel value="0.0257403355788534" flag="0"/>
			<psa03 value="0.150472905591469" flag="0"/>
			<psa10 value="0.0499689664486827" flag="0"/>
			<psa30 value="0.00222979875489277" flag="0"/>
		</comp>
		<comp name="--.HNZ" depth="0.0">
			<acc value="0.0194934934015595" flag="0"/>
			<vel value="0.0138679116247806" flag="0"/>
			<psa03 value="0.0671632929886848" flag="0"/>
			<psa10 value="0.0162832186833108" flag="0"/>
			<psa30 value="0.000763718144664198" flag="0"/>
		</comp>
	</station>
	<station code="VOL2" name="VOL2" netid="HI" source="ITSAK Strong Motion Network" insttype="" lat="39.366" lon="22.9506">
		<comp name="--.HNE" depth="0.0">
			<acc value="0.00536923775067683" flag="0"/>
			<vel value="0.00299484956934091" flag="0"/>
			<psa03 value="0.0189360578063193" flag="0"/>
			<psa10 value="0.00194142497706342" flag="0"/>
			<psa30 value="0.000196209612507207" flag="0"/>
		</comp>
		<comp name="--.HNN" depth="0.0">
			<acc value="0.00412414988897088" flag="0"/>
			<vel value="0.00273138126540398" flag="0"/>
			<psa03 value="0.0122657344197089" flag="0"/>
			<psa10 value="0.00257506191334095" flag="0"/>
			<psa30 value="0.000217051123363228" flag="0"/>
		</comp>
		<comp name="--.HNZ" depth="0.0">
			<acc value="0.00411531537164933" flag="0"/>
			<vel value="0.0014586699700219" flag="0"/>
			<psa03 value="0.00709146586856653" flag="0"/>
			<psa10 value="0.00120675904342733" flag="0"/>
			<psa30 value="0.000226672099247637" flag="0"/>
		</comp>
	</station>
	<station code="ATHP" name="ATHP" netid="HL" source="National Observatory of Athens Seismic Network" insttype="" lat="38.000799" lon="23.773487">
		<comp name="00.HNE" depth="0.0">
			<acc value="0.00531226364441417" flag="0"/>
			<vel value="0.00326371109691785" flag="0"/>
			<psa03 value="0.0146754437707931" flag="0"/>
			<psa10 value="0.00659992289826127" flag="0"/>
			<psa30 value="0.000312300602195537" flag="0"/>
		</comp>
		<comp name="00.HNN" depth="0.0">
			<acc value="0.00536436536749394" flag="0"/>
			<vel value="0.00355094161784925" flag="0"/>
			<psa03 value="0.0109170984148583" flag="0"/>
			<psa10 value="0.00382143186726659" flag="0"/>
			<psa30 value="0.000542275544213454" flag="0"/>
		</comp>
		<comp name="00.HNZ" depth="0.0">
			<acc value="0.00297442521273562" flag="0"/>
			<vel value="0.00165048600377431" flag="0"/>
			<psa03 value="0.00581648686037533" flag="0"/>
			<psa10 value="0.00296775056498997" flag="0"/>
			<psa30 value="0.000167783274818519" flag="0"/>
		</comp>
	</station>
	<station code="DLFA" name="DLFA" netid="HL" source="National Observatory of Athens Seismic Network" insttype="" lat="38.47836" lon="22.49583">
		<comp name="00.HNE" depth="0.0">
			<acc value="0.0433115806991646" flag="0"/>
			<vel value="0.0160770513203319" flag="0"/>
			<psa03 value="0.0555250784132752" flag="0"/>
			<psa10 value="0.00642677055864855" flag="0"/>
			<psa30 value="0.000649209418031123" flag="0"/>
		</comp>
		<comp name="00.HNN" depth="0.0">
			<acc value="0.0413224217489947" flag="0"/>
			<vel value="0.0147748271369272" flag="0"/>
			<psa03 value="0.0506034356852654" flag="0"/>
			<psa10 value="0.00844016985647078" flag="0"/>
			<psa30 value="0.000587465172897908" flag="0"/>
		</comp>
		<comp name="00.HNZ" depth="0.0">
			<acc value="0.0351544193603094" flag="0"/>
			<vel value="0.0113088060438852" flag="0"/>
			<psa03 value="0.0487690052139162" flag="0"/>
			<psa10 value="0.00420800453244846" flag="0"/>
			<psa30 value="0.00073108765614256" flag="0"/>
		</comp>
	</station>
	<station code="ITM" name="ITM" netid="HL" source="National Observatory of Athens Seismic Network" insttype="" lat="37.17872" lon="21.92522">
		<comp name="--.HNE" depth="0.0">
			<acc value="0.00739119135323979" flag="0"/>
			<vel value="0.00313190882371962" flag="0"/>
			<psa03 value="0.0227290409620821" flag="0"/>
			<psa10 value="0.00388988744339255" flag="0"/>
			<psa30 value="0.000330644906909028" flag="0"/>
		</comp>
		<comp name="--.HNN" depth="0.0">
			<acc value="0.0146750058919157" flag="0"/>
			<vel value="0.00388697563083765" flag="0"/>
			<psa03 value="0.0206708994576416" flag="0"/>
			<psa10 value="0.00405095938721832" flag="0"/>
			<psa30 value="0.000239370805407754" flag="0"/>
		</comp>
		<comp name="--.HNZ" depth="0.0">
			<acc value="0.0131152638493737" flag="0"/>
			<vel value="0.00310166999697992" flag="0"/>
			<psa03 value="0.0129752399192988" flag="0"/>
			<psa10 value="0.00391404823496641" flag="0"/>
			<psa30 value="0.000281875901695112" flag="0"/>
		</comp>
	</station>
	<station code="JAN" name="JAN" netid="HL" source="National Observatory of Athens Seismic Network" insttype="" lat="39.65616" lon="20.84874">
		<comp name="00.HNE" depth="0.0">
			<acc value="0.00336979198137444" flag="0"/>
			<vel value="0.0024668459149612" flag="0"/>
			<psa03 value="0.0125278178531161" flag="0"/>
			<psa10 value="0.00343888600068037" flag="0"/>
			<psa30 value="0.000397758216836436" flag="0"/>
		</comp>
		<comp name="00.HNN" depth="0.0">
			<acc value="0.00266295850150542" flag="0"/>
			<vel value="0.00207134945380718" flag="0"/>
			<psa03 value="0.0106039029685304" flag="0"/>
			<psa10 value="0.00322546567511121" flag="0"/>
			<psa30 value="0.000382545866586223" flag="0"/>
		</comp>
		<comp name="00.HNZ" depth="0.0">
			<acc value="0.00264022161506591" flag="0"/>
			<vel value="0.00235410330934992" flag="0"/>
			<psa03 value="0.00796411277805237" flag="0"/>
			<psa10 value="0.00387780704760561" flag="0"/>
			<psa30 value="0.000495743649330451" flag="0"/>
		</comp>
	</station>
	<station code="KYMI" name="KYMI" netid="HL" source="National Observatory of Athens Seismic Network" insttype="" lat="38.633147" lon="24.100138">
		<comp name="--.HNE" depth="1.0">
			<acc value="0.00174047514646833" flag="0"/>
			<vel value="0.00113733878772618" flag="0"/>
			<psa03 value="0.00375834535593483" flag="0"/>
			<psa10 value="0.00213017645709592" flag="0"/>
			<psa30 value="0.000220131656561897" flag="0"/>
		</comp>
		<comp name="--.HNN" depth="1.0">
			<acc value="0.00172891591926472" flag="0"/>
			<vel value="0.00185323472146111" flag="0"/>
			<psa03 value="0.004116283008881" flag="0"/>
			<psa10 value="0.0036684135206321" flag="0"/>
			<psa30 value="0.000287692388555487" flag="0"/>
		</comp>
		<comp name="--.HNZ" depth="1.0">
			<acc value="0.000845124716121226" flag="0"/>
			<vel value="0.00070406736000742" flag="0"/>
			<psa03 value="0.00263979019047803" flag="0"/>
			<psa10 value="0.00105502123205885" flag="0"/>
			<psa30 value="0.000192391488458568" flag="0"/>
		</comp>
	</station>
	<station code="NOAC" name="NOAC" netid="HL" source="National Observatory of Athens Seismic Network" insttype="" lat="37.97384" lon="23.71767">
		<comp name="00.HNE" depth="0.0">
			<acc value="0.00796633086395741" flag="0"/>
			<vel value="0.00425301214000538" flag="0"/>
			<psa03 value="0.0195076020855665" flag="0"/>
			<psa10 value="0.00914888640930421" flag="0"/>
			<psa30 value="0.000446079799984169" flag="0"/>
		</comp>
		<comp name="00.HNN" depth="0.0">
			<acc value="0.00552268219486424" flag="0"/>
			<vel value="0.00321468885488887" flag="0"/>
			<psa03 value="0.021565743590007" flag="0"/>
			<psa10 value="0.0035234487711889" flag="0"/>
			<psa30 value="0.000416997365682293" flag="0"/>
		</comp>
		<comp name="00.HNZ" depth="0.0">
			<acc value="0.00354759996102618" flag="0"/>
			<vel value="0.00230850193573677" flag="0"/>
			<psa03 value="0.0121251379935516" flag="0"/>
			<psa10 value="0.00385364625603175" flag="0"/>
			<psa30 value="0.000209393526973512" flag="0"/>
		</comp>
	</station>
