<?xml version="1.0" encoding="UTF-8" standalone="yes"?>
<!DOCTYPE earthquake SYSTEM "stationlist.dtd">
<stationlist created="" xmlns="ch.ethz.sed.shakemap.usgs.xml">
  <station code="ACOR" name="ACOR" netid="HA" insttype="30" lat="37.8902" lon="22.8692">
    <comp name="--.HHE">
      <acc value="0.0115287573" flag="0"/>
      <vel value="0.0050548400" flag="0"/>
      <psa03 value="0.0264050659" flag="0"/>
      <psa10 value="0.0032404100" flag="0"/>
      <psa30 value="0.0004856821" flag="0"/>
    </comp>
    <comp name="--.HHN">
      <acc value="0.0275853967" flag="0"/>
      <vel value="0.0186318604" flag="0"/>
      <psa03 value="0.0803121646" flag="0"/>
      <psa10 value="0.0153839467" flag="0"/>
      <psa30 value="0.0020337456" flag="0"/>
    </comp>
    <comp name="--.HHZ">
      <acc value="0.0049090876" flag="0"/>
      <vel value="0.0030508442" flag="0"/>
      <psa03 value="0.0171224949" flag="0"/>
      <psa10 value="0.0027878751" flag="0"/>
      <psa30 value="0.0002782432" flag="0"/>
    </comp>
  </station>
  <station code="ATAL" name="ATAL" netid="HA" insttype="120" lat="38.6926" lon="23.0213">
    <comp name="--.HHZ">
      <acc value="0.0066366046" flag="0"/>
      <vel value="0.0028860818" flag="0"/>
      <psa03 value="0.0146947994" flag="0"/>
      <psa10 value="0.0033817422" flag="0"/>
      <psa30 value="0.0004666156" flag="0"/>
    </comp>
    <comp name="--.HHN">
      <acc value="0.0000334583" flag="0"/>
      <vel value="0.0000030039" flag="0"/>
      <psa03 value="0.0000094365" flag="0"/>
      <psa10 value="0.0000032260" flag="0"/>
      <psa30 value="0.0000005923" flag="0"/>
    </comp>
    <comp name="--.HHE">
      <acc value="0.0000328668" flag="0"/>
      <vel value="0.0000029835" flag="0"/>
      <psa03 value="0.0000093060" flag="0"/>
      <psa10 value="0.0000032808" flag="0"/>
      <psa30 value="0.0000005590" flag="0"/>
    </comp>
  </station>
  <station code="KALE" name="KALE" netid="HA" insttype="40," lat="38.3911" lon="22.1398">
    <comp name="--.HHN">
      <acc value="0.2589451421" flag="0"/>
      <vel value="0.0598994617" flag="0"/>
      <psa03 value="0.2979109628" flag="0"/>
      <psa10 value="0.0193212570" flag="0"/>
      <psa30 value="0.0019898542" flag="0"/>
    </comp>
    <comp name="--.HHZ">
      <acc value="0.1671356630" flag="0"/>
      <vel value="0.0343544904" flag="0"/>
      <psa03 value="0.1333193580" flag="0"/>
      <psa10 value="0.0203358777" flag="0"/>
      <psa30 value="0.0017113369" flag="0"/>
    </comp>
    <comp name="--.HHE">
      <acc value="0.2107143052" flag="0"/>
      <vel value="0.0554257647" flag="0"/>
      <psa03 value="0.2630774973" flag="0"/>
      <psa10 value="0.0243763519" flag="0"/>
      <psa30 value="0.0015171025" flag="0"/>
    </comp>
  </station>
  <station code="LAKA" name="LAKA" netid="HA" insttype="120s" lat="38.2401" lon="21.9785">
    <comp name="--.HHZ">
      <acc value="0.3924100777" flag="0"/>
      <vel value="0.0878438627" flag="0"/>
      <psa03 value="0.3893849122" flag="0"/>
      <psa10 value="0.0328625104" flag="0"/>
      <psa30 value="0.0023918988" flag="0"/>
    </comp>
    <comp name="--.HHE">
      <acc value="0.3691129089" flag="0"/>
      <vel value="0.0745348854" flag="0"/>
      <psa03 value="0.4617975953" flag="0"/>
      <psa10 value="0.0280705566" flag="0"/>
      <psa30 value="0.0029063694" flag="0"/>
    </comp>
    <comp name="--.HHN">
      <acc value="0.5109313547" flag="0"/>
      <vel value="0.1204527082" flag="0"/>
      <psa03 value="0.5121592113" flag="0"/>
      <psa10 value="0.0411229602" flag="0"/>
      <psa30 value="0.0052948832" flag="0"/>
    </comp>
  </station>
  <station code="THAL" name="THAL" netid="HA" insttype="30" lat="38.0357" lon="22.6634">
    <comp name="--.HHZ">
      <acc value="0.0527422163" flag="0"/>
      <vel value="0.0140095749" flag="0"/>
      <psa03 value="0.0985606318" flag="0"/>
      <psa10 value="0.0103832594" flag="0"/>
      <psa30 value="0.0004861735" flag="0"/>
    </comp>
    <comp name="--.HHN">
      <acc value="0.0652328690" flag="0"/>
      <vel value="0.0236755155" flag="0"/>
      <psa03 value="0.1538976899" flag="0"/>
      <psa10 value="0.0153529443" flag="0"/>
      <psa30 value="0.0008774852" flag="0"/>
    </comp>
    <comp name="--.HHE">
      <acc value="0.1004248831" flag="0"/>
      <vel value="0.0361113858" flag="0"/>
      <psa03 value="0.1562420874" flag="0"/>
      <psa10 value="0.0180781851" flag="0"/>
      <psa30 value="0.0011975687" flag="0"/>
    </comp>
  </station>
  <station code="ARS1" name="ARS1" netid="HI" insttype="CMG-5TD,ACCELEROMETER,GURALP" lat="37.6349" lon="22.7293">
    <comp name="--.HNN">
      <acc value="0.0222918064" flag="0"/>
      <vel value="0.0130764210" flag="0"/>
      <psa03 value="0.0597664069" flag="0"/>
      <psa10 value="0.0174684964" flag="0"/>
      <psa30 value="0.0014284816" flag="0"/>
    </comp>
    <comp name="--.HNE">
      <acc value="0.0230550956" flag="0"/>
      <vel value="0.0169573843" flag="0"/>
      <psa03 value="0.0616340980" flag="0"/>
      <psa10 value="0.0195852524" flag="0"/>
      <psa30 value="0.0017657123" flag="0"/>
    </comp>
    <comp name="--.HNZ">
      <acc value="0.0106029571" flag="0"/>
      <vel value="0.0070597498" flag="0"/>
      <psa03 value="0.0330262123" flag="0"/>
      <psa10 value="0.0058475189" flag="0"/>
      <psa30 value="0.0010711754" flag="0"/>
    </comp>
  </station>
  <station code="KLV1" name="KLV1" netid="HI" insttype="CMG-5TD,ACCELEROMETER,GURALP" lat="38.0326" lon="22.108">
    <comp name="--.HNZ">
      <acc value="0.1258163407" flag="0"/>
      <vel value="0.0267189425" flag="0"/>
      <psa03 value="0.1473774618" flag="0"/>
      <psa10 value="0.0213941738" flag="0"/>
      <psa30 value="0.0013033346" flag="0"/>
    </comp>
    <comp name="--.HNE">
      <acc value="0.1630609814" flag="0"/>
      <vel value="0.0471728153" flag="0"/>
      <psa03 value="0.4047045541" flag="0"/>
      <psa10 value="0.0348388883" flag="0"/>
      <psa30 value="0.0015973674" flag="0"/>
    </comp>
    <comp name="--.HNN">
      <acc value="0.1652378517" flag="0"/>
      <vel value="0.0615478492" flag="0"/>
      <psa03 value="0.2916398056" flag="0"/>
      <psa10 value="0.0217470434" flag="0"/>
      <psa30 value="0.0013471750" flag="0"/>
    </comp>
  </station>
  <station code="LAM2" name="LAM2" netid="HI" insttype="CMG-5TD,ACCELEROMETER,GURALP" lat="38.902" lon="22.4313">
    <comp name="--.HNE">
      <acc value="0.0285310153" flag="0"/>
      <vel value="0.0101240595" flag="0"/>
      <psa03 value="0.0755442648" flag="0"/>
      <psa10 value="0.0049074524" flag="0"/>
      <psa30 value="0.0007992347" flag="0"/>
    </comp>
    <comp name="--.HNZ">
      <acc value="0.0181789599" flag="0"/>
      <vel value="0.0053142898" flag="0"/>
      <psa03 value="0.0304855303" flag="0"/>
      <psa10 value="0.0055590652" flag="0"/>
      <psa30 value="0.0004030244" flag="0"/>
    </comp>
    <comp name="--.HNN">
      <acc value="0.0398160586" flag="0"/>
      <vel value="0.0163727883" flag="0"/>
      <psa03 value="0.0901494098" flag="0"/>
      <psa10 value="0.0079566136" flag="0"/>
      <psa30 value="0.0009726640" flag="0"/>
    </comp>
  </station>
  <station code="MSL1" name="MSL1" netid="HI" insttype="CMG-5TD,ACCELEROMETER,GURALP" lat="38.3727" lon="21.4243">
    <comp name="--.HNN">
      <acc value="0.2890905569" flag="0"/>
      <vel value="0.1426896643" flag="0"/>
      <psa03 value="0.8666487052" flag="0"/>
      <psa10 value="0.1407366785" flag="0"/>
      <psa30 value="0.0077786865" flag="0"/>
    </comp>
    <comp name="--.HNZ">
      <acc value="0.1477463676" flag="0"/>
      <vel value="0.0606681426" flag="0"/>
      <psa03 value="0.4253120444" flag="0"/>
      <psa10 value="0.0730067602" flag="0"/>
      <psa30 value="0.0036722177" flag="0"/>
    </comp>
    <comp name="--.HNE">
      <acc value="0.2626705149" flag="0"/>
      <vel value="0.1166002626" flag="0"/>
      <psa03 value="1.1759260135" flag="0"/>
      <psa10 value="0.1611811946" flag="0"/>
      <psa30 value="0.0076927213" flag="0"/>
    </comp>
  </station>
  <station code="DLFA" name="DLFA" netid="HL" insttype="CMG-5" lat="38.4784" lon="22.4958">
    <comp name="00.HNE">
      <acc value="0.0436202094" flag="0"/>
      <vel value="0.0160027575" flag="0"/>
      <psa03 value="0.0555227022" flag="0"/>
      <psa10 value="0.0064439825" flag="0"/>
      <psa30 value="0.0006175109" flag="0"/>
    </comp>
    <comp name="00.HNZ">
      <acc value="0.0355769231" flag="0"/>
      <vel value="0.0113448871" flag="0"/>
      <psa03 value="0.0487493968" flag="0"/>
      <psa10 value="0.0042180127" flag="0"/>
      <psa30 value="0.0007045367" flag="0"/>
    </comp>
    <comp name="00.HNN">
      <acc value="0.0422782651" flag="0"/>
      <vel value="0.0147236341" flag="0"/>
      <psa03 value="0.0504888079" flag="0"/>
      <psa10 value="0.0084233989" flag="0"/>
      <psa30 value="0.0005840711" flag="0"/>
    </comp>
  </station>
  <station code="EVR" name="EVR" netid="HL" insttype="DR24" lat="38.9166" lon="21.8105">
    <comp name="--.HHN">
      <acc value="0.0387147982" flag="0"/>
      <vel value="0.0141705728" flag="0"/>
      <psa03 value="0.0837690272" flag="0"/>
      <psa10 value="0.0216881274" flag="0"/>
      <psa30 value="0.0023723499" flag="0"/>
    </comp>
    <comp name="--.HHZ">
      <acc value="0.0264652253" flag="0"/>
      <vel value="0.0182606073" flag="0"/>
      <psa03 value="0.0690327398" flag="0"/>
      <psa10 value="0.0207651946" flag="0"/>
      <psa30 value="0.0016384031" flag="0"/>
    </comp>
    <comp name="--.HHE">
      <acc value="0.0409573882" flag="0"/>
      <vel value="0.0211838746" flag="0"/>
      <psa03 value="0.0866305911" flag="0"/>
      <psa10 value="0.0217818264" flag="0"/>
      <psa30 value="0.0019554573" flag="0"/>
    </comp>
  </station>
  <station code="KLV" name="KLV" netid="HL" insttype="120" lat="38.0435" lon="22.1504">
    <comp name="--.HHE">
      <acc value="0.0819648132" flag="0"/>
      <vel value="0.0178423442" flag="0"/>
      <psa03 value="0.0826087192" flag="0"/>
      <psa10 value="0.0101231872" flag="0"/>
      <psa30 value="0.0008256061" flag="0"/>
    </comp>
    <comp name="--.HHN">
      <acc value="0.0611107363" flag="0"/>
      <vel value="0.0170093316" flag="0"/>
      <psa03 value="0.1014332145" flag="0"/>
      <psa10 value="0.0082112513" flag="0"/>
      <psa30 value="0.0006428300" flag="0"/>
    </comp>
    <comp name="--.HHZ">
      <acc value="0.0682791012" flag="0"/>
      <vel value="0.0157325552" flag="0"/>
      <psa03 value="0.0635866310" flag="0"/>
      <psa10 value="0.0135916624" flag="0"/>
      <psa30 value="0.0009508883" flag="0"/>
    </comp>
  </station>
  <station code="LKR" name="LKR" netid="HL" insttype="30" lat="38.6496" lon="22.9989">
    <comp name="--.HHN">
      <acc value="0.0306565902" flag="0"/>
      <vel value="0.0090808643" flag="0"/>
      <psa03 value="0.0420571644" flag="0"/>
      <psa10 value="0.0031037396" flag="0"/>
      <psa30 value="0.0004100615" flag="0"/>
    </comp>
    <comp name="--.HHZ">
      <acc value="0.0141282656" flag="0"/>
      <vel value="0.0040993406" flag="0"/>
      <psa03 value="0.0219092540" flag="0"/>
      <psa10 value="0.0021761244" flag="0"/>
      <psa30 value="0.0006264012" flag="0"/>
    </comp>
    <comp name="--.HHE">
      <acc value="0.0409444439" flag="0"/>
      <vel value="0.0124773341" flag="0"/>
      <psa03 value="0.0512431114" flag="0"/>
      <psa10 value="0.0028823669" flag="0"/>
      <psa30 value="0.0005621211" flag="0"/>
    </comp>
  </station>
  <station code="PATC" name="PATC" netid="HL" insttype="CMG-5" lat="38.2693" lon="21.76">
    <comp name="00.HNZ">
      <acc value="2.0471257580" flag="0"/>
      <vel value="0.4634635944" flag="0"/>
      <psa03 value="1.8580628926" flag="0"/>
      <psa10 value="0.2834190826" flag="0"/>
      <psa30 value="0.0228510421" flag="0"/>
    </comp>
    <comp name="00.HNE">
      <acc value="1.4839873125" flag="0"/>
      <vel value="0.6657613159" flag="0"/>
      <psa03 value="3.5306870603" flag="0"/>
      <psa10 value="0.3214096988" flag="0"/>
      <psa30 value="0.0407593054" flag="0"/>
    </comp>
    <comp name="00.HNN">
      <acc value="2.4434381009" flag="0"/>
      <vel value="1.2779096004" flag="0"/>
      <psa03 value="4.4184777302" flag="0"/>
      <psa10 value="0.5757935392" flag="0"/>
      <psa30 value="0.0571784023" flag="0"/>
    </comp>
  </station>
  <station code="PATG" name="PATG" netid="HL" insttype="CMG-5" lat="38.2386" lon="21.7266">
    <comp name="00.HNE">
      <acc value="1.0155554497" flag="0"/>
      <vel value="0.5647510574" flag="0"/>
      <psa03 value="3.4403531272" flag="0"/>
      <psa10 value="0.2417800783" flag="0"/>
      <psa30 value="0.0335267941" flag="0"/>
    </comp>
    <comp name="00.HNN">
      <acc value="2.0071355458" flag="0"/>
      <vel value="0.8173131103" flag="0"/>
      <psa03 value="3.9670867476" flag="0"/>
      <psa10 value="0.5103053100" flag="0"/>
      <psa30 value="0.0501781479" flag="0"/>
    </comp>
    <comp name="00.HNZ">
      <acc value="1.0664668845" flag="0"/>
      <vel value="0.2673697227" flag="0"/>
      <psa03 value="1.1377877251" flag="0"/>
      <psa10 value="0.1195913784" flag="0"/>
      <psa30 value="0.0124878887" flag="0"/>
    </comp>
  </station>
  <station code="RIOA" name="RIOA" netid="HL" insttype="CMG-5" lat="38.2959" lon="21.7912">
    <comp name="00.HNN">
      <acc value="7.7850455768" flag="0"/>
      <vel value="2.5119333484" flag="0"/>
      <psa03 value="9.6387439577" flag="0"/>
      <psa10 value="0.8040782746" flag="0"/>
      <psa30 value="0.0784247782" flag="0"/>
    </comp>
    <comp name="00.HNE">
      <acc value="6.5958071445" flag="0"/>
      <vel value="2.3804866878" flag="0"/>
      <psa03 value="14.5265292373" flag="0"/>
      <psa10 value="0.6905430699" flag="0"/>
      <psa30 value="0.0509959726" flag="0"/>
    </comp>
    <comp name="00.HNZ">
      <acc value="3.8213777449" flag="0"/>
      <vel value="0.8837293542" flag="0"/>
      <psa03 value="3.8663255016" flag="0"/>
      <psa10 value="0.2160876598" flag="0"/>
      <psa30 value="0.0240905385" flag="0"/>
    </comp>
  </station>
  <station code="TETR" name="TETR" netid="HL" insttype="60" lat="39.3445" lon="21.2747">
    <comp name="--.HHE">
      <acc value="0.0121587024" flag="0"/>
      <vel value="0.0083854695" flag="0"/>
      <psa03 value="0.0336624496" flag="0"/>
      <psa10 value="0.0091411190" flag="0"/>
      <psa30 value="0.0005792613" flag="0"/>
    </comp>
    <comp name="--.HHZ">
      <acc value="0.0058707821" flag="0"/>
      <vel value="0.0047110529" flag="0"/>
      <psa03 value="0.0163288647" flag="0"/>
      <psa10 value="0.0073505208" flag="0"/>
      <psa30 value="0.0004951795" flag="0"/>
    </comp>
    <comp name="--.HHN">
      <acc value="0.0096738700" flag="0"/>
      <vel value="0.0067850317" flag="0"/>
      <psa03 value="0.0304792068" flag="0"/>
      <psa10 value="0.0101927327" flag="0"/>
      <psa30 value="0.0005886597" flag="0"/>
    </comp>
  </station>
  <station code="VLS" name="VLS" netid="HL" insttype="120P," lat="38.1768" lon="20.5886">
    <comp name="--.HHE">
      <acc value="0.0526722018" flag="0"/>
      <vel value="0.0067026549" flag="0"/>
      <psa03 value="0.0277352011" flag="0"/>
      <psa10 value="0.0037686452" flag="0"/>
      <psa30 value="0.0002405220" flag="0"/>
    </comp>
    <comp name="--.HHN">
      <acc value="0.0420095902" flag="0"/>
      <vel value="0.0091346640" flag="0"/>
      <psa03 value="0.0443143747" flag="0"/>
      <psa10 value="0.0062615543" flag="0"/>
      <psa30 value="0.0003461333" flag="0"/>
    </comp>
    <comp name="--.HHZ">
      <acc value="0.0204195841" flag="0"/>
      <vel value="0.0049275846" flag="0"/>
      <psa03 value="0.0336033620" flag="0"/>
      <psa10 value="0.0037767161" flag="0"/>
      <psa30 value="0.0002546413" flag="0"/>
    </comp>
  </station>
  <station code="AMPL" name="AMPL" netid="HP" insttype="Compact," lat="38.9224" lon="21.2135">
    <comp name="--.HHE">
      <acc value="0.0213316485" flag="0"/>
      <vel value="0.0086788882" flag="0"/>
      <psa03 value="0.0474383242" flag="0"/>
      <psa10 value="0.0087820641" flag="0"/>
      <psa30 value="0.0012043793" flag="0"/>
    </comp>
    <comp name="--.HHZ">
      <acc value="0.0102666455" flag="0"/>
      <vel value="0.0060552858" flag="0"/>
      <psa03 value="0.0242872785" flag="0"/>
      <psa10 value="0.0087289357" flag="0"/>
      <psa30 value="0.0005417784" flag="0"/>
    </comp>
    <comp name="--.HHN">
      <acc value="0.0169671459" flag="0"/>
      <vel value="0.0069862334" flag="0"/>
      <psa03 value="0.0517018709" flag="0"/>
      <psa10 value="0.0075082654" flag="0"/>
      <psa30 value="0.0007471143" flag="0"/>
    </comp>
  </station>
  <station code="AMT" name="AMT" netid="HP" insttype="CMG-3T," lat="37.5324" lon="21.7089">
    <comp name="00.HHE">
      <acc value="0.0452247772" flag="0"/>
      <vel value="0.0172128589" flag="0"/>
      <psa03 value="0.1714171033" flag="0"/>
      <psa10 value="0.0165261174" flag="0"/>
      <psa30 value="0.0009619706" flag="0"/>
    </comp>
    <comp name="00.HHZ">
      <acc value="0.0367868743" flag="0"/>
      <vel value="0.0153569673" flag="0"/>
      <psa03 value="0.1142221533" flag="0"/>
      <psa10 value="0.0069819429" flag="0"/>
      <psa30 value="0.0005190559" flag="0"/>
    </comp>
    <comp name="00.HHN">
      <acc value="0.0484751343" flag="0"/>
      <vel value="0.0220476387" flag="0"/>
      <psa03 value="0.1543148932" flag="0"/>
      <psa10 value="0.0143687492" flag="0"/>
      <psa30 value="0.0008824800" flag="0"/>
    </comp>
  </station>
  <station code="ANX" name="ANX" netid="HP" insttype="120" lat="38.5933" lon="21.9209">
    <comp name="--.HHE">
      <acc value="0.2192489602" flag="0"/>
      <vel value="0.0924280604" flag="0"/>
      <psa03 value="0.4490814570" flag="0"/>
      <psa10 value="0.0395831015" flag="0"/>
      <psa30 value="0.0033920765" flag="0"/>
    </comp>
    <comp name="--.HHN">
      <acc value="0.3872464242" flag="0"/>
      <vel value="0.1100695595" flag="0"/>
      <psa03 value="0.5815370183" flag="0"/>
      <psa10 value="0.0918601755" flag="0"/>
      <psa30 value="0.0034566085" flag="0"/>
    </comp>
    <comp name="--.HHZ">
      <acc value="0.1872969335" flag="0"/>
      <vel value="0.0587496411" flag="0"/>
      <psa03 value="0.1611432395" flag="0"/>
      <psa10 value="0.0380454809" flag="0"/>
      <psa30 value="0.0030929934" flag="0"/>
    </comp>
  </station>
  <station code="AXS" name="AXS" netid="HP" insttype="40," lat="38.1962" lon="21.3763">
    <comp name="--.HHE">
      <acc value="0.0599888057" flag="0"/>
      <vel value="0.0167278605" flag="0"/>
      <psa03 value="0.0981372447" flag="0"/>
      <psa10 value="0.0088616607" flag="0"/>
      <psa30 value="0.0011907906" flag="0"/>
    </comp>
    <comp name="--.HHN">
      <acc value="0.0492477656" flag="0"/>
      <vel value="0.0196988890" flag="0"/>
      <psa03 value="0.0999376103" flag="0"/>
      <psa10 value="0.0114358258" flag="0"/>
      <psa30 value="0.0012113370" flag="0"/>
    </comp>
    <comp name="--.HHZ">
      <acc value="0.0418356366" flag="0"/>
      <vel value="0.0102228448" flag="0"/>
      <psa03 value="0.0433937199" flag="0"/>
      <psa10 value="0.0079914210" flag="0"/>
      <psa30 value="0.0015382250" flag="0"/>
    </comp>
  </station>
  <station code="DRO" name="DRO" netid="HP" insttype="120P," lat="37.952" lon="21.71">
    <comp name="--.HHE">
      <acc value="0.2506994652" flag="0"/>
      <vel value="0.0758484889" flag="0"/>
      <psa03 value="0.3639931030" flag="0"/>
      <psa10 value="0.0272772007" flag="0"/>
      <psa30 value="0.0020260342" flag="0"/>
    </comp>
    <comp name="--.HHN">
      <acc value="0.1841522709" flag="0"/>
