<?xml version="1.0" encoding="UTF-8" standalone="yes"?>
<!DOCTYPE earthquake SYSTEM "stationlist.dtd">
<stationlist created="" xmlns="ch.ethz.sed.shakemap.usgs.xml">
  <station code="RP03B" name="RP03B" netid="5B" insttype="Compact" commtype="DIG" lat="37.2463" lon="21.832">
    <comp name="--.HHN">
      <acc value="0.0127152052" flag="0"/>
      <vel value="0.0057149862" flag="0"/>
      <psa03 value="0.0195333089" flag="0"/>
      <psa10 value="0.0072784226" flag="0"/>
      <psa30 value="0.0005678899" flag="0"/>
    </comp>
    <comp name="--.HHZ">
      <acc value="0.0062048434" flag="0"/>
      <vel value="0.0037601383" flag="0"/>
      <psa03 value="0.0173994359" flag="0"/>
      <psa10 value="0.0040687536" flag="0"/>
      <psa30 value="0.0005429523" flag="0"/>
    </comp>
    <comp name="--.HHE">
      <acc value="0.0164308289" flag="0"/>
      <vel value="0.0059320282" flag="0"/>
      <psa03 value="0.0259410717" flag="0"/>
      <psa10 value="0.0064396830" flag="0"/>
      <psa30 value="0.0003634226" flag="0"/>
    </comp>
  </station>
  <station code="RP05B" name="RP05B" netid="5B" insttype="Compact" commtype="DIG" lat="37.6182" lon="21.6541">
    <comp name="--.HHN">
      <acc value="0.1030269241" flag="0"/>
      <vel value="0.0442296592" flag="0"/>
      <psa03 value="0.3535066901" flag="0"/>
      <psa10 value="0.0597470574" flag="0"/>
      <psa30 value="0.0027697501" flag="0"/>
    </comp>
    <comp name="--.HHZ">
      <acc value="0.0462105181" flag="0"/>
      <vel value="0.0169879589" flag="0"/>
      <psa03 value="0.1005894127" flag="0"/>
      <psa10 value="0.0144265735" flag="0"/>
      <psa30 value="0.0017216017" flag="0"/>
    </comp>
    <comp name="--.HHE">
      <acc value="0.1097629274" flag="0"/>
      <vel value="0.0538121983" flag="0"/>
      <psa03 value="0.2382500851" flag="0"/>
      <psa10 value="0.0341410221" flag="0"/>
      <psa30 value="0.0028039717" flag="0"/>
    </comp>
  </station>
  <station code="ATHR" name="ATHR" netid="HA" insttype="GEOtiny," commtype="DIG" lat="38.3172" lon="20.4165">
    <comp name="--.HHN">
      <acc value="0.0096416776" flag="0"/>
      <vel value="0.0080098661" flag="0"/>
      <psa03 value="0.0216441923" flag="0"/>
      <psa10 value="0.0143733191" flag="0"/>
      <psa30 value="0.0007906496" flag="0"/>
    </comp>
    <comp name="--.HHZ">
      <acc value="0.0070190268" flag="0"/>
      <vel value="0.0044847441" flag="0"/>
      <psa03 value="0.0164242504" flag="0"/>
      <psa10 value="0.0092972678" flag="0"/>
      <psa30 value="0.0003168884" flag="0"/>
    </comp>
    <comp name="--.HHE">
      <acc value="0.0118114250" flag="0"/>
      <vel value="0.0066210949" flag="0"/>
      <psa03 value="0.0198943347" flag="0"/>
      <psa10 value="0.0170237455" flag="0"/>
      <psa30 value="0.0006569031" flag="0"/>
    </comp>
  </station>
  <station code="HAVD" name="HAVD" netid="HA" insttype="GEOtiny," commtype="DIG" lat="38.2036" lon="20.3848">
    <comp name="--.HHN">
      <acc value="0.0265047140" flag="0"/>
      <vel value="0.0162975485" flag="0"/>
      <psa03 value="0.0592272393" flag="0"/>
      <psa10 value="0.0301104633" flag="0"/>
      <psa30 value="0.0014613973" flag="0"/>
    </comp>
    <comp name="--.HHZ">
      <acc value="0.0181307513" flag="0"/>
      <vel value="0.0069534801" flag="0"/>
      <psa03 value="0.0438503704" flag="0"/>
      <psa10 value="0.0102426505" flag="0"/>
      <psa30 value="0.0005643956" flag="0"/>
    </comp>
    <comp name="--.HHE">
      <acc value="0.0187017910" flag="0"/>
      <vel value="0.0141713821" flag="0"/>
      <psa03 value="0.0463659462" flag="0"/>
      <psa10 value="0.0193315922" flag="0"/>
      <psa30 value="0.0010578914" flag="0"/>
    </comp>
  </station>
  <station code="ARG2" name="ARG2" netid="HI" insttype="CMG-5TD,ACCELEROMETER,GURALP" commtype="DIG" lat="38.1783" lon="20.4878">
    <comp name="--.HNN">
      <acc value="0.0335663527" flag="0"/>
      <vel value="0.0204004382" flag="0"/>
      <psa03 value="0.1028287925" flag="0"/>
      <psa10 value="0.0147170207" flag="0"/>
      <psa30 value="0.0007354975" flag="0"/>
    </comp>
    <comp name="--.HNZ">
      <acc value="0.0206916368" flag="0"/>
      <vel value="0.0089293445" flag="0"/>
      <psa03 value="0.0637401763" flag="0"/>
      <psa10 value="0.0103805597" flag="0"/>
      <psa30 value="0.0010010458" flag="0"/>
    </comp>
    <comp name="--.HNE">
      <acc value="0.0348198685" flag="0"/>
      <vel value="0.0210424745" flag="0"/>
      <psa03 value="0.0986149619" flag="0"/>
      <psa10 value="0.0201641245" flag="0"/>
      <psa30 value="0.0010694625" flag="0"/>
    </comp>
  </station>
  <station code="KRI1" name="KRI1" netid="HI" insttype="CMG-5TD,ACCELEROMETER,GURALP" commtype="DIG" lat="37.6621" lon="20.8172">
    <comp name="--.HNN">
      <acc value="0.1371049088" flag="0"/>
      <vel value="0.0759024405" flag="0"/>
      <psa03 value="0.3274684683" flag="0"/>
      <psa10 value="0.0544536113" flag="0"/>
      <psa30 value="0.0045099878" flag="0"/>
    </comp>
    <comp name="--.HNZ">
      <acc value="0.0788905493" flag="0"/>
      <vel value="0.0242397211" flag="0"/>
      <psa03 value="0.1411027459" flag="0"/>
      <psa10 value="0.0187305380" flag="0"/>
      <psa30 value="0.0018102313" flag="0"/>
    </comp>
    <comp name="--.HNE">
      <acc value="0.1481497104" flag="0"/>
      <vel value="0.0478547151" flag="0"/>
      <psa03 value="0.2885947886" flag="0"/>
      <psa10 value="0.0327331293" flag="0"/>
      <psa30 value="0.0019125547" flag="0"/>
    </comp>
  </station>
  <station code="LXR2" name="LXR2" netid="HI" insttype="unknown" commtype="DIG" lat="38.2067" lon="20.4364">
    <comp name="--.HNN">
      <acc value="0.0348494668" flag="0"/>
      <vel value="0.0282877175" flag="0"/>
      <psa03 value="0.1033640873" flag="0"/>
      <psa10 value="0.0316541184" flag="0"/>
      <psa30 value="0.0029609643" flag="0"/>
    </comp>
    <comp name="--.HNZ">
      <acc value="0.0210672809" flag="0"/>
      <vel value="0.0142051268" flag="0"/>
      <psa03 value="0.0579363432" flag="0"/>
      <psa10 value="0.0250989181" flag="0"/>
      <psa30 value="0.0011699456" flag="0"/>
    </comp>
    <comp name="--.HNE">
      <acc value="0.0406772936" flag="0"/>
      <vel value="0.0309555033" flag="0"/>
      <psa03 value="0.1161383009" flag="0"/>
      <psa10 value="0.0344314251" flag="0"/>
      <psa30 value="0.0020330672" flag="0"/>
    </comp>
  </station>
  <station code="PYR2" name="PYR2" netid="HI" insttype="unknown" commtype="DIG" lat="37.6671" lon="21.4506">
    <comp name="--.HNE">
      <acc value="0.0666078406" flag="0"/>
      <vel value="0.0288413159" flag="0"/>
      <psa03 value="0.2281958268" flag="0"/>
      <psa10 value="0.0167893644" flag="0"/>
      <psa30 value="0.0013481888" flag="0"/>
    </comp>
    <comp name="--.HNZ">
      <acc value="0.0361454006" flag="0"/>
      <vel value="0.0109646382" flag="0"/>
      <psa03 value="0.0520046509" flag="0"/>
      <psa10 value="0.0093642383" flag="0"/>
      <psa30 value="0.0007924424" flag="0"/>
    </comp>
    <comp name="--.HNN">
      <acc value="0.0806161257" flag="0"/>
      <vel value="0.0304416780" flag="0"/>
      <psa03 value="0.1730055030" flag="0"/>
      <psa10 value="0.0166257993" flag="0"/>
      <psa30 value="0.0014535374" flag="0"/>
    </comp>
  </station>
  <station code="ZAK2" name="ZAK2" netid="HI" insttype="unknown" commtype="DIG" lat="37.7875" lon="20.9">
    <comp name="--.HNE">
      <acc value="0.1266784524" flag="0"/>
      <vel value="0.0641918542" flag="0"/>
      <psa03 value="0.3977525689" flag="0"/>
      <psa10 value="0.0808024681" flag="0"/>
      <psa30 value="0.0037201425" flag="0"/>
    </comp>
    <comp name="--.HNZ">
      <acc value="0.0740653320" flag="0"/>
      <vel value="0.0381134959" flag="0"/>
      <psa03 value="0.1281585442" flag="0"/>
      <psa10 value="0.0419543305" flag="0"/>
      <psa30 value="0.0025147288" flag="0"/>
    </comp>
    <comp name="--.HNN">
      <acc value="0.1499697805" flag="0"/>
      <vel value="0.0901086822" flag="0"/>
      <psa03 value="0.4582838280" flag="0"/>
      <psa10 value="0.1012069637" flag="0"/>
      <psa30 value="0.0065815692" flag="0"/>
    </comp>
  </station>
  <station code="ORTH" name="ORTH" netid="HL" insttype="30" commtype="DIG" lat="37.8511" lon="20.6963">
    <comp name="--.HHE">
      <acc value="0.1090671139" flag="0"/>
      <vel value="0.0394283838" flag="0"/>
      <psa03 value="0.2224280873" flag="0"/>
      <psa10 value="0.0365344413" flag="0"/>
      <psa30 value="0.0022147996" flag="0"/>
    </comp>
    <comp name="--.HHZ">
      <acc value="0.0514180689" flag="0"/>
      <vel value="0.0191472176" flag="0"/>
      <psa03 value="0.1046249023" flag="0"/>
      <psa10 value="0.0156539879" flag="0"/>
      <psa30 value="0.0010654567" flag="0"/>
    </comp>
    <comp name="--.HHN">
      <acc value="0.1659765123" flag="0"/>
      <vel value="0.1054683810" flag="0"/>
      <psa03 value="0.2206109738" flag="0"/>
      <psa10 value="0.0570921047" flag="0"/>
      <psa30 value="0.0043630160" flag="0"/>
    </comp>
  </station>
  <station code="ZARA" name="ZARA" netid="HL" insttype="CMG-5" commtype="DIG" lat="37.4865" lon="21.6491">
    <comp name="00.HNZ">
      <acc value="0.0181082196" flag="0"/>
      <vel value="0.0076371532" flag="0"/>
      <psa03 value="0.0366054024" flag="0"/>
      <psa10 value="0.0082259563" flag="0"/>
      <psa30 value="0.0006143965" flag="0"/>
    </comp>
    <comp name="00.HNE">
      <acc value="0.0333639532" flag="0"/>
      <vel value="0.0169639676" flag="0"/>
      <psa03 value="0.1101876670" flag="0"/>
      <psa10 value="0.0222093273" flag="0"/>
      <psa30 value="0.0015920626" flag="0"/>
    </comp>
    <comp name="00.HNN">
      <acc value="0.0448588736" flag="0"/>
      <vel value="0.0181494731" flag="0"/>
      <psa03 value="0.1324461534" flag="0"/>
      <psa10 value="0.0133016314" flag="0"/>
      <psa30 value="0.0022645467" flag="0"/>
    </comp>
  </station>
  <station code="AMT" name="AMT" netid="HP" insttype="CMG-3T," commtype="DIG" lat="37.5324" lon="21.7089">
    <comp name="00.HHE">
      <acc value="0.0190141441" flag="0"/>
      <vel value="0.0157111049" flag="0"/>
      <psa03 value="0.0542814710" flag="0"/>
      <psa10 value="0.0208700901" flag="0"/>
      <psa30 value="0.0012254279" flag="0"/>
    </comp>
    <comp name="00.HHZ">
      <acc value="0.0148976762" flag="0"/>
      <vel value="0.0082298172" flag="0"/>
      <psa03 value="0.0462552440" flag="0"/>
      <psa10 value="0.0061677855" flag="0"/>
      <psa30 value="0.0004952495" flag="0"/>
    </comp>
    <comp name="00.HHN">
      <acc value="0.0243147197" flag="0"/>
      <vel value="0.0144546610" flag="0"/>
      <psa03 value="0.0573153992" flag="0"/>
      <psa10 value="0.0157203417" flag="0"/>
      <psa30 value="0.0008662429" flag="0"/>
    </comp>
  </station>
  <station code="LTHK" name="LTHK" netid="HP" insttype="40," commtype="DIG" lat="37.7095" lon="20.8367">
    <comp name="--.HHE">
      <acc value="0.1192106850" flag="0"/>
      <vel value="0.0406270707" flag="0"/>
      <psa03 value="0.1534026241" flag="0"/>
      <psa10 value="0.0316524890" flag="0"/>
      <psa30 value="0.0013154969" flag="0"/>
    </comp>
    <comp name="--.HHN">
      <acc value="0.1440811645" flag="0"/>
      <vel value="0.0456849649" flag="0"/>
      <psa03 value="0.2316012711" flag="0"/>
      <psa10 value="0.0408745144" flag="0"/>
      <psa30 value="0.0026341926" flag="0"/>
    </comp>
    <comp name="--.HHZ">
      <acc value="0.0870199212" flag="0"/>
      <vel value="0.0213805999" flag="0"/>
      <psa03 value="0.1278160293" flag="0"/>
      <psa10 value="0.0123754363" flag="0"/>
      <psa30 value="0.0011887937" flag="0"/>
    </comp>
  </station>
  <station code="PYL" name="PYL" netid="HP" insttype="Horizon" commtype="DIG" lat="36.8955" lon="21.742">
    <comp name="--.HHE">
      <acc value="0.0122247951" flag="0"/>
      <vel value="0.0065295404" flag="0"/>
      <psa03 value="0.0369688566" flag="0"/>
      <psa10 value="0.0059027134" flag="0"/>
      <psa30 value="0.0004052082" flag="0"/>
    </comp>
    <comp name="--.HHN">
      <acc value="0.0155656355" flag="0"/>
      <vel value="0.0105884572" flag="0"/>
      <psa03 value="0.0367929222" flag="0"/>
      <psa10 value="0.0116976363" flag="0"/>
      <psa30 value="0.0008225548" flag="0"/>
    </comp>
    <comp name="--.HHZ">
      <acc value="0.0076080269" flag="0"/>
      <vel value="0.0026297226" flag="0"/>
      <psa03 value="0.0143178851" flag="0"/>
      <psa10 value="0.0027200788" flag="0"/>
      <psa30 value="0.0002407208" flag="0"/>
    </comp>
  </station>
  <station code="DMLN" name="DMLN" netid="HT" insttype="1s-100Hz," commtype="DIG" lat="38.2385" lon="20.3734">
    <comp name="--.HHE">
      <acc value="0.0520983098" flag="0"/>
      <vel value="0.0267690198" flag="0"/>
      <psa03 value="0.1077911103" flag="0"/>
      <psa10 value="0.0447190324" flag="0"/>
      <psa30 value="0.0016619154" flag="0"/>
    </comp>
    <comp name="--.HHZ">
      <acc value="0.0275489751" flag="0"/>
      <vel value="0.0126831624" flag="0"/>
      <psa03 value="0.0767655096" flag="0"/>
      <psa10 value="0.0113981899" flag="0"/>
      <psa30 value="0.0008319335" flag="0"/>
    </comp>
    <comp name="--.HHN">
      <acc value="0.0296483596" flag="0"/>
      <vel value="0.0180722035" flag="0"/>
      <psa03 value="0.0819116587" flag="0"/>
      <psa10 value="0.0329579199" flag="0"/>
      <psa30 value="0.0014013682" flag="0"/>
    </comp>
  </station>
  <station code="RTZL" name="RTZL" netid="HT" insttype="Compact," commtype="DIG" lat="38.076" lon="20.7715">
    <comp name="--.HHE">
      <acc value="0.0373732626" flag="0"/>
      <vel value="0.0187748050" flag="0"/>
      <psa03 value="0.0650575276" flag="0"/>
      <psa10 value="0.0246690532" flag="0"/>
      <psa30 value="0.0010632023" flag="0"/>
    </comp>
    <comp name="--.HHN">
      <acc value="0.0430468798" flag="0"/>
      <vel value="0.0189092557" flag="0"/>
      <psa03 value="0.0962680724" flag="0"/>
      <psa10 value="0.0304494136" flag="0"/>
      <psa30 value="0.0017954510" flag="0"/>
    </comp>
    <comp name="--.HHZ">
      <acc value="0.0265541334" flag="0"/>
      <vel value="0.0118575850" flag="0"/>
      <psa03 value="0.0394309064" flag="0"/>
      <psa10 value="0.0123389195" flag="0"/>
      <psa30 value="0.0007812465" flag="0"/>
    </comp>
  </station>
  <station code="CKVA" name="CKVA" netid="KF" insttype="Triaxial" commtype="DIG" lat="38.1642" lon="20.5063">
    <comp name="00.HN2">
      <acc value="0.1267929563" flag="0"/>
      <vel value="0.0687729449" flag="0"/>
      <psa03 value="0.3494236106" flag="0"/>
      <psa10 value="0.0412972553" flag="0"/>
      <psa30 value="0.0026258355" flag="0"/>
    </comp>
    <comp name="00.HN1">
      <acc value="0.1315482079" flag="0"/>
      <vel value="0.0710040552" flag="0"/>
      <psa03 value="0.4529737654" flag="0"/>
      <psa10 value="0.0417142573" flag="0"/>
      <psa30 value="0.0025040070" flag="0"/>
    </comp>
    <comp name="00.HNZ">
      <acc value="0.0536125942" flag="0"/>
      <vel value="0.0184499018" flag="0"/>
      <psa03 value="0.1438840656" flag="0"/>
      <psa10 value="0.0075907245" flag="0"/>
      <psa30 value="0.0009333763" flag="0"/>
    </comp>
  </station>
</stationlist>
