<?xml version="1.0" encoding="UTF-8" standalone="yes"?>
<!DOCTYPE earthquake SYSTEM "stationlist.dtd">
<stationlist created="" xmlns="ch.ethz.sed.shakemap.usgs.xml">
  <station code="RP03B" name="RP03B" netid="5B" insttype="Compact" commtype="DIG" lat="37.2463" lon="21.832">
    <comp name="--.HHZ">
      <acc value="0.0062048434" flag="0"/>
      <vel value="0.0037601384" flag="0"/>
      <psa03 value="0.0173994359" flag="0"/>
      <psa10 value="0.0040687536" flag="0"/>
      <psa30 value="0.0005429524" flag="0"/>
    </comp>
    <comp name="--.HHE">
      <acc value="0.0164308289" flag="0"/>
      <vel value="0.0059320280" flag="0"/>
      <psa03 value="0.0259410717" flag="0"/>
      <psa10 value="0.0064396830" flag="0"/>
      <psa30 value="0.0003634226" flag="0"/>
    </comp>
    <comp name="--.HHN">
      <acc value="0.0127152052" flag="0"/>
      <vel value="0.0057149862" flag="0"/>
      <psa03 value="0.0195333089" flag="0"/>
      <psa10 value="0.0072784226" flag="0"/>
      <psa30 value="0.0005678898" flag="0"/>
    </comp>
  </station>
  <station code="RP05B" name="RP05B" netid="5B" insttype="Compact" commtype="DIG" lat="37.6182" lon="21.6541">
    <comp name="--.HHN">
      <acc value="0.1030269242" flag="0"/>
      <vel value="0.0442296491" flag="0"/>
      <psa03 value="0.3535066901" flag="0"/>
      <psa10 value="0.0597470573" flag="0"/>
      <psa30 value="0.0027697409" flag="0"/>
    </comp>
    <comp name="--.HHE">
      <acc value="0.1097629274" flag="0"/>
      <vel value="0.0538121884" flag="0"/>
      <psa03 value="0.2382500851" flag="0"/>
      <psa10 value="0.0341410221" flag="0"/>
      <psa30 value="0.0028039742" flag="0"/>
    </comp>
    <comp name="--.HHZ">
      <acc value="0.0462105181" flag="0"/>
      <vel value="0.0169879707" flag="0"/>
      <psa03 value="0.1005894127" flag="0"/>
      <psa10 value="0.0144265735" flag="0"/>
      <psa30 value="0.0017216038" flag="0"/>
    </comp>
  </station>
  <station code="ATHR" name="ATHR" netid="HA" insttype="GEOtiny," commtype="DIG" lat="38.3172" lon="20.4165">
    <comp name="--.HHE">
      <acc value="0.0118114243" flag="0"/>
      <vel value="0.0066212168" flag="0"/>
      <psa03 value="0.0198943341" flag="0"/>
      <psa10 value="0.0170237462" flag="0"/>
      <psa30 value="0.0006569007" flag="0"/>
    </comp>
    <comp name="--.HHN">
      <acc value="0.0096416770" flag="0"/>
      <vel value="0.0080100630" flag="0"/>
      <psa03 value="0.0216441921" flag="0"/>
      <psa10 value="0.0143733190" flag="0"/>
      <psa30 value="0.0007906631" flag="0"/>
    </comp>
    <comp name="--.HHZ">
      <acc value="0.0070190273" flag="0"/>
      <vel value="0.0044846940" flag="0"/>
      <psa03 value="0.0164242503" flag="0"/>
      <psa10 value="0.0092972676" flag="0"/>
      <psa30 value="0.0003169340" flag="0"/>
    </comp>
  </station>
  <station code="HAVD" name="HAVD" netid="HA" insttype="GEOtiny," commtype="DIG" lat="38.2036" lon="20.3848">
    <comp name="--.HHE">
      <acc value="0.0187017910" flag="0"/>
      <vel value="0.0141716079" flag="0"/>
      <psa03 value="0.0463659465" flag="0"/>
      <psa10 value="0.0193315919" flag="0"/>
      <psa30 value="0.0010578440" flag="0"/>
    </comp>
    <comp name="--.HHN">
      <acc value="0.0265047129" flag="0"/>
      <vel value="0.0162976166" flag="0"/>
      <psa03 value="0.0592272396" flag="0"/>
      <psa10 value="0.0301104637" flag="0"/>
      <psa30 value="0.0014614112" flag="0"/>
    </comp>
    <comp name="--.HHZ">
      <acc value="0.0181307516" flag="0"/>
      <vel value="0.0069525847" flag="0"/>
      <psa03 value="0.0438503705" flag="0"/>
      <psa10 value="0.0102426507" flag="0"/>
      <psa30 value="0.0005643949" flag="0"/>
    </comp>
  </station>
  <station code="ARG2" name="ARG2" netid="HI" insttype="CMG-5TD,ACCELEROMETER,GURALP" commtype="DIG" lat="38.1783" lon="20.4878">
    <comp name="--.HNZ">
      <acc value="0.0206916355" flag="0"/>
      <vel value="0.0089293444" flag="0"/>
      <psa03 value="0.0637401763" flag="0"/>
      <psa10 value="0.0103805596" flag="0"/>
      <psa30 value="0.0010011053" flag="0"/>
    </comp>
    <comp name="--.HNE">
      <acc value="0.0348198685" flag="0"/>
      <vel value="0.0210424739" flag="0"/>
      <psa03 value="0.0986149619" flag="0"/>
      <psa10 value="0.0201641245" flag="0"/>
      <psa30 value="0.0010695802" flag="0"/>
    </comp>
    <comp name="--.HNN">
      <acc value="0.0335663560" flag="0"/>
      <vel value="0.0204004399" flag="0"/>
      <psa03 value="0.1028287925" flag="0"/>
      <psa10 value="0.0147170207" flag="0"/>
      <psa30 value="0.0007355131" flag="0"/>
    </comp>
  </station>
  <station code="KRI1" name="KRI1" netid="HI" insttype="CMG-5TD,ACCELEROMETER,GURALP" commtype="DIG" lat="37.6621" lon="20.8172">
    <comp name="--.HNE">
      <acc value="0.1481497106" flag="0"/>
      <vel value="0.0478547156" flag="0"/>
      <psa03 value="0.2885947886" flag="0"/>
      <psa10 value="0.0327331283" flag="0"/>
      <psa30 value="0.0019125978" flag="0"/>
    </comp>
    <comp name="--.HNZ">
      <acc value="0.0788905505" flag="0"/>
      <vel value="0.0242397210" flag="0"/>
      <psa03 value="0.1411027459" flag="0"/>
      <psa10 value="0.0187305380" flag="0"/>
      <psa30 value="0.0018102319" flag="0"/>
    </comp>
    <comp name="--.HNN">
      <acc value="0.1371049093" flag="0"/>
      <vel value="0.0759024408" flag="0"/>
      <psa03 value="0.3274684683" flag="0"/>
      <psa10 value="0.0544536111" flag="0"/>
      <psa30 value="0.0045099940" flag="0"/>
    </comp>
  </station>
  <station code="LXR2" name="LXR2" netid="HI" insttype="unknown" commtype="DIG" lat="38.2067" lon="20.4364">
    <comp name="--.HNE">
      <acc value="0.0406772948" flag="0"/>
      <vel value="0.0309555024" flag="0"/>
      <psa03 value="0.1161383009" flag="0"/>
      <psa10 value="0.0344314251" flag="0"/>
      <psa30 value="0.0020330992" flag="0"/>
    </comp>
    <comp name="--.HNN">
      <acc value="0.0348494667" flag="0"/>
      <vel value="0.0282877162" flag="0"/>
      <psa03 value="0.1033640873" flag="0"/>
      <psa10 value="0.0316541184" flag="0"/>
      <psa30 value="0.0029609275" flag="0"/>
    </comp>
    <comp name="--.HNZ">
      <acc value="0.0210672818" flag="0"/>
      <vel value="0.0142051265" flag="0"/>
      <psa03 value="0.0579363432" flag="0"/>
      <psa10 value="0.0250989181" flag="0"/>
      <psa30 value="0.0011700210" flag="0"/>
    </comp>
  </station>
  <station code="PYR2" name="PYR2" netid="HI" insttype="unknown" commtype="DIG" lat="37.6671" lon="21.4506">
    <comp name="--.HNE">
      <acc value="0.0666078404" flag="0"/>
      <vel value="0.0288413156" flag="0"/>
      <psa03 value="0.2281958268" flag="0"/>
      <psa10 value="0.0167893644" flag="0"/>
      <psa30 value="0.0013481866" flag="0"/>
    </comp>
    <comp name="--.HNN">
      <acc value="0.0806161259" flag="0"/>
      <vel value="0.0304416781" flag="0"/>
      <psa03 value="0.1730055030" flag="0"/>
      <psa10 value="0.0166257993" flag="0"/>
      <psa30 value="0.0014536041" flag="0"/>
    </comp>
    <comp name="--.HNZ">
      <acc value="0.0361454014" flag="0"/>
      <vel value="0.0109646383" flag="0"/>
      <psa03 value="0.0520046509" flag="0"/>
      <psa10 value="0.0093642367" flag="0"/>
      <psa30 value="0.0007924412" flag="0"/>
    </comp>
  </station>
  <station code="ZAK2" name="ZAK2" netid="HI" insttype="unknown" commtype="DIG" lat="37.7875" lon="20.9">
    <comp name="--.HNN">
      <acc value="0.1499697798" flag="0"/>
      <vel value="0.0901086839" flag="0"/>
      <psa03 value="0.4582838280" flag="0"/>
      <psa10 value="0.1012069637" flag="0"/>
      <psa30 value="0.0065815173" flag="0"/>
    </comp>
    <comp name="--.HNE">
      <acc value="0.1266784530" flag="0"/>
      <vel value="0.0641918542" flag="0"/>
      <psa03 value="0.3977525689" flag="0"/>
      <psa10 value="0.0808024681" flag="0"/>
      <psa30 value="0.0037200850" flag="0"/>
    </comp>
    <comp name="--.HNZ">
      <acc value="0.0740653323" flag="0"/>
      <vel value="0.0381134948" flag="0"/>
      <psa03 value="0.1281585442" flag="0"/>
      <psa10 value="0.0419543305" flag="0"/>
      <psa30 value="0.0025147121" flag="0"/>
    </comp>
  </station>
  <station code="ORTH" name="ORTH" netid="HL" insttype="30" commtype="DIG" lat="37.8511" lon="20.6963">
    <comp name="--.HHE">
      <acc value="0.1090671139" flag="0"/>
      <vel value="0.0394283843" flag="0"/>
      <psa03 value="0.2224280873" flag="0"/>
      <psa10 value="0.0365344413" flag="0"/>
      <psa30 value="0.0022147730" flag="0"/>
    </comp>
    <comp name="--.HHZ">
      <acc value="0.0514180692" flag="0"/>
      <vel value="0.0191472161" flag="0"/>
      <psa03 value="0.1046249023" flag="0"/>
      <psa10 value="0.0156539878" flag="0"/>
      <psa30 value="0.0010654745" flag="0"/>
    </comp>
    <comp name="--.HHN">
      <acc value="0.1659765124" flag="0"/>
      <vel value="0.1054683807" flag="0"/>
      <psa03 value="0.2206109738" flag="0"/>
      <psa10 value="0.0570921047" flag="0"/>
      <psa30 value="0.0043630194" flag="0"/>
    </comp>
  </station>
  <station code="ZARA" name="ZARA" netid="HL" insttype="CMG-5" commtype="DIG" lat="37.4865" lon="21.6491">
    <comp name="00.HNN">
      <acc value="0.0448588735" flag="0"/>
      <vel value="0.0181494733" flag="0"/>
      <psa03 value="0.1324461534" flag="0"/>
      <psa10 value="0.0133016314" flag="0"/>
      <psa30 value="0.0022645563" flag="0"/>
    </comp>
    <comp name="00.HNZ">
      <acc value="0.0181082196" flag="0"/>
      <vel value="0.0076371530" flag="0"/>
      <psa03 value="0.0366054024" flag="0"/>
      <psa10 value="0.0082259563" flag="0"/>
      <psa30 value="0.0006143970" flag="0"/>
    </comp>
    <comp name="00.HNE">
      <acc value="0.0333639533" flag="0"/>
      <vel value="0.0169639674" flag="0"/>
      <psa03 value="0.1101876670" flag="0"/>
      <psa10 value="0.0222093273" flag="0"/>
      <psa30 value="0.0015920585" flag="0"/>
    </comp>
  </station>
  <station code="AMT" name="AMT" netid="HP" insttype="CMG-3T," commtype="DIG" lat="37.5324" lon="21.7089">
    <comp name="00.HHE">
      <acc value="0.0190141441" flag="0"/>
      <vel value="0.0157111049" flag="0"/>
      <psa03 value="0.0542814710" flag="0"/>
      <psa10 value="0.0208700902" flag="0"/>
      <psa30 value="0.0012254282" flag="0"/>
    </comp>
    <comp name="00.HHZ">
      <acc value="0.0148976763" flag="0"/>
      <vel value="0.0082298172" flag="0"/>
      <psa03 value="0.0462552440" flag="0"/>
      <psa10 value="0.0061677855" flag="0"/>
      <psa30 value="0.0004952500" flag="0"/>
    </comp>
    <comp name="00.HHN">
      <acc value="0.0243147198" flag="0"/>
      <vel value="0.0144546609" flag="0"/>
      <psa03 value="0.0573153992" flag="0"/>
      <psa10 value="0.0157203417" flag="0"/>
      <psa30 value="0.0008662425" flag="0"/>
    </comp>
  </station>
  <station code="LTHK" name="LTHK" netid="HP" insttype="40," commtype="DIG" lat="37.7095" lon="20.8367">
    <comp name="--.HHN">
      <acc value="0.1440811644" flag="0"/>
      <vel value="0.0456849648" flag="0"/>
      <psa03 value="0.2316012711" flag="0"/>
      <psa10 value="0.0408745144" flag="0"/>
      <psa30 value="0.0026341887" flag="0"/>
    </comp>
    <comp name="--.HHE">
      <acc value="0.1192106850" flag="0"/>
      <vel value="0.0406270712" flag="0"/>
      <psa03 value="0.1534026241" flag="0"/>
      <psa10 value="0.0316524890" flag="0"/>
      <psa30 value="0.0013154852" flag="0"/>
    </comp>
    <comp name="--.HHZ">
      <acc value="0.0870199211" flag="0"/>
      <vel value="0.0213805995" flag="0"/>
      <psa03 value="0.1278160293" flag="0"/>
      <psa10 value="0.0123754363" flag="0"/>
      <psa30 value="0.0011887994" flag="0"/>
    </comp>
  </station>
  <station code="PYL" name="PYL" netid="HP" insttype="Horizon" commtype="DIG" lat="36.8955" lon="21.742">
    <comp name="--.HHE">
      <acc value="0.0122247951" flag="0"/>
      <vel value="0.0065295405" flag="0"/>
      <psa03 value="0.0369688566" flag="0"/>
      <psa10 value="0.0059027134" flag="0"/>
      <psa30 value="0.0004052077" flag="0"/>
    </comp>
    <comp name="--.HHN">
      <acc value="0.0155656356" flag="0"/>
      <vel value="0.0105884570" flag="0"/>
      <psa03 value="0.0367929222" flag="0"/>
      <psa10 value="0.0116976363" flag="0"/>
      <psa30 value="0.0008225613" flag="0"/>
    </comp>
    <comp name="--.HHZ">
      <acc value="0.0076080269" flag="0"/>
      <vel value="0.0026297227" flag="0"/>
      <psa03 value="0.0143178851" flag="0"/>
      <psa10 value="0.0027200788" flag="0"/>
      <psa30 value="0.0002407208" flag="0"/>
    </comp>
  </station>
  <station code="DMLN" name="DMLN" netid="HT" insttype="1s-100Hz," commtype="DIG" lat="38.2385" lon="20.3734">
    <comp name="--.HHE">
      <acc value="0.0520983099" flag="0"/>
      <vel value="0.0267690225" flag="0"/>
      <psa03 value="0.1077911105" flag="0"/>
      <psa10 value="0.0447190320" flag="0"/>
      <psa30 value="0.0016620009" flag="0"/>
    </comp>
    <comp name="--.HHN">
      <acc value="0.0296483591" flag="0"/>
      <vel value="0.0180723546" flag="0"/>
      <psa03 value="0.0819116583" flag="0"/>
      <psa10 value="0.0329579202" flag="0"/>
      <psa30 value="0.0014013983" flag="0"/>
    </comp>
    <comp name="--.HHZ">
      <acc value="0.0275489751" flag="0"/>
      <vel value="0.0126831868" flag="0"/>
      <psa03 value="0.0767655095" flag="0"/>
      <psa10 value="0.0113981899" flag="0"/>
      <psa30 value="0.0008319315" flag="0"/>
    </comp>
  </station>
  <station code="RTZL" name="RTZL" netid="HT" insttype="Compact," commtype="DIG" lat="38.076" lon="20.7715">
    <comp name="--.HHZ">
      <acc value="0.0265541334" flag="0"/>
      <vel value="0.0118575857" flag="0"/>
      <psa03 value="0.0394309064" flag="0"/>
      <psa10 value="0.0123389195" flag="0"/>
      <psa30 value="0.0007812295" flag="0"/>
    </comp>
    <comp name="--.HHE">
      <acc value="0.0373732625" flag="0"/>
      <vel value="0.0187748051" flag="0"/>
      <psa03 value="0.0650575276" flag="0"/>
      <psa10 value="0.0246690533" flag="0"/>
      <psa30 value="0.0010631701" flag="0"/>
    </comp>
    <comp name="--.HHN">
      <acc value="0.0430468796" flag="0"/>
      <vel value="0.0189092560" flag="0"/>
      <psa03 value="0.0962680724" flag="0"/>
      <psa10 value="0.0304494136" flag="0"/>
      <psa30 value="0.0017954511" flag="0"/>
    </comp>
  </station>
  <station code="CKVA" name="CKVA" netid="KF" insttype="Triaxial" commtype="DIG" lat="38.1642" lon="20.5063">
    <comp name="00.HNZ">
      <acc value="0.0536125949" flag="0"/>
      <vel value="0.0184499025" flag="0"/>
      <psa03 value="0.1438840656" flag="0"/>
      <psa10 value="0.0075907245" flag="0"/>
      <psa30 value="0.0009333286" flag="0"/>
    </comp>
    <comp name="00.HN1">
      <acc value="0.1315482078" flag="0"/>
      <vel value="0.0710040545" flag="0"/>
      <psa03 value="0.4529737654" flag="0"/>
      <psa10 value="0.0417142573" flag="0"/>
      <psa30 value="0.0025039865" flag="0"/>
    </comp>
    <comp name="00.HN2">
      <acc value="0.1267929567" flag="0"/>
      <vel value="0.0687729451" flag="0"/>
      <psa03 value="0.3494236106" flag="0"/>
      <psa10 value="0.0412972553" flag="0"/>
      <psa30 value="0.0026257209" flag="0"/>
    </comp>
  </station>
</stationlist>
