<stationlist xmlns:esm="https://esm-db.eu/esmws/shakemap/1/" created="1782105835">
	<station code="ARG2" name="ARG2" netid="HI" source="ITSAK Strong Motion Network" insttype="" lat="38.1783" lon="20.4878" esm:processing="automatic (Paolucci et al 2011)" esm:quality="best">
		<comp name="--.HNE" depth="0.0">
			<acc value="0.0348242304284808" flag="0"/>
			<vel value="0.0210210926214428" flag="0"/>
			<psa03 value="0.0999128999892772" flag="0"/>
			<psa10 value="0.0202067867254508" flag="0"/>
			<psa30 value="0.00119913037400225" flag="0"/>
		</comp>
		<comp name="--.HNN" depth="0.0">
			<acc value="0.0336083760111726" flag="0"/>
			<vel value="0.0205466535491266" flag="0"/>
			<psa03 value="0.103098652696426" flag="0"/>
			<psa10 value="0.0147610969127268" flag="0"/>
			<psa30 value="0.000780768753348095" flag="0"/>
		</comp>
		<comp name="--.HNZ" depth="0.0">
			<acc value="0.0209856208241021" flag="0"/>
			<vel value="0.00907136174846127" flag="0"/>
			<psa03 value="0.0651978502876071" flag="0"/>
			<psa10 value="0.0104495628572555" flag="0"/>
			<psa30 value="0.00115133554116247" flag="0"/>
		</comp>
	</station>
	<station code="AST1" name="AST1" netid="HI" source="ITSAK Strong Motion Network" insttype="" lat="38.5416" lon="21.0895" esm:processing="automatic (Paolucci et al 2011)" esm:quality="best">
		<comp name="--.HNE" depth="0.0">
			<acc value="0.00717048603743755" flag="0"/>
			<vel value="0.00536118217421589" flag="0"/>
			<psa03 value="0.0202186557929683" flag="0"/>
			<psa10 value="0.00534541004468155" flag="0"/>
			<psa30 value="0.00062204834306654" flag="0"/>
		</comp>
		<comp name="--.HNN" depth="0.0">
			<acc value="0.0105245728963022" flag="0"/>
			<vel value="0.0055611017205669" flag="0"/>
			<psa03 value="0.017492881473797" flag="0"/>
			<psa10 value="0.00721233621937822" flag="0"/>
			<psa30 value="0.000470418194146669" flag="0"/>
		</comp>
		<comp name="--.HNZ" depth="0.0">
			<acc value="0.00550219451246606" flag="0"/>
			<vel value="0.00473966063055801" flag="0"/>
			<psa03 value="0.0146460887210818" flag="0"/>
			<psa10 value="0.00688837522730241" flag="0"/>
			<psa30 value="0.000356072103654356" flag="0"/>
		</comp>
	</station>
	<station code="KAC1" name="KAC1" netid="HI" source="ITSAK Strong Motion Network" insttype="" lat="38.143412" lon="21.549694" esm:processing="automatic (Paolucci et al 2011)" esm:quality="best">
		<comp name="--.HNE" depth="0.0">
			<acc value="0.0147736605503734" flag="0"/>
			<vel value="0.012692538194513" flag="0"/>
			<psa03 value="0.0565863631521807" flag="0"/>
			<psa10 value="0.0195554754542755" flag="0"/>
			<psa30 value="0.00195115571282353" flag="0"/>
		</comp>
		<comp name="--.HNN" depth="0.0">
			<acc value="0.0190002186082965" flag="0"/>
			<vel value="0.0148153553753469" flag="0"/>
			<psa03 value="0.0573616280513421" flag="0"/>
			<psa10 value="0.0189528274068" flag="0"/>
			<psa30 value="0.00192719287540316" flag="0"/>
		</comp>
		<comp name="--.HNZ" depth="0.0">
			<acc value="0.00899847357310299" flag="0"/>
			<vel value="0.0074012875720345" flag="0"/>
			<psa03 value="0.0266953179129646" flag="0"/>
			<psa10 value="0.00980823193472937" flag="0"/>
			<psa30 value="0.00160663028553815" flag="0"/>
		</comp>
	</station>
	<station code="KRI1" name="KRI1" netid="HI" source="ITSAK Strong Motion Network" insttype="" lat="37.6621" lon="20.8172" esm:processing="automatic (Paolucci et al 2011)" esm:quality="best">
		<comp name="--.HNE" depth="0.0">
			<acc value="0.146953943477517" flag="0"/>
			<vel value="0.0489453987318689" flag="0"/>
			<psa03 value="0.293076539882422" flag="0"/>
			<psa10 value="0.0327982852254305" flag="0"/>
			<psa30 value="0.00214089536547766" flag="0"/>
		</comp>
		<comp name="--.HNN" depth="0.0">
			<acc value="0.136259905515411" flag="0"/>
			<vel value="0.0772196774679093" flag="0"/>
			<psa03 value="0.331552442888833" flag="0"/>
			<psa10 value="0.0545427731910418" flag="0"/>
			<psa30 value="0.00480298775770044" flag="0"/>
		</comp>
		<comp name="--.HNZ" depth="0.0">
			<acc value="0.0783087343612272" flag="0"/>
			<vel value="0.0243256253865878" flag="0"/>
			<psa03 value="0.144042937971048" flag="0"/>
			<psa10 value="0.0187416452920214" flag="0"/>
			<psa30 value="0.00208962738589229" flag="0"/>
		</comp>
	</station>
	<station code="LXR2" name="LXR2" netid="HI" source="ITSAK Strong Motion Network" insttype="" lat="38.206718" lon="20.436386" esm:processing="automatic (Paolucci et al 2011)" esm:quality="best">
		<comp name="--.HNE" depth="0.0">
			<acc value="0.0404006199444763" flag="0"/>
			<vel value="0.0311281633832457" flag="0"/>
			<psa03 value="0.117281050544013" flag="0"/>
			<psa10 value="0.0345136713613434" flag="0"/>
			<psa30 value="0.00218028443314341" flag="0"/>
		</comp>
		<comp name="--.HNN" depth="0.0">
			<acc value="0.034666072535986" flag="0"/>
			<vel value="0.0281785853340187" flag="0"/>
			<psa03 value="0.104261531814794" flag="0"/>
			<psa10 value="0.0316974785523909" flag="0"/>
			<psa30 value="0.00321738417757833" flag="0"/>
		</comp>
		<comp name="--.HNZ" depth="0.0">
			<acc value="0.0205642644062748" flag="0"/>
			<vel value="0.0143011060555475" flag="0"/>
			<psa03 value="0.0585619523586033" flag="0"/>
			<psa10 value="0.0251444144440545" flag="0"/>
			<psa30 value="0.00121580345767888" flag="0"/>
		</comp>
	</station>
	<station code="MSL1" name="MSL1" netid="HI" source="ITSAK Strong Motion Network" insttype="" lat="38.3727" lon="21.4243" esm:processing="automatic (Paolucci et al 2011)" esm:quality="best">
		<comp name="--.HNE" depth="0.0">
			<acc value="0.0169945597389393" flag="0"/>
			<vel value="0.0172760536029838" flag="0"/>
			<psa03 value="0.0381600565623007" flag="0"/>
			<psa10 value="0.0295586218636323" flag="0"/>
			<psa30 value="0.00195219890693002" flag="0"/>
		</comp>
		<comp name="--.HNN" depth="0.0">
			<acc value="0.0157485016402455" flag="0"/>
			<vel value="0.01569406925895" flag="0"/>
			<psa03 value="0.0418978250044493" flag="0"/>
			<psa10 value="0.034915562984691" flag="0"/>
			<psa30 value="0.00200043397726671" flag="0"/>
		</comp>
		<comp name="--.HNZ" depth="0.0">
			<acc value="0.0197473633226753" flag="0"/>
			<vel value="0.00684723940740504" flag="0"/>
			<psa03 value="0.0180841979893642" flag="0"/>
			<psa10 value="0.0171881573810714" flag="0"/>
			<psa30 value="0.000655176527229489" flag="0"/>
		</comp>
	</station>
	<station code="PET1" name="PET1" netid="HI" source="ITSAK Strong Motion Network" insttype="" lat="36.963862" lon="21.92538" esm:processing="automatic (Paolucci et al 2011)" esm:quality="best">
		<comp name="--.HNE" depth="0.0">
			<acc value="0.0208532267828283" flag="0"/>
			<vel value="0.011641377842518" flag="0"/>
			<psa03 value="0.0760009461480223" flag="0"/>
			<psa10 value="0.0144560498298546" flag="0"/>
			<psa30 value="0.000800691843988405" flag="0"/>
		</comp>
		<comp name="--.HNN" depth="0.0">
			<acc value="0.0208069346185126" flag="0"/>
			<vel value="0.015096177057543" flag="0"/>
			<psa03 value="0.0522831562108399" flag="0"/>
			<psa10 value="0.0123112377465803" flag="0"/>
			<psa30 value="0.000809506282068336" flag="0"/>
		</comp>
		<comp name="--.HNZ" depth="0.0">
			<acc value="0.00869521377060923" flag="0"/>
			<vel value="0.0038735796640185" flag="0"/>
			<psa03 value="0.0301387986308291" flag="0"/>
			<psa10 value="0.00543902937150249" flag="0"/>
			<psa30 value="0.000457043818576592" flag="0"/>
		</comp>
	</station>
	<station code="PYL1" name="PYL1" netid="HI" source="ITSAK Strong Motion Network" insttype="" lat="36.914188" lon="21.695161" esm:processing="automatic (Paolucci et al 2011)" esm:quality="best">
		<comp name="--.HNE" depth="0.0">
			<acc value="0.018128977215383" flag="0"/>
			<vel value="0.00797051318610308" flag="0"/>
			<psa03 value="0.0554431988814914" flag="0"/>
			<psa10 value="0.00855172525982877" flag="0"/>
			<psa30 value="0.000581438986229283" flag="0"/>
		</comp>
		<comp name="--.HNN" depth="0.0">
			<acc value="0.0114175436496756" flag="0"/>
			<vel value="0.00562739184820562" flag="0"/>
			<psa03 value="0.0344594806881439" flag="0"/>
			<psa10 value="0.00621700762749383" flag="0"/>
			<psa30 value="0.000498922374075365" flag="0"/>
		</comp>
		<comp name="--.HNZ" depth="0.0">
			<acc value="0.00821782426566634" flag="0"/>
			<vel value="0.00365103937807212" flag="0"/>
			<psa03 value="0.0195812541932405" flag="0"/>
			<psa10 value="0.00370320391283484" flag="0"/>
			<psa30 value="0.000272764032820184" flag="0"/>
		</comp>
	</station>
	<station code="PYR2" name="PYR2" netid="HI" source="ITSAK Strong Motion Network" insttype="" lat="37.6671" lon="21.4506" esm:processing="automatic (Paolucci et al 2011)" esm:quality="best">
		<comp name="--.HNE" depth="0.0">
			<acc value="0.0669771543103924" flag="0"/>
			<vel value="0.0287360886448542" flag="0"/>
			<psa03 value="0.234727799564737" flag="0"/>
			<psa10 value="0.0167992341168139" flag="0"/>
			<psa30 value="0.00132739897533425" flag="0"/>
		</comp>
		<comp name="--.HNN" depth="0.0">
			<acc value="0.0810268714910648" flag="0"/>
			<vel value="0.0301563285556458" flag="0"/>
			<psa03 value="0.175473603431714" flag="0"/>
			<psa10 value="0.0166440075838179" flag="0"/>
			<psa30 value="0.00168617774266679" flag="0"/>
		</comp>
		<comp name="--.HNZ" depth="0.0">
			<acc value="0.0354612088713907" flag="0"/>
			<vel value="0.0111467462788805" flag="0"/>
			<psa03 value="0.0528297809637137" flag="0"/>
			<psa10 value="0.00938480357217843" flag="0"/>
			<psa30 value="0.000898751204523124" flag="0"/>
		</comp>
	</station>
	<station code="SFH1" name="SFH1" netid="HI" source="ITSAK Strong Motion Network" insttype="" lat="38.074232" lon="20.797566" esm:processing="automatic (Paolucci et al 2011)" esm:quality="best">
		<comp name="--.HNE" depth="0.0">
			<acc value="0.0377545906756796" flag="0"/>
			<vel value="0.0187070535566864" flag="0"/>
			<psa03 value="0.066485248071392" flag="0"/>
			<psa10 value="0.0286181626878274" flag="0"/>
			<psa30 value="0.00175513731089975" flag="0"/>
		</comp>
		<comp name="--.HNN" depth="0.0">
			<acc value="0.0446270467916588" flag="0"/>
			<vel value="0.0248320570307808" flag="0"/>
			<psa03 value="0.0889677478433302" flag="0"/>
			<psa10 value="0.0394665794671978" flag="0"/>
			<psa30 value="0.00138055395492411" flag="0"/>
		</comp>
		<comp name="--.HNZ" depth="0.0">
			<acc value="0.0278119137307897" flag="0"/>
			<vel value="0.0139901247293306" flag="0"/>
			<psa03 value="0.0701473239992831" flag="0"/>
			<psa10 value="0.0147484135725177" flag="0"/>
			<psa30 value="0.00104297752964267" flag="0"/>
		</comp>
	</station>
	<station code="VSK1" name="VSK1" netid="HI" source="ITSAK Strong Motion Network" insttype="" lat="38.4091" lon="20.564" esm:processing="automatic (Paolucci et al 2011)" esm:quality="best">
		<comp name="--.HNE" depth="0.0">
			<acc value="0.0115043659004882" flag="0"/>
			<vel value="0.00923459159015425" flag="0"/>
			<psa03 value="0.0260289821048208" flag="0"/>
			<psa10 value="0.0163118068271481" flag="0"/>
			<psa30 value="0.000809280746294364" flag="0"/>
		</comp>
		<comp name="--.HNN" depth="0.0">
			<acc value="0.0125645325267059" flag="0"/>
			<vel value="0.00951236138602347" flag="0"/>
			<psa03 value="0.0284183956000716" flag="0"/>
			<psa10 value="0.0168906726741695" flag="0"/>
			<psa30 value="0.000865952625528232" flag="0"/>
		</comp>
		<comp name="--.HNZ" depth="0.0">
			<acc value="0.00707267588781154" flag="0"/>
			<vel value="0.00548536168412624" flag="0"/>
			<psa03 value="0.0210753245222339" flag="0"/>
			<psa10 value="0.00618467954841725" flag="0"/>
			<psa30 value="0.000507389237046817" flag="0"/>
		</comp>
	</station>
	<station code="ZAK2" name="ZAK2" netid="HI" source="ITSAK Strong Motion Network" insttype="" lat="37.787501" lon="20.899999" esm:processing="automatic (Paolucci et al 2011)" esm:quality="best">
		<comp name="--.HNE" depth="0.0">
			<acc value="0.126958206908978" flag="0"/>
			<vel value="0.0640274028507326" flag="0"/>
			<psa03 value="0.394755025583088" flag="0"/>
			<psa10 value="0.0807582398370483" flag="0"/>
			<psa30 value="0.00413678862527745" flag="0"/>
		</comp>
		<comp name="--.HNN" depth="0.0">
			<acc value="0.149654154135299" flag="0"/>
			<vel value="0.0897464838415168" flag="0"/>
			<psa03 value="0.464481811307107" flag="0"/>
			<psa10 value="0.101062737410363" flag="0"/>
			<psa30 value="0.00640773739782173" flag="0"/>
		</comp>
		<comp name="--.HNZ" depth="0.0">
			<acc value="0.0737010917956289" flag="0"/>
			<vel value="0.0377244781176652" flag="0"/>
			<psa03 value="0.132086718846876" flag="0"/>
			<psa10 value="0.0419920642681714" flag="0"/>
			<psa30 value="0.00273769115026948" flag="0"/>
		</comp>
	</station>
	<station code="SMHA" name="SMHA" netid="HL" source="National Observatory of Athens Seismic Network" insttype="" lat="38.25123" lon="20.6477" esm:processing="automatic (Paolucci et al 2011)" esm:quality="best">
		<comp name="00.HNE" depth="0.0">
			<acc value="0.0576740482637878" flag="0"/>
			<vel value="0.03045105158105" flag="0"/>
			<psa03 value="0.159492180157522" flag="0"/>
			<psa10 value="0.0331087720436585" flag="0"/>
			<psa30 value="0.00151109833201508" flag="0"/>
		</comp>
		<comp name="00.HNN" depth="0.0">
			<acc value="0.0474324023361485" flag="0"/>
			<vel value="0.0342521083733707" flag="0"/>
			<psa03 value="0.160658236569703" flag="0"/>
			<psa10 value="0.0404804816332403" flag="0"/>
			<psa30 value="0.0015818087453996" flag="0"/>
		</comp>
		<comp name="00.HNZ" depth="0.0">
			<acc value="0.0307998150082514" flag="0"/>
			<vel value="0.0155848881259037" flag="0"/>
			<psa03 value="0.0584138435887908" flag="0"/>
			<psa10 value="0.0207260967521914" flag="0"/>
			<psa30 value="0.000809333458119597" flag="0"/>
		</comp>
	</station>
	<station code="ZARA" name="ZARA" netid="HL" source="National Observatory of Athens Seismic Network" insttype="" lat="37.4865" lon="21.6491" esm:processing="automatic (Paolucci et al 2011)" esm:quality="best">
		<comp name="00.HNE" depth="0.0">
			<acc value="0.0334639413195365" flag="0"/>
			<vel value="0.0169382771370603" flag="0"/>
			<psa03 value="0.110553688222609" flag="0"/>
			<psa10 value="0.0222157141820355" flag="0"/>
			<psa30 value="0.00163001600139372" flag="0"/>
		</comp>
		<comp name="00.HNN" depth="0.0">
			<acc value="0.0449906378027128" flag="0"/>
			<vel value="0.0185916448637824" flag="0"/>
			<psa03 value="0.132311754587722" flag="0"/>
			<psa10 value="0.0134001008159148" flag="0"/>
			<psa30 value="0.002479554883342" flag="0"/>
		</comp>
		<comp name="00.HNZ" depth="0.0">
			<acc value="0.0177435752111305" flag="0"/>
			<vel value="0.0075572922516845" flag="0"/>
			<psa03 value="0.0365702194725627" flag="0"/>
			<psa10 value="0.00824933897822165" flag="0"/>
			<psa30 value="0.000679107539624946" flag="0"/>
		</comp>
	</station>
	<station code="AMT" name="AMT" netid="HP" source="University of Patras, Seismological Laboratory (PSLNET)" insttype="" lat="37.5324" lon="21.7089" esm:processing="automatic (Paolucci et al 2011)" esm:quality="best">
		<comp name="--.HNE" depth="0.0">
			<acc value="0.0189785048481369" flag="0"/>
			<vel value="0.0157578327543136" flag="0"/>
			<psa03 value="0.0547167132553841" flag="0"/>
			<psa10 value="0.0211934058341247" flag="0"/>
			<psa30 value="0.00123440333566285" flag="0"/>
		</comp>
		<comp name="--.HNN" depth="0.0">
			<acc value="0.0242761505971927" flag="0"/>
			<vel value="0.0149296946021188" flag="0"/>
			<psa03 value="0.0590280613610371" flag="0"/>
			<psa10 value="0.0157188091064594" flag="0"/>
			<psa30 value="0.000985453406451823" flag="0"/>
		</comp>
		<comp name="--.HNZ" depth="0.0">
			<acc value="0.0151389475267329" flag="0"/>
			<vel value="0.00815663369658181" flag="0"/>
			<psa03 value="0.0475223199954722" flag="0"/>
			<psa10 value="0.0061084323099119" flag="0"/>
			<psa30 value="0.000548429403673108" flag="0"/>
		</comp>
	</station>
	<station code="FSK" name="FSK" netid="HP" source="University of Patras, Seismological Laboratory (PSLNET)" insttype="" lat="38.4593" lon="20.5623" esm:processing="automatic (Paolucci et al 2011)" esm:quality="best">
		<comp name="--.HNE" depth="0.0">
			<acc value="0.0126107054626747" flag="0"/>
			<vel value="0.00754538170485188" flag="0"/>
			<psa03 value="0.0181022395491123" flag="0"/>
			<psa10 value="0.0102131893861731" flag="0"/>
			<psa30 value="0.000934281474895829" flag="0"/>
		</comp>
		<comp name="--.HNN" depth="0.0">
			<acc value="0.00828300216041136" flag="0"/>
			<vel value="0.00799344309319163" flag="0"/>
			<psa03 value="0.0159618816150701" flag="0"/>
			<psa10 value="0.0128879987666673" flag="0"/>
			<psa30 value="0.000548526441351378" flag="0"/>
		</comp>
		<comp name="--.HNZ" depth="0.0">
			<acc value="0.00600249799771124" flag="0"/>
			<vel value="0.00390034463791843" flag="0"/>
			<psa03 value="0.0136606966207746" flag="0"/>
			<psa10 value="0.00595310358264603" flag="0"/>
			<psa30 value="0.00064191195059972" flag="0"/>
		</comp>
	</station>
	<station code="LTHK" name="LTHK" netid="HP" source="University of Patras, Seismological Laboratory (PSLNET)" insttype="" lat="37.7095" lon="20.8367" esm:processing="automatic (Paolucci et al 2011)" esm:quality="best">
		<comp name="--.HNE" depth="0.0">
			<acc value="0.113092294876135" flag="0"/>
			<vel value="0.0410612674074992" flag="0"/>
			<psa03 value="0.159921604438106" flag="0"/>
			<psa10 value="0.0315333789315964" flag="0"/>
			<psa30 value="0.00137532079575299" flag="0"/>
		</comp>
		<comp name="--.HNN" depth="0.0">
			<acc value="0.143971285667865" flag="0"/>
			<vel value="0.04552372334094" flag="0"/>
			<psa03 value="0.231715912542003" flag="0"/>
			<psa10 value="0.0412261960331595" flag="0"/>
			<psa30 value="0.00289726067930098" flag="0"/>
		</comp>
		<comp name="--.HNZ" depth="0.0">
			<acc value="0.0868073516104606" flag="0"/>
			<vel value="0.0214875136305174" flag="0"/>
			<psa03 value="0.131489575122368" flag="0"/>
			<psa10 value="0.0126678113678327" flag="0"/>
			<psa30 value="0.00143678184641263" flag="0"/>
		</comp>
	</station>
	<station code="PYL" name="PYL" netid="HP" source="University of Patras, Seismological Laboratory (PSLNET)" insttype="" lat="36.8955" lon="21.742" esm:processing="automatic (Paolucci et al 2011)" esm:quality="best">
		<comp name="--.HNE" depth="0.0">
			<acc value="0.0133181655212275" flag="0"/>
			<vel value="0.00678238861855982" flag="0"/>
			<psa03 value="0.0359808523048803" flag="0"/>
			<psa10 value="0.00570081780745158" flag="0"/>
			<psa30 value="0.000407556477783136" flag="0"/>
		</comp>
		<comp name="--.HNN" depth="0.0">
			<acc value="0.0153203044943572" flag="0"/>
			<vel value="0.0109745438335122" flag="0"/>
			<psa03 value="0.0372796206335747" flag="0"/>
			<psa10 value="0.0116351101439449" flag="0"/>
			<psa30 value="0.000834805978882419" flag="0"/>
		</comp>
		<comp name="--.HNZ" depth="0.0">
			<acc value="0.00834036971193149" flag="0"/>
			<vel value="0.00272792431574309" flag="0"/>
			<psa03 value="0.014152665409209" flag="0"/>
			<psa10 value="0.00278196335391903" flag="0"/>
			<psa30 value="0.00031234501424095" flag="0"/>
		</comp>
	</station>
</stationlist>
