<?xml version="1.0" encoding="UTF-8" standalone="yes"?>
<!DOCTYPE earthquake SYSTEM "stationlist.dtd">
<stationlist created="" xmlns="ch.ethz.sed.shakemap.usgs.xml">
  <station code="CEYT" name="CEYT" netid="KO" insttype="CMG-3ESP" lat="37.0105" lon="35.7478">
    <comp name="--.HHZ">
      <acc value="0.0689088515" flag="0"/>
      <vel value="0.0355368962" flag="0"/>
      <psa03 value="0.1964964545" flag="0"/>
      <psa10 value="0.0495070096" flag="0"/>
      <psa30 value="0.0039074766" flag="0"/>
    </comp>
    <comp name="--.HHN">
      <acc value="0.1116994502" flag="0"/>
      <vel value="0.0477264912" flag="0"/>
      <psa03 value="0.2700600943" flag="0"/>
      <psa10 value="0.0780783531" flag="0"/>
      <psa30 value="0.0039708752" flag="0"/>
    </comp>
    <comp name="--.HHE">
      <acc value="0.1265646003" flag="0"/>
      <vel value="0.0650036734" flag="0"/>
      <psa03 value="0.3966680253" flag="0"/>
      <psa10 value="0.0479577956" flag="0"/>
      <psa30 value="0.0058706644" flag="0"/>
    </comp>
  </station>
  <station code="GAZ" name="GAZ" netid="KO" insttype="CMG-3T" lat="37.1721" lon="37.2096">
    <comp name="--.HHE">
      <acc value="0.1245321014" flag="0"/>
      <vel value="0.0905485497" flag="0"/>
      <psa03 value="0.2144700005" flag="0"/>
      <psa10 value="0.0845313719" flag="0"/>
      <psa30 value="0.0061648186" flag="0"/>
    </comp>
    <comp name="--.HHZ">
      <acc value="0.0726118177" flag="0"/>
      <vel value="0.0366208081" flag="0"/>
      <psa03 value="0.1744064715" flag="0"/>
      <psa10 value="0.0485656641" flag="0"/>
      <psa30 value="0.0038382309" flag="0"/>
    </comp>
    <comp name="--.HHN">
      <acc value="0.1011913557" flag="0"/>
      <vel value="0.0507599087" flag="0"/>
      <psa03 value="0.1970312216" flag="0"/>
      <psa10 value="0.0401689007" flag="0"/>
      <psa30 value="0.0052186467" flag="0"/>
    </comp>
  </station>
  <station code="KARA" name="KARA" netid="KO" insttype="CMG-3ESP" lat="37.2607" lon="35.0547">
    <comp name="--.HHZ">
      <acc value="0.0093604558" flag="0"/>
      <vel value="0.0051088478" flag="0"/>
      <psa03 value="0.0235672420" flag="0"/>
      <psa10 value="0.0058925087" flag="0"/>
      <psa30 value="0.0008856995" flag="0"/>
    </comp>
    <comp name="--.HHN">
      <acc value="0.0151527580" flag="0"/>
      <vel value="0.0079864653" flag="0"/>
      <psa03 value="0.0478500970" flag="0"/>
      <psa10 value="0.0105498219" flag="0"/>
      <psa30 value="0.0017360317" flag="0"/>
    </comp>
    <comp name="--.HHE">
      <acc value="0.0138163371" flag="0"/>
      <vel value="0.0083725900" flag="0"/>
      <psa03 value="0.0494122990" flag="0"/>
      <psa10 value="0.0068026781" flag="0"/>
      <psa30 value="0.0009386340" flag="0"/>
    </comp>
  </station>
  <station code="KHMN" name="KHMN" netid="KO" insttype="CMG-5T" lat="37.3916" lon="37.1574">
    <comp name="--.HNE">
      <acc value="0.0863090884" flag="0"/>
      <vel value="0.0382104634" flag="0"/>
      <psa03 value="0.1554900050" flag="0"/>
      <psa10 value="0.0376747288" flag="0"/>
      <psa30 value="0.0060894143" flag="0"/>
    </comp>
    <comp name="--.HNN">
      <acc value="0.1022433147" flag="0"/>
      <vel value="0.0386366186" flag="0"/>
      <psa03 value="0.1202739362" flag="0"/>
      <psa10 value="0.0462711406" flag="0"/>
      <psa30 value="0.0047996919" flag="0"/>
    </comp>
    <comp name="--.HNZ">
      <acc value="0.0530007034" flag="0"/>
      <vel value="0.0298524143" flag="0"/>
      <psa03 value="0.0663249948" flag="0"/>
      <psa10 value="0.0294260523" flag="0"/>
      <psa30 value="0.0043871287" flag="0"/>
    </comp>
  </station>
  <station code="KMRS" name="KMRS" netid="KO" insttype="CMG-3T" lat="37.5087" lon="36.9">
    <comp name="--.HHE">
      <acc value="0.0684878247" flag="0"/>
      <vel value="0.0399294149" flag="0"/>
      <psa03 value="0.0797879164" flag="0"/>
      <psa10 value="0.0382562160" flag="0"/>
      <psa30 value="0.0045132258" flag="0"/>
    </comp>
    <comp name="--.HHN">
      <acc value="0.0460074319" flag="0"/>
      <vel value="0.0270463143" flag="0"/>
      <psa03 value="0.1550537323" flag="0"/>
      <psa10 value="0.0493459624" flag="0"/>
      <psa30 value="0.0039448873" flag="0"/>
    </comp>
    <comp name="--.HHZ">
      <acc value="0.0333442474" flag="0"/>
      <vel value="0.0193815204" flag="0"/>
      <psa03 value="0.0674716420" flag="0"/>
      <psa10 value="0.0197475677" flag="0"/>
      <psa30 value="0.0022727374" flag="0"/>
    </comp>
  </station>
  <station code="KRTS" name="KRTS" netid="KO" insttype="CMG-5T" lat="36.573" lon="35.375">
    <comp name="--.HNE">
      <acc value="0.1111782263" flag="0"/>
      <vel value="0.0785860018" flag="0"/>
      <psa03 value="0.3502015763" flag="0"/>
      <psa10 value="0.0776641629" flag="0"/>
      <psa30 value="0.0058637558" flag="0"/>
    </comp>
    <comp name="--.HNN">
      <acc value="0.1319498011" flag="0"/>
      <vel value="0.0837473666" flag="0"/>
      <psa03 value="0.3764161988" flag="0"/>
      <psa10 value="0.0522632750" flag="0"/>
      <psa30 value="0.0059137766" flag="0"/>
    </comp>
    <comp name="--.HNZ">
      <acc value="0.1178849256" flag="0"/>
      <vel value="0.0390631733" flag="0"/>
      <psa03 value="0.2334578143" flag="0"/>
      <psa10 value="0.0317049515" flag="0"/>
      <psa30 value="0.0049087854" flag="0"/>
    </comp>
  </station>
  <station code="ANDN" name="ANDN" netid="TU" insttype="T" lat="37.58" lon="36.3452">
    <comp name="--.HHN">
      <acc value="0.1814017652" flag="0"/>
      <vel value="0.0964898102" flag="0"/>
      <psa03 value="0.4102033673" flag="0"/>
      <psa10 value="0.0791405176" flag="0"/>
      <psa30 value="0.0051386161" flag="0"/>
    </comp>
    <comp name="--.HHZ">
      <acc value="0.0578317582" flag="0"/>
      <vel value="0.0353667172" flag="0"/>
      <psa03 value="0.1434889011" flag="0"/>
      <psa10 value="0.0541774697" flag="0"/>
      <psa30 value="0.0036317733" flag="0"/>
    </comp>
    <comp name="--.HHE">
      <acc value="0.1385077051" flag="0"/>
      <vel value="0.0543480767" flag="0"/>
      <psa03 value="0.2820303634" flag="0"/>
      <psa10 value="0.0791012981" flag="0"/>
      <psa30 value="0.0057191114" flag="0"/>
    </comp>
  </station>
</stationlist>
