<?xml version="1.0" encoding="UTF-8" standalone="yes"?>
<!DOCTYPE earthquake SYSTEM "stationlist.dtd">
<stationlist created="" xmlns="ch.ethz.sed.shakemap.usgs.xml">
  <station code="CEYT" name="CEYT" netid="KO" insttype="CMG-3ESP" lat="37.0105" lon="35.7478">
    <comp name="--.HHE">
      <acc value="0.1265646003" flag="0"/>
      <vel value="0.0650036748" flag="0"/>
      <psa03 value="0.3966680253" flag="0"/>
      <psa10 value="0.0479577956" flag="0"/>
      <psa30 value="0.0058706638" flag="0"/>
    </comp>
    <comp name="--.HHZ">
      <acc value="0.0689088516" flag="0"/>
      <vel value="0.0355368966" flag="0"/>
      <psa03 value="0.1964964545" flag="0"/>
      <psa10 value="0.0495070097" flag="0"/>
      <psa30 value="0.0039074786" flag="0"/>
    </comp>
    <comp name="--.HHN">
      <acc value="0.1116994502" flag="0"/>
      <vel value="0.0477264915" flag="0"/>
      <psa03 value="0.2700600943" flag="0"/>
      <psa10 value="0.0780783530" flag="0"/>
      <psa30 value="0.0039708777" flag="0"/>
    </comp>
  </station>
  <station code="GAZ" name="GAZ" netid="KO" insttype="CMG-3T" lat="37.1721" lon="37.2096">
    <comp name="--.HHN">
      <acc value="0.1011913557" flag="0"/>
      <vel value="0.0507599086" flag="0"/>
      <psa03 value="0.1970312216" flag="0"/>
      <psa10 value="0.0401689007" flag="0"/>
      <psa30 value="0.0052186155" flag="0"/>
    </comp>
    <comp name="--.HHE">
      <acc value="0.1245321013" flag="0"/>
      <vel value="0.0905485500" flag="0"/>
      <psa03 value="0.2144700005" flag="0"/>
      <psa10 value="0.0845313718" flag="0"/>
      <psa30 value="0.0061648084" flag="0"/>
    </comp>
    <comp name="--.HHZ">
      <acc value="0.0726118177" flag="0"/>
      <vel value="0.0366208077" flag="0"/>
      <psa03 value="0.1744064715" flag="0"/>
      <psa10 value="0.0485656641" flag="0"/>
      <psa30 value="0.0038382199" flag="0"/>
    </comp>
  </station>
  <station code="KHMN" name="KHMN" netid="KO" insttype="CMG-5T" lat="37.3916" lon="37.1574">
    <comp name="--.HNE">
      <acc value="0.0863090971" flag="0"/>
      <vel value="0.0382104648" flag="0"/>
      <psa03 value="0.1554900050" flag="0"/>
      <psa10 value="0.0376747288" flag="0"/>
      <psa30 value="0.0060895965" flag="0"/>
    </comp>
    <comp name="--.HNN">
      <acc value="0.1022433164" flag="0"/>
      <vel value="0.0386366157" flag="0"/>
      <psa03 value="0.1202739362" flag="0"/>
      <psa10 value="0.0462711408" flag="0"/>
      <psa30 value="0.0047995759" flag="0"/>
    </comp>
    <comp name="--.HNZ">
      <acc value="0.0530007189" flag="0"/>
      <vel value="0.0298524166" flag="0"/>
      <psa03 value="0.0663249948" flag="0"/>
      <psa10 value="0.0294260526" flag="0"/>
      <psa30 value="0.0043872504" flag="0"/>
    </comp>
  </station>
  <station code="KMRS" name="KMRS" netid="KO" insttype="CMG-3T" lat="37.5087" lon="36.9">
    <comp name="--.HHE">
      <acc value="0.0684878247" flag="0"/>
      <vel value="0.0399294150" flag="0"/>
      <psa03 value="0.0797879164" flag="0"/>
      <psa10 value="0.0382562160" flag="0"/>
      <psa30 value="0.0045132289" flag="0"/>
    </comp>
    <comp name="--.HHN">
      <acc value="0.0460074319" flag="0"/>
      <vel value="0.0270463139" flag="0"/>
      <psa03 value="0.1550537323" flag="0"/>
      <psa10 value="0.0493459624" flag="0"/>
      <psa30 value="0.0039448847" flag="0"/>
    </comp>
    <comp name="--.HHZ">
      <acc value="0.0333442474" flag="0"/>
      <vel value="0.0193815236" flag="0"/>
      <psa03 value="0.0674716420" flag="0"/>
      <psa10 value="0.0197475677" flag="0"/>
      <psa30 value="0.0022727351" flag="0"/>
    </comp>
  </station>
  <station code="KRTS" name="KRTS" netid="KO" insttype="CMG-5T" lat="36.573" lon="35.375">
    <comp name="--.HNE">
      <acc value="0.1111782213" flag="0"/>
      <vel value="0.0785860078" flag="0"/>
      <psa03 value="0.3502015763" flag="0"/>
      <psa10 value="0.0776641620" flag="0"/>
      <psa30 value="0.0058634234" flag="0"/>
    </comp>
    <comp name="--.HNN">
      <acc value="0.1319498000" flag="0"/>
      <vel value="0.0837473667" flag="0"/>
      <psa03 value="0.3764161988" flag="0"/>
      <psa10 value="0.0522632747" flag="0"/>
      <psa30 value="0.0059140907" flag="0"/>
    </comp>
    <comp name="--.HNZ">
      <acc value="0.1178849324" flag="0"/>
      <vel value="0.0390631752" flag="0"/>
      <psa03 value="0.2334578143" flag="0"/>
      <psa10 value="0.0317049517" flag="0"/>
      <psa30 value="0.0049087466" flag="0"/>
    </comp>
  </station>
  <station code="ANDN" name="ANDN" netid="TU" insttype="T" lat="37.58" lon="36.3452">
    <comp name="--.HHZ">
      <acc value="0.0578317582" flag="0"/>
      <vel value="0.0353667168" flag="0"/>
      <psa03 value="0.1434889011" flag="0"/>
      <psa10 value="0.0541774697" flag="0"/>
      <psa30 value="0.0036317779" flag="0"/>
    </comp>
    <comp name="--.HHE">
      <acc value="0.1385077051" flag="0"/>
      <vel value="0.0543480768" flag="0"/>
      <psa03 value="0.2820303634" flag="0"/>
      <psa10 value="0.0791012981" flag="0"/>
      <psa30 value="0.0057191198" flag="0"/>
    </comp>
    <comp name="--.HHN">
      <acc value="0.1814017653" flag="0"/>
      <vel value="0.0964898100" flag="0"/>
      <psa03 value="0.4102033673" flag="0"/>
      <psa10 value="0.0791405176" flag="0"/>
      <psa30 value="0.0051385942" flag="0"/>
    </comp>
  </station>
</stationlist>
