<?xml version="1.0" encoding="UTF-8" standalone="yes"?>
<!DOCTYPE earthquake SYSTEM "stationlist.dtd">
<stationlist created="" xmlns="ch.ethz.sed.shakemap.usgs.xml">
  <station code="APE" name="APE" netid="GE" insttype="STS-2/N" lat="37.0727" lon="25.523">
    <comp name="--.HHE">
      <acc value="0.0431469964" flag="0"/>
      <vel value="0.0116161812" flag="0"/>
      <psa03 value="0.0388045369" flag="0"/>
      <psa10 value="0.0026631021" flag="0"/>
      <psa30 value="0.0009110728" flag="0"/>
    </comp>
    <comp name="--.HHZ">
      <acc value="0.0189997624" flag="0"/>
      <vel value="0.0051024070" flag="0"/>
      <psa03 value="0.0153497692" flag="0"/>
      <psa10 value="0.0019457814" flag="0"/>
      <psa30 value="0.0012589301" flag="0"/>
    </comp>
    <comp name="--.HHN">
      <acc value="0.0531238162" flag="0"/>
      <vel value="0.0085911421" flag="0"/>
      <psa03 value="0.0274895221" flag="0"/>
      <psa10 value="0.0021575853" flag="0"/>
      <psa30 value="0.0009778789" flag="0"/>
    </comp>
  </station>
  <station code="THERA" name="THERA" netid="GE" insttype="STS-2/N" lat="36.367" lon="25.4753">
    <comp name="--.HHE">
      <acc value="0.1734767874" flag="0"/>
      <vel value="0.0372716317" flag="0"/>
      <psa03 value="0.2088092637" flag="0"/>
      <psa10 value="0.0173176354" flag="0"/>
      <psa30 value="0.0022812429" flag="0"/>
    </comp>
    <comp name="--.HHN">
      <acc value="0.0882181804" flag="0"/>
      <vel value="0.0245528908" flag="0"/>
      <psa03 value="0.2125045126" flag="0"/>
      <psa10 value="0.0135332824" flag="0"/>
      <psa30 value="0.0011697364" flag="0"/>
    </comp>
    <comp name="--.HHZ">
      <acc value="0.1402846009" flag="0"/>
      <vel value="0.0347138255" flag="0"/>
      <psa03 value="0.1420405648" flag="0"/>
      <psa10 value="0.0219936362" flag="0"/>
      <psa30 value="0.0017693718" flag="0"/>
    </comp>
  </station>
</stationlist>
