<?xml version="1.0" encoding="UTF-8" standalone="yes"?>
<!DOCTYPE earthquake SYSTEM "stationlist.dtd">
<stationlist created="" xmlns="ch.ethz.sed.shakemap.usgs.xml">
  <station code="APE" name="APE" netid="GE" insttype="STS-2/N" lat="37.0727" lon="25.523">
    <comp name="--.HHZ">
      <acc value="0.0869439899" flag="0"/>
      <vel value="0.0156686586" flag="0"/>
      <psa03 value="0.0426974245" flag="0"/>
      <psa10 value="0.0041784974" flag="0"/>
      <psa30 value="0.0006231369" flag="0"/>
    </comp>
    <comp name="--.HHE">
      <acc value="0.2101995919" flag="0"/>
      <vel value="0.0371978295" flag="0"/>
      <psa03 value="0.0917334288" flag="0"/>
      <psa10 value="0.0057179598" flag="0"/>
      <psa30 value="0.0006964920" flag="0"/>
    </comp>
    <comp name="--.HHN">
      <acc value="0.1890464770" flag="0"/>
      <vel value="0.0360649800" flag="0"/>
      <psa03 value="0.0841802492" flag="0"/>
      <psa10 value="0.0057858948" flag="0"/>
      <psa30 value="0.0012329384" flag="0"/>
    </comp>
  </station>
  <station code="THERA" name="THERA" netid="GE" insttype="STS-2/N" lat="36.367" lon="25.4753">
    <comp name="--.HHE">
      <acc value="0.0844652932" flag="0"/>
      <vel value="0.0235938183" flag="0"/>
      <psa03 value="0.1226434828" flag="0"/>
      <psa10 value="0.0071969049" flag="0"/>
      <psa30 value="0.0012477706" flag="0"/>
    </comp>
    <comp name="--.HHN">
      <acc value="0.0548953167" flag="0"/>
      <vel value="0.0151979195" flag="0"/>
      <psa03 value="0.1037367859" flag="0"/>
      <psa10 value="0.0053553300" flag="0"/>
      <psa30 value="0.0004091309" flag="0"/>
    </comp>
    <comp name="--.HHZ">
      <acc value="0.0675968552" flag="0"/>
      <vel value="0.0204037785" flag="0"/>
      <psa03 value="0.0723047409" flag="0"/>
      <psa10 value="0.0049023851" flag="0"/>
      <psa30 value="0.0009942542" flag="0"/>
    </comp>
  </station>
</stationlist>
