<?xml version="1.0" encoding="UTF-8" standalone="yes"?>
<!DOCTYPE earthquake SYSTEM "stationlist.dtd">
<stationlist created="" xmlns="ch.ethz.sed.shakemap.usgs.xml">
  <station code="ARPRA" name="ARPRA" netid="KO" insttype="CMG-5T" lat="39.0929" lon="38.3356">
    <comp name="--.HNE">
      <acc value="0.0490810698" flag="0"/>
      <vel value="0.0504770308" flag="0"/>
      <psa03 value="0.1522322010" flag="0"/>
      <psa10 value="0.0595980746" flag="0"/>
      <psa30 value="0.0054245279" flag="0"/>
    </comp>
    <comp name="--.HNN">
      <acc value="0.0464743690" flag="0"/>
      <vel value="0.0293549458" flag="0"/>
      <psa03 value="0.1173095676" flag="0"/>
      <psa10 value="0.0372970814" flag="0"/>
      <psa30 value="0.0027413627" flag="0"/>
    </comp>
    <comp name="--.HNZ">
      <acc value="0.0285531298" flag="0"/>
      <vel value="0.0166801604" flag="0"/>
      <psa03 value="0.0623310335" flag="0"/>
      <psa10 value="0.0429587614" flag="0"/>
      <psa30 value="0.0020798827" flag="0"/>
    </comp>
  </station>
  <station code="DARE" name="DARE" netid="KO" insttype="CMG-3ESP" lat="38.5712" lon="37.4832">
    <comp name="--.HHE">
      <acc value="0.0079430138" flag="0"/>
      <vel value="0.0062252270" flag="0"/>
      <psa03 value="0.0226257131" flag="0"/>
      <psa10 value="0.0075225379" flag="0"/>
      <psa30 value="0.0012056292" flag="0"/>
    </comp>
    <comp name="--.HHN">
      <acc value="0.0092551222" flag="0"/>
      <vel value="0.0062391646" flag="0"/>
      <psa03 value="0.0182502355" flag="0"/>
      <psa10 value="0.0082024795" flag="0"/>
      <psa30 value="0.0007811078" flag="0"/>
    </comp>
    <comp name="--.HHZ">
      <acc value="0.0066028157" flag="0"/>
      <vel value="0.0045596933" flag="0"/>
      <psa03 value="0.0198543221" flag="0"/>
      <psa10 value="0.0082775378" flag="0"/>
      <psa30 value="0.0011160739" flag="0"/>
    </comp>
  </station>
  <station code="KHMN" name="KHMN" netid="KO" insttype="CMG-5T" lat="37.3916" lon="37.1574">
    <comp name="--.HNE">
      <acc value="0.0628886873" flag="0"/>
      <vel value="0.0252516742" flag="0"/>
      <psa03 value="0.0790748474" flag="0"/>
      <psa10 value="0.0131446686" flag="0"/>
      <psa30 value="0.0023116881" flag="0"/>
    </comp>
    <comp name="--.HNN">
      <acc value="0.0802981414" flag="0"/>
      <vel value="0.0273694205" flag="0"/>
      <psa03 value="0.0668234852" flag="0"/>
      <psa10 value="0.0334002678" flag="0"/>
      <psa30 value="0.0032231420" flag="0"/>
    </comp>
    <comp name="--.HNZ">
      <acc value="0.0302513141" flag="0"/>
      <vel value="0.0092609733" flag="0"/>
      <psa03 value="0.0336948823" flag="0"/>
      <psa10 value="0.0086140182" flag="0"/>
      <psa30 value="0.0017729557" flag="0"/>
    </comp>
  </station>
  <station code="KMRS" name="KMRS" netid="KO" insttype="CMG-3T" lat="37.5053" lon="36.9">
    <comp name="--.HHN">
      <acc value="0.0259495226" flag="0"/>
      <vel value="0.0189980238" flag="0"/>
      <psa03 value="0.0650440644" flag="0"/>
      <psa10 value="0.0238746232" flag="0"/>
      <psa30 value="0.0050658139" flag="0"/>
    </comp>
    <comp name="--.HHZ">
      <acc value="0.0126362881" flag="0"/>
      <vel value="0.0073058899" flag="0"/>
      <psa03 value="0.0420148178" flag="0"/>
      <psa10 value="0.0131766872" flag="0"/>
      <psa30 value="0.0027583017" flag="0"/>
    </comp>
  </station>
  <station code="SVRC" name="SVRC" netid="KO" insttype="CMG-3T" lat="38.3775" lon="39.306">
    <comp name="--.HHZ">
      <acc value="0.0406872555" flag="0"/>
      <vel value="0.0140584870" flag="0"/>
      <psa03 value="0.0875676718" flag="0"/>
      <psa10 value="0.0181369597" flag="0"/>
      <psa30 value="0.0029574518" flag="0"/>
    </comp>
  </station>
</stationlist>
