<?xml version="1.0" encoding="UTF-8" standalone="yes"?>
<!DOCTYPE earthquake SYSTEM "stationlist.dtd">
<stationlist created="" xmlns="ch.ethz.sed.shakemap.usgs.xml">
  <station code="AGRB" name="AGRB" netid="KO" insttype="CMG-3T" lat="39.5755" lon="42.992">
    <comp name="--.HHE">
      <acc value="0.0137830859" flag="0"/>
      <vel value="0.0091437087" flag="0"/>
      <psa03 value="0.0534649390" flag="0"/>
      <psa10 value="0.0105070774" flag="0"/>
      <psa30 value="0.0005463269" flag="0"/>
    </comp>
    <comp name="--.HHN">
      <acc value="0.0158797317" flag="0"/>
      <vel value="0.0094396376" flag="0"/>
      <psa03 value="0.0480351114" flag="0"/>
      <psa10 value="0.0076969705" flag="0"/>
      <psa30 value="0.0005484182" flag="0"/>
    </comp>
    <comp name="--.HHZ">
      <acc value="0.0082231025" flag="0"/>
      <vel value="0.0053048961" flag="0"/>
      <psa03 value="0.0249584939" flag="0"/>
      <psa10 value="0.0102474973" flag="0"/>
      <psa30 value="0.0003726321" flag="0"/>
    </comp>
  </station>
  <station code="KARO" name="KARO" netid="KO" insttype="CMG-3T" lat="39.3089" lon="41.0493">
    <comp name="--.HHE">
      <acc value="0.0470428589" flag="0"/>
      <vel value="0.0264026127" flag="0"/>
      <psa03 value="0.1606468999" flag="0"/>
      <psa10 value="0.0184681543" flag="0"/>
      <psa30 value="0.0011104946" flag="0"/>
    </comp>
    <comp name="--.HHN">
      <acc value="0.0646998028" flag="0"/>
      <vel value="0.0258370683" flag="0"/>
      <psa03 value="0.1827094929" flag="0"/>
      <psa10 value="0.0181870450" flag="0"/>
      <psa30 value="0.0012055658" flag="0"/>
    </comp>
    <comp name="--.HHZ">
      <acc value="0.0241245705" flag="0"/>
      <vel value="0.0099487776" flag="0"/>
      <psa03 value="0.0625218169" flag="0"/>
      <psa10 value="0.0062580835" flag="0"/>
      <psa30 value="0.0008067349" flag="0"/>
    </comp>
  </station>
  <station code="KOPR" name="KOPR" netid="KO" insttype="CMG-3T" lat="39.9917" lon="41.8535">
    <comp name="--.HHN">
      <acc value="0.0786494637" flag="0"/>
      <vel value="0.0460333898" flag="0"/>
      <psa03 value="0.1604590452" flag="0"/>
      <psa10 value="0.0478395806" flag="0"/>
      <psa30 value="0.0038584999" flag="0"/>
    </comp>
    <comp name="--.HHZ">
      <acc value="0.1109838425" flag="0"/>
      <vel value="0.0363294896" flag="0"/>
      <psa03 value="0.1528633557" flag="0"/>
      <psa10 value="0.0685778849" flag="0"/>
      <psa30 value="0.0073532591" flag="0"/>
    </comp>
    <comp name="--.HHE">
      <acc value="0.0966763468" flag="0"/>
      <vel value="0.0460448271" flag="0"/>
      <psa03 value="0.1604138404" flag="0"/>
      <psa10 value="0.0794556686" flag="0"/>
      <psa30 value="0.0051193801" flag="0"/>
    </comp>
  </station>
  <station code="MLAZ" name="MLAZ" netid="KO" insttype="CMG-3T" lat="39.141" lon="42.5496">
    <comp name="--.HHZ">
      <acc value="0.0198983743" flag="0"/>
      <vel value="0.0070720901" flag="0"/>
      <psa03 value="0.0279195382" flag="0"/>
      <psa10 value="0.0077444368" flag="0"/>
      <psa30 value="0.0004211855" flag="0"/>
    </comp>
    <comp name="--.HHN">
      <acc value="0.0251945502" flag="0"/>
      <vel value="0.0103950317" flag="0"/>
      <psa03 value="0.0596455289" flag="0"/>
      <psa10 value="0.0114907993" flag="0"/>
      <psa30 value="0.0011120110" flag="0"/>
    </comp>
    <comp name="--.HHE">
      <acc value="0.0241012166" flag="0"/>
      <vel value="0.0110801443" flag="0"/>
      <psa03 value="0.0705866765" flag="0"/>
      <psa10 value="0.0145045398" flag="0"/>
      <psa30 value="0.0009857097" flag="0"/>
    </comp>
  </station>
  <station code="SENK" name="SENK" netid="KO" insttype="CMG-3T" lat="40.5614" lon="42.3505">
    <comp name="--.HHE">
      <acc value="0.0100612578" flag="0"/>
      <vel value="0.0052489252" flag="0"/>
      <psa03 value="0.0271727280" flag="0"/>
      <psa10 value="0.0039954676" flag="0"/>
      <psa30 value="0.0002333943" flag="0"/>
    </comp>
    <comp name="--.HHN">
      <acc value="0.0086170774" flag="0"/>
      <vel value="0.0040856949" flag="0"/>
      <psa03 value="0.0243967424" flag="0"/>
      <psa10 value="0.0034754248" flag="0"/>
      <psa30 value="0.0002385730" flag="0"/>
    </comp>
    <comp name="--.HHZ">
      <acc value="0.0079526556" flag="0"/>
      <vel value="0.0036825228" flag="0"/>
      <psa03 value="0.0257873507" flag="0"/>
      <psa10 value="0.0021521947" flag="0"/>
      <psa30 value="0.0002471035" flag="0"/>
    </comp>
  </station>
  <station code="VRTB" name="VRTB" netid="KO" insttype="CMG-3ESPC" lat="39.1603" lon="41.4558">
    <comp name="--.HHN">
      <acc value="0.0179337279" flag="0"/>
      <vel value="0.0127998959" flag="0"/>
      <psa03 value="0.0540349015" flag="0"/>
      <psa10 value="0.0228504571" flag="0"/>
      <psa30 value="0.0026892952" flag="0"/>
    </comp>
    <comp name="--.HHZ">
      <acc value="0.0156268463" flag="0"/>
      <vel value="0.0128983189" flag="0"/>
      <psa03 value="0.0380021366" flag="0"/>
      <psa10 value="0.0239084137" flag="0"/>
      <psa30 value="0.0021284700" flag="0"/>
    </comp>
    <comp name="--.HHE">
      <acc value="0.0078077434" flag="0"/>
      <vel value="0.0073747368" flag="0"/>
      <psa03 value="0.0209801384" flag="0"/>
      <psa10 value="0.0090747265" flag="0"/>
      <psa30 value="0.0008068756" flag="0"/>
    </comp>
  </station>
  <station code="YEDI" name="YEDI" netid="KO" insttype="CMG-3T" lat="39.4377" lon="40.5443">
    <comp name="--.HHZ">
      <acc value="0.0000273127" flag="0"/>
      <vel value="0.0000028960" flag="0"/>
      <psa03 value="0.0000099782" flag="0"/>
      <psa10 value="0.0000032289" flag="0"/>
      <psa30 value="0.0000008457" flag="0"/>
    </comp>
    <comp name="--.HHE">
      <acc value="0.0149692198" flag="0"/>
      <vel value="0.0045886860" flag="0"/>
      <psa03 value="0.0210050741" flag="0"/>
      <psa10 value="0.0044635134" flag="0"/>
      <psa30 value="0.0002424343" flag="0"/>
    </comp>
    <comp name="--.HHN">
      <acc value="0.0134980053" flag="0"/>
      <vel value="0.0050091250" flag="0"/>
      <psa03 value="0.0285987125" flag="0"/>
      <psa10 value="0.0046867257" flag="0"/>
      <psa30 value="0.0004447032" flag="0"/>
    </comp>
  </station>
</stationlist>
