<?xml version="1.0" encoding="UTF-8" standalone="yes"?>
<!DOCTYPE earthquake SYSTEM "stationlist.dtd">
<stationlist created="" xmlns="ch.ethz.sed.shakemap.usgs.xml">
  <station code="IMMV" name="IMMV" netid="GE" insttype="STS-2/N" commtype="DIG" lat="35.4606" lon="23.9811">
    <comp name="--.HHN">
      <acc value="0.0553089050" flag="0"/>
      <vel value="0.0331187051" flag="0"/>
      <psa03 value="0.1487191369" flag="0"/>
      <psa10 value="0.0719503373" flag="0"/>
      <psa30 value="0.0097481169" flag="0"/>
    </comp>
    <comp name="--.HHZ">
      <acc value="0.0274788905" flag="0"/>
      <vel value="0.0249274718" flag="0"/>
      <psa03 value="0.0827651508" flag="0"/>
      <psa10 value="0.0269184997" flag="0"/>
      <psa30 value="0.0060176788" flag="0"/>
    </comp>
    <comp name="--.HHE">
      <acc value="0.0558192729" flag="0"/>
      <vel value="0.0587120833" flag="0"/>
      <psa03 value="0.2259004304" flag="0"/>
      <psa10 value="0.0816288679" flag="0"/>
      <psa30 value="0.0078342096" flag="0"/>
    </comp>
  </station>
  <station code="KTHA" name="KTHA" netid="GE" insttype="STS-2/N" commtype="DIG" lat="36.2566" lon="23.0621">
    <comp name="--.HHN">
      <acc value="0.0307228253" flag="0"/>
      <vel value="0.0134306195" flag="0"/>
      <psa03 value="0.0755421908" flag="0"/>
      <psa10 value="0.0167502382" flag="0"/>
      <psa30 value="0.0033637078" flag="0"/>
    </comp>
    <comp name="--.HHZ">
      <acc value="0.0273919854" flag="0"/>
      <vel value="0.0121586443" flag="0"/>
      <psa03 value="0.0544058628" flag="0"/>
      <psa10 value="0.0267293130" flag="0"/>
      <psa30 value="0.0022405868" flag="0"/>
    </comp>
    <comp name="--.HHE">
      <acc value="0.0455340982" flag="0"/>
      <vel value="0.0239099129" flag="0"/>
      <psa03 value="0.1312502715" flag="0"/>
      <psa10 value="0.0285003568" flag="0"/>
      <psa30 value="0.0045458612" flag="0"/>
    </comp>
  </station>
  <station code="ATEI" name="ATEI" netid="HC" insttype="DC" commtype="DIG" lat="35.5193" lon="24.0432">
    <comp name="--.HNN">
      <acc value="0.0494293324" flag="0"/>
      <vel value="0.0551567995" flag="0"/>
      <psa03 value="0.1919875702" flag="0"/>
      <psa10 value="0.0978045800" flag="0"/>
      <psa30 value="0.0125004640" flag="0"/>
    </comp>
    <comp name="--.HNZ">
      <acc value="0.0289952224" flag="0"/>
      <vel value="0.0202635402" flag="0"/>
      <psa03 value="0.0616382344" flag="0"/>
      <psa10 value="0.0163316888" flag="0"/>
      <psa30 value="0.0012188782" flag="0"/>
    </comp>
    <comp name="--.HNE">
      <acc value="0.0468207226" flag="0"/>
      <vel value="0.0505984964" flag="0"/>
      <psa03 value="0.1092570845" flag="0"/>
      <psa10 value="0.0987827105" flag="0"/>
      <psa30 value="0.0079243340" flag="0"/>
    </comp>
  </station>
  <station code="CHAN" name="CHAN" netid="HC" insttype="120" commtype="DIG" lat="35.5193" lon="24.0428">
    <comp name="--.HHN">
      <acc value="0.0941255966" flag="0"/>
      <vel value="0.1134511875" flag="0"/>
      <psa03 value="0.3648885426" flag="0"/>
      <psa10 value="0.1985408984" flag="0"/>
      <psa30 value="0.0236468263" flag="0"/>
    </comp>
    <comp name="--.HHE">
      <acc value="0.0944211199" flag="0"/>
      <vel value="0.1047606460" flag="0"/>
      <psa03 value="0.2148484224" flag="0"/>
      <psa10 value="0.1845445431" flag="0"/>
      <psa30 value="0.0139119628" flag="0"/>
    </comp>
    <comp name="--.HHZ">
      <acc value="0.0546310933" flag="0"/>
      <vel value="0.0383270021" flag="0"/>
      <psa03 value="0.1161885372" flag="0"/>
      <psa10 value="0.0301275088" flag="0"/>
      <psa30 value="0.0016626211" flag="0"/>
    </comp>
  </station>
  <station code="KNDR" name="KNDR" netid="HC" insttype="120" commtype="DIG" lat="35.2348" lon="23.6248">
    <comp name="--.HHZ">
      <acc value="0.0574864505" flag="0"/>
      <vel value="0.0386838531" flag="0"/>
      <psa03 value="0.1837058066" flag="0"/>
      <psa10 value="0.0533102647" flag="0"/>
      <psa30 value="0.0060349603" flag="0"/>
    </comp>
    <comp name="--.HHE">
      <acc value="0.0890595971" flag="0"/>
      <vel value="0.0994747890" flag="0"/>
      <psa03 value="0.2277573428" flag="0"/>
      <psa10 value="0.1377243898" flag="0"/>
      <psa30 value="0.0129380383" flag="0"/>
    </comp>
    <comp name="--.HHN">
      <acc value="0.0818218622" flag="0"/>
      <vel value="0.0805969718" flag="0"/>
      <psa03 value="0.2905600082" flag="0"/>
      <psa10 value="0.1904610326" flag="0"/>
      <psa30 value="0.0083413078" flag="0"/>
    </comp>
  </station>
  <station code="KTHR" name="KTHR" netid="HC" insttype="120s" commtype="DIG" lat="36.2447" lon="22.9939">
    <comp name="--.HHE">
      <acc value="0.1443280558" flag="0"/>
      <vel value="0.0689623791" flag="0"/>
      <psa03 value="0.4808311843" flag="0"/>
      <psa10 value="0.0577761479" flag="0"/>
      <psa30 value="0.0068294150" flag="0"/>
    </comp>
    <comp name="--.HHZ">
      <acc value="0.0761063717" flag="0"/>
      <vel value="0.0391672784" flag="0"/>
      <psa03 value="0.2064053133" flag="0"/>
      <psa10 value="0.0306659040" flag="0"/>
      <psa30 value="0.0024304370" flag="0"/>
    </comp>
    <comp name="--.HHN">
      <acc value="0.1697399029" flag="0"/>
      <vel value="0.0871976744" flag="0"/>
      <psa03 value="0.6122279038" flag="0"/>
      <psa10 value="0.0809145547" flag="0"/>
      <psa30 value="0.0042464385" flag="0"/>
    </comp>
  </station>
  <station code="ARE2" name="ARE2" netid="HI" insttype="unknown" commtype="DIG" lat="36.6663" lon="22.3826">
    <comp name="--.HNE">
      <acc value="0.0131455287" flag="0"/>
      <vel value="0.0162701616" flag="0"/>
      <psa03 value="0.0303567859" flag="0"/>
      <psa10 value="0.0155347696" flag="0"/>
      <psa30 value="0.0036608020" flag="0"/>
    </comp>
    <comp name="--.HNN">
      <acc value="0.0102056269" flag="0"/>
      <vel value="0.0123001343" flag="0"/>
      <psa03 value="0.0394327471" flag="0"/>
      <psa10 value="0.0093021451" flag="0"/>
      <psa30 value="0.0031217135" flag="0"/>
    </comp>
    <comp name="--.HNZ">
      <acc value="0.0081875259" flag="0"/>
      <vel value="0.0107630910" flag="0"/>
      <psa03 value="0.0212979800" flag="0"/>
      <psa10 value="0.0106950009" flag="0"/>
      <psa30 value="0.0036686413" flag="0"/>
    </comp>
  </station>
  <station code="CH01" name="CH01" netid="HI" insttype="CMG-5TD,ACCELEROMETER,GURALP" commtype="DIG" lat="35.517" lon="24.0208">
    <comp name="--.HNE">
      <acc value="0.0499005971" flag="0"/>
      <vel value="0.0898443439" flag="0"/>
      <psa03 value="0.1259330494" flag="0"/>
      <psa10 value="0.1264410558" flag="0"/>
      <psa30 value="0.0180062241" flag="0"/>
    </comp>
    <comp name="--.HNN">
      <acc value="0.0435510824" flag="0"/>
      <vel value="0.0430345243" flag="0"/>
      <psa03 value="0.1310883406" flag="0"/>
      <psa10 value="0.0871266814" flag="0"/>
      <psa30 value="0.0212327467" flag="0"/>
    </comp>
    <comp name="--.HNZ">
      <acc value="0.0248426719" flag="0"/>
      <vel value="0.0320756445" flag="0"/>
      <psa03 value="0.0924128877" flag="0"/>
      <psa10 value="0.0743703397" flag="0"/>
      <psa30 value="0.0077387092" flag="0"/>
    </comp>
  </station>
  <station code="CH02" name="CH02" netid="HI" insttype="unknown" commtype="DIG" lat="35.5145" lon="24.0315">
    <comp name="--.HNE">
      <acc value="0.0629139426" flag="0"/>
      <vel value="0.0961688666" flag="0"/>
      <psa03 value="0.2006023452" flag="0"/>
      <psa10 value="0.1224824740" flag="0"/>
      <psa30 value="0.0159817066" flag="0"/>
    </comp>
    <comp name="--.HNN">
      <acc value="0.0620652699" flag="0"/>
      <vel value="0.0536943321" flag="0"/>
      <psa03 value="0.1691213180" flag="0"/>
      <psa10 value="0.0870016194" flag="0"/>
      <psa30 value="0.0167752136" flag="0"/>
    </comp>
    <comp name="--.HNZ">
      <acc value="0.0251634086" flag="0"/>
      <vel value="0.0271601386" flag="0"/>
      <psa03 value="0.0767187438" flag="0"/>
      <psa10 value="0.0466848930" flag="0"/>
      <psa30 value="0.0080092640" flag="0"/>
    </comp>
  </station>
  <station code="GTH2" name="GTH2" netid="HI" insttype="unknown" commtype="DIG" lat="36.7603" lon="22.5659">
    <comp name="--.HNE">
      <acc value="0.0371339792" flag="0"/>
      <vel value="0.0330350871" flag="0"/>
      <psa03 value="0.0699878317" flag="0"/>
      <psa10 value="0.0318150237" flag="0"/>
      <psa30 value="0.0081457575" flag="0"/>
    </comp>
    <comp name="--.HNN">
      <acc value="0.0210227345" flag="0"/>
      <vel value="0.0186103826" flag="0"/>
      <psa03 value="0.0622229964" flag="0"/>
      <psa10 value="0.0224069076" flag="0"/>
      <psa30 value="0.0033834544" flag="0"/>
    </comp>
    <comp name="--.HNZ">
      <acc value="0.0120619741" flag="0"/>
      <vel value="0.0067300738" flag="0"/>
      <psa03 value="0.0368947428" flag="0"/>
      <psa10 value="0.0106768129" flag="0"/>
      <psa30 value="0.0015852818" flag="0"/>
    </comp>
  </station>
  <station code="KIS1" name="KIS1" netid="HI" insttype="unknown" commtype="DIG" lat="35.4939" lon="23.659">
    <comp name="--.HNE">
      <acc value="0.0904506208" flag="0"/>
      <vel value="0.0640644728" flag="0"/>
      <psa03 value="0.2472085851" flag="0"/>
      <psa10 value="0.1011814600" flag="0"/>
      <psa30 value="0.0068107840" flag="0"/>
    </comp>
    <comp name="--.HNZ">
      <acc value="0.0595611962" flag="0"/>
      <vel value="0.0413861663" flag="0"/>
      <psa03 value="0.1947517840" flag="0"/>
      <psa10 value="0.0502126586" flag="0"/>
      <psa30 value="0.0049288747" flag="0"/>
    </comp>
    <comp name="--.HNN">
      <acc value="0.1176658413" flag="0"/>
      <vel value="0.0915813180" flag="0"/>
      <psa03 value="0.3425897822" flag="0"/>
      <psa10 value="0.1017400241" flag="0"/>
      <psa30 value="0.0107414917" flag="0"/>
    </comp>
  </station>
  <station code="IMMV" name="IMMV" netid="HL" insttype="120" commtype="DIG" lat="35.4606" lon="23.9811">
    <comp name="--.HHE">
      <acc value="0.0544386025" flag="0"/>
      <vel value="0.0583369695" flag="0"/>
      <psa03 value="0.2194718729" flag="0"/>
      <psa10 value="0.0811674746" flag="0"/>
      <psa30 value="0.0078107946" flag="0"/>
    </comp>
    <comp name="--.HHN">
      <acc value="0.0540578844" flag="0"/>
      <vel value="0.0327165593" flag="0"/>
      <psa03 value="0.1444792049" flag="0"/>
      <psa10 value="0.0715352027" flag="0"/>
      <psa30 value="0.0097483949" flag="0"/>
    </comp>
    <comp name="--.HHZ">
      <acc value="0.0270024821" flag="0"/>
      <vel value="0.0244515611" flag="0"/>
      <psa03 value="0.0804679446" flag="0"/>
      <psa10 value="0.0267501420" flag="0"/>
      <psa30 value="0.0060147076" flag="0"/>
    </comp>
  </station>
  <station code="MNVA" name="MNVA" netid="HL" insttype="CMG-5" commtype="DIG" lat="36.6871" lon="23.0373">
    <comp name="00.HNE">
      <acc value="0.0125246413" flag="0"/>
      <vel value="0.0073117025" flag="0"/>
      <psa03 value="0.0327152311" flag="0"/>
      <psa10 value="0.0088773258" flag="0"/>
      <psa30 value="0.0027565349" flag="0"/>
    </comp>
    <comp name="00.HNZ">
      <acc value="0.0110596420" flag="0"/>
      <vel value="0.0087935368" flag="0"/>
      <psa03 value="0.0412459359" flag="0"/>
      <psa10 value="0.0086505442" flag="0"/>
      <psa30 value="0.0027398073" flag="0"/>
    </comp>
    <comp name="00.HNN">
      <acc value="0.0119570496" flag="0"/>
      <vel value="0.0071453504" flag="0"/>
      <psa03 value="0.0407356451" flag="0"/>
      <psa10 value="0.0073344617" flag="0"/>
      <psa30 value="0.0034002053" flag="0"/>
    </comp>
  </station>
  <station code="VLI" name="VLI" netid="HL" insttype="60" commtype="DIG" lat="36.718" lon="22.9469">
    <comp name="--.HHE">
      <acc value="0.0142093245" flag="0"/>
      <vel value="0.0103399803" flag="0"/>
      <psa03 value="0.0430784438" flag="0"/>
      <psa10 value="0.0097316603" flag="0"/>
      <psa30 value="0.0015298431" flag="0"/>
    </comp>
    <comp name="--.HHZ">
      <acc value="0.0194145795" flag="0"/>
      <vel value="0.0144572334" flag="0"/>
      <psa03 value="0.0392970386" flag="0"/>
      <psa10 value="0.0114310734" flag="0"/>
      <psa30 value="0.0036792337" flag="0"/>
    </comp>
    <comp name="--.HHN">
      <acc value="0.0181985386" flag="0"/>
      <vel value="0.0179999505" flag="0"/>
      <psa03 value="0.0489644541" flag="0"/>
      <psa10 value="0.0252697506" flag="0"/>
      <psa30 value="0.0045631964" flag="0"/>
    </comp>
  </station>
</stationlist>
