<stationlist xmlns:esm="https://esm-db.eu/esmws/shakemap/1/" created="1781488466">
	<station code="ATEI" name="ATEI" netid="HC" source="Seismological Network of Crete (HC)" insttype="" lat="35.5193" lon="24.0432" esm:processing="automatic (Paolucci et al 2011)" esm:quality="best">
		<comp name="--.HNE" depth="0.0">
			<acc value="0.0464150669445987" flag="0"/>
			<vel value="0.0493457312439484" flag="0"/>
			<psa03 value="0.10962807482193" flag="0"/>
			<psa10 value="0.0986522277259268" flag="0"/>
			<psa30 value="0.00848514043224406" flag="0"/>
		</comp>
		<comp name="--.HNN" depth="0.0">
			<acc value="0.0492631450253549" flag="0"/>
			<vel value="0.0552152269260493" flag="0"/>
			<psa03 value="0.191997968923164" flag="0"/>
			<psa10 value="0.0977433850195579" flag="0"/>
			<psa30 value="0.0146346828092461" flag="0"/>
		</comp>
		<comp name="--.HNZ" depth="0.0">
			<acc value="0.02882149571026" flag="0"/>
			<vel value="0.0254143892790353" flag="0"/>
			<psa03 value="0.0771158012517015" flag="0"/>
			<psa10 value="0.0289770052093833" flag="0"/>
			<psa30 value="0.00726019595235065" flag="0"/>
		</comp>
	</station>
	<station code="ARE2" name="ARE2" netid="HI" source="ITSAK Strong Motion Network" insttype="" lat="36.66629" lon="22.382635" esm:processing="automatic (Paolucci et al 2011)" esm:quality="best">
		<comp name="--.HNE" depth="0.0">
			<acc value="0.0131187344488785" flag="0"/>
			<vel value="0.0174544790668656" flag="0"/>
			<psa03 value="0.0300606007422694" flag="0"/>
			<psa10 value="0.015454211265651" flag="0"/>
			<psa30 value="0.00365233403253826" flag="0"/>
		</comp>
		<comp name="--.HNN" depth="0.0">
			<acc value="0.0102928292885262" flag="0"/>
			<vel value="0.0125725254897948" flag="0"/>
			<psa03 value="0.039334850532469" flag="0"/>
			<psa10 value="0.00927082227147665" flag="0"/>
			<psa30 value="0.00352762077089674" flag="0"/>
		</comp>
		<comp name="--.HNZ" depth="0.0">
			<acc value="0.00818125525768311" flag="0"/>
			<vel value="0.0102195711499944" flag="0"/>
			<psa03 value="0.0212271796339732" flag="0"/>
			<psa10 value="0.0107561653556663" flag="0"/>
			<psa30 value="0.00422243888251998" flag="0"/>
		</comp>
	</station>
	<station code="KIS1" name="KIS1" netid="HI" source="ITSAK Strong Motion Network" insttype="" lat="35.493933" lon="23.658993" esm:processing="automatic (Paolucci et al 2011)" esm:quality="best">
		<comp name="--.HNE" depth="0.0">
			<acc value="0.0904492089050943" flag="0"/>
			<vel value="0.0649962661710827" flag="0"/>
			<psa03 value="0.250617748029172" flag="0"/>
			<psa10 value="0.101324197230793" flag="0"/>
			<psa30 value="0.00789420711914555" flag="0"/>
		</comp>
		<comp name="--.HNN" depth="0.0">
			<acc value="0.118069433424194" flag="0"/>
			<vel value="0.0955322682521794" flag="0"/>
			<psa03 value="0.344821676077076" flag="0"/>
			<psa10 value="0.101973702757347" flag="0"/>
			<psa30 value="0.0112532221374053" flag="0"/>
		</comp>
		<comp name="--.HNZ" depth="0.0">
			<acc value="0.0595360481055507" flag="0"/>
			<vel value="0.0410512198845672" flag="0"/>
			<psa03 value="0.196367300036573" flag="0"/>
			<psa10 value="0.0503162207026823" flag="0"/>
			<psa30 value="0.00538740272232368" flag="0"/>
		</comp>
	</station>
	<station code="LEO1" name="LEO1" netid="HI" source="ITSAK Strong Motion Network" insttype="" lat="37.1689" lon="22.8637" esm:processing="automatic (Paolucci et al 2011)" esm:quality="best">
		<comp name="--.HNE" depth="0.0">
			<acc value="0.0136062281479502" flag="0"/>
			<vel value="0.00738628674631034" flag="0"/>
			<psa03 value="0.0355203530490646" flag="0"/>
			<psa10 value="0.0068290458282709" flag="0"/>
			<psa30 value="0.00171928951949283" flag="0"/>
		</comp>
		<comp name="--.HNN" depth="0.0">
			<acc value="0.0101554911482817" flag="0"/>
			<vel value="0.00618326502578039" flag="0"/>
			<psa03 value="0.025282388375817" flag="0"/>
			<psa10 value="0.00959311205909336" flag="0"/>
			<psa30 value="0.001642467972109" flag="0"/>
		</comp>
		<comp name="--.HNZ" depth="0.0">
			<acc value="0.0107047497000739" flag="0"/>
			<vel value="0.00553732522333454" flag="0"/>
			<psa03 value="0.0152727591411716" flag="0"/>
			<psa10 value="0.00763771846136408" flag="0"/>
			<psa30 value="0.00262520932390051" flag="0"/>
		</comp>
	</station>
	<station code="RTH1" name="RTH1" netid="HI" source="ITSAK Strong Motion Network" insttype="" lat="35.365393" lon="24.471773" esm:processing="automatic (Paolucci et al 2011)" esm:quality="best">
		<comp name="--.HNE" depth="0.0">
			<acc value="0.0166387801109078" flag="0"/>
			<vel value="0.0208252310287742" flag="0"/>
			<psa03 value="0.0594783307725092" flag="0"/>
			<psa10 value="0.0240293418259661" flag="0"/>
			<psa30 value="0.00545193741409696" flag="0"/>
		</comp>
		<comp name="--.HNN" depth="0.0">
			<acc value="0.0157747874268123" flag="0"/>
			<vel value="0.0175197447777432" flag="0"/>
			<psa03 value="0.0662107663466582" flag="0"/>
			<psa10 value="0.024232320272292" flag="0"/>
			<psa30 value="0.00402088094696261" flag="0"/>
		</comp>
		<comp name="--.HNZ" depth="0.0">
			<acc value="0.0101070511246322" flag="0"/>
			<vel value="0.0090993705693038" flag="0"/>
			<psa03 value="0.0289614654299492" flag="0"/>
			<psa10 value="0.013752453532553" flag="0"/>
			<psa30 value="0.00267235161351251" flag="0"/>
		</comp>
	</station>
	<station code="MNVA" name="MNVA" netid="HL" source="National Observatory of Athens Seismic Network" insttype="" lat="36.68709" lon="23.03734" esm:processing="automatic (Paolucci et al 2011)" esm:quality="best">
		<comp name="00.HNE" depth="0.0">
			<acc value="0.0124685172611532" flag="0"/>
			<vel value="0.00765402126041181" flag="0"/>
			<psa03 value="0.0327604540734691" flag="0"/>
			<psa10 value="0.00888857726212074" flag="0"/>
			<psa30 value="0.00315957763984557" flag="0"/>
		</comp>
		<comp name="00.HNN" depth="0.0">
			<acc value="0.012004144882954" flag="0"/>
			<vel value="0.00803667096027444" flag="0"/>
			<psa03 value="0.040893956419749" flag="0"/>
			<psa10 value="0.00725325611762065" flag="0"/>
			<psa30 value="0.00390133636105382" flag="0"/>
		</comp>
		<comp name="00.HNZ" depth="0.0">
			<acc value="0.0109866483606878" flag="0"/>
			<vel value="0.00876328309264772" flag="0"/>
			<psa03 value="0.0412876048928618" flag="0"/>
			<psa10 value="0.00863530892183617" flag="0"/>
			<psa30 value="0.00310599534028119" flag="0"/>
		</comp>
	</station>
	<station code="PYL" name="PYL" netid="HP" source="University of Patras, Seismological Laboratory (PSLNET)" insttype="" lat="36.8955" lon="21.742" esm:processing="manual (Paolucci et al 2011)" esm:quality="good">
		<comp name="--.HNE" depth="0.0">
			<acc value="0.00611065426346782" flag="0"/>
			<vel value="0.00740629416475223" flag="0"/>
			<psa03 value="0.0123523677629087" flag="0"/>
			<psa10 value="0.00659552535868585" flag="0"/>
			<psa30 value="0.00216242074976206" flag="0"/>
		</comp>
		<comp name="--.HNN" depth="0.0">
			<acc value="0.00467812707905924" flag="0"/>
			<vel value="0.00668668577698511" flag="0"/>
			<psa03 value="0.00976838213341727" flag="0"/>
			<psa10 value="0.00675612740403316" flag="0"/>
			<psa30 value="0.00159512264821365" flag="0"/>
		</comp>
		<comp name="--.HNZ" depth="0.0">
			<acc value="0.00366706245717702" flag="0"/>
			<vel value="0.00531986238209753" flag="0"/>
			<psa03 value="0.0124376702887824" flag="0"/>
			<psa10 value="0.00487672696547773" flag="0"/>
			<psa30 value="0.00191652237686833" flag="0"/>
		</comp>
	</station>
	<station code="VALY" name="VALY" netid="HP" source="University of Patras, Seismological Laboratory (PSLNET)" insttype="" lat="37.1641" lon="21.9836" esm:processing="automatic (Paolucci et al 2011)" esm:quality="best">
		<comp name="--.HNE" depth="0.0">
			<acc value="0.00309587236101763" flag="0"/>
			<vel value="0.00586815421309718" flag="0"/>
			<psa03 value="0.00891841957756935" flag="0"/>
			<psa10 value="0.00762105892025125" flag="0"/>
			<psa30 value="0.00344421003701164" flag="0"/>
		</comp>
		<comp name="--.HNN" depth="0.0">
			<acc value="0.00409747686043257" flag="0"/>
			<vel value="0.00715768342124802" flag="0"/>
			<psa03 value="0.0100727558123047" flag="0"/>
			<psa10 value="0.00875917306472774" flag="0"/>
			<psa30 value="0.0024661419114651" flag="0"/>
		</comp>
		<comp name="--.HNZ" depth="0.0">
			<acc value="0.00319992125236767" flag="0"/>
			<vel value="0.00546731972997534" flag="0"/>
			<psa03 value="0.00603591547477747" flag="0"/>
			<psa10 value="0.00571704653877538" flag="0"/>
			<psa30 value="0.00269035322269743" flag="0"/>
		</comp>
	</station>
</stationlist>
