<stationlist created="1775808532">
	<station code="KTHA" name="KTHA" netid="GE" source="GEOFON" insttype="" lat="36.2566" lon="23.0621">
		<comp name="--.HNE" depth="0.0">
			<acc value="0.0439090309284033" flag="0"/>
			<vel value="0.0191836905750151" flag="0"/>
			<psa03 value="0.129619586661476" flag="0"/>
			<psa10 value="0.0255583668663709" flag="0"/>
			<psa30 value="0.0014657195967299" flag="0"/>
		</comp>
		<comp name="--.HNN" depth="0.0">
			<acc value="0.0295925831425558" flag="0"/>
			<vel value="0.012550786103179" flag="0"/>
			<psa03 value="0.0776616967896018" flag="0"/>
			<psa10 value="0.0165339209161164" flag="0"/>
			<psa30 value="0.00068144930933903" flag="0"/>
		</comp>
		<comp name="--.HNZ" depth="0.0">
			<acc value="0.0266198822607823" flag="0"/>
			<vel value="0.0120240623132874" flag="0"/>
			<psa03 value="0.050845003648624" flag="0"/>
			<psa10 value="0.0238963355149507" flag="0"/>
			<psa30 value="0.000870740078090136" flag="0"/>
		</comp>
	</station>
	<station code="ATEI" name="ATEI" netid="HC" source="Seismological Network of Crete (HC)" insttype="" lat="35.5193" lon="24.0432">
		<comp name="--.HNE" depth="0.0">
			<acc value="0.0464150669445987" flag="0"/>
			<vel value="0.0493457312439484" flag="0"/>
			<psa03 value="0.10962807482193" flag="0"/>
			<psa10 value="0.0986522277259268" flag="0"/>
			<psa30 value="0.00848514043224406" flag="0"/>
		</comp>
		<comp name="--.HNN" depth="0.0">
			<acc value="0.0492631450253549" flag="0"/>
			<vel value="0.0552152269260493" flag="0"/>
			<psa03 value="0.191997968923164" flag="0"/>
			<psa10 value="0.0977433850195579" flag="0"/>
			<psa30 value="0.0146346828092461" flag="0"/>
		</comp>
		<comp name="--.HNZ" depth="0.0">
			<acc value="0.02882149571026" flag="0"/>
			<vel value="0.0254143892790353" flag="0"/>
			<psa03 value="0.0771158012517015" flag="0"/>
			<psa10 value="0.0289770052093833" flag="0"/>
			<psa30 value="0.00726019595235065" flag="0"/>
		</comp>
	</station>
	<station code="G0LD" name="G0LD" netid="HC" source="Seismological Network of Crete (HC)" insttype="" lat="35.4955" lon="24.0306">
		<comp name="--.HNE" depth="0.0">
			<acc value="0.00202472722848662" flag="0"/>
			<vel value="0.00237600925659494" flag="0"/>
			<psa03 value="0.00198643351204418" flag="0"/>
			<psa10 value="0.00206506140955859" flag="0"/>
			<psa30 value="0.00134878372530231" flag="0"/>
		</comp>
		<comp name="--.HNN" depth="0.0">
			<acc value="0.00234981949484914" flag="0"/>
			<vel value="0.00174682483978353" flag="0"/>
			<psa03 value="0.00138584847883741" flag="0"/>
			<psa10 value="0.00136748859722078" flag="0"/>
			<psa30 value="0.00139867817639816" flag="0"/>
		</comp>
		<comp name="--.HNZ" depth="0.0">
			<acc value="0.00246410935827191" flag="0"/>
			<vel value="0.00371535666864582" flag="0"/>
			<psa03 value="0.00198823880741739" flag="0"/>
			<psa10 value="0.00224880436287748" flag="0"/>
			<psa30 value="0.00243179505282095" flag="0"/>
		</comp>
	</station>
	<station code="MULT" name="MULT" netid="HC" source="Seismological Network of Crete (HC)" insttype="" lat="35.5091" lon="24.0118">
		<comp name="--.HNE" depth="0.0">
			<acc value="0.00125773058390242" flag="0"/>
			<vel value="0.00119819662391856" flag="0"/>
			<psa03 value="0.00160096722158587" flag="0"/>
			<psa10 value="0.00144023451003048" flag="0"/>
			<psa30 value="0.000833034715711593" flag="0"/>
		</comp>
		<comp name="--.HNN" depth="0.0">
			<acc value="0.00129412066516225" flag="0"/>
			<vel value="0.00136210765946219" flag="0"/>
			<psa03 value="0.00115311512519702" flag="0"/>
			<psa10 value="0.00109435401902045" flag="0"/>
			<psa30 value="0.000770776633085833" flag="0"/>
		</comp>
		<comp name="--.HNZ" depth="0.0">
			<acc value="0.00186178683860746" flag="0"/>
			<vel value="0.00348262998888158" flag="0"/>
			<psa03 value="0.00300560991419771" flag="0"/>
			<psa10 value="0.0023100126363752" flag="0"/>
			<psa30 value="0.00254365496299102" flag="0"/>
		</comp>
	</station>
	<station code="ARE2" name="ARE2" netid="HI" source="ITSAK Strong Motion Network" insttype="" lat="36.66629" lon="22.382635">
		<comp name="--.HNE" depth="0.0">
			<acc value="0.0131187344488785" flag="0"/>
			<vel value="0.0174544790668656" flag="0"/>
			<psa03 value="0.0300606007422694" flag="0"/>
			<psa10 value="0.015454211265651" flag="0"/>
			<psa30 value="0.00365233403253826" flag="0"/>
		</comp>
		<comp name="--.HNN" depth="0.0">
			<acc value="0.0102928292885262" flag="0"/>
			<vel value="0.0125725254897948" flag="0"/>
			<psa03 value="0.039334850532469" flag="0"/>
			<psa10 value="0.00927082227147665" flag="0"/>
			<psa30 value="0.00352762077089674" flag="0"/>
		</comp>
		<comp name="--.HNZ" depth="0.0">
			<acc value="0.00818125525768311" flag="0"/>
			<vel value="0.0102195711499944" flag="0"/>
			<psa03 value="0.0212271796339732" flag="0"/>
			<psa10 value="0.0107561653556663" flag="0"/>
			<psa30 value="0.00422243888251998" flag="0"/>
		</comp>
	</station>
	<station code="CH01" name="CH01" netid="HI" source="ITSAK Strong Motion Network" insttype="" lat="35.517" lon="24.0208">
		<comp name="--.HNE" depth="0.0">
			<acc value="0.0499381802007311" flag="0"/>
			<vel value="0.0915235822840016" flag="0"/>
			<psa03 value="0.128128383709933" flag="0"/>
			<psa10 value="0.12699241262409" flag="0"/>
			<psa30 value="0.0189409030752049" flag="0"/>
		</comp>
		<comp name="--.HNN" depth="0.0">
			<acc value="0.043607411348036" flag="0"/>
			<vel value="0.0445731897106485" flag="0"/>
			<psa03 value="0.132021527028238" flag="0"/>
			<psa10 value="0.0875853045965831" flag="0"/>
			<psa30 value="0.0243211228216917" flag="0"/>
		</comp>
		<comp name="--.HNZ" depth="0.0">
			<acc value="0.0252839778930172" flag="0"/>
			<vel value="0.0320673016842946" flag="0"/>
			<psa03 value="0.0926599611843436" flag="0"/>
			<psa10 value="0.0745491035122396" flag="0"/>
			<psa30 value="0.00834367689431227" flag="0"/>
		</comp>
	</station>
	<station code="CH02" name="CH02" netid="HI" source="ITSAK Strong Motion Network" insttype="" lat="35.5145" lon="24.0315">
		<comp name="--.HNE" depth="0.0">
			<acc value="0.0626635372058754" flag="0"/>
			<vel value="0.0973917517963302" flag="0"/>
			<psa03 value="0.200985730984958" flag="0"/>
			<psa10 value="0.123104380061014" flag="0"/>
			<psa30 value="0.0170657655232115" flag="0"/>
		</comp>
		<comp name="--.HNN" depth="0.0">
			<acc value="0.0625197036915827" flag="0"/>
			<vel value="0.0528422979726035" flag="0"/>
			<psa03 value="0.169526907408954" flag="0"/>
			<psa10 value="0.0872926352086725" flag="0"/>
			<psa30 value="0.0185518623031631" flag="0"/>
		</comp>
		<comp name="--.HNZ" depth="0.0">
			<acc value="0.0253484556540007" flag="0"/>
			<vel value="0.0288413744934893" flag="0"/>
			<psa03 value="0.0770299309798841" flag="0"/>
			<psa10 value="0.0469392419944163" flag="0"/>
			<psa30 value="0.00881755661985174" flag="0"/>
		</comp>
	</station>
	<station code="CH03" name="CH03" netid="HI" source="ITSAK Strong Motion Network" insttype="" lat="35.53303" lon="24.0705">
		<comp name="--.HNE" depth="0.0">
			<acc value="0.0359371858828646" flag="0"/>
			<vel value="0.0425546923791866" flag="0"/>
			<psa03 value="0.112931626999382" flag="0"/>
			<psa10 value="0.0572073322049995" flag="0"/>
			<psa30 value="0.00846171721390413" flag="0"/>
		</comp>
		<comp name="--.HNN" depth="0.0">
			<acc value="0.0415018364267813" flag="0"/>
			<vel value="0.0414067654941439" flag="0"/>
			<psa03 value="0.0953156371098403" flag="0"/>
			<psa10 value="0.0680713443924891" flag="0"/>
			<psa30 value="0.00824470033760114" flag="0"/>
		</comp>
		<comp name="--.HNZ" depth="0.0">
			<acc value="0.0225945161555736" flag="0"/>
			<vel value="0.017359812945322" flag="0"/>
			<psa03 value="0.0591123377772694" flag="0"/>
			<psa10 value="0.0322542141833942" flag="0"/>
			<psa30 value="0.00442961135667964" flag="0"/>
		</comp>
	</station>
	<station code="GTH2" name="GTH2" netid="HI" source="ITSAK Strong Motion Network" insttype="" lat="36.7603" lon="22.5659">
		<comp name="--.HNE" depth="0.0">
			<acc value="0.0373353085500217" flag="0"/>
			<vel value="0.03446641673382" flag="0"/>
			<psa03 value="0.0686518655575006" flag="0"/>
			<psa10 value="0.0316250087516223" flag="0"/>
			<psa30 value="0.00871419560602518" flag="0"/>
		</comp>
		<comp name="--.HNN" depth="0.0">
			<acc value="0.0211399707687456" flag="0"/>
			<vel value="0.017975706685257" flag="0"/>
			<psa03 value="0.0617604246583625" flag="0"/>
			<psa10 value="0.0224142542093379" flag="0"/>
			<psa30 value="0.00396166077391678" flag="0"/>
		</comp>
		<comp name="--.HNZ" depth="0.0">
			<acc value="0.0118589563516465" flag="0"/>
			<vel value="0.0086357460917349" flag="0"/>
			<psa03 value="0.0367799885770697" flag="0"/>
			<psa10 value="0.0107853197870043" flag="0"/>
			<psa30 value="0.00247205730333078" flag="0"/>
		</comp>
	</station>
	<station code="KAL3" name="KAL3" netid="HI" source="ITSAK Strong Motion Network" insttype="" lat="37.0246" lon="22.103">
		<comp name="--.HNE" depth="0.0">
			<acc value="0.0231799960360129" flag="0"/>
			<vel value="0.030671287576636" flag="0"/>
			<psa03 value="0.0455318548035886" flag="0"/>
			<psa10 value="0.0396730681460593" flag="0"/>
			<psa30 value="0.00928710439175387" flag="0"/>
		</comp>
		<comp name="--.HNN" depth="0.0">
			<acc value="0.0199807687894921" flag="0"/>
			<vel value="0.0243747205721375" flag="0"/>
			<psa03 value="0.0443435521260348" flag="0"/>
			<psa10 value="0.0331177051354319" flag="0"/>
			<psa30 value="0.00855229821445087" flag="0"/>
		</comp>
		<comp name="--.HNZ" depth="0.0">
			<acc value="0.0102839289474932" flag="0"/>
			<vel value="0.0131393867767636" flag="0"/>
			<psa03 value="0.024116456971917" flag="0"/>
			<psa10 value="0.0297855718979582" flag="0"/>
			<psa30 value="0.00382346578584371" flag="0"/>
		</comp>
	</station>
	<station code="KIS1" name="KIS1" netid="HI" source="ITSAK Strong Motion Network" insttype="" lat="35.493933" lon="23.658993">
		<comp name="--.HNE" depth="0.0">
			<acc value="0.0904492089050943" flag="0"/>
			<vel value="0.0649962661710827" flag="0"/>
			<psa03 value="0.250617748029172" flag="0"/>
			<psa10 value="0.101324197230793" flag="0"/>
			<psa30 value="0.00789420711914555" flag="0"/>
		</comp>
		<comp name="--.HNN" depth="0.0">
			<acc value="0.118069433424194" flag="0"/>
			<vel value="0.0955322682521794" flag="0"/>
			<psa03 value="0.344821676077076" flag="0"/>
			<psa10 value="0.101973702757347" flag="0"/>
			<psa30 value="0.0112532221374053" flag="0"/>
		</comp>
		<comp name="--.HNZ" depth="0.0">
			<acc value="0.0595360481055507" flag="0"/>
			<vel value="0.0410512198845672" flag="0"/>
			<psa03 value="0.196367300036573" flag="0"/>
			<psa10 value="0.0503162207026823" flag="0"/>
			<psa30 value="0.00538740272232368" flag="0"/>
		</comp>
	</station>
	<station code="KYP2" name="KYP2" netid="HI" source="ITSAK Strong Motion Network" insttype="" lat="37.2497" lon="21.667">
		<comp name="--.HNE" depth="0.0">
			<acc value="0.00521090104744082" flag="0"/>
			<vel value="0.00662907118108278" flag="0"/>
			<psa03 value="0.0103458806763199" flag="0"/>
			<psa10 value="0.00691097984974771" flag="0"/>
			<psa30 value="0.0023365187412329" flag="0"/>
		</comp>
		<comp name="--.HNN" depth="0.0">
			<acc value="0.00563258011408579" flag="0"/>
			<vel value="0.00603547764513424" flag="0"/>
			<psa03 value="0.0128909971944651" flag="0"/>
			<psa10 value="0.00791288919007439" flag="0"/>
			<psa30 value="0.00261562952261903" flag="0"/>
		</comp>
		<comp name="--.HNZ" depth="0.0">
			<acc value="0.00742948251634346" flag="0"/>
			<vel value="0.00486614800081453" flag="0"/>
			<psa03 value="0.00748869726131594" flag="0"/>
			<psa10 value="0.00439645843129437" flag="0"/>
			<psa30 value="0.0029373835455773" flag="0"/>
		</comp>
	</station>
	<station code="LEO1" name="LEO1" netid="HI" source="ITSAK Strong Motion Network" insttype="" lat="37.1689" lon="22.8637">
		<comp name="--.HNE" depth="0.0">
			<acc value="0.0136062281479502" flag="0"/>
			<vel value="0.00738628674631034" flag="0"/>
			<psa03 value="0.0355203530490646" flag="0"/>
			<psa10 value="0.0068290458282709" flag="0"/>
			<psa30 value="0.00171928951949283" flag="0"/>
		</comp>
		<comp name="--.HNN" depth="0.0">
			<acc value="0.0101554911482817" flag="0"/>
			<vel value="0.00618326502578039" flag="0"/>
			<psa03 value="0.025282388375817" flag="0"/>
			<psa10 value="0.00959311205909336" flag="0"/>
			<psa30 value="0.001642467972109" flag="0"/>
		</comp>
		<comp name="--.HNZ" depth="0.0">
			<acc value="0.0107047497000739" flag="0"/>
			<vel value="0.00553732522333454" flag="0"/>
			<psa03 value="0.0152727591411716" flag="0"/>
			<psa10 value="0.00763771846136408" flag="0"/>
			<psa30 value="0.00262520932390051" flag="0"/>
		</comp>
	</station>
	<station code="PET1" name="PET1" netid="HI" source="ITSAK Strong Motion Network" insttype="" lat="36.963862" lon="21.92538">
		<comp name="--.HNE" depth="0.0">
			<acc value="0.0272528600091656" flag="0"/>
			<vel value="0.0234423533207997" flag="0"/>
			<psa03 value="0.0373909066515606" flag="0"/>
			<psa10 value="0.0345005792440548" flag="0"/>
			<psa30 value="0.00798098036744739" flag="0"/>
		</comp>
		<comp name="--.HNN" depth="0.0">
			<acc value="0.0175333332157867" flag="0"/>
			<vel value="0.0182350739390351" flag="0"/>
			<psa03 value="0.0366117925390744" flag="0"/>
			<psa10 value="0.0226309529395653" flag="0"/>
			<psa30 value="0.00566159171933242" flag="0"/>
		</comp>
		<comp name="--.HNZ" depth="0.0">
			<acc value="0.00893336101963305" flag="0"/>
			<vel value="0.00751498796572753" flag="0"/>
			<psa03 value="0.0247549393724091" flag="0"/>
			<psa10 value="0.00862768279164247" flag="0"/>
			<psa30 value="0.00356245349506043" flag="0"/>
		</comp>
	</station>
	<station code="PYL1" name="PYL1" netid="HI" source="ITSAK Strong Motion Network" insttype="" lat="36.914188" lon="21.695161">
		<comp name="--.HNE" depth="0.0">
			<acc value="0.00655870772249223" flag="0"/>
			<vel value="0.00980330439989243" flag="0"/>
			<psa03 value="0.0170291098657874" flag="0"/>
			<psa10 value="0.0126248728983698" flag="0"/>
			<psa30 value="0.0039085139198652" flag="0"/>
		</comp>
		<comp name="--.HNN" depth="0.0">
			<acc value="0.0047494152906011" flag="0"/>
			<vel value="0.0090164333790826" flag="0"/>
			<psa03 value="0.011334857649524" flag="0"/>
			<psa10 value="0.0113469279282874" flag="0"/>
			<psa30 value="0.00527211716855487" flag="0"/>
		</comp>
		<comp name="--.HNZ" depth="0.0">
			<acc value="0.00392897392114239" flag="0"/>
			<vel value="0.00509913919146173" flag="0"/>
			<psa03 value="0.0135830313195795" flag="0"/>
			<psa10 value="0.00552173969440546" flag="0"/>
			<psa30 value="0.00309234235250442" flag="0"/>
		</comp>
	</station>
	<station code="RTH1" name="RTH1" netid="HI" source="ITSAK Strong Motion Network" insttype="" lat="35.365393" lon="24.471773">
		<comp name="--.HNE" depth="0.0">
			<acc value="0.0166387801109078" flag="0"/>
			<vel value="0.0208252310287742" flag="0"/>
			<psa03 value="0.0594783307725092" flag="0"/>
			<psa10 value="0.0240293418259661" flag="0"/>
			<psa30 value="0.00545193741409696" flag="0"/>
		</comp>
		<comp name="--.HNN" depth="0.0">
			<acc value="0.0157747874268123" flag="0"/>
			<vel value="0.0175197447777432" flag="0"/>
			<psa03 value="0.0662107663466582" flag="0"/>
			<psa10 value="0.024232320272292" flag="0"/>
			<psa30 value="0.00402088094696261" flag="0"/>
		</comp>
		<comp name="--.HNZ" depth="0.0">
			<acc value="0.0101070511246322" flag="0"/>
			<vel value="0.0090993705693038" flag="0"/>
			<psa03 value="0.0289614654299492" flag="0"/>
			<psa10 value="0.013752453532553" flag="0"/>
			<psa30 value="0.00267235161351251" flag="0"/>
		</comp>
	</station>
	<station code="CHNB" name="CHNB" netid="HL" source="National Observatory of Athens Seismic Network" insttype="" lat="35.48765" lon="24.06605">
		<comp name="00.HNE" depth="0.0">
			<acc value="0.104243467229846" flag="0"/>
			<vel value="0.116581234531246" flag="0"/>
			<psa03 value="0.312014752779416" flag="0"/>
			<psa10 value="0.157803148684143" flag="0"/>
			<psa30 value="0.0129465901480587" flag="0"/>
		</comp>
		<comp name="00.HNN" depth="0.0">
			<acc value="0.0977787337675604" flag="0"/>
			<vel value="0.0888408340153092" flag="0"/>
			<psa03 value="0.256383442478133" flag="0"/>
			<psa10 value="0.137276298881084" flag="0"/>
			<psa30 value="0.0128005213050481" flag="0"/>
		</comp>
		<comp name="00.HNZ" depth="0.0">
			<acc value="0.0819706808283297" flag="0"/>
			<vel value="0.0461002337654334" flag="0"/>
			<psa03 value="0.281141790930543" flag="0"/>
			<psa10 value="0.0629111263033658" flag="0"/>
			<psa30 value="0.00692650426358061" flag="0"/>
		</comp>
	</station>
	<station code="IMMV" name="IMMV" netid="HL" source="National Observatory of Athens Seismic Network" insttype="" lat="35.4606" lon="23.9811">
		<comp name="--.HNE" depth="0.0">
			<acc value="0.0528110863362026" flag="0"/>
			<vel value="0.0580829623088394" flag="0"/>
			<psa03 value="0.211865472547774" flag="0"/>
			<psa10 value="0.0791791302287866" flag="0"/>
			<psa30 value="0.00809319030080477" flag="0"/>
		</comp>
		<comp name="--.HNN" depth="0.0">
			<acc value="0.0503357679892284" flag="0"/>
			<vel value="0.0319210093208449" flag="0"/>
			<psa03 value="0.135802944195233" flag="0"/>
			<psa10 value="0.0668295621305086" flag="0"/>
			<psa30 value="0.0104733871438309" flag="0"/>
		</comp>
		<comp name="--.HNZ" depth="0.0">
			<acc value="0.0270147913510564" flag="0"/>
			<vel value="0.0251008835143441" flag="0"/>
			<psa03 value="0.0794990580891039" flag="0"/>
			<psa10 value="0.026240690816984" flag="0"/>
			<psa30 value="0.00662618186869585" flag="0"/>
		</comp>
	</station>
	<station code="KTHA" name="KTHA" netid="HL" source="National Observatory of Athens Seismic Network" insttype="" lat="36.2566" lon="23.0621">
		<comp name="--.HNE" depth="0.0">
			<acc value="0.457030672736108" flag="0"/>
			<vel value="0.20332623604336" flag="0"/>
			<psa03 value="1.4022323910141" flag="0"/>
			<psa10 value="0.164223483999848" flag="0"/>
			<psa30 value="0.00909587839063645" flag="0"/>
		</comp>
		<comp name="--.HNN" depth="0.0">
			<acc value="0.297103356635992" flag="0"/>
			<vel value="0.115241164119568" flag="0"/>
			<psa03 value="0.894541592323642" flag="0"/>
			<psa10 value="0.102073594374676" flag="0"/>
			<psa30 value="0.00458420701454992" flag="0"/>
		</comp>
		<comp name="--.HNZ" depth="0.0">
			<acc value="0.284481151142319" flag="0"/>
			<vel value="0.107756320199825" flag="0"/>
			<psa03 value="0.589524178083563" flag="0"/>
			<psa10 value="0.153008966093075" flag="0"/>
			<psa30 value="0.00491309255160267" flag="0"/>
		</comp>
	</station>
	<station code="MNVA" name="MNVA" netid="HL" source="National Observatory of Athens Seismic Network" insttype="" lat="36.68709" lon="23.03734">
		<comp name="00.HNE" depth="0.0">
			<acc value="0.0124685172611532" flag="0"/>
			<vel value="0.00765402126041181" flag="0"/>
			<psa03 value="0.0327604540734691" flag="0"/>
			<psa10 value="0.00888857726212074" flag="0"/>
			<psa30 value="0.00315957763984557" flag="0"/>
		</comp>
		<comp name="00.HNN" depth="0.0">
			<acc value="0.012004144882954" flag="0"/>
			<vel value="0.00803667096027444" flag="0"/>
			<psa03 value="0.040893956419749" flag="0"/>
			<psa10 value="0.00725325611762065" flag="0"/>
			<psa30 value="0.00390133636105382" flag="0"/>
		</comp>
		<comp name="00.HNZ" depth="0.0">
			<acc value="0.0109866483606878" flag="0"/>
			<vel value="0.00876328309264772" flag="0"/>
			<psa03 value="0.0412876048928618" flag="0"/>
			<psa10 value="0.00863530892183617" flag="0"/>
			<psa30 value="0.00310599534028119" flag="0"/>
		</comp>
	</station>
	<station code="SIVA" name="SIVA" netid="HL" source="National Observatory of Athens Seismic Network" insttype="" lat="35.01777" lon="24.81204">
		<comp name="00.HNE" depth="0.0">
			<acc value="0.0154767123174033" flag="0"/>
