<?xml version="1.0" encoding="UTF-8" standalone="yes"?>
<!DOCTYPE earthquake SYSTEM "stationlist.dtd">
<stationlist created="" xmlns="ch.ethz.sed.shakemap.usgs.xml">
  <station code="KSL" name="KSL" netid="HL" source="NOA" insttype="60" lat="36.1503" lon="29.5856">
    <comp name="--.HHE">
      <acc value="0.0895880037" flag="0"/>
      <vel value="0.0540008545" flag="0"/>
      <psa03 value="0.3468406401" flag="0"/>
      <psa10 value="0.0167299423" flag="0"/>
      <psa30 value="0.0017357179" flag="0"/>
    </comp>
    <comp name="--.HHN">
      <acc value="0.0492352969" flag="0"/>
      <vel value="0.0267246302" flag="0"/>
      <psa03 value="0.1602426945" flag="0"/>
      <psa10 value="0.0221300586" flag="0"/>
      <psa30 value="0.0019093893" flag="0"/>
    </comp>
    <comp name="--.HHZ">
      <acc value="0.0464111328" flag="0"/>
      <vel value="0.0298639389" flag="0"/>
      <psa03 value="0.1255395259" flag="0"/>
      <psa10 value="0.0129988365" flag="0"/>
      <psa30 value="0.0015204975" flag="0"/>
    </comp>
  </station>
</stationlist>
