<stationlist created="1778069747">
	<station code="IMMV" name="IMMV" netid="GE" source="GEOFON" insttype="" lat="35.4606" lon="23.9811">
		<comp name="--.HNE" depth="0.0">
			<acc value="0.00140787355824067" flag="0"/>
			<vel value="0.00182283790192925" flag="0"/>
			<psa03 value="0.00456370507506372" flag="0"/>
			<psa10 value="0.00385767305462739" flag="0"/>
			<psa30 value="0.000373150003196386" flag="0"/>
		</comp>
		<comp name="--.HNN" depth="0.0">
			<acc value="0.00152358583621535" flag="0"/>
			<vel value="0.00150370197097075" flag="0"/>
			<psa03 value="0.00577174465375706" flag="0"/>
			<psa10 value="0.00302815254392463" flag="0"/>
			<psa30 value="0.00042147158634412" flag="0"/>
		</comp>
		<comp name="--.HNZ" depth="0.0">
			<acc value="0.00109708474916663" flag="0"/>
			<vel value="0.000929556395333965" flag="0"/>
			<psa03 value="0.00433999404197236" flag="0"/>
			<psa10 value="0.00208185487394818" flag="0"/>
			<psa30 value="0.000211630637304425" flag="0"/>
		</comp>
	</station>
	<station code="KARP" name="KARP" netid="GE" source="GEOFON" insttype="" lat="35.5471" lon="27.16106">
		<comp name="--.HNE" depth="0.0">
			<acc value="0.00122154541256876" flag="0"/>
			<vel value="0.0013100130002316" flag="0"/>
			<psa03 value="0.00277401681033285" flag="0"/>
			<psa10 value="0.0023637307756433" flag="0"/>
			<psa30 value="0.000414312833285196" flag="0"/>
		</comp>
		<comp name="--.HNN" depth="0.0">
			<acc value="0.00139062292746254" flag="0"/>
			<vel value="0.00193503059017226" flag="0"/>
			<psa03 value="0.00223711033091359" flag="0"/>
			<psa10 value="0.00273016944784694" flag="0"/>
			<psa30 value="0.00048903231833771" flag="0"/>
		</comp>
		<comp name="--.HNZ" depth="0.0">
			<acc value="0.00131066825200514" flag="0"/>
			<vel value="0.000889454609843797" flag="0"/>
			<psa03 value="0.00375834535593483" flag="0"/>
			<psa10 value="0.00136105792532783" flag="0"/>
			<psa30 value="0.000322143887651557" flag="0"/>
		</comp>
	</station>
	<station code="SIT2" name="SIT2" netid="HI" source="ITSAK Strong Motion Network" insttype="" lat="35.2059" lon="26.107">
		<comp name="--.HNE" depth="0.0">
			<acc value="0.0342394794491689" flag="0"/>
			<vel value="0.0181348172221957" flag="0"/>
			<psa03 value="0.0892607022034522" flag="0"/>
			<psa10 value="0.0144682873541505" flag="0"/>
			<psa30 value="0.00167112141719245" flag="0"/>
		</comp>
		<comp name="--.HNN" depth="0.0">
			<acc value="0.0301215995153407" flag="0"/>
			<vel value="0.0226727604594403" flag="0"/>
			<psa03 value="0.0921242034270216" flag="0"/>
			<psa10 value="0.0144119121738115" flag="0"/>
			<psa30 value="0.00111631805512588" flag="0"/>
		</comp>
		<comp name="--.HNZ" depth="0.0">
			<acc value="0.0303556261154813" flag="0"/>
			<vel value="0.0101568678400252" flag="0"/>
			<psa03 value="0.0459502461969651" flag="0"/>
			<psa10 value="0.00440531766363504" flag="0"/>
			<psa30 value="0.000973590416013593" flag="0"/>
		</comp>
	</station>
	<station code="IACM" name="IACM" netid="HL" source="National Observatory of Athens Seismic Network" insttype="" lat="35.3058" lon="25.0709">
		<comp name="--.HNE" depth="0.0">
			<acc value="0.0165553013837949" flag="0"/>
			<vel value="0.0184096692580148" flag="0"/>
			<psa03 value="0.051856217470577" flag="0"/>
			<psa10 value="0.0422531976640973" flag="0"/>
			<psa30 value="0.00202726938187389" flag="0"/>
		</comp>
		<comp name="--.HNN" depth="0.0">
			<acc value="0.0158890093303672" flag="0"/>
			<vel value="0.0176375383344513" flag="0"/>
			<psa03 value="0.0424156118741216" flag="0"/>
			<psa10 value="0.0313325198727095" flag="0"/>
			<psa30 value="0.00156418754337478" flag="0"/>
		</comp>
		<comp name="--.HNZ" depth="0.0">
			<acc value="0.00917567788241507" flag="0"/>
			<vel value="0.00758371637384589" flag="0"/>
			<psa03 value="0.024205533780485" flag="0"/>
			<psa10 value="0.0098092813789899" flag="0"/>
			<psa30 value="0.000871130762857751" flag="0"/>
		</comp>
	</station>
	<station code="IMMV" name="IMMV" netid="HL" source="National Observatory of Athens Seismic Network" insttype="" lat="35.4606" lon="23.9811">
		<comp name="--.HNE" depth="0.0">
			<acc value="0.00140040631308281" flag="0"/>
			<vel value="0.00178556524906547" flag="0"/>
			<psa03 value="0.00447422066182718" flag="0"/>
			<psa10 value="0.0037771370827145" flag="0"/>
			<psa30 value="0.00036554382807128" flag="0"/>
		</comp>
		<comp name="--.HNN" depth="0.0">
			<acc value="0.00149212894006978" flag="0"/>
			<vel value="0.00147233080156634" flag="0"/>
			<psa03 value="0.00568226024052051" flag="0"/>
			<psa10 value="0.00296775056498997" flag="0"/>
			<psa30 value="0.000412970567086648" flag="0"/>
		</comp>
		<comp name="--.HNZ" depth="0.0">
			<acc value="0.00108234787566031" flag="0"/>
			<vel value="0.000911284482259649" flag="0"/>
			<psa03 value="0.00425050962873582" flag="0"/>
			<psa10 value="0.0020375600893961" flag="0"/>
			<psa30 value="0.000207156416642598" flag="0"/>
		</comp>
	</station>
	<station code="SIVA" name="SIVA" netid="HL" source="National Observatory of Athens Seismic Network" insttype="" lat="35.01777" lon="24.81204">
		<comp name="00.HNE" depth="0.0">
			<acc value="0.0118019241834214" flag="0"/>
			<vel value="0.00804981771008544" flag="0"/>
			<psa03 value="0.0301115050540969" flag="0"/>
			<psa10 value="0.0109287313885791" flag="0"/>
			<psa30 value="0.000685898027458106" flag="0"/>
		</comp>
		<comp name="00.HNN" depth="0.0">
			<acc value="0.00953001094690192" flag="0"/>
			<vel value="0.00794840964641577" flag="0"/>
			<psa03 value="0.0249661512929956" flag="0"/>
			<psa10 value="0.00942270871380803" flag="0"/>
			<psa30 value="0.000804912297062709" flag="0"/>
		</comp>
		<comp name="00.HNZ" depth="0.0">
			<acc value="0.00590551430870878" flag="0"/>
			<vel value="0.00464526004919317" flag="0"/>
			<psa03 value="0.016957296308325" flag="0"/>
			<psa10 value="0.00514222180663797" flag="0"/>
			<psa30 value="0.000400442749233532" flag="0"/>
		</comp>
	</station>
</stationlist>
