<?xml version="1.0" encoding="UTF-8" standalone="yes"?>
<!DOCTYPE earthquake SYSTEM "stationlist.dtd">
<stationlist created="" xmlns="ch.ethz.sed.shakemap.usgs.xml">
  <station code="STIA" name="STIA" netid="HC" insttype="120" lat="35.2021" lon="26.0909">
    <comp name="--.HHE">
      <acc value="0.0121910529" flag="0"/>
      <vel value="0.0051869150" flag="0"/>
      <psa03 value="0.0306499980" flag="0"/>
      <psa10 value="0.0099627338" flag="0"/>
      <psa30 value="0.0009165184" flag="0"/>
    </comp>
    <comp name="--.HHN">
      <acc value="0.0143031552" flag="0"/>
      <vel value="0.0069238417" flag="0"/>
      <psa03 value="0.0281132140" flag="0"/>
      <psa10 value="0.0119045480" flag="0"/>
      <psa30 value="0.0010052888" flag="0"/>
    </comp>
    <comp name="--.HHZ">
      <acc value="0.0082815356" flag="0"/>
      <vel value="0.0047185087" flag="0"/>
      <psa03 value="0.0241560240" flag="0"/>
      <psa10 value="0.0048897217" flag="0"/>
      <psa30 value="0.0006059881" flag="0"/>
    </comp>
  </station>
  <station code="NPS" name="NPS" netid="HL" insttype="CMG3ESPC-120s" lat="35.2613" lon="25.6104">
    <comp name="--.HHE">
      <acc value="0.0036073659" flag="0"/>
      <vel value="0.0018195538" flag="0"/>
      <psa03 value="0.0088714224" flag="0"/>
      <psa10 value="0.0021108855" flag="0"/>
      <psa30 value="0.0002969363" flag="0"/>
    </comp>
    <comp name="--.HHZ">
      <acc value="0.0046112165" flag="0"/>
      <vel value="0.0025293701" flag="0"/>
      <psa03 value="0.0088892002" flag="0"/>
      <psa10 value="0.0030701140" flag="0"/>
      <psa30 value="0.0005349483" flag="0"/>
    </comp>
    <comp name="--.HHN">
      <acc value="0.0070606956" flag="0"/>
      <vel value="0.0035167044" flag="0"/>
      <psa03 value="0.0190576667" flag="0"/>
      <psa10 value="0.0051196272" flag="0"/>
      <psa30 value="0.0005948448" flag="0"/>
    </comp>
  </station>
  <station code="SIVA" name="SIVA" netid="HL" insttype="60" lat="35.0178" lon="24.812">
    <comp name="--.HHN">
      <acc value="0.0082708186" flag="0"/>
      <vel value="0.0064524332" flag="0"/>
      <psa03 value="0.0222343426" flag="0"/>
      <psa10 value="0.0079575404" flag="0"/>
      <psa30 value="0.0005793433" flag="0"/>
    </comp>
    <comp name="--.HHZ">
      <acc value="0.0040755813" flag="0"/>
      <vel value="0.0022627920" flag="0"/>
      <psa03 value="0.0113560205" flag="0"/>
      <psa10 value="0.0020300880" flag="0"/>
      <psa30 value="0.0001147484" flag="0"/>
    </comp>
    <comp name="--.HHE">
      <acc value="0.0126994509" flag="0"/>
      <vel value="0.0083469058" flag="0"/>
      <psa03 value="0.0316306586" flag="0"/>
      <psa10 value="0.0117049870" flag="0"/>
      <psa30 value="0.0006533549" flag="0"/>
    </comp>
  </station>
</stationlist>
