<?xml version="1.0" encoding="UTF-8" standalone="yes"?>
<!DOCTYPE earthquake SYSTEM "stationlist.dtd">
<stationlist created="" xmlns="ch.ethz.sed.shakemap.usgs.xml">
  <station code="SKR" name="SKR" netid="VI" insttype="LE-3D/5s" lat="64.5601" lon="-18.3865">
    <comp name="--.HHE">
      <acc value="0.0238985761" flag="0"/>
      <vel value="0.0416731467" flag="0"/>
      <psa03 value="0.0517543255" flag="0"/>
      <psa10 value="0.0555470645" flag="0"/>
      <psa30 value="0.0350892928" flag="0"/>
    </comp>
    <comp name="--.HHZ">
      <acc value="0.0407594292" flag="0"/>
      <vel value="0.0671820711" flag="0"/>
      <psa03 value="0.1610224889" flag="0"/>
      <psa10 value="0.0460691576" flag="0"/>
      <psa30 value="0.0470793259" flag="0"/>
    </comp>
    <comp name="--.HHN">
      <acc value="0.0351797409" flag="0"/>
      <vel value="0.1031550461" flag="0"/>
      <psa03 value="0.0650568925" flag="0"/>
      <psa10 value="0.0483650609" flag="0"/>
      <psa30 value="0.0672294591" flag="0"/>
    </comp>
  </station>
</stationlist>
