<stationlist created="1777341323">
	<station code="TEFL" name="TEFL" netid="HC" source="Seismological Network of Crete (HC)" insttype="" lat="35.093273" lon="25.163418">
		<comp name="--.HNE" depth="0.0">
			<acc value="0.272527784557451" flag="0"/>
			<vel value="0.167240556197455" flag="0"/>
			<psa03 value="0.388377603110148" flag="0"/>
			<psa10 value="0.166722679559288" flag="0"/>
			<psa30 value="0.06417043097612" flag="0"/>
		</comp>
		<comp name="--.HNN" depth="0.0">
			<acc value="0.2222103729532" flag="0"/>
			<vel value="0.139654828789076" flag="0"/>
			<psa03 value="0.377545385528895" flag="0"/>
			<psa10 value="0.160298669000116" flag="0"/>
			<psa30 value="0.0607304164253721" flag="0"/>
		</comp>
		<comp name="--.HNZ" depth="0.0">
			<acc value="0.239385496699181" flag="0"/>
			<vel value="0.136564980639962" flag="0"/>
			<psa03 value="0.309593613224136" flag="0"/>
			<psa10 value="0.162782608548921" flag="0"/>
			<psa30 value="0.0796128872963969" flag="0"/>
		</comp>
	</station>
	<station code="AGN1" name="AGN1" netid="HI" source="ITSAK Strong Motion Network" insttype="" lat="35.1879" lon="25.7155">
		<comp name="--.HNE" depth="0.0">
			<acc value="0.00347320698142263" flag="0"/>
			<vel value="0.00283856678356823" flag="0"/>
			<psa03 value="0.00480822639900555" flag="0"/>
			<psa10 value="0.00347798930597243" flag="0"/>
			<psa30 value="0.00106115946327321" flag="0"/>
		</comp>
		<comp name="--.HNN" depth="0.0">
			<acc value="0.162942244032224" flag="0"/>
			<vel value="0.0443210817243851" flag="0"/>
			<psa03 value="0.259059494753463" flag="0"/>
			<psa10 value="0.0246739289016964" flag="0"/>
			<psa30 value="0.00636862730697015" flag="0"/>
		</comp>
		<comp name="--.HNZ" depth="0.0">
			<acc value="0.0661282126884865" flag="0"/>
			<vel value="0.0203441246007044" flag="0"/>
			<psa03 value="0.0612070807103749" flag="0"/>
			<psa10 value="0.0136423218618703" flag="0"/>
			<psa30 value="0.00505714834459196" flag="0"/>
		</comp>
	</station>
	<station code="GOR1" name="GOR1" netid="HI" source="ITSAK Strong Motion Network" insttype="" lat="35.0582" lon="24.9628">
		<comp name="--.HNE" depth="0.0">
			<acc value="0.0278392002070264" flag="0"/>
			<vel value="0.027994420167554" flag="0"/>
			<psa03 value="0.0715822263461881" flag="0"/>
			<psa10 value="0.0238254801961336" flag="0"/>
			<psa30 value="0.00491218332470418" flag="0"/>
		</comp>
		<comp name="--.HNN" depth="0.0">
			<acc value="0.028142945851281" flag="0"/>
			<vel value="0.0215767853263741" flag="0"/>
			<psa03 value="0.0674312847000091" flag="0"/>
			<psa10 value="0.0295390530672955" flag="0"/>
			<psa30 value="0.00578157258414254" flag="0"/>
		</comp>
		<comp name="--.HNZ" depth="0.0">
			<acc value="0.0252933004018824" flag="0"/>
			<vel value="0.015411646939392" flag="0"/>
			<psa03 value="0.0449956213640883" flag="0"/>
			<psa10 value="0.0177821311039155" flag="0"/>
			<psa30 value="0.00260716667032993" flag="0"/>
		</comp>
	</station>
	<station code="HER1" name="HER1" netid="HI" source="ITSAK Strong Motion Network" insttype="" lat="35.317672" lon="25.10217">
		<comp name="--.HNE" depth="0.0">
			<acc value="0.0532583707708841" flag="0"/>
			<vel value="0.0647441557278755" flag="0"/>
			<psa03 value="0.130127172369872" flag="0"/>
			<psa10 value="0.102795697210445" flag="0"/>
			<psa30 value="0.00709455914639182" flag="0"/>
		</comp>
		<comp name="--.HNN" depth="0.0">
			<acc value="0.0569537745678333" flag="0"/>
			<vel value="0.0894297705240032" flag="0"/>
			<psa03 value="0.118406708446658" flag="0"/>
			<psa10 value="0.0854589587366055" flag="0"/>
			<psa30 value="0.00648318697931955" flag="0"/>
		</comp>
		<comp name="--.HNZ" depth="0.0">
			<acc value="0.0416899316409977" flag="0"/>
			<vel value="0.0426912054410325" flag="0"/>
			<psa03 value="0.104821621001287" flag="0"/>
			<psa10 value="0.0661013838922741" flag="0"/>
			<psa30 value="0.00486395554651723" flag="0"/>
		</comp>
	</station>
	<station code="KSS1" name="KSS1" netid="HI" source="ITSAK Strong Motion Network" insttype="" lat="35.4189" lon="26.9207">
		<comp name="--.HNE" depth="0.0">
			<acc value="0.0194731199337194" flag="0"/>
			<vel value="0.0162228438775604" flag="0"/>
			<psa03 value="0.0679241715180085" flag="0"/>
			<psa10 value="0.0117506140455115" flag="0"/>
			<psa30 value="0.00770892401171567" flag="0"/>
		</comp>
		<comp name="--.HNN" depth="0.0">
			<acc value="0.0242837914633099" flag="0"/>
			<vel value="0.0145344496864075" flag="0"/>
			<psa03 value="0.1405784063795" flag="0"/>
			<psa10 value="0.0125132683176141" flag="0"/>
			<psa30 value="0.00416858781515105" flag="0"/>
		</comp>
		<comp name="--.HNZ" depth="0.0">
			<acc value="0.00993082762878724" flag="0"/>
			<vel value="0.011921709428037" flag="0"/>
			<psa03 value="0.0290413665563401" flag="0"/>
			<psa10 value="0.0118291864380469" flag="0"/>
			<psa30 value="0.00446030547334756" flag="0"/>
		</comp>
	</station>
	<station code="RTH1" name="RTH1" netid="HI" source="ITSAK Strong Motion Network" insttype="" lat="35.365393" lon="24.471773">
		<comp name="--.HNE" depth="0.0">
			<acc value="0.00707565398948019" flag="0"/>
			<vel value="0.00639621417891445" flag="0"/>
			<psa03 value="0.0239576938504727" flag="0"/>
			<psa10 value="0.00753648284875159" flag="0"/>
			<psa30 value="0.00127122733757225" flag="0"/>
		</comp>
		<comp name="--.HNN" depth="0.0">
			<acc value="0.00850861699301603" flag="0"/>
			<vel value="0.00552145259693723" flag="0"/>
			<psa03 value="0.018957819664596" flag="0"/>
			<psa10 value="0.00651921624108132" flag="0"/>
			<psa30 value="0.00130117525897507" flag="0"/>
		</comp>
		<comp name="--.HNZ" depth="0.0">
			<acc value="0.00858125524510627" flag="0"/>
			<vel value="0.00264797031162567" flag="0"/>
			<psa03 value="0.0099735669498627" flag="0"/>
			<psa10 value="0.00444621016460254" flag="0"/>
			<psa30 value="0.000935406132732225" flag="0"/>
		</comp>
	</station>
	<station code="SIT2" name="SIT2" netid="HI" source="ITSAK Strong Motion Network" insttype="" lat="35.2059" lon="26.107">
		<comp name="--.HNE" depth="0.0">
			<acc value="0.888586501446458" flag="0"/>
			<vel value="0.628025832928056" flag="0"/>
			<psa03 value="2.896704225772" flag="0"/>
			<psa10 value="0.249883223537196" flag="0"/>
			<psa30 value="0.0255623733817829" flag="0"/>
		</comp>
		<comp name="--.HNN" depth="0.0">
			<acc value="0.7850589780676" flag="0"/>
			<vel value="0.480209973903024" flag="0"/>
			<psa03 value="2.41038317605587" flag="0"/>
			<psa10 value="0.233969659341668" flag="0"/>
			<psa30 value="0.0319322420209852" flag="0"/>
		</comp>
		<comp name="--.HNZ" depth="0.0">
			<acc value="0.972379666949846" flag="0"/>
			<vel value="0.332644470487694" flag="0"/>
			<psa03 value="1.74838932221195" flag="0"/>
			<psa10 value="0.0787351533174952" flag="0"/>
			<psa30 value="0.0210033063659679" flag="0"/>
		</comp>
	</station>
	<station code="HERG" name="HERG" netid="HL" source="National Observatory of Athens Seismic Network" insttype="" lat="35.32622" lon="25.06586">
		<comp name="00.HNE" depth="0.0">
			<acc value="0.0267900043568297" flag="0"/>
			<vel value="0.0310576721161473" flag="0"/>
			<psa03 value="0.0820874535159311" flag="0"/>
			<psa10 value="0.0473781260683322" flag="0"/>
			<psa30 value="0.00659508522536251" flag="0"/>
		</comp>
		<comp name="00.HNN" depth="0.0">
			<acc value="0.0305406390408179" flag="0"/>
			<vel value="0.0347042865079277" flag="0"/>
			<psa03 value="0.0964753285170379" flag="0"/>
			<psa10 value="0.0608372276677593" flag="0"/>
			<psa30 value="0.00684701566451769" flag="0"/>
		</comp>
		<comp name="00.HNZ" depth="0.0">
			<acc value="0.0227885654975271" flag="0"/>
			<vel value="0.0201283901567815" flag="0"/>
			<psa03 value="0.0564132579348096" flag="0"/>
			<psa10 value="0.0249434405055174" flag="0"/>
			<psa30 value="0.00279442595033821" flag="0"/>
		</comp>
	</station>
	<station code="IACM" name="IACM" netid="HL" source="National Observatory of Athens Seismic Network" insttype="" lat="35.3058" lon="25.0709">
		<comp name="--.HNE" depth="0.0">
			<acc value="0.0590323221122372" flag="0"/>
			<vel value="0.0440624202458055" flag="0"/>
			<psa03 value="0.166487008113878" flag="0"/>
			<psa10 value="0.08123426637147" flag="0"/>
			<psa30 value="0.0062966412882497" flag="0"/>
		</comp>
		<comp name="--.HNN" depth="0.0">
			<acc value="0.0552104614588799" flag="0"/>
			<vel value="0.0450710118657108" flag="0"/>
			<psa03 value="0.158715014090751" flag="0"/>
			<psa10 value="0.0750340781394286" flag="0"/>
			<psa30 value="0.00586863543496246" flag="0"/>
		</comp>
		<comp name="--.HNZ" depth="0.0">
			<acc value="0.049139072752601" flag="0"/>
			<vel value="0.0357694496770174" flag="0"/>
			<psa03 value="0.111146446239918" flag="0"/>
			<psa10 value="0.0271912644128195" flag="0"/>
			<psa30 value="0.00273219203598015" flag="0"/>
		</comp>
	</station>
	<station code="KARP" name="KARP" netid="HL" source="National Observatory of Athens Seismic Network" insttype="" lat="35.5471" lon="27.16106">
		<comp name="--.HNE" depth="0.0">
			<acc value="0.015237659793565" flag="0"/>
			<vel value="0.0136983306847404" flag="0"/>
			<psa03 value="0.0435910283166923" flag="0"/>
			<psa10 value="0.026263542955826" flag="0"/>
			<psa30 value="0.00303075743947284" flag="0"/>
		</comp>
		<comp name="--.HNN" depth="0.0">
			<acc value="0.0125046417472506" flag="0"/>
			<vel value="0.011888854966283" flag="0"/>
			<psa03 value="0.0294923000743059" flag="0"/>
			<psa10 value="0.0198672448574684" flag="0"/>
			<psa30 value="0.00427271554643555" flag="0"/>
		</comp>
		<comp name="--.HNZ" depth="0.0">
			<acc value="0.00945009947455623" flag="0"/>
			<vel value="0.00918258638194306" flag="0"/>
			<psa03 value="0.0308726310977952" flag="0"/>
			<psa10 value="0.0108102430005449" flag="0"/>
			<psa30 value="0.00330062990053226" flag="0"/>
		</comp>
	</station>
	<station code="SIVA" name="SIVA" netid="HL" source="National Observatory of Athens Seismic Network" insttype="" lat="35.01777" lon="24.81204">
		<comp name="00.HNE" depth="0.0">
			<acc value="0.0269337288511044" flag="0"/>
			<vel value="0.0212801902477337" flag="0"/>
			<psa03 value="0.0653054407482804" flag="0"/>
			<psa10 value="0.0268633595657327" flag="0"/>
			<psa30 value="0.00200309290340751" flag="0"/>
		</comp>
		<comp name="00.HNN" depth="0.0">
			<acc value="0.0285977402307143" flag="0"/>
			<vel value="0.0235489984006149" flag="0"/>
			<psa03 value="0.0587811804230533" flag="0"/>
			<psa10 value="0.0193556003385301" flag="0"/>
			<psa30 value="0.00229437511609123" flag="0"/>
		</comp>
		<comp name="00.HNZ" depth="0.0">
			<acc value="0.0143818190515688" flag="0"/>
			<vel value="0.0118704605745414" flag="0"/>
			<psa03 value="0.0316364629479066" flag="0"/>
			<psa10 value="0.00996277217226166" flag="0"/>
			<psa30 value="0.00111017823135935" flag="0"/>
		</comp>
	</station>
</stationlist>
