<?xml version="1.0" encoding="UTF-8" standalone="yes"?>
<!DOCTYPE earthquake SYSTEM "stationlist.dtd">
<stationlist created="" xmlns="ch.ethz.sed.shakemap.usgs.xml">
  <station code="KARP" name="KARP" netid="GE" insttype="STS-2/N" commtype="DIG" lat="35.5471" lon="27.1611">
    <comp name="--.HHE">
      <acc value="0.0167390006" flag="0"/>
      <vel value="0.0131608453" flag="0"/>
      <psa03 value="0.0440506765" flag="0"/>
      <psa10 value="0.0270080017" flag="0"/>
      <psa30 value="0.0029018866" flag="0"/>
    </comp>
    <comp name="--.HHN">
      <acc value="0.0121725466" flag="0"/>
      <vel value="0.0111393727" flag="0"/>
      <psa03 value="0.0299442807" flag="0"/>
      <psa10 value="0.0179863285" flag="0"/>
      <psa30 value="0.0033963760" flag="0"/>
    </comp>
    <comp name="--.HHZ">
      <acc value="0.0098838418" flag="0"/>
      <vel value="0.0087692402" flag="0"/>
      <psa03 value="0.0313120299" flag="0"/>
      <psa10 value="0.0113117536" flag="0"/>
      <psa30 value="0.0024737098" flag="0"/>
    </comp>
  </station>
  <station code="ZKR" name="ZKR" netid="GE" insttype="STS-2/N" commtype="DIG" lat="35.1147" lon="26.2169">
    <comp name="--.HHN">
      <acc value="0.1251783157" flag="0"/>
      <vel value="0.0504668918" flag="0"/>
      <psa03 value="0.2316827818" flag="0"/>
      <psa10 value="0.0365090213" flag="0"/>
      <psa30 value="0.0098159777" flag="0"/>
    </comp>
    <comp name="--.HHE">
      <acc value="0.2781308665" flag="0"/>
      <vel value="0.0954409777" flag="0"/>
      <psa03 value="0.4502422064" flag="0"/>
      <psa10 value="0.1216567242" flag="0"/>
      <psa30 value="0.0180711442" flag="0"/>
    </comp>
    <comp name="--.HHZ">
      <acc value="0.2866135805" flag="0"/>
      <vel value="0.0721339807" flag="0"/>
      <psa03 value="0.2048295186" flag="0"/>
      <psa10 value="0.0604375196" flag="0"/>
      <psa30 value="0.0289777474" flag="0"/>
    </comp>
  </station>
  <station code="KNSS" name="KNSS" netid="HC" insttype="60" commtype="DIG" lat="35.3042" lon="25.1802">
    <comp name="--.HHE">
      <acc value="0.0000000000" flag="0"/>
      <vel value="-100.0000000000" flag="0"/>
      <psa03 value="0.0000000000" flag="0"/>
      <psa10 value="0.0000000000" flag="0"/>
      <psa30 value="0.0000000000" flag="0"/>
    </comp>
    <comp name="--.HHZ">
      <acc value="0.0242547701" flag="0"/>
      <vel value="0.0069490758" flag="0"/>
      <psa03 value="0.0444685849" flag="0"/>
      <psa10 value="0.0058734456" flag="0"/>
      <psa30 value="0.0029192302" flag="0"/>
    </comp>
    <comp name="--.HHN">
      <acc value="0.0277044240" flag="0"/>
      <vel value="0.0109572346" flag="0"/>
      <psa03 value="0.0975929110" flag="0"/>
      <psa10 value="0.0136858063" flag="0"/>
      <psa30 value="0.0020916496" flag="0"/>
    </comp>
  </station>
  <station code="PFKS" name="PFKS" netid="HC" insttype="120" commtype="DIG" lat="35.0429" lon="25.4733">
    <comp name="--.HHE">
      <acc value="0.2729949371" flag="0"/>
      <vel value="0.1370418069" flag="0"/>
      <psa03 value="0.6262536217" flag="0"/>
      <psa10 value="0.0553093844" flag="0"/>
      <psa30 value="0.0037369199" flag="0"/>
    </comp>
    <comp name="--.HHZ">
      <acc value="0.1276803729" flag="0"/>
      <vel value="0.0494628998" flag="0"/>
      <psa03 value="0.2787161169" flag="0"/>
      <psa10 value="0.0266407447" flag="0"/>
      <psa30 value="0.0022204807" flag="0"/>
    </comp>
  </station>
  <station code="STIA" name="STIA" netid="HC" insttype="120" commtype="DIG" lat="35.2021" lon="26.0909">
    <comp name="--.HHE">
      <acc value="0.4710220490" flag="0"/>
      <vel value="0.2011146371" flag="0"/>
      <psa03 value="0.9501977069" flag="0"/>
      <psa10 value="0.1190933809" flag="0"/>
      <psa30 value="0.0108241661" flag="0"/>
    </comp>
  </station>
  <station code="AGN1" name="AGN1" netid="HI" insttype="unknown" commtype="DIG" lat="35.1879" lon="25.7155">
    <comp name="--.HNE">
      <acc value="0.0047900615" flag="0"/>
      <vel value="0.0029121604" flag="0"/>
      <psa03 value="0.0047416801" flag="0"/>
      <psa10 value="0.0034391032" flag="0"/>
      <psa30 value="0.0011251719" flag="0"/>
    </comp>
    <comp name="--.HNN">
      <acc value="0.1651355198" flag="0"/>
      <vel value="0.0494448096" flag="0"/>
      <psa03 value="0.3112117168" flag="0"/>
      <psa10 value="0.0244475306" flag="0"/>
      <psa30 value="0.0061051657" flag="0"/>
    </comp>
  </station>
  <station code="KSS1" name="KSS1" netid="HI" insttype="CMG-5TD,ACCELEROMETER,GURALP" commtype="DIG" lat="35.4189" lon="26.9207">
    <comp name="--.HNN">
      <acc value="0.0242590294" flag="0"/>
      <vel value="0.0128937225" flag="0"/>
      <psa03 value="0.1413955477" flag="0"/>
      <psa10 value="0.0125072772" flag="0"/>
      <psa30 value="0.0031303185" flag="0"/>
    </comp>
    <comp name="--.HNE">
      <acc value="0.0194499936" flag="0"/>
      <vel value="0.0110372384" flag="0"/>
      <psa03 value="0.0678805092" flag="0"/>
      <psa10 value="0.0111921296" flag="0"/>
      <psa30 value="0.0060781041" flag="0"/>
    </comp>
    <comp name="--.HNZ">
      <acc value="0.0101430061" flag="0"/>
      <vel value="0.0085554648" flag="0"/>
      <psa03 value="0.0292274509" flag="0"/>
      <psa10 value="0.0112142316" flag="0"/>
      <psa30 value="0.0037324552" flag="0"/>
    </comp>
  </station>
  <station code="SIT2" name="SIT2" netid="HI" insttype="CMG-5TD,ACCELEROMETER,GURALP" commtype="DIG" lat="35.2059" lon="26.107">
    <comp name="--.HNN">
      <acc value="0.7837972840" flag="0"/>
      <vel value="0.4757396419" flag="0"/>
      <psa03 value="2.4185696820" flag="0"/>
      <psa10 value="0.2317363067" flag="0"/>
      <psa30 value="0.0265655564" flag="0"/>
    </comp>
    <comp name="--.HNZ">
      <acc value="0.9729988666" flag="0"/>
      <vel value="0.3323221056" flag="0"/>
      <psa03 value="1.6876355991" flag="0"/>
      <psa10 value="0.0776585177" flag="0"/>
      <psa30 value="0.0175882223" flag="0"/>
    </comp>
    <comp name="--.HNE">
      <acc value="0.8873914699" flag="0"/>
      <vel value="0.6310271564" flag="0"/>
      <psa03 value="2.8759499798" flag="0"/>
      <psa10 value="0.2469862011" flag="0"/>
      <psa30 value="0.0229955621" flag="0"/>
    </comp>
  </station>
  <station code="ANAF" name="ANAF" netid="HL" insttype="LE3D20_SMART24" commtype="DIG" lat="36.3567" lon="25.7726">
    <comp name="--.HHN">
      <acc value="0.0450217047" flag="0"/>
      <vel value="0.0183661926" flag="0"/>
      <psa03 value="0.1105631339" flag="0"/>
      <psa10 value="0.0115980718" flag="0"/>
      <psa30 value="0.0010495354" flag="0"/>
    </comp>
    <comp name="--.HHE">
      <acc value="0.0335027197" flag="0"/>
      <vel value="0.0197561841" flag="0"/>
      <psa03 value="0.1010888507" flag="0"/>
      <psa10 value="0.0134602492" flag="0"/>
      <psa30 value="0.0018718764" flag="0"/>
    </comp>
    <comp name="--.HHZ">
      <acc value="0.0219789159" flag="0"/>
      <vel value="0.0078320545" flag="0"/>
      <psa03 value="0.0511772112" flag="0"/>
      <psa10 value="0.0071151442" flag="0"/>
      <psa30 value="0.0013599711" flag="0"/>
    </comp>
  </station>
  <station code="IDI" name="IDI" netid="HL" insttype="120" commtype="DIG" lat="35.288" lon="24.89">
    <comp name="--.HHZ">
      <acc value="0.0074849490" flag="0"/>
      <vel value="0.0040848548" flag="0"/>
      <psa03 value="0.0161101160" flag="0"/>
      <psa10 value="0.0053749438" flag="0"/>
      <psa30 value="0.0009479005" flag="0"/>
    </comp>
    <comp name="--.HHE">
      <acc value="0.0080615110" flag="0"/>
      <vel value="0.0044982183" flag="0"/>
      <psa03 value="0.0212380164" flag="0"/>
      <psa10 value="0.0046351766" flag="0"/>
      <psa30 value="0.0008863703" flag="0"/>
    </comp>
    <comp name="--.HHN">
      <acc value="0.0102394067" flag="0"/>
      <vel value="0.0059259049" flag="0"/>
      <psa03 value="0.0273433679" flag="0"/>
      <psa10 value="0.0064106686" flag="0"/>
      <psa30 value="0.0007101310" flag="0"/>
    </comp>
  </station>
  <station code="KARP" name="KARP" netid="HL" insttype="120" commtype="DIG" lat="35.5471" lon="27.1611">
    <comp name="--.HHZ">
      <acc value="0.0096172684" flag="0"/>
      <vel value="0.0086667860" flag="0"/>
      <psa03 value="0.0306458098" flag="0"/>
      <psa10 value="0.0112368167" flag="0"/>
      <psa30 value="0.0024705388" flag="0"/>
    </comp>
    <comp name="--.HHE">
      <acc value="0.0162623949" flag="0"/>
      <vel value="0.0130357316" flag="0"/>
      <psa03 value="0.0431348150" flag="0"/>
      <psa10 value="0.0268565564" flag="0"/>
      <psa30 value="0.0028976460" flag="0"/>
    </comp>
    <comp name="--.HHN">
      <acc value="0.0117002148" flag="0"/>
      <vel value="0.0110096594" flag="0"/>
      <psa03 value="0.0292979178" flag="0"/>
      <psa10 value="0.0178773593" flag="0"/>
      <psa30 value="0.0033914079" flag="0"/>
    </comp>
  </station>
  <station code="SIVA" name="SIVA" netid="HL" insttype="60" commtype="DIG" lat="35.0178" lon="24.812">
    <comp name="--.HHZ">
      <acc value="0.0150690005" flag="0"/>
      <vel value="0.0118025807" flag="0"/>
      <psa03 value="0.0331916158" flag="0"/>
      <psa10 value="0.0103219801" flag="0"/>
      <psa30 value="0.0008221330" flag="0"/>
    </comp>
    <comp name="--.HHN">
      <acc value="0.0273631105" flag="0"/>
      <vel value="0.0164440508" flag="0"/>
      <psa03 value="0.0545414221" flag="0"/>
      <psa10 value="0.0158851713" flag="0"/>
      <psa30 value="0.0016016820" flag="0"/>
    </comp>
    <comp name="--.HHE">
      <acc value="0.0291821444" flag="0"/>
      <vel value="0.0200591753" flag="0"/>
      <psa03 value="0.0706212477" flag="0"/>
      <psa10 value="0.0287081815" flag="0"/>
      <psa30 value="0.0015661110" flag="0"/>
    </comp>
  </station>
  <station code="IDI" name="IDI" netid="MN" insttype="" commtype="DIG" lat="35.288" lon="24.89">
    <comp name="--.HHE">
      <acc value="0.0073830652" flag="0"/>
      <vel value="0.0040700517" flag="0"/>
      <psa03 value="0.0192394099" flag="0"/>
      <psa10 value="0.0041302874" flag="0"/>
      <psa30 value="0.0007869285" flag="0"/>
    </comp>
    <comp name="--.HHN">
      <acc value="0.0094423027" flag="0"/>
      <vel value="0.0053035690" flag="0"/>
      <psa03 value="0.0247522174" flag="0"/>
      <psa10 value="0.0057248270" flag="0"/>
      <psa30 value="0.0006314996" flag="0"/>
    </comp>
    <comp name="--.HHZ">
      <acc value="0.0068398897" flag="0"/>
      <vel value="0.0036876505" flag="0"/>
      <psa03 value="0.0147336223" flag="0"/>
      <psa10 value="0.0047954026" flag="0"/>
      <psa30 value="0.0008409326" flag="0"/>
    </comp>
  </station>
</stationlist>
