<?xml version="1.0" encoding="UTF-8" standalone="yes"?>
<!DOCTYPE earthquake SYSTEM "stationlist.dtd">
<stationlist created="" xmlns="ch.ethz.sed.shakemap.usgs.xml">
  <station code="KARP" name="KARP" netid="GE" insttype="STS-2/N" commtype="DIG" lat="35.5471" lon="27.1611">
    <comp name="--.HHZ">
      <acc value="0.0098838417" flag="0"/>
      <vel value="0.0087692406" flag="0"/>
      <psa03 value="0.0313120299" flag="0"/>
      <psa10 value="0.0113117536" flag="0"/>
      <psa30 value="0.0024737304" flag="0"/>
    </comp>
    <comp name="--.HHN">
      <acc value="0.0121725468" flag="0"/>
      <vel value="0.0111393731" flag="0"/>
      <psa03 value="0.0299442807" flag="0"/>
      <psa10 value="0.0179863285" flag="0"/>
      <psa30 value="0.0033963756" flag="0"/>
    </comp>
    <comp name="--.HHE">
      <acc value="0.0167390005" flag="0"/>
      <vel value="0.0131608455" flag="0"/>
      <psa03 value="0.0440506765" flag="0"/>
      <psa10 value="0.0270080017" flag="0"/>
      <psa30 value="0.0029018890" flag="0"/>
    </comp>
  </station>
  <station code="ZKR" name="ZKR" netid="GE" insttype="STS-2/N" commtype="DIG" lat="35.1147" lon="26.2169">
    <comp name="--.HHZ">
      <acc value="0.2866135805" flag="0"/>
      <vel value="0.0721339794" flag="0"/>
      <psa03 value="0.2048295186" flag="0"/>
      <psa10 value="0.0604375196" flag="0"/>
      <psa30 value="0.0289775682" flag="0"/>
    </comp>
    <comp name="--.HHE">
      <acc value="0.2781308661" flag="0"/>
      <vel value="0.0954409753" flag="0"/>
      <psa03 value="0.4502422064" flag="0"/>
      <psa10 value="0.1216567225" flag="0"/>
      <psa30 value="0.0180707910" flag="0"/>
    </comp>
    <comp name="--.HHN">
      <acc value="0.1251783158" flag="0"/>
      <vel value="0.0504668928" flag="0"/>
      <psa03 value="0.2316827818" flag="0"/>
      <psa10 value="0.0365090228" flag="0"/>
      <psa30 value="0.0098159461" flag="0"/>
    </comp>
  </station>
  <station code="IMOD" name="IMOD" netid="HC" insttype="120" commtype="DIG" lat="34.9731" lon="24.7995">
    <comp name="--.HHN">
      <acc value="0.0214256803" flag="0"/>
      <vel value="0.0192470426" flag="0"/>
      <psa03 value="0.0519164771" flag="0"/>
      <psa10 value="0.0194651095" flag="0"/>
      <psa30 value="0.0013552587" flag="0"/>
    </comp>
    <comp name="--.HHE">
      <acc value="0.0169474733" flag="0"/>
      <vel value="0.0127825744" flag="0"/>
      <psa03 value="0.0364198138" flag="0"/>
      <psa10 value="0.0166936697" flag="0"/>
      <psa30 value="0.0009643353" flag="0"/>
    </comp>
    <comp name="--.HHZ">
      <acc value="0.0118971877" flag="0"/>
      <vel value="0.0081629287" flag="0"/>
      <psa03 value="0.0205794362" flag="0"/>
      <psa10 value="0.0070664496" flag="0"/>
      <psa30 value="0.0006794101" flag="0"/>
    </comp>
  </station>
  <station code="KNSS" name="KNSS" netid="HC" insttype="60" commtype="DIG" lat="35.3042" lon="25.1802">
    <comp name="--.HHE">
      <acc value="0.0000000000" flag="0"/>
      <vel value="-100.0000000000" flag="0"/>
      <psa03 value="0.0000000000" flag="0"/>
      <psa10 value="0.0000000000" flag="0"/>
      <psa30 value="0.0000000000" flag="0"/>
    </comp>
    <comp name="--.HHN">
      <acc value="0.0277044242" flag="0"/>
      <vel value="0.0109572361" flag="0"/>
      <psa03 value="0.0975929110" flag="0"/>
      <psa10 value="0.0136858062" flag="0"/>
      <psa30 value="0.0020916489" flag="0"/>
    </comp>
    <comp name="--.HHZ">
      <acc value="0.0242547696" flag="0"/>
      <vel value="0.0069490781" flag="0"/>
      <psa03 value="0.0444685849" flag="0"/>
      <psa10 value="0.0058734456" flag="0"/>
      <psa30 value="0.0029192204" flag="0"/>
    </comp>
  </station>
  <station code="PFKS" name="PFKS" netid="HC" insttype="120" commtype="DIG" lat="35.0429" lon="25.4733">
    <comp name="--.HHE">
      <acc value="0.2729949370" flag="0"/>
      <vel value="0.1370418089" flag="0"/>
      <psa03 value="0.6262536217" flag="0"/>
      <psa10 value="0.0553093857" flag="0"/>
      <psa30 value="0.0037371171" flag="0"/>
    </comp>
    <comp name="--.HHN">
      <acc value="0.2703946172" flag="0"/>
      <vel value="0.1360845800" flag="0"/>
      <psa03 value="0.5709354020" flag="0"/>
      <psa10 value="0.1073416959" flag="0"/>
      <psa30 value="0.0057150350" flag="0"/>
    </comp>
    <comp name="--.HHZ">
      <acc value="0.1276803725" flag="0"/>
      <vel value="0.0494628996" flag="0"/>
      <psa03 value="0.2787161169" flag="0"/>
      <psa10 value="0.0266407457" flag="0"/>
      <psa30 value="0.0022206733" flag="0"/>
    </comp>
  </station>
  <station code="STIA" name="STIA" netid="HC" insttype="120" commtype="DIG" lat="35.2021" lon="26.0909">
    <comp name="--.HHE">
      <acc value="0.4710220491" flag="0"/>
      <vel value="0.2011146383" flag="0"/>
      <psa03 value="0.9501977069" flag="0"/>
      <psa10 value="0.1190933793" flag="0"/>
      <psa30 value="0.0108242947" flag="0"/>
    </comp>
    <comp name="--.HHZ">
      <acc value="0.5607319092" flag="0"/>
      <vel value="0.1301338160" flag="0"/>
      <psa03 value="0.5697390909" flag="0"/>
      <psa10 value="0.0728868087" flag="0"/>
      <psa30 value="0.0157222881" flag="0"/>
    </comp>
    <comp name="--.HHN">
      <acc value="0.3988149482" flag="0"/>
      <vel value="0.1350113704" flag="0"/>
      <psa03 value="0.6278286279" flag="0"/>
      <psa10 value="0.0821795634" flag="0"/>
      <psa30 value="0.0230836911" flag="0"/>
    </comp>
  </station>
  <station code="AGN1" name="AGN1" netid="HI" insttype="unknown" commtype="DIG" lat="35.1879" lon="25.7155">
    <comp name="--.HNE">
      <acc value="0.0035749677" flag="0"/>
      <vel value="0.0029121741" flag="0"/>
      <psa03 value="0.0047066260" flag="0"/>
      <psa10 value="0.0034391032" flag="0"/>
      <psa30 value="0.0011254564" flag="0"/>
    </comp>
    <comp name="--.HNN">
      <acc value="0.1651355245" flag="0"/>
      <vel value="0.0494448035" flag="0"/>
      <psa03 value="0.3112117168" flag="0"/>
      <psa10 value="0.0244475293" flag="0"/>
      <psa30 value="0.0061054098" flag="0"/>
    </comp>
    <comp name="--.HNZ">
      <acc value="0.0745848268" flag="0"/>
      <vel value="0.0195617429" flag="0"/>
      <psa03 value="0.1171168468" flag="0"/>
      <psa10 value="0.0143954131" flag="0"/>
      <psa30 value="0.0046133549" flag="0"/>
    </comp>
  </station>
  <station code="ARK1" name="ARK1" netid="HI" insttype="unknown" commtype="DIG" lat="35.1488" lon="25.2642">
    <comp name="--.HNZ">
      <acc value="0.0294683169" flag="0"/>
      <vel value="0.0196621670" flag="0"/>
      <psa03 value="0.0801612365" flag="0"/>
      <psa10 value="0.0310931576" flag="0"/>
      <psa30 value="0.0036773142" flag="0"/>
    </comp>
    <comp name="--.HNN">
      <acc value="0.0680058457" flag="0"/>
      <vel value="0.0385124754" flag="0"/>
      <psa03 value="0.1224645565" flag="0"/>
      <psa10 value="0.0276524082" flag="0"/>
      <psa30 value="0.0059921779" flag="0"/>
    </comp>
  </station>
  <station code="KSS1" name="KSS1" netid="HI" insttype="CMG-5TD,ACCELEROMETER,GURALP" commtype="DIG" lat="35.4189" lon="26.9207">
    <comp name="--.HNE">
      <acc value="0.0194499921" flag="0"/>
      <vel value="0.0110372378" flag="0"/>
      <psa03 value="0.0678805092" flag="0"/>
      <psa10 value="0.0111921296" flag="0"/>
      <psa30 value="0.0060781085" flag="0"/>
    </comp>
    <comp name="--.HNN">
      <acc value="0.0242590308" flag="0"/>
      <vel value="0.0128937210" flag="0"/>
      <psa03 value="0.1413955477" flag="0"/>
      <psa10 value="0.0125072768" flag="0"/>
      <psa30 value="0.0031303170" flag="0"/>
    </comp>
    <comp name="--.HNZ">
      <acc value="0.0101430082" flag="0"/>
      <vel value="0.0085554676" flag="0"/>
      <psa03 value="0.0292274509" flag="0"/>
      <psa10 value="0.0112142316" flag="0"/>
      <psa30 value="0.0037325053" flag="0"/>
    </comp>
  </station>
  <station code="SIT2" name="SIT2" netid="HI" insttype="CMG-5TD,ACCELEROMETER,GURALP" commtype="DIG" lat="35.2059" lon="26.107">
    <comp name="--.HNE">
      <acc value="0.8873914663" flag="0"/>
      <vel value="0.6310271590" flag="0"/>
      <psa03 value="2.8759499798" flag="0"/>
      <psa10 value="0.2469862592" flag="0"/>
      <psa30 value="0.0229954699" flag="0"/>
    </comp>
    <comp name="--.HNN">
      <acc value="0.7837972810" flag="0"/>
      <vel value="0.4757396421" flag="0"/>
      <psa03 value="2.4185696820" flag="0"/>
      <psa10 value="0.2317363109" flag="0"/>
      <psa30 value="0.0265654702" flag="0"/>
    </comp>
    <comp name="--.HNZ">
      <acc value="0.9729988663" flag="0"/>
      <vel value="0.3323221006" flag="0"/>
      <psa03 value="1.6876355991" flag="0"/>
      <psa10 value="0.0776585306" flag="0"/>
      <psa30 value="0.0175884683" flag="0"/>
    </comp>
  </station>
  <station code="IDI" name="IDI" netid="HL" insttype="120" commtype="DIG" lat="35.288" lon="24.89">
    <comp name="--.HHE">
      <acc value="0.0080615109" flag="0"/>
      <vel value="0.0044982186" flag="0"/>
      <psa03 value="0.0212380164" flag="0"/>
      <psa10 value="0.0046351766" flag="0"/>
      <psa30 value="0.0008863695" flag="0"/>
    </comp>
    <comp name="--.HHN">
      <acc value="0.0102394067" flag="0"/>
      <vel value="0.0059259054" flag="0"/>
      <psa03 value="0.0273433679" flag="0"/>
      <psa10 value="0.0064106686" flag="0"/>
      <psa30 value="0.0007101756" flag="0"/>
    </comp>
    <comp name="--.HHZ">
      <acc value="0.0074849490" flag="0"/>
      <vel value="0.0040848562" flag="0"/>
      <psa03 value="0.0161101160" flag="0"/>
      <psa10 value="0.0053749438" flag="0"/>
      <psa30 value="0.0009479033" flag="0"/>
    </comp>
  </station>
  <station code="KARP" name="KARP" netid="HL" insttype="120" commtype="DIG" lat="35.5471" lon="27.1611">
    <comp name="--.HHE">
      <acc value="0.0162623949" flag="0"/>
      <vel value="0.0130357310" flag="0"/>
      <psa03 value="0.0431348150" flag="0"/>
      <psa10 value="0.0268565564" flag="0"/>
      <psa30 value="0.0028976487" flag="0"/>
    </comp>
    <comp name="--.HHN">
      <acc value="0.0117002148" flag="0"/>
      <vel value="0.0110096599" flag="0"/>
      <psa03 value="0.0292979178" flag="0"/>
      <psa10 value="0.0178773593" flag="0"/>
      <psa30 value="0.0033914069" flag="0"/>
    </comp>
    <comp name="--.HHZ">
      <acc value="0.0096172682" flag="0"/>
      <vel value="0.0086667857" flag="0"/>
      <psa03 value="0.0306458098" flag="0"/>
      <psa10 value="0.0112368167" flag="0"/>
      <psa30 value="0.0024705690" flag="0"/>
    </comp>
  </station>
  <station code="SIVA" name="SIVA" netid="HL" insttype="60" commtype="DIG" lat="35.0178" lon="24.812">
    <comp name="--.HHZ">
      <acc value="0.0150690004" flag="0"/>
      <vel value="0.0118025868" flag="0"/>
      <psa03 value="0.0331916158" flag="0"/>
      <psa10 value="0.0103219794" flag="0"/>
      <psa30 value="0.0008221306" flag="0"/>
    </comp>
    <comp name="--.HHE">
      <acc value="0.0291821438" flag="0"/>
      <vel value="0.0200591770" flag="0"/>
      <psa03 value="0.0706212477" flag="0"/>
      <psa10 value="0.0287081815" flag="0"/>
      <psa30 value="0.0015661116" flag="0"/>
    </comp>
    <comp name="--.HHN">
      <acc value="0.0273631110" flag="0"/>
      <vel value="0.0164440591" flag="0"/>
      <psa03 value="0.0545414221" flag="0"/>
      <psa10 value="0.0158851713" flag="0"/>
      <psa30 value="0.0016017303" flag="0"/>
    </comp>
  </station>
  <station code="IDI" name="IDI" netid="MN" insttype="" commtype="DIG" lat="35.288" lon="24.89">
    <comp name="--.HHE">
      <acc value="0.0073830651" flag="0"/>
      <vel value="0.0040700514" flag="0"/>
      <psa03 value="0.0192394099" flag="0"/>
      <psa10 value="0.0041302874" flag="0"/>
      <psa30 value="0.0007869310" flag="0"/>
    </comp>
    <comp name="--.HHN">
      <acc value="0.0094423027" flag="0"/>
      <vel value="0.0053035687" flag="0"/>
      <psa03 value="0.0247522174" flag="0"/>
      <psa10 value="0.0057248270" flag="0"/>
      <psa30 value="0.0006315449" flag="0"/>
    </comp>
    <comp name="--.HHZ">
      <acc value="0.0068398897" flag="0"/>
      <vel value="0.0036876514" flag="0"/>
      <psa03 value="0.0147336223" flag="0"/>
      <psa10 value="0.0047954026" flag="0"/>
      <psa30 value="0.0008409356" flag="0"/>
    </comp>
  </station>
</stationlist>
