<?xml version="1.0" encoding="UTF-8" standalone="yes"?>
<!DOCTYPE earthquake SYSTEM "stationlist.dtd">
<stationlist created="" xmlns="ch.ethz.sed.shakemap.usgs.xml">
  <station code="KARP" name="KARP" netid="GE" insttype="STS-2/N" commtype="DIG" lat="35.5471" lon="27.1611">
    <comp name="--.HHE">
      <acc value="0.0167390006" flag="0"/>
      <vel value="0.0131608456" flag="0"/>
      <psa03 value="0.0440506765" flag="0"/>
      <psa10 value="0.0270080017" flag="0"/>
      <psa30 value="0.0029018868" flag="0"/>
    </comp>
    <comp name="--.HHZ">
      <acc value="0.0098838431" flag="0"/>
      <vel value="0.0087692401" flag="0"/>
      <psa03 value="0.0313120299" flag="0"/>
      <psa10 value="0.0113117536" flag="0"/>
      <psa30 value="0.0024737098" flag="0"/>
    </comp>
    <comp name="--.HHN">
      <acc value="0.0121725464" flag="0"/>
      <vel value="0.0111393728" flag="0"/>
      <psa03 value="0.0299442807" flag="0"/>
      <psa10 value="0.0179863285" flag="0"/>
      <psa30 value="0.0033963773" flag="0"/>
    </comp>
  </station>
  <station code="ZKR" name="ZKR" netid="GE" insttype="STS-2/N" commtype="DIG" lat="35.1147" lon="26.2169">
    <comp name="--.HHN">
      <acc value="0.1251783160" flag="0"/>
      <vel value="0.0504668918" flag="0"/>
      <psa03 value="0.2316827818" flag="0"/>
      <psa10 value="0.0365090213" flag="0"/>
      <psa30 value="0.0098159777" flag="0"/>
    </comp>
    <comp name="--.HHZ">
      <acc value="0.2866135807" flag="0"/>
      <vel value="0.0721339807" flag="0"/>
      <psa03 value="0.2048295186" flag="0"/>
      <psa10 value="0.0604375196" flag="0"/>
      <psa30 value="0.0289777474" flag="0"/>
    </comp>
    <comp name="--.HHE">
      <acc value="0.2781308663" flag="0"/>
      <vel value="0.0954409777" flag="0"/>
      <psa03 value="0.4502422064" flag="0"/>
      <psa10 value="0.1216567242" flag="0"/>
      <psa30 value="0.0180711442" flag="0"/>
    </comp>
  </station>
  <station code="IDI" name="IDI" netid="MN" insttype="" commtype="DIG" lat="35.288" lon="24.89">
    <comp name="--.HHE">
      <acc value="0.0073830651" flag="0"/>
      <vel value="0.0040700517" flag="0"/>
      <psa03 value="0.0192394099" flag="0"/>
      <psa10 value="0.0041302874" flag="0"/>
      <psa30 value="0.0007869285" flag="0"/>
    </comp>
    <comp name="--.HHN">
      <acc value="0.0094423027" flag="0"/>
      <vel value="0.0053035689" flag="0"/>
      <psa03 value="0.0247522174" flag="0"/>
      <psa10 value="0.0057248270" flag="0"/>
      <psa30 value="0.0006314996" flag="0"/>
    </comp>
    <comp name="--.HHZ">
      <acc value="0.0068398897" flag="0"/>
      <vel value="0.0036876505" flag="0"/>
      <psa03 value="0.0147336223" flag="0"/>
      <psa10 value="0.0047954026" flag="0"/>
      <psa30 value="0.0008409317" flag="0"/>
    </comp>
  </station>
</stationlist>
