<?xml version="1.0" encoding="UTF-8" standalone="yes"?>
<!DOCTYPE earthquake SYSTEM "stationlist.dtd">
<stationlist created="" xmlns="ch.ethz.sed.shakemap.usgs.xml">
  <station code="KARP" name="KARP" netid="GE" insttype="STS-2/N" commtype="DIG" lat="35.5471" lon="27.1611">
    <comp name="--.HHZ">
      <acc value="0.0098838417" flag="0"/>
      <vel value="0.0087692406" flag="0"/>
      <psa03 value="0.0313120299" flag="0"/>
      <psa10 value="0.0113117536" flag="0"/>
      <psa30 value="0.0024737304" flag="0"/>
    </comp>
    <comp name="--.HHN">
      <acc value="0.0121725468" flag="0"/>
      <vel value="0.0111393731" flag="0"/>
      <psa03 value="0.0299442807" flag="0"/>
      <psa10 value="0.0179863285" flag="0"/>
      <psa30 value="0.0033963756" flag="0"/>
    </comp>
    <comp name="--.HHE">
      <acc value="0.0167390005" flag="0"/>
      <vel value="0.0131608455" flag="0"/>
      <psa03 value="0.0440506765" flag="0"/>
      <psa10 value="0.0270080017" flag="0"/>
      <psa30 value="0.0029018890" flag="0"/>
    </comp>
  </station>
  <station code="ZKR" name="ZKR" netid="GE" insttype="STS-2/N" commtype="DIG" lat="35.1147" lon="26.2169">
    <comp name="--.HHZ">
      <acc value="0.2866135805" flag="0"/>
      <vel value="0.0721339794" flag="0"/>
      <psa03 value="0.2048295186" flag="0"/>
      <psa10 value="0.0604375196" flag="0"/>
      <psa30 value="0.0289775682" flag="0"/>
    </comp>
    <comp name="--.HHE">
      <acc value="0.2781308661" flag="0"/>
      <vel value="0.0954409753" flag="0"/>
      <psa03 value="0.4502422064" flag="0"/>
      <psa10 value="0.1216567225" flag="0"/>
      <psa30 value="0.0180707910" flag="0"/>
    </comp>
    <comp name="--.HHN">
      <acc value="0.1251783158" flag="0"/>
      <vel value="0.0504668928" flag="0"/>
      <psa03 value="0.2316827818" flag="0"/>
      <psa10 value="0.0365090228" flag="0"/>
      <psa30 value="0.0098159461" flag="0"/>
    </comp>
  </station>
</stationlist>
