<?xml version="1.0" encoding="UTF-8" standalone="yes"?>
<!DOCTYPE earthquake SYSTEM "stationlist.dtd">
<stationlist created="" xmlns="ch.ethz.sed.shakemap.usgs.xml">
  <station code="EQUI" name="EQUI" netid="GU" insttype="" lat="44.166" lon="10.153">
    <comp name="--.HHN">
      <acc value="0.0038705318" flag="0"/>
      <vel value="0.0020534660" flag="0"/>
      <psa03 value="0.0084510536" flag="0"/>
      <psa10 value="0.0030310942" flag="0"/>
      <psa30 value="0.0001874414" flag="0"/>
    </comp>
    <comp name="--.HHE">
      <acc value="0.0055139512" flag="0"/>
      <vel value="0.0026057129" flag="0"/>
      <psa03 value="0.0098624800" flag="0"/>
      <psa10 value="0.0025899874" flag="0"/>
      <psa30 value="0.0002841365" flag="0"/>
    </comp>
    <comp name="--.HHZ">
      <acc value="0.0043817060" flag="0"/>
      <vel value="0.0018959483" flag="0"/>
      <psa03 value="0.0074053049" flag="0"/>
      <psa10 value="0.0018632027" flag="0"/>
      <psa30 value="0.0003161443" flag="0"/>
    </comp>
  </station>
  <station code="GRAM" name="GRAM" netid="GU" insttype="" lat="44.4904" lon="10.065">
    <comp name="--.HHE">
      <acc value="0.1449321903" flag="0"/>
      <vel value="0.0344465940" flag="0"/>
      <psa03 value="0.2724193680" flag="0"/>
      <psa10 value="0.0220522532" flag="0"/>
      <psa30 value="0.0021540756" flag="0"/>
    </comp>
    <comp name="--.HHN">
      <acc value="0.1370144077" flag="0"/>
      <vel value="0.0359519586" flag="0"/>
      <psa03 value="0.2679825905" flag="0"/>
      <psa10 value="0.0266468134" flag="0"/>
      <psa30 value="0.0025452922" flag="0"/>
    </comp>
    <comp name="--.HHZ">
      <acc value="0.1348326874" flag="0"/>
      <vel value="0.0231117639" flag="0"/>
      <psa03 value="0.0872878463" flag="0"/>
      <psa10 value="0.0147841878" flag="0"/>
      <psa30 value="0.0010771960" flag="0"/>
    </comp>
  </station>
  <station code="MBAL" name="MBAL" netid="IV" insttype="" lat="45.6975" lon="10.8589">
    <comp name="--.HHE">
      <acc value="0.0596112526" flag="0"/>
      <vel value="0.0098532877" flag="0"/>
      <psa03 value="0.0322984395" flag="0"/>
      <psa10 value="0.0034044160" flag="0"/>
      <psa30 value="0.0003185120" flag="0"/>
    </comp>
    <comp name="--.HHZ">
      <acc value="0.0122125509" flag="0"/>
      <vel value="0.0036809720" flag="0"/>
      <psa03 value="0.0155194929" flag="0"/>
      <psa10 value="0.0026398733" flag="0"/>
      <psa30 value="0.0002403502" flag="0"/>
    </comp>
    <comp name="--.HHN">
      <acc value="0.0778607324" flag="0"/>
      <vel value="0.0165995557" flag="0"/>
      <psa03 value="0.0343093348" flag="0"/>
      <psa10 value="0.0045671886" flag="0"/>
      <psa30 value="0.0002683685" flag="0"/>
    </comp>
  </station>
  <station code="NEVI" name="NEVI" netid="IV" insttype="" lat="44.5834" lon="10.3163">
    <comp name="--.HNN">
      <acc value="0.2713938799" flag="0"/>
      <vel value="0.1157898062" flag="0"/>
      <psa03 value="0.5589271387" flag="0"/>
      <psa10 value="0.1172653866" flag="0"/>
      <psa30 value="0.0065095790" flag="0"/>
    </comp>
    <comp name="--.HNE">
      <acc value="0.2941836598" flag="0"/>
      <vel value="0.1439501824" flag="0"/>
      <psa03 value="0.5163168292" flag="0"/>
      <psa10 value="0.0877319257" flag="0"/>
      <psa30 value="0.0076608945" flag="0"/>
    </comp>
    <comp name="--.HNZ">
      <acc value="0.0927375814" flag="0"/>
      <vel value="0.0474660189" flag="0"/>
      <psa03 value="0.2058428772" flag="0"/>
      <psa10 value="0.0417382922" flag="0"/>
      <psa30 value="0.0036557448" flag="0"/>
    </comp>
  </station>
  <station code="PRMA" name="PRMA" netid="IV" insttype="" lat="44.7637" lon="10.3131">
    <comp name="--.HHE">
      <acc value="0.5746888684" flag="0"/>
      <vel value="0.2380108992" flag="0"/>
      <psa03 value="1.2746188177" flag="0"/>
      <psa10 value="0.0906497931" flag="0"/>
      <psa30 value="0.0065657563" flag="0"/>
    </comp>
    <comp name="--.HHN">
      <acc value="0.4335599944" flag="0"/>
      <vel value="0.1510173983" flag="0"/>
      <psa03 value="0.8652407636" flag="0"/>
      <psa10 value="0.0461608240" flag="0"/>
      <psa30 value="0.0065177251" flag="0"/>
    </comp>
    <comp name="--.HHZ">
      <acc value="0.2473172528" flag="0"/>
      <vel value="0.0643118556" flag="0"/>
      <psa03 value="0.3810033094" flag="0"/>
      <psa10 value="0.0180830722" flag="0"/>
      <psa30 value="0.0014300425" flag="0"/>
    </comp>
  </station>
  <station code="VMGN" name="VMGN" netid="IV" insttype="" lat="43.9545" lon="11.5327">
    <comp name="--.HHN">
      <acc value="0.0007773626" flag="0"/>
      <vel value="0.0003426141" flag="0"/>
      <psa03 value="0.0013068280" flag="0"/>
      <psa10 value="0.0005594150" flag="0"/>
      <psa30 value="0.0000683445" flag="0"/>
    </comp>
    <comp name="--.HHE">
      <acc value="0.0005554537" flag="0"/>
      <vel value="0.0004277110" flag="0"/>
      <psa03 value="0.0010740128" flag="0"/>
      <psa10 value="0.0006864105" flag="0"/>
      <psa30 value="0.0001085161" flag="0"/>
    </comp>
    <comp name="--.HHZ">
      <acc value="0.0003409016" flag="0"/>
      <vel value="0.0003244561" flag="0"/>
      <psa03 value="0.0010430128" flag="0"/>
      <psa10 value="0.0004315882" flag="0"/>
      <psa30 value="0.0000884191" flag="0"/>
    </comp>
  </station>
</stationlist>
