<?xml version="1.0" encoding="UTF-8" standalone="yes"?>
<!DOCTYPE earthquake SYSTEM "stationlist.dtd">
<stationlist created="" xmlns="ch.ethz.sed.shakemap.usgs.xml">
  <station code="THERA" name="THERA" netid="GE" insttype="STS-2/N" lat="36.367" lon="25.4753">
    <comp name="--.HHE">
      <acc value="0.1906344355" flag="0"/>
      <vel value="0.0579350164" flag="0"/>
      <psa03 value="0.4525441368" flag="0"/>
      <psa10 value="0.0219025886" flag="0"/>
      <psa30 value="0.0019778355" flag="0"/>
    </comp>
    <comp name="--.HHZ">
      <acc value="0.2299634899" flag="0"/>
      <vel value="0.0469981414" flag="0"/>
      <psa03 value="0.1871296697" flag="0"/>
      <psa10 value="0.0181969432" flag="0"/>
      <psa30 value="0.0018447260" flag="0"/>
    </comp>
    <comp name="--.HHN">
      <acc value="0.1315143538" flag="0"/>
      <vel value="0.0412725783" flag="0"/>
      <psa03 value="0.3213350619" flag="0"/>
      <psa10 value="0.0075649999" flag="0"/>
      <psa30 value="0.0009500988" flag="0"/>
    </comp>
  </station>
  <station code="SNT1" name="SNT1" netid="HA" insttype="30" lat="36.4159" lon="25.4282">
    <comp name="--.HHE">
      <acc value="0.1402908810" flag="0"/>
      <vel value="0.0451589537" flag="0"/>
      <psa03 value="0.2173351735" flag="0"/>
      <psa10 value="0.0369128362" flag="0"/>
      <psa30 value="0.0040847800" flag="0"/>
    </comp>
    <comp name="--.HHZ">
      <acc value="0.1116786848" flag="0"/>
      <vel value="0.0277672100" flag="0"/>
      <psa03 value="0.1150063990" flag="0"/>
      <psa10 value="0.0129692104" flag="0"/>
      <psa30 value="0.0015548275" flag="0"/>
    </comp>
    <comp name="--.HHN">
      <acc value="0.1300148156" flag="0"/>
      <vel value="0.0661163786" flag="0"/>
      <psa03 value="0.2338267587" flag="0"/>
      <psa10 value="0.0319441790" flag="0"/>
      <psa30 value="0.0024733249" flag="0"/>
    </comp>
  </station>
  <station code="THERA" name="THERA" netid="HL" insttype="120" lat="36.367" lon="25.4753">
    <comp name="--.HHZ">
      <acc value="0.2291377952" flag="0"/>
      <vel value="0.0457214718" flag="0"/>
      <psa03 value="0.1819553194" flag="0"/>
      <psa10 value="0.0180743614" flag="0"/>
      <psa30 value="0.0018170306" flag="0"/>
    </comp>
    <comp name="--.HHN">
      <acc value="0.1290520140" flag="0"/>
      <vel value="0.0402729272" flag="0"/>
      <psa03 value="0.3120263942" flag="0"/>
      <psa10 value="0.0073324574" flag="0"/>
      <psa30 value="0.0009276674" flag="0"/>
    </comp>
    <comp name="--.HHE">
      <acc value="0.1932175329" flag="0"/>
      <vel value="0.0563242648" flag="0"/>
      <psa03 value="0.4396738302" flag="0"/>
      <psa10 value="0.0214590028" flag="0"/>
      <psa30 value="0.0019526924" flag="0"/>
    </comp>
  </station>
  <station code="THRA" name="THRA" netid="HL" insttype="CMG-5" lat="36.415" lon="25.4324">
    <comp name="00.HNE">
      <acc value="0.3758589551" flag="0"/>
      <vel value="0.1430197682" flag="0"/>
      <psa03 value="1.1737347791" flag="0"/>
      <psa10 value="0.0882997679" flag="0"/>
      <psa30 value="0.0080987338" flag="0"/>
    </comp>
    <comp name="00.HNN">
      <acc value="0.3789955398" flag="0"/>
      <vel value="0.1344986446" flag="0"/>
      <psa03 value="0.9683101026" flag="0"/>
      <psa10 value="0.1202260347" flag="0"/>
      <psa30 value="0.0048799127" flag="0"/>
    </comp>
    <comp name="00.HNZ">
      <acc value="0.3096839157" flag="0"/>
      <vel value="0.0955126579" flag="0"/>
      <psa03 value="0.7088711520" flag="0"/>
      <psa10 value="0.0533898442" flag="0"/>
      <psa30 value="0.0043645736" flag="0"/>
    </comp>
  </station>
  <station code="CMBO" name="CMBO" netid="HT" insttype="120P," lat="36.4709" lon="25.4056">
    <comp name="--.HHE">
      <acc value="0.4659631471" flag="0"/>
      <vel value="0.1532977976" flag="0"/>
      <psa03 value="0.9238815482" flag="0"/>
      <psa10 value="0.0956616188" flag="0"/>
      <psa30 value="0.0119460280" flag="0"/>
    </comp>
    <comp name="--.HHN">
      <acc value="0.6141044508" flag="0"/>
      <vel value="0.2635945907" flag="0"/>
      <psa03 value="0.9207912766" flag="0"/>
      <psa10 value="0.1105087497" flag="0"/>
      <psa30 value="0.0084570696" flag="0"/>
    </comp>
    <comp name="--.HHZ">
      <acc value="0.8627377018" flag="0"/>
      <vel value="0.2286555432" flag="0"/>
      <psa03 value="0.9552373782" flag="0"/>
      <psa10 value="0.0448303212" flag="0"/>
      <psa30 value="0.0065493393" flag="0"/>
    </comp>
  </station>
</stationlist>
