<stationlist created="1778069631">
	<station code="IMMV" name="IMMV" netid="GE" source="GEOFON" insttype="" lat="35.4606" lon="23.9811">
		<comp name="--.HNE" depth="0.0">
			<acc value="0.00501262372146039" flag="0"/>
			<vel value="0.0034085030511931" flag="0"/>
			<psa03 value="0.0122593646134065" flag="0"/>
			<psa10 value="0.00440129086503939" flag="0"/>
			<psa30 value="0.000310510913930806" flag="0"/>
		</comp>
		<comp name="--.HNN" depth="0.0">
			<acc value="0.00435668132234973" flag="0"/>
			<vel value="0.00346667083738042" flag="0"/>
			<psa03 value="0.0163756476222875" flag="0"/>
			<psa10 value="0.00503349824455557" flag="0"/>
			<psa30 value="0.000607151743809948" flag="0"/>
		</comp>
		<comp name="--.HNZ" depth="0.0">
			<acc value="0.00292386627319227" flag="0"/>
			<vel value="0.00254434609010765" flag="0"/>
			<psa03 value="0.0099775120758746" flag="0"/>
			<psa10 value="0.00259728509419068" flag="0"/>
			<psa30 value="0.000243397604003398" flag="0"/>
		</comp>
	</station>
	<station code="KTHA" name="KTHA" netid="GE" source="GEOFON" insttype="" lat="36.2566" lon="23.0621">
		<comp name="--.HNE" depth="0.0">
			<acc value="0.00809561640700712" flag="0"/>
			<vel value="0.00729481306738062" flag="0"/>
			<psa03 value="0.0127962710928257" flag="0"/>
			<psa10 value="0.0105461855219928" flag="0"/>
			<psa30 value="0.00279101884884779" flag="0"/>
		</comp>
		<comp name="--.HNN" depth="0.0">
			<acc value="0.00328170701711052" flag="0"/>
			<vel value="0.00274340013027266" flag="0"/>
			<psa03 value="0.00854576146408991" flag="0"/>
			<psa10 value="0.00408317377598348" flag="0"/>
			<psa30 value="0.000938244072785159" flag="0"/>
		</comp>
		<comp name="--.HNZ" depth="0.0">
			<acc value="0.00324283981756071" flag="0"/>
			<vel value="0.00361396984440498" flag="0"/>
			<psa03 value="0.0072929796787783" flag="0"/>
			<psa10 value="0.00333821603578926" flag="0"/>
			<psa30 value="0.00196373544847595" flag="0"/>
		</comp>
	</station>
	<station code="NPS1" name="NPS1" netid="HI" source="ITSAK Strong Motion Network" insttype="" lat="36.51263" lon="23.06248">
		<comp name="--.HNE" depth="0.0">
			<acc value="0.00465988335576294" flag="0"/>
			<vel value="0.00411195629909448" flag="0"/>
			<psa03 value="0.0166888430686154" flag="0"/>
			<psa10 value="0.00558919645075451" flag="0"/>
			<psa30 value="0.000327960374511932" flag="0"/>
		</comp>
		<comp name="--.HNN" depth="0.0">
			<acc value="0.00593678952377192" flag="0"/>
			<vel value="0.00448054744430031" flag="0"/>
			<psa03 value="0.0186575001598193" flag="0"/>
			<psa10 value="0.00440531766363504" flag="0"/>
			<psa30 value="0.000244739870201946" flag="0"/>
		</comp>
		<comp name="--.HNZ" depth="0.0">
			<acc value="0.00304735784001797" flag="0"/>
			<vel value="0.00222723940275373" flag="0"/>
			<psa03 value="0.0124830756464978" flag="0"/>
			<psa10 value="0.00273822304503823" flag="0"/>
			<psa30 value="0.000245634714334312" flag="0"/>
		</comp>
	</station>
	<station code="IMMV" name="IMMV" netid="HL" source="National Observatory of Athens Seismic Network" insttype="" lat="35.4606" lon="23.9811">
		<comp name="--.HNE" depth="0.0">
			<acc value="0.00491475007496602" flag="0"/>
			<vel value="0.00333810436917078" flag="0"/>
			<psa03 value="0.0120356535803151" flag="0"/>
			<psa10 value="0.00431270129593521" flag="0"/>
			<psa30 value="0.000304247005004248" flag="0"/>
		</comp>
		<comp name="--.HNN" depth="0.0">
			<acc value="0.00427486091410292" flag="0"/>
			<vel value="0.00341831596626315" flag="0"/>
			<psa03 value="0.0160177099693413" flag="0"/>
			<psa10 value="0.00492880148106882" flag="0"/>
			<psa30 value="0.000595071348023014" flag="0"/>
		</comp>
		<comp name="--.HNZ" depth="0.0">
			<acc value="0.00285321869943052" flag="0"/>
			<vel value="0.00248366553463004" flag="0"/>
			<psa03 value="0.00979854324940151" flag="0"/>
			<psa10 value="0.0025449367124473" flag="0"/>
			<psa30 value="0.000238475961275388" flag="0"/>
		</comp>
	</station>
	<station code="KTHA" name="KTHA" netid="HL" source="National Observatory of Athens Seismic Network" insttype="" lat="36.2566" lon="23.0621">
		<comp name="--.HNE" depth="0.0">
			<acc value="0.0651574854941902" flag="0"/>
			<vel value="0.0630123651229024" flag="0"/>
			<psa03 value="0.134942495160708" flag="0"/>
			<psa10 value="0.076992389148722" flag="0"/>
			<psa30 value="0.00544512654544367" flag="0"/>
		</comp>
		<comp name="--.HNN" depth="0.0">
			<acc value="0.0343842716484722" flag="0"/>
			<vel value="0.0183671757476214" flag="0"/>
			<psa03 value="0.0936006962454245" flag="0"/>
			<psa10 value="0.024724543377257" flag="0"/>
			<psa30 value="0.0021176486392428" flag="0"/>
		</comp>
		<comp name="--.HNZ" depth="0.0">
			<acc value="0.0299045192759005" flag="0"/>
			<vel value="0.021015170215028" flag="0"/>
			<psa03 value="0.070961139696579" flag="0"/>
			<psa10 value="0.022425241379144" flag="0"/>
			<psa30 value="0.00413373246946213" flag="0"/>
		</comp>
	</station>
</stationlist>
