<?xml version="1.0" encoding="UTF-8" standalone="yes"?>
<!DOCTYPE earthquake SYSTEM "stationlist.dtd">
<stationlist created="" xmlns="ch.ethz.sed.shakemap.usgs.xml">
  <station code="CH01" name="CH01" netid="HI" insttype="CMG-5TD,ACCELEROMETER,GURALP" lat="35.517" lon="24.0208">
    <comp name="--.HNE">
      <acc value="0.0291440075" flag="0"/>
      <vel value="0.0117757812" flag="0"/>
      <psa03 value="0.0725836555" flag="0"/>
      <psa10 value="0.0116944666" flag="0"/>
      <psa30 value="0.0010597098" flag="0"/>
    </comp>
    <comp name="--.HNN">
      <acc value="0.0360284612" flag="0"/>
      <vel value="0.0150835359" flag="0"/>
      <psa03 value="0.0623266661" flag="0"/>
      <psa10 value="0.0149886396" flag="0"/>
      <psa30 value="0.0011655690" flag="0"/>
    </comp>
    <comp name="--.HNZ">
      <acc value="0.0180942154" flag="0"/>
      <vel value="0.0060411307" flag="0"/>
      <psa03 value="0.0202467987" flag="0"/>
      <psa10 value="0.0142244505" flag="0"/>
      <psa30 value="0.0005842000" flag="0"/>
    </comp>
  </station>
  <station code="NPS1" name="NPS1" netid="HI" insttype="CMG-5TD,ACCELEROMETER,GURALP" lat="36.5126" lon="23.0625">
    <comp name="--.HNN">
      <acc value="0.0937908078" flag="0"/>
      <vel value="0.0365711952" flag="0"/>
      <psa03 value="0.2640054139" flag="0"/>
      <psa10 value="0.0255624844" flag="0"/>
      <psa30 value="0.0013748291" flag="0"/>
    </comp>
    <comp name="--.HNZ">
      <acc value="0.0954410161" flag="0"/>
      <vel value="0.0238757394" flag="0"/>
      <psa03 value="0.1261243093" flag="0"/>
      <psa10 value="0.0121217308" flag="0"/>
      <psa30 value="0.0010075913" flag="0"/>
    </comp>
    <comp name="--.HNE">
      <acc value="0.1346387300" flag="0"/>
      <vel value="0.0641972227" flag="0"/>
      <psa03 value="0.3222327608" flag="0"/>
      <psa10 value="0.0362099039" flag="0"/>
      <psa30 value="0.0018274221" flag="0"/>
    </comp>
  </station>
  <station code="ANKY" name="ANKY" netid="HL" insttype="60" lat="35.867" lon="23.3012">
    <comp name="--.HHE">
      <acc value="0.0669741418" flag="0"/>
      <vel value="0.0236576234" flag="0"/>
      <psa03 value="0.0892225443" flag="0"/>
      <psa10 value="0.0253668505" flag="0"/>
      <psa30 value="0.0021651609" flag="0"/>
    </comp>
    <comp name="--.HHN">
      <acc value="0.0698792805" flag="0"/>
      <vel value="0.0248665044" flag="0"/>
      <psa03 value="0.1236879726" flag="0"/>
      <psa10 value="0.0332622484" flag="0"/>
      <psa30 value="0.0013477477" flag="0"/>
    </comp>
    <comp name="--.HHZ">
      <acc value="0.0745787225" flag="0"/>
      <vel value="0.0165404824" flag="0"/>
      <psa03 value="0.0852809425" flag="0"/>
      <psa10 value="0.0237923938" flag="0"/>
      <psa30 value="0.0008043923" flag="0"/>
    </comp>
  </station>
  <station code="IMMV" name="IMMV" netid="HL" insttype="DC" lat="35.4606" lon="23.9811">
    <comp name="--.HNE">
      <acc value="0.0152368363" flag="0"/>
      <vel value="0.0078395070" flag="0"/>
      <psa03 value="0.0346630965" flag="0"/>
      <psa10 value="0.0165223059" flag="0"/>
      <psa30 value="0.0006999505" flag="0"/>
    </comp>
    <comp name="--.HNZ">
      <acc value="0.0120018272" flag="0"/>
      <vel value="0.0061756301" flag="0"/>
      <psa03 value="0.0308472835" flag="0"/>
      <psa10 value="0.0044116612" flag="0"/>
      <psa30 value="0.0005631402" flag="0"/>
    </comp>
    <comp name="--.HNN">
      <acc value="0.0146626565" flag="0"/>
      <vel value="0.0078918805" flag="0"/>
      <psa03 value="0.0572364389" flag="0"/>
      <psa10 value="0.0126201048" flag="0"/>
      <psa30 value="0.0006983713" flag="0"/>
    </comp>
  </station>
  <station code="VLI" name="VLI" netid="HL" insttype="60" lat="36.718" lon="22.9469">
    <comp name="--.HHE">
      <acc value="0.0370739907" flag="0"/>
      <vel value="0.0144927077" flag="0"/>
      <psa03 value="0.0830285405" flag="0"/>
      <psa10 value="0.0092288688" flag="0"/>
      <psa30 value="0.0008644601" flag="0"/>
    </comp>
    <comp name="--.HHZ">
      <acc value="0.0287896598" flag="0"/>
      <vel value="0.0093585909" flag="0"/>
      <psa03 value="0.0530276539" flag="0"/>
      <psa10 value="0.0053186019" flag="0"/>
      <psa30 value="0.0005645475" flag="0"/>
    </comp>
    <comp name="--.HHN">
      <acc value="0.0393086695" flag="0"/>
      <vel value="0.0197191334" flag="0"/>
      <psa03 value="0.1290909131" flag="0"/>
      <psa10 value="0.0080096772" flag="0"/>
      <psa30 value="0.0006211770" flag="0"/>
    </comp>
  </station>
</stationlist>
