<stationlist created="1778135965">
	<station code="KTHA" name="KTHA" netid="GE" source="GEOFON" insttype="" lat="36.2566" lon="23.0621">
		<comp name="--.HNE" depth="0.0">
			<acc value="0.00956715694571969" flag="0"/>
			<vel value="0.00650379262815856" flag="0"/>
			<psa03 value="0.0399100483034984" flag="0"/>
			<psa10 value="0.00998243371860261" flag="0"/>
			<psa30 value="0.00372344643477257" flag="0"/>
		</comp>
		<comp name="--.HNN" depth="0.0">
			<acc value="0.00646364783143164" flag="0"/>
			<vel value="0.00445719987687124" flag="0"/>
			<psa03 value="0.0212525481436791" flag="0"/>
			<psa10 value="0.00685361120978687" flag="0"/>
			<psa30 value="0.0012867858623415" flag="0"/>
		</comp>
		<comp name="--.HNZ" depth="0.0">
			<acc value="0.00551614335690737" flag="0"/>
			<vel value="0.00508224044748458" flag="0"/>
			<psa03 value="0.0134226619854815" flag="0"/>
			<psa10 value="0.00755024736683336" flag="0"/>
			<psa30 value="0.00207290643262453" flag="0"/>
		</comp>
	</station>
	<station code="ABEA" name="ABEA" netid="HC" source="Seismological Network of Crete (HC)" insttype="" lat="35.5163" lon="24.0113">
		<comp name="--.HNE" depth="0.0">
			<acc value="0.114164700147619" flag="0"/>
			<vel value="0.0672296561415665" flag="0"/>
			<psa03 value="0.305276075756468" flag="0"/>
			<psa10 value="0.138074897046053" flag="0"/>
			<psa30 value="0.00993500697958724" flag="0"/>
		</comp>
		<comp name="--.HNN" depth="0.0">
			<acc value="0.143926961378908" flag="0"/>
			<vel value="0.0685866335707421" flag="0"/>
			<psa03 value="0.307021021814581" flag="0"/>
			<psa10 value="0.0995505148815223" flag="0"/>
			<psa30 value="0.00610373182686463" flag="0"/>
		</comp>
		<comp name="--.HNZ" depth="0.0">
			<acc value="0.105242706759071" flag="0"/>
			<vel value="0.0527270742356168" flag="0"/>
			<psa03 value="0.149438970105028" flag="0"/>
			<psa10 value="0.134140714818108" flag="0"/>
			<psa30 value="0.00455744116613716" flag="0"/>
		</comp>
	</station>
	<station code="ATEI" name="ATEI" netid="HC" source="Seismological Network of Crete (HC)" insttype="" lat="35.5193" lon="24.0432">
		<comp name="--.HNE" depth="0.0">
			<acc value="0.0952714961323801" flag="0"/>
			<vel value="0.061918930260317" flag="0"/>
			<psa03 value="0.286305380150321" flag="0"/>
			<psa10 value="0.102808194945399" flag="0"/>
			<psa30 value="0.00549344812859141" flag="0"/>
		</comp>
		<comp name="--.HNN" depth="0.0">
			<acc value="0.096764726381926" flag="0"/>
			<vel value="0.0672938470063176" flag="0"/>
			<psa03 value="0.239505032027609" flag="0"/>
			<psa10 value="0.0824768888359898" flag="0"/>
			<psa30 value="0.00530239890633138" flag="0"/>
		</comp>
		<comp name="--.HNZ" depth="0.0">
			<acc value="0.0696315821518076" flag="0"/>
			<vel value="0.035806499884976" flag="0"/>
			<psa03 value="0.201250445368986" flag="0"/>
			<psa10 value="0.051679933176501" flag="0"/>
			<psa30 value="0.00454715045861496" flag="0"/>
		</comp>
	</station>
	<station code="DEYA" name="DEYA" netid="HC" source="Seismological Network of Crete (HC)" insttype="" lat="35.4825" lon="24.014">
		<comp name="--.HNE" depth="0.0">
			<acc value="0.118618559472717" flag="0"/>
			<vel value="0.0632245683304521" flag="0"/>
			<psa03 value="0.40670665816009" flag="0"/>
			<psa10 value="0.0997679620056871" flag="0"/>
			<psa30 value="0.00684913698912504" flag="0"/>
		</comp>
		<comp name="--.HNN" depth="0.0">
			<acc value="0.187655160978546" flag="0"/>
			<vel value="0.0711521546500885" flag="0"/>
			<psa03 value="0.351136837540197" flag="0"/>
			<psa10 value="0.13752322563845" flag="0"/>
			<psa30 value="0.00495788391537069" flag="0"/>
		</comp>
		<comp name="--.HNZ" depth="0.0">
			<acc value="0.119407533989511" flag="0"/>
			<vel value="0.0416860068601191" flag="0"/>
			<psa03 value="0.160803490586069" flag="0"/>
			<psa10 value="0.0456800032689907" flag="0"/>
			<psa30 value="0.00338922215133408" flag="0"/>
		</comp>
	</station>
	<station code="G0LD" name="G0LD" netid="HC" source="Seismological Network of Crete (HC)" insttype="" lat="35.4955" lon="24.0306">
		<comp name="--.HNE" depth="0.0">
			<acc value="0.399151656259569" flag="0"/>
			<vel value="0.186732330132159" flag="0"/>
			<psa03 value="1.52042966530211" flag="0"/>
			<psa10 value="0.343252365889925" flag="0"/>
			<psa30 value="0.0168033831175581" flag="0"/>
		</comp>
		<comp name="--.HNN" depth="0.0">
			<acc value="0.324051967399938" flag="0"/>
			<vel value="0.187334307891792" flag="0"/>
			<psa03 value="0.733056313233764" flag="0"/>
			<psa10 value="0.387905535517026" flag="0"/>
			<psa30 value="0.0174400647177361" flag="0"/>
		</comp>
		<comp name="--.HNZ" depth="0.0">
			<acc value="0.152797944601185" flag="0"/>
			<vel value="0.153227520634362" flag="0"/>
			<psa03 value="0.341338294290795" flag="0"/>
			<psa10 value="0.364819899168197" flag="0"/>
			<psa30 value="0.00968937226525293" flag="0"/>
		</comp>
	</station>
	<station code="LENT" name="LENT" netid="HC" source="Seismological Network of Crete (HC)" insttype="" lat="35.5074" lon="24.0402">
		<comp name="--.HNE" depth="0.0">
			<acc value="0.184054379764607" flag="0"/>
			<vel value="0.0775806207704296" flag="0"/>
			<psa03 value="0.299549073309329" flag="0"/>
			<psa10 value="0.138948712341308" flag="0"/>
			<psa30 value="0.00604825149065797" flag="0"/>
		</comp>
		<comp name="--.HNN" depth="0.0">
			<acc value="0.225486198128989" flag="0"/>
			<vel value="0.0998425052754996" flag="0"/>
			<psa03 value="0.404469547829177" flag="0"/>
			<psa10 value="0.108779937262739" flag="0"/>
			<psa30 value="0.00720707464207121" flag="0"/>
		</comp>
		<comp name="--.HNZ" depth="0.0">
			<acc value="0.175280724447415" flag="0"/>
			<vel value="0.0736923498900661" flag="0"/>
			<psa03 value="0.295074852647502" flag="0"/>
			<psa10 value="0.0721239896465879" flag="0"/>
			<psa30 value="0.00391091628050313" flag="0"/>
		</comp>
	</station>
	<station code="MULT" name="MULT" netid="HC" source="Seismological Network of Crete (HC)" insttype="" lat="35.5091" lon="24.0118">
		<comp name="--.HNE" depth="0.0">
			<acc value="0.140727220794611" flag="0"/>
			<vel value="0.0405130243489625" flag="0"/>
			<psa03 value="0.175076254497297" flag="0"/>
			<psa10 value="0.0519618090781961" flag="0"/>
			<psa30 value="0.00419771382492626" flag="0"/>
		</comp>
		<comp name="--.HNN" depth="0.0">
			<acc value="0.105766126131594" flag="0"/>
			<vel value="0.0399551051729259" flag="0"/>
			<psa03 value="0.190825511226929" flag="0"/>
			<psa10 value="0.0783695542684324" flag="0"/>
			<psa30 value="0.00355029409515986" flag="0"/>
		</comp>
		<comp name="--.HNZ" depth="0.0">
			<acc value="0.101692110504311" flag="0"/>
			<vel value="0.026823520389594" flag="0"/>
			<psa03 value="0.097627494841069" flag="0"/>
			<psa10 value="0.0500772673354345" flag="0"/>
			<psa30 value="0.00369660111080161" flag="0"/>
		</comp>
	</station>
	<station code="PASK" name="PASK" netid="HC" source="Seismological Network of Crete (HC)" insttype="" lat="35.4996" lon="24.0121">
		<comp name="--.HNE" depth="0.0">
			<acc value="0.229437393852204" flag="0"/>
			<vel value="0.153219653837325" flag="0"/>
			<psa03 value="0.459815657415979" flag="0"/>
			<psa10 value="0.152345871269017" flag="0"/>
			<psa30 value="0.0109877911013152" flag="0"/>
		</comp>
		<comp name="--.HNN" depth="0.0">
			<acc value="0.240972612257046" flag="0"/>
			<vel value="0.132740420336079" flag="0"/>
			<psa03 value="0.432209715932505" flag="0"/>
			<psa10 value="0.188208539561826" flag="0"/>
			<psa30 value="0.00899049899787552" flag="0"/>
		</comp>
		<comp name="--.HNZ" depth="0.0">
			<acc value="0.132410725130125" flag="0"/>
			<vel value="0.0604597951477903" flag="0"/>
			<psa03 value="0.349570860308557" flag="0"/>
			<psa10 value="0.093619040550138" flag="0"/>
			<psa30 value="0.00617308224712295" flag="0"/>
		</comp>
	</station>
	<station code="POLY" name="POLY" netid="HC" source="Seismological Network of Crete (HC)" insttype="" lat="35.5226" lon="24.0602">
		<comp name="--.HNE" depth="0.0">
			<acc value="0.0913812120637048" flag="0"/>
			<vel value="0.0549268790125938" flag="0"/>
			<psa03 value="0.230198653051008" flag="0"/>
			<psa10 value="0.0659710413924432" flag="0"/>
			<psa30 value="0.00501336425157735" flag="0"/>
		</comp>
		<comp name="--.HNN" depth="0.0">
			<acc value="0.128718304741024" flag="0"/>
			<vel value="0.0625549603001566" flag="0"/>
			<psa03 value="0.33681933142235" flag="0"/>
			<psa10 value="0.114449669685407" flag="0"/>
			<psa30 value="0.00655831264610627" flag="0"/>
		</comp>
		<comp name="--.HNZ" depth="0.0">
			<acc value="0.0561349119907904" flag="0"/>
			<vel value="0.0332924355654077" flag="0"/>
			<psa03 value="0.22885638685246" flag="0"/>
			<psa10 value="0.0389190084269037" flag="0"/>
			<psa30 value="0.00295253821473975" flag="0"/>
		</comp>
	</station>
	<station code="CH01" name="CH01" netid="HI" source="ITSAK Strong Motion Network" insttype="" lat="35.517" lon="24.0208">
		<comp name="--.HNE" depth="0.0">
			<acc value="0.080571564633259" flag="0"/>
			<vel value="0.0472305209391775" flag="0"/>
			<psa03 value="0.172742464173673" flag="0"/>
			<psa10 value="0.0659019981839874" flag="0"/>
			<psa30 value="0.0047764264147941" flag="0"/>
		</comp>
		<comp name="--.HNN" depth="0.0">
			<acc value="0.0760651140299354" flag="0"/>
			<vel value="0.0439096280465508" flag="0"/>
			<psa03 value="0.193283074888499" flag="0"/>
			<psa10 value="0.0641842343904733" flag="0"/>
			<psa30 value="0.00441651132220161" flag="0"/>
		</comp>
		<comp name="--.HNZ" depth="0.0">
			<acc value="0.0562794743092817" flag="0"/>
			<vel value="0.0276829678632825" flag="0"/>
			<psa03 value="0.111654125704635" flag="0"/>
			<psa10 value="0.0509689851949705" flag="0"/>
			<psa30 value="0.00264624300894715" flag="0"/>
		</comp>
	</station>
	<station code="ANKY" name="ANKY" netid="HL" source="National Observatory of Athens Seismic Network" insttype="" lat="35.86704" lon="23.30117">
		<comp name="00.HNE" depth="0.0">
			<acc value="0.0112049839428423" flag="0"/>
			<vel value="0.00973344393837434" flag="0"/>
			<psa03 value="0.0454580819241641" flag="0"/>
			<psa10 value="0.0146414396937632" flag="0"/>
			<psa30 value="0.00198073748699089" flag="0"/>
		</comp>
		<comp name="00.HNN" depth="0.0">
			<acc value="0.0126227470496542" flag="0"/>
			<vel value="0.00768659421738541" flag="0"/>
			<psa03 value="0.0326170686247201" flag="0"/>
			<psa10 value="0.0171300012258715" flag="0"/>
			<psa30 value="0.00166619977446444" flag="0"/>
		</comp>
		<comp name="00.HNZ" depth="0.0">
			<acc value="0.0102170786350289" flag="0"/>
			<vel value="0.00775961709656962" flag="0"/>
			<psa03 value="0.0336013971703221" flag="0"/>
			<psa10 value="0.00616100185133602" flag="0"/>
			<psa30 value="0.00151944533675651" flag="0"/>
		</comp>
	</station>
	<station code="IACM" name="IACM" netid="HL" source="National Observatory of Athens Seismic Network" insttype="" lat="35.3058" lon="25.0709">
		<comp name="--.HNE" depth="0.0">
			<acc value="0.120659920624065" flag="0"/>
			<vel value="0.0992617763785074" flag="0"/>
			<psa03 value="0.434044146403854" flag="0"/>
			<psa10 value="0.161241069366795" flag="0"/>
			<psa30 value="0.00770773993412967" flag="0"/>
		</comp>
		<comp name="--.HNN" depth="0.0">
			<acc value="0.123266523933507" flag="0"/>
			<vel value="0.108578797153956" flag="0"/>
			<psa03 value="0.443305783173837" flag="0"/>
			<psa10 value="0.157234404764129" flag="0"/>
			<psa30 value="0.00809654970964246" flag="0"/>
		</comp>
		<comp name="--.HNZ" depth="0.0">
			<acc value="0.0664437737612777" flag="0"/>
			<vel value="0.0405875131116256" flag="0"/>
			<psa03 value="0.19650777146745" flag="0"/>
			<psa10 value="0.0602771481782019" flag="0"/>
			<psa30 value="0.00235209780192255" flag="0"/>
		</comp>
	</station>
	<station code="IMMV" name="IMMV" netid="HL" source="National Observatory of Athens Seismic Network" insttype="" lat="35.4606" lon="23.9811">
		<comp name="--.HNE" depth="0.0">
			<acc value="0.415328510923581" flag="0"/>
			<vel value="0.140677890997031" flag="0"/>
			<psa03 value="0.776903675719671" flag="0"/>
			<psa10 value="0.108397391396153" flag="0"/>
			<psa30 value="0.00648717253758322" flag="0"/>
		</comp>
		<comp name="--.HNN" depth="0.0">
			<acc value="0.403461796507531" flag="0"/>
			<vel value="0.111241226516301" flag="0"/>
			<psa03 value="0.58093281073164" flag="0"/>
			<psa10 value="0.0956284130493646" flag="0"/>
			<psa30 value="0.00531940094484633" flag="0"/>
		</comp>
		<comp name="--.HNZ" depth="0.0">
			<acc value="0.324716719365123" flag="0"/>
			<vel value="0.0851741538325126" flag="0"/>
			<psa03 value="0.267513653370647" flag="0"/>
			<psa10 value="0.0495739175109789" flag="0"/>
			<psa30 value="0.0019364427024388" flag="0"/>
		</comp>
	</station>
	<station code="KTHA" name="KTHA" netid="HL" source="National Observatory of Athens Seismic Network" insttype="" lat="36.2566" lon="23.0621">
		<comp name="--.HNE" depth="0.0">
			<acc value="0.000924325613212839" flag="0"/>
			<vel value="0.00056255806926956" flag="0"/>
			<psa03 value="0.00384782976917137" flag="0"/>
			<psa10 value="0.000587912594964091" flag="0"/>
			<psa30 value="8.85895691041781e-05" flag="0"/>
		</comp>
		<comp name="--.HNN" depth="0.0">
			<acc value="0.000652491084383203" flag="0"/>
			<vel value="0.000369446381090396" flag="0"/>
			<psa03 value="0.0020581415044405" flag="0"/>
			<psa10 value="0.000394626262373157" flag="0"/>
			<psa30 value="4.16102521549927e-05" flag="0"/>
		</comp>
		<comp name="--.HNZ" depth="0.0">
			<acc value="0.000609469849375594" flag="0"/>
			<vel value="0.00029221060742092" flag="0"/>
			<psa03 value="0.00138700840516642" flag="0"/>
			<psa10 value="0.000366438672203646" flag="0"/>
			<psa30 value="3.98205638902619e-05" flag="0"/>
		</comp>
	</station>
	<station code="SIVA" name="SIVA" netid="HL" source="National Observatory of Athens Seismic Network" insttype="" lat="35.01777" lon="24.81204">
		<comp name="00.HNE" depth="0.0">
			<acc value="0.157261640962129" flag="0"/>
			<vel value="0.147711952557202" flag="0"/>
			<psa03 value="0.465766370896209" flag="0"/>
			<psa10 value="0.100738420467237" flag="0"/>
			<psa30 value="0.00651312301742182" flag="0"/>
		</comp>
		<comp name="00.HNN" depth="0.0">
			<acc value="0.132772966429827" flag="0"/>
			<vel value="0.0802491332146802" flag="0"/>
			<psa03 value="0.396594919464361" flag="0"/>
			<psa10 value="0.113829542701678" flag="0"/>
			<psa30 value="0.00429569925742027" flag="0"/>
		</comp>
		<comp name="00.HNZ" depth="0.0">
			<acc value="0.0858957800653025" flag="0"/>
			<vel value="0.0337270531234963" flag="0"/>
			<psa03 value="0.163577507396402" flag="0"/>
			<psa10 value="0.0289285211111098" flag="0"/>
			<psa30 value="0.00196149833814503" flag="0"/>
		</comp>
	</station>
</stationlist>
