<?xml version="1.0" encoding="UTF-8" standalone="yes"?>
<!DOCTYPE earthquake SYSTEM "stationlist.dtd">
<stationlist created="" xmlns="ch.ethz.sed.shakemap.usgs.xml">
  <station code="IMMV" name="IMMV" netid="GE" insttype="STS-2/N" lat="35.4606" lon="23.9811">
    <comp name="--.HHN">
      <acc value="0.4226907084" flag="0"/>
      <vel value="0.1139683952" flag="0"/>
      <psa03 value="0.5908582400" flag="0"/>
      <psa10 value="0.0975022321" flag="0"/>
      <psa30 value="0.0053608643" flag="0"/>
    </comp>
    <comp name="--.HHE">
      <acc value="0.4374977325" flag="0"/>
      <vel value="0.1493042969" flag="0"/>
      <psa03 value="0.8293514870" flag="0"/>
      <psa10 value="0.1126536094" flag="0"/>
      <psa30 value="0.0064509800" flag="0"/>
    </comp>
    <comp name="--.HHZ">
      <acc value="0.3402352934" flag="0"/>
      <vel value="0.0858771592" flag="0"/>
      <psa03 value="0.2742012736" flag="0"/>
      <psa10 value="0.0493928325" flag="0"/>
      <psa30 value="0.0019538298" flag="0"/>
    </comp>
  </station>
  <station code="CHAN" name="CHAN" netid="HC" insttype="120" lat="35.5193" lon="24.0428">
    <comp name="--.HHE">
      <acc value="0.1222118571" flag="0"/>
      <vel value="0.0784315580" flag="0"/>
      <psa03 value="0.3764669909" flag="0"/>
      <psa10 value="0.1332962806" flag="0"/>
      <psa30 value="0.0068259511" flag="0"/>
    </comp>
    <comp name="--.HHN">
      <acc value="0.1272927871" flag="0"/>
      <vel value="0.0890016886" flag="0"/>
      <psa03 value="0.3173208865" flag="0"/>
      <psa10 value="0.1049550657" flag="0"/>
      <psa30 value="0.0065849985" flag="0"/>
    </comp>
    <comp name="--.HHZ">
      <acc value="0.0881712837" flag="0"/>
      <vel value="0.0464299382" flag="0"/>
      <psa03 value="0.2584390759" flag="0"/>
      <psa10 value="0.0657823000" flag="0"/>
      <psa30 value="0.0050694698" flag="0"/>
    </comp>
  </station>
  <station code="KNDR" name="KNDR" netid="HC" insttype="120" lat="35.2348" lon="23.6248">
    <comp name="--.HHN">
      <acc value="0.1826553570" flag="0"/>
      <vel value="0.0888286205" flag="0"/>
      <psa03 value="0.3938891685" flag="0"/>
      <psa10 value="0.0603351914" flag="0"/>
      <psa30 value="0.0029434169" flag="0"/>
    </comp>
    <comp name="--.HHE">
      <acc value="0.1872486784" flag="0"/>
      <vel value="0.0632913410" flag="0"/>
      <psa03 value="0.3214939407" flag="0"/>
      <psa10 value="0.0742418377" flag="0"/>
      <psa30 value="0.0027716497" flag="0"/>
    </comp>
    <comp name="--.HHZ">
      <acc value="0.1386624410" flag="0"/>
      <vel value="0.0408559929" flag="0"/>
      <psa03 value="0.2306783480" flag="0"/>
      <psa10 value="0.0213867218" flag="0"/>
      <psa30 value="0.0016117096" flag="0"/>
    </comp>
  </station>
  <station code="RODP" name="RODP" netid="HC" insttype="120" lat="35.5604" lon="23.7577">
    <comp name="--.HHE">
      <acc value="0.0962893443" flag="0"/>
      <vel value="0.0403149383" flag="0"/>
      <psa03 value="0.2536600072" flag="0"/>
      <psa10 value="0.0454483702" flag="0"/>
      <psa30 value="0.0023515173" flag="0"/>
    </comp>
    <comp name="--.HHZ">
      <acc value="0.0452392291" flag="0"/>
      <vel value="0.0178727888" flag="0"/>
      <psa03 value="0.1037857771" flag="0"/>
      <psa10 value="0.0192708743" flag="0"/>
      <psa30 value="0.0011615010" flag="0"/>
    </comp>
    <comp name="--.HHN">
      <acc value="0.0727753594" flag="0"/>
      <vel value="0.0411031469" flag="0"/>
      <psa03 value="0.2546868443" flag="0"/>
      <psa10 value="0.0303684486" flag="0"/>
      <psa30 value="0.0021444454" flag="0"/>
    </comp>
  </station>
  <station code="CH01" name="CH01" netid="HI" insttype="CMG-5TD,ACCELEROMETER,GURALP" lat="35.517" lon="24.0208">
    <comp name="--.HNE">
      <acc value="0.0795322810" flag="0"/>
      <vel value="0.0471699435" flag="0"/>
      <psa03 value="0.1731164657" flag="0"/>
      <psa10 value="0.0658287728" flag="0"/>
      <psa30 value="0.0045514339" flag="0"/>
    </comp>
    <comp name="--.HNN">
      <acc value="0.0765265541" flag="0"/>
      <vel value="0.0436691211" flag="0"/>
      <psa03 value="0.1925094552" flag="0"/>
      <psa10 value="0.0641459846" flag="0"/>
      <psa30 value="0.0042960012" flag="0"/>
    </comp>
    <comp name="--.HNZ">
      <acc value="0.0561239072" flag="0"/>
      <vel value="0.0277958959" flag="0"/>
      <psa03 value="0.1098745514" flag="0"/>
      <psa10 value="0.0508829897" flag="0"/>
      <psa30 value="0.0025444601" flag="0"/>
    </comp>
  </station>
  <station code="IACM" name="IACM" netid="HL" insttype="120" lat="35.3058" lon="25.0709">
    <comp name="--.HHE">
      <acc value="0.1384420179" flag="0"/>
      <vel value="0.1184095725" flag="0"/>
      <psa03 value="0.4799424557" flag="0"/>
      <psa10 value="0.1105996925" flag="0"/>
      <psa30 value="0.0065100505" flag="0"/>
    </comp>
    <comp name="--.HHZ">
      <acc value="0.0616224644" flag="0"/>
      <vel value="0.0608464639" flag="0"/>
      <psa03 value="0.1661296924" flag="0"/>
      <psa10 value="0.0810704680" flag="0"/>
      <psa30 value="0.0038107611" flag="0"/>
    </comp>
    <comp name="--.HHN">
      <acc value="0.0891071858" flag="0"/>
      <vel value="0.0783033329" flag="0"/>
      <psa03 value="0.3405311625" flag="0"/>
      <psa10 value="0.0808028472" flag="0"/>
      <psa30 value="0.0045874552" flag="0"/>
    </comp>
  </station>
  <station code="IDI" name="IDI" netid="HL" insttype="120" lat="35.288" lon="24.89">
    <comp name="--.HHE">
      <acc value="0.0246764066" flag="0"/>
      <vel value="0.0152560106" flag="0"/>
      <psa03 value="0.0840576086" flag="0"/>
      <psa10 value="0.0182528608" flag="0"/>
      <psa30 value="0.0010201268" flag="0"/>
    </comp>
    <comp name="--.HHZ">
      <acc value="0.0171236101" flag="0"/>
      <vel value="0.0099214854" flag="0"/>
      <psa03 value="0.0514840240" flag="0"/>
      <psa10 value="0.0128060164" flag="0"/>
      <psa30 value="0.0018032554" flag="0"/>
    </comp>
    <comp name="--.HHN">
      <acc value="0.0227153722" flag="0"/>
      <vel value="0.0171254709" flag="0"/>
      <psa03 value="0.0665254254" flag="0"/>
      <psa10 value="0.0177523273" flag="0"/>
      <psa30 value="0.0015319395" flag="0"/>
    </comp>
  </station>
  <station code="IMMV" name="IMMV" netid="HL" insttype="120" lat="35.4606" lon="23.9811">
    <comp name="--.HHN">
      <acc value="0.4095899707" flag="0"/>
      <vel value="0.1110611096" flag="0"/>
      <psa03 value="0.5736179735" flag="0"/>
      <psa10 value="0.0969030204" flag="0"/>
      <psa30 value="0.0053201110" flag="0"/>
    </comp>
    <comp name="--.HHE">
      <acc value="0.4312418995" flag="0"/>
      <vel value="0.1443150564" flag="0"/>
      <psa03 value="0.8080675262" flag="0"/>
      <psa10 value="0.1117580684" flag="0"/>
      <psa30 value="0.0064097499" flag="0"/>
    </comp>
    <comp name="--.HHZ">
      <acc value="0.3306212629" flag="0"/>
      <vel value="0.0829568314" flag="0"/>
      <psa03 value="0.2650847170" flag="0"/>
      <psa10 value="0.0490421104" flag="0"/>
      <psa30 value="0.0019342939" flag="0"/>
    </comp>
  </station>
  <station code="SIVA" name="SIVA" netid="HL" insttype="60" lat="35.0178" lon="24.812">
    <comp name="--.HHZ">
      <acc value="0.0868455815" flag="0"/>
      <vel value="0.0342796975" flag="0"/>
      <psa03 value="0.1615130833" flag="0"/>
      <psa10 value="0.0288073310" flag="0"/>
      <psa30 value="0.0018853654" flag="0"/>
    </comp>
    <comp name="--.HHE">
      <acc value="0.1671121175" flag="0"/>
      <vel value="0.1561623090" flag="0"/>
      <psa03 value="0.4865369087" flag="0"/>
      <psa10 value="0.1071225106" flag="0"/>
      <psa30 value="0.0065345512" flag="0"/>
    </comp>
    <comp name="--.HHN">
      <acc value="0.1341683178" flag="0"/>
      <vel value="0.0728022280" flag="0"/>
      <psa03 value="0.3677303128" flag="0"/>
      <psa10 value="0.0946636704" flag="0"/>
      <psa30 value="0.0034969147" flag="0"/>
    </comp>
  </station>
  <station code="VAM" name="VAM" netid="HL" insttype="CMG3ESPC-120s" lat="35.407" lon="24.1997">
    <comp name="--.HHN">
      <acc value="0.1560286843" flag="0"/>
      <vel value="0.0615998434" flag="0"/>
      <psa03 value="0.3232061382" flag="0"/>
      <psa10 value="0.0749777149" flag="0"/>
      <psa30 value="0.0032523837" flag="0"/>
    </comp>
    <comp name="--.HHE">
      <acc value="0.1124275518" flag="0"/>
      <vel value="0.0426878958" flag="0"/>
      <psa03 value="0.3083307884" flag="0"/>
      <psa10 value="0.0296044045" flag="0"/>
      <psa30 value="0.0022288147" flag="0"/>
    </comp>
    <comp name="--.HHZ">
      <acc value="0.0748984252" flag="0"/>
      <vel value="0.0386508807" flag="0"/>
      <psa03 value="0.1910888602" flag="0"/>
      <psa10 value="0.0314014523" flag="0"/>
      <psa30 value="0.0020838160" flag="0"/>
    </comp>
  </station>
  <station code="IDI" name="IDI" netid="MN" insttype="" lat="35.288" lon="24.89">
    <comp name="--.HHZ">
      <acc value="0.0174558398" flag="0"/>
      <vel value="0.0099276609" flag="0"/>
      <psa03 value="0.0517707397" flag="0"/>
      <psa10 value="0.0127248874" flag="0"/>
      <psa30 value="0.0017852422" flag="0"/>
    </comp>
    <comp name="--.HHE">
      <acc value="0.0252199122" flag="0"/>
      <vel value="0.0154440431" flag="0"/>
      <psa03 value="0.0845538336" flag="0"/>
      <psa10 value="0.0181524734" flag="0"/>
      <psa30 value="0.0010132932" flag="0"/>
    </comp>
    <comp name="--.HHN">
      <acc value="0.0234181407" flag="0"/>
      <vel value="0.0170781955" flag="0"/>
      <psa03 value="0.0669433919" flag="0"/>
      <psa10 value="0.0176345419" flag="0"/>
      <psa30 value="0.0015170634" flag="0"/>
    </comp>
  </station>
</stationlist>
