<?xml version="1.0" encoding="UTF-8" standalone="yes"?>
<!DOCTYPE earthquake SYSTEM "stationlist.dtd">
<stationlist created="" xmlns="ch.ethz.sed.shakemap.usgs.xml">
  <station code="AYDB" name="AYDB" netid="KO" insttype="30s," lat="37.9467" lon="27.8908">
    <comp name="--.HHE">
      <acc value="0.0754192796" flag="0"/>
      <vel value="0.0222897367" flag="0"/>
      <psa03 value="0.1009974487" flag="0"/>
      <psa10 value="0.0186006986" flag="0"/>
      <psa30 value="0.0012948786" flag="0"/>
    </comp>
    <comp name="--.HHN">
      <acc value="0.0666050630" flag="0"/>
      <vel value="0.0150098925" flag="0"/>
      <psa03 value="0.0714537740" flag="0"/>
      <psa10 value="0.0120534706" flag="0"/>
      <psa30 value="0.0007023739" flag="0"/>
    </comp>
    <comp name="--.HHZ">
      <acc value="0.0376386851" flag="0"/>
      <vel value="0.0125440296" flag="0"/>
      <psa03 value="0.0441875585" flag="0"/>
      <psa10 value="0.0075626605" flag="0"/>
      <psa30 value="0.0013259518" flag="0"/>
    </comp>
  </station>
  <station code="GMLD" name="GMLD" netid="KO" insttype="CMG-5T" lat="38.0766" lon="26.9157">
    <comp name="--.HNE">
      <acc value="0.6056482089" flag="0"/>
      <vel value="0.1481429919" flag="0"/>
      <psa03 value="0.9815825387" flag="0"/>
      <psa10 value="0.0649389382" flag="0"/>
      <psa30 value="0.0056407896" flag="0"/>
    </comp>
    <comp name="--.HNN">
      <acc value="0.5010529120" flag="0"/>
      <vel value="0.1763460978" flag="0"/>
      <psa03 value="0.9509959277" flag="0"/>
      <psa10 value="0.0723456163" flag="0"/>
      <psa30 value="0.0048407153" flag="0"/>
    </comp>
    <comp name="--.HNZ">
      <acc value="0.4055415522" flag="0"/>
      <vel value="0.1228198828" flag="0"/>
      <psa03 value="0.8877754165" flag="0"/>
      <psa10 value="0.0292110966" flag="0"/>
      <psa30 value="0.0029447598" flag="0"/>
    </comp>
  </station>
  <station code="KUSD" name="KUSD" netid="KO" insttype="CMG-5T" lat="37.8606" lon="27.2868">
    <comp name="--.HNZ">
      <acc value="0.4443616801" flag="0"/>
      <vel value="0.0880416381" flag="0"/>
      <psa03 value="0.6335735340" flag="0"/>
      <psa10 value="0.0400889214" flag="0"/>
      <psa30 value="0.0054643954" flag="0"/>
    </comp>
    <comp name="--.HNE">
      <acc value="0.4757462708" flag="0"/>
      <vel value="0.1324335073" flag="0"/>
      <psa03 value="0.7374540907" flag="0"/>
      <psa10 value="0.1090416659" flag="0"/>
      <psa30 value="0.0126360548" flag="0"/>
    </comp>
    <comp name="--.HNN">
      <acc value="0.7532621932" flag="0"/>
      <vel value="0.2649623377" flag="0"/>
      <psa03 value="1.8489966521" flag="0"/>
      <psa10 value="0.1753827398" flag="0"/>
      <psa30 value="0.0105147674" flag="0"/>
    </comp>
  </station>
  <station code="AYDN" name="AYDN" netid="TU" insttype="T" lat="37.6608" lon="27.8792">
    <comp name="--.HHE">
      <acc value="0.0914658898" flag="0"/>
      <vel value="0.0325228342" flag="0"/>
      <psa03 value="0.2606572681" flag="0"/>
      <psa10 value="0.0160372304" flag="0"/>
      <psa30 value="0.0022459473" flag="0"/>
    </comp>
    <comp name="--.HHZ">
      <acc value="0.0685842894" flag="0"/>
      <vel value="0.0092623648" flag="0"/>
      <psa03 value="0.0484797460" flag="0"/>
      <psa10 value="0.0085668671" flag="0"/>
      <psa30 value="0.0018835557" flag="0"/>
    </comp>
    <comp name="--.HHN">
      <acc value="0.0669463337" flag="0"/>
      <vel value="0.0187705795" flag="0"/>
      <psa03 value="0.1243422352" flag="0"/>
      <psa10 value="0.0102058953" flag="0"/>
      <psa30 value="0.0012062975" flag="0"/>
    </comp>
  </station>
</stationlist>
