<?xml version="1.0" encoding="UTF-8" standalone="yes"?>
<!DOCTYPE earthquake SYSTEM "stationlist.dtd">
<stationlist created="" xmlns="ch.ethz.sed.shakemap.usgs.xml">
  <station code="KRL1" name="KRL1" netid="HI" insttype="CMG-5TD,ACCELEROMETER,GURALP" lat="37.7951" lon="26.7065">
    <comp name="--.HNE">
      <acc value="0.1241535830" flag="0"/>
      <vel value="0.0349811104" flag="0"/>
      <psa03 value="0.1937855238" flag="0"/>
      <psa10 value="0.0107003495" flag="0"/>
      <psa30 value="0.0014932562" flag="0"/>
    </comp>
    <comp name="--.HNN">
      <acc value="0.1443178506" flag="0"/>
      <vel value="0.0418492331" flag="0"/>
      <psa03 value="0.1293204894" flag="0"/>
      <psa10 value="0.0184598221" flag="0"/>
      <psa30 value="0.0016504580" flag="0"/>
    </comp>
    <comp name="--.HNZ">
      <acc value="0.0681440684" flag="0"/>
      <vel value="0.0153568909" flag="0"/>
      <psa03 value="0.0598159192" flag="0"/>
      <psa10 value="0.0088875426" flag="0"/>
      <psa30 value="0.0010599097" flag="0"/>
    </comp>
  </station>
  <station code="SMG" name="SMG" netid="HL" insttype="120" lat="37.7043" lon="26.8377">
    <comp name="--.HHE">
      <acc value="0.2001060860" flag="0"/>
      <vel value="0.0760146568" flag="0"/>
      <psa03 value="0.4724823399" flag="0"/>
      <psa10 value="0.0161128349" flag="0"/>
      <psa30 value="0.0017664671" flag="0"/>
    </comp>
    <comp name="--.HHN">
      <acc value="0.1592671057" flag="0"/>
      <vel value="0.0548219684" flag="0"/>
      <psa03 value="0.3029959584" flag="0"/>
      <psa10 value="0.0193239501" flag="0"/>
      <psa30 value="0.0015777341" flag="0"/>
    </comp>
    <comp name="--.HHZ">
      <acc value="0.0840255957" flag="0"/>
      <vel value="0.0226574536" flag="0"/>
      <psa03 value="0.0939523346" flag="0"/>
      <psa10 value="0.0090782119" flag="0"/>
      <psa30 value="0.0014353081" flag="0"/>
    </comp>
  </station>
  <station code="AYDB" name="AYDB" netid="KO" insttype="30s," lat="37.9467" lon="27.8908">
    <comp name="--.HHZ">
      <acc value="0.0376386852" flag="0"/>
      <vel value="0.0125440369" flag="0"/>
      <psa03 value="0.0441875585" flag="0"/>
      <psa10 value="0.0075626604" flag="0"/>
      <psa30 value="0.0013259707" flag="0"/>
    </comp>
    <comp name="--.HHN">
      <acc value="0.0666050630" flag="0"/>
      <vel value="0.0150098878" flag="0"/>
      <psa03 value="0.0714537740" flag="0"/>
      <psa10 value="0.0120534702" flag="0"/>
      <psa30 value="0.0007024079" flag="0"/>
    </comp>
    <comp name="--.HHE">
      <acc value="0.0754192796" flag="0"/>
      <vel value="0.0222897402" flag="0"/>
      <psa03 value="0.1009974487" flag="0"/>
      <psa10 value="0.0186006988" flag="0"/>
      <psa30 value="0.0012948747" flag="0"/>
    </comp>
  </station>
  <station code="GMLD" name="GMLD" netid="KO" insttype="CMG-5T" lat="38.0766" lon="26.9157">
    <comp name="--.HNE">
      <acc value="0.6056482094" flag="0"/>
      <vel value="0.1481429923" flag="0"/>
      <psa03 value="0.9815825387" flag="0"/>
      <psa10 value="0.0649389473" flag="0"/>
      <psa30 value="0.0056405808" flag="0"/>
    </comp>
    <comp name="--.HNN">
      <acc value="0.5010529119" flag="0"/>
      <vel value="0.1763460980" flag="0"/>
      <psa03 value="0.9509959277" flag="0"/>
      <psa10 value="0.0723456090" flag="0"/>
      <psa30 value="0.0048401469" flag="0"/>
    </comp>
    <comp name="--.HNZ">
      <acc value="0.4055415516" flag="0"/>
      <vel value="0.1228198844" flag="0"/>
      <psa03 value="0.8877754165" flag="0"/>
      <psa10 value="0.0292110959" flag="0"/>
      <psa30 value="0.0029430542" flag="0"/>
    </comp>
  </station>
  <station code="KUSD" name="KUSD" netid="KO" insttype="CMG-5T" lat="37.8606" lon="27.2868">
    <comp name="--.HNE">
      <acc value="0.4757462678" flag="0"/>
      <vel value="0.1324335065" flag="0"/>
      <psa03 value="0.7374540907" flag="0"/>
      <psa10 value="0.1090417096" flag="0"/>
      <psa30 value="0.0126370831" flag="0"/>
    </comp>
    <comp name="--.HNZ">
      <acc value="0.4443616614" flag="0"/>
      <vel value="0.0880416378" flag="0"/>
      <psa03 value="0.6335735340" flag="0"/>
      <psa10 value="0.0400889128" flag="0"/>
      <psa30 value="0.0054639595" flag="0"/>
    </comp>
    <comp name="--.HNN">
      <acc value="0.7532622092" flag="0"/>
      <vel value="0.2649623256" flag="0"/>
      <psa03 value="1.8489966521" flag="0"/>
      <psa10 value="0.1753827410" flag="0"/>
      <psa30 value="0.0105127281" flag="0"/>
    </comp>
  </station>
  <station code="AYDN" name="AYDN" netid="TU" insttype="T" lat="37.6608" lon="27.8792">
    <comp name="--.HHZ">
      <acc value="0.0685842894" flag="0"/>
      <vel value="0.0092623643" flag="0"/>
      <psa03 value="0.0484797460" flag="0"/>
      <psa10 value="0.0085668671" flag="0"/>
      <psa30 value="0.0018835502" flag="0"/>
    </comp>
    <comp name="--.HHE">
      <acc value="0.0914658898" flag="0"/>
      <vel value="0.0325228338" flag="0"/>
      <psa03 value="0.2606572681" flag="0"/>
      <psa10 value="0.0160372304" flag="0"/>
      <psa30 value="0.0022459395" flag="0"/>
    </comp>
    <comp name="--.HHN">
      <acc value="0.0669463338" flag="0"/>
      <vel value="0.0187705792" flag="0"/>
      <psa03 value="0.1243422352" flag="0"/>
      <psa10 value="0.0102058954" flag="0"/>
      <psa30 value="0.0012062857" flag="0"/>
    </comp>
  </station>
</stationlist>
