<?xml version="1.0" encoding="UTF-8" standalone="yes"?>
<!DOCTYPE earthquake SYSTEM "stationlist.dtd">
<stationlist created="" xmlns="ch.ethz.sed.shakemap.usgs.xml">
  <station code="ARMT" name="ARMT" netid="KO" insttype="CMG-5T" commtype="DIG" lat="40.5683" lon="28.866">
    <comp name="--.HNN">
      <acc value="0.0529569588" flag="0"/>
      <vel value="0.0144947620" flag="0"/>
      <psa03 value="0.0869157543" flag="0"/>
      <psa10 value="0.0075715831" flag="0"/>
      <psa30 value="0.0003667564" flag="0"/>
    </comp>
    <comp name="--.HNZ">
      <acc value="0.0402384540" flag="0"/>
      <vel value="0.0069756395" flag="0"/>
      <psa03 value="0.0380851425" flag="0"/>
      <psa10 value="0.0041299583" flag="0"/>
      <psa30 value="0.0002705860" flag="0"/>
    </comp>
    <comp name="--.HNE">
      <acc value="0.0384063340" flag="0"/>
      <vel value="0.0136190049" flag="0"/>
      <psa03 value="0.0834318815" flag="0"/>
      <psa10 value="0.0048475563" flag="0"/>
      <psa30 value="0.0004866317" flag="0"/>
    </comp>
  </station>
  <station code="AVCI" name="AVCI" netid="KO" insttype="CMG-5T" commtype="DIG" lat="40.9958" lon="28.7225">
    <comp name="--.HNN">
      <acc value="0.0588407307" flag="0"/>
      <vel value="0.0282694434" flag="0"/>
      <psa03 value="0.1337515098" flag="0"/>
      <psa10 value="0.0227569373" flag="0"/>
      <psa30 value="0.0030376140" flag="0"/>
    </comp>
    <comp name="--.HNE">
      <acc value="0.1582996321" flag="0"/>
      <vel value="0.0462027366" flag="0"/>
      <psa03 value="0.2318228176" flag="0"/>
      <psa10 value="0.0232597199" flag="0"/>
      <psa30 value="0.0038601552" flag="0"/>
    </comp>
    <comp name="--.HNZ">
      <acc value="0.1401723773" flag="0"/>
      <vel value="0.0338110762" flag="0"/>
      <psa03 value="0.1423725057" flag="0"/>
      <psa10 value="0.0103765327" flag="0"/>
      <psa30 value="0.0026686650" flag="0"/>
    </comp>
  </station>
  <station code="BGKT" name="BGKT" netid="KO" insttype="CMG-3ESP" commtype="DIG" lat="41.181" lon="28.773">
    <comp name="--.HHE">
      <acc value="0.0852483745" flag="0"/>
      <vel value="0.0116114113" flag="0"/>
      <psa03 value="0.0534991261" flag="0"/>
      <psa10 value="0.0044624030" flag="0"/>
      <psa30 value="0.0005017884" flag="0"/>
    </comp>
    <comp name="--.HHN">
      <acc value="0.0519212109" flag="0"/>
      <vel value="0.0137036045" flag="0"/>
      <psa03 value="0.0482548309" flag="0"/>
      <psa10 value="0.0056704386" flag="0"/>
      <psa30 value="0.0006005359" flag="0"/>
    </comp>
    <comp name="--.HHZ">
      <acc value="0.0271604614" flag="0"/>
      <vel value="0.0059593171" flag="0"/>
      <psa03 value="0.0281404096" flag="0"/>
      <psa10 value="0.0048946646" flag="0"/>
      <psa30 value="0.0004590366" flag="0"/>
    </comp>
  </station>
  <station code="BIGA" name="BIGA" netid="KO" insttype="CMG-5T" commtype="DIG" lat="40.2813" lon="27.1505">
    <comp name="--.HNE">
      <acc value="0.0223622764" flag="0"/>
      <vel value="0.0110949635" flag="0"/>
      <psa03 value="0.0564259173" flag="0"/>
      <psa10 value="0.0043406882" flag="0"/>
      <psa30 value="0.0002841385" flag="0"/>
    </comp>
    <comp name="--.HNZ">
      <acc value="0.0127870130" flag="0"/>
      <vel value="0.0036536325" flag="0"/>
      <psa03 value="0.0130778080" flag="0"/>
      <psa10 value="0.0020983919" flag="0"/>
      <psa30 value="0.0002983446" flag="0"/>
    </comp>
    <comp name="--.HNN">
      <acc value="0.0223265920" flag="0"/>
      <vel value="0.0075926267" flag="0"/>
      <psa03 value="0.0468331146" flag="0"/>
      <psa10 value="0.0059929781" flag="0"/>
      <psa30 value="0.0004047415" flag="0"/>
    </comp>
  </station>
  <station code="BOTS" name="BOTS" netid="KO" insttype="CMG-5T" commtype="DIG" lat="40.9902" lon="27.981">
    <comp name="--.HNE">
      <acc value="0.0942137356" flag="0"/>
      <vel value="0.0243158300" flag="0"/>
      <psa03 value="0.1414236049" flag="0"/>
      <psa10 value="0.0278786008" flag="0"/>
      <psa30 value="0.0021532060" flag="0"/>
    </comp>
    <comp name="--.HNN">
      <acc value="0.1240949325" flag="0"/>
      <vel value="0.0456176051" flag="0"/>
      <psa03 value="0.0888240908" flag="0"/>
      <psa10 value="0.0233580941" flag="0"/>
      <psa30 value="0.0019176782" flag="0"/>
    </comp>
    <comp name="--.HNZ">
      <acc value="0.0540603255" flag="0"/>
      <vel value="0.0105241188" flag="0"/>
      <psa03 value="0.0482771466" flag="0"/>
      <psa10 value="0.0077281333" flag="0"/>
      <psa30 value="0.0010262379" flag="0"/>
    </comp>
  </station>
  <station code="BRGA" name="BRGA" netid="KO" insttype="CMG-5T" commtype="DIG" lat="40.8846" lon="29.065">
    <comp name="--.HNZ">
      <acc value="0.0332976471" flag="0"/>
      <vel value="0.0086436221" flag="0"/>
      <psa03 value="0.0270601666" flag="0"/>
      <psa10 value="0.0022241833" flag="0"/>
      <psa30 value="0.0003618971" flag="0"/>
    </comp>
    <comp name="--.HNE">
      <acc value="0.0318019058" flag="0"/>
      <vel value="0.0093819673" flag="0"/>
      <psa03 value="0.0452692313" flag="0"/>
      <psa10 value="0.0036940402" flag="0"/>
      <psa30 value="0.0004277293" flag="0"/>
    </comp>
    <comp name="--.HNN">
      <acc value="0.0469288679" flag="0"/>
      <vel value="0.0120614024" flag="0"/>
      <psa03 value="0.0552096640" flag="0"/>
      <psa10 value="0.0044950685" flag="0"/>
      <psa30 value="0.0005381756" flag="0"/>
    </comp>
  </station>
  <station code="BUYA" name="BUYA" netid="KO" insttype="CMG-5T" commtype="DIG" lat="40.8694" lon="29.1278">
    <comp name="--.HNE">
      <acc value="0.0398133454" flag="0"/>
      <vel value="0.0116325892" flag="0"/>
      <psa03 value="0.0551799512" flag="0"/>
      <psa10 value="0.0050261804" flag="0"/>
      <psa30 value="0.0004618971" flag="0"/>
    </comp>
    <comp name="--.HNN">
      <acc value="0.0480637905" flag="0"/>
      <vel value="0.0117362886" flag="0"/>
      <psa03 value="0.0509862635" flag="0"/>
      <psa10 value="0.0034403984" flag="0"/>
      <psa30 value="0.0004517759" flag="0"/>
    </comp>
  </station>
  <station code="CRLU" name="CRLU" netid="KO" insttype="ACEBOX" commtype="DIG" lat="41.1428" lon="27.8215">
    <comp name="--.HNN">
      <acc value="0.3057334229" flag="0"/>
      <vel value="0.1679166826" flag="0"/>
      <psa03 value="0.5863285250" flag="0"/>
      <psa10 value="0.1555558032" flag="0"/>
      <psa30 value="0.0242728894" flag="0"/>
    </comp>
    <comp name="--.HNZ">
      <acc value="0.6657677237" flag="0"/>
      <vel value="0.1276074691" flag="0"/>
      <psa03 value="0.4140197448" flag="0"/>
      <psa10 value="0.1227552935" flag="0"/>
      <psa30 value="0.0092459067" flag="0"/>
    </comp>
    <comp name="--.HNE">
      <acc value="0.5064751310" flag="0"/>
      <vel value="0.1681528204" flag="0"/>
      <psa03 value="0.7037255908" flag="0"/>
      <psa10 value="0.2421972295" flag="0"/>
      <psa30 value="0.0218348266" flag="0"/>
    </comp>
  </station>
  <station code="CTYL" name="CTYL" netid="KO" insttype="CMG-3T" commtype="DIG" lat="41.476" lon="28.2897">
    <comp name="--.HHE">
      <acc value="0.0777384797" flag="0"/>
      <vel value="0.0196363099" flag="0"/>
      <psa03 value="0.0507565875" flag="0"/>
      <psa10 value="0.0078271653" flag="0"/>
      <psa30 value="0.0007537973" flag="0"/>
    </comp>
    <comp name="--.HHZ">
      <acc value="0.0587657041" flag="0"/>
      <vel value="0.0140633364" flag="0"/>
      <psa03 value="0.0463534718" flag="0"/>
      <psa10 value="0.0078860498" flag="0"/>
      <psa30 value="0.0003603623" flag="0"/>
    </comp>
    <comp name="--.HHN">
      <acc value="0.0947492558" flag="0"/>
      <vel value="0.0257792241" flag="0"/>
      <psa03 value="0.0721615769" flag="0"/>
      <psa10 value="0.0088384419" flag="0"/>
      <psa30 value="0.0004935024" flag="0"/>
    </comp>
  </station>
  <station code="EDC" name="EDC" netid="KO" insttype="CMG-3T" commtype="DIG" lat="40.3465" lon="27.8618">
    <comp name="--.HHZ">
      <acc value="0.0162489774" flag="0"/>
      <vel value="0.0034549567" flag="0"/>
      <psa03 value="0.0176743525" flag="0"/>
      <psa10 value="0.0026030633" flag="0"/>
      <psa30 value="0.0002012071" flag="0"/>
    </comp>
    <comp name="--.HHE">
      <acc value="0.0227896296" flag="0"/>
      <vel value="0.0069987738" flag="0"/>
      <psa03 value="0.0323777866" flag="0"/>
      <psa10 value="0.0024770155" flag="0"/>
      <psa30 value="0.0002958697" flag="0"/>
    </comp>
    <comp name="--.HHN">
      <acc value="0.0333229987" flag="0"/>
      <vel value="0.0078117069" flag="0"/>
      <psa03 value="0.0520232639" flag="0"/>
      <psa10 value="0.0038027094" flag="0"/>
      <psa30 value="0.0002563675" flag="0"/>
    </comp>
  </station>
  <station code="GAZK" name="GAZK" netid="KO" insttype="CMG-6T" commtype="DIG" lat="40.7479" lon="27.3275">
    <comp name="--.HHE">
      <acc value="0.0205604614" flag="0"/>
      <vel value="0.0070712812" flag="0"/>
      <psa03 value="0.0446020558" flag="0"/>
      <psa10 value="0.0061331399" flag="0"/>
      <psa30 value="0.0007467131" flag="0"/>
    </comp>
    <comp name="--.HHN">
      <acc value="0.0260415111" flag="0"/>
      <vel value="0.0135293832" flag="0"/>
      <psa03 value="0.0771011711" flag="0"/>
      <psa10 value="0.0066261932" flag="0"/>
      <psa30 value="0.0004994192" flag="0"/>
    </comp>
    <comp name="--.HHZ">
      <acc value="0.0162071574" flag="0"/>
      <vel value="0.0064774737" flag="0"/>
      <psa03 value="0.0377708356" flag="0"/>
      <psa10 value="0.0050171848" flag="0"/>
      <psa30 value="0.0003494442" flag="0"/>
    </comp>
  </station>
  <station code="GEML" name="GEML" netid="KO" insttype="CMG-3T" commtype="DIG" lat="40.4646" lon="29.2116">
    <comp name="--.HHN">
      <acc value="0.0699860936" flag="0"/>
      <vel value="0.0205742358" flag="0"/>
      <psa03 value="0.1161418526" flag="0"/>
      <psa10 value="0.0061158719" flag="0"/>
      <psa30 value="0.0005249577" flag="0"/>
    </comp>
    <comp name="--.HHE">
      <acc value="0.0746701665" flag="0"/>
      <vel value="0.0247534214" flag="0"/>
      <psa03 value="0.0933351032" flag="0"/>
      <psa10 value="0.0088453593" flag="0"/>
      <psa30 value="0.0007926777" flag="0"/>
    </comp>
    <comp name="--.HHZ">
      <acc value="0.0473662985" flag="0"/>
      <vel value="0.0125475658" flag="0"/>
      <psa03 value="0.0522651370" flag="0"/>
      <psa10 value="0.0034038842" flag="0"/>
      <psa30 value="0.0002558523" flag="0"/>
    </comp>
  </station>
  <station code="GONE" name="GONE" netid="KO" insttype="CMG-5T" commtype="DIG" lat="40.0466" lon="27.686">
    <comp name="--.HNE">
      <acc value="0.0112300365" flag="0"/>
      <vel value="0.0056515461" flag="0"/>
      <psa03 value="0.0253874043" flag="0"/>
      <psa10 value="0.0059936495" flag="0"/>
      <psa30 value="0.0002628349" flag="0"/>
    </comp>
    <comp name="--.HNZ">
      <acc value="0.0074278801" flag="0"/>
      <vel value="0.0027764173" flag="0"/>
      <psa03 value="0.0109010988" flag="0"/>
      <psa10 value="0.0026998267" flag="0"/>
      <psa30 value="0.0001612483" flag="0"/>
    </comp>
    <comp name="--.HNN">
      <acc value="0.0136865148" flag="0"/>
      <vel value="0.0058386039" flag="0"/>
      <psa03 value="0.0289664403" flag="0"/>
      <psa10 value="0.0048572481" flag="0"/>
      <psa30 value="0.0003525807" flag="0"/>
    </comp>
  </station>
  <station code="HRTX" name="HRTX" netid="KO" insttype="CMG-3ESP" commtype="DIG" lat="40.8009" lon="29.6729">
    <comp name="--.HHZ">
      <acc value="0.0117141654" flag="0"/>
      <vel value="0.0030453178" flag="0"/>
      <psa03 value="0.0184334094" flag="0"/>
      <psa10 value="0.0033575879" flag="0"/>
      <psa30 value="0.0002065421" flag="0"/>
    </comp>
  </station>
  <station code="ISK" name="ISK" netid="KO" insttype="CMG-3T" commtype="DIG" lat="41.0615" lon="29.0592">
    <comp name="--.HHE">
      <acc value="0.0350644325" flag="0"/>
      <vel value="0.0058497786" flag="0"/>
      <psa03 value="0.0164435014" flag="0"/>
      <psa10 value="0.0014465356" flag="0"/>
      <psa30 value="0.0002844428" flag="0"/>
    </comp>
    <comp name="--.HHN">
      <acc value="0.0315129530" flag="0"/>
      <vel value="0.0064084211" flag="0"/>
      <psa03 value="0.0157449131" flag="0"/>
      <psa10 value="0.0025924467" flag="0"/>
      <psa30 value="0.0003268997" flag="0"/>
    </comp>
    <comp name="--.HHZ">
      <acc value="0.0229856850" flag="0"/>
      <vel value="0.0062694871" flag="0"/>
      <psa03 value="0.0217566251" flag="0"/>
      <psa10 value="0.0027838465" flag="0"/>
      <psa30 value="0.0001831094" flag="0"/>
    </comp>
  </station>
  <station code="IZI" name="IZI" netid="KO" insttype="CMG-5T" commtype="DIG" lat="40.3483" lon="29.4612">
    <comp name="--.HNE">
      <acc value="0.0190606945" flag="0"/>
      <vel value="0.0093996337" flag="0"/>
      <psa03 value="0.0583594946" flag="0"/>
      <psa10 value="0.0041053150" flag="0"/>
      <psa30 value="0.0004825569" flag="0"/>
    </comp>
    <comp name="--.HNZ">
      <acc value="0.0097286543" flag="0"/>
      <vel value="0.0041658673" flag="0"/>
      <psa03 value="0.0261634464" flag="0"/>
      <psa10 value="0.0032360269" flag="0"/>
      <psa30 value="0.0004098876" flag="0"/>
    </comp>
    <comp name="--.HNN">
      <acc value="0.0151000539" flag="0"/>
      <vel value="0.0085743345" flag="0"/>
      <psa03 value="0.0429845815" flag="0"/>
      <psa10 value="0.0061627429" flag="0"/>
      <psa30 value="0.0004742107" flag="0"/>
    </comp>
  </station>
  <station code="KAVV" name="KAVV" netid="KO" insttype="CMG-3ESPC" commtype="DIG" lat="41.0638" lon="29.06">
    <comp name="--.HHE">
      <acc value="0.0733607688" flag="0"/>
      <vel value="0.0189656240" flag="0"/>
      <psa03 value="0.0564332022" flag="0"/>
      <psa10 value="0.0029488868" flag="0"/>
      <psa30 value="0.0003324112" flag="0"/>
    </comp>
    <comp name="--.HHN">
      <acc value="0.0608698992" flag="0"/>
      <vel value="0.0141116578" flag="0"/>
      <psa03 value="0.0544241993" flag="0"/>
      <psa10 value="0.0032051361" flag="0"/>
      <psa30 value="0.0003436527" flag="0"/>
    </comp>
    <comp name="--.HHZ">
      <acc value="0.0354557917" flag="0"/>
      <vel value="0.0086511632" flag="0"/>
      <psa03 value="0.0284766295" flag="0"/>
      <psa10 value="0.0032775838" flag="0"/>
      <psa30 value="0.0002383261" flag="0"/>
    </comp>
  </station>
  <station code="KCTX" name="KCTX" netid="KO" insttype="CMG-3ESP" commtype="DIG" lat="40.2626" lon="28.3353">
    <comp name="--.HHE">
      <acc value="0.0190662359" flag="0"/>
      <vel value="0.0057411609" flag="0"/>
      <psa03 value="0.0327979725" flag="0"/>
      <psa10 value="0.0062399019" flag="0"/>
      <psa30 value="0.0002745307" flag="0"/>
    </comp>
    <comp name="--.HHN">
      <acc value="0.0263435431" flag="0"/>
      <vel value="0.0077335352" flag="0"/>
      <psa03 value="0.0454067962" flag="0"/>
      <psa10 value="0.0031200016" flag="0"/>
      <psa30 value="0.0003733724" flag="0"/>
    </comp>
    <comp name="--.HHZ">
      <acc value="0.0302195962" flag="0"/>
      <vel value="0.0068836029" flag="0"/>
      <psa03 value="0.0461886517" flag="0"/>
      <psa10 value="0.0061943665" flag="0"/>
      <psa30 value="0.0003967585" flag="0"/>
    </comp>
  </station>
  <station code="KLYT" name="KLYT" netid="KO" insttype="CMG-3T" commtype="DIG" lat="41.253" lon="29.042">
    <comp name="--.HHN">
      <acc value="0.0633448501" flag="0"/>
      <vel value="0.0151638772" flag="0"/>
      <psa03 value="0.0575350464" flag="0"/>
      <psa10 value="0.0068057831" flag="0"/>
      <psa30 value="0.0004987266" flag="0"/>
    </comp>
  </station>
  <station code="KOUK" name="KOUK" netid="KO" insttype="CMG-5T" commtype="DIG" lat="40.6572" lon="29.1918">
    <comp name="--.HNE">
      <acc value="0.0313096253" flag="0"/>
      <vel value="0.0158814394" flag="0"/>
      <psa03 value="0.1097912764" flag="0"/>
      <psa10 value="0.0164079921" flag="0"/>
      <psa30 value="0.0010505498" flag="0"/>
    </comp>
    <comp name="--.HNN">
      <acc value="0.0296705344" flag="0"/>
      <vel value="0.0215573956" flag="0"/>
      <psa03 value="0.0729780271" flag="0"/>
      <psa10 value="0.0262799268" flag="0"/>
      <psa30 value="0.0011959549" flag="0"/>
    </comp>
    <comp name="--.HNZ">
      <acc value="0.0188579292" flag="0"/>
      <vel value="0.0093076267" flag="0"/>
      <psa03 value="0.1007224388" flag="0"/>
      <psa10 value="0.0084565401" flag="0"/>
      <psa30 value="0.0005891753" flag="0"/>
    </comp>
  </station>
  <station code="KRBG" name="KRBG" netid="KO" insttype="CMG-3ESP" commtype="DIG" lat="40.3932" lon="27.2977">
    <comp name="--.HHN">
      <acc value="0.0180917116" flag="0"/>
      <vel value="0.0074215511" flag="0"/>
      <psa03 value="0.0360156331" flag="0"/>
      <psa10 value="0.0049843706" flag="0"/>
      <psa30 value="0.0003010219" flag="0"/>
    </comp>
  </station>
  <station code="KRTL" name="KRTL" netid="KO" insttype="CMG-5T" commtype="DIG" lat="40.9089" lon="29.1987">
    <comp name="--.HNN">
      <acc value="0.0291144425" flag="0"/>
      <vel value="0.0070086089" flag="0"/>
      <psa03 value="0.0170010383" flag="0"/>
      <psa10 value="0.0025184315" flag="0"/>
      <psa30 value="0.0004175182" flag="0"/>
    </comp>
    <comp name="--.HNE">
      <acc value="0.0256491395" flag="0"/>
      <vel value="0.0049254811" flag="0"/>
      <psa03 value="0.0183038433" flag="0"/>
      <psa10 value="0.0017230687" flag="0"/>
      <psa30 value="0.0003514001" flag="0"/>
    </comp>
    <comp name="--.HNZ">
      <acc value="0.0183980112" flag="0"/>
      <vel value="0.0032796171" flag="0"/>
      <psa03 value="0.0109354278" flag="0"/>
      <psa10 value="0.0009225564" flag="0"/>
      <psa30 value="0.0005620852" flag="0"/>
    </comp>
  </station>
  <station code="MAEG" name="MAEG" netid="KO" insttype="CMG-5T" commtype="DIG" lat="40.9653" lon="27.9448">
    <comp name="--.HNN">
      <acc value="0.1260363013" flag="0"/>
      <vel value="0.0381011490" flag="0"/>
      <psa03 value="0.1202126666" flag="0"/>
      <psa10 value="0.0165146128" flag="0"/>
      <psa30 value="0.0015265498" flag="0"/>
    </comp>
    <comp name="--.HNZ">
      <acc value="0.0550909792" flag="0"/>
      <vel value="0.0118886400" flag="0"/>
      <psa03 value="0.0360340022" flag="0"/>
      <psa10 value="0.0076810996" flag="0"/>
      <psa30 value="0.0009910064" flag="0"/>
    </comp>
    <comp name="--.HNE">
      <acc value="0.1420511735" flag="0"/>
      <vel value="0.0345958955" flag="0"/>
      <psa03 value="0.0858176478" flag="0"/>
      <psa10 value="0.0267272413" flag="0"/>
      <psa30 value="0.0021833111" flag="0"/>
    </comp>
  </station>
  <station code="MDNY" name="MDNY" netid="KO" insttype="CMG-5T" commtype="DIG" lat="40.3709" lon="28.8846">
    <comp name="--.HNE">
      <acc value="0.0745838552" flag="0"/>
      <vel value="0.0209044171" flag="0"/>
      <psa03 value="0.1095364908" flag="0"/>
      <psa10 value="0.0064816740" flag="0"/>
      <psa30 value="0.0004496579" flag="0"/>
    </comp>
    <comp name="--.HNZ">
      <acc value="0.0478273702" flag="0"/>
      <vel value="0.0100049100" flag="0"/>
      <psa03 value="0.0388680123" flag="0"/>
      <psa10 value="0.0024786918" flag="0"/>
      <psa30 value="0.0001858117" flag="0"/>
    </comp>
    <comp name="--.HNN">
      <acc value="0.0678851452" flag="0"/>
      <vel value="0.0170070482" flag="0"/>
      <psa03 value="0.1589537218" flag="0"/>
      <psa10 value="0.0062160115" flag="0"/>
      <psa30 value="0.0003894197" flag="0"/>
    </comp>
  </station>
  <station code="ORLT" name="ORLT" netid="KO" insttype="CMG-5T" commtype="DIG" lat="40.0452" lon="28.8914">
    <comp name="--.HNE">
