<?xml version="1.0" encoding="UTF-8" standalone="yes"?>
<!DOCTYPE earthquake SYSTEM "stationlist.dtd">
<stationlist created="" xmlns="ch.ethz.sed.shakemap.usgs.xml">
  <station code="AGRB" name="AGRB" netid="KO" insttype="120s," lat="39.5755" lon="42.992">
    <comp name="--.HHE">
      <acc value="0.0118123093" flag="0"/>
      <vel value="0.0061278027" flag="0"/>
      <psa03 value="0.0246266332" flag="0"/>
      <psa10 value="0.0038068779" flag="0"/>
      <psa30 value="0.0002650351" flag="0"/>
    </comp>
    <comp name="--.HHN">
      <acc value="0.0117923583" flag="0"/>
      <vel value="0.0062268229" flag="0"/>
      <psa03 value="0.0386819652" flag="0"/>
      <psa10 value="0.0043529796" flag="0"/>
      <psa30 value="0.0003948958" flag="0"/>
    </comp>
    <comp name="--.HHZ">
      <acc value="0.0084886631" flag="0"/>
      <vel value="0.0033841968" flag="0"/>
      <psa03 value="0.0144702956" flag="0"/>
      <psa10 value="0.0037308741" flag="0"/>
      <psa30 value="0.0002553858" flag="0"/>
    </comp>
  </station>
  <station code="AKDM" name="AKDM" netid="KO" insttype="CMG-3ESP" lat="38.3285" lon="42.98">
    <comp name="--.HHE">
      <acc value="0.0046203202" flag="0"/>
      <vel value="0.0047098159" flag="0"/>
      <psa03 value="0.0157929367" flag="0"/>
      <psa10 value="0.0066806408" flag="0"/>
      <psa30 value="0.0007135287" flag="0"/>
    </comp>
    <comp name="--.HHN">
      <acc value="0.0044987567" flag="0"/>
      <vel value="0.0037425037" flag="0"/>
      <psa03 value="0.0132607382" flag="0"/>
      <psa10 value="0.0052320324" flag="0"/>
      <psa30 value="0.0008001067" flag="0"/>
    </comp>
    <comp name="--.HHZ">
      <acc value="0.0047203297" flag="0"/>
      <vel value="0.0030958287" flag="0"/>
      <psa03 value="0.0125648460" flag="0"/>
      <psa10 value="0.0048851222" flag="0"/>
      <psa30 value="0.0006225799" flag="0"/>
    </comp>
  </station>
  <station code="ERCV" name="ERCV" netid="KO" insttype="CMG-5T" lat="39.0198" lon="43.3381">
    <comp name="--.HNN">
      <acc value="0.3124103284" flag="0"/>
      <vel value="0.1354975483" flag="0"/>
      <psa03 value="0.7755226683" flag="0"/>
      <psa10 value="0.1189633721" flag="0"/>
      <psa30 value="0.0151376848" flag="0"/>
    </comp>
    <comp name="--.HNE">
      <acc value="0.3603485412" flag="0"/>
      <vel value="0.1375124316" flag="0"/>
      <psa03 value="0.8782943721" flag="0"/>
      <psa10 value="0.1283604723" flag="0"/>
      <psa30 value="0.0128323115" flag="0"/>
    </comp>
    <comp name="--.HNZ">
      <acc value="0.2034510602" flag="0"/>
      <vel value="0.0779826171" flag="0"/>
      <psa03 value="0.3882927497" flag="0"/>
      <psa10 value="0.1004574793" flag="0"/>
      <psa30 value="0.0043724376" flag="0"/>
    </comp>
  </station>
  <station code="VANB" name="VANB" netid="KO" insttype="CMG-3T" lat="38.509" lon="43.4056">
    <comp name="--.HHN">
      <acc value="0.0281165315" flag="0"/>
      <vel value="0.0245425896" flag="0"/>
      <psa03 value="0.0679729940" flag="0"/>
      <psa10 value="0.0453749016" flag="0"/>
      <psa30 value="0.0036175304" flag="0"/>
    </comp>
    <comp name="--.HHE">
      <acc value="0.0379179688" flag="0"/>
      <vel value="0.0336536572" flag="0"/>
      <psa03 value="0.1006678425" flag="0"/>
      <psa10 value="0.0399961911" flag="0"/>
      <psa30 value="0.0049504198" flag="0"/>
    </comp>
    <comp name="--.HHZ">
      <acc value="0.0221826601" flag="0"/>
      <vel value="0.0197051158" flag="0"/>
      <psa03 value="0.0572663548" flag="0"/>
      <psa10 value="0.0292941636" flag="0"/>
      <psa30 value="0.0027097710" flag="0"/>
    </comp>
  </station>
</stationlist>
