<stationlist xmlns:esm="https://esm-db.eu/esmws/shakemap/1/" created="1784166823">
	<station code="ATEI" name="ATEI" netid="HC" source="Seismological Network of Crete (HC)" insttype="" lat="35.5193" lon="24.0432" esm:processing="manual (Paolucci et al 2011)" esm:quality="good">
		<comp name="--.HNE" depth="0.0">
			<acc value="0.0267889967730443" flag="0"/>
			<vel value="0.0222505822439396" flag="0"/>
			<psa03 value="0.0877264051938052" flag="0"/>
			<psa10 value="0.0386605123192052" flag="0"/>
			<psa30 value="0.00570896069062763" flag="0"/>
		</comp>
		<comp name="--.HNN" depth="0.0">
			<acc value="0.0321596556849511" flag="0"/>
			<vel value="0.0317042286559311" flag="0"/>
			<psa03 value="0.105292204258451" flag="0"/>
			<psa10 value="0.0462655286142112" flag="0"/>
			<psa30 value="0.00412967648746656" flag="0"/>
		</comp>
		<comp name="--.HNZ" depth="0.0">
			<acc value="0.0244639179877571" flag="0"/>
			<vel value="0.0176722253509761" flag="0"/>
			<psa03 value="0.0878185362970386" flag="0"/>
			<psa10 value="0.0226166888696407" flag="0"/>
			<psa30 value="0.00166072897347739" flag="0"/>
		</comp>
	</station>
	<station code="CH01" name="CH01" netid="HI" source="ITSAK Strong Motion Network" insttype="" lat="35.517" lon="24.0208" esm:processing="automatic (Paolucci et al 2011)" esm:quality="best">
		<comp name="--.HNE" depth="0.0">
			<acc value="0.0320405187093791" flag="0"/>
			<vel value="0.0363430503288876" flag="0"/>
			<psa03 value="0.105028332611583" flag="0"/>
			<psa10 value="0.0838346511341985" flag="0"/>
			<psa30 value="0.00772409418333175" flag="0"/>
		</comp>
		<comp name="--.HNN" depth="0.0">
			<acc value="0.0415010424930029" flag="0"/>
			<vel value="0.0425646000627521" flag="0"/>
			<psa03 value="0.0983686518570839" flag="0"/>
			<psa10 value="0.0458432093876351" flag="0"/>
			<psa30 value="0.00500738129776936" flag="0"/>
		</comp>
		<comp name="--.HNZ" depth="0.0">
			<acc value="0.0216561407018339" flag="0"/>
			<vel value="0.0216558447902992" flag="0"/>
			<psa03 value="0.055920381534167" flag="0"/>
			<psa10 value="0.0369351242707147" flag="0"/>
			<psa30 value="0.00270573590839153" flag="0"/>
		</comp>
	</station>
	<station code="CH02" name="CH02" netid="HI" source="ITSAK Strong Motion Network" insttype="" lat="35.5145" lon="24.0315" esm:processing="manual (Paolucci et al 2011)" esm:quality="good">
		<comp name="--.HNE" depth="0.0">
			<acc value="0.0379066382765918" flag="0"/>
			<vel value="0.0272099780702538" flag="0"/>
			<psa03 value="0.122404358688034" flag="0"/>
			<psa10 value="0.0457536534549941" flag="0"/>
			<psa30 value="0.00636394616353404" flag="0"/>
		</comp>
		<comp name="--.HNN" depth="0.0">
			<acc value="0.0350372344885503" flag="0"/>
			<vel value="0.0274520554863488" flag="0"/>
			<psa03 value="0.104394926068175" flag="0"/>
			<psa10 value="0.0528105484396534" flag="0"/>
			<psa30 value="0.00395262850890689" flag="0"/>
		</comp>
		<comp name="--.HNZ" depth="0.0">
			<acc value="0.0239059237145238" flag="0"/>
			<vel value="0.0190748375627935" flag="0"/>
			<psa03 value="0.0534449623414608" flag="0"/>
			<psa10 value="0.0393510155616562" flag="0"/>
			<psa30 value="0.00197760809016371" flag="0"/>
		</comp>
	</station>
	<station code="GOR1" name="GOR1" netid="HI" source="ITSAK Strong Motion Network" insttype="" lat="35.0582" lon="24.9628" esm:processing="manual (Paolucci et al 2011)" esm:quality="good">
		<comp name="--.HNE" depth="0.0">
			<acc value="0.013104434606282" flag="0"/>
			<vel value="0.0160819878463168" flag="0"/>
			<psa03 value="0.0339017197808878" flag="0"/>
			<psa10 value="0.0396563495385336" flag="0"/>
			<psa30 value="0.00456845472103779" flag="0"/>
		</comp>
		<comp name="--.HNN" depth="0.0">
			<acc value="0.00960946150804737" flag="0"/>
			<vel value="0.0127063503640548" flag="0"/>
			<psa03 value="0.0280179211539383" flag="0"/>
			<psa10 value="0.025751600292137" flag="0"/>
			<psa30 value="0.00250154654851522" flag="0"/>
		</comp>
		<comp name="--.HNZ" depth="0.0">
			<acc value="0.00787415154377296" flag="0"/>
			<vel value="0.00912118616540308" flag="0"/>
			<psa03 value="0.0282402015039206" flag="0"/>
			<psa10 value="0.0144490865560719" flag="0"/>
			<psa30 value="0.00176244550336496" flag="0"/>
		</comp>
	</station>
	<station code="HER1" name="HER1" netid="HI" source="ITSAK Strong Motion Network" insttype="" lat="35.317672" lon="25.10217" esm:processing="manual (Paolucci et al 2011)" esm:quality="good">
		<comp name="--.HNE" depth="0.0">
			<acc value="0.0308749159726623" flag="0"/>
			<vel value="0.045312282688768" flag="0"/>
			<psa03 value="0.0702054424326774" flag="0"/>
			<psa10 value="0.0900063599796203" flag="0"/>
			<psa30 value="0.00375601423417612" flag="0"/>
		</comp>
		<comp name="--.HNN" depth="0.0">
			<acc value="0.0294113643976245" flag="0"/>
			<vel value="0.0530307842403757" flag="0"/>
			<psa03 value="0.0489829115441608" flag="0"/>
			<psa10 value="0.10725579266988" flag="0"/>
			<psa30 value="0.00525254712213534" flag="0"/>
		</comp>
		<comp name="--.HNZ" depth="0.0">
			<acc value="0.023206586393608" flag="0"/>
			<vel value="0.0217496799877462" flag="0"/>
			<psa03 value="0.0435426449031953" flag="0"/>
			<psa10 value="0.0478276270955692" flag="0"/>
			<psa30 value="0.00200735797761441" flag="0"/>
		</comp>
	</station>
	<station code="KIS1" name="KIS1" netid="HI" source="ITSAK Strong Motion Network" insttype="" lat="35.493933" lon="23.658993" esm:processing="automatic (Paolucci et al 2011)" esm:quality="best">
		<comp name="--.HNE" depth="0.0">
			<acc value="0.123840466089022" flag="0"/>
			<vel value="0.0484730807393705" flag="0"/>
			<psa03 value="0.206465489825421" flag="0"/>
			<psa10 value="0.0711528035240336" flag="0"/>
			<psa30 value="0.00648173229962082" flag="0"/>
		</comp>
		<comp name="--.HNN" depth="0.0">
			<acc value="0.1109710269147" flag="0"/>
			<vel value="0.0674583133022131" flag="0"/>
			<psa03 value="0.374601857201256" flag="0"/>
			<psa10 value="0.0805202640723218" flag="0"/>
			<psa30 value="0.00692453871670611" flag="0"/>
		</comp>
		<comp name="--.HNZ" depth="0.0">
			<acc value="0.0749893828463381" flag="0"/>
			<vel value="0.0443596637364919" flag="0"/>
			<psa03 value="0.20041113042049" flag="0"/>
			<psa10 value="0.0412567793091514" flag="0"/>
			<psa30 value="0.00350101775857773" flag="0"/>
		</comp>
	</station>
	<station code="RTH1" name="RTH1" netid="HI" source="ITSAK Strong Motion Network" insttype="" lat="35.365393" lon="24.471773" esm:processing="manual (Paolucci et al 2011)" esm:quality="good">
		<comp name="--.HNE" depth="0.0">
			<acc value="0.0184243079967114" flag="0"/>
			<vel value="0.0137851620133641" flag="0"/>
			<psa03 value="0.0603213293253594" flag="0"/>
			<psa10 value="0.0154020940631421" flag="0"/>
			<psa30 value="0.0011627796326107" flag="0"/>
		</comp>
		<comp name="--.HNN" depth="0.0">
			<acc value="0.0167890117561919" flag="0"/>
			<vel value="0.0110345125994292" flag="0"/>
			<psa03 value="0.0776157770809798" flag="0"/>
			<psa10 value="0.0131392700996599" flag="0"/>
			<psa30 value="0.00200235847975555" flag="0"/>
		</comp>
		<comp name="--.HNZ" depth="0.0">
			<acc value="0.0112011075028235" flag="0"/>
			<vel value="0.0066097438726547" flag="0"/>
			<psa03 value="0.026775635733626" flag="0"/>
			<psa10 value="0.0117966511577442" flag="0"/>
			<psa30 value="0.00135004068356963" flag="0"/>
		</comp>
	</station>
	<station code="CHNB" name="CHNB" netid="HL" source="National Observatory of Athens Seismic Network" insttype="" lat="35.48765" lon="24.06605" esm:processing="manual (Paolucci et al 2011)" esm:quality="good">
		<comp name="00.HNE" depth="0.0">
			<acc value="0.09825696590823" flag="0"/>
			<vel value="0.0766345970358692" flag="0"/>
			<psa03 value="0.353910236482932" flag="0"/>
			<psa10 value="0.104487966815001" flag="0"/>
			<psa30 value="0.00595671210294279" flag="0"/>
		</comp>
		<comp name="00.HNN" depth="0.0">
			<acc value="0.115844234305056" flag="0"/>
			<vel value="0.0826324191275034" flag="0"/>
			<psa03 value="0.321895136473012" flag="0"/>
			<psa10 value="0.153719788181549" flag="0"/>
			<psa30 value="0.00906156611761676" flag="0"/>
		</comp>
		<comp name="00.HNZ" depth="0.0">
			<acc value="0.0807927553331854" flag="0"/>
			<vel value="0.0545906303989708" flag="0"/>
			<psa03 value="0.41122724178657" flag="0"/>
			<psa10 value="0.039922092142677" flag="0"/>
			<psa30 value="0.00317293873328577" flag="0"/>
		</comp>
	</station>
	<station code="IACM" name="IACM" netid="HL" source="National Observatory of Athens Seismic Network" insttype="" lat="35.3058" lon="25.0709" esm:processing="manual (Paolucci et al 2011)" esm:quality="good">
		<comp name="--.HNE" depth="0.0">
			<acc value="0.0339065291813287" flag="0"/>
			<vel value="0.03203827513344" flag="0"/>
			<psa03 value="0.102329185056304" flag="0"/>
			<psa10 value="0.100321215788195" flag="0"/>
			<psa30 value="0.00395415819357432" flag="0"/>
		</comp>
		<comp name="--.HNN" depth="0.0">
			<acc value="0.0326399308584446" flag="0"/>
			<vel value="0.0403333032519517" flag="0"/>
			<psa03 value="0.0837744454792027" flag="0"/>
			<psa10 value="0.0749698288832307" flag="0"/>
			<psa30 value="0.00355952163417237" flag="0"/>
		</comp>
		<comp name="--.HNZ" depth="0.0">
			<acc value="0.0188797375960277" flag="0"/>
			<vel value="0.016975140479837" flag="0"/>
			<psa03 value="0.0473712162355897" flag="0"/>
			<psa10 value="0.0383684129690568" flag="0"/>
			<psa30 value="0.00147943831802786" flag="0"/>
		</comp>
	</station>
	<station code="IMMV" name="IMMV" netid="HL" source="National Observatory of Athens Seismic Network" insttype="" lat="35.4606" lon="23.9811" esm:processing="automatic (Paolucci et al 2011)" esm:quality="best">
		<comp name="--.HNE" depth="0.0">
			<acc value="0.0421796489771732" flag="0"/>
			<vel value="0.0240102754767462" flag="0"/>
			<psa03 value="0.135358987701961" flag="0"/>
			<psa10 value="0.0314610328890261" flag="0"/>
			<psa30 value="0.00372980874819128" flag="0"/>
		</comp>
		<comp name="--.HNN" depth="0.0">
			<acc value="0.0348185026730005" flag="0"/>
			<vel value="0.023022974408721" flag="0"/>
			<psa03 value="0.0987731890723557" flag="0"/>
			<psa10 value="0.0258615050727894" flag="0"/>
			<psa30 value="0.00336118912061671" flag="0"/>
		</comp>
		<comp name="--.HNZ" depth="0.0">
			<acc value="0.028573798372378" flag="0"/>
			<vel value="0.0208179044864355" flag="0"/>
			<psa03 value="0.0922156817530117" flag="0"/>
			<psa10 value="0.020094898063376" flag="0"/>
			<psa30 value="0.00198489815642815" flag="0"/>
		</comp>
	</station>
	<station code="SIVA" name="SIVA" netid="HL" source="National Observatory of Athens Seismic Network" insttype="" lat="35.01777" lon="24.81204" esm:processing="automatic (Paolucci et al 2011)" esm:quality="best">
		<comp name="00.HNE" depth="0.0">
			<acc value="0.0304763859077425" flag="0"/>
			<vel value="0.0251083502996117" flag="0"/>
			<psa03 value="0.103066379725167" flag="0"/>
			<psa10 value="0.0442951030831902" flag="0"/>
			<psa30 value="0.00350012228259018" flag="0"/>
		</comp>
		<comp name="00.HNN" depth="0.0">
			<acc value="0.0320300782337456" flag="0"/>
			<vel value="0.0271316517471552" flag="0"/>
			<psa03 value="0.106515587384913" flag="0"/>
			<psa10 value="0.0550107479420724" flag="0"/>
			<psa30 value="0.00395780718530211" flag="0"/>
		</comp>
		<comp name="00.HNZ" depth="0.0">
			<acc value="0.0189303263573236" flag="0"/>
			<vel value="0.0121399870463393" flag="0"/>
			<psa03 value="0.0551195941109302" flag="0"/>
			<psa10 value="0.0119673249640463" flag="0"/>
			<psa30 value="0.00172995939298625" flag="0"/>
		</comp>
	</station>
	<station code="KTHA" name="KTHA" netid="GE" source="GEOFON" insttype="" lat="36.2566" lon="23.0621" esm:processing="automatic (Paolucci et al 2011)" esm:quality="bad">
		<comp name="--.HNE" depth="0.0">
			<acc value="0" flag="1"/>
			<vel value="0" flag="1"/>
			<psa03 value="0" flag="1"/>
			<psa10 value="0" flag="1"/>
			<psa30 value="0" flag="1"/>
		</comp>
		<comp name="--.HNN" depth="0.0">
			<acc value="0" flag="1"/>
			<vel value="0" flag="1"/>
			<psa03 value="0" flag="1"/>
			<psa10 value="0" flag="1"/>
			<psa30 value="0" flag="1"/>
		</comp>
		<comp name="--.HNZ" depth="0.0">
			<acc value="0" flag="1"/>
			<vel value="0" flag="1"/>
			<psa03 value="0" flag="1"/>
			<psa10 value="0" flag="1"/>
			<psa30 value="0" flag="1"/>
		</comp>
	</station>
	<station code="G0LD" name="G0LD" netid="HC" source="Seismological Network of Crete (HC)" insttype="" lat="35.4955" lon="24.0306" esm:processing="automatic (Paolucci et al 2011)" esm:quality="bad">
		<comp name="--.HNE" depth="0.0">
			<acc value="0" flag="1"/>
			<vel value="0" flag="1"/>
			<psa03 value="0" flag="1"/>
			<psa10 value="0" flag="1"/>
			<psa30 value="0" flag="1"/>
		</comp>
		<comp name="--.HNN" depth="0.0">
			<acc value="0" flag="1"/>
			<vel value="0" flag="1"/>
			<psa03 value="0" flag="1"/>
			<psa10 value="0" flag="1"/>
			<psa30 value="0" flag="1"/>
		</comp>
		<comp name="--.HNZ" depth="0.0">
			<acc value="0" flag="1"/>
			<vel value="0" flag="1"/>
			<psa03 value="0" flag="1"/>
			<psa10 value="0" flag="1"/>
			<psa30 value="0" flag="1"/>
		</comp>
	</station>
	<station code="MULT" name="MULT" netid="HC" source="Seismological Network of Crete (HC)" insttype="" lat="35.5091" lon="24.0118" esm:processing="automatic (Paolucci et al 2011)" esm:quality="bad">
		<comp name="--.HNE" depth="0.0">
			<acc value="0" flag="1"/>
			<vel value="0" flag="1"/>
			<psa03 value="0" flag="1"/>
			<psa10 value="0" flag="1"/>
			<psa30 value="0" flag="1"/>
		</comp>
		<comp name="--.HNN" depth="0.0">
			<acc value="0" flag="1"/>
			<vel value="0" flag="1"/>
			<psa03 value="0" flag="1"/>
			<psa10 value="0" flag="1"/>
			<psa30 value="0" flag="1"/>
		</comp>
		<comp name="--.HNZ" depth="0.0">
			<acc value="0" flag="1"/>
			<vel value="0" flag="1"/>
			<psa03 value="0" flag="1"/>
			<psa10 value="0" flag="1"/>
			<psa30 value="0" flag="1"/>
		</comp>
	</station>
	<station code="TEFL" name="TEFL" netid="HC" source="Seismological Network of Crete (HC)" insttype="" lat="35.093273" lon="25.163418" esm:processing="automatic (Paolucci et al 2011)" esm:quality="bad">
		<comp name="--.HNE" depth="0.0">
			<acc value="0" flag="1"/>
			<vel value="0" flag="1"/>
			<psa03 value="0" flag="1"/>
			<psa10 value="0" flag="1"/>
			<psa30 value="0" flag="1"/>
		</comp>
		<comp name="--.HNN" depth="0.0">
			<acc value="0" flag="1"/>
			<vel value="0" flag="1"/>
			<psa03 value="0" flag="1"/>
			<psa10 value="0" flag="1"/>
			<psa30 value="0" flag="1"/>
		</comp>
		<comp name="--.HNZ" depth="0.0">
			<acc value="0" flag="1"/>
			<vel value="0" flag="1"/>
			<psa03 value="0" flag="1"/>
			<psa10 value="0" flag="1"/>
			<psa30 value="0" flag="1"/>
		</comp>
	</station>
	<station code="CH03" name="CH03" netid="HI" source="ITSAK Strong Motion Network" insttype="" lat="35.53303" lon="24.0705" esm:processing="automatic (Paolucci et al 2011)" esm:quality="bad">
		<comp name="--.HNE" depth="0.0">
			<acc value="0" flag="1"/>
			<vel value="0" flag="1"/>
			<psa03 value="0" flag="1"/>
			<psa10 value="0" flag="1"/>
			<psa30 value="0" flag="1"/>
		</comp>
		<comp name="--.HNN" depth="0.0">
			<acc value="0" flag="1"/>
			<vel value="0" flag="1"/>
			<psa03 value="0" flag="1"/>
			<psa10 value="0" flag="1"/>
			<psa30 value="0" flag="1"/>
		</comp>
		<comp name="--.HNZ" depth="0.0">
			<acc value="0" flag="1"/>
			<vel value="0" flag="1"/>
			<psa03 value="0" flag="1"/>
			<psa10 value="0" flag="1"/>
			<psa30 value="0" flag="1"/>
		</comp>
	</station>
	<station code="HER3" name="HER3" netid="HI" source="ITSAK Strong Motion Network" insttype="" lat="35.3296" lon="25.1065" esm:processing="automatic (Paolucci et al 2011)" esm:quality="bad">
		<comp name="--.HNE" depth="0.0">
			<acc value="0" flag="1"/>
			<vel value="0" flag="1"/>
			<psa03 value="0" flag="1"/>
			<psa10 value="0" flag="1"/>
			<psa30 value="0" flag="1"/>
		</comp>
		<comp name="--.HNN" depth="0.0">
			<acc value="0" flag="1"/>
			<vel value="0" flag="1"/>
			<psa03 value="0" flag="1"/>
			<psa10 value="0" flag="1"/>
			<psa30 value="0" flag="1"/>
		</comp>
		<comp name="--.HNZ" depth="0.0">
			<acc value="0" flag="1"/>
			<vel value="0" flag="1"/>
			<psa03 value="0" flag="1"/>
			<psa10 value="0" flag="1"/>
			<psa30 value="0" flag="1"/>
		</comp>
	</station>
	<station code="HERG" name="HERG" netid="HL" source="National Observatory of Athens Seismic Network" insttype="" lat="35.32622" lon="25.06586" esm:processing="automatic (Paolucci et al 2011)" esm:quality="bad">
		<comp name="00.HNE" depth="0.0">
			<acc value="0" flag="1"/>
			<vel value="0" flag="1"/>
			<psa03 value="0" flag="1"/>
			<psa10 value="0" flag="1"/>
			<psa30 value="0" flag="1"/>
		</comp>
		<comp name="00.HNN" depth="0.0">
			<acc value="0" flag="1"/>
			<vel value="0" flag="1"/>
			<psa03 value="0" flag="1"/>
			<psa10 value="0" flag="1"/>
			<psa30 value="0" flag="1"/>
		</comp>
		<comp name="00.HNZ" depth="0.0">
			<acc value="0" flag="1"/>
			<vel value="0" flag="1"/>
			<psa03 value="0" flag="1"/>
			<psa10 value="0" flag="1"/>
			<psa30 value="0" flag="1"/>
		</comp>
	</station>
	<station code="KTHA" name="KTHA" netid="HL" source="National Observatory of Athens Seismic Network" insttype="" lat="36.2566" lon="23.0621" esm:processing="automatic (Paolucci et al 2011)" esm:quality="bad">
		<comp name="--.HNE" depth="0.0">
			<acc value="0" flag="1"/>
			<vel value="0" flag="1"/>
			<psa03 value="0" flag="1"/>
			<psa10 value="0" flag="1"/>
			<psa30 value="0" flag="1"/>
		</comp>
		<comp name="--.HNN" depth="0.0">
			<acc value="0" flag="1"/>
			<vel value="0" flag="1"/>
			<psa03 value="0" flag="1"/>
			<psa10 value="0" flag="1"/>
			<psa30 value="0" flag="1"/>
		</comp>
		<comp name="--.HNZ" depth="0.0">
			<acc value="0" flag="1"/>
			<vel value="0" flag="1"/>
			<psa03 value="0" flag="1"/>
			<psa10 value="0" flag="1"/>
			<psa30 value="0" flag="1"/>
		</comp>
	</station>
</stationlist>
