<stationlist created="1775808290">
	<station code="KTHA" name="KTHA" netid="GE" source="GEOFON" insttype="" lat="36.2566" lon="23.0621">
		<comp name="--.HNE" depth="0.0">
			<acc value="0.0169133728712636" flag="0"/>
			<vel value="0.0156655992129386" flag="0"/>
			<psa03 value="0.0494761213002199" flag="0"/>
			<psa10 value="0.0318843121792018" flag="0"/>
			<psa30 value="0.00366784089312501" flag="0"/>
		</comp>
		<comp name="--.HNN" depth="0.0">
			<acc value="0.0119489582161312" flag="0"/>
			<vel value="0.00749797710074092" flag="0"/>
			<psa03 value="0.0322739426778101" flag="0"/>
			<psa10 value="0.0137717391851328" flag="0"/>
			<psa30 value="0.00269943111572996" flag="0"/>
		</comp>
		<comp name="--.HNZ" depth="0.0">
			<acc value="0.00980261847321522" flag="0"/>
			<vel value="0.0112975056701293" flag="0"/>
			<psa03 value="0.0225127908410728" flag="0"/>
			<psa10 value="0.0136416318161582" flag="0"/>
			<psa30 value="0.00688097124724174" flag="0"/>
		</comp>
	</station>
	<station code="ATEI" name="ATEI" netid="HC" source="Seismological Network of Crete (HC)" insttype="" lat="35.5193" lon="24.0432">
		<comp name="--.HNE" depth="0.0">
			<acc value="0.0267889967730443" flag="0"/>
			<vel value="0.0222505822439396" flag="0"/>
			<psa03 value="0.0877264051938052" flag="0"/>
			<psa10 value="0.0386605123192052" flag="0"/>
			<psa30 value="0.00570896069062763" flag="0"/>
		</comp>
		<comp name="--.HNN" depth="0.0">
			<acc value="0.0321596556849511" flag="0"/>
			<vel value="0.0317042286559311" flag="0"/>
			<psa03 value="0.105292204258451" flag="0"/>
			<psa10 value="0.0462655286142112" flag="0"/>
			<psa30 value="0.00412967648746656" flag="0"/>
		</comp>
		<comp name="--.HNZ" depth="0.0">
			<acc value="0.0244639179877571" flag="0"/>
			<vel value="0.0176722253509761" flag="0"/>
			<psa03 value="0.0878185362970386" flag="0"/>
			<psa10 value="0.0226166888696407" flag="0"/>
			<psa30 value="0.00166072897347739" flag="0"/>
		</comp>
	</station>
	<station code="G0LD" name="G0LD" netid="HC" source="Seismological Network of Crete (HC)" insttype="" lat="35.4955" lon="24.0306">
		<comp name="--.HNE" depth="0.0">
			<acc value="0.00221760398567775" flag="0"/>
			<vel value="0.00234132998112217" flag="0"/>
			<psa03 value="0.00196258932180651" flag="0"/>
			<psa10 value="0.0028044627350176" flag="0"/>
			<psa30 value="0.00103849379511726" flag="0"/>
		</comp>
		<comp name="--.HNN" depth="0.0">
			<acc value="0.00281656103974055" flag="0"/>
			<vel value="0.00170477477482124" flag="0"/>
			<psa03 value="0.00172818447071886" flag="0"/>
			<psa10 value="0.00134279637554478" flag="0"/>
			<psa30 value="0.000892906650683449" flag="0"/>
		</comp>
		<comp name="--.HNZ" depth="0.0">
			<acc value="0.00418665054397761" flag="0"/>
			<vel value="0.00339941730469258" flag="0"/>
			<psa03 value="0.0021919515211349" flag="0"/>
			<psa10 value="0.00258194901020038" flag="0"/>
			<psa30 value="0.00196599336241166" flag="0"/>
		</comp>
	</station>
	<station code="MULT" name="MULT" netid="HC" source="Seismological Network of Crete (HC)" insttype="" lat="35.5091" lon="24.0118">
		<comp name="--.HNE" depth="0.0">
			<acc value="0.00330347631157362" flag="0"/>
			<vel value="0.00141488736626936" flag="0"/>
			<psa03 value="0.00133359843549722" flag="0"/>
			<psa10 value="0.00117285714915505" flag="0"/>
			<psa30 value="0.000721412737970047" flag="0"/>
		</comp>
		<comp name="--.HNN" depth="0.0">
			<acc value="0.00184231429942941" flag="0"/>
			<vel value="0.00142171891788978" flag="0"/>
			<psa03 value="0.00126603984223344" flag="0"/>
			<psa10 value="0.00112074346250407" flag="0"/>
			<psa30 value="0.00105172769263136" flag="0"/>
		</comp>
		<comp name="--.HNZ" depth="0.0">
			<acc value="0.00512547131250479" flag="0"/>
			<vel value="0.00356891841959276" flag="0"/>
			<psa03 value="0.00313504068887216" flag="0"/>
			<psa10 value="0.00299891639786844" flag="0"/>
			<psa30 value="0.00213735783946726" flag="0"/>
		</comp>
	</station>
	<station code="TEFL" name="TEFL" netid="HC" source="Seismological Network of Crete (HC)" insttype="" lat="35.093273" lon="25.163418">
		<comp name="--.HNE" depth="0.0">
			<acc value="0.232241046472655" flag="0"/>
			<vel value="0.151389743943289" flag="0"/>
			<psa03 value="0.34712959979903" flag="0"/>
			<psa10 value="0.159176444658261" flag="0"/>
			<psa30 value="0.0747108092244494" flag="0"/>
		</comp>
		<comp name="--.HNN" depth="0.0">
			<acc value="0.220280497678184" flag="0"/>
			<vel value="0.151270763898986" flag="0"/>
			<psa03 value="0.301755343977267" flag="0"/>
			<psa10 value="0.140473850703199" flag="0"/>
			<psa30 value="0.0795367089166198" flag="0"/>
		</comp>
		<comp name="--.HNZ" depth="0.0">
			<acc value="0.21635895365811" flag="0"/>
			<vel value="0.134413790853731" flag="0"/>
			<psa03 value="0.30662968771195" flag="0"/>
			<psa10 value="0.191702394342799" flag="0"/>
			<psa30 value="0.0596144091620346" flag="0"/>
		</comp>
	</station>
	<station code="CH01" name="CH01" netid="HI" source="ITSAK Strong Motion Network" insttype="" lat="35.517" lon="24.0208">
		<comp name="--.HNE" depth="0.0">
			<acc value="0.0320405187093791" flag="0"/>
			<vel value="0.0363430503288876" flag="0"/>
			<psa03 value="0.105028332611583" flag="0"/>
			<psa10 value="0.0838346511341985" flag="0"/>
			<psa30 value="0.00772409418333175" flag="0"/>
		</comp>
		<comp name="--.HNN" depth="0.0">
			<acc value="0.0415010424930029" flag="0"/>
			<vel value="0.0425646000627521" flag="0"/>
			<psa03 value="0.0983686518570839" flag="0"/>
			<psa10 value="0.0458432093876351" flag="0"/>
			<psa30 value="0.00500738129776936" flag="0"/>
		</comp>
		<comp name="--.HNZ" depth="0.0">
			<acc value="0.0216561407018339" flag="0"/>
			<vel value="0.0216558447902992" flag="0"/>
			<psa03 value="0.055920381534167" flag="0"/>
			<psa10 value="0.0369351242707147" flag="0"/>
			<psa30 value="0.00270573590839153" flag="0"/>
		</comp>
	</station>
	<station code="CH02" name="CH02" netid="HI" source="ITSAK Strong Motion Network" insttype="" lat="35.5145" lon="24.0315">
		<comp name="--.HNE" depth="0.0">
			<acc value="0.0378160928126034" flag="0"/>
			<vel value="0.0267872334819768" flag="0"/>
			<psa03 value="0.122364616471974" flag="0"/>
			<psa10 value="0.0458421518175763" flag="0"/>
			<psa30 value="0.00653558670054391" flag="0"/>
		</comp>
		<comp name="--.HNN" depth="0.0">
			<acc value="0.0350702073086118" flag="0"/>
			<vel value="0.0284251801908488" flag="0"/>
			<psa03 value="0.10429104418651" flag="0"/>
			<psa10 value="0.0528351613201359" flag="0"/>
			<psa30 value="0.00397461621548454" flag="0"/>
		</comp>
		<comp name="--.HNZ" depth="0.0">
			<acc value="0.0238799980619323" flag="0"/>
			<vel value="0.0191901384536044" flag="0"/>
			<psa03 value="0.053451796127499" flag="0"/>
			<psa10 value="0.0393878767535292" flag="0"/>
			<psa30 value="0.00201855851126147" flag="0"/>
		</comp>
	</station>
	<station code="CH03" name="CH03" netid="HI" source="ITSAK Strong Motion Network" insttype="" lat="35.53303" lon="24.0705">
		<comp name="--.HNE" depth="0.0">
			<acc value="0.0249410625877378" flag="0"/>
			<vel value="0.0186914141627033" flag="0"/>
			<psa03 value="0.0596459720862568" flag="0"/>
			<psa10 value="0.0409351280013309" flag="0"/>
			<psa30 value="0.00422310392657588" flag="0"/>
		</comp>
		<comp name="--.HNN" depth="0.0">
			<acc value="0.0260064662522892" flag="0"/>
			<vel value="0.02137591884481" flag="0"/>
			<psa03 value="0.0843822930377869" flag="0"/>
			<psa10 value="0.0549016307135915" flag="0"/>
			<psa30 value="0.00496913751430639" flag="0"/>
		</comp>
		<comp name="--.HNZ" depth="0.0">
			<acc value="0.0186977929935365" flag="0"/>
			<vel value="0.0122573531884815" flag="0"/>
			<psa03 value="0.064001500201952" flag="0"/>
			<psa10 value="0.0152561372067167" flag="0"/>
			<psa30 value="0.00199659643138146" flag="0"/>
		</comp>
	</station>
	<station code="GOR1" name="GOR1" netid="HI" source="ITSAK Strong Motion Network" insttype="" lat="35.0582" lon="24.9628">
		<comp name="--.HNE" depth="0.0">
			<acc value="0.0131005118657538" flag="0"/>
			<vel value="0.0163525360039476" flag="0"/>
			<psa03 value="0.0338998889304363" flag="0"/>
			<psa10 value="0.0396568745733146" flag="0"/>
			<psa30 value="0.00459151874891644" flag="0"/>
		</comp>
		<comp name="--.HNN" depth="0.0">
			<acc value="0.00961054630146372" flag="0"/>
			<vel value="0.0125371909445834" flag="0"/>
			<psa03 value="0.0279982766234179" flag="0"/>
			<psa10 value="0.0257545911152644" flag="0"/>
			<psa30 value="0.0025154822633546" flag="0"/>
		</comp>
		<comp name="--.HNZ" depth="0.0">
			<acc value="0.00785636820821119" flag="0"/>
			<vel value="0.00907497681507754" flag="0"/>
			<psa03 value="0.0282337531600828" flag="0"/>
			<psa10 value="0.0144460507299633" flag="0"/>
			<psa30 value="0.00176325284851428" flag="0"/>
		</comp>
	</station>
	<station code="HER1" name="HER1" netid="HI" source="ITSAK Strong Motion Network" insttype="" lat="35.317672" lon="25.10217">
		<comp name="--.HNE" depth="0.0">
			<acc value="0.0308403759735688" flag="0"/>
			<vel value="0.0452958263923741" flag="0"/>
			<psa03 value="0.0702030568579781" flag="0"/>
			<psa10 value="0.0899543440338192" flag="0"/>
			<psa30 value="0.00375016426331092" flag="0"/>
		</comp>
		<comp name="--.HNN" depth="0.0">
			<acc value="0.0294040636851828" flag="0"/>
			<vel value="0.0529949778723815" flag="0"/>
			<psa03 value="0.0489743797289699" flag="0"/>
			<psa10 value="0.107192923505107" flag="0"/>
			<psa30 value="0.00524759512742333" flag="0"/>
		</comp>
		<comp name="--.HNZ" depth="0.0">
			<acc value="0.0231812900398387" flag="0"/>
			<vel value="0.0217518677545732" flag="0"/>
			<psa03 value="0.0435420120487718" flag="0"/>
			<psa10 value="0.0478088083489196" flag="0"/>
			<psa30 value="0.00200405984246248" flag="0"/>
		</comp>
	</station>
	<station code="HER3" name="HER3" netid="HI" source="ITSAK Strong Motion Network" insttype="" lat="35.3296" lon="25.1065">
		<comp name="--.HNE" depth="0.0">
			<acc value="0.0342868014645951" flag="0"/>
			<vel value="0.0321665201688099" flag="0"/>
			<psa03 value="0.0818149510889827" flag="0"/>
			<psa10 value="0.0749000892633231" flag="0"/>
			<psa30 value="0.00270035409353938" flag="0"/>
		</comp>
		<comp name="--.HNN" depth="0.0">
			<acc value="0.0391209202332509" flag="0"/>
			<vel value="0.0398221122618829" flag="0"/>
			<psa03 value="0.0634180448842339" flag="0"/>
			<psa10 value="0.0719759905561345" flag="0"/>
			<psa30 value="0.00372853574719455" flag="0"/>
		</comp>
		<comp name="--.HNZ" depth="0.0">
			<acc value="0.0258013036985087" flag="0"/>
			<vel value="0.0152623645095251" flag="0"/>
			<psa03 value="0.0470885047990112" flag="0"/>
			<psa10 value="0.0370668779987526" flag="0"/>
			<psa30 value="0.00144193104168821" flag="0"/>
		</comp>
	</station>
	<station code="KIS1" name="KIS1" netid="HI" source="ITSAK Strong Motion Network" insttype="" lat="35.493933" lon="23.658993">
		<comp name="--.HNE" depth="0.0">
			<acc value="0.123840466089022" flag="0"/>
			<vel value="0.0484730807393705" flag="0"/>
			<psa03 value="0.206465489825421" flag="0"/>
			<psa10 value="0.0711528035240336" flag="0"/>
			<psa30 value="0.00648173229962082" flag="0"/>
		</comp>
		<comp name="--.HNN" depth="0.0">
			<acc value="0.1109710269147" flag="0"/>
			<vel value="0.0674583133022131" flag="0"/>
			<psa03 value="0.374601857201256" flag="0"/>
			<psa10 value="0.0805202640723218" flag="0"/>
			<psa30 value="0.00692453871670611" flag="0"/>
		</comp>
		<comp name="--.HNZ" depth="0.0">
			<acc value="0.0749893828463381" flag="0"/>
			<vel value="0.0443596637364919" flag="0"/>
			<psa03 value="0.20041113042049" flag="0"/>
			<psa10 value="0.0412567793091514" flag="0"/>
			<psa30 value="0.00350101775857773" flag="0"/>
		</comp>
	</station>
	<station code="RTH1" name="RTH1" netid="HI" source="ITSAK Strong Motion Network" insttype="" lat="35.365393" lon="24.471773">
		<comp name="--.HNE" depth="0.0">
			<acc value="0.0184197250506719" flag="0"/>
			<vel value="0.0139341391941901" flag="0"/>
			<psa03 value="0.0603027968476737" flag="0"/>
			<psa10 value="0.0153971756123189" flag="0"/>
			<psa30 value="0.00116622756935292" flag="0"/>
		</comp>
		<comp name="--.HNN" depth="0.0">
			<acc value="0.0167974257073774" flag="0"/>
			<vel value="0.0115031115205096" flag="0"/>
			<psa03 value="0.0775820560971301" flag="0"/>
			<psa10 value="0.0131611396734118" flag="0"/>
			<psa30 value="0.00200315874110227" flag="0"/>
		</comp>
		<comp name="--.HNZ" depth="0.0">
			<acc value="0.0111902810569619" flag="0"/>
			<vel value="0.00655386935903885" flag="0"/>
			<psa03 value="0.0267657314316813" flag="0"/>
			<psa10 value="0.0117811804453855" flag="0"/>
			<psa30 value="0.00141027009013889" flag="0"/>
		</comp>
	</station>
	<station code="CHNB" name="CHNB" netid="HL" source="National Observatory of Athens Seismic Network" insttype="" lat="35.48765" lon="24.06605">
		<comp name="00.HNE" depth="0.0">
			<acc value="0.0981068577096968" flag="0"/>
			<vel value="0.0760559260306068" flag="0"/>
			<psa03 value="0.353734058145315" flag="0"/>
			<psa10 value="0.104502067749119" flag="0"/>
			<psa30 value="0.00602942942010818" flag="0"/>
		</comp>
		<comp name="00.HNN" depth="0.0">
			<acc value="0.115780896401885" flag="0"/>
			<vel value="0.0824574201461744" flag="0"/>
			<psa03 value="0.32173285488932" flag="0"/>
			<psa10 value="0.153774136781877" flag="0"/>
			<psa30 value="0.00919631421068328" flag="0"/>
		</comp>
		<comp name="00.HNZ" depth="0.0">
			<acc value="0.0807335228072504" flag="0"/>
			<vel value="0.0553443763373644" flag="0"/>
			<psa03 value="0.410962807602436" flag="0"/>
			<psa10 value="0.0399319552960625" flag="0"/>
			<psa30 value="0.00319199020368552" flag="0"/>
		</comp>
	</station>
	<station code="HERG" name="HERG" netid="HL" source="National Observatory of Athens Seismic Network" insttype="" lat="35.32622" lon="25.06586">
		<comp name="00.HNE" depth="0.0">
			<acc value="0.0193238005222927" flag="0"/>
			<vel value="0.030979251212915" flag="0"/>
			<psa03 value="0.0478579932738462" flag="0"/>
			<psa10 value="0.0836380631112068" flag="0"/>
			<psa30 value="0.00388536863660377" flag="0"/>
		</comp>
		<comp name="00.HNN" depth="0.0">
			<acc value="0.019424110054312" flag="0"/>
			<vel value="0.0285391926851657" flag="0"/>
			<psa03 value="0.03583788970931" flag="0"/>
			<psa10 value="0.0658357612960807" flag="0"/>
			<psa30 value="0.00392733808354032" flag="0"/>
		</comp>
		<comp name="00.HNZ" depth="0.0">
			<acc value="0.0152600223446505" flag="0"/>
			<vel value="0.0152394277566781" flag="0"/>
			<psa03 value="0.0291913478460311" flag="0"/>
			<psa10 value="0.02326579686986" flag="0"/>
			<psa30 value="0.00124214936963292" flag="0"/>
		</comp>
	</station>
	<station code="IACM" name="IACM" netid="HL" source="National Observatory of Athens Seismic Network" insttype="" lat="35.3058" lon="25.0709">
		<comp name="--.HNE" depth="0.0">
			<acc value="0.034008631030591" flag="0"/>
			<vel value="0.0320043053481492" flag="0"/>
			<psa03 value="0.102784777737084" flag="0"/>
			<psa10 value="0.100322783392041" flag="0"/>
			<psa30 value="0.00395221764835606" flag="0"/>
		</comp>
		<comp name="--.HNN" depth="0.0">
			<acc value="0.0330587732031417" flag="0"/>
			<vel value="0.0403139534781326" flag="0"/>
			<psa03 value="0.0840559641284316" flag="0"/>
			<psa10 value="0.0749667686805072" flag="0"/>
			<psa30 value="0.00355870449670769" flag="0"/>
		</comp>
		<comp name="--.HNZ" depth="0.0">
			<acc value="0.0195780946017589" flag="0"/>
			<vel value="0.016893696097886" flag="0"/>
			<psa03 value="0.0476471772249843" flag="0"/>
			<psa10 value="0.0383666916050249" flag="0"/>
			<psa30 value="0.00147893297205117" flag="0"/>
		</comp>
	</station>
	<station code="IMMV" name="IMMV" netid="HL" source="National Observatory of Athens Seismic Network" insttype="" lat="35.4606" lon="23.9811">
		<comp name="--.HNE" depth="0.0">
			<acc value="0.0421796489771732" flag="0"/>
			<vel value="0.0240102754767462" flag="0"/>
			<psa03 value="0.135358987701961" flag="0"/>
			<psa10 value="0.0314610328890261" flag="0"/>
			<psa30 value="0.00372980874819128" flag="0"/>
		</comp>
		<comp name="--.HNN" depth="0.0">
			<acc value="0.0348185026730005" flag="0"/>
			<vel value="0.023022974408721" flag="0"/>
			<psa03 value="0.0987731890723557" flag="0"/>
			<psa10 value="0.0258615050727894" flag="0"/>
			<psa30 value="0.00336118912061671" flag="0"/>
		</comp>
		<comp name="--.HNZ" depth="0.0">
			<acc value="0.028573798372378" flag="0"/>
			<vel value="0.0208179044864355" flag="0"/>
			<psa03 value="0.0922156817530117" flag="0"/>
			<psa10 value="0.020094898063376" flag="0"/>
			<psa30 value="0.00198489815642815" flag="0"/>
		</comp>
	</station>
	<station code="KTHA" name="KTHA" netid="HL" source="National Observatory of Athens Seismic Network" insttype="" lat="36.2566" lon="23.0621">
		<comp name="--.HNE" depth="0.0">
			<acc value="0.174260252359784" flag="0"/>
			<vel value="0.115327814166916" flag="0"/>
			<psa03 value="0.534341522503454" flag="0"/>
			<psa10 value="0.198913507043625" flag="0"/>
			<psa30 value="0.00929003291908777" flag="0"/>
		</comp>
		<comp name="--.HNN" depth="0.0">
			<acc value="0.124910182554681" flag="0"/>
			<vel value="0.0610819353806983" flag="0"/>
			<psa03 value="0.35763731671704" flag="0"/>
			<psa10 value="0.0854833953554115" flag="0"/>
			<psa30 value="0.00593999141194574" flag="0"/>
		</comp>
		<comp name="--.HNZ" depth="0.0">
			<acc value="0.0977477696507958" flag="0"/>
			<vel value="0.0615759569753219" flag="0"/>
			<psa03 value="0.226391747342188" flag="0"/>
			<psa10 value="0.0794805901990302" flag="0"/>
			<psa30 value="0.0154493334425192" flag="0"/>
		</comp>
	</station>
	<station code="SIVA" name="SIVA" netid="HL" source="National Observatory of Athens Seismic Network" insttype="" lat="35.01777" lon="24.81204">
		<comp name="00.HNE" depth="0.0">
			<acc value="0.0304763859077425" flag="0"/>
			<vel value="0.0251083502996117" flag="0"/>
			<psa03 value="0.103066379725167" flag="0"/>
			<psa10 value="0.0442951030831902" flag="0"/>
			<psa30 value="0.00350012228259018" flag="0"/>
		</comp>
		<comp name="00.HNN" depth="0.0">
			<acc value="0.0320300782337456" flag="0"/>
			<vel value="0.0271316517471552" flag="0"/>
			<psa03 value="0.106515587384913" flag="0"/>
			<psa10 value="0.0550107479420724" flag="0"/>
			<psa30 value="0.00395780718530211" flag="0"/>
		</comp>
		<comp name="00.HNZ" depth="0.0">
			<acc value="0.0189303263573236" flag="0"/>
			<vel value="0.0121399870463393" flag="0"/>
			<psa03 value="0.0551195941109302" flag="0"/>
			<psa10 value="0.0119673249640463" flag="0"/>
			<psa30 value="0.00172995939298625" flag="0"/>
		</comp>
	</station>
</stationlist>
