<stationlist xmlns:esm="https://esm-db.eu/esmws/shakemap/1/" created="1782266057">
	<station code="CH01" name="CH01" netid="HI" source="ITSAK Strong Motion Network" insttype="" lat="35.517" lon="24.0208" esm:processing="automatic (Paolucci et al 2011)" esm:quality="best">
		<comp name="--.HNE" depth="0.0">
			<acc value="0.0320405187093791" flag="0"/>
			<vel value="0.0363430503288876" flag="0"/>
			<psa03 value="0.105028332611583" flag="0"/>
			<psa10 value="0.0838346511341985" flag="0"/>
			<psa30 value="0.00772409418333175" flag="0"/>
		</comp>
		<comp name="--.HNN" depth="0.0">
			<acc value="0.0415010424930029" flag="0"/>
			<vel value="0.0425646000627521" flag="0"/>
			<psa03 value="0.0983686518570839" flag="0"/>
			<psa10 value="0.0458432093876351" flag="0"/>
			<psa30 value="0.00500738129776936" flag="0"/>
		</comp>
		<comp name="--.HNZ" depth="0.0">
			<acc value="0.0216561407018339" flag="0"/>
			<vel value="0.0216558447902992" flag="0"/>
			<psa03 value="0.055920381534167" flag="0"/>
			<psa10 value="0.0369351242707147" flag="0"/>
			<psa30 value="0.00270573590839153" flag="0"/>
		</comp>
	</station>
	<station code="CH02" name="CH02" netid="HI" source="ITSAK Strong Motion Network" insttype="" lat="35.5145" lon="24.0315" esm:processing="manual (Paolucci et al 2011)" esm:quality="good">
		<comp name="--.HNE" depth="0.0">
			<acc value="0.0379066382765918" flag="0"/>
			<vel value="0.0272099780702538" flag="0"/>
			<psa03 value="0.122404358688034" flag="0"/>
			<psa10 value="0.0457536534549941" flag="0"/>
			<psa30 value="0.00636394616353404" flag="0"/>
		</comp>
		<comp name="--.HNN" depth="0.0">
			<acc value="0.0350372344885503" flag="0"/>
			<vel value="0.0274520554863488" flag="0"/>
			<psa03 value="0.104394926068175" flag="0"/>
			<psa10 value="0.0528105484396534" flag="0"/>
			<psa30 value="0.00395262850890689" flag="0"/>
		</comp>
		<comp name="--.HNZ" depth="0.0">
			<acc value="0.0239059237145238" flag="0"/>
			<vel value="0.0190748375627935" flag="0"/>
			<psa03 value="0.0534449623414608" flag="0"/>
			<psa10 value="0.0393510155616562" flag="0"/>
			<psa30 value="0.00197760809016371" flag="0"/>
		</comp>
	</station>
	<station code="GOR1" name="GOR1" netid="HI" source="ITSAK Strong Motion Network" insttype="" lat="35.0582" lon="24.9628" esm:processing="manual (Paolucci et al 2011)" esm:quality="good">
		<comp name="--.HNE" depth="0.0">
			<acc value="0.013104434606282" flag="0"/>
			<vel value="0.0160819878463168" flag="0"/>
			<psa03 value="0.0339017197808878" flag="0"/>
			<psa10 value="0.0396563495385336" flag="0"/>
			<psa30 value="0.00456845472103779" flag="0"/>
		</comp>
		<comp name="--.HNN" depth="0.0">
			<acc value="0.00960946150804737" flag="0"/>
			<vel value="0.0127063503640548" flag="0"/>
			<psa03 value="0.0280179211539383" flag="0"/>
			<psa10 value="0.025751600292137" flag="0"/>
			<psa30 value="0.00250154654851522" flag="0"/>
		</comp>
		<comp name="--.HNZ" depth="0.0">
			<acc value="0.00787415154377296" flag="0"/>
			<vel value="0.00912118616540308" flag="0"/>
			<psa03 value="0.0282402015039206" flag="0"/>
			<psa10 value="0.0144490865560719" flag="0"/>
			<psa30 value="0.00176244550336496" flag="0"/>
		</comp>
	</station>
	<station code="KIS1" name="KIS1" netid="HI" source="ITSAK Strong Motion Network" insttype="" lat="35.493933" lon="23.658993" esm:processing="automatic (Paolucci et al 2011)" esm:quality="best">
		<comp name="--.HNE" depth="0.0">
			<acc value="0.123840466089022" flag="0"/>
			<vel value="0.0484730807393705" flag="0"/>
			<psa03 value="0.206465489825421" flag="0"/>
			<psa10 value="0.0711528035240336" flag="0"/>
			<psa30 value="0.00648173229962082" flag="0"/>
		</comp>
		<comp name="--.HNN" depth="0.0">
			<acc value="0.1109710269147" flag="0"/>
			<vel value="0.0674583133022131" flag="0"/>
			<psa03 value="0.374601857201256" flag="0"/>
			<psa10 value="0.0805202640723218" flag="0"/>
			<psa30 value="0.00692453871670611" flag="0"/>
		</comp>
		<comp name="--.HNZ" depth="0.0">
			<acc value="0.0749893828463381" flag="0"/>
			<vel value="0.0443596637364919" flag="0"/>
			<psa03 value="0.20041113042049" flag="0"/>
			<psa10 value="0.0412567793091514" flag="0"/>
			<psa30 value="0.00350101775857773" flag="0"/>
		</comp>
	</station>
	<station code="IMMV" name="IMMV" netid="HL" source="National Observatory of Athens Seismic Network" insttype="" lat="35.4606" lon="23.9811" esm:processing="automatic (Paolucci et al 2011)" esm:quality="best">
		<comp name="--.HNE" depth="0.0">
			<acc value="0.0421796489771732" flag="0"/>
			<vel value="0.0240102754767462" flag="0"/>
			<psa03 value="0.135358987701961" flag="0"/>
			<psa10 value="0.0314610328890261" flag="0"/>
			<psa30 value="0.00372980874819128" flag="0"/>
		</comp>
		<comp name="--.HNN" depth="0.0">
			<acc value="0.0348185026730005" flag="0"/>
			<vel value="0.023022974408721" flag="0"/>
			<psa03 value="0.0987731890723557" flag="0"/>
			<psa10 value="0.0258615050727894" flag="0"/>
			<psa30 value="0.00336118912061671" flag="0"/>
		</comp>
		<comp name="--.HNZ" depth="0.0">
			<acc value="0.028573798372378" flag="0"/>
			<vel value="0.0208179044864355" flag="0"/>
			<psa03 value="0.0922156817530117" flag="0"/>
			<psa10 value="0.020094898063376" flag="0"/>
			<psa30 value="0.00198489815642815" flag="0"/>
		</comp>
	</station>
	<station code="SIVA" name="SIVA" netid="HL" source="National Observatory of Athens Seismic Network" insttype="" lat="35.01777" lon="24.81204" esm:processing="automatic (Paolucci et al 2011)" esm:quality="best">
		<comp name="00.HNE" depth="0.0">
			<acc value="0.0304763859077425" flag="0"/>
			<vel value="0.0251083502996117" flag="0"/>
			<psa03 value="0.103066379725167" flag="0"/>
			<psa10 value="0.0442951030831902" flag="0"/>
			<psa30 value="0.00350012228259018" flag="0"/>
		</comp>
		<comp name="00.HNN" depth="0.0">
			<acc value="0.0320300782337456" flag="0"/>
			<vel value="0.0271316517471552" flag="0"/>
			<psa03 value="0.106515587384913" flag="0"/>
			<psa10 value="0.0550107479420724" flag="0"/>
			<psa30 value="0.00395780718530211" flag="0"/>
		</comp>
		<comp name="00.HNZ" depth="0.0">
			<acc value="0.0189303263573236" flag="0"/>
			<vel value="0.0121399870463393" flag="0"/>
			<psa03 value="0.0551195941109302" flag="0"/>
			<psa10 value="0.0119673249640463" flag="0"/>
			<psa30 value="0.00172995939298625" flag="0"/>
		</comp>
	</station>
</stationlist>
