<?xml version="1.0" encoding="UTF-8" standalone="yes"?>
<!DOCTYPE earthquake SYSTEM "stationlist.dtd">
<stationlist created="" xmlns="ch.ethz.sed.shakemap.usgs.xml">
  <station code="IMMV" name="IMMV" netid="GE" insttype="STS-2/N" commtype="DIG" lat="35.4606" lon="23.9811">
    <comp name="--.HHE">
      <acc value="0.0439303150" flag="0"/>
      <vel value="0.0258344269" flag="0"/>
      <psa03 value="0.1422401899" flag="0"/>
      <psa10 value="0.0323578853" flag="0"/>
      <psa30 value="0.0034116639" flag="0"/>
    </comp>
    <comp name="--.HHN">
      <acc value="0.0395995004" flag="0"/>
      <vel value="0.0251675009" flag="0"/>
      <psa03 value="0.1107727036" flag="0"/>
      <psa10 value="0.0288212679" flag="0"/>
      <psa30 value="0.0033539819" flag="0"/>
    </comp>
    <comp name="--.HHZ">
      <acc value="0.0300047735" flag="0"/>
      <vel value="0.0209886838" flag="0"/>
      <psa03 value="0.0947738424" flag="0"/>
      <psa10 value="0.0202839238" flag="0"/>
      <psa30 value="0.0018096502" flag="0"/>
    </comp>
  </station>
  <station code="CHAN" name="CHAN" netid="HC" insttype="120" commtype="DIG" lat="35.5193" lon="24.0428">
    <comp name="--.HHE">
      <acc value="0.0000000000" flag="0"/>
      <vel value="-100.0000000000" flag="0"/>
      <psa03 value="0.0000000000" flag="0"/>
      <psa10 value="0.0000000000" flag="0"/>
      <psa30 value="0.0000000000" flag="0"/>
    </comp>
    <comp name="--.HHN">
      <acc value="0.0000000000" flag="0"/>
      <vel value="-100.0000000000" flag="0"/>
      <psa03 value="0.0000000000" flag="0"/>
      <psa10 value="0.0000000000" flag="0"/>
      <psa30 value="0.0000000000" flag="0"/>
    </comp>
    <comp name="--.HHZ">
      <acc value="0.0468359288" flag="0"/>
      <vel value="0.0337770876" flag="0"/>
      <psa03 value="0.1718716316" flag="0"/>
      <psa10 value="0.0436532510" flag="0"/>
      <psa30 value="0.0032533969" flag="0"/>
    </comp>
  </station>
  <station code="GVDS" name="GVDS" netid="HC" insttype="60" commtype="DIG" lat="34.8389" lon="24.0585">
    <comp name="--.HHE">
      <acc value="0.3831717168" flag="0"/>
      <vel value="0.0633639210" flag="0"/>
      <psa03 value="0.4043997956" flag="0"/>
      <psa10 value="0.0170674048" flag="0"/>
      <psa30 value="0.0020220599" flag="0"/>
    </comp>
    <comp name="--.HHN">
      <acc value="0.4921889563" flag="0"/>
      <vel value="0.0947190915" flag="0"/>
      <psa03 value="0.5278801820" flag="0"/>
      <psa10 value="0.0316615881" flag="0"/>
      <psa30 value="0.0031262841" flag="0"/>
    </comp>
    <comp name="--.HHZ">
      <acc value="0.2477098680" flag="0"/>
      <vel value="0.0539031192" flag="0"/>
      <psa03 value="0.1958764351" flag="0"/>
      <psa10 value="0.0163913887" flag="0"/>
      <psa30 value="0.0018490386" flag="0"/>
    </comp>
  </station>
  <station code="IMOD" name="IMOD" netid="HC" insttype="120" commtype="DIG" lat="34.9731" lon="24.7995">
    <comp name="--.HHN">
      <acc value="0.0358781912" flag="0"/>
      <vel value="0.0223469807" flag="0"/>
      <psa03 value="0.1179594831" flag="0"/>
      <psa10 value="0.0243495981" flag="0"/>
      <psa30 value="0.0027699329" flag="0"/>
    </comp>
    <comp name="--.HHZ">
      <acc value="0.0166172159" flag="0"/>
      <vel value="0.0122867615" flag="0"/>
      <psa03 value="0.0419788964" flag="0"/>
      <psa10 value="0.0109261772" flag="0"/>
      <psa30 value="0.0014879899" flag="0"/>
    </comp>
    <comp name="--.HHE">
      <acc value="0.0187765938" flag="0"/>
      <vel value="0.0141907074" flag="0"/>
      <psa03 value="0.0649448334" flag="0"/>
      <psa10 value="0.0225098168" flag="0"/>
      <psa30 value="0.0022159004" flag="0"/>
    </comp>
  </station>
  <station code="IPPL" name="IPPL" netid="HC" insttype="60" commtype="DIG" lat="35.3486" lon="24.4632">
    <comp name="--.HHE">
      <acc value="0.0000000000" flag="0"/>
      <vel value="-100.0000000000" flag="0"/>
      <psa03 value="0.0000000000" flag="0"/>
      <psa10 value="0.0000000000" flag="0"/>
      <psa30 value="0.0000000000" flag="0"/>
    </comp>
    <comp name="--.HHN">
      <acc value="0.0000000000" flag="0"/>
      <vel value="-100.0000000000" flag="0"/>
      <psa03 value="0.0000000000" flag="0"/>
      <psa10 value="0.0000000000" flag="0"/>
      <psa30 value="0.0000000000" flag="0"/>
    </comp>
    <comp name="--.HHZ">
      <acc value="0.0143944853" flag="0"/>
      <vel value="0.0094720504" flag="0"/>
      <psa03 value="0.0536614958" flag="0"/>
      <psa10 value="0.0138571565" flag="0"/>
      <psa30 value="0.0010643709" flag="0"/>
    </comp>
  </station>
  <station code="KNDR" name="KNDR" netid="HC" insttype="120" commtype="DIG" lat="35.2348" lon="23.6248">
    <comp name="--.HHE">
      <acc value="0.1792806251" flag="0"/>
      <vel value="0.0810243826" flag="0"/>
      <psa03 value="0.7561744656" flag="0"/>
      <psa10 value="0.1038557553" flag="0"/>
      <psa30 value="0.0067083314" flag="0"/>
    </comp>
    <comp name="--.HHN">
      <acc value="0.1459945912" flag="0"/>
      <vel value="0.0769289482" flag="0"/>
      <psa03 value="0.4584655981" flag="0"/>
      <psa10 value="0.1105407807" flag="0"/>
      <psa30 value="0.0048683340" flag="0"/>
    </comp>
    <comp name="--.HHZ">
      <acc value="0.1427852090" flag="0"/>
      <vel value="0.0522559271" flag="0"/>
      <psa03 value="0.2914770609" flag="0"/>
      <psa10 value="0.0666865332" flag="0"/>
      <psa30 value="0.0037985960" flag="0"/>
    </comp>
  </station>
  <station code="RODP" name="RODP" netid="HC" insttype="120" commtype="DIG" lat="35.5604" lon="23.7577">
    <comp name="--.HHE">
      <acc value="0.0968957982" flag="0"/>
      <vel value="0.0593950586" flag="0"/>
      <psa03 value="0.2425960064" flag="0"/>
      <psa10 value="0.0432894543" flag="0"/>
      <psa30 value="0.0035217988" flag="0"/>
    </comp>
    <comp name="--.HHZ">
      <acc value="0.0261117498" flag="0"/>
      <vel value="0.0153901428" flag="0"/>
      <psa03 value="0.0841181038" flag="0"/>
      <psa10 value="0.0161642887" flag="0"/>
      <psa30 value="0.0026818980" flag="0"/>
    </comp>
    <comp name="--.HHN">
      <acc value="0.0594276843" flag="0"/>
      <vel value="0.0403873773" flag="0"/>
      <psa03 value="0.1704393971" flag="0"/>
      <psa10 value="0.0372030206" flag="0"/>
      <psa30 value="0.0026641978" flag="0"/>
    </comp>
  </station>
  <station code="CH01" name="CH01" netid="HI" insttype="CMG-5TD,ACCELEROMETER,GURALP" commtype="DIG" lat="35.517" lon="24.0208">
    <comp name="--.HNZ">
      <acc value="0.0215411570" flag="0"/>
      <vel value="0.0213944998" flag="0"/>
      <psa03 value="0.0548869107" flag="0"/>
      <psa10 value="0.0369763349" flag="0"/>
      <psa30 value="0.0026229383" flag="0"/>
    </comp>
    <comp name="--.HNN">
      <acc value="0.0416027628" flag="0"/>
      <vel value="0.0405309109" flag="0"/>
      <psa03 value="0.0958063019" flag="0"/>
      <psa10 value="0.0457163838" flag="0"/>
      <psa30 value="0.0047342782" flag="0"/>
    </comp>
    <comp name="--.HNE">
      <acc value="0.0323509263" flag="0"/>
      <vel value="0.0354655593" flag="0"/>
      <psa03 value="0.1053594024" flag="0"/>
      <psa10 value="0.0839083543" flag="0"/>
      <psa30 value="0.0070115885" flag="0"/>
    </comp>
  </station>
  <station code="CH02" name="CH02" netid="HI" insttype="unknown" commtype="DIG" lat="35.5145" lon="24.0315">
    <comp name="--.HNE">
      <acc value="0.0379680956" flag="0"/>
      <vel value="0.0278990462" flag="0"/>
      <psa03 value="0.1231958398" flag="0"/>
      <psa10 value="0.0455363346" flag="0"/>
      <psa30 value="0.0059282105" flag="0"/>
    </comp>
    <comp name="--.HNN">
      <acc value="0.0347335843" flag="0"/>
      <vel value="0.0267619747" flag="0"/>
      <psa03 value="0.1059684589" flag="0"/>
      <psa10 value="0.0527675887" flag="0"/>
      <psa30 value="0.0039336571" flag="0"/>
    </comp>
    <comp name="--.HNZ">
      <acc value="0.0248768732" flag="0"/>
      <vel value="0.0188348451" flag="0"/>
      <psa03 value="0.0536028592" flag="0"/>
      <psa10 value="0.0392278619" flag="0"/>
      <psa30 value="0.0018043109" flag="0"/>
    </comp>
  </station>
  <station code="KIS1" name="KIS1" netid="HI" insttype="unknown" commtype="DIG" lat="35.4939" lon="23.659">
    <comp name="--.HNE">
      <acc value="0.1241439142" flag="0"/>
      <vel value="0.0476805000" flag="0"/>
      <psa03 value="0.2060540875" flag="0"/>
      <psa10 value="0.0709000028" flag="0"/>
      <psa30 value="0.0060685781" flag="0"/>
    </comp>
    <comp name="--.HNN">
      <acc value="0.1109387009" flag="0"/>
      <vel value="0.0682260504" flag="0"/>
      <psa03 value="0.3734710889" flag="0"/>
      <psa10 value="0.0805085487" flag="0"/>
      <psa30 value="0.0062666461" flag="0"/>
    </comp>
    <comp name="--.HNZ">
      <acc value="0.0750039083" flag="0"/>
      <vel value="0.0430658472" flag="0"/>
      <psa03 value="0.1990791490" flag="0"/>
      <psa10 value="0.0412166776" flag="0"/>
      <psa30 value="0.0029568369" flag="0"/>
    </comp>
  </station>
  <station code="CHNB" name="CHNB" netid="HL" insttype="CMG-5" commtype="DIG" lat="35.4877" lon="24.0661">
    <comp name="00.HNN">
      <acc value="0.1160096897" flag="0"/>
      <vel value="0.0831668919" flag="0"/>
      <psa03 value="0.3220146965" flag="0"/>
      <psa10 value="0.1535987452" flag="0"/>
      <psa30 value="0.0087004323" flag="0"/>
    </comp>
    <comp name="00.HNZ">
      <acc value="0.0819788457" flag="0"/>
      <vel value="0.0540369231" flag="0"/>
      <psa03 value="0.4125544380" flag="0"/>
      <psa10 value="0.0399169304" flag="0"/>
      <psa30 value="0.0030877258" flag="0"/>
    </comp>
    <comp name="00.HNE">
      <acc value="0.0994456234" flag="0"/>
      <vel value="0.0760922499" flag="0"/>
      <psa03 value="0.3524999369" flag="0"/>
      <psa10 value="0.1043818520" flag="0"/>
      <psa30 value="0.0058270378" flag="0"/>
    </comp>
  </station>
  <station code="IMMV" name="IMMV" netid="HL" insttype="120" commtype="DIG" lat="35.4606" lon="23.9811">
    <comp name="--.HHZ">
      <acc value="0.0288746823" flag="0"/>
      <vel value="0.0207651955" flag="0"/>
      <psa03 value="0.0920651586" flag="0"/>
      <psa10 value="0.0201535657" flag="0"/>
      <psa30 value="0.0018018354" flag="0"/>
    </comp>
    <comp name="--.HHE">
      <acc value="0.0429616223" flag="0"/>
      <vel value="0.0252878234" flag="0"/>
      <psa03 value="0.1380243653" flag="0"/>
      <psa10 value="0.0321321676" flag="0"/>
      <psa30 value="0.0034063564" flag="0"/>
    </comp>
    <comp name="--.HHN">
      <acc value="0.0386539188" flag="0"/>
      <vel value="0.0248215252" flag="0"/>
      <psa03 value="0.1078420681" flag="0"/>
      <psa10 value="0.0286137196" flag="0"/>
      <psa30 value="0.0033499497" flag="0"/>
    </comp>
  </station>
  <station code="SIVA" name="SIVA" netid="HL" insttype="60" commtype="DIG" lat="35.0178" lon="24.812">
    <comp name="--.HHN">
      <acc value="0.0295561828" flag="0"/>
      <vel value="0.0229368735" flag="0"/>
      <psa03 value="0.0959531654" flag="0"/>
      <psa10 value="0.0464320833" flag="0"/>
      <psa30 value="0.0030408552" flag="0"/>
    </comp>
    <comp name="--.HHE">
      <acc value="0.0332143914" flag="0"/>
      <vel value="0.0269615395" flag="0"/>
      <psa03 value="0.1098296250" flag="0"/>
      <psa10 value="0.0478385141" flag="0"/>
      <psa30 value="0.0032582152" flag="0"/>
    </comp>
    <comp name="--.HHZ">
      <acc value="0.0193902978" flag="0"/>
      <vel value="0.0117804009" flag="0"/>
      <psa03 value="0.0560247884" flag="0"/>
      <psa10 value="0.0123630313" flag="0"/>
      <psa30 value="0.0015958447" flag="0"/>
    </comp>
  </station>
</stationlist>
