<?xml version="1.0" encoding="UTF-8" standalone="yes"?>
<!DOCTYPE earthquake SYSTEM "stationlist.dtd">
<stationlist created="" xmlns="ch.ethz.sed.shakemap.usgs.xml">
  <station code="IMMV" name="IMMV" netid="GE" insttype="STS-2/N" commtype="DIG" lat="35.4606" lon="23.9811">
    <comp name="--.HHZ">
      <acc value="0.0300047735" flag="0"/>
      <vel value="0.0209886852" flag="0"/>
      <psa03 value="0.0947738424" flag="0"/>
      <psa10 value="0.0202839238" flag="0"/>
      <psa30 value="0.0018096366" flag="0"/>
    </comp>
    <comp name="--.HHE">
      <acc value="0.0439303149" flag="0"/>
      <vel value="0.0258344297" flag="0"/>
      <psa03 value="0.1422401899" flag="0"/>
      <psa10 value="0.0323578853" flag="0"/>
      <psa30 value="0.0034116329" flag="0"/>
    </comp>
    <comp name="--.HHN">
      <acc value="0.0395995003" flag="0"/>
      <vel value="0.0251675046" flag="0"/>
      <psa03 value="0.1107727036" flag="0"/>
      <psa10 value="0.0288212679" flag="0"/>
      <psa30 value="0.0033539393" flag="0"/>
    </comp>
  </station>
  <station code="KTHA" name="KTHA" netid="GE" insttype="STS-2/N" commtype="DIG" lat="36.2566" lon="23.0621">
    <comp name="--.HHE">
      <acc value="0.0000000000" flag="0"/>
      <vel value="-100.0000000000" flag="0"/>
      <psa03 value="0.0000000000" flag="0"/>
      <psa10 value="0.0000000000" flag="0"/>
      <psa30 value="0.0000000000" flag="0"/>
    </comp>
    <comp name="--.HHZ">
      <acc value="0.0115081993" flag="0"/>
      <vel value="0.0079974669" flag="0"/>
      <psa03 value="0.0280497794" flag="0"/>
      <psa10 value="0.0183504260" flag="0"/>
      <psa30 value="0.0016835971" flag="0"/>
    </comp>
    <comp name="--.HHN">
      <acc value="0.0116971609" flag="0"/>
      <vel value="0.0064620679" flag="0"/>
      <psa03 value="0.0310312851" flag="0"/>
      <psa10 value="0.0122911082" flag="0"/>
      <psa30 value="0.0021760469" flag="0"/>
    </comp>
  </station>
  <station code="CHAN" name="CHAN" netid="HC" insttype="120" commtype="DIG" lat="35.5193" lon="24.0428">
    <comp name="--.HHN">
      <acc value="0.0000000000" flag="0"/>
      <vel value="-100.0000000000" flag="0"/>
      <psa03 value="0.0000000000" flag="0"/>
      <psa10 value="0.0000000000" flag="0"/>
      <psa30 value="0.0000000000" flag="0"/>
    </comp>
    <comp name="--.HHE">
      <acc value="0.0000000000" flag="0"/>
      <vel value="-100.0000000000" flag="0"/>
      <psa03 value="0.0000000000" flag="0"/>
      <psa10 value="0.0000000000" flag="0"/>
      <psa30 value="0.0000000000" flag="0"/>
    </comp>
    <comp name="--.HHZ">
      <acc value="0.0468359288" flag="0"/>
      <vel value="0.0337770839" flag="0"/>
      <psa03 value="0.1718716316" flag="0"/>
      <psa10 value="0.0436532718" flag="0"/>
      <psa30 value="0.0032535749" flag="0"/>
    </comp>
  </station>
  <station code="GVDS" name="GVDS" netid="HC" insttype="60" commtype="DIG" lat="34.8389" lon="24.0585">
    <comp name="--.HHE">
      <acc value="0.3831717168" flag="0"/>
      <vel value="0.0633639198" flag="0"/>
      <psa03 value="0.4043997956" flag="0"/>
      <psa10 value="0.0170674049" flag="0"/>
      <psa30 value="0.0020219409" flag="0"/>
    </comp>
    <comp name="--.HHN">
      <acc value="0.4921889563" flag="0"/>
      <vel value="0.0947190918" flag="0"/>
      <psa03 value="0.5278801820" flag="0"/>
      <psa10 value="0.0316615881" flag="0"/>
      <psa30 value="0.0031262632" flag="0"/>
    </comp>
    <comp name="--.HHZ">
      <acc value="0.2477098676" flag="0"/>
      <vel value="0.0539031188" flag="0"/>
      <psa03 value="0.1958764351" flag="0"/>
      <psa10 value="0.0163913887" flag="0"/>
      <psa30 value="0.0018490499" flag="0"/>
    </comp>
  </station>
  <station code="IMOD" name="IMOD" netid="HC" insttype="120" commtype="DIG" lat="34.9731" lon="24.7995">
    <comp name="--.HHE">
      <acc value="0.0187765939" flag="0"/>
      <vel value="0.0141907068" flag="0"/>
      <psa03 value="0.0649448334" flag="0"/>
      <psa10 value="0.0225098168" flag="0"/>
      <psa30 value="0.0022159160" flag="0"/>
    </comp>
    <comp name="--.HHZ">
      <acc value="0.0166172159" flag="0"/>
      <vel value="0.0122867599" flag="0"/>
      <psa03 value="0.0419788964" flag="0"/>
      <psa10 value="0.0109261772" flag="0"/>
      <psa30 value="0.0014879527" flag="0"/>
    </comp>
    <comp name="--.HHN">
      <acc value="0.0358781912" flag="0"/>
      <vel value="0.0223469808" flag="0"/>
      <psa03 value="0.1179594831" flag="0"/>
      <psa10 value="0.0243495981" flag="0"/>
      <psa30 value="0.0027699312" flag="0"/>
    </comp>
  </station>
  <station code="IPPL" name="IPPL" netid="HC" insttype="60" commtype="DIG" lat="35.3486" lon="24.4632">
    <comp name="--.HHN">
      <acc value="0.0000000000" flag="0"/>
      <vel value="-100.0000000000" flag="0"/>
      <psa03 value="0.0000000000" flag="0"/>
      <psa10 value="0.0000000000" flag="0"/>
      <psa30 value="0.0000000000" flag="0"/>
    </comp>
    <comp name="--.HHE">
      <acc value="0.0000000000" flag="0"/>
      <vel value="-100.0000000000" flag="0"/>
      <psa03 value="0.0000000000" flag="0"/>
      <psa10 value="0.0000000000" flag="0"/>
      <psa30 value="0.0000000000" flag="0"/>
    </comp>
    <comp name="--.HHZ">
      <acc value="0.0143944854" flag="0"/>
      <vel value="0.0094720518" flag="0"/>
      <psa03 value="0.0536614958" flag="0"/>
      <psa10 value="0.0138571565" flag="0"/>
      <psa30 value="0.0010643791" flag="0"/>
    </comp>
  </station>
  <station code="KNDR" name="KNDR" netid="HC" insttype="120" commtype="DIG" lat="35.2348" lon="23.6248">
    <comp name="--.HHN">
      <acc value="0.1459945912" flag="0"/>
      <vel value="0.0769289480" flag="0"/>
      <psa03 value="0.4584655981" flag="0"/>
      <psa10 value="0.1105407807" flag="0"/>
      <psa30 value="0.0048683334" flag="0"/>
    </comp>
    <comp name="--.HHZ">
      <acc value="0.1427852090" flag="0"/>
      <vel value="0.0522559274" flag="0"/>
      <psa03 value="0.2914770609" flag="0"/>
      <psa10 value="0.0666865332" flag="0"/>
      <psa30 value="0.0037985930" flag="0"/>
    </comp>
    <comp name="--.HHE">
      <acc value="0.1792806251" flag="0"/>
      <vel value="0.0810243825" flag="0"/>
      <psa03 value="0.7561744656" flag="0"/>
      <psa10 value="0.1038557553" flag="0"/>
      <psa30 value="0.0067083236" flag="0"/>
    </comp>
  </station>
  <station code="RODP" name="RODP" netid="HC" insttype="120" commtype="DIG" lat="35.5604" lon="23.7577">
    <comp name="--.HHZ">
      <acc value="0.0261117498" flag="0"/>
      <vel value="0.0153901417" flag="0"/>
      <psa03 value="0.0841181038" flag="0"/>
      <psa10 value="0.0161642887" flag="0"/>
      <psa30 value="0.0026818937" flag="0"/>
    </comp>
    <comp name="--.HHE">
      <acc value="0.0968957982" flag="0"/>
      <vel value="0.0593950590" flag="0"/>
      <psa03 value="0.2425960064" flag="0"/>
      <psa10 value="0.0432894543" flag="0"/>
      <psa30 value="0.0035218232" flag="0"/>
    </comp>
    <comp name="--.HHN">
      <acc value="0.0594276843" flag="0"/>
      <vel value="0.0403873813" flag="0"/>
      <psa03 value="0.1704393971" flag="0"/>
      <psa10 value="0.0372030206" flag="0"/>
      <psa30 value="0.0026641909" flag="0"/>
    </comp>
  </station>
  <station code="KIS1" name="KIS1" netid="HI" insttype="unknown" commtype="DIG" lat="35.4939" lon="23.659">
    <comp name="--.HNE">
      <acc value="0.1241439122" flag="0"/>
      <vel value="0.0476805021" flag="0"/>
      <psa03 value="0.2060540875" flag="0"/>
      <psa10 value="0.0709000030" flag="0"/>
      <psa30 value="0.0060684850" flag="0"/>
    </comp>
    <comp name="--.HNZ">
      <acc value="0.0750039077" flag="0"/>
      <vel value="0.0430658459" flag="0"/>
      <psa03 value="0.1990791490" flag="0"/>
      <psa10 value="0.0412166776" flag="0"/>
      <psa30 value="0.0029568128" flag="0"/>
    </comp>
    <comp name="--.HNN">
      <acc value="0.1109386997" flag="0"/>
      <vel value="0.0682260533" flag="0"/>
      <psa03 value="0.3734710889" flag="0"/>
      <psa10 value="0.0805085487" flag="0"/>
      <psa30 value="0.0062667185" flag="0"/>
    </comp>
  </station>
  <station code="CHNB" name="CHNB" netid="HL" insttype="CMG-5" commtype="DIG" lat="35.4877" lon="24.0661">
    <comp name="00.HNZ">
      <acc value="0.0819788420" flag="0"/>
      <vel value="0.0540369300" flag="0"/>
      <psa03 value="0.4125544380" flag="0"/>
      <psa10 value="0.0399169304" flag="0"/>
      <psa30 value="0.0030878253" flag="0"/>
    </comp>
    <comp name="00.HNE">
      <acc value="0.0994456258" flag="0"/>
      <vel value="0.0760922481" flag="0"/>
      <psa03 value="0.3524999369" flag="0"/>
      <psa10 value="0.1043818520" flag="0"/>
      <psa30 value="0.0058268425" flag="0"/>
    </comp>
    <comp name="00.HNN">
      <acc value="0.1160096915" flag="0"/>
      <vel value="0.0831668911" flag="0"/>
      <psa03 value="0.3220146965" flag="0"/>
      <psa10 value="0.1535987452" flag="0"/>
      <psa30 value="0.0087004222" flag="0"/>
    </comp>
  </station>
  <station code="IMMV" name="IMMV" netid="HL" insttype="120" commtype="DIG" lat="35.4606" lon="23.9811">
    <comp name="--.HHN">
      <acc value="0.0386539186" flag="0"/>
      <vel value="0.0248215289" flag="0"/>
      <psa03 value="0.1078420681" flag="0"/>
      <psa10 value="0.0286137196" flag="0"/>
      <psa30 value="0.0033499073" flag="0"/>
    </comp>
    <comp name="--.HHZ">
      <acc value="0.0288746823" flag="0"/>
      <vel value="0.0207651968" flag="0"/>
      <psa03 value="0.0920651586" flag="0"/>
      <psa10 value="0.0201535657" flag="0"/>
      <psa30 value="0.0018018219" flag="0"/>
    </comp>
    <comp name="--.HHE">
      <acc value="0.0429616222" flag="0"/>
      <vel value="0.0252878262" flag="0"/>
      <psa03 value="0.1380243653" flag="0"/>
      <psa10 value="0.0321321677" flag="0"/>
      <psa30 value="0.0034063254" flag="0"/>
    </comp>
  </station>
  <station code="SIVA" name="SIVA" netid="HL" insttype="60" commtype="DIG" lat="35.0178" lon="24.812">
    <comp name="--.HHN">
      <acc value="0.0295561828" flag="0"/>
      <vel value="0.0229368725" flag="0"/>
      <psa03 value="0.0959531654" flag="0"/>
      <psa10 value="0.0464320833" flag="0"/>
      <psa30 value="0.0030408623" flag="0"/>
    </comp>
    <comp name="--.HHE">
      <acc value="0.0332143914" flag="0"/>
      <vel value="0.0269615422" flag="0"/>
      <psa03 value="0.1098296250" flag="0"/>
      <psa10 value="0.0478385141" flag="0"/>
      <psa30 value="0.0032582310" flag="0"/>
    </comp>
    <comp name="--.HHZ">
      <acc value="0.0193902975" flag="0"/>
      <vel value="0.0117803972" flag="0"/>
      <psa03 value="0.0560247884" flag="0"/>
      <psa10 value="0.0123630313" flag="0"/>
      <psa30 value="0.0015958403" flag="0"/>
    </comp>
  </station>
</stationlist>
