<stationlist created="1650015014">
	<station code="FX11" name="FX11" netid="1J" source="FocusX temporary land-network (FXland)" insttype="" lat="38.1019" lon="15.4868">
		<comp name=".HHE" depth="0.0">
			<acc value="0.044795651641" flag="0"/>
			<vel value="0.0143399464951" flag="0"/>
			<psa03 value="0.0832743133897" flag="0"/>
			<psa10 value="0.00554966310669" flag="0"/>
			<psa30 value="0.000412963294292" flag="0"/>
		</comp>
		<comp name=".HHN" depth="0.0">
			<acc value="0.0363241461063" flag="0"/>
			<vel value="0.0122162921213" flag="0"/>
			<psa03 value="0.0922777900341" flag="0"/>
			<psa10 value="0.00486774746438" flag="0"/>
			<psa30 value="0.000417042236376" flag="0"/>
		</comp>
		<comp name=".HHZ" depth="0.0">
			<acc value="0.0335279373782" flag="0"/>
			<vel value="0.0102725548632" flag="0"/>
			<psa03 value="0.0440720133046" flag="0"/>
			<psa10 value="0.00315291847475" flag="0"/>
			<psa30 value="0.000192388617198" flag="0"/>
		</comp>
	</station>
	<station code="FX12" name="FX12" netid="1J" source="FocusX temporary land-network (FXland)" insttype="" lat="38.0895" lon="15.7176">
		<comp name="00.HHE" depth="0.0">
			<acc value="0.000395591814208" flag="0"/>
			<vel value="0.000196163262651" flag="0"/>
			<psa03 value="0.001997019337" flag="0"/>
			<psa10 value="0.000126641494846" flag="0"/>
			<psa30 value="1.99854889796e-05" flag="0"/>
		</comp>
		<comp name="00.HHN" depth="0.0">
			<acc value="0.000365742800676" flag="0"/>
			<vel value="0.000144467093854" flag="0"/>
			<psa03 value="0.00149173879433" flag="0"/>
			<psa10 value="9.95184309864e-05" flag="0"/>
			<psa30 value="9.28790043408e-06" flag="0"/>
		</comp>
		<comp name="00.HHZ" depth="0.0">
			<acc value="0.000172198110295" flag="0"/>
			<vel value="6.80776998908e-05" flag="0"/>
			<psa03 value="0.000231048244452" flag="0"/>
			<psa10 value="6.4888754128e-05" flag="0"/>
			<psa30 value="7.83197879111e-06" flag="0"/>
		</comp>
	</station>
	<station code="AUG1" name="AUG1" netid="IT" source="Italian Strong Motion Network (RAN)" insttype="" lat="37.243217" lon="15.255619">
		<comp name="00.HNE" depth="0.0">
			<acc value="0.242144111461" flag="0"/>
			<vel value="0.07436438697" flag="0"/>
			<psa03 value="0.304355412052" flag="0"/>
			<psa10 value="0.0158734890408" flag="0"/>
			<psa30 value="0.0017665449416" flag="0"/>
		</comp>
		<comp name="00.HNN" depth="0.0">
			<acc value="0.217813743953" flag="0"/>
			<vel value="0.0694199040678" flag="0"/>
			<psa03 value="0.478381107067" flag="0"/>
			<psa10 value="0.0139484143265" flag="0"/>
			<psa30 value="0.00133192135825" flag="0"/>
		</comp>
		<comp name="00.HNZ" depth="0.0">
			<acc value="0.637716593602" flag="0"/>
			<vel value="0.128845654626" flag="0"/>
			<psa03 value="0.381258381497" flag="0"/>
			<psa10 value="0.0234620717471" flag="0"/>
			<psa30 value="0.0027482816435" flag="0"/>
		</comp>
	</station>
	<station code="BAG" name="BAG" netid="IT" source="Italian Strong Motion Network (RAN)" insttype="" lat="38.028912" lon="15.822113">
		<comp name="00.HGE" depth="0.0">
			<acc value="0.033140453126" flag="0"/>
			<vel value="0.0145494745184" flag="0"/>
			<psa03 value="0.0800002527489" flag="0"/>
			<psa10 value="0.0101423762576" flag="0"/>
			<psa30 value="0.000906514427131" flag="0"/>
		</comp>
		<comp name="00.HGN" depth="0.0">
			<acc value="0.0395294885921" flag="0"/>
			<vel value="0.0155400667107" flag="0"/>
			<psa03 value="0.0844372133427" flag="0"/>
			<psa10 value="0.00974016117537" flag="0"/>
			<psa30 value="0.000490705058886" flag="0"/>
		</comp>
		<comp name="00.HGZ" depth="0.0">
			<acc value="0.0230815718793" flag="0"/>
			<vel value="0.00835804138518" flag="0"/>
			<psa03 value="0.0637160698353" flag="0"/>
			<psa10 value="0.00747615869631" flag="0"/>
			<psa30 value="0.000457687142443" flag="0"/>
		</comp>
	</station>
	<station code="BNT" name="BNT" netid="IT" source="Italian Strong Motion Network (RAN)" insttype="" lat="37.780802" lon="14.844718">
		<comp name="00.HNE" depth="0.0">
			<acc value="0.116843581249" flag="0"/>
			<vel value="0.0454089389328" flag="0"/>
			<psa03 value="0.248959554849" flag="0"/>
			<psa10 value="0.024346708475" flag="0"/>
			<psa30 value="0.00188834571864" flag="0"/>
		</comp>
		<comp name="00.HNN" depth="0.0">
			<acc value="0.0977807341144" flag="0"/>
			<vel value="0.0524847431236" flag="0"/>
			<psa03 value="0.220092163359" flag="0"/>
			<psa10 value="0.0264207139926" flag="0"/>
			<psa30 value="0.00287143730196" flag="0"/>
		</comp>
		<comp name="00.HNZ" depth="0.0">
			<acc value="0.0723628676936" flag="0"/>
			<vel value="0.0267140847504" flag="0"/>
			<psa03 value="0.125917174728" flag="0"/>
			<psa10 value="0.0229017171264" flag="0"/>
			<psa30 value="0.00114077150801" flag="0"/>
		</comp>
	</station>
	<station code="BVM" name="BVM" netid="IT" source="Italian Strong Motion Network (RAN)" insttype="" lat="37.931145" lon="15.936049">
		<comp name="00.HNE" depth="0.0">
			<acc value="0.035426335461" flag="0"/>
			<vel value="0.0225815198097" flag="0"/>
			<psa03 value="0.124200665185" flag="0"/>
			<psa10 value="0.0230620983758" flag="0"/>
			<psa30 value="0.00160885959989" flag="0"/>
		</comp>
		<comp name="00.HNN" depth="0.0">
			<acc value="0.0372136162914" flag="0"/>
			<vel value="0.01225573423" flag="0"/>
			<psa03 value="0.095525119737" flag="0"/>
			<psa10 value="0.00853752681925" flag="0"/>
			<psa30 value="0.000770554118344" flag="0"/>
		</comp>
		<comp name="00.HNZ" depth="0.0">
			<acc value="0.0251318560458" flag="0"/>
			<vel value="0.00761066096064" flag="0"/>
			<psa03 value="0.0539229627568" flag="0"/>
			<psa10 value="0.00777247801352" flag="0"/>
			<psa30 value="0.00038266756339" flag="0"/>
		</comp>
	</station>
	<station code="CDI1" name="CDI1" netid="IT" source="Italian Strong Motion Network (RAN)" insttype="" lat="37.503348" lon="14.64734">
		<comp name="00.HNE" depth="0.0">
			<acc value="0.160265564832" flag="0"/>
			<vel value="0.0514090457148" flag="0"/>
			<psa03 value="0.228884808328" flag="0"/>
			<psa10 value="0.0260409638361" flag="0"/>
			<psa30 value="0.00172827678152" flag="0"/>
		</comp>
		<comp name="00.HNN" depth="0.0">
			<acc value="0.153153731939" flag="0"/>
			<vel value="0.0680220835332" flag="0"/>
			<psa03 value="0.315608324169" flag="0"/>
			<psa10 value="0.0560007235232" flag="0"/>
			<psa30 value="0.0032825516196" flag="0"/>
		</comp>
		<comp name="00.HNZ" depth="0.0">
			<acc value="0.0945452826394" flag="0"/>
			<vel value="0.0336868576771" flag="0"/>
			<psa03 value="0.120588165457" flag="0"/>
			<psa10 value="0.0289166730877" flag="0"/>
			<psa30 value="0.00188049478188" flag="0"/>
		</comp>
	</station>
	<station code="GMB" name="GMB" netid="IT" source="Italian Strong Motion Network (RAN)" insttype="" lat="38.16663" lon="15.83635">
		<comp name="00.HGE" depth="0.0">
			<acc value="0.0434258390554" flag="0"/>
			<vel value="0.0146485112111" flag="0"/>
			<psa03 value="0.0636360905786" flag="0"/>
			<psa10 value="0.00625747187057" flag="0"/>
			<psa30 value="0.000721026566555" flag="0"/>
		</comp>
		<comp name="00.HGN" depth="0.0">
			<acc value="0.0502610595622" flag="0"/>
			<vel value="0.0181116211009" flag="0"/>
			<psa03 value="0.0665484241314" flag="0"/>
			<psa10 value="0.00666562265854" flag="0"/>
			<psa30 value="0.000569366780256" flag="0"/>
		</comp>
		<comp name="00.HGZ" depth="0.0">
			<acc value="0.0242809354907" flag="0"/>
			<vel value="0.00508355853081" flag="0"/>
			<psa03 value="0.0299282846853" flag="0"/>
			<psa10 value="0.00389205798599" flag="0"/>
			<psa30 value="0.000301367385985" flag="0"/>
		</comp>
	</station>
	<station code="ISI" name="ISI" netid="IT" source="Italian Strong Motion Network (RAN)" insttype="" lat="36.79776" lon="14.892357">
		<comp name="00.HGE" depth="0.0">
			<acc value="0.264150484801" flag="0"/>
			<vel value="0.0409085913896" flag="0"/>
			<psa03 value="0.239938248898" flag="0"/>
			<psa10 value="0.00939762754672" flag="0"/>
			<psa30 value="0.00090404968052" flag="0"/>
		</comp>
		<comp name="00.HGN" depth="0.0">
			<acc value="0.265494967578" flag="0"/>
			<vel value="0.0636412916358" flag="0"/>
			<psa03 value="0.269502311539" flag="0"/>
			<psa10 value="0.016756170014" flag="0"/>
			<psa30 value="0.00188856427478" flag="0"/>
		</comp>
		<comp name="00.HGZ" depth="0.0">
			<acc value="0.233990345706" flag="0"/>
			<vel value="0.0413890230053" flag="0"/>
			<psa03 value="0.137347421509" flag="0"/>
			<psa10 value="0.00755810349977" flag="0"/>
			<psa30 value="0.000554748363939" flag="0"/>
		</comp>
	</station>
	<station code="LNT" name="LNT" netid="IT" source="Italian Strong Motion Network (RAN)" insttype="" lat="37.28841" lon="15.002259">
		<comp name="00.HGE" depth="0.0">
			<acc value="0.226845106057" flag="0"/>
			<vel value="0.0724091262276" flag="0"/>
			<psa03 value="0.50122457867" flag="0"/>
			<psa10 value="0.0388617243985" flag="0"/>
			<psa30 value="0.00289744048288" flag="0"/>
		</comp>
		<comp name="00.HGN" depth="0.0">
			<acc value="0.239632580698" flag="0"/>
			<vel value="0.11026073585" flag="0"/>
			<psa03 value="0.486508770485" flag="0"/>
			<psa10 value="0.0378784955144" flag="0"/>
			<psa30 value="0.00372489217249" flag="0"/>
		</comp>
		<comp name="00.HGZ" depth="0.0">
			<acc value="0.651070686592" flag="0"/>
			<vel value="0.145478109787" flag="0"/>
			<psa03 value="0.503392680626" flag="0"/>
			<psa10 value="0.0280724415365" flag="0"/>
			<psa30 value="0.00339101401304" flag="0"/>
		</comp>
	</station>
	<station code="MFG" name="MFG" netid="IT" source="Italian Strong Motion Network (RAN)" insttype="" lat="38.188812" lon="15.540627">
		<comp name="00.HNE" depth="0.0">
			<acc value="0.0421790538592" flag="0"/>
			<vel value="0.0170021774027" flag="0"/>
			<psa03 value="0.0864458620307" flag="0"/>
			<psa10 value="0.00987090514902" flag="0"/>
			<psa30 value="0.000611238460296" flag="0"/>
		</comp>
		<comp name="00.HNN" depth="0.0">
			<acc value="0.0495877127271" flag="0"/>
			<vel value="0.0220582139298" flag="0"/>
			<psa03 value="0.0734486416536" flag="0"/>
			<psa10 value="0.0106145465991" flag="0"/>
			<psa30 value="0.000605294837395" flag="0"/>
		</comp>
		<comp name="00.HNZ" depth="0.0">
			<acc value="0.0362053227564" flag="0"/>
			<vel value="0.00894597617697" flag="0"/>
			<psa03 value="0.0558068948494" flag="0"/>
			<psa10 value="0.00392419949021" flag="0"/>
			<psa30 value="0.00028433896627" flag="0"/>
		</comp>
	</station>
	<station code="NTE" name="NTE" netid="IT" source="Italian Strong Motion Network (RAN)" insttype="" lat="36.90958" lon="15.06921">
		<comp name="00.HGE" depth="0.0">
			<acc value="0.184256168802" flag="0"/>
			<vel value="0.043442079265" flag="0"/>
			<psa03 value="0.17861635329" flag="0"/>
			<psa10 value="0.0154023593932" flag="0"/>
			<psa30 value="0.00140060111628" flag="0"/>
		</comp>
		<comp name="00.HGN" depth="0.0">
			<acc value="0.315468206371" flag="0"/>
			<vel value="0.0593151068995" flag="0"/>
			<psa03 value="0.241490351717" flag="0"/>
			<psa10 value="0.0185160153451" flag="0"/>
			<psa30 value="0.00238443066516" flag="0"/>
		</comp>
		<comp name="00.HGZ" depth="0.0">
			<acc value="0.177011964286" flag="0"/>
			<vel value="0.0311169798315" flag="0"/>
			<psa03 value="0.131357472621" flag="0"/>
			<psa10 value="0.0167127215108" flag="0"/>
			<psa30 value="0.000819390738947" flag="0"/>
		</comp>
	</station>
	<station code="NVR1" name="NVR1" netid="IT" source="Italian Strong Motion Network (RAN)" insttype="" lat="38.012424" lon="15.128887">
		<comp name="00.HNE" depth="0.0">
			<acc value="0.0762205209903" flag="0"/>
			<vel value="0.0236474902112" flag="0"/>
			<psa03 value="0.109994286582" flag="0"/>
			<psa10 value="0.0138012573906" flag="0"/>
			<psa30 value="0.000621554768705" flag="0"/>
		</comp>
		<comp name="00.HNN" depth="0.0">
			<acc value="0.0629543297628" flag="0"/>
			<vel value="0.0240004444219" flag="0"/>
			<psa03 value="0.11818756893" flag="0"/>
			<psa10 value="0.0092975643555" flag="0"/>
			<psa30 value="0.000790850514964" flag="0"/>
		</comp>
		<comp name="00.HNZ" depth="0.0">
			<acc value="0.0501356487478" flag="0"/>
			<vel value="0.0121456111775" flag="0"/>
			<psa03 value="0.0520407182754" flag="0"/>
			<psa10 value="0.00269713367187" flag="0"/>
			<psa30 value="0.000433272217783" flag="0"/>
		</comp>
	</station>
	<station code="PLZ" name="PLZ" netid="IT" source="Italian Strong Motion Network (RAN)" insttype="" lat="37.068347" lon="14.909756">
		<comp name="00.HNE" depth="0.0">
			<acc value="0.206496152" flag="0"/>
			<vel value="0.0397461346855" flag="0"/>
			<psa03 value="0.148284385613" flag="0"/>
			<psa10 value="0.0257540379536" flag="0"/>
			<psa30 value="0.00174791579084" flag="0"/>
		</comp>
		<comp name="00.HNN" depth="0.0">
			<acc value="0.167740457167" flag="0"/>
			<vel value="0.0504811314322" flag="0"/>
			<psa03 value="0.242847837477" flag="0"/>
			<psa10 value="0.0163502768756" flag="0"/>
			<psa30 value="0.00120154084618" flag="0"/>
		</comp>
		<comp name="00.HNZ" depth="0.0">
			<acc value="0.1612757703" flag="0"/>
			<vel value="0.0303698316289" flag="0"/>
			<psa03 value="0.127462631274" flag="0"/>
			<psa10 value="0.0210127507416" flag="0"/>
			<psa30 value="0.000956366375412" flag="0"/>
		</comp>
	</station>
	<station code="PPL1" name="PPL1" netid="IT" source="Italian Strong Motion Network (RAN)" insttype="" lat="36.685757" lon="15.132806">
		<comp name="00.HNE" depth="0.0">
			<acc value="0.178076857543" flag="0"/>
			<vel value="0.0613925331607" flag="0"/>
			<psa03 value="0.228816137113" flag="0"/>
			<psa10 value="0.0273701268866" flag="0"/>
			<psa30 value="0.0021924733656" flag="0"/>
		</comp>
		<comp name="00.HNN" depth="0.0">
			<acc value="0.201671974045" flag="0"/>
			<vel value="0.0527610136707" flag="0"/>
			<psa03 value="0.244802341954" flag="0"/>
			<psa10 value="0.0117261521125" flag="0"/>
			<psa30 value="0.00125711015238" flag="0"/>
		</comp>
		<comp name="00.HNZ" depth="0.0">
			<acc value="0.194995046683" flag="0"/>
			<vel value="0.0468226215125" flag="0"/>
			<psa03 value="0.102156829889" flag="0"/>
			<psa10 value="0.00837920820641" flag="0"/>
			<psa30 value="0.000685549528876" flag="0"/>
		</comp>
	</station>
	<station code="PTR" name="PTR" netid="IT" source="Italian Strong Motion Network (RAN)" insttype="" lat="37.562065" lon="14.907758">
		<comp name="00.HGE" depth="0.0">
			<acc value="0.0938049234009" flag="0"/>
			<vel value="0.0414509639625" flag="0"/>
			<psa03 value="0.187765251026" flag="0"/>
			<psa10 value="0.0448099034364" flag="0"/>
			<psa30 value="0.00303756393204" flag="0"/>
		</comp>
		<comp name="00.HGN" depth="0.0">
			<acc value="0.129990075527" flag="0"/>
			<vel value="0.041102221985" flag="0"/>
			<psa03 value="0.144784059984" flag="0"/>
			<psa10 value="0.041056669803" flag="0"/>
			<psa30 value="0.00409647095443" flag="0"/>
		</comp>
		<comp name="00.HGZ" depth="0.0">
			<acc value="0.0437829505276" flag="0"/>
			<vel value="0.0177813112251" flag="0"/>
			<psa03 value="0.0810275343431" flag="0"/>
			<psa10 value="0.0284474907566" flag="0"/>
			<psa30 value="0.00244669270638" flag="0"/>
		</comp>
	</station>
	<station code="RCU" name="RCU" netid="IT" source="Italian Strong Motion Network (RAN)" insttype="" lat="38.121418" lon="15.666274">
		<comp name="00.HNE" depth="0.0">
			<acc value="0.0193353170253" flag="0"/>
			<vel value="0.00732159930664" flag="0"/>
			<psa03 value="0.0443630794613" flag="0"/>
			<psa10 value="0.00600386835182" flag="0"/>
			<psa30 value="0.000598448706792" flag="0"/>
		</comp>
		<comp name="00.HNN" depth="0.0">
			<acc value="0.0302590228166" flag="0"/>
			<vel value="0.0130552567939" flag="0"/>
			<psa03 value="0.0660914459425" flag="0"/>
			<psa10 value="0.00634548223205" flag="0"/>
			<psa30 value="0.000460749011944" flag="0"/>
		</comp>
		<comp name="00.HNZ" depth="0.0">
			<acc value="0.0141880820531" flag="0"/>
			<vel value="0.00495618112008" flag="0"/>
			<psa03 value="0.0287198947396" flag="0"/>
			<psa10 value="0.00405483892567" flag="0"/>
			<psa30 value="0.000250221940559" flag="0"/>
		</comp>
	</station>
	<station code="RGS" name="RGS" netid="IT" source="Italian Strong Motion Network (RAN)" insttype="" lat="36.924847" lon="14.703259">
		<comp name="00.HNE" depth="0.0">
			<acc value="0.173962368035" flag="0"/>
			<vel value="0.0378375284032" flag="0"/>
			<psa03 value="0.132550707917" flag="0"/>
			<psa10 value="0.0103136144763" flag="0"/>
			<psa30 value="0.000823421110109" flag="0"/>
		</comp>
		<comp name="00.HNN" depth="0.0">
			<acc value="0.165737017871" flag="0"/>
			<vel value="0.0331365968245" flag="0"/>
			<psa03 value="0.185203748006" flag="0"/>
			<psa10 value="0.0111520537688" flag="0"/>
			<psa30 value="0.00116219917749" flag="0"/>
		</comp>
		<comp name="00.HNZ" depth="0.0">
			<acc value="0.117443162403" flag="0"/>
			<vel value="0.0209734982446" flag="0"/>
			<psa03 value="0.0783376946961" flag="0"/>
			<psa10 value="0.00679068641214" flag="0"/>
			<psa30 value="0.000603467737192" flag="0"/>
		</comp>
	</station>
	<station code="SRC" name="SRC" netid="IT" source="Italian Strong Motion Network (RAN)" insttype="" lat="37.089607" lon="15.292523">
		<comp name="00.HNE" depth="0.0">
			<acc value="0.468452109558" flag="0"/>
			<vel value="0.117678060543" flag="0"/>
			<psa03 value="0.367921414655" flag="0"/>
			<psa10 value="0.0456218997271" flag="0"/>
			<psa30 value="0.00331031179191" flag="0"/>
		</comp>
		<comp name="00.HNN" depth="0.0">
			<acc value="0.560915132403" flag="0"/>
			<vel value="0.104037148739" flag="0"/>
			<psa03 value="0.248453500492" flag="0"/>
			<psa10 value="0.0452766781077" flag="0"/>
			<psa30 value="0.00354373475504" flag="0"/>
		</comp>
		<comp name="00.HNZ" depth="0.0">
			<acc value="0.312424418933" flag="0"/>
			<vel value="0.0562500774348" flag="0"/>
			<psa03 value="0.228757841584" flag="0"/>
			<psa10 value="0.0205087154768" flag="0"/>
			<psa30 value="0.00171211644015" flag="0"/>
		</comp>
	</station>
	<station code="SRT" name="SRT" netid="IT" source="Italian Strong Motion Network (RAN)" insttype="" lat="37.16657" lon="15.054206">
		<comp name="00.HGE" depth="0.0">
			<acc value="0.497665129079" flag="0"/>
			<vel value="0.111472008205" flag="0"/>
			<psa03 value="0.387907405295" flag="0"/>
			<psa10 value="0.0203288835638" flag="0"/>
			<psa30 value="0.00173284968862" flag="0"/>
		</comp>
		<comp name="00.HGN" depth="0.0">
			<acc value="0.625707895185" flag="0"/>
			<vel value="0.146498445352" flag="0"/>
			<psa03 value="0.516907950948" flag="0"/>
			<psa10 value="0.0316138067596" flag="0"/>
			<psa30 value="0.00295002084107" flag="0"/>
		</comp>
		<comp name="00.HGZ" depth="0.0">
			<acc value="0.297726930698" flag="0"/>
			<vel value="0.0524465949804" flag="0"/>
			<psa03 value="0.212792638135" flag="0"/>
			<psa10 value="0.0137595190006" flag="0"/>
			<psa30 value="0.00122618935403" flag="0"/>
		</comp>
	</station>
	<station code="SVN" name="SVN" netid="IT" source="Italian Strong Motion Network (RAN)" insttype="" lat="37.683086" lon="15.129966">
		<comp name="00.HNE" depth="0.0">
			<acc value="0.311118670748" flag="0"/>
			<vel value="0.0934365272329" flag="0"/>
			<psa03 value="0.360388540639" flag="0"/>
			<psa10 value="0.0199444605976" flag="0"/>
			<psa30 value="0.00159263487924" flag="0"/>
		</comp>
		<comp name="00.HNN" depth="0.0">
			<acc value="0.244343879302" flag="0"/>
			<vel value="0.0658469928647" flag="0"/>
			<psa03 value="0.391756993645" flag="0"/>
			<psa10 value="0.0338775954744" flag="0"/>
			<psa30 value="0.00264255422291" flag="0"/>
		</comp>
		<comp name="00.HNZ" depth="0.0">
			<acc value="0.130153290495" flag="0"/>
			<vel value="0.0316074663365" flag="0"/>
			<psa03 value="0.162063079634" flag="0"/>
			<psa10 value="0.0106100481761" flag="0"/>
			<psa30 value="0.00105713971782" flag="0"/>
		</comp>
	</station>
	<station code="TAO" name="TAO" netid="IT" source="Italian Strong Motion Network (RAN)" insttype="" lat="37.852352" lon="15.286283">
