<stationlist created="1650016810">
	<station code="AUG1" name="AUG1" netid="IT" source="Italian Strong Motion Network (RAN)" insttype="" lat="37.243217" lon="15.255619">
		<comp name="00.HNE" depth="0.0">
			<acc value="0.242144111461" flag="0"/>
			<vel value="0.07436438697" flag="0"/>
			<psa03 value="0.304355412052" flag="0"/>
			<psa10 value="0.0158734890408" flag="0"/>
			<psa30 value="0.0017665449416" flag="0"/>
		</comp>
		<comp name="00.HNN" depth="0.0">
			<acc value="0.217813743953" flag="0"/>
			<vel value="0.0694199040678" flag="0"/>
			<psa03 value="0.478381107067" flag="0"/>
			<psa10 value="0.0139484143265" flag="0"/>
			<psa30 value="0.00133192135825" flag="0"/>
		</comp>
		<comp name="00.HNZ" depth="0.0">
			<acc value="0.637716593602" flag="0"/>
			<vel value="0.128845654626" flag="0"/>
			<psa03 value="0.381258381497" flag="0"/>
			<psa10 value="0.0234620717471" flag="0"/>
			<psa30 value="0.0027482816435" flag="0"/>
		</comp>
	</station>
	<station code="BAG" name="BAG" netid="IT" source="Italian Strong Motion Network (RAN)" insttype="" lat="38.028912" lon="15.822113">
		<comp name="00.HGE" depth="0.0">
			<acc value="0.033140453126" flag="0"/>
			<vel value="0.0145494745184" flag="0"/>
			<psa03 value="0.0800002527489" flag="0"/>
			<psa10 value="0.0101423762576" flag="0"/>
			<psa30 value="0.000906514427131" flag="0"/>
		</comp>
		<comp name="00.HGN" depth="0.0">
			<acc value="0.0395294885921" flag="0"/>
			<vel value="0.0155400667107" flag="0"/>
			<psa03 value="0.0844372133427" flag="0"/>
			<psa10 value="0.00974016117537" flag="0"/>
			<psa30 value="0.000490705058886" flag="0"/>
		</comp>
		<comp name="00.HGZ" depth="0.0">
			<acc value="0.0230815718793" flag="0"/>
			<vel value="0.00835804138518" flag="0"/>
			<psa03 value="0.0637160698353" flag="0"/>
			<psa10 value="0.00747615869631" flag="0"/>
			<psa30 value="0.000457687142443" flag="0"/>
		</comp>
	</station>
	<station code="BNT" name="BNT" netid="IT" source="Italian Strong Motion Network (RAN)" insttype="" lat="37.780802" lon="14.844718">
		<comp name="00.HNE" depth="0.0">
			<acc value="0.116843581161" flag="0"/>
			<vel value="0.0454088549505" flag="0"/>
			<psa03 value="0.248959659022" flag="0"/>
			<psa10 value="0.0243467328516" flag="0"/>
			<psa30 value="0.00188720689319" flag="0"/>
		</comp>
		<comp name="00.HNN" depth="0.0">
			<acc value="0.0977807340884" flag="0"/>
			<vel value="0.0524857322452" flag="0"/>
			<psa03 value="0.220092184193" flag="0"/>
			<psa10 value="0.0264206989916" flag="0"/>
			<psa30 value="0.00286932882895" flag="0"/>
		</comp>
		<comp name="00.HNZ" depth="0.0">
			<acc value="0.0723628682058" flag="0"/>
			<vel value="0.0267132224594" flag="0"/>
			<psa03 value="0.125917174728" flag="0"/>
			<psa10 value="0.0229017377527" flag="0"/>
			<psa30 value="0.00114019376141" flag="0"/>
		</comp>
	</station>
	<station code="BVM" name="BVM" netid="IT" source="Italian Strong Motion Network (RAN)" insttype="" lat="37.931145" lon="15.936049">
		<comp name="00.HNE" depth="0.0">
			<acc value="0.035426335461" flag="0"/>
			<vel value="0.0225815198097" flag="0"/>
			<psa03 value="0.124200665185" flag="0"/>
			<psa10 value="0.0230620983758" flag="0"/>
			<psa30 value="0.00160885959989" flag="0"/>
		</comp>
		<comp name="00.HNN" depth="0.0">
			<acc value="0.0372136162914" flag="0"/>
			<vel value="0.01225573423" flag="0"/>
			<psa03 value="0.095525119737" flag="0"/>
			<psa10 value="0.00853752681925" flag="0"/>
			<psa30 value="0.000770554118344" flag="0"/>
		</comp>
		<comp name="00.HNZ" depth="0.0">
			<acc value="0.0251318560458" flag="0"/>
			<vel value="0.00761066096064" flag="0"/>
			<psa03 value="0.0539229627568" flag="0"/>
			<psa10 value="0.00777247801352" flag="0"/>
			<psa30 value="0.00038266756339" flag="0"/>
		</comp>
	</station>
	<station code="CDI1" name="CDI1" netid="IT" source="Italian Strong Motion Network (RAN)" insttype="" lat="37.503348" lon="14.64734">
		<comp name="00.HNE" depth="0.0">
			<acc value="0.160265565352" flag="0"/>
			<vel value="0.051409456616" flag="0"/>
			<psa03 value="0.228884787494" flag="0"/>
			<psa10 value="0.026040751947" flag="0"/>
			<psa30 value="0.00172803864075" flag="0"/>
		</comp>
		<comp name="00.HNN" depth="0.0">
			<acc value="0.153153733028" flag="0"/>
			<vel value="0.0680229318703" flag="0"/>
			<psa03 value="0.315608303335" flag="0"/>
			<psa10 value="0.056000719773" flag="0"/>
			<psa30 value="0.00328224555766" flag="0"/>
		</comp>
		<comp name="00.HNZ" depth="0.0">
			<acc value="0.0945452820856" flag="0"/>
			<vel value="0.0336870984363" flag="0"/>
			<psa03 value="0.12058815504" flag="0"/>
			<psa10 value="0.0289167068399" flag="0"/>
			<psa30 value="0.00187686308297" flag="0"/>
		</comp>
	</station>
	<station code="GMB" name="GMB" netid="IT" source="Italian Strong Motion Network (RAN)" insttype="" lat="38.16663" lon="15.83635">
		<comp name="00.HGE" depth="0.0">
			<acc value="0.0434258390554" flag="0"/>
			<vel value="0.0146485112111" flag="0"/>
			<psa03 value="0.0636360905786" flag="0"/>
			<psa10 value="0.00625747187057" flag="0"/>
			<psa30 value="0.000721026566555" flag="0"/>
		</comp>
		<comp name="00.HGN" depth="0.0">
			<acc value="0.0502610595622" flag="0"/>
			<vel value="0.0181116211009" flag="0"/>
			<psa03 value="0.0665484241314" flag="0"/>
			<psa10 value="0.00666562265854" flag="0"/>
			<psa30 value="0.000569366780256" flag="0"/>
		</comp>
		<comp name="00.HGZ" depth="0.0">
			<acc value="0.0242809354907" flag="0"/>
			<vel value="0.00508355853081" flag="0"/>
			<psa03 value="0.0299282846853" flag="0"/>
			<psa10 value="0.00389205798599" flag="0"/>
			<psa30 value="0.000301367385985" flag="0"/>
		</comp>
	</station>
	<station code="ISI" name="ISI" netid="IT" source="Italian Strong Motion Network (RAN)" insttype="" lat="36.79776" lon="14.892357">
		<comp name="00.HGE" depth="0.0">
			<acc value="0.264150484801" flag="0"/>
			<vel value="0.0409085913896" flag="0"/>
			<psa03 value="0.239938248898" flag="0"/>
			<psa10 value="0.00939762754672" flag="0"/>
			<psa30 value="0.00090404968052" flag="0"/>
		</comp>
		<comp name="00.HGN" depth="0.0">
			<acc value="0.265494967578" flag="0"/>
			<vel value="0.0636412916358" flag="0"/>
			<psa03 value="0.269502311539" flag="0"/>
			<psa10 value="0.016756170014" flag="0"/>
			<psa30 value="0.00188856427478" flag="0"/>
		</comp>
		<comp name="00.HGZ" depth="0.0">
			<acc value="0.233990345706" flag="0"/>
			<vel value="0.0413890230053" flag="0"/>
			<psa03 value="0.137347421509" flag="0"/>
			<psa10 value="0.00755810349977" flag="0"/>
			<psa30 value="0.000554748363939" flag="0"/>
		</comp>
	</station>
	<station code="LNT" name="LNT" netid="IT" source="Italian Strong Motion Network (RAN)" insttype="" lat="37.28841" lon="15.002259">
		<comp name="00.HGE" depth="0.0">
			<acc value="0.226845106057" flag="0"/>
			<vel value="0.0724091262276" flag="0"/>
			<psa03 value="0.50122457867" flag="0"/>
			<psa10 value="0.0388617243985" flag="0"/>
			<psa30 value="0.00289744048288" flag="0"/>
		</comp>
		<comp name="00.HGN" depth="0.0">
			<acc value="0.239632580698" flag="0"/>
			<vel value="0.11026073585" flag="0"/>
			<psa03 value="0.486508770485" flag="0"/>
			<psa10 value="0.0378784955144" flag="0"/>
			<psa30 value="0.00372489217249" flag="0"/>
		</comp>
		<comp name="00.HGZ" depth="0.0">
			<acc value="0.651070686592" flag="0"/>
			<vel value="0.145478109787" flag="0"/>
			<psa03 value="0.503392680626" flag="0"/>
			<psa10 value="0.0280724415365" flag="0"/>
			<psa30 value="0.00339101401304" flag="0"/>
		</comp>
	</station>
	<station code="MFG" name="MFG" netid="IT" source="Italian Strong Motion Network (RAN)" insttype="" lat="38.188812" lon="15.540627">
		<comp name="00.HNE" depth="0.0">
			<acc value="0.042031067717" flag="0"/>
			<vel value="0.0170311562873" flag="0"/>
			<psa03 value="0.0864610765804" flag="0"/>
			<psa10 value="0.00983182943543" flag="0"/>
			<psa30 value="0.000578770736553" flag="0"/>
		</comp>
		<comp name="00.HNN" depth="0.0">
			<acc value="0.0497136334247" flag="0"/>
			<vel value="0.022042846259" flag="0"/>
			<psa03 value="0.0734465217218" flag="0"/>
			<psa10 value="0.0105894621249" flag="0"/>
			<psa30 value="0.000591786494617" flag="0"/>
		</comp>
		<comp name="00.HNZ" depth="0.0">
			<acc value="0.0352179265529" flag="0"/>
			<vel value="0.0088592657157" flag="0"/>
			<psa03 value="0.0558061604258" flag="0"/>
			<psa10 value="0.00391118472179" flag="0"/>
			<psa30 value="0.000271706749239" flag="0"/>
		</comp>
	</station>
	<station code="NTE" name="NTE" netid="IT" source="Italian Strong Motion Network (RAN)" insttype="" lat="36.90958" lon="15.06921">
		<comp name="00.HGE" depth="0.0">
			<acc value="0.184256168802" flag="0"/>
			<vel value="0.043442079265" flag="0"/>
			<psa03 value="0.17861635329" flag="0"/>
			<psa10 value="0.0154023593932" flag="0"/>
			<psa30 value="0.00140060111628" flag="0"/>
		</comp>
		<comp name="00.HGN" depth="0.0">
			<acc value="0.315468206371" flag="0"/>
			<vel value="0.0593151068995" flag="0"/>
			<psa03 value="0.241490351717" flag="0"/>
			<psa10 value="0.0185160153451" flag="0"/>
			<psa30 value="0.00238443066516" flag="0"/>
		</comp>
		<comp name="00.HGZ" depth="0.0">
			<acc value="0.177011964286" flag="0"/>
			<vel value="0.0311169798315" flag="0"/>
			<psa03 value="0.131357472621" flag="0"/>
			<psa10 value="0.0167127215108" flag="0"/>
			<psa30 value="0.000819390738947" flag="0"/>
		</comp>
	</station>
	<station code="PLZ" name="PLZ" netid="IT" source="Italian Strong Motion Network (RAN)" insttype="" lat="37.068347" lon="14.909756">
		<comp name="00.HNE" depth="0.0">
			<acc value="0.206496152" flag="0"/>
			<vel value="0.0397461346855" flag="0"/>
			<psa03 value="0.148284385613" flag="0"/>
			<psa10 value="0.0257540379536" flag="0"/>
			<psa30 value="0.00174791579084" flag="0"/>
		</comp>
		<comp name="00.HNN" depth="0.0">
			<acc value="0.167740457167" flag="0"/>
			<vel value="0.0504811314322" flag="0"/>
			<psa03 value="0.242847837477" flag="0"/>
			<psa10 value="0.0163502768756" flag="0"/>
			<psa30 value="0.00120154084618" flag="0"/>
		</comp>
		<comp name="00.HNZ" depth="0.0">
			<acc value="0.1612757703" flag="0"/>
			<vel value="0.0303698316289" flag="0"/>
			<psa03 value="0.127462631274" flag="0"/>
			<psa10 value="0.0210127507416" flag="0"/>
			<psa30 value="0.000956366375412" flag="0"/>
		</comp>
	</station>
	<station code="PPL1" name="PPL1" netid="IT" source="Italian Strong Motion Network (RAN)" insttype="" lat="36.685757" lon="15.132806">
		<comp name="00.HNE" depth="0.0">
			<acc value="0.178076857543" flag="0"/>
			<vel value="0.0613925331607" flag="0"/>
			<psa03 value="0.228816137113" flag="0"/>
			<psa10 value="0.0273701268866" flag="0"/>
			<psa30 value="0.0021924733656" flag="0"/>
		</comp>
		<comp name="00.HNN" depth="0.0">
			<acc value="0.201671974045" flag="0"/>
			<vel value="0.0527610136707" flag="0"/>
			<psa03 value="0.244802341954" flag="0"/>
			<psa10 value="0.0117261521125" flag="0"/>
			<psa30 value="0.00125711015238" flag="0"/>
		</comp>
		<comp name="00.HNZ" depth="0.0">
			<acc value="0.194995046683" flag="0"/>
			<vel value="0.0468226215125" flag="0"/>
			<psa03 value="0.102156829889" flag="0"/>
			<psa10 value="0.00837920820641" flag="0"/>
			<psa30 value="0.000685549528876" flag="0"/>
		</comp>
	</station>
	<station code="PTR" name="PTR" netid="IT" source="Italian Strong Motion Network (RAN)" insttype="" lat="37.562065" lon="14.907758">
		<comp name="00.HGE" depth="0.0">
			<acc value="0.0938049234009" flag="0"/>
			<vel value="0.0414509639625" flag="0"/>
			<psa03 value="0.187765251026" flag="0"/>
			<psa10 value="0.0448099034364" flag="0"/>
			<psa30 value="0.00303756393204" flag="0"/>
		</comp>
		<comp name="00.HGN" depth="0.0">
			<acc value="0.129990075527" flag="0"/>
			<vel value="0.041102221985" flag="0"/>
			<psa03 value="0.144784059984" flag="0"/>
			<psa10 value="0.041056669803" flag="0"/>
			<psa30 value="0.00409647095443" flag="0"/>
		</comp>
		<comp name="00.HGZ" depth="0.0">
			<acc value="0.0437829505276" flag="0"/>
			<vel value="0.0177813112251" flag="0"/>
			<psa03 value="0.0810275343431" flag="0"/>
			<psa10 value="0.0284474907566" flag="0"/>
			<psa30 value="0.00244669270638" flag="0"/>
		</comp>
	</station>
	<station code="RCU" name="RCU" netid="IT" source="Italian Strong Motion Network (RAN)" insttype="" lat="38.121418" lon="15.666274">
		<comp name="00.HNE" depth="0.0">
			<acc value="0.0193353170253" flag="0"/>
			<vel value="0.00732159930664" flag="0"/>
			<psa03 value="0.0443630794613" flag="0"/>
			<psa10 value="0.00600386835182" flag="0"/>
			<psa30 value="0.000598448706792" flag="0"/>
		</comp>
		<comp name="00.HNN" depth="0.0">
			<acc value="0.0302590228166" flag="0"/>
			<vel value="0.0130552567939" flag="0"/>
			<psa03 value="0.0660914459425" flag="0"/>
			<psa10 value="0.00634548223205" flag="0"/>
			<psa30 value="0.000460749011944" flag="0"/>
		</comp>
		<comp name="00.HNZ" depth="0.0">
			<acc value="0.0141880820531" flag="0"/>
			<vel value="0.00495618112008" flag="0"/>
			<psa03 value="0.0287198947396" flag="0"/>
			<psa10 value="0.00405483892567" flag="0"/>
			<psa30 value="0.000250221940559" flag="0"/>
		</comp>
	</station>
	<station code="RGS" name="RGS" netid="IT" source="Italian Strong Motion Network (RAN)" insttype="" lat="36.924847" lon="14.703259">
		<comp name="00.HNE" depth="0.0">
			<acc value="0.174013745323" flag="0"/>
			<vel value="0.0377452874983" flag="0"/>
			<psa03 value="0.132550718335" flag="0"/>
			<psa10 value="0.010295917054" flag="0"/>
			<psa30 value="0.000784311540123" flag="0"/>
		</comp>
		<comp name="00.HNN" depth="0.0">
			<acc value="0.165771995481" flag="0"/>
			<vel value="0.0330581677267" flag="0"/>
			<psa03 value="0.185177454598" flag="0"/>
			<psa10 value="0.0111462268203" flag="0"/>
			<psa30 value="0.00108332416074" flag="0"/>
		</comp>
		<comp name="00.HNZ" depth="0.0">
			<acc value="0.117466554315" flag="0"/>
			<vel value="0.0209207384783" flag="0"/>
			<psa03 value="0.0783308088235" flag="0"/>
			<psa10 value="0.00679190149265" flag="0"/>
			<psa30 value="0.000589994552996" flag="0"/>
		</comp>
	</station>
	<station code="SRC" name="SRC" netid="IT" source="Italian Strong Motion Network (RAN)" insttype="" lat="37.089607" lon="15.292523">
		<comp name="00.HNE" depth="0.0">
			<acc value="0.468452109558" flag="0"/>
			<vel value="0.117678060543" flag="0"/>
			<psa03 value="0.367921414655" flag="0"/>
			<psa10 value="0.0456218997271" flag="0"/>
			<psa30 value="0.00331031179191" flag="0"/>
		</comp>
		<comp name="00.HNN" depth="0.0">
			<acc value="0.560915132403" flag="0"/>
			<vel value="0.104037148739" flag="0"/>
			<psa03 value="0.248453500492" flag="0"/>
			<psa10 value="0.0452766781077" flag="0"/>
			<psa30 value="0.00354373475504" flag="0"/>
		</comp>
		<comp name="00.HNZ" depth="0.0">
			<acc value="0.312424418933" flag="0"/>
			<vel value="0.0562500774348" flag="0"/>
			<psa03 value="0.228757841584" flag="0"/>
			<psa10 value="0.0205087154768" flag="0"/>
			<psa30 value="0.00171211644015" flag="0"/>
		</comp>
	</station>
	<station code="SRT" name="SRT" netid="IT" source="Italian Strong Motion Network (RAN)" insttype="" lat="37.16657" lon="15.054206">
		<comp name="00.HGE" depth="0.0">
			<acc value="0.497665129079" flag="0"/>
			<vel value="0.111472008205" flag="0"/>
			<psa03 value="0.387907405295" flag="0"/>
			<psa10 value="0.0203288835638" flag="0"/>
			<psa30 value="0.00173284968862" flag="0"/>
		</comp>
		<comp name="00.HGN" depth="0.0">
			<acc value="0.625707895185" flag="0"/>
			<vel value="0.146498445352" flag="0"/>
			<psa03 value="0.516907950948" flag="0"/>
			<psa10 value="0.0316138067596" flag="0"/>
			<psa30 value="0.00295002084107" flag="0"/>
		</comp>
		<comp name="00.HGZ" depth="0.0">
			<acc value="0.297726930698" flag="0"/>
			<vel value="0.0524465949804" flag="0"/>
			<psa03 value="0.212792638135" flag="0"/>
			<psa10 value="0.0137595190006" flag="0"/>
			<psa30 value="0.00122618935403" flag="0"/>
		</comp>
	</station>
	<station code="SVN" name="SVN" netid="IT" source="Italian Strong Motion Network (RAN)" insttype="" lat="37.683086" lon="15.129966">
		<comp name="00.HNE" depth="0.0">
			<acc value="0.311118670748" flag="0"/>
			<vel value="0.0934365272329" flag="0"/>
			<psa03 value="0.360388540639" flag="0"/>
			<psa10 value="0.0199444605976" flag="0"/>
			<psa30 value="0.00159263487924" flag="0"/>
		</comp>
		<comp name="00.HNN" depth="0.0">
			<acc value="0.244343879302" flag="0"/>
			<vel value="0.0658469928647" flag="0"/>
			<psa03 value="0.391756993645" flag="0"/>
			<psa10 value="0.0338775954744" flag="0"/>
			<psa30 value="0.00264255422291" flag="0"/>
		</comp>
		<comp name="00.HNZ" depth="0.0">
			<acc value="0.130153290495" flag="0"/>
			<vel value="0.0316074663365" flag="0"/>
			<psa03 value="0.162063079634" flag="0"/>
			<psa10 value="0.0106100481761" flag="0"/>
			<psa30 value="0.00105713971782" flag="0"/>
		</comp>
	</station>
	<station code="TAO" name="TAO" netid="IT" source="Italian Strong Motion Network (RAN)" insttype="" lat="37.852352" lon="15.286283">
		<comp name="00.HNE" depth="0.0">
			<acc value="0.0722900446954" flag="0"/>
			<vel value="0.0193572606555" flag="0"/>
			<psa03 value="0.129360569503" flag="0"/>
			<psa10 value="0.00593852871088" flag="0"/>
			<psa30 value="0.000606299226848" flag="0"/>
		</comp>
		<comp name="00.HNN" depth="0.0">
			<acc value="0.0500894061122" flag="0"/>
			<vel value="0.0151071144756" flag="0"/>
			<psa03 value="0.100783999362" flag="0"/>
			<psa10 value="0.00485020239586" flag="0"/>
			<psa30 value="0.000458297495375" flag="0"/>
		</comp>
		<comp name="00.HNZ" depth="0.0">
			<acc value="0.100612760441" flag="0"/>
			<vel value="0.0229249113989" flag="0"/>
			<psa03 value="0.056537016133" flag="0"/>
			<psa10 value="0.00409029799341" flag="0"/>
			<psa30 value="0.00044903146488" flag="0"/>
		</comp>
	</station>
	<station code="VZZ" name="VZZ" netid="IT" source="Italian Strong Motion Network (RAN)" insttype="" lat="37.163417" lon="14.755327">
		<comp name="00.HGE" depth="0.0">
			<acc value="0.632962302861" flag="0"/>
			<vel value="0.13443998047" flag="0"/>
			<psa03 value="0.618582519723" flag="0"/>
			<psa10 value="0.027460963529" flag="0"/>
			<psa30 value="0.00236722473369" flag="0"/>
		</comp>
		<comp name="00.HGN" depth="0.0">
			<acc value="0.630512071477" flag="0"/>
			<vel value="0.271571842354" flag="0"/>
			<psa03 value="1.80413968207" flag="0"/>
			<psa10 value="0.0666711441362" flag="0"/>
			<psa30 value="0.00493965806144" flag="0"/>
		</comp>
		<comp name="00.HGZ" depth="0.0">
			<acc value="0.440208430536" flag="0"/>
			<vel value="0.0821322760341" flag="0"/>
			<psa03 value="0.48279427442" flag="0"/>
			<psa10 value="0.017877021765" flag="0"/>
			<psa30 value="0.00190824995386" flag="0"/>
		</comp>
	</station>
	<station code="ACATE" name="ACATE" netid="IV" source="Italian National Seismic Network (INSN)" insttype="" lat="37.02398" lon="14.50064">
		<comp name=".HNE" depth="0.0">
			<acc value="0.114527495102" flag="0"/>
			<vel value="0.0406748028623" flag="0"/>
			<psa03 value="0.242171896866" flag="0"/>
			<psa10 value="0.0318502599234" flag="0"/>
			<psa30 value="0.00183424546809" flag="0"/>
		</comp>
		<comp name=".HNN" depth="0.0">
			<acc value="0.157983865845" flag="0"/>
			<vel value="0.0338868071179" flag="0"/>
			<psa03 value="0.171595752793" flag="0"/>
			<psa10 value="0.0174850570492" flag="0"/>
			<psa30 value="0.00146597169676" flag="0"/>
		</comp>
		<comp name=".HNZ" depth="0.0">
			<acc value="0.0982722161144" flag="0"/>
			<vel value="0.0277558462908" flag="0"/>
			<psa03 value="0.13990112193" flag="0"/>
			<psa10 value="0.0171394060265" flag="0"/>
			<psa30 value="0.00100672085698" flag="0"/>
		</comp>
	</station>
	<station code="CROCE" name="CROCE" netid="IV" source="Italian National Seismic Network (INSN)" insttype="" lat="36.8326" lon="14.5345">
		<comp name=".HNE" depth="0.0">
