<stationlist created="1650013222">
	<station code="FX03" name="FX03" netid="1J" source="FocusX temporary land-network (FXland)" insttype="" lat="37.2992" lon="15.0017">
		<comp name=".HHE" depth="0.0">
			<acc value="0.514782677402" flag="0"/>
			<vel value="0.162653057625" flag="0"/>
			<psa03 value="1.73435322572" flag="0"/>
			<psa10 value="0.0500445114534" flag="0"/>
			<psa30 value="0.00394772651751" flag="0"/>
		</comp>
		<comp name=".HHN" depth="0.0">
			<acc value="0.474173096224" flag="0"/>
			<vel value="0.16885477917" flag="0"/>
			<psa03 value="1.79329363024" flag="0"/>
			<psa10 value="0.0793195620317" flag="0"/>
			<psa30 value="0.00475052553232" flag="0"/>
		</comp>
		<comp name=".HHZ" depth="0.0">
			<acc value="0.339672125676" flag="0"/>
			<vel value="0.0923548492294" flag="0"/>
			<psa03 value="0.506038939264" flag="0"/>
			<psa10 value="0.0275661354962" flag="0"/>
			<psa30 value="0.0023066473874" flag="0"/>
		</comp>
	</station>
	<station code="FX07" name="FX07" netid="1J" source="FocusX temporary land-network (FXland)" insttype="" lat="37.5521" lon="15.1452">
		<comp name=".HHE" depth="0.0">
			<acc value="0.083583569903" flag="0"/>
			<vel value="0.0327789707292" flag="0"/>
			<psa03 value="0.189736964976" flag="0"/>
			<psa10 value="0.0262087199491" flag="0"/>
			<psa30 value="0.00270759582327" flag="0"/>
		</comp>
		<comp name=".HHN" depth="0.0">
			<acc value="0.0825493130489" flag="0"/>
			<vel value="0.0367996289738" flag="0"/>
			<psa03 value="0.160177288042" flag="0"/>
			<psa10 value="0.0301919525687" flag="0"/>
			<psa30 value="0.00281976887919" flag="0"/>
		</comp>
		<comp name=".HHZ" depth="0.0">
			<acc value="0.0951815471886" flag="0"/>
			<vel value="0.0301304779451" flag="0"/>
			<psa03 value="0.154988829749" flag="0"/>
			<psa10 value="0.0195194674439" flag="0"/>
			<psa30 value="0.00147663219464" flag="0"/>
		</comp>
	</station>
	<station code="FX08" name="FX08" netid="1J" source="FocusX temporary land-network (FXland)" insttype="" lat="37.7352" lon="15.2006">
		<comp name=".HHE" depth="0.0">
			<acc value="0.101239490678" flag="0"/>
			<vel value="0.0347715694483" flag="0"/>
			<psa03 value="0.258057178355" flag="0"/>
			<psa10 value="0.0241967154137" flag="0"/>
			<psa30 value="0.00181076016231" flag="0"/>
		</comp>
		<comp name=".HHN" depth="0.0">
			<acc value="0.115052674696" flag="0"/>
			<vel value="0.0513457898553" flag="0"/>
			<psa03 value="0.236941967076" flag="0"/>
			<psa10 value="0.0281804955695" flag="0"/>
			<psa30 value="0.00263388281514" flag="0"/>
		</comp>
		<comp name=".HHZ" depth="0.0">
			<acc value="0.0612452380381" flag="0"/>
			<vel value="0.0181614722153" flag="0"/>
			<psa03 value="0.103533921114" flag="0"/>
			<psa10 value="0.0182539273581" flag="0"/>
			<psa30 value="0.000993355596598" flag="0"/>
		</comp>
	</station>
	<station code="FX11" name="FX11" netid="1J" source="FocusX temporary land-network (FXland)" insttype="" lat="38.1019" lon="15.4868">
		<comp name=".HHE" depth="0.0">
			<acc value="0.044795651641" flag="0"/>
			<vel value="0.0143399464951" flag="0"/>
			<psa03 value="0.0832743133897" flag="0"/>
			<psa10 value="0.00554966310669" flag="0"/>
			<psa30 value="0.000412963294292" flag="0"/>
		</comp>
		<comp name=".HHN" depth="0.0">
			<acc value="0.0363241461063" flag="0"/>
			<vel value="0.0122162921213" flag="0"/>
			<psa03 value="0.0922777900341" flag="0"/>
			<psa10 value="0.00486774746438" flag="0"/>
			<psa30 value="0.000417042236376" flag="0"/>
		</comp>
		<comp name=".HHZ" depth="0.0">
			<acc value="0.0335279373782" flag="0"/>
			<vel value="0.0102725548632" flag="0"/>
			<psa03 value="0.0440720133046" flag="0"/>
			<psa10 value="0.00315291847475" flag="0"/>
			<psa30 value="0.000192388617198" flag="0"/>
		</comp>
	</station>
	<station code="FX12" name="FX12" netid="1J" source="FocusX temporary land-network (FXland)" insttype="" lat="38.0895" lon="15.7176">
		<comp name="00.HHE" depth="0.0">
			<acc value="0.000394799161086" flag="0"/>
			<vel value="0.000198562962395" flag="0"/>
			<psa03 value="0.0019976777465" flag="0"/>
			<psa10 value="0.000129435605724" flag="0"/>
			<psa30 value="2.33737000856e-05" flag="0"/>
		</comp>
		<comp name="00.HHN" depth="0.0">
			<acc value="0.000366300717751" flag="0"/>
			<vel value="0.000144012106163" flag="0"/>
			<psa03 value="0.00149253051345" flag="0"/>
			<psa10 value="0.000100485335859" flag="0"/>
			<psa30 value="1.0827094195e-05" flag="0"/>
		</comp>
		<comp name="00.HHZ" depth="0.0">
			<acc value="0.000171815764141" flag="0"/>
			<vel value="6.90435148119e-05" flag="0"/>
			<psa03 value="0.000231819902015" flag="0"/>
			<psa10 value="6.54198537636e-05" flag="0"/>
			<psa30 value="1.01027371279e-05" flag="0"/>
		</comp>
	</station>
	<station code="FX13" name="FX13" netid="1J" source="FocusX temporary land-network (FXland)" insttype="" lat="37.945" lon="15.7075">
		<comp name=".HHE" depth="0.0">
			<acc value="0.0472238326609" flag="0"/>
			<vel value="0.0249221334366" flag="0"/>
			<psa03 value="0.153428424297" flag="0"/>
			<psa10 value="0.0326654139234" flag="0"/>
			<psa30 value="0.0019530156277" flag="0"/>
		</comp>
		<comp name=".HHN" depth="0.0">
			<acc value="0.0533587992193" flag="0"/>
			<vel value="0.0270989439867" flag="0"/>
			<psa03 value="0.124263502681" flag="0"/>
			<psa10 value="0.0260763999335" flag="0"/>
			<psa30 value="0.00212849933597" flag="0"/>
		</comp>
		<comp name=".HHZ" depth="0.0">
			<acc value="0.0555806755863" flag="0"/>
			<vel value="0.0141617865187" flag="0"/>
			<psa03 value="0.12501464619" flag="0"/>
			<psa10 value="0.0114808549253" flag="0"/>
			<psa30 value="0.000866986131491" flag="0"/>
		</comp>
	</station>
	<station code="FX14" name="FX14" netid="1J" source="FocusX temporary land-network (FXland)" insttype="" lat="37.9286" lon="15.907">
		<comp name="00.HHE" depth="0.0">
			<acc value="0.000269660377772" flag="0"/>
			<vel value="0.000315935373183" flag="0"/>
			<psa03 value="0.000512389208569" flag="0"/>
			<psa10 value="0.000392315188175" flag="0"/>
			<psa30 value="0.000127869512394" flag="0"/>
		</comp>
		<comp name="00.HHN" depth="0.0">
			<acc value="0.000208533826618" flag="0"/>
			<vel value="0.00018081554297" flag="0"/>
			<psa03 value="0.000385112466563" flag="0"/>
			<psa10 value="0.000224108019885" flag="0"/>
			<psa30 value="6.12679649518e-05" flag="0"/>
		</comp>
		<comp name="00.HHZ" depth="0.0">
			<acc value="0.000115360585568" flag="0"/>
			<vel value="8.38557936606e-05" flag="0"/>
			<psa03 value="0.000290757684935" flag="0"/>
			<psa10 value="0.000109702692069" flag="0"/>
			<psa30 value="1.76316465257e-05" flag="0"/>
		</comp>
	</station>
	<station code="OEM7" name="OEM7" netid="3D" source="INGV temporary network for seismic monitoring of the island of Vulcano to increase volcanic activity (Sicily, Italy) (VITN)" insttype="" lat="38.4825" lon="14.9707">
		<comp name=".HHE" depth="0.0">
			<acc value="0.0763805568826" flag="0"/>
			<vel value="0.0172895777168" flag="0"/>
			<psa03 value="0.0917268889562" flag="0"/>
			<psa10 value="0.0104813302742" flag="0"/>
			<psa30 value="0.000636647747705" flag="0"/>
		</comp>
		<comp name=".HHN" depth="0.0">
			<acc value="0.0527783969773" flag="0"/>
			<vel value="0.0222510951349" flag="0"/>
			<psa03 value="0.112595240132" flag="0"/>
			<psa10 value="0.0102635870998" flag="0"/>
			<psa30 value="0.000641366966579" flag="0"/>
		</comp>
		<comp name=".HHZ" depth="0.0">
			<acc value="0.0339069993539" flag="0"/>
			<vel value="0.0121516658175" flag="0"/>
			<psa03 value="0.105064293327" flag="0"/>
			<psa10 value="0.00406203752753" flag="0"/>
			<psa30 value="0.000358136433114" flag="0"/>
		</comp>
	</station>
	<station code="OEM8" name="OEM8" netid="3D" source="INGV temporary network for seismic monitoring of the island of Vulcano to increase volcanic activity (Sicily, Italy) (VITN)" insttype="" lat="38.4689" lon="14.9168">
		<comp name=".HHE" depth="0.0">
			<acc value="0.07722925364" flag="0"/>
			<vel value="0.0286627377557" flag="0"/>
			<psa03 value="0.1823938952" flag="0"/>
			<psa10 value="0.010168428296" flag="0"/>
			<psa30 value="0.00075994174866" flag="0"/>
		</comp>
		<comp name=".HHN" depth="0.0">
			<acc value="0.085291658282" flag="0"/>
			<vel value="0.026309416497" flag="0"/>
			<psa03 value="0.192701348852" flag="0"/>
			<psa10 value="0.0115702570978" flag="0"/>
			<psa30 value="0.000685833453935" flag="0"/>
		</comp>
		<comp name=".HHZ" depth="0.0">
			<acc value="0.0906297790936" flag="0"/>
			<vel value="0.0286856532971" flag="0"/>
			<psa03 value="0.158327634262" flag="0"/>
			<psa10 value="0.00841519934065" flag="0"/>
			<psa30 value="0.000637690056339" flag="0"/>
		</comp>
	</station>
	<station code="AUG1" name="AUG1" netid="IT" source="Italian Strong Motion Network (RAN)" insttype="" lat="37.243217" lon="15.255619">
		<comp name="00.HNE" depth="0.0">
			<acc value="0.242144111461" flag="0"/>
			<vel value="0.07436438697" flag="0"/>
			<psa03 value="0.304355412052" flag="0"/>
			<psa10 value="0.0158734890408" flag="0"/>
			<psa30 value="0.0017665449416" flag="0"/>
		</comp>
		<comp name="00.HNN" depth="0.0">
			<acc value="0.217813743953" flag="0"/>
			<vel value="0.0694199040678" flag="0"/>
			<psa03 value="0.478381107067" flag="0"/>
			<psa10 value="0.0139484143265" flag="0"/>
			<psa30 value="0.00133192135825" flag="0"/>
		</comp>
		<comp name="00.HNZ" depth="0.0">
			<acc value="0.637716593602" flag="0"/>
			<vel value="0.128845654626" flag="0"/>
			<psa03 value="0.381258381497" flag="0"/>
			<psa10 value="0.0234620717471" flag="0"/>
			<psa30 value="0.0027482816435" flag="0"/>
		</comp>
	</station>
	<station code="BAG" name="BAG" netid="IT" source="Italian Strong Motion Network (RAN)" insttype="" lat="38.028912" lon="15.822113">
		<comp name="00.HGE" depth="0.0">
			<acc value="0.0337258556556" flag="0"/>
			<vel value="0.0144187239262" flag="0"/>
			<psa03 value="0.0799995079079" flag="0"/>
			<psa10 value="0.0102161745839" flag="0"/>
			<psa30 value="0.000940275830325" flag="0"/>
		</comp>
		<comp name="00.HGN" depth="0.0">
			<acc value="0.0405242800827" flag="0"/>
			<vel value="0.0153565079959" flag="0"/>
			<psa03 value="0.0844568917298" flag="0"/>
			<psa10 value="0.00976914309529" flag="0"/>
			<psa30 value="0.000515947720671" flag="0"/>
		</comp>
		<comp name="00.HGZ" depth="0.0">
			<acc value="0.0229386997702" flag="0"/>
			<vel value="0.00834306193586" flag="0"/>
			<psa03 value="0.0637168042589" flag="0"/>
			<psa10 value="0.00750535391161" flag="0"/>
			<psa30 value="0.000503782800221" flag="0"/>
		</comp>
	</station>
	<station code="BNT" name="BNT" netid="IT" source="Italian Strong Motion Network (RAN)" insttype="" lat="37.780802" lon="14.844718">
		<comp name="00.HNE" depth="0.0">
			<acc value="0.116843581249" flag="0"/>
			<vel value="0.0454089389328" flag="0"/>
			<psa03 value="0.248959554849" flag="0"/>
			<psa10 value="0.024346708475" flag="0"/>
			<psa30 value="0.00188834571864" flag="0"/>
		</comp>
		<comp name="00.HNN" depth="0.0">
			<acc value="0.0977807341144" flag="0"/>
			<vel value="0.0524847431236" flag="0"/>
			<psa03 value="0.220092163359" flag="0"/>
			<psa10 value="0.0264207139926" flag="0"/>
			<psa30 value="0.00287143730196" flag="0"/>
		</comp>
		<comp name="00.HNZ" depth="0.0">
			<acc value="0.0723628676936" flag="0"/>
			<vel value="0.0267140847504" flag="0"/>
			<psa03 value="0.125917174728" flag="0"/>
			<psa10 value="0.0229017171264" flag="0"/>
			<psa30 value="0.00114077150801" flag="0"/>
		</comp>
	</station>
	<station code="BVM" name="BVM" netid="IT" source="Italian Strong Motion Network (RAN)" insttype="" lat="37.931145" lon="15.936049">
		<comp name="00.HNE" depth="0.0">
			<acc value="0.035426335461" flag="0"/>
			<vel value="0.0225815198097" flag="0"/>
			<psa03 value="0.124200665185" flag="0"/>
			<psa10 value="0.0230620983758" flag="0"/>
			<psa30 value="0.00160885959989" flag="0"/>
		</comp>
		<comp name="00.HNN" depth="0.0">
			<acc value="0.0372136162914" flag="0"/>
			<vel value="0.01225573423" flag="0"/>
			<psa03 value="0.095525119737" flag="0"/>
			<psa10 value="0.00853752681925" flag="0"/>
			<psa30 value="0.000770554118344" flag="0"/>
		</comp>
		<comp name="00.HNZ" depth="0.0">
			<acc value="0.0251318560458" flag="0"/>
			<vel value="0.00761066096064" flag="0"/>
			<psa03 value="0.0539229627568" flag="0"/>
			<psa10 value="0.00777247801352" flag="0"/>
			<psa30 value="0.00038266756339" flag="0"/>
		</comp>
	</station>
	<station code="CDI1" name="CDI1" netid="IT" source="Italian Strong Motion Network (RAN)" insttype="" lat="37.503348" lon="14.64734">
		<comp name="00.HNE" depth="0.0">
			<acc value="0.160265564832" flag="0"/>
			<vel value="0.0514090457148" flag="0"/>
			<psa03 value="0.228884808328" flag="0"/>
			<psa10 value="0.0260409638361" flag="0"/>
			<psa30 value="0.00172827678152" flag="0"/>
		</comp>
		<comp name="00.HNN" depth="0.0">
			<acc value="0.153153731939" flag="0"/>
			<vel value="0.0680220835332" flag="0"/>
			<psa03 value="0.315608324169" flag="0"/>
			<psa10 value="0.0560007235232" flag="0"/>
			<psa30 value="0.0032825516196" flag="0"/>
		</comp>
		<comp name="00.HNZ" depth="0.0">
			<acc value="0.0945452826394" flag="0"/>
			<vel value="0.0336868576771" flag="0"/>
			<psa03 value="0.120588165457" flag="0"/>
			<psa10 value="0.0289166730877" flag="0"/>
			<psa30 value="0.00188049478188" flag="0"/>
		</comp>
	</station>
	<station code="FRR" name="FRR" netid="IT" source="Italian Strong Motion Network (RAN)" insttype="" lat="38.051564" lon="16.132511">
		<comp name="00.HGE" depth="0.0">
			<acc value="0.0694328887412" flag="0"/>
			<vel value="0.0311104474125" flag="0"/>
			<psa03 value="0.272892848645" flag="0"/>
			<psa10 value="0.0197608278079" flag="0"/>
			<psa30 value="0.00138256429643" flag="0"/>
		</comp>
		<comp name="00.HGN" depth="0.0">
			<acc value="0.0908274191972" flag="0"/>
			<vel value="0.0448593231394" flag="0"/>
			<psa03 value="0.421525674007" flag="0"/>
			<psa10 value="0.0224603316368" flag="0"/>
			<psa30 value="0.00149311578659" flag="0"/>
		</comp>
		<comp name="00.HGZ" depth="0.0">
			<acc value="0.0309102951132" flag="0"/>
			<vel value="0.0139499169431" flag="0"/>
			<psa03 value="0.0817998302954" flag="0"/>
			<psa10 value="0.0119172282079" flag="0"/>
			<psa30 value="0.000458851073714" flag="0"/>
		</comp>
	</station>
	<station code="GMB" name="GMB" netid="IT" source="Italian Strong Motion Network (RAN)" insttype="" lat="38.16663" lon="15.83635">
		<comp name="00.HGE" depth="0.0">
			<acc value="0.0432567839272" flag="0"/>
			<vel value="0.0146758879046" flag="0"/>
			<psa03 value="0.0636392678726" flag="0"/>
			<psa10 value="0.00628100842972" flag="0"/>
			<psa30 value="0.000787327521168" flag="0"/>
		</comp>
		<comp name="00.HGN" depth="0.0">
			<acc value="0.0504625590698" flag="0"/>
			<vel value="0.0181867935766" flag="0"/>
			<psa03 value="0.0665521014585" flag="0"/>
			<psa10 value="0.00667395852324" flag="0"/>
			<psa30 value="0.000624094259848" flag="0"/>
		</comp>
		<comp name="00.HGZ" depth="0.0">
			<acc value="0.0249291178043" flag="0"/>
			<vel value="0.00517232344135" flag="0"/>
			<psa03 value="0.0299215394468" flag="0"/>
			<psa10 value="0.00389825292762" flag="0"/>
			<psa30 value="0.000347299256871" flag="0"/>
		</comp>
	</station>
	<station code="ISI" name="ISI" netid="IT" source="Italian Strong Motion Network (RAN)" insttype="" lat="36.79776" lon="14.892357">
		<comp name="00.HGE" depth="0.0">
			<acc value="0.263954253694" flag="0"/>
			<vel value="0.0405737382688" flag="0"/>
			<psa03 value="0.239914143135" flag="0"/>
			<psa10 value="0.00938745406025" flag="0"/>
			<psa30 value="0.000956979020166" flag="0"/>
		</comp>
		<comp name="00.HGN" depth="0.0">
			<acc value="0.265302815361" flag="0"/>
			<vel value="0.0634487065719" flag="0"/>
			<psa03 value="0.269537688882" flag="0"/>
			<psa10 value="0.0168648897162" flag="0"/>
			<psa30 value="0.00187643555465" flag="0"/>
		</comp>
		<comp name="00.HGZ" depth="0.0">
			<acc value="0.233832482782" flag="0"/>
			<vel value="0.041357839292" flag="0"/>
			<psa03 value="0.137326993073" flag="0"/>
			<psa10 value="0.00757578217091" flag="0"/>
			<psa30 value="0.000601649856348" flag="0"/>
		</comp>
	</station>
	<station code="LNT" name="LNT" netid="IT" source="Italian Strong Motion Network (RAN)" insttype="" lat="37.28841" lon="15.002259">
		<comp name="00.HGE" depth="0.0">
			<acc value="0.226845106057" flag="0"/>
			<vel value="0.0724091262276" flag="0"/>
			<psa03 value="0.50122457867" flag="0"/>
			<psa10 value="0.0388617243985" flag="0"/>
			<psa30 value="0.00289744048288" flag="0"/>
		</comp>
		<comp name="00.HGN" depth="0.0">
			<acc value="0.239632580698" flag="0"/>
			<vel value="0.11026073585" flag="0"/>
			<psa03 value="0.486508770485" flag="0"/>
			<psa10 value="0.0378784955144" flag="0"/>
			<psa30 value="0.00372489217249" flag="0"/>
		</comp>
		<comp name="00.HGZ" depth="0.0">
			<acc value="0.651070686592" flag="0"/>
			<vel value="0.145478109787" flag="0"/>
			<psa03 value="0.503392680626" flag="0"/>
			<psa10 value="0.0280724415365" flag="0"/>
			<psa30 value="0.00339101401304" flag="0"/>
		</comp>
	</station>
	<station code="MFG" name="MFG" netid="IT" source="Italian Strong Motion Network (RAN)" insttype="" lat="38.188812" lon="15.540627">
		<comp name="00.HNE" depth="0.0">
			<acc value="0.0421790538592" flag="0"/>
			<vel value="0.0170021774027" flag="0"/>
			<psa03 value="0.0864458620307" flag="0"/>
			<psa10 value="0.00987090514902" flag="0"/>
			<psa30 value="0.000611238460296" flag="0"/>
		</comp>
		<comp name="00.HNN" depth="0.0">
			<acc value="0.0495877127271" flag="0"/>
			<vel value="0.0220582139298" flag="0"/>
			<psa03 value="0.0734486416536" flag="0"/>
			<psa10 value="0.0106145465991" flag="0"/>
			<psa30 value="0.000605294837395" flag="0"/>
		</comp>
		<comp name="00.HNZ" depth="0.0">
			<acc value="0.0362053227564" flag="0"/>
			<vel value="0.00894597617697" flag="0"/>
			<psa03 value="0.0558068948494" flag="0"/>
			<psa10 value="0.00392419949021" flag="0"/>
			<psa30 value="0.00028433896627" flag="0"/>
		</comp>
	</station>
	<station code="NTE" name="NTE" netid="IT" source="Italian Strong Motion Network (RAN)" insttype="" lat="36.90958" lon="15.06921">
		<comp name="00.HGE" depth="0.0">
			<acc value="0.184256168802" flag="0"/>
			<vel value="0.043442079265" flag="0"/>
			<psa03 value="0.17861635329" flag="0"/>
			<psa10 value="0.0154023593932" flag="0"/>
			<psa30 value="0.00140060111628" flag="0"/>
		</comp>
		<comp name="00.HGN" depth="0.0">
			<acc value="0.315468206371" flag="0"/>
			<vel value="0.0593151068995" flag="0"/>
			<psa03 value="0.241490351717" flag="0"/>
			<psa10 value="0.0185160153451" flag="0"/>
			<psa30 value="0.00238443066516" flag="0"/>
		</comp>
		<comp name="00.HGZ" depth="0.0">
			<acc value="0.177011964286" flag="0"/>
			<vel value="0.0311169798315" flag="0"/>
			<psa03 value="0.131357472621" flag="0"/>
			<psa10 value="0.0167127215108" flag="0"/>
			<psa30 value="0.000819390738947" flag="0"/>
		</comp>
	</station>
	<station code="NVR1" name="NVR1" netid="IT" source="Italian Strong Motion Network (RAN)" insttype="" lat="38.012424" lon="15.128887">
		<comp name="00.HNE" depth="0.0">
			<acc value="0.0762205209903" flag="0"/>
			<vel value="0.0236474902112" flag="0"/>
			<psa03 value="0.109994286582" flag="0"/>
			<psa10 value="0.0138012573906" flag="0"/>
			<psa30 value="0.000621554768705" flag="0"/>
		</comp>
		<comp name="00.HNN" depth="0.0">
			<acc value="0.0629543297628" flag="0"/>
			<vel value="0.0240004444219" flag="0"/>
			<psa03 value="0.11818756893" flag="0"/>
			<psa10 value="0.0092975643555" flag="0"/>
			<psa30 value="0.000790850514964" flag="0"/>
		</comp>
		<comp name="00.HNZ" depth="0.0">
			<acc value="0.0501356487478" flag="0"/>
			<vel value="0.0121456111775" flag="0"/>
			<psa03 value="0.0520407182754" flag="0"/>
			<psa10 value="0.00269713367187" flag="0"/>
