<?xml version="1.0" encoding="UTF-8" standalone="yes"?>
<!DOCTYPE earthquake SYSTEM "stationlist.dtd">
<stationlist created="" xmlns="ch.ethz.sed.shakemap.usgs.xml">
  <station code="ACATE" name="ACATE" netid="IV" insttype="" lat="37.024" lon="14.5006">
    <comp name="--.HNE">
      <acc value="0.1153260853" flag="0"/>
      <vel value="0.0405353962" flag="0"/>
      <psa03 value="0.2416109197" flag="0"/>
      <psa10 value="0.0318488636" flag="0"/>
      <psa30 value="0.0018539734" flag="0"/>
    </comp>
    <comp name="--.HNN">
      <acc value="0.1566903087" flag="0"/>
      <vel value="0.0338086157" flag="0"/>
      <psa03 value="0.1710391306" flag="0"/>
      <psa10 value="0.0175106601" flag="0"/>
      <psa30 value="0.0014363526" flag="0"/>
    </comp>
    <comp name="--.HNZ">
      <acc value="0.0992299565" flag="0"/>
      <vel value="0.0274219589" flag="0"/>
      <psa03 value="0.1396769646" flag="0"/>
      <psa10 value="0.0171304560" flag="0"/>
      <psa30 value="0.0010202443" flag="0"/>
    </comp>
  </station>
  <station code="AIO" name="AIO" netid="IV" insttype="" lat="37.9712" lon="15.233">
    <comp name="--.HHE">
      <acc value="0.0726690432" flag="0"/>
      <vel value="0.0275179634" flag="0"/>
      <psa03 value="0.1149294956" flag="0"/>
      <psa10 value="0.0070894490" flag="0"/>
      <psa30 value="0.0006415595" flag="0"/>
    </comp>
    <comp name="--.HHN">
      <acc value="0.0694324613" flag="0"/>
      <vel value="0.0221024068" flag="0"/>
      <psa03 value="0.1286283890" flag="0"/>
      <psa10 value="0.0079485723" flag="0"/>
      <psa30 value="0.0005107611" flag="0"/>
    </comp>
    <comp name="--.HHZ">
      <acc value="0.0362189506" flag="0"/>
      <vel value="0.0099941185" flag="0"/>
      <psa03 value="0.0526023791" flag="0"/>
      <psa10 value="0.0048800313" flag="0"/>
      <psa30 value="0.0003496398" flag="0"/>
    </comp>
  </station>
  <station code="CROCE" name="CROCE" netid="IV" insttype="" lat="36.8326" lon="14.5345">
    <comp name="--.HHE">
      <acc value="0.0815307567" flag="0"/>
      <vel value="0.0149035789" flag="0"/>
      <psa03 value="0.0498973440" flag="0"/>
      <psa10 value="0.0052940532" flag="0"/>
      <psa30 value="0.0003714954" flag="0"/>
    </comp>
    <comp name="--.HHN">
      <acc value="0.0893932894" flag="0"/>
      <vel value="0.0173035766" flag="0"/>
      <psa03 value="0.0491179901" flag="0"/>
      <psa10 value="0.0102443977" flag="0"/>
      <psa30 value="0.0005632850" flag="0"/>
    </comp>
    <comp name="--.HHZ">
      <acc value="0.0599117474" flag="0"/>
      <vel value="0.0164517181" flag="0"/>
      <psa03 value="0.0498893394" flag="0"/>
      <psa10 value="0.0045962657" flag="0"/>
      <psa30 value="0.0004330990" flag="0"/>
    </comp>
  </station>
  <station code="ECHR" name="ECHR" netid="IV" insttype="" lat="37.6863" lon="14.9129">
    <comp name="--.HHE">
      <acc value="0.1093898704" flag="0"/>
      <vel value="0.0449237588" flag="0"/>
      <psa03 value="0.3787704824" flag="0"/>
      <psa10 value="0.0237271967" flag="0"/>
      <psa30 value="0.0026942068" flag="0"/>
    </comp>
    <comp name="--.HHN">
      <acc value="0.1254905174" flag="0"/>
      <vel value="0.0436233390" flag="0"/>
      <psa03 value="0.2476781631" flag="0"/>
      <psa10 value="0.0239489169" flag="0"/>
      <psa30 value="0.0017503517" flag="0"/>
    </comp>
    <comp name="--.HHZ">
      <acc value="0.0847829154" flag="0"/>
      <vel value="0.0287192038" flag="0"/>
      <psa03 value="0.2964499471" flag="0"/>
      <psa10 value="0.0095889467" flag="0"/>
      <psa30 value="0.0010495201" flag="0"/>
    </comp>
  </station>
  <station code="ECNE" name="ECNE" netid="IV" insttype="" lat="37.7653" lon="15.0018">
    <comp name="--.HHE">
      <acc value="0.0887489669" flag="0"/>
      <vel value="0.0312482707" flag="0"/>
      <psa03 value="0.2571876500" flag="0"/>
      <psa10 value="0.0302592995" flag="0"/>
      <psa30 value="0.0012148525" flag="0"/>
    </comp>
    <comp name="--.HHN">
      <acc value="0.0911679063" flag="0"/>
      <vel value="0.0347941698" flag="0"/>
      <psa03 value="0.1892862056" flag="0"/>
      <psa10 value="0.0179046251" flag="0"/>
      <psa30 value="0.0010698978" flag="0"/>
    </comp>
    <comp name="--.HHZ">
      <acc value="0.0888519305" flag="0"/>
      <vel value="0.0272411271" flag="0"/>
      <psa03 value="0.1320001836" flag="0"/>
      <psa10 value="0.0114825934" flag="0"/>
      <psa30 value="0.0006022183" flag="0"/>
    </comp>
  </station>
  <station code="ECPN" name="ECPN" netid="IV" insttype="" lat="37.7437" lon="14.9865">
    <comp name="--.HHE">
      <acc value="0.1206310085" flag="0"/>
      <vel value="0.0474886382" flag="0"/>
      <psa03 value="0.3132856584" flag="0"/>
      <psa10 value="0.0262426720" flag="0"/>
      <psa30 value="0.0014239202" flag="0"/>
    </comp>
    <comp name="--.HHN">
      <acc value="0.1805816463" flag="0"/>
      <vel value="0.0503115493" flag="0"/>
      <psa03 value="0.3026454603" flag="0"/>
      <psa10 value="0.0256850470" flag="0"/>
      <psa30 value="0.0014106741" flag="0"/>
    </comp>
    <comp name="--.HHZ">
      <acc value="0.1446015773" flag="0"/>
      <vel value="0.0321249847" flag="0"/>
      <psa03 value="0.1429316025" flag="0"/>
      <psa10 value="0.0115605104" flag="0"/>
      <psa30 value="0.0006489069" flag="0"/>
    </comp>
  </station>
  <station code="ECTS" name="ECTS" netid="IV" insttype="" lat="37.882" lon="15.121">
    <comp name="--.HHE">
      <acc value="0.0513859113" flag="0"/>
      <vel value="0.0178845446" flag="0"/>
      <psa03 value="0.1411655622" flag="0"/>
      <psa10 value="0.0078745768" flag="0"/>
      <psa30 value="0.0005038163" flag="0"/>
    </comp>
    <comp name="--.HHN">
      <acc value="0.0635024654" flag="0"/>
      <vel value="0.0272650608" flag="0"/>
      <psa03 value="0.1687681001" flag="0"/>
      <psa10 value="0.0204582265" flag="0"/>
      <psa30 value="0.0011177884" flag="0"/>
    </comp>
    <comp name="--.HHZ">
      <acc value="0.0407378740" flag="0"/>
      <vel value="0.0109049937" flag="0"/>
      <psa03 value="0.0540453110" flag="0"/>
      <psa10 value="0.0043882094" flag="0"/>
      <psa30 value="0.0004970596" flag="0"/>
    </comp>
  </station>
  <station code="ECZM" name="ECZM" netid="IV" insttype="" lat="37.7313" lon="14.9041">
    <comp name="--.HHE">
      <acc value="0.1714136855" flag="0"/>
      <vel value="0.0622448191" flag="0"/>
      <psa03 value="0.4075095188" flag="0"/>
      <psa10 value="0.0217796855" flag="0"/>
      <psa30 value="0.0019152999" flag="0"/>
    </comp>
    <comp name="--.HHN">
      <acc value="0.2784234933" flag="0"/>
      <vel value="0.1336251745" flag="0"/>
      <psa03 value="1.2397540614" flag="0"/>
      <psa10 value="0.0356738628" flag="0"/>
      <psa30 value="0.0029798060" flag="0"/>
    </comp>
    <comp name="--.HHZ">
      <acc value="0.1513986585" flag="0"/>
      <vel value="0.0595052562" flag="0"/>
      <psa03 value="0.5292484145" flag="0"/>
      <psa10 value="0.0129981559" flag="0"/>
      <psa30 value="0.0011060321" flag="0"/>
    </comp>
  </station>
  <station code="EFIU" name="EFIU" netid="IV" insttype="" lat="37.7896" lon="15.2103">
    <comp name="--.HHE">
      <acc value="0.0252526296" flag="0"/>
      <vel value="0.0156817728" flag="0"/>
      <psa03 value="0.0449964812" flag="0"/>
      <psa10 value="0.0211747493" flag="0"/>
      <psa30 value="0.0016985589" flag="0"/>
    </comp>
    <comp name="--.HHN">
      <acc value="0.0404008861" flag="0"/>
      <vel value="0.0167297891" flag="0"/>
      <psa03 value="0.0635681411" flag="0"/>
      <psa10 value="0.0261924367" flag="0"/>
      <psa30 value="0.0016357928" flag="0"/>
    </comp>
    <comp name="--.HHZ">
      <acc value="0.0450377659" flag="0"/>
      <vel value="0.0204968990" flag="0"/>
      <psa03 value="0.0824238043" flag="0"/>
      <psa10 value="0.0212589716" flag="0"/>
      <psa30 value="0.0008870487" flag="0"/>
    </comp>
  </station>
  <station code="EMCN" name="EMCN" netid="IV" insttype="" lat="37.7912" lon="15.0336">
    <comp name="--.HHE">
      <acc value="0.1729420554" flag="0"/>
      <vel value="0.0452455759" flag="0"/>
      <psa03 value="0.2667454261" flag="0"/>
      <psa10 value="0.0161791364" flag="0"/>
      <psa30 value="0.0012643623" flag="0"/>
    </comp>
    <comp name="--.HHN">
      <acc value="0.1966182385" flag="0"/>
      <vel value="0.0554412667" flag="0"/>
      <psa03 value="0.1952938102" flag="0"/>
      <psa10 value="0.0148212237" flag="0"/>
      <psa30 value="0.0011467726" flag="0"/>
    </comp>
    <comp name="--.HHZ">
      <acc value="0.1184338689" flag="0"/>
      <vel value="0.0380399616" flag="0"/>
      <psa03 value="0.2276466254" flag="0"/>
      <psa10 value="0.0119593979" flag="0"/>
      <psa30 value="0.0007805662" flag="0"/>
    </comp>
  </station>
  <station code="EMFO" name="EMFO" netid="IV" insttype="" lat="37.7357" lon="15.0902">
    <comp name="--.HHE">
      <acc value="0.1469279813" flag="0"/>
      <vel value="0.0511167688" flag="0"/>
      <psa03 value="0.3447055913" flag="0"/>
      <psa10 value="0.0202524624" flag="0"/>
      <psa30 value="0.0016013903" flag="0"/>
    </comp>
    <comp name="--.HHN">
      <acc value="0.1157400536" flag="0"/>
      <vel value="0.0487839498" flag="0"/>
      <psa03 value="0.4280775524" flag="0"/>
      <psa10 value="0.0181545661" flag="0"/>
      <psa30 value="0.0017882692" flag="0"/>
    </comp>
    <comp name="--.HHZ">
      <acc value="0.1002770018" flag="0"/>
      <vel value="0.0331572550" flag="0"/>
      <psa03 value="0.1573073125" flag="0"/>
      <psa10 value="0.0100926302" flag="0"/>
      <psa30 value="0.0010322465" flag="0"/>
    </comp>
  </station>
  <station code="EMFS" name="EMFS" netid="IV" insttype="" lat="37.7196" lon="14.9979">
    <comp name="--.HHE">
      <acc value="0.2421380420" flag="0"/>
      <vel value="0.0708894331" flag="0"/>
      <psa03 value="0.3061029202" flag="0"/>
      <psa10 value="0.0209954060" flag="0"/>
      <psa30 value="0.0013827046" flag="0"/>
    </comp>
    <comp name="--.HHN">
      <acc value="0.2176295273" flag="0"/>
      <vel value="0.0565530855" flag="0"/>
      <psa03 value="0.4002219095" flag="0"/>
      <psa10 value="0.0265968792" flag="0"/>
      <psa30 value="0.0013727407" flag="0"/>
    </comp>
    <comp name="--.HHZ">
      <acc value="0.2232123300" flag="0"/>
      <vel value="0.0397450049" flag="0"/>
      <psa03 value="0.1447478919" flag="0"/>
      <psa10 value="0.0121082779" flag="0"/>
      <psa30 value="0.0008150663" flag="0"/>
    </comp>
  </station>
  <station code="EMNR" name="EMNR" netid="IV" insttype="" lat="37.8168" lon="15.026">
    <comp name="--.HHE">
      <acc value="0.2204868955" flag="0"/>
      <vel value="0.0812657881" flag="0"/>
      <psa03 value="0.3943446470" flag="0"/>
      <psa10 value="0.0252548522" flag="0"/>
      <psa30 value="0.0019734300" flag="0"/>
    </comp>
    <comp name="--.HHN">
      <acc value="0.2130890584" flag="0"/>
      <vel value="0.0648944915" flag="0"/>
      <psa03 value="0.3510163172" flag="0"/>
      <psa10 value="0.0258241071" flag="0"/>
      <psa30 value="0.0017896896" flag="0"/>
    </comp>
    <comp name="--.HHZ">
      <acc value="0.1404772963" flag="0"/>
      <vel value="0.0435591261" flag="0"/>
      <psa03 value="0.3243890197" flag="0"/>
      <psa10 value="0.0139418244" flag="0"/>
      <psa30 value="0.0007580260" flag="0"/>
    </comp>
  </station>
  <station code="EMPL" name="EMPL" netid="IV" insttype="" lat="37.679" lon="14.9703">
    <comp name="--.HHE">
      <acc value="0.2678104140" flag="0"/>
      <vel value="0.0832626424" flag="0"/>
      <psa03 value="0.3787174344" flag="0"/>
      <psa10 value="0.0277154113" flag="0"/>
      <psa30 value="0.0019007419" flag="0"/>
    </comp>
    <comp name="--.HHN">
      <acc value="0.3541225974" flag="0"/>
      <vel value="0.1113955862" flag="0"/>
      <psa03 value="0.6490286702" flag="0"/>
      <psa10 value="0.0272356891" flag="0"/>
      <psa30 value="0.0024724015" flag="0"/>
    </comp>
    <comp name="--.HHZ">
      <acc value="0.2884385712" flag="0"/>
      <vel value="0.0805046624" flag="0"/>
      <psa03 value="0.3170900192" flag="0"/>
      <psa10 value="0.0170349854" flag="0"/>
      <psa30 value="0.0014471422" flag="0"/>
    </comp>
  </station>
  <station code="EPDN" name="EPDN" netid="IV" insttype="" lat="37.7659" lon="15.0168">
    <comp name="--.HHE">
      <acc value="0.0891458372" flag="0"/>
      <vel value="0.0356012114" flag="0"/>
      <psa03 value="0.2435854563" flag="0"/>
      <psa10 value="0.0358563708" flag="0"/>
      <psa30 value="0.0020435552" flag="0"/>
    </comp>
    <comp name="--.HHN">
      <acc value="0.0636642489" flag="0"/>
      <vel value="0.0373222082" flag="0"/>
      <psa03 value="0.1568720291" flag="0"/>
      <psa10 value="0.0317574280" flag="0"/>
      <psa30 value="0.0019936579" flag="0"/>
    </comp>
    <comp name="--.HHZ">
      <acc value="0.0810352756" flag="0"/>
      <vel value="0.0240974312" flag="0"/>
      <psa03 value="0.1947130752" flag="0"/>
      <psa10 value="0.0107632998" flag="0"/>
      <psa30 value="0.0007882406" flag="0"/>
    </comp>
  </station>
  <station code="EPIT" name="EPIT" netid="IV" insttype="" lat="37.8113" lon="15.0567">
    <comp name="--.HHE">
      <acc value="0.1480611888" flag="0"/>
      <vel value="0.0422965219" flag="0"/>
      <psa03 value="0.2947453545" flag="0"/>
      <psa10 value="0.0199230806" flag="0"/>
      <psa30 value="0.0017274252" flag="0"/>
    </comp>
    <comp name="--.HHN">
      <acc value="0.1575835914" flag="0"/>
      <vel value="0.0575805331" flag="0"/>
      <psa03 value="0.4404635900" flag="0"/>
      <psa10 value="0.0516357775" flag="0"/>
      <psa30 value="0.0024401278" flag="0"/>
    </comp>
    <comp name="--.HHZ">
      <acc value="0.1323743834" flag="0"/>
      <vel value="0.0290958283" flag="0"/>
      <psa03 value="0.2077588968" flag="0"/>
      <psa10 value="0.0123338469" flag="0"/>
      <psa30 value="0.0011317515" flag="0"/>
    </comp>
  </station>
  <station code="EPOZ" name="EPOZ" netid="IV" insttype="" lat="37.6719" lon="15.1885">
    <comp name="--.HHE">
      <acc value="0.1776887223" flag="0"/>
      <vel value="0.0418392252" flag="0"/>
      <psa03 value="0.2079570680" flag="0"/>
      <psa10 value="0.0160489349" flag="0"/>
      <psa30 value="0.0018906992" flag="0"/>
    </comp>
    <comp name="--.HHN">
      <acc value="0.1749103030" flag="0"/>
      <vel value="0.0391296370" flag="0"/>
      <psa03 value="0.1815641712" flag="0"/>
      <psa10 value="0.0245797318" flag="0"/>
      <psa30 value="0.0025699785" flag="0"/>
    </comp>
    <comp name="--.HHZ">
      <acc value="0.1638531232" flag="0"/>
      <vel value="0.0270658588" flag="0"/>
      <psa03 value="0.1342915829" flag="0"/>
      <psa10 value="0.0115477517" flag="0"/>
      <psa30 value="0.0008599262" flag="0"/>
    </comp>
  </station>
  <station code="EPZF" name="EPZF" netid="IV" insttype="" lat="37.824" lon="14.857">
    <comp name="--.HHN">
      <acc value="0.1460657564" flag="0"/>
      <vel value="0.0555830029" flag="0"/>
      <psa03 value="0.4471132260" flag="0"/>
      <psa10 value="0.0258303965" flag="0"/>
      <psa30 value="0.0020640164" flag="0"/>
    </comp>
    <comp name="--.HHE">
      <acc value="0.1097805599" flag="0"/>
      <vel value="0.0490323454" flag="0"/>
      <psa03 value="0.2614780872" flag="0"/>
      <psa10 value="0.0240500989" flag="0"/>
      <psa30 value="0.0017998319" flag="0"/>
    </comp>
    <comp name="--.HHZ">
      <acc value="0.0574066576" flag="0"/>
      <vel value="0.0193218772" flag="0"/>
      <psa03 value="0.0820373675" flag="0"/>
      <psa10 value="0.0101888824" flag="0"/>
      <psa30 value="0.0007669624" flag="0"/>
    </comp>
  </station>
  <station code="ESAL" name="ESAL" netid="IV" insttype="" lat="37.7551" lon="15.1345">
    <comp name="--.HHE">
      <acc value="0.1273358485" flag="0"/>
      <vel value="0.0427847932" flag="0"/>
      <psa03 value="0.2830367189" flag="0"/>
      <psa10 value="0.0254982535" flag="0"/>
      <psa30 value="0.0019219725" flag="0"/>
    </comp>
    <comp name="--.HHZ">
      <acc value="0.0633918432" flag="0"/>
      <vel value="0.0270256916" flag="0"/>
      <psa03 value="0.1608733706" flag="0"/>
      <psa10 value="0.0095960268" flag="0"/>
      <psa30 value="0.0009447144" flag="0"/>
    </comp>
    <comp name="--.HHN">
      <acc value="0.1256282000" flag="0"/>
      <vel value="0.0436367940" flag="0"/>
      <psa03 value="0.3354877154" flag="0"/>
      <psa10 value="0.0273715703" flag="0"/>
      <psa30 value="0.0017400297" flag="0"/>
    </comp>
  </station>
  <station code="ESCV" name="ESCV" netid="IV" insttype="" lat="37.747" lon="14.8152">
    <comp name="--.HHE">
      <acc value="0.1553680118" flag="0"/>
      <vel value="0.0486792292" flag="0"/>
      <psa03 value="0.2720419460" flag="0"/>
      <psa10 value="0.0281686588" flag="0"/>
      <psa30 value="0.0016824455" flag="0"/>
    </comp>
    <comp name="--.HHN">
      <acc value="0.2148934650" flag="0"/>
      <vel value="0.0857661375" flag="0"/>
      <psa03 value="0.8128997959" flag="0"/>
      <psa10 value="0.0423226436" flag="0"/>
      <psa30 value="0.0046853065" flag="0"/>
    </comp>
    <comp name="--.HHZ">
      <acc value="0.0745729263" flag="0"/>
      <vel value="0.0249799045" flag="0"/>
      <psa03 value="0.1743333138" flag="0"/>
      <psa10 value="0.0141932027" flag="0"/>
      <psa30 value="0.0009076163" flag="0"/>
    </comp>
  </station>
  <station code="ESLN" name="ESLN" netid="IV" insttype="" lat="37.6934" lon="14.9744">
    <comp name="--.HHN">
      <acc value="0.0674634326" flag="0"/>
      <vel value="0.0216521702" flag="0"/>
      <psa03 value="0.1431971614" flag="0"/>
      <psa10 value="0.0171404139" flag="0"/>
      <psa30 value="0.0012329559" flag="0"/>
    </comp>
    <comp name="--.HHE">
      <acc value="0.0889344105" flag="0"/>
      <vel value="0.0216616651" flag="0"/>
      <psa03 value="0.1350293520" flag="0"/>
      <psa10 value="0.0285988717" flag="0"/>
      <psa30 value="0.0012527616" flag="0"/>
    </comp>
    <comp name="--.HHZ">
      <acc value="0.0936613827" flag="0"/>
      <vel value="0.0300936933" flag="0"/>
      <psa03 value="0.1230685443" flag="0"/>
      <psa10 value="0.0118984221" flag="0"/>
      <psa30 value="0.0006391681" flag="0"/>
    </comp>
  </station>
  <station code="ESML" name="ESML" netid="IV" insttype="" lat="37.6181" lon="14.8794">
    <comp name="--.HHN">
      <acc value="0.1565771544" flag="0"/>
      <vel value="0.0546033081" flag="0"/>
      <psa03 value="0.1453352820" flag="0"/>
      <psa10 value="0.0254039877" flag="0"/>
      <psa30 value="0.0018136983" flag="0"/>
    </comp>
    <comp name="--.HHE">
      <acc value="0.1857539823" flag="0"/>
      <vel value="0.0457247519" flag="0"/>
      <psa03 value="0.1718698295" flag="0"/>
      <psa10 value="0.0248158761" flag="0"/>
      <psa30 value="0.0013077445" flag="0"/>
    </comp>
    <comp name="--.HHZ">
      <acc value="0.1793265481" flag="0"/>
      <vel value="0.0355637511" flag="0"/>
      <psa03 value="0.1567072616" flag="0"/>
      <psa10 value="0.0102372006" flag="0"/>
      <psa30 value="0.0009313284" flag="0"/>
    </comp>
  </station>
  <station code="ESPC" name="ESPC" netid="IV" insttype="" lat="37.6925" lon="15.0274">
    <comp name="--.HHE">
      <acc value="0.3061365689" flag="0"/>
      <vel value="0.0650944481" flag="0"/>
      <psa03 value="0.2888041110" flag="0"/>
      <psa10 value="0.0258691724" flag="0"/>
      <psa30 value="0.0014835300" flag="0"/>
    </comp>
    <comp name="--.HHZ">
      <acc value="0.2503415891" flag="0"/>
      <vel value="0.0603477094" flag="0"/>
      <psa03 value="0.4502689656" flag="0"/>
      <psa10 value="0.0167420186" flag="0"/>
      <psa30 value="0.0010018308" flag="0"/>
    </comp>
