<?xml version="1.0" encoding="UTF-8" standalone="yes"?>
<!DOCTYPE earthquake SYSTEM "stationlist.dtd">
<stationlist created="" xmlns="ch.ethz.sed.shakemap.usgs.xml">
  <station code="CARD" name="CARD" netid="GU" insttype="" lat="44.0261" lon="10.4821">
    <comp name="--.HHE">
      <acc value="0.0102762922" flag="0"/>
      <vel value="0.0020663508" flag="0"/>
      <psa03 value="0.0052016798" flag="0"/>
      <psa10 value="0.0015950012" flag="0"/>
      <psa30 value="0.0001956816" flag="0"/>
    </comp>
    <comp name="--.HHZ">
      <acc value="0.0049021446" flag="0"/>
      <vel value="0.0016772376" flag="0"/>
      <psa03 value="0.0032367937" flag="0"/>
      <psa10 value="0.0016885294" flag="0"/>
      <psa30 value="0.0003454575" flag="0"/>
    </comp>
    <comp name="--.HHN">
      <acc value="0.0062587374" flag="0"/>
      <vel value="0.0026028666" flag="0"/>
      <psa03 value="0.0059189038" flag="0"/>
      <psa10 value="0.0023196592" flag="0"/>
      <psa30 value="0.0001697660" flag="0"/>
    </comp>
  </station>
  <station code="GRAM" name="GRAM" netid="GU" insttype="" lat="44.4904" lon="10.065">
    <comp name="--.HHE">
      <acc value="0.0099109779" flag="0"/>
      <vel value="0.0035053905" flag="0"/>
      <psa03 value="0.0228888854" flag="0"/>
      <psa10 value="0.0025150358" flag="0"/>
      <psa30 value="0.0001750982" flag="0"/>
    </comp>
    <comp name="--.HHZ">
      <acc value="0.0157180440" flag="0"/>
      <vel value="0.0015928375" flag="0"/>
      <psa03 value="0.0073612555" flag="0"/>
      <psa10 value="0.0030193822" flag="0"/>
      <psa30 value="0.0001493415" flag="0"/>
    </comp>
    <comp name="--.HHN">
      <acc value="0.0084498701" flag="0"/>
      <vel value="0.0025816771" flag="0"/>
      <psa03 value="0.0202274924" flag="0"/>
      <psa10 value="0.0023840285" flag="0"/>
      <psa30 value="0.0002267360" flag="0"/>
    </comp>
  </station>
  <station code="GSCL" name="GSCL" netid="GU" insttype="" lat="44.3506" lon="10.588">
    <comp name="--.HHN">
      <acc value="0.0319973714" flag="0"/>
      <vel value="0.0224753374" flag="0"/>
      <psa03 value="0.0535363874" flag="0"/>
      <psa10 value="0.0239417175" flag="0"/>
      <psa30 value="0.0018970525" flag="0"/>
    </comp>
    <comp name="--.HHE">
      <acc value="0.0380165973" flag="0"/>
      <vel value="0.0147792913" flag="0"/>
      <psa03 value="0.0875763664" flag="0"/>
      <psa10 value="0.0123458093" flag="0"/>
      <psa30 value="0.0005136847" flag="0"/>
    </comp>
    <comp name="--.HHZ">
      <acc value="0.0209395567" flag="0"/>
      <vel value="0.0084662081" flag="0"/>
      <psa03 value="0.0237451965" flag="0"/>
      <psa10 value="0.0079778497" flag="0"/>
      <psa30 value="0.0004943549" flag="0"/>
    </comp>
  </station>
  <station code="POPM" name="POPM" netid="GU" insttype="" lat="44.045" lon="10.757">
    <comp name="--.HHE">
      <acc value="0.0119263922" flag="0"/>
      <vel value="0.0039919276" flag="0"/>
      <psa03 value="0.0197422655" flag="0"/>
      <psa10 value="0.0038530031" flag="0"/>
      <psa30 value="0.0002190225" flag="0"/>
    </comp>
    <comp name="--.HHZ">
      <acc value="0.0066766032" flag="0"/>
      <vel value="0.0030355775" flag="0"/>
      <psa03 value="0.0080710382" flag="0"/>
      <psa10 value="0.0031020157" flag="0"/>
      <psa30 value="0.0005762217" flag="0"/>
    </comp>
    <comp name="--.HHN">
      <acc value="0.0179186284" flag="0"/>
      <vel value="0.0055990997" flag="0"/>
      <psa03 value="0.0135615986" flag="0"/>
      <psa10 value="0.0049991073" flag="0"/>
      <psa30 value="0.0005571186" flag="0"/>
    </comp>
  </station>
  <station code="BDI" name="BDI" netid="IV" insttype="" lat="44.0624" lon="10.597">
    <comp name="--.HHE">
      <acc value="0.0153364454" flag="0"/>
      <vel value="0.0041210511" flag="0"/>
      <psa03 value="0.0166702845" flag="0"/>
      <psa10 value="0.0040230311" flag="0"/>
      <psa30 value="0.0002478166" flag="0"/>
    </comp>
    <comp name="--.HHN">
      <acc value="0.0108339314" flag="0"/>
      <vel value="0.0048688146" flag="0"/>
      <psa03 value="0.0214636435" flag="0"/>
      <psa10 value="0.0056907220" flag="0"/>
      <psa30 value="0.0002508355" flag="0"/>
    </comp>
    <comp name="--.HHZ">
      <acc value="0.0056841525" flag="0"/>
      <vel value="0.0020811478" flag="0"/>
      <psa03 value="0.0058075250" flag="0"/>
      <psa10 value="0.0019706588" flag="0"/>
      <psa30 value="0.0004211789" flag="0"/>
    </comp>
  </station>
  <station code="BOSL" name="BOSL" netid="IV" insttype="" lat="43.931" lon="11.3743">
    <comp name="--.HHE">
      <acc value="0.0007758490" flag="0"/>
      <vel value="0.0005149866" flag="0"/>
      <psa03 value="0.0040846070" flag="0"/>
      <psa10 value="0.0004879000" flag="0"/>
      <psa30 value="0.0000672592" flag="0"/>
    </comp>
    <comp name="--.HHN">
      <acc value="0.0010878132" flag="0"/>
      <vel value="0.0005108244" flag="0"/>
      <psa03 value="0.0022606849" flag="0"/>
      <psa10 value="0.0005463659" flag="0"/>
      <psa30 value="0.0000588712" flag="0"/>
    </comp>
    <comp name="--.HHZ">
      <acc value="0.0005546085" flag="0"/>
      <vel value="0.0003134427" flag="0"/>
      <psa03 value="0.0012263743" flag="0"/>
      <psa10 value="0.0003987329" flag="0"/>
      <psa30 value="0.0000676702" flag="0"/>
    </comp>
  </station>
  <station code="CAVE" name="CAVE" netid="IV" insttype="" lat="44.8658" lon="11.0031">
    <comp name="--.HHE">
      <acc value="0.0269502204" flag="0"/>
      <vel value="0.0152037101" flag="0"/>
      <psa03 value="0.0571141031" flag="0"/>
      <psa10 value="0.0152950446" flag="0"/>
      <psa30 value="0.0009197737" flag="0"/>
    </comp>
    <comp name="--.HHN">
      <acc value="0.0317828979" flag="0"/>
      <vel value="0.0109731715" flag="0"/>
      <psa03 value="0.0741645498" flag="0"/>
      <psa10 value="0.0148775984" flag="0"/>
      <psa30 value="0.0006807935" flag="0"/>
    </comp>
    <comp name="--.HHZ">
      <acc value="0.0097374443" flag="0"/>
      <vel value="0.0038878980" flag="0"/>
      <psa03 value="0.0218599523" flag="0"/>
      <psa10 value="0.0053703219" flag="0"/>
      <psa30 value="0.0002917310" flag="0"/>
    </comp>
  </station>
  <station code="FNVD" name="FNVD" netid="IV" insttype="" lat="44.1678" lon="11.1229">
    <comp name="--.HHE">
      <acc value="0.0061953599" flag="0"/>
      <vel value="0.0034999998" flag="0"/>
      <psa03 value="0.0121066400" flag="0"/>
      <psa10 value="0.0022496263" flag="0"/>
      <psa30 value="0.0002085716" flag="0"/>
    </comp>
    <comp name="--.HHZ">
      <acc value="0.0050610713" flag="0"/>
      <vel value="0.0011197986" flag="0"/>
      <psa03 value="0.0089314724" flag="0"/>
      <psa10 value="0.0010008276" flag="0"/>
      <psa30 value="0.0001189630" flag="0"/>
    </comp>
    <comp name="--.HHN">
      <acc value="0.0115837824" flag="0"/>
      <vel value="0.0047070299" flag="0"/>
      <psa03 value="0.0412997329" flag="0"/>
      <psa10 value="0.0025274334" flag="0"/>
      <psa30 value="0.0002053075" flag="0"/>
    </comp>
  </station>
  <station code="MODE" name="MODE" netid="IV" insttype="" lat="44.6297" lon="10.9492">
    <comp name="--.HNE">
      <acc value="0.0359702159" flag="0"/>
      <vel value="0.0187636693" flag="0"/>
      <psa03 value="0.0905457195" flag="0"/>
      <psa10 value="0.0235723236" flag="0"/>
      <psa30 value="0.0019967487" flag="0"/>
    </comp>
    <comp name="--.HNN">
      <acc value="0.0312544006" flag="0"/>
      <vel value="0.0257909748" flag="0"/>
      <psa03 value="0.0619288040" flag="0"/>
      <psa10 value="0.0242670162" flag="0"/>
      <psa30 value="0.0018339103" flag="0"/>
    </comp>
    <comp name="--.HNZ">
      <acc value="0.0252036302" flag="0"/>
      <vel value="0.0089289891" flag="0"/>
      <psa03 value="0.1033277293" flag="0"/>
      <psa10 value="0.0062745294" flag="0"/>
      <psa30 value="0.0007909012" flag="0"/>
    </comp>
  </station>
  <station code="MSSA" name="MSSA" netid="IV" insttype="" lat="44.3162" lon="9.51739">
    <comp name="--.HHE">
      <acc value="0.0136035907" flag="0"/>
      <vel value="0.0025377250" flag="0"/>
      <psa03 value="0.0042956391" flag="0"/>
      <psa10 value="0.0008578676" flag="0"/>
      <psa30 value="0.0001028310" flag="0"/>
    </comp>
    <comp name="--.HHN">
      <acc value="0.0117967748" flag="0"/>
      <vel value="0.0019994086" flag="0"/>
      <psa03 value="0.0030073768" flag="0"/>
      <psa10 value="0.0011806268" flag="0"/>
      <psa30 value="0.0000871906" flag="0"/>
    </comp>
    <comp name="--.HHZ">
      <acc value="0.0029953482" flag="0"/>
      <vel value="0.0005192606" flag="0"/>
      <psa03 value="0.0012925511" flag="0"/>
      <psa10 value="0.0008241265" flag="0"/>
      <psa30 value="0.0000425456" flag="0"/>
    </comp>
  </station>
  <station code="NDIM" name="NDIM" netid="IV" insttype="" lat="44.8873" lon="10.8987">
    <comp name="--.HNE">
      <acc value="0.0299308825" flag="0"/>
      <vel value="0.0147253577" flag="0"/>
      <psa03 value="0.0293431494" flag="0"/>
      <psa10 value="0.0150508738" flag="0"/>
      <psa30 value="0.0011205445" flag="0"/>
    </comp>
    <comp name="--.HNN">
      <acc value="0.0298957481" flag="0"/>
      <vel value="0.0101727470" flag="0"/>
      <psa03 value="0.0400725140" flag="0"/>
      <psa10 value="0.0094153991" flag="0"/>
      <psa30 value="0.0010283831" flag="0"/>
    </comp>
    <comp name="--.HNZ">
      <acc value="0.0115647101" flag="0"/>
      <vel value="0.0034830897" flag="0"/>
      <psa03 value="0.0126949597" flag="0"/>
      <psa10 value="0.0034704659" flag="0"/>
      <psa30 value="0.0002685864" flag="0"/>
    </comp>
  </station>
  <station code="NEVI" name="NEVI" netid="IV" insttype="" lat="44.5834" lon="10.3163">
    <comp name="--.HNE">
      <acc value="0.0381509924" flag="0"/>
      <vel value="0.0118512359" flag="0"/>
      <psa03 value="0.0746706271" flag="0"/>
      <psa10 value="0.0084437005" flag="0"/>
      <psa30 value="0.0010197157" flag="0"/>
    </comp>
    <comp name="--.HNN">
      <acc value="0.0634317201" flag="0"/>
      <vel value="0.0175864920" flag="0"/>
      <psa03 value="0.1195440826" flag="0"/>
      <psa10 value="0.0155736624" flag="0"/>
      <psa30 value="0.0019349468" flag="0"/>
    </comp>
    <comp name="--.HNZ">
      <acc value="0.0260471154" flag="0"/>
      <vel value="0.0053536814" flag="0"/>
      <psa03 value="0.0292136317" flag="0"/>
      <psa10 value="0.0057480472" flag="0"/>
      <psa30 value="0.0006616420" flag="0"/>
    </comp>
  </station>
  <station code="OPPE" name="OPPE" netid="IV" insttype="" lat="45.3082" lon="11.1724">
    <comp name="--.HHE">
      <acc value="0.0473543078" flag="0"/>
      <vel value="0.0229899674" flag="0"/>
      <psa03 value="0.0991738191" flag="0"/>
      <psa10 value="0.0092887230" flag="0"/>
      <psa30 value="0.0006883960" flag="0"/>
    </comp>
    <comp name="--.HHN">
      <acc value="0.0319721108" flag="0"/>
      <vel value="0.0158514576" flag="0"/>
      <psa03 value="0.0446850401" flag="0"/>
      <psa10 value="0.0090824389" flag="0"/>
      <psa30 value="0.0010049862" flag="0"/>
    </comp>
    <comp name="--.HHZ">
      <acc value="0.0150439732" flag="0"/>
      <vel value="0.0054688091" flag="0"/>
      <psa03 value="0.0311700193" flag="0"/>
      <psa10 value="0.0036862319" flag="0"/>
      <psa30 value="0.0002898103" flag="0"/>
    </comp>
  </station>
  <station code="PII" name="PII" netid="IV" insttype="" lat="43.7219" lon="10.525">
    <comp name="--.HHE">
      <acc value="0.0060758905" flag="0"/>
      <vel value="0.0035321803" flag="0"/>
      <psa03 value="0.0185212611" flag="0"/>
      <psa10 value="0.0041286916" flag="0"/>
      <psa30 value="0.0002051398" flag="0"/>
    </comp>
    <comp name="--.HHN">
      <acc value="0.0051238387" flag="0"/>
      <vel value="0.0026552651" flag="0"/>
      <psa03 value="0.0144326283" flag="0"/>
      <psa10 value="0.0023255290" flag="0"/>
      <psa30 value="0.0001423097" flag="0"/>
    </comp>
    <comp name="--.HHZ">
      <acc value="0.0060466073" flag="0"/>
      <vel value="0.0024394433" flag="0"/>
      <psa03 value="0.0086147859" flag="0"/>
      <psa10 value="0.0023523760" flag="0"/>
      <psa30 value="0.0001931092" flag="0"/>
    </comp>
  </station>
  <station code="SBPO" name="SBPO" netid="IV" insttype="" lat="45.0511" lon="10.9199">
    <comp name="--.HNE">
      <acc value="0.0633698577" flag="0"/>
      <vel value="0.0171085681" flag="0"/>
      <psa03 value="0.1015602804" flag="0"/>
      <psa10 value="0.0081700318" flag="0"/>
      <psa30 value="0.0009422379" flag="0"/>
    </comp>
    <comp name="--.HNZ">
      <acc value="0.0142138234" flag="0"/>
      <vel value="0.0048416737" flag="0"/>
      <psa03 value="0.0200365441" flag="0"/>
      <psa10 value="0.0017877777" flag="0"/>
      <psa30 value="0.0003510442" flag="0"/>
    </comp>
    <comp name="--.HNN">
      <acc value="0.0493904416" flag="0"/>
      <vel value="0.0185869193" flag="0"/>
      <psa03 value="0.1250513343" flag="0"/>
      <psa10 value="0.0072143772" flag="0"/>
      <psa30 value="0.0010060283" flag="0"/>
    </comp>
  </station>
  <station code="SEI" name="SEI" netid="IV" insttype="" lat="44.0543" lon="11.3585">
    <comp name="--.HHN">
      <acc value="0.0067271967" flag="0"/>
      <vel value="0.0047892288" flag="0"/>
      <psa03 value="0.0269745880" flag="0"/>
      <psa10 value="0.0034402652" flag="0"/>
      <psa30 value="0.0002592690" flag="0"/>
    </comp>
    <comp name="--.HHE">
      <acc value="0.0084109599" flag="0"/>
      <vel value="0.0045826465" flag="0"/>
      <psa03 value="0.0237494113" flag="0"/>
      <psa10 value="0.0022792569" flag="0"/>
      <psa30 value="0.0002363714" flag="0"/>
    </comp>
    <comp name="--.HHZ">
      <acc value="0.0051475017" flag="0"/>
      <vel value="0.0031328713" flag="0"/>
      <psa03 value="0.0192915009" flag="0"/>
      <psa10 value="0.0013182753" flag="0"/>
      <psa30 value="0.0001387109" flag="0"/>
    </comp>
  </station>
  <station code="SERM" name="SERM" netid="IV" insttype="" lat="45.01" lon="11.2958">
    <comp name="--.HNE">
      <acc value="0.0109274556" flag="0"/>
      <vel value="0.0035243274" flag="0"/>
      <psa03 value="0.0170855494" flag="0"/>
      <psa10 value="0.0017433937" flag="0"/>
      <psa30 value="0.0001912588" flag="0"/>
    </comp>
    <comp name="--.HNN">
      <acc value="0.0126302636" flag="0"/>
      <vel value="0.0054182293" flag="0"/>
      <psa03 value="0.0246414890" flag="0"/>
      <psa10 value="0.0026604534" flag="0"/>
      <psa30 value="0.0002061925" flag="0"/>
    </comp>
    <comp name="--.HNZ">
      <acc value="0.0043327529" flag="0"/>
      <vel value="0.0011856604" flag="0"/>
      <psa03 value="0.0065039366" flag="0"/>
      <psa10 value="0.0005643945" flag="0"/>
      <psa30 value="0.0000787873" flag="0"/>
    </comp>
  </station>
  <station code="VMAN" name="VMAN" netid="IV" insttype="" lat="45.3135" lon="10.6628">
    <comp name="--.HHE">
      <acc value="0.0123672879" flag="0"/>
      <vel value="0.0052920004" flag="0"/>
      <psa03 value="0.0279457449" flag="0"/>
      <psa10 value="0.0022502272" flag="0"/>
      <psa30 value="0.0001508192" flag="0"/>
    </comp>
    <comp name="--.HHN">
      <acc value="0.0151934121" flag="0"/>
      <vel value="0.0134377080" flag="0"/>
      <psa03 value="0.0457066632" flag="0"/>
      <psa10 value="0.0100016735" flag="0"/>
      <psa30 value="0.0005072733" flag="0"/>
    </comp>
    <comp name="--.HHZ">
      <acc value="0.0078688977" flag="0"/>
      <vel value="0.0041360811" flag="0"/>
      <psa03 value="0.0239256632" flag="0"/>
      <psa10 value="0.0025283086" flag="0"/>
      <psa30 value="0.0002081605" flag="0"/>
    </comp>
  </station>
  <station code="ZCCA" name="ZCCA" netid="IV" insttype="" lat="44.3509" lon="10.9765">
    <comp name="--.HHE">
      <acc value="0.0085310846" flag="0"/>
      <vel value="0.0045077794" flag="0"/>
      <psa03 value="0.0261229012" flag="0"/>
      <psa10 value="0.0043369433" flag="0"/>
      <psa30 value="0.0004950962" flag="0"/>
    </comp>
    <comp name="--.HHN">
      <acc value="0.0081782828" flag="0"/>
      <vel value="0.0050761361" flag="0"/>
      <psa03 value="0.0311445230" flag="0"/>
      <psa10 value="0.0044146890" flag="0"/>
      <psa30 value="0.0004789733" flag="0"/>
    </comp>
    <comp name="--.HHZ">
      <acc value="0.0068496901" flag="0"/>
      <vel value="0.0044186436" flag="0"/>
      <psa03 value="0.0157196717" flag="0"/>
      <psa10 value="0.0042301305" flag="0"/>
      <psa30 value="0.0006679942" flag="0"/>
    </comp>
  </station>
  <station code="VRG01" name="VRG01" netid="VR" insttype="" lat="43.6314" lon="10.5045">
    <comp name="--.HH2">
      <acc value="0.0066141839" flag="0"/>
      <vel value="0.0074506923" flag="0"/>
      <psa03 value="0.0103420071" flag="0"/>
      <psa10 value="0.0121518929" flag="0"/>
      <psa30 value="0.0007693411" flag="0"/>
    </comp>
    <comp name="--.HH1">
      <acc value="0.0044832869" flag="0"/>
      <vel value="0.0041157727" flag="0"/>
      <psa03 value="0.0096882297" flag="0"/>
      <psa10 value="0.0066925684" flag="0"/>
      <psa30 value="0.0004860601" flag="0"/>
    </comp>
    <comp name="--.HH3">
      <acc value="0.0030363698" flag="0"/>
      <vel value="0.0020039240" flag="0"/>
      <psa03 value="0.0037696163" flag="0"/>
      <psa10 value="0.0022838496" flag="0"/>
      <psa30 value="0.0002158799" flag="0"/>
    </comp>
  </station>
  <station code="VRG02" name="VRG02" netid="VR" insttype="" lat="43.6569" lon="10.5169">
    <comp name="--.HH2">
      <acc value="0.0072947910" flag="0"/>
      <vel value="0.0089052008" flag="0"/>
      <psa03 value="0.0102939779" flag="0"/>
      <psa10 value="0.0152236792" flag="0"/>
      <psa30 value="0.0009605119" flag="0"/>
    </comp>
    <comp name="--.HH1">
      <acc value="0.0037588957" flag="0"/>
      <vel value="0.0036127453" flag="0"/>
      <psa03 value="0.0088675830" flag="0"/>
      <psa10 value="0.0066404100" flag="0"/>
      <psa30 value="0.0004725251" flag="0"/>
    </comp>
    <comp name="--.HH3">
      <acc value="0.0017750468" flag="0"/>
      <vel value="0.0020483840" flag="0"/>
      <psa03 value="0.0049014252" flag="0"/>
      <psa10 value="0.0032606235" flag="0"/>
      <psa30 value="0.0002848754" flag="0"/>
    </comp>
  </station>
  <station code="VRG03" name="VRG03" netid="VR" insttype="" lat="43.6404" lon="10.4694">
    <comp name="--.HH1">
      <acc value="0.0070996699" flag="0"/>
      <vel value="0.0075498264" flag="0"/>
      <psa03 value="0.0122342311" flag="0"/>
      <psa10 value="0.0152680437" flag="0"/>
      <psa30 value="0.0007030393" flag="0"/>
    </comp>
    <comp name="--.HH2">
      <acc value="0.0158987932" flag="0"/>
      <vel value="0.0180098093" flag="0"/>
      <psa03 value="0.0235802981" flag="0"/>
      <psa10 value="0.0285257778" flag="0"/>
      <psa30 value="0.0014331837" flag="0"/>
    </comp>
    <comp name="--.HH3">
      <acc value="0.0031755480" flag="0"/>
      <vel value="0.0020043985" flag="0"/>
      <psa03 value="0.0057464423" flag="0"/>
      <psa10 value="0.0029098878" flag="0"/>
      <psa30 value="0.0003143969" flag="0"/>
    </comp>
  </station>
</stationlist>
