<?xml version="1.0" encoding="UTF-8" standalone="yes"?>
<!DOCTYPE earthquake SYSTEM "stationlist.dtd">
<stationlist created="" xmlns="ch.ethz.sed.shakemap.usgs.xml">
  <station code="BNGB" name="BNGB" netid="KO" insttype="CMG-3ESPC" lat="38.9913" lon="40.6792">
    <comp name="--.HHZ">
      <acc value="0.0062909134" flag="0"/>
      <vel value="0.0031136839" flag="0"/>
      <psa03 value="0.0120886641" flag="0"/>
      <psa10 value="0.0045355208" flag="0"/>
      <psa30 value="0.0006912606" flag="0"/>
    </comp>
  </station>
  <station code="SINE" name="SINE" netid="KO" insttype="CMG-6T" lat="39.1636" lon="39.3871">
    <comp name="--.HHZ">
      <acc value="0.0190954810" flag="0"/>
      <vel value="0.0071426535" flag="0"/>
      <psa03 value="0.0442536419" flag="0"/>
      <psa10 value="0.0034684277" flag="0"/>
      <psa30 value="0.0002476121" flag="0"/>
    </comp>
    <comp name="--.HHE">
      <acc value="0.0267653373" flag="0"/>
      <vel value="0.0129993263" flag="0"/>
      <psa03 value="0.0605872619" flag="0"/>
      <psa10 value="0.0057764713" flag="0"/>
      <psa30 value="0.0004036983" flag="0"/>
    </comp>
    <comp name="--.HHN">
      <acc value="0.0228969315" flag="0"/>
      <vel value="0.0071094401" flag="0"/>
      <psa03 value="0.0411848501" flag="0"/>
      <psa10 value="0.0041077899" flag="0"/>
      <psa30 value="0.0002295485" flag="0"/>
    </comp>
  </station>
  <station code="YEDI" name="YEDI" netid="KO" insttype="CMG-3T" lat="39.4377" lon="40.5443">
    <comp name="--.HHN">
      <acc value="0.0559717285" flag="0"/>
      <vel value="0.0266545831" flag="0"/>
      <psa03 value="0.1393774366" flag="0"/>
      <psa10 value="0.0259435175" flag="0"/>
      <psa30 value="0.0017285376" flag="0"/>
    </comp>
    <comp name="--.HHZ">
      <acc value="0.0000328851" flag="0"/>
      <vel value="0.0000034356" flag="0"/>
      <psa03 value="0.0000119233" flag="0"/>
      <psa10 value="0.0000041145" flag="0"/>
      <psa30 value="0.0000005962" flag="0"/>
    </comp>
  </station>
</stationlist>
