<?xml version="1.0" encoding="UTF-8" standalone="yes"?>
<!DOCTYPE earthquake SYSTEM "stationlist.dtd">
<stationlist created="" xmlns="ch.ethz.sed.shakemap.usgs.xml">
  <station code="BNGB" name="BNGB" netid="KO" insttype="CMG-3ESPC" lat="38.9913" lon="40.6792">
    <comp name="--.HHZ">
      <acc value="0.0062909132" flag="0"/>
      <vel value="0.0031136888" flag="0"/>
      <psa03 value="0.0120886641" flag="0"/>
      <psa10 value="0.0045355209" flag="0"/>
      <psa30 value="0.0006912252" flag="0"/>
    </comp>
  </station>
  <station code="ERZN" name="ERZN" netid="KO" insttype="CMG-3ESP" lat="39.5867" lon="39.722">
    <comp name="--.HHE">
      <acc value="0.1324027488" flag="0"/>
      <vel value="0.0456881303" flag="0"/>
      <psa03 value="0.1710253691" flag="0"/>
      <psa10 value="0.0298079254" flag="0"/>
      <psa30 value="0.0015543148" flag="0"/>
    </comp>
  </station>
  <station code="SINE" name="SINE" netid="KO" insttype="CMG-6T" lat="39.1636" lon="39.3871">
    <comp name="--.HHZ">
      <acc value="0.0190954795" flag="0"/>
      <vel value="0.0071426536" flag="0"/>
      <psa03 value="0.0442536419" flag="0"/>
      <psa10 value="0.0034684277" flag="0"/>
      <psa30 value="0.0002476131" flag="0"/>
    </comp>
    <comp name="--.HHE">
      <acc value="0.0267653396" flag="0"/>
      <vel value="0.0129993260" flag="0"/>
      <psa03 value="0.0605872619" flag="0"/>
      <psa10 value="0.0057764712" flag="0"/>
      <psa30 value="0.0004036963" flag="0"/>
    </comp>
    <comp name="--.HHN">
      <acc value="0.0228969324" flag="0"/>
      <vel value="0.0071094401" flag="0"/>
      <psa03 value="0.0411848501" flag="0"/>
      <psa10 value="0.0041077899" flag="0"/>
      <psa30 value="0.0002295473" flag="0"/>
    </comp>
  </station>
  <station code="YEDI" name="YEDI" netid="KO" insttype="CMG-3T" lat="39.4377" lon="40.5443">
    <comp name="--.HHZ">
      <acc value="0.0000328856" flag="0"/>
      <vel value="0.0000034356" flag="0"/>
      <psa03 value="0.0000119233" flag="0"/>
      <psa10 value="0.0000041146" flag="0"/>
      <psa30 value="0.0000005964" flag="0"/>
    </comp>
    <comp name="--.HHN">
      <acc value="0.0559717287" flag="0"/>
      <vel value="0.0266545830" flag="0"/>
      <psa03 value="0.1393774366" flag="0"/>
      <psa10 value="0.0259435176" flag="0"/>
      <psa30 value="0.0017285610" flag="0"/>
    </comp>
  </station>
</stationlist>
