<?xml version="1.0" encoding="UTF-8" standalone="yes"?>
<!DOCTYPE earthquake SYSTEM "stationlist.dtd">
<stationlist created="" xmlns="ch.ethz.sed.shakemap.usgs.xml">
  <station code="APE" name="APE" netid="GE" insttype="STS-2/N" lat="37.0727" lon="25.523">
    <comp name="--.HHE">
      <acc value="0.1745941719" flag="0"/>
      <vel value="0.0404153686" flag="0"/>
      <psa03 value="0.1448501874" flag="0"/>
      <psa10 value="0.0126825763" flag="0"/>
      <psa30 value="0.0015880444" flag="0"/>
    </comp>
    <comp name="--.HHZ">
      <acc value="0.0781151768" flag="0"/>
      <vel value="0.0113787145" flag="0"/>
      <psa03 value="0.0735639951" flag="0"/>
      <psa10 value="0.0090739703" flag="0"/>
      <psa30 value="0.0015117706" flag="0"/>
    </comp>
    <comp name="--.HHN">
      <acc value="0.1985189449" flag="0"/>
      <vel value="0.0461998296" flag="0"/>
      <psa03 value="0.1017347518" flag="0"/>
      <psa10 value="0.0080306827" flag="0"/>
      <psa30 value="0.0015365381" flag="0"/>
    </comp>
  </station>
  <station code="THERA" name="THERA" netid="GE" insttype="STS-2/N" lat="36.367" lon="25.4753">
    <comp name="--.HHE">
      <acc value="0.2458055378" flag="0"/>
      <vel value="0.0676463368" flag="0"/>
      <psa03 value="0.3464443651" flag="0"/>
      <psa10 value="0.0128599253" flag="0"/>
      <psa30 value="0.0018935215" flag="0"/>
    </comp>
    <comp name="--.HHZ">
      <acc value="0.2367399498" flag="0"/>
      <vel value="0.0551335916" flag="0"/>
      <psa03 value="0.2026825418" flag="0"/>
      <psa10 value="0.0102206106" flag="0"/>
      <psa30 value="0.0015655558" flag="0"/>
    </comp>
    <comp name="--.HHN">
      <acc value="0.2178805096" flag="0"/>
      <vel value="0.0563537551" flag="0"/>
      <psa03 value="0.3028488548" flag="0"/>
      <psa10 value="0.0084172582" flag="0"/>
      <psa30 value="0.0009485751" flag="0"/>
    </comp>
  </station>
</stationlist>
