<?xml version="1.0" encoding="UTF-8" standalone="yes"?>
<!DOCTYPE earthquake SYSTEM "stationlist.dtd">
<stationlist created="" xmlns="ch.ethz.sed.shakemap.usgs.xml">
  <station code="HSY" name="HSY" netid="KO" insttype="CMG-6T" lat="35.2916" lon="33.0974">
    <comp name="--.HHE">
      <acc value="0.0242435489" flag="0"/>
      <vel value="0.0081632838" flag="0"/>
      <psa03 value="0.0385456193" flag="0"/>
      <psa10 value="0.0056694912" flag="0"/>
      <psa30 value="0.0003735070" flag="0"/>
    </comp>
    <comp name="--.HHN">
      <acc value="0.0322118033" flag="0"/>
      <vel value="0.0101018463" flag="0"/>
      <psa03 value="0.0480781198" flag="0"/>
      <psa10 value="0.0046441357" flag="0"/>
      <psa30 value="0.0003797949" flag="0"/>
    </comp>
    <comp name="--.HHZ">
      <acc value="0.0082559027" flag="0"/>
      <vel value="0.0024524591" flag="0"/>
      <psa03 value="0.0164814161" flag="0"/>
      <psa10 value="0.0023097202" flag="0"/>
      <psa30 value="0.0002297754" flag="0"/>
    </comp>
  </station>
  <station code="LEF" name="LEF" netid="KO" insttype="CMG-6T" lat="35.1118" lon="32.8433">
    <comp name="--.HHE">
      <acc value="0.0068576603" flag="0"/>
      <vel value="0.0057646686" flag="0"/>
      <psa03 value="0.0174914161" flag="0"/>
      <psa10 value="0.0060160291" flag="0"/>
      <psa30 value="0.0007659012" flag="0"/>
    </comp>
    <comp name="--.HHN">
      <acc value="0.0071432895" flag="0"/>
      <vel value="0.0055937869" flag="0"/>
      <psa03 value="0.0213390997" flag="0"/>
      <psa10 value="0.0058868732" flag="0"/>
      <psa30 value="0.0009123750" flag="0"/>
    </comp>
    <comp name="--.HHZ">
      <acc value="0.0059614305" flag="0"/>
      <vel value="0.0053496204" flag="0"/>
      <psa03 value="0.0151538975" flag="0"/>
      <psa10 value="0.0100946095" flag="0"/>
      <psa30 value="0.0004441427" flag="0"/>
    </comp>
  </station>
  <station code="LFK" name="LFK" netid="KO" insttype="CMG-3ESP" lat="35.2832" lon="33.5335">
    <comp name="--.HHZ">
      <acc value="0.0035747579" flag="0"/>
      <vel value="0.0011345490" flag="0"/>
      <psa03 value="0.0077367111" flag="0"/>
      <psa10 value="0.0008641804" flag="0"/>
      <psa30 value="0.0001304510" flag="0"/>
    </comp>
    <comp name="--.HHN">
      <acc value="0.0055270776" flag="0"/>
      <vel value="0.0035521997" flag="0"/>
      <psa03 value="0.0149685490" flag="0"/>
      <psa10 value="0.0021765962" flag="0"/>
      <psa30 value="0.0001993859" flag="0"/>
    </comp>
    <comp name="--.HHE">
      <acc value="0.0038198921" flag="0"/>
      <vel value="0.0021038706" flag="0"/>
      <psa03 value="0.0118981247" flag="0"/>
      <psa10 value="0.0019633946" flag="0"/>
      <psa30 value="0.0001259596" flag="0"/>
    </comp>
  </station>
</stationlist>
