<?xml version="1.0" encoding="UTF-8" standalone="yes"?>
<!DOCTYPE earthquake SYSTEM "stationlist.dtd">
<stationlist created="" xmlns="ch.ethz.sed.shakemap.usgs.xml">
  <station code="KARP" name="KARP" netid="GE" insttype="STS-2/N" commtype="DIG" lat="35.5471" lon="27.1611">
    <comp name="--.HHN">
      <acc value="0.0151240341" flag="0"/>
      <vel value="0.0078326678" flag="0"/>
      <psa03 value="0.0257005989" flag="0"/>
      <psa10 value="0.0086073457" flag="0"/>
      <psa30 value="0.0007085427" flag="0"/>
    </comp>
    <comp name="--.HHZ">
      <acc value="0.0076562039" flag="0"/>
      <vel value="0.0052217335" flag="0"/>
      <psa03 value="0.0233765452" flag="0"/>
      <psa10 value="0.0065527826" flag="0"/>
      <psa30 value="0.0004930713" flag="0"/>
    </comp>
    <comp name="--.HHE">
      <acc value="0.0178678226" flag="0"/>
      <vel value="0.0097704361" flag="0"/>
      <psa03 value="0.0262462231" flag="0"/>
      <psa10 value="0.0156306546" flag="0"/>
      <psa30 value="0.0007227627" flag="0"/>
    </comp>
  </station>
  <station code="ZKR" name="ZKR" netid="GE" insttype="STS-2/N" commtype="DIG" lat="35.1147" lon="26.2169">
    <comp name="--.HHN">
      <acc value="0.2935740147" flag="0"/>
      <vel value="0.1159421419" flag="0"/>
      <psa03 value="0.7198259172" flag="0"/>
      <psa10 value="0.0695343434" flag="0"/>
      <psa30 value="0.0055585671" flag="0"/>
    </comp>
    <comp name="--.HHE">
      <acc value="0.2599559719" flag="0"/>
      <vel value="0.1488488600" flag="0"/>
      <psa03 value="0.3509119708" flag="0"/>
      <psa10 value="0.1177578363" flag="0"/>
      <psa30 value="0.0056169107" flag="0"/>
    </comp>
    <comp name="--.HHZ">
      <acc value="0.2366596291" flag="0"/>
      <vel value="0.0823093159" flag="0"/>
      <psa03 value="0.4184950525" flag="0"/>
      <psa10 value="0.0631448794" flag="0"/>
      <psa30 value="0.0057187392" flag="0"/>
    </comp>
  </station>
  <station code="PFKS" name="PFKS" netid="HC" insttype="120" commtype="DIG" lat="35.0429" lon="25.4733">
    <comp name="--.HHZ">
      <acc value="0.1066629785" flag="0"/>
      <vel value="0.0297661697" flag="0"/>
      <psa03 value="0.0846175245" flag="0"/>
      <psa10 value="0.0171586710" flag="0"/>
      <psa30 value="0.0008779601" flag="0"/>
    </comp>
    <comp name="--.HHE">
      <acc value="0.1742530269" flag="0"/>
      <vel value="0.0495841235" flag="0"/>
      <psa03 value="0.3099996115" flag="0"/>
      <psa10 value="0.0298496277" flag="0"/>
      <psa30 value="0.0014937027" flag="0"/>
    </comp>
    <comp name="--.HHN">
      <acc value="0.2158525512" flag="0"/>
      <vel value="0.0697613176" flag="0"/>
      <psa03 value="0.1557252596" flag="0"/>
      <psa10 value="0.0461184455" flag="0"/>
      <psa30 value="0.0025657350" flag="0"/>
    </comp>
  </station>
  <station code="STIA" name="STIA" netid="HC" insttype="120" commtype="DIG" lat="35.2021" lon="26.0909">
    <comp name="--.HHE">
      <acc value="0.1599552512" flag="0"/>
      <vel value="0.0549888368" flag="0"/>
      <psa03 value="0.2004023296" flag="0"/>
      <psa10 value="0.0543157138" flag="0"/>
      <psa30 value="0.0032154487" flag="0"/>
    </comp>
    <comp name="--.HHN">
      <acc value="0.1664192992" flag="0"/>
      <vel value="0.0536489657" flag="0"/>
      <psa03 value="0.2030929287" flag="0"/>
      <psa10 value="0.0553219647" flag="0"/>
      <psa30 value="0.0040337281" flag="0"/>
    </comp>
    <comp name="--.HHZ">
      <acc value="0.1932069659" flag="0"/>
      <vel value="0.0375099062" flag="0"/>
      <psa03 value="0.2455775512" flag="0"/>
      <psa10 value="0.0281342030" flag="0"/>
      <psa30 value="0.0030856353" flag="0"/>
    </comp>
  </station>
  <station code="AGN1" name="AGN1" netid="HI" insttype="unknown" commtype="DIG" lat="35.1879" lon="25.7155">
    <comp name="--.HNN">
      <acc value="0.1739495886" flag="0"/>
      <vel value="0.0424482600" flag="0"/>
      <psa03 value="0.1752242081" flag="0"/>
      <psa10 value="0.0165511678" flag="0"/>
      <psa30 value="0.0019239029" flag="0"/>
    </comp>
    <comp name="--.HNE">
      <acc value="0.0005907973" flag="0"/>
      <vel value="0.0020277345" flag="0"/>
      <psa03 value="0.0009476162" flag="0"/>
      <psa10 value="0.0007607297" flag="0"/>
      <psa30 value="0.0008751028" flag="0"/>
    </comp>
    <comp name="--.HNZ">
      <acc value="0.0861358684" flag="0"/>
      <vel value="0.0243725871" flag="0"/>
      <psa03 value="0.0554454031" flag="0"/>
      <psa10 value="0.0074311279" flag="0"/>
      <psa30 value="0.0009439105" flag="0"/>
    </comp>
  </station>
  <station code="KSS1" name="KSS1" netid="HI" insttype="CMG-5TD,ACCELEROMETER,GURALP" commtype="DIG" lat="35.4189" lon="26.9207">
    <comp name="--.HNE">
      <acc value="0.0126815341" flag="0"/>
      <vel value="0.0069598247" flag="0"/>
      <psa03 value="0.0413236651" flag="0"/>
      <psa10 value="0.0053259902" flag="0"/>
      <psa30 value="0.0005730725" flag="0"/>
    </comp>
    <comp name="--.HNZ">
      <acc value="0.0092742989" flag="0"/>
      <vel value="0.0047103903" flag="0"/>
      <psa03 value="0.0122250608" flag="0"/>
      <psa10 value="0.0044717088" flag="0"/>
      <psa30 value="0.0008248133" flag="0"/>
    </comp>
    <comp name="--.HNN">
      <acc value="0.0173508300" flag="0"/>
      <vel value="0.0090561433" flag="0"/>
      <psa03 value="0.0701053738" flag="0"/>
      <psa10 value="0.0113461721" flag="0"/>
      <psa30 value="0.0006227252" flag="0"/>
    </comp>
  </station>
  <station code="SIT2" name="SIT2" netid="HI" insttype="CMG-5TD,ACCELEROMETER,GURALP" commtype="DIG" lat="35.2059" lon="26.107">
    <comp name="--.HNZ">
      <acc value="0.1519254373" flag="0"/>
      <vel value="0.0585435476" flag="0"/>
      <psa03 value="0.2207253780" flag="0"/>
      <psa10 value="0.0396438369" flag="0"/>
      <psa30 value="0.0026124427" flag="0"/>
    </comp>
    <comp name="--.HNN">
      <acc value="0.2756156396" flag="0"/>
      <vel value="0.1786827826" flag="0"/>
      <psa03 value="0.5709523803" flag="0"/>
      <psa10 value="0.1478502059" flag="0"/>
      <psa30 value="0.0087102352" flag="0"/>
    </comp>
    <comp name="--.HNE">
      <acc value="0.2383074190" flag="0"/>
      <vel value="0.1689191607" flag="0"/>
      <psa03 value="0.5740275305" flag="0"/>
      <psa10 value="0.1029860137" flag="0"/>
      <psa30 value="0.0064101505" flag="0"/>
    </comp>
  </station>
  <station code="KARP" name="KARP" netid="HL" insttype="120" commtype="DIG" lat="35.5471" lon="27.1611">
    <comp name="--.HHE">
      <acc value="0.0159338068" flag="0"/>
      <vel value="0.0095067367" flag="0"/>
      <psa03 value="0.0257382971" flag="0"/>
      <psa10 value="0.0155444209" flag="0"/>
      <psa30 value="0.0007206787" flag="0"/>
    </comp>
    <comp name="--.HHN">
      <acc value="0.0127973976" flag="0"/>
      <vel value="0.0077409566" flag="0"/>
      <psa03 value="0.0250173057" flag="0"/>
      <psa10 value="0.0085448985" flag="0"/>
      <psa30 value="0.0007064327" flag="0"/>
    </comp>
    <comp name="--.HHZ">
      <acc value="0.0074889098" flag="0"/>
      <vel value="0.0051522124" flag="0"/>
      <psa03 value="0.0228586375" flag="0"/>
      <psa10 value="0.0065122701" flag="0"/>
      <psa30 value="0.0004909649" flag="0"/>
    </comp>
  </station>
</stationlist>
