<?xml version="1.0" encoding="UTF-8" standalone="yes"?>
<!DOCTYPE earthquake SYSTEM "stationlist.dtd">
<stationlist created="" xmlns="ch.ethz.sed.shakemap.usgs.xml">
  <station code="BNN" name="BNN" netid="KO" insttype="CMG-3T" lat="38.8521" lon="35.8472">
    <comp name="--.HHN">
      <acc value="0.0058260717" flag="0"/>
      <vel value="0.0036684623" flag="0"/>
      <psa03 value="0.0119500766" flag="0"/>
      <psa10 value="0.0076126537" flag="0"/>
      <psa30 value="0.0005716954" flag="0"/>
    </comp>
    <comp name="--.HHZ">
      <acc value="0.0039644125" flag="0"/>
      <vel value="0.0023316289" flag="0"/>
      <psa03 value="0.0081653576" flag="0"/>
      <psa10 value="0.0032785321" flag="0"/>
      <psa30 value="0.0003628921" flag="0"/>
    </comp>
  </station>
  <station code="CEYT" name="CEYT" netid="KO" insttype="CMG-3ESP" lat="37.0105" lon="35.7478">
    <comp name="--.HHZ">
      <acc value="0.0050439512" flag="0"/>
      <vel value="0.0026751694" flag="0"/>
      <psa03 value="0.0120028680" flag="0"/>
      <psa10 value="0.0043061969" flag="0"/>
      <psa30 value="0.0007572006" flag="0"/>
    </comp>
    <comp name="--.HHN">
      <acc value="0.0056073240" flag="0"/>
      <vel value="0.0020946294" flag="0"/>
      <psa03 value="0.0107627805" flag="0"/>
      <psa10 value="0.0041002308" flag="0"/>
      <psa30 value="0.0005047699" flag="0"/>
    </comp>
    <comp name="--.HHE">
      <acc value="0.0065340520" flag="0"/>
      <vel value="0.0042890029" flag="0"/>
      <psa03 value="0.0200550718" flag="0"/>
      <psa10 value="0.0037360880" flag="0"/>
      <psa30 value="0.0004059867" flag="0"/>
    </comp>
  </station>
  <station code="DARE" name="DARE" netid="KO" insttype="CMG-3ESP" lat="38.5712" lon="37.4832">
    <comp name="--.HHN">
      <acc value="0.0033139780" flag="0"/>
      <vel value="0.0014325206" flag="0"/>
      <psa03 value="0.0089763316" flag="0"/>
      <psa10 value="0.0022898673" flag="0"/>
      <psa30 value="0.0003457337" flag="0"/>
    </comp>
    <comp name="--.HHZ">
      <acc value="0.0024870560" flag="0"/>
      <vel value="0.0020649481" flag="0"/>
      <psa03 value="0.0058740703" flag="0"/>
      <psa10 value="0.0016522652" flag="0"/>
      <psa30 value="0.0004176476" flag="0"/>
    </comp>
  </station>
  <station code="GAZ" name="GAZ" netid="KO" insttype="CMG-3T" lat="37.1721" lon="37.2096">
    <comp name="--.HHE">
      <acc value="0.0177354321" flag="0"/>
      <vel value="0.0074201385" flag="0"/>
      <psa03 value="0.0374567426" flag="0"/>
      <psa10 value="0.0073353829" flag="0"/>
      <psa30 value="0.0007248570" flag="0"/>
    </comp>
    <comp name="--.HHN">
      <acc value="0.0270943383" flag="0"/>
      <vel value="0.0054356972" flag="0"/>
      <psa03 value="0.0204828473" flag="0"/>
      <psa10 value="0.0101150828" flag="0"/>
      <psa30 value="0.0004253753" flag="0"/>
    </comp>
    <comp name="--.HHZ">
      <acc value="0.0073942534" flag="0"/>
      <vel value="0.0040316099" flag="0"/>
      <psa03 value="0.0118248295" flag="0"/>
      <psa10 value="0.0050167227" flag="0"/>
      <psa30 value="0.0005739903" flag="0"/>
    </comp>
  </station>
  <station code="KMRS" name="KMRS" netid="KO" insttype="CMG-3T" lat="37.5053" lon="36.9">
    <comp name="--.HHN">
      <acc value="0.0336747242" flag="0"/>
      <vel value="0.0148241383" flag="0"/>
      <psa03 value="0.0861435156" flag="0"/>
      <psa10 value="0.0076901305" flag="0"/>
      <psa30 value="0.0017585482" flag="0"/>
    </comp>
    <comp name="--.HHZ">
      <acc value="0.0137725189" flag="0"/>
      <vel value="0.0085080356" flag="0"/>
      <psa03 value="0.0303563634" flag="0"/>
      <psa10 value="0.0042345408" flag="0"/>
      <psa30 value="0.0006846628" flag="0"/>
    </comp>
    <comp name="--.HHE">
      <acc value="0.0306170365" flag="0"/>
      <vel value="0.0157816005" flag="0"/>
      <psa03 value="0.0517501099" flag="0"/>
      <psa10 value="0.0124817718" flag="0"/>
      <psa30 value="0.0018148166" flag="0"/>
    </comp>
  </station>
  <station code="SARI" name="SARI" netid="KO" insttype="CMG-3T" lat="38.4072" lon="36.4181">
    <comp name="--.HHZ">
      <acc value="0.0457700160" flag="0"/>
      <vel value="0.0192968775" flag="0"/>
      <psa03 value="0.0812498060" flag="0"/>
      <psa10 value="0.0129457839" flag="0"/>
      <psa30 value="0.0012996448" flag="0"/>
    </comp>
  </station>
  <station code="ANDN" name="ANDN" netid="TU" insttype="T" lat="37.58" lon="36.3452">
    <comp name="--.HHZ">
      <acc value="0.0331241372" flag="0"/>
      <vel value="0.0219761601" flag="0"/>
      <psa03 value="0.0970462214" flag="0"/>
      <psa10 value="0.0440819729" flag="0"/>
      <psa30 value="0.0025698096" flag="0"/>
    </comp>
    <comp name="--.HHN">
      <acc value="0.0871689974" flag="0"/>
      <vel value="0.0346960778" flag="0"/>
      <psa03 value="0.1594884344" flag="0"/>
      <psa10 value="0.0412175840" flag="0"/>
      <psa30 value="0.0029141620" flag="0"/>
    </comp>
    <comp name="--.HHE">
      <acc value="0.0777039862" flag="0"/>
      <vel value="0.0359164788" flag="0"/>
      <psa03 value="0.1557485672" flag="0"/>
      <psa10 value="0.0271049364" flag="0"/>
      <psa30 value="0.0036462844" flag="0"/>
    </comp>
  </station>
</stationlist>
