<?xml version="1.0" encoding="UTF-8" standalone="yes"?>
<!DOCTYPE earthquake SYSTEM "stationlist.dtd">
<stationlist created="" xmlns="ch.ethz.sed.shakemap.usgs.xml">
  <station code="BNN" name="BNN" netid="KO" insttype="CMG-3T" lat="38.8521" lon="35.8472">
    <comp name="--.HHN">
      <acc value="0.0058260715" flag="0"/>
      <vel value="0.0036684622" flag="0"/>
      <psa03 value="0.0119500766" flag="0"/>
      <psa10 value="0.0076126537" flag="0"/>
      <psa30 value="0.0005716899" flag="0"/>
    </comp>
    <comp name="--.HHZ">
      <acc value="0.0039644126" flag="0"/>
      <vel value="0.0023316289" flag="0"/>
      <psa03 value="0.0081653576" flag="0"/>
      <psa10 value="0.0032785320" flag="0"/>
      <psa30 value="0.0003628875" flag="0"/>
    </comp>
  </station>
  <station code="DARE" name="DARE" netid="KO" insttype="CMG-3ESP" lat="38.5712" lon="37.4832">
    <comp name="--.HHZ">
      <acc value="0.0024870560" flag="0"/>
      <vel value="0.0020649483" flag="0"/>
      <psa03 value="0.0058740703" flag="0"/>
      <psa10 value="0.0016522652" flag="0"/>
      <psa30 value="0.0004176636" flag="0"/>
    </comp>
    <comp name="--.HHN">
      <acc value="0.0033139780" flag="0"/>
      <vel value="0.0014325207" flag="0"/>
      <psa03 value="0.0089763316" flag="0"/>
      <psa10 value="0.0022898673" flag="0"/>
      <psa30 value="0.0003457315" flag="0"/>
    </comp>
  </station>
  <station code="GAZ" name="GAZ" netid="KO" insttype="CMG-3T" lat="37.1721" lon="37.2096">
    <comp name="--.HHN">
      <acc value="0.0270943377" flag="0"/>
      <vel value="0.0054356966" flag="0"/>
      <psa03 value="0.0204828473" flag="0"/>
      <psa10 value="0.0101150828" flag="0"/>
      <psa30 value="0.0004253807" flag="0"/>
    </comp>
    <comp name="--.HHZ">
      <acc value="0.0073942539" flag="0"/>
      <vel value="0.0040316094" flag="0"/>
      <psa03 value="0.0118248295" flag="0"/>
      <psa10 value="0.0050167227" flag="0"/>
      <psa30 value="0.0005739901" flag="0"/>
    </comp>
    <comp name="--.HHE">
      <acc value="0.0177354324" flag="0"/>
      <vel value="0.0074201396" flag="0"/>
      <psa03 value="0.0374567426" flag="0"/>
      <psa10 value="0.0073353829" flag="0"/>
      <psa30 value="0.0007248958" flag="0"/>
    </comp>
  </station>
  <station code="KMRS" name="KMRS" netid="KO" insttype="CMG-3T" lat="37.5053" lon="36.9">
    <comp name="--.HHE">
      <acc value="0.0306170360" flag="0"/>
      <vel value="0.0157816004" flag="0"/>
      <psa03 value="0.0517501099" flag="0"/>
      <psa10 value="0.0124817801" flag="0"/>
      <psa30 value="0.0018148663" flag="0"/>
    </comp>
    <comp name="--.HHN">
      <acc value="0.0336747242" flag="0"/>
      <vel value="0.0148241383" flag="0"/>
      <psa03 value="0.0861435156" flag="0"/>
      <psa10 value="0.0076901305" flag="0"/>
      <psa30 value="0.0017585482" flag="0"/>
    </comp>
    <comp name="--.HHZ">
      <acc value="0.0137725213" flag="0"/>
      <vel value="0.0085080066" flag="0"/>
      <psa03 value="0.0303561890" flag="0"/>
      <psa10 value="0.0042209473" flag="0"/>
      <psa30 value="0.0006845049" flag="0"/>
    </comp>
  </station>
  <station code="SARI" name="SARI" netid="KO" insttype="CMG-3T" lat="38.4072" lon="36.4181">
    <comp name="--.HHZ">
      <acc value="0.0457700162" flag="0"/>
      <vel value="0.0192968777" flag="0"/>
      <psa03 value="0.0812498060" flag="0"/>
      <psa10 value="0.0129457838" flag="0"/>
      <psa30 value="0.0012997215" flag="0"/>
    </comp>
  </station>
  <station code="ANDN" name="ANDN" netid="TU" insttype="T" lat="37.58" lon="36.3452">
    <comp name="--.HHE">
      <acc value="0.0777039862" flag="0"/>
      <vel value="0.0359164781" flag="0"/>
      <psa03 value="0.1557485672" flag="0"/>
      <psa10 value="0.0271049363" flag="0"/>
      <psa30 value="0.0036463135" flag="0"/>
    </comp>
    <comp name="--.HHN">
      <acc value="0.0871689976" flag="0"/>
      <vel value="0.0346960783" flag="0"/>
      <psa03 value="0.1594884344" flag="0"/>
      <psa10 value="0.0412175840" flag="0"/>
      <psa30 value="0.0029141884" flag="0"/>
    </comp>
    <comp name="--.HHZ">
      <acc value="0.0331241373" flag="0"/>
      <vel value="0.0219761602" flag="0"/>
      <psa03 value="0.0970462214" flag="0"/>
      <psa10 value="0.0440819729" flag="0"/>
      <psa30 value="0.0025698135" flag="0"/>
    </comp>
  </station>
</stationlist>
