<stationlist created="1778136363">
	<station code="S2114" name="S2114" netid="S2" source="IceSMN Icelandic Strong Motion Network (IceSMN)" insttype="" lat="63.7515" lon="-20.2168">
		<comp name="00.HN1" depth="0.0">
			<acc value="0.301031444485006" flag="0"/>
			<vel value="0.15663434280064" flag="0"/>
			<psa03 value="0.647456140790695" flag="0"/>
			<psa10 value="0.142914362375061" flag="0"/>
			<psa30 value="0.0634306486358609" flag="0"/>
		</comp>
		<comp name="00.HN2" depth="0.0">
			<acc value="0.284657493629405" flag="0"/>
			<vel value="0.171791108488147" flag="0"/>
			<psa03 value="0.756617538863345" flag="0"/>
			<psa10 value="0.234556903243824" flag="0"/>
			<psa30 value="0.0311352558912396" flag="0"/>
		</comp>
		<comp name="00.HNZ" depth="0.0">
			<acc value="0.175424776975781" flag="0"/>
			<vel value="0.0775368560811958" flag="0"/>
			<psa03 value="0.231663200716787" flag="0"/>
			<psa10 value="0.123995454090411" flag="0"/>
			<psa30 value="0.0387513570872329" flag="0"/>
		</comp>
	</station>
	<station code="S2119" name="S2119" netid="S2" source="IceSMN Icelandic Strong Motion Network (IceSMN)" insttype="" lat="64.1301" lon="-20.32">
		<comp name="00.HN1" depth="0.0">
			<acc value="0.128193508019936" flag="0"/>
			<vel value="0.103118586611719" flag="0"/>
			<psa03 value="0.41709713063807" flag="0"/>
			<psa10 value="0.0849019943402777" flag="0"/>
			<psa30 value="0.0624032339081425" flag="0"/>
		</comp>
		<comp name="00.HN2" depth="0.0">
			<acc value="0.177513838012905" flag="0"/>
			<vel value="0.168403413506262" flag="0"/>
			<psa03 value="0.535701529263089" flag="0"/>
			<psa10 value="0.169329087220941" flag="0"/>
			<psa30 value="0.036733363405052" flag="0"/>
		</comp>
		<comp name="00.HNZ" depth="0.0">
			<acc value="0.0784708156270277" flag="0"/>
			<vel value="0.0522766133759531" flag="0"/>
			<psa03 value="0.126761199390528" flag="0"/>
			<psa10 value="0.0521060005168075" flag="0"/>
			<psa30 value="0.0255022827343997" flag="0"/>
		</comp>
	</station>
	<station code="S2405" name="S2405" netid="S2" source="IceSMN Icelandic Strong Motion Network (IceSMN)" insttype="" lat="64.0447" lon="-21.9848">
		<comp name="00.HN1" depth="0.0">
			<acc value="0.934348635002922" flag="0"/>
			<vel value="0.761278644470939" flag="0"/>
			<psa03 value="2.34272552740255" flag="0"/>
			<psa10 value="0.591191263519688" flag="0"/>
			<psa30 value="0.126533808910488" flag="0"/>
		</comp>
		<comp name="00.HN2" depth="0.0">
			<acc value="1.20245937670658" flag="0"/>
			<vel value="0.660592817828989" flag="0"/>
			<psa03 value="3.47404547179658" flag="0"/>
			<psa10 value="0.557519552934988" flag="0"/>
			<psa30 value="0.176069263724487" flag="0"/>
		</comp>
		<comp name="00.HNZ" depth="0.0">
			<acc value="1.11129065410586" flag="0"/>
			<vel value="0.370287324581699" flag="0"/>
			<psa03 value="0.643647055123717" flag="0"/>
			<psa10 value="0.232502157126743" flag="0"/>
			<psa30 value="0.113395711909381" flag="0"/>
		</comp>
	</station>
	<station code="S2602" name="S2602" netid="S2" source="IceSMN Icelandic Strong Motion Network (IceSMN)" insttype="" lat="63.8464" lon="-22.4268">
		<comp name="00.HN1" depth="0.0">
			<acc value="7.24867168038785" flag="0"/>
			<vel value="5.41130320558155" flag="0"/>
			<psa03 value="7.06929497276193" flag="0"/>
			<psa10 value="5.42926670226992" flag="0"/>
			<psa30 value="1.68237544911637" flag="0"/>
		</comp>
		<comp name="00.HN2" depth="0.0">
			<acc value="4.13031984198992" flag="0"/>
			<vel value="4.25217700867008" flag="0"/>
			<psa03 value="10.811318863484" flag="0"/>
			<psa10 value="5.75473786313208" flag="0"/>
			<psa30 value="0.806867371001632" flag="0"/>
		</comp>
		<comp name="00.HNZ" depth="0.0">
			<acc value="6.30488467864235" flag="0"/>
			<vel value="1.69720071308674" flag="0"/>
			<psa03 value="4.88991993318863" flag="0"/>
			<psa10 value="1.10203360431852" flag="0"/>
			<psa30 value="0.556389231387973" flag="0"/>
		</comp>
	</station>
	<station code="S2604" name="S2604" netid="S2" source="IceSMN Icelandic Strong Motion Network (IceSMN)" insttype="" lat="63.9843" lon="-21.6486">
		<comp name="00.HN1" depth="0.0">
			<acc value="0.372246028430955" flag="0"/>
			<vel value="0.573936212646317" flag="0"/>
			<psa03 value="0.884214824892791" flag="0"/>
			<psa10 value="0.505665557861715" flag="0"/>
			<psa30 value="0.242819578938563" flag="0"/>
		</comp>
		<comp name="00.HN2" depth="0.0">
			<acc value="0.416333063088257" flag="0"/>
			<vel value="0.485853322852781" flag="0"/>
			<psa03 value="0.960523296621789" flag="0"/>
			<psa10 value="0.473720431655673" flag="0"/>
			<psa30 value="0.106371513257534" flag="0"/>
		</comp>
		<comp name="00.HNZ" depth="0.0">
			<acc value="0.307450785435894" flag="0"/>
			<vel value="0.27896048089073" flag="0"/>
			<psa03 value="0.63511261476227" flag="0"/>
			<psa10 value="0.160648342164318" flag="0"/>
			<psa30 value="0.1532773272041" flag="0"/>
		</comp>
	</station>
</stationlist>
