<?xml version="1.0" encoding="UTF-8" standalone="yes"?>
<!DOCTYPE earthquake SYSTEM "stationlist.dtd">
<stationlist created="" xmlns="ch.ethz.sed.shakemap.usgs.xml">
  <station code="ASB" name="ASB" netid="VI" source="ODC" insttype="STS-2.5" lat="64.7482" lon="-21.3254">
    <comp name="--.HHZ">
      <acc value="0.1716922755" flag="0"/>
      <vel value="0.0769560124" flag="0"/>
      <psa03 value="0.2774356393" flag="0"/>
      <psa10 value="0.0844309622" flag="0"/>
      <psa30 value="0.0322950961" flag="0"/>
    </comp>
    <comp name="--.HHE">
      <acc value="0.2553859551" flag="0"/>
      <vel value="0.1413543250" flag="0"/>
      <psa03 value="0.4351270704" flag="0"/>
      <psa10 value="0.1498855708" flag="0"/>
      <psa30 value="0.0781804627" flag="0"/>
    </comp>
    <comp name="--.HHN">
      <acc value="0.2362702010" flag="0"/>
      <vel value="0.1818468021" flag="0"/>
      <psa03 value="0.6125045913" flag="0"/>
      <psa10 value="0.1746302572" flag="0"/>
      <psa30 value="0.0537290034" flag="0"/>
    </comp>
  </station>
</stationlist>
