<stationlist created="1775808540">
	<station code="ARPRA" name="ARPRA" netid="KO" source="Bogazici University Kandilli Observatory And Earthquake Research Institute (KOERI)" insttype="" lat="39.0929" lon="38.3356">
		<comp name="--.HNE" depth="0.0">
			<acc value="0.270109302586246" flag="0"/>
			<vel value="0.112167219833642" flag="0"/>
			<psa03 value="0.940724568385819" flag="0"/>
			<psa10 value="0.0718414466432606" flag="0"/>
			<psa30 value="0.00506615477455708" flag="0"/>
		</comp>
		<comp name="--.HNN" depth="0.0">
			<acc value="0.348821251620862" flag="0"/>
			<vel value="0.151686958211107" flag="0"/>
			<psa03 value="1.03025208247758" flag="0"/>
			<psa10 value="0.0770640426146125" flag="0"/>
			<psa30 value="0.00476957179405684" flag="0"/>
		</comp>
		<comp name="--.HNZ" depth="0.0">
			<acc value="0.167712641890329" flag="0"/>
			<vel value="0.0545066569089219" flag="0"/>
			<psa03 value="0.344503279984898" flag="0"/>
			<psa10 value="0.0316452263409384" flag="0"/>
			<psa30 value="0.0021068287337305" flag="0"/>
		</comp>
	</station>
	<station code="KHMN" name="KHMN" netid="KO" source="Bogazici University Kandilli Observatory And Earthquake Research Institute (KOERI)" insttype="" lat="37.3916" lon="37.1574">
		<comp name="--.HNE" depth="0.0">
			<acc value="0.012566300174874" flag="0"/>
			<vel value="0.0119067006536764" flag="0"/>
			<psa03 value="0.0348645622103067" flag="0"/>
			<psa10 value="0.0110314317157117" flag="0"/>
			<psa30 value="0.00203089266167173" flag="0"/>
		</comp>
		<comp name="--.HNN" depth="0.0">
			<acc value="0.0170012973972102" flag="0"/>
			<vel value="0.0129966207167043" flag="0"/>
			<psa03 value="0.0260800636137201" flag="0"/>
			<psa10 value="0.0113221003460819" flag="0"/>
			<psa30 value="0.00670945613520732" flag="0"/>
		</comp>
		<comp name="--.HNZ" depth="0.0">
			<acc value="0.00984632036737624" flag="0"/>
			<vel value="0.00746972205946414" flag="0"/>
			<psa03 value="0.0144488777401555" flag="0"/>
			<psa10 value="0.00602123528353684" flag="0"/>
			<psa30 value="0.00257563999850931" flag="0"/>
		</comp>
	</station>
	<station code="TUNC" name="TUNC" netid="KO" source="Bogazici University Kandilli Observatory And Earthquake Research Institute (KOERI)" insttype="" lat="39.6942" lon="37.5388">
		<comp name="--.HNE" depth="0.0">
			<acc value="0.0211536155571171" flag="0"/>
			<vel value="0.0182406915105111" flag="0"/>
			<psa03 value="0.0935894081723117" flag="0"/>
			<psa10 value="0.0263440364131225" flag="0"/>
			<psa30 value="0.00242498085141355" flag="0"/>
		</comp>
		<comp name="--.HNN" depth="0.0">
			<acc value="0.0248540966423349" flag="0"/>
			<vel value="0.0200497736942481" flag="0"/>
			<psa03 value="0.0919394342863061" flag="0"/>
			<psa10 value="0.0244654394652944" flag="0"/>
			<psa30 value="0.00294727482582607" flag="0"/>
		</comp>
		<comp name="--.HNZ" depth="0.0">
			<acc value="0.0134242644848829" flag="0"/>
			<vel value="0.0110963492276443" flag="0"/>
			<psa03 value="0.0401883549896172" flag="0"/>
			<psa10 value="0.0190457604381573" flag="0"/>
			<psa30 value="0.00219487560807048" flag="0"/>
		</comp>
	</station>
</stationlist>
