<?xml version="1.0" encoding="UTF-8" standalone="yes"?>
<!DOCTYPE earthquake SYSTEM "stationlist.dtd">
<stationlist created="" xmlns="ch.ethz.sed.shakemap.usgs.xml">
  <station code="AKDG" name="AKDG" netid="KO" insttype="CMG-6T" commtype="DIG" lat="38.3618" lon="37.9703">
    <comp name="--.HHE">
      <acc value="0.0938583743" flag="0"/>
      <vel value="0.0429875957" flag="0"/>
      <psa03 value="0.1619513037" flag="0"/>
      <psa10 value="0.0815356330" flag="0"/>
      <psa30 value="0.0043397132" flag="0"/>
    </comp>
    <comp name="--.HHZ">
      <acc value="0.0749491859" flag="0"/>
      <vel value="0.0405834202" flag="0"/>
      <psa03 value="0.1711892684" flag="0"/>
      <psa10 value="0.0826500094" flag="0"/>
      <psa30 value="0.0030519031" flag="0"/>
    </comp>
    <comp name="--.HHN">
      <acc value="0.0983465889" flag="0"/>
      <vel value="0.0762514814" flag="0"/>
      <psa03 value="0.2063959194" flag="0"/>
      <psa10 value="0.0872222577" flag="0"/>
      <psa30 value="0.0057927053" flag="0"/>
    </comp>
  </station>
  <station code="ARGN" name="ARGN" netid="KO" insttype="CMG-6T" commtype="DIG" lat="38.7763" lon="38.2639">
    <comp name="--.HHE">
      <acc value="0.2495955255" flag="0"/>
      <vel value="0.0757705444" flag="0"/>
      <psa03 value="0.2368575574" flag="0"/>
      <psa10 value="0.0453228868" flag="0"/>
      <psa30 value="0.0023461762" flag="0"/>
    </comp>
    <comp name="--.HHN">
      <acc value="0.3057596295" flag="0"/>
      <vel value="0.0689869699" flag="0"/>
      <psa03 value="0.1731470128" flag="0"/>
      <psa10 value="0.0356282915" flag="0"/>
      <psa30 value="0.0019849628" flag="0"/>
    </comp>
    <comp name="--.HHZ">
      <acc value="0.1787768950" flag="0"/>
      <vel value="0.0500569523" flag="0"/>
      <psa03 value="0.2027271912" flag="0"/>
      <psa10 value="0.0401352261" flag="0"/>
      <psa30 value="0.0012797955" flag="0"/>
    </comp>
  </station>
  <station code="ARPRA" name="ARPRA" netid="KO" insttype="CMG-5T" commtype="DIG" lat="39.0929" lon="38.3356">
    <comp name="--.HNZ">
      <acc value="0.1679769103" flag="0"/>
      <vel value="0.0538934662" flag="0"/>
      <psa03 value="0.3403642114" flag="0"/>
      <psa10 value="0.0315406405" flag="0"/>
      <psa30 value="0.0019598553" flag="0"/>
    </comp>
    <comp name="--.HNE">
      <acc value="0.2694782930" flag="0"/>
      <vel value="0.1127423024" flag="0"/>
      <psa03 value="0.9385480305" flag="0"/>
      <psa10 value="0.0717264275" flag="0"/>
      <psa30 value="0.0053131990" flag="0"/>
    </comp>
    <comp name="--.HNN">
      <acc value="0.3464953228" flag="0"/>
      <vel value="0.1508546753" flag="0"/>
      <psa03 value="1.0236856485" flag="0"/>
      <psa10 value="0.0767306022" flag="0"/>
      <psa30 value="0.0046504669" flag="0"/>
    </comp>
  </station>
  <station code="DARE" name="DARE" netid="KO" insttype="CMG-3ESP" commtype="DIG" lat="38.5712" lon="37.4832">
    <comp name="--.HHZ">
      <acc value="0.0131404293" flag="0"/>
      <vel value="0.0131127312" flag="0"/>
      <psa03 value="0.0335093360" flag="0"/>
      <psa10 value="0.0198018212" flag="0"/>
      <psa30 value="0.0020778152" flag="0"/>
    </comp>
  </station>
  <station code="DIVR" name="DIVR" netid="KO" insttype="CMG-6T" commtype="DIG" lat="39.3562" lon="38.1237">
    <comp name="--.HHZ">
      <acc value="0.0507493391" flag="0"/>
      <vel value="0.0191713315" flag="0"/>
      <psa03 value="0.0998025363" flag="0"/>
      <psa10 value="0.0135168291" flag="0"/>
      <psa30 value="0.0010209450" flag="0"/>
    </comp>
    <comp name="--.HHN">
      <acc value="0.0631042120" flag="0"/>
      <vel value="0.0246896380" flag="0"/>
      <psa03 value="0.1317724154" flag="0"/>
      <psa10 value="0.0154519975" flag="0"/>
      <psa30 value="0.0013932467" flag="0"/>
    </comp>
    <comp name="--.HHE">
      <acc value="0.0469733420" flag="0"/>
      <vel value="0.0205023083" flag="0"/>
      <psa03 value="0.1124903266" flag="0"/>
      <psa10 value="0.0154920695" flag="0"/>
      <psa30 value="0.0018839402" flag="0"/>
    </comp>
  </station>
  <station code="DYBB" name="DYBB" netid="KO" insttype="CMG-3T" commtype="DIG" lat="37.9532" lon="40.1393">
    <comp name="--.HHE">
      <acc value="0.0610315817" flag="0"/>
      <vel value="0.0349176259" flag="0"/>
      <psa03 value="0.0930816629" flag="0"/>
      <psa10 value="0.0360186975" flag="0"/>
      <psa30 value="0.0075460520" flag="0"/>
    </comp>
    <comp name="--.HHN">
      <acc value="0.0639786829" flag="0"/>
      <vel value="0.0232672721" flag="0"/>
      <psa03 value="0.1150260736" flag="0"/>
      <psa10 value="0.0235802760" flag="0"/>
      <psa30 value="0.0035586927" flag="0"/>
    </comp>
    <comp name="--.HHZ">
      <acc value="0.0360983013" flag="0"/>
      <vel value="0.0230283969" flag="0"/>
      <psa03 value="0.0629336128" flag="0"/>
      <psa10 value="0.0219201839" flag="0"/>
      <psa30 value="0.0046603062" flag="0"/>
    </comp>
  </station>
  <station code="ERZN" name="ERZN" netid="KO" insttype="CMG-3ESP" commtype="DIG" lat="39.5867" lon="39.722">
    <comp name="--.HHZ">
      <acc value="0.0072043633" flag="0"/>
      <vel value="0.0055817105" flag="0"/>
      <psa03 value="0.0146717000" flag="0"/>
      <psa10 value="0.0064173965" flag="0"/>
      <psa30 value="0.0012660112" flag="0"/>
    </comp>
    <comp name="--.HHN">
      <acc value="0.0090435631" flag="0"/>
      <vel value="0.0068305611" flag="0"/>
      <psa03 value="0.0223223029" flag="0"/>
      <psa10 value="0.0079498269" flag="0"/>
      <psa30 value="0.0013038928" flag="0"/>
    </comp>
    <comp name="--.HHE">
      <acc value="0.0086491566" flag="0"/>
      <vel value="0.0080907024" flag="0"/>
      <psa03 value="0.0196360099" flag="0"/>
      <psa10 value="0.0089387490" flag="0"/>
      <psa30 value="0.0018068004" flag="0"/>
    </comp>
  </station>
  <station code="KBAN" name="KBAN" netid="KO" insttype="CMG-6T" commtype="DIG" lat="38.797" lon="38.7278">
    <comp name="--.HHE">
      <acc value="0.7679761863" flag="0"/>
      <vel value="0.2134765363" flag="0"/>
      <psa03 value="0.7536894489" flag="0"/>
      <psa10 value="0.1900741293" flag="0"/>
      <psa30 value="0.0098405325" flag="0"/>
    </comp>
    <comp name="--.HHN">
      <acc value="0.6586091228" flag="0"/>
      <vel value="0.0827302194" flag="0"/>
      <psa03 value="0.3692740316" flag="0"/>
      <psa10 value="0.0566792692" flag="0"/>
      <psa30 value="0.0033661658" flag="0"/>
    </comp>
    <comp name="--.HHZ">
      <acc value="0.3825141885" flag="0"/>
      <vel value="0.1070161529" flag="0"/>
      <psa03 value="0.5726527412" flag="0"/>
      <psa10 value="0.0558167539" flag="0"/>
      <psa30 value="0.0026593098" flag="0"/>
    </comp>
  </station>
  <station code="KMAH" name="KMAH" netid="KO" insttype="CMG-3ESP" commtype="DIG" lat="39.6082" lon="39.0275">
    <comp name="--.HHE">
      <acc value="0.0328573263" flag="0"/>
      <vel value="0.0196965984" flag="0"/>
      <psa03 value="0.0624817796" flag="0"/>
      <psa10 value="0.0246030599" flag="0"/>
      <psa30 value="0.0031374693" flag="0"/>
    </comp>
    <comp name="--.HHN">
      <acc value="0.0369326243" flag="0"/>
      <vel value="0.0189337312" flag="0"/>
      <psa03 value="0.0830434326" flag="0"/>
      <psa10 value="0.0407050205" flag="0"/>
      <psa30 value="0.0024908123" flag="0"/>
    </comp>
    <comp name="--.HHZ">
      <acc value="0.0149220091" flag="0"/>
      <vel value="0.0178546873" flag="0"/>
      <psa03 value="0.0351851110" flag="0"/>
      <psa10 value="0.0535380904" flag="0"/>
      <psa30 value="0.0019089524" flag="0"/>
    </comp>
  </station>
  <station code="MLTY" name="MLTY" netid="KO" insttype="CMG-6T" commtype="DIG" lat="38.3223" lon="38.4407">
    <comp name="--.HHE">
      <acc value="0.5621830605" flag="0"/>
      <vel value="0.0957815444" flag="0"/>
      <psa03 value="0.3147709981" flag="0"/>
      <psa10 value="0.0846596553" flag="0"/>
      <psa30 value="0.0054021801" flag="0"/>
    </comp>
    <comp name="--.HHN">
      <acc value="0.7834464977" flag="0"/>
      <vel value="0.1521678868" flag="0"/>
      <psa03 value="0.4549476691" flag="0"/>
      <psa10 value="0.1180986174" flag="0"/>
      <psa30 value="0.0077790206" flag="0"/>
    </comp>
    <comp name="--.HHZ">
      <acc value="0.4680439775" flag="0"/>
      <vel value="0.1277990372" flag="0"/>
      <psa03 value="0.4668824362" flag="0"/>
      <psa10 value="0.0746272562" flag="0"/>
      <psa30 value="0.0038175191" flag="0"/>
    </comp>
  </station>
  <station code="NURH" name="NURH" netid="KO" insttype="CMG-6T" commtype="DIG" lat="37.9693" lon="37.4363">
    <comp name="--.HHN">
      <acc value="0.0350090830" flag="0"/>
      <vel value="0.0296907530" flag="0"/>
      <psa03 value="0.1003725502" flag="0"/>
      <psa10 value="0.0623460365" flag="0"/>
      <psa30 value="0.0028633491" flag="0"/>
    </comp>
    <comp name="--.HHE">
      <acc value="0.0262914237" flag="0"/>
      <vel value="0.0169708182" flag="0"/>
      <psa03 value="0.0748097312" flag="0"/>
      <psa10 value="0.0353468770" flag="0"/>
      <psa30 value="0.0016308072" flag="0"/>
    </comp>
    <comp name="--.HHZ">
      <acc value="0.0190078756" flag="0"/>
      <vel value="0.0176086553" flag="0"/>
      <psa03 value="0.0439809166" flag="0"/>
      <psa10 value="0.0430079331" flag="0"/>
      <psa30 value="0.0022150251" flag="0"/>
    </comp>
  </station>
  <station code="SINE" name="SINE" netid="KO" insttype="CMG-6T" commtype="DIG" lat="39.1636" lon="39.3871">
    <comp name="--.HHE">
      <acc value="0.0436470000" flag="0"/>
      <vel value="0.0210069825" flag="0"/>
      <psa03 value="0.0772311301" flag="0"/>
      <psa10 value="0.0085033339" flag="0"/>
      <psa30 value="0.0005986763" flag="0"/>
    </comp>
    <comp name="--.HHN">
      <acc value="0.0558185913" flag="0"/>
      <vel value="0.0253408595" flag="0"/>
      <psa03 value="0.1529879999" flag="0"/>
      <psa10 value="0.0103044917" flag="0"/>
      <psa30 value="0.0005325032" flag="0"/>
    </comp>
    <comp name="--.HHZ">
      <acc value="0.0315825948" flag="0"/>
      <vel value="0.0111911789" flag="0"/>
      <psa03 value="0.0791357542" flag="0"/>
      <psa10 value="0.0136077624" flag="0"/>
      <psa30 value="0.0004583397" flag="0"/>
    </comp>
  </station>
  <station code="SVRC" name="SVRC" netid="KO" insttype="CMG-3T" commtype="DIG" lat="38.3775" lon="39.306">
    <comp name="--.HHE">
      <acc value="0.4167545269" flag="0"/>
      <vel value="0.1918475691" flag="0"/>
      <psa03 value="0.9172944832" flag="0"/>
      <psa10 value="0.1448142294" flag="0"/>
      <psa30 value="0.0094120661" flag="0"/>
    </comp>
    <comp name="--.HHN">
      <acc value="0.4163090953" flag="0"/>
      <vel value="0.1875085004" flag="0"/>
      <psa03 value="0.9918747284" flag="0"/>
      <psa10 value="0.1279250221" flag="0"/>
      <psa30 value="0.0120977835" flag="0"/>
    </comp>
    <comp name="--.HHZ">
      <acc value="0.4809645206" flag="0"/>
      <vel value="0.1584828761" flag="0"/>
      <psa03 value="0.8142261345" flag="0"/>
      <psa10 value="0.1161125189" flag="0"/>
      <psa30 value="0.0106473169" flag="0"/>
    </comp>
  </station>
  <station code="URFA" name="URFA" netid="KO" insttype="CMG-3ESP" commtype="DIG" lat="37.4409" lon="38.8213">
    <comp name="--.HHE">
      <acc value="0.2772192965" flag="0"/>
      <vel value="0.0966338229" flag="0"/>
      <psa03 value="0.6081271662" flag="0"/>
      <psa10 value="0.0385458865" flag="0"/>
      <psa30 value="0.0053937537" flag="0"/>
    </comp>
    <comp name="--.HHZ">
      <acc value="0.1162557408" flag="0"/>
      <vel value="0.0338478422" flag="0"/>
      <psa03 value="0.1300529120" flag="0"/>
      <psa10 value="0.0176206246" flag="0"/>
      <psa30 value="0.0017809985" flag="0"/>
    </comp>
  </station>
</stationlist>
