<?xml version="1.0" encoding="UTF-8" standalone="yes"?>
<!DOCTYPE earthquake SYSTEM "stationlist.dtd">
<stationlist created="" xmlns="ch.ethz.sed.shakemap.usgs.xml">
  <station code="AKDM" name="AKDM" netid="KO" insttype="CMG-3ESP" lat="38.3285" lon="42.98">
    <comp name="--.HHZ">
      <acc value="0.0572792495" flag="0"/>
      <vel value="0.1698564740" flag="0"/>
      <psa03 value="0.0833003089" flag="0"/>
      <psa10 value="0.1669302216" flag="0"/>
      <psa30 value="0.0694577487" flag="0"/>
    </comp>
    <comp name="--.HHE">
      <acc value="0.0891404722" flag="0"/>
      <vel value="0.1736180139" flag="0"/>
      <psa03 value="0.1250658278" flag="0"/>
      <psa10 value="0.3839135195" flag="0"/>
      <psa30 value="0.0707568244" flag="0"/>
    </comp>
  </station>
  <station code="ERCV" name="ERCV" netid="KO" insttype="CMG-5T" lat="39.0198" lon="43.3381">
    <comp name="--.HNE">
      <acc value="0.5358407796" flag="0"/>
      <vel value="0.9799534565" flag="0"/>
      <psa03 value="0.6589821844" flag="0"/>
      <psa10 value="2.1016719147" flag="0"/>
      <psa30 value="0.3575793808" flag="0"/>
    </comp>
    <comp name="--.HNN">
      <acc value="0.8046906077" flag="0"/>
      <vel value="1.1952634707" flag="0"/>
      <psa03 value="1.0980063442" flag="0"/>
      <psa10 value="2.2729351957" flag="0"/>
      <psa30 value="0.4329664170" flag="0"/>
    </comp>
    <comp name="--.HNZ">
      <acc value="0.5473082858" flag="0"/>
      <vel value="0.9469616269" flag="0"/>
      <psa03 value="0.6055989980" flag="0"/>
      <psa10 value="1.7969264567" flag="0"/>
      <psa30 value="0.1322226500" flag="0"/>
    </comp>
  </station>
  <station code="TASB" name="TASB" netid="KO" insttype="CMG-3T" lat="39.9838" lon="44.2384">
    <comp name="--.HHN">
      <acc value="0.0834803299" flag="0"/>
      <vel value="0.2747951632" flag="0"/>
      <psa03 value="0.1016038412" flag="0"/>
      <psa10 value="0.1978120447" flag="0"/>
      <psa30 value="0.1225321581" flag="0"/>
    </comp>
    <comp name="--.HHZ">
      <acc value="0.0996682954" flag="0"/>
      <vel value="0.2911033026" flag="0"/>
      <psa03 value="0.1104018607" flag="0"/>
      <psa10 value="0.1823726655" flag="0"/>
      <psa30 value="0.1761082547" flag="0"/>
    </comp>
  </station>
</stationlist>
