<?xml version="1.0" encoding="UTF-8" standalone="yes"?>
<!DOCTYPE earthquake SYSTEM "stationlist.dtd">
<stationlist created="" xmlns="ch.ethz.sed.shakemap.usgs.xml">
  <station code="AKDM" name="AKDM" netid="KO" insttype="CMG-3ESP" lat="38.3285" lon="42.98">
    <comp name="--.HHE">
      <acc value="0.0891404719" flag="0"/>
      <vel value="0.1736175385" flag="0"/>
      <psa03 value="0.1250658273" flag="0"/>
      <psa10 value="0.3839135200" flag="0"/>
      <psa30 value="0.0707568309" flag="0"/>
    </comp>
    <comp name="--.HHZ">
      <acc value="0.0572792498" flag="0"/>
      <vel value="0.1698566227" flag="0"/>
      <psa03 value="0.0833003091" flag="0"/>
      <psa10 value="0.1669302214" flag="0"/>
      <psa30 value="0.0694577488" flag="0"/>
    </comp>
    <comp name="--.HHN">
      <acc value="0.1725099610" flag="0"/>
      <vel value="0.1701046608" flag="0"/>
      <psa03 value="0.1420293190" flag="0"/>
      <psa10 value="0.2501273521" flag="0"/>
      <psa30 value="0.0346874049" flag="0"/>
    </comp>
  </station>
  <station code="ERCV" name="ERCV" netid="KO" insttype="CMG-5T" lat="39.0198" lon="43.3381">
    <comp name="--.HNZ">
      <acc value="0.5473082861" flag="0"/>
      <vel value="0.9469616757" flag="0"/>
      <psa03 value="0.6055989980" flag="0"/>
      <psa10 value="1.7969264567" flag="0"/>
      <psa30 value="0.1322231652" flag="0"/>
    </comp>
    <comp name="--.HNN">
      <acc value="0.8046906098" flag="0"/>
      <vel value="1.1952635417" flag="0"/>
      <psa03 value="1.0980063442" flag="0"/>
      <psa10 value="2.2729351957" flag="0"/>
      <psa30 value="0.4329664216" flag="0"/>
    </comp>
    <comp name="--.HNE">
      <acc value="0.5358407748" flag="0"/>
      <vel value="0.9799530742" flag="0"/>
      <psa03 value="0.6589821844" flag="0"/>
      <psa10 value="2.1016719147" flag="0"/>
      <psa30 value="0.3575793524" flag="0"/>
    </comp>
  </station>
  <station code="TASB" name="TASB" netid="KO" insttype="CMG-3T" lat="39.9838" lon="44.2384">
    <comp name="--.HHE">
      <acc value="0.6070320902" flag="0"/>
      <vel value="0.3968214109" flag="0"/>
      <psa03 value="0.1517786516" flag="0"/>
      <psa10 value="0.3197867619" flag="0"/>
      <psa30 value="0.2935555003" flag="0"/>
    </comp>
    <comp name="--.HHZ">
      <acc value="0.0996682952" flag="0"/>
      <vel value="0.2911033973" flag="0"/>
      <psa03 value="0.1104018606" flag="0"/>
      <psa10 value="0.1823726654" flag="0"/>
      <psa30 value="0.1761082593" flag="0"/>
    </comp>
    <comp name="--.HHN">
      <acc value="0.0834803288" flag="0"/>
      <vel value="0.2747950295" flag="0"/>
      <psa03 value="0.1016038412" flag="0"/>
      <psa10 value="0.1978120448" flag="0"/>
      <psa30 value="0.1142835547" flag="0"/>
    </comp>
  </station>
</stationlist>
