<stationlist created="1778205397">
	<station code="3502" name="3502" netid="TK" source="Turkish National Strong Motion Network (TNSMN)" insttype="" lat="38.45514" lon="27.22673">
		<comp name="00.HNE" depth="None">
			<acc value="0.16695821632459" flag="0"/>
			<vel value="0.0823874115635207" flag="0"/>
			<psa03 value="0.652833536767203" flag="0"/>
			<psa10 value="0.096087468089268" flag="0"/>
			<psa30 value="0.00597845364833347" flag="0"/>
		</comp>
		<comp name="00.HNN" depth="None">
			<acc value="0.163095805597305" flag="0"/>
			<vel value="0.0994603065865534" flag="0"/>
			<psa03 value="0.293195679969535" flag="0"/>
			<psa10 value="0.0745722831927397" flag="0"/>
			<psa30 value="0.00851309965325856" flag="0"/>
		</comp>
		<comp name="00.HNZ" depth="None">
			<acc value="0.0753758554181553" flag="0"/>
			<vel value="0.0346978354557999" flag="0"/>
			<psa03 value="0.156195043304387" flag="0"/>
			<psa10 value="0.0468880428476841" flag="0"/>
			<psa30 value="0.00189214791788671" flag="0"/>
		</comp>
	</station>
</stationlist>
