<?xml version="1.0" encoding="UTF-8" standalone="yes"?>
<!DOCTYPE earthquake SYSTEM "stationlist.dtd">
<stationlist created="" xmlns="ch.ethz.sed.shakemap.usgs.xml">
  <station code="THERA" name="THERA" netid="GE" insttype="STS-2/N" lat="36.367" lon="25.4753">
    <comp name="--.HHE">
      <acc value="0.2700651226" flag="0"/>
      <vel value="0.1035199723" flag="0"/>
      <psa03 value="0.3772142063" flag="0"/>
      <psa10 value="0.0532337197" flag="0"/>
      <psa30 value="0.0078420495" flag="0"/>
    </comp>
    <comp name="--.HHZ">
      <acc value="0.2365313369" flag="0"/>
      <vel value="0.0860306083" flag="0"/>
      <psa03 value="0.2937623195" flag="0"/>
      <psa10 value="0.0724845943" flag="0"/>
      <psa30 value="0.0060530774" flag="0"/>
    </comp>
    <comp name="--.HHN">
      <acc value="0.2265850182" flag="0"/>
      <vel value="0.0626047394" flag="0"/>
      <psa03 value="0.2013458347" flag="0"/>
      <psa10 value="0.0475172630" flag="0"/>
      <psa30 value="0.0048597165" flag="0"/>
    </comp>
  </station>
</stationlist>
