<?xml version="1.0" encoding="UTF-8" standalone="yes"?>
<!DOCTYPE earthquake SYSTEM "stationlist.dtd">
<stationlist created="" xmlns="ch.ethz.sed.shakemap.usgs.xml">
  <station code="THERA" name="THERA" netid="GE" insttype="STS-2/N" lat="36.367" lon="25.4753">
    <comp name="--.HHE">
      <acc value="0.2700651227" flag="0"/>
      <vel value="0.1035199744" flag="0"/>
      <psa03 value="0.3772142063" flag="0"/>
      <psa10 value="0.0532337258" flag="0"/>
      <psa30 value="0.0078436094" flag="0"/>
    </comp>
    <comp name="--.HHZ">
      <acc value="0.2365313367" flag="0"/>
      <vel value="0.0860306126" flag="0"/>
      <psa03 value="0.2937623195" flag="0"/>
      <psa10 value="0.0724845421" flag="0"/>
      <psa30 value="0.0060533393" flag="0"/>
    </comp>
    <comp name="--.HHN">
      <acc value="0.2265850182" flag="0"/>
      <vel value="0.0626047363" flag="0"/>
      <psa03 value="0.2013458347" flag="0"/>
      <psa10 value="0.0475172810" flag="0"/>
      <psa30 value="0.0048599021" flag="0"/>
    </comp>
  </station>
  <station code="SERI" name="SERI" netid="HA" insttype="30" lat="37.1609" lon="24.4853">
    <comp name="--.HHZ">
      <acc value="0.0401572779" flag="0"/>
      <vel value="0.0181642115" flag="0"/>
      <psa03 value="0.0581767285" flag="0"/>
      <psa10 value="0.0079527851" flag="0"/>
      <psa30 value="0.0028669616" flag="0"/>
    </comp>
    <comp name="--.HHE">
      <acc value="0.0454181460" flag="0"/>
      <vel value="0.0172675680" flag="0"/>
      <psa03 value="0.0724619835" flag="0"/>
      <psa10 value="0.0078499725" flag="0"/>
      <psa30 value="0.0014424611" flag="0"/>
    </comp>
    <comp name="--.HHN">
      <acc value="0.0586697874" flag="0"/>
      <vel value="0.0199303119" flag="0"/>
      <psa03 value="0.0804351699" flag="0"/>
      <psa10 value="0.0168107676" flag="0"/>
      <psa30 value="0.0014212084" flag="0"/>
    </comp>
  </station>
  <station code="SNT1" name="SNT1" netid="HA" insttype="30" lat="36.4159" lon="25.4282">
    <comp name="--.HHE">
      <acc value="0.2478470317" flag="0"/>
      <vel value="0.1373472580" flag="0"/>
      <psa03 value="0.4136685391" flag="0"/>
      <psa10 value="0.1800539477" flag="0"/>
      <psa30 value="0.0247166128" flag="0"/>
    </comp>
    <comp name="--.HHN">
      <acc value="0.2660658091" flag="0"/>
      <vel value="0.2037018031" flag="0"/>
      <psa03 value="0.5041364424" flag="0"/>
      <psa10 value="0.2800845533" flag="0"/>
      <psa30 value="0.0251977597" flag="0"/>
    </comp>
    <comp name="--.HHZ">
      <acc value="0.2330889537" flag="0"/>
      <vel value="0.0633654364" flag="0"/>
      <psa03 value="0.3747673498" flag="0"/>
      <psa10 value="0.1072319314" flag="0"/>
      <psa30 value="0.0091738535" flag="0"/>
    </comp>
  </station>
  <station code="KNSS" name="KNSS" netid="HC" insttype="60" lat="35.3042" lon="25.1802">
    <comp name="--.HHE">
      <acc value="0.0000000000" flag="0"/>
      <vel value="-100.0000000000" flag="0"/>
      <psa03 value="0.0000000000" flag="0"/>
      <psa10 value="0.0000000000" flag="0"/>
      <psa30 value="0.0000000000" flag="0"/>
    </comp>
    <comp name="--.HHZ">
      <acc value="0.0177866034" flag="0"/>
      <vel value="0.0125399256" flag="0"/>
      <psa03 value="0.0397899014" flag="0"/>
      <psa10 value="0.0199503280" flag="0"/>
      <psa30 value="0.0011518536" flag="0"/>
    </comp>
    <comp name="--.HHN">
      <acc value="0.0222958660" flag="0"/>
      <vel value="0.0131162334" flag="0"/>
      <psa03 value="0.0569235358" flag="0"/>
      <psa10 value="0.0136343124" flag="0"/>
      <psa30 value="0.0013529267" flag="0"/>
    </comp>
  </station>
  <station code="NAX1" name="NAX1" netid="HI" insttype="CMG-5TD,ACCELEROMETER,GURALP" lat="37.1014" lon="25.3741">
    <comp name="--.HNN">
      <acc value="0.1489014086" flag="0"/>
      <vel value="0.0366892405" flag="0"/>
      <psa03 value="0.1360369740" flag="0"/>
      <psa10 value="0.0091479086" flag="0"/>
      <psa30 value="0.0023556128" flag="0"/>
    </comp>
    <comp name="--.HNZ">
      <acc value="0.0827231615" flag="0"/>
      <vel value="0.0147415093" flag="0"/>
      <psa03 value="0.0555280941" flag="0"/>
      <psa10 value="0.0081582659" flag="0"/>
      <psa30 value="0.0025494513" flag="0"/>
    </comp>
    <comp name="--.HNE">
      <acc value="0.1602040518" flag="0"/>
      <vel value="0.0343854645" flag="0"/>
      <psa03 value="0.0911336931" flag="0"/>
      <psa10 value="0.0108413003" flag="0"/>
      <psa30 value="0.0016920700" flag="0"/>
    </comp>
  </station>
  <station code="SFR2" name="SFR2" netid="HI" insttype="unknown" lat="36.3998" lon="25.4382">
    <comp name="--.HNN">
      <acc value="0.7660761495" flag="0"/>
      <vel value="0.3130682166" flag="0"/>
      <psa03 value="1.8066579971" flag="0"/>
      <psa10 value="0.3928022655" flag="0"/>
      <psa30 value="0.0179574760" flag="0"/>
    </comp>
    <comp name="--.HNE">
      <acc value="0.6488630892" flag="0"/>
      <vel value="0.3267001618" flag="0"/>
      <psa03 value="2.4301139642" flag="0"/>
      <psa10 value="0.2671984145" flag="0"/>
      <psa30 value="0.0299781282" flag="0"/>
    </comp>
    <comp name="--.HNZ">
      <acc value="0.9485043583" flag="0"/>
      <vel value="0.2519874335" flag="0"/>
      <psa03 value="0.9416742441" flag="0"/>
      <psa10 value="0.1651006565" flag="0"/>
      <psa30 value="0.0127923126" flag="0"/>
    </comp>
  </station>
  <station code="AMGA" name="AMGA" netid="HL" insttype="CMG-5TD" lat="36.8316" lon="25.8938">
    <comp name="00.HNE">
      <acc value="0.1385670435" flag="0"/>
      <vel value="0.0307921995" flag="0"/>
      <psa03 value="0.1567296145" flag="0"/>
      <psa10 value="0.0214457195" flag="0"/>
      <psa30 value="0.0052863845" flag="0"/>
    </comp>
    <comp name="00.HNN">
      <acc value="0.1719646876" flag="0"/>
      <vel value="0.0475150613" flag="0"/>
      <psa03 value="0.1293446140" flag="0"/>
      <psa10 value="0.0180537240" flag="0"/>
      <psa30 value="0.0068372143" flag="0"/>
    </comp>
    <comp name="00.HNZ">
      <acc value="0.1221384148" flag="0"/>
      <vel value="0.0338044793" flag="0"/>
      <psa03 value="0.1009419829" flag="0"/>
      <psa10 value="0.0244615913" flag="0"/>
      <psa30 value="0.0054447326" flag="0"/>
    </comp>
  </station>
  <station code="MHLO" name="MHLO" netid="HL" insttype="20" lat="36.6898" lon="24.4017">
    <comp name="--.HHE">
      <acc value="0.1198731849" flag="0"/>
      <vel value="0.0748716299" flag="0"/>
      <psa03 value="0.2484269247" flag="0"/>
      <psa10 value="0.1174318554" flag="0"/>
      <psa30 value="0.0074570594" flag="0"/>
    </comp>
    <comp name="--.HHZ">
      <acc value="0.0694985254" flag="0"/>
      <vel value="0.0430253780" flag="0"/>
      <psa03 value="0.1549210354" flag="0"/>
      <psa10 value="0.0605690685" flag="0"/>
      <psa30 value="0.0036739352" flag="0"/>
    </comp>
    <comp name="--.HHN">
      <acc value="0.1125547540" flag="0"/>
      <vel value="0.0681562335" flag="0"/>
      <psa03 value="0.2065795305" flag="0"/>
      <psa10 value="0.1159280290" flag="0"/>
      <psa30 value="0.0050963545" flag="0"/>
    </comp>
  </station>
  <station code="MILA" name="MILA" netid="HL" insttype="CMG-5" lat="36.7429" lon="24.4282">
    <comp name="00.HNN">
      <acc value="0.1700983303" flag="0"/>
      <vel value="0.1267709556" flag="0"/>
      <psa03 value="0.4748322214" flag="0"/>
      <psa10 value="0.0841000638" flag="0"/>
      <psa30 value="0.0069253352" flag="0"/>
    </comp>
    <comp name="00.HNE">
      <acc value="0.1874499569" flag="0"/>
      <vel value="0.0851335000" flag="0"/>
      <psa03 value="0.3010681127" flag="0"/>
      <psa10 value="0.0700249066" flag="0"/>
      <psa30 value="0.0055209886" flag="0"/>
    </comp>
    <comp name="00.HNZ">
      <acc value="0.1363070483" flag="0"/>
      <vel value="0.0671627332" flag="0"/>
      <psa03 value="0.2230426074" flag="0"/>
      <psa10 value="0.0482865613" flag="0"/>
      <psa30 value="0.0041717350" flag="0"/>
    </comp>
  </station>
  <station code="NISR" name="NISR" netid="HL" insttype="65535" lat="36.6106" lon="27.131">
    <comp name="--.HHE">
      <acc value="0.0000000000" flag="0"/>
      <vel value="-100.0000000000" flag="0"/>
      <psa03 value="0.0000000000" flag="0"/>
      <psa10 value="0.0000000000" flag="0"/>
      <psa30 value="0.0000000000" flag="0"/>
    </comp>
    <comp name="--.HHN">
      <acc value="0.0149022435" flag="0"/>
      <vel value="0.0145449034" flag="0"/>
      <psa03 value="0.0621764289" flag="0"/>
      <psa10 value="0.0168626950" flag="0"/>
      <psa30 value="0.0042346132" flag="0"/>
    </comp>
    <comp name="--.HHZ">
      <acc value="0.0107047062" flag="0"/>
      <vel value="0.0071567507" flag="0"/>
      <psa03 value="0.0347283925" flag="0"/>
      <psa10 value="0.0148818237" flag="0"/>
      <psa30 value="0.0011944425" flag="0"/>
    </comp>
  </station>
  <station code="NISR2" name="NISR2" netid="HL" insttype="120" lat="36.5744" lon="27.1767">
    <comp name="--.HHE">
      <acc value="0.0245496467" flag="0"/>
      <vel value="0.0319392125" flag="0"/>
      <psa03 value="0.0748967620" flag="0"/>
      <psa10 value="0.0568941656" flag="0"/>
      <psa30 value="0.0042516285" flag="0"/>
    </comp>
    <comp name="--.HHZ">
      <acc value="0.0081962989" flag="0"/>
      <vel value="0.0056724902" flag="0"/>
      <psa03 value="0.0334917718" flag="0"/>
      <psa10 value="0.0096557234" flag="0"/>
      <psa30 value="0.0012624468" flag="0"/>
    </comp>
    <comp name="--.HHN">
      <acc value="0.0332400456" flag="0"/>
      <vel value="0.0346776960" flag="0"/>
      <psa03 value="0.1274406246" flag="0"/>
      <psa10 value="0.0568883740" flag="0"/>
      <psa30 value="0.0048936244" flag="0"/>
    </comp>
  </station>
  <station code="SANT" name="SANT" netid="HL" insttype="30" lat="36.3705" lon="25.4593">
    <comp name="--.HHE">
      <acc value="1.0438314458" flag="0"/>
      <vel value="0.2383426542" flag="0"/>
      <psa03 value="0.7632778383" flag="0"/>
      <psa10 value="0.1022395488" flag="0"/>
      <psa30 value="0.0123391840" flag="0"/>
    </comp>
    <comp name="--.HHN">
      <acc value="0.7101669487" flag="0"/>
      <vel value="0.1425784513" flag="0"/>
      <psa03 value="0.3316518974" flag="0"/>
      <psa10 value="0.0941673315" flag="0"/>
      <psa30 value="0.0081719085" flag="0"/>
    </comp>
    <comp name="--.HHZ">
      <acc value="0.7267055914" flag="0"/>
      <vel value="0.1221923843" flag="0"/>
      <psa03 value="0.4277956373" flag="0"/>
      <psa10 value="0.0762063042" flag="0"/>
      <psa30 value="0.0080102613" flag="0"/>
    </comp>
  </station>
  <station code="SAP3" name="SAP3" netid="HL" insttype="65535" lat="36.4356" lon="25.3454">
    <comp name="--.HHE">
      <acc value="0.9448393515" flag="0"/>
      <vel value="0.2826332336" flag="0"/>
      <psa03 value="0.8958259173" flag="0"/>
      <psa10 value="0.1861251397" flag="0"/>
      <psa30 value="0.0286577920" flag="0"/>
    </comp>
    <comp name="--.HHN">
      <acc value="0.8682120006" flag="0"/>
      <vel value="0.3090201078" flag="0"/>
      <psa03 value="0.9869912169" flag="0"/>
      <psa10 value="0.1703893994" flag="0"/>
      <psa30 value="0.0192389431" flag="0"/>
    </comp>
    <comp name="--.HHZ">
      <acc value="0.5127222930" flag="0"/>
      <vel value="0.1430255585" flag="0"/>
      <psa03 value="0.8012755832" flag="0"/>
      <psa10 value="0.0581626389" flag="0"/>
      <psa30 value="0.0081266301" flag="0"/>
    </comp>
  </station>
  <station code="THERA" name="THERA" netid="HL" insttype="120" lat="36.367" lon="25.4753">
    <comp name="--.HHE">
      <acc value="0.2761411983" flag="0"/>
      <vel value="0.1023691628" flag="0"/>
      <psa03 value="0.3668409241" flag="0"/>
      <psa10 value="0.0529919432" flag="0"/>
      <psa30 value="0.0078509498" flag="0"/>
    </comp>
    <comp name="--.HHN">
      <acc value="0.4390860665" flag="0"/>
      <vel value="0.1213440747" flag="0"/>
      <psa03 value="0.3907522526" flag="0"/>
      <psa10 value="0.0939426778" flag="0"/>
      <psa30 value="0.0097074000" flag="0"/>
    </comp>
    <comp name="--.HHZ">
      <acc value="0.2366752006" flag="0"/>
      <vel value="0.0843156334" flag="0"/>
      <psa03 value="0.2866589639" flag="0"/>
      <psa10 value="0.0722309442" flag="0"/>
      <psa30 value="0.0060479690" flag="0"/>
    </comp>
  </station>
  <station code="THRA" name="THRA" netid="HL" insttype="CMG-5" lat="36.415" lon="25.4324">
    <comp name="00.HNZ">
      <acc value="0.6025582536" flag="0"/>
      <vel value="0.3134287199" flag="0"/>
      <psa03 value="0.9296927477" flag="0"/>
      <psa10 value="0.2403396200" flag="0"/>
      <psa30 value="0.0152466018" flag="0"/>
    </comp>
    <comp name="00.HNE">
      <acc value="0.7547552483" flag="0"/>
      <vel value="0.4519180723" flag="0"/>
      <psa03 value="1.7268588006" flag="0"/>
      <psa10 value="0.4199409690" flag="0"/>
      <psa30 value="0.0486585266" flag="0"/>
    </comp>
    <comp name="00.HNN">
      <acc value="0.8634849053" flag="0"/>
      <vel value="0.4558698517" flag="0"/>
      <psa03 value="1.5765956696" flag="0"/>
      <psa10 value="0.8668793195" flag="0"/>
      <psa30 value="0.0428388058" flag="0"/>
    </comp>
  </station>
  <station code="TNSA" name="TNSA" netid="HL" insttype="CMG-5" lat="37.5394" lon="25.1631">
    <comp name="00.HNE">
      <acc value="0.0490290437" flag="0"/>
      <vel value="0.0135009995" flag="0"/>
      <psa03 value="0.0827938104" flag="0"/>
      <psa10 value="0.0043117158" flag="0"/>
      <psa30 value="0.0011566283" flag="0"/>
    </comp>
    <comp name="00.HNN">
      <acc value="0.0792189365" flag="0"/>
      <vel value="0.0229647695" flag="0"/>
      <psa03 value="0.0864699127" flag="0"/>
      <psa10 value="0.0100230157" flag="0"/>
      <psa30 value="0.0024717614" flag="0"/>
    </comp>
    <comp name="00.HNZ">
      <acc value="0.0490801268" flag="0"/>
      <vel value="0.0189277186" flag="0"/>
      <psa03 value="0.0639487845" flag="0"/>
      <psa10 value="0.0130301678" flag="0"/>
      <psa30 value="0.0020215190" flag="0"/>
    </comp>
  </station>
  <station code="AKRO" name="AKRO" netid="HT" insttype="Compact," lat="36.3584" lon="25.3967">
    <comp name="--.HHE">
      <acc value="1.1362126788" flag="0"/>
      <vel value="0.5641789221" flag="0"/>
      <psa03 value="2.1219186959" flag="0"/>
      <psa10 value="0.3326898727" flag="0"/>
      <psa30 value="0.0199538400" flag="0"/>
    </comp>
    <comp name="--.HHZ">
      <acc value="0.6498099663" flag="0"/>
      <vel value="0.2274308917" flag="0"/>
      <psa03 value="0.6606728735" flag="0"/>
      <psa10 value="0.1006055768" flag="0"/>
      <psa30 value="0.0128787060" flag="0"/>
    </comp>
    <comp name="--.HHN">
      <acc value="1.1206376942" flag="0"/>
      <vel value="0.2598308617" flag="0"/>
      <psa03 value="0.7640967177" flag="0"/>
      <psa10 value="0.1544055937" flag="0"/>
      <psa30 value="0.0130319948" flag="0"/>
    </comp>
  </station>
  <station code="CMBO" name="CMBO" netid="HT" insttype="120P," lat="36.4709" lon="25.4056">
    <comp name="--.HHE">
      <acc value="0.6015776236" flag="0"/>
      <vel value="0.2282912127" flag="0"/>
      <psa03 value="0.7714957012" flag="0"/>
      <psa10 value="0.2471518618" flag="0"/>
      <psa30 value="0.0229481666" flag="0"/>
    </comp>
    <comp name="--.HHN">
      <acc value="0.7858380669" flag="0"/>
      <vel value="0.5256877374" flag="0"/>
      <psa03 value="1.0801707270" flag="0"/>
      <psa10 value="0.5202906166" flag="0"/>
      <psa30 value="0.0295533812" flag="0"/>
    </comp>
    <comp name="--.HHZ">
      <acc value="0.5708078608" flag="0"/>
      <vel value="0.2096900176" flag="0"/>
      <psa03 value="1.4971827938" flag="0"/>
      <psa10 value="0.1365965510" flag="0"/>
      <psa30 value="0.0175324510" flag="0"/>
    </comp>
  </station>
</stationlist>
