<?xml version="1.0" encoding="UTF-8" standalone="yes"?>
<!DOCTYPE earthquake SYSTEM "stationlist.dtd">
<stationlist created="" xmlns="ch.ethz.sed.shakemap.usgs.xml">
  <station code="APE" name="APE" netid="GE" insttype="STS-2/N" lat="37.0727" lon="25.523">
    <comp name="--.HHZ">
      <acc value="0.0163123542" flag="0"/>
      <vel value="0.0095390605" flag="0"/>
      <psa03 value="0.0309868474" flag="0"/>
      <psa10 value="0.0202080609" flag="0"/>
      <psa30 value="0.0029792983" flag="0"/>
    </comp>
    <comp name="--.HHN">
      <acc value="0.0291696950" flag="0"/>
      <vel value="0.0112376368" flag="0"/>
      <psa03 value="0.0394664290" flag="0"/>
      <psa10 value="0.0159165938" flag="0"/>
      <psa30 value="0.0019277584" flag="0"/>
    </comp>
    <comp name="--.HHE">
      <acc value="0.0201570297" flag="0"/>
      <vel value="0.0125744539" flag="0"/>
      <psa03 value="0.0518864017" flag="0"/>
      <psa10 value="0.0270601569" flag="0"/>
      <psa30 value="0.0027388695" flag="0"/>
    </comp>
  </station>
  <station code="KARP" name="KARP" netid="GE" insttype="STS-2/N" lat="35.5471" lon="27.1611">
    <comp name="--.HHE">
      <acc value="0.6461143827" flag="0"/>
      <vel value="0.1680617692" flag="0"/>
      <psa03 value="0.5495763509" flag="0"/>
      <psa10 value="0.2112690927" flag="0"/>
      <psa30 value="0.0086470215" flag="0"/>
    </comp>
    <comp name="--.HHZ">
      <acc value="0.3388169165" flag="0"/>
      <vel value="0.0695684424" flag="0"/>
      <psa03 value="0.3630108842" flag="0"/>
      <psa10 value="0.0674635897" flag="0"/>
      <psa30 value="0.0062311876" flag="0"/>
    </comp>
    <comp name="--.HHN">
      <acc value="0.4246876581" flag="0"/>
      <vel value="0.1157265891" flag="0"/>
      <psa03 value="0.3861086377" flag="0"/>
      <psa10 value="0.1595990918" flag="0"/>
      <psa30 value="0.0096338879" flag="0"/>
    </comp>
  </station>
  <station code="THERA" name="THERA" netid="GE" insttype="STS-2/N" lat="36.367" lon="25.4753">
    <comp name="--.HHE">
      <acc value="0.1201084523" flag="0"/>
      <vel value="0.0591750392" flag="0"/>
      <psa03 value="0.2408800729" flag="0"/>
      <psa10 value="0.1298602332" flag="0"/>
      <psa30 value="0.0107261782" flag="0"/>
    </comp>
    <comp name="--.HHN">
      <acc value="0.0692966087" flag="0"/>
      <vel value="0.0356333938" flag="0"/>
      <psa03 value="0.1581315924" flag="0"/>
      <psa10 value="0.0384812132" flag="0"/>
      <psa30 value="0.0047060131" flag="0"/>
    </comp>
    <comp name="--.HHZ">
      <acc value="0.0708370814" flag="0"/>
      <vel value="0.0319913062" flag="0"/>
      <psa03 value="0.1787377918" flag="0"/>
      <psa10 value="0.0430763084" flag="0"/>
      <psa30 value="0.0080144738" flag="0"/>
    </comp>
  </station>
  <station code="ZKR" name="ZKR" netid="GE" insttype="STS-2/N" lat="35.1147" lon="26.2169">
    <comp name="--.HHZ">
      <acc value="0.3807687703" flag="0"/>
      <vel value="0.1146395441" flag="0"/>
      <psa03 value="0.4524944447" flag="0"/>
      <psa10 value="0.0859745862" flag="0"/>
      <psa30 value="0.0112617750" flag="0"/>
    </comp>
    <comp name="--.HHE">
      <acc value="0.4898781826" flag="0"/>
      <vel value="0.2617580459" flag="0"/>
      <psa03 value="0.9603620160" flag="0"/>
      <psa10 value="0.2011872186" flag="0"/>
      <psa30 value="0.0301896558" flag="0"/>
    </comp>
    <comp name="--.HHN">
      <acc value="0.2536496792" flag="0"/>
      <vel value="0.0745829250" flag="0"/>
      <psa03 value="0.3206906003" flag="0"/>
      <psa10 value="0.0357634828" flag="0"/>
      <psa30 value="0.0060419068" flag="0"/>
    </comp>
  </station>
  <station code="SNT5" name="SNT5" netid="HA" insttype="1s-100Hz," lat="36.4037" lon="25.3953">
    <comp name="--.HHZ">
      <acc value="0.1001744861" flag="0"/>
      <vel value="0.0401220479" flag="0"/>
      <psa03 value="0.1447185730" flag="0"/>
      <psa10 value="0.0402486335" flag="0"/>
      <psa30 value="0.0091121583" flag="0"/>
    </comp>
    <comp name="--.HHE">
      <acc value="0.3817404183" flag="0"/>
      <vel value="0.1259714030" flag="0"/>
      <psa03 value="0.5701072265" flag="0"/>
      <psa10 value="0.1835615106" flag="0"/>
      <psa30 value="0.0330074628" flag="0"/>
    </comp>
    <comp name="--.HHN">
      <acc value="0.2200029244" flag="0"/>
      <vel value="0.0825086789" flag="0"/>
      <psa03 value="0.3910366566" flag="0"/>
      <psa10 value="0.0721114641" flag="0"/>
      <psa30 value="0.0202954105" flag="0"/>
    </comp>
  </station>
  <station code="SIT2" name="SIT2" netid="HI" insttype="CMG-5TD,ACCELEROMETER,GURALP" lat="35.2059" lon="26.107">
    <comp name="--.HNN">
      <acc value="1.2364899062" flag="0"/>
      <vel value="0.7679165549" flag="0"/>
      <psa03 value="2.5215131571" flag="0"/>
      <psa10 value="0.4434223575" flag="0"/>
      <psa30 value="0.0477835711" flag="0"/>
    </comp>
    <comp name="--.HNZ">
      <acc value="0.8988195277" flag="0"/>
      <vel value="0.3642536375" flag="0"/>
      <psa03 value="2.2310768393" flag="0"/>
      <psa10 value="0.1438304921" flag="0"/>
      <psa30 value="0.0112329556" flag="0"/>
    </comp>
    <comp name="--.HNE">
      <acc value="1.4091154927" flag="0"/>
      <vel value="0.7479225152" flag="0"/>
      <psa03 value="3.3754967467" flag="0"/>
      <psa10 value="0.3888710968" flag="0"/>
      <psa30 value="0.0422964391" flag="0"/>
    </comp>
  </station>
  <station code="APE" name="APE" netid="HL" insttype="120" lat="37.0727" lon="25.523">
    <comp name="--.HHE">
      <acc value="0.0189373408" flag="0"/>
      <vel value="0.0124745348" flag="0"/>
      <psa03 value="0.0506977136" flag="0"/>
      <psa10 value="0.0269265843" flag="0"/>
      <psa30 value="0.0027331021" flag="0"/>
    </comp>
    <comp name="--.HHZ">
      <acc value="0.0158956365" flag="0"/>
      <vel value="0.0093637156" flag="0"/>
      <psa03 value="0.0300970538" flag="0"/>
      <psa10 value="0.0200896008" flag="0"/>
      <psa30 value="0.0029761452" flag="0"/>
    </comp>
    <comp name="--.HHN">
      <acc value="0.0280065971" flag="0"/>
      <vel value="0.0109636027" flag="0"/>
      <psa03 value="0.0382315366" flag="0"/>
      <psa10 value="0.0158301896" flag="0"/>
      <psa30 value="0.0019251270" flag="0"/>
    </comp>
  </station>
  <station code="ARG" name="ARG" netid="HL" insttype="LE3D20_DR24" lat="36.2136" lon="28.1212">
    <comp name="--.HHE">
      <acc value="0.0285280213" flag="0"/>
      <vel value="0.0213952011" flag="0"/>
      <psa03 value="0.0843208125" flag="0"/>
      <psa10 value="0.0457080337" flag="0"/>
      <psa30 value="0.0041133059" flag="0"/>
    </comp>
    <comp name="--.HHZ">
      <acc value="0.0167993050" flag="0"/>
      <vel value="0.0119881528" flag="0"/>
      <psa03 value="0.0389178626" flag="0"/>
      <psa10 value="0.0208507036" flag="0"/>
      <psa30 value="0.0019997282" flag="0"/>
    </comp>
    <comp name="--.HHN">
      <acc value="0.0306537019" flag="0"/>
      <vel value="0.0174419201" flag="0"/>
      <psa03 value="0.0380085160" flag="0"/>
      <psa10 value="0.0217835106" flag="0"/>
      <psa30 value="0.0041611546" flag="0"/>
    </comp>
  </station>
  <station code="IACM" name="IACM" netid="HL" insttype="120" lat="35.3058" lon="25.0709">
    <comp name="--.HHZ">
      <acc value="0.4711137500" flag="0"/>
      <vel value="0.2047450315" flag="0"/>
      <psa03 value="0.6637524165" flag="0"/>
      <psa10 value="0.1700265459" flag="0"/>
      <psa30 value="0.0080827455" flag="0"/>
    </comp>
    <comp name="--.HHN">
      <acc value="0.5686863629" flag="0"/>
      <vel value="0.2728992664" flag="0"/>
      <psa03 value="1.3134847659" flag="0"/>
      <psa10 value="0.3407549448" flag="0"/>
      <psa30 value="0.0193797195" flag="0"/>
    </comp>
    <comp name="--.HHE">
      <acc value="0.7414303930" flag="0"/>
      <vel value="0.3230910992" flag="0"/>
      <psa03 value="1.4818227645" flag="0"/>
      <psa10 value="0.3646185798" flag="0"/>
      <psa30 value="0.0231025874" flag="0"/>
    </comp>
  </station>
  <station code="IDI" name="IDI" netid="HL" insttype="120" lat="35.288" lon="24.89">
    <comp name="--.HHN">
      <acc value="0.1461875511" flag="0"/>
      <vel value="0.0449759513" flag="0"/>
      <psa03 value="0.2911799966" flag="0"/>
      <psa10 value="0.0322584580" flag="0"/>
      <psa30 value="0.0053784776" flag="0"/>
    </comp>
    <comp name="--.HHE">
      <acc value="0.1089725511" flag="0"/>
      <vel value="0.0394233577" flag="0"/>
      <psa03 value="0.2074179304" flag="0"/>
      <psa10 value="0.0312262383" flag="0"/>
      <psa30 value="0.0033900457" flag="0"/>
    </comp>
    <comp name="--.HHZ">
      <acc value="0.0816894528" flag="0"/>
      <vel value="0.0257441242" flag="0"/>
      <psa03 value="0.1080318127" flag="0"/>
      <psa10 value="0.0254444236" flag="0"/>
      <psa30 value="0.0040519977" flag="0"/>
    </comp>
  </station>
  <station code="KARP" name="KARP" netid="HL" insttype="120" lat="35.5471" lon="27.1611">
    <comp name="--.HHE">
      <acc value="0.5633146981" flag="0"/>
      <vel value="0.1619970706" flag="0"/>
      <psa03 value="0.5325769076" flag="0"/>
      <psa10 value="0.2095263245" flag="0"/>
      <psa30 value="0.0085992357" flag="0"/>
    </comp>
    <comp name="--.HHZ">
      <acc value="0.3006421111" flag="0"/>
      <vel value="0.0662311618" flag="0"/>
      <psa03 value="0.3531932412" flag="0"/>
      <psa10 value="0.0669712790" flag="0"/>
      <psa30 value="0.0062153398" flag="0"/>
    </comp>
    <comp name="--.HHN">
      <acc value="0.4135426080" flag="0"/>
      <vel value="0.1108158202" flag="0"/>
      <psa03 value="0.3754321475" flag="0"/>
      <psa10 value="0.1580636533" flag="0"/>
      <psa30 value="0.0095929081" flag="0"/>
    </comp>
  </station>
  <station code="KLNA" name="KLNA" netid="HL" insttype="CMG-5" lat="36.9571" lon="26.9727">
    <comp name="00.HNN">
      <acc value="0.0673528971" flag="0"/>
      <vel value="0.0313902132" flag="0"/>
      <psa03 value="0.1463954063" flag="0"/>
      <psa10 value="0.0369011474" flag="0"/>
      <psa30 value="0.0025382937" flag="0"/>
    </comp>
    <comp name="00.HNE">
      <acc value="0.0644332435" flag="0"/>
      <vel value="0.0357860315" flag="0"/>
      <psa03 value="0.1918373033" flag="0"/>
      <psa10 value="0.0292820408" flag="0"/>
      <psa30 value="0.0026936730" flag="0"/>
    </comp>
    <comp name="00.HNZ">
      <acc value="0.0532127072" flag="0"/>
      <vel value="0.0176630986" flag="0"/>
      <psa03 value="0.0746363540" flag="0"/>
      <psa10 value="0.0201427189" flag="0"/>
      <psa30 value="0.0014059429" flag="0"/>
    </comp>
  </station>
  <station code="NPS" name="NPS" netid="HL" insttype="CMG3ESPC-120s" lat="35.2613" lon="25.6104">
    <comp name="--.HHN">
      <acc value="0.5354138917" flag="0"/>
      <vel value="0.1923948145" flag="0"/>
      <psa03 value="1.2652227799" flag="0"/>
      <psa10 value="0.0941551119" flag="0"/>
      <psa30 value="0.0095054212" flag="0"/>
    </comp>
    <comp name="--.HHZ">
      <acc value="0.6649708000" flag="0"/>
      <vel value="0.2381422694" flag="0"/>
      <psa03 value="1.0177094272" flag="0"/>
      <psa10 value="0.1004498854" flag="0"/>
      <psa30 value="0.0114164400" flag="0"/>
    </comp>
    <comp name="--.HHE">
      <acc value="0.3110130215" flag="0"/>
      <vel value="0.1018608479" flag="0"/>
      <psa03 value="0.4333677808" flag="0"/>
      <psa10 value="0.0666088464" flag="0"/>
      <psa30 value="0.0052819588" flag="0"/>
    </comp>
  </station>
  <station code="SAP3" name="SAP3" netid="HL" insttype="LE3D20_SMART24" lat="36.4356" lon="25.3454">
    <comp name="--.HHE">
      <acc value="0.1883680632" flag="0"/>
      <vel value="0.1995503813" flag="0"/>
      <psa03 value="0.9322004989" flag="0"/>
      <psa10 value="0.3522289282" flag="0"/>
      <psa30 value="0.0412183686" flag="0"/>
    </comp>
    <comp name="--.HHN">
      <acc value="0.2267455820" flag="0"/>
      <vel value="0.1540640023" flag="0"/>
      <psa03 value="0.9432675858" flag="0"/>
      <psa10 value="0.3099914519" flag="0"/>
      <psa30 value="0.0461501677" flag="0"/>
    </comp>
    <comp name="--.HHZ">
      <acc value="0.2942002252" flag="0"/>
      <vel value="0.1148734288" flag="0"/>
      <psa03 value="0.5736272109" flag="0"/>
      <psa10 value="0.1285396440" flag="0"/>
      <psa30 value="0.0175419777" flag="0"/>
    </comp>
  </station>
  <station code="SIVA" name="SIVA" netid="HL" insttype="60" lat="35.0178" lon="24.812">
    <comp name="--.HHZ">
      <acc value="0.0682282906" flag="0"/>
      <vel value="0.0412305381" flag="0"/>
      <psa03 value="0.1474404895" flag="0"/>
      <psa10 value="0.0367882782" flag="0"/>
      <psa30 value="0.0054845720" flag="0"/>
    </comp>
    <comp name="--.HHN">
      <acc value="0.1249911210" flag="0"/>
      <vel value="0.0871077394" flag="0"/>
      <psa03 value="0.2958948946" flag="0"/>
      <psa10 value="0.1291297239" flag="0"/>
      <psa30 value="0.0079969256" flag="0"/>
    </comp>
    <comp name="--.HHE">
      <acc value="0.1788128134" flag="0"/>
      <vel value="0.0877759107" flag="0"/>
      <psa03 value="0.5369231141" flag="0"/>
      <psa10 value="0.1145898438" flag="0"/>
      <psa30 value="0.0058666129" flag="0"/>
    </comp>
  </station>
  <station code="THERA" name="THERA" netid="HL" insttype="120" lat="36.367" lon="25.4753">
    <comp name="--.HHE">
      <acc value="0.1166187664" flag="0"/>
      <vel value="0.0586265054" flag="0"/>
      <psa03 value="0.2350873578" flag="0"/>
      <psa10 value="0.1289826215" flag="0"/>
      <psa30 value="0.0107205324" flag="0"/>
    </comp>
    <comp name="--.HHZ">
      <acc value="0.0682933474" flag="0"/>
      <vel value="0.0314486549" flag="0"/>
      <psa03 value="0.1736850514" flag="0"/>
      <psa10 value="0.0427394842" flag="0"/>
      <psa30 value="0.0080164094" flag="0"/>
    </comp>
    <comp name="--.HHN">
      <acc value="0.0677153124" flag="0"/>
      <vel value="0.0346473936" flag="0"/>
      <psa03 value="0.1535694879" flag="0"/>
      <psa10 value="0.0382373855" flag="0"/>
      <psa30 value="0.0047072053" flag="0"/>
    </comp>
  </station>
  <station code="THRA" name="THRA" netid="HL" insttype="CMG-5" lat="36.415" lon="25.4324">
    <comp name="00.HNN">
      <acc value="0.2669181723" flag="0"/>
      <vel value="0.2137663905" flag="0"/>
      <psa03 value="0.6207613431" flag="0"/>
      <psa10 value="0.3786155523" flag="0"/>
      <psa30 value="0.0271413367" flag="0"/>
    </comp>
    <comp name="00.HNZ">
      <acc value="0.2206532434" flag="0"/>
      <vel value="0.1060667353" flag="0"/>
      <psa03 value="0.7351613492" flag="0"/>
      <psa10 value="0.1623580636" flag="0"/>
      <psa30 value="0.0132923258" flag="0"/>
    </comp>
    <comp name="00.HNE">
      <acc value="0.2823286237" flag="0"/>
      <vel value="0.2198096656" flag="0"/>
      <psa03 value="0.7256091538" flag="0"/>
      <psa10 value="0.5522902747" flag="0"/>
      <psa30 value="0.0386694134" flag="0"/>
    </comp>
  </station>
  <station code="ZKR" name="ZKR" netid="HL" insttype="120" lat="35.1147" lon="26.2169">
    <comp name="--.HHZ">
      <acc value="0.3698003411" flag="0"/>
      <vel value="0.1123554259" flag="0"/>
      <psa03 value="0.4382192179" flag="0"/>
      <psa10 value="0.0851360915" flag="0"/>
      <psa30 value="0.0112648866" flag="0"/>
    </comp>
    <comp name="--.HHN">
      <acc value="0.2449574052" flag="0"/>
      <vel value="0.0731836578" flag="0"/>
      <psa03 value="0.3115956136" flag="0"/>
      <psa10 value="0.0356244321" flag="0"/>
      <psa30 value="0.0060051482" flag="0"/>
    </comp>
    <comp name="--.HHE">
      <acc value="0.4731239905" flag="0"/>
      <vel value="0.2553310768" flag="0"/>
      <psa03 value="0.9318465219" flag="0"/>
      <psa10 value="0.1994041133" flag="0"/>
      <psa30 value="0.0301628119" flag="0"/>
    </comp>
  </station>
  <station code="CMBO" name="CMBO" netid="HT" insttype="120P," lat="36.4709" lon="25.4056">
    <comp name="--.HHN">
      <acc value="0.4728915323" flag="0"/>
      <vel value="0.2709726517" flag="0"/>
      <psa03 value="1.4876777100" flag="0"/>
      <psa10 value="0.4060772959" flag="0"/>
      <psa30 value="0.0242317953" flag="0"/>
    </comp>
    <comp name="--.HHE">
      <acc value="0.3192449787" flag="0"/>
      <vel value="0.2173915734" flag="0"/>
      <psa03 value="0.6563738452" flag="0"/>
      <psa10 value="0.3966655515" flag="0"/>
      <psa30 value="0.0222467511" flag="0"/>
    </comp>
    <comp name="--.HHZ">
      <acc value="0.3027812773" flag="0"/>
      <vel value="0.1815580040" flag="0"/>
      <psa03 value="1.1148957602" flag="0"/>
      <psa10 value="0.1109927096" flag="0"/>
      <psa30 value="0.0144793602" flag="0"/>
    </comp>
  </station>
  <station code="IDI" name="IDI" netid="MN" insttype="" lat="35.288" lon="24.89">
    <comp name="--.HHE">
      <acc value="0.1174442700" flag="0"/>
      <vel value="0.0402875098" flag="0"/>
      <psa03 value="0.2101026882" flag="0"/>
      <psa10 value="0.0311920059" flag="0"/>
      <psa30 value="0.0033512304" flag="0"/>
    </comp>
    <comp name="--.HHZ">
      <acc value="0.0858231684" flag="0"/>
      <vel value="0.0259146970" flag="0"/>
      <psa03 value="0.1094866382" flag="0"/>
      <psa10 value="0.0252863022" flag="0"/>
      <psa30 value="0.0040050596" flag="0"/>
    </comp>
    <comp name="--.HHN">
      <acc value="0.1502774759" flag="0"/>
      <vel value="0.0456730187" flag="0"/>
      <psa03 value="0.2925058113" flag="0"/>
      <psa10 value="0.0321126616" flag="0"/>
      <psa30 value="0.0053209147" flag="0"/>
    </comp>
  </station>
</stationlist>
