<stationlist created="1631873550">
	<station code="CH01" name="CH01" netid="HI" source="ITSAK Strong Motion Network" insttype="" lat="35.517" lon="24.0208">
		<comp name="--.HNE" depth="0.0">
			<acc value="0.04430421" flag="0"/>
			<vel value="0.029071" flag="0"/>
			<psa03 value="0.0793726745408" flag="0"/>
			<psa10 value="0.0481524576067" flag="0"/>
			<psa30 value="0.0066894073115" flag="0"/>
		</comp>
		<comp name="--.HNN" depth="0.0">
			<acc value="0.048254772" flag="0"/>
			<vel value="-0.028106" flag="0"/>
			<psa03 value="0.0948982202374" flag="0"/>
			<psa10 value="0.0439082118869" flag="0"/>
			<psa30 value="0.00621916671994" flag="0"/>
		</comp>
		<comp name="--.HNZ" depth="0.0">
			<acc value="-0.026774694" flag="0"/>
			<vel value="-0.017937" flag="0"/>
			<psa03 value="0.0408943768491" flag="0"/>
			<psa10 value="0.0425753415517" flag="0"/>
			<psa30 value="0.00344336022134" flag="0"/>
		</comp>
	</station>
	<station code="KRL1" name="KRL1" netid="HI" source="ITSAK Strong Motion Network" insttype="" lat="37.7951" lon="26.7065">
		<comp name="--.HNE" depth="0.0">
			<acc value="0.013138416" flag="0"/>
			<vel value="-0.015824" flag="0"/>
			<psa03 value="0.0358385075012" flag="0"/>
			<psa10 value="0.0208185487395" flag="0"/>
			<psa30 value="0.00405677587408" flag="0"/>
		</comp>
		<comp name="--.HNN" depth="0.0">
			<acc value="-0.012061398" flag="0"/>
			<vel value="0.015576" flag="0"/>
			<psa03 value="0.0298430518144" flag="0"/>
			<psa10 value="0.0291177806451" flag="0"/>
			<psa30 value="0.00245947909781" flag="0"/>
		</comp>
		<comp name="--.HNZ" depth="0.0">
			<acc value="0.007086246" flag="0"/>
			<vel value="0.008696" flag="0"/>
			<psa03 value="0.0141385372914" flag="0"/>
			<psa10 value="0.0114683224004" flag="0"/>
			<psa30 value="0.00178118724547" flag="0"/>
		</comp>
	</station>
	<station code="KSS1" name="KSS1" netid="HI" source="ITSAK Strong Motion Network" insttype="" lat="35.4189" lon="26.9207">
		<comp name="--.HNE" depth="0.0">
			<acc value="-0.653121504" flag="0"/>
			<vel value="-0.142851" flag="0"/>
			<psa03 value="1.05336577041" flag="0"/>
			<psa10 value="0.146051985064" flag="0"/>
			<psa30 value="0.00969205679765" flag="0"/>
		</comp>
		<comp name="--.HNN" depth="0.0">
			<acc value="-0.727531422" flag="0"/>
			<vel value="0.309727" flag="0"/>
			<psa03 value="2.22726704546" flag="0"/>
			<psa10 value="0.170402036172" flag="0"/>
			<psa30 value="0.0241907688523" flag="0"/>
		</comp>
		<comp name="--.HNZ" depth="0.0">
			<acc value="-0.460322226" flag="0"/>
			<vel value="-0.098626" flag="0"/>
			<psa03 value="0.482365729552" flag="0"/>
			<psa10 value="0.083801705574" flag="0"/>
			<psa30 value="0.00980480715833" flag="0"/>
		</comp>
	</station>
	<station code="NAX1" name="NAX1" netid="HI" source="ITSAK Strong Motion Network" insttype="" lat="37.101394" lon="25.374103">
		<comp name="--.HNE" depth="0.0">
			<acc value="0.019649994" flag="0"/>
			<vel value="-0.018867" flag="0"/>
			<psa03 value="0.0562856959258" flag="0"/>
			<psa10 value="0.030482865369" flag="0"/>
			<psa30 value="0.00289929498886" flag="0"/>
		</comp>
		<comp name="--.HNN" depth="0.0">
			<acc value="-0.015026436" flag="0"/>
			<vel value="0.011706" flag="0"/>
			<psa03 value="0.0395521106506" flag="0"/>
			<psa10 value="0.0174521451135" flag="0"/>
			<psa30 value="0.00231093497183" flag="0"/>
		</comp>
		<comp name="--.HNZ" depth="0.0">
			<acc value="-0.01234353" flag="0"/>
			<vel value="-0.012506" flag="0"/>
			<psa03 value="0.0259504798386" flag="0"/>
			<psa10 value="0.0154387458157" flag="0"/>
			<psa30 value="0.00302278347913" flag="0"/>
		</comp>
	</station>
	<station code="RDI1" name="RDI1" netid="HI" source="ITSAK Strong Motion Network" insttype="" lat="36.4514" lon="28.224">
		<comp name="--.HNE" depth="0.0">
			<acc value="-0.017995044" flag="0"/>
			<vel value="0.019146" flag="0"/>
			<psa03 value="0.0493059116933" flag="0"/>
			<psa10 value="0.0454867169364" flag="0"/>
			<psa30 value="0.00466750699442" flag="0"/>
		</comp>
		<comp name="--.HNN" depth="0.0">
			<acc value="-0.020098386" flag="0"/>
			<vel value="-0.024158" flag="0"/>
			<psa03 value="0.0466661215029" flag="0"/>
			<psa10 value="0.0315016454137" flag="0"/>
			<psa30 value="0.00725271169282" flag="0"/>
		</comp>
		<comp name="--.HNZ" depth="0.0">
			<acc value="-0.010956126" flag="0"/>
			<vel value="0.013056" flag="0"/>
			<psa03 value="0.0309168647732" flag="0"/>
			<psa10 value="0.021221228599" flag="0"/>
			<psa30 value="0.00270377154594" flag="0"/>
		</comp>
	</station>
	<station code="SIT2" name="SIT2" netid="HI" source="ITSAK Strong Motion Network" insttype="" lat="35.2059" lon="26.107">
		<comp name="--.HNE" depth="0.0">
			<acc value="-1.407555528" flag="0"/>
			<vel value="0.758924" flag="0"/>
			<psa03 value="3.35432323017" flag="0"/>
			<psa10 value="0.389665246503" flag="0"/>
			<psa30 value="0.0423332862139" flag="0"/>
		</comp>
		<comp name="--.HNN" depth="0.0">
			<acc value="-1.238174226" flag="0"/>
			<vel value="0.773512" flag="0"/>
			<psa03 value="2.52207344487" flag="0"/>
			<psa10 value="0.444188099488" flag="0"/>
			<psa30 value="0.0481739338659" flag="0"/>
		</comp>
		<comp name="--.HNZ" depth="0.0">
			<acc value="0.87750396" flag="0"/>
			<vel value="-0.365407" flag="0"/>
			<psa03 value="2.25791545699" flag="0"/>
			<psa10 value="0.144473480015" flag="0"/>
			<psa30 value="0.0110566940995" flag="0"/>
		</comp>
	</station>
	<station code="KARP" name="KARP" netid="HL" source="National Observatory of Athens Seismic Network" insttype="" lat="35.5471" lon="27.16106">
		<comp name="--.HNE" depth="0.0">
			<acc value="-0.489056442" flag="0"/>
			<vel value="-0.131299" flag="0"/>
			<psa03 value="0.427377557618" flag="0"/>
			<psa10 value="0.193463511729" flag="0"/>
			<psa30 value="0.008139502228" flag="0"/>
		</comp>
		<comp name="--.HNN" depth="0.0">
			<acc value="-0.374732802" flag="0"/>
			<vel value="0.098924" flag="0"/>
			<psa03 value="0.385319883397" flag="0"/>
			<psa10 value="0.112637610317" flag="0"/>
			<psa30 value="0.00794353136301" flag="0"/>
		</comp>
		<comp name="--.HNZ" depth="0.0">
			<acc value="0.253178994" flag="0"/>
			<vel value="0.054596" flag="0"/>
			<psa03 value="0.289437334614" flag="0"/>
			<psa10 value="0.0547564073036" flag="0"/>
			<psa30 value="0.00520575574004" flag="0"/>
		</comp>
	</station>
	<station code="THRA" name="THRA" netid="HL" source="National Observatory of Athens Seismic Network" insttype="" lat="36.41502" lon="25.43244">
		<comp name="--.HNE" depth="0.0">
			<acc value="0.282652302" flag="0"/>
			<vel value="-0.22312" flag="0"/>
			<psa03 value="0.725763333555" flag="0"/>
			<psa10 value="0.552154623435" flag="0"/>
			<psa30 value="0.0386653201154" flag="0"/>
		</comp>
		<comp name="--.HNN" depth="0.0">
			<acc value="0.267539166" flag="0"/>
			<vel value="0.214088" flag="0"/>
			<psa03 value="0.618918944151" flag="0"/>
			<psa10 value="0.379010337419" flag="0"/>
			<psa30 value="0.0270395051477" flag="0"/>
		</comp>
		<comp name="--.HNZ" depth="0.0">
			<acc value="0.221154666" flag="0"/>
			<vel value="0.106059" flag="0"/>
			<psa03 value="0.735606619011" flag="0"/>
			<psa10 value="0.162267903009" flag="0"/>
			<psa30 value="0.0134642722376" flag="0"/>
		</comp>
	</station>
	<station code="DIDI" name="DIDI" netid="KO" source="Bogazici University Kandilli Observatory And Earthquake Research Institute (KOERI)" insttype="" lat="37.3767" lon="27.2398">
		<comp name="--.HNE" depth="0.0">
			<acc value="-0.086361462" flag="0"/>
			<vel value="-0.098637" flag="0"/>
			<psa03 value="0.189975409301" flag="0"/>
			<psa10 value="0.205394915968" flag="0"/>
			<psa30 value="0.0257683790577" flag="0"/>
		</comp>
		<comp name="--.HNN" depth="0.0">
			<acc value="-0.087655842" flag="0"/>
			<vel value="-0.092172" flag="0"/>
			<psa03 value="0.260131189279" flag="0"/>
			<psa10 value="0.186746811672" flag="0"/>
			<psa30 value="0.0176812252114" flag="0"/>
		</comp>
		<comp name="--.HNZ" depth="0.0">
			<acc value="-0.087579648" flag="0"/>
			<vel value="-0.045712" flag="0"/>
			<psa03 value="0.109663148421" flag="0"/>
			<psa10 value="0.108304775028" flag="0"/>
			<psa30 value="0.0103112889372" flag="0"/>
		</comp>
	</station>
	<station code="YKAV" name="YKAV" netid="KO" source="Bogazici University Kandilli Observatory And Earthquake Research Institute (KOERI)" insttype="" lat="37.1246" lon="27.2801">
		<comp name="--.HNE" depth="0.0">
			<acc value="0.05391312" flag="0"/>
			<vel value="-0.050496" flag="0"/>
			<psa03 value="0.135703112673" flag="0"/>
			<psa10 value="0.102171960767" flag="0"/>
			<psa30 value="0.00912159366327" flag="0"/>
		</comp>
		<comp name="--.HNN" depth="0.0">
			<acc value="0.042588366" flag="0"/>
			<vel value="-0.06122" flag="0"/>
			<psa03 value="0.104338825834" flag="0"/>
			<psa10 value="0.129437414058" flag="0"/>
			<psa30 value="0.00915962453889" flag="0"/>
		</comp>
		<comp name="--.HNZ" depth="0.0">
			<acc value="-0.043619382" flag="0"/>
			<vel value="0.055188" flag="0"/>
			<psa03 value="0.0728403123745" flag="0"/>
			<psa10 value="0.104781326257" flag="0"/>
			<psa30 value="0.00533282360683" flag="0"/>
		</comp>
	</station>
</stationlist>
