<?xml version="1.0" encoding="UTF-8" standalone="yes"?>
<!DOCTYPE earthquake SYSTEM "stationlist.dtd">
<stationlist created="" xmlns="ch.ethz.sed.shakemap.usgs.xml">
  <station code="ARBF" name="ARBF" netid="FR" source="RESIF" insttype="generation" lat="43.4917" lon="5.3325">
    <comp name="00.HHE">
      <acc value="0.0183719934" flag="0"/>
      <vel value="0.0046460439" flag="0"/>
      <psa03 value="0.0136766407" flag="0"/>
      <psa10 value="0.0020988901" flag="0"/>
      <psa30 value="0.0002602142" flag="0"/>
    </comp>
    <comp name="00.HHN">
      <acc value="0.0170179055" flag="0"/>
      <vel value="0.0051361873" flag="0"/>
      <psa03 value="0.0196060630" flag="0"/>
      <psa10 value="0.0020220315" flag="0"/>
      <psa30 value="0.0002244460" flag="0"/>
    </comp>
    <comp name="00.HHZ">
      <acc value="0.0111313587" flag="0"/>
      <vel value="0.0026488012" flag="0"/>
      <psa03 value="0.0122291533" flag="0"/>
      <psa10 value="0.0019651930" flag="0"/>
      <psa30 value="0.0003054384" flag="0"/>
    </comp>
  </station>
  <station code="FLAF" name="FLAF" netid="FR" source="RESIF" insttype="generation" lat="43.3827" lon="6.2548">
    <comp name="00.HHE">
      <acc value="0.0596085961" flag="0"/>
      <vel value="0.0098343268" flag="0"/>
      <psa03 value="0.0360456645" flag="0"/>
      <psa10 value="0.0024438522" flag="0"/>
      <psa30 value="0.0002354998" flag="0"/>
    </comp>
    <comp name="00.HHN">
      <acc value="0.0532873026" flag="0"/>
      <vel value="0.0203116658" flag="0"/>
      <psa03 value="0.0745822514" flag="0"/>
      <psa10 value="0.0054383883" flag="0"/>
      <psa30 value="0.0006215783" flag="0"/>
    </comp>
    <comp name="00.HHZ">
      <acc value="0.0778014393" flag="0"/>
      <vel value="0.0177664390" flag="0"/>
      <psa03 value="0.0549479315" flag="0"/>
      <psa10 value="0.0027494001" flag="0"/>
      <psa30 value="0.0002597846" flag="0"/>
    </comp>
  </station>
  <station code="GRN" name="GRN" netid="FR" source="RESIF" insttype="TITAN" lat="45.2413" lon="5.7439">
    <comp name="00.HNE">
      <acc value="0.0111520368" flag="0"/>
      <vel value="0.0057534380" flag="0"/>
      <psa03 value="0.0202170312" flag="0"/>
      <psa10 value="0.0038690255" flag="0"/>
      <psa30 value="0.0002677199" flag="0"/>
    </comp>
    <comp name="00.HNN">
      <acc value="0.0065696599" flag="0"/>
      <vel value="0.0029091385" flag="0"/>
      <psa03 value="0.0162966236" flag="0"/>
      <psa10 value="0.0023595996" flag="0"/>
      <psa30 value="0.0002132935" flag="0"/>
    </comp>
    <comp name="00.HNZ">
      <acc value="0.0035397789" flag="0"/>
      <vel value="0.0013979308" flag="0"/>
      <psa03 value="0.0078467622" flag="0"/>
      <psa10 value="0.0018136451" flag="0"/>
      <psa30 value="0.0001013851" flag="0"/>
    </comp>
  </station>
  <station code="ISO" name="ISO" netid="FR" source="RESIF" insttype="generation" lat="44.184" lon="7.05">
    <comp name="00.HHE">
      <acc value="0.0127490188" flag="0"/>
      <vel value="0.0034629155" flag="0"/>
      <psa03 value="0.0133202759" flag="0"/>
      <psa10 value="0.0014544853" flag="0"/>
      <psa30 value="0.0001532640" flag="0"/>
    </comp>
    <comp name="00.HHN">
      <acc value="0.0135054216" flag="0"/>
      <vel value="0.0027490419" flag="0"/>
      <psa03 value="0.0094344083" flag="0"/>
      <psa10 value="0.0013943096" flag="0"/>
      <psa30 value="0.0001051266" flag="0"/>
    </comp>
    <comp name="00.HHZ">
      <acc value="0.0129055840" flag="0"/>
      <vel value="0.0035774690" flag="0"/>
      <psa03 value="0.0114432659" flag="0"/>
      <psa10 value="0.0016139855" flag="0"/>
      <psa30 value="0.0003067280" flag="0"/>
    </comp>
  </station>
  <station code="OGCB" name="OGCB" netid="FR" source="RESIF" insttype="generation" lat="44.8501" lon="5.09654">
    <comp name="00.HHE">
      <acc value="0.0096369244" flag="0"/>
      <vel value="0.0036369939" flag="0"/>
      <psa03 value="0.0165807984" flag="0"/>
      <psa10 value="0.0027965015" flag="0"/>
      <psa30 value="0.0002287474" flag="0"/>
    </comp>
    <comp name="00.HHN">
      <acc value="0.0152928042" flag="0"/>
      <vel value="0.0048929156" flag="0"/>
      <psa03 value="0.0186510207" flag="0"/>
      <psa10 value="0.0056078432" flag="0"/>
      <psa30 value="0.0002814611" flag="0"/>
    </comp>
    <comp name="00.HHZ">
      <acc value="0.0056670970" flag="0"/>
      <vel value="0.0018009528" flag="0"/>
      <psa03 value="0.0112827530" flag="0"/>
      <psa10 value="0.0024980513" flag="0"/>
      <psa30 value="0.0003202556" flag="0"/>
    </comp>
  </station>
  <station code="OGGM" name="OGGM" netid="FR" source="RESIF" insttype="generation" lat="45.2057" lon="6.11674">
    <comp name="00.HHE">
      <acc value="0.0106400795" flag="0"/>
      <vel value="0.0033648209" flag="0"/>
      <psa03 value="0.0164086758" flag="0"/>
      <psa10 value="0.0014591410" flag="0"/>
      <psa30 value="0.0001645746" flag="0"/>
    </comp>
    <comp name="00.HHN">
      <acc value="0.0087385421" flag="0"/>
      <vel value="0.0025681722" flag="0"/>
      <psa03 value="0.0138355671" flag="0"/>
      <psa10 value="0.0019485734" flag="0"/>
      <psa30 value="0.0001179822" flag="0"/>
    </comp>
    <comp name="00.HHZ">
      <acc value="0.0082919677" flag="0"/>
      <vel value="0.0023459484" flag="0"/>
      <psa03 value="0.0170632063" flag="0"/>
      <psa10 value="0.0021232006" flag="0"/>
      <psa30 value="0.0001429462" flag="0"/>
    </comp>
  </station>
  <station code="OGMO" name="OGMO" netid="FR" source="RESIF" insttype="TITAN" lat="45.2084" lon="6.68297">
    <comp name="00.HNE">
      <acc value="0.0249983157" flag="0"/>
      <vel value="0.0114299353" flag="0"/>
      <psa03 value="0.0595639593" flag="0"/>
      <psa10 value="0.0033476965" flag="0"/>
      <psa30 value="0.0002741518" flag="0"/>
    </comp>
    <comp name="00.HNN">
      <acc value="0.0177654300" flag="0"/>
      <vel value="0.0065113857" flag="0"/>
      <psa03 value="0.0408616366" flag="0"/>
      <psa10 value="0.0020789319" flag="0"/>
      <psa30 value="0.0001402783" flag="0"/>
    </comp>
    <comp name="00.HNZ">
      <acc value="0.0297179205" flag="0"/>
      <vel value="0.0103820742" flag="0"/>
      <psa03 value="0.0985100785" flag="0"/>
      <psa10 value="0.0023900323" flag="0"/>
      <psa30 value="0.0002032646" flag="0"/>
    </comp>
  </station>
  <station code="OGS1" name="OGS1" netid="FR" source="RESIF" insttype="TRILLIUM" lat="45.0608" lon="5.80464">
    <comp name="00.HHE">
      <acc value="0.0329348012" flag="0"/>
      <vel value="0.0101027594" flag="0"/>
      <psa03 value="0.0526153995" flag="0"/>
      <psa10 value="0.0024645081" flag="0"/>
      <psa30 value="0.0002557272" flag="0"/>
    </comp>
    <comp name="00.HHN">
      <acc value="0.0317849495" flag="0"/>
      <vel value="0.0096055242" flag="0"/>
      <psa03 value="0.0647141537" flag="0"/>
      <psa10 value="0.0029386894" flag="0"/>
      <psa30 value="0.0003185894" flag="0"/>
    </comp>
    <comp name="00.HHZ">
      <acc value="0.0143352914" flag="0"/>
      <vel value="0.0036521279" flag="0"/>
      <psa03 value="0.0188612284" flag="0"/>
      <psa10 value="0.0017041789" flag="0"/>
      <psa30 value="0.0001255654" flag="0"/>
    </comp>
  </station>
  <station code="OGS2" name="OGS2" netid="FR" source="RESIF" insttype="TRILLIUM" lat="45.0648" lon="5.802">
    <comp name="00.HHE">
      <acc value="0.0140903796" flag="0"/>
      <vel value="0.0055686295" flag="0"/>
      <psa03 value="0.0334469070" flag="0"/>
      <psa10 value="0.0025922374" flag="0"/>
      <psa30 value="0.0001835602" flag="0"/>
    </comp>
    <comp name="00.HHN">
      <acc value="0.0198912171" flag="0"/>
      <vel value="0.0072764524" flag="0"/>
      <psa03 value="0.0411718111" flag="0"/>
      <psa10 value="0.0037848409" flag="0"/>
      <psa30 value="0.0002398153" flag="0"/>
    </comp>
    <comp name="00.HHZ">
      <acc value="0.0120064905" flag="0"/>
      <vel value="0.0049707162" flag="0"/>
      <psa03 value="0.0253929135" flag="0"/>
      <psa10 value="0.0022583509" flag="0"/>
      <psa30 value="0.0001258168" flag="0"/>
    </comp>
  </station>
  <station code="OGS3" name="OGS3" netid="FR" source="RESIF" insttype="EST" lat="45.0695" lon="5.8061">
    <comp name="00.HNE">
      <acc value="0.0115118713" flag="0"/>
      <vel value="0.0035396703" flag="0"/>
      <psa03 value="0.0150213261" flag="0"/>
      <psa10 value="0.0017234871" flag="0"/>
      <psa30 value="0.0001574553" flag="0"/>
    </comp>
    <comp name="00.HNN">
      <acc value="0.0091932507" flag="0"/>
      <vel value="0.0032364850" flag="0"/>
      <psa03 value="0.0174894301" flag="0"/>
      <psa10 value="0.0031852855" flag="0"/>
      <psa30 value="0.0002023427" flag="0"/>
    </comp>
    <comp name="00.HNZ">
      <acc value="0.0067285090" flag="0"/>
      <vel value="0.0019535490" flag="0"/>
      <psa03 value="0.0110166365" flag="0"/>
      <psa10 value="0.0016707486" flag="0"/>
      <psa30 value="0.0000854591" flag="0"/>
    </comp>
  </station>
  <station code="OGVG" name="OGVG" netid="FR" source="RESIF" insttype="Compact" lat="44.8152" lon="6.11233">
    <comp name="00.HHE">
      <acc value="0.0160027808" flag="0"/>
      <vel value="0.0039296629" flag="0"/>
      <psa03 value="0.0218444572" flag="0"/>
      <psa10 value="0.0024227228" flag="0"/>
      <psa30 value="0.0001807198" flag="0"/>
    </comp>
    <comp name="00.HHN">
      <acc value="0.0178748966" flag="0"/>
      <vel value="0.0031438094" flag="0"/>
      <psa03 value="0.0173087354" flag="0"/>
      <psa10 value="0.0029020870" flag="0"/>
      <psa30 value="0.0001683272" flag="0"/>
    </comp>
    <comp name="00.HHZ">
      <acc value="0.0148429506" flag="0"/>
      <vel value="0.0052889513" flag="0"/>
      <psa03 value="0.0236805205" flag="0"/>
      <psa10 value="0.0027855030" flag="0"/>
      <psa30 value="0.0002230423" flag="0"/>
    </comp>
  </station>
  <station code="SAOF" name="SAOF" netid="FR" source="RESIF" insttype="EST" lat="43.986" lon="7.55317">
    <comp name="00.HNE">
      <acc value="0.0125197353" flag="0"/>
      <vel value="0.0047655745" flag="0"/>
      <psa03 value="0.0384946048" flag="0"/>
      <psa10 value="0.0047233194" flag="0"/>
      <psa30 value="0.0002822208" flag="0"/>
    </comp>
    <comp name="00.HNN">
      <acc value="0.0113368788" flag="0"/>
      <vel value="0.0057182728" flag="0"/>
      <psa03 value="0.0236433158" flag="0"/>
      <psa10 value="0.0058589994" flag="0"/>
      <psa30 value="0.0003226678" flag="0"/>
    </comp>
    <comp name="00.HNZ">
      <acc value="0.0113958472" flag="0"/>
      <vel value="0.0041089089" flag="0"/>
      <psa03 value="0.0248331218" flag="0"/>
      <psa10 value="0.0031279803" flag="0"/>
      <psa30 value="0.0002113396" flag="0"/>
    </comp>
  </station>
  <station code="SURF" name="SURF" netid="FR" source="RESIF" insttype="seismometer" lat="44.4809" lon="6.8117">
    <comp name="00.HHE">
      <acc value="0.0270738091" flag="0"/>
      <vel value="0.0064395143" flag="0"/>
      <psa03 value="0.0275641547" flag="0"/>
      <psa10 value="0.0040623723" flag="0"/>
      <psa30 value="0.0002213252" flag="0"/>
    </comp>
    <comp name="00.HHN">
      <acc value="0.0272348622" flag="0"/>
      <vel value="0.0105024644" flag="0"/>
      <psa03 value="0.0560913489" flag="0"/>
      <psa10 value="0.0045164962" flag="0"/>
      <psa30 value="0.0002876465" flag="0"/>
    </comp>
    <comp name="00.HHZ">
      <acc value="0.0192960519" flag="0"/>
      <vel value="0.0043704963" flag="0"/>
      <psa03 value="0.0305647899" flag="0"/>
      <psa10 value="0.0027684801" flag="0"/>
      <psa30 value="0.0002721373" flag="0"/>
    </comp>
  </station>
  <station code="TRIGF" name="TRIGF" netid="FR" source="RESIF" insttype="generation" lat="43.7471" lon="6.4074">
    <comp name="00.HHE">
      <acc value="0.0254436433" flag="0"/>
      <vel value="0.0080095523" flag="0"/>
      <psa03 value="0.0291178407" flag="0"/>
      <psa10 value="0.0049216521" flag="0"/>
      <psa30 value="0.0003210211" flag="0"/>
    </comp>
    <comp name="00.HHN">
      <acc value="0.0241738122" flag="0"/>
      <vel value="0.0079557293" flag="0"/>
      <psa03 value="0.0625442087" flag="0"/>
      <psa10 value="0.0035102533" flag="0"/>
      <psa30 value="0.0003529305" flag="0"/>
    </comp>
    <comp name="00.HHZ">
      <acc value="0.0238816298" flag="0"/>
      <vel value="0.0075059903" flag="0"/>
      <psa03 value="0.0360872596" flag="0"/>
      <psa10 value="0.0030569114" flag="0"/>
      <psa30 value="0.0003837699" flag="0"/>
    </comp>
  </station>
  <station code="BHB" name="BHB" netid="GU" source="INGV" insttype="" lat="44.8352" lon="7.26333">
    <comp name="--.HHE">
      <acc value="0.0090345039" flag="0"/>
      <vel value="0.0031427628" flag="0"/>
      <psa03 value="0.0085949333" flag="0"/>
      <psa10 value="0.0012009110" flag="0"/>
      <psa30 value="0.0002075366" flag="0"/>
    </comp>
    <comp name="--.HHN">
      <acc value="0.0104435220" flag="0"/>
      <vel value="0.0029270564" flag="0"/>
      <psa03 value="0.0166833167" flag="0"/>
      <psa10 value="0.0017238656" flag="0"/>
      <psa30 value="0.0001695167" flag="0"/>
    </comp>
    <comp name="--.HHZ">
      <acc value="0.0168998019" flag="0"/>
      <vel value="0.0033501463" flag="0"/>
      <psa03 value="0.0146577697" flag="0"/>
      <psa10 value="0.0013647650" flag="0"/>
      <psa30 value="0.0002556630" flag="0"/>
    </comp>
  </station>
  <station code="BURY" name="BURY" netid="GU" source="INGV" insttype="" lat="43.7825" lon="7.5569">
    <comp name="--.HHE">
      <acc value="0.0148990745" flag="0"/>
      <vel value="0.0041165425" flag="0"/>
      <psa03 value="0.0237920742" flag="0"/>
      <psa10 value="0.0014684929" flag="0"/>
      <psa30 value="0.0001177326" flag="0"/>
    </comp>
    <comp name="--.HHN">
      <acc value="0.0114695121" flag="0"/>
      <vel value="0.0030779708" flag="0"/>
      <psa03 value="0.0172627285" flag="0"/>
      <psa10 value="0.0022866933" flag="0"/>
      <psa30 value="0.0002574882" flag="0"/>
    </comp>
    <comp name="--.HHZ">
      <acc value="0.0109962974" flag="0"/>
      <vel value="0.0030141870" flag="0"/>
      <psa03 value="0.0322863441" flag="0"/>
      <psa10 value="0.0017367552" flag="0"/>
      <psa30 value="0.0001721997" flag="0"/>
    </comp>
  </station>
  <station code="ENR" name="ENR" netid="GU" source="INGV" insttype="" lat="44.2267" lon="7.42033">
    <comp name="--.HHE">
      <acc value="0.0245905309" flag="0"/>
      <vel value="0.0047683427" flag="0"/>
      <psa03 value="0.0220617222" flag="0"/>
      <psa10 value="0.0027272385" flag="0"/>
      <psa30 value="0.0001309025" flag="0"/>
    </comp>
    <comp name="--.HHN">
      <acc value="0.0293479720" flag="0"/>
      <vel value="0.0051087263" flag="0"/>
      <psa03 value="0.0188871636" flag="0"/>
      <psa10 value="0.0024948563" flag="0"/>
      <psa30 value="0.0001711823" flag="0"/>
    </comp>
    <comp name="--.HHZ">
      <acc value="0.0126850962" flag="0"/>
      <vel value="0.0028704650" flag="0"/>
      <psa03 value="0.0209800548" flag="0"/>
      <psa10 value="0.0023734921" flag="0"/>
      <psa30 value="0.0001469361" flag="0"/>
    </comp>
  </station>
  <station code="PZZ" name="PZZ" netid="GU" source="INGV" insttype="" lat="44.5068" lon="7.116">
    <comp name="--.HHE">
      <acc value="0.0341098773" flag="0"/>
      <vel value="0.0087739704" flag="0"/>
      <psa03 value="0.0350694199" flag="0"/>
      <psa10 value="0.0025123567" flag="0"/>
      <psa30 value="0.0002093790" flag="0"/>
    </comp>
    <comp name="--.HHN">
      <acc value="0.0381911422" flag="0"/>
      <vel value="0.0089624326" flag="0"/>
      <psa03 value="0.0237676555" flag="0"/>
      <psa10 value="0.0028857526" flag="0"/>
      <psa30 value="0.0002065692" flag="0"/>
    </comp>
    <comp name="--.HHZ">
      <acc value="0.0273198356" flag="0"/>
      <vel value="0.0060586325" flag="0"/>
      <psa03 value="0.0201387308" flag="0"/>
      <psa10 value="0.0019409434" flag="0"/>
      <psa30 value="0.0001367033" flag="0"/>
    </comp>
  </station>
  <station code="RRL" name="RRL" netid="GU" source="INGV" insttype="" lat="44.9208" lon="6.79083">
    <comp name="--.HHE">
      <acc value="0.0110979502" flag="0"/>
      <vel value="0.0042465677" flag="0"/>
      <psa03 value="0.0195525069" flag="0"/>
      <psa10 value="0.0021050975" flag="0"/>
      <psa30 value="0.0002519154" flag="0"/>
    </comp>
    <comp name="--.HHN">
      <acc value="0.0117325057" flag="0"/>
      <vel value="0.0042204090" flag="0"/>
      <psa03 value="0.0171835095" flag="0"/>
      <psa10 value="0.0020286955" flag="0"/>
      <psa30 value="0.0003281649" flag="0"/>
    </comp>
    <comp name="--.HHZ">
      <acc value="0.0096347649" flag="0"/>
      <vel value="0.0022698348" flag="0"/>
      <psa03 value="0.0130677735" flag="0"/>
      <psa10 value="0.0020975217" flag="0"/>
      <psa30 value="0.0003642275" flag="0"/>
    </comp>
  </station>
  <station code="STV" name="STV" netid="GU" source="INGV" insttype="" lat="44.2455" lon="7.326">
    <comp name="--.HHE">
      <acc value="0.0088397246" flag="0"/>
      <vel value="0.0028942346" flag="0"/>
      <psa03 value="0.0125673127" flag="0"/>
      <psa10 value="0.0021291375" flag="0"/>
      <psa30 value="0.0001404620" flag="0"/>
    </comp>
    <comp name="--.HHN">
      <acc value="0.0087212707" flag="0"/>
      <vel value="0.0028782798" flag="0"/>
      <psa03 value="0.0146386664" flag="0"/>
      <psa10 value="0.0018364808" flag="0"/>
      <psa30 value="0.0001806116" flag="0"/>
    </comp>
    <comp name="--.HHZ">
      <acc value="0.0172412485" flag="0"/>
      <vel value="0.0037520037" flag="0"/>
      <psa03 value="0.0162086416" flag="0"/>
      <psa10 value="0.0014928798" flag="0"/>
      <psa30 value="0.0001878974" flag="0"/>
    </comp>
  </station>
  <station code="BNI" name="BNI" netid="MN" source="INGV" insttype="" lat="45.052" lon="6.678">
    <comp name="--.HNE">
      <acc value="0.0056764709" flag="0"/>
      <vel value="0.0039209595" flag="0"/>
      <psa03 value="0.0157836435" flag="0"/>
      <psa10 value="0.0015945043" flag="0"/>
      <psa30 value="0.0001165564" flag="0"/>
    </comp>
    <comp name="--.HNN">
      <acc value="0.0029512002" flag="0"/>
      <vel value="0.0013626083" flag="0"/>
      <psa03 value="0.0077579465" flag="0"/>
      <psa10 value="0.0010045842" flag="0"/>
      <psa30 value="0.0000743728" flag="0"/>
    </comp>
    <comp name="--.HNZ">
      <acc value="0.0049901732" flag="0"/>
      <vel value="0.0023508129" flag="0"/>
      <psa03 value="0.0129041166" flag="0"/>
      <psa10 value="0.0014724461" flag="0"/>
      <psa30 value="0.0002290045" flag="0"/>
    </comp>
  </station>
  <station code="AVM" name="AVM" netid="MT" source="RESIF" insttype="CMG40" lat="44.9424" lon="5.67544">
    <comp name="02.HHE">
      <acc value="0.0620331312" flag="0"/>
      <vel value="0.0147707851" flag="0"/>
      <psa03 value="0.0880876716" flag="0"/>
      <psa10 value="0.0082099395" flag="0"/>
      <psa30 value="0.0003500550" flag="0"/>
    </comp>
    <comp name="02.HHN">
      <acc value="0.0558792199" flag="0"/>
      <vel value="0.0167807191" flag="0"/>
      <psa03 value="0.0653866411" flag="0"/>
      <psa10 value="0.0042619035" flag="0"/>
      <psa30 value="0.0003395163" flag="0"/>
    </comp>
    <comp name="02.HHZ">
      <acc value="0.0245136518" flag="0"/>
      <vel value="0.0068053001" flag="0"/>
      <psa03 value="0.0377671081" flag="0"/>
      <psa10 value="0.0024879679" flag="0"/>
      <psa30 value="0.0001490425" flag="0"/>
    </comp>
  </station>
  <station code="AVP" name="AVP" netid="MT" source="RESIF" insttype="CMG40" lat="44.9414" lon="5.67237">
    <comp name="00.HHE">
      <acc value="0.0368417988" flag="0"/>
