<stationlist created="1778118904">
	<station code="SEMOS" name="SEMOS" netid="CH" source="Switzerland Seismological Network" insttype="" lat="46.06771" lon="6.93499">
		<comp name="--.HGE" depth="0.0">
			<acc value="0.00221329883606248" flag="0"/>
			<vel value="0.00118323939143121" flag="0"/>
			<psa03 value="0.00460844728168199" flag="0"/>
			<psa10 value="0.0012322003702672" flag="0"/>
			<psa30 value="0.000127962710928257" flag="0"/>
		</comp>
		<comp name="--.HGN" depth="0.0">
			<acc value="0.00186384600238894" flag="0"/>
			<vel value="0.00098640677562878" flag="0"/>
			<psa03 value="0.00492164272800989" flag="0"/>
			<psa10 value="0.00125636116184107" flag="0"/>
			<psa30 value="6.4876199596494e-05" flag="0"/>
		</comp>
		<comp name="--.HGZ" depth="0.0">
			<acc value="0.00173683915134075" flag="0"/>
			<vel value="0.000762329631920854" flag="0"/>
			<psa03 value="0.00389257197578964" flag="0"/>
			<psa10 value="0.000676502164068269" flag="0"/>
			<psa30 value="7.78514395157928e-05" flag="0"/>
		</comp>
	</station>
	<station code="SGEV" name="SGEV" netid="CH" source="Switzerland Seismological Network" insttype="" lat="46.20062" lon="6.13676">
		<comp name="--.HGE" depth="0.0">
			<acc value="0.0166974227390799" flag="0"/>
			<vel value="0.0058097094084345" flag="0"/>
			<psa03 value="0.0432209715932505" flag="0"/>
			<psa10 value="0.00110334281520658" flag="0"/>
			<psa30 value="0.000131542087457719" flag="0"/>
		</comp>
		<comp name="--.HGN" depth="0.0">
			<acc value="0.0102558616989015" flag="0"/>
			<vel value="0.00385132391733512" flag="0"/>
			<psa03 value="0.0311405758063171" flag="0"/>
			<psa10 value="0.00125636116184107" flag="0"/>
			<psa30 value="0.000107381295883852" flag="0"/>
		</comp>
		<comp name="--.HGZ" depth="0.0">
			<acc value="0.00799983233389679" flag="0"/>
			<vel value="0.00189923564270622" flag="0"/>
			<psa03 value="0.00756143291848793" flag="0"/>
			<psa10 value="0.000897976086828714" flag="0"/>
			<psa30 value="7.11401085230521e-05" flag="0"/>
		</comp>
	</station>
	<station code="SMAO" name="SMAO" netid="CH" source="Switzerland Seismological Network" insttype="" lat="46.09889" lon="7.07477">
		<comp name="--.HGE" depth="1.0">
			<acc value="0.00805794488710533" flag="0"/>
			<vel value="0.00349800299597779" flag="0"/>
			<psa03 value="0.0182100780936366" flag="0"/>
			<psa10 value="0.00306439373128543" flag="0"/>
			<psa30 value="0.000212972903502974" flag="0"/>
		</comp>
		<comp name="--.HGN" depth="1.0">
			<acc value="0.00936939280809134" flag="0"/>
			<vel value="0.00482181182139866" flag="0"/>
			<psa03 value="0.0351226321953433" flag="0"/>
			<psa10 value="0.00246842753913005" flag="0"/>
			<psa30 value="0.000221026500694262" flag="0"/>
		</comp>
		<comp name="--.HGZ" depth="1.0">
			<acc value="0.00612666665567488" flag="0"/>
			<vel value="0.00249568387706759" flag="0"/>
			<psa03 value="0.0119461691670786" flag="0"/>
			<psa10 value="0.00175971098629663" flag="0"/>
			<psa30 value="0.000151228658369759" flag="0"/>
		</comp>
	</station>
	<station code="BANN" name="BANN" netid="FR" source="RESIF and other broad-band and accelerometric permanent networks in metropolitan France (RESIF)" insttype="" lat="44.3689" lon="4.1563">
		<comp name="00.HNE" depth="0.0">
			<acc value="0.00283371420853315" flag="0"/>
			<vel value="0.000870603056021523" flag="0"/>
			<psa03 value="0.00604019789346669" flag="0"/>
			<psa10 value="0.000817440114915825" flag="0"/>
			<psa30 value="7.11401085230521e-05" flag="0"/>
		</comp>
		<comp name="00.HNN" depth="0.0">
			<acc value="0.00393357168151496" flag="0"/>
			<vel value="0.00156258211899489" flag="0"/>
			<psa03 value="0.00536906479419261" flag="0"/>
			<psa10 value="0.00093019047559387" flag="0"/>
			<psa30 value="9.08266794350916e-05" flag="0"/>
		</comp>
		<comp name="00.HNZ" depth="0.0">
			<acc value="0.00232968839872646" flag="0"/>
			<vel value="0.000641115316992235" flag="0"/>
			<psa03 value="0.00353463432284347" flag="0"/>
			<psa10 value="0.000571805400581513" flag="0"/>
			<psa30 value="0.000153018346634489" flag="0"/>
		</comp>
	</station>
	<station code="CALF" name="CALF" netid="FR" source="RESIF and other broad-band and accelerometric permanent networks in metropolitan France (RESIF)" insttype="" lat="43.7528" lon="6.9218">
		<comp name="00.HNE" depth="2.0">
			<acc value="0.0142477502969828" flag="0"/>
			<vel value="0.00453152121297785" flag="0"/>
			<psa03 value="0.0335119127570855" flag="0"/>
			<psa10 value="0.00251272232368214" flag="0"/>
			<psa30 value="0.000206261572510233" flag="0"/>
		</comp>
		<comp name="00.HNN" depth="2.0">
			<acc value="0.0129916712319811" flag="0"/>
			<vel value="0.00546141529555123" flag="0"/>
			<psa03 value="0.0340488192365048" flag="0"/>
			<psa10 value="0.00295969696779868" flag="0"/>
			<psa30 value="0.00025682026598888" flag="0"/>
		</comp>
		<comp name="00.HNZ" depth="2.0">
			<acc value="0.0157226044154417" flag="0"/>
			<vel value="0.00395942207784977" flag="0"/>
			<psa03 value="0.0201787351848406" flag="0"/>
			<psa10 value="0.00376908348552321" flag="0"/>
			<psa30 value="0.000191496644326203" flag="0"/>
		</comp>
	</station>
	<station code="EILF" name="EILF" netid="FR" source="RESIF and other broad-band and accelerometric permanent networks in metropolitan France (RESIF)" insttype="" lat="43.5479" lon="7.1312">
		<comp name="00.HNE" depth="0.0">
			<acc value="0.0320405760818834" flag="0"/>
			<vel value="0.0123707508643236" flag="0"/>
			<psa03 value="0.0557040472397483" flag="0"/>
			<psa10 value="0.0071556211044602" flag="0"/>
			<psa30 value="0.000338251082034134" flag="0"/>
		</comp>
		<comp name="00.HNN" depth="0.0">
			<acc value="0.0417832071247221" flag="0"/>
			<vel value="0.0136188657303049" flag="0"/>
			<psa03 value="0.0526168349830876" flag="0"/>
			<psa10 value="0.00616502864993166" flag="0"/>
			<psa30 value="0.000306931537401344" flag="0"/>
		</comp>
		<comp name="00.HNZ" depth="0.0">
			<acc value="0.0243759600640206" flag="0"/>
			<vel value="0.00617531465678456" flag="0"/>
			<psa03 value="0.0398653060968801" flag="0"/>
			<psa10 value="0.00205769408237432" flag="0"/>
			<psa30 value="0.000140490528781373" flag="0"/>
		</comp>
	</station>
	<station code="ESCA" name="ESCA" netid="FR" source="RESIF and other broad-band and accelerometric permanent networks in metropolitan France (RESIF)" insttype="" lat="43.831" lon="7.3744">
		<comp name="01.HNE" depth="0.0">
			<acc value="0.0308484052664587" flag="0"/>
			<vel value="0.013544176572605" flag="0"/>
			<psa03 value="0.0486795208006797" flag="0"/>
			<psa10 value="0.00490866748809059" flag="0"/>
			<psa30 value="0.000239818227473937" flag="0"/>
		</comp>
		<comp name="01.HNN" depth="0.0">
			<acc value="0.0226564794335965" flag="0"/>
			<vel value="0.00932216608282727" flag="0"/>
			<psa03 value="0.0357937652946174" flag="0"/>
			<psa10 value="0.00813815996179745" flag="0"/>
			<psa30 value="0.000338251082034134" flag="0"/>
		</comp>
		<comp name="01.HNZ" depth="0.0">
			<acc value="0.0170722564442545" flag="0"/>
			<vel value="0.0047917646919919" flag="0"/>
			<psa03 value="0.0268453239709631" flag="0"/>
			<psa10 value="0.00259728509419068" flag="0"/>
			<psa30 value="0.000180758514737818" flag="0"/>
		</comp>
	</station>
	<station code="GRN" name="GRN" netid="FR" source="RESIF and other broad-band and accelerometric permanent networks in metropolitan France (RESIF)" insttype="" lat="45.2413" lon="5.7439">
		<comp name="00.HNE" depth="0.0">
			<acc value="0.0111422992575597" flag="0"/>
			<vel value="0.00579801145535614" flag="0"/>
			<psa03 value="0.0203129618046954" flag="0"/>
			<psa10 value="0.00385767305462739" flag="0"/>
			<psa30 value="0.000238028539209206" flag="0"/>
		</comp>
		<comp name="00.HNN" depth="0.0">
			<acc value="0.00654916432113026" flag="0"/>
			<vel value="0.00290839223593847" flag="0"/>
			<psa03 value="0.0164203898289057" flag="0"/>
			<psa10 value="0.00233956998406943" flag="0"/>
			<psa30 value="0.000178968826473087" flag="0"/>
		</comp>
		<comp name="00.HNZ" depth="0.0">
			<acc value="0.00350853300222259" flag="0"/>
			<vel value="0.00139409909904642" flag="0"/>
			<psa03 value="0.00782988615819756" flag="0"/>
			<psa10 value="0.00180400577084872" flag="0"/>
			<psa30 value="8.90369911703608e-05" flag="0"/>
		</comp>
	</station>
	<station code="ISO" name="ISO" netid="FR" source="RESIF and other broad-band and accelerometric permanent networks in metropolitan France (RESIF)" insttype="" lat="44.184" lon="7.05">
		<comp name="00.HNE" depth="0.0">
			<acc value="0.0132002898862518" flag="0"/>
			<vel value="0.00364682157884277" flag="0"/>
			<psa03 value="0.013825341845046" flag="0"/>
			<psa10 value="0.00145367429302765" flag="0"/>
			<psa30 value="0.000142280217046104" flag="0"/>
		</comp>
		<comp name="00.HNN" depth="0.0">
			<acc value="0.0142192145685096" flag="0"/>
			<vel value="0.00289123319998368" flag="0"/>
			<psa03 value="0.0099775120758746" flag="0"/>
			<psa10 value="0.00152212986915361" flag="0"/>
			<psa30 value="7.42720629863311e-05" flag="0"/>
		</comp>
		<comp name="00.HNZ" depth="0.0">
			<acc value="0.0130580032000281" flag="0"/>
			<vel value="0.00370759823577808" flag="0"/>
			<psa03 value="0.0120356535803151" flag="0"/>
			<psa10 value="0.00161474623685343" flag="0"/>
			<psa30 value="0.000284113012026026" flag="0"/>
		</comp>
	</station>
	<station code="OG02" name="OG02" netid="FR" source="RESIF and other broad-band and accelerometric permanent networks in metropolitan France (RESIF)" insttype="" lat="46.154234" lon="6.220211">
		<comp name="00.HNE" depth="0.0">
			<acc value="0.000778732586413927" flag="0"/>
			<vel value="0.000319886297975692" flag="0"/>
			<psa03 value="0.00196865709120396" flag="0"/>
			<psa10 value="0.000322143887651557" flag="0"/>
			<psa30 value="2.41607915738667e-05" flag="0"/>
		</comp>
		<comp name="00.HNN" depth="0.0">
			<acc value="0.000519168696351245" flag="0"/>
			<vel value="0.00024138788250124" flag="0"/>
			<psa03 value="0.00125278178531161" flag="0"/>
			<psa10 value="0.000257715110121245" flag="0"/>
			<psa30 value="2.46082136400495e-05" flag="0"/>
		</comp>
		<comp name="00.HNZ" depth="0.0">
			<acc value="0.000508600461971836" flag="0"/>
			<vel value="0.000265076309543902" flag="0"/>
			<psa03 value="0.00138700840516642" flag="0"/>
			<psa10 value="0.000302009894673334" flag="0"/>
			<psa30 value="2.19236812429532e-05" flag="0"/>
		</comp>
	</station>
	<station code="OG35" name="OG35" netid="FR" source="RESIF and other broad-band and accelerometric permanent networks in metropolitan France (RESIF)" insttype="" lat="46.044516" lon="5.571265">
		<comp name="00.HNE" depth="0.0">
			<acc value="0.00692632681682973" flag="0"/>
			<vel value="0.00320651599043402" flag="0"/>
			<psa03 value="0.0153465768700672" flag="0"/>
			<psa10 value="0.00241205235879103" flag="0"/>
			<psa30 value="9.88802766263806e-05" flag="0"/>
		</comp>
		<comp name="00.HNN" depth="0.0">
			<acc value="0.00650369953740095" flag="0"/>
			<vel value="0.00256124082231373" flag="0"/>
			<psa03 value="0.0155255456965403" flag="0"/>
			<psa10 value="0.00115166439835431" flag="0"/>
			<psa30 value="0.000101117386957294" flag="0"/>
		</comp>
		<comp name="00.HNZ" depth="0.0">
			<acc value="0.00363643505002824" flag="0"/>
			<vel value="0.00161782102479482" flag="0"/>
			<psa03 value="0.0115434893075141" flag="0"/>
			<psa10 value="0.00107918202363271" flag="0"/>
			<psa30 value="0.000103354497288208" flag="0"/>
		</comp>
	</station>
	<station code="OGAG" name="OGAG" netid="FR" source="RESIF and other broad-band and accelerometric permanent networks in metropolitan France (RESIF)" insttype="" lat="44.78784" lon="6.539745">
		<comp name="00.HNE" depth="0.0">
			<acc value="0.0377753040822959" flag="0"/>
			<vel value="0.0137646736916442" flag="0"/>
			<psa03 value="0.0754801025650245" flag="0"/>
			<psa10 value="0.00396236981811415" flag="0"/>
			<psa30 value="0.000298430518143873" flag="0"/>
		</comp>
		<comp name="00.HNN" depth="0.0">
			<acc value="0.0284842695854743" flag="0"/>
			<vel value="0.0125710835662493" flag="0"/>
			<psa03 value="0.0901108041291993" flag="0"/>
			<psa10 value="0.00313687610600703" flag="0"/>
			<psa30 value="0.000549434297272377" flag="0"/>
		</comp>
		<comp name="00.HNZ" depth="0.0">
			<acc value="0.036069886199179" flag="0"/>
			<vel value="0.0151252477764129" flag="0"/>
			<psa03 value="0.0954351267167737" flag="0"/>
			<psa10 value="0.00482410471758206" flag="0"/>
			<psa30 value="0.000614757918935054" flag="0"/>
		</comp>
	</station>
	<station code="OGDI" name="OGDI" netid="FR" source="RESIF and other broad-band and accelerometric permanent networks in metropolitan France (RESIF)" insttype="" lat="44.1093" lon="6.2253">
		<comp name="00.HNE" depth="0.0">
			<acc value="0.291663658786941" flag="0"/>
			<vel value="0.0971281353830147" flag="0"/>
			<psa03 value="0.554713877653333" flag="0"/>
			<psa10 value="0.027555382789995" flag="0"/>
			<psa30 value="0.00183219336101823" flag="0"/>
		</comp>
		<comp name="00.HNN" depth="0.0">
			<acc value="0.408989730429013" flag="0"/>
			<vel value="0.122339609626616" flag="0"/>
			<psa03 value="0.628091096507299" flag="0"/>
			<psa10 value="0.0304707849732416" flag="0"/>
			<psa30 value="0.00299414846689475" flag="0"/>
		</comp>
		<comp name="00.HNZ" depth="0.0">
			<acc value="0.301852974684192" flag="0"/>
			<vel value="0.0851133985121128" flag="0"/>
			<psa03 value="0.550508110231216" flag="0"/>
			<psa10 value="0.0307526608749367" flag="0"/>
			<psa30 value="0.0018639603277172" flag="0"/>
		</comp>
	</station>
	<station code="OGGM" name="OGGM" netid="FR" source="RESIF and other broad-band and accelerometric permanent networks in metropolitan France (RESIF)" insttype="" lat="45.205717" lon="6.116735">
		<comp name="00.HNE" depth="0.0">
			<acc value="0.0111383619608654" flag="0"/>
			<vel value="0.00347146067805732" flag="0"/>
			<psa03 value="0.0172257495480346" flag="0"/>
			<psa10 value="0.00150602267477103" flag="0"/>
			<psa30 value="0.000125278178531161" flag="0"/>
		</comp>
		<comp name="00.HNN" depth="0.0">
			<acc value="0.00891855801358827" flag="0"/>
			<vel value="0.00265410791401316" flag="0"/>
			<psa03 value="0.014317506117847" flag="0"/>
			<psa10 value="0.00198118490905707" flag="0"/>
			<psa30 value="0.000105591607619121" flag="0"/>
		</comp>
		<comp name="00.HNZ" depth="0.0">
			<acc value="0.00898645475732955" flag="0"/>
			<vel value="0.00245075694217257" flag="0"/>
			<psa03 value="0.0175389449943625" flag="0"/>
			<psa10 value="0.00218655163743494" flag="0"/>
			<psa30 value="0.000131542087457719" flag="0"/>
		</comp>
	</station>
	<station code="OGMO" name="OGMO" netid="FR" source="RESIF and other broad-band and accelerometric permanent networks in metropolitan France (RESIF)" insttype="" lat="45.20865" lon="6.68308">
		<comp name="00.HNE" depth="0.0">
			<acc value="0.0250330178990658" flag="0"/>
			<vel value="0.0114721274984057" flag="0"/>
			<psa03 value="0.060088783488339" flag="0"/>
			<psa10 value="0.00335029643157619" flag="0"/>
			<psa30 value="0.000274717148636188" flag="0"/>
		</comp>
		<comp name="00.HNN" depth="0.0">
			<acc value="0.0177880289735368" flag="0"/>
			<vel value="0.00655585855437494" flag="0"/>
			<psa03 value="0.0410733456755735" flag="0"/>
			<psa10 value="0.0020738012767569" flag="0"/>
			<psa30 value="0.000140043106715191" flag="0"/>
		</comp>
		<comp name="00.HNZ" depth="0.0">
			<acc value="0.0296576317280144" flag="0"/>
			<vel value="0.01048238498685" flag="0"/>
			<psa03 value="0.0994171831057998" flag="0"/>
			<psa10 value="0.00238789156721716" flag="0"/>
			<psa30 value="0.000199550241517492" flag="0"/>
		</comp>
	</station>
	<station code="OGS1" name="OGS1" netid="FR" source="RESIF and other broad-band and accelerometric permanent networks in metropolitan France (RESIF)" insttype="" lat="45.06079" lon="5.804671">
		<comp name="00.HNE" depth="0.0">
			<acc value="0.0364385801386549" flag="0"/>
			<vel value="0.01126354546045" flag="0"/>
			<psa03 value="0.0577621887441888" flag="0"/>
			<psa10 value="0.00271003545486872" flag="0"/>
			<psa30 value="0.000289034654754035" flag="0"/>
		</comp>
		<comp name="00.HNN" depth="0.0">
			<acc value="0.0332730315645888" flag="0"/>
			<vel value="0.0099830652927803" flag="0"/>
			<psa03 value="0.0668001144810797" flag="0"/>
			<psa10 value="0.00309660812005059" flag="0"/>
			<psa30 value="0.00036062218534327" flag="0"/>
		</comp>
		<comp name="00.HNZ" depth="0.0">
			<acc value="0.0139477070628181" flag="0"/>
			<vel value="0.00388643386944615" flag="0"/>
			<psa03 value="0.0198207975318944" flag="0"/>
			<psa10 value="0.00180803256944436" flag="0"/>
			<psa30 value="0.00014317506117847" flag="0"/>
		</comp>
	</station>
	<station code="OGS2" name="OGS2" netid="FR" source="RESIF and other broad-band and accelerometric permanent networks in metropolitan France (RESIF)" insttype="" lat="45.064487" lon="5.801324">
		<comp name="00.HNE" depth="0.0">
			<acc value="0.0152191997064189" flag="0"/>
			<vel value="0.00615473885191721" flag="0"/>
			<psa03 value="0.0367333516336011" flag="0"/>
			<psa10 value="0.00277446423239903" flag="0"/>
			<psa30 value="0.000195523442921848" flag="0"/>
		</comp>
		<comp name="00.HNN" depth="0.0">
			<acc value="0.0206118911587155" flag="0"/>
			<vel value="0.00759165633820019" flag="0"/>
			<psa03 value="0.0425945807005947" flag="0"/>
			<psa10 value="0.00401874499845317" flag="0"/>
			<psa30 value="0.000272927460371458" flag="0"/>
		</comp>
		<comp name="00.HNZ" depth="0.0">
			<acc value="0.0124488663986419" flag="0"/>
			<vel value="0.00524154870480089" flag="0"/>
			<psa03 value="0.0270242927974361" flag="0"/>
			<psa10 value="0.00242413275457796" flag="0"/>
			<psa30 value="0.000137805996384277" flag="0"/>
		</comp>
	</station>
	<station code="OGS3" name="OGS3" netid="FR" source="RESIF and other broad-band and accelerometric permanent networks in metropolitan France (RESIF)" insttype="" lat="45.06951" lon="5.806072">
		<comp name="00.HNE" depth="2.0">
			<acc value="0.0114059544309236" flag="0"/>
			<vel value="0.00355170765271785" flag="0"/>
			<psa03 value="0.014988639217121" flag="0"/>
			<psa10 value="0.00172346979893583" flag="0"/>
			<psa30 value="0.000167335852752336" flag="0"/>
		</comp>
		<comp name="00.HNN" depth="2.0">
			<acc value="0.00916611475251537" flag="0"/>
			<vel value="0.00336124955180598" flag="0"/>
			<psa03 value="0.0175836872009808" flag="0"/>
			<psa10 value="0.0031972780849417" flag="0"/>
			<psa30 value="0.000231764630282648" flag="0"/>
		</comp>
		<comp name="00.HNZ" depth="2.0">
			<acc value="0.0066326036812851" flag="0"/>
			<vel value="0.00190810942010046" flag="0"/>
			<psa03 value="0.0110960672413314" flag="0"/>
			<psa10 value="0.00167514821578809" flag="0"/>
			<psa30 value="9.48534780307361e-05" flag="0"/>
		</comp>
	</station>
	<station code="OGSI" name="OGSI" netid="FR" source="RESIF and other broad-band and accelerometric permanent networks in metropolitan France (RESIF)" insttype="" lat="46.056477" lon="6.756875">
		<comp name="00.HNE" depth="0.0">
			<acc value="0.00317454361112463" flag="0"/>
			<vel value="0.00158598748732706" flag="0"/>
			<psa03 value="0.00545854920742915" flag="0"/>
			<psa10 value="0.000910056482615647" flag="0"/>
			<psa30 value="6.75607319935903e-05" flag="0"/>
		</comp>
		<comp name="00.HNN" depth="0.0">
			<acc value="0.00240488266074933" flag="0"/>
			<vel value="0.0010848148321765" flag="0"/>
			<psa03 value="0.00621916671993977" flag="0"/>
			<psa10 value="0.000809386517724536" flag="0"/>
			<psa30 value="4.87690052139162e-05" flag="0"/>
		</comp>
		<comp name="00.HNZ" depth="0.0">
			<acc value="0.00246886115080051" flag="0"/>
			<vel value="0.000975012296116132" flag="0"/>
			<psa03 value="0.0052348381743378" flag="0"/>
			<psa10 value="0.000692609358450847" flag="0"/>
			<psa30 value="6.4876199596494e-05" flag="0"/>
		</comp>
	</station>
