<?xml version="1.0" encoding="UTF-8" standalone="yes"?>
<!DOCTYPE earthquake SYSTEM "stationlist.dtd">
<stationlist created="" xmlns="ch.ethz.sed.shakemap.usgs.xml">
  <station code="JMI" name="JMI" netid="NS" insttype="" commtype="DIG" lat="70.9268" lon="-8.72667">
    <comp name="00.HHE">
      <acc value="0.1570333721" flag="0"/>
      <vel value="0.2100148980" flag="0"/>
      <psa03 value="0.2921169863" flag="0"/>
      <psa10 value="0.2631464153" flag="0"/>
      <psa30 value="0.1353480216" flag="0"/>
    </comp>
    <comp name="00.HHN">
      <acc value="0.2035868933" flag="0"/>
      <vel value="0.6064536720" flag="0"/>
      <psa03 value="0.2884495250" flag="0"/>
      <psa10 value="0.3162536600" flag="0"/>
      <psa30 value="0.1843560047" flag="0"/>
    </comp>
    <comp name="00.HHZ">
      <acc value="0.0960653177" flag="0"/>
      <vel value="0.2202720486" flag="0"/>
      <psa03 value="0.2722212064" flag="0"/>
      <psa10 value="0.2082757022" flag="0"/>
      <psa30 value="0.1612598874" flag="0"/>
    </comp>
  </station>
  <station code="JNE" name="JNE" netid="NS" insttype="" commtype="DIG" lat="70.9883" lon="-8.29267">
    <comp name="00.HHE">
      <acc value="3.5713959904" flag="0"/>
      <vel value="1.6567607320" flag="0"/>
      <psa03 value="5.7912176004" flag="0"/>
      <psa10 value="3.3974232826" flag="0"/>
      <psa30 value="0.3337766500" flag="0"/>
    </comp>
    <comp name="00.HHN">
      <acc value="1.7993604111" flag="0"/>
      <vel value="1.7115145252" flag="0"/>
      <psa03 value="3.6880553058" flag="0"/>
      <psa10 value="2.5910409095" flag="0"/>
      <psa30 value="0.6593301373" flag="0"/>
    </comp>
    <comp name="00.HHZ">
      <acc value="1.6453288877" flag="0"/>
      <vel value="0.6706672346" flag="0"/>
      <psa03 value="2.1418768344" flag="0"/>
      <psa10 value="1.1638145080" flag="0"/>
      <psa30 value="0.1654002962" flag="0"/>
    </comp>
  </station>
</stationlist>
