<?xml version="1.0" encoding="UTF-8" standalone="yes"?>
<!DOCTYPE earthquake SYSTEM "stationlist.dtd">
<stationlist created="" xmlns="ch.ethz.sed.shakemap.usgs.xml">
  <station code="LMN1" name="LMN1" netid="HI" insttype="CMG-5TD,ACCELEROMETER,GURALP" lat="39.875" lon="25.0588">
    <comp name="--.HNZ">
      <acc value="0.0196329923" flag="0"/>
      <vel value="0.0054944882" flag="0"/>
      <psa03 value="0.0100416301" flag="0"/>
      <psa10 value="0.0045850626" flag="0"/>
      <psa30 value="0.0002127924" flag="0"/>
    </comp>
    <comp name="--.HNN">
      <acc value="0.0193252922" flag="0"/>
      <vel value="0.0079859082" flag="0"/>
      <psa03 value="0.0385323227" flag="0"/>
      <psa10 value="0.0074869725" flag="0"/>
      <psa30 value="0.0007178101" flag="0"/>
    </comp>
    <comp name="--.HNE">
      <acc value="0.0175935911" flag="0"/>
      <vel value="0.0077991211" flag="0"/>
      <psa03 value="0.0416795759" flag="0"/>
      <psa10 value="0.0059949725" flag="0"/>
      <psa30 value="0.0004425393" flag="0"/>
    </comp>
  </station>
  <station code="MYT1" name="MYT1" netid="HI" insttype="CMG-5TD,ACCELEROMETER,GURALP" lat="39.085" lon="26.5694">
    <comp name="--.HNN">
      <acc value="0.0314281537" flag="0"/>
      <vel value="0.0249142298" flag="0"/>
      <psa03 value="0.1050095874" flag="0"/>
      <psa10 value="0.0352968133" flag="0"/>
      <psa30 value="0.0017944288" flag="0"/>
    </comp>
    <comp name="--.HNE">
      <acc value="0.0361329180" flag="0"/>
      <vel value="0.0225974750" flag="0"/>
      <psa03 value="0.0689807771" flag="0"/>
      <psa10 value="0.0385968571" flag="0"/>
      <psa30 value="0.0031521002" flag="0"/>
    </comp>
    <comp name="--.HNZ">
      <acc value="0.0362125163" flag="0"/>
      <vel value="0.0146594278" flag="0"/>
      <psa03 value="0.0607797769" flag="0"/>
      <psa10 value="0.0346083482" flag="0"/>
      <psa30 value="0.0020575982" flag="0"/>
    </comp>
  </station>
  <station code="EFSA" name="EFSA" netid="HL" insttype="CMG-5" lat="39.5401" lon="24.9886">
    <comp name="00.HNN">
      <acc value="0.0062906829" flag="0"/>
      <vel value="0.0030544851" flag="0"/>
      <psa03 value="0.0126091275" flag="0"/>
      <psa10 value="0.0043869452" flag="0"/>
      <psa30 value="0.0003450166" flag="0"/>
    </comp>
    <comp name="00.HNE">
      <acc value="0.0119327095" flag="0"/>
      <vel value="0.0057246693" flag="0"/>
      <psa03 value="0.0125106657" flag="0"/>
      <psa10 value="0.0039373629" flag="0"/>
      <psa30 value="0.0004409857" flag="0"/>
    </comp>
    <comp name="00.HNZ">
      <acc value="0.0085382707" flag="0"/>
      <vel value="0.0033940780" flag="0"/>
      <psa03 value="0.0108647726" flag="0"/>
      <psa10 value="0.0037108432" flag="0"/>
      <psa30 value="0.0002290782" flag="0"/>
    </comp>
  </station>
  <station code="LIA" name="LIA" netid="HL" insttype="P6C" lat="39.8972" lon="25.1806">
    <comp name="--.HHZ">
      <acc value="0.0144358488" flag="0"/>
      <vel value="0.0056856377" flag="0"/>
      <psa03 value="0.0183835540" flag="0"/>
      <psa10 value="0.0050463279" flag="0"/>
      <psa30 value="0.0002516048" flag="0"/>
    </comp>
    <comp name="--.HHN">
      <acc value="0.0132376373" flag="0"/>
      <vel value="0.0075199958" flag="0"/>
      <psa03 value="0.0327202700" flag="0"/>
      <psa10 value="0.0090624467" flag="0"/>
      <psa30 value="0.0005601896" flag="0"/>
    </comp>
    <comp name="--.HHE">
      <acc value="0.0169661463" flag="0"/>
      <vel value="0.0105263292" flag="0"/>
      <psa03 value="0.0505858063" flag="0"/>
      <psa10 value="0.0089152320" flag="0"/>
      <psa30 value="0.0005823437" flag="0"/>
    </comp>
  </station>
  <station code="PRK" name="PRK" netid="HL" insttype="120" lat="39.2456" lon="26.265">
    <comp name="--.HHN">
      <acc value="0.8966293852" flag="0"/>
      <vel value="0.4521054632" flag="0"/>
      <psa03 value="1.9715674846" flag="0"/>
      <psa10 value="0.2148942482" flag="0"/>
      <psa30 value="0.0157573092" flag="0"/>
    </comp>
    <comp name="--.HHZ">
      <acc value="0.7597682251" flag="0"/>
      <vel value="0.3708356666" flag="0"/>
      <psa03 value="1.2100728828" flag="0"/>
      <psa10 value="0.1587250952" flag="0"/>
      <psa30 value="0.0109502939" flag="0"/>
    </comp>
    <comp name="--.HHE">
      <acc value="1.6808482205" flag="0"/>
      <vel value="0.7380758116" flag="0"/>
      <psa03 value="3.6785894641" flag="0"/>
      <psa10 value="0.2801636870" flag="0"/>
      <psa30 value="0.0251805900" flag="0"/>
    </comp>
  </station>
  <station code="CHOS" name="CHOS" netid="HT" insttype="100" lat="38.3869" lon="26.0506">
    <comp name="--.HHN">
      <acc value="0.0453493312" flag="0"/>
      <vel value="0.0169954734" flag="0"/>
      <psa03 value="0.0537925539" flag="0"/>
      <psa10 value="0.0205059906" flag="0"/>
      <psa30 value="0.0016946999" flag="0"/>
    </comp>
    <comp name="--.HHZ">
      <acc value="0.0240731273" flag="0"/>
      <vel value="0.0101064416" flag="0"/>
      <psa03 value="0.0409252902" flag="0"/>
      <psa10 value="0.0087351492" flag="0"/>
      <psa30 value="0.0004409978" flag="0"/>
    </comp>
    <comp name="--.HHE">
      <acc value="0.0593160394" flag="0"/>
      <vel value="0.0210248699" flag="0"/>
      <psa03 value="0.0952946697" flag="0"/>
      <psa10 value="0.0165547499" flag="0"/>
      <psa30 value="0.0009922957" flag="0"/>
    </comp>
  </station>
  <station code="SIGR" name="SIGR" netid="HT" insttype="100" lat="39.2114" lon="25.8553">
    <comp name="--.HHZ">
      <acc value="0.1766117377" flag="0"/>
      <vel value="0.0404764219" flag="0"/>
      <psa03 value="0.2898018822" flag="0"/>
      <psa10 value="0.0281734023" flag="0"/>
      <psa30 value="0.0025790697" flag="0"/>
    </comp>
    <comp name="--.HHE">
      <acc value="0.2452563407" flag="0"/>
      <vel value="0.0933318227" flag="0"/>
      <psa03 value="0.3415976267" flag="0"/>
      <psa10 value="0.0490359747" flag="0"/>
      <psa30 value="0.0024425094" flag="0"/>
    </comp>
    <comp name="--.HHN">
      <acc value="0.1683960006" flag="0"/>
      <vel value="0.0732393262" flag="0"/>
      <psa03 value="0.3909628977" flag="0"/>
      <psa10 value="0.0533174786" flag="0"/>
      <psa30 value="0.0044299439" flag="0"/>
    </comp>
  </station>
  <station code="EZN" name="EZN" netid="KO" insttype="120s," lat="39.8255" lon="26.3247">
    <comp name="--.HHN">
      <acc value="0.0666231196" flag="0"/>
      <vel value="0.0183879887" flag="0"/>
      <psa03 value="0.0522822281" flag="0"/>
      <psa10 value="0.0249307448" flag="0"/>
      <psa30 value="0.0011549458" flag="0"/>
    </comp>
    <comp name="--.HHZ">
      <acc value="0.0431962381" flag="0"/>
      <vel value="0.0124783144" flag="0"/>
      <psa03 value="0.0257976408" flag="0"/>
      <psa10 value="0.0112048251" flag="0"/>
      <psa30 value="0.0006119094" flag="0"/>
    </comp>
  </station>
  <station code="EZNE" name="EZNE" netid="KO" insttype="CMG-5T" lat="39.756" lon="26.3655">
    <comp name="--.HNZ">
      <acc value="0.0739029234" flag="0"/>
      <vel value="0.0192202945" flag="0"/>
      <psa03 value="0.0674975528" flag="0"/>
      <psa10 value="0.0221632002" flag="0"/>
      <psa30 value="0.0011242613" flag="0"/>
    </comp>
    <comp name="--.HNE">
      <acc value="0.0605495166" flag="0"/>
      <vel value="0.0226288005" flag="0"/>
      <psa03 value="0.1106845996" flag="0"/>
      <psa10 value="0.0161838909" flag="0"/>
      <psa30 value="0.0011123272" flag="0"/>
    </comp>
    <comp name="--.HNN">
      <acc value="0.0839348573" flag="0"/>
      <vel value="0.0317978309" flag="0"/>
      <psa03 value="0.1639703274" flag="0"/>
      <psa10 value="0.0282956349" flag="0"/>
      <psa30 value="0.0014126316" flag="0"/>
    </comp>
  </station>
  <station code="YAYO" name="YAYO" netid="KO" insttype="30s," lat="39.6113" lon="27.0726">
    <comp name="--.HHN">
      <acc value="0.0422398596" flag="0"/>
      <vel value="0.0191955601" flag="0"/>
      <psa03 value="0.1252604166" flag="0"/>
      <psa10 value="0.0103757801" flag="0"/>
      <psa30 value="0.0009929159" flag="0"/>
    </comp>
    <comp name="--.HHE">
      <acc value="0.0752668554" flag="0"/>
      <vel value="0.0421201014" flag="0"/>
      <psa03 value="0.2317163367" flag="0"/>
      <psa10 value="0.0145099347" flag="0"/>
      <psa30 value="0.0015150695" flag="0"/>
    </comp>
    <comp name="--.HHZ">
      <acc value="0.0456089289" flag="0"/>
      <vel value="0.0204441512" flag="0"/>
      <psa03 value="0.1141801059" flag="0"/>
      <psa10 value="0.0054320270" flag="0"/>
      <psa30 value="0.0004643593" flag="0"/>
    </comp>
  </station>
  <station code="YENI" name="YENI" netid="KO" insttype="CMG-5T" lat="39.9364" lon="27.2422">
    <comp name="--.HNN">
      <acc value="0.0586832132" flag="0"/>
      <vel value="0.0190010427" flag="0"/>
      <psa03 value="0.1048386605" flag="0"/>
      <psa10 value="0.0145748897" flag="0"/>
      <psa30 value="0.0007619083" flag="0"/>
    </comp>
    <comp name="--.HNZ">
      <acc value="0.0231762701" flag="0"/>
      <vel value="0.0101529353" flag="0"/>
      <psa03 value="0.0502257603" flag="0"/>
      <psa10 value="0.0095007069" flag="0"/>
      <psa30 value="0.0007780025" flag="0"/>
    </comp>
    <comp name="--.HNE">
      <acc value="0.0806091723" flag="0"/>
      <vel value="0.0327332052" flag="0"/>
      <psa03 value="0.1349576774" flag="0"/>
      <psa10 value="0.0276974867" flag="0"/>
      <psa30 value="0.0018621775" flag="0"/>
    </comp>
  </station>
</stationlist>
