<stationlist created="1778136548">
	<station code="KRL1" name="KRL1" netid="HI" source="ITSAK Strong Motion Network" insttype="" lat="37.7951" lon="26.7065">
		<comp name="--.HNE" depth="0.0">
			<acc value="0.0043854841175551" flag="0"/>
			<vel value="0.00245472718010693" flag="0"/>
			<psa03 value="0.00936538082719381" flag="0"/>
			<psa10 value="0.00275024187752557" flag="0"/>
			<psa30 value="0.000550250461809353" flag="0"/>
		</comp>
		<comp name="--.HNN" depth="0.0">
			<acc value="0.00344288245416625" flag="0"/>
			<vel value="0.00228645500154548" flag="0"/>
			<psa03 value="0.0101389769960044" flag="0"/>
			<psa10 value="0.0043434444506259" flag="0"/>
			<psa30 value="0.000616516726625415" flag="0"/>
		</comp>
		<comp name="--.HNZ" depth="0.0">
			<acc value="0.00222606561473979" flag="0"/>
			<vel value="0.00174872894321252" flag="0"/>
			<psa03 value="0.0042739921153792" flag="0"/>
			<psa10 value="0.00180917633342897" flag="0"/>
			<psa30 value="0.00026029242538743" flag="0"/>
		</comp>
	</station>
	<station code="LMN1" name="LMN1" netid="HI" source="ITSAK Strong Motion Network" insttype="" lat="39.875" lon="25.0588">
		<comp name="--.HNE" depth="0.0">
			<acc value="0.0174749998370457" flag="0"/>
			<vel value="0.00787870472574329" flag="0"/>
			<psa03 value="0.0412698380908892" flag="0"/>
			<psa10 value="0.00600421243709154" flag="0"/>
			<psa30 value="0.000472081741847974" flag="0"/>
		</comp>
		<comp name="--.HNN" depth="0.0">
			<acc value="0.0192789680425911" flag="0"/>
			<vel value="0.00802802648875507" flag="0"/>
			<psa03 value="0.0396493974113425" flag="0"/>
			<psa10 value="0.00747466422233563" flag="0"/>
			<psa30 value="0.000733055800931024" flag="0"/>
		</comp>
		<comp name="--.HNZ" depth="0.0">
			<acc value="0.0192995292345056" flag="0"/>
			<vel value="0.00550658965503349" flag="0"/>
			<psa03 value="0.0101858544503852" flag="0"/>
			<psa10 value="0.00459009453998429" flag="0"/>
			<psa30 value="0.000230500842466179" flag="0"/>
		</comp>
	</station>
	<station code="MYT1" name="MYT1" netid="HI" source="ITSAK Strong Motion Network" insttype="" lat="39.085" lon="26.5694">
		<comp name="--.HNE" depth="0.0">
			<acc value="0.0363174242158709" flag="0"/>
			<vel value="0.0212010724703599" flag="0"/>
			<psa03 value="0.0683715709475911" flag="0"/>
			<psa10 value="0.0383784973870836" flag="0"/>
			<psa30 value="0.00373029169684947" flag="0"/>
		</comp>
		<comp name="--.HNN" depth="0.0">
			<acc value="0.0315958361747361" flag="0"/>
			<vel value="0.0255514420573383" flag="0"/>
			<psa03 value="0.106093351080687" flag="0"/>
			<psa10 value="0.0352804471564573" flag="0"/>
			<psa30 value="0.00199353289510498" flag="0"/>
		</comp>
		<comp name="--.HNZ" depth="0.0">
			<acc value="0.0373501295046237" flag="0"/>
			<vel value="0.01475757318362" flag="0"/>
			<psa03 value="0.0605155609424527" flag="0"/>
			<psa10 value="0.0346790985700929" flag="0"/>
			<psa30 value="0.0023004686447569" flag="0"/>
		</comp>
	</station>
	<station code="SKO1" name="SKO1" netid="HI" source="ITSAK Strong Motion Network" insttype="" lat="39.123383" lon="23.728705">
		<comp name="--.HNE" depth="0.0">
			<acc value="0.00109950812356824" flag="0"/>
			<vel value="0.000737475084412708" flag="0"/>
			<psa03 value="0.00310975190423805" flag="0"/>
			<psa10 value="0.00150794231565275" flag="0"/>
			<psa30 value="0.000121655702322201" flag="0"/>
		</comp>
		<comp name="--.HNN" depth="0.0">
			<acc value="0.00091993919511096" flag="0"/>
			<vel value="0.00120180560277561" flag="0"/>
			<psa03 value="0.00221158775032226" flag="0"/>
			<psa10 value="0.00150972075377732" flag="0"/>
			<psa30 value="0.00021226459534179" flag="0"/>
		</comp>
		<comp name="--.HNZ" depth="0.0">
			<acc value="0.000724070217417891" flag="0"/>
			<vel value="0.000629360674733235" flag="0"/>
			<psa03 value="0.00158017857230459" flag="0"/>
			<psa10 value="0.00128982271005006" flag="0"/>
			<psa30 value="0.000169744747360545" flag="0"/>
		</comp>
	</station>
	<station code="SKY1" name="SKY1" netid="HI" source="ITSAK Strong Motion Network" insttype="" lat="38.904483" lon="24.564572">
		<comp name="--.HNE" depth="0.0">
			<acc value="0.00542841907860557" flag="0"/>
			<vel value="0.00438090415301063" flag="0"/>
			<psa03 value="0.0192800949199991" flag="0"/>
			<psa10 value="0.00659526565397022" flag="0"/>
			<psa30 value="0.000606618310484585" flag="0"/>
		</comp>
		<comp name="--.HNN" depth="0.0">
			<acc value="0.00682015719461603" flag="0"/>
			<vel value="0.00422180150358398" flag="0"/>
			<psa03 value="0.0226492738407399" flag="0"/>
			<psa10 value="0.00350861242835459" flag="0"/>
			<psa30 value="0.000456500657596668" flag="0"/>
		</comp>
		<comp name="--.HNZ" depth="0.0">
			<acc value="0.00334739845956987" flag="0"/>
			<vel value="0.002199186220565" flag="0"/>
			<psa03 value="0.0114066332376165" flag="0"/>
			<psa10 value="0.00435065570960388" flag="0"/>
			<psa30 value="0.000184769414546041" flag="0"/>
		</comp>
	</station>
	<station code="EFSA" name="EFSA" netid="HL" source="National Observatory of Athens Seismic Network" insttype="" lat="39.54015" lon="24.98864">
		<comp name="00.HNE" depth="0.0">
			<acc value="0.0119689856530947" flag="0"/>
			<vel value="0.00572477582644839" flag="0"/>
			<psa03 value="0.0125767602319646" flag="0"/>
			<psa10 value="0.00393595839417762" flag="0"/>
			<psa30 value="0.000453080066415821" flag="0"/>
		</comp>
		<comp name="00.HNN" depth="0.0">
			<acc value="0.00609435969428808" flag="0"/>
			<vel value="0.00305886285621619" flag="0"/>
			<psa03 value="0.0126457882422533" flag="0"/>
			<psa10 value="0.00437963200413004" flag="0"/>
			<psa30 value="0.000344933709540272" flag="0"/>
		</comp>
		<comp name="00.HNZ" depth="0.0">
			<acc value="0.00838487437870795" flag="0"/>
			<vel value="0.00339428399854201" flag="0"/>
			<psa03 value="0.0109059431683531" flag="0"/>
			<psa10 value="0.00370551148757442" flag="0"/>
			<psa30 value="0.000236418864714445" flag="0"/>
		</comp>
	</station>
	<station code="LIA" name="LIA" netid="HL" source="National Observatory of Athens Seismic Network" insttype="" lat="39.89725" lon="25.18055">
		<comp name="00.HNE" depth="0.0">
			<acc value="0.0176913224460189" flag="0"/>
			<vel value="0.0106375887466474" flag="0"/>
			<psa03 value="0.0540518827554593" flag="0"/>
			<psa10 value="0.00923012926328129" flag="0"/>
			<psa30 value="0.000599798796227701" flag="0"/>
		</comp>
		<comp name="00.HNN" depth="0.0">
			<acc value="0.0138022744701636" flag="0"/>
			<vel value="0.00691753715241313" flag="0"/>
			<psa03 value="0.0275133069965672" flag="0"/>
			<psa10 value="0.00878759057222889" flag="0"/>
			<psa30 value="0.000558625027000465" flag="0"/>
		</comp>
		<comp name="00.HNZ" depth="0.0">
			<acc value="0.0144317681426655" flag="0"/>
			<vel value="0.00570316656487274" flag="0"/>
			<psa03 value="0.0183219429054652" flag="0"/>
			<psa10 value="0.00506683127768872" flag="0"/>
			<psa30 value="0.00023850681553105" flag="0"/>
		</comp>
	</station>
	<station code="PRK" name="PRK" netid="HL" source="National Observatory of Athens Seismic Network" insttype="" lat="39.24565" lon="26.26499">
		<comp name="--.HNE" depth="0.0">
			<acc value="1.60493951278402" flag="0"/>
			<vel value="0.71084000768326" flag="0"/>
			<psa03 value="3.52393244322981" flag="0"/>
			<psa10 value="0.276813487534936" flag="0"/>
			<psa30 value="0.0257375116505205" flag="0"/>
		</comp>
		<comp name="--.HNN" depth="0.0">
			<acc value="0.901221480981004" flag="0"/>
			<vel value="0.444184270436525" flag="0"/>
			<psa03 value="1.78792460789805" flag="0"/>
			<psa10 value="0.215283626483682" flag="0"/>
			<psa30 value="0.0144523157283408" flag="0"/>
		</comp>
		<comp name="--.HNZ" depth="0.0">
			<acc value="0.768986511968949" flag="0"/>
			<vel value="0.367493803379779" flag="0"/>
			<psa03 value="1.20718838697272" flag="0"/>
			<psa10 value="0.157582349057086" flag="0"/>
			<psa30 value="0.0107692900792609" flag="0"/>
		</comp>
	</station>
	<station code="AKS" name="AKS" netid="KO" source="Bogazici University Kandilli Observatory And Earthquake Research Institute (KOERI)" insttype="" lat="38.8785" lon="27.8129">
		<comp name="--.HNE" depth="0.0">
			<acc value="0.00836897479621571" flag="0"/>
			<vel value="0.00289778798689655" flag="0"/>
			<psa03 value="0.0175389449943625" flag="0"/>
			<psa10 value="0.00222279282479574" flag="0"/>
			<psa30 value="0.000464871526763843" flag="0"/>
		</comp>
		<comp name="--.HNN" depth="0.0">
			<acc value="0.010313904704786" flag="0"/>
			<vel value="0.00400194939563688" flag="0"/>
			<psa03 value="0.0238028539209206" flag="0"/>
			<psa10 value="0.00262144588576454" flag="0"/>
			<psa30 value="0.00103667692734536" flag="0"/>
		</comp>
		<comp name="--.HNZ" depth="0.0">
			<acc value="0.00285545781218858" flag="0"/>
			<vel value="0.000898420711505895" flag="0"/>
			<psa03 value="0.00630865113317632" flag="0"/>
			<psa10 value="0.00152615666774925" flag="0"/>
			<psa30 value="0.000493506538999537" flag="0"/>
		</comp>
	</station>
	<station code="BIGA" name="BIGA" netid="KO" source="Bogazici University Kandilli Observatory And Earthquake Research Institute (KOERI)" insttype="" lat="40.28134" lon="27.15048">
		<comp name="--.HNE" depth="0.0">
			<acc value="0.0274450301354707" flag="0"/>
			<vel value="0.0217012188055992" flag="0"/>
			<psa03 value="0.0559277582728397" flag="0"/>
			<psa10 value="0.0129421306864013" flag="0"/>
			<psa30 value="0.00103622950527917" flag="0"/>
		</comp>
		<comp name="--.HNN" depth="0.0">
			<acc value="0.0330202762314571" flag="0"/>
			<vel value="0.0163259944563685" flag="0"/>
			<psa03 value="0.071945468242181" flag="0"/>
			<psa10 value="0.0145407697288721" flag="0"/>
			<psa30 value="0.00129886625812843" flag="0"/>
		</comp>
		<comp name="--.HNZ" depth="0.0">
			<acc value="0.0149822365969425" flag="0"/>
			<vel value="0.00534045223774583" flag="0"/>
			<psa03 value="0.0408048924358638" flag="0"/>
			<psa10 value="0.00409928097036606" flag="0"/>
			<psa30 value="0.000660842391751874" flag="0"/>
		</comp>
	</station>
	<station code="CANM" name="CANM" netid="KO" source="Bogazici University Kandilli Observatory And Earthquake Research Institute (KOERI)" insttype="" lat="40.0113" lon="27.0529">
		<comp name="--.HNE" depth="0.0">
			<acc value="0.0360670223247805" flag="0"/>
			<vel value="0.0124110563613149" flag="0"/>
			<psa03 value="0.0615652763067419" flag="0"/>
			<psa10 value="0.00941868191521239" flag="0"/>
			<psa30 value="0.000772697908297553" flag="0"/>
		</comp>
		<comp name="--.HNN" depth="0.0">
			<acc value="0.0377003573312457" flag="0"/>
			<vel value="0.0198179171955758" flag="0"/>
			<psa03 value="0.0685003183325741" flag="0"/>
			<psa10 value="0.018551461130134" flag="0"/>
			<psa30 value="0.00128052195341494" flag="0"/>
		</comp>
		<comp name="--.HNZ" depth="0.0">
			<acc value="0.029618313452833" flag="0"/>
			<vel value="0.00948496764915801" flag="0"/>
			<psa03 value="0.0462186994366747" flag="0"/>
			<psa10 value="0.00490464068949495" flag="0"/>
			<psa30 value="0.000506929200985019" flag="0"/>
		</comp>
	</station>
	<station code="CESE" name="CESE" netid="KO" source="Bogazici University Kandilli Observatory And Earthquake Research Institute (KOERI)" insttype="" lat="38.3306" lon="26.2997">
		<comp name="--.HNE" depth="0.0">
			<acc value="0.00872783475307874" flag="0"/>
			<vel value="0.00373487055914214" flag="0"/>
			<psa03 value="0.014988639217121" flag="0"/>
			<psa10 value="0.00439726406644375" flag="0"/>
			<psa30 value="0.000540933278014905" flag="0"/>
		</comp>
		<comp name="--.HNN" depth="0.0">
			<acc value="0.0138480065750214" flag="0"/>
			<vel value="0.00484987242480644" flag="0"/>
			<psa03 value="0.0203129618046954" flag="0"/>
			<psa10 value="0.00764286373453318" flag="0"/>
			<psa30 value="0.000843390594754422" flag="0"/>
		</comp>
		<comp name="--.HNZ" depth="0.0">
			<acc value="0.00816654486204297" flag="0"/>
			<vel value="0.00300015183824828" flag="0"/>
			<psa03 value="0.00894844132365435" flag="0"/>
			<psa10 value="0.00386169985322303" flag="0"/>
			<psa30 value="0.00038523039898332" flag="0"/>
		</comp>
	</station>
	<station code="DST" name="DST" netid="KO" source="Bogazici University Kandilli Observatory And Earthquake Research Institute (KOERI)" insttype="" lat="39.6041" lon="28.6267">
		<comp name="--.HNE" depth="0.0">
			<acc value="0.00783463459504502" flag="0"/>
			<vel value="0.00315398078504247" flag="0"/>
			<psa03 value="0.0227737831687003" flag="0"/>
			<psa10 value="0.00299996495375512" flag="0"/>
			<psa30 value="0.000320801621453008" flag="0"/>
		</comp>
		<comp name="--.HNN" depth="0.0">
			<acc value="0.00695459470221094" flag="0"/>
			<vel value="0.00279746152180982" flag="0"/>
			<psa03 value="0.0168230696884702" flag="0"/>
			<psa10 value="0.00298385775937254" flag="0"/>
			<psa30 value="0.00050379724652174" flag="0"/>
		</comp>
		<comp name="--.HNZ" depth="0.0">
			<acc value="0.00562852351474544" flag="0"/>
			<vel value="0.0029642163918011" flag="0"/>
			<psa03 value="0.0172704917546529" flag="0"/>
			<psa10 value="0.00120401278009769" flag="0"/>
			<psa30 value="0.000332434595173759" flag="0"/>
		</comp>
	</station>
	<station code="EDC" name="EDC" netid="KO" source="Bogazici University Kandilli Observatory And Earthquake Research Institute (KOERI)" insttype="" lat="40.3465" lon="27.8618">
		<comp name="--.HNE" depth="0.0">
			<acc value="0.00901765308752801" flag="0"/>
			<vel value="0.00355613783979369" flag="0"/>
			<psa03 value="0.0284560434092208" flag="0"/>
			<psa10 value="0.00409525417177041" flag="0"/>
			<psa30 value="0.00027337488243764" flag="0"/>
		</comp>
		<comp name="--.HNN" depth="0.0">
			<acc value="0.00921473098881353" flag="0"/>
			<vel value="0.00558821681160722" flag="0"/>
			<psa03 value="0.0209393526973512" flag="0"/>
			<psa10 value="0.0046469255793737" flag="0"/>
			<psa30 value="0.000386125243115685" flag="0"/>
		</comp>
		<comp name="--.HNZ" depth="0.0">
			<acc value="0.0032936893926109" flag="0"/>
			<vel value="0.00207856759703807" flag="0"/>
			<psa03 value="0.00836679263761682" flag="0"/>
			<psa10 value="0.00208990847113947" flag="0"/>
			<psa30 value="0.00020089250771604" flag="0"/>
		</comp>
	</station>
	<station code="ENZZ" name="ENZZ" netid="KO" source="Bogazici University Kandilli Observatory And Earthquake Research Institute (KOERI)" insttype="" lat="40.607" lon="26.1406">
		<comp name="--.HNE" depth="0.0">
			<acc value="0.0283555469861247" flag="0"/>
			<vel value="0.0287508551343174" flag="0"/>
			<psa03 value="0.0666658878612249" flag="0"/>
			<psa10 value="0.0312801714909661" flag="0"/>
			<psa30 value="0.00187246134697467" flag="0"/>
		</comp>
		<comp name="--.HNN" depth="0.0">
			<acc value="0.0245238054030271" flag="0"/>
			<vel value="0.0249175121570479" flag="0"/>
			<psa03 value="0.0579858997772802" flag="0"/>
			<psa10 value="0.0248775617238915" flag="0"/>
			<psa30 value="0.00252525014153526" flag="0"/>
		</comp>
		<comp name="--.HNZ" depth="0.0">
			<acc value="0.0134583930185907" flag="0"/>
			<vel value="0.00681362314492931" flag="0"/>
			<psa03 value="0.0290376920952584" flag="0"/>
			<psa10 value="0.00713951391007762" flag="0"/>
			<psa30 value="0.000914978125343657" flag="0"/>
		</comp>
	</station>
	<station code="EZNE" name="EZNE" netid="KO" source="Bogazici University Kandilli Observatory And Earthquake Research Institute (KOERI)" insttype="" lat="39.756" lon="26.3655">
		<comp name="--.HNE" depth="0.0">
			<acc value="0.0612886965263224" flag="0"/>
			<vel value="0.0226450266447882" flag="0"/>
			<psa03 value="0.112213454198626" flag="0"/>
			<psa10 value="0.0162239715418515" flag="0"/>
			<psa30 value="0.00123130552613484" flag="0"/>
		</comp>
		<comp name="--.HNN" depth="0.0">
			<acc value="0.0829388078811527" flag="0"/>
			<vel value="0.031898557305183" flag="0"/>
			<psa03 value="0.164830289181713" flag="0"/>
			<psa10 value="0.0283446353147413" flag="0"/>
			<psa30 value="0.0014755979742706" flag="0"/>
		</comp>
		<comp name="--.HNZ" depth="0.0">
			<acc value="0.0704567639951253" flag="0"/>
			<vel value="0.0199089743685456" flag="0"/>
			<psa03 value="0.0679186696465365" flag="0"/>
			<psa10 value="0.0221675262690227" flag="0"/>
			<psa30 value="0.00124428076605414" flag="0"/>
		</comp>
	</station>
	<station code="FOCM" name="FOCM" netid="KO" source="Bogazici University Kandilli Observatory And Earthquake Research Institute (KOERI)" insttype="" lat="38.7131" lon="26.7309">
		<comp name="--.HNE" depth="0.0">
			<acc value="0.023892554433621" flag="0"/>
			<vel value="0.016567627227654" flag="0"/>
			<psa03 value="0.0608494010008496" flag="0"/>
			<psa10 value="0.0106669894798622" flag="0"/>
			<psa30 value="0.00110110570487567" flag="0"/>
		</comp>
		<comp name="--.HNN" depth="0.0">
			<acc value="0.0243901318841126" flag="0"/>
			<vel value="0.0122922622041162" flag="0"/>
			<psa03 value="0.0463081838499113" flag="0"/>
			<psa10 value="0.0114804027961823" flag="0"/>
			<psa30 value="0.000747194850525138" flag="0"/>
		</comp>
		<comp name="--.HNZ" depth="0.0">
			<acc value="0.025687816625529" flag="0"/>
			<vel value="0.00902229638422727" flag="0"/>
			<psa03 value="0.0682766072994827" flag="0"/>
			<psa10 value="0.0037408958953537" flag="0"/>
			<psa30 value="0.000397758216836436" flag="0"/>
		</comp>
	</station>
	<station code="GOMA" name="GOMA" netid="KO" source="Bogazici University Kandilli Observatory And Earthquake Research Institute (KOERI)" insttype="" lat="38.7077" lon="27.9175">
		<comp name="--.HNE" depth="0.0">
			<acc value="0.00574849724892386" flag="0"/>
			<vel value="0.00369970403585969" flag="0"/>
			<psa03 value="0.0154360612833038" flag="0"/>
			<psa10 value="0.00405901298440961" flag="0"/>
			<psa30 value="0.000364201561872732" flag="0"/>
		</comp>
		<comp name="--.HNN" depth="0.0">
			<acc value="0.00418753165128741" flag="0"/>
			<vel value="0.00259438926257443" flag="0"/>
			<psa03 value="0.0141832794979921" flag="0"/>
			<psa10 value="0.00281473221835548" flag="0"/>
			<psa30 value="0.000278743947231833" flag="0"/>
		</comp>
		<comp name="--.HNZ" depth="0.0">
			<acc value="0.00368674367753334" flag="0"/>
			<vel value="0.00186291825312497" flag="0"/>
			<psa03 value="0.00693504202583212" flag="0"/>
			<psa10 value="0.00151407627196232" flag="0"/>
			<psa30 value="0.000270690350040544" flag="0"/>
		</comp>
	</station>
	<station code="GONE" name="GONE" netid="KO" source="Bogazici University Kandilli Observatory And Earthquake Research Institute (KOERI)" insttype="" lat="40.0466" lon="27.686">
		<comp name="--.HNE" depth="0.0">
			<acc value="0.00924312623035753" flag="0"/>
			<vel value="0.00604436682854194" flag="0"/>
			<psa03 value="0.0208946104907329" flag="0"/>
			<psa10 value="0.00959586105342074" flag="0"/>
			<psa30 value="0.000887237957240329" flag="0"/>
		</comp>
		<comp name="--.HNN" depth="0.0">
			<acc value="0.00962222431191873" flag="0"/>
			<vel value="0.00858603294930904" flag="0"/>
			<psa03 value="0.0231317208216465" flag="0"/>
			<psa10 value="0.013771651197104" flag="0"/>
			<psa30 value="0.000982538857337247" flag="0"/>
		</comp>
		<comp name="--.HNZ" depth="0.0">
			<acc value="0.00594812554083757" flag="0"/>
			<vel value="0.0025835621702323" flag="0"/>
			<psa03 value="0.0130647243325354" flag="0"/>
			<psa10 value="0.00481605112039077" flag="0"/>
			<psa30 value="0.000421919008410303" flag="0"/>
		</comp>
	</station>
	<station code="GORD" name="GORD" netid="KO" source="Bogazici University Kandilli Observatory And Earthquake Research Institute (KOERI)" insttype="" lat="38.9088" lon="28.1769">
		<comp name="--.HNE" depth="0.0">
			<acc value="0.00335623929835431" flag="0"/>
			<vel value="0.00233077726307144" flag="0"/>
			<psa03 value="0.00899318353027262" flag="0"/>
			<psa10 value="0.00376102988833192" flag="0"/>
			<psa30 value="0.000410733456755735" flag="0"/>
		</comp>
		<comp name="--.HNN" depth="0.0">
			<acc value="0.00249900935020379" flag="0"/>
