<stationlist created="1741951784">
	<station code="BODA" name="BODA" netid="KO" source="Bogazici University Kandilli Observatory And Earthquake Research Institute (KOERI)" insttype="" lat="37.0348" lon="27.4304">
		<comp name=".HNE" depth="0.0">
			<acc value="0.0023509729996572" flag="0"/>
			<vel value="0.0015069547075" flag="0"/>
			<psa03 value="0.00827423367425757" flag="0"/>
			<psa10 value="0.00267851134448119" flag="0"/>
			<psa30 value="0.000557514380507718" flag="0"/>
		</comp>
		<comp name=".HNN" depth="0.0">
			<acc value="0.0035737774793118" flag="0"/>
			<vel value="0.00173499509735" flag="0"/>
			<psa03 value="0.0086497188347379" flag="0"/>
			<psa10 value="0.00240811210373202" flag="0"/>
			<psa30 value="0.000364059351520194" flag="0"/>
		</comp>
		<comp name=".HNZ" depth="0.0">
			<acc value="0.003542005160835" flag="0"/>
			<vel value="0.00159152063909" flag="0"/>
			<psa03 value="0.00187228109323704" flag="0"/>
			<psa10 value="0.00174798470165745" flag="0"/>
			<psa30 value="0.000542781477443971" flag="0"/>
		</comp>
	</station>
	<station code="BODM" name="BODM" netid="KO" source="Bogazici University Kandilli Observatory And Earthquake Research Institute (KOERI)" insttype="" lat="37.031" lon="27.4247">
		<comp name=".HNE" depth="0.0">
			<acc value="0.0034031547120048" flag="0"/>
			<vel value="0.00250049485442" flag="0"/>
			<psa03 value="0.00848538503179192" flag="0"/>
			<psa10 value="0.00257692086460951" flag="0"/>
			<psa30 value="0.000608284254181504" flag="0"/>
		</comp>
		<comp name=".HNN" depth="0.0">
			<acc value="0.003827089302108" flag="0"/>
			<vel value="0.00271206316921" flag="0"/>
			<psa03 value="0.00912737157066762" flag="0"/>
			<psa10 value="0.00412298937781538" flag="0"/>
			<psa30 value="0.000414518162919153" flag="0"/>
		</comp>
		<comp name=".HNZ" depth="0.0">
			<acc value="0.0052587129577494" flag="0"/>
			<vel value="0.00155624310416" flag="0"/>
			<psa03 value="0.00179278738315717" flag="0"/>
			<psa10 value="0.00149746599664879" flag="0"/>
			<psa30 value="0.000619511352084501" flag="0"/>
		</comp>
	</station>
	<station code="CESE" name="CESE" netid="KO" source="Bogazici University Kandilli Observatory And Earthquake Research Institute (KOERI)" insttype="" lat="38.3306" lon="26.2997">
		<comp name=".HNE" depth="0.0">
			<acc value="0.1301903739096" flag="0"/>
			<vel value="0.00672620449808" flag="0"/>
			<psa03 value="0.0036672885127814" flag="0"/>
			<psa10 value="0.00168735443519909" flag="0"/>
			<psa30 value="0.00100378034969062" flag="0"/>
		</comp>
		<comp name=".HNN" depth="0.0">
			<acc value="0.092983515267516" flag="0"/>
			<vel value="0.00585246439525" flag="0"/>
			<psa03 value="0.00348818745550854" flag="0"/>
			<psa10 value="0.00214958685270454" flag="0"/>
			<psa30 value="0.000895856325252186" flag="0"/>
		</comp>
		<comp name=".HNZ" depth="0.0">
			<acc value="0.016151558105352" flag="0"/>
			<vel value="0.00175855543634" flag="0"/>
			<psa03 value="0.00309608172782418" flag="0"/>
			<psa10 value="0.00113755277916503" flag="0"/>
			<psa30 value="0.00059039202724267" flag="0"/>
		</comp>
	</station>
	<station code="DATC" name="DATC" netid="KO" source="Bogazici University Kandilli Observatory And Earthquake Research Institute (KOERI)" insttype="" lat="36.7584" lon="27.6602">
		<comp name=".HNE" depth="0.0">
			<acc value="0.10256319971262" flag="0"/>
			<vel value="0.00960153350327" flag="0"/>
			<psa03 value="0.0139145689073292" flag="0"/>
			<psa10 value="0.00671533360788738" flag="0"/>
			<psa30 value="0.00140517173156461" flag="0"/>
		</comp>
		<comp name=".HNN" depth="0.0">
			<acc value="0.13350357001002" flag="0"/>
			<vel value="0.0139155725371" flag="0"/>
			<psa03 value="0.0166729013728811" flag="0"/>
			<psa10 value="0.00707396705309889" flag="0"/>
			<psa30 value="0.000884201490677199" flag="0"/>
		</comp>
		<comp name=".HNZ" depth="0.0">
			<acc value="0.1268113069446" flag="0"/>
			<vel value="0.0173725561696" flag="0"/>
			<psa03 value="0.0217907404045876" flag="0"/>
			<psa10 value="0.0090184905557311" flag="0"/>
			<psa30 value="0.00120019669464224" flag="0"/>
		</comp>
	</station>
	<station code="DIDI" name="DIDI" netid="KO" source="Bogazici University Kandilli Observatory And Earthquake Research Institute (KOERI)" insttype="" lat="37.3767" lon="27.2398">
		<comp name=".HNE" depth="0.0">
			<acc value="0.042042788520972" flag="0"/>
			<vel value="0.00683628928405" flag="0"/>
			<psa03 value="0.0208651738820451" flag="0"/>
			<psa10 value="0.0094029997775689" flag="0"/>
			<psa30 value="0.00235509434677755" flag="0"/>
		</comp>
		<comp name=".HNN" depth="0.0">
			<acc value="0.04119106715544" flag="0"/>
			<vel value="0.00735979124033" flag="0"/>
			<psa03 value="0.0162252844808759" flag="0"/>
			<psa10 value="0.0118190542043317" flag="0"/>
			<psa30 value="0.00228012167186854" flag="0"/>
		</comp>
		<comp name=".HNZ" depth="0.0">
			<acc value="0.074776484486058" flag="0"/>
			<vel value="0.00881753408968" flag="0"/>
			<psa03 value="0.0102376371775733" flag="0"/>
			<psa10 value="0.00690404798430501" flag="0"/>
			<psa30 value="0.00113795069614914" flag="0"/>
		</comp>
	</station>
	<station code="GMLD" name="GMLD" netid="KO" source="Bogazici University Kandilli Observatory And Earthquake Research Institute (KOERI)" insttype="" lat="38.0766" lon="26.9157">
		<comp name=".HNE" depth="0.0">
			<acc value="0.0097818790504692" flag="0"/>
			<vel value="0.00411335609994" flag="0"/>
			<psa03 value="0.0148519422016069" flag="0"/>
			<psa10 value="0.00376707111247515" flag="0"/>
			<psa30 value="0.000702918023203985" flag="0"/>
		</comp>
		<comp name=".HNN" depth="0.0">
			<acc value="0.018051900146502" flag="0"/>
			<vel value="0.00589869485821" flag="0"/>
			<psa03 value="0.0184784936407664" flag="0"/>
			<psa10 value="0.00584674513067238" flag="0"/>
			<psa30 value="0.000457925595742176" flag="0"/>
		</comp>
		<comp name=".HNZ" depth="0.0">
			<acc value="0.0082726004669838" flag="0"/>
			<vel value="0.00308030420528" flag="0"/>
			<psa03 value="0.00812042921461423" flag="0"/>
			<psa10 value="0.00296206950381776" flag="0"/>
			<psa30 value="0.000674920126813955" flag="0"/>
		</comp>
	</station>
	<station code="KUSD" name="KUSD" netid="KO" source="Bogazici University Kandilli Observatory And Earthquake Research Institute (KOERI)" insttype="" lat="37.8606" lon="27.2868">
		<comp name=".HNE" depth="0.0">
			<acc value="0.0056215206309954" flag="0"/>
			<vel value="0.00209115472321" flag="0"/>
			<psa03 value="0.00313271859494287" flag="0"/>
			<psa10 value="0.00387459518853933" flag="0"/>
			<psa30 value="0.000671914094342715" flag="0"/>
		</comp>
		<comp name=".HNN" depth="0.0">
			<acc value="0.01277975452812" flag="0"/>
			<vel value="0.00217296648576" flag="0"/>
			<psa03 value="0.00432647996743957" flag="0"/>
			<psa10 value="0.00283136139192206" flag="0"/>
			<psa30 value="0.000634939926238268" flag="0"/>
		</comp>
		<comp name=".HNZ" depth="0.0">
			<acc value="0.0027162967180212" flag="0"/>
			<vel value="0.00112517770456" flag="0"/>
			<psa03 value="0.00250873748060979" flag="0"/>
			<psa10 value="0.00118979655255731" flag="0"/>
			<psa30 value="0.000270433956589256" flag="0"/>
		</comp>
	</station>
	<station code="YKAV" name="YKAV" netid="KO" source="Bogazici University Kandilli Observatory And Earthquake Research Institute (KOERI)" insttype="" lat="37.1246" lon="27.2801">
		<comp name=".HNE" depth="0.0">
			<acc value="0.0078529904761038" flag="0"/>
			<vel value="0.0035921800992" flag="0"/>
			<psa03 value="0.00929009719419041" flag="0"/>
			<psa10 value="0.00559245062867138" flag="0"/>
			<psa30 value="0.000965546983580515" flag="0"/>
		</comp>
		<comp name=".HNN" depth="0.0">
			<acc value="0.01139027014122" flag="0"/>
			<vel value="0.00330311258039" flag="0"/>
			<psa03 value="0.00446712600329913" flag="0"/>
			<psa10 value="0.00488393541174094" flag="0"/>
			<psa30 value="0.00077913812449331" flag="0"/>
		</comp>
		<comp name=".HNZ" depth="0.0">
			<acc value="0.01152853223109" flag="0"/>
			<vel value="0.00278371346198" flag="0"/>
			<psa03 value="0.00490505703232689" flag="0"/>
			<psa10 value="0.00252446285827565" flag="0"/>
			<psa30 value="0.00089041336051594" flag="0"/>
		</comp>
	</station>
</stationlist>
