<?xml version="1.0" encoding="UTF-8" standalone="yes"?>
<!DOCTYPE earthquake SYSTEM "stationlist.dtd">
<stationlist created="" xmlns="ch.ethz.sed.shakemap.usgs.xml">
  <station code="THERA" name="THERA" netid="GE" insttype="STS-2/N" lat="36.367" lon="25.4753">
    <comp name="--.HHE">
      <acc value="0.2048483956" flag="0"/>
      <vel value="0.0605965854" flag="0"/>
      <psa03 value="0.1531686290" flag="0"/>
      <psa10 value="0.0536628322" flag="0"/>
      <psa30 value="0.0061327633" flag="0"/>
    </comp>
    <comp name="--.HHZ">
      <acc value="0.1865884034" flag="0"/>
      <vel value="0.0375890558" flag="0"/>
      <psa03 value="0.1235402896" flag="0"/>
      <psa10 value="0.0332897076" flag="0"/>
      <psa30 value="0.0035814378" flag="0"/>
    </comp>
    <comp name="--.HHN">
      <acc value="0.1900307189" flag="0"/>
      <vel value="0.0400531141" flag="0"/>
      <psa03 value="0.0861924602" flag="0"/>
      <psa10 value="0.0231783233" flag="0"/>
      <psa30 value="0.0022200548" flag="0"/>
    </comp>
  </station>
</stationlist>
