<?xml version="1.0" encoding="UTF-8" standalone="yes"?>
<!DOCTYPE earthquake SYSTEM "stationlist.dtd">
<stationlist created="" xmlns="ch.ethz.sed.shakemap.usgs.xml">
  <station code="THERA" name="THERA" netid="GE" insttype="STS-2/N" lat="36.367" lon="25.4753">
    <comp name="--.HHE">
      <acc value="0.2048483956" flag="0"/>
      <vel value="0.0605965854" flag="0"/>
      <psa03 value="0.1531686290" flag="0"/>
      <psa10 value="0.0536628322" flag="0"/>
      <psa30 value="0.0061327633" flag="0"/>
    </comp>
    <comp name="--.HHZ">
      <acc value="0.1865884034" flag="0"/>
      <vel value="0.0375890558" flag="0"/>
      <psa03 value="0.1235402896" flag="0"/>
      <psa10 value="0.0332897076" flag="0"/>
      <psa30 value="0.0035814378" flag="0"/>
    </comp>
    <comp name="--.HHN">
      <acc value="0.1900307189" flag="0"/>
      <vel value="0.0400531141" flag="0"/>
      <psa03 value="0.0861924602" flag="0"/>
      <psa10 value="0.0231783233" flag="0"/>
      <psa30 value="0.0022200548" flag="0"/>
    </comp>
  </station>
  <station code="SNT1" name="SNT1" netid="HA" insttype="30" lat="36.4159" lon="25.4282">
    <comp name="--.HHE">
      <acc value="0.1879794669" flag="0"/>
      <vel value="0.0769734567" flag="0"/>
      <psa03 value="0.2749604659" flag="0"/>
      <psa10 value="0.0905084646" flag="0"/>
      <psa30 value="0.0143694142" flag="0"/>
    </comp>
    <comp name="--.HHZ">
      <acc value="0.1458373252" flag="0"/>
      <vel value="0.0474875632" flag="0"/>
      <psa03 value="0.2711056780" flag="0"/>
      <psa10 value="0.0539109133" flag="0"/>
      <psa30 value="0.0063946805" flag="0"/>
    </comp>
    <comp name="--.HHN">
      <acc value="0.2274977790" flag="0"/>
      <vel value="0.0725088587" flag="0"/>
      <psa03 value="0.2640315462" flag="0"/>
      <psa10 value="0.0679559658" flag="0"/>
      <psa30 value="0.0158917387" flag="0"/>
    </comp>
  </station>
  <station code="SAP3" name="SAP3" netid="HL" insttype="LE3D20_SMART24" lat="36.4356" lon="25.3454">
    <comp name="--.HHE">
      <acc value="1.5597045822" flag="0"/>
      <vel value="0.3927912858" flag="0"/>
      <psa03 value="1.6878295692" flag="0"/>
      <psa10 value="0.2854198994" flag="0"/>
      <psa30 value="0.0562898029" flag="0"/>
    </comp>
    <comp name="--.HHN">
      <acc value="1.0834732928" flag="0"/>
      <vel value="0.3206270334" flag="0"/>
      <psa03 value="1.6326926836" flag="0"/>
      <psa10 value="0.2715864024" flag="0"/>
      <psa30 value="0.0389084273" flag="0"/>
    </comp>
    <comp name="--.HHZ">
      <acc value="1.1704703053" flag="0"/>
      <vel value="0.3002122933" flag="0"/>
      <psa03 value="0.7216486204" flag="0"/>
      <psa10 value="0.1257891754" flag="0"/>
      <psa30 value="0.0153276271" flag="0"/>
    </comp>
  </station>
  <station code="THERA" name="THERA" netid="HL" insttype="120" lat="36.367" lon="25.4753">
    <comp name="--.HHE">
      <acc value="0.2086586984" flag="0"/>
      <vel value="0.0606611385" flag="0"/>
      <psa03 value="0.1483452122" flag="0"/>
      <psa10 value="0.0534909579" flag="0"/>
      <psa30 value="0.0061044734" flag="0"/>
    </comp>
    <comp name="--.HHZ">
      <acc value="0.1843981534" flag="0"/>
      <vel value="0.0372947831" flag="0"/>
      <psa03 value="0.1198747402" flag="0"/>
      <psa10 value="0.0330747528" flag="0"/>
      <psa30 value="0.0035749295" flag="0"/>
    </comp>
    <comp name="--.HHN">
      <acc value="0.1831064496" flag="0"/>
      <vel value="0.0389529694" flag="0"/>
      <psa03 value="0.0837324618" flag="0"/>
      <psa10 value="0.0229361100" flag="0"/>
      <psa30 value="0.0022323815" flag="0"/>
    </comp>
  </station>
  <station code="THRA" name="THRA" netid="HL" insttype="CMG-5" lat="36.415" lon="25.4324">
    <comp name="00.HNE">
      <acc value="0.6293257863" flag="0"/>
      <vel value="0.3019478122" flag="0"/>
      <psa03 value="1.6684969329" flag="0"/>
      <psa10 value="0.2324529401" flag="0"/>
      <psa30 value="0.0265741155" flag="0"/>
    </comp>
    <comp name="00.HNN">
      <acc value="0.6070899130" flag="0"/>
      <vel value="0.2402431300" flag="0"/>
      <psa03 value="1.0317336631" flag="0"/>
      <psa10 value="0.3489969543" flag="0"/>
      <psa30 value="0.0233827365" flag="0"/>
    </comp>
    <comp name="00.HNZ">
      <acc value="0.5409123172" flag="0"/>
      <vel value="0.1567967967" flag="0"/>
      <psa03 value="0.6437408462" flag="0"/>
      <psa10 value="0.1012007351" flag="0"/>
      <psa30 value="0.0103228800" flag="0"/>
    </comp>
  </station>
  <station code="CMBO" name="CMBO" netid="HT" insttype="120P," lat="36.4709" lon="25.4056">
    <comp name="--.HHE">
      <acc value="1.3278506312" flag="0"/>
      <vel value="0.4151736622" flag="0"/>
      <psa03 value="1.2005920016" flag="0"/>
      <psa10 value="0.3327594357" flag="0"/>
      <psa30 value="0.0327798931" flag="0"/>
    </comp>
    <comp name="--.HHZ">
      <acc value="1.2201010728" flag="0"/>
      <vel value="0.3100043162" flag="0"/>
      <psa03 value="1.5592211436" flag="0"/>
      <psa10 value="0.0993553793" flag="0"/>
      <psa30 value="0.0147910584" flag="0"/>
    </comp>
  </station>
</stationlist>
