<?xml version="1.0" encoding="UTF-8" standalone="yes"?>
<!DOCTYPE earthquake SYSTEM "stationlist.dtd">
<stationlist created="" xmlns="ch.ethz.sed.shakemap.usgs.xml">
  <station code="THERA" name="THERA" netid="GE" insttype="STS-2/N" lat="36.367" lon="25.4753">
    <comp name="--.HHN">
      <acc value="0.1900307188" flag="0"/>
      <vel value="0.0400530809" flag="0"/>
      <psa03 value="0.0861924602" flag="0"/>
      <psa10 value="0.0231783290" flag="0"/>
      <psa30 value="0.0022199468" flag="0"/>
    </comp>
    <comp name="--.HHZ">
      <acc value="0.1865884036" flag="0"/>
      <vel value="0.0375890485" flag="0"/>
      <psa03 value="0.1235402896" flag="0"/>
      <psa10 value="0.0332896362" flag="0"/>
      <psa30 value="0.0035815465" flag="0"/>
    </comp>
    <comp name="--.HHE">
      <acc value="0.2048483953" flag="0"/>
      <vel value="0.0605965601" flag="0"/>
      <psa03 value="0.1531686289" flag="0"/>
      <psa10 value="0.0536629216" flag="0"/>
      <psa30 value="0.0061344241" flag="0"/>
    </comp>
  </station>
</stationlist>
