<?xml version="1.0" encoding="UTF-8" standalone="yes"?>
<!DOCTYPE earthquake SYSTEM "stationlist.dtd">
<stationlist created="" xmlns="ch.ethz.sed.shakemap.usgs.xml">
  <station code="AKS" name="AKS" netid="KO" insttype="CMG-5T" commtype="DIG" lat="38.8785" lon="27.8129">
    <comp name="--.HNE">
      <acc value="0.0345248804" flag="0"/>
      <vel value="0.0136880972" flag="0"/>
      <psa03 value="0.0492301734" flag="0"/>
      <psa10 value="0.0133449715" flag="0"/>
      <psa30 value="0.0031284552" flag="0"/>
    </comp>
    <comp name="--.HNZ">
      <acc value="0.0219265394" flag="0"/>
      <vel value="0.0045271593" flag="0"/>
      <psa03 value="0.0152556964" flag="0"/>
      <psa10 value="0.0030935990" flag="0"/>
      <psa30 value="0.0019842085" flag="0"/>
    </comp>
    <comp name="--.HNN">
      <acc value="0.0315372937" flag="0"/>
      <vel value="0.0115197723" flag="0"/>
      <psa03 value="0.0424175898" flag="0"/>
      <psa10 value="0.0067942881" flag="0"/>
      <psa30 value="0.0031256051" flag="0"/>
    </comp>
  </station>
  <station code="BALB" name="BALB" netid="KO" insttype="CMG-5T" commtype="DIG" lat="39.6507" lon="27.8642">
    <comp name="--.HNE">
      <acc value="0.0550539154" flag="0"/>
      <vel value="0.0239169884" flag="0"/>
      <psa03 value="0.0948251679" flag="0"/>
      <psa10 value="0.0328057307" flag="0"/>
      <psa30 value="0.0014021037" flag="0"/>
    </comp>
    <comp name="--.HNZ">
      <acc value="0.0330362315" flag="0"/>
      <vel value="0.0126983842" flag="0"/>
      <psa03 value="0.0787160767" flag="0"/>
      <psa10 value="0.0160636803" flag="0"/>
      <psa30 value="0.0025524011" flag="0"/>
    </comp>
    <comp name="--.HNN">
      <acc value="0.0488907636" flag="0"/>
      <vel value="0.0168979132" flag="0"/>
      <psa03 value="0.1095805909" flag="0"/>
      <psa10 value="0.0190624764" flag="0"/>
      <psa30 value="0.0022782874" flag="0"/>
    </comp>
  </station>
</stationlist>
