<?xml version="1.0" encoding="UTF-8" standalone="yes"?>
<!DOCTYPE earthquake SYSTEM "stationlist.dtd">
<stationlist created="" xmlns="ch.ethz.sed.shakemap.usgs.xml">
  <station code="PDG" name="PDG" netid="MN" insttype="" lat="42.4297" lon="19.2608">
    <comp name="--.HNE">
      <acc value="0.0170833485" flag="0"/>
      <vel value="0.0048567566" flag="0"/>
      <psa03 value="0.0445773304" flag="0"/>
      <psa10 value="0.0048946632" flag="0"/>
      <psa30 value="0.0007507972" flag="0"/>
    </comp>
    <comp name="--.HNN">
      <acc value="0.0188029857" flag="0"/>
      <vel value="0.0075257880" flag="0"/>
      <psa03 value="0.0240002383" flag="0"/>
      <psa10 value="0.0053183640" flag="0"/>
      <psa30 value="0.0009998881" flag="0"/>
    </comp>
    <comp name="--.HNZ">
      <acc value="0.0131451501" flag="0"/>
      <vel value="0.0054664256" flag="0"/>
      <psa03 value="0.0281220715" flag="0"/>
      <psa10 value="0.0046019013" flag="0"/>
      <psa30 value="0.0007319454" flag="0"/>
    </comp>
  </station>
</stationlist>
