<stationlist created="1778138836">
	<station code="BLY" name="BLY" netid="MN" source="Mediterranean Very Broadband Seismographic Network (MedNet)" insttype="" lat="44.7488" lon="17.1839">
		<comp name="--.HNE" depth="1.0">
			<acc value="0.00372193909655069" flag="0"/>
			<vel value="0.00302795431509878" flag="0"/>
			<psa03 value="0.0154851976933531" flag="0"/>
			<psa10 value="0.00455590540012753" flag="0"/>
			<psa30 value="0.000373126696979169" flag="0"/>
		</comp>
		<comp name="--.HNN" depth="1.0">
			<acc value="0.00393028119999177" flag="0"/>
			<vel value="0.00289116020693098" flag="0"/>
			<psa03 value="0.00925088235682571" flag="0"/>
			<psa10 value="0.00467632915886796" flag="0"/>
			<psa30 value="0.000505932630135007" flag="0"/>
		</comp>
		<comp name="--.HNZ" depth="1.0">
			<acc value="0.00234843404721496" flag="0"/>
			<vel value="0.00170254585412046" flag="0"/>
			<psa03 value="0.0103797774530775" flag="0"/>
			<psa10 value="0.0014498316301668" flag="0"/>
			<psa30 value="0.000581615560424513" flag="0"/>
		</comp>
	</station>
</stationlist>
