<?xml version="1.0" encoding="UTF-8" standalone="yes"?>
<!DOCTYPE earthquake SYSTEM "stationlist.dtd">
<stationlist created="" xmlns="ch.ethz.sed.shakemap.usgs.xml">
  <station code="PDG" name="PDG" netid="MN" insttype="" lat="42.4297" lon="19.2608">
    <comp name="--.HHN">
      <acc value="0.0196201985" flag="0"/>
      <vel value="0.0076652085" flag="0"/>
      <psa03 value="0.0242596715" flag="0"/>
      <psa10 value="0.0052859941" flag="0"/>
      <psa30 value="0.0009971100" flag="0"/>
    </comp>
    <comp name="--.HHZ">
      <acc value="0.0138331357" flag="0"/>
      <vel value="0.0055300727" flag="0"/>
      <psa03 value="0.0283645896" flag="0"/>
      <psa10 value="0.0045796774" flag="0"/>
      <psa30 value="0.0007386921" flag="0"/>
    </comp>
    <comp name="--.HHE">
      <acc value="0.0178717906" flag="0"/>
      <vel value="0.0049596421" flag="0"/>
      <psa03 value="0.0454244444" flag="0"/>
      <psa10 value="0.0048914174" flag="0"/>
      <psa30 value="0.0007279741" flag="0"/>
    </comp>
  </station>
</stationlist>
