<?xml version="1.0" encoding="UTF-8" standalone="yes"?>
<!DOCTYPE earthquake SYSTEM "stationlist.dtd">
<stationlist created="" xmlns="ch.ethz.sed.shakemap.usgs.xml">
  <station code="GIL" name="GIL" netid="VI" source="ODC" insttype="CMG-3ESP" lat="66.0773" lon="-16.3513">
    <comp name="--.HHN">
      <acc value="0.0005062439" flag="0"/>
      <vel value="0.0012868034" flag="0"/>
      <psa03 value="0.0005326488" flag="0"/>
      <psa10 value="0.0018753458" flag="0"/>
      <psa30 value="0.0006771461" flag="0"/>
    </comp>
    <comp name="--.HHE">
      <acc value="0.0007804755" flag="0"/>
      <vel value="0.0016891033" flag="0"/>
      <psa03 value="0.0008127797" flag="0"/>
      <psa10 value="0.0033581094" flag="0"/>
      <psa30 value="0.0007325182" flag="0"/>
    </comp>
    <comp name="--.HHZ">
      <acc value="0.0030583709" flag="0"/>
      <vel value="0.0058555572" flag="0"/>
      <psa03 value="0.0033408564" flag="0"/>
      <psa10 value="0.0064990445" flag="0"/>
      <psa30 value="0.0026296831" flag="0"/>
    </comp>
  </station>
</stationlist>
