<?xml version="1.0" encoding="UTF-8" standalone="yes"?>
<!DOCTYPE earthquake SYSTEM "stationlist.dtd">
<stationlist created="" xmlns="ch.ethz.sed.shakemap.usgs.xml">
  <station code="EIL" name="EIL" netid="GE" insttype="STS-2/N" lat="29.6699" lon="34.9512">
    <comp name="--.HHE">
      <acc value="0.0397222285" flag="0"/>
      <vel value="0.0134479199" flag="0"/>
      <psa03 value="0.0330513598" flag="0"/>
      <psa10 value="0.0178265087" flag="0"/>
      <psa30 value="0.0009973648" flag="0"/>
    </comp>
    <comp name="--.HHN">
      <acc value="0.0557155551" flag="0"/>
      <vel value="0.0271656641" flag="0"/>
      <psa03 value="0.0400882221" flag="0"/>
      <psa10 value="0.0254929541" flag="0"/>
      <psa30 value="0.0017007861" flag="0"/>
    </comp>
    <comp name="--.HHZ">
      <acc value="0.0587445924" flag="0"/>
      <vel value="0.0161658074" flag="0"/>
      <psa03 value="0.0284560492" flag="0"/>
      <psa10 value="0.0127142965" flag="0"/>
      <psa30 value="0.0010300260" flag="0"/>
    </comp>
  </station>
</stationlist>
