<stationlist created="1778069853">
	<station code="AGRP" name="AGRP" netid="CL" source="Corinth Riff Laboratory (CRLNET)" insttype="" lat="38.3959" lon="21.72277">
		<comp name="00.HNE" depth="0.0">
			<acc value="0.0318822934982693" flag="0"/>
			<vel value="0.0121534783848298" flag="0"/>
			<psa03 value="0.0593729081824466" flag="0"/>
			<psa10 value="0.0090119752570523" flag="0"/>
			<psa30 value="0.00096151002022666" flag="0"/>
		</comp>
		<comp name="00.HNN" depth="0.0">
			<acc value="0.0183078848068899" flag="0"/>
			<vel value="0.00658750257935369" flag="0"/>
			<psa03 value="0.0380756178321493" flag="0"/>
			<psa10 value="0.00753011337385514" flag="0"/>
			<psa30 value="0.000916767813608388" flag="0"/>
		</comp>
		<comp name="00.HNZ" depth="0.0">
			<acc value="0.0119237131970481" flag="0"/>
			<vel value="0.00477023045582449" flag="0"/>
			<psa03 value="0.0193286332590934" flag="0"/>
			<psa10 value="0.00360398474310179" flag="0"/>
			<psa30 value="0.000822361757643835" flag="0"/>
		</comp>
	</station>
	<station code="ART2" name="ART2" netid="HI" source="ITSAK Strong Motion Network" insttype="" lat="39.1474" lon="20.9937">
		<comp name="--.HNE" depth="0.0">
			<acc value="0.0426466156158609" flag="0"/>
			<vel value="0.010832339169463" flag="0"/>
			<psa03 value="0.0536011635286896" flag="0"/>
			<psa10 value="0.0086858045708051" flag="0"/>
			<psa30 value="0.00126888897969419" flag="0"/>
		</comp>
		<comp name="--.HNN" depth="0.0">
			<acc value="0.0293492235291021" flag="0"/>
			<vel value="0.0117677295067586" flag="0"/>
			<psa03 value="0.0425050962873582" flag="0"/>
			<psa10 value="0.0138642675648039" flag="0"/>
			<psa30 value="0.000936454384520428" flag="0"/>
		</comp>
		<comp name="--.HNZ" depth="0.0">
			<acc value="0.0252996489747931" flag="0"/>
			<vel value="0.00862682710400616" flag="0"/>
			<psa03 value="0.0340935614431231" flag="0"/>
			<psa10 value="0.00767507812329834" flag="0"/>
			<psa30 value="0.0011856684753842" flag="0"/>
		</comp>
	</station>
	<station code="KRK1" name="KRK1" netid="HI" source="ITSAK Strong Motion Network" insttype="" lat="39.618861" lon="19.9202">
		<comp name="--.HNE" depth="0.0">
			<acc value="0.0806745941414685" flag="0"/>
			<vel value="0.0336487116916442" flag="0"/>
			<psa03 value="0.165859359933933" flag="0"/>
			<psa10 value="0.0157447825089698" flag="0"/>
			<psa30 value="0.00123980654539231" flag="0"/>
		</comp>
		<comp name="--.HNN" depth="0.0">
			<acc value="0.0740038948114044" flag="0"/>
			<vel value="0.0314644281814458" flag="0"/>
			<psa03 value="0.159371739974284" flag="0"/>
			<psa10 value="0.0220346419153665" flag="0"/>
			<psa30 value="0.00106620678371342" flag="0"/>
		</comp>
		<comp name="--.HNZ" depth="0.0">
			<acc value="0.0334131302815171" flag="0"/>
			<vel value="0.0116795284901645" flag="0"/>
			<psa03 value="0.100804191510966" flag="0"/>
			<psa10 value="0.0063583149825226" flag="0"/>
			<psa30 value="0.000803570030864161" flag="0"/>
		</comp>
	</station>
	<station code="MSL1" name="MSL1" netid="HI" source="ITSAK Strong Motion Network" insttype="" lat="38.3727" lon="21.4243">
		<comp name="--.HNE" depth="0.0">
			<acc value="0.0977194476263033" flag="0"/>
			<vel value="0.0535215745316597" flag="0"/>
			<psa03 value="0.28451569188559" flag="0"/>
			<psa10 value="0.0815507251589915" flag="0"/>
			<psa30 value="0.00603169687420921" flag="0"/>
		</comp>
		<comp name="--.HNN" depth="0.0">
			<acc value="0.0848985340603274" flag="0"/>
			<vel value="0.0475854073155967" flag="0"/>
			<psa03 value="0.216283826792726" flag="0"/>
			<psa10 value="0.0865681162091645" flag="0"/>
			<psa30 value="0.00434536310676655" flag="0"/>
		</comp>
		<comp name="--.HNZ" depth="0.0">
			<acc value="0.0450760313783245" flag="0"/>
			<vel value="0.0144917928745005" flag="0"/>
			<psa03 value="0.0893501866166887" flag="0"/>
			<psa10 value="0.0252520539932864" flag="0"/>
			<psa30 value="0.00156597723163951" flag="0"/>
		</comp>
	</station>
	<station code="VAS2" name="VAS2" netid="HI" source="ITSAK Strong Motion Network" insttype="" lat="38.630558" lon="20.608081">
		<comp name="--.HNE" depth="0.0">
			<acc value="0.921121507898608" flag="0"/>
			<vel value="0.550176338316488" flag="0"/>
			<psa03 value="2.04807450795139" flag="0"/>
			<psa10 value="0.840195553779812" flag="0"/>
			<psa30 value="0.0490034543765959" flag="0"/>
		</comp>
		<comp name="--.HNN" depth="0.0">
			<acc value="1.90763518217839" flag="0"/>
			<vel value="0.790408628035896" flag="0"/>
			<psa03 value="4.92638540191143" flag="0"/>
			<psa10 value="1.23847412247922" flag="0"/>
			<psa30 value="0.0698045536554967" flag="0"/>
		</comp>
		<comp name="--.HNZ" depth="0.0">
			<acc value="0.674075686734015" flag="0"/>
			<vel value="0.365924923151452" flag="0"/>
			<psa03 value="0.926521614651172" flag="0"/>
			<psa10 value="0.400449013142459" flag="0"/>
			<psa30 value="0.0186454197640324" flag="0"/>
		</comp>
	</station>
	<station code="JAN" name="JAN" netid="HL" source="National Observatory of Athens Seismic Network" insttype="" lat="39.65616" lon="20.84874">
		<comp name="00.HNE" depth="0.0">
			<acc value="0.0351353391370215" flag="0"/>
			<vel value="0.0205840221513176" flag="0"/>
			<psa03 value="0.119819629323732" flag="0"/>
			<psa10 value="0.0249258833070392" flag="0"/>
			<psa30 value="0.00191004480053402" flag="0"/>
		</comp>
		<comp name="00.HNN" depth="0.0">
			<acc value="0.0236963314410564" flag="0"/>
			<vel value="0.0134954871949228" flag="0"/>
			<psa03 value="0.0730192812010195" flag="0"/>
			<psa10 value="0.0106065875009275" flag="0"/>
			<psa30 value="0.00070961139696579" flag="0"/>
		</comp>
		<comp name="00.HNZ" depth="0.0">
			<acc value="0.0128844207178898" flag="0"/>
			<vel value="0.0126382317312686" flag="0"/>
			<psa03 value="0.0422813852542668" flag="0"/>
			<psa10 value="0.0179031465562353" flag="0"/>
			<psa30 value="0.000746747428458955" flag="0"/>
		</comp>
	</station>
	<station code="ANX" name="ANX" netid="HP" source="University of Patras, Seismological Laboratory (PSLNET)" insttype="" lat="38.5933" lon="21.9209">
		<comp name="--.HNE" depth="0.0">
			<acc value="0.0141417599221274" flag="0"/>
			<vel value="0.00967967829621551" flag="0"/>
			<psa03 value="0.0636681600178007" flag="0"/>
			<psa10 value="0.0141703042580728" flag="0"/>
			<psa30 value="0.00108455108842691" flag="0"/>
		</comp>
		<comp name="--.HNN" depth="0.0">
			<acc value="0.0152875006901283" flag="0"/>
			<vel value="0.00815570985538184" flag="0"/>
			<psa03 value="0.0531984836691251" flag="0"/>
			<psa10 value="0.0138078923844648" flag="0"/>
			<psa30 value="0.00113242524950846" flag="0"/>
		</comp>
		<comp name="--.HNZ" depth="0.0">
			<acc value="0.00867206687376821" flag="0"/>
			<vel value="0.00476215140433752" flag="0"/>
			<psa03 value="0.0254583155657966" flag="0"/>
			<psa10 value="0.00822674953090163" flag="0"/>
			<psa30 value="0.000498428181727547" flag="0"/>
		</comp>
	</station>
	<station code="PDO" name="PDO" netid="HP" source="University of Patras, Seismological Laboratory (PSLNET)" insttype="" lat="38.5986" lon="21.1833">
		<comp name="--.HNE" depth="0.0">
			<acc value="0.0431930278233293" flag="0"/>
			<vel value="0.0184855551189318" flag="0"/>
			<psa03 value="0.0800885498467064" flag="0"/>
			<psa10 value="0.0221473922760445" flag="0"/>
			<psa30 value="0.00242726470904124" flag="0"/>
		</comp>
		<comp name="--.HNN" depth="0.0">
			<acc value="0.0635318272657514" flag="0"/>
			<vel value="0.0325445377595985" flag="0"/>
			<psa03 value="0.172749659753147" flag="0"/>
			<psa10 value="0.018801122643064" flag="0"/>
			<psa30 value="0.0025449367124473" flag="0"/>
		</comp>
		<comp name="--.HNZ" depth="0.0">
			<acc value="0.0343121860162413" flag="0"/>
			<vel value="0.0137932681277834" flag="0"/>
			<psa03 value="0.0537353901485444" flag="0"/>
			<psa10 value="0.0126763619790888" flag="0"/>
			<psa30 value="0.00243576572829871" flag="0"/>
		</comp>
	</station>
	<station code="PVO" name="PVO" netid="HP" source="University of Patras, Seismological Laboratory (PSLNET)" insttype="" lat="38.616" lon="21.525">
		<comp name="--.HNE" depth="0.0">
			<acc value="0.0453871561700082" flag="0"/>
			<vel value="0.0171028006572928" flag="0"/>
			<psa03 value="0.145591140335856" flag="0"/>
			<psa10 value="0.0114481884074172" flag="0"/>
			<psa30 value="0.00111408094479497" flag="0"/>
		</comp>
		<comp name="--.HNN" depth="0.0">
			<acc value="0.0516048706501207" flag="0"/>
			<vel value="0.02078782635953" flag="0"/>
			<psa03 value="0.165143484628041" flag="0"/>
			<psa10 value="0.0147541900544413" flag="0"/>
			<psa30 value="0.00226753503141401" flag="0"/>
		</comp>
		<comp name="--.HNZ" depth="0.0">
			<acc value="0.0422034618308133" flag="0"/>
			<vel value="0.0145702847385449" flag="0"/>
			<psa03 value="0.0825046290040931" flag="0"/>
			<psa10 value="0.00673280725191753" flag="0"/>
			<psa30 value="0.00162772147677273" flag="0"/>
		</comp>
	</station>
	<station code="SERG" name="SERG" netid="HP" source="University of Patras, Seismological Laboratory (PSLNET)" insttype="" lat="38.4133" lon="22.0566">
		<comp name="--.HNE" depth="0.0">
			<acc value="0.0185753120608826" flag="0"/>
			<vel value="0.00724570635990089" flag="0"/>
			<psa03 value="0.0613415652736506" flag="0"/>
			<psa10 value="0.00543215130552437" flag="0"/>
			<psa30 value="0.000648314573898758" flag="0"/>
		</comp>
		<comp name="--.HNN" depth="0.0">
			<acc value="0.0367508734043288" flag="0"/>
			<vel value="0.0119478115019201" flag="0"/>
			<psa03 value="0.0533327102889799" flag="0"/>
			<psa10 value="0.00511806101506411" flag="0"/>
			<psa30 value="0.000663974346215153" flag="0"/>
		</comp>
		<comp name="--.HNZ" depth="0.0">
			<acc value="0.0139889053107499" flag="0"/>
			<vel value="0.00449853309377415" flag="0"/>
			<psa03 value="0.0240713071606302" flag="0"/>
			<psa10 value="0.00423619212261797" flag="0"/>
			<psa30 value="0.000614757918935054" flag="0"/>
		</comp>
	</station>
</stationlist>
