<?xml version="1.0" encoding="UTF-8" standalone="yes"?>
<!DOCTYPE earthquake SYSTEM "stationlist.dtd">
<stationlist created="" xmlns="ch.ethz.sed.shakemap.usgs.xml">
  <station code="LAKA" name="LAKA" netid="HA" insttype="120s" lat="38.2401" lon="21.9785">
    <comp name="--.HHE">
      <acc value="0.0064591532" flag="0"/>
      <vel value="0.0034443943" flag="0"/>
      <psa03 value="0.0105351835" flag="0"/>
      <psa10 value="0.0056120826" flag="0"/>
      <psa30 value="0.0003573696" flag="0"/>
    </comp>
    <comp name="--.HHN">
      <acc value="0.0064594291" flag="0"/>
      <vel value="0.0025050889" flag="0"/>
      <psa03 value="0.0097427043" flag="0"/>
      <psa10 value="0.0043152199" flag="0"/>
      <psa30 value="0.0007802684" flag="0"/>
    </comp>
    <comp name="--.HHZ">
      <acc value="0.0056989450" flag="0"/>
      <vel value="0.0020664533" flag="0"/>
      <psa03 value="0.0075558001" flag="0"/>
      <psa10 value="0.0033574908" flag="0"/>
      <psa30 value="0.0003815132" flag="0"/>
    </comp>
  </station>
  <station code="ART2" name="ART2" netid="HI" insttype="CMG-5TD,ACCELEROMETER,GURALP" lat="39.1474" lon="20.9937">
    <comp name="--.HNZ">
      <acc value="0.0252382851" flag="0"/>
      <vel value="0.0080820440" flag="0"/>
      <psa03 value="0.0337622307" flag="0"/>
      <psa10 value="0.0075788015" flag="0"/>
      <psa30 value="0.0010175661" flag="0"/>
    </comp>
    <comp name="--.HNE">
      <acc value="0.0437905495" flag="0"/>
      <vel value="0.0109571888" flag="0"/>
      <psa03 value="0.0526799592" flag="0"/>
      <psa10 value="0.0086953745" flag="0"/>
      <psa30 value="0.0010800663" flag="0"/>
    </comp>
    <comp name="--.HNN">
      <acc value="0.0293179062" flag="0"/>
      <vel value="0.0120216962" flag="0"/>
      <psa03 value="0.0425335846" flag="0"/>
      <psa10 value="0.0138775790" flag="0"/>
      <psa30 value="0.0007477473" flag="0"/>
    </comp>
  </station>
  <station code="MSL1" name="MSL1" netid="HI" insttype="CMG-5TD,ACCELEROMETER,GURALP" lat="38.3727" lon="21.4243">
    <comp name="--.HNE">
      <acc value="0.0982410899" flag="0"/>
      <vel value="0.0533526689" flag="0"/>
      <psa03 value="0.2865861599" flag="0"/>
      <psa10 value="0.0814090743" flag="0"/>
      <psa30 value="0.0056147243" flag="0"/>
    </comp>
    <comp name="--.HNZ">
      <acc value="0.0450013019" flag="0"/>
      <vel value="0.0145394946" flag="0"/>
      <psa03 value="0.0874519836" flag="0"/>
      <psa10 value="0.0251964937" flag="0"/>
      <psa30 value="0.0014762863" flag="0"/>
    </comp>
    <comp name="--.HNN">
      <acc value="0.0848397170" flag="0"/>
      <vel value="0.0482582207" flag="0"/>
      <psa03 value="0.2172601549" flag="0"/>
      <psa10 value="0.0863943955" flag="0"/>
      <psa30 value="0.0039593568" flag="0"/>
    </comp>
  </station>
  <station code="EVR" name="EVR" netid="HL" insttype="DR24" lat="38.9166" lon="21.8105">
    <comp name="--.HHZ">
      <acc value="0.0043549430" flag="0"/>
      <vel value="0.0034710230" flag="0"/>
      <psa03 value="0.0100917533" flag="0"/>
      <psa10 value="0.0065725856" flag="0"/>
      <psa30 value="0.0006368810" flag="0"/>
    </comp>
    <comp name="--.HHN">
      <acc value="0.0065994075" flag="0"/>
      <vel value="0.0048950538" flag="0"/>
      <psa03 value="0.0152900871" flag="0"/>
      <psa10 value="0.0065640425" flag="0"/>
      <psa30 value="0.0007426626" flag="0"/>
    </comp>
    <comp name="--.HHE">
      <acc value="0.0073508996" flag="0"/>
      <vel value="0.0073682295" flag="0"/>
      <psa03 value="0.0146794896" flag="0"/>
      <psa10 value="0.0065538561" flag="0"/>
      <psa30 value="0.0010882957" flag="0"/>
    </comp>
  </station>
  <station code="JAN" name="JAN" netid="HL" insttype="CMG3EPSC60_DR24" lat="39.6562" lon="20.8487">
    <comp name="--.HHE">
      <acc value="0.0340034476" flag="0"/>
      <vel value="0.0204341989" flag="0"/>
      <psa03 value="0.1185072015" flag="0"/>
      <psa10 value="0.0252387674" flag="0"/>
      <psa30 value="0.0018157711" flag="0"/>
    </comp>
    <comp name="--.HHZ">
      <acc value="0.0131429667" flag="0"/>
      <vel value="0.0127265357" flag="0"/>
      <psa03 value="0.0407676937" flag="0"/>
      <psa10 value="0.0182796241" flag="0"/>
      <psa30 value="0.0006744427" flag="0"/>
    </comp>
    <comp name="--.HHN">
      <acc value="0.0243366769" flag="0"/>
      <vel value="0.0136457392" flag="0"/>
      <psa03 value="0.0726236008" flag="0"/>
      <psa10 value="0.0108362453" flag="0"/>
      <psa30 value="0.0006391179" flag="0"/>
    </comp>
  </station>
  <station code="KEK" name="KEK" netid="HL" insttype="120" lat="39.7127" lon="19.7962">
    <comp name="--.HHE">
      <acc value="0.0205601643" flag="0"/>
      <vel value="0.0086977534" flag="0"/>
      <psa03 value="0.0570219884" flag="0"/>
      <psa10 value="0.0104771681" flag="0"/>
      <psa30 value="0.0008453408" flag="0"/>
    </comp>
    <comp name="--.HHZ">
      <acc value="0.0096658131" flag="0"/>
      <vel value="0.0061858336" flag="0"/>
      <psa03 value="0.0254576414" flag="0"/>
      <psa10 value="0.0062627614" flag="0"/>
      <psa30 value="0.0008337156" flag="0"/>
    </comp>
    <comp name="--.HHN">
      <acc value="0.0148182641" flag="0"/>
      <vel value="0.0077893539" flag="0"/>
      <psa03 value="0.0460032286" flag="0"/>
      <psa10 value="0.0083134156" flag="0"/>
      <psa30 value="0.0007015365" flag="0"/>
    </comp>
  </station>
  <station code="ORTH" name="ORTH" netid="HL" insttype="30" lat="37.8511" lon="20.6963">
    <comp name="--.HHE">
      <acc value="0.0152013170" flag="0"/>
      <vel value="0.0082030947" flag="0"/>
      <psa03 value="0.0382318853" flag="0"/>
      <psa10 value="0.0140705210" flag="0"/>
      <psa30 value="0.0008315112" flag="0"/>
    </comp>
    <comp name="--.HHN">
      <acc value="0.0180976140" flag="0"/>
      <vel value="0.0089109729" flag="0"/>
      <psa03 value="0.0341574467" flag="0"/>
      <psa10 value="0.0134380511" flag="0"/>
      <psa30 value="0.0011547667" flag="0"/>
    </comp>
    <comp name="--.HHZ">
      <acc value="0.0066635008" flag="0"/>
      <vel value="0.0031190536" flag="0"/>
      <psa03 value="0.0189069808" flag="0"/>
      <psa10 value="0.0045833168" flag="0"/>
      <psa30 value="0.0006892511" flag="0"/>
    </comp>
  </station>
  <station code="RLS" name="RLS" netid="HL" insttype="CMG3ESPC-120s" lat="38.0559" lon="21.4647">
    <comp name="--.HHE">
      <acc value="0.0060569217" flag="0"/>
      <vel value="0.0039043531" flag="0"/>
      <psa03 value="0.0148633405" flag="0"/>
      <psa10 value="0.0042266141" flag="0"/>
      <psa30 value="0.0008124641" flag="0"/>
    </comp>
    <comp name="--.HHZ">
      <acc value="0.0033193834" flag="0"/>
      <vel value="0.0025295202" flag="0"/>
      <psa03 value="0.0101741501" flag="0"/>
      <psa10 value="0.0031971881" flag="0"/>
      <psa30 value="0.0005259141" flag="0"/>
    </comp>
    <comp name="--.HHN">
      <acc value="0.0065423550" flag="0"/>
      <vel value="0.0050184153" flag="0"/>
      <psa03 value="0.0184730627" flag="0"/>
      <psa10 value="0.0082017647" flag="0"/>
      <psa30 value="0.0006146930" flag="0"/>
    </comp>
  </station>
  <station code="TETR" name="TETR" netid="HL" insttype="60" lat="39.3445" lon="21.2747">
    <comp name="--.HHE">
      <acc value="0.0518231380" flag="0"/>
      <vel value="0.0324746539" flag="0"/>
      <psa03 value="0.1292911064" flag="0"/>
      <psa10 value="0.0279924324" flag="0"/>
      <psa30 value="0.0019188585" flag="0"/>
    </comp>
    <comp name="--.HHN">
      <acc value="0.0432620459" flag="0"/>
      <vel value="0.0209811971" flag="0"/>
      <psa03 value="0.1257858442" flag="0"/>
      <psa10 value="0.0266429979" flag="0"/>
      <psa30 value="0.0017887545" flag="0"/>
    </comp>
    <comp name="--.HHZ">
      <acc value="0.0221458952" flag="0"/>
      <vel value="0.0105429934" flag="0"/>
      <psa03 value="0.0557353182" flag="0"/>
      <psa10 value="0.0136082004" flag="0"/>
      <psa30 value="0.0010925660" flag="0"/>
    </comp>
  </station>
  <station code="AMPL" name="AMPL" netid="HP" insttype="Compact," lat="38.9224" lon="21.2135">
    <comp name="--.HHE">
      <acc value="0.0968607958" flag="0"/>
      <vel value="0.0261275410" flag="0"/>
      <psa03 value="0.1181273591" flag="0"/>
      <psa10 value="0.0206877758" flag="0"/>
      <psa30 value="0.0027506443" flag="0"/>
    </comp>
    <comp name="--.HHZ">
      <acc value="0.0554832904" flag="0"/>
      <vel value="0.0168754168" flag="0"/>
      <psa03 value="0.0458093203" flag="0"/>
      <psa10 value="0.0223698924" flag="0"/>
      <psa30 value="0.0013356002" flag="0"/>
    </comp>
    <comp name="--.HHN">
      <acc value="0.1325392111" flag="0"/>
      <vel value="0.0261968752" flag="0"/>
      <psa03 value="0.0669845890" flag="0"/>
      <psa10 value="0.0333120336" flag="0"/>
      <psa30 value="0.0037184430" flag="0"/>
    </comp>
  </station>
  <station code="ANX" name="ANX" netid="HP" insttype="120" lat="38.5933" lon="21.9209">
    <comp name="--.HHN">
      <acc value="0.0121866009" flag="0"/>
      <vel value="0.0068229544" flag="0"/>
      <psa03 value="0.0418970832" flag="0"/>
      <psa10 value="0.0111068472" flag="0"/>
      <psa30 value="0.0008521841" flag="0"/>
    </comp>
    <comp name="--.HHZ">
      <acc value="0.0071666659" flag="0"/>
      <vel value="0.0038555792" flag="0"/>
      <psa03 value="0.0212039225" flag="0"/>
      <psa10 value="0.0067638638" flag="0"/>
      <psa30 value="0.0003582801" flag="0"/>
    </comp>
    <comp name="--.HHE">
      <acc value="0.0112515708" flag="0"/>
      <vel value="0.0077945234" flag="0"/>
      <psa03 value="0.0507487314" flag="0"/>
      <psa10 value="0.0110852576" flag="0"/>
      <psa30 value="0.0008096178" flag="0"/>
    </comp>
  </station>
  <station code="AXS" name="AXS" netid="HP" insttype="40," lat="38.1962" lon="21.3763">
    <comp name="--.HHE">
      <acc value="0.0096181796" flag="0"/>
      <vel value="0.0045615365" flag="0"/>
      <psa03 value="0.0273341752" flag="0"/>
      <psa10 value="0.0035201343" flag="0"/>
      <psa30 value="0.0003408442" flag="0"/>
    </comp>
    <comp name="--.HHN">
      <acc value="0.0083013856" flag="0"/>
      <vel value="0.0066330145" flag="0"/>
      <psa03 value="0.0153025624" flag="0"/>
      <psa10 value="0.0067224971" flag="0"/>
      <psa30 value="0.0008717033" flag="0"/>
    </comp>
    <comp name="--.HHZ">
      <acc value="0.0058347203" flag="0"/>
      <vel value="0.0029926543" flag="0"/>
      <psa03 value="0.0139056848" flag="0"/>
      <psa10 value="0.0029815967" flag="0"/>
      <psa30 value="0.0004238149" flag="0"/>
    </comp>
  </station>
  <station code="DRO" name="DRO" netid="HP" insttype="120P," lat="37.952" lon="21.71">
    <comp name="--.HHE">
      <acc value="0.0172530688" flag="0"/>
      <vel value="0.0064593224" flag="0"/>
      <psa03 value="0.0381445992" flag="0"/>
      <psa10 value="0.0094743106" flag="0"/>
      <psa30 value="0.0006758049" flag="0"/>
    </comp>
    <comp name="--.HHN">
      <acc value="0.0142593569" flag="0"/>
      <vel value="0.0061237185" flag="0"/>
      <psa03 value="0.0298523125" flag="0"/>
      <psa10 value="0.0068695291" flag="0"/>
      <psa30 value="0.0005003855" flag="0"/>
    </comp>
    <comp name="--.HHZ">
      <acc value="0.0070455524" flag="0"/>
      <vel value="0.0038865700" flag="0"/>
      <psa03 value="0.0119631854" flag="0"/>
      <psa10 value="0.0060137031" flag="0"/>
      <psa30 value="0.0004421797" flag="0"/>
    </comp>
  </station>
  <station code="EFP" name="EFP" netid="HP" insttype="40," lat="38.4269" lon="21.9058">
    <comp name="--.HHN">
      <acc value="0.0290904706" flag="0"/>
      <vel value="0.0091870654" flag="0"/>
      <psa03 value="0.0588687518" flag="0"/>
      <psa10 value="0.0078302580" flag="0"/>
      <psa30 value="0.0007853196" flag="0"/>
    </comp>
    <comp name="--.HHZ">
      <acc value="0.0158736975" flag="0"/>
      <vel value="0.0042861573" flag="0"/>
      <psa03 value="0.0321126420" flag="0"/>
      <psa10 value="0.0044928706" flag="0"/>
      <psa30 value="0.0006418308" flag="0"/>
    </comp>
    <comp name="--.HHE">
      <acc value="0.0251607621" flag="0"/>
      <vel value="0.0072461023" flag="0"/>
      <psa03 value="0.0429218292" flag="0"/>
      <psa10 value="0.0111675054" flag="0"/>
      <psa30 value="0.0009115651" flag="0"/>
    </comp>
  </station>
  <station code="FSK" name="FSK" netid="HP" insttype="40," lat="38.4593" lon="20.5623">
    <comp name="--.HHE">
      <acc value="0.1543931136" flag="0"/>
      <vel value="0.0438913989" flag="0"/>
      <psa03 value="0.2383149869" flag="0"/>
      <psa10 value="0.0292515779" flag="0"/>
      <psa30 value="0.0064801767" flag="0"/>
    </comp>
    <comp name="--.HHN">
      <acc value="0.0652405030" flag="0"/>
      <vel value="0.0301378433" flag="0"/>
      <psa03 value="0.0939732598" flag="0"/>
      <psa10 value="0.0573794092" flag="0"/>
      <psa30 value="0.0033713263" flag="0"/>
    </comp>
    <comp name="--.HHZ">
      <acc value="0.0568656733" flag="0"/>
      <vel value="0.0263249214" flag="0"/>
      <psa03 value="0.0624246622" flag="0"/>
      <psa10 value="0.0352092875" flag="0"/>
      <psa30 value="0.0038498236" flag="0"/>
    </comp>
  </station>
  <station code="LTHK" name="LTHK" netid="HP" insttype="40," lat="37.7095" lon="20.8367">
    <comp name="--.HHE">
      <acc value="0.0107910763" flag="0"/>
      <vel value="0.0076113510" flag="0"/>
      <psa03 value="0.0244716267" flag="0"/>
      <psa10 value="0.0096738418" flag="0"/>
      <psa30 value="0.0012102832" flag="0"/>
    </comp>
    <comp name="--.HHZ">
      <acc value="0.0066900323" flag="0"/>
      <vel value="0.0028096870" flag="0"/>
      <psa03 value="0.0136588663" flag="0"/>
      <psa10 value="0.0044857442" flag="0"/>
      <psa30 value="0.0007591211" flag="0"/>
    </comp>
    <comp name="--.HHN">
      <acc value="0.0119620872" flag="0"/>
      <vel value="0.0058961232" flag="0"/>
      <psa03 value="0.0272322673" flag="0"/>
      <psa10 value="0.0087364569" flag="0"/>
      <psa30 value="0.0007286428" flag="0"/>
    </comp>
  </station>
  <station code="PLEV" name="PLEV" netid="HP" insttype="Compact," lat="38.4124" lon="21.4073">
    <comp name="--.HHE">
      <acc value="0.0312417198" flag="0"/>
      <vel value="0.0133264803" flag="0"/>
      <psa03 value="0.0820483835" flag="0"/>
      <psa10 value="0.0119847722" flag="0"/>
      <psa30 value="0.0019278771" flag="0"/>
    </comp>
    <comp name="--.HHN">
      <acc value="0.0251833342" flag="0"/>
      <vel value="0.0113492072" flag="0"/>
      <psa03 value="0.0509531607" flag="0"/>
      <psa10 value="0.0110653362" flag="0"/>
      <psa30 value="0.0014792317" flag="0"/>
    </comp>
    <comp name="--.HHZ">
      <acc value="0.0254969835" flag="0"/>
      <vel value="0.0082813328" flag="0"/>
      <psa03 value="0.0372993302" flag="0"/>
      <psa10 value="0.0077200581" flag="0"/>
      <psa30 value="0.0022225761" flag="0"/>
    </comp>
  </station>
  <station code="PRMD" name="PRMD" netid="HP" insttype="120P," lat="39.5299" lon="21.0965">
    <comp name="--.HHN">
      <acc value="0.0199912300" flag="0"/>
      <vel value="0.0146117772" flag="0"/>
      <psa03 value="0.0773986705" flag="0"/>
      <psa10 value="0.0185331516" flag="0"/>
      <psa30 value="0.0011576042" flag="0"/>
    </comp>
    <comp name="--.HHE">
      <acc value="0.0218698933" flag="0"/>
      <vel value="0.0134894942" flag="0"/>
      <psa03 value="0.0865813124" flag="0"/>
      <psa10 value="0.0150752793" flag="0"/>
      <psa30 value="0.0014162137" flag="0"/>
    </comp>
    <comp name="--.HHZ">
      <acc value="0.0183603191" flag="0"/>
      <vel value="0.0135339144" flag="0"/>
      <psa03 value="0.0394305093" flag="0"/>
      <psa10 value="0.0102275585" flag="0"/>
      <psa30 value="0.0010797116" flag="0"/>
    </comp>
  </station>
  <station code="PVO" name="PVO" netid="HP" insttype="120P," lat="38.616" lon="21.525">
    <comp name="--.HHZ">
      <acc value="0.0422378961" flag="0"/>
      <vel value="0.0155690989" flag="0"/>
      <psa03 value="0.0790387082" flag="0"/>
      <psa10 value="0.0066674831" flag="0"/>
      <psa30 value="0.0012707316" flag="0"/>
    </comp>
    <comp name="--.HHE">
      <acc value="0.0552258015" flag="0"/>
      <vel value="0.0203963133" flag="0"/>
      <psa03 value="0.1895981577" flag="0"/>
      <psa10 value="0.0155085395" flag="0"/>
      <psa30 value="0.0014075334" flag="0"/>
    </comp>
    <comp name="--.HHN">
      <acc value="0.0384677211" flag="0"/>
      <vel value="0.0167815452" flag="0"/>
      <psa03 value="0.1242553535" flag="0"/>
      <psa10 value="0.0129900928" flag="0"/>
      <psa30 value="0.0019269122" flag="0"/>
    </comp>
  </station>
  <station code="SERG" name="SERG" netid="HP" insttype="2000" lat="38.4133" lon="22.0566">
    <comp name="00.HHE">
      <acc value="0.0200631707" flag="0"/>
      <vel value="0.0072539343" flag="0"/>
      <psa03 value="0.0574228549" flag="0"/>
      <psa10 value="0.0055842490" flag="0"/>
      <psa30 value="0.0005936131" flag="0"/>
    </comp>
    <comp name="00.HHZ">
      <acc value="0.0121990474" flag="0"/>
      <vel value="0.0041258430" flag="0"/>
      <psa03 value="0.0254107038" flag="0"/>
      <psa10 value="0.0041757803" flag="0"/>
      <psa30 value="0.0005099928" flag="0"/>
    </comp>
    <comp name="00.HHN">
      <acc value="0.0295001548" flag="0"/>
      <vel value="0.0104963531" flag="0"/>
      <psa03 value="0.0563324242" flag="0"/>
      <psa10 value="0.0050962675" flag="0"/>
      <psa30 value="0.0005853633" flag="0"/>
    </comp>
  </station>
  <station code="DMLN" name="DMLN" netid="HT" insttype="1s-100Hz," lat="38.2385" lon="20.3734">
    <comp name="--.HHZ">
      <acc value="0.0459515337" flag="0"/>
      <vel value="0.0144361056" flag="0"/>
      <psa03 value="0.0545249735" flag="0"/>
      <psa10 value="0.0095397861" flag="0"/>
      <psa30 value="0.0016890746" flag="0"/>
    </comp>
    <comp name="--.HHE">
      <acc value="0.0535327965" flag="0"/>
      <vel value="0.0225278866" flag="0"/>
      <psa03 value="0.0814069111" flag="0"/>
      <psa10 value="0.0300984029" flag="0"/>
      <psa30 value="0.0026066436" flag="0"/>
    </comp>
    <comp name="--.HHN">
      <acc value="0.0461636173" flag="0"/>
      <vel value="0.0239091766" flag="0"/>
      <psa03 value="0.0827556870" flag="0"/>
      <psa10 value="0.0296307482" flag="0"/>
      <psa30 value="0.0035044292" flag="0"/>
    </comp>
  </station>
  <station code="DRAG" name="DRAG" netid="HT" insttype="1s-100Hz," lat="38.6839" lon="20.5746">
    <comp name="--.HHZ">
      <acc value="2.0589513659" flag="0"/>
      <vel value="0.3391301023" flag="0"/>
      <psa03 value="1.2089778954" flag="0"/>
      <psa10 value="0.2507464888" flag="0"/>
      <psa30 value="0.0174005061" flag="0"/>
    </comp>
    <comp name="--.HHN">
      <acc value="7.6621710176" flag="0"/>
      <vel value="0.8579939582" flag="0"/>
      <psa03 value="2.4803356612" flag="0"/>
      <psa10 value="0.4683267301" flag="0"/>
      <psa30 value="0.1010405809" flag="0"/>
    </comp>
    <comp name="--.HHE">
      <acc value="17.6325316168" flag="0"/>
      <vel value="1.1421571935" flag="0"/>
      <psa03 value="3.6144163345" flag="0"/>
      <psa10 value="0.4901065920" flag="0"/>
      <psa30 value="0.2237823240" flag="0"/>
    </comp>
  </station>
  <station code="EVGI" name="EVGI" netid="HT" insttype="30" lat="38.621" lon="20.656">
    <comp name="--.HHE">
      <acc value="0.7791856890" flag="0"/>
      <vel value="0.1378412697" flag="0"/>
      <psa03 value="0.5033187177" flag="0"/>
      <psa10 value="0.1134807457" flag="0"/>
      <psa30 value="0.0083498257" flag="0"/>
    </comp>
    <comp name="--.HHN">
      <acc value="1.0298549464" flag="0"/>
      <vel value="0.2718951281" flag="0"/>
