<?xml version="1.0" encoding="UTF-8" standalone="yes"?>
<!DOCTYPE earthquake SYSTEM "stationlist.dtd">
<stationlist created="" xmlns="ch.ethz.sed.shakemap.usgs.xml">
  <station code="BNN" name="BNN" netid="KO" insttype="CMG-3T" lat="38.8521" lon="35.8472">
    <comp name="--.HHZ">
      <acc value="0.0036848120" flag="0"/>
      <vel value="0.0022198616" flag="0"/>
      <psa03 value="0.0080111485" flag="0"/>
      <psa10 value="0.0026700557" flag="0"/>
      <psa30 value="0.0002564952" flag="0"/>
    </comp>
    <comp name="--.HHN">
      <acc value="0.0048282753" flag="0"/>
      <vel value="0.0034488635" flag="0"/>
      <psa03 value="0.0076213374" flag="0"/>
      <psa10 value="0.0053125126" flag="0"/>
      <psa30 value="0.0003653872" flag="0"/>
    </comp>
  </station>
  <station code="KMRS" name="KMRS" netid="KO" insttype="CMG-3T" lat="37.5053" lon="36.9">
    <comp name="--.HHE">
      <acc value="0.0697466549" flag="0"/>
      <vel value="0.0252424856" flag="0"/>
      <psa03 value="0.1138904719" flag="0"/>
      <psa10 value="0.0123697554" flag="0"/>
      <psa30 value="0.0010617071" flag="0"/>
    </comp>
    <comp name="--.HHN">
      <acc value="0.1084133499" flag="0"/>
      <vel value="0.0402315334" flag="0"/>
      <psa03 value="0.1427931141" flag="0"/>
      <psa10 value="0.0186294206" flag="0"/>
      <psa30 value="0.0013964258" flag="0"/>
    </comp>
    <comp name="--.HHZ">
      <acc value="0.0540254598" flag="0"/>
      <vel value="0.0171399097" flag="0"/>
      <psa03 value="0.0999348958" flag="0"/>
      <psa10 value="0.0060611264" flag="0"/>
      <psa30 value="0.0005120846" flag="0"/>
    </comp>
  </station>
  <station code="SARI" name="SARI" netid="KO" insttype="CMG-3T" lat="38.4072" lon="36.4181">
    <comp name="--.HHZ">
      <acc value="0.0668978523" flag="0"/>
      <vel value="0.0215094140" flag="0"/>
      <psa03 value="0.1062688060" flag="0"/>
      <psa10 value="0.0103108449" flag="0"/>
      <psa30 value="0.0005865307" flag="0"/>
    </comp>
  </station>
  <station code="ANDN" name="ANDN" netid="TU" insttype="T" lat="37.58" lon="36.3452">
    <comp name="--.HHZ">
      <acc value="0.0318861757" flag="0"/>
      <vel value="0.0173234307" flag="0"/>
      <psa03 value="0.0778490735" flag="0"/>
      <psa10 value="0.0207776591" flag="0"/>
      <psa30 value="0.0014663259" flag="0"/>
    </comp>
    <comp name="--.HHE">
      <acc value="0.0860576831" flag="0"/>
      <vel value="0.0304278760" flag="0"/>
      <psa03 value="0.1199862034" flag="0"/>
      <psa10 value="0.0249745458" flag="0"/>
      <psa30 value="0.0016363917" flag="0"/>
    </comp>
    <comp name="--.HHN">
      <acc value="0.1115219120" flag="0"/>
      <vel value="0.0334587323" flag="0"/>
      <psa03 value="0.1887911497" flag="0"/>
      <psa10 value="0.0331963454" flag="0"/>
      <psa30 value="0.0018995223" flag="0"/>
    </comp>
  </station>
</stationlist>
