<?xml version="1.0" encoding="UTF-8" standalone="yes"?>
<!DOCTYPE earthquake SYSTEM "stationlist.dtd">
<stationlist created="" xmlns="ch.ethz.sed.shakemap.usgs.xml">
  <station code="DARE" name="DARE" netid="KO" insttype="CMG-3ESP" lat="38.5712" lon="37.4832">
    <comp name="--.HHN">
      <acc value="0.0220102479" flag="0"/>
      <vel value="0.0107958674" flag="0"/>
      <psa03 value="0.0378809211" flag="0"/>
      <psa10 value="0.0093696074" flag="0"/>
      <psa30 value="0.0005469354" flag="0"/>
    </comp>
    <comp name="--.HHZ">
      <acc value="0.0149179298" flag="0"/>
      <vel value="0.0067630975" flag="0"/>
      <psa03 value="0.0413035693" flag="0"/>
      <psa10 value="0.0047621678" flag="0"/>
      <psa30 value="0.0003691065" flag="0"/>
    </comp>
  </station>
  <station code="KMRS" name="KMRS" netid="KO" insttype="CMG-3T" lat="37.5053" lon="36.9">
    <comp name="--.HHZ">
      <acc value="0.0540254597" flag="0"/>
      <vel value="0.0171399097" flag="0"/>
      <psa03 value="0.0999348958" flag="0"/>
      <psa10 value="0.0060611264" flag="0"/>
      <psa30 value="0.0005120759" flag="0"/>
    </comp>
    <comp name="--.HHE">
      <acc value="0.0697466550" flag="0"/>
      <vel value="0.0252424857" flag="0"/>
      <psa03 value="0.1138904719" flag="0"/>
      <psa10 value="0.0123697554" flag="0"/>
      <psa30 value="0.0010617009" flag="0"/>
    </comp>
    <comp name="--.HHN">
      <acc value="0.1084133499" flag="0"/>
      <vel value="0.0402315331" flag="0"/>
      <psa03 value="0.1427931141" flag="0"/>
      <psa10 value="0.0186294206" flag="0"/>
      <psa30 value="0.0013964145" flag="0"/>
    </comp>
  </station>
  <station code="ANDN" name="ANDN" netid="TU" insttype="T" lat="37.58" lon="36.3452">
    <comp name="--.HHN">
      <acc value="0.1115219120" flag="0"/>
      <vel value="0.0334587323" flag="0"/>
      <psa03 value="0.1887911497" flag="0"/>
      <psa10 value="0.0331963454" flag="0"/>
      <psa30 value="0.0018995223" flag="0"/>
    </comp>
    <comp name="--.HHZ">
      <acc value="0.0318861756" flag="0"/>
      <vel value="0.0173234307" flag="0"/>
      <psa03 value="0.0778490735" flag="0"/>
      <psa10 value="0.0207776591" flag="0"/>
      <psa30 value="0.0014663203" flag="0"/>
    </comp>
    <comp name="--.HHE">
      <acc value="0.0860576832" flag="0"/>
      <vel value="0.0304278764" flag="0"/>
      <psa03 value="0.1199862034" flag="0"/>
      <psa10 value="0.0249745458" flag="0"/>
      <psa30 value="0.0016363614" flag="0"/>
    </comp>
  </station>
</stationlist>
