<?xml version="1.0" encoding="UTF-8" standalone="yes"?>
<!DOCTYPE earthquake SYSTEM "stationlist.dtd">
<stationlist created="" xmlns="ch.ethz.sed.shakemap.usgs.xml">
  <station code="ARPRA" name="ARPRA" netid="KO" insttype="CMG-5T" lat="39.0929" lon="38.3356">
    <comp name="--.HNE">
      <acc value="0.0733023910" flag="0"/>
      <vel value="0.0332885737" flag="0"/>
      <psa03 value="0.1540738582" flag="0"/>
      <psa10 value="0.0238900640" flag="0"/>
      <psa30 value="0.0039626104" flag="0"/>
    </comp>
    <comp name="--.HNZ">
      <acc value="0.0362047201" flag="0"/>
      <vel value="0.0145916302" flag="0"/>
      <psa03 value="0.0601549414" flag="0"/>
      <psa10 value="0.0143382358" flag="0"/>
      <psa30 value="0.0038853019" flag="0"/>
    </comp>
    <comp name="--.HNN">
      <acc value="0.0624953862" flag="0"/>
      <vel value="0.0269672315" flag="0"/>
      <psa03 value="0.1732779644" flag="0"/>
      <psa10 value="0.0328262660" flag="0"/>
      <psa30 value="0.0044498691" flag="0"/>
    </comp>
  </station>
  <station code="SARI" name="SARI" netid="KO" insttype="CMG-3T" lat="38.4072" lon="36.4181">
    <comp name="--.HHE">
      <acc value="0.0635011266" flag="0"/>
      <vel value="0.0279419409" flag="0"/>
      <psa03 value="0.1450288318" flag="0"/>
      <psa10 value="0.0312200685" flag="0"/>
      <psa30 value="0.0044384399" flag="0"/>
    </comp>
    <comp name="--.HHN">
      <acc value="0.0540787141" flag="0"/>
      <vel value="0.0320364209" flag="0"/>
      <psa03 value="0.1275085490" flag="0"/>
      <psa10 value="0.0253991969" flag="0"/>
      <psa30 value="0.0178794512" flag="0"/>
    </comp>
    <comp name="--.HHZ">
      <acc value="0.0348603479" flag="0"/>
      <vel value="0.0315598834" flag="0"/>
      <psa03 value="0.1369365124" flag="0"/>
      <psa10 value="0.0239093826" flag="0"/>
      <psa30 value="0.0058059933" flag="0"/>
    </comp>
  </station>
</stationlist>
