<?xml version="1.0" encoding="UTF-8" standalone="yes"?>
<!DOCTYPE earthquake SYSTEM "stationlist.dtd">
<stationlist created="" xmlns="ch.ethz.sed.shakemap.usgs.xml">
  <station code="ARPRA" name="ARPRA" netid="KO" insttype="CMG-5T" lat="39.0929" lon="38.3356">
    <comp name="--.HNN">
      <acc value="0.0624953651" flag="0"/>
      <vel value="0.0269672338" flag="0"/>
      <psa03 value="0.1732779644" flag="0"/>
      <psa10 value="0.0328262661" flag="0"/>
      <psa30 value="0.0044498836" flag="0"/>
    </comp>
    <comp name="--.HNE">
      <acc value="0.0733023964" flag="0"/>
      <vel value="0.0332885787" flag="0"/>
      <psa03 value="0.1540738582" flag="0"/>
      <psa10 value="0.0238900640" flag="0"/>
      <psa30 value="0.0039197080" flag="0"/>
    </comp>
    <comp name="--.HNZ">
      <acc value="0.0362047297" flag="0"/>
      <vel value="0.0145916312" flag="0"/>
      <psa03 value="0.0601549414" flag="0"/>
      <psa10 value="0.0143382358" flag="0"/>
      <psa30 value="0.0038853318" flag="0"/>
    </comp>
  </station>
  <station code="BNN" name="BNN" netid="KO" insttype="CMG-3T" lat="38.8521" lon="35.8472">
    <comp name="--.HHN">
      <acc value="0.0101654451" flag="0"/>
      <vel value="0.0105271243" flag="0"/>
      <psa03 value="0.0173841170" flag="0"/>
      <psa10 value="0.0169689748" flag="0"/>
      <psa30 value="0.0047334011" flag="0"/>
    </comp>
  </station>
  <station code="SARI" name="SARI" netid="KO" insttype="CMG-3T" lat="38.4072" lon="36.4181">
    <comp name="--.HHN">
      <acc value="0.0540787149" flag="0"/>
      <vel value="0.0320364208" flag="0"/>
      <psa03 value="0.1275085490" flag="0"/>
      <psa10 value="0.0253991969" flag="0"/>
      <psa30 value="0.0178794568" flag="0"/>
    </comp>
    <comp name="--.HHE">
      <acc value="0.0635011269" flag="0"/>
      <vel value="0.0279419409" flag="0"/>
      <psa03 value="0.1450288318" flag="0"/>
      <psa10 value="0.0312200685" flag="0"/>
      <psa30 value="0.0044384331" flag="0"/>
    </comp>
    <comp name="--.HHZ">
      <acc value="0.0348603476" flag="0"/>
      <vel value="0.0315598816" flag="0"/>
      <psa03 value="0.1369365124" flag="0"/>
      <psa10 value="0.0239093824" flag="0"/>
      <psa30 value="0.0058060046" flag="0"/>
    </comp>
  </station>
  <station code="TUNC" name="TUNC" netid="KO" insttype="CMG-5T" lat="39.6942" lon="37.5388">
    <comp name="--.HNZ">
      <acc value="0.0213869818" flag="0"/>
      <vel value="0.0155500236" flag="0"/>
      <psa03 value="0.0570313859" flag="0"/>
      <psa10 value="0.0139426399" flag="0"/>
      <psa30 value="0.0019253687" flag="0"/>
    </comp>
    <comp name="--.HNE">
      <acc value="0.0527901548" flag="0"/>
      <vel value="0.0387894827" flag="0"/>
      <psa03 value="0.1608354517" flag="0"/>
      <psa10 value="0.0375836454" flag="0"/>
      <psa30 value="0.0026793985" flag="0"/>
    </comp>
    <comp name="--.HNN">
      <acc value="0.0384730585" flag="0"/>
      <vel value="0.0285419247" flag="0"/>
      <psa03 value="0.0832911251" flag="0"/>
      <psa10 value="0.0151874014" flag="0"/>
      <psa30 value="0.0030276937" flag="0"/>
    </comp>
  </station>
  <station code="ANDN" name="ANDN" netid="TU" insttype="T" lat="37.58" lon="36.3452">
    <comp name="--.HHN">
      <acc value="0.0201318140" flag="0"/>
      <vel value="0.0187702171" flag="0"/>
      <psa03 value="0.0490089955" flag="0"/>
      <psa10 value="0.0254003821" flag="0"/>
      <psa30 value="0.0061756651" flag="0"/>
    </comp>
    <comp name="--.HHZ">
      <acc value="0.0132630059" flag="0"/>
      <vel value="0.0166960884" flag="0"/>
      <psa03 value="0.0307050081" flag="0"/>
      <psa10 value="0.0237694306" flag="0"/>
      <psa30 value="0.0063777342" flag="0"/>
    </comp>
    <comp name="--.HHE">
      <acc value="0.0200747850" flag="0"/>
      <vel value="0.0157478196" flag="0"/>
      <psa03 value="0.0456456792" flag="0"/>
      <psa10 value="0.0387561170" flag="0"/>
      <psa30 value="0.0061864136" flag="0"/>
    </comp>
  </station>
</stationlist>
