<?xml version="1.0" encoding="UTF-8" standalone="yes"?>
<!DOCTYPE earthquake SYSTEM "stationlist.dtd">
<stationlist created="" xmlns="ch.ethz.sed.shakemap.usgs.xml">
  <station code="DAT" name="DAT" netid="KO" insttype="CMG-3T" lat="36.7308" lon="27.5767">
    <comp name="--.HHE">
      <acc value="0.0182442795" flag="0"/>
      <vel value="0.0340403169" flag="0"/>
      <psa03 value="0.0422230317" flag="0"/>
      <psa10 value="0.0386812928" flag="0"/>
      <psa30 value="0.0099433332" flag="0"/>
    </comp>
    <comp name="--.HHN">
      <acc value="0.0198359021" flag="0"/>
      <vel value="0.0224900340" flag="0"/>
      <psa03 value="0.0552646320" flag="0"/>
      <psa10 value="0.0301390726" flag="0"/>
      <psa30 value="0.0067397859" flag="0"/>
    </comp>
    <comp name="--.HHZ">
      <acc value="0.0000324619" flag="0"/>
      <vel value="0.0000031577" flag="0"/>
      <psa03 value="0.0000113428" flag="0"/>
      <psa10 value="0.0000039174" flag="0"/>
      <psa30 value="0.0000008664" flag="0"/>
    </comp>
  </station>
</stationlist>
