<stationlist created="1675692205">
	<station code="KRL1" name="KRL1" netid="HI" source="ITSAK Strong Motion Network" insttype="" lat="37.7951" lon="26.7065">
		<comp name=".HNE" depth="0.0">
			<acc value="0.0110162822386" flag="0"/>
			<vel value="0.0369453386502" flag="0"/>
			<psa03 value="0.0193408307143" flag="0"/>
			<psa10 value="0.0253210661463" flag="0"/>
			<psa30 value="0.0177031894161" flag="0"/>
		</comp>
		<comp name=".HNN" depth="0.0">
			<acc value="0.0108264521674" flag="0"/>
			<vel value="0.0241759526381" flag="0"/>
			<psa03 value="0.012624495165" flag="0"/>
			<psa10 value="0.0229037535112" flag="0"/>
			<psa30 value="0.00829048503729" flag="0"/>
		</comp>
		<comp name=".HNZ" depth="0.0">
			<acc value="0.0119103343434" flag="0"/>
			<vel value="0.0205503458175" flag="0"/>
			<psa03 value="0.0176368805964" flag="0"/>
			<psa10 value="0.0254866564909" flag="0"/>
			<psa30 value="0.0101833287622" flag="0"/>
		</comp>
	</station>
	<station code="GMLD" name="GMLD" netid="KO" source="Bogazici University Kandilli Observatory And Earthquake Research Institute (KOERI)" insttype="" lat="38.0766" lon="26.9157">
		<comp name=".HNE" depth="0.0">
			<acc value="0.0227886586529" flag="0"/>
			<vel value="0.0292720298662" flag="0"/>
			<psa03 value="0.0336155992643" flag="0"/>
			<psa10 value="0.0299386964167" flag="0"/>
			<psa30 value="0.0138067979659" flag="0"/>
		</comp>
		<comp name=".HNN" depth="0.0">
			<acc value="0.0344550169507" flag="0"/>
			<vel value="0.0213714411511" flag="0"/>
			<psa03 value="0.0274916258728" flag="0"/>
			<psa10 value="0.0252122733144" flag="0"/>
			<psa30 value="0.00976354011997" flag="0"/>
		</comp>
		<comp name=".HNZ" depth="0.0">
			<acc value="0.0199976572284" flag="0"/>
			<vel value="0.0229697762409" flag="0"/>
			<psa03 value="0.0197897823301" flag="0"/>
			<psa10 value="0.0205655036137" flag="0"/>
			<psa30 value="0.0140089963606" flag="0"/>
		</comp>
	</station>
</stationlist>
