<stationlist created="1739289447">
	<station code="ABEA" name="ABEA" netid="HC" source="Seismological Network of Crete (HC)" insttype="" lat="35.5163" lon="24.0113">
		<comp name=".HNE" depth="0.0">
			<acc value="0.0052740771155352" flag="0"/>
			<vel value="0.00242629567437" flag="0"/>
			<psa03 value="0.00168378569618518" flag="0"/>
			<psa10 value="0.00171742123166362" flag="0"/>
			<psa30 value="0.000930067862431185" flag="0"/>
		</comp>
		<comp name=".HNN" depth="0.0">
			<acc value="0.0037235361367554" flag="0"/>
			<vel value="0.00251243011189" flag="0"/>
			<psa03 value="0.00172066037202462" flag="0"/>
			<psa10 value="0.00153388876104004" flag="0"/>
			<psa30 value="0.00116669499615062" flag="0"/>
		</comp>
		<comp name=".HNZ" depth="0.0">
			<acc value="0.0052480107293436" flag="0"/>
			<vel value="0.00212134851118" flag="0"/>
			<psa03 value="0.00125162995210091" flag="0"/>
			<psa10 value="0.00118801319223119" flag="0"/>
			<psa30 value="0.000906801633659637" flag="0"/>
		</comp>
	</station>
	<station code="ATEI" name="ATEI" netid="HC" source="Seismological Network of Crete (HC)" insttype="" lat="35.5193" lon="24.0432">
		<comp name=".HNE" depth="0.0">
			<acc value="0.0014912335150134" flag="0"/>
			<vel value="0.00177944463645" flag="0"/>
			<psa03 value="0.00301351994340725" flag="0"/>
			<psa10 value="0.000892439295505349" flag="0"/>
			<psa30 value="0.000640776094103625" flag="0"/>
		</comp>
		<comp name=".HNN" depth="0.0">
			<acc value="0.0039127499183238" flag="0"/>
			<vel value="0.00265674882683" flag="0"/>
			<psa03 value="0.00978884703077329" flag="0"/>
			<psa10 value="0.00251238237050053" flag="0"/>
			<psa30 value="0.000712231504759804" flag="0"/>
		</comp>
		<comp name=".HNZ" depth="0.0">
			<acc value="0.0101926905835998" flag="0"/>
			<vel value="0.0054196316332" flag="0"/>
			<psa03 value="0.0149570403096668" flag="0"/>
			<psa10 value="0.00344808740324395" flag="0"/>
			<psa30 value="0.000837940769879078" flag="0"/>
		</comp>
	</station>
	<station code="G0LD" name="G0LD" netid="HC" source="Seismological Network of Crete (HC)" insttype="" lat="35.4955" lon="24.0306">
		<comp name=".HNE" depth="0.0">
			<acc value="0.014477051358018" flag="0"/>
			<vel value="0.0037558966468" flag="0"/>
			<psa03 value="0.00673389856167421" flag="0"/>
			<psa10 value="0.00226424061982712" flag="0"/>
			<psa30 value="0.00151047235304842" flag="0"/>
		</comp>
		<comp name=".HNN" depth="0.0">
			<acc value="0.0082760299314144" flag="0"/>
			<vel value="0.00394016074202" flag="0"/>
			<psa03 value="0.00169220861744226" flag="0"/>
			<psa10 value="0.0015938363650855" flag="0"/>
			<psa30 value="0.00136726869984156" flag="0"/>
		</comp>
		<comp name=".HNZ" depth="0.0">
			<acc value="0.0050738502037674" flag="0"/>
			<vel value="0.00723450151987" flag="0"/>
			<psa03 value="0.00239458229468774" flag="0"/>
			<psa10 value="0.00203851293210371" flag="0"/>
			<psa30 value="0.00192712141233438" flag="0"/>
		</comp>
	</station>
	<station code="PASK" name="PASK" netid="HC" source="Seismological Network of Crete (HC)" insttype="" lat="35.4996" lon="24.0121">
		<comp name=".HNE" depth="0.0">
			<acc value="0.02407790927004" flag="0"/>
			<vel value="0.0241646830053" flag="0"/>
			<psa03 value="0.0544071927509591" flag="0"/>
			<psa10 value="0.0299831124840695" flag="0"/>
			<psa30 value="0.0088689033546687" flag="0"/>
		</comp>
		<comp name=".HNN" depth="0.0">
			<acc value="0.021557997266352" flag="0"/>
			<vel value="0.015188665239" flag="0"/>
			<psa03 value="0.0478138184723923" flag="0"/>
			<psa10 value="0.0329252011329684" flag="0"/>
			<psa30 value="0.00629410070329184" flag="0"/>
		</comp>
		<comp name=".HNZ" depth="0.0">
			<acc value="0.013225872461682" flag="0"/>
			<vel value="0.00842399220449" flag="0"/>
			<psa03 value="0.0391057311877601" flag="0"/>
			<psa10 value="0.0148866392918116" flag="0"/>
			<psa30 value="0.00202351863151201" flag="0"/>
		</comp>
	</station>
	<station code="POLY" name="POLY" netid="HC" source="Seismological Network of Crete (HC)" insttype="" lat="35.5226" lon="24.0602">
		<comp name=".HNE" depth="0.0">
			<acc value="0.0017024503023984" flag="0"/>
			<vel value="0.00364477369802" flag="0"/>
			<psa03 value="0.0014573932573895" flag="0"/>
			<psa10 value="0.00145720297785713" flag="0"/>
			<psa30 value="0.000914449119434134" flag="0"/>
		</comp>
		<comp name=".HNN" depth="0.0">
			<acc value="0.0019625583003408" flag="0"/>
			<vel value="0.00304172948451" flag="0"/>
			<psa03 value="0.00138105795966517" flag="0"/>
			<psa10 value="0.00115984132598134" flag="0"/>
			<psa30 value="0.00112176316547017" flag="0"/>
		</comp>
		<comp name=".HNZ" depth="0.0">
			<acc value="0.0021479515049964" flag="0"/>
			<vel value="0.00206208948443" flag="0"/>
			<psa03 value="0.00152070637084363" flag="0"/>
			<psa10 value="0.00127527233209384" flag="0"/>
			<psa30 value="0.000936614858636785" flag="0"/>
		</comp>
	</station>
	<station code="ARK1" name="ARK1" netid="HI" source="ITSAK Strong Motion Network" insttype="" lat="35.148777" lon="25.264194">
		<comp name=".HNE" depth="0.0">
			<acc value="0.040407158601378" flag="0"/>
			<vel value="0.0282111133619" flag="0"/>
			<psa03 value="0.106124405220814" flag="0"/>
			<psa10 value="0.0187280731429274" flag="0"/>
			<psa30 value="0.00683621369893442" flag="0"/>
		</comp>
		<comp name=".HNN" depth="0.0">
			<acc value="0.052652393327772" flag="0"/>
			<vel value="0.0307010848014" flag="0"/>
			<psa03 value="0.109945772951023" flag="0"/>
			<psa10 value="0.0302102256541725" flag="0"/>
			<psa30 value="0.00489836240914791" flag="0"/>
		</comp>
		<comp name=".HNZ" depth="0.0">
			<acc value="0.025044470491758" flag="0"/>
			<vel value="0.0157932661364" flag="0"/>
			<psa03 value="0.0681100848757065" flag="0"/>
			<psa10 value="0.0176645008114892" flag="0"/>
			<psa30 value="0.00420697369135898" flag="0"/>
		</comp>
	</station>
	<station code="CH01" name="CH01" netid="HI" source="ITSAK Strong Motion Network" insttype="" lat="35.517" lon="24.0208">
		<comp name=".HNE" depth="0.0">
			<acc value="0.017304073747782" flag="0"/>
			<vel value="0.0142810693473" flag="0"/>
			<psa03 value="0.0400978958721541" flag="0"/>
			<psa10 value="0.0208841941003702" flag="0"/>
			<psa30 value="0.00616064436244741" flag="0"/>
		</comp>
		<comp name=".HNN" depth="0.0">
			<acc value="0.016163284326762" flag="0"/>
			<vel value="0.0138505824218" flag="0"/>
			<psa03 value="0.0493931835145229" flag="0"/>
			<psa10 value="0.0141484816424859" flag="0"/>
			<psa30 value="0.0050569862505215" flag="0"/>
		</comp>
		<comp name=".HNZ" depth="0.0">
			<acc value="0.011772500943636" flag="0"/>
			<vel value="0.00683372940304" flag="0"/>
			<psa03 value="0.0125172732183142" flag="0"/>
			<psa10 value="0.0143967246498529" flag="0"/>
			<psa30 value="0.00194757880920343" flag="0"/>
		</comp>
	</station>
	<station code="CH02" name="CH02" netid="HI" source="ITSAK Strong Motion Network" insttype="" lat="35.5145" lon="24.0315">
		<comp name=".HNE" depth="0.0">
			<acc value="0.019257245760426" flag="0"/>
			<vel value="0.0148237280214" flag="0"/>
			<psa03 value="0.0578549992765108" flag="0"/>
			<psa10 value="0.022089126421229" flag="0"/>
			<psa30 value="0.00603985386066249" flag="0"/>
		</comp>
		<comp name=".HNN" depth="0.0">
			<acc value="0.018973648695156" flag="0"/>
			<vel value="0.014556598885" flag="0"/>
			<psa03 value="0.0481556379914864" flag="0"/>
			<psa10 value="0.0263151294981931" flag="0"/>
			<psa30 value="0.00497164851398799" flag="0"/>
		</comp>
		<comp name=".HNZ" depth="0.0">
			<acc value="0.0077542267431504" flag="0"/>
			<vel value="0.0089483365102" flag="0"/>
			<psa03 value="0.0173785366594286" flag="0"/>
			<psa10 value="0.0134423942426294" flag="0"/>
			<psa30 value="0.002124315100451" flag="0"/>
		</comp>
	</station>
	<station code="CH03" name="CH03" netid="HI" source="ITSAK Strong Motion Network" insttype="" lat="35.53303" lon="24.0705">
		<comp name=".HNE" depth="0.0">
			<acc value="0.010541938419696" flag="0"/>
			<vel value="0.00868571338192" flag="0"/>
			<psa03 value="0.0221241765556225" flag="0"/>
			<psa10 value="0.0161071895222722" flag="0"/>
			<psa30 value="0.00360412917253758" flag="0"/>
		</comp>
		<comp name=".HNN" depth="0.0">
			<acc value="0.012429489675942" flag="0"/>
			<vel value="0.010338034412" flag="0"/>
			<psa03 value="0.0374514158683291" flag="0"/>
			<psa10 value="0.0127537745624562" flag="0"/>
			<psa30 value="0.0027901758771251" flag="0"/>
		</comp>
		<comp name=".HNZ" depth="0.0">
			<acc value="0.0092260426787322" flag="0"/>
			<vel value="0.00688154408052" flag="0"/>
			<psa03 value="0.0187601919894127" flag="0"/>
			<psa10 value="0.00566401943224001" flag="0"/>
			<psa30 value="0.00167065129744959" flag="0"/>
		</comp>
	</station>
	<station code="GOR1" name="GOR1" netid="HI" source="ITSAK Strong Motion Network" insttype="" lat="35.0582" lon="24.9628">
		<comp name=".HNE" depth="0.0">
			<acc value="0.019616057492382" flag="0"/>
			<vel value="0.0146415188872" flag="0"/>
			<psa03 value="0.0432075914575691" flag="0"/>
			<psa10 value="0.0168829377867648" flag="0"/>
			<psa30 value="0.00525115452990107" flag="0"/>
		</comp>
		<comp name=".HNN" depth="0.0">
			<acc value="0.01589494884717" flag="0"/>
			<vel value="0.0149283633093" flag="0"/>
			<psa03 value="0.059744936975475" flag="0"/>
			<psa10 value="0.023941824153355" flag="0"/>
			<psa30 value="0.00716157608594426" flag="0"/>
		</comp>
		<comp name=".HNZ" depth="0.0">
			<acc value="0.016365563663466" flag="0"/>
			<vel value="0.010030167264" flag="0"/>
			<psa03 value="0.0296807943319727" flag="0"/>
			<psa10 value="0.0178409181232551" flag="0"/>
			<psa30 value="0.00341350050265764" flag="0"/>
		</comp>
	</station>
	<station code="HER3" name="HER3" netid="HI" source="ITSAK Strong Motion Network" insttype="" lat="35.3296" lon="25.1065">
		<comp name=".HNE" depth="0.0">
			<acc value="0.07500351264264" flag="0"/>
			<vel value="0.0417792355792" flag="0"/>
			<psa03 value="0.251619168534917" flag="0"/>
			<psa10 value="0.0719776106633305" flag="0"/>
			<psa30 value="0.00848121767237748" flag="0"/>
		</comp>
		<comp name=".HNN" depth="0.0">
			<acc value="0.092138094490332" flag="0"/>
			<vel value="0.0571530122669" flag="0"/>
			<psa03 value="0.293446314378034" flag="0"/>
			<psa10 value="0.110019223233721" flag="0"/>
			<psa30 value="0.00846775094692466" flag="0"/>
		</comp>
		<comp name=".HNZ" depth="0.0">
			<acc value="0.056540184473814" flag="0"/>
			<vel value="0.0287987097159" flag="0"/>
			<psa03 value="0.158018988815897" flag="0"/>
			<psa10 value="0.0301272364065569" flag="0"/>
			<psa30 value="0.00298219172223152" flag="0"/>
		</comp>
	</station>
	<station code="KRL1" name="KRL1" netid="HI" source="ITSAK Strong Motion Network" insttype="" lat="37.7951" lon="26.7065">
		<comp name=".HNE" depth="0.0">
			<acc value="0.085794354003156" flag="0"/>
			<vel value="0.0482890333078" flag="0"/>
			<psa03 value="0.264157978336133" flag="0"/>
			<psa10 value="0.0976419107975803" flag="0"/>
			<psa30 value="0.00426458209096912" flag="0"/>
		</comp>
		<comp name=".HNN" depth="0.0">
			<acc value="0.08208899262213" flag="0"/>
			<vel value="0.0453185164517" flag="0"/>
			<psa03 value="0.153824617209197" flag="0"/>
			<psa10 value="0.0909391367714524" flag="0"/>
			<psa30 value="0.00665048931227612" flag="0"/>
		</comp>
		<comp name=".HNZ" depth="0.0">
			<acc value="0.035191369964958" flag="0"/>
			<vel value="0.0163758444789" flag="0"/>
			<psa03 value="0.0867179060941858" flag="0"/>
			<psa10 value="0.0296710505614839" flag="0"/>
			<psa30 value="0.00304085477503775" flag="0"/>
		</comp>
	</station>
	<station code="KTL1" name="KTL1" netid="HI" source="ITSAK Strong Motion Network" insttype="" lat="35.20778" lon="25.34272">
		<comp name=".HNE" depth="0.0">
			<acc value="0.043658183422506" flag="0"/>
			<vel value="0.0250264518563" flag="0"/>
			<psa03 value="0.0709791811891701" flag="0"/>
			<psa10 value="0.0138281204201028" flag="0"/>
			<psa30 value="0.00417610789665133" flag="0"/>
		</comp>
		<comp name=".HNN" depth="0.0">
			<acc value="0.041610523736484" flag="0"/>
			<vel value="0.0261543595095" flag="0"/>
			<psa03 value="0.128182814399019" flag="0"/>
			<psa10 value="0.0188046119632674" flag="0"/>
			<psa30 value="0.00242159541881028" flag="0"/>
		</comp>
		<comp name=".HNZ" depth="0.0">
			<acc value="0.019212619938816" flag="0"/>
			<vel value="0.0105610579466" flag="0"/>
			<psa03 value="0.0619755118234534" flag="0"/>
			<psa10 value="0.0122402024158496" flag="0"/>
			<psa30 value="0.00317945562333103" flag="0"/>
		</comp>
	</station>
	<station code="NAX1" name="NAX1" netid="HI" source="ITSAK Strong Motion Network" insttype="" lat="37.101394" lon="25.374103">
		<comp name=".HNE" depth="0.0">
			<acc value="0.34592693646924" flag="0"/>
			<vel value="0.0787092585953" flag="0"/>
			<psa03 value="0.248088851335689" flag="0"/>
			<psa10 value="0.0504859494463558" flag="0"/>
			<psa30 value="0.0149580425635958" flag="0"/>
		</comp>
		<comp name=".HNN" depth="0.0">
			<acc value="0.28612285188984" flag="0"/>
			<vel value="0.104352363971" flag="0"/>
			<psa03 value="0.404698642632036" flag="0"/>
			<psa10 value="0.0513457164018338" flag="0"/>
			<psa30 value="0.0140509291384108" flag="0"/>
		</comp>
		<comp name=".HNZ" depth="0.0">
			<acc value="0.17475516587592" flag="0"/>
			<vel value="0.0700651051302" flag="0"/>
			<psa03 value="0.254087415377724" flag="0"/>
			<psa10 value="0.0626563194235334" flag="0"/>
			<psa30 value="0.0220299143737266" flag="0"/>
		</comp>
	</station>
	<station code="RKL1" name="RKL1" netid="HI" source="ITSAK Strong Motion Network" insttype="" lat="36.336699" lon="28.171224">
		<comp name=".HNE" depth="0.0">
			<acc value="0.01068767875554" flag="0"/>
			<vel value="0.0169721388365" flag="0"/>
			<psa03 value="0.0276309944802846" flag="0"/>
			<psa10 value="0.0367495844795941" flag="0"/>
			<psa30 value="0.00349167588972681" flag="0"/>
		</comp>
		<comp name=".HNN" depth="0.0">
			<acc value="0.0099877111318332" flag="0"/>
			<vel value="0.0169444630846" flag="0"/>
			<psa03 value="0.0217907404045876" flag="0"/>
			<psa10 value="0.0328996394396662" flag="0"/>
			<psa30 value="0.00277749816228933" flag="0"/>
		</comp>
		<comp name=".HNZ" depth="0.0">
			<acc value="0.0053165402493522" flag="0"/>
			<vel value="0.00619876592288" flag="0"/>
			<psa03 value="0.0155348754634316" flag="0"/>
			<psa10 value="0.00777461893661534" flag="0"/>
			<psa30 value="0.00312189264340058" flag="0"/>
		</comp>
	</station>
	<station code="RTH1" name="RTH1" netid="HI" source="ITSAK Strong Motion Network" insttype="" lat="35.365393" lon="24.471773">
		<comp name=".HNE" depth="0.0">
			<acc value="0.017416160101932" flag="0"/>
			<vel value="0.00922318829239" flag="0"/>
			<psa03 value="0.060825888791408" flag="0"/>
			<psa10 value="0.00840606561058872" flag="0"/>
			<psa30 value="0.00289960104267117" flag="0"/>
		</comp>
		<comp name=".HNN" depth="0.0">
			<acc value="0.014791583840088" flag="0"/>
			<vel value="0.0103963048135" flag="0"/>
			<psa03 value="0.0496317514017938" flag="0"/>
			<psa10 value="0.00910084132358409" flag="0"/>
			<psa30 value="0.00364592319118559" flag="0"/>
		</comp>
		<comp name=".HNZ" depth="0.0">
			<acc value="0.011266426667106" flag="0"/>
			<vel value="0.00679167821791" flag="0"/>
			<psa03 value="0.0274139175999824" flag="0"/>
			<psa10 value="0.00883026933698854" flag="0"/>
			<psa30 value="0.00232122439472218" flag="0"/>
		</comp>
	</station>
	<station code="SFR2" name="SFR2" netid="HI" source="ITSAK Strong Motion Network" insttype="" lat="36.399841" lon="25.438209">
		<comp name=".HNE" depth="0.0">
			<acc value="0.66345583315806" flag="0"/>
			<vel value="0.239364181944" flag="0"/>
			<psa03 value="1.30965792507796" flag="0"/>
			<psa10 value="0.143634005047904" flag="0"/>
			<psa30 value="0.0258100797911306" flag="0"/>
		</comp>
		<comp name=".HNN" depth="0.0">
			<acc value="0.58786462397076" flag="0"/>
			<vel value="0.200661534266" flag="0"/>
			<psa03 value="1.30495444682591" flag="0"/>
			<psa10 value="0.174719589315168" flag="0"/>
			<psa30 value="0.0169577700357215" flag="0"/>
		</comp>
		<comp name=".HNZ" depth="0.0">
			<acc value="0.67068455961144" flag="0"/>
			<vel value="0.158865433187" flag="0"/>
			<psa03 value="0.946017835706383" flag="0"/>
			<psa10 value="0.0709275486020624" flag="0"/>
			<psa30 value="0.00852424635614997" flag="0"/>
		</comp>
	</station>
	<station code="AMGA" name="AMGA" netid="HL" source="National Observatory of Athens Seismic Network" insttype="" lat="36.831561" lon="25.893836">
		<comp name="00.HNE" depth="0.0">
			<acc value="2.913420458391" flag="0"/>
			<vel value="0.865433639919" flag="0"/>
			<psa03 value="2.66423315903733" flag="0"/>
			<psa10 value="0.644765272536967" flag="0"/>
			<psa30 value="0.064918673877034" flag="0"/>
		</comp>
		<comp name="00.HNN" depth="0.0">
			<acc value="2.0704694069316" flag="0"/>
			<vel value="0.753468799519" flag="0"/>
			<psa03 value="1.72915621477881" flag="0"/>
			<psa10 value="0.587582084427872" flag="0"/>
			<psa30 value="0.044426579709521" flag="0"/>
		</comp>
		<comp name="00.HNZ" depth="0.0">
			<acc value="1.6050308557296" flag="0"/>
			<vel value="0.623405163446" flag="0"/>
			<psa03 value="1.76853849033064" flag="0"/>
			<psa10 value="0.186876229633007" flag="0"/>
			<psa30 value="0.0683044915039347" flag="0"/>
		</comp>
	</station>
	<station code="ASTA" name="ASTA" netid="HL" source="National Observatory of Athens Seismic Network" insttype="" lat="36.54552" lon="26.35295">
		<comp name="00.HNE" depth="0.0">
			<acc value="0.15192961788744" flag="0"/>
			<vel value="0.0630913579976" flag="0"/>
			<psa03 value="0.253484208751585" flag="0"/>
			<psa10 value="0.0592808745668204" flag="0"/>
			<psa30 value="0.00735609147160442" flag="0"/>
		</comp>
		<comp name="00.HNN" depth="0.0">
			<acc value="0.15022895142114" flag="0"/>
			<vel value="0.0568798192913" flag="0"/>
			<psa03 value="0.354447855431081" flag="0"/>
			<psa10 value="0.0373444563869761" flag="0"/>
			<psa30 value="0.00580544916583015" flag="0"/>
		</comp>
		<comp name="00.HNZ" depth="0.0">
			<acc value="0.1226691511689" flag="0"/>
			<vel value="0.043660233707" flag="0"/>
			<psa03 value="0.243107625520297" flag="0"/>
			<psa10 value="0.0196142024696693" flag="0"/>
			<psa30 value="0.00736619714106457" flag="0"/>
		</comp>
	</station>
	<station code="CHNB" name="CHNB" netid="HL" source="National Observatory of Athens Seismic Network" insttype="" lat="35.48765" lon="24.06605">
		<comp name="00.HNE" depth="0.0">
			<acc value="0.037015453748454" flag="0"/>
			<vel value="0.0241549103322" flag="0"/>
			<psa03 value="0.0960888237463616" flag="0"/>
			<psa10 value="0.0462962769012256" flag="0"/>
			<psa30 value="0.00421387081492845" flag="0"/>
		</comp>
		<comp name="00.HNN" depth="0.0">
			<acc value="0.030075466006536" flag="0"/>
			<vel value="0.0290123805033" flag="0"/>
			<psa03 value="0.0697766640282893" flag="0"/>
			<psa10 value="0.0454421728209349" flag="0"/>
			<psa30 value="0.00567838408173106" flag="0"/>
		</comp>
		<comp name="00.HNZ" depth="0.0">
			<acc value="0.020316531101838" flag="0"/>
			<vel value="0.0138039656514" flag="0"/>
			<psa03 value="0.0589824385471301" flag="0"/>
			<psa10 value="0.0133901982849175" flag="0"/>
			<psa30 value="0.00194493967604331" flag="0"/>
		</comp>
	</station>
	<station code="HERG" name="HERG" netid="HL" source="National Observatory of Athens Seismic Network" insttype="" lat="35.32622" lon="25.06586">
		<comp name="00.HNE" depth="0.0">
			<acc value="0.04420512430269" flag="0"/>
			<vel value="0.0402284969586" flag="0"/>
			<psa03 value="0.141414586772456" flag="0"/>
			<psa10 value="0.0638691310162777" flag="0"/>
			<psa30 value="0.00893131915607298" flag="0"/>
		</comp>
		<comp name="00.HNN" depth="0.0">
			<acc value="0.045895058337864" flag="0"/>
			<vel value="0.0326716566066" flag="0"/>
