<?xml version="1.0" encoding="UTF-8" standalone="yes"?>
<!DOCTYPE earthquake SYSTEM "stationlist.dtd">
<stationlist created="" xmlns="ch.ethz.sed.shakemap.usgs.xml">
  <station code="APE" name="APE" netid="GE" insttype="STS-2/N" lat="37.0727" lon="25.523">
    <comp name="--.HHN">
      <acc value="0.4395089437" flag="0"/>
      <vel value="0.0987897066" flag="0"/>
      <psa03 value="0.3478773937" flag="0"/>
      <psa10 value="0.0671794553" flag="0"/>
      <psa30 value="0.0190700254" flag="0"/>
    </comp>
    <comp name="--.HHZ">
      <acc value="0.1891390157" flag="0"/>
      <vel value="0.0586770770" flag="0"/>
      <psa03 value="0.2665127157" flag="0"/>
      <psa10 value="0.0368951204" flag="0"/>
      <psa30 value="0.0259492444" flag="0"/>
    </comp>
    <comp name="--.HHE">
      <acc value="0.4279410984" flag="0"/>
      <vel value="0.1028130565" flag="0"/>
      <psa03 value="0.2924995516" flag="0"/>
      <psa10 value="0.0819180703" flag="0"/>
      <psa30 value="0.0147062120" flag="0"/>
    </comp>
  </station>
  <station code="THERA" name="THERA" netid="GE" insttype="STS-2/N" lat="36.367" lon="25.4753">
    <comp name="--.HHZ">
      <acc value="0.2528103876" flag="0"/>
      <vel value="0.0709060182" flag="0"/>
      <psa03 value="0.5789588469" flag="0"/>
      <psa10 value="0.0242894315" flag="0"/>
      <psa30 value="0.0063136820" flag="0"/>
    </comp>
    <comp name="--.HHN">
      <acc value="0.2117961835" flag="0"/>
      <vel value="0.0576898350" flag="0"/>
      <psa03 value="0.4201826716" flag="0"/>
      <psa10 value="0.0143188106" flag="0"/>
      <psa30 value="0.0060361874" flag="0"/>
    </comp>
    <comp name="--.HHE">
      <acc value="0.2855289433" flag="0"/>
      <vel value="0.0860065273" flag="0"/>
      <psa03 value="0.6792875310" flag="0"/>
      <psa10 value="0.0336774468" flag="0"/>
      <psa30 value="0.0101016408" flag="0"/>
    </comp>
  </station>
</stationlist>
