<?xml version="1.0" encoding="UTF-8" standalone="yes"?>
<!DOCTYPE earthquake SYSTEM "stationlist.dtd">
<stationlist created="" xmlns="ch.ethz.sed.shakemap.usgs.xml">
  <station code="URFA" name="URFA" netid="KO" insttype="CMG-3ESP" lat="37.4409" lon="38.8213">
    <comp name="--.HHE">
      <acc value="0.1155833841" flag="0"/>
      <vel value="0.0227652534" flag="0"/>
      <psa03 value="0.0890856452" flag="0"/>
      <psa10 value="0.0269142423" flag="0"/>
      <psa30 value="0.0050548444" flag="0"/>
    </comp>
    <comp name="--.HHN">
      <acc value="0.0838023970" flag="0"/>
      <vel value="0.0171850451" flag="0"/>
      <psa03 value="0.0611845372" flag="0"/>
      <psa10 value="0.0188390867" flag="0"/>
      <psa30 value="0.0053740587" flag="0"/>
    </comp>
    <comp name="--.HHZ">
      <acc value="0.0680271535" flag="0"/>
      <vel value="0.0182146600" flag="0"/>
      <psa03 value="0.0490294456" flag="0"/>
      <psa10 value="0.0235686243" flag="0"/>
      <psa30 value="0.0030911718" flag="0"/>
    </comp>
  </station>
</stationlist>
