<?xml version="1.0" encoding="UTF-8" standalone="yes"?>
<!DOCTYPE earthquake SYSTEM "stationlist.dtd">
<stationlist created="" xmlns="ch.ethz.sed.shakemap.usgs.xml">
  <station code="APE" name="APE" netid="GE" insttype="STS-2/N" lat="37.0727" lon="25.523">
    <comp name="--.HHZ">
      <acc value="0.1402292695" flag="0"/>
      <vel value="0.0244562491" flag="0"/>
      <psa03 value="0.0552876310" flag="0"/>
      <psa10 value="0.0067824413" flag="0"/>
      <psa30 value="0.0017355890" flag="0"/>
    </comp>
    <comp name="--.HHE">
      <acc value="0.3271276475" flag="0"/>
      <vel value="0.0696185831" flag="0"/>
      <psa03 value="0.1328039762" flag="0"/>
      <psa10 value="0.0093713220" flag="0"/>
      <psa30 value="0.0015402028" flag="0"/>
    </comp>
    <comp name="--.HHN">
      <acc value="0.1789053719" flag="0"/>
      <vel value="0.0480754649" flag="0"/>
      <psa03 value="0.1505496027" flag="0"/>
      <psa10 value="0.0072265381" flag="0"/>
      <psa30 value="0.0018485104" flag="0"/>
    </comp>
  </station>
  <station code="THERA" name="THERA" netid="GE" insttype="STS-2/N" lat="36.367" lon="25.4753">
    <comp name="--.HHE">
      <acc value="0.2411278115" flag="0"/>
      <vel value="0.0534691948" flag="0"/>
      <psa03 value="0.2447776163" flag="0"/>
      <psa10 value="0.0089421360" flag="0"/>
      <psa30 value="0.0010834618" flag="0"/>
    </comp>
    <comp name="--.HHZ">
      <acc value="0.1617472166" flag="0"/>
      <vel value="0.0365299714" flag="0"/>
      <psa03 value="0.1148419907" flag="0"/>
      <psa10 value="0.0083604326" flag="0"/>
      <psa30 value="0.0007572849" flag="0"/>
    </comp>
    <comp name="--.HHN">
      <acc value="0.1138240907" flag="0"/>
      <vel value="0.0289865770" flag="0"/>
      <psa03 value="0.1450115303" flag="0"/>
      <psa10 value="0.0084417675" flag="0"/>
      <psa30 value="0.0004967879" flag="0"/>
    </comp>
  </station>
</stationlist>
