<stationlist created="1741951789">
	<station code="BODA" name="BODA" netid="KO" source="Bogazici University Kandilli Observatory And Earthquake Research Institute (KOERI)" insttype="" lat="37.0348" lon="27.4304">
		<comp name=".HNE" depth="0.0">
			<acc value="0.0039858693057834" flag="0"/>
			<vel value="0.00241153980258" flag="0"/>
			<psa03 value="0.0146565086821983" flag="0"/>
			<psa10 value="0.0013551049253016" flag="0"/>
			<psa30 value="0.000202096161316441" flag="0"/>
		</comp>
		<comp name=".HNN" depth="0.0">
			<acc value="0.0053709225712392" flag="0"/>
			<vel value="0.00275547827714" flag="0"/>
			<psa03 value="0.0143728987485905" flag="0"/>
			<psa10 value="0.00174295690765499" flag="0"/>
			<psa30 value="0.00021319614142705" flag="0"/>
		</comp>
		<comp name=".HNZ" depth="0.0">
			<acc value="0.0042773907694032" flag="0"/>
			<vel value="0.000888571106074" flag="0"/>
			<psa03 value="0.0043102233566638" flag="0"/>
			<psa10 value="0.000777541645035902" flag="0"/>
			<psa30 value="0.000258292761669638" flag="0"/>
		</comp>
	</station>
	<station code="BODM" name="BODM" netid="KO" source="Bogazici University Kandilli Observatory And Earthquake Research Institute (KOERI)" insttype="" lat="37.031" lon="27.4247">
		<comp name=".HNE" depth="0.0">
			<acc value="0.0086257484819556" flag="0"/>
			<vel value="0.00518150877973" flag="0"/>
			<psa03 value="0.0197357305723766" flag="0"/>
			<psa10 value="0.00225253609446126" flag="0"/>
			<psa30 value="0.000213631495788126" flag="0"/>
		</comp>
		<comp name=".HNN" depth="0.0">
			<acc value="0.0096916763112072" flag="0"/>
			<vel value="0.00574157630704" flag="0"/>
			<psa03 value="0.0238828685811607" flag="0"/>
			<psa10 value="0.0028623961040698" flag="0"/>
			<psa30 value="0.000240637659813901" flag="0"/>
		</comp>
		<comp name=".HNZ" depth="0.0">
			<acc value="0.0020783165204934" flag="0"/>
			<vel value="0.00101799365781" flag="0"/>
			<psa03 value="0.00345577352438992" flag="0"/>
			<psa10 value="0.000582669184911368" flag="0"/>
			<psa30 value="0.000288777906160587" flag="0"/>
		</comp>
	</station>
	<station code="CESE" name="CESE" netid="KO" source="Bogazici University Kandilli Observatory And Earthquake Research Institute (KOERI)" insttype="" lat="38.3306" lon="26.2997">
		<comp name=".HNE" depth="0.0">
			<acc value="0.12008536320378" flag="0"/>
			<vel value="0.00638364428793" flag="0"/>
			<psa03 value="0.00551127004249483" flag="0"/>
			<psa10 value="0.00109099965618595" flag="0"/>
			<psa30 value="0.000626119341917605" flag="0"/>
		</comp>
		<comp name=".HNN" depth="0.0">
			<acc value="0.099171264932622" flag="0"/>
			<vel value="0.00627826251692" flag="0"/>
			<psa03 value="0.0053534392744962" flag="0"/>
			<psa10 value="0.00159118599420207" flag="0"/>
			<psa30 value="0.000537143916479921" flag="0"/>
		</comp>
		<comp name=".HNZ" depth="0.0">
			<acc value="0.020681919728718" flag="0"/>
			<vel value="0.00207197117094" flag="0"/>
			<psa03 value="0.00457056384513941" flag="0"/>
			<psa10 value="0.00107900964315388" flag="0"/>
			<psa30 value="0.000455604869086074" flag="0"/>
		</comp>
	</station>
	<station code="DATC" name="DATC" netid="KO" source="Bogazici University Kandilli Observatory And Earthquake Research Institute (KOERI)" insttype="" lat="36.7584" lon="27.6602">
		<comp name=".HNE" depth="0.0">
			<acc value="0.1503563387856" flag="0"/>
			<vel value="0.0121903207835" flag="0"/>
			<psa03 value="0.0211881848632807" flag="0"/>
			<psa10 value="0.00435430517011102" flag="0"/>
			<psa30 value="0.000708859458461509" flag="0"/>
		</comp>
		<comp name=".HNN" depth="0.0">
			<acc value="0.21278532217002" flag="0"/>
			<vel value="0.0163189806299" flag="0"/>
			<psa03 value="0.0267495923417146" flag="0"/>
			<psa10 value="0.00937215023397342" flag="0"/>
			<psa30 value="0.000559718901545968" flag="0"/>
		</comp>
		<comp name=".HNZ" depth="0.0">
			<acc value="0.1086811206354" flag="0"/>
			<vel value="0.0180115102655" flag="0"/>
			<psa03 value="0.017770944164903" flag="0"/>
			<psa10 value="0.00682744072195917" flag="0"/>
			<psa30 value="0.000488371206360741" flag="0"/>
		</comp>
	</station>
	<station code="DIDI" name="DIDI" netid="KO" source="Bogazici University Kandilli Observatory And Earthquake Research Institute (KOERI)" insttype="" lat="37.3767" lon="27.2398">
		<comp name=".HNE" depth="0.0">
			<acc value="0.0969572436954" flag="0"/>
			<vel value="0.00896752205781" flag="0"/>
			<psa03 value="0.0354605730472656" flag="0"/>
			<psa10 value="0.00739108009153535" flag="0"/>
			<psa30 value="0.00114705973707762" flag="0"/>
		</comp>
		<comp name=".HNN" depth="0.0">
			<acc value="0.10581257682942" flag="0"/>
			<vel value="0.00999439856512" flag="0"/>
			<psa03 value="0.0316408564681038" flag="0"/>
			<psa10 value="0.00772840837536995" flag="0"/>
			<psa30 value="0.000981275317172025" flag="0"/>
		</comp>
		<comp name=".HNZ" depth="0.0">
			<acc value="0.14790815509584" flag="0"/>
			<vel value="0.0149593953713" flag="0"/>
			<psa03 value="0.0215342676853664" flag="0"/>
			<psa10 value="0.00482667708742369" flag="0"/>
			<psa30 value="0.000884768507404417" flag="0"/>
		</comp>
	</station>
	<station code="GMLD" name="GMLD" netid="KO" source="Bogazici University Kandilli Observatory And Earthquake Research Institute (KOERI)" insttype="" lat="38.0766" lon="26.9157">
		<comp name=".HNE" depth="0.0">
			<acc value="0.01311162835608" flag="0"/>
			<vel value="0.00644055931121" flag="0"/>
			<psa03 value="0.0276593557340629" flag="0"/>
			<psa10 value="0.00326124440081284" flag="0"/>
			<psa30 value="0.000378036423266076" flag="0"/>
		</comp>
		<comp name=".HNN" depth="0.0">
			<acc value="0.023794766972484" flag="0"/>
			<vel value="0.00565169155834" flag="0"/>
			<psa03 value="0.0233757047757128" flag="0"/>
			<psa10 value="0.00396495672142492" flag="0"/>
			<psa30 value="0.000435995314841646" flag="0"/>
		</comp>
		<comp name=".HNZ" depth="0.0">
			<acc value="0.008302445607375" flag="0"/>
			<vel value="0.00350451596072" flag="0"/>
			<psa03 value="0.0153329844849638" flag="0"/>
			<psa10 value="0.00200533424980095" flag="0"/>
			<psa30 value="0.000414418599031721" flag="0"/>
		</comp>
	</station>
	<station code="KUSD" name="KUSD" netid="KO" source="Bogazici University Kandilli Observatory And Earthquake Research Institute (KOERI)" insttype="" lat="37.8606" lon="27.2868">
		<comp name=".HNE" depth="0.0">
			<acc value="0.015297305730486" flag="0"/>
			<vel value="0.0023159939258" flag="0"/>
			<psa03 value="0.00572917314938643" flag="0"/>
			<psa10 value="0.00127114764479477" flag="0"/>
			<psa30 value="0.000385456341882508" flag="0"/>
		</comp>
		<comp name=".HNN" depth="0.0">
			<acc value="0.042013260493134" flag="0"/>
			<vel value="0.00281093123011" flag="0"/>
			<psa03 value="0.00534620116478045" flag="0"/>
			<psa10 value="0.00162031511136038" flag="0"/>
			<psa30 value="0.000437291051719331" flag="0"/>
		</comp>
		<comp name=".HNZ" depth="0.0">
			<acc value="0.0067421338064268" flag="0"/>
			<vel value="0.0011722910275" flag="0"/>
			<psa03 value="0.00270016357310695" flag="0"/>
			<psa10 value="0.000800337295760326" flag="0"/>
			<psa30 value="0.000281886434009655" flag="0"/>
		</comp>
	</station>
	<station code="YKAV" name="YKAV" netid="KO" source="Bogazici University Kandilli Observatory And Earthquake Research Institute (KOERI)" insttype="" lat="37.1246" lon="27.2801">
		<comp name=".HNE" depth="0.0">
			<acc value="0.011830361630916" flag="0"/>
			<vel value="0.00366904319276" flag="0"/>
			<psa03 value="0.0157748041179376" flag="0"/>
			<psa10 value="0.00294013875413971" flag="0"/>
			<psa30 value="0.000740299093266324" flag="0"/>
		</comp>
		<comp name=".HNN" depth="0.0">
			<acc value="0.016140638301756" flag="0"/>
			<vel value="0.00345751522846" flag="0"/>
			<psa03 value="0.0112276929983262" flag="0"/>
			<psa10 value="0.00292631018181294" flag="0"/>
			<psa30 value="0.000618028701785458" flag="0"/>
		</comp>
		<comp name=".HNZ" depth="0.0">
			<acc value="0.015492194330892" flag="0"/>
			<vel value="0.00316117752118" flag="0"/>
			<psa03 value="0.0127748319469961" flag="0"/>
			<psa10 value="0.00243773953515481" flag="0"/>
			<psa30 value="0.000407365423460223" flag="0"/>
		</comp>
	</station>
</stationlist>
