<?xml version="1.0" encoding="UTF-8" standalone="yes"?>
<!DOCTYPE earthquake SYSTEM "stationlist.dtd">
<stationlist created="" xmlns="ch.ethz.sed.shakemap.usgs.xml">
  <station code="APE" name="APE" netid="GE" insttype="STS-2/N" lat="37.0727" lon="25.523">
    <comp name="--.HHZ">
      <acc value="0.1402292695" flag="0"/>
      <vel value="0.0244562491" flag="0"/>
      <psa03 value="0.0552876310" flag="0"/>
      <psa10 value="0.0067824413" flag="0"/>
      <psa30 value="0.0017355890" flag="0"/>
    </comp>
    <comp name="--.HHE">
      <acc value="0.3271276475" flag="0"/>
      <vel value="0.0696185831" flag="0"/>
      <psa03 value="0.1328039762" flag="0"/>
      <psa10 value="0.0093713220" flag="0"/>
      <psa30 value="0.0015402028" flag="0"/>
    </comp>
    <comp name="--.HHN">
      <acc value="0.1789053719" flag="0"/>
      <vel value="0.0480754649" flag="0"/>
      <psa03 value="0.1505496027" flag="0"/>
      <psa10 value="0.0072265381" flag="0"/>
      <psa30 value="0.0018485104" flag="0"/>
    </comp>
  </station>
  <station code="THERA" name="THERA" netid="GE" insttype="STS-2/N" lat="36.367" lon="25.4753">
    <comp name="--.HHE">
      <acc value="0.2411278115" flag="0"/>
      <vel value="0.0534691948" flag="0"/>
      <psa03 value="0.2447776163" flag="0"/>
      <psa10 value="0.0089421360" flag="0"/>
      <psa30 value="0.0010834618" flag="0"/>
    </comp>
    <comp name="--.HHZ">
      <acc value="0.1617472166" flag="0"/>
      <vel value="0.0365299714" flag="0"/>
      <psa03 value="0.1148419907" flag="0"/>
      <psa10 value="0.0083604326" flag="0"/>
      <psa30 value="0.0007572849" flag="0"/>
    </comp>
    <comp name="--.HHN">
      <acc value="0.1138240907" flag="0"/>
      <vel value="0.0289865770" flag="0"/>
      <psa03 value="0.1450115303" flag="0"/>
      <psa10 value="0.0084417675" flag="0"/>
      <psa30 value="0.0004967879" flag="0"/>
    </comp>
  </station>
  <station code="SNT1" name="SNT1" netid="HA" insttype="30" lat="36.4159" lon="25.4282">
    <comp name="--.HHZ">
      <acc value="0.0889487918" flag="0"/>
      <vel value="0.0265032290" flag="0"/>
      <psa03 value="0.1017031206" flag="0"/>
      <psa10 value="0.0148215276" flag="0"/>
      <psa30 value="0.0010136855" flag="0"/>
    </comp>
    <comp name="--.HHE">
      <acc value="0.1033052689" flag="0"/>
      <vel value="0.0280815176" flag="0"/>
      <psa03 value="0.1185016025" flag="0"/>
      <psa10 value="0.0210030699" flag="0"/>
      <psa30 value="0.0014867710" flag="0"/>
    </comp>
    <comp name="--.HHN">
      <acc value="0.0893836842" flag="0"/>
      <vel value="0.0239238344" flag="0"/>
      <psa03 value="0.1000573949" flag="0"/>
      <psa10 value="0.0168788497" flag="0"/>
      <psa30 value="0.0012396299" flag="0"/>
    </comp>
  </station>
  <station code="NAX1" name="NAX1" netid="HI" insttype="CMG-5TD,ACCELEROMETER,GURALP" lat="37.1014" lon="25.3741">
    <comp name="--.HNE">
      <acc value="0.2579972673" flag="0"/>
      <vel value="0.0435249001" flag="0"/>
      <psa03 value="0.1488910996" flag="0"/>
      <psa10 value="0.0090394484" flag="0"/>
      <psa30 value="0.0007866288" flag="0"/>
    </comp>
    <comp name="--.HNN">
      <acc value="0.1837442701" flag="0"/>
      <vel value="0.0289495880" flag="0"/>
      <psa03 value="0.1155061043" flag="0"/>
      <psa10 value="0.0060731892" flag="0"/>
      <psa30 value="0.0012681749" flag="0"/>
    </comp>
    <comp name="--.HNZ">
      <acc value="0.0808144109" flag="0"/>
      <vel value="0.0133388567" flag="0"/>
      <psa03 value="0.0809765955" flag="0"/>
      <psa10 value="0.0060632938" flag="0"/>
      <psa30 value="0.0013667127" flag="0"/>
    </comp>
  </station>
  <station code="AMGA" name="AMGA" netid="HL" insttype="SMART24" lat="36.8316" lon="25.8938">
    <comp name="--.HHN">
      <acc value="0.6755530922" flag="0"/>
      <vel value="0.0908477154" flag="0"/>
      <psa03 value="0.2634357257" flag="0"/>
      <psa10 value="0.0239070263" flag="0"/>
      <psa30 value="0.0026574362" flag="0"/>
    </comp>
    <comp name="--.HHZ">
      <acc value="0.4222212773" flag="0"/>
      <vel value="0.0733140278" flag="0"/>
      <psa03 value="0.1894065356" flag="0"/>
      <psa10 value="0.0198157000" flag="0"/>
      <psa30 value="0.0028713911" flag="0"/>
    </comp>
    <comp name="--.HHE">
      <acc value="0.6541307110" flag="0"/>
      <vel value="0.0823899769" flag="0"/>
      <psa03 value="0.2500593285" flag="0"/>
      <psa10 value="0.0283864580" flag="0"/>
      <psa30 value="0.0025940372" flag="0"/>
    </comp>
  </station>
  <station code="APE" name="APE" netid="HL" insttype="120" lat="37.0727" lon="25.523">
    <comp name="--.HHE">
      <acc value="0.2820044159" flag="0"/>
      <vel value="0.0670357686" flag="0"/>
      <psa03 value="0.1281540792" flag="0"/>
      <psa10 value="0.0090165707" flag="0"/>
      <psa30 value="0.0015327098" flag="0"/>
    </comp>
    <comp name="--.HHN">
      <acc value="0.1637118667" flag="0"/>
      <vel value="0.0449192785" flag="0"/>
      <psa03 value="0.1445966891" flag="0"/>
      <psa10 value="0.0070255167" flag="0"/>
      <psa30 value="0.0018405921" flag="0"/>
    </comp>
    <comp name="--.HHZ">
      <acc value="0.1290543218" flag="0"/>
      <vel value="0.0233772732" flag="0"/>
      <psa03 value="0.0538846313" flag="0"/>
      <psa10 value="0.0067306883" flag="0"/>
      <psa30 value="0.0017300457" flag="0"/>
    </comp>
  </station>
  <station code="MHLO" name="MHLO" netid="HL" insttype="20" lat="36.6898" lon="24.4017">
    <comp name="--.HHE">
      <acc value="0.1473697311" flag="0"/>
      <vel value="0.0688461758" flag="0"/>
      <psa03 value="0.4559264460" flag="0"/>
      <psa10 value="0.0304534837" flag="0"/>
      <psa30 value="0.0018743905" flag="0"/>
    </comp>
    <comp name="--.HHZ">
      <acc value="0.0531899395" flag="0"/>
      <vel value="0.0222732513" flag="0"/>
      <psa03 value="0.1679061303" flag="0"/>
      <psa10 value="0.0244654136" flag="0"/>
      <psa30 value="0.0011193403" flag="0"/>
    </comp>
    <comp name="--.HHN">
      <acc value="0.1346110916" flag="0"/>
      <vel value="0.0483185814" flag="0"/>
      <psa03 value="0.3778586487" flag="0"/>
      <psa10 value="0.0315056826" flag="0"/>
      <psa30 value="0.0017924172" flag="0"/>
    </comp>
  </station>
  <station code="SAP3" name="SAP3" netid="HL" insttype="LE3D20_SMART24" lat="36.4356" lon="25.3454">
    <comp name="--.HHE">
      <acc value="0.5762302239" flag="0"/>
      <vel value="0.1673975444" flag="0"/>
      <psa03 value="0.8868098464" flag="0"/>
      <psa10 value="0.0672985957" flag="0"/>
      <psa30 value="0.0061216446" flag="0"/>
    </comp>
    <comp name="--.HHZ">
      <acc value="0.5491851707" flag="0"/>
      <vel value="0.1333197046" flag="0"/>
      <psa03 value="0.6413422300" flag="0"/>
      <psa10 value="0.0328152070" flag="0"/>
      <psa30 value="0.0031568080" flag="0"/>
    </comp>
    <comp name="--.HHN">
      <acc value="0.5789115213" flag="0"/>
      <vel value="0.1361023897" flag="0"/>
      <psa03 value="0.9138134290" flag="0"/>
      <psa10 value="0.0651040778" flag="0"/>
      <psa30 value="0.0081148480" flag="0"/>
    </comp>
  </station>
  <station code="THERA" name="THERA" netid="HL" insttype="120" lat="36.367" lon="25.4753">
    <comp name="--.HHE">
      <acc value="0.2423041898" flag="0"/>
      <vel value="0.0516931576" flag="0"/>
      <psa03 value="0.2385793280" flag="0"/>
      <psa10 value="0.0088358312" flag="0"/>
      <psa30 value="0.0010575899" flag="0"/>
    </comp>
    <comp name="--.HHN">
      <acc value="0.1101253556" flag="0"/>
      <vel value="0.0282717268" flag="0"/>
      <psa03 value="0.1405065044" flag="0"/>
      <psa10 value="0.0082856515" flag="0"/>
      <psa30 value="0.0004866856" flag="0"/>
    </comp>
    <comp name="--.HHZ">
      <acc value="0.1594119035" flag="0"/>
      <vel value="0.0358074216" flag="0"/>
      <psa03 value="0.1109069970" flag="0"/>
      <psa10 value="0.0082523026" flag="0"/>
      <psa30 value="0.0007470691" flag="0"/>
    </comp>
  </station>
  <station code="THRA" name="THRA" netid="HL" insttype="CMG-5" lat="36.415" lon="25.4324">
    <comp name="00.HNN">
      <acc value="0.3444567918" flag="0"/>
      <vel value="0.1209738927" flag="0"/>
      <psa03 value="0.4971180729" flag="0"/>
      <psa10 value="0.0704818631" flag="0"/>
      <psa30 value="0.0029926406" flag="0"/>
    </comp>
    <comp name="00.HNE">
      <acc value="0.3592594790" flag="0"/>
      <vel value="0.1108548125" flag="0"/>
      <psa03 value="0.6906777730" flag="0"/>
      <psa10 value="0.0610859988" flag="0"/>
      <psa30 value="0.0035186530" flag="0"/>
    </comp>
    <comp name="00.HNZ">
      <acc value="0.2792588609" flag="0"/>
      <vel value="0.0745771224" flag="0"/>
      <psa03 value="0.5257505502" flag="0"/>
      <psa10 value="0.0256178308" flag="0"/>
      <psa30 value="0.0020249989" flag="0"/>
    </comp>
  </station>
  <station code="TNSA" name="TNSA" netid="HL" insttype="CMG-5" lat="37.5394" lon="25.1631">
    <comp name="00.HNE">
      <acc value="0.0630673880" flag="0"/>
      <vel value="0.0148009777" flag="0"/>
      <psa03 value="0.0584462754" flag="0"/>
      <psa10 value="0.0048887803" flag="0"/>
      <psa30 value="0.0004571722" flag="0"/>
    </comp>
    <comp name="00.HNN">
      <acc value="0.0833208610" flag="0"/>
      <vel value="0.0234789097" flag="0"/>
      <psa03 value="0.0990260184" flag="0"/>
      <psa10 value="0.0056900835" flag="0"/>
      <psa30 value="0.0006670873" flag="0"/>
    </comp>
    <comp name="00.HNZ">
      <acc value="0.0581521528" flag="0"/>
      <vel value="0.0124580404" flag="0"/>
      <psa03 value="0.0566518641" flag="0"/>
      <psa10 value="0.0052236130" flag="0"/>
      <psa30 value="0.0009983068" flag="0"/>
    </comp>
  </station>
  <station code="CMBO" name="CMBO" netid="HT" insttype="120P," lat="36.4709" lon="25.4056">
    <comp name="--.HHE">
      <acc value="0.5062134087" flag="0"/>
      <vel value="0.1800135019" flag="0"/>
      <psa03 value="0.7831527596" flag="0"/>
      <psa10 value="0.0501296598" flag="0"/>
      <psa30 value="0.0041063788" flag="0"/>
    </comp>
    <comp name="--.HHN">
      <acc value="0.6660954942" flag="0"/>
      <vel value="0.1890203437" flag="0"/>
      <psa03 value="0.8140429328" flag="0"/>
      <psa10 value="0.0860573608" flag="0"/>
      <psa30 value="0.0059939126" flag="0"/>
    </comp>
    <comp name="--.HHZ">
      <acc value="0.7183730754" flag="0"/>
      <vel value="0.1593141808" flag="0"/>
      <psa03 value="0.6979794152" flag="0"/>
      <psa10 value="0.0367784581" flag="0"/>
      <psa30 value="0.0030798495" flag="0"/>
    </comp>
  </station>
</stationlist>
