<stationlist xmlns:esm="https://esm-db.eu/esmws/shakemap/1/" created="1783994080">
	<station code="ARG2" name="ARG2" netid="HI" source="ITSAK Strong Motion Network" insttype="" lat="38.1783" lon="20.4878" esm:processing="manual (Paolucci et al 2011)" esm:quality="good">
		<comp name="--.HNE" depth="0.0">
			<acc value="0.0348549130940406" flag="0"/>
			<vel value="0.0136440074566066" flag="0"/>
			<psa03 value="0.0849654503680981" flag="0"/>
			<psa10 value="0.012515290035263" flag="0"/>
			<psa30 value="0.0025655181274917" flag="0"/>
		</comp>
		<comp name="--.HNN" depth="0.0">
			<acc value="0.0254333596809752" flag="0"/>
			<vel value="0.0126465100528576" flag="0"/>
			<psa03 value="0.0780304083422659" flag="0"/>
			<psa10 value="0.0119354310374902" flag="0"/>
			<psa30 value="0.00187559330143795" flag="0"/>
		</comp>
		<comp name="--.HNZ" depth="0.0">
			<acc value="0.0162337662616266" flag="0"/>
			<vel value="0.00804281802560369" flag="0"/>
			<psa03 value="0.0490374584536258" flag="0"/>
			<psa10 value="0.00748581858930305" flag="0"/>
			<psa30 value="0.00282636519207623" flag="0"/>
		</comp>
	</station>
	<station code="ART2" name="ART2" netid="HI" source="ITSAK Strong Motion Network" insttype="" lat="39.1474" lon="20.9937" esm:processing="manual (Paolucci et al 2011)" esm:quality="bad">
		<comp name="--.HNE" depth="0.0">
			<acc value="0.00120743430143585" flag="0"/>
			<vel value="0.00128116288247414" flag="0"/>
			<psa03 value="0.00301091592975632" flag="0"/>
			<psa10 value="0.00217539653121978" flag="0"/>
			<psa30 value="0.000473263330541042" flag="0"/>
		</comp>
		<comp name="--.HNN" depth="0.0">
			<acc value="0.00127049918018266" flag="0"/>
			<vel value="0.00119129167203095" flag="0"/>
			<psa03 value="0.00206315392642568" flag="0"/>
			<psa10 value="0.00243210713078466" flag="0"/>
			<psa30 value="0.000423202904907293" flag="0"/>
		</comp>
		<comp name="--.HNZ" depth="0.0">
			<acc value="0.000993547049920802" flag="0"/>
			<vel value="0.000999237022456109" flag="0"/>
			<psa03 value="0.00188277413861025" flag="0"/>
			<psa10 value="0.00165306157752982" flag="0"/>
			<psa30 value="0.000448830149460251" flag="0"/>
		</comp>
	</station>
	<station code="KLV1" name="KLV1" netid="HI" source="ITSAK Strong Motion Network" insttype="" lat="38.03256" lon="22.10797" esm:processing="manual (Paolucci et al 2011)" esm:quality="good">
		<comp name="--.HNE" depth="0.0">
			<acc value="0.00534002289475435" flag="0"/>
			<vel value="0.0042487642744746" flag="0"/>
			<psa03 value="0.0168939511725872" flag="0"/>
			<psa10 value="0.00488448107291003" flag="0"/>
			<psa30 value="0.00183330457243055" flag="0"/>
		</comp>
		<comp name="--.HNN" depth="0.0">
			<acc value="0.00477163851878927" flag="0"/>
			<vel value="0.00343867628934958" flag="0"/>
			<psa03 value="0.0160934775722613" flag="0"/>
			<psa10 value="0.00635292131859296" flag="0"/>
			<psa30 value="0.00086859811327693" flag="0"/>
		</comp>
		<comp name="--.HNZ" depth="0.0">
			<acc value="0.00361519691339959" flag="0"/>
			<vel value="0.00349319647411992" flag="0"/>
			<psa03 value="0.00830796898194406" flag="0"/>
			<psa10 value="0.00504919385933021" flag="0"/>
			<psa30 value="0.00073205505755705" flag="0"/>
		</comp>
	</station>
	<station code="KRI1" name="KRI1" netid="HI" source="ITSAK Strong Motion Network" insttype="" lat="37.6621" lon="20.8172" esm:processing="manual (Paolucci et al 2011)" esm:quality="good">
		<comp name="--.HNE" depth="0.0">
			<acc value="0.217488879679942" flag="0"/>
			<vel value="0.0788313172308703" flag="0"/>
			<psa03 value="0.342949013729053" flag="0"/>
			<psa10 value="0.0317513069266566" flag="0"/>
			<psa30 value="0.0176100851028856" flag="0"/>
		</comp>
		<comp name="--.HNN" depth="0.0">
			<acc value="0.151221196956975" flag="0"/>
			<vel value="0.0567952754485879" flag="0"/>
			<psa03 value="0.287960841795197" flag="0"/>
			<psa10 value="0.0514181912677841" flag="0"/>
			<psa30 value="0.0156212940187034" flag="0"/>
		</comp>
		<comp name="--.HNZ" depth="0.0">
			<acc value="0.0938678427056608" flag="0"/>
			<vel value="0.032469637195738" flag="0"/>
			<psa03 value="0.193420559210789" flag="0"/>
			<psa10 value="0.0201621805683918" flag="0"/>
			<psa30 value="0.0127551082627369" flag="0"/>
		</comp>
	</station>
	<station code="MSL1" name="MSL1" netid="HI" source="ITSAK Strong Motion Network" insttype="" lat="38.3727" lon="21.4243" esm:processing="manual (Paolucci et al 2011)" esm:quality="good">
		<comp name="--.HNE" depth="0.0">
			<acc value="0.012614592033308" flag="0"/>
			<vel value="0.0124135787314268" flag="0"/>
			<psa03 value="0.0500665292058461" flag="0"/>
			<psa10 value="0.0260010385320763" flag="0"/>
			<psa30 value="0.0026147345547718" flag="0"/>
		</comp>
		<comp name="--.HNN" depth="0.0">
			<acc value="0.0117582490768614" flag="0"/>
			<vel value="0.016792024937959" flag="0"/>
			<psa03 value="0.054496007661055" flag="0"/>
			<psa10 value="0.0254735279160468" flag="0"/>
			<psa30 value="0.00373418456436096" flag="0"/>
		</comp>
		<comp name="--.HNZ" depth="0.0">
			<acc value="0.00664200906699861" flag="0"/>
			<vel value="0.00610586814106591" flag="0"/>
			<psa03 value="0.0212525481436791" flag="0"/>
			<psa10 value="0.0107797398405402" flag="0"/>
			<psa30 value="0.00122369935100973" flag="0"/>
		</comp>
	</station>
	<station code="PYL1" name="PYL1" netid="HI" source="ITSAK Strong Motion Network" insttype="" lat="36.914188" lon="21.695161" esm:processing="manual (Paolucci et al 2011)" esm:quality="best">
		<comp name="--.HNE" depth="0.0">
			<acc value="0.0260026128361992" flag="0"/>
			<vel value="0.012443929027116" flag="0"/>
			<psa03 value="0.105009958933084" flag="0"/>
			<psa10 value="0.00707508513254731" flag="0"/>
			<psa30 value="0.00138029707417368" flag="0"/>
		</comp>
		<comp name="--.HNN" depth="0.0">
			<acc value="0.0270723957944137" flag="0"/>
			<vel value="0.00936066372557534" flag="0"/>
			<psa03 value="0.0638918710508921" flag="0"/>
			<psa10 value="0.00721602308339487" flag="0"/>
			<psa30 value="0.00114495306736157" flag="0"/>
		</comp>
		<comp name="--.HNZ" depth="0.0">
			<acc value="0.0116037439528875" flag="0"/>
			<vel value="0.00529758988160418" flag="0"/>
			<psa03 value="0.0378966490056762" flag="0"/>
			<psa10 value="0.00386169985322303" flag="0"/>
			<psa30 value="0.00060267752314812" flag="0"/>
		</comp>
	</station>
	<station code="ITM" name="ITM" netid="HL" source="National Observatory of Athens Seismic Network" insttype="" lat="37.17872" lon="21.92522" esm:processing="manual (Paolucci et al 2011)" esm:quality="good">
		<comp name="--.HNE" depth="0.0">
			<acc value="0.010524141430552" flag="0"/>
			<vel value="0.0090564206834968" flag="0"/>
			<psa03 value="0.0272927460371458" flag="0"/>
			<psa10 value="0.0109005437984095" flag="0"/>
			<psa30 value="0.00228185253753186" flag="0"/>
		</comp>
		<comp name="--.HNN" depth="0.0">
			<acc value="0.0162662840628503" flag="0"/>
			<vel value="0.0102785338028274" flag="0"/>
			<psa03 value="0.0388362353446599" flag="0"/>
			<psa10 value="0.0120562349953595" flag="0"/>
			<psa30 value="0.00214583622941231" flag="0"/>
		</comp>
		<comp name="--.HNZ" depth="0.0">
			<acc value="0.00756732200867451" flag="0"/>
			<vel value="0.00768513512699197" flag="0"/>
			<psa03 value="0.0187469845730559" flag="0"/>
			<psa10 value="0.0087220457581659" flag="0"/>
			<psa30 value="0.00161385139272106" flag="0"/>
		</comp>
	</station>
	<station code="SMHA" name="SMHA" netid="HL" source="National Observatory of Athens Seismic Network" insttype="" lat="38.25123" lon="20.6477" esm:processing="manual (Paolucci et al 2011)" esm:quality="good">
		<comp name="00.HNE" depth="0.0">
			<acc value="0.0344589023553959" flag="0"/>
			<vel value="0.0212267418607779" flag="0"/>
			<psa03 value="0.0885899832349455" flag="0"/>
			<psa10 value="0.0318812669774721" flag="0"/>
			<psa30 value="0.00144641540125503" flag="0"/>
		</comp>
		<comp name="00.HNN" depth="0.0">
			<acc value="0.0382788316700652" flag="0"/>
			<vel value="0.0246299671259277" flag="0"/>
			<psa03 value="0.129636025250452" flag="0"/>
			<psa10 value="0.0314358499707814" flag="0"/>
			<psa30 value="0.00105605600019383" flag="0"/>
		</comp>
		<comp name="00.HNZ" depth="0.0">
			<acc value="0.0202529063845621" flag="0"/>
			<vel value="0.00991101079378233" flag="0"/>
			<psa03 value="0.0445617540808434" flag="0"/>
			<psa10 value="0.0132117933414687" flag="0"/>
			<psa30 value="0.000873493593830373" flag="0"/>
		</comp>
	</station>
	<station code="ZARA" name="ZARA" netid="HL" source="National Observatory of Athens Seismic Network" insttype="" lat="37.4865" lon="21.6491" esm:processing="manual (Paolucci et al 2011)" esm:quality="good">
		<comp name="00.HNE" depth="0.0">
			<acc value="0.03393462074477" flag="0"/>
			<vel value="0.026384931972808" flag="0"/>
			<psa03 value="0.106863558352948" flag="0"/>
			<psa10 value="0.0407763612338117" flag="0"/>
			<psa30 value="0.00306194763066994" flag="0"/>
		</comp>
		<comp name="00.HNN" depth="0.0">
			<acc value="0.0282174152274057" flag="0"/>
			<vel value="0.0196841688025668" flag="0"/>
			<psa03 value="0.0682119562073318" flag="0"/>
			<psa10 value="0.0318954804190429" flag="0"/>
			<psa30 value="0.00319336071114158" flag="0"/>
		</comp>
		<comp name="00.HNZ" depth="0.0">
			<acc value="0.0168257965187821" flag="0"/>
			<vel value="0.0127498655276127" flag="0"/>
			<psa03 value="0.0359604759550472" flag="0"/>
			<psa10 value="0.026672196277103" flag="0"/>
			<psa30 value="0.00139241276134516" flag="0"/>
		</comp>
	</station>
	<station code="ANX" name="ANX" netid="HP" source="University of Patras, Seismological Laboratory (PSLNET)" insttype="" lat="38.5933" lon="21.9209" esm:processing="manual (Paolucci et al 2011)" esm:quality="good">
		<comp name="--.HNE" depth="0.0">
			<acc value="0.00401194119999634" flag="0"/>
			<vel value="0.00382988574572168" flag="0"/>
			<psa03 value="0.0133485288057722" flag="0"/>
			<psa10 value="0.00515994854001706" flag="0"/>
			<psa30 value="0.00111107370734691" flag="0"/>
		</comp>
		<comp name="--.HNN" depth="0.0">
			<acc value="0.00632807497460808" flag="0"/>
			<vel value="0.00709406626865465" flag="0"/>
			<psa03 value="0.0136464287485147" flag="0"/>
			<psa10 value="0.00982584122625851" flag="0"/>
			<psa30 value="0.00148046901130623" flag="0"/>
		</comp>
		<comp name="--.HNZ" depth="0.0">
			<acc value="0.00299658951633552" flag="0"/>
			<vel value="0.0036141924835931" flag="0"/>
			<psa03 value="0.00833168735006381" flag="0"/>
			<psa10 value="0.00328073186363497" flag="0"/>
			<psa30 value="0.00120310334552545" flag="0"/>
		</comp>
	</station>
	<station code="FSK" name="FSK" netid="HP" source="University of Patras, Seismological Laboratory (PSLNET)" insttype="" lat="38.4593" lon="20.5623" esm:processing="manual (Paolucci et al 2011)" esm:quality="bad">
		<comp name="--.HNE" depth="0.0">
			<acc value="0.0155375520744744" flag="0"/>
			<vel value="0.00752786057095891" flag="0"/>
			<psa03 value="0.0143572596917428" flag="0"/>
			<psa10 value="0.015395997096748" flag="0"/>
			<psa30 value="0.00143376727171185" flag="0"/>
		</comp>
		<comp name="--.HNN" depth="0.0">
			<acc value="0.00635368791883042" flag="0"/>
			<vel value="0.00542674566037442" flag="0"/>
			<psa03 value="0.0126116323337474" flag="0"/>
			<psa10 value="0.0150372905216979" flag="0"/>
			<psa30 value="0.00125615310981198" flag="0"/>
		</comp>
		<comp name="--.HNZ" depth="0.0">
			<acc value="0.00570598804889002" flag="0"/>
			<vel value="0.00391772228128012" flag="0"/>
			<psa03 value="0.0101446798477524" flag="0"/>
			<psa10 value="0.00721288703711719" flag="0"/>
			<psa30 value="0.0012031930389672" flag="0"/>
		</comp>
	</station>
	<station code="ARS1" name="ARS1" netid="HI" source="ITSAK Strong Motion Network" insttype="" lat="37.6349" lon="22.7293" esm:processing="discarded" esm:quality="bad">
		<comp name="--.HNE" depth="0.0">
			<acc value="0" flag="1"/>
			<vel value="0" flag="1"/>
			<psa03 value="0" flag="1"/>
			<psa10 value="0" flag="1"/>
			<psa30 value="0" flag="1"/>
		</comp>
		<comp name="--.HNN" depth="0.0">
			<acc value="0" flag="1"/>
			<vel value="0" flag="1"/>
			<psa03 value="0" flag="1"/>
			<psa10 value="0" flag="1"/>
			<psa30 value="0" flag="1"/>
		</comp>
		<comp name="--.HNZ" depth="0.0">
			<acc value="0" flag="1"/>
			<vel value="0" flag="1"/>
			<psa03 value="0" flag="1"/>
			<psa10 value="0" flag="1"/>
			<psa30 value="0" flag="1"/>
		</comp>
	</station>
	<station code="LAM2" name="LAM2" netid="HI" source="ITSAK Strong Motion Network" insttype="" lat="38.90203" lon="22.431301" esm:processing="discarded" esm:quality="bad">
		<comp name="--.HNE" depth="0.0">
			<acc value="0" flag="1"/>
			<vel value="0" flag="1"/>
			<psa03 value="0" flag="1"/>
			<psa10 value="0" flag="1"/>
			<psa30 value="0" flag="1"/>
		</comp>
		<comp name="--.HNN" depth="0.0">
			<acc value="0" flag="1"/>
			<vel value="0" flag="1"/>
			<psa03 value="0" flag="1"/>
			<psa10 value="0" flag="1"/>
			<psa30 value="0" flag="1"/>
		</comp>
		<comp name="--.HNZ" depth="0.0">
			<acc value="0" flag="1"/>
			<vel value="0" flag="1"/>
			<psa03 value="0" flag="1"/>
			<psa10 value="0" flag="1"/>
			<psa30 value="0" flag="1"/>
		</comp>
	</station>
	<station code="ARTB" name="ARTB" netid="HL" source="National Observatory of Athens Seismic Network" insttype="" lat="39.15702" lon="20.9785" esm:processing="discarded" esm:quality="good">
		<comp name="00.HNE" depth="0.0">
			<acc value="0" flag="1"/>
			<vel value="0" flag="1"/>
			<psa03 value="0" flag="1"/>
			<psa10 value="0" flag="1"/>
			<psa30 value="0" flag="1"/>
		</comp>
		<comp name="00.HNN" depth="0.0">
			<acc value="0" flag="1"/>
			<vel value="0" flag="1"/>
			<psa03 value="0" flag="1"/>
			<psa10 value="0" flag="1"/>
			<psa30 value="0" flag="1"/>
		</comp>
		<comp name="00.HNZ" depth="0.0">
			<acc value="0" flag="1"/>
			<vel value="0" flag="1"/>
			<psa03 value="0" flag="1"/>
			<psa10 value="0" flag="1"/>
			<psa30 value="0" flag="1"/>
		</comp>
	</station>
	<station code="DLFA" name="DLFA" netid="HL" source="National Observatory of Athens Seismic Network" insttype="" lat="38.47836" lon="22.49583" esm:processing="discarded" esm:quality="bad">
		<comp name="00.HNE" depth="0.0">
			<acc value="0" flag="1"/>
			<vel value="0" flag="1"/>
			<psa03 value="0" flag="1"/>
			<psa10 value="0" flag="1"/>
			<psa30 value="0" flag="1"/>
		</comp>
		<comp name="00.HNN" depth="0.0">
			<acc value="0" flag="1"/>
			<vel value="0" flag="1"/>
			<psa03 value="0" flag="1"/>
			<psa10 value="0" flag="1"/>
			<psa30 value="0" flag="1"/>
		</comp>
		<comp name="00.HNZ" depth="0.0">
			<acc value="0" flag="1"/>
			<vel value="0" flag="1"/>
			<psa03 value="0" flag="1"/>
			<psa10 value="0" flag="1"/>
			<psa30 value="0" flag="1"/>
		</comp>
	</station>
	<station code="KIAA" name="KIAA" netid="HL" source="National Observatory of Athens Seismic Network" insttype="" lat="38.0139" lon="22.7495" esm:processing="automatic (Paolucci et al 2011)" esm:quality="bad">
		<comp name="00.HNE" depth="0.0">
			<acc value="0" flag="1"/>
			<vel value="0" flag="1"/>
			<psa03 value="0" flag="1"/>
			<psa10 value="0" flag="1"/>
			<psa30 value="0" flag="1"/>
		</comp>
		<comp name="00.HNN" depth="0.0">
			<acc value="0" flag="1"/>
			<vel value="0" flag="1"/>
			<psa03 value="0" flag="1"/>
			<psa10 value="0" flag="1"/>
			<psa30 value="0" flag="1"/>
		</comp>
		<comp name="00.HNZ" depth="0.0">
			<acc value="0" flag="1"/>
			<vel value="0" flag="1"/>
			<psa03 value="0" flag="1"/>
			<psa10 value="0" flag="1"/>
			<psa30 value="0" flag="1"/>
		</comp>
	</station>
	<station code="LXRA" name="LXRA" netid="HL" source="National Observatory of Athens Seismic Network" insttype="" lat="38.20006" lon="20.43718" esm:processing="discarded" esm:quality="good">
		<comp name="00.HNE" depth="0.0">
			<acc value="0" flag="1"/>
			<vel value="0" flag="1"/>
			<psa03 value="0" flag="1"/>
			<psa10 value="0" flag="1"/>
			<psa30 value="0" flag="1"/>
		</comp>
		<comp name="00.HNN" depth="0.0">
			<acc value="0" flag="1"/>
			<vel value="0" flag="1"/>
			<psa03 value="0" flag="1"/>
			<psa10 value="0" flag="1"/>
			<psa30 value="0" flag="1"/>
		</comp>
		<comp name="00.HNZ" depth="0.0">
			<acc value="0" flag="1"/>
			<vel value="0" flag="1"/>
			<psa03 value="0" flag="1"/>
			<psa10 value="0" flag="1"/>
			<psa30 value="0" flag="1"/>
		</comp>
	</station>
	<station code="PATC" name="PATC" netid="HL" source="National Observatory of Athens Seismic Network" insttype="" lat="38.26933" lon="21.76001" esm:processing="discarded" esm:quality="bad">
		<comp name="00.HNE" depth="0.0">
			<acc value="0" flag="1"/>
			<vel value="0" flag="1"/>
			<psa03 value="0" flag="1"/>
			<psa10 value="0" flag="1"/>
			<psa30 value="0" flag="1"/>
		</comp>
		<comp name="00.HNN" depth="0.0">
			<acc value="0" flag="1"/>
			<vel value="0" flag="1"/>
			<psa03 value="0" flag="1"/>
			<psa10 value="0" flag="1"/>
			<psa30 value="0" flag="1"/>
		</comp>
		<comp name="00.HNZ" depth="0.0">
			<acc value="0" flag="1"/>
			<vel value="0" flag="1"/>
			<psa03 value="0" flag="1"/>
			<psa10 value="0" flag="1"/>
			<psa30 value="0" flag="1"/>
		</comp>
	</station>
	<station code="PATG" name="PATG" netid="HL" source="National Observatory of Athens Seismic Network" insttype="" lat="38.23865" lon="21.72657" esm:processing="discarded" esm:quality="good">
		<comp name="00.HNE" depth="0.0">
			<acc value="0" flag="1"/>
			<vel value="0" flag="1"/>
			<psa03 value="0" flag="1"/>
			<psa10 value="0" flag="1"/>
			<psa30 value="0" flag="1"/>
		</comp>
		<comp name="00.HNN" depth="0.0">
			<acc value="0" flag="1"/>
			<vel value="0" flag="1"/>
			<psa03 value="0" flag="1"/>
			<psa10 value="0" flag="1"/>
			<psa30 value="0" flag="1"/>
		</comp>
		<comp name="00.HNZ" depth="0.0">
			<acc value="0" flag="1"/>
			<vel value="0" flag="1"/>
			<psa03 value="0" flag="1"/>
			<psa10 value="0" flag="1"/>
			<psa30 value="0" flag="1"/>
		</comp>
	</station>
	<station code="PRGA" name="PRGA" netid="HL" source="National Observatory of Athens Seismic Network" insttype="" lat="39.28557" lon="20.40157" esm:processing="automatic (Paolucci et al 2011)" esm:quality="bad">
		<comp name="00.HNE" depth="0.0">
			<acc value="0" flag="1"/>
			<vel value="0" flag="1"/>
			<psa03 value="0" flag="1"/>
			<psa10 value="0" flag="1"/>
			<psa30 value="0" flag="1"/>
		</comp>
		<comp name="00.HNN" depth="0.0">
			<acc value="0" flag="1"/>
			<vel value="0" flag="1"/>
			<psa03 value="0" flag="1"/>
			<psa10 value="0" flag="1"/>
			<psa30 value="0" flag="1"/>
		</comp>
		<comp name="00.HNZ" depth="0.0">
			<acc value="0" flag="1"/>
			<vel value="0" flag="1"/>
			<psa03 value="0" flag="1"/>
			<psa10 value="0" flag="1"/>
			<psa30 value="0" flag="1"/>
		</comp>
	</station>
	<station code="RIOA" name="RIOA" netid="HL" source="National Observatory of Athens Seismic Network" insttype="" lat="38.29585" lon="21.79118" esm:processing="discarded" esm:quality="bad">
		<comp name="00.HNE" depth="0.0">
			<acc value="0" flag="1"/>
			<vel value="0" flag="1"/>
			<psa03 value="0" flag="1"/>
			<psa10 value="0" flag="1"/>
			<psa30 value="0" flag="1"/>
		</comp>
		<comp name="00.HNN" depth="0.0">
			<acc value="0" flag="1"/>
			<vel value="0" flag="1"/>
			<psa03 value="0" flag="1"/>
			<psa10 value="0" flag="1"/>
			<psa30 value="0" flag="1"/>
		</comp>
		<comp name="00.HNZ" depth="0.0">
			<acc value="0" flag="1"/>
			<vel value="0" flag="1"/>
			<psa03 value="0" flag="1"/>
			<psa10 value="0" flag="1"/>
			<psa30 value="0" flag="1"/>
		</comp>
	</station>
</stationlist>
