<?xml version="1.0" encoding="UTF-8" standalone="yes"?>
<!DOCTYPE earthquake SYSTEM "stationlist.dtd">
<stationlist created="" xmlns="ch.ethz.sed.shakemap.usgs.xml">
  <station code="ACOR" name="ACOR" netid="HA" insttype="30" lat="37.8902" lon="22.8692">
    <comp name="--.HHZ">
      <acc value="0.0104458869" flag="0"/>
      <vel value="0.0028543483" flag="0"/>
      <psa03 value="0.0151996016" flag="0"/>
      <psa10 value="0.0027803478" flag="0"/>
      <psa30 value="0.0002537446" flag="0"/>
    </comp>
    <comp name="--.HHE">
      <acc value="0.0089599610" flag="0"/>
      <vel value="0.0040539893" flag="0"/>
      <psa03 value="0.0126954954" flag="0"/>
      <psa10 value="0.0066041441" flag="0"/>
      <psa30 value="0.0003453892" flag="0"/>
    </comp>
    <comp name="--.HHN">
      <acc value="0.0495796664" flag="0"/>
      <vel value="0.0156599934" flag="0"/>
      <psa03 value="0.0678100066" flag="0"/>
      <psa10 value="0.0200409924" flag="0"/>
      <psa30 value="0.0011405531" flag="0"/>
    </comp>
  </station>
  <station code="ATHU" name="ATHU" netid="HA" insttype="60" lat="37.9665" lon="23.7845">
    <comp name="--.HHE">
      <acc value="0.1425762481" flag="0"/>
      <vel value="0.0267368156" flag="0"/>
      <psa03 value="0.0828354121" flag="0"/>
      <psa10 value="0.0040917540" flag="0"/>
      <psa30 value="0.0003275598" flag="0"/>
    </comp>
    <comp name="--.HHZ">
      <acc value="0.1409253827" flag="0"/>
      <vel value="0.0205563018" flag="0"/>
      <psa03 value="0.0477147378" flag="0"/>
      <psa10 value="0.0054912199" flag="0"/>
      <psa30 value="0.0004142524" flag="0"/>
    </comp>
    <comp name="--.HHN">
      <acc value="0.1553536134" flag="0"/>
      <vel value="0.0319410817" flag="0"/>
      <psa03 value="0.0947761582" flag="0"/>
      <psa10 value="0.0068601596" flag="0"/>
      <psa30 value="0.0005944551" flag="0"/>
    </comp>
  </station>
  <station code="EPID" name="EPID" netid="HA" insttype="30" lat="37.6144" lon="23.1189">
    <comp name="--.HHZ">
      <acc value="0.0535465072" flag="0"/>
      <vel value="0.0126368057" flag="0"/>
      <psa03 value="0.0498712210" flag="0"/>
      <psa10 value="0.0053178584" flag="0"/>
      <psa30 value="0.0003614949" flag="0"/>
    </comp>
    <comp name="--.HHE">
      <acc value="0.0478638240" flag="0"/>
      <vel value="0.0143626382" flag="0"/>
      <psa03 value="0.0648804012" flag="0"/>
      <psa10 value="0.0077421250" flag="0"/>
      <psa30 value="0.0003954939" flag="0"/>
    </comp>
    <comp name="--.HHN">
      <acc value="0.0516214775" flag="0"/>
      <vel value="0.0135413413" flag="0"/>
      <psa03 value="0.0492586807" flag="0"/>
      <psa10 value="0.0064196407" flag="0"/>
      <psa30 value="0.0005516173" flag="0"/>
    </comp>
  </station>
  <station code="KARY" name="KARY" netid="HA" insttype="60" lat="38.0321" lon="24.437">
    <comp name="--.HHE">
      <acc value="0.0439402114" flag="0"/>
      <vel value="0.0084446022" flag="0"/>
      <psa03 value="0.0244263308" flag="0"/>
      <psa10 value="0.0019073567" flag="0"/>
      <psa30 value="0.0001594410" flag="0"/>
    </comp>
    <comp name="--.HHZ">
      <acc value="0.0607894743" flag="0"/>
      <vel value="0.0141314303" flag="0"/>
      <psa03 value="0.0507784706" flag="0"/>
      <psa10 value="0.0065100772" flag="0"/>
      <psa30 value="0.0003615122" flag="0"/>
    </comp>
    <comp name="--.HHN">
      <acc value="0.0571513834" flag="0"/>
      <vel value="0.0123646379" flag="0"/>
      <psa03 value="0.0254472253" flag="0"/>
      <psa10 value="0.0018218228" flag="0"/>
      <psa30 value="0.0001643151" flag="0"/>
    </comp>
  </station>
  <station code="STFN" name="STFN" netid="HA" insttype="1s-100Hz," lat="38.1766" lon="23.544">
    <comp name="--.HHE">
      <acc value="1.6419846735" flag="0"/>
      <vel value="0.4697563549" flag="0"/>
      <psa03 value="1.9510389419" flag="0"/>
      <psa10 value="0.0962711577" flag="0"/>
      <psa30 value="0.0105905474" flag="0"/>
    </comp>
    <comp name="--.HHZ">
      <acc value="0.6764431093" flag="0"/>
      <vel value="0.1586952775" flag="0"/>
      <psa03 value="1.0651932775" flag="0"/>
      <psa10 value="0.0391812325" flag="0"/>
      <psa30 value="0.0028612382" flag="0"/>
    </comp>
    <comp name="--.HHN">
      <acc value="1.6049647574" flag="0"/>
      <vel value="0.4293197208" flag="0"/>
      <psa03 value="1.5668912739" flag="0"/>
      <psa10 value="0.1007357640" flag="0"/>
      <psa30 value="0.0112665642" flag="0"/>
    </comp>
  </station>
  <station code="THAL" name="THAL" netid="HA" insttype="30" lat="38.0357" lon="22.6634">
    <comp name="--.HHE">
      <acc value="0.0400049883" flag="0"/>
      <vel value="0.0115660037" flag="0"/>
      <psa03 value="0.0460833791" flag="0"/>
      <psa10 value="0.0060317544" flag="0"/>
      <psa30 value="0.0003596814" flag="0"/>
    </comp>
    <comp name="--.HHZ">
      <acc value="0.0196853737" flag="0"/>
      <vel value="0.0050583551" flag="0"/>
      <psa03 value="0.0205251436" flag="0"/>
      <psa10 value="0.0044434637" flag="0"/>
      <psa30 value="0.0002320545" flag="0"/>
    </comp>
    <comp name="--.HHN">
      <acc value="0.0346335198" flag="0"/>
      <vel value="0.0133282748" flag="0"/>
      <psa03 value="0.0675609685" flag="0"/>
      <psa10 value="0.0048383068" flag="0"/>
      <psa30 value="0.0003727930" flag="0"/>
    </comp>
  </station>
  <station code="ATH5" name="ATH5" netid="HI" insttype="CMG-5TD,ACCELEROMETER,GURALP" lat="37.9754" lon="23.7371">
    <comp name="--.HNZ">
      <acc value="0.1072325802" flag="0"/>
      <vel value="0.0182995595" flag="0"/>
      <psa03 value="0.0543235772" flag="0"/>
      <psa10 value="0.0066050399" flag="0"/>
      <psa30 value="0.0009384644" flag="0"/>
    </comp>
    <comp name="--.HNN">
      <acc value="0.2456932733" flag="0"/>
      <vel value="0.0532045082" flag="0"/>
      <psa03 value="0.2128968204" flag="0"/>
      <psa10 value="0.0172236913" flag="0"/>
      <psa30 value="0.0011243977" flag="0"/>
    </comp>
    <comp name="--.HNE">
      <acc value="0.2070145319" flag="0"/>
      <vel value="0.0502344237" flag="0"/>
      <psa03 value="0.1652554650" flag="0"/>
      <psa10 value="0.0093528634" flag="0"/>
      <psa30 value="0.0008540457" flag="0"/>
    </comp>
  </station>
  <station code="ATH" name="ATH" netid="HL" insttype="DR24" lat="37.9738" lon="23.7177">
    <comp name="--.HHZ">
      <acc value="0.2937824314" flag="0"/>
      <vel value="0.0437795470" flag="0"/>
      <psa03 value="0.1113280734" flag="0"/>
      <psa10 value="0.0093945611" flag="0"/>
      <psa30 value="0.0011469032" flag="0"/>
    </comp>
    <comp name="--.HHN">
      <acc value="0.2829598147" flag="0"/>
      <vel value="0.0635901895" flag="0"/>
      <psa03 value="0.2015425794" flag="0"/>
      <psa10 value="0.0141209474" flag="0"/>
      <psa30 value="0.0010314743" flag="0"/>
    </comp>
    <comp name="--.HHE">
      <acc value="0.2320827873" flag="0"/>
      <vel value="0.0556999827" flag="0"/>
      <psa03 value="0.2505251119" flag="0"/>
      <psa10 value="0.0164462288" flag="0"/>
      <psa30 value="0.0011313450" flag="0"/>
    </comp>
  </station>
  <station code="ATHP" name="ATHP" netid="HL" insttype="CMG-5" lat="38.0008" lon="23.7735">
    <comp name="00.HNN">
      <acc value="0.2143882191" flag="0"/>
      <vel value="0.0307261177" flag="0"/>
      <psa03 value="0.1236860185" flag="0"/>
      <psa10 value="0.0080255055" flag="0"/>
      <psa30 value="0.0006067039" flag="0"/>
    </comp>
    <comp name="00.HNE">
      <acc value="0.2921599285" flag="0"/>
      <vel value="0.0402084077" flag="0"/>
      <psa03 value="0.1598363182" flag="0"/>
      <psa10 value="0.0075630308" flag="0"/>
      <psa30 value="0.0007666805" flag="0"/>
    </comp>
    <comp name="00.HNZ">
      <acc value="0.2537743866" flag="0"/>
      <vel value="0.0341600188" flag="0"/>
      <psa03 value="0.1128317118" flag="0"/>
      <psa10 value="0.0096076174" flag="0"/>
      <psa30 value="0.0007687816" flag="0"/>
    </comp>
  </station>
  <station code="DION" name="DION" netid="HL" insttype="30" lat="38.0779" lon="23.9331">
    <comp name="--.HHE">
      <acc value="0.1141855392" flag="0"/>
      <vel value="0.0245795473" flag="0"/>
      <psa03 value="0.1129481467" flag="0"/>
      <psa10 value="0.0054080329" flag="0"/>
      <psa30 value="0.0006325364" flag="0"/>
    </comp>
    <comp name="--.HHN">
      <acc value="0.1094499625" flag="0"/>
      <vel value="0.0230461359" flag="0"/>
      <psa03 value="0.0634485092" flag="0"/>
      <psa10 value="0.0046932786" flag="0"/>
      <psa30 value="0.0004181954" flag="0"/>
    </comp>
    <comp name="--.HHZ">
      <acc value="0.1563859310" flag="0"/>
      <vel value="0.0221331617" flag="0"/>
      <psa03 value="0.0484827300" flag="0"/>
      <psa10 value="0.0037486252" flag="0"/>
      <psa30 value="0.0002956848" flag="0"/>
    </comp>
  </station>
  <station code="KYMI" name="KYMI" netid="HL" insttype="60" lat="38.6331" lon="24.1001">
    <comp name="--.HHE">
      <acc value="0.0636069243" flag="0"/>
      <vel value="0.0179557465" flag="0"/>
      <psa03 value="0.0713014236" flag="0"/>
      <psa10 value="0.0137544456" flag="0"/>
      <psa30 value="0.0005982401" flag="0"/>
    </comp>
    <comp name="--.HHN">
      <acc value="0.0770888985" flag="0"/>
      <vel value="0.0256870033" flag="0"/>
      <psa03 value="0.0974540536" flag="0"/>
      <psa10 value="0.0086650241" flag="0"/>
      <psa30 value="0.0008680166" flag="0"/>
    </comp>
    <comp name="--.HHZ">
      <acc value="0.0230867572" flag="0"/>
      <vel value="0.0089662752" flag="0"/>
      <psa03 value="0.0440867006" flag="0"/>
      <psa10 value="0.0081954690" flag="0"/>
      <psa30 value="0.0005263092" flag="0"/>
    </comp>
  </station>
  <station code="LKR" name="LKR" netid="HL" insttype="30" lat="38.6496" lon="22.9989">
    <comp name="--.HHZ">
      <acc value="0.0429973182" flag="0"/>
      <vel value="0.0106230205" flag="0"/>
      <psa03 value="0.0428158967" flag="0"/>
      <psa10 value="0.0044080909" flag="0"/>
      <psa30 value="0.0003058435" flag="0"/>
    </comp>
    <comp name="--.HHN">
      <acc value="0.0557859711" flag="0"/>
      <vel value="0.0145033283" flag="0"/>
      <psa03 value="0.0687362982" flag="0"/>
      <psa10 value="0.0083203528" flag="0"/>
      <psa30 value="0.0005133919" flag="0"/>
    </comp>
    <comp name="--.HHE">
      <acc value="0.0782236247" flag="0"/>
      <vel value="0.0183049481" flag="0"/>
      <psa03 value="0.0722641964" flag="0"/>
      <psa10 value="0.0075947739" flag="0"/>
      <psa30 value="0.0004038296" flag="0"/>
    </comp>
  </station>
  <station code="NOAC" name="NOAC" netid="HL" insttype="CMG-5" lat="37.9738" lon="23.7177">
    <comp name="00.HNZ">
      <acc value="0.2787533140" flag="0"/>
      <vel value="0.0452404492" flag="0"/>
      <psa03 value="0.1199477183" flag="0"/>
      <psa10 value="0.0095016469" flag="0"/>
      <psa30 value="0.0011765879" flag="0"/>
    </comp>
    <comp name="00.HNE">
      <acc value="0.2275228278" flag="0"/>
      <vel value="0.0590329225" flag="0"/>
      <psa03 value="0.2540253465" flag="0"/>
      <psa10 value="0.0163865277" flag="0"/>
      <psa30 value="0.0011677229" flag="0"/>
    </comp>
    <comp name="00.HNN">
      <acc value="0.2425651440" flag="0"/>
      <vel value="0.0559983030" flag="0"/>
      <psa03 value="0.1939417890" flag="0"/>
      <psa10 value="0.0138322224" flag="0"/>
      <psa30 value="0.0010058664" flag="0"/>
    </comp>
  </station>
  <station code="PTL" name="PTL" netid="HL" insttype="120" lat="38.0473" lon="23.8638">
    <comp name="--.HHE">
      <acc value="0.1210435265" flag="0"/>
      <vel value="0.0142898955" flag="0"/>
      <psa03 value="0.0575819486" flag="0"/>
      <psa10 value="0.0034953038" flag="0"/>
      <psa30 value="0.0003606400" flag="0"/>
    </comp>
    <comp name="--.HHN">
      <acc value="0.1261311664" flag="0"/>
      <vel value="0.0156836232" flag="0"/>
      <psa03 value="0.0707481986" flag="0"/>
      <psa10 value="0.0054317479" flag="0"/>
      <psa30 value="0.0004147720" flag="0"/>
    </comp>
    <comp name="--.HHZ">
      <acc value="0.1292632866" flag="0"/>
      <vel value="0.0145829026" flag="0"/>
      <psa03 value="0.0399641992" flag="0"/>
      <psa10 value="0.0057613044" flag="0"/>
      <psa30 value="0.0003594752" flag="0"/>
    </comp>
  </station>
  <station code="VLY" name="VLY" netid="HL" insttype="120P," lat="37.8524" lon="23.7942">
    <comp name="--.HHE">
      <acc value="0.1538001182" flag="0"/>
      <vel value="0.0483119204" flag="0"/>
      <psa03 value="0.3008760086" flag="0"/>
      <psa10 value="0.0109590783" flag="0"/>
      <psa30 value="0.0010144163" flag="0"/>
    </comp>
    <comp name="--.HHZ">
      <acc value="0.1032450859" flag="0"/>
      <vel value="0.0345179751" flag="0"/>
      <psa03 value="0.1882631297" flag="0"/>
      <psa10 value="0.0072904860" flag="0"/>
      <psa30 value="0.0007455782" flag="0"/>
    </comp>
    <comp name="--.HHN">
      <acc value="0.1181078856" flag="0"/>
      <vel value="0.0278163155" flag="0"/>
      <psa03 value="0.1214665465" flag="0"/>
      <psa10 value="0.0071798348" flag="0"/>
      <psa30 value="0.0008190994" flag="0"/>
    </comp>
  </station>
  <station code="YDRA" name="YDRA" netid="HL" insttype="CMG-5" lat="37.3492" lon="23.4653">
    <comp name="00.HNE">
      <acc value="0.0322761861" flag="0"/>
      <vel value="0.0119727261" flag="0"/>
      <psa03 value="0.1161560469" flag="0"/>
      <psa10 value="0.0079258434" flag="0"/>
      <psa30 value="0.0004538022" flag="0"/>
    </comp>
    <comp name="00.HNZ">
      <acc value="0.0234293211" flag="0"/>
      <vel value="0.0072108521" flag="0"/>
      <psa03 value="0.0473783698" flag="0"/>
      <psa10 value="0.0036288639" flag="0"/>
      <psa30 value="0.0003169364" flag="0"/>
    </comp>
    <comp name="00.HNN">
      <acc value="0.0377130125" flag="0"/>
      <vel value="0.0107057748" flag="0"/>
      <psa03 value="0.0809376516" flag="0"/>
      <psa10 value="0.0038554869" flag="0"/>
      <psa30 value="0.0003050049" flag="0"/>
    </comp>
  </station>
  <station code="LTK" name="LTK" netid="HP" insttype="120s" lat="38.0228" lon="22.9673">
    <comp name="--.HHZ">
      <acc value="0.0400635042" flag="0"/>
      <vel value="0.0077281373" flag="0"/>
      <psa03 value="0.0400882786" flag="0"/>
      <psa10 value="0.0057138271" flag="0"/>
      <psa30 value="0.0003521870" flag="0"/>
    </comp>
    <comp name="--.HHE">
      <acc value="0.0554417535" flag="0"/>
      <vel value="0.0117466767" flag="0"/>
      <psa03 value="0.0478474176" flag="0"/>
      <psa10 value="0.0081401997" flag="0"/>
      <psa30 value="0.0004862612" flag="0"/>
    </comp>
    <comp name="--.HHN">
      <acc value="0.0438967928" flag="0"/>
      <vel value="0.0117149695" flag="0"/>
      <psa03 value="0.0455684147" flag="0"/>
      <psa10 value="0.0054979084" flag="0"/>
      <psa30 value="0.0003839500" flag="0"/>
    </comp>
  </station>
</stationlist>
