<stationlist created="1778136201">
	<station code="KTHA" name="KTHA" netid="GE" source="GEOFON" insttype="" lat="36.2566" lon="23.0621">
		<comp name="--.HNE" depth="0.0">
			<acc value="0.0018965940774685" flag="0"/>
			<vel value="0.00203120730880882" flag="0"/>
			<psa03 value="0.00420576742211754" flag="0"/>
			<psa10 value="0.00295969696779868" flag="0"/>
			<psa30 value="0.00105233669966175" flag="0"/>
		</comp>
		<comp name="--.HNN" depth="0.0">
			<acc value="0.0020585398441999" flag="0"/>
			<vel value="0.00567288071829491" flag="0"/>
			<psa03 value="0.00357937652946174" flag="0"/>
			<psa10 value="0.00316506369617654" flag="0"/>
			<psa30 value="0.00259817993832304" flag="0"/>
		</comp>
		<comp name="--.HNZ" depth="0.0">
			<acc value="0.0018595392983702" flag="0"/>
			<vel value="0.00216409132023217" flag="0"/>
			<psa03 value="0.00286350122356939" flag="0"/>
			<psa10 value="0.00299191135656383" flag="0"/>
			<psa30 value="0.00108634077669164" flag="0"/>
		</comp>
	</station>
	<station code="LTRS" name="LTRS" netid="HA" source="Hellenic Seismological Network, University of Athens, Seismological Laboratory (HA)" insttype="" lat="37.97528" lon="22.9765">
		<comp name="--.HNE" depth="0.0">
			<acc value="0.0347023514622947" flag="0"/>
			<vel value="0.0281280699958736" flag="0"/>
			<psa03 value="0.121519833175226" flag="0"/>
			<psa10 value="0.0551671407603291" flag="0"/>
			<psa30 value="0.00188319947656306" flag="0"/>
		</comp>
		<comp name="--.HNN" depth="0.0">
			<acc value="0.0482979226967091" flag="0"/>
			<vel value="0.0246209971808566" flag="0"/>
			<psa03 value="0.15248144015507" flag="0"/>
			<psa10 value="0.0259728509419068" flag="0"/>
			<psa30 value="0.00153286799874199" flag="0"/>
		</comp>
		<comp name="--.HNZ" depth="0.0">
			<acc value="0.0464953873458356" flag="0"/>
			<vel value="0.0161924913251549" flag="0"/>
			<psa03 value="0.0782988615819756" flag="0"/>
			<psa10 value="0.0215151848965283" flag="0"/>
			<psa30 value="0.000853233880210442" flag="0"/>
		</comp>
	</station>
	<station code="XLKS" name="XLKS" netid="HA" source="Hellenic Seismological Network, University of Athens, Seismological Laboratory (HA)" insttype="" lat="38.0772" lon="22.6361">
		<comp name="--.HNE" depth="0.0">
			<acc value="0.020873454935872" flag="0"/>
			<vel value="0.00985117757404474" flag="0"/>
			<psa03 value="0.0403574703696811" flag="0"/>
			<psa10 value="0.0105139711332277" flag="0"/>
			<psa30 value="0.000722586636885089" flag="0"/>
		</comp>
		<comp name="--.HNN" depth="0.0">
			<acc value="0.0268106976024206" flag="0"/>
			<vel value="0.0107931991509622" flag="0"/>
			<psa03 value="0.0535564213220713" flag="0"/>
			<psa10 value="0.0139206427451429" flag="0"/>
			<psa30 value="0.000944507981711717" flag="0"/>
		</comp>
		<comp name="--.HNZ" depth="0.0">
			<acc value="0.0150640946481832" flag="0"/>
			<vel value="0.00494621911725326" flag="0"/>
			<psa03 value="0.0326170686247201" flag="0"/>
			<psa10 value="0.00496101586983397" flag="0"/>
			<psa30 value="0.000644287775303113" flag="0"/>
		</comp>
	</station>
	<station code="ARS1" name="ARS1" netid="HI" source="ITSAK Strong Motion Network" insttype="" lat="37.6349" lon="22.7293">
		<comp name="--.HNE" depth="0.0">
			<acc value="0.0112873193002882" flag="0"/>
			<vel value="0.00879754038853786" flag="0"/>
			<psa03 value="0.0309616069798441" flag="0"/>
			<psa10 value="0.00571805400581513" flag="0"/>
			<psa30 value="0.000494401383131903" flag="0"/>
		</comp>
		<comp name="--.HNN" depth="0.0">
			<acc value="0.0104334413739545" flag="0"/>
			<vel value="0.00609699359960047" flag="0"/>
			<psa03 value="0.0494401383131903" flag="0"/>
			<psa10 value="0.00683750401540429" flag="0"/>
			<psa30 value="0.000404916969895359" flag="0"/>
		</comp>
		<comp name="--.HNZ" depth="0.0">
			<acc value="0.00753248533668927" flag="0"/>
			<vel value="0.00317632071928957" flag="0"/>
			<psa03 value="0.0255925421856514" flag="0"/>
			<psa10 value="0.0026174190871689" flag="0"/>
			<psa30 value="0.000317669666989729" flag="0"/>
		</comp>
	</station>
	<station code="ATH5" name="ATH5" netid="HI" source="ITSAK Strong Motion Network" insttype="" lat="37.975421" lon="23.737098">
		<comp name="--.HNE" depth="0.0">
			<acc value="0.203472996033976" flag="0"/>
			<vel value="0.0510178587237362" flag="0"/>
			<psa03 value="0.169438736463395" flag="0"/>
			<psa10 value="0.00938646752644723" flag="0"/>
			<psa30 value="0.000900213197159627" flag="0"/>
		</comp>
		<comp name="--.HNN" depth="0.0">
			<acc value="0.238727334491783" flag="0"/>
			<vel value="0.0547891782252872" flag="0"/>
			<psa03 value="0.216283826792726" flag="0"/>
			<psa10 value="0.0173071803640799" flag="0"/>
			<psa30 value="0.00118074683265619" flag="0"/>
		</comp>
		<comp name="--.HNZ" depth="0.0">
			<acc value="0.103816343657128" flag="0"/>
			<vel value="0.0187540876710863" flag="0"/>
			<psa03 value="0.0548539453140012" flag="0"/>
			<psa10 value="0.0066120032940482" flag="0"/>
			<psa30 value="0.000965984240888487" flag="0"/>
		</comp>
	</station>
	<station code="SKO1" name="SKO1" netid="HI" source="ITSAK Strong Motion Network" insttype="" lat="39.123383" lon="23.728705">
		<comp name="--.HNE" depth="0.0">
			<acc value="0.00865899004402885" flag="0"/>
			<vel value="0.0040601688804784" flag="0"/>
			<psa03 value="0.0212525481436791" flag="0"/>
			<psa10 value="0.00323754607089814" flag="0"/>
			<psa30 value="0.000194181176723299" flag="0"/>
		</comp>
		<comp name="--.HNN" depth="0.0">
			<acc value="0.0111861577837211" flag="0"/>
			<vel value="0.00517655916287753" flag="0"/>
			<psa03 value="0.0348094367490154" flag="0"/>
			<psa10 value="0.00299996495375512" flag="0"/>
			<psa30 value="0.000248766668797591" flag="0"/>
		</comp>
		<comp name="--.HNZ" depth="0.0">
			<acc value="0.00777160891101553" flag="0"/>
			<vel value="0.00339524189772739" flag="0"/>
			<psa03 value="0.0227737831687003" flag="0"/>
			<psa10 value="0.00248856153210827" flag="0"/>
			<psa30 value="0.000257267688055063" flag="0"/>
		</comp>
	</station>
	<station code="SKY1" name="SKY1" netid="HI" source="ITSAK Strong Motion Network" insttype="" lat="38.904483" lon="24.564572">
		<comp name="--.HNE" depth="0.0">
			<acc value="0.0508779848272108" flag="0"/>
			<vel value="0.0150793813840859" flag="0"/>
			<psa03 value="0.0969116195351766" flag="0"/>
			<psa10 value="0.00688985239714767" flag="0"/>
			<psa30 value="0.000696636157046491" flag="0"/>
		</comp>
		<comp name="--.HNN" depth="0.0">
			<acc value="0.0414399789786511" flag="0"/>
			<vel value="0.0172042491890664" flag="0"/>
			<psa03 value="0.134002908821724" flag="0"/>
			<psa10 value="0.00852875942557496" flag="0"/>
			<psa30 value="0.000464871526763843" flag="0"/>
		</comp>
		<comp name="--.HNZ" depth="0.0">
			<acc value="0.0310302857374031" flag="0"/>
			<vel value="0.010398840612745" flag="0"/>
			<psa03 value="0.0485452941808249" flag="0"/>
			<psa10 value="0.00520665058416828" flag="0"/>
			<psa30 value="0.000332434595173759" flag="0"/>
		</comp>
	</station>
	<station code="VOL2" name="VOL2" netid="HI" source="ITSAK Strong Motion Network" insttype="" lat="39.366" lon="22.9506">
		<comp name="--.HNE" depth="0.0">
			<acc value="0.00799220364270254" flag="0"/>
			<vel value="0.00374377907072741" flag="0"/>
			<psa03 value="0.0284560434092208" flag="0"/>
			<psa10 value="0.00218655163743494" flag="0"/>
			<psa30 value="0.000188812111929107" flag="0"/>
		</comp>
		<comp name="--.HNN" depth="0.0">
			<acc value="0.00728410030478431" flag="0"/>
			<vel value="0.00415719274372094" flag="0"/>
			<psa03 value="0.0178073982340722" flag="0"/>
			<psa10 value="0.00374492269394935" flag="0"/>
			<psa30 value="0.000182100780936366" flag="0"/>
		</comp>
		<comp name="--.HNZ" depth="0.0">
			<acc value="0.00454733650672242" flag="0"/>
			<vel value="0.00158749543338147" flag="0"/>
			<psa03 value="0.00519009596771952" flag="0"/>
			<psa10 value="0.000801332920533247" flag="0"/>
			<psa30 value="0.000139595684649008" flag="0"/>
		</comp>
	</station>
	<station code="KYMI" name="KYMI" netid="HL" source="National Observatory of Athens Seismic Network" insttype="" lat="38.633147" lon="24.100138">
		<comp name="--.HNE" depth="1.0">
			<acc value="0.0624711289383806" flag="0"/>
			<vel value="0.0179307800380157" flag="0"/>
			<psa03 value="0.0698425845311222" flag="0"/>
			<psa10 value="0.0137595708013171" flag="0"/>
			<psa30 value="0.000625048626457256" flag="0"/>
		</comp>
		<comp name="--.HNN" depth="1.0">
			<acc value="0.0754163269462723" flag="0"/>
			<vel value="0.02573258854603" flag="0"/>
			<psa03 value="0.0952561578903006" flag="0"/>
			<psa10 value="0.00862137579327478" flag="0"/>
			<psa30 value="0.000845627705085336" flag="0"/>
		</comp>
		<comp name="--.HNZ" depth="1.0">
			<acc value="0.0225008221878191" flag="0"/>
			<vel value="0.00891001976717661" flag="0"/>
			<psa03 value="0.0450106598579814" flag="0"/>
			<psa10 value="0.00819856194073212" flag="0"/>
			<psa30 value="0.000531984836691251" flag="0"/>
		</comp>
	</station>
	<station code="NOAC" name="NOAC" netid="HL" source="National Observatory of Athens Seismic Network" insttype="" lat="37.97384" lon="23.71767">
		<comp name="00.HNE" depth="0.0">
			<acc value="0.227179835279191" flag="0"/>
			<vel value="0.0594178495619057" flag="0"/>
			<psa03 value="0.254583155657966" flag="0"/>
			<psa10 value="0.0164172578744425" flag="0"/>
			<psa30 value="0.00117179839133254" flag="0"/>
		</comp>
		<comp name="00.HNN" depth="0.0">
			<acc value="0.242322412754862" flag="0"/>
			<vel value="0.0564925727100816" flag="0"/>
			<psa03 value="0.194404887756391" flag="0"/>
			<psa10 value="0.0138521871690169" flag="0"/>
			<psa30 value="0.00102056973296278" flag="0"/>
		</comp>
		<comp name="00.HNZ" depth="0.0">
			<acc value="0.275255987439543" flag="0"/>
			<vel value="0.0458870621192771" flag="0"/>
			<psa03 value="0.120759215662715" flag="0"/>
			<psa10 value="0.00949519108852963" flag="0"/>
			<psa30 value="0.00117448292372963" flag="0"/>
		</comp>
	</station>
	<station code="TNSA" name="TNSA" netid="HL" source="National Observatory of Athens Seismic Network" insttype="" lat="37.53942" lon="25.1631">
		<comp name="00.HNE" depth="0.0">
			<acc value="0.0136687748181325" flag="0"/>
			<vel value="0.00371902963702222" flag="0"/>
			<psa03 value="0.023713369507684" flag="0"/>
			<psa10 value="0.000837574107894047" flag="0"/>
			<psa30 value="0.000119014269604603" flag="0"/>
		</comp>
		<comp name="00.HNN" depth="0.0">
			<acc value="0.0183433388651816" flag="0"/>
			<vel value="0.00499675636620738" flag="0"/>
			<psa03 value="0.0183443047134914" flag="0"/>
			<psa10 value="0.00108320882222836" flag="0"/>
			<psa30 value="9.57483221631015e-05" flag="0"/>
		</comp>
		<comp name="00.HNZ" depth="0.0">
			<acc value="0.0108524800049195" flag="0"/>
			<vel value="0.00263521037407243" flag="0"/>
			<psa03 value="0.0112302938611862" flag="0"/>
			<psa10 value="0.000708716552833425" flag="0"/>
			<psa30 value="0.000116777159273689" flag="0"/>
		</comp>
	</station>
	<station code="YDRA" name="YDRA" netid="HL" source="National Observatory of Athens Seismic Network" insttype="" lat="37.34923" lon="23.46525">
		<comp name="00.HNE" depth="0.0">
			<acc value="0.0319909026598853" flag="0"/>
			<vel value="0.0119761123300074" flag="0"/>
			<psa03 value="0.116061283967797" flag="0"/>
			<psa10 value="0.00792473963622829" flag="0"/>
			<psa30 value="0.000451896286844545" flag="0"/>
		</comp>
		<comp name="00.HNN" depth="0.0">
			<acc value="0.0373503867067874" flag="0"/>
			<vel value="0.0107340670646707" flag="0"/>
			<psa03 value="0.0810728783923084" flag="0"/>
			<psa10 value="0.00385767305462739" flag="0"/>
			<psa30 value="0.000306931537401344" flag="0"/>
		</comp>
		<comp name="00.HNZ" depth="0.0">
			<acc value="0.0235589495069717" flag="0"/>
			<vel value="0.00724262354435935" flag="0"/>
			<psa03 value="0.0471582857756584" flag="0"/>
			<psa10 value="0.00362411873608001" flag="0"/>
			<psa30 value="0.000318564511122095" flag="0"/>
		</comp>
	</station>
	<station code="ANX" name="ANX" netid="HP" source="University of Patras, Seismological Laboratory (PSLNET)" insttype="" lat="38.5933" lon="21.9209">
		<comp name="--.HNE" depth="0.0">
			<acc value="0.0028954426914352" flag="0"/>
			<vel value="0.00286476875407598" flag="0"/>
			<psa03 value="0.00953009000969188" flag="0"/>
			<psa10 value="0.00502544464736428" flag="0"/>
			<psa30 value="0.00021073579317206" flag="0"/>
		</comp>
		<comp name="--.HNN" depth="0.0">
			<acc value="0.00284525427116489" flag="0"/>
			<vel value="0.00247562159456029" flag="0"/>
			<psa03 value="0.00881421470379954" flag="0"/>
			<psa10 value="0.00391807503356206" flag="0"/>
			<psa30 value="0.000273822304503823" flag="0"/>
		</comp>
		<comp name="--.HNZ" depth="0.0">
			<acc value="0.00183500423545863" flag="0"/>
			<vel value="0.00119687760287856" flag="0"/>
			<psa03 value="0.00510061155448298" flag="0"/>
			<psa10 value="0.00249258833070392" flag="0"/>
			<psa30 value="0.000103354497288208" flag="0"/>
		</comp>
	</station>
	<station code="LTK" name="LTK" netid="HP" source="University of Patras, Seismological Laboratory (PSLNET)" insttype="" lat="38.0228" lon="22.9673">
		<comp name="--.HNE" depth="0.0">
			<acc value="0.0503611120156272" flag="0"/>
			<vel value="0.0112098761882672" flag="0"/>
			<psa03 value="0.0458160195771103" flag="0"/>
			<psa10 value="0.00778380168538074" flag="0"/>
			<psa30 value="0.000474714812219863" flag="0"/>
		</comp>
		<comp name="--.HNN" depth="0.0">
			<acc value="0.0402632199848345" flag="0"/>
			<vel value="0.0112562453465949" flag="0"/>
			<psa03 value="0.044115815725616" flag="0"/>
			<psa10 value="0.00533148134063326" flag="0"/>
			<psa30 value="0.000371807736997838" flag="0"/>
		</comp>
		<comp name="--.HNZ" depth="0.0">
			<acc value="0.040993365953397" flag="0"/>
			<vel value="0.0075835140395385" flag="0"/>
			<psa03 value="0.0373150003196386" flag="0"/>
			<psa10 value="0.00539188331956793" flag="0"/>
			<psa30 value="0.000323933575916287" flag="0"/>
		</comp>
	</station>
	<station code="PDO" name="PDO" netid="HP" source="University of Patras, Seismological Laboratory (PSLNET)" insttype="" lat="38.5986" lon="21.1833">
		<comp name="--.HNE" depth="0.0">
			<acc value="0.000831823337215956" flag="0"/>
			<vel value="0.000513961251753574" flag="0"/>
			<psa03 value="0.00255449555742756" flag="0"/>
			<psa10 value="0.000695071279436458" flag="0"/>
			<psa30 value="2.78755445346726e-05" flag="0"/>
		</comp>
		<comp name="--.HNN" depth="0.0">
			<acc value="0.000958413730639067" flag="0"/>
			<vel value="0.000535764959014474" flag="0"/>
			<psa03 value="0.00332975638731023" flag="0"/>
			<psa10 value="0.000574077717331115" flag="0"/>
			<psa30 value="2.86319715973898e-05" flag="0"/>
		</comp>
		<comp name="--.HNZ" depth="0.0">
			<acc value="0.00063764252940777" flag="0"/>
			<vel value="0.000261809600147362" flag="0"/>
			<psa03 value="0.00182548486170605" flag="0"/>
			<psa10 value="0.000263209135532399" flag="0"/>
			<psa30 value="1.22037462638233e-05" flag="0"/>
		</comp>
	</station>
	<station code="SERG" name="SERG" netid="HP" source="University of Patras, Seismological Laboratory (PSLNET)" insttype="" lat="38.4133" lon="22.0566">
		<comp name="--.HNE" depth="0.0">
			<acc value="0.00287591243994704" flag="0"/>
			<vel value="0.00159066781889659" flag="0"/>
			<psa03 value="0.00778514395157929" flag="0"/>
			<psa10 value="0.00140535270987992" flag="0"/>
			<psa30 value="0.000117224581339872" flag="0"/>
		</comp>
		<comp name="--.HNN" depth="0.0">
			<acc value="0.003296176294367" flag="0"/>
			<vel value="0.001750879285501" flag="0"/>
			<psa03 value="0.00814308160452546" flag="0"/>
			<psa10 value="0.00187246134697467" flag="0"/>
			<psa30 value="0.00014988639217121" flag="0"/>
		</comp>
		<comp name="--.HNZ" depth="0.0">
			<acc value="0.00186602609209471" flag="0"/>
			<vel value="0.00106635756585684" flag="0"/>
			<psa03 value="0.00536906479419261" flag="0"/>
			<psa10 value="0.00165098742421423" flag="0"/>
			<psa30 value="0.000132436931590084" flag="0"/>
		</comp>
	</station>
</stationlist>
