<stationlist xmlns:esm="https://esm-db.eu/esmws/shakemap/1/" created="1780710934">
	<station code="AGR3" name="AGR3" netid="HI" source="ITSAK Strong Motion Network" insttype="" lat="38.5893" lon="21.4162" esm:processing="automatic (Paolucci et al 2011)" esm:quality="best">
		<comp name="--.HNE" depth="0.0">
			<acc value="0.0291899972415212" flag="0"/>
			<vel value="0.010722210825348" flag="0"/>
			<psa03 value="0.0428899089543088" flag="0"/>
			<psa10 value="0.0128344433438833" flag="0"/>
			<psa30 value="0.00113744097488231" flag="0"/>
		</comp>
		<comp name="--.HNN" depth="0.0">
			<acc value="0.0173660547933902" flag="0"/>
			<vel value="0.00886267111357949" flag="0"/>
			<psa03 value="0.0582672349183526" flag="0"/>
			<psa10 value="0.00618357416269087" flag="0"/>
			<psa30 value="0.00115103291694844" flag="0"/>
		</comp>
		<comp name="--.HNZ" depth="0.0">
			<acc value="0.016837358902413" flag="0"/>
			<vel value="0.00580696138979386" flag="0"/>
			<psa03 value="0.0281687228104746" flag="0"/>
			<psa10 value="0.00667531798830596" flag="0"/>
			<psa30 value="0.000451089257449475" flag="0"/>
		</comp>
	</station>
	<station code="AIA1" name="AIA1" netid="HI" source="ITSAK Strong Motion Network" insttype="" lat="40.1641" lon="21.8202" esm:processing="manual (Paolucci et al 2011)" esm:quality="good">
		<comp name="--.HNE" depth="0.0">
			<acc value="0.00557220299048306" flag="0"/>
			<vel value="0.00323705509730464" flag="0"/>
			<psa03 value="0.0218817594550071" flag="0"/>
			<psa10 value="0.00149232616397191" flag="0"/>
			<psa30 value="0.000133676615836415" flag="0"/>
		</comp>
		<comp name="--.HNN" depth="0.0">
			<acc value="0.00606831438491472" flag="0"/>
			<vel value="0.00280559208962355" flag="0"/>
			<psa03 value="0.0129728099058223" flag="0"/>
			<psa10 value="0.00151241976069907" flag="0"/>
			<psa30 value="0.000138460591605498" flag="0"/>
		</comp>
		<comp name="--.HNZ" depth="0.0">
			<acc value="0.00774688607028962" flag="0"/>
			<vel value="0.00244844319687689" flag="0"/>
			<psa03 value="0.0111847578623998" flag="0"/>
			<psa10 value="0.00175569286853605" flag="0"/>
			<psa30 value="0.00010765083576663" flag="0"/>
		</comp>
	</station>
	<station code="AIG2" name="AIG2" netid="HI" source="ITSAK Strong Motion Network" insttype="" lat="38.2417" lon="22.0726" esm:processing="automatic (Paolucci et al 2011)" esm:quality="best">
		<comp name="--.HNE" depth="0.0">
			<acc value="0.0273532181426256" flag="0"/>
			<vel value="0.00896086894362919" flag="0"/>
			<psa03 value="0.0392164103947245" flag="0"/>
			<psa10 value="0.00773614795058468" flag="0"/>
			<psa30 value="0.000451173690126058" flag="0"/>
		</comp>
		<comp name="--.HNN" depth="0.0">
			<acc value="0.0275478766816801" flag="0"/>
			<vel value="0.00890572262834754" flag="0"/>
			<psa03 value="0.037472638628403" flag="0"/>
			<psa10 value="0.00610570681686136" flag="0"/>
			<psa30 value="0.000352802616233527" flag="0"/>
		</comp>
		<comp name="--.HNZ" depth="0.0">
			<acc value="0.0163911497469062" flag="0"/>
			<vel value="0.00441346527952635" flag="0"/>
			<psa03 value="0.0140919843060504" flag="0"/>
			<psa10 value="0.00569680082259605" flag="0"/>
			<psa30 value="0.000198345912880797" flag="0"/>
		</comp>
	</station>
	<station code="AKR1" name="AKR1" netid="HI" source="ITSAK Strong Motion Network" insttype="" lat="38.153583" lon="22.31326" esm:processing="automatic (Paolucci et al 2011)" esm:quality="best">
		<comp name="--.HNE" depth="0.0">
			<acc value="0.0318767346184856" flag="0"/>
			<vel value="0.0122039761439081" flag="0"/>
			<psa03 value="0.0612718870868127" flag="0"/>
			<psa10 value="0.00796101237799942" flag="0"/>
			<psa30 value="0.000719580585348927" flag="0"/>
		</comp>
		<comp name="--.HNN" depth="0.0">
			<acc value="0.0511327742735862" flag="0"/>
			<vel value="0.0124522002199432" flag="0"/>
			<psa03 value="0.0718412018353766" flag="0"/>
			<psa10 value="0.0129631631209369" flag="0"/>
			<psa30 value="0.00056734987581153" flag="0"/>
		</comp>
		<comp name="--.HNZ" depth="0.0">
			<acc value="0.0172040615775393" flag="0"/>
			<vel value="0.00536516584730665" flag="0"/>
			<psa03 value="0.019895437766777" flag="0"/>
			<psa10 value="0.00649118735305504" flag="0"/>
			<psa30 value="0.000371654854685135" flag="0"/>
		</comp>
	</station>
	<station code="AOL1" name="AOL1" netid="HI" source="ITSAK Strong Motion Network" insttype="" lat="37.642378" lon="21.624555" esm:processing="automatic (Paolucci et al 2011)" esm:quality="best">
		<comp name="--.HNE" depth="0.0">
			<acc value="0.0149812800104059" flag="0"/>
			<vel value="0.00577029506903584" flag="0"/>
			<psa03 value="0.0298052452845569" flag="0"/>
			<psa10 value="0.00727590855573351" flag="0"/>
			<psa30 value="0.00056805908946012" flag="0"/>
		</comp>
		<comp name="--.HNN" depth="0.0">
			<acc value="0.0124975447180467" flag="0"/>
			<vel value="0.00517745773721984" flag="0"/>
			<psa03 value="0.0344812998418891" flag="0"/>
			<psa10 value="0.00707533026840636" flag="0"/>
			<psa30 value="0.000721577853074779" flag="0"/>
		</comp>
		<comp name="--.HNZ" depth="0.0">
			<acc value="0.0127433835238979" flag="0"/>
			<vel value="0.00432094973868622" flag="0"/>
			<psa03 value="0.0143902462519405" flag="0"/>
			<psa10 value="0.00475814504750763" flag="0"/>
			<psa30 value="0.000300948425939573" flag="0"/>
		</comp>
	</station>
	<station code="ART2" name="ART2" netid="HI" source="ITSAK Strong Motion Network" insttype="" lat="39.1474" lon="20.9937" esm:processing="manual (Paolucci et al 2011)" esm:quality="best">
		<comp name="--.HNE" depth="0.0">
			<acc value="0.0119365441308666" flag="0"/>
			<vel value="0.00314298910342137" flag="0"/>
			<psa03 value="0.0123935912332613" flag="0"/>
			<psa10 value="0.00258520469840374" flag="0"/>
			<psa30 value="0.000279638791364198" flag="0"/>
		</comp>
		<comp name="--.HNN" depth="0.0">
			<acc value="0.0134568652382588" flag="0"/>
			<vel value="0.0031027610515113" flag="0"/>
			<psa03 value="0.0106039029685304" flag="0"/>
			<psa10 value="0.00297580416218125" flag="0"/>
			<psa30 value="0.000331092328975211" flag="0"/>
		</comp>
		<comp name="--.HNZ" depth="0.0">
			<acc value="0.00690114936684402" flag="0"/>
			<vel value="0.00231052117753841" flag="0"/>
			<psa03 value="0.0160177099693413" flag="0"/>
			<psa10 value="0.00310466171724188" flag="0"/>
			<psa30 value="0.000276059414834737" flag="0"/>
		</comp>
	</station>
	<station code="AST1" name="AST1" netid="HI" source="ITSAK Strong Motion Network" insttype="" lat="38.5416" lon="21.0895" esm:processing="manual (Paolucci et al 2011)" esm:quality="good">
		<comp name="--.HNE" depth="0.0">
			<acc value="0.00837577083833655" flag="0"/>
			<vel value="0.00271074211804092" flag="0"/>
			<psa03 value="0.0200298893818699" flag="0"/>
			<psa10 value="0.0022984489797147" flag="0"/>
			<psa30 value="0.000164294685799951" flag="0"/>
		</comp>
		<comp name="--.HNN" depth="0.0">
			<acc value="0.00950302045050018" flag="0"/>
			<vel value="0.00321606332325045" flag="0"/>
			<psa03 value="0.0204536974049882" flag="0"/>
			<psa10 value="0.00209834861467256" flag="0"/>
			<psa30 value="0.000147944761551878" flag="0"/>
		</comp>
		<comp name="--.HNZ" depth="0.0">
			<acc value="0.0104777733550688" flag="0"/>
			<vel value="0.00326436706008814" flag="0"/>
			<psa03 value="0.0151519321265582" flag="0"/>
			<psa10 value="0.00263423239559307" flag="0"/>
			<psa30 value="0.000174083667605287" flag="0"/>
		</comp>
	</station>
	<station code="FRS1" name="FRS1" netid="HI" source="ITSAK Strong Motion Network" insttype="" lat="39.2934" lon="22.3844" esm:processing="automatic (Paolucci et al 2011)" esm:quality="best">
		<comp name="--.HNE" depth="0.0">
			<acc value="0.00829178020911117" flag="0"/>
			<vel value="0.00319965493522975" flag="0"/>
			<psa03 value="0.0168415505659043" flag="0"/>
			<psa10 value="0.00160376432745333" flag="0"/>
			<psa30 value="0.000102985442071778" flag="0"/>
		</comp>
		<comp name="--.HNN" depth="0.0">
			<acc value="0.00884168251718307" flag="0"/>
			<vel value="0.00322864990014957" flag="0"/>
			<psa03 value="0.0200936943898886" flag="0"/>
			<psa10 value="0.00121710761959404" flag="0"/>
			<psa30 value="0.000118087275827481" flag="0"/>
		</comp>
		<comp name="--.HNZ" depth="0.0">
			<acc value="0.00552917125763062" flag="0"/>
			<vel value="0.00211680968952658" flag="0"/>
			<psa03 value="0.0155382233414554" flag="0"/>
			<psa10 value="0.000806123753304906" flag="0"/>
			<psa30 value="6.9784075977551e-05" flag="0"/>
		</comp>
	</station>
	<station code="GRE3" name="GRE3" netid="HI" source="ITSAK Strong Motion Network" insttype="" lat="40.08481" lon="21.43829" esm:processing="automatic (Paolucci et al 2011)" esm:quality="best">
		<comp name="--.HNE" depth="0.0">
			<acc value="0.0040983607954775" flag="0"/>
			<vel value="0.00208711227441645" flag="0"/>
			<psa03 value="0.0133354706490667" flag="0"/>
			<psa10 value="0.00327893385390065" flag="0"/>
			<psa30 value="0.000297890905685529" flag="0"/>
		</comp>
		<comp name="--.HNN" depth="0.0">
			<acc value="0.00664721688552721" flag="0"/>
			<vel value="0.00340136567659376" flag="0"/>
			<psa03 value="0.0213986350024665" flag="0"/>
			<psa10 value="0.00260513515554371" flag="0"/>
			<psa30 value="0.000280392897570034" flag="0"/>
		</comp>
		<comp name="--.HNZ" depth="0.0">
			<acc value="0.00541772782516855" flag="0"/>
			<vel value="0.00198977983634391" flag="0"/>
			<psa03 value="0.0134372469224954" flag="0"/>
			<psa10 value="0.00231726819514537" flag="0"/>
			<psa30 value="0.000283879482705854" flag="0"/>
		</comp>
	</station>
	<station code="ITC1" name="ITC1" netid="HI" source="ITSAK Strong Motion Network" insttype="" lat="38.3647" lon="20.7156" esm:processing="manual (Paolucci et al 2011)" esm:quality="good">
		<comp name="--.HNE" depth="0.0">
			<acc value="0.0159575009527131" flag="0"/>
			<vel value="0.00610940312414084" flag="0"/>
			<psa03 value="0.0243776565667749" flag="0"/>
			<psa10 value="0.00330953072454317" flag="0"/>
			<psa30 value="0.000229545935458338" flag="0"/>
		</comp>
		<comp name="--.HNN" depth="0.0">
			<acc value="0.02489374461901" flag="0"/>
			<vel value="0.00500568033309207" flag="0"/>
			<psa03 value="0.0219507978826308" flag="0"/>
			<psa10 value="0.00127953601298122" flag="0"/>
			<psa30 value="0.000189609201304033" flag="0"/>
		</comp>
		<comp name="--.HNZ" depth="0.0">
			<acc value="0.0330040018394995" flag="0"/>
			<vel value="0.00807424688072137" flag="0"/>
			<psa03 value="0.0224745721634397" flag="0"/>
			<psa10 value="0.00108215012463484" flag="0"/>
			<psa30 value="0.000173892157522851" flag="0"/>
		</comp>
	</station>
	<station code="ITE1" name="ITE1" netid="HI" source="ITSAK Strong Motion Network" insttype="" lat="38.4338" lon="22.4272" esm:processing="automatic (Paolucci et al 2011)" esm:quality="best">
		<comp name="--.HNE" depth="0.0">
			<acc value="0.149091216580715" flag="0"/>
			<vel value="0.0747640303272768" flag="0"/>
			<psa03 value="0.407902354862462" flag="0"/>
			<psa10 value="0.0343976799274801" flag="0"/>
			<psa30 value="0.00304500046633681" flag="0"/>
		</comp>
		<comp name="--.HNN" depth="0.0">
			<acc value="0.117792488309163" flag="0"/>
			<vel value="0.0624351840686616" flag="0"/>
			<psa03 value="0.499522340903556" flag="0"/>
			<psa10 value="0.022059906360532" flag="0"/>
			<psa30 value="0.00185936879905763" flag="0"/>
		</comp>
		<comp name="--.HNZ" depth="0.0">
			<acc value="0.110417346084476" flag="0"/>
			<vel value="0.0351139361902966" flag="0"/>
			<psa03 value="0.128120195667515" flag="0"/>
			<psa10 value="0.00861314495358205" flag="0"/>
			<psa30 value="0.000745709503761538" flag="0"/>
		</comp>
	</station>
	<station code="JAN2" name="JAN2" netid="HI" source="ITSAK Strong Motion Network" insttype="" lat="39.664" lon="20.85222" esm:processing="manual (Paolucci et al 2011)" esm:quality="good">
		<comp name="--.HNE" depth="0.0">
			<acc value="0.0121910758647594" flag="0"/>
			<vel value="0.00608769858252636" flag="0"/>
			<psa03 value="0.051731046719629" flag="0"/>
			<psa10 value="0.00355589720136315" flag="0"/>
			<psa30 value="0.00028546578570731" flag="0"/>
		</comp>
		<comp name="--.HNN" depth="0.0">
			<acc value="0.0146922092643047" flag="0"/>
			<vel value="0.00774768668920852" flag="0"/>
			<psa03 value="0.058986032535167" flag="0"/>
			<psa10 value="0.00390540910481144" flag="0"/>
			<psa30 value="0.000334108226780306" flag="0"/>
		</comp>
		<comp name="--.HNZ" depth="0.0">
			<acc value="0.0133813762121249" flag="0"/>
			<vel value="0.00262290064488985" flag="0"/>
			<psa03 value="0.0124914772386454" flag="0"/>
			<psa10 value="0.00236014455111852" flag="0"/>
			<psa30 value="0.000153897551728345" flag="0"/>
		</comp>
	</station>
	<station code="JAN3" name="JAN3" netid="HI" source="ITSAK Strong Motion Network" insttype="" lat="39.684" lon="20.8379" esm:processing="manual (Paolucci et al 2011)" esm:quality="good">
		<comp name="--.HNE" depth="0.0">
			<acc value="0.0173047494373465" flag="0"/>
			<vel value="0.00627602550625143" flag="0"/>
			<psa03 value="0.0357677053724421" flag="0"/>
			<psa10 value="0.00436790450848712" flag="0"/>
			<psa30 value="0.000242205107399684" flag="0"/>
		</comp>
		<comp name="--.HNN" depth="0.0">
			<acc value="0.0149133471791622" flag="0"/>
			<vel value="0.00521397685930342" flag="0"/>
			<psa03 value="0.0331686165288952" flag="0"/>
			<psa10 value="0.00331022944270481" flag="0"/>
			<psa30 value="0.000247362714690855" flag="0"/>
		</comp>
		<comp name="--.HNZ" depth="0.0">
			<acc value="0.0107562428537468" flag="0"/>
			<vel value="0.00261818641241953" flag="0"/>
			<psa03 value="0.0158648426346306" flag="0"/>
			<psa10 value="0.00163418833508202" flag="0"/>
			<psa30 value="9.95080437424544e-05" flag="0"/>
		</comp>
	</station>
	<station code="KAC1" name="KAC1" netid="HI" source="ITSAK Strong Motion Network" insttype="" lat="38.143412" lon="21.549694" esm:processing="automatic (Paolucci et al 2011)" esm:quality="best">
		<comp name="--.HNE" depth="0.0">
			<acc value="0.0251211936553385" flag="0"/>
			<vel value="0.0111589024404988" flag="0"/>
			<psa03 value="0.0893004052969206" flag="0"/>
			<psa10 value="0.0103373329225731" flag="0"/>
			<psa30 value="0.00114620540964977" flag="0"/>
		</comp>
		<comp name="--.HNN" depth="0.0">
			<acc value="0.0305447974617133" flag="0"/>
			<vel value="0.0142539695904306" flag="0"/>
			<psa03 value="0.0816188599739087" flag="0"/>
			<psa10 value="0.0090705083766642" flag="0"/>
			<psa30 value="0.00120208796576152" flag="0"/>
		</comp>
		<comp name="--.HNZ" depth="0.0">
			<acc value="0.0287829881354399" flag="0"/>
			<vel value="0.00614890845165295" flag="0"/>
			<psa03 value="0.0249522284835112" flag="0"/>
			<psa10 value="0.0059308439830568" flag="0"/>
			<psa30 value="0.000657373599858101" flag="0"/>
		</comp>
	</station>
	<station code="KAR2" name="KAR2" netid="HI" source="ITSAK Strong Motion Network" insttype="" lat="39.365759" lon="21.91933" esm:processing="manual (Paolucci et al 2011)" esm:quality="good">
		<comp name="--.HNE" depth="0.0">
			<acc value="0.127870927231594" flag="0"/>
			<vel value="0.0399604815236689" flag="0"/>
			<psa03 value="0.174211144800026" flag="0"/>
			<psa10 value="0.0138953464360066" flag="0"/>
			<psa30 value="0.000924639794515156" flag="0"/>
		</comp>
		<comp name="--.HNN" depth="0.0">
			<acc value="0.133698442584536" flag="0"/>
			<vel value="0.0564594668733415" flag="0"/>
			<psa03 value="0.144776799085745" flag="0"/>
			<psa10 value="0.0421122822320215" flag="0"/>
			<psa30 value="0.00269853168114683" flag="0"/>
		</comp>
		<comp name="--.HNZ" depth="0.0">
			<acc value="0.0295929036768932" flag="0"/>
			<vel value="0.0098559521061105" flag="0"/>
			<psa03 value="0.0766413062770715" flag="0"/>
			<psa10 value="0.00877127511642927" flag="0"/>
			<psa30 value="0.000432139564625325" flag="0"/>
		</comp>
	</station>
	<station code="KAS2" name="KAS2" netid="HI" source="ITSAK Strong Motion Network" insttype="" lat="40.504878" lon="21.280507" esm:processing="automatic (Paolucci et al 2011)" esm:quality="best">
		<comp name="--.HNE" depth="0.0">
			<acc value="0.00257552434003855" flag="0"/>
			<vel value="0.00225450082722403" flag="0"/>
			<psa03 value="0.00768479293398353" flag="0"/>
			<psa10 value="0.00548373795822694" flag="0"/>
			<psa30 value="0.000207093263183158" flag="0"/>
		</comp>
		<comp name="--.HNN" depth="0.0">
			<acc value="0.00485127212138215" flag="0"/>
			<vel value="0.00229297492825979" flag="0"/>
			<psa03 value="0.0202898336852376" flag="0"/>
			<psa10 value="0.00229857086278886" flag="0"/>
			<psa30 value="0.000130876690771787" flag="0"/>
		</comp>
		<comp name="--.HNZ" depth="0.0">
			<acc value="0.002657868550428" flag="0"/>
			<vel value="0.00127713269466254" flag="0"/>
			<psa03 value="0.00486571848882434" flag="0"/>
			<psa10 value="0.00161481783313133" flag="0"/>
			<psa30 value="0.000120314116053051" flag="0"/>
		</comp>
	</station>
	<station code="KIF1" name="KIF1" netid="HI" source="ITSAK Strong Motion Network" insttype="" lat="38.077273" lon="23.814551" esm:processing="manual (Paolucci et al 2011)" esm:quality="good">
		<comp name="--.HNE" depth="0.0">
			<acc value="0.00710286342312246" flag="0"/>
			<vel value="0.00282919847184903" flag="0"/>
			<psa03 value="0.0165368598087203" flag="0"/>
			<psa10 value="0.00339202517377057" flag="0"/>
			<psa30 value="0.000219112431789925" flag="0"/>
		</comp>
		<comp name="--.HNN" depth="0.0">
			<acc value="0.00872318814497051" flag="0"/>
			<vel value="0.00250279443864911" flag="0"/>
			<psa03 value="0.0115687715826741" flag="0"/>
			<psa10 value="0.00220184375196748" flag="0"/>
			<psa30 value="0.000192034830740078" flag="0"/>
		</comp>
		<comp name="--.HNZ" depth="0.0">
			<acc value="0.0247870084513406" flag="0"/>
			<vel value="0.00607186132093881" flag="0"/>
			<psa03 value="0.0215799972772438" flag="0"/>
			<psa10 value="0.0015959360354299" flag="0"/>
			<psa30 value="0.000224939718860761" flag="0"/>
		</comp>
	</station>
	<station code="KLV1" name="KLV1" netid="HI" source="ITSAK Strong Motion Network" insttype="" lat="38.03256" lon="22.10797" esm:processing="manual (Paolucci et al 2011)" esm:quality="best">
		<comp name="--.HNE" depth="0.0">
			<acc value="0.0450359593809286" flag="0"/>
			<vel value="0.0176958382361053" flag="0"/>
			<psa03 value="0.108589335462546" flag="0"/>
			<psa10 value="0.010091157280685" flag="0"/>
			<psa30 value="0.00084786481541625" flag="0"/>
		</comp>
		<comp name="--.HNN" depth="0.0">
			<acc value="0.0478898153327851" flag="0"/>
			<vel value="0.0206185850783591" flag="0"/>
			<psa03 value="0.162995858710364" flag="0"/>
			<psa10 value="0.00602811749767975" flag="0"/>
			<psa30 value="0.000671580521340259" flag="0"/>
		</comp>
		<comp name="--.HNZ" depth="0.0">
			<acc value="0.0235294168500045" flag="0"/>
			<vel value="0.00583755350896203" flag="0"/>
			<psa03 value="0.0393731418240791" flag="0"/>
			<psa10 value="0.00608449267801878" flag="0"/>
			<psa30 value="0.000331539751041394" flag="0"/>
		</comp>
	</station>
	<station code="KMV1" name="KMV1" netid="HI" source="ITSAK Strong Motion Network" insttype="" lat="38.7794" lon="22.7846" esm:processing="automatic (Paolucci et al 2011)" esm:quality="best">
		<comp name="--.HNE" depth="0.0">
			<acc value="0.0259164015528622" flag="0"/>
			<vel value="0.0122976677667226" flag="0"/>
			<psa03 value="0.0712869880380991" flag="0"/>
			<psa10 value="0.00771914994955053" flag="0"/>
			<psa30 value="0.000607347473372737" flag="0"/>
		</comp>
		<comp name="--.HNN" depth="0.0">
			<acc value="0.0382907523455502" flag="0"/>
			<vel value="0.0186396511986098" flag="0"/>
			<psa03 value="0.147713326949638" flag="0"/>
			<psa10 value="0.011600153140715" flag="0"/>
			<psa30 value="0.00063579961860439" flag="0"/>
		</comp>
		<comp name="--.HNZ" depth="0.0">
			<acc value="0.020637024171471" flag="0"/>
			<vel value="0.0065080697792151" flag="0"/>
