<?xml version="1.0" encoding="UTF-8" standalone="yes"?>
<!DOCTYPE earthquake SYSTEM "stationlist.dtd">
<stationlist created="" xmlns="ch.ethz.sed.shakemap.usgs.xml">
  <station code="ATAL" name="ATAL" netid="HA" source="NOA" insttype="120" lat="38.6926" lon="23.0213">
    <comp name="--.HHE">
      <acc value="0.0148361740" flag="0"/>
      <vel value="0.0086027126" flag="0"/>
      <psa03 value="0.0249649337" flag="0"/>
      <psa10 value="0.0071691065" flag="0"/>
      <psa30 value="0.0004985430" flag="0"/>
    </comp>
    <comp name="--.HHN">
      <acc value="0.0206863095" flag="0"/>
      <vel value="0.0052174833" flag="0"/>
      <psa03 value="0.0225979195" flag="0"/>
      <psa10 value="0.0038067090" flag="0"/>
      <psa30 value="0.0003116935" flag="0"/>
    </comp>
    <comp name="--.HHZ">
      <acc value="0.0168384124" flag="0"/>
      <vel value="0.0063039769" flag="0"/>
      <psa03 value="0.0330484882" flag="0"/>
      <psa10 value="0.0022654084" flag="0"/>
      <psa30 value="0.0002624880" flag="0"/>
    </comp>
  </station>
  <station code="AXAR" name="AXAR" netid="HA" source="NOA" insttype="30" lat="38.7664" lon="22.659">
    <comp name="--.HHE">
      <acc value="0.0608999373" flag="0"/>
      <vel value="0.0333947014" flag="0"/>
      <psa03 value="0.1145490314" flag="0"/>
      <psa10 value="0.0174782485" flag="0"/>
      <psa30 value="0.0014300206" flag="0"/>
    </comp>
    <comp name="--.HHN">
      <acc value="0.0823132603" flag="0"/>
      <vel value="0.0392861488" flag="0"/>
      <psa03 value="0.2952708850" flag="0"/>
      <psa10 value="0.0147857994" flag="0"/>
      <psa30 value="0.0012278791" flag="0"/>
    </comp>
    <comp name="--.HHZ">
      <acc value="0.0559596514" flag="0"/>
      <vel value="0.0183808960" flag="0"/>
      <psa03 value="0.1184247633" flag="0"/>
      <psa10 value="0.0086409238" flag="0"/>
      <psa30 value="0.0009414793" flag="0"/>
    </comp>
  </station>
  <station code="KALE" name="KALE" netid="HA" source="NOA" insttype="40," lat="38.3911" lon="22.1398">
    <comp name="--.HHE">
      <acc value="0.0724247534" flag="0"/>
      <vel value="0.0311715938" flag="0"/>
      <psa03 value="0.0820761229" flag="0"/>
      <psa10 value="0.0136422262" flag="0"/>
      <psa30 value="0.0009901417" flag="0"/>
    </comp>
    <comp name="--.HHN">
      <acc value="0.1259774816" flag="0"/>
      <vel value="0.0404289315" flag="0"/>
      <psa03 value="0.1266628739" flag="0"/>
      <psa10 value="0.0178630925" flag="0"/>
      <psa30 value="0.0013068538" flag="0"/>
    </comp>
    <comp name="--.HHZ">
      <acc value="0.0509971306" flag="0"/>
      <vel value="0.0176105265" flag="0"/>
      <psa03 value="0.0656764506" flag="0"/>
      <psa10 value="0.0113014091" flag="0"/>
      <psa30 value="0.0006220501" flag="0"/>
    </comp>
  </station>
  <station code="LOUT" name="LOUT" netid="HA" source="NOA" insttype="30" lat="37.9879" lon="22.9743">
    <comp name="--.HHE">
      <acc value="0.0939085149" flag="0"/>
      <vel value="0.0346228834" flag="0"/>
      <psa03 value="0.1562756655" flag="0"/>
      <psa10 value="0.0127107898" flag="0"/>
      <psa30 value="0.0007698076" flag="0"/>
    </comp>
    <comp name="--.HHN">
      <acc value="0.0803933158" flag="0"/>
      <vel value="0.0246218384" flag="0"/>
      <psa03 value="0.1294506438" flag="0"/>
      <psa10 value="0.0128632324" flag="0"/>
      <psa30 value="0.0007944722" flag="0"/>
    </comp>
    <comp name="--.HHZ">
      <acc value="0.0543623941" flag="0"/>
      <vel value="0.0179247257" flag="0"/>
      <psa03 value="0.1073375135" flag="0"/>
      <psa10 value="0.0056394358" flag="0"/>
      <psa30 value="0.0004400854" flag="0"/>
    </comp>
  </station>
  <station code="MAKR" name="MAKR" netid="HA" source="NOA" insttype="30" lat="39.0132" lon="22.1317">
    <comp name="--.HHE">
      <acc value="0.1874707300" flag="0"/>
      <vel value="0.0945031554" flag="0"/>
      <psa03 value="0.6692374023" flag="0"/>
      <psa10 value="0.0259051645" flag="0"/>
      <psa30 value="0.0032742523" flag="0"/>
    </comp>
    <comp name="--.HHN">
      <acc value="0.1201944649" flag="0"/>
      <vel value="0.0442147709" flag="0"/>
      <psa03 value="0.3788029044" flag="0"/>
      <psa10 value="0.0318071033" flag="0"/>
      <psa30 value="0.0020371430" flag="0"/>
    </comp>
    <comp name="--.HHZ">
      <acc value="0.0675173640" flag="0"/>
      <vel value="0.0229916791" flag="0"/>
      <psa03 value="0.1321076651" flag="0"/>
      <psa10 value="0.0101705806" flag="0"/>
      <psa30 value="0.0008769614" flag="0"/>
    </comp>
  </station>
  <station code="STFN" name="STFN" netid="HA" source="NOA" insttype="1s-100Hz," lat="38.1766" lon="23.544">
    <comp name="--.HHE">
      <acc value="0.0192312820" flag="0"/>
      <vel value="0.0034257174" flag="0"/>
      <psa03 value="0.0167070241" flag="0"/>
      <psa10 value="0.0034834448" flag="0"/>
      <psa30 value="0.0001594325" flag="0"/>
    </comp>
    <comp name="--.HHN">
      <acc value="0.0142251268" flag="0"/>
      <vel value="0.0038225705" flag="0"/>
      <psa03 value="0.0233079747" flag="0"/>
      <psa10 value="0.0018802205" flag="0"/>
      <psa30 value="0.0002047858" flag="0"/>
    </comp>
    <comp name="--.HHZ">
      <acc value="0.0214722848" flag="0"/>
      <vel value="0.0054844990" flag="0"/>
      <psa03 value="0.0170562661" flag="0"/>
      <psa10 value="0.0023516729" flag="0"/>
      <psa30 value="0.0001540212" flag="0"/>
    </comp>
  </station>
  <station code="VILL" name="VILL" netid="HA" source="NOA" insttype="30" lat="38.1642" lon="23.3122">
    <comp name="--.HHE">
      <acc value="0.0221496646" flag="0"/>
      <vel value="0.0078915159" flag="0"/>
      <psa03 value="0.0612726114" flag="0"/>
      <psa10 value="0.0033987192" flag="0"/>
      <psa30 value="0.0002561272" flag="0"/>
    </comp>
    <comp name="--.HHN">
      <acc value="0.0168921992" flag="0"/>
      <vel value="0.0074276633" flag="0"/>
      <psa03 value="0.0487263076" flag="0"/>
      <psa10 value="0.0032456504" flag="0"/>
      <psa30 value="0.0002156356" flag="0"/>
    </comp>
    <comp name="--.HHZ">
      <acc value="0.0151912619" flag="0"/>
      <vel value="0.0040501666" flag="0"/>
      <psa03 value="0.0307405566" flag="0"/>
      <psa10 value="0.0015860137" flag="0"/>
      <psa30 value="0.0001396533" flag="0"/>
    </comp>
  </station>
  <station code="KLV1" name="KLV1" netid="HI" source="NOA" insttype="CMG-5TD,ACCELEROMETER,GURALP" lat="38.0326" lon="22.108">
    <comp name="--.HNE">
      <acc value="0.0446095126" flag="0"/>
      <vel value="0.0175235081" flag="0"/>
      <psa03 value="0.1085799259" flag="0"/>
      <psa10 value="0.0100769308" flag="0"/>
      <psa30 value="0.0008044945" flag="0"/>
    </comp>
    <comp name="--.HNN">
      <acc value="0.0482732114" flag="0"/>
      <vel value="0.0205238674" flag="0"/>
      <psa03 value="0.1610218027" flag="0"/>
      <psa10 value="0.0059945997" flag="0"/>
      <psa30 value="0.0006556977" flag="0"/>
    </comp>
    <comp name="--.HNZ">
      <acc value="0.0232401268" flag="0"/>
      <vel value="0.0057040561" flag="0"/>
      <psa03 value="0.0381455785" flag="0"/>
      <psa10 value="0.0060843387" flag="0"/>
      <psa30 value="0.0003172109" flag="0"/>
    </comp>
  </station>
  <station code="LAM2" name="LAM2" netid="HI" source="NOA" insttype="CMG-5TD,ACCELEROMETER,GURALP" lat="38.902" lon="22.4313">
    <comp name="--.HNE">
      <acc value="0.0411747455" flag="0"/>
      <vel value="0.0270759877" flag="0"/>
      <psa03 value="0.1037443827" flag="0"/>
      <psa10 value="0.0205965315" flag="0"/>
      <psa30 value="0.0016687457" flag="0"/>
    </comp>
    <comp name="--.HNN">
      <acc value="0.0856054455" flag="0"/>
      <vel value="0.0402568569" flag="0"/>
      <psa03 value="0.1877101629" flag="0"/>
      <psa10 value="0.0152011828" flag="0"/>
      <psa30 value="0.0010932475" flag="0"/>
    </comp>
    <comp name="--.HNZ">
      <acc value="0.0384314094" flag="0"/>
      <vel value="0.0086873216" flag="0"/>
      <psa03 value="0.0640246181" flag="0"/>
      <psa10 value="0.0075288560" flag="0"/>
      <psa30 value="0.0003390605" flag="0"/>
    </comp>
  </station>
  <station code="MSL1" name="MSL1" netid="HI" source="NOA" insttype="CMG-5TD,ACCELEROMETER,GURALP" lat="38.3727" lon="21.4243">
    <comp name="--.HNE">
      <acc value="0.0185499933" flag="0"/>
      <vel value="0.0096311500" flag="0"/>
      <psa03 value="0.0583065404" flag="0"/>
      <psa10 value="0.0148567764" flag="0"/>
      <psa30 value="0.0008687785" flag="0"/>
    </comp>
    <comp name="--.HNN">
      <acc value="0.0220592056" flag="0"/>
      <vel value="0.0101157647" flag="0"/>
      <psa03 value="0.0676606770" flag="0"/>
      <psa10 value="0.0109646829" flag="0"/>
      <psa30 value="0.0008380844" flag="0"/>
    </comp>
    <comp name="--.HNZ">
      <acc value="0.0119076653" flag="0"/>
      <vel value="0.0072293043" flag="0"/>
      <psa03 value="0.0299872681" flag="0"/>
      <psa10 value="0.0081888434" flag="0"/>
      <psa30 value="0.0003559450" flag="0"/>
    </comp>
  </station>
  <station code="DLFA" name="DLFA" netid="HL" source="NOA" insttype="CMG-5" lat="38.4784" lon="22.4958">
    <comp name="00.HNE">
      <acc value="0.0232060599" flag="0"/>
      <vel value="0.0098208908" flag="0"/>
      <psa03 value="0.0578721368" flag="0"/>
      <psa10 value="0.0074273053" flag="0"/>
      <psa30 value="0.0004071742" flag="0"/>
    </comp>
    <comp name="00.HNN">
      <acc value="0.0419463475" flag="0"/>
      <vel value="0.0186207547" flag="0"/>
      <psa03 value="0.0644773716" flag="0"/>
      <psa10 value="0.0137780053" flag="0"/>
      <psa30 value="0.0009419299" flag="0"/>
    </comp>
    <comp name="00.HNZ">
      <acc value="0.0243224844" flag="0"/>
      <vel value="0.0073160230" flag="0"/>
      <psa03 value="0.0304429040" flag="0"/>
      <psa10 value="0.0029463006" flag="0"/>
      <psa30 value="0.0003072881" flag="0"/>
    </comp>
  </station>
  <station code="EVR" name="EVR" netid="HL" source="NOA" insttype="DR24" lat="38.9166" lon="21.8105">
    <comp name="--.HHE">
      <acc value="0.0523514393" flag="0"/>
      <vel value="0.0152540837" flag="0"/>
      <psa03 value="0.1034416536" flag="0"/>
      <psa10 value="0.0059554408" flag="0"/>
      <psa30 value="0.0004758344" flag="0"/>
    </comp>
    <comp name="--.HHN">
      <acc value="0.0486803192" flag="0"/>
      <vel value="0.0208289878" flag="0"/>
      <psa03 value="0.1219278768" flag="0"/>
      <psa10 value="0.0083316807" flag="0"/>
      <psa30 value="0.0007594288" flag="0"/>
    </comp>
    <comp name="--.HHZ">
      <acc value="0.0622903113" flag="0"/>
      <vel value="0.0252008664" flag="0"/>
      <psa03 value="0.0868305255" flag="0"/>
      <psa10 value="0.0052361298" flag="0"/>
      <psa30 value="0.0006702928" flag="0"/>
    </comp>
  </station>
  <station code="JAN" name="JAN" netid="HL" source="NOA" insttype="CMG3EPSC60_DR24" lat="39.6562" lon="20.8487">
    <comp name="--.HHE">
      <acc value="0.0087315641" flag="0"/>
      <vel value="0.0035437139" flag="0"/>
      <psa03 value="0.0257909268" flag="0"/>
      <psa10 value="0.0030030659" flag="0"/>
      <psa30 value="0.0001843627" flag="0"/>
    </comp>
    <comp name="--.HHZ">
      <acc value="0.0051647415" flag="0"/>
      <vel value="0.0017048928" flag="0"/>
      <psa03 value="0.0098882309" flag="0"/>
      <psa10 value="0.0025103489" flag="0"/>
      <psa30 value="0.0001190147" flag="0"/>
    </comp>
    <comp name="--.HHN">
      <acc value="0.0086036328" flag="0"/>
      <vel value="0.0039422009" flag="0"/>
      <psa03 value="0.0231797193" flag="0"/>
      <psa10 value="0.0030855948" flag="0"/>
      <psa30 value="0.0002734839" flag="0"/>
    </comp>
  </station>
  <station code="KLV" name="KLV" netid="HL" source="NOA" insttype="120" lat="38.0435" lon="22.1504">
    <comp name="--.HHE">
      <acc value="0.0167219652" flag="0"/>
      <vel value="0.0071249636" flag="0"/>
      <psa03 value="0.0178738574" flag="0"/>
      <psa10 value="0.0072858271" flag="0"/>
      <psa30 value="0.0006151806" flag="0"/>
    </comp>
    <comp name="--.HHN">
      <acc value="0.0097661681" flag="0"/>
      <vel value="0.0035020037" flag="0"/>
      <psa03 value="0.0178207779" flag="0"/>
      <psa10 value="0.0028524372" flag="0"/>
      <psa30 value="0.0001887610" flag="0"/>
    </comp>
    <comp name="--.HHZ">
      <acc value="0.0082477442" flag="0"/>
      <vel value="0.0032739010" flag="0"/>
      <psa03 value="0.0117232099" flag="0"/>
      <psa10 value="0.0039759386" flag="0"/>
      <psa30 value="0.0001914821" flag="0"/>
    </comp>
  </station>
  <station code="KZN" name="KZN" netid="HL" source="NOA" insttype="120" lat="40.3033" lon="21.7821">
    <comp name="--.HHE">
      <acc value="0.0055439694" flag="0"/>
      <vel value="0.0032062614" flag="0"/>
      <psa03 value="0.0227457045" flag="0"/>
      <psa10 value="0.0025421361" flag="0"/>
      <psa30 value="0.0001711171" flag="0"/>
    </comp>
    <comp name="--.HHN">
      <acc value="0.0049899647" flag="0"/>
      <vel value="0.0021782356" flag="0"/>
      <psa03 value="0.0183218345" flag="0"/>
      <psa10 value="0.0018050423" flag="0"/>
      <psa30 value="0.0001600695" flag="0"/>
    </comp>
    <comp name="--.HHZ">
      <acc value="0.0032206229" flag="0"/>
      <vel value="0.0011292363" flag="0"/>
      <psa03 value="0.0079466161" flag="0"/>
      <psa10 value="0.0010314253" flag="0"/>
      <psa30 value="0.0001002396" flag="0"/>
    </comp>
  </station>
  <station code="LKR" name="LKR" netid="HL" source="NOA" insttype="30" lat="38.6496" lon="22.9989">
    <comp name="--.HHE">
      <acc value="0.0479047876" flag="0"/>
      <vel value="0.0106616685" flag="0"/>
      <psa03 value="0.0487378207" flag="0"/>
      <psa10 value="0.0043655186" flag="0"/>
      <psa30 value="0.0002986407" flag="0"/>
    </comp>
    <comp name="--.HHN">
      <acc value="0.0427452953" flag="0"/>
      <vel value="0.0109262988" flag="0"/>
      <psa03 value="0.0535354677" flag="0"/>
      <psa10 value="0.0031690664" flag="0"/>
      <psa30 value="0.0003088434" flag="0"/>
    </comp>
    <comp name="--.HHZ">
      <acc value="0.0401656719" flag="0"/>
      <vel value="0.0069223490" flag="0"/>
      <psa03 value="0.0237810702" flag="0"/>
      <psa10 value="0.0022469771" flag="0"/>
      <psa30 value="0.0001717875" flag="0"/>
    </comp>
  </station>
  <station code="NEO" name="NEO" netid="HL" source="NOA" insttype="120" lat="39.3057" lon="23.2219">
    <comp name="--.HHE">
      <acc value="0.0479686518" flag="0"/>
      <vel value="0.0202719891" flag="0"/>
      <psa03 value="0.1284933956" flag="0"/>
      <psa10 value="0.0108632794" flag="0"/>
      <psa30 value="0.0005250934" flag="0"/>
    </comp>
    <comp name="--.HHN">
      <acc value="0.0505811343" flag="0"/>
      <vel value="0.0286803124" flag="0"/>
      <psa03 value="0.1811662051" flag="0"/>
      <psa10 value="0.0110844021" flag="0"/>
      <psa30 value="0.0007445988" flag="0"/>
    </comp>
    <comp name="--.HHZ">
      <acc value="0.0278450912" flag="0"/>
      <vel value="0.0082968398" flag="0"/>
      <psa03 value="0.0377489494" flag="0"/>
      <psa10 value="0.0048900909" flag="0"/>
      <psa30 value="0.0002601435" flag="0"/>
    </comp>
  </station>
  <station code="RLS" name="RLS" netid="HL" source="NOA" insttype="120" lat="38.0559" lon="21.4647">
    <comp name="--.HHE">
      <acc value="0.0090495009" flag="0"/>
      <vel value="0.0038588118" flag="0"/>
      <psa03 value="0.0242999898" flag="0"/>
      <psa10 value="0.0022383476" flag="0"/>
      <psa30 value="0.0005040569" flag="0"/>
    </comp>
    <comp name="--.HHN">
      <acc value="0.0090367252" flag="0"/>
      <vel value="0.0035447753" flag="0"/>
      <psa03 value="0.0236082960" flag="0"/>
      <psa10 value="0.0038675814" flag="0"/>
      <psa30 value="0.0003835573" flag="0"/>
    </comp>
    <comp name="--.HHZ">
      <acc value="0.0092834690" flag="0"/>
      <vel value="0.0023577541" flag="0"/>
      <psa03 value="0.0170118744" flag="0"/>
      <psa10 value="0.0018593168" flag="0"/>
      <psa30 value="0.0002881466" flag="0"/>
    </comp>
  </station>
  <station code="TETR" name="TETR" netid="HL" source="NOA" insttype="60" lat="39.3445" lon="21.2747">
    <comp name="--.HHE">
      <acc value="0.0554809173" flag="0"/>
      <vel value="0.0245344980" flag="0"/>
      <psa03 value="0.2080284756" flag="0"/>
      <psa10 value="0.0135981291" flag="0"/>
      <psa30 value="0.0007595653" flag="0"/>
    </comp>
    <comp name="--.HHN">
      <acc value="0.0432043542" flag="0"/>
      <vel value="0.0167349553" flag="0"/>
      <psa03 value="0.1247575060" flag="0"/>
      <psa10 value="0.0121269126" flag="0"/>
      <psa30 value="0.0011511547" flag="0"/>
    </comp>
    <comp name="--.HHZ">
      <acc value="0.0171446550" flag="0"/>
      <vel value="0.0075541257" flag="0"/>
      <psa03 value="0.0531967348" flag="0"/>
      <psa10 value="0.0093806190" flag="0"/>
      <psa30 value="0.0003199286" flag="0"/>
    </comp>
  </station>
  <station code="THL" name="THL" netid="HL" source="NOA" insttype="120" lat="39.5647" lon="22.0144">
    <comp name="--.HHE">
      <acc value="0.0340116689" flag="0"/>
      <vel value="0.0124280455" flag="0"/>
      <psa03 value="0.0621009018" flag="0"/>
      <psa10 value="0.0056696180" flag="0"/>
      <psa30 value="0.0004924082" flag="0"/>
    </comp>
    <comp name="--.HHN">
      <acc value="0.0161864538" flag="0"/>
      <vel value="0.0061225575" flag="0"/>
      <psa03 value="0.0373096500" flag="0"/>
      <psa10 value="0.0028607427" flag="0"/>
      <psa30 value="0.0003629813" flag="0"/>
    </comp>
    <comp name="--.HHZ">
      <acc value="0.0232029586" flag="0"/>
      <vel value="0.0074161429" flag="0"/>
      <psa03 value="0.0519957341" flag="0"/>
      <psa10 value="0.0022135838" flag="0"/>
      <psa30 value="0.0002230033" flag="0"/>
    </comp>
  </station>
  <station code="AMPL" name="AMPL" netid="HP" source="NOA" insttype="Compact," lat="38.9224" lon="21.2135">
    <comp name="--.HHE">
      <acc value="0.0108181944" flag="0"/>
      <vel value="0.0051120134" flag="0"/>
      <psa03 value="0.0456701784" flag="0"/>
      <psa10 value="0.0056065811" flag="0"/>
      <psa30 value="0.0003325809" flag="0"/>
    </comp>
    <comp name="--.HHN">
      <acc value="0.0138900077" flag="0"/>
      <vel value="0.0071882231" flag="0"/>
      <psa03 value="0.0298748255" flag="0"/>
      <psa10 value="0.0070007913" flag="0"/>
      <psa30 value="0.0007248879" flag="0"/>
    </comp>
    <comp name="--.HHZ">
      <acc value="0.0078288028" flag="0"/>
      <vel value="0.0028607625" flag="0"/>
      <psa03 value="0.0181588645" flag="0"/>
      <psa10 value="0.0027793516" flag="0"/>
      <psa30 value="0.0001683677" flag="0"/>
    </comp>
  </station>
  <station code="ANX" name="ANX" netid="HP" source="NOA" insttype="120" lat="38.5933" lon="21.9209">
    <comp name="--.HHE">
      <acc value="0.0955325037" flag="0"/>
      <vel value="0.0417837601" flag="0"/>
      <psa03 value="0.2531086476" flag="0"/>
      <psa10 value="0.0119692461" flag="0"/>
      <psa30 value="0.0012190796" flag="0"/>
    </comp>
    <comp name="--.HHN">
      <acc value="0.0942490839" flag="0"/>
      <vel value="0.0408345883" flag="0"/>
      <psa03 value="0.3270375541" flag="0"/>
      <psa10 value="0.0136572957" flag="0"/>
      <psa30 value="0.0010701815" flag="0"/>
    </comp>
    <comp name="--.HHZ">
      <acc value="0.0527746277" flag="0"/>
      <vel value="0.0115909008" flag="0"/>
      <psa03 value="0.0569552011" flag="0"/>
      <psa10 value="0.0072745882" flag="0"/>
      <psa30 value="0.0003819660" flag="0"/>
    </comp>
  </station>
  <station code="AXS" name="AXS" netid="HP" source="NOA" insttype="40," lat="38.1962" lon="21.3763">
    <comp name="--.HHE">
      <acc value="0.0097861699" flag="0"/>
