<?xml version="1.0" encoding="UTF-8" standalone="yes"?>
<!DOCTYPE earthquake SYSTEM "stationlist.dtd">
<stationlist created="" xmlns="ch.ethz.sed.shakemap.usgs.xml">
  <station code="ZKR" name="ZKR" netid="GE" insttype="STS-2/N" lat="35.1147" lon="26.2169">
    <comp name="--.HHE">
      <acc value="0.0112449775" flag="0"/>
      <vel value="0.0167253913" flag="0"/>
      <psa03 value="0.0318876733" flag="0"/>
      <psa10 value="0.0184473284" flag="0"/>
      <psa30 value="0.0095410374" flag="0"/>
    </comp>
    <comp name="--.HHN">
      <acc value="0.0056690381" flag="0"/>
      <vel value="0.0062320114" flag="0"/>
      <psa03 value="0.0220875369" flag="0"/>
      <psa10 value="0.0074948174" flag="0"/>
      <psa30 value="0.0024801078" flag="0"/>
    </comp>
    <comp name="--.HHZ">
      <acc value="0.0088215974" flag="0"/>
      <vel value="0.0135212145" flag="0"/>
      <psa03 value="0.0214872965" flag="0"/>
      <psa10 value="0.0198374786" flag="0"/>
      <psa30 value="0.0051072884" flag="0"/>
    </comp>
  </station>
  <station code="SIT2" name="SIT2" netid="HI" insttype="CMG-5TD,ACCELEROMETER,GURALP" lat="35.2059" lon="26.107">
    <comp name="--.HNN">
      <acc value="0.0482542031" flag="0"/>
      <vel value="0.0408043801" flag="0"/>
      <psa03 value="0.1084389527" flag="0"/>
      <psa10 value="0.0391592644" flag="0"/>
      <psa30 value="0.0047914581" flag="0"/>
    </comp>
    <comp name="--.HNZ">
      <acc value="0.0202064274" flag="0"/>
      <vel value="0.0136024960" flag="0"/>
      <psa03 value="0.0428715637" flag="0"/>
      <psa10 value="0.0109426696" flag="0"/>
      <psa30 value="0.0057122574" flag="0"/>
    </comp>
    <comp name="--.HNE">
      <acc value="0.0548940573" flag="0"/>
      <vel value="0.0447832308" flag="0"/>
      <psa03 value="0.1087447089" flag="0"/>
      <psa10 value="0.0515428457" flag="0"/>
      <psa30 value="0.0067216299" flag="0"/>
    </comp>
  </station>
  <station code="NPS" name="NPS" netid="HL" insttype="CMG3ESPC-120s" lat="35.2613" lon="25.6104">
    <comp name="--.HHE">
      <acc value="0.0028698609" flag="0"/>
      <vel value="0.0040996579" flag="0"/>
      <psa03 value="0.0076488545" flag="0"/>
      <psa10 value="0.0077787832" flag="0"/>
      <psa30 value="0.0015186028" flag="0"/>
    </comp>
    <comp name="--.HHN">
      <acc value="0.0055665370" flag="0"/>
      <vel value="0.0077584371" flag="0"/>
      <psa03 value="0.0119872487" flag="0"/>
      <psa10 value="0.0131006791" flag="0"/>
      <psa30 value="0.0024088195" flag="0"/>
    </comp>
    <comp name="--.HHZ">
      <acc value="0.0041781603" flag="0"/>
      <vel value="0.0064570762" flag="0"/>
      <psa03 value="0.0074792587" flag="0"/>
      <psa10 value="0.0090666836" flag="0"/>
      <psa30 value="0.0041318467" flag="0"/>
    </comp>
  </station>
  <station code="ZKR" name="ZKR" netid="HL" insttype="120" lat="35.1147" lon="26.2169">
    <comp name="--.HHE">
      <acc value="0.0110253186" flag="0"/>
      <vel value="0.0166099467" flag="0"/>
      <psa03 value="0.0311419175" flag="0"/>
      <psa10 value="0.0183621148" flag="0"/>
      <psa30 value="0.0095426377" flag="0"/>
    </comp>
    <comp name="--.HHN">
      <acc value="0.0055537130" flag="0"/>
      <vel value="0.0062082473" flag="0"/>
      <psa03 value="0.0214889667" flag="0"/>
      <psa10 value="0.0074462153" flag="0"/>
      <psa30 value="0.0024809150" flag="0"/>
    </comp>
    <comp name="--.HHZ">
      <acc value="0.0087356467" flag="0"/>
      <vel value="0.0134679290" flag="0"/>
      <psa03 value="0.0209306582" flag="0"/>
      <psa10 value="0.0197181427" flag="0"/>
      <psa30 value="0.0051102842" flag="0"/>
    </comp>
  </station>
</stationlist>
