<?xml version="1.0" encoding="UTF-8" standalone="yes"?>
<!DOCTYPE earthquake SYSTEM "stationlist.dtd">
<stationlist created="" xmlns="ch.ethz.sed.shakemap.usgs.xml">
  <station code="BNN" name="BNN" netid="KO" insttype="CMG-3T" lat="38.8521" lon="35.8472">
    <comp name="--.HHE">
      <acc value="0.0095187161" flag="0"/>
      <vel value="0.0045504085" flag="0"/>
      <psa03 value="0.0209305699" flag="0"/>
      <psa10 value="0.0044165163" flag="0"/>
      <psa30 value="0.0012412692" flag="0"/>
    </comp>
    <comp name="--.HHN">
      <acc value="0.0076963956" flag="0"/>
      <vel value="0.0048755627" flag="0"/>
      <psa03 value="0.0172643693" flag="0"/>
      <psa10 value="0.0070238670" flag="0"/>
      <psa30 value="0.0009919514" flag="0"/>
    </comp>
    <comp name="--.HHZ">
      <acc value="0.0055885326" flag="0"/>
      <vel value="0.0026001617" flag="0"/>
      <psa03 value="0.0071750860" flag="0"/>
      <psa10 value="0.0057750696" flag="0"/>
      <psa30 value="0.0006757474" flag="0"/>
    </comp>
  </station>
  <station code="DARE" name="DARE" netid="KO" insttype="CMG-3ESP" lat="38.5712" lon="37.4832">
    <comp name="--.HHE">
      <acc value="0.0140173578" flag="0"/>
      <vel value="0.0048407011" flag="0"/>
      <psa03 value="0.0242290827" flag="0"/>
      <psa10 value="0.0047604300" flag="0"/>
      <psa30 value="0.0006957100" flag="0"/>
    </comp>
    <comp name="--.HHZ">
      <acc value="0.0093420697" flag="0"/>
      <vel value="0.0036231228" flag="0"/>
      <psa03 value="0.0213746064" flag="0"/>
      <psa10 value="0.0039210021" flag="0"/>
      <psa30 value="0.0007875208" flag="0"/>
    </comp>
    <comp name="--.HHN">
      <acc value="0.0120687538" flag="0"/>
      <vel value="0.0067133661" flag="0"/>
      <psa03 value="0.0316684428" flag="0"/>
      <psa10 value="0.0077160804" flag="0"/>
      <psa30 value="0.0005255517" flag="0"/>
    </comp>
  </station>
  <station code="GAZ" name="GAZ" netid="KO" insttype="CMG-3T" lat="37.1721" lon="37.2096">
    <comp name="--.HHE">
      <acc value="0.0143534338" flag="0"/>
      <vel value="0.0068073520" flag="0"/>
      <psa03 value="0.0366919137" flag="0"/>
      <psa10 value="0.0066919802" flag="0"/>
      <psa30 value="0.0005672699" flag="0"/>
    </comp>
    <comp name="--.HHN">
      <acc value="0.0144798007" flag="0"/>
      <vel value="0.0074155948" flag="0"/>
      <psa03 value="0.0671484429" flag="0"/>
      <psa10 value="0.0076855460" flag="0"/>
      <psa30 value="0.0007647839" flag="0"/>
    </comp>
    <comp name="--.HHZ">
      <acc value="0.0204355661" flag="0"/>
      <vel value="0.0110850759" flag="0"/>
      <psa03 value="0.0403766243" flag="0"/>
      <psa10 value="0.0053664167" flag="0"/>
      <psa30 value="0.0006709312" flag="0"/>
    </comp>
  </station>
  <station code="SARI" name="SARI" netid="KO" insttype="CMG-3T" lat="38.4072" lon="36.4181">
    <comp name="--.HHE">
      <acc value="0.2866319403" flag="0"/>
      <vel value="0.0916306806" flag="0"/>
      <psa03 value="0.5035613204" flag="0"/>
      <psa10 value="0.0736912610" flag="0"/>
      <psa30 value="0.0055286135" flag="0"/>
    </comp>
    <comp name="--.HHZ">
      <acc value="0.1016461977" flag="0"/>
      <vel value="0.0436386609" flag="0"/>
      <psa03 value="0.3552882085" flag="0"/>
      <psa10 value="0.0354217588" flag="0"/>
      <psa30 value="0.0026806010" flag="0"/>
    </comp>
  </station>
  <station code="ANDN" name="ANDN" netid="TU" insttype="T" lat="37.58" lon="36.3452">
    <comp name="--.HHN">
      <acc value="0.2691273726" flag="0"/>
      <vel value="0.0868040086" flag="0"/>
      <psa03 value="0.4453595159" flag="0"/>
      <psa10 value="0.1088748161" flag="0"/>
      <psa30 value="0.0053756180" flag="0"/>
    </comp>
    <comp name="--.HHZ">
      <acc value="0.1031776759" flag="0"/>
      <vel value="0.0589564008" flag="0"/>
      <psa03 value="0.2349094723" flag="0"/>
      <psa10 value="0.0888053858" flag="0"/>
      <psa30 value="0.0043130002" flag="0"/>
    </comp>
    <comp name="--.HHE">
      <acc value="0.1676090921" flag="0"/>
      <vel value="0.0999851032" flag="0"/>
      <psa03 value="0.2801812050" flag="0"/>
      <psa10 value="0.1039020616" flag="0"/>
      <psa30 value="0.0110764340" flag="0"/>
    </comp>
  </station>
</stationlist>
