<?xml version="1.0" encoding="UTF-8" standalone="yes"?>
<!DOCTYPE earthquake SYSTEM "stationlist.dtd">
<stationlist created="" xmlns="ch.ethz.sed.shakemap.usgs.xml">
  <station code="KARP" name="KARP" netid="GE" insttype="STS-2/N" commtype="DIG" lat="35.5471" lon="27.1611">
    <comp name="--.HHE">
      <acc value="0.1441234700" flag="0"/>
      <vel value="0.0365803131" flag="0"/>
      <psa03 value="0.1479139540" flag="0"/>
      <psa10 value="0.0136789527" flag="0"/>
      <psa30 value="0.0013549022" flag="0"/>
    </comp>
    <comp name="--.HHZ">
      <acc value="0.0713255345" flag="0"/>
      <vel value="0.0182355028" flag="0"/>
      <psa03 value="0.1261937849" flag="0"/>
      <psa10 value="0.0092526092" flag="0"/>
      <psa30 value="0.0006798202" flag="0"/>
    </comp>
    <comp name="--.HHN">
      <acc value="0.1545582682" flag="0"/>
      <vel value="0.0290824855" flag="0"/>
      <psa03 value="0.1799300077" flag="0"/>
      <psa10 value="0.0139020421" flag="0"/>
      <psa30 value="0.0009310561" flag="0"/>
    </comp>
  </station>
  <station code="ZKR" name="ZKR" netid="GE" insttype="STS-2/N" commtype="DIG" lat="35.1147" lon="26.2169">
    <comp name="--.HHE">
      <acc value="0.1033322312" flag="0"/>
      <vel value="0.0283996441" flag="0"/>
      <psa03 value="0.1642898283" flag="0"/>
      <psa10 value="0.0107403441" flag="0"/>
      <psa30 value="0.0010210401" flag="0"/>
    </comp>
    <comp name="--.HHZ">
      <acc value="0.0540429697" flag="0"/>
      <vel value="0.0134169518" flag="0"/>
      <psa03 value="0.0424571727" flag="0"/>
      <psa10 value="0.0065316552" flag="0"/>
      <psa30 value="0.0011176120" flag="0"/>
    </comp>
    <comp name="--.HHN">
      <acc value="0.0522800113" flag="0"/>
      <vel value="0.0148860713" flag="0"/>
      <psa03 value="0.0467128169" flag="0"/>
      <psa10 value="0.0062040852" flag="0"/>
      <psa30 value="0.0007221058" flag="0"/>
    </comp>
  </station>
</stationlist>
