<?xml version="1.0" encoding="UTF-8" standalone="yes"?>
<!DOCTYPE earthquake SYSTEM "stationlist.dtd">
<stationlist created="" xmlns="ch.ethz.sed.shakemap.usgs.xml">
  <station code="KARP" name="KARP" netid="GE" insttype="STS-2/N" commtype="DIG" lat="35.5471" lon="27.1611">
    <comp name="--.HHZ">
      <acc value="0.0713255346" flag="0"/>
      <vel value="0.0182355026" flag="0"/>
      <psa03 value="0.1261937849" flag="0"/>
      <psa10 value="0.0092526092" flag="0"/>
      <psa30 value="0.0006798309" flag="0"/>
    </comp>
    <comp name="--.HHE">
      <acc value="0.1441234700" flag="0"/>
      <vel value="0.0365803133" flag="0"/>
      <psa03 value="0.1479139540" flag="0"/>
      <psa10 value="0.0136789532" flag="0"/>
      <psa30 value="0.0013549616" flag="0"/>
    </comp>
    <comp name="--.HHN">
      <acc value="0.1545582683" flag="0"/>
      <vel value="0.0290824853" flag="0"/>
      <psa03 value="0.1799300077" flag="0"/>
      <psa10 value="0.0139020426" flag="0"/>
      <psa30 value="0.0009310530" flag="0"/>
    </comp>
  </station>
  <station code="ZKR" name="ZKR" netid="GE" insttype="STS-2/N" commtype="DIG" lat="35.1147" lon="26.2169">
    <comp name="--.HHZ">
      <acc value="0.0540429697" flag="0"/>
      <vel value="0.0134169523" flag="0"/>
      <psa03 value="0.0424571727" flag="0"/>
      <psa10 value="0.0065316552" flag="0"/>
      <psa30 value="0.0011175699" flag="0"/>
    </comp>
    <comp name="--.HHN">
      <acc value="0.0522800113" flag="0"/>
      <vel value="0.0148860716" flag="0"/>
      <psa03 value="0.0467128169" flag="0"/>
      <psa10 value="0.0062040858" flag="0"/>
      <psa30 value="0.0007220905" flag="0"/>
    </comp>
    <comp name="--.HHE">
      <acc value="0.1033322311" flag="0"/>
      <vel value="0.0283996442" flag="0"/>
      <psa03 value="0.1642898283" flag="0"/>
      <psa10 value="0.0107403446" flag="0"/>
      <psa30 value="0.0010209277" flag="0"/>
    </comp>
  </station>
  <station code="PFKS" name="PFKS" netid="HC" insttype="120" commtype="DIG" lat="35.0429" lon="25.4733">
    <comp name="--.HHZ">
      <acc value="0.0160779379" flag="0"/>
      <vel value="0.0046761947" flag="0"/>
      <psa03 value="0.0268679974" flag="0"/>
      <psa10 value="0.0027938032" flag="0"/>
      <psa30 value="0.0002519587" flag="0"/>
    </comp>
    <comp name="--.HHN">
      <acc value="0.0321057930" flag="0"/>
      <vel value="0.0116158849" flag="0"/>
      <psa03 value="0.0525703115" flag="0"/>
      <psa10 value="0.0045351354" flag="0"/>
      <psa30 value="0.0005841029" flag="0"/>
    </comp>
    <comp name="--.HHE">
      <acc value="0.0321544180" flag="0"/>
      <vel value="0.0126665546" flag="0"/>
      <psa03 value="0.0899799185" flag="0"/>
      <psa10 value="0.0068144125" flag="0"/>
      <psa30 value="0.0004738960" flag="0"/>
    </comp>
  </station>
  <station code="STIA" name="STIA" netid="HC" insttype="120" commtype="DIG" lat="35.2021" lon="26.0909">
    <comp name="--.HHE">
      <acc value="0.2210877153" flag="0"/>
      <vel value="0.0723214910" flag="0"/>
      <psa03 value="0.2737100821" flag="0"/>
      <psa10 value="0.0312420514" flag="0"/>
      <psa30 value="0.0016794591" flag="0"/>
    </comp>
    <comp name="--.HHZ">
      <acc value="0.1900936434" flag="0"/>
      <vel value="0.0498578743" flag="0"/>
      <psa03 value="0.2049392616" flag="0"/>
      <psa10 value="0.0123036120" flag="0"/>
      <psa30 value="0.0012497093" flag="0"/>
    </comp>
    <comp name="--.HHN">
      <acc value="0.1395100902" flag="0"/>
      <vel value="0.0870695075" flag="0"/>
      <psa03 value="0.3375990064" flag="0"/>
      <psa10 value="0.0476082058" flag="0"/>
      <psa30 value="0.0031249326" flag="0"/>
    </comp>
  </station>
  <station code="AGN1" name="AGN1" netid="HI" insttype="unknown" commtype="DIG" lat="35.1879" lon="25.7155">
    <comp name="--.HNZ">
      <acc value="0.0273950235" flag="0"/>
      <vel value="0.0110751359" flag="0"/>
      <psa03 value="0.0521944844" flag="0"/>
      <psa10 value="0.0030226431" flag="0"/>
      <psa30 value="0.0005973574" flag="0"/>
    </comp>
    <comp name="--.HNN">
      <acc value="0.0774812757" flag="0"/>
      <vel value="0.0248862590" flag="0"/>
      <psa03 value="0.1322151931" flag="0"/>
      <psa10 value="0.0050480667" flag="0"/>
      <psa30 value="0.0008637952" flag="0"/>
    </comp>
    <comp name="--.HNE">
      <acc value="0.0030067380" flag="0"/>
      <vel value="0.0028824932" flag="0"/>
      <psa03 value="0.0046182954" flag="0"/>
      <psa10 value="0.0022344581" flag="0"/>
      <psa30 value="0.0015569723" flag="0"/>
    </comp>
  </station>
  <station code="ARK1" name="ARK1" netid="HI" insttype="unknown" commtype="DIG" lat="35.1488" lon="25.2642">
    <comp name="--.HNE">
      <acc value="0.0232636831" flag="0"/>
      <vel value="0.0101289529" flag="0"/>
      <psa03 value="0.0479122447" flag="0"/>
      <psa10 value="0.0068837333" flag="0"/>
      <psa30 value="0.0008434814" flag="0"/>
    </comp>
    <comp name="--.HNZ">
      <acc value="0.0207544614" flag="0"/>
      <vel value="0.0077571305" flag="0"/>
      <psa03 value="0.0510595303" flag="0"/>
      <psa10 value="0.0078839968" flag="0"/>
      <psa30 value="0.0005339685" flag="0"/>
    </comp>
    <comp name="--.HNN">
      <acc value="0.0270499744" flag="0"/>
      <vel value="0.0117446900" flag="0"/>
      <psa03 value="0.0499366537" flag="0"/>
      <psa10 value="0.0097847613" flag="0"/>
      <psa30 value="0.0009317294" flag="0"/>
    </comp>
  </station>
  <station code="KSS1" name="KSS1" netid="HI" insttype="CMG-5TD,ACCELEROMETER,GURALP" commtype="DIG" lat="35.4189" lon="26.9207">
    <comp name="--.HNN">
      <acc value="0.1239617579" flag="0"/>
      <vel value="0.0546678241" flag="0"/>
      <psa03 value="0.2725173787" flag="0"/>
      <psa10 value="0.0443519513" flag="0"/>
      <psa30 value="0.0034767059" flag="0"/>
    </comp>
    <comp name="--.HNE">
      <acc value="0.0879559012" flag="0"/>
      <vel value="0.0270585687" flag="0"/>
      <psa03 value="0.2542184335" flag="0"/>
      <psa10 value="0.0127096940" flag="0"/>
      <psa30 value="0.0019634933" flag="0"/>
    </comp>
    <comp name="--.HNZ">
      <acc value="0.0952047686" flag="0"/>
      <vel value="0.0213717520" flag="0"/>
      <psa03 value="0.0542697624" flag="0"/>
      <psa10 value="0.0242080845" flag="0"/>
      <psa30 value="0.0020415553" flag="0"/>
    </comp>
  </station>
  <station code="KTL1" name="KTL1" netid="HI" insttype="unknown" commtype="DIG" lat="35.2078" lon="25.3427">
    <comp name="--.HNN">
      <acc value="0.0386016383" flag="0"/>
      <vel value="0.0160301196" flag="0"/>
      <psa03 value="0.1322549433" flag="0"/>
      <psa10 value="0.0096311355" flag="0"/>
      <psa30 value="0.0004842116" flag="0"/>
    </comp>
    <comp name="--.HNZ">
      <acc value="0.0228206174" flag="0"/>
      <vel value="0.0065196981" flag="0"/>
      <psa03 value="0.0454904866" flag="0"/>
      <psa10 value="0.0045655536" flag="0"/>
      <psa30 value="0.0003232310" flag="0"/>
    </comp>
    <comp name="--.HNE">
      <acc value="0.0254545779" flag="0"/>
      <vel value="0.0102614033" flag="0"/>
      <psa03 value="0.0533233239" flag="0"/>
      <psa10 value="0.0088219045" flag="0"/>
      <psa30 value="0.0005772611" flag="0"/>
    </comp>
  </station>
  <station code="SIT2" name="SIT2" netid="HI" insttype="CMG-5TD,ACCELEROMETER,GURALP" commtype="DIG" lat="35.2059" lon="26.107">
    <comp name="--.HNN">
      <acc value="0.3005121238" flag="0"/>
      <vel value="0.1986206476" flag="0"/>
      <psa03 value="0.9642105336" flag="0"/>
      <psa10 value="0.0999614002" flag="0"/>
      <psa30 value="0.0066667832" flag="0"/>
    </comp>
    <comp name="--.HNE">
      <acc value="0.2509671943" flag="0"/>
      <vel value="0.1045502015" flag="0"/>
      <psa03 value="0.7227954567" flag="0"/>
      <psa10 value="0.0518156478" flag="0"/>
      <psa30 value="0.0030212873" flag="0"/>
    </comp>
    <comp name="--.HNZ">
      <acc value="0.2048082535" flag="0"/>
      <vel value="0.0712449130" flag="0"/>
      <psa03 value="0.5271392336" flag="0"/>
      <psa10 value="0.0173775481" flag="0"/>
      <psa30 value="0.0020441236" flag="0"/>
    </comp>
  </station>
  <station code="KARP" name="KARP" netid="HL" insttype="120" commtype="DIG" lat="35.5471" lon="27.1611">
    <comp name="--.HHZ">
      <acc value="0.0642516383" flag="0"/>
      <vel value="0.0177622070" flag="0"/>
      <psa03 value="0.1229576780" flag="0"/>
      <psa10 value="0.0091689863" flag="0"/>
      <psa30 value="0.0006764541" flag="0"/>
    </comp>
    <comp name="--.HHN">
      <acc value="0.1491752943" flag="0"/>
      <vel value="0.0281904657" flag="0"/>
      <psa03 value="0.1760971760" flag="0"/>
      <psa10 value="0.0137820194" flag="0"/>
      <psa30 value="0.0009249830" flag="0"/>
    </comp>
    <comp name="--.HHE">
      <acc value="0.1338587419" flag="0"/>
      <vel value="0.0352393988" flag="0"/>
      <psa03 value="0.1435211957" flag="0"/>
      <psa10 value="0.0135017308" flag="0"/>
      <psa30 value="0.0013468779" flag="0"/>
    </comp>
  </station>
</stationlist>
