<?xml version="1.0" encoding="UTF-8" standalone="yes"?>
<!DOCTYPE earthquake SYSTEM "stationlist.dtd">
<stationlist created="" xmlns="ch.ethz.sed.shakemap.usgs.xml">
  <station code="ARPRA" name="ARPRA" netid="KO" insttype="CMG-5T" lat="39.0929" lon="38.3356">
    <comp name="--.HNE">
      <acc value="0.0185924095" flag="0"/>
      <vel value="0.0157558543" flag="0"/>
      <psa03 value="0.0425895460" flag="0"/>
      <psa10 value="0.0187255803" flag="0"/>
      <psa30 value="0.0016160555" flag="0"/>
    </comp>
    <comp name="--.HNN">
      <acc value="0.0173867362" flag="0"/>
      <vel value="0.0131400988" flag="0"/>
      <psa03 value="0.0834370389" flag="0"/>
      <psa10 value="0.0149691035" flag="0"/>
      <psa30 value="0.0019240369" flag="0"/>
    </comp>
    <comp name="--.HNZ">
      <acc value="0.0119114114" flag="0"/>
      <vel value="0.0082609270" flag="0"/>
      <psa03 value="0.0269729250" flag="0"/>
      <psa10 value="0.0119872377" flag="0"/>
      <psa30 value="0.0019706377" flag="0"/>
    </comp>
  </station>
  <station code="SVRC" name="SVRC" netid="KO" insttype="CMG-3T" lat="38.3775" lon="39.306">
    <comp name="--.HHZ">
      <acc value="0.0072999047" flag="0"/>
      <vel value="0.0060766938" flag="0"/>
      <psa03 value="0.0151640495" flag="0"/>
      <psa10 value="0.0066356447" flag="0"/>
      <psa30 value="0.0022558033" flag="0"/>
    </comp>
    <comp name="--.HHE">
      <acc value="0.0137611033" flag="0"/>
      <vel value="0.0098556681" flag="0"/>
      <psa03 value="0.0507050158" flag="0"/>
      <psa10 value="0.0097680798" flag="0"/>
      <psa30 value="0.0016203325" flag="0"/>
    </comp>
    <comp name="--.HHN">
      <acc value="0.0115291288" flag="0"/>
      <vel value="0.0078464974" flag="0"/>
      <psa03 value="0.0352673659" flag="0"/>
      <psa10 value="0.0108265863" flag="0"/>
      <psa30 value="0.0028973375" flag="0"/>
    </comp>
  </station>
  <station code="URFA" name="URFA" netid="KO" insttype="CMG-3ESP" lat="37.4409" lon="38.8213">
    <comp name="--.HHZ">
      <acc value="0.0237583212" flag="0"/>
      <vel value="0.0096128097" flag="0"/>
      <psa03 value="0.0293044998" flag="0"/>
      <psa10 value="0.0132795220" flag="0"/>
      <psa30 value="0.0038207827" flag="0"/>
    </comp>
    <comp name="--.HHN">
      <acc value="0.0400062049" flag="0"/>
      <vel value="0.0112419570" flag="0"/>
      <psa03 value="0.0433847315" flag="0"/>
      <psa10 value="0.0141603910" flag="0"/>
      <psa30 value="0.0026739278" flag="0"/>
    </comp>
    <comp name="--.HHE">
      <acc value="0.0456485449" flag="0"/>
      <vel value="0.0137441558" flag="0"/>
      <psa03 value="0.0491997245" flag="0"/>
      <psa10 value="0.0111453013" flag="0"/>
      <psa30 value="0.0087171896" flag="0"/>
    </comp>
  </station>
</stationlist>
