<?xml version="1.0" encoding="UTF-8" standalone="yes"?>
<!DOCTYPE earthquake SYSTEM "stationlist.dtd">
<stationlist created="" xmlns="ch.ethz.sed.shakemap.usgs.xml">
  <station code="AKS" name="AKS" netid="KO" insttype="CMG-5T" commtype="DIG" lat="38.8785" lon="27.8129">
    <comp name="--.HNE">
      <acc value="0.0740133824" flag="0"/>
      <vel value="0.0354084250" flag="0"/>
      <psa03 value="0.2568774504" flag="0"/>
      <psa10 value="0.0333926575" flag="0"/>
      <psa30 value="0.0032281673" flag="0"/>
    </comp>
    <comp name="--.HNZ">
      <acc value="0.0458277556" flag="0"/>
      <vel value="0.0156701643" flag="0"/>
      <psa03 value="0.0742494168" flag="0"/>
      <psa10 value="0.0142029734" flag="0"/>
      <psa30 value="0.0020042654" flag="0"/>
    </comp>
    <comp name="--.HNN">
      <acc value="0.0996216110" flag="0"/>
      <vel value="0.0440279098" flag="0"/>
      <psa03 value="0.2097697243" flag="0"/>
      <psa10 value="0.0262388667" flag="0"/>
      <psa30 value="0.0037355682" flag="0"/>
    </comp>
  </station>
  <station code="ARMT" name="ARMT" netid="KO" insttype="CMG-3ESP" commtype="DIG" lat="40.5683" lon="28.866">
    <comp name="--.HHN">
      <acc value="0.0932100498" flag="0"/>
      <vel value="0.0386219922" flag="0"/>
      <psa03 value="0.2011791815" flag="0"/>
      <psa10 value="0.0151697058" flag="0"/>
      <psa30 value="0.0013374601" flag="0"/>
    </comp>
    <comp name="--.HHE">
      <acc value="0.0603458383" flag="0"/>
      <vel value="0.0245455922" flag="0"/>
      <psa03 value="0.1315026379" flag="0"/>
      <psa10 value="0.0177082079" flag="0"/>
      <psa30 value="0.0021038954" flag="0"/>
    </comp>
  </station>
  <station code="DST" name="DST" netid="KO" insttype="CMG-5T" commtype="DIG" lat="39.6041" lon="28.6267">
    <comp name="--.HNN">
      <acc value="0.1289487296" flag="0"/>
      <vel value="0.0347106055" flag="0"/>
      <psa03 value="0.1943981062" flag="0"/>
      <psa10 value="0.0228160450" flag="0"/>
      <psa30 value="0.0020290520" flag="0"/>
    </comp>
    <comp name="--.HNZ">
      <acc value="0.1221971883" flag="0"/>
      <vel value="0.0304382228" flag="0"/>
      <psa03 value="0.1442761365" flag="0"/>
      <psa10 value="0.0141860184" flag="0"/>
      <psa30 value="0.0013362535" flag="0"/>
    </comp>
  </station>
  <station code="GEDZ" name="GEDZ" netid="KO" insttype="CMG-6T" commtype="DIG" lat="39.0445" lon="29.4105">
    <comp name="--.HHE">
      <acc value="0.4745045939" flag="0"/>
      <vel value="0.1632411911" flag="0"/>
      <psa03 value="0.7623545111" flag="0"/>
      <psa10 value="0.2618323306" flag="0"/>
      <psa30 value="0.0090499219" flag="0"/>
    </comp>
    <comp name="--.HHN">
      <acc value="0.6991595326" flag="0"/>
      <vel value="0.1831776161" flag="0"/>
      <psa03 value="1.2124885004" flag="0"/>
      <psa10 value="0.2014529223" flag="0"/>
      <psa30 value="0.0117758493" flag="0"/>
    </comp>
    <comp name="--.HHZ">
      <acc value="0.3021903951" flag="0"/>
      <vel value="0.0718397113" flag="0"/>
      <psa03 value="0.2792964643" flag="0"/>
      <psa10 value="0.0406915999" flag="0"/>
      <psa30 value="0.0026809949" flag="0"/>
    </comp>
  </station>
  <station code="GOMA" name="GOMA" netid="KO" insttype="CMG-5T" commtype="DIG" lat="38.7077" lon="27.9175">
    <comp name="--.HNE">
      <acc value="0.0903330294" flag="0"/>
      <vel value="0.0388063437" flag="0"/>
      <psa03 value="0.4298054186" flag="0"/>
      <psa10 value="0.0251638347" flag="0"/>
      <psa30 value="0.0033077801" flag="0"/>
    </comp>
    <comp name="--.HNZ">
      <acc value="0.0558219701" flag="0"/>
      <vel value="0.0202055825" flag="0"/>
      <psa03 value="0.0896905497" flag="0"/>
      <psa10 value="0.0236499970" flag="0"/>
      <psa30 value="0.0031625386" flag="0"/>
    </comp>
    <comp name="--.HNN">
      <acc value="0.1009901113" flag="0"/>
      <vel value="0.0527964448" flag="0"/>
      <psa03 value="0.3151177003" flag="0"/>
      <psa10 value="0.0295140819" flag="0"/>
      <psa30 value="0.0027760537" flag="0"/>
    </comp>
  </station>
  <station code="GORD" name="GORD" netid="KO" insttype="CMG-5T" commtype="DIG" lat="38.9088" lon="28.1769">
    <comp name="--.HNE">
      <acc value="0.0902882813" flag="0"/>
      <vel value="0.0703452546" flag="0"/>
      <psa03 value="0.2894440750" flag="0"/>
      <psa10 value="0.1135266907" flag="0"/>
      <psa30 value="0.0056364628" flag="0"/>
    </comp>
    <comp name="--.HNN">
      <acc value="0.0951048588" flag="0"/>
      <vel value="0.0690151803" flag="0"/>
      <psa03 value="0.1880795450" flag="0"/>
      <psa10 value="0.1135708768" flag="0"/>
      <psa30 value="0.0083261638" flag="0"/>
    </comp>
    <comp name="--.HNZ">
      <acc value="0.0641697127" flag="0"/>
      <vel value="0.0480039004" flag="0"/>
      <psa03 value="0.1509842407" flag="0"/>
      <psa10 value="0.0379228274" flag="0"/>
      <psa30 value="0.0030013212" flag="0"/>
    </comp>
  </station>
  <station code="NAZL" name="NAZL" netid="KO" insttype="CMG-5T" commtype="DIG" lat="37.9641" lon="28.2922">
    <comp name="--.HNE">
      <acc value="0.0212361320" flag="0"/>
      <vel value="0.0122465136" flag="0"/>
      <psa03 value="0.0549346437" flag="0"/>
      <psa10 value="0.0318193448" flag="0"/>
      <psa30 value="0.0016042551" flag="0"/>
    </comp>
    <comp name="--.HNN">
      <acc value="0.0267150111" flag="0"/>
      <vel value="0.0125376992" flag="0"/>
      <psa03 value="0.0689983421" flag="0"/>
      <psa10 value="0.0178993567" flag="0"/>
      <psa30 value="0.0013561004" flag="0"/>
    </comp>
    <comp name="--.HNZ">
      <acc value="0.0119171522" flag="0"/>
      <vel value="0.0062877890" flag="0"/>
      <psa03 value="0.0420089831" flag="0"/>
      <psa10 value="0.0090923943" flag="0"/>
      <psa30 value="0.0012145447" flag="0"/>
    </comp>
  </station>
  <station code="ODEM" name="ODEM" netid="KO" insttype="CMG-5T" commtype="DIG" lat="38.2762" lon="28.0747">
    <comp name="--.HNE">
      <acc value="0.0190682613" flag="0"/>
      <vel value="0.0131657394" flag="0"/>
      <psa03 value="0.0487583119" flag="0"/>
      <psa10 value="0.0107160255" flag="0"/>
      <psa30 value="0.0041557580" flag="0"/>
    </comp>
    <comp name="--.HNN">
      <acc value="0.0140829479" flag="0"/>
      <vel value="0.0106164324" flag="0"/>
      <psa03 value="0.0392766785" flag="0"/>
      <psa10 value="0.0105398407" flag="0"/>
      <psa30 value="0.0025209745" flag="0"/>
    </comp>
    <comp name="--.HNZ">
      <acc value="0.0118360628" flag="0"/>
      <vel value="0.0080799882" flag="0"/>
      <psa03 value="0.0248946888" flag="0"/>
      <psa10 value="0.0092550092" flag="0"/>
      <psa30 value="0.0020998917" flag="0"/>
    </comp>
  </station>
  <station code="SHAP" name="SHAP" netid="KO" insttype="CMG-5T" commtype="DIG" lat="39.0231" lon="29.222">
    <comp name="--.HNE">
      <acc value="0.9650506230" flag="0"/>
      <vel value="0.3262247116" flag="0"/>
      <psa03 value="1.7931724166" flag="0"/>
      <psa10 value="0.1041786604" flag="0"/>
      <psa30 value="0.0115522961" flag="0"/>
    </comp>
    <comp name="--.HNN">
      <acc value="0.9759225813" flag="0"/>
      <vel value="0.2770164641" flag="0"/>
      <psa03 value="1.5550311161" flag="0"/>
      <psa10 value="0.1466658811" flag="0"/>
      <psa30 value="0.0116163920" flag="0"/>
    </comp>
    <comp name="--.HNZ">
      <acc value="0.5143588272" flag="0"/>
      <vel value="0.1223591052" flag="0"/>
      <psa03 value="0.3755626908" flag="0"/>
      <psa10 value="0.0807033472" flag="0"/>
      <psa30 value="0.0064605530" flag="0"/>
    </comp>
  </station>
  <station code="SMAA" name="SMAA" netid="KO" insttype="CMG-5T" commtype="DIG" lat="39.1005" lon="28.9805">
    <comp name="--.HNN">
      <acc value="1.4540305914" flag="0"/>
      <vel value="1.2003546597" flag="0"/>
      <psa03 value="1.8130497069" flag="0"/>
      <psa10 value="1.8672546373" flag="0"/>
      <psa30 value="0.1138126650" flag="0"/>
    </comp>
    <comp name="--.HNE">
      <acc value="1.6763350988" flag="0"/>
      <vel value="1.2844367303" flag="0"/>
      <psa03 value="3.1256094716" flag="0"/>
      <psa10 value="1.5350607311" flag="0"/>
      <psa30 value="0.0886466879" flag="0"/>
    </comp>
    <comp name="--.HNZ">
      <acc value="1.6719636975" flag="0"/>
      <vel value="0.4935630369" flag="0"/>
      <psa03 value="0.9720322425" flag="0"/>
      <psa10 value="0.9659264239" flag="0"/>
      <psa30 value="0.0386474592" flag="0"/>
    </comp>
  </station>
  <station code="SOMA" name="SOMA" netid="KO" insttype="CMG-5T" commtype="DIG" lat="39.1564" lon="27.5341">
    <comp name="--.HNN">
      <acc value="0.0956745082" flag="0"/>
      <vel value="0.0349484299" flag="0"/>
      <psa03 value="0.3030883065" flag="0"/>
      <psa10 value="0.0416208695" flag="0"/>
      <psa30 value="0.0023464329" flag="0"/>
    </comp>
    <comp name="--.HNZ">
      <acc value="0.0604737815" flag="0"/>
      <vel value="0.0403754559" flag="0"/>
      <psa03 value="0.1561744556" flag="0"/>
      <psa10 value="0.0228458318" flag="0"/>
      <psa30 value="0.0023758865" flag="0"/>
    </comp>
    <comp name="--.HNE">
      <acc value="0.0857697044" flag="0"/>
      <vel value="0.0340586794" flag="0"/>
      <psa03 value="0.1848416914" flag="0"/>
      <psa10 value="0.0228902273" flag="0"/>
      <psa30 value="0.0031386309" flag="0"/>
    </comp>
  </station>
  <station code="SUSR" name="SUSR" netid="KO" insttype="CMG-5T" commtype="DIG" lat="39.9627" lon="28.0835">
    <comp name="--.HNE">
      <acc value="0.1788781682" flag="0"/>
      <vel value="0.0393014973" flag="0"/>
      <psa03 value="0.2441511487" flag="0"/>
      <psa10 value="0.0160729411" flag="0"/>
      <psa30 value="0.0015244422" flag="0"/>
    </comp>
    <comp name="--.HNN">
      <acc value="0.1514561756" flag="0"/>
      <vel value="0.0527311153" flag="0"/>
      <psa03 value="0.3219010661" flag="0"/>
      <psa10 value="0.0213861630" flag="0"/>
      <psa30 value="0.0022649729" flag="0"/>
    </comp>
    <comp name="--.HNZ">
      <acc value="0.0942096682" flag="0"/>
      <vel value="0.0221036730" flag="0"/>
      <psa03 value="0.1522774654" flag="0"/>
      <psa10 value="0.0083490147" flag="0"/>
      <psa30 value="0.0007859812" flag="0"/>
    </comp>
  </station>
  <station code="TVSB" name="TVSB" netid="KO" insttype="CMG-3T" commtype="DIG" lat="39.4497" lon="29.4615">
    <comp name="--.HHE">
      <acc value="0.3920966217" flag="0"/>
      <vel value="0.1152380656" flag="0"/>
      <psa03 value="0.8365484467" flag="0"/>
      <psa10 value="0.0406508816" flag="0"/>
      <psa30 value="0.0057202725" flag="0"/>
    </comp>
    <comp name="--.HHZ">
      <acc value="0.1798485294" flag="0"/>
      <vel value="0.0760861725" flag="0"/>
      <psa03 value="0.2815391241" flag="0"/>
      <psa10 value="0.0461095708" flag="0"/>
      <psa30 value="0.0063977332" flag="0"/>
    </comp>
    <comp name="--.HHN">
      <acc value="0.5571230110" flag="0"/>
      <vel value="0.1069848592" flag="0"/>
      <psa03 value="0.5670212707" flag="0"/>
      <psa10 value="0.0353035099" flag="0"/>
      <psa30 value="0.0053677693" flag="0"/>
    </comp>
  </station>
</stationlist>
