<?xml version="1.0" encoding="UTF-8" standalone="yes"?>
<!DOCTYPE earthquake SYSTEM "stationlist.dtd">
<stationlist created="" xmlns="ch.ethz.sed.shakemap.usgs.xml">
  <station code="APE" name="APE" netid="GE" insttype="STS-2/N" lat="37.0727" lon="25.523">
    <comp name="--.HHE">
      <acc value="0.1365270588" flag="0"/>
      <vel value="0.0340974468" flag="0"/>
      <psa03 value="0.1544566180" flag="0"/>
      <psa10 value="0.0090263311" flag="0"/>
      <psa30 value="0.0011060270" flag="0"/>
    </comp>
    <comp name="--.HHZ">
      <acc value="0.0609732011" flag="0"/>
      <vel value="0.0097713389" flag="0"/>
      <psa03 value="0.0469583921" flag="0"/>
      <psa10 value="0.0077028255" flag="0"/>
      <psa30 value="0.0006770878" flag="0"/>
    </comp>
    <comp name="--.HHN">
      <acc value="0.1577981852" flag="0"/>
      <vel value="0.0301287991" flag="0"/>
      <psa03 value="0.0881445544" flag="0"/>
      <psa10 value="0.0068294918" flag="0"/>
      <psa30 value="0.0009636188" flag="0"/>
    </comp>
  </station>
  <station code="THERA" name="THERA" netid="GE" insttype="STS-2/N" lat="36.367" lon="25.4753">
    <comp name="--.HHZ">
      <acc value="0.1401078407" flag="0"/>
      <vel value="0.0390354511" flag="0"/>
      <psa03 value="0.1743436630" flag="0"/>
      <psa10 value="0.0219876914" flag="0"/>
      <psa30 value="0.0014441030" flag="0"/>
    </comp>
    <comp name="--.HHN">
      <acc value="0.1535639742" flag="0"/>
      <vel value="0.0373619856" flag="0"/>
      <psa03 value="0.1584411038" flag="0"/>
      <psa10 value="0.0096216043" flag="0"/>
      <psa30 value="0.0008045348" flag="0"/>
    </comp>
    <comp name="--.HHE">
      <acc value="0.2133327921" flag="0"/>
      <vel value="0.0505720254" flag="0"/>
      <psa03 value="0.2448526436" flag="0"/>
      <psa10 value="0.0209870985" flag="0"/>
      <psa30 value="0.0019274947" flag="0"/>
    </comp>
  </station>
</stationlist>
