<?xml version="1.0" encoding="UTF-8" standalone="yes"?>
<!DOCTYPE earthquake SYSTEM "stationlist.dtd">
<stationlist created="" xmlns="ch.ethz.sed.shakemap.usgs.xml">
  <station code="APE" name="APE" netid="GE" insttype="STS-2/N" lat="37.0727" lon="25.523">
    <comp name="--.HHE">
      <acc value="0.0611759525" flag="0"/>
      <vel value="0.0104881221" flag="0"/>
      <psa03 value="0.0299597930" flag="0"/>
      <psa10 value="0.0020092247" flag="0"/>
      <psa30 value="0.0002146438" flag="0"/>
    </comp>
    <comp name="--.HHN">
      <acc value="0.0998924686" flag="0"/>
      <vel value="0.0198196357" flag="0"/>
      <psa03 value="0.0639968166" flag="0"/>
      <psa10 value="0.0032926253" flag="0"/>
      <psa30 value="0.0003198251" flag="0"/>
    </comp>
    <comp name="--.HHZ">
      <acc value="0.0340326459" flag="0"/>
      <vel value="0.0066486175" flag="0"/>
      <psa03 value="0.0225835383" flag="0"/>
      <psa10 value="0.0017847100" flag="0"/>
      <psa30 value="0.0002760221" flag="0"/>
    </comp>
  </station>
  <station code="THERA" name="THERA" netid="GE" insttype="STS-2/N" lat="36.367" lon="25.4753">
    <comp name="--.HHN">
      <acc value="0.0287605925" flag="0"/>
      <vel value="0.0071782182" flag="0"/>
      <psa03 value="0.0442531636" flag="0"/>
      <psa10 value="0.0020480788" flag="0"/>
      <psa30 value="0.0001381496" flag="0"/>
    </comp>
    <comp name="--.HHE">
      <acc value="0.0404798033" flag="0"/>
      <vel value="0.0094506614" flag="0"/>
      <psa03 value="0.0427651237" flag="0"/>
      <psa10 value="0.0031324756" flag="0"/>
      <psa30 value="0.0002650106" flag="0"/>
    </comp>
    <comp name="--.HHZ">
      <acc value="0.0272997147" flag="0"/>
      <vel value="0.0053077467" flag="0"/>
      <psa03 value="0.0229641851" flag="0"/>
      <psa10 value="0.0016564404" flag="0"/>
      <psa30 value="0.0001575849" flag="0"/>
    </comp>
  </station>
</stationlist>
