<?xml version="1.0" encoding="UTF-8" standalone="yes"?>
<!DOCTYPE earthquake SYSTEM "stationlist.dtd">
<stationlist created="" xmlns="ch.ethz.sed.shakemap.usgs.xml">
  <station code="APE" name="APE" netid="GE" insttype="STS-2/N" lat="37.0727" lon="25.523">
    <comp name="--.HHE">
      <acc value="0.0611759525" flag="0"/>
      <vel value="0.0104881221" flag="0"/>
      <psa03 value="0.0299597930" flag="0"/>
      <psa10 value="0.0020092247" flag="0"/>
      <psa30 value="0.0002146438" flag="0"/>
    </comp>
    <comp name="--.HHN">
      <acc value="0.0998924686" flag="0"/>
      <vel value="0.0198196357" flag="0"/>
      <psa03 value="0.0639968166" flag="0"/>
      <psa10 value="0.0032926253" flag="0"/>
      <psa30 value="0.0003198251" flag="0"/>
    </comp>
    <comp name="--.HHZ">
      <acc value="0.0340326459" flag="0"/>
      <vel value="0.0066486175" flag="0"/>
      <psa03 value="0.0225835383" flag="0"/>
      <psa10 value="0.0017847100" flag="0"/>
      <psa30 value="0.0002760221" flag="0"/>
    </comp>
  </station>
  <station code="THERA" name="THERA" netid="GE" insttype="STS-2/N" lat="36.367" lon="25.4753">
    <comp name="--.HHN">
      <acc value="0.0287605925" flag="0"/>
      <vel value="0.0071782182" flag="0"/>
      <psa03 value="0.0442531636" flag="0"/>
      <psa10 value="0.0020480788" flag="0"/>
      <psa30 value="0.0001381496" flag="0"/>
    </comp>
    <comp name="--.HHE">
      <acc value="0.0404798033" flag="0"/>
      <vel value="0.0094506614" flag="0"/>
      <psa03 value="0.0427651237" flag="0"/>
      <psa10 value="0.0031324756" flag="0"/>
      <psa30 value="0.0002650106" flag="0"/>
    </comp>
    <comp name="--.HHZ">
      <acc value="0.0272997147" flag="0"/>
      <vel value="0.0053077467" flag="0"/>
      <psa03 value="0.0229641851" flag="0"/>
      <psa10 value="0.0016564404" flag="0"/>
      <psa30 value="0.0001575849" flag="0"/>
    </comp>
  </station>
  <station code="SNT1" name="SNT1" netid="HA" insttype="30" lat="36.4159" lon="25.4282">
    <comp name="--.HHE">
      <acc value="0.0331072320" flag="0"/>
      <vel value="0.0082966570" flag="0"/>
      <psa03 value="0.0324968660" flag="0"/>
      <psa10 value="0.0060196313" flag="0"/>
      <psa30 value="0.0004041754" flag="0"/>
    </comp>
    <comp name="--.HHN">
      <acc value="0.0333923030" flag="0"/>
      <vel value="0.0079619640" flag="0"/>
      <psa03 value="0.0335301068" flag="0"/>
      <psa10 value="0.0063238755" flag="0"/>
      <psa30 value="0.0003120764" flag="0"/>
    </comp>
    <comp name="--.HHZ">
      <acc value="0.0223316694" flag="0"/>
      <vel value="0.0051006017" flag="0"/>
      <psa03 value="0.0224759053" flag="0"/>
      <psa10 value="0.0041112116" flag="0"/>
      <psa30 value="0.0002553061" flag="0"/>
    </comp>
  </station>
  <station code="SNT5" name="SNT5" netid="HA" insttype="1s-100Hz," lat="36.4037" lon="25.3953">
    <comp name="--.HHE">
      <acc value="0.1516306382" flag="0"/>
      <vel value="0.0330696175" flag="0"/>
      <psa03 value="0.0942597359" flag="0"/>
      <psa10 value="0.0083499536" flag="0"/>
      <psa30 value="0.0006172703" flag="0"/>
    </comp>
    <comp name="--.HHZ">
      <acc value="0.0542573370" flag="0"/>
      <vel value="0.0083012216" flag="0"/>
      <psa03 value="0.0212847166" flag="0"/>
      <psa10 value="0.0019050615" flag="0"/>
      <psa30 value="0.0001361006" flag="0"/>
    </comp>
    <comp name="--.HHN">
      <acc value="0.1097171722" flag="0"/>
      <vel value="0.0242512222" flag="0"/>
      <psa03 value="0.0832708640" flag="0"/>
      <psa10 value="0.0039173602" flag="0"/>
      <psa30 value="0.0004434572" flag="0"/>
    </comp>
  </station>
  <station code="NAX1" name="NAX1" netid="HI" insttype="CMG-5TD,ACCELEROMETER,GURALP" lat="37.1014" lon="25.3741">
    <comp name="--.HNN">
      <acc value="0.0430704277" flag="0"/>
      <vel value="0.0103997090" flag="0"/>
      <psa03 value="0.0255149296" flag="0"/>
      <psa10 value="0.0021140943" flag="0"/>
      <psa30 value="0.0002694081" flag="0"/>
    </comp>
    <comp name="--.HNE">
      <acc value="0.0681359187" flag="0"/>
      <vel value="0.0122406048" flag="0"/>
      <psa03 value="0.0309276789" flag="0"/>
      <psa10 value="0.0015562042" flag="0"/>
      <psa30 value="0.0001724552" flag="0"/>
    </comp>
    <comp name="--.HNZ">
      <acc value="0.0240231282" flag="0"/>
      <vel value="0.0048784372" flag="0"/>
      <psa03 value="0.0205679468" flag="0"/>
      <psa10 value="0.0014072388" flag="0"/>
      <psa30 value="0.0002390769" flag="0"/>
    </comp>
  </station>
  <station code="SFR2" name="SFR2" netid="HI" insttype="unknown" lat="36.3998" lon="25.4382">
    <comp name="--.HNN">
      <acc value="0.0692024887" flag="0"/>
      <vel value="0.0220314770" flag="0"/>
      <psa03 value="0.1675424062" flag="0"/>
      <psa10 value="0.0118743670" flag="0"/>
      <psa30 value="0.0006681121" flag="0"/>
    </comp>
    <comp name="--.HNE">
      <acc value="0.0689272714" flag="0"/>
      <vel value="0.0281004904" flag="0"/>
      <psa03 value="0.1678095678" flag="0"/>
      <psa10 value="0.0095393455" flag="0"/>
      <psa30 value="0.0007604171" flag="0"/>
    </comp>
    <comp name="--.HNZ">
      <acc value="0.1120257480" flag="0"/>
      <vel value="0.0250426792" flag="0"/>
      <psa03 value="0.1272764196" flag="0"/>
      <psa10 value="0.0053789678" flag="0"/>
      <psa30 value="0.0004232841" flag="0"/>
    </comp>
  </station>
  <station code="AMGA" name="AMGA" netid="HL" insttype="SMART24" lat="36.8316" lon="25.8938">
    <comp name="--.HHN">
      <acc value="0.4146658625" flag="0"/>
      <vel value="0.0686728467" flag="0"/>
      <psa03 value="0.2733617125" flag="0"/>
      <psa10 value="0.0198612577" flag="0"/>
      <psa30 value="0.0015063441" flag="0"/>
    </comp>
    <comp name="--.HHZ">
      <acc value="0.2836731962" flag="0"/>
      <vel value="0.0503105119" flag="0"/>
      <psa03 value="0.0943823280" flag="0"/>
      <psa10 value="0.0082924421" flag="0"/>
      <psa30 value="0.0006791789" flag="0"/>
    </comp>
    <comp name="--.HHE">
      <acc value="0.2811617493" flag="0"/>
      <vel value="0.0603744182" flag="0"/>
      <psa03 value="0.2473977375" flag="0"/>
      <psa10 value="0.0112350756" flag="0"/>
      <psa30 value="0.0012098454" flag="0"/>
    </comp>
  </station>
  <station code="APE" name="APE" netid="HL" insttype="120" lat="37.0727" lon="25.523">
    <comp name="--.HHE">
      <acc value="0.0559409009" flag="0"/>
      <vel value="0.0096662110" flag="0"/>
      <psa03 value="0.0291551138" flag="0"/>
      <psa10 value="0.0019668008" flag="0"/>
      <psa30 value="0.0002107088" flag="0"/>
    </comp>
    <comp name="--.HHZ">
      <acc value="0.0327380754" flag="0"/>
      <vel value="0.0063598892" flag="0"/>
      <psa03 value="0.0220410719" flag="0"/>
      <psa10 value="0.0017524469" flag="0"/>
      <psa30 value="0.0002744733" flag="0"/>
    </comp>
    <comp name="--.HHN">
      <acc value="0.0914364958" flag="0"/>
      <vel value="0.0190997466" flag="0"/>
      <psa03 value="0.0623415952" flag="0"/>
      <psa10 value="0.0032104339" flag="0"/>
      <psa30 value="0.0003110222" flag="0"/>
    </comp>
  </station>
  <station code="MILA" name="MILA" netid="HL" insttype="CMG-5" lat="36.7429" lon="24.4282">
    <comp name="00.HNZ">
      <acc value="0.0262464614" flag="0"/>
      <vel value="0.0063714972" flag="0"/>
      <psa03 value="0.0310767780" flag="0"/>
      <psa10 value="0.0027688665" flag="0"/>
      <psa30 value="0.0001775142" flag="0"/>
    </comp>
    <comp name="00.HNN">
      <acc value="0.0398994093" flag="0"/>
      <vel value="0.0136697118" flag="0"/>
      <psa03 value="0.0652614214" flag="0"/>
      <psa10 value="0.0030673083" flag="0"/>
      <psa30 value="0.0002859956" flag="0"/>
    </comp>
    <comp name="00.HNE">
      <acc value="0.0207849278" flag="0"/>
      <vel value="0.0070819987" flag="0"/>
      <psa03 value="0.0393566281" flag="0"/>
      <psa10 value="0.0024277284" flag="0"/>
      <psa30 value="0.0002099893" flag="0"/>
    </comp>
  </station>
  <station code="SANT" name="SANT" netid="HL" insttype="30" lat="36.3705" lon="25.4593">
    <comp name="--.HHE">
      <acc value="0.1243839715" flag="0"/>
      <vel value="0.0193773426" flag="0"/>
      <psa03 value="0.0567044857" flag="0"/>
      <psa10 value="0.0061364149" flag="0"/>
      <psa30 value="0.0003529461" flag="0"/>
    </comp>
    <comp name="--.HHN">
      <acc value="0.1153850181" flag="0"/>
      <vel value="0.0166278199" flag="0"/>
      <psa03 value="0.0615473808" flag="0"/>
      <psa10 value="0.0029676504" flag="0"/>
      <psa30 value="0.0002584504" flag="0"/>
    </comp>
    <comp name="--.HHZ">
      <acc value="0.1178535774" flag="0"/>
      <vel value="0.0151331096" flag="0"/>
      <psa03 value="0.0773801801" flag="0"/>
      <psa10 value="0.0025645639" flag="0"/>
      <psa30 value="0.0002461289" flag="0"/>
    </comp>
  </station>
  <station code="SAP3" name="SAP3" netid="HL" insttype="65535" lat="36.4356" lon="25.3454">
    <comp name="--.HHE">
      <acc value="0.0638849366" flag="0"/>
      <vel value="0.0164372899" flag="0"/>
      <psa03 value="0.0965388015" flag="0"/>
      <psa10 value="0.0040134757" flag="0"/>
      <psa30 value="0.0004137235" flag="0"/>
    </comp>
    <comp name="--.HHN">
      <acc value="0.0443119027" flag="0"/>
      <vel value="0.0148588902" flag="0"/>
      <psa03 value="0.0742728477" flag="0"/>
      <psa10 value="0.0036017072" flag="0"/>
      <psa30 value="0.0004214019" flag="0"/>
    </comp>
    <comp name="--.HHZ">
      <acc value="0.0763164605" flag="0"/>
      <vel value="0.0138972210" flag="0"/>
      <psa03 value="0.0437205068" flag="0"/>
      <psa10 value="0.0017633858" flag="0"/>
      <psa30 value="0.0002308628" flag="0"/>
    </comp>
  </station>
  <station code="THERA" name="THERA" netid="HL" insttype="120" lat="36.367" lon="25.4753">
    <comp name="--.HHN">
      <acc value="0.0613877631" flag="0"/>
      <vel value="0.0139888405" flag="0"/>
      <psa03 value="0.0857806719" flag="0"/>
      <psa10 value="0.0040491983" flag="0"/>
      <psa30 value="0.0002690713" flag="0"/>
    </comp>
    <comp name="--.HHE">
      <acc value="0.0394764816" flag="0"/>
      <vel value="0.0092347339" flag="0"/>
      <psa03 value="0.0415938561" flag="0"/>
      <psa10 value="0.0030831591" flag="0"/>
      <psa30 value="0.0002615243" flag="0"/>
    </comp>
    <comp name="--.HHZ">
      <acc value="0.0281377659" flag="0"/>
      <vel value="0.0051574365" flag="0"/>
      <psa03 value="0.0222848994" flag="0"/>
      <psa10 value="0.0016457524" flag="0"/>
      <psa30 value="0.0001559562" flag="0"/>
    </comp>
  </station>
  <station code="THRA" name="THRA" netid="HL" insttype="CMG-5" lat="36.415" lon="25.4324">
    <comp name="00.HNN">
      <acc value="0.0717600763" flag="0"/>
      <vel value="0.0257173764" flag="0"/>
      <psa03 value="0.1212341962" flag="0"/>
      <psa10 value="0.0161695266" flag="0"/>
      <psa30 value="0.0007402141" flag="0"/>
    </comp>
    <comp name="00.HNZ">
      <acc value="0.0635196128" flag="0"/>
      <vel value="0.0185965533" flag="0"/>
      <psa03 value="0.0913952671" flag="0"/>
      <psa10 value="0.0079424895" flag="0"/>
      <psa30 value="0.0004831907" flag="0"/>
    </comp>
    <comp name="00.HNE">
      <acc value="0.0855055294" flag="0"/>
      <vel value="0.0270234124" flag="0"/>
      <psa03 value="0.1526655108" flag="0"/>
      <psa10 value="0.0168348805" flag="0"/>
      <psa30 value="0.0013197372" flag="0"/>
    </comp>
  </station>
  <station code="TNSA" name="TNSA" netid="HL" insttype="CMG-5" lat="37.5394" lon="25.1631">
    <comp name="00.HNE">
      <acc value="0.0220531025" flag="0"/>
      <vel value="0.0048823203" flag="0"/>
      <psa03 value="0.0237162237" flag="0"/>
      <psa10 value="0.0011654143" flag="0"/>
      <psa30 value="0.0001175895" flag="0"/>
    </comp>
    <comp name="00.HNN">
      <acc value="0.0382800743" flag="0"/>
      <vel value="0.0104748429" flag="0"/>
      <psa03 value="0.0427206410" flag="0"/>
      <psa10 value="0.0017819452" flag="0"/>
      <psa30 value="0.0001790263" flag="0"/>
    </comp>
    <comp name="00.HNZ">
      <acc value="0.0216448226" flag="0"/>
      <vel value="0.0049872265" flag="0"/>
      <psa03 value="0.0257093690" flag="0"/>
      <psa10 value="0.0018706143" flag="0"/>
      <psa30 value="0.0002209446" flag="0"/>
    </comp>
  </station>
  <station code="AKRO" name="AKRO" netid="HT" insttype="Compact," lat="36.3584" lon="25.3967">
    <comp name="--.HHE">
      <acc value="0.1373658180" flag="0"/>
      <vel value="0.0398484234" flag="0"/>
      <psa03 value="0.1774462209" flag="0"/>
      <psa10 value="0.0123916497" flag="0"/>
      <psa30 value="0.0010280939" flag="0"/>
    </comp>
    <comp name="--.HHZ">
      <acc value="0.0852158772" flag="0"/>
      <vel value="0.0155949031" flag="0"/>
      <psa03 value="0.1078232168" flag="0"/>
      <psa10 value="0.0053287867" flag="0"/>
      <psa30 value="0.0005610970" flag="0"/>
    </comp>
    <comp name="--.HHN">
      <acc value="0.1281102617" flag="0"/>
      <vel value="0.0279917642" flag="0"/>
      <psa03 value="0.1371861986" flag="0"/>
      <psa10 value="0.0090123174" flag="0"/>
      <psa30 value="0.0007358171" flag="0"/>
    </comp>
  </station>
  <station code="CMBO" name="CMBO" netid="HT" insttype="120P," lat="36.4709" lon="25.4056">
    <comp name="--.HHE">
      <acc value="0.0531273331" flag="0"/>
      <vel value="0.0151383441" flag="0"/>
      <psa03 value="0.0706114287" flag="0"/>
      <psa10 value="0.0057837762" flag="0"/>
      <psa30 value="0.0003568964" flag="0"/>
    </comp>
    <comp name="--.HHN">
      <acc value="0.0575783588" flag="0"/>
      <vel value="0.0126806241" flag="0"/>
      <psa03 value="0.0986545728" flag="0"/>
      <psa10 value="0.0075238761" flag="0"/>
      <psa30 value="0.0003897928" flag="0"/>
    </comp>
    <comp name="--.HHZ">
      <acc value="0.0519127998" flag="0"/>
      <vel value="0.0135817868" flag="0"/>
      <psa03 value="0.0647432879" flag="0"/>
      <psa10 value="0.0029773291" flag="0"/>
      <psa30 value="0.0002420382" flag="0"/>
    </comp>
  </station>
</stationlist>
