<?xml version="1.0" encoding="UTF-8" standalone="yes"?>
<!DOCTYPE earthquake SYSTEM "stationlist.dtd">
<stationlist created="" xmlns="ch.ethz.sed.shakemap.usgs.xml">
  <station code="ACOR" name="ACOR" netid="HA" insttype="Horizon,120s,1200" commtype="DIG" lat="37.8905" lon="22.8694">
    <comp name="--.HHE">
      <acc value="0.1273359933" flag="0"/>
      <vel value="0.1537017421" flag="0"/>
      <psa03 value="0.2209104516" flag="0"/>
      <psa10 value="0.3077226174" flag="0"/>
      <psa30 value="0.0302189883" flag="0"/>
    </comp>
    <comp name="--.HHZ">
      <acc value="0.0981084088" flag="0"/>
      <vel value="0.0797198324" flag="0"/>
      <psa03 value="0.2497709917" flag="0"/>
      <psa10 value="0.1060055765" flag="0"/>
      <psa30 value="0.0325770317" flag="0"/>
    </comp>
  </station>
  <station code="ALIO" name="ALIO" netid="HA" insttype="25" commtype="DIG" lat="38.0657" lon="23.6727">
    <comp name="--.HHE">
      <acc value="0.1696774078" flag="0"/>
      <vel value="0.0682983827" flag="0"/>
      <psa03 value="0.3958080201" flag="0"/>
      <psa10 value="0.0408392292" flag="0"/>
      <psa30 value="0.0079600297" flag="0"/>
    </comp>
    <comp name="--.HHZ">
      <acc value="0.1615804169" flag="0"/>
      <vel value="0.0759307262" flag="0"/>
      <psa03 value="0.2901135298" flag="0"/>
      <psa10 value="0.0283755193" flag="0"/>
      <psa30 value="0.0167124884" flag="0"/>
    </comp>
    <comp name="--.HHN">
      <acc value="0.2070792282" flag="0"/>
      <vel value="0.0542695416" flag="0"/>
      <psa03 value="0.2231828270" flag="0"/>
      <psa10 value="0.0457192478" flag="0"/>
      <psa30 value="0.0066847480" flag="0"/>
    </comp>
  </station>
  <station code="ATAL" name="ATAL" netid="HA" insttype="120s," commtype="DIG" lat="38.6926" lon="23.0213">
    <comp name="--.HHZ">
      <acc value="1.4492369632" flag="0"/>
      <vel value="0.8237661230" flag="0"/>
      <psa03 value="3.6196203503" flag="0"/>
      <psa10 value="0.3703755608" flag="0"/>
      <psa30 value="0.0781535492" flag="0"/>
    </comp>
  </station>
  <station code="ATHU" name="ATHU" netid="HA" insttype="60s," commtype="DIG" lat="37.9665" lon="23.7845">
    <comp name="--.HHN">
      <acc value="0.1674017315" flag="0"/>
      <vel value="0.1270574544" flag="0"/>
      <psa03 value="0.4405328038" flag="0"/>
      <psa10 value="0.0729943134" flag="0"/>
      <psa30 value="0.0181659737" flag="0"/>
    </comp>
    <comp name="--.HHZ">
      <acc value="0.1096220225" flag="0"/>
      <vel value="0.0640586352" flag="0"/>
      <psa03 value="0.1673361683" flag="0"/>
      <psa10 value="0.0570440244" flag="0"/>
      <psa30 value="0.0151959925" flag="0"/>
    </comp>
    <comp name="--.HHE">
      <acc value="0.1356777522" flag="0"/>
      <vel value="0.1231403147" flag="0"/>
      <psa03 value="0.3052024834" flag="0"/>
      <psa10 value="0.1003241117" flag="0"/>
      <psa30 value="0.0201042074" flag="0"/>
    </comp>
  </station>
  <station code="DOMV" name="DOMV" netid="HA" insttype="60" commtype="DIG" lat="38.2569" lon="22.9795">
    <comp name="--.HHE">
      <acc value="1.7641411374" flag="0"/>
      <vel value="1.0785354923" flag="0"/>
      <psa03 value="3.6580060950" flag="0"/>
      <psa10 value="0.7937208139" flag="0"/>
      <psa30 value="0.0487151048" flag="0"/>
    </comp>
    <comp name="--.HHN">
      <acc value="2.7458921188" flag="0"/>
      <vel value="0.7645311483" flag="0"/>
      <psa03 value="3.4185761349" flag="0"/>
      <psa10 value="0.4963293044" flag="0"/>
      <psa30 value="0.0322053217" flag="0"/>
    </comp>
    <comp name="--.HHZ">
      <acc value="1.1934271575" flag="0"/>
      <vel value="0.4128060315" flag="0"/>
      <psa03 value="2.3121137608" flag="0"/>
      <psa10 value="0.2509961503" flag="0"/>
      <psa30 value="0.0371059285" flag="0"/>
    </comp>
  </station>
  <station code="EPID" name="EPID" netid="HA" insttype="30" commtype="DIG" lat="37.6144" lon="23.1189">
    <comp name="--.HHE">
      <acc value="0.1368302205" flag="0"/>
      <vel value="0.1145501272" flag="0"/>
      <psa03 value="0.4137301244" flag="0"/>
      <psa10 value="0.1022356503" flag="0"/>
      <psa30 value="0.0199125761" flag="0"/>
    </comp>
    <comp name="--.HHZ">
      <acc value="0.0800745883" flag="0"/>
      <vel value="0.1129569511" flag="0"/>
      <psa03 value="0.1742610045" flag="0"/>
      <psa10 value="0.1193150013" flag="0"/>
      <psa30 value="0.0526366451" flag="0"/>
    </comp>
  </station>
  <station code="KALE" name="KALE" netid="HA" insttype="40," commtype="DIG" lat="38.3911" lon="22.1398">
    <comp name="--.HHN">
      <acc value="0.1591955984" flag="0"/>
      <vel value="0.1697327893" flag="0"/>
      <psa03 value="0.4123609537" flag="0"/>
      <psa10 value="0.1596437092" flag="0"/>
      <psa30 value="0.0407245136" flag="0"/>
    </comp>
    <comp name="--.HHZ">
      <acc value="0.0947134181" flag="0"/>
      <vel value="0.1004251668" flag="0"/>
      <psa03 value="0.2767539532" flag="0"/>
      <psa10 value="0.0877529133" flag="0"/>
      <psa30 value="0.0258707384" flag="0"/>
    </comp>
    <comp name="--.HHE">
      <acc value="0.1035945102" flag="0"/>
      <vel value="0.1141305035" flag="0"/>
      <psa03 value="0.3324708599" flag="0"/>
      <psa10 value="0.1144180667" flag="0"/>
      <psa30 value="0.0179038062" flag="0"/>
    </comp>
  </station>
  <station code="KARY" name="KARY" netid="HA" insttype="60" commtype="DIG" lat="38.0321" lon="24.437">
    <comp name="--.HHE">
      <acc value="0.1514310937" flag="0"/>
      <vel value="0.0643885085" flag="0"/>
      <psa03 value="0.2279580057" flag="0"/>
      <psa10 value="0.0719134474" flag="0"/>
      <psa30 value="0.0144181646" flag="0"/>
    </comp>
  </station>
  <station code="LOUT" name="LOUT" netid="HA" insttype="30" commtype="DIG" lat="37.9879" lon="22.9743">
    <comp name="--.HHE">
      <acc value="0.3707226741" flag="0"/>
      <vel value="0.3798098699" flag="0"/>
      <psa03 value="0.9997288716" flag="0"/>
      <psa10 value="0.5931407518" flag="0"/>
      <psa30 value="0.0459213404" flag="0"/>
    </comp>
    <comp name="--.HHZ">
      <acc value="0.2230593368" flag="0"/>
      <vel value="0.2428260860" flag="0"/>
      <psa03 value="0.4069636272" flag="0"/>
      <psa10 value="0.3615777791" flag="0"/>
      <psa30 value="0.0296082984" flag="0"/>
    </comp>
  </station>
  <station code="MDRA" name="MDRA" netid="HA" insttype="60" commtype="DIG" lat="38.0606" lon="23.4662">
    <comp name="--.HHE">
      <acc value="0.2059153857" flag="0"/>
      <vel value="0.1053966644" flag="0"/>
      <psa03 value="0.2830209216" flag="0"/>
      <psa10 value="0.1484080839" flag="0"/>
      <psa30 value="0.0160535301" flag="0"/>
    </comp>
    <comp name="--.HHN">
      <acc value="0.2866426392" flag="0"/>
      <vel value="0.1631924011" flag="0"/>
      <psa03 value="0.7568634916" flag="0"/>
      <psa10 value="0.1983972617" flag="0"/>
      <psa30 value="0.0146548543" flag="0"/>
    </comp>
  </station>
  <station code="PRDM" name="PRDM" netid="HA" insttype="25" commtype="DIG" lat="38.2804" lon="22.847">
    <comp name="--.HHE">
      <acc value="0.2276732360" flag="0"/>
      <vel value="0.1198330907" flag="0"/>
      <psa03 value="0.5976716911" flag="0"/>
      <psa10 value="0.1190625713" flag="0"/>
      <psa30 value="0.0129451069" flag="0"/>
    </comp>
    <comp name="--.HHZ">
      <acc value="0.1465646357" flag="0"/>
      <vel value="0.0672037471" flag="0"/>
      <psa03 value="0.4967586238" flag="0"/>
      <psa10 value="0.0613047237" flag="0"/>
      <psa30 value="0.0141829163" flag="0"/>
    </comp>
  </station>
  <station code="PSAH" name="PSAH" netid="HA" insttype="25" commtype="DIG" lat="38.5694" lon="23.6473">
    <comp name="--.HHZ">
      <acc value="0.6724983320" flag="0"/>
      <vel value="0.2223421828" flag="0"/>
      <psa03 value="1.0143022884" flag="0"/>
      <psa10 value="0.4164691152" flag="0"/>
      <psa30 value="0.0435715306" flag="0"/>
    </comp>
  </station>
  <station code="THAL" name="THAL" netid="HA" insttype="30" commtype="DIG" lat="38.0357" lon="22.6634">
    <comp name="--.HHE">
      <acc value="0.6081615602" flag="0"/>
      <vel value="0.4536535515" flag="0"/>
      <psa03 value="2.1782231941" flag="0"/>
      <psa10 value="0.4256108464" flag="0"/>
      <psa30 value="0.0559078108" flag="0"/>
    </comp>
    <comp name="--.HHZ">
      <acc value="0.3596429127" flag="0"/>
      <vel value="0.2022720727" flag="0"/>
      <psa03 value="0.6891782279" flag="0"/>
      <psa10 value="0.1375322741" flag="0"/>
      <psa30 value="0.0192564092" flag="0"/>
    </comp>
  </station>
  <station code="THIV" name="THIV" netid="HA" insttype="25" commtype="DIG" lat="38.299" lon="23.332">
    <comp name="--.HHE">
      <acc value="0.3745486377" flag="0"/>
      <vel value="0.2141165412" flag="0"/>
      <psa03 value="0.5892125864" flag="0"/>
      <psa10 value="0.3593261026" flag="0"/>
      <psa30 value="0.0543410030" flag="0"/>
    </comp>
    <comp name="--.HHZ">
      <acc value="0.3876562604" flag="0"/>
      <vel value="0.1240723262" flag="0"/>
      <psa03 value="0.4861427901" flag="0"/>
      <psa10 value="0.1887255685" flag="0"/>
      <psa30 value="0.0230983265" flag="0"/>
    </comp>
  </station>
  <station code="THNO" name="THNO" netid="HC" insttype="60" commtype="DIG" lat="37.6541" lon="25.0221">
    <comp name="--.HHN">
      <acc value="0.0604815615" flag="0"/>
      <vel value="0.0433729612" flag="0"/>
      <psa03 value="0.1438653506" flag="0"/>
      <psa10 value="0.0410266217" flag="0"/>
      <psa30 value="0.0086404216" flag="0"/>
    </comp>
    <comp name="--.HHZ">
      <acc value="0.0501126270" flag="0"/>
      <vel value="0.0296564017" flag="0"/>
      <psa03 value="0.1540388489" flag="0"/>
      <psa10 value="0.0408009929" flag="0"/>
      <psa30 value="0.0058257309" flag="0"/>
    </comp>
    <comp name="--.HHE">
      <acc value="0.0660679645" flag="0"/>
      <vel value="0.0216668742" flag="0"/>
      <psa03 value="0.0909243534" flag="0"/>
      <psa10 value="0.0201334001" flag="0"/>
      <psa30 value="0.0062590319" flag="0"/>
    </comp>
  </station>
  <station code="AKR1" name="AKR1" netid="HI" insttype="unknown" commtype="DIG" lat="38.1536" lon="22.3133">
    <comp name="--.HNZ">
      <acc value="0.1075753299" flag="0"/>
      <vel value="0.1049163741" flag="0"/>
      <psa03 value="0.2233441140" flag="0"/>
      <psa10 value="0.2420008594" flag="0"/>
      <psa30 value="0.0271898124" flag="0"/>
    </comp>
  </station>
  <station code="ARS1" name="ARS1" netid="HI" insttype="CMG-5TD,ACCELEROMETER,GURALP" commtype="DIG" lat="37.6349" lon="22.7293">
    <comp name="--.HNN">
      <acc value="0.1877420497" flag="0"/>
      <vel value="0.1830244066" flag="0"/>
      <psa03 value="0.4482516633" flag="0"/>
      <psa10 value="0.2006897063" flag="0"/>
      <psa30 value="0.0300070861" flag="0"/>
    </comp>
    <comp name="--.HNE">
      <acc value="0.2392815174" flag="0"/>
      <vel value="0.1990850151" flag="0"/>
      <psa03 value="0.5246873836" flag="0"/>
      <psa10 value="0.2005007650" flag="0"/>
      <psa30 value="0.0295135187" flag="0"/>
    </comp>
  </station>
  <station code="ATH5" name="ATH5" netid="HI" insttype="CMG-5TD,ACCELEROMETER,GURALP" commtype="DIG" lat="37.9754" lon="23.7371">
    <comp name="--.HNZ">
      <acc value="0.1500494173" flag="0"/>
      <vel value="0.0793315625" flag="0"/>
      <psa03 value="0.3266360107" flag="0"/>
      <psa10 value="0.0707427174" flag="0"/>
      <psa30 value="0.0168156483" flag="0"/>
    </comp>
    <comp name="--.HNN">
      <acc value="0.4724335525" flag="0"/>
      <vel value="0.2209117987" flag="0"/>
      <psa03 value="1.4273983643" flag="0"/>
      <psa10 value="0.1490421159" flag="0"/>
      <psa30 value="0.0282278880" flag="0"/>
    </comp>
  </station>
  <station code="FRS1" name="FRS1" netid="HI" insttype="unknown" commtype="DIG" lat="39.2934" lon="22.3844">
    <comp name="--.HNN">
      <acc value="0.1021121629" flag="0"/>
      <vel value="0.1066343361" flag="0"/>
      <psa03 value="0.2835851229" flag="0"/>
      <psa10 value="0.0798337806" flag="0"/>
      <psa30 value="0.0218974709" flag="0"/>
    </comp>
    <comp name="--.HNZ">
      <acc value="0.0564765963" flag="0"/>
      <vel value="0.0364253278" flag="0"/>
      <psa03 value="0.1697617804" flag="0"/>
      <psa10 value="0.0389418631" flag="0"/>
      <psa30 value="0.0116355309" flag="0"/>
    </comp>
  </station>
  <station code="KIF1" name="KIF1" netid="HI" insttype="unknown" commtype="DIG" lat="38.0773" lon="23.8146">
    <comp name="--.HNN">
      <acc value="0.4367509208" flag="0"/>
      <vel value="0.1740816564" flag="0"/>
      <psa03 value="1.1145166319" flag="0"/>
      <psa10 value="0.1176891075" flag="0"/>
      <psa30 value="0.0611178864" flag="0"/>
    </comp>
  </station>
  <station code="KLV1" name="KLV1" netid="HI" insttype="CMG-5TD,ACCELEROMETER,GURALP" commtype="DIG" lat="38.0326" lon="22.108">
    <comp name="--.HNE">
      <acc value="0.1583084590" flag="0"/>
      <vel value="0.1128476550" flag="0"/>
      <psa03 value="0.4470293568" flag="0"/>
      <psa10 value="0.1582117803" flag="0"/>
      <psa30 value="0.0146499081" flag="0"/>
    </comp>
  </station>
  <station code="KMV1" name="KMV1" netid="HI" insttype="unknown" commtype="DIG" lat="38.7794" lon="22.7846">
    <comp name="--.HNE">
      <acc value="0.9362128979" flag="0"/>
      <vel value="0.3610176131" flag="0"/>
      <psa03 value="2.2563874423" flag="0"/>
      <psa10 value="0.4426274048" flag="0"/>
      <psa30 value="0.0288312771" flag="0"/>
    </comp>
    <comp name="--.HNZ">
      <acc value="0.4468388750" flag="0"/>
      <vel value="0.2125887765" flag="0"/>
      <psa03 value="0.9317683118" flag="0"/>
      <psa10 value="0.1673364803" flag="0"/>
      <psa30 value="0.0171123651" flag="0"/>
    </comp>
  </station>
  <station code="KOR2" name="KOR2" netid="HI" insttype="unknown" commtype="DIG" lat="37.9401" lon="22.9495">
    <comp name="--.HNE">
      <acc value="0.4830013597" flag="0"/>
      <vel value="0.6282942284" flag="0"/>
      <psa03 value="1.4706934089" flag="0"/>
      <psa10 value="0.9312126870" flag="0"/>
      <psa30 value="0.1298924558" flag="0"/>
    </comp>
    <comp name="--.HNZ">
      <acc value="0.4530332563" flag="0"/>
      <vel value="0.3073887838" flag="0"/>
      <psa03 value="0.9248022155" flag="0"/>
      <psa10 value="0.3561301830" flag="0"/>
      <psa30 value="0.0288544557" flag="0"/>
    </comp>
  </station>
  <station code="LAM2" name="LAM2" netid="HI" insttype="CMG-5TD,ACCELEROMETER,GURALP" commtype="DIG" lat="38.902" lon="22.4313">
    <comp name="--.HNZ">
      <acc value="0.1196888315" flag="0"/>
      <vel value="0.0809279516" flag="0"/>
      <psa03 value="0.2197620794" flag="0"/>
      <psa10 value="0.1040645614" flag="0"/>
      <psa30 value="0.0215669433" flag="0"/>
    </comp>
    <comp name="--.HNE">
      <acc value="0.1921070648" flag="0"/>
      <vel value="0.1176353245" flag="0"/>
      <psa03 value="0.3145880039" flag="0"/>
      <psa10 value="0.1536613258" flag="0"/>
      <psa30 value="0.0168360860" flag="0"/>
    </comp>
    <comp name="--.HNN">
      <acc value="0.1769708472" flag="0"/>
      <vel value="0.0872574367" flag="0"/>
      <psa03 value="0.3729423567" flag="0"/>
      <psa10 value="0.1350698736" flag="0"/>
      <psa30 value="0.0113633394" flag="0"/>
    </comp>
  </station>
  <station code="LEO1" name="LEO1" netid="HI" insttype="unknown" commtype="DIG" lat="37.1689" lon="22.8637">
    <comp name="--.HNN">
      <acc value="0.0267487029" flag="0"/>
      <vel value="0.0267649499" flag="0"/>
      <psa03 value="0.1292869363" flag="0"/>
      <psa10 value="0.0380738541" flag="0"/>
      <psa30 value="0.0094761173" flag="0"/>
    </comp>
    <comp name="--.HNE">
      <acc value="0.0326581831" flag="0"/>
      <vel value="0.0414835096" flag="0"/>
      <psa03 value="0.0954695210" flag="0"/>
      <psa10 value="0.0476661267" flag="0"/>
      <psa30 value="0.0153056499" flag="0"/>
    </comp>
    <comp name="--.HNZ">
      <acc value="0.0240037084" flag="0"/>
      <vel value="0.0321218002" flag="0"/>
      <psa03 value="0.0716088758" flag="0"/>
      <psa10 value="0.0490866857" flag="0"/>
      <psa30 value="0.0134455971" flag="0"/>
    </comp>
  </station>
  <station code="NMA1" name="NMA1" netid="HI" insttype="unknown" commtype="DIG" lat="37.8187" lon="22.6627">
    <comp name="--.HNE">
      <acc value="0.1501777568" flag="0"/>
      <vel value="0.1822470717" flag="0"/>
      <psa03 value="0.3774465828" flag="0"/>
      <psa10 value="0.2331325307" flag="0"/>
      <psa30 value="0.0437252270" flag="0"/>
    </comp>
    <comp name="--.HNN">
      <acc value="0.1862089264" flag="0"/>
      <vel value="0.1793940670" flag="0"/>
      <psa03 value="0.4873466168" flag="0"/>
      <psa10 value="0.1765965811" flag="0"/>
      <psa30 value="0.0620751220" flag="0"/>
    </comp>
    <comp name="--.HNZ">
      <acc value="0.1006432222" flag="0"/>
      <vel value="0.1029803986" flag="0"/>
      <psa03 value="0.1928298434" flag="0"/>
      <psa10 value="0.1683544339" flag="0"/>
      <psa30 value="0.0322198541" flag="0"/>
    </comp>
  </station>
  <station code="PER1" name="PER1" netid="HI" insttype="unknown" commtype="DIG" lat="38.0119" lon="23.7027">
    <comp name="--.HNZ">
      <acc value="0.1480048880" flag="0"/>
      <vel value="0.0902032817" flag="0"/>
      <psa03 value="0.3413293523" flag="0"/>
      <psa10 value="0.0799749264" flag="0"/>
      <psa30 value="0.0253297565" flag="0"/>
    </comp>
    <comp name="--.HNN">
      <acc value="0.4304129889" flag="0"/>
      <vel value="0.1278625106" flag="0"/>
      <psa03 value="0.5275817670" flag="0"/>
      <psa10 value="0.1208448429" flag="0"/>
      <psa30 value="0.0287287041" flag="0"/>
    </comp>
    <comp name="--.HNE">
      <acc value="0.3638626476" flag="0"/>
      <vel value="0.1355468118" flag="0"/>
      <psa03 value="0.6675676166" flag="0"/>
      <psa10 value="0.1846390768" flag="0"/>
      <psa30 value="0.0269219463" flag="0"/>
    </comp>
  </station>
  <station code="PIR1" name="PIR1" netid="HI" insttype="unknown" commtype="DIG" lat="37.9372" lon="23.6426">
    <comp name="--.HNE">
      <acc value="0.5009996508" flag="0"/>
      <vel value="0.3166137541" flag="0"/>
      <psa03 value="0.8214162589" flag="0"/>
      <psa10 value="0.2596530565" flag="0"/>
      <psa30 value="0.0297972319" flag="0"/>
    </comp>
    <comp name="--.HNN">
      <acc value="0.5465870568" flag="0"/>
      <vel value="0.2770262906" flag="0"/>
      <psa03 value="0.6937632299" flag="0"/>
      <psa10 value="0.4684778376" flag="0"/>
      <psa30 value="0.0381657100" flag="0"/>
    </comp>
    <comp name="--.HNZ">
      <acc value="0.3265000063" flag="0"/>
      <vel value="0.1542167725" flag="0"/>
      <psa03 value="0.5312394469" flag="0"/>
      <psa10 value="0.1613911928" flag="0"/>
      <psa30 value="0.0231296126" flag="0"/>
    </comp>
  </station>
  <station code="PIR2" name="PIR2" netid="HI" insttype="unknown" commtype="DIG" lat="37.9458" lon="23.6709">
    <comp name="--.HNN">
      <acc value="0.9285639573" flag="0"/>
      <vel value="0.3552294885" flag="0"/>
      <psa03 value="1.8403677415" flag="0"/>
      <psa10 value="0.3395426765" flag="0"/>
      <psa30 value="0.0302501464" flag="0"/>
    </comp>
    <comp name="--.HNZ">
      <acc value="0.8871799895" flag="0"/>
      <vel value="0.2897140503" flag="0"/>
      <psa03 value="1.0987749493" flag="0"/>
      <psa10 value="0.1978438553" flag="0"/>
      <psa30 value="0.0267382742" flag="0"/>
    </comp>
    <comp name="--.HNE">
      <acc value="0.7081568612" flag="0"/>
      <vel value="0.4999069969" flag="0"/>
      <psa03 value="2.0935742776" flag="0"/>
      <psa10 value="0.4859898927" flag="0"/>
      <psa30 value="0.0370680622" flag="0"/>
    </comp>
  </station>
