<stationlist xmlns:esm="https://esm-db.eu/esmws/shakemap/1/" created="1782266082">
	<station code="ATHU" name="ATHU" netid="HA" source="Hellenic Seismological Network, University of Athens, Seismological Laboratory (HA)" insttype="" lat="37.9665" lon="23.7845" esm:processing="automatic (Paolucci et al 2011)" esm:quality="best">
		<comp name="--.HNE" depth="0.0">
			<acc value="0.00932900503253847" flag="0"/>
			<vel value="0.00747145931513946" flag="0"/>
			<psa03 value="0.0243857326226073" flag="0"/>
			<psa10 value="0.00397184874048623" flag="0"/>
			<psa30 value="0.00101404852990508" flag="0"/>
		</comp>
		<comp name="--.HNN" depth="0.0">
			<acc value="0.0061140432938278" flag="0"/>
			<vel value="0.00394839027103443" flag="0"/>
			<psa03 value="0.00980271513697693" flag="0"/>
			<psa10 value="0.00323150469632673" flag="0"/>
			<psa30 value="0.000911190049368881" flag="0"/>
		</comp>
		<comp name="--.HNZ" depth="0.0">
			<acc value="0.0076170542062349" flag="0"/>
			<vel value="0.00698501869320265" flag="0"/>
			<psa03 value="0.0175789626970889" flag="0"/>
			<psa10 value="0.00561310043410609" flag="0"/>
			<psa30 value="0.00113259450799434" flag="0"/>
		</comp>
	</station>
	<station code="AGR3" name="AGR3" netid="HI" source="ITSAK Strong Motion Network" insttype="" lat="38.5893" lon="21.4162" esm:processing="manual (Paolucci et al 2011)" esm:quality="good">
		<comp name="--.HNE" depth="0.0">
			<acc value="0.0826167208990902" flag="0"/>
			<vel value="0.164256960022313" flag="0"/>
			<psa03 value="0.191846521390508" flag="0"/>
			<psa10 value="0.189044548273541" flag="0"/>
			<psa30 value="0.0766027678907592" flag="0"/>
		</comp>
		<comp name="--.HNN" depth="0.0">
			<acc value="0.0605266493625334" flag="0"/>
			<vel value="0.116099539801372" flag="0"/>
			<psa03 value="0.162231861647975" flag="0"/>
			<psa10 value="0.196292653424935" flag="0"/>
			<psa30 value="0.052369332544599" flag="0"/>
		</comp>
		<comp name="--.HNZ" depth="0.0">
			<acc value="0.0423532534464033" flag="0"/>
			<vel value="0.0824675563875488" flag="0"/>
			<psa03 value="0.0954521565702512" flag="0"/>
			<psa10 value="0.0841635554224934" flag="0"/>
			<psa30 value="0.0361043650703282" flag="0"/>
		</comp>
	</station>
	<station code="AIG2" name="AIG2" netid="HI" source="ITSAK Strong Motion Network" insttype="" lat="38.2417" lon="22.0726" esm:processing="automatic (Paolucci et al 2011)" esm:quality="best">
		<comp name="--.HNE" depth="0.0">
			<acc value="0.0760738541109029" flag="0"/>
			<vel value="0.0967781851509988" flag="0"/>
			<psa03 value="0.275431037621164" flag="0"/>
			<psa10 value="0.166079301938678" flag="0"/>
			<psa30 value="0.0276788702559803" flag="0"/>
		</comp>
		<comp name="--.HNN" depth="0.0">
			<acc value="0.0632592931198059" flag="0"/>
			<vel value="0.0808240679088065" flag="0"/>
			<psa03 value="0.211519137104751" flag="0"/>
			<psa10 value="0.084039572209214" flag="0"/>
			<psa30 value="0.0484236078263677" flag="0"/>
		</comp>
		<comp name="--.HNZ" depth="0.0">
			<acc value="0.0460544249554488" flag="0"/>
			<vel value="0.0440920742264248" flag="0"/>
			<psa03 value="0.110398980057285" flag="0"/>
			<psa10 value="0.0832053444457189" flag="0"/>
			<psa30 value="0.0201607255491239" flag="0"/>
		</comp>
	</station>
	<station code="AKR1" name="AKR1" netid="HI" source="ITSAK Strong Motion Network" insttype="" lat="38.153583" lon="22.31326" esm:processing="automatic (Paolucci et al 2011)" esm:quality="best">
		<comp name="--.HNE" depth="0.0">
			<acc value="0.205281956498959" flag="0"/>
			<vel value="0.18748444540066" flag="0"/>
			<psa03 value="0.517094213287197" flag="0"/>
			<psa10 value="0.448077822956719" flag="0"/>
			<psa30 value="0.0400757048187629" flag="0"/>
		</comp>
		<comp name="--.HNN" depth="0.0">
			<acc value="0.238052293321993" flag="0"/>
			<vel value="0.229280309666607" flag="0"/>
			<psa03 value="0.674837913033139" flag="0"/>
			<psa10 value="0.401626045754453" flag="0"/>
			<psa30 value="0.0503444050697583" flag="0"/>
		</comp>
		<comp name="--.HNZ" depth="0.0">
			<acc value="0.108202911336697" flag="0"/>
			<vel value="0.103629480893373" flag="0"/>
			<psa03 value="0.220801126991027" flag="0"/>
			<psa10 value="0.242262013669445" flag="0"/>
			<psa30 value="0.0274486583389039" flag="0"/>
		</comp>
	</station>
	<station code="ARE2" name="ARE2" netid="HI" source="ITSAK Strong Motion Network" insttype="" lat="36.66629" lon="22.382635" esm:processing="automatic (Paolucci et al 2011)" esm:quality="best">
		<comp name="--.HNE" depth="0.0">
			<acc value="0.016927981038365" flag="0"/>
			<vel value="0.0245336423325772" flag="0"/>
			<psa03 value="0.0347059892056234" flag="0"/>
			<psa10 value="0.046459611471248" flag="0"/>
			<psa30 value="0.00740458635083925" flag="0"/>
		</comp>
		<comp name="--.HNN" depth="0.0">
			<acc value="0.0118397073864166" flag="0"/>
			<vel value="0.0153099775927501" flag="0"/>
			<psa03 value="0.0407142908719549" flag="0"/>
			<psa10 value="0.0201600136269626" flag="0"/>
			<psa30 value="0.00702801390476282" flag="0"/>
		</comp>
		<comp name="--.HNZ" depth="0.0">
			<acc value="0.0107543992888795" flag="0"/>
			<vel value="0.0134472623952551" flag="0"/>
			<psa03 value="0.0235812730811107" flag="0"/>
			<psa10 value="0.0130679319363567" flag="0"/>
			<psa30 value="0.00409770728633055" flag="0"/>
		</comp>
	</station>
	<station code="ARS1" name="ARS1" netid="HI" source="ITSAK Strong Motion Network" insttype="" lat="37.6349" lon="22.7293" esm:processing="manual (Paolucci et al 2011)" esm:quality="good">
		<comp name="--.HNE" depth="0.0">
			<acc value="0.240287317910326" flag="0"/>
			<vel value="0.203307891956192" flag="0"/>
			<psa03 value="0.527485860016126" flag="0"/>
			<psa10 value="0.200748023571341" flag="0"/>
			<psa30 value="0.0296448771609557" flag="0"/>
		</comp>
		<comp name="--.HNN" depth="0.0">
			<acc value="0.187857353469328" flag="0"/>
			<vel value="0.178962326400439" flag="0"/>
			<psa03 value="0.454050203597625" flag="0"/>
			<psa10 value="0.200942781473096" flag="0"/>
			<psa30 value="0.0294456139607466" flag="0"/>
		</comp>
		<comp name="--.HNZ" depth="0.0">
			<acc value="0.0584078577433714" flag="0"/>
			<vel value="0.0739933144831884" flag="0"/>
			<psa03 value="0.170013283378975" flag="0"/>
			<psa10 value="0.0867741033584823" flag="0"/>
			<psa30 value="0.0368967642295503" flag="0"/>
		</comp>
	</station>
	<station code="ART2" name="ART2" netid="HI" source="ITSAK Strong Motion Network" insttype="" lat="39.1474" lon="20.9937" esm:processing="automatic (Paolucci et al 2011)" esm:quality="best">
		<comp name="--.HNE" depth="0.0">
			<acc value="0.00470493581828043" flag="0"/>
			<vel value="0.0183263303881194" flag="0"/>
			<psa03 value="0.0113780584280302" flag="0"/>
			<psa10 value="0.010027628031144" flag="0"/>
			<psa30 value="0.00606324332678021" flag="0"/>
		</comp>
		<comp name="--.HNN" depth="0.0">
			<acc value="0.00590195677797011" flag="0"/>
			<vel value="0.0121164783666341" flag="0"/>
			<psa03 value="0.018192475995584" flag="0"/>
			<psa10 value="0.0113108402251542" flag="0"/>
			<psa30 value="0.0055326665120035" flag="0"/>
		</comp>
		<comp name="--.HNZ" depth="0.0">
			<acc value="0.00446938171445005" flag="0"/>
			<vel value="0.0154150458711201" flag="0"/>
			<psa03 value="0.0136970466850379" flag="0"/>
			<psa10 value="0.00854421444977447" flag="0"/>
			<psa30 value="0.00478413275864929" flag="0"/>
		</comp>
	</station>
	<station code="AST1" name="AST1" netid="HI" source="ITSAK Strong Motion Network" insttype="" lat="38.5416" lon="21.0895" esm:processing="automatic (Paolucci et al 2011)" esm:quality="best">
		<comp name="--.HNE" depth="0.0">
			<acc value="0.0320270654065358" flag="0"/>
			<vel value="0.0347352980347438" flag="0"/>
			<psa03 value="0.0674522600478563" flag="0"/>
			<psa10 value="0.0420488280284919" flag="0"/>
			<psa30 value="0.00981093492628929" flag="0"/>
		</comp>
		<comp name="--.HNN" depth="0.0">
			<acc value="0.025661927283912" flag="0"/>
			<vel value="0.0334610709203238" flag="0"/>
			<psa03 value="0.0579922323257805" flag="0"/>
			<psa10 value="0.045222078240745" flag="0"/>
			<psa30 value="0.010493409303534" flag="0"/>
		</comp>
		<comp name="--.HNZ" depth="0.0">
			<acc value="0.0252501837576947" flag="0"/>
			<vel value="0.0237072203786913" flag="0"/>
			<psa03 value="0.05286103303401" flag="0"/>
			<psa10 value="0.0352861775360862" flag="0"/>
			<psa30 value="0.00897532373781569" flag="0"/>
		</comp>
	</station>
	<station code="ATH5" name="ATH5" netid="HI" source="ITSAK Strong Motion Network" insttype="" lat="37.975421" lon="23.737098" esm:processing="manual (Paolucci et al 2011)" esm:quality="good">
		<comp name="--.HNE" depth="0.0">
			<acc value="0.281966927852249" flag="0"/>
			<vel value="0.169529775373817" flag="0"/>
			<psa03 value="0.576670826612109" flag="0"/>
			<psa10 value="0.243961281237582" flag="0"/>
			<psa30 value="0.0249119969642038" flag="0"/>
		</comp>
		<comp name="--.HNN" depth="0.0">
			<acc value="0.474132691163848" flag="0"/>
			<vel value="0.21831965144487" flag="0"/>
			<psa03 value="1.43249156220236" flag="0"/>
			<psa10 value="0.148949562177488" flag="0"/>
			<psa30 value="0.030099390603574" flag="0"/>
		</comp>
		<comp name="--.HNZ" depth="0.0">
			<acc value="0.148613916581308" flag="0"/>
			<vel value="0.0803164423839513" flag="0"/>
			<psa03 value="0.333558304934016" flag="0"/>
			<psa10 value="0.0705468908852949" flag="0"/>
			<psa30 value="0.0162593937717071" flag="0"/>
		</comp>
	</station>
	<station code="FRS1" name="FRS1" netid="HI" source="ITSAK Strong Motion Network" insttype="" lat="39.2934" lon="22.3844" esm:processing="automatic (Paolucci et al 2011)" esm:quality="best">
		<comp name="--.HNE" depth="0.0">
			<acc value="0.0617304615996012" flag="0"/>
			<vel value="0.0497109365126961" flag="0"/>
			<psa03 value="0.254589740320835" flag="0"/>
			<psa10 value="0.0365620908090787" flag="0"/>
			<psa30 value="0.0102701011771333" flag="0"/>
		</comp>
		<comp name="--.HNN" depth="0.0">
			<acc value="0.10308187042299" flag="0"/>
			<vel value="0.111056095970435" flag="0"/>
			<psa03 value="0.288340851166286" flag="0"/>
			<psa10 value="0.0792454271206303" flag="0"/>
			<psa30 value="0.0211884069613072" flag="0"/>
		</comp>
		<comp name="--.HNZ" depth="0.0">
			<acc value="0.0563900753606028" flag="0"/>
			<vel value="0.0394101535760643" flag="0"/>
			<psa03 value="0.171604722137316" flag="0"/>
			<psa10 value="0.0389170743151783" flag="0"/>
			<psa30 value="0.0114534687360931" flag="0"/>
		</comp>
	</station>
	<station code="ITS1" name="ITS1" netid="HI" source="ITSAK Strong Motion Network" insttype="" lat="40.605" lon="23.0123" esm:processing="automatic (Paolucci et al 2011)" esm:quality="best">
		<comp name="--.HNE" depth="0.0">
			<acc value="0.0138893236836416" flag="0"/>
			<vel value="0.0122790852730439" flag="0"/>
			<psa03 value="0.0344742238523062" flag="0"/>
			<psa10 value="0.0215172397865347" flag="0"/>
			<psa30 value="0.00251726925673414" flag="0"/>
		</comp>
		<comp name="--.HNN" depth="0.0">
			<acc value="0.0139985519972991" flag="0"/>
			<vel value="0.0131658411493889" flag="0"/>
			<psa03 value="0.0394543818883347" flag="0"/>
			<psa10 value="0.0188952704689354" flag="0"/>
			<psa30 value="0.00238719147305269" flag="0"/>
		</comp>
		<comp name="--.HNZ" depth="0.0">
			<acc value="0.00886271798045505" flag="0"/>
			<vel value="0.00923093539364264" flag="0"/>
			<psa03 value="0.0273813555470909" flag="0"/>
			<psa10 value="0.00824306012477842" flag="0"/>
			<psa30 value="0.00285120033636265" flag="0"/>
		</comp>
	</station>
	<station code="KAC1" name="KAC1" netid="HI" source="ITSAK Strong Motion Network" insttype="" lat="38.143412" lon="21.549694" esm:processing="manual (Paolucci et al 2011)" esm:quality="good">
		<comp name="--.HNE" depth="0.0">
			<acc value="0.0977131931583064" flag="0"/>
			<vel value="0.178156599562895" flag="0"/>
			<psa03 value="0.23912288238407" flag="0"/>
			<psa10 value="0.159028699870894" flag="0"/>
			<psa30 value="0.0703109644229913" flag="0"/>
		</comp>
		<comp name="--.HNN" depth="0.0">
			<acc value="0.113370966171933" flag="0"/>
			<vel value="0.17875956016602" flag="0"/>
			<psa03 value="0.33011859790364" flag="0"/>
			<psa10 value="0.206440075641856" flag="0"/>
			<psa30 value="0.0782779788652647" flag="0"/>
		</comp>
		<comp name="--.HNZ" depth="0.0">
			<acc value="0.0451623947959814" flag="0"/>
			<vel value="0.12369171234922" flag="0"/>
			<psa03 value="0.0929015917745177" flag="0"/>
			<psa10 value="0.185439194436543" flag="0"/>
			<psa30 value="0.0359460979192395" flag="0"/>
		</comp>
	</station>
	<station code="KAR2" name="KAR2" netid="HI" source="ITSAK Strong Motion Network" insttype="" lat="39.365759" lon="21.91933" esm:processing="manual (Paolucci et al 2011)" esm:quality="good">
		<comp name="--.HNE" depth="0.0">
			<acc value="0.0669356660846468" flag="0"/>
			<vel value="0.0972643571906413" flag="0"/>
			<psa03 value="0.235740137460487" flag="0"/>
			<psa10 value="0.150592456011141" flag="0"/>
			<psa30 value="0.0543817691919837" flag="0"/>
		</comp>
		<comp name="--.HNN" depth="0.0">
			<acc value="0.0682339237257398" flag="0"/>
			<vel value="0.129336392226495" flag="0"/>
			<psa03 value="0.143680382703541" flag="0"/>
			<psa10 value="0.203952490851572" flag="0"/>
			<psa30 value="0.0616894599572993" flag="0"/>
		</comp>
		<comp name="--.HNZ" depth="0.0">
			<acc value="0.0262891762743722" flag="0"/>
			<vel value="0.0482969377622643" flag="0"/>
			<psa03 value="0.0745436152320014" flag="0"/>
			<psa10 value="0.0626066511333801" flag="0"/>
			<psa30 value="0.0159684628322935" flag="0"/>
		</comp>
	</station>
	<station code="KIF1" name="KIF1" netid="HI" source="ITSAK Strong Motion Network" insttype="" lat="38.077273" lon="23.814551" esm:processing="automatic (Paolucci et al 2011)" esm:quality="best">
		<comp name="--.HNE" depth="0.0">
			<acc value="0.406866645729276" flag="0"/>
			<vel value="0.188654067284935" flag="0"/>
			<psa03 value="0.868002667583458" flag="0"/>
			<psa10 value="0.136939511570577" flag="0"/>
			<psa30 value="0.0501518223120958" flag="0"/>
		</comp>
		<comp name="--.HNN" depth="0.0">
			<acc value="0.437293243910068" flag="0"/>
			<vel value="0.175042838555292" flag="0"/>
			<psa03 value="1.14095191579825" flag="0"/>
			<psa10 value="0.118961495615252" flag="0"/>
			<psa30 value="0.0620019939944788" flag="0"/>
		</comp>
		<comp name="--.HNZ" depth="0.0">
			<acc value="0.211310682542506" flag="0"/>
			<vel value="0.141786653648222" flag="0"/>
			<psa03 value="0.567035438314923" flag="0"/>
			<psa10 value="0.104390880383501" flag="0"/>
			<psa30 value="0.02217044201631" flag="0"/>
		</comp>
	</station>
	<station code="KLV1" name="KLV1" netid="HI" source="ITSAK Strong Motion Network" insttype="" lat="38.03256" lon="22.10797" esm:processing="manual (Paolucci et al 2011)" esm:quality="good">
		<comp name="--.HNE" depth="0.0">
			<acc value="0.15753928955215" flag="0"/>
			<vel value="0.119747891608449" flag="0"/>
			<psa03 value="0.445013104934191" flag="0"/>
			<psa10 value="0.159054111554293" flag="0"/>
			<psa30 value="0.0152555956083385" flag="0"/>
		</comp>
		<comp name="--.HNN" depth="0.0">
			<acc value="0.146969836992224" flag="0"/>
			<vel value="0.132122713469018" flag="0"/>
			<psa03 value="0.347638466842307" flag="0"/>
			<psa10 value="0.149194603410267" flag="0"/>
			<psa30 value="0.0346816641567083" flag="0"/>
		</comp>
		<comp name="--.HNZ" depth="0.0">
			<acc value="0.072550447342246" flag="0"/>
			<vel value="0.0666415591379092" flag="0"/>
			<psa03 value="0.130833167055221" flag="0"/>
			<psa10 value="0.102060250990742" flag="0"/>
			<psa30 value="0.0232895561521292" flag="0"/>
		</comp>
	</station>
	<station code="KMV1" name="KMV1" netid="HI" source="ITSAK Strong Motion Network" insttype="" lat="38.7794" lon="22.7846" esm:processing="manual (Paolucci et al 2011)" esm:quality="good">
		<comp name="--.HNE" depth="0.0">
			<acc value="0.930303125179261" flag="0"/>
			<vel value="0.354515193069477" flag="0"/>
			<psa03 value="2.26637030257644" flag="0"/>
			<psa10 value="0.444293132239533" flag="0"/>
			<psa30 value="0.030346977004958" flag="0"/>
		</comp>
		<comp name="--.HNN" depth="0.0">
			<acc value="1.07543867598919" flag="0"/>
			<vel value="0.446842218592306" flag="0"/>
			<psa03 value="2.03106654819086" flag="0"/>
			<psa10 value="0.487376436296985" flag="0"/>
			<psa30 value="0.0445937407831388" flag="0"/>
		</comp>
		<comp name="--.HNZ" depth="0.0">
			<acc value="0.452687568097255" flag="0"/>
			<vel value="0.226231225778807" flag="0"/>
			<psa03 value="0.93820690160275" flag="0"/>
			<psa10 value="0.168612399743976" flag="0"/>
			<psa30 value="0.0182787158752194" flag="0"/>
		</comp>
	</station>
	<station code="KOR2" name="KOR2" netid="HI" source="ITSAK Strong Motion Network" insttype="" lat="37.9401" lon="22.9495" esm:processing="manual (Paolucci et al 2011)" esm:quality="good">
		<comp name="--.HNE" depth="0.0">
			<acc value="0.481647536509296" flag="0"/>
			<vel value="0.629681541772809" flag="0"/>
			<psa03 value="1.48843326806582" flag="0"/>
			<psa10 value="0.930506421483734" flag="0"/>
			<psa30 value="0.129803972209447" flag="0"/>
		</comp>
		<comp name="--.HNN" depth="0.0">
			<acc value="0.479634218982275" flag="0"/>
			<vel value="0.618815685743813" flag="0"/>
			<psa03 value="0.98243391475865" flag="0"/>
			<psa10 value="0.841533247447612" flag="0"/>
			<psa30 value="0.0990830904351334" flag="0"/>
		</comp>
		<comp name="--.HNZ" depth="0.0">
			<acc value="0.451950370655627" flag="0"/>
			<vel value="0.309046865681256" flag="0"/>
			<psa03 value="0.931657551073754" flag="0"/>
			<psa10 value="0.549024970209801" flag="0"/>
			<psa30 value="0.0289728693104003" flag="0"/>
		</comp>
	</station>
	<station code="KRI1" name="KRI1" netid="HI" source="ITSAK Strong Motion Network" insttype="" lat="37.6621" lon="20.8172" esm:processing="automatic (Paolucci et al 2011)" esm:quality="best">
		<comp name="--.HNE" depth="0.0">
			<acc value="0.032618322792044" flag="0"/>
			<vel value="0.0323142199475263" flag="0"/>
			<psa03 value="0.052701022434093" flag="0"/>
			<psa10 value="0.0759385330551279" flag="0"/>
			<psa30 value="0.0139722255913733" flag="0"/>
		</comp>
		<comp name="--.HNN" depth="0.0">
			<acc value="0.040600323843442" flag="0"/>
			<vel value="0.0575856312268043" flag="0"/>
			<psa03 value="0.0709866348078383" flag="0"/>
			<psa10 value="0.0978036665129109" flag="0"/>
			<psa30 value="0.010488083117367" flag="0"/>
		</comp>
		<comp name="--.HNZ" depth="0.0">
			<acc value="0.0142856282311816" flag="0"/>
			<vel value="0.0284759347656573" flag="0"/>
			<psa03 value="0.028351740142808" flag="0"/>
			<psa10 value="0.0362965844705868" flag="0"/>
			<psa30 value="0.00714943944860917" flag="0"/>
		</comp>
	</station>
	<station code="LAM2" name="LAM2" netid="HI" source="ITSAK Strong Motion Network" insttype="" lat="38.90203" lon="22.431301" esm:processing="automatic (Paolucci et al 2011)" esm:quality="best">
		<comp name="--.HNE" depth="0.0">
			<acc value="0.191633332497856" flag="0"/>
			<vel value="0.116351445450393" flag="0"/>
			<psa03 value="0.323928250323493" flag="0"/>
			<psa10 value="0.155697924223354" flag="0"/>
			<psa30 value="0.01745556801238" flag="0"/>
		</comp>
		<comp name="--.HNN" depth="0.0">
			<acc value="0.178312072072607" flag="0"/>
			<vel value="0.0880241076651512" flag="0"/>
			<psa03 value="0.376208921994744" flag="0"/>
			<psa10 value="0.135345565979505" flag="0"/>
			<psa30 value="0.0124420092220487" flag="0"/>
		</comp>
		<comp name="--.HNZ" depth="0.0">
			<acc value="0.11939776454612" flag="0"/>
			<vel value="0.0744363120262118" flag="0"/>
			<psa03 value="0.22221974180063" flag="0"/>
			<psa10 value="0.104888943377731" flag="0"/>
			<psa30 value="0.0237109424002334" flag="0"/>
		</comp>
	</station>
