<?xml version="1.0" encoding="UTF-8" standalone="yes"?>
<!DOCTYPE earthquake SYSTEM "stationlist.dtd">
<stationlist created="" xmlns="ch.ethz.sed.shakemap.usgs.xml">
  <station code="TUNC" name="TUNC" netid="KO" insttype="CMG-5T" lat="39.6942" lon="37.5388">
    <comp name="--.HNE">
      <acc value="0.0377428311" flag="0"/>
      <vel value="0.0324425232" flag="0"/>
      <psa03 value="0.1432713049" flag="0"/>
      <psa10 value="0.0342953394" flag="0"/>
      <psa30 value="0.0039563404" flag="0"/>
    </comp>
    <comp name="--.HNZ">
      <acc value="0.0167712642" flag="0"/>
      <vel value="0.0189312199" flag="0"/>
      <psa03 value="0.0708035650" flag="0"/>
      <psa10 value="0.0312751913" flag="0"/>
      <psa30 value="0.0039266022" flag="0"/>
    </comp>
    <comp name="--.HNN">
      <acc value="0.0256355585" flag="0"/>
      <vel value="0.0220339612" flag="0"/>
      <psa03 value="0.1244464254" flag="0"/>
      <psa10 value="0.0364552058" flag="0"/>
      <psa30 value="0.0031155527" flag="0"/>
    </comp>
  </station>
  <station code="URFA" name="URFA" netid="KO" insttype="CMG-3ESP" lat="37.4409" lon="38.8213">
    <comp name="--.HHE">
      <acc value="0.0457670867" flag="0"/>
      <vel value="0.0179368581" flag="0"/>
      <psa03 value="0.0611053829" flag="0"/>
      <psa10 value="0.0284700590" flag="0"/>
      <psa30 value="0.0060007038" flag="0"/>
    </comp>
    <comp name="--.HHZ">
      <acc value="0.0172622178" flag="0"/>
      <vel value="0.0108224636" flag="0"/>
      <psa03 value="0.0344556744" flag="0"/>
      <psa10 value="0.0105182460" flag="0"/>
      <psa30 value="0.0032112806" flag="0"/>
    </comp>
    <comp name="--.HHN">
      <acc value="0.0468473993" flag="0"/>
      <vel value="0.0312926234" flag="0"/>
      <psa03 value="0.0575828102" flag="0"/>
      <psa10 value="0.0339264064" flag="0"/>
      <psa30 value="0.0049265174" flag="0"/>
    </comp>
  </station>
</stationlist>
