<?xml version="1.0" encoding="UTF-8" standalone="yes"?>
<!DOCTYPE earthquake SYSTEM "stationlist.dtd">
<stationlist created="" xmlns="ch.ethz.sed.shakemap.usgs.xml">
  <station code="ARPRA" name="ARPRA" netid="KO" insttype="CMG-5T" lat="39.0929" lon="38.3356">
    <comp name="--.HNE">
      <acc value="0.0757662301" flag="0"/>
      <vel value="0.0444710961" flag="0"/>
      <psa03 value="0.2470081967" flag="0"/>
      <psa10 value="0.0749955010" flag="0"/>
      <psa30 value="0.0068834257" flag="0"/>
    </comp>
    <comp name="--.HNZ">
      <acc value="0.0385174555" flag="0"/>
      <vel value="0.0316007780" flag="0"/>
      <psa03 value="0.1100685620" flag="0"/>
      <psa10 value="0.0627320891" flag="0"/>
      <psa30 value="0.0087128928" flag="0"/>
    </comp>
    <comp name="--.HNN">
      <acc value="0.0836789599" flag="0"/>
      <vel value="0.0726831984" flag="0"/>
      <psa03 value="0.2568507733" flag="0"/>
      <psa10 value="0.1422949715" flag="0"/>
      <psa30 value="0.0049326256" flag="0"/>
    </comp>
  </station>
  <station code="DARE" name="DARE" netid="KO" insttype="CMG-3ESP" lat="38.5712" lon="37.4832">
    <comp name="--.HHZ">
      <acc value="0.2126554213" flag="0"/>
      <vel value="0.1286521553" flag="0"/>
      <psa03 value="0.3831096677" flag="0"/>
      <psa10 value="0.1552155763" flag="0"/>
      <psa30 value="0.0280740098" flag="0"/>
    </comp>
    <comp name="--.HHE">
      <acc value="0.2530707055" flag="0"/>
      <vel value="0.1370915352" flag="0"/>
      <psa03 value="0.3246809045" flag="0"/>
      <psa10 value="0.1809938842" flag="0"/>
      <psa30 value="0.0144888719" flag="0"/>
    </comp>
    <comp name="--.HHN">
      <acc value="0.1745574792" flag="0"/>
      <vel value="0.1259097183" flag="0"/>
      <psa03 value="0.3887158416" flag="0"/>
      <psa10 value="0.1597263708" flag="0"/>
      <psa30 value="0.0237308859" flag="0"/>
    </comp>
  </station>
  <station code="GAZ" name="GAZ" netid="KO" insttype="CMG-3T" lat="37.1721" lon="37.2096">
    <comp name="--.HHN">
      <acc value="0.0176940465" flag="0"/>
      <vel value="0.0180806437" flag="0"/>
      <psa03 value="0.0504215570" flag="0"/>
      <psa10 value="0.0207332834" flag="0"/>
      <psa30 value="0.0030472642" flag="0"/>
    </comp>
    <comp name="--.HHE">
      <acc value="0.0286530052" flag="0"/>
      <vel value="0.0122593099" flag="0"/>
      <psa03 value="0.0587155842" flag="0"/>
      <psa10 value="0.0178763940" flag="0"/>
      <psa30 value="0.0037309276" flag="0"/>
    </comp>
    <comp name="--.HHZ">
      <acc value="0.0233463040" flag="0"/>
      <vel value="0.0089521084" flag="0"/>
      <psa03 value="0.0486572395" flag="0"/>
      <psa10 value="0.0135284970" flag="0"/>
      <psa30 value="0.0029292539" flag="0"/>
    </comp>
  </station>
  <station code="TUNC" name="TUNC" netid="KO" insttype="CMG-5T" lat="39.6942" lon="37.5388">
    <comp name="--.HNE">
      <acc value="0.0377428311" flag="0"/>
      <vel value="0.0324425232" flag="0"/>
      <psa03 value="0.1432713049" flag="0"/>
      <psa10 value="0.0342953394" flag="0"/>
      <psa30 value="0.0039563404" flag="0"/>
    </comp>
    <comp name="--.HNZ">
      <acc value="0.0167712642" flag="0"/>
      <vel value="0.0189312199" flag="0"/>
      <psa03 value="0.0708035650" flag="0"/>
      <psa10 value="0.0312751913" flag="0"/>
      <psa30 value="0.0039266022" flag="0"/>
    </comp>
    <comp name="--.HNN">
      <acc value="0.0256355585" flag="0"/>
      <vel value="0.0220339612" flag="0"/>
      <psa03 value="0.1244464254" flag="0"/>
      <psa10 value="0.0364552058" flag="0"/>
      <psa30 value="0.0031155527" flag="0"/>
    </comp>
  </station>
  <station code="URFA" name="URFA" netid="KO" insttype="CMG-3ESP" lat="37.4409" lon="38.8213">
    <comp name="--.HHE">
      <acc value="0.0457670867" flag="0"/>
      <vel value="0.0179368581" flag="0"/>
      <psa03 value="0.0611053829" flag="0"/>
      <psa10 value="0.0284700590" flag="0"/>
      <psa30 value="0.0060007038" flag="0"/>
    </comp>
    <comp name="--.HHZ">
      <acc value="0.0172622178" flag="0"/>
      <vel value="0.0108224636" flag="0"/>
      <psa03 value="0.0344556744" flag="0"/>
      <psa10 value="0.0105182460" flag="0"/>
      <psa30 value="0.0032112806" flag="0"/>
    </comp>
    <comp name="--.HHN">
      <acc value="0.0468473993" flag="0"/>
      <vel value="0.0312926234" flag="0"/>
      <psa03 value="0.0575828102" flag="0"/>
      <psa10 value="0.0339264064" flag="0"/>
      <psa30 value="0.0049265174" flag="0"/>
    </comp>
  </station>
  <station code="ANDN" name="ANDN" netid="TU" insttype="T" lat="37.58" lon="36.3452">
    <comp name="--.HHE">
      <acc value="0.0542340573" flag="0"/>
      <vel value="0.0570096950" flag="0"/>
      <psa03 value="0.0787062386" flag="0"/>
      <psa10 value="0.0716441596" flag="0"/>
      <psa30 value="0.0080361058" flag="0"/>
    </comp>
    <comp name="--.HHZ">
      <acc value="0.0352477234" flag="0"/>
      <vel value="0.0429030345" flag="0"/>
      <psa03 value="0.0637560795" flag="0"/>
      <psa10 value="0.0601108150" flag="0"/>
      <psa30 value="0.0038879755" flag="0"/>
    </comp>
    <comp name="--.HHN">
      <acc value="0.0484937090" flag="0"/>
      <vel value="0.0339991764" flag="0"/>
      <psa03 value="0.1000595291" flag="0"/>
      <psa10 value="0.0627634352" flag="0"/>
      <psa30 value="0.0054674347" flag="0"/>
    </comp>
  </station>
</stationlist>
