<?xml version="1.0" encoding="UTF-8" standalone="yes"?>
<!DOCTYPE earthquake SYSTEM "stationlist.dtd">
<stationlist created="" xmlns="ch.ethz.sed.shakemap.usgs.xml">
  <station code="ARPRA" name="ARPRA" netid="KO" insttype="CMG-5T" lat="39.0929" lon="38.3356">
    <comp name="--.HNN">
      <acc value="0.0836789618" flag="0"/>
      <vel value="0.0726832026" flag="0"/>
      <psa03 value="0.2568507733" flag="0"/>
      <psa10 value="0.1422949716" flag="0"/>
      <psa30 value="0.0049326495" flag="0"/>
    </comp>
    <comp name="--.HNZ">
      <acc value="0.0385174593" flag="0"/>
      <vel value="0.0316007678" flag="0"/>
      <psa03 value="0.1100685620" flag="0"/>
      <psa10 value="0.0627320888" flag="0"/>
      <psa30 value="0.0087132629" flag="0"/>
    </comp>
    <comp name="--.HNE">
      <acc value="0.0757662280" flag="0"/>
      <vel value="0.0444710829" flag="0"/>
      <psa03 value="0.2470081967" flag="0"/>
      <psa10 value="0.0749955012" flag="0"/>
      <psa30 value="0.0068833503" flag="0"/>
    </comp>
  </station>
  <station code="DARE" name="DARE" netid="KO" insttype="CMG-3ESP" lat="38.5712" lon="37.4832">
    <comp name="--.HHE">
      <acc value="0.2530707054" flag="0"/>
      <vel value="0.1370916228" flag="0"/>
      <psa03 value="0.3246809047" flag="0"/>
      <psa10 value="0.1809938827" flag="0"/>
      <psa30 value="0.0144895460" flag="0"/>
    </comp>
    <comp name="--.HHZ">
      <acc value="0.2126554229" flag="0"/>
      <vel value="0.1286530527" flag="0"/>
      <psa03 value="0.3831096694" flag="0"/>
      <psa10 value="0.1552155751" flag="0"/>
      <psa30 value="0.0280690811" flag="0"/>
    </comp>
    <comp name="--.HHN">
      <acc value="0.1745574789" flag="0"/>
      <vel value="0.1259099362" flag="0"/>
      <psa03 value="0.3887158420" flag="0"/>
      <psa10 value="0.1597263691" flag="0"/>
      <psa30 value="0.0237331036" flag="0"/>
    </comp>
  </station>
  <station code="GAZ" name="GAZ" netid="KO" insttype="CMG-3T" lat="37.1721" lon="37.2096">
    <comp name="--.HHE">
      <acc value="0.0286530056" flag="0"/>
      <vel value="0.0122593109" flag="0"/>
      <psa03 value="0.0587155842" flag="0"/>
      <psa10 value="0.0178763940" flag="0"/>
      <psa30 value="0.0037309271" flag="0"/>
    </comp>
    <comp name="--.HHN">
      <acc value="0.0176940467" flag="0"/>
      <vel value="0.0180806441" flag="0"/>
      <psa03 value="0.0504215570" flag="0"/>
      <psa10 value="0.0207332834" flag="0"/>
      <psa30 value="0.0030472541" flag="0"/>
    </comp>
    <comp name="--.HHZ">
      <acc value="0.0233463040" flag="0"/>
      <vel value="0.0089521078" flag="0"/>
      <psa03 value="0.0486572395" flag="0"/>
      <psa10 value="0.0135284970" flag="0"/>
      <psa30 value="0.0029292555" flag="0"/>
    </comp>
  </station>
  <station code="KHMN" name="KHMN" netid="KO" insttype="CMG-5T" lat="37.3916" lon="37.1574">
    <comp name="--.HNE">
      <acc value="0.0435636529" flag="0"/>
      <vel value="0.0216770685" flag="0"/>
      <psa03 value="0.1127137144" flag="0"/>
      <psa10 value="0.0170622460" flag="0"/>
      <psa30 value="0.0019427332" flag="0"/>
    </comp>
    <comp name="--.HNN">
      <acc value="0.0361572542" flag="0"/>
      <vel value="0.0150748934" flag="0"/>
      <psa03 value="0.0868383110" flag="0"/>
      <psa10 value="0.0201003687" flag="0"/>
      <psa30 value="0.0018995055" flag="0"/>
    </comp>
    <comp name="--.HNZ">
      <acc value="0.0194811147" flag="0"/>
      <vel value="0.0098959505" flag="0"/>
      <psa03 value="0.0597887317" flag="0"/>
      <psa10 value="0.0157737577" flag="0"/>
      <psa30 value="0.0020414990" flag="0"/>
    </comp>
  </station>
  <station code="KMRS" name="KMRS" netid="KO" insttype="CMG-3T" lat="37.5087" lon="36.9">
    <comp name="--.HHE">
      <acc value="0.0184340096" flag="0"/>
      <vel value="0.0115498080" flag="0"/>
      <psa03 value="0.0386310955" flag="0"/>
      <psa10 value="0.0145150308" flag="0"/>
      <psa30 value="0.0033539605" flag="0"/>
    </comp>
    <comp name="--.HHN">
      <acc value="0.0309460070" flag="0"/>
      <vel value="0.0185003407" flag="0"/>
      <psa03 value="0.0797730014" flag="0"/>
      <psa10 value="0.0242064559" flag="0"/>
      <psa30 value="0.0038211611" flag="0"/>
    </comp>
    <comp name="--.HHZ">
      <acc value="0.0221276749" flag="0"/>
      <vel value="0.0116206110" flag="0"/>
      <psa03 value="0.0375080870" flag="0"/>
      <psa10 value="0.0149176870" flag="0"/>
      <psa30 value="0.0019232977" flag="0"/>
    </comp>
  </station>
  <station code="TUNC" name="TUNC" netid="KO" insttype="CMG-5T" lat="39.6942" lon="37.5388">
    <comp name="--.HNZ">
      <acc value="0.0167712644" flag="0"/>
      <vel value="0.0189312190" flag="0"/>
      <psa03 value="0.0708035650" flag="0"/>
      <psa10 value="0.0312751913" flag="0"/>
      <psa30 value="0.0039266087" flag="0"/>
    </comp>
    <comp name="--.HNE">
      <acc value="0.0377428322" flag="0"/>
      <vel value="0.0324425228" flag="0"/>
      <psa03 value="0.1432713049" flag="0"/>
      <psa10 value="0.0342953393" flag="0"/>
      <psa30 value="0.0039563405" flag="0"/>
    </comp>
    <comp name="--.HNN">
      <acc value="0.0256355585" flag="0"/>
      <vel value="0.0220339604" flag="0"/>
      <psa03 value="0.1244464254" flag="0"/>
      <psa10 value="0.0364552058" flag="0"/>
      <psa30 value="0.0031129540" flag="0"/>
    </comp>
  </station>
  <station code="URFA" name="URFA" netid="KO" insttype="CMG-3ESP" lat="37.4409" lon="38.8213">
    <comp name="--.HHN">
      <acc value="0.0468473992" flag="0"/>
      <vel value="0.0312926248" flag="0"/>
      <psa03 value="0.0575828102" flag="0"/>
      <psa10 value="0.0339264064" flag="0"/>
      <psa30 value="0.0049265172" flag="0"/>
    </comp>
    <comp name="--.HHZ">
      <acc value="0.0172622179" flag="0"/>
      <vel value="0.0108224655" flag="0"/>
      <psa03 value="0.0344556744" flag="0"/>
      <psa10 value="0.0105182460" flag="0"/>
      <psa30 value="0.0032112809" flag="0"/>
    </comp>
    <comp name="--.HHE">
      <acc value="0.0457670867" flag="0"/>
      <vel value="0.0179368592" flag="0"/>
      <psa03 value="0.0611053829" flag="0"/>
      <psa10 value="0.0284700591" flag="0"/>
      <psa30 value="0.0060007077" flag="0"/>
    </comp>
  </station>
  <station code="ANDN" name="ANDN" netid="TU" insttype="T" lat="37.58" lon="36.3452">
    <comp name="--.HHE">
      <acc value="0.0542340573" flag="0"/>
      <vel value="0.0570096950" flag="0"/>
      <psa03 value="0.0787062386" flag="0"/>
      <psa10 value="0.0716441596" flag="0"/>
      <psa30 value="0.0080361041" flag="0"/>
    </comp>
    <comp name="--.HHZ">
      <acc value="0.0352477234" flag="0"/>
      <vel value="0.0429030345" flag="0"/>
      <psa03 value="0.0637560795" flag="0"/>
      <psa10 value="0.0601108150" flag="0"/>
      <psa30 value="0.0038879752" flag="0"/>
    </comp>
    <comp name="--.HHN">
      <acc value="0.0484937090" flag="0"/>
      <vel value="0.0339991765" flag="0"/>
      <psa03 value="0.1000595291" flag="0"/>
      <psa10 value="0.0627634352" flag="0"/>
      <psa30 value="0.0054674347" flag="0"/>
    </comp>
  </station>
</stationlist>
