<stationlist created="1778135825">
	<station code="KRL1" name="KRL1" netid="HI" source="ITSAK Strong Motion Network" insttype="" lat="37.7951" lon="26.7065">
		<comp name="--.HNE" depth="0.0">
			<acc value="0.732708302341064" flag="0"/>
			<vel value="0.168912183518717" flag="0"/>
			<psa03 value="0.331597570878234" flag="0"/>
			<psa10 value="0.0575950141369801" flag="0"/>
			<psa30 value="0.00618461011674717" flag="0"/>
		</comp>
		<comp name="--.HNN" depth="0.0">
			<acc value="0.411416305790892" flag="0"/>
			<vel value="0.168360480095502" flag="0"/>
			<psa03 value="0.755401791661048" flag="0"/>
			<psa10 value="0.0539205132195428" flag="0"/>
			<psa30 value="0.00499967453723065" flag="0"/>
		</comp>
		<comp name="--.HNZ" depth="0.0">
			<acc value="0.210362438502086" flag="0"/>
			<vel value="0.0573247654153338" flag="0"/>
			<psa03 value="0.123288854781613" flag="0"/>
			<psa10 value="0.0385796194604579" flag="0"/>
			<psa30 value="0.00337253549726003" flag="0"/>
		</comp>
	</station>
	<station code="MYT1" name="MYT1" netid="HI" source="ITSAK Strong Motion Network" insttype="" lat="39.085" lon="26.5694">
		<comp name="--.HNE" depth="0.0">
			<acc value="0.022821571799259" flag="0"/>
			<vel value="0.0144954357634635" flag="0"/>
			<psa03 value="0.0685565259086071" flag="0"/>
			<psa10 value="0.0215905796449585" flag="0"/>
			<psa30 value="0.0017090240477882" flag="0"/>
		</comp>
		<comp name="--.HNN" depth="0.0">
			<acc value="0.0200859043557283" flag="0"/>
			<vel value="0.0184564198622231" flag="0"/>
			<psa03 value="0.0505449473130583" flag="0"/>
			<psa10 value="0.0184723680787472" flag="0"/>
			<psa30 value="0.00186261943106417" flag="0"/>
		</comp>
		<comp name="--.HNZ" depth="0.0">
			<acc value="0.0191966861046653" flag="0"/>
			<vel value="0.0145681991482274" flag="0"/>
			<psa03 value="0.0590545995775072" flag="0"/>
			<psa10 value="0.0312520484198147" flag="0"/>
			<psa30 value="0.00257179766063842" flag="0"/>
		</comp>
	</station>
	<station code="NAX1" name="NAX1" netid="HI" source="ITSAK Strong Motion Network" insttype="" lat="37.101394" lon="25.374103">
		<comp name="--.HNE" depth="0.0">
			<acc value="0.0131178416950764" flag="0"/>
			<vel value="0.00523622646628157" flag="0"/>
			<psa03 value="0.0312147839720634" flag="0"/>
			<psa10 value="0.0048704059217417" flag="0"/>
			<psa30 value="0.000496606335234469" flag="0"/>
		</comp>
		<comp name="--.HNN" depth="0.0">
			<acc value="0.0140915023750041" flag="0"/>
			<vel value="0.00401350860988106" flag="0"/>
			<psa03 value="0.0134323715995237" flag="0"/>
			<psa10 value="0.00486486633601339" flag="0"/>
			<psa30 value="0.000639129787130326" flag="0"/>
		</comp>
		<comp name="--.HNZ" depth="0.0">
			<acc value="0.0071209472200864" flag="0"/>
			<vel value="0.00350448024257775" flag="0"/>
			<psa03 value="0.020562485861692" flag="0"/>
			<psa10 value="0.00411795232539758" flag="0"/>
			<psa30 value="0.000351189254147989" flag="0"/>
		</comp>
	</station>
	<station code="KLNA" name="KLNA" netid="HL" source="National Observatory of Athens Seismic Network" insttype="" lat="36.95708" lon="26.97274">
		<comp name="00.HNE" depth="0.0">
			<acc value="0.0616938802636166" flag="0"/>
			<vel value="0.0308497189998307" flag="0"/>
			<psa03 value="0.154316181022793" flag="0"/>
			<psa10 value="0.021865054702575" flag="0"/>
			<psa30 value="0.002003801492013" flag="0"/>
		</comp>
		<comp name="00.HNN" depth="0.0">
			<acc value="0.0361214077018686" flag="0"/>
			<vel value="0.0162252932358549" flag="0"/>
			<psa03 value="0.0909718493552924" flag="0"/>
			<psa10 value="0.00961042789369069" flag="0"/>
			<psa30 value="0.00111546399818146" flag="0"/>
		</comp>
		<comp name="00.HNZ" depth="0.0">
			<acc value="0.0424709773516741" flag="0"/>
			<vel value="0.0196566417361972" flag="0"/>
			<psa03 value="0.0524706946760129" flag="0"/>
			<psa10 value="0.0179020565484052" flag="0"/>
			<psa30 value="0.00126717352735864" flag="0"/>
		</comp>
	</station>
	<station code="AKS" name="AKS" netid="KO" source="Bogazici University Kandilli Observatory And Earthquake Research Institute (KOERI)" insttype="" lat="38.8785" lon="27.8129">
		<comp name="--.HNE" depth="0.0">
			<acc value="0.0087061762874836" flag="0"/>
			<vel value="0.00619548439481999" flag="0"/>
			<psa03 value="0.0219238455763354" flag="0"/>
			<psa10 value="0.00721432010081968" flag="0"/>
			<psa30 value="0.00148046265671996" flag="0"/>
		</comp>
		<comp name="--.HNN" depth="0.0">
			<acc value="0.015537807094777" flag="0"/>
			<vel value="0.00729275746821012" flag="0"/>
			<psa03 value="0.0376250758099313" flag="0"/>
			<psa10 value="0.00511883925421416" flag="0"/>
			<psa30 value="0.00150932342277025" flag="0"/>
		</comp>
		<comp name="--.HNZ" depth="0.0">
			<acc value="0.00523777989734217" flag="0"/>
			<vel value="0.00288726565016379" flag="0"/>
			<psa03 value="0.00719379621513453" flag="0"/>
			<psa10 value="0.00313184184415261" flag="0"/>
			<psa30 value="0.00116631320002471" flag="0"/>
		</comp>
	</station>
	<station code="CESE" name="CESE" netid="KO" source="Bogazici University Kandilli Observatory And Earthquake Research Institute (KOERI)" insttype="" lat="38.3306" lon="26.2997">
		<comp name="--.HNE" depth="0.0">
			<acc value="0.0268889950092934" flag="0"/>
			<vel value="0.0140502555258368" flag="0"/>
			<psa03 value="0.0523859651047684" flag="0"/>
			<psa10 value="0.0232125583430523" flag="0"/>
			<psa30 value="0.00289631499165461" flag="0"/>
		</comp>
		<comp name="--.HNN" depth="0.0">
			<acc value="0.0419866807559963" flag="0"/>
			<vel value="0.0319406788454211" flag="0"/>
			<psa03 value="0.0835822400380248" flag="0"/>
			<psa10 value="0.0537012399434229" flag="0"/>
			<psa30 value="0.00294582264629316" flag="0"/>
		</comp>
		<comp name="--.HNZ" depth="0.0">
			<acc value="0.0313769378967762" flag="0"/>
			<vel value="0.0180890218284207" flag="0"/>
			<psa03 value="0.0462688775860531" flag="0"/>
			<psa10 value="0.0356129666842809" flag="0"/>
			<psa30 value="0.00203066410486477" flag="0"/>
		</comp>
	</station>
	<station code="DATC" name="DATC" netid="KO" source="Bogazici University Kandilli Observatory And Earthquake Research Institute (KOERI)" insttype="" lat="36.7584" lon="27.6602">
		<comp name="--.HNE" depth="0.0">
			<acc value="0.0919073291827336" flag="0"/>
			<vel value="0.010182204278546" flag="0"/>
			<psa03 value="0.0278785968202232" flag="0"/>
			<psa10 value="0.0124240742839525" flag="0"/>
			<psa30 value="0.00128505346181915" flag="0"/>
		</comp>
		<comp name="--.HNN" depth="0.0">
			<acc value="0.107997665117265" flag="0"/>
			<vel value="0.0112214870993723" flag="0"/>
			<psa03 value="0.0344156783072872" flag="0"/>
			<psa10 value="0.0200195161946926" flag="0"/>
			<psa30 value="0.00150237233729426" flag="0"/>
		</comp>
		<comp name="--.HNZ" depth="0.0">
			<acc value="0.0840609470964931" flag="0"/>
			<vel value="0.0118263738975619" flag="0"/>
			<psa03 value="0.0201605985615488" flag="0"/>
			<psa10 value="0.0149583346662774" flag="0"/>
			<psa30 value="0.000959977135440642" flag="0"/>
		</comp>
	</station>
	<station code="DIDI" name="DIDI" netid="KO" source="Bogazici University Kandilli Observatory And Earthquake Research Institute (KOERI)" insttype="" lat="37.3767" lon="27.2398">
		<comp name="--.HNE" depth="0.0">
			<acc value="0.0493887902303324" flag="0"/>
			<vel value="0.0292435699539133" flag="0"/>
			<psa03 value="0.154860581670145" flag="0"/>
			<psa10 value="0.0338592942620847" flag="0"/>
			<psa30 value="0.00337180982418493" flag="0"/>
		</comp>
		<comp name="--.HNN" depth="0.0">
			<acc value="0.0664587669317589" flag="0"/>
			<vel value="0.0319592136586612" flag="0"/>
			<psa03 value="0.206341460775618" flag="0"/>
			<psa10 value="0.0298689849236816" flag="0"/>
			<psa30 value="0.00460912866548925" flag="0"/>
		</comp>
		<comp name="--.HNZ" depth="0.0">
			<acc value="0.0817735415582321" flag="0"/>
			<vel value="0.023300774031001" flag="0"/>
			<psa03 value="0.126878925939605" flag="0"/>
			<psa10 value="0.0166883992745605" flag="0"/>
			<psa30 value="0.00158977489811768" flag="0"/>
		</comp>
	</station>
	<station code="EZNE" name="EZNE" netid="KO" source="Bogazici University Kandilli Observatory And Earthquake Research Institute (KOERI)" insttype="" lat="39.756" lon="26.3655">
		<comp name="--.HNE" depth="0.0">
			<acc value="0.00855934050757712" flag="0"/>
			<vel value="0.00577322059884515" flag="0"/>
			<psa03 value="0.0316025752863644" flag="0"/>
			<psa10 value="0.0074549871375499" flag="0"/>
			<psa30 value="0.000741575375730115" flag="0"/>
		</comp>
		<comp name="--.HNN" depth="0.0">
			<acc value="0.00933831616879715" flag="0"/>
			<vel value="0.00404408278921105" flag="0"/>
			<psa03 value="0.0246820569401252" flag="0"/>
			<psa10 value="0.00849870518501072" flag="0"/>
			<psa30 value="0.000489076096806146" flag="0"/>
		</comp>
		<comp name="--.HNZ" depth="0.0">
			<acc value="0.00396924685873065" flag="0"/>
			<vel value="0.00321620584417796" flag="0"/>
			<psa03 value="0.0160581054373431" flag="0"/>
			<psa10 value="0.00371260367614743" flag="0"/>
			<psa30 value="0.000595480801848186" flag="0"/>
		</comp>
	</station>
	<station code="FOCM" name="FOCM" netid="KO" source="Bogazici University Kandilli Observatory And Earthquake Research Institute (KOERI)" insttype="" lat="38.7131" lon="26.7309">
		<comp name="--.HNE" depth="0.0">
			<acc value="0.0394309064962965" flag="0"/>
			<vel value="0.015341998063219" flag="0"/>
			<psa03 value="0.0658788954035883" flag="0"/>
			<psa10 value="0.0248307586659033" flag="0"/>
			<psa30 value="0.00159597197531044" flag="0"/>
		</comp>
		<comp name="--.HNN" depth="0.0">
			<acc value="0.0344290189766266" flag="0"/>
			<vel value="0.0163081257112113" flag="0"/>
			<psa03 value="0.0457632868016472" flag="0"/>
			<psa10 value="0.0253564853677124" flag="0"/>
			<psa30 value="0.00175124809492483" flag="0"/>
		</comp>
		<comp name="--.HNZ" depth="0.0">
			<acc value="0.0247850380938425" flag="0"/>
			<vel value="0.0105242715603616" flag="0"/>
			<psa03 value="0.0592245952139525" flag="0"/>
			<psa10 value="0.00623121169345148" flag="0"/>
			<psa30 value="0.000693382651949502" flag="0"/>
		</comp>
	</station>
	<station code="GMLD" name="GMLD" netid="KO" source="Bogazici University Kandilli Observatory And Earthquake Research Institute (KOERI)" insttype="" lat="38.0766" lon="26.9157">
		<comp name="--.HNE" depth="0.0">
			<acc value="0.296072031698999" flag="0"/>
			<vel value="0.151017871202605" flag="0"/>
			<psa03 value="0.696108530440765" flag="0"/>
			<psa10 value="0.104844630442161" flag="0"/>
			<psa30 value="0.00620054158879779" flag="0"/>
		</comp>
		<comp name="--.HNN" depth="0.0">
			<acc value="0.344009375144211" flag="0"/>
			<vel value="0.167591370924958" flag="0"/>
			<psa03 value="0.794093104770309" flag="0"/>
			<psa10 value="0.0825342299877287" flag="0"/>
			<psa30 value="0.00685268854029724" flag="0"/>
		</comp>
		<comp name="--.HNZ" depth="0.0">
			<acc value="0.173046008356804" flag="0"/>
			<vel value="0.0696537555460722" flag="0"/>
			<psa03 value="0.338105356153986" flag="0"/>
			<psa10 value="0.032779027699699" flag="0"/>
			<psa30 value="0.00278570099735241" flag="0"/>
		</comp>
	</station>
	<station code="GOMA" name="GOMA" netid="KO" source="Bogazici University Kandilli Observatory And Earthquake Research Institute (KOERI)" insttype="" lat="38.7077" lon="27.9175">
		<comp name="--.HNE" depth="0.0">
			<acc value="0.0199613989639474" flag="0"/>
			<vel value="0.0113233633466995" flag="0"/>
			<psa03 value="0.0737859765006936" flag="0"/>
			<psa10 value="0.00677394624069202" flag="0"/>
			<psa30 value="0.000934771507356899" flag="0"/>
		</comp>
		<comp name="--.HNN" depth="0.0">
			<acc value="0.0271145813410235" flag="0"/>
			<vel value="0.0172407669115328" flag="0"/>
			<psa03 value="0.067141749894942" flag="0"/>
			<psa10 value="0.0119700710834753" flag="0"/>
			<psa30 value="0.000918181866708798" flag="0"/>
		</comp>
		<comp name="--.HNZ" depth="0.0">
			<acc value="0.0169203110370866" flag="0"/>
			<vel value="0.00633427132514615" flag="0"/>
			<psa03 value="0.0272728587763635" flag="0"/>
			<psa10 value="0.00553842361214891" flag="0"/>
			<psa30 value="0.000877876800863381" flag="0"/>
		</comp>
	</station>
	<station code="GORD" name="GORD" netid="KO" source="Bogazici University Kandilli Observatory And Earthquake Research Institute (KOERI)" insttype="" lat="38.9088" lon="28.1769">
		<comp name="--.HNE" depth="0.0">
			<acc value="0.00595342954888133" flag="0"/>
			<vel value="0.00488688217515984" flag="0"/>
			<psa03 value="0.0227396105542657" flag="0"/>
			<psa10 value="0.00655948547122387" flag="0"/>
			<psa30 value="0.00113081272329489" flag="0"/>
		</comp>
		<comp name="--.HNN" depth="0.0">
			<acc value="0.00421998502580283" flag="0"/>
			<vel value="0.00486317931894946" flag="0"/>
			<psa03 value="0.0137436057589204" flag="0"/>
			<psa10 value="0.00682557169188754" flag="0"/>
			<psa30 value="0.00178793031660988" flag="0"/>
		</comp>
		<comp name="--.HNZ" depth="0.0">
			<acc value="0.00364317994217276" flag="0"/>
			<vel value="0.003791810473962" flag="0"/>
			<psa03 value="0.0115450121962111" flag="0"/>
			<psa10 value="0.00752389654623986" flag="0"/>
			<psa30 value="0.000711290192400715" flag="0"/>
		</comp>
	</station>
	<station code="KUSD" name="KUSD" netid="KO" source="Bogazici University Kandilli Observatory And Earthquake Research Institute (KOERI)" insttype="" lat="37.8606" lon="27.2868">
		<comp name="--.HNE" depth="0.0">
			<acc value="0.0244244980542489" flag="0"/>
			<vel value="0.00779079860207887" flag="0"/>
			<psa03 value="0.0396175307169943" flag="0"/>
			<psa10 value="0.00949370234867309" flag="0"/>
			<psa30 value="0.00096287451487694" flag="0"/>
		</comp>
		<comp name="--.HNN" depth="0.0">
			<acc value="0.0217332150604454" flag="0"/>
			<vel value="0.00832433378344621" flag="0"/>
			<psa03 value="0.0508265857620464" flag="0"/>
			<psa10 value="0.0124931538601176" flag="0"/>
			<psa30 value="0.00183443110539095" flag="0"/>
		</comp>
		<comp name="--.HNZ" depth="0.0">
			<acc value="0.0119391199170013" flag="0"/>
			<vel value="0.00384022046713479" flag="0"/>
			<psa03 value="0.0235371712012389" flag="0"/>
			<psa10 value="0.00421306800130933" flag="0"/>
			<psa30 value="0.00115419270960103" flag="0"/>
		</comp>
	</station>
	<station code="NAZL" name="NAZL" netid="KO" source="Bogazici University Kandilli Observatory And Earthquake Research Institute (KOERI)" insttype="" lat="37.9641" lon="28.2922">
		<comp name="--.HNE" depth="0.0">
			<acc value="0.018644524671903" flag="0"/>
			<vel value="0.00996142600141356" flag="0"/>
			<psa03 value="0.0609615279853649" flag="0"/>
			<psa10 value="0.0053436193010363" flag="0"/>
			<psa30 value="0.000569998488768551" flag="0"/>
		</comp>
		<comp name="--.HNN" depth="0.0">
			<acc value="0.0156759224090397" flag="0"/>
			<vel value="0.00954371248982166" flag="0"/>
			<psa03 value="0.034349205153774" flag="0"/>
			<psa10 value="0.00537708698689171" flag="0"/>
			<psa30 value="0.000798195220266846" flag="0"/>
		</comp>
		<comp name="--.HNZ" depth="0.0">
			<acc value="0.00593205448243882" flag="0"/>
			<vel value="0.00369284521151991" flag="0"/>
			<psa03 value="0.0154595866217642" flag="0"/>
			<psa10 value="0.00192474234848641" flag="0"/>
			<psa30 value="0.000428509193922542" flag="0"/>
		</comp>
	</station>
	<station code="SOMA" name="SOMA" netid="KO" source="Bogazici University Kandilli Observatory And Earthquake Research Institute (KOERI)" insttype="" lat="39.1564" lon="27.5341">
		<comp name="--.HNE" depth="0.0">
			<acc value="0.0126135486656754" flag="0"/>
			<vel value="0.00537583464346697" flag="0"/>
			<psa03 value="0.0372275052019994" flag="0"/>
			<psa10 value="0.00787491323683465" flag="0"/>
			<psa30 value="0.000831533626688454" flag="0"/>
		</comp>
		<comp name="--.HNN" depth="0.0">
			<acc value="0.0144990729600069" flag="0"/>
			<vel value="0.00672495425818841" flag="0"/>
			<psa03 value="0.0565483710522361" flag="0"/>
			<psa10 value="0.00686375062728229" flag="0"/>
			<psa30 value="0.000805131304745824" flag="0"/>
		</comp>
		<comp name="--.HNZ" depth="0.0">
			<acc value="0.00975757118356875" flag="0"/>
			<vel value="0.00366911619581637" flag="0"/>
			<psa03 value="0.0236366100802433" flag="0"/>
			<psa10 value="0.00472430655587548" flag="0"/>
			<psa30 value="0.00120863860804434" flag="0"/>
		</comp>
	</station>
	<station code="YKAV" name="YKAV" netid="KO" source="Bogazici University Kandilli Observatory And Earthquake Research Institute (KOERI)" insttype="" lat="37.1246" lon="27.2801">
		<comp name="--.HNE" depth="0.0">
			<acc value="0.024984693034937" flag="0"/>
			<vel value="0.0138241128560175" flag="0"/>
			<psa03 value="0.0523103871814222" flag="0"/>
			<psa10 value="0.0164614848675986" flag="0"/>
			<psa30 value="0.00168941076933986" flag="0"/>
		</comp>
		<comp name="--.HNN" depth="0.0">
			<acc value="0.0130329500777629" flag="0"/>
			<vel value="0.00808238851494063" flag="0"/>
			<psa03 value="0.0391819810305946" flag="0"/>
			<psa10 value="0.00936286180614729" flag="0"/>
			<psa30 value="0.0011953543946965" flag="0"/>
		</comp>
		<comp name="--.HNZ" depth="0.0">
			<acc value="0.0101140347525672" flag="0"/>
			<vel value="0.00662835114894274" flag="0"/>
			<psa03 value="0.0248594697345301" flag="0"/>
			<psa10 value="0.00589865372560713" flag="0"/>
			<psa30 value="0.000672756233466631" flag="0"/>
		</comp>
	</station>
</stationlist>
