<stationlist xmlns:esm="https://esm-db.eu/esmws/shakemap/1/" created="1780710992">
	<station code="KRL1" name="KRL1" netid="HI" source="ITSAK Strong Motion Network" insttype="" lat="37.7951" lon="26.7065" esm:processing="manual (Paolucci et al 2011)" esm:quality="good">
		<comp name="--.HNE" depth="0.0">
			<acc value="0.732708302341064" flag="0"/>
			<vel value="0.168912183518717" flag="0"/>
			<psa03 value="0.331597570878234" flag="0"/>
			<psa10 value="0.0575950141369801" flag="0"/>
			<psa30 value="0.00618461011674717" flag="0"/>
		</comp>
		<comp name="--.HNN" depth="0.0">
			<acc value="0.411416305790892" flag="0"/>
			<vel value="0.168360480095502" flag="0"/>
			<psa03 value="0.755401791661048" flag="0"/>
			<psa10 value="0.0539205132195428" flag="0"/>
			<psa30 value="0.00499967453723065" flag="0"/>
		</comp>
		<comp name="--.HNZ" depth="0.0">
			<acc value="0.210362438502086" flag="0"/>
			<vel value="0.0573247654153338" flag="0"/>
			<psa03 value="0.123288854781613" flag="0"/>
			<psa10 value="0.0385796194604579" flag="0"/>
			<psa30 value="0.00337253549726003" flag="0"/>
		</comp>
	</station>
	<station code="MYT1" name="MYT1" netid="HI" source="ITSAK Strong Motion Network" insttype="" lat="39.085" lon="26.5694" esm:processing="manual (Paolucci et al 2011)" esm:quality="best">
		<comp name="--.HNE" depth="0.0">
			<acc value="0.022821571799259" flag="0"/>
			<vel value="0.0144954357634635" flag="0"/>
			<psa03 value="0.0685565259086071" flag="0"/>
			<psa10 value="0.0215905796449585" flag="0"/>
			<psa30 value="0.0017090240477882" flag="0"/>
		</comp>
		<comp name="--.HNN" depth="0.0">
			<acc value="0.0200859043557283" flag="0"/>
			<vel value="0.0184564198622231" flag="0"/>
			<psa03 value="0.0505449473130583" flag="0"/>
			<psa10 value="0.0184723680787472" flag="0"/>
			<psa30 value="0.00186261943106417" flag="0"/>
		</comp>
		<comp name="--.HNZ" depth="0.0">
			<acc value="0.0191966861046653" flag="0"/>
			<vel value="0.0145681991482274" flag="0"/>
			<psa03 value="0.0590545995775072" flag="0"/>
			<psa10 value="0.0312520484198147" flag="0"/>
			<psa30 value="0.00257179766063842" flag="0"/>
		</comp>
	</station>
	<station code="NAX1" name="NAX1" netid="HI" source="ITSAK Strong Motion Network" insttype="" lat="37.101394" lon="25.374103" esm:processing="manual (Paolucci et al 2011)" esm:quality="best">
		<comp name="--.HNE" depth="0.0">
			<acc value="0.0131178416950764" flag="0"/>
			<vel value="0.00523622646628157" flag="0"/>
			<psa03 value="0.0312147839720634" flag="0"/>
			<psa10 value="0.0048704059217417" flag="0"/>
			<psa30 value="0.000496606335234469" flag="0"/>
		</comp>
		<comp name="--.HNN" depth="0.0">
			<acc value="0.0140915023750041" flag="0"/>
			<vel value="0.00401350860988106" flag="0"/>
			<psa03 value="0.0134323715995237" flag="0"/>
			<psa10 value="0.00486486633601339" flag="0"/>
			<psa30 value="0.000639129787130326" flag="0"/>
		</comp>
		<comp name="--.HNZ" depth="0.0">
			<acc value="0.0071209472200864" flag="0"/>
			<vel value="0.00350448024257775" flag="0"/>
			<psa03 value="0.020562485861692" flag="0"/>
			<psa10 value="0.00411795232539758" flag="0"/>
			<psa30 value="0.000351189254147989" flag="0"/>
		</comp>
	</station>
	<station code="PLM1" name="PLM1" netid="HI" source="ITSAK Strong Motion Network" insttype="" lat="38.9751" lon="26.3688" esm:processing="manual (Paolucci et al 2011)" esm:quality="good">
		<comp name="--.HNE" depth="0.0">
			<acc value="0.0188389441345395" flag="0"/>
			<vel value="0.0130273915569046" flag="0"/>
			<psa03 value="0.0599206517407692" flag="0"/>
			<psa10 value="0.0116448879791785" flag="0"/>
			<psa30 value="0.00171840435668847" flag="0"/>
		</comp>
		<comp name="--.HNN" depth="0.0">
			<acc value="0.0276394070938858" flag="0"/>
			<vel value="0.0161099556127736" flag="0"/>
			<psa03 value="0.0617654822850721" flag="0"/>
			<psa10 value="0.0188701925576468" flag="0"/>
			<psa30 value="0.0018399539712539" flag="0"/>
		</comp>
		<comp name="--.HNZ" depth="0.0">
			<acc value="0.0129095320289637" flag="0"/>
			<vel value="0.0116619587993723" flag="0"/>
			<psa03 value="0.027192655546642" flag="0"/>
			<psa10 value="0.0140864478455371" flag="0"/>
			<psa30 value="0.00231623198066791" flag="0"/>
		</comp>
	</station>
	<station code="SGR1" name="SGR1" netid="HI" source="ITSAK Strong Motion Network" insttype="" lat="39.211392" lon="25.855221" esm:processing="automatic (Paolucci et al 2011)" esm:quality="best">
		<comp name="--.HNE" depth="0.0">
			<acc value="0.010025393459287" flag="0"/>
			<vel value="0.0075579811082437" flag="0"/>
			<psa03 value="0.0214526463929561" flag="0"/>
			<psa10 value="0.0108769852343903" flag="0"/>
			<psa30 value="0.000858405042204546" flag="0"/>
		</comp>
		<comp name="--.HNN" depth="0.0">
			<acc value="0.00979842347157319" flag="0"/>
			<vel value="0.00715132163196979" flag="0"/>
			<psa03 value="0.0174153971741758" flag="0"/>
			<psa10 value="0.00649605048771385" flag="0"/>
			<psa30 value="0.000715335720814151" flag="0"/>
		</comp>
		<comp name="--.HNZ" depth="0.0">
			<acc value="0.00465358832967414" flag="0"/>
			<vel value="0.00263682167285457" flag="0"/>
			<psa03 value="0.0153508320214501" flag="0"/>
			<psa10 value="0.00228918938193679" flag="0"/>
			<psa30 value="0.00102899837442558" flag="0"/>
		</comp>
	</station>
	<station code="KLNA" name="KLNA" netid="HL" source="National Observatory of Athens Seismic Network" insttype="" lat="36.95708" lon="26.97274" esm:processing="manual (Paolucci et al 2011)" esm:quality="good">
		<comp name="00.HNE" depth="0.0">
			<acc value="0.0616938802636166" flag="0"/>
			<vel value="0.0308497189998307" flag="0"/>
			<psa03 value="0.154316181022793" flag="0"/>
			<psa10 value="0.021865054702575" flag="0"/>
			<psa30 value="0.002003801492013" flag="0"/>
		</comp>
		<comp name="00.HNN" depth="0.0">
			<acc value="0.0361214077018686" flag="0"/>
			<vel value="0.0162252932358549" flag="0"/>
			<psa03 value="0.0909718493552924" flag="0"/>
			<psa10 value="0.00961042789369069" flag="0"/>
			<psa30 value="0.00111546399818146" flag="0"/>
		</comp>
		<comp name="00.HNZ" depth="0.0">
			<acc value="0.0424709773516741" flag="0"/>
			<vel value="0.0196566417361972" flag="0"/>
			<psa03 value="0.0524706946760129" flag="0"/>
			<psa10 value="0.0179020565484052" flag="0"/>
			<psa30 value="0.00126717352735864" flag="0"/>
		</comp>
	</station>
	<station code="FOCM" name="FOCM" netid="KO" source="Bogazici University Kandilli Observatory And Earthquake Research Institute (KOERI)" insttype="" lat="38.7131" lon="26.7309" esm:processing="automatic (Paolucci et al 2011)" esm:quality="best">
		<comp name="--.HNE" depth="0.0">
			<acc value="0.0394309064962965" flag="0"/>
			<vel value="0.015341998063219" flag="0"/>
			<psa03 value="0.0658788954035883" flag="0"/>
			<psa10 value="0.0248307586659033" flag="0"/>
			<psa30 value="0.00159597197531044" flag="0"/>
		</comp>
		<comp name="--.HNN" depth="0.0">
			<acc value="0.0344290189766266" flag="0"/>
			<vel value="0.0163081257112113" flag="0"/>
			<psa03 value="0.0457632868016472" flag="0"/>
			<psa10 value="0.0253564853677124" flag="0"/>
			<psa30 value="0.00175124809492483" flag="0"/>
		</comp>
		<comp name="--.HNZ" depth="0.0">
			<acc value="0.0247850380938425" flag="0"/>
			<vel value="0.0105242715603616" flag="0"/>
			<psa03 value="0.0592245952139525" flag="0"/>
			<psa10 value="0.00623121169345148" flag="0"/>
			<psa30 value="0.000693382651949502" flag="0"/>
		</comp>
	</station>
	<station code="GMLD" name="GMLD" netid="KO" source="Bogazici University Kandilli Observatory And Earthquake Research Institute (KOERI)" insttype="" lat="38.0766" lon="26.9157" esm:processing="automatic (Paolucci et al 2011)" esm:quality="best">
		<comp name="--.HNE" depth="0.0">
			<acc value="0.296072031698999" flag="0"/>
			<vel value="0.151017871202605" flag="0"/>
			<psa03 value="0.696108530440765" flag="0"/>
			<psa10 value="0.104844630442161" flag="0"/>
			<psa30 value="0.00620054158879779" flag="0"/>
		</comp>
		<comp name="--.HNN" depth="0.0">
			<acc value="0.344009375144211" flag="0"/>
			<vel value="0.167591370924958" flag="0"/>
			<psa03 value="0.794093104770309" flag="0"/>
			<psa10 value="0.0825342299877287" flag="0"/>
			<psa30 value="0.00685268854029724" flag="0"/>
		</comp>
		<comp name="--.HNZ" depth="0.0">
			<acc value="0.173046008356804" flag="0"/>
			<vel value="0.0696537555460722" flag="0"/>
			<psa03 value="0.338105356153986" flag="0"/>
			<psa10 value="0.032779027699699" flag="0"/>
			<psa30 value="0.00278570099735241" flag="0"/>
		</comp>
	</station>
	<station code="GOMA" name="GOMA" netid="KO" source="Bogazici University Kandilli Observatory And Earthquake Research Institute (KOERI)" insttype="" lat="38.7077" lon="27.9175" esm:processing="automatic (Paolucci et al 2011)" esm:quality="best">
		<comp name="--.HNE" depth="0.0">
			<acc value="0.0199613989639474" flag="0"/>
			<vel value="0.0113233633466995" flag="0"/>
			<psa03 value="0.0737859765006936" flag="0"/>
			<psa10 value="0.00677394624069202" flag="0"/>
			<psa30 value="0.000934771507356899" flag="0"/>
		</comp>
		<comp name="--.HNN" depth="0.0">
			<acc value="0.0271145813410235" flag="0"/>
			<vel value="0.0172407669115328" flag="0"/>
			<psa03 value="0.067141749894942" flag="0"/>
			<psa10 value="0.0119700710834753" flag="0"/>
			<psa30 value="0.000918181866708798" flag="0"/>
		</comp>
		<comp name="--.HNZ" depth="0.0">
			<acc value="0.0169203110370866" flag="0"/>
			<vel value="0.00633427132514615" flag="0"/>
			<psa03 value="0.0272728587763635" flag="0"/>
			<psa10 value="0.00553842361214891" flag="0"/>
			<psa30 value="0.000877876800863381" flag="0"/>
		</comp>
	</station>
	<station code="GORD" name="GORD" netid="KO" source="Bogazici University Kandilli Observatory And Earthquake Research Institute (KOERI)" insttype="" lat="38.9088" lon="28.1769" esm:processing="automatic (Paolucci et al 2011)" esm:quality="best">
		<comp name="--.HNE" depth="0.0">
			<acc value="0.00595342954888133" flag="0"/>
			<vel value="0.00488688217515984" flag="0"/>
			<psa03 value="0.0227396105542657" flag="0"/>
			<psa10 value="0.00655948547122387" flag="0"/>
			<psa30 value="0.00113081272329489" flag="0"/>
		</comp>
		<comp name="--.HNN" depth="0.0">
			<acc value="0.00421998502580283" flag="0"/>
			<vel value="0.00486317931894946" flag="0"/>
			<psa03 value="0.0137436057589204" flag="0"/>
			<psa10 value="0.00682557169188754" flag="0"/>
			<psa30 value="0.00178793031660988" flag="0"/>
		</comp>
		<comp name="--.HNZ" depth="0.0">
			<acc value="0.00364317994217276" flag="0"/>
			<vel value="0.003791810473962" flag="0"/>
			<psa03 value="0.0115450121962111" flag="0"/>
			<psa10 value="0.00752389654623986" flag="0"/>
			<psa30 value="0.000711290192400715" flag="0"/>
		</comp>
	</station>
</stationlist>
