<?xml version="1.0" encoding="UTF-8" standalone="yes"?>
<!DOCTYPE earthquake SYSTEM "stationlist.dtd">
<stationlist created="" xmlns="ch.ethz.sed.shakemap.usgs.xml">
  <station code="KRL1" name="KRL1" netid="HI" insttype="CMG-5TD,ACCELEROMETER,GURALP" lat="37.7951" lon="26.7065">
    <comp name="--.HNN">
      <acc value="0.4110956278" flag="0"/>
      <vel value="0.1667432333" flag="0"/>
      <psa03 value="0.7489421637" flag="0"/>
      <psa10 value="0.0538344511" flag="0"/>
      <psa30 value="0.0048130119" flag="0"/>
    </comp>
    <comp name="--.HNZ">
      <acc value="0.2298641336" flag="0"/>
      <vel value="0.0572004149" flag="0"/>
      <psa03 value="0.1233336582" flag="0"/>
      <psa10 value="0.0387252118" flag="0"/>
      <psa30 value="0.0029238366" flag="0"/>
    </comp>
    <comp name="--.HNE">
      <acc value="0.7229904982" flag="0"/>
      <vel value="0.1642112688" flag="0"/>
      <psa03 value="0.3200613397" flag="0"/>
      <psa10 value="0.0575031899" flag="0"/>
      <psa30 value="0.0053709475" flag="0"/>
    </comp>
  </station>
  <station code="EAG2" name="EAG2" netid="HL" insttype="SMART24" lat="38.5438" lon="26.1079">
    <comp name="--.HHE">
      <acc value="0.4104411988" flag="0"/>
      <vel value="0.2266483157" flag="0"/>
      <psa03 value="1.5956924944" flag="0"/>
      <psa10 value="0.0724170112" flag="0"/>
      <psa30 value="0.0071065996" flag="0"/>
    </comp>
    <comp name="--.HHN">
      <acc value="0.3607963876" flag="0"/>
      <vel value="0.1946720004" flag="0"/>
      <psa03 value="1.6489040440" flag="0"/>
      <psa10 value="0.0757873678" flag="0"/>
      <psa30 value="0.0061094395" flag="0"/>
    </comp>
    <comp name="--.HHZ">
      <acc value="0.1386323716" flag="0"/>
      <vel value="0.0567660786" flag="0"/>
      <psa03 value="0.5599230590" flag="0"/>
      <psa10 value="0.0305522810" flag="0"/>
      <psa30 value="0.0031671875" flag="0"/>
    </comp>
  </station>
  <station code="CHOS" name="CHOS" netid="HT" insttype="100" lat="38.3869" lon="26.0506">
    <comp name="--.HHE">
      <acc value="0.0657670877" flag="0"/>
      <vel value="0.0242523754" flag="0"/>
      <psa03 value="0.1670222846" flag="0"/>
      <psa10 value="0.0199447306" flag="0"/>
      <psa30 value="0.0017488729" flag="0"/>
    </comp>
    <comp name="--.HHN">
      <acc value="0.0400254677" flag="0"/>
      <vel value="0.0164996943" flag="0"/>
      <psa03 value="0.1118145390" flag="0"/>
      <psa10 value="0.0187872794" flag="0"/>
      <psa30 value="0.0019695974" flag="0"/>
    </comp>
    <comp name="--.HHZ">
      <acc value="0.0197358102" flag="0"/>
      <vel value="0.0094273349" flag="0"/>
      <psa03 value="0.0425965787" flag="0"/>
      <psa10 value="0.0153883023" flag="0"/>
      <psa30 value="0.0018187292" flag="0"/>
    </comp>
  </station>
  <station code="GMLD" name="GMLD" netid="KO" insttype="100" lat="38.0764" lon="26.8747">
    <comp name="--.HNZ">
      <acc value="0.1224823100" flag="0"/>
      <vel value="0.0461631911" flag="0"/>
      <psa03 value="0.2276723581" flag="0"/>
      <psa10 value="0.0218285680" flag="0"/>
      <psa30 value="0.0018280762" flag="0"/>
    </comp>
    <comp name="--.HNE">
      <acc value="0.1989538287" flag="0"/>
      <vel value="0.1005904825" flag="0"/>
      <psa03 value="0.4649940574" flag="0"/>
      <psa10 value="0.0696919879" flag="0"/>
      <psa30 value="0.0040461389" flag="0"/>
    </comp>
    <comp name="--.HNN">
      <acc value="0.2288359133" flag="0"/>
      <vel value="0.1111704844" flag="0"/>
      <psa03 value="0.5245580066" flag="0"/>
      <psa10 value="0.0548492280" flag="0"/>
      <psa30 value="0.0044830008" flag="0"/>
    </comp>
  </station>
  <station code="KRBN" name="KRBN" netid="KO" insttype="100" lat="38.5936" lon="26.5537">
    <comp name="--.HNE">
      <acc value="0.0980359868" flag="0"/>
      <vel value="0.0462048730" flag="0"/>
      <psa03 value="0.1434260705" flag="0"/>
      <psa10 value="0.0530212947" flag="0"/>
      <psa30 value="0.0039237040" flag="0"/>
    </comp>
    <comp name="--.HNZ">
      <acc value="0.0429517379" flag="0"/>
      <vel value="0.0281814361" flag="0"/>
      <psa03 value="0.1031902986" flag="0"/>
      <psa10 value="0.0453203012" flag="0"/>
      <psa30 value="0.0017241345" flag="0"/>
    </comp>
  </station>
</stationlist>
