<stationlist created="1644241162">
	<station code="KYMI" name="KYMI" netid="HL" source="National Observatory of Athens Seismic Network" insttype="" lat="38.633147" lon="24.100138">
		<comp name=".HNE" depth="1.0">
			<acc value="0.000557634" flag="0"/>
			<vel value="0.001191" flag="0"/>
			<psa03 value="0.00156597723164" flag="0"/>
			<psa10 value="0.000881868892446" flag="0"/>
			<psa30 value="0.00061296823067" flag="0"/>
		</comp>
		<comp name=".HNN" depth="1.0">
			<acc value="0.000843948" flag="0"/>
			<vel value="0.001142" flag="0"/>
			<psa03 value="0.00205814150444" flag="0"/>
			<psa10 value="0.00145367429303" flag="0"/>
			<psa30 value="0.000497533337595" flag="0"/>
		</comp>
		<comp name=".HNZ" depth="1.0">
			<acc value="0.000459612" flag="0"/>
			<vel value="0.00092" flag="0"/>
			<psa03 value="0.000760617512511" flag="0"/>
			<psa10 value="0.00103891403768" flag="0"/>
			<psa30 value="0.000503797246522" flag="0"/>
		</comp>
	</station>
</stationlist>
