<?xml version="1.0" encoding="UTF-8" standalone="yes"?>
<!DOCTYPE earthquake SYSTEM "stationlist.dtd">
<stationlist created="" xmlns="ch.ethz.sed.shakemap.usgs.xml">
  <station code="DARE" name="DARE" netid="KO" insttype="CMG-3ESP" lat="38.5712" lon="37.4832">
    <comp name="--.HHN">
      <acc value="0.0974819781" flag="0"/>
      <vel value="0.0173437074" flag="0"/>
      <psa03 value="0.0552973387" flag="0"/>
      <psa10 value="0.0213601094" flag="0"/>
      <psa30 value="0.0012271928" flag="0"/>
    </comp>
    <comp name="--.HHE">
      <acc value="0.0718295572" flag="0"/>
      <vel value="0.0294211601" flag="0"/>
      <psa03 value="0.1452489715" flag="0"/>
      <psa10 value="0.0223892261" flag="0"/>
      <psa30 value="0.0013429028" flag="0"/>
    </comp>
    <comp name="--.HHZ">
      <acc value="0.0516699257" flag="0"/>
      <vel value="0.0185765261" flag="0"/>
      <psa03 value="0.0617774521" flag="0"/>
      <psa10 value="0.0164943622" flag="0"/>
      <psa30 value="0.0013908502" flag="0"/>
    </comp>
  </station>
  <station code="GAZ" name="GAZ" netid="KO" insttype="CMG-3T" lat="37.1721" lon="37.2096">
    <comp name="--.HHE">
      <acc value="0.0114315545" flag="0"/>
      <vel value="0.0068558015" flag="0"/>
      <psa03 value="0.0313684940" flag="0"/>
      <psa10 value="0.0086455349" flag="0"/>
      <psa30 value="0.0003683104" flag="0"/>
    </comp>
    <comp name="--.HHN">
      <acc value="0.0076063523" flag="0"/>
      <vel value="0.0053770347" flag="0"/>
      <psa03 value="0.0313670699" flag="0"/>
      <psa10 value="0.0090358905" flag="0"/>
      <psa30 value="0.0004490008" flag="0"/>
    </comp>
    <comp name="--.HHZ">
      <acc value="0.0075781029" flag="0"/>
      <vel value="0.0035413225" flag="0"/>
      <psa03 value="0.0168226832" flag="0"/>
      <psa10 value="0.0046794096" flag="0"/>
      <psa30 value="0.0002959267" flag="0"/>
    </comp>
  </station>
  <station code="KMRS" name="KMRS" netid="KO" insttype="CMG-3T" lat="37.5053" lon="36.9">
    <comp name="--.HHE">
      <acc value="0.0095793012" flag="0"/>
      <vel value="0.0075586377" flag="0"/>
      <psa03 value="0.0227221682" flag="0"/>
      <psa10 value="0.0072637333" flag="0"/>
      <psa30 value="0.0008627312" flag="0"/>
    </comp>
    <comp name="--.HHN">
      <acc value="0.0123445954" flag="0"/>
      <vel value="0.0109593582" flag="0"/>
      <psa03 value="0.0339158182" flag="0"/>
      <psa10 value="0.0092367016" flag="0"/>
      <psa30 value="0.0010195530" flag="0"/>
    </comp>
  </station>
  <station code="SARI" name="SARI" netid="KO" insttype="CMG-3T" lat="38.4072" lon="36.4181">
    <comp name="--.HHE">
      <acc value="0.0699471265" flag="0"/>
      <vel value="0.0180699343" flag="0"/>
      <psa03 value="0.0634388881" flag="0"/>
      <psa10 value="0.0067225297" flag="0"/>
      <psa30 value="0.0004083885" flag="0"/>
    </comp>
    <comp name="--.HHZ">
      <acc value="0.0356130189" flag="0"/>
      <vel value="0.0087952500" flag="0"/>
      <psa03 value="0.0461161109" flag="0"/>
      <psa10 value="0.0114887686" flag="0"/>
      <psa30 value="0.0004853872" flag="0"/>
    </comp>
  </station>
</stationlist>
