<?xml version="1.0" encoding="UTF-8" standalone="yes"?>
<!DOCTYPE earthquake SYSTEM "stationlist.dtd">
<stationlist created="" xmlns="ch.ethz.sed.shakemap.usgs.xml">
  <station code="DARE" name="DARE" netid="KO" insttype="CMG-3ESP" lat="38.5712" lon="37.4832">
    <comp name="--.HHN">
      <acc value="0.0974819782" flag="0"/>
      <vel value="0.0173437076" flag="0"/>
      <psa03 value="0.0552973387" flag="0"/>
      <psa10 value="0.0213601095" flag="0"/>
      <psa30 value="0.0012271493" flag="0"/>
    </comp>
    <comp name="--.HHZ">
      <acc value="0.0516699256" flag="0"/>
      <vel value="0.0185765257" flag="0"/>
      <psa03 value="0.0617774521" flag="0"/>
      <psa10 value="0.0164943625" flag="0"/>
      <psa30 value="0.0013908135" flag="0"/>
    </comp>
    <comp name="--.HHE">
      <acc value="0.0718295572" flag="0"/>
      <vel value="0.0294211598" flag="0"/>
      <psa03 value="0.1452489715" flag="0"/>
      <psa10 value="0.0223892260" flag="0"/>
      <psa30 value="0.0013427524" flag="0"/>
    </comp>
  </station>
  <station code="GAZ" name="GAZ" netid="KO" insttype="CMG-3T" lat="37.1721" lon="37.2096">
    <comp name="--.HHE">
      <acc value="0.0114315545" flag="0"/>
      <vel value="0.0068558004" flag="0"/>
      <psa03 value="0.0313684940" flag="0"/>
      <psa10 value="0.0086455349" flag="0"/>
      <psa30 value="0.0003683204" flag="0"/>
    </comp>
    <comp name="--.HHN">
      <acc value="0.0076063524" flag="0"/>
      <vel value="0.0053770346" flag="0"/>
      <psa03 value="0.0313670699" flag="0"/>
      <psa10 value="0.0090358905" flag="0"/>
      <psa30 value="0.0004489998" flag="0"/>
    </comp>
    <comp name="--.HHZ">
      <acc value="0.0075781029" flag="0"/>
      <vel value="0.0035413225" flag="0"/>
      <psa03 value="0.0168226832" flag="0"/>
      <psa10 value="0.0046794137" flag="0"/>
      <psa30 value="0.0002959242" flag="0"/>
    </comp>
  </station>
  <station code="KMRS" name="KMRS" netid="KO" insttype="CMG-3T" lat="37.5053" lon="36.9">
    <comp name="--.HHE">
      <acc value="0.0095793012" flag="0"/>
      <vel value="0.0075586376" flag="0"/>
      <psa03 value="0.0227221682" flag="0"/>
      <psa10 value="0.0072637332" flag="0"/>
      <psa30 value="0.0008627272" flag="0"/>
    </comp>
    <comp name="--.HHN">
      <acc value="0.0123445954" flag="0"/>
      <vel value="0.0109593581" flag="0"/>
      <psa03 value="0.0339158182" flag="0"/>
      <psa10 value="0.0092367016" flag="0"/>
      <psa30 value="0.0010195426" flag="0"/>
    </comp>
  </station>
  <station code="SARI" name="SARI" netid="KO" insttype="CMG-3T" lat="38.4072" lon="36.4181">
    <comp name="--.HHE">
      <acc value="0.0699471266" flag="0"/>
      <vel value="0.0180699338" flag="0"/>
      <psa03 value="0.0634388881" flag="0"/>
      <psa10 value="0.0067225305" flag="0"/>
      <psa30 value="0.0004083730" flag="0"/>
    </comp>
    <comp name="--.HHZ">
      <acc value="0.0356130189" flag="0"/>
      <vel value="0.0087952494" flag="0"/>
      <psa03 value="0.0461161109" flag="0"/>
      <psa10 value="0.0114887690" flag="0"/>
      <psa30 value="0.0004854353" flag="0"/>
    </comp>
  </station>
</stationlist>
