<?xml version="1.0" encoding="UTF-8" standalone="yes"?>
<!DOCTYPE earthquake SYSTEM "stationlist.dtd">
<stationlist created="" xmlns="ch.ethz.sed.shakemap.usgs.xml">
  <station code="CAYL" name="CAYL" netid="KO" insttype="CMG-6T" commtype="DIG" lat="40.3745" lon="36.159">
    <comp name="--.HHE">
      <acc value="0.2474063440" flag="0"/>
      <vel value="0.1154250107" flag="0"/>
      <psa03 value="0.5224415912" flag="0"/>
      <psa10 value="0.0451508175" flag="0"/>
      <psa30 value="0.0030718286" flag="0"/>
    </comp>
    <comp name="--.HHN">
      <acc value="0.1846864475" flag="0"/>
      <vel value="0.0822907343" flag="0"/>
      <psa03 value="0.4290466588" flag="0"/>
      <psa10 value="0.0345613511" flag="0"/>
      <psa30 value="0.0025337241" flag="0"/>
    </comp>
    <comp name="--.HHZ">
      <acc value="0.0987988472" flag="0"/>
      <vel value="0.0371190120" flag="0"/>
      <psa03 value="0.1504410238" flag="0"/>
      <psa10 value="0.0415091296" flag="0"/>
      <psa30 value="0.0018354009" flag="0"/>
    </comp>
  </station>
  <station code="CORM" name="CORM" netid="KO" insttype="CMG-3ESP" commtype="DIG" lat="40.1785" lon="34.6302">
    <comp name="--.HHN">
      <acc value="0.0210682444" flag="0"/>
      <vel value="0.0100108547" flag="0"/>
      <psa03 value="0.0766549876" flag="0"/>
      <psa10 value="0.0180201960" flag="0"/>
      <psa30 value="0.0011804911" flag="0"/>
    </comp>
    <comp name="--.HHE">
      <acc value="0.0193340779" flag="0"/>
      <vel value="0.0079218420" flag="0"/>
      <psa03 value="0.0661628827" flag="0"/>
      <psa10 value="0.0073050817" flag="0"/>
      <psa30 value="0.0006959448" flag="0"/>
    </comp>
    <comp name="--.HHZ">
      <acc value="0.0195170610" flag="0"/>
      <vel value="0.0084653018" flag="0"/>
      <psa03 value="0.0536601498" flag="0"/>
      <psa10 value="0.0084727524" flag="0"/>
      <psa30 value="0.0014097345" flag="0"/>
    </comp>
  </station>
  <station code="DIKM" name="DIKM" netid="KO" insttype="CMG-3T" commtype="DIG" lat="41.6497" lon="35.2578">
    <comp name="--.HHZ">
      <acc value="0.0549532972" flag="0"/>
      <vel value="0.0237052651" flag="0"/>
      <psa03 value="0.1286610722" flag="0"/>
      <psa10 value="0.0223227284" flag="0"/>
      <psa30 value="0.0016018849" flag="0"/>
    </comp>
  </station>
  <station code="ERBG" name="ERBG" netid="KO" insttype="CMG-5T" commtype="DIG" lat="40.712" lon="36.6768">
    <comp name="--.HNE">
      <acc value="0.7041891861" flag="0"/>
      <vel value="0.3459778647" flag="0"/>
      <psa03 value="0.6666959526" flag="0"/>
      <psa10 value="0.3177243940" flag="0"/>
      <psa30 value="0.0176219611" flag="0"/>
    </comp>
    <comp name="--.HNZ">
      <acc value="0.3854417416" flag="0"/>
      <vel value="0.2273248001" flag="0"/>
      <psa03 value="0.6502692884" flag="0"/>
      <psa10 value="0.2494543955" flag="0"/>
      <psa30 value="0.0151367425" flag="0"/>
    </comp>
  </station>
  <station code="OSMA" name="OSMA" netid="KO" insttype="CMG-6T" commtype="DIG" lat="40.9939" lon="34.7605">
    <comp name="--.HHN">
      <acc value="0.3612366097" flag="0"/>
      <vel value="0.1263072725" flag="0"/>
      <psa03 value="0.8410008646" flag="0"/>
      <psa10 value="0.0987113700" flag="0"/>
      <psa30 value="0.0034170823" flag="0"/>
    </comp>
    <comp name="--.HHE">
      <acc value="0.3335355432" flag="0"/>
      <vel value="0.1185406572" flag="0"/>
      <psa03 value="0.8286600009" flag="0"/>
      <psa10 value="0.0982484906" flag="0"/>
      <psa30 value="0.0040879934" flag="0"/>
    </comp>
    <comp name="--.HHZ">
      <acc value="0.2456459516" flag="0"/>
      <vel value="0.0747168049" flag="0"/>
      <psa03 value="0.3931180989" flag="0"/>
      <psa10 value="0.0250693467" flag="0"/>
      <psa30 value="0.0016258494" flag="0"/>
    </comp>
  </station>
  <station code="SVSK" name="SVSK" netid="KO" insttype="CMG-3T" commtype="DIG" lat="39.9157" lon="36.9925">
    <comp name="--.HHE">
      <acc value="0.1059825371" flag="0"/>
      <vel value="0.0448101054" flag="0"/>
      <psa03 value="0.2149815515" flag="0"/>
      <psa10 value="0.0558912577" flag="0"/>
      <psa30 value="0.0046365850" flag="0"/>
    </comp>
    <comp name="--.HHN">
      <acc value="0.1550401795" flag="0"/>
      <vel value="0.0672679210" flag="0"/>
      <psa03 value="0.3724330583" flag="0"/>
      <psa10 value="0.0383937343" flag="0"/>
      <psa30 value="0.0030424097" flag="0"/>
    </comp>
    <comp name="--.HHZ">
      <acc value="0.0452598920" flag="0"/>
      <vel value="0.0234306877" flag="0"/>
      <psa03 value="0.1113144588" flag="0"/>
      <psa10 value="0.0172955092" flag="0"/>
      <psa30 value="0.0020243663" flag="0"/>
    </comp>
  </station>
  <station code="TOKT" name="TOKT" netid="KO" insttype="CMG-3T" commtype="DIG" lat="40.3173" lon="36.5443">
    <comp name="--.HHE">
      <acc value="0.3259253197" flag="0"/>
      <vel value="0.0961376712" flag="0"/>
      <psa03 value="0.6537171616" flag="0"/>
      <psa10 value="0.0510756659" flag="0"/>
      <psa30 value="0.0043686752" flag="0"/>
    </comp>
    <comp name="--.HHN">
      <acc value="0.3513115944" flag="0"/>
      <vel value="0.1604110905" flag="0"/>
      <psa03 value="0.9794753256" flag="0"/>
      <psa10 value="0.0877884782" flag="0"/>
      <psa30 value="0.0043400424" flag="0"/>
    </comp>
    <comp name="--.HHZ">
      <acc value="0.0000951962" flag="0"/>
      <vel value="0.0000075982" flag="0"/>
      <psa03 value="0.0000120266" flag="0"/>
      <psa10 value="0.0000041399" flag="0"/>
      <psa30 value="0.0000006714" flag="0"/>
    </comp>
  </station>
</stationlist>
