<?xml version="1.0" encoding="UTF-8" standalone="yes"?>
<!DOCTYPE earthquake SYSTEM "stationlist.dtd">
<stationlist created="" xmlns="ch.ethz.sed.shakemap.usgs.xml">
  <station code="CAYL" name="CAYL" netid="KO" insttype="CMG-6T" commtype="DIG" lat="40.3745" lon="36.159">
    <comp name="--.HHE">
      <acc value="0.2474063465" flag="0"/>
      <vel value="0.1154250108" flag="0"/>
      <psa03 value="0.5224415912" flag="0"/>
      <psa10 value="0.0451508173" flag="0"/>
      <psa30 value="0.0030718411" flag="0"/>
    </comp>
    <comp name="--.HHZ">
      <acc value="0.0987988467" flag="0"/>
      <vel value="0.0371190119" flag="0"/>
      <psa03 value="0.1504410238" flag="0"/>
      <psa10 value="0.0415091300" flag="0"/>
      <psa30 value="0.0018353906" flag="0"/>
    </comp>
    <comp name="--.HHN">
      <acc value="0.1846864519" flag="0"/>
      <vel value="0.0822907345" flag="0"/>
      <psa03 value="0.4290466588" flag="0"/>
      <psa10 value="0.0345613511" flag="0"/>
      <psa30 value="0.0025337062" flag="0"/>
    </comp>
  </station>
  <station code="CORM" name="CORM" netid="KO" insttype="CMG-3ESP" commtype="DIG" lat="40.1785" lon="34.6302">
    <comp name="--.HHN">
      <acc value="0.0210682418" flag="0"/>
      <vel value="0.0100108556" flag="0"/>
      <psa03 value="0.0766549876" flag="0"/>
      <psa10 value="0.0180201960" flag="0"/>
      <psa30 value="0.0011804654" flag="0"/>
    </comp>
    <comp name="--.HHZ">
      <acc value="0.0195170621" flag="0"/>
      <vel value="0.0084653001" flag="0"/>
      <psa03 value="0.0536601498" flag="0"/>
      <psa10 value="0.0084727524" flag="0"/>
      <psa30 value="0.0014097392" flag="0"/>
    </comp>
    <comp name="--.HHE">
      <acc value="0.0193340770" flag="0"/>
      <vel value="0.0079218415" flag="0"/>
      <psa03 value="0.0661628827" flag="0"/>
      <psa10 value="0.0073050817" flag="0"/>
      <psa30 value="0.0006959244" flag="0"/>
    </comp>
  </station>
  <station code="DIKM" name="DIKM" netid="KO" insttype="CMG-3T" commtype="DIG" lat="41.6497" lon="35.2578">
    <comp name="--.HHZ">
      <acc value="0.0549532972" flag="0"/>
      <vel value="0.0237052650" flag="0"/>
      <psa03 value="0.1286610722" flag="0"/>
      <psa10 value="0.0223227284" flag="0"/>
      <psa30 value="0.0016018847" flag="0"/>
    </comp>
  </station>
  <station code="ERBG" name="ERBG" netid="KO" insttype="CMG-5T" commtype="DIG" lat="40.712" lon="36.6768">
    <comp name="--.HNE">
      <acc value="0.7041891253" flag="0"/>
      <vel value="0.3459778697" flag="0"/>
      <psa03 value="0.6666959526" flag="0"/>
      <psa10 value="0.3177244565" flag="0"/>
      <psa30 value="0.0176183978" flag="0"/>
    </comp>
    <comp name="--.HNZ">
      <acc value="0.3854417501" flag="0"/>
      <vel value="0.2273248099" flag="0"/>
      <psa03 value="0.6502692884" flag="0"/>
      <psa10 value="0.2494544315" flag="0"/>
      <psa30 value="0.0151319409" flag="0"/>
    </comp>
  </station>
  <station code="OSMA" name="OSMA" netid="KO" insttype="CMG-6T" commtype="DIG" lat="40.9939" lon="34.7605">
    <comp name="--.HHE">
      <acc value="0.3335355385" flag="0"/>
      <vel value="0.1185406635" flag="0"/>
      <psa03 value="0.8286600009" flag="0"/>
      <psa10 value="0.0982484907" flag="0"/>
      <psa30 value="0.0040879896" flag="0"/>
    </comp>
    <comp name="--.HHN">
      <acc value="0.3612366084" flag="0"/>
      <vel value="0.1263072693" flag="0"/>
      <psa03 value="0.8410008646" flag="0"/>
      <psa10 value="0.0987113700" flag="0"/>
      <psa30 value="0.0034170824" flag="0"/>
    </comp>
    <comp name="--.HHZ">
      <acc value="0.2456459544" flag="0"/>
      <vel value="0.0747167994" flag="0"/>
      <psa03 value="0.3931180989" flag="0"/>
      <psa10 value="0.0250693467" flag="0"/>
      <psa30 value="0.0016258673" flag="0"/>
    </comp>
  </station>
  <station code="SNOP" name="SNOP" netid="KO" insttype="CMG-3T" commtype="DIG" lat="42.0195" lon="35.2069">
    <comp name="--.HHZ">
      <acc value="0.0432148526" flag="0"/>
      <vel value="0.0142985256" flag="0"/>
      <psa03 value="0.0925423900" flag="0"/>
      <psa10 value="0.0137258131" flag="0"/>
      <psa30 value="0.0013421819" flag="0"/>
    </comp>
    <comp name="--.HHN">
      <acc value="0.0839082428" flag="0"/>
      <vel value="0.0445291018" flag="0"/>
      <psa03 value="0.2626827035" flag="0"/>
      <psa10 value="0.0189523599" flag="0"/>
      <psa30 value="0.0018513579" flag="0"/>
    </comp>
    <comp name="--.HHE">
      <acc value="0.0628826790" flag="0"/>
      <vel value="0.0298940556" flag="0"/>
      <psa03 value="0.1392750069" flag="0"/>
      <psa10 value="0.0358238050" flag="0"/>
      <psa30 value="0.0022918284" flag="0"/>
    </comp>
  </station>
  <station code="SVSK" name="SVSK" netid="KO" insttype="CMG-3T" commtype="DIG" lat="39.9157" lon="36.9925">
    <comp name="--.HHZ">
      <acc value="0.0452598918" flag="0"/>
      <vel value="0.0234306878" flag="0"/>
      <psa03 value="0.1113144588" flag="0"/>
      <psa10 value="0.0172955093" flag="0"/>
      <psa30 value="0.0020243598" flag="0"/>
    </comp>
    <comp name="--.HHE">
      <acc value="0.1059825371" flag="0"/>
      <vel value="0.0448101060" flag="0"/>
      <psa03 value="0.2149815515" flag="0"/>
      <psa10 value="0.0558912577" flag="0"/>
      <psa30 value="0.0046365584" flag="0"/>
    </comp>
    <comp name="--.HHN">
      <acc value="0.1550401795" flag="0"/>
      <vel value="0.0672679208" flag="0"/>
      <psa03 value="0.3724330583" flag="0"/>
      <psa10 value="0.0383937342" flag="0"/>
      <psa30 value="0.0030424171" flag="0"/>
    </comp>
  </station>
  <station code="TOKT" name="TOKT" netid="KO" insttype="CMG-3T" commtype="DIG" lat="40.3173" lon="36.5443">
    <comp name="--.HHN">
      <acc value="0.3513115945" flag="0"/>
      <vel value="0.1604110905" flag="0"/>
      <psa03 value="0.9794753256" flag="0"/>
      <psa10 value="0.0877884785" flag="0"/>
      <psa30 value="0.0043399576" flag="0"/>
    </comp>
    <comp name="--.HHZ">
      <acc value="0.0000671885" flag="0"/>
      <vel value="0.0000051775" flag="0"/>
      <psa03 value="0.0000120266" flag="0"/>
      <psa10 value="0.0000041379" flag="0"/>
      <psa30 value="0.0000006719" flag="0"/>
    </comp>
    <comp name="--.HHE">
      <acc value="0.3259253203" flag="0"/>
      <vel value="0.0961376714" flag="0"/>
      <psa03 value="0.6537171616" flag="0"/>
      <psa10 value="0.0510756660" flag="0"/>
      <psa30 value="0.0043686821" flag="0"/>
    </comp>
  </station>
</stationlist>
