<?xml version="1.0" encoding="UTF-8" standalone="yes"?>
<!DOCTYPE earthquake SYSTEM "stationlist.dtd">
<stationlist created="" xmlns="ch.ethz.sed.shakemap.usgs.xml">
  <station code="FX11" name="FX11" netid="1J" insttype="" lat="38.1019" lon="15.4868">
    <comp name="--.HHZ">
      <acc value="0.0065606695" flag="0"/>
      <vel value="0.0039066204" flag="0"/>
      <psa03 value="0.0144181136" flag="0"/>
      <psa10 value="0.0051858529" flag="0"/>
      <psa30 value="0.0005951281" flag="0"/>
    </comp>
    <comp name="--.HHN">
      <acc value="0.0099590545" flag="0"/>
      <vel value="0.0062304979" flag="0"/>
      <psa03 value="0.0359214084" flag="0"/>
      <psa10 value="0.0127199673" flag="0"/>
      <psa30 value="0.0005827793" flag="0"/>
    </comp>
    <comp name="--.HHE">
      <acc value="0.0101714619" flag="0"/>
      <vel value="0.0066208448" flag="0"/>
      <psa03 value="0.0334224592" flag="0"/>
      <psa10 value="0.0104458972" flag="0"/>
      <psa30 value="0.0009531964" flag="0"/>
    </comp>
  </station>
  <station code="FX12" name="FX12" netid="1J" insttype="" lat="38.0895" lon="15.7176">
    <comp name="00.HHE">
      <acc value="0.0022644820" flag="0"/>
      <vel value="0.0018698651" flag="0"/>
      <psa03 value="0.0133940371" flag="0"/>
      <psa10 value="0.0024257484" flag="0"/>
      <psa30 value="0.0003599527" flag="0"/>
    </comp>
    <comp name="00.HHN">
      <acc value="0.0016818824" flag="0"/>
      <vel value="0.0016754793" flag="0"/>
      <psa03 value="0.0094513047" flag="0"/>
      <psa10 value="0.0015078158" flag="0"/>
      <psa30 value="0.0003313205" flag="0"/>
    </comp>
    <comp name="00.HHZ">
      <acc value="0.0009039547" flag="0"/>
      <vel value="0.0009295119" flag="0"/>
      <psa03 value="0.0015477813" flag="0"/>
      <psa10 value="0.0012457215" flag="0"/>
      <psa30 value="0.0004865759" flag="0"/>
    </comp>
  </station>
  <station code="FX13" name="FX13" netid="1J" insttype="" lat="37.945" lon="15.7075">
    <comp name="--.HHN">
      <acc value="0.0114941922" flag="0"/>
      <vel value="0.0134967520" flag="0"/>
      <psa03 value="0.0306604818" flag="0"/>
      <psa10 value="0.0200174301" flag="0"/>
      <psa30 value="0.0016233048" flag="0"/>
    </comp>
    <comp name="--.HHE">
      <acc value="0.0098716676" flag="0"/>
      <vel value="0.0109377574" flag="0"/>
      <psa03 value="0.0293348853" flag="0"/>
      <psa10 value="0.0209461970" flag="0"/>
      <psa30 value="0.0014135605" flag="0"/>
    </comp>
    <comp name="--.HHZ">
      <acc value="0.0087092106" flag="0"/>
      <vel value="0.0080477572" flag="0"/>
      <psa03 value="0.0242953156" flag="0"/>
      <psa10 value="0.0118344878" flag="0"/>
      <psa30 value="0.0008563466" flag="0"/>
    </comp>
  </station>
  <station code="FX14" name="FX14" netid="1J" insttype="" lat="37.9286" lon="15.907">
    <comp name="00.HHN">
      <acc value="0.0013356128" flag="0"/>
      <vel value="0.0023491453" flag="0"/>
      <psa03 value="0.0018670006" flag="0"/>
      <psa10 value="0.0059315341" flag="0"/>
      <psa30 value="0.0004866279" flag="0"/>
    </comp>
    <comp name="00.HHZ">
      <acc value="0.0008690050" flag="0"/>
      <vel value="0.0014380324" flag="0"/>
      <psa03 value="0.0016819726" flag="0"/>
      <psa10 value="0.0033963430" flag="0"/>
      <psa30 value="0.0004687884" flag="0"/>
    </comp>
    <comp name="00.HHE">
      <acc value="0.0922353921" flag="0"/>
      <vel value="0.2889480939" flag="0"/>
      <psa03 value="0.1062190371" flag="0"/>
      <psa10 value="0.2320630202" flag="0"/>
      <psa30 value="0.1548462632" flag="0"/>
    </comp>
  </station>
  <station code="CS2FF" name="CS2FF" netid="7C" insttype="" lat="39.2933" lon="16.2584">
    <comp name="--.HH1">
      <acc value="0.0481909720" flag="0"/>
      <vel value="0.0369723721" flag="0"/>
      <psa03 value="0.1204001336" flag="0"/>
      <psa10 value="0.0594106586" flag="0"/>
      <psa30 value="0.0031145940" flag="0"/>
    </comp>
    <comp name="--.HH2">
      <acc value="0.0354172804" flag="0"/>
      <vel value="0.0334140198" flag="0"/>
      <psa03 value="0.0771329474" flag="0"/>
      <psa10 value="0.0448804469" flag="0"/>
      <psa30 value="0.0026401403" flag="0"/>
    </comp>
    <comp name="--.HHZ">
      <acc value="0.0359774113" flag="0"/>
      <vel value="0.0256004513" flag="0"/>
      <psa03 value="0.1214898561" flag="0"/>
      <psa10 value="0.0268625400" flag="0"/>
      <psa30 value="0.0030507401" flag="0"/>
    </comp>
  </station>
  <station code="CS2FS" name="CS2FS" netid="7C" insttype="" lat="39.2933" lon="16.2584">
    <comp name="--.HHE">
      <acc value="0.0234600823" flag="0"/>
      <vel value="0.0133643063" flag="0"/>
      <psa03 value="0.0596031440" flag="0"/>
      <psa10 value="0.0162837869" flag="0"/>
      <psa30 value="0.0009252379" flag="0"/>
    </comp>
    <comp name="--.HHN">
      <acc value="0.0254915977" flag="0"/>
      <vel value="0.0137145348" flag="0"/>
      <psa03 value="0.0625205972" flag="0"/>
      <psa10 value="0.0197643549" flag="0"/>
      <psa30 value="0.0013181864" flag="0"/>
    </comp>
    <comp name="--.HHZ">
      <acc value="0.0121102129" flag="0"/>
      <vel value="0.0079392091" flag="0"/>
      <psa03 value="0.0427341624" flag="0"/>
      <psa10 value="0.0090953591" flag="0"/>
      <psa30 value="0.0010038923" flag="0"/>
    </comp>
  </station>
  <station code="CSGE1" name="CSGE1" netid="7C" insttype="" lat="38.2705" lon="16.2205">
    <comp name="--.HNE">
      <acc value="0.0506877471" flag="0"/>
      <vel value="0.0414892726" flag="0"/>
      <psa03 value="0.1329588404" flag="0"/>
      <psa10 value="0.0991717349" flag="0"/>
      <psa30 value="0.0063140504" flag="0"/>
    </comp>
    <comp name="--.HNN">
      <acc value="0.0519934960" flag="0"/>
      <vel value="0.0611015058" flag="0"/>
      <psa03 value="0.1407550149" flag="0"/>
      <psa10 value="0.0684849910" flag="0"/>
      <psa30 value="0.0063645805" flag="0"/>
    </comp>
    <comp name="--.HNZ">
      <acc value="0.0364123386" flag="0"/>
      <vel value="0.0288626880" flag="0"/>
      <psa03 value="0.0738025739" flag="0"/>
      <psa10 value="0.0366540213" flag="0"/>
      <psa30 value="0.0062103768" flag="0"/>
    </comp>
  </station>
  <station code="CSMBE" name="CSMBE" netid="7C" insttype="" lat="39.2895" lon="16.2642">
    <comp name="--.HNE">
      <acc value="0.0976275035" flag="0"/>
      <vel value="0.0519473818" flag="0"/>
      <psa03 value="0.2413026192" flag="0"/>
      <psa10 value="0.0422357635" flag="0"/>
      <psa30 value="0.0039959939" flag="0"/>
    </comp>
    <comp name="--.HNZ">
      <acc value="0.0413070357" flag="0"/>
      <vel value="0.0278165709" flag="0"/>
      <psa03 value="0.1074023623" flag="0"/>
      <psa10 value="0.0365929947" flag="0"/>
      <psa30 value="0.0029607411" flag="0"/>
    </comp>
    <comp name="--.HNN">
      <acc value="0.0954374940" flag="0"/>
      <vel value="0.0651396981" flag="0"/>
      <psa03 value="0.2280858112" flag="0"/>
      <psa10 value="0.0526580655" flag="0"/>
      <psa30 value="0.0036106131" flag="0"/>
    </comp>
  </station>
  <station code="CAR1" name="CAR1" netid="IV" insttype="" lat="39.2534" lon="16.2114">
    <comp name="--.HHE">
      <acc value="0.1292831003" flag="0"/>
      <vel value="0.0770175758" flag="0"/>
      <psa03 value="0.3317447451" flag="0"/>
      <psa10 value="0.0759502847" flag="0"/>
      <psa30 value="0.0038484230" flag="0"/>
    </comp>
    <comp name="--.HHN">
      <acc value="0.0915932351" flag="0"/>
      <vel value="0.0628850367" flag="0"/>
      <psa03 value="0.4183845872" flag="0"/>
      <psa10 value="0.0772608115" flag="0"/>
      <psa30 value="0.0051292535" flag="0"/>
    </comp>
    <comp name="--.HHZ">
      <acc value="0.0865965461" flag="0"/>
      <vel value="0.0547509667" flag="0"/>
      <psa03 value="0.3246309847" flag="0"/>
      <psa10 value="0.0287148117" flag="0"/>
      <psa30 value="0.0046986642" flag="0"/>
    </comp>
  </station>
  <station code="CELI" name="CELI" netid="IV" insttype="" lat="39.4027" lon="16.5088">
    <comp name="--.HHN">
      <acc value="0.0952080392" flag="0"/>
      <vel value="0.0544119823" flag="0"/>
      <psa03 value="0.2156684571" flag="0"/>
      <psa10 value="0.0438531278" flag="0"/>
      <psa30 value="0.0037046891" flag="0"/>
    </comp>
    <comp name="--.HHZ">
      <acc value="0.0399517902" flag="0"/>
      <vel value="0.0223580292" flag="0"/>
      <psa03 value="0.0940489469" flag="0"/>
      <psa10 value="0.0208884188" flag="0"/>
      <psa30 value="0.0028921291" flag="0"/>
    </comp>
    <comp name="--.HHE">
      <acc value="0.0302527158" flag="0"/>
      <vel value="0.0355555871" flag="0"/>
      <psa03 value="0.0618817717" flag="0"/>
      <psa10 value="0.0552945971" flag="0"/>
      <psa30 value="0.0027073190" flag="0"/>
    </comp>
  </station>
  <station code="CET2" name="CET2" netid="IV" insttype="" lat="39.5288" lon="15.9546">
    <comp name="--.HHN">
      <acc value="0.0678288673" flag="0"/>
      <vel value="0.0420685431" flag="0"/>
      <psa03 value="0.2206219334" flag="0"/>
      <psa10 value="0.0348861080" flag="0"/>
      <psa30 value="0.0024387044" flag="0"/>
    </comp>
    <comp name="--.HHE">
      <acc value="0.0466791667" flag="0"/>
      <vel value="0.0290669899" flag="0"/>
      <psa03 value="0.0874783509" flag="0"/>
      <psa10 value="0.0614705884" flag="0"/>
      <psa30 value="0.0028285370" flag="0"/>
    </comp>
    <comp name="--.HHZ">
      <acc value="0.0502555879" flag="0"/>
      <vel value="0.0301920181" flag="0"/>
      <psa03 value="0.0929924379" flag="0"/>
      <psa10 value="0.0235592016" flag="0"/>
      <psa30 value="0.0012394701" flag="0"/>
    </comp>
  </station>
  <station code="FERC" name="FERC" netid="IV" insttype="" lat="38.4527" lon="16.1281">
    <comp name="00.HHE">
      <acc value="0.6511194425" flag="0"/>
      <vel value="0.8614233120" flag="0"/>
      <psa03 value="2.3219901438" flag="0"/>
      <psa10 value="1.2479866434" flag="0"/>
      <psa30 value="0.2303096784" flag="0"/>
    </comp>
    <comp name="00.HHN">
      <acc value="1.0877065806" flag="0"/>
      <vel value="0.8724437904" flag="0"/>
      <psa03 value="4.0271190830" flag="0"/>
      <psa10 value="0.8518134446" flag="0"/>
      <psa30 value="0.3407151840" flag="0"/>
    </comp>
    <comp name="00.HHZ">
      <acc value="0.4470225932" flag="0"/>
      <vel value="0.4992419960" flag="0"/>
      <psa03 value="1.2151526673" flag="0"/>
      <psa10 value="0.7111986909" flag="0"/>
      <psa30 value="0.1258039667" flag="0"/>
    </comp>
  </station>
  <station code="GRIS" name="GRIS" netid="IV" insttype="" lat="39.7405" lon="15.8531">
    <comp name="--.HNE">
      <acc value="0.0223638971" flag="0"/>
      <vel value="0.0190389972" flag="0"/>
      <psa03 value="0.0610579176" flag="0"/>
      <psa10 value="0.0250252928" flag="0"/>
      <psa30 value="0.0018742517" flag="0"/>
    </comp>
    <comp name="--.HNN">
      <acc value="0.0233944306" flag="0"/>
      <vel value="0.0110686263" flag="0"/>
      <psa03 value="0.0586527505" flag="0"/>
      <psa10 value="0.0153295920" flag="0"/>
      <psa30 value="0.0007670072" flag="0"/>
    </comp>
    <comp name="--.HNZ">
      <acc value="0.0135473688" flag="0"/>
      <vel value="0.0074235877" flag="0"/>
      <psa03 value="0.0331370260" flag="0"/>
      <psa10 value="0.0096293407" flag="0"/>
      <psa30 value="0.0009071400" flag="0"/>
    </comp>
  </station>
  <station code="IST3" name="IST3" netid="IV" insttype="" lat="38.7992" lon="15.2304">
    <comp name="--.HHE">
      <acc value="0.0344358561" flag="0"/>
      <vel value="0.0159286126" flag="0"/>
      <psa03 value="0.0594696516" flag="0"/>
      <psa10 value="0.0160179787" flag="0"/>
      <psa30 value="0.0008600989" flag="0"/>
    </comp>
    <comp name="--.HHN">
      <acc value="0.0480858038" flag="0"/>
      <vel value="0.0182268913" flag="0"/>
      <psa03 value="0.1150160166" flag="0"/>
      <psa10 value="0.0244336654" flag="0"/>
      <psa30 value="0.0017301392" flag="0"/>
    </comp>
    <comp name="--.HHZ">
      <acc value="0.0245484211" flag="0"/>
      <vel value="0.0112783726" flag="0"/>
      <psa03 value="0.0509178576" flag="0"/>
      <psa10 value="0.0097143629" flag="0"/>
      <psa30 value="0.0006206392" flag="0"/>
    </comp>
  </station>
  <station code="MILZ" name="MILZ" netid="IV" insttype="" lat="38.2713" lon="15.2313">
    <comp name="--.HHE">
      <acc value="0.0458573388" flag="0"/>
      <vel value="0.0344930856" flag="0"/>
      <psa03 value="0.1504792802" flag="0"/>
      <psa10 value="0.0479606307" flag="0"/>
      <psa30 value="0.0042646657" flag="0"/>
    </comp>
    <comp name="--.HHN">
      <acc value="0.0186102509" flag="0"/>
      <vel value="0.0164097652" flag="0"/>
      <psa03 value="0.0771898534" flag="0"/>
      <psa10 value="0.0194918701" flag="0"/>
      <psa30 value="0.0025035403" flag="0"/>
    </comp>
    <comp name="--.HHZ">
      <acc value="0.0192061477" flag="0"/>
      <vel value="0.0122561945" flag="0"/>
      <psa03 value="0.0608762582" flag="0"/>
      <psa10 value="0.0169127422" flag="0"/>
      <psa30 value="0.0020104806" flag="0"/>
    </comp>
  </station>
  <station code="MMN" name="MMN" netid="IV" insttype="" lat="39.891" lon="15.9904">
    <comp name="--.HHE">
      <acc value="0.0215392774" flag="0"/>
      <vel value="0.0094630621" flag="0"/>
      <psa03 value="0.0692947106" flag="0"/>
      <psa10 value="0.0128233963" flag="0"/>
      <psa30 value="0.0011698018" flag="0"/>
    </comp>
    <comp name="--.HHN">
      <acc value="0.0232545318" flag="0"/>
      <vel value="0.0159355880" flag="0"/>
      <psa03 value="0.0746507658" flag="0"/>
      <psa10 value="0.0359249188" flag="0"/>
      <psa30 value="0.0011933333" flag="0"/>
    </comp>
    <comp name="--.HHZ">
      <acc value="0.0142065340" flag="0"/>
      <vel value="0.0085586580" flag="0"/>
      <psa03 value="0.0598690800" flag="0"/>
      <psa10 value="0.0101436937" flag="0"/>
      <psa30 value="0.0007722445" flag="0"/>
    </comp>
  </station>
  <station code="MPAZ" name="MPAZ" netid="IV" insttype="" lat="37.9531" lon="16.0067">
    <comp name="--.HHN">
      <acc value="0.0133866061" flag="0"/>
      <vel value="0.0107368464" flag="0"/>
      <psa03 value="0.0293415399" flag="0"/>
      <psa10 value="0.0149965757" flag="0"/>
      <psa30 value="0.0008349671" flag="0"/>
    </comp>
    <comp name="--.HHE">
      <acc value="0.0115474446" flag="0"/>
      <vel value="0.0095746359" flag="0"/>
      <psa03 value="0.0457557012" flag="0"/>
      <psa10 value="0.0184947494" flag="0"/>
      <psa30 value="0.0012852468" flag="0"/>
    </comp>
    <comp name="--.HHZ">
      <acc value="0.0073917081" flag="0"/>
      <vel value="0.0048566843" flag="0"/>
      <psa03 value="0.0169123786" flag="0"/>
      <psa10 value="0.0052741097" flag="0"/>
      <psa30 value="0.0006457489" flag="0"/>
    </comp>
  </station>
  <station code="MPNC" name="MPNC" netid="IV" insttype="" lat="38.1465" lon="15.3528">
    <comp name="--.HHE">
      <acc value="0.0208247542" flag="0"/>
      <vel value="0.0148559319" flag="0"/>
      <psa03 value="0.0447174450" flag="0"/>
      <psa10 value="0.0282138162" flag="0"/>
      <psa30 value="0.0013502733" flag="0"/>
    </comp>
    <comp name="--.HHZ">
      <acc value="0.0105848913" flag="0"/>
      <vel value="0.0073007872" flag="0"/>
      <psa03 value="0.0236244110" flag="0"/>
      <psa10 value="0.0111873368" flag="0"/>
      <psa30 value="0.0008995974" flag="0"/>
    </comp>
    <comp name="--.HHN">
      <acc value="0.0151182136" flag="0"/>
      <vel value="0.0146147071" flag="0"/>
      <psa03 value="0.0529420318" flag="0"/>
      <psa10 value="0.0259082195" flag="0"/>
      <psa30 value="0.0016426912" flag="0"/>
    </comp>
  </station>
  <station code="MRCB" name="MRCB" netid="IV" insttype="" lat="38.162" lon="15.703">
    <comp name="--.HHE">
      <acc value="0.0110046042" flag="0"/>
      <vel value="0.0087354855" flag="0"/>
      <psa03 value="0.0255404571" flag="0"/>
      <psa10 value="0.0156795494" flag="0"/>
      <psa30 value="0.0017759690" flag="0"/>
    </comp>
    <comp name="--.HHN">
      <acc value="0.0090004162" flag="0"/>
      <vel value="0.0066672517" flag="0"/>
      <psa03 value="0.0194082148" flag="0"/>
      <psa10 value="0.0133826395" flag="0"/>
      <psa30 value="0.0012672198" flag="0"/>
    </comp>
    <comp name="--.HHZ">
      <acc value="0.0054451626" flag="0"/>
      <vel value="0.0045679560" flag="0"/>
      <psa03 value="0.0134470471" flag="0"/>
      <psa10 value="0.0072503072" flag="0"/>
      <psa30 value="0.0008180862" flag="0"/>
    </comp>
  </station>
  <station code="MSRU" name="MSRU" netid="IV" insttype="" lat="38.2639" lon="15.5083">
    <comp name="--.HHN">
      <acc value="0.0142965565" flag="0"/>
      <vel value="0.0107376126" flag="0"/>
      <psa03 value="0.0415626238" flag="0"/>
      <psa10 value="0.0233326223" flag="0"/>
      <psa30 value="0.0016038624" flag="0"/>
    </comp>
    <comp name="--.HHZ">
      <acc value="0.0114181097" flag="0"/>
      <vel value="0.0063123107" flag="0"/>
      <psa03 value="0.0347972443" flag="0"/>
      <psa10 value="0.0073473878" flag="0"/>
      <psa30 value="0.0009440109" flag="0"/>
    </comp>
    <comp name="--.HHE">
      <acc value="0.0180576060" flag="0"/>
      <vel value="0.0132726525" flag="0"/>
      <psa03 value="0.0683427959" flag="0"/>
      <psa10 value="0.0243920226" flag="0"/>
      <psa30 value="0.0022944749" flag="0"/>
    </comp>
  </station>
  <station code="MTTG" name="MTTG" netid="IV" insttype="" lat="38.0031" lon="15.6999">
    <comp name="--.HHZ">
      <acc value="0.0089301353" flag="0"/>
      <vel value="0.0090803468" flag="0"/>
      <psa03 value="0.0155407273" flag="0"/>
      <psa10 value="0.0172752250" flag="0"/>
      <psa30 value="0.0016198387" flag="0"/>
    </comp>
    <comp name="--.HHN">
      <acc value="0.0128166326" flag="0"/>
      <vel value="0.0134212187" flag="0"/>
      <psa03 value="0.0202813417" flag="0"/>
      <psa10 value="0.0376160965" flag="0"/>
      <psa30 value="0.0017055673" flag="0"/>
    </comp>
    <comp name="--.HHE">
      <acc value="0.0084212125" flag="0"/>
      <vel value="0.0099122318" flag="0"/>
      <psa03 value="0.0217971965" flag="0"/>
      <psa10 value="0.0242731619" flag="0"/>
      <psa30 value="0.0015124800" flag="0"/>
    </comp>
  </station>
  <station code="ORI" name="ORI" netid="IV" insttype="" lat="40.051" lon="16.4504">
    <comp name="--.HHE">
      <acc value="0.0233233373" flag="0"/>
      <vel value="0.0151690132" flag="0"/>
      <psa03 value="0.0904553367" flag="0"/>
      <psa10 value="0.0169438439" flag="0"/>
      <psa30 value="0.0012903736" flag="0"/>
    </comp>
    <comp name="--.HHZ">
      <acc value="0.0080643741" flag="0"/>
      <vel value="0.0060274533" flag="0"/>
      <psa03 value="0.0270073736" flag="0"/>
      <psa10 value="0.0095158887" flag="0"/>
      <psa30 value="0.0012714315" flag="0"/>
    </comp>
    <comp name="--.HHN">
      <acc value="0.0180019489" flag="0"/>
      <vel value="0.0132273775" flag="0"/>
      <psa03 value="0.0797716936" flag="0"/>
      <psa10 value="0.0146898618" flag="0"/>
      <psa30 value="0.0010712789" flag="0"/>
    </comp>
  </station>
  <station code="PLAC" name="PLAC" netid="IV" insttype="" lat="38.4494" lon="16.4383">
    <comp name="--.HHE">
      <acc value="0.0692471684" flag="0"/>
      <vel value="0.0493750718" flag="0"/>
      <psa03 value="0.2402188468" flag="0"/>
      <psa10 value="0.0911782106" flag="0"/>
      <psa30 value="0.0040538688" flag="0"/>
    </comp>
    <comp name="--.HHN">
      <acc value="0.1052753476" flag="0"/>
      <vel value="0.0811224334" flag="0"/>
      <psa03 value="0.2721140900" flag="0"/>
      <psa10 value="0.1045057763" flag="0"/>
      <psa30 value="0.0051911974" flag="0"/>
    </comp>
