<stationlist created="1665648018">
	<station code="FX10" name="FX10" netid="1J" source="FocusX temporary land-network (FXland)" insttype="" lat="37.957" lon="15.3777">
		<comp name=".EHE" depth="0.0">
			<acc value="0.00938932219461" flag="0"/>
			<vel value="0.0107871497356" flag="0"/>
			<psa03 value="0.023218329767" flag="0"/>
			<psa10 value="0.0213140494512" flag="0"/>
			<psa30 value="0.00149766212943" flag="0"/>
		</comp>
		<comp name=".EHN" depth="0.0">
			<acc value="0.00972249243305" flag="0"/>
			<vel value="0.00732961564611" flag="0"/>
			<psa03 value="0.0194150882377" flag="0"/>
			<psa10 value="0.0124519583186" flag="0"/>
			<psa30 value="0.00129734646367" flag="0"/>
		</comp>
		<comp name=".EHZ" depth="0.0">
			<acc value="0.00690142045036" flag="0"/>
			<vel value="0.00540064584992" flag="0"/>
			<psa03 value="0.0137395338746" flag="0"/>
			<psa10 value="0.0107914823827" flag="0"/>
			<psa30 value="0.000822084511147" flag="0"/>
		</comp>
	</station>
	<station code="FX11" name="FX11" netid="1J" source="FocusX temporary land-network (FXland)" insttype="" lat="38.1019" lon="15.4868">
		<comp name=".HHE" depth="0.0">
			<acc value="0.0101279288011" flag="0"/>
			<vel value="0.00652320373252" flag="0"/>
			<psa03 value="0.0337642575497" flag="0"/>
			<psa10 value="0.0104365457449" flag="0"/>
			<psa30 value="0.0010351624286" flag="0"/>
		</comp>
		<comp name=".HHN" depth="0.0">
			<acc value="0.00998387556471" flag="0"/>
			<vel value="0.00615459061639" flag="0"/>
			<psa03 value="0.0361280104909" flag="0"/>
			<psa10 value="0.0127468731678" flag="0"/>
			<psa30 value="0.000658941464138" flag="0"/>
		</comp>
		<comp name=".HHZ" depth="0.0">
			<acc value="0.00637368842189" flag="0"/>
			<vel value="0.00388518833432" flag="0"/>
			<psa03 value="0.0143316681527" flag="0"/>
			<psa10 value="0.00520802297471" flag="0"/>
			<psa30 value="0.000687163281612" flag="0"/>
		</comp>
	</station>
	<station code="FX13" name="FX13" netid="1J" source="FocusX temporary land-network (FXland)" insttype="" lat="37.945" lon="15.7075">
		<comp name=".HHE" depth="0.0">
			<acc value="0.00987796630014" flag="0"/>
			<vel value="0.0110587401504" flag="0"/>
			<psa03 value="0.029811506116" flag="0"/>
			<psa10 value="0.0210340127751" flag="0"/>
			<psa30 value="0.00147283121367" flag="0"/>
		</comp>
		<comp name=".HHN" depth="0.0">
			<acc value="0.0114570234468" flag="0"/>
			<vel value="0.0136113084273" flag="0"/>
			<psa03 value="0.0301641857293" flag="0"/>
			<psa10 value="0.0200211850553" flag="0"/>
			<psa30 value="0.00178670961075" flag="0"/>
		</comp>
		<comp name=".HHZ" depth="0.0">
			<acc value="0.00871360490889" flag="0"/>
			<vel value="0.00793643200305" flag="0"/>
			<psa03 value="0.0240907860005" flag="0"/>
			<psa10 value="0.0118317178557" flag="0"/>
			<psa30 value="0.000898688492036" flag="0"/>
		</comp>
	</station>
	<station code="CS2FS" name="CS2FS" netid="7C" source="Urban Seismic Network (RUSN-CAL-INGV)" insttype="" lat="39.2933" lon="16.2584">
		<comp name=".HHE" depth="0.0">
			<acc value="0.0234645949755" flag="0"/>
			<vel value="0.0134205442025" flag="0"/>
			<psa03 value="0.0600100587051" flag="0"/>
			<psa10 value="0.0163356040286" flag="0"/>
			<psa30 value="0.000925769661028" flag="0"/>
		</comp>
		<comp name=".HHN" depth="0.0">
			<acc value="0.0255331065823" flag="0"/>
			<vel value="0.0135469621752" flag="0"/>
			<psa03 value="0.0619811059442" flag="0"/>
			<psa10 value="0.0198020936665" flag="0"/>
			<psa30 value="0.00143025745587" flag="0"/>
		</comp>
		<comp name=".HHZ" depth="0.0">
			<acc value="0.0119489882967" flag="0"/>
			<vel value="0.00792507754212" flag="0"/>
			<psa03 value="0.042704657099" flag="0"/>
			<psa10 value="0.00908826486543" flag="0"/>
			<psa30 value="0.00111205023037" flag="0"/>
		</comp>
		<comp name=".HNE" depth="0.0">
			<acc value="0.0859383359451" flag="0"/>
			<vel value="0.0452672188151" flag="0"/>
			<psa03 value="0.205598369883" flag="0"/>
			<psa10 value="0.0650190771946" flag="0"/>
			<psa30 value="0.00449930639029" flag="0"/>
		</comp>
		<comp name=".HNN" depth="0.0">
			<acc value="0.0719024171885" flag="0"/>
			<vel value="0.041231024245" flag="0"/>
			<psa03 value="0.181879819479" flag="0"/>
			<psa10 value="0.0512882250932" flag="0"/>
			<psa30 value="0.0026426898569" flag="0"/>
		</comp>
		<comp name=".HNZ" depth="0.0">
			<acc value="0.0392032094657" flag="0"/>
			<vel value="0.0250745354284" flag="0"/>
			<psa03 value="0.136276517234" flag="0"/>
			<psa10 value="0.0278992400627" flag="0"/>
			<psa30 value="0.00347723055779" flag="0"/>
		</comp>
	</station>
	<station code="CSGE1" name="CSGE1" netid="7C" source="Urban Seismic Network (RUSN-CAL-INGV)" insttype="" lat="38.2705" lon="16.2205">
		<comp name=".HNE" depth="0.0">
			<acc value="0.050323774521" flag="0"/>
			<vel value="0.0411536447783" flag="0"/>
			<psa03 value="0.13279157804" flag="0"/>
			<psa10 value="0.0991618414854" flag="0"/>
			<psa30 value="0.00647271128536" flag="0"/>
		</comp>
		<comp name=".HNN" depth="0.0">
			<acc value="0.051882205368" flag="0"/>
			<vel value="0.0611882161255" flag="0"/>
			<psa03 value="0.140143137962" flag="0"/>
			<psa10 value="0.0685619443922" flag="0"/>
			<psa30 value="0.00639346520236" flag="0"/>
		</comp>
		<comp name=".HNZ" depth="0.0">
			<acc value="0.0359914618217" flag="0"/>
			<vel value="0.0290905397185" flag="0"/>
			<psa03 value="0.0736522697262" flag="0"/>
			<psa10 value="0.0365989970039" flag="0"/>
			<psa30 value="0.00656190219384" flag="0"/>
		</comp>
	</station>
	<station code="CSMBE" name="CSMBE" netid="7C" source="Urban Seismic Network (RUSN-CAL-INGV)" insttype="" lat="39.2895" lon="16.2642">
		<comp name=".HNE" depth="0.0">
			<acc value="0.0976427798158" flag="0"/>
			<vel value="0.0520768184933" flag="0"/>
			<psa03 value="0.24099561061" flag="0"/>
			<psa10 value="0.0422927141846" flag="0"/>
			<psa30 value="0.00416918618813" flag="0"/>
		</comp>
		<comp name=".HNN" depth="0.0">
			<acc value="0.0955338308174" flag="0"/>
			<vel value="0.0646563971675" flag="0"/>
			<psa03 value="0.228171156886" flag="0"/>
			<psa10 value="0.0527243527297" flag="0"/>
			<psa30 value="0.00388834841733" flag="0"/>
		</comp>
		<comp name=".HNZ" depth="0.0">
			<acc value="0.0411796045216" flag="0"/>
			<vel value="0.0283199901558" flag="0"/>
			<psa03 value="0.107319609397" flag="0"/>
			<psa10 value="0.0367187011837" flag="0"/>
			<psa30 value="0.00292284633256" flag="0"/>
		</comp>
	</station>
	<station code="MARCO" name="MARCO" netid="GE" source="GEOFON" insttype="" lat="40.29724" lon="15.80632">
		<comp name=".HLE" depth="1.0">
			<acc value="0.00563919387525" flag="0"/>
			<vel value="0.00441787543582" flag="0"/>
			<psa03 value="0.0190106512894" flag="0"/>
			<psa10 value="0.00791414364819" flag="0"/>
			<psa30 value="0.000985185680385" flag="0"/>
		</comp>
		<comp name=".HLN" depth="1.0">
			<acc value="0.00757699796774" flag="0"/>
			<vel value="0.00647129892894" flag="0"/>
			<psa03 value="0.027792078068" flag="0"/>
			<psa10 value="0.00795234742897" flag="0"/>
			<psa30 value="0.00115123563871" flag="0"/>
		</comp>
		<comp name=".HLZ" depth="1.0">
			<acc value="0.00149771016732" flag="0"/>
			<vel value="0.00211714340525" flag="0"/>
			<psa03 value="0.00451211075413" flag="0"/>
			<psa10 value="0.00205199882548" flag="0"/>
			<psa30 value="0.000503076138825" flag="0"/>
		</comp>
	</station>
	<station code="ACR" name="ACR" netid="IT" source="Italian Strong Motion Network (RAN)" insttype="" lat="39.489059" lon="16.37986">
		<comp name="00.HNE" depth="0.0">
			<acc value="0.0541814651971" flag="0"/>
			<vel value="0.0317651587309" flag="0"/>
			<psa03 value="0.211702649261" flag="0"/>
			<psa10 value="0.0466871840466" flag="0"/>
			<psa30 value="0.00268004983182" flag="0"/>
		</comp>
		<comp name="00.HNN" depth="0.0">
			<acc value="0.0512131842598" flag="0"/>
			<vel value="0.0399644673661" flag="0"/>
			<psa03 value="0.172425338999" flag="0"/>
			<psa10 value="0.0451044666996" flag="0"/>
			<psa30 value="0.00194420254388" flag="0"/>
		</comp>
		<comp name="00.HNZ" depth="0.0">
			<acc value="0.0401131964029" flag="0"/>
			<vel value="0.0269340198189" flag="0"/>
			<psa03 value="0.0922974580035" flag="0"/>
			<psa10 value="0.0268052682175" flag="0"/>
			<psa30 value="0.00258086451127" flag="0"/>
		</comp>
	</station>
	<station code="AMN" name="AMN" netid="IT" source="Italian Strong Motion Network (RAN)" insttype="" lat="39.136726" lon="16.079647">
		<comp name="00.HGE" depth="0.0">
			<acc value="0.198299151546" flag="0"/>
			<vel value="0.0949167775777" flag="0"/>
			<psa03 value="0.635103030794" flag="0"/>
			<psa10 value="0.0555552202608" flag="0"/>
			<psa30 value="0.0078679928826" flag="0"/>
		</comp>
		<comp name="00.HGN" depth="0.0">
			<acc value="0.21597194852" flag="0"/>
			<vel value="0.0984607729571" flag="0"/>
			<psa03 value="0.492940196537" flag="0"/>
			<psa10 value="0.0946319314011" flag="0"/>
			<psa30 value="0.00511703106155" flag="0"/>
		</comp>
		<comp name="00.HGZ" depth="0.0">
			<acc value="0.172244380977" flag="0"/>
			<vel value="0.0565667930625" flag="0"/>
			<psa03 value="0.304600865813" flag="0"/>
			<psa10 value="0.0438096259228" flag="0"/>
			<psa30 value="0.00431894110865" flag="0"/>
		</comp>
	</station>
	<station code="ARE" name="ARE" netid="IT" source="Italian Strong Motion Network (RAN)" insttype="" lat="38.561467" lon="16.20886">
		<comp name="00.HGE" depth="0.0">
			<acc value="0.0935950545631" flag="0"/>
			<vel value="0.0533515507826" flag="0"/>
			<psa03 value="0.261320498701" flag="0"/>
			<psa10 value="0.0599213569957" flag="0"/>
			<psa30 value="0.00385875062329" flag="0"/>
		</comp>
		<comp name="00.HGN" depth="0.0">
			<acc value="0.114611805273" flag="0"/>
			<vel value="0.0521301734353" flag="0"/>
			<psa03 value="0.335874104178" flag="0"/>
			<psa10 value="0.0348607456033" flag="0"/>
			<psa30 value="0.00229309648972" flag="0"/>
		</comp>
		<comp name="00.HGZ" depth="0.0">
			<acc value="0.0503261648857" flag="0"/>
			<vel value="0.0244612343239" flag="0"/>
			<psa03 value="0.185446951617" flag="0"/>
			<psa10 value="0.0171937058736" flag="0"/>
			<psa30 value="0.0015576881892" flag="0"/>
		</comp>
	</station>
	<station code="BRO" name="BRO" netid="IT" source="Italian Strong Motion Network (RAN)" insttype="" lat="38.602146" lon="16.349356">
		<comp name="00.HGE" depth="0.0">
			<acc value="0.195955256455" flag="0"/>
			<vel value="0.0785377777805" flag="0"/>
			<psa03 value="0.409086641649" flag="0"/>
			<psa10 value="0.032104249249" flag="0"/>
			<psa30 value="0.0068888367683" flag="0"/>
		</comp>
		<comp name="00.HGN" depth="0.0">
			<acc value="0.362494523582" flag="0"/>
			<vel value="0.207326610437" flag="0"/>
			<psa03 value="0.831353906448" flag="0"/>
			<psa10 value="0.10300250091" flag="0"/>
			<psa30 value="0.00738948785063" flag="0"/>
		</comp>
		<comp name="00.HGZ" depth="0.0">
			<acc value="0.150035664263" flag="0"/>
			<vel value="0.0520800621764" flag="0"/>
			<psa03 value="0.221927159918" flag="0"/>
			<psa10 value="0.0165915172316" flag="0"/>
			<psa30 value="0.00140779148845" flag="0"/>
		</comp>
	</station>
	<station code="BTR" name="BTR" netid="IT" source="Italian Strong Motion Network (RAN)" insttype="" lat="38.9415" lon="16.8589">
		<comp name="00.HGE" depth="0.0">
			<acc value="0.998296498248" flag="0"/>
			<vel value="0.530288395613" flag="0"/>
			<psa03 value="4.05543898626" flag="0"/>
			<psa10 value="0.240341916472" flag="0"/>
			<psa30 value="0.0175839298491" flag="0"/>
		</comp>
		<comp name="00.HGN" depth="0.0">
			<acc value="0.839973598518" flag="0"/>
			<vel value="0.409285154188" flag="0"/>
			<psa03 value="2.93852632962" flag="0"/>
			<psa10 value="0.216214363141" flag="0"/>
			<psa30 value="0.0174499443065" flag="0"/>
		</comp>
		<comp name="00.HGZ" depth="0.0">
			<acc value="0.594909286078" flag="0"/>
			<vel value="0.207078259787" flag="0"/>
			<psa03 value="1.73348150131" flag="0"/>
			<psa10 value="0.0508544076048" flag="0"/>
			<psa30 value="0.0068853582045" flag="0"/>
		</comp>
	</station>
	<station code="CIR" name="CIR" netid="IT" source="Italian Strong Motion Network (RAN)" insttype="" lat="39.38764833" lon="17.05777">
		<comp name="00.HGE" depth="0.0">
			<acc value="0.128172836599" flag="0"/>
			<vel value="0.0587830146155" flag="0"/>
			<psa03 value="0.384307916847" flag="0"/>
			<psa10 value="0.057513419982" flag="0"/>
			<psa30 value="0.0040919060687" flag="0"/>
		</comp>
		<comp name="00.HGN" depth="0.0">
			<acc value="0.144950170624" flag="0"/>
			<vel value="0.0698361672453" flag="0"/>
			<psa03 value="0.4078646857" flag="0"/>
			<psa10 value="0.0558629581468" flag="0"/>
			<psa30 value="0.00327114232212" flag="0"/>
		</comp>
		<comp name="00.HGZ" depth="0.0">
			<acc value="0.0842497688832" flag="0"/>
			<vel value="0.0317749133978" flag="0"/>
			<psa03 value="0.295469240054" flag="0"/>
			<psa10 value="0.0239646162882" flag="0"/>
			<psa30 value="0.00178893392476" flag="0"/>
		</comp>
	</station>
	<station code="COR" name="COR" netid="IT" source="Italian Strong Motion Network (RAN)" insttype="" lat="39.117931" lon="16.380044">
		<comp name="00.HGE" depth="0.0">
			<acc value="0.170669916221" flag="0"/>
			<vel value="0.0845794141097" flag="0"/>
			<psa03 value="0.462144489803" flag="0"/>
			<psa10 value="0.0626458262287" flag="0"/>
			<psa30 value="0.00556199637164" flag="0"/>
		</comp>
		<comp name="00.HGN" depth="0.0">
			<acc value="0.202108493653" flag="0"/>
			<vel value="0.108519023597" flag="0"/>
			<psa03 value="0.399128898664" flag="0"/>
			<psa10 value="0.0505970355553" flag="0"/>
			<psa30 value="0.00535994757023" flag="0"/>
		</comp>
		<comp name="00.HGZ" depth="0.0">
			<acc value="0.114117377393" flag="0"/>
			<vel value="0.064725558091" flag="0"/>
			<psa03 value="0.354396727044" flag="0"/>
			<psa10 value="0.0457977488761" flag="0"/>
			<psa30 value="0.00342510418801" flag="0"/>
		</comp>
	</station>
	<station code="COS" name="COS" netid="IT" source="Italian Strong Motion Network (RAN)" insttype="" lat="39.28907" lon="16.257683">
		<comp name="00.HNE" depth="0.0">
			<acc value="0.142079896118" flag="0"/>
			<vel value="0.111487279587" flag="0"/>
			<psa03 value="0.324530186032" flag="0"/>
			<psa10 value="0.0755113047534" flag="0"/>
			<psa30 value="0.00558761223521" flag="0"/>
		</comp>
		<comp name="00.HNN" depth="0.0">
			<acc value="0.12953992199" flag="0"/>
			<vel value="0.0930528767039" flag="0"/>
			<psa03 value="0.378634165989" flag="0"/>
			<psa10 value="0.131109450358" flag="0"/>
			<psa30 value="0.00630806704515" flag="0"/>
		</comp>
		<comp name="00.HNZ" depth="0.0">
			<acc value="0.0837163633609" flag="0"/>
			<vel value="0.0436278244516" flag="0"/>
			<psa03 value="0.308347468173" flag="0"/>
			<psa10 value="0.0425681699322" flag="0"/>
			<psa30 value="0.00368541497399" flag="0"/>
		</comp>
	</station>
	<station code="CRN" name="CRN" netid="IT" source="Italian Strong Motion Network (RAN)" insttype="" lat="39.077739" lon="17.111347">
		<comp name="00.HGE" depth="0.0">
			<acc value="0.120622484542" flag="0"/>
			<vel value="0.0517407230928" flag="0"/>
			<psa03 value="0.358988906253" flag="0"/>
			<psa10 value="0.0578742013819" flag="0"/>
			<psa30 value="0.00657260540285" flag="0"/>
		</comp>
		<comp name="00.HGN" depth="0.0">
			<acc value="0.0986839355514" flag="0"/>
			<vel value="0.0723777432926" flag="0"/>
			<psa03 value="0.353506918098" flag="0"/>
			<psa10 value="0.0881189724493" flag="0"/>
			<psa30 value="0.00609220357859" flag="0"/>
		</comp>
		<comp name="00.HGZ" depth="0.0">
			<acc value="0.0503566349568" flag="0"/>
			<vel value="0.023866364808" flag="0"/>
			<psa03 value="0.140212434219" flag="0"/>
			<psa10 value="0.0329277963049" flag="0"/>
			<psa30 value="0.00375542044484" flag="0"/>
		</comp>
	</station>
	<station code="CTN" name="CTN" netid="IT" source="Italian Strong Motion Network (RAN)" insttype="" lat="38.917138" lon="16.584983">
		<comp name="00.HGE" depth="0.0">
			<acc value="0.723046910521" flag="0"/>
			<vel value="0.2625002075" flag="0"/>
			<psa03 value="2.06020981212" flag="0"/>
			<psa10 value="0.108498700006" flag="0"/>
			<psa30 value="0.0115063630734" flag="0"/>
		</comp>
		<comp name="00.HGN" depth="0.0">
			<acc value="0.795460001259" flag="0"/>
			<vel value="0.511397774879" flag="0"/>
			<psa03 value="2.04708444263" flag="0"/>
			<psa10 value="0.215681392834" flag="0"/>
			<psa30 value="0.017296899168" flag="0"/>
		</comp>
		<comp name="00.HGZ" depth="0.0">
			<acc value="0.444692951364" flag="0"/>
			<vel value="0.165774758197" flag="0"/>
			<psa03 value="1.23738622076" flag="0"/>
			<psa10 value="0.0753188795061" flag="0"/>
			<psa30 value="0.00714342488349" flag="0"/>
		</comp>
	</station>
	<station code="CTV" name="CTV" netid="IT" source="Italian Strong Motion Network (RAN)" insttype="" lat="38.349831" lon="16.080513">
		<comp name="00.HNE" depth="0.0">
			<acc value="0.020959748556" flag="0"/>
			<vel value="0.0185075524566" flag="0"/>
			<psa03 value="0.046518508706" flag="0"/>
			<psa10 value="0.0289404459125" flag="0"/>
			<psa30 value="0.00263796350214" flag="0"/>
		</comp>
		<comp name="00.HNN" depth="0.0">
			<acc value="0.0265464485791" flag="0"/>
			<vel value="0.021598217751" flag="0"/>
			<psa03 value="0.0682874924614" flag="0"/>
			<psa10 value="0.0296686129" flag="0"/>
			<psa30 value="0.00408602734593" flag="0"/>
		</comp>
		<comp name="00.HNZ" depth="0.0">
			<acc value="0.01997296634" flag="0"/>
			<vel value="0.0143045491356" flag="0"/>
			<psa03 value="0.0635393914644" flag="0"/>
			<psa10 value="0.0224300971339" flag="0"/>
			<psa30 value="0.00136507542955" flag="0"/>
		</comp>
	</station>
	<station code="CTZ" name="CTZ" netid="IT" source="Italian Strong Motion Network (RAN)" insttype="" lat="38.94072" lon="16.585107">
		<comp name="00.HGE" depth="0.0">
			<acc value="2.37676853703" flag="0"/>
			<vel value="1.52275087866" flag="0"/>
			<psa03 value="6.05537513889" flag="0"/>
			<psa10 value="0.562890628743" flag="0"/>
			<psa30 value="0.0462753255134" flag="0"/>
		</comp>
		<comp name="00.HGN" depth="0.0">
			<acc value="1.27138395634" flag="0"/>
			<vel value="0.657051547343" flag="0"/>
			<psa03 value="3.74514076386" flag="0"/>
			<psa10 value="0.361248980972" flag="0"/>
			<psa30 value="0.0351113359537" flag="0"/>
		</comp>
		<comp name="00.HGZ" depth="0.0">
			<acc value="0.801133063671" flag="0"/>
			<vel value="0.539969212498" flag="0"/>
			<psa03 value="2.26072859551" flag="0"/>
			<psa10 value="0.339002987284" flag="0"/>
			<psa30 value="0.0201686977439" flag="0"/>
		</comp>
	</station>
	<station code="DNMI" name="DNMI" netid="IT" source="Italian Strong Motion Network (RAN)" insttype="" lat="38.53150177" lon="16.1448001862">
		<comp name="00.HGE" depth="0.0">
			<acc value="0.12279583567" flag="0"/>
			<vel value="0.0856042943081" flag="0"/>
			<psa03 value="0.315941846264" flag="0"/>
			<psa10 value="0.193021176706" flag="0"/>
			<psa30 value="0.00702865144699" flag="0"/>
		</comp>
		<comp name="00.HGN" depth="0.0">
			<acc value="0.100277250531" flag="0"/>
			<vel value="0.0595586498752" flag="0"/>
			<psa03 value="0.279737843759" flag="0"/>
			<psa10 value="0.135774234377" flag="0"/>
			<psa30 value="0.00687546379906" flag="0"/>
		</comp>
		<comp name="00.HGZ" depth="0.0">
			<acc value="0.0997395567936" flag="0"/>
			<vel value="0.06000226045" flag="0"/>
			<psa03 value="0.330860584557" flag="0"/>
			<psa10 value="0.0438384840844" flag="0"/>
			<psa30 value="0.00302974278892" flag="0"/>
		</comp>
	</station>
	<station code="FDF" name="FDF" netid="IT" source="Italian Strong Motion Network (RAN)" insttype="" lat="38.789158" lon="16.300062">
		<comp name="00.HGE" depth="0.0">
			<acc value="0.242187251861" flag="0"/>
			<vel value="0.105321730857" flag="0"/>
			<psa03 value="0.86005589115" flag="0"/>
			<psa10 value="0.0513491216274" flag="0"/>
			<psa30 value="0.00445315624975" flag="0"/>
		</comp>
