<?xml version="1.0" encoding="UTF-8" standalone="yes"?>
<!DOCTYPE earthquake SYSTEM "stationlist.dtd">
<stationlist created="" xmlns="ch.ethz.sed.shakemap.usgs.xml">
  <station code="FX12" name="FX12" netid="1J" insttype="" lat="38.0895" lon="15.7176">
    <comp name="00.HHE">
      <acc value="0.0022644820" flag="0"/>
      <vel value="0.0018698607" flag="0"/>
      <psa03 value="0.0133940371" flag="0"/>
      <psa10 value="0.0024257484" flag="0"/>
      <psa30 value="0.0003599532" flag="0"/>
    </comp>
    <comp name="00.HHN">
      <acc value="0.0016818824" flag="0"/>
      <vel value="0.0016754819" flag="0"/>
      <psa03 value="0.0094513047" flag="0"/>
      <psa10 value="0.0015078158" flag="0"/>
      <psa30 value="0.0003313210" flag="0"/>
    </comp>
    <comp name="00.HHZ">
      <acc value="0.0009039547" flag="0"/>
      <vel value="0.0009295076" flag="0"/>
      <psa03 value="0.0015477813" flag="0"/>
      <psa10 value="0.0012457215" flag="0"/>
      <psa30 value="0.0004865780" flag="0"/>
    </comp>
  </station>
  <station code="CS2FF" name="CS2FF" netid="7C" insttype="" lat="39.2933" lon="16.2584">
    <comp name="--.HH1">
      <acc value="0.0481909719" flag="0"/>
      <vel value="0.0369723671" flag="0"/>
      <psa03 value="0.1204001336" flag="0"/>
      <psa10 value="0.0594106590" flag="0"/>
      <psa30 value="0.0031143403" flag="0"/>
    </comp>
    <comp name="--.HH2">
      <acc value="0.0354172804" flag="0"/>
      <vel value="0.0334139983" flag="0"/>
      <psa03 value="0.0771329473" flag="0"/>
      <psa10 value="0.0448804518" flag="0"/>
      <psa30 value="0.0026393762" flag="0"/>
    </comp>
    <comp name="--.HHZ">
      <acc value="0.0359774112" flag="0"/>
      <vel value="0.0256004512" flag="0"/>
      <psa03 value="0.1214898561" flag="0"/>
      <psa10 value="0.0268625399" flag="0"/>
      <psa30 value="0.0030507250" flag="0"/>
    </comp>
  </station>
  <station code="CS2FS" name="CS2FS" netid="7C" insttype="" lat="39.2933" lon="16.2584">
    <comp name="--.HHN">
      <acc value="0.0254915993" flag="0"/>
      <vel value="0.0137145377" flag="0"/>
      <psa03 value="0.0625205972" flag="0"/>
      <psa10 value="0.0197643550" flag="0"/>
      <psa30 value="0.0013181778" flag="0"/>
    </comp>
    <comp name="--.HHE">
      <acc value="0.0234600822" flag="0"/>
      <vel value="0.0133642979" flag="0"/>
      <psa03 value="0.0596031440" flag="0"/>
      <psa10 value="0.0162837869" flag="0"/>
      <psa30 value="0.0009252301" flag="0"/>
    </comp>
    <comp name="--.HHZ">
      <acc value="0.0121102134" flag="0"/>
      <vel value="0.0079392072" flag="0"/>
      <psa03 value="0.0427341624" flag="0"/>
      <psa10 value="0.0090953591" flag="0"/>
      <psa30 value="0.0010039003" flag="0"/>
    </comp>
  </station>
  <station code="CSGE1" name="CSGE1" netid="7C" insttype="" lat="38.2705" lon="16.2205">
    <comp name="--.HNN">
      <acc value="0.0519934980" flag="0"/>
      <vel value="0.0611015054" flag="0"/>
      <psa03 value="0.1407550149" flag="0"/>
      <psa10 value="0.0684849909" flag="0"/>
      <psa30 value="0.0063645728" flag="0"/>
    </comp>
    <comp name="--.HNE">
      <acc value="0.0506877468" flag="0"/>
      <vel value="0.0414892726" flag="0"/>
      <psa03 value="0.1329588404" flag="0"/>
      <psa10 value="0.0991717349" flag="0"/>
      <psa30 value="0.0063140145" flag="0"/>
    </comp>
    <comp name="--.HNZ">
      <acc value="0.0364123377" flag="0"/>
      <vel value="0.0288626887" flag="0"/>
      <psa03 value="0.0738025739" flag="0"/>
      <psa10 value="0.0366540213" flag="0"/>
      <psa30 value="0.0062103565" flag="0"/>
    </comp>
  </station>
  <station code="CSMBE" name="CSMBE" netid="7C" insttype="" lat="39.2895" lon="16.2642">
    <comp name="--.HNE">
      <acc value="0.0976275002" flag="0"/>
      <vel value="0.0519473832" flag="0"/>
      <psa03 value="0.2413026192" flag="0"/>
      <psa10 value="0.0422357615" flag="0"/>
      <psa30 value="0.0039961134" flag="0"/>
    </comp>
    <comp name="--.HNN">
      <acc value="0.0954374914" flag="0"/>
      <vel value="0.0651396984" flag="0"/>
      <psa03 value="0.2280858112" flag="0"/>
      <psa10 value="0.0526580665" flag="0"/>
      <psa30 value="0.0036106335" flag="0"/>
    </comp>
    <comp name="--.HNZ">
      <acc value="0.0413070359" flag="0"/>
      <vel value="0.0278165677" flag="0"/>
      <psa03 value="0.1074023623" flag="0"/>
      <psa10 value="0.0365929919" flag="0"/>
      <psa30 value="0.0029604705" flag="0"/>
    </comp>
  </station>
  <station code="CAR1" name="CAR1" netid="IV" insttype="" lat="39.2534" lon="16.2114">
    <comp name="--.HHE">
      <acc value="0.1292831004" flag="0"/>
      <vel value="0.0770175754" flag="0"/>
      <psa03 value="0.3317447451" flag="0"/>
      <psa10 value="0.0759502847" flag="0"/>
      <psa30 value="0.0038485255" flag="0"/>
    </comp>
    <comp name="--.HHZ">
      <acc value="0.0865965465" flag="0"/>
      <vel value="0.0547509664" flag="0"/>
      <psa03 value="0.3246309847" flag="0"/>
      <psa10 value="0.0287148114" flag="0"/>
      <psa30 value="0.0046986228" flag="0"/>
    </comp>
    <comp name="--.HHN">
      <acc value="0.0915932355" flag="0"/>
      <vel value="0.0628850359" flag="0"/>
      <psa03 value="0.4183845872" flag="0"/>
      <psa10 value="0.0772608117" flag="0"/>
      <psa30 value="0.0051292398" flag="0"/>
    </comp>
  </station>
  <station code="CELI" name="CELI" netid="IV" insttype="" lat="39.4027" lon="16.5088">
    <comp name="--.HHE">
      <acc value="0.0302527149" flag="0"/>
      <vel value="0.0355555870" flag="0"/>
      <psa03 value="0.0618817717" flag="0"/>
      <psa10 value="0.0552945971" flag="0"/>
      <psa30 value="0.0027073197" flag="0"/>
    </comp>
    <comp name="--.HHN">
      <acc value="0.0952080398" flag="0"/>
      <vel value="0.0544119825" flag="0"/>
      <psa03 value="0.2156684571" flag="0"/>
      <psa10 value="0.0438531277" flag="0"/>
      <psa30 value="0.0037046989" flag="0"/>
    </comp>
    <comp name="--.HHZ">
      <acc value="0.0399517904" flag="0"/>
      <vel value="0.0223580294" flag="0"/>
      <psa03 value="0.0940489469" flag="0"/>
      <psa10 value="0.0208884188" flag="0"/>
      <psa30 value="0.0028921654" flag="0"/>
    </comp>
  </station>
  <station code="CET2" name="CET2" netid="IV" insttype="" lat="39.5288" lon="15.9546">
    <comp name="--.HHN">
      <acc value="0.0678288673" flag="0"/>
      <vel value="0.0420685429" flag="0"/>
      <psa03 value="0.2206219334" flag="0"/>
      <psa10 value="0.0348861080" flag="0"/>
      <psa30 value="0.0024387251" flag="0"/>
    </comp>
    <comp name="--.HHE">
      <acc value="0.0466791670" flag="0"/>
      <vel value="0.0290669900" flag="0"/>
      <psa03 value="0.0874783509" flag="0"/>
      <psa10 value="0.0614705884" flag="0"/>
      <psa30 value="0.0028285289" flag="0"/>
    </comp>
    <comp name="--.HHZ">
      <acc value="0.0502555882" flag="0"/>
      <vel value="0.0301920181" flag="0"/>
      <psa03 value="0.0929924379" flag="0"/>
      <psa10 value="0.0235592016" flag="0"/>
      <psa30 value="0.0012394420" flag="0"/>
    </comp>
  </station>
  <station code="FERC" name="FERC" netid="IV" insttype="" lat="38.4527" lon="16.1281">
    <comp name="00.HHE">
      <acc value="0.6511194442" flag="0"/>
      <vel value="0.8614223826" flag="0"/>
      <psa03 value="2.3219901438" flag="0"/>
      <psa10 value="1.2479866424" flag="0"/>
      <psa30 value="0.2303052007" flag="0"/>
    </comp>
    <comp name="00.HHZ">
      <acc value="0.4470225914" flag="0"/>
      <vel value="0.4992397821" flag="0"/>
      <psa03 value="1.2151526662" flag="0"/>
      <psa10 value="0.7111986991" flag="0"/>
      <psa30 value="0.1258094579" flag="0"/>
    </comp>
    <comp name="00.HHN">
      <acc value="1.0877065801" flag="0"/>
      <vel value="0.8724431888" flag="0"/>
      <psa03 value="4.0271190829" flag="0"/>
      <psa10 value="0.8518134530" flag="0"/>
      <psa30 value="0.3407139258" flag="0"/>
    </comp>
  </station>
  <station code="GRIS" name="GRIS" netid="IV" insttype="" lat="39.7405" lon="15.8531">
    <comp name="--.HNN">
      <acc value="0.0233944300" flag="0"/>
      <vel value="0.0110686264" flag="0"/>
      <psa03 value="0.0586527505" flag="0"/>
      <psa10 value="0.0153295922" flag="0"/>
      <psa30 value="0.0007673490" flag="0"/>
    </comp>
    <comp name="--.HNE">
      <acc value="0.0223638941" flag="0"/>
      <vel value="0.0190389973" flag="0"/>
      <psa03 value="0.0610579176" flag="0"/>
      <psa10 value="0.0250252927" flag="0"/>
      <psa30 value="0.0018744209" flag="0"/>
    </comp>
    <comp name="--.HNZ">
      <acc value="0.0135473736" flag="0"/>
      <vel value="0.0074235884" flag="0"/>
      <psa03 value="0.0331370260" flag="0"/>
      <psa10 value="0.0096293407" flag="0"/>
      <psa30 value="0.0009072482" flag="0"/>
    </comp>
  </station>
  <station code="MPAZ" name="MPAZ" netid="IV" insttype="" lat="37.9531" lon="16.0067">
    <comp name="--.HHE">
      <acc value="0.0115474446" flag="0"/>
      <vel value="0.0095746364" flag="0"/>
      <psa03 value="0.0457557012" flag="0"/>
      <psa10 value="0.0184947494" flag="0"/>
      <psa30 value="0.0012852493" flag="0"/>
    </comp>
    <comp name="--.HHN">
      <acc value="0.0133866056" flag="0"/>
      <vel value="0.0107368463" flag="0"/>
      <psa03 value="0.0293415399" flag="0"/>
      <psa10 value="0.0149965757" flag="0"/>
      <psa30 value="0.0008350008" flag="0"/>
    </comp>
    <comp name="--.HHZ">
      <acc value="0.0073917082" flag="0"/>
      <vel value="0.0048566843" flag="0"/>
      <psa03 value="0.0169123786" flag="0"/>
      <psa10 value="0.0052741097" flag="0"/>
      <psa30 value="0.0006457490" flag="0"/>
    </comp>
  </station>
  <station code="MRCB" name="MRCB" netid="IV" insttype="" lat="38.162" lon="15.703">
    <comp name="--.HHE">
      <acc value="0.0110046035" flag="0"/>
      <vel value="0.0087354852" flag="0"/>
      <psa03 value="0.0255404571" flag="0"/>
      <psa10 value="0.0156795493" flag="0"/>
      <psa30 value="0.0017759857" flag="0"/>
    </comp>
    <comp name="--.HHN">
      <acc value="0.0090004165" flag="0"/>
      <vel value="0.0066672516" flag="0"/>
      <psa03 value="0.0194082148" flag="0"/>
      <psa10 value="0.0133826395" flag="0"/>
      <psa30 value="0.0012672218" flag="0"/>
    </comp>
    <comp name="--.HHZ">
      <acc value="0.0054451635" flag="0"/>
      <vel value="0.0045679559" flag="0"/>
      <psa03 value="0.0134470471" flag="0"/>
      <psa10 value="0.0072503072" flag="0"/>
      <psa30 value="0.0008180820" flag="0"/>
    </comp>
  </station>
  <station code="MSRU" name="MSRU" netid="IV" insttype="" lat="38.2639" lon="15.5083">
    <comp name="--.HHE">
      <acc value="0.0180576062" flag="0"/>
      <vel value="0.0132726516" flag="0"/>
      <psa03 value="0.0683427959" flag="0"/>
      <psa10 value="0.0243920226" flag="0"/>
      <psa30 value="0.0022944678" flag="0"/>
    </comp>
    <comp name="--.HHZ">
      <acc value="0.0114181103" flag="0"/>
      <vel value="0.0063123117" flag="0"/>
      <psa03 value="0.0347972443" flag="0"/>
      <psa10 value="0.0073473878" flag="0"/>
      <psa30 value="0.0009440441" flag="0"/>
    </comp>
    <comp name="--.HHN">
      <acc value="0.0142965558" flag="0"/>
      <vel value="0.0107376132" flag="0"/>
      <psa03 value="0.0415626238" flag="0"/>
      <psa10 value="0.0233326223" flag="0"/>
      <psa30 value="0.0016038625" flag="0"/>
    </comp>
  </station>
  <station code="PLAC" name="PLAC" netid="IV" insttype="" lat="38.4494" lon="16.4383">
    <comp name="--.HHE">
      <acc value="0.0692471684" flag="0"/>
      <vel value="0.0493750717" flag="0"/>
      <psa03 value="0.2402188468" flag="0"/>
      <psa10 value="0.0911782105" flag="0"/>
      <psa30 value="0.0040538766" flag="0"/>
    </comp>
    <comp name="--.HHZ">
      <acc value="0.0513317256" flag="0"/>
      <vel value="0.0320938586" flag="0"/>
      <psa03 value="0.0889851127" flag="0"/>
      <psa10 value="0.0506757415" flag="0"/>
      <psa30 value="0.0018541885" flag="0"/>
    </comp>
    <comp name="--.HHN">
      <acc value="0.1052753478" flag="0"/>
      <vel value="0.0811224338" flag="0"/>
      <psa03 value="0.2721140900" flag="0"/>
      <psa10 value="0.1045057764" flag="0"/>
      <psa30 value="0.0051912092" flag="0"/>
    </comp>
  </station>
  <station code="SERS" name="SERS" netid="IV" insttype="" lat="39.0359" lon="16.6886">
    <comp name="--.HHN">
      <acc value="0.2463088700" flag="0"/>
      <vel value="0.1371210773" flag="0"/>
      <psa03 value="0.7293546990" flag="0"/>
      <psa10 value="0.0437698760" flag="0"/>
      <psa30 value="0.0074272618" flag="0"/>
    </comp>
    <comp name="--.HHZ">
      <acc value="0.1527270305" flag="0"/>
      <vel value="0.0606864497" flag="0"/>
      <psa03 value="0.4007283635" flag="0"/>
      <psa10 value="0.0276331799" flag="0"/>
      <psa30 value="0.0031099403" flag="0"/>
    </comp>
    <comp name="--.HHE">
      <acc value="0.2190909064" flag="0"/>
      <vel value="0.1325416102" flag="0"/>
      <psa03 value="0.6657749530" flag="0"/>
      <psa10 value="0.0744153827" flag="0"/>
      <psa30 value="0.0063326572" flag="0"/>
    </comp>
  </station>
  <station code="SPS2" name="SPS2" netid="IV" insttype="" lat="39.291" lon="16.3388">
    <comp name="--.HHE">
      <acc value="0.0325852313" flag="0"/>
      <vel value="0.0184925566" flag="0"/>
      <psa03 value="0.0926954070" flag="0"/>
      <psa10 value="0.0161610222" flag="0"/>
      <psa30 value="0.0010612754" flag="0"/>
    </comp>
    <comp name="--.HHZ">
      <acc value="0.0250834138" flag="0"/>
      <vel value="0.0151862053" flag="0"/>
      <psa03 value="0.0771851360" flag="0"/>
      <psa10 value="0.0182660614" flag="0"/>
      <psa30 value="0.0011753205" flag="0"/>
    </comp>
    <comp name="--.HHN">
      <acc value="0.0525306442" flag="0"/>
      <vel value="0.0314347901" flag="0"/>
      <psa03 value="0.1834567586" flag="0"/>
      <psa10 value="0.0282298477" flag="0"/>
      <psa30 value="0.0014975162" flag="0"/>
    </comp>
  </station>
  <station code="TDS" name="TDS" netid="IV" insttype="" lat="39.6601" lon="16.3376">
    <comp name="--.HHE">
      <acc value="0.0162746661" flag="0"/>
      <vel value="0.0138077364" flag="0"/>
      <psa03 value="0.0365230965" flag="0"/>
      <psa10 value="0.0131191950" flag="0"/>
      <psa30 value="0.0023415465" flag="0"/>
    </comp>
    <comp name="--.HHN">
      <acc value="0.0141227756" flag="0"/>
      <vel value="0.0129587875" flag="0"/>
      <psa03 value="0.0318404392" flag="0"/>
      <psa10 value="0.0243287502" flag="0"/>
      <psa30 value="0.0014202763" flag="0"/>
    </comp>
    <comp name="--.HHZ">
      <acc value="0.0133550884" flag="0"/>
      <vel value="0.0098800127" flag="0"/>
      <psa03 value="0.0269186601" flag="0"/>
      <psa10 value="0.0147814637" flag="0"/>
      <psa30 value="0.0017412367" flag="0"/>
    </comp>
  </station>
  <station code="CNDF" name="CNDF" netid="IY" insttype="" lat="38.0032" lon="15.8572">
    <comp name="00.HHE">
      <acc value="0.0007013605" flag="0"/>
      <vel value="0.0008921691" flag="0"/>
      <psa03 value="0.0020129244" flag="0"/>
      <psa10 value="0.0019799847" flag="0"/>
      <psa30 value="0.0004821918" flag="0"/>
    </comp>
    <comp name="00.HHN">
      <acc value="0.0010113920" flag="0"/>
      <vel value="0.0014249567" flag="0"/>
      <psa03 value="0.0019494264" flag="0"/>
      <psa10 value="0.0019678690" flag="0"/>
      <psa30 value="0.0004761500" flag="0"/>
    </comp>
    <comp name="00.HHZ">
      <acc value="0.0003903479" flag="0"/>
      <vel value="0.0007663787" flag="0"/>
      <psa03 value="0.0012830920" flag="0"/>
      <psa10 value="0.0008308228" flag="0"/>
      <psa30 value="0.0004555233" flag="0"/>
    </comp>
  </station>
  <station code="OPPI" name="OPPI" netid="IY" insttype="" lat="38.2673" lon="16.0099">
    <comp name="--.HHE">
      <acc value="0.0023218466" flag="0"/>
      <vel value="0.0022819001" flag="0"/>
      <psa03 value="0.0077062317" flag="0"/>
      <psa10 value="0.0020545853" flag="0"/>
      <psa30 value="0.0002369177" flag="0"/>
    </comp>
    <comp name="--.HHN">
      <acc value="0.0029761269" flag="0"/>
      <vel value="0.0014919288" flag="0"/>
      <psa03 value="0.0119466462" flag="0"/>
      <psa10 value="0.0021758564" flag="0"/>
      <psa30 value="0.0003306991" flag="0"/>
    </comp>
    <comp name="--.HHZ">
      <acc value="0.0010288453" flag="0"/>
      <vel value="0.0010568989" flag="0"/>
      <psa03 value="0.0028927746" flag="0"/>
      <psa10 value="0.0015766960" flag="0"/>
      <psa30 value="0.0003925986" flag="0"/>
    </comp>
  </station>
  <station code="CEL" name="CEL" netid="MN" insttype="" lat="38.2603" lon="15.8939">
    <comp name="--.HHE">
      <acc value="0.0156338144" flag="0"/>
      <vel value="0.0105056681" flag="0"/>
      <psa03 value="0.0392830827" flag="0"/>
      <psa10 value="0.0202589279" flag="0"/>
      <psa30 value="0.0012580894" flag="0"/>
    </comp>
    <comp name="--.HHN">
      <acc value="0.0136339354" flag="0"/>
      <vel value="0.0116469980" flag="0"/>
      <psa03 value="0.0361815006" flag="0"/>
      <psa10 value="0.0169759695" flag="0"/>
      <psa30 value="0.0018254392" flag="0"/>
    </comp>
    <comp name="--.HHZ">
      <acc value="0.0089386349" flag="0"/>
      <vel value="0.0055375935" flag="0"/>
      <psa03 value="0.0282414961" flag="0"/>
      <psa10 value="0.0082283595" flag="0"/>
      <psa30 value="0.0009219896" flag="0"/>
    </comp>
  </station>
  <station code="TIP" name="TIP" netid="MN" insttype="" lat="39.1794" lon="16.7583">
    <comp name="--.HHN">
      <acc value="0.1116960714" flag="0"/>
      <vel value="0.0679259864" flag="0"/>
      <psa03 value="0.3028660302" flag="0"/>
      <psa10 value="0.0331731058" flag="0"/>
      <psa30 value="0.0047889777" flag="0"/>
    </comp>
    <comp name="--.HHE">
      <acc value="0.0563391442" flag="0"/>
      <vel value="0.0258377789" flag="0"/>
      <psa03 value="0.1313255214" flag="0"/>
      <psa10 value="0.0481876101" flag="0"/>
      <psa30 value="0.0023642665" flag="0"/>
    </comp>
    <comp name="--.HHZ">
      <acc value="0.0721472720" flag="0"/>
      <vel value="0.0303901607" flag="0"/>
      <psa03 value="0.1903854945" flag="0"/>
      <psa10 value="0.0192719726" flag="0"/>
      <psa30 value="0.0021671944" flag="0"/>
    </comp>
  </station>
  <station code="GMB1" name="GMB1" netid="TV" insttype="" lat="38.1723" lon="15.8179">
    <comp name="--.HHE">
      <acc value="0.0032143800" flag="0"/>
      <vel value="0.0027380427" flag="0"/>
      <psa03 value="0.0077087923" flag="0"/>
      <psa10 value="0.0058048188" flag="0"/>
      <psa30 value="0.0004535068" flag="0"/>
    </comp>
    <comp name="--.HHN">
      <acc value="0.0058286469" flag="0"/>
      <vel value="0.0050001408" flag="0"/>
      <psa03 value="0.0101752058" flag="0"/>
      <psa10 value="0.0064309000" flag="0"/>
      <psa30 value="0.0004202403" flag="0"/>
    </comp>
    <comp name="--.HHZ">
      <acc value="0.0028427138" flag="0"/>
      <vel value="0.0016575614" flag="0"/>
      <psa03 value="0.0068764041" flag="0"/>
      <psa10 value="0.0024009933" flag="0"/>
      <psa30 value="0.0003694010" flag="0"/>
    </comp>
  </station>
</stationlist>
