<stationlist xmlns:esm="https://esm-db.eu/esmws/shakemap/1/" created="1784080489">
	<station code="OEM9" name="OEM9" netid="3D" source="INGV temporary network for seismic monitoring of the island of Vulcano to increase volcanic activity (Sicily, Italy) (VITN)" insttype="" lat="38.3879" lon="14.9908" esm:processing="automatic (Paolucci et al 2011)" esm:quality="best">
		<comp name="--.HNE" depth="0.0">
			<acc value="0.0186305894519562" flag="0"/>
			<vel value="0.017455331418799" flag="0"/>
			<psa03 value="0.0576844827723249" flag="0"/>
			<psa10 value="0.0288873048921637" flag="0"/>
			<psa30 value="0.0023411167541608" flag="0"/>
		</comp>
		<comp name="--.HNN" depth="0.0">
			<acc value="0.0180669725677964" flag="0"/>
			<vel value="0.0103525068501019" flag="0"/>
			<psa03 value="0.0527938046221774" flag="0"/>
			<psa10 value="0.0154766790040336" flag="0"/>
			<psa30 value="0.00157443836131376" flag="0"/>
		</comp>
		<comp name="--.HNZ" depth="0.0">
			<acc value="0.0141590209625265" flag="0"/>
			<vel value="0.00674723235503932" flag="0"/>
			<psa03 value="0.0393916433572019" flag="0"/>
			<psa10 value="0.0110556142552051" flag="0"/>
			<psa30 value="0.00116211417186167" flag="0"/>
		</comp>
	</station>
	<station code="CS2FS" name="CS2FS" netid="7C" source="Urban Seismic Network (RUSN-CAL-INGV)" insttype="" lat="39.2933" lon="16.2584" esm:processing="manual (Paolucci et al 2011)" esm:quality="good">
		<comp name="--.HNE" depth="0.0">
			<acc value="0.0858954474771539" flag="0"/>
			<vel value="0.0452516683281824" flag="0"/>
			<psa03 value="0.205590223510125" flag="0"/>
			<psa10 value="0.0650228874472394" flag="0"/>
			<psa30 value="0.00450079898918571" flag="0"/>
		</comp>
		<comp name="--.HNN" depth="0.0">
			<acc value="0.0716546347211665" flag="0"/>
			<vel value="0.0412420999688774" flag="0"/>
			<psa03 value="0.181879111098668" flag="0"/>
			<psa10 value="0.0512906890062866" flag="0"/>
			<psa30 value="0.00264279278038546" flag="0"/>
		</comp>
		<comp name="--.HNZ" depth="0.0">
			<acc value="0.0379139859685149" flag="0"/>
			<vel value="0.0250771735713258" flag="0"/>
			<psa03 value="0.136276923510774" flag="0"/>
			<psa10 value="0.0279015914684896" flag="0"/>
			<psa30 value="0.00347807561377151" flag="0"/>
		</comp>
	</station>
	<station code="CSGE1" name="CSGE1" netid="7C" source="Urban Seismic Network (RUSN-CAL-INGV)" insttype="" lat="38.2705" lon="16.2205" esm:processing="manual (Paolucci et al 2011)" esm:quality="best">
		<comp name="--.HNE" depth="0.0">
			<acc value="0.0502726753421102" flag="0"/>
			<vel value="0.0411542433879238" flag="0"/>
			<psa03 value="0.132790557139491" flag="0"/>
			<psa10 value="0.0991677368760372" flag="0"/>
			<psa30 value="0.00647482892563186" flag="0"/>
		</comp>
		<comp name="--.HNN" depth="0.0">
			<acc value="0.0518451917840429" flag="0"/>
			<vel value="0.061193472172167" flag="0"/>
			<psa03 value="0.140141450349764" flag="0"/>
			<psa10 value="0.0685688748516371" flag="0"/>
			<psa30 value="0.00639224428816647" flag="0"/>
		</comp>
		<comp name="--.HNZ" depth="0.0">
			<acc value="0.0358986451318413" flag="0"/>
			<vel value="0.0290984571818392" flag="0"/>
			<psa03 value="0.0736532541666211" flag="0"/>
			<psa10 value="0.0366014009131632" flag="0"/>
			<psa30 value="0.00656613122398494" flag="0"/>
		</comp>
	</station>
	<station code="CSMBE" name="CSMBE" netid="7C" source="Urban Seismic Network (RUSN-CAL-INGV)" insttype="" lat="39.2895" lon="16.2642" esm:processing="manual (Paolucci et al 2011)" esm:quality="best">
		<comp name="--.HNE" depth="0.0">
			<acc value="0.0976427786432843" flag="0"/>
			<vel value="0.0520769372486417" flag="0"/>
			<psa03 value="0.24099561060987" flag="0"/>
			<psa10 value="0.0422925416733311" flag="0"/>
			<psa30 value="0.00416973122422778" flag="0"/>
		</comp>
		<comp name="--.HNN" depth="0.0">
			<acc value="0.0955338205237533" flag="0"/>
			<vel value="0.0646575846746928" flag="0"/>
			<psa03 value="0.228171156886101" flag="0"/>
			<psa10 value="0.0527242627235295" flag="0"/>
			<psa30 value="0.00388524571179276" flag="0"/>
		</comp>
		<comp name="--.HNZ" depth="0.0">
			<acc value="0.0411795999930886" flag="0"/>
			<vel value="0.0283202919993693" flag="0"/>
			<psa03 value="0.10731965106664" flag="0"/>
			<psa10 value="0.0367186711817501" flag="0"/>
			<psa30 value="0.00291771495096211" flag="0"/>
		</comp>
	</station>
	<station code="MARCO" name="MARCO" netid="GE" source="GEOFON" insttype="" lat="40.29724" lon="15.80632" esm:processing="automatic (Paolucci et al 2011)" esm:quality="good">
		<comp name="--.HLE" depth="1.0">
			<acc value="0.00561786580234138" flag="0"/>
			<vel value="0.00448951099370294" flag="0"/>
			<psa03 value="0.0190106512894433" flag="0"/>
			<psa10 value="0.00791414364818743" flag="0"/>
			<psa30 value="0.000985185680385164" flag="0"/>
		</comp>
		<comp name="--.HLN" depth="1.0">
			<acc value="0.0075601705690721" flag="0"/>
			<vel value="0.00644341376328133" flag="0"/>
			<psa03 value="0.0277920780679564" flag="0"/>
			<psa10 value="0.00795234742896978" flag="0"/>
			<psa30 value="0.00115123563870993" flag="0"/>
		</comp>
		<comp name="--.HLZ" depth="1.0">
			<acc value="0.00148206973559941" flag="0"/>
			<vel value="0.00211396484302391" flag="0"/>
			<psa03 value="0.00451211075413092" flag="0"/>
			<psa10 value="0.00205199882547668" flag="0"/>
			<psa30 value="0.000503076138825072" flag="0"/>
		</comp>
	</station>
	<station code="ACR" name="ACR" netid="IT" source="Italian Strong Motion Network (RAN)" insttype="" lat="39.4889" lon="16.3798" esm:processing="manual (Paolucci et al 2011)" esm:quality="good">
		<comp name="--.HNE" depth="0.0">
			<acc value="0.054181465197132" flag="0"/>
			<vel value="0.0317651587309" flag="0"/>
			<psa03 value="0.211702649261376" flag="0"/>
			<psa10 value="0.0466871840466436" flag="0"/>
			<psa30 value="0.00268004983181608" flag="0"/>
		</comp>
		<comp name="--.HNN" depth="0.0">
			<acc value="0.051213184259826" flag="0"/>
			<vel value="0.0399644673661" flag="0"/>
			<psa03 value="0.172425338999204" flag="0"/>
			<psa10 value="0.0451044666996485" flag="0"/>
			<psa30 value="0.00194420254387613" flag="0"/>
		</comp>
		<comp name="--.HNZ" depth="0.0">
			<acc value="0.040113196402902" flag="0"/>
			<vel value="0.0269340198189" flag="0"/>
			<psa03 value="0.0922974580034712" flag="0"/>
			<psa10 value="0.0268052682174803" flag="0"/>
			<psa30 value="0.0025808645112723" flag="0"/>
		</comp>
	</station>
	<station code="AMN" name="AMN" netid="IT" source="Italian Strong Motion Network (RAN)" insttype="" lat="39.1367" lon="16.0796" esm:processing="manual (Paolucci et al 2011)" esm:quality="good">
		<comp name="--.HGE" depth="0.0">
			<acc value="0.19829915154576" flag="0"/>
			<vel value="0.0949167775777" flag="0"/>
			<psa03 value="0.635103030793696" flag="0"/>
			<psa10 value="0.0555552202607937" flag="0"/>
			<psa30 value="0.00786799288260143" flag="0"/>
		</comp>
		<comp name="--.HGN" depth="0.0">
			<acc value="0.21597194851962" flag="0"/>
			<vel value="0.0984607729571" flag="0"/>
			<psa03 value="0.492940196537374" flag="0"/>
			<psa10 value="0.0946319314010845" flag="0"/>
			<psa30 value="0.00511703106154815" flag="0"/>
		</comp>
		<comp name="--.HGZ" depth="0.0">
			<acc value="0.17224438097748" flag="0"/>
			<vel value="0.0565667930625" flag="0"/>
			<psa03 value="0.304600865812651" flag="0"/>
			<psa10 value="0.043809625922771" flag="0"/>
			<psa30 value="0.0043189411086511" flag="0"/>
		</comp>
	</station>
	<station code="ARE" name="ARE" netid="IT" source="Italian Strong Motion Network (RAN)" insttype="" lat="38.5614" lon="16.2088" esm:processing="manual (Paolucci et al 2011)" esm:quality="good">
		<comp name="--.HGE" depth="0.0">
			<acc value="0.093595054563096" flag="0"/>
			<vel value="0.0533515507826" flag="0"/>
			<psa03 value="0.261320498700744" flag="0"/>
			<psa10 value="0.0599213569957059" flag="0"/>
			<psa30 value="0.00385875062329179" flag="0"/>
		</comp>
		<comp name="--.HGN" depth="0.0">
			<acc value="0.11461180527348" flag="0"/>
			<vel value="0.0521301734353" flag="0"/>
			<psa03 value="0.3358741041779" flag="0"/>
			<psa10 value="0.034860745603301" flag="0"/>
			<psa30 value="0.00229309648972118" flag="0"/>
		</comp>
		<comp name="--.HGZ" depth="0.0">
			<acc value="0.050326164885678" flag="0"/>
			<vel value="0.0244612343239" flag="0"/>
			<psa03 value="0.185446951617035" flag="0"/>
			<psa10 value="0.0171937058736331" flag="0"/>
			<psa30 value="0.00155768818919874" flag="0"/>
		</comp>
	</station>
	<station code="BRO" name="BRO" netid="IT" source="Italian Strong Motion Network (RAN)" insttype="" lat="38.6021" lon="16.3493" esm:processing="manual (Paolucci et al 2011)" esm:quality="good">
		<comp name="--.HGE" depth="0.0">
			<acc value="0.1959552564555" flag="0"/>
			<vel value="0.0785377777805" flag="0"/>
			<psa03 value="0.409086641648774" flag="0"/>
			<psa10 value="0.0321042492489704" flag="0"/>
			<psa30 value="0.00688883676829658" flag="0"/>
		</comp>
		<comp name="--.HGN" depth="0.0">
			<acc value="0.3624945235815" flag="0"/>
			<vel value="0.207326610437" flag="0"/>
			<psa03 value="0.83135390644794" flag="0"/>
			<psa10 value="0.103002500910105" flag="0"/>
			<psa30 value="0.0073894878506329" flag="0"/>
		</comp>
		<comp name="--.HGZ" depth="0.0">
			<acc value="0.15003566426286" flag="0"/>
			<vel value="0.0520800621764" flag="0"/>
			<psa03 value="0.221927159918426" flag="0"/>
			<psa10 value="0.016591517231606" flag="0"/>
			<psa30 value="0.0014077914884455" flag="0"/>
		</comp>
	</station>
	<station code="BTR" name="BTR" netid="IT" source="Italian Strong Motion Network (RAN)" insttype="" lat="38.9415" lon="16.8589" esm:processing="manual (Paolucci et al 2011)" esm:quality="good">
		<comp name="--.HGE" depth="0.0">
			<acc value="0.99829649824812" flag="0"/>
			<vel value="0.530288395613" flag="0"/>
			<psa03 value="4.05543898626475" flag="0"/>
			<psa10 value="0.24034191647224" flag="0"/>
			<psa30 value="0.0175839298490634" flag="0"/>
		</comp>
		<comp name="--.HGN" depth="0.0">
			<acc value="0.83997359851818" flag="0"/>
			<vel value="0.409285154188" flag="0"/>
			<psa03 value="2.93852632961533" flag="0"/>
			<psa10 value="0.216214363140546" flag="0"/>
			<psa30 value="0.0174499443064817" flag="0"/>
		</comp>
		<comp name="--.HGZ" depth="0.0">
			<acc value="0.59490928607832" flag="0"/>
			<vel value="0.207078259787" flag="0"/>
			<psa03 value="1.73348150131027" flag="0"/>
			<psa10 value="0.050854407604766" flag="0"/>
			<psa30 value="0.00688535820450439" flag="0"/>
		</comp>
	</station>
	<station code="CIR" name="CIR" netid="IT" source="Italian Strong Motion Network (RAN)" insttype="" lat="39.38764833" lon="17.05777" esm:processing="manual (Paolucci et al 2011)" esm:quality="good">
		<comp name="--.HGE" depth="0.0">
			<acc value="0.1281728365995" flag="0"/>
			<vel value="0.0587830146155" flag="0"/>
			<psa03 value="0.384307916846758" flag="0"/>
			<psa10 value="0.0575134199819929" flag="0"/>
			<psa30 value="0.00409190606869576" flag="0"/>
		</comp>
		<comp name="--.HGN" depth="0.0">
			<acc value="0.14495017062432" flag="0"/>
			<vel value="0.0698361672453" flag="0"/>
			<psa03 value="0.407864685700216" flag="0"/>
			<psa10 value="0.0558629581468064" flag="0"/>
			<psa30 value="0.00327114232212411" flag="0"/>
		</comp>
		<comp name="--.HGZ" depth="0.0">
			<acc value="0.084249768883212" flag="0"/>
			<vel value="0.0317749133978" flag="0"/>
			<psa03 value="0.295469240053605" flag="0"/>
			<psa10 value="0.0239646162882332" flag="0"/>
			<psa30 value="0.00178893392476024" flag="0"/>
		</comp>
	</station>
	<station code="COR" name="COR" netid="IT" source="Italian Strong Motion Network (RAN)" insttype="" lat="39.1179" lon="16.38" esm:processing="manual (Paolucci et al 2011)" esm:quality="good">
		<comp name="--.HGE" depth="0.0">
			<acc value="0.1706699162205" flag="0"/>
			<vel value="0.0845794141097" flag="0"/>
			<psa03 value="0.462144489802892" flag="0"/>
			<psa10 value="0.0626458262286675" flag="0"/>
			<psa30 value="0.00556199637164375" flag="0"/>
		</comp>
		<comp name="--.HGN" depth="0.0">
			<acc value="0.20210849365326" flag="0"/>
			<vel value="0.108519023597" flag="0"/>
			<psa03 value="0.3991288986641" flag="0"/>
			<psa10 value="0.0505970355553351" flag="0"/>
			<psa30 value="0.00535994757023221" flag="0"/>
		</comp>
		<comp name="--.HGZ" depth="0.0">
			<acc value="0.11411737739316" flag="0"/>
			<vel value="0.064725558091" flag="0"/>
			<psa03 value="0.354396727044034" flag="0"/>
			<psa10 value="0.0457977488761454" flag="0"/>
			<psa30 value="0.00342510418800913" flag="0"/>
		</comp>
	</station>
	<station code="COS" name="COS" netid="IT" source="Italian Strong Motion Network (RAN)" insttype="" lat="39.289" lon="16.2576" esm:processing="manual (Paolucci et al 2011)" esm:quality="good">
		<comp name="--.HNE" depth="0.0">
			<acc value="0.14207989611804" flag="0"/>
			<vel value="0.111487279587" flag="0"/>
			<psa03 value="0.324530186032017" flag="0"/>
			<psa10 value="0.0755113047533548" flag="0"/>
			<psa30 value="0.00558761223521244" flag="0"/>
		</comp>
		<comp name="--.HNN" depth="0.0">
			<acc value="0.1295399219904" flag="0"/>
			<vel value="0.0930528767039" flag="0"/>
			<psa03 value="0.378634165988709" flag="0"/>
			<psa10 value="0.131109450357786" flag="0"/>
			<psa30 value="0.00630806704514517" flag="0"/>
		</comp>
		<comp name="--.HNZ" depth="0.0">
			<acc value="0.083716363360902" flag="0"/>
			<vel value="0.0436278244516" flag="0"/>
			<psa03 value="0.308347468173331" flag="0"/>
			<psa10 value="0.0425681699321736" flag="0"/>
			<psa30 value="0.00368541497398609" flag="0"/>
		</comp>
	</station>
	<station code="CRN" name="CRN" netid="IT" source="Italian Strong Motion Network (RAN)" insttype="" lat="39.0777" lon="17.1113" esm:processing="manual (Paolucci et al 2011)" esm:quality="good">
		<comp name="--.HGE" depth="0.0">
			<acc value="0.12062248454172" flag="0"/>
			<vel value="0.0517407230928" flag="0"/>
			<psa03 value="0.358988906253123" flag="0"/>
			<psa10 value="0.0578742013818968" flag="0"/>
			<psa30 value="0.00657260540284882" flag="0"/>
		</comp>
		<comp name="--.HGN" depth="0.0">
			<acc value="0.098683935551358" flag="0"/>
			<vel value="0.0723777432926" flag="0"/>
			<psa03 value="0.353506918098484" flag="0"/>
			<psa10 value="0.0881189724493076" flag="0"/>
			<psa30 value="0.00609220357858712" flag="0"/>
		</comp>
		<comp name="--.HGZ" depth="0.0">
			<acc value="0.050356634956752" flag="0"/>
			<vel value="0.023866364808" flag="0"/>
			<psa03 value="0.140212434218949" flag="0"/>
			<psa10 value="0.0329277963049195" flag="0"/>
			<psa30 value="0.00375542044484253" flag="0"/>
		</comp>
	</station>
	<station code="CTN" name="CTN" netid="IT" source="Italian Strong Motion Network (RAN)" insttype="" lat="38.9171" lon="16.5849" esm:processing="manual (Paolucci et al 2011)" esm:quality="good">
		<comp name="--.HGE" depth="0.0">
			<acc value="0.72304691052138" flag="0"/>
			<vel value="0.2625002075" flag="0"/>
			<psa03 value="2.06020981212148" flag="0"/>
			<psa10 value="0.108498700006469" flag="0"/>
			<psa30 value="0.0115063630734009" flag="0"/>
		</comp>
		<comp name="--.HGN" depth="0.0">
			<acc value="0.79546000125864" flag="0"/>
			<vel value="0.511397774879" flag="0"/>
			<psa03 value="2.04708444263164" flag="0"/>
			<psa10 value="0.215681392833936" flag="0"/>
			<psa30 value="0.0172968991680349" flag="0"/>
		</comp>
		<comp name="--.HGZ" depth="0.0">
			<acc value="0.44469295136358" flag="0"/>
			<vel value="0.165774758197" flag="0"/>
			<psa03 value="1.23738622076327" flag="0"/>
			<psa10 value="0.0753188795061408" flag="0"/>
			<psa30 value="0.00714342488349392" flag="0"/>
		</comp>
	</station>
	<station code="CTV" name="CTV" netid="IT" source="Italian Strong Motion Network (RAN)" insttype="" lat="38.3498" lon="16.0804" esm:processing="manual (Paolucci et al 2011)" esm:quality="good">
		<comp name="--.HNE" depth="0.0">
			<acc value="0.020959748555982" flag="0"/>
			<vel value="0.0185075524566" flag="0"/>
			<psa03 value="0.0465185087060495" flag="0"/>
			<psa10 value="0.0289404459125265" flag="0"/>
			<psa30 value="0.00263796350213548" flag="0"/>
		</comp>
		<comp name="--.HNN" depth="0.0">
			<acc value="0.02654644857909" flag="0"/>
			<vel value="0.021598217751" flag="0"/>
			<psa03 value="0.0682874924613579" flag="0"/>
			<psa10 value="0.0296686129000149" flag="0"/>
			<psa30 value="0.0040860273459271" flag="0"/>
		</comp>
		<comp name="--.HNZ" depth="0.0">
			<acc value="0.01997296633998" flag="0"/>
			<vel value="0.0143045491356" flag="0"/>
			<psa03 value="0.0635393914643849" flag="0"/>
			<psa10 value="0.0224300971338542" flag="0"/>
			<psa30 value="0.00136507542954883" flag="0"/>
		</comp>
	</station>
	<station code="CTZ" name="CTZ" netid="IT" source="Italian Strong Motion Network (RAN)" insttype="" lat="38.9407" lon="16.5851" esm:processing="manual (Paolucci et al 2011)" esm:quality="good">
		<comp name="--.HGE" depth="0.0">
			<acc value="2.3767685370276" flag="0"/>
			<vel value="1.52275087866" flag="0"/>
			<psa03 value="6.0553751388921" flag="0"/>
			<psa10 value="0.562890628743272" flag="0"/>
			<psa30 value="0.0462753255134116" flag="0"/>
		</comp>
		<comp name="--.HGN" depth="0.0">
			<acc value="1.2713839563432" flag="0"/>
			<vel value="0.657051547343" flag="0"/>
			<psa03 value="3.74514076386266" flag="0"/>
			<psa10 value="0.361248980972227" flag="0"/>
			<psa30 value="0.0351113359537067" flag="0"/>
		</comp>
		<comp name="--.HGZ" depth="0.0">
			<acc value="0.80113306367052" flag="0"/>
			<vel value="0.539969212498" flag="0"/>
			<psa03 value="2.26072859550994" flag="0"/>
			<psa10 value="0.339002987284039" flag="0"/>
			<psa30 value="0.0201686977438898" flag="0"/>
		</comp>
	</station>
	<station code="DNMI" name="DNMI" netid="IT" source="Italian Strong Motion Network (RAN)" insttype="" lat="38.5315" lon="16.1448" esm:processing="manual (Paolucci et al 2011)" esm:quality="good">
		<comp name="--.HGE" depth="0.0">
			<acc value="0.12279583566972" flag="0"/>
			<vel value="0.0856042943081" flag="0"/>
			<psa03 value="0.315941846263546" flag="0"/>
			<psa10 value="0.19302117670559" flag="0"/>
			<psa30 value="0.0070286514469868" flag="0"/>
		</comp>
		<comp name="--.HGN" depth="0.0">
			<acc value="0.100277250530742" flag="0"/>
			<vel value="0.0595586498752" flag="0"/>
			<psa03 value="0.279737843759172" flag="0"/>
			<psa10 value="0.135774234376587" flag="0"/>
			<psa30 value="0.00687546379906391" flag="0"/>
		</comp>
		<comp name="--.HGZ" depth="0.0">
			<acc value="0.099739556793588" flag="0"/>
			<vel value="0.06000226045" flag="0"/>
			<psa03 value="0.330860584556773" flag="0"/>
			<psa10 value="0.0438384840844356" flag="0"/>
			<psa30 value="0.00302974278892199" flag="0"/>
		</comp>
	</station>
	<station code="FDF" name="FDF" netid="IT" source="Italian Strong Motion Network (RAN)" insttype="" lat="38.7891" lon="16.3" esm:processing="manual (Paolucci et al 2011)" esm:quality="good">
		<comp name="--.HGE" depth="0.0">
			<acc value="0.24218725186134" flag="0"/>
			<vel value="0.105321730857" flag="0"/>
			<psa03 value="0.86005589114957" flag="0"/>
			<psa10 value="0.0513491216274224" flag="0"/>
			<psa30 value="0.00445315624974516" flag="0"/>
		</comp>
		<comp name="--.HGN" depth="0.0">
			<acc value="0.29650654796772" flag="0"/>
			<vel value="0.128632683818" flag="0"/>
			<psa03 value="1.0246578785554" flag="0"/>
			<psa10 value="0.0659900315156971" flag="0"/>
			<psa30 value="0.00887560296512722" flag="0"/>
		</comp>
		<comp name="--.HGZ" depth="0.0">
			<acc value="0.13054412610312" flag="0"/>
			<vel value="0.0362292077058" flag="0"/>
			<psa03 value="0.222387982112182" flag="0"/>
			<psa10 value="0.0214868402727302" flag="0"/>
			<psa30 value="0.00188688624695201" flag="0"/>
		</comp>
	</station>
