<?xml version="1.0" encoding="UTF-8" standalone="yes"?>
<!DOCTYPE earthquake SYSTEM "stationlist.dtd">
<stationlist created="" xmlns="ch.ethz.sed.shakemap.usgs.xml">
  <station code="KARP" name="KARP" netid="GE" insttype="STS-2/N" lat="35.5471" lon="27.1611">
    <comp name="--.HHN">
      <acc value="0.2169247068" flag="0"/>
      <vel value="0.0252736187" flag="0"/>
      <psa03 value="0.0582371326" flag="0"/>
      <psa10 value="0.0042331585" flag="0"/>
      <psa30 value="0.0002782991" flag="0"/>
    </comp>
    <comp name="--.HHE">
      <acc value="0.4209146521" flag="0"/>
      <vel value="0.0373682698" flag="0"/>
      <psa03 value="0.0582956580" flag="0"/>
      <psa10 value="0.0045631075" flag="0"/>
      <psa30 value="0.0003389686" flag="0"/>
    </comp>
    <comp name="--.HHZ">
      <acc value="0.4157582141" flag="0"/>
      <vel value="0.0479118471" flag="0"/>
      <psa03 value="0.0783184616" flag="0"/>
      <psa10 value="0.0027665889" flag="0"/>
      <psa30 value="0.0003874357" flag="0"/>
    </comp>
  </station>
  <station code="RDI1" name="RDI1" netid="HI" insttype="CMG-5TD,ACCELEROMETER,GURALP" lat="36.4514" lon="28.224">
    <comp name="--.HNE">
      <acc value="0.0485992679" flag="0"/>
      <vel value="0.0169752668" flag="0"/>
      <psa03 value="0.1253335620" flag="0"/>
      <psa10 value="0.0051398497" flag="0"/>
      <psa30 value="0.0004310691" flag="0"/>
    </comp>
    <comp name="--.HNN">
      <acc value="0.0442059430" flag="0"/>
      <vel value="0.0152595018" flag="0"/>
      <psa03 value="0.1136149255" flag="0"/>
      <psa10 value="0.0059417133" flag="0"/>
      <psa30 value="0.0006361999" flag="0"/>
    </comp>
    <comp name="--.HNZ">
      <acc value="0.0328207533" flag="0"/>
      <vel value="0.0077812918" flag="0"/>
      <psa03 value="0.0403532729" flag="0"/>
      <psa10 value="0.0029860132" flag="0"/>
      <psa30 value="0.0001948597" flag="0"/>
    </comp>
  </station>
  <station code="ARG" name="ARG" netid="HL" insttype="LE3D20_DR24" lat="36.2136" lon="28.1212">
    <comp name="--.HHE">
      <acc value="0.2136712683" flag="0"/>
      <vel value="0.0357146135" flag="0"/>
      <psa03 value="0.1459006386" flag="0"/>
      <psa10 value="0.0092346938" flag="0"/>
      <psa30 value="0.0007996282" flag="0"/>
    </comp>
    <comp name="--.HHZ">
      <acc value="0.1284625386" flag="0"/>
      <vel value="0.0196596295" flag="0"/>
      <psa03 value="0.0425098144" flag="0"/>
      <psa10 value="0.0041872677" flag="0"/>
      <psa30 value="0.0003010474" flag="0"/>
    </comp>
    <comp name="--.HHN">
      <acc value="0.1385727156" flag="0"/>
      <vel value="0.0242642180" flag="0"/>
      <psa03 value="0.0710926252" flag="0"/>
      <psa10 value="0.0058661744" flag="0"/>
      <psa30 value="0.0004646725" flag="0"/>
    </comp>
  </station>
  <station code="KARP" name="KARP" netid="HL" insttype="120" lat="35.5471" lon="27.1611">
    <comp name="--.HHE">
      <acc value="0.3483960490" flag="0"/>
      <vel value="0.0352054351" flag="0"/>
      <psa03 value="0.0564358497" flag="0"/>
      <psa10 value="0.0044812578" flag="0"/>
      <psa30 value="0.0003313346" flag="0"/>
    </comp>
    <comp name="--.HHZ">
      <acc value="0.3348065765" flag="0"/>
      <vel value="0.0420463859" flag="0"/>
      <psa03 value="0.0746671902" flag="0"/>
      <psa10 value="0.0026793105" flag="0"/>
      <psa30 value="0.0003577970" flag="0"/>
    </comp>
    <comp name="--.HHN">
      <acc value="0.1737542466" flag="0"/>
      <vel value="0.0228812755" flag="0"/>
      <psa03 value="0.0565681334" flag="0"/>
      <psa10 value="0.0041614996" flag="0"/>
      <psa30 value="0.0002693178" flag="0"/>
    </comp>
  </station>
  <station code="NISR" name="NISR" netid="HL" insttype="30" lat="36.6106" lon="27.1309">
    <comp name="--.HHN">
      <acc value="0.0125761957" flag="0"/>
      <vel value="0.0023818283" flag="0"/>
      <psa03 value="0.0130926840" flag="0"/>
      <psa10 value="0.0014184816" flag="0"/>
      <psa30 value="0.0000596276" flag="0"/>
    </comp>
    <comp name="--.HHZ">
      <acc value="0.0058243147" flag="0"/>
      <vel value="0.0018237693" flag="0"/>
      <psa03 value="0.0118975444" flag="0"/>
      <psa10 value="0.0010524371" flag="0"/>
      <psa30 value="0.0000679801" flag="0"/>
    </comp>
    <comp name="--.HHE">
      <acc value="0.0156796607" flag="0"/>
      <vel value="0.0046305552" flag="0"/>
      <psa03 value="0.0200606125" flag="0"/>
      <psa10 value="0.0015544996" flag="0"/>
      <psa30 value="0.0001558018" flag="0"/>
    </comp>
  </station>
  <station code="RODB" name="RODB" netid="HL" insttype="CMG-5" lat="36.4471" lon="28.2212">
    <comp name="00.HNN">
      <acc value="0.0607635258" flag="0"/>
      <vel value="0.0192845909" flag="0"/>
      <psa03 value="0.1746690349" flag="0"/>
      <psa10 value="0.0073635257" flag="0"/>
      <psa30 value="0.0006222708" flag="0"/>
    </comp>
    <comp name="00.HNE">
      <acc value="0.0550675304" flag="0"/>
      <vel value="0.0189491509" flag="0"/>
      <psa03 value="0.1012928358" flag="0"/>
      <psa10 value="0.0054855299" flag="0"/>
      <psa30 value="0.0006842504" flag="0"/>
    </comp>
    <comp name="00.HNZ">
      <acc value="0.0638946657" flag="0"/>
      <vel value="0.0194477083" flag="0"/>
      <psa03 value="0.0488778066" flag="0"/>
      <psa10 value="0.0049424178" flag="0"/>
      <psa30 value="0.0002865474" flag="0"/>
    </comp>
  </station>
  <station code="FETI" name="FETI" netid="KO" insttype="100" lat="36.6903" lon="29.0968">
    <comp name="--.HNN">
      <acc value="0.0023635330" flag="0"/>
      <vel value="0.0115474674" flag="0"/>
      <psa03 value="0.0022183207" flag="0"/>
      <psa10 value="0.0024440651" flag="0"/>
      <psa30 value="0.0031268307" flag="0"/>
    </comp>
    <comp name="--.HNE">
      <acc value="0.0345350286" flag="0"/>
      <vel value="0.0035489175" flag="0"/>
      <psa03 value="0.0072840343" flag="0"/>
      <psa10 value="0.0007934402" flag="0"/>
      <psa30 value="0.0001152309" flag="0"/>
    </comp>
    <comp name="--.HNZ">
      <acc value="0.0138666670" flag="0"/>
      <vel value="0.0024370235" flag="0"/>
      <psa03 value="0.0116943235" flag="0"/>
      <psa10 value="0.0016507595" flag="0"/>
      <psa30 value="0.0001940639" flag="0"/>
    </comp>
  </station>
</stationlist>
