<stationlist created="1778136079">
	<station code="RDI1" name="RDI1" netid="HI" source="ITSAK Strong Motion Network" insttype="" lat="36.4514" lon="28.224">
		<comp name="--.HNE" depth="0.0">
			<acc value="0.0480242277379866" flag="0"/>
			<vel value="0.0171834091580839" flag="0"/>
			<psa03 value="0.12505446749807" flag="0"/>
			<psa10 value="0.00514624860523362" flag="0"/>
			<psa30 value="0.00045279113097691" flag="0"/>
		</comp>
		<comp name="--.HNN" depth="0.0">
			<acc value="0.0442907544644674" flag="0"/>
			<vel value="0.0156100946160043" flag="0"/>
			<psa03 value="0.114271595703066" flag="0"/>
			<psa10 value="0.00594355472717122" flag="0"/>
			<psa30 value="0.000632654801582362" flag="0"/>
		</comp>
		<comp name="--.HNZ" depth="0.0">
			<acc value="0.0332340050582356" flag="0"/>
			<vel value="0.00792412026717339" flag="0"/>
			<psa03 value="0.0405364391961542" flag="0"/>
			<psa10 value="0.00299191135656383" flag="0"/>
			<psa30 value="0.000193733754657117" flag="0"/>
		</comp>
	</station>
	<station code="KARP" name="KARP" netid="HL" source="National Observatory of Athens Seismic Network" insttype="" lat="35.5471" lon="27.16106">
		<comp name="--.HNE" depth="0.0">
			<acc value="0.284797658786216" flag="0"/>
			<vel value="0.0344944385680444" flag="0"/>
			<psa03 value="0.0489927162470076" flag="0"/>
			<psa10 value="0.00350331477821068" flag="0"/>
			<psa30 value="0.000281875901695112" flag="0"/>
		</comp>
		<comp name="--.HNN" depth="0.0">
			<acc value="0.130760545089116" flag="0"/>
			<vel value="0.0186232850227644" flag="0"/>
			<psa03 value="0.0456370507506372" flag="0"/>
			<psa10 value="0.00404290579002704" flag="0"/>
			<psa30 value="0.000243397604003398" flag="0"/>
		</comp>
		<comp name="--.HNZ" depth="0.0">
			<acc value="0.296687055634402" flag="0"/>
			<vel value="0.0390806690286424" flag="0"/>
			<psa03 value="0.0640708398773652" flag="0"/>
			<psa10 value="0.00225903401215654" flag="0"/>
			<psa30 value="0.000306931537401344" flag="0"/>
		</comp>
	</station>
	<station code="KSL" name="KSL" netid="HL" source="National Observatory of Athens Seismic Network" insttype="" lat="36.15031" lon="29.58561">
		<comp name="00.HNE" depth="0.0">
			<acc value="0.0193993507998299" flag="0"/>
			<vel value="0.00969480617889031" flag="0"/>
			<psa03 value="0.0559277582728397" flag="0"/>
			<psa10 value="0.0033784840217457" flag="0"/>
			<psa30 value="0.000300667628474786" flag="0"/>
		</comp>
		<comp name="00.HNN" depth="0.0">
			<acc value="0.00865957512217195" flag="0"/>
			<vel value="0.00418743360560737" flag="0"/>
			<psa03 value="0.0304247005004248" flag="0"/>
			<psa10 value="0.0020375600893961" flag="0"/>
			<psa30 value="0.00021565743590007" flag="0"/>
		</comp>
		<comp name="00.HNZ" depth="0.0">
			<acc value="0.0123075467096336" flag="0"/>
			<vel value="0.00475731208762756" flag="0"/>
			<psa03 value="0.025682026598888" flag="0"/>
			<psa10 value="0.00168320181297938" flag="0"/>
			<psa30 value="0.000168230696884702" flag="0"/>
		</comp>
	</station>
	<station code="RODB" name="RODB" netid="HL" source="National Observatory of Athens Seismic Network" insttype="" lat="36.4471" lon="28.22116">
		<comp name="00.HNE" depth="0.0">
			<acc value="0.055185934080124" flag="0"/>
			<vel value="0.0189720065236457" flag="0"/>
			<psa03 value="0.101430582403622" flag="0"/>
			<psa10 value="0.00547644609007646" flag="0"/>
			<psa30 value="0.000671133099274076" flag="0"/>
		</comp>
		<comp name="00.HNN" depth="0.0">
			<acc value="0.0605247710104393" flag="0"/>
			<vel value="0.0193225953732769" flag="0"/>
			<psa03 value="0.175031512290679" flag="0"/>
			<psa10 value="0.00736904143002936" flag="0"/>
			<psa30 value="0.000627733158854353" flag="0"/>
		</comp>
		<comp name="00.HNZ" depth="0.0">
			<acc value="0.0643904223672747" flag="0"/>
			<vel value="0.019642614959458" flag="0"/>
			<psa03 value="0.0493506538999538" flag="0"/>
			<psa10 value="0.00494490867545139" flag="0"/>
			<psa30 value="0.000273822304503823" flag="0"/>
		</comp>
	</station>
</stationlist>
