<?xml version="1.0" encoding="UTF-8" standalone="yes"?>
<!DOCTYPE earthquake SYSTEM "stationlist.dtd">
<stationlist created="" xmlns="ch.ethz.sed.shakemap.usgs.xml">
  <station code="APMY" name="APMY" netid="KO" insttype="30s," lat="37.4718" lon="29.3018">
    <comp name="--.HHE">
      <acc value="0.0039953151" flag="0"/>
      <vel value="0.0040082595" flag="0"/>
      <psa03 value="0.0082736401" flag="0"/>
      <psa10 value="0.0053501054" flag="0"/>
      <psa30 value="0.0010462642" flag="0"/>
    </comp>
    <comp name="--.HHN">
      <acc value="0.0040089707" flag="0"/>
      <vel value="0.0046283237" flag="0"/>
      <psa03 value="0.0078931227" flag="0"/>
      <psa10 value="0.0051306682" flag="0"/>
      <psa30 value="0.0019989452" flag="0"/>
    </comp>
    <comp name="--.HHZ">
      <acc value="0.0028179913" flag="0"/>
      <vel value="0.0035066761" flag="0"/>
      <psa03 value="0.0078920030" flag="0"/>
      <psa10 value="0.0052362722" flag="0"/>
      <psa30 value="0.0012812363" flag="0"/>
    </comp>
  </station>
  <station code="AYDB" name="AYDB" netid="KO" insttype="30s," lat="37.9467" lon="27.8908">
    <comp name="--.HHN">
      <acc value="0.0146474706" flag="0"/>
      <vel value="0.0118402004" flag="0"/>
      <psa03 value="0.0322927678" flag="0"/>
      <psa10 value="0.0090887794" flag="0"/>
      <psa30 value="0.0010672873" flag="0"/>
    </comp>
    <comp name="--.HHZ">
      <acc value="0.0074497847" flag="0"/>
      <vel value="0.0052237485" flag="0"/>
      <psa03 value="0.0175916718" flag="0"/>
      <psa10 value="0.0039954339" flag="0"/>
      <psa30 value="0.0010192816" flag="0"/>
    </comp>
    <comp name="--.HHE">
      <acc value="0.0188054845" flag="0"/>
      <vel value="0.0155898921" flag="0"/>
      <psa03 value="0.0471670917" flag="0"/>
      <psa10 value="0.0115093377" flag="0"/>
      <psa30 value="0.0010961647" flag="0"/>
    </comp>
  </station>
  <station code="BABD" name="BABD" netid="KO" insttype="30s," lat="37.802" lon="28.8534">
    <comp name="--.HHN">
      <acc value="0.0143346581" flag="0"/>
      <vel value="0.0079103148" flag="0"/>
      <psa03 value="0.0370491624" flag="0"/>
      <psa10 value="0.0118451992" flag="0"/>
      <psa30 value="0.0014642878" flag="0"/>
    </comp>
    <comp name="--.HHE">
      <acc value="0.0148771638" flag="0"/>
      <vel value="0.0092504257" flag="0"/>
      <psa03 value="0.0330379271" flag="0"/>
      <psa10 value="0.0140469594" flag="0"/>
      <psa30 value="0.0012857187" flag="0"/>
    </comp>
    <comp name="--.HHZ">
      <acc value="0.0099766714" flag="0"/>
      <vel value="0.0061021963" flag="0"/>
      <psa03 value="0.0229912650" flag="0"/>
      <psa10 value="0.0041687248" flag="0"/>
      <psa30 value="0.0018407191" flag="0"/>
    </comp>
  </station>
  <station code="SERH" name="SERH" netid="KO" insttype="30s," lat="37.582" lon="29.2588">
    <comp name="--.HHE">
      <acc value="0.0075510440" flag="0"/>
      <vel value="0.0067300280" flag="0"/>
      <psa03 value="0.0304920623" flag="0"/>
      <psa10 value="0.0085494251" flag="0"/>
      <psa30 value="0.0020908549" flag="0"/>
    </comp>
    <comp name="--.HHN">
      <acc value="0.0085339563" flag="0"/>
      <vel value="0.0064248698" flag="0"/>
      <psa03 value="0.0234261646" flag="0"/>
      <psa10 value="0.0047258970" flag="0"/>
      <psa30 value="0.0010753396" flag="0"/>
    </comp>
    <comp name="--.HHZ">
      <acc value="0.0057264966" flag="0"/>
      <vel value="0.0052504359" flag="0"/>
      <psa03 value="0.0134904187" flag="0"/>
      <psa10 value="0.0046715418" flag="0"/>
      <psa30 value="0.0011144384" flag="0"/>
    </comp>
  </station>
  <station code="AYDN" name="AYDN" netid="TU" insttype="T" lat="37.6608" lon="27.8792">
    <comp name="--.HHZ">
      <acc value="0.0216365555" flag="0"/>
      <vel value="0.0196905328" flag="0"/>
      <psa03 value="0.0647349646" flag="0"/>
      <psa10 value="0.0168499555" flag="0"/>
      <psa30 value="0.0027528917" flag="0"/>
    </comp>
    <comp name="--.HHN">
      <acc value="0.0806769189" flag="0"/>
      <vel value="0.0421538381" flag="0"/>
      <psa03 value="0.2827532702" flag="0"/>
      <psa10 value="0.0480654574" flag="0"/>
      <psa30 value="0.0068489919" flag="0"/>
    </comp>
    <comp name="--.HHE">
      <acc value="0.0857529717" flag="0"/>
      <vel value="0.0476333880" flag="0"/>
      <psa03 value="0.2864846669" flag="0"/>
      <psa10 value="0.0367416615" flag="0"/>
      <psa30 value="0.0035233967" flag="0"/>
    </comp>
  </station>
</stationlist>
