<?xml version="1.0" encoding="UTF-8" standalone="yes"?>
<!DOCTYPE earthquake SYSTEM "stationlist.dtd">
<stationlist created="" xmlns="ch.ethz.sed.shakemap.usgs.xml">
  <station code="KARS" name="KARS" netid="KO" insttype="CMG-3T" lat="40.6152" lon="43.0937">
    <comp name="--.HHZ">
      <acc value="0.0066832799" flag="0"/>
      <vel value="0.0038806390" flag="0"/>
      <psa03 value="0.0140749425" flag="0"/>
      <psa10 value="0.0080727953" flag="0"/>
      <psa30 value="0.0006397662" flag="0"/>
    </comp>
    <comp name="--.HHN">
      <acc value="0.0120398235" flag="0"/>
      <vel value="0.0050430163" flag="0"/>
      <psa03 value="0.0240572328" flag="0"/>
      <psa10 value="0.0065884350" flag="0"/>
      <psa30 value="0.0012345659" flag="0"/>
    </comp>
    <comp name="--.HHE">
      <acc value="0.0192224764" flag="0"/>
      <vel value="0.0071842413" flag="0"/>
      <psa03 value="0.0513858396" flag="0"/>
      <psa10 value="0.0098707287" flag="0"/>
      <psa30 value="0.0011150725" flag="0"/>
    </comp>
  </station>
</stationlist>
