<?xml version="1.0" encoding="UTF-8" standalone="yes"?>
<!DOCTYPE earthquake SYSTEM "stationlist.dtd">
<stationlist created="" xmlns="ch.ethz.sed.shakemap.usgs.xml">
  <station code="KHMN" name="KHMN" netid="KO" insttype="CMG-5T" lat="37.3916" lon="37.1574">
    <comp name="--.HNZ">
      <acc value="0.0150939385" flag="0"/>
      <vel value="0.0027207960" flag="0"/>
      <psa03 value="0.0134033276" flag="0"/>
      <psa10 value="0.0026539789" flag="0"/>
      <psa30 value="0.0005271064" flag="0"/>
    </comp>
    <comp name="--.HNE">
      <acc value="0.0219893964" flag="0"/>
      <vel value="0.0040071744" flag="0"/>
      <psa03 value="0.0180659915" flag="0"/>
      <psa10 value="0.0024133283" flag="0"/>
      <psa30 value="0.0004721643" flag="0"/>
    </comp>
    <comp name="--.HNN">
      <acc value="0.0214886743" flag="0"/>
      <vel value="0.0051210392" flag="0"/>
      <psa03 value="0.0212286103" flag="0"/>
      <psa10 value="0.0028880487" flag="0"/>
      <psa30 value="0.0003734897" flag="0"/>
    </comp>
  </station>
  <station code="KMRS" name="KMRS" netid="KO" insttype="CMG-3T" lat="37.5053" lon="36.9">
    <comp name="--.HHE">
      <acc value="0.0127286132" flag="0"/>
      <vel value="0.0062285495" flag="0"/>
      <psa03 value="0.0195843982" flag="0"/>
      <psa10 value="0.0053796146" flag="0"/>
      <psa30 value="0.0005842122" flag="0"/>
    </comp>
    <comp name="--.HHZ">
      <acc value="0.0112054980" flag="0"/>
      <vel value="0.0048173216" flag="0"/>
      <psa03 value="0.0182063933" flag="0"/>
      <psa10 value="0.0030900919" flag="0"/>
      <psa30 value="0.0005038217" flag="0"/>
    </comp>
  </station>
  <station code="SARI" name="SARI" netid="KO" insttype="CMG-3T" lat="38.4072" lon="36.4181">
    <comp name="--.HHN">
      <acc value="0.0110517319" flag="0"/>
      <vel value="0.0038531700" flag="0"/>
      <psa03 value="0.0164004802" flag="0"/>
      <psa10 value="0.0048133021" flag="0"/>
      <psa30 value="0.0002157488" flag="0"/>
    </comp>
    <comp name="--.HHZ">
      <acc value="0.0093086970" flag="0"/>
      <vel value="0.0025518893" flag="0"/>
      <psa03 value="0.0136830176" flag="0"/>
      <psa10 value="0.0018257325" flag="0"/>
      <psa30 value="0.0002591945" flag="0"/>
    </comp>
  </station>
  <station code="ANDN" name="ANDN" netid="TU" insttype="T" lat="37.58" lon="36.3452">
    <comp name="--.HHN">
      <acc value="0.0474934550" flag="0"/>
      <vel value="0.0163345679" flag="0"/>
      <psa03 value="0.0520065561" flag="0"/>
      <psa10 value="0.0128091610" flag="0"/>
      <psa30 value="0.0008174104" flag="0"/>
    </comp>
    <comp name="--.HHZ">
      <acc value="0.0151390695" flag="0"/>
      <vel value="0.0089345529" flag="0"/>
      <psa03 value="0.0232245420" flag="0"/>
      <psa10 value="0.0113724380" flag="0"/>
      <psa30 value="0.0006080625" flag="0"/>
    </comp>
    <comp name="--.HHE">
      <acc value="0.0499390725" flag="0"/>
      <vel value="0.0150911576" flag="0"/>
      <psa03 value="0.0728397255" flag="0"/>
      <psa10 value="0.0131910318" flag="0"/>
      <psa30 value="0.0010015512" flag="0"/>
    </comp>
  </station>
</stationlist>
