<?xml version="1.0" encoding="UTF-8" standalone="yes"?>
<!DOCTYPE earthquake SYSTEM "stationlist.dtd">
<stationlist created="" xmlns="ch.ethz.sed.shakemap.usgs.xml">
  <station code="KHMN" name="KHMN" netid="KO" insttype="CMG-5T" lat="37.3916" lon="37.1574">
    <comp name="--.HNN">
      <acc value="0.0214886760" flag="0"/>
      <vel value="0.0051210304" flag="0"/>
      <psa03 value="0.0212286103" flag="0"/>
      <psa10 value="0.0028880494" flag="0"/>
      <psa30 value="0.0003724374" flag="0"/>
    </comp>
    <comp name="--.HNZ">
      <acc value="0.0150939726" flag="0"/>
      <vel value="0.0027207915" flag="0"/>
      <psa03 value="0.0134033276" flag="0"/>
      <psa10 value="0.0026539789" flag="0"/>
      <psa30 value="0.0005274132" flag="0"/>
    </comp>
    <comp name="--.HNE">
      <acc value="0.0219893928" flag="0"/>
      <vel value="0.0040071932" flag="0"/>
      <psa03 value="0.0180659915" flag="0"/>
      <psa10 value="0.0024133294" flag="0"/>
      <psa30 value="0.0004733080" flag="0"/>
    </comp>
  </station>
  <station code="ANDN" name="ANDN" netid="TU" insttype="T" lat="37.58" lon="36.3452">
    <comp name="--.HHE">
      <acc value="0.0499390725" flag="0"/>
      <vel value="0.0150911580" flag="0"/>
      <psa03 value="0.0728397255" flag="0"/>
      <psa10 value="0.0131910318" flag="0"/>
      <psa30 value="0.0010015734" flag="0"/>
    </comp>
    <comp name="--.HHN">
      <acc value="0.0474934555" flag="0"/>
      <vel value="0.0163345674" flag="0"/>
      <psa03 value="0.0520065561" flag="0"/>
      <psa10 value="0.0128091610" flag="0"/>
      <psa30 value="0.0008174067" flag="0"/>
    </comp>
    <comp name="--.HHZ">
      <acc value="0.0151390697" flag="0"/>
      <vel value="0.0089345526" flag="0"/>
      <psa03 value="0.0232245420" flag="0"/>
      <psa10 value="0.0113724380" flag="0"/>
      <psa30 value="0.0006080761" flag="0"/>
    </comp>
  </station>
</stationlist>
