<?xml version="1.0" encoding="UTF-8" standalone="yes"?>
<!DOCTYPE earthquake SYSTEM "stationlist.dtd">
<stationlist created="" xmlns="ch.ethz.sed.shakemap.usgs.xml">
  <station code="CEYT" name="CEYT" netid="KO" insttype="CMG-3ESP" lat="37.0105" lon="35.7478">
    <comp name="--.HHZ">
      <acc value="0.0036255485" flag="0"/>
      <vel value="0.0050546057" flag="0"/>
      <psa03 value="0.0074484888" flag="0"/>
      <psa10 value="0.0099520339" flag="0"/>
      <psa30 value="0.0009946764" flag="0"/>
    </comp>
    <comp name="--.HHE">
      <acc value="0.0064606279" flag="0"/>
      <vel value="0.0079719700" flag="0"/>
      <psa03 value="0.0155080798" flag="0"/>
      <psa10 value="0.0185835485" flag="0"/>
      <psa30 value="0.0017229603" flag="0"/>
    </comp>
    <comp name="--.HHN">
      <acc value="0.0052909859" flag="0"/>
      <vel value="0.0050293744" flag="0"/>
      <psa03 value="0.0155196226" flag="0"/>
      <psa10 value="0.0083534768" flag="0"/>
      <psa30 value="0.0012483693" flag="0"/>
    </comp>
  </station>
  <station code="CMRD" name="CMRD" netid="KO" insttype="CMG-5T" lat="37.6623" lon="34.9902">
    <comp name="--.HNE">
      <acc value="0.0083526746" flag="0"/>
      <vel value="0.0058440389" flag="0"/>
      <psa03 value="0.0095853899" flag="0"/>
      <psa10 value="0.0099877183" flag="0"/>
      <psa30 value="0.0006122742" flag="0"/>
    </comp>
    <comp name="--.HNN">
      <acc value="0.0068909977" flag="0"/>
      <vel value="0.0065317318" flag="0"/>
      <psa03 value="0.0141099199" flag="0"/>
      <psa10 value="0.0107211190" flag="0"/>
      <psa30 value="0.0005005735" flag="0"/>
    </comp>
    <comp name="--.HNZ">
      <acc value="0.0041820918" flag="0"/>
      <vel value="0.0039909727" flag="0"/>
      <psa03 value="0.0082249751" flag="0"/>
      <psa10 value="0.0061000262" flag="0"/>
      <psa30 value="0.0005078491" flag="0"/>
    </comp>
  </station>
  <station code="GAZ" name="GAZ" netid="KO" insttype="CMG-3T" lat="37.1721" lon="37.2096">
    <comp name="--.HHN">
      <acc value="0.0373683074" flag="0"/>
      <vel value="0.0315486896" flag="0"/>
      <psa03 value="0.0735234870" flag="0"/>
      <psa10 value="0.0384993895" flag="0"/>
      <psa30 value="0.0032363950" flag="0"/>
    </comp>
  </station>
</stationlist>
