<stationlist created="1631873505">
	<station code="KRL1" name="KRL1" netid="HI" source="ITSAK Strong Motion Network" insttype="" lat="37.7951" lon="26.7065">
		<comp name="--.HNE" depth="0.0">
			<acc value="-1.057170024" flag="0"/>
			<vel value="0.31432" flag="0"/>
			<psa03 value="1.19752516014" flag="0"/>
			<psa10 value="0.0940338008055" flag="0"/>
			<psa30 value="0.00854844599649" flag="0"/>
		</comp>
		<comp name="--.HNN" depth="0.0">
			<acc value="0.412497996" flag="0"/>
			<vel value="0.139459" flag="0"/>
			<psa03 value="0.71511468838" flag="0"/>
			<psa10 value="0.062689200537" flag="0"/>
			<psa30 value="0.0030178618364" flag="0"/>
		</comp>
		<comp name="--.HNZ" depth="0.0">
			<acc value="-0.298747698" flag="0"/>
			<vel value="0.089165" flag="0"/>
			<psa03 value="0.343575404622" flag="0"/>
			<psa10 value="0.0486759414242" flag="0"/>
			<psa30 value="0.00296193407813" flag="0"/>
		</comp>
	</station>
	<station code="KLNA" name="KLNA" netid="HL" source="National Observatory of Athens Seismic Network" insttype="" lat="36.95708" lon="26.97274">
		<comp name="--.HNE" depth="0.0">
			<acc value="0.031688748" flag="0"/>
			<vel value="0.010541" flag="0"/>
			<psa03 value="0.0797306121938" flag="0"/>
			<psa10 value="0.00774353369942" flag="0"/>
			<psa30 value="0.00100893675924" flag="0"/>
		</comp>
		<comp name="--.HNN" depth="0.0">
			<acc value="0.03080451" flag="0"/>
			<vel value="0.013504" flag="0"/>
			<psa03 value="0.0895291554432" flag="0"/>
			<psa10 value="0.00540396371535" flag="0"/>
			<psa30 value="0.000697531001179" flag="0"/>
		</comp>
		<comp name="--.HNZ" depth="0.0">
			<acc value="0.034709274" flag="0"/>
			<vel value="-0.011601" flag="0"/>
			<psa03 value="0.0426393229072" flag="0"/>
			<psa10 value="0.00664824448141" flag="0"/>
			<psa30 value="0.000905582261954" flag="0"/>
		</comp>
	</station>
	<station code="GMLD" name="GMLD" netid="KO" source="Bogazici University Kandilli Observatory And Earthquake Research Institute (KOERI)" insttype="" lat="38.0766" lon="26.9157">
		<comp name="--.HNE" depth="0.0">
			<acc value="1.363802424" flag="0"/>
			<vel value="-0.523425" flag="0"/>
			<psa03 value="1.8726403158" flag="0"/>
			<psa10 value="0.244281710006" flag="0"/>
			<psa30 value="0.015765363924" flag="0"/>
		</comp>
		<comp name="--.HNN" depth="0.0">
			<acc value="-1.592389728" flag="0"/>
			<vel value="-0.538857" flag="0"/>
			<psa03 value="2.3756322026" flag="0"/>
			<psa10 value="0.235861674143" flag="0"/>
			<psa30 value="0.0171080775446" flag="0"/>
		</comp>
		<comp name="--.HNZ" depth="0.0">
			<acc value="-0.654528798" flag="0"/>
			<vel value="0.232524" flag="0"/>
			<psa03 value="1.2019993808" flag="0"/>
			<psa10 value="0.101137073528" flag="0"/>
			<psa30 value="0.00581469717211" flag="0"/>
		</comp>
	</station>
	<station code="KUSD" name="KUSD" netid="KO" source="Bogazici University Kandilli Observatory And Earthquake Research Institute (KOERI)" insttype="" lat="37.8606" lon="27.2868">
		<comp name="--.HNE" depth="0.0">
			<acc value="0.172341444" flag="0"/>
			<vel value="0.084602" flag="0"/>
			<psa03 value="0.456236280887" flag="0"/>
			<psa10 value="0.0443390793366" flag="0"/>
			<psa30 value="0.00332926759447" flag="0"/>
		</comp>
		<comp name="--.HNN" depth="0.0">
			<acc value="-0.16946025" flag="0"/>
			<vel value="0.08316" flag="0"/>
			<psa03 value="0.546347085016" flag="0"/>
			<psa10 value="0.0684394689316" flag="0"/>
			<psa30 value="0.00367601969576" flag="0"/>
		</comp>
		<comp name="--.HNZ" depth="0.0">
			<acc value="0.089105874" flag="0"/>
			<vel value="0.035736" flag="0"/>
			<psa03 value="0.229930199811" flag="0"/>
			<psa10 value="0.0259929849349" flag="0"/>
			<psa30 value="0.00181026967978" flag="0"/>
		</comp>
	</station>
</stationlist>
