<stationlist created="1642764331">
	<station code="KRL1" name="KRL1" netid="HI" source="ITSAK Strong Motion Network" insttype="" lat="37.7951" lon="26.7065">
		<comp name=".HNE" depth="0.0">
			<acc value="1.057170024" flag="0"/>
			<vel value="0.31432" flag="0"/>
			<psa03 value="1.19752516014" flag="0"/>
			<psa10 value="0.0940338008055" flag="0"/>
			<psa30 value="0.00854844599649" flag="0"/>
		</comp>
		<comp name=".HNN" depth="0.0">
			<acc value="0.412497996" flag="0"/>
			<vel value="0.139459" flag="0"/>
			<psa03 value="0.71511468838" flag="0"/>
			<psa10 value="0.062689200537" flag="0"/>
			<psa30 value="0.0030178618364" flag="0"/>
		</comp>
		<comp name=".HNZ" depth="0.0">
			<acc value="0.298747698" flag="0"/>
			<vel value="0.089165" flag="0"/>
			<psa03 value="0.343575404622" flag="0"/>
			<psa10 value="0.0486759414242" flag="0"/>
			<psa30 value="0.00296193407813" flag="0"/>
		</comp>
	</station>
	<station code="MYT1" name="MYT1" netid="HI" source="ITSAK Strong Motion Network" insttype="" lat="39.085" lon="26.5694">
		<comp name=".HNE" depth="0.0">
			<acc value="0.019997508" flag="0"/>
			<vel value="0.016097" flag="0"/>
			<psa03 value="0.0619232139597" flag="0"/>
			<psa10 value="0.0208467363297" flag="0"/>
			<psa30 value="0.00123488490266" flag="0"/>
		</comp>
		<comp name=".HNN" depth="0.0">
			<acc value="0.020999352" flag="0"/>
			<vel value="0.011953" flag="0"/>
			<psa03 value="0.0574042510912" flag="0"/>
			<psa10 value="0.0133568909418" flag="0"/>
			<psa30 value="0.00137313832111" flag="0"/>
		</comp>
		<comp name=".HNZ" depth="0.0">
			<acc value="0.016514718" flag="0"/>
			<vel value="0.01191" flag="0"/>
			<psa03 value="0.0349436633689" flag="0"/>
			<psa10 value="0.0188252834346" flag="0"/>
			<psa30 value="0.00158297927015" flag="0"/>
		</comp>
	</station>
	<station code="SKY1" name="SKY1" netid="HI" source="ITSAK Strong Motion Network" insttype="" lat="38.904483" lon="24.564572">
		<comp name=".HNE" depth="0.0">
			<acc value="0.001233384" flag="0"/>
			<vel value="0.000993" flag="0"/>
			<psa03 value="0.00201339929782" flag="0"/>
			<psa10 value="0.00123220037027" flag="0"/>
			<psa30 value="0.000421024164278" flag="0"/>
		</comp>
		<comp name=".HNN" depth="0.0">
			<acc value="0.001394136" flag="0"/>
			<vel value="0.000939" flag="0"/>
			<psa03 value="0.0021923681243" flag="0"/>
			<psa10 value="0.00117985198852" flag="0"/>
			<psa30 value="0.000333776861372" flag="0"/>
		</comp>
		<comp name=".HNZ" depth="0.0">
			<acc value="0.001899138" flag="0"/>
			<vel value="0.000712" flag="0"/>
			<psa03 value="0.00120803957869" flag="0"/>
			<psa10 value="0.000708716552833" flag="0"/>
			<psa30 value="0.000341383036497" flag="0"/>
		</comp>
	</station>
	<station code="ASTA" name="ASTA" netid="HL" source="National Observatory of Athens Seismic Network" insttype="" lat="36.54543" lon="26.3528">
		<comp name="00.HNE" depth="0.0">
			<acc value="0.003581628" flag="0"/>
			<vel value="0.00171" flag="0"/>
			<psa03 value="0.00483215831477" flag="0"/>
			<psa10 value="0.00177581818068" flag="0"/>
			<psa30 value="0.000330644906909" flag="0"/>
		</comp>
		<comp name="00.HNN" depth="0.0">
			<acc value="0.003578874" flag="0"/>
			<vel value="0.001589" flag="0"/>
			<psa03 value="0.00554803362067" flag="0"/>
			<psa10 value="0.00207380127676" flag="0"/>
			<psa30 value="0.000636681600178" flag="0"/>
		</comp>
		<comp name="00.HNZ" depth="0.0">
			<acc value="0.003437808" flag="0"/>
			<vel value="0.001434" flag="0"/>
			<psa03 value="0.00523483817434" flag="0"/>
			<psa10 value="0.00201742609642" flag="0"/>
			<psa30 value="0.000439368468991" flag="0"/>
		</comp>
	</station>
	<station code="KLNA" name="KLNA" netid="HL" source="National Observatory of Athens Seismic Network" insttype="" lat="36.95708" lon="26.97274">
		<comp name="00.HNE" depth="0.0">
			<acc value="0.031688748" flag="0"/>
			<vel value="0.010541" flag="0"/>
			<psa03 value="0.0797306121938" flag="0"/>
			<psa10 value="0.00774353369942" flag="0"/>
			<psa30 value="0.00100893675924" flag="0"/>
		</comp>
		<comp name="00.HNN" depth="0.0">
			<acc value="0.03080451" flag="0"/>
			<vel value="0.013504" flag="0"/>
			<psa03 value="0.0895291554432" flag="0"/>
			<psa10 value="0.00540396371535" flag="0"/>
			<psa30 value="0.000697531001179" flag="0"/>
		</comp>
		<comp name="00.HNZ" depth="0.0">
			<acc value="0.034709274" flag="0"/>
			<vel value="0.011601" flag="0"/>
			<psa03 value="0.0426393229072" flag="0"/>
			<psa10 value="0.00664824448141" flag="0"/>
			<psa30 value="0.000905582261954" flag="0"/>
		</comp>
	</station>
	<station code="KYMI" name="KYMI" netid="HL" source="National Observatory of Athens Seismic Network" insttype="" lat="38.633147" lon="24.100138">
		<comp name=".HNE" depth="1.0">
			<acc value="0.000458388" flag="0"/>
			<vel value="0.001105" flag="0"/>
			<psa03 value="0.000671133099274" flag="0"/>
			<psa10 value="0.000547644609008" flag="0"/>
			<psa30 value="0.000516325064375" flag="0"/>
		</comp>
		<comp name=".HNN" depth="1.0">
			<acc value="0.000415854" flag="0"/>
			<vel value="0.000868" flag="0"/>
			<psa03 value="0.000760617512511" flag="0"/>
			<psa10 value="0.000527510616029" flag="0"/>
			<psa30 value="0.000336461393769" flag="0"/>
		</comp>
		<comp name=".HNZ" depth="1.0">
			<acc value="0.000317934" flag="0"/>
			<vel value="0.000812" flag="0"/>
			<psa03 value="0.000492164272801" flag="0"/>
			<psa10 value="0.000483215831477" flag="0"/>
			<psa30 value="0.000451448864778" flag="0"/>
		</comp>
	</station>
	<station code="PRK" name="PRK" netid="HL" source="National Observatory of Athens Seismic Network" insttype="" lat="39.24565" lon="26.26499">
		<comp name=".HNE" depth="0.0">
			<acc value="0.025564158" flag="0"/>
			<vel value="0.026864" flag="0"/>
			<psa03 value="0.0467108637095" flag="0"/>
			<psa10 value="0.0392210183216" flag="0"/>
			<psa30 value="0.0018469582892" flag="0"/>
		</comp>
		<comp name=".HNN" depth="0.0">
			<acc value="0.019904076" flag="0"/>
			<vel value="0.017523" flag="0"/>
			<psa03 value="0.06469723077" flag="0"/>
			<psa10 value="0.0218212215898" flag="0"/>
			<psa30 value="0.00141161661881" flag="0"/>
		</comp>
		<comp name=".HNZ" depth="0.0">
			<acc value="0.015644148" flag="0"/>
			<vel value="0.013662" flag="0"/>
			<psa03 value="0.0414312833285" flag="0"/>
			<psa10 value="0.00840795546771" flag="0"/>
			<psa30 value="0.00132929095863" flag="0"/>
		</comp>
	</station>
	<station code="THRA" name="THRA" netid="HL" source="National Observatory of Athens Seismic Network" insttype="" lat="36.41502" lon="25.43244">
		<comp name="00.HNE" depth="0.0">
			<acc value="0.015729114" flag="0"/>
			<vel value="0.008299" flag="0"/>
			<psa03 value="0.0339145926167" flag="0"/>
			<psa10 value="0.0121407977659" flag="0"/>
			<psa30 value="0.00187559330144" flag="0"/>
		</comp>
		<comp name="00.HNN" depth="0.0">
			<acc value="0.010328724" flag="0"/>
			<vel value="0.008631" flag="0"/>
			<psa03 value="0.0294851141614" flag="0"/>
			<psa10 value="0.0115891263583" flag="0"/>
			<psa30 value="0.00186753970425" flag="0"/>
		</comp>
		<comp name="00.HNZ" depth="0.0">
			<acc value="0.017627436" flag="0"/>
			<vel value="0.005015" flag="0"/>
			<psa03 value="0.0169572963083" flag="0"/>
			<psa10 value="0.00382948546446" flag="0"/>
			<psa30 value="0.00090021319716" flag="0"/>
		</comp>
	</station>
	<station code="AKS" name="AKS" netid="KO" source="Bogazici University Kandilli Observatory And Earthquake Research Institute (KOERI)" insttype="" lat="38.8785" lon="27.8129">
		<comp name=".HNE" depth="0.0">
			<acc value="0.008566062" flag="0"/>
			<vel value="0.005824" flag="0"/>
			<psa03 value="0.0242502759871" flag="0"/>
			<psa10 value="0.00695025437608" flag="0"/>
			<psa30 value="0.00057896415364" flag="0"/>
		</comp>
		<comp name=".HNN" depth="0.0">
			<acc value="0.010706022" flag="0"/>
			<vel value="0.004907" flag="0"/>
			<psa03 value="0.0208051260775" flag="0"/>
			<psa10 value="0.00366841352063" flag="0"/>
			<psa30 value="0.000732429922341" flag="0"/>
		</comp>
		<comp name=".HNZ" depth="0.0">
			<acc value="0.00552024" flag="0"/>
			<vel value="0.002449" flag="0"/>
			<psa03 value="0.0103354497288" flag="0"/>
			<psa10 value="0.00255299030964" flag="0"/>
			<psa30 value="0.000436236514528" flag="0"/>
		</comp>
	</station>
	<station code="DATC" name="DATC" netid="KO" source="Bogazici University Kandilli Observatory And Earthquake Research Institute (KOERI)" insttype="" lat="36.7584" lon="27.6602">
		<comp name=".HNE" depth="0.0">
			<acc value="0.103959624" flag="0"/>
			<vel value="0.032684" flag="0"/>
			<psa03 value="0.103488723908" flag="0"/>
			<psa10 value="0.0550141224137" flag="0"/>
			<psa30 value="0.00379682365363" flag="0"/>
		</comp>
		<comp name=".HNN" depth="0.0">
			<acc value="0.135517812" flag="0"/>
			<vel value="0.039878" flag="0"/>
			<psa03 value="0.0978959480808" flag="0"/>
			<psa10 value="0.0824044064613" flag="0"/>
			<psa30 value="0.00478831095229" flag="0"/>
		</comp>
		<comp name=".HNZ" depth="0.0">
			<acc value="0.151997646" flag="0"/>
			<vel value="0.033628" flag="0"/>
			<psa03 value="0.0510061155448" flag="0"/>
			<psa10 value="0.0458008072269" flag="0"/>
			<psa30 value="0.00251495943401" flag="0"/>
		</comp>
	</station>
	<station code="EZNE" name="EZNE" netid="KO" source="Bogazici University Kandilli Observatory And Earthquake Research Institute (KOERI)" insttype="" lat="39.756" lon="26.3655">
		<comp name=".HNE" depth="0.0">
			<acc value="0.02369766" flag="0"/>
			<vel value="0.012418" flag="0"/>
			<psa03 value="0.0833547309298" flag="0"/>
			<psa10 value="0.0191434005237" flag="0"/>
			<psa30 value="0.00242860697524" flag="0"/>
		</comp>
		<comp name=".HNN" depth="0.0">
			<acc value="0.03858762" flag="0"/>
			<vel value="0.023015" flag="0"/>
			<psa03 value="0.10147532461" flag="0"/>
			<psa10 value="0.0185111931442" flag="0"/>
			<psa30 value="0.00269392826049" flag="0"/>
		</comp>
		<comp name=".HNZ" depth="0.0">
			<acc value="0.015417198" flag="0"/>
			<vel value="0.007905" flag="0"/>
			<psa03 value="0.0497533337595" flag="0"/>
			<psa10 value="0.00664019088422" flag="0"/>
			<psa30 value="0.00166083070967" flag="0"/>
		</comp>
	</station>
	<station code="GMLD" name="GMLD" netid="KO" source="Bogazici University Kandilli Observatory And Earthquake Research Institute (KOERI)" insttype="" lat="38.0766" lon="26.9157">
		<comp name=".HNE" depth="0.0">
			<acc value="1.363802424" flag="0"/>
			<vel value="0.523425" flag="0"/>
			<psa03 value="1.8726403158" flag="0"/>
			<psa10 value="0.244281710006" flag="0"/>
			<psa30 value="0.015765363924" flag="0"/>
		</comp>
		<comp name=".HNN" depth="0.0">
			<acc value="1.592389728" flag="0"/>
			<vel value="0.538857" flag="0"/>
			<psa03 value="2.3756322026" flag="0"/>
			<psa10 value="0.235861674143" flag="0"/>
			<psa30 value="0.0171080775446" flag="0"/>
		</comp>
		<comp name=".HNZ" depth="0.0">
			<acc value="0.654528798" flag="0"/>
			<vel value="0.232524" flag="0"/>
			<psa03 value="1.2019993808" flag="0"/>
			<psa10 value="0.101137073528" flag="0"/>
			<psa30 value="0.00581469717211" flag="0"/>
		</comp>
	</station>
	<station code="GOMA" name="GOMA" netid="KO" source="Bogazici University Kandilli Observatory And Earthquake Research Institute (KOERI)" insttype="" lat="38.7077" lon="27.9175">
		<comp name=".HNE" depth="0.0">
			<acc value="0.01751085" flag="0"/>
			<vel value="0.00884" flag="0"/>
			<psa03 value="0.0506034356853" flag="0"/>
			<psa10 value="0.00486839950213" flag="0"/>
			<psa30 value="0.000420576742212" flag="0"/>
		</comp>
		<comp name=".HNN" depth="0.0">
			<acc value="0.02173773" flag="0"/>
			<vel value="0.010565" flag="0"/>
			<psa03 value="0.056733117992" flag="0"/>
			<psa10 value="0.00775158729662" flag="0"/>
			<psa30 value="0.000442053001389" flag="0"/>
		</comp>
		<comp name=".HNZ" depth="0.0">
			<acc value="0.015524808" flag="0"/>
			<vel value="0.004456" flag="0"/>
			<psa03 value="0.0202682195981" flag="0"/>
			<psa10 value="0.00417981694228" flag="0"/>
			<psa30 value="0.000353910854351" flag="0"/>
		</comp>
	</station>
	<station code="GORD" name="GORD" netid="KO" source="Bogazici University Kandilli Observatory And Earthquake Research Institute (KOERI)" insttype="" lat="38.9088" lon="28.1769">
		<comp name=".HNE" depth="0.0">
			<acc value="0.019146522" flag="0"/>
			<vel value="0.015174" flag="0"/>
			<psa03 value="0.0655920749024" flag="0"/>
			<psa10 value="0.0377874780215" flag="0"/>
			<psa30 value="0.00259594282799" flag="0"/>
		</comp>
		<comp name=".HNN" depth="0.0">
			<acc value="0.018559818" flag="0"/>
			<vel value="0.019662" flag="0"/>
			<psa03 value="0.0477846766683" flag="0"/>
			<psa10 value="0.0318721108845" flag="0"/>
			<psa30 value="0.00303531129698" flag="0"/>
		</comp>
		<comp name=".HNZ" depth="0.0">
			<acc value="0.015203202" flag="0"/>
			<vel value="0.016929" flag="0"/>
			<psa03 value="0.0442947845521" flag="0"/>
			<psa10 value="0.0369176895249" flag="0"/>
			<psa30 value="0.00235791428878" flag="0"/>
		</comp>
	</station>
	<station code="KRBN" name="KRBN" netid="KO" source="Bogazici University Kandilli Observatory And Earthquake Research Institute (KOERI)" insttype="" lat="38.5936" lon="26.5537">
		<comp name=".HNE" depth="0.0">
			<acc value="0.430967748" flag="0"/>
			<vel value="0.144244" flag="0"/>
			<psa03 value="0.944642208332" flag="0"/>
			<psa10 value="0.204577475853" flag="0"/>
			<psa30 value="0.00852428520491" flag="0"/>
		</comp>
		<comp name=".HNN" depth="0.0">
			<acc value="0.497453388" flag="0"/>
			<vel value="0.275249" flag="0"/>
			<psa03 value="1.35304907034" flag="0"/>
			<psa10 value="0.22322558015" flag="0"/>
			<psa30 value="0.0120642885926" flag="0"/>
		</comp>
		<comp name=".HNZ" depth="0.0">
			<acc value="0.21369561" flag="0"/>
			<vel value="0.095579" flag="0"/>
			<psa03 value="0.497175399942" flag="0"/>
			<psa10 value="0.131998457965" flag="0"/>
			<psa30 value="0.00698157392072" flag="0"/>
		</comp>
	</station>
	<station code="KUSD" name="KUSD" netid="KO" source="Bogazici University Kandilli Observatory And Earthquake Research Institute (KOERI)" insttype="" lat="37.8606" lon="27.2868">
		<comp name=".HNE" depth="0.0">
			<acc value="0.172341444" flag="0"/>
			<vel value="0.084602" flag="0"/>
			<psa03 value="0.456236280887" flag="0"/>
			<psa10 value="0.0443390793366" flag="0"/>
			<psa30 value="0.00332926759447" flag="0"/>
		</comp>
		<comp name=".HNN" depth="0.0">
			<acc value="0.16946025" flag="0"/>
			<vel value="0.08316" flag="0"/>
			<psa03 value="0.546347085016" flag="0"/>
			<psa10 value="0.0684394689316" flag="0"/>
			<psa30 value="0.00367601969576" flag="0"/>
		</comp>
		<comp name=".HNZ" depth="0.0">
			<acc value="0.089105874" flag="0"/>
			<vel value="0.035736" flag="0"/>
			<psa03 value="0.229930199811" flag="0"/>
			<psa10 value="0.0259929849349" flag="0"/>
			<psa30 value="0.00181026967978" flag="0"/>
		</comp>
	</station>
	<station code="NAZL" name="NAZL" netid="KO" source="Bogazici University Kandilli Observatory And Earthquake Research Institute (KOERI)" insttype="" lat="37.9641" lon="28.2922">
		<comp name=".HNE" depth="0.0">
			<acc value="0.055069188" flag="0"/>
			<vel value="0.03013" flag="0"/>
			<psa03 value="0.232614732208" flag="0"/>
			<psa10 value="0.035323077281" flag="0"/>
			<psa30 value="0.00169438736463" flag="0"/>
		</comp>
		<comp name=".HNN" depth="0.0">
			<acc value="0.05580777" flag="0"/>
			<vel value="0.024326" flag="0"/>
			<psa03 value="0.141788052773" flag="0"/>
			<psa10 value="0.0196548039453" flag="0"/>
			<psa30 value="0.00178163466754" flag="0"/>
		</comp>
		<comp name=".HNZ" depth="0.0">
			<acc value="0.027372414" flag="0"/>
			<vel value="0.009995" flag="0"/>
			<psa03 value="0.0530195148427" flag="0"/>
			<psa10 value="0.011093830131" flag="0"/>
			<psa30 value="0.00102325426536" flag="0"/>
		</comp>
	</station>
	<station code="SOMA" name="SOMA" netid="KO" source="Bogazici University Kandilli Observatory And Earthquake Research Institute (KOERI)" insttype="" lat="39.1564" lon="27.5341">
		<comp name=".HNE" depth="0.0">
			<acc value="0.05664774" flag="0"/>
			<vel value="0.021835" flag="0"/>
			<psa03 value="0.12966291478" flag="0"/>
			<psa10 value="0.0361767585833" flag="0"/>
			<psa30 value="0.00187469845731" flag="0"/>
		</comp>
		<comp name=".HNN" depth="0.0">
			<acc value="0.05672832" flag="0"/>
			<vel value="0.022615" flag="0"/>
			<psa03 value="0.0895738976498" flag="0"/>
			<psa10 value="0.0248936689183" flag="0"/>
			<psa30 value="0.002095724958" flag="0"/>
		</comp>
		<comp name=".HNZ" depth="0.0">
			<acc value="0.037177572" flag="0"/>
			<vel value="0.016744" flag="0"/>
			<psa03 value="0.0621916671994" flag="0"/>
			<psa10 value="0.014061580696" flag="0"/>
			<psa30 value="0.00273151171405" flag="0"/>
		</comp>
	</station>
	<station code="YKAV" name="YKAV" netid="KO" source="Bogazici University Kandilli Observatory And Earthquake Research Institute (KOERI)" insttype="" lat="37.1246" lon="27.2801">
		<comp name=".HNE" depth="0.0">
			<acc value="0.01788111" flag="0"/>
			<vel value="0.015421" flag="0"/>
			<psa03 value="0.0425050962874" flag="0"/>
			<psa10 value="0.0178226105843" flag="0"/>
			<psa30 value="0.000941823449315" flag="0"/>
		</comp>
		<comp name=".HNN" depth="0.0">
			<acc value="0.013506942" flag="0"/>
			<vel value="0.007373" flag="0"/>
			<psa03 value="0.0241160493672" flag="0"/>
			<psa10 value="0.00718380869463" flag="0"/>
			<psa30 value="0.000818334959048" flag="0"/>
		</comp>
		<comp name=".HNZ" depth="0.0">
			<acc value="0.012121782" flag="0"/>
			<vel value="0.006064" flag="0"/>
			<psa03 value="0.0242502759871" flag="0"/>
			<psa10 value="0.00556503565918" flag="0"/>
			<psa30 value="0.000515430220242" flag="0"/>
		</comp>
	</station>
</stationlist>
