<?xml version="1.0" encoding="UTF-8" standalone="yes"?>
<!DOCTYPE earthquake SYSTEM "stationlist.dtd">
<stationlist created="" xmlns="ch.ethz.sed.shakemap.usgs.xml">
  <station code="KRL1" name="KRL1" netid="HI" insttype="CMG-5TD,ACCELEROMETER,GURALP" lat="37.7951" lon="26.7065">
    <comp name="--.HNZ">
      <acc value="0.2989659814" flag="0"/>
      <vel value="0.0892807500" flag="0"/>
      <psa03 value="0.3384610912" flag="0"/>
      <psa10 value="0.0486049570" flag="0"/>
      <psa30 value="0.0027341092" flag="0"/>
    </comp>
    <comp name="--.HNN">
      <acc value="0.4167760971" flag="0"/>
      <vel value="0.1368969756" flag="0"/>
      <psa03 value="0.7204646156" flag="0"/>
      <psa10 value="0.0625616775" flag="0"/>
      <psa30 value="0.0029118090" flag="0"/>
    </comp>
    <comp name="--.HNE">
      <acc value="1.0579419903" flag="0"/>
      <vel value="0.3134871608" flag="0"/>
      <psa03 value="1.1830529747" flag="0"/>
      <psa10 value="0.0937176301" flag="0"/>
      <psa30 value="0.0082506925" flag="0"/>
    </comp>
  </station>
  <station code="KUSD" name="KUSD" netid="KO" insttype="100" lat="37.86" lon="27.2815">
    <comp name="--.HNZ">
      <acc value="0.0142644729" flag="0"/>
      <vel value="0.0056509998" flag="0"/>
      <psa03 value="0.0363354794" flag="0"/>
      <psa10 value="0.0041365573" flag="0"/>
      <psa30 value="0.0003141465" flag="0"/>
    </comp>
    <comp name="--.HNN">
      <acc value="0.0271814233" flag="0"/>
      <vel value="0.0132545348" flag="0"/>
      <psa03 value="0.0859885180" flag="0"/>
      <psa10 value="0.0108957872" flag="0"/>
      <psa30 value="0.0006135439" flag="0"/>
    </comp>
    <comp name="--.HNE">
      <acc value="0.0270684149" flag="0"/>
      <vel value="0.0134896800" flag="0"/>
      <psa03 value="0.0720296280" flag="0"/>
      <psa10 value="0.0070340457" flag="0"/>
      <psa30 value="0.0005421041" flag="0"/>
    </comp>
  </station>
</stationlist>
