<stationlist created="1778135804">
	<station code="KRL1" name="KRL1" netid="HI" source="ITSAK Strong Motion Network" insttype="" lat="37.7951" lon="26.7065">
		<comp name="--.HNE" depth="0.0">
			<acc value="1.06307695597621" flag="0"/>
			<vel value="0.315995697674848" flag="0"/>
			<psa03 value="1.19752516013804" flag="0"/>
			<psa10 value="0.0940338008054894" flag="0"/>
			<psa30 value="0.008548445996487" flag="0"/>
		</comp>
		<comp name="--.HNN" depth="0.0">
			<acc value="0.414332066063323" flag="0"/>
			<vel value="0.140533816415142" flag="0"/>
			<psa03 value="0.715114688379837" flag="0"/>
			<psa10 value="0.0626892005369929" flag="0"/>
			<psa30 value="0.00301786183640243" flag="0"/>
		</comp>
		<comp name="--.HNZ" depth="0.0">
			<acc value="0.301631042420285" flag="0"/>
			<vel value="0.0896922888439108" flag="0"/>
			<psa03 value="0.343575404621709" flag="0"/>
			<psa10 value="0.0486759414241502" flag="0"/>
			<psa30 value="0.00296193407812959" flag="0"/>
		</comp>
	</station>
	<station code="MYT1" name="MYT1" netid="HI" source="ITSAK Strong Motion Network" insttype="" lat="39.085" lon="26.5694">
		<comp name="--.HNE" depth="0.0">
			<acc value="0.0201550112579038" flag="0"/>
			<vel value="0.0163954695911553" flag="0"/>
			<psa03 value="0.061838575668809" flag="0"/>
			<psa10 value="0.0208247751641662" flag="0"/>
			<psa30 value="0.000959718159951509" flag="0"/>
		</comp>
		<comp name="--.HNN" depth="0.0">
			<acc value="0.0210185110760234" flag="0"/>
			<vel value="0.0116337551555147" flag="0"/>
			<psa03 value="0.0573723110505029" flag="0"/>
			<psa10 value="0.0132255389395508" flag="0"/>
			<psa30 value="0.00109167377636353" flag="0"/>
		</comp>
		<comp name="--.HNZ" depth="0.0">
			<acc value="0.0166771456621692" flag="0"/>
			<vel value="0.0117685217046294" flag="0"/>
			<psa03 value="0.0349891772362725" flag="0"/>
			<psa10 value="0.0187442329634603" flag="0"/>
			<psa30 value="0.00120905967760406" flag="0"/>
		</comp>
	</station>
	<station code="KLNA" name="KLNA" netid="HL" source="National Observatory of Athens Seismic Network" insttype="" lat="36.95708" lon="26.97274">
		<comp name="00.HNE" depth="0.0">
			<acc value="0.0316887510875693" flag="0"/>
			<vel value="0.0105406054387138" flag="0"/>
			<psa03 value="0.0797306121937603" flag="0"/>
			<psa10 value="0.00774353369942429" flag="0"/>
			<psa30 value="0.00100893675924203" flag="0"/>
		</comp>
		<comp name="00.HNN" depth="0.0">
			<acc value="0.0308045259894319" flag="0"/>
			<vel value="0.0135041239937615" flag="0"/>
			<psa03 value="0.0895291554431618" flag="0"/>
			<psa10 value="0.00540396371535486" flag="0"/>
			<psa30 value="0.000697531001178857" flag="0"/>
		</comp>
		<comp name="00.HNZ" depth="0.0">
			<acc value="0.0347092281117296" flag="0"/>
			<vel value="0.0116006089290656" flag="0"/>
			<psa03 value="0.042639322907213" flag="0"/>
			<psa10 value="0.006648244481409" flag="0"/>
			<psa30 value="0.00090558226195382" flag="0"/>
		</comp>
	</station>
	<station code="AKS" name="AKS" netid="KO" source="Bogazici University Kandilli Observatory And Earthquake Research Institute (KOERI)" insttype="" lat="38.8785" lon="27.8129">
		<comp name="--.HNE" depth="0.0">
			<acc value="0.00861315840262687" flag="0"/>
			<vel value="0.00573713767944677" flag="0"/>
			<psa03 value="0.0242502759871033" flag="0"/>
			<psa10 value="0.00695025437608233" flag="0"/>
			<psa30 value="0.000578964153640436" flag="0"/>
		</comp>
		<comp name="--.HNN" depth="0.0">
			<acc value="0.01071659878328" flag="0"/>
			<vel value="0.00477473322140575" flag="0"/>
			<psa03 value="0.0208051260774964" flag="0"/>
			<psa10 value="0.0036684135206321" flag="0"/>
			<psa30 value="0.000732429922341108" flag="0"/>
		</comp>
		<comp name="--.HNZ" depth="0.0">
			<acc value="0.00556436155838101" flag="0"/>
			<vel value="0.00237358370955587" flag="0"/>
			<psa03 value="0.0103354497288208" flag="0"/>
			<psa10 value="0.00255299030963859" flag="0"/>
			<psa30 value="0.00043623651452815" flag="0"/>
		</comp>
	</station>
	<station code="DATC" name="DATC" netid="KO" source="Bogazici University Kandilli Observatory And Earthquake Research Institute (KOERI)" insttype="" lat="36.7584" lon="27.6602">
		<comp name="--.HNE" depth="0.0">
			<acc value="0.163143113959386" flag="0"/>
			<vel value="0.0327867873003829" flag="0"/>
			<psa03 value="0.103488723908063" flag="0"/>
			<psa10 value="0.0550141224136946" flag="0"/>
			<psa30 value="0.00379682365362654" flag="0"/>
		</comp>
		<comp name="--.HNN" depth="0.0">
			<acc value="0.178620215280098" flag="0"/>
			<vel value="0.0400616263688283" flag="0"/>
			<psa03 value="0.0978959480807786" flag="0"/>
			<psa10 value="0.0824044064612682" flag="0"/>
			<psa30 value="0.00478831095228744" flag="0"/>
		</comp>
		<comp name="--.HNZ" depth="0.0">
			<acc value="0.215091085779006" flag="0"/>
			<vel value="0.0340460561701497" flag="0"/>
			<psa03 value="0.0510061155448298" flag="0"/>
			<psa10 value="0.0458008072268601" flag="0"/>
			<psa30 value="0.00251495943401305" flag="0"/>
		</comp>
	</station>
	<station code="EZNE" name="EZNE" netid="KO" source="Bogazici University Kandilli Observatory And Earthquake Research Institute (KOERI)" insttype="" lat="39.756" lon="26.3655">
		<comp name="--.HNE" depth="0.0">
			<acc value="0.00158082040320567" flag="0"/>
			<vel value="0.00278517004695183" flag="0"/>
			<psa03 value="0.0833547309298403" flag="0"/>
			<psa10 value="0.0191434005236938" flag="0"/>
			<psa30 value="0.00242860697523979" flag="0"/>
		</comp>
		<comp name="--.HNN" depth="0.0">
			<acc value="0.00116703363775934" flag="0"/>
			<vel value="0.0020643488827269" flag="0"/>
			<psa03 value="0.10147532461024" flag="0"/>
			<psa10 value="0.0185111931441776" flag="0"/>
			<psa30 value="0.00269392826048614" flag="0"/>
		</comp>
		<comp name="--.HNZ" depth="0.0">
			<acc value="0.000746935548470119" flag="0"/>
			<vel value="0.00164740312833458" flag="0"/>
			<psa03 value="0.0497533337595182" flag="0"/>
			<psa10 value="0.00664019088421771" flag="0"/>
			<psa30 value="0.00166083070967025" flag="0"/>
		</comp>
	</station>
	<station code="GMLD" name="GMLD" netid="KO" source="Bogazici University Kandilli Observatory And Earthquake Research Institute (KOERI)" insttype="" lat="38.0766" lon="26.9157">
		<comp name="--.HNE" depth="0.0">
			<acc value="1.37039997211468" flag="0"/>
			<vel value="0.525632190559782" flag="0"/>
			<psa03 value="1.87264031580115" flag="0"/>
			<psa10 value="0.244281710006175" flag="0"/>
			<psa30 value="0.0157653639240142" flag="0"/>
		</comp>
		<comp name="--.HNN" depth="0.0">
			<acc value="1.60940017385932" flag="0"/>
			<vel value="0.541859167634326" flag="0"/>
			<psa03 value="2.37563220260376" flag="0"/>
			<psa10 value="0.235861674142683" flag="0"/>
			<psa30 value="0.0171080775446286" flag="0"/>
		</comp>
		<comp name="--.HNZ" depth="0.0">
			<acc value="0.662788312933471" flag="0"/>
			<vel value="0.233626735393188" flag="0"/>
			<psa03 value="1.20199938079987" flag="0"/>
			<psa10 value="0.101137073528206" flag="0"/>
			<psa30 value="0.0058146971721106" flag="0"/>
		</comp>
	</station>
	<station code="GOMA" name="GOMA" netid="KO" source="Bogazici University Kandilli Observatory And Earthquake Research Institute (KOERI)" insttype="" lat="38.7077" lon="27.9175">
		<comp name="--.HNE" depth="0.0">
			<acc value="0.00292813616294354" flag="0"/>
			<vel value="0.000320890889076285" flag="0"/>
			<psa03 value="0.0506034356852654" flag="0"/>
			<psa10 value="0.00486839950213415" flag="0"/>
			<psa30 value="0.000420576742211754" flag="0"/>
		</comp>
		<comp name="--.HNN" depth="0.0">
			<acc value="0.00107652856765766" flag="0"/>
			<vel value="0.000180900283836832" flag="0"/>
			<psa03 value="0.0567331179919686" flag="0"/>
			<psa10 value="0.00775158729661558" flag="0"/>
			<psa30 value="0.000442053001388525" flag="0"/>
		</comp>
		<comp name="--.HNZ" depth="0.0">
			<acc value="0.00191216301608022" flag="0"/>
			<vel value="0.000283001149017879" flag="0"/>
			<psa03 value="0.0202682195980771" flag="0"/>
			<psa10 value="0.00417981694227895" flag="0"/>
			<psa30 value="0.00035391085435053" flag="0"/>
		</comp>
	</station>
	<station code="GORD" name="GORD" netid="KO" source="Bogazici University Kandilli Observatory And Earthquake Research Institute (KOERI)" insttype="" lat="38.9088" lon="28.1769">
		<comp name="--.HNE" depth="0.0">
			<acc value="0.0139407796455218" flag="0"/>
			<vel value="0.0140392430932669" flag="0"/>
			<psa03 value="0.0655920749023864" flag="0"/>
			<psa10 value="0.0377874780215276" flag="0"/>
			<psa30 value="0.00259594282799213" flag="0"/>
		</comp>
		<comp name="--.HNN" depth="0.0">
			<acc value="0.0172557675129377" flag="0"/>
			<vel value="0.0188541156012827" flag="0"/>
			<psa03 value="0.0477846766683142" flag="0"/>
			<psa10 value="0.0318721108845259" flag="0"/>
			<psa30 value="0.00303531129698356" flag="0"/>
		</comp>
		<comp name="--.HNZ" depth="0.0">
			<acc value="0.0114127559196161" flag="0"/>
			<vel value="0.0160066344196687" flag="0"/>
			<psa03 value="0.044294784552089" flag="0"/>
			<psa10 value="0.0369176895248684" flag="0"/>
			<psa30 value="0.00235791428878292" flag="0"/>
		</comp>
	</station>
	<station code="KRBN" name="KRBN" netid="KO" source="Bogazici University Kandilli Observatory And Earthquake Research Institute (KOERI)" insttype="" lat="38.5936" lon="26.5537">
		<comp name="--.HNE" depth="0.0">
			<acc value="0.361924276340207" flag="0"/>
			<vel value="0.111708448064857" flag="0"/>
			<psa03 value="0.944642208331572" flag="0"/>
			<psa10 value="0.204577475853121" flag="0"/>
			<psa30 value="0.00852428520491313" flag="0"/>
		</comp>
		<comp name="--.HNN" depth="0.0">
			<acc value="0.361625730872744" flag="0"/>
			<vel value="0.126496087921506" flag="0"/>
			<psa03 value="1.35304907034316" flag="0"/>
			<psa10 value="0.22322558014955" flag="0"/>
			<psa30 value="0.0120642885925508" flag="0"/>
		</comp>
		<comp name="--.HNZ" depth="0.0">
			<acc value="0.208222134919943" flag="0"/>
			<vel value="0.06943673756999" flag="0"/>
			<psa03 value="0.497175399942236" flag="0"/>
			<psa10 value="0.131998457965225" flag="0"/>
			<psa30 value="0.00698157392071512" flag="0"/>
		</comp>
	</station>
	<station code="KUSD" name="KUSD" netid="KO" source="Bogazici University Kandilli Observatory And Earthquake Research Institute (KOERI)" insttype="" lat="37.8606" lon="27.2868">
		<comp name="--.HNE" depth="0.0">
			<acc value="0.173339628373577" flag="0"/>
			<vel value="0.084960738114605" flag="0"/>
			<psa03 value="0.456236280886517" flag="0"/>
			<psa10 value="0.0443390793366411" flag="0"/>
			<psa30 value="0.0033292675944656" flag="0"/>
		</comp>
		<comp name="--.HNN" depth="0.0">
			<acc value="0.170121416375797" flag="0"/>
			<vel value="0.0832487818615364" flag="0"/>
			<psa03 value="0.546347085015716" flag="0"/>
			<psa10 value="0.0684394689315732" flag="0"/>
			<psa30 value="0.00367601969575721" flag="0"/>
		</comp>
		<comp name="--.HNZ" depth="0.0">
			<acc value="0.0894925029738896" flag="0"/>
			<vel value="0.0359005675351672" flag="0"/>
			<psa03 value="0.229930199811299" flag="0"/>
			<psa10 value="0.025992984934885" flag="0"/>
			<psa30 value="0.00181026967977527" flag="0"/>
		</comp>
	</station>
	<station code="NAZL" name="NAZL" netid="KO" source="Bogazici University Kandilli Observatory And Earthquake Research Institute (KOERI)" insttype="" lat="37.9641" lon="28.2922">
		<comp name="--.HNE" depth="0.0">
			<acc value="0.0552993865035759" flag="0"/>
			<vel value="0.0301543970060257" flag="0"/>
			<psa03 value="0.232614732208395" flag="0"/>
			<psa10 value="0.0353230772809932" flag="0"/>
			<psa30 value="0.00169438736463395" flag="0"/>
		</comp>
		<comp name="--.HNN" depth="0.0">
			<acc value="0.0558421310100942" flag="0"/>
			<vel value="0.0244173481269696" flag="0"/>
			<psa03 value="0.141788052773303" flag="0"/>
			<psa10 value="0.0196548039453406" flag="0"/>
			<psa30 value="0.00178163466753958" flag="0"/>
		</comp>
		<comp name="--.HNZ" depth="0.0">
			<acc value="0.0274784276401244" flag="0"/>
			<vel value="0.00995002507670362" flag="0"/>
			<psa03 value="0.053019514842652" flag="0"/>
			<psa10 value="0.0110938301310005" flag="0"/>
			<psa30 value="0.00102325426535987" flag="0"/>
		</comp>
	</station>
	<station code="SOMA" name="SOMA" netid="KO" source="Bogazici University Kandilli Observatory And Earthquake Research Institute (KOERI)" insttype="" lat="39.1564" lon="27.5341">
		<comp name="--.HNE" depth="0.0">
			<acc value="0.0569126207883093" flag="0"/>
			<vel value="0.0217523927008577" flag="0"/>
			<psa03 value="0.129662914779752" flag="0"/>
			<psa10 value="0.0361767585832698" flag="0"/>
			<psa30 value="0.00187469845730559" flag="0"/>
		</comp>
		<comp name="--.HNN" depth="0.0">
			<acc value="0.0569827483713594" flag="0"/>
			<vel value="0.0227357172187423" flag="0"/>
			<psa03 value="0.08957389764978" flag="0"/>
			<psa10 value="0.024893668918274" flag="0"/>
			<psa30 value="0.00209572495799985" flag="0"/>
		</comp>
		<comp name="--.HNZ" depth="0.0">
			<acc value="0.0373934952733307" flag="0"/>
			<vel value="0.016394907098304" flag="0"/>
			<psa03 value="0.0621916671993977" flag="0"/>
			<psa10 value="0.0140615806959904" flag="0"/>
			<psa30 value="0.00273151171404549" flag="0"/>
		</comp>
	</station>
	<station code="YKAV" name="YKAV" netid="KO" source="Bogazici University Kandilli Observatory And Earthquake Research Institute (KOERI)" insttype="" lat="37.1246" lon="27.2801">
		<comp name="--.HNE" depth="0.0">
			<acc value="0.0179424154442877" flag="0"/>
			<vel value="0.0154146806356826" flag="0"/>
			<psa03 value="0.0425050962873582" flag="0"/>
			<psa10 value="0.0178226105843224" flag="0"/>
			<psa30 value="0.00094182344931462" flag="0"/>
		</comp>
		<comp name="--.HNN" depth="0.0">
			<acc value="0.0135820003697472" flag="0"/>
			<vel value="0.00741327017237561" flag="0"/>
			<psa03 value="0.0241160493672485" flag="0"/>
			<psa10 value="0.00718380869462971" flag="0"/>
			<psa30 value="0.00081833495904819" flag="0"/>
		</comp>
		<comp name="--.HNZ" depth="0.0">
			<acc value="0.0122373485491206" flag="0"/>
			<vel value="0.00601634638179289" flag="0"/>
			<psa03 value="0.0242502759871033" flag="0"/>
			<psa10 value="0.00556503565918064" flag="0"/>
			<psa30 value="0.000515430220242491" flag="0"/>
		</comp>
	</station>
</stationlist>
