<?xml version="1.0" encoding="UTF-8" standalone="yes"?>
<!DOCTYPE earthquake SYSTEM "stationlist.dtd">
<stationlist created="" xmlns="ch.ethz.sed.shakemap.usgs.xml">
  <station code="ARMT" name="ARMT" netid="KO" insttype="CMG-5T" commtype="DIG" lat="40.5683" lon="28.866">
    <comp name="--.HNN">
      <acc value="0.0529569592" flag="0"/>
      <vel value="0.0144947625" flag="0"/>
      <psa03 value="0.0869157543" flag="0"/>
      <psa10 value="0.0075715841" flag="0"/>
      <psa30 value="0.0003666329" flag="0"/>
    </comp>
    <comp name="--.HNE">
      <acc value="0.0384063346" flag="0"/>
      <vel value="0.0136190052" flag="0"/>
      <psa03 value="0.0834318815" flag="0"/>
      <psa10 value="0.0048475570" flag="0"/>
      <psa30 value="0.0004864636" flag="0"/>
    </comp>
    <comp name="--.HNZ">
      <acc value="0.0402384547" flag="0"/>
      <vel value="0.0069756398" flag="0"/>
      <psa03 value="0.0380851425" flag="0"/>
      <psa10 value="0.0041299584" flag="0"/>
      <psa30 value="0.0002705141" flag="0"/>
    </comp>
  </station>
  <station code="AVCI" name="AVCI" netid="KO" insttype="CMG-5T" commtype="DIG" lat="40.9958" lon="28.7225">
    <comp name="--.HNE">
      <acc value="0.1582996299" flag="0"/>
      <vel value="0.0462027396" flag="0"/>
      <psa03 value="0.2318228176" flag="0"/>
      <psa10 value="0.0232597313" flag="0"/>
      <psa30 value="0.0038601409" flag="0"/>
    </comp>
    <comp name="--.HNN">
      <acc value="0.0588407309" flag="0"/>
      <vel value="0.0282694514" flag="0"/>
      <psa03 value="0.1337515098" flag="0"/>
      <psa10 value="0.0227569372" flag="0"/>
      <psa30 value="0.0030376525" flag="0"/>
    </comp>
    <comp name="--.HNZ">
      <acc value="0.1401723645" flag="0"/>
      <vel value="0.0338110794" flag="0"/>
      <psa03 value="0.1423725057" flag="0"/>
      <psa10 value="0.0103765230" flag="0"/>
      <psa30 value="0.0026687526" flag="0"/>
    </comp>
  </station>
  <station code="BGKT" name="BGKT" netid="KO" insttype="CMG-3ESP" commtype="DIG" lat="41.181" lon="28.773">
    <comp name="--.HHE">
      <acc value="0.0852483743" flag="0"/>
      <vel value="0.0116114035" flag="0"/>
      <psa03 value="0.0534991261" flag="0"/>
      <psa10 value="0.0044624035" flag="0"/>
      <psa30 value="0.0005018062" flag="0"/>
    </comp>
    <comp name="--.HHN">
      <acc value="0.0519212105" flag="0"/>
      <vel value="0.0137036040" flag="0"/>
      <psa03 value="0.0482548309" flag="0"/>
      <psa10 value="0.0056704387" flag="0"/>
      <psa30 value="0.0006005329" flag="0"/>
    </comp>
    <comp name="--.HHZ">
      <acc value="0.0271604613" flag="0"/>
      <vel value="0.0059593174" flag="0"/>
      <psa03 value="0.0281404096" flag="0"/>
      <psa10 value="0.0048946646" flag="0"/>
      <psa30 value="0.0004590434" flag="0"/>
    </comp>
  </station>
  <station code="BIGA" name="BIGA" netid="KO" insttype="CMG-5T" commtype="DIG" lat="40.2813" lon="27.1505">
    <comp name="--.HNN">
      <acc value="0.0223265870" flag="0"/>
      <vel value="0.0075926254" flag="0"/>
      <psa03 value="0.0468331146" flag="0"/>
      <psa10 value="0.0059929779" flag="0"/>
      <psa30 value="0.0004089326" flag="0"/>
    </comp>
    <comp name="--.HNE">
      <acc value="0.0223622681" flag="0"/>
      <vel value="0.0110949557" flag="0"/>
      <psa03 value="0.0564259173" flag="0"/>
      <psa10 value="0.0043406874" flag="0"/>
      <psa30 value="0.0002829171" flag="0"/>
    </comp>
    <comp name="--.HNZ">
      <acc value="0.0127870169" flag="0"/>
      <vel value="0.0036536278" flag="0"/>
      <psa03 value="0.0130778080" flag="0"/>
      <psa10 value="0.0020983919" flag="0"/>
      <psa30 value="0.0002982623" flag="0"/>
    </comp>
  </station>
  <station code="BOTS" name="BOTS" netid="KO" insttype="CMG-5T" commtype="DIG" lat="40.9902" lon="27.981">
    <comp name="--.HNZ">
      <acc value="0.0540603161" flag="0"/>
      <vel value="0.0105241155" flag="0"/>
      <psa03 value="0.0482771466" flag="0"/>
      <psa10 value="0.0077281234" flag="0"/>
      <psa30 value="0.0010283455" flag="0"/>
    </comp>
    <comp name="--.HNE">
      <acc value="0.0942137443" flag="0"/>
      <vel value="0.0243158182" flag="0"/>
      <psa03 value="0.1414236049" flag="0"/>
      <psa10 value="0.0278785893" flag="0"/>
      <psa30 value="0.0021576706" flag="0"/>
    </comp>
    <comp name="--.HNN">
      <acc value="0.1240949148" flag="0"/>
      <vel value="0.0456176106" flag="0"/>
      <psa03 value="0.0888240908" flag="0"/>
      <psa10 value="0.0233581204" flag="0"/>
      <psa30 value="0.0019153320" flag="0"/>
    </comp>
  </station>
  <station code="BRGA" name="BRGA" netid="KO" insttype="CMG-5T" commtype="DIG" lat="40.8846" lon="29.065">
    <comp name="--.HNE">
      <acc value="0.0318019077" flag="0"/>
      <vel value="0.0093819591" flag="0"/>
      <psa03 value="0.0452692313" flag="0"/>
      <psa10 value="0.0036940402" flag="0"/>
      <psa30 value="0.0004276263" flag="0"/>
    </comp>
    <comp name="--.HNZ">
      <acc value="0.0332976572" flag="0"/>
      <vel value="0.0086436213" flag="0"/>
      <psa03 value="0.0270601666" flag="0"/>
      <psa10 value="0.0022241831" flag="0"/>
      <psa30 value="0.0003619640" flag="0"/>
    </comp>
    <comp name="--.HNN">
      <acc value="0.0469288695" flag="0"/>
      <vel value="0.0120614007" flag="0"/>
      <psa03 value="0.0552096640" flag="0"/>
      <psa10 value="0.0044950709" flag="0"/>
      <psa30 value="0.0005385806" flag="0"/>
    </comp>
  </station>
  <station code="BUYA" name="BUYA" netid="KO" insttype="CMG-5T" commtype="DIG" lat="40.8694" lon="29.1278">
    <comp name="--.HNE">
      <acc value="0.0398133427" flag="0"/>
      <vel value="0.0116325939" flag="0"/>
      <psa03 value="0.0551799512" flag="0"/>
      <psa10 value="0.0050261749" flag="0"/>
      <psa30 value="0.0004626279" flag="0"/>
    </comp>
    <comp name="--.HNN">
      <acc value="0.0480637905" flag="0"/>
      <vel value="0.0117362889" flag="0"/>
      <psa03 value="0.0509862635" flag="0"/>
      <psa10 value="0.0034403998" flag="0"/>
      <psa30 value="0.0004513909" flag="0"/>
    </comp>
  </station>
  <station code="CRLU" name="CRLU" netid="KO" insttype="ACEBOX" commtype="DIG" lat="41.1428" lon="27.8215">
    <comp name="--.HNN">
      <acc value="0.3057334089" flag="0"/>
      <vel value="0.1679166792" flag="0"/>
      <psa03 value="0.5863285250" flag="0"/>
      <psa10 value="0.1555557924" flag="0"/>
      <psa30 value="0.0242716964" flag="0"/>
    </comp>
    <comp name="--.HNE">
      <acc value="0.5064751343" flag="0"/>
      <vel value="0.1681528339" flag="0"/>
      <psa03 value="0.7037255908" flag="0"/>
      <psa10 value="0.2421972220" flag="0"/>
      <psa30 value="0.0218339088" flag="0"/>
    </comp>
    <comp name="--.HNZ">
      <acc value="0.6657677103" flag="0"/>
      <vel value="0.1276074263" flag="0"/>
      <psa03 value="0.4140197448" flag="0"/>
      <psa10 value="0.1227552935" flag="0"/>
      <psa30 value="0.0092467347" flag="0"/>
    </comp>
  </station>
  <station code="CTYL" name="CTYL" netid="KO" insttype="CMG-3T" commtype="DIG" lat="41.476" lon="28.2897">
    <comp name="--.HHE">
      <acc value="0.0777384796" flag="0"/>
      <vel value="0.0196363095" flag="0"/>
      <psa03 value="0.0507565875" flag="0"/>
      <psa10 value="0.0078271653" flag="0"/>
      <psa30 value="0.0007537774" flag="0"/>
    </comp>
    <comp name="--.HHZ">
      <acc value="0.0587657040" flag="0"/>
      <vel value="0.0140633363" flag="0"/>
      <psa03 value="0.0463534718" flag="0"/>
      <psa10 value="0.0078860499" flag="0"/>
      <psa30 value="0.0003603720" flag="0"/>
    </comp>
    <comp name="--.HHN">
      <acc value="0.0947492558" flag="0"/>
      <vel value="0.0257792239" flag="0"/>
      <psa03 value="0.0721615769" flag="0"/>
      <psa10 value="0.0088384419" flag="0"/>
      <psa30 value="0.0004934857" flag="0"/>
    </comp>
  </station>
  <station code="EDC" name="EDC" netid="KO" insttype="CMG-5T" commtype="DIG" lat="40.3465" lon="27.8618">
    <comp name="--.HNE">
      <acc value="0.0215721798" flag="0"/>
      <vel value="0.0067551934" flag="0"/>
      <psa03 value="0.0297802155" flag="0"/>
      <psa10 value="0.0025031236" flag="0"/>
      <psa30 value="0.0002915587" flag="0"/>
    </comp>
    <comp name="--.HNZ">
      <acc value="0.0153491452" flag="0"/>
      <vel value="0.0035945122" flag="0"/>
      <psa03 value="0.0179968331" flag="0"/>
      <psa10 value="0.0025096988" flag="0"/>
      <psa30 value="0.0001971051" flag="0"/>
    </comp>
    <comp name="--.HNN">
      <acc value="0.0339005473" flag="0"/>
      <vel value="0.0076333782" flag="0"/>
      <psa03 value="0.0519482958" flag="0"/>
      <psa10 value="0.0037510403" flag="0"/>
      <psa30 value="0.0002972065" flag="0"/>
    </comp>
  </station>
  <station code="GAZK" name="GAZK" netid="KO" insttype="CMG-6T" commtype="DIG" lat="40.7479" lon="27.3275">
    <comp name="--.HHE">
      <acc value="0.0205604547" flag="0"/>
      <vel value="0.0070712758" flag="0"/>
      <psa03 value="0.0446020558" flag="0"/>
      <psa10 value="0.0061331383" flag="0"/>
      <psa30 value="0.0007467194" flag="0"/>
    </comp>
    <comp name="--.HHN">
      <acc value="0.0260415064" flag="0"/>
      <vel value="0.0135293962" flag="0"/>
      <psa03 value="0.0771011711" flag="0"/>
      <psa10 value="0.0066261918" flag="0"/>
      <psa30 value="0.0004996143" flag="0"/>
    </comp>
    <comp name="--.HHZ">
      <acc value="0.0162071535" flag="0"/>
      <vel value="0.0064774759" flag="0"/>
      <psa03 value="0.0377708356" flag="0"/>
      <psa10 value="0.0050171845" flag="0"/>
      <psa30 value="0.0003494558" flag="0"/>
    </comp>
  </station>
  <station code="GEML" name="GEML" netid="KO" insttype="CMG-3T" commtype="DIG" lat="40.4646" lon="29.2116">
    <comp name="--.HHZ">
      <acc value="0.0473662984" flag="0"/>
      <vel value="0.0125475652" flag="0"/>
      <psa03 value="0.0522651370" flag="0"/>
      <psa10 value="0.0034038843" flag="0"/>
      <psa30 value="0.0002558718" flag="0"/>
    </comp>
    <comp name="--.HHN">
      <acc value="0.0699860937" flag="0"/>
      <vel value="0.0205742358" flag="0"/>
      <psa03 value="0.1161418526" flag="0"/>
      <psa10 value="0.0061158722" flag="0"/>
      <psa30 value="0.0005248715" flag="0"/>
    </comp>
    <comp name="--.HHE">
      <acc value="0.0746701666" flag="0"/>
      <vel value="0.0247534226" flag="0"/>
      <psa03 value="0.0933351032" flag="0"/>
      <psa10 value="0.0088453593" flag="0"/>
      <psa30 value="0.0007927417" flag="0"/>
    </comp>
  </station>
  <station code="GONE" name="GONE" netid="KO" insttype="CMG-5T" commtype="DIG" lat="40.0466" lon="27.686">
    <comp name="--.HNE">
      <acc value="0.0112300364" flag="0"/>
      <vel value="0.0056515453" flag="0"/>
      <psa03 value="0.0253874043" flag="0"/>
      <psa10 value="0.0059936493" flag="0"/>
      <psa30 value="0.0002628352" flag="0"/>
    </comp>
    <comp name="--.HNZ">
      <acc value="0.0074278812" flag="0"/>
      <vel value="0.0027764157" flag="0"/>
      <psa03 value="0.0109010988" flag="0"/>
      <psa10 value="0.0026998268" flag="0"/>
      <psa30 value="0.0001608564" flag="0"/>
    </comp>
    <comp name="--.HNN">
      <acc value="0.0136865145" flag="0"/>
      <vel value="0.0058386034" flag="0"/>
      <psa03 value="0.0289664403" flag="0"/>
      <psa10 value="0.0048572481" flag="0"/>
      <psa30 value="0.0003527220" flag="0"/>
    </comp>
  </station>
  <station code="HRTX" name="HRTX" netid="KO" insttype="CMG-3ESP" commtype="DIG" lat="40.8009" lon="29.6729">
    <comp name="--.HHZ">
      <acc value="0.0117141655" flag="0"/>
      <vel value="0.0030453176" flag="0"/>
      <psa03 value="0.0184334094" flag="0"/>
      <psa10 value="0.0033575879" flag="0"/>
      <psa30 value="0.0002066012" flag="0"/>
    </comp>
  </station>
  <station code="ISK" name="ISK" netid="KO" insttype="CMG-3T" commtype="DIG" lat="41.0615" lon="29.0592">
    <comp name="--.HHN">
      <acc value="0.0315129529" flag="0"/>
      <vel value="0.0064084217" flag="0"/>
      <psa03 value="0.0157449131" flag="0"/>
      <psa10 value="0.0025924467" flag="0"/>
      <psa30 value="0.0003269016" flag="0"/>
    </comp>
    <comp name="--.HHE">
      <acc value="0.0350644324" flag="0"/>
      <vel value="0.0058497775" flag="0"/>
      <psa03 value="0.0164435014" flag="0"/>
      <psa10 value="0.0014465356" flag="0"/>
      <psa30 value="0.0002844368" flag="0"/>
    </comp>
    <comp name="--.HHZ">
      <acc value="0.0229856851" flag="0"/>
      <vel value="0.0062694873" flag="0"/>
      <psa03 value="0.0217566251" flag="0"/>
      <psa10 value="0.0027838470" flag="0"/>
      <psa30 value="0.0001831533" flag="0"/>
    </comp>
  </station>
  <station code="IZI" name="IZI" netid="KO" insttype="CMG-5T" commtype="DIG" lat="40.3483" lon="29.4612">
    <comp name="--.HNE">
      <acc value="0.0190606894" flag="0"/>
      <vel value="0.0093996302" flag="0"/>
      <psa03 value="0.0583594946" flag="0"/>
      <psa10 value="0.0041053150" flag="0"/>
      <psa30 value="0.0004845252" flag="0"/>
    </comp>
    <comp name="--.HNN">
      <acc value="0.0151000512" flag="0"/>
      <vel value="0.0085743258" flag="0"/>
      <psa03 value="0.0429845815" flag="0"/>
      <psa10 value="0.0061627436" flag="0"/>
      <psa30 value="0.0004732838" flag="0"/>
    </comp>
    <comp name="--.HNZ">
      <acc value="0.0097286484" flag="0"/>
      <vel value="0.0041658847" flag="0"/>
      <psa03 value="0.0261634464" flag="0"/>
      <psa10 value="0.0032360276" flag="0"/>
      <psa30 value="0.0004102299" flag="0"/>
    </comp>
  </station>
  <station code="KAVV" name="KAVV" netid="KO" insttype="CMG-3ESPC" commtype="DIG" lat="41.0638" lon="29.06">
    <comp name="--.HHZ">
      <acc value="0.0354557916" flag="0"/>
      <vel value="0.0086511620" flag="0"/>
      <psa03 value="0.0284766295" flag="0"/>
      <psa10 value="0.0032775844" flag="0"/>
      <psa30 value="0.0002383204" flag="0"/>
    </comp>
    <comp name="--.HHN">
      <acc value="0.0608698990" flag="0"/>
      <vel value="0.0141116564" flag="0"/>
      <psa03 value="0.0544241993" flag="0"/>
      <psa10 value="0.0032051357" flag="0"/>
      <psa30 value="0.0003436628" flag="0"/>
    </comp>
    <comp name="--.HHE">
      <acc value="0.0733607691" flag="0"/>
      <vel value="0.0189656242" flag="0"/>
      <psa03 value="0.0564332022" flag="0"/>
      <psa10 value="0.0029488749" flag="0"/>
      <psa30 value="0.0003324045" flag="0"/>
    </comp>
  </station>
  <station code="KCTX" name="KCTX" netid="KO" insttype="CMG-3ESP" commtype="DIG" lat="40.2626" lon="28.3353">
    <comp name="--.HHN">
      <acc value="0.0263435432" flag="0"/>
      <vel value="0.0077335279" flag="0"/>
      <psa03 value="0.0454067962" flag="0"/>
      <psa10 value="0.0031200028" flag="0"/>
      <psa30 value="0.0003734334" flag="0"/>
    </comp>
    <comp name="--.HHZ">
      <acc value="0.0302195962" flag="0"/>
      <vel value="0.0068836028" flag="0"/>
      <psa03 value="0.0461886517" flag="0"/>
      <psa10 value="0.0061943662" flag="0"/>
      <psa30 value="0.0003967118" flag="0"/>
    </comp>
    <comp name="--.HHE">
      <acc value="0.0190662359" flag="0"/>
      <vel value="0.0057411607" flag="0"/>
      <psa03 value="0.0327979725" flag="0"/>
      <psa10 value="0.0062399020" flag="0"/>
      <psa30 value="0.0002745083" flag="0"/>
    </comp>
  </station>
  <station code="KLYT" name="KLYT" netid="KO" insttype="CMG-3T" commtype="DIG" lat="41.253" lon="29.042">
    <comp name="--.HHN">
      <acc value="0.0633448501" flag="0"/>
      <vel value="0.0151638772" flag="0"/>
      <psa03 value="0.0575350464" flag="0"/>
      <psa10 value="0.0068057830" flag="0"/>
      <psa30 value="0.0004987353" flag="0"/>
    </comp>
  </station>
  <station code="KOUK" name="KOUK" netid="KO" insttype="CMG-5T" commtype="DIG" lat="40.6572" lon="29.1918">
    <comp name="--.HNZ">
      <acc value="0.0188579301" flag="0"/>
      <vel value="0.0093076245" flag="0"/>
      <psa03 value="0.1007224388" flag="0"/>
      <psa10 value="0.0084565399" flag="0"/>
      <psa30 value="0.0005892603" flag="0"/>
    </comp>
    <comp name="--.HNN">
      <acc value="0.0296705316" flag="0"/>
      <vel value="0.0215573956" flag="0"/>
      <psa03 value="0.0729780271" flag="0"/>
      <psa10 value="0.0262799268" flag="0"/>
      <psa30 value="0.0011959298" flag="0"/>
    </comp>
    <comp name="--.HNE">
      <acc value="0.0313096236" flag="0"/>
      <vel value="0.0158814294" flag="0"/>
      <psa03 value="0.1097912764" flag="0"/>
      <psa10 value="0.0164079921" flag="0"/>
      <psa30 value="0.0010504838" flag="0"/>
    </comp>
  </station>
  <station code="KRBG" name="KRBG" netid="KO" insttype="CMG-3ESP" commtype="DIG" lat="40.3932" lon="27.2977">
    <comp name="--.HHN">
      <acc value="0.0180917116" flag="0"/>
      <vel value="0.0074215571" flag="0"/>
      <psa03 value="0.0360156331" flag="0"/>
      <psa10 value="0.0049843707" flag="0"/>
      <psa30 value="0.0003009632" flag="0"/>
    </comp>
  </station>
  <station code="KRTL" name="KRTL" netid="KO" insttype="CMG-5T" commtype="DIG" lat="40.9089" lon="29.1987">
    <comp name="--.HNN">
      <acc value="0.0291144420" flag="0"/>
      <vel value="0.0070085959" flag="0"/>
      <psa03 value="0.0170010383" flag="0"/>
      <psa10 value="0.0025184304" flag="0"/>
      <psa30 value="0.0004175078" flag="0"/>
    </comp>
    <comp name="--.HNE">
      <acc value="0.0256491273" flag="0"/>
      <vel value="0.0049254785" flag="0"/>
      <psa03 value="0.0183038433" flag="0"/>
      <psa10 value="0.0017230689" flag="0"/>
      <psa30 value="0.0003522101" flag="0"/>
    </comp>
    <comp name="--.HNZ">
      <acc value="0.0183980297" flag="0"/>
      <vel value="0.0032796148" flag="0"/>
      <psa03 value="0.0109354278" flag="0"/>
      <psa10 value="0.0009225643" flag="0"/>
      <psa30 value="0.0005320883" flag="0"/>
    </comp>
  </station>
  <station code="MAEG" name="MAEG" netid="KO" insttype="CMG-5T" commtype="DIG" lat="40.9653" lon="27.9448">
    <comp name="--.HNE">
      <acc value="0.1420511475" flag="0"/>
      <vel value="0.0345958820" flag="0"/>
      <psa03 value="0.0858176478" flag="0"/>
      <psa10 value="0.0267272035" flag="0"/>
      <psa30 value="0.0021734741" flag="0"/>
    </comp>
    <comp name="--.HNZ">
      <acc value="0.0550909777" flag="0"/>
      <vel value="0.0118886554" flag="0"/>
      <psa03 value="0.0360340022" flag="0"/>
      <psa10 value="0.0076811209" flag="0"/>
      <psa30 value="0.0009910390" flag="0"/>
    </comp>
    <comp name="--.HNN">
      <acc value="0.1260363446" flag="0"/>
      <vel value="0.0381011518" flag="0"/>
      <psa03 value="0.1202126666" flag="0"/>
      <psa10 value="0.0165146038" flag="0"/>
      <psa30 value="0.0015248412" flag="0"/>
    </comp>
  </station>
  <station code="MDNY" name="MDNY" netid="KO" insttype="CMG-5T" commtype="DIG" lat="40.3709" lon="28.8846">
    <comp name="--.HNZ">
      <acc value="0.0478273697" flag="0"/>
      <vel value="0.0100049105" flag="0"/>
      <psa03 value="0.0388680123" flag="0"/>
      <psa10 value="0.0024786918" flag="0"/>
      <psa30 value="0.0001858105" flag="0"/>
    </comp>
    <comp name="--.HNN">
      <acc value="0.0678851444" flag="0"/>
      <vel value="0.0170070482" flag="0"/>
      <psa03 value="0.1589537218" flag="0"/>
      <psa10 value="0.0062160115" flag="0"/>
      <psa30 value="0.0003893472" flag="0"/>
    </comp>
    <comp name="--.HNE">
      <acc value="0.0745838547" flag="0"/>
      <vel value="0.0209044177" flag="0"/>
      <psa03 value="0.1095364908" flag="0"/>
      <psa10 value="0.0064816742" flag="0"/>
      <psa30 value="0.0004496212" flag="0"/>
    </comp>
  </station>
  <station code="ORLT" name="ORLT" netid="KO" insttype="CMG-5T" commtype="DIG" lat="40.0452" lon="28.8914">
    <comp name="--.HNZ">
