<?xml version="1.0" encoding="UTF-8" standalone="yes"?>
<!DOCTYPE earthquake SYSTEM "stationlist.dtd">
<stationlist created="" xmlns="ch.ethz.sed.shakemap.usgs.xml">
  <station code="IMOD" name="IMOD" netid="HC" insttype="120" lat="34.9731" lon="24.7995">
    <comp name="--.HHE">
      <acc value="0.1294780625" flag="0"/>
      <vel value="0.0745839240" flag="0"/>
      <psa03 value="0.5211401666" flag="0"/>
      <psa10 value="0.0443239278" flag="0"/>
      <psa30 value="0.0021206245" flag="0"/>
    </comp>
    <comp name="--.HHN">
      <acc value="0.1242354736" flag="0"/>
      <vel value="0.0809723621" flag="0"/>
      <psa03 value="0.2772483628" flag="0"/>
      <psa10 value="0.0506819124" flag="0"/>
      <psa30 value="0.0035599852" flag="0"/>
    </comp>
    <comp name="--.HHZ">
      <acc value="0.0882574099" flag="0"/>
      <vel value="0.0316255457" flag="0"/>
      <psa03 value="0.1932634700" flag="0"/>
      <psa10 value="0.0277626950" flag="0"/>
      <psa30 value="0.0013600844" flag="0"/>
    </comp>
  </station>
  <station code="KNSS" name="KNSS" netid="HC" insttype="60" lat="35.3042" lon="25.1802">
    <comp name="--.HHE">
      <acc value="0.6856384155" flag="0"/>
      <vel value="0.1690959909" flag="0"/>
      <psa03 value="0.7843845323" flag="0"/>
      <psa10 value="0.0795599172" flag="0"/>
      <psa30 value="0.0062409683" flag="0"/>
    </comp>
    <comp name="--.HHN">
      <acc value="0.0000000000" flag="0"/>
      <vel value="-100.0000000000" flag="0"/>
      <psa03 value="0.0000000000" flag="0"/>
      <psa10 value="0.0000000000" flag="0"/>
      <psa30 value="0.0000000000" flag="0"/>
    </comp>
    <comp name="--.HHZ">
      <acc value="0.4896071183" flag="0"/>
      <vel value="0.1038592351" flag="0"/>
      <psa03 value="0.4452300634" flag="0"/>
      <psa10 value="0.0361127028" flag="0"/>
      <psa30 value="0.0042148034" flag="0"/>
    </comp>
  </station>
  <station code="PFKS" name="PFKS" netid="HC" insttype="120" lat="35.0429" lon="25.4733">
    <comp name="--.HHN">
      <acc value="0.4767192492" flag="0"/>
      <vel value="0.1380542386" flag="0"/>
      <psa03 value="0.5317056540" flag="0"/>
      <psa10 value="0.0435061402" flag="0"/>
      <psa30 value="0.0046740446" flag="0"/>
    </comp>
    <comp name="--.HHZ">
      <acc value="0.2775649897" flag="0"/>
      <vel value="0.0546121350" flag="0"/>
      <psa03 value="0.2333128366" flag="0"/>
      <psa10 value="0.0178861461" flag="0"/>
      <psa30 value="0.0018040724" flag="0"/>
    </comp>
    <comp name="--.HHE">
      <acc value="0.5480770376" flag="0"/>
      <vel value="0.1236962726" flag="0"/>
      <psa03 value="0.6111822221" flag="0"/>
      <psa10 value="0.0305086723" flag="0"/>
      <psa30 value="0.0033540432" flag="0"/>
    </comp>
  </station>
  <station code="IACM" name="IACM" netid="HL" insttype="120" lat="35.3058" lon="25.0709">
    <comp name="--.HHN">
      <acc value="0.6962542811" flag="0"/>
      <vel value="0.3660495237" flag="0"/>
      <psa03 value="2.0547734254" flag="0"/>
      <psa10 value="0.4409612909" flag="0"/>
      <psa30 value="0.0292484447" flag="0"/>
    </comp>
    <comp name="--.HHE">
      <acc value="0.9438771939" flag="0"/>
      <vel value="0.3522701609" flag="0"/>
      <psa03 value="1.9892922561" flag="0"/>
      <psa10 value="0.3740787395" flag="0"/>
      <psa30 value="0.0169995917" flag="0"/>
    </comp>
    <comp name="--.HHZ">
      <acc value="0.6600374113" flag="0"/>
      <vel value="0.1734230896" flag="0"/>
      <psa03 value="0.8351818989" flag="0"/>
      <psa10 value="0.1434653022" flag="0"/>
      <psa30 value="0.0063615538" flag="0"/>
    </comp>
  </station>
  <station code="IDI" name="IDI" netid="HL" insttype="120" lat="35.288" lon="24.89">
    <comp name="--.HHE">
      <acc value="0.2924819578" flag="0"/>
      <vel value="0.0459375842" flag="0"/>
      <psa03 value="0.1424648787" flag="0"/>
      <psa10 value="0.0306165183" flag="0"/>
      <psa30 value="0.0026754167" flag="0"/>
    </comp>
    <comp name="--.HHZ">
      <acc value="0.1644936740" flag="0"/>
      <vel value="0.0333131120" flag="0"/>
      <psa03 value="0.1552283497" flag="0"/>
      <psa10 value="0.0261381700" flag="0"/>
      <psa30 value="0.0018788048" flag="0"/>
    </comp>
    <comp name="--.HHN">
      <acc value="0.2934722576" flag="0"/>
      <vel value="0.0566068020" flag="0"/>
      <psa03 value="0.1586987318" flag="0"/>
      <psa10 value="0.0258597800" flag="0"/>
      <psa30 value="0.0016673427" flag="0"/>
    </comp>
  </station>
  <station code="NPS" name="NPS" netid="HL" insttype="CMG3ESPC-120s" lat="35.2613" lon="25.6104">
    <comp name="--.HHE">
      <acc value="0.0556434234" flag="0"/>
      <vel value="0.0163190777" flag="0"/>
      <psa03 value="0.1090774299" flag="0"/>
      <psa10 value="0.0078259014" flag="0"/>
      <psa30 value="0.0005512365" flag="0"/>
    </comp>
    <comp name="--.HHN">
      <acc value="0.1415478127" flag="0"/>
      <vel value="0.0349572128" flag="0"/>
      <psa03 value="0.2135945212" flag="0"/>
      <psa10 value="0.0174474879" flag="0"/>
      <psa30 value="0.0016572051" flag="0"/>
    </comp>
    <comp name="--.HHZ">
      <acc value="0.1108133219" flag="0"/>
      <vel value="0.0264468307" flag="0"/>
      <psa03 value="0.0850755459" flag="0"/>
      <psa10 value="0.0087997215" flag="0"/>
      <psa30 value="0.0011398885" flag="0"/>
    </comp>
  </station>
  <station code="SIVA" name="SIVA" netid="HL" insttype="60" lat="35.0178" lon="24.812">
    <comp name="--.HHZ">
      <acc value="0.1874012171" flag="0"/>
      <vel value="0.0645698342" flag="0"/>
      <psa03 value="0.4279129845" flag="0"/>
      <psa10 value="0.0214735065" flag="0"/>
      <psa30 value="0.0019921456" flag="0"/>
    </comp>
    <comp name="--.HHE">
      <acc value="0.4252524268" flag="0"/>
      <vel value="0.2024527290" flag="0"/>
      <psa03 value="0.8499373540" flag="0"/>
      <psa10 value="0.0761058003" flag="0"/>
      <psa30 value="0.0048471123" flag="0"/>
    </comp>
    <comp name="--.HHN">
      <acc value="0.3136350863" flag="0"/>
      <vel value="0.1542727493" flag="0"/>
      <psa03 value="0.7744983399" flag="0"/>
      <psa10 value="0.0662571079" flag="0"/>
      <psa30 value="0.0044615871" flag="0"/>
    </comp>
  </station>
  <station code="IDI" name="IDI" netid="MN" insttype="" lat="35.288" lon="24.89">
    <comp name="--.HHE">
      <acc value="0.2985143645" flag="0"/>
      <vel value="0.0491814567" flag="0"/>
      <psa03 value="0.1436414695" flag="0"/>
      <psa10 value="0.0304493586" flag="0"/>
      <psa30 value="0.0026645976" flag="0"/>
    </comp>
    <comp name="--.HHN">
      <acc value="0.3367003990" flag="0"/>
      <vel value="0.0591941181" flag="0"/>
      <psa03 value="0.1606816850" flag="0"/>
      <psa10 value="0.0258286752" flag="0"/>
      <psa30 value="0.0016793821" flag="0"/>
    </comp>
    <comp name="--.HHZ">
      <acc value="0.1846828787" flag="0"/>
      <vel value="0.0356265768" flag="0"/>
      <psa03 value="0.1563561556" flag="0"/>
      <psa10 value="0.0260539189" flag="0"/>
      <psa30 value="0.0018705842" flag="0"/>
    </comp>
  </station>
</stationlist>
