<stationlist created="1778138449">
	<station code="ABEA" name="ABEA" netid="HC" source="Seismological Network of Crete (HC)" insttype="" lat="35.5163" lon="24.0113">
		<comp name="--.HNE" depth="0.0">
			<acc value="0.0264967063986717" flag="0"/>
			<vel value="0.0168036953707534" flag="0"/>
			<psa03 value="0.08301657235724" flag="0"/>
			<psa10 value="0.0167046566015248" flag="0"/>
			<psa30 value="0.00188572908696238" flag="0"/>
		</comp>
		<comp name="--.HNN" depth="0.0">
			<acc value="0.0292331587952509" flag="0"/>
			<vel value="0.0145477646991093" flag="0"/>
			<psa03 value="0.0932290509669315" flag="0"/>
			<psa10 value="0.0149256174988892" flag="0"/>
			<psa30 value="0.00193216445474485" flag="0"/>
		</comp>
		<comp name="--.HNZ" depth="0.0">
			<acc value="0.0200632265209124" flag="0"/>
			<vel value="0.00797847203326046" flag="0"/>
			<psa03 value="0.0242121377894653" flag="0"/>
			<psa10 value="0.018798530935408" flag="0"/>
			<psa30 value="0.00118409698227964" flag="0"/>
		</comp>
	</station>
	<station code="ATEI" name="ATEI" netid="HC" source="Seismological Network of Crete (HC)" insttype="" lat="35.5193" lon="24.0432">
		<comp name="--.HNE" depth="0.0">
			<acc value="0.0155972409268753" flag="0"/>
			<vel value="0.010194928559969" flag="0"/>
			<psa03 value="0.0447417139189717" flag="0"/>
			<psa10 value="0.0121872470327946" flag="0"/>
			<psa30 value="0.00152846291983172" flag="0"/>
		</comp>
		<comp name="--.HNN" depth="0.0">
			<acc value="0.0169593129393469" flag="0"/>
			<vel value="0.00979211683934349" flag="0"/>
			<psa03 value="0.0398537260512659" flag="0"/>
			<psa10 value="0.0111297304150284" flag="0"/>
			<psa30 value="0.00189327646194219" flag="0"/>
		</comp>
		<comp name="--.HNZ" depth="0.0">
			<acc value="0.0152001329822028" flag="0"/>
			<vel value="0.00656939968994658" flag="0"/>
			<psa03 value="0.0424877442920366" flag="0"/>
			<psa10 value="0.00678291964763454" flag="0"/>
			<psa30 value="0.00105081440296233" flag="0"/>
		</comp>
	</station>
	<station code="DEYA" name="DEYA" netid="HC" source="Seismological Network of Crete (HC)" insttype="" lat="35.4825" lon="24.014">
		<comp name="--.HNE" depth="0.0">
			<acc value="0.0397568412862206" flag="0"/>
			<vel value="0.0220727917287751" flag="0"/>
			<psa03 value="0.0963992193086199" flag="0"/>
			<psa10 value="0.0351219391561152" flag="0"/>
			<psa30 value="0.0017052081700037" flag="0"/>
		</comp>
		<comp name="--.HNN" depth="0.0">
			<acc value="0.0360910204630533" flag="0"/>
			<vel value="0.0263684130947961" flag="0"/>
			<psa03 value="0.101384341214963" flag="0"/>
			<psa10 value="0.0217152416531935" flag="0"/>
			<psa30 value="0.00241126785966042" flag="0"/>
		</comp>
		<comp name="--.HNZ" depth="0.0">
			<acc value="0.0334144833627055" flag="0"/>
			<vel value="0.0111621796174565" flag="0"/>
			<psa03 value="0.0726365878591986" flag="0"/>
			<psa10 value="0.0173145295026149" flag="0"/>
			<psa30 value="0.00149560022200938" flag="0"/>
		</comp>
	</station>
	<station code="G0LD" name="G0LD" netid="HC" source="Seismological Network of Crete (HC)" insttype="" lat="35.4955" lon="24.0306">
		<comp name="--.HNE" depth="0.0">
			<acc value="0.0450649907232949" flag="0"/>
			<vel value="0.0367019816358223" flag="0"/>
			<psa03 value="0.116387512184916" flag="0"/>
			<psa10 value="0.0644578600168721" flag="0"/>
			<psa30 value="0.00290109364154751" flag="0"/>
		</comp>
		<comp name="--.HNN" depth="0.0">
			<acc value="0.0492966112826503" flag="0"/>
			<vel value="0.0349320141222299" flag="0"/>
			<psa03 value="0.134598291476177" flag="0"/>
			<psa10 value="0.0385069921492549" flag="0"/>
			<psa30 value="0.00309327095568484" flag="0"/>
		</comp>
		<comp name="--.HNZ" depth="0.0">
			<acc value="0.0267733297200031" flag="0"/>
			<vel value="0.0211136028554758" flag="0"/>
			<psa03 value="0.0565447978989001" flag="0"/>
			<psa10 value="0.0243737233895723" flag="0"/>
			<psa30 value="0.00246541394657263" flag="0"/>
		</comp>
	</station>
	<station code="MULT" name="MULT" netid="HC" source="Seismological Network of Crete (HC)" insttype="" lat="35.5091" lon="24.0118">
		<comp name="--.HNE" depth="0.0">
			<acc value="0.0469786899279919" flag="0"/>
			<vel value="0.0176545326900638" flag="0"/>
			<psa03 value="0.0671269468307382" flag="0"/>
			<psa10 value="0.0132078218283918" flag="0"/>
			<psa30 value="0.00183794487982773" flag="0"/>
		</comp>
		<comp name="--.HNN" depth="0.0">
			<acc value="0.030096547840149" flag="0"/>
			<vel value="0.0107384698540229" flag="0"/>
			<psa03 value="0.0741612149000746" flag="0"/>
			<psa10 value="0.0154154336968166" flag="0"/>
			<psa30 value="0.00236724515170616" flag="0"/>
		</comp>
		<comp name="--.HNZ" depth="0.0">
			<acc value="0.0341796450183116" flag="0"/>
			<vel value="0.010600710834352" flag="0"/>
			<psa03 value="0.0277023507697721" flag="0"/>
			<psa10 value="0.0129464970168828" flag="0"/>
			<psa30 value="0.00304409915663059" flag="0"/>
		</comp>
	</station>
	<station code="NERO" name="NERO" netid="HC" source="Seismological Network of Crete (HC)" insttype="" lat="35.474" lon="24.0423">
		<comp name="--.HNE" depth="0.0">
			<acc value="0.0233136698568212" flag="0"/>
			<vel value="0.0103232734375543" flag="0"/>
			<psa03 value="0.0491470057479197" flag="0"/>
			<psa10 value="0.0110386471937133" flag="0"/>
			<psa30 value="0.00102703595275632" flag="0"/>
		</comp>
		<comp name="--.HNN" depth="0.0">
			<acc value="0.0215785908874908" flag="0"/>
			<vel value="0.0112397731441603" flag="0"/>
			<psa03 value="0.0421711217548723" flag="0"/>
			<psa10 value="0.0112650196897844" flag="0"/>
			<psa30 value="0.00106814628028174" flag="0"/>
		</comp>
		<comp name="--.HNZ" depth="0.0">
			<acc value="0.021559973275378" flag="0"/>
			<vel value="0.00649889822547034" flag="0"/>
			<psa03 value="0.0385213252862372" flag="0"/>
			<psa10 value="0.00677667173373812" flag="0"/>
			<psa30 value="0.000903607567899584" flag="0"/>
		</comp>
	</station>
	<station code="PASK" name="PASK" netid="HC" source="Seismological Network of Crete (HC)" insttype="" lat="35.4996" lon="24.0121">
		<comp name="--.HNE" depth="0.0">
			<acc value="0.0359249322125532" flag="0"/>
			<vel value="0.022591804931651" flag="0"/>
			<psa03 value="0.0806662552016296" flag="0"/>
			<psa10 value="0.0254810873719772" flag="0"/>
			<psa30 value="0.00172357011556256" flag="0"/>
		</comp>
		<comp name="--.HNN" depth="0.0">
			<acc value="0.0350606394716794" flag="0"/>
			<vel value="0.0210751225374703" flag="0"/>
			<psa03 value="0.0613796233905686" flag="0"/>
			<psa10 value="0.0182367868476102" flag="0"/>
			<psa30 value="0.00207967547662538" flag="0"/>
		</comp>
		<comp name="--.HNZ" depth="0.0">
			<acc value="0.0212105212955438" flag="0"/>
			<vel value="0.0116741954957828" flag="0"/>
			<psa03 value="0.0554921292062488" flag="0"/>
			<psa10 value="0.0140986211519737" flag="0"/>
			<psa30 value="0.00135144806846923" flag="0"/>
		</comp>
	</station>
	<station code="POLY" name="POLY" netid="HC" source="Seismological Network of Crete (HC)" insttype="" lat="35.5226" lon="24.0602">
		<comp name="--.HNE" depth="0.0">
			<acc value="0.0175010720229904" flag="0"/>
			<vel value="0.0108813698248942" flag="0"/>
			<psa03 value="0.0482722655091078" flag="0"/>
			<psa10 value="0.014817678785987" flag="0"/>
			<psa30 value="0.0015991883342105" flag="0"/>
		</comp>
		<comp name="--.HNN" depth="0.0">
			<acc value="0.0205580175326449" flag="0"/>
			<vel value="0.0124273550369548" flag="0"/>
			<psa03 value="0.0683157078722315" flag="0"/>
			<psa10 value="0.0185645998136115" flag="0"/>
			<psa30 value="0.00177740732784599" flag="0"/>
		</comp>
		<comp name="--.HNZ" depth="0.0">
			<acc value="0.0153451142761923" flag="0"/>
			<vel value="0.00816794655281532" flag="0"/>
			<psa03 value="0.0302055400312645" flag="0"/>
			<psa10 value="0.00604190102753003" flag="0"/>
			<psa30 value="0.000705258334485882" flag="0"/>
		</comp>
	</station>
	<station code="SOUD" name="SOUD" netid="HC" source="Seismological Network of Crete (HC)" insttype="" lat="35.4878" lon="24.0678">
		<comp name="--.HNE" depth="0.0">
			<acc value="0.0476891515595477" flag="0"/>
			<vel value="0.0218190288665016" flag="0"/>
			<psa03 value="0.148771730396959" flag="0"/>
			<psa10 value="0.0251713843556599" flag="0"/>
			<psa30 value="0.00171575438947608" flag="0"/>
		</comp>
		<comp name="--.HNN" depth="0.0">
			<acc value="0.0416561519587251" flag="0"/>
			<vel value="0.0205697579173217" flag="0"/>
			<psa03 value="0.0925815705747865" flag="0"/>
			<psa10 value="0.016275920699856" flag="0"/>
			<psa30 value="0.00169843740897593" flag="0"/>
		</comp>
		<comp name="--.HNZ" depth="0.0">
			<acc value="0.00595308455184357" flag="0"/>
			<vel value="0.00374017183011148" flag="0"/>
			<psa03 value="0.00603195687922547" flag="0"/>
			<psa10 value="0.00421011327433717" flag="0"/>
			<psa30 value="0.00240630128065199" flag="0"/>
		</comp>
	</station>
	<station code="CH01" name="CH01" netid="HI" source="ITSAK Strong Motion Network" insttype="" lat="35.517" lon="24.0208">
		<comp name="--.HNE" depth="0.0">
			<acc value="0.0259156158079685" flag="0"/>
			<vel value="0.0174122791718652" flag="0"/>
			<psa03 value="0.0516484735413347" flag="0"/>
			<psa10 value="0.0131667734841422" flag="0"/>
			<psa30 value="0.00127554918637142" flag="0"/>
		</comp>
		<comp name="--.HNN" depth="0.0">
			<acc value="0.0236198459336355" flag="0"/>
			<vel value="0.0121426266290611" flag="0"/>
			<psa03 value="0.0417766685409473" flag="0"/>
			<psa10 value="0.0157338447900084" flag="0"/>
			<psa30 value="0.00163669321455801" flag="0"/>
		</comp>
		<comp name="--.HNZ" depth="0.0">
			<acc value="0.0180477481213342" flag="0"/>
			<vel value="0.00654866126331206" flag="0"/>
			<psa03 value="0.0200405684747284" flag="0"/>
			<psa10 value="0.0110445003939658" flag="0"/>
			<psa30 value="0.000719180923458848" flag="0"/>
		</comp>
	</station>
</stationlist>
