<?xml version="1.0" encoding="UTF-8" standalone="yes"?>
<!DOCTYPE earthquake SYSTEM "stationlist.dtd">
<stationlist created="" xmlns="ch.ethz.sed.shakemap.usgs.xml">
  <station code="MSDA" name="MSDA" netid="ML" insttype="" lat="35.9012" lon="14.484">
    <comp name="--.HHN">
      <acc value="0.0140347111" flag="0"/>
      <vel value="0.0100415492" flag="0"/>
      <psa03 value="0.0317760679" flag="0"/>
      <psa10 value="0.0110202744" flag="0"/>
      <psa30 value="0.0014876190" flag="0"/>
    </comp>
    <comp name="--.HHE">
      <acc value="0.0149282580" flag="0"/>
      <vel value="0.0112052237" flag="0"/>
      <psa03 value="0.0456017027" flag="0"/>
      <psa10 value="0.0128995213" flag="0"/>
      <psa30 value="0.0014511384" flag="0"/>
    </comp>
    <comp name="--.HHZ">
      <acc value="0.0114103126" flag="0"/>
      <vel value="0.0066990331" flag="0"/>
      <psa03 value="0.0353485536" flag="0"/>
      <psa10 value="0.0061760973" flag="0"/>
      <psa30 value="0.0015931707" flag="0"/>
    </comp>
  </station>
  <station code="XLND" name="XLND" netid="ML" insttype="" lat="36.0323" lon="14.2201">
    <comp name="--.HHE">
      <acc value="0.0093290122" flag="0"/>
      <vel value="0.0068252645" flag="0"/>
      <psa03 value="0.0326477782" flag="0"/>
      <psa10 value="0.0100090287" flag="0"/>
      <psa30 value="0.0011989196" flag="0"/>
    </comp>
    <comp name="--.HHZ">
      <acc value="0.0061932299" flag="0"/>
      <vel value="0.0040887664" flag="0"/>
      <psa03 value="0.0208982719" flag="0"/>
      <psa10 value="0.0049206261" flag="0"/>
      <psa30 value="0.0018104675" flag="0"/>
    </comp>
    <comp name="--.HHN">
      <acc value="0.0080275826" flag="0"/>
      <vel value="0.0056397778" flag="0"/>
      <psa03 value="0.0350201959" flag="0"/>
      <psa10 value="0.0122815546" flag="0"/>
      <psa30 value="0.0014380451" flag="0"/>
    </comp>
  </station>
</stationlist>
