<?xml version="1.0" encoding="UTF-8" standalone="yes"?>
<!DOCTYPE earthquake SYSTEM "stationlist.dtd">
<stationlist created="" xmlns="ch.ethz.sed.shakemap.usgs.xml">
  <station code="BASM" name="BASM" netid="KO" insttype="100" lat="37.9194" lon="30.035">
    <comp name="--.HNE">
      <acc value="0.0901160822" flag="0"/>
      <vel value="0.0334783442" flag="0"/>
      <psa03 value="0.1864859752" flag="0"/>
      <psa10 value="0.0155890500" flag="0"/>
      <psa30 value="0.0012007317" flag="0"/>
    </comp>
    <comp name="--.HNN">
      <acc value="0.0980005637" flag="0"/>
      <vel value="0.0293152274" flag="0"/>
      <psa03 value="0.0834931042" flag="0"/>
      <psa10 value="0.0212956328" flag="0"/>
      <psa30 value="0.0011380949" flag="0"/>
    </comp>
    <comp name="--.HNZ">
      <acc value="0.0446915106" flag="0"/>
      <vel value="0.0137547076" flag="0"/>
      <psa03 value="0.0631906895" flag="0"/>
      <psa10 value="0.0100029557" flag="0"/>
      <psa30 value="0.0006531550" flag="0"/>
    </comp>
  </station>
</stationlist>
