<stationlist created="1778136664">
	<station code="RUSAM" name="RUSAM" netid="BS" source="National Seismic Network of Bulgaria (BS)" insttype="" lat="43.8462" lon="25.9612">
		<comp name="--.HNE" depth="0.0">
			<acc value="0.0521313064451514" flag="0"/>
			<vel value="0.0248701596178367" flag="0"/>
			<psa03 value="0.116050760709971" flag="0"/>
			<psa10 value="0.00761025773598048" flag="0"/>
			<psa30 value="0.000537223869693541" flag="0"/>
		</comp>
		<comp name="--.HNN" depth="0.0">
			<acc value="0.0362516376469583" flag="0"/>
			<vel value="0.0148031405918429" flag="0"/>
			<psa03 value="0.110538853906638" flag="0"/>
			<psa10 value="0.00829758217407696" flag="0"/>
			<psa30 value="0.00128292488331207" flag="0"/>
		</comp>
		<comp name="--.HNZ" depth="0.0">
			<acc value="0.0363530379247088" flag="0"/>
			<vel value="0.0136505192815146" flag="0"/>
			<psa03 value="0.0672587680634807" flag="0"/>
			<psa10 value="0.00405506675327545" flag="0"/>
			<psa30 value="0.000370321641366338" flag="0"/>
		</comp>
	</station>
	<station code="SILAM" name="SILAM" netid="BS" source="National Seismic Network of Bulgaria (BS)" insttype="" lat="44.1046" lon="27.2665">
		<comp name="--.HNE" depth="0.0">
			<acc value="0.0797161892335748" flag="0"/>
			<vel value="0.03662201821484" flag="0"/>
			<psa03 value="0.249717125867299" flag="0"/>
			<psa10 value="0.0105091233653503" flag="0"/>
			<psa30 value="0.00146287597085155" flag="0"/>
		</comp>
		<comp name="--.HNN" depth="0.0">
			<acc value="0.0790069885759591" flag="0"/>
			<vel value="0.0298808602491348" flag="0"/>
			<psa03 value="0.273614458948475" flag="0"/>
			<psa10 value="0.01032758133909" flag="0"/>
			<psa30 value="0.00100165062527299" flag="0"/>
		</comp>
		<comp name="--.HNZ" depth="0.0">
			<acc value="0.0679705619349952" flag="0"/>
			<vel value="0.0155803726479904" flag="0"/>
			<psa03 value="0.0516704541641944" flag="0"/>
			<psa10 value="0.00417114444285472" flag="0"/>
			<psa30 value="0.000259567559660391" flag="0"/>
		</comp>
	</station>
	<station code="VRI" name="VRI" netid="EU" source="Generic European Strong Motion Network" insttype="" lat="45.8657" lon="26.7277">
		<comp name="00.HNE" depth="0.0">
			<acc value="0.126108752997886" flag="0"/>
			<vel value="0.0468584044136134" flag="0"/>
			<psa03 value="0.355632017209078" flag="0"/>
			<psa10 value="0.0163905807955396" flag="0"/>
			<psa30 value="0.0014563187656377" flag="0"/>
		</comp>
		<comp name="00.HNN" depth="0.0">
			<acc value="0.0556838525668928" flag="0"/>
			<vel value="0.0237215203847532" flag="0"/>
			<psa03 value="0.20503954119656" flag="0"/>
			<psa10 value="0.0110290559333175" flag="0"/>
			<psa30 value="0.000733719282383669" flag="0"/>
		</comp>
		<comp name="00.HNZ" depth="0.0">
			<acc value="0.105354530019292" flag="0"/>
			<vel value="0.0343750833474049" flag="0"/>
			<psa03 value="0.117631104983615" flag="0"/>
			<psa10 value="0.00917183352643903" flag="0"/>
			<psa30 value="0.000982161834233884" flag="0"/>
		</comp>
	</station>
	<station code="BAC" name="BAC" netid="RO" source="Romanian Seismic Network (NIEP)" insttype="" lat="46.5669" lon="26.9124">
		<comp name="--.HNE" depth="0.0">
			<acc value="0.0551380094286373" flag="0"/>
			<vel value="0.0182458722009455" flag="0"/>
			<psa03 value="0.0921120603053455" flag="0"/>
			<psa10 value="0.012228676027255" flag="0"/>
			<psa30 value="0.000626337325107096" flag="0"/>
		</comp>
		<comp name="--.HNN" depth="0.0">
			<acc value="0.0769811880667571" flag="0"/>
			<vel value="0.03286614769507" flag="0"/>
			<psa03 value="0.156232432965132" flag="0"/>
			<psa10 value="0.0191234880872279" flag="0"/>
			<psa30 value="0.00136619612878767" flag="0"/>
		</comp>
		<comp name="--.HNZ" depth="0.0">
			<acc value="0.0325210012094495" flag="0"/>
			<vel value="0.00878598678363845" flag="0"/>
			<psa03 value="0.0477252553137179" flag="0"/>
			<psa10 value="0.00675530094303394" flag="0"/>
			<psa30 value="0.000304160696028188" flag="0"/>
		</comp>
	</station>
	<station code="BISRR" name="BISRR" netid="RO" source="Romanian Seismic Network (NIEP)" insttype="" lat="45.5481" lon="26.7099">
		<comp name="--.HNE" depth="0.0">
			<acc value="0.123122647958818" flag="0"/>
			<vel value="0.046437558622236" flag="0"/>
			<psa03 value="0.186182437839242" flag="0"/>
			<psa10 value="0.0341560926734921" flag="0"/>
			<psa30 value="0.00224246355220607" flag="0"/>
		</comp>
		<comp name="--.HNN" depth="0.0">
			<acc value="0.0979580283136934" flag="0"/>
			<vel value="0.0453073778640742" flag="0"/>
			<psa03 value="0.409621552084397" flag="0"/>
			<psa10 value="0.0433313567395461" flag="0"/>
			<psa30 value="0.00159951106392576" flag="0"/>
		</comp>
		<comp name="--.HNZ" depth="0.0">
			<acc value="0.0665009293279533" flag="0"/>
			<vel value="0.0270553825785626" flag="0"/>
			<psa03 value="0.248296802611055" flag="0"/>
			<psa10 value="0.0123709445143442" flag="0"/>
			<psa30 value="0.000990751153233868" flag="0"/>
		</comp>
	</station>
	<station code="COPA" name="COPA" netid="RO" source="Romanian Seismic Network (NIEP)" insttype="" lat="44.1343" lon="25.2172">
		<comp name="--.HNE" depth="0.0">
			<acc value="0.12250421905829" flag="0"/>
			<vel value="0.030947271618053" flag="0"/>
			<psa03 value="0.100618780083694" flag="0"/>
			<psa10 value="0.0117353299080011" flag="0"/>
			<psa30 value="0.000827700247743753" flag="0"/>
		</comp>
		<comp name="--.HNN" depth="0.0">
			<acc value="0.0868310510769991" flag="0"/>
			<vel value="0.0240031084602844" flag="0"/>
			<psa03 value="0.0960995744583534" flag="0"/>
			<psa10 value="0.00527856280387271" flag="0"/>
			<psa30 value="0.000719611212378427" flag="0"/>
		</comp>
		<comp name="--.HNZ" depth="0.0">
			<acc value="0.059698123568118" flag="0"/>
			<vel value="0.00797599881266893" flag="0"/>
			<psa03 value="0.0248533130766997" flag="0"/>
			<psa10 value="0.00253356353927494" flag="0"/>
			<psa30 value="0.000172358475194639" flag="0"/>
		</comp>
	</station>
	<station code="GHRR" name="GHRR" netid="RO" source="Romanian Seismic Network (NIEP)" insttype="" lat="46.0605" lon="27.408">
		<comp name="--.HNE" depth="0.0">
			<acc value="0.328866363206523" flag="0"/>
			<vel value="0.114913706831545" flag="0"/>
			<psa03 value="0.623393171738474" flag="0"/>
			<psa10 value="0.0937811725422512" flag="0"/>
			<psa30 value="0.00475256150052436" flag="0"/>
		</comp>
		<comp name="--.HNN" depth="0.0">
			<acc value="0.225785136042397" flag="0"/>
			<vel value="0.104160561270083" flag="0"/>
			<psa03 value="0.570494125770358" flag="0"/>
			<psa10 value="0.0308131718464236" flag="0"/>
			<psa30 value="0.00384375296310176" flag="0"/>
		</comp>
		<comp name="--.HNZ" depth="0.0">
			<acc value="0.0938974747920198" flag="0"/>
			<vel value="0.0379330293510508" flag="0"/>
			<psa03 value="0.254172087653441" flag="0"/>
			<psa10 value="0.0142713472817333" flag="0"/>
			<psa30 value="0.00106679712840972" flag="0"/>
		</comp>
	</station>
	<station code="GRISU" name="GRISU" netid="RO" source="Romanian Seismic Network (NIEP)" insttype="" lat="43.8898" lon="25.9518">
		<comp name="--.HNE" depth="0.0">
			<acc value="0.224772178612224" flag="0"/>
			<vel value="0.073531984065097" flag="0"/>
			<psa03 value="0.488965974929303" flag="0"/>
			<psa10 value="0.0171598542561286" flag="0"/>
			<psa30 value="0.00165932929742036" flag="0"/>
		</comp>
		<comp name="--.HNN" depth="0.0">
			<acc value="0.118665605451759" flag="0"/>
			<vel value="0.052874432755228" flag="0"/>
			<psa03 value="0.806662187412055" flag="0"/>
			<psa10 value="0.0187687689638321" flag="0"/>
			<psa30 value="0.00123529547809606" flag="0"/>
		</comp>
		<comp name="--.HNZ" depth="0.0">
			<acc value="0.0733005251179007" flag="0"/>
			<vel value="0.022165097822401" flag="0"/>
			<psa03 value="0.0810796263358489" flag="0"/>
			<psa10 value="0.00334069060123252" flag="0"/>
			<psa30 value="0.000366900633491477" flag="0"/>
		</comp>
	</station>
	<station code="HUMR" name="HUMR" netid="RO" source="Romanian Seismic Network (NIEP)" insttype="" lat="44.5281" lon="24.9804">
		<comp name="--.HNE" depth="0.0">
			<acc value="0.197768601609211" flag="0"/>
			<vel value="0.0561182364385049" flag="0"/>
			<psa03 value="0.320901091455632" flag="0"/>
			<psa10 value="0.0243711938469888" flag="0"/>
			<psa30 value="0.00216494945894171" flag="0"/>
		</comp>
		<comp name="--.HNN" depth="0.0">
			<acc value="0.257641583923644" flag="0"/>
			<vel value="0.0679607516390233" flag="0"/>
			<psa03 value="0.202545542648326" flag="0"/>
			<psa10 value="0.0205926122844913" flag="0"/>
			<psa30 value="0.00159619490674637" flag="0"/>
		</comp>
		<comp name="--.HNZ" depth="0.0">
			<acc value="0.155674786462537" flag="0"/>
			<vel value="0.0268979272387369" flag="0"/>
			<psa03 value="0.0566078124898193" flag="0"/>
			<psa10 value="0.00319891550620225" flag="0"/>
			<psa30 value="0.000366134228553959" flag="0"/>
		</comp>
	</station>
	<station code="IASR" name="IASR" netid="RO" source="Romanian Seismic Network (NIEP)" insttype="" lat="47.1777" lon="27.5748">
		<comp name="--.HNE" depth="0.0">
			<acc value="0.0709878178400485" flag="0"/>
			<vel value="0.0258403453089294" flag="0"/>
			<psa03 value="0.133705419827704" flag="0"/>
			<psa10 value="0.0106886065052334" flag="0"/>
			<psa30 value="0.000740597967228952" flag="0"/>
		</comp>
		<comp name="--.HNN" depth="0.0">
			<acc value="0.0484789861206644" flag="0"/>
			<vel value="0.0220685744273046" flag="0"/>
			<psa03 value="0.10352879577461" flag="0"/>
			<psa10 value="0.0100785132770527" flag="0"/>
			<psa30 value="0.000924635523400784" flag="0"/>
		</comp>
		<comp name="--.HNZ" depth="0.0">
			<acc value="0.0578624101269346" flag="0"/>
			<vel value="0.0120851695218863" flag="0"/>
			<psa03 value="0.0747197675261714" flag="0"/>
			<psa10 value="0.00498803621414957" flag="0"/>
			<psa30 value="0.000325418302157074" flag="0"/>
		</comp>
	</station>
	<station code="LEHL" name="LEHL" netid="RO" source="Romanian Seismic Network (NIEP)" insttype="" lat="44.4739" lon="26.8194">
		<comp name="--.HNE" depth="0.0">
			<acc value="0.336326768306857" flag="0"/>
			<vel value="0.11721000489006" flag="0"/>
			<psa03 value="0.553934653785479" flag="0"/>
			<psa10 value="0.047847420906866" flag="0"/>
			<psa30 value="0.00422800716805742" flag="0"/>
		</comp>
		<comp name="--.HNN" depth="0.0">
			<acc value="0.338280652071964" flag="0"/>
			<vel value="0.130886317074038" flag="0"/>
			<psa03 value="0.600542616334653" flag="0"/>
			<psa10 value="0.0615337875616249" flag="0"/>
			<psa30 value="0.00554871299165531" flag="0"/>
		</comp>
		<comp name="--.HNZ" depth="0.0">
			<acc value="0.182433069281248" flag="0"/>
			<vel value="0.0458765115078578" flag="0"/>
			<psa03 value="0.151910521660011" flag="0"/>
			<psa10 value="0.0100652242716938" flag="0"/>
			<psa30 value="0.00102369177288864" flag="0"/>
		</comp>
	</station>
	<station code="LEOM" name="LEOM" netid="RO" source="Romanian Seismic Network (NIEP)" insttype="" lat="46.4733" lon="28.2467">
		<comp name="--.HNE" depth="0.0">
			<acc value="0.13807430201384" flag="0"/>
			<vel value="0.0493400098727774" flag="0"/>
			<psa03 value="0.18636478325222" flag="0"/>
			<psa10 value="0.0347685869982401" flag="0"/>
			<psa30 value="0.00266532552306804" flag="0"/>
		</comp>
		<comp name="--.HNN" depth="0.0">
			<acc value="0.184206192818581" flag="0"/>
			<vel value="0.0675838847798266" flag="0"/>
			<psa03 value="0.28233499497439" flag="0"/>
			<psa10 value="0.0372627759760301" flag="0"/>
			<psa30 value="0.0018439984058429" flag="0"/>
		</comp>
		<comp name="--.HNZ" depth="0.0">
			<acc value="0.142176850471504" flag="0"/>
			<vel value="0.0207109342941032" flag="0"/>
			<psa03 value="0.125952354142095" flag="0"/>
			<psa10 value="0.00433503733120212" flag="0"/>
			<psa30 value="0.000689990812669905" flag="0"/>
		</comp>
	</station>
	<station code="LOT" name="LOT" netid="RO" source="Romanian Seismic Network (NIEP)" insttype="" lat="45.446" lon="23.7698">
		<comp name="--.HNE" depth="0.0">
			<acc value="0.0341189225340437" flag="0"/>
			<vel value="0.00968946384161455" flag="0"/>
			<psa03 value="0.0401758150964261" flag="0"/>
			<psa10 value="0.00297634810595296" flag="0"/>
			<psa30 value="0.000180999542414697" flag="0"/>
		</comp>
		<comp name="--.HNN" depth="0.0">
			<acc value="0.0370906850914899" flag="0"/>
			<vel value="0.00851574342701272" flag="0"/>
			<psa03 value="0.0404669333399041" flag="0"/>
			<psa10 value="0.00281704083387969" flag="0"/>
			<psa30 value="0.000193944540582142" flag="0"/>
		</comp>
		<comp name="--.HNZ" depth="0.0">
			<acc value="0.0253388515028991" flag="0"/>
			<vel value="0.00467566133899009" flag="0"/>
			<psa03 value="0.0176660205475563" flag="0"/>
			<psa10 value="0.00180142937491721" flag="0"/>
			<psa30 value="0.00013894201672691" flag="0"/>
		</comp>
	</station>
	<station code="MLR" name="MLR" netid="RO" source="Romanian Seismic Network (NIEP)" insttype="" lat="45.4909" lon="25.945">
		<comp name="--.HNE" depth="0.0">
			<acc value="0.0457302908543677" flag="0"/>
			<vel value="0.0260802856836971" flag="0"/>
			<psa03 value="0.119544846342755" flag="0"/>
			<psa10 value="0.0128658760511306" flag="0"/>
			<psa30 value="0.00171479901368397" flag="0"/>
		</comp>
		<comp name="--.HNN" depth="0.0">
			<acc value="0.0471175757269897" flag="0"/>
			<vel value="0.0181725168843378" flag="0"/>
			<psa03 value="0.0945746713576152" flag="0"/>
			<psa10 value="0.0102697581335732" flag="0"/>
			<psa30 value="0.00111733495545652" flag="0"/>
		</comp>
		<comp name="--.HNZ" depth="0.0">
			<acc value="0.0370960375649596" flag="0"/>
			<vel value="0.0142261024358711" flag="0"/>
			<psa03 value="0.0713117396777511" flag="0"/>
			<psa10 value="0.00917571503359106" flag="0"/>
			<psa30 value="0.000646321982326535" flag="0"/>
		</comp>
	</station>
	<station code="OTISU" name="OTISU" netid="RO" source="Romanian Seismic Network (NIEP)" insttype="" lat="44.4278" lon="24.3755">
		<comp name="--.HNE" depth="0.0">
			<acc value="0.177056468564215" flag="0"/>
			<vel value="0.0333673163674814" flag="0"/>
			<psa03 value="0.14111185838461" flag="0"/>
			<psa10 value="0.0117179493816348" flag="0"/>
			<psa30 value="0.000693407705692613" flag="0"/>
		</comp>
		<comp name="--.HNN" depth="0.0">
			<acc value="0.12796475115086" flag="0"/>
			<vel value="0.0289272318073747" flag="0"/>
			<psa03 value="0.126139429034945" flag="0"/>
			<psa10 value="0.0087226165805444" flag="0"/>
			<psa30 value="0.00109853548091948" flag="0"/>
		</comp>
		<comp name="--.HNZ" depth="0.0">
			<acc value="0.146350617177424" flag="0"/>
			<vel value="0.0307528272177173" flag="0"/>
			<psa03 value="0.0650031811417033" flag="0"/>
			<psa10 value="0.00432014509467983" flag="0"/>
			<psa30 value="0.000378667741129362" flag="0"/>
		</comp>
	</station>
	<station code="PLOR" name="PLOR" netid="RO" source="Romanian Seismic Network (NIEP)" insttype="" lat="45.8512" lon="26.6498">
		<comp name="--.HNE" depth="0.0">
			<acc value="0.0579062017947355" flag="0"/>
			<vel value="0.0255699682346467" flag="0"/>
			<psa03 value="0.177633559018281" flag="0"/>
			<psa10 value="0.0140738873259801" flag="0"/>
			<psa30 value="0.000906010227066095" flag="0"/>
		</comp>
		<comp name="--.HNN" depth="0.0">
			<acc value="0.0582300058299138" flag="0"/>
			<vel value="0.0238767491718966" flag="0"/>
			<psa03 value="0.173464241154692" flag="0"/>
			<psa10 value="0.014527463935669" flag="0"/>
			<psa30 value="0.00094462143069958" flag="0"/>
		</comp>
		<comp name="--.HNZ" depth="0.0">
			<acc value="0.0605053454117387" flag="0"/>
			<vel value="0.015888968646705" flag="0"/>
			<psa03 value="0.0859559545766777" flag="0"/>
			<psa10 value="0.00691147300741662" flag="0"/>
			<psa30 value="0.000501316959787818" flag="0"/>
		</comp>
	</station>
	<station code="PLOR4" name="PLOR4" netid="RO" source="Romanian Seismic Network (NIEP)" insttype="" lat="45.8512" lon="26.6498">
		<comp name="--.HNE" depth="0.0">
			<acc value="0.0579062021060372" flag="0"/>
			<vel value="0.0255699866494472" flag="0"/>
			<psa03 value="0.177633559018281" flag="0"/>
			<psa10 value="0.0140738929513372" flag="0"/>
			<psa30 value="0.000906285870324718" flag="0"/>
		</comp>
		<comp name="--.HNN" depth="0.0">
			<acc value="0.058230005833542" flag="0"/>
			<vel value="0.0238767767432092" flag="0"/>
			<psa03 value="0.173464241154692" flag="0"/>
			<psa10 value="0.014527463935669" flag="0"/>
			<psa30 value="0.000944894261275177" flag="0"/>
		</comp>
		<comp name="--.HNZ" depth="0.0">
			<acc value="0.0605053451850762" flag="0"/>
			<vel value="0.0158888745100525" flag="0"/>
			<psa03 value="0.0859559545766777" flag="0"/>
			<psa10 value="0.00691188131573392" flag="0"/>
			<psa30 value="0.000498290144691356" flag="0"/>
		</comp>
	</station>
	<station code="SULR" name="SULR" netid="RO" source="Romanian Seismic Network (NIEP)" insttype="" lat="44.6777" lon="26.2526">
		<comp name="--.HNE" depth="0.0">
			<acc value="0.344848173469497" flag="0"/>
			<vel value="0.129403054991946" flag="0"/>
			<psa03 value="0.535957212866742" flag="0"/>
			<psa10 value="0.032718074911897" flag="0"/>
			<psa30 value="0.00272658645630378" flag="0"/>
		</comp>
		<comp name="--.HNN" depth="0.0">
			<acc value="0.309487531407323" flag="0"/>
			<vel value="0.105168501653899" flag="0"/>
			<psa03 value="0.628357750618138" flag="0"/>
			<psa10 value="0.0430138194543208" flag="0"/>
			<psa30 value="0.00357347839207424" flag="0"/>
		</comp>
		<comp name="--.HNZ" depth="0.0">
			<acc value="0.189653008292374" flag="0"/>
			<vel value="0.053804840891084" flag="0"/>
			<psa03 value="0.247835209532793" flag="0"/>
			<psa10 value="0.0083781000080004" flag="0"/>
			<psa30 value="0.00104376018565759" flag="0"/>
		</comp>
	</station>
	<station code="TESR" name="TESR" netid="RO" source="Romanian Seismic Network (NIEP)" insttype="" lat="46.5118" lon="26.6489">
		<comp name="--.HNE" depth="0.0">
			<acc value="0.0361038217703395" flag="0"/>
			<vel value="0.0148370636198755" flag="0"/>
			<psa03 value="0.0613298492597366" flag="0"/>
			<psa10 value="0.0063988267033498" flag="0"/>
			<psa30 value="0.000411401810642733" flag="0"/>
		</comp>
		<comp name="--.HNN" depth="0.0">
			<acc value="0.0440927286832187" flag="0"/>
			<vel value="0.018029591226443" flag="0"/>
			<psa03 value="0.0884888827873527" flag="0"/>
			<psa10 value="0.00507978791725261" flag="0"/>
			<psa30 value="0.00062556263837192" flag="0"/>
		</comp>
		<comp name="--.HNZ" depth="0.0">
			<acc value="0.0352899520243467" flag="0"/>
			<vel value="0.0123173753141745" flag="0"/>
			<psa03 value="0.0355526260203391" flag="0"/>
			<psa10 value="0.00259514683761589" flag="0"/>
			<psa30 value="0.000289258042134085" flag="0"/>
		</comp>
	</station>
	<station code="TRISU" name="TRISU" netid="RO" source="Romanian Seismic Network (NIEP)" insttype="" lat="43.9719" lon="25.3296">
		<comp name="--.HNE" depth="0.0">
			<acc value="0.0986533208662252" flag="0"/>
			<vel value="0.028852981216507" flag="0"/>
			<psa03 value="0.0909171373975814" flag="0"/>
			<psa10 value="0.00565740540032537" flag="0"/>
			<psa30 value="0.000530343361813627" flag="0"/>
		</comp>
		<comp name="--.HNN" depth="0.0">
			<acc value="0.0616126684579842" flag="0"/>
			<vel value="0.0173267845080892" flag="0"/>
			<psa03 value="0.107418032583993" flag="0"/>
			<psa10 value="0.00636888987646089" flag="0"/>
			<psa30 value="0.000676420486619758" flag="0"/>
		</comp>
		<comp name="--.HNZ" depth="0.0">
			<acc value="0.0595547535553234" flag="0"/>
			<vel value="0.0110083879273934" flag="0"/>
			<psa03 value="0.0315041573083195" flag="0"/>
			<psa10 value="0.00370937588419882" flag="0"/>
			<psa30 value="0.000240847751856652" flag="0"/>
		</comp>
	</station>
	<station code="VOIR" name="VOIR" netid="RO" source="Romanian Seismic Network (NIEP)" insttype="" lat="45.4371" lon="25.0495">
		<comp name="--.HNE" depth="0.0">
			<acc value="0.034999759964194" flag="0"/>
			<vel value="0.0104587487409003" flag="0"/>
