<?xml version="1.0" encoding="UTF-8" standalone="yes"?>
<!DOCTYPE earthquake SYSTEM "stationlist.dtd">
<stationlist created="" xmlns="ch.ethz.sed.shakemap.usgs.xml">
  <station code="BAC" name="BAC" netid="RO" insttype="2.5V" lat="46.5669" lon="26.9124">
    <comp name="--.HNN">
      <acc value="0.0768026241" flag="0"/>
      <vel value="0.0326119807" flag="0"/>
      <psa03 value="0.1534740902" flag="0"/>
      <psa10 value="0.0191208324" flag="0"/>
      <psa30 value="0.0013384729" flag="0"/>
    </comp>
    <comp name="--.HNZ">
      <acc value="0.0337358401" flag="0"/>
      <vel value="0.0085925641" flag="0"/>
      <psa03 value="0.0469008443" flag="0"/>
      <psa10 value="0.0067457530" flag="0"/>
      <psa30 value="0.0002974724" flag="0"/>
    </comp>
    <comp name="--.HNE">
      <acc value="0.0556170516" flag="0"/>
      <vel value="0.0178996625" flag="0"/>
      <psa03 value="0.0900695479" flag="0"/>
      <psa10 value="0.0122306772" flag="0"/>
      <psa30 value="0.0006196862" flag="0"/>
    </comp>
  </station>
  <station code="BISRR" name="BISRR" netid="RO" insttype="CMG40T.1to100/Basalt" lat="45.5481" lon="26.7099">
    <comp name="--.HHE">
      <acc value="0.2760419146" flag="0"/>
      <vel value="0.0986354880" flag="0"/>
      <psa03 value="0.4839878341" flag="0"/>
      <psa10 value="0.0613966935" flag="0"/>
      <psa30 value="0.0040806228" flag="0"/>
    </comp>
    <comp name="--.HHN">
      <acc value="0.0071051006" flag="0"/>
      <vel value="0.0017532776" flag="0"/>
      <psa03 value="0.0069453482" flag="0"/>
      <psa10 value="0.0004517651" flag="0"/>
      <psa30 value="0.0001141003" flag="0"/>
    </comp>
    <comp name="--.HHZ">
      <acc value="0.1374114189" flag="0"/>
      <vel value="0.0519483087" flag="0"/>
      <psa03 value="0.4738955671" flag="0"/>
      <psa10 value="0.0228740418" flag="0"/>
      <psa30 value="0.0019632106" flag="0"/>
    </comp>
  </station>
  <station code="GHRR" name="GHRR" netid="RO" insttype="w/attenuator" lat="46.0605" lon="27.408">
    <comp name="--.HHE">
      <acc value="0.3438542303" flag="0"/>
      <vel value="0.1209848948" flag="0"/>
      <psa03 value="0.6284498008" flag="0"/>
      <psa10 value="0.0941499348" flag="0"/>
      <psa30 value="0.0049530329" flag="0"/>
    </comp>
    <comp name="--.HHN">
      <acc value="0.2307240325" flag="0"/>
      <vel value="0.1077726027" flag="0"/>
      <psa03 value="0.5873468441" flag="0"/>
      <psa10 value="0.0317724875" flag="0"/>
      <psa30 value="0.0038807644" flag="0"/>
    </comp>
    <comp name="--.HHZ">
      <acc value="0.1098652404" flag="0"/>
      <vel value="0.0418619896" flag="0"/>
      <psa03 value="0.2635048458" flag="0"/>
      <psa10 value="0.0207948388" flag="0"/>
      <psa30 value="0.0013086864" flag="0"/>
    </comp>
  </station>
  <station code="LEHL" name="LEHL" netid="RO" insttype="Seismometer/Basalt" lat="44.4739" lon="26.8194">
    <comp name="--.HHE">
      <acc value="0.1193346481" flag="0"/>
      <vel value="0.0403143340" flag="0"/>
      <psa03 value="0.1935577287" flag="0"/>
      <psa10 value="0.0174731787" flag="0"/>
      <psa30 value="0.0015876197" flag="0"/>
    </comp>
    <comp name="--.HHN">
      <acc value="0.1151016213" flag="0"/>
      <vel value="0.0432746919" flag="0"/>
      <psa03 value="0.1931177844" flag="0"/>
      <psa10 value="0.0195039813" flag="0"/>
      <psa30 value="0.0017829864" flag="0"/>
    </comp>
    <comp name="--.HHZ">
      <acc value="0.0613892539" flag="0"/>
      <vel value="0.0150711105" flag="0"/>
      <psa03 value="0.0500420196" flag="0"/>
      <psa10 value="0.0033587861" flag="0"/>
      <psa30 value="0.0003454708" flag="0"/>
    </comp>
  </station>
  <station code="MLR" name="MLR" netid="RO" insttype="330HR" lat="45.4909" lon="25.945">
    <comp name="--.HHE">
      <acc value="0.4575843662" flag="0"/>
      <vel value="0.2599717325" flag="0"/>
      <psa03 value="1.2242273729" flag="0"/>
      <psa10 value="0.1282594328" flag="0"/>
      <psa30 value="0.0171818859" flag="0"/>
    </comp>
    <comp name="--.HHN">
      <acc value="0.4869593243" flag="0"/>
      <vel value="0.1841099856" flag="0"/>
      <psa03 value="0.9263869937" flag="0"/>
      <psa10 value="0.1050944103" flag="0"/>
      <psa30 value="0.0107871471" flag="0"/>
    </comp>
    <comp name="--.HHZ">
      <acc value="0.0378973798" flag="0"/>
      <vel value="0.0142397415" flag="0"/>
      <psa03 value="0.0719339507" flag="0"/>
      <psa10 value="0.0092427564" flag="0"/>
      <psa30 value="0.0006481938" flag="0"/>
    </comp>
  </station>
  <station code="PLOR" name="PLOR" netid="RO" insttype="330" lat="45.8512" lon="26.6498">
    <comp name="--.HHN">
      <acc value="0.0308220117" flag="0"/>
      <vel value="0.0125568149" flag="0"/>
      <psa03 value="0.0849829451" flag="0"/>
      <psa10 value="0.0079180193" flag="0"/>
      <psa30 value="0.0004815905" flag="0"/>
    </comp>
    <comp name="--.HHZ">
      <acc value="0.0306584170" flag="0"/>
      <vel value="0.0077307329" flag="0"/>
      <psa03 value="0.0415494974" flag="0"/>
      <psa10 value="0.0033818686" flag="0"/>
      <psa30 value="0.0002469419" flag="0"/>
    </comp>
    <comp name="--.HHE">
      <acc value="0.0325558542" flag="0"/>
      <vel value="0.0138832440" flag="0"/>
      <psa03 value="0.0962842758" flag="0"/>
      <psa10 value="0.0071139215" flag="0"/>
      <psa30 value="0.0004606248" flag="0"/>
    </comp>
  </station>
  <station code="PLOR4" name="PLOR4" netid="RO" insttype="330" lat="45.8512" lon="26.6498">
    <comp name="--.HHN">
      <acc value="0.0308220117" flag="0"/>
      <vel value="0.0125568149" flag="0"/>
      <psa03 value="0.0849829451" flag="0"/>
      <psa10 value="0.0079180193" flag="0"/>
      <psa30 value="0.0004815905" flag="0"/>
    </comp>
    <comp name="--.HHE">
      <acc value="0.0325558542" flag="0"/>
      <vel value="0.0138832440" flag="0"/>
      <psa03 value="0.0962842758" flag="0"/>
      <psa10 value="0.0071139215" flag="0"/>
      <psa30 value="0.0004606248" flag="0"/>
    </comp>
    <comp name="--.HHZ">
      <acc value="0.0306584170" flag="0"/>
      <vel value="0.0077307329" flag="0"/>
      <psa03 value="0.0415494974" flag="0"/>
      <psa10 value="0.0033818686" flag="0"/>
      <psa30 value="0.0002469419" flag="0"/>
    </comp>
  </station>
  <station code="SULR" name="SULR" netid="RO" insttype="330" lat="44.6777" lon="26.2526">
    <comp name="--.HHE">
      <acc value="0.3385943759" flag="0"/>
      <vel value="0.1206751257" flag="0"/>
      <psa03 value="0.5763919870" flag="0"/>
      <psa10 value="0.0353353148" flag="0"/>
      <psa30 value="0.0028693330" flag="0"/>
    </comp>
    <comp name="--.HHZ">
      <acc value="0.1973502086" flag="0"/>
      <vel value="0.0512949881" flag="0"/>
      <psa03 value="0.2375215408" flag="0"/>
      <psa10 value="0.0081197011" flag="0"/>
      <psa30 value="0.0010117002" flag="0"/>
    </comp>
    <comp name="--.HHN">
      <acc value="0.2361812121" flag="0"/>
      <vel value="0.0830410049" flag="0"/>
      <psa03 value="0.5376145545" flag="0"/>
      <psa10 value="0.0447463140" flag="0"/>
      <psa30 value="0.0036935832" flag="0"/>
    </comp>
  </station>
  <station code="TESR" name="TESR" netid="RO" insttype="330" lat="46.5118" lon="26.6489">
    <comp name="--.HHE">
      <acc value="0.0365240131" flag="0"/>
      <vel value="0.0150771879" flag="0"/>
      <psa03 value="0.0644779466" flag="0"/>
      <psa10 value="0.0065576878" flag="0"/>
      <psa30 value="0.0003862060" flag="0"/>
    </comp>
    <comp name="--.HHZ">
      <acc value="0.0367815989" flag="0"/>
      <vel value="0.0124049916" flag="0"/>
      <psa03 value="0.0357850010" flag="0"/>
      <psa10 value="0.0026024772" flag="0"/>
      <psa30 value="0.0002907021" flag="0"/>
    </comp>
    <comp name="--.HHN">
      <acc value="0.0461800173" flag="0"/>
      <vel value="0.0182068446" flag="0"/>
      <psa03 value="0.0893173863" flag="0"/>
      <psa10 value="0.0051091570" flag="0"/>
      <psa30 value="0.0006474197" flag="0"/>
    </comp>
  </station>
  <station code="VOIR" name="VOIR" netid="RO" insttype="330" lat="45.4371" lon="25.0495">
    <comp name="--.HHE">
      <acc value="0.0461502976" flag="0"/>
      <vel value="0.0155303341" flag="0"/>
      <psa03 value="0.0791925534" flag="0"/>
      <psa10 value="0.0050173554" flag="0"/>
      <psa30 value="0.0004985989" flag="0"/>
    </comp>
    <comp name="--.HHZ">
      <acc value="0.0190725099" flag="0"/>
      <vel value="0.0074705237" flag="0"/>
      <psa03 value="0.0383563921" flag="0"/>
      <psa10 value="0.0056122107" flag="0"/>
      <psa30 value="0.0002999682" flag="0"/>
    </comp>
    <comp name="--.HHN">
      <acc value="0.0441973127" flag="0"/>
      <vel value="0.0095277519" flag="0"/>
      <psa03 value="0.0606826844" flag="0"/>
      <psa10 value="0.0065110571" flag="0"/>
      <psa30 value="0.0003823143" flag="0"/>
    </comp>
  </station>
  <station code="VRI" name="VRI" netid="RO" insttype="Linear" lat="45.8657" lon="26.7277">
    <comp name="--.HHN">
      <acc value="0.0571231740" flag="0"/>
      <vel value="0.0244515594" flag="0"/>
      <psa03 value="0.2104465688" flag="0"/>
      <psa10 value="0.0112365336" flag="0"/>
      <psa30 value="0.0007113381" flag="0"/>
    </comp>
    <comp name="--.HHZ">
      <acc value="0.1144151063" flag="0"/>
      <vel value="0.0350418999" flag="0"/>
      <psa03 value="0.1195371081" flag="0"/>
      <psa10 value="0.0091888939" flag="0"/>
      <psa30 value="0.0010132468" flag="0"/>
    </comp>
    <comp name="--.HHE">
      <acc value="0.1304455340" flag="0"/>
      <vel value="0.0471211263" flag="0"/>
      <psa03 value="0.3557565624" flag="0"/>
      <psa10 value="0.0163403763" flag="0"/>
      <psa30 value="0.0016836764" flag="0"/>
    </comp>
  </station>
</stationlist>
