<?xml version="1.0" encoding="UTF-8" standalone="yes"?>
<!DOCTYPE earthquake SYSTEM "stationlist.dtd">
<stationlist created="" xmlns="ch.ethz.sed.shakemap.usgs.xml">
  <station code="THERA" name="THERA" netid="GE" insttype="STS-2/N" lat="36.367" lon="25.4753">
    <comp name="--.HHN">
      <acc value="0.2030485396" flag="0"/>
      <vel value="0.0618384662" flag="0"/>
      <psa03 value="0.3552456706" flag="0"/>
      <psa10 value="0.0365475503" flag="0"/>
      <psa30 value="0.0030326268" flag="0"/>
    </comp>
    <comp name="--.HHZ">
      <acc value="0.1992281043" flag="0"/>
      <vel value="0.0675312588" flag="0"/>
      <psa03 value="0.2427040931" flag="0"/>
      <psa10 value="0.0448605160" flag="0"/>
      <psa30 value="0.0038675144" flag="0"/>
    </comp>
    <comp name="--.HHE">
      <acc value="0.2816642326" flag="0"/>
      <vel value="0.0836872166" flag="0"/>
      <psa03 value="0.3272238536" flag="0"/>
      <psa10 value="0.0381724831" flag="0"/>
      <psa30 value="0.0064211884" flag="0"/>
    </comp>
  </station>
  <station code="IDI" name="IDI" netid="MN" insttype="" lat="35.288" lon="24.89">
    <comp name="--.HHE">
      <acc value="0.0211957664" flag="0"/>
      <vel value="0.0130013561" flag="0"/>
      <psa03 value="0.0803199357" flag="0"/>
      <psa10 value="0.0082464974" flag="0"/>
      <psa30 value="0.0007501605" flag="0"/>
    </comp>
    <comp name="--.HHN">
      <acc value="0.0163735264" flag="0"/>
      <vel value="0.0081668517" flag="0"/>
      <psa03 value="0.0482350774" flag="0"/>
      <psa10 value="0.0071427587" flag="0"/>
      <psa30 value="0.0006643102" flag="0"/>
    </comp>
    <comp name="--.HHZ">
      <acc value="0.0176153069" flag="0"/>
      <vel value="0.0096306534" flag="0"/>
      <psa03 value="0.0573442459" flag="0"/>
      <psa10 value="0.0080448113" flag="0"/>
      <psa30 value="0.0005889259" flag="0"/>
    </comp>
  </station>
</stationlist>
