<?xml version="1.0" encoding="UTF-8" standalone="yes"?>
<!DOCTYPE earthquake SYSTEM "stationlist.dtd">
<stationlist created="" xmlns="ch.ethz.sed.shakemap.usgs.xml">
  <station code="KRI1" name="KRI1" netid="HI" insttype="CMG-5TD,ACCELEROMETER,GURALP" lat="37.6621" lon="20.8172">
    <comp name="--.HNN">
      <acc value="0.0915167331" flag="0"/>
      <vel value="0.0445314788" flag="0"/>
      <psa03 value="0.2215180764" flag="0"/>
      <psa10 value="0.0578275389" flag="0"/>
      <psa30 value="0.0028829178" flag="0"/>
    </comp>
    <comp name="--.HNE">
      <acc value="0.0762407766" flag="0"/>
      <vel value="0.0300894675" flag="0"/>
      <psa03 value="0.2218899190" flag="0"/>
      <psa10 value="0.0170005512" flag="0"/>
      <psa30 value="0.0012787032" flag="0"/>
    </comp>
    <comp name="--.HNZ">
      <acc value="0.0686586416" flag="0"/>
      <vel value="0.0272554681" flag="0"/>
      <psa03 value="0.1522601953" flag="0"/>
      <psa10 value="0.0110222634" flag="0"/>
      <psa30 value="0.0009742650" flag="0"/>
    </comp>
  </station>
  <station code="MSL1" name="MSL1" netid="HI" insttype="CMG-5TD,ACCELEROMETER,GURALP" lat="38.3727" lon="21.4243">
    <comp name="--.HNE">
      <acc value="0.0435655909" flag="0"/>
      <vel value="0.0436525133" flag="0"/>
      <psa03 value="0.1094877558" flag="0"/>
      <psa10 value="0.1342208851" flag="0"/>
      <psa30 value="0.0037822379" flag="0"/>
    </comp>
    <comp name="--.HNN">
      <acc value="0.0344930355" flag="0"/>
      <vel value="0.0372403038" flag="0"/>
      <psa03 value="0.0893694591" flag="0"/>
      <psa10 value="0.0661242322" flag="0"/>
      <psa30 value="0.0022449039" flag="0"/>
    </comp>
    <comp name="--.HNZ">
      <acc value="0.0166522426" flag="0"/>
      <vel value="0.0172611565" flag="0"/>
      <psa03 value="0.0424330376" flag="0"/>
      <psa10 value="0.0349934469" flag="0"/>
      <psa30 value="0.0012279948" flag="0"/>
    </comp>
  </station>
  <station code="RLS" name="RLS" netid="HL" insttype="CMG3ESPC-120s" lat="38.0559" lon="21.4647">
    <comp name="--.HHE">
      <acc value="0.0102827046" flag="0"/>
      <vel value="0.0063535700" flag="0"/>
      <psa03 value="0.0253445079" flag="0"/>
      <psa10 value="0.0084492046" flag="0"/>
      <psa30 value="0.0004747432" flag="0"/>
    </comp>
    <comp name="--.HHN">
      <acc value="0.0098281697" flag="0"/>
      <vel value="0.0064137766" flag="0"/>
      <psa03 value="0.0336397524" flag="0"/>
      <psa10 value="0.0059036669" flag="0"/>
      <psa30 value="0.0005919734" flag="0"/>
    </comp>
    <comp name="--.HHZ">
      <acc value="0.0072315790" flag="0"/>
      <vel value="0.0028068245" flag="0"/>
      <psa03 value="0.0138991496" flag="0"/>
      <psa10 value="0.0052029966" flag="0"/>
      <psa30 value="0.0002714658" flag="0"/>
    </comp>
  </station>
  <station code="VLS" name="VLS" netid="HL" insttype="120P," lat="38.1768" lon="20.5886">
    <comp name="--.HHE">
      <acc value="0.0936748766" flag="0"/>
      <vel value="0.0273782273" flag="0"/>
      <psa03 value="0.1063804066" flag="0"/>
      <psa10 value="0.0137257583" flag="0"/>
      <psa30 value="0.0009276661" flag="0"/>
    </comp>
    <comp name="--.HHN">
      <acc value="0.0826239539" flag="0"/>
      <vel value="0.0264173440" flag="0"/>
      <psa03 value="0.1330440019" flag="0"/>
      <psa10 value="0.0157972005" flag="0"/>
      <psa30 value="0.0010128194" flag="0"/>
    </comp>
    <comp name="--.HHZ">
      <acc value="0.0437781775" flag="0"/>
      <vel value="0.0157562825" flag="0"/>
      <psa03 value="0.0733364959" flag="0"/>
      <psa10 value="0.0125457655" flag="0"/>
      <psa30 value="0.0007706227" flag="0"/>
    </comp>
  </station>
  <station code="AMT" name="AMT" netid="HP" insttype="CMG-3T," lat="37.5324" lon="21.7089">
    <comp name="00.HHZ">
      <acc value="0.0086581881" flag="0"/>
      <vel value="0.0051888244" flag="0"/>
      <psa03 value="0.0319074262" flag="0"/>
      <psa10 value="0.0071171871" flag="0"/>
      <psa30 value="0.0004974548" flag="0"/>
    </comp>
    <comp name="00.HHN">
      <acc value="0.0126269759" flag="0"/>
      <vel value="0.0100644918" flag="0"/>
      <psa03 value="0.0389865722" flag="0"/>
      <psa10 value="0.0144457993" flag="0"/>
      <psa30 value="0.0010183628" flag="0"/>
    </comp>
    <comp name="00.HHE">
      <acc value="0.0147858903" flag="0"/>
      <vel value="0.0112562723" flag="0"/>
      <psa03 value="0.0419822912" flag="0"/>
      <psa10 value="0.0162468225" flag="0"/>
      <psa30 value="0.0009419649" flag="0"/>
    </comp>
  </station>
  <station code="AXS" name="AXS" netid="HP" insttype="40," lat="38.1962" lon="21.3763">
    <comp name="--.HHN">
      <acc value="0.0090058057" flag="0"/>
      <vel value="0.0086483136" flag="0"/>
      <psa03 value="0.0224901944" flag="0"/>
      <psa10 value="0.0137426476" flag="0"/>
      <psa30 value="0.0004849909" flag="0"/>
    </comp>
    <comp name="--.HHE">
      <acc value="0.0075606613" flag="0"/>
      <vel value="0.0051872836" flag="0"/>
      <psa03 value="0.0145244142" flag="0"/>
      <psa10 value="0.0073449683" flag="0"/>
      <psa30 value="0.0003374237" flag="0"/>
    </comp>
    <comp name="--.HHZ">
      <acc value="0.0058661544" flag="0"/>
      <vel value="0.0059609569" flag="0"/>
      <psa03 value="0.0150418741" flag="0"/>
      <psa10 value="0.0055824954" flag="0"/>
      <psa30 value="0.0004639026" flag="0"/>
    </comp>
  </station>
  <station code="DRO" name="DRO" netid="HP" insttype="120P," lat="37.952" lon="21.71">
    <comp name="--.HHE">
      <acc value="0.0201845905" flag="0"/>
      <vel value="0.0102561326" flag="0"/>
      <psa03 value="0.0565994052" flag="0"/>
      <psa10 value="0.0132598897" flag="0"/>
      <psa30 value="0.0006163632" flag="0"/>
    </comp>
    <comp name="--.HHZ">
      <acc value="0.0067788463" flag="0"/>
      <vel value="0.0043483492" flag="0"/>
      <psa03 value="0.0229034220" flag="0"/>
      <psa10 value="0.0062754535" flag="0"/>
      <psa30 value="0.0004251672" flag="0"/>
    </comp>
    <comp name="--.HHN">
      <acc value="0.0135882206" flag="0"/>
      <vel value="0.0091007365" flag="0"/>
      <psa03 value="0.0628754535" flag="0"/>
      <psa10 value="0.0105997797" flag="0"/>
      <psa30 value="0.0006250997" flag="0"/>
    </comp>
  </station>
  <station code="FSK" name="FSK" netid="HP" insttype="40," lat="38.4593" lon="20.5623">
    <comp name="--.HHN">
      <acc value="0.0324003645" flag="0"/>
      <vel value="0.0158798923" flag="0"/>
      <psa03 value="0.0905581635" flag="0"/>
      <psa10 value="0.0160423568" flag="0"/>
      <psa30 value="0.0007007500" flag="0"/>
    </comp>
    <comp name="--.HHZ">
      <acc value="0.0227983375" flag="0"/>
      <vel value="0.0096331468" flag="0"/>
      <psa03 value="0.0538817785" flag="0"/>
      <psa10 value="0.0093797707" flag="0"/>
      <psa30 value="0.0006965040" flag="0"/>
    </comp>
    <comp name="--.HHE">
      <acc value="0.0381264407" flag="0"/>
      <vel value="0.0200842745" flag="0"/>
      <psa03 value="0.0813190279" flag="0"/>
      <psa10 value="0.0150612420" flag="0"/>
      <psa30 value="0.0012618416" flag="0"/>
    </comp>
  </station>
  <station code="LTHK" name="LTHK" netid="HP" insttype="40," lat="37.7095" lon="20.8367">
    <comp name="--.HHN">
      <acc value="0.1263563768" flag="0"/>
      <vel value="0.0406178382" flag="0"/>
      <psa03 value="0.3367833291" flag="0"/>
      <psa10 value="0.0265888805" flag="0"/>
      <psa30 value="0.0016340048" flag="0"/>
    </comp>
    <comp name="--.HHZ">
      <acc value="0.0592523132" flag="0"/>
      <vel value="0.0244619409" flag="0"/>
      <psa03 value="0.1144085152" flag="0"/>
      <psa10 value="0.0123125085" flag="0"/>
      <psa30 value="0.0010922403" flag="0"/>
    </comp>
    <comp name="--.HHE">
      <acc value="0.1205491329" flag="0"/>
      <vel value="0.0351476850" flag="0"/>
      <psa03 value="0.1551113831" flag="0"/>
      <psa10 value="0.0205149130" flag="0"/>
      <psa30 value="0.0014591337" flag="0"/>
    </comp>
  </station>
  <station code="PDO" name="PDO" netid="HP" insttype="120s" lat="38.5986" lon="21.1833">
    <comp name="--.HHE">
      <acc value="0.0264593015" flag="0"/>
      <vel value="0.0126424275" flag="0"/>
      <psa03 value="0.1168705761" flag="0"/>
      <psa10 value="0.0126623375" flag="0"/>
      <psa30 value="0.0008336250" flag="0"/>
    </comp>
    <comp name="--.HHN">
      <acc value="0.0401490727" flag="0"/>
      <vel value="0.0180035136" flag="0"/>
      <psa03 value="0.1271883471" flag="0"/>
      <psa10 value="0.0187692118" flag="0"/>
      <psa30 value="0.0007199947" flag="0"/>
    </comp>
    <comp name="--.HHZ">
      <acc value="0.0262483767" flag="0"/>
      <vel value="0.0123197407" flag="0"/>
      <psa03 value="0.0938848522" flag="0"/>
      <psa10 value="0.0110205812" flag="0"/>
      <psa30 value="0.0007049981" flag="0"/>
    </comp>
  </station>
  <station code="PLEV" name="PLEV" netid="HP" insttype="Compact," lat="38.4124" lon="21.4073">
    <comp name="--.HHE">
      <acc value="0.0074376604" flag="0"/>
      <vel value="0.0061397290" flag="0"/>
      <psa03 value="0.0251937008" flag="0"/>
      <psa10 value="0.0100035867" flag="0"/>
      <psa30 value="0.0004645639" flag="0"/>
    </comp>
    <comp name="--.HHN">
      <acc value="0.0204540968" flag="0"/>
      <vel value="0.0141208972" flag="0"/>
      <psa03 value="0.0567272830" flag="0"/>
      <psa10 value="0.0089182074" flag="0"/>
      <psa30 value="0.0008464210" flag="0"/>
    </comp>
    <comp name="--.HHZ">
      <acc value="0.0086918555" flag="0"/>
      <vel value="0.0063897274" flag="0"/>
      <psa03 value="0.0203434861" flag="0"/>
      <psa10 value="0.0101282717" flag="0"/>
      <psa30 value="0.0003887618" flag="0"/>
    </comp>
  </station>
  <station code="PVO" name="PVO" netid="HP" insttype="120P," lat="38.616" lon="21.525">
    <comp name="--.HHE">
      <acc value="0.0139744289" flag="0"/>
      <vel value="0.0098991403" flag="0"/>
      <psa03 value="0.0287395476" flag="0"/>
      <psa10 value="0.0123241170" flag="0"/>
      <psa30 value="0.0010333658" flag="0"/>
    </comp>
    <comp name="--.HHN">
      <acc value="0.0174593749" flag="0"/>
      <vel value="0.0097285768" flag="0"/>
      <psa03 value="0.0452671831" flag="0"/>
      <psa10 value="0.0087188867" flag="0"/>
      <psa30 value="0.0005339231" flag="0"/>
    </comp>
    <comp name="--.HHZ">
      <acc value="0.0073971232" flag="0"/>
      <vel value="0.0041702673" flag="0"/>
      <psa03 value="0.0156948569" flag="0"/>
      <psa10 value="0.0044710319" flag="0"/>
      <psa30 value="0.0005349737" flag="0"/>
    </comp>
  </station>
  <station code="UPR" name="UPR" netid="HP" insttype="120" lat="38.2836" lon="21.7864">
    <comp name="--.HHE">
      <acc value="0.0083759956" flag="0"/>
      <vel value="0.0060865245" flag="0"/>
      <psa03 value="0.0220210782" flag="0"/>
      <psa10 value="0.0045169711" flag="0"/>
      <psa30 value="0.0005083989" flag="0"/>
    </comp>
    <comp name="--.HHN">
      <acc value="0.0098092881" flag="0"/>
      <vel value="0.0114775597" flag="0"/>
      <psa03 value="0.0250407932" flag="0"/>
      <psa10 value="0.0272532350" flag="0"/>
      <psa30 value="0.0018426189" flag="0"/>
    </comp>
    <comp name="--.HHZ">
      <acc value="0.0104061870" flag="0"/>
      <vel value="0.0065093178" flag="0"/>
      <psa03 value="0.0333401517" flag="0"/>
      <psa10 value="0.0050198884" flag="0"/>
      <psa30 value="0.0005705650" flag="0"/>
    </comp>
  </station>
  <station code="DMLN" name="DMLN" netid="HT" insttype="1s-100Hz," lat="38.2385" lon="20.3734">
    <comp name="--.HHZ">
      <acc value="0.0740705286" flag="0"/>
      <vel value="0.0233820068" flag="0"/>
      <psa03 value="0.1766961451" flag="0"/>
      <psa10 value="0.0172392274" flag="0"/>
      <psa30 value="0.0009537503" flag="0"/>
    </comp>
    <comp name="--.HHE">
      <acc value="0.1140366381" flag="0"/>
      <vel value="0.0432837113" flag="0"/>
      <psa03 value="0.2167106836" flag="0"/>
      <psa10 value="0.0444761015" flag="0"/>
      <psa30 value="0.0027883950" flag="0"/>
    </comp>
    <comp name="--.HHN">
      <acc value="0.0990631166" flag="0"/>
      <vel value="0.0506320047" flag="0"/>
      <psa03 value="0.2658836327" flag="0"/>
      <psa10 value="0.0484469944" flag="0"/>
      <psa30 value="0.0021732925" flag="0"/>
    </comp>
  </station>
  <station code="DRAG" name="DRAG" netid="HT" insttype="1s-100Hz," lat="38.6839" lon="20.5746">
    <comp name="--.HHZ">
      <acc value="0.0462095598" flag="0"/>
      <vel value="0.0132094047" flag="0"/>
      <psa03 value="0.0704738859" flag="0"/>
      <psa10 value="0.0127952496" flag="0"/>
      <psa30 value="0.0006584082" flag="0"/>
    </comp>
    <comp name="--.HHE">
      <acc value="0.1347032084" flag="0"/>
      <vel value="0.0621334775" flag="0"/>
      <psa03 value="0.3465968109" flag="0"/>
      <psa10 value="0.0706969425" flag="0"/>
      <psa30 value="0.0028678193" flag="0"/>
    </comp>
    <comp name="--.HHN">
      <acc value="0.1094102256" flag="0"/>
      <vel value="0.0475634806" flag="0"/>
      <psa03 value="0.2052693512" flag="0"/>
      <psa10 value="0.0554520883" flag="0"/>
      <psa30 value="0.0017176007" flag="0"/>
    </comp>
  </station>
  <station code="EVGI" name="EVGI" netid="HT" insttype="30" lat="38.621" lon="20.656">
    <comp name="--.HHN">
      <acc value="0.0661154709" flag="0"/>
      <vel value="0.0165574309" flag="0"/>
      <psa03 value="0.0921869636" flag="0"/>
      <psa10 value="0.0078952814" flag="0"/>
      <psa30 value="0.0007192603" flag="0"/>
    </comp>
    <comp name="--.HHE">
      <acc value="0.0483589372" flag="0"/>
      <vel value="0.0140086234" flag="0"/>
      <psa03 value="0.0510852701" flag="0"/>
      <psa10 value="0.0064198833" flag="0"/>
      <psa30 value="0.0008910704" flag="0"/>
    </comp>
    <comp name="--.HHZ">
      <acc value="0.0443961458" flag="0"/>
      <vel value="0.0114667631" flag="0"/>
      <psa03 value="0.0511059105" flag="0"/>
      <psa10 value="0.0074025338" flag="0"/>
      <psa30 value="0.0005441174" flag="0"/>
    </comp>
  </station>
  <station code="NYDR" name="NYDR" netid="HT" insttype="1s-100Hz," lat="38.7135" lon="20.6983">
    <comp name="--.HHE">
      <acc value="0.0198370092" flag="0"/>
      <vel value="0.0109630326" flag="0"/>
      <psa03 value="0.0427785360" flag="0"/>
      <psa10 value="0.0129549714" flag="0"/>
      <psa30 value="0.0011077767" flag="0"/>
    </comp>
    <comp name="--.HHN">
      <acc value="0.0252444495" flag="0"/>
      <vel value="0.0124698888" flag="0"/>
      <psa03 value="0.0515210208" flag="0"/>
      <psa10 value="0.0152961718" flag="0"/>
      <psa30 value="0.0008890855" flag="0"/>
    </comp>
    <comp name="--.HHZ">
      <acc value="0.0186553889" flag="0"/>
      <vel value="0.0068713248" flag="0"/>
      <psa03 value="0.0414667962" flag="0"/>
      <psa10 value="0.0082979438" flag="0"/>
      <psa30 value="0.0006491038" flag="0"/>
    </comp>
  </station>
  <station code="PSDA" name="PSDA" netid="HT" insttype="30" lat="38.114" lon="20.5841">
    <comp name="--.HHE">
      <acc value="0.1106619432" flag="0"/>
      <vel value="0.0338827300" flag="0"/>
      <psa03 value="0.2643538397" flag="0"/>
      <psa10 value="0.0127758712" flag="0"/>
      <psa30 value="0.0011158433" flag="0"/>
    </comp>
    <comp name="--.HHN">
      <acc value="0.1043152762" flag="0"/>
      <vel value="0.0247079304" flag="0"/>
      <psa03 value="0.1724220623" flag="0"/>
      <psa10 value="0.0157590382" flag="0"/>
      <psa30 value="0.0013129770" flag="0"/>
    </comp>
    <comp name="--.HHZ">
      <acc value="0.0891941513" flag="0"/>
      <vel value="0.0197081848" flag="0"/>
      <psa03 value="0.1151028039" flag="0"/>
      <psa10 value="0.0094457042" flag="0"/>
      <psa30 value="0.0008055519" flag="0"/>
    </comp>
  </station>
  <station code="RTZL" name="RTZL" netid="HT" insttype="Compact," lat="38.076" lon="20.7715">
    <comp name="--.HHE">
      <acc value="0.0422600471" flag="0"/>
      <vel value="0.0216573171" flag="0"/>
      <psa03 value="0.0793482928" flag="0"/>
      <psa10 value="0.0198765503" flag="0"/>
      <psa30 value="0.0008436417" flag="0"/>
    </comp>
    <comp name="--.HHN">
      <acc value="0.0430159767" flag="0"/>
      <vel value="0.0129150562" flag="0"/>
      <psa03 value="0.0727552693" flag="0"/>
      <psa10 value="0.0088633658" flag="0"/>
      <psa30 value="0.0008170431" flag="0"/>
    </comp>
    <comp name="--.HHZ">
      <acc value="0.0417877670" flag="0"/>
      <vel value="0.0103536462" flag="0"/>
      <psa03 value="0.0512198493" flag="0"/>
      <psa10 value="0.0070537559" flag="0"/>
      <psa30 value="0.0003775048" flag="0"/>
    </comp>
  </station>
  <station code="TSLK" name="TSLK" netid="HT" insttype="1s-100Hz," lat="38.8249" lon="20.6554">
    <comp name="--.HHN">
      <acc value="0.0377773994" flag="0"/>
      <vel value="0.0202241163" flag="0"/>
      <psa03 value="0.1092240296" flag="0"/>
      <psa10 value="0.0123634276" flag="0"/>
      <psa30 value="0.0015696788" flag="0"/>
    </comp>
    <comp name="--.HHE">
      <acc value="0.0371615787" flag="0"/>
      <vel value="0.0171356074" flag="0"/>
      <psa03 value="0.1154388712" flag="0"/>
      <psa10 value="0.0251513660" flag="0"/>
      <psa30 value="0.0017729396" flag="0"/>
    </comp>
    <comp name="--.HHZ">
      <acc value="0.0208805020" flag="0"/>
      <vel value="0.0110642853" flag="0"/>
      <psa03 value="0.0458733223" flag="0"/>
      <psa10 value="0.0079832643" flag="0"/>
      <psa30 value="0.0012571948" flag="0"/>
    </comp>
  </station>
</stationlist>
