<stationlist created="1775820612">
	<station code="MALA" name="MALA" netid="CL" source="Corinth Riff Laboratory (CRLNET)" insttype="" lat="38.39341" lon="21.87263">
		<comp name="01.HNE" depth="0.0">
			<acc value="0.0180890397326489" flag="0"/>
			<vel value="0.0188857430766436" flag="0"/>
			<psa03 value="0.0410038282815611" flag="0"/>
			<psa10 value="0.0355636921700776" flag="0"/>
			<psa30 value="0.00227685166358179" flag="0"/>
		</comp>
		<comp name="01.HNN" depth="0.0">
			<acc value="0.0127100551686319" flag="0"/>
			<vel value="0.0124422078956845" flag="0"/>
			<psa03 value="0.0303549275316352" flag="0"/>
			<psa10 value="0.0291763946679606" flag="0"/>
			<psa30 value="0.0012932156691913" flag="0"/>
		</comp>
		<comp name="01.HNZ" depth="0.0">
			<acc value="0.00729092196459782" flag="0"/>
			<vel value="0.00517613276670518" flag="0"/>
			<psa03 value="0.0198304139280099" flag="0"/>
			<psa10 value="0.00736828936301651" flag="0"/>
			<psa30 value="0.000691529664612164" flag="0"/>
		</comp>
	</station>
	<station code="ROD3" name="ROD3" netid="CL" source="Corinth Riff Laboratory (CRLNET)" insttype="" lat="38.30811" lon="21.89204">
		<comp name="00.HNE" depth="0.0">
			<acc value="0.0279939228998929" flag="0"/>
			<vel value="0.0139348883048121" flag="0"/>
			<psa03 value="0.0814565888077062" flag="0"/>
			<psa10 value="0.010732148764684" flag="0"/>
			<psa30 value="0.000576384068032118" flag="0"/>
		</comp>
		<comp name="00.HNN" depth="0.0">
			<acc value="0.0203940212159636" flag="0"/>
			<vel value="0.0100089456973216" flag="0"/>
			<psa03 value="0.0573715870441958" flag="0"/>
			<psa10 value="0.0108798354232018" flag="0"/>
			<psa30 value="0.000529417779664511" flag="0"/>
		</comp>
		<comp name="00.HNZ" depth="0.0">
			<acc value="0.00987562317609408" flag="0"/>
			<vel value="0.00416369498921221" flag="0"/>
			<psa03 value="0.0193796379725517" flag="0"/>
			<psa10 value="0.00486221303525144" flag="0"/>
			<psa30 value="0.000431424387039774" flag="0"/>
		</comp>
	</station>
	<station code="AIGS" name="AIGS" netid="HA" source="Hellenic Seismological Network, University of Athens, Seismological Laboratory (HA)" insttype="" lat="38.25001" lon="22.0878">
		<comp name="--.HNE" depth="0.0">
			<acc value="0.00760757420221204" flag="0"/>
			<vel value="0.00432029747899201" flag="0"/>
			<psa03 value="0.00539636887620471" flag="0"/>
			<psa10 value="0.00427017678450107" flag="0"/>
			<psa30 value="0.000722124712218754" flag="0"/>
		</comp>
		<comp name="--.HNN" depth="0.0">
			<acc value="0.00740132062825759" flag="0"/>
			<vel value="0.00516310489043648" flag="0"/>
			<psa03 value="0.00338199454835465" flag="0"/>
			<psa10 value="0.00482794045235606" flag="0"/>
			<psa30 value="0.000691176099525586" flag="0"/>
		</comp>
		<comp name="--.HNZ" depth="0.0">
			<acc value="0.00762292599906087" flag="0"/>
			<vel value="0.00422454248836679" flag="0"/>
			<psa03 value="0.00256125202714577" flag="0"/>
			<psa10 value="0.00405391542700737" flag="0"/>
			<psa30 value="0.000678344832850535" flag="0"/>
		</comp>
	</station>
	<station code="KIAS" name="KIAS" netid="HA" source="Hellenic Seismological Network, University of Athens, Seismological Laboratory (HA)" insttype="" lat="37.9875" lon="22.7543">
		<comp name="--.HNE" depth="0.0">
			<acc value="0.00601612212603681" flag="0"/>
			<vel value="0.00488397649820162" flag="0"/>
			<psa03 value="0.0107362978156009" flag="0"/>
			<psa10 value="0.0076788052456499" flag="0"/>
			<psa30 value="0.00186990866393661" flag="0"/>
		</comp>
		<comp name="--.HNN" depth="0.0">
			<acc value="0.00444728820990959" flag="0"/>
			<vel value="0.00456991368537061" flag="0"/>
			<psa03 value="0.011204306032388" flag="0"/>
			<psa10 value="0.0100454951522542" flag="0"/>
			<psa30 value="0.000993575194479938" flag="0"/>
		</comp>
		<comp name="--.HNZ" depth="0.0">
			<acc value="0.0063336771648172" flag="0"/>
			<vel value="0.00312941768449309" flag="0"/>
			<psa03 value="0.00753646605078272" flag="0"/>
			<psa10 value="0.00411521698791615" flag="0"/>
			<psa30 value="0.000809939175330909" flag="0"/>
		</comp>
	</station>
	<station code="XLKS" name="XLKS" netid="HA" source="Hellenic Seismological Network, University of Athens, Seismological Laboratory (HA)" insttype="" lat="38.0772" lon="22.6361">
		<comp name="--.HNE" depth="0.0">
			<acc value="0.00969111475671502" flag="0"/>
			<vel value="0.00923265784328389" flag="0"/>
			<psa03 value="0.0244854605832497" flag="0"/>
			<psa10 value="0.0199138566952581" flag="0"/>
			<psa30 value="0.00141067147089488" flag="0"/>
		</comp>
		<comp name="--.HNN" depth="0.0">
			<acc value="0.0108208137619375" flag="0"/>
			<vel value="0.00866376219678293" flag="0"/>
			<psa03 value="0.0228816355877158" flag="0"/>
			<psa10 value="0.0170465423747755" flag="0"/>
			<psa30 value="0.00172782133468189" flag="0"/>
		</comp>
		<comp name="--.HNZ" depth="0.0">
			<acc value="0.0100391877043874" flag="0"/>
			<vel value="0.00526610370338233" flag="0"/>
			<psa03 value="0.0223624189005219" flag="0"/>
			<psa10 value="0.00518203000282484" flag="0"/>
			<psa30 value="0.000748183469732025" flag="0"/>
		</comp>
	</station>
	<station code="ARG2" name="ARG2" netid="HI" source="ITSAK Strong Motion Network" insttype="" lat="38.1783" lon="20.4878">
		<comp name="--.HNE" depth="0.0">
			<acc value="0.204674749338414" flag="0"/>
			<vel value="0.0591818786788398" flag="0"/>
			<psa03 value="0.272516282033098" flag="0"/>
			<psa10 value="0.0207584276439638" flag="0"/>
			<psa30 value="0.00173248518530739" flag="0"/>
		</comp>
		<comp name="--.HNN" depth="0.0">
			<acc value="0.143581377233153" flag="0"/>
			<vel value="0.0445105814466748" flag="0"/>
			<psa03 value="0.296379904547463" flag="0"/>
			<psa10 value="0.0245377836327566" flag="0"/>
			<psa30 value="0.00236661490162369" flag="0"/>
		</comp>
		<comp name="--.HNZ" depth="0.0">
			<acc value="0.0994757949896414" flag="0"/>
			<vel value="0.0283394077196529" flag="0"/>
			<psa03 value="0.259602676570059" flag="0"/>
			<psa10 value="0.0137616585173575" flag="0"/>
			<psa30 value="0.00118854873552161" flag="0"/>
		</comp>
	</station>
	<station code="ART2" name="ART2" netid="HI" source="ITSAK Strong Motion Network" insttype="" lat="39.1474" lon="20.9937">
		<comp name="--.HNE" depth="0.0">
			<acc value="0.00351434791578993" flag="0"/>
			<vel value="0.0026369887449214" flag="0"/>
			<psa03 value="0.0112688780182677" flag="0"/>
			<psa10 value="0.003292666794892" flag="0"/>
			<psa30 value="0.000465943522723774" flag="0"/>
		</comp>
		<comp name="--.HNN" depth="0.0">
			<acc value="0.00407027253771185" flag="0"/>
			<vel value="0.00297119980335634" flag="0"/>
			<psa03 value="0.011099571229614" flag="0"/>
			<psa10 value="0.0043222982060502" flag="0"/>
			<psa30 value="0.000456519981791501" flag="0"/>
		</comp>
		<comp name="--.HNZ" depth="0.0">
			<acc value="0.00271015485193608" flag="0"/>
			<vel value="0.00223109675815104" flag="0"/>
			<psa03 value="0.0083738717852075" flag="0"/>
			<psa10 value="0.00322022254269014" flag="0"/>
			<psa30 value="0.000813321638984016" flag="0"/>
		</comp>
	</station>
	<station code="KRI1" name="KRI1" netid="HI" source="ITSAK Strong Motion Network" insttype="" lat="37.6621" lon="20.8172">
		<comp name="--.HNE" depth="0.0">
			<acc value="0.0767299270909629" flag="0"/>
			<vel value="0.0302251180485765" flag="0"/>
			<psa03 value="0.224823247603372" flag="0"/>
			<psa10 value="0.0170454248007306" flag="0"/>
			<psa30 value="0.0013496551371954" flag="0"/>
		</comp>
		<comp name="--.HNN" depth="0.0">
			<acc value="0.0918302440909525" flag="0"/>
			<vel value="0.0445560796524544" flag="0"/>
			<psa03 value="0.216784694255577" flag="0"/>
			<psa10 value="0.0580086590387841" flag="0"/>
			<psa30 value="0.00291101971576791" flag="0"/>
		</comp>
		<comp name="--.HNZ" depth="0.0">
			<acc value="0.0685149947142427" flag="0"/>
			<vel value="0.0273239942656901" flag="0"/>
			<psa03 value="0.156030971702986" flag="0"/>
			<psa10 value="0.0110798896133063" flag="0"/>
			<psa30 value="0.00111836512786925" flag="0"/>
		</comp>
	</station>
	<station code="MSL1" name="MSL1" netid="HI" source="ITSAK Strong Motion Network" insttype="" lat="38.3727" lon="21.4243">
		<comp name="--.HNE" depth="0.0">
			<acc value="0.0436985833773319" flag="0"/>
			<vel value="0.0436794220122066" flag="0"/>
			<psa03 value="0.109585894944458" flag="0"/>
			<psa10 value="0.134302846904448" flag="0"/>
			<psa30 value="0.00383713585808655" flag="0"/>
		</comp>
		<comp name="--.HNN" depth="0.0">
			<acc value="0.0345424087648924" flag="0"/>
			<vel value="0.0372207792770809" flag="0"/>
			<psa03 value="0.0903359530636136" flag="0"/>
			<psa10 value="0.0661198426150544" flag="0"/>
			<psa30 value="0.00225545732964482" flag="0"/>
		</comp>
		<comp name="--.HNZ" depth="0.0">
			<acc value="0.0166274111860236" flag="0"/>
			<vel value="0.0172664978929968" flag="0"/>
			<psa03 value="0.0421317050812078" flag="0"/>
			<psa10 value="0.0350195086205968" flag="0"/>
			<psa30 value="0.00124766077640257" flag="0"/>
		</comp>
	</station>
	<station code="PYL1" name="PYL1" netid="HI" source="ITSAK Strong Motion Network" insttype="" lat="36.914188" lon="21.695161">
		<comp name="--.HNE" depth="0.0">
			<acc value="0.00272558887555699" flag="0"/>
			<vel value="0.00269261780342274" flag="0"/>
			<psa03 value="0.0100855619992047" flag="0"/>
			<psa10 value="0.00241682088377401" flag="0"/>
			<psa30 value="0.000290712174921532" flag="0"/>
		</comp>
		<comp name="--.HNN" depth="0.0">
			<acc value="0.00232624963198153" flag="0"/>
			<vel value="0.00183449921178467" flag="0"/>
			<psa03 value="0.00650399400872213" flag="0"/>
			<psa10 value="0.00279846890045717" flag="0"/>
			<psa30 value="0.000223443786429053" flag="0"/>
		</comp>
		<comp name="--.HNZ" depth="0.0">
			<acc value="0.00170136797922829" flag="0"/>
			<vel value="0.00113004065017433" flag="0"/>
			<psa03 value="0.00392790473565998" flag="0"/>
			<psa10 value="0.00155517493677029" flag="0"/>
			<psa30 value="0.000138867558669228" flag="0"/>
		</comp>
	</station>
	<station code="VAS2" name="VAS2" netid="HI" source="ITSAK Strong Motion Network" insttype="" lat="38.630558" lon="20.608081">
		<comp name="--.HNE" depth="0.0">
			<acc value="0.0824112512634737" flag="0"/>
			<vel value="0.0486787871916263" flag="0"/>
			<psa03 value="0.245705151760664" flag="0"/>
			<psa10 value="0.0526752357258038" flag="0"/>
			<psa30 value="0.00343052975575845" flag="0"/>
		</comp>
		<comp name="--.HNN" depth="0.0">
			<acc value="0.103645398450868" flag="0"/>
			<vel value="0.0621866207902546" flag="0"/>
			<psa03 value="0.255290640918696" flag="0"/>
			<psa10 value="0.0749008318126839" flag="0"/>
			<psa30 value="0.0039163915250502" flag="0"/>
		</comp>
		<comp name="--.HNZ" depth="0.0">
			<acc value="0.0463854531043244" flag="0"/>
			<vel value="0.0350980505178263" flag="0"/>
			<psa03 value="0.15119552637829" flag="0"/>
			<psa10 value="0.0335599119294807" flag="0"/>
			<psa30 value="0.00167669565619378" flag="0"/>
		</comp>
	</station>
	<station code="ITM" name="ITM" netid="HL" source="National Observatory of Athens Seismic Network" insttype="" lat="37.17872" lon="21.92522">
		<comp name="--.HNE" depth="0.0">
			<acc value="0.0037695344056319" flag="0"/>
			<vel value="0.00282984557125377" flag="0"/>
			<psa03 value="0.0111320994261226" flag="0"/>
			<psa10 value="0.00369999229383205" flag="0"/>
			<psa30 value="0.00069033036641681" flag="0"/>
		</comp>
		<comp name="--.HNN" depth="0.0">
			<acc value="0.0038310033063566" flag="0"/>
			<vel value="0.00283854162719559" flag="0"/>
			<psa03 value="0.0160152705684877" flag="0"/>
			<psa10 value="0.00565082137043607" flag="0"/>
			<psa30 value="0.000415396346094478" flag="0"/>
		</comp>
		<comp name="--.HNZ" depth="0.0">
			<acc value="0.00261231387387833" flag="0"/>
			<vel value="0.00248289322788668" flag="0"/>
			<psa03 value="0.00696495683689769" flag="0"/>
			<psa10 value="0.00390639166990067" flag="0"/>
			<psa30 value="0.000464657760464687" flag="0"/>
		</comp>
	</station>
	<station code="PATC" name="PATC" netid="HL" source="National Observatory of Athens Seismic Network" insttype="" lat="38.26933" lon="21.76001">
		<comp name="00.HNE" depth="0.0">
			<acc value="0.0169162115587946" flag="0"/>
			<vel value="0.015739904318574" flag="0"/>
			<psa03 value="0.051565733685101" flag="0"/>
			<psa10 value="0.0376644463347032" flag="0"/>
			<psa30 value="0.00296508996432672" flag="0"/>
		</comp>
		<comp name="00.HNN" depth="0.0">
			<acc value="0.0160440629706334" flag="0"/>
			<vel value="0.0134369829834537" flag="0"/>
			<psa03 value="0.0569421054682047" flag="0"/>
			<psa10 value="0.01999457891772" flag="0"/>
			<psa30 value="0.00163361342720342" flag="0"/>
		</comp>
		<comp name="00.HNZ" depth="0.0">
			<acc value="0.0147514827784337" flag="0"/>
			<vel value="0.00849310105089046" flag="0"/>
			<psa03 value="0.0402603180901386" flag="0"/>
			<psa10 value="0.0132212083401821" flag="0"/>
			<psa30 value="0.00118319035972111" flag="0"/>
		</comp>
	</station>
	<station code="PATG" name="PATG" netid="HL" source="National Observatory of Athens Seismic Network" insttype="" lat="38.23865" lon="21.72657">
		<comp name="00.HNE" depth="0.0">
			<acc value="0.0247484973804386" flag="0"/>
			<vel value="0.0196168682681092" flag="0"/>
			<psa03 value="0.0434095892138947" flag="0"/>
			<psa10 value="0.0370442227479549" flag="0"/>
			<psa30 value="0.00318967400858402" flag="0"/>
		</comp>
		<comp name="00.HNN" depth="0.0">
			<acc value="0.0257577295523346" flag="0"/>
			<vel value="0.0203304242040389" flag="0"/>
			<psa03 value="0.0615345763638194" flag="0"/>
			<psa10 value="0.0272170623718044" flag="0"/>
			<psa30 value="0.00318784347065333" flag="0"/>
		</comp>
		<comp name="00.HNZ" depth="0.0">
			<acc value="0.0233838932288481" flag="0"/>
			<vel value="0.00922451783451643" flag="0"/>
			<psa03 value="0.0647964122359699" flag="0"/>
			<psa10 value="0.0120716334364648" flag="0"/>
			<psa30 value="0.00160808048577564" flag="0"/>
		</comp>
	</station>
	<station code="RIOA" name="RIOA" netid="HL" source="National Observatory of Athens Seismic Network" insttype="" lat="38.29585" lon="21.79118">
		<comp name="00.HNE" depth="0.0">
			<acc value="0.0110179191557522" flag="0"/>
			<vel value="0.00867878461466339" flag="0"/>
			<psa03 value="0.0345935025872654" flag="0"/>
			<psa10 value="0.0131408545796171" flag="0"/>
			<psa30 value="0.00141268285414019" flag="0"/>
		</comp>
		<comp name="00.HNN" depth="0.0">
			<acc value="0.0137194135982666" flag="0"/>
			<vel value="0.00949243503993957" flag="0"/>
			<psa03 value="0.0388947432525224" flag="0"/>
			<psa10 value="0.0119981613818015" flag="0"/>
			<psa30 value="0.00160191184796429" flag="0"/>
		</comp>
		<comp name="00.HNZ" depth="0.0">
			<acc value="0.0122399189933515" flag="0"/>
			<vel value="0.00671864113675515" flag="0"/>
			<psa03 value="0.0187671156251288" flag="0"/>
			<psa10 value="0.00721828130069173" flag="0"/>
			<psa30 value="0.000878856136572456" flag="0"/>
		</comp>
	</station>
	<station code="ANX" name="ANX" netid="HP" source="University of Patras, Seismological Laboratory (PSLNET)" insttype="" lat="38.5933" lon="21.9209">
		<comp name="--.HNE" depth="0.0">
			<acc value="0.0126195445389833" flag="0"/>
			<vel value="0.00905616325969418" flag="0"/>
			<psa03 value="0.0362530682545329" flag="0"/>
			<psa10 value="0.0128941229223794" flag="0"/>
			<psa30 value="0.000457005899399021" flag="0"/>
		</comp>
		<comp name="--.HNN" depth="0.0">
			<acc value="0.0111120281330994" flag="0"/>
			<vel value="0.00940308906174401" flag="0"/>
			<psa03 value="0.0265366771954787" flag="0"/>
			<psa10 value="0.0141785201948844" flag="0"/>
			<psa30 value="0.000784285809251789" flag="0"/>
		</comp>
		<comp name="--.HNZ" depth="0.0">
			<acc value="0.00541026643759274" flag="0"/>
			<vel value="0.00490926460500864" flag="0"/>
			<psa03 value="0.0145271641762268" flag="0"/>
			<psa10 value="0.00867751140502995" flag="0"/>
			<psa30 value="0.000559762341924395" flag="0"/>
		</comp>
	</station>
	<station code="FSK" name="FSK" netid="HP" source="University of Patras, Seismological Laboratory (PSLNET)" insttype="" lat="38.4593" lon="20.5623">
		<comp name="--.HNE" depth="0.0">
			<acc value="0.038058654634617" flag="0"/>
			<vel value="0.0197822412410787" flag="0"/>
			<psa03 value="0.0848640124493148" flag="0"/>
			<psa10 value="0.0183334232493269" flag="0"/>
			<psa30 value="0.00135043800155764" flag="0"/>
		</comp>
		<comp name="--.HNN" depth="0.0">
			<acc value="0.0310632119255328" flag="0"/>
			<vel value="0.0141162150936167" flag="0"/>
			<psa03 value="0.0830984423641277" flag="0"/>
			<psa10 value="0.014840396853462" flag="0"/>
			<psa30 value="0.00090843122077457" flag="0"/>
		</comp>
		<comp name="--.HNZ" depth="0.0">
			<acc value="0.0227722600268929" flag="0"/>
			<vel value="0.00971982494153423" flag="0"/>
			<psa03 value="0.0550147798758126" flag="0"/>
			<psa10 value="0.0095066425809253" flag="0"/>
			<psa30 value="0.000675435629713438" flag="0"/>
		</comp>
	</station>
	<station code="GUR" name="GUR" netid="HP" source="University of Patras, Seismological Laboratory (PSLNET)" insttype="" lat="37.9363" lon="22.3423">
		<comp name="--.HNE" depth="0.0">
			<acc value="0.00772387726101064" flag="0"/>
			<vel value="0.00521136815086861" flag="0"/>
			<psa03 value="0.0182087856697641" flag="0"/>
			<psa10 value="0.00546766720613665" flag="0"/>
			<psa30 value="0.000282137909001623" flag="0"/>
		</comp>
		<comp name="--.HNN" depth="0.0">
			<acc value="0.00604840093648415" flag="0"/>
			<vel value="0.00390330778011603" flag="0"/>
			<psa03 value="0.0171821173976207" flag="0"/>
			<psa10 value="0.0048062583910466" flag="0"/>
			<psa30 value="0.000389586016495124" flag="0"/>
		</comp>
		<comp name="--.HNZ" depth="0.0">
			<acc value="0.00372490259235488" flag="0"/>
			<vel value="0.00241791400431568" flag="0"/>
			<psa03 value="0.00784932857325942" flag="0"/>
			<psa10 value="0.00409049159999842" flag="0"/>
			<psa30 value="0.000222676990841064" flag="0"/>
		</comp>
	</station>
	<station code="PDO" name="PDO" netid="HP" source="University of Patras, Seismological Laboratory (PSLNET)" insttype="" lat="38.5986" lon="21.1833">
		<comp name="--.HNE" depth="0.0">
			<acc value="0.0261829148127231" flag="0"/>
			<vel value="0.0126746496472314" flag="0"/>
			<psa03 value="0.116072960097166" flag="0"/>
			<psa10 value="0.0124833975888442" flag="0"/>
			<psa30 value="0.00084273942109983" flag="0"/>
		</comp>
		<comp name="--.HNN" depth="0.0">
			<acc value="0.0387848574161088" flag="0"/>
			<vel value="0.0176504798064358" flag="0"/>
			<psa03 value="0.120188680660268" flag="0"/>
			<psa10 value="0.0182873251955457" flag="0"/>
			<psa30 value="0.000778823676578392" flag="0"/>
		</comp>
		<comp name="--.HNZ" depth="0.0">
			<acc value="0.0248300258757364" flag="0"/>
			<vel value="0.0114515875698353" flag="0"/>
			<psa03 value="0.0872811777828269" flag="0"/>
			<psa10 value="0.0107180393924927" flag="0"/>
			<psa30 value="0.000704588081752162" flag="0"/>
		</comp>
	</station>
	<station code="PVO" name="PVO" netid="HP" source="University of Patras, Seismological Laboratory (PSLNET)" insttype="" lat="38.616" lon="21.525">
		<comp name="--.HNE" depth="0.0">
			<acc value="0.0118198175096626" flag="0"/>
			<vel value="0.00876488469191786" flag="0"/>
			<psa03 value="0.0250658401763726" flag="0"/>
			<psa10 value="0.0105894555619659" flag="0"/>
			<psa30 value="0.000788328785412358" flag="0"/>
		</comp>
		<comp name="--.HNN" depth="0.0">
			<acc value="0.0170526845245809" flag="0"/>
			<vel value="0.00954291717591635" flag="0"/>
			<psa03 value="0.0443981078234333" flag="0"/>
			<psa10 value="0.0084163834815833" flag="0"/>
			<psa30 value="0.000553902109964321" flag="0"/>
		</comp>
		<comp name="--.HNZ" depth="0.0">
			<acc value="0.00714982838386073" flag="0"/>
			<vel value="0.00411697174741534" flag="0"/>
