<stationlist xmlns:esm="https://esm-db.eu/esmws/shakemap/1/" created="1783994384">
	<station code="ROD3" name="ROD3" netid="CL" source="Corinth Riff Laboratory (CRLNET)" insttype="" lat="38.30811" lon="21.89204" esm:processing="automatic (Paolucci et al 2011)" esm:quality="good">
		<comp name="00.HNE" depth="0.0">
			<acc value="0.0279939228998929" flag="0"/>
			<vel value="0.0139348883048121" flag="0"/>
			<psa03 value="0.0814565888077062" flag="0"/>
			<psa10 value="0.010732148764684" flag="0"/>
			<psa30 value="0.000576384068032118" flag="0"/>
		</comp>
		<comp name="00.HNN" depth="0.0">
			<acc value="0.0203940212159636" flag="0"/>
			<vel value="0.0100089456973216" flag="0"/>
			<psa03 value="0.0573715870441958" flag="0"/>
			<psa10 value="0.0108798354232018" flag="0"/>
			<psa30 value="0.000529417779664511" flag="0"/>
		</comp>
		<comp name="00.HNZ" depth="0.0">
			<acc value="0.00987562317609408" flag="0"/>
			<vel value="0.00416369498921221" flag="0"/>
			<psa03 value="0.0193796379725517" flag="0"/>
			<psa10 value="0.00486221303525144" flag="0"/>
			<psa30 value="0.000431424387039774" flag="0"/>
		</comp>
	</station>
	<station code="XLKS" name="XLKS" netid="HA" source="Hellenic Seismological Network, University of Athens, Seismological Laboratory (HA)" insttype="" lat="38.0772" lon="22.6361" esm:processing="automatic (Paolucci et al 2011)" esm:quality="good">
		<comp name="--.HNE" depth="0.0">
			<acc value="0.00969111475671502" flag="0"/>
			<vel value="0.00923265784328389" flag="0"/>
			<psa03 value="0.0244854605832497" flag="0"/>
			<psa10 value="0.0199138566952581" flag="0"/>
			<psa30 value="0.00141067147089488" flag="0"/>
		</comp>
		<comp name="--.HNN" depth="0.0">
			<acc value="0.0108208137619375" flag="0"/>
			<vel value="0.00866376219678293" flag="0"/>
			<psa03 value="0.0228816355877158" flag="0"/>
			<psa10 value="0.0170465423747755" flag="0"/>
			<psa30 value="0.00172782133468189" flag="0"/>
		</comp>
		<comp name="--.HNZ" depth="0.0">
			<acc value="0.0100391877043874" flag="0"/>
			<vel value="0.00526610370338233" flag="0"/>
			<psa03 value="0.0223624189005219" flag="0"/>
			<psa10 value="0.00518203000282484" flag="0"/>
			<psa30 value="0.000748183469732025" flag="0"/>
		</comp>
	</station>
	<station code="AOL1" name="AOL1" netid="HI" source="ITSAK Strong Motion Network" insttype="" lat="37.642378" lon="21.624555" esm:processing="manual (Paolucci et al 2011)" esm:quality="good">
		<comp name="--.HNE" depth="0.0">
			<acc value="0.019635167283372" flag="0"/>
			<vel value="0.013634542872981" flag="0"/>
			<psa03 value="0.0481579818966202" flag="0"/>
			<psa10 value="0.0198759004308577" flag="0"/>
			<psa30 value="0.00154621430410922" flag="0"/>
		</comp>
		<comp name="--.HNN" depth="0.0">
			<acc value="0.0201269088622342" flag="0"/>
			<vel value="0.0142916397952548" flag="0"/>
			<psa03 value="0.0500318664489419" flag="0"/>
			<psa10 value="0.0128472204403033" flag="0"/>
			<psa30 value="0.00117495054304045" flag="0"/>
		</comp>
		<comp name="--.HNZ" depth="0.0">
			<acc value="0.013624957260533" flag="0"/>
			<vel value="0.00779165478897995" flag="0"/>
			<psa03 value="0.0520598757946081" flag="0"/>
			<psa10 value="0.0110486322301614" flag="0"/>
			<psa30 value="0.00054503240780547" flag="0"/>
		</comp>
	</station>
	<station code="ARG2" name="ARG2" netid="HI" source="ITSAK Strong Motion Network" insttype="" lat="38.1783" lon="20.4878" esm:processing="manual (Paolucci et al 2011)" esm:quality="best">
		<comp name="--.HNE" depth="0.0">
			<acc value="0.204674749338414" flag="0"/>
			<vel value="0.0591818786788398" flag="0"/>
			<psa03 value="0.272516282033098" flag="0"/>
			<psa10 value="0.0207584276439638" flag="0"/>
			<psa30 value="0.00173248518530739" flag="0"/>
		</comp>
		<comp name="--.HNN" depth="0.0">
			<acc value="0.143581377233153" flag="0"/>
			<vel value="0.0445105814466748" flag="0"/>
			<psa03 value="0.296379904547463" flag="0"/>
			<psa10 value="0.0245377836327566" flag="0"/>
			<psa30 value="0.00236661490162369" flag="0"/>
		</comp>
		<comp name="--.HNZ" depth="0.0">
			<acc value="0.0994757949896414" flag="0"/>
			<vel value="0.0283394077196529" flag="0"/>
			<psa03 value="0.259602676570059" flag="0"/>
			<psa10 value="0.0137616585173575" flag="0"/>
			<psa30 value="0.00118854873552161" flag="0"/>
		</comp>
	</station>
	<station code="ART2" name="ART2" netid="HI" source="ITSAK Strong Motion Network" insttype="" lat="39.1474" lon="20.9937" esm:processing="manual (Paolucci et al 2011)" esm:quality="bad">
		<comp name="--.HNE" depth="0.0">
			<acc value="0.00351434791578993" flag="0"/>
			<vel value="0.0026369887449214" flag="0"/>
			<psa03 value="0.0112688780182677" flag="0"/>
			<psa10 value="0.003292666794892" flag="0"/>
			<psa30 value="0.000465943522723774" flag="0"/>
		</comp>
		<comp name="--.HNN" depth="0.0">
			<acc value="0.00407027253771185" flag="0"/>
			<vel value="0.00297119980335634" flag="0"/>
			<psa03 value="0.011099571229614" flag="0"/>
			<psa10 value="0.0043222982060502" flag="0"/>
			<psa30 value="0.000456519981791501" flag="0"/>
		</comp>
		<comp name="--.HNZ" depth="0.0">
			<acc value="0.00271015485193608" flag="0"/>
			<vel value="0.00223109675815104" flag="0"/>
			<psa03 value="0.0083738717852075" flag="0"/>
			<psa10 value="0.00322022254269014" flag="0"/>
			<psa30 value="0.000813321638984016" flag="0"/>
		</comp>
	</station>
	<station code="AST1" name="AST1" netid="HI" source="ITSAK Strong Motion Network" insttype="" lat="38.5416" lon="21.0895" esm:processing="automatic (Paolucci et al 2011)" esm:quality="best">
		<comp name="--.HNE" depth="0.0">
			<acc value="0.01691964051097" flag="0"/>
			<vel value="0.0101914948954879" flag="0"/>
			<psa03 value="0.050989471552247" flag="0"/>
			<psa10 value="0.00944729771210849" flag="0"/>
			<psa30 value="0.00155055438328483" flag="0"/>
		</comp>
		<comp name="--.HNN" depth="0.0">
			<acc value="0.0184209434859511" flag="0"/>
			<vel value="0.0101304880747634" flag="0"/>
			<psa03 value="0.0622349717197764" flag="0"/>
			<psa10 value="0.0132160517485673" flag="0"/>
			<psa30 value="0.000644687342789165" flag="0"/>
		</comp>
		<comp name="--.HNZ" depth="0.0">
			<acc value="0.0162812213292051" flag="0"/>
			<vel value="0.00768077292063634" flag="0"/>
			<psa03 value="0.0319923823591542" flag="0"/>
			<psa10 value="0.0136780167264799" flag="0"/>
			<psa30 value="0.000485825464802735" flag="0"/>
		</comp>
	</station>
	<station code="IGM2" name="IGM2" netid="HI" source="ITSAK Strong Motion Network" insttype="" lat="39.486153" lon="20.259241" esm:processing="manual (Paolucci et al 2011)" esm:quality="good">
		<comp name="--.HNE" depth="0.0">
			<acc value="0.03398533839643" flag="0"/>
			<vel value="0.0345910121908462" flag="0"/>
			<psa03 value="0.0519870011753556" flag="0"/>
			<psa10 value="0.0607764173893768" flag="0"/>
			<psa30 value="0.00230800956097296" flag="0"/>
		</comp>
		<comp name="--.HNN" depth="0.0">
			<acc value="0.0339036589593036" flag="0"/>
			<vel value="0.037442280973612" flag="0"/>
			<psa03 value="0.0615029753119401" flag="0"/>
			<psa10 value="0.056549827398533" flag="0"/>
			<psa30 value="0.00226064579835613" flag="0"/>
		</comp>
		<comp name="--.HNZ" depth="0.0">
			<acc value="0.0176397876000836" flag="0"/>
			<vel value="0.00965693622705968" flag="0"/>
			<psa03 value="0.0522574565916996" flag="0"/>
			<psa10 value="0.0071829464599509" flag="0"/>
			<psa30 value="0.000335147957115671" flag="0"/>
		</comp>
	</station>
	<station code="KAC1" name="KAC1" netid="HI" source="ITSAK Strong Motion Network" insttype="" lat="38.143412" lon="21.549694" esm:processing="automatic (Paolucci et al 2011)" esm:quality="best">
		<comp name="--.HNE" depth="0.0">
			<acc value="0.0285636204522244" flag="0"/>
			<vel value="0.030083952011416" flag="0"/>
			<psa03 value="0.0805786660661673" flag="0"/>
			<psa10 value="0.0349386945170415" flag="0"/>
			<psa30 value="0.00211948957244893" flag="0"/>
		</comp>
		<comp name="--.HNN" depth="0.0">
			<acc value="0.0320006662682783" flag="0"/>
			<vel value="0.0271436843655562" flag="0"/>
			<psa03 value="0.123562133301586" flag="0"/>
			<psa10 value="0.03434196998697" flag="0"/>
			<psa30 value="0.00203358075641148" flag="0"/>
		</comp>
		<comp name="--.HNZ" depth="0.0">
			<acc value="0.0151717437663995" flag="0"/>
			<vel value="0.0126947098302658" flag="0"/>
			<psa03 value="0.0406346710141967" flag="0"/>
			<psa10 value="0.020270306558328" flag="0"/>
			<psa30 value="0.00181952178438847" flag="0"/>
		</comp>
	</station>
	<station code="KRI1" name="KRI1" netid="HI" source="ITSAK Strong Motion Network" insttype="" lat="37.6621" lon="20.8172" esm:processing="manual (Paolucci et al 2011)" esm:quality="best">
		<comp name="--.HNE" depth="0.0">
			<acc value="0.0767299270909629" flag="0"/>
			<vel value="0.0302251180485765" flag="0"/>
			<psa03 value="0.224823247603372" flag="0"/>
			<psa10 value="0.0170454248007306" flag="0"/>
			<psa30 value="0.0013496551371954" flag="0"/>
		</comp>
		<comp name="--.HNN" depth="0.0">
			<acc value="0.0918302440909525" flag="0"/>
			<vel value="0.0445560796524544" flag="0"/>
			<psa03 value="0.216784694255577" flag="0"/>
			<psa10 value="0.0580086590387841" flag="0"/>
			<psa30 value="0.00291101971576791" flag="0"/>
		</comp>
		<comp name="--.HNZ" depth="0.0">
			<acc value="0.0685149947142427" flag="0"/>
			<vel value="0.0273239942656901" flag="0"/>
			<psa03 value="0.156030971702986" flag="0"/>
			<psa10 value="0.0110798896133063" flag="0"/>
			<psa30 value="0.00111836512786925" flag="0"/>
		</comp>
	</station>
	<station code="LEF2" name="LEF2" netid="HI" source="ITSAK Strong Motion Network" insttype="" lat="38.830093" lon="20.708346" esm:processing="manual (Paolucci et al 2011)" esm:quality="good">
		<comp name="--.HNE" depth="0.0">
			<acc value="0.0370908319081659" flag="0"/>
			<vel value="0.0347117497312033" flag="0"/>
			<psa03 value="0.12705292704954" flag="0"/>
			<psa10 value="0.053004113762406" flag="0"/>
			<psa30 value="0.00518319794475936" flag="0"/>
		</comp>
		<comp name="--.HNN" depth="0.0">
			<acc value="0.0581741361327685" flag="0"/>
			<vel value="0.0365677757467345" flag="0"/>
			<psa03 value="0.145675285689406" flag="0"/>
			<psa10 value="0.0363288891106106" flag="0"/>
			<psa30 value="0.00403461519012215" flag="0"/>
		</comp>
		<comp name="--.HNZ" depth="0.0">
			<acc value="0.0228205572796092" flag="0"/>
			<vel value="0.0215371170581044" flag="0"/>
			<psa03 value="0.0670143612475432" flag="0"/>
			<psa10 value="0.0314600540741845" flag="0"/>
			<psa30 value="0.00189744361299386" flag="0"/>
		</comp>
	</station>
	<station code="LXR1" name="LXR1" netid="HI" source="ITSAK Strong Motion Network" insttype="" lat="38.201" lon="20.4374" esm:processing="automatic (Paolucci et al 2011)" esm:quality="best">
		<comp name="--.HNE" depth="0.0">
			<acc value="0.173701014162557" flag="0"/>
			<vel value="0.0888673044538624" flag="0"/>
			<psa03 value="0.534065587557451" flag="0"/>
			<psa10 value="0.0939175990800153" flag="0"/>
			<psa30 value="0.00394020018559146" flag="0"/>
		</comp>
		<comp name="--.HNN" depth="0.0">
			<acc value="0.203505857259197" flag="0"/>
			<vel value="0.0996556705147299" flag="0"/>
			<psa03 value="0.598911258264889" flag="0"/>
			<psa10 value="0.053152038561698" flag="0"/>
			<psa30 value="0.00378189094838144" flag="0"/>
		</comp>
		<comp name="--.HNZ" depth="0.0">
			<acc value="0.202512425121053" flag="0"/>
			<vel value="0.0695499611099152" flag="0"/>
			<psa03 value="0.346235498902567" flag="0"/>
			<psa10 value="0.0333728682887386" flag="0"/>
			<psa30 value="0.00202926838740487" flag="0"/>
		</comp>
	</station>
	<station code="MGP1" name="MGP1" netid="HI" source="ITSAK Strong Motion Network" insttype="" lat="37.403248" lon="22.140703" esm:processing="manual (Paolucci et al 2011)" esm:quality="good">
		<comp name="--.HNE" depth="0.0">
			<acc value="0.00936638033870684" flag="0"/>
			<vel value="0.00890615316544815" flag="0"/>
			<psa03 value="0.0269356072684551" flag="0"/>
			<psa10 value="0.0191392297550408" flag="0"/>
			<psa30 value="0.00173107248755664" flag="0"/>
		</comp>
		<comp name="--.HNN" depth="0.0">
			<acc value="0.00788656725592065" flag="0"/>
			<vel value="0.00848452172771389" flag="0"/>
			<psa03 value="0.0280864048573142" flag="0"/>
			<psa10 value="0.0144044285977013" flag="0"/>
			<psa30 value="0.00155654998879761" flag="0"/>
		</comp>
		<comp name="--.HNZ" depth="0.0">
			<acc value="0.00723416368991105" flag="0"/>
			<vel value="0.00556082850964172" flag="0"/>
			<psa03 value="0.00961435825821645" flag="0"/>
			<psa10 value="0.0086945403456273" flag="0"/>
			<psa30 value="0.00152665352913721" flag="0"/>
		</comp>
	</station>
	<station code="MSL1" name="MSL1" netid="HI" source="ITSAK Strong Motion Network" insttype="" lat="38.3727" lon="21.4243" esm:processing="manual (Paolucci et al 2011)" esm:quality="good">
		<comp name="--.HNE" depth="0.0">
			<acc value="0.0436985833773319" flag="0"/>
			<vel value="0.0436794220122066" flag="0"/>
			<psa03 value="0.109585894944458" flag="0"/>
			<psa10 value="0.134302846904448" flag="0"/>
			<psa30 value="0.00383713585808655" flag="0"/>
		</comp>
		<comp name="--.HNN" depth="0.0">
			<acc value="0.0345424087648924" flag="0"/>
			<vel value="0.0372207792770809" flag="0"/>
			<psa03 value="0.0903359530636136" flag="0"/>
			<psa10 value="0.0661198426150544" flag="0"/>
			<psa30 value="0.00225545732964482" flag="0"/>
		</comp>
		<comp name="--.HNZ" depth="0.0">
			<acc value="0.0166274111860236" flag="0"/>
			<vel value="0.0172664978929968" flag="0"/>
			<psa03 value="0.0421317050812078" flag="0"/>
			<psa10 value="0.0350195086205968" flag="0"/>
			<psa30 value="0.00124766077640257" flag="0"/>
		</comp>
	</station>
	<station code="NMA1" name="NMA1" netid="HI" source="ITSAK Strong Motion Network" insttype="" lat="37.81873" lon="22.662702" esm:processing="automatic (Paolucci et al 2011)" esm:quality="good">
		<comp name="--.HNE" depth="0.0">
			<acc value="0.00529410722586101" flag="0"/>
			<vel value="0.00335734918051668" flag="0"/>
			<psa03 value="0.0132154327492283" flag="0"/>
			<psa10 value="0.00742660010080881" flag="0"/>
			<psa30 value="0.000699425343913099" flag="0"/>
		</comp>
		<comp name="--.HNN" depth="0.0">
			<acc value="0.00602043215278106" flag="0"/>
			<vel value="0.0038994393892254" flag="0"/>
			<psa03 value="0.0140601293312313" flag="0"/>
			<psa10 value="0.00622409512825597" flag="0"/>
			<psa30 value="0.000422195416290968" flag="0"/>
		</comp>
		<comp name="--.HNZ" depth="0.0">
			<acc value="0.0040546907772621" flag="0"/>
			<vel value="0.00256991378325757" flag="0"/>
			<psa03 value="0.0106165190474921" flag="0"/>
			<psa10 value="0.00320532421199813" flag="0"/>
			<psa30 value="0.000395720224939475" flag="0"/>
		</comp>
	</station>
	<station code="PET1" name="PET1" netid="HI" source="ITSAK Strong Motion Network" insttype="" lat="36.963862" lon="21.92538" esm:processing="manual (Paolucci et al 2011)" esm:quality="good">
		<comp name="--.HNE" depth="0.0">
			<acc value="0.00714344727639027" flag="0"/>
			<vel value="0.00661484472528732" flag="0"/>
			<psa03 value="0.0194267504685437" flag="0"/>
			<psa10 value="0.00891568030756448" flag="0"/>
			<psa30 value="0.000473484282676653" flag="0"/>
		</comp>
		<comp name="--.HNN" depth="0.0">
			<acc value="0.00665387781402417" flag="0"/>
			<vel value="0.0062519062781464" flag="0"/>
			<psa03 value="0.0216885617607747" flag="0"/>
			<psa10 value="0.0125700573921116" flag="0"/>
			<psa30 value="0.000567521605937808" flag="0"/>
		</comp>
		<comp name="--.HNZ" depth="0.0">
			<acc value="0.00505115563021581" flag="0"/>
			<vel value="0.0025259103441101" flag="0"/>
			<psa03 value="0.0113059052107337" flag="0"/>
			<psa10 value="0.00321874564797739" flag="0"/>
			<psa30 value="0.00032366896752228" flag="0"/>
		</comp>
	</station>
	<station code="PRE2" name="PRE2" netid="HI" source="ITSAK Strong Motion Network" insttype="" lat="38.9577" lon="20.7548" esm:processing="manual (Paolucci et al 2011)" esm:quality="good">
		<comp name="--.HNE" depth="0.0">
			<acc value="0.0401800107293178" flag="0"/>
			<vel value="0.0296938307563071" flag="0"/>
			<psa03 value="0.12252108517059" flag="0"/>
			<psa10 value="0.0554340647347324" flag="0"/>
			<psa30 value="0.00347127808013666" flag="0"/>
		</comp>
		<comp name="--.HNN" depth="0.0">
			<acc value="0.0221118411452749" flag="0"/>
			<vel value="0.0185067835486435" flag="0"/>
			<psa03 value="0.0739762338957724" flag="0"/>
			<psa10 value="0.0344329847662524" flag="0"/>
			<psa30 value="0.00410830757188077" flag="0"/>
		</comp>
		<comp name="--.HNZ" depth="0.0">
			<acc value="0.0154921140199243" flag="0"/>
			<vel value="0.0123994582337867" flag="0"/>
			<psa03 value="0.0475249555867339" flag="0"/>
			<psa10 value="0.0166987349592379" flag="0"/>
			<psa30 value="0.00159330117338322" flag="0"/>
		</comp>
	</station>
	<station code="PYL1" name="PYL1" netid="HI" source="ITSAK Strong Motion Network" insttype="" lat="36.914188" lon="21.695161" esm:processing="manual (Paolucci et al 2011)" esm:quality="bad">
		<comp name="--.HNE" depth="0.0">
			<acc value="0.00272558887555699" flag="0"/>
			<vel value="0.00269261780342274" flag="0"/>
			<psa03 value="0.0100855619992047" flag="0"/>
			<psa10 value="0.00241682088377401" flag="0"/>
			<psa30 value="0.000290712174921532" flag="0"/>
		</comp>
		<comp name="--.HNN" depth="0.0">
			<acc value="0.00232624963198153" flag="0"/>
			<vel value="0.00183449921178467" flag="0"/>
			<psa03 value="0.00650399400872213" flag="0"/>
			<psa10 value="0.00279846890045717" flag="0"/>
			<psa30 value="0.000223443786429053" flag="0"/>
		</comp>
		<comp name="--.HNZ" depth="0.0">
			<acc value="0.00170136797922829" flag="0"/>
			<vel value="0.00113004065017433" flag="0"/>
			<psa03 value="0.00392790473565998" flag="0"/>
			<psa10 value="0.00155517493677029" flag="0"/>
			<psa30 value="0.000138867558669228" flag="0"/>
		</comp>
	</station>
	<station code="PYR2" name="PYR2" netid="HI" source="ITSAK Strong Motion Network" insttype="" lat="37.6671" lon="21.4506" esm:processing="manual (Paolucci et al 2011)" esm:quality="good">
		<comp name="--.HNE" depth="0.0">
			<acc value="0.0291455866559309" flag="0"/>
			<vel value="0.016063483054772" flag="0"/>
			<psa03 value="0.0829402131320705" flag="0"/>
			<psa10 value="0.0219345336802072" flag="0"/>
			<psa30 value="0.00145530015649312" flag="0"/>
		</comp>
		<comp name="--.HNN" depth="0.0">
			<acc value="0.0266964871161628" flag="0"/>
			<vel value="0.0190445526528326" flag="0"/>
			<psa03 value="0.0622673019864979" flag="0"/>
			<psa10 value="0.0167979346557309" flag="0"/>
			<psa30 value="0.0015897723979525" flag="0"/>
		</comp>
		<comp name="--.HNZ" depth="0.0">
			<acc value="0.0127771673587909" flag="0"/>
			<vel value="0.00741230538998832" flag="0"/>
			<psa03 value="0.0257819423021463" flag="0"/>
			<psa10 value="0.0101466806052928" flag="0"/>
			<psa30 value="0.0010220043694404" flag="0"/>
		</comp>
	</station>
	<station code="PYR3" name="PYR3" netid="HI" source="ITSAK Strong Motion Network" insttype="" lat="37.6788" lon="21.46209" esm:processing="manual (Paolucci et al 2011)" esm:quality="good">
		<comp name="--.HNE" depth="0.0">
			<acc value="0.0477028829930751" flag="0"/>
			<vel value="0.0286237189366853" flag="0"/>
			<psa03 value="0.123464751850543" flag="0"/>
			<psa10 value="0.019877436157592" flag="0"/>
			<psa30 value="0.00181102601325199" flag="0"/>
		</comp>
		<comp name="--.HNN" depth="0.0">
			<acc value="0.0467074280292794" flag="0"/>
			<vel value="0.0239201365959163" flag="0"/>
			<psa03 value="0.148485617693443" flag="0"/>
			<psa10 value="0.0211116991714593" flag="0"/>
			<psa30 value="0.00128496012230184" flag="0"/>
		</comp>
		<comp name="--.HNZ" depth="0.0">
			<acc value="0.020634670426001" flag="0"/>
			<vel value="0.0120395249412129" flag="0"/>
			<psa03 value="0.0659151634310825" flag="0"/>
