<?xml version="1.0" encoding="UTF-8" standalone="yes"?>
<!DOCTYPE earthquake SYSTEM "stationlist.dtd">
<stationlist created="" xmlns="ch.ethz.sed.shakemap.usgs.xml">
  <station code="ASB" name="ASB" netid="VI" insttype="STS-2.5" lat="64.7482" lon="-21.3254">
    <comp name="--.HHE">
      <acc value="0.1584320862" flag="0"/>
      <vel value="0.0725440508" flag="0"/>
      <psa03 value="0.3880968510" flag="0"/>
      <psa10 value="0.0478354563" flag="0"/>
      <psa30 value="0.0106210253" flag="0"/>
    </comp>
    <comp name="--.HHZ">
      <acc value="0.0675521926" flag="0"/>
      <vel value="0.0306239646" flag="0"/>
      <psa03 value="0.1533330423" flag="0"/>
      <psa10 value="0.0442508005" flag="0"/>
      <psa30 value="0.0093642425" flag="0"/>
    </comp>
    <comp name="--.HHN">
      <acc value="0.1029739336" flag="0"/>
      <vel value="0.0486971095" flag="0"/>
      <psa03 value="0.1929333861" flag="0"/>
      <psa10 value="0.0452137106" flag="0"/>
      <psa30 value="0.0069943484" flag="0"/>
    </comp>
  </station>
</stationlist>
