<stationlist created="1779265474">
	<station code="ARPRA" name="ARPRA" netid="KO" source="Bogazici University Kandilli Observatory And Earthquake Research Institute (KOERI)" insttype="" lat="39.0929" lon="38.3356">
		<comp name="--.HNE" depth="0.0">
			<acc value="0.849904952211686" flag="0"/>
			<vel value="0.414414275337269" flag="0"/>
			<psa03 value="1.37062971415853" flag="0"/>
			<psa10 value="0.278724944159639" flag="0"/>
			<psa30 value="0.0880776880479036" flag="0"/>
		</comp>
		<comp name="--.HNN" depth="0.0">
			<acc value="0.537547272295256" flag="0"/>
			<vel value="0.307085537103671" flag="0"/>
			<psa03 value="1.53741351276665" flag="0"/>
			<psa10 value="0.435252723356813" flag="0"/>
			<psa30 value="0.0538769790854499" flag="0"/>
		</comp>
		<comp name="--.HNZ" depth="0.0">
			<acc value="0.249179666425966" flag="0"/>
			<vel value="0.203414447012477" flag="0"/>
			<psa03 value="0.767458340348558" flag="0"/>
			<psa10 value="0.232234299382587" flag="0"/>
			<psa30 value="0.0375408502304201" flag="0"/>
		</comp>
	</station>
	<station code="GUMT" name="GUMT" netid="KO" source="Bogazici University Kandilli Observatory And Earthquake Research Institute (KOERI)" insttype="" lat="40.4665" lon="39.478">
		<comp name="--.HNE" depth="0.0">
			<acc value="0.00555715889774266" flag="0"/>
			<vel value="0.0189257180517766" flag="0"/>
			<psa03 value="0.0119344650789068" flag="0"/>
			<psa10 value="0.0138821558746966" flag="0"/>
			<psa30 value="0.00694389999929606" flag="0"/>
		</comp>
		<comp name="--.HNN" depth="0.0">
			<acc value="0.00523491819385026" flag="0"/>
			<vel value="0.0160067783361773" flag="0"/>
			<psa03 value="0.00986398677404718" flag="0"/>
			<psa10 value="0.0140018516164521" flag="0"/>
			<psa30 value="0.00862641979130823" flag="0"/>
		</comp>
		<comp name="--.HNZ" depth="0.0">
			<acc value="0.00671567044316534" flag="0"/>
			<vel value="0.0192725895494515" flag="0"/>
			<psa03 value="0.0121561386178575" flag="0"/>
			<psa10 value="0.01580784469213" flag="0"/>
			<psa30 value="0.00936001505506082" flag="0"/>
		</comp>
	</station>
	<station code="KYHL" name="KYHL" netid="KO" source="Bogazici University Kandilli Observatory And Earthquake Research Institute (KOERI)" insttype="" lat="40.3244" lon="37.8955">
		<comp name="--.HNE" depth="0.0">
			<acc value="0.0527300515610693" flag="0"/>
			<vel value="0.0888970409838631" flag="0"/>
			<psa03 value="0.104151618283562" flag="0"/>
			<psa10 value="0.100662338385893" flag="0"/>
			<psa30 value="0.033610893223389" flag="0"/>
		</comp>
		<comp name="--.HNN" depth="0.0">
			<acc value="0.0325128825886978" flag="0"/>
			<vel value="0.0439175220776146" flag="0"/>
			<psa03 value="0.066173227401554" flag="0"/>
			<psa10 value="0.072604374683499" flag="0"/>
			<psa30 value="0.0143942618825397" flag="0"/>
		</comp>
		<comp name="--.HNZ" depth="0.0">
			<acc value="0.0158870178703994" flag="0"/>
			<vel value="0.0293633900641829" flag="0"/>
			<psa03 value="0.0570448935275677" flag="0"/>
			<psa10 value="0.0336416785961022" flag="0"/>
			<psa30 value="0.0197215897918685" flag="0"/>
		</comp>
	</station>
	<station code="RFHY" name="RFHY" netid="KO" source="Bogazici University Kandilli Observatory And Earthquake Research Institute (KOERI)" insttype="" lat="39.927" lon="38.833">
		<comp name="--.HNE" depth="0.0">
			<acc value="0.00174600309296673" flag="0"/>
			<vel value="0.00174931884971623" flag="0"/>
			<psa03 value="0.00182802360410271" flag="0"/>
			<psa10 value="0.00189520773571129" flag="0"/>
			<psa30 value="0.00101915668079501" flag="0"/>
		</comp>
		<comp name="--.HNN" depth="0.0">
			<acc value="0.089527722282195" flag="0"/>
			<vel value="0.117410100670485" flag="0"/>
			<psa03 value="0.126686913219587" flag="0"/>
			<psa10 value="0.223368427062057" flag="0"/>
			<psa30 value="0.0341739405225093" flag="0"/>
		</comp>
		<comp name="--.HNZ" depth="0.0">
			<acc value="0.0514259269192065" flag="0"/>
			<vel value="0.07010542187187" flag="0"/>
			<psa03 value="0.0630613181278371" flag="0"/>
			<psa10 value="0.126668166144352" flag="0"/>
			<psa30 value="0.0183414483642723" flag="0"/>
		</comp>
	</station>
	<station code="TUNC" name="TUNC" netid="KO" source="Bogazici University Kandilli Observatory And Earthquake Research Institute (KOERI)" insttype="" lat="39.6942" lon="37.5388">
		<comp name="--.HNE" depth="0.0">
			<acc value="0.192684793910041" flag="0"/>
			<vel value="0.217021987290525" flag="0"/>
			<psa03 value="0.438955328636241" flag="0"/>
			<psa10 value="0.381851375779616" flag="0"/>
			<psa30 value="0.0636978996732402" flag="0"/>
		</comp>
		<comp name="--.HNN" depth="0.0">
			<acc value="0.170085647889318" flag="0"/>
			<vel value="0.142735510064651" flag="0"/>
			<psa03 value="0.266976206696776" flag="0"/>
			<psa10 value="0.196297738761814" flag="0"/>
			<psa30 value="0.0313422229351165" flag="0"/>
		</comp>
		<comp name="--.HNZ" depth="0.0">
			<acc value="0.102875536291337" flag="0"/>
			<vel value="0.100870297071788" flag="0"/>
			<psa03 value="0.209569237100112" flag="0"/>
			<psa10 value="0.166344504507047" flag="0"/>
			<psa30 value="0.0253008777256457" flag="0"/>
		</comp>
	</station>
</stationlist>
