<stationlist created="1779261875">
	<station code="ARPRA" name="ARPRA" netid="KO" source="Bogazici University Kandilli Observatory And Earthquake Research Institute (KOERI)" insttype="" lat="39.0929" lon="38.3356">
		<comp name="--.HNE" depth="0.0">
			<acc value="0.849904952211686" flag="0"/>
			<vel value="0.414414275337269" flag="0"/>
			<psa03 value="1.37062971415853" flag="0"/>
			<psa10 value="0.278724944159639" flag="0"/>
			<psa30 value="0.0880776880479036" flag="0"/>
		</comp>
		<comp name="--.HNN" depth="0.0">
			<acc value="0.537547272295256" flag="0"/>
			<vel value="0.307085537103671" flag="0"/>
			<psa03 value="1.53741351276665" flag="0"/>
			<psa10 value="0.435252723356813" flag="0"/>
			<psa30 value="0.0538769790854499" flag="0"/>
		</comp>
		<comp name="--.HNZ" depth="0.0">
			<acc value="0.249179666425966" flag="0"/>
			<vel value="0.203414447012477" flag="0"/>
			<psa03 value="0.767458340348558" flag="0"/>
			<psa10 value="0.232234299382587" flag="0"/>
			<psa30 value="0.0375408502304201" flag="0"/>
		</comp>
	</station>
	<station code="GUMT" name="GUMT" netid="KO" source="Bogazici University Kandilli Observatory And Earthquake Research Institute (KOERI)" insttype="" lat="40.4665" lon="39.478">
		<comp name="--.HNE" depth="0.0">
			<acc value="0.00556001593575675" flag="0"/>
			<vel value="0.0192843954167625" flag="0"/>
			<psa03 value="0.0119533152859739" flag="0"/>
			<psa10 value="0.0139200427595168" flag="0"/>
			<psa30 value="0.00694335537988436" flag="0"/>
		</comp>
		<comp name="--.HNN" depth="0.0">
			<acc value="0.00515027906277457" flag="0"/>
			<vel value="0.0161604248704266" flag="0"/>
			<psa03 value="0.0098662981250795" flag="0"/>
			<psa10 value="0.0140423102341369" flag="0"/>
			<psa30 value="0.00866325139788807" flag="0"/>
		</comp>
		<comp name="--.HNZ" depth="0.0">
			<acc value="0.00670770389532518" flag="0"/>
			<vel value="0.0207821642210032" flag="0"/>
			<psa03 value="0.0122086290742593" flag="0"/>
			<psa10 value="0.0158420319568685" flag="0"/>
			<psa30 value="0.00933511423883729" flag="0"/>
		</comp>
	</station>
	<station code="KYHL" name="KYHL" netid="KO" source="Bogazici University Kandilli Observatory And Earthquake Research Institute (KOERI)" insttype="" lat="40.3244" lon="37.8955">
		<comp name="--.HNE" depth="0.0">
			<acc value="0.0527308611864619" flag="0"/>
			<vel value="0.0888966570887089" flag="0"/>
			<psa03 value="0.104148482659175" flag="0"/>
			<psa10 value="0.100662308383905" flag="0"/>
			<psa30 value="0.033610973228689" flag="0"/>
		</comp>
		<comp name="--.HNN" depth="0.0">
			<acc value="0.0325124083740684" flag="0"/>
			<vel value="0.0439177296542286" flag="0"/>
			<psa03 value="0.0661720189881692" flag="0"/>
			<psa10 value="0.0726043521820083" flag="0"/>
			<psa30 value="0.0143943068855209" flag="0"/>
		</comp>
		<comp name="--.HNZ" depth="0.0">
			<acc value="0.0158748044947987" flag="0"/>
			<vel value="0.0293633604416341" flag="0"/>
			<psa03 value="0.0570429767339229" flag="0"/>
			<psa10 value="0.0336416673453569" flag="0"/>
			<psa30 value="0.0197216364616268" flag="0"/>
		</comp>
	</station>
	<station code="RFHY" name="RFHY" netid="KO" source="Bogazici University Kandilli Observatory And Earthquake Research Institute (KOERI)" insttype="" lat="39.927" lon="38.833">
		<comp name="--.HNE" depth="0.0">
			<acc value="0.00174600309296673" flag="0"/>
			<vel value="0.00174931884971623" flag="0"/>
			<psa03 value="0.00182802360410271" flag="0"/>
			<psa10 value="0.00189520773571129" flag="0"/>
			<psa30 value="0.00101915668079501" flag="0"/>
		</comp>
		<comp name="--.HNN" depth="0.0">
			<acc value="0.089527722282195" flag="0"/>
			<vel value="0.117410100670485" flag="0"/>
			<psa03 value="0.126686913219587" flag="0"/>
			<psa10 value="0.223368427062057" flag="0"/>
			<psa30 value="0.0341739405225093" flag="0"/>
		</comp>
		<comp name="--.HNZ" depth="0.0">
			<acc value="0.0514259269192065" flag="0"/>
			<vel value="0.07010542187187" flag="0"/>
			<psa03 value="0.0630613181278371" flag="0"/>
			<psa10 value="0.126668166144352" flag="0"/>
			<psa30 value="0.0183414483642723" flag="0"/>
		</comp>
	</station>
	<station code="TUNC" name="TUNC" netid="KO" source="Bogazici University Kandilli Observatory And Earthquake Research Institute (KOERI)" insttype="" lat="39.6942" lon="37.5388">
		<comp name="--.HNE" depth="0.0">
			<acc value="0.192684793910041" flag="0"/>
			<vel value="0.217021987290525" flag="0"/>
			<psa03 value="0.438955328636241" flag="0"/>
			<psa10 value="0.381851375779616" flag="0"/>
			<psa30 value="0.0636978996732402" flag="0"/>
		</comp>
		<comp name="--.HNN" depth="0.0">
			<acc value="0.170085647889318" flag="0"/>
			<vel value="0.142735510064651" flag="0"/>
			<psa03 value="0.266976206696776" flag="0"/>
			<psa10 value="0.196297738761814" flag="0"/>
			<psa30 value="0.0313422229351165" flag="0"/>
		</comp>
		<comp name="--.HNZ" depth="0.0">
			<acc value="0.102875536291337" flag="0"/>
			<vel value="0.100870297071788" flag="0"/>
			<psa03 value="0.209569237100112" flag="0"/>
			<psa10 value="0.166344504507047" flag="0"/>
			<psa30 value="0.0253008777256457" flag="0"/>
		</comp>
	</station>
</stationlist>
