<?xml version="1.0" encoding="UTF-8" standalone="yes"?>
<!DOCTYPE earthquake SYSTEM "stationlist.dtd">
<stationlist created="" xmlns="ch.ethz.sed.shakemap.usgs.xml">
  <station code="ARPRA" name="ARPRA" netid="KO" insttype="CMG-5T" commtype="DIG" lat="39.0929" lon="38.3356">
    <comp name="--.HNZ">
      <acc value="0.2486055462" flag="0"/>
      <vel value="0.1971302104" flag="0"/>
      <psa03 value="0.7608375118" flag="0"/>
      <psa10 value="0.2322791217" flag="0"/>
      <psa30 value="0.0367958587" flag="0"/>
    </comp>
    <comp name="--.HNE">
      <acc value="0.8481958744" flag="0"/>
      <vel value="0.4484512924" flag="0"/>
      <psa03 value="1.3351363719" flag="0"/>
      <psa10 value="0.2774970523" flag="0"/>
      <psa30 value="0.0859496782" flag="0"/>
    </comp>
    <comp name="--.HNN">
      <acc value="0.5381083817" flag="0"/>
      <vel value="0.3055417846" flag="0"/>
      <psa03 value="1.5350513077" flag="0"/>
      <psa10 value="0.4347674580" flag="0"/>
      <psa30 value="0.0537431909" flag="0"/>
    </comp>
  </station>
  <station code="BNGB" name="BNGB" netid="KO" insttype="CMG-3ESPC" commtype="DIG" lat="38.9913" lon="40.6792">
    <comp name="--.HHE">
      <acc value="0.0122213547" flag="0"/>
      <vel value="0.0326095405" flag="0"/>
      <psa03 value="0.0200911446" flag="0"/>
      <psa10 value="0.0416958890" flag="0"/>
      <psa30 value="0.0282255552" flag="0"/>
    </comp>
    <comp name="--.HHZ">
      <acc value="0.0114698935" flag="0"/>
      <vel value="0.0354242045" flag="0"/>
      <psa03 value="0.0186544873" flag="0"/>
      <psa10 value="0.0323396110" flag="0"/>
      <psa30 value="0.0187565451" flag="0"/>
    </comp>
    <comp name="--.HHN">
      <acc value="0.0100213173" flag="0"/>
      <vel value="0.0326527383" flag="0"/>
      <psa03 value="0.0161953503" flag="0"/>
      <psa10 value="0.0342342378" flag="0"/>
      <psa30 value="0.0146632140" flag="0"/>
    </comp>
  </station>
  <station code="DARE" name="DARE" netid="KO" insttype="CMG-3ESP" commtype="DIG" lat="38.5712" lon="37.4832">
    <comp name="--.HHE">
      <acc value="0.1268573520" flag="0"/>
      <vel value="0.1067833009" flag="0"/>
      <psa03 value="0.2965623947" flag="0"/>
      <psa10 value="0.2372630294" flag="0"/>
      <psa30 value="0.0218027701" flag="0"/>
    </comp>
    <comp name="--.HHZ">
      <acc value="0.1286026951" flag="0"/>
      <vel value="0.1288523698" flag="0"/>
      <psa03 value="0.3069280229" flag="0"/>
      <psa10 value="0.1815971874" flag="0"/>
      <psa30 value="0.0324030764" flag="0"/>
    </comp>
    <comp name="--.HHN">
      <acc value="0.1432425575" flag="0"/>
      <vel value="0.1467658854" flag="0"/>
      <psa03 value="0.2909402672" flag="0"/>
      <psa10 value="0.1967212140" flag="0"/>
      <psa30 value="0.0253321972" flag="0"/>
    </comp>
  </station>
  <station code="DIVR" name="DIVR" netid="KO" insttype="CMG-6T" commtype="DIG" lat="39.3562" lon="38.1237">
    <comp name="--.HHN">
      <acc value="0.2118343407" flag="0"/>
      <vel value="0.0727982431" flag="0"/>
      <psa03 value="0.5503006691" flag="0"/>
      <psa10 value="0.0949715376" flag="0"/>
      <psa30 value="0.0276733239" flag="0"/>
    </comp>
    <comp name="--.HHZ">
      <acc value="0.1559445082" flag="0"/>
      <vel value="0.0705661423" flag="0"/>
      <psa03 value="0.4239492443" flag="0"/>
      <psa10 value="0.1246840435" flag="0"/>
      <psa30 value="0.0210523477" flag="0"/>
    </comp>
    <comp name="--.HHE">
      <acc value="0.1467627274" flag="0"/>
      <vel value="0.1288202086" flag="0"/>
      <psa03 value="0.2373890273" flag="0"/>
      <psa10 value="0.1123951023" flag="0"/>
      <psa30 value="0.0401296065" flag="0"/>
    </comp>
  </station>
  <station code="DYBB" name="DYBB" netid="KO" insttype="CMG-3T" commtype="DIG" lat="37.9532" lon="40.1393">
    <comp name="--.HHZ">
      <acc value="0.0904185055" flag="0"/>
      <vel value="0.1135720085" flag="0"/>
      <psa03 value="0.1447576242" flag="0"/>
      <psa10 value="0.1325302510" flag="0"/>
      <psa30 value="0.0683821401" flag="0"/>
    </comp>
    <comp name="--.HHE">
      <acc value="0.0664350162" flag="0"/>
      <vel value="0.0549132332" flag="0"/>
      <psa03 value="0.0855310998" flag="0"/>
      <psa10 value="0.0355547200" flag="0"/>
      <psa30 value="0.0156331473" flag="0"/>
    </comp>
    <comp name="--.HHN">
      <acc value="0.1029157761" flag="0"/>
      <vel value="0.1781180825" flag="0"/>
      <psa03 value="0.2369320789" flag="0"/>
      <psa10 value="0.1063912376" flag="0"/>
      <psa30 value="0.0913269685" flag="0"/>
    </comp>
  </station>
  <station code="ERZN" name="ERZN" netid="KO" insttype="CMG-3ESP" commtype="DIG" lat="39.5867" lon="39.722">
    <comp name="--.HHN">
      <acc value="0.0248240954" flag="0"/>
      <vel value="0.0381592074" flag="0"/>
      <psa03 value="0.0542235547" flag="0"/>
      <psa10 value="0.0429806060" flag="0"/>
      <psa30 value="0.0157781222" flag="0"/>
    </comp>
    <comp name="--.HHE">
      <acc value="0.0227776786" flag="0"/>
      <vel value="0.0340601130" flag="0"/>
      <psa03 value="0.0407696090" flag="0"/>
      <psa10 value="0.0515751429" flag="0"/>
      <psa30 value="0.0136430061" flag="0"/>
    </comp>
    <comp name="--.HHZ">
      <acc value="0.0193127044" flag="0"/>
      <vel value="0.0355384564" flag="0"/>
      <psa03 value="0.0495069935" flag="0"/>
      <psa10 value="0.0570903767" flag="0"/>
      <psa30 value="0.0124360268" flag="0"/>
    </comp>
  </station>
  <station code="GAZ" name="GAZ" netid="KO" insttype="CMG-3T" commtype="DIG" lat="37.1721" lon="37.2096">
    <comp name="--.HHE">
      <acc value="0.3230784560" flag="0"/>
      <vel value="0.3191687321" flag="0"/>
      <psa03 value="0.6734442307" flag="0"/>
      <psa10 value="0.7015535520" flag="0"/>
      <psa30 value="0.0736823749" flag="0"/>
    </comp>
    <comp name="--.HHN">
      <acc value="0.1907822406" flag="0"/>
      <vel value="0.2654113334" flag="0"/>
      <psa03 value="0.2977631952" flag="0"/>
      <psa10 value="0.3356525159" flag="0"/>
      <psa30 value="0.1312186398" flag="0"/>
    </comp>
    <comp name="--.HHZ">
      <acc value="0.1391243821" flag="0"/>
      <vel value="0.2087874847" flag="0"/>
      <psa03 value="0.3138685973" flag="0"/>
      <psa10 value="0.3049733900" flag="0"/>
      <psa30 value="0.0743956152" flag="0"/>
    </comp>
  </station>
  <station code="KBAN" name="KBAN" netid="KO" insttype="CMG-6T" commtype="DIG" lat="38.797" lon="38.7278">
    <comp name="--.HHZ">
      <acc value="0.5192041589" flag="0"/>
      <vel value="0.1203831709" flag="0"/>
      <psa03 value="0.4698015313" flag="0"/>
      <psa10 value="0.0890633722" flag="0"/>
      <psa30 value="0.0177918202" flag="0"/>
    </comp>
    <comp name="--.HHE">
      <acc value="0.8350344184" flag="0"/>
      <vel value="0.2811090925" flag="0"/>
      <psa03 value="1.0303895539" flag="0"/>
      <psa10 value="0.2213197469" flag="0"/>
      <psa30 value="0.0391916436" flag="0"/>
    </comp>
    <comp name="--.HHN">
      <acc value="0.7136476431" flag="0"/>
      <vel value="0.1112869754" flag="0"/>
      <psa03 value="0.4112728389" flag="0"/>
      <psa10 value="0.1752750950" flag="0"/>
      <psa30 value="0.0229607140" flag="0"/>
    </comp>
  </station>
  <station code="KMAH" name="KMAH" netid="KO" insttype="CMG-3ESP" commtype="DIG" lat="39.6082" lon="39.0275">
    <comp name="--.HHE">
      <acc value="0.0736134519" flag="0"/>
      <vel value="0.0909612134" flag="0"/>
      <psa03 value="0.1396191841" flag="0"/>
      <psa10 value="0.1720640296" flag="0"/>
      <psa30 value="0.0331464821" flag="0"/>
    </comp>
    <comp name="--.HHN">
      <acc value="0.0813463800" flag="0"/>
      <vel value="0.1004302707" flag="0"/>
      <psa03 value="0.1693080341" flag="0"/>
      <psa10 value="0.1903486438" flag="0"/>
      <psa30 value="0.0224314100" flag="0"/>
    </comp>
    <comp name="--.HHZ">
      <acc value="0.0665204324" flag="0"/>
      <vel value="0.1036661018" flag="0"/>
      <psa03 value="0.0971319959" flag="0"/>
      <psa10 value="0.2675603481" flag="0"/>
      <psa30 value="0.0154145647" flag="0"/>
    </comp>
  </station>
  <station code="LICE" name="LICE" netid="KO" insttype="CMG-3ESPC" commtype="DIG" lat="38.4532" lon="40.6446">
    <comp name="--.HHZ">
      <acc value="0.0396073175" flag="0"/>
      <vel value="0.0539616074" flag="0"/>
      <psa03 value="0.1004456961" flag="0"/>
      <psa10 value="0.0443824467" flag="0"/>
      <psa30 value="0.0076138003" flag="0"/>
    </comp>
    <comp name="--.HHN">
      <acc value="0.0756946751" flag="0"/>
      <vel value="0.0678748772" flag="0"/>
      <psa03 value="0.1310737714" flag="0"/>
      <psa10 value="0.1872815398" flag="0"/>
      <psa30 value="0.0247305075" flag="0"/>
    </comp>
    <comp name="--.HHE">
      <acc value="0.0547858760" flag="0"/>
      <vel value="0.0625436955" flag="0"/>
      <psa03 value="0.0836248954" flag="0"/>
      <psa10 value="0.1113774469" flag="0"/>
      <psa30 value="0.0226695193" flag="0"/>
    </comp>
  </station>
  <station code="MAZI" name="MAZI" netid="KO" insttype="CMG-3T" commtype="DIG" lat="37.4593" lon="40.4465">
    <comp name="--.HHE">
      <acc value="0.1897299976" flag="0"/>
      <vel value="0.1448936427" flag="0"/>
      <psa03 value="0.5829408296" flag="0"/>
      <psa10 value="0.2252868923" flag="0"/>
      <psa30 value="0.0223879640" flag="0"/>
    </comp>
    <comp name="--.HHN">
      <acc value="0.1821266935" flag="0"/>
      <vel value="0.1140621564" flag="0"/>
      <psa03 value="0.4421307513" flag="0"/>
      <psa10 value="0.1508221897" flag="0"/>
      <psa30 value="0.0299397357" flag="0"/>
    </comp>
    <comp name="--.HHZ">
      <acc value="0.1463956463" flag="0"/>
      <vel value="0.1069992529" flag="0"/>
      <psa03 value="0.3780400599" flag="0"/>
      <psa10 value="0.1474475858" flag="0"/>
      <psa30 value="0.0486789377" flag="0"/>
    </comp>
  </station>
  <station code="RFHY" name="RFHY" netid="KO" insttype="CMG-5T" commtype="DIG" lat="39.927" lon="38.833">
    <comp name="--.HNN">
      <acc value="0.0896182162" flag="0"/>
      <vel value="0.1176055003" flag="0"/>
      <psa03 value="0.1281014348" flag="0"/>
      <psa10 value="0.2244549196" flag="0"/>
      <psa30 value="0.0368362866" flag="0"/>
    </comp>
    <comp name="--.HNE">
      <acc value="0.0090533037" flag="0"/>
      <vel value="0.0642595769" flag="0"/>
      <psa03 value="0.0089436570" flag="0"/>
      <psa10 value="0.0090585742" flag="0"/>
      <psa30 value="0.0140203491" flag="0"/>
    </comp>
    <comp name="--.HNZ">
      <acc value="0.0515979498" flag="0"/>
      <vel value="0.0695456293" flag="0"/>
      <psa03 value="0.0624826641" flag="0"/>
      <psa10 value="0.1267348132" flag="0"/>
      <psa30 value="0.0204149798" flag="0"/>
    </comp>
  </station>
  <station code="SARI" name="SARI" netid="KO" insttype="CMG-3T" commtype="DIG" lat="38.4072" lon="36.4181">
    <comp name="--.HHN">
      <acc value="0.1650559635" flag="0"/>
      <vel value="0.2205511696" flag="0"/>
      <psa03 value="0.3700965482" flag="0"/>
      <psa10 value="0.4869930411" flag="0"/>
      <psa30 value="0.0522204446" flag="0"/>
    </comp>
    <comp name="--.HHE">
      <acc value="0.1801216599" flag="0"/>
      <vel value="0.1845381556" flag="0"/>
      <psa03 value="0.3708783888" flag="0"/>
      <psa10 value="0.4155939722" flag="0"/>
      <psa30 value="0.0306964380" flag="0"/>
    </comp>
    <comp name="--.HHZ">
      <acc value="0.1723320704" flag="0"/>
      <vel value="0.2842392061" flag="0"/>
      <psa03 value="0.2302522076" flag="0"/>
      <psa10 value="0.5949611767" flag="0"/>
      <psa30 value="0.0484318214" flag="0"/>
    </comp>
  </station>
  <station code="SINE" name="SINE" netid="KO" insttype="CMG-6T" commtype="DIG" lat="39.1636" lon="39.3871">
    <comp name="--.HHZ">
      <acc value="0.0527142360" flag="0"/>
      <vel value="0.0352211742" flag="0"/>
      <psa03 value="0.1213212662" flag="0"/>
      <psa10 value="0.0414950757" flag="0"/>
      <psa30 value="0.0022501739" flag="0"/>
    </comp>
    <comp name="--.HHN">
      <acc value="0.0593150801" flag="0"/>
      <vel value="0.0349715833" flag="0"/>
      <psa03 value="0.1269816456" flag="0"/>
      <psa10 value="0.0426709008" flag="0"/>
      <psa30 value="0.0019944348" flag="0"/>
    </comp>
    <comp name="--.HHE">
      <acc value="0.0679412641" flag="0"/>
      <vel value="0.0339471784" flag="0"/>
      <psa03 value="0.1220691446" flag="0"/>
      <psa10 value="0.0528840753" flag="0"/>
      <psa30 value="0.0028274607" flag="0"/>
    </comp>
  </station>
  <station code="SVRC" name="SVRC" netid="KO" insttype="CMG-3T" commtype="DIG" lat="38.3775" lon="39.306">
    <comp name="--.HHN">
      <acc value="0.3180821453" flag="0"/>
      <vel value="0.1849378618" flag="0"/>
      <psa03 value="0.8899573334" flag="0"/>
      <psa10 value="0.1608909192" flag="0"/>
      <psa30 value="0.0326977220" flag="0"/>
    </comp>
    <comp name="--.HHE">
      <acc value="0.3665427576" flag="0"/>
      <vel value="0.2237597177" flag="0"/>
      <psa03 value="0.6761329797" flag="0"/>
      <psa10 value="0.2582223500" flag="0"/>
      <psa30 value="0.0268176145" flag="0"/>
    </comp>
    <comp name="--.HHZ">
      <acc value="0.2104182981" flag="0"/>
      <vel value="0.1515303926" flag="0"/>
      <psa03 value="0.7362625612" flag="0"/>
      <psa10 value="0.3012854898" flag="0"/>
      <psa30 value="0.0337208356" flag="0"/>
    </comp>
  </station>
  <station code="TUNC" name="TUNC" netid="KO" insttype="CMG-5T" commtype="DIG" lat="39.6942" lon="37.5388">
    <comp name="--.HNE">
      <acc value="0.1928783842" flag="0"/>
      <vel value="0.2153958718" flag="0"/>
      <psa03 value="0.4413793668" flag="0"/>
      <psa10 value="0.3827180339" flag="0"/>
      <psa30 value="0.0627166862" flag="0"/>
    </comp>
    <comp name="--.HNN">
      <acc value="0.1698753723" flag="0"/>
      <vel value="0.1369398878" flag="0"/>
      <psa03 value="0.2655822133" flag="0"/>
      <psa10 value="0.1954262954" flag="0"/>
      <psa30 value="0.0316921406" flag="0"/>
    </comp>
    <comp name="--.HNZ">
      <acc value="0.1023492861" flag="0"/>
      <vel value="0.1000870849" flag="0"/>
      <psa03 value="0.2048007743" flag="0"/>
      <psa10 value="0.1662721329" flag="0"/>
      <psa30 value="0.0252149463" flag="0"/>
    </comp>
  </station>
</stationlist>
