<stationlist created="1738621915">
	<station code="BODA" name="BODA" netid="KO" source="Bogazici University Kandilli Observatory And Earthquake Research Institute (KOERI)" insttype="" lat="37.0348" lon="27.4304">
		<comp name=".HNE" depth="0.0">
			<acc value="0.01743486311508" flag="0"/>
			<vel value="0.00854832824711" flag="0"/>
			<psa03 value="0.074609249788181" flag="0"/>
			<psa10 value="0.00979407662202458" flag="0"/>
			<psa30 value="0.000724218913449588" flag="0"/>
		</comp>
		<comp name=".HNN" depth="0.0">
			<acc value="0.023351802456336" flag="0"/>
			<vel value="0.0109691921092" flag="0"/>
			<psa03 value="0.0706485499111846" flag="0"/>
			<psa10 value="0.0175593025926256" flag="0"/>
			<psa30 value="0.00116652946435285" flag="0"/>
		</comp>
		<comp name=".HNZ" depth="0.0">
			<acc value="0.0090113898569742" flag="0"/>
			<vel value="0.00407587405152" flag="0"/>
			<psa03 value="0.0158530475824487" flag="0"/>
			<psa10 value="0.00641760279094305" flag="0"/>
			<psa30 value="0.000878145777014208" flag="0"/>
		</comp>
	</station>
	<station code="BODM" name="BODM" netid="KO" source="Bogazici University Kandilli Observatory And Earthquake Research Institute (KOERI)" insttype="" lat="37.031" lon="27.4247">
		<comp name=".HNE" depth="0.0">
			<acc value="0.01621416035331" flag="0"/>
			<vel value="0.0121794720433" flag="0"/>
			<psa03 value="0.0451507305974834" flag="0"/>
			<psa10 value="0.0105990674487113" flag="0"/>
			<psa30 value="0.000849956357519311" flag="0"/>
		</comp>
		<comp name=".HNN" depth="0.0">
			<acc value="0.024058779040194" flag="0"/>
			<vel value="0.0165612325775" flag="0"/>
			<psa03 value="0.064216556115121" flag="0"/>
			<psa10 value="0.0213202242352154" flag="0"/>
			<psa30 value="0.00157194090420325" flag="0"/>
		</comp>
		<comp name=".HNZ" depth="0.0">
			<acc value="0.0043632040115034" flag="0"/>
			<vel value="0.00372026062515" flag="0"/>
			<psa03 value="0.00984574337799932" flag="0"/>
			<psa10 value="0.00619402516752359" flag="0"/>
			<psa30 value="0.000759320509590902" flag="0"/>
		</comp>
	</station>
	<station code="CESE" name="CESE" netid="KO" source="Bogazici University Kandilli Observatory And Earthquake Research Institute (KOERI)" insttype="" lat="38.3306" lon="26.2997">
		<comp name=".HNE" depth="0.0">
			<acc value="0.006435439271913" flag="0"/>
			<vel value="0.00634568361768" flag="0"/>
			<psa03 value="0.0140241985655826" flag="0"/>
			<psa10 value="0.00949574435897896" flag="0"/>
			<psa30 value="0.0015486638413793" flag="0"/>
		</comp>
		<comp name=".HNN" depth="0.0">
			<acc value="0.00829501323687" flag="0"/>
			<vel value="0.00676406823288" flag="0"/>
			<psa03 value="0.0263580377573276" flag="0"/>
			<psa10 value="0.0106254757606331" flag="0"/>
			<psa30 value="0.00169389752489775" flag="0"/>
		</comp>
		<comp name=".HNZ" depth="0.0">
			<acc value="0.0034860441544908" flag="0"/>
			<vel value="0.00529502761094" flag="0"/>
			<psa03 value="0.0110895679628055" flag="0"/>
			<psa10 value="0.00621621444994114" flag="0"/>
			<psa30 value="0.00177263597010057" flag="0"/>
		</comp>
	</station>
	<station code="DATC" name="DATC" netid="KO" source="Bogazici University Kandilli Observatory And Earthquake Research Institute (KOERI)" insttype="" lat="36.7584" lon="27.6602">
		<comp name=".HNE" depth="0.0">
			<acc value="0.013716366112344" flag="0"/>
			<vel value="0.0143087807491" flag="0"/>
			<psa03 value="0.0225594423690074" flag="0"/>
			<psa10 value="0.0319351692982396" flag="0"/>
			<psa30 value="0.00203126726982294" flag="0"/>
		</comp>
		<comp name=".HNN" depth="0.0">
			<acc value="0.013436971629144" flag="0"/>
			<vel value="0.0117529950058" flag="0"/>
			<psa03 value="0.0252347419902941" flag="0"/>
			<psa10 value="0.0206697923973127" flag="0"/>
			<psa30 value="0.00239742673442034" flag="0"/>
		</comp>
		<comp name=".HNZ" depth="0.0">
			<acc value="0.023612544612432" flag="0"/>
			<vel value="0.0123653563345" flag="0"/>
			<psa03 value="0.0235733246379022" flag="0"/>
			<psa10 value="0.0224831125208793" flag="0"/>
			<psa30 value="0.00219678031758333" flag="0"/>
		</comp>
	</station>
	<station code="DIDI" name="DIDI" netid="KO" source="Bogazici University Kandilli Observatory And Earthquake Research Institute (KOERI)" insttype="" lat="37.3767" lon="27.2398">
		<comp name=".HNE" depth="0.0">
			<acc value="0.041361072047496" flag="0"/>
			<vel value="0.0301846998387" flag="0"/>
			<psa03 value="0.115383904034117" flag="0"/>
			<psa10 value="0.0346275439048222" flag="0"/>
			<psa30 value="0.00507493743969323" flag="0"/>
		</comp>
		<comp name=".HNN" depth="0.0">
			<acc value="0.04252211021649" flag="0"/>
			<vel value="0.0304394434153" flag="0"/>
			<psa03 value="0.169178686424399" flag="0"/>
			<psa10 value="0.0479338678836849" flag="0"/>
			<psa30 value="0.00548952990443207" flag="0"/>
		</comp>
		<comp name=".HNZ" depth="0.0">
			<acc value="0.033929819329998" flag="0"/>
			<vel value="0.0163134539383" flag="0"/>
			<psa03 value="0.0699297731291208" flag="0"/>
			<psa10 value="0.0253204642314856" flag="0"/>
			<psa30 value="0.00239078212758323" flag="0"/>
		</comp>
	</station>
	<station code="GMLD" name="GMLD" netid="KO" source="Bogazici University Kandilli Observatory And Earthquake Research Institute (KOERI)" insttype="" lat="38.0766" lon="26.9157">
		<comp name=".HNE" depth="0.0">
			<acc value="0.052963864583394" flag="0"/>
			<vel value="0.0350083822963" flag="0"/>
			<psa03 value="0.140313295067069" flag="0"/>
			<psa10 value="0.0232283150118653" flag="0"/>
			<psa30 value="0.00168350371135858" flag="0"/>
		</comp>
		<comp name=".HNN" depth="0.0">
			<acc value="0.049742805314106" flag="0"/>
			<vel value="0.0295034978004" flag="0"/>
			<psa03 value="0.151300043718817" flag="0"/>
			<psa10 value="0.0432930742036838" flag="0"/>
			<psa30 value="0.00191957320397281" flag="0"/>
		</comp>
		<comp name=".HNZ" depth="0.0">
			<acc value="0.030333110176812" flag="0"/>
			<vel value="0.0162267944955" flag="0"/>
			<psa03 value="0.0710159023718183" flag="0"/>
			<psa10 value="0.00918987222143861" flag="0"/>
			<psa30 value="0.00116645852215253" flag="0"/>
		</comp>
	</station>
	<station code="KUSD" name="KUSD" netid="KO" source="Bogazici University Kandilli Observatory And Earthquake Research Institute (KOERI)" insttype="" lat="37.8606" lon="27.2868">
		<comp name=".HNE" depth="0.0">
			<acc value="0.011276480600352" flag="0"/>
			<vel value="0.0101109375368" flag="0"/>
			<psa03 value="0.0284323939232174" flag="0"/>
			<psa10 value="0.0097214127458797" flag="0"/>
			<psa30 value="0.00130398429922874" flag="0"/>
		</comp>
		<comp name=".HNN" depth="0.0">
			<acc value="0.01124847993459" flag="0"/>
			<vel value="0.00990675196071" flag="0"/>
			<psa03 value="0.0278821647648952" flag="0"/>
			<psa10 value="0.0122615403918901" flag="0"/>
			<psa30 value="0.00088297870133793" flag="0"/>
		</comp>
		<comp name=".HNZ" depth="0.0">
			<acc value="0.0056707034321148" flag="0"/>
			<vel value="0.00600395535598" flag="0"/>
			<psa03 value="0.0162038325389542" flag="0"/>
			<psa10 value="0.00574913647707876" flag="0"/>
			<psa30 value="0.00101175994079792" flag="0"/>
		</comp>
	</station>
	<station code="YKAV" name="YKAV" netid="KO" source="Bogazici University Kandilli Observatory And Earthquake Research Institute (KOERI)" insttype="" lat="37.1246" lon="27.2801">
		<comp name=".HNE" depth="0.0">
			<acc value="0.030510103206984" flag="0"/>
			<vel value="0.0157772730471" flag="0"/>
			<psa03 value="0.0719148212955073" flag="0"/>
			<psa10 value="0.0190015262578515" flag="0"/>
			<psa30 value="0.00175289216217038" flag="0"/>
		</comp>
		<comp name=".HNN" depth="0.0">
			<acc value="0.016056999952422" flag="0"/>
			<vel value="0.0119714298391" flag="0"/>
			<psa03 value="0.0483199092903304" flag="0"/>
			<psa10 value="0.0183996582620651" flag="0"/>
			<psa30 value="0.00164271465511803" flag="0"/>
		</comp>
		<comp name=".HNZ" depth="0.0">
			<acc value="0.012791859825084" flag="0"/>
			<vel value="0.0102350430646" flag="0"/>
			<psa03 value="0.0433420144249288" flag="0"/>
			<psa10 value="0.0134164209595315" flag="0"/>
			<psa30 value="0.0013091501622715" flag="0"/>
		</comp>
	</station>
</stationlist>
