<?xml version="1.0" encoding="UTF-8" standalone="yes"?>
<!DOCTYPE earthquake SYSTEM "stationlist.dtd">
<stationlist created="" xmlns="ch.ethz.sed.shakemap.usgs.xml">
  <station code="THERA" name="THERA" netid="GE" insttype="STS-2/N" lat="36.367" lon="25.4753">
    <comp name="--.HHN">
      <acc value="0.0956094649" flag="0"/>
      <vel value="0.0164598985" flag="0"/>
      <psa03 value="0.0714940370" flag="0"/>
      <psa10 value="0.0105467438" flag="0"/>
      <psa30 value="0.0033633448" flag="0"/>
    </comp>
    <comp name="--.HHE">
      <acc value="0.1508121693" flag="0"/>
      <vel value="0.0303217862" flag="0"/>
      <psa03 value="0.1220273877" flag="0"/>
      <psa10 value="0.0178985772" flag="0"/>
      <psa30 value="0.0069064314" flag="0"/>
    </comp>
    <comp name="--.HHZ">
      <acc value="0.1009171384" flag="0"/>
      <vel value="0.0231294311" flag="0"/>
      <psa03 value="0.0770444792" flag="0"/>
      <psa10 value="0.0137359934" flag="0"/>
      <psa30 value="0.0058211581" flag="0"/>
    </comp>
  </station>
</stationlist>
