<?xml version="1.0" encoding="UTF-8" standalone="yes"?>
<!DOCTYPE earthquake SYSTEM "stationlist.dtd">
<stationlist created="" xmlns="ch.ethz.sed.shakemap.usgs.xml">
  <station code="APE" name="APE" netid="GE" insttype="STS-2/N" lat="37.0727" lon="25.523">
    <comp name="--.HHN">
      <acc value="0.3735749468" flag="0"/>
      <vel value="0.0806935724" flag="0"/>
      <psa03 value="0.3172383500" flag="0"/>
      <psa10 value="0.0603057147" flag="0"/>
      <psa30 value="0.0102403793" flag="0"/>
    </comp>
    <comp name="--.HHZ">
      <acc value="0.1357458647" flag="0"/>
      <vel value="0.0409169003" flag="0"/>
      <psa03 value="0.2661697285" flag="0"/>
      <psa10 value="0.0412545885" flag="0"/>
      <psa30 value="0.0099612469" flag="0"/>
    </comp>
    <comp name="--.HHE">
      <acc value="0.2906575160" flag="0"/>
      <vel value="0.0676262374" flag="0"/>
      <psa03 value="0.2899298267" flag="0"/>
      <psa10 value="0.0560172172" flag="0"/>
      <psa30 value="0.0092940935" flag="0"/>
    </comp>
  </station>
  <station code="THERA" name="THERA" netid="GE" insttype="STS-2/N" lat="36.367" lon="25.4753">
    <comp name="--.HHE">
      <acc value="0.1508121700" flag="0"/>
      <vel value="0.0303217775" flag="0"/>
      <psa03 value="0.1220273877" flag="0"/>
      <psa10 value="0.0178985798" flag="0"/>
      <psa30 value="0.0069061290" flag="0"/>
    </comp>
    <comp name="--.HHN">
      <acc value="0.0956094650" flag="0"/>
      <vel value="0.0164598778" flag="0"/>
      <psa03 value="0.0714940370" flag="0"/>
      <psa10 value="0.0105467427" flag="0"/>
      <psa30 value="0.0033632835" flag="0"/>
    </comp>
    <comp name="--.HHZ">
      <acc value="0.1009171382" flag="0"/>
      <vel value="0.0231294172" flag="0"/>
      <psa03 value="0.0770444792" flag="0"/>
      <psa10 value="0.0137359958" flag="0"/>
      <psa30 value="0.0058206484" flag="0"/>
    </comp>
  </station>
</stationlist>
