<?xml version="1.0" encoding="UTF-8" standalone="yes"?>
<!DOCTYPE earthquake SYSTEM "stationlist.dtd">
<stationlist created="" xmlns="ch.ethz.sed.shakemap.usgs.xml">
  <station code="ANTB" name="ANTB" netid="KO" insttype="CMG-3T" commtype="DIG" lat="36.8998" lon="30.6538">
    <comp name="--.HHE">
      <acc value="0.1970760675" flag="0"/>
      <vel value="0.1649226318" flag="0"/>
      <psa03 value="0.4630525418" flag="0"/>
      <psa10 value="0.2343486932" flag="0"/>
      <psa30 value="0.0240564910" flag="0"/>
    </comp>
    <comp name="--.HHZ">
      <acc value="0.2086405117" flag="0"/>
      <vel value="0.1353994873" flag="0"/>
      <psa03 value="0.5297758985" flag="0"/>
      <psa10 value="0.2116902264" flag="0"/>
      <psa30 value="0.0167921863" flag="0"/>
    </comp>
    <comp name="--.HHN">
      <acc value="0.1845318934" flag="0"/>
      <vel value="0.1513828978" flag="0"/>
      <psa03 value="0.5765495823" flag="0"/>
      <psa10 value="0.2224991185" flag="0"/>
      <psa30 value="0.0395834958" flag="0"/>
    </comp>
  </station>
  <station code="APMY" name="APMY" netid="KO" insttype="CMG-6T" commtype="DIG" lat="37.4717" lon="29.3018">
    <comp name="--.HHE">
      <acc value="0.0743670552" flag="0"/>
      <vel value="0.0603529119" flag="0"/>
      <psa03 value="0.2033633475" flag="0"/>
      <psa10 value="0.0608689565" flag="0"/>
      <psa30 value="0.0039575346" flag="0"/>
    </comp>
    <comp name="--.HHN">
      <acc value="0.0670219384" flag="0"/>
      <vel value="0.0499745252" flag="0"/>
      <psa03 value="0.2022009783" flag="0"/>
      <psa10 value="0.0454727211" flag="0"/>
      <psa30 value="0.0057715291" flag="0"/>
    </comp>
    <comp name="--.HHZ">
      <acc value="0.0396589538" flag="0"/>
      <vel value="0.0207235288" flag="0"/>
      <psa03 value="0.1061910321" flag="0"/>
      <psa10 value="0.0236176543" flag="0"/>
      <psa30 value="0.0025214817" flag="0"/>
    </comp>
  </station>
  <station code="BAKL" name="BAKL" netid="KO" insttype="CMG-6T" commtype="DIG" lat="37.9793" lon="29.6135">
    <comp name="--.HHE">
      <acc value="0.1678906271" flag="0"/>
      <vel value="0.1097286370" flag="0"/>
      <psa03 value="0.5074852446" flag="0"/>
      <psa10 value="0.1404609152" flag="0"/>
      <psa30 value="0.0067502258" flag="0"/>
    </comp>
    <comp name="--.HHN">
      <acc value="0.0884989844" flag="0"/>
      <vel value="0.0763641412" flag="0"/>
      <psa03 value="0.3392195867" flag="0"/>
      <psa10 value="0.0663078264" flag="0"/>
      <psa30 value="0.0095084031" flag="0"/>
    </comp>
    <comp name="--.HHZ">
      <acc value="0.0832471504" flag="0"/>
      <vel value="0.0535252944" flag="0"/>
      <psa03 value="0.1783564588" flag="0"/>
      <psa10 value="0.0529006992" flag="0"/>
      <psa30 value="0.0046809314" flag="0"/>
    </comp>
  </station>
  <station code="BASM" name="BASM" netid="KO" insttype="CMG-5T" commtype="DIG" lat="37.9194" lon="30.035">
    <comp name="--.HNN">
      <acc value="0.1263415961" flag="0"/>
      <vel value="0.1427830621" flag="0"/>
      <psa03 value="0.3946079879" flag="0"/>
      <psa10 value="0.2979208318" flag="0"/>
      <psa30 value="0.0131578624" flag="0"/>
    </comp>
    <comp name="--.HNE">
      <acc value="0.2240288371" flag="0"/>
      <vel value="0.1751439780" flag="0"/>
      <psa03 value="0.3979196842" flag="0"/>
      <psa10 value="0.2924040037" flag="0"/>
      <psa30 value="0.0183966717" flag="0"/>
    </comp>
    <comp name="--.HNZ">
      <acc value="0.0999289749" flag="0"/>
      <vel value="0.0845858136" flag="0"/>
      <psa03 value="0.2426251017" flag="0"/>
      <psa10 value="0.1248842006" flag="0"/>
      <psa30 value="0.0071535712" flag="0"/>
    </comp>
  </station>
  <station code="BCK" name="BCK" netid="KO" insttype="CMG-5T" commtype="DIG" lat="37.4602" lon="30.5885">
    <comp name="--.HNE">
      <acc value="0.5396803600" flag="0"/>
      <vel value="0.3148765997" flag="0"/>
      <psa03 value="0.7723704005" flag="0"/>
      <psa10 value="0.2567758809" flag="0"/>
      <psa30 value="0.0111984327" flag="0"/>
    </comp>
    <comp name="--.HNN">
      <acc value="0.3164197384" flag="0"/>
      <vel value="0.2748542354" flag="0"/>
      <psa03 value="1.1377273345" flag="0"/>
      <psa10 value="0.4331685453" flag="0"/>
      <psa30 value="0.0359419384" flag="0"/>
    </comp>
    <comp name="--.HNZ">
      <acc value="0.1815295035" flag="0"/>
      <vel value="0.1826167607" flag="0"/>
      <psa03 value="0.4520031336" flag="0"/>
      <psa10 value="0.3156250088" flag="0"/>
      <psa30 value="0.0137959341" flag="0"/>
    </comp>
  </station>
  <station code="CAME" name="CAME" netid="KO" insttype="CMG-5T" commtype="DIG" lat="36.9435" lon="29.3023">
    <comp name="--.HNZ">
      <acc value="0.1292876509" flag="0"/>
      <vel value="0.0959331428" flag="0"/>
      <psa03 value="0.4604982639" flag="0"/>
      <psa10 value="0.1420416489" flag="0"/>
      <psa30 value="0.0087407602" flag="0"/>
    </comp>
    <comp name="--.HNE">
      <acc value="0.2322785736" flag="0"/>
      <vel value="0.1266123565" flag="0"/>
      <psa03 value="0.8412877546" flag="0"/>
      <psa10 value="0.1536741649" flag="0"/>
      <psa30 value="0.0103588083" flag="0"/>
    </comp>
    <comp name="--.HNN">
      <acc value="0.3394715258" flag="0"/>
      <vel value="0.2070153954" flag="0"/>
      <psa03 value="1.6356966709" flag="0"/>
      <psa10 value="0.2152479904" flag="0"/>
      <psa30 value="0.0093489610" flag="0"/>
    </comp>
  </station>
  <station code="DEMR" name="DEMR" netid="KO" insttype="CMG-5T" commtype="DIG" lat="36.2365" lon="29.9056">
    <comp name="--.HNE">
      <acc value="0.1055129860" flag="0"/>
      <vel value="0.0612323381" flag="0"/>
      <psa03 value="0.3512551890" flag="0"/>
      <psa10 value="0.1472352079" flag="0"/>
      <psa30 value="0.0149662708" flag="0"/>
    </comp>
    <comp name="--.HNZ">
      <acc value="0.0681088950" flag="0"/>
      <vel value="0.0579853341" flag="0"/>
      <psa03 value="0.2051099837" flag="0"/>
      <psa10 value="0.0699713701" flag="0"/>
      <psa30 value="0.0117070745" flag="0"/>
    </comp>
    <comp name="--.HNN">
      <acc value="0.0833579626" flag="0"/>
      <vel value="0.0943107379" flag="0"/>
      <psa03 value="0.2181825312" flag="0"/>
      <psa10 value="0.1443126038" flag="0"/>
      <psa30 value="0.0177423543" flag="0"/>
    </comp>
  </station>
  <station code="ELL" name="ELL" netid="KO" insttype="CMG-3T" commtype="DIG" lat="36.7483" lon="29.9085">
    <comp name="--.HHZ">
      <acc value="0.1348947021" flag="0"/>
      <vel value="0.0819984747" flag="0"/>
      <psa03 value="0.1983588114" flag="0"/>
      <psa10 value="0.0946341648" flag="0"/>
      <psa30 value="0.0063524655" flag="0"/>
    </comp>
  </station>
  <station code="FETI" name="FETI" netid="KO" insttype="CMG-5T" commtype="DIG" lat="36.6903" lon="29.096">
    <comp name="--.HNE">
      <acc value="0.1861927534" flag="0"/>
      <vel value="0.1335782411" flag="0"/>
      <psa03 value="0.4147680315" flag="0"/>
      <psa10 value="0.1139631162" flag="0"/>
      <psa30 value="0.0083948262" flag="0"/>
    </comp>
    <comp name="--.HNN">
      <acc value="0.1672571565" flag="0"/>
      <vel value="0.1082126234" flag="0"/>
      <psa03 value="0.4812914168" flag="0"/>
      <psa10 value="0.1339264725" flag="0"/>
      <psa30 value="0.0071547973" flag="0"/>
    </comp>
    <comp name="--.HNZ">
      <acc value="0.1800295724" flag="0"/>
      <vel value="0.0977945830" flag="0"/>
      <psa03 value="0.4404095354" flag="0"/>
      <psa10 value="0.0842101063" flag="0"/>
      <psa30 value="0.0088748894" flag="0"/>
    </comp>
  </station>
  <station code="FETY" name="FETY" netid="KO" insttype="CMG-3ESP" commtype="DIG" lat="36.6353" lon="29.0835">
    <comp name="--.HHN">
      <acc value="0.1506260011" flag="0"/>
      <vel value="0.0734559643" flag="0"/>
      <psa03 value="0.2875534649" flag="0"/>
      <psa10 value="0.0819900048" flag="0"/>
      <psa30 value="0.0070814050" flag="0"/>
    </comp>
    <comp name="--.HHE">
      <acc value="0.1474432605" flag="0"/>
      <vel value="0.0796510813" flag="0"/>
      <psa03 value="0.3076257831" flag="0"/>
      <psa10 value="0.0769721902" flag="0"/>
      <psa30 value="0.0075292921" flag="0"/>
    </comp>
    <comp name="--.HHZ">
      <acc value="0.0718783694" flag="0"/>
      <vel value="0.0428207686" flag="0"/>
      <psa03 value="0.2168715162" flag="0"/>
      <psa10 value="0.0434701020" flag="0"/>
      <psa30 value="0.0063917537" flag="0"/>
    </comp>
  </station>
  <station code="HDMB" name="HDMB" netid="KO" insttype="CMG-3T" commtype="DIG" lat="36.9638" lon="32.4857">
    <comp name="--.HHE">
      <acc value="0.1090528104" flag="0"/>
      <vel value="0.0714190233" flag="0"/>
      <psa03 value="0.2829445664" flag="0"/>
      <psa10 value="0.1109369568" flag="0"/>
      <psa30 value="0.0079364548" flag="0"/>
    </comp>
    <comp name="--.HHN">
      <acc value="0.1029878927" flag="0"/>
      <vel value="0.0818621980" flag="0"/>
      <psa03 value="0.4268697331" flag="0"/>
      <psa10 value="0.1434212614" flag="0"/>
      <psa30 value="0.0111739829" flag="0"/>
    </comp>
    <comp name="--.HHZ">
      <acc value="0.0862754703" flag="0"/>
      <vel value="0.0887049877" flag="0"/>
      <psa03 value="0.1595551344" flag="0"/>
      <psa10 value="0.1395452881" flag="0"/>
      <psa30 value="0.0086416618" flag="0"/>
    </comp>
  </station>
  <station code="KEMT" name="KEMT" netid="KO" insttype="CMG-5T" commtype="DIG" lat="36.6037" lon="30.5558">
    <comp name="--.HNN">
      <acc value="0.5624553469" flag="0"/>
      <vel value="0.4270658334" flag="0"/>
      <psa03 value="1.4684206288" flag="0"/>
      <psa10 value="0.3333617857" flag="0"/>
      <psa30 value="0.0203227241" flag="0"/>
    </comp>
    <comp name="--.HNZ">
      <acc value="0.1764711064" flag="0"/>
      <vel value="0.1175064023" flag="0"/>
      <psa03 value="0.5319435144" flag="0"/>
      <psa10 value="0.1739279130" flag="0"/>
      <psa30 value="0.0155580237" flag="0"/>
    </comp>
    <comp name="--.HNE">
      <acc value="0.6011605780" flag="0"/>
      <vel value="0.3140136927" flag="0"/>
      <psa03 value="1.5117662361" flag="0"/>
      <psa10 value="0.4056320113" flag="0"/>
      <psa30 value="0.0193066793" flag="0"/>
    </comp>
  </station>
  <station code="KONT" name="KONT" netid="KO" insttype="CMG-3T" commtype="DIG" lat="37.957" lon="32.3563">
    <comp name="--.HHZ">
      <acc value="0.0341588732" flag="0"/>
      <vel value="0.0173080333" flag="0"/>
      <psa03 value="0.0511850970" flag="0"/>
      <psa10 value="0.0241792522" flag="0"/>
      <psa30 value="0.0038439911" flag="0"/>
    </comp>
  </station>
  <station code="LMOS" name="LMOS" netid="KO" insttype="CMG-6T" commtype="DIG" lat="36.6021" lon="32.6962">
    <comp name="--.HHE">
      <acc value="0.0613114244" flag="0"/>
      <vel value="0.0890990078" flag="0"/>
      <psa03 value="0.1357711061" flag="0"/>
      <psa10 value="0.1528991186" flag="0"/>
      <psa30 value="0.0082830044" flag="0"/>
    </comp>
    <comp name="--.HHN">
      <acc value="0.0702469365" flag="0"/>
      <vel value="0.0520409296" flag="0"/>
      <psa03 value="0.1524971915" flag="0"/>
      <psa10 value="0.1072416637" flag="0"/>
      <psa30 value="0.0041412600" flag="0"/>
    </comp>
    <comp name="--.HHZ">
      <acc value="0.0559069933" flag="0"/>
      <vel value="0.0397051337" flag="0"/>
      <psa03 value="0.1107256886" flag="0"/>
      <psa10 value="0.0715675907" flag="0"/>
      <psa30 value="0.0060021809" flag="0"/>
    </comp>
  </station>
  <station code="SDAG" name="SDAG" netid="KO" insttype="CMG-6T" commtype="DIG" lat="38.4396" lon="30.9175">
    <comp name="--.HHE">
      <acc value="0.0291856203" flag="0"/>
      <vel value="0.0368898684" flag="0"/>
      <psa03 value="0.0600199140" flag="0"/>
      <psa10 value="0.0423465108" flag="0"/>
      <psa30 value="0.0069141658" flag="0"/>
    </comp>
    <comp name="--.HHN">
      <acc value="0.0260577213" flag="0"/>
      <vel value="0.0309686754" flag="0"/>
      <psa03 value="0.0671626641" flag="0"/>
      <psa10 value="0.0475788516" flag="0"/>
      <psa30 value="0.0053832965" flag="0"/>
    </comp>
    <comp name="--.HHZ">
      <acc value="0.0449203371" flag="0"/>
      <vel value="0.0323998596" flag="0"/>
      <psa03 value="0.0890179980" flag="0"/>
      <psa10 value="0.0439192850" flag="0"/>
      <psa30 value="0.0028279426" flag="0"/>
    </comp>
  </station>
  <station code="SERH" name="SERH" netid="KO" insttype="CMG-6T" commtype="DIG" lat="37.582" lon="29.2588">
    <comp name="--.HHE">
      <acc value="0.0597494405" flag="0"/>
      <vel value="0.0392622842" flag="0"/>
      <psa03 value="0.1975194756" flag="0"/>
      <psa10 value="0.0489749198" flag="0"/>
      <psa30 value="0.0041843549" flag="0"/>
    </comp>
    <comp name="--.HHN">
      <acc value="0.1145666900" flag="0"/>
      <vel value="0.0641497684" flag="0"/>
      <psa03 value="0.3343784340" flag="0"/>
      <psa10 value="0.0532264911" flag="0"/>
      <psa30 value="0.0050669525" flag="0"/>
    </comp>
    <comp name="--.HHZ">
      <acc value="0.0332795211" flag="0"/>
      <vel value="0.0276488279" flag="0"/>
      <psa03 value="0.1187970184" flag="0"/>
      <psa10 value="0.0367016893" flag="0"/>
      <psa30 value="0.0025720892" flag="0"/>
    </comp>
  </station>
  <station code="SEYD" name="SEYD" netid="KO" insttype="CMG-5T" commtype="DIG" lat="37.4056" lon="31.8379">
    <comp name="--.HNZ">
      <acc value="0.1352654501" flag="0"/>
      <vel value="0.0676077718" flag="0"/>
      <psa03 value="0.2039454170" flag="0"/>
      <psa10 value="0.0927285884" flag="0"/>
      <psa30 value="0.0065485280" flag="0"/>
    </comp>
    <comp name="--.HNN">
      <acc value="0.1532572705" flag="0"/>
      <vel value="0.0932689632" flag="0"/>
      <psa03 value="0.2933493226" flag="0"/>
      <psa10 value="0.1031119531" flag="0"/>
      <psa30 value="0.0105385989" flag="0"/>
    </comp>
    <comp name="--.HNE">
      <acc value="0.1339999857" flag="0"/>
      <vel value="0.0731210733" flag="0"/>
      <psa03 value="0.2955628346" flag="0"/>
      <psa10 value="0.1133761989" flag="0"/>
      <psa30 value="0.0073843184" flag="0"/>
    </comp>
  </station>
  <station code="SHUT" name="SHUT" netid="KO" insttype="CMG-3T" commtype="DIG" lat="38.553" lon="30.551">
    <comp name="--.HHE">
      <acc value="0.0201215130" flag="0"/>
      <vel value="0.0167082960" flag="0"/>
      <psa03 value="0.0555373914" flag="0"/>
      <psa10 value="0.0135893984" flag="0"/>
      <psa30 value="0.0013859768" flag="0"/>
    </comp>
    <comp name="--.HHN">
      <acc value="0.0220739358" flag="0"/>
      <vel value="0.0295848575" flag="0"/>
      <psa03 value="0.0449074104" flag="0"/>
      <psa10 value="0.0435981852" flag="0"/>
      <psa30 value="0.0082491725" flag="0"/>
    </comp>
    <comp name="--.HHZ">
      <acc value="0.0345957940" flag="0"/>
      <vel value="0.0255800739" flag="0"/>
      <psa03 value="0.0511081907" flag="0"/>
      <psa10 value="0.0302000325" flag="0"/>
      <psa30 value="0.0033467552" flag="0"/>
    </comp>
  </station>
</stationlist>
