<?xml version="1.0" encoding="UTF-8" standalone="yes"?>
<!DOCTYPE earthquake SYSTEM "stationlist.dtd">
<stationlist created="" xmlns="ch.ethz.sed.shakemap.usgs.xml">
  <station code="ANTB" name="ANTB" netid="KO" insttype="CMG-3T" commtype="DIG" lat="36.8998" lon="30.6538">
    <comp name="--.HHE">
      <acc value="0.1970760674" flag="0"/>
      <vel value="0.1649226369" flag="0"/>
      <psa03 value="0.4630525418" flag="0"/>
      <psa10 value="0.2343486932" flag="0"/>
      <psa30 value="0.0240564363" flag="0"/>
    </comp>
    <comp name="--.HHN">
      <acc value="0.1845318935" flag="0"/>
      <vel value="0.1513828956" flag="0"/>
      <psa03 value="0.5765495823" flag="0"/>
      <psa10 value="0.2224991185" flag="0"/>
      <psa30 value="0.0395832406" flag="0"/>
    </comp>
    <comp name="--.HHZ">
      <acc value="0.2086405116" flag="0"/>
      <vel value="0.1353994897" flag="0"/>
      <psa03 value="0.5297758985" flag="0"/>
      <psa10 value="0.2116902263" flag="0"/>
      <psa30 value="0.0167921849" flag="0"/>
    </comp>
  </station>
  <station code="APMY" name="APMY" netid="KO" insttype="CMG-6T" commtype="DIG" lat="37.4717" lon="29.3018">
    <comp name="--.HHE">
      <acc value="0.0743670558" flag="0"/>
      <vel value="0.0603529096" flag="0"/>
      <psa03 value="0.2033633475" flag="0"/>
      <psa10 value="0.0608689565" flag="0"/>
      <psa30 value="0.0039575346" flag="0"/>
    </comp>
    <comp name="--.HHZ">
      <acc value="0.0396589540" flag="0"/>
      <vel value="0.0207235255" flag="0"/>
      <psa03 value="0.1061910321" flag="0"/>
      <psa10 value="0.0236176543" flag="0"/>
      <psa30 value="0.0025214849" flag="0"/>
    </comp>
    <comp name="--.HHN">
      <acc value="0.0670219370" flag="0"/>
      <vel value="0.0499745325" flag="0"/>
      <psa03 value="0.2022009783" flag="0"/>
      <psa10 value="0.0454727212" flag="0"/>
      <psa30 value="0.0057715330" flag="0"/>
    </comp>
  </station>
  <station code="BAKL" name="BAKL" netid="KO" insttype="CMG-6T" commtype="DIG" lat="37.9793" lon="29.6135">
    <comp name="--.HHE">
      <acc value="0.1678906284" flag="0"/>
      <vel value="0.1097286458" flag="0"/>
      <psa03 value="0.5074852447" flag="0"/>
      <psa10 value="0.1404609153" flag="0"/>
      <psa30 value="0.0067502655" flag="0"/>
    </comp>
    <comp name="--.HHN">
      <acc value="0.0884989849" flag="0"/>
      <vel value="0.0763641524" flag="0"/>
      <psa03 value="0.3392195867" flag="0"/>
      <psa10 value="0.0663078264" flag="0"/>
      <psa30 value="0.0095084287" flag="0"/>
    </comp>
    <comp name="--.HHZ">
      <acc value="0.0832471503" flag="0"/>
      <vel value="0.0535252834" flag="0"/>
      <psa03 value="0.1783564588" flag="0"/>
      <psa10 value="0.0529006992" flag="0"/>
      <psa30 value="0.0046809300" flag="0"/>
    </comp>
  </station>
  <station code="BASM" name="BASM" netid="KO" insttype="CMG-5T" commtype="DIG" lat="37.9194" lon="30.035">
    <comp name="--.HNN">
      <acc value="0.1263415958" flag="0"/>
      <vel value="0.1427830616" flag="0"/>
      <psa03 value="0.3946079879" flag="0"/>
      <psa10 value="0.2979208318" flag="0"/>
      <psa30 value="0.0131575434" flag="0"/>
    </comp>
    <comp name="--.HNE">
      <acc value="0.2240288369" flag="0"/>
      <vel value="0.1751439811" flag="0"/>
      <psa03 value="0.3979196842" flag="0"/>
      <psa10 value="0.2924040037" flag="0"/>
      <psa30 value="0.0183965294" flag="0"/>
    </comp>
    <comp name="--.HNZ">
      <acc value="0.0999289751" flag="0"/>
      <vel value="0.0845858139" flag="0"/>
      <psa03 value="0.2426251017" flag="0"/>
      <psa10 value="0.1248842007" flag="0"/>
      <psa30 value="0.0071535772" flag="0"/>
    </comp>
  </station>
  <station code="BCK" name="BCK" netid="KO" insttype="CMG-5T" commtype="DIG" lat="37.4602" lon="30.5885">
    <comp name="--.HNE">
      <acc value="0.5396803596" flag="0"/>
      <vel value="0.3148765974" flag="0"/>
      <psa03 value="0.7723704005" flag="0"/>
      <psa10 value="0.2567758804" flag="0"/>
      <psa30 value="0.0111974603" flag="0"/>
    </comp>
    <comp name="--.HNZ">
      <acc value="0.1815294999" flag="0"/>
      <vel value="0.1826167602" flag="0"/>
      <psa03 value="0.4520031336" flag="0"/>
      <psa10 value="0.3156250085" flag="0"/>
      <psa30 value="0.0137950267" flag="0"/>
    </comp>
    <comp name="--.HNN">
      <acc value="0.3164197433" flag="0"/>
      <vel value="0.2748542336" flag="0"/>
      <psa03 value="1.1377273345" flag="0"/>
      <psa10 value="0.4331685461" flag="0"/>
      <psa30 value="0.0359423894" flag="0"/>
    </comp>
  </station>
  <station code="CAME" name="CAME" netid="KO" insttype="CMG-5T" commtype="DIG" lat="36.9435" lon="29.3023">
    <comp name="--.HNZ">
      <acc value="0.1292876507" flag="0"/>
      <vel value="0.0959331468" flag="0"/>
      <psa03 value="0.4604982639" flag="0"/>
      <psa10 value="0.1420416489" flag="0"/>
      <psa30 value="0.0087406581" flag="0"/>
    </comp>
    <comp name="--.HNE">
      <acc value="0.2322785736" flag="0"/>
      <vel value="0.1266123565" flag="0"/>
      <psa03 value="0.8412877546" flag="0"/>
      <psa10 value="0.1536741649" flag="0"/>
      <psa30 value="0.0103588185" flag="0"/>
    </comp>
    <comp name="--.HNN">
      <acc value="0.3394715259" flag="0"/>
      <vel value="0.2070153957" flag="0"/>
      <psa03 value="1.6356966709" flag="0"/>
      <psa10 value="0.2152479904" flag="0"/>
      <psa30 value="0.0093489984" flag="0"/>
    </comp>
  </station>
  <station code="DEMR" name="DEMR" netid="KO" insttype="CMG-5T" commtype="DIG" lat="36.2365" lon="29.9056">
    <comp name="--.HNE">
      <acc value="0.1055129886" flag="0"/>
      <vel value="0.0612323463" flag="0"/>
      <psa03 value="0.3512551890" flag="0"/>
      <psa10 value="0.1472352079" flag="0"/>
      <psa30 value="0.0149648286" flag="0"/>
    </comp>
    <comp name="--.HNZ">
      <acc value="0.0681088903" flag="0"/>
      <vel value="0.0579853379" flag="0"/>
      <psa03 value="0.2051099837" flag="0"/>
      <psa10 value="0.0699713701" flag="0"/>
      <psa30 value="0.0117070042" flag="0"/>
    </comp>
    <comp name="--.HNN">
      <acc value="0.0833579648" flag="0"/>
      <vel value="0.0943107481" flag="0"/>
      <psa03 value="0.2181825312" flag="0"/>
      <psa10 value="0.1443126038" flag="0"/>
      <psa30 value="0.0177424464" flag="0"/>
    </comp>
  </station>
  <station code="ELL" name="ELL" netid="KO" insttype="CMG-3T" commtype="DIG" lat="36.7483" lon="29.9085">
    <comp name="--.HHZ">
      <acc value="0.1348947020" flag="0"/>
      <vel value="0.0819984747" flag="0"/>
      <psa03 value="0.1983588114" flag="0"/>
      <psa10 value="0.0946341635" flag="0"/>
      <psa30 value="0.0063525331" flag="0"/>
    </comp>
  </station>
  <station code="FETI" name="FETI" netid="KO" insttype="CMG-5T" commtype="DIG" lat="36.6903" lon="29.096">
    <comp name="--.HNE">
      <acc value="0.1861927510" flag="0"/>
      <vel value="0.1335782396" flag="0"/>
      <psa03 value="0.4147680315" flag="0"/>
      <psa10 value="0.1139631162" flag="0"/>
      <psa30 value="0.0083950222" flag="0"/>
    </comp>
    <comp name="--.HNN">
      <acc value="0.1672571568" flag="0"/>
      <vel value="0.1082126239" flag="0"/>
      <psa03 value="0.4812914168" flag="0"/>
      <psa10 value="0.1339264725" flag="0"/>
      <psa30 value="0.0071546951" flag="0"/>
    </comp>
    <comp name="--.HNZ">
      <acc value="0.1800295882" flag="0"/>
      <vel value="0.0977945641" flag="0"/>
      <psa03 value="0.4404095353" flag="0"/>
      <psa10 value="0.0842101062" flag="0"/>
      <psa30 value="0.0088747312" flag="0"/>
    </comp>
  </station>
  <station code="FETY" name="FETY" netid="KO" insttype="CMG-3ESP" commtype="DIG" lat="36.6353" lon="29.0835">
    <comp name="--.HHZ">
      <acc value="0.0718783695" flag="0"/>
      <vel value="0.0428207681" flag="0"/>
      <psa03 value="0.2168715162" flag="0"/>
      <psa10 value="0.0434701020" flag="0"/>
      <psa30 value="0.0063917536" flag="0"/>
    </comp>
    <comp name="--.HHN">
      <acc value="0.1506260011" flag="0"/>
      <vel value="0.0734559640" flag="0"/>
      <psa03 value="0.2875534649" flag="0"/>
      <psa10 value="0.0819900048" flag="0"/>
      <psa30 value="0.0070814038" flag="0"/>
    </comp>
    <comp name="--.HHE">
      <acc value="0.1474432605" flag="0"/>
      <vel value="0.0796510820" flag="0"/>
      <psa03 value="0.3076257831" flag="0"/>
      <psa10 value="0.0769721902" flag="0"/>
      <psa30 value="0.0075292925" flag="0"/>
    </comp>
  </station>
  <station code="HDMB" name="HDMB" netid="KO" insttype="CMG-3T" commtype="DIG" lat="36.9638" lon="32.4857">
    <comp name="--.HHE">
      <acc value="0.1090528104" flag="0"/>
      <vel value="0.0714190235" flag="0"/>
      <psa03 value="0.2829445664" flag="0"/>
      <psa10 value="0.1109369568" flag="0"/>
      <psa30 value="0.0079365062" flag="0"/>
    </comp>
    <comp name="--.HHN">
      <acc value="0.1029878926" flag="0"/>
      <vel value="0.0818621942" flag="0"/>
      <psa03 value="0.4268697331" flag="0"/>
      <psa10 value="0.1434212614" flag="0"/>
      <psa30 value="0.0111740669" flag="0"/>
    </comp>
    <comp name="--.HHZ">
      <acc value="0.0862754701" flag="0"/>
      <vel value="0.0887049899" flag="0"/>
      <psa03 value="0.1595551344" flag="0"/>
      <psa10 value="0.1395452881" flag="0"/>
      <psa30 value="0.0086417003" flag="0"/>
    </comp>
  </station>
  <station code="KEMT" name="KEMT" netid="KO" insttype="CMG-5T" commtype="DIG" lat="36.6037" lon="30.5558">
    <comp name="--.HNZ">
      <acc value="0.1764711071" flag="0"/>
      <vel value="0.1175064102" flag="0"/>
      <psa03 value="0.5319435144" flag="0"/>
      <psa10 value="0.1739279134" flag="0"/>
      <psa30 value="0.0155586786" flag="0"/>
    </comp>
    <comp name="--.HNN">
      <acc value="0.5624553431" flag="0"/>
      <vel value="0.4270658161" flag="0"/>
      <psa03 value="1.4684206288" flag="0"/>
      <psa10 value="0.3333617847" flag="0"/>
      <psa30 value="0.0203237016" flag="0"/>
    </comp>
    <comp name="--.HNE">
      <acc value="0.6011605779" flag="0"/>
      <vel value="0.3140137216" flag="0"/>
      <psa03 value="1.5117662361" flag="0"/>
      <psa10 value="0.4056320104" flag="0"/>
      <psa30 value="0.0193089935" flag="0"/>
    </comp>
  </station>
  <station code="KONT" name="KONT" netid="KO" insttype="CMG-3T" commtype="DIG" lat="37.957" lon="32.3563">
    <comp name="--.HHZ">
      <acc value="0.0341588732" flag="0"/>
      <vel value="0.0173080331" flag="0"/>
      <psa03 value="0.0511850970" flag="0"/>
      <psa10 value="0.0241792522" flag="0"/>
      <psa30 value="0.0038439994" flag="0"/>
    </comp>
    <comp name="--.HHN">
      <acc value="0.0370980711" flag="0"/>
      <vel value="0.0137766082" flag="0"/>
      <psa03 value="0.0416154524" flag="0"/>
      <psa10 value="0.0183977315" flag="0"/>
      <psa30 value="0.0026754249" flag="0"/>
    </comp>
  </station>
  <station code="LMOS" name="LMOS" netid="KO" insttype="CMG-6T" commtype="DIG" lat="36.6021" lon="32.6962">
    <comp name="--.HHZ">
      <acc value="0.0559069932" flag="0"/>
      <vel value="0.0397051329" flag="0"/>
      <psa03 value="0.1107256886" flag="0"/>
      <psa10 value="0.0715675907" flag="0"/>
      <psa30 value="0.0060021423" flag="0"/>
    </comp>
    <comp name="--.HHE">
      <acc value="0.0613114247" flag="0"/>
      <vel value="0.0890990098" flag="0"/>
      <psa03 value="0.1357711061" flag="0"/>
      <psa10 value="0.1528991186" flag="0"/>
      <psa30 value="0.0082829049" flag="0"/>
    </comp>
    <comp name="--.HHN">
      <acc value="0.0702469346" flag="0"/>
      <vel value="0.0520409552" flag="0"/>
      <psa03 value="0.1524971915" flag="0"/>
      <psa10 value="0.1072416636" flag="0"/>
      <psa30 value="0.0041413106" flag="0"/>
    </comp>
  </station>
  <station code="SDAG" name="SDAG" netid="KO" insttype="CMG-6T" commtype="DIG" lat="38.4396" lon="30.9175">
    <comp name="--.HHZ">
      <acc value="0.0449203370" flag="0"/>
      <vel value="0.0323998647" flag="0"/>
      <psa03 value="0.0890179980" flag="0"/>
      <psa10 value="0.0439192850" flag="0"/>
      <psa30 value="0.0028280830" flag="0"/>
    </comp>
    <comp name="--.HHN">
      <acc value="0.0260577214" flag="0"/>
      <vel value="0.0309686804" flag="0"/>
      <psa03 value="0.0671626641" flag="0"/>
      <psa10 value="0.0475788516" flag="0"/>
      <psa30 value="0.0053832970" flag="0"/>
    </comp>
    <comp name="--.HHE">
      <acc value="0.0291856201" flag="0"/>
      <vel value="0.0368898714" flag="0"/>
      <psa03 value="0.0600199140" flag="0"/>
      <psa10 value="0.0423465108" flag="0"/>
      <psa30 value="0.0069141683" flag="0"/>
    </comp>
  </station>
  <station code="SERH" name="SERH" netid="KO" insttype="CMG-6T" commtype="DIG" lat="37.582" lon="29.2588">
    <comp name="--.HHZ">
      <acc value="0.0332795220" flag="0"/>
      <vel value="0.0276488476" flag="0"/>
      <psa03 value="0.1187970184" flag="0"/>
      <psa10 value="0.0367016893" flag="0"/>
      <psa30 value="0.0025720832" flag="0"/>
    </comp>
    <comp name="--.HHN">
      <acc value="0.1145666903" flag="0"/>
      <vel value="0.0641497476" flag="0"/>
      <psa03 value="0.3343784340" flag="0"/>
      <psa10 value="0.0532264911" flag="0"/>
      <psa30 value="0.0050669394" flag="0"/>
    </comp>
    <comp name="--.HHE">
      <acc value="0.0597494402" flag="0"/>
      <vel value="0.0392622781" flag="0"/>
      <psa03 value="0.1975194756" flag="0"/>
      <psa10 value="0.0489749198" flag="0"/>
      <psa30 value="0.0041843508" flag="0"/>
    </comp>
  </station>
  <station code="SEYD" name="SEYD" netid="KO" insttype="CMG-5T" commtype="DIG" lat="37.4056" lon="31.8379">
    <comp name="--.HNE">
      <acc value="0.1339999838" flag="0"/>
      <vel value="0.0731210758" flag="0"/>
      <psa03 value="0.2955628346" flag="0"/>
      <psa10 value="0.1133761986" flag="0"/>
      <psa30 value="0.0073845240" flag="0"/>
    </comp>
    <comp name="--.HNN">
      <acc value="0.1532572689" flag="0"/>
      <vel value="0.0932689621" flag="0"/>
      <psa03 value="0.2933493226" flag="0"/>
      <psa10 value="0.1031119531" flag="0"/>
      <psa30 value="0.0105387095" flag="0"/>
    </comp>
    <comp name="--.HNZ">
      <acc value="0.1352654475" flag="0"/>
      <vel value="0.0676077712" flag="0"/>
      <psa03 value="0.2039454170" flag="0"/>
      <psa10 value="0.0927285886" flag="0"/>
      <psa30 value="0.0065484888" flag="0"/>
    </comp>
  </station>
</stationlist>
