<?xml version="1.0" encoding="UTF-8" standalone="yes"?>
<!DOCTYPE earthquake SYSTEM "stationlist.dtd">
<stationlist created="" xmlns="ch.ethz.sed.shakemap.usgs.xml">
  <station code="ATHR" name="ATHR" netid="HA" insttype="GEOtiny," commtype="DIG" lat="38.3172" lon="20.4165">
    <comp name="--.HHE">
      <acc value="0.0258795031" flag="0"/>
      <vel value="0.0176615151" flag="0"/>
      <psa03 value="0.0672880238" flag="0"/>
      <psa10 value="0.0147950901" flag="0"/>
      <psa30 value="0.0017460470" flag="0"/>
    </comp>
    <comp name="--.HHN">
      <acc value="0.0245754908" flag="0"/>
      <vel value="0.0170955525" flag="0"/>
      <psa03 value="0.0595551287" flag="0"/>
      <psa10 value="0.0132225995" flag="0"/>
      <psa30 value="0.0012171787" flag="0"/>
    </comp>
    <comp name="--.HHZ">
      <acc value="0.0153153897" flag="0"/>
      <vel value="0.0066959276" flag="0"/>
      <psa03 value="0.0243494181" flag="0"/>
      <psa10 value="0.0086150354" flag="0"/>
      <psa30 value="0.0008100671" flag="0"/>
    </comp>
  </station>
  <station code="HAVD" name="HAVD" netid="HA" insttype="GEOtiny," commtype="DIG" lat="38.2036" lon="20.3848">
    <comp name="--.HHE">
      <acc value="0.0382372951" flag="0"/>
      <vel value="0.0178234029" flag="0"/>
      <psa03 value="0.0677180304" flag="0"/>
      <psa10 value="0.0140699568" flag="0"/>
      <psa30 value="0.0010876475" flag="0"/>
    </comp>
    <comp name="--.HHN">
      <acc value="0.0503517220" flag="0"/>
      <vel value="0.0171671585" flag="0"/>
      <psa03 value="0.0909146414" flag="0"/>
      <psa10 value="0.0188615876" flag="0"/>
      <psa30 value="0.0021553624" flag="0"/>
    </comp>
    <comp name="--.HHZ">
      <acc value="0.0296200177" flag="0"/>
      <vel value="0.0145361944" flag="0"/>
      <psa03 value="0.0792204000" flag="0"/>
      <psa10 value="0.0087973032" flag="0"/>
      <psa30 value="0.0009674722" flag="0"/>
    </comp>
  </station>
  <station code="ARG2" name="ARG2" netid="HI" insttype="CMG-5TD,ACCELEROMETER,GURALP" commtype="DIG" lat="38.1783" lon="20.4878">
    <comp name="--.HNZ">
      <acc value="0.0422944622" flag="0"/>
      <vel value="0.0177744249" flag="0"/>
      <psa03 value="0.0626078301" flag="0"/>
      <psa10 value="0.0125022810" flag="0"/>
      <psa30 value="0.0011450261" flag="0"/>
    </comp>
    <comp name="--.HNE">
      <acc value="0.0796338559" flag="0"/>
      <vel value="0.0393196111" flag="0"/>
      <psa03 value="0.1622719643" flag="0"/>
      <psa10 value="0.0341660603" flag="0"/>
      <psa30 value="0.0022423014" flag="0"/>
    </comp>
    <comp name="--.HNN">
      <acc value="0.1296401717" flag="0"/>
      <vel value="0.0398481261" flag="0"/>
      <psa03 value="0.1644065156" flag="0"/>
      <psa10 value="0.0274567589" flag="0"/>
      <psa30 value="0.0031386208" flag="0"/>
    </comp>
  </station>
  <station code="AST1" name="AST1" netid="HI" insttype="unknown" commtype="DIG" lat="38.5416" lon="21.0895">
    <comp name="--.HNE">
      <acc value="0.0132575368" flag="0"/>
      <vel value="0.0117564425" flag="0"/>
      <psa03 value="0.0367843093" flag="0"/>
      <psa10 value="0.0156772408" flag="0"/>
      <psa30 value="0.0011606335" flag="0"/>
    </comp>
    <comp name="--.HNN">
      <acc value="0.0118833853" flag="0"/>
      <vel value="0.0064824040" flag="0"/>
      <psa03 value="0.0348166012" flag="0"/>
      <psa10 value="0.0077435680" flag="0"/>
      <psa30 value="0.0009575922" flag="0"/>
    </comp>
    <comp name="--.HNZ">
      <acc value="0.0081936286" flag="0"/>
      <vel value="0.0058711233" flag="0"/>
      <psa03 value="0.0328199763" flag="0"/>
      <psa10 value="0.0088626748" flag="0"/>
      <psa30 value="0.0005858891" flag="0"/>
    </comp>
  </station>
  <station code="LEF2" name="LEF2" netid="HI" insttype="unknown" commtype="DIG" lat="38.8301" lon="20.7083">
    <comp name="--.HNN">
      <acc value="0.0297849518" flag="0"/>
      <vel value="0.0215870391" flag="0"/>
      <psa03 value="0.0788148852" flag="0"/>
      <psa10 value="0.0331165455" flag="0"/>
      <psa30 value="0.0019589921" flag="0"/>
    </comp>
    <comp name="--.HNZ">
      <acc value="0.0165543334" flag="0"/>
      <vel value="0.0137033078" flag="0"/>
      <psa03 value="0.0572875562" flag="0"/>
      <psa10 value="0.0240922099" flag="0"/>
      <psa30 value="0.0011777604" flag="0"/>
    </comp>
    <comp name="--.HNE">
      <acc value="0.0243924716" flag="0"/>
      <vel value="0.0169983213" flag="0"/>
      <psa03 value="0.0971418676" flag="0"/>
      <psa10 value="0.0222082205" flag="0"/>
      <psa30 value="0.0020404935" flag="0"/>
    </comp>
  </station>
  <station code="LXR2" name="LXR2" netid="HI" insttype="unknown" commtype="DIG" lat="38.2067" lon="20.4364">
    <comp name="--.HNZ">
      <acc value="0.0113663116" flag="0"/>
      <vel value="0.0005706320" flag="0"/>
      <psa03 value="0.0009090705" flag="0"/>
      <psa10 value="0.0001411073" flag="0"/>
      <psa30 value="0.0000471717" flag="0"/>
    </comp>
    <comp name="--.HNE">
      <acc value="0.1502036818" flag="0"/>
      <vel value="0.0763030589" flag="0"/>
      <psa03 value="0.2816835434" flag="0"/>
      <psa10 value="0.0458299220" flag="0"/>
      <psa30 value="0.0036991239" flag="0"/>
    </comp>
    <comp name="--.HNN">
      <acc value="0.1085270345" flag="0"/>
      <vel value="0.0503407614" flag="0"/>
      <psa03 value="0.2768768063" flag="0"/>
      <psa10 value="0.0334036821" flag="0"/>
      <psa30 value="0.0031427165" flag="0"/>
    </comp>
  </station>
  <station code="VAS2" name="VAS2" netid="HI" insttype="CMG-5TD,ACCELEROMETER,GURALP" commtype="DIG" lat="38.6306" lon="20.6081">
    <comp name="--.HNE">
      <acc value="0.0427969261" flag="0"/>
      <vel value="0.0293610503" flag="0"/>
      <psa03 value="0.1114108795" flag="0"/>
      <psa10 value="0.0317467461" flag="0"/>
      <psa30 value="0.0021217771" flag="0"/>
    </comp>
    <comp name="--.HNN">
      <acc value="0.0484533063" flag="0"/>
      <vel value="0.0349944245" flag="0"/>
      <psa03 value="0.1282470465" flag="0"/>
      <psa10 value="0.0550474474" flag="0"/>
      <psa30 value="0.0027324526" flag="0"/>
    </comp>
    <comp name="--.HNZ">
      <acc value="0.0258266098" flag="0"/>
      <vel value="0.0152523795" flag="0"/>
      <psa03 value="0.0730887219" flag="0"/>
      <psa10 value="0.0189786196" flag="0"/>
      <psa30 value="0.0011527787" flag="0"/>
    </comp>
  </station>
  <station code="VSK1" name="VSK1" netid="HI" insttype="unknown" commtype="DIG" lat="38.4091" lon="20.564">
    <comp name="--.HNE">
      <acc value="0.0217254550" flag="0"/>
      <vel value="0.0090475732" flag="0"/>
      <psa03 value="0.0461881787" flag="0"/>
      <psa10 value="0.0106556841" flag="0"/>
      <psa30 value="0.0021355729" flag="0"/>
    </comp>
    <comp name="--.HNZ">
      <acc value="0.0110665449" flag="0"/>
      <vel value="0.0074305750" flag="0"/>
      <psa03 value="0.0366268137" flag="0"/>
      <psa10 value="0.0105968395" flag="0"/>
      <psa30 value="0.0007371847" flag="0"/>
    </comp>
    <comp name="--.HNN">
      <acc value="0.0200814665" flag="0"/>
      <vel value="0.0128870721" flag="0"/>
      <psa03 value="0.0415498535" flag="0"/>
      <psa10 value="0.0194876925" flag="0"/>
      <psa30 value="0.0011691202" flag="0"/>
    </comp>
  </station>
  <station code="LXRA" name="LXRA" netid="HL" insttype="CMG-5" commtype="DIG" lat="38.2001" lon="20.4372">
    <comp name="00.HNN">
      <acc value="0.0878446552" flag="0"/>
      <vel value="0.0479566301" flag="0"/>
      <psa03 value="0.3301602284" flag="0"/>
      <psa10 value="0.0432558490" flag="0"/>
      <psa30 value="0.0026972874" flag="0"/>
    </comp>
    <comp name="00.HNZ">
      <acc value="0.0512015632" flag="0"/>
      <vel value="0.0329451116" flag="0"/>
      <psa03 value="0.0976482624" flag="0"/>
      <psa10 value="0.0217055185" flag="0"/>
      <psa30 value="0.0018317531" flag="0"/>
    </comp>
    <comp name="00.HNE">
      <acc value="0.1173634888" flag="0"/>
      <vel value="0.0737978516" flag="0"/>
      <psa03 value="0.3353814894" flag="0"/>
      <psa10 value="0.0385669152" flag="0"/>
      <psa30 value="0.0031682586" flag="0"/>
    </comp>
  </station>
  <station code="ORTH" name="ORTH" netid="HL" insttype="30" commtype="DIG" lat="37.8511" lon="20.6963">
    <comp name="--.HHE">
      <acc value="0.0383648172" flag="0"/>
      <vel value="0.0166855041" flag="0"/>
      <psa03 value="0.1088255533" flag="0"/>
      <psa10 value="0.0199809031" flag="0"/>
      <psa30 value="0.0019111321" flag="0"/>
    </comp>
    <comp name="--.HHN">
      <acc value="0.0542987046" flag="0"/>
      <vel value="0.0177497094" flag="0"/>
      <psa03 value="0.1170474414" flag="0"/>
      <psa10 value="0.0156903529" flag="0"/>
      <psa30 value="0.0016787878" flag="0"/>
    </comp>
    <comp name="--.HHZ">
      <acc value="0.0224126661" flag="0"/>
      <vel value="0.0149953313" flag="0"/>
      <psa03 value="0.0422643131" flag="0"/>
      <psa10 value="0.0159873705" flag="0"/>
      <psa30 value="0.0011522569" flag="0"/>
    </comp>
  </station>
  <station code="AXS" name="AXS" netid="HP" insttype="Compact," commtype="DIG" lat="38.1962" lon="21.3763">
    <comp name="--.HHE">
      <acc value="0.0021198996" flag="0"/>
      <vel value="0.0014563690" flag="0"/>
      <psa03 value="0.0043946072" flag="0"/>
      <psa10 value="0.0026138342" flag="0"/>
      <psa30 value="0.0003550314" flag="0"/>
    </comp>
    <comp name="--.HHN">
      <acc value="0.0030794657" flag="0"/>
      <vel value="0.0031759737" flag="0"/>
      <psa03 value="0.0074026682" flag="0"/>
      <psa10 value="0.0033706852" flag="0"/>
      <psa30 value="0.0004406930" flag="0"/>
    </comp>
    <comp name="--.HHZ">
      <acc value="0.0025721715" flag="0"/>
      <vel value="0.0012388680" flag="0"/>
      <psa03 value="0.0042268564" flag="0"/>
      <psa10 value="0.0028777972" flag="0"/>
      <psa30 value="0.0002228873" flag="0"/>
    </comp>
  </station>
  <station code="FSK" name="FSK" netid="HP" insttype="40," commtype="DIG" lat="38.4593" lon="20.5623">
    <comp name="--.HHZ">
      <acc value="0.0093576220" flag="0"/>
      <vel value="0.0053665007" flag="0"/>
      <psa03 value="0.0224577256" flag="0"/>
      <psa10 value="0.0052589543" flag="0"/>
      <psa30 value="0.0009920863" flag="0"/>
    </comp>
    <comp name="--.HHE">
      <acc value="0.0160903405" flag="0"/>
      <vel value="0.0092489812" flag="0"/>
      <psa03 value="0.0291061250" flag="0"/>
      <psa10 value="0.0072793479" flag="0"/>
      <psa30 value="0.0018453374" flag="0"/>
    </comp>
    <comp name="--.HHN">
      <acc value="0.0096443657" flag="0"/>
      <vel value="0.0062526481" flag="0"/>
      <psa03 value="0.0288431195" flag="0"/>
      <psa10 value="0.0076275223" flag="0"/>
      <psa30 value="0.0007497430" flag="0"/>
    </comp>
  </station>
  <station code="LTHK" name="LTHK" netid="HP" insttype="40," commtype="DIG" lat="37.7095" lon="20.8367">
    <comp name="--.HHE">
      <acc value="0.0567458226" flag="0"/>
      <vel value="0.0136541988" flag="0"/>
      <psa03 value="0.0458614025" flag="0"/>
      <psa10 value="0.0124867164" flag="0"/>
      <psa30 value="0.0015076733" flag="0"/>
    </comp>
    <comp name="--.HHN">
      <acc value="0.0355865804" flag="0"/>
      <vel value="0.0149635081" flag="0"/>
      <psa03 value="0.0503283954" flag="0"/>
      <psa10 value="0.0150452499" flag="0"/>
      <psa30 value="0.0012379129" flag="0"/>
    </comp>
    <comp name="--.HHZ">
      <acc value="0.0581137871" flag="0"/>
      <vel value="0.0082798387" flag="0"/>
      <psa03 value="0.0449457803" flag="0"/>
      <psa10 value="0.0094806966" flag="0"/>
      <psa30 value="0.0009278526" flag="0"/>
    </comp>
  </station>
  <station code="DMLN" name="DMLN" netid="HT" insttype="1s-100Hz," commtype="DIG" lat="38.2385" lon="20.3734">
    <comp name="--.HHE">
      <acc value="0.0775665433" flag="0"/>
      <vel value="0.0450598806" flag="0"/>
      <psa03 value="0.1979996475" flag="0"/>
      <psa10 value="0.0437154597" flag="0"/>
      <psa30 value="0.0028535616" flag="0"/>
    </comp>
    <comp name="--.HHN">
      <acc value="0.0882950776" flag="0"/>
      <vel value="0.0297446707" flag="0"/>
      <psa03 value="0.1161445499" flag="0"/>
      <psa10 value="0.0233049232" flag="0"/>
      <psa30 value="0.0028920866" flag="0"/>
    </comp>
    <comp name="--.HHZ">
      <acc value="0.0566907473" flag="0"/>
      <vel value="0.0196558792" flag="0"/>
      <psa03 value="0.1024921388" flag="0"/>
      <psa10 value="0.0127777426" flag="0"/>
      <psa30 value="0.0012372588" flag="0"/>
    </comp>
  </station>
  <station code="DRAG" name="DRAG" netid="HT" insttype="30s-100Hz," commtype="DIG" lat="38.6839" lon="20.5746">
    <comp name="--.HHZ">
      <acc value="0.0140925388" flag="0"/>
      <vel value="0.0040742425" flag="0"/>
      <psa03 value="0.0160134115" flag="0"/>
      <psa10 value="0.0023781355" flag="0"/>
      <psa30 value="0.0002986516" flag="0"/>
    </comp>
    <comp name="--.HHN">
      <acc value="0.0322751633" flag="0"/>
      <vel value="0.0117142370" flag="0"/>
      <psa03 value="0.0558398815" flag="0"/>
      <psa10 value="0.0068338826" flag="0"/>
      <psa30 value="0.0005959477" flag="0"/>
    </comp>
    <comp name="--.HHE">
      <acc value="0.0314345780" flag="0"/>
      <vel value="0.0123900537" flag="0"/>
      <psa03 value="0.1112622193" flag="0"/>
      <psa10 value="0.0076582230" flag="0"/>
      <psa30 value="0.0005883630" flag="0"/>
    </comp>
  </station>
  <station code="EVGI" name="EVGI" netid="HT" insttype="30" commtype="DIG" lat="38.621" lon="20.656">
    <comp name="--.HHE">
      <acc value="0.0377285007" flag="0"/>
      <vel value="0.0091776481" flag="0"/>
      <psa03 value="0.0505105955" flag="0"/>
      <psa10 value="0.0045815913" flag="0"/>
      <psa30 value="0.0008004105" flag="0"/>
    </comp>
    <comp name="--.HHN">
      <acc value="0.0429023348" flag="0"/>
      <vel value="0.0112766937" flag="0"/>
      <psa03 value="0.0789016681" flag="0"/>
      <psa10 value="0.0053250318" flag="0"/>
      <psa30 value="0.0005204349" flag="0"/>
    </comp>
    <comp name="--.HHZ">
      <acc value="0.0301275955" flag="0"/>
      <vel value="0.0060566580" flag="0"/>
      <psa03 value="0.0357660811" flag="0"/>
      <psa10 value="0.0057104370" flag="0"/>
      <psa30 value="0.0004196083" flag="0"/>
    </comp>
  </station>
  <station code="ITHC" name="ITHC" netid="HT" insttype="60s," commtype="DIG" lat="38.4622" lon="20.632">
    <comp name="--.HHE">
      <acc value="0.0483267179" flag="0"/>
      <vel value="0.0293671280" flag="0"/>
      <psa03 value="0.1182481390" flag="0"/>
      <psa10 value="0.0183549320" flag="0"/>
      <psa30 value="0.0025512776" flag="0"/>
    </comp>
    <comp name="--.HHN">
      <acc value="0.0325973742" flag="0"/>
      <vel value="0.0160473568" flag="0"/>
      <psa03 value="0.0965993581" flag="0"/>
      <psa10 value="0.0146495940" flag="0"/>
      <psa30 value="0.0017800470" flag="0"/>
    </comp>
    <comp name="--.HHZ">
      <acc value="0.0180619735" flag="0"/>
      <vel value="0.0089634717" flag="0"/>
      <psa03 value="0.0280867656" flag="0"/>
      <psa10 value="0.0064865162" flag="0"/>
      <psa30 value="0.0025326635" flag="0"/>
    </comp>
  </station>
  <station code="LKD2" name="LKD2" netid="HT" insttype="100" commtype="DIG" lat="38.7889" lon="20.6578">
    <comp name="--.HHE">
      <acc value="0.0174560730" flag="0"/>
      <vel value="0.0077680979" flag="0"/>
      <psa03 value="0.0277262021" flag="0"/>
      <psa10 value="0.0088700534" flag="0"/>
      <psa30 value="0.0006344549" flag="0"/>
    </comp>
    <comp name="--.HHZ">
      <acc value="0.0116951343" flag="0"/>
      <vel value="0.0054577128" flag="0"/>
      <psa03 value="0.0239014436" flag="0"/>
      <psa10 value="0.0043488802" flag="0"/>
      <psa30 value="0.0005401085" flag="0"/>
    </comp>
    <comp name="--.HHN">
      <acc value="0.0148336626" flag="0"/>
      <vel value="0.0080631223" flag="0"/>
      <psa03 value="0.0492537996" flag="0"/>
      <psa10 value="0.0061747906" flag="0"/>
      <psa30 value="0.0006072368" flag="0"/>
    </comp>
  </station>
  <station code="NYDR" name="NYDR" netid="HT" insttype="1s-100Hz," commtype="DIG" lat="38.7135" lon="20.6983">
    <comp name="--.HHE">
      <acc value="0.0180144690" flag="0"/>
      <vel value="0.0088372332" flag="0"/>
      <psa03 value="0.0487785733" flag="0"/>
      <psa10 value="0.0064619817" flag="0"/>
      <psa30 value="0.0005750817" flag="0"/>
    </comp>
    <comp name="--.HHN">
      <acc value="0.0170322655" flag="0"/>
      <vel value="0.0108929100" flag="0"/>
      <psa03 value="0.0300201962" flag="0"/>
      <psa10 value="0.0082871042" flag="0"/>
      <psa30 value="0.0004625542" flag="0"/>
    </comp>
    <comp name="--.HHZ">
      <acc value="0.0111674470" flag="0"/>
      <vel value="0.0058043491" flag="0"/>
      <psa03 value="0.0239554300" flag="0"/>
      <psa10 value="0.0052386782" flag="0"/>
      <psa30 value="0.0004920867" flag="0"/>
    </comp>
  </station>
  <station code="PSDA" name="PSDA" netid="HT" insttype="30" commtype="DIG" lat="38.114" lon="20.5841">
    <comp name="--.HHE">
      <acc value="0.0415264497" flag="0"/>
      <vel value="0.0167194381" flag="0"/>
      <psa03 value="0.1325396030" flag="0"/>
      <psa10 value="0.0124632230" flag="0"/>
      <psa30 value="0.0012228755" flag="0"/>
    </comp>
    <comp name="--.HHN">
      <acc value="0.0004237725" flag="0"/>
      <vel value="0.0001856653" flag="0"/>
      <psa03 value="0.0010564831" flag="0"/>
      <psa10 value="0.0002240365" flag="0"/>
      <psa30 value="0.0000156538" flag="0"/>
    </comp>
    <comp name="--.HHZ">
      <acc value="0.0518340772" flag="0"/>
      <vel value="0.0120319969" flag="0"/>
      <psa03 value="0.0482165747" flag="0"/>
      <psa10 value="0.0065546935" flag="0"/>
      <psa30 value="0.0008296358" flag="0"/>
    </comp>
  </station>
  <station code="RTZL" name="RTZL" netid="HT" insttype="Compact," commtype="DIG" lat="38.076" lon="20.7715">
    <comp name="--.HHE">
      <acc value="0.0305607709" flag="0"/>
      <vel value="0.0139779370" flag="0"/>
      <psa03 value="0.0431050204" flag="0"/>
      <psa10 value="0.0186049666" flag="0"/>
      <psa30 value="0.0014857422" flag="0"/>
    </comp>
    <comp name="--.HHZ">
      <acc value="0.0172673542" flag="0"/>
      <vel value="0.0076468913" flag="0"/>
      <psa03 value="0.0272470405" flag="0"/>
      <psa10 value="0.0112039960" flag="0"/>
      <psa30 value="0.0009056251" flag="0"/>
    </comp>
    <comp name="--.HHN">
      <acc value="0.0277987314" flag="0"/>
      <vel value="0.0155776220" flag="0"/>
      <psa03 value="0.0630417469" flag="0"/>
      <psa10 value="0.0224140977" flag="0"/>
      <psa30 value="0.0019506153" flag="0"/>
    </comp>
  </station>
  <station code="STRF" name="STRF" netid="HT" insttype="30s-100Hz," commtype="DIG" lat="37.2497" lon="21.013">
    <comp name="--.HHN">
      <acc value="0.0118206056" flag="0"/>
      <vel value="0.0092895634" flag="0"/>
      <psa03 value="0.0375626560" flag="0"/>
      <psa10 value="0.0094681138" flag="0"/>
      <psa30 value="0.0017246243" flag="0"/>
    </comp>
    <comp name="--.HHE">
      <acc value="0.0110039947" flag="0"/>
      <vel value="0.0078194133" flag="0"/>
      <psa03 value="0.0260435622" flag="0"/>
      <psa10 value="0.0154609531" flag="0"/>
      <psa30 value="0.0014922556" flag="0"/>
    </comp>
    <comp name="--.HHZ">
      <acc value="0.0161395573" flag="0"/>
      <vel value="0.0041614501" flag="0"/>
      <psa03 value="0.0180414057" flag="0"/>
      <psa10 value="0.0060297052" flag="0"/>
      <psa30 value="0.0008802438" flag="0"/>
    </comp>
  </station>
