<stationlist xmlns:esm="https://esm-db.eu/esmws/shakemap/1/" created="1784080687">
	<station code="MALA" name="MALA" netid="CL" source="Corinth Riff Laboratory (CRLNET)" insttype="" lat="38.39341" lon="21.87263" esm:processing="automatic (Paolucci et al 2011)" esm:quality="good">
		<comp name="01.HNE" depth="0.0">
			<acc value="0.0607715704587509" flag="0"/>
			<vel value="0.00772707533332965" flag="0"/>
			<psa03 value="0.0181158328975378" flag="0"/>
			<psa10 value="0.0153567141819452" flag="0"/>
			<psa30 value="0.0015433684905875" flag="0"/>
		</comp>
		<comp name="01.HNN" depth="0.0">
			<acc value="0.0348228996199783" flag="0"/>
			<vel value="0.00581254391750618" flag="0"/>
			<psa03 value="0.0112738249605659" flag="0"/>
			<psa10 value="0.0106410871072781" flag="0"/>
			<psa30 value="0.0012360006289769" flag="0"/>
		</comp>
		<comp name="01.HNZ" depth="0.0">
			<acc value="0.0701473403740386" flag="0"/>
			<vel value="0.00759286494757714" flag="0"/>
			<psa03 value="0.00696443010931502" flag="0"/>
			<psa10 value="0.00481679143253423" flag="0"/>
			<psa30 value="0.000336693371991822" flag="0"/>
		</comp>
	</station>
	<station code="AGR3" name="AGR3" netid="HI" source="ITSAK Strong Motion Network" insttype="" lat="38.5893" lon="21.4162" esm:processing="manual (Paolucci et al 2011)" esm:quality="good">
		<comp name="--.HNE" depth="0.0">
			<acc value="0.0154139461128882" flag="0"/>
			<vel value="0.0143618213215231" flag="0"/>
			<psa03 value="0.037213493857167" flag="0"/>
			<psa10 value="0.028794231226504" flag="0"/>
			<psa30 value="0.00307074508845834" flag="0"/>
		</comp>
		<comp name="--.HNN" depth="0.0">
			<acc value="0.0123316261651054" flag="0"/>
			<vel value="0.0104458243324579" flag="0"/>
			<psa03 value="0.0410280929097998" flag="0"/>
			<psa10 value="0.0221325936757099" flag="0"/>
			<psa30 value="0.0017689011393525" flag="0"/>
		</comp>
		<comp name="--.HNZ" depth="0.0">
			<acc value="0.00752463023896486" flag="0"/>
			<vel value="0.00712266180711185" flag="0"/>
			<psa03 value="0.0165955850531462" flag="0"/>
			<psa10 value="0.0205421658176697" flag="0"/>
			<psa30 value="0.00134922865060976" flag="0"/>
		</comp>
	</station>
	<station code="ARG2" name="ARG2" netid="HI" source="ITSAK Strong Motion Network" insttype="" lat="38.1783" lon="20.4878" esm:processing="manual (Paolucci et al 2011)" esm:quality="good">
		<comp name="--.HNE" depth="0.0">
			<acc value="0.0800614243488379" flag="0"/>
			<vel value="0.0392097321361232" flag="0"/>
			<psa03 value="0.165857383070976" flag="0"/>
			<psa10 value="0.0341986579932537" flag="0"/>
			<psa30 value="0.00229631961990507" flag="0"/>
		</comp>
		<comp name="--.HNN" depth="0.0">
			<acc value="0.129833314529301" flag="0"/>
			<vel value="0.0405777098290655" flag="0"/>
			<psa03 value="0.166282952929557" flag="0"/>
			<psa10 value="0.0275200918210215" flag="0"/>
			<psa30 value="0.00322202344324024" flag="0"/>
		</comp>
		<comp name="--.HNZ" depth="0.0">
			<acc value="0.0416689951381908" flag="0"/>
			<vel value="0.0178429573932406" flag="0"/>
			<psa03 value="0.0636362416303642" flag="0"/>
			<psa10 value="0.012541466435601" flag="0"/>
			<psa30 value="0.00131262549666379" flag="0"/>
		</comp>
	</station>
	<station code="AST1" name="AST1" netid="HI" source="ITSAK Strong Motion Network" insttype="" lat="38.5416" lon="21.0895" esm:processing="manual (Paolucci et al 2011)" esm:quality="good">
		<comp name="--.HNE" depth="0.0">
			<acc value="0.0131953618643169" flag="0"/>
			<vel value="0.0118465571439358" flag="0"/>
			<psa03 value="0.0374905799210922" flag="0"/>
			<psa10 value="0.0156691108141914" flag="0"/>
			<psa30 value="0.0011904122964724" flag="0"/>
		</comp>
		<comp name="--.HNN" depth="0.0">
			<acc value="0.0118713039181227" flag="0"/>
			<vel value="0.00655566483590061" flag="0"/>
			<psa03 value="0.0342053336438162" flag="0"/>
			<psa10 value="0.00774763543032383" flag="0"/>
			<psa30 value="0.000978366270297168" flag="0"/>
		</comp>
		<comp name="--.HNZ" depth="0.0">
			<acc value="0.00793818831258368" flag="0"/>
			<vel value="0.00591126034718986" flag="0"/>
			<psa03 value="0.0331761508821758" flag="0"/>
			<psa10 value="0.00886797433477792" flag="0"/>
			<psa30 value="0.000595236983612226" flag="0"/>
		</comp>
	</station>
	<station code="KAC1" name="KAC1" netid="HI" source="ITSAK Strong Motion Network" insttype="" lat="38.143412" lon="21.549694" esm:processing="manual (Paolucci et al 2011)" esm:quality="good">
		<comp name="--.HNE" depth="0.0">
			<acc value="0.00917873584068331" flag="0"/>
			<vel value="0.00777886753257766" flag="0"/>
			<psa03 value="0.0316612953220962" flag="0"/>
			<psa10 value="0.0124859243187084" flag="0"/>
			<psa30 value="0.00232861238414221" flag="0"/>
		</comp>
		<comp name="--.HNN" depth="0.0">
			<acc value="0.00939826449550313" flag="0"/>
			<vel value="0.0101006108124424" flag="0"/>
			<psa03 value="0.0297136871359455" flag="0"/>
			<psa10 value="0.0143347546071414" flag="0"/>
			<psa30 value="0.00146505371928546" flag="0"/>
		</comp>
		<comp name="--.HNZ" depth="0.0">
			<acc value="0.00924033060694501" flag="0"/>
			<vel value="0.00458633621256654" flag="0"/>
			<psa03 value="0.0159235157922727" flag="0"/>
			<psa10 value="0.00578608345588233" flag="0"/>
			<psa30 value="0.00122485905756793" flag="0"/>
		</comp>
	</station>
	<station code="LEF2" name="LEF2" netid="HI" source="ITSAK Strong Motion Network" insttype="" lat="38.830093" lon="20.708346" esm:processing="manual (Paolucci et al 2011)" esm:quality="good">
		<comp name="--.HNE" depth="0.0">
			<acc value="0.024393172825114" flag="0"/>
			<vel value="0.0166788272813017" flag="0"/>
			<psa03 value="0.0980973109654148" flag="0"/>
			<psa10 value="0.0223196298159362" flag="0"/>
			<psa30 value="0.00214372721974077" flag="0"/>
		</comp>
		<comp name="--.HNN" depth="0.0">
			<acc value="0.0298608531855365" flag="0"/>
			<vel value="0.0216566307227303" flag="0"/>
			<psa03 value="0.0800272701638949" flag="0"/>
			<psa10 value="0.0332179230243752" flag="0"/>
			<psa30 value="0.00201192494682038" flag="0"/>
		</comp>
		<comp name="--.HNZ" depth="0.0">
			<acc value="0.0165007719481702" flag="0"/>
			<vel value="0.01382212678052" flag="0"/>
			<psa03 value="0.057653204658528" flag="0"/>
			<psa10 value="0.0240963831421242" flag="0"/>
			<psa30 value="0.00118901032859891" flag="0"/>
		</comp>
	</station>
	<station code="LXR2" name="LXR2" netid="HI" source="ITSAK Strong Motion Network" insttype="" lat="38.206718" lon="20.436386" esm:processing="automatic (Paolucci et al 2011)" esm:quality="best">
		<comp name="--.HNE" depth="0.0">
			<acc value="0.148699518550705" flag="0"/>
			<vel value="0.075792089077753" flag="0"/>
			<psa03 value="0.281870318358548" flag="0"/>
			<psa10 value="0.0459163017295744" flag="0"/>
			<psa30 value="0.00384331626750534" flag="0"/>
		</comp>
		<comp name="--.HNN" depth="0.0">
			<acc value="0.107871617470362" flag="0"/>
			<vel value="0.0506129734015544" flag="0"/>
			<psa03 value="0.279091342598541" flag="0"/>
			<psa10 value="0.0334645131097492" flag="0"/>
			<psa30 value="0.00339411588518455" flag="0"/>
		</comp>
		<comp name="--.HNZ" depth="0.0">
			<acc value="0.0524406271779974" flag="0"/>
			<vel value="0.0274857960368851" flag="0"/>
			<psa03 value="0.117292707566378" flag="0"/>
			<psa10 value="0.0188117018079054" flag="0"/>
			<psa30 value="0.00170837348385803" flag="0"/>
		</comp>
	</station>
	<station code="PRE2" name="PRE2" netid="HI" source="ITSAK Strong Motion Network" insttype="" lat="38.9577" lon="20.7548" esm:processing="manual (Paolucci et al 2011)" esm:quality="good">
		<comp name="--.HNE" depth="0.0">
			<acc value="0.0271567313162233" flag="0"/>
			<vel value="0.0170162784413711" flag="0"/>
			<psa03 value="0.077178440817932" flag="0"/>
			<psa10 value="0.0269848207369392" flag="0"/>
			<psa30 value="0.00190323399657835" flag="0"/>
		</comp>
		<comp name="--.HNN" depth="0.0">
			<acc value="0.0217358067220713" flag="0"/>
			<vel value="0.0155304564792437" flag="0"/>
			<psa03 value="0.0758370186219616" flag="0"/>
			<psa10 value="0.0253860692024963" flag="0"/>
			<psa30 value="0.00232359476008258" flag="0"/>
		</comp>
		<comp name="--.HNZ" depth="0.0">
			<acc value="0.0107752365143806" flag="0"/>
			<vel value="0.00788881237235887" flag="0"/>
			<psa03 value="0.0272811900574522" flag="0"/>
			<psa10 value="0.0208815295488514" flag="0"/>
			<psa30 value="0.000811963267748246" flag="0"/>
		</comp>
	</station>
	<station code="VAS2" name="VAS2" netid="HI" source="ITSAK Strong Motion Network" insttype="" lat="38.630558" lon="20.608081" esm:processing="manual (Paolucci et al 2011)" esm:quality="good">
		<comp name="--.HNE" depth="0.0">
			<acc value="0.0429290385631324" flag="0"/>
			<vel value="0.0293700411276764" flag="0"/>
			<psa03 value="0.11383144702471" flag="0"/>
			<psa10 value="0.0318094534701797" flag="0"/>
			<psa30 value="0.00215952555796981" flag="0"/>
		</comp>
		<comp name="--.HNN" depth="0.0">
			<acc value="0.0484640740400752" flag="0"/>
			<vel value="0.0350632714690974" flag="0"/>
			<psa03 value="0.126956316482898" flag="0"/>
			<psa10 value="0.0551441892819063" flag="0"/>
			<psa30 value="0.00284603645261403" flag="0"/>
		</comp>
		<comp name="--.HNZ" depth="0.0">
			<acc value="0.0255401005283853" flag="0"/>
			<vel value="0.0153054972053926" flag="0"/>
			<psa03 value="0.0731365428536952" flag="0"/>
			<psa10 value="0.0190420889449389" flag="0"/>
			<psa30 value="0.00118398343309175" flag="0"/>
		</comp>
	</station>
	<station code="VSK1" name="VSK1" netid="HI" source="ITSAK Strong Motion Network" insttype="" lat="38.4091" lon="20.564" esm:processing="automatic (Paolucci et al 2011)" esm:quality="best">
		<comp name="--.HNE" depth="0.0">
			<acc value="0.0216386701083787" flag="0"/>
			<vel value="0.00889124946705985" flag="0"/>
			<psa03 value="0.0463588991746697" flag="0"/>
			<psa10 value="0.0106456670982032" flag="0"/>
			<psa30 value="0.00221687019010158" flag="0"/>
		</comp>
		<comp name="--.HNN" depth="0.0">
			<acc value="0.0199366005978702" flag="0"/>
			<vel value="0.0126451607255149" flag="0"/>
			<psa03 value="0.0416791907293241" flag="0"/>
			<psa10 value="0.019558200009768" flag="0"/>
			<psa30 value="0.00119055522260935" flag="0"/>
		</comp>
		<comp name="--.HNZ" depth="0.0">
			<acc value="0.0107520367034351" flag="0"/>
			<vel value="0.00738754222176833" flag="0"/>
			<psa03 value="0.0372156216023027" flag="0"/>
			<psa10 value="0.0105935630215655" flag="0"/>
			<psa30 value="0.000777970755495423" flag="0"/>
		</comp>
	</station>
	<station code="ZAK2" name="ZAK2" netid="HI" source="ITSAK Strong Motion Network" insttype="" lat="37.787501" lon="20.899999" esm:processing="automatic (Paolucci et al 2011)" esm:quality="best">
		<comp name="--.HNE" depth="0.0">
			<acc value="0.0543862602217576" flag="0"/>
			<vel value="0.033885685438878" flag="0"/>
			<psa03 value="0.155606110224252" flag="0"/>
			<psa10 value="0.0324873896301282" flag="0"/>
			<psa30 value="0.00328358293792211" flag="0"/>
		</comp>
		<comp name="--.HNN" depth="0.0">
			<acc value="0.0494463936120473" flag="0"/>
			<vel value="0.0350460409307817" flag="0"/>
			<psa03 value="0.1672275259194" flag="0"/>
			<psa10 value="0.0271025597865627" flag="0"/>
			<psa30 value="0.00386462642919968" flag="0"/>
		</comp>
		<comp name="--.HNZ" depth="0.0">
			<acc value="0.0266349951409598" flag="0"/>
			<vel value="0.013512052030741" flag="0"/>
			<psa03 value="0.0950843822070887" flag="0"/>
			<psa10 value="0.0199549912952248" flag="0"/>
			<psa30 value="0.00433533552803619" flag="0"/>
		</comp>
	</station>
	<station code="LXRA" name="LXRA" netid="HL" source="National Observatory of Athens Seismic Network" insttype="" lat="38.20006" lon="20.43718" esm:processing="automatic (Paolucci et al 2011)" esm:quality="best">
		<comp name="00.HNE" depth="0.0">
			<acc value="0.116945619379136" flag="0"/>
			<vel value="0.0746149687893288" flag="0"/>
			<psa03 value="0.335945358898059" flag="0"/>
			<psa10 value="0.0385812733199962" flag="0"/>
			<psa30 value="0.00330280275280591" flag="0"/>
		</comp>
		<comp name="00.HNN" depth="0.0">
			<acc value="0.0858204199776888" flag="0"/>
			<vel value="0.0482973003011585" flag="0"/>
			<psa03 value="0.330263253319714" flag="0"/>
			<psa10 value="0.0432846736470558" flag="0"/>
			<psa30 value="0.00276417998835837" flag="0"/>
		</comp>
		<comp name="00.HNZ" depth="0.0">
			<acc value="0.0495959195352845" flag="0"/>
			<vel value="0.0331506568989368" flag="0"/>
			<psa03 value="0.0984628247622047" flag="0"/>
			<psa10 value="0.0217359936528849" flag="0"/>
			<psa30 value="0.00186226503258689" flag="0"/>
		</comp>
	</station>
	<station code="SMHA" name="SMHA" netid="HL" source="National Observatory of Athens Seismic Network" insttype="" lat="38.25123" lon="20.6477" esm:processing="manual (Paolucci et al 2011)" esm:quality="good">
		<comp name="00.HNE" depth="0.0">
			<acc value="0.0888821440590733" flag="0"/>
			<vel value="0.0524649589236526" flag="0"/>
			<psa03 value="0.271680247483058" flag="0"/>
			<psa10 value="0.0410451452894363" flag="0"/>
			<psa30 value="0.00225841502557838" flag="0"/>
		</comp>
		<comp name="00.HNN" depth="0.0">
			<acc value="0.0901825226284687" flag="0"/>
			<vel value="0.0528637180156834" flag="0"/>
			<psa03 value="0.283709211009523" flag="0"/>
			<psa10 value="0.0392340040602185" flag="0"/>
			<psa30 value="0.00179408280751443" flag="0"/>
		</comp>
		<comp name="00.HNZ" depth="0.0">
			<acc value="0.0431445759085388" flag="0"/>
			<vel value="0.0235312364504359" flag="0"/>
			<psa03 value="0.079132163992504" flag="0"/>
			<psa10 value="0.0255662817656942" flag="0"/>
			<psa30 value="0.00147122329465621" flag="0"/>
		</comp>
	</station>
	<station code="AMT" name="AMT" netid="HP" source="University of Patras, Seismological Laboratory (PSLNET)" insttype="" lat="37.5324" lon="21.7089" esm:processing="manual (Paolucci et al 2011)" esm:quality="bad">
		<comp name="--.HNE" depth="0.0">
			<acc value="0.00314181706908859" flag="0"/>
			<vel value="0.00408097524506481" flag="0"/>
			<psa03 value="0.0115089473071039" flag="0"/>
			<psa10 value="0.00694168172733056" flag="0"/>
			<psa30 value="0.000553884660888523" flag="0"/>
		</comp>
		<comp name="--.HNN" depth="0.0">
			<acc value="0.00315975290156585" flag="0"/>
			<vel value="0.00397220643216755" flag="0"/>
			<psa03 value="0.00761774877911725" flag="0"/>
			<psa10 value="0.00555273315380052" flag="0"/>
			<psa30 value="0.000558640548859403" flag="0"/>
		</comp>
		<comp name="--.HNZ" depth="0.0">
			<acc value="0.00212371454889817" flag="0"/>
			<vel value="0.00199300150356512" flag="0"/>
			<psa03 value="0.00620873291265753" flag="0"/>
			<psa10 value="0.00268390842076023" flag="0"/>
			<psa30 value="0.000278846102394139" flag="0"/>
		</comp>
	</station>
	<station code="EFP" name="EFP" netid="HP" source="University of Patras, Seismological Laboratory (PSLNET)" insttype="" lat="38.4269" lon="21.9058" esm:processing="manual (Paolucci et al 2011)" esm:quality="good">
		<comp name="--.HNE" depth="0.0">
			<acc value="0.00193462469403888" flag="0"/>
			<vel value="0.00181842888604092" flag="0"/>
			<psa03 value="0.00605669093958327" flag="0"/>
			<psa10 value="0.00360789603665619" flag="0"/>
			<psa30 value="0.000261436641811049" flag="0"/>
		</comp>
		<comp name="--.HNN" depth="0.0">
			<acc value="0.00229879572101046" flag="0"/>
			<vel value="0.00198786063124822" flag="0"/>
			<psa03 value="0.00599226414560921" flag="0"/>
			<psa10 value="0.00488331521440904" flag="0"/>
			<psa30 value="0.000445888444171307" flag="0"/>
		</comp>
		<comp name="--.HNZ" depth="0.0">
			<acc value="0.00221710753094961" flag="0"/>
			<vel value="0.0010772567683405" flag="0"/>
			<psa03 value="0.00641288380646946" flag="0"/>
			<psa10 value="0.00230011127733263" flag="0"/>
			<psa30 value="0.000275267584084629" flag="0"/>
		</comp>
	</station>
	<station code="FSK" name="FSK" netid="HP" source="University of Patras, Seismological Laboratory (PSLNET)" insttype="" lat="38.4593" lon="20.5623" esm:processing="automatic (Paolucci et al 2011)" esm:quality="best">
		<comp name="--.HNE" depth="0.0">
			<acc value="0.0164525087631595" flag="0"/>
			<vel value="0.00992405397413039" flag="0"/>
			<psa03 value="0.0310728422774608" flag="0"/>
			<psa10 value="0.00794246083656107" flag="0"/>
			<psa30 value="0.00199909576361722" flag="0"/>
		</comp>
		<comp name="--.HNN" depth="0.0">
			<acc value="0.0103003091362337" flag="0"/>
			<vel value="0.00638072455167553" flag="0"/>
			<psa03 value="0.0269970123779217" flag="0"/>
			<psa10 value="0.00759735969402735" flag="0"/>
			<psa30 value="0.000783211831856392" flag="0"/>
		</comp>
		<comp name="--.HNZ" depth="0.0">
			<acc value="0.00984453641335677" flag="0"/>
			<vel value="0.00541466463535929" flag="0"/>
			<psa03 value="0.0225017067734648" flag="0"/>
			<psa10 value="0.00526531833273174" flag="0"/>
			<psa30 value="0.00103588831001677" flag="0"/>
		</comp>
	</station>
	<station code="LTHK" name="LTHK" netid="HP" source="University of Patras, Seismological Laboratory (PSLNET)" insttype="" lat="37.7095" lon="20.8367" esm:processing="manual (Paolucci et al 2011)" esm:quality="bad">
		<comp name="--.HNE" depth="0.0">
			<acc value="0.051825485943048" flag="0"/>
			<vel value="0.0137940031960937" flag="0"/>
			<psa03 value="0.0472802987543031" flag="0"/>
			<psa10 value="0.0125123073164433" flag="0"/>
			<psa30 value="0.00174355487695528" flag="0"/>
		</comp>
		<comp name="--.HNN" depth="0.0">
			<acc value="0.0304732567133404" flag="0"/>
			<vel value="0.0150391498592988" flag="0"/>
			<psa03 value="0.0495905663818076" flag="0"/>
			<psa10 value="0.0150841339373474" flag="0"/>
			<psa30 value="0.00132722563051933" flag="0"/>
		</comp>
		<comp name="--.HNZ" depth="0.0">
			<acc value="0.0719106208658622" flag="0"/>
			<vel value="0.00818912408276192" flag="0"/>
			<psa03 value="0.0451947595560581" flag="0"/>
			<psa10 value="0.00949452177798625" flag="0"/>
			<psa30 value="0.00104498651689284" flag="0"/>
		</comp>
	</station>
	<station code="PDO" name="PDO" netid="HP" source="University of Patras, Seismological Laboratory (PSLNET)" insttype="" lat="38.5986" lon="21.1833" esm:processing="automatic (Paolucci et al 2011)" esm:quality="best">
		<comp name="--.HNE" depth="0.0">
			<acc value="0.0120932213924303" flag="0"/>
			<vel value="0.010009145561966" flag="0"/>
			<psa03 value="0.0320750050199994" flag="0"/>
			<psa10 value="0.00936084323490989" flag="0"/>
			<psa30 value="0.000953797351061524" flag="0"/>
		</comp>
		<comp name="--.HNN" depth="0.0">
			<acc value="0.0108054786795283" flag="0"/>
			<vel value="0.00645065444374539" flag="0"/>
			<psa03 value="0.0410411797142515" flag="0"/>
			<psa10 value="0.00733480105081146" flag="0"/>
			<psa30 value="0.000651807397792814" flag="0"/>
		</comp>
		<comp name="--.HNZ" depth="0.0">
			<acc value="0.00787725154520334" flag="0"/>
			<vel value="0.00438809807771952" flag="0"/>
			<psa03 value="0.0193226719592491" flag="0"/>
			<psa10 value="0.00280477634954399" flag="0"/>
			<psa30 value="0.000709798739434932" flag="0"/>
		</comp>
	</station>
	<station code="PVO" name="PVO" netid="HP" source="University of Patras, Seismological Laboratory (PSLNET)" insttype="" lat="38.616" lon="21.525" esm:processing="automatic (Paolucci et al 2011)" esm:quality="best">
		<comp name="--.HNE" depth="0.0">
			<acc value="0.00701073316485435" flag="0"/>
			<vel value="0.00472546302513595" flag="0"/>
			<psa03 value="0.02048188937675" flag="0"/>
			<psa10 value="0.00641270731037473" flag="0"/>
			<psa30 value="0.00124428961557939" flag="0"/>
		</comp>
		<comp name="--.HNN" depth="0.0">
			<acc value="0.00482233617323554" flag="0"/>
			<vel value="0.00373790616108504" flag="0"/>
			<psa03 value="0.0188227273820821" flag="0"/>
			<psa10 value="0.00581582761379044" flag="0"/>
			<psa30 value="0.000721885529706448" flag="0"/>
		</comp>
		<comp name="--.HNZ" depth="0.0">
