<stationlist created="1779846979">
	<station code="AGRP" name="AGRP" netid="CL" source="Corinth Riff Laboratory (CRLNET)" insttype="" lat="38.3959" lon="21.72277">
		<comp name="00.HNE" depth="0.0">
			<acc value="0.00378433668368369" flag="0"/>
			<vel value="0.00256007743973387" flag="0"/>
			<psa03 value="0.0085167894559253" flag="0"/>
			<psa10 value="0.00532232632801365" flag="0"/>
			<psa30 value="0.000512678910379418" flag="0"/>
		</comp>
		<comp name="00.HNN" depth="0.0">
			<acc value="0.00352646908446129" flag="0"/>
			<vel value="0.00227439545008334" flag="0"/>
			<psa03 value="0.00566946737126714" flag="0"/>
			<psa10 value="0.00418909500697782" flag="0"/>
			<psa30 value="0.000519505560526094" flag="0"/>
		</comp>
		<comp name="00.HNZ" depth="0.0">
			<acc value="0.00338447444945848" flag="0"/>
			<vel value="0.00201409514740417" flag="0"/>
			<psa03 value="0.00546515761277866" flag="0"/>
			<psa10 value="0.00223903051228206" flag="0"/>
			<psa30 value="0.000361734796488233" flag="0"/>
		</comp>
	</station>
	<station code="MALA" name="MALA" netid="CL" source="Corinth Riff Laboratory (CRLNET)" insttype="" lat="38.39341" lon="21.87263">
		<comp name="01.HNE" depth="0.0">
			<acc value="0.0607715704587509" flag="0"/>
			<vel value="0.00772707533332965" flag="0"/>
			<psa03 value="0.0181158328975378" flag="0"/>
			<psa10 value="0.0153567141819452" flag="0"/>
			<psa30 value="0.0015433684905875" flag="0"/>
		</comp>
		<comp name="01.HNN" depth="0.0">
			<acc value="0.0348228996199783" flag="0"/>
			<vel value="0.00581254391750618" flag="0"/>
			<psa03 value="0.0112738249605659" flag="0"/>
			<psa10 value="0.0106410871072781" flag="0"/>
			<psa30 value="0.0012360006289769" flag="0"/>
		</comp>
		<comp name="01.HNZ" depth="0.0">
			<acc value="0.0701473403740386" flag="0"/>
			<vel value="0.00759286494757714" flag="0"/>
			<psa03 value="0.00696443010931502" flag="0"/>
			<psa10 value="0.00481679143253423" flag="0"/>
			<psa30 value="0.000336693371991822" flag="0"/>
		</comp>
	</station>
	<station code="TRIZ" name="TRIZ" netid="CL" source="Corinth Riff Laboratory (CRLNET)" insttype="" lat="38.36543" lon="22.07272">
		<comp name="00.HNE" depth="0.0">
			<acc value="0.00146010881903207" flag="0"/>
			<vel value="0.00192556050892432" flag="0"/>
			<psa03 value="0.00446432178107432" flag="0"/>
			<psa10 value="0.00287428884503016" flag="0"/>
			<psa30 value="0.000807837369428288" flag="0"/>
		</comp>
		<comp name="00.HNN" depth="0.0">
			<acc value="0.00244152924154058" flag="0"/>
			<vel value="0.00194104230779948" flag="0"/>
			<psa03 value="0.00996860047501542" flag="0"/>
			<psa10 value="0.00362809628107387" flag="0"/>
			<psa30 value="0.000406629359074301" flag="0"/>
		</comp>
		<comp name="00.HNZ" depth="0.0">
			<acc value="0.00272098995195579" flag="0"/>
			<vel value="0.00259909300575072" flag="0"/>
			<psa03 value="0.00399136727307767" flag="0"/>
			<psa10 value="0.00208852530767641" flag="0"/>
			<psa30 value="0.00165979745343672" flag="0"/>
		</comp>
	</station>
	<station code="AGR3" name="AGR3" netid="HI" source="ITSAK Strong Motion Network" insttype="" lat="38.5893" lon="21.4162">
		<comp name="--.HNE" depth="0.0">
			<acc value="0.015824943426622" flag="0"/>
			<vel value="0.0142720068114857" flag="0"/>
			<psa03 value="0.0373071953769474" flag="0"/>
			<psa10 value="0.028771319083699" flag="0"/>
			<psa30 value="0.00300201220191031" flag="0"/>
		</comp>
		<comp name="--.HNN" depth="0.0">
			<acc value="0.0125351640121735" flag="0"/>
			<vel value="0.0105104332172438" flag="0"/>
			<psa03 value="0.0414615226640715" flag="0"/>
			<psa10 value="0.0221239549784482" flag="0"/>
			<psa30 value="0.0017156595915276" flag="0"/>
		</comp>
		<comp name="--.HNZ" depth="0.0">
			<acc value="0.00878779221744013" flag="0"/>
			<vel value="0.00705220476422151" flag="0"/>
			<psa03 value="0.0167071145768638" flag="0"/>
			<psa10 value="0.0205269679358998" flag="0"/>
			<psa30 value="0.00130726597495412" flag="0"/>
		</comp>
	</station>
	<station code="AIG2" name="AIG2" netid="HI" source="ITSAK Strong Motion Network" insttype="" lat="38.2417" lon="22.0726">
		<comp name="--.HNE" depth="0.0">
			<acc value="0.0242704385334939" flag="0"/>
			<vel value="0.00206622677456947" flag="0"/>
			<psa03 value="0.00439045035099608" flag="0"/>
			<psa10 value="0.00342011476894314" flag="0"/>
			<psa30 value="0.00079611450951376" flag="0"/>
		</comp>
		<comp name="--.HNN" depth="0.0">
			<acc value="0.00526546496789209" flag="0"/>
			<vel value="0.00284207227137338" flag="0"/>
			<psa03 value="0.00533553607026726" flag="0"/>
			<psa10 value="0.00455380057317295" flag="0"/>
			<psa30 value="0.000770102161324096" flag="0"/>
		</comp>
		<comp name="--.HNZ" depth="0.0">
			<acc value="0.014338326755457" flag="0"/>
			<vel value="0.0017709382993381" flag="0"/>
			<psa03 value="0.00357287828721455" flag="0"/>
			<psa10 value="0.00364243254328043" flag="0"/>
			<psa30 value="0.00035511701434268" flag="0"/>
		</comp>
	</station>
	<station code="AOL1" name="AOL1" netid="HI" source="ITSAK Strong Motion Network" insttype="" lat="37.642378" lon="21.624555">
		<comp name="--.HNE" depth="0.0">
			<acc value="0.00577216647869184" flag="0"/>
			<vel value="0.00545441836127474" flag="0"/>
			<psa03 value="0.0104114299405322" flag="0"/>
			<psa10 value="0.00920117359510477" flag="0"/>
			<psa30 value="0.00098751583474321" flag="0"/>
		</comp>
		<comp name="--.HNN" depth="0.0">
			<acc value="0.00656477845321048" flag="0"/>
			<vel value="0.00618861278135663" flag="0"/>
			<psa03 value="0.0161151131200918" flag="0"/>
			<psa10 value="0.00896772906802646" flag="0"/>
			<psa30 value="0.0016908445101521" flag="0"/>
		</comp>
		<comp name="--.HNZ" depth="0.0">
			<acc value="0.00873351204494851" flag="0"/>
			<vel value="0.0026569804918505" flag="0"/>
			<psa03 value="0.0095436628197667" flag="0"/>
			<psa10 value="0.00463104725292147" flag="0"/>
			<psa30 value="0.000516563542716417" flag="0"/>
		</comp>
	</station>
	<station code="ARG2" name="ARG2" netid="HI" source="ITSAK Strong Motion Network" insttype="" lat="38.1783" lon="20.4878">
		<comp name="--.HNE" depth="0.0">
			<acc value="0.0800614243488379" flag="0"/>
			<vel value="0.0392097321361232" flag="0"/>
			<psa03 value="0.165413499499172" flag="0"/>
			<psa10 value="0.0341800267590432" flag="0"/>
			<psa30 value="0.00228961230057636" flag="0"/>
		</comp>
		<comp name="--.HNN" depth="0.0">
			<acc value="0.129833314529301" flag="0"/>
			<vel value="0.0405777098290655" flag="0"/>
			<psa03 value="0.165865279427197" flag="0"/>
			<psa10 value="0.0275020362499258" flag="0"/>
			<psa30 value="0.00320294280424172" flag="0"/>
		</comp>
		<comp name="--.HNZ" depth="0.0">
			<acc value="0.0416689951381908" flag="0"/>
			<vel value="0.0178429573932406" flag="0"/>
			<psa03 value="0.0634426350546697" flag="0"/>
			<psa10 value="0.0125319539304441" flag="0"/>
			<psa30 value="0.00129135585848848" flag="0"/>
		</comp>
	</station>
	<station code="ART2" name="ART2" netid="HI" source="ITSAK Strong Motion Network" insttype="" lat="39.1474" lon="20.9937">
		<comp name="--.HNE" depth="0.0">
			<acc value="0.00368757788318721" flag="0"/>
			<vel value="0.002780578115925" flag="0"/>
			<psa03 value="0.00855681228953314" flag="0"/>
			<psa10 value="0.00454332472297694" flag="0"/>
			<psa30 value="0.000303883516208098" flag="0"/>
		</comp>
		<comp name="--.HNN" depth="0.0">
			<acc value="0.00385991851819744" flag="0"/>
			<vel value="0.00235292995634619" flag="0"/>
			<psa03 value="0.00600507098355845" flag="0"/>
			<psa10 value="0.00360199384878804" flag="0"/>
			<psa30 value="0.000312335430272784" flag="0"/>
		</comp>
		<comp name="--.HNZ" depth="0.0">
			<acc value="0.00424977005282126" flag="0"/>
			<vel value="0.00134726920252215" flag="0"/>
			<psa03 value="0.00542820529506772" flag="0"/>
			<psa10 value="0.00307578453687864" flag="0"/>
			<psa30 value="0.000321294409177587" flag="0"/>
		</comp>
	</station>
	<station code="AST1" name="AST1" netid="HI" source="ITSAK Strong Motion Network" insttype="" lat="38.5416" lon="21.0895">
		<comp name="--.HNE" depth="0.0">
			<acc value="0.0131945789247813" flag="0"/>
			<vel value="0.011988188423456" flag="0"/>
			<psa03 value="0.0374184267037828" flag="0"/>
			<psa10 value="0.0156745693007729" flag="0"/>
			<psa30 value="0.00123246164453485" flag="0"/>
		</comp>
		<comp name="--.HNN" depth="0.0">
			<acc value="0.011894620816807" flag="0"/>
			<vel value="0.00669877899477198" flag="0"/>
			<psa03 value="0.0341359280043845" flag="0"/>
			<psa10 value="0.00775339018656054" flag="0"/>
			<psa30 value="0.00101989089610115" flag="0"/>
		</comp>
		<comp name="--.HNZ" depth="0.0">
			<acc value="0.00795758757395251" flag="0"/>
			<vel value="0.0058904176585866" flag="0"/>
			<psa03 value="0.0331407370778493" flag="0"/>
			<psa10 value="0.00886950537369843" flag="0"/>
			<psa30 value="0.000617297767948547" flag="0"/>
		</comp>
	</station>
	<station code="KAC1" name="KAC1" netid="HI" source="ITSAK Strong Motion Network" insttype="" lat="38.143412" lon="21.549694">
		<comp name="--.HNE" depth="0.0">
			<acc value="0.00914838992835289" flag="0"/>
			<vel value="0.0078182890560748" flag="0"/>
			<psa03 value="0.0316085392230906" flag="0"/>
			<psa10 value="0.0124902633561536" flag="0"/>
			<psa30 value="0.00250973063233643" flag="0"/>
		</comp>
		<comp name="--.HNN" depth="0.0">
			<acc value="0.00943008525921937" flag="0"/>
			<vel value="0.00973968445972281" flag="0"/>
			<psa03 value="0.029648409374104" flag="0"/>
			<psa10 value="0.0143451456079944" flag="0"/>
			<psa30 value="0.00156064588512952" flag="0"/>
		</comp>
		<comp name="--.HNZ" depth="0.0">
			<acc value="0.00839062020688346" flag="0"/>
			<vel value="0.00468046244693654" flag="0"/>
			<psa03 value="0.015882502658706" flag="0"/>
			<psa10 value="0.00580091475087824" flag="0"/>
			<psa30 value="0.00127414888527591" flag="0"/>
		</comp>
	</station>
	<station code="KLV1" name="KLV1" netid="HI" source="ITSAK Strong Motion Network" insttype="" lat="38.03256" lon="22.10797">
		<comp name="--.HNE" depth="0.0">
			<acc value="0.00551342441262996" flag="0"/>
			<vel value="0.00227428770361726" flag="0"/>
			<psa03 value="0.00689544637282671" flag="0"/>
			<psa10 value="0.00343426234677544" flag="0"/>
			<psa30 value="0.000371052731464063" flag="0"/>
		</comp>
		<comp name="--.HNN" depth="0.0">
			<acc value="0.00599119489222778" flag="0"/>
			<vel value="0.00191732854811477" flag="0"/>
			<psa03 value="0.00694596599553136" flag="0"/>
			<psa10 value="0.00341865709425524" flag="0"/>
			<psa30 value="0.000510846132716501" flag="0"/>
		</comp>
		<comp name="--.HNZ" depth="0.0">
			<acc value="0.0121711727391641" flag="0"/>
			<vel value="0.00172547017922392" flag="0"/>
			<psa03 value="0.00337404415188616" flag="0"/>
			<psa10 value="0.00263564459851893" flag="0"/>
			<psa30 value="0.000272239675167388" flag="0"/>
		</comp>
	</station>
	<station code="KRK1" name="KRK1" netid="HI" source="ITSAK Strong Motion Network" insttype="" lat="39.618861" lon="19.9202">
		<comp name="--.HNE" depth="0.0">
			<acc value="0.0109754353195157" flag="0"/>
			<vel value="0.00514255328534791" flag="0"/>
			<psa03 value="0.021208158842692" flag="0"/>
			<psa10 value="0.00588329833339486" flag="0"/>
			<psa30 value="0.000565507670439323" flag="0"/>
		</comp>
		<comp name="--.HNN" depth="0.0">
			<acc value="0.0121517955630171" flag="0"/>
			<vel value="0.00580778213739999" flag="0"/>
			<psa03 value="0.0188804095886287" flag="0"/>
			<psa10 value="0.00635818197961999" flag="0"/>
			<psa30 value="0.000521391310447135" flag="0"/>
		</comp>
		<comp name="--.HNZ" depth="0.0">
			<acc value="0.0183232437380638" flag="0"/>
			<vel value="0.00220127651918579" flag="0"/>
			<psa03 value="0.0134684768558998" flag="0"/>
			<psa10 value="0.00176721093623897" flag="0"/>
			<psa30 value="0.000339711775071118" flag="0"/>
		</comp>
	</station>
	<station code="KYP2" name="KYP2" netid="HI" source="ITSAK Strong Motion Network" insttype="" lat="37.2497" lon="21.667">
		<comp name="--.HNE" depth="0.0">
			<acc value="0.00669760108166359" flag="0"/>
			<vel value="0.00146295380714202" flag="0"/>
			<psa03 value="0.0058748507685778" flag="0"/>
			<psa10 value="0.00295425304851653" flag="0"/>
			<psa30 value="0.000314084191952988" flag="0"/>
		</comp>
		<comp name="--.HNN" depth="0.0">
			<acc value="0.00560128912257713" flag="0"/>
			<vel value="0.00133066543794801" flag="0"/>
			<psa03 value="0.00411356775107103" flag="0"/>
			<psa10 value="0.00193034639159862" flag="0"/>
			<psa30 value="0.000408145501178058" flag="0"/>
		</comp>
		<comp name="--.HNZ" depth="0.0">
			<acc value="0.0161548780167302" flag="0"/>
			<vel value="0.00161690306316407" flag="0"/>
			<psa03 value="0.00321348208314641" flag="0"/>
			<psa10 value="0.00190443369844656" flag="0"/>
			<psa30 value="0.000294845157044503" flag="0"/>
		</comp>
	</station>
	<station code="LEF2" name="LEF2" netid="HI" source="ITSAK Strong Motion Network" insttype="" lat="38.830093" lon="20.708346">
		<comp name="--.HNE" depth="0.0">
			<acc value="0.024393172825114" flag="0"/>
			<vel value="0.0166788272813017" flag="0"/>
			<psa03 value="0.0979389254731145" flag="0"/>
			<psa10 value="0.0222664925458436" flag="0"/>
			<psa30 value="0.00209346743194323" flag="0"/>
		</comp>
		<comp name="--.HNN" depth="0.0">
			<acc value="0.0298608531855365" flag="0"/>
			<vel value="0.0216566307227303" flag="0"/>
			<psa03 value="0.0799081424804391" flag="0"/>
			<psa10 value="0.0332044296305038" flag="0"/>
			<psa30 value="0.00197487082549966" flag="0"/>
		</comp>
		<comp name="--.HNZ" depth="0.0">
			<acc value="0.0165007719481702" flag="0"/>
			<vel value="0.01382212678052" flag="0"/>
			<psa03 value="0.0575521146282981" flag="0"/>
			<psa10 value="0.0240794957734075" flag="0"/>
			<psa30 value="0.00117670242992616" flag="0"/>
		</comp>
	</station>
	<station code="LXR2" name="LXR2" netid="HI" source="ITSAK Strong Motion Network" insttype="" lat="38.206718" lon="20.436386">
		<comp name="--.HNE" depth="0.0">
			<acc value="0.148699518550705" flag="0"/>
			<vel value="0.075792089077753" flag="0"/>
			<psa03 value="0.281870318358548" flag="0"/>
			<psa10 value="0.0459163017295744" flag="0"/>
			<psa30 value="0.00384331626750534" flag="0"/>
		</comp>
		<comp name="--.HNN" depth="0.0">
			<acc value="0.107871617470362" flag="0"/>
			<vel value="0.0506129734015544" flag="0"/>
			<psa03 value="0.279091342598541" flag="0"/>
			<psa10 value="0.0334645131097492" flag="0"/>
			<psa30 value="0.00339411588518455" flag="0"/>
		</comp>
		<comp name="--.HNZ" depth="0.0">
			<acc value="0.0524406271779974" flag="0"/>
			<vel value="0.0274857960368851" flag="0"/>
			<psa03 value="0.117292707566378" flag="0"/>
			<psa10 value="0.0188117018079054" flag="0"/>
			<psa30 value="0.00170837348385803" flag="0"/>
		</comp>
	</station>
	<station code="MSL1" name="MSL1" netid="HI" source="ITSAK Strong Motion Network" insttype="" lat="38.3727" lon="21.4243">
		<comp name="--.HNE" depth="0.0">
			<acc value="0.0150013626297576" flag="0"/>
			<vel value="0.0217917995737568" flag="0"/>
			<psa03 value="0.0311040813260764" flag="0"/>
			<psa10 value="0.0285324676359466" flag="0"/>
			<psa30 value="0.00265641097418961" flag="0"/>
		</comp>
		<comp name="--.HNN" depth="0.0">
			<acc value="0.0148329035488377" flag="0"/>
			<vel value="0.0156722386310816" flag="0"/>
			<psa03 value="0.0328975725318839" flag="0"/>
			<psa10 value="0.0318048669163262" flag="0"/>
			<psa30 value="0.00247816645803349" flag="0"/>
		</comp>
		<comp name="--.HNZ" depth="0.0">
			<acc value="0.0149601652706237" flag="0"/>
			<vel value="0.00631417046401653" flag="0"/>
			<psa03 value="0.0137898705425167" flag="0"/>
			<psa10 value="0.0142228556319012" flag="0"/>
			<psa30 value="0.00070130765610613" flag="0"/>
		</comp>
	</station>
	<station code="PAT5" name="PAT5" netid="HI" source="ITSAK Strong Motion Network" insttype="" lat="38.29595" lon="21.795083">
		<comp name="--.HNE" depth="0.0">
			<acc value="0.0110263131318878" flag="0"/>
			<vel value="0.00429470532074827" flag="0"/>
			<psa03 value="0.00815760094788272" flag="0"/>
			<psa10 value="0.00443718144150282" flag="0"/>
			<psa30 value="0.000958601419306241" flag="0"/>
		</comp>
		<comp name="--.HNN" depth="0.0">
			<acc value="0.014284867310563" flag="0"/>
			<vel value="0.00446372869019063" flag="0"/>
			<psa03 value="0.0094478888970973" flag="0"/>
			<psa10 value="0.00250252038906739" flag="0"/>
			<psa30 value="0.000394406179557188" flag="0"/>
		</comp>
		<comp name="--.HNZ" depth="0.0">
			<acc value="0.0246070973254776" flag="0"/>
			<vel value="0.00283885849282559" flag="0"/>
			<psa03 value="0.0128858796679675" flag="0"/>
			<psa10 value="0.00180496726553579" flag="0"/>
			<psa30 value="0.000388966782765389" flag="0"/>
		</comp>
	</station>
	<station code="PET1" name="PET1" netid="HI" source="ITSAK Strong Motion Network" insttype="" lat="36.963862" lon="21.92538">
		<comp name="--.HNE" depth="0.0">
			<acc value="0.00640106866725672" flag="0"/>
			<vel value="0.0025552371618102" flag="0"/>
			<psa03 value="0.00552000890268744" flag="0"/>
			<psa10 value="0.00478018244487955" flag="0"/>
			<psa30 value="0.000340042916799516" flag="0"/>
		</comp>
		<comp name="--.HNN" depth="0.0">
			<acc value="0.00404476287491609" flag="0"/>
			<vel value="0.00313772802485928" flag="0"/>
			<psa03 value="0.00471902615399182" flag="0"/>
			<psa10 value="0.00533893102172527" flag="0"/>
			<psa30 value="0.000351910499843492" flag="0"/>
		</comp>
		<comp name="--.HNZ" depth="0.0">
			<acc value="0.0172083613327081" flag="0"/>
			<vel value="0.00156713931870376" flag="0"/>
			<psa03 value="0.00252726377298697" flag="0"/>
			<psa10 value="0.0021377053624906" flag="0"/>
			<psa30 value="0.000378990470841937" flag="0"/>
		</comp>
	</station>
	<station code="PRE2" name="PRE2" netid="HI" source="ITSAK Strong Motion Network" insttype="" lat="38.9577" lon="20.7548">
		<comp name="--.HNE" depth="0.0">
			<acc value="0.0271567313162233" flag="0"/>
			<vel value="0.0170162784413711" flag="0"/>
			<psa03 value="0.077106420421953" flag="0"/>
			<psa10 value="0.0269564201055567" flag="0"/>
			<psa30 value="0.00187505337974991" flag="0"/>
		</comp>
		<comp name="--.HNN" depth="0.0">
			<acc value="0.0217358067220713" flag="0"/>
			<vel value="0.0155304564792437" flag="0"/>
			<psa03 value="0.0757609719174045" flag="0"/>
			<psa10 value="0.0253637045959664" flag="0"/>
			<psa30 value="0.00227732148637063" flag="0"/>
		</comp>
		<comp name="--.HNZ" depth="0.0">
			<acc value="0.0107752365143806" flag="0"/>
			<vel value="0.00788881237235887" flag="0"/>
			<psa03 value="0.0272707648876704" flag="0"/>
			<psa10 value="0.0208791406406005" flag="0"/>
			<psa30 value="0.000791033183317874" flag="0"/>
		</comp>
	</station>
	<station code="PYL1" name="PYL1" netid="HI" source="ITSAK Strong Motion Network" insttype="" lat="36.914188" lon="21.695161">
		<comp name="--.HNE" depth="0.0">
			<acc value="0.00192201003338237" flag="0"/>
			<vel value="0.00079763242621959" flag="0"/>
			<psa03 value="0.00247860804327301" flag="0"/>
			<psa10 value="0.00114624433149956" flag="0"/>
			<psa30 value="0.000323109607550567" flag="0"/>
		</comp>
		<comp name="--.HNN" depth="0.0">
			<acc value="0.00167865680251366" flag="0"/>
			<vel value="0.000683296662029228" flag="0"/>
			<psa03 value="0.00198024885754928" flag="0"/>
			<psa10 value="0.00107420510612851" flag="0"/>
			<psa30 value="0.000214727805392431" flag="0"/>
		</comp>
		<comp name="--.HNZ" depth="0.0">
			<acc value="0.00178790294859518" flag="0"/>
			<vel value="0.000471443319223854" flag="0"/>
			<psa03 value="0.00168578631699693" flag="0"/>
			<psa10 value="0.000957450613905458" flag="0"/>
			<psa30 value="0.000141036165870656" flag="0"/>
		</comp>
	</station>
	<station code="VAS2" name="VAS2" netid="HI" source="ITSAK Strong Motion Network" insttype="" lat="38.630558" lon="20.608081">
		<comp name="--.HNE" depth="0.0">
