<stationlist xmlns:esm="https://esm-db.eu/esmws/shakemap/1/" created="1781574878">
	<station code="LXR2" name="LXR2" netid="HI" source="ITSAK Strong Motion Network" insttype="" lat="38.206718" lon="20.436386" esm:processing="automatic (Paolucci et al 2011)" esm:quality="best">
		<comp name="--.HNE" depth="0.0">
			<acc value="0.148699518550705" flag="0"/>
			<vel value="0.075792089077753" flag="0"/>
			<psa03 value="0.281870318358548" flag="0"/>
			<psa10 value="0.0459163017295744" flag="0"/>
			<psa30 value="0.00384331626750534" flag="0"/>
		</comp>
		<comp name="--.HNN" depth="0.0">
			<acc value="0.107871617470362" flag="0"/>
			<vel value="0.0506129734015544" flag="0"/>
			<psa03 value="0.279091342598541" flag="0"/>
			<psa10 value="0.0334645131097492" flag="0"/>
			<psa30 value="0.00339411588518455" flag="0"/>
		</comp>
		<comp name="--.HNZ" depth="0.0">
			<acc value="0.0524406271779974" flag="0"/>
			<vel value="0.0274857960368851" flag="0"/>
			<psa03 value="0.117292707566378" flag="0"/>
			<psa10 value="0.0188117018079054" flag="0"/>
			<psa30 value="0.00170837348385803" flag="0"/>
		</comp>
	</station>
	<station code="VSK1" name="VSK1" netid="HI" source="ITSAK Strong Motion Network" insttype="" lat="38.4091" lon="20.564" esm:processing="automatic (Paolucci et al 2011)" esm:quality="best">
		<comp name="--.HNE" depth="0.0">
			<acc value="0.0216386701083787" flag="0"/>
			<vel value="0.00889124946705985" flag="0"/>
			<psa03 value="0.0463588991746697" flag="0"/>
			<psa10 value="0.0106456670982032" flag="0"/>
			<psa30 value="0.00221687019010158" flag="0"/>
		</comp>
		<comp name="--.HNN" depth="0.0">
			<acc value="0.0199366005978702" flag="0"/>
			<vel value="0.0126451607255149" flag="0"/>
			<psa03 value="0.0416791907293241" flag="0"/>
			<psa10 value="0.019558200009768" flag="0"/>
			<psa30 value="0.00119055522260935" flag="0"/>
		</comp>
		<comp name="--.HNZ" depth="0.0">
			<acc value="0.0107520367034351" flag="0"/>
			<vel value="0.00738754222176833" flag="0"/>
			<psa03 value="0.0372156216023027" flag="0"/>
			<psa10 value="0.0105935630215655" flag="0"/>
			<psa30 value="0.000777970755495423" flag="0"/>
		</comp>
	</station>
	<station code="ZAK2" name="ZAK2" netid="HI" source="ITSAK Strong Motion Network" insttype="" lat="37.787501" lon="20.899999" esm:processing="automatic (Paolucci et al 2011)" esm:quality="best">
		<comp name="--.HNE" depth="0.0">
			<acc value="0.0543862602217576" flag="0"/>
			<vel value="0.033885685438878" flag="0"/>
			<psa03 value="0.155606110224252" flag="0"/>
			<psa10 value="0.0324873896301282" flag="0"/>
			<psa30 value="0.00328358293792211" flag="0"/>
		</comp>
		<comp name="--.HNN" depth="0.0">
			<acc value="0.0494463936120473" flag="0"/>
			<vel value="0.0350460409307817" flag="0"/>
			<psa03 value="0.1672275259194" flag="0"/>
			<psa10 value="0.0271025597865627" flag="0"/>
			<psa30 value="0.00386462642919968" flag="0"/>
		</comp>
		<comp name="--.HNZ" depth="0.0">
			<acc value="0.0266349951409598" flag="0"/>
			<vel value="0.013512052030741" flag="0"/>
			<psa03 value="0.0950843822070887" flag="0"/>
			<psa10 value="0.0199549912952248" flag="0"/>
			<psa30 value="0.00433533552803619" flag="0"/>
		</comp>
	</station>
	<station code="LXRA" name="LXRA" netid="HL" source="National Observatory of Athens Seismic Network" insttype="" lat="38.20006" lon="20.43718" esm:processing="automatic (Paolucci et al 2011)" esm:quality="best">
		<comp name="00.HNE" depth="0.0">
			<acc value="0.116945619379136" flag="0"/>
			<vel value="0.0746149687893288" flag="0"/>
			<psa03 value="0.335945358898059" flag="0"/>
			<psa10 value="0.0385812733199962" flag="0"/>
			<psa30 value="0.00330280275280591" flag="0"/>
		</comp>
		<comp name="00.HNN" depth="0.0">
			<acc value="0.0858204199776888" flag="0"/>
			<vel value="0.0482973003011585" flag="0"/>
			<psa03 value="0.330263253319714" flag="0"/>
			<psa10 value="0.0432846736470558" flag="0"/>
			<psa30 value="0.00276417998835837" flag="0"/>
		</comp>
		<comp name="00.HNZ" depth="0.0">
			<acc value="0.0495959195352845" flag="0"/>
			<vel value="0.0331506568989368" flag="0"/>
			<psa03 value="0.0984628247622047" flag="0"/>
			<psa10 value="0.0217359936528849" flag="0"/>
			<psa30 value="0.00186226503258689" flag="0"/>
		</comp>
	</station>
	<station code="AMT" name="AMT" netid="HP" source="University of Patras, Seismological Laboratory (PSLNET)" insttype="" lat="37.5324" lon="21.7089" esm:processing="manual (Paolucci et al 2011)" esm:quality="bad">
		<comp name="--.HNE" depth="0.0">
			<acc value="0.00314181706908859" flag="0"/>
			<vel value="0.00408097524506481" flag="0"/>
			<psa03 value="0.0115089473071039" flag="0"/>
			<psa10 value="0.00694168172733056" flag="0"/>
			<psa30 value="0.000553884660888523" flag="0"/>
		</comp>
		<comp name="--.HNN" depth="0.0">
			<acc value="0.00315975290156585" flag="0"/>
			<vel value="0.00397220643216755" flag="0"/>
			<psa03 value="0.00761774877911725" flag="0"/>
			<psa10 value="0.00555273315380052" flag="0"/>
			<psa30 value="0.000558640548859403" flag="0"/>
		</comp>
		<comp name="--.HNZ" depth="0.0">
			<acc value="0.00212371454889817" flag="0"/>
			<vel value="0.00199300150356512" flag="0"/>
			<psa03 value="0.00620873291265753" flag="0"/>
			<psa10 value="0.00268390842076023" flag="0"/>
			<psa30 value="0.000278846102394139" flag="0"/>
		</comp>
	</station>
	<station code="EFP" name="EFP" netid="HP" source="University of Patras, Seismological Laboratory (PSLNET)" insttype="" lat="38.4269" lon="21.9058" esm:processing="manual (Paolucci et al 2011)" esm:quality="good">
		<comp name="--.HNE" depth="0.0">
			<acc value="0.00193462469403888" flag="0"/>
			<vel value="0.00181842888604092" flag="0"/>
			<psa03 value="0.00605669093958327" flag="0"/>
			<psa10 value="0.00360789603665619" flag="0"/>
			<psa30 value="0.000261436641811049" flag="0"/>
		</comp>
		<comp name="--.HNN" depth="0.0">
			<acc value="0.00229879572101046" flag="0"/>
			<vel value="0.00198786063124822" flag="0"/>
			<psa03 value="0.00599226414560921" flag="0"/>
			<psa10 value="0.00488331521440904" flag="0"/>
			<psa30 value="0.000445888444171307" flag="0"/>
		</comp>
		<comp name="--.HNZ" depth="0.0">
			<acc value="0.00221710753094961" flag="0"/>
			<vel value="0.0010772567683405" flag="0"/>
			<psa03 value="0.00641288380646946" flag="0"/>
			<psa10 value="0.00230011127733263" flag="0"/>
			<psa30 value="0.000275267584084629" flag="0"/>
		</comp>
	</station>
	<station code="FSK" name="FSK" netid="HP" source="University of Patras, Seismological Laboratory (PSLNET)" insttype="" lat="38.4593" lon="20.5623" esm:processing="automatic (Paolucci et al 2011)" esm:quality="best">
		<comp name="--.HNE" depth="0.0">
			<acc value="0.0164525087631595" flag="0"/>
			<vel value="0.00992405397413039" flag="0"/>
			<psa03 value="0.0310728422774608" flag="0"/>
			<psa10 value="0.00794246083656107" flag="0"/>
			<psa30 value="0.00199909576361722" flag="0"/>
		</comp>
		<comp name="--.HNN" depth="0.0">
			<acc value="0.0103003091362337" flag="0"/>
			<vel value="0.00638072455167553" flag="0"/>
			<psa03 value="0.0269970123779217" flag="0"/>
			<psa10 value="0.00759735969402735" flag="0"/>
			<psa30 value="0.000783211831856392" flag="0"/>
		</comp>
		<comp name="--.HNZ" depth="0.0">
			<acc value="0.00984453641335677" flag="0"/>
			<vel value="0.00541466463535929" flag="0"/>
			<psa03 value="0.0225017067734648" flag="0"/>
			<psa10 value="0.00526531833273174" flag="0"/>
			<psa30 value="0.00103588831001677" flag="0"/>
		</comp>
	</station>
	<station code="LTHK" name="LTHK" netid="HP" source="University of Patras, Seismological Laboratory (PSLNET)" insttype="" lat="37.7095" lon="20.8367" esm:processing="manual (Paolucci et al 2011)" esm:quality="bad">
		<comp name="--.HNE" depth="0.0">
			<acc value="0.051825485943048" flag="0"/>
			<vel value="0.0137940031960937" flag="0"/>
			<psa03 value="0.0472802987543031" flag="0"/>
			<psa10 value="0.0125123073164433" flag="0"/>
			<psa30 value="0.00174355487695528" flag="0"/>
		</comp>
		<comp name="--.HNN" depth="0.0">
			<acc value="0.0304732567133404" flag="0"/>
			<vel value="0.0150391498592988" flag="0"/>
			<psa03 value="0.0495905663818076" flag="0"/>
			<psa10 value="0.0150841339373474" flag="0"/>
			<psa30 value="0.00132722563051933" flag="0"/>
		</comp>
		<comp name="--.HNZ" depth="0.0">
			<acc value="0.0719106208658622" flag="0"/>
			<vel value="0.00818912408276192" flag="0"/>
			<psa03 value="0.0451947595560581" flag="0"/>
			<psa10 value="0.00949452177798625" flag="0"/>
			<psa30 value="0.00104498651689284" flag="0"/>
		</comp>
	</station>
	<station code="PDO" name="PDO" netid="HP" source="University of Patras, Seismological Laboratory (PSLNET)" insttype="" lat="38.5986" lon="21.1833" esm:processing="automatic (Paolucci et al 2011)" esm:quality="best">
		<comp name="--.HNE" depth="0.0">
			<acc value="0.0120932213924303" flag="0"/>
			<vel value="0.010009145561966" flag="0"/>
			<psa03 value="0.0320750050199994" flag="0"/>
			<psa10 value="0.00936084323490989" flag="0"/>
			<psa30 value="0.000953797351061524" flag="0"/>
		</comp>
		<comp name="--.HNN" depth="0.0">
			<acc value="0.0108054786795283" flag="0"/>
			<vel value="0.00645065444374539" flag="0"/>
			<psa03 value="0.0410411797142515" flag="0"/>
			<psa10 value="0.00733480105081146" flag="0"/>
			<psa30 value="0.000651807397792814" flag="0"/>
		</comp>
		<comp name="--.HNZ" depth="0.0">
			<acc value="0.00787725154520334" flag="0"/>
			<vel value="0.00438809807771952" flag="0"/>
			<psa03 value="0.0193226719592491" flag="0"/>
			<psa10 value="0.00280477634954399" flag="0"/>
			<psa30 value="0.000709798739434932" flag="0"/>
		</comp>
	</station>
	<station code="PVO" name="PVO" netid="HP" source="University of Patras, Seismological Laboratory (PSLNET)" insttype="" lat="38.616" lon="21.525" esm:processing="automatic (Paolucci et al 2011)" esm:quality="best">
		<comp name="--.HNE" depth="0.0">
			<acc value="0.00701073316485435" flag="0"/>
			<vel value="0.00472546302513595" flag="0"/>
			<psa03 value="0.02048188937675" flag="0"/>
			<psa10 value="0.00641270731037473" flag="0"/>
			<psa30 value="0.00124428961557939" flag="0"/>
		</comp>
		<comp name="--.HNN" depth="0.0">
			<acc value="0.00482233617323554" flag="0"/>
			<vel value="0.00373790616108504" flag="0"/>
			<psa03 value="0.0188227273820821" flag="0"/>
			<psa10 value="0.00581582761379044" flag="0"/>
			<psa30 value="0.000721885529706448" flag="0"/>
		</comp>
		<comp name="--.HNZ" depth="0.0">
			<acc value="0.00888958983563913" flag="0"/>
			<vel value="0.00231070931829148" flag="0"/>
			<psa03 value="0.0111424334440113" flag="0"/>
			<psa10 value="0.00535937081325189" flag="0"/>
			<psa30 value="0.00068731948987688" flag="0"/>
		</comp>
	</station>
	<station code="SERG" name="SERG" netid="HP" source="University of Patras, Seismological Laboratory (PSLNET)" insttype="" lat="38.4133" lon="22.0566" esm:processing="manual (Paolucci et al 2011)" esm:quality="bad">
		<comp name="--.HNE" depth="0.0">
			<acc value="0.00234945432498382" flag="0"/>
			<vel value="0.00185870536987907" flag="0"/>
			<psa03 value="0.00602269519793699" flag="0"/>
			<psa10 value="0.00186302439278433" flag="0"/>
			<psa30 value="0.000256634995600676" flag="0"/>
		</comp>
		<comp name="--.HNN" depth="0.0">
			<acc value="0.00296490407540664" flag="0"/>
			<vel value="0.00166161948623057" flag="0"/>
			<psa03 value="0.00859861193356957" flag="0"/>
			<psa10 value="0.00199815557112693" flag="0"/>
			<psa30 value="0.000300117589650795" flag="0"/>
		</comp>
		<comp name="--.HNZ" depth="0.0">
			<acc value="0.00265609369794527" flag="0"/>
			<vel value="0.00108631120918968" flag="0"/>
			<psa03 value="0.00384447375303928" flag="0"/>
			<psa10 value="0.00201911664719466" flag="0"/>
			<psa30 value="0.000244582816994618" flag="0"/>
		</comp>
	</station>
	<station code="VVK" name="VVK" netid="HP" source="University of Patras, Seismological Laboratory (PSLNET)" insttype="" lat="38.4222" lon="21.8116" esm:processing="automatic (Paolucci et al 2011)" esm:quality="best">
		<comp name="--.HNE" depth="0.0">
			<acc value="0.00284679225066772" flag="0"/>
			<vel value="0.00323055624305132" flag="0"/>
			<psa03 value="0.00895404693772092" flag="0"/>
			<psa10 value="0.00510851528906258" flag="0"/>
			<psa30 value="0.00067890356777741" flag="0"/>
		</comp>
		<comp name="--.HNN" depth="0.0">
			<acc value="0.00306787222260041" flag="0"/>
			<vel value="0.0028334618924645" flag="0"/>
			<psa03 value="0.0104741808422276" flag="0"/>
			<psa10 value="0.00726232093685539" flag="0"/>
			<psa30 value="0.00074753045772307" flag="0"/>
		</comp>
		<comp name="--.HNZ" depth="0.0">
			<acc value="0.00280388939911416" flag="0"/>
			<vel value="0.0018829123853042" flag="0"/>
			<psa03 value="0.00399653721191175" flag="0"/>
			<psa10 value="0.00187273589550022" flag="0"/>
			<psa30 value="0.000388811512062965" flag="0"/>
		</comp>
	</station>
</stationlist>
