<?xml version="1.0" encoding="UTF-8" standalone="yes"?>
<!DOCTYPE earthquake SYSTEM "stationlist.dtd">
<stationlist created="" xmlns="ch.ethz.sed.shakemap.usgs.xml">
  <station code="ATHR" name="ATHR" netid="HA" insttype="GEOtiny," commtype="DIG" lat="38.3172" lon="20.4165">
    <comp name="--.HHN">
      <acc value="0.0245754923" flag="0"/>
      <vel value="0.0170957318" flag="0"/>
      <psa03 value="0.0595551289" flag="0"/>
      <psa10 value="0.0132225991" flag="0"/>
      <psa30 value="0.0012171783" flag="0"/>
    </comp>
    <comp name="--.HHE">
      <acc value="0.0258795067" flag="0"/>
      <vel value="0.0176612671" flag="0"/>
      <psa03 value="0.0672880233" flag="0"/>
      <psa10 value="0.0147950906" flag="0"/>
      <psa30 value="0.0017460457" flag="0"/>
    </comp>
    <comp name="--.HHZ">
      <acc value="0.0153153886" flag="0"/>
      <vel value="0.0066954661" flag="0"/>
      <psa03 value="0.0243494186" flag="0"/>
      <psa10 value="0.0086150350" flag="0"/>
      <psa30 value="0.0008100693" flag="0"/>
    </comp>
  </station>
  <station code="HAVD" name="HAVD" netid="HA" insttype="GEOtiny," commtype="DIG" lat="38.2036" lon="20.3848">
    <comp name="--.HHE">
      <acc value="0.0382372885" flag="0"/>
      <vel value="0.0178233665" flag="0"/>
      <psa03 value="0.0677180307" flag="0"/>
      <psa10 value="0.0140699564" flag="0"/>
      <psa30 value="0.0010876442" flag="0"/>
    </comp>
    <comp name="--.HHN">
      <acc value="0.0503517196" flag="0"/>
      <vel value="0.0171675349" flag="0"/>
      <psa03 value="0.0909146408" flag="0"/>
      <psa10 value="0.0188615882" flag="0"/>
      <psa30 value="0.0021553683" flag="0"/>
    </comp>
    <comp name="--.HHZ">
      <acc value="0.0296200151" flag="0"/>
      <vel value="0.0145362839" flag="0"/>
      <psa03 value="0.0792204001" flag="0"/>
      <psa10 value="0.0087973032" flag="0"/>
      <psa30 value="0.0009674650" flag="0"/>
    </comp>
  </station>
  <station code="ARG2" name="ARG2" netid="HI" insttype="CMG-5TD,ACCELEROMETER,GURALP" commtype="DIG" lat="38.1783" lon="20.4878">
    <comp name="--.HNN">
      <acc value="0.1296401716" flag="0"/>
      <vel value="0.0398481264" flag="0"/>
      <psa03 value="0.1644065156" flag="0"/>
      <psa10 value="0.0274567590" flag="0"/>
      <psa30 value="0.0031385330" flag="0"/>
    </comp>
    <comp name="--.HNE">
      <acc value="0.0796338689" flag="0"/>
      <vel value="0.0393196113" flag="0"/>
      <psa03 value="0.1622719643" flag="0"/>
      <psa10 value="0.0341660604" flag="0"/>
      <psa30 value="0.0022422892" flag="0"/>
    </comp>
    <comp name="--.HNZ">
      <acc value="0.0422944687" flag="0"/>
      <vel value="0.0177744242" flag="0"/>
      <psa03 value="0.0626078301" flag="0"/>
      <psa10 value="0.0125022810" flag="0"/>
      <psa30 value="0.0011449658" flag="0"/>
    </comp>
  </station>
  <station code="LXR2" name="LXR2" netid="HI" insttype="unknown" commtype="DIG" lat="38.2067" lon="20.4364">
    <comp name="--.HNE">
      <acc value="0.1502036878" flag="0"/>
      <vel value="0.0763030593" flag="0"/>
      <psa03 value="0.2816835434" flag="0"/>
      <psa10 value="0.0458299218" flag="0"/>
      <psa30 value="0.0036991571" flag="0"/>
    </comp>
    <comp name="--.HNZ">
      <acc value="0.0026496669" flag="0"/>
      <vel value="-100.0000000000" flag="0"/>
      <psa03 value="0.0009090706" flag="0"/>
      <psa10 value="0.0001427705" flag="0"/>
      <psa30 value="0.0000485754" flag="0"/>
    </comp>
    <comp name="--.HNN">
      <acc value="0.1085270379" flag="0"/>
      <vel value="0.0503407625" flag="0"/>
      <psa03 value="0.2768768063" flag="0"/>
      <psa10 value="0.0334036821" flag="0"/>
      <psa30 value="0.0031426778" flag="0"/>
    </comp>
  </station>
  <station code="VAS2" name="VAS2" netid="HI" insttype="CMG-5TD,ACCELEROMETER,GURALP" commtype="DIG" lat="38.6306" lon="20.6081">
    <comp name="--.HNE">
      <acc value="0.0427969147" flag="0"/>
      <vel value="0.0293610511" flag="0"/>
      <psa03 value="0.1114108795" flag="0"/>
      <psa10 value="0.0317467461" flag="0"/>
      <psa30 value="0.0021217555" flag="0"/>
    </comp>
    <comp name="--.HNN">
      <acc value="0.0484533073" flag="0"/>
      <vel value="0.0349944243" flag="0"/>
      <psa03 value="0.1282470465" flag="0"/>
      <psa10 value="0.0550474474" flag="0"/>
      <psa30 value="0.0027324564" flag="0"/>
    </comp>
    <comp name="--.HNZ">
      <acc value="0.0258266022" flag="0"/>
      <vel value="0.0152523810" flag="0"/>
      <psa03 value="0.0730887219" flag="0"/>
      <psa10 value="0.0189786196" flag="0"/>
      <psa30 value="0.0011528010" flag="0"/>
    </comp>
  </station>
  <station code="VSK1" name="VSK1" netid="HI" insttype="unknown" commtype="DIG" lat="38.4091" lon="20.564">
    <comp name="--.HNN">
      <acc value="0.0200814614" flag="0"/>
      <vel value="0.0128870708" flag="0"/>
      <psa03 value="0.0415498534" flag="0"/>
      <psa10 value="0.0194876925" flag="0"/>
      <psa30 value="0.0011693177" flag="0"/>
    </comp>
    <comp name="--.HNE">
      <acc value="0.0217254642" flag="0"/>
      <vel value="0.0090475725" flag="0"/>
      <psa03 value="0.0461881787" flag="0"/>
      <psa10 value="0.0106556841" flag="0"/>
      <psa30 value="0.0021355930" flag="0"/>
    </comp>
    <comp name="--.HNZ">
      <acc value="0.0110665388" flag="0"/>
      <vel value="0.0074305744" flag="0"/>
      <psa03 value="0.0366268137" flag="0"/>
      <psa10 value="0.0105968395" flag="0"/>
      <psa30 value="0.0007371913" flag="0"/>
    </comp>
  </station>
  <station code="ORTH" name="ORTH" netid="HL" insttype="30" commtype="DIG" lat="37.8511" lon="20.6963">
    <comp name="--.HHZ">
      <acc value="0.0224126671" flag="0"/>
      <vel value="0.0149953311" flag="0"/>
      <psa03 value="0.0422643131" flag="0"/>
      <psa10 value="0.0159873704" flag="0"/>
      <psa30 value="0.0011522571" flag="0"/>
    </comp>
    <comp name="--.HHE">
      <acc value="0.0383648174" flag="0"/>
      <vel value="0.0166855030" flag="0"/>
      <psa03 value="0.1088255533" flag="0"/>
      <psa10 value="0.0199809031" flag="0"/>
      <psa30 value="0.0019111221" flag="0"/>
    </comp>
    <comp name="--.HHN">
      <acc value="0.0542987046" flag="0"/>
      <vel value="0.0177497072" flag="0"/>
      <psa03 value="0.1170474414" flag="0"/>
      <psa10 value="0.0156903529" flag="0"/>
      <psa30 value="0.0016787715" flag="0"/>
    </comp>
  </station>
  <station code="FSK" name="FSK" netid="HP" insttype="40," commtype="DIG" lat="38.4593" lon="20.5623">
    <comp name="--.HHZ">
      <acc value="0.0093576218" flag="0"/>
      <vel value="0.0053665006" flag="0"/>
      <psa03 value="0.0224577256" flag="0"/>
      <psa10 value="0.0052589542" flag="0"/>
      <psa30 value="0.0009920816" flag="0"/>
    </comp>
    <comp name="--.HHN">
      <acc value="0.0096443658" flag="0"/>
      <vel value="0.0062526483" flag="0"/>
      <psa03 value="0.0288431195" flag="0"/>
      <psa10 value="0.0076275223" flag="0"/>
      <psa30 value="0.0007497431" flag="0"/>
    </comp>
    <comp name="--.HHE">
      <acc value="0.0160903409" flag="0"/>
      <vel value="0.0092489811" flag="0"/>
      <psa03 value="0.0291061250" flag="0"/>
      <psa10 value="0.0072793479" flag="0"/>
      <psa30 value="0.0018453346" flag="0"/>
    </comp>
  </station>
  <station code="LTHK" name="LTHK" netid="HP" insttype="40," commtype="DIG" lat="37.7095" lon="20.8367">
    <comp name="--.HHN">
      <acc value="0.0355865816" flag="0"/>
      <vel value="0.0149635088" flag="0"/>
      <psa03 value="0.0503283954" flag="0"/>
      <psa10 value="0.0150452499" flag="0"/>
      <psa30 value="0.0012379183" flag="0"/>
    </comp>
    <comp name="--.HHE">
      <acc value="0.0567458228" flag="0"/>
      <vel value="0.0136542004" flag="0"/>
      <psa03 value="0.0458614025" flag="0"/>
      <psa10 value="0.0124867165" flag="0"/>
      <psa30 value="0.0015076763" flag="0"/>
    </comp>
    <comp name="--.HHZ">
      <acc value="0.0581137859" flag="0"/>
      <vel value="0.0082798388" flag="0"/>
      <psa03 value="0.0449457803" flag="0"/>
      <psa10 value="0.0094806966" flag="0"/>
      <psa30 value="0.0009285780" flag="0"/>
    </comp>
  </station>
  <station code="DMLN" name="DMLN" netid="HT" insttype="1s-100Hz," commtype="DIG" lat="38.2385" lon="20.3734">
    <comp name="--.HHE">
      <acc value="0.0775665425" flag="0"/>
      <vel value="0.0450602685" flag="0"/>
      <psa03 value="0.1979996483" flag="0"/>
      <psa10 value="0.0437154588" flag="0"/>
      <psa30 value="0.0028535697" flag="0"/>
    </comp>
    <comp name="--.HHN">
      <acc value="0.0882950782" flag="0"/>
      <vel value="0.0297449098" flag="0"/>
      <psa03 value="0.1161445507" flag="0"/>
      <psa10 value="0.0233049240" flag="0"/>
      <psa30 value="0.0028920761" flag="0"/>
    </comp>
    <comp name="--.HHZ">
      <acc value="0.0566907448" flag="0"/>
      <vel value="0.0196566765" flag="0"/>
      <psa03 value="0.1024921411" flag="0"/>
      <psa10 value="0.0127777402" flag="0"/>
      <psa30 value="0.0012372768" flag="0"/>
    </comp>
  </station>
  <station code="DRAG" name="DRAG" netid="HT" insttype="30s-100Hz," commtype="DIG" lat="38.6839" lon="20.5746">
    <comp name="--.HHN">
      <acc value="0.0322751625" flag="0"/>
      <vel value="0.0117142375" flag="0"/>
      <psa03 value="0.0558398815" flag="0"/>
      <psa10 value="0.0068338826" flag="0"/>
      <psa30 value="0.0005959487" flag="0"/>
    </comp>
    <comp name="--.HHZ">
      <acc value="0.0140925392" flag="0"/>
      <vel value="0.0040742428" flag="0"/>
      <psa03 value="0.0160134115" flag="0"/>
      <psa10 value="0.0023781355" flag="0"/>
      <psa30 value="0.0002986513" flag="0"/>
    </comp>
    <comp name="--.HHE">
      <acc value="0.0314345776" flag="0"/>
      <vel value="0.0123900537" flag="0"/>
      <psa03 value="0.1112622193" flag="0"/>
      <psa10 value="0.0076582230" flag="0"/>
      <psa30 value="0.0005883632" flag="0"/>
    </comp>
  </station>
  <station code="EVGI" name="EVGI" netid="HT" insttype="30" commtype="DIG" lat="38.621" lon="20.656">
    <comp name="--.HHE">
      <acc value="0.0377285033" flag="0"/>
      <vel value="0.0091776478" flag="0"/>
      <psa03 value="0.0505105955" flag="0"/>
      <psa10 value="0.0045815913" flag="0"/>
      <psa30 value="0.0008004114" flag="0"/>
    </comp>
    <comp name="--.HHN">
      <acc value="0.0429023349" flag="0"/>
      <vel value="0.0112766962" flag="0"/>
      <psa03 value="0.0789016681" flag="0"/>
      <psa10 value="0.0053250318" flag="0"/>
      <psa30 value="0.0005204357" flag="0"/>
    </comp>
    <comp name="--.HHZ">
      <acc value="0.0301275976" flag="0"/>
      <vel value="0.0060566580" flag="0"/>
      <psa03 value="0.0357660811" flag="0"/>
      <psa10 value="0.0057104370" flag="0"/>
      <psa30 value="0.0004196027" flag="0"/>
    </comp>
  </station>
  <station code="ITHC" name="ITHC" netid="HT" insttype="60s," commtype="DIG" lat="38.4622" lon="20.632">
    <comp name="--.HHE">
      <acc value="0.0483267171" flag="0"/>
      <vel value="0.0293671289" flag="0"/>
      <psa03 value="0.1182481390" flag="0"/>
      <psa10 value="0.0183549320" flag="0"/>
      <psa30 value="0.0025512767" flag="0"/>
    </comp>
    <comp name="--.HHN">
      <acc value="0.0325973747" flag="0"/>
      <vel value="0.0160473555" flag="0"/>
      <psa03 value="0.0965993581" flag="0"/>
      <psa10 value="0.0146495940" flag="0"/>
      <psa30 value="0.0017800477" flag="0"/>
    </comp>
    <comp name="--.HHZ">
      <acc value="0.0180619737" flag="0"/>
      <vel value="0.0089634732" flag="0"/>
      <psa03 value="0.0280867656" flag="0"/>
      <psa10 value="0.0064865162" flag="0"/>
      <psa30 value="0.0025326754" flag="0"/>
    </comp>
  </station>
  <station code="PSDA" name="PSDA" netid="HT" insttype="30" commtype="DIG" lat="38.114" lon="20.5841">
    <comp name="--.HHN">
      <acc value="0.0004237713" flag="0"/>
      <vel value="0.0001856653" flag="0"/>
      <psa03 value="0.0010564831" flag="0"/>
      <psa10 value="0.0002240365" flag="0"/>
      <psa30 value="0.0000156535" flag="0"/>
    </comp>
    <comp name="--.HHE">
      <acc value="0.0415264500" flag="0"/>
      <vel value="0.0167194373" flag="0"/>
      <psa03 value="0.1325396030" flag="0"/>
      <psa10 value="0.0124632229" flag="0"/>
      <psa30 value="0.0012228808" flag="0"/>
    </comp>
    <comp name="--.HHZ">
      <acc value="0.0518340772" flag="0"/>
      <vel value="0.0120319971" flag="0"/>
      <psa03 value="0.0482165747" flag="0"/>
      <psa10 value="0.0065546935" flag="0"/>
      <psa30 value="0.0008296364" flag="0"/>
    </comp>
  </station>
  <station code="RTZL" name="RTZL" netid="HT" insttype="Compact," commtype="DIG" lat="38.076" lon="20.7715">
    <comp name="--.HHZ">
      <acc value="0.0172673545" flag="0"/>
      <vel value="0.0076468911" flag="0"/>
      <psa03 value="0.0272470405" flag="0"/>
      <psa10 value="0.0112039960" flag="0"/>
      <psa30 value="0.0009056250" flag="0"/>
    </comp>
    <comp name="--.HHE">
      <acc value="0.0305607722" flag="0"/>
      <vel value="0.0139779371" flag="0"/>
      <psa03 value="0.0431050204" flag="0"/>
      <psa10 value="0.0186049666" flag="0"/>
      <psa30 value="0.0014857426" flag="0"/>
    </comp>
    <comp name="--.HHN">
      <acc value="0.0277987305" flag="0"/>
      <vel value="0.0155776218" flag="0"/>
      <psa03 value="0.0630417469" flag="0"/>
      <psa10 value="0.0224140977" flag="0"/>
      <psa30 value="0.0019506166" flag="0"/>
    </comp>
  </station>
  <station code="STRF" name="STRF" netid="HT" insttype="30s-100Hz," commtype="DIG" lat="37.2497" lon="21.013">
    <comp name="--.HHZ">
      <acc value="0.0161395559" flag="0"/>
      <vel value="0.0041614499" flag="0"/>
      <psa03 value="0.0180414057" flag="0"/>
      <psa10 value="0.0060297052" flag="0"/>
      <psa30 value="0.0008802366" flag="0"/>
    </comp>
    <comp name="--.HHE">
      <acc value="0.0110039935" flag="0"/>
      <vel value="0.0078194021" flag="0"/>
      <psa03 value="0.0260435621" flag="0"/>
      <psa10 value="0.0154609531" flag="0"/>
      <psa30 value="0.0014922499" flag="0"/>
    </comp>
    <comp name="--.HHN">
      <acc value="0.0118206069" flag="0"/>
      <vel value="0.0092895676" flag="0"/>
      <psa03 value="0.0375626559" flag="0"/>
      <psa10 value="0.0094681138" flag="0"/>
      <psa30 value="0.0017246254" flag="0"/>
    </comp>
  </station>
  <station code="CKVA" name="CKVA" netid="KF" insttype="Triaxial" commtype="DIG" lat="38.1642" lon="20.5063">
    <comp name="00.HN2">
      <acc value="0.2387816362" flag="0"/>
      <vel value="0.0800948346" flag="0"/>
      <psa03 value="0.6511427092" flag="0"/>
      <psa10 value="0.0592622536" flag="0"/>
      <psa30 value="0.0039854144" flag="0"/>
    </comp>
    <comp name="00.HNZ">
      <acc value="0.0787940741" flag="0"/>
      <vel value="0.0362918404" flag="0"/>
      <psa03 value="0.2311786061" flag="0"/>
      <psa10 value="0.0172648024" flag="0"/>
      <psa30 value="0.0013382021" flag="0"/>
    </comp>
    <comp name="00.HN1">
      <acc value="0.2085675450" flag="0"/>
      <vel value="0.1219958974" flag="0"/>
      <psa03 value="0.6503934787" flag="0"/>
      <psa10 value="0.1143446807" flag="0"/>
      <psa30 value="0.0064185865" flag="0"/>
    </comp>
  </station>
</stationlist>
