<?xml version="1.0" encoding="UTF-8" standalone="yes"?>
<!DOCTYPE earthquake SYSTEM "stationlist.dtd">
<stationlist created="" xmlns="ch.ethz.sed.shakemap.usgs.xml">
  <station code="AKS" name="AKS" netid="KO" insttype="CMG-5T" commtype="DIG" lat="38.8785" lon="27.8129">
    <comp name="--.HNZ">
      <acc value="0.0705975295" flag="0"/>
      <vel value="0.0155604816" flag="0"/>
      <psa03 value="0.0778226955" flag="0"/>
      <psa10 value="0.0048959335" flag="0"/>
      <psa30 value="0.0007406448" flag="0"/>
    </comp>
    <comp name="--.HNN">
      <acc value="0.1285274607" flag="0"/>
      <vel value="0.0456709514" flag="0"/>
      <psa03 value="0.2179023298" flag="0"/>
      <psa10 value="0.0163546212" flag="0"/>
      <psa30 value="0.0013920939" flag="0"/>
    </comp>
    <comp name="--.HNE">
      <acc value="0.1039258355" flag="0"/>
      <vel value="0.0369813041" flag="0"/>
      <psa03 value="0.2143090207" flag="0"/>
      <psa10 value="0.0223198101" flag="0"/>
      <psa30 value="0.0015028592" flag="0"/>
    </comp>
  </station>
  <station code="AYVL" name="AYVL" netid="KO" insttype="CMG-6T" commtype="DIG" lat="39.2907" lon="26.69">
    <comp name="--.HHZ">
      <acc value="0.0178873325" flag="0"/>
      <vel value="0.0100087766" flag="0"/>
      <psa03 value="0.0374569237" flag="0"/>
      <psa10 value="0.0033597071" flag="0"/>
      <psa30 value="0.0002693249" flag="0"/>
    </comp>
    <comp name="--.HHE">
      <acc value="0.0352281462" flag="0"/>
      <vel value="0.0141966607" flag="0"/>
      <psa03 value="0.0732924385" flag="0"/>
      <psa10 value="0.0059559736" flag="0"/>
      <psa30 value="0.0004173421" flag="0"/>
    </comp>
    <comp name="--.HHN">
      <acc value="0.0370287531" flag="0"/>
      <vel value="0.0160502203" flag="0"/>
      <psa03 value="0.1558247174" flag="0"/>
      <psa10 value="0.0091072494" flag="0"/>
      <psa30 value="0.0004032056" flag="0"/>
    </comp>
  </station>
  <station code="BALB" name="BALB" netid="KO" insttype="CMG-5T" commtype="DIG" lat="39.6507" lon="27.8642">
    <comp name="--.HNZ">
      <acc value="0.0363542808" flag="0"/>
      <vel value="0.0119371205" flag="0"/>
      <psa03 value="0.0799694208" flag="0"/>
      <psa10 value="0.0132437234" flag="0"/>
      <psa30 value="0.0011230652" flag="0"/>
    </comp>
    <comp name="--.HNN">
      <acc value="0.0330097875" flag="0"/>
      <vel value="0.0180129423" flag="0"/>
      <psa03 value="0.0853348085" flag="0"/>
      <psa10 value="0.0245501162" flag="0"/>
      <psa30 value="0.0010665711" flag="0"/>
    </comp>
    <comp name="--.HNE">
      <acc value="0.0425984650" flag="0"/>
      <vel value="0.0196816232" flag="0"/>
      <psa03 value="0.1169740370" flag="0"/>
      <psa10 value="0.0283477979" flag="0"/>
      <psa30 value="0.0017351342" flag="0"/>
    </comp>
  </station>
  <station code="DKL" name="DKL" netid="KO" insttype="CMG-3ESPC" commtype="DIG" lat="39.0713" lon="26.9053">
    <comp name="--.HHE">
      <acc value="0.0103329729" flag="0"/>
      <vel value="0.0053823210" flag="0"/>
      <psa03 value="0.0262608585" flag="0"/>
      <psa10 value="0.0035831157" flag="0"/>
      <psa30 value="0.0006135654" flag="0"/>
    </comp>
    <comp name="--.HHN">
      <acc value="0.0118224130" flag="0"/>
      <vel value="0.0087867964" flag="0"/>
      <psa03 value="0.0222697947" flag="0"/>
      <psa10 value="0.0046279591" flag="0"/>
      <psa30 value="0.0005977645" flag="0"/>
    </comp>
    <comp name="--.HHZ">
      <acc value="0.0090975863" flag="0"/>
      <vel value="0.0041201293" flag="0"/>
      <psa03 value="0.0234064996" flag="0"/>
      <psa10 value="0.0035283543" flag="0"/>
      <psa30 value="0.0005092755" flag="0"/>
    </comp>
  </station>
  <station code="DST" name="DST" netid="KO" insttype="CMG-5T" commtype="DIG" lat="39.6041" lon="28.6267">
    <comp name="--.HNE">
      <acc value="0.0411447008" flag="0"/>
      <vel value="0.0112689139" flag="0"/>
      <psa03 value="0.0746702802" flag="0"/>
      <psa10 value="0.0080634534" flag="0"/>
      <psa30 value="0.0007780946" flag="0"/>
    </comp>
    <comp name="--.HNN">
      <acc value="0.0469368297" flag="0"/>
      <vel value="0.0123145434" flag="0"/>
      <psa03 value="0.0735251376" flag="0"/>
      <psa10 value="0.0058213045" flag="0"/>
      <psa30 value="0.0009491237" flag="0"/>
    </comp>
    <comp name="--.HNZ">
      <acc value="0.0354897723" flag="0"/>
      <vel value="0.0111063278" flag="0"/>
      <psa03 value="0.0616346607" flag="0"/>
      <psa10 value="0.0047881709" flag="0"/>
      <psa30 value="0.0005682646" flag="0"/>
    </comp>
  </station>
  <station code="GEDZ" name="GEDZ" netid="KO" insttype="CMG-6T" commtype="DIG" lat="39.0445" lon="29.4105">
    <comp name="--.HHE">
      <acc value="0.0871883669" flag="0"/>
      <vel value="0.0401461751" flag="0"/>
      <psa03 value="0.2019497113" flag="0"/>
      <psa10 value="0.0339595140" flag="0"/>
      <psa30 value="0.0015378094" flag="0"/>
    </comp>
    <comp name="--.HHZ">
      <acc value="0.0376299948" flag="0"/>
      <vel value="0.0156282211" flag="0"/>
      <psa03 value="0.0789569444" flag="0"/>
      <psa10 value="0.0121397313" flag="0"/>
      <psa30 value="0.0006272001" flag="0"/>
    </comp>
  </station>
  <station code="GOMA" name="GOMA" netid="KO" insttype="CMG-5T" commtype="DIG" lat="38.7077" lon="27.9175">
    <comp name="--.HNN">
      <acc value="0.0734179781" flag="0"/>
      <vel value="0.0396801825" flag="0"/>
      <psa03 value="0.1488120004" flag="0"/>
      <psa10 value="0.0187804006" flag="0"/>
      <psa30 value="0.0013847083" flag="0"/>
    </comp>
  </station>
  <station code="GONE" name="GONE" netid="KO" insttype="CMG-5T" commtype="DIG" lat="40.0466" lon="27.686">
    <comp name="--.HNZ">
      <acc value="0.0129982946" flag="0"/>
      <vel value="0.0043587351" flag="0"/>
      <psa03 value="0.0239526613" flag="0"/>
      <psa10 value="0.0036673503" flag="0"/>
      <psa30 value="0.0003128160" flag="0"/>
    </comp>
    <comp name="--.HNE">
      <acc value="0.0237535469" flag="0"/>
      <vel value="0.0094691104" flag="0"/>
      <psa03 value="0.0584604599" flag="0"/>
      <psa10 value="0.0116724609" flag="0"/>
      <psa30 value="0.0009713865" flag="0"/>
    </comp>
    <comp name="--.HNN">
      <acc value="0.0228733342" flag="0"/>
      <vel value="0.0109154262" flag="0"/>
      <psa03 value="0.0788493642" flag="0"/>
      <psa10 value="0.0113079907" flag="0"/>
      <psa30 value="0.0007917254" flag="0"/>
    </comp>
  </station>
  <station code="GORD" name="GORD" netid="KO" insttype="CMG-5T" commtype="DIG" lat="38.9088" lon="28.1769">
    <comp name="--.HNE">
      <acc value="0.0611581188" flag="0"/>
      <vel value="0.0385426339" flag="0"/>
      <psa03 value="0.1247312056" flag="0"/>
      <psa10 value="0.0802427123" flag="0"/>
      <psa30 value="0.0024854894" flag="0"/>
    </comp>
    <comp name="--.HNN">
      <acc value="0.0999945632" flag="0"/>
      <vel value="0.0589596065" flag="0"/>
      <psa03 value="0.1901015449" flag="0"/>
      <psa10 value="0.0521244464" flag="0"/>
      <psa30 value="0.0026050758" flag="0"/>
    </comp>
    <comp name="--.HNZ">
      <acc value="0.0686062767" flag="0"/>
      <vel value="0.0324922780" flag="0"/>
      <psa03 value="0.1560598296" flag="0"/>
      <psa10 value="0.0224108036" flag="0"/>
      <psa30 value="0.0017750444" flag="0"/>
    </comp>
  </station>
  <station code="KCTX" name="KCTX" netid="KO" insttype="CMG-3ESP" commtype="DIG" lat="40.2626" lon="28.3353">
    <comp name="--.HHN">
      <acc value="0.0294233663" flag="0"/>
      <vel value="0.0131047654" flag="0"/>
      <psa03 value="0.0923061850" flag="0"/>
      <psa10 value="0.0042993681" flag="0"/>
      <psa30 value="0.0003240757" flag="0"/>
    </comp>
    <comp name="--.HHZ">
      <acc value="0.0147105013" flag="0"/>
      <vel value="0.0058250313" flag="0"/>
      <psa03 value="0.0496988005" flag="0"/>
      <psa10 value="0.0019628595" flag="0"/>
      <psa30 value="0.0002152077" flag="0"/>
    </comp>
  </station>
  <station code="KULA" name="KULA" netid="KO" insttype="CMG-3T" commtype="DIG" lat="38.5145" lon="28.6607">
    <comp name="--.HHZ">
      <acc value="0.0374657092" flag="0"/>
      <vel value="0.0095723277" flag="0"/>
      <psa03 value="0.0359733830" flag="0"/>
      <psa10 value="0.0035346841" flag="0"/>
      <psa30 value="0.0002363931" flag="0"/>
    </comp>
  </station>
  <station code="ORLT" name="ORLT" netid="KO" insttype="CMG-5T" commtype="DIG" lat="40.0452" lon="28.8914">
    <comp name="--.HNN">
      <acc value="0.0434869280" flag="0"/>
      <vel value="0.0200957423" flag="0"/>
      <psa03 value="0.1565495409" flag="0"/>
      <psa10 value="0.0194084496" flag="0"/>
      <psa30 value="0.0012146018" flag="0"/>
    </comp>
    <comp name="--.HNZ">
      <acc value="0.0195529690" flag="0"/>
      <vel value="0.0109217859" flag="0"/>
      <psa03 value="0.0525311026" flag="0"/>
      <psa10 value="0.0117604556" flag="0"/>
      <psa30 value="0.0007153417" flag="0"/>
    </comp>
    <comp name="--.HNE">
      <acc value="0.0479339037" flag="0"/>
      <vel value="0.0180100863" flag="0"/>
      <psa03 value="0.1251742149" flag="0"/>
      <psa10 value="0.0149905108" flag="0"/>
      <psa30 value="0.0008682303" flag="0"/>
    </comp>
  </station>
  <station code="SIMA" name="SIMA" netid="KO" insttype="CMG-6T" commtype="DIG" lat="39.0833" lon="28.9825">
    <comp name="--.HHZ">
      <acc value="0.0502314059" flag="0"/>
      <vel value="0.0161484923" flag="0"/>
      <psa03 value="0.1337816069" flag="0"/>
      <psa10 value="0.0043049064" flag="0"/>
      <psa30 value="0.0004369552" flag="0"/>
    </comp>
  </station>
  <station code="SMAA" name="SMAA" netid="KO" insttype="CMG-5T" commtype="DIG" lat="39.1005" lon="28.9805">
    <comp name="--.HNN">
      <acc value="0.1113245181" flag="0"/>
      <vel value="0.0491364019" flag="0"/>
      <psa03 value="0.2736205177" flag="0"/>
      <psa10 value="0.0388173907" flag="0"/>
      <psa30 value="0.0030244149" flag="0"/>
    </comp>
    <comp name="--.HNE">
      <acc value="0.1213215927" flag="0"/>
      <vel value="0.0452096784" flag="0"/>
      <psa03 value="0.3579266204" flag="0"/>
      <psa10 value="0.0531427019" flag="0"/>
      <psa30 value="0.0024411888" flag="0"/>
    </comp>
    <comp name="--.HNZ">
      <acc value="0.0285777178" flag="0"/>
      <vel value="0.0153858803" flag="0"/>
      <psa03 value="0.0628092931" flag="0"/>
      <psa10 value="0.0219219774" flag="0"/>
      <psa30 value="0.0009919402" flag="0"/>
    </comp>
  </station>
  <station code="SOMA" name="SOMA" netid="KO" insttype="CMG-5T" commtype="DIG" lat="39.1564" lon="27.5341">
    <comp name="--.HNZ">
      <acc value="0.0667903551" flag="0"/>
      <vel value="0.0268512530" flag="0"/>
      <psa03 value="0.1608224775" flag="0"/>
      <psa10 value="0.0135523986" flag="0"/>
      <psa30 value="0.0007036806" flag="0"/>
    </comp>
    <comp name="--.HNN">
      <acc value="0.0845922496" flag="0"/>
      <vel value="0.0457065886" flag="0"/>
      <psa03 value="0.3111205835" flag="0"/>
      <psa10 value="0.0316831227" flag="0"/>
      <psa30 value="0.0018432791" flag="0"/>
    </comp>
    <comp name="--.HNE">
      <acc value="0.0933980054" flag="0"/>
      <vel value="0.0380194059" flag="0"/>
      <psa03 value="0.3008493830" flag="0"/>
      <psa10 value="0.0165054880" flag="0"/>
      <psa30 value="0.0011006633" flag="0"/>
    </comp>
  </station>
  <station code="SUSR" name="SUSR" netid="KO" insttype="CMG-5T" commtype="DIG" lat="39.9627" lon="28.0835">
    <comp name="--.HNE">
      <acc value="0.0307911381" flag="0"/>
      <vel value="0.0107979759" flag="0"/>
      <psa03 value="0.0813639257" flag="0"/>
      <psa10 value="0.0061099232" flag="0"/>
      <psa30 value="0.0004472598" flag="0"/>
    </comp>
    <comp name="--.HNZ">
      <acc value="0.0206924904" flag="0"/>
      <vel value="0.0073697548" flag="0"/>
      <psa03 value="0.0468728435" flag="0"/>
      <psa10 value="0.0034989764" flag="0"/>
      <psa30 value="0.0003320506" flag="0"/>
    </comp>
    <comp name="--.HNN">
      <acc value="0.0289063051" flag="0"/>
      <vel value="0.0108187826" flag="0"/>
      <psa03 value="0.0907172426" flag="0"/>
      <psa10 value="0.0053284090" flag="0"/>
      <psa30 value="0.0002868764" flag="0"/>
    </comp>
  </station>
  <station code="TVSB" name="TVSB" netid="KO" insttype="CMG-3T" commtype="DIG" lat="39.4497" lon="29.4615">
    <comp name="--.HHN">
      <acc value="0.0680000592" flag="0"/>
      <vel value="0.0309975901" flag="0"/>
      <psa03 value="0.2452503346" flag="0"/>
      <psa10 value="0.0125946702" flag="0"/>
      <psa30 value="0.0010363739" flag="0"/>
    </comp>
    <comp name="--.HHE">
      <acc value="0.0534803636" flag="0"/>
      <vel value="0.0288343372" flag="0"/>
      <psa03 value="0.1661037325" flag="0"/>
      <psa10 value="0.0100071879" flag="0"/>
      <psa30 value="0.0007530943" flag="0"/>
    </comp>
    <comp name="--.HHZ">
      <acc value="0.0266921007" flag="0"/>
      <vel value="0.0129583129" flag="0"/>
      <psa03 value="0.1015196235" flag="0"/>
      <psa10 value="0.0039500239" flag="0"/>
      <psa30 value="0.0003668026" flag="0"/>
    </comp>
  </station>
  <station code="YAYO" name="YAYO" netid="KO" insttype="CMG-6T" commtype="DIG" lat="39.6113" lon="27.0726">
    <comp name="--.HHE">
      <acc value="0.0192166125" flag="0"/>
      <vel value="0.0092733198" flag="0"/>
      <psa03 value="0.0773382930" flag="0"/>
      <psa10 value="0.0058681940" flag="0"/>
      <psa30 value="0.0004560573" flag="0"/>
    </comp>
    <comp name="--.HHZ">
      <acc value="0.0193396633" flag="0"/>
      <vel value="0.0066993543" flag="0"/>
      <psa03 value="0.0453007216" flag="0"/>
      <psa10 value="0.0034311711" flag="0"/>
      <psa30 value="0.0005055130" flag="0"/>
    </comp>
    <comp name="--.HHN">
      <acc value="0.0256544103" flag="0"/>
      <vel value="0.0123638205" flag="0"/>
      <psa03 value="0.0677055696" flag="0"/>
      <psa10 value="0.0045805443" flag="0"/>
      <psa30 value="0.0004112479" flag="0"/>
    </comp>
  </station>
  <station code="YENI" name="YENI" netid="KO" insttype="CMG-5T" commtype="DIG" lat="39.9364" lon="27.2422">
    <comp name="--.HNN">
      <acc value="0.0519230120" flag="0"/>
      <vel value="0.0251411264" flag="0"/>
      <psa03 value="0.1167908463" flag="0"/>
      <psa10 value="0.0170875517" flag="0"/>
      <psa30 value="0.0007184458" flag="0"/>
    </comp>
    <comp name="--.HNE">
      <acc value="0.0319849367" flag="0"/>
      <vel value="0.0114978258" flag="0"/>
      <psa03 value="0.0997016935" flag="0"/>
      <psa10 value="0.0122262907" flag="0"/>
      <psa30 value="0.0007104156" flag="0"/>
    </comp>
    <comp name="--.HNZ">
      <acc value="0.0217310313" flag="0"/>
      <vel value="0.0064692063" flag="0"/>
      <psa03 value="0.0300355986" flag="0"/>
      <psa10 value="0.0038316568" flag="0"/>
      <psa30 value="0.0005111318" flag="0"/>
    </comp>
  </station>
</stationlist>
