<?xml version="1.0" encoding="UTF-8" standalone="yes"?>
<!DOCTYPE earthquake SYSTEM "stationlist.dtd">
<stationlist created="" xmlns="ch.ethz.sed.shakemap.usgs.xml">
  <station code="ASB" name="ASB" netid="VI" source="ODC" insttype="STS-2.5" lat="64.7482" lon="-21.3254">
    <comp name="--.HHZ">
      <acc value="0.2776785192" flag="0"/>
      <vel value="0.1457462703" flag="0"/>
      <psa03 value="0.6969259902" flag="0"/>
      <psa10 value="0.0752102877" flag="0"/>
      <psa30 value="0.0406974380" flag="0"/>
    </comp>
    <comp name="--.HHE">
      <acc value="0.3045186302" flag="0"/>
      <vel value="0.2280369573" flag="0"/>
      <psa03 value="0.8859167025" flag="0"/>
      <psa10 value="0.2751299596" flag="0"/>
      <psa30 value="0.0636637916" flag="0"/>
    </comp>
    <comp name="--.HHN">
      <acc value="0.4551037501" flag="0"/>
      <vel value="0.2480629227" flag="0"/>
      <psa03 value="1.6520363589" flag="0"/>
      <psa10 value="0.1692829742" flag="0"/>
      <psa30 value="0.0426967018" flag="0"/>
    </comp>
  </station>
</stationlist>
