<stationlist created="1778136442">
	<station code="S2114" name="S2114" netid="S2" source="IceSMN Icelandic Strong Motion Network (IceSMN)" insttype="" lat="63.7515" lon="-20.2168">
		<comp name="00.HN1" depth="0.0">
			<acc value="0.452716972527756" flag="0"/>
			<vel value="0.277016171369034" flag="0"/>
			<psa03 value="1.11332550234952" flag="0"/>
			<psa10 value="0.222887270187667" flag="0"/>
			<psa30 value="0.0906399644530258" flag="0"/>
		</comp>
		<comp name="00.HN2" depth="0.0">
			<acc value="0.418266726499305" flag="0"/>
			<vel value="0.23050847327341" flag="0"/>
			<psa03 value="0.995168091670024" flag="0"/>
			<psa10 value="0.259709114454369" flag="0"/>
			<psa30 value="0.0353761401623538" flag="0"/>
		</comp>
		<comp name="00.HNZ" depth="0.0">
			<acc value="0.26587979115555" flag="0"/>
			<vel value="0.131132481574719" flag="0"/>
			<psa03 value="0.389209658229631" flag="0"/>
			<psa10 value="0.129254262460697" flag="0"/>
			<psa30 value="0.0519244130707691" flag="0"/>
		</comp>
	</station>
	<station code="S2119" name="S2119" netid="S2" source="IceSMN Icelandic Strong Motion Network (IceSMN)" insttype="" lat="64.1301" lon="-20.32">
		<comp name="00.HN1" depth="0.0">
			<acc value="0.170454179585982" flag="0"/>
			<vel value="0.185770117074302" flag="0"/>
			<psa03 value="0.589132652147358" flag="0"/>
			<psa10 value="0.0891384549851279" flag="0"/>
			<psa30 value="0.0654569095324244" flag="0"/>
		</comp>
		<comp name="00.HN2" depth="0.0">
			<acc value="0.163715801713891" flag="0"/>
			<vel value="0.188404666150954" flag="0"/>
			<psa03 value="0.343498650933127" flag="0"/>
			<psa10 value="0.219556239523373" flag="0"/>
			<psa30 value="0.0669775436002604" flag="0"/>
		</comp>
		<comp name="00.HNZ" depth="0.0">
			<acc value="0.0916516345897189" flag="0"/>
			<vel value="0.0967981357441598" flag="0"/>
			<psa03 value="0.125335188257555" flag="0"/>
			<psa10 value="0.0741149822536867" flag="0"/>
			<psa30 value="0.0327547765098568" flag="0"/>
		</comp>
	</station>
	<station code="S2405" name="S2405" netid="S2" source="IceSMN Icelandic Strong Motion Network (IceSMN)" insttype="" lat="64.0447" lon="-21.9848">
		<comp name="00.HN1" depth="0.0">
			<acc value="1.13798975930534" flag="0"/>
			<vel value="0.902730305830077" flag="0"/>
			<psa03 value="1.89338142722603" flag="0"/>
			<psa10 value="1.01881301136125" flag="0"/>
			<psa30 value="0.179939360099307" flag="0"/>
		</comp>
		<comp name="00.HN2" depth="0.0">
			<acc value="1.52344981989711" flag="0"/>
			<vel value="0.844392119902341" flag="0"/>
			<psa03 value="3.07915464555215" flag="0"/>
			<psa10 value="0.976987180606569" flag="0"/>
			<psa30 value="0.159975437587529" flag="0"/>
		</comp>
		<comp name="00.HNZ" depth="0.0">
			<acc value="1.00668824575082" flag="0"/>
			<vel value="0.404241728827445" flag="0"/>
			<psa03 value="0.779853744817841" flag="0"/>
			<psa10 value="0.403696782928821" flag="0"/>
			<psa30 value="0.228970234820897" flag="0"/>
		</comp>
	</station>
	<station code="S2602" name="S2602" netid="S2" source="IceSMN Icelandic Strong Motion Network (IceSMN)" insttype="" lat="63.8464" lon="-22.4268">
		<comp name="00.HN1" depth="0.0">
			<acc value="12.0236881662645" flag="0"/>
			<vel value="13.9082273193956" flag="0"/>
			<psa03 value="23.6528228834145" flag="0"/>
			<psa10 value="12.3432756014442" flag="0"/>
			<psa30 value="2.2131765854211" flag="0"/>
		</comp>
		<comp name="00.HN2" depth="0.0">
			<acc value="21.3288179850193" flag="0"/>
			<vel value="16.5139091568912" flag="0"/>
			<psa03 value="43.5693155866836" flag="0"/>
			<psa10 value="21.1807810427984" flag="0"/>
			<psa30 value="1.73538685419694" flag="0"/>
		</comp>
		<comp name="00.HNZ" depth="0.0">
			<acc value="7.57308213662727" flag="0"/>
			<vel value="3.60539344505231" flag="0"/>
			<psa03 value="7.12113374014553" flag="0"/>
			<psa10 value="2.03515769920765" flag="0"/>
			<psa30 value="1.09111996134338" flag="0"/>
		</comp>
	</station>
	<station code="S2604" name="S2604" netid="S2" source="IceSMN Icelandic Strong Motion Network (IceSMN)" insttype="" lat="63.9843" lon="-21.6486">
		<comp name="00.HN1" depth="0.0">
			<acc value="0.401941099254864" flag="0"/>
			<vel value="0.808660443946424" flag="0"/>
			<psa03 value="0.707183180746612" flag="0"/>
			<psa10 value="0.968545041355655" flag="0"/>
			<psa30 value="0.234700374414832" flag="0"/>
		</comp>
		<comp name="00.HN2" depth="0.0">
			<acc value="0.377263783942174" flag="0"/>
			<vel value="0.49061901928935" flag="0"/>
			<psa03 value="0.941798056166079" flag="0"/>
			<psa10 value="0.625944005717151" flag="0"/>
			<psa30 value="0.112398739198292" flag="0"/>
		</comp>
		<comp name="00.HNZ" depth="0.0">
			<acc value="0.410388158783575" flag="0"/>
			<vel value="0.325327088984703" flag="0"/>
			<psa03 value="0.666353225963711" flag="0"/>
			<psa10 value="0.283896356740172" flag="0"/>
			<psa30 value="0.126457817209872" flag="0"/>
		</comp>
	</station>
</stationlist>
