<stationlist created="1778136243">
	<station code="MSAG" name="MSAG" netid="IV" source="Italian National Seismic Network (INSN)" insttype="" lat="41.712" lon="15.9096">
		<comp name="--.HNE" depth="0.0">
			<acc value="0.00283298533011225" flag="0"/>
			<vel value="0.00196468081146926" flag="0"/>
			<psa03 value="0.00718950556633265" flag="0"/>
			<psa10 value="0.00241579261252879" flag="0"/>
			<psa30 value="0.000172541000307083" flag="0"/>
		</comp>
		<comp name="--.HNN" depth="0.0">
			<acc value="0.00543143322558186" flag="0"/>
			<vel value="0.00381892686498136" flag="0"/>
			<psa03 value="0.0159200311864193" flag="0"/>
			<psa10 value="0.00329795534835694" flag="0"/>
			<psa30 value="0.000192757118171543" flag="0"/>
		</comp>
		<comp name="--.HNZ" depth="0.0">
			<acc value="0.00186169245046358" flag="0"/>
			<vel value="0.00137158835498064" flag="0"/>
			<psa03 value="0.00399779608436863" flag="0"/>
			<psa10 value="0.00206772853936705" flag="0"/>
			<psa30 value="0.000178869479433681" flag="0"/>
		</comp>
	</station>
</stationlist>
