<?xml version="1.0" encoding="UTF-8" standalone="yes"?>
<!DOCTYPE earthquake SYSTEM "stationlist.dtd">
<stationlist created="" xmlns="ch.ethz.sed.shakemap.usgs.xml">
  <station code="PDG" name="PDG" netid="MN" insttype="" lat="42.4297" lon="19.2608">
    <comp name="--.HHZ">
      <acc value="0.0089859017" flag="0"/>
      <vel value="0.0036509868" flag="0"/>
      <psa03 value="0.0161465284" flag="0"/>
      <psa10 value="0.0020859269" flag="0"/>
      <psa30 value="0.0002022360" flag="0"/>
    </comp>
    <comp name="--.HHN">
      <acc value="0.0120220390" flag="0"/>
      <vel value="0.0046551527" flag="0"/>
      <psa03 value="0.0188023587" flag="0"/>
      <psa10 value="0.0029616442" flag="0"/>
      <psa30 value="0.0003633769" flag="0"/>
    </comp>
    <comp name="--.HHE">
      <acc value="0.0145778440" flag="0"/>
      <vel value="0.0042074086" flag="0"/>
      <psa03 value="0.0301482058" flag="0"/>
      <psa10 value="0.0023273849" flag="0"/>
      <psa30 value="0.0002224469" flag="0"/>
    </comp>
  </station>
</stationlist>
