<?xml version="1.0" encoding="UTF-8" standalone="yes"?>
<!DOCTYPE earthquake SYSTEM "stationlist.dtd">
<stationlist created="" xmlns="ch.ethz.sed.shakemap.usgs.xml">
  <station code="GVD" name="GVD" netid="GE" insttype="STS-2/N" lat="34.8391" lon="24.0874">
    <comp name="--.HHE">
      <acc value="0.1950617235" flag="0"/>
      <vel value="0.0273106613" flag="0"/>
      <psa03 value="0.1332762046" flag="0"/>
      <psa10 value="0.0265466047" flag="0"/>
      <psa30 value="0.0089564873" flag="0"/>
    </comp>
    <comp name="--.HHZ">
      <acc value="0.0053105377" flag="0"/>
      <vel value="0.0015992745" flag="0"/>
      <psa03 value="0.0069289498" flag="0"/>
      <psa10 value="0.0005822406" flag="0"/>
      <psa30 value="0.0000378852" flag="0"/>
    </comp>
    <comp name="--.HHN">
      <acc value="0.0086328827" flag="0"/>
      <vel value="0.0032791394" flag="0"/>
      <psa03 value="0.0243454779" flag="0"/>
      <psa10 value="0.0016675443" flag="0"/>
      <psa30 value="0.0001426806" flag="0"/>
    </comp>
  </station>
  <station code="ZKR" name="ZKR" netid="GE" insttype="STS-2/N" lat="35.1147" lon="26.2169">
    <comp name="--.HHN">
      <acc value="0.0020410244" flag="0"/>
      <vel value="0.0008170129" flag="0"/>
      <psa03 value="0.0061386887" flag="0"/>
      <psa10 value="0.0006502858" flag="0"/>
      <psa30 value="0.0000613858" flag="0"/>
    </comp>
    <comp name="--.HHZ">
      <acc value="0.0030784363" flag="0"/>
      <vel value="0.0012030852" flag="0"/>
      <psa03 value="0.0073594333" flag="0"/>
      <psa10 value="0.0011814589" flag="0"/>
      <psa30 value="0.0000862621" flag="0"/>
    </comp>
    <comp name="--.HHE">
      <acc value="0.0037697096" flag="0"/>
      <vel value="0.0022031439" flag="0"/>
      <psa03 value="0.0110746965" flag="0"/>
      <psa10 value="0.0017134320" flag="0"/>
      <psa30 value="0.0000988496" flag="0"/>
    </comp>
  </station>
  <station code="GVDS" name="GVDS" netid="HC" insttype="60" lat="34.8389" lon="24.0585">
    <comp name="--.HHN">
      <acc value="0.0062388759" flag="0"/>
      <vel value="0.0018911835" flag="0"/>
      <psa03 value="0.0185728801" flag="0"/>
      <psa10 value="0.0008947227" flag="0"/>
      <psa30 value="0.0000885283" flag="0"/>
    </comp>
    <comp name="--.HHZ">
      <acc value="0.0034457362" flag="0"/>
      <vel value="0.0010103104" flag="0"/>
      <psa03 value="0.0070586416" flag="0"/>
      <psa10 value="0.0005452021" flag="0"/>
      <psa30 value="0.0000484755" flag="0"/>
    </comp>
    <comp name="--.HHE">
      <acc value="0.0065968911" flag="0"/>
      <vel value="0.0023782291" flag="0"/>
      <psa03 value="0.0136941581" flag="0"/>
      <psa10 value="0.0009500706" flag="0"/>
      <psa30 value="0.0000970480" flag="0"/>
    </comp>
  </station>
  <station code="IMOD" name="IMOD" netid="HC" insttype="120" lat="34.9731" lon="24.7995">
    <comp name="--.HHE">
      <acc value="0.0157334937" flag="0"/>
      <vel value="0.0071509929" flag="0"/>
      <psa03 value="0.0435564847" flag="0"/>
      <psa10 value="0.0040005178" flag="0"/>
      <psa30 value="0.0002434673" flag="0"/>
    </comp>
    <comp name="--.HHZ">
      <acc value="0.0174289482" flag="0"/>
      <vel value="0.0052785888" flag="0"/>
      <psa03 value="0.0309417208" flag="0"/>
      <psa10 value="0.0030176106" flag="0"/>
      <psa30 value="0.0001826469" flag="0"/>
    </comp>
    <comp name="--.HHN">
      <acc value="0.0154108885" flag="0"/>
      <vel value="0.0088586714" flag="0"/>
      <psa03 value="0.0793933345" flag="0"/>
      <psa10 value="0.0056737408" flag="0"/>
      <psa30 value="0.0003201318" flag="0"/>
    </comp>
  </station>
  <station code="KNSS" name="KNSS" netid="HC" insttype="60" lat="35.3042" lon="25.1802">
    <comp name="--.HHE">
      <acc value="0.0088580822" flag="0"/>
      <vel value="0.0045757125" flag="0"/>
      <psa03 value="0.0212807484" flag="0"/>
      <psa10 value="0.0023460138" flag="0"/>
      <psa30 value="0.0001601510" flag="0"/>
    </comp>
    <comp name="--.HHN">
      <acc value="0.0099066394" flag="0"/>
      <vel value="0.0047985417" flag="0"/>
      <psa03 value="0.0257974648" flag="0"/>
      <psa10 value="0.0015164584" flag="0"/>
      <psa30 value="0.0002106072" flag="0"/>
    </comp>
    <comp name="--.HHZ">
      <acc value="0.0074398480" flag="0"/>
      <vel value="0.0022386692" flag="0"/>
      <psa03 value="0.0138829117" flag="0"/>
      <psa10 value="0.0009879227" flag="0"/>
      <psa30 value="0.0001086909" flag="0"/>
    </comp>
  </station>
  <station code="PFKS" name="PFKS" netid="HC" insttype="120" lat="35.0429" lon="25.4733">
    <comp name="--.HHZ">
      <acc value="0.0125144210" flag="0"/>
      <vel value="0.0044457436" flag="0"/>
      <psa03 value="0.0316971813" flag="0"/>
      <psa10 value="0.0027767351" flag="0"/>
      <psa30 value="0.0001764916" flag="0"/>
    </comp>
    <comp name="--.HHN">
      <acc value="0.0370848436" flag="0"/>
      <vel value="0.0124026790" flag="0"/>
      <psa03 value="0.0620692392" flag="0"/>
      <psa10 value="0.0066118741" flag="0"/>
      <psa30 value="0.0002708160" flag="0"/>
    </comp>
    <comp name="--.HHE">
      <acc value="0.0254557894" flag="0"/>
      <vel value="0.0133767302" flag="0"/>
      <psa03 value="0.0667675506" flag="0"/>
      <psa10 value="0.0074454494" flag="0"/>
      <psa30 value="0.0005958344" flag="0"/>
    </comp>
  </station>
  <station code="STIA" name="STIA" netid="HC" insttype="120" lat="35.2021" lon="26.0909">
    <comp name="--.HHZ">
      <acc value="0.0046103454" flag="0"/>
      <vel value="0.0020548689" flag="0"/>
      <psa03 value="0.0101902952" flag="0"/>
      <psa10 value="0.0011670511" flag="0"/>
      <psa30 value="0.0001022075" flag="0"/>
    </comp>
    <comp name="--.HHE">
      <acc value="0.0039608456" flag="0"/>
      <vel value="0.0018534546" flag="0"/>
      <psa03 value="0.0090765064" flag="0"/>
      <psa10 value="0.0017458714" flag="0"/>
      <psa30 value="0.0000846539" flag="0"/>
    </comp>
    <comp name="--.HHN">
      <acc value="0.0037803563" flag="0"/>
      <vel value="0.0017254744" flag="0"/>
      <psa03 value="0.0100916596" flag="0"/>
      <psa10 value="0.0014250959" flag="0"/>
      <psa30 value="0.0001039384" flag="0"/>
    </comp>
  </station>
  <station code="CRE1" name="CRE1" netid="HL" insttype="LE3D20_SMART24" lat="35.2267" lon="25.2497">
    <comp name="--.HHZ">
      <acc value="0.0156729475" flag="0"/>
      <vel value="0.0031620179" flag="0"/>
      <psa03 value="0.0196965404" flag="0"/>
      <psa10 value="0.0022774105" flag="0"/>
      <psa30 value="0.0001783972" flag="0"/>
    </comp>
    <comp name="--.HHN">
      <acc value="0.0183675526" flag="0"/>
      <vel value="0.0087273265" flag="0"/>
      <psa03 value="0.0315920796" flag="0"/>
      <psa10 value="0.0043618951" flag="0"/>
      <psa30 value="0.0002378757" flag="0"/>
    </comp>
    <comp name="--.HHE">
      <acc value="0.0159521290" flag="0"/>
      <vel value="0.0053926509" flag="0"/>
      <psa03 value="0.0299889364" flag="0"/>
      <psa10 value="0.0036122108" flag="0"/>
      <psa30 value="0.0003840874" flag="0"/>
    </comp>
  </station>
  <station code="CRE3" name="CRE3" netid="HL" insttype="LE3D20_SMART24" lat="35.0769" lon="25.2462">
    <comp name="--.HHE">
      <acc value="0.0328381844" flag="0"/>
      <vel value="0.0140664250" flag="0"/>
      <psa03 value="0.0662428036" flag="0"/>
      <psa10 value="0.0110878377" flag="0"/>
      <psa30 value="0.0008895580" flag="0"/>
    </comp>
    <comp name="--.HHN">
      <acc value="0.0560835146" flag="0"/>
      <vel value="0.0262434336" flag="0"/>
      <psa03 value="0.0877649733" flag="0"/>
      <psa10 value="0.0151628386" flag="0"/>
      <psa30 value="0.0009231639" flag="0"/>
    </comp>
    <comp name="--.HHZ">
      <acc value="0.0389823363" flag="0"/>
      <vel value="0.0123472605" flag="0"/>
      <psa03 value="0.0447975333" flag="0"/>
      <psa10 value="0.0068377392" flag="0"/>
      <psa30 value="0.0004718313" flag="0"/>
    </comp>
  </station>
  <station code="GVD" name="GVD" netid="HL" insttype="120" lat="34.8391" lon="24.0874">
    <comp name="--.HHE">
      <acc value="0.1978333237" flag="0"/>
      <vel value="0.0271352199" flag="0"/>
      <psa03 value="0.1295944971" flag="0"/>
      <psa10 value="0.0263952843" flag="0"/>
      <psa30 value="0.0089568013" flag="0"/>
    </comp>
    <comp name="--.HHN">
      <acc value="0.0083484682" flag="0"/>
      <vel value="0.0032043623" flag="0"/>
      <psa03 value="0.0236150714" flag="0"/>
      <psa10 value="0.0016469211" flag="0"/>
      <psa30 value="0.0001407320" flag="0"/>
    </comp>
    <comp name="--.HHZ">
      <acc value="0.0051973756" flag="0"/>
      <vel value="0.0015475213" flag="0"/>
      <psa03 value="0.0067250221" flag="0"/>
      <psa10 value="0.0005718975" flag="0"/>
      <psa30 value="0.0000373433" flag="0"/>
    </comp>
  </station>
  <station code="IDI" name="IDI" netid="HL" insttype="120" lat="35.288" lon="24.89">
    <comp name="--.HHE">
      <acc value="0.0056601768" flag="0"/>
      <vel value="0.0020479973" flag="0"/>
      <psa03 value="0.0159689646" flag="0"/>
      <psa10 value="0.0015210533" flag="0"/>
      <psa30 value="0.0001484615" flag="0"/>
    </comp>
    <comp name="--.HHN">
      <acc value="0.0050368622" flag="0"/>
      <vel value="0.0022703308" flag="0"/>
      <psa03 value="0.0107540331" flag="0"/>
      <psa10 value="0.0008303727" flag="0"/>
      <psa30 value="0.0000822619" flag="0"/>
    </comp>
    <comp name="--.HHZ">
      <acc value="0.0036724003" flag="0"/>
      <vel value="0.0020135505" flag="0"/>
      <psa03 value="0.0116648372" flag="0"/>
      <psa10 value="0.0010344727" flag="0"/>
      <psa30 value="0.0001127212" flag="0"/>
    </comp>
  </station>
  <station code="KSTE" name="KSTE" netid="HL" insttype="60" lat="35.1801" lon="25.3372">
    <comp name="--.HHN">
      <acc value="0.0085836450" flag="0"/>
      <vel value="0.0026293753" flag="0"/>
      <psa03 value="0.0111089614" flag="0"/>
      <psa10 value="0.0031582837" flag="0"/>
      <psa30 value="0.0001769220" flag="0"/>
    </comp>
    <comp name="--.HHZ">
      <acc value="0.0068876867" flag="0"/>
      <vel value="0.0026296221" flag="0"/>
      <psa03 value="0.0102478045" flag="0"/>
      <psa10 value="0.0010352505" flag="0"/>
      <psa30 value="0.0001525315" flag="0"/>
    </comp>
    <comp name="--.HHE">
      <acc value="0.0062264471" flag="0"/>
      <vel value="0.0023551410" flag="0"/>
      <psa03 value="0.0130347842" flag="0"/>
      <psa10 value="0.0018578280" flag="0"/>
      <psa30 value="0.0002078919" flag="0"/>
    </comp>
  </station>
  <station code="NPS" name="NPS" netid="HL" insttype="CMG3ESPC-120s" lat="35.2613" lon="25.6104">
    <comp name="--.HHE">
      <acc value="0.0025842108" flag="0"/>
      <vel value="0.0010678422" flag="0"/>
      <psa03 value="0.0060668035" flag="0"/>
      <psa10 value="0.0011886714" flag="0"/>
      <psa30 value="0.0000732891" flag="0"/>
    </comp>
    <comp name="--.HHN">
      <acc value="0.0053794911" flag="0"/>
      <vel value="0.0021552828" flag="0"/>
      <psa03 value="0.0104332553" flag="0"/>
      <psa10 value="0.0028937389" flag="0"/>
      <psa30 value="0.0001614383" flag="0"/>
    </comp>
    <comp name="--.HHZ">
      <acc value="0.0066493273" flag="0"/>
      <vel value="0.0018090790" flag="0"/>
      <psa03 value="0.0087137365" flag="0"/>
      <psa10 value="0.0016790483" flag="0"/>
      <psa30 value="0.0001267406" flag="0"/>
    </comp>
  </station>
  <station code="SIVA" name="SIVA" netid="HL" insttype="60" lat="35.0178" lon="24.812">
    <comp name="--.HHN">
      <acc value="0.0244946518" flag="0"/>
      <vel value="0.0108040968" flag="0"/>
      <psa03 value="0.0426418120" flag="0"/>
      <psa10 value="0.0054093497" flag="0"/>
      <psa30 value="0.0003849717" flag="0"/>
    </comp>
    <comp name="--.HHE">
      <acc value="0.0367417696" flag="0"/>
      <vel value="0.0175966560" flag="0"/>
      <psa03 value="0.1032049182" flag="0"/>
      <psa10 value="0.0086945959" flag="0"/>
      <psa30 value="0.0005576185" flag="0"/>
    </comp>
    <comp name="--.HHZ">
      <acc value="0.0176721583" flag="0"/>
      <vel value="0.0065055935" flag="0"/>
      <psa03 value="0.0348179249" flag="0"/>
      <psa10 value="0.0032024241" flag="0"/>
      <psa30 value="0.0002933682" flag="0"/>
    </comp>
  </station>
  <station code="ZKR" name="ZKR" netid="HL" insttype="120" lat="35.1147" lon="26.2169">
    <comp name="--.HHE">
      <acc value="0.0036566035" flag="0"/>
      <vel value="0.0021547068" flag="0"/>
      <psa03 value="0.0107773953" flag="0"/>
      <psa10 value="0.0016986887" flag="0"/>
      <psa30 value="0.0000982949" flag="0"/>
    </comp>
    <comp name="--.HHZ">
      <acc value="0.0031119186" flag="0"/>
      <vel value="0.0011833030" flag="0"/>
      <psa03 value="0.0071558365" flag="0"/>
      <psa10 value="0.0011733213" flag="0"/>
      <psa30 value="0.0000853559" flag="0"/>
    </comp>
    <comp name="--.HHN">
      <acc value="0.0020100141" flag="0"/>
      <vel value="0.0007900649" flag="0"/>
      <psa03 value="0.0059551761" flag="0"/>
      <psa10 value="0.0006430897" flag="0"/>
      <psa30 value="0.0000612510" flag="0"/>
    </comp>
  </station>
  <station code="IDI" name="IDI" netid="MN" insttype="" lat="35.288" lon="24.89">
    <comp name="--.HHE">
      <acc value="0.0057466746" flag="0"/>
      <vel value="0.0020425577" flag="0"/>
      <psa03 value="0.0161626771" flag="0"/>
      <psa10 value="0.0015148560" flag="0"/>
      <psa30 value="0.0001474832" flag="0"/>
    </comp>
    <comp name="--.HHZ">
      <acc value="0.0037698803" flag="0"/>
      <vel value="0.0020212658" flag="0"/>
      <psa03 value="0.0118225962" flag="0"/>
      <psa10 value="0.0010337107" flag="0"/>
      <psa30 value="0.0001121819" flag="0"/>
    </comp>
    <comp name="--.HHN">
      <acc value="0.0053157210" flag="0"/>
      <vel value="0.0023283041" flag="0"/>
      <psa03 value="0.0109110731" flag="0"/>
      <psa10 value="0.0008231529" flag="0"/>
      <psa30 value="0.0000816046" flag="0"/>
    </comp>
  </station>
</stationlist>
