<?xml version="1.0" encoding="UTF-8" standalone="yes"?>
<!DOCTYPE earthquake SYSTEM "stationlist.dtd">
<stationlist created="" xmlns="ch.ethz.sed.shakemap.usgs.xml">
  <station code="GVD" name="GVD" netid="GE" insttype="STS-2/N" lat="34.8391" lon="24.0874">
    <comp name="--.HHE">
      <acc value="0.1950617235" flag="0"/>
      <vel value="0.0273112306" flag="0"/>
      <psa03 value="0.1332762045" flag="0"/>
      <psa10 value="0.0265466074" flag="0"/>
      <psa30 value="0.0105041596" flag="0"/>
    </comp>
    <comp name="--.HHZ">
      <acc value="0.0053105371" flag="0"/>
      <vel value="0.0015992747" flag="0"/>
      <psa03 value="0.0069289498" flag="0"/>
      <psa10 value="0.0005822406" flag="0"/>
      <psa30 value="0.0000378980" flag="0"/>
    </comp>
    <comp name="--.HHN">
      <acc value="0.0086328826" flag="0"/>
      <vel value="0.0032791393" flag="0"/>
      <psa03 value="0.0243454779" flag="0"/>
      <psa10 value="0.0016675443" flag="0"/>
      <psa30 value="0.0001426656" flag="0"/>
    </comp>
  </station>
  <station code="ZKR" name="ZKR" netid="GE" insttype="STS-2/N" lat="35.1147" lon="26.2169">
    <comp name="--.HHZ">
      <acc value="0.0030784364" flag="0"/>
      <vel value="0.0012030850" flag="0"/>
      <psa03 value="0.0073594333" flag="0"/>
      <psa10 value="0.0011814589" flag="0"/>
      <psa30 value="0.0000862564" flag="0"/>
    </comp>
    <comp name="--.HHE">
      <acc value="0.0037697098" flag="0"/>
      <vel value="0.0022031434" flag="0"/>
      <psa03 value="0.0110746965" flag="0"/>
      <psa10 value="0.0017134320" flag="0"/>
      <psa30 value="0.0000988541" flag="0"/>
    </comp>
    <comp name="--.HHN">
      <acc value="0.0020410243" flag="0"/>
      <vel value="0.0008170129" flag="0"/>
      <psa03 value="0.0061386887" flag="0"/>
      <psa10 value="0.0006502858" flag="0"/>
      <psa30 value="0.0000613895" flag="0"/>
    </comp>
  </station>
  <station code="GVDS" name="GVDS" netid="HC" insttype="60" lat="34.8389" lon="24.0585">
    <comp name="--.HHE">
      <acc value="0.0065968910" flag="0"/>
      <vel value="0.0023782292" flag="0"/>
      <psa03 value="0.0136941581" flag="0"/>
      <psa10 value="0.0009500706" flag="0"/>
      <psa30 value="0.0000970413" flag="0"/>
    </comp>
    <comp name="--.HHZ">
      <acc value="0.0034457364" flag="0"/>
      <vel value="0.0010103104" flag="0"/>
      <psa03 value="0.0070586416" flag="0"/>
      <psa10 value="0.0005452022" flag="0"/>
      <psa30 value="0.0000484688" flag="0"/>
    </comp>
    <comp name="--.HHN">
      <acc value="0.0062388755" flag="0"/>
      <vel value="0.0018911843" flag="0"/>
      <psa03 value="0.0185728801" flag="0"/>
      <psa10 value="0.0008947227" flag="0"/>
      <psa30 value="0.0000885180" flag="0"/>
    </comp>
  </station>
  <station code="IMOD" name="IMOD" netid="HC" insttype="120" lat="34.9731" lon="24.7995">
    <comp name="--.HHZ">
      <acc value="0.0174289481" flag="0"/>
      <vel value="0.0052785888" flag="0"/>
      <psa03 value="0.0309417208" flag="0"/>
      <psa10 value="0.0030176147" flag="0"/>
      <psa30 value="0.0001827447" flag="0"/>
    </comp>
    <comp name="--.HHE">
      <acc value="0.0157334937" flag="0"/>
      <vel value="0.0071509927" flag="0"/>
      <psa03 value="0.0435564847" flag="0"/>
      <psa10 value="0.0040005181" flag="0"/>
      <psa30 value="0.0002434370" flag="0"/>
    </comp>
    <comp name="--.HHN">
      <acc value="0.0154108884" flag="0"/>
      <vel value="0.0088586714" flag="0"/>
      <psa03 value="0.0793933345" flag="0"/>
      <psa10 value="0.0056737408" flag="0"/>
      <psa30 value="0.0003201497" flag="0"/>
    </comp>
  </station>
  <station code="PFKS" name="PFKS" netid="HC" insttype="120" lat="35.0429" lon="25.4733">
    <comp name="--.HHE">
      <acc value="0.0254557896" flag="0"/>
      <vel value="0.0133767304" flag="0"/>
      <psa03 value="0.0667675506" flag="0"/>
      <psa10 value="0.0074454494" flag="0"/>
      <psa30 value="0.0005958265" flag="0"/>
    </comp>
    <comp name="--.HHN">
      <acc value="0.0370848434" flag="0"/>
      <vel value="0.0124026789" flag="0"/>
      <psa03 value="0.0620692392" flag="0"/>
      <psa10 value="0.0066118743" flag="0"/>
      <psa30 value="0.0002708210" flag="0"/>
    </comp>
    <comp name="--.HHZ">
      <acc value="0.0125144212" flag="0"/>
      <vel value="0.0044457435" flag="0"/>
      <psa03 value="0.0316971813" flag="0"/>
      <psa10 value="0.0027767352" flag="0"/>
      <psa30 value="0.0001765040" flag="0"/>
    </comp>
  </station>
  <station code="STIA" name="STIA" netid="HC" insttype="120" lat="35.2021" lon="26.0909">
    <comp name="--.HHE">
      <acc value="0.0039608456" flag="0"/>
      <vel value="0.0018534547" flag="0"/>
      <psa03 value="0.0090765064" flag="0"/>
      <psa10 value="0.0017458714" flag="0"/>
      <psa30 value="0.0000846338" flag="0"/>
    </comp>
    <comp name="--.HHZ">
      <acc value="0.0046103454" flag="0"/>
      <vel value="0.0020548689" flag="0"/>
      <psa03 value="0.0101902952" flag="0"/>
      <psa10 value="0.0011670511" flag="0"/>
      <psa30 value="0.0001022068" flag="0"/>
    </comp>
    <comp name="--.HHN">
      <acc value="0.0037803563" flag="0"/>
      <vel value="0.0017254744" flag="0"/>
      <psa03 value="0.0100916596" flag="0"/>
      <psa10 value="0.0014250959" flag="0"/>
      <psa30 value="0.0001039389" flag="0"/>
    </comp>
  </station>
  <station code="CRE1" name="CRE1" netid="HL" insttype="LE3D20_SMART24" lat="35.2267" lon="25.2497">
    <comp name="--.HHN">
      <acc value="0.0183675523" flag="0"/>
      <vel value="0.0087273295" flag="0"/>
      <psa03 value="0.0315920796" flag="0"/>
      <psa10 value="0.0043618951" flag="0"/>
      <psa30 value="0.0002378646" flag="0"/>
    </comp>
    <comp name="--.HHZ">
      <acc value="0.0156729477" flag="0"/>
      <vel value="0.0031620238" flag="0"/>
      <psa03 value="0.0196965403" flag="0"/>
      <psa10 value="0.0022774105" flag="0"/>
      <psa30 value="0.0001784156" flag="0"/>
    </comp>
    <comp name="--.HHE">
      <acc value="0.0159521289" flag="0"/>
      <vel value="0.0053926489" flag="0"/>
      <psa03 value="0.0299889364" flag="0"/>
      <psa10 value="0.0036122107" flag="0"/>
      <psa30 value="0.0003840764" flag="0"/>
    </comp>
  </station>
  <station code="CRE3" name="CRE3" netid="HL" insttype="LE3D20_SMART24" lat="35.0769" lon="25.2462">
    <comp name="--.HHN">
      <acc value="0.0560835151" flag="0"/>
      <vel value="0.0262434291" flag="0"/>
      <psa03 value="0.0877649733" flag="0"/>
      <psa10 value="0.0151628372" flag="0"/>
      <psa30 value="0.0009230512" flag="0"/>
    </comp>
    <comp name="--.HHZ">
      <acc value="0.0389823367" flag="0"/>
      <vel value="0.0123472760" flag="0"/>
      <psa03 value="0.0447975332" flag="0"/>
      <psa10 value="0.0068377396" flag="0"/>
      <psa30 value="0.0004718899" flag="0"/>
    </comp>
    <comp name="--.HHE">
      <acc value="0.0328381847" flag="0"/>
      <vel value="0.0140664310" flag="0"/>
      <psa03 value="0.0662428036" flag="0"/>
      <psa10 value="0.0110878423" flag="0"/>
      <psa30 value="0.0008894784" flag="0"/>
    </comp>
  </station>
  <station code="GVD" name="GVD" netid="HL" insttype="120" lat="34.8391" lon="24.0874">
    <comp name="--.HHE">
      <acc value="0.1978333237" flag="0"/>
      <vel value="0.0271357893" flag="0"/>
      <psa03 value="0.1295944970" flag="0"/>
      <psa10 value="0.0263952870" flag="0"/>
      <psa30 value="0.0105094581" flag="0"/>
    </comp>
    <comp name="--.HHN">
      <acc value="0.0083484680" flag="0"/>
      <vel value="0.0032043621" flag="0"/>
      <psa03 value="0.0236150714" flag="0"/>
      <psa10 value="0.0016469210" flag="0"/>
      <psa30 value="0.0001407170" flag="0"/>
    </comp>
    <comp name="--.HHZ">
      <acc value="0.0051973749" flag="0"/>
      <vel value="0.0015475214" flag="0"/>
      <psa03 value="0.0067250221" flag="0"/>
      <psa10 value="0.0005718975" flag="0"/>
      <psa30 value="0.0000373561" flag="0"/>
    </comp>
  </station>
  <station code="IDI" name="IDI" netid="HL" insttype="120" lat="35.288" lon="24.89">
    <comp name="--.HHE">
      <acc value="0.0056601768" flag="0"/>
      <vel value="0.0020479974" flag="0"/>
      <psa03 value="0.0159689646" flag="0"/>
      <psa10 value="0.0015210533" flag="0"/>
      <psa30 value="0.0001484644" flag="0"/>
    </comp>
    <comp name="--.HHN">
      <acc value="0.0050368622" flag="0"/>
      <vel value="0.0022703307" flag="0"/>
      <psa03 value="0.0107540331" flag="0"/>
      <psa10 value="0.0008303727" flag="0"/>
      <psa30 value="0.0000822723" flag="0"/>
    </comp>
    <comp name="--.HHZ">
      <acc value="0.0036724003" flag="0"/>
      <vel value="0.0020135503" flag="0"/>
      <psa03 value="0.0116648372" flag="0"/>
      <psa10 value="0.0010344727" flag="0"/>
      <psa30 value="0.0001127192" flag="0"/>
    </comp>
  </station>
  <station code="KSTE" name="KSTE" netid="HL" insttype="60" lat="35.1801" lon="25.3372">
    <comp name="--.HHE">
      <acc value="0.0062264472" flag="0"/>
      <vel value="0.0023551407" flag="0"/>
      <psa03 value="0.0130347842" flag="0"/>
      <psa10 value="0.0018578280" flag="0"/>
      <psa30 value="0.0002078915" flag="0"/>
    </comp>
    <comp name="--.HHN">
      <acc value="0.0085836450" flag="0"/>
      <vel value="0.0026293755" flag="0"/>
      <psa03 value="0.0111089614" flag="0"/>
      <psa10 value="0.0031582835" flag="0"/>
      <psa30 value="0.0001769063" flag="0"/>
    </comp>
    <comp name="--.HHZ">
      <acc value="0.0068876867" flag="0"/>
      <vel value="0.0026296215" flag="0"/>
      <psa03 value="0.0102478045" flag="0"/>
      <psa10 value="0.0010352504" flag="0"/>
      <psa30 value="0.0001525385" flag="0"/>
    </comp>
  </station>
  <station code="NPS" name="NPS" netid="HL" insttype="CMG3ESPC-120s" lat="35.2613" lon="25.6104">
    <comp name="--.HHE">
      <acc value="0.0025842109" flag="0"/>
      <vel value="0.0010678423" flag="0"/>
      <psa03 value="0.0060668035" flag="0"/>
      <psa10 value="0.0011886714" flag="0"/>
      <psa30 value="0.0000732862" flag="0"/>
    </comp>
    <comp name="--.HHZ">
      <acc value="0.0066493275" flag="0"/>
      <vel value="0.0018090793" flag="0"/>
      <psa03 value="0.0087137365" flag="0"/>
      <psa10 value="0.0016790483" flag="0"/>
      <psa30 value="0.0001267374" flag="0"/>
    </comp>
    <comp name="--.HHN">
      <acc value="0.0053794910" flag="0"/>
      <vel value="0.0021552827" flag="0"/>
      <psa03 value="0.0104332553" flag="0"/>
      <psa10 value="0.0028937390" flag="0"/>
      <psa30 value="0.0001614244" flag="0"/>
    </comp>
  </station>
  <station code="SIVA" name="SIVA" netid="HL" insttype="60" lat="35.0178" lon="24.812">
    <comp name="--.HHE">
      <acc value="0.0367417696" flag="0"/>
      <vel value="0.0175966585" flag="0"/>
      <psa03 value="0.1032049182" flag="0"/>
      <psa10 value="0.0086945969" flag="0"/>
      <psa30 value="0.0005576365" flag="0"/>
    </comp>
    <comp name="--.HHN">
      <acc value="0.0244946515" flag="0"/>
      <vel value="0.0108040969" flag="0"/>
      <psa03 value="0.0426418120" flag="0"/>
      <psa10 value="0.0054093499" flag="0"/>
      <psa30 value="0.0003849744" flag="0"/>
    </comp>
    <comp name="--.HHZ">
      <acc value="0.0176721582" flag="0"/>
      <vel value="0.0065055971" flag="0"/>
      <psa03 value="0.0348179249" flag="0"/>
      <psa10 value="0.0032024238" flag="0"/>
      <psa30 value="0.0002934073" flag="0"/>
    </comp>
  </station>
  <station code="ZKR" name="ZKR" netid="HL" insttype="120" lat="35.1147" lon="26.2169">
    <comp name="--.HHE">
      <acc value="0.0036566033" flag="0"/>
      <vel value="0.0021547063" flag="0"/>
      <psa03 value="0.0107773953" flag="0"/>
      <psa10 value="0.0016986886" flag="0"/>
      <psa30 value="0.0000982994" flag="0"/>
    </comp>
    <comp name="--.HHZ">
      <acc value="0.0031119188" flag="0"/>
      <vel value="0.0011833028" flag="0"/>
      <psa03 value="0.0071558365" flag="0"/>
      <psa10 value="0.0011733213" flag="0"/>
      <psa30 value="0.0000853501" flag="0"/>
    </comp>
    <comp name="--.HHN">
      <acc value="0.0020100140" flag="0"/>
      <vel value="0.0007900648" flag="0"/>
      <psa03 value="0.0059551761" flag="0"/>
      <psa10 value="0.0006430897" flag="0"/>
      <psa30 value="0.0000612548" flag="0"/>
    </comp>
  </station>
  <station code="IDI" name="IDI" netid="MN" insttype="" lat="35.288" lon="24.89">
    <comp name="--.HHE">
      <acc value="0.0057466746" flag="0"/>
      <vel value="0.0020425577" flag="0"/>
      <psa03 value="0.0161626771" flag="0"/>
      <psa10 value="0.0015148560" flag="0"/>
      <psa30 value="0.0001474861" flag="0"/>
    </comp>
    <comp name="--.HHN">
      <acc value="0.0053157210" flag="0"/>
      <vel value="0.0023283040" flag="0"/>
      <psa03 value="0.0109110731" flag="0"/>
      <psa10 value="0.0008231528" flag="0"/>
      <psa30 value="0.0000816148" flag="0"/>
    </comp>
    <comp name="--.HHZ">
      <acc value="0.0037698803" flag="0"/>
      <vel value="0.0020212657" flag="0"/>
      <psa03 value="0.0118225962" flag="0"/>
      <psa10 value="0.0010337107" flag="0"/>
      <psa30 value="0.0001121800" flag="0"/>
    </comp>
  </station>
</stationlist>
