<?xml version="1.0" encoding="UTF-8" standalone="yes"?>
<!DOCTYPE earthquake SYSTEM "stationlist.dtd">
<stationlist created="" xmlns="ch.ethz.sed.shakemap.usgs.xml">
  <station code="IMOD" name="IMOD" netid="HC" insttype="120" lat="34.9731" lon="24.7995">
    <comp name="--.HHN">
      <acc value="0.0154108883" flag="0"/>
      <vel value="0.0088586714" flag="0"/>
      <psa03 value="0.0793933345" flag="0"/>
      <psa10 value="0.0056737408" flag="0"/>
      <psa30 value="0.0003201507" flag="0"/>
    </comp>
    <comp name="--.HHZ">
      <acc value="0.0174289492" flag="0"/>
      <vel value="0.0052785889" flag="0"/>
      <psa03 value="0.0309417208" flag="0"/>
      <psa10 value="0.0030176143" flag="0"/>
      <psa30 value="0.0001827445" flag="0"/>
    </comp>
    <comp name="--.HHE">
      <acc value="0.0157334950" flag="0"/>
      <vel value="0.0071509926" flag="0"/>
      <psa03 value="0.0435564847" flag="0"/>
      <psa10 value="0.0040005181" flag="0"/>
      <psa30 value="0.0002434360" flag="0"/>
    </comp>
  </station>
  <station code="PFKS" name="PFKS" netid="HC" insttype="120" lat="35.0429" lon="25.4733">
    <comp name="--.HHN">
      <acc value="0.0370848432" flag="0"/>
      <vel value="0.0124026790" flag="0"/>
      <psa03 value="0.0620692392" flag="0"/>
      <psa10 value="0.0066118743" flag="0"/>
      <psa30 value="0.0002708162" flag="0"/>
    </comp>
    <comp name="--.HHZ">
      <acc value="0.0125144208" flag="0"/>
      <vel value="0.0044457436" flag="0"/>
      <psa03 value="0.0316971813" flag="0"/>
      <psa10 value="0.0027767351" flag="0"/>
      <psa30 value="0.0001765131" flag="0"/>
    </comp>
    <comp name="--.HHE">
      <acc value="0.0254557878" flag="0"/>
      <vel value="0.0133767304" flag="0"/>
      <psa03 value="0.0667675506" flag="0"/>
      <psa10 value="0.0074454493" flag="0"/>
      <psa30 value="0.0005958270" flag="0"/>
    </comp>
  </station>
  <station code="CRE1" name="CRE1" netid="HL" insttype="LE3D20_SMART24" lat="35.2267" lon="25.2497">
    <comp name="--.HHN">
      <acc value="0.0183675501" flag="0"/>
      <vel value="0.0087273282" flag="0"/>
      <psa03 value="0.0315920796" flag="0"/>
      <psa10 value="0.0043618951" flag="0"/>
      <psa30 value="0.0002378570" flag="0"/>
    </comp>
    <comp name="--.HHE">
      <acc value="0.0159521276" flag="0"/>
      <vel value="0.0053926471" flag="0"/>
      <psa03 value="0.0299889364" flag="0"/>
      <psa10 value="0.0036122106" flag="0"/>
      <psa30 value="0.0003840804" flag="0"/>
    </comp>
    <comp name="--.HHZ">
      <acc value="0.0156729461" flag="0"/>
      <vel value="0.0031620266" flag="0"/>
      <psa03 value="0.0196965403" flag="0"/>
      <psa10 value="0.0022774105" flag="0"/>
      <psa30 value="0.0001784355" flag="0"/>
    </comp>
  </station>
  <station code="CRE3" name="CRE3" netid="HL" insttype="LE3D20_SMART24" lat="35.0769" lon="25.2462">
    <comp name="--.HHE">
      <acc value="0.0328381802" flag="0"/>
      <vel value="0.0140664249" flag="0"/>
      <psa03 value="0.0662428036" flag="0"/>
      <psa10 value="0.0110878430" flag="0"/>
      <psa30 value="0.0008894611" flag="0"/>
    </comp>
    <comp name="--.HHZ">
      <acc value="0.0389823382" flag="0"/>
      <vel value="0.0123472703" flag="0"/>
      <psa03 value="0.0447975332" flag="0"/>
      <psa10 value="0.0068377398" flag="0"/>
      <psa30 value="0.0004718738" flag="0"/>
    </comp>
    <comp name="--.HHN">
      <acc value="0.0560835152" flag="0"/>
      <vel value="0.0262434283" flag="0"/>
      <psa03 value="0.0877649733" flag="0"/>
      <psa10 value="0.0151628376" flag="0"/>
      <psa30 value="0.0009229788" flag="0"/>
    </comp>
  </station>
  <station code="IDI" name="IDI" netid="HL" insttype="120" lat="35.288" lon="24.89">
    <comp name="--.HHN">
      <acc value="0.0050369089" flag="0"/>
      <vel value="0.0022716457" flag="0"/>
      <psa03 value="0.0107538163" flag="0"/>
      <psa10 value="0.0008306407" flag="0"/>
      <psa30 value="0.0000827789" flag="0"/>
    </comp>
    <comp name="--.HHZ">
      <acc value="0.0036722384" flag="0"/>
      <vel value="0.0020130762" flag="0"/>
      <psa03 value="0.0116643722" flag="0"/>
      <psa10 value="0.0010344436" flag="0"/>
      <psa30 value="0.0001132799" flag="0"/>
    </comp>
    <comp name="--.HHE">
      <acc value="0.0056597129" flag="0"/>
      <vel value="0.0020485910" flag="0"/>
      <psa03 value="0.0159685906" flag="0"/>
      <psa10 value="0.0015211674" flag="0"/>
      <psa30 value="0.0001481676" flag="0"/>
    </comp>
  </station>
  <station code="KSTE" name="KSTE" netid="HL" insttype="60" lat="35.1801" lon="25.3372">
    <comp name="--.HHZ">
      <acc value="0.0068876871" flag="0"/>
      <vel value="0.0026296217" flag="0"/>
      <psa03 value="0.0102478045" flag="0"/>
      <psa10 value="0.0010352504" flag="0"/>
      <psa30 value="0.0001525341" flag="0"/>
    </comp>
    <comp name="--.HHE">
      <acc value="0.0062264472" flag="0"/>
      <vel value="0.0023551411" flag="0"/>
      <psa03 value="0.0130347842" flag="0"/>
      <psa10 value="0.0018578280" flag="0"/>
      <psa30 value="0.0002078851" flag="0"/>
    </comp>
    <comp name="--.HHN">
      <acc value="0.0085836439" flag="0"/>
      <vel value="0.0026293752" flag="0"/>
      <psa03 value="0.0111089614" flag="0"/>
      <psa10 value="0.0031582833" flag="0"/>
      <psa30 value="0.0001768960" flag="0"/>
    </comp>
  </station>
  <station code="NPS" name="NPS" netid="HL" insttype="CMG3ESPC-120s" lat="35.2613" lon="25.6104">
    <comp name="--.HHE">
      <acc value="0.0025842111" flag="0"/>
      <vel value="0.0010678423" flag="0"/>
      <psa03 value="0.0060668035" flag="0"/>
      <psa10 value="0.0011886713" flag="0"/>
      <psa30 value="0.0000732811" flag="0"/>
    </comp>
    <comp name="--.HHZ">
      <acc value="0.0066493263" flag="0"/>
      <vel value="0.0018090808" flag="0"/>
      <psa03 value="0.0087137365" flag="0"/>
      <psa10 value="0.0016790484" flag="0"/>
      <psa30 value="0.0001267166" flag="0"/>
    </comp>
    <comp name="--.HHN">
      <acc value="0.0053794918" flag="0"/>
      <vel value="0.0021552823" flag="0"/>
      <psa03 value="0.0104332553" flag="0"/>
      <psa10 value="0.0028937390" flag="0"/>
      <psa30 value="0.0001614196" flag="0"/>
    </comp>
  </station>
  <station code="SIVA" name="SIVA" netid="HL" insttype="60" lat="35.0178" lon="24.812">
    <comp name="--.HHN">
      <acc value="0.0244946510" flag="0"/>
      <vel value="0.0108040973" flag="0"/>
      <psa03 value="0.0426418120" flag="0"/>
      <psa10 value="0.0054093500" flag="0"/>
      <psa30 value="0.0003849771" flag="0"/>
    </comp>
    <comp name="--.HHE">
      <acc value="0.0367417685" flag="0"/>
      <vel value="0.0175966603" flag="0"/>
      <psa03 value="0.1032049182" flag="0"/>
      <psa10 value="0.0086945968" flag="0"/>
      <psa30 value="0.0005576392" flag="0"/>
    </comp>
    <comp name="--.HHZ">
      <acc value="0.0176721566" flag="0"/>
      <vel value="0.0065056396" flag="0"/>
      <psa03 value="0.0348179249" flag="0"/>
      <psa10 value="0.0032024235" flag="0"/>
      <psa30 value="0.0002934249" flag="0"/>
    </comp>
  </station>
  <station code="IDI" name="IDI" netid="MN" insttype="" lat="35.288" lon="24.89">
    <comp name="--.HHN">
      <acc value="0.0053162460" flag="0"/>
      <vel value="0.0023297336" flag="0"/>
      <psa03 value="0.0109115006" flag="0"/>
      <psa10 value="0.0008234225" flag="0"/>
      <psa30 value="0.0000821100" flag="0"/>
    </comp>
    <comp name="--.HHE">
      <acc value="0.0057463441" flag="0"/>
      <vel value="0.0020431109" flag="0"/>
      <psa03 value="0.0161627439" flag="0"/>
      <psa10 value="0.0015150695" flag="0"/>
      <psa30 value="0.0001471852" flag="0"/>
    </comp>
    <comp name="--.HHZ">
      <acc value="0.0037698482" flag="0"/>
      <vel value="0.0020209019" flag="0"/>
      <psa03 value="0.0118228616" flag="0"/>
      <psa10 value="0.0010337208" flag="0"/>
      <psa30 value="0.0001127308" flag="0"/>
    </comp>
  </station>
</stationlist>
