<?xml version="1.0" encoding="UTF-8" standalone="yes"?>
<!DOCTYPE earthquake SYSTEM "stationlist.dtd">
<stationlist created="" xmlns="ch.ethz.sed.shakemap.usgs.xml">
  <station code="ATHR" name="ATHR" netid="HA" insttype="GEOtiny," commtype="DIG" lat="38.3172" lon="20.4165">
    <comp name="--.HHE">
      <acc value="0.4516825768" flag="0"/>
      <vel value="0.1339776501" flag="0"/>
      <psa03 value="0.2410272230" flag="0"/>
      <psa10 value="0.0569368229" flag="0"/>
      <psa30 value="0.0052497489" flag="0"/>
    </comp>
    <comp name="--.HHZ">
      <acc value="0.3881719472" flag="0"/>
      <vel value="0.0551869178" flag="0"/>
      <psa03 value="0.1490731029" flag="0"/>
      <psa10 value="0.0270547287" flag="0"/>
      <psa30 value="0.0019059849" flag="0"/>
    </comp>
    <comp name="--.HHN">
      <acc value="0.2385272228" flag="0"/>
      <vel value="0.0469760962" flag="0"/>
      <psa03 value="0.2499158628" flag="0"/>
      <psa10 value="0.0234710622" flag="0"/>
      <psa30 value="0.0016386020" flag="0"/>
    </comp>
  </station>
  <station code="HAVD" name="HAVD" netid="HA" insttype="GEOtiny," commtype="DIG" lat="38.2036" lon="20.3848">
    <comp name="--.HHE">
      <acc value="1.1383307521" flag="0"/>
      <vel value="0.2120670690" flag="0"/>
      <psa03 value="0.7779644757" flag="0"/>
      <psa10 value="0.0497372841" flag="0"/>
      <psa30 value="0.0062701706" flag="0"/>
    </comp>
    <comp name="--.HHN">
      <acc value="1.9461939049" flag="0"/>
      <vel value="0.2993955620" flag="0"/>
      <psa03 value="1.2833397979" flag="0"/>
      <psa10 value="0.0906790200" flag="0"/>
      <psa30 value="0.0106275291" flag="0"/>
    </comp>
    <comp name="--.HHZ">
      <acc value="1.9030372138" flag="0"/>
      <vel value="0.2737450184" flag="0"/>
      <psa03 value="0.5935439898" flag="0"/>
      <psa10 value="0.0247845315" flag="0"/>
      <psa30 value="0.0025383941" flag="0"/>
    </comp>
  </station>
  <station code="AGR3" name="AGR3" netid="HI" insttype="unknown" commtype="DIG" lat="38.5893" lon="21.4162">
    <comp name="--.HNE">
      <acc value="0.0535273215" flag="0"/>
      <vel value="0.0232509006" flag="0"/>
      <psa03 value="0.1618216672" flag="0"/>
      <psa10 value="0.0281346754" flag="0"/>
      <psa30 value="0.0017624816" flag="0"/>
    </comp>
    <comp name="--.HNZ">
      <acc value="0.0268242518" flag="0"/>
      <vel value="0.0124270214" flag="0"/>
      <psa03 value="0.0745205369" flag="0"/>
      <psa10 value="0.0154205285" flag="0"/>
      <psa30 value="0.0007637269" flag="0"/>
    </comp>
    <comp name="--.HNN">
      <acc value="0.0476260316" flag="0"/>
      <vel value="0.0301382677" flag="0"/>
      <psa03 value="0.1212291267" flag="0"/>
      <psa10 value="0.0240853963" flag="0"/>
      <psa30 value="0.0015026580" flag="0"/>
    </comp>
  </station>
  <station code="ARG2" name="ARG2" netid="HI" insttype="CMG-5TD,ACCELEROMETER,GURALP" commtype="DIG" lat="38.1783" lon="20.4878">
    <comp name="--.HNN">
      <acc value="1.6705011815" flag="0"/>
      <vel value="0.3598969217" flag="0"/>
      <psa03 value="1.4668715399" flag="0"/>
      <psa10 value="0.1025325956" flag="0"/>
      <psa30 value="0.0096004270" flag="0"/>
    </comp>
    <comp name="--.HNZ">
      <acc value="1.3679812203" flag="0"/>
      <vel value="0.1621542470" flag="0"/>
      <psa03 value="0.6320180407" flag="0"/>
      <psa10 value="0.0352955893" flag="0"/>
      <psa30 value="0.0037225434" flag="0"/>
    </comp>
    <comp name="--.HNE">
      <acc value="2.6274022641" flag="0"/>
      <vel value="0.6093000443" flag="0"/>
      <psa03 value="1.5835061864" flag="0"/>
      <psa10 value="0.0852733938" flag="0"/>
      <psa30 value="0.0099997278" flag="0"/>
    </comp>
  </station>
  <station code="KAC1" name="KAC1" netid="HI" insttype="unknown" commtype="DIG" lat="38.1434" lon="21.5497">
    <comp name="--.HNE">
      <acc value="0.0354144008" flag="0"/>
      <vel value="0.0192631624" flag="0"/>
      <psa03 value="0.1410613869" flag="0"/>
      <psa10 value="0.0192765921" flag="0"/>
      <psa30 value="0.0014242641" flag="0"/>
    </comp>
    <comp name="--.HNN">
      <acc value="0.0320147933" flag="0"/>
      <vel value="0.0162655245" flag="0"/>
      <psa03 value="0.1132153558" flag="0"/>
      <psa10 value="0.0209819914" flag="0"/>
      <psa30 value="0.0016534800" flag="0"/>
    </comp>
    <comp name="--.HNZ">
      <acc value="0.0167808925" flag="0"/>
      <vel value="0.0087307069" flag="0"/>
      <psa03 value="0.0528930521" flag="0"/>
      <psa10 value="0.0071457077" flag="0"/>
      <psa30 value="0.0010423421" flag="0"/>
    </comp>
  </station>
  <station code="LEF2" name="LEF2" netid="HI" insttype="unknown" commtype="DIG" lat="38.8301" lon="20.7083">
    <comp name="--.HNE">
      <acc value="0.0647446406" flag="0"/>
      <vel value="0.0325471262" flag="0"/>
      <psa03 value="0.1690846204" flag="0"/>
      <psa10 value="0.0243123470" flag="0"/>
      <psa30 value="0.0028252719" flag="0"/>
    </comp>
    <comp name="--.HNN">
      <acc value="0.0507202028" flag="0"/>
      <vel value="0.0265413742" flag="0"/>
      <psa03 value="0.1714298846" flag="0"/>
      <psa10 value="0.0277568512" flag="0"/>
      <psa30 value="0.0018198621" flag="0"/>
    </comp>
    <comp name="--.HNZ">
      <acc value="0.0373801441" flag="0"/>
      <vel value="0.0177511492" flag="0"/>
      <psa03 value="0.1071450342" flag="0"/>
      <psa10 value="0.0214904111" flag="0"/>
      <psa30 value="0.0009229226" flag="0"/>
    </comp>
  </station>
  <station code="LXR2" name="LXR2" netid="HI" insttype="unknown" commtype="DIG" lat="38.2067" lon="20.4364">
    <comp name="--.HNE">
      <acc value="2.6384864193" flag="0"/>
      <vel value="0.2864588305" flag="0"/>
      <psa03 value="0.8379457155" flag="0"/>
      <psa10 value="0.0760855010" flag="0"/>
      <psa30 value="0.0060655576" flag="0"/>
    </comp>
    <comp name="--.HNN">
      <acc value="4.2254452612" flag="0"/>
      <vel value="0.6871752297" flag="0"/>
      <psa03 value="1.2054386247" flag="0"/>
      <psa10 value="0.1974973391" flag="0"/>
      <psa30 value="0.0153318668" flag="0"/>
    </comp>
    <comp name="--.HNZ">
      <acc value="2.5480967064" flag="0"/>
      <vel value="0.2330990989" flag="0"/>
      <psa03 value="0.5142810674" flag="0"/>
      <psa10 value="0.0403999724" flag="0"/>
      <psa30 value="0.0030505346" flag="0"/>
    </comp>
  </station>
  <station code="MSL1" name="MSL1" netid="HI" insttype="CMG-5TD,ACCELEROMETER,GURALP" commtype="DIG" lat="38.3727" lon="21.4243">
    <comp name="--.HNE">
      <acc value="0.0532689028" flag="0"/>
      <vel value="0.0273118373" flag="0"/>
      <psa03 value="0.1857084235" flag="0"/>
      <psa10 value="0.0401595674" flag="0"/>
      <psa30 value="0.0015754918" flag="0"/>
    </comp>
    <comp name="--.HNN">
      <acc value="0.0729386147" flag="0"/>
      <vel value="0.0341886611" flag="0"/>
      <psa03 value="0.2026920299" flag="0"/>
      <psa10 value="0.0456520734" flag="0"/>
      <psa30 value="0.0036672731" flag="0"/>
    </comp>
    <comp name="--.HNZ">
      <acc value="0.0244371455" flag="0"/>
      <vel value="0.0156045116" flag="0"/>
      <psa03 value="0.0524244293" flag="0"/>
      <psa10 value="0.0187866627" flag="0"/>
      <psa30 value="0.0008997000" flag="0"/>
    </comp>
  </station>
  <station code="VAS2" name="VAS2" netid="HI" insttype="CMG-5TD,ACCELEROMETER,GURALP" commtype="DIG" lat="38.6306" lon="20.6081">
    <comp name="--.HNZ">
      <acc value="0.1335996734" flag="0"/>
      <vel value="0.0604009365" flag="0"/>
      <psa03 value="0.3154537348" flag="0"/>
      <psa10 value="0.0544767442" flag="0"/>
      <psa30 value="0.0023419388" flag="0"/>
    </comp>
    <comp name="--.HNN">
      <acc value="0.2322023782" flag="0"/>
      <vel value="0.1212228851" flag="0"/>
      <psa03 value="0.6417424150" flag="0"/>
      <psa10 value="0.0888956342" flag="0"/>
      <psa30 value="0.0043558142" flag="0"/>
    </comp>
    <comp name="--.HNE">
      <acc value="0.1808524512" flag="0"/>
      <vel value="0.1193123525" flag="0"/>
      <psa03 value="0.3606973955" flag="0"/>
      <psa10 value="0.1371544180" flag="0"/>
      <psa30 value="0.0074429525" flag="0"/>
    </comp>
  </station>
  <station code="VSK1" name="VSK1" netid="HI" insttype="unknown" commtype="DIG" lat="38.4091" lon="20.564">
    <comp name="--.HNE">
      <acc value="0.7693208449" flag="0"/>
      <vel value="0.1385964388" flag="0"/>
      <psa03 value="0.5472349742" flag="0"/>
      <psa10 value="0.1073159401" flag="0"/>
      <psa30 value="0.0085146277" flag="0"/>
    </comp>
    <comp name="--.HNN">
      <acc value="0.6023624335" flag="0"/>
      <vel value="0.1491730398" flag="0"/>
      <psa03 value="0.8759492662" flag="0"/>
      <psa10 value="0.0652918604" flag="0"/>
      <psa30 value="0.0051763353" flag="0"/>
    </comp>
    <comp name="--.HNZ">
      <acc value="0.3536610091" flag="0"/>
      <vel value="0.0987476881" flag="0"/>
      <psa03 value="0.7223002903" flag="0"/>
      <psa10 value="0.0425365613" flag="0"/>
      <psa30 value="0.0033142694" flag="0"/>
    </comp>
  </station>
  <station code="ZAK2" name="ZAK2" netid="HI" insttype="unknown" commtype="DIG" lat="37.7875" lon="20.9">
    <comp name="--.HNE">
      <acc value="0.1007534385" flag="0"/>
      <vel value="0.0447646860" flag="0"/>
      <psa03 value="0.2533132910" flag="0"/>
      <psa10 value="0.0438204197" flag="0"/>
      <psa30 value="0.0029450012" flag="0"/>
    </comp>
    <comp name="--.HNN">
      <acc value="0.0863261487" flag="0"/>
      <vel value="0.0449120744" flag="0"/>
      <psa03 value="0.2550525160" flag="0"/>
      <psa10 value="0.0394747181" flag="0"/>
      <psa30 value="0.0032577381" flag="0"/>
    </comp>
    <comp name="--.HNZ">
      <acc value="0.0574356722" flag="0"/>
      <vel value="0.0217526024" flag="0"/>
      <psa03 value="0.1394770133" flag="0"/>
      <psa10 value="0.0234351897" flag="0"/>
      <psa30 value="0.0017667579" flag="0"/>
    </comp>
  </station>
  <station code="LXRA" name="LXRA" netid="HL" insttype="CMG-5" commtype="DIG" lat="38.2001" lon="20.4372">
    <comp name="00.HNZ">
      <acc value="3.9352184223" flag="0"/>
      <vel value="0.3089108015" flag="0"/>
      <psa03 value="0.6027850129" flag="0"/>
      <psa10 value="0.0406593761" flag="0"/>
      <psa30 value="0.0031804266" flag="0"/>
    </comp>
    <comp name="00.HNE">
      <acc value="2.5631508432" flag="0"/>
      <vel value="0.3792383508" flag="0"/>
      <psa03 value="1.5068934540" flag="0"/>
      <psa10 value="0.0580684906" flag="0"/>
      <psa30 value="0.0059184059" flag="0"/>
    </comp>
    <comp name="00.HNN">
      <acc value="4.6469656796" flag="0"/>
      <vel value="0.5735394955" flag="0"/>
      <psa03 value="1.7263633853" flag="0"/>
      <psa10 value="0.1630252176" flag="0"/>
      <psa30 value="0.0194582630" flag="0"/>
    </comp>
  </station>
  <station code="ORTH" name="ORTH" netid="HL" insttype="30" commtype="DIG" lat="37.8511" lon="20.6963">
    <comp name="--.HHE">
      <acc value="0.1646816555" flag="0"/>
      <vel value="0.0485423062" flag="0"/>
      <psa03 value="0.2015785969" flag="0"/>
      <psa10 value="0.0260036013" flag="0"/>
      <psa30 value="0.0019508453" flag="0"/>
    </comp>
    <comp name="--.HHN">
      <acc value="0.1653589733" flag="0"/>
      <vel value="0.0439547042" flag="0"/>
      <psa03 value="0.1974676684" flag="0"/>
      <psa10 value="0.0230957931" flag="0"/>
      <psa30 value="0.0020139058" flag="0"/>
    </comp>
    <comp name="--.HHZ">
      <acc value="0.0944953396" flag="0"/>
      <vel value="0.0218198968" flag="0"/>
      <psa03 value="0.1138940999" flag="0"/>
      <psa10 value="0.0126403285" flag="0"/>
      <psa30 value="0.0008112779" flag="0"/>
    </comp>
  </station>
  <station code="RLS" name="RLS" netid="HL" insttype="CMG3ESPC-120s" commtype="DIG" lat="38.0559" lon="21.4647">
    <comp name="--.HHE">
      <acc value="0.0106862630" flag="0"/>
      <vel value="0.0045611503" flag="0"/>
      <psa03 value="0.0281416877" flag="0"/>
      <psa10 value="0.0055124767" flag="0"/>
      <psa30 value="0.0003761455" flag="0"/>
    </comp>
    <comp name="--.HHN">
      <acc value="0.0137665463" flag="0"/>
      <vel value="0.0047542441" flag="0"/>
      <psa03 value="0.0372586285" flag="0"/>
      <psa10 value="0.0043286905" flag="0"/>
      <psa30 value="0.0003944025" flag="0"/>
    </comp>
    <comp name="--.HHZ">
      <acc value="0.0075875083" flag="0"/>
      <vel value="0.0021580052" flag="0"/>
      <psa03 value="0.0182882563" flag="0"/>
      <psa10 value="0.0023136730" flag="0"/>
      <psa30 value="0.0001908473" flag="0"/>
    </comp>
  </station>
  <station code="AMPL" name="AMPL" netid="HP" insttype="Compact," commtype="DIG" lat="38.9224" lon="21.2135">
    <comp name="--.HHN">
      <acc value="0.0146636880" flag="0"/>
      <vel value="0.0046088041" flag="0"/>
      <psa03 value="0.0210929065" flag="0"/>
      <psa10 value="0.0035550724" flag="0"/>
      <psa30 value="0.0002511980" flag="0"/>
    </comp>
    <comp name="--.HHE">
      <acc value="0.0140374897" flag="0"/>
      <vel value="0.0054655990" flag="0"/>
      <psa03 value="0.0427903909" flag="0"/>
      <psa10 value="0.0033755499" flag="0"/>
      <psa30 value="0.0002280090" flag="0"/>
    </comp>
    <comp name="--.HHZ">
      <acc value="0.0078723410" flag="0"/>
      <vel value="0.0032315732" flag="0"/>
      <psa03 value="0.0226318062" flag="0"/>
      <psa10 value="0.0031933248" flag="0"/>
      <psa30 value="0.0002224470" flag="0"/>
    </comp>
  </station>
  <station code="AXS" name="AXS" netid="HP" insttype="Compact," commtype="DIG" lat="38.1962" lon="21.3763">
    <comp name="--.HHN">
      <acc value="0.0162528763" flag="0"/>
      <vel value="0.0086221390" flag="0"/>
      <psa03 value="0.0315117576" flag="0"/>
      <psa10 value="0.0068212192" flag="0"/>
      <psa30 value="0.0007688796" flag="0"/>
    </comp>
    <comp name="--.HHE">
      <acc value="0.0106547114" flag="0"/>
      <vel value="0.0032936564" flag="0"/>
      <psa03 value="0.0202741359" flag="0"/>
      <psa10 value="0.0031447163" flag="0"/>
      <psa30 value="0.0002440553" flag="0"/>
    </comp>
    <comp name="--.HHZ">
      <acc value="0.0085042913" flag="0"/>
      <vel value="0.0024327515" flag="0"/>
      <psa03 value="0.0158180937" flag="0"/>
      <psa10 value="0.0017404985" flag="0"/>
      <psa30 value="0.0002239987" flag="0"/>
    </comp>
  </station>
  <station code="FSK" name="FSK" netid="HP" insttype="40," commtype="DIG" lat="38.4593" lon="20.5623">
    <comp name="--.HHE">
      <acc value="0.8404143338" flag="0"/>
      <vel value="0.1807014582" flag="0"/>
      <psa03 value="0.4438010344" flag="0"/>
      <psa10 value="0.0633181119" flag="0"/>
      <psa30 value="0.0048791412" flag="0"/>
    </comp>
    <comp name="--.HHZ">
      <acc value="0.4662263090" flag="0"/>
      <vel value="0.0884469734" flag="0"/>
      <psa03 value="0.2919072393" flag="0"/>
      <psa10 value="0.0229188347" flag="0"/>
      <psa30 value="0.0020259175" flag="0"/>
    </comp>
    <comp name="--.HHN">
      <acc value="0.5229727130" flag="0"/>
      <vel value="0.0965330534" flag="0"/>
      <psa03 value="0.2588857905" flag="0"/>
      <psa10 value="0.0504430846" flag="0"/>
      <psa30 value="0.0039745783" flag="0"/>
    </comp>
  </station>
  <station code="LTHK" name="LTHK" netid="HP" insttype="40," commtype="DIG" lat="37.7095" lon="20.8367">
    <comp name="--.HHE">
      <acc value="0.0955776136" flag="0"/>
      <vel value="0.0240982642" flag="0"/>
      <psa03 value="0.1005199260" flag="0"/>
      <psa10 value="0.0156799539" flag="0"/>
      <psa30 value="0.0011954964" flag="0"/>
    </comp>
    <comp name="--.HHZ">
      <acc value="0.0466362205" flag="0"/>
      <vel value="0.0107719485" flag="0"/>
      <psa03 value="0.0554800025" flag="0"/>
      <psa10 value="0.0070244513" flag="0"/>
      <psa30 value="0.0003722681" flag="0"/>
    </comp>
    <comp name="--.HHN">
      <acc value="0.0801205246" flag="0"/>
      <vel value="0.0209635739" flag="0"/>
      <psa03 value="0.1425961549" flag="0"/>
      <psa10 value="0.0175605809" flag="0"/>
      <psa30 value="0.0006995111" flag="0"/>
    </comp>
  </station>
  <station code="PDO" name="PDO" netid="HP" insttype="120s" commtype="DIG" lat="38.5986" lon="21.1833">
    <comp name="--.HHZ">
      <acc value="0.0244862947" flag="0"/>
      <vel value="0.0090176162" flag="0"/>
      <psa03 value="0.0598705232" flag="0"/>
      <psa10 value="0.0037095684" flag="0"/>
      <psa30 value="0.0003892954" flag="0"/>
    </comp>
    <comp name="--.HHN">
      <acc value="0.0491193746" flag="0"/>
      <vel value="0.0230648099" flag="0"/>
      <psa03 value="0.1272468995" flag="0"/>
      <psa10 value="0.0079295511" flag="0"/>
      <psa30 value="0.0006803296" flag="0"/>
    </comp>
    <comp name="--.HHE">
      <acc value="0.0432473018" flag="0"/>
      <vel value="0.0154331942" flag="0"/>
      <psa03 value="0.0874629911" flag="0"/>
      <psa10 value="0.0070003615" flag="0"/>
      <psa30 value="0.0005787391" flag="0"/>
    </comp>
  </station>
  <station code="PLEV" name="PLEV" netid="HP" insttype="Compact," commtype="DIG" lat="38.4124" lon="21.4073">
    <comp name="--.HHE">
      <acc value="0.0315098300" flag="0"/>
      <vel value="0.0130461852" flag="0"/>
      <psa03 value="0.0835479118" flag="0"/>
      <psa10 value="0.0049942963" flag="0"/>
      <psa30 value="0.0004945962" flag="0"/>
    </comp>
    <comp name="--.HHN">
      <acc value="0.0237992689" flag="0"/>
      <vel value="0.0135974893" flag="0"/>
      <psa03 value="0.0996199945" flag="0"/>
      <psa10 value="0.0099285457" flag="0"/>
      <psa30 value="0.0010865693" flag="0"/>
    </comp>
    <comp name="--.HHZ">
      <acc value="0.0096330867" flag="0"/>
      <vel value="0.0043024693" flag="0"/>
      <psa03 value="0.0239697486" flag="0"/>
      <psa10 value="0.0046939160" flag="0"/>
      <psa30 value="0.0002585349" flag="0"/>
    </comp>
  </station>
  <station code="PVO" name="PVO" netid="HP" insttype="120P," commtype="DIG" lat="38.616" lon="21.525">
    <comp name="--.HHN">
      <acc value="0.0273215732" flag="0"/>
      <vel value="0.0140397272" flag="0"/>
      <psa03 value="0.0648875020" flag="0"/>
      <psa10 value="0.0116633583" flag="0"/>
      <psa30 value="0.0008754586" flag="0"/>
    </comp>
    <comp name="--.HHE">
      <acc value="0.0326269097" flag="0"/>
      <vel value="0.0139257373" flag="0"/>
      <psa03 value="0.0902435690" flag="0"/>
      <psa10 value="0.0065920548" flag="0"/>
      <psa30 value="0.0007735672" flag="0"/>
    </comp>
    <comp name="--.HHZ">
      <acc value="0.0252805317" flag="0"/>
      <vel value="0.0070654270" flag="0"/>
      <psa03 value="0.0385054171" flag="0"/>
      <psa10 value="0.0059242352" flag="0"/>
      <psa30 value="0.0003425306" flag="0"/>
    </comp>
  </station>
  <station code="DMLN" name="DMLN" netid="HT" insttype="1s-100Hz," commtype="DIG" lat="38.2385" lon="20.3734">
    <comp name="--.HHE">
      <acc value="2.2112363448" flag="0"/>
      <vel value="0.3972804665" flag="0"/>
      <psa03 value="0.8079317002" flag="0"/>
      <psa10 value="0.0965545328" flag="0"/>
      <psa30 value="0.0101704943" flag="0"/>
    </comp>
    <comp name="--.HHN">
      <acc value="2.1012988584" flag="0"/>
      <vel value="0.3419102730" flag="0"/>
      <psa03 value="0.7778288266" flag="0"/>
      <psa10 value="0.0949228870" flag="0"/>
      <psa30 value="0.0092246190" flag="0"/>
    </comp>
    <comp name="--.HHZ">
      <acc value="1.6454100435" flag="0"/>
      <vel value="0.2743228091" flag="0"/>
      <psa03 value="0.3963810559" flag="0"/>
      <psa10 value="0.0311932360" flag="0"/>
      <psa30 value="0.0026000054" flag="0"/>
    </comp>
  </station>
