<?xml version="1.0" encoding="UTF-8" standalone="yes"?>
<!DOCTYPE earthquake SYSTEM "stationlist.dtd">
<stationlist created="" xmlns="ch.ethz.sed.shakemap.usgs.xml">
  <station code="AGRP" name="AGRP" netid="CL" insttype="CMG40-T" commtype="DIG" lat="38.3959" lon="21.7228">
    <comp name="00.HHZ">
      <acc value="0.0060616606" flag="0"/>
      <vel value="0.0031780250" flag="0"/>
      <psa03 value="0.0198651239" flag="0"/>
      <psa10 value="0.0037293357" flag="0"/>
      <psa30 value="0.0002791401" flag="0"/>
    </comp>
    <comp name="00.HHE">
      <acc value="0.0086269346" flag="0"/>
      <vel value="0.0057510887" flag="0"/>
      <psa03 value="0.0269560952" flag="0"/>
      <psa10 value="0.0058417513" flag="0"/>
      <psa30 value="0.0004045836" flag="0"/>
    </comp>
    <comp name="00.HHN">
      <acc value="0.0092692457" flag="0"/>
      <vel value="0.0075493329" flag="0"/>
      <psa03 value="0.0266624919" flag="0"/>
      <psa10 value="0.0104405200" flag="0"/>
      <psa30 value="0.0004833208" flag="0"/>
    </comp>
  </station>
</stationlist>
