<?xml version="1.0" encoding="UTF-8" standalone="yes"?>
<!DOCTYPE earthquake SYSTEM "stationlist.dtd">
<stationlist created="" xmlns="ch.ethz.sed.shakemap.usgs.xml">
  <station code="RP05B" name="RP05B" netid="5B" insttype="Compact" commtype="DIG" lat="37.6182" lon="21.6541">
    <comp name="--.HHE">
      <acc value="0.0262425736" flag="0"/>
      <vel value="0.0124768124" flag="0"/>
      <psa03 value="0.0885570607" flag="0"/>
      <psa10 value="0.0129079617" flag="0"/>
      <psa30 value="0.0009313525" flag="0"/>
    </comp>
    <comp name="--.HHN">
      <acc value="0.0220184010" flag="0"/>
      <vel value="0.0101262578" flag="0"/>
      <psa03 value="0.0703335379" flag="0"/>
      <psa10 value="0.0157995861" flag="0"/>
      <psa30 value="0.0007441338" flag="0"/>
    </comp>
    <comp name="--.HHZ">
      <acc value="0.0130218941" flag="0"/>
      <vel value="0.0074298262" flag="0"/>
      <psa03 value="0.0382126112" flag="0"/>
      <psa10 value="0.0100176764" flag="0"/>
      <psa30 value="0.0006220598" flag="0"/>
    </comp>
  </station>
  <station code="AGRP" name="AGRP" netid="CL" insttype="CMG40-T" commtype="DIG" lat="38.3959" lon="21.7228">
    <comp name="00.HHZ">
      <acc value="0.0060616606" flag="0"/>
      <vel value="0.0031780250" flag="0"/>
      <psa03 value="0.0198651239" flag="0"/>
      <psa10 value="0.0037293357" flag="0"/>
      <psa30 value="0.0002791401" flag="0"/>
    </comp>
    <comp name="00.HHE">
      <acc value="0.0086269346" flag="0"/>
      <vel value="0.0057510887" flag="0"/>
      <psa03 value="0.0269560952" flag="0"/>
      <psa10 value="0.0058417513" flag="0"/>
      <psa30 value="0.0004045836" flag="0"/>
    </comp>
    <comp name="00.HHN">
      <acc value="0.0092692457" flag="0"/>
      <vel value="0.0075493329" flag="0"/>
      <psa03 value="0.0266624919" flag="0"/>
      <psa10 value="0.0104405200" flag="0"/>
      <psa30 value="0.0004833208" flag="0"/>
    </comp>
  </station>
  <station code="ATHR" name="ATHR" netid="HA" insttype="GEOtiny," commtype="DIG" lat="38.3172" lon="20.4165">
    <comp name="--.HHE">
      <acc value="0.4516825745" flag="0"/>
      <vel value="0.1339772371" flag="0"/>
      <psa03 value="0.2410272231" flag="0"/>
      <psa10 value="0.0569368230" flag="0"/>
      <psa30 value="0.0052497610" flag="0"/>
    </comp>
    <comp name="--.HHN">
      <acc value="0.2385272268" flag="0"/>
      <vel value="0.0469761391" flag="0"/>
      <psa03 value="0.2499158626" flag="0"/>
      <psa10 value="0.0234710609" flag="0"/>
      <psa30 value="0.0016386208" flag="0"/>
    </comp>
    <comp name="--.HHZ">
      <acc value="0.3881719533" flag="0"/>
      <vel value="0.0551868982" flag="0"/>
      <psa03 value="0.1490731029" flag="0"/>
      <psa10 value="0.0270547290" flag="0"/>
      <psa30 value="0.0019060028" flag="0"/>
    </comp>
  </station>
  <station code="HAVD" name="HAVD" netid="HA" insttype="GEOtiny," commtype="DIG" lat="38.2036" lon="20.3848">
    <comp name="--.HHN">
      <acc value="1.9461939015" flag="0"/>
      <vel value="0.2993945803" flag="0"/>
      <psa03 value="1.2833397986" flag="0"/>
      <psa10 value="0.0906790229" flag="0"/>
      <psa30 value="0.0106275578" flag="0"/>
    </comp>
    <comp name="--.HHZ">
      <acc value="1.9030372108" flag="0"/>
      <vel value="0.2737449040" flag="0"/>
      <psa03 value="0.5935439899" flag="0"/>
      <psa10 value="0.0247845333" flag="0"/>
      <psa30 value="0.0025383665" flag="0"/>
    </comp>
    <comp name="--.HHE">
      <acc value="1.1383307516" flag="0"/>
      <vel value="0.2120673217" flag="0"/>
      <psa03 value="0.7779644759" flag="0"/>
      <psa10 value="0.0497372829" flag="0"/>
      <psa30 value="0.0062702027" flag="0"/>
    </comp>
  </station>
  <station code="AGR3" name="AGR3" netid="HI" insttype="unknown" commtype="DIG" lat="38.5893" lon="21.4162">
    <comp name="--.HNE">
      <acc value="0.0535273167" flag="0"/>
      <vel value="0.0232508999" flag="0"/>
      <psa03 value="0.1618216672" flag="0"/>
      <psa10 value="0.0281346754" flag="0"/>
      <psa30 value="0.0017624906" flag="0"/>
    </comp>
    <comp name="--.HNN">
      <acc value="0.0476260296" flag="0"/>
      <vel value="0.0301382677" flag="0"/>
      <psa03 value="0.1212291267" flag="0"/>
      <psa10 value="0.0240853963" flag="0"/>
      <psa30 value="0.0015026774" flag="0"/>
    </comp>
    <comp name="--.HNZ">
      <acc value="0.0268242396" flag="0"/>
      <vel value="0.0124270212" flag="0"/>
      <psa03 value="0.0745205369" flag="0"/>
      <psa10 value="0.0154205285" flag="0"/>
      <psa30 value="0.0007637279" flag="0"/>
    </comp>
  </station>
  <station code="AOL1" name="AOL1" netid="HI" insttype="unknown" commtype="DIG" lat="37.6424" lon="21.6246">
    <comp name="--.HNE">
      <acc value="0.0099537995" flag="0"/>
      <vel value="0.0071030927" flag="0"/>
      <psa03 value="0.0330208588" flag="0"/>
      <psa10 value="0.0090283506" flag="0"/>
      <psa30 value="0.0007739939" flag="0"/>
    </comp>
    <comp name="--.HNN">
      <acc value="0.0092019398" flag="0"/>
      <vel value="0.0068821284" flag="0"/>
      <psa03 value="0.0276928959" flag="0"/>
      <psa10 value="0.0119347488" flag="0"/>
      <psa30 value="0.0007887597" flag="0"/>
    </comp>
    <comp name="--.HNZ">
      <acc value="0.0070442684" flag="0"/>
      <vel value="0.0039150331" flag="0"/>
      <psa03 value="0.0185739437" flag="0"/>
      <psa10 value="0.0054695209" flag="0"/>
      <psa30 value="0.0002557723" flag="0"/>
    </comp>
  </station>
  <station code="ARG2" name="ARG2" netid="HI" insttype="CMG-5TD,ACCELEROMETER,GURALP" commtype="DIG" lat="38.1783" lon="20.4878">
    <comp name="--.HNE">
      <acc value="2.6274022774" flag="0"/>
      <vel value="0.6093000443" flag="0"/>
      <psa03 value="1.5835061864" flag="0"/>
      <psa10 value="0.0852734021" flag="0"/>
      <psa30 value="0.0100001443" flag="0"/>
    </comp>
    <comp name="--.HNN">
      <acc value="1.6705011697" flag="0"/>
      <vel value="0.3598969224" flag="0"/>
      <psa03 value="1.4668715399" flag="0"/>
      <psa10 value="0.1025325850" flag="0"/>
      <psa30 value="0.0096010035" flag="0"/>
    </comp>
    <comp name="--.HNZ">
      <acc value="1.3679812151" flag="0"/>
      <vel value="0.1621542471" flag="0"/>
      <psa03 value="0.6320180407" flag="0"/>
      <psa10 value="0.0352955877" flag="0"/>
      <psa30 value="0.0037225272" flag="0"/>
    </comp>
  </station>
  <station code="KAC1" name="KAC1" netid="HI" insttype="unknown" commtype="DIG" lat="38.1434" lon="21.5497">
    <comp name="--.HNE">
      <acc value="0.0354144125" flag="0"/>
      <vel value="0.0192631632" flag="0"/>
      <psa03 value="0.1410613869" flag="0"/>
      <psa10 value="0.0192765920" flag="0"/>
      <psa30 value="0.0014242750" flag="0"/>
    </comp>
    <comp name="--.HNN">
      <acc value="0.0320147998" flag="0"/>
      <vel value="0.0162655251" flag="0"/>
      <psa03 value="0.1132153558" flag="0"/>
      <psa10 value="0.0209819913" flag="0"/>
      <psa30 value="0.0016534914" flag="0"/>
    </comp>
    <comp name="--.HNZ">
      <acc value="0.0167808780" flag="0"/>
      <vel value="0.0087307072" flag="0"/>
      <psa03 value="0.0528930521" flag="0"/>
      <psa10 value="0.0071457077" flag="0"/>
      <psa30 value="0.0010423157" flag="0"/>
    </comp>
  </station>
  <station code="LEF2" name="LEF2" netid="HI" insttype="unknown" commtype="DIG" lat="38.8301" lon="20.7083">
    <comp name="--.HNE">
      <acc value="0.0647446403" flag="0"/>
      <vel value="0.0325471256" flag="0"/>
      <psa03 value="0.1690846204" flag="0"/>
      <psa10 value="0.0243123470" flag="0"/>
      <psa30 value="0.0028252716" flag="0"/>
    </comp>
    <comp name="--.HNN">
      <acc value="0.0507201873" flag="0"/>
      <vel value="0.0265413741" flag="0"/>
      <psa03 value="0.1714298846" flag="0"/>
      <psa10 value="0.0277568513" flag="0"/>
      <psa30 value="0.0018198957" flag="0"/>
    </comp>
    <comp name="--.HNZ">
      <acc value="0.0373801461" flag="0"/>
      <vel value="0.0177511494" flag="0"/>
      <psa03 value="0.1071450342" flag="0"/>
      <psa10 value="0.0214904112" flag="0"/>
      <psa30 value="0.0009229092" flag="0"/>
    </comp>
  </station>
  <station code="LXR2" name="LXR2" netid="HI" insttype="unknown" commtype="DIG" lat="38.2067" lon="20.4364">
    <comp name="--.HNE">
      <acc value="2.6384864275" flag="0"/>
      <vel value="0.2864588309" flag="0"/>
      <psa03 value="0.8379457155" flag="0"/>
      <psa10 value="0.0760855014" flag="0"/>
      <psa30 value="0.0060656157" flag="0"/>
    </comp>
    <comp name="--.HNN">
      <acc value="4.2254452665" flag="0"/>
      <vel value="0.6871752293" flag="0"/>
      <psa03 value="1.2054386247" flag="0"/>
      <psa10 value="0.1974973387" flag="0"/>
      <psa30 value="0.0153318955" flag="0"/>
    </comp>
    <comp name="--.HNZ">
      <acc value="2.5480966991" flag="0"/>
      <vel value="0.2330990989" flag="0"/>
      <psa03 value="0.5142810674" flag="0"/>
      <psa10 value="0.0403999710" flag="0"/>
      <psa30 value="0.0030505471" flag="0"/>
    </comp>
  </station>
  <station code="MSL1" name="MSL1" netid="HI" insttype="CMG-5TD,ACCELEROMETER,GURALP" commtype="DIG" lat="38.3727" lon="21.4243">
    <comp name="--.HNE">
      <acc value="0.0532688986" flag="0"/>
      <vel value="0.0273118368" flag="0"/>
      <psa03 value="0.1857084235" flag="0"/>
      <psa10 value="0.0401595674" flag="0"/>
      <psa30 value="0.0015755766" flag="0"/>
    </comp>
    <comp name="--.HNZ">
      <acc value="0.0244371529" flag="0"/>
      <vel value="0.0156045120" flag="0"/>
      <psa03 value="0.0524244293" flag="0"/>
      <psa10 value="0.0187866627" flag="0"/>
      <psa30 value="0.0008996906" flag="0"/>
    </comp>
    <comp name="--.HNN">
      <acc value="0.0729386082" flag="0"/>
      <vel value="0.0341886620" flag="0"/>
      <psa03 value="0.2026920299" flag="0"/>
      <psa10 value="0.0456520734" flag="0"/>
      <psa30 value="0.0036671605" flag="0"/>
    </comp>
  </station>
  <station code="VAS2" name="VAS2" netid="HI" insttype="CMG-5TD,ACCELEROMETER,GURALP" commtype="DIG" lat="38.6306" lon="20.6081">
    <comp name="--.HNE">
      <acc value="0.1808524563" flag="0"/>
      <vel value="0.1193123517" flag="0"/>
      <psa03 value="0.3606973955" flag="0"/>
      <psa10 value="0.1371544182" flag="0"/>
      <psa30 value="0.0074429679" flag="0"/>
    </comp>
    <comp name="--.HNZ">
      <acc value="0.1335996860" flag="0"/>
      <vel value="0.0604009353" flag="0"/>
      <psa03 value="0.3154537348" flag="0"/>
      <psa10 value="0.0544767443" flag="0"/>
      <psa30 value="0.0023419071" flag="0"/>
    </comp>
    <comp name="--.HNN">
      <acc value="0.2322023778" flag="0"/>
      <vel value="0.1212228847" flag="0"/>
      <psa03 value="0.6417424150" flag="0"/>
      <psa10 value="0.0888956340" flag="0"/>
      <psa30 value="0.0043559473" flag="0"/>
    </comp>
  </station>
  <station code="VSK1" name="VSK1" netid="HI" insttype="unknown" commtype="DIG" lat="38.4091" lon="20.564">
    <comp name="--.HNE">
      <acc value="0.7693208528" flag="0"/>
      <vel value="0.1385964390" flag="0"/>
      <psa03 value="0.5472349742" flag="0"/>
      <psa10 value="0.1073159420" flag="0"/>
      <psa30 value="0.0085146596" flag="0"/>
    </comp>
    <comp name="--.HNZ">
      <acc value="0.3536609991" flag="0"/>
      <vel value="0.0987476883" flag="0"/>
      <psa03 value="0.7223002903" flag="0"/>
      <psa10 value="0.0425365604" flag="0"/>
      <psa30 value="0.0033142279" flag="0"/>
    </comp>
    <comp name="--.HNN">
      <acc value="0.6023624367" flag="0"/>
      <vel value="0.1491730395" flag="0"/>
      <psa03 value="0.8759492662" flag="0"/>
      <psa10 value="0.0652918656" flag="0"/>
      <psa30 value="0.0051760012" flag="0"/>
    </comp>
  </station>
  <station code="ZAK2" name="ZAK2" netid="HI" insttype="unknown" commtype="DIG" lat="37.7875" lon="20.9">
    <comp name="--.HNE">
      <acc value="0.1007534266" flag="0"/>
      <vel value="0.0447646860" flag="0"/>
      <psa03 value="0.2533132910" flag="0"/>
      <psa10 value="0.0438204136" flag="0"/>
      <psa30 value="0.0029450016" flag="0"/>
    </comp>
    <comp name="--.HNZ">
      <acc value="0.0574356686" flag="0"/>
      <vel value="0.0217526023" flag="0"/>
      <psa03 value="0.1394770133" flag="0"/>
      <psa10 value="0.0234351897" flag="0"/>
      <psa30 value="0.0017667483" flag="0"/>
    </comp>
    <comp name="--.HNN">
      <acc value="0.0863261378" flag="0"/>
      <vel value="0.0449120744" flag="0"/>
      <psa03 value="0.2550525160" flag="0"/>
      <psa10 value="0.0394747181" flag="0"/>
      <psa30 value="0.0032577430" flag="0"/>
    </comp>
  </station>
  <station code="ARTB" name="ARTB" netid="HL" insttype="CMG-5" commtype="DIG" lat="39.157" lon="20.9785">
    <comp name="00.HNZ">
      <acc value="0.0130577339" flag="0"/>
      <vel value="0.0047339669" flag="0"/>
      <psa03 value="0.0214881252" flag="0"/>
      <psa10 value="0.0027106009" flag="0"/>
      <psa30 value="0.0002584347" flag="0"/>
    </comp>
    <comp name="00.HNE">
      <acc value="0.0238191253" flag="0"/>
      <vel value="0.0092790297" flag="0"/>
      <psa03 value="0.0738617549" flag="0"/>
      <psa10 value="0.0060335570" flag="0"/>
      <psa30 value="0.0005079237" flag="0"/>
    </comp>
    <comp name="00.HNN">
      <acc value="0.0178054554" flag="0"/>
      <vel value="0.0065798210" flag="0"/>
      <psa03 value="0.0463011658" flag="0"/>
      <psa10 value="0.0033915736" flag="0"/>
      <psa30 value="0.0003157002" flag="0"/>
    </comp>
  </station>
  <station code="LXRA" name="LXRA" netid="HL" insttype="CMG-5" commtype="DIG" lat="38.2001" lon="20.4372">
    <comp name="00.HNE">
      <acc value="2.5631508453" flag="0"/>
      <vel value="0.3792383514" flag="0"/>
      <psa03 value="1.5068934540" flag="0"/>
      <psa10 value="0.0580684904" flag="0"/>
      <psa30 value="0.0059185057" flag="0"/>
    </comp>
    <comp name="00.HNN">
      <acc value="4.6469656812" flag="0"/>
      <vel value="0.5735394946" flag="0"/>
      <psa03 value="1.7263633853" flag="0"/>
      <psa10 value="0.1630252187" flag="0"/>
      <psa30 value="0.0194580517" flag="0"/>
    </comp>
    <comp name="00.HNZ">
      <acc value="3.9352184208" flag="0"/>
      <vel value="0.3089108018" flag="0"/>
      <psa03 value="0.6027850129" flag="0"/>
      <psa10 value="0.0406593762" flag="0"/>
      <psa30 value="0.0031805314" flag="0"/>
    </comp>
  </station>
  <station code="ORTH" name="ORTH" netid="HL" insttype="30" commtype="DIG" lat="37.8511" lon="20.6963">
    <comp name="--.HHE">
      <acc value="0.1646816567" flag="0"/>
      <vel value="0.0485423060" flag="0"/>
      <psa03 value="0.2015785969" flag="0"/>
      <psa10 value="0.0260036012" flag="0"/>
      <psa30 value="0.0019508699" flag="0"/>
    </comp>
    <comp name="--.HHN">
      <acc value="0.1653589709" flag="0"/>
      <vel value="0.0439547044" flag="0"/>
      <psa03 value="0.1974676684" flag="0"/>
      <psa10 value="0.0230957929" flag="0"/>
      <psa30 value="0.0020138599" flag="0"/>
    </comp>
    <comp name="--.HHZ">
      <acc value="0.0944953408" flag="0"/>
      <vel value="0.0218198956" flag="0"/>
      <psa03 value="0.1138940999" flag="0"/>
      <psa10 value="0.0126403285" flag="0"/>
      <psa30 value="0.0008112523" flag="0"/>
    </comp>
  </station>
  <station code="RLS" name="RLS" netid="HL" insttype="CMG3ESPC-120s" commtype="DIG" lat="38.0559" lon="21.4647">
    <comp name="--.HHE">
      <acc value="0.0106862617" flag="0"/>
      <vel value="0.0045611504" flag="0"/>
      <psa03 value="0.0281416877" flag="0"/>
      <psa10 value="0.0055124767" flag="0"/>
      <psa30 value="0.0003761446" flag="0"/>
    </comp>
    <comp name="--.HHZ">
      <acc value="0.0075875121" flag="0"/>
      <vel value="0.0021580049" flag="0"/>
      <psa03 value="0.0182882563" flag="0"/>
      <psa10 value="0.0023136730" flag="0"/>
      <psa30 value="0.0001908436" flag="0"/>
    </comp>
    <comp name="--.HHN">
      <acc value="0.0137665481" flag="0"/>
      <vel value="0.0047542441" flag="0"/>
      <psa03 value="0.0372586285" flag="0"/>
      <psa10 value="0.0043286905" flag="0"/>
      <psa30 value="0.0003943961" flag="0"/>
    </comp>
  </station>
  <station code="AMPL" name="AMPL" netid="HP" insttype="Compact," commtype="DIG" lat="38.9224" lon="21.2135">
    <comp name="--.HHE">
      <acc value="0.0140374903" flag="0"/>
      <vel value="0.0054655994" flag="0"/>
      <psa03 value="0.0427903909" flag="0"/>
      <psa10 value="0.0033755499" flag="0"/>
      <psa30 value="0.0002280081" flag="0"/>
    </comp>
    <comp name="--.HHZ">
      <acc value="0.0078723397" flag="0"/>
      <vel value="0.0032315732" flag="0"/>
      <psa03 value="0.0226318062" flag="0"/>
      <psa10 value="0.0031933248" flag="0"/>
      <psa30 value="0.0002224460" flag="0"/>
    </comp>
    <comp name="--.HHN">
      <acc value="0.0146636824" flag="0"/>
      <vel value="0.0046088040" flag="0"/>
      <psa03 value="0.0210929065" flag="0"/>
      <psa10 value="0.0035550724" flag="0"/>
      <psa30 value="0.0002511987" flag="0"/>
    </comp>
  </station>
  <station code="AXS" name="AXS" netid="HP" insttype="Compact," commtype="DIG" lat="38.1962" lon="21.3763">
    <comp name="--.HHE">
      <acc value="0.0106547096" flag="0"/>
      <vel value="0.0032936564" flag="0"/>
      <psa03 value="0.0202741359" flag="0"/>
      <psa10 value="0.0031447163" flag="0"/>
      <psa30 value="0.0002440484" flag="0"/>
    </comp>
    <comp name="--.HHN">
      <acc value="0.0162528797" flag="0"/>
      <vel value="0.0086221389" flag="0"/>
      <psa03 value="0.0315117576" flag="0"/>
      <psa10 value="0.0068212192" flag="0"/>
      <psa30 value="0.0007688815" flag="0"/>
    </comp>
    <comp name="--.HHZ">
      <acc value="0.0085042938" flag="0"/>
      <vel value="0.0024327515" flag="0"/>
      <psa03 value="0.0158180937" flag="0"/>
      <psa10 value="0.0017404985" flag="0"/>
      <psa30 value="0.0002239942" flag="0"/>
    </comp>
  </station>
  <station code="DRO" name="DRO" netid="HP" insttype="120P," commtype="DIG" lat="37.952" lon="21.71">
    <comp name="--.HHZ">
      <acc value="0.0103706267" flag="0"/>
      <vel value="0.0038167803" flag="0"/>
      <psa03 value="0.0333082386" flag="0"/>
      <psa10 value="0.0036559205" flag="0"/>
      <psa30 value="0.0002105108" flag="0"/>
    </comp>
    <comp name="--.HHN">
      <acc value="0.0186442739" flag="0"/>
      <vel value="0.0083353187" flag="0"/>
      <psa03 value="0.0608193627" flag="0"/>
      <psa10 value="0.0086172970" flag="0"/>
      <psa30 value="0.0003604489" flag="0"/>
    </comp>
    <comp name="--.HHE">
      <acc value="0.0197715108" flag="0"/>
      <vel value="0.0085377656" flag="0"/>
      <psa03 value="0.0542328352" flag="0"/>
      <psa10 value="0.0077316527" flag="0"/>
      <psa30 value="0.0005521155" flag="0"/>
    </comp>
  </station>
  <station code="FSK" name="FSK" netid="HP" insttype="40," commtype="DIG" lat="38.4593" lon="20.5623">
    <comp name="--.HHE">
      <acc value="0.8404143347" flag="0"/>
      <vel value="0.1807014598" flag="0"/>
      <psa03 value="0.4438010344" flag="0"/>
      <psa10 value="0.0633181123" flag="0"/>
      <psa30 value="0.0048791652" flag="0"/>
    </comp>
    <comp name="--.HHN">
      <acc value="0.5229727132" flag="0"/>
      <vel value="0.0965330534" flag="0"/>
      <psa03 value="0.2588857905" flag="0"/>
      <psa10 value="0.0504430846" flag="0"/>
      <psa30 value="0.0039745861" flag="0"/>
    </comp>
    <comp name="--.HHZ">
      <acc value="0.4662263091" flag="0"/>
      <vel value="0.0884469727" flag="0"/>
      <psa03 value="0.2919072393" flag="0"/>
      <psa10 value="0.0229188346" flag="0"/>
      <psa30 value="0.0020259074" flag="0"/>
    </comp>
  </station>
