<stationlist xmlns:esm="https://esm-db.eu/esmws/shakemap/1/" created="1779933285">
	<station code="AGR3" name="AGR3" netid="HI" source="ITSAK Strong Motion Network" insttype="" lat="38.5893" lon="21.4162" esm:processing="manual (Paolucci et al 2011)" esm:quality="best">
		<comp name="--.HNE" depth="0.0">
			<acc value="0.0536149787630387" flag="0"/>
			<vel value="0.0235444799096084" flag="0"/>
			<psa03 value="0.163031893812884" flag="0"/>
			<psa10 value="0.0281982642465995" flag="0"/>
			<psa30 value="0.00184660837040865" flag="0"/>
		</comp>
		<comp name="--.HNN" depth="0.0">
			<acc value="0.0476150256820651" flag="0"/>
			<vel value="0.0306943051513886" flag="0"/>
			<psa03 value="0.124216405810637" flag="0"/>
			<psa10 value="0.0240697263762606" flag="0"/>
			<psa30 value="0.00159361494417017" flag="0"/>
		</comp>
		<comp name="--.HNZ" depth="0.0">
			<acc value="0.0267009752906652" flag="0"/>
			<vel value="0.0125899550259929" flag="0"/>
			<psa03 value="0.0746074371681931" flag="0"/>
			<psa10 value="0.0154285267516728" flag="0"/>
			<psa30 value="0.000785217850162141" flag="0"/>
		</comp>
	</station>
	<station code="AKR1" name="AKR1" netid="HI" source="ITSAK Strong Motion Network" insttype="" lat="38.153583" lon="22.31326" esm:processing="automatic (Paolucci et al 2011)" esm:quality="best">
		<comp name="--.HNE" depth="0.0">
			<acc value="0.00759762542804669" flag="0"/>
			<vel value="0.00364588353952026" flag="0"/>
			<psa03 value="0.0185648131610878" flag="0"/>
			<psa10 value="0.00600975342917925" flag="0"/>
			<psa30 value="0.000364198136755698" flag="0"/>
		</comp>
		<comp name="--.HNN" depth="0.0">
			<acc value="0.00759169806360394" flag="0"/>
			<vel value="0.00315115129753545" flag="0"/>
			<psa03 value="0.0241897613071139" flag="0"/>
			<psa10 value="0.00404961717350238" flag="0"/>
			<psa30 value="0.000729416289001169" flag="0"/>
		</comp>
		<comp name="--.HNZ" depth="0.0">
			<acc value="0.00301474163010006" flag="0"/>
			<vel value="0.0019834901977599" flag="0"/>
			<psa03 value="0.00874177310998855" flag="0"/>
			<psa10 value="0.00264582253838312" flag="0"/>
			<psa30 value="0.000412899566111623" flag="0"/>
		</comp>
	</station>
	<station code="AOL1" name="AOL1" netid="HI" source="ITSAK Strong Motion Network" insttype="" lat="37.642378" lon="21.624555" esm:processing="manual (Paolucci et al 2011)" esm:quality="best">
		<comp name="--.HNE" depth="0.0">
			<acc value="0.00998765865364976" flag="0"/>
			<vel value="0.00731318143923563" flag="0"/>
			<psa03 value="0.0332549738121252" flag="0"/>
			<psa10 value="0.0090306029206345" flag="0"/>
			<psa30 value="0.00087054032527215" flag="0"/>
		</comp>
		<comp name="--.HNN" depth="0.0">
			<acc value="0.00913455001818866" flag="0"/>
			<vel value="0.00687623534803188" flag="0"/>
			<psa03 value="0.0279379887754762" flag="0"/>
			<psa10 value="0.0119312447614019" flag="0"/>
			<psa30 value="0.00081348894173201" flag="0"/>
		</comp>
		<comp name="--.HNZ" depth="0.0">
			<acc value="0.00682717449859932" flag="0"/>
			<vel value="0.00391891696981278" flag="0"/>
			<psa03 value="0.0185207230007672" flag="0"/>
			<psa10 value="0.00546636540114328" flag="0"/>
			<psa30 value="0.000389506089325048" flag="0"/>
		</comp>
	</station>
	<station code="ARG2" name="ARG2" netid="HI" source="ITSAK Strong Motion Network" insttype="" lat="38.1783" lon="20.4878" esm:processing="manual (Paolucci et al 2011)" esm:quality="good">
		<comp name="--.HNE" depth="0.0">
			<acc value="2.59105427225917" flag="0"/>
			<vel value="0.62790203335806" flag="0"/>
			<psa03 value="1.61276483775448" flag="0"/>
			<psa10 value="0.0863668263783944" flag="0"/>
			<psa30 value="0.0100597130733027" flag="0"/>
		</comp>
		<comp name="--.HNN" depth="0.0">
			<acc value="1.56951405903305" flag="0"/>
			<vel value="0.381810570143173" flag="0"/>
			<psa03 value="1.48967635041244" flag="0"/>
			<psa10 value="0.10307728086416" flag="0"/>
			<psa30 value="0.00954380306345273" flag="0"/>
		</comp>
		<comp name="--.HNZ" depth="0.0">
			<acc value="1.26345911965741" flag="0"/>
			<vel value="0.166404859248322" flag="0"/>
			<psa03 value="0.647656487398748" flag="0"/>
			<psa10 value="0.0354189363307039" flag="0"/>
			<psa30 value="0.00373023044279101" flag="0"/>
		</comp>
	</station>
	<station code="AST1" name="AST1" netid="HI" source="ITSAK Strong Motion Network" insttype="" lat="38.5416" lon="21.0895" esm:processing="manual (Paolucci et al 2011)" esm:quality="best">
		<comp name="--.HNE" depth="0.0">
			<acc value="0.0551224926664411" flag="0"/>
			<vel value="0.0180288616286053" flag="0"/>
			<psa03 value="0.136923601766429" flag="0"/>
			<psa10 value="0.00945185238882177" flag="0"/>
			<psa30 value="0.000719272335760077" flag="0"/>
		</comp>
		<comp name="--.HNN" depth="0.0">
			<acc value="0.0670758971603906" flag="0"/>
			<vel value="0.031641986522857" flag="0"/>
			<psa03 value="0.193521465680747" flag="0"/>
			<psa10 value="0.0110487691142453" flag="0"/>
			<psa30 value="0.000818358066371087" flag="0"/>
		</comp>
		<comp name="--.HNZ" depth="0.0">
			<acc value="0.0350240097262263" flag="0"/>
			<vel value="0.0179746143941468" flag="0"/>
			<psa03 value="0.09214638549585" flag="0"/>
			<psa10 value="0.00916290043467656" flag="0"/>
			<psa30 value="0.000570163239264481" flag="0"/>
		</comp>
	</station>
	<station code="KAC1" name="KAC1" netid="HI" source="ITSAK Strong Motion Network" insttype="" lat="38.143412" lon="21.549694" esm:processing="manual (Paolucci et al 2011)" esm:quality="best">
		<comp name="--.HNE" depth="0.0">
			<acc value="0.0353570588153697" flag="0"/>
			<vel value="0.0193100954916619" flag="0"/>
			<psa03 value="0.138573096454167" flag="0"/>
			<psa10 value="0.0193389942384569" flag="0"/>
			<psa30 value="0.00152435535606326" flag="0"/>
		</comp>
		<comp name="--.HNN" depth="0.0">
			<acc value="0.0321748117247142" flag="0"/>
			<vel value="0.0163323605042458" flag="0"/>
			<psa03 value="0.114134800453711" flag="0"/>
			<psa10 value="0.0210615170971262" flag="0"/>
			<psa30 value="0.00181907717160012" flag="0"/>
		</comp>
		<comp name="--.HNZ" depth="0.0">
			<acc value="0.0167413165355472" flag="0"/>
			<vel value="0.0086650131209786" flag="0"/>
			<psa03 value="0.0534903820170468" flag="0"/>
			<psa10 value="0.00715533338072078" flag="0"/>
			<psa30 value="0.00106677962724952" flag="0"/>
		</comp>
	</station>
	<station code="KLV1" name="KLV1" netid="HI" source="ITSAK Strong Motion Network" insttype="" lat="38.03256" lon="22.10797" esm:processing="manual (Paolucci et al 2011)" esm:quality="good">
		<comp name="--.HNE" depth="0.0">
			<acc value="0.026397006390518" flag="0"/>
			<vel value="0.0105255810573849" flag="0"/>
			<psa03 value="0.0535251082757966" flag="0"/>
			<psa10 value="0.00624520949573818" flag="0"/>
			<psa30 value="0.000448493043796603" flag="0"/>
		</comp>
		<comp name="--.HNN" depth="0.0">
			<acc value="0.0264431201094471" flag="0"/>
			<vel value="0.0103101044119713" flag="0"/>
			<psa03 value="0.0453509105251571" flag="0"/>
			<psa10 value="0.0066948703772923" flag="0"/>
			<psa30 value="0.00067130551236058" flag="0"/>
		</comp>
		<comp name="--.HNZ" depth="0.0">
			<acc value="0.00852156802551789" flag="0"/>
			<vel value="0.00424844333537897" flag="0"/>
			<psa03 value="0.0190929705447741" flag="0"/>
			<psa10 value="0.00327675495956008" flag="0"/>
			<psa30 value="0.000332785899599498" flag="0"/>
		</comp>
	</station>
	<station code="LEF2" name="LEF2" netid="HI" source="ITSAK Strong Motion Network" insttype="" lat="38.830093" lon="20.708346" esm:processing="manual (Paolucci et al 2011)" esm:quality="best">
		<comp name="--.HNE" depth="0.0">
			<acc value="0.064894392902687" flag="0"/>
			<vel value="0.03286081269382" flag="0"/>
			<psa03 value="0.170215036327377" flag="0"/>
			<psa10 value="0.0243076065096554" flag="0"/>
			<psa30 value="0.00299947932578627" flag="0"/>
		</comp>
		<comp name="--.HNN" depth="0.0">
			<acc value="0.0506466624089297" flag="0"/>
			<vel value="0.0266660924064632" flag="0"/>
			<psa03 value="0.166769172639084" flag="0"/>
			<psa10 value="0.0277665225208643" flag="0"/>
			<psa30 value="0.00187407644003521" flag="0"/>
		</comp>
		<comp name="--.HNZ" depth="0.0">
			<acc value="0.0371792758651585" flag="0"/>
			<vel value="0.0176693273414728" flag="0"/>
			<psa03 value="0.106231891508313" flag="0"/>
			<psa10 value="0.0215465648541824" flag="0"/>
			<psa30 value="0.000928743087173718" flag="0"/>
		</comp>
	</station>
	<station code="LXR2" name="LXR2" netid="HI" source="ITSAK Strong Motion Network" insttype="" lat="38.206718" lon="20.436386" esm:processing="manual (Paolucci et al 2011)" esm:quality="good">
		<comp name="--.HNE" depth="0.0">
			<acc value="2.61523722150658" flag="0"/>
			<vel value="0.307145466782158" flag="0"/>
			<psa03 value="0.848823813743224" flag="0"/>
			<psa10 value="0.0761199625738881" flag="0"/>
			<psa30 value="0.00627911221038173" flag="0"/>
		</comp>
		<comp name="--.HNN" depth="0.0">
			<acc value="4.05451899375043" flag="0"/>
			<vel value="0.712803109919361" flag="0"/>
			<psa03 value="1.21431352564581" flag="0"/>
			<psa10 value="0.197830600306224" flag="0"/>
			<psa30 value="0.0149703533791071" flag="0"/>
		</comp>
		<comp name="--.HNZ" depth="0.0">
			<acc value="2.33399744252401" flag="0"/>
			<vel value="0.2445211608589" flag="0"/>
			<psa03 value="0.512754759153292" flag="0"/>
			<psa10 value="0.0405417194398384" flag="0"/>
			<psa30 value="0.00324947109484468" flag="0"/>
		</comp>
	</station>
	<station code="MSL1" name="MSL1" netid="HI" source="ITSAK Strong Motion Network" insttype="" lat="38.3727" lon="21.4243" esm:processing="manual (Paolucci et al 2011)" esm:quality="best">
		<comp name="--.HNE" depth="0.0">
			<acc value="0.0532157570880082" flag="0"/>
			<vel value="0.0274485634160276" flag="0"/>
			<psa03 value="0.18383501150042" flag="0"/>
			<psa10 value="0.0402103512384439" flag="0"/>
			<psa30 value="0.0015951270235035" flag="0"/>
		</comp>
		<comp name="--.HNN" depth="0.0">
			<acc value="0.0727773402160515" flag="0"/>
			<vel value="0.0343135310567349" flag="0"/>
			<psa03 value="0.200585787824041" flag="0"/>
			<psa10 value="0.0458104247158487" flag="0"/>
			<psa30 value="0.00379199453435904" flag="0"/>
		</comp>
		<comp name="--.HNZ" depth="0.0">
			<acc value="0.0245928633190335" flag="0"/>
			<vel value="0.0156652965031661" flag="0"/>
			<psa03 value="0.0528069513263128" flag="0"/>
			<psa10 value="0.0187877358452904" flag="0"/>
			<psa30 value="0.000934569098115224" flag="0"/>
		</comp>
	</station>
	<station code="PRE2" name="PRE2" netid="HI" source="ITSAK Strong Motion Network" insttype="" lat="38.9577" lon="20.7548" esm:processing="manual (Paolucci et al 2011)" esm:quality="best">
		<comp name="--.HNE" depth="0.0">
			<acc value="0.0451800254657375" flag="0"/>
			<vel value="0.0254177206528949" flag="0"/>
			<psa03 value="0.174309026284386" flag="0"/>
			<psa10 value="0.0242050878432605" flag="0"/>
			<psa30 value="0.00173349452300602" flag="0"/>
		</comp>
		<comp name="--.HNN" depth="0.0">
			<acc value="0.03991127905499" flag="0"/>
			<vel value="0.0246308100935969" flag="0"/>
			<psa03 value="0.163580200968962" flag="0"/>
			<psa10 value="0.021189996858305" flag="0"/>
			<psa30 value="0.00144500374524058" flag="0"/>
		</comp>
		<comp name="--.HNZ" depth="0.0">
			<acc value="0.0222785971922745" flag="0"/>
			<vel value="0.0128236851545325" flag="0"/>
			<psa03 value="0.0662613165705127" flag="0"/>
			<psa10 value="0.00950941870230612" flag="0"/>
			<psa30 value="0.000532385684603537" flag="0"/>
		</comp>
	</station>
	<station code="VAS2" name="VAS2" netid="HI" source="ITSAK Strong Motion Network" insttype="" lat="38.630558" lon="20.608081" esm:processing="manual (Paolucci et al 2011)" esm:quality="best">
		<comp name="--.HNE" depth="0.0">
			<acc value="0.179997331248798" flag="0"/>
			<vel value="0.119424552867779" flag="0"/>
			<psa03 value="0.356782593429093" flag="0"/>
			<psa10 value="0.137494143312155" flag="0"/>
			<psa30 value="0.00752334921828935" flag="0"/>
		</comp>
		<comp name="--.HNN" depth="0.0">
			<acc value="0.230765958589825" flag="0"/>
			<vel value="0.121804902134208" flag="0"/>
			<psa03 value="0.643393955024559" flag="0"/>
			<psa10 value="0.0887335406614656" flag="0"/>
			<psa30 value="0.00441204019267593" flag="0"/>
		</comp>
		<comp name="--.HNZ" depth="0.0">
			<acc value="0.13250751385423" flag="0"/>
			<vel value="0.0605332728903018" flag="0"/>
			<psa03 value="0.311722358409767" flag="0"/>
			<psa10 value="0.054542495672737" flag="0"/>
			<psa30 value="0.00237898051245004" flag="0"/>
		</comp>
	</station>
	<station code="VSK1" name="VSK1" netid="HI" source="ITSAK Strong Motion Network" insttype="" lat="38.4091" lon="20.564" esm:processing="manual (Paolucci et al 2011)" esm:quality="good">
		<comp name="--.HNE" depth="0.0">
			<acc value="0.76540635980244" flag="0"/>
			<vel value="0.140348604396399" flag="0"/>
			<psa03 value="0.548084057878383" flag="0"/>
			<psa10 value="0.107768916662025" flag="0"/>
			<psa30 value="0.00843645220688104" flag="0"/>
		</comp>
		<comp name="--.HNN" depth="0.0">
			<acc value="0.557206986732737" flag="0"/>
			<vel value="0.150828777055278" flag="0"/>
			<psa03 value="0.87824967973328" flag="0"/>
			<psa10 value="0.0655215654822449" flag="0"/>
			<psa30 value="0.00521925158313516" flag="0"/>
		</comp>
		<comp name="--.HNZ" depth="0.0">
			<acc value="0.365096915796116" flag="0"/>
			<vel value="0.100925587006206" flag="0"/>
			<psa03 value="0.731104265402666" flag="0"/>
			<psa10 value="0.0427187011544404" flag="0"/>
			<psa30 value="0.003434842333114" flag="0"/>
		</comp>
	</station>
	<station code="ZAK2" name="ZAK2" netid="HI" source="ITSAK Strong Motion Network" insttype="" lat="37.787501" lon="20.899999" esm:processing="manual (Paolucci et al 2011)" esm:quality="best">
		<comp name="--.HNE" depth="0.0">
			<acc value="0.0992077079415641" flag="0"/>
			<vel value="0.0452934417589759" flag="0"/>
			<psa03 value="0.256556495608558" flag="0"/>
			<psa10 value="0.043818442756952" flag="0"/>
			<psa30 value="0.00309621990103775" flag="0"/>
		</comp>
		<comp name="--.HNN" depth="0.0">
			<acc value="0.0859081290985516" flag="0"/>
			<vel value="0.0457398165013668" flag="0"/>
			<psa03 value="0.254762918459504" flag="0"/>
			<psa10 value="0.0394729773910087" flag="0"/>
			<psa30 value="0.00332186130700984" flag="0"/>
		</comp>
		<comp name="--.HNZ" depth="0.0">
			<acc value="0.0564208661462484" flag="0"/>
			<vel value="0.022111848391952" flag="0"/>
			<psa03 value="0.14167042663737" flag="0"/>
			<psa10 value="0.0234973653351366" flag="0"/>
			<psa30 value="0.00200113464868443" flag="0"/>
		</comp>
	</station>
	<station code="LXRA" name="LXRA" netid="HL" source="National Observatory of Athens Seismic Network" insttype="" lat="38.20006" lon="20.43718" esm:processing="manual (Paolucci et al 2011)" esm:quality="good">
		<comp name="00.HNE" depth="0.0">
			<acc value="2.52342032887889" flag="0"/>
			<vel value="0.386815141403091" flag="0"/>
			<psa03 value="1.51629628051986" flag="0"/>
			<psa10 value="0.0581456481140183" flag="0"/>
			<psa30 value="0.00602861936644768" flag="0"/>
		</comp>
		<comp name="00.HNN" depth="0.0">
			<acc value="4.74286072289125" flag="0"/>
			<vel value="0.583134322121427" flag="0"/>
			<psa03 value="1.72969775065381" flag="0"/>
			<psa10 value="0.162690187426607" flag="0"/>
			<psa30 value="0.0193463466005292" flag="0"/>
		</comp>
		<comp name="00.HNZ" depth="0.0">
			<acc value="3.73614097267306" flag="0"/>
			<vel value="0.329822348286024" flag="0"/>
			<psa03 value="0.608997259744635" flag="0"/>
			<psa10 value="0.0406692353872163" flag="0"/>
			<psa30 value="0.00323047650321344" flag="0"/>
		</comp>
	</station>
	<station code="PATC" name="PATC" netid="HL" source="National Observatory of Athens Seismic Network" insttype="" lat="38.26933" lon="21.76001" esm:processing="manual (Paolucci et al 2011)" esm:quality="best">
		<comp name="00.HNE" depth="0.0">
			<acc value="0.0240325232838012" flag="0"/>
			<vel value="0.0158375946443156" flag="0"/>
			<psa03 value="0.0343212397595322" flag="0"/>
			<psa10 value="0.0176681385524822" flag="0"/>
			<psa30 value="0.00202938151989742" flag="0"/>
		</comp>
		<comp name="00.HNN" depth="0.0">
			<acc value="0.0177999880864275" flag="0"/>
			<vel value="0.0113401259205977" flag="0"/>
			<psa03 value="0.0604567810067614" flag="0"/>
			<psa10 value="0.0157685758407559" flag="0"/>
			<psa30 value="0.00208685699403582" flag="0"/>
		</comp>
		<comp name="00.HNZ" depth="0.0">
			<acc value="0.0156924899519509" flag="0"/>
			<vel value="0.00777695810334723" flag="0"/>
			<psa03 value="0.0356644928059701" flag="0"/>
			<psa10 value="0.00977011253448835" flag="0"/>
			<psa30 value="0.000791381852246884" flag="0"/>
		</comp>
	</station>
	<station code="SMHA" name="SMHA" netid="HL" source="National Observatory of Athens Seismic Network" insttype="" lat="38.25123" lon="20.6477" esm:processing="manual (Paolucci et al 2011)" esm:quality="good">
		<comp name="00.HNE" depth="0.0">
			<acc value="4.01900429888735" flag="0"/>
			<vel value="1.07325472728371" flag="0"/>
			<psa03 value="3.0652343900687" flag="0"/>
			<psa10 value="0.178748646220404" flag="0"/>
			<psa30 value="0.019334314136755" flag="0"/>
		</comp>
		<comp name="00.HNN" depth="0.0">
			<acc value="6.93374047104955" flag="0"/>
			<vel value="1.15088046939434" flag="0"/>
			<psa03 value="3.12497268077014" flag="0"/>
			<psa10 value="0.220143888452022" flag="0"/>
			<psa30 value="0.0205832202039879" flag="0"/>
		</comp>
		<comp name="00.HNZ" depth="0.0">
			<acc value="2.67599588895343" flag="0"/>
			<vel value="0.362515973787141" flag="0"/>
			<psa03 value="1.07106078585354" flag="0"/>
			<psa10 value="0.0467067903457865" flag="0"/>
			<psa30 value="0.00530384052004942" flag="0"/>
		</comp>
	</station>
	<station code="AMT" name="AMT" netid="HP" source="University of Patras, Seismological Laboratory (PSLNET)" insttype="" lat="37.5324" lon="21.7089" esm:processing="manual (Paolucci et al 2011)" esm:quality="best">
		<comp name="--.HNE" depth="0.0">
			<acc value="0.0080377054740996" flag="0"/>
			<vel value="0.00750573167596211" flag="0"/>
			<psa03 value="0.0290830672354669" flag="0"/>
			<psa10 value="0.0143217590587314" flag="0"/>
			<psa30 value="0.000534008292095309" flag="0"/>
		</comp>
		<comp name="--.HNN" depth="0.0">
			<acc value="0.00873781689726631" flag="0"/>
			<vel value="0.00716511710988238" flag="0"/>
			<psa03 value="0.0258753078621422" flag="0"/>
			<psa10 value="0.00816403957757352" flag="0"/>
			<psa30 value="0.000498513909518003" flag="0"/>
		</comp>
		<comp name="--.HNZ" depth="0.0">
			<acc value="0.00549194420089045" flag="0"/>
			<vel value="0.00398499687577932" flag="0"/>
			<psa03 value="0.0146366271567853" flag="0"/>
			<psa10 value="0.0042392067641251" flag="0"/>
			<psa30 value="0.000244485180318229" flag="0"/>
		</comp>
	</station>
	<station code="DSF" name="DSF" netid="HP" source="University of Patras, Seismological Laboratory (PSLNET)" insttype="" lat="38.4112" lon="22.5271" esm:processing="automatic (Paolucci et al 2011)" esm:quality="best">
		<comp name="--.HNE" depth="1.0">
			<acc value="0.00279425408422049" flag="0"/>
			<vel value="0.00147287013306508" flag="0"/>
			<psa03 value="0.0101216353524188" flag="0"/>
			<psa10 value="0.00164599728143097" flag="0"/>
			<psa30 value="0.000107663785843251" flag="0"/>
		</comp>
		<comp name="--.HNN" depth="1.0">
			<acc value="0.00426369229116816" flag="0"/>
			<vel value="0.00223387307164032" flag="0"/>
			<psa03 value="0.0133707789776752" flag="0"/>
			<psa10 value="0.00318686642675954" flag="0"/>
			<psa30 value="0.00041279711140785" flag="0"/>
		</comp>
		<comp name="--.HNZ" depth="1.0">
			<acc value="0.00200780240706917" flag="0"/>
			<vel value="0.00126024962533196" flag="0"/>
			<psa03 value="0.00429269647944792" flag="0"/>
			<psa10 value="0.0020647238871996" flag="0"/>
