<stationlist created="1763976940">
	<station code="SRN" name="SRN" netid="AC" source="Albanian Seismological Network (AC)" insttype="" lat="39.880001" lon="20.0005">
		<comp name="01.HNE" depth="0.0">
			<acc value="0.0060169137108324" flag="0"/>
			<vel value="0.00509706501888" flag="0"/>
			<psa03 value="0.0171295423001813" flag="0"/>
			<psa10 value="0.00639741004701358" flag="0"/>
			<psa30 value="0.00200042439329946" flag="0"/>
		</comp>
		<comp name="01.HNN" depth="0.0">
			<acc value="0.0068449742301024" flag="0"/>
			<vel value="0.00436980007749" flag="0"/>
			<psa03 value="0.0166544183776625" flag="0"/>
			<psa10 value="0.00705353054305071" flag="0"/>
			<psa30 value="0.000751794177676227" flag="0"/>
		</comp>
		<comp name="01.HNZ" depth="0.0">
			<acc value="0.006308507422419" flag="0"/>
			<vel value="0.00514207162392" flag="0"/>
			<psa03 value="0.0163541458818871" flag="0"/>
			<psa10 value="0.0052958125403441" flag="0"/>
			<psa30 value="0.00126098040876393" flag="0"/>
		</comp>
	</station>
	<station code="KIAS" name="KIAS" netid="HA" source="Hellenic Seismological Network, University of Athens, Seismological Laboratory (HA)" insttype="" lat="37.9875" lon="22.7543">
		<comp name="--.HNE" depth="0.0">
			<acc value="0.0041541876481374" flag="0"/>
			<vel value="0.00333820716434" flag="0"/>
			<psa03 value="0.0091584172470904" flag="0"/>
			<psa10 value="0.00570659506517091" flag="0"/>
			<psa30 value="0.00103818189945522" flag="0"/>
		</comp>
		<comp name="--.HNN" depth="0.0">
			<acc value="0.0033538693040568" flag="0"/>
			<vel value="0.00363950416532" flag="0"/>
			<psa03 value="0.0106820995637456" flag="0"/>
			<psa10 value="0.00444289260106568" flag="0"/>
			<psa30 value="0.000841077279743279" flag="0"/>
		</comp>
		<comp name="--.HNZ" depth="0.0">
			<acc value="0.0035513844309726" flag="0"/>
			<vel value="0.00210344862354" flag="0"/>
			<psa03 value="0.00709233702000029" flag="0"/>
			<psa10 value="0.00349969480635635" flag="0"/>
			<psa30 value="0.000509802886523617" flag="0"/>
		</comp>
	</station>
	<station code="AGR3" name="AGR3" netid="HI" source="ITSAK Strong Motion Network" insttype="" lat="38.5893" lon="21.4162">
		<comp name="--.HNE" depth="0.0">
			<acc value="0.053485976788206" flag="0"/>
			<vel value="0.0234700349593" flag="0"/>
			<psa03 value="0.163031893812884" flag="0"/>
			<psa10 value="0.0281982642465995" flag="0"/>
			<psa30 value="0.00184660837040865" flag="0"/>
		</comp>
		<comp name="--.HNN" depth="0.0">
			<acc value="0.047513440954344" flag="0"/>
			<vel value="0.0306117130873" flag="0"/>
			<psa03 value="0.124216405810637" flag="0"/>
			<psa10 value="0.0240697263762606" flag="0"/>
			<psa30 value="0.00159361494417017" flag="0"/>
		</comp>
		<comp name="--.HNZ" depth="0.0">
			<acc value="0.026629370295804" flag="0"/>
			<vel value="0.0125538780793" flag="0"/>
			<psa03 value="0.0746074371681931" flag="0"/>
			<psa10 value="0.0154285267516728" flag="0"/>
			<psa30 value="0.000785217850162141" flag="0"/>
		</comp>
	</station>
	<station code="AKR1" name="AKR1" netid="HI" source="ITSAK Strong Motion Network" insttype="" lat="38.153583" lon="22.31326">
		<comp name="--.HNE" depth="0.0">
			<acc value="0.0080732265348876" flag="0"/>
			<vel value="0.00368058424737" flag="0"/>
			<psa03 value="0.0185648131610878" flag="0"/>
			<psa10 value="0.00600975342917925" flag="0"/>
			<psa30 value="0.000364198136755698" flag="0"/>
		</comp>
		<comp name="--.HNN" depth="0.0">
			<acc value="0.0082910879884038" flag="0"/>
			<vel value="0.00323095270842" flag="0"/>
			<psa03 value="0.0241897613071139" flag="0"/>
			<psa10 value="0.00404961717350238" flag="0"/>
			<psa30 value="0.000729416289001169" flag="0"/>
		</comp>
		<comp name="--.HNZ" depth="0.0">
			<acc value="0.003894905063265" flag="0"/>
			<vel value="0.00202632620992" flag="0"/>
			<psa03 value="0.00874177310998855" flag="0"/>
			<psa10 value="0.00264582253838312" flag="0"/>
			<psa30 value="0.000412899566111623" flag="0"/>
		</comp>
	</station>
	<station code="AOL1" name="AOL1" netid="HI" source="ITSAK Strong Motion Network" insttype="" lat="37.642378" lon="21.624555">
		<comp name="--.HNE" depth="0.0">
			<acc value="0.0099437896714578" flag="0"/>
			<vel value="0.00730557247711" flag="0"/>
			<psa03 value="0.0332549738121252" flag="0"/>
			<psa10 value="0.0090306029206345" flag="0"/>
			<psa30 value="0.00087054032527215" flag="0"/>
		</comp>
		<comp name="--.HNN" depth="0.0">
			<acc value="0.009112250945364" flag="0"/>
			<vel value="0.00687177813821" flag="0"/>
			<psa03 value="0.0279379887754762" flag="0"/>
			<psa10 value="0.0119312447614019" flag="0"/>
			<psa30 value="0.00081348894173201" flag="0"/>
		</comp>
		<comp name="--.HNZ" depth="0.0">
			<acc value="0.0066463384750968" flag="0"/>
			<vel value="0.00391407204409" flag="0"/>
			<psa03 value="0.0185207230007672" flag="0"/>
			<psa10 value="0.00546636540114328" flag="0"/>
			<psa30 value="0.000389506089325048" flag="0"/>
		</comp>
	</station>
	<station code="ARG2" name="ARG2" netid="HI" source="ITSAK Strong Motion Network" insttype="" lat="38.1783" lon="20.4878">
		<comp name="--.HNE" depth="0.0">
			<acc value="2.5332833919618" flag="0"/>
			<vel value="0.619976808806" flag="0"/>
			<psa03 value="1.61276483775448" flag="0"/>
			<psa10 value="0.0863668263783944" flag="0"/>
			<psa30 value="0.0100597130733027" flag="0"/>
		</comp>
		<comp name="--.HNN" depth="0.0">
			<acc value="1.4999503844724" flag="0"/>
			<vel value="0.375768617691" flag="0"/>
			<psa03 value="1.48967635041244" flag="0"/>
			<psa10 value="0.10307728086416" flag="0"/>
			<psa30 value="0.00954380306345273" flag="0"/>
		</comp>
		<comp name="--.HNZ" depth="0.0">
			<acc value="1.2418718018064" flag="0"/>
			<vel value="0.163858398216" flag="0"/>
			<psa03 value="0.647656487398748" flag="0"/>
			<psa10 value="0.0354189363307039" flag="0"/>
			<psa30 value="0.00373023044279101" flag="0"/>
		</comp>
	</station>
	<station code="ARS1" name="ARS1" netid="HI" source="ITSAK Strong Motion Network" insttype="" lat="37.6349" lon="22.7293">
		<comp name="--.HNE" depth="0.0">
			<acc value="0.0044415631314354" flag="0"/>
			<vel value="0.00249548702685" flag="0"/>
			<psa03 value="0.00823154464839632" flag="0"/>
			<psa10 value="0.00434626135598666" flag="0"/>
			<psa30 value="0.000260507153153654" flag="0"/>
		</comp>
		<comp name="--.HNN" depth="0.0">
			<acc value="0.0060712355454852" flag="0"/>
			<vel value="0.0025207649521" flag="0"/>
			<psa03 value="0.0133274310539632" flag="0"/>
			<psa10 value="0.0049500068199206" flag="0"/>
			<psa30 value="0.000367005614404217" flag="0"/>
		</comp>
		<comp name="--.HNZ" depth="0.0">
			<acc value="0.0089240697858366" flag="0"/>
			<vel value="0.0015466264003" flag="0"/>
			<psa03 value="0.0068801510887355" flag="0"/>
			<psa10 value="0.00176663527310493" flag="0"/>
			<psa30 value="0.000255145131279422" flag="0"/>
		</comp>
	</station>
	<station code="AST1" name="AST1" netid="HI" source="ITSAK Strong Motion Network" insttype="" lat="38.5416" lon="21.0895">
		<comp name="--.HNE" depth="0.0">
			<acc value="0.054348830224128" flag="0"/>
			<vel value="0.0179575948423" flag="0"/>
			<psa03 value="0.136923601766429" flag="0"/>
			<psa10 value="0.00945185238882177" flag="0"/>
			<psa30 value="0.000719272335760077" flag="0"/>
		</comp>
		<comp name="--.HNN" depth="0.0">
			<acc value="0.066875585973582" flag="0"/>
			<vel value="0.0315258173117" flag="0"/>
			<psa03 value="0.193521465680747" flag="0"/>
			<psa10 value="0.0110487691142453" flag="0"/>
			<psa30 value="0.000818358066371087" flag="0"/>
		</comp>
		<comp name="--.HNZ" depth="0.0">
			<acc value="0.033873333459204" flag="0"/>
			<vel value="0.0178828306397" flag="0"/>
			<psa03 value="0.09214638549585" flag="0"/>
			<psa10 value="0.00916290043467656" flag="0"/>
			<psa30 value="0.000570163239264481" flag="0"/>
		</comp>
	</station>
	<station code="FRS1" name="FRS1" netid="HI" source="ITSAK Strong Motion Network" insttype="" lat="39.2934" lon="22.3844">
		<comp name="--.HNE" depth="0.0">
			<acc value="0.0012868610033634" flag="0"/>
			<vel value="0.000839109682281" flag="0"/>
			<psa03 value="0.00390500803657598" flag="0"/>
			<psa10 value="0.00126663750226713" flag="0"/>
			<psa30 value="0.000189125588537698" flag="0"/>
		</comp>
		<comp name="--.HNN" depth="0.0">
			<acc value="0.0014021397149268" flag="0"/>
			<vel value="0.00102903583032" flag="0"/>
			<psa03 value="0.00336516433187271" flag="0"/>
			<psa10 value="0.00179288830129992" flag="0"/>
			<psa30 value="0.000179110172461673" flag="0"/>
		</comp>
		<comp name="--.HNZ" depth="0.0">
			<acc value="0.0016663717945254" flag="0"/>
			<vel value="0.000746293092791" flag="0"/>
			<psa03 value="0.00403513351873044" flag="0"/>
			<psa10 value="0.000998250269806523" flag="0"/>
			<psa30 value="0.00014754051602278" flag="0"/>
		</comp>
	</station>
	<station code="JAN2" name="JAN2" netid="HI" source="ITSAK Strong Motion Network" insttype="" lat="39.664" lon="20.85222">
		<comp name="--.HNE" depth="0.0">
			<acc value="0.011226166318404" flag="0"/>
			<vel value="0.00831198259593" flag="0"/>
			<psa03 value="0.0450949404434196" flag="0"/>
			<psa10 value="0.00687116721235825" flag="0"/>
			<psa30 value="0.00107461233362533" flag="0"/>
		</comp>
		<comp name="--.HNN" depth="0.0">
			<acc value="0.0099156979233678" flag="0"/>
			<vel value="0.00414622343627" flag="0"/>
			<psa03 value="0.0357339192801051" flag="0"/>
			<psa10 value="0.00292891285422809" flag="0"/>
			<psa30 value="0.000472437911275493" flag="0"/>
		</comp>
		<comp name="--.HNZ" depth="0.0">
			<acc value="0.0066755610058458" flag="0"/>
			<vel value="0.00226158301478" flag="0"/>
			<psa03 value="0.0126806902938936" flag="0"/>
			<psa10 value="0.00336129540369722" flag="0"/>
			<psa30 value="0.000616393905988644" flag="0"/>
		</comp>
	</station>
	<station code="KAC1" name="KAC1" netid="HI" source="ITSAK Strong Motion Network" insttype="" lat="38.143412" lon="21.549694">
		<comp name="--.HNE" depth="0.0">
			<acc value="0.035313812831988" flag="0"/>
			<vel value="0.019277628235" flag="0"/>
			<psa03 value="0.138573096454167" flag="0"/>
			<psa10 value="0.0193389942384569" flag="0"/>
			<psa30 value="0.00152435535606326" flag="0"/>
		</comp>
		<comp name="--.HNN" depth="0.0">
			<acc value="0.032088549394326" flag="0"/>
			<vel value="0.0163032130292" flag="0"/>
			<psa03 value="0.114134800453711" flag="0"/>
			<psa10 value="0.0210615170971262" flag="0"/>
			<psa30 value="0.00181907717160012" flag="0"/>
		</comp>
		<comp name="--.HNZ" depth="0.0">
			<acc value="0.016582975785552" flag="0"/>
			<vel value="0.00865418181261" flag="0"/>
			<psa03 value="0.0534903820170468" flag="0"/>
			<psa10 value="0.00715533338072078" flag="0"/>
			<psa30 value="0.00106677962724952" flag="0"/>
		</comp>
	</station>
	<station code="KAR2" name="KAR2" netid="HI" source="ITSAK Strong Motion Network" insttype="" lat="39.365759" lon="21.91933">
		<comp name="--.HNE" depth="0.0">
			<acc value="0.004987966352871" flag="0"/>
			<vel value="0.00453091751166" flag="0"/>
			<psa03 value="0.019167435113073" flag="0"/>
			<psa10 value="0.00691710916201679" flag="0"/>
			<psa30 value="0.00116762005743334" flag="0"/>
		</comp>
		<comp name="--.HNN" depth="0.0">
			<acc value="0.0058007666821392" flag="0"/>
			<vel value="0.00599320137671" flag="0"/>
			<psa03 value="0.0168523963364739" flag="0"/>
			<psa10 value="0.0141614425010475" flag="0"/>
			<psa30 value="0.0014820950565224" flag="0"/>
		</comp>
		<comp name="--.HNZ" depth="0.0">
			<acc value="0.025442711163786" flag="0"/>
			<vel value="0.00281419153179" flag="0"/>
			<psa03 value="0.00836650736506577" flag="0"/>
			<psa10 value="0.00372172779620311" flag="0"/>
			<psa30 value="0.000361266562345271" flag="0"/>
		</comp>
	</station>
	<station code="KLV1" name="KLV1" netid="HI" source="ITSAK Strong Motion Network" insttype="" lat="38.03256" lon="22.10797">
		<comp name="--.HNE" depth="0.0">
			<acc value="0.026299285697784" flag="0"/>
			<vel value="0.0104771471881" flag="0"/>
			<psa03 value="0.0535251082757966" flag="0"/>
			<psa10 value="0.00624520949573818" flag="0"/>
			<psa30 value="0.000448493043796603" flag="0"/>
		</comp>
		<comp name="--.HNN" depth="0.0">
			<acc value="0.026323989799638" flag="0"/>
			<vel value="0.010264437961" flag="0"/>
			<psa03 value="0.0453509105251571" flag="0"/>
			<psa10 value="0.0066948703772923" flag="0"/>
			<psa30 value="0.00067130551236058" flag="0"/>
		</comp>
		<comp name="--.HNZ" depth="0.0">
			<acc value="0.0084576076723764" flag="0"/>
			<vel value="0.00424409644942" flag="0"/>
			<psa03 value="0.0190929705447741" flag="0"/>
			<psa10 value="0.00327675495956008" flag="0"/>
			<psa30 value="0.000332785899599498" flag="0"/>
		</comp>
	</station>
	<station code="KMV1" name="KMV1" netid="HI" source="ITSAK Strong Motion Network" insttype="" lat="38.7794" lon="22.7846">
		<comp name="--.HNE" depth="0.0">
			<acc value="0.006229805874717" flag="0"/>
			<vel value="0.00327180038758" flag="0"/>
			<psa03 value="0.0117518787646961" flag="0"/>
			<psa10 value="0.0051933604408763" flag="0"/>
			<psa30 value="0.000755789911122477" flag="0"/>
		</comp>
		<comp name="--.HNN" depth="0.0">
			<acc value="0.0044877277050126" flag="0"/>
			<vel value="0.00236625825901" flag="0"/>
			<psa03 value="0.0094476818521335" flag="0"/>
			<psa10 value="0.00326916094086835" flag="0"/>
			<psa30 value="0.000782491367463171" flag="0"/>
		</comp>
		<comp name="--.HNZ" depth="0.0">
			<acc value="0.021926918406396" flag="0"/>
			<vel value="0.0019303289668" flag="0"/>
			<psa03 value="0.00429860116747926" flag="0"/>
			<psa10 value="0.00233069877235452" flag="0"/>
			<psa30 value="0.000317487412191353" flag="0"/>
		</comp>
	</station>
	<station code="KOR2" name="KOR2" netid="HI" source="ITSAK Strong Motion Network" insttype="" lat="37.9401" lon="22.9495">
		<comp name="--.HNE" depth="0.0">
			<acc value="0.0048307811688186" flag="0"/>
			<vel value="0.00358348777028" flag="0"/>
			<psa03 value="0.0153041596587934" flag="0"/>
			<psa10 value="0.00573561308123652" flag="0"/>
			<psa30 value="0.000579119978437507" flag="0"/>
		</comp>
		<comp name="--.HNN" depth="0.0">
			<acc value="0.004138905566202" flag="0"/>
			<vel value="0.00312929372305" flag="0"/>
			<psa03 value="0.00886493556576401" flag="0"/>
			<psa10 value="0.00521732968496975" flag="0"/>
			<psa30 value="0.000500845939004032" flag="0"/>
		</comp>
		<comp name="--.HNZ" depth="0.0">
			<acc value="0.0088148712670902" flag="0"/>
			<vel value="0.00150443745398" flag="0"/>
			<psa03 value="0.00772331631932178" flag="0"/>
			<psa10 value="0.0023806178605016" flag="0"/>
			<psa30 value="0.000228364320723926" flag="0"/>
		</comp>
	</station>
	<station code="KRK1" name="KRK1" netid="HI" source="ITSAK Strong Motion Network" insttype="" lat="39.618861" lon="19.9202">
		<comp name="--.HNE" depth="0.0">
			<acc value="0.017466900102912" flag="0"/>
			<vel value="0.00834358419109" flag="0"/>
			<psa03 value="0.0376804102047557" flag="0"/>
			<psa10 value="0.00444396798481154" flag="0"/>
			<psa30 value="0.000705993122747563" flag="0"/>
		</comp>
		<comp name="--.HNN" depth="0.0">
			<acc value="0.014382858448218" flag="0"/>
			<vel value="0.0079348552944" flag="0"/>
			<psa03 value="0.0252379479318572" flag="0"/>
			<psa10 value="0.00720566218352041" flag="0"/>
			<psa30 value="0.000383875846557385" flag="0"/>
		</comp>
		<comp name="--.HNZ" depth="0.0">
			<acc value="0.0086883784745766" flag="0"/>
			<vel value="0.00398822640807" flag="0"/>
			<psa03 value="0.0203958354990077" flag="0"/>
			<psa10 value="0.00196894418288946" flag="0"/>
			<psa30 value="0.000204380036570388" flag="0"/>
		</comp>
	</station>
	<station code="KYP2" name="KYP2" netid="HI" source="ITSAK Strong Motion Network" insttype="" lat="37.2497" lon="21.667">
		<comp name="--.HNE" depth="0.0">
			<acc value="0.0058013548587132" flag="0"/>
			<vel value="0.00221374145244" flag="0"/>
			<psa03 value="0.0108705072271109" flag="0"/>
			<psa10 value="0.00244518073122245" flag="0"/>
			<psa30 value="0.000242252271982522" flag="0"/>
		</comp>
		<comp name="--.HNN" depth="0.0">
			<acc value="0.0061110213683898" flag="0"/>
			<vel value="0.00207502791283" flag="0"/>
			<psa03 value="0.00881847480566521" flag="0"/>
			<psa10 value="0.00215102999517967" flag="0"/>
			<psa30 value="0.000302194862676704" flag="0"/>
		</comp>
		<comp name="--.HNZ" depth="0.0">
			<acc value="0.015132357050136" flag="0"/>
			<vel value="0.00187008645859" flag="0"/>
			<psa03 value="0.00655576045882976" flag="0"/>
			<psa10 value="0.001064494892564" flag="0"/>
			<psa30 value="0.00019421662891943" flag="0"/>
		</comp>
	</station>
	<station code="LAM2" name="LAM2" netid="HI" source="ITSAK Strong Motion Network" insttype="" lat="38.90203" lon="22.431301">
		<comp name="--.HNE" depth="0.0">
			<acc value="0.0032378664439218" flag="0"/>
			<vel value="0.00179959911324" flag="0"/>
			<psa03 value="0.0125504629169832" flag="0"/>
			<psa10 value="0.00188297981629562" flag="0"/>
			<psa30 value="0.000260040299310451" flag="0"/>
		</comp>
		<comp name="--.HNN" depth="0.0">
			<acc value="0.0045820265759928" flag="0"/>
			<vel value="0.00222248702069" flag="0"/>
			<psa03 value="0.00725124403122019" flag="0"/>
			<psa10 value="0.00193551845297345" flag="0"/>
			<psa30 value="0.00036151803733724" flag="0"/>
		</comp>
		<comp name="--.HNZ" depth="0.0">
			<acc value="0.0058309261819404" flag="0"/>
			<vel value="0.00126441319486" flag="0"/>
			<psa03 value="0.00279929286128965" flag="0"/>
			<psa10 value="0.00142965669992856" flag="0"/>
			<psa30 value="0.000275964921946677" flag="0"/>
		</comp>
	</station>
	<station code="LEF2" name="LEF2" netid="HI" source="ITSAK Strong Motion Network" insttype="" lat="38.830093" lon="20.708346">
		<comp name="--.HNE" depth="0.0">
			<acc value="0.064597919786976" flag="0"/>
			<vel value="0.0328088101834" flag="0"/>
			<psa03 value="0.170215036327377" flag="0"/>
			<psa10 value="0.0243076065096554" flag="0"/>
			<psa30 value="0.00299947932578627" flag="0"/>
		</comp>
		<comp name="--.HNN" depth="0.0">
			<acc value="0.050529515267772" flag="0"/>
			<vel value="0.0265983071857" flag="0"/>
			<psa03 value="0.166769172639084" flag="0"/>
			<psa10 value="0.0277665225208643" flag="0"/>
			<psa30 value="0.00187407644003521" flag="0"/>
		</comp>
		<comp name="--.HNZ" depth="0.0">
			<acc value="0.037023344475594" flag="0"/>
			<vel value="0.0176396170433" flag="0"/>
			<psa03 value="0.106231891508313" flag="0"/>
			<psa10 value="0.0215465648541824" flag="0"/>
			<psa30 value="0.000928743087173718" flag="0"/>
		</comp>
	</station>
	<station code="LXR2" name="LXR2" netid="HI" source="ITSAK Strong Motion Network" insttype="" lat="38.206718" lon="20.436386">
		<comp name="--.HNE" depth="0.0">
			<acc value="2.5617475954284" flag="0"/>
			<vel value="0.296877949664" flag="0"/>
			<psa03 value="0.848823813743224" flag="0"/>
			<psa10 value="0.0761199625738881" flag="0"/>
			<psa30 value="0.00627911221038173" flag="0"/>
		</comp>
		<comp name="--.HNN" depth="0.0">
			<acc value="3.8123219476074" flag="0"/>
			<vel value="0.69775568198" flag="0"/>
			<psa03 value="1.21431352564581" flag="0"/>
			<psa10 value="0.197830600306224" flag="0"/>
			<psa30 value="0.0149703533791071" flag="0"/>
		</comp>
		<comp name="--.HNZ" depth="0.0">
			<acc value="2.1855532372032" flag="0"/>
			<vel value="0.236994494415" flag="0"/>
			<psa03 value="0.512754759153292" flag="0"/>
			<psa10 value="0.0405417194398384" flag="0"/>
			<psa30 value="0.00324947109484468" flag="0"/>
		</comp>
	</station>
	<station code="MSL1" name="MSL1" netid="HI" source="ITSAK Strong Motion Network" insttype="" lat="38.3727" lon="21.4243">
		<comp name="--.HNE" depth="0.0">
			<acc value="0.053059071748962" flag="0"/>
			<vel value="0.0274190575301" flag="0"/>
			<psa03 value="0.18383501150042" flag="0"/>
			<psa10 value="0.0402103512384439" flag="0"/>
			<psa30 value="0.0015951270235035" flag="0"/>
