<?xml version="1.0" encoding="UTF-8" standalone="yes"?>
<!DOCTYPE earthquake SYSTEM "stationlist.dtd">
<stationlist created="" xmlns="ch.ethz.sed.shakemap.usgs.xml">
  <station code="BNN" name="BNN" netid="KO" insttype="CMG-3T" lat="38.8521" lon="35.8472">
    <comp name="--.HHE">
      <acc value="0.0658939800" flag="0"/>
      <vel value="0.0406547404" flag="0"/>
      <psa03 value="0.2105287490" flag="0"/>
      <psa10 value="0.0478165318" flag="0"/>
      <psa30 value="0.0028273763" flag="0"/>
    </comp>
    <comp name="--.HHN">
      <acc value="0.0478606283" flag="0"/>
      <vel value="0.0418387810" flag="0"/>
      <psa03 value="0.0945943724" flag="0"/>
      <psa10 value="0.0640581131" flag="0"/>
      <psa30 value="0.0063819315" flag="0"/>
    </comp>
    <comp name="--.HHZ">
      <acc value="0.0344320414" flag="0"/>
      <vel value="0.0278602268" flag="0"/>
      <psa03 value="0.0945558946" flag="0"/>
      <psa10 value="0.0394719236" flag="0"/>
      <psa30 value="0.0027906803" flag="0"/>
    </comp>
  </station>
  <station code="DARE" name="DARE" netid="KO" insttype="CMG-3ESP" lat="38.5712" lon="37.4832">
    <comp name="--.HHE">
      <acc value="0.1285050970" flag="0"/>
      <vel value="0.0411869919" flag="0"/>
      <psa03 value="0.1277247048" flag="0"/>
      <psa10 value="0.0662103408" flag="0"/>
      <psa30 value="0.0037031638" flag="0"/>
    </comp>
    <comp name="--.HHN">
      <acc value="0.1430301194" flag="0"/>
      <vel value="0.0408048770" flag="0"/>
      <psa03 value="0.1874344101" flag="0"/>
      <psa10 value="0.0609235112" flag="0"/>
      <psa30 value="0.0053261218" flag="0"/>
    </comp>
    <comp name="--.HHZ">
      <acc value="0.0782250161" flag="0"/>
      <vel value="0.0502370172" flag="0"/>
      <psa03 value="0.1067669252" flag="0"/>
      <psa10 value="0.0482378033" flag="0"/>
      <psa30 value="0.0046090389" flag="0"/>
    </comp>
  </station>
  <station code="GAZ" name="GAZ" netid="KO" insttype="CMG-3T" lat="37.1721" lon="37.2096">
    <comp name="--.HHZ">
      <acc value="0.0255128258" flag="0"/>
      <vel value="0.0168987631" flag="0"/>
      <psa03 value="0.0718279495" flag="0"/>
      <psa10 value="0.0278440544" flag="0"/>
      <psa30 value="0.0031316259" flag="0"/>
    </comp>
    <comp name="--.HHE">
      <acc value="0.0298614772" flag="0"/>
      <vel value="0.0270757630" flag="0"/>
      <psa03 value="0.0777104288" flag="0"/>
      <psa10 value="0.0433262675" flag="0"/>
      <psa30 value="0.0048084556" flag="0"/>
    </comp>
    <comp name="--.HHN">
      <acc value="0.0330259001" flag="0"/>
      <vel value="0.0314011255" flag="0"/>
      <psa03 value="0.1130760803" flag="0"/>
      <psa10 value="0.0272924915" flag="0"/>
      <psa30 value="0.0050090206" flag="0"/>
    </comp>
  </station>
  <station code="ANDN" name="ANDN" netid="TU" insttype="T" lat="37.58" lon="36.3452">
    <comp name="--.HHN">
      <acc value="0.2367570929" flag="0"/>
      <vel value="0.1615977104" flag="0"/>
      <psa03 value="0.9017959597" flag="0"/>
      <psa10 value="0.2717716571" flag="0"/>
      <psa30 value="0.0172575420" flag="0"/>
    </comp>
    <comp name="--.HHZ">
      <acc value="0.1431697195" flag="0"/>
      <vel value="0.1477628941" flag="0"/>
      <psa03 value="0.4775548437" flag="0"/>
      <psa10 value="0.2988184323" flag="0"/>
      <psa30 value="0.0192795719" flag="0"/>
    </comp>
    <comp name="--.HHE">
      <acc value="0.1612673778" flag="0"/>
      <vel value="0.1021884326" flag="0"/>
      <psa03 value="0.3978720873" flag="0"/>
      <psa10 value="0.1484657763" flag="0"/>
      <psa30 value="0.0137065122" flag="0"/>
    </comp>
  </station>
</stationlist>
