<?xml version="1.0" encoding="UTF-8" standalone="yes"?>
<!DOCTYPE earthquake SYSTEM "stationlist.dtd">
<stationlist created="" xmlns="ch.ethz.sed.shakemap.usgs.xml">
  <station code="BNN" name="BNN" netid="KO" insttype="CMG-3T" lat="38.8521" lon="35.8472">
    <comp name="--.HHE">
      <acc value="0.0658939802" flag="0"/>
      <vel value="0.0406547409" flag="0"/>
      <psa03 value="0.2105287490" flag="0"/>
      <psa10 value="0.0478165318" flag="0"/>
      <psa30 value="0.0028273365" flag="0"/>
    </comp>
    <comp name="--.HHN">
      <acc value="0.0478606283" flag="0"/>
      <vel value="0.0418387803" flag="0"/>
      <psa03 value="0.0945943724" flag="0"/>
      <psa10 value="0.0640581132" flag="0"/>
      <psa30 value="0.0063819301" flag="0"/>
    </comp>
    <comp name="--.HHZ">
      <acc value="0.0344320413" flag="0"/>
      <vel value="0.0278602393" flag="0"/>
      <psa03 value="0.0945558946" flag="0"/>
      <psa10 value="0.0394719237" flag="0"/>
      <psa30 value="0.0027908739" flag="0"/>
    </comp>
  </station>
  <station code="DARE" name="DARE" netid="KO" insttype="CMG-3ESP" lat="38.5712" lon="37.4832">
    <comp name="--.HHZ">
      <acc value="0.0782250161" flag="0"/>
      <vel value="0.0502370164" flag="0"/>
      <psa03 value="0.1067669252" flag="0"/>
      <psa10 value="0.0482378033" flag="0"/>
      <psa30 value="0.0046090227" flag="0"/>
    </comp>
    <comp name="--.HHE">
      <acc value="0.1285050970" flag="0"/>
      <vel value="0.0411869928" flag="0"/>
      <psa03 value="0.1277247048" flag="0"/>
      <psa10 value="0.0662103408" flag="0"/>
      <psa30 value="0.0037031597" flag="0"/>
    </comp>
    <comp name="--.HHN">
      <acc value="0.1430301194" flag="0"/>
      <vel value="0.0408048763" flag="0"/>
      <psa03 value="0.1874344101" flag="0"/>
      <psa10 value="0.0609235112" flag="0"/>
      <psa30 value="0.0053261214" flag="0"/>
    </comp>
  </station>
  <station code="ANDN" name="ANDN" netid="TU" insttype="T" lat="37.58" lon="36.3452">
    <comp name="--.HHZ">
      <acc value="0.1431697195" flag="0"/>
      <vel value="0.1477628946" flag="0"/>
      <psa03 value="0.4775548437" flag="0"/>
      <psa10 value="0.2988184323" flag="0"/>
      <psa30 value="0.0192795791" flag="0"/>
    </comp>
    <comp name="--.HHE">
      <acc value="0.1612673778" flag="0"/>
      <vel value="0.1021884324" flag="0"/>
      <psa03 value="0.3978720873" flag="0"/>
      <psa10 value="0.1484657763" flag="0"/>
      <psa30 value="0.0137065303" flag="0"/>
    </comp>
    <comp name="--.HHN">
      <acc value="0.2367570931" flag="0"/>
      <vel value="0.1615977103" flag="0"/>
      <psa03 value="0.9017959597" flag="0"/>
      <psa10 value="0.2717716571" flag="0"/>
      <psa30 value="0.0172575592" flag="0"/>
    </comp>
  </station>
</stationlist>
