<?xml version="1.0" encoding="UTF-8" standalone="yes"?>
<!DOCTYPE earthquake SYSTEM "stationlist.dtd">
<stationlist created="" xmlns="ch.ethz.sed.shakemap.usgs.xml">
  <station code="JMIC" name="JMIC" netid="NO" insttype="STS-2" commtype="DIG" lat="70.9866" lon="-8.5057">
    <comp name="00.HHE">
      <acc value="0.1120355034" flag="0"/>
      <vel value="0.0337471950" flag="0"/>
      <psa03 value="0.1803427965" flag="0"/>
      <psa10 value="0.0144029990" flag="0"/>
      <psa30 value="0.0025476486" flag="0"/>
    </comp>
    <comp name="00.HHN">
      <acc value="0.1462594651" flag="0"/>
      <vel value="0.0695103066" flag="0"/>
      <psa03 value="0.2613786805" flag="0"/>
      <psa10 value="0.0336440567" flag="0"/>
      <psa30 value="0.0038381615" flag="0"/>
    </comp>
    <comp name="00.HHZ">
      <acc value="0.0596896494" flag="0"/>
      <vel value="0.0175899382" flag="0"/>
      <psa03 value="0.1513128259" flag="0"/>
      <psa10 value="0.0114537230" flag="0"/>
      <psa30 value="0.0022885104" flag="0"/>
    </comp>
  </station>
  <station code="JMI" name="JMI" netid="NS" insttype="" commtype="DIG" lat="70.9268" lon="-8.72667">
    <comp name="00.HHE">
      <acc value="0.1053704039" flag="0"/>
      <vel value="0.0412613428" flag="0"/>
      <psa03 value="0.1618346072" flag="0"/>
      <psa10 value="0.0277222824" flag="0"/>
      <psa30 value="0.0019918410" flag="0"/>
    </comp>
    <comp name="00.HHZ">
      <acc value="0.0645946054" flag="0"/>
      <vel value="0.0277929749" flag="0"/>
      <psa03 value="0.2308944141" flag="0"/>
      <psa10 value="0.0214312859" flag="0"/>
      <psa30 value="0.0020170225" flag="0"/>
    </comp>
    <comp name="00.HHN">
      <acc value="0.0954268528" flag="0"/>
      <vel value="0.0517316190" flag="0"/>
      <psa03 value="0.2031884409" flag="0"/>
      <psa10 value="0.0210509615" flag="0"/>
      <psa30 value="0.0024201483" flag="0"/>
    </comp>
  </station>
  <station code="JNE" name="JNE" netid="NS" insttype="" commtype="DIG" lat="70.9883" lon="-8.29267">
    <comp name="00.HHE">
      <acc value="0.2954212900" flag="0"/>
      <vel value="0.1209038315" flag="0"/>
      <psa03 value="0.9322151922" flag="0"/>
      <psa10 value="0.0823962778" flag="0"/>
      <psa30 value="0.0081545608" flag="0"/>
    </comp>
    <comp name="00.HHN">
      <acc value="0.3601079676" flag="0"/>
      <vel value="0.1657871540" flag="0"/>
      <psa03 value="0.8342244051" flag="0"/>
      <psa10 value="0.0737428768" flag="0"/>
      <psa30 value="0.0055869578" flag="0"/>
    </comp>
    <comp name="00.HHZ">
      <acc value="0.1834724723" flag="0"/>
      <vel value="0.0694260385" flag="0"/>
      <psa03 value="0.3686058237" flag="0"/>
      <psa10 value="0.0171301185" flag="0"/>
      <psa30 value="0.0019070239" flag="0"/>
    </comp>
  </station>
  <station code="JNW" name="JNW" netid="NS" insttype="" commtype="DIG" lat="71.0273" lon="-8.42367">
    <comp name="00.HHN">
      <acc value="0.1451591530" flag="0"/>
      <vel value="0.0595374662" flag="0"/>
      <psa03 value="0.3502441290" flag="0"/>
      <psa10 value="0.0670063979" flag="0"/>
      <psa30 value="0.0053274459" flag="0"/>
    </comp>
    <comp name="00.HHE">
      <acc value="0.1273310881" flag="0"/>
      <vel value="0.0465848160" flag="0"/>
      <psa03 value="0.4107731499" flag="0"/>
      <psa10 value="0.0599048241" flag="0"/>
      <psa30 value="0.0032199592" flag="0"/>
    </comp>
    <comp name="00.HHZ">
      <acc value="0.0579836287" flag="0"/>
      <vel value="0.0218474978" flag="0"/>
      <psa03 value="0.1214239788" flag="0"/>
      <psa10 value="0.0200452620" flag="0"/>
      <psa30 value="0.0026389207" flag="0"/>
    </comp>
  </station>
</stationlist>
