<stationlist created="1730557902">
	<station code="RDI1" name="RDI1" netid="HI" source="ITSAK Strong Motion Network" insttype="" lat="36.4514" lon="28.224">
		<comp name=".HNE" depth="0.0">
			<acc value="0.01531906181559" flag="0"/>
			<vel value="0.00624640207529" flag="0"/>
			<psa03 value="0.0490578331739932" flag="0"/>
			<psa10 value="0.00559991081036555" flag="0"/>
			<psa30 value="0.000317876917160534" flag="0"/>
		</comp>
		<comp name=".HNN" depth="0.0">
			<acc value="0.0198058263972" flag="0"/>
			<vel value="0.00734332552722" flag="0"/>
			<psa03 value="0.0635157388561361" flag="0"/>
			<psa10 value="0.00443429515653646" flag="0"/>
			<psa30 value="0.00046436081370997" flag="0"/>
		</comp>
		<comp name=".HNZ" depth="0.0">
			<acc value="0.012298182933228" flag="0"/>
			<vel value="0.00434951088495" flag="0"/>
			<psa03 value="0.0206090032661402" flag="0"/>
			<psa10 value="0.00183103981302443" flag="0"/>
			<psa30 value="0.000269303126468764" flag="0"/>
		</comp>
	</station>
	<station code="RKL1" name="RKL1" netid="HI" source="ITSAK Strong Motion Network" insttype="" lat="36.336699" lon="28.171224">
		<comp name=".HNE" depth="0.0">
			<acc value="0.020096479123158" flag="0"/>
			<vel value="0.00730076754031" flag="0"/>
			<psa03 value="0.0423089616152457" flag="0"/>
			<psa10 value="0.00510723223534008" flag="0"/>
			<psa30 value="0.000321401395431553" flag="0"/>
		</comp>
		<comp name=".HNN" depth="0.0">
			<acc value="0.019349152878684" flag="0"/>
			<vel value="0.00792153997346" flag="0"/>
			<psa03 value="0.0435784467540605" flag="0"/>
			<psa10 value="0.00525849663084045" flag="0"/>
			<psa30 value="0.000356724386448229" flag="0"/>
		</comp>
		<comp name=".HNZ" depth="0.0">
			<acc value="0.018698127330252" flag="0"/>
			<vel value="0.00609473542212" flag="0"/>
			<psa03 value="0.0392406854403226" flag="0"/>
			<psa10 value="0.00167869218168201" flag="0"/>
			<psa30 value="0.000192300824923536" flag="0"/>
		</comp>
	</station>
	<station code="RPN1" name="RPN1" netid="HI" source="ITSAK Strong Motion Network" insttype="" lat="36.448678" lon="28.218047">
		<comp name=".HNE" depth="0.0">
			<acc value="0.022835812945038" flag="0"/>
			<vel value="0.0101634198792" flag="0"/>
			<psa03 value="0.0655417324430707" flag="0"/>
			<psa10 value="0.00376858644723039" flag="0"/>
			<psa30 value="0.00032829557609581" flag="0"/>
		</comp>
		<comp name=".HNN" depth="0.0">
			<acc value="0.030284493174048" flag="0"/>
			<vel value="0.00987346458178" flag="0"/>
			<psa03 value="0.0787538316382808" flag="0"/>
			<psa10 value="0.00414895844187535" flag="0"/>
			<psa30 value="0.00047443814794856" flag="0"/>
		</comp>
		<comp name=".HNZ" depth="0.0">
			<acc value="0.016713653402364" flag="0"/>
			<vel value="0.00413660885155" flag="0"/>
			<psa03 value="0.0238415377181803" flag="0"/>
			<psa10 value="0.00197007558596344" flag="0"/>
			<psa30 value="0.000250169306864016" flag="0"/>
		</comp>
	</station>
</stationlist>
