<stationlist created="1778637342">
	<station code="RDI1" name="RDI1" netid="HI" source="ITSAK Strong Motion Network" insttype="" lat="36.4514" lon="28.224">
		<comp name="--.HNE" depth="0.0">
			<acc value="0.0153617267959053" flag="0"/>
			<vel value="0.0062810020954601" flag="0"/>
			<psa03 value="0.0490578331739932" flag="0"/>
			<psa10 value="0.00559991081036555" flag="0"/>
			<psa30 value="0.000317876917160534" flag="0"/>
		</comp>
		<comp name="--.HNN" depth="0.0">
			<acc value="0.0198660368692219" flag="0"/>
			<vel value="0.00736160063477734" flag="0"/>
			<psa03 value="0.0635157388561361" flag="0"/>
			<psa10 value="0.00443429515653646" flag="0"/>
			<psa30 value="0.00046436081370997" flag="0"/>
		</comp>
		<comp name="--.HNZ" depth="0.0">
			<acc value="0.0124265782902358" flag="0"/>
			<vel value="0.00436060391536959" flag="0"/>
			<psa03 value="0.0206090032661402" flag="0"/>
			<psa10 value="0.00183103981302443" flag="0"/>
			<psa30 value="0.000269303126468764" flag="0"/>
		</comp>
	</station>
	<station code="RKL1" name="RKL1" netid="HI" source="ITSAK Strong Motion Network" insttype="" lat="36.336699" lon="28.171224">
		<comp name="--.HNE" depth="0.0">
			<acc value="0.0202049446087223" flag="0"/>
			<vel value="0.00733054863186945" flag="0"/>
			<psa03 value="0.0423089616152457" flag="0"/>
			<psa10 value="0.00510723223534008" flag="0"/>
			<psa30 value="0.000321401395431553" flag="0"/>
		</comp>
		<comp name="--.HNN" depth="0.0">
			<acc value="0.019394436506655" flag="0"/>
			<vel value="0.00794966761784387" flag="0"/>
			<psa03 value="0.0435784467540605" flag="0"/>
			<psa10 value="0.00525849663084045" flag="0"/>
			<psa30 value="0.000356724386448229" flag="0"/>
		</comp>
		<comp name="--.HNZ" depth="0.0">
			<acc value="0.01884757426649" flag="0"/>
			<vel value="0.00612378888145894" flag="0"/>
			<psa03 value="0.0392406854403226" flag="0"/>
			<psa10 value="0.00167869218168201" flag="0"/>
			<psa30 value="0.000192300824923536" flag="0"/>
		</comp>
	</station>
	<station code="RPN1" name="RPN1" netid="HI" source="ITSAK Strong Motion Network" insttype="" lat="36.448678" lon="28.218047">
		<comp name="--.HNE" depth="0.0">
			<acc value="0.0229488940278633" flag="0"/>
			<vel value="0.010194253197787" flag="0"/>
			<psa03 value="0.0655417324430707" flag="0"/>
			<psa10 value="0.00376858644723039" flag="0"/>
			<psa30 value="0.00032829557609581" flag="0"/>
		</comp>
		<comp name="--.HNN" depth="0.0">
			<acc value="0.0303471662698688" flag="0"/>
			<vel value="0.00991655909221124" flag="0"/>
			<psa03 value="0.0787538316382808" flag="0"/>
			<psa10 value="0.00414895844187535" flag="0"/>
			<psa30 value="0.00047443814794856" flag="0"/>
		</comp>
		<comp name="--.HNZ" depth="0.0">
			<acc value="0.017119233318166" flag="0"/>
			<vel value="0.00416408151738096" flag="0"/>
			<psa03 value="0.0238415377181803" flag="0"/>
			<psa10 value="0.00197007558596344" flag="0"/>
			<psa30 value="0.000250169306864016" flag="0"/>
		</comp>
	</station>
	<station code="RODB" name="RODB" netid="HL" source="National Observatory of Athens Seismic Network" insttype="" lat="36.4471" lon="28.22116">
		<comp name="00.HNE" depth="0.0">
			<acc value="0.0119306904662265" flag="0"/>
			<vel value="0.006590354252111" flag="0"/>
			<psa03 value="0.0456160895503204" flag="0"/>
			<psa10 value="0.00389868912839485" flag="0"/>
			<psa30 value="0.000450749964137702" flag="0"/>
		</comp>
		<comp name="00.HNN" depth="0.0">
			<acc value="0.0188304701181598" flag="0"/>
			<vel value="0.00672164754836748" flag="0"/>
			<psa03 value="0.0670263724598086" flag="0"/>
			<psa10 value="0.00366585612622895" flag="0"/>
			<psa30 value="0.000307801952868755" flag="0"/>
		</comp>
		<comp name="00.HNZ" depth="0.0">
			<acc value="0.0175995031400914" flag="0"/>
			<vel value="0.00431454439387173" flag="0"/>
			<psa03 value="0.0201044789584925" flag="0"/>
			<psa10 value="0.00185923582149828" flag="0"/>
			<psa30 value="0.000230248742432296" flag="0"/>
		</comp>
	</station>
</stationlist>
