<?xml version="1.0" encoding="UTF-8" standalone="yes"?>
<!DOCTYPE earthquake SYSTEM "stationlist.dtd">
<stationlist created="" xmlns="ch.ethz.sed.shakemap.usgs.xml">
  <station code="DALY" name="DALY" netid="KO" insttype="CMG-3T" lat="36.8162" lon="28.6532">
    <comp name="--.HHE">
      <acc value="0.0105336582" flag="0"/>
      <vel value="0.0041072526" flag="0"/>
      <psa03 value="0.0207137285" flag="0"/>
      <psa10 value="0.0026343850" flag="0"/>
      <psa30 value="0.0001648449" flag="0"/>
    </comp>
    <comp name="--.HHZ">
      <acc value="0.0118706397" flag="0"/>
      <vel value="0.0037147574" flag="0"/>
      <psa03 value="0.0134764612" flag="0"/>
      <psa10 value="0.0019920877" flag="0"/>
      <psa30 value="0.0001057851" flag="0"/>
    </comp>
  </station>
  <station code="FETY" name="FETY" netid="KO" insttype="CMG-3ESP" lat="36.6353" lon="29.0835">
    <comp name="--.HHZ">
      <acc value="0.0435813018" flag="0"/>
      <vel value="0.0040848317" flag="0"/>
      <psa03 value="0.0205677163" flag="0"/>
      <psa10 value="0.0018897824" flag="0"/>
      <psa30 value="0.0001589492" flag="0"/>
    </comp>
  </station>
</stationlist>
