<stationlist created="1778069536">
	<station code="ARPRA" name="ARPRA" netid="KO" source="Bogazici University Kandilli Observatory And Earthquake Research Institute (KOERI)" insttype="" lat="39.0929" lon="38.3356">
		<comp name="--.HNE" depth="0.0">
			<acc value="0.0235822915733507" flag="0"/>
			<vel value="0.0128778083649061" flag="0"/>
			<psa03 value="0.0587465172897908" flag="0"/>
			<psa10 value="0.0179756289309569" flag="0"/>
			<psa30 value="0.000996408941388912" flag="0"/>
		</comp>
		<comp name="--.HNN" depth="0.0">
			<acc value="0.021647862656817" flag="0"/>
			<vel value="0.0148356138413264" flag="0"/>
			<psa03 value="0.0580753841905167" flag="0"/>
			<psa10 value="0.0111018837281918" flag="0"/>
			<psa30 value="0.00105860060858831" flag="0"/>
		</comp>
		<comp name="--.HNZ" depth="0.0">
			<acc value="0.013071445187915" flag="0"/>
			<vel value="0.00626697381490655" flag="0"/>
			<psa03 value="0.027158519417291" flag="0"/>
			<psa10 value="0.00831533910000581" flag="0"/>
			<psa30 value="0.000743615473995676" flag="0"/>
		</comp>
	</station>
</stationlist>
