<?xml version="1.0" encoding="UTF-8" standalone="yes"?>
<!DOCTYPE earthquake SYSTEM "stationlist.dtd">
<stationlist created="" xmlns="ch.ethz.sed.shakemap.usgs.xml">
  <station code="KARO" name="KARO" netid="KO" insttype="120s," lat="39.3089" lon="41.0493">
    <comp name="--.HHE">
      <acc value="0.0463285142" flag="0"/>
      <vel value="0.0259806767" flag="0"/>
      <psa03 value="0.1571992132" flag="0"/>
      <psa10 value="0.0503579790" flag="0"/>
      <psa30 value="0.0029494352" flag="0"/>
    </comp>
    <comp name="--.HHN">
      <acc value="0.0405061643" flag="0"/>
      <vel value="0.0387486501" flag="0"/>
      <psa03 value="0.1378201847" flag="0"/>
      <psa10 value="0.0578993875" flag="0"/>
      <psa30 value="0.0028755853" flag="0"/>
    </comp>
    <comp name="--.HHZ">
      <acc value="0.0321315381" flag="0"/>
      <vel value="0.0160970791" flag="0"/>
      <psa03 value="0.1023120025" flag="0"/>
      <psa10 value="0.0185760098" flag="0"/>
      <psa30 value="0.0014995412" flag="0"/>
    </comp>
  </station>
</stationlist>
