<stationlist created="1741951945">
	<station code="BODA" name="BODA" netid="KO" source="Bogazici University Kandilli Observatory And Earthquake Research Institute (KOERI)" insttype="" lat="37.0348" lon="27.4304">
		<comp name=".HNE" depth="0.0">
			<acc value="0.0040234826393988" flag="0"/>
			<vel value="0.00154062554568" flag="0"/>
			<psa03 value="0.00926714905941199" flag="0"/>
			<psa10 value="0.00139548045154536" flag="0"/>
			<psa30 value="0.000206494239125951" flag="0"/>
		</comp>
		<comp name=".HNN" depth="0.0">
			<acc value="0.0051197050782024" flag="0"/>
			<vel value="0.0022868533443" flag="0"/>
			<psa03 value="0.0110103765188097" flag="0"/>
			<psa10 value="0.00201212594971924" flag="0"/>
			<psa30 value="0.000219962019320817" flag="0"/>
		</comp>
		<comp name=".HNZ" depth="0.0">
			<acc value="0.013287946510392" flag="0"/>
			<vel value="0.00171447883907" flag="0"/>
			<psa03 value="0.00227293979636833" flag="0"/>
			<psa10 value="0.00121422906952864" flag="0"/>
			<psa30 value="0.000189633812309242" flag="0"/>
		</comp>
	</station>
	<station code="BODM" name="BODM" netid="KO" source="Bogazici University Kandilli Observatory And Earthquake Research Institute (KOERI)" insttype="" lat="37.031" lon="27.4247">
		<comp name=".HNE" depth="0.0">
			<acc value="0.0049103485419702" flag="0"/>
			<vel value="0.00306477030028" flag="0"/>
			<psa03 value="0.0139187241305096" flag="0"/>
			<psa10 value="0.00200048986638738" flag="0"/>
			<psa30 value="0.000217324097175631" flag="0"/>
		</comp>
		<comp name=".HNN" depth="0.0">
			<acc value="0.0093407697402888" flag="0"/>
			<vel value="0.00656191182212" flag="0"/>
			<psa03 value="0.0212489753486835" flag="0"/>
			<psa10 value="0.0029998999005218" flag="0"/>
			<psa30 value="0.000325994616376571" flag="0"/>
		</comp>
		<comp name=".HNZ" depth="0.0">
			<acc value="0.0039573553295808" flag="0"/>
			<vel value="0.000934428285713" flag="0"/>
			<psa03 value="0.00271303291522086" flag="0"/>
			<psa10 value="0.00110570496627719" flag="0"/>
			<psa30 value="0.000208558581607615" flag="0"/>
		</comp>
	</station>
	<station code="CESE" name="CESE" netid="KO" source="Bogazici University Kandilli Observatory And Earthquake Research Institute (KOERI)" insttype="" lat="38.3306" lon="26.2997">
		<comp name=".HNE" depth="0.0">
			<acc value="0.083689331133426" flag="0"/>
			<vel value="0.00499743374775" flag="0"/>
			<psa03 value="0.00392320878655935" flag="0"/>
			<psa10 value="0.00141762355904193" flag="0"/>
			<psa30 value="0.000738325993806435" flag="0"/>
		</comp>
		<comp name=".HNN" depth="0.0">
			<acc value="0.069166395181692" flag="0"/>
			<vel value="0.00479729263604" flag="0"/>
			<psa03 value="0.00578736124885974" flag="0"/>
			<psa10 value="0.00175725390944906" flag="0"/>
			<psa30 value="0.00074437243602069" flag="0"/>
		</comp>
		<comp name=".HNZ" depth="0.0">
			<acc value="0.013785723951576" flag="0"/>
			<vel value="0.0014865131913" flag="0"/>
			<psa03 value="0.00297248141751282" flag="0"/>
			<psa10 value="0.00143946160726603" flag="0"/>
			<psa30 value="0.000398433503639311" flag="0"/>
		</comp>
	</station>
	<station code="DATC" name="DATC" netid="KO" source="Bogazici University Kandilli Observatory And Earthquake Research Institute (KOERI)" insttype="" lat="36.7584" lon="27.6602">
		<comp name=".HNE" depth="0.0">
			<acc value="0.030786990512742" flag="0"/>
			<vel value="0.00367472148677" flag="0"/>
			<psa03 value="0.00603068726385605" flag="0"/>
			<psa10 value="0.00364496677366158" flag="0"/>
			<psa30 value="0.000711042832265822" flag="0"/>
		</comp>
		<comp name=".HNN" depth="0.0">
			<acc value="0.054336325955082" flag="0"/>
			<vel value="0.0059057633716" flag="0"/>
			<psa03 value="0.00701960694159524" flag="0"/>
			<psa10 value="0.006884478250386" flag="0"/>
			<psa30 value="0.000601183054593405" flag="0"/>
		</comp>
		<comp name=".HNZ" depth="0.0">
			<acc value="0.048890664168288" flag="0"/>
			<vel value="0.007640221117" flag="0"/>
			<psa03 value="0.00788559074104626" flag="0"/>
			<psa10 value="0.00385417110116885" flag="0"/>
			<psa30 value="0.000656016009924428" flag="0"/>
		</comp>
	</station>
	<station code="DIDI" name="DIDI" netid="KO" source="Bogazici University Kandilli Observatory And Earthquake Research Institute (KOERI)" insttype="" lat="37.3767" lon="27.2398">
		<comp name=".HNE" depth="0.0">
			<acc value="0.032145947022822" flag="0"/>
			<vel value="0.00648477884727" flag="0"/>
			<psa03 value="0.0250445549121905" flag="0"/>
			<psa10 value="0.00637272825571407" flag="0"/>
			<psa30 value="0.00147336822841294" flag="0"/>
		</comp>
		<comp name=".HNN" depth="0.0">
			<acc value="0.033113609339844" flag="0"/>
			<vel value="0.00752271270992" flag="0"/>
			<psa03 value="0.023209514078889" flag="0"/>
			<psa10 value="0.00957823107328406" flag="0"/>
			<psa30 value="0.00141950747290567" flag="0"/>
		</comp>
		<comp name=".HNZ" depth="0.0">
			<acc value="0.070581245779578" flag="0"/>
			<vel value="0.00896142781943" flag="0"/>
			<psa03 value="0.0143915367019988" flag="0"/>
			<psa10 value="0.00591453087116041" flag="0"/>
			<psa30 value="0.000666351850874629" flag="0"/>
		</comp>
	</station>
	<station code="GMLD" name="GMLD" netid="KO" source="Bogazici University Kandilli Observatory And Earthquake Research Institute (KOERI)" insttype="" lat="38.0766" lon="26.9157">
		<comp name=".HNE" depth="0.0">
			<acc value="0.011691832832976" flag="0"/>
			<vel value="0.00594699575878" flag="0"/>
			<psa03 value="0.0199214772521973" flag="0"/>
			<psa10 value="0.00605751940593179" flag="0"/>
			<psa30 value="0.000343113797313635" flag="0"/>
		</comp>
		<comp name=".HNN" depth="0.0">
			<acc value="0.012232592750412" flag="0"/>
			<vel value="0.00538424538591" flag="0"/>
			<psa03 value="0.0190074219088251" flag="0"/>
			<psa10 value="0.00749020947085345" flag="0"/>
			<psa30 value="0.000445866776069182" flag="0"/>
		</comp>
		<comp name=".HNZ" depth="0.0">
			<acc value="0.007342991646462" flag="0"/>
			<vel value="0.00249243040008" flag="0"/>
			<psa03 value="0.0141764339108497" flag="0"/>
			<psa10 value="0.00231335317017084" flag="0"/>
			<psa30 value="0.000341886242035859" flag="0"/>
		</comp>
	</station>
	<station code="KUSD" name="KUSD" netid="KO" source="Bogazici University Kandilli Observatory And Earthquake Research Institute (KOERI)" insttype="" lat="37.8606" lon="27.2868">
		<comp name=".HNE" depth="0.0">
			<acc value="0.01214963829945" flag="0"/>
			<vel value="0.001571539665" flag="0"/>
			<psa03 value="0.00471022283643141" flag="0"/>
			<psa10 value="0.00166067364429259" flag="0"/>
			<psa30 value="0.000351757963697041" flag="0"/>
		</comp>
		<comp name=".HNN" depth="0.0">
			<acc value="0.033588013820994" flag="0"/>
			<vel value="0.00240667313084" flag="0"/>
			<psa03 value="0.00437968303615133" flag="0"/>
			<psa10 value="0.0025123987778404" flag="0"/>
			<psa30 value="0.00034466439482472" flag="0"/>
		</comp>
		<comp name=".HNZ" depth="0.0">
			<acc value="0.0072502796219076" flag="0"/>
			<vel value="0.00113980672382" flag="0"/>
			<psa03 value="0.00265778234758727" flag="0"/>
			<psa10 value="0.00110617445050398" flag="0"/>
			<psa30 value="0.00029244528452329" flag="0"/>
		</comp>
	</station>
	<station code="YKAV" name="YKAV" netid="KO" source="Bogazici University Kandilli Observatory And Earthquake Research Institute (KOERI)" insttype="" lat="37.1246" lon="27.2801">
		<comp name=".HNE" depth="0.0">
			<acc value="0.0089778456232308" flag="0"/>
			<vel value="0.00356220104266" flag="0"/>
			<psa03 value="0.0142491001829755" flag="0"/>
			<psa10 value="0.00495276372127093" flag="0"/>
			<psa30 value="0.000428321212719921" flag="0"/>
		</comp>
		<comp name=".HNN" depth="0.0">
			<acc value="0.006730474716939" flag="0"/>
			<vel value="0.00246963771715" flag="0"/>
			<psa03 value="0.00748826103450589" flag="0"/>
			<psa10 value="0.00335025396913399" flag="0"/>
			<psa30 value="0.000395589955893155" flag="0"/>
		</comp>
		<comp name=".HNZ" depth="0.0">
			<acc value="0.0054655329451908" flag="0"/>
			<vel value="0.0018599784837" flag="0"/>
			<psa03 value="0.00874163768436704" flag="0"/>
			<psa10 value="0.00205498730470018" flag="0"/>
			<psa30 value="0.000603233815445813" flag="0"/>
		</comp>
	</station>
</stationlist>
