<?xml version="1.0" encoding="UTF-8" standalone="yes"?>
<!DOCTYPE earthquake SYSTEM "stationlist.dtd">
<stationlist created="" xmlns="ch.ethz.sed.shakemap.usgs.xml">
  <station code="APE" name="APE" netid="GE" insttype="STS-2/N" lat="37.0727" lon="25.523">
    <comp name="--.HHZ">
      <acc value="0.0847467353" flag="0"/>
      <vel value="0.0182815625" flag="0"/>
      <psa03 value="0.0759716031" flag="0"/>
      <psa10 value="0.0100707995" flag="0"/>
      <psa30 value="0.0023039321" flag="0"/>
    </comp>
    <comp name="--.HHE">
      <acc value="0.1954481153" flag="0"/>
      <vel value="0.0390054863" flag="0"/>
      <psa03 value="0.1028917449" flag="0"/>
      <psa10 value="0.0141971977" flag="0"/>
      <psa30 value="0.0022091496" flag="0"/>
    </comp>
    <comp name="--.HHN">
      <acc value="0.2041439544" flag="0"/>
      <vel value="0.0523688437" flag="0"/>
      <psa03 value="0.1148440548" flag="0"/>
      <psa10 value="0.0141509857" flag="0"/>
      <psa30 value="0.0026170610" flag="0"/>
    </comp>
  </station>
  <station code="THERA" name="THERA" netid="GE" insttype="STS-2/N" lat="36.367" lon="25.4753">
    <comp name="--.HHZ">
      <acc value="0.1364724361" flag="0"/>
      <vel value="0.0294606921" flag="0"/>
      <psa03 value="0.1124979088" flag="0"/>
      <psa10 value="0.0122221186" flag="0"/>
      <psa30 value="0.0018151991" flag="0"/>
    </comp>
    <comp name="--.HHN">
      <acc value="0.1271705129" flag="0"/>
      <vel value="0.0354893488" flag="0"/>
      <psa03 value="0.1041105794" flag="0"/>
      <psa10 value="0.0098548412" flag="0"/>
      <psa30 value="0.0012152667" flag="0"/>
    </comp>
    <comp name="--.HHE">
      <acc value="0.1690860381" flag="0"/>
      <vel value="0.0384944795" flag="0"/>
      <psa03 value="0.1468510221" flag="0"/>
      <psa10 value="0.0209920628" flag="0"/>
      <psa30 value="0.0028227301" flag="0"/>
    </comp>
  </station>
  <station code="SNT1" name="SNT1" netid="HA" insttype="30" lat="36.4159" lon="25.4282">
    <comp name="--.HHE">
      <acc value="0.1555671610" flag="0"/>
      <vel value="0.0519997532" flag="0"/>
      <psa03 value="0.2042284468" flag="0"/>
      <psa10 value="0.0331914928" flag="0"/>
      <psa30 value="0.0052372719" flag="0"/>
    </comp>
    <comp name="--.HHN">
      <acc value="0.1296067984" flag="0"/>
      <vel value="0.0372676379" flag="0"/>
      <psa03 value="0.1853227721" flag="0"/>
      <psa10 value="0.0250497726" flag="0"/>
      <psa30 value="0.0032913079" flag="0"/>
    </comp>
    <comp name="--.HHZ">
      <acc value="0.1030580133" flag="0"/>
      <vel value="0.0333509527" flag="0"/>
      <psa03 value="0.1318623123" flag="0"/>
      <psa10 value="0.0176647167" flag="0"/>
      <psa30 value="0.0024480725" flag="0"/>
    </comp>
  </station>
  <station code="NAX1" name="NAX1" netid="HI" insttype="CMG-5TD,ACCELEROMETER,GURALP" lat="37.1014" lon="25.3741">
    <comp name="--.HNZ">
      <acc value="0.0839818270" flag="0"/>
      <vel value="0.0179488867" flag="0"/>
      <psa03 value="0.0525019771" flag="0"/>
      <psa10 value="0.0117800968" flag="0"/>
      <psa30 value="0.0014590201" flag="0"/>
    </comp>
    <comp name="--.HNN">
      <acc value="0.1650118550" flag="0"/>
      <vel value="0.0412362456" flag="0"/>
      <psa03 value="0.1200525595" flag="0"/>
      <psa10 value="0.0099538542" flag="0"/>
      <psa30 value="0.0010948697" flag="0"/>
    </comp>
    <comp name="--.HNE">
      <acc value="0.1871552280" flag="0"/>
      <vel value="0.0559805503" flag="0"/>
      <psa03 value="0.2114665639" flag="0"/>
      <psa10 value="0.0129942002" flag="0"/>
      <psa30 value="0.0019008295" flag="0"/>
    </comp>
  </station>
  <station code="SFR2" name="SFR2" netid="HI" insttype="unknown" lat="36.3998" lon="25.4382">
    <comp name="--.HNE">
      <acc value="0.5535654669" flag="0"/>
      <vel value="0.1772915682" flag="0"/>
      <psa03 value="0.6221627886" flag="0"/>
      <psa10 value="0.0691776515" flag="0"/>
      <psa30 value="0.0062738303" flag="0"/>
    </comp>
    <comp name="--.HNZ">
      <acc value="0.4705649132" flag="0"/>
      <vel value="0.1122633218" flag="0"/>
      <psa03 value="0.6102795206" flag="0"/>
      <psa10 value="0.0332424342" flag="0"/>
      <psa30 value="0.0031816658" flag="0"/>
    </comp>
    <comp name="--.HNN">
      <acc value="0.7552327023" flag="0"/>
      <vel value="0.2382741111" flag="0"/>
      <psa03 value="0.7227070809" flag="0"/>
      <psa10 value="0.0662095840" flag="0"/>
      <psa30 value="0.0041369092" flag="0"/>
    </comp>
  </station>
  <station code="AMGA" name="AMGA" netid="HL" insttype="SMART24" lat="36.8316" lon="25.8938">
    <comp name="--.HHZ">
      <acc value="0.4375895961" flag="0"/>
      <vel value="0.0902518399" flag="0"/>
      <psa03 value="0.3112067095" flag="0"/>
      <psa10 value="0.0267225915" flag="0"/>
      <psa30 value="0.0039962209" flag="0"/>
    </comp>
    <comp name="--.HHE">
      <acc value="0.5723756532" flag="0"/>
      <vel value="0.0867213347" flag="0"/>
      <psa03 value="0.2502070679" flag="0"/>
      <psa10 value="0.0268869845" flag="0"/>
      <psa30 value="0.0035508542" flag="0"/>
    </comp>
    <comp name="--.HHN">
      <acc value="0.5171533477" flag="0"/>
      <vel value="0.0785415355" flag="0"/>
      <psa03 value="0.2334307351" flag="0"/>
      <psa10 value="0.0377570335" flag="0"/>
      <psa30 value="0.0051477738" flag="0"/>
    </comp>
  </station>
  <station code="APE" name="APE" netid="HL" insttype="120" lat="37.0727" lon="25.523">
    <comp name="--.HHE">
      <acc value="0.1752521927" flag="0"/>
      <vel value="0.0371848203" flag="0"/>
      <psa03 value="0.0988666610" flag="0"/>
      <psa10 value="0.0140611525" flag="0"/>
      <psa30 value="0.0022030442" flag="0"/>
    </comp>
    <comp name="--.HHN">
      <acc value="0.1936877627" flag="0"/>
      <vel value="0.0491184177" flag="0"/>
      <psa03 value="0.1117820169" flag="0"/>
      <psa10 value="0.0139743366" flag="0"/>
      <psa30 value="0.0025963808" flag="0"/>
    </comp>
    <comp name="--.HHZ">
      <acc value="0.0671581235" flag="0"/>
      <vel value="0.0176497370" flag="0"/>
      <psa03 value="0.0732945003" flag="0"/>
      <psa10 value="0.0099651184" flag="0"/>
      <psa30 value="0.0022967214" flag="0"/>
    </comp>
  </station>
  <station code="MHLO" name="MHLO" netid="HL" insttype="20" lat="36.6898" lon="24.4017">
    <comp name="--.HHE">
      <acc value="0.1607431169" flag="0"/>
      <vel value="0.0705015968" flag="0"/>
      <psa03 value="0.3622699883" flag="0"/>
      <psa10 value="0.0671081189" flag="0"/>
      <psa30 value="0.0032497208" flag="0"/>
    </comp>
    <comp name="--.HHN">
      <acc value="0.1702305271" flag="0"/>
      <vel value="0.0607548983" flag="0"/>
      <psa03 value="0.3228498558" flag="0"/>
      <psa10 value="0.0488655969" flag="0"/>
      <psa30 value="0.0028450802" flag="0"/>
    </comp>
    <comp name="--.HHZ">
      <acc value="0.0653517344" flag="0"/>
      <vel value="0.0249639229" flag="0"/>
      <psa03 value="0.1435028399" flag="0"/>
      <psa10 value="0.0327607048" flag="0"/>
      <psa30 value="0.0020942260" flag="0"/>
    </comp>
  </station>
  <station code="MILA" name="MILA" netid="HL" insttype="CMG-5" lat="36.7429" lon="24.4282">
    <comp name="00.HNN">
      <acc value="0.2174504766" flag="0"/>
      <vel value="0.0790848293" flag="0"/>
      <psa03 value="0.6104777719" flag="0"/>
      <psa10 value="0.0289503510" flag="0"/>
      <psa30 value="0.0024299456" flag="0"/>
    </comp>
    <comp name="00.HNE">
      <acc value="0.1834142704" flag="0"/>
      <vel value="0.0744834798" flag="0"/>
      <psa03 value="0.3225630703" flag="0"/>
      <psa10 value="0.0317755531" flag="0"/>
      <psa30 value="0.0028856721" flag="0"/>
    </comp>
    <comp name="00.HNZ">
      <acc value="0.1838426832" flag="0"/>
      <vel value="0.0549166310" flag="0"/>
      <psa03 value="0.2366607693" flag="0"/>
      <psa10 value="0.0361718137" flag="0"/>
      <psa30 value="0.0017383966" flag="0"/>
    </comp>
  </station>
  <station code="NISR" name="NISR" netid="HL" insttype="65535" lat="36.6106" lon="27.131">
    <comp name="--.HHE">
      <acc value="0.0000000000" flag="0"/>
      <vel value="-100.0000000000" flag="0"/>
      <psa03 value="0.0000000000" flag="0"/>
      <psa10 value="0.0000000000" flag="0"/>
      <psa30 value="0.0000000000" flag="0"/>
    </comp>
    <comp name="--.HHN">
      <acc value="0.0151914984" flag="0"/>
      <vel value="0.0094321988" flag="0"/>
      <psa03 value="0.0304940009" flag="0"/>
      <psa10 value="0.0072039352" flag="0"/>
      <psa30 value="0.0019521997" flag="0"/>
    </comp>
    <comp name="--.HHZ">
      <acc value="0.0104365195" flag="0"/>
      <vel value="0.0041973754" flag="0"/>
      <psa03 value="0.0132480096" flag="0"/>
      <psa10 value="0.0055430345" flag="0"/>
      <psa30 value="0.0004164110" flag="0"/>
    </comp>
  </station>
  <station code="SANT" name="SANT" netid="HL" insttype="30" lat="36.3705" lon="25.4593">
    <comp name="--.HHE">
      <acc value="0.4819702017" flag="0"/>
      <vel value="0.1073773823" flag="0"/>
      <psa03 value="0.2719188305" flag="0"/>
      <psa10 value="0.0301614376" flag="0"/>
      <psa30 value="0.0027101485" flag="0"/>
    </comp>
    <comp name="--.HHN">
      <acc value="0.2685291296" flag="0"/>
      <vel value="0.0457085168" flag="0"/>
      <psa03 value="0.1543803347" flag="0"/>
      <psa10 value="0.0146578946" flag="0"/>
      <psa30 value="0.0025310536" flag="0"/>
    </comp>
    <comp name="--.HHZ">
      <acc value="0.3629354833" flag="0"/>
      <vel value="0.0656888232" flag="0"/>
      <psa03 value="0.2297191372" flag="0"/>
      <psa10 value="0.0146770365" flag="0"/>
      <psa30 value="0.0014987578" flag="0"/>
    </comp>
  </station>
  <station code="SAP3" name="SAP3" netid="HL" insttype="65535" lat="36.4356" lon="25.3454">
    <comp name="--.HHN">
      <acc value="0.2122772956" flag="0"/>
      <vel value="0.0491905018" flag="0"/>
      <psa03 value="0.2018470953" flag="0"/>
      <psa10 value="0.0275030566" flag="0"/>
      <psa30 value="0.0053717170" flag="0"/>
    </comp>
    <comp name="--.HHE">
      <acc value="0.2922831762" flag="0"/>
      <vel value="0.0773161799" flag="0"/>
      <psa03 value="0.1627136721" flag="0"/>
      <psa10 value="0.0492641895" flag="0"/>
      <psa30 value="0.0045667681" flag="0"/>
    </comp>
    <comp name="--.HHZ">
      <acc value="0.2043008362" flag="0"/>
      <vel value="0.0436228643" flag="0"/>
      <psa03 value="0.1615586142" flag="0"/>
      <psa10 value="0.0123076721" flag="0"/>
      <psa30 value="0.0021930376" flag="0"/>
    </comp>
  </station>
  <station code="THERA" name="THERA" netid="HL" insttype="120" lat="36.367" lon="25.4753">
    <comp name="--.HHN">
      <acc value="0.2514302895" flag="0"/>
      <vel value="0.0685634283" flag="0"/>
      <psa03 value="0.2017755380" flag="0"/>
      <psa10 value="0.0193069054" flag="0"/>
      <psa30 value="0.0024216750" flag="0"/>
    </comp>
    <comp name="--.HHE">
      <acc value="0.1671946780" flag="0"/>
      <vel value="0.0375472520" flag="0"/>
      <psa03 value="0.1427726622" flag="0"/>
      <psa10 value="0.0208760518" flag="0"/>
      <psa30 value="0.0028229958" flag="0"/>
    </comp>
    <comp name="--.HHZ">
      <acc value="0.1328393917" flag="0"/>
      <vel value="0.0288988546" flag="0"/>
      <psa03 value="0.1092184524" flag="0"/>
      <psa10 value="0.0120206291" flag="0"/>
      <psa30 value="0.0018143323" flag="0"/>
    </comp>
  </station>
  <station code="THRA" name="THRA" netid="HL" insttype="CMG-5" lat="36.415" lon="25.4324">
    <comp name="00.HNZ">
      <acc value="0.4632378748" flag="0"/>
      <vel value="0.1268721626" flag="0"/>
      <psa03 value="0.6794037147" flag="0"/>
      <psa10 value="0.0500713910" flag="0"/>
      <psa30 value="0.0054715759" flag="0"/>
    </comp>
    <comp name="00.HNE">
      <acc value="0.7565936486" flag="0"/>
      <vel value="0.1902710843" flag="0"/>
      <psa03 value="0.8666048650" flag="0"/>
      <psa10 value="0.0993745497" flag="0"/>
      <psa30 value="0.0083498507" flag="0"/>
    </comp>
    <comp name="00.HNN">
      <acc value="0.5341378615" flag="0"/>
      <vel value="0.1984313998" flag="0"/>
      <psa03 value="1.1137298669" flag="0"/>
      <psa10 value="0.1161303749" flag="0"/>
      <psa30 value="0.0074001360" flag="0"/>
    </comp>
  </station>
  <station code="TNSA" name="TNSA" netid="HL" insttype="CMG-5" lat="37.5394" lon="25.1631">
    <comp name="00.HNZ">
      <acc value="0.0645114477" flag="0"/>
      <vel value="0.0297743109" flag="0"/>
      <psa03 value="0.0758640454" flag="0"/>
      <psa10 value="0.0088961124" flag="0"/>
      <psa30 value="0.0011088036" flag="0"/>
    </comp>
    <comp name="00.HNN">
      <acc value="0.0800912332" flag="0"/>
      <vel value="0.0239379164" flag="0"/>
      <psa03 value="0.0997410241" flag="0"/>
      <psa10 value="0.0100478800" flag="0"/>
      <psa30 value="0.0008571643" flag="0"/>
    </comp>
    <comp name="00.HNE">
      <acc value="0.0767020850" flag="0"/>
      <vel value="0.0237889585" flag="0"/>
      <psa03 value="0.0953877273" flag="0"/>
      <psa10 value="0.0059709994" flag="0"/>
      <psa30 value="0.0008064357" flag="0"/>
    </comp>
  </station>
  <station code="AKRO" name="AKRO" netid="HT" insttype="Compact," lat="36.3584" lon="25.3967">
    <comp name="--.HHE">
      <acc value="0.9639153574" flag="0"/>
      <vel value="0.2385439675" flag="0"/>
      <psa03 value="0.9577734522" flag="0"/>
      <psa10 value="0.0620059603" flag="0"/>
      <psa30 value="0.0047296268" flag="0"/>
    </comp>
    <comp name="--.HHN">
      <acc value="0.5913129678" flag="0"/>
      <vel value="0.1305513287" flag="0"/>
      <psa03 value="0.4690932671" flag="0"/>
      <psa10 value="0.0589835755" flag="0"/>
      <psa30 value="0.0028025308" flag="0"/>
    </comp>
    <comp name="--.HHZ">
      <acc value="0.3022154110" flag="0"/>
      <vel value="0.0926406499" flag="0"/>
      <psa03 value="0.3523095372" flag="0"/>
      <psa10 value="0.0304546934" flag="0"/>
      <psa30 value="0.0021427140" flag="0"/>
    </comp>
  </station>
  <station code="CMBO" name="CMBO" netid="HT" insttype="120P," lat="36.4709" lon="25.4056">
    <comp name="--.HHN">
      <acc value="0.5541340744" flag="0"/>
      <vel value="0.1423825854" flag="0"/>
      <psa03 value="0.4312304380" flag="0"/>
      <psa10 value="0.0613897663" flag="0"/>
      <psa30 value="0.0031135708" flag="0"/>
    </comp>
    <comp name="--.HHZ">
      <acc value="0.3156082028" flag="0"/>
      <vel value="0.0746311049" flag="0"/>
      <psa03 value="0.3182849999" flag="0"/>
      <psa10 value="0.0241855518" flag="0"/>
      <psa30 value="0.0020534750" flag="0"/>
    </comp>
    <comp name="--.HHE">
      <acc value="0.3614127499" flag="0"/>
      <vel value="0.0909452430" flag="0"/>
      <psa03 value="0.2780545055" flag="0"/>
      <psa10 value="0.0327914530" flag="0"/>
      <psa30 value="0.0047125200" flag="0"/>
    </comp>
  </station>
</stationlist>
