<?xml version="1.0" encoding="UTF-8" standalone="yes"?>
<!DOCTYPE earthquake SYSTEM "stationlist.dtd">
<stationlist created="" xmlns="ch.ethz.sed.shakemap.usgs.xml">
  <station code="APE" name="APE" netid="GE" insttype="STS-2/N" lat="37.0727" lon="25.523">
    <comp name="--.HHN">
      <acc value="0.2041439541" flag="0"/>
      <vel value="0.0523688416" flag="0"/>
      <psa03 value="0.1148440548" flag="0"/>
      <psa10 value="0.0141509878" flag="0"/>
      <psa30 value="0.0026166536" flag="0"/>
    </comp>
    <comp name="--.HHZ">
      <acc value="0.0847467354" flag="0"/>
      <vel value="0.0182815648" flag="0"/>
      <psa03 value="0.0759716031" flag="0"/>
      <psa10 value="0.0100707988" flag="0"/>
      <psa30 value="0.0023036448" flag="0"/>
    </comp>
    <comp name="--.HHE">
      <acc value="0.1954481149" flag="0"/>
      <vel value="0.0390054785" flag="0"/>
      <psa03 value="0.1028917449" flag="0"/>
      <psa10 value="0.0141971987" flag="0"/>
      <psa30 value="0.0022091300" flag="0"/>
    </comp>
  </station>
  <station code="THERA" name="THERA" netid="GE" insttype="STS-2/N" lat="36.367" lon="25.4753">
    <comp name="--.HHZ">
      <acc value="0.1364724361" flag="0"/>
      <vel value="0.0294606919" flag="0"/>
      <psa03 value="0.1124979088" flag="0"/>
      <psa10 value="0.0122221305" flag="0"/>
      <psa30 value="0.0018153167" flag="0"/>
    </comp>
    <comp name="--.HHE">
      <acc value="0.1690860379" flag="0"/>
      <vel value="0.0384944800" flag="0"/>
      <psa03 value="0.1468510221" flag="0"/>
      <psa10 value="0.0209920544" flag="0"/>
      <psa30 value="0.0028224317" flag="0"/>
    </comp>
    <comp name="--.HHN">
      <acc value="0.1271705135" flag="0"/>
      <vel value="0.0354893499" flag="0"/>
      <psa03 value="0.1041105794" flag="0"/>
      <psa10 value="0.0098548402" flag="0"/>
      <psa30 value="0.0012151013" flag="0"/>
    </comp>
  </station>
  <station code="SNT1" name="SNT1" netid="HA" insttype="30" lat="36.4159" lon="25.4282">
    <comp name="--.HHE">
      <acc value="0.1555671607" flag="0"/>
      <vel value="0.0519997189" flag="0"/>
      <psa03 value="0.2042284467" flag="0"/>
      <psa10 value="0.0331915007" flag="0"/>
      <psa30 value="0.0052379239" flag="0"/>
    </comp>
    <comp name="--.HHN">
      <acc value="0.1296067984" flag="0"/>
      <vel value="0.0372676631" flag="0"/>
      <psa03 value="0.1853227722" flag="0"/>
      <psa10 value="0.0250497715" flag="0"/>
      <psa30 value="0.0032917280" flag="0"/>
    </comp>
    <comp name="--.HHZ">
      <acc value="0.1030580137" flag="0"/>
      <vel value="0.0333509554" flag="0"/>
      <psa03 value="0.1318623123" flag="0"/>
      <psa10 value="0.0176647192" flag="0"/>
      <psa30 value="0.0024485425" flag="0"/>
    </comp>
  </station>
  <station code="NAX1" name="NAX1" netid="HI" insttype="CMG-5TD,ACCELEROMETER,GURALP" lat="37.1014" lon="25.3741">
    <comp name="--.HNN">
      <acc value="0.1650118537" flag="0"/>
      <vel value="0.0412362440" flag="0"/>
      <psa03 value="0.1200525595" flag="0"/>
      <psa10 value="0.0099538534" flag="0"/>
      <psa30 value="0.0010954940" flag="0"/>
    </comp>
    <comp name="--.HNE">
      <acc value="0.1871552285" flag="0"/>
      <vel value="0.0559805526" flag="0"/>
      <psa03 value="0.2114665639" flag="0"/>
      <psa10 value="0.0129941996" flag="0"/>
      <psa30 value="0.0019008768" flag="0"/>
    </comp>
    <comp name="--.HNZ">
      <acc value="0.0839818257" flag="0"/>
      <vel value="0.0179488761" flag="0"/>
      <psa03 value="0.0525019771" flag="0"/>
      <psa10 value="0.0117800987" flag="0"/>
      <psa30 value="0.0014585601" flag="0"/>
    </comp>
  </station>
  <station code="SFR2" name="SFR2" netid="HI" insttype="unknown" lat="36.3998" lon="25.4382">
    <comp name="--.HNZ">
      <acc value="0.4705649129" flag="0"/>
      <vel value="0.1122633165" flag="0"/>
      <psa03 value="0.6102795206" flag="0"/>
      <psa10 value="0.0332424349" flag="0"/>
      <psa30 value="0.0031828493" flag="0"/>
    </comp>
    <comp name="--.HNN">
      <acc value="0.7552326997" flag="0"/>
      <vel value="0.2382741110" flag="0"/>
      <psa03 value="0.7227070809" flag="0"/>
      <psa10 value="0.0662095846" flag="0"/>
      <psa30 value="0.0041393712" flag="0"/>
    </comp>
    <comp name="--.HNE">
      <acc value="0.5535654677" flag="0"/>
      <vel value="0.1772915721" flag="0"/>
      <psa03 value="0.6221627886" flag="0"/>
      <psa10 value="0.0691776793" flag="0"/>
      <psa30 value="0.0062746656" flag="0"/>
    </comp>
  </station>
  <station code="AMGA" name="AMGA" netid="HL" insttype="SMART24" lat="36.8316" lon="25.8938">
    <comp name="--.HHE">
      <acc value="0.5723756541" flag="0"/>
      <vel value="0.0867214415" flag="0"/>
      <psa03 value="0.2502070676" flag="0"/>
      <psa10 value="0.0268869877" flag="0"/>
      <psa30 value="0.0035508699" flag="0"/>
    </comp>
    <comp name="--.HHN">
      <acc value="0.5171533483" flag="0"/>
      <vel value="0.0785414910" flag="0"/>
      <psa03 value="0.2334307350" flag="0"/>
      <psa10 value="0.0377570374" flag="0"/>
      <psa30 value="0.0051473410" flag="0"/>
    </comp>
    <comp name="--.HHZ">
      <acc value="0.4375895963" flag="0"/>
      <vel value="0.0902518454" flag="0"/>
      <psa03 value="0.3112067095" flag="0"/>
      <psa10 value="0.0267225872" flag="0"/>
      <psa30 value="0.0039968812" flag="0"/>
    </comp>
  </station>
  <station code="APE" name="APE" netid="HL" insttype="120" lat="37.0727" lon="25.523">
    <comp name="--.HHE">
      <acc value="0.1752521926" flag="0"/>
      <vel value="0.0371848124" flag="0"/>
      <psa03 value="0.0988666610" flag="0"/>
      <psa10 value="0.0140611535" flag="0"/>
      <psa30 value="0.0022030286" flag="0"/>
    </comp>
    <comp name="--.HHZ">
      <acc value="0.0671581235" flag="0"/>
      <vel value="0.0176497393" flag="0"/>
      <psa03 value="0.0732945003" flag="0"/>
      <psa10 value="0.0099651177" flag="0"/>
      <psa30 value="0.0022964345" flag="0"/>
    </comp>
    <comp name="--.HHN">
      <acc value="0.1936877629" flag="0"/>
      <vel value="0.0491184157" flag="0"/>
      <psa03 value="0.1117820169" flag="0"/>
      <psa10 value="0.0139743387" flag="0"/>
      <psa30 value="0.0025959726" flag="0"/>
    </comp>
  </station>
  <station code="MHLO" name="MHLO" netid="HL" insttype="20" lat="36.6898" lon="24.4017">
    <comp name="--.HHE">
      <acc value="0.1607431169" flag="0"/>
      <vel value="0.0705015884" flag="0"/>
      <psa03 value="0.3622699883" flag="0"/>
      <psa10 value="0.0671081189" flag="0"/>
      <psa30 value="0.0032492517" flag="0"/>
    </comp>
    <comp name="--.HHN">
      <acc value="0.1702305268" flag="0"/>
      <vel value="0.0607548750" flag="0"/>
      <psa03 value="0.3228498558" flag="0"/>
      <psa10 value="0.0488655966" flag="0"/>
      <psa30 value="0.0028447051" flag="0"/>
    </comp>
    <comp name="--.HHZ">
      <acc value="0.0653517345" flag="0"/>
      <vel value="0.0249639196" flag="0"/>
      <psa03 value="0.1435028399" flag="0"/>
      <psa10 value="0.0327607049" flag="0"/>
      <psa30 value="0.0020941726" flag="0"/>
    </comp>
  </station>
  <station code="MILA" name="MILA" netid="HL" insttype="CMG-5" lat="36.7429" lon="24.4282">
    <comp name="00.HNE">
      <acc value="0.1834142737" flag="0"/>
      <vel value="0.0744835193" flag="0"/>
      <psa03 value="0.3225630703" flag="0"/>
      <psa10 value="0.0317755516" flag="0"/>
      <psa30 value="0.0028850117" flag="0"/>
    </comp>
    <comp name="00.HNN">
      <acc value="0.2174504760" flag="0"/>
      <vel value="0.0790848320" flag="0"/>
      <psa03 value="0.6104777719" flag="0"/>
      <psa10 value="0.0289503511" flag="0"/>
      <psa30 value="0.0024295670" flag="0"/>
    </comp>
    <comp name="00.HNZ">
      <acc value="0.1838426844" flag="0"/>
      <vel value="0.0549166362" flag="0"/>
      <psa03 value="0.2366607693" flag="0"/>
      <psa10 value="0.0361718139" flag="0"/>
      <psa30 value="0.0017390222" flag="0"/>
    </comp>
  </station>
  <station code="NISR" name="NISR" netid="HL" insttype="65535" lat="36.6106" lon="27.131">
    <comp name="--.HHN">
      <acc value="0.0151914985" flag="0"/>
      <vel value="0.0094321865" flag="0"/>
      <psa03 value="0.0304940009" flag="0"/>
      <psa10 value="0.0072039352" flag="0"/>
      <psa30 value="0.0019524838" flag="0"/>
    </comp>
    <comp name="--.HHE">
      <acc value="0.0000000000" flag="0"/>
      <vel value="-100.0000000000" flag="0"/>
      <psa03 value="0.0000000000" flag="0"/>
      <psa10 value="0.0000000000" flag="0"/>
      <psa30 value="0.0000000000" flag="0"/>
    </comp>
    <comp name="--.HHZ">
      <acc value="0.0104365202" flag="0"/>
      <vel value="0.0041973816" flag="0"/>
      <psa03 value="0.0132480096" flag="0"/>
      <psa10 value="0.0055430345" flag="0"/>
      <psa30 value="0.0004163925" flag="0"/>
    </comp>
  </station>
  <station code="SANT" name="SANT" netid="HL" insttype="30" lat="36.3705" lon="25.4593">
    <comp name="--.HHE">
      <acc value="0.4819702020" flag="0"/>
      <vel value="0.1073774184" flag="0"/>
      <psa03 value="0.2719188305" flag="0"/>
      <psa10 value="0.0301614334" flag="0"/>
      <psa30 value="0.0027099239" flag="0"/>
    </comp>
    <comp name="--.HHZ">
      <acc value="0.3629354827" flag="0"/>
      <vel value="0.0656888195" flag="0"/>
      <psa03 value="0.2297191372" flag="0"/>
      <psa10 value="0.0146770363" flag="0"/>
      <psa30 value="0.0014988769" flag="0"/>
    </comp>
    <comp name="--.HHN">
      <acc value="0.2685291291" flag="0"/>
      <vel value="0.0457084975" flag="0"/>
      <psa03 value="0.1543803347" flag="0"/>
      <psa10 value="0.0146578608" flag="0"/>
      <psa30 value="0.0025312093" flag="0"/>
    </comp>
  </station>
  <station code="SAP3" name="SAP3" netid="HL" insttype="65535" lat="36.4356" lon="25.3454">
    <comp name="--.HHZ">
      <acc value="0.2043008363" flag="0"/>
      <vel value="0.0436228664" flag="0"/>
      <psa03 value="0.1615586142" flag="0"/>
      <psa10 value="0.0123076721" flag="0"/>
      <psa30 value="0.0021937118" flag="0"/>
    </comp>
    <comp name="--.HHE">
      <acc value="0.2922831762" flag="0"/>
      <vel value="0.0773162217" flag="0"/>
      <psa03 value="0.1627136721" flag="0"/>
      <psa10 value="0.0492641834" flag="0"/>
      <psa30 value="0.0045668981" flag="0"/>
    </comp>
    <comp name="--.HHN">
      <acc value="0.2122772956" flag="0"/>
      <vel value="0.0491904691" flag="0"/>
      <psa03 value="0.2018470953" flag="0"/>
      <psa10 value="0.0275030566" flag="0"/>
      <psa30 value="0.0053718443" flag="0"/>
    </comp>
  </station>
  <station code="THERA" name="THERA" netid="HL" insttype="120" lat="36.367" lon="25.4753">
    <comp name="--.HHE">
      <acc value="0.1671946777" flag="0"/>
      <vel value="0.0375472525" flag="0"/>
      <psa03 value="0.1427726622" flag="0"/>
      <psa10 value="0.0208760434" flag="0"/>
      <psa30 value="0.0028226977" flag="0"/>
    </comp>
    <comp name="--.HHN">
      <acc value="0.2514302911" flag="0"/>
      <vel value="0.0685634305" flag="0"/>
      <psa03 value="0.2017755380" flag="0"/>
      <psa10 value="0.0193069026" flag="0"/>
      <psa30 value="0.0024213433" flag="0"/>
    </comp>
    <comp name="--.HHZ">
      <acc value="0.1328393916" flag="0"/>
      <vel value="0.0288988544" flag="0"/>
      <psa03 value="0.1092184524" flag="0"/>
      <psa10 value="0.0120206410" flag="0"/>
      <psa30 value="0.0018144507" flag="0"/>
    </comp>
  </station>
  <station code="THRA" name="THRA" netid="HL" insttype="CMG-5" lat="36.415" lon="25.4324">
    <comp name="00.HNN">
      <acc value="0.5341378618" flag="0"/>
      <vel value="0.1984313613" flag="0"/>
      <psa03 value="1.1137298669" flag="0"/>
      <psa10 value="0.1161303773" flag="0"/>
      <psa30 value="0.0074034362" flag="0"/>
    </comp>
    <comp name="00.HNE">
      <acc value="0.7565936519" flag="0"/>
      <vel value="0.1902710887" flag="0"/>
      <psa03 value="0.8666048650" flag="0"/>
      <psa10 value="0.0993745456" flag="0"/>
      <psa30 value="0.0083486867" flag="0"/>
    </comp>
    <comp name="00.HNZ">
      <acc value="0.4632378774" flag="0"/>
      <vel value="0.1268721597" flag="0"/>
      <psa03 value="0.6794037147" flag="0"/>
      <psa10 value="0.0500714022" flag="0"/>
      <psa30 value="0.0054713113" flag="0"/>
    </comp>
  </station>
  <station code="TNSA" name="TNSA" netid="HL" insttype="CMG-5" lat="37.5394" lon="25.1631">
    <comp name="00.HNE">
      <acc value="0.0767020860" flag="0"/>
      <vel value="0.0237889661" flag="0"/>
      <psa03 value="0.0953877273" flag="0"/>
      <psa10 value="0.0059709995" flag="0"/>
      <psa30 value="0.0008067264" flag="0"/>
    </comp>
    <comp name="00.HNN">
      <acc value="0.0800912346" flag="0"/>
      <vel value="0.0239379084" flag="0"/>
      <psa03 value="0.0997410241" flag="0"/>
      <psa10 value="0.0100478799" flag="0"/>
      <psa30 value="0.0008569065" flag="0"/>
    </comp>
    <comp name="00.HNZ">
      <acc value="0.0645114487" flag="0"/>
      <vel value="0.0297743011" flag="0"/>
      <psa03 value="0.0758640454" flag="0"/>
      <psa10 value="0.0088961123" flag="0"/>
      <psa30 value="0.0011080574" flag="0"/>
    </comp>
  </station>
  <station code="AKRO" name="AKRO" netid="HT" insttype="Compact," lat="36.3584" lon="25.3967">
    <comp name="--.HHN">
      <acc value="0.5913129676" flag="0"/>
      <vel value="0.1305513449" flag="0"/>
      <psa03 value="0.4690932671" flag="0"/>
      <psa10 value="0.0589835861" flag="0"/>
      <psa30 value="0.0028035826" flag="0"/>
    </comp>
    <comp name="--.HHE">
      <acc value="0.9639153572" flag="0"/>
      <vel value="0.2385439477" flag="0"/>
      <psa03 value="0.9577734522" flag="0"/>
      <psa10 value="0.0620059708" flag="0"/>
      <psa30 value="0.0047342874" flag="0"/>
    </comp>
    <comp name="--.HHZ">
      <acc value="0.3022154117" flag="0"/>
      <vel value="0.0926406461" flag="0"/>
      <psa03 value="0.3523095372" flag="0"/>
      <psa10 value="0.0304546913" flag="0"/>
      <psa30 value="0.0021430710" flag="0"/>
    </comp>
  </station>
  <station code="CMBO" name="CMBO" netid="HT" insttype="120P," lat="36.4709" lon="25.4056">
    <comp name="--.HHN">
      <acc value="0.5541340743" flag="0"/>
      <vel value="0.1423825768" flag="0"/>
      <psa03 value="0.4312304380" flag="0"/>
      <psa10 value="0.0613897635" flag="0"/>
      <psa30 value="0.0031149356" flag="0"/>
    </comp>
    <comp name="--.HHE">
      <acc value="0.3614127498" flag="0"/>
      <vel value="0.0909452247" flag="0"/>
      <psa03 value="0.2780545055" flag="0"/>
      <psa10 value="0.0327914454" flag="0"/>
      <psa30 value="0.0047101334" flag="0"/>
    </comp>
    <comp name="--.HHZ">
      <acc value="0.3156082028" flag="0"/>
      <vel value="0.0746311146" flag="0"/>
      <psa03 value="0.3182849999" flag="0"/>
      <psa10 value="0.0241855493" flag="0"/>
      <psa30 value="0.0020542816" flag="0"/>
    </comp>
  </station>
</stationlist>
