<?xml version="1.0" encoding="UTF-8" standalone="yes"?>
<!DOCTYPE earthquake SYSTEM "stationlist.dtd">
<stationlist created="" xmlns="ch.ethz.sed.shakemap.usgs.xml">
  <station code="BNN" name="BNN" netid="KO" insttype="CMG-3T" lat="38.8521" lon="35.8472">
    <comp name="--.HHN">
      <acc value="0.0196220763" flag="0"/>
      <vel value="0.0215038540" flag="0"/>
      <psa03 value="0.0425551007" flag="0"/>
      <psa10 value="0.0249433195" flag="0"/>
      <psa30 value="0.0028569465" flag="0"/>
    </comp>
    <comp name="--.HHZ">
      <acc value="0.0108579751" flag="0"/>
      <vel value="0.0106270301" flag="0"/>
      <psa03 value="0.0259770841" flag="0"/>
      <psa10 value="0.0134043792" flag="0"/>
      <psa30 value="0.0028650624" flag="0"/>
    </comp>
    <comp name="--.HHE">
      <acc value="0.0197052206" flag="0"/>
      <vel value="0.0209266818" flag="0"/>
      <psa03 value="0.0430776077" flag="0"/>
      <psa10 value="0.0219220745" flag="0"/>
      <psa30 value="0.0049030523" flag="0"/>
    </comp>
  </station>
  <station code="CAYL" name="CAYL" netid="KO" insttype="CMG-6T" lat="40.3745" lon="36.159">
    <comp name="--.HHN">
      <acc value="0.1255412817" flag="0"/>
      <vel value="0.0513044750" flag="0"/>
      <psa03 value="0.3151692861" flag="0"/>
      <psa10 value="0.0430697855" flag="0"/>
      <psa30 value="0.0022433413" flag="0"/>
    </comp>
    <comp name="--.HHE">
      <acc value="0.1123820459" flag="0"/>
      <vel value="0.0467258625" flag="0"/>
      <psa03 value="0.2236897390" flag="0"/>
      <psa10 value="0.0310331763" flag="0"/>
      <psa30 value="0.0021453253" flag="0"/>
    </comp>
    <comp name="--.HHZ">
      <acc value="0.0863716758" flag="0"/>
      <vel value="0.0486423236" flag="0"/>
      <psa03 value="0.1456554262" flag="0"/>
      <psa10 value="0.0229756872" flag="0"/>
      <psa30 value="0.0018963959" flag="0"/>
    </comp>
  </station>
  <station code="CORM" name="CORM" netid="KO" insttype="CMG-3ESP" lat="40.1785" lon="34.6302">
    <comp name="--.HHN">
      <acc value="0.0106348525" flag="0"/>
      <vel value="0.0082880635" flag="0"/>
      <psa03 value="0.0213896592" flag="0"/>
      <psa10 value="0.0117820838" flag="0"/>
      <psa30 value="0.0029451368" flag="0"/>
    </comp>
    <comp name="--.HHZ">
      <acc value="0.0058275496" flag="0"/>
      <vel value="0.0046643628" flag="0"/>
      <psa03 value="0.0151394410" flag="0"/>
      <psa10 value="0.0044708888" flag="0"/>
      <psa30 value="0.0015446983" flag="0"/>
    </comp>
    <comp name="--.HHE">
      <acc value="0.0079193753" flag="0"/>
      <vel value="0.0061125164" flag="0"/>
      <psa03 value="0.0196072485" flag="0"/>
      <psa10 value="0.0116719330" flag="0"/>
      <psa30 value="0.0017027419" flag="0"/>
    </comp>
  </station>
  <station code="ERBG" name="ERBG" netid="KO" insttype="CMG-5T" lat="40.712" lon="36.6768">
    <comp name="--.HNN">
      <acc value="0.0468781567" flag="0"/>
      <vel value="0.0490103142" flag="0"/>
      <psa03 value="0.0610098219" flag="0"/>
      <psa10 value="0.0692296506" flag="0"/>
      <psa30 value="0.0042561394" flag="0"/>
    </comp>
    <comp name="--.HNE">
      <acc value="0.0446875292" flag="0"/>
      <vel value="0.0318086638" flag="0"/>
      <psa03 value="0.0685736577" flag="0"/>
      <psa10 value="0.0749656460" flag="0"/>
      <psa30 value="0.0033912936" flag="0"/>
    </comp>
    <comp name="--.HNZ">
      <acc value="0.0220843218" flag="0"/>
      <vel value="0.0192957733" flag="0"/>
      <psa03 value="0.0400195662" flag="0"/>
      <psa10 value="0.0375411734" flag="0"/>
      <psa30 value="0.0024227141" flag="0"/>
    </comp>
  </station>
  <station code="KVT" name="KVT" netid="KO" insttype="CMG-3T" lat="41.0807" lon="36.0463">
    <comp name="--.HHE">
      <acc value="0.0115731386" flag="0"/>
      <vel value="0.0159274842" flag="0"/>
      <psa03 value="0.0231921528" flag="0"/>
      <psa10 value="0.0177906541" flag="0"/>
      <psa30 value="0.0049800826" flag="0"/>
    </comp>
    <comp name="--.HHN">
      <acc value="0.0100977239" flag="0"/>
      <vel value="0.0112348917" flag="0"/>
      <psa03 value="0.0258131687" flag="0"/>
      <psa10 value="0.0157082988" flag="0"/>
      <psa30 value="0.0025295245" flag="0"/>
    </comp>
    <comp name="--.HHZ">
      <acc value="0.0074583311" flag="0"/>
      <vel value="0.0068600380" flag="0"/>
      <psa03 value="0.0154831217" flag="0"/>
      <psa10 value="0.0114928290" flag="0"/>
      <psa30 value="0.0013727428" flag="0"/>
    </comp>
  </station>
  <station code="RSDY" name="RSDY" netid="KO" insttype="CMG-3T" lat="40.3971" lon="37.3273">
    <comp name="--.HHE">
      <acc value="0.0843391718" flag="0"/>
      <vel value="0.0861121339" flag="0"/>
      <psa03 value="0.1437703107" flag="0"/>
      <psa10 value="0.1121362646" flag="0"/>
      <psa30 value="0.0052191459" flag="0"/>
    </comp>
    <comp name="--.HHN">
      <acc value="0.0576914696" flag="0"/>
      <vel value="0.0597667783" flag="0"/>
      <psa03 value="0.1195936386" flag="0"/>
      <psa10 value="0.1287680075" flag="0"/>
      <psa30 value="0.0070287206" flag="0"/>
    </comp>
  </station>
  <station code="TOKT" name="TOKT" netid="KO" insttype="CMG-3T" lat="40.3173" lon="36.5443">
    <comp name="--.HHZ">
      <acc value="0.0000435721" flag="0"/>
      <vel value="0.0000057926" flag="0"/>
      <psa03 value="0.0000137614" flag="0"/>
      <psa10 value="0.0000060829" flag="0"/>
      <psa30 value="0.0000011334" flag="0"/>
    </comp>
    <comp name="--.HHN">
      <acc value="0.0693360006" flag="0"/>
      <vel value="0.0446186060" flag="0"/>
      <psa03 value="0.1496474433" flag="0"/>
      <psa10 value="0.0726877953" flag="0"/>
      <psa30 value="0.0077590125" flag="0"/>
    </comp>
    <comp name="--.HHE">
      <acc value="0.0889292977" flag="0"/>
      <vel value="0.0474117651" flag="0"/>
      <psa03 value="0.0953795076" flag="0"/>
      <psa10 value="0.0859753041" flag="0"/>
      <psa30 value="0.0064528565" flag="0"/>
    </comp>
  </station>
</stationlist>
