<?xml version="1.0" encoding="UTF-8" standalone="yes"?>
<!DOCTYPE earthquake SYSTEM "stationlist.dtd">
<stationlist created="" xmlns="ch.ethz.sed.shakemap.usgs.xml">
  <station code="BNN" name="BNN" netid="KO" insttype="CMG-3T" lat="38.8521" lon="35.8472">
    <comp name="--.HHE">
      <acc value="0.0197052205" flag="0"/>
      <vel value="0.0209266814" flag="0"/>
      <psa03 value="0.0430776077" flag="0"/>
      <psa10 value="0.0219220745" flag="0"/>
      <psa30 value="0.0049030628" flag="0"/>
    </comp>
    <comp name="--.HHZ">
      <acc value="0.0108579753" flag="0"/>
      <vel value="0.0106270298" flag="0"/>
      <psa03 value="0.0259770841" flag="0"/>
      <psa10 value="0.0134043792" flag="0"/>
      <psa30 value="0.0028650839" flag="0"/>
    </comp>
    <comp name="--.HHN">
      <acc value="0.0196220761" flag="0"/>
      <vel value="0.0215038588" flag="0"/>
      <psa03 value="0.0425551007" flag="0"/>
      <psa10 value="0.0249433196" flag="0"/>
      <psa30 value="0.0028569061" flag="0"/>
    </comp>
  </station>
  <station code="CAYL" name="CAYL" netid="KO" insttype="CMG-6T" lat="40.3745" lon="36.159">
    <comp name="--.HHZ">
      <acc value="0.0863716746" flag="0"/>
      <vel value="0.0486423236" flag="0"/>
      <psa03 value="0.1456554262" flag="0"/>
      <psa10 value="0.0229756867" flag="0"/>
      <psa30 value="0.0018963876" flag="0"/>
    </comp>
    <comp name="--.HHE">
      <acc value="0.1123820446" flag="0"/>
      <vel value="0.0467258625" flag="0"/>
      <psa03 value="0.2236897390" flag="0"/>
      <psa10 value="0.0310331762" flag="0"/>
      <psa30 value="0.0021453330" flag="0"/>
    </comp>
    <comp name="--.HHN">
      <acc value="0.1255412816" flag="0"/>
      <vel value="0.0513044751" flag="0"/>
      <psa03 value="0.3151692861" flag="0"/>
      <psa10 value="0.0430697856" flag="0"/>
      <psa30 value="0.0022433416" flag="0"/>
    </comp>
  </station>
  <station code="CORM" name="CORM" netid="KO" insttype="CMG-3ESP" lat="40.1785" lon="34.6302">
    <comp name="--.HHE">
      <acc value="0.0079193752" flag="0"/>
      <vel value="0.0061125579" flag="0"/>
      <psa03 value="0.0196072486" flag="0"/>
      <psa10 value="0.0116719330" flag="0"/>
      <psa30 value="0.0017027349" flag="0"/>
    </comp>
    <comp name="--.HHZ">
      <acc value="0.0058275497" flag="0"/>
      <vel value="0.0046644135" flag="0"/>
      <psa03 value="0.0151394411" flag="0"/>
      <psa10 value="0.0044708888" flag="0"/>
      <psa30 value="0.0015447003" flag="0"/>
    </comp>
    <comp name="--.HHN">
      <acc value="0.0106348524" flag="0"/>
      <vel value="0.0082880603" flag="0"/>
      <psa03 value="0.0213896592" flag="0"/>
      <psa10 value="0.0117820838" flag="0"/>
      <psa30 value="0.0029451367" flag="0"/>
    </comp>
  </station>
  <station code="KVT" name="KVT" netid="KO" insttype="CMG-3T" lat="41.0807" lon="36.0463">
    <comp name="--.HHE">
      <acc value="0.0115731385" flag="0"/>
      <vel value="0.0159274842" flag="0"/>
      <psa03 value="0.0231921528" flag="0"/>
      <psa10 value="0.0177906542" flag="0"/>
      <psa30 value="0.0049801004" flag="0"/>
    </comp>
    <comp name="--.HHZ">
      <acc value="0.0074583311" flag="0"/>
      <vel value="0.0068600380" flag="0"/>
      <psa03 value="0.0154831217" flag="0"/>
      <psa10 value="0.0114928290" flag="0"/>
      <psa30 value="0.0013727335" flag="0"/>
    </comp>
    <comp name="--.HHN">
      <acc value="0.0100977238" flag="0"/>
      <vel value="0.0112348916" flag="0"/>
      <psa03 value="0.0258131687" flag="0"/>
      <psa10 value="0.0157082988" flag="0"/>
      <psa30 value="0.0025295168" flag="0"/>
    </comp>
  </station>
  <station code="RSDY" name="RSDY" netid="KO" insttype="CMG-3T" lat="40.3971" lon="37.3273">
    <comp name="--.HHN">
      <acc value="0.0576914696" flag="0"/>
      <vel value="0.0597667780" flag="0"/>
      <psa03 value="0.1195936386" flag="0"/>
      <psa10 value="0.1287680075" flag="0"/>
      <psa30 value="0.0070287238" flag="0"/>
    </comp>
    <comp name="--.HHE">
      <acc value="0.0843391718" flag="0"/>
      <vel value="0.0861121336" flag="0"/>
      <psa03 value="0.1437703107" flag="0"/>
      <psa10 value="0.1121362646" flag="0"/>
      <psa30 value="0.0052191783" flag="0"/>
    </comp>
  </station>
  <station code="TOKT" name="TOKT" netid="KO" insttype="CMG-3T" lat="40.3173" lon="36.5443">
    <comp name="--.HHE">
      <acc value="0.0889292977" flag="0"/>
      <vel value="0.0474117652" flag="0"/>
      <psa03 value="0.0953795076" flag="0"/>
      <psa10 value="0.0859753041" flag="0"/>
      <psa30 value="0.0064528432" flag="0"/>
    </comp>
    <comp name="--.HHZ">
      <acc value="0.0000435691" flag="0"/>
      <vel value="0.0000057925" flag="0"/>
      <psa03 value="0.0000137614" flag="0"/>
      <psa10 value="0.0000060735" flag="0"/>
      <psa30 value="0.0000011233" flag="0"/>
    </comp>
    <comp name="--.HHN">
      <acc value="0.0693360007" flag="0"/>
      <vel value="0.0446186059" flag="0"/>
      <psa03 value="0.1496474433" flag="0"/>
      <psa10 value="0.0726877953" flag="0"/>
      <psa30 value="0.0077589663" flag="0"/>
    </comp>
  </station>
</stationlist>
