<?xml version="1.0" encoding="UTF-8" standalone="yes"?>
<!DOCTYPE earthquake SYSTEM "stationlist.dtd">
<stationlist created="" xmlns="ch.ethz.sed.shakemap.usgs.xml">
  <station code="CMRD" name="CMRD" netid="KO" insttype="CMG-5T" lat="37.6623" lon="34.9902">
    <comp name="--.HNE">
      <acc value="0.0169465067" flag="0"/>
      <vel value="0.0094992331" flag="0"/>
      <psa03 value="0.0614719306" flag="0"/>
      <psa10 value="0.0191069224" flag="0"/>
      <psa30 value="0.0016607505" flag="0"/>
    </comp>
    <comp name="--.HNN">
      <acc value="0.0187516476" flag="0"/>
      <vel value="0.0223819174" flag="0"/>
      <psa03 value="0.0691266988" flag="0"/>
      <psa10 value="0.0244850087" flag="0"/>
      <psa30 value="0.0029179260" flag="0"/>
    </comp>
    <comp name="--.HNZ">
      <acc value="0.0140024489" flag="0"/>
      <vel value="0.0110066063" flag="0"/>
      <psa03 value="0.0464945653" flag="0"/>
      <psa10 value="0.0149477996" flag="0"/>
      <psa30 value="0.0020753490" flag="0"/>
    </comp>
  </station>
  <station code="GAZ" name="GAZ" netid="KO" insttype="CMG-3T" lat="37.1721" lon="37.2096">
    <comp name="--.HHZ">
      <acc value="0.1177668309" flag="0"/>
      <vel value="0.0505706650" flag="0"/>
      <psa03 value="0.1494198817" flag="0"/>
      <psa10 value="0.0564132435" flag="0"/>
      <psa30 value="0.0062010795" flag="0"/>
    </comp>
    <comp name="--.HHE">
      <acc value="0.0839461795" flag="0"/>
      <vel value="0.0653703261" flag="0"/>
      <psa03 value="0.1379443750" flag="0"/>
      <psa10 value="0.0608777184" flag="0"/>
      <psa30 value="0.0075103112" flag="0"/>
    </comp>
    <comp name="--.HHN">
      <acc value="0.0733562169" flag="0"/>
      <vel value="0.0472444743" flag="0"/>
      <psa03 value="0.1242403737" flag="0"/>
      <psa10 value="0.0653727624" flag="0"/>
      <psa30 value="0.0044826694" flag="0"/>
    </comp>
  </station>
  <station code="SARI" name="SARI" netid="KO" insttype="CMG-3T" lat="38.4072" lon="36.4181">
    <comp name="--.HHN">
      <acc value="0.6287291967" flag="0"/>
      <vel value="0.1756670709" flag="0"/>
      <psa03 value="0.9577186495" flag="0"/>
      <psa10 value="0.0874234967" flag="0"/>
      <psa30 value="0.0088586292" flag="0"/>
    </comp>
    <comp name="--.HHE">
      <acc value="0.5041105511" flag="0"/>
      <vel value="0.1643226500" flag="0"/>
      <psa03 value="1.0253609388" flag="0"/>
      <psa10 value="0.1017812921" flag="0"/>
      <psa30 value="0.0099029339" flag="0"/>
    </comp>
    <comp name="--.HHZ">
      <acc value="0.4878390715" flag="0"/>
      <vel value="0.1514351181" flag="0"/>
      <psa03 value="0.5852956582" flag="0"/>
      <psa10 value="0.1001978056" flag="0"/>
      <psa30 value="0.0071317014" flag="0"/>
    </comp>
  </station>
  <station code="ANDN" name="ANDN" netid="TU" insttype="T" lat="37.58" lon="36.3452">
    <comp name="--.HHN">
      <acc value="1.0555599830" flag="0"/>
      <vel value="0.4755995806" flag="0"/>
      <psa03 value="1.9340405960" flag="0"/>
      <psa10 value="0.4798451233" flag="0"/>
      <psa30 value="0.0273787970" flag="0"/>
    </comp>
    <comp name="--.HHE">
      <acc value="0.9616195901" flag="0"/>
      <vel value="0.4450760181" flag="0"/>
      <psa03 value="1.8980883613" flag="0"/>
      <psa10 value="0.5065306615" flag="0"/>
      <psa30 value="0.0380485713" flag="0"/>
    </comp>
    <comp name="--.HHZ">
      <acc value="0.5429774667" flag="0"/>
      <vel value="0.3099326798" flag="0"/>
      <psa03 value="1.0317121740" flag="0"/>
      <psa10 value="0.4292143974" flag="0"/>
      <psa30 value="0.0235634158" flag="0"/>
    </comp>
  </station>
</stationlist>
