<?xml version="1.0" encoding="UTF-8" standalone="yes"?>
<!DOCTYPE earthquake SYSTEM "stationlist.dtd">
<stationlist created="" xmlns="ch.ethz.sed.shakemap.usgs.xml">
  <station code="MYT1" name="MYT1" netid="HI" insttype="CMG-5TD,ACCELEROMETER,GURALP" lat="39.085" lon="26.5694">
    <comp name="--.HNE">
      <acc value="0.0799608797" flag="0"/>
      <vel value="0.0445379446" flag="0"/>
      <psa03 value="0.2342064752" flag="0"/>
      <psa10 value="0.0464173651" flag="0"/>
      <psa30 value="0.0028586462" flag="0"/>
    </comp>
    <comp name="--.HNN">
      <acc value="0.0642201430" flag="0"/>
      <vel value="0.0329145822" flag="0"/>
      <psa03 value="0.1814619343" flag="0"/>
      <psa10 value="0.0593608663" flag="0"/>
      <psa30 value="0.0026766494" flag="0"/>
    </comp>
    <comp name="--.HNZ">
      <acc value="0.0411435819" flag="0"/>
      <vel value="0.0197290770" flag="0"/>
      <psa03 value="0.1261386359" flag="0"/>
      <psa10 value="0.0229712529" flag="0"/>
      <psa30 value="0.0024275699" flag="0"/>
    </comp>
  </station>
  <station code="PRK" name="PRK" netid="HL" insttype="120" lat="39.2456" lon="26.265">
    <comp name="--.HHZ">
      <acc value="0.0746461900" flag="0"/>
      <vel value="0.0354068406" flag="0"/>
      <psa03 value="0.1048919631" flag="0"/>
      <psa10 value="0.0234697686" flag="0"/>
      <psa30 value="0.0016137956" flag="0"/>
    </comp>
    <comp name="--.HHN">
      <acc value="0.0857979084" flag="0"/>
      <vel value="0.0458691077" flag="0"/>
      <psa03 value="0.1436853187" flag="0"/>
      <psa10 value="0.0513261428" flag="0"/>
      <psa30 value="0.0022902763" flag="0"/>
    </comp>
    <comp name="--.HHE">
      <acc value="0.0815978016" flag="0"/>
      <vel value="0.0418056011" flag="0"/>
      <psa03 value="0.1641815184" flag="0"/>
      <psa10 value="0.0547495679" flag="0"/>
      <psa30 value="0.0027093169" flag="0"/>
    </comp>
  </station>
  <station code="LES3" name="LES3" netid="HT" insttype="" lat="39.3032" lon="26.1807">
    <comp name="--.HHN">
      <acc value="0.1038891194" flag="0"/>
      <vel value="0.0480026731" flag="0"/>
      <psa03 value="0.1483050025" flag="0"/>
      <psa10 value="0.0420931300" flag="0"/>
      <psa30 value="0.0020011178" flag="0"/>
    </comp>
    <comp name="--.HHE">
      <acc value="0.1489163465" flag="0"/>
      <vel value="0.0388561507" flag="0"/>
      <psa03 value="0.1755670073" flag="0"/>
      <psa10 value="0.0258608118" flag="0"/>
      <psa30 value="0.0012372590" flag="0"/>
    </comp>
    <comp name="--.HHZ">
      <acc value="0.0815671367" flag="0"/>
      <vel value="0.0263562869" flag="0"/>
      <psa03 value="0.1488961909" flag="0"/>
      <psa10 value="0.0185012735" flag="0"/>
      <psa30 value="0.0011818916" flag="0"/>
    </comp>
  </station>
  <station code="AKS" name="AKS" netid="KO" insttype="CMG-5T" lat="38.8785" lon="27.8129">
    <comp name="--.HNN">
      <acc value="0.2686535623" flag="0"/>
      <vel value="0.0948792390" flag="0"/>
      <psa03 value="0.9911609594" flag="0"/>
      <psa10 value="0.0415618418" flag="0"/>
      <psa30 value="0.0042471448" flag="0"/>
    </comp>
    <comp name="--.HNE">
      <acc value="0.1510283221" flag="0"/>
      <vel value="0.0534920446" flag="0"/>
      <psa03 value="0.1845935271" flag="0"/>
      <psa10 value="0.0518763541" flag="0"/>
      <psa30 value="0.0039541558" flag="0"/>
    </comp>
    <comp name="--.HNZ">
      <acc value="0.0837072155" flag="0"/>
      <vel value="0.0306441924" flag="0"/>
      <psa03 value="0.1114156300" flag="0"/>
      <psa10 value="0.0228274637" flag="0"/>
      <psa30 value="0.0023868232" flag="0"/>
    </comp>
  </station>
  <station code="ARMT" name="ARMT" netid="KO" insttype="CMG-3ESP" lat="40.5683" lon="28.866">
    <comp name="--.HHE">
      <acc value="0.1688494489" flag="0"/>
      <vel value="0.0787639951" flag="0"/>
      <psa03 value="0.3836997387" flag="0"/>
      <psa10 value="0.0314531126" flag="0"/>
      <psa30 value="0.0026318215" flag="0"/>
    </comp>
    <comp name="--.HHZ">
      <acc value="0.1009390552" flag="0"/>
      <vel value="0.0359030659" flag="0"/>
      <psa03 value="0.3577006234" flag="0"/>
      <psa10 value="0.0250431480" flag="0"/>
      <psa30 value="0.0012802885" flag="0"/>
    </comp>
  </station>
  <station code="AVCI" name="AVCI" netid="KO" insttype="CMG-5T" lat="40.9958" lon="28.7225">
    <comp name="--.HNE">
      <acc value="0.1548932797" flag="0"/>
      <vel value="0.0672957390" flag="0"/>
      <psa03 value="0.4209288911" flag="0"/>
      <psa10 value="0.0454407417" flag="0"/>
      <psa30 value="0.0032257354" flag="0"/>
    </comp>
    <comp name="--.HNZ">
      <acc value="0.0968681442" flag="0"/>
      <vel value="0.0372499114" flag="0"/>
      <psa03 value="0.2243240878" flag="0"/>
      <psa10 value="0.0279394045" flag="0"/>
      <psa30 value="0.0029629132" flag="0"/>
    </comp>
    <comp name="--.HNN">
      <acc value="0.0904328967" flag="0"/>
      <vel value="0.0402417446" flag="0"/>
      <psa03 value="0.2656104987" flag="0"/>
      <psa10 value="0.0572531415" flag="0"/>
      <psa30 value="0.0049959164" flag="0"/>
    </comp>
  </station>
  <station code="BALB" name="BALB" netid="KO" insttype="CMG-5T" lat="39.6507" lon="27.8642">
    <comp name="--.HNN">
      <acc value="0.7866527858" flag="0"/>
      <vel value="0.2950198519" flag="0"/>
      <psa03 value="1.3089100684" flag="0"/>
      <psa10 value="0.1455127566" flag="0"/>
      <psa30 value="0.0100928851" flag="0"/>
    </comp>
    <comp name="--.HNE">
      <acc value="0.5949463966" flag="0"/>
      <vel value="0.1746221961" flag="0"/>
      <psa03 value="1.4326195584" flag="0"/>
      <psa10 value="0.0879845691" flag="0"/>
      <psa30 value="0.0074313826" flag="0"/>
    </comp>
    <comp name="--.HNZ">
      <acc value="0.4292246324" flag="0"/>
      <vel value="0.1367288746" flag="0"/>
      <psa03 value="0.5896850373" flag="0"/>
      <psa10 value="0.0491727908" flag="0"/>
      <psa30 value="0.0060317497" flag="0"/>
    </comp>
  </station>
  <station code="BIGA" name="BIGA" netid="KO" insttype="CMG-5T" lat="40.2813" lon="27.1505">
    <comp name="--.HNN">
      <acc value="0.4671502750" flag="0"/>
      <vel value="0.1845919806" flag="0"/>
      <psa03 value="0.8370736856" flag="0"/>
      <psa10 value="0.1032056019" flag="0"/>
      <psa30 value="0.0100996012" flag="0"/>
    </comp>
    <comp name="--.HNZ">
      <acc value="0.2735949104" flag="0"/>
      <vel value="0.0414463745" flag="0"/>
      <psa03 value="0.1677903454" flag="0"/>
      <psa10 value="0.0356310968" flag="0"/>
      <psa30 value="0.0017477385" flag="0"/>
    </comp>
    <comp name="--.HNE">
      <acc value="0.2887838537" flag="0"/>
      <vel value="0.0903320850" flag="0"/>
      <psa03 value="0.6733752975" flag="0"/>
      <psa10 value="0.0721825188" flag="0"/>
      <psa30 value="0.0052865217" flag="0"/>
    </comp>
  </station>
  <station code="BMYO" name="BMYO" netid="KO" insttype="CMG-5T" lat="39.8098" lon="26.6009">
    <comp name="--.HNZ">
      <acc value="0.2068535564" flag="0"/>
      <vel value="0.0852908776" flag="0"/>
      <psa03 value="0.1753487796" flag="0"/>
      <psa10 value="0.0921563416" flag="0"/>
      <psa30 value="0.0033064993" flag="0"/>
    </comp>
    <comp name="--.HNE">
      <acc value="0.2663584177" flag="0"/>
      <vel value="0.1837122538" flag="0"/>
      <psa03 value="0.4333799963" flag="0"/>
      <psa10 value="0.1412563030" flag="0"/>
      <psa30 value="0.0103091245" flag="0"/>
    </comp>
    <comp name="--.HNN">
      <acc value="0.2623658225" flag="0"/>
      <vel value="0.0995092208" flag="0"/>
      <psa03 value="0.5540966955" flag="0"/>
      <psa10 value="0.0875852535" flag="0"/>
      <psa30 value="0.0050411691" flag="0"/>
    </comp>
  </station>
  <station code="BOTS" name="BOTS" netid="KO" insttype="CMG-5T" lat="40.9902" lon="27.981">
    <comp name="--.HNZ">
      <acc value="0.0350967136" flag="0"/>
      <vel value="0.0142509087" flag="0"/>
      <psa03 value="0.1049380204" flag="0"/>
      <psa10 value="0.0153004896" flag="0"/>
      <psa30 value="0.0012087634" flag="0"/>
    </comp>
    <comp name="--.HNE">
      <acc value="0.1546415793" flag="0"/>
      <vel value="0.0646023694" flag="0"/>
      <psa03 value="0.3023680677" flag="0"/>
      <psa10 value="0.0312933570" flag="0"/>
      <psa30 value="0.0019945595" flag="0"/>
    </comp>
    <comp name="--.HNN">
      <acc value="0.0966472752" flag="0"/>
      <vel value="0.0593983801" flag="0"/>
      <psa03 value="0.2582531513" flag="0"/>
      <psa10 value="0.0536216020" flag="0"/>
      <psa30 value="0.0035023334" flag="0"/>
    </comp>
  </station>
  <station code="BUYK" name="BUYK" netid="KO" insttype="ACEBOX" lat="41.0168" lon="28.5828">
    <comp name="--.HNZ">
      <acc value="0.0842823011" flag="0"/>
      <vel value="0.0341063160" flag="0"/>
      <psa03 value="0.1670849405" flag="0"/>
      <psa10 value="0.0500350048" flag="0"/>
      <psa30 value="0.0019363823" flag="0"/>
    </comp>
    <comp name="--.HNE">
      <acc value="0.1331268937" flag="0"/>
      <vel value="0.0602948216" flag="0"/>
      <psa03 value="0.5178912802" flag="0"/>
      <psa10 value="0.0665514374" flag="0"/>
      <psa30 value="0.0047184264" flag="0"/>
    </comp>
    <comp name="--.HNN">
      <acc value="0.1270276839" flag="0"/>
      <vel value="0.0707370443" flag="0"/>
      <psa03 value="0.3404710511" flag="0"/>
      <psa10 value="0.0634358070" flag="0"/>
      <psa30 value="0.0051965864" flag="0"/>
    </comp>
  </station>
  <station code="CANM" name="CANM" netid="KO" insttype="CMG-5T" lat="40.0113" lon="27.0529">
    <comp name="--.HNE">
      <acc value="0.4970403176" flag="0"/>
      <vel value="0.1763373495" flag="0"/>
      <psa03 value="0.8247115635" flag="0"/>
      <psa10 value="0.1259092846" flag="0"/>
      <psa30 value="0.0112160003" flag="0"/>
    </comp>
    <comp name="--.HNZ">
      <acc value="0.6715469783" flag="0"/>
      <vel value="0.1582893469" flag="0"/>
      <psa03 value="0.8050080512" flag="0"/>
      <psa10 value="0.0873510370" flag="0"/>
      <psa30 value="0.0055912357" flag="0"/>
    </comp>
    <comp name="--.HNN">
      <acc value="0.5424727053" flag="0"/>
      <vel value="0.2425712188" flag="0"/>
      <psa03 value="0.9176420472" flag="0"/>
      <psa10 value="0.1911409740" flag="0"/>
      <psa30 value="0.0136218641" flag="0"/>
    </comp>
  </station>
  <station code="CRLT" name="CRLT" netid="KO" insttype="CMG-3ESP" lat="41.129" lon="27.736">
    <comp name="--.HHN">
      <acc value="0.0478145639" flag="0"/>
      <vel value="0.0310989608" flag="0"/>
      <psa03 value="0.0856031410" flag="0"/>
      <psa10 value="0.0334988179" flag="0"/>
      <psa30 value="0.0030685779" flag="0"/>
    </comp>
    <comp name="--.HHZ">
      <acc value="0.0345121373" flag="0"/>
      <vel value="0.0165264816" flag="0"/>
      <psa03 value="0.0755123387" flag="0"/>
      <psa10 value="0.0149279683" flag="0"/>
      <psa30 value="0.0011406706" flag="0"/>
    </comp>
    <comp name="--.HHE">
      <acc value="0.0351185369" flag="0"/>
      <vel value="0.0222469889" flag="0"/>
      <psa03 value="0.0961883496" flag="0"/>
      <psa10 value="0.0135340086" flag="0"/>
      <psa30 value="0.0015509546" flag="0"/>
    </comp>
  </station>
  <station code="DST" name="DST" netid="KO" insttype="CMG-5T" lat="39.6041" lon="28.6267">
    <comp name="--.HNZ">
      <acc value="0.3230206710" flag="0"/>
      <vel value="0.1026826447" flag="0"/>
      <psa03 value="0.4547850991" flag="0"/>
      <psa10 value="0.0748461798" flag="0"/>
      <psa30 value="0.0045534722" flag="0"/>
    </comp>
    <comp name="--.HNE">
      <acc value="0.3718210403" flag="0"/>
      <vel value="0.1018255596" flag="0"/>
      <psa03 value="0.6773297974" flag="0"/>
      <psa10 value="0.0375668728" flag="0"/>
      <psa30 value="0.0025098093" flag="0"/>
    </comp>
  </station>
  <station code="EDC" name="EDC" netid="KO" insttype="CMG-3T" lat="40.3465" lon="27.8618">
    <comp name="--.HHZ">
      <acc value="0.2487730382" flag="0"/>
      <vel value="0.0680513243" flag="0"/>
      <psa03 value="0.3229551965" flag="0"/>
      <psa10 value="0.0404919322" flag="0"/>
      <psa30 value="0.0026412072" flag="0"/>
    </comp>
    <comp name="--.HHE">
      <acc value="0.3286020556" flag="0"/>
      <vel value="0.1151049604" flag="0"/>
      <psa03 value="0.7019443628" flag="0"/>
      <psa10 value="0.0825189601" flag="0"/>
      <psa30 value="0.0034195485" flag="0"/>
    </comp>
    <comp name="--.HHN">
      <acc value="0.4145186976" flag="0"/>
      <vel value="0.1914816235" flag="0"/>
      <psa03 value="1.0649706440" flag="0"/>
      <psa10 value="0.0720076687" flag="0"/>
      <psa30 value="0.0079499706" flag="0"/>
    </comp>
  </station>
  <station code="ENEZ" name="ENEZ" netid="KO" insttype="CMG-3T" lat="40.7362" lon="26.153">
    <comp name="--.HHN">
      <acc value="0.0853482866" flag="0"/>
      <vel value="0.0540816510" flag="0"/>
      <psa03 value="0.2871652307" flag="0"/>
      <psa10 value="0.0387283584" flag="0"/>
      <psa30 value="0.0032554561" flag="0"/>
    </comp>
    <comp name="--.HHZ">
      <acc value="0.0472744230" flag="0"/>
      <vel value="0.0240499344" flag="0"/>
      <psa03 value="0.1176966432" flag="0"/>
      <psa10 value="0.0198431126" flag="0"/>
      <psa30 value="0.0015579570" flag="0"/>
    </comp>
    <comp name="--.HHE">
      <acc value="0.0821257681" flag="0"/>
      <vel value="0.0381001876" flag="0"/>
      <psa03 value="0.3267006096" flag="0"/>
      <psa10 value="0.0552887196" flag="0"/>
      <psa30 value="0.0029887593" flag="0"/>
    </comp>
  </station>
  <station code="ENZZ" name="ENZZ" netid="KO" insttype="CMG-5T" lat="40.607" lon="26.1406">
    <comp name="--.HNN">
      <acc value="0.2041755224" flag="0"/>
      <vel value="0.1489128580" flag="0"/>
      <psa03 value="0.3413509163" flag="0"/>
      <psa10 value="0.1515167508" flag="0"/>
      <psa30 value="0.0109299287" flag="0"/>
    </comp>
    <comp name="--.HNE">
      <acc value="0.2834873717" flag="0"/>
      <vel value="0.1842442807" flag="0"/>
      <psa03 value="0.9842297463" flag="0"/>
      <psa10 value="0.1423094929" flag="0"/>
      <psa30 value="0.0067894595" flag="0"/>
    </comp>
    <comp name="--.HNZ">
      <acc value="0.0823098822" flag="0"/>
      <vel value="0.0416632127" flag="0"/>
      <psa03 value="0.2865541483" flag="0"/>
      <psa10 value="0.0286319791" flag="0"/>
      <psa30 value="0.0019564340" flag="0"/>
    </comp>
  </station>
  <station code="ERIK" name="ERIK" netid="KO" insttype="CMG-3ESP" lat="40.6708" lon="26.5132">
    <comp name="--.HHN">
      <acc value="0.0844908872" flag="0"/>
      <vel value="0.0572743077" flag="0"/>
      <psa03 value="0.2266608824" flag="0"/>
      <psa10 value="0.0436070737" flag="0"/>
      <psa30 value="0.0025285148" flag="0"/>
    </comp>
    <comp name="--.HHE">
      <acc value="0.0902593594" flag="0"/>
      <vel value="0.0658256168" flag="0"/>
      <psa03 value="0.2708349098" flag="0"/>
      <psa10 value="0.0511058315" flag="0"/>
      <psa30 value="0.0036233258" flag="0"/>
    </comp>
    <comp name="--.HHZ">
      <acc value="0.0686151871" flag="0"/>
      <vel value="0.0236244125" flag="0"/>
      <psa03 value="0.1292287798" flag="0"/>
      <psa10 value="0.0210989244" flag="0"/>
      <psa30 value="0.0013218672" flag="0"/>
    </comp>
  </station>
  <station code="EZN" name="EZN" netid="KO" insttype="CMG-3ESP" lat="39.8255" lon="26.3246">
    <comp name="--.HHN">
      <acc value="0.1864853859" flag="0"/>
      <vel value="0.0276140167" flag="0"/>
      <psa03 value="0.0880664962" flag="0"/>
      <psa10 value="0.0189731064" flag="0"/>
      <psa30 value="0.0023202238" flag="0"/>
    </comp>
    <comp name="--.HHE">
      <acc value="0.2108829326" flag="0"/>
      <vel value="0.0340037406" flag="0"/>
      <psa03 value="0.1246223182" flag="0"/>
      <psa10 value="0.0142203825" flag="0"/>
      <psa30 value="0.0009717291" flag="0"/>
    </comp>
    <comp name="--.HHZ">
      <acc value="0.1091068677" flag="0"/>
      <vel value="0.0189384183" flag="0"/>
      <psa03 value="0.0861872705" flag="0"/>
      <psa10 value="0.0172030240" flag="0"/>
      <psa30 value="0.0010034808" flag="0"/>
    </comp>
  </station>
  <station code="EZNE" name="EZNE" netid="KO" insttype="CMG-5T" lat="39.756" lon="26.3655">
    <comp name="--.HNE">
      <acc value="0.1141449045" flag="0"/>
      <vel value="0.0480440004" flag="0"/>
      <psa03 value="0.1470466805" flag="0"/>
      <psa10 value="0.0423446716" flag="0"/>
      <psa30 value="0.0031164227" flag="0"/>
    </comp>
    <comp name="--.HNZ">
      <acc value="0.1088775863" flag="0"/>
      <vel value="0.0256873151" flag="0"/>
      <psa03 value="0.1028536431" flag="0"/>
      <psa10 value="0.0300017969" flag="0"/>
      <psa30 value="0.0013993899" flag="0"/>
    </comp>
    <comp name="--.HNN">
      <acc value="0.1766281746" flag="0"/>
      <vel value="0.0626915166" flag="0"/>
      <psa03 value="0.1659980208" flag="0"/>
      <psa10 value="0.0246153324" flag="0"/>
      <psa30 value="0.0018108446" flag="0"/>
    </comp>
  </station>
  <station code="GADA" name="GADA" netid="KO" insttype="CMG-3T" lat="40.1908" lon="25.8987">
    <comp name="--.HHZ">
      <acc value="0.0401586072" flag="0"/>
      <vel value="0.0204753636" flag="0"/>
      <psa03 value="0.1083465302" flag="0"/>
      <psa10 value="0.0128402657" flag="0"/>
      <psa30 value="0.0012297884" flag="0"/>
    </comp>
    <comp name="--.HHN">
      <acc value="0.0539452462" flag="0"/>
      <vel value="0.0328724681" flag="0"/>
      <psa03 value="0.1660145273" flag="0"/>
      <psa10 value="0.0258158610" flag="0"/>
      <psa30 value="0.0014195329" flag="0"/>
    </comp>
    <comp name="--.HHE">
      <acc value="0.0714085456" flag="0"/>
      <vel value="0.0421700509" flag="0"/>
      <psa03 value="0.1664867180" flag="0"/>
      <psa10 value="0.0259029991" flag="0"/>
      <psa30 value="0.0027475676" flag="0"/>
    </comp>
  </station>
  <station code="GAZK" name="GAZK" netid="KO" insttype="CMG-6T" lat="40.7479" lon="27.3275">
    <comp name="--.HHN">
      <acc value="0.2979797397" flag="0"/>
      <vel value="0.1442246743" flag="0"/>
      <psa03 value="0.8076164371" flag="0"/>
      <psa10 value="0.0858648600" flag="0"/>
      <psa30 value="0.0062424705" flag="0"/>
    </comp>
    <comp name="--.HHE">
      <acc value="0.3991908619" flag="0"/>
      <vel value="0.1772841832" flag="0"/>
      <psa03 value="1.0389436640" flag="0"/>
      <psa10 value="0.0724285819" flag="0"/>
      <psa30 value="0.0065247281" flag="0"/>
    </comp>
    <comp name="--.HHZ">
      <acc value="0.2568195022" flag="0"/>
      <vel value="0.1091293084" flag="0"/>
      <psa03 value="0.5800128035" flag="0"/>
      <psa10 value="0.0638300659" flag="0"/>
      <psa30 value="0.0040434086" flag="0"/>
    </comp>
  </station>
  <station code="GOMA" name="GOMA" netid="KO" insttype="CMG-5T" lat="38.7077" lon="27.9175">
    <comp name="--.HNE">
      <acc value="0.0667860182" flag="0"/>
      <vel value="0.0337815290" flag="0"/>
      <psa03 value="0.2247815684" flag="0"/>
      <psa10 value="0.0252490886" flag="0"/>
      <psa30 value="0.0016569806" flag="0"/>
    </comp>
    <comp name="--.HNN">
      <acc value="0.0755244821" flag="0"/>
      <vel value="0.0369185443" flag="0"/>
      <psa03 value="0.1535483298" flag="0"/>
      <psa10 value="0.0239709275" flag="0"/>
      <psa30 value="0.0017893100" flag="0"/>
    </comp>
    <comp name="--.HNZ">
      <acc value="0.0607652489" flag="0"/>
      <vel value="0.0245895880" flag="0"/>
      <psa03 value="0.0775153033" flag="0"/>
      <psa10 value="0.0155356872" flag="0"/>
      <psa30 value="0.0019281187" flag="0"/>
    </comp>
  </station>
  <station code="GONE" name="GONE" netid="KO" insttype="CMG-5T" lat="40.0466" lon="27.686">
