<stationlist created="1709636466">
	<station code="MYT1" name="MYT1" netid="HI" source="ITSAK Strong Motion Network" insttype="" lat="39.085" lon="26.5694">
		<comp name=".HNE" depth="0.0">
			<acc value="0.080045882700576" flag="0"/>
			<vel value="0.0450743509891" flag="0"/>
			<psa03 value="0.236048991253732" flag="0"/>
			<psa10 value="0.0465966943021538" flag="0"/>
			<psa30 value="0.00293552863103331" flag="0"/>
		</comp>
		<comp name=".HNN" depth="0.0">
			<acc value="0.063592051017426" flag="0"/>
			<vel value="0.0327692146519" flag="0"/>
			<psa03 value="0.181763770124407" flag="0"/>
			<psa10 value="0.0593411185579363" flag="0"/>
			<psa30 value="0.00303415099761225" flag="0"/>
		</comp>
		<comp name=".HNZ" depth="0.0">
			<acc value="0.04137739011633" flag="0"/>
			<vel value="0.0202094540674" flag="0"/>
			<psa03 value="0.125406422143506" flag="0"/>
			<psa10 value="0.022938415182431" flag="0"/>
			<psa30 value="0.00268366465461154" flag="0"/>
		</comp>
	</station>
	<station code="LIA" name="LIA" netid="HL" source="National Observatory of Athens Seismic Network" insttype="" lat="39.89725" lon="25.18055">
		<comp name="00.HNE" depth="0.0">
			<acc value="0.022323958913886" flag="0"/>
			<vel value="0.0116412489939" flag="0"/>
			<psa03 value="0.0652946171147133" flag="0"/>
			<psa10 value="0.0108463532051537" flag="0"/>
			<psa30 value="0.000966560488223754" flag="0"/>
		</comp>
		<comp name="00.HNN" depth="0.0">
			<acc value="0.021773720498142" flag="0"/>
			<vel value="0.0178206412985" flag="0"/>
			<psa03 value="0.0532291251268249" flag="0"/>
			<psa10 value="0.0140037079894412" flag="0"/>
			<psa30 value="0.00206075588996579" flag="0"/>
		</comp>
		<comp name="00.HNZ" depth="0.0">
			<acc value="0.0097603665620202" flag="0"/>
			<vel value="0.00675785003066" flag="0"/>
			<psa03 value="0.0231810642775545" flag="0"/>
			<psa10 value="0.00598256740948367" flag="0"/>
			<psa30 value="0.000471474566207352" flag="0"/>
		</comp>
	</station>
	<station code="PRK" name="PRK" netid="HL" source="National Observatory of Athens Seismic Network" insttype="" lat="39.24565" lon="26.26499">
		<comp name=".HNE" depth="0.0">
			<acc value="0.083238537069636" flag="0"/>
			<vel value="0.0396454875136" flag="0"/>
			<psa03 value="0.172089472999821" flag="0"/>
			<psa10 value="0.0508609817903811" flag="0"/>
			<psa30 value="0.00302538458354914" flag="0"/>
		</comp>
		<comp name=".HNN" depth="0.0">
			<acc value="0.100483795309872" flag="0"/>
			<vel value="0.05431959121" flag="0"/>
			<psa03 value="0.178670086016282" flag="0"/>
			<psa10 value="0.0623830163187359" flag="0"/>
			<psa30 value="0.00290423384957432" flag="0"/>
		</comp>
		<comp name=".HNZ" depth="0.0">
			<acc value="0.075733844948736" flag="0"/>
			<vel value="0.0366573477673" flag="0"/>
			<psa03 value="0.106735643629187" flag="0"/>
			<psa10 value="0.024527567955991" flag="0"/>
			<psa30 value="0.00174223624793474" flag="0"/>
		</comp>
	</station>
	<station code="SMTH" name="SMTH" netid="HL" source="National Observatory of Athens Seismic Network" insttype="" lat="40.47094" lon="25.53045">
		<comp name="00.HNE" depth="0.0">
			<acc value="0.100843421408196" flag="0"/>
			<vel value="0.0307625767361" flag="0"/>
			<psa03 value="0.131028700841791" flag="0"/>
			<psa10 value="0.0273861741996394" flag="0"/>
			<psa30 value="0.0021535889146961" flag="0"/>
		</comp>
		<comp name="00.HNN" depth="0.0">
			<acc value="0.092193279951192" flag="0"/>
			<vel value="0.0446772067828" flag="0"/>
			<psa03 value="0.172167248985185" flag="0"/>
			<psa10 value="0.03270142005857" flag="0"/>
			<psa30 value="0.00242512544432343" flag="0"/>
		</comp>
		<comp name="00.HNZ" depth="0.0">
			<acc value="0.097491559615344" flag="0"/>
			<vel value="0.048130497727" flag="0"/>
			<psa03 value="0.163518144774452" flag="0"/>
			<psa10 value="0.0323801137736166" flag="0"/>
			<psa30 value="0.00180604505828706" flag="0"/>
		</comp>
	</station>
	<station code="AKS" name="AKS" netid="KO" source="Bogazici University Kandilli Observatory And Earthquake Research Institute (KOERI)" insttype="" lat="38.8785" lon="27.8129">
		<comp name=".HNE" depth="0.0">
			<acc value="0.15056791100856" flag="0"/>
			<vel value="0.0543929961056" flag="0"/>
			<psa03 value="0.190213079849495" flag="0"/>
			<psa10 value="0.052148982114016" flag="0"/>
			<psa30 value="0.00431256985325599" flag="0"/>
		</comp>
		<comp name=".HNN" depth="0.0">
			<acc value="0.26935426829508" flag="0"/>
			<vel value="0.0946516970863" flag="0"/>
			<psa03 value="1.00492057105487" flag="0"/>
			<psa10 value="0.0418537663566497" flag="0"/>
			<psa30 value="0.00461857345783769" flag="0"/>
		</comp>
		<comp name=".HNZ" depth="0.0">
			<acc value="0.08331421449747" flag="0"/>
			<vel value="0.0305418862986" flag="0"/>
			<psa03 value="0.112786961165906" flag="0"/>
			<psa10 value="0.0229656738631704" flag="0"/>
			<psa30 value="0.00266269597387202" flag="0"/>
		</comp>
	</station>
	<station code="AVCI" name="AVCI" netid="KO" source="Bogazici University Kandilli Observatory And Earthquake Research Institute (KOERI)" insttype="" lat="40.9958" lon="28.7225">
		<comp name=".HNE" depth="0.0">
			<acc value="0.1544089500924" flag="0"/>
			<vel value="0.0677567122187" flag="0"/>
			<psa03 value="0.420504648036077" flag="0"/>
			<psa10 value="0.0455028780922996" flag="0"/>
			<psa30 value="0.00365161731839262" flag="0"/>
		</comp>
		<comp name=".HNN" depth="0.0">
			<acc value="0.090437706832872" flag="0"/>
			<vel value="0.0405394753864" flag="0"/>
			<psa03 value="0.265573572112504" flag="0"/>
			<psa10 value="0.0572178666529664" flag="0"/>
			<psa30 value="0.00540679275680203" flag="0"/>
		</comp>
		<comp name=".HNZ" depth="0.0">
			<acc value="0.097087239222504" flag="0"/>
			<vel value="0.0375926376509" flag="0"/>
			<psa03 value="0.223682088673789" flag="0"/>
			<psa10 value="0.0279982391209206" flag="0"/>
			<psa30 value="0.00328881120093389" flag="0"/>
		</comp>
	</station>
	<station code="BIGA" name="BIGA" netid="KO" source="Bogazici University Kandilli Observatory And Earthquake Research Institute (KOERI)" insttype="" lat="40.28134" lon="27.15048">
		<comp name=".HNE" depth="0.0">
			<acc value="0.28860873549564" flag="0"/>
			<vel value="0.0927025344828" flag="0"/>
			<psa03 value="0.680880271642619" flag="0"/>
			<psa10 value="0.0723785497237682" flag="0"/>
			<psa30 value="0.00525498311685253" flag="0"/>
		</comp>
		<comp name=".HNN" depth="0.0">
			<acc value="0.46712680220484" flag="0"/>
			<vel value="0.185202816659" flag="0"/>
			<psa03 value="0.837895839822306" flag="0"/>
			<psa10 value="0.103319464407537" flag="0"/>
			<psa30 value="0.010210194708632" flag="0"/>
		</comp>
		<comp name=".HNZ" depth="0.0">
			<acc value="0.25903819408416" flag="0"/>
			<vel value="0.0432426118561" flag="0"/>
			<psa03 value="0.169332863304703" flag="0"/>
			<psa10 value="0.0356185770559339" flag="0"/>
			<psa30 value="0.00181170189135707" flag="0"/>
		</comp>
	</station>
	<station code="BOTS" name="BOTS" netid="KO" source="Bogazici University Kandilli Observatory And Earthquake Research Institute (KOERI)" insttype="" lat="40.9902" lon="27.981">
		<comp name=".HNE" depth="0.0">
			<acc value="0.15376480109082" flag="0"/>
			<vel value="0.0648892879027" flag="0"/>
			<psa03 value="0.30887944091352" flag="0"/>
			<psa10 value="0.0313911245079297" flag="0"/>
			<psa30 value="0.00202370593558786" flag="0"/>
		</comp>
		<comp name=".HNN" depth="0.0">
			<acc value="0.096548559253674" flag="0"/>
			<vel value="0.0601286354021" flag="0"/>
			<psa03 value="0.260402333710169" flag="0"/>
			<psa10 value="0.053577402989979" flag="0"/>
			<psa30 value="0.00363758805569045" flag="0"/>
		</comp>
		<comp name=".HNZ" depth="0.0">
			<acc value="0.03538807475319" flag="0"/>
			<vel value="0.0229281279026" flag="0"/>
			<psa03 value="0.10513470424133" flag="0"/>
			<psa10 value="0.0153386942382165" flag="0"/>
			<psa30 value="0.00122153883761845" flag="0"/>
		</comp>
	</station>
	<station code="BRGA" name="BRGA" netid="KO" source="Bogazici University Kandilli Observatory And Earthquake Research Institute (KOERI)" insttype="" lat="40.8846" lon="29.065">
		<comp name=".HNE" depth="0.0">
			<acc value="0.08215618545414" flag="0"/>
			<vel value="0.0563171309621" flag="0"/>
			<psa03 value="0.241598983913705" flag="0"/>
			<psa10 value="0.0273802488071028" flag="0"/>
			<psa30 value="0.00210093021798281" flag="0"/>
		</comp>
		<comp name=".HNN" depth="0.0">
			<acc value="0.12294801787656" flag="0"/>
			<vel value="0.0624398573449" flag="0"/>
			<psa03 value="0.219628195123533" flag="0"/>
			<psa10 value="0.0343141056410803" flag="0"/>
			<psa30 value="0.00196258251146159" flag="0"/>
		</comp>
		<comp name=".HNZ" depth="0.0">
			<acc value="0.05725143444294" flag="0"/>
			<vel value="0.0239560541568" flag="0"/>
			<psa03 value="0.166403523416718" flag="0"/>
			<psa10 value="0.00780139289775555" flag="0"/>
			<psa30 value="0.000954070389979206" flag="0"/>
		</comp>
	</station>
	<station code="BUYA" name="BUYA" netid="KO" source="Bogazici University Kandilli Observatory And Earthquake Research Institute (KOERI)" insttype="" lat="40.8694" lon="29.1278">
		<comp name=".HNE" depth="0.0">
			<acc value="0.00093545213924982" flag="0"/>
			<vel value="0.000872387705235" flag="0"/>
			<psa03 value="0.000552005317644315" flag="0"/>
			<psa10 value="0.000429636107768427" flag="0"/>
			<psa30 value="0.000309851854289592" flag="0"/>
		</comp>
		<comp name=".HNN" depth="0.0">
			<acc value="0.0012455850283194" flag="0"/>
			<vel value="0.000962175586872" flag="0"/>
			<psa03 value="0.000649279624544289" flag="0"/>
			<psa10 value="0.000478141557342689" flag="0"/>
			<psa30 value="0.000358511510044935" flag="0"/>
		</comp>
		<comp name=".HNZ" depth="0.0">
			<acc value="0.0030999811598916" flag="0"/>
			<vel value="0.0012015204502" flag="0"/>
			<psa03 value="0.000656821017678989" flag="0"/>
			<psa10 value="0.000376234708859377" flag="0"/>
			<psa30 value="0.000423133134660172" flag="0"/>
		</comp>
	</station>
	<station code="CANM" name="CANM" netid="KO" source="Bogazici University Kandilli Observatory And Earthquake Research Institute (KOERI)" insttype="" lat="40.0113" lon="27.0529">
		<comp name=".HNE" depth="0.0">
			<acc value="0.48879784464462" flag="0"/>
			<vel value="0.178567679994" flag="0"/>
			<psa03 value="0.833591888039369" flag="0"/>
			<psa10 value="0.126272079905513" flag="0"/>
			<psa30 value="0.0118867374380173" flag="0"/>
		</comp>
		<comp name=".HNN" depth="0.0">
			<acc value="0.53567565497928" flag="0"/>
			<vel value="0.245272272697" flag="0"/>
			<psa03 value="0.928431170674418" flag="0"/>
			<psa10 value="0.191080168123292" flag="0"/>
			<psa30 value="0.0134492026103275" flag="0"/>
		</comp>
		<comp name=".HNZ" depth="0.0">
			<acc value="0.67729797375048" flag="0"/>
			<vel value="0.159341390618" flag="0"/>
			<psa03 value="0.808718823654438" flag="0"/>
			<psa10 value="0.0877209135799208" flag="0"/>
			<psa30 value="0.00580392281475751" flag="0"/>
		</comp>
	</station>
	<station code="CESE" name="CESE" netid="KO" source="Bogazici University Kandilli Observatory And Earthquake Research Institute (KOERI)" insttype="" lat="38.3306" lon="26.2997">
		<comp name=".HNE" depth="0.0">
			<acc value="0.016950381338298" flag="0"/>
			<vel value="0.00615654058435" flag="0"/>
			<psa03 value="0.0207380235318727" flag="0"/>
			<psa10 value="0.00661621969832145" flag="0"/>
			<psa30 value="0.000907174470856644" flag="0"/>
		</comp>
		<comp name=".HNN" depth="0.0">
			<acc value="0.013989768222432" flag="0"/>
			<vel value="0.00668477703635" flag="0"/>
			<psa03 value="0.0237599151236148" flag="0"/>
			<psa10 value="0.00984990750805103" flag="0"/>
			<psa30 value="0.000941084425558795" flag="0"/>
		</comp>
		<comp name=".HNZ" depth="0.0">
			<acc value="0.0072477376911888" flag="0"/>
			<vel value="0.00444521334909" flag="0"/>
			<psa03 value="0.0155465090465859" flag="0"/>
			<psa10 value="0.00606626686042668" flag="0"/>
			<psa30 value="0.000914376718803424" flag="0"/>
		</comp>
	</station>
	<station code="CTYL" name="CTYL" netid="KO" source="Bogazici University Kandilli Observatory And Earthquake Research Institute (KOERI)" insttype="" lat="41.476" lon="28.2897">
		<comp name=".HNE" depth="0.0">
			<acc value="0.06682504100568" flag="0"/>
			<vel value="0.0371591223464" flag="0"/>
			<psa03 value="0.224680946510059" flag="0"/>
			<psa10 value="0.0241991099472701" flag="0"/>
			<psa30 value="0.0019651487231246" flag="0"/>
		</comp>
		<comp name=".HNN" depth="0.0">
			<acc value="0.076962421448934" flag="0"/>
			<vel value="0.0392206028872" flag="0"/>
			<psa03 value="0.171185829804253" flag="0"/>
			<psa10 value="0.0281269964004815" flag="0"/>
			<psa30 value="0.00132224905084474" flag="0"/>
		</comp>
		<comp name=".HNZ" depth="0.0">
			<acc value="0.044679937392168" flag="0"/>
			<vel value="0.0296701678032" flag="0"/>
			<psa03 value="0.125726182909109" flag="0"/>
			<psa10 value="0.0209939207442243" flag="0"/>
			<psa30 value="0.00111180271397351" flag="0"/>
		</comp>
	</station>
	<station code="EDC" name="EDC" netid="KO" source="Bogazici University Kandilli Observatory And Earthquake Research Institute (KOERI)" insttype="" lat="40.3465" lon="27.8618">
		<comp name=".HNE" depth="0.0">
			<acc value="0.33566969986284" flag="0"/>
			<vel value="0.117202009059" flag="0"/>
			<psa03 value="0.683145380026767" flag="0"/>
			<psa10 value="0.0827995975671098" flag="0"/>
			<psa30 value="0.00345125654547593" flag="0"/>
		</comp>
		<comp name=".HNN" depth="0.0">
			<acc value="0.40298508323064" flag="0"/>
			<vel value="0.19012651596" flag="0"/>
			<psa03 value="1.03191285916131" flag="0"/>
			<psa10 value="0.0747016711190541" flag="0"/>
			<psa30 value="0.00799644889215166" flag="0"/>
		</comp>
		<comp name=".HNZ" depth="0.0">
			<acc value="0.22102611943716" flag="0"/>
			<vel value="0.0708575594516" flag="0"/>
			<psa03 value="0.346688049715038" flag="0"/>
			<psa10 value="0.0411705835992162" flag="0"/>
			<psa30 value="0.00275668678363611" flag="0"/>
		</comp>
	</station>
	<station code="ENZZ" name="ENZZ" netid="KO" source="Bogazici University Kandilli Observatory And Earthquake Research Institute (KOERI)" insttype="" lat="40.607" lon="26.1406">
		<comp name=".HNE" depth="0.0">
			<acc value="0.28380878239314" flag="0"/>
			<vel value="0.18548058115" flag="0"/>
			<psa03 value="0.98832838857069" flag="0"/>
			<psa10 value="0.142644824519432" flag="0"/>
			<psa30 value="0.00686376677418985" flag="0"/>
		</comp>
		<comp name=".HNN" depth="0.0">
			<acc value="0.20391084541488" flag="0"/>
			<vel value="0.150240592982" flag="0"/>
			<psa03 value="0.346992361541209" flag="0"/>
			<psa10 value="0.151637935269212" flag="0"/>
			<psa30 value="0.0110441257857962" flag="0"/>
		</comp>
		<comp name=".HNZ" depth="0.0">
			<acc value="0.081491342862492" flag="0"/>
			<vel value="0.0418850320904" flag="0"/>
			<psa03 value="0.285514809788174" flag="0"/>
			<psa10 value="0.0286380127527978" flag="0"/>
			<psa30 value="0.00209865631734791" flag="0"/>
		</comp>
	</station>
	<station code="EZNE" name="EZNE" netid="KO" source="Bogazici University Kandilli Observatory And Earthquake Research Institute (KOERI)" insttype="" lat="39.756" lon="26.3655">
		<comp name=".HNE" depth="0.0">
			<acc value="0.11421829033632" flag="0"/>
			<vel value="0.0480696184471" flag="0"/>
			<psa03 value="0.14633811084851" flag="0"/>
			<psa10 value="0.0424230278175541" flag="0"/>
			<psa30 value="0.00312956898525408" flag="0"/>
		</comp>
		<comp name=".HNN" depth="0.0">
			<acc value="0.17252890071588" flag="0"/>
			<vel value="0.0631939625437" flag="0"/>
			<psa03 value="0.167345450398156" flag="0"/>
			<psa10 value="0.0246571371643084" flag="0"/>
			<psa30 value="0.00187257654900693" flag="0"/>
		</comp>
		<comp name=".HNZ" depth="0.0">
			<acc value="0.10590104411814" flag="0"/>
			<vel value="0.025910709058" flag="0"/>
			<psa03 value="0.102115306304752" flag="0"/>
			<psa10 value="0.030061505802208" flag="0"/>
			<psa30 value="0.00141457652125286" flag="0"/>
		</comp>
	</station>
	<station code="FOCM" name="FOCM" netid="KO" source="Bogazici University Kandilli Observatory And Earthquake Research Institute (KOERI)" insttype="" lat="38.7131" lon="26.7309">
		<comp name=".HNE" depth="0.0">
			<acc value="0.045942059031288" flag="0"/>
			<vel value="0.0170856270595" flag="0"/>
			<psa03 value="0.0959149372274063" flag="0"/>
			<psa10 value="0.00870661052021525" flag="0"/>
			<psa30 value="0.0014146744444042" flag="0"/>
		</comp>
		<comp name=".HNN" depth="0.0">
			<acc value="0.04378159609707" flag="0"/>
			<vel value="0.025027547204" flag="0"/>
			<psa03 value="0.130927662898648" flag="0"/>
			<psa10 value="0.0228363127936295" flag="0"/>
			<psa30 value="0.00135488652541452" flag="0"/>
		</comp>
		<comp name=".HNZ" depth="0.0">
			<acc value="0.053159329593858" flag="0"/>
			<vel value="0.0165469188148" flag="0"/>
			<psa03 value="0.0757428300908625" flag="0"/>
			<psa10 value="0.00620121580011166" flag="0"/>
			<psa30 value="0.000677192360671908" flag="0"/>
		</comp>
	</station>
	<station code="GOKC" name="GOKC" netid="KO" source="Bogazici University Kandilli Observatory And Earthquake Research Institute (KOERI)" insttype="" lat="40.1998" lon="25.9183">
		<comp name=".HNE" depth="0.0">
			<acc value="0.12101682696918" flag="0"/>
			<vel value="0.0841104701341" flag="0"/>
			<psa03 value="0.39756008640473" flag="0"/>
			<psa10 value="0.0826007968974621" flag="0"/>
			<psa30 value="0.015665369420494" flag="0"/>
		</comp>
		<comp name=".HNN" depth="0.0">
			<acc value="0.1306726679658" flag="0"/>
			<vel value="0.089947635933" flag="0"/>
			<psa03 value="0.406478760556221" flag="0"/>
			<psa10 value="0.0827881218068097" flag="0"/>
			<psa30 value="0.014026305840607" flag="0"/>
		</comp>
		<comp name=".HNZ" depth="0.0">
			<acc value="0.10363359429468" flag="0"/>
			<vel value="0.0681437526362" flag="0"/>
			<psa03 value="0.224433305105074" flag="0"/>
			<psa10 value="0.0638434193132917" flag="0"/>
			<psa30 value="0.018426000632122" flag="0"/>
		</comp>
	</station>
	<station code="GOMA" name="GOMA" netid="KO" source="Bogazici University Kandilli Observatory And Earthquake Research Institute (KOERI)" insttype="" lat="38.7077" lon="27.9175">
		<comp name=".HNE" depth="0.0">
			<acc value="0.06625299150072" flag="0"/>
			<vel value="0.0339756942638" flag="0"/>
			<psa03 value="0.224211769596008" flag="0"/>
			<psa10 value="0.0253661516330709" flag="0"/>
			<psa30 value="0.00166096232226695" flag="0"/>
		</comp>
		<comp name=".HNN" depth="0.0">
			<acc value="0.075260210780358" flag="0"/>
			<vel value="0.0367448992811" flag="0"/>
			<psa03 value="0.155002070209639" flag="0"/>
			<psa10 value="0.0239654263418707" flag="0"/>
			<psa30 value="0.00202708053413822" flag="0"/>
		</comp>
		<comp name=".HNZ" depth="0.0">
			<acc value="0.061033544546682" flag="0"/>
			<vel value="0.0253913704203" flag="0"/>
			<psa03 value="0.0784716306522402" flag="0"/>
			<psa10 value="0.0155696439124939" flag="0"/>
			<psa30 value="0.0021994167422337" flag="0"/>
		</comp>
	</station>
	<station code="GONE" name="GONE" netid="KO" source="Bogazici University Kandilli Observatory And Earthquake Research Institute (KOERI)" insttype="" lat="40.0466" lon="27.686">
		<comp name=".HNE" depth="0.0">
			<acc value="0.999375992088" flag="0"/>
			<vel value="0.309549945503" flag="0"/>
			<psa03 value="1.2211633960805" flag="0"/>
			<psa10 value="0.109417375863962" flag="0"/>
			<psa30 value="0.0108024331081842" flag="0"/>
		</comp>
		<comp name=".HNN" depth="0.0">
			<acc value="1.3365634501536" flag="0"/>
			<vel value="0.388726308772" flag="0"/>
			<psa03 value="1.63991596971892" flag="0"/>
			<psa10 value="0.148452879274644" flag="0"/>
			<psa30 value="0.0145423150236608" flag="0"/>
		</comp>
		<comp name=".HNZ" depth="0.0">
			<acc value="0.6609330987138" flag="0"/>
			<vel value="0.0938541190143" flag="0"/>
