<?xml version="1.0" encoding="UTF-8" standalone="yes"?>
<!DOCTYPE earthquake SYSTEM "stationlist.dtd">
<stationlist created="" xmlns="ch.ethz.sed.shakemap.usgs.xml">
  <station code="IDI" name="IDI" netid="MN" insttype="" lat="35.288" lon="24.89">
    <comp name="--.HHN">
      <acc value="0.0297974900" flag="0"/>
      <vel value="0.0168269157" flag="0"/>
      <psa03 value="0.0766839343" flag="0"/>
      <psa10 value="0.0129624097" flag="0"/>
      <psa30 value="0.0021364960" flag="0"/>
    </comp>
    <comp name="--.HHE">
      <acc value="0.0245572074" flag="0"/>
      <vel value="0.0111332965" flag="0"/>
      <psa03 value="0.0901447971" flag="0"/>
      <psa10 value="0.0067818287" flag="0"/>
      <psa30 value="0.0007699559" flag="0"/>
    </comp>
    <comp name="--.HHZ">
      <acc value="0.0291772995" flag="0"/>
      <vel value="0.0133535110" flag="0"/>
      <psa03 value="0.1031398850" flag="0"/>
      <psa10 value="0.0067980978" flag="0"/>
      <psa30 value="0.0006196058" flag="0"/>
    </comp>
  </station>
</stationlist>
