<?xml version="1.0" encoding="UTF-8" standalone="yes"?>
<!DOCTYPE earthquake SYSTEM "stationlist.dtd">
<stationlist created="" xmlns="ch.ethz.sed.shakemap.usgs.xml">
  <station code="GVD" name="GVD" netid="GE" insttype="STS-2/N" lat="34.8391" lon="24.0874">
    <comp name="--.HHE">
      <acc value="0.2676172318" flag="0"/>
      <vel value="0.0724720760" flag="0"/>
      <psa03 value="0.5585981691" flag="0"/>
      <psa10 value="0.0219466782" flag="0"/>
      <psa30 value="0.0035005131" flag="0"/>
    </comp>
    <comp name="--.HHZ">
      <acc value="0.3870484918" flag="0"/>
      <vel value="0.0443542727" flag="0"/>
      <psa03 value="0.2301384572" flag="0"/>
      <psa10 value="0.0202443296" flag="0"/>
      <psa30 value="0.0012380997" flag="0"/>
    </comp>
    <comp name="--.HHN">
      <acc value="0.2413023907" flag="0"/>
      <vel value="0.0789869878" flag="0"/>
      <psa03 value="0.5054208499" flag="0"/>
      <psa10 value="0.0308866800" flag="0"/>
      <psa30 value="0.0023227313" flag="0"/>
    </comp>
  </station>
  <station code="IMMV" name="IMMV" netid="GE" insttype="STS-2/N" lat="35.4606" lon="23.9811">
    <comp name="--.HHE">
      <acc value="0.0792844283" flag="0"/>
      <vel value="0.0360777878" flag="0"/>
      <psa03 value="0.1947062307" flag="0"/>
      <psa10 value="0.0299105166" flag="0"/>
      <psa30 value="0.0038549075" flag="0"/>
    </comp>
    <comp name="--.HHN">
      <acc value="0.0823681681" flag="0"/>
      <vel value="0.0317108571" flag="0"/>
      <psa03 value="0.1911089795" flag="0"/>
      <psa10 value="0.0161895505" flag="0"/>
      <psa30 value="0.0020834676" flag="0"/>
    </comp>
    <comp name="--.HHZ">
      <acc value="0.0716534313" flag="0"/>
      <vel value="0.0280332278" flag="0"/>
      <psa03 value="0.1246912727" flag="0"/>
      <psa10 value="0.0159460192" flag="0"/>
      <psa30 value="0.0011622310" flag="0"/>
    </comp>
  </station>
  <station code="ATEI" name="ATEI" netid="HC" insttype="DC" lat="35.5193" lon="24.0432">
    <comp name="--.HNE">
      <acc value="0.0412695071" flag="0"/>
      <vel value="0.0229755647" flag="0"/>
      <psa03 value="0.1234352413" flag="0"/>
      <psa10 value="0.0292629029" flag="0"/>
      <psa30 value="0.0026745626" flag="0"/>
    </comp>
    <comp name="--.HNZ">
      <acc value="0.0324695867" flag="0"/>
      <vel value="0.0154288571" flag="0"/>
      <psa03 value="0.1155869073" flag="0"/>
      <psa10 value="0.0176375730" flag="0"/>
      <psa30 value="0.0008866327" flag="0"/>
    </comp>
    <comp name="--.HNN">
      <acc value="0.0373358600" flag="0"/>
      <vel value="0.0323567107" flag="0"/>
      <psa03 value="0.1095385126" flag="0"/>
      <psa10 value="0.0271731914" flag="0"/>
      <psa30 value="0.0014810306" flag="0"/>
    </comp>
  </station>
  <station code="CHAN" name="CHAN" netid="HC" insttype="120" lat="35.5193" lon="24.0428">
    <comp name="--.HHE">
      <acc value="0.0821902435" flag="0"/>
      <vel value="0.0470574826" flag="0"/>
      <psa03 value="0.2497002019" flag="0"/>
      <psa10 value="0.0516239861" flag="0"/>
      <psa30 value="0.0047133422" flag="0"/>
    </comp>
    <comp name="--.HHN">
      <acc value="0.0711228358" flag="0"/>
      <vel value="0.0626579023" flag="0"/>
      <psa03 value="0.1919233601" flag="0"/>
      <psa10 value="0.0514279594" flag="0"/>
      <psa30 value="0.0038517803" flag="0"/>
    </comp>
    <comp name="--.HHZ">
      <acc value="0.0600134103" flag="0"/>
      <vel value="0.0297174996" flag="0"/>
      <psa03 value="0.2159473445" flag="0"/>
      <psa10 value="0.0329722884" flag="0"/>
      <psa30 value="0.0014047010" flag="0"/>
    </comp>
  </station>
  <station code="IMOD" name="IMOD" netid="HC" insttype="120" lat="34.9731" lon="24.7995">
    <comp name="--.HHE">
      <acc value="0.0519584508" flag="0"/>
      <vel value="0.0256321517" flag="0"/>
      <psa03 value="0.2003458123" flag="0"/>
      <psa10 value="0.0196619488" flag="0"/>
      <psa30 value="0.0014551646" flag="0"/>
    </comp>
    <comp name="--.HHN">
      <acc value="0.0774286777" flag="0"/>
      <vel value="0.0275697925" flag="0"/>
      <psa03 value="0.2333894846" flag="0"/>
      <psa10 value="0.0219895634" flag="0"/>
      <psa30 value="0.0018091391" flag="0"/>
    </comp>
    <comp name="--.HHZ">
      <acc value="0.0567916818" flag="0"/>
      <vel value="0.0152247916" flag="0"/>
      <psa03 value="0.1284491460" flag="0"/>
      <psa10 value="0.0100090393" flag="0"/>
      <psa30 value="0.0008614362" flag="0"/>
    </comp>
  </station>
  <station code="IPPL" name="IPPL" netid="HC" insttype="60" lat="35.3486" lon="24.4632">
    <comp name="--.HHE">
      <acc value="0.0000000000" flag="0"/>
      <vel value="-100.0000000000" flag="0"/>
      <psa03 value="0.0000000000" flag="0"/>
      <psa10 value="0.0000000000" flag="0"/>
      <psa30 value="0.0000000000" flag="0"/>
    </comp>
    <comp name="--.HHN">
      <acc value="0.0000000000" flag="0"/>
      <vel value="-100.0000000000" flag="0"/>
      <psa03 value="0.0000000000" flag="0"/>
      <psa10 value="0.0000000000" flag="0"/>
      <psa30 value="0.0000000000" flag="0"/>
    </comp>
    <comp name="--.HHZ">
      <acc value="0.1842877833" flag="0"/>
      <vel value="0.0628893911" flag="0"/>
      <psa03 value="0.5650031187" flag="0"/>
      <psa10 value="0.0171416377" flag="0"/>
      <psa30 value="0.0025255327" flag="0"/>
    </comp>
  </station>
  <station code="KNDR" name="KNDR" netid="HC" insttype="120" lat="35.2348" lon="23.6248">
    <comp name="--.HHN">
      <acc value="0.0814628464" flag="0"/>
      <vel value="0.0410883708" flag="0"/>
      <psa03 value="0.2366109082" flag="0"/>
      <psa10 value="0.0128969884" flag="0"/>
      <psa30 value="0.0012656233" flag="0"/>
    </comp>
    <comp name="--.HHZ">
      <acc value="0.0729038610" flag="0"/>
      <vel value="0.0265259353" flag="0"/>
      <psa03 value="0.1865256975" flag="0"/>
      <psa10 value="0.0111978436" flag="0"/>
      <psa30 value="0.0009402982" flag="0"/>
    </comp>
    <comp name="--.HHE">
      <acc value="0.0879155091" flag="0"/>
      <vel value="0.0325569486" flag="0"/>
      <psa03 value="0.2488336524" flag="0"/>
      <psa10 value="0.0146150368" flag="0"/>
      <psa30 value="0.0011748790" flag="0"/>
    </comp>
  </station>
  <station code="KNSS" name="KNSS" netid="HC" insttype="60" lat="35.3042" lon="25.1802">
    <comp name="--.HHE">
      <acc value="0.0162020554" flag="0"/>
      <vel value="0.0109502721" flag="0"/>
      <psa03 value="0.0627968854" flag="0"/>
      <psa10 value="0.0066054566" flag="0"/>
      <psa30 value="0.0010603868" flag="0"/>
    </comp>
    <comp name="--.HHN">
      <acc value="0.0177174933" flag="0"/>
      <vel value="0.0100577432" flag="0"/>
      <psa03 value="0.0587895624" flag="0"/>
      <psa10 value="0.0079736331" flag="0"/>
      <psa30 value="0.0009701685" flag="0"/>
    </comp>
    <comp name="--.HHZ">
      <acc value="0.0136395657" flag="0"/>
      <vel value="0.0066156145" flag="0"/>
      <psa03 value="0.0547453160" flag="0"/>
      <psa10 value="0.0055008839" flag="0"/>
      <psa30 value="0.0008471920" flag="0"/>
    </comp>
  </station>
  <station code="PFKS" name="PFKS" netid="HC" insttype="120" lat="35.0429" lon="25.4733">
    <comp name="--.HHZ">
      <acc value="0.0048512946" flag="0"/>
      <vel value="0.0025517674" flag="0"/>
      <psa03 value="0.0157540460" flag="0"/>
      <psa10 value="0.0030843044" flag="0"/>
      <psa30 value="0.0004387570" flag="0"/>
    </comp>
    <comp name="--.HHN">
      <acc value="0.0132295335" flag="0"/>
      <vel value="0.0057015154" flag="0"/>
      <psa03 value="0.0448762434" flag="0"/>
      <psa10 value="0.0056725286" flag="0"/>
      <psa30 value="0.0006781816" flag="0"/>
    </comp>
    <comp name="--.HHE">
      <acc value="0.0117505565" flag="0"/>
      <vel value="0.0051967144" flag="0"/>
      <psa03 value="0.0348688203" flag="0"/>
      <psa10 value="0.0036858763" flag="0"/>
      <psa30 value="0.0004457409" flag="0"/>
    </comp>
  </station>
  <station code="TEFL" name="TEFL" netid="HC" insttype="GEOtiny," lat="35.0933" lon="25.1634">
    <comp name="--.HHE">
      <acc value="0.0523897464" flag="0"/>
      <vel value="0.0172099372" flag="0"/>
      <psa03 value="0.1307756722" flag="0"/>
      <psa10 value="0.0131069522" flag="0"/>
      <psa30 value="0.0012972592" flag="0"/>
    </comp>
    <comp name="--.HHN">
      <acc value="0.0411830982" flag="0"/>
      <vel value="0.0175255571" flag="0"/>
      <psa03 value="0.1146320050" flag="0"/>
      <psa10 value="0.0131936128" flag="0"/>
      <psa30 value="0.0015304688" flag="0"/>
    </comp>
    <comp name="--.HHZ">
      <acc value="0.0222285555" flag="0"/>
      <vel value="0.0099939148" flag="0"/>
      <psa03 value="0.0584592188" flag="0"/>
      <psa10 value="0.0058563250" flag="0"/>
      <psa30 value="0.0009771750" flag="0"/>
    </comp>
  </station>
  <station code="CH01" name="CH01" netid="HI" insttype="CMG-5TD,ACCELEROMETER,GURALP" lat="35.517" lon="24.0208">
    <comp name="--.HNE">
      <acc value="0.0709042497" flag="0"/>
      <vel value="0.0412517999" flag="0"/>
      <psa03 value="0.1410872499" flag="0"/>
      <psa10 value="0.0304742711" flag="0"/>
      <psa30 value="0.0042321208" flag="0"/>
    </comp>
    <comp name="--.HNN">
      <acc value="0.0735615476" flag="0"/>
      <vel value="0.0448046292" flag="0"/>
      <psa03 value="0.1901175758" flag="0"/>
      <psa10 value="0.0299370555" flag="0"/>
      <psa30 value="0.0019867144" flag="0"/>
    </comp>
    <comp name="--.HNZ">
      <acc value="0.0441739680" flag="0"/>
      <vel value="0.0193218365" flag="0"/>
      <psa03 value="0.0830776133" flag="0"/>
      <psa10 value="0.0263750781" flag="0"/>
      <psa30 value="0.0009983613" flag="0"/>
    </comp>
  </station>
  <station code="GVD" name="GVD" netid="HL" insttype="120" lat="34.8391" lon="24.0874">
    <comp name="--.HHE">
      <acc value="0.2596361159" flag="0"/>
      <vel value="0.0700699441" flag="0"/>
      <psa03 value="0.5434538194" flag="0"/>
      <psa10 value="0.0217826591" flag="0"/>
      <psa30 value="0.0035006983" flag="0"/>
    </comp>
    <comp name="--.HHN">
      <acc value="0.2337512883" flag="0"/>
      <vel value="0.0768587980" flag="0"/>
      <psa03 value="0.4912388101" flag="0"/>
      <psa10 value="0.0306616296" flag="0"/>
      <psa30 value="0.0022986384" flag="0"/>
    </comp>
    <comp name="--.HHZ">
      <acc value="0.3919248612" flag="0"/>
      <vel value="0.0428567085" flag="0"/>
      <psa03 value="0.2238928341" flag="0"/>
      <psa10 value="0.0200391684" flag="0"/>
      <psa30 value="0.0012183156" flag="0"/>
    </comp>
  </station>
  <station code="IACM" name="IACM" netid="HL" insttype="120" lat="35.3058" lon="25.0709">
    <comp name="--.HHE">
      <acc value="0.0869442777" flag="0"/>
      <vel value="0.0543944942" flag="0"/>
      <psa03 value="0.2917458682" flag="0"/>
      <psa10 value="0.0488939651" flag="0"/>
      <psa30 value="0.0033553066" flag="0"/>
    </comp>
    <comp name="--.HHZ">
      <acc value="0.0661009320" flag="0"/>
      <vel value="0.0315301320" flag="0"/>
      <psa03 value="0.1544504240" flag="0"/>
      <psa10 value="0.0207786687" flag="0"/>
      <psa30 value="0.0013964943" flag="0"/>
    </comp>
    <comp name="--.HHN">
      <acc value="0.0984172661" flag="0"/>
      <vel value="0.0739916610" flag="0"/>
      <psa03 value="0.3013368691" flag="0"/>
      <psa10 value="0.0570738622" flag="0"/>
      <psa30 value="0.0038223636" flag="0"/>
    </comp>
  </station>
  <station code="IDI" name="IDI" netid="HL" insttype="120" lat="35.288" lon="24.89">
    <comp name="--.HHZ">
      <acc value="0.0286061519" flag="0"/>
      <vel value="0.0131478201" flag="0"/>
      <psa03 value="0.1022263891" flag="0"/>
      <psa10 value="0.0068160592" flag="0"/>
      <psa30 value="0.0006253131" flag="0"/>
    </comp>
    <comp name="--.HHN">
      <acc value="0.0293911309" flag="0"/>
      <vel value="0.0167468205" flag="0"/>
      <psa03 value="0.0757048836" flag="0"/>
      <psa10 value="0.0130443944" flag="0"/>
      <psa30 value="0.0021577278" flag="0"/>
    </comp>
    <comp name="--.HHE">
      <acc value="0.0238223453" flag="0"/>
      <vel value="0.0110145944" flag="0"/>
      <psa03 value="0.0885589922" flag="0"/>
      <psa10 value="0.0068007320" flag="0"/>
      <psa30 value="0.0007744025" flag="0"/>
    </comp>
  </station>
  <station code="IMMV" name="IMMV" netid="HL" insttype="120" lat="35.4606" lon="23.9811">
    <comp name="--.HHE">
      <acc value="0.0768704780" flag="0"/>
      <vel value="0.0353850636" flag="0"/>
      <psa03 value="0.1895351784" flag="0"/>
      <psa10 value="0.0295847416" flag="0"/>
      <psa30 value="0.0038363988" flag="0"/>
    </comp>
    <comp name="--.HHZ">
      <acc value="0.0698568964" flag="0"/>
      <vel value="0.0274772746" flag="0"/>
      <psa03 value="0.1213286691" flag="0"/>
      <psa10 value="0.0157015355" flag="0"/>
      <psa30 value="0.0011442870" flag="0"/>
    </comp>
    <comp name="--.HHN">
      <acc value="0.0809919689" flag="0"/>
      <vel value="0.0308772524" flag="0"/>
      <psa03 value="0.1857007062" flag="0"/>
      <psa10 value="0.0159886448" flag="0"/>
      <psa30 value="0.0020783146" flag="0"/>
    </comp>
  </station>
  <station code="SIVA" name="SIVA" netid="HL" insttype="60" lat="35.0178" lon="24.812">
    <comp name="--.HHE">
      <acc value="0.1017103417" flag="0"/>
      <vel value="0.0386251257" flag="0"/>
      <psa03 value="0.2185425697" flag="0"/>
      <psa10 value="0.0272128179" flag="0"/>
      <psa30 value="0.0014646355" flag="0"/>
    </comp>
    <comp name="--.HHZ">
      <acc value="0.0712785741" flag="0"/>
      <vel value="0.0286582716" flag="0"/>
      <psa03 value="0.1208972728" flag="0"/>
      <psa10 value="0.0160376391" flag="0"/>
      <psa30 value="0.0008328538" flag="0"/>
    </comp>
    <comp name="--.HHN">
      <acc value="0.1073041202" flag="0"/>
      <vel value="0.0337230903" flag="0"/>
      <psa03 value="0.1680957008" flag="0"/>
      <psa10 value="0.0352547273" flag="0"/>
      <psa30 value="0.0021949675" flag="0"/>
    </comp>
  </station>
  <station code="VAM" name="VAM" netid="HL" insttype="CMG3ESPC-120s" lat="35.407" lon="24.1997">
    <comp name="--.HHE">
      <acc value="0.2902972951" flag="0"/>
      <vel value="0.1152996389" flag="0"/>
      <psa03 value="0.3862915271" flag="0"/>
      <psa10 value="0.0321118399" flag="0"/>
      <psa30 value="0.0040981572" flag="0"/>
    </comp>
    <comp name="--.HHN">
      <acc value="0.2549422553" flag="0"/>
      <vel value="0.1028932186" flag="0"/>
      <psa03 value="0.6186275338" flag="0"/>
      <psa10 value="0.0288832921" flag="0"/>
      <psa30 value="0.0030945809" flag="0"/>
    </comp>
    <comp name="--.HHZ">
      <acc value="0.1048350701" flag="0"/>
      <vel value="0.0461439973" flag="0"/>
      <psa03 value="0.2674458359" flag="0"/>
      <psa10 value="0.0151590149" flag="0"/>
      <psa30 value="0.0023115169" flag="0"/>
    </comp>
  </station>
  <station code="IDI" name="IDI" netid="MN" insttype="" lat="35.288" lon="24.89">
    <comp name="--.HHN">
      <acc value="0.0297974900" flag="0"/>
      <vel value="0.0168269157" flag="0"/>
      <psa03 value="0.0766839343" flag="0"/>
      <psa10 value="0.0129624097" flag="0"/>
      <psa30 value="0.0021364960" flag="0"/>
    </comp>
    <comp name="--.HHE">
      <acc value="0.0245572074" flag="0"/>
      <vel value="0.0111332965" flag="0"/>
      <psa03 value="0.0901447971" flag="0"/>
      <psa10 value="0.0067818287" flag="0"/>
      <psa30 value="0.0007699559" flag="0"/>
    </comp>
    <comp name="--.HHZ">
      <acc value="0.0291772995" flag="0"/>
      <vel value="0.0133535110" flag="0"/>
      <psa03 value="0.1031398850" flag="0"/>
      <psa10 value="0.0067980978" flag="0"/>
      <psa30 value="0.0006196058" flag="0"/>
    </comp>
  </station>
</stationlist>
