<stationlist created="1778136402">
	<station code="DPC" name="DPC" netid="CZ" source="Czech Regional Seismic Network (CZ)" insttype="" lat="50.3502" lon="16.3222">
		<comp name="--.HNE" depth="0.0">
			<acc value="0.000439992778199419" flag="0"/>
			<vel value="0.000251868791147052" flag="0"/>
			<psa03 value="0.000626390892655805" flag="0"/>
			<psa10 value="0.000293956297482045" flag="0"/>
			<psa30 value="2.90824343018766e-05" flag="0"/>
		</comp>
		<comp name="--.HNN" depth="0.0">
			<acc value="0.000764388344889696" flag="0"/>
			<vel value="0.000218027018992083" flag="0"/>
			<psa03 value="0.00170020385149433" flag="0"/>
			<psa10 value="0.000382545866586223" flag="0"/>
			<psa30 value="3.40040770298865e-05" flag="0"/>
		</comp>
		<comp name="--.HNZ" depth="0.0">
			<acc value="0.00043978497903382" flag="0"/>
			<vel value="0.000249513651108631" flag="0"/>
			<psa03 value="0.000626390892655805" flag="0"/>
			<psa10 value="0.000289929498886401" flag="0"/>
			<psa30 value="2.59504798385976e-05" flag="0"/>
		</comp>
	</station>
</stationlist>
