<?xml version="1.0" encoding="UTF-8" standalone="yes"?>
<!DOCTYPE earthquake SYSTEM "stationlist.dtd">
<stationlist created="" xmlns="ch.ethz.sed.shakemap.usgs.xml">
  <station code="CHVC" name="CHVC" netid="CZ" insttype="" lat="50.5881" lon="16.0547">
    <comp name="--.HHE">
      <acc value="0.0107428823" flag="0"/>
      <vel value="0.0037656018" flag="0"/>
      <psa03 value="0.0223523948" flag="0"/>
      <psa10 value="0.0036569529" flag="0"/>
      <psa30 value="0.0009817646" flag="0"/>
    </comp>
    <comp name="--.HHZ">
      <acc value="0.0068632488" flag="0"/>
      <vel value="0.0049090857" flag="0"/>
      <psa03 value="0.0098396072" flag="0"/>
      <psa10 value="0.0029491463" flag="0"/>
      <psa30 value="0.0017079372" flag="0"/>
    </comp>
    <comp name="--.HHN">
      <acc value="0.0118811326" flag="0"/>
      <vel value="0.0036230068" flag="0"/>
      <psa03 value="0.0177327047" flag="0"/>
      <psa10 value="0.0044132276" flag="0"/>
      <psa30 value="0.0011607120" flag="0"/>
    </comp>
  </station>
  <station code="OSTC" name="OSTC" netid="CZ" insttype="" lat="50.5565" lon="16.2156">
    <comp name="--.HHN">
      <acc value="0.0289811231" flag="0"/>
      <vel value="0.0181406035" flag="0"/>
      <psa03 value="0.0578703935" flag="0"/>
      <psa10 value="0.0297294989" flag="0"/>
      <psa30 value="0.0025780056" flag="0"/>
    </comp>
    <comp name="--.HHZ">
      <acc value="0.0167759214" flag="0"/>
      <vel value="0.0108728846" flag="0"/>
      <psa03 value="0.0432211441" flag="0"/>
      <psa10 value="0.0132373064" flag="0"/>
      <psa30 value="0.0034172691" flag="0"/>
    </comp>
    <comp name="--.HHE">
      <acc value="0.0189459362" flag="0"/>
      <vel value="0.0102816277" flag="0"/>
      <psa03 value="0.0299230220" flag="0"/>
      <psa10 value="0.0118638843" flag="0"/>
      <psa30 value="0.0022536248" flag="0"/>
    </comp>
  </station>
</stationlist>
