<?xml version="1.0" encoding="UTF-8" standalone="yes"?>
<!DOCTYPE earthquake SYSTEM "stationlist.dtd">
<stationlist created="" xmlns="ch.ethz.sed.shakemap.usgs.xml">
  <station code="APE" name="APE" netid="GE" insttype="STS-2/N" lat="37.0727" lon="25.523">
    <comp name="--.HHN">
      <acc value="0.0254075509" flag="0"/>
      <vel value="0.0071946747" flag="0"/>
      <psa03 value="0.0430420923" flag="0"/>
      <psa10 value="0.0052278537" flag="0"/>
      <psa30 value="0.0004758065" flag="0"/>
    </comp>
    <comp name="--.HHZ">
      <acc value="0.0139902993" flag="0"/>
      <vel value="0.0047969934" flag="0"/>
      <psa03 value="0.0247820600" flag="0"/>
      <psa10 value="0.0066095191" flag="0"/>
      <psa30 value="0.0004023718" flag="0"/>
    </comp>
    <comp name="--.HHE">
      <acc value="0.0234510884" flag="0"/>
      <vel value="0.0066102483" flag="0"/>
      <psa03 value="0.0250984382" flag="0"/>
      <psa10 value="0.0035706691" flag="0"/>
      <psa30 value="0.0007845541" flag="0"/>
    </comp>
  </station>
  <station code="KRL1" name="KRL1" netid="HI" insttype="CMG-5TD,ACCELEROMETER,GURALP" lat="37.7951" lon="26.7065">
    <comp name="--.HNZ">
      <acc value="0.1586132944" flag="0"/>
      <vel value="0.0477329458" flag="0"/>
      <psa03 value="0.1794226443" flag="0"/>
      <psa10 value="0.0353510612" flag="0"/>
      <psa30 value="0.0022965094" flag="0"/>
    </comp>
    <comp name="--.HNN">
      <acc value="0.1609359645" flag="0"/>
      <vel value="0.0600354629" flag="0"/>
      <psa03 value="0.3244962362" flag="0"/>
      <psa10 value="0.0380041949" flag="0"/>
      <psa30 value="0.0035681134" flag="0"/>
    </comp>
    <comp name="--.HNE">
      <acc value="0.2406630575" flag="0"/>
      <vel value="0.0927892526" flag="0"/>
      <psa03 value="0.3035567898" flag="0"/>
      <psa10 value="0.0603310551" flag="0"/>
      <psa30 value="0.0062129400" flag="0"/>
    </comp>
  </station>
  <station code="MYT1" name="MYT1" netid="HI" insttype="CMG-5TD,ACCELEROMETER,GURALP" lat="39.085" lon="26.5694">
    <comp name="--.HNE">
      <acc value="0.0259980749" flag="0"/>
      <vel value="0.0229077809" flag="0"/>
      <psa03 value="0.0471884420" flag="0"/>
      <psa10 value="0.0284782733" flag="0"/>
      <psa30 value="0.0016822823" flag="0"/>
    </comp>
    <comp name="--.HNN">
      <acc value="0.0232211065" flag="0"/>
      <vel value="0.0175887775" flag="0"/>
      <psa03 value="0.0584485212" flag="0"/>
      <psa10 value="0.0254829906" flag="0"/>
      <psa30 value="0.0017664738" flag="0"/>
    </comp>
    <comp name="--.HNZ">
      <acc value="0.0131535828" flag="0"/>
      <vel value="0.0127414196" flag="0"/>
      <psa03 value="0.0257650976" flag="0"/>
      <psa10 value="0.0167415295" flag="0"/>
      <psa30 value="0.0019742714" flag="0"/>
    </comp>
  </station>
  <station code="APE" name="APE" netid="HL" insttype="120" lat="37.0727" lon="25.523">
    <comp name="--.HHZ">
      <acc value="0.0132375315" flag="0"/>
      <vel value="0.0047080317" flag="0"/>
      <psa03 value="0.0241309710" flag="0"/>
      <psa10 value="0.0065565838" flag="0"/>
      <psa30 value="0.0004007807" flag="0"/>
    </comp>
    <comp name="--.HHN">
      <acc value="0.0242666453" flag="0"/>
      <vel value="0.0070166481" flag="0"/>
      <psa03 value="0.0416676651" flag="0"/>
      <psa10 value="0.0051809724" flag="0"/>
      <psa30 value="0.0004748373" flag="0"/>
    </comp>
    <comp name="--.HHE">
      <acc value="0.0220283437" flag="0"/>
      <vel value="0.0062670068" flag="0"/>
      <psa03 value="0.0244148864" flag="0"/>
      <psa10 value="0.0035510555" flag="0"/>
      <psa30 value="0.0007832113" flag="0"/>
    </comp>
  </station>
  <station code="EAG2" name="EAG2" netid="HL" insttype="SMART24" lat="38.5438" lon="26.1079">
    <comp name="--.HHE">
      <acc value="0.3911067235" flag="0"/>
      <vel value="0.2008765079" flag="0"/>
      <psa03 value="1.2893122707" flag="0"/>
      <psa10 value="0.0956495869" flag="0"/>
      <psa30 value="0.0062522170" flag="0"/>
    </comp>
    <comp name="--.HHN">
      <acc value="0.4075625211" flag="0"/>
      <vel value="0.2334419562" flag="0"/>
      <psa03 value="2.0681574131" flag="0"/>
      <psa10 value="0.0994330150" flag="0"/>
      <psa30 value="0.0076422194" flag="0"/>
    </comp>
    <comp name="--.HHZ">
      <acc value="0.2092637178" flag="0"/>
      <vel value="0.0568389285" flag="0"/>
      <psa03 value="0.3053382620" flag="0"/>
      <psa10 value="0.0260515652" flag="0"/>
      <psa30 value="0.0017086471" flag="0"/>
    </comp>
  </station>
  <station code="CHOS" name="CHOS" netid="HT" insttype="100" lat="38.3869" lon="26.0506">
    <comp name="--.HHE">
      <acc value="0.0793193775" flag="0"/>
      <vel value="0.0289202705" flag="0"/>
      <psa03 value="0.1715618519" flag="0"/>
      <psa10 value="0.0201597890" flag="0"/>
      <psa30 value="0.0022216457" flag="0"/>
    </comp>
    <comp name="--.HHN">
      <acc value="0.0445885550" flag="0"/>
      <vel value="0.0159393802" flag="0"/>
      <psa03 value="0.0882764750" flag="0"/>
      <psa10 value="0.0133930616" flag="0"/>
      <psa30 value="0.0017006750" flag="0"/>
    </comp>
    <comp name="--.HHZ">
      <acc value="0.0227375055" flag="0"/>
      <vel value="0.0102353437" flag="0"/>
      <psa03 value="0.0558351509" flag="0"/>
      <psa10 value="0.0082567827" flag="0"/>
      <psa30 value="0.0010467109" flag="0"/>
    </comp>
  </station>
  <station code="GMLD" name="GMLD" netid="KO" insttype="100" lat="38.0764" lon="26.8747">
    <comp name="--.HNN">
      <acc value="0.1311758060" flag="0"/>
      <vel value="0.0664680837" flag="0"/>
      <psa03 value="0.4420590790" flag="0"/>
      <psa10 value="0.0399285779" flag="0"/>
      <psa30 value="0.0025182126" flag="0"/>
    </comp>
    <comp name="--.HNZ">
      <acc value="0.1005682244" flag="0"/>
      <vel value="0.0345365592" flag="0"/>
      <psa03 value="0.1982051415" flag="0"/>
      <psa10 value="0.0115052038" flag="0"/>
      <psa30 value="0.0009935920" flag="0"/>
    </comp>
    <comp name="--.HNE">
      <acc value="0.1433382506" flag="0"/>
      <vel value="0.0553021718" flag="0"/>
      <psa03 value="0.3613539515" flag="0"/>
      <psa10 value="0.0213022218" flag="0"/>
      <psa30 value="0.0017593192" flag="0"/>
    </comp>
  </station>
  <station code="KRBN" name="KRBN" netid="KO" insttype="100" lat="38.5936" lon="26.5537">
    <comp name="--.HNE">
      <acc value="0.0668010910" flag="0"/>
      <vel value="0.0242324265" flag="0"/>
      <psa03 value="0.0956994036" flag="0"/>
      <psa10 value="0.0185467377" flag="0"/>
      <psa30 value="0.0019757943" flag="0"/>
    </comp>
    <comp name="--.HNN">
      <acc value="0.0781589833" flag="0"/>
      <vel value="0.0299911321" flag="0"/>
      <psa03 value="0.1305841985" flag="0"/>
      <psa10 value="0.0254719065" flag="0"/>
      <psa30 value="0.0016514092" flag="0"/>
    </comp>
    <comp name="--.HNZ">
      <acc value="0.0250756756" flag="0"/>
      <vel value="0.0159171779" flag="0"/>
      <psa03 value="0.0763390909" flag="0"/>
      <psa10 value="0.0175945129" flag="0"/>
      <psa30 value="0.0009933773" flag="0"/>
    </comp>
  </station>
  <station code="AYDN" name="AYDN" netid="TU" source="ODC" insttype="T" lat="37.6608" lon="27.8792">
    <comp name="--.HHZ">
      <acc value="0.0187990581" flag="0"/>
      <vel value="0.0079918121" flag="0"/>
      <psa03 value="0.0383123455" flag="0"/>
      <psa10 value="0.0097725523" flag="0"/>
      <psa30 value="0.0013842858" flag="0"/>
    </comp>
    <comp name="--.HHN">
      <acc value="0.0272109608" flag="0"/>
      <vel value="0.0145406482" flag="0"/>
      <psa03 value="0.1302840362" flag="0"/>
      <psa10 value="0.0107162597" flag="0"/>
      <psa30 value="0.0018729734" flag="0"/>
    </comp>
    <comp name="--.HHE">
      <acc value="0.0295828867" flag="0"/>
      <vel value="0.0109647644" flag="0"/>
      <psa03 value="0.0519111120" flag="0"/>
      <psa10 value="0.0082705832" flag="0"/>
      <psa30 value="0.0015149718" flag="0"/>
    </comp>
  </station>
</stationlist>
