<stationlist created="1631873488">
	<station code="KRL1" name="KRL1" netid="HI" source="ITSAK Strong Motion Network" insttype="" lat="37.7951" lon="26.7065">
		<comp name="--.HNE" depth="0.0">
			<acc value="-0.23773548" flag="0"/>
			<vel value="0.094394" flag="0"/>
			<psa03 value="0.305902466649" flag="0"/>
			<psa10 value="0.060289228574" flag="0"/>
			<psa30 value="0.00660752907339" flag="0"/>
		</comp>
		<comp name="--.HNN" depth="0.0">
			<acc value="0.158783196" flag="0"/>
			<vel value="0.060536" flag="0"/>
			<psa03 value="0.325141615495" flag="0"/>
			<psa10 value="0.0381257291036" flag="0"/>
			<psa30 value="0.00375476597941" flag="0"/>
		</comp>
		<comp name="--.HNZ" depth="0.0">
			<acc value="0.153945234" flag="0"/>
			<vel value="0.047751" flag="0"/>
			<psa03 value="0.183487789342" flag="0"/>
			<psa10 value="0.0355405244052" flag="0"/>
			<psa30 value="0.00268095302057" flag="0"/>
		</comp>
	</station>
	<station code="MYT1" name="MYT1" netid="HI" source="ITSAK Strong Motion Network" insttype="" lat="39.085" lon="26.5694">
		<comp name="--.HNE" depth="0.0">
			<acc value="-0.025879848" flag="0"/>
			<vel value="0.023233" flag="0"/>
			<psa03 value="0.0479189032882" flag="0"/>
			<psa10 value="0.028461412474" flag="0"/>
			<psa30 value="0.00188991080756" flag="0"/>
		</comp>
		<comp name="--.HNN" depth="0.0">
			<acc value="0.023074848" flag="0"/>
			<vel value="0.018031" flag="0"/>
			<psa03 value="0.058836001703" flag="0"/>
			<psa10 value="0.025493661909" flag="0"/>
			<psa30 value="0.00191854581979" flag="0"/>
		</comp>
		<comp name="--.HNZ" depth="0.0">
			<acc value="0.013121892" flag="0"/>
			<vel value="0.012447" flag="0"/>
			<psa03 value="0.0262636752849" flag="0"/>
			<psa10 value="0.0167514821579" flag="0"/>
			<psa30 value="0.00215344240454" flag="0"/>
		</comp>
	</station>
	<station code="KLNA" name="KLNA" netid="HL" source="National Observatory of Athens Seismic Network" insttype="" lat="36.95708" lon="26.97274">
		<comp name="--.HNE" depth="0.0">
			<acc value="0.087355758" flag="0"/>
			<vel value="-0.035381" flag="0"/>
			<psa03 value="0.32693130376" flag="0"/>
			<psa10 value="0.0168360449284" flag="0"/>
			<psa30 value="0.00193241590384" flag="0"/>
		</comp>
		<comp name="--.HNN" depth="0.0">
			<acc value="-0.059596764" flag="0"/>
			<vel value="-0.023954" flag="0"/>
			<psa03 value="0.269884990321" flag="0"/>
			<psa10 value="0.012777031944" flag="0"/>
			<psa30 value="0.00115300666455" flag="0"/>
		</comp>
		<comp name="--.HNZ" depth="0.0">
			<acc value="-0.046213752" flag="0"/>
			<vel value="0.020372" flag="0"/>
			<psa03 value="0.0991039876595" flag="0"/>
			<psa10 value="0.0133085693586" flag="0"/>
			<psa30 value="0.00121161895522" flag="0"/>
		</comp>
	</station>
	<station code="PRK" name="PRK" netid="HL" source="National Observatory of Athens Seismic Network" insttype="" lat="39.24565" lon="26.26499">
		<comp name="--.HNE" depth="0.0">
			<acc value="-0.03437808" flag="0"/>
			<vel value="0.042949" flag="0"/>
			<psa03 value="0.0657710437289" flag="0"/>
			<psa10 value="0.0721723112297" flag="0"/>
			<psa30 value="0.00291942898184" flag="0"/>
		</comp>
		<comp name="--.HNN" depth="0.0">
			<acc value="0.028081722" flag="0"/>
			<vel value="-0.028431" flag="0"/>
			<psa03 value="0.0775829862761" flag="0"/>
			<psa10 value="0.048100109225" flag="0"/>
			<psa30 value="0.00204113946593" flag="0"/>
		</comp>
		<comp name="--.HNZ" depth="0.0">
			<acc value="0.014004702" flag="0"/>
			<vel value="0.010233" flag="0"/>
			<psa03 value="0.0296640829879" flag="0"/>
			<psa10 value="0.0069301203831" flag="0"/>
			<psa30 value="0.00150781236304" flag="0"/>
		</comp>
	</station>
	<station code="GMLD" name="GMLD" netid="KO" source="Bogazici University Kandilli Observatory And Earthquake Research Institute (KOERI)" insttype="" lat="38.0766" lon="26.9157">
		<comp name="--.HNE" depth="0.0">
			<acc value="-0.901838304" flag="0"/>
			<vel value="0.34593" flag="0"/>
			<psa03 value="2.27375419813" flag="0"/>
			<psa10 value="0.133597097008" flag="0"/>
			<psa30 value="0.0126750197129" flag="0"/>
		</comp>
		<comp name="--.HNN" depth="0.0">
			<acc value="-0.817366086" flag="0"/>
			<vel value="0.421049" flag="0"/>
			<psa03 value="2.81468747615" flag="0"/>
			<psa10 value="0.251944707734" flag="0"/>
			<psa30 value="0.0162271034963" flag="0"/>
		</comp>
		<comp name="--.HNZ" depth="0.0">
			<acc value="-0.628286952" flag="0"/>
			<vel value="-0.217653" flag="0"/>
			<psa03 value="1.26047744485" flag="0"/>
			<psa10 value="0.0728045186093" flag="0"/>
			<psa30 value="0.00609881018414" flag="0"/>
		</comp>
	</station>
	<station code="KRBN" name="KRBN" netid="KO" source="Bogazici University Kandilli Observatory And Earthquake Research Institute (KOERI)" insttype="" lat="38.5936" lon="26.5537">
		<comp name="--.HNE" depth="0.0">
			<acc value="-0.415661016" flag="0"/>
			<vel value="0.155846" flag="0"/>
			<psa03 value="0.613057715084" flag="0"/>
			<psa10 value="0.116998633196" flag="0"/>
			<psa30 value="0.0136360823111" flag="0"/>
		</comp>
		<comp name="--.HNN" depth="0.0">
			<acc value="0.485376486" flag="0"/>
			<vel value="0.187074" flag="0"/>
			<psa03 value="0.840303382498" flag="0"/>
			<psa10 value="0.160210208926" flag="0"/>
			<psa30 value="0.0107672120227" flag="0"/>
		</comp>
		<comp name="--.HNZ" depth="0.0">
			<acc value="0.156028074" flag="0"/>
			<vel value="-0.100225" flag="0"/>
			<psa03 value="0.478607384196" flag="0"/>
			<psa10 value="0.110241665153" flag="0"/>
			<psa30 value="0.00662676822223" flag="0"/>
		</comp>
	</station>
	<station code="NAZL" name="NAZL" netid="KO" source="Bogazici University Kandilli Observatory And Earthquake Research Institute (KOERI)" insttype="" lat="37.9641" lon="28.2922">
		<comp name="--.HNE" depth="0.0">
			<acc value="-0.085764762" flag="0"/>
			<vel value="-0.041302" flag="0"/>
			<psa03 value="0.2710930299" flag="0"/>
			<psa10 value="0.0293432813665" flag="0"/>
			<psa30 value="0.0023154091925" flag="0"/>
		</comp>
		<comp name="--.HNN" depth="0.0">
			<acc value="0.064304676" flag="0"/>
			<vel value="-0.0347" flag="0"/>
			<psa03 value="0.232122567936" flag="0"/>
			<psa10 value="0.0309620544019" flag="0"/>
			<psa30 value="0.00353687143317" flag="0"/>
		</comp>
		<comp name="--.HNZ" depth="0.0">
			<acc value="-0.021575958" flag="0"/>
			<vel value="-0.013214" flag="0"/>
			<psa03 value="0.0946745092043" flag="0"/>
			<psa10 value="0.0112267144847" flag="0"/>
			<psa30 value="0.0017529996553" flag="0"/>
		</comp>
	</station>
</stationlist>
