<?xml version="1.0" encoding="UTF-8" standalone="yes"?>
<!DOCTYPE earthquake SYSTEM "stationlist.dtd">
<stationlist created="" xmlns="ch.ethz.sed.shakemap.usgs.xml">
  <station code="KRTS" name="KRTS" netid="KO" insttype="CMG-5T" lat="36.573" lon="35.375">
    <comp name="--.HNE">
      <acc value="0.0849773804" flag="0"/>
      <vel value="0.0361258473" flag="0"/>
      <psa03 value="0.2640327728" flag="0"/>
      <psa10 value="0.0169627756" flag="0"/>
      <psa30 value="0.0016446229" flag="0"/>
    </comp>
    <comp name="--.HNN">
      <acc value="0.0821746125" flag="0"/>
      <vel value="0.0385410289" flag="0"/>
      <psa03 value="0.2658696381" flag="0"/>
      <psa10 value="0.0227166216" flag="0"/>
      <psa30 value="0.0014107101" flag="0"/>
    </comp>
    <comp name="--.HNZ">
      <acc value="0.0558094747" flag="0"/>
      <vel value="0.0213760431" flag="0"/>
      <psa03 value="0.2139369120" flag="0"/>
      <psa10 value="0.0138822637" flag="0"/>
      <psa30 value="0.0009656492" flag="0"/>
    </comp>
  </station>
</stationlist>
