<?xml version="1.0" encoding="UTF-8" standalone="yes"?>
<!DOCTYPE earthquake SYSTEM "stationlist.dtd">
<stationlist created="" xmlns="ch.ethz.sed.shakemap.usgs.xml">
  <station code="THERA" name="THERA" netid="GE" insttype="STS-2/N" lat="36.367" lon="25.4753">
    <comp name="--.HHE">
      <acc value="0.0892115094" flag="0"/>
      <vel value="0.0315743586" flag="0"/>
      <psa03 value="0.1195234556" flag="0"/>
      <psa10 value="0.0231045301" flag="0"/>
      <psa30 value="0.0034918656" flag="0"/>
    </comp>
    <comp name="--.HHN">
      <acc value="0.0381465654" flag="0"/>
      <vel value="0.0169580121" flag="0"/>
      <psa03 value="0.0700422807" flag="0"/>
      <psa10 value="0.0185423268" flag="0"/>
      <psa30 value="0.0021654127" flag="0"/>
    </comp>
    <comp name="--.HHZ">
      <acc value="0.0598935109" flag="0"/>
      <vel value="0.0201740665" flag="0"/>
      <psa03 value="0.1078204508" flag="0"/>
      <psa10 value="0.0156887262" flag="0"/>
      <psa30 value="0.0024230824" flag="0"/>
    </comp>
  </station>
  <station code="SNT1" name="SNT1" netid="HA" insttype="30" lat="36.4159" lon="25.4282">
    <comp name="--.HHN">
      <acc value="0.0661742083" flag="0"/>
      <vel value="0.0256821314" flag="0"/>
      <psa03 value="0.1067229758" flag="0"/>
      <psa10 value="0.0319529509" flag="0"/>
      <psa30 value="0.0088106093" flag="0"/>
    </comp>
    <comp name="--.HHE">
      <acc value="0.0630798873" flag="0"/>
      <vel value="0.0293740983" flag="0"/>
      <psa03 value="0.0828769328" flag="0"/>
      <psa10 value="0.0496948656" flag="0"/>
      <psa30 value="0.0093534621" flag="0"/>
    </comp>
    <comp name="--.HHZ">
      <acc value="0.0544003685" flag="0"/>
      <vel value="0.0174136371" flag="0"/>
      <psa03 value="0.0744838905" flag="0"/>
      <psa10 value="0.0192033828" flag="0"/>
      <psa30 value="0.0027572713" flag="0"/>
    </comp>
  </station>
  <station code="SAP3" name="SAP3" netid="HL" insttype="LE3D20_SMART24" lat="36.4356" lon="25.3454">
    <comp name="--.HHE">
      <acc value="0.2634226116" flag="0"/>
      <vel value="0.1395948012" flag="0"/>
      <psa03 value="0.6013510207" flag="0"/>
      <psa10 value="0.0860552293" flag="0"/>
      <psa30 value="0.0218987324" flag="0"/>
    </comp>
    <comp name="--.HHN">
      <acc value="0.3575160235" flag="0"/>
      <vel value="0.1109081211" flag="0"/>
      <psa03 value="0.8141477206" flag="0"/>
      <psa10 value="0.0649970653" flag="0"/>
      <psa30 value="0.0215241988" flag="0"/>
    </comp>
    <comp name="--.HHZ">
      <acc value="0.2573601918" flag="0"/>
      <vel value="0.0897443196" flag="0"/>
      <psa03 value="0.3242415842" flag="0"/>
      <psa10 value="0.0311439316" flag="0"/>
      <psa30 value="0.0065423410" flag="0"/>
    </comp>
  </station>
  <station code="THERA" name="THERA" netid="HL" insttype="120" lat="36.367" lon="25.4753">
    <comp name="--.HHN">
      <acc value="0.0370933952" flag="0"/>
      <vel value="0.0166422861" flag="0"/>
      <psa03 value="0.0681168107" flag="0"/>
      <psa10 value="0.0184068257" flag="0"/>
      <psa30 value="0.0021669962" flag="0"/>
    </comp>
    <comp name="--.HHE">
      <acc value="0.0880102270" flag="0"/>
      <vel value="0.0309036995" flag="0"/>
      <psa03 value="0.1162335908" flag="0"/>
      <psa10 value="0.0228896985" flag="0"/>
      <psa30 value="0.0034930948" flag="0"/>
    </comp>
    <comp name="--.HHZ">
      <acc value="0.0583295418" flag="0"/>
      <vel value="0.0196557384" flag="0"/>
      <psa03 value="0.1042396949" flag="0"/>
      <psa10 value="0.0155920587" flag="0"/>
      <psa30 value="0.0024249399" flag="0"/>
    </comp>
  </station>
  <station code="THRA" name="THRA" netid="HL" insttype="CMG-5" lat="36.415" lon="25.4324">
    <comp name="00.HNE">
      <acc value="0.1853757735" flag="0"/>
      <vel value="0.0804195993" flag="0"/>
      <psa03 value="0.5533612735" flag="0"/>
      <psa10 value="0.1346699467" flag="0"/>
      <psa30 value="0.0139207480" flag="0"/>
    </comp>
    <comp name="00.HNZ">
      <acc value="0.1316201019" flag="0"/>
      <vel value="0.0632457682" flag="0"/>
      <psa03 value="0.2959432331" flag="0"/>
      <psa10 value="0.0656376689" flag="0"/>
      <psa30 value="0.0041342196" flag="0"/>
    </comp>
    <comp name="00.HNN">
      <acc value="0.2813207886" flag="0"/>
      <vel value="0.1187554384" flag="0"/>
      <psa03 value="0.4962712745" flag="0"/>
      <psa10 value="0.2225684463" flag="0"/>
      <psa30 value="0.0142409004" flag="0"/>
    </comp>
  </station>
  <station code="CMBO" name="CMBO" netid="HT" insttype="120P," lat="36.4709" lon="25.4056">
    <comp name="--.HHZ">
      <acc value="0.2906122609" flag="0"/>
      <vel value="0.0915748444" flag="0"/>
      <psa03 value="0.5934411925" flag="0"/>
      <psa10 value="0.0685517382" flag="0"/>
      <psa30 value="0.0135031861" flag="0"/>
    </comp>
    <comp name="--.HHN">
      <acc value="0.4117793098" flag="0"/>
      <vel value="0.2145722921" flag="0"/>
      <psa03 value="0.6738530647" flag="0"/>
      <psa10 value="0.1969239750" flag="0"/>
      <psa30 value="0.0171245330" flag="0"/>
    </comp>
    <comp name="--.HHE">
      <acc value="0.4231605568" flag="0"/>
      <vel value="0.1295126600" flag="0"/>
      <psa03 value="0.5652341352" flag="0"/>
      <psa10 value="0.1388735678" flag="0"/>
      <psa30 value="0.0104649134" flag="0"/>
    </comp>
  </station>
</stationlist>
