<?xml version="1.0" encoding="UTF-8" standalone="yes"?>
<!DOCTYPE earthquake SYSTEM "stationlist.dtd">
<stationlist created="" xmlns="ch.ethz.sed.shakemap.usgs.xml">
  <station code="THERA" name="THERA" netid="GE" insttype="STS-2/N" lat="36.367" lon="25.4753">
    <comp name="--.HHN">
      <acc value="0.0381465654" flag="0"/>
      <vel value="0.0169580127" flag="0"/>
      <psa03 value="0.0700422807" flag="0"/>
      <psa10 value="0.0185423276" flag="0"/>
      <psa30 value="0.0021653904" flag="0"/>
    </comp>
    <comp name="--.HHE">
      <acc value="0.0892115095" flag="0"/>
      <vel value="0.0315743630" flag="0"/>
      <psa03 value="0.1195234556" flag="0"/>
      <psa10 value="0.0231045306" flag="0"/>
      <psa30 value="0.0034919687" flag="0"/>
    </comp>
    <comp name="--.HHZ">
      <acc value="0.0598935108" flag="0"/>
      <vel value="0.0201740689" flag="0"/>
      <psa03 value="0.1078204508" flag="0"/>
      <psa10 value="0.0156887259" flag="0"/>
      <psa30 value="0.0024230586" flag="0"/>
    </comp>
  </station>
</stationlist>
