<?xml version="1.0" encoding="UTF-8" standalone="yes"?>
<!DOCTYPE earthquake SYSTEM "stationlist.dtd">
<stationlist created="" xmlns="ch.ethz.sed.shakemap.usgs.xml">
  <station code="GIL" name="GIL" netid="VI" source="ODC" insttype="CMG-3ESP" lat="66.0773" lon="-16.3513">
    <comp name="--.HHZ">
      <acc value="0.0496771271" flag="0"/>
      <vel value="0.0129462584" flag="0"/>
      <psa03 value="0.0455630820" flag="0"/>
      <psa10 value="0.0153250959" flag="0"/>
      <psa30 value="0.0014823644" flag="0"/>
    </comp>
    <comp name="--.HHN">
      <acc value="0.0486703525" flag="0"/>
      <vel value="0.0250454272" flag="0"/>
      <psa03 value="0.0609283889" flag="0"/>
      <psa10 value="0.0344466385" flag="0"/>
      <psa30 value="0.0030228037" flag="0"/>
    </comp>
    <comp name="--.HHE">
      <acc value="0.0520448285" flag="0"/>
      <vel value="0.0261715097" flag="0"/>
      <psa03 value="0.0669952132" flag="0"/>
      <psa10 value="0.0300100692" flag="0"/>
      <psa30 value="0.0024156000" flag="0"/>
    </comp>
  </station>
</stationlist>
