<stationlist created="1778136467">
	<station code="MALA" name="MALA" netid="CL" source="Corinth Riff Laboratory (CRLNET)" insttype="" lat="38.39341" lon="21.87263">
		<comp name="01.HNE" depth="0.0">
			<acc value="0.0142104472584723" flag="0"/>
			<vel value="0.0147998362497012" flag="0"/>
			<psa03 value="0.0291271765084949" flag="0"/>
			<psa10 value="0.0401512087971709" flag="0"/>
			<psa30 value="0.00324604709015562" flag="0"/>
		</comp>
		<comp name="01.HNN" depth="0.0">
			<acc value="0.0115356836373959" flag="0"/>
			<vel value="0.0127118580428976" flag="0"/>
			<psa03 value="0.0187469845730559" flag="0"/>
			<psa10 value="0.0202145289501352" flag="0"/>
			<psa30 value="0.00204964048518303" flag="0"/>
		</comp>
		<comp name="01.HNZ" depth="0.0">
			<acc value="0.0059872783127546" flag="0"/>
			<vel value="0.00658522943678346" flag="0"/>
			<psa03 value="0.00979854324940151" flag="0"/>
			<psa10 value="0.0183179068115866" flag="0"/>
			<psa30 value="0.00123354263646575" flag="0"/>
		</comp>
	</station>
	<station code="ROD3" name="ROD3" netid="CL" source="Corinth Riff Laboratory (CRLNET)" insttype="" lat="38.30811" lon="21.89204">
		<comp name="00.HNE" depth="0.0">
			<acc value="0.00796068137458145" flag="0"/>
			<vel value="0.00570187217465193" flag="0"/>
			<psa03 value="0.0213867747635339" flag="0"/>
			<psa10 value="0.0101555860582153" flag="0"/>
			<psa30 value="0.0010796294456989" flag="0"/>
		</comp>
		<comp name="00.HNN" depth="0.0">
			<acc value="0.00587069608429887" flag="0"/>
			<vel value="0.00337879223359478" flag="0"/>
			<psa03 value="0.027158519417291" flag="0"/>
			<psa10 value="0.00438921046925246" flag="0"/>
			<psa30 value="0.000570910556449147" flag="0"/>
		</comp>
		<comp name="00.HNZ" depth="0.0">
			<acc value="0.00413213488637539" flag="0"/>
			<vel value="0.00196940327575621" flag="0"/>
			<psa03 value="0.00644287775303113" flag="0"/>
			<psa10 value="0.00291137538465094" flag="0"/>
			<psa30 value="0.000603572367280486" flag="0"/>
		</comp>
	</station>
	<station code="MMAA" name="MMAA" netid="EG" source="EUROSEISTEST Strong Motion Network" insttype="" lat="40.630855" lon="22.943725">
		<comp name="--.EN1" depth="0.0">
			<acc value="0.0306255005505946" flag="0"/>
			<vel value="0.0230351455009923" flag="0"/>
			<psa03 value="0.0985088798966618" flag="0"/>
			<psa10 value="0.02979959595199" flag="0"/>
			<psa30 value="0.0014454314819081" flag="0"/>
		</comp>
		<comp name="--.EN2" depth="0.0">
			<acc value="0.032503040619731" flag="0"/>
			<vel value="0.0217129985954829" flag="0"/>
			<psa03 value="0.136219263441195" flag="0"/>
			<psa10 value="0.0286741126442254" flag="0"/>
			<psa30 value="0.00134720049541916" flag="0"/>
		</comp>
		<comp name="--.EN3" depth="0.0">
			<acc value="0.0295493615373175" flag="0"/>
			<vel value="0.00944209401646412" flag="0"/>
			<psa03 value="0.0418388627651638" flag="0"/>
			<psa10 value="0.00970472789060789" flag="0"/>
			<psa30 value="0.000636642330681505" flag="0"/>
		</comp>
	</station>
	<station code="STC" name="STC" netid="EG" source="EUROSEISTEST Strong Motion Network" insttype="" lat="40.64865" lon="23.304856">
		<comp name="--.EN1" depth="0.0">
			<acc value="0.0246206410943385" flag="0"/>
			<vel value="0.0171632833593382" flag="0"/>
			<psa03 value="0.0914481100716003" flag="0"/>
			<psa10 value="0.0192301076502655" flag="0"/>
			<psa30 value="0.000858760117808329" flag="0"/>
		</comp>
		<comp name="--.EN2" depth="0.0">
			<acc value="0.0218252894468084" flag="0"/>
			<vel value="0.0150041007573407" flag="0"/>
			<psa03 value="0.0469885919303185" flag="0"/>
			<psa10 value="0.0122802841335391" flag="0"/>
			<psa30 value="0.000930789993601355" flag="0"/>
		</comp>
		<comp name="--.EN3" depth="0.0">
			<acc value="0.0105795025940965" flag="0"/>
			<vel value="0.00931946711628933" flag="0"/>
			<psa03 value="0.0227565387590123" flag="0"/>
			<psa10 value="0.00804829097227061" flag="0"/>
			<psa30 value="0.000751360451024996" flag="0"/>
		</comp>
	</station>
	<station code="TST" name="TST" netid="EG" source="EUROSEISTEST Strong Motion Network" insttype="" lat="40.6638" lon="23.2906">
		<comp name="00.EN1" depth="0.0">
			<acc value="0.0137937636487313" flag="0"/>
			<vel value="0.0114455896374536" flag="0"/>
			<psa03 value="0.0471035266274473" flag="0"/>
			<psa10 value="0.0118387495715482" flag="0"/>
			<psa30 value="0.000943346242057462" flag="0"/>
		</comp>
		<comp name="00.EN2" depth="0.0">
			<acc value="0.0057707952947624" flag="0"/>
			<vel value="0.00490426530517642" flag="0"/>
			<psa03 value="0.0233379132097301" flag="0"/>
			<psa10 value="0.00680413011521836" flag="0"/>
			<psa30 value="0.000359059463010519" flag="0"/>
		</comp>
		<comp name="00.EN3" depth="0.0">
			<acc value="0.0188711469959288" flag="0"/>
			<vel value="0.012267449965819" flag="0"/>
			<psa03 value="0.0440620022247468" flag="0"/>
			<psa10 value="0.0150388290611324" flag="0"/>
			<psa30 value="0.000960645825570692" flag="0"/>
		</comp>
	</station>
	<station code="AIGS" name="AIGS" netid="HA" source="Hellenic Seismological Network, University of Athens, Seismological Laboratory (HA)" insttype="" lat="38.25001" lon="22.0878">
		<comp name="--.HNE" depth="0.0">
			<acc value="0.00439970320979308" flag="0"/>
			<vel value="0.00392157160969738" flag="0"/>
			<psa03 value="0.00975380104278324" flag="0"/>
			<psa10 value="0.0043569960804873" flag="0"/>
			<psa30 value="0.00103846661561009" flag="0"/>
		</comp>
		<comp name="--.HNN" depth="0.0">
			<acc value="0.00538565413981057" flag="0"/>
			<vel value="0.00333745815220206" flag="0"/>
			<psa03 value="0.00970905883616497" flag="0"/>
			<psa10 value="0.00407512017879219" flag="0"/>
			<psa30 value="0.00144606811790254" flag="0"/>
		</comp>
		<comp name="--.HNZ" depth="0.0">
			<acc value="0.00657163554892274" flag="0"/>
			<vel value="0.00293911328199833" flag="0"/>
			<psa03 value="0.00501112714124644" flag="0"/>
			<psa10 value="0.00398653060968801" flag="0"/>
			<psa30 value="0.00103130786255116" flag="0"/>
		</comp>
	</station>
	<station code="KIAS" name="KIAS" netid="HA" source="Hellenic Seismological Network, University of Athens, Seismological Laboratory (HA)" insttype="" lat="37.9875" lon="22.7543">
		<comp name="--.HNE" depth="0.0">
			<acc value="0.0036971988663767" flag="0"/>
			<vel value="0.00337018289449369" flag="0"/>
			<psa03 value="0.00612968230670323" flag="0"/>
			<psa10 value="0.00607643908082749" flag="0"/>
			<psa30 value="0.00114495306736157" flag="0"/>
		</comp>
		<comp name="--.HNN" depth="0.0">
			<acc value="0.00324900946885396" flag="0"/>
			<vel value="0.00385908606775714" flag="0"/>
			<psa03 value="0.00626390892655805" flag="0"/>
			<psa10 value="0.00557308925637193" flag="0"/>
			<psa30 value="0.00157224114056607" flag="0"/>
		</comp>
		<comp name="--.HNZ" depth="0.0">
			<acc value="0.00313362600321013" flag="0"/>
			<vel value="0.00207705700430266" flag="0"/>
			<psa03 value="0.00335566549637038" flag="0"/>
			<psa10 value="0.00277446423239903" flag="0"/>
			<psa30 value="0.00128723328440768" flag="0"/>
		</comp>
	</station>
	<station code="LTRS" name="LTRS" netid="HA" source="Hellenic Seismological Network, University of Athens, Seismological Laboratory (HA)" insttype="" lat="37.97528" lon="22.9765">
		<comp name="--.HNE" depth="0.0">
			<acc value="0.00402433439282576" flag="0"/>
			<vel value="0.00338083329505743" flag="0"/>
			<psa03 value="0.00711401085230521" flag="0"/>
			<psa10 value="0.00578650958194109" flag="0"/>
			<psa30 value="0.000835336997563133" flag="0"/>
		</comp>
		<comp name="--.HNN" depth="0.0">
			<acc value="0.00322269446270256" flag="0"/>
			<vel value="0.00281456300419051" flag="0"/>
			<psa03 value="0.00724823747216002" flag="0"/>
			<psa10 value="0.00462679158639548" flag="0"/>
			<psa30 value="0.000636681600178007" flag="0"/>
		</comp>
		<comp name="--.HNZ" depth="0.0">
			<acc value="0.00585572630225112" flag="0"/>
			<vel value="0.00186404085480344" flag="0"/>
			<psa03 value="0.00362411873608001" flag="0"/>
			<psa10 value="0.00362814553467566" flag="0"/>
			<psa30 value="0.000508271467183567" flag="0"/>
		</comp>
	</station>
	<station code="XLKS" name="XLKS" netid="HA" source="Hellenic Seismological Network, University of Athens, Seismological Laboratory (HA)" insttype="" lat="38.0772" lon="22.6361">
		<comp name="--.HNE" depth="0.0">
			<acc value="0.00589671591897155" flag="0"/>
			<vel value="0.00545285107546604" flag="0"/>
			<psa03 value="0.0131094665391536" flag="0"/>
			<psa10 value="0.0132562209768616" flag="0"/>
			<psa30 value="0.00217670835197892" flag="0"/>
		</comp>
		<comp name="--.HNN" depth="0.0">
			<acc value="0.00654944683556358" flag="0"/>
			<vel value="0.00673041338026854" flag="0"/>
			<psa03 value="0.0130199821259171" flag="0"/>
			<psa10 value="0.0211809606130898" flag="0"/>
			<psa30 value="0.00162995858710364" flag="0"/>
		</comp>
		<comp name="--.HNZ" depth="0.0">
			<acc value="0.00917286389477896" flag="0"/>
			<vel value="0.00285883552038278" flag="0"/>
			<psa03 value="0.00885895691041781" flag="0"/>
			<psa10 value="0.00402277179704881" flag="0"/>
			<psa30 value="0.000892159599968339" flag="0"/>
		</comp>
	</station>
	<station code="ART2" name="ART2" netid="HI" source="ITSAK Strong Motion Network" insttype="" lat="39.1474" lon="20.9937">
		<comp name="--.HNE" depth="0.0">
			<acc value="0.00463274800122568" flag="0"/>
			<vel value="0.00230495730062886" flag="0"/>
			<psa03 value="0.0099236235371796" flag="0"/>
			<psa10 value="0.0031844093108641" flag="0"/>
			<psa30 value="0.000519076313343785" flag="0"/>
		</comp>
		<comp name="--.HNN" depth="0.0">
			<acc value="0.00334336576244965" flag="0"/>
			<vel value="0.00211527161387256" flag="0"/>
			<psa03 value="0.00688370340741551" flag="0"/>
			<psa10 value="0.00278026214747323" flag="0"/>
			<psa30 value="0.000282200100621843" flag="0"/>
		</comp>
		<comp name="--.HNZ" depth="0.0">
			<acc value="0.00300012648963959" flag="0"/>
			<vel value="0.00167469016492175" flag="0"/>
			<psa03 value="0.00867414493202672" flag="0"/>
			<psa10 value="0.00176833917504253" flag="0"/>
			<psa30 value="0.000250256239706166" flag="0"/>
		</comp>
	</station>
	<station code="LMS2" name="LMS2" netid="HI" source="ITSAK Strong Motion Network" insttype="" lat="40.834985" lon="21.141815">
		<comp name="--.HNE" depth="0.0">
			<acc value="0.0123304219292897" flag="0"/>
			<vel value="0.00483595959615117" flag="0"/>
			<psa03 value="0.0288866141172312" flag="0"/>
			<psa10 value="0.00429964858062122" flag="0"/>
			<psa30 value="0.00035704599629514" flag="0"/>
		</comp>
		<comp name="--.HNN" depth="0.0">
			<acc value="0.0157655428928014" flag="0"/>
			<vel value="0.00567036337484557" flag="0"/>
			<psa03 value="0.0268803614212005" flag="0"/>
			<psa10 value="0.0071707478393437" flag="0"/>
			<psa30 value="0.000308340009345478" flag="0"/>
		</comp>
		<comp name="--.HNZ" depth="0.0">
			<acc value="0.005566310495175" flag="0"/>
			<vel value="0.00323379614952794" flag="0"/>
			<psa03 value="0.0158532559295897" flag="0"/>
			<psa10 value="0.0072600032833267" flag="0"/>
			<psa30 value="0.000458530323299541" flag="0"/>
		</comp>
	</station>
	<station code="SKO1" name="SKO1" netid="HI" source="ITSAK Strong Motion Network" insttype="" lat="39.123383" lon="23.728705">
		<comp name="--.HNE" depth="0.0">
			<acc value="0.0039601945722952" flag="0"/>
			<vel value="0.00262638988452662" flag="0"/>
			<psa03 value="0.0134893050585757" flag="0"/>
			<psa10 value="0.0034296057101726" flag="0"/>
			<psa30 value="0.00020529128183151" flag="0"/>
		</comp>
		<comp name="--.HNN" depth="0.0">
			<acc value="0.00301992930685362" flag="0"/>
			<vel value="0.00205673905296589" flag="0"/>
			<psa03 value="0.0104160174839865" flag="0"/>
			<psa10 value="0.00179280813973974" flag="0"/>
			<psa30 value="0.000140783883532863" flag="0"/>
		</comp>
		<comp name="--.HNZ" depth="0.0">
			<acc value="0.00338531614782411" flag="0"/>
			<vel value="0.00217362904993824" flag="0"/>
			<psa03 value="0.00749633253274085" flag="0"/>
			<psa10 value="0.0026185889374152" flag="0"/>
			<psa30 value="0.000127059315493553" flag="0"/>
		</comp>
	</station>
	<station code="VAS2" name="VAS2" netid="HI" source="ITSAK Strong Motion Network" insttype="" lat="38.630558" lon="20.608081">
		<comp name="--.HNE" depth="0.0">
			<acc value="0.0192192937108264" flag="0"/>
			<vel value="0.0208702610488179" flag="0"/>
			<psa03 value="0.0323468876142327" flag="0"/>
			<psa10 value="0.0534217076759597" flag="0"/>
			<psa30 value="0.00213645652976206" flag="0"/>
		</comp>
		<comp name="--.HNN" depth="0.0">
			<acc value="0.0172784027582202" flag="0"/>
			<vel value="0.0212523378416956" flag="0"/>
			<psa03 value="0.0338519821110326" flag="0"/>
			<psa10 value="0.0336115866026516" flag="0"/>
			<psa30 value="0.00256585060001037" flag="0"/>
		</comp>
		<comp name="--.HNZ" depth="0.0">
			<acc value="0.00799833305771205" flag="0"/>
			<vel value="0.00750760319021933" flag="0"/>
			<psa03 value="0.0156250676361404" flag="0"/>
			<psa10 value="0.0178885987818902" flag="0"/>
			<psa30 value="0.000628332040578444" flag="0"/>
		</comp>
	</station>
	<station code="VOL2" name="VOL2" netid="HI" source="ITSAK Strong Motion Network" insttype="" lat="39.366" lon="22.9506">
		<comp name="--.HNE" depth="0.0">
			<acc value="0.0196335749077729" flag="0"/>
			<vel value="0.0121943225767451" flag="0"/>
			<psa03 value="0.045719914136524" flag="0"/>
			<psa10 value="0.00747640246247208" flag="0"/>
			<psa30 value="0.000827054475797869" flag="0"/>
		</comp>
		<comp name="--.HNN" depth="0.0">
			<acc value="0.0288508892131038" flag="0"/>
			<vel value="0.0113438221046853" flag="0"/>
			<psa03 value="0.0644891835503621" flag="0"/>
			<psa10 value="0.0143556603670513" flag="0"/>
			<psa30 value="0.000653072429511082" flag="0"/>
		</comp>
		<comp name="--.HNZ" depth="0.0">
			<acc value="0.0206951689462089" flag="0"/>
			<vel value="0.00690696314135311" flag="0"/>
			<psa03 value="0.0355275175861893" flag="0"/>
			<psa10 value="0.00617138960552763" flag="0"/>
			<psa30 value="0.000379496051209463" flag="0"/>
		</comp>
	</station>
	<station code="DLFA" name="DLFA" netid="HL" source="National Observatory of Athens Seismic Network" insttype="" lat="38.47836" lon="22.49583">
		<comp name="00.HNE" depth="0.0">
			<acc value="0.00446466594189491" flag="0"/>
			<vel value="0.00562249418566363" flag="0"/>
			<psa03 value="0.0101117386957294" flag="0"/>
			<psa10 value="0.014383724583642" flag="0"/>
			<psa30 value="0.000675159897869721" flag="0"/>
		</comp>
		<comp name="00.HNN" depth="0.0">
			<acc value="0.00486490915680523" flag="0"/>
			<vel value="0.00545524242854723" flag="0"/>
			<psa03 value="0.0114540048942776" flag="0"/>
			<psa10 value="0.00747776499211176" flag="0"/>
			<psa30 value="0.000646077463567844" flag="0"/>
		</comp>
		<comp name="00.HNZ" depth="0.0">
			<acc value="0.00334404268945598" flag="0"/>
			<vel value="0.00399730247731981" flag="0"/>
			<psa03 value="0.00604019789346669" flag="0"/>
			<psa10 value="0.00887909090339603" flag="0"/>
			<psa30 value="0.000495743649330451" flag="0"/>
		</comp>
	</station>
	<station code="JAN" name="JAN" netid="HL" source="National Observatory of Athens Seismic Network" insttype="" lat="39.65616" lon="20.84874">
		<comp name="00.HNE" depth="0.0">
			<acc value="0.00938347038654014" flag="0"/>
			<vel value="0.00466425101592355" flag="0"/>
			<psa03 value="0.0209840949039695" flag="0"/>
			<psa10 value="0.00640260976707469" flag="0"/>
			<psa30 value="0.000734667032672022" flag="0"/>
		</comp>
		<comp name="00.HNN" depth="0.0">
			<acc value="0.00617775839112228" flag="0"/>
			<vel value="0.00406093094373267" flag="0"/>
			<psa03 value="0.0190154378127655" flag="0"/>
			<psa10 value="0.00465095237796935" flag="0"/>
			<psa30 value="0.00078209377168739" flag="0"/>
		</comp>
		<comp name="00.HNZ" depth="0.0">
			<acc value="0.00522488155536667" flag="0"/>
			<vel value="0.00262292784411161" flag="0"/>
			<psa03 value="0.0131094665391536" flag="0"/>
			<psa10 value="0.00280265182256854" flag="0"/>
			<psa30 value="0.000550776563470925" flag="0"/>
		</comp>
	</station>
	<station code="PATC" name="PATC" netid="HL" source="National Observatory of Athens Seismic Network" insttype="" lat="38.26933" lon="21.76001">
		<comp name="00.HNE" depth="0.0">
			<acc value="0.00638664423675474" flag="0"/>
			<vel value="0.00812954068109476" flag="0"/>
			<psa03 value="0.00921689456336398" flag="0"/>
			<psa10 value="0.0154467994128921" flag="0"/>
			<psa30 value="0.00199729210343965" flag="0"/>
		</comp>
		<comp name="00.HNN" depth="0.0">
			<acc value="0.00512467243526504" flag="0"/>
			<vel value="0.00791682613279736" flag="0"/>
			<psa03 value="0.00782988615819756" flag="0"/>
			<psa10 value="0.0113233576509522" flag="0"/>
			<psa30 value="0.001672463683391" flag="0"/>
		</comp>
		<comp name="00.HNZ" depth="0.0">
			<acc value="0.00361438927345786" flag="0"/>
			<vel value="0.00342674663522662" flag="0"/>
			<psa03 value="0.00657710437288595" flag="0"/>
			<psa10 value="0.00739320222160322" flag="0"/>
			<psa30 value="0.000848312237482432" flag="0"/>
		</comp>
	</station>
	<station code="PATG" name="PATG" netid="HL" source="National Observatory of Athens Seismic Network" insttype="" lat="38.23865" lon="21.72657">
		<comp name="00.HNE" depth="0.0">
			<acc value="0.00704547847031656" flag="0"/>
			<vel value="0.00485830069800802" flag="0"/>
			<psa03 value="0.011856684753842" flag="0"/>
			<psa10 value="0.0081341331632018" flag="0"/>
			<psa30 value="0.00207603838708781" flag="0"/>
		</comp>
		<comp name="00.HNN" depth="0.0">
			<acc value="0.00888061135496231" flag="0"/>
			<vel value="0.00793657218543705" flag="0"/>
			<psa03 value="0.0115882315141324" flag="0"/>
			<psa10 value="0.00961196824780332" flag="0"/>
			<psa30 value="0.00228901129059078" flag="0"/>
		</comp>
		<comp name="00.HNZ" depth="0.0">
			<acc value="0.0328599637578315" flag="0"/>
			<vel value="0.00420735372458024" flag="0"/>
			<psa03 value="0.00782988615819756" flag="0"/>
			<psa10 value="0.0046106843920129" flag="0"/>
			<psa30 value="0.00101967488883041" flag="0"/>
		</comp>
	</station>
	<station code="PLG" name="PLG" netid="HL" source="National Observatory of Athens Seismic Network" insttype="" lat="40.37328" lon="23.44443">
		<comp name="--.HNE" depth="0.0">
			<acc value="0.0" flag="1"/>
			<vel value="0.0" flag="1"/>
			<psa03 value="0.0" flag="1"/>
			<psa10 value="0.0" flag="1"/>
			<psa30 value="0.0" flag="1"/>
		</comp>
		<comp name="--.HNN" depth="0.0">
			<acc value="0.0" flag="1"/>
			<vel value="0.0" flag="1"/>
			<psa03 value="0.0" flag="1"/>
			<psa10 value="0.0" flag="1"/>
			<psa30 value="0.0" flag="1"/>
		</comp>
		<comp name="--.HNZ" depth="0.0">
			<acc value="0.0" flag="1"/>
			<vel value="0.0" flag="1"/>
			<psa03 value="0.0" flag="1"/>
			<psa10 value="0.0" flag="1"/>
			<psa30 value="0.0" flag="1"/>
		</comp>
	</station>
	<station code="RIOA" name="RIOA" netid="HL" source="National Observatory of Athens Seismic Network" insttype="" lat="38.29585" lon="21.79118">
		<comp name="00.HNE" depth="0.0">
			<acc value="0.00456752882770891" flag="0"/>
			<vel value="0.00492640924664543" flag="0"/>
			<psa03 value="0.00751669071186965" flag="0"/>
			<psa10 value="0.00777977488678509" flag="0"/>
			<psa30 value="0.00136553214598965" flag="0"/>
		</comp>
		<comp name="00.HNN" depth="0.0">
			<acc value="0.00563081452479944" flag="0"/>
			<vel value="0.00440962041750114" flag="0"/>
			<psa03 value="0.00975380104278324" flag="0"/>
			<psa10 value="0.00775158729661558" flag="0"/>
			<psa30 value="0.00107649749123562" flag="0"/>
		</comp>
		<comp name="00.HNZ" depth="0.0">
			<acc value="0.00614592339593344" flag="0"/>
			<vel value="0.00320954448910062" flag="0"/>
			<psa03 value="0.00702452643906867" flag="0"/>
			<psa10 value="0.00497712306421655" flag="0"/>
			<psa30 value="0.0010796294456989" flag="0"/>
		</comp>
	</station>
