<?xml version="1.0" encoding="UTF-8" standalone="yes"?>
<!DOCTYPE earthquake SYSTEM "stationlist.dtd">
<stationlist created="" xmlns="ch.ethz.sed.shakemap.usgs.xml">
  <station code="EVR" name="EVR" netid="HL" insttype="DR24" lat="38.9166" lon="21.8105">
    <comp name="--.HHE">
      <acc value="0.0102441135" flag="0"/>
      <vel value="0.0065805092" flag="0"/>
      <psa03 value="0.0256940490" flag="0"/>
      <psa10 value="0.0074923234" flag="0"/>
      <psa30 value="0.0009702593" flag="0"/>
    </comp>
    <comp name="--.HHZ">
      <acc value="0.0092948227" flag="0"/>
      <vel value="0.0060669107" flag="0"/>
      <psa03 value="0.0177778249" flag="0"/>
      <psa10 value="0.0070798562" flag="0"/>
      <psa30 value="0.0006318392" flag="0"/>
    </comp>
    <comp name="--.HHN">
      <acc value="0.0179184820" flag="0"/>
      <vel value="0.0114021089" flag="0"/>
      <psa03 value="0.0256079937" flag="0"/>
      <psa10 value="0.0079874687" flag="0"/>
      <psa30 value="0.0020608858" flag="0"/>
    </comp>
  </station>
  <station code="KZN" name="KZN" netid="HL" insttype="120" lat="40.3033" lon="21.7821">
    <comp name="--.HHZ">
      <acc value="0.0430622008" flag="0"/>
      <vel value="0.0219156229" flag="0"/>
      <psa03 value="0.1087439274" flag="0"/>
      <psa10 value="0.0201679910" flag="0"/>
      <psa30 value="0.0015855139" flag="0"/>
    </comp>
    <comp name="--.HHN">
      <acc value="0.0758854164" flag="0"/>
      <vel value="0.0229599725" flag="0"/>
      <psa03 value="0.1535975097" flag="0"/>
      <psa10 value="0.0185162471" flag="0"/>
      <psa30 value="0.0010907398" flag="0"/>
    </comp>
    <comp name="--.HHE">
      <acc value="0.1143513248" flag="0"/>
      <vel value="0.0488173823" flag="0"/>
      <psa03 value="0.2573052498" flag="0"/>
      <psa10 value="0.0252431754" flag="0"/>
      <psa30 value="0.0018587918" flag="0"/>
    </comp>
  </station>
  <station code="TETR" name="TETR" netid="HL" insttype="60" lat="39.3445" lon="21.2747">
    <comp name="--.HHZ">
      <acc value="0.0300983649" flag="0"/>
      <vel value="0.0116988007" flag="0"/>
      <psa03 value="0.1088567218" flag="0"/>
      <psa10 value="0.0086217442" flag="0"/>
      <psa30 value="0.0005177924" flag="0"/>
    </comp>
    <comp name="--.HHE">
      <acc value="0.0683364723" flag="0"/>
      <vel value="0.0297555435" flag="0"/>
      <psa03 value="0.2417507059" flag="0"/>
      <psa10 value="0.0255050255" flag="0"/>
      <psa30 value="0.0012328890" flag="0"/>
    </comp>
    <comp name="--.HHN">
      <acc value="0.0612465314" flag="0"/>
      <vel value="0.0202324807" flag="0"/>
      <psa03 value="0.1632268754" flag="0"/>
      <psa10 value="0.0131694298" flag="0"/>
      <psa30 value="0.0010124307" flag="0"/>
    </comp>
  </station>
  <station code="THL" name="THL" netid="HL" insttype="120" lat="39.5647" lon="22.0144">
    <comp name="--.HHN">
      <acc value="0.1828082171" flag="0"/>
      <vel value="0.0325102420" flag="0"/>
      <psa03 value="0.1660388631" flag="0"/>
      <psa10 value="0.0407787426" flag="0"/>
      <psa30 value="0.0038709612" flag="0"/>
    </comp>
    <comp name="--.HHE">
      <acc value="0.2286311768" flag="0"/>
      <vel value="0.0398631813" flag="0"/>
      <psa03 value="0.0977480398" flag="0"/>
      <psa10 value="0.0288258631" flag="0"/>
      <psa30 value="0.0014632768" flag="0"/>
    </comp>
    <comp name="--.HHZ">
      <acc value="0.1103622494" flag="0"/>
      <vel value="0.0393842152" flag="0"/>
      <psa03 value="0.0898641911" flag="0"/>
      <psa10 value="0.0499956604" flag="0"/>
      <psa30 value="0.0038185905" flag="0"/>
    </comp>
  </station>
  <station code="AGG" name="AGG" netid="HT" insttype="120P," lat="39.0211" lon="22.336">
    <comp name="--.HHN">
      <acc value="0.0229566298" flag="0"/>
      <vel value="0.0169731419" flag="0"/>
      <psa03 value="0.0540990849" flag="0"/>
      <psa10 value="0.0131658876" flag="0"/>
      <psa30 value="0.0012240035" flag="0"/>
    </comp>
    <comp name="--.HHE">
      <acc value="0.0279822006" flag="0"/>
      <vel value="0.0129523945" flag="0"/>
      <psa03 value="0.0689723572" flag="0"/>
      <psa10 value="0.0128627239" flag="0"/>
      <psa30 value="0.0011884654" flag="0"/>
    </comp>
    <comp name="--.HHZ">
      <acc value="0.0150278285" flag="0"/>
      <vel value="0.0093863759" flag="0"/>
      <psa03 value="0.0331838435" flag="0"/>
      <psa10 value="0.0116760956" flag="0"/>
      <psa30 value="0.0008256128" flag="0"/>
    </comp>
  </station>
  <station code="HORT" name="HORT" netid="HT" insttype="100" lat="40.5978" lon="23.0996">
    <comp name="--.HHN">
      <acc value="0.0000116894" flag="0"/>
      <vel value="0.0000019744" flag="0"/>
      <psa03 value="0.0000106333" flag="0"/>
      <psa10 value="0.0000021438" flag="0"/>
      <psa30 value="0.0000003489" flag="0"/>
    </comp>
    <comp name="--.HHE">
      <acc value="0.0044641667" flag="0"/>
      <vel value="0.0032793146" flag="0"/>
      <psa03 value="0.0090581077" flag="0"/>
      <psa10 value="0.0036210318" flag="0"/>
      <psa30 value="0.0003394093" flag="0"/>
    </comp>
    <comp name="--.HHZ">
      <acc value="0.0034643284" flag="0"/>
      <vel value="0.0015621486" flag="0"/>
      <psa03 value="0.0103021870" flag="0"/>
      <psa10 value="0.0025742012" flag="0"/>
      <psa30 value="0.0002942008" flag="0"/>
    </comp>
  </station>
  <station code="KPRO" name="KPRO" netid="HT" insttype="100" lat="39.9549" lon="21.3632">
    <comp name="--.HHE">
      <acc value="0.0274592993" flag="0"/>
      <vel value="0.0147186292" flag="0"/>
      <psa03 value="0.1031991184" flag="0"/>
      <psa10 value="0.0179136253" flag="0"/>
      <psa30 value="0.0011949869" flag="0"/>
    </comp>
    <comp name="--.HHN">
      <acc value="0.0266049062" flag="0"/>
      <vel value="0.0125011026" flag="0"/>
      <psa03 value="0.0790073382" flag="0"/>
      <psa10 value="0.0162910959" flag="0"/>
      <psa30 value="0.0015197879" flag="0"/>
    </comp>
    <comp name="--.HHZ">
      <acc value="0.0164564156" flag="0"/>
      <vel value="0.0111259801" flag="0"/>
      <psa03 value="0.0402016432" flag="0"/>
      <psa10 value="0.0105430039" flag="0"/>
      <psa30 value="0.0010368543" flag="0"/>
    </comp>
  </station>
  <station code="LIT" name="LIT" netid="HT" insttype="100" lat="40.1033" lon="22.4892">
    <comp name="--.HHE">
      <acc value="0.1564524666" flag="0"/>
      <vel value="0.0589314350" flag="0"/>
      <psa03 value="0.2165750487" flag="0"/>
      <psa10 value="0.0331863583" flag="0"/>
      <psa30 value="0.0019236233" flag="0"/>
    </comp>
    <comp name="--.HHN">
      <acc value="0.1692909049" flag="0"/>
      <vel value="0.0620592381" flag="0"/>
      <psa03 value="0.2969723175" flag="0"/>
      <psa10 value="0.0231363905" flag="0"/>
      <psa30 value="0.0021946228" flag="0"/>
    </comp>
    <comp name="--.HHZ">
      <acc value="0.0748453772" flag="0"/>
      <vel value="0.0375500207" flag="0"/>
      <psa03 value="0.2252678771" flag="0"/>
      <psa10 value="0.0254650664" flag="0"/>
      <psa30 value="0.0016710208" flag="0"/>
    </comp>
  </station>
  <station code="THE" name="THE" netid="HT" insttype="30s-100Hz," lat="40.6319" lon="22.9628">
    <comp name="--.HHE">
      <acc value="0.0039142647" flag="0"/>
      <vel value="0.0031941530" flag="0"/>
      <psa03 value="0.0116890603" flag="0"/>
      <psa10 value="0.0042515635" flag="0"/>
      <psa30 value="0.0002531176" flag="0"/>
    </comp>
    <comp name="--.HHN">
      <acc value="0.0036432908" flag="0"/>
      <vel value="0.0028146200" flag="0"/>
      <psa03 value="0.0124936224" flag="0"/>
      <psa10 value="0.0034034134" flag="0"/>
      <psa30 value="0.0003570024" flag="0"/>
    </comp>
    <comp name="--.HHZ">
      <acc value="0.0027129463" flag="0"/>
      <vel value="0.0020787525" flag="0"/>
      <psa03 value="0.0084217870" flag="0"/>
      <psa10 value="0.0027819244" flag="0"/>
      <psa30 value="0.0003270859" flag="0"/>
    </comp>
  </station>
  <station code="TYRN" name="TYRN" netid="HT" insttype="120P," lat="39.711" lon="22.2325">
    <comp name="--.HHZ">
      <acc value="0.3283073754" flag="0"/>
      <vel value="0.1111101480" flag="0"/>
      <psa03 value="0.3049147946" flag="0"/>
      <psa10 value="0.1032816227" flag="0"/>
      <psa30 value="0.0100095942" flag="0"/>
    </comp>
    <comp name="--.HHN">
      <acc value="0.2727747795" flag="0"/>
      <vel value="0.0740576392" flag="0"/>
      <psa03 value="0.3574684528" flag="0"/>
      <psa10 value="0.0536622045" flag="0"/>
      <psa30 value="0.0035478063" flag="0"/>
    </comp>
    <comp name="--.HHE">
      <acc value="0.2836659667" flag="0"/>
      <vel value="0.1447952199" flag="0"/>
      <psa03 value="0.3478505409" flag="0"/>
      <psa10 value="0.0695624100" flag="0"/>
      <psa30 value="0.0047330633" flag="0"/>
    </comp>
  </station>
  <station code="XOR" name="XOR" netid="HT" insttype="Compact," lat="39.366" lon="23.1918">
    <comp name="--.HHE">
      <acc value="0.0243432432" flag="0"/>
      <vel value="0.0142995969" flag="0"/>
      <psa03 value="0.0432659967" flag="0"/>
      <psa10 value="0.0114512985" flag="0"/>
      <psa30 value="0.0019736900" flag="0"/>
    </comp>
    <comp name="--.HHN">
      <acc value="0.0350458417" flag="0"/>
      <vel value="0.0259702121" flag="0"/>
      <psa03 value="0.0865691713" flag="0"/>
      <psa10 value="0.0255626828" flag="0"/>
      <psa30 value="0.0011148661" flag="0"/>
    </comp>
    <comp name="--.HHZ">
      <acc value="0.0219754325" flag="0"/>
      <vel value="0.0102304416" flag="0"/>
      <psa03 value="0.0664063887" flag="0"/>
      <psa10 value="0.0095098384" flag="0"/>
      <psa30 value="0.0012742043" flag="0"/>
    </comp>
  </station>
  <station code="THL" name="THL" netid="MN" insttype="" lat="39.5647" lon="22.0144">
    <comp name="--.HHZ">
      <acc value="0.1103622494" flag="0"/>
      <vel value="0.0393842152" flag="0"/>
      <psa03 value="0.0898641911" flag="0"/>
      <psa10 value="0.0499956604" flag="0"/>
      <psa30 value="0.0038185905" flag="0"/>
    </comp>
    <comp name="--.HHE">
      <acc value="0.2286311768" flag="0"/>
      <vel value="0.0398631813" flag="0"/>
      <psa03 value="0.0977480398" flag="0"/>
      <psa10 value="0.0288258631" flag="0"/>
      <psa30 value="0.0014632768" flag="0"/>
    </comp>
    <comp name="--.HHN">
      <acc value="0.1828082171" flag="0"/>
      <vel value="0.0325102420" flag="0"/>
      <psa03 value="0.1660388631" flag="0"/>
      <psa10 value="0.0407787426" flag="0"/>
      <psa30 value="0.0038709612" flag="0"/>
    </comp>
  </station>
</stationlist>
