<stationlist created="1778069873">
	<station code="STC" name="STC" netid="EG" source="EUROSEISTEST Strong Motion Network" insttype="" lat="40.64865" lon="23.304856">
		<comp name="--.EN1" depth="0.0">
			<acc value="0.0222762348195201" flag="0"/>
			<vel value="0.0146913264657197" flag="0"/>
			<psa03 value="0.0740099236276712" flag="0"/>
			<psa10 value="0.0163062452087126" flag="0"/>
			<psa30 value="0.00181781771316797" flag="0"/>
		</comp>
		<comp name="--.EN2" depth="0.0">
			<acc value="0.0256919321010587" flag="0"/>
			<vel value="0.0172698306086044" flag="0"/>
			<psa03 value="0.0861030372369494" flag="0"/>
			<psa10 value="0.0171495448231697" flag="0"/>
			<psa30 value="0.00142163834322938" flag="0"/>
		</comp>
		<comp name="--.EN3" depth="0.0">
			<acc value="0.0140589012966964" flag="0"/>
			<vel value="0.00946865710281457" flag="0"/>
			<psa03 value="0.0516834862772748" flag="0"/>
			<psa10 value="0.0155257360038249" flag="0"/>
			<psa30 value="0.00113054312209991" flag="0"/>
		</comp>
	</station>
	<station code="LMN1" name="LMN1" netid="HI" source="ITSAK Strong Motion Network" insttype="" lat="39.875" lon="25.0588">
		<comp name="--.HNE" depth="0.0">
			<acc value="0.0813239302457726" flag="0"/>
			<vel value="0.0277638777038764" flag="0"/>
			<psa03 value="0.295969696779868" flag="0"/>
			<psa10 value="0.00804957039269327" flag="0"/>
			<psa30 value="0.000757485558047341" flag="0"/>
		</comp>
		<comp name="--.HNN" depth="0.0">
			<acc value="0.0823171807831892" flag="0"/>
			<vel value="0.0278448663651532" flag="0"/>
			<psa03 value="0.150647009683721" flag="0"/>
			<psa10 value="0.0127246835622365" flag="0"/>
			<psa30 value="0.000996408941388912" flag="0"/>
		</comp>
		<comp name="--.HNZ" depth="0.0">
			<acc value="0.090045130334465" flag="0"/>
			<vel value="0.0185195515829313" flag="0"/>
			<psa03 value="0.0512298265779212" flag="0"/>
			<psa10 value="0.0058509383594714" flag="0"/>
			<psa30 value="0.000482320987344969" flag="0"/>
		</comp>
	</station>
	<station code="SFL1" name="SFL1" netid="HI" source="ITSAK Strong Motion Network" insttype="" lat="41.189954" lon="26.304374">
		<comp name="--.HNE" depth="0.0">
			<acc value="0.0199056934618637" flag="0"/>
			<vel value="0.0131193723801385" flag="0"/>
			<psa03 value="0.0682766072994827" flag="0"/>
			<psa10 value="0.0134736681010264" flag="0"/>
			<psa30 value="0.000584780640500812" flag="0"/>
		</comp>
		<comp name="--.HNN" depth="0.0">
			<acc value="0.0228470008466322" flag="0"/>
			<vel value="0.0144503270734484" flag="0"/>
			<psa03 value="0.0618337295464516" flag="0"/>
			<psa10 value="0.00884284971603523" flag="0"/>
			<psa30 value="0.000583438374302264" flag="0"/>
		</comp>
		<comp name="--.HNZ" depth="0.0">
			<acc value="0.010850033558367" flag="0"/>
			<vel value="0.00729795602582662" flag="0"/>
			<psa03 value="0.0267110973511082" flag="0"/>
			<psa10 value="0.00312882250881574" flag="0"/>
			<psa30 value="0.000272032616239092" flag="0"/>
		</comp>
	</station>
	<station code="SKO1" name="SKO1" netid="HI" source="ITSAK Strong Motion Network" insttype="" lat="39.123383" lon="23.728705">
		<comp name="--.HNE" depth="0.0">
			<acc value="0.00682980471930009" flag="0"/>
			<vel value="0.00305848201302561" flag="0"/>
			<psa03 value="0.0127515288862075" flag="0"/>
			<psa10 value="0.0029073485860553" flag="0"/>
			<psa30 value="0.000331092328975211" flag="0"/>
		</comp>
		<comp name="--.HNN" depth="0.0">
			<acc value="0.00449050493895033" flag="0"/>
			<vel value="0.00260514582333267" flag="0"/>
			<psa03 value="0.0124830756464978" flag="0"/>
			<psa10 value="0.00298788455796819" flag="0"/>
			<psa30 value="0.000323933575916287" flag="0"/>
		</comp>
		<comp name="--.HNZ" depth="0.0">
			<acc value="0.00506404562794976" flag="0"/>
			<vel value="0.00250036861619666" flag="0"/>
			<psa03 value="0.00939586338983707" flag="0"/>
			<psa10 value="0.00216641764445672" flag="0"/>
			<psa30 value="0.000297088251945324" flag="0"/>
		</comp>
	</station>
	<station code="THS1" name="THS1" netid="HI" source="ITSAK Strong Motion Network" insttype="" lat="40.738476" lon="24.575145">
		<comp name="--.HNE" depth="0.0">
			<acc value="0.0627027568414095" flag="0"/>
			<vel value="0.0234597249479645" flag="0"/>
			<psa03 value="0.0744062896061859" flag="0"/>
			<psa10 value="0.0132521941782659" flag="0"/>
			<psa30 value="0.000846522549217701" flag="0"/>
		</comp>
		<comp name="--.HNN" depth="0.0">
			<acc value="0.0867888618450726" flag="0"/>
			<vel value="0.0228760792886724" flag="0"/>
			<psa03 value="0.191541386532821" flag="0"/>
			<psa10 value="0.0128978359018492" flag="0"/>
			<psa30 value="0.000978512058741603" flag="0"/>
		</comp>
		<comp name="--.HNZ" depth="0.0">
			<acc value="0.046831925071169" flag="0"/>
			<vel value="0.0156611813818653" flag="0"/>
			<psa03 value="0.111363352272878" flag="0"/>
			<psa10 value="0.00707508513254731" flag="0"/>
			<psa30 value="0.000634891911913276" flag="0"/>
		</comp>
	</station>
	<station code="VOL2" name="VOL2" netid="HI" source="ITSAK Strong Motion Network" insttype="" lat="39.366" lon="22.9506">
		<comp name="--.HNE" depth="0.0">
			<acc value="0.00844763566480203" flag="0"/>
			<vel value="0.00580411727203183" flag="0"/>
			<psa03 value="0.0305141849136613" flag="0"/>
			<psa10 value="0.00417176334508766" flag="0"/>
			<psa30 value="0.000374939691461117" flag="0"/>
		</comp>
		<comp name="--.HNN" depth="0.0">
			<acc value="0.0119843841281621" flag="0"/>
			<vel value="0.00936865394255658" flag="0"/>
			<psa03 value="0.0365096406005098" flag="0"/>
			<psa10 value="0.00827104431545372" flag="0"/>
			<psa30 value="0.000898423508894897" flag="0"/>
		</comp>
		<comp name="--.HNZ" depth="0.0">
			<acc value="0.0063677465508484" flag="0"/>
			<vel value="0.00254906891211347" flag="0"/>
			<psa03 value="0.0124383334398795" flag="0"/>
			<psa10 value="0.00322546567511121" flag="0"/>
			<psa30 value="0.000311405758063171" flag="0"/>
		</comp>
	</station>
	<station code="KYMI" name="KYMI" netid="HL" source="National Observatory of Athens Seismic Network" insttype="" lat="38.633147" lon="24.100138">
		<comp name="--.HNE" depth="1.0">
			<acc value="0.00406536317101975" flag="0"/>
			<vel value="0.00273943736809332" flag="0"/>
			<psa03 value="0.011364520481041" flag="0"/>
			<psa10 value="0.00289124139167272" flag="0"/>
			<psa30 value="0.00029798309607769" flag="0"/>
		</comp>
		<comp name="--.HNN" depth="1.0">
			<acc value="0.0050024588837269" flag="0"/>
			<vel value="0.00302419634145064" flag="0"/>
			<psa03 value="0.0110960672413314" flag="0"/>
			<psa10 value="0.00271003545486872" flag="0"/>
			<psa30 value="0.00027337488243764" flag="0"/>
		</comp>
		<comp name="--.HNZ" depth="1.0">
			<acc value="0.00286496778565118" flag="0"/>
			<vel value="0.0018620654541942" flag="0"/>
			<psa03 value="0.00595071348023014" flag="0"/>
			<psa10 value="0.00124830756464978" flag="0"/>
			<psa30 value="0.00028321816789366" flag="0"/>
		</comp>
	</station>
	<station code="LIA" name="LIA" netid="HL" source="National Observatory of Athens Seismic Network" insttype="" lat="39.89725" lon="25.18055">
		<comp name="00.HNE" depth="0.0">
			<acc value="0.0271073919819865" flag="0"/>
			<vel value="0.0128831907196819" flag="0"/>
			<psa03 value="0.0406259236093908" flag="0"/>
			<psa10 value="0.00819856194073212" flag="0"/>
			<psa30 value="0.000710058819031973" flag="0"/>
		</comp>
		<comp name="00.HNN" depth="0.0">
			<acc value="0.0359223059473062" flag="0"/>
			<vel value="0.0152549683830286" flag="0"/>
			<psa03 value="0.0808939095658353" flag="0"/>
			<psa10 value="0.012084422585529" flag="0"/>
			<psa30 value="0.000632654801582362" flag="0"/>
		</comp>
		<comp name="00.HNZ" depth="0.0">
			<acc value="0.0172313203096849" flag="0"/>
			<vel value="0.00799132215425787" flag="0"/>
			<psa03 value="0.0294403719548228" flag="0"/>
			<psa10 value="0.0069744151676562" flag="0"/>
			<psa30 value="0.00035570054261526" flag="0"/>
		</comp>
	</station>
</stationlist>
