<?xml version="1.0" encoding="UTF-8" standalone="yes"?>
<!DOCTYPE earthquake SYSTEM "stationlist.dtd">
<stationlist created="" xmlns="ch.ethz.sed.shakemap.usgs.xml">
  <station code="LMN1" name="LMN1" netid="HI" insttype="CMG-5TD,ACCELEROMETER,GURALP" lat="39.875" lon="25.0588">
    <comp name="--.HNE">
      <acc value="0.0819004277" flag="0"/>
      <vel value="0.0276296857" flag="0"/>
      <psa03 value="0.2994889800" flag="0"/>
      <psa10 value="0.0080247182" flag="0"/>
      <psa30 value="0.0007406655" flag="0"/>
    </comp>
    <comp name="--.HNZ">
      <acc value="0.0912936095" flag="0"/>
      <vel value="0.0181755618" flag="0"/>
      <psa03 value="0.0505338587" flag="0"/>
      <psa10 value="0.0058368986" flag="0"/>
      <psa30 value="0.0004346989" flag="0"/>
    </comp>
    <comp name="--.HNN">
      <acc value="0.0834905956" flag="0"/>
      <vel value="0.0274354986" flag="0"/>
      <psa03 value="0.1524815717" flag="0"/>
      <psa10 value="0.0126724273" flag="0"/>
      <psa30 value="0.0009738384" flag="0"/>
    </comp>
  </station>
  <station code="SKO1" name="SKO1" netid="HI" insttype="CMG-5TD,ACCELEROMETER,GURALP" lat="39.1234" lon="23.7287">
    <comp name="--.HNZ">
      <acc value="0.0050558651" flag="0"/>
      <vel value="0.0024585737" flag="0"/>
      <psa03 value="0.0095682489" flag="0"/>
      <psa10 value="0.0021577029" flag="0"/>
      <psa30 value="0.0002700796" flag="0"/>
    </comp>
    <comp name="--.HNE">
      <acc value="0.0068070283" flag="0"/>
      <vel value="0.0029900626" flag="0"/>
      <psa03 value="0.0127035220" flag="0"/>
      <psa10 value="0.0029019505" flag="0"/>
      <psa30 value="0.0003129940" flag="0"/>
    </comp>
    <comp name="--.HNN">
      <acc value="0.0044954876" flag="0"/>
      <vel value="0.0026117444" flag="0"/>
      <psa03 value="0.0125305390" flag="0"/>
      <psa10 value="0.0029744466" flag="0"/>
      <psa30 value="0.0002981139" flag="0"/>
    </comp>
  </station>
  <station code="THS1" name="THS1" netid="HI" insttype="CMG-5TD,ACCELEROMETER,GURALP" lat="40.7385" lon="24.5751">
    <comp name="--.HNE">
      <acc value="0.0618043159" flag="0"/>
      <vel value="0.0233873501" flag="0"/>
      <psa03 value="0.0725615302" flag="0"/>
      <psa10 value="0.0132079040" flag="0"/>
      <psa30 value="0.0007987944" flag="0"/>
    </comp>
    <comp name="--.HNN">
      <acc value="0.0876724446" flag="0"/>
      <vel value="0.0226218435" flag="0"/>
      <psa03 value="0.1882771545" flag="0"/>
      <psa10 value="0.0128739694" flag="0"/>
      <psa30 value="0.0009552378" flag="0"/>
    </comp>
    <comp name="--.HNZ">
      <acc value="0.0465377494" flag="0"/>
      <vel value="0.0156029362" flag="0"/>
      <psa03 value="0.1111829731" flag="0"/>
      <psa10 value="0.0070677078" flag="0"/>
      <psa30 value="0.0005696323" flag="0"/>
    </comp>
  </station>
  <station code="EFSA" name="EFSA" netid="HL" insttype="CMG-5" lat="39.5401" lon="24.9886">
    <comp name="00.HNE">
      <acc value="0.0121055560" flag="0"/>
      <vel value="0.0085168698" flag="0"/>
      <psa03 value="0.0281670315" flag="0"/>
      <psa10 value="0.0082795624" flag="0"/>
      <psa30 value="0.0017699566" flag="0"/>
    </comp>
    <comp name="00.HNZ">
      <acc value="0.0098538178" flag="0"/>
      <vel value="0.0041767423" flag="0"/>
      <psa03 value="0.0260420649" flag="0"/>
      <psa10 value="0.0050236415" flag="0"/>
      <psa30 value="0.0011277202" flag="0"/>
    </comp>
    <comp name="00.HNN">
      <acc value="0.0142680045" flag="0"/>
      <vel value="0.0090688921" flag="0"/>
      <psa03 value="0.0287856904" flag="0"/>
      <psa10 value="0.0146101362" flag="0"/>
      <psa30 value="0.0011867589" flag="0"/>
    </comp>
  </station>
  <station code="LIA" name="LIA" netid="HL" insttype="P6C" lat="39.8972" lon="25.1806">
    <comp name="--.HHZ">
      <acc value="0.0162583005" flag="0"/>
      <vel value="0.0078956026" flag="0"/>
      <psa03 value="0.0286776165" flag="0"/>
      <psa10 value="0.0071823293" flag="0"/>
      <psa30 value="0.0003843153" flag="0"/>
    </comp>
    <comp name="--.HHN">
      <acc value="0.0347982828" flag="0"/>
      <vel value="0.0137245098" flag="0"/>
      <psa03 value="0.0743435886" flag="0"/>
      <psa10 value="0.0116381775" flag="0"/>
      <psa30 value="0.0006305704" flag="0"/>
    </comp>
    <comp name="--.HHE">
      <acc value="0.0277731045" flag="0"/>
      <vel value="0.0109036346" flag="0"/>
      <psa03 value="0.0500730732" flag="0"/>
      <psa10 value="0.0088566714" flag="0"/>
      <psa30 value="0.0006930745" flag="0"/>
    </comp>
  </station>
  <station code="NEO" name="NEO" netid="HL" insttype="120" lat="39.3057" lon="23.2219">
    <comp name="--.HHZ">
      <acc value="0.0119885279" flag="0"/>
      <vel value="0.0055301380" flag="0"/>
      <psa03 value="0.0275782032" flag="0"/>
      <psa10 value="0.0044856095" flag="0"/>
      <psa30 value="0.0002740864" flag="0"/>
    </comp>
    <comp name="--.HHN">
      <acc value="0.0079772249" flag="0"/>
      <vel value="0.0048830991" flag="0"/>
      <psa03 value="0.0212203857" flag="0"/>
      <psa10 value="0.0078773556" flag="0"/>
      <psa30 value="0.0005404808" flag="0"/>
    </comp>
    <comp name="--.HHE">
      <acc value="0.0099200905" flag="0"/>
      <vel value="0.0054351520" flag="0"/>
      <psa03 value="0.0219094866" flag="0"/>
      <psa10 value="0.0047588241" flag="0"/>
      <psa30 value="0.0004163858" flag="0"/>
    </comp>
  </station>
  <station code="PLG" name="PLG" netid="HL" insttype="CMG3ESPC-120s" lat="40.3733" lon="23.4444">
    <comp name="--.HHZ">
      <acc value="0.0199751486" flag="0"/>
      <vel value="0.0112635588" flag="0"/>
      <psa03 value="0.0598725348" flag="0"/>
      <psa10 value="0.0067199391" flag="0"/>
      <psa30 value="0.0006288142" flag="0"/>
    </comp>
  </station>
  <station code="SMTH" name="SMTH" netid="HL" insttype="CMG3ESPC60_P6C" lat="40.4709" lon="25.5304">
    <comp name="--.HHN">
      <acc value="0.0137815551" flag="0"/>
      <vel value="0.0071005812" flag="0"/>
      <psa03 value="0.0512789426" flag="0"/>
      <psa10 value="0.0044486571" flag="0"/>
      <psa30 value="0.0003531732" flag="0"/>
    </comp>
    <comp name="--.HHE">
      <acc value="0.0125045858" flag="0"/>
      <vel value="0.0064360837" flag="0"/>
      <psa03 value="0.0277577638" flag="0"/>
      <psa10 value="0.0050519239" flag="0"/>
      <psa30 value="0.0002936368" flag="0"/>
    </comp>
    <comp name="--.HHZ">
      <acc value="0.0084088970" flag="0"/>
      <vel value="0.0029203295" flag="0"/>
      <psa03 value="0.0198311741" flag="0"/>
      <psa10 value="0.0050382866" flag="0"/>
      <psa30 value="0.0002378868" flag="0"/>
    </comp>
  </station>
  <station code="AOS2" name="AOS2" netid="HT" insttype="100" lat="39.1478" lon="23.8436">
    <comp name="--.HHN">
      <acc value="0.0112519322" flag="0"/>
      <vel value="0.0078143001" flag="0"/>
      <psa03 value="0.0484079723" flag="0"/>
      <psa10 value="0.0060239088" flag="0"/>
      <psa30 value="0.0004405579" flag="0"/>
    </comp>
    <comp name="--.HHZ">
      <acc value="0.0085703937" flag="0"/>
      <vel value="0.0055924778" flag="0"/>
      <psa03 value="0.0207634470" flag="0"/>
      <psa10 value="0.0038056178" flag="0"/>
      <psa30 value="0.0004125576" flag="0"/>
    </comp>
    <comp name="--.HHE">
      <acc value="0.0092351252" flag="0"/>
      <vel value="0.0059045728" flag="0"/>
      <psa03 value="0.0422418964" flag="0"/>
      <psa10 value="0.0052816691" flag="0"/>
      <psa30 value="0.0005157406" flag="0"/>
    </comp>
  </station>
  <station code="KAVA" name="KAVA" netid="HT" insttype="Compact," lat="40.9967" lon="24.5137">
    <comp name="--.HHE">
      <acc value="0.0298554652" flag="0"/>
      <vel value="0.0086904345" flag="0"/>
      <psa03 value="0.0294366895" flag="0"/>
      <psa10 value="0.0062002894" flag="0"/>
      <psa30 value="0.0008684247" flag="0"/>
    </comp>
    <comp name="--.HHZ">
      <acc value="0.0214022289" flag="0"/>
      <vel value="0.0054937101" flag="0"/>
      <psa03 value="0.0259040636" flag="0"/>
      <psa10 value="0.0051140760" flag="0"/>
      <psa30 value="0.0005948383" flag="0"/>
    </comp>
    <comp name="--.HHN">
      <acc value="0.0315228615" flag="0"/>
      <vel value="0.0092747148" flag="0"/>
      <psa03 value="0.0432641710" flag="0"/>
      <psa10 value="0.0051480786" flag="0"/>
      <psa30 value="0.0005208711" flag="0"/>
    </comp>
  </station>
  <station code="OUR" name="OUR" netid="HT" insttype="100" lat="40.3325" lon="23.9791">
    <comp name="--.HHN">
      <acc value="0.0762312322" flag="0"/>
      <vel value="0.0314264409" flag="0"/>
      <psa03 value="0.1565455421" flag="0"/>
      <psa10 value="0.0154519046" flag="0"/>
      <psa30 value="0.0016418721" flag="0"/>
    </comp>
    <comp name="--.HHE">
      <acc value="0.0605569111" flag="0"/>
      <vel value="0.0249584629" flag="0"/>
      <psa03 value="0.1219253697" flag="0"/>
      <psa10 value="0.0108603619" flag="0"/>
      <psa30 value="0.0013190802" flag="0"/>
    </comp>
    <comp name="--.HHZ">
      <acc value="0.0440412609" flag="0"/>
      <vel value="0.0118092511" flag="0"/>
      <psa03 value="0.0565531978" flag="0"/>
      <psa10 value="0.0053661585" flag="0"/>
      <psa30 value="0.0004861557" flag="0"/>
    </comp>
  </station>
  <station code="PAIG" name="PAIG" netid="HT" insttype="100" lat="39.9363" lon="23.6768">
    <comp name="--.HHN">
      <acc value="0.0159642464" flag="0"/>
      <vel value="0.0079666886" flag="0"/>
      <psa03 value="0.0603438618" flag="0"/>
      <psa10 value="0.0071502430" flag="0"/>
      <psa30 value="0.0005324549" flag="0"/>
    </comp>
    <comp name="--.HHE">
      <acc value="0.0191662035" flag="0"/>
      <vel value="0.0087421793" flag="0"/>
      <psa03 value="0.0694275537" flag="0"/>
      <psa10 value="0.0043034232" flag="0"/>
      <psa30 value="0.0004234390" flag="0"/>
    </comp>
    <comp name="--.HHZ">
      <acc value="0.0140761890" flag="0"/>
      <vel value="0.0080230053" flag="0"/>
      <psa03 value="0.0254981500" flag="0"/>
      <psa10 value="0.0041607306" flag="0"/>
      <psa30 value="0.0002920249" flag="0"/>
    </comp>
  </station>
  <station code="THAS" name="THAS" netid="HT" insttype="100" lat="40.6064" lon="24.7194">
    <comp name="--.HHN">
      <acc value="0.0470520572" flag="0"/>
      <vel value="0.0127304560" flag="0"/>
      <psa03 value="0.0423756071" flag="0"/>
      <psa10 value="0.0109669997" flag="0"/>
      <psa30 value="0.0005269480" flag="0"/>
    </comp>
    <comp name="--.HHE">
      <acc value="0.0456726747" flag="0"/>
      <vel value="0.0219889088" flag="0"/>
      <psa03 value="0.0668038636" flag="0"/>
      <psa10 value="0.0165918800" flag="0"/>
      <psa30 value="0.0010089862" flag="0"/>
    </comp>
    <comp name="--.HHZ">
      <acc value="0.0397516766" flag="0"/>
      <vel value="0.0130109385" flag="0"/>
      <psa03 value="0.0772530276" flag="0"/>
      <psa10 value="0.0078918133" flag="0"/>
      <psa30 value="0.0003829542" flag="0"/>
    </comp>
  </station>
  <station code="XOR" name="XOR" netid="HT" insttype="Compact," lat="39.366" lon="23.1918">
    <comp name="--.HHE">
      <acc value="0.0089151476" flag="0"/>
      <vel value="0.0059954509" flag="0"/>
      <psa03 value="0.0254316426" flag="0"/>
      <psa10 value="0.0042711654" flag="0"/>
      <psa30 value="0.0003565035" flag="0"/>
    </comp>
    <comp name="--.HHN">
      <acc value="0.0099300009" flag="0"/>
      <vel value="0.0072093684" flag="0"/>
      <psa03 value="0.0266950310" flag="0"/>
      <psa10 value="0.0062713928" flag="0"/>
      <psa30 value="0.0004654523" flag="0"/>
    </comp>
    <comp name="--.HHZ">
      <acc value="0.0070272337" flag="0"/>
      <vel value="0.0045437037" flag="0"/>
      <psa03 value="0.0237473851" flag="0"/>
      <psa10 value="0.0037501245" flag="0"/>
      <psa30 value="0.0004482714" flag="0"/>
    </comp>
  </station>
</stationlist>
