<?xml version="1.0" encoding="UTF-8" standalone="yes"?>
<!DOCTYPE earthquake SYSTEM "stationlist.dtd">
<stationlist created="" xmlns="ch.ethz.sed.shakemap.usgs.xml">
  <station code="APE" name="APE" netid="GE" insttype="STS-2/N" lat="37.0727" lon="25.523">
    <comp name="--.HHN">
      <acc value="0.1150965912" flag="0"/>
      <vel value="0.0159767789" flag="0"/>
      <psa03 value="0.0423839942" flag="0"/>
      <psa10 value="0.0055683110" flag="0"/>
      <psa30 value="0.0014271667" flag="0"/>
    </comp>
    <comp name="--.HHZ">
      <acc value="0.0426534380" flag="0"/>
      <vel value="0.0088642904" flag="0"/>
      <psa03 value="0.0255299327" flag="0"/>
      <psa10 value="0.0040131652" flag="0"/>
      <psa30 value="0.0016143498" flag="0"/>
    </comp>
    <comp name="--.HHE">
      <acc value="0.0962488005" flag="0"/>
      <vel value="0.0202530072" flag="0"/>
      <psa03 value="0.0714457057" flag="0"/>
      <psa10 value="0.0065638950" flag="0"/>
      <psa30 value="0.0009968792" flag="0"/>
    </comp>
  </station>
  <station code="THERA" name="THERA" netid="GE" insttype="STS-2/N" lat="36.367" lon="25.4753">
    <comp name="--.HHN">
      <acc value="0.0864167886" flag="0"/>
      <vel value="0.0240324808" flag="0"/>
      <psa03 value="0.1439892680" flag="0"/>
      <psa10 value="0.0131859874" flag="0"/>
      <psa30 value="0.0013092230" flag="0"/>
    </comp>
    <comp name="--.HHZ">
      <acc value="0.0985939669" flag="0"/>
      <vel value="0.0297409961" flag="0"/>
      <psa03 value="0.1554590452" flag="0"/>
      <psa10 value="0.0303283609" flag="0"/>
      <psa30 value="0.0018479545" flag="0"/>
    </comp>
    <comp name="--.HHE">
      <acc value="0.0981547274" flag="0"/>
      <vel value="0.0322987642" flag="0"/>
      <psa03 value="0.1754515734" flag="0"/>
      <psa10 value="0.0152923907" flag="0"/>
      <psa30 value="0.0026050919" flag="0"/>
    </comp>
  </station>
</stationlist>
