<?xml version="1.0" encoding="UTF-8" standalone="yes"?>
<!DOCTYPE earthquake SYSTEM "stationlist.dtd">
<stationlist created="" xmlns="ch.ethz.sed.shakemap.usgs.xml">
  <station code="APE" name="APE" netid="GE" insttype="STS-2/N" lat="37.0727" lon="25.523">
    <comp name="--.HHE">
      <acc value="0.0962487999" flag="0"/>
      <vel value="0.0202530054" flag="0"/>
      <psa03 value="0.0714457058" flag="0"/>
      <psa10 value="0.0065638992" flag="0"/>
      <psa30 value="0.0009957580" flag="0"/>
    </comp>
    <comp name="--.HHN">
      <acc value="0.1150965902" flag="0"/>
      <vel value="0.0159767910" flag="0"/>
      <psa03 value="0.0423839942" flag="0"/>
      <psa10 value="0.0055683068" flag="0"/>
      <psa30 value="0.0014261205" flag="0"/>
    </comp>
    <comp name="--.HHZ">
      <acc value="0.0426534378" flag="0"/>
      <vel value="0.0088642789" flag="0"/>
      <psa03 value="0.0255299327" flag="0"/>
      <psa10 value="0.0040131647" flag="0"/>
      <psa30 value="0.0016140427" flag="0"/>
    </comp>
  </station>
  <station code="THERA" name="THERA" netid="GE" insttype="STS-2/N" lat="36.367" lon="25.4753">
    <comp name="--.HHE">
      <acc value="0.0981547274" flag="0"/>
      <vel value="0.0322987659" flag="0"/>
      <psa03 value="0.1754515734" flag="0"/>
      <psa10 value="0.0152923882" flag="0"/>
      <psa30 value="0.0026050913" flag="0"/>
    </comp>
    <comp name="--.HHZ">
      <acc value="0.0985939668" flag="0"/>
      <vel value="0.0297409974" flag="0"/>
      <psa03 value="0.1554590452" flag="0"/>
      <psa10 value="0.0303283569" flag="0"/>
      <psa30 value="0.0018479339" flag="0"/>
    </comp>
    <comp name="--.HHN">
      <acc value="0.0864167891" flag="0"/>
      <vel value="0.0240324822" flag="0"/>
      <psa03 value="0.1439892680" flag="0"/>
      <psa10 value="0.0131859882" flag="0"/>
      <psa30 value="0.0013092164" flag="0"/>
    </comp>
  </station>
</stationlist>
