<?xml version="1.0" encoding="UTF-8" standalone="yes"?>
<!DOCTYPE earthquake SYSTEM "stationlist.dtd">
<stationlist created="" xmlns="ch.ethz.sed.shakemap.usgs.xml">
  <station code="APE" name="APE" netid="GE" insttype="STS-2/N" lat="37.0727" lon="25.523">
    <comp name="--.HHZ">
      <acc value="0.0426534378" flag="0"/>
      <vel value="0.0088642815" flag="0"/>
      <psa03 value="0.0255299327" flag="0"/>
      <psa10 value="0.0040131645" flag="0"/>
      <psa30 value="0.0016140399" flag="0"/>
    </comp>
    <comp name="--.HHN">
      <acc value="0.1150965900" flag="0"/>
      <vel value="0.0159767919" flag="0"/>
      <psa03 value="0.0423839942" flag="0"/>
      <psa10 value="0.0055683073" flag="0"/>
      <psa30 value="0.0014260233" flag="0"/>
    </comp>
    <comp name="--.HHE">
      <acc value="0.0962487999" flag="0"/>
      <vel value="0.0202530079" flag="0"/>
      <psa03 value="0.0714457058" flag="0"/>
      <psa10 value="0.0065638997" flag="0"/>
      <psa30 value="0.0009956200" flag="0"/>
    </comp>
  </station>
  <station code="THERA" name="THERA" netid="GE" insttype="STS-2/N" lat="36.367" lon="25.4753">
    <comp name="--.HHZ">
      <acc value="0.0985939669" flag="0"/>
      <vel value="0.0297409983" flag="0"/>
      <psa03 value="0.1554590452" flag="0"/>
      <psa10 value="0.0303283584" flag="0"/>
      <psa30 value="0.0018480247" flag="0"/>
    </comp>
    <comp name="--.HHN">
      <acc value="0.0864167889" flag="0"/>
      <vel value="0.0240324810" flag="0"/>
      <psa03 value="0.1439892680" flag="0"/>
      <psa10 value="0.0131859876" flag="0"/>
      <psa30 value="0.0013092185" flag="0"/>
    </comp>
    <comp name="--.HHE">
      <acc value="0.0981547274" flag="0"/>
      <vel value="0.0322987663" flag="0"/>
      <psa03 value="0.1754515734" flag="0"/>
      <psa10 value="0.0152923913" flag="0"/>
      <psa30 value="0.0026051146" flag="0"/>
    </comp>
  </station>
  <station code="SERI" name="SERI" netid="HA" insttype="30" lat="37.1609" lon="24.4853">
    <comp name="--.HHE">
      <acc value="0.0262458513" flag="0"/>
      <vel value="0.0094785481" flag="0"/>
      <psa03 value="0.0518373524" flag="0"/>
      <psa10 value="0.0045759429" flag="0"/>
      <psa30 value="0.0005673062" flag="0"/>
    </comp>
    <comp name="--.HHN">
      <acc value="0.0295524087" flag="0"/>
      <vel value="0.0139763101" flag="0"/>
      <psa03 value="0.0433961499" flag="0"/>
      <psa10 value="0.0115359566" flag="0"/>
      <psa30 value="0.0007037303" flag="0"/>
    </comp>
    <comp name="--.HHZ">
      <acc value="0.0215627045" flag="0"/>
      <vel value="0.0099841336" flag="0"/>
      <psa03 value="0.0314020859" flag="0"/>
      <psa10 value="0.0063498325" flag="0"/>
      <psa30 value="0.0009149398" flag="0"/>
    </comp>
  </station>
  <station code="SNT1" name="SNT1" netid="HA" insttype="30" lat="36.4159" lon="25.4282">
    <comp name="--.HHZ">
      <acc value="0.0919533739" flag="0"/>
      <vel value="0.0323332261" flag="0"/>
      <psa03 value="0.2109349222" flag="0"/>
      <psa10 value="0.0300177805" flag="0"/>
      <psa30 value="0.0026926278" flag="0"/>
    </comp>
    <comp name="--.HHN">
      <acc value="0.1213591676" flag="0"/>
      <vel value="0.0761813851" flag="0"/>
      <psa03 value="0.2239357651" flag="0"/>
      <psa10 value="0.0612919661" flag="0"/>
      <psa30 value="0.0063680169" flag="0"/>
    </comp>
    <comp name="--.HHE">
      <acc value="0.0921475198" flag="0"/>
      <vel value="0.0628536250" flag="0"/>
      <psa03 value="0.2836494289" flag="0"/>
      <psa10 value="0.0451154121" flag="0"/>
      <psa30 value="0.0052217466" flag="0"/>
    </comp>
  </station>
  <station code="NAX1" name="NAX1" netid="HI" insttype="CMG-5TD,ACCELEROMETER,GURALP" lat="37.1014" lon="25.3741">
    <comp name="--.HNE">
      <acc value="0.0658818429" flag="0"/>
      <vel value="0.0204316697" flag="0"/>
      <psa03 value="0.1161930362" flag="0"/>
      <psa10 value="0.0069450549" flag="0"/>
      <psa30 value="0.0007868624" flag="0"/>
    </comp>
    <comp name="--.HNZ">
      <acc value="0.0389412088" flag="0"/>
      <vel value="0.0120413932" flag="0"/>
      <psa03 value="0.0416446846" flag="0"/>
      <psa10 value="0.0085716674" flag="0"/>
      <psa30 value="0.0010579656" flag="0"/>
    </comp>
    <comp name="--.HNN">
      <acc value="0.0761114581" flag="0"/>
      <vel value="0.0174487511" flag="0"/>
      <psa03 value="0.0482109412" flag="0"/>
      <psa10 value="0.0058814581" flag="0"/>
      <psa30 value="0.0013335254" flag="0"/>
    </comp>
  </station>
  <station code="AMGA" name="AMGA" netid="HL" insttype="CMG-5TD" lat="36.8316" lon="25.8938">
    <comp name="00.HNE">
      <acc value="0.1886628984" flag="0"/>
      <vel value="0.0284724293" flag="0"/>
      <psa03 value="0.0778459559" flag="0"/>
      <psa10 value="0.0101867712" flag="0"/>
      <psa30 value="0.0023037180" flag="0"/>
    </comp>
    <comp name="00.HNN">
      <acc value="0.2510820582" flag="0"/>
      <vel value="0.0396419254" flag="0"/>
      <psa03 value="0.0790013350" flag="0"/>
      <psa10 value="0.0163035519" flag="0"/>
      <psa30 value="0.0025598351" flag="0"/>
    </comp>
    <comp name="00.HNZ">
      <acc value="0.1480589619" flag="0"/>
      <vel value="0.0218404919" flag="0"/>
      <psa03 value="0.0611795666" flag="0"/>
      <psa10 value="0.0079871396" flag="0"/>
      <psa30 value="0.0021644927" flag="0"/>
    </comp>
  </station>
  <station code="APE" name="APE" netid="HL" insttype="120" lat="37.0727" lon="25.523">
    <comp name="--.HHN">
      <acc value="0.0997388735" flag="0"/>
      <vel value="0.0150952820" flag="0"/>
      <psa03 value="0.0409544755" flag="0"/>
      <psa10 value="0.0054897897" flag="0"/>
      <psa30 value="0.0014235475" flag="0"/>
    </comp>
    <comp name="--.HHE">
      <acc value="0.0918375793" flag="0"/>
      <vel value="0.0197880687" flag="0"/>
      <psa03 value="0.0691189653" flag="0"/>
      <psa10 value="0.0063850913" flag="0"/>
      <psa30 value="0.0009931464" flag="0"/>
    </comp>
    <comp name="--.HHZ">
      <acc value="0.0402824153" flag="0"/>
      <vel value="0.0083740742" flag="0"/>
      <psa03 value="0.0248460492" flag="0"/>
      <psa10 value="0.0039750216" flag="0"/>
      <psa30 value="0.0016111236" flag="0"/>
    </comp>
  </station>
  <station code="SAP3" name="SAP3" netid="HL" insttype="LE3D20_SMART24" lat="36.4356" lon="25.3454">
    <comp name="--.HHE">
      <acc value="1.4533688882" flag="0"/>
      <vel value="0.4375517091" flag="0"/>
      <psa03 value="1.4606483468" flag="0"/>
      <psa10 value="0.1209159239" flag="0"/>
      <psa30 value="0.0141112443" flag="0"/>
    </comp>
    <comp name="--.HHN">
      <acc value="1.2467219838" flag="0"/>
      <vel value="0.3760160390" flag="0"/>
      <psa03 value="2.2394276163" flag="0"/>
      <psa10 value="0.1011018183" flag="0"/>
      <psa30 value="0.0105701423" flag="0"/>
    </comp>
    <comp name="--.HHZ">
      <acc value="0.9134909868" flag="0"/>
      <vel value="0.2507230146" flag="0"/>
      <psa03 value="1.3892341209" flag="0"/>
      <psa10 value="0.0523922432" flag="0"/>
      <psa30 value="0.0055554853" flag="0"/>
    </comp>
  </station>
  <station code="THERA" name="THERA" netid="HL" insttype="120" lat="36.367" lon="25.4753">
    <comp name="--.HHE">
      <acc value="0.0988558841" flag="0"/>
      <vel value="0.0318333839" flag="0"/>
      <psa03 value="0.1702919198" flag="0"/>
      <psa10 value="0.0151446317" flag="0"/>
      <psa30 value="0.0026037261" flag="0"/>
    </comp>
    <comp name="--.HHN">
      <acc value="0.0846153769" flag="0"/>
      <vel value="0.0234636834" flag="0"/>
      <psa03 value="0.1399134597" flag="0"/>
      <psa10 value="0.0130665014" flag="0"/>
      <psa30 value="0.0013092913" flag="0"/>
    </comp>
    <comp name="--.HHZ">
      <acc value="0.0965520658" flag="0"/>
      <vel value="0.0291421024" flag="0"/>
      <psa03 value="0.1513628009" flag="0"/>
      <psa10 value="0.0300204074" flag="0"/>
      <psa30 value="0.0018445390" flag="0"/>
    </comp>
  </station>
  <station code="THRA" name="THRA" netid="HL" insttype="CMG-5" lat="36.415" lon="25.4324">
    <comp name="00.HNZ">
      <acc value="0.2672446875" flag="0"/>
      <vel value="0.0994545664" flag="0"/>
      <psa03 value="0.5356266004" flag="0"/>
      <psa10 value="0.0553221862" flag="0"/>
      <psa30 value="0.0048896508" flag="0"/>
    </comp>
    <comp name="00.HNE">
      <acc value="0.4118688224" flag="0"/>
      <vel value="0.1753759470" flag="0"/>
      <psa03 value="0.9006457113" flag="0"/>
      <psa10 value="0.1116835903" flag="0"/>
      <psa30 value="0.0120750262" flag="0"/>
    </comp>
    <comp name="00.HNN">
      <acc value="0.3554711044" flag="0"/>
      <vel value="0.1572701526" flag="0"/>
      <psa03 value="0.9991267258" flag="0"/>
      <psa10 value="0.2150814208" flag="0"/>
      <psa30 value="0.0099736138" flag="0"/>
    </comp>
  </station>
  <station code="CMBO" name="CMBO" netid="HT" insttype="120P," lat="36.4709" lon="25.4056">
    <comp name="--.HHE">
      <acc value="0.7291975349" flag="0"/>
      <vel value="0.3043242172" flag="0"/>
      <psa03 value="1.0554249617" flag="0"/>
      <psa10 value="0.1355281134" flag="0"/>
      <psa30 value="0.0122808906" flag="0"/>
    </comp>
    <comp name="--.HHN">
      <acc value="1.2023136735" flag="0"/>
      <vel value="0.4033061559" flag="0"/>
      <psa03 value="1.2997672743" flag="0"/>
      <psa10 value="0.2563191379" flag="0"/>
      <psa30 value="0.0183233815" flag="0"/>
    </comp>
    <comp name="--.HHZ">
      <acc value="0.7454500421" flag="0"/>
      <vel value="0.2235978820" flag="0"/>
      <psa03 value="2.4242091838" flag="0"/>
      <psa10 value="0.0591985184" flag="0"/>
      <psa30 value="0.0113490207" flag="0"/>
    </comp>
  </station>
</stationlist>
