<stationlist created="1741951763">
	<station code="ABEA" name="ABEA" netid="HC" source="Seismological Network of Crete (HC)" insttype="" lat="35.5163" lon="24.0113">
		<comp name=".HNE" depth="0.0">
			<acc value="0.0037911810670884" flag="0"/>
			<vel value="0.00168267629659" flag="0"/>
			<psa03 value="0.00183886335213149" flag="0"/>
			<psa10 value="0.00107969957167117" flag="0"/>
			<psa30 value="0.00092287655271009" flag="0"/>
		</comp>
		<comp name=".HNN" depth="0.0">
			<acc value="0.0035450123499168" flag="0"/>
			<vel value="0.00173874711714" flag="0"/>
			<psa03 value="0.00181910618394128" flag="0"/>
			<psa10 value="0.00118169589874125" flag="0"/>
			<psa30 value="0.000968370920653306" flag="0"/>
		</comp>
		<comp name=".HNZ" depth="0.0">
			<acc value="0.00575343699102" flag="0"/>
			<vel value="0.00165114660476" flag="0"/>
			<psa03 value="0.00166674290051773" flag="0"/>
			<psa10 value="0.00153152504977021" flag="0"/>
			<psa30 value="0.00101035318094117" flag="0"/>
		</comp>
	</station>
	<station code="ATEI" name="ATEI" netid="HC" source="Seismological Network of Crete (HC)" insttype="" lat="35.5193" lon="24.0432">
		<comp name=".HNE" depth="0.0">
			<acc value="0.0073097236601142" flag="0"/>
			<vel value="0.0040098639073" flag="0"/>
			<psa03 value="0.024293895809697" flag="0"/>
			<psa10 value="0.00484845478008576" flag="0"/>
			<psa30 value="0.000952536538372268" flag="0"/>
		</comp>
		<comp name=".HNN" depth="0.0">
			<acc value="0.0098865335757444" flag="0"/>
			<vel value="0.00601792536301" flag="0"/>
			<psa03 value="0.0409002849639731" flag="0"/>
			<psa10 value="0.00545839377930306" flag="0"/>
			<psa30 value="0.000769901835552489" flag="0"/>
		</comp>
		<comp name=".HNZ" depth="0.0">
			<acc value="0.0056795689961742" flag="0"/>
			<vel value="0.00357936434395" flag="0"/>
			<psa03 value="0.014101379459688" flag="0"/>
			<psa10 value="0.00309573492099646" flag="0"/>
			<psa30 value="0.000784427276959311" flag="0"/>
		</comp>
	</station>
	<station code="G0LD" name="G0LD" netid="HC" source="Seismological Network of Crete (HC)" insttype="" lat="35.4955" lon="24.0306">
		<comp name=".HNE" depth="0.0">
			<acc value="0.0059917750760754" flag="0"/>
			<vel value="0.00235622454299" flag="0"/>
			<psa03 value="0.00215571214128808" flag="0"/>
			<psa10 value="0.00305441491812185" flag="0"/>
			<psa30 value="0.00169061855768211" flag="0"/>
		</comp>
		<comp name=".HNN" depth="0.0">
			<acc value="0.009809373615528" flag="0"/>
			<vel value="0.00220573386223" flag="0"/>
			<psa03 value="0.00177115671845981" flag="0"/>
			<psa10 value="0.0019156215098971" flag="0"/>
			<psa30 value="0.000996440905154206" flag="0"/>
		</comp>
		<comp name=".HNZ" depth="0.0">
			<acc value="0.011460606165246" flag="0"/>
			<vel value="0.00454850689934" flag="0"/>
			<psa03 value="0.00247914193280781" flag="0"/>
			<psa10 value="0.00175735903359681" flag="0"/>
			<psa30 value="0.00242181585008303" flag="0"/>
		</comp>
	</station>
	<station code="PASK" name="PASK" netid="HC" source="Seismological Network of Crete (HC)" insttype="" lat="35.4996" lon="24.0121">
		<comp name=".HNE" depth="0.0">
			<acc value="0.016880486072082" flag="0"/>
			<vel value="0.00785578898652" flag="0"/>
			<psa03 value="0.0232394691882757" flag="0"/>
			<psa10 value="0.00929103517298665" flag="0"/>
			<psa30 value="0.00156039941046974" flag="0"/>
		</comp>
		<comp name=".HNN" depth="0.0">
			<acc value="0.017382633165522" flag="0"/>
			<vel value="0.00652339942209" flag="0"/>
			<psa03 value="0.0295708235052665" flag="0"/>
			<psa10 value="0.00733470260682056" flag="0"/>
			<psa30 value="0.000969260979615622" flag="0"/>
		</comp>
		<comp name=".HNZ" depth="0.0">
			<acc value="0.0095516683759956" flag="0"/>
			<vel value="0.00524946733149" flag="0"/>
			<psa03 value="0.0197908475048644" flag="0"/>
			<psa10 value="0.00467934764004836" flag="0"/>
			<psa30 value="0.000873311498433376" flag="0"/>
		</comp>
	</station>
	<station code="POLY" name="POLY" netid="HC" source="Seismological Network of Crete (HC)" insttype="" lat="35.5226" lon="24.0602">
		<comp name=".HNE" depth="0.0">
			<acc value="0.0019794349397898" flag="0"/>
			<vel value="0.00245460277453" flag="0"/>
			<psa03 value="0.00120193948587542" flag="0"/>
			<psa10 value="0.000932047075574462" flag="0"/>
			<psa30 value="0.000964438368473433" flag="0"/>
		</comp>
		<comp name=".HNN" depth="0.0">
			<acc value="0.0053081735029308" flag="0"/>
			<vel value="0.00217448978185" flag="0"/>
			<psa03 value="0.00125224262289881" flag="0"/>
			<psa10 value="0.00150174749121398" flag="0"/>
			<psa30 value="0.000872769847969109" flag="0"/>
		</comp>
		<comp name=".HNZ" depth="0.0">
			<acc value="0.0056939044441392" flag="0"/>
			<vel value="0.00172088301408" flag="0"/>
			<psa03 value="0.00143894721121133" flag="0"/>
			<psa10 value="0.00106274880033136" flag="0"/>
			<psa30 value="0.000970815665941133" flag="0"/>
		</comp>
	</station>
	<station code="ARK1" name="ARK1" netid="HI" source="ITSAK Strong Motion Network" insttype="" lat="35.148777" lon="25.264194">
		<comp name=".HNE" depth="0.0">
			<acc value="0.015329083512654" flag="0"/>
			<vel value="0.0108762170505" flag="0"/>
			<psa03 value="0.0431518638075179" flag="0"/>
			<psa10 value="0.0130506011007699" flag="0"/>
			<psa30 value="0.00150311415726798" flag="0"/>
		</comp>
		<comp name=".HNN" depth="0.0">
			<acc value="0.01338870641571" flag="0"/>
			<vel value="0.00982411166346" flag="0"/>
			<psa03 value="0.0524712936739369" flag="0"/>
			<psa10 value="0.0137582111014699" flag="0"/>
			<psa30 value="0.00100762435433669" flag="0"/>
		</comp>
		<comp name=".HNZ" depth="0.0">
			<acc value="0.01121035220556" flag="0"/>
			<vel value="0.00594130778082" flag="0"/>
			<psa03 value="0.0224008928033656" flag="0"/>
			<psa10 value="0.00922307692106427" flag="0"/>
			<psa30 value="0.000738666693459417" flag="0"/>
		</comp>
	</station>
	<station code="CH01" name="CH01" netid="HI" source="ITSAK Strong Motion Network" insttype="" lat="35.517" lon="24.0208">
		<comp name=".HNE" depth="0.0">
			<acc value="0.009501119333826" flag="0"/>
			<vel value="0.00400701248923" flag="0"/>
			<psa03 value="0.0211362504332563" flag="0"/>
			<psa10 value="0.00639699611333918" flag="0"/>
			<psa30 value="0.00117044889065922" flag="0"/>
		</comp>
		<comp name=".HNN" depth="0.0">
			<acc value="0.0060965849844684" flag="0"/>
			<vel value="0.00445759799629" flag="0"/>
			<psa03 value="0.0212675195458716" flag="0"/>
			<psa10 value="0.00476909249146836" flag="0"/>
			<psa30 value="0.000694735814503978" flag="0"/>
		</comp>
		<comp name=".HNZ" depth="0.0">
			<acc value="0.016886363285766" flag="0"/>
			<vel value="0.00218721677548" flag="0"/>
			<psa03 value="0.00733660450364022" flag="0"/>
			<psa10 value="0.00381632851615888" flag="0"/>
			<psa30 value="0.000392144962054208" flag="0"/>
		</comp>
	</station>
	<station code="CH02" name="CH02" netid="HI" source="ITSAK Strong Motion Network" insttype="" lat="35.5145" lon="24.0315">
		<comp name=".HNE" depth="0.0">
			<acc value="0.0074725403138814" flag="0"/>
			<vel value="0.00350281211045" flag="0"/>
			<psa03 value="0.0186012387512161" flag="0"/>
			<psa10 value="0.0052798097614934" flag="0"/>
			<psa30 value="0.00096379624260576" flag="0"/>
		</comp>
		<comp name=".HNN" depth="0.0">
			<acc value="0.0089611967212014" flag="0"/>
			<vel value="0.00504890576342" flag="0"/>
			<psa03 value="0.0266308709353553" flag="0"/>
			<psa10 value="0.0050370360226493" flag="0"/>
			<psa30 value="0.000651355649114983" flag="0"/>
		</comp>
		<comp name=".HNZ" depth="0.0">
			<acc value="0.0037346492138886" flag="0"/>
			<vel value="0.00222337387815" flag="0"/>
			<psa03 value="0.0100942500747557" flag="0"/>
			<psa10 value="0.00355593634458279" flag="0"/>
			<psa30 value="0.000331444795132792" flag="0"/>
		</comp>
	</station>
	<station code="CH03" name="CH03" netid="HI" source="ITSAK Strong Motion Network" insttype="" lat="35.53303" lon="24.0705">
		<comp name=".HNE" depth="0.0">
			<acc value="0.0050851063472532" flag="0"/>
			<vel value="0.0040560685058" flag="0"/>
			<psa03 value="0.0139595289169512" flag="0"/>
			<psa10 value="0.0034313573105825" flag="0"/>
			<psa30 value="0.000465968888986724" flag="0"/>
		</comp>
		<comp name=".HNN" depth="0.0">
			<acc value="0.0064501846517682" flag="0"/>
			<vel value="0.00473822261777" flag="0"/>
			<psa03 value="0.0226112869492985" flag="0"/>
			<psa10 value="0.00432983058002852" flag="0"/>
			<psa30 value="0.000631728567669048" flag="0"/>
		</comp>
		<comp name=".HNZ" depth="0.0">
			<acc value="0.003351278093313" flag="0"/>
			<vel value="0.00198565303538" flag="0"/>
			<psa03 value="0.00915461491186805" flag="0"/>
			<psa10 value="0.00180363088794362" flag="0"/>
			<psa30 value="0.000250405937122916" flag="0"/>
		</comp>
	</station>
	<station code="GOR1" name="GOR1" netid="HI" source="ITSAK Strong Motion Network" insttype="" lat="35.0582" lon="24.9628">
		<comp name=".HNE" depth="0.0">
			<acc value="0.0069942954641466" flag="0"/>
			<vel value="0.00539202886684" flag="0"/>
			<psa03 value="0.014910132254346" flag="0"/>
			<psa10 value="0.00520947619599108" flag="0"/>
			<psa30 value="0.000647605817373237" flag="0"/>
		</comp>
		<comp name=".HNN" depth="0.0">
			<acc value="0.005577578723751" flag="0"/>
			<vel value="0.00425035802125" flag="0"/>
			<psa03 value="0.0148211419841511" flag="0"/>
			<psa10 value="0.00707304121051881" flag="0"/>
			<psa30 value="0.000892629965685952" flag="0"/>
		</comp>
		<comp name=".HNZ" depth="0.0">
			<acc value="0.0053820156301482" flag="0"/>
			<vel value="0.00414448024153" flag="0"/>
			<psa03 value="0.00997747215647518" flag="0"/>
			<psa10 value="0.00597770896261695" flag="0"/>
			<psa30 value="0.000502899304192906" flag="0"/>
		</comp>
	</station>
	<station code="HER1" name="HER1" netid="HI" source="ITSAK Strong Motion Network" insttype="" lat="35.317672" lon="25.10217">
		<comp name=".HNE" depth="0.0">
			<acc value="0.018402339917562" flag="0"/>
			<vel value="0.0162769728817" flag="0"/>
			<psa03 value="0.0515412060186184" flag="0"/>
			<psa10 value="0.0375817083537227" flag="0"/>
			<psa30 value="0.00175395639933505" flag="0"/>
		</comp>
		<comp name=".HNN" depth="0.0">
			<acc value="0.015913256228838" flag="0"/>
			<vel value="0.0143856708388" flag="0"/>
			<psa03 value="0.0549129085441955" flag="0"/>
			<psa10 value="0.0276516580366423" flag="0"/>
			<psa30 value="0.00118934972608373" flag="0"/>
		</comp>
		<comp name=".HNZ" depth="0.0">
			<acc value="0.017448264815928" flag="0"/>
			<vel value="0.0113772410248" flag="0"/>
			<psa03 value="0.0343936299717063" flag="0"/>
			<psa10 value="0.0212024308069683" flag="0"/>
			<psa30 value="0.000830906658071004" flag="0"/>
		</comp>
	</station>
	<station code="HER3" name="HER3" netid="HI" source="ITSAK Strong Motion Network" insttype="" lat="35.3296" lon="25.1065">
		<comp name=".HNE" depth="0.0">
			<acc value="0.034914221551236" flag="0"/>
			<vel value="0.0154489614561" flag="0"/>
			<psa03 value="0.105722816117635" flag="0"/>
			<psa10 value="0.0451912286969485" flag="0"/>
			<psa30 value="0.00164718422203556" flag="0"/>
		</comp>
		<comp name=".HNN" depth="0.0">
			<acc value="0.039049596525954" flag="0"/>
			<vel value="0.0246652776994" flag="0"/>
			<psa03 value="0.115321972847991" flag="0"/>
			<psa10 value="0.0325158952684882" flag="0"/>
			<psa30 value="0.00122087108505239" flag="0"/>
		</comp>
		<comp name=".HNZ" depth="0.0">
			<acc value="0.028570053813804" flag="0"/>
			<vel value="0.0129213026111" flag="0"/>
			<psa03 value="0.0710297887080291" flag="0"/>
			<psa10 value="0.0215397000244326" flag="0"/>
			<psa30 value="0.000653933267785677" flag="0"/>
		</comp>
	</station>
	<station code="KIS1" name="KIS1" netid="HI" source="ITSAK Strong Motion Network" insttype="" lat="35.493933" lon="23.658993">
		<comp name=".HNE" depth="0.0">
			<acc value="0.0078357436670574" flag="0"/>
			<vel value="0.00358294731714" flag="0"/>
			<psa03 value="0.0104925804986435" flag="0"/>
			<psa10 value="0.00523810746764855" flag="0"/>
			<psa30 value="0.000509826013054343" flag="0"/>
		</comp>
		<comp name=".HNN" depth="0.0">
			<acc value="0.0052028930639376" flag="0"/>
			<vel value="0.00245173752672" flag="0"/>
			<psa03 value="0.0085816811244686" flag="0"/>
			<psa10 value="0.00462043639375232" flag="0"/>
			<psa30 value="0.000663405874466902" flag="0"/>
		</comp>
		<comp name=".HNZ" depth="0.0">
			<acc value="0.010409575678326" flag="0"/>
			<vel value="0.00214491555485" flag="0"/>
			<psa03 value="0.00688101507828425" flag="0"/>
			<psa10 value="0.00246894019579612" flag="0"/>
			<psa30 value="0.000505534739194889" flag="0"/>
		</comp>
	</station>
	<station code="KRL1" name="KRL1" netid="HI" source="ITSAK Strong Motion Network" insttype="" lat="37.7951" lon="26.7065">
		<comp name=".HNE" depth="0.0">
			<acc value="0.0088639665964878" flag="0"/>
			<vel value="0.00340567166174" flag="0"/>
			<psa03 value="0.015043059028849" flag="0"/>
			<psa10 value="0.00262362013008401" flag="0"/>
			<psa30 value="0.00057444289777417" flag="0"/>
		</comp>
		<comp name=".HNN" depth="0.0">
			<acc value="0.006904635470577" flag="0"/>
			<vel value="0.00278936693154" flag="0"/>
			<psa03 value="0.00988229918508511" flag="0"/>
			<psa10 value="0.00463157744425786" flag="0"/>
			<psa30 value="0.000610297668808006" flag="0"/>
		</comp>
		<comp name=".HNZ" depth="0.0">
			<acc value="0.0041796047988822" flag="0"/>
			<vel value="0.00175851217698" flag="0"/>
			<psa03 value="0.00608397009043248" flag="0"/>
			<psa10 value="0.00234289715856307" flag="0"/>
			<psa30 value="0.000366318693899218" flag="0"/>
		</comp>
	</station>
	<station code="KTL1" name="KTL1" netid="HI" source="ITSAK Strong Motion Network" insttype="" lat="35.20778" lon="25.34272">
		<comp name=".HNE" depth="0.0">
			<acc value="0.01283357318031" flag="0"/>
			<vel value="0.00837187949325" flag="0"/>
			<psa03 value="0.0280834827887588" flag="0"/>
			<psa10 value="0.00750645273438469" flag="0"/>
			<psa30 value="0.000848306456556678" flag="0"/>
		</comp>
		<comp name=".HNN" depth="0.0">
			<acc value="0.014221806022518" flag="0"/>
			<vel value="0.00832406290903" flag="0"/>
			<psa03 value="0.0477897335434669" flag="0"/>
			<psa10 value="0.0115759209104666" flag="0"/>
			<psa30 value="0.000596990745622564" flag="0"/>
		</comp>
		<comp name=".HNZ" depth="0.0">
			<acc value="0.026392317172956" flag="0"/>
			<vel value="0.0039013973065" flag="0"/>
			<psa03 value="0.0118966917432949" flag="0"/>
			<psa10 value="0.00422205875316332" flag="0"/>
			<psa30 value="0.000356307640090801" flag="0"/>
		</comp>
	</station>
	<station code="NAX1" name="NAX1" netid="HI" source="ITSAK Strong Motion Network" insttype="" lat="37.101394" lon="25.374103">
		<comp name=".HNE" depth="0.0">
			<acc value="0.061908642024456" flag="0"/>
			<vel value="0.0206759894809" flag="0"/>
			<psa03 value="0.119558263898312" flag="0"/>
			<psa10 value="0.00699372251855989" flag="0"/>
			<psa30 value="0.000913368318668786" flag="0"/>
		</comp>
		<comp name=".HNN" depth="0.0">
			<acc value="0.075937117273596" flag="0"/>
			<vel value="0.0176418862245" flag="0"/>
			<psa03 value="0.0486603901785302" flag="0"/>
			<psa10 value="0.00595310827043713" flag="0"/>
			<psa30 value="0.00147562525293179" flag="0"/>
		</comp>
		<comp name=".HNZ" depth="0.0">
			<acc value="0.037425650383836" flag="0"/>
			<vel value="0.0119918481411" flag="0"/>
			<psa03 value="0.0423204050816502" flag="0"/>
			<psa10 value="0.00859693919253372" flag="0"/>
			<psa30 value="0.00124102419093037" flag="0"/>
		</comp>
	</station>
	<station code="SFR2" name="SFR2" netid="HI" source="ITSAK Strong Motion Network" insttype="" lat="36.399841" lon="25.438209">
		<comp name=".HNE" depth="0.0">
			<acc value="0.37429491150792" flag="0"/>
			<vel value="0.14433831023" flag="0"/>
			<psa03 value="0.984308622282155" flag="0"/>
			<psa10 value="0.0787062539030876" flag="0"/>
			<psa30 value="0.00774693402967852" flag="0"/>
		</comp>
		<comp name=".HNN" depth="0.0">
			<acc value="0.40436573675436" flag="0"/>
			<vel value="0.191561569589" flag="0"/>
			<psa03 value="1.04468262176292" flag="0"/>
			<psa10 value="0.107050946599709" flag="0"/>
			<psa30 value="0.00684978293115395" flag="0"/>
		</comp>
		<comp name=".HNZ" depth="0.0">
			<acc value="0.26964665636244" flag="0"/>
			<vel value="0.106617369458" flag="0"/>
			<psa03 value="0.526661180386721" flag="0"/>
			<psa10 value="0.0553563295853517" flag="0"/>
			<psa30 value="0.00439762590446724" flag="0"/>
		</comp>
	</station>
	<station code="AMGA" name="AMGA" netid="HL" source="National Observatory of Athens Seismic Network" insttype="" lat="36.831561" lon="25.893836">
		<comp name="00.HNE" depth="0.0">
			<acc value="0.18967570726194" flag="0"/>
			<vel value="0.0291530697209" flag="0"/>
			<psa03 value="0.0777364204898953" flag="0"/>
			<psa10 value="0.0103785969061083" flag="0"/>
			<psa30 value="0.00274152973788971" flag="0"/>
		</comp>
		<comp name="00.HNN" depth="0.0">
			<acc value="0.24657713518188" flag="0"/>
			<vel value="0.0400158110813" flag="0"/>
			<psa03 value="0.0791990382144617" flag="0"/>
			<psa10 value="0.0162698396720369" flag="0"/>
			<psa30 value="0.0028984407574742" flag="0"/>
		</comp>
		<comp name="00.HNZ" depth="0.0">
			<acc value="0.1440473905227" flag="0"/>
			<vel value="0.0217009505688" flag="0"/>
			<psa03 value="0.0618307366078139" flag="0"/>
			<psa10 value="0.0077699039367574" flag="0"/>
			<psa30 value="0.00244009518599845" flag="0"/>
		</comp>
	</station>
	<station code="ANAF" name="ANAF" netid="HL" source="National Observatory of Athens Seismic Network" insttype="" lat="36.35675" lon="25.77262">
		<comp name=".HNE" depth="0.0">
			<acc value="0.8474045464455" flag="0"/>
			<vel value="0.216150311552" flag="0"/>
			<psa03 value="1.31177106506294" flag="0"/>
			<psa10 value="0.0612793332052229" flag="0"/>
			<psa30 value="0.00623125654018037" flag="0"/>
		</comp>
		<comp name=".HNN" depth="0.0">
			<acc value="1.2026375680452" flag="0"/>
			<vel value="0.28205614863" flag="0"/>
			<psa03 value="1.40778159195261" flag="0"/>
			<psa10 value="0.0846546804569692" flag="0"/>
			<psa30 value="0.00879057483244889" flag="0"/>
		</comp>
		<comp name=".HNZ" depth="0.0">
			<acc value="0.50479537917834" flag="0"/>
			<vel value="0.124917227708" flag="0"/>
			<psa03 value="0.429394445274802" flag="0"/>
			<psa10 value="0.0453330368413886" flag="0"/>
			<psa30 value="0.00660312825817573" flag="0"/>
		</comp>
	</station>
	<station code="CHNB" name="CHNB" netid="HL" source="National Observatory of Athens Seismic Network" insttype="" lat="35.48765" lon="24.06605">
		<comp name="00.HNE" depth="0.0">
			<acc value="0.012673124093484" flag="0"/>
			<vel value="0.00968024429266" flag="0"/>
			<psa03 value="0.0280386751329723" flag="0"/>
			<psa10 value="0.0114067500162209" flag="0"/>
			<psa30 value="0.00063332070438927" flag="0"/>
		</comp>
		<comp name="00.HNN" depth="0.0">
			<acc value="0.015363309029622" flag="0"/>
			<vel value="0.0106066258978" flag="0"/>
			<psa03 value="0.0313729533042052" flag="0"/>
			<psa10 value="0.0148746506851268" flag="0"/>
			<psa30 value="0.000836253678952696" flag="0"/>
		</comp>
		<comp name="00.HNZ" depth="0.0">
			<acc value="0.010622420016318" flag="0"/>
			<vel value="0.0057998500577" flag="0"/>
			<psa03 value="0.0383791153447012" flag="0"/>
			<psa10 value="0.00338642253699952" flag="0"/>
			<psa30 value="0.000317675393393973" flag="0"/>
		</comp>
	</station>
	<station code="HERG" name="HERG" netid="HL" source="National Observatory of Athens Seismic Network" insttype="" lat="35.32622" lon="25.06586">
		<comp name="00.HNE" depth="0.0">
			<acc value="0.0218716990236" flag="0"/>
			<vel value="0.0159503473429" flag="0"/>
			<psa03 value="0.0486630518132082" flag="0"/>
			<psa10 value="0.0176517893444034" flag="0"/>
			<psa30 value="0.00220991202082467" flag="0"/>
		</comp>
		<comp name="00.HNN" depth="0.0">
