<?xml version="1.0" encoding="UTF-8" standalone="yes"?>
<!DOCTYPE earthquake SYSTEM "stationlist.dtd">
<stationlist created="" xmlns="ch.ethz.sed.shakemap.usgs.xml">
  <station code="MYT1" name="MYT1" netid="HI" insttype="CMG-5TD,ACCELEROMETER,GURALP" lat="39.085" lon="26.5694">
    <comp name="--.HNE">
      <acc value="0.0243470333" flag="0"/>
      <vel value="0.0156973241" flag="0"/>
      <psa03 value="0.0600768024" flag="0"/>
      <psa10 value="0.0354719049" flag="0"/>
      <psa30 value="0.0031178482" flag="0"/>
    </comp>
    <comp name="--.HNN">
      <acc value="0.0230619811" flag="0"/>
      <vel value="0.0143835932" flag="0"/>
      <psa03 value="0.0587402623" flag="0"/>
      <psa10 value="0.0234572708" flag="0"/>
      <psa30 value="0.0016184552" flag="0"/>
    </comp>
    <comp name="--.HNZ">
      <acc value="0.0122876336" flag="0"/>
      <vel value="0.0104869684" flag="0"/>
      <psa03 value="0.0446068521" flag="0"/>
      <psa10 value="0.0107600469" flag="0"/>
      <psa30 value="0.0014112858" flag="0"/>
    </comp>
  </station>
  <station code="AYDB" name="AYDB" netid="KO" insttype="CMG-3ESPC" lat="37.9467" lon="27.8908">
    <comp name="--.HHN">
      <acc value="0.0170775418" flag="0"/>
      <vel value="0.0163333383" flag="0"/>
      <psa03 value="0.0724044141" flag="0"/>
      <psa10 value="0.0209566347" flag="0"/>
      <psa30 value="0.0011363197" flag="0"/>
    </comp>
    <comp name="--.HHE">
      <acc value="0.0220223142" flag="0"/>
      <vel value="0.0156106612" flag="0"/>
      <psa03 value="0.0810173090" flag="0"/>
      <psa10 value="0.0144050175" flag="0"/>
      <psa30 value="0.0011792539" flag="0"/>
    </comp>
    <comp name="--.HHZ">
      <acc value="0.0136236107" flag="0"/>
      <vel value="0.0084284044" flag="0"/>
      <psa03 value="0.0366500803" flag="0"/>
      <psa10 value="0.0094920281" flag="0"/>
      <psa30 value="0.0009367007" flag="0"/>
    </comp>
  </station>
  <station code="BALB" name="BALB" netid="KO" insttype="CMG-5T" lat="39.6507" lon="27.8642">
    <comp name="--.HNZ">
      <acc value="0.0207276622" flag="0"/>
      <vel value="0.0123796555" flag="0"/>
      <psa03 value="0.0468788388" flag="0"/>
      <psa10 value="0.0164874181" flag="0"/>
      <psa30 value="0.0041963575" flag="0"/>
    </comp>
    <comp name="--.HNE">
      <acc value="0.0317976455" flag="0"/>
      <vel value="0.0169571214" flag="0"/>
      <psa03 value="0.0983205664" flag="0"/>
      <psa10 value="0.0235077269" flag="0"/>
      <psa30 value="0.0047935211" flag="0"/>
    </comp>
    <comp name="--.HNN">
      <acc value="0.0431728639" flag="0"/>
      <vel value="0.0235639074" flag="0"/>
      <psa03 value="0.1560499559" flag="0"/>
      <psa10 value="0.0180259644" flag="0"/>
      <psa30 value="0.0061062550" flag="0"/>
    </comp>
  </station>
  <station code="BLCB" name="BLCB" netid="KO" insttype="CMG-3T" lat="38.3853" lon="27.042">
    <comp name="--.HHE">
      <acc value="0.0417881206" flag="0"/>
      <vel value="0.0211488690" flag="0"/>
      <psa03 value="0.1443591107" flag="0"/>
      <psa10 value="0.0080780589" flag="0"/>
      <psa30 value="0.0010277725" flag="0"/>
    </comp>
    <comp name="--.HHN">
      <acc value="0.0000261159" flag="0"/>
      <vel value="0.0000083549" flag="0"/>
      <psa03 value="0.0000514684" flag="0"/>
      <psa10 value="0.0000064018" flag="0"/>
      <psa30 value="0.0000007632" flag="0"/>
    </comp>
    <comp name="--.HHZ">
      <acc value="0.0401394251" flag="0"/>
      <vel value="0.0143749868" flag="0"/>
      <psa03 value="0.0791232377" flag="0"/>
      <psa10 value="0.0077834316" flag="0"/>
      <psa30 value="0.0005865868" flag="0"/>
    </comp>
  </station>
  <station code="DKL" name="DKL" netid="KO" insttype="CMG-3ESPC" lat="39.0713" lon="26.9053">
    <comp name="--.HHE">
      <acc value="0.0140682768" flag="0"/>
      <vel value="0.0095738380" flag="0"/>
      <psa03 value="0.0621912827" flag="0"/>
      <psa10 value="0.0070234643" flag="0"/>
      <psa30 value="0.0019360283" flag="0"/>
    </comp>
    <comp name="--.HHN">
      <acc value="0.0211532397" flag="0"/>
      <vel value="0.0118770829" flag="0"/>
      <psa03 value="0.0611710908" flag="0"/>
      <psa10 value="0.0087016956" flag="0"/>
      <psa30 value="0.0018202205" flag="0"/>
    </comp>
    <comp name="--.HHZ">
      <acc value="0.0113936669" flag="0"/>
      <vel value="0.0061167883" flag="0"/>
      <psa03 value="0.0491844165" flag="0"/>
      <psa10 value="0.0046940426" flag="0"/>
      <psa30 value="0.0016797204" flag="0"/>
    </comp>
  </station>
  <station code="DST" name="DST" netid="KO" insttype="CMG-5T" lat="39.6041" lon="28.6267">
    <comp name="--.HNE">
      <acc value="0.0461418098" flag="0"/>
      <vel value="0.0210485813" flag="0"/>
      <psa03 value="0.0968733240" flag="0"/>
      <psa10 value="0.0126752563" flag="0"/>
      <psa30 value="0.0022710434" flag="0"/>
    </comp>
    <comp name="--.HNN">
      <acc value="0.0482976463" flag="0"/>
      <vel value="0.0206180453" flag="0"/>
      <psa03 value="0.1692334634" flag="0"/>
      <psa10 value="0.0108450846" flag="0"/>
      <psa30 value="0.0015697717" flag="0"/>
    </comp>
    <comp name="--.HNZ">
      <acc value="0.0328226982" flag="0"/>
      <vel value="0.0137048334" flag="0"/>
      <psa03 value="0.0758498694" flag="0"/>
      <psa10 value="0.0089545514" flag="0"/>
      <psa30 value="0.0016505434" flag="0"/>
    </comp>
  </station>
  <station code="GOMA" name="GOMA" netid="KO" insttype="CMG-5T" lat="38.7077" lon="27.9175">
    <comp name="--.HNZ">
      <acc value="0.0352644925" flag="0"/>
      <vel value="0.0234740468" flag="0"/>
      <psa03 value="0.0810107079" flag="0"/>
      <psa10 value="0.0339366054" flag="0"/>
      <psa30 value="0.0026029352" flag="0"/>
    </comp>
    <comp name="--.HNN">
      <acc value="0.0435197422" flag="0"/>
      <vel value="0.0238192559" flag="0"/>
      <psa03 value="0.0805653221" flag="0"/>
      <psa10 value="0.0268494256" flag="0"/>
      <psa30 value="0.0056465416" flag="0"/>
    </comp>
  </station>
  <station code="GONE" name="GONE" netid="KO" insttype="CMG-5T" lat="40.0466" lon="27.686">
    <comp name="--.HNE">
      <acc value="0.0243068573" flag="0"/>
      <vel value="0.0167967705" flag="0"/>
      <psa03 value="0.0681233169" flag="0"/>
      <psa10 value="0.0284595916" flag="0"/>
      <psa30 value="0.0017539912" flag="0"/>
    </comp>
    <comp name="--.HNN">
      <acc value="0.0346520845" flag="0"/>
      <vel value="0.0201028816" flag="0"/>
      <psa03 value="0.0972017824" flag="0"/>
      <psa10 value="0.0262537438" flag="0"/>
      <psa30 value="0.0020595576" flag="0"/>
    </comp>
    <comp name="--.HNZ">
      <acc value="0.0143400921" flag="0"/>
      <vel value="0.0075190802" flag="0"/>
      <psa03 value="0.0500798244" flag="0"/>
      <psa10 value="0.0075610675" flag="0"/>
      <psa30 value="0.0019887589" flag="0"/>
    </comp>
  </station>
  <station code="GORD" name="GORD" netid="KO" insttype="CMG-5T" lat="38.9088" lon="28.1769">
    <comp name="--.HNN">
      <acc value="0.0372767828" flag="0"/>
      <vel value="0.0352581283" flag="0"/>
      <psa03 value="0.0827670095" flag="0"/>
      <psa10 value="0.0568186759" flag="0"/>
      <psa30 value="0.0083315152" flag="0"/>
    </comp>
    <comp name="--.HNZ">
      <acc value="0.0339983225" flag="0"/>
      <vel value="0.0413399578" flag="0"/>
      <psa03 value="0.0788245949" flag="0"/>
      <psa10 value="0.0521106603" flag="0"/>
      <psa30 value="0.0078007209" flag="0"/>
    </comp>
    <comp name="--.HNE">
      <acc value="0.0567560882" flag="0"/>
      <vel value="0.0560928889" flag="0"/>
      <psa03 value="0.1800060884" flag="0"/>
      <psa10 value="0.1408817050" flag="0"/>
      <psa30 value="0.0128342550" flag="0"/>
    </comp>
  </station>
  <station code="KULA" name="KULA" netid="KO" insttype="CMG-3T" lat="38.5145" lon="28.6607">
    <comp name="--.HHE">
      <acc value="0.0106987251" flag="0"/>
      <vel value="0.0072336815" flag="0"/>
      <psa03 value="0.0236897763" flag="0"/>
      <psa10 value="0.0051228314" flag="0"/>
      <psa30 value="0.0020343037" flag="0"/>
    </comp>
    <comp name="--.HHZ">
      <acc value="0.0066133405" flag="0"/>
      <vel value="0.0033476756" flag="0"/>
      <psa03 value="0.0158596624" flag="0"/>
      <psa10 value="0.0039127362" flag="0"/>
      <psa30 value="0.0017899648" flag="0"/>
    </comp>
    <comp name="--.HHN">
      <acc value="0.0092692883" flag="0"/>
      <vel value="0.0045029003" flag="0"/>
      <psa03 value="0.0211371873" flag="0"/>
      <psa10 value="0.0050575207" flag="0"/>
      <psa30 value="0.0010037786" flag="0"/>
    </comp>
  </station>
  <station code="NAZL" name="NAZL" netid="KO" insttype="CMG-5T" lat="37.9641" lon="28.2922">
    <comp name="--.HNZ">
      <acc value="0.0092996219" flag="0"/>
      <vel value="0.0095593488" flag="0"/>
      <psa03 value="0.0259698612" flag="0"/>
      <psa10 value="0.0115903311" flag="0"/>
      <psa30 value="0.0009175491" flag="0"/>
    </comp>
    <comp name="--.HNN">
      <acc value="0.0234301963" flag="0"/>
      <vel value="0.0170569130" flag="0"/>
      <psa03 value="0.0833996736" flag="0"/>
      <psa10 value="0.0151021288" flag="0"/>
      <psa30 value="0.0008160213" flag="0"/>
    </comp>
    <comp name="--.HNE">
      <acc value="0.0242894205" flag="0"/>
      <vel value="0.0183862493" flag="0"/>
      <psa03 value="0.0376670001" flag="0"/>
      <psa10 value="0.0355296780" flag="0"/>
      <psa30 value="0.0011931269" flag="0"/>
    </comp>
  </station>
  <station code="ODEM" name="ODEM" netid="KO" insttype="CMG-5T" lat="38.2762" lon="28.0747">
    <comp name="--.HNZ">
      <acc value="0.0124391034" flag="0"/>
      <vel value="0.0083689549" flag="0"/>
      <psa03 value="0.0248266508" flag="0"/>
      <psa10 value="0.0085037742" flag="0"/>
      <psa30 value="0.0005110343" flag="0"/>
    </comp>
    <comp name="--.HNE">
      <acc value="0.0173559948" flag="0"/>
      <vel value="0.0094415021" flag="0"/>
      <psa03 value="0.0400888709" flag="0"/>
      <psa10 value="0.0107111389" flag="0"/>
      <psa30 value="0.0012606688" flag="0"/>
    </comp>
    <comp name="--.HNN">
      <acc value="0.0094798541" flag="0"/>
      <vel value="0.0053637181" flag="0"/>
      <psa03 value="0.0323451192" flag="0"/>
      <psa10 value="0.0074925400" flag="0"/>
      <psa30 value="0.0005151849" flag="0"/>
    </comp>
  </station>
  <station code="SHAP" name="SHAP" netid="KO" insttype="CMG-5T" lat="39.0231" lon="29.222">
    <comp name="--.HNZ">
      <acc value="0.0112564190" flag="0"/>
      <vel value="0.0063991009" flag="0"/>
      <psa03 value="0.0206011796" flag="0"/>
      <psa10 value="0.0054731539" flag="0"/>
      <psa30 value="0.0014446045" flag="0"/>
    </comp>
    <comp name="--.HNN">
      <acc value="0.0207939546" flag="0"/>
      <vel value="0.0119687145" flag="0"/>
      <psa03 value="0.0375353528" flag="0"/>
      <psa10 value="0.0137401351" flag="0"/>
      <psa30 value="0.0018615164" flag="0"/>
    </comp>
    <comp name="--.HNE">
      <acc value="0.0158962668" flag="0"/>
      <vel value="0.0066885114" flag="0"/>
      <psa03 value="0.0391427329" flag="0"/>
      <psa10 value="0.0059214166" flag="0"/>
      <psa30 value="0.0013855388" flag="0"/>
    </comp>
  </station>
  <station code="SOMA" name="SOMA" netid="KO" insttype="CMG-5T" lat="39.1564" lon="27.5341">
    <comp name="--.HNZ">
      <acc value="0.1630682433" flag="0"/>
      <vel value="0.0594172078" flag="0"/>
      <psa03 value="0.1351048978" flag="0"/>
      <psa10 value="0.0741392735" flag="0"/>
      <psa30 value="0.0056428318" flag="0"/>
    </comp>
    <comp name="--.HNE">
      <acc value="0.1766497869" flag="0"/>
      <vel value="0.0783784281" flag="0"/>
      <psa03 value="0.3350610581" flag="0"/>
      <psa10 value="0.1166749923" flag="0"/>
      <psa30 value="0.0045757234" flag="0"/>
    </comp>
    <comp name="--.HNN">
      <acc value="0.2649099817" flag="0"/>
      <vel value="0.1217789836" flag="0"/>
      <psa03 value="0.3937171643" flag="0"/>
      <psa10 value="0.0645773801" flag="0"/>
      <psa30 value="0.0058875352" flag="0"/>
    </comp>
  </station>
  <station code="SUSR" name="SUSR" netid="KO" insttype="CMG-5T" lat="39.9627" lon="28.0835">
    <comp name="--.HNZ">
      <acc value="0.0315665532" flag="0"/>
      <vel value="0.0177812091" flag="0"/>
      <psa03 value="0.0648430286" flag="0"/>
      <psa10 value="0.0081443801" flag="0"/>
      <psa30 value="0.0022801152" flag="0"/>
    </comp>
    <comp name="--.HNN">
      <acc value="0.0491115542" flag="0"/>
      <vel value="0.0288810059" flag="0"/>
      <psa03 value="0.1787866789" flag="0"/>
      <psa10 value="0.0102615282" flag="0"/>
      <psa30 value="0.0008862809" flag="0"/>
    </comp>
    <comp name="--.HNE">
      <acc value="0.0353381279" flag="0"/>
      <vel value="0.0196977157" flag="0"/>
      <psa03 value="0.0968343743" flag="0"/>
      <psa10 value="0.0121892178" flag="0"/>
      <psa30 value="0.0008800232" flag="0"/>
    </comp>
  </station>
  <station code="YAYO" name="YAYO" netid="KO" insttype="CMG-6T" lat="39.6113" lon="27.0726">
    <comp name="--.HHE">
      <acc value="0.0409772556" flag="0"/>
      <vel value="0.0201172392" flag="0"/>
      <psa03 value="0.1489801372" flag="0"/>
      <psa10 value="0.0182572122" flag="0"/>
      <psa30 value="0.0009883171" flag="0"/>
    </comp>
    <comp name="--.HHN">
      <acc value="0.0991478342" flag="0"/>
      <vel value="0.0527295055" flag="0"/>
      <psa03 value="0.3174771225" flag="0"/>
      <psa10 value="0.0189033005" flag="0"/>
      <psa30 value="0.0015106518" flag="0"/>
    </comp>
    <comp name="--.HHZ">
      <acc value="0.0450107743" flag="0"/>
      <vel value="0.0184490281" flag="0"/>
      <psa03 value="0.2059734978" flag="0"/>
      <psa10 value="0.0082601301" flag="0"/>
      <psa30 value="0.0016447932" flag="0"/>
    </comp>
  </station>
  <station code="YENI" name="YENI" netid="KO" insttype="CMG-5T" lat="39.9364" lon="27.2422">
    <comp name="--.HNE">
      <acc value="0.0628477313" flag="0"/>
      <vel value="0.0357635551" flag="0"/>
      <psa03 value="0.2622525015" flag="0"/>
      <psa10 value="0.0190025972" flag="0"/>
      <psa30 value="0.0016852866" flag="0"/>
    </comp>
    <comp name="--.HNN">
      <acc value="0.0631172643" flag="0"/>
      <vel value="0.0295421290" flag="0"/>
      <psa03 value="0.1638623754" flag="0"/>
      <psa10 value="0.0258036659" flag="0"/>
      <psa30 value="0.0011481301" flag="0"/>
    </comp>
    <comp name="--.HNZ">
      <acc value="0.0253585444" flag="0"/>
      <vel value="0.0119323730" flag="0"/>
      <psa03 value="0.0803478708" flag="0"/>
      <psa10 value="0.0096457486" flag="0"/>
      <psa30 value="0.0022339766" flag="0"/>
    </comp>
  </station>
</stationlist>
