<?xml version="1.0" encoding="UTF-8" standalone="yes"?>
<!DOCTYPE earthquake SYSTEM "stationlist.dtd">
<stationlist created="" xmlns="ch.ethz.sed.shakemap.usgs.xml">
  <station code="AYDB" name="AYDB" netid="KO" insttype="CMG-3ESPC" lat="37.9467" lon="27.8908">
    <comp name="--.HHN">
      <acc value="0.0170775419" flag="0"/>
      <vel value="0.0163333385" flag="0"/>
      <psa03 value="0.0724044141" flag="0"/>
      <psa10 value="0.0209566347" flag="0"/>
      <psa30 value="0.0011363084" flag="0"/>
    </comp>
    <comp name="--.HHE">
      <acc value="0.0220223142" flag="0"/>
      <vel value="0.0156106615" flag="0"/>
      <psa03 value="0.0810173090" flag="0"/>
      <psa10 value="0.0144050174" flag="0"/>
      <psa30 value="0.0011792508" flag="0"/>
    </comp>
    <comp name="--.HHZ">
      <acc value="0.0136236107" flag="0"/>
      <vel value="0.0084284052" flag="0"/>
      <psa03 value="0.0366500803" flag="0"/>
      <psa10 value="0.0094920280" flag="0"/>
      <psa30 value="0.0009366691" flag="0"/>
    </comp>
  </station>
  <station code="BALB" name="BALB" netid="KO" insttype="CMG-5T" lat="39.6507" lon="27.8642">
    <comp name="--.HNE">
      <acc value="0.0317976430" flag="0"/>
      <vel value="0.0169571223" flag="0"/>
      <psa03 value="0.0983205664" flag="0"/>
      <psa10 value="0.0235077246" flag="0"/>
      <psa30 value="0.0047934641" flag="0"/>
    </comp>
    <comp name="--.HNZ">
      <acc value="0.0207276621" flag="0"/>
      <vel value="0.0123796568" flag="0"/>
      <psa03 value="0.0468788388" flag="0"/>
      <psa10 value="0.0164874152" flag="0"/>
      <psa30 value="0.0041964703" flag="0"/>
    </comp>
    <comp name="--.HNN">
      <acc value="0.0431728628" flag="0"/>
      <vel value="0.0235639089" flag="0"/>
      <psa03 value="0.1560499559" flag="0"/>
      <psa10 value="0.0180259687" flag="0"/>
      <psa30 value="0.0061062607" flag="0"/>
    </comp>
  </station>
  <station code="BLCB" name="BLCB" netid="KO" insttype="CMG-3T" lat="38.3853" lon="27.042">
    <comp name="--.HHE">
      <acc value="0.0417881204" flag="0"/>
      <vel value="0.0211488690" flag="0"/>
      <psa03 value="0.1443591106" flag="0"/>
      <psa10 value="0.0080780589" flag="0"/>
      <psa30 value="0.0010277743" flag="0"/>
    </comp>
    <comp name="--.HHN">
      <acc value="0.0000261158" flag="0"/>
      <vel value="0.0000083549" flag="0"/>
      <psa03 value="0.0000514684" flag="0"/>
      <psa10 value="0.0000064018" flag="0"/>
      <psa30 value="0.0000007640" flag="0"/>
    </comp>
    <comp name="--.HHZ">
      <acc value="0.0401394251" flag="0"/>
      <vel value="0.0143749862" flag="0"/>
      <psa03 value="0.0791232377" flag="0"/>
      <psa10 value="0.0077834316" flag="0"/>
      <psa30 value="0.0005865376" flag="0"/>
    </comp>
  </station>
  <station code="DKL" name="DKL" netid="KO" insttype="CMG-3ESPC" lat="39.0713" lon="26.9053">
    <comp name="--.HHE">
      <acc value="0.0140682765" flag="0"/>
      <vel value="0.0095738379" flag="0"/>
      <psa03 value="0.0621912827" flag="0"/>
      <psa10 value="0.0070234642" flag="0"/>
      <psa30 value="0.0019360224" flag="0"/>
    </comp>
    <comp name="--.HHZ">
      <acc value="0.0113936672" flag="0"/>
      <vel value="0.0061167881" flag="0"/>
      <psa03 value="0.0491844165" flag="0"/>
      <psa10 value="0.0046940425" flag="0"/>
      <psa30 value="0.0016797328" flag="0"/>
    </comp>
    <comp name="--.HHN">
      <acc value="0.0211532395" flag="0"/>
      <vel value="0.0118770829" flag="0"/>
      <psa03 value="0.0611710908" flag="0"/>
      <psa10 value="0.0087016957" flag="0"/>
      <psa30 value="0.0018202207" flag="0"/>
    </comp>
  </station>
  <station code="DST" name="DST" netid="KO" insttype="CMG-5T" lat="39.6041" lon="28.6267">
    <comp name="--.HNE">
      <acc value="0.0461418091" flag="0"/>
      <vel value="0.0210485914" flag="0"/>
      <psa03 value="0.0968733240" flag="0"/>
      <psa10 value="0.0126752603" flag="0"/>
      <psa30 value="0.0022713744" flag="0"/>
    </comp>
    <comp name="--.HNN">
      <acc value="0.0482976486" flag="0"/>
      <vel value="0.0206180661" flag="0"/>
      <psa03 value="0.1692334634" flag="0"/>
      <psa10 value="0.0108450848" flag="0"/>
      <psa30 value="0.0015699386" flag="0"/>
    </comp>
    <comp name="--.HNZ">
      <acc value="0.0328226995" flag="0"/>
      <vel value="0.0137048157" flag="0"/>
      <psa03 value="0.0758498694" flag="0"/>
      <psa10 value="0.0089545514" flag="0"/>
      <psa30 value="0.0016504188" flag="0"/>
    </comp>
  </station>
  <station code="GOMA" name="GOMA" netid="KO" insttype="CMG-5T" lat="38.7077" lon="27.9175">
    <comp name="--.HNZ">
      <acc value="0.0352644821" flag="0"/>
      <vel value="0.0234740543" flag="0"/>
      <psa03 value="0.0810107079" flag="0"/>
      <psa10 value="0.0339366075" flag="0"/>
      <psa30 value="0.0026028432" flag="0"/>
    </comp>
    <comp name="--.HNN">
      <acc value="0.0435197442" flag="0"/>
      <vel value="0.0238192412" flag="0"/>
      <psa03 value="0.0805653221" flag="0"/>
      <psa10 value="0.0268494321" flag="0"/>
      <psa30 value="0.0056466202" flag="0"/>
    </comp>
  </station>
  <station code="GONE" name="GONE" netid="KO" insttype="CMG-5T" lat="40.0466" lon="27.686">
    <comp name="--.HNZ">
      <acc value="0.0143400910" flag="0"/>
      <vel value="0.0075190805" flag="0"/>
      <psa03 value="0.0500798244" flag="0"/>
      <psa10 value="0.0075610675" flag="0"/>
      <psa30 value="0.0019887783" flag="0"/>
    </comp>
    <comp name="--.HNE">
      <acc value="0.0243068569" flag="0"/>
      <vel value="0.0167967721" flag="0"/>
      <psa03 value="0.0681233169" flag="0"/>
      <psa10 value="0.0284595915" flag="0"/>
      <psa30 value="0.0017540156" flag="0"/>
    </comp>
    <comp name="--.HNN">
      <acc value="0.0346520836" flag="0"/>
      <vel value="0.0201028849" flag="0"/>
      <psa03 value="0.0972017824" flag="0"/>
      <psa10 value="0.0262537438" flag="0"/>
      <psa30 value="0.0020595224" flag="0"/>
    </comp>
  </station>
  <station code="GORD" name="GORD" netid="KO" insttype="CMG-5T" lat="38.9088" lon="28.1769">
    <comp name="--.HNN">
      <acc value="0.0372767838" flag="0"/>
      <vel value="0.0352581291" flag="0"/>
      <psa03 value="0.0827670095" flag="0"/>
      <psa10 value="0.0568186730" flag="0"/>
      <psa30 value="0.0083314997" flag="0"/>
    </comp>
    <comp name="--.HNZ">
      <acc value="0.0339983239" flag="0"/>
      <vel value="0.0413399587" flag="0"/>
      <psa03 value="0.0788245949" flag="0"/>
      <psa10 value="0.0521106563" flag="0"/>
      <psa30 value="0.0077992478" flag="0"/>
    </comp>
    <comp name="--.HNE">
      <acc value="0.0567560890" flag="0"/>
      <vel value="0.0560928840" flag="0"/>
      <psa03 value="0.1800060884" flag="0"/>
      <psa10 value="0.1408817104" flag="0"/>
      <psa30 value="0.0128342184" flag="0"/>
    </comp>
  </station>
  <station code="KULA" name="KULA" netid="KO" insttype="CMG-3T" lat="38.5145" lon="28.6607">
    <comp name="--.HHN">
      <acc value="0.0092692885" flag="0"/>
      <vel value="0.0045029001" flag="0"/>
      <psa03 value="0.0211371873" flag="0"/>
      <psa10 value="0.0050575208" flag="0"/>
      <psa30 value="0.0010037771" flag="0"/>
    </comp>
    <comp name="--.HHE">
      <acc value="0.0106987251" flag="0"/>
      <vel value="0.0072336812" flag="0"/>
      <psa03 value="0.0236897763" flag="0"/>
      <psa10 value="0.0051228314" flag="0"/>
      <psa30 value="0.0020343068" flag="0"/>
    </comp>
    <comp name="--.HHZ">
      <acc value="0.0066133402" flag="0"/>
      <vel value="0.0033476755" flag="0"/>
      <psa03 value="0.0158596624" flag="0"/>
      <psa10 value="0.0039127362" flag="0"/>
      <psa30 value="0.0017899726" flag="0"/>
    </comp>
  </station>
  <station code="NAZL" name="NAZL" netid="KO" insttype="CMG-5T" lat="37.9641" lon="28.2922">
    <comp name="--.HNN">
      <acc value="0.0234302003" flag="0"/>
      <vel value="0.0170569092" flag="0"/>
      <psa03 value="0.0833996736" flag="0"/>
      <psa10 value="0.0151021294" flag="0"/>
      <psa30 value="0.0008162625" flag="0"/>
    </comp>
    <comp name="--.HNZ">
      <acc value="0.0092996235" flag="0"/>
      <vel value="0.0095593399" flag="0"/>
      <psa03 value="0.0259698612" flag="0"/>
      <psa10 value="0.0115903309" flag="0"/>
      <psa30 value="0.0009185079" flag="0"/>
    </comp>
    <comp name="--.HNE">
      <acc value="0.0242894232" flag="0"/>
      <vel value="0.0183862466" flag="0"/>
      <psa03 value="0.0376670001" flag="0"/>
      <psa10 value="0.0355296779" flag="0"/>
      <psa30 value="0.0011927831" flag="0"/>
    </comp>
  </station>
  <station code="ODEM" name="ODEM" netid="KO" insttype="CMG-5T" lat="38.2762" lon="28.0747">
    <comp name="--.HNE">
      <acc value="0.0173559950" flag="0"/>
      <vel value="0.0094415000" flag="0"/>
      <psa03 value="0.0400888709" flag="0"/>
      <psa10 value="0.0107111402" flag="0"/>
      <psa30 value="0.0012606658" flag="0"/>
    </comp>
    <comp name="--.HNZ">
      <acc value="0.0124391042" flag="0"/>
      <vel value="0.0083689601" flag="0"/>
      <psa03 value="0.0248266508" flag="0"/>
      <psa10 value="0.0085037742" flag="0"/>
      <psa30 value="0.0005125375" flag="0"/>
    </comp>
    <comp name="--.HNN">
      <acc value="0.0094798548" flag="0"/>
      <vel value="0.0053637155" flag="0"/>
      <psa03 value="0.0323451192" flag="0"/>
      <psa10 value="0.0074925405" flag="0"/>
      <psa30 value="0.0005139689" flag="0"/>
    </comp>
  </station>
  <station code="SHAP" name="SHAP" netid="KO" insttype="CMG-5T" lat="39.0231" lon="29.222">
    <comp name="--.HNE">
      <acc value="0.0158962676" flag="0"/>
      <vel value="0.0066885106" flag="0"/>
      <psa03 value="0.0391427329" flag="0"/>
      <psa10 value="0.0059214167" flag="0"/>
      <psa30 value="0.0013855515" flag="0"/>
    </comp>
    <comp name="--.HNN">
      <acc value="0.0207939564" flag="0"/>
      <vel value="0.0119687118" flag="0"/>
      <psa03 value="0.0375353528" flag="0"/>
      <psa10 value="0.0137401350" flag="0"/>
      <psa30 value="0.0018614981" flag="0"/>
    </comp>
    <comp name="--.HNZ">
      <acc value="0.0112564218" flag="0"/>
      <vel value="0.0063990982" flag="0"/>
      <psa03 value="0.0206011796" flag="0"/>
      <psa10 value="0.0054731538" flag="0"/>
      <psa30 value="0.0014446175" flag="0"/>
    </comp>
  </station>
  <station code="SIMA" name="SIMA" netid="KO" insttype="CMG-6T" lat="39.0833" lon="28.9825">
    <comp name="--.HHN">
      <acc value="0.0186664733" flag="0"/>
      <vel value="0.0123397310" flag="0"/>
      <psa03 value="0.0628028547" flag="0"/>
      <psa10 value="0.0184341463" flag="0"/>
      <psa30 value="0.0023171918" flag="0"/>
    </comp>
    <comp name="--.HHZ">
      <acc value="0.0180729101" flag="0"/>
      <vel value="0.0075735415" flag="0"/>
      <psa03 value="0.0201461902" flag="0"/>
      <psa10 value="0.0086022501" flag="0"/>
      <psa30 value="0.0017114019" flag="0"/>
    </comp>
    <comp name="--.HHE">
      <acc value="0.0257726536" flag="0"/>
      <vel value="0.0129582761" flag="0"/>
      <psa03 value="0.0555612018" flag="0"/>
      <psa10 value="0.0126448302" flag="0"/>
      <psa30 value="0.0014652397" flag="0"/>
    </comp>
  </station>
  <station code="SOMA" name="SOMA" netid="KO" insttype="CMG-5T" lat="39.1564" lon="27.5341">
    <comp name="--.HNE">
      <acc value="0.1766497863" flag="0"/>
      <vel value="0.0783784324" flag="0"/>
      <psa03 value="0.3350610581" flag="0"/>
      <psa10 value="0.1166749914" flag="0"/>
      <psa30 value="0.0045746996" flag="0"/>
    </comp>
    <comp name="--.HNZ">
      <acc value="0.1630682460" flag="0"/>
      <vel value="0.0594172080" flag="0"/>
      <psa03 value="0.1351048978" flag="0"/>
      <psa10 value="0.0741392732" flag="0"/>
      <psa30 value="0.0056430976" flag="0"/>
    </comp>
    <comp name="--.HNN">
      <acc value="0.2649099837" flag="0"/>
      <vel value="0.1217789822" flag="0"/>
      <psa03 value="0.3937171643" flag="0"/>
      <psa10 value="0.0645773749" flag="0"/>
      <psa30 value="0.0058868155" flag="0"/>
    </comp>
  </station>
  <station code="SUSR" name="SUSR" netid="KO" insttype="CMG-5T" lat="39.9627" lon="28.0835">
    <comp name="--.HNE">
      <acc value="0.0353381290" flag="0"/>
      <vel value="0.0196977183" flag="0"/>
      <psa03 value="0.0968343743" flag="0"/>
      <psa10 value="0.0121892181" flag="0"/>
      <psa30 value="0.0008799094" flag="0"/>
    </comp>
    <comp name="--.HNN">
      <acc value="0.0491115521" flag="0"/>
      <vel value="0.0288810088" flag="0"/>
      <psa03 value="0.1787866789" flag="0"/>
      <psa10 value="0.0102615284" flag="0"/>
      <psa30 value="0.0008863114" flag="0"/>
    </comp>
    <comp name="--.HNZ">
      <acc value="0.0315665545" flag="0"/>
      <vel value="0.0177812084" flag="0"/>
      <psa03 value="0.0648430286" flag="0"/>
      <psa10 value="0.0081443803" flag="0"/>
      <psa30 value="0.0022800709" flag="0"/>
    </comp>
  </station>
  <station code="YAYO" name="YAYO" netid="KO" insttype="CMG-6T" lat="39.6113" lon="27.0726">
    <comp name="--.HHE">
      <acc value="0.0409772560" flag="0"/>
      <vel value="0.0201172399" flag="0"/>
      <psa03 value="0.1489801372" flag="0"/>
      <psa10 value="0.0182572121" flag="0"/>
      <psa30 value="0.0009882886" flag="0"/>
    </comp>
    <comp name="--.HHN">
      <acc value="0.0991478357" flag="0"/>
      <vel value="0.0527295043" flag="0"/>
      <psa03 value="0.3174771225" flag="0"/>
      <psa10 value="0.0189033004" flag="0"/>
      <psa30 value="0.0015106910" flag="0"/>
    </comp>
    <comp name="--.HHZ">
      <acc value="0.0450107733" flag="0"/>
      <vel value="0.0184490292" flag="0"/>
      <psa03 value="0.2059734978" flag="0"/>
      <psa10 value="0.0082601302" flag="0"/>
      <psa30 value="0.0016447886" flag="0"/>
    </comp>
  </station>
  <station code="YENI" name="YENI" netid="KO" insttype="CMG-5T" lat="39.9364" lon="27.2422">
    <comp name="--.HNN">
      <acc value="0.0631172670" flag="0"/>
      <vel value="0.0295421444" flag="0"/>
      <psa03 value="0.1638623754" flag="0"/>
      <psa10 value="0.0258036652" flag="0"/>
      <psa30 value="0.0011505609" flag="0"/>
    </comp>
    <comp name="--.HNE">
      <acc value="0.0628477286" flag="0"/>
      <vel value="0.0357635566" flag="0"/>
      <psa03 value="0.2622525015" flag="0"/>
      <psa10 value="0.0190025969" flag="0"/>
      <psa30 value="0.0016855113" flag="0"/>
    </comp>
    <comp name="--.HNZ">
      <acc value="0.0253585424" flag="0"/>
      <vel value="0.0119323734" flag="0"/>
      <psa03 value="0.0803478708" flag="0"/>
      <psa10 value="0.0096457484" flag="0"/>
      <psa30 value="0.0022340413" flag="0"/>
    </comp>
  </station>
</stationlist>
