<stationlist created="1715104869">
	<station code="RUSAM" name="RUSAM" netid="BS" source="National Seismic Network of Bulgaria (BS)" insttype="" lat="43.8462" lon="25.9612">
		<comp name=".HNE" depth="0.0">
			<acc value="0.0057740457198828" flag="0"/>
			<vel value="0.00101834907469" flag="0"/>
			<psa03 value="0.00425284976427927" flag="0"/>
			<psa10 value="0.000334215753434784" flag="0"/>
			<psa30 value="9.82736455632888e-05" flag="0"/>
		</comp>
		<comp name=".HNN" depth="0.0">
			<acc value="0.0056985839024232" flag="0"/>
			<vel value="0.00286230412222" flag="0"/>
			<psa03 value="0.00520071789441486" flag="0"/>
			<psa10 value="0.000936057438900362" flag="0"/>
			<psa30 value="0.00110671508527407" flag="0"/>
		</comp>
		<comp name=".HNZ" depth="0.0">
			<acc value="0.018474841737066" flag="0"/>
			<vel value="0.00287591701071" flag="0"/>
			<psa03 value="0.00321329424518418" flag="0"/>
			<psa10 value="0.000275421526574382" flag="0"/>
			<psa30 value="6.93255495085983e-05" flag="0"/>
		</comp>
	</station>
	<station code="AMRR" name="AMRR" netid="RO" source="Romanian Seismic Network (NIEP)" insttype="" lat="44.6102" lon="27.3351">
		<comp name=".HNE" depth="0.0">
			<acc value="0.019421426142402" flag="0"/>
			<vel value="0.00739234076512" flag="0"/>
			<psa03 value="0.0421056200198541" flag="0"/>
			<psa10 value="0.00168559580307267" flag="0"/>
			<psa30 value="0.000137602865514343" flag="0"/>
		</comp>
		<comp name=".HNN" depth="0.0">
			<acc value="0.017102431577538" flag="0"/>
			<vel value="0.00544047007295" flag="0"/>
			<psa03 value="0.0134636015329439" flag="0"/>
			<psa10 value="0.00184028183151353" flag="0"/>
			<psa30 value="0.000161265878385696" flag="0"/>
		</comp>
		<comp name=".HNZ" depth="0.0">
			<acc value="0.015474167321418" flag="0"/>
			<vel value="0.00200472466187" flag="0"/>
			<psa03 value="0.00547783814030193" flag="0"/>
			<psa10 value="0.000375677679771276" flag="0"/>
			<psa30 value="8.71180107238793e-05" flag="0"/>
		</comp>
	</station>
	<station code="BAC" name="BAC" netid="RO" source="Romanian Seismic Network (NIEP)" insttype="" lat="46.5669" lon="26.9124">
		<comp name=".HNE" depth="0.0">
			<acc value="0.013613991844254" flag="0"/>
			<vel value="0.00354399803728" flag="0"/>
			<psa03 value="0.0155523141186356" flag="0"/>
			<psa10 value="0.000928399255802512" flag="0"/>
			<psa30 value="9.93655603451098e-05" flag="0"/>
		</comp>
		<comp name=".HNN" depth="0.0">
			<acc value="0.016741295050974" flag="0"/>
			<vel value="0.00360385136859" flag="0"/>
			<psa03 value="0.0151443157365948" flag="0"/>
			<psa10 value="0.00129941315005809" flag="0"/>
			<psa30 value="0.000152668655215858" flag="0"/>
		</comp>
		<comp name=".HNZ" depth="0.0">
			<acc value="0.058745125415424" flag="0"/>
			<vel value="0.00539896847576" flag="0"/>
			<psa03 value="0.00575613587305973" flag="0"/>
			<psa10 value="0.000524787850555485" flag="0"/>
			<psa30 value="7.32804078529418e-05" flag="0"/>
		</comp>
	</station>
	<station code="BIR" name="BIR" netid="RO" source="Romanian Seismic Network (NIEP)" insttype="" lat="46.2334" lon="27.6436">
		<comp name=".HNE" depth="0.0">
			<acc value="0.092192250852384" flag="0"/>
			<vel value="0.0208504007238" flag="0"/>
			<psa03 value="0.0899551882563101" flag="0"/>
			<psa10 value="0.0043096795576385" flag="0"/>
			<psa30 value="0.000367878953508614" flag="0"/>
		</comp>
		<comp name=".HNN" depth="0.0">
			<acc value="0.076799308392" flag="0"/>
			<vel value="0.0119351105667" flag="0"/>
			<psa03 value="0.0440110353067754" flag="0"/>
			<psa10 value="0.0038114025648378" flag="0"/>
			<psa30 value="0.000540313918145257" flag="0"/>
		</comp>
		<comp name=".HNZ" depth="0.0">
			<acc value="0.030650126365206" flag="0"/>
			<vel value="0.00668646668303" flag="0"/>
			<psa03 value="0.0345070489434549" flag="0"/>
			<psa10 value="0.000865187294882586" flag="0"/>
			<psa30 value="8.6822411714939e-05" flag="0"/>
		</comp>
	</station>
	<station code="BISRR" name="BISRR" netid="RO" source="Romanian Seismic Network (NIEP)" insttype="" lat="45.5481" lon="26.7099">
		<comp name=".HNE" depth="0.0">
			<acc value="0.014812025607456" flag="0"/>
			<vel value="0.00330166900209" flag="0"/>
			<psa03 value="0.0126308601699797" flag="0"/>
			<psa10 value="0.00183246103998645" flag="0"/>
			<psa30 value="0.000144626390684572" flag="0"/>
		</comp>
		<comp name=".HNN" depth="0.0">
			<acc value="0.0118114844697" flag="0"/>
			<vel value="0.00244297847348" flag="0"/>
			<psa03 value="0.0144828344166918" flag="0"/>
			<psa10 value="0.00153946233338741" flag="0"/>
			<psa30 value="0.000238638829484583" flag="0"/>
		</comp>
		<comp name=".HNZ" depth="0.0">
			<acc value="0.017800691953356" flag="0"/>
			<vel value="0.00411647002374" flag="0"/>
			<psa03 value="0.00761841614103016" flag="0"/>
			<psa10 value="0.000707347600494281" flag="0"/>
			<psa30 value="0.000130059748632443" flag="0"/>
		</comp>
	</station>
	<station code="CFR" name="CFR" netid="RO" source="Romanian Seismic Network (NIEP)" insttype="" lat="45.178" lon="28.1362">
		<comp name=".HNE" depth="0.0">
			<acc value="0.032846469704478" flag="0"/>
			<vel value="0.0104018514633" flag="0"/>
			<psa03 value="0.0435928721888504" flag="0"/>
			<psa10 value="0.00161290989423887" flag="0"/>
			<psa30 value="0.000152398442002972" flag="0"/>
		</comp>
		<comp name=".HNN" depth="0.0">
			<acc value="0.046976788424826" flag="0"/>
			<vel value="0.00886571326173" flag="0"/>
			<psa03 value="0.0307277152478335" flag="0"/>
			<psa10 value="0.00109760653917203" flag="0"/>
			<psa30 value="9.41533921479945e-05" flag="0"/>
		</comp>
		<comp name=".HNZ" depth="0.0">
			<acc value="0.02137385968086" flag="0"/>
			<vel value="0.00580488075211" flag="0"/>
			<psa03 value="0.0243091754677515" flag="0"/>
			<psa10 value="0.000929462158244514" flag="0"/>
			<psa30 value="9.22474651083045e-05" flag="0"/>
		</comp>
	</station>
	<station code="COPA" name="COPA" netid="RO" source="Romanian Seismic Network (NIEP)" insttype="" lat="44.1343" lon="25.2172">
		<comp name=".HNE" depth="0.0">
			<acc value="0.015177569471604" flag="0"/>
			<vel value="0.00381287676096" flag="0"/>
			<psa03 value="0.0228633869830029" flag="0"/>
			<psa10 value="0.00110111395902175" flag="0"/>
			<psa30 value="0.000129164207536407" flag="0"/>
		</comp>
		<comp name=".HNN" depth="0.0">
			<acc value="0.01699178387127" flag="0"/>
			<vel value="0.00409442146722" flag="0"/>
			<psa03 value="0.00970855916003362" flag="0"/>
			<psa10 value="0.000936854308094518" flag="0"/>
			<psa30 value="0.000119646506722922" flag="0"/>
		</comp>
		<comp name=".HNZ" depth="0.0">
			<acc value="0.012614209831068" flag="0"/>
			<vel value="0.0016383894814" flag="0"/>
			<psa03 value="0.00355224117792145" flag="0"/>
			<psa10 value="0.000341693045643694" flag="0"/>
			<psa30 value="7.90301116590395e-05" flag="0"/>
		</comp>
	</station>
	<station code="CVDA" name="CVDA" netid="RO" source="Romanian Seismic Network (NIEP)" insttype="" lat="44.3336" lon="28.0374">
		<comp name=".HNE" depth="0.0">
			<acc value="0.02880480431358" flag="0"/>
			<vel value="0.0119735491947" flag="0"/>
			<psa03 value="0.0648310030690088" flag="0"/>
			<psa10 value="0.00316542016230082" flag="0"/>
			<psa30 value="0.000251600391249579" flag="0"/>
		</comp>
		<comp name=".HNN" depth="0.0">
			<acc value="0.035460555749292" flag="0"/>
			<vel value="0.0115898633139" flag="0"/>
			<psa03 value="0.0507274177339717" flag="0"/>
			<psa10 value="0.00387301609955975" flag="0"/>
			<psa30 value="0.000327690900622401" flag="0"/>
		</comp>
		<comp name=".HNZ" depth="0.0">
			<acc value="0.033554787832626" flag="0"/>
			<vel value="0.0100816532283" flag="0"/>
			<psa03 value="0.0586124036176098" flag="0"/>
			<psa10 value="0.00187464336560869" flag="0"/>
			<psa30 value="0.00017743689755286" flag="0"/>
		</comp>
	</station>
	<station code="DOPR" name="DOPR" netid="RO" source="Romanian Seismic Network (NIEP)" insttype="" lat="45.9675" lon="25.3886">
		<comp name=".HNE" depth="0.0">
			<acc value="0.013252957356654" flag="0"/>
			<vel value="0.00270414193874" flag="0"/>
			<psa03 value="0.0085359293957288" flag="0"/>
			<psa10 value="0.00115513101394917" flag="0"/>
			<psa30 value="9.24784830166617e-05" flag="0"/>
		</comp>
		<comp name=".HNN" depth="0.0">
			<acc value="0.0100046842232064" flag="0"/>
			<vel value="0.00263427103517" flag="0"/>
			<psa03 value="0.00891031226966793" flag="0"/>
			<psa10 value="0.000890138283700364" flag="0"/>
			<psa30 value="6.03623711065464e-05" flag="0"/>
		</comp>
		<comp name=".HNZ" depth="0.0">
			<acc value="0.0045868038751044" flag="0"/>
			<vel value="0.00127735274272" flag="0"/>
			<psa03 value="0.00309631839714884" flag="0"/>
			<psa10 value="0.00057088197828457" flag="0"/>
			<psa30 value="5.96330845139272e-05" flag="0"/>
		</comp>
	</station>
	<station code="GISR" name="GISR" netid="RO" source="Romanian Seismic Network (NIEP)" insttype="" lat="45.4411" lon="28.0541">
		<comp name=".HNE" depth="0.0">
			<acc value="0.049425686292882" flag="0"/>
			<vel value="0.0193559435806" flag="0"/>
			<psa03 value="0.055553747871641" flag="0"/>
			<psa10 value="0.00468931111257908" flag="0"/>
			<psa30 value="0.00065010650386437" flag="0"/>
		</comp>
		<comp name=".HNN" depth="0.0">
			<acc value="0.052330289755044" flag="0"/>
			<vel value="0.0142617396613" flag="0"/>
			<psa03 value="0.071880907590576" flag="0"/>
			<psa10 value="0.00896940167883565" flag="0"/>
			<psa30 value="0.00066033723368456" flag="0"/>
		</comp>
		<comp name=".HNZ" depth="0.0">
			<acc value="0.043965553503132" flag="0"/>
			<vel value="0.00950658184612" flag="0"/>
			<psa03 value="0.0308730321660485" flag="0"/>
			<psa10 value="0.0031234757430644" flag="0"/>
			<psa30 value="0.000598175042825377" flag="0"/>
		</comp>
	</station>
	<station code="HUMR" name="HUMR" netid="RO" source="Romanian Seismic Network (NIEP)" insttype="" lat="44.5281" lon="24.9804">
		<comp name=".HNE" depth="0.0">
			<acc value="0.030606082293558" flag="0"/>
			<vel value="0.0104626709353" flag="0"/>
			<psa03 value="0.0367480984436523" flag="0"/>
			<psa10 value="0.00204522072021166" flag="0"/>
			<psa30 value="0.00018194909750568" flag="0"/>
		</comp>
		<comp name=".HNN" depth="0.0">
			<acc value="0.03489382027848" flag="0"/>
			<vel value="0.00689357852725" flag="0"/>
			<psa03 value="0.036606529169576" flag="0"/>
			<psa10 value="0.00211758129499508" flag="0"/>
			<psa30 value="0.000196294631160086" flag="0"/>
		</comp>
		<comp name=".HNZ" depth="0.0">
			<acc value="0.032438424501546" flag="0"/>
			<vel value="0.00516007680649" flag="0"/>
			<psa03 value="0.00842613240864723" flag="0"/>
			<psa10 value="0.000538299702681578" flag="0"/>
			<psa30 value="6.50448492665603e-05" flag="0"/>
		</comp>
	</station>
	<station code="INCR" name="INCR" netid="RO" source="Romanian Seismic Network (NIEP)" insttype="" lat="44.441" lon="26.1611">
		<comp name=".HNE" depth="0.0">
			<acc value="0.01764268768209" flag="0"/>
			<vel value="0.00426804755834" flag="0"/>
			<psa03 value="0.0194113327805411" flag="0"/>
			<psa10 value="0.00130644767855973" flag="0"/>
			<psa30 value="0.000107438035211168" flag="0"/>
		</comp>
		<comp name=".HNN" depth="0.0">
			<acc value="0.0089655170945544" flag="0"/>
			<vel value="0.00256940761833" flag="0"/>
			<psa03 value="0.0106841934524834" flag="0"/>
			<psa10 value="0.00124009535335575" flag="0"/>
			<psa30 value="9.26047153370665e-05" flag="0"/>
		</comp>
		<comp name=".HNZ" depth="0.0">
			<acc value="0.013257165184482" flag="0"/>
			<vel value="0.00250331565327" flag="0"/>
			<psa03 value="0.00473911504986824" flag="0"/>
			<psa10 value="0.000379820092857763" flag="0"/>
			<psa30 value="0.000110528012042691" flag="0"/>
		</comp>
	</station>
	<station code="LEOM" name="LEOM" netid="RO" source="Romanian Seismic Network (NIEP)" insttype="" lat="46.4733" lon="28.2467">
		<comp name=".HNE" depth="0.0">
			<acc value="0.051272692788216" flag="0"/>
			<vel value="0.0124063565197" flag="0"/>
			<psa03 value="0.0457995860809468" flag="0"/>
			<psa10 value="0.00346896527067301" flag="0"/>
			<psa30 value="0.00075557302175466" flag="0"/>
		</comp>
		<comp name=".HNN" depth="0.0">
			<acc value="0.05362042166292" flag="0"/>
			<vel value="0.00883085881068" flag="0"/>
			<psa03 value="0.0289365575299335" flag="0"/>
			<psa10 value="0.0037536145179156" flag="0"/>
			<psa30 value="0.000624668620811554" flag="0"/>
		</comp>
		<comp name=".HNZ" depth="0.0">
			<acc value="0.032544306053508" flag="0"/>
			<vel value="0.0049016421942" flag="0"/>
			<psa03 value="0.019740447030656" flag="0"/>
			<psa10 value="0.00128448645811281" flag="0"/>
			<psa30 value="0.000713799212776593" flag="0"/>
		</comp>
	</station>
	<station code="MFTR" name="MFTR" netid="RO" source="Romanian Seismic Network (NIEP)" insttype="" lat="44.1779" lon="28.4224">
		<comp name=".HNE" depth="0.0">
			<acc value="0.012117707495556" flag="0"/>
			<vel value="0.00379412228174" flag="0"/>
			<psa03 value="0.0378609560192042" flag="0"/>
			<psa10 value="0.00108910449157937" flag="0"/>
			<psa30 value="0.000105551022184972" flag="0"/>
		</comp>
		<comp name=".HNN" depth="0.0">
			<acc value="0.01274599769952" flag="0"/>
			<vel value="0.00382494115027" flag="0"/>
			<psa03 value="0.0218746626307223" flag="0"/>
			<psa10 value="0.00149151599311641" flag="0"/>
			<psa30 value="0.000138963163960848" flag="0"/>
		</comp>
		<comp name=".HNZ" depth="0.0">
			<acc value="0.0097549370851902" flag="0"/>
			<vel value="0.00198940059932" flag="0"/>
			<psa03 value="0.00871413390925156" flag="0"/>
			<psa10 value="0.000406571347418672" flag="0"/>
			<psa30 value="5.3058055851468e-05" flag="0"/>
		</comp>
	</station>
	<station code="MLR" name="MLR" netid="RO" source="Romanian Seismic Network (NIEP)" insttype="" lat="45.4909" lon="25.945">
		<comp name=".HNE" depth="0.0">
			<acc value="0.0064747198688154" flag="0"/>
			<vel value="0.00293746567652" flag="0"/>
			<psa03 value="0.0181654260265917" flag="0"/>
			<psa10 value="0.00242477914534481" flag="0"/>
			<psa30 value="0.000256701302076629" flag="0"/>
		</comp>
		<comp name=".HNN" depth="0.0">
			<acc value="0.0063714405817962" flag="0"/>
			<vel value="0.00209305325431" flag="0"/>
			<psa03 value="0.0147312480083166" flag="0"/>
			<psa10 value="0.00105400908074074" flag="0"/>
			<psa30 value="0.000120670741240365" flag="0"/>
		</comp>
		<comp name=".HNZ" depth="0.0">
			<acc value="0.0042157944402738" flag="0"/>
			<vel value="0.00156888116891" flag="0"/>
			<psa03 value="0.00573143176255339" flag="0"/>
			<psa10 value="0.00106003772229807" flag="0"/>
			<psa30 value="8.34056424021954e-05" flag="0"/>
		</comp>
	</station>
	<station code="MTUR" name="MTUR" netid="RO" source="Romanian Seismic Network (NIEP)" insttype="" lat="45.2349" lon="25.0739">
		<comp name=".HNE" depth="0.0">
			<acc value="0.0048745796231202" flag="0"/>
			<vel value="0.00153787842698" flag="0"/>
			<psa03 value="0.00660626705985209" flag="0"/>
			<psa10 value="0.00222175358652024" flag="0"/>
			<psa30 value="0.000122158574176849" flag="0"/>
		</comp>
		<comp name=".HNN" depth="0.0">
			<acc value="0.0076306475230272" flag="0"/>
			<vel value="0.00353980463393" flag="0"/>
			<psa03 value="0.0181499354170418" flag="0"/>
			<psa10 value="0.00211910225512354" flag="0"/>
			<psa30 value="0.000151056308822557" flag="0"/>
		</comp>
		<comp name=".HNZ" depth="0.0">
			<acc value="0.0047844791835852" flag="0"/>
			<vel value="0.00129084084447" flag="0"/>
			<psa03 value="0.00463951730618722" flag="0"/>
			<psa10 value="0.00078258789729522" flag="0"/>
			<psa30 value="9.21779878497069e-05" flag="0"/>
		</comp>
	</station>
	<station code="ODBI" name="ODBI" netid="RO" source="Romanian Seismic Network (NIEP)" insttype="" lat="45.7633" lon="27.0558">
		<comp name=".HNE" depth="0.0">
			<acc value="0.040978734002382" flag="0"/>
			<vel value="0.00539113527181" flag="0"/>
			<psa03 value="0.018254180604059" flag="0"/>
			<psa10 value="0.00142928694887223" flag="0"/>
			<psa30 value="0.000251669276021139" flag="0"/>
		</comp>
		<comp name=".HNN" depth="0.0">
			<acc value="0.028405064749818" flag="0"/>
			<vel value="0.00428299644251" flag="0"/>
			<psa03 value="0.0273311777438829" flag="0"/>
			<psa10 value="0.00144715031973072" flag="0"/>
			<psa30 value="0.000143287955665428" flag="0"/>
		</comp>
		<comp name=".HNZ" depth="0.0">
			<acc value="0.05519447260896" flag="0"/>
			<vel value="0.00899159036737" flag="0"/>
			<psa03 value="0.0244101092374356" flag="0"/>
			<psa10 value="0.00150344342387153" flag="0"/>
			<psa30 value="0.000181302492171322" flag="0"/>
		</comp>
	</station>
	<station code="OTISU" name="OTISU" netid="RO" source="Romanian Seismic Network (NIEP)" insttype="" lat="44.4278" lon="24.3755">
		<comp name=".HNE" depth="0.0">
			<acc value="0.0316985344461" flag="0"/>
			<vel value="0.00515885104989" flag="0"/>
			<psa03 value="0.0139269147772408" flag="0"/>
			<psa10 value="0.000813279871895215" flag="0"/>
			<psa30 value="0.000162695608514597" flag="0"/>
		</comp>
		<comp name=".HNN" depth="0.0">
			<acc value="0.022917059571852" flag="0"/>
			<vel value="0.00310286735637" flag="0"/>
			<psa03 value="0.013877479210731" flag="0"/>
			<psa10 value="0.000480687653744944" flag="0"/>
			<psa30 value="9.08118426616619e-05" flag="0"/>
		</comp>
		<comp name=".HNZ" depth="0.0">
			<acc value="0.03127165924461" flag="0"/>
			<vel value="0.00452351045627" flag="0"/>
			<psa03 value="0.0102857673191097" flag="0"/>
			<psa10 value="0.000427410862699795" flag="0"/>
			<psa30 value="7.07396015159563e-05" flag="0"/>
		</comp>
	</station>
	<station code="PLAR" name="PLAR" netid="RO" source="Romanian Seismic Network (NIEP)" insttype="" lat="44.9142" lon="26.0274">
		<comp name=".HNE" depth="0.0">
			<acc value="0.063456360797274" flag="0"/>
			<vel value="0.0205928126883" flag="0"/>
			<psa03 value="0.0720540596863437" flag="0"/>
			<psa10 value="0.00410677424115018" flag="0"/>
			<psa30 value="0.000532732322151357" flag="0"/>
		</comp>
		<comp name=".HNN" depth="0.0">
			<acc value="0.033462836722176" flag="0"/>
			<vel value="0.00731617854532" flag="0"/>
			<psa03 value="0.0348250465717587" flag="0"/>
			<psa10 value="0.00262121762717742" flag="0"/>
			<psa30 value="0.000208146536082518" flag="0"/>
		</comp>
		<comp name=".HNZ" depth="0.0">
			<acc value="0.026892945195798" flag="0"/>
			<vel value="0.00417096379666" flag="0"/>
			<psa03 value="0.0068517169134377" flag="0"/>
			<psa10 value="0.000576845810862099" flag="0"/>
			<psa30 value="7.08569660616565e-05" flag="0"/>
		</comp>
	</station>
	<station code="PLOR" name="PLOR" netid="RO" source="Romanian Seismic Network (NIEP)" insttype="" lat="45.8512" lon="26.6498">
		<comp name=".HNE" depth="0.0">
			<acc value="0.0087840626376978" flag="0"/>
			<vel value="0.00260346434195" flag="0"/>
			<psa03 value="0.0136832124352314" flag="0"/>
			<psa10 value="0.00101491977251808" flag="0"/>
			<psa30 value="9.2511655787072e-05" flag="0"/>
		</comp>
		<comp name=".HNN" depth="0.0">
			<acc value="0.012059047887054" flag="0"/>
			<vel value="0.00343379850385" flag="0"/>
			<psa03 value="0.0160899942685692" flag="0"/>
			<psa10 value="0.00101197125687872" flag="0"/>
			<psa30 value="8.41640129525887e-05" flag="0"/>
		</comp>
		<comp name=".HNZ" depth="0.0">
			<acc value="0.015520290177648" flag="0"/>
			<vel value="0.00303616369025" flag="0"/>
			<psa03 value="0.00795784422542167" flag="0"/>
			<psa10 value="0.000717883454692671" flag="0"/>
			<psa30 value="7.60493087266196e-05" flag="0"/>
		</comp>
	</station>
	<station code="PLOR4" name="PLOR4" netid="RO" source="Romanian Seismic Network (NIEP)" insttype="" lat="45.8512" lon="26.6498">
		<comp name=".HNE" depth="0.0">
			<acc value="0.0087840626376978" flag="0"/>
			<vel value="0.00260346434195" flag="0"/>
			<psa03 value="0.0136832124352314" flag="0"/>
			<psa10 value="0.00101491977251808" flag="0"/>
			<psa30 value="9.2511655787072e-05" flag="0"/>
		</comp>
