<?xml version="1.0" encoding="UTF-8" standalone="yes"?>
<!DOCTYPE earthquake SYSTEM "stationlist.dtd">
<stationlist created="" xmlns="ch.ethz.sed.shakemap.usgs.xml">
  <station code="PSAM" name="PSAM" netid="CL" insttype="CMG40-T" lat="38.3218" lon="22.1842">
    <comp name="00.HHN">
      <acc value="0.0048714024" flag="0"/>
      <vel value="0.0045532575" flag="0"/>
      <psa03 value="0.0151129586" flag="0"/>
      <psa10 value="0.0086254373" flag="0"/>
      <psa30 value="0.0007867919" flag="0"/>
    </comp>
    <comp name="00.HHE">
      <acc value="0.0062609428" flag="0"/>
      <vel value="0.0059677884" flag="0"/>
      <psa03 value="0.0180997243" flag="0"/>
      <psa10 value="0.0090813904" flag="0"/>
      <psa30 value="0.0008572705" flag="0"/>
    </comp>
    <comp name="00.HHZ">
      <acc value="0.0036833643" flag="0"/>
      <vel value="0.0028833549" flag="0"/>
      <psa03 value="0.0085788717" flag="0"/>
      <psa10 value="0.0054885991" flag="0"/>
      <psa30 value="0.0005137813" flag="0"/>
    </comp>
  </station>
</stationlist>
