<?xml version="1.0" encoding="UTF-8" standalone="yes"?>
<!DOCTYPE earthquake SYSTEM "stationlist.dtd">
<stationlist created="" xmlns="ch.ethz.sed.shakemap.usgs.xml">
  <station code="PSAM" name="PSAM" netid="CL" insttype="CMG40-T" lat="38.3218" lon="22.1842">
    <comp name="00.HHN">
      <acc value="0.0048714024" flag="0"/>
      <vel value="0.0045532575" flag="0"/>
      <psa03 value="0.0151129586" flag="0"/>
      <psa10 value="0.0086254373" flag="0"/>
      <psa30 value="0.0007867919" flag="0"/>
    </comp>
    <comp name="00.HHE">
      <acc value="0.0062609428" flag="0"/>
      <vel value="0.0059677884" flag="0"/>
      <psa03 value="0.0180997243" flag="0"/>
      <psa10 value="0.0090813904" flag="0"/>
      <psa30 value="0.0008572705" flag="0"/>
    </comp>
    <comp name="00.HHZ">
      <acc value="0.0036833643" flag="0"/>
      <vel value="0.0028833549" flag="0"/>
      <psa03 value="0.0085788717" flag="0"/>
      <psa10 value="0.0054885991" flag="0"/>
      <psa30 value="0.0005137813" flag="0"/>
    </comp>
  </station>
  <station code="AMPE" name="AMPE" netid="HA" insttype="1s-100Hz," lat="38.3015" lon="23.2688">
    <comp name="--.HHE">
      <acc value="0.0917662185" flag="0"/>
      <vel value="0.0383603614" flag="0"/>
      <psa03 value="0.1837732976" flag="0"/>
      <psa10 value="0.0187398199" flag="0"/>
      <psa30 value="0.0015629021" flag="0"/>
    </comp>
    <comp name="--.HHZ">
      <acc value="0.0256299035" flag="0"/>
      <vel value="0.0118320042" flag="0"/>
      <psa03 value="0.0768764656" flag="0"/>
      <psa10 value="0.0073218712" flag="0"/>
      <psa30 value="0.0007048103" flag="0"/>
    </comp>
    <comp name="--.HHN">
      <acc value="0.0526094003" flag="0"/>
      <vel value="0.0223664421" flag="0"/>
      <psa03 value="0.0863715466" flag="0"/>
      <psa10 value="0.0190165145" flag="0"/>
      <psa30 value="0.0014249033" flag="0"/>
    </comp>
  </station>
  <station code="ANTK" name="ANTK" netid="HA" insttype="25" lat="38.3605" lon="22.6385">
    <comp name="--.HHN">
      <acc value="0.0004300789" flag="0"/>
      <vel value="0.0001426339" flag="0"/>
      <psa03 value="0.0007096644" flag="0"/>
      <psa10 value="0.0001536232" flag="0"/>
      <psa30 value="0.0000067072" flag="0"/>
    </comp>
    <comp name="--.HHE">
      <acc value="0.0056386207" flag="0"/>
      <vel value="0.0035571912" flag="0"/>
      <psa03 value="0.0149256107" flag="0"/>
      <psa10 value="0.0063700090" flag="0"/>
      <psa30 value="0.0005524302" flag="0"/>
    </comp>
    <comp name="--.HHZ">
      <acc value="0.0045779882" flag="0"/>
      <vel value="0.0030942823" flag="0"/>
      <psa03 value="0.0127047515" flag="0"/>
      <psa10 value="0.0030884583" flag="0"/>
      <psa30 value="0.0003252632" flag="0"/>
    </comp>
  </station>
  <station code="ATAL" name="ATAL" netid="HA" insttype="120s," lat="38.6926" lon="23.0213">
    <comp name="--.HHE">
      <acc value="0.1170116721" flag="0"/>
      <vel value="0.0167399406" flag="0"/>
      <psa03 value="0.0720819024" flag="0"/>
      <psa10 value="0.0109353399" flag="0"/>
      <psa30 value="0.0010438941" flag="0"/>
    </comp>
    <comp name="--.HHZ">
      <acc value="0.0811766234" flag="0"/>
      <vel value="0.0163338345" flag="0"/>
      <psa03 value="0.0943299617" flag="0"/>
      <psa10 value="0.0042959208" flag="0"/>
      <psa30 value="0.0008545143" flag="0"/>
    </comp>
    <comp name="--.HHN">
      <acc value="0.0930924303" flag="0"/>
      <vel value="0.0205766066" flag="0"/>
      <psa03 value="0.0996639672" flag="0"/>
      <psa10 value="0.0102004584" flag="0"/>
      <psa30 value="0.0005938866" flag="0"/>
    </comp>
  </station>
  <station code="ATHU" name="ATHU" netid="HA" insttype="60s," lat="37.9665" lon="23.7845">
    <comp name="--.HHN">
      <acc value="0.0101090416" flag="0"/>
      <vel value="0.0044498385" flag="0"/>
      <psa03 value="0.0189221963" flag="0"/>
      <psa10 value="0.0019565080" flag="0"/>
      <psa30 value="0.0003712563" flag="0"/>
    </comp>
    <comp name="--.HHE">
      <acc value="0.0139399673" flag="0"/>
      <vel value="0.0048030307" flag="0"/>
      <psa03 value="0.0380938098" flag="0"/>
      <psa10 value="0.0021112698" flag="0"/>
      <psa30 value="0.0003096317" flag="0"/>
    </comp>
    <comp name="--.HHZ">
      <acc value="0.0083286885" flag="0"/>
      <vel value="0.0028298193" flag="0"/>
      <psa03 value="0.0163213020" flag="0"/>
      <psa10 value="0.0015784547" flag="0"/>
      <psa30 value="0.0004828324" flag="0"/>
    </comp>
  </station>
  <station code="AXAR" name="AXAR" netid="HA" insttype="Horizon,120s,1200" lat="38.7664" lon="22.659">
    <comp name="--.HHE">
      <acc value="0.0841961722" flag="0"/>
      <vel value="0.0171149819" flag="0"/>
      <psa03 value="0.1259962260" flag="0"/>
      <psa10 value="0.0169383222" flag="0"/>
      <psa30 value="0.0017236063" flag="0"/>
    </comp>
    <comp name="--.HHZ">
      <acc value="0.0408134925" flag="0"/>
      <vel value="0.0114427982" flag="0"/>
      <psa03 value="0.0555186038" flag="0"/>
      <psa10 value="0.0086441197" flag="0"/>
      <psa30 value="0.0006222374" flag="0"/>
    </comp>
    <comp name="--.HHN">
      <acc value="0.0547195705" flag="0"/>
      <vel value="0.0215192024" flag="0"/>
      <psa03 value="0.0875707373" flag="0"/>
      <psa10 value="0.0173155801" flag="0"/>
      <psa30 value="0.0014642198" flag="0"/>
    </comp>
  </station>
  <station code="DOMV" name="DOMV" netid="HA" insttype="60" lat="38.2569" lon="22.9795">
    <comp name="--.HHN">
      <acc value="0.0869393182" flag="0"/>
      <vel value="0.0246362471" flag="0"/>
      <psa03 value="0.1618578795" flag="0"/>
      <psa10 value="0.0088356213" flag="0"/>
      <psa30 value="0.0013355964" flag="0"/>
    </comp>
    <comp name="--.HHE">
      <acc value="0.0898786234" flag="0"/>
      <vel value="0.0421275246" flag="0"/>
      <psa03 value="0.3089220434" flag="0"/>
      <psa10 value="0.0232843337" flag="0"/>
      <psa30 value="0.0016693378" flag="0"/>
    </comp>
    <comp name="--.HHZ">
      <acc value="0.0454082474" flag="0"/>
      <vel value="0.0147160554" flag="0"/>
      <psa03 value="0.0953962512" flag="0"/>
      <psa10 value="0.0069899368" flag="0"/>
      <psa30 value="0.0006397067" flag="0"/>
    </comp>
  </station>
  <station code="ERTR" name="ERTR" netid="HA" insttype="Horizon,120s,1200" lat="38.4066" lon="23.7865">
    <comp name="--.HHZ">
      <acc value="0.0412579761" flag="0"/>
      <vel value="0.0095028509" flag="0"/>
      <psa03 value="0.0357698222" flag="0"/>
      <psa10 value="0.0034249001" flag="0"/>
      <psa30 value="0.0006728263" flag="0"/>
    </comp>
    <comp name="--.HHN">
      <acc value="0.0421140680" flag="0"/>
      <vel value="0.0141037608" flag="0"/>
      <psa03 value="0.0646665464" flag="0"/>
      <psa10 value="0.0068639627" flag="0"/>
      <psa30 value="0.0008898653" flag="0"/>
    </comp>
    <comp name="--.HHE">
      <acc value="0.0598777221" flag="0"/>
      <vel value="0.0171575591" flag="0"/>
      <psa03 value="0.0988597292" flag="0"/>
      <psa10 value="0.0057352419" flag="0"/>
      <psa30 value="0.0006519591" flag="0"/>
    </comp>
  </station>
  <station code="KALE" name="KALE" netid="HA" insttype="40," lat="38.3911" lon="22.1398">
    <comp name="--.HHE">
      <acc value="0.0097635180" flag="0"/>
      <vel value="0.0046737696" flag="0"/>
      <psa03 value="0.0316788739" flag="0"/>
      <psa10 value="0.0034276952" flag="0"/>
      <psa30 value="0.0004742853" flag="0"/>
    </comp>
    <comp name="--.HHN">
      <acc value="0.0087177505" flag="0"/>
      <vel value="0.0039020675" flag="0"/>
      <psa03 value="0.0196329793" flag="0"/>
      <psa10 value="0.0028524118" flag="0"/>
      <psa30 value="0.0003384878" flag="0"/>
    </comp>
    <comp name="--.HHZ">
      <acc value="0.0054205334" flag="0"/>
      <vel value="0.0024879416" flag="0"/>
      <psa03 value="0.0115965027" flag="0"/>
      <psa10 value="0.0016272529" flag="0"/>
      <psa30 value="0.0002652618" flag="0"/>
    </comp>
  </station>
  <station code="LOUT" name="LOUT" netid="HA" insttype="30" lat="37.9879" lon="22.9743">
    <comp name="--.HHZ">
      <acc value="0.0174893264" flag="0"/>
      <vel value="0.0068435571" flag="0"/>
      <psa03 value="0.0576688997" flag="0"/>
      <psa10 value="0.0053991100" flag="0"/>
      <psa30 value="0.0004747137" flag="0"/>
    </comp>
    <comp name="--.HHE">
      <acc value="0.0370260361" flag="0"/>
      <vel value="0.0147644399" flag="0"/>
      <psa03 value="0.0798959593" flag="0"/>
      <psa10 value="0.0089765069" flag="0"/>
      <psa30 value="0.0006257585" flag="0"/>
    </comp>
    <comp name="--.HHN">
      <acc value="0.0352845749" flag="0"/>
      <vel value="0.0141885624" flag="0"/>
      <psa03 value="0.0748173414" flag="0"/>
      <psa10 value="0.0153838023" flag="0"/>
      <psa30 value="0.0012752182" flag="0"/>
    </comp>
  </station>
  <station code="MDRA" name="MDRA" netid="HA" insttype="60" lat="38.0606" lon="23.4662">
    <comp name="--.HHN">
      <acc value="0.0265653708" flag="0"/>
      <vel value="0.0116453347" flag="0"/>
      <psa03 value="0.0619098206" flag="0"/>
      <psa10 value="0.0080753622" flag="0"/>
      <psa30 value="0.0006044018" flag="0"/>
    </comp>
    <comp name="--.HHE">
      <acc value="0.0251097064" flag="0"/>
      <vel value="0.0106932162" flag="0"/>
      <psa03 value="0.0580614154" flag="0"/>
      <psa10 value="0.0039906060" flag="0"/>
      <psa30 value="0.0006002378" flag="0"/>
    </comp>
    <comp name="--.HHZ">
      <acc value="0.0186228241" flag="0"/>
      <vel value="0.0111251325" flag="0"/>
      <psa03 value="0.0519729009" flag="0"/>
      <psa10 value="0.0069762261" flag="0"/>
      <psa30 value="0.0011125572" flag="0"/>
    </comp>
  </station>
  <station code="MRKA" name="MRKA" netid="HA" insttype="Horizon,120s,1200" lat="38.7047" lon="23.5863">
    <comp name="--.HHN">
      <acc value="0.4522632097" flag="0"/>
      <vel value="0.0845462344" flag="0"/>
      <psa03 value="0.3520526436" flag="0"/>
      <psa10 value="0.0151918235" flag="0"/>
      <psa30 value="0.0021000047" flag="0"/>
    </comp>
    <comp name="--.HHZ">
      <acc value="0.2997427843" flag="0"/>
      <vel value="0.0390752788" flag="0"/>
      <psa03 value="0.1644994568" flag="0"/>
      <psa10 value="0.0098144374" flag="0"/>
      <psa30 value="0.0009651537" flag="0"/>
    </comp>
    <comp name="--.HHE">
      <acc value="0.5641824313" flag="0"/>
      <vel value="0.1062082775" flag="0"/>
      <psa03 value="0.3887480248" flag="0"/>
      <psa10 value="0.0112821792" flag="0"/>
      <psa30 value="0.0015360129" flag="0"/>
    </comp>
  </station>
  <station code="MRTH" name="MRTH" netid="HA" insttype="S100," lat="38.1225" lon="23.9409">
    <comp name="--.HHZ">
      <acc value="0.0494626902" flag="0"/>
      <vel value="0.0178255409" flag="0"/>
      <psa03 value="0.0929969347" flag="0"/>
      <psa10 value="0.0049226395" flag="0"/>
      <psa30 value="0.0005415922" flag="0"/>
    </comp>
    <comp name="--.HHN">
      <acc value="0.0421102013" flag="0"/>
      <vel value="0.0146902300" flag="0"/>
      <psa03 value="0.0811560867" flag="0"/>
      <psa10 value="0.0057727944" flag="0"/>
      <psa30 value="0.0005591794" flag="0"/>
    </comp>
    <comp name="--.HHE">
      <acc value="0.0503513349" flag="0"/>
      <vel value="0.0155703069" flag="0"/>
      <psa03 value="0.0752569431" flag="0"/>
      <psa10 value="0.0082699248" flag="0"/>
      <psa30 value="0.0009012879" flag="0"/>
    </comp>
  </station>
  <station code="PRDM" name="PRDM" netid="HA" insttype="25" lat="38.2804" lon="22.847">
    <comp name="--.HHZ">
      <acc value="0.0114406389" flag="0"/>
      <vel value="0.0037087660" flag="0"/>
      <psa03 value="0.0351437746" flag="0"/>
      <psa10 value="0.0020319002" flag="0"/>
      <psa30 value="0.0002370129" flag="0"/>
    </comp>
    <comp name="--.HHN">
      <acc value="0.0212108312" flag="0"/>
      <vel value="0.0073909999" flag="0"/>
      <psa03 value="0.0640208841" flag="0"/>
      <psa10 value="0.0033677367" flag="0"/>
      <psa30 value="0.0004869398" flag="0"/>
    </comp>
    <comp name="--.HHE">
      <acc value="0.0202322492" flag="0"/>
      <vel value="0.0065645465" flag="0"/>
      <psa03 value="0.0451868288" flag="0"/>
      <psa10 value="0.0021427739" flag="0"/>
      <psa30 value="0.0002407142" flag="0"/>
    </comp>
  </station>
  <station code="PSAH" name="PSAH" netid="HA" insttype="25" lat="38.5694" lon="23.6473">
    <comp name="--.HHN">
      <acc value="0.0326239468" flag="0"/>
      <vel value="0.0118464219" flag="0"/>
      <psa03 value="0.0379215775" flag="0"/>
      <psa10 value="0.0048899082" flag="0"/>
      <psa30 value="0.0004923251" flag="0"/>
    </comp>
    <comp name="--.HHE">
      <acc value="0.0363034378" flag="0"/>
      <vel value="0.0108205684" flag="0"/>
      <psa03 value="0.0468028129" flag="0"/>
      <psa10 value="0.0036638265" flag="0"/>
      <psa30 value="0.0003977744" flag="0"/>
    </comp>
    <comp name="--.HHZ">
      <acc value="0.0215423028" flag="0"/>
      <vel value="0.0061044931" flag="0"/>
      <psa03 value="0.0246839770" flag="0"/>
      <psa10 value="0.0024375006" flag="0"/>
      <psa30 value="0.0002427813" flag="0"/>
    </comp>
  </station>
  <station code="THAL" name="THAL" netid="HA" insttype="30" lat="38.0357" lon="22.6634">
    <comp name="--.HHE">
      <acc value="0.0391171380" flag="0"/>
      <vel value="0.0183657508" flag="0"/>
      <psa03 value="0.1109400067" flag="0"/>
      <psa10 value="0.0107706844" flag="0"/>
      <psa30 value="0.0013720215" flag="0"/>
    </comp>
    <comp name="--.HHZ">
      <acc value="0.0210555208" flag="0"/>
      <vel value="0.0083624308" flag="0"/>
      <psa03 value="0.0755480971" flag="0"/>
      <psa10 value="0.0070100667" flag="0"/>
      <psa30 value="0.0006617029" flag="0"/>
    </comp>
    <comp name="--.HHN">
      <acc value="0.0360345545" flag="0"/>
      <vel value="0.0157504804" flag="0"/>
      <psa03 value="0.1425987538" flag="0"/>
      <psa10 value="0.0089832488" flag="0"/>
      <psa30 value="0.0013480375" flag="0"/>
    </comp>
  </station>
  <station code="THIV" name="THIV" netid="HA" insttype="25" lat="38.299" lon="23.332">
    <comp name="--.HHN">
      <acc value="0.0380534099" flag="0"/>
      <vel value="0.0129929551" flag="0"/>
      <psa03 value="0.0802505059" flag="0"/>
      <psa10 value="0.0092685583" flag="0"/>
      <psa30 value="0.0007833475" flag="0"/>
    </comp>
    <comp name="--.HHZ">
      <acc value="0.0247914389" flag="0"/>
      <vel value="0.0111128824" flag="0"/>
      <psa03 value="0.0467963292" flag="0"/>
      <psa10 value="0.0033957634" flag="0"/>
      <psa30 value="0.0007054957" flag="0"/>
    </comp>
    <comp name="--.HHE">
      <acc value="0.0365467176" flag="0"/>
      <vel value="0.0159482259" flag="0"/>
      <psa03 value="0.0718706499" flag="0"/>
      <psa10 value="0.0101960330" flag="0"/>
      <psa30 value="0.0007849859" flag="0"/>
    </comp>
  </station>
  <station code="VILL" name="VILL" netid="HA" insttype="Horizon,120s,1200" lat="38.1642" lon="23.3122">
    <comp name="--.HHZ">
      <acc value="0.0205678049" flag="0"/>
      <vel value="0.0097293016" flag="0"/>
      <psa03 value="0.0873844388" flag="0"/>
      <psa10 value="0.0053139178" flag="0"/>
      <psa30 value="0.0007853749" flag="0"/>
    </comp>
    <comp name="--.HHE">
      <acc value="0.0382173696" flag="0"/>
      <vel value="0.0192531707" flag="0"/>
      <psa03 value="0.0937074784" flag="0"/>
      <psa10 value="0.0108548909" flag="0"/>
      <psa30 value="0.0010225512" flag="0"/>
    </comp>
    <comp name="--.HHN">
      <acc value="0.0475262720" flag="0"/>
      <vel value="0.0189020266" flag="0"/>
      <psa03 value="0.1348109343" flag="0"/>
      <psa10 value="0.0125909616" flag="0"/>
      <psa30 value="0.0009026920" flag="0"/>
    </comp>
  </station>
  <station code="ATH5" name="ATH5" netid="HI" insttype="CMG-5TD,ACCELEROMETER,GURALP" lat="37.9754" lon="23.7371">
    <comp name="--.HNZ">
      <acc value="0.0139822599" flag="0"/>
      <vel value="0.0051998218" flag="0"/>
      <psa03 value="0.0322757283" flag="0"/>
      <psa10 value="0.0026129704" flag="0"/>
      <psa30 value="0.0005275520" flag="0"/>
    </comp>
    <comp name="--.HNN">
      <acc value="0.0224613602" flag="0"/>
      <vel value="0.0090963308" flag="0"/>
      <psa03 value="0.0501660812" flag="0"/>
      <psa10 value="0.0053579573" flag="0"/>
      <psa30 value="0.0006550969" flag="0"/>
    </comp>
    <comp name="--.HNE">
      <acc value="0.0219450648" flag="0"/>
      <vel value="0.0064071507" flag="0"/>
      <psa03 value="0.0515676006" flag="0"/>
      <psa10 value="0.0037487143" flag="0"/>
      <psa30 value="0.0003552651" flag="0"/>
    </comp>
  </station>
  <station code="PLN1" name="PLN1" netid="HI" insttype="CMG-5TD,ACCELEROMETER,GURALP" lat="39.998" lon="23.575">
    <comp name="--.HNZ">
      <acc value="0.0119982968" flag="0"/>
      <vel value="0.0041917756" flag="0"/>
      <psa03 value="0.0243071725" flag="0"/>
      <psa10 value="0.0060763084" flag="0"/>
      <psa30 value="0.0003762724" flag="0"/>
    </comp>
    <comp name="--.HNE">
      <acc value="0.0094230308" flag="0"/>
      <vel value="0.0056937162" flag="0"/>
      <psa03 value="0.0322911184" flag="0"/>
      <psa10 value="0.0086173888" flag="0"/>
      <psa30 value="0.0005601238" flag="0"/>
    </comp>
    <comp name="--.HNN">
      <acc value="0.0081351234" flag="0"/>
      <vel value="0.0072800376" flag="0"/>
      <psa03 value="0.0322259418" flag="0"/>
      <psa10 value="0.0124316961" flag="0"/>
      <psa30 value="0.0005980488" flag="0"/>
    </comp>
  </station>
  <station code="SKY1" name="SKY1" netid="HI" insttype="CMG-5TD,ACCELEROMETER,GURALP" lat="38.9045" lon="24.5646">
    <comp name="--.HNE">
      <acc value="0.0302569066" flag="0"/>
      <vel value="0.0103066969" flag="0"/>
      <psa03 value="0.0858109918" flag="0"/>
      <psa10 value="0.0037884871" flag="0"/>
      <psa30 value="0.0003415939" flag="0"/>
    </comp>
    <comp name="--.HNN">
      <acc value="0.0205825068" flag="0"/>
      <vel value="0.0100351972" flag="0"/>
      <psa03 value="0.0639834375" flag="0"/>
      <psa10 value="0.0043400092" flag="0"/>
      <psa30 value="0.0003513235" flag="0"/>
    </comp>
    <comp name="--.HNZ">
      <acc value="0.0219206575" flag="0"/>
      <vel value="0.0071888470" flag="0"/>
      <psa03 value="0.0344091971" flag="0"/>
      <psa10 value="0.0031395723" flag="0"/>
      <psa30 value="0.0002442842" flag="0"/>
    </comp>
  </station>
  <station code="VOL2" name="VOL2" netid="HI" insttype="CMG-5TD,ACCELEROMETER,GURALP" lat="39.366" lon="22.9506">
    <comp name="--.HNE">
      <acc value="0.2048190511" flag="0"/>
      <vel value="0.0463717131" flag="0"/>
      <psa03 value="0.2576024440" flag="0"/>
      <psa10 value="0.0130759773" flag="0"/>
      <psa30 value="0.0010594114" flag="0"/>
    </comp>
    <comp name="--.HNN">
      <acc value="0.1206837778" flag="0"/>
      <vel value="0.0386014585" flag="0"/>
      <psa03 value="0.1694719836" flag="0"/>
      <psa10 value="0.0176004391" flag="0"/>
      <psa30 value="0.0012322128" flag="0"/>
    </comp>
    <comp name="--.HNZ">
      <acc value="0.2576720154" flag="0"/>
      <vel value="0.0445523715" flag="0"/>
      <psa03 value="0.0776242509" flag="0"/>
      <psa10 value="0.0057342819" flag="0"/>
      <psa30 value="0.0008054545" flag="0"/>
    </comp>
  </station>
  <station code="ALNA" name="ALNA" netid="HL" insttype="CMG-5" lat="39.148" lon="23.8667">
    <comp name="00.HNZ">
      <acc value="0.0589358701" flag="0"/>
      <vel value="0.0221980276" flag="0"/>
      <psa03 value="0.0839084498" flag="0"/>
      <psa10 value="0.0066258448" flag="0"/>
      <psa30 value="0.0004832313" flag="0"/>
    </comp>
    <comp name="00.HNN">
