<?xml version="1.0" encoding="UTF-8" standalone="yes"?>
<!DOCTYPE earthquake SYSTEM "stationlist.dtd">
<stationlist created="" xmlns="ch.ethz.sed.shakemap.usgs.xml">
  <station code="APE" name="APE" netid="GE" insttype="STS-2/N" lat="37.0727" lon="25.523">
    <comp name="--.HHE">
      <acc value="0.1089857347" flag="0"/>
      <vel value="0.0343582015" flag="0"/>
      <psa03 value="0.2068341644" flag="0"/>
      <psa10 value="0.0137298779" flag="0"/>
      <psa30 value="0.0018350740" flag="0"/>
    </comp>
    <comp name="--.HHN">
      <acc value="0.1249117656" flag="0"/>
      <vel value="0.0289593502" flag="0"/>
      <psa03 value="0.0996714708" flag="0"/>
      <psa10 value="0.0174656638" flag="0"/>
      <psa30 value="0.0024653431" flag="0"/>
    </comp>
    <comp name="--.HHZ">
      <acc value="0.0708767118" flag="0"/>
      <vel value="0.0162907146" flag="0"/>
      <psa03 value="0.0784446166" flag="0"/>
      <psa10 value="0.0114432346" flag="0"/>
      <psa30 value="0.0023745761" flag="0"/>
    </comp>
  </station>
  <station code="THERA" name="THERA" netid="GE" insttype="STS-2/N" lat="36.367" lon="25.4753">
    <comp name="--.HHN">
      <acc value="0.1173878779" flag="0"/>
      <vel value="0.0260247699" flag="0"/>
      <psa03 value="0.1839920110" flag="0"/>
      <psa10 value="0.0088902457" flag="0"/>
      <psa30 value="0.0007831519" flag="0"/>
    </comp>
    <comp name="--.HHE">
      <acc value="0.2052215679" flag="0"/>
      <vel value="0.0455570755" flag="0"/>
      <psa03 value="0.2698793238" flag="0"/>
      <psa10 value="0.0164399632" flag="0"/>
      <psa30 value="0.0017479439" flag="0"/>
    </comp>
    <comp name="--.HHZ">
      <acc value="0.1383892964" flag="0"/>
      <vel value="0.0260752028" flag="0"/>
      <psa03 value="0.1361409619" flag="0"/>
      <psa10 value="0.0105977089" flag="0"/>
      <psa30 value="0.0011122298" flag="0"/>
    </comp>
  </station>
  <station code="SERI" name="SERI" netid="HA" insttype="30" lat="37.1609" lon="24.4853">
    <comp name="--.HHN">
      <acc value="0.0233653772" flag="0"/>
      <vel value="0.0066476019" flag="0"/>
      <psa03 value="0.0263170608" flag="0"/>
      <psa10 value="0.0068174030" flag="0"/>
      <psa30 value="0.0006475295" flag="0"/>
    </comp>
    <comp name="--.HHE">
      <acc value="0.0180485151" flag="0"/>
      <vel value="0.0058089905" flag="0"/>
      <psa03 value="0.0207868019" flag="0"/>
      <psa10 value="0.0033777295" flag="0"/>
      <psa30 value="0.0005273686" flag="0"/>
    </comp>
    <comp name="--.HHZ">
      <acc value="0.0229936027" flag="0"/>
      <vel value="0.0045693486" flag="0"/>
      <psa03 value="0.0178626274" flag="0"/>
      <psa10 value="0.0034474445" flag="0"/>
      <psa30 value="0.0007022923" flag="0"/>
    </comp>
  </station>
  <station code="SNT1" name="SNT1" netid="HA" insttype="30" lat="36.4159" lon="25.4282">
    <comp name="--.HHZ">
      <acc value="0.0838810328" flag="0"/>
      <vel value="0.0274416769" flag="0"/>
      <psa03 value="0.1413178677" flag="0"/>
      <psa10 value="0.0162847155" flag="0"/>
      <psa30 value="0.0013995493" flag="0"/>
    </comp>
    <comp name="--.HHN">
      <acc value="0.1187292279" flag="0"/>
      <vel value="0.0448386857" flag="0"/>
      <psa03 value="0.1855533787" flag="0"/>
      <psa10 value="0.0243559863" flag="0"/>
      <psa30 value="0.0033624302" flag="0"/>
    </comp>
    <comp name="--.HHE">
      <acc value="0.1082505819" flag="0"/>
      <vel value="0.0404108935" flag="0"/>
      <psa03 value="0.1296425866" flag="0"/>
      <psa10 value="0.0214192908" flag="0"/>
      <psa30 value="0.0026651378" flag="0"/>
    </comp>
  </station>
  <station code="SNT5" name="SNT5" netid="HA" insttype="1s-100Hz," lat="36.4037" lon="25.3953">
    <comp name="--.HHZ">
      <acc value="0.1964914480" flag="0"/>
      <vel value="0.0332439817" flag="0"/>
      <psa03 value="0.1243826731" flag="0"/>
      <psa10 value="0.0134534678" flag="0"/>
      <psa30 value="0.0010659796" flag="0"/>
    </comp>
    <comp name="--.HHE">
      <acc value="0.6697479376" flag="0"/>
      <vel value="0.1220677352" flag="0"/>
      <psa03 value="0.4224652035" flag="0"/>
      <psa10 value="0.0420498756" flag="0"/>
      <psa30 value="0.0029735494" flag="0"/>
    </comp>
    <comp name="--.HHN">
      <acc value="0.3162413906" flag="0"/>
      <vel value="0.0663557963" flag="0"/>
      <psa03 value="0.2745178720" flag="0"/>
      <psa10 value="0.0163281314" flag="0"/>
      <psa30 value="0.0035727607" flag="0"/>
    </comp>
  </station>
  <station code="NAX1" name="NAX1" netid="HI" insttype="CMG-5TD,ACCELEROMETER,GURALP" lat="37.1014" lon="25.3741">
    <comp name="--.HNN">
      <acc value="0.0610667988" flag="0"/>
      <vel value="0.0181745641" flag="0"/>
      <psa03 value="0.0559199384" flag="0"/>
      <psa10 value="0.0098993168" flag="0"/>
      <psa30 value="0.0015567671" flag="0"/>
    </comp>
    <comp name="--.HNE">
      <acc value="0.0937594134" flag="0"/>
      <vel value="0.0231323767" flag="0"/>
      <psa03 value="0.1106596076" flag="0"/>
      <psa10 value="0.0137113081" flag="0"/>
      <psa30 value="0.0011430936" flag="0"/>
    </comp>
    <comp name="--.HNZ">
      <acc value="0.0507247347" flag="0"/>
      <vel value="0.0180341135" flag="0"/>
      <psa03 value="0.0937304738" flag="0"/>
      <psa10 value="0.0111645841" flag="0"/>
      <psa30 value="0.0019474204" flag="0"/>
    </comp>
  </station>
  <station code="SFR2" name="SFR2" netid="HI" insttype="unknown" lat="36.3998" lon="25.4382">
    <comp name="--.HNE">
      <acc value="0.2981776951" flag="0"/>
      <vel value="0.0846771598" flag="0"/>
      <psa03 value="0.4377682750" flag="0"/>
      <psa10 value="0.0391162993" flag="0"/>
      <psa30 value="0.0029262886" flag="0"/>
    </comp>
    <comp name="--.HNN">
      <acc value="0.3698323285" flag="0"/>
      <vel value="0.1013461716" flag="0"/>
      <psa03 value="0.5355929808" flag="0"/>
      <psa10 value="0.0608258510" flag="0"/>
      <psa30 value="0.0033681354" flag="0"/>
    </comp>
  </station>
  <station code="AMGA" name="AMGA" netid="HL" insttype="SMART24" lat="36.8316" lon="25.8938">
    <comp name="--.HHZ">
      <acc value="0.4231277168" flag="0"/>
      <vel value="0.0883670272" flag="0"/>
      <psa03 value="0.3452017734" flag="0"/>
      <psa10 value="0.0263991279" flag="0"/>
      <psa30 value="0.0048901466" flag="0"/>
    </comp>
    <comp name="--.HHN">
      <acc value="0.7147230768" flag="0"/>
      <vel value="0.1169081948" flag="0"/>
      <psa03 value="0.4029093601" flag="0"/>
      <psa10 value="0.0535782823" flag="0"/>
      <psa30 value="0.0056865699" flag="0"/>
    </comp>
    <comp name="--.HHE">
      <acc value="0.5877778768" flag="0"/>
      <vel value="0.1100354593" flag="0"/>
      <psa03 value="0.3350084414" flag="0"/>
      <psa10 value="0.0583223387" flag="0"/>
      <psa30 value="0.0037255401" flag="0"/>
    </comp>
  </station>
  <station code="APE" name="APE" netid="HL" insttype="120" lat="37.0727" lon="25.523">
    <comp name="--.HHZ">
      <acc value="0.0664011204" flag="0"/>
      <vel value="0.0154135828" flag="0"/>
      <psa03 value="0.0760052815" flag="0"/>
      <psa10 value="0.0113737916" flag="0"/>
      <psa30 value="0.0023712628" flag="0"/>
    </comp>
    <comp name="--.HHN">
      <acc value="0.1128999019" flag="0"/>
      <vel value="0.0274360040" flag="0"/>
      <psa03 value="0.0967348283" flag="0"/>
      <psa10 value="0.0173412180" flag="0"/>
      <psa30 value="0.0024592578" flag="0"/>
    </comp>
    <comp name="--.HHE">
      <acc value="0.0968453101" flag="0"/>
      <vel value="0.0329444817" flag="0"/>
      <psa03 value="0.2013815793" flag="0"/>
      <psa10 value="0.0135896225" flag="0"/>
      <psa30 value="0.0018282131" flag="0"/>
    </comp>
  </station>
  <station code="MHLO" name="MHLO" netid="HL" insttype="20" lat="36.6898" lon="24.4017">
    <comp name="--.HHE">
      <acc value="0.0643163960" flag="0"/>
      <vel value="0.0351262355" flag="0"/>
      <psa03 value="0.2630621133" flag="0"/>
      <psa10 value="0.0603651722" flag="0"/>
      <psa30 value="0.0026408173" flag="0"/>
    </comp>
    <comp name="--.HHN">
      <acc value="0.0681612198" flag="0"/>
      <vel value="0.0412585267" flag="0"/>
      <psa03 value="0.2018836114" flag="0"/>
      <psa10 value="0.0664875140" flag="0"/>
      <psa30 value="0.0023625352" flag="0"/>
    </comp>
    <comp name="--.HHZ">
      <acc value="0.0282885014" flag="0"/>
      <vel value="0.0235246620" flag="0"/>
      <psa03 value="0.0791343940" flag="0"/>
      <psa10 value="0.0355717252" flag="0"/>
      <psa30 value="0.0018588045" flag="0"/>
    </comp>
  </station>
  <station code="MILA" name="MILA" netid="HL" insttype="CMG-5" lat="36.7429" lon="24.4282">
    <comp name="00.HNE">
      <acc value="0.0703320830" flag="0"/>
      <vel value="0.0252203983" flag="0"/>
      <psa03 value="0.1936868387" flag="0"/>
      <psa10 value="0.0230256391" flag="0"/>
      <psa30 value="0.0020642960" flag="0"/>
    </comp>
    <comp name="00.HNZ">
      <acc value="0.0467726780" flag="0"/>
      <vel value="0.0303666665" flag="0"/>
      <psa03 value="0.1490364066" flag="0"/>
      <psa10 value="0.0320679256" flag="0"/>
      <psa30 value="0.0018772823" flag="0"/>
    </comp>
    <comp name="00.HNN">
      <acc value="0.0876593201" flag="0"/>
      <vel value="0.0461486136" flag="0"/>
      <psa03 value="0.3204747043" flag="0"/>
      <psa10 value="0.0381949284" flag="0"/>
      <psa30 value="0.0022283058" flag="0"/>
    </comp>
  </station>
  <station code="SAP3" name="SAP3" netid="HL" insttype="65535" lat="36.4356" lon="25.3454">
    <comp name="--.HHE">
      <acc value="0.1352290056" flag="0"/>
      <vel value="0.0480544387" flag="0"/>
      <psa03 value="0.2523158550" flag="0"/>
      <psa10 value="0.0339708036" flag="0"/>
      <psa30 value="0.0045703170" flag="0"/>
    </comp>
    <comp name="--.HHN">
      <acc value="0.1553225112" flag="0"/>
      <vel value="0.0678314826" flag="0"/>
      <psa03 value="0.3166146056" flag="0"/>
      <psa10 value="0.0265041297" flag="0"/>
      <psa30 value="0.0029818010" flag="0"/>
    </comp>
    <comp name="--.HHZ">
      <acc value="0.1105974949" flag="0"/>
      <vel value="0.0272426188" flag="0"/>
      <psa03 value="0.1260422185" flag="0"/>
      <psa10 value="0.0141023418" flag="0"/>
      <psa30 value="0.0023376923" flag="0"/>
    </comp>
  </station>
  <station code="THERA" name="THERA" netid="HL" insttype="120" lat="36.367" lon="25.4753">
    <comp name="--.HHE">
      <acc value="0.2012713477" flag="0"/>
      <vel value="0.0443080591" flag="0"/>
      <psa03 value="0.2620418367" flag="0"/>
      <psa10 value="0.0161924015" flag="0"/>
      <psa30 value="0.0017336730" flag="0"/>
    </comp>
    <comp name="--.HHN">
      <acc value="0.2285353505" flag="0"/>
      <vel value="0.0513585764" flag="0"/>
      <psa03 value="0.3571066232" flag="0"/>
      <psa10 value="0.0174646792" flag="0"/>
      <psa30 value="0.0015429502" flag="0"/>
    </comp>
    <comp name="--.HHZ">
      <acc value="0.1386868960" flag="0"/>
      <vel value="0.0254474487" flag="0"/>
      <psa03 value="0.1325724169" flag="0"/>
      <psa10 value="0.0104594377" flag="0"/>
      <psa30 value="0.0011122554" flag="0"/>
    </comp>
  </station>
  <station code="THRA" name="THRA" netid="HL" insttype="CMG-5" lat="36.415" lon="25.4324">
    <comp name="00.HNE">
      <acc value="0.4266523853" flag="0"/>
      <vel value="0.1285525994" flag="0"/>
      <psa03 value="0.9173898179" flag="0"/>
      <psa10 value="0.0490893802" flag="0"/>
      <psa30 value="0.0062881068" flag="0"/>
    </comp>
    <comp name="00.HNZ">
      <acc value="0.3447521003" flag="0"/>
      <vel value="0.0773575365" flag="0"/>
      <psa03 value="0.5277597583" flag="0"/>
      <psa10 value="0.0249277686" flag="0"/>
      <psa30 value="0.0028785195" flag="0"/>
    </comp>
    <comp name="00.HNN">
      <acc value="0.3271661797" flag="0"/>
      <vel value="0.1013841290" flag="0"/>
      <psa03 value="0.6989882467" flag="0"/>
      <psa10 value="0.0831835744" flag="0"/>
      <psa30 value="0.0050353580" flag="0"/>
    </comp>
  </station>
  <station code="AKRO" name="AKRO" netid="HT" insttype="Compact," lat="36.3584" lon="25.3967">
    <comp name="--.HHE">
      <acc value="0.5495205716" flag="0"/>
      <vel value="0.1551716845" flag="0"/>
      <psa03 value="0.6258079261" flag="0"/>
      <psa10 value="0.0395501636" flag="0"/>
      <psa30 value="0.0035485297" flag="0"/>
    </comp>
    <comp name="--.HHN">
      <acc value="0.5463335939" flag="0"/>
      <vel value="0.0950287078" flag="0"/>
      <psa03 value="0.4090685552" flag="0"/>
      <psa10 value="0.0318878021" flag="0"/>
      <psa30 value="0.0023191516" flag="0"/>
    </comp>
    <comp name="--.HHZ">
      <acc value="0.3125607265" flag="0"/>
      <vel value="0.0604947426" flag="0"/>
      <psa03 value="0.3803641655" flag="0"/>
      <psa10 value="0.0198055200" flag="0"/>
      <psa30 value="0.0019002307" flag="0"/>
    </comp>
  </station>
  <station code="CMBO" name="CMBO" netid="HT" insttype="120P," lat="36.4709" lon="25.4056">
    <comp name="--.HHE">
      <acc value="0.1467329522" flag="0"/>
      <vel value="0.0682701897" flag="0"/>
      <psa03 value="0.2530025264" flag="0"/>
      <psa10 value="0.0360579763" flag="0"/>
      <psa30 value="0.0028133664" flag="0"/>
    </comp>
    <comp name="--.HHZ">
      <acc value="0.1646975669" flag="0"/>
      <vel value="0.0394116763" flag="0"/>
      <psa03 value="0.3243871540" flag="0"/>
      <psa10 value="0.0143053264" flag="0"/>
      <psa30 value="0.0017115019" flag="0"/>
    </comp>
    <comp name="--.HHN">
      <acc value="0.2357164494" flag="0"/>
      <vel value="0.0630681758" flag="0"/>
      <psa03 value="0.4744705882" flag="0"/>
      <psa10 value="0.0462995537" flag="0"/>
      <psa30 value="0.0033899792" flag="0"/>
    </comp>
  </station>
</stationlist>
