<?xml version="1.0" encoding="UTF-8" standalone="yes"?>
<!DOCTYPE earthquake SYSTEM "stationlist.dtd">
<stationlist created="" xmlns="ch.ethz.sed.shakemap.usgs.xml">
  <station code="APE" name="APE" netid="GE" insttype="STS-2/N" lat="37.0727" lon="25.523">
    <comp name="--.HHE">
      <acc value="0.1089857349" flag="0"/>
      <vel value="0.0343582013" flag="0"/>
      <psa03 value="0.2068341644" flag="0"/>
      <psa10 value="0.0137298780" flag="0"/>
      <psa30 value="0.0018350222" flag="0"/>
    </comp>
    <comp name="--.HHN">
      <acc value="0.1249117654" flag="0"/>
      <vel value="0.0289593497" flag="0"/>
      <psa03 value="0.0996714708" flag="0"/>
      <psa10 value="0.0174656637" flag="0"/>
      <psa30 value="0.0024654419" flag="0"/>
    </comp>
    <comp name="--.HHZ">
      <acc value="0.0708767119" flag="0"/>
      <vel value="0.0162907144" flag="0"/>
      <psa03 value="0.0784446166" flag="0"/>
      <psa10 value="0.0114432344" flag="0"/>
      <psa30 value="0.0023745552" flag="0"/>
    </comp>
  </station>
  <station code="THERA" name="THERA" netid="GE" insttype="STS-2/N" lat="36.367" lon="25.4753">
    <comp name="--.HHE">
      <acc value="0.2052215678" flag="0"/>
      <vel value="0.0455570738" flag="0"/>
      <psa03 value="0.2698793238" flag="0"/>
      <psa10 value="0.0164399656" flag="0"/>
      <psa30 value="0.0017483169" flag="0"/>
    </comp>
    <comp name="--.HHN">
      <acc value="0.1173878779" flag="0"/>
      <vel value="0.0260247703" flag="0"/>
      <psa03 value="0.1839920110" flag="0"/>
      <psa10 value="0.0088902448" flag="0"/>
      <psa30 value="0.0007831701" flag="0"/>
    </comp>
    <comp name="--.HHZ">
      <acc value="0.1383892967" flag="0"/>
      <vel value="0.0260752023" flag="0"/>
      <psa03 value="0.1361409619" flag="0"/>
      <psa10 value="0.0105977118" flag="0"/>
      <psa30 value="0.0011123219" flag="0"/>
    </comp>
  </station>
</stationlist>
