<?xml version="1.0" encoding="UTF-8" standalone="yes"?>
<!DOCTYPE earthquake SYSTEM "stationlist.dtd">
<stationlist created="" xmlns="ch.ethz.sed.shakemap.usgs.xml">
  <station code="THERA" name="THERA" netid="GE" insttype="STS-2/N" lat="36.367" lon="25.4753">
    <comp name="--.HHZ">
      <acc value="0.2626428615" flag="0"/>
      <vel value="0.0692271600" flag="0"/>
      <psa03 value="0.2188456295" flag="0"/>
      <psa10 value="0.0325778688" flag="0"/>
      <psa30 value="0.0029725390" flag="0"/>
    </comp>
    <comp name="--.HHN">
      <acc value="0.1754942482" flag="0"/>
      <vel value="0.0398491874" flag="0"/>
      <psa03 value="0.2577857917" flag="0"/>
      <psa10 value="0.0142284720" flag="0"/>
      <psa30 value="0.0009932776" flag="0"/>
    </comp>
    <comp name="--.HHE">
      <acc value="0.3094806861" flag="0"/>
      <vel value="0.0640117322" flag="0"/>
      <psa03 value="0.3381913860" flag="0"/>
      <psa10 value="0.0255638059" flag="0"/>
      <psa30 value="0.0030423755" flag="0"/>
    </comp>
  </station>
</stationlist>
