<?xml version="1.0" encoding="UTF-8" standalone="yes"?>
<!DOCTYPE earthquake SYSTEM "stationlist.dtd">
<stationlist created="" xmlns="ch.ethz.sed.shakemap.usgs.xml">
  <station code="APE" name="APE" netid="GE" insttype="STS-2/N" lat="37.0727" lon="25.523">
    <comp name="--.HHE">
      <acc value="0.3115342564" flag="0"/>
      <vel value="0.0606799988" flag="0"/>
      <psa03 value="0.2170521386" flag="0"/>
      <psa10 value="0.0173884702" flag="0"/>
      <psa30 value="0.0032963565" flag="0"/>
    </comp>
    <comp name="--.HHZ">
      <acc value="0.1699772126" flag="0"/>
      <vel value="0.0226488301" flag="0"/>
      <psa03 value="0.1084730226" flag="0"/>
      <psa10 value="0.0226428660" flag="0"/>
      <psa30 value="0.0035282315" flag="0"/>
    </comp>
    <comp name="--.HHN">
      <acc value="0.3715360782" flag="0"/>
      <vel value="0.0591591090" flag="0"/>
      <psa03 value="0.1554307958" flag="0"/>
      <psa10 value="0.0195211394" flag="0"/>
      <psa30 value="0.0033805017" flag="0"/>
    </comp>
  </station>
  <station code="THERA" name="THERA" netid="GE" insttype="STS-2/N" lat="36.367" lon="25.4753">
    <comp name="--.HHN">
      <acc value="0.1754942483" flag="0"/>
      <vel value="0.0398491932" flag="0"/>
      <psa03 value="0.2577857917" flag="0"/>
      <psa10 value="0.0142284706" flag="0"/>
      <psa30 value="0.0009923736" flag="0"/>
    </comp>
    <comp name="--.HHE">
      <acc value="0.3094806855" flag="0"/>
      <vel value="0.0640117437" flag="0"/>
      <psa03 value="0.3381913860" flag="0"/>
      <psa10 value="0.0255639217" flag="0"/>
      <psa30 value="0.0030436239" flag="0"/>
    </comp>
    <comp name="--.HHZ">
      <acc value="0.2626428613" flag="0"/>
      <vel value="0.0692271583" flag="0"/>
      <psa03 value="0.2188456295" flag="0"/>
      <psa10 value="0.0325779126" flag="0"/>
      <psa30 value="0.0029721199" flag="0"/>
    </comp>
  </station>
</stationlist>
