<?xml version="1.0" encoding="UTF-8" standalone="yes"?>
<!DOCTYPE earthquake SYSTEM "stationlist.dtd">
<stationlist created="" xmlns="ch.ethz.sed.shakemap.usgs.xml">
  <station code="AKS" name="AKS" netid="KO" insttype="CMG-5T" commtype="DIG" lat="38.8785" lon="27.8129">
    <comp name="--.HNN">
      <acc value="0.1158987515" flag="0"/>
      <vel value="0.0376568294" flag="0"/>
      <psa03 value="0.1598535686" flag="0"/>
      <psa10 value="0.0317782578" flag="0"/>
      <psa30 value="0.0090677790" flag="0"/>
    </comp>
    <comp name="--.HNE">
      <acc value="0.1486384978" flag="0"/>
      <vel value="0.0317356240" flag="0"/>
      <psa03 value="0.2015134555" flag="0"/>
      <psa10 value="0.0319210318" flag="0"/>
      <psa30 value="0.0054338899" flag="0"/>
    </comp>
    <comp name="--.HNZ">
      <acc value="0.0667099204" flag="0"/>
      <vel value="0.0148308416" flag="0"/>
      <psa03 value="0.0712896665" flag="0"/>
      <psa10 value="0.0169686140" flag="0"/>
      <psa30 value="0.0054067646" flag="0"/>
    </comp>
  </station>
  <station code="BALB" name="BALB" netid="KO" insttype="CMG-5T" commtype="DIG" lat="39.6507" lon="27.8642">
    <comp name="--.HNE">
      <acc value="0.1782615578" flag="0"/>
      <vel value="0.0503129631" flag="0"/>
      <psa03 value="0.2063046881" flag="0"/>
      <psa10 value="0.0643189484" flag="0"/>
      <psa30 value="0.0062430964" flag="0"/>
    </comp>
    <comp name="--.HNZ">
      <acc value="0.0856424017" flag="0"/>
      <vel value="0.0346113193" flag="0"/>
      <psa03 value="0.1289405787" flag="0"/>
      <psa10 value="0.0288680663" flag="0"/>
      <psa30 value="0.0058574182" flag="0"/>
    </comp>
    <comp name="--.HNN">
      <acc value="0.1624714825" flag="0"/>
      <vel value="0.0552593148" flag="0"/>
      <psa03 value="0.2128564518" flag="0"/>
      <psa10 value="0.0856558318" flag="0"/>
      <psa30 value="0.0065016772" flag="0"/>
    </comp>
  </station>
  <station code="DKL" name="DKL" netid="KO" insttype="CMG-3ESPC" commtype="DIG" lat="39.0713" lon="26.9053">
    <comp name="--.HHE">
      <acc value="0.0119806207" flag="0"/>
      <vel value="0.0105957851" flag="0"/>
      <psa03 value="0.0263513254" flag="0"/>
      <psa10 value="0.0104822231" flag="0"/>
      <psa30 value="0.0021247926" flag="0"/>
    </comp>
    <comp name="--.HHN">
      <acc value="0.0168870582" flag="0"/>
      <vel value="0.0156753482" flag="0"/>
      <psa03 value="0.0288013841" flag="0"/>
      <psa10 value="0.0165045431" flag="0"/>
      <psa30 value="0.0019407603" flag="0"/>
    </comp>
    <comp name="--.HHZ">
      <acc value="0.0113065970" flag="0"/>
      <vel value="0.0058044389" flag="0"/>
      <psa03 value="0.0219377825" flag="0"/>
      <psa10 value="0.0072160545" flag="0"/>
      <psa30 value="0.0018465994" flag="0"/>
    </comp>
  </station>
  <station code="DST" name="DST" netid="KO" insttype="CMG-5T" commtype="DIG" lat="39.6041" lon="28.6267">
    <comp name="--.HNZ">
      <acc value="0.0809055068" flag="0"/>
      <vel value="0.0219110229" flag="0"/>
      <psa03 value="0.1003409508" flag="0"/>
      <psa10 value="0.0218699437" flag="0"/>
      <psa30 value="0.0051564115" flag="0"/>
    </comp>
    <comp name="--.HNN">
      <acc value="0.1108243029" flag="0"/>
      <vel value="0.0408612447" flag="0"/>
      <psa03 value="0.0941830444" flag="0"/>
      <psa10 value="0.0343333777" flag="0"/>
      <psa30 value="0.0039643675" flag="0"/>
    </comp>
    <comp name="--.HNE">
      <acc value="0.0903298704" flag="0"/>
      <vel value="0.0349472663" flag="0"/>
      <psa03 value="0.1436743733" flag="0"/>
      <psa10 value="0.0367860071" flag="0"/>
      <psa30 value="0.0036890807" flag="0"/>
    </comp>
  </station>
  <station code="GOMA" name="GOMA" netid="KO" insttype="CMG-5T" commtype="DIG" lat="38.7077" lon="27.9175">
    <comp name="--.HNN">
      <acc value="0.0953951264" flag="0"/>
      <vel value="0.0389366833" flag="0"/>
      <psa03 value="0.1809133100" flag="0"/>
      <psa10 value="0.0323106208" flag="0"/>
      <psa30 value="0.0050208212" flag="0"/>
    </comp>
    <comp name="--.HNE">
      <acc value="0.1197969343" flag="0"/>
      <vel value="0.0528499718" flag="0"/>
      <psa03 value="0.1931128501" flag="0"/>
      <psa10 value="0.0604318446" flag="0"/>
      <psa30 value="0.0034063437" flag="0"/>
    </comp>
    <comp name="--.HNZ">
      <acc value="0.0962991196" flag="0"/>
      <vel value="0.0285183587" flag="0"/>
      <psa03 value="0.1385665111" flag="0"/>
      <psa10 value="0.0151065118" flag="0"/>
      <psa30 value="0.0042222122" flag="0"/>
    </comp>
  </station>
  <station code="GONE" name="GONE" netid="KO" insttype="CMG-5T" commtype="DIG" lat="40.0466" lon="27.686">
    <comp name="--.HNE">
      <acc value="0.0523567327" flag="0"/>
      <vel value="0.0262663480" flag="0"/>
      <psa03 value="0.0774090824" flag="0"/>
      <psa10 value="0.0371692568" flag="0"/>
      <psa30 value="0.0023199458" flag="0"/>
    </comp>
    <comp name="--.HNN">
      <acc value="0.0754451979" flag="0"/>
      <vel value="0.0355001136" flag="0"/>
      <psa03 value="0.2112618721" flag="0"/>
      <psa10 value="0.0273257611" flag="0"/>
      <psa30 value="0.0035524071" flag="0"/>
    </comp>
    <comp name="--.HNZ">
      <acc value="0.0423296245" flag="0"/>
      <vel value="0.0109213459" flag="0"/>
      <psa03 value="0.0466737130" flag="0"/>
      <psa10 value="0.0105759908" flag="0"/>
      <psa30 value="0.0011375477" flag="0"/>
    </comp>
  </station>
  <station code="GORD" name="GORD" netid="KO" insttype="CMG-5T" commtype="DIG" lat="38.9088" lon="28.1769">
    <comp name="--.HNE">
      <acc value="0.0856993600" flag="0"/>
      <vel value="0.0833381066" flag="0"/>
      <psa03 value="0.2135949774" flag="0"/>
      <psa10 value="0.1312131973" flag="0"/>
      <psa30 value="0.0209057170" flag="0"/>
    </comp>
    <comp name="--.HNN">
      <acc value="0.1218917237" flag="0"/>
      <vel value="0.0772795369" flag="0"/>
      <psa03 value="0.2246872483" flag="0"/>
      <psa10 value="0.1373009079" flag="0"/>
      <psa30 value="0.0101554634" flag="0"/>
    </comp>
    <comp name="--.HNZ">
      <acc value="0.0941365614" flag="0"/>
      <vel value="0.0409729741" flag="0"/>
      <psa03 value="0.1384283028" flag="0"/>
      <psa10 value="0.0565519130" flag="0"/>
      <psa30 value="0.0090340929" flag="0"/>
    </comp>
  </station>
  <station code="KCTX" name="KCTX" netid="KO" insttype="CMG-3ESP" commtype="DIG" lat="40.2626" lon="28.3353">
    <comp name="--.HHZ">
      <acc value="0.0344447662" flag="0"/>
      <vel value="0.0144870892" flag="0"/>
      <psa03 value="0.0367277711" flag="0"/>
      <psa10 value="0.0116793120" flag="0"/>
      <psa30 value="0.0008832190" flag="0"/>
    </comp>
    <comp name="--.HHE">
      <acc value="0.0586050515" flag="0"/>
      <vel value="0.0342524996" flag="0"/>
      <psa03 value="0.0590699418" flag="0"/>
      <psa10 value="0.0488946709" flag="0"/>
      <psa30 value="0.0031813519" flag="0"/>
    </comp>
    <comp name="--.HHN">
      <acc value="0.0720690181" flag="0"/>
      <vel value="0.0242185996" flag="0"/>
      <psa03 value="0.0979339952" flag="0"/>
      <psa10 value="0.0221543752" flag="0"/>
      <psa30 value="0.0015797637" flag="0"/>
    </comp>
  </station>
  <station code="KULA" name="KULA" netid="KO" insttype="CMG-3T" commtype="DIG" lat="38.5145" lon="28.6607">
    <comp name="--.HHN">
      <acc value="0.0470822312" flag="0"/>
      <vel value="0.0184288003" flag="0"/>
      <psa03 value="0.0468444951" flag="0"/>
      <psa10 value="0.0171906821" flag="0"/>
      <psa30 value="0.0014872616" flag="0"/>
    </comp>
    <comp name="--.HHE">
      <acc value="0.0534620823" flag="0"/>
      <vel value="0.0260936595" flag="0"/>
      <psa03 value="0.0729847637" flag="0"/>
      <psa10 value="0.0300494251" flag="0"/>
      <psa30 value="0.0022922351" flag="0"/>
    </comp>
  </station>
  <station code="ORLT" name="ORLT" netid="KO" insttype="CMG-5T" commtype="DIG" lat="40.0452" lon="28.8914">
    <comp name="--.HNE">
      <acc value="0.1316567062" flag="0"/>
      <vel value="0.0532598316" flag="0"/>
      <psa03 value="0.2115689069" flag="0"/>
      <psa10 value="0.0706480310" flag="0"/>
      <psa30 value="0.0041269601" flag="0"/>
    </comp>
    <comp name="--.HNZ">
      <acc value="0.0525560691" flag="0"/>
      <vel value="0.0459807896" flag="0"/>
      <psa03 value="0.0981772396" flag="0"/>
      <psa10 value="0.0573095615" flag="0"/>
      <psa30 value="0.0057084187" flag="0"/>
    </comp>
    <comp name="--.HNN">
      <acc value="0.1322988046" flag="0"/>
      <vel value="0.0711568617" flag="0"/>
      <psa03 value="0.3231921747" flag="0"/>
      <psa10 value="0.1183011026" flag="0"/>
      <psa30 value="0.0070957443" flag="0"/>
    </comp>
  </station>
  <station code="SHAP" name="SHAP" netid="KO" insttype="CMG-5T" commtype="DIG" lat="39.0231" lon="29.222">
    <comp name="--.HNZ">
      <acc value="0.0564990349" flag="0"/>
      <vel value="0.0214634972" flag="0"/>
      <psa03 value="0.0760131364" flag="0"/>
      <psa10 value="0.0193780457" flag="0"/>
      <psa30 value="0.0012345102" flag="0"/>
    </comp>
    <comp name="--.HNE">
      <acc value="0.0771022346" flag="0"/>
      <vel value="0.0429977288" flag="0"/>
      <psa03 value="0.1607760896" flag="0"/>
      <psa10 value="0.0237044011" flag="0"/>
      <psa30 value="0.0022087474" flag="0"/>
    </comp>
    <comp name="--.HNN">
      <acc value="0.1146320951" flag="0"/>
      <vel value="0.0392583073" flag="0"/>
      <psa03 value="0.1248350621" flag="0"/>
      <psa10 value="0.0275612377" flag="0"/>
      <psa30 value="0.0027946592" flag="0"/>
    </comp>
  </station>
  <station code="SIMA" name="SIMA" netid="KO" insttype="CMG-6T" commtype="DIG" lat="39.0833" lon="28.9825">
    <comp name="--.HHE">
      <acc value="0.1508949325" flag="0"/>
      <vel value="0.0446170133" flag="0"/>
      <psa03 value="0.2401801859" flag="0"/>
      <psa10 value="0.0152340092" flag="0"/>
      <psa30 value="0.0028079609" flag="0"/>
    </comp>
    <comp name="--.HHN">
      <acc value="0.1363218511" flag="0"/>
      <vel value="0.0823469972" flag="0"/>
      <psa03 value="0.4507527379" flag="0"/>
      <psa10 value="0.0242484637" flag="0"/>
      <psa30 value="0.0024102528" flag="0"/>
    </comp>
    <comp name="--.HHZ">
      <acc value="0.0697713706" flag="0"/>
      <vel value="0.0204109016" flag="0"/>
      <psa03 value="0.1499394687" flag="0"/>
      <psa10 value="0.0118308637" flag="0"/>
      <psa30 value="0.0018834926" flag="0"/>
    </comp>
  </station>
  <station code="SMAA" name="SMAA" netid="KO" insttype="CMG-5T" commtype="DIG" lat="39.1005" lon="28.9805">
    <comp name="--.HNE">
      <acc value="0.1581140562" flag="0"/>
      <vel value="0.0928074247" flag="0"/>
      <psa03 value="0.4914689814" flag="0"/>
      <psa10 value="0.0970282579" flag="0"/>
      <psa30 value="0.0126883992" flag="0"/>
    </comp>
    <comp name="--.HNN">
      <acc value="0.1474723409" flag="0"/>
      <vel value="0.0991837255" flag="0"/>
      <psa03 value="0.6673645339" flag="0"/>
      <psa10 value="0.0944905598" flag="0"/>
      <psa30 value="0.0095725815" flag="0"/>
    </comp>
    <comp name="--.HNZ">
      <acc value="0.0459153677" flag="0"/>
      <vel value="0.0282101029" flag="0"/>
      <psa03 value="0.0943230812" flag="0"/>
      <psa10 value="0.0878353746" flag="0"/>
      <psa30 value="0.0034283102" flag="0"/>
    </comp>
  </station>
  <station code="SOMA" name="SOMA" netid="KO" insttype="CMG-5T" commtype="DIG" lat="39.1564" lon="27.5341">
    <comp name="--.HNE">
      <acc value="0.0893216258" flag="0"/>
      <vel value="0.0302285393" flag="0"/>
      <psa03 value="0.1464931352" flag="0"/>
      <psa10 value="0.0284293647" flag="0"/>
      <psa30 value="0.0059996521" flag="0"/>
    </comp>
    <comp name="--.HNN">
      <acc value="0.0871031236" flag="0"/>
      <vel value="0.0573057216" flag="0"/>
      <psa03 value="0.1687150365" flag="0"/>
      <psa10 value="0.0540148639" flag="0"/>
      <psa30 value="0.0045812915" flag="0"/>
    </comp>
    <comp name="--.HNZ">
      <acc value="0.1153144671" flag="0"/>
      <vel value="0.0282448166" flag="0"/>
      <psa03 value="0.0886481658" flag="0"/>
      <psa10 value="0.0244437091" flag="0"/>
      <psa30 value="0.0049127086" flag="0"/>
    </comp>
  </station>
  <station code="SUSR" name="SUSR" netid="KO" insttype="CMG-5T" commtype="DIG" lat="39.9627" lon="28.0835">
    <comp name="--.HNE">
      <acc value="0.0763018031" flag="0"/>
      <vel value="0.0167942902" flag="0"/>
      <psa03 value="0.1270465209" flag="0"/>
      <psa10 value="0.0126091056" flag="0"/>
      <psa30 value="0.0014845369" flag="0"/>
    </comp>
    <comp name="--.HNN">
      <acc value="0.0629926761" flag="0"/>
      <vel value="0.0220709931" flag="0"/>
      <psa03 value="0.1175946034" flag="0"/>
      <psa10 value="0.0110365025" flag="0"/>
      <psa30 value="0.0021370957" flag="0"/>
    </comp>
    <comp name="--.HNZ">
      <acc value="0.0577000873" flag="0"/>
      <vel value="0.0161748262" flag="0"/>
      <psa03 value="0.0687884636" flag="0"/>
      <psa10 value="0.0137397052" flag="0"/>
      <psa30 value="0.0034119632" flag="0"/>
    </comp>
  </station>
  <station code="TVSB" name="TVSB" netid="KO" insttype="CMG-3T" commtype="DIG" lat="39.4497" lon="29.4615">
    <comp name="--.HHE">
      <acc value="0.0988511801" flag="0"/>
      <vel value="0.0533936840" flag="0"/>
      <psa03 value="0.2478157327" flag="0"/>
      <psa10 value="0.0426573437" flag="0"/>
      <psa30 value="0.0023229796" flag="0"/>
    </comp>
    <comp name="--.HHN">
      <acc value="0.0728649976" flag="0"/>
      <vel value="0.0348593568" flag="0"/>
      <psa03 value="0.2255790693" flag="0"/>
      <psa10 value="0.0171400379" flag="0"/>
      <psa30 value="0.0024404258" flag="0"/>
    </comp>
    <comp name="--.HHZ">
      <acc value="0.0462535846" flag="0"/>
      <vel value="0.0184742982" flag="0"/>
      <psa03 value="0.0916631550" flag="0"/>
      <psa10 value="0.0128039646" flag="0"/>
      <psa30 value="0.0022519310" flag="0"/>
    </comp>
  </station>
  <station code="YAYO" name="YAYO" netid="KO" insttype="CMG-6T" commtype="DIG" lat="39.6113" lon="27.0726">
    <comp name="--.HHN">
      <acc value="0.0476090060" flag="0"/>
      <vel value="0.0170161262" flag="0"/>
      <psa03 value="0.1020830450" flag="0"/>
      <psa10 value="0.0236827509" flag="0"/>
      <psa30 value="0.0014384419" flag="0"/>
    </comp>
    <comp name="--.HHE">
      <acc value="0.0380570414" flag="0"/>
      <vel value="0.0246999050" flag="0"/>
      <psa03 value="0.0678962470" flag="0"/>
      <psa10 value="0.0224206889" flag="0"/>
      <psa30 value="0.0015799069" flag="0"/>
    </comp>
    <comp name="--.HHZ">
      <acc value="0.0289227036" flag="0"/>
      <vel value="0.0109375474" flag="0"/>
      <psa03 value="0.0584516733" flag="0"/>
      <psa10 value="0.0084427070" flag="0"/>
      <psa30 value="0.0014164757" flag="0"/>
    </comp>
  </station>
  <station code="YENI" name="YENI" netid="KO" insttype="CMG-5T" commtype="DIG" lat="39.9364" lon="27.2422">
    <comp name="--.HNE">
      <acc value="0.0845731788" flag="0"/>
      <vel value="0.0293744194" flag="0"/>
      <psa03 value="0.1778971663" flag="0"/>
      <psa10 value="0.0202172940" flag="0"/>
      <psa30 value="0.0029589666" flag="0"/>
    </comp>
    <comp name="--.HNN">
      <acc value="0.0773580234" flag="0"/>
      <vel value="0.0215354391" flag="0"/>
      <psa03 value="0.1037909554" flag="0"/>
      <psa10 value="0.0210633651" flag="0"/>
      <psa30 value="0.0013030754" flag="0"/>
    </comp>
    <comp name="--.HNZ">
      <acc value="0.0385719923" flag="0"/>
      <vel value="0.0128166950" flag="0"/>
      <psa03 value="0.0412622768" flag="0"/>
      <psa10 value="0.0074886739" flag="0"/>
      <psa30 value="0.0020169724" flag="0"/>
    </comp>
  </station>
</stationlist>
