<?xml version="1.0" encoding="UTF-8" standalone="yes"?>
<!DOCTYPE earthquake SYSTEM "stationlist.dtd">
<stationlist created="" xmlns="ch.ethz.sed.shakemap.usgs.xml">
  <station code="GAZ" name="GAZ" netid="KO" insttype="CMG-3T" lat="37.1721" lon="37.2096">
    <comp name="--.HHZ">
      <acc value="0.0112026202" flag="0"/>
      <vel value="0.0061253399" flag="0"/>
      <psa03 value="0.0330966578" flag="0"/>
      <psa10 value="0.0028151223" flag="0"/>
      <psa30 value="0.0002180233" flag="0"/>
    </comp>
    <comp name="--.HHN">
      <acc value="0.0154847319" flag="0"/>
      <vel value="0.0072821594" flag="0"/>
      <psa03 value="0.0439023617" flag="0"/>
      <psa10 value="0.0051423804" flag="0"/>
      <psa30 value="0.0005019865" flag="0"/>
    </comp>
  </station>
  <station code="ANDN" name="ANDN" netid="TU" insttype="T" lat="37.58" lon="36.3452">
    <comp name="--.HHZ">
      <acc value="0.1109627085" flag="0"/>
      <vel value="0.0512334901" flag="0"/>
      <psa03 value="0.2520089123" flag="0"/>
      <psa10 value="0.0424106647" flag="0"/>
      <psa30 value="0.0022417727" flag="0"/>
    </comp>
    <comp name="--.HHN">
      <acc value="0.4567332698" flag="0"/>
      <vel value="0.1154608680" flag="0"/>
      <psa03 value="0.6529771008" flag="0"/>
      <psa10 value="0.0561843896" flag="0"/>
      <psa30 value="0.0047971408" flag="0"/>
    </comp>
    <comp name="--.HHE">
      <acc value="0.2891373303" flag="0"/>
      <vel value="0.0946783544" flag="0"/>
      <psa03 value="0.4122281326" flag="0"/>
      <psa10 value="0.0321315939" flag="0"/>
      <psa30 value="0.0034668366" flag="0"/>
    </comp>
  </station>
</stationlist>
