<?xml version="1.0" encoding="UTF-8" standalone="yes"?>
<!DOCTYPE earthquake SYSTEM "stationlist.dtd">
<stationlist created="" xmlns="ch.ethz.sed.shakemap.usgs.xml">
  <station code="DARE" name="DARE" netid="KO" insttype="CMG-3ESP" lat="38.5712" lon="37.4832">
    <comp name="--.HHZ">
      <acc value="0.0353226157" flag="0"/>
      <vel value="0.0086695498" flag="0"/>
      <psa03 value="0.0347998248" flag="0"/>
      <psa10 value="0.0056793569" flag="0"/>
      <psa30 value="0.0004918200" flag="0"/>
    </comp>
  </station>
  <station code="GAZ" name="GAZ" netid="KO" insttype="CMG-3T" lat="37.1721" lon="37.2096">
    <comp name="--.HHN">
      <acc value="0.0083277434" flag="0"/>
      <vel value="0.0039393754" flag="0"/>
      <psa03 value="0.0254185665" flag="0"/>
      <psa10 value="0.0028925063" flag="0"/>
      <psa30 value="0.0002058399" flag="0"/>
    </comp>
  </station>
  <station code="KHMN" name="KHMN" netid="KO" insttype="CMG-5T" lat="37.3916" lon="37.1574">
    <comp name="--.HNN">
      <acc value="0.0258014921" flag="0"/>
      <vel value="0.0047486648" flag="0"/>
      <psa03 value="0.0209349196" flag="0"/>
      <psa10 value="0.0028277985" flag="0"/>
      <psa30 value="0.0004978187" flag="0"/>
    </comp>
    <comp name="--.HNE">
      <acc value="0.0350141817" flag="0"/>
      <vel value="0.0055474490" flag="0"/>
      <psa03 value="0.0357555262" flag="0"/>
      <psa10 value="0.0028278543" flag="0"/>
      <psa30 value="0.0007820689" flag="0"/>
    </comp>
    <comp name="--.HNZ">
      <acc value="0.0261653369" flag="0"/>
      <vel value="0.0039149246" flag="0"/>
      <psa03 value="0.0155221635" flag="0"/>
      <psa10 value="0.0022162883" flag="0"/>
      <psa30 value="0.0003011852" flag="0"/>
    </comp>
  </station>
  <station code="KMRS" name="KMRS" netid="KO" insttype="CMG-3T" lat="37.5053" lon="36.9">
    <comp name="--.HHE">
      <acc value="0.0147527420" flag="0"/>
      <vel value="0.0061791280" flag="0"/>
      <psa03 value="0.0307671784" flag="0"/>
      <psa10 value="0.0043605302" flag="0"/>
      <psa30 value="0.0003394050" flag="0"/>
    </comp>
    <comp name="--.HHN">
      <acc value="0.0216724676" flag="0"/>
      <vel value="0.0094639093" flag="0"/>
      <psa03 value="0.0535516585" flag="0"/>
      <psa10 value="0.0041926776" flag="0"/>
      <psa30 value="0.0004487169" flag="0"/>
    </comp>
    <comp name="--.HHZ">
      <acc value="0.0128711018" flag="0"/>
      <vel value="0.0038303284" flag="0"/>
      <psa03 value="0.0253089152" flag="0"/>
      <psa10 value="0.0023705534" flag="0"/>
      <psa30 value="0.0002778986" flag="0"/>
    </comp>
  </station>
  <station code="SARI" name="SARI" netid="KO" insttype="CMG-3T" lat="38.4072" lon="36.4181">
    <comp name="--.HHN">
      <acc value="0.0111762245" flag="0"/>
      <vel value="0.0044961692" flag="0"/>
      <psa03 value="0.0375063230" flag="0"/>
      <psa10 value="0.0058200252" flag="0"/>
      <psa30 value="0.0002465327" flag="0"/>
    </comp>
  </station>
  <station code="URFA" name="URFA" netid="KO" insttype="CMG-3ESP" lat="37.4409" lon="38.8213">
    <comp name="--.HHN">
      <acc value="0.0229519120" flag="0"/>
      <vel value="0.0067538566" flag="0"/>
      <psa03 value="0.0343300060" flag="0"/>
      <psa10 value="0.0047623179" flag="0"/>
      <psa30 value="0.0005244602" flag="0"/>
    </comp>
    <comp name="--.HHZ">
      <acc value="0.0183063743" flag="0"/>
      <vel value="0.0075820304" flag="0"/>
      <psa03 value="0.0338619034" flag="0"/>
      <psa10 value="0.0039898655" flag="0"/>
      <psa30 value="0.0003082791" flag="0"/>
    </comp>
  </station>
</stationlist>
