<?xml version="1.0" encoding="UTF-8" standalone="yes"?>
<!DOCTYPE earthquake SYSTEM "stationlist.dtd">
<stationlist created="" xmlns="ch.ethz.sed.shakemap.usgs.xml">
  <station code="RP05B" name="RP05B" netid="5B" insttype="Compact" commtype="DIG" lat="37.6182" lon="21.6541">
    <comp name="--.HHE">
      <acc value="0.0473636385" flag="0"/>
      <vel value="0.0181758691" flag="0"/>
      <psa03 value="0.1263421263" flag="0"/>
      <psa10 value="0.0259361510" flag="0"/>
      <psa30 value="0.0021665941" flag="0"/>
    </comp>
    <comp name="--.HHN">
      <acc value="0.0431156967" flag="0"/>
      <vel value="0.0225423715" flag="0"/>
      <psa03 value="0.1617162873" flag="0"/>
      <psa10 value="0.0258275563" flag="0"/>
      <psa30 value="0.0024760180" flag="0"/>
    </comp>
    <comp name="--.HHZ">
      <acc value="0.0280990908" flag="0"/>
      <vel value="0.0104214221" flag="0"/>
      <psa03 value="0.0513760115" flag="0"/>
      <psa10 value="0.0151496464" flag="0"/>
      <psa30 value="0.0012820843" flag="0"/>
    </comp>
  </station>
  <station code="RP08B" name="RP08B" netid="5B" insttype="Compact" commtype="DIG" lat="37.5664" lon="21.9493">
    <comp name="--.HHE">
      <acc value="0.0066943140" flag="0"/>
      <vel value="0.0044708058" flag="0"/>
      <psa03 value="0.0211787576" flag="0"/>
      <psa10 value="0.0043263776" flag="0"/>
      <psa30 value="0.0004258369" flag="0"/>
    </comp>
    <comp name="--.HHN">
      <acc value="0.0080550017" flag="0"/>
      <vel value="0.0048298124" flag="0"/>
      <psa03 value="0.0176507854" flag="0"/>
      <psa10 value="0.0051436126" flag="0"/>
      <psa30 value="0.0008158874" flag="0"/>
    </comp>
    <comp name="--.HHZ">
      <acc value="0.0056863998" flag="0"/>
      <vel value="0.0021990201" flag="0"/>
      <psa03 value="0.0141324447" flag="0"/>
      <psa10 value="0.0030282741" flag="0"/>
      <psa30 value="0.0003381822" flag="0"/>
    </comp>
  </station>
  <station code="MALA" name="MALA" netid="CL" insttype="TRILLIUM-40" commtype="DIG" lat="38.3934" lon="21.8726">
    <comp name="01.HHE">
      <acc value="0.0341131519" flag="0"/>
      <vel value="0.0237963278" flag="0"/>
      <psa03 value="0.0492563069" flag="0"/>
      <psa10 value="0.0447305695" flag="0"/>
      <psa30 value="0.0018501776" flag="0"/>
    </comp>
    <comp name="01.HHN">
      <acc value="0.0440959708" flag="0"/>
      <vel value="0.0243427542" flag="0"/>
      <psa03 value="0.0473041555" flag="0"/>
      <psa10 value="0.0325423924" flag="0"/>
      <psa30 value="0.0023445328" flag="0"/>
    </comp>
    <comp name="01.HHZ">
      <acc value="0.0110847401" flag="0"/>
      <vel value="0.0066228744" flag="0"/>
      <psa03 value="0.0157204812" flag="0"/>
      <psa10 value="0.0088463878" flag="0"/>
      <psa30 value="0.0009096856" flag="0"/>
    </comp>
  </station>
  <station code="MG06" name="MG06" netid="CL" insttype="TRILLIUM-40" commtype="DIG" lat="38.4129" lon="21.9462">
    <comp name="06.HHE">
      <acc value="0.0145590990" flag="0"/>
      <vel value="0.0063220751" flag="0"/>
      <psa03 value="0.0430893813" flag="0"/>
      <psa10 value="0.0055320908" flag="0"/>
      <psa30 value="0.0007641379" flag="0"/>
    </comp>
    <comp name="06.HHN">
      <acc value="0.0174676259" flag="0"/>
      <vel value="0.0088660457" flag="0"/>
      <psa03 value="0.0331045931" flag="0"/>
      <psa10 value="0.0103207442" flag="0"/>
      <psa30 value="0.0007440441" flag="0"/>
    </comp>
    <comp name="06.HHZ">
      <acc value="0.0112499167" flag="0"/>
      <vel value="0.0033765243" flag="0"/>
      <psa03 value="0.0171956775" flag="0"/>
      <psa10 value="0.0031524368" flag="0"/>
      <psa30 value="0.0006771589" flag="0"/>
    </comp>
  </station>
  <station code="ROD3" name="ROD3" netid="CL" insttype="CMG40-T" commtype="DIG" lat="38.3081" lon="21.892">
    <comp name="00.HHN">
      <acc value="0.0875029092" flag="0"/>
      <vel value="0.0360106315" flag="0"/>
      <psa03 value="0.1917994250" flag="0"/>
      <psa10 value="0.0233984945" flag="0"/>
      <psa30 value="0.0014916345" flag="0"/>
    </comp>
    <comp name="00.HHE">
      <acc value="0.1286212913" flag="0"/>
      <vel value="0.0489948804" flag="0"/>
      <psa03 value="0.2514014176" flag="0"/>
      <psa10 value="0.0220119762" flag="0"/>
      <psa30 value="0.0014453753" flag="0"/>
    </comp>
    <comp name="00.HHZ">
      <acc value="0.0529431210" flag="0"/>
      <vel value="0.0161872848" flag="0"/>
      <psa03 value="0.0418855035" flag="0"/>
      <psa10 value="0.0123106283" flag="0"/>
      <psa30 value="0.0009317902" flag="0"/>
    </comp>
  </station>
  <station code="ZIRI" name="ZIRI" netid="CL" insttype="TRILLIUM-40" commtype="DIG" lat="38.3051" lon="21.9476">
    <comp name="01.HHE">
      <acc value="0.0502893583" flag="0"/>
      <vel value="0.0230103673" flag="0"/>
      <psa03 value="0.0726142139" flag="0"/>
      <psa10 value="0.0180564867" flag="0"/>
      <psa30 value="0.0010334472" flag="0"/>
    </comp>
    <comp name="01.HHN">
      <acc value="0.0622151987" flag="0"/>
      <vel value="0.0352229053" flag="0"/>
      <psa03 value="0.1163564016" flag="0"/>
      <psa10 value="0.0185148521" flag="0"/>
      <psa30 value="0.0016336143" flag="0"/>
    </comp>
    <comp name="01.HHZ">
      <acc value="0.0342521106" flag="0"/>
      <vel value="0.0143080682" flag="0"/>
      <psa03 value="0.0469294684" flag="0"/>
      <psa10 value="0.0063169802" flag="0"/>
      <psa30 value="0.0004440903" flag="0"/>
    </comp>
  </station>
  <station code="ATHR" name="ATHR" netid="HA" insttype="GEOtiny," commtype="DIG" lat="38.3172" lon="20.4165">
    <comp name="--.HHN">
      <acc value="0.2434642777" flag="0"/>
      <vel value="0.0698230730" flag="0"/>
      <psa03 value="0.2566295694" flag="0"/>
      <psa10 value="0.0350498619" flag="0"/>
      <psa30 value="0.0021967645" flag="0"/>
    </comp>
    <comp name="--.HHE">
      <acc value="0.3902244986" flag="0"/>
      <vel value="0.0741192601" flag="0"/>
      <psa03 value="0.1951723515" flag="0"/>
      <psa10 value="0.0425531865" flag="0"/>
      <psa30 value="0.0022585843" flag="0"/>
    </comp>
    <comp name="--.HHZ">
      <acc value="0.3217710890" flag="0"/>
      <vel value="0.0551870369" flag="0"/>
      <psa03 value="0.1954355607" flag="0"/>
      <psa10 value="0.0294772831" flag="0"/>
      <psa30 value="0.0024607930" flag="0"/>
    </comp>
  </station>
  <station code="HAVD" name="HAVD" netid="HA" insttype="GEOtiny," commtype="DIG" lat="38.2036" lon="20.3848">
    <comp name="--.HHZ">
      <acc value="0.7479702313" flag="0"/>
      <vel value="0.0925580077" flag="0"/>
      <psa03 value="0.2137207064" flag="0"/>
      <psa10 value="0.0184178218" flag="0"/>
      <psa30 value="0.0011306867" flag="0"/>
    </comp>
    <comp name="--.HHN">
      <acc value="0.6103106243" flag="0"/>
      <vel value="0.1165714195" flag="0"/>
      <psa03 value="0.2112890035" flag="0"/>
      <psa10 value="0.0490480559" flag="0"/>
      <psa30 value="0.0031129214" flag="0"/>
    </comp>
    <comp name="--.HHE">
      <acc value="0.8549921325" flag="0"/>
      <vel value="0.1104487769" flag="0"/>
      <psa03 value="0.2367894679" flag="0"/>
      <psa10 value="0.0310032686" flag="0"/>
      <psa30 value="0.0016304534" flag="0"/>
    </comp>
  </station>
  <station code="KALE" name="KALE" netid="HA" insttype="40," commtype="DIG" lat="38.3911" lon="22.1398">
    <comp name="--.HHN">
      <acc value="0.0119572287" flag="0"/>
      <vel value="0.0048591153" flag="0"/>
      <psa03 value="0.0174796352" flag="0"/>
      <psa10 value="0.0077225663" flag="0"/>
      <psa30 value="0.0003832385" flag="0"/>
    </comp>
    <comp name="--.HHE">
      <acc value="0.0084178240" flag="0"/>
      <vel value="0.0055401528" flag="0"/>
      <psa03 value="0.0150783090" flag="0"/>
      <psa10 value="0.0085190062" flag="0"/>
      <psa30 value="0.0004891782" flag="0"/>
    </comp>
    <comp name="--.HHZ">
      <acc value="0.0056865881" flag="0"/>
      <vel value="0.0026225738" flag="0"/>
      <psa03 value="0.0108119430" flag="0"/>
      <psa10 value="0.0044793127" flag="0"/>
      <psa30 value="0.0005275512" flag="0"/>
    </comp>
  </station>
  <station code="LAKA" name="LAKA" netid="HA" insttype="120s," commtype="DIG" lat="38.2401" lon="21.9785">
    <comp name="--.HHE">
      <acc value="0.0126980031" flag="0"/>
      <vel value="0.0065691554" flag="0"/>
      <psa03 value="0.0203658972" flag="0"/>
      <psa10 value="0.0118595875" flag="0"/>
      <psa30 value="0.0004231566" flag="0"/>
    </comp>
    <comp name="--.HHZ">
      <acc value="0.0088796404" flag="0"/>
      <vel value="0.0051014143" flag="0"/>
      <psa03 value="0.0160687635" flag="0"/>
      <psa10 value="0.0050401421" flag="0"/>
      <psa30 value="0.0003696151" flag="0"/>
    </comp>
    <comp name="--.HHN">
      <acc value="0.0141786711" flag="0"/>
      <vel value="0.0082304900" flag="0"/>
      <psa03 value="0.0196573432" flag="0"/>
      <psa10 value="0.0101895185" flag="0"/>
      <psa30 value="0.0009851882" flag="0"/>
    </comp>
  </station>
  <station code="AGR3" name="AGR3" netid="HI" insttype="unknown" commtype="DIG" lat="38.5893" lon="21.4162">
    <comp name="--.HNZ">
      <acc value="0.0329461289" flag="0"/>
      <vel value="0.0187897180" flag="0"/>
      <psa03 value="0.1001404238" flag="0"/>
      <psa10 value="0.0325771396" flag="0"/>
      <psa30 value="0.0019257356" flag="0"/>
    </comp>
    <comp name="--.HNE">
      <acc value="0.0849656793" flag="0"/>
      <vel value="0.0452166565" flag="0"/>
      <psa03 value="0.2125635462" flag="0"/>
      <psa10 value="0.0648199941" flag="0"/>
      <psa30 value="0.0030994968" flag="0"/>
    </comp>
    <comp name="--.HNN">
      <acc value="0.0754468967" flag="0"/>
      <vel value="0.0302365232" flag="0"/>
      <psa03 value="0.2313425986" flag="0"/>
      <psa10 value="0.0490488041" flag="0"/>
      <psa30 value="0.0028053737" flag="0"/>
    </comp>
  </station>
  <station code="AKR1" name="AKR1" netid="HI" insttype="unknown" commtype="DIG" lat="38.1536" lon="22.3133">
    <comp name="--.HNE">
      <acc value="0.0146506810" flag="0"/>
      <vel value="0.0114115678" flag="0"/>
      <psa03 value="0.0388469011" flag="0"/>
      <psa10 value="0.0133581977" flag="0"/>
      <psa30 value="0.0008831345" flag="0"/>
    </comp>
    <comp name="--.HNN">
      <acc value="0.0182005237" flag="0"/>
      <vel value="0.0099744548" flag="0"/>
      <psa03 value="0.0437529630" flag="0"/>
      <psa10 value="0.0121001818" flag="0"/>
      <psa30 value="0.0007772497" flag="0"/>
    </comp>
    <comp name="--.HNZ">
      <acc value="0.0070264127" flag="0"/>
      <vel value="0.0050961665" flag="0"/>
      <psa03 value="0.0199212495" flag="0"/>
      <psa10 value="0.0076204266" flag="0"/>
      <psa30 value="0.0005805614" flag="0"/>
    </comp>
  </station>
  <station code="ARG2" name="ARG2" netid="HI" insttype="CMG-5TD,ACCELEROMETER,GURALP" commtype="DIG" lat="38.1783" lon="20.4878">
    <comp name="--.HNZ">
      <acc value="0.7421809032" flag="0"/>
      <vel value="0.1541998174" flag="0"/>
      <psa03 value="0.9560119456" flag="0"/>
      <psa10 value="0.0442714934" flag="0"/>
      <psa30 value="0.0040208036" flag="0"/>
    </comp>
    <comp name="--.HNE">
      <acc value="2.2086128020" flag="0"/>
      <vel value="0.3654015385" flag="0"/>
      <psa03 value="0.8820258041" flag="0"/>
      <psa10 value="0.0416960648" flag="0"/>
      <psa30 value="0.0045287539" flag="0"/>
    </comp>
    <comp name="--.HNN">
      <acc value="1.5858840799" flag="0"/>
      <vel value="0.2747951802" flag="0"/>
      <psa03 value="0.6495951594" flag="0"/>
      <psa10 value="0.1183718102" flag="0"/>
      <psa30 value="0.0058777733" flag="0"/>
    </comp>
  </station>
  <station code="AST1" name="AST1" netid="HI" insttype="unknown" commtype="DIG" lat="38.5416" lon="21.0895">
    <comp name="--.HNE">
      <acc value="0.0838512096" flag="0"/>
      <vel value="0.0291160464" flag="0"/>
      <psa03 value="0.1953313896" flag="0"/>
      <psa10 value="0.0211900711" flag="0"/>
      <psa30 value="0.0018164693" flag="0"/>
    </comp>
    <comp name="--.HNN">
      <acc value="0.0703698060" flag="0"/>
      <vel value="0.0272191331" flag="0"/>
      <psa03 value="0.1350790017" flag="0"/>
      <psa10 value="0.0223540308" flag="0"/>
      <psa30 value="0.0013448051" flag="0"/>
    </comp>
    <comp name="--.HNZ">
      <acc value="0.0502138100" flag="0"/>
      <vel value="0.0204056901" flag="0"/>
      <psa03 value="0.1343643348" flag="0"/>
      <psa10 value="0.0235639107" flag="0"/>
      <psa30 value="0.0013368904" flag="0"/>
    </comp>
  </station>
  <station code="KLV1" name="KLV1" netid="HI" insttype="CMG-5TD,ACCELEROMETER,GURALP" commtype="DIG" lat="38.0326" lon="22.108">
    <comp name="--.HNN">
      <acc value="0.0279987836" flag="0"/>
      <vel value="0.0120137843" flag="0"/>
      <psa03 value="0.0759585720" flag="0"/>
      <psa10 value="0.0146661670" flag="0"/>
      <psa30 value="0.0007126102" flag="0"/>
    </comp>
    <comp name="--.HNE">
      <acc value="0.0259797355" flag="0"/>
      <vel value="0.0117455933" flag="0"/>
      <psa03 value="0.0993157780" flag="0"/>
      <psa10 value="0.0134107949" flag="0"/>
      <psa30 value="0.0005496940" flag="0"/>
    </comp>
    <comp name="--.HNZ">
      <acc value="0.0233241836" flag="0"/>
      <vel value="0.0054976507" flag="0"/>
      <psa03 value="0.0228675742" flag="0"/>
      <psa10 value="0.0100859054" flag="0"/>
      <psa30 value="0.0004435320" flag="0"/>
    </comp>
  </station>
  <station code="KRI1" name="KRI1" netid="HI" insttype="CMG-5TD,ACCELEROMETER,GURALP" commtype="DIG" lat="37.6621" lon="20.8172">
    <comp name="--.HNE">
      <acc value="0.3488107457" flag="0"/>
      <vel value="0.1203507987" flag="0"/>
      <psa03 value="0.6503580524" flag="0"/>
      <psa10 value="0.0266227246" flag="0"/>
      <psa30 value="0.0026402053" flag="0"/>
    </comp>
    <comp name="--.HNN">
      <acc value="0.2522365746" flag="0"/>
      <vel value="0.0956909152" flag="0"/>
      <psa03 value="0.5964399588" flag="0"/>
      <psa10 value="0.0607278029" flag="0"/>
      <psa30 value="0.0031466816" flag="0"/>
    </comp>
    <comp name="--.HNZ">
      <acc value="0.1412835570" flag="0"/>
      <vel value="0.0442623084" flag="0"/>
      <psa03 value="0.2494484697" flag="0"/>
      <psa10 value="0.0189649846" flag="0"/>
      <psa30 value="0.0012889261" flag="0"/>
    </comp>
  </station>
  <station code="LEF2" name="LEF2" netid="HI" insttype="unknown" commtype="DIG" lat="38.8301" lon="20.7083">
    <comp name="--.HNZ">
      <acc value="0.0498182193" flag="0"/>
      <vel value="0.0352556823" flag="0"/>
      <psa03 value="0.1261358398" flag="0"/>
      <psa10 value="0.0516104005" flag="0"/>
      <psa30 value="0.0045266216" flag="0"/>
    </comp>
    <comp name="--.HNN">
      <acc value="0.0565269915" flag="0"/>
      <vel value="0.0449762807" flag="0"/>
      <psa03 value="0.1976680659" flag="0"/>
      <psa10 value="0.0519539045" flag="0"/>
      <psa30 value="0.0043853904" flag="0"/>
    </comp>
    <comp name="--.HNE">
      <acc value="0.0500884968" flag="0"/>
      <vel value="0.0460681050" flag="0"/>
      <psa03 value="0.1711817306" flag="0"/>
      <psa10 value="0.0517665312" flag="0"/>
      <psa30 value="0.0028707659" flag="0"/>
    </comp>
  </station>
  <station code="LXR2" name="LXR2" netid="HI" insttype="unknown" commtype="DIG" lat="38.2067" lon="20.4364">
    <comp name="--.HNE">
      <acc value="0.9940231122" flag="0"/>
      <vel value="0.1864556352" flag="0"/>
      <psa03 value="0.4971833785" flag="0"/>
      <psa10 value="0.1125939160" flag="0"/>
      <psa30 value="0.0047271457" flag="0"/>
    </comp>
    <comp name="--.HNN">
      <acc value="1.1055576765" flag="0"/>
      <vel value="0.2925942170" flag="0"/>
      <psa03 value="0.8367096064" flag="0"/>
      <psa10 value="0.1633537261" flag="0"/>
      <psa30 value="0.0077786825" flag="0"/>
    </comp>
    <comp name="--.HNZ">
      <acc value="1.3382210170" flag="0"/>
      <vel value="0.1613846462" flag="0"/>
      <psa03 value="0.4316111758" flag="0"/>
      <psa10 value="0.0528215458" flag="0"/>
      <psa30 value="0.0034281093" flag="0"/>
    </comp>
  </station>
  <station code="MSL1" name="MSL1" netid="HI" insttype="CMG-5TD,ACCELEROMETER,GURALP" commtype="DIG" lat="38.3727" lon="21.4243">
    <comp name="--.HNE">
      <acc value="0.1061697020" flag="0"/>
      <vel value="0.0833672823" flag="0"/>
      <psa03 value="0.3564150248" flag="0"/>
      <psa10 value="0.1669236067" flag="0"/>
      <psa30 value="0.0068418957" flag="0"/>
    </comp>
    <comp name="--.HNN">
      <acc value="0.1021369563" flag="0"/>
      <vel value="0.0544987306" flag="0"/>
      <psa03 value="0.2391633480" flag="0"/>
      <psa10 value="0.1131431301" flag="0"/>
      <psa30 value="0.0030145664" flag="0"/>
    </comp>
    <comp name="--.HNZ">
      <acc value="0.0614203130" flag="0"/>
      <vel value="0.0327187757" flag="0"/>
      <psa03 value="0.0963702441" flag="0"/>
      <psa10 value="0.0766623456" flag="0"/>
      <psa30 value="0.0021761711" flag="0"/>
    </comp>
  </station>
  <station code="PRE2" name="PRE2" netid="HI" insttype="unknown" commtype="DIG" lat="38.9577" lon="20.7548">
    <comp name="--.HNE">
      <acc value="0.0412688156" flag="0"/>
      <vel value="0.0302814516" flag="0"/>
      <psa03 value="0.1440066298" flag="0"/>
      <psa10 value="0.0541701713" flag="0"/>
      <psa30 value="0.0038843397" flag="0"/>
    </comp>
    <comp name="--.HNZ">
      <acc value="0.0288342798" flag="0"/>
      <vel value="0.0143228956" flag="0"/>
      <psa03 value="0.0543875494" flag="0"/>
      <psa10 value="0.0121589584" flag="0"/>
      <psa30 value="0.0015992864" flag="0"/>
    </comp>
    <comp name="--.HNN">
      <acc value="0.0452294803" flag="0"/>
      <vel value="0.0397968329" flag="0"/>
      <psa03 value="0.1318336572" flag="0"/>
      <psa10 value="0.0436194687" flag="0"/>
      <psa30 value="0.0062368488" flag="0"/>
    </comp>
  </station>
  <station code="PYR2" name="PYR2" netid="HI" insttype="unknown" commtype="DIG" lat="37.6671" lon="21.4506">
    <comp name="--.HNE">
      <acc value="0.0342194625" flag="0"/>
      <vel value="0.0191252544" flag="0"/>
      <psa03 value="0.1002915223" flag="0"/>
      <psa10 value="0.0261197645" flag="0"/>
      <psa30 value="0.0020183793" flag="0"/>
    </comp>
    <comp name="--.HNN">
      <acc value="0.0279293546" flag="0"/>
      <vel value="0.0148766925" flag="0"/>
      <psa03 value="0.1251700291" flag="0"/>
      <psa10 value="0.0267803821" flag="0"/>
      <psa30 value="0.0021947943" flag="0"/>
    </comp>
    <comp name="--.HNZ">
      <acc value="0.0221475862" flag="0"/>
      <vel value="0.0069224262" flag="0"/>
      <psa03 value="0.0338216747" flag="0"/>
      <psa10 value="0.0099269294" flag="0"/>
      <psa30 value="0.0021465411" flag="0"/>
    </comp>
  </station>
  <station code="VSK1" name="VSK1" netid="HI" insttype="unknown" commtype="DIG" lat="38.4091" lon="20.564">
    <comp name="--.HNZ">
      <acc value="0.2102194870" flag="0"/>
      <vel value="0.0351781288" flag="0"/>
      <psa03 value="0.1493729872" flag="0"/>
      <psa10 value="0.0313378540" flag="0"/>
      <psa30 value="0.0019362833" flag="0"/>
    </comp>
    <comp name="--.HNN">
      <acc value="0.3476690524" flag="0"/>
      <vel value="0.0550262750" flag="0"/>
      <psa03 value="0.1451200076" flag="0"/>
      <psa10 value="0.0398677057" flag="0"/>
      <psa30 value="0.0035547556" flag="0"/>
    </comp>
    <comp name="--.HNE">
      <acc value="0.3550705707" flag="0"/>
      <vel value="0.0708050869" flag="0"/>
      <psa03 value="0.1052325034" flag="0"/>
      <psa10 value="0.0329486626" flag="0"/>
      <psa30 value="0.0021783842" flag="0"/>
    </comp>
  </station>
