<?xml version="1.0" encoding="UTF-8" standalone="yes"?>
<!DOCTYPE earthquake SYSTEM "stationlist.dtd">
<stationlist created="" xmlns="ch.ethz.sed.shakemap.usgs.xml">
  <station code="RP05B" name="RP05B" netid="5B" insttype="Compact" commtype="DIG" lat="37.6182" lon="21.6541">
    <comp name="--.HHE">
      <acc value="0.0473636386" flag="0"/>
      <vel value="0.0181758306" flag="0"/>
      <psa03 value="0.1263421262" flag="0"/>
      <psa10 value="0.0259361510" flag="0"/>
      <psa30 value="0.0021665705" flag="0"/>
    </comp>
    <comp name="--.HHN">
      <acc value="0.0431156955" flag="0"/>
      <vel value="0.0225423637" flag="0"/>
      <psa03 value="0.1617162873" flag="0"/>
      <psa10 value="0.0258227477" flag="0"/>
      <psa30 value="0.0024759859" flag="0"/>
    </comp>
    <comp name="--.HHZ">
      <acc value="0.0280990888" flag="0"/>
      <vel value="0.0104214507" flag="0"/>
      <psa03 value="0.0513760114" flag="0"/>
      <psa10 value="0.0151496463" flag="0"/>
      <psa30 value="0.0012820899" flag="0"/>
    </comp>
  </station>
  <station code="RP08B" name="RP08B" netid="5B" insttype="Compact" commtype="DIG" lat="37.5664" lon="21.9493">
    <comp name="--.HHN">
      <acc value="0.0080550028" flag="0"/>
      <vel value="0.0048297997" flag="0"/>
      <psa03 value="0.0176507854" flag="0"/>
      <psa10 value="0.0051436126" flag="0"/>
      <psa30 value="0.0008159050" flag="0"/>
    </comp>
    <comp name="--.HHZ">
      <acc value="0.0056863987" flag="0"/>
      <vel value="0.0021990262" flag="0"/>
      <psa03 value="0.0141324447" flag="0"/>
      <psa10 value="0.0030282729" flag="0"/>
      <psa30 value="0.0003381918" flag="0"/>
    </comp>
    <comp name="--.HHE">
      <acc value="0.0066943138" flag="0"/>
      <vel value="0.0044707704" flag="0"/>
      <psa03 value="0.0211787575" flag="0"/>
      <psa10 value="0.0043263775" flag="0"/>
      <psa30 value="0.0004258313" flag="0"/>
    </comp>
  </station>
  <station code="MALA" name="MALA" netid="CL" insttype="TRILLIUM-40" commtype="DIG" lat="38.3934" lon="21.8726">
    <comp name="01.HHN">
      <acc value="0.0440959699" flag="0"/>
      <vel value="0.0243427563" flag="0"/>
      <psa03 value="0.0473041555" flag="0"/>
      <psa10 value="0.0325423924" flag="0"/>
      <psa30 value="0.0023445974" flag="0"/>
    </comp>
    <comp name="01.HHE">
      <acc value="0.0341131524" flag="0"/>
      <vel value="0.0237963336" flag="0"/>
      <psa03 value="0.0492563069" flag="0"/>
      <psa10 value="0.0447305696" flag="0"/>
      <psa30 value="0.0018503995" flag="0"/>
    </comp>
    <comp name="01.HHZ">
      <acc value="0.0110847400" flag="0"/>
      <vel value="0.0066228718" flag="0"/>
      <psa03 value="0.0157204812" flag="0"/>
      <psa10 value="0.0088463878" flag="0"/>
      <psa30 value="0.0009097066" flag="0"/>
    </comp>
  </station>
  <station code="MG06" name="MG06" netid="CL" insttype="TRILLIUM-40" commtype="DIG" lat="38.4129" lon="21.9462">
    <comp name="06.HHE">
      <acc value="0.0145591013" flag="0"/>
      <vel value="0.0063220735" flag="0"/>
      <psa03 value="0.0430893813" flag="0"/>
      <psa10 value="0.0055320908" flag="0"/>
      <psa30 value="0.0007641347" flag="0"/>
    </comp>
    <comp name="06.HHN">
      <acc value="0.0174676276" flag="0"/>
      <vel value="0.0088660473" flag="0"/>
      <psa03 value="0.0331045931" flag="0"/>
      <psa10 value="0.0103207442" flag="0"/>
      <psa30 value="0.0007440289" flag="0"/>
    </comp>
    <comp name="06.HHZ">
      <acc value="0.0112499167" flag="0"/>
      <vel value="0.0033765246" flag="0"/>
      <psa03 value="0.0171956775" flag="0"/>
      <psa10 value="0.0031524368" flag="0"/>
      <psa30 value="0.0006772311" flag="0"/>
    </comp>
  </station>
  <station code="ROD3" name="ROD3" netid="CL" insttype="CMG40-T" commtype="DIG" lat="38.3081" lon="21.892">
    <comp name="00.HHE">
      <acc value="0.1286212923" flag="0"/>
      <vel value="0.0489948824" flag="0"/>
      <psa03 value="0.2514014176" flag="0"/>
      <psa10 value="0.0220119760" flag="0"/>
      <psa30 value="0.0014454976" flag="0"/>
    </comp>
    <comp name="00.HHN">
      <acc value="0.0875029081" flag="0"/>
      <vel value="0.0360106320" flag="0"/>
      <psa03 value="0.1917994250" flag="0"/>
      <psa10 value="0.0233984945" flag="0"/>
      <psa30 value="0.0014916937" flag="0"/>
    </comp>
    <comp name="00.HHZ">
      <acc value="0.0529431219" flag="0"/>
      <vel value="0.0161872867" flag="0"/>
      <psa03 value="0.0418855035" flag="0"/>
      <psa10 value="0.0123106283" flag="0"/>
      <psa30 value="0.0009317894" flag="0"/>
    </comp>
  </station>
  <station code="ZIRI" name="ZIRI" netid="CL" insttype="TRILLIUM-40" commtype="DIG" lat="38.3051" lon="21.9476">
    <comp name="01.HHE">
      <acc value="0.0502893558" flag="0"/>
      <vel value="0.0230103666" flag="0"/>
      <psa03 value="0.0726142139" flag="0"/>
      <psa10 value="0.0180564868" flag="0"/>
      <psa30 value="0.0010334388" flag="0"/>
    </comp>
    <comp name="01.HHN">
      <acc value="0.0622151979" flag="0"/>
      <vel value="0.0352229030" flag="0"/>
      <psa03 value="0.1163564016" flag="0"/>
      <psa10 value="0.0185148524" flag="0"/>
      <psa30 value="0.0016339241" flag="0"/>
    </comp>
    <comp name="01.HHZ">
      <acc value="0.0342521113" flag="0"/>
      <vel value="0.0143080690" flag="0"/>
      <psa03 value="0.0469294684" flag="0"/>
      <psa10 value="0.0063169803" flag="0"/>
      <psa30 value="0.0004441787" flag="0"/>
    </comp>
  </station>
  <station code="ATHR" name="ATHR" netid="HA" insttype="GEOtiny," commtype="DIG" lat="38.3172" lon="20.4165">
    <comp name="--.HHE">
      <acc value="0.3902244963" flag="0"/>
      <vel value="0.0741199545" flag="0"/>
      <psa03 value="0.1951723514" flag="0"/>
      <psa10 value="0.0425531870" flag="0"/>
      <psa30 value="0.0022585752" flag="0"/>
    </comp>
    <comp name="--.HHN">
      <acc value="0.2434642762" flag="0"/>
      <vel value="0.0698217674" flag="0"/>
      <psa03 value="0.2566295688" flag="0"/>
      <psa10 value="0.0350498621" flag="0"/>
      <psa30 value="0.0021968083" flag="0"/>
    </comp>
    <comp name="--.HHZ">
      <acc value="0.3217710879" flag="0"/>
      <vel value="0.0551870381" flag="0"/>
      <psa03 value="0.1954355608" flag="0"/>
      <psa10 value="0.0294772829" flag="0"/>
      <psa30 value="0.0024608023" flag="0"/>
    </comp>
  </station>
  <station code="HAVD" name="HAVD" netid="HA" insttype="GEOtiny," commtype="DIG" lat="38.2036" lon="20.3848">
    <comp name="--.HHE">
      <acc value="0.8549921394" flag="0"/>
      <vel value="0.1104485309" flag="0"/>
      <psa03 value="0.2367894681" flag="0"/>
      <psa10 value="0.0310032708" flag="0"/>
      <psa30 value="0.0016301434" flag="0"/>
    </comp>
    <comp name="--.HHN">
      <acc value="0.6103106338" flag="0"/>
      <vel value="0.1165710817" flag="0"/>
      <psa03 value="0.2112890027" flag="0"/>
      <psa10 value="0.0490480551" flag="0"/>
      <psa30 value="0.0031127809" flag="0"/>
    </comp>
    <comp name="--.HHZ">
      <acc value="0.7479702315" flag="0"/>
      <vel value="0.0925580113" flag="0"/>
      <psa03 value="0.2137207065" flag="0"/>
      <psa10 value="0.0184178214" flag="0"/>
      <psa30 value="0.0011308307" flag="0"/>
    </comp>
  </station>
  <station code="KALE" name="KALE" netid="HA" insttype="40," commtype="DIG" lat="38.3911" lon="22.1398">
    <comp name="--.HHE">
      <acc value="0.0084178243" flag="0"/>
      <vel value="0.0055401578" flag="0"/>
      <psa03 value="0.0150783090" flag="0"/>
      <psa10 value="0.0085190061" flag="0"/>
      <psa30 value="0.0004891379" flag="0"/>
    </comp>
    <comp name="--.HHN">
      <acc value="0.0119572285" flag="0"/>
      <vel value="0.0048591139" flag="0"/>
      <psa03 value="0.0174796352" flag="0"/>
      <psa10 value="0.0077225663" flag="0"/>
      <psa30 value="0.0003831870" flag="0"/>
    </comp>
    <comp name="--.HHZ">
      <acc value="0.0056865874" flag="0"/>
      <vel value="0.0026225742" flag="0"/>
      <psa03 value="0.0108119430" flag="0"/>
      <psa10 value="0.0044793127" flag="0"/>
      <psa30 value="0.0005275738" flag="0"/>
    </comp>
  </station>
  <station code="AGR3" name="AGR3" netid="HI" insttype="unknown" commtype="DIG" lat="38.5893" lon="21.4162">
    <comp name="--.HNZ">
      <acc value="0.0329461222" flag="0"/>
      <vel value="0.0187897091" flag="0"/>
      <psa03 value="0.1001404238" flag="0"/>
      <psa10 value="0.0325771396" flag="0"/>
      <psa30 value="0.0019257682" flag="0"/>
    </comp>
    <comp name="--.HNN">
      <acc value="0.0754469007" flag="0"/>
      <vel value="0.0302365158" flag="0"/>
      <psa03 value="0.2313425986" flag="0"/>
      <psa10 value="0.0490488041" flag="0"/>
      <psa30 value="0.0028054431" flag="0"/>
    </comp>
    <comp name="--.HNE">
      <acc value="0.0849656883" flag="0"/>
      <vel value="0.0452166499" flag="0"/>
      <psa03 value="0.2125635462" flag="0"/>
      <psa10 value="0.0648199942" flag="0"/>
      <psa30 value="0.0030992850" flag="0"/>
    </comp>
  </station>
  <station code="ARG2" name="ARG2" netid="HI" insttype="CMG-5TD,ACCELEROMETER,GURALP" commtype="DIG" lat="38.1783" lon="20.4878">
    <comp name="--.HNE">
      <acc value="2.2086128180" flag="0"/>
      <vel value="0.3654015377" flag="0"/>
      <psa03 value="0.8820258041" flag="0"/>
      <psa10 value="0.0416960665" flag="0"/>
      <psa30 value="0.0045287782" flag="0"/>
    </comp>
    <comp name="--.HNN">
      <acc value="1.5858840846" flag="0"/>
      <vel value="0.2747951785" flag="0"/>
      <psa03 value="0.6495951594" flag="0"/>
      <psa10 value="0.1183718099" flag="0"/>
      <psa30 value="0.0058772259" flag="0"/>
    </comp>
    <comp name="--.HNZ">
      <acc value="0.7421809064" flag="0"/>
      <vel value="0.1541998177" flag="0"/>
      <psa03 value="0.9560119456" flag="0"/>
      <psa10 value="0.0442714942" flag="0"/>
      <psa30 value="0.0040205333" flag="0"/>
    </comp>
  </station>
  <station code="AST1" name="AST1" netid="HI" insttype="unknown" commtype="DIG" lat="38.5416" lon="21.0895">
    <comp name="--.HNE">
      <acc value="0.0838512053" flag="0"/>
      <vel value="0.0291160464" flag="0"/>
      <psa03 value="0.1953313896" flag="0"/>
      <psa10 value="0.0211900711" flag="0"/>
      <psa30 value="0.0018164397" flag="0"/>
    </comp>
    <comp name="--.HNN">
      <acc value="0.0703698060" flag="0"/>
      <vel value="0.0272191340" flag="0"/>
      <psa03 value="0.1350790017" flag="0"/>
      <psa10 value="0.0223540304" flag="0"/>
      <psa30 value="0.0013448121" flag="0"/>
    </comp>
    <comp name="--.HNZ">
      <acc value="0.0502138030" flag="0"/>
      <vel value="0.0204056867" flag="0"/>
      <psa03 value="0.1343643348" flag="0"/>
      <psa10 value="0.0235639107" flag="0"/>
      <psa30 value="0.0013375409" flag="0"/>
    </comp>
  </station>
  <station code="KRI1" name="KRI1" netid="HI" insttype="CMG-5TD,ACCELEROMETER,GURALP" commtype="DIG" lat="37.6621" lon="20.8172">
    <comp name="--.HNE">
      <acc value="0.3488107468" flag="0"/>
      <vel value="0.1203507986" flag="0"/>
      <psa03 value="0.6503580524" flag="0"/>
      <psa10 value="0.0266227243" flag="0"/>
      <psa30 value="0.0026404210" flag="0"/>
    </comp>
    <comp name="--.HNN">
      <acc value="0.2522365769" flag="0"/>
      <vel value="0.0956909147" flag="0"/>
      <psa03 value="0.5964399588" flag="0"/>
      <psa10 value="0.0607278031" flag="0"/>
      <psa30 value="0.0031466022" flag="0"/>
    </comp>
    <comp name="--.HNZ">
      <acc value="0.1412835626" flag="0"/>
      <vel value="0.0442623086" flag="0"/>
      <psa03 value="0.2494484697" flag="0"/>
      <psa10 value="0.0189649844" flag="0"/>
      <psa30 value="0.0012888645" flag="0"/>
    </comp>
  </station>
  <station code="LEF2" name="LEF2" netid="HI" insttype="unknown" commtype="DIG" lat="38.8301" lon="20.7083">
    <comp name="--.HNE">
      <acc value="0.0500884982" flag="0"/>
      <vel value="0.0460681092" flag="0"/>
      <psa03 value="0.1711817306" flag="0"/>
      <psa10 value="0.0517665312" flag="0"/>
      <psa30 value="0.0028706361" flag="0"/>
    </comp>
    <comp name="--.HNN">
      <acc value="0.0565269732" flag="0"/>
      <vel value="0.0449762872" flag="0"/>
      <psa03 value="0.1976680659" flag="0"/>
      <psa10 value="0.0519539046" flag="0"/>
      <psa30 value="0.0043852588" flag="0"/>
    </comp>
    <comp name="--.HNZ">
      <acc value="0.0498182231" flag="0"/>
      <vel value="0.0352556837" flag="0"/>
      <psa03 value="0.1261358398" flag="0"/>
      <psa10 value="0.0516104005" flag="0"/>
      <psa30 value="0.0045264071" flag="0"/>
    </comp>
  </station>
  <station code="LXR2" name="LXR2" netid="HI" insttype="unknown" commtype="DIG" lat="38.2067" lon="20.4364">
    <comp name="--.HNE">
      <acc value="0.9940231062" flag="0"/>
      <vel value="0.1864556350" flag="0"/>
      <psa03 value="0.4971833785" flag="0"/>
      <psa10 value="0.1125939171" flag="0"/>
      <psa30 value="0.0047270125" flag="0"/>
    </comp>
    <comp name="--.HNN">
      <acc value="1.1055576769" flag="0"/>
      <vel value="0.2925942141" flag="0"/>
      <psa03 value="0.8367096064" flag="0"/>
      <psa10 value="0.1633537244" flag="0"/>
      <psa30 value="0.0077791783" flag="0"/>
    </comp>
    <comp name="--.HNZ">
      <acc value="1.3382210157" flag="0"/>
      <vel value="0.1613846460" flag="0"/>
      <psa03 value="0.4316111758" flag="0"/>
      <psa10 value="0.0528215463" flag="0"/>
      <psa30 value="0.0034280810" flag="0"/>
    </comp>
  </station>
  <station code="MSL1" name="MSL1" netid="HI" insttype="CMG-5TD,ACCELEROMETER,GURALP" commtype="DIG" lat="38.3727" lon="21.4243">
    <comp name="--.HNE">
      <acc value="0.1061697025" flag="0"/>
      <vel value="0.0833672815" flag="0"/>
      <psa03 value="0.3564150248" flag="0"/>
      <psa10 value="0.1669236058" flag="0"/>
      <psa30 value="0.0068419848" flag="0"/>
    </comp>
    <comp name="--.HNZ">
      <acc value="0.0614203222" flag="0"/>
      <vel value="0.0327187753" flag="0"/>
      <psa03 value="0.0963702441" flag="0"/>
      <psa10 value="0.0766623457" flag="0"/>
      <psa30 value="0.0021760915" flag="0"/>
    </comp>
    <comp name="--.HNN">
      <acc value="0.1021369545" flag="0"/>
      <vel value="0.0544987296" flag="0"/>
      <psa03 value="0.2391633480" flag="0"/>
      <psa10 value="0.1131431305" flag="0"/>
      <psa30 value="0.0030143357" flag="0"/>
    </comp>
  </station>
  <station code="PRE2" name="PRE2" netid="HI" insttype="unknown" commtype="DIG" lat="38.9577" lon="20.7548">
    <comp name="--.HNE">
      <acc value="0.0412688221" flag="0"/>
      <vel value="0.0302814609" flag="0"/>
      <psa03 value="0.1440066298" flag="0"/>
      <psa10 value="0.0541701713" flag="0"/>
      <psa30 value="0.0038841724" flag="0"/>
    </comp>
    <comp name="--.HNZ">
      <acc value="0.0288342918" flag="0"/>
      <vel value="0.0143228952" flag="0"/>
      <psa03 value="0.0543875494" flag="0"/>
      <psa10 value="0.0121589584" flag="0"/>
      <psa30 value="0.0015993284" flag="0"/>
    </comp>
    <comp name="--.HNN">
      <acc value="0.0452294796" flag="0"/>
      <vel value="0.0397968373" flag="0"/>
      <psa03 value="0.1318336572" flag="0"/>
      <psa10 value="0.0436194687" flag="0"/>
      <psa30 value="0.0062369676" flag="0"/>
    </comp>
  </station>
  <station code="PYR2" name="PYR2" netid="HI" insttype="unknown" commtype="DIG" lat="37.6671" lon="21.4506">
    <comp name="--.HNE">
      <acc value="0.0342194617" flag="0"/>
      <vel value="0.0191252561" flag="0"/>
      <psa03 value="0.1002915223" flag="0"/>
      <psa10 value="0.0261197644" flag="0"/>
      <psa30 value="0.0020182997" flag="0"/>
    </comp>
    <comp name="--.HNZ">
      <acc value="0.0221476010" flag="0"/>
      <vel value="0.0069224263" flag="0"/>
      <psa03 value="0.0338216747" flag="0"/>
      <psa10 value="0.0085879459" flag="0"/>
      <psa30 value="0.0021465429" flag="0"/>
    </comp>
    <comp name="--.HNN">
      <acc value="0.0279293592" flag="0"/>
      <vel value="0.0148766973" flag="0"/>
      <psa03 value="0.1251700291" flag="0"/>
      <psa10 value="0.0267803822" flag="0"/>
      <psa30 value="0.0021952735" flag="0"/>
    </comp>
  </station>
  <station code="VSK1" name="VSK1" netid="HI" insttype="unknown" commtype="DIG" lat="38.4091" lon="20.564">
    <comp name="--.HNE">
      <acc value="0.3550705646" flag="0"/>
      <vel value="0.0708050859" flag="0"/>
      <psa03 value="0.1052325034" flag="0"/>
      <psa10 value="0.0329486625" flag="0"/>
      <psa30 value="0.0021783104" flag="0"/>
    </comp>
    <comp name="--.HNZ">
      <acc value="0.2102194836" flag="0"/>
      <vel value="0.0351781317" flag="0"/>
      <psa03 value="0.1493729872" flag="0"/>
      <psa10 value="0.0313378540" flag="0"/>
      <psa30 value="0.0019361282" flag="0"/>
    </comp>
    <comp name="--.HNN">
      <acc value="0.3476690539" flag="0"/>
      <vel value="0.0550262739" flag="0"/>
      <psa03 value="0.1451200076" flag="0"/>
      <psa10 value="0.0398677061" flag="0"/>
      <psa30 value="0.0035546440" flag="0"/>
    </comp>
  </station>
  <station code="ZAK2" name="ZAK2" netid="HI" insttype="unknown" commtype="DIG" lat="37.7875" lon="20.9">
    <comp name="--.HNN">
      <acc value="0.3255646630" flag="0"/>
      <vel value="0.1496121218" flag="0"/>
      <psa03 value="0.6466955665" flag="0"/>
      <psa10 value="0.1332716497" flag="0"/>
      <psa30 value="0.0091693559" flag="0"/>
    </comp>
    <comp name="--.HNE">
      <acc value="0.6219704822" flag="0"/>
      <vel value="0.1785100900" flag="0"/>
      <psa03 value="1.0830408610" flag="0"/>
      <psa10 value="0.1637701385" flag="0"/>
      <psa30 value="0.0093034753" flag="0"/>
    </comp>
    <comp name="--.HNZ">
      <acc value="0.2357643921" flag="0"/>
      <vel value="0.0599414751" flag="0"/>
      <psa03 value="0.3571925057" flag="0"/>
      <psa10 value="0.0533821809" flag="0"/>
      <psa30 value="0.0045295765" flag="0"/>
    </comp>
  </station>
  <station code="ARTB" name="ARTB" netid="HL" insttype="CMG-5" commtype="DIG" lat="39.157" lon="20.9785">
    <comp name="00.HNE">
      <acc value="0.0399379678" flag="0"/>
      <vel value="0.0176787942" flag="0"/>
      <psa03 value="0.1371157051" flag="0"/>
      <psa10 value="0.0150495209" flag="0"/>
      <psa30 value="0.0008452634" flag="0"/>
    </comp>
    <comp name="00.HNZ">
      <acc value="0.0225028425" flag="0"/>
      <vel value="0.0077042663" flag="0"/>
      <psa03 value="0.0347871360" flag="0"/>
      <psa10 value="0.0047035908" flag="0"/>
      <psa30 value="0.0012885673" flag="0"/>
    </comp>
    <comp name="00.HNN">
      <acc value="0.0387324347" flag="0"/>
      <vel value="0.0158105348" flag="0"/>
      <psa03 value="0.1360239949" flag="0"/>
      <psa10 value="0.0098772462" flag="0"/>
      <psa30 value="0.0009806997" flag="0"/>
    </comp>
  </station>
  <station code="LXRA" name="LXRA" netid="HL" insttype="CMG-5" commtype="DIG" lat="38.2001" lon="20.4372">
    <comp name="00.HNE">
      <acc value="2.0505052412" flag="0"/>
      <vel value="0.3899750374" flag="0"/>
      <psa03 value="1.1479287672" flag="0"/>
      <psa10 value="0.0936038202" flag="0"/>
      <psa30 value="0.0063961900" flag="0"/>
    </comp>
    <comp name="00.HNZ">
      <acc value="1.4927065444" flag="0"/>
      <vel value="0.1722546092" flag="0"/>
      <psa03 value="0.4828423921" flag="0"/>
      <psa10 value="0.0535544477" flag="0"/>
      <psa30 value="0.0031361511" flag="0"/>
    </comp>
    <comp name="00.HNN">
      <acc value="1.5587827465" flag="0"/>
      <vel value="0.3168368930" flag="0"/>
      <psa03 value="1.4619076350" flag="0"/>
      <psa10 value="0.1548170653" flag="0"/>
      <psa30 value="0.0096299721" flag="0"/>
    </comp>
  </station>
