<?xml version="1.0" encoding="UTF-8" standalone="yes"?>
<!DOCTYPE earthquake SYSTEM "stationlist.dtd">
<stationlist created="" xmlns="ch.ethz.sed.shakemap.usgs.xml">
  <station code="GAZ" name="GAZ" netid="KO" insttype="CMG-3T" lat="37.1721" lon="37.2096">
    <comp name="--.HHE">
      <acc value="0.0545355995" flag="0"/>
      <vel value="0.0292424655" flag="0"/>
      <psa03 value="0.0956154452" flag="0"/>
      <psa10 value="0.0518360838" flag="0"/>
      <psa30 value="0.0030433216" flag="0"/>
    </comp>
    <comp name="--.HHZ">
      <acc value="0.0331613958" flag="0"/>
      <vel value="0.0151170130" flag="0"/>
      <psa03 value="0.0858827019" flag="0"/>
      <psa10 value="0.0225555719" flag="0"/>
      <psa30 value="0.0014104007" flag="0"/>
    </comp>
    <comp name="--.HHN">
      <acc value="0.0392745171" flag="0"/>
      <vel value="0.0163902090" flag="0"/>
      <psa03 value="0.0910481098" flag="0"/>
      <psa10 value="0.0314231313" flag="0"/>
      <psa30 value="0.0016137901" flag="0"/>
    </comp>
  </station>
</stationlist>
