<?xml version="1.0" encoding="UTF-8" standalone="yes"?>
<!DOCTYPE earthquake SYSTEM "stationlist.dtd">
<stationlist created="" xmlns="ch.ethz.sed.shakemap.usgs.xml">
  <station code="KARS" name="KARS" netid="KO" insttype="120s," lat="40.6152" lon="43.0937">
    <comp name="--.HHZ">
      <acc value="0.0084207148" flag="0"/>
      <vel value="0.0032538658" flag="0"/>
      <psa03 value="0.0145524172" flag="0"/>
      <psa10 value="0.0031071602" flag="0"/>
      <psa30 value="0.0003142880" flag="0"/>
    </comp>
    <comp name="--.HHN">
      <acc value="0.0149030469" flag="0"/>
      <vel value="0.0046478788" flag="0"/>
      <psa03 value="0.0173418866" flag="0"/>
      <psa10 value="0.0031389374" flag="0"/>
      <psa30 value="0.0008003646" flag="0"/>
    </comp>
    <comp name="--.HHE">
      <acc value="0.0160203266" flag="0"/>
      <vel value="0.0057410334" flag="0"/>
      <psa03 value="0.0273959875" flag="0"/>
      <psa10 value="0.0038332127" flag="0"/>
      <psa30 value="0.0005565814" flag="0"/>
    </comp>
  </station>
</stationlist>
