<stationlist created="1778138738">
	<station code="HOPA" name="HOPA" netid="KO" source="Bogazici University Kandilli Observatory And Earthquake Research Institute (KOERI)" insttype="" lat="41.3867" lon="41.4458">
		<comp name="--.HNE" depth="0.0">
			<acc value="0.0105832273257154" flag="0"/>
			<vel value="0.00281093588694658" flag="0"/>
			<psa03 value="0.0125833218645719" flag="0"/>
			<psa10 value="0.000824448873505093" flag="0"/>
			<psa30 value="0.000492549087294317" flag="0"/>
		</comp>
		<comp name="--.HNN" depth="0.0">
			<acc value="0.00619519807944555" flag="0"/>
			<vel value="0.00167344883361672" flag="0"/>
			<psa03 value="0.00831472463783286" flag="0"/>
			<psa10 value="0.00128270380095833" flag="0"/>
			<psa30 value="0.00089563922753781" flag="0"/>
		</comp>
		<comp name="--.HNZ" depth="0.0">
			<acc value="0.00386018476027774" flag="0"/>
			<vel value="0.000779470124956708" flag="0"/>
			<psa03 value="0.00387460563194037" flag="0"/>
			<psa10 value="0.000861281997110496" flag="0"/>
			<psa30 value="0.000499636327622672" flag="0"/>
		</comp>
	</station>
</stationlist>
