<?xml version="1.0" encoding="UTF-8" standalone="yes"?>
<!DOCTYPE earthquake SYSTEM "stationlist.dtd">
<stationlist created="" xmlns="ch.ethz.sed.shakemap.usgs.xml">
  <station code="LANU" name="LANU" netid="UP" insttype="DC19" lat="68.0473" lon="21.9962">
    <comp name="--.HHN">
      <acc value="0.0288040200" flag="0"/>
      <vel value="0.0397878867" flag="0"/>
      <psa03 value="0.0432537590" flag="0"/>
      <psa10 value="0.0557129324" flag="0"/>
      <psa30 value="0.0131503241" flag="0"/>
    </comp>
    <comp name="--.HHZ">
      <acc value="0.0225271654" flag="0"/>
      <vel value="0.0527146256" flag="0"/>
      <psa03 value="0.0275044097" flag="0"/>
      <psa10 value="0.0306628450" flag="0"/>
      <psa30 value="0.0149574013" flag="0"/>
    </comp>
    <comp name="--.HHE">
      <acc value="0.0239213959" flag="0"/>
      <vel value="0.0490905946" flag="0"/>
      <psa03 value="0.0280438218" flag="0"/>
      <psa10 value="0.0318469860" flag="0"/>
      <psa30 value="0.0168178272" flag="0"/>
    </comp>
  </station>
</stationlist>
