<?xml version="1.0" encoding="UTF-8" standalone="yes"?>
<!DOCTYPE earthquake SYSTEM "stationlist.dtd">
<stationlist created="" xmlns="ch.ethz.sed.shakemap.usgs.xml">
  <station code="KARP" name="KARP" netid="GE" insttype="STS-2/N" lat="35.5471" lon="27.1611">
    <comp name="--.HHZ">
      <acc value="0.1400438233" flag="0"/>
      <vel value="0.0213931480" flag="0"/>
      <psa03 value="0.0600558932" flag="0"/>
      <psa10 value="0.0072684487" flag="0"/>
      <psa30 value="0.0007038010" flag="0"/>
    </comp>
    <comp name="--.HHN">
      <acc value="0.1632762622" flag="0"/>
      <vel value="0.0322071687" flag="0"/>
      <psa03 value="0.1422325188" flag="0"/>
      <psa10 value="0.0181223500" flag="0"/>
      <psa30 value="0.0013397778" flag="0"/>
    </comp>
    <comp name="--.HHE">
      <acc value="0.2080156492" flag="0"/>
      <vel value="0.0300036229" flag="0"/>
      <psa03 value="0.1318368734" flag="0"/>
      <psa10 value="0.0204458454" flag="0"/>
      <psa30 value="0.0010234470" flag="0"/>
    </comp>
  </station>
  <station code="RDI1" name="RDI1" netid="HI" insttype="CMG-5TD,ACCELEROMETER,GURALP" lat="36.4514" lon="28.224">
    <comp name="--.HNE">
      <acc value="0.0244859213" flag="0"/>
      <vel value="0.0065653901" flag="0"/>
      <psa03 value="0.0577541990" flag="0"/>
      <psa10 value="0.0047641267" flag="0"/>
      <psa30 value="0.0003738073" flag="0"/>
    </comp>
    <comp name="--.HNZ">
      <acc value="0.0433448944" flag="0"/>
      <vel value="0.0094598499" flag="0"/>
      <psa03 value="0.0422952365" flag="0"/>
      <psa10 value="0.0044986528" flag="0"/>
      <psa30 value="0.0003133305" flag="0"/>
    </comp>
    <comp name="--.HNN">
      <acc value="0.0315712712" flag="0"/>
      <vel value="0.0103334953" flag="0"/>
      <psa03 value="0.0395231260" flag="0"/>
      <psa10 value="0.0081910139" flag="0"/>
      <psa30 value="0.0004956962" flag="0"/>
    </comp>
  </station>
  <station code="ARG" name="ARG" netid="HL" insttype="LE3D20_DR24" lat="36.2136" lon="28.1212">
    <comp name="--.HHN">
      <acc value="0.1030505662" flag="0"/>
      <vel value="0.0155927408" flag="0"/>
      <psa03 value="0.0794195952" flag="0"/>
      <psa10 value="0.0085122723" flag="0"/>
      <psa30 value="0.0008650116" flag="0"/>
    </comp>
    <comp name="--.HHZ">
      <acc value="0.0786498695" flag="0"/>
      <vel value="0.0124303835" flag="0"/>
      <psa03 value="0.0579871527" flag="0"/>
      <psa10 value="0.0055072380" flag="0"/>
      <psa30 value="0.0002920459" flag="0"/>
    </comp>
    <comp name="--.HHE">
      <acc value="0.1709609920" flag="0"/>
      <vel value="0.0214528084" flag="0"/>
      <psa03 value="0.1396977214" flag="0"/>
      <psa10 value="0.0066623668" flag="0"/>
      <psa30 value="0.0004597345" flag="0"/>
    </comp>
  </station>
  <station code="KARP" name="KARP" netid="HL" insttype="120" lat="35.5471" lon="27.1611">
    <comp name="--.HHN">
      <acc value="0.1375747772" flag="0"/>
      <vel value="0.0311332551" flag="0"/>
      <psa03 value="0.1382371855" flag="0"/>
      <psa10 value="0.0180267063" flag="0"/>
      <psa30 value="0.0013155310" flag="0"/>
    </comp>
    <comp name="--.HHE">
      <acc value="0.1886095003" flag="0"/>
      <vel value="0.0287619810" flag="0"/>
      <psa03 value="0.1279591220" flag="0"/>
      <psa10 value="0.0202835374" flag="0"/>
      <psa30 value="0.0010068547" flag="0"/>
    </comp>
    <comp name="--.HHZ">
      <acc value="0.1150077611" flag="0"/>
      <vel value="0.0207659675" flag="0"/>
      <psa03 value="0.0582165290" flag="0"/>
      <psa10 value="0.0071493956" flag="0"/>
      <psa30 value="0.0006952034" flag="0"/>
    </comp>
  </station>
  <station code="RODB" name="RODB" netid="HL" insttype="CMG-5" lat="36.4471" lon="28.2212">
    <comp name="00.HNE">
      <acc value="0.0253008383" flag="0"/>
      <vel value="0.0090659436" flag="0"/>
      <psa03 value="0.0704476308" flag="0"/>
      <psa10 value="0.0055038038" flag="0"/>
      <psa30 value="0.0004401906" flag="0"/>
    </comp>
    <comp name="00.HNN">
      <acc value="0.0292937874" flag="0"/>
      <vel value="0.0131978784" flag="0"/>
      <psa03 value="0.0921639937" flag="0"/>
      <psa10 value="0.0049804874" flag="0"/>
      <psa30 value="0.0004340887" flag="0"/>
    </comp>
    <comp name="00.HNZ">
      <acc value="0.0920334947" flag="0"/>
      <vel value="0.0206385844" flag="0"/>
      <psa03 value="0.0442940175" flag="0"/>
      <psa10 value="0.0043747719" flag="0"/>
      <psa30 value="0.0004183243" flag="0"/>
    </comp>
  </station>
</stationlist>
