<?xml version="1.0" encoding="UTF-8" standalone="yes"?>
<!DOCTYPE earthquake SYSTEM "stationlist.dtd">
<stationlist created="" xmlns="ch.ethz.sed.shakemap.usgs.xml">
  <station code="CEYT" name="CEYT" netid="KO" insttype="CMG-3ESP" lat="37.0105" lon="35.7478">
    <comp name="--.HHE">
      <acc value="0.0198550737" flag="0"/>
      <vel value="0.0126533829" flag="0"/>
      <psa03 value="0.0535017764" flag="0"/>
      <psa10 value="0.0074246528" flag="0"/>
      <psa30 value="0.0022464342" flag="0"/>
    </comp>
    <comp name="--.HHN">
      <acc value="0.0192900665" flag="0"/>
      <vel value="0.0130235485" flag="0"/>
      <psa03 value="0.0508463220" flag="0"/>
      <psa10 value="0.0157330477" flag="0"/>
      <psa30 value="0.0012489725" flag="0"/>
    </comp>
  </station>
</stationlist>
