<stationlist created="1778069681">
	<station code="KRL1" name="KRL1" netid="HI" source="ITSAK Strong Motion Network" insttype="" lat="37.7951" lon="26.7065">
		<comp name="--.HNE" depth="0.0">
			<acc value="0.182215548481527" flag="0"/>
			<vel value="0.123777998915431" flag="0"/>
			<psa03 value="0.522052066821995" flag="0"/>
			<psa10 value="0.192424597691466" flag="0"/>
			<psa30 value="0.0259075273202441" flag="0"/>
		</comp>
		<comp name="--.HNN" depth="0.0">
			<acc value="0.157135233619579" flag="0"/>
			<vel value="0.134145163439029" flag="0"/>
			<psa03 value="0.367601969575721" flag="0"/>
			<psa10 value="0.131785037639656" flag="0"/>
			<psa30 value="0.0438970263352526" flag="0"/>
		</comp>
		<comp name="--.HNZ" depth="0.0">
			<acc value="0.0970874343619532" flag="0"/>
			<vel value="0.0815392906749313" flag="0"/>
			<psa03 value="0.176597489522319" flag="0"/>
			<psa10 value="0.121585156796889" flag="0"/>
			<psa30 value="0.0183912840304406" flag="0"/>
		</comp>
	</station>
	<station code="RDI1" name="RDI1" netid="HI" source="ITSAK Strong Motion Network" insttype="" lat="36.4514" lon="28.224">
		<comp name="--.HNE" depth="0.0">
			<acc value="0.0784137224460468" flag="0"/>
			<vel value="0.185115944462239" flag="0"/>
			<psa03 value="0.0887623904892678" flag="0"/>
			<psa10 value="0.197752535134842" flag="0"/>
			<psa30 value="0.0640523231518471" flag="0"/>
		</comp>
		<comp name="--.HNN" depth="0.0">
			<acc value="0.0465995842726805" flag="0"/>
			<vel value="0.118456790577254" flag="0"/>
			<psa03 value="0.0622902097542424" flag="0"/>
			<psa10 value="0.138433685552325" flag="0"/>
			<psa30 value="0.0467792455620781" flag="0"/>
		</comp>
		<comp name="--.HNZ" depth="0.0">
			<acc value="0.0289349272594735" flag="0"/>
			<vel value="0.0527746404862575" flag="0"/>
			<psa03 value="0.0474586491110437" flag="0"/>
			<psa10 value="0.12946108116124" flag="0"/>
			<psa30 value="0.0150636978960634" flag="0"/>
		</comp>
	</station>
	<station code="SFL1" name="SFL1" netid="HI" source="ITSAK Strong Motion Network" insttype="" lat="41.189954" lon="26.304374">
		<comp name="--.HNE" depth="0.0">
			<acc value="0.0741586208888985" flag="0"/>
			<vel value="0.094597952424375" flag="0"/>
			<psa03 value="0.118701074158275" flag="0"/>
			<psa10 value="0.156183410330666" flag="0"/>
			<psa30 value="0.0169447684904719" flag="0"/>
		</comp>
		<comp name="--.HNN" depth="0.0">
			<acc value="0.0638282012095118" flag="0"/>
			<vel value="0.0565817816544193" flag="0"/>
			<psa03 value="0.128096937548112" flag="0"/>
			<psa10 value="0.0651294404859535" flag="0"/>
			<psa30 value="0.0208780558742841" flag="0"/>
		</comp>
		<comp name="--.HNZ" depth="0.0">
			<acc value="0.0303797181775536" flag="0"/>
			<vel value="0.0207504467630235" flag="0"/>
			<psa03 value="0.0713190773495252" flag="0"/>
			<psa10 value="0.0235849593746896" flag="0"/>
			<psa30 value="0.00604377726999615" flag="0"/>
		</comp>
	</station>
	<station code="EFSA" name="EFSA" netid="HL" source="National Observatory of Athens Seismic Network" insttype="" lat="39.54015" lon="24.98864">
		<comp name="00.HNE" depth="0.0">
			<acc value="0.0134216350908126" flag="0"/>
			<vel value="0.0242337416695832" flag="0"/>
			<psa03 value="0.0217894546230983" flag="0"/>
			<psa10 value="0.0232507350912511" flag="0"/>
			<psa30 value="0.0122938161125025" flag="0"/>
		</comp>
		<comp name="00.HNN" depth="0.0">
			<acc value="0.0122635360160775" flag="0"/>
			<vel value="0.0206820843898436" flag="0"/>
			<psa03 value="0.0300667628474786" flag="0"/>
			<psa10 value="0.0266453263073794" flag="0"/>
			<psa30 value="0.00710506241098155" flag="0"/>
		</comp>
		<comp name="00.HNZ" depth="0.0">
			<acc value="0.00813665542356248" flag="0"/>
			<vel value="0.0129065506101029" flag="0"/>
			<psa03 value="0.0162861632090509" flag="0"/>
			<psa10 value="0.0194212496267932" flag="0"/>
			<psa30 value="0.00458876071076995" flag="0"/>
		</comp>
	</station>
	<station code="KLNA" name="KLNA" netid="HL" source="National Observatory of Athens Seismic Network" insttype="" lat="36.95708" lon="26.97274">
		<comp name="00.HNE" depth="0.0">
			<acc value="0.0475706043151061" flag="0"/>
			<vel value="0.0315403308769814" flag="0"/>
			<psa03 value="0.146754437707931" flag="0"/>
			<psa10 value="0.056085250840136" flag="0"/>
			<psa30 value="0.00791892314936792" flag="0"/>
		</comp>
		<comp name="00.HNN" depth="0.0">
			<acc value="0.0378783001807351" flag="0"/>
			<vel value="0.0323692070764301" flag="0"/>
			<psa03 value="0.154271128419801" flag="0"/>
			<psa10 value="0.06557641513007" flag="0"/>
			<psa30 value="0.00626077697209477" flag="0"/>
		</comp>
		<comp name="00.HNZ" depth="0.0">
			<acc value="0.0470030520505817" flag="0"/>
			<vel value="0.028765378944458" flag="0"/>
			<psa03 value="0.0541828122147271" flag="0"/>
			<psa10 value="0.0477658849415346" flag="0"/>
			<psa30 value="0.00639768812434668" flag="0"/>
		</comp>
	</station>
	<station code="PRK" name="PRK" netid="HL" source="National Observatory of Athens Seismic Network" insttype="" lat="39.24565" lon="26.26499">
		<comp name="--.HNE" depth="0.0">
			<acc value="0.114429304994657" flag="0"/>
			<vel value="0.138393899826961" flag="0"/>
			<psa03 value="0.382501124379605" flag="0"/>
			<psa10 value="0.238668352763847" flag="0"/>
			<psa30 value="0.0232963721420017" flag="0"/>
		</comp>
		<comp name="--.HNN" depth="0.0">
			<acc value="0.146510132191631" flag="0"/>
			<vel value="0.170995482105228" flag="0"/>
			<psa03 value="0.229482777745116" flag="0"/>
			<psa10 value="0.315237928060026" flag="0"/>
			<psa30 value="0.0383512298249178" flag="0"/>
		</comp>
		<comp name="--.HNZ" depth="0.0">
			<acc value="0.0787896859282687" flag="0"/>
			<vel value="0.069562758761976" flag="0"/>
			<psa03 value="0.275746219388409" flag="0"/>
			<psa10 value="0.0820379677890645" flag="0"/>
			<psa30 value="0.020649870620531" flag="0"/>
		</comp>
	</station>
	<station code="RODB" name="RODB" netid="HL" source="National Observatory of Athens Seismic Network" insttype="" lat="36.4471" lon="28.22116">
		<comp name="00.HNE" depth="0.0">
			<acc value="0.039287457764236" flag="0"/>
			<vel value="0.0852494682008534" flag="0"/>
			<psa03 value="0.0609388854140861" flag="0"/>
			<psa10 value="0.113459077230878" flag="0"/>
			<psa30 value="0.0417131592302147" flag="0"/>
		</comp>
		<comp name="00.HNN" depth="0.0">
			<acc value="0.0482675975179059" flag="0"/>
			<vel value="0.101758367899459" flag="0"/>
			<psa03 value="0.0667106300678432" flag="0"/>
			<psa10 value="0.188876988128703" flag="0"/>
			<psa30 value="0.0594109390580721" flag="0"/>
		</comp>
		<comp name="00.HNZ" depth="0.0">
			<acc value="0.0291958945702703" flag="0"/>
			<vel value="0.0468422925229592" flag="0"/>
			<psa03 value="0.0280086213430381" flag="0"/>
			<psa10 value="0.0834795616863052" flag="0"/>
			<psa30 value="0.0142177309970882" flag="0"/>
		</comp>
	</station>
	<station code="SMTH" name="SMTH" netid="HL" source="National Observatory of Athens Seismic Network" insttype="" lat="40.47094" lon="25.53045">
		<comp name="00.HNE" depth="0.0">
			<acc value="0.0188308992247681" flag="0"/>
			<vel value="0.00979787942945178" flag="0"/>
			<psa03 value="0.0194628598789482" flag="0"/>
			<psa10 value="0.00975290619865088" flag="0"/>
			<psa30 value="0.00352300134912272" flag="0"/>
		</comp>
		<comp name="00.HNN" depth="0.0">
			<acc value="0.0185659363301615" flag="0"/>
			<vel value="0.0103555546240639" flag="0"/>
			<psa03 value="0.0284560434092208" flag="0"/>
			<psa10 value="0.0101918272455761" flag="0"/>
			<psa30 value="0.00448764332381266" flag="0"/>
		</comp>
		<comp name="00.HNZ" depth="0.0">
			<acc value="0.0178282785487182" flag="0"/>
			<vel value="0.0123703646222245" flag="0"/>
			<psa03 value="0.0355253120549078" flag="0"/>
			<psa10 value="0.0123461644942459" flag="0"/>
			<psa30 value="0.00363172491120512" flag="0"/>
		</comp>
	</station>
	<station code="AKS" name="AKS" netid="KO" source="Bogazici University Kandilli Observatory And Earthquake Research Institute (KOERI)" insttype="" lat="38.8785" lon="27.8129">
		<comp name="--.HNE" depth="0.0">
			<acc value="19.0240495420989" flag="0"/>
			<vel value="21.580377075751" flag="0"/>
			<psa03 value="42.2638463092725" flag="0"/>
			<psa10 value="32.3692191711582" flag="0"/>
			<psa30 value="2.33603534974659" flag="0"/>
		</comp>
		<comp name="--.HNN" depth="0.0">
			<acc value="37.2932263375396" flag="0"/>
			<vel value="30.0009231278551" flag="0"/>
			<psa03 value="66.4878138788842" flag="0"/>
			<psa10 value="45.5414813973006" flag="0"/>
			<psa30 value="2.72344916841288" flag="0"/>
		</comp>
		<comp name="--.HNZ" depth="0.0">
			<acc value="12.4221659333021" flag="0"/>
			<vel value="4.65833159861613" flag="0"/>
			<psa03 value="15.4734657680366" flag="0"/>
			<psa10 value="6.09846566914566" flag="0"/>
			<psa30 value="0.773610649312566" flag="0"/>
		</comp>
	</station>
	<station code="ALT" name="ALT" netid="KO" source="Bogazici University Kandilli Observatory And Earthquake Research Institute (KOERI)" insttype="" lat="39.0541" lon="30.1104">
		<comp name="--.HNE" depth="0.0">
			<acc value="0.0931861499230649" flag="0"/>
			<vel value="0.107014706710606" flag="0"/>
			<psa03 value="0.289079396960654" flag="0"/>
			<psa10 value="0.167611464745105" flag="0"/>
			<psa30 value="0.0286806492864446" flag="0"/>
		</comp>
		<comp name="--.HNN" depth="0.0">
			<acc value="0.1213254386018" flag="0"/>
			<vel value="0.164203684749714" flag="0"/>
			<psa03 value="0.521380933722721" flag="0"/>
			<psa10 value="0.10831685542424" flag="0"/>
			<psa30 value="0.0416836293738467" flag="0"/>
		</comp>
		<comp name="--.HNZ" depth="0.0">
			<acc value="0.0727804201183629" flag="0"/>
			<vel value="0.117075575897174" flag="0"/>
			<psa03 value="0.217760319611129" flag="0"/>
			<psa10 value="0.205032504094429" flag="0"/>
			<psa30 value="0.0283790868138374" flag="0"/>
		</comp>
	</station>
	<station code="BIGA" name="BIGA" netid="KO" source="Bogazici University Kandilli Observatory And Earthquake Research Institute (KOERI)" insttype="" lat="40.28134" lon="27.15048">
		<comp name="--.HNE" depth="0.0">
			<acc value="0.505862143840326" flag="0"/>
			<vel value="0.244660665327194" flag="0"/>
			<psa03 value="0.87891590680933" flag="0"/>
			<psa10 value="0.57050474463512" flag="0"/>
			<psa30 value="0.0675056990794499" flag="0"/>
		</comp>
		<comp name="--.HNN" depth="0.0">
			<acc value="0.900773468915713" flag="0"/>
			<vel value="0.32959487069032" flag="0"/>
			<psa03 value="2.22677488118477" flag="0"/>
			<psa10 value="0.379316374112517" flag="0"/>
			<psa30 value="0.0351834815963442" flag="0"/>
		</comp>
		<comp name="--.HNZ" depth="0.0">
			<acc value="0.295488383660828" flag="0"/>
			<vel value="0.128846031185374" flag="0"/>
			<psa03 value="0.616950287059349" flag="0"/>
			<psa10 value="0.133440051862466" flag="0"/>
			<psa30 value="0.0403333095781072" flag="0"/>
		</comp>
	</station>
	<station code="BOTS" name="BOTS" netid="KO" source="Bogazici University Kandilli Observatory And Earthquake Research Institute (KOERI)" insttype="" lat="40.9902" lon="27.981">
		<comp name="--.HNE" depth="0.0">
			<acc value="0.044571948815695" flag="0"/>
			<vel value="0.0446777152138548" flag="0"/>
			<psa03 value="0.183487789341532" flag="0"/>
			<psa10 value="0.0700662955642136" flag="0"/>
			<psa30 value="0.0076267565401506" flag="0"/>
		</comp>
		<comp name="--.HNN" depth="0.0">
			<acc value="0.0506893985754579" flag="0"/>
			<vel value="0.0608540227747565" flag="0"/>
			<psa03 value="0.176597489522319" flag="0"/>
			<psa10 value="0.0767507812329834" flag="0"/>
			<psa30 value="0.0234279142294595" flag="0"/>
		</comp>
		<comp name="--.HNZ" depth="0.0">
			<acc value="0.0117925956886858" flag="0"/>
			<vel value="0.0190400733761347" flag="0"/>
			<psa03 value="0.0481426143212604" flag="0"/>
			<psa10 value="0.0208910311142034" flag="0"/>
			<psa30 value="0.00946073958943356" flag="0"/>
		</comp>
	</station>
	<station code="BRGA" name="BRGA" netid="KO" source="Bogazici University Kandilli Observatory And Earthquake Research Institute (KOERI)" insttype="" lat="40.8846" lon="29.065">
		<comp name="--.HNE" depth="0.0">
			<acc value="0.0413181016867595" flag="0"/>
			<vel value="0.0671693909034682" flag="0"/>
			<psa03 value="0.116911385893544" flag="0"/>
			<psa10 value="0.0801735600392812" flag="0"/>
			<psa30 value="0.0165407463647089" flag="0"/>
		</comp>
		<comp name="--.HNN" depth="0.0">
			<acc value="0.0535364804485382" flag="0"/>
			<vel value="0.0562768211922909" flag="0"/>
			<psa03 value="0.199371272691019" flag="0"/>
			<psa10 value="0.0821829325385077" flag="0"/>
			<psa30 value="0.0161975736399467" flag="0"/>
		</comp>
		<comp name="--.HNZ" depth="0.0">
			<acc value="0.0215521229493097" flag="0"/>
			<vel value="0.0302466422489951" flag="0"/>
			<psa03 value="0.0621916671993977" flag="0"/>
			<psa10 value="0.040251878762062" flag="0"/>
			<psa30 value="0.0116244727014932" flag="0"/>
		</comp>
	</station>
	<station code="CAME" name="CAME" netid="KO" source="Bogazici University Kandilli Observatory And Earthquake Research Institute (KOERI)" insttype="" lat="36.9435" lon="29.3023">
		<comp name="--.HNE" depth="0.0">
			<acc value="0.114170338458344" flag="0"/>
			<vel value="0.105078581640996" flag="0"/>
			<psa03 value="0.366572898823501" flag="0"/>
			<psa10 value="0.154556583698026" flag="0"/>
			<psa30 value="0.0354165884928254" flag="0"/>
		</comp>
		<comp name="--.HNN" depth="0.0">
			<acc value="0.0866116724697912" flag="0"/>
			<vel value="0.0680646086291432" flag="0"/>
			<psa03 value="0.252480271946908" flag="0"/>
			<psa10 value="0.122233471370788" flag="0"/>
			<psa30 value="0.031558915438198" flag="0"/>
		</comp>
		<comp name="--.HNZ" depth="0.0">
			<acc value="0.0680301702151697" flag="0"/>
			<vel value="0.0627536382907818" flag="0"/>
			<psa03 value="0.17476305905097" flag="0"/>
			<psa10 value="0.118778478175725" flag="0"/>
			<psa30 value="0.0297343282523049" flag="0"/>
		</comp>
	</station>
	<station code="CANM" name="CANM" netid="KO" source="Bogazici University Kandilli Observatory And Earthquake Research Institute (KOERI)" insttype="" lat="40.0113" lon="27.0529">
		<comp name="--.HNE" depth="0.0">
			<acc value="0.792921844033194" flag="0"/>
			<vel value="0.372225627139289" flag="0"/>
			<psa03 value="1.32562209768616" flag="0"/>
			<psa10 value="0.508290706332413" flag="0"/>
			<psa30 value="0.101060564354889" flag="0"/>
		</comp>
		<comp name="--.HNN" depth="0.0">
			<acc value="1.11519605856745" flag="0"/>
			<vel value="0.586712437066588" flag="0"/>
			<psa03 value="2.07523302736868" flag="0"/>
			<psa10 value="0.572075196087421" flag="0"/>
			<psa30 value="0.107536998762884" flag="0"/>
		</comp>
		<comp name="--.HNZ" depth="0.0">
			<acc value="0.551183818187842" flag="0"/>
			<vel value="0.313742091859538" flag="0"/>
			<psa03 value="1.68355975063233" flag="0"/>
			<psa10 value="0.298381749138659" flag="0"/>
			<psa30 value="0.115966877911832" flag="0"/>
		</comp>
	</station>
	<station code="DST" name="DST" netid="KO" source="Bogazici University Kandilli Observatory And Earthquake Research Institute (KOERI)" insttype="" lat="39.6041" lon="28.6267">
		<comp name="--.HNE" depth="0.0">
			<acc value="1.62835898542858" flag="0"/>
			<vel value="1.25596275146174" flag="0"/>
			<psa03 value="3.19092469160191" flag="0"/>
			<psa10 value="2.80097264755416" flag="0"/>
			<psa30 value="0.235890756576985" flag="0"/>
		</comp>
		<comp name="--.HNN" depth="0.0">
			<acc value="1.84566458558089" flag="0"/>
			<vel value="1.75420214109905" flag="0"/>
			<psa03 value="5.64360297400233" flag="0"/>
			<psa10 value="2.40014108854511" flag="0"/>
			<psa30 value="0.182178632375882" flag="0"/>
		</comp>
		<comp name="--.HNZ" depth="0.0">
			<acc value="1.4270877968002" flag="0"/>
			<vel value="0.871805351561103" flag="0"/>
			<psa03 value="3.40416604834459" flag="0"/>
			<psa10 value="1.05306823473996" flag="0"/>
			<psa30 value="0.169653946477229" flag="0"/>
		</comp>
	</station>
	<station code="ESKT" name="ESKT" netid="KO" source="Bogazici University Kandilli Observatory And Earthquake Research Institute (KOERI)" insttype="" lat="39.5212" lon="30.8492">
		<comp name="--.HNE" depth="0.0">
			<acc value="0.162662557068193" flag="0"/>
			<vel value="0.182053772598409" flag="0"/>
			<psa03 value="0.412746856053557" flag="0"/>
			<psa10 value="0.288258377469208" flag="0"/>
			<psa30 value="0.0559733953235903" flag="0"/>
		</comp>
		<comp name="--.HNN" depth="0.0">
			<acc value="0.178398471917361" flag="0"/>
			<vel value="0.19139084392284" flag="0"/>
			<psa03 value="0.409346448350568" flag="0"/>
			<psa10 value="0.265519045799604" flag="0"/>
			<psa30 value="0.0467359193451819" flag="0"/>
		</comp>
		<comp name="--.HNZ" depth="0.0">
			<acc value="0.064165504130714" flag="0"/>
			<vel value="0.0960696299090798" flag="0"/>
			<psa03 value="0.194181176723299" flag="0"/>
			<psa10 value="0.146792916005623" flag="0"/>
			<psa30 value="0.0417681921443552" flag="0"/>
		</comp>
	</station>
	<station code="EZNE" name="EZNE" netid="KO" source="Bogazici University Kandilli Observatory And Earthquake Research Institute (KOERI)" insttype="" lat="39.756" lon="26.3655">
		<comp name="--.HNE" depth="0.0">
			<acc value="0.189840457114956" flag="0"/>
			<vel value="0.110803337433416" flag="0"/>
			<psa03 value="0.38988358847162" flag="0"/>
			<psa10 value="0.22803357767275" flag="0"/>
			<psa30 value="0.0470983312187899" flag="0"/>
		</comp>
		<comp name="--.HNN" depth="0.0">
			<acc value="0.295508207654272" flag="0"/>
			<vel value="0.160527759573813" flag="0"/>
			<psa03 value="0.506839716571783" flag="0"/>
			<psa10 value="0.270564624439947" flag="0"/>
			<psa30 value="0.0448697219071338" flag="0"/>
		</comp>
		<comp name="--.HNZ" depth="0.0">
			<acc value="0.155490770951442" flag="0"/>
			<vel value="0.121253787267489" flag="0"/>
			<psa03 value="0.232659474415013" flag="0"/>
			<psa10 value="0.139472196158741" flag="0"/>
			<psa30 value="0.0321396692801031" flag="0"/>
		</comp>
	</station>
	<station code="GMLD" name="GMLD" netid="KO" source="Bogazici University Kandilli Observatory And Earthquake Research Institute (KOERI)" insttype="" lat="38.0766" lon="26.9157">
		<comp name="--.HNE" depth="0.0">
			<acc value="1.80257208738621" flag="0"/>
			<vel value="1.15443864319005" flag="0"/>
			<psa03 value="4.1292582488003" flag="0"/>
			<psa10 value="2.01264628648484" flag="0"/>
			<psa30 value="0.0993263564263647" flag="0"/>
		</comp>
		<comp name="--.HNN" depth="0.0">
			<acc value="1.76080480119106" flag="0"/>
			<vel value="1.46573322103292" flag="0"/>
			<psa03 value="3.13182023665917" flag="0"/>
			<psa10 value="1.92458422799669" flag="0"/>
			<psa30 value="0.174601987107144" flag="0"/>
		</comp>
		<comp name="--.HNZ" depth="0.0">
			<acc value="0.9293546910123" flag="0"/>
			<vel value="0.593470840280333" flag="0"/>
			<psa03 value="2.47670484735443" flag="0"/>
			<psa10 value="0.83380905120712" flag="0"/>
			<psa30 value="0.0988028726089309" flag="0"/>
		</comp>
	</station>
	<station code="GOMA" name="GOMA" netid="KO" source="Bogazici University Kandilli Observatory And Earthquake Research Institute (KOERI)" insttype="" lat="38.7077" lon="27.9175">
		<comp name="--.HNE" depth="0.0">
			<acc value="17.5370936567644" flag="0"/>
			<vel value="8.69530161401693" flag="0"/>
			<psa03 value="61.5420103593004" flag="0"/>
			<psa10 value="4.82205105029828" flag="0"/>
			<psa30 value="0.39248445294234" flag="0"/>
		</comp>
		<comp name="--.HNN" depth="0.0">
			<acc value="16.0089292362143" flag="0"/>
			<vel value="6.9689825416014" flag="0"/>
			<psa03 value="42.1673821118035" flag="0"/>
			<psa10 value="4.13918654444889" flag="0"/>
			<psa30 value="0.443452537611544" flag="0"/>
		</comp>
		<comp name="--.HNZ" depth="0.0">
			<acc value="12.3473767278492" flag="0"/>
			<vel value="4.38483106923761" flag="0"/>
