<?xml version="1.0" encoding="UTF-8" standalone="yes"?>
<!DOCTYPE earthquake SYSTEM "stationlist.dtd">
<stationlist created="" xmlns="ch.ethz.sed.shakemap.usgs.xml">
  <station code="KRL1" name="KRL1" netid="HI" insttype="CMG-5TD,ACCELEROMETER,GURALP" lat="37.7951" lon="26.7065">
    <comp name="--.HNE">
      <acc value="0.1820753555" flag="0"/>
      <vel value="0.1295458841" flag="0"/>
      <psa03 value="0.5178083899" flag="0"/>
      <psa10 value="0.1917567165" flag="0"/>
      <psa30 value="0.0254549804" flag="0"/>
    </comp>
    <comp name="--.HNN">
      <acc value="0.1572316772" flag="0"/>
      <vel value="0.1332627257" flag="0"/>
      <psa03 value="0.3635346929" flag="0"/>
      <psa10 value="0.1312430947" flag="0"/>
      <psa30 value="0.0432268952" flag="0"/>
    </comp>
    <comp name="--.HNZ">
      <acc value="0.0969525338" flag="0"/>
      <vel value="0.0812973173" flag="0"/>
      <psa03 value="0.1765442322" flag="0"/>
      <psa10 value="0.1214091070" flag="0"/>
      <psa30 value="0.0182248835" flag="0"/>
    </comp>
  </station>
  <station code="EAG2" name="EAG2" netid="HL" insttype="SMART24" lat="38.5438" lon="26.1079">
    <comp name="--.HHE">
      <acc value="1.1293966399" flag="0"/>
      <vel value="0.7046022367" flag="0"/>
      <psa03 value="3.6448956816" flag="0"/>
      <psa10 value="0.6432482230" flag="0"/>
      <psa30 value="0.0508685535" flag="0"/>
    </comp>
    <comp name="--.HHZ">
      <acc value="0.2250529055" flag="0"/>
      <vel value="0.2097384609" flag="0"/>
      <psa03 value="0.7840325241" flag="0"/>
      <psa10 value="0.3745168542" flag="0"/>
      <psa30 value="0.0625796293" flag="0"/>
    </comp>
    <comp name="--.HHN">
      <acc value="0.6497613869" flag="0"/>
      <vel value="0.4153173628" flag="0"/>
      <psa03 value="3.0334729715" flag="0"/>
      <psa10 value="0.4694948106" flag="0"/>
      <psa30 value="0.0310448582" flag="0"/>
    </comp>
  </station>
  <station code="PRK" name="PRK" netid="HL" insttype="120" lat="39.2456" lon="26.265">
    <comp name="--.HHE">
      <acc value="0.1318248903" flag="0"/>
      <vel value="0.1560099891" flag="0"/>
      <psa03 value="0.4166663202" flag="0"/>
      <psa10 value="0.2590899676" flag="0"/>
      <psa30 value="0.0286896554" flag="0"/>
    </comp>
    <comp name="--.HHN">
      <acc value="0.1202316795" flag="0"/>
      <vel value="0.1454705782" flag="0"/>
      <psa03 value="0.2043808647" flag="0"/>
      <psa10 value="0.2490900660" flag="0"/>
      <psa30 value="0.0308372409" flag="0"/>
    </comp>
    <comp name="--.HHZ">
      <acc value="0.0790524132" flag="0"/>
      <vel value="0.0700688422" flag="0"/>
      <psa03 value="0.2785934152" flag="0"/>
      <psa10 value="0.0852941956" flag="0"/>
      <psa30 value="0.0205422778" flag="0"/>
    </comp>
  </station>
  <station code="CHOS" name="CHOS" netid="HT" insttype="100" lat="38.3869" lon="26.0506">
    <comp name="--.HHN">
      <acc value="0.0652472185" flag="0"/>
      <vel value="0.0824357769" flag="0"/>
      <psa03 value="0.1393744068" flag="0"/>
      <psa10 value="0.0742632073" flag="0"/>
      <psa30 value="0.0202518513" flag="0"/>
    </comp>
    <comp name="--.HHZ">
      <acc value="0.0316098814" flag="0"/>
      <vel value="0.0642661091" flag="0"/>
      <psa03 value="0.0779956342" flag="0"/>
      <psa10 value="0.0608769807" flag="0"/>
      <psa30 value="0.0350211248" flag="0"/>
    </comp>
    <comp name="--.HHE">
      <acc value="0.0869360181" flag="0"/>
      <vel value="0.0748324738" flag="0"/>
      <psa03 value="0.2056977991" flag="0"/>
      <psa10 value="0.0994677581" flag="0"/>
      <psa30 value="0.0343622352" flag="0"/>
    </comp>
  </station>
  <station code="AKS" name="AKS" netid="KO" insttype="100" lat="38.8785" lon="27.8129">
    <comp name="--.HNZ">
      <acc value="12.6114320005" flag="0"/>
      <vel value="4.5093308877" flag="0"/>
      <psa03 value="15.2161869145" flag="0"/>
      <psa10 value="6.0849802442" flag="0"/>
      <psa30 value="0.7577413737" flag="0"/>
    </comp>
    <comp name="--.HNE">
      <acc value="18.9865535992" flag="0"/>
      <vel value="21.6015769842" flag="0"/>
      <psa03 value="42.2995457737" flag="0"/>
      <psa10 value="32.3592754200" flag="0"/>
      <psa30 value="2.3120752939" flag="0"/>
    </comp>
    <comp name="--.HNN">
      <acc value="37.0136634034" flag="0"/>
      <vel value="29.9242849843" flag="0"/>
      <psa03 value="65.8454800091" flag="0"/>
      <psa10 value="45.4770598511" flag="0"/>
      <psa30 value="2.7331393879" flag="0"/>
    </comp>
  </station>
  <station code="BALB" name="BALB" netid="KO" insttype="120s," lat="39.64" lon="27.88">
    <comp name="--.HHN">
      <acc value="0.5074394812" flag="0"/>
      <vel value="0.2711565961" flag="0"/>
      <psa03 value="1.1178477495" flag="0"/>
      <psa10 value="0.4020435026" flag="0"/>
      <psa30 value="0.0381948698" flag="0"/>
    </comp>
    <comp name="--.HHZ">
      <acc value="0.2435643596" flag="0"/>
      <vel value="0.1773565483" flag="0"/>
      <psa03 value="0.4474089819" flag="0"/>
      <psa10 value="0.2046902252" flag="0"/>
      <psa30 value="0.0340466010" flag="0"/>
    </comp>
    <comp name="--.HHE">
      <acc value="0.3637412885" flag="0"/>
      <vel value="0.2626187877" flag="0"/>
      <psa03 value="0.8761737681" flag="0"/>
      <psa10 value="0.5957480829" flag="0"/>
      <psa30 value="0.0343870030" flag="0"/>
    </comp>
  </station>
  <station code="DST" name="DST" netid="KO" insttype="100" lat="39.6041" lon="28.6267">
    <comp name="--.HNN">
      <acc value="1.8300644265" flag="0"/>
      <vel value="1.7381177475" flag="0"/>
      <psa03 value="5.5961239743" flag="0"/>
      <psa10 value="2.3896639042" flag="0"/>
      <psa30 value="0.1815241543" flag="0"/>
    </comp>
    <comp name="--.HNE">
      <acc value="1.6305774306" flag="0"/>
      <vel value="1.2539851604" flag="0"/>
      <psa03 value="3.1833092178" flag="0"/>
      <psa10 value="2.7966596942" flag="0"/>
      <psa30 value="0.2351825667" flag="0"/>
    </comp>
    <comp name="--.HNZ">
      <acc value="1.4308416808" flag="0"/>
      <vel value="0.8664683971" flag="0"/>
      <psa03 value="3.3928744828" flag="0"/>
      <psa10 value="1.0546038637" flag="0"/>
      <psa30 value="0.1718560178" flag="0"/>
    </comp>
  </station>
  <station code="EDC" name="EDC" netid="KO" insttype="120s," lat="40.3465" lon="27.8618">
    <comp name="--.HHZ">
      <acc value="0.0820826513" flag="0"/>
      <vel value="0.0555567328" flag="0"/>
      <psa03 value="0.2348642263" flag="0"/>
      <psa10 value="0.1167674028" flag="0"/>
      <psa30 value="0.0113770760" flag="0"/>
    </comp>
    <comp name="--.HHN">
      <acc value="0.2092145769" flag="0"/>
      <vel value="0.1401529939" flag="0"/>
      <psa03 value="0.8136562055" flag="0"/>
      <psa10 value="0.1945213357" flag="0"/>
      <psa30 value="0.0158753342" flag="0"/>
    </comp>
    <comp name="--.HHE">
      <acc value="0.1540852204" flag="0"/>
      <vel value="0.0858666722" flag="0"/>
      <psa03 value="0.4390025393" flag="0"/>
      <psa10 value="0.1766325038" flag="0"/>
      <psa30 value="0.0214713689" flag="0"/>
    </comp>
  </station>
  <station code="EZN" name="EZN" netid="KO" insttype="120s," lat="39.8255" lon="26.3247">
    <comp name="--.HHN">
      <acc value="0.0407033173" flag="0"/>
      <vel value="0.0312596913" flag="0"/>
      <psa03 value="0.0541226790" flag="0"/>
      <psa10 value="0.0408689600" flag="0"/>
      <psa30 value="0.0097615562" flag="0"/>
    </comp>
    <comp name="--.HHE">
      <acc value="0.0370958877" flag="0"/>
      <vel value="0.0275752966" flag="0"/>
      <psa03 value="0.0861175010" flag="0"/>
      <psa10 value="0.0469101154" flag="0"/>
      <psa30 value="0.0070336751" flag="0"/>
    </comp>
    <comp name="--.HHZ">
      <acc value="0.0278446897" flag="0"/>
      <vel value="0.0190844101" flag="0"/>
      <psa03 value="0.0349522782" flag="0"/>
      <psa10 value="0.0356197363" flag="0"/>
      <psa30 value="0.0086145306" flag="0"/>
    </comp>
  </station>
  <station code="FOCM" name="FOCM" netid="KO" insttype="100" lat="38.7131" lon="26.7309">
    <comp name="--.HNN">
      <acc value="1.7826021183" flag="0"/>
      <vel value="1.3204942114" flag="0"/>
      <psa03 value="4.6690854991" flag="0"/>
      <psa10 value="0.7810386485" flag="0"/>
      <psa30 value="0.1334510119" flag="0"/>
    </comp>
    <comp name="--.HNZ">
      <acc value="1.1133824240" flag="0"/>
      <vel value="0.7803745106" flag="0"/>
      <psa03 value="4.3082379790" flag="0"/>
      <psa10 value="0.8431853301" flag="0"/>
      <psa30 value="0.0702797639" flag="0"/>
    </comp>
  </station>
  <station code="GEDZ" name="GEDZ" netid="KO" insttype="30s," lat="39.0445" lon="29.4105">
    <comp name="--.HHE">
      <acc value="0.5504507210" flag="0"/>
      <vel value="0.2869155131" flag="0"/>
      <psa03 value="1.2552568651" flag="0"/>
      <psa10 value="0.5694253962" flag="0"/>
      <psa30 value="0.0375461728" flag="0"/>
    </comp>
    <comp name="--.HHZ">
      <acc value="0.1477438842" flag="0"/>
      <vel value="0.1514544523" flag="0"/>
      <psa03 value="0.4612905703" flag="0"/>
      <psa10 value="0.1473791403" flag="0"/>
      <psa30 value="0.0153572658" flag="0"/>
    </comp>
    <comp name="--.HHN">
      <acc value="0.7122382160" flag="0"/>
      <vel value="0.3219180907" flag="0"/>
      <psa03 value="1.8338316592" flag="0"/>
      <psa10 value="0.5475941248" flag="0"/>
      <psa30 value="0.0521358044" flag="0"/>
    </comp>
  </station>
  <station code="GMLD" name="GMLD" netid="KO" insttype="100" lat="38.0764" lon="26.8747">
    <comp name="--.HNE">
      <acc value="1.8025038717" flag="0"/>
      <vel value="1.1557032957" flag="0"/>
      <psa03 value="4.1229198891" flag="0"/>
      <psa10 value="2.0132510146" flag="0"/>
      <psa30 value="0.0992424321" flag="0"/>
    </comp>
    <comp name="--.HNN">
      <acc value="1.7488287563" flag="0"/>
      <vel value="1.4703607598" flag="0"/>
      <psa03 value="3.1687102882" flag="0"/>
      <psa10 value="1.9200183635" flag="0"/>
      <psa30 value="0.1741418242" flag="0"/>
    </comp>
    <comp name="--.HNZ">
      <acc value="0.9404950247" flag="0"/>
      <vel value="0.5816618744" flag="0"/>
      <psa03 value="2.4347749990" flag="0"/>
      <psa10 value="0.8332061345" flag="0"/>
      <psa30 value="0.0983255349" flag="0"/>
    </comp>
  </station>
  <station code="GOMA" name="GOMA" netid="KO" insttype="100" lat="38.7077" lon="27.9175">
    <comp name="--.HNN">
      <acc value="15.9380086810" flag="0"/>
      <vel value="6.9540900221" flag="0"/>
      <psa03 value="42.2131997414" flag="0"/>
      <psa10 value="4.1330225158" flag="0"/>
      <psa30 value="0.4421061953" flag="0"/>
    </comp>
    <comp name="--.HNZ">
      <acc value="12.3146196666" flag="0"/>
      <vel value="4.3374498214" flag="0"/>
      <psa03 value="14.3251364798" flag="0"/>
      <psa10 value="1.6646478629" flag="0"/>
      <psa30 value="0.1448550480" flag="0"/>
    </comp>
    <comp name="--.HNE">
      <acc value="17.3163865794" flag="0"/>
      <vel value="8.6611493414" flag="0"/>
      <psa03 value="60.5948075596" flag="0"/>
      <psa10 value="4.8093801293" flag="0"/>
      <psa30 value="0.3926259137" flag="0"/>
    </comp>
  </station>
  <station code="GONE" name="GONE" netid="KO" insttype="100" lat="40.0466" lon="27.686">
    <comp name="--.HNN">
      <acc value="0.7049597207" flag="0"/>
      <vel value="0.6373797796" flag="0"/>
      <psa03 value="1.6609957985" flag="0"/>
      <psa10 value="0.8455187605" flag="0"/>
      <psa30 value="0.1776873177" flag="0"/>
    </comp>
    <comp name="--.HNZ">
      <acc value="0.3673170234" flag="0"/>
      <vel value="0.4639275041" flag="0"/>
      <psa03 value="0.8096664208" flag="0"/>
      <psa10 value="0.4297584550" flag="0"/>
      <psa30 value="0.1620947273" flag="0"/>
    </comp>
    <comp name="--.HNE">
      <acc value="0.7608041495" flag="0"/>
      <vel value="0.6948623835" flag="0"/>
      <psa03 value="1.6722459531" flag="0"/>
      <psa10 value="1.1921297972" flag="0"/>
      <psa30 value="0.1417257026" flag="0"/>
    </comp>
  </station>
  <station code="KCTX" name="KCTX" netid="KO" insttype="30s," lat="40.2627" lon="28.3353">
    <comp name="--.HHE">
      <acc value="0.0970762286" flag="0"/>
      <vel value="0.0799474589" flag="0"/>
      <psa03 value="0.3787554318" flag="0"/>
      <psa10 value="0.1425893718" flag="0"/>
      <psa30 value="0.0181450995" flag="0"/>
    </comp>
    <comp name="--.HHN">
      <acc value="0.1306517881" flag="0"/>
      <vel value="0.0839963433" flag="0"/>
      <psa03 value="0.4479788772" flag="0"/>
      <psa10 value="0.1109376472" flag="0"/>
      <psa30 value="0.0083313826" flag="0"/>
    </comp>
    <comp name="--.HHZ">
      <acc value="0.0769838322" flag="0"/>
      <vel value="0.0498335280" flag="0"/>
      <psa03 value="0.2323719783" flag="0"/>
      <psa10 value="0.0516419049" flag="0"/>
      <psa30 value="0.0158635810" flag="0"/>
    </comp>
  </station>
  <station code="KHL" name="KHL" netid="KO" insttype="100" lat="38.3232" lon="29.5286">
    <comp name="--.HNZ">
      <acc value="0.0976061171" flag="0"/>
      <vel value="0.1038714345" flag="0"/>
      <psa03 value="0.3592438354" flag="0"/>
      <psa10 value="0.1579130888" flag="0"/>
      <psa30 value="0.0325703779" flag="0"/>
    </comp>
    <comp name="--.HNN">
      <acc value="0.2556018375" flag="0"/>
      <vel value="0.1863732882" flag="0"/>
      <psa03 value="0.5700692158" flag="0"/>
      <psa10 value="0.2072671854" flag="0"/>
      <psa30 value="0.0296536114" flag="0"/>
    </comp>
    <comp name="--.HNE">
      <acc value="0.2549216955" flag="0"/>
      <vel value="0.1470522896" flag="0"/>
      <psa03 value="0.6420832617" flag="0"/>
      <psa10 value="0.1345457798" flag="0"/>
      <psa30 value="0.0302382085" flag="0"/>
    </comp>
  </station>
  <station code="KRBN" name="KRBN" netid="KO" insttype="100" lat="38.5936" lon="26.5537">
    <comp name="--.HNN">
      <acc value="0.7888472196" flag="0"/>
      <vel value="1.4428417495" flag="0"/>
      <psa03 value="1.9712841818" flag="0"/>
      <psa10 value="1.7774905742" flag="0"/>
      <psa30 value="0.2668429411" flag="0"/>
    </comp>
    <comp name="--.HNZ">
      <acc value="0.4601652880" flag="0"/>
      <vel value="0.3881328074" flag="0"/>
      <psa03 value="1.1098010428" flag="0"/>
      <psa10 value="0.7002091313" flag="0"/>
      <psa30 value="0.0796743779" flag="0"/>
    </comp>
    <comp name="--.HNE">
      <acc value="0.6613324846" flag="0"/>
      <vel value="0.6928980588" flag="0"/>
      <psa03 value="2.3186484897" flag="0"/>
      <psa10 value="1.2303487775" flag="0"/>
      <psa30 value="0.1202636224" flag="0"/>
    </comp>
  </station>
  <station code="KUSD" name="KUSD" netid="KO" insttype="100" lat="37.86" lon="27.2815">
    <comp name="--.HNN">
      <acc value="0.7454868582" flag="0"/>
      <vel value="0.8516142733" flag="0"/>
      <psa03 value="1.0156748982" flag="0"/>
      <psa10 value="2.9646782735" flag="0"/>
      <psa30 value="0.1212086356" flag="0"/>
    </comp>
    <comp name="--.HNZ">
      <acc value="0.6646900339" flag="0"/>
      <vel value="0.3988627195" flag="0"/>
      <psa03 value="1.0272171970" flag="0"/>
      <psa10 value="0.5074277765" flag="0"/>
      <psa30 value="0.1143357767" flag="0"/>
    </comp>
    <comp name="--.HNE">
      <acc value="0.4771050715" flag="0"/>
      <vel value="0.3920867936" flag="0"/>
      <psa03 value="0.8838670692" flag="0"/>
      <psa10 value="0.6824241743" flag="0"/>
      <psa30 value="0.0933942293" flag="0"/>
    </comp>
  </station>
  <station code="ORLT" name="ORLT" netid="KO" insttype="100" lat="40.0452" lon="28.8914">
    <comp name="--.HNE">
      <acc value="1.3819858574" flag="0"/>
      <vel value="1.0976015325" flag="0"/>
      <psa03 value="4.6889138832" flag="0"/>
      <psa10 value="1.7832838256" flag="0"/>
      <psa30 value="0.0868454464" flag="0"/>
    </comp>
    <comp name="--.HNZ">
      <acc value="0.4913816981" flag="0"/>
      <vel value="0.4709079744" flag="0"/>
      <psa03 value="1.0054372787" flag="0"/>
      <psa10 value="0.8468304641" flag="0"/>
      <psa30 value="0.0430183605" flag="0"/>
    </comp>
    <comp name="--.HNN">
      <acc value="1.9142109271" flag="0"/>
      <vel value="1.7600491069" flag="0"/>
      <psa03 value="6.9513820284" flag="0"/>
      <psa10 value="1.7330724316" flag="0"/>
      <psa30 value="0.1111160401" flag="0"/>
    </comp>
  </station>
  <station code="SHAP" name="SHAP" netid="KO" insttype="100" lat="39.0231" lon="29.222">
    <comp name="--.HNZ">
      <acc value="0.5632283413" flag="0"/>
      <vel value="0.4810291955" flag="0"/>
      <psa03 value="1.1292023561" flag="0"/>
      <psa10 value="0.6014745241" flag="0"/>
      <psa30 value="0.0592356757" flag="0"/>
    </comp>
    <comp name="--.HNE">
      <acc value="1.0017349577" flag="0"/>
      <vel value="0.8795870080" flag="0"/>
      <psa03 value="2.2602411578" flag="0"/>
      <psa10 value="0.7425374508" flag="0"/>
      <psa30 value="0.0783442999" flag="0"/>
    </comp>
    <comp name="--.HNN">
      <acc value="1.3221977856" flag="0"/>
      <vel value="1.1310310773" flag="0"/>
      <psa03 value="2.7834002881" flag="0"/>
      <psa10 value="1.0243682273" flag="0"/>
      <psa30 value="0.0984333403" flag="0"/>
    </comp>
  </station>
  <station code="SMAA" name="SMAA" netid="KO" insttype="100" lat="39.1005" lon="28.9805">
    <comp name="--.HNE">
      <acc value="5.4409790892" flag="0"/>
      <vel value="8.0861023314" flag="0"/>
      <psa03 value="14.0609385560" flag="0"/>
      <psa10 value="11.3284461826" flag="0"/>
      <psa30 value="0.6854207699" flag="0"/>
    </comp>
    <comp name="--.HNN">
      <acc value="5.5492326832" flag="0"/>
      <vel value="6.3496012059" flag="0"/>
      <psa03 value="11.0878135463" flag="0"/>
      <psa10 value="17.5891643247" flag="0"/>
      <psa30 value="0.5884501302" flag="0"/>
    </comp>
    <comp name="--.HNZ">
      <acc value="1.8423973812" flag="0"/>
      <vel value="2.2303616512" flag="0"/>
      <psa03 value="3.3313454079" flag="0"/>
      <psa10 value="6.1435933818" flag="0"/>
      <psa30 value="0.3269049914" flag="0"/>
    </comp>
  </station>
  <station code="TVSB" name="TVSB" netid="KO" insttype="120" lat="39.4497" lon="29.4615">
    <comp name="--.HHN">
      <acc value="0.0698985055" flag="0"/>
      <vel value="0.0490954656" flag="0"/>
      <psa03 value="0.2598693870" flag="0"/>
      <psa10 value="0.0909675389" flag="0"/>
      <psa30 value="0.0079446006" flag="0"/>
    </comp>
    <comp name="--.HHZ">
      <acc value="0.0396223946" flag="0"/>
      <vel value="0.0396794800" flag="0"/>
      <psa03 value="0.1217596367" flag="0"/>
      <psa10 value="0.0550408256" flag="0"/>
      <psa30 value="0.0062510507" flag="0"/>
    </comp>
  </station>
  <station code="AYDN" name="AYDN" netid="TU" source="ODC" insttype="T" lat="37.6608" lon="27.8792">
    <comp name="--.HHZ">
      <acc value="0.2145456823" flag="0"/>
      <vel value="0.1521914190" flag="0"/>
      <psa03 value="0.2399360813" flag="0"/>
      <psa10 value="0.3735919482" flag="0"/>
      <psa30 value="0.0291658146" flag="0"/>
    </comp>
    <comp name="--.HHE">
      <acc value="0.5288172644" flag="0"/>
      <vel value="0.3380398173" flag="0"/>
      <psa03 value="1.2720055737" flag="0"/>
      <psa10 value="0.6057496643" flag="0"/>
      <psa30 value="0.0631393363" flag="0"/>
    </comp>
    <comp name="--.HHN">
      <acc value="0.3355734119" flag="0"/>
      <vel value="0.3380727042" flag="0"/>
      <psa03 value="1.2857449485" flag="0"/>
      <psa10 value="0.3129734689" flag="0"/>
      <psa30 value="0.0597646669" flag="0"/>
    </comp>
  </station>
</stationlist>
