<?xml version="1.0" encoding="UTF-8" standalone="yes"?>
<!DOCTYPE earthquake SYSTEM "stationlist.dtd">
<stationlist created="" xmlns="ch.ethz.sed.shakemap.usgs.xml">
  <station code="YOZ" name="YOZ" netid="KO" insttype="360s," lat="39.6376" lon="35.3152">
    <comp name="--.HHZ">
      <acc value="0.1094326478" flag="0"/>
      <vel value="0.0306678591" flag="0"/>
      <psa03 value="0.0785847986" flag="0"/>
      <psa10 value="0.0104575800" flag="0"/>
      <psa30 value="0.0007545489" flag="0"/>
    </comp>
    <comp name="--.HHN">
      <acc value="0.0986663436" flag="0"/>
      <vel value="0.0290404262" flag="0"/>
      <psa03 value="0.1687005574" flag="0"/>
      <psa10 value="0.0181435764" flag="0"/>
      <psa30 value="0.0011229530" flag="0"/>
    </comp>
    <comp name="--.HHE">
      <acc value="0.1325069812" flag="0"/>
      <vel value="0.0430593324" flag="0"/>
      <psa03 value="0.2377558945" flag="0"/>
      <psa10 value="0.0172991401" flag="0"/>
      <psa30 value="0.0010874194" flag="0"/>
    </comp>
  </station>
</stationlist>
