<stationlist created="1778136141">
	<station code="ARPRA" name="ARPRA" netid="KO" source="Bogazici University Kandilli Observatory And Earthquake Research Institute (KOERI)" insttype="" lat="39.0929" lon="38.3356">
		<comp name="--.HNE" depth="0.0">
			<acc value="0.0275601044780502" flag="0"/>
			<vel value="0.0157176798288338" flag="0"/>
			<psa03 value="0.0743168051929494" flag="0"/>
			<psa10 value="0.0111260445197656" flag="0"/>
			<psa30 value="0.000865314275997376" flag="0"/>
		</comp>
		<comp name="--.HNN" depth="0.0">
			<acc value="0.0186398211166744" flag="0"/>
			<vel value="0.0120491845815579" flag="0"/>
			<psa03 value="0.0554355940000387" flag="0"/>
			<psa10 value="0.0144360729653854" flag="0"/>
			<psa30 value="0.00100535738271257" flag="0"/>
		</comp>
		<comp name="--.HNZ" depth="0.0">
			<acc value="0.0109956749716882" flag="0"/>
			<vel value="0.00635211235849882" flag="0"/>
			<psa03 value="0.0199102819451309" flag="0"/>
			<psa10 value="0.0089394928823307" flag="0"/>
			<psa30 value="0.000457265351638737" flag="0"/>
		</comp>
	</station>
	<station code="ERBG" name="ERBG" netid="KO" source="Bogazici University Kandilli Observatory And Earthquake Research Institute (KOERI)" insttype="" lat="40.712" lon="36.6768">
		<comp name="--.HNE" depth="0.0">
			<acc value="0.0342072482361296" flag="0"/>
			<vel value="0.0390474828542436" flag="0"/>
			<psa03 value="0.0726613435480733" flag="0"/>
			<psa10 value="0.0361687049860785" flag="0"/>
			<psa30 value="0.00731042913935942" flag="0"/>
		</comp>
		<comp name="--.HNN" depth="0.0">
			<acc value="0.0393449463957686" flag="0"/>
			<vel value="0.0309400048395929" flag="0"/>
			<psa03 value="0.0689029981921385" flag="0"/>
			<psa10 value="0.0329835072969238" flag="0"/>
			<psa30 value="0.00322501825304503" flag="0"/>
		</comp>
		<comp name="--.HNZ" depth="0.0">
			<acc value="0.0192270061207572" flag="0"/>
			<vel value="0.0121034820649849" flag="0"/>
			<psa03 value="0.0474714812219863" flag="0"/>
			<psa10 value="0.0254131259371122" flag="0"/>
			<psa30 value="0.00155881847858059" flag="0"/>
		</comp>
	</station>
	<station code="KHMN" name="KHMN" netid="KO" source="Bogazici University Kandilli Observatory And Earthquake Research Institute (KOERI)" insttype="" lat="37.3916" lon="37.1574">
		<comp name="--.HNE" depth="0.0">
			<acc value="0.0058731207948478" flag="0"/>
			<vel value="0.00483749085451274" flag="0"/>
			<psa03 value="0.00939586338983707" flag="0"/>
			<psa10 value="0.00704287074378216" flag="0"/>
			<psa30 value="0.00079685869987142" flag="0"/>
		</comp>
		<comp name="--.HNN" depth="0.0">
			<acc value="0.00491278412045963" flag="0"/>
			<vel value="0.00290062834348935" flag="0"/>
			<psa03 value="0.0148991548038845" flag="0"/>
			<psa10 value="0.00322546567511121" flag="0"/>
			<psa30 value="0.00070468975423778" flag="0"/>
		</comp>
		<comp name="--.HNZ" depth="0.0">
			<acc value="0.00268823799090191" flag="0"/>
			<vel value="0.00226888006825943" flag="0"/>
			<psa03 value="0.00917215235674571" flag="0"/>
			<psa10 value="0.00233151638687814" flag="0"/>
			<psa30 value="0.000428182917336861" flag="0"/>
		</comp>
	</station>
	<station code="KIZO" name="KIZO" netid="KO" source="Bogazici University Kandilli Observatory And Earthquake Research Institute (KOERI)" insttype="" lat="40.9005" lon="35.9334">
		<comp name="--.HNE" depth="0.0">
			<acc value="0.00728723332126824" flag="0"/>
			<vel value="0.00695837350129555" flag="0"/>
			<psa03 value="0.0165546164487606" flag="0"/>
			<psa10 value="0.0102562560231064" flag="0"/>
			<psa30 value="0.00100043573998456" flag="0"/>
		</comp>
		<comp name="--.HNN" depth="0.0">
			<acc value="0.00955997545951148" flag="0"/>
			<vel value="0.00935345385364152" flag="0"/>
			<psa03 value="0.0205366728377867" flag="0"/>
			<psa10 value="0.00774756049801994" flag="0"/>
			<psa30 value="0.000746747428458955" flag="0"/>
		</comp>
		<comp name="--.HNZ" depth="0.0">
			<acc value="0.00453221649200446" flag="0"/>
			<vel value="0.00360990125788803" flag="0"/>
			<psa03 value="0.00988802766263806" flag="0"/>
			<psa10 value="0.00562141083951966" flag="0"/>
			<psa30 value="0.000434446826263419" flag="0"/>
		</comp>
	</station>
	<station code="KOZK" name="KOZK" netid="KO" source="Bogazici University Kandilli Observatory And Earthquake Research Institute (KOERI)" insttype="" lat="39.2101" lon="34.868">
		<comp name="--.HNE" depth="0.0">
			<acc value="0.157512475686464" flag="0"/>
			<vel value="0.10264495280273" flag="0"/>
			<psa03 value="0.246082136400495" flag="0"/>
			<psa10 value="0.135163521661402" flag="0"/>
			<psa30 value="0.010335897150887" flag="0"/>
		</comp>
		<comp name="--.HNN" depth="0.0">
			<acc value="0.199847918769743" flag="0"/>
			<vel value="0.0786960305508698" flag="0"/>
			<psa03 value="0.270690350040544" flag="0"/>
			<psa10 value="0.151093536905771" flag="0"/>
			<psa30 value="0.00593550112997993" flag="0"/>
		</comp>
		<comp name="--.HNZ" depth="0.0">
			<acc value="0.112075085579776" flag="0"/>
			<vel value="0.0689458122904862" flag="0"/>
			<psa03 value="0.281383737422311" flag="0"/>
			<psa10 value="0.0355364976065623" flag="0"/>
			<psa30 value="0.00433462497717817" flag="0"/>
		</comp>
	</station>
	<station code="KYHL" name="KYHL" netid="KO" source="Bogazici University Kandilli Observatory And Earthquake Research Institute (KOERI)" insttype="" lat="40.3244" lon="37.8955">
		<comp name="--.HNE" depth="0.0">
			<acc value="0.0324222673077337" flag="0"/>
			<vel value="0.0294727240688544" flag="0"/>
			<psa03 value="0.159505966594139" flag="0"/>
			<psa10 value="0.0565523594772308" flag="0"/>
			<psa30 value="0.00416192005963164" flag="0"/>
		</comp>
		<comp name="--.HNN" depth="0.0">
			<acc value="0.0409258768153903" flag="0"/>
			<vel value="0.0297890682657577" flag="0"/>
			<psa03 value="0.109081499735347" flag="0"/>
			<psa10 value="0.0382908278459832" flag="0"/>
			<psa30 value="0.00431628067246467" flag="0"/>
		</comp>
		<comp name="--.HNZ" depth="0.0">
			<acc value="0.0142273240818826" flag="0"/>
			<vel value="0.0121700562568583" flag="0"/>
			<psa03 value="0.0719902104487993" flag="0"/>
			<psa10 value="0.020601101615317" flag="0"/>
			<psa30 value="0.00302054636879953" flag="0"/>
		</comp>
	</station>
	<station code="TUNC" name="TUNC" netid="KO" source="Bogazici University Kandilli Observatory And Earthquake Research Institute (KOERI)" insttype="" lat="39.6942" lon="37.5388">
		<comp name="--.HNE" depth="0.0">
			<acc value="0.0566853489039333" flag="0"/>
			<vel value="0.0558139682349126" flag="0"/>
			<psa03 value="0.217044444305236" flag="0"/>
			<psa10 value="0.0789252524746314" flag="0"/>
			<psa30 value="0.0127148402767805" flag="0"/>
		</comp>
		<comp name="--.HNN" depth="0.0">
			<acc value="0.0799146517459607" flag="0"/>
			<vel value="0.0678448665778292" flag="0"/>
			<psa03 value="0.219236812429532" flag="0"/>
			<psa10 value="0.0734206187943854" flag="0"/>
			<psa30 value="0.0128280380595247" flag="0"/>
		</comp>
		<comp name="--.HNZ" depth="0.0">
			<acc value="0.056067142807262" flag="0"/>
			<vel value="0.0436203252521983" flag="0"/>
			<psa03 value="0.101878004469805" flag="0"/>
			<psa10 value="0.0805440255100804" flag="0"/>
			<psa30 value="0.00757261847014249" flag="0"/>
		</comp>
	</station>
	<station code="YARM" name="YARM" netid="KO" source="Bogazici University Kandilli Observatory And Earthquake Research Institute (KOERI)" insttype="" lat="40.9231" lon="35.8266">
		<comp name="--.HNE" depth="0.0">
			<acc value="0.0121759801685405" flag="0"/>
			<vel value="0.00955718494942664" flag="0"/>
			<psa03 value="0.039999532716735" flag="0"/>
			<psa10 value="0.0133005157614136" flag="0"/>
			<psa30 value="0.00134674041920998" flag="0"/>
		</comp>
		<comp name="--.HNN" depth="0.0">
			<acc value="0.0129509489576742" flag="0"/>
			<vel value="0.0100599714473332" flag="0"/>
			<psa03 value="0.0340935614431231" flag="0"/>
			<psa10 value="0.00685361120978687" flag="0"/>
			<psa30 value="0.00064876199596494" flag="0"/>
		</comp>
		<comp name="--.HNZ" depth="0.0">
			<acc value="0.00463500179334129" flag="0"/>
			<vel value="0.00292251039238292" flag="0"/>
			<psa03 value="0.010380191935439" flag="0"/>
			<psa10 value="0.00567778601985869" flag="0"/>
			<psa30 value="0.000430420027667774" flag="0"/>
		</comp>
	</station>
</stationlist>
