<?xml version="1.0" encoding="UTF-8" standalone="yes"?>
<!DOCTYPE earthquake SYSTEM "stationlist.dtd">
<stationlist created="" xmlns="ch.ethz.sed.shakemap.usgs.xml">
  <station code="AMBH" name="AMBH" netid="HU" insttype="" lat="46.3501" lon="20.7258">
    <comp name="--.HHN">
      <acc value="0.0140973543" flag="0"/>
      <vel value="0.0052544407" flag="0"/>
      <psa03 value="0.0268222474" flag="0"/>
      <psa10 value="0.0073985154" flag="0"/>
      <psa30 value="0.0004305079" flag="0"/>
    </comp>
    <comp name="--.HHZ">
      <acc value="0.0102497124" flag="0"/>
      <vel value="0.0021032042" flag="0"/>
      <psa03 value="0.0087794744" flag="0"/>
      <psa10 value="0.0013473915" flag="0"/>
      <psa30 value="0.0001037471" flag="0"/>
    </comp>
    <comp name="--.HHE">
      <acc value="0.0133208082" flag="0"/>
      <vel value="0.0041532827" flag="0"/>
      <psa03 value="0.0209109030" flag="0"/>
      <psa10 value="0.0045070944" flag="0"/>
      <psa30 value="0.0003244778" flag="0"/>
    </comp>
  </station>
  <station code="BZS" name="BZS" netid="MN" insttype="" lat="45.6188" lon="21.6401">
    <comp name="--.HHN">
      <acc value="0.1273345590" flag="0"/>
      <vel value="0.0228576923" flag="0"/>
      <psa03 value="0.1215767628" flag="0"/>
      <psa10 value="0.0097181969" flag="0"/>
      <psa30 value="0.0015238504" flag="0"/>
    </comp>
    <comp name="--.HHE">
      <acc value="0.1335144209" flag="0"/>
      <vel value="0.0233574350" flag="0"/>
      <psa03 value="0.0784599829" flag="0"/>
      <psa10 value="0.0132768946" flag="0"/>
      <psa30 value="0.0013011470" flag="0"/>
    </comp>
    <comp name="--.HHZ">
      <acc value="0.0881243608" flag="0"/>
      <vel value="0.0142933752" flag="0"/>
      <psa03 value="0.0648651618" flag="0"/>
      <psa10 value="0.0106836741" flag="0"/>
      <psa30 value="0.0014199207" flag="0"/>
    </comp>
  </station>
  <station code="BANR" name="BANR" netid="RO" insttype="330" lat="45.3828" lon="21.137">
    <comp name="--.HHE">
      <acc value="0.1859078705" flag="0"/>
      <vel value="0.0905738653" flag="0"/>
      <psa03 value="0.4981208013" flag="0"/>
      <psa10 value="0.0641586320" flag="0"/>
      <psa30 value="0.0039693343" flag="0"/>
    </comp>
    <comp name="--.HHZ">
      <acc value="0.0726313817" flag="0"/>
      <vel value="0.0278446797" flag="0"/>
      <psa03 value="0.1418800720" flag="0"/>
      <psa10 value="0.0154099059" flag="0"/>
      <psa30 value="0.0011742925" flag="0"/>
    </comp>
    <comp name="--.HHN">
      <acc value="0.1593586824" flag="0"/>
      <vel value="0.0252615191" flag="0"/>
      <psa03 value="0.0516660419" flag="0"/>
      <psa10 value="0.0162936857" flag="0"/>
      <psa30 value="0.0058705407" flag="0"/>
    </comp>
  </station>
  <station code="BORR" name="BORR" netid="RO" insttype="CMG40T.1to100/Quanterra" lat="47.0902" lon="21.7856">
    <comp name="--.HHE">
      <acc value="0.0598449332" flag="0"/>
      <vel value="0.0271837929" flag="0"/>
      <psa03 value="0.1800673823" flag="0"/>
      <psa10 value="0.0345576028" flag="0"/>
      <psa30 value="0.0028576653" flag="0"/>
    </comp>
    <comp name="--.HHN">
      <acc value="0.0688010877" flag="0"/>
      <vel value="0.0343931697" flag="0"/>
      <psa03 value="0.1393915722" flag="0"/>
      <psa10 value="0.0384615967" flag="0"/>
      <psa30 value="0.0046191855" flag="0"/>
    </comp>
    <comp name="--.HHZ">
      <acc value="0.0364155665" flag="0"/>
      <vel value="0.0113809394" flag="0"/>
      <psa03 value="0.0539331490" flag="0"/>
      <psa10 value="0.0168960861" flag="0"/>
      <psa30 value="0.0014496856" flag="0"/>
    </comp>
  </station>
  <station code="BZS" name="BZS" netid="RO" insttype="w/attenuator" lat="45.6188" lon="21.6401">
    <comp name="--.HHE">
      <acc value="0.1057381061" flag="0"/>
      <vel value="0.0173390820" flag="0"/>
      <psa03 value="0.0583598489" flag="0"/>
      <psa10 value="0.0099230960" flag="0"/>
      <psa30 value="0.0009881051" flag="0"/>
    </comp>
    <comp name="--.HHN">
      <acc value="0.0998319846" flag="0"/>
      <vel value="0.0166233045" flag="0"/>
      <psa03 value="0.0912468574" flag="0"/>
      <psa10 value="0.0072962376" flag="0"/>
      <psa30 value="0.0011371348" flag="0"/>
    </comp>
    <comp name="--.HHZ">
      <acc value="0.0716898740" flag="0"/>
      <vel value="0.0104457366" flag="0"/>
      <psa03 value="0.0485762084" flag="0"/>
      <psa10 value="0.0079841575" flag="0"/>
      <psa30 value="0.0010871182" flag="0"/>
    </comp>
  </station>
  <station code="CBBR" name="CBBR" netid="RO" insttype="200" lat="46.7683" lon="23.5501">
    <comp name="--.HNE">
      <acc value="0.1616081363" flag="0"/>
      <vel value="0.0598387475" flag="0"/>
      <psa03 value="0.2361888592" flag="0"/>
      <psa10 value="0.0241268057" flag="0"/>
      <psa30 value="0.0021185938" flag="0"/>
    </comp>
    <comp name="--.HNN">
      <acc value="0.1204476913" flag="0"/>
      <vel value="0.0473302070" flag="0"/>
      <psa03 value="0.2516306545" flag="0"/>
      <psa10 value="0.0233393522" flag="0"/>
      <psa30 value="0.0018093503" flag="0"/>
    </comp>
    <comp name="--.HNZ">
      <acc value="0.0759643721" flag="0"/>
      <vel value="0.0256543783" flag="0"/>
      <psa03 value="0.1488416910" flag="0"/>
      <psa10 value="0.0188173363" flag="0"/>
      <psa30 value="0.0012041672" flag="0"/>
    </comp>
  </station>
  <station code="CJR" name="CJR" netid="RO" insttype="w/attenuator" lat="46.7133" lon="23.5981">
    <comp name="--.HHE">
      <acc value="0.1521342005" flag="0"/>
      <vel value="0.0969468079" flag="0"/>
      <psa03 value="0.5869840960" flag="0"/>
      <psa10 value="0.0623252639" flag="0"/>
      <psa30 value="0.0033832274" flag="0"/>
    </comp>
    <comp name="--.HHN">
      <acc value="0.1418781020" flag="0"/>
      <vel value="0.0663672184" flag="0"/>
      <psa03 value="0.3068549505" flag="0"/>
      <psa10 value="0.0544662701" flag="0"/>
      <psa30 value="0.0047237106" flag="0"/>
    </comp>
    <comp name="--.HHZ">
      <acc value="0.0916936109" flag="0"/>
      <vel value="0.0326621884" flag="0"/>
      <psa03 value="0.2192869224" flag="0"/>
      <psa10 value="0.0196257738" flag="0"/>
      <psa30 value="0.0014399504" flag="0"/>
    </comp>
  </station>
  <station code="DEV" name="DEV" netid="RO" insttype="CMG40T.1to100/Quanterra" lat="45.887" lon="22.898">
    <comp name="--.HHE">
      <acc value="0.2635557715" flag="0"/>
      <vel value="0.0417880641" flag="0"/>
      <psa03 value="0.1542483512" flag="0"/>
      <psa10 value="0.0459043696" flag="0"/>
      <psa30 value="0.0016702838" flag="0"/>
    </comp>
    <comp name="--.HHN">
      <acc value="0.1580692510" flag="0"/>
      <vel value="0.0438324612" flag="0"/>
      <psa03 value="0.1677646237" flag="0"/>
      <psa10 value="0.0192962441" flag="0"/>
      <psa30 value="0.0009337415" flag="0"/>
    </comp>
    <comp name="--.HHZ">
      <acc value="0.1792488818" flag="0"/>
      <vel value="0.0425357262" flag="0"/>
      <psa03 value="0.1010243927" flag="0"/>
      <psa10 value="0.0250929796" flag="0"/>
      <psa30 value="0.0009765588" flag="0"/>
    </comp>
  </station>
  <station code="DRGR" name="DRGR" netid="RO" insttype="330" lat="46.7917" lon="22.7111">
    <comp name="--.HHZ">
      <acc value="0.0858584018" flag="0"/>
      <vel value="0.0303005798" flag="0"/>
      <psa03 value="0.1236470928" flag="0"/>
      <psa10 value="0.0102347573" flag="0"/>
      <psa30 value="0.0008839600" flag="0"/>
    </comp>
    <comp name="--.HHN">
      <acc value="0.1213831994" flag="0"/>
      <vel value="0.0279352442" flag="0"/>
      <psa03 value="0.2324869173" flag="0"/>
      <psa10 value="0.0092242405" flag="0"/>
      <psa30 value="0.0007164963" flag="0"/>
    </comp>
    <comp name="--.HHE">
      <acc value="0.1275150958" flag="0"/>
      <vel value="0.0369022820" flag="0"/>
      <psa03 value="0.2290406774" flag="0"/>
      <psa10 value="0.0190050957" flag="0"/>
      <psa30 value="0.0016978772" flag="0"/>
    </comp>
  </station>
  <station code="GZR" name="GZR" netid="RO" insttype="330" lat="45.3933" lon="22.7767">
    <comp name="--.HHN">
      <acc value="0.1640236758" flag="0"/>
      <vel value="0.0218107089" flag="0"/>
      <psa03 value="0.0541920463" flag="0"/>
      <psa10 value="0.0157625909" flag="0"/>
      <psa30 value="0.0037776666" flag="0"/>
    </comp>
    <comp name="--.HHZ">
      <acc value="0.1385493665" flag="0"/>
      <vel value="0.0183636678" flag="0"/>
      <psa03 value="0.0459221533" flag="0"/>
      <psa10 value="0.0132866664" flag="0"/>
      <psa30 value="0.0031771268" flag="0"/>
    </comp>
    <comp name="--.HHE">
      <acc value="0.0015190341" flag="0"/>
      <vel value="0.0001953097" flag="0"/>
      <psa03 value="0.0004890648" flag="0"/>
      <psa10 value="0.0001371971" flag="0"/>
      <psa30 value="0.0000316472" flag="0"/>
    </comp>
  </station>
  <station code="HERR" name="HERR" netid="RO" insttype="CMG40T.1to100/Quanterra" lat="44.881" lon="22.416">
    <comp name="--.HHE">
      <acc value="0.1244778492" flag="0"/>
      <vel value="0.0209808119" flag="0"/>
      <psa03 value="0.0643287666" flag="0"/>
      <psa10 value="0.0107593972" flag="0"/>
      <psa30 value="0.0006634050" flag="0"/>
    </comp>
    <comp name="--.HHN">
      <acc value="0.1880757109" flag="0"/>
      <vel value="0.0316956972" flag="0"/>
      <psa03 value="0.0733429809" flag="0"/>
      <psa10 value="0.0122609704" flag="0"/>
      <psa30 value="0.0008708302" flag="0"/>
    </comp>
    <comp name="--.HHZ">
      <acc value="0.0730726212" flag="0"/>
      <vel value="0.0106668256" flag="0"/>
      <psa03 value="0.0348944277" flag="0"/>
      <psa10 value="0.0063130933" flag="0"/>
      <psa30 value="0.0005294883" flag="0"/>
    </comp>
  </station>
  <station code="JIMR" name="JIMR" netid="RO" insttype="200" lat="45.7818" lon="20.7024">
    <comp name="--.HNE">
      <acc value="0.1127066680" flag="0"/>
      <vel value="0.0349343358" flag="0"/>
      <psa03 value="0.2590628096" flag="0"/>
      <psa10 value="0.0206008752" flag="0"/>
      <psa30 value="0.0039202506" flag="0"/>
    </comp>
    <comp name="--.HNN">
      <acc value="0.0999201306" flag="0"/>
      <vel value="0.0502816676" flag="0"/>
      <psa03 value="0.2281936002" flag="0"/>
      <psa10 value="0.0268482908" flag="0"/>
      <psa30 value="0.0023641495" flag="0"/>
    </comp>
    <comp name="--.HNZ">
      <acc value="0.0469825358" flag="0"/>
      <vel value="0.0086765100" flag="0"/>
      <psa03 value="0.0424472131" flag="0"/>
      <psa10 value="0.0064028985" flag="0"/>
      <psa30 value="0.0007074886" flag="0"/>
    </comp>
  </station>
  <station code="LOT" name="LOT" netid="RO" insttype="330" lat="45.446" lon="23.7698">
    <comp name="--.HHE">
      <acc value="0.0422003169" flag="0"/>
      <vel value="0.0145494497" flag="0"/>
      <psa03 value="0.0784607078" flag="0"/>
      <psa10 value="0.0115729450" flag="0"/>
      <psa30 value="0.0004983562" flag="0"/>
    </comp>
    <comp name="--.HHN">
      <acc value="0.0353103629" flag="0"/>
      <vel value="0.0148619481" flag="0"/>
      <psa03 value="0.0665862835" flag="0"/>
      <psa10 value="0.0087508790" flag="0"/>
      <psa30 value="0.0008065698" flag="0"/>
    </comp>
    <comp name="--.HHZ">
      <acc value="0.0268475190" flag="0"/>
      <vel value="0.0094604501" flag="0"/>
      <psa03 value="0.0572531322" flag="0"/>
      <psa10 value="0.0161814813" flag="0"/>
      <psa30 value="0.0005210428" flag="0"/>
    </comp>
  </station>
  <station code="MDVR" name="MDVR" netid="RO" insttype="CMG40T.1to100/Quanterra" lat="44.7815" lon="21.7128">
    <comp name="--.HHE">
      <acc value="0.0659852015" flag="0"/>
      <vel value="0.0181812870" flag="0"/>
      <psa03 value="0.0422453824" flag="0"/>
      <psa10 value="0.0169041085" flag="0"/>
      <psa30 value="0.0012821612" flag="0"/>
    </comp>
    <comp name="--.HHN">
      <acc value="0.0483887148" flag="0"/>
      <vel value="0.0092901657" flag="0"/>
      <psa03 value="0.0393152195" flag="0"/>
      <psa10 value="0.0072869501" flag="0"/>
      <psa30 value="0.0005112625" flag="0"/>
    </comp>
    <comp name="--.HHZ">
      <acc value="0.0220167884" flag="0"/>
      <vel value="0.0077554504" flag="0"/>
      <psa03 value="0.0245915527" flag="0"/>
      <psa10 value="0.0098450235" flag="0"/>
      <psa30 value="0.0007891321" flag="0"/>
    </comp>
  </station>
  <station code="MESR" name="MESR" netid="RO" insttype="CMG40T.1to100/obsidian" lat="47.1499" lon="22.9494">
    <comp name="--.HHE">
      <acc value="0.1465163680" flag="0"/>
      <vel value="0.0558828095" flag="0"/>
      <psa03 value="0.4787673405" flag="0"/>
      <psa10 value="0.0586588592" flag="0"/>
      <psa30 value="0.0058013362" flag="0"/>
    </comp>
    <comp name="--.HHN">
      <acc value="0.1804968970" flag="0"/>
      <vel value="0.0714709718" flag="0"/>
      <psa03 value="0.3717898548" flag="0"/>
      <psa10 value="0.0825116881" flag="0"/>
      <psa30 value="0.0060040881" flag="0"/>
    </comp>
    <comp name="--.HHZ">
      <acc value="0.0676527562" flag="0"/>
      <vel value="0.0357017021" flag="0"/>
      <psa03 value="0.1359160491" flag="0"/>
      <psa10 value="0.0410472805" flag="0"/>
      <psa30 value="0.0023598045" flag="0"/>
    </comp>
  </station>
  <station code="SNMR" name="SNMR" netid="RO" insttype="200" lat="46.0713" lon="20.6017">
    <comp name="--.HNE">
      <acc value="0.0748904277" flag="0"/>
      <vel value="0.0234491338" flag="0"/>
      <psa03 value="0.1577687716" flag="0"/>
      <psa10 value="0.0212966687" flag="0"/>
      <psa30 value="0.0016477875" flag="0"/>
    </comp>
    <comp name="--.HNN">
      <acc value="0.0618817014" flag="0"/>
      <vel value="0.0268713718" flag="0"/>
      <psa03 value="0.1223523920" flag="0"/>
      <psa10 value="0.0205565861" flag="0"/>
      <psa30 value="0.0029947409" flag="0"/>
    </comp>
    <comp name="--.HNZ">
      <acc value="0.0314443685" flag="0"/>
      <vel value="0.0072445420" flag="0"/>
      <psa03 value="0.0304813118" flag="0"/>
      <psa10 value="0.0084224666" flag="0"/>
      <psa30 value="0.0004866051" flag="0"/>
    </comp>
  </station>
  <station code="TIM" name="TIM" netid="RO" insttype="2.5V" lat="45.7365" lon="21.2211">
    <comp name="--.HNE">
      <acc value="0.1057262491" flag="0"/>
      <vel value="0.0657767828" flag="0"/>
      <psa03 value="0.3872559547" flag="0"/>
      <psa10 value="0.0623510400" flag="0"/>
      <psa30 value="0.0024150991" flag="0"/>
    </comp>
    <comp name="--.HNN">
      <acc value="0.0954456020" flag="0"/>
      <vel value="0.0428778558" flag="0"/>
      <psa03 value="0.1875451710" flag="0"/>
      <psa10 value="0.0438432817" flag="0"/>
      <psa30 value="0.0028199871" flag="0"/>
    </comp>
    <comp name="--.HNZ">
      <acc value="0.0728317025" flag="0"/>
      <vel value="0.0167097496" flag="0"/>
      <psa03 value="0.0955509029" flag="0"/>
      <psa10 value="0.0127848292" flag="0"/>
      <psa30 value="0.0011661027" flag="0"/>
    </comp>
  </station>
</stationlist>
