<?xml version="1.0" encoding="UTF-8" standalone="yes"?>
<!DOCTYPE earthquake SYSTEM "stationlist.dtd">
<stationlist created="" xmlns="ch.ethz.sed.shakemap.usgs.xml">
  <station code="AMBH" name="AMBH" netid="HU" insttype="" lat="46.3501" lon="20.7258">
    <comp name="--.HHE">
      <acc value="0.0133208077" flag="0"/>
      <vel value="0.0041532823" flag="0"/>
      <psa03 value="0.0209109030" flag="0"/>
      <psa10 value="0.0045070944" flag="0"/>
      <psa30 value="0.0003244652" flag="0"/>
    </comp>
    <comp name="--.HHN">
      <acc value="0.0140973539" flag="0"/>
      <vel value="0.0052544410" flag="0"/>
      <psa03 value="0.0268222474" flag="0"/>
      <psa10 value="0.0073985154" flag="0"/>
      <psa30 value="0.0004304993" flag="0"/>
    </comp>
    <comp name="--.HHZ">
      <acc value="0.0102497127" flag="0"/>
      <vel value="0.0021032040" flag="0"/>
      <psa03 value="0.0087794744" flag="0"/>
      <psa10 value="0.0013473915" flag="0"/>
      <psa30 value="0.0001037479" flag="0"/>
    </comp>
  </station>
  <station code="BZS" name="BZS" netid="MN" insttype="" lat="45.6188" lon="21.6401">
    <comp name="--.HHN">
      <acc value="0.1273345591" flag="0"/>
      <vel value="0.0228576924" flag="0"/>
      <psa03 value="0.1215767628" flag="0"/>
      <psa10 value="0.0097181969" flag="0"/>
      <psa30 value="0.0015238109" flag="0"/>
    </comp>
    <comp name="--.HHZ">
      <acc value="0.0881243612" flag="0"/>
      <vel value="0.0142933055" flag="0"/>
      <psa03 value="0.0648651619" flag="0"/>
      <psa10 value="0.0106836742" flag="0"/>
      <psa30 value="0.0014198727" flag="0"/>
    </comp>
    <comp name="--.HHE">
      <acc value="0.1335144208" flag="0"/>
      <vel value="0.0233574352" flag="0"/>
      <psa03 value="0.0784599829" flag="0"/>
      <psa10 value="0.0132768945" flag="0"/>
      <psa30 value="0.0013011741" flag="0"/>
    </comp>
  </station>
  <station code="BANR" name="BANR" netid="RO" insttype="330" lat="45.3828" lon="21.137">
    <comp name="--.HHE">
      <acc value="0.1859078710" flag="0"/>
      <vel value="0.0905738653" flag="0"/>
      <psa03 value="0.4981208013" flag="0"/>
      <psa10 value="0.0641586319" flag="0"/>
      <psa30 value="0.0039694836" flag="0"/>
    </comp>
    <comp name="--.HHN">
      <acc value="0.1593586815" flag="0"/>
      <vel value="0.0252615205" flag="0"/>
      <psa03 value="0.0516660419" flag="0"/>
      <psa10 value="0.0162936857" flag="0"/>
      <psa30 value="0.0058705705" flag="0"/>
    </comp>
    <comp name="--.HHZ">
      <acc value="0.0726313818" flag="0"/>
      <vel value="0.0278446803" flag="0"/>
      <psa03 value="0.1418800720" flag="0"/>
      <psa10 value="0.0154099087" flag="0"/>
      <psa30 value="0.0011743078" flag="0"/>
    </comp>
  </station>
  <station code="BORR" name="BORR" netid="RO" insttype="CMG40T.1to100/Quanterra" lat="47.0902" lon="21.7856">
    <comp name="--.HHN">
      <acc value="0.0688010879" flag="0"/>
      <vel value="0.0343931711" flag="0"/>
      <psa03 value="0.1393915722" flag="0"/>
      <psa10 value="0.0384615966" flag="0"/>
      <psa30 value="0.0046191526" flag="0"/>
    </comp>
    <comp name="--.HHE">
      <acc value="0.0598449329" flag="0"/>
      <vel value="0.0271837960" flag="0"/>
      <psa03 value="0.1800673823" flag="0"/>
      <psa10 value="0.0345576028" flag="0"/>
      <psa30 value="0.0028576848" flag="0"/>
    </comp>
    <comp name="--.HHZ">
      <acc value="0.0364155668" flag="0"/>
      <vel value="0.0113809397" flag="0"/>
      <psa03 value="0.0539331490" flag="0"/>
      <psa10 value="0.0168960861" flag="0"/>
      <psa30 value="0.0014496862" flag="0"/>
    </comp>
  </station>
  <station code="BZS" name="BZS" netid="RO" insttype="w/attenuator" lat="45.6188" lon="21.6401">
    <comp name="--.HHN">
      <acc value="0.0998319849" flag="0"/>
      <vel value="0.0166233047" flag="0"/>
      <psa03 value="0.0912468574" flag="0"/>
      <psa10 value="0.0072962376" flag="0"/>
      <psa30 value="0.0011371038" flag="0"/>
    </comp>
    <comp name="--.HHE">
      <acc value="0.1057381060" flag="0"/>
      <vel value="0.0173390822" flag="0"/>
      <psa03 value="0.0583598489" flag="0"/>
      <psa10 value="0.0099230959" flag="0"/>
      <psa30 value="0.0009881256" flag="0"/>
    </comp>
    <comp name="--.HHZ">
      <acc value="0.0716898742" flag="0"/>
      <vel value="0.0104456085" flag="0"/>
      <psa03 value="0.0485762086" flag="0"/>
      <psa10 value="0.0079841577" flag="0"/>
      <psa30 value="0.0010870611" flag="0"/>
    </comp>
  </station>
  <station code="CBBR" name="CBBR" netid="RO" insttype="200" lat="46.7683" lon="23.5501">
    <comp name="--.HNE">
      <acc value="0.1616081361" flag="0"/>
      <vel value="0.0598387476" flag="0"/>
      <psa03 value="0.2361888592" flag="0"/>
      <psa10 value="0.0241268057" flag="0"/>
      <psa30 value="0.0021185935" flag="0"/>
    </comp>
    <comp name="--.HNN">
      <acc value="0.1204476917" flag="0"/>
      <vel value="0.0473302071" flag="0"/>
      <psa03 value="0.2516306545" flag="0"/>
      <psa10 value="0.0233393522" flag="0"/>
      <psa30 value="0.0018093482" flag="0"/>
    </comp>
    <comp name="--.HNZ">
      <acc value="0.0759643720" flag="0"/>
      <vel value="0.0256543782" flag="0"/>
      <psa03 value="0.1488416910" flag="0"/>
      <psa10 value="0.0188173363" flag="0"/>
      <psa30 value="0.0012041574" flag="0"/>
    </comp>
  </station>
  <station code="CJR" name="CJR" netid="RO" insttype="w/attenuator" lat="46.7133" lon="23.5981">
    <comp name="--.HHE">
      <acc value="0.1521342004" flag="0"/>
      <vel value="0.0969468078" flag="0"/>
      <psa03 value="0.5869840960" flag="0"/>
      <psa10 value="0.0623252639" flag="0"/>
      <psa30 value="0.0033832345" flag="0"/>
    </comp>
    <comp name="--.HHZ">
      <acc value="0.0916936109" flag="0"/>
      <vel value="0.0326621889" flag="0"/>
      <psa03 value="0.2192869224" flag="0"/>
      <psa10 value="0.0196257738" flag="0"/>
      <psa30 value="0.0014399516" flag="0"/>
    </comp>
    <comp name="--.HHN">
      <acc value="0.1418781020" flag="0"/>
      <vel value="0.0663672175" flag="0"/>
      <psa03 value="0.3068549505" flag="0"/>
      <psa10 value="0.0544662701" flag="0"/>
      <psa30 value="0.0047237076" flag="0"/>
    </comp>
  </station>
  <station code="CRBR" name="CRBR" netid="RO" insttype="200" lat="45.4108" lon="22.2383">
    <comp name="--.HNZ">
      <acc value="0.0622275231" flag="0"/>
      <vel value="0.0159277211" flag="0"/>
      <psa03 value="0.0586073850" flag="0"/>
      <psa10 value="0.0210532533" flag="0"/>
      <psa30 value="0.0012204175" flag="0"/>
    </comp>
    <comp name="--.HNE">
      <acc value="0.1149931334" flag="0"/>
      <vel value="0.0559630909" flag="0"/>
      <psa03 value="0.2091038695" flag="0"/>
      <psa10 value="0.0891231861" flag="0"/>
      <psa30 value="0.0032967934" flag="0"/>
    </comp>
    <comp name="--.HNN">
      <acc value="0.1663299963" flag="0"/>
      <vel value="0.0482706420" flag="0"/>
      <psa03 value="0.2771392263" flag="0"/>
      <psa10 value="0.0539680683" flag="0"/>
      <psa30 value="0.0035229863" flag="0"/>
    </comp>
  </station>
  <station code="DEV" name="DEV" netid="RO" insttype="CMG40T.1to100/Quanterra" lat="45.887" lon="22.898">
    <comp name="--.HHE">
      <acc value="0.2635557753" flag="0"/>
      <vel value="0.0417880627" flag="0"/>
      <psa03 value="0.1542483512" flag="0"/>
      <psa10 value="0.0459043696" flag="0"/>
      <psa30 value="0.0016702912" flag="0"/>
    </comp>
    <comp name="--.HHZ">
      <acc value="0.1792488830" flag="0"/>
      <vel value="0.0425357260" flag="0"/>
      <psa03 value="0.1010243927" flag="0"/>
      <psa10 value="0.0250929795" flag="0"/>
      <psa30 value="0.0009765099" flag="0"/>
    </comp>
    <comp name="--.HHN">
      <acc value="0.1580692503" flag="0"/>
      <vel value="0.0438324398" flag="0"/>
      <psa03 value="0.1677646238" flag="0"/>
      <psa10 value="0.0192962446" flag="0"/>
      <psa30 value="0.0009335094" flag="0"/>
    </comp>
  </station>
  <station code="DRGR" name="DRGR" netid="RO" insttype="330" lat="46.7917" lon="22.7111">
    <comp name="--.HHN">
      <acc value="0.1213831999" flag="0"/>
      <vel value="0.0279352448" flag="0"/>
      <psa03 value="0.2324869173" flag="0"/>
      <psa10 value="0.0092242405" flag="0"/>
      <psa30 value="0.0007164977" flag="0"/>
    </comp>
    <comp name="--.HHE">
      <acc value="0.1275150959" flag="0"/>
      <vel value="0.0369022817" flag="0"/>
      <psa03 value="0.2290406774" flag="0"/>
      <psa10 value="0.0190050957" flag="0"/>
      <psa30 value="0.0016978794" flag="0"/>
    </comp>
    <comp name="--.HHZ">
      <acc value="0.0858584019" flag="0"/>
      <vel value="0.0303005801" flag="0"/>
      <psa03 value="0.1236470928" flag="0"/>
      <psa10 value="0.0102347573" flag="0"/>
      <psa30 value="0.0008839714" flag="0"/>
    </comp>
  </station>
  <station code="GZR" name="GZR" netid="RO" insttype="330" lat="45.3933" lon="22.7767">
    <comp name="--.HHN">
      <acc value="0.1640236761" flag="0"/>
      <vel value="0.0218107114" flag="0"/>
      <psa03 value="0.0541920463" flag="0"/>
      <psa10 value="0.0157625909" flag="0"/>
      <psa30 value="0.0037776665" flag="0"/>
    </comp>
    <comp name="--.HHE">
      <acc value="0.0015190340" flag="0"/>
      <vel value="0.0001953096" flag="0"/>
      <psa03 value="0.0004890648" flag="0"/>
      <psa10 value="0.0001371971" flag="0"/>
      <psa30 value="0.0000316505" flag="0"/>
    </comp>
    <comp name="--.HHZ">
      <acc value="0.1385493663" flag="0"/>
      <vel value="0.0183636698" flag="0"/>
      <psa03 value="0.0459221533" flag="0"/>
      <psa10 value="0.0132866664" flag="0"/>
      <psa30 value="0.0031771315" flag="0"/>
    </comp>
  </station>
  <station code="HERR" name="HERR" netid="RO" insttype="CMG40T.1to100/Quanterra" lat="44.881" lon="22.416">
    <comp name="--.HHN">
      <acc value="0.1880757108" flag="0"/>
      <vel value="0.0316956972" flag="0"/>
      <psa03 value="0.0733429809" flag="0"/>
      <psa10 value="0.0122609704" flag="0"/>
      <psa30 value="0.0008708305" flag="0"/>
    </comp>
    <comp name="--.HHE">
      <acc value="0.1244778492" flag="0"/>
      <vel value="0.0209808284" flag="0"/>
      <psa03 value="0.0643287666" flag="0"/>
      <psa10 value="0.0107593973" flag="0"/>
      <psa30 value="0.0006633639" flag="0"/>
    </comp>
    <comp name="--.HHZ">
      <acc value="0.0730726213" flag="0"/>
      <vel value="0.0106668270" flag="0"/>
      <psa03 value="0.0348944277" flag="0"/>
      <psa10 value="0.0063130933" flag="0"/>
      <psa30 value="0.0005294896" flag="0"/>
    </comp>
  </station>
  <station code="JIMR" name="JIMR" netid="RO" insttype="200" lat="45.7818" lon="20.7024">
    <comp name="--.HNE">
      <acc value="0.1127066692" flag="0"/>
      <vel value="0.0349343373" flag="0"/>
      <psa03 value="0.2590628096" flag="0"/>
      <psa10 value="0.0206008756" flag="0"/>
      <psa30 value="0.0039209033" flag="0"/>
    </comp>
    <comp name="--.HNZ">
      <acc value="0.0469825351" flag="0"/>
      <vel value="0.0086765165" flag="0"/>
      <psa03 value="0.0424472131" flag="0"/>
      <psa10 value="0.0064028985" flag="0"/>
      <psa30 value="0.0006798506" flag="0"/>
    </comp>
    <comp name="--.HNN">
      <acc value="0.0999201288" flag="0"/>
      <vel value="0.0502816677" flag="0"/>
      <psa03 value="0.2281936002" flag="0"/>
      <psa10 value="0.0268482910" flag="0"/>
      <psa30 value="0.0023642757" flag="0"/>
    </comp>
  </station>
  <station code="LOT" name="LOT" netid="RO" insttype="330" lat="45.446" lon="23.7698">
    <comp name="--.HHE">
      <acc value="0.0422003170" flag="0"/>
      <vel value="0.0145494498" flag="0"/>
      <psa03 value="0.0784607078" flag="0"/>
      <psa10 value="0.0115729450" flag="0"/>
      <psa30 value="0.0004983540" flag="0"/>
    </comp>
    <comp name="--.HHZ">
      <acc value="0.0268475190" flag="0"/>
      <vel value="0.0094604503" flag="0"/>
      <psa03 value="0.0572531322" flag="0"/>
      <psa10 value="0.0161814813" flag="0"/>
      <psa30 value="0.0005210434" flag="0"/>
    </comp>
    <comp name="--.HHN">
      <acc value="0.0353103629" flag="0"/>
      <vel value="0.0148619479" flag="0"/>
      <psa03 value="0.0665862835" flag="0"/>
      <psa10 value="0.0087508790" flag="0"/>
      <psa30 value="0.0008065712" flag="0"/>
    </comp>
  </station>
  <station code="MDVR" name="MDVR" netid="RO" insttype="CMG40T.1to100/Quanterra" lat="44.7815" lon="21.7128">
    <comp name="--.HHE">
      <acc value="0.0659852015" flag="0"/>
      <vel value="0.0181812856" flag="0"/>
      <psa03 value="0.0422453824" flag="0"/>
      <psa10 value="0.0169041085" flag="0"/>
      <psa30 value="0.0012821430" flag="0"/>
    </comp>
    <comp name="--.HHZ">
      <acc value="0.0220167884" flag="0"/>
      <vel value="0.0077554504" flag="0"/>
      <psa03 value="0.0245915527" flag="0"/>
      <psa10 value="0.0098450235" flag="0"/>
      <psa30 value="0.0007891330" flag="0"/>
    </comp>
    <comp name="--.HHN">
      <acc value="0.0483887147" flag="0"/>
      <vel value="0.0092901656" flag="0"/>
      <psa03 value="0.0393152195" flag="0"/>
      <psa10 value="0.0072869501" flag="0"/>
      <psa30 value="0.0005113165" flag="0"/>
    </comp>
  </station>
  <station code="MESR" name="MESR" netid="RO" insttype="CMG40T.1to100/obsidian" lat="47.1499" lon="22.9494">
    <comp name="--.HHE">
      <acc value="0.1465163680" flag="0"/>
      <vel value="0.0558828089" flag="0"/>
      <psa03 value="0.4787673405" flag="0"/>
      <psa10 value="0.0586588592" flag="0"/>
      <psa30 value="0.0058013364" flag="0"/>
    </comp>
    <comp name="--.HHZ">
      <acc value="0.0676527562" flag="0"/>
      <vel value="0.0357016988" flag="0"/>
      <psa03 value="0.1359160491" flag="0"/>
      <psa10 value="0.0410472805" flag="0"/>
      <psa30 value="0.0023598061" flag="0"/>
    </comp>
    <comp name="--.HHN">
      <acc value="0.1804968970" flag="0"/>
      <vel value="0.0714709733" flag="0"/>
      <psa03 value="0.3717898548" flag="0"/>
      <psa10 value="0.0825116881" flag="0"/>
      <psa30 value="0.0060040883" flag="0"/>
    </comp>
  </station>
  <station code="SNMR" name="SNMR" netid="RO" insttype="200" lat="46.0713" lon="20.6017">
    <comp name="--.HNN">
      <acc value="0.0618817032" flag="0"/>
      <vel value="0.0268713651" flag="0"/>
      <psa03 value="0.1223523920" flag="0"/>
      <psa10 value="0.0205565862" flag="0"/>
      <psa30 value="0.0029952491" flag="0"/>
    </comp>
    <comp name="--.HNE">
      <acc value="0.0748904267" flag="0"/>
      <vel value="0.0234491333" flag="0"/>
      <psa03 value="0.1577687716" flag="0"/>
      <psa10 value="0.0212966688" flag="0"/>
      <psa30 value="0.0016481642" flag="0"/>
    </comp>
    <comp name="--.HNZ">
      <acc value="0.0314443712" flag="0"/>
      <vel value="0.0072445425" flag="0"/>
      <psa03 value="0.0304813118" flag="0"/>
      <psa10 value="0.0084224808" flag="0"/>
      <psa30 value="0.0004811543" flag="0"/>
    </comp>
  </station>
  <station code="SURR" name="SURR" netid="RO" insttype="Linear" lat="45.754" lon="22.1246">
    <comp name="--.HHN">
      <acc value="1.0692528193" flag="0"/>
      <vel value="0.1623405094" flag="0"/>
      <psa03 value="0.2496330166" flag="0"/>
      <psa10 value="0.0230762183" flag="0"/>
      <psa30 value="0.0026033303" flag="0"/>
    </comp>
    <comp name="--.HHE">
      <acc value="1.8568667285" flag="0"/>
      <vel value="0.2867909301" flag="0"/>
      <psa03 value="0.4887837457" flag="0"/>
      <psa10 value="0.0492481024" flag="0"/>
      <psa30 value="0.0060579889" flag="0"/>
    </comp>
    <comp name="--.HHZ">
      <acc value="0.6918979497" flag="0"/>
      <vel value="0.1086309977" flag="0"/>
      <psa03 value="0.1640768774" flag="0"/>
      <psa10 value="0.0179892885" flag="0"/>
      <psa30 value="0.0023467077" flag="0"/>
    </comp>
  </station>
  <station code="TIM" name="TIM" netid="RO" insttype="2.5V" lat="45.7365" lon="21.2211">
    <comp name="--.HNN">
      <acc value="0.0954456022" flag="0"/>
      <vel value="0.0428778425" flag="0"/>
      <psa03 value="0.1875451710" flag="0"/>
      <psa10 value="0.0438432550" flag="0"/>
      <psa30 value="0.0028152267" flag="0"/>
    </comp>
    <comp name="--.HNE">
      <acc value="0.1057262479" flag="0"/>
      <vel value="0.0657767565" flag="0"/>
      <psa03 value="0.3872559547" flag="0"/>
      <psa10 value="0.0623510058" flag="0"/>
      <psa30 value="0.0024145399" flag="0"/>
    </comp>
    <comp name="--.HNZ">
      <acc value="0.0728317031" flag="0"/>
      <vel value="0.0167097359" flag="0"/>
      <psa03 value="0.0955509029" flag="0"/>
      <psa10 value="0.0127848361" flag="0"/>
      <psa30 value="0.0011320238" flag="0"/>
    </comp>
  </station>
</stationlist>
