<?xml version="1.0" encoding="UTF-8" standalone="yes"?>
<!DOCTYPE earthquake SYSTEM "stationlist.dtd">
<stationlist created="" xmlns="ch.ethz.sed.shakemap.usgs.xml">
  <station code="GVD" name="GVD" netid="GE" insttype="STS-2/N" lat="34.8391" lon="24.0874">
    <comp name="--.HHE">
      <acc value="0.9423170876" flag="0"/>
      <vel value="0.0797048553" flag="0"/>
      <psa03 value="0.4276591597" flag="0"/>
      <psa10 value="0.0468886052" flag="0"/>
      <psa30 value="0.0175850753" flag="0"/>
    </comp>
    <comp name="--.HHN">
      <acc value="0.0565034293" flag="0"/>
      <vel value="0.0198994200" flag="0"/>
      <psa03 value="0.1393146303" flag="0"/>
      <psa10 value="0.0113142730" flag="0"/>
      <psa30 value="0.0006807697" flag="0"/>
    </comp>
    <comp name="--.HHZ">
      <acc value="0.0465516166" flag="0"/>
      <vel value="0.0145506845" flag="0"/>
      <psa03 value="0.0745459358" flag="0"/>
      <psa10 value="0.0057934310" flag="0"/>
      <psa30 value="0.0003757038" flag="0"/>
    </comp>
  </station>
  <station code="IMMV" name="IMMV" netid="GE" insttype="STS-2/N" lat="35.4606" lon="23.9811">
    <comp name="--.HHN">
      <acc value="0.0347752230" flag="0"/>
      <vel value="0.0164560398" flag="0"/>
      <psa03 value="0.1236424084" flag="0"/>
      <psa10 value="0.0077837575" flag="0"/>
      <psa30 value="0.0006308523" flag="0"/>
    </comp>
    <comp name="--.HHZ">
      <acc value="0.0231422739" flag="0"/>
      <vel value="0.0093268259" flag="0"/>
      <psa03 value="0.0676403010" flag="0"/>
      <psa10 value="0.0058579443" flag="0"/>
      <psa30 value="0.0003316575" flag="0"/>
    </comp>
    <comp name="--.HHE">
      <acc value="0.0327851535" flag="0"/>
      <vel value="0.0171409611" flag="0"/>
      <psa03 value="0.1200108152" flag="0"/>
      <psa10 value="0.0090717033" flag="0"/>
      <psa30 value="0.0006120548" flag="0"/>
    </comp>
  </station>
  <station code="CHAN" name="CHAN" netid="HC" insttype="120" lat="35.5193" lon="24.0428">
    <comp name="--.HHN">
      <acc value="0.0230240557" flag="0"/>
      <vel value="0.0146661347" flag="0"/>
      <psa03 value="0.1029545232" flag="0"/>
      <psa10 value="0.0154749270" flag="0"/>
      <psa30 value="0.0015071126" flag="0"/>
    </comp>
    <comp name="--.HHE">
      <acc value="0.0315089287" flag="0"/>
      <vel value="0.0160364428" flag="0"/>
      <psa03 value="0.1102111429" flag="0"/>
      <psa10 value="0.0195675764" flag="0"/>
      <psa30 value="0.0012262765" flag="0"/>
    </comp>
    <comp name="--.HHZ">
      <acc value="0.0243120858" flag="0"/>
      <vel value="0.0121869331" flag="0"/>
      <psa03 value="0.0932592387" flag="0"/>
      <psa10 value="0.0121712847" flag="0"/>
      <psa30 value="0.0006053862" flag="0"/>
    </comp>
  </station>
  <station code="GVDS" name="GVDS" netid="HC" insttype="60" lat="34.8389" lon="24.0585">
    <comp name="--.HHZ">
      <acc value="0.0298381975" flag="0"/>
      <vel value="0.0075607290" flag="0"/>
      <psa03 value="0.0241639204" flag="0"/>
      <psa10 value="0.0041998865" flag="0"/>
      <psa30 value="0.0002429311" flag="0"/>
    </comp>
    <comp name="--.HHN">
      <acc value="0.0666435113" flag="0"/>
      <vel value="0.0164328464" flag="0"/>
      <psa03 value="0.0867760583" flag="0"/>
      <psa10 value="0.0122871252" flag="0"/>
      <psa30 value="0.0004632820" flag="0"/>
    </comp>
    <comp name="--.HHE">
      <acc value="0.0723133239" flag="0"/>
      <vel value="0.0183930067" flag="0"/>
      <psa03 value="0.1083504162" flag="0"/>
      <psa10 value="0.0081938328" flag="0"/>
      <psa30 value="0.0006103250" flag="0"/>
    </comp>
  </station>
  <station code="IPPL" name="IPPL" netid="HC" insttype="60" lat="35.3486" lon="24.4632">
    <comp name="--.HHE">
      <acc value="0.0456509450" flag="0"/>
      <vel value="0.0216266568" flag="0"/>
      <psa03 value="0.1087279136" flag="0"/>
      <psa10 value="0.0206295747" flag="0"/>
      <psa30 value="0.0014356085" flag="0"/>
    </comp>
    <comp name="--.HHZ">
      <acc value="0.0606735179" flag="0"/>
      <vel value="0.0202217826" flag="0"/>
      <psa03 value="0.1124499036" flag="0"/>
      <psa10 value="0.0062696334" flag="0"/>
      <psa30 value="0.0005275288" flag="0"/>
    </comp>
    <comp name="--.HHN">
      <acc value="0.0684521161" flag="0"/>
      <vel value="0.0250373313" flag="0"/>
      <psa03 value="0.1658818086" flag="0"/>
      <psa10 value="0.0149748057" flag="0"/>
      <psa30 value="0.0008809092" flag="0"/>
    </comp>
  </station>
  <station code="KNDR" name="KNDR" netid="HC" insttype="120" lat="35.2348" lon="23.6248">
    <comp name="--.HHZ">
      <acc value="0.0096250572" flag="0"/>
      <vel value="0.0047491815" flag="0"/>
      <psa03 value="0.0307483317" flag="0"/>
      <psa10 value="0.0032643118" flag="0"/>
      <psa30 value="0.0001725957" flag="0"/>
    </comp>
    <comp name="--.HHN">
      <acc value="0.0159043097" flag="0"/>
      <vel value="0.0079774797" flag="0"/>
      <psa03 value="0.0503901396" flag="0"/>
      <psa10 value="0.0060286950" flag="0"/>
      <psa30 value="0.0003155918" flag="0"/>
    </comp>
    <comp name="--.HHE">
      <acc value="0.0148201296" flag="0"/>
      <vel value="0.0083554543" flag="0"/>
      <psa03 value="0.0563870043" flag="0"/>
      <psa10 value="0.0062368484" flag="0"/>
      <psa30 value="0.0003104046" flag="0"/>
    </comp>
  </station>
  <station code="KNSS" name="KNSS" netid="HC" insttype="60" lat="35.3042" lon="25.1802">
    <comp name="--.HHE">
      <acc value="0.0774464900" flag="0"/>
      <vel value="0.0219272468" flag="0"/>
      <psa03 value="0.1386348776" flag="0"/>
      <psa10 value="0.0098223053" flag="0"/>
      <psa30 value="0.0008466555" flag="0"/>
    </comp>
    <comp name="--.HHZ">
      <acc value="0.0734512263" flag="0"/>
      <vel value="0.0203535247" flag="0"/>
      <psa03 value="0.0788489859" flag="0"/>
      <psa10 value="0.0044167210" flag="0"/>
      <psa30 value="0.0005761805" flag="0"/>
    </comp>
    <comp name="--.HHN">
      <acc value="0.0817479581" flag="0"/>
      <vel value="0.0252843584" flag="0"/>
      <psa03 value="0.2366454219" flag="0"/>
      <psa10 value="0.0119980384" flag="0"/>
      <psa30 value="0.0008347373" flag="0"/>
    </comp>
  </station>
  <station code="PFKS" name="PFKS" netid="HC" insttype="120" lat="35.0429" lon="25.4733">
    <comp name="--.HHN">
      <acc value="0.1590190444" flag="0"/>
      <vel value="0.0480423166" flag="0"/>
      <psa03 value="0.3694839378" flag="0"/>
      <psa10 value="0.0159184394" flag="0"/>
      <psa30 value="0.0011794704" flag="0"/>
    </comp>
    <comp name="--.HHZ">
      <acc value="0.0589757875" flag="0"/>
      <vel value="0.0178603914" flag="0"/>
      <psa03 value="0.1108898793" flag="0"/>
      <psa10 value="0.0084011201" flag="0"/>
      <psa30 value="0.0004560729" flag="0"/>
    </comp>
    <comp name="--.HHE">
      <acc value="0.1055029450" flag="0"/>
      <vel value="0.0421063649" flag="0"/>
      <psa03 value="0.2807520867" flag="0"/>
      <psa10 value="0.0125450388" flag="0"/>
      <psa30 value="0.0008917142" flag="0"/>
    </comp>
  </station>
  <station code="STIA" name="STIA" netid="HC" insttype="120" lat="35.2021" lon="26.0909">
    <comp name="--.HHZ">
      <acc value="0.0072769959" flag="0"/>
      <vel value="0.0027081202" flag="0"/>
      <psa03 value="0.0194101844" flag="0"/>
      <psa10 value="0.0019280113" flag="0"/>
      <psa30 value="0.0003254655" flag="0"/>
    </comp>
    <comp name="--.HHN">
      <acc value="0.0074870732" flag="0"/>
      <vel value="0.0039231781" flag="0"/>
      <psa03 value="0.0155101233" flag="0"/>
      <psa10 value="0.0040380741" flag="0"/>
      <psa30 value="0.0003212003" flag="0"/>
    </comp>
    <comp name="--.HHE">
      <acc value="0.0099528051" flag="0"/>
      <vel value="0.0042255274" flag="0"/>
      <psa03 value="0.0288639795" flag="0"/>
      <psa10 value="0.0044415527" flag="0"/>
      <psa30 value="0.0003160115" flag="0"/>
    </comp>
  </station>
  <station code="TEFL" name="TEFL" netid="HC" insttype="GEOtiny," lat="35.0933" lon="25.1634">
    <comp name="--.HHE">
      <acc value="0.5262704128" flag="0"/>
      <vel value="0.1236942401" flag="0"/>
      <psa03 value="0.6954921296" flag="0"/>
      <psa10 value="0.0400603260" flag="0"/>
      <psa30 value="0.0028008035" flag="0"/>
    </comp>
    <comp name="--.HHZ">
      <acc value="0.3664732899" flag="0"/>
      <vel value="0.0689221124" flag="0"/>
      <psa03 value="0.2898581141" flag="0"/>
      <psa10 value="0.0233442831" flag="0"/>
      <psa30 value="0.0013591147" flag="0"/>
    </comp>
    <comp name="--.HHN">
      <acc value="0.6350803837" flag="0"/>
      <vel value="0.1181372320" flag="0"/>
      <psa03 value="0.5499788089" flag="0"/>
      <psa10 value="0.0569013746" flag="0"/>
      <psa30 value="0.0039533273" flag="0"/>
    </comp>
  </station>
  <station code="GVD" name="GVD" netid="HL" insttype="120" lat="34.8391" lon="24.0874">
    <comp name="--.HHN">
      <acc value="0.0550272380" flag="0"/>
      <vel value="0.0193652406" flag="0"/>
      <psa03 value="0.1354934822" flag="0"/>
      <psa10 value="0.0111877131" flag="0"/>
      <psa30 value="0.0006723063" flag="0"/>
    </comp>
    <comp name="--.HHE">
      <acc value="1.0922209509" flag="0"/>
      <vel value="0.0812902470" flag="0"/>
      <psa03 value="0.4156789795" flag="0"/>
      <psa10 value="0.0462506124" flag="0"/>
      <psa30 value="0.0175922609" flag="0"/>
    </comp>
    <comp name="--.HHZ">
      <acc value="0.0450274569" flag="0"/>
      <vel value="0.0141502976" flag="0"/>
      <psa03 value="0.0725644318" flag="0"/>
      <psa10 value="0.0057010106" flag="0"/>
      <psa30 value="0.0003660601" flag="0"/>
    </comp>
  </station>
  <station code="IACM" name="IACM" netid="HL" insttype="120" lat="35.3058" lon="25.0709">
    <comp name="--.HHZ">
      <acc value="0.3035742107" flag="0"/>
      <vel value="0.0655054013" flag="0"/>
      <psa03 value="0.2360887940" flag="0"/>
      <psa10 value="0.0249634226" flag="0"/>
      <psa30 value="0.0015182843" flag="0"/>
    </comp>
    <comp name="--.HHN">
      <acc value="0.2056014816" flag="0"/>
      <vel value="0.0769147721" flag="0"/>
      <psa03 value="0.3708101979" flag="0"/>
      <psa10 value="0.0720445045" flag="0"/>
      <psa30 value="0.0032064438" flag="0"/>
    </comp>
    <comp name="--.HHE">
      <acc value="0.2707192457" flag="0"/>
      <vel value="0.1048164613" flag="0"/>
      <psa03 value="0.6163262960" flag="0"/>
      <psa10 value="0.0559100421" flag="0"/>
      <psa30 value="0.0024518849" flag="0"/>
    </comp>
  </station>
  <station code="IDI" name="IDI" netid="HL" insttype="120" lat="35.288" lon="24.89">
    <comp name="--.HHE">
      <acc value="0.1954053703" flag="0"/>
      <vel value="0.0381109958" flag="0"/>
      <psa03 value="0.2899069514" flag="0"/>
      <psa10 value="0.0096491419" flag="0"/>
      <psa30 value="0.0010468760" flag="0"/>
    </comp>
    <comp name="--.HHN">
      <acc value="0.1902442216" flag="0"/>
      <vel value="0.0407970254" flag="0"/>
      <psa03 value="0.1692750277" flag="0"/>
      <psa10 value="0.0090230019" flag="0"/>
      <psa30 value="0.0008390906" flag="0"/>
    </comp>
    <comp name="--.HHZ">
      <acc value="0.1237630438" flag="0"/>
      <vel value="0.0306055099" flag="0"/>
      <psa03 value="0.1759520111" flag="0"/>
      <psa10 value="0.0110547029" flag="0"/>
      <psa30 value="0.0007287855" flag="0"/>
    </comp>
  </station>
  <station code="IMMV" name="IMMV" netid="HL" insttype="120" lat="35.4606" lon="23.9811">
    <comp name="--.HHE">
      <acc value="0.0318535980" flag="0"/>
      <vel value="0.0166811833" flag="0"/>
      <psa03 value="0.1166794722" flag="0"/>
      <psa10 value="0.0089504889" flag="0"/>
      <psa30 value="0.0006026226" flag="0"/>
    </comp>
    <comp name="--.HHN">
      <acc value="0.0336873522" flag="0"/>
      <vel value="0.0160348598" flag="0"/>
      <psa03 value="0.1201113897" flag="0"/>
      <psa10 value="0.0076519953" flag="0"/>
      <psa30 value="0.0006235775" flag="0"/>
    </comp>
    <comp name="--.HHZ">
      <acc value="0.0224662216" flag="0"/>
      <vel value="0.0090329203" flag="0"/>
      <psa03 value="0.0657949592" flag="0"/>
      <psa10 value="0.0058103633" flag="0"/>
      <psa30 value="0.0003275819" flag="0"/>
    </comp>
  </station>
  <station code="KSTE" name="KSTE" netid="HL" insttype="60" lat="35.1801" lon="25.3372">
    <comp name="--.HHE">
      <acc value="0.0619690273" flag="0"/>
      <vel value="0.0216757668" flag="0"/>
      <psa03 value="0.0663117887" flag="0"/>
      <psa10 value="0.0060180305" flag="0"/>
      <psa30 value="0.0004799472" flag="0"/>
    </comp>
    <comp name="--.HHZ">
      <acc value="0.0567410087" flag="0"/>
      <vel value="0.0169375122" flag="0"/>
      <psa03 value="0.0606121423" flag="0"/>
      <psa10 value="0.0053971298" flag="0"/>
      <psa30 value="0.0004402827" flag="0"/>
    </comp>
    <comp name="--.HHN">
      <acc value="0.0982160210" flag="0"/>
      <vel value="0.0286370502" flag="0"/>
      <psa03 value="0.1118315513" flag="0"/>
      <psa10 value="0.0103486062" flag="0"/>
      <psa30 value="0.0033942979" flag="0"/>
    </comp>
  </station>
  <station code="NPS" name="NPS" netid="HL" insttype="CMG3ESPC-120s" lat="35.2613" lon="25.6104">
    <comp name="--.HHN">
      <acc value="0.0321412520" flag="0"/>
      <vel value="0.0113956864" flag="0"/>
      <psa03 value="0.0626634833" flag="0"/>
      <psa10 value="0.0092725348" flag="0"/>
      <psa30 value="0.0003735624" flag="0"/>
    </comp>
    <comp name="--.HHE">
      <acc value="0.0171935235" flag="0"/>
      <vel value="0.0055068722" flag="0"/>
      <psa03 value="0.0310984792" flag="0"/>
      <psa10 value="0.0031854098" flag="0"/>
      <psa30 value="0.0001591464" flag="0"/>
    </comp>
    <comp name="--.HHZ">
      <acc value="0.0221248031" flag="0"/>
      <vel value="0.0070205134" flag="0"/>
      <psa03 value="0.0447373331" flag="0"/>
      <psa10 value="0.0043252326" flag="0"/>
      <psa30 value="0.0002372622" flag="0"/>
    </comp>
  </station>
  <station code="SIVA" name="SIVA" netid="HL" insttype="GMG5TD" lat="35.0178" lon="24.812">
    <comp name="00.HNZ">
      <acc value="2.8172110778" flag="0"/>
      <vel value="0.6920291955" flag="0"/>
      <psa03 value="4.4118348454" flag="0"/>
      <psa10 value="0.2320398762" flag="0"/>
      <psa30 value="0.0201127964" flag="0"/>
    </comp>
    <comp name="00.HNE">
      <acc value="7.2207363107" flag="0"/>
      <vel value="2.2457524044" flag="0"/>
      <psa03 value="9.3004927963" flag="0"/>
      <psa10 value="0.3977650245" flag="0"/>
      <psa30 value="0.0410494269" flag="0"/>
    </comp>
    <comp name="00.HNN">
      <acc value="8.2995313196" flag="0"/>
      <vel value="2.8112863581" flag="0"/>
      <psa03 value="9.8129590164" flag="0"/>
      <psa10 value="0.7831479983" flag="0"/>
      <psa30 value="0.0941531183" flag="0"/>
    </comp>
  </station>
  <station code="VAM" name="VAM" netid="HL" insttype="CMG3ESPC-120s" lat="35.407" lon="24.1997">
    <comp name="--.HHZ">
      <acc value="0.0224766723" flag="0"/>
      <vel value="0.0102098839" flag="0"/>
      <psa03 value="0.0763158697" flag="0"/>
      <psa10 value="0.0053215919" flag="0"/>
      <psa30 value="0.0003678381" flag="0"/>
    </comp>
    <comp name="--.HHN">
      <acc value="0.0576135436" flag="0"/>
      <vel value="0.0213392252" flag="0"/>
      <psa03 value="0.1316363464" flag="0"/>
      <psa10 value="0.0075522264" flag="0"/>
      <psa30 value="0.0005876331" flag="0"/>
    </comp>
    <comp name="--.HHE">
      <acc value="0.0365440035" flag="0"/>
      <vel value="0.0141375157" flag="0"/>
      <psa03 value="0.0969465825" flag="0"/>
      <psa10 value="0.0074225240" flag="0"/>
      <psa30 value="0.0005101295" flag="0"/>
    </comp>
  </station>
  <station code="IDI" name="IDI" netid="MN" insttype="" lat="35.288" lon="24.89">
    <comp name="--.HHE">
      <acc value="0.2213024484" flag="0"/>
      <vel value="0.0407773493" flag="0"/>
      <psa03 value="0.2936327417" flag="0"/>
      <psa10 value="0.0095996102" flag="0"/>
      <psa30 value="0.0010465771" flag="0"/>
    </comp>
    <comp name="--.HHN">
      <acc value="0.2184600633" flag="0"/>
      <vel value="0.0427812224" flag="0"/>
      <psa03 value="0.1708360095" flag="0"/>
      <psa10 value="0.0090756944" flag="0"/>
      <psa30 value="0.0008389798" flag="0"/>
    </comp>
    <comp name="--.HHZ">
      <acc value="0.1301973092" flag="0"/>
      <vel value="0.0318838148" flag="0"/>
      <psa03 value="0.1803778848" flag="0"/>
      <psa10 value="0.0111058185" flag="0"/>
      <psa30 value="0.0007274217" flag="0"/>
    </comp>
  </station>
</stationlist>
