<?xml version="1.0" encoding="UTF-8" standalone="yes"?>
<!DOCTYPE earthquake SYSTEM "stationlist.dtd">
<stationlist created="" xmlns="ch.ethz.sed.shakemap.usgs.xml">
  <station code="ARPRA" name="ARPRA" netid="KO" insttype="CMG-5T" lat="39.0929" lon="38.3356">
    <comp name="--.HNN">
      <acc value="0.0389126887" flag="0"/>
      <vel value="0.0155020227" flag="0"/>
      <psa03 value="0.1381784655" flag="0"/>
      <psa10 value="0.0186334314" flag="0"/>
      <psa30 value="0.0009866594" flag="0"/>
    </comp>
    <comp name="--.HNE">
      <acc value="0.0635177748" flag="0"/>
      <vel value="0.0284183047" flag="0"/>
      <psa03 value="0.0972241337" flag="0"/>
      <psa10 value="0.0234746481" flag="0"/>
      <psa30 value="0.0014138902" flag="0"/>
    </comp>
    <comp name="--.HNZ">
      <acc value="0.0203558154" flag="0"/>
      <vel value="0.0084339623" flag="0"/>
      <psa03 value="0.0594903739" flag="0"/>
      <psa10 value="0.0068289564" flag="0"/>
      <psa30 value="0.0004490634" flag="0"/>
    </comp>
  </station>
  <station code="DYBB" name="DYBB" netid="KO" insttype="CMG-3T" lat="37.9532" lon="40.1393">
    <comp name="--.HHE">
      <acc value="0.0200961903" flag="0"/>
      <vel value="0.0068679929" flag="0"/>
      <psa03 value="0.0317726805" flag="0"/>
      <psa10 value="0.0065911005" flag="0"/>
      <psa30 value="0.0006278458" flag="0"/>
    </comp>
    <comp name="--.HHZ">
      <acc value="0.0190052801" flag="0"/>
      <vel value="0.0048413686" flag="0"/>
      <psa03 value="0.0175662163" flag="0"/>
      <psa10 value="0.0082610204" flag="0"/>
      <psa30 value="0.0005335879" flag="0"/>
    </comp>
    <comp name="--.HHN">
      <acc value="0.0275805507" flag="0"/>
      <vel value="0.0089341282" flag="0"/>
      <psa03 value="0.0465444298" flag="0"/>
      <psa10 value="0.0064107352" flag="0"/>
      <psa30 value="0.0016225465" flag="0"/>
    </comp>
  </station>
</stationlist>
