<?xml version="1.0" encoding="UTF-8" standalone="yes"?>
<!DOCTYPE earthquake SYSTEM "stationlist.dtd">
<stationlist created="" xmlns="ch.ethz.sed.shakemap.usgs.xml">
  <station code="CEYT" name="CEYT" netid="KO" insttype="CMG-3ESP" lat="37.0105" lon="35.7478">
    <comp name="--.HHE">
      <acc value="0.0158006123" flag="0"/>
      <vel value="0.0082287275" flag="0"/>
      <psa03 value="0.0382304195" flag="0"/>
      <psa10 value="0.0090894260" flag="0"/>
      <psa30 value="0.0005423495" flag="0"/>
    </comp>
    <comp name="--.HHZ">
      <acc value="0.0107079737" flag="0"/>
      <vel value="0.0057848739" flag="0"/>
      <psa03 value="0.0324312099" flag="0"/>
      <psa10 value="0.0054441387" flag="0"/>
      <psa30 value="0.0003211076" flag="0"/>
    </comp>
    <comp name="--.HHN">
      <acc value="0.0149481425" flag="0"/>
      <vel value="0.0082772588" flag="0"/>
      <psa03 value="0.0421392283" flag="0"/>
      <psa10 value="0.0166775507" flag="0"/>
      <psa30 value="0.0006484108" flag="0"/>
    </comp>
  </station>
</stationlist>
