<?xml version="1.0" encoding="UTF-8" standalone="yes"?>
<!DOCTYPE earthquake SYSTEM "stationlist.dtd">
<stationlist created="" xmlns="ch.ethz.sed.shakemap.usgs.xml">
  <station code="JAN2" name="JAN2" netid="HI" insttype="unknown" commtype="DIG" lat="39.664" lon="20.8522">
    <comp name="--.HNE">
      <acc value="0.0237912823" flag="0"/>
      <vel value="0.0155680416" flag="0"/>
      <psa03 value="0.0937090265" flag="0"/>
      <psa10 value="0.0114581907" flag="0"/>
      <psa30 value="0.0007639374" flag="0"/>
    </comp>
    <comp name="--.HNZ">
      <acc value="0.0136020201" flag="0"/>
      <vel value="0.0060850119" flag="0"/>
      <psa03 value="0.0241847171" flag="0"/>
      <psa10 value="0.0074046241" flag="0"/>
      <psa30 value="0.0005535423" flag="0"/>
    </comp>
    <comp name="--.HNN">
      <acc value="0.0246937786" flag="0"/>
      <vel value="0.0130719692" flag="0"/>
      <psa03 value="0.1253891146" flag="0"/>
      <psa10 value="0.0087525192" flag="0"/>
      <psa30 value="0.0005641943" flag="0"/>
    </comp>
  </station>
  <station code="JAN3" name="JAN3" netid="HI" insttype="unknown" commtype="DIG" lat="39.684" lon="20.8379">
    <comp name="--.HNN">
      <acc value="0.0247711742" flag="0"/>
      <vel value="0.0107269982" flag="0"/>
      <psa03 value="0.0748856111" flag="0"/>
      <psa10 value="0.0077463009" flag="0"/>
      <psa30 value="0.0006590357" flag="0"/>
    </comp>
    <comp name="--.HNE">
      <acc value="0.0397726604" flag="0"/>
      <vel value="0.0174920896" flag="0"/>
      <psa03 value="0.0995599303" flag="0"/>
      <psa10 value="0.0098674166" flag="0"/>
      <psa30 value="0.0007196926" flag="0"/>
    </comp>
    <comp name="--.HNZ">
      <acc value="0.0403731226" flag="0"/>
      <vel value="0.0049247888" flag="0"/>
      <psa03 value="0.0366978935" flag="0"/>
      <psa10 value="0.0037152710" flag="0"/>
      <psa30 value="0.0005994593" flag="0"/>
    </comp>
  </station>
  <station code="KNS1" name="KNS1" netid="HI" insttype="unknown" commtype="DIG" lat="40.048" lon="20.7524">
    <comp name="--.HNE">
      <acc value="0.0247436283" flag="0"/>
      <vel value="0.0092219885" flag="0"/>
      <psa03 value="0.0604360815" flag="0"/>
      <psa10 value="0.0111210495" flag="0"/>
      <psa30 value="0.0020476961" flag="0"/>
    </comp>
    <comp name="--.HNN">
      <acc value="0.0219126313" flag="0"/>
      <vel value="0.0112575731" flag="0"/>
      <psa03 value="0.0655468812" flag="0"/>
      <psa10 value="0.0157559646" flag="0"/>
      <psa30 value="0.0010285548" flag="0"/>
    </comp>
    <comp name="--.HNZ">
      <acc value="0.0216884521" flag="0"/>
      <vel value="0.0073061005" flag="0"/>
      <psa03 value="0.0404533485" flag="0"/>
      <psa10 value="0.0115200099" flag="0"/>
      <psa30 value="0.0005878617" flag="0"/>
    </comp>
  </station>
  <station code="KRK1" name="KRK1" netid="HI" insttype="CMG-5TD,ACCELEROMETER,GURALP" commtype="DIG" lat="39.6189" lon="19.9202">
    <comp name="--.HNN">
      <acc value="0.0893301457" flag="0"/>
      <vel value="0.0326018709" flag="0"/>
      <psa03 value="0.1758734301" flag="0"/>
      <psa10 value="0.0093648931" flag="0"/>
      <psa30 value="0.0007317572" flag="0"/>
    </comp>
    <comp name="--.HNZ">
      <acc value="0.0361475737" flag="0"/>
      <vel value="0.0100626784" flag="0"/>
      <psa03 value="0.0857436029" flag="0"/>
      <psa10 value="0.0049081513" flag="0"/>
      <psa30 value="0.0005038047" flag="0"/>
    </comp>
    <comp name="--.HNE">
      <acc value="0.0833303623" flag="0"/>
      <vel value="0.0268489742" flag="0"/>
      <psa03 value="0.1397846072" flag="0"/>
      <psa10 value="0.0118785821" flag="0"/>
      <psa30 value="0.0013000380" flag="0"/>
    </comp>
  </station>
  <station code="LMS2" name="LMS2" netid="HI" insttype="CMG-5TD,ACCELEROMETER,GURALP" commtype="DIG" lat="40.835" lon="21.1418">
    <comp name="--.HNN">
      <acc value="0.0118771132" flag="0"/>
      <vel value="0.0037410713" flag="0"/>
      <psa03 value="0.0171436871" flag="0"/>
      <psa10 value="0.0023312801" flag="0"/>
      <psa30 value="0.0004260693" flag="0"/>
    </comp>
    <comp name="--.HNE">
      <acc value="0.0096798487" flag="0"/>
      <vel value="0.0042456098" flag="0"/>
      <psa03 value="0.0159496052" flag="0"/>
      <psa10 value="0.0042535290" flag="0"/>
      <psa30 value="0.0003103611" flag="0"/>
    </comp>
    <comp name="--.HNZ">
      <acc value="0.0041145439" flag="0"/>
      <vel value="0.0013585707" flag="0"/>
      <psa03 value="0.0089954555" flag="0"/>
      <psa10 value="0.0026013576" flag="0"/>
      <psa30 value="0.0002559014" flag="0"/>
    </comp>
  </station>
  <station code="JAN" name="JAN" netid="HL" insttype="CMG3EPSC60_DR24" commtype="DIG" lat="39.6562" lon="20.8487">
    <comp name="--.HHN">
      <acc value="0.0174924826" flag="0"/>
      <vel value="0.0097206585" flag="0"/>
      <psa03 value="0.0514306985" flag="0"/>
      <psa10 value="0.0102331052" flag="0"/>
      <psa30 value="0.0005531575" flag="0"/>
    </comp>
    <comp name="--.HHE">
      <acc value="0.0156510388" flag="0"/>
      <vel value="0.0088379868" flag="0"/>
      <psa03 value="0.0384584364" flag="0"/>
      <psa10 value="0.0086177200" flag="0"/>
      <psa30 value="0.0006525671" flag="0"/>
    </comp>
    <comp name="--.HHZ">
      <acc value="0.0081320894" flag="0"/>
      <vel value="0.0045352913" flag="0"/>
      <psa03 value="0.0297306003" flag="0"/>
      <psa10 value="0.0072751131" flag="0"/>
      <psa30 value="0.0004466680" flag="0"/>
    </comp>
  </station>
  <station code="KEK" name="KEK" netid="HL" insttype="120" commtype="DIG" lat="39.7127" lon="19.7962">
    <comp name="--.HHZ">
      <acc value="0.0115746991" flag="0"/>
      <vel value="0.0067753535" flag="0"/>
      <psa03 value="0.0189238718" flag="0"/>
      <psa10 value="0.0111430231" flag="0"/>
      <psa30 value="0.0008048310" flag="0"/>
    </comp>
    <comp name="--.HHE">
      <acc value="0.0206113444" flag="0"/>
      <vel value="0.0085037900" flag="0"/>
      <psa03 value="0.0338561265" flag="0"/>
      <psa10 value="0.0091626256" flag="0"/>
      <psa30 value="0.0010901879" flag="0"/>
    </comp>
    <comp name="--.HHN">
      <acc value="0.0139212969" flag="0"/>
      <vel value="0.0081203576" flag="0"/>
      <psa03 value="0.0305112044" flag="0"/>
      <psa10 value="0.0101464618" flag="0"/>
      <psa30 value="0.0005497774" flag="0"/>
    </comp>
  </station>
  <station code="OTHN" name="OTHN" netid="HL" insttype="30" commtype="DIG" lat="39.8416" lon="19.4057">
    <comp name="--.HHE">
      <acc value="0.1031506791" flag="0"/>
      <vel value="0.0207740263" flag="0"/>
      <psa03 value="0.0987414685" flag="0"/>
      <psa10 value="0.0151072228" flag="0"/>
      <psa30 value="0.0014843227" flag="0"/>
    </comp>
    <comp name="--.HHZ">
      <acc value="0.0510040864" flag="0"/>
      <vel value="0.0151417757" flag="0"/>
      <psa03 value="0.0974804805" flag="0"/>
      <psa10 value="0.0087926458" flag="0"/>
      <psa30 value="0.0011986496" flag="0"/>
    </comp>
    <comp name="--.HHN">
      <acc value="0.1419077411" flag="0"/>
      <vel value="0.0287449110" flag="0"/>
      <psa03 value="0.0623829226" flag="0"/>
      <psa10 value="0.0147679137" flag="0"/>
      <psa30 value="0.0009507605" flag="0"/>
    </comp>
  </station>
  <station code="PENT" name="PENT" netid="HL" insttype="Horizon,120s,1200" commtype="DIG" lat="40.1961" lon="21.1381">
    <comp name="--.HHN">
      <acc value="0.0048812006" flag="0"/>
      <vel value="0.0042169226" flag="0"/>
      <psa03 value="0.0147660341" flag="0"/>
      <psa10 value="0.0076077089" flag="0"/>
      <psa30 value="0.0006005568" flag="0"/>
    </comp>
    <comp name="--.HHZ">
      <acc value="0.0031037368" flag="0"/>
      <vel value="0.0017873124" flag="0"/>
      <psa03 value="0.0071699956" flag="0"/>
      <psa10 value="0.0034425328" flag="0"/>
      <psa30 value="0.0004219925" flag="0"/>
    </comp>
    <comp name="--.HHE">
      <acc value="0.0045224879" flag="0"/>
      <vel value="0.0029589514" flag="0"/>
      <psa03 value="0.0112145186" flag="0"/>
      <psa10 value="0.0040496513" flag="0"/>
      <psa30 value="0.0003140262" flag="0"/>
    </comp>
  </station>
  <station code="FLNA" name="FLNA" netid="HT" insttype="120" commtype="DIG" lat="40.7809" lon="21.3863">
    <comp name="--.HHE">
      <acc value="0.0050088214" flag="0"/>
      <vel value="0.0036397827" flag="0"/>
      <psa03 value="0.0188530648" flag="0"/>
      <psa10 value="0.0032854426" flag="0"/>
      <psa30 value="0.0002903272" flag="0"/>
    </comp>
    <comp name="--.HHN">
      <acc value="0.0036790629" flag="0"/>
      <vel value="0.0024196205" flag="0"/>
      <psa03 value="0.0137621225" flag="0"/>
      <psa10 value="0.0031341827" flag="0"/>
      <psa30 value="0.0003748295" flag="0"/>
    </comp>
    <comp name="--.HHZ">
      <acc value="0.0034066852" flag="0"/>
      <vel value="0.0025953085" flag="0"/>
      <psa03 value="0.0101070465" flag="0"/>
      <psa10 value="0.0027048692" flag="0"/>
      <psa30 value="0.0002246248" flag="0"/>
    </comp>
  </station>
  <station code="IGT" name="IGT" netid="HT" insttype="Compact," commtype="DIG" lat="39.5315" lon="20.3299">
    <comp name="--.HHN">
      <acc value="0.0351048947" flag="0"/>
      <vel value="0.0193562855" flag="0"/>
      <psa03 value="0.0603510071" flag="0"/>
      <psa10 value="0.0226699423" flag="0"/>
      <psa30 value="0.0019500303" flag="0"/>
    </comp>
    <comp name="--.HHE">
      <acc value="0.0353066914" flag="0"/>
      <vel value="0.0215445425" flag="0"/>
      <psa03 value="0.0929575384" flag="0"/>
      <psa10 value="0.0310725164" flag="0"/>
      <psa30 value="0.0039023538" flag="0"/>
    </comp>
    <comp name="--.HHZ">
      <acc value="0.0266362148" flag="0"/>
      <vel value="0.0118630604" flag="0"/>
      <psa03 value="0.0607584686" flag="0"/>
      <psa10 value="0.0160021249" flag="0"/>
      <psa30 value="0.0019836457" flag="0"/>
    </comp>
  </station>
  <station code="NEST" name="NEST" netid="HT" insttype="120P," commtype="DIG" lat="40.4147" lon="21.0489">
    <comp name="--.HHN">
      <acc value="0.0050651886" flag="0"/>
      <vel value="0.0034819921" flag="0"/>
      <psa03 value="0.0134399468" flag="0"/>
      <psa10 value="0.0041944942" flag="0"/>
      <psa30 value="0.0011668095" flag="0"/>
    </comp>
    <comp name="--.HHZ">
      <acc value="0.0056470501" flag="0"/>
      <vel value="0.0035284459" flag="0"/>
      <psa03 value="0.0232872465" flag="0"/>
      <psa10 value="0.0037232605" flag="0"/>
      <psa30 value="0.0011889281" flag="0"/>
    </comp>
    <comp name="--.HHE">
      <acc value="0.0068887464" flag="0"/>
      <vel value="0.0035866442" flag="0"/>
      <psa03 value="0.0185033953" flag="0"/>
      <psa10 value="0.0038021258" flag="0"/>
      <psa30 value="0.0004696303" flag="0"/>
    </comp>
  </station>
  <station code="BIA" name="BIA" netid="MK" insttype="120" commtype="DIG" lat="41.032" lon="21.3304">
    <comp name="00.HHN">
      <acc value="0.0049705757" flag="0"/>
      <vel value="0.0030383668" flag="0"/>
      <psa03 value="0.0154478545" flag="0"/>
      <psa10 value="0.0063537670" flag="0"/>
      <psa30 value="0.0002665575" flag="0"/>
    </comp>
    <comp name="00.HHZ">
      <acc value="0.0033473199" flag="0"/>
      <vel value="0.0026575608" flag="0"/>
      <psa03 value="0.0074442598" flag="0"/>
      <psa10 value="0.0045375582" flag="0"/>
      <psa30 value="0.0003391064" flag="0"/>
    </comp>
    <comp name="00.HHE">
      <acc value="0.0053688170" flag="0"/>
      <vel value="0.0032360028" flag="0"/>
      <psa03 value="0.0161000458" flag="0"/>
      <psa10 value="0.0033258854" flag="0"/>
      <psa30 value="0.0004919701" flag="0"/>
    </comp>
  </station>
  <station code="OHR" name="OHR" netid="MK" insttype="120" commtype="DIG" lat="41.1117" lon="20.7924">
    <comp name="00.HHE">
      <acc value="0.0058565619" flag="0"/>
      <vel value="0.0050914318" flag="0"/>
      <psa03 value="0.0214058794" flag="0"/>
      <psa10 value="0.0051487583" flag="0"/>
      <psa30 value="0.0006710306" flag="0"/>
    </comp>
    <comp name="00.HHN">
      <acc value="0.0036795849" flag="0"/>
      <vel value="0.0031252826" flag="0"/>
      <psa03 value="0.0140677582" flag="0"/>
      <psa10 value="0.0048509713" flag="0"/>
      <psa30 value="0.0005401602" flag="0"/>
    </comp>
    <comp name="00.HHZ">
      <acc value="0.0035470498" flag="0"/>
      <vel value="0.0032952268" flag="0"/>
      <psa03 value="0.0121360215" flag="0"/>
      <psa10 value="0.0027794656" flag="0"/>
      <psa30 value="0.0005358714" flag="0"/>
    </comp>
  </station>
  <station code="ZUPA" name="ZUPA" netid="MK" insttype="120" commtype="DIG" lat="41.4796" lon="20.558">
    <comp name="00.HHN">
      <acc value="0.0000187238" flag="0"/>
      <vel value="0.0000039773" flag="0"/>
      <psa03 value="0.0000425802" flag="0"/>
      <psa10 value="0.0000034919" flag="0"/>
      <psa30 value="0.0000005095" flag="0"/>
    </comp>
    <comp name="00.HHE">
      <acc value="0.0000171147" flag="0"/>
      <vel value="0.0000039260" flag="0"/>
      <psa03 value="0.0000426589" flag="0"/>
      <psa10 value="0.0000029656" flag="0"/>
      <psa30 value="0.0000003980" flag="0"/>
    </comp>
    <comp name="00.HHZ">
      <acc value="0.0110947085" flag="0"/>
      <vel value="0.0045447920" flag="0"/>
      <psa03 value="0.0142448137" flag="0"/>
      <psa10 value="0.0071913218" flag="0"/>
      <psa30 value="0.0006166103" flag="0"/>
    </comp>
  </station>
  <station code="KEK" name="KEK" netid="MN" insttype="" commtype="DIG" lat="39.7127" lon="19.7962">
    <comp name="--.HHE">
      <acc value="0.0206113301" flag="0"/>
      <vel value="0.0085037841" flag="0"/>
      <psa03 value="0.0338561031" flag="0"/>
      <psa10 value="0.0091626193" flag="0"/>
      <psa30 value="0.0010901872" flag="0"/>
    </comp>
    <comp name="--.HHZ">
      <acc value="0.0115746910" flag="0"/>
      <vel value="0.0067753488" flag="0"/>
      <psa03 value="0.0189238587" flag="0"/>
      <psa10 value="0.0111430154" flag="0"/>
      <psa30 value="0.0008048305" flag="0"/>
    </comp>
    <comp name="--.HHN">
      <acc value="0.0139212872" flag="0"/>
      <vel value="0.0081203519" flag="0"/>
      <psa03 value="0.0305111833" flag="0"/>
      <psa10 value="0.0101464548" flag="0"/>
      <psa30 value="0.0005497770" flag="0"/>
    </comp>
  </station>
  <station code="TIR" name="TIR" netid="MN" insttype="" commtype="DIG" lat="41.3472" lon="19.8631">
    <comp name="--.HHE">
      <acc value="0.0146663401" flag="0"/>
      <vel value="0.0095899627" flag="0"/>
      <psa03 value="0.0347404847" flag="0"/>
      <psa10 value="0.0106455088" flag="0"/>
      <psa30 value="0.0010549003" flag="0"/>
    </comp>
    <comp name="--.HHN">
      <acc value="0.0150251621" flag="0"/>
      <vel value="0.0086945508" flag="0"/>
      <psa03 value="0.0338549271" flag="0"/>
      <psa10 value="0.0148568419" flag="0"/>
      <psa30 value="0.0008776921" flag="0"/>
    </comp>
    <comp name="--.HHZ">
      <acc value="0.0115417784" flag="0"/>
      <vel value="0.0064718913" flag="0"/>
      <psa03 value="0.0245716558" flag="0"/>
      <psa10 value="0.0094837749" flag="0"/>
      <psa30 value="0.0008101469" flag="0"/>
    </comp>
  </station>
</stationlist>
