<?xml version="1.0" encoding="UTF-8" standalone="yes"?>
<!DOCTYPE earthquake SYSTEM "stationlist.dtd">
<stationlist created="" xmlns="ch.ethz.sed.shakemap.usgs.xml">
  <station code="JAN2" name="JAN2" netid="HI" insttype="unknown" commtype="DIG" lat="39.664" lon="20.8522">
    <comp name="--.HNZ">
      <acc value="0.0136020200" flag="0"/>
      <vel value="0.0060850124" flag="0"/>
      <psa03 value="0.0241847171" flag="0"/>
      <psa10 value="0.0074046241" flag="0"/>
      <psa30 value="0.0005535426" flag="0"/>
    </comp>
    <comp name="--.HNE">
      <acc value="0.0237912828" flag="0"/>
      <vel value="0.0155680385" flag="0"/>
      <psa03 value="0.0937090265" flag="0"/>
      <psa10 value="0.0114581907" flag="0"/>
      <psa30 value="0.0007639162" flag="0"/>
    </comp>
    <comp name="--.HNN">
      <acc value="0.0246937781" flag="0"/>
      <vel value="0.0130719689" flag="0"/>
      <psa03 value="0.1253891146" flag="0"/>
      <psa10 value="0.0087525192" flag="0"/>
      <psa30 value="0.0005641137" flag="0"/>
    </comp>
  </station>
  <station code="JAN3" name="JAN3" netid="HI" insttype="unknown" commtype="DIG" lat="39.684" lon="20.8379">
    <comp name="--.HNE">
      <acc value="0.0397726599" flag="0"/>
      <vel value="0.0174920898" flag="0"/>
      <psa03 value="0.0995599303" flag="0"/>
      <psa10 value="0.0098674166" flag="0"/>
      <psa30 value="0.0007196813" flag="0"/>
    </comp>
    <comp name="--.HNZ">
      <acc value="0.0403731237" flag="0"/>
      <vel value="0.0049247895" flag="0"/>
      <psa03 value="0.0366978935" flag="0"/>
      <psa10 value="0.0037152711" flag="0"/>
      <psa30 value="0.0005994769" flag="0"/>
    </comp>
    <comp name="--.HNN">
      <acc value="0.0247711762" flag="0"/>
      <vel value="0.0107269967" flag="0"/>
      <psa03 value="0.0748856111" flag="0"/>
      <psa10 value="0.0077463009" flag="0"/>
      <psa30 value="0.0006591921" flag="0"/>
    </comp>
  </station>
  <station code="KNS1" name="KNS1" netid="HI" insttype="unknown" commtype="DIG" lat="40.048" lon="20.7524">
    <comp name="--.HNE">
      <acc value="0.0247436268" flag="0"/>
      <vel value="0.0092219878" flag="0"/>
      <psa03 value="0.0604360815" flag="0"/>
      <psa10 value="0.0111210495" flag="0"/>
      <psa30 value="0.0020476971" flag="0"/>
    </comp>
    <comp name="--.HNZ">
      <acc value="0.0216884517" flag="0"/>
      <vel value="0.0073060992" flag="0"/>
      <psa03 value="0.0404533485" flag="0"/>
      <psa10 value="0.0115200099" flag="0"/>
      <psa30 value="0.0005878651" flag="0"/>
    </comp>
    <comp name="--.HNN">
      <acc value="0.0219126313" flag="0"/>
      <vel value="0.0112575726" flag="0"/>
      <psa03 value="0.0655468812" flag="0"/>
      <psa10 value="0.0157559649" flag="0"/>
      <psa30 value="0.0010285751" flag="0"/>
    </comp>
  </station>
  <station code="KRK1" name="KRK1" netid="HI" insttype="CMG-5TD,ACCELEROMETER,GURALP" commtype="DIG" lat="39.6189" lon="19.9202">
    <comp name="--.HNE">
      <acc value="0.0833303634" flag="0"/>
      <vel value="0.0268489730" flag="0"/>
      <psa03 value="0.1397846072" flag="0"/>
      <psa10 value="0.0118785820" flag="0"/>
      <psa30 value="0.0012999921" flag="0"/>
    </comp>
    <comp name="--.HNN">
      <acc value="0.0893301447" flag="0"/>
      <vel value="0.0326018719" flag="0"/>
      <psa03 value="0.1758734301" flag="0"/>
      <psa10 value="0.0093648932" flag="0"/>
      <psa30 value="0.0007318321" flag="0"/>
    </comp>
    <comp name="--.HNZ">
      <acc value="0.0361475732" flag="0"/>
      <vel value="0.0100626828" flag="0"/>
      <psa03 value="0.0857436029" flag="0"/>
      <psa10 value="0.0049081512" flag="0"/>
      <psa30 value="0.0005037911" flag="0"/>
    </comp>
  </station>
  <station code="LMS2" name="LMS2" netid="HI" insttype="CMG-5TD,ACCELEROMETER,GURALP" commtype="DIG" lat="40.835" lon="21.1418">
    <comp name="--.HNE">
      <acc value="0.0096798488" flag="0"/>
      <vel value="0.0042456097" flag="0"/>
      <psa03 value="0.0159496052" flag="0"/>
      <psa10 value="0.0042535290" flag="0"/>
      <psa30 value="0.0003103311" flag="0"/>
    </comp>
    <comp name="--.HNN">
      <acc value="0.0118771130" flag="0"/>
      <vel value="0.0037410711" flag="0"/>
      <psa03 value="0.0171436871" flag="0"/>
      <psa10 value="0.0023312801" flag="0"/>
      <psa30 value="0.0004260648" flag="0"/>
    </comp>
    <comp name="--.HNZ">
      <acc value="0.0041145444" flag="0"/>
      <vel value="0.0013585710" flag="0"/>
      <psa03 value="0.0089954555" flag="0"/>
      <psa10 value="0.0026013576" flag="0"/>
      <psa30 value="0.0002559048" flag="0"/>
    </comp>
  </station>
  <station code="JAN" name="JAN" netid="HL" insttype="CMG3EPSC60_DR24" commtype="DIG" lat="39.6562" lon="20.8487">
    <comp name="--.HHE">
      <acc value="0.0156510390" flag="0"/>
      <vel value="0.0088379866" flag="0"/>
      <psa03 value="0.0384584364" flag="0"/>
      <psa10 value="0.0086177200" flag="0"/>
      <psa30 value="0.0006525668" flag="0"/>
    </comp>
    <comp name="--.HHN">
      <acc value="0.0174924826" flag="0"/>
      <vel value="0.0097206583" flag="0"/>
      <psa03 value="0.0514306985" flag="0"/>
      <psa10 value="0.0102331052" flag="0"/>
      <psa30 value="0.0005531444" flag="0"/>
    </comp>
    <comp name="--.HHZ">
      <acc value="0.0081320893" flag="0"/>
      <vel value="0.0045352915" flag="0"/>
      <psa03 value="0.0297306003" flag="0"/>
      <psa10 value="0.0072751131" flag="0"/>
      <psa30 value="0.0004466684" flag="0"/>
    </comp>
  </station>
  <station code="KEK" name="KEK" netid="HL" insttype="120" commtype="DIG" lat="39.7127" lon="19.7962">
    <comp name="--.HHE">
      <acc value="0.0206113444" flag="0"/>
      <vel value="0.0085037904" flag="0"/>
      <psa03 value="0.0338561266" flag="0"/>
      <psa10 value="0.0091626256" flag="0"/>
      <psa30 value="0.0010901803" flag="0"/>
    </comp>
    <comp name="--.HHN">
      <acc value="0.0139212969" flag="0"/>
      <vel value="0.0081203582" flag="0"/>
      <psa03 value="0.0305112044" flag="0"/>
      <psa10 value="0.0101464616" flag="0"/>
      <psa30 value="0.0005497073" flag="0"/>
    </comp>
    <comp name="--.HHZ">
      <acc value="0.0115746991" flag="0"/>
      <vel value="0.0067753538" flag="0"/>
      <psa03 value="0.0189238718" flag="0"/>
      <psa10 value="0.0111430231" flag="0"/>
      <psa30 value="0.0008048543" flag="0"/>
    </comp>
  </station>
  <station code="OTHN" name="OTHN" netid="HL" insttype="30" commtype="DIG" lat="39.8416" lon="19.4057">
    <comp name="--.HHN">
      <acc value="0.1419077412" flag="0"/>
      <vel value="0.0287449065" flag="0"/>
      <psa03 value="0.0623829226" flag="0"/>
      <psa10 value="0.0147679138" flag="0"/>
      <psa30 value="0.0009507562" flag="0"/>
    </comp>
    <comp name="--.HHE">
      <acc value="0.1031506793" flag="0"/>
      <vel value="0.0207740265" flag="0"/>
      <psa03 value="0.0987414685" flag="0"/>
      <psa10 value="0.0151072228" flag="0"/>
      <psa30 value="0.0014843211" flag="0"/>
    </comp>
    <comp name="--.HHZ">
      <acc value="0.0510040864" flag="0"/>
      <vel value="0.0151417755" flag="0"/>
      <psa03 value="0.0974804806" flag="0"/>
      <psa10 value="0.0087926458" flag="0"/>
      <psa30 value="0.0011986602" flag="0"/>
    </comp>
  </station>
  <station code="PENT" name="PENT" netid="HL" insttype="Horizon,120s,1200" commtype="DIG" lat="40.1961" lon="21.1381">
    <comp name="--.HHE">
      <acc value="0.0045224879" flag="0"/>
      <vel value="0.0029589512" flag="0"/>
      <psa03 value="0.0112145186" flag="0"/>
      <psa10 value="0.0040496513" flag="0"/>
      <psa30 value="0.0003140261" flag="0"/>
    </comp>
    <comp name="--.HHN">
      <acc value="0.0048812008" flag="0"/>
      <vel value="0.0042169226" flag="0"/>
      <psa03 value="0.0147660341" flag="0"/>
      <psa10 value="0.0076077089" flag="0"/>
      <psa30 value="0.0006005567" flag="0"/>
    </comp>
    <comp name="--.HHZ">
      <acc value="0.0031037369" flag="0"/>
      <vel value="0.0017873123" flag="0"/>
      <psa03 value="0.0071699956" flag="0"/>
      <psa10 value="0.0034425328" flag="0"/>
      <psa30 value="0.0004219914" flag="0"/>
    </comp>
  </station>
  <station code="FLNA" name="FLNA" netid="HT" insttype="120" commtype="DIG" lat="40.7809" lon="21.3863">
    <comp name="--.HHE">
      <acc value="0.0050088213" flag="0"/>
      <vel value="0.0036397828" flag="0"/>
      <psa03 value="0.0188530648" flag="0"/>
      <psa10 value="0.0032854426" flag="0"/>
      <psa30 value="0.0002903273" flag="0"/>
    </comp>
    <comp name="--.HHZ">
      <acc value="0.0034066852" flag="0"/>
      <vel value="0.0025953085" flag="0"/>
      <psa03 value="0.0101070465" flag="0"/>
      <psa10 value="0.0027048692" flag="0"/>
      <psa30 value="0.0002246244" flag="0"/>
    </comp>
    <comp name="--.HHN">
      <acc value="0.0036790629" flag="0"/>
      <vel value="0.0024196204" flag="0"/>
      <psa03 value="0.0137621225" flag="0"/>
      <psa10 value="0.0031341827" flag="0"/>
      <psa30 value="0.0003748290" flag="0"/>
    </comp>
  </station>
  <station code="IGT" name="IGT" netid="HT" insttype="Compact," commtype="DIG" lat="39.5315" lon="20.3299">
    <comp name="--.HHN">
      <acc value="0.0351048946" flag="0"/>
      <vel value="0.0193562846" flag="0"/>
      <psa03 value="0.0603510071" flag="0"/>
      <psa10 value="0.0226699423" flag="0"/>
      <psa30 value="0.0019500455" flag="0"/>
    </comp>
    <comp name="--.HHZ">
      <acc value="0.0266362145" flag="0"/>
      <vel value="0.0118630608" flag="0"/>
      <psa03 value="0.0607584686" flag="0"/>
      <psa10 value="0.0160021249" flag="0"/>
      <psa30 value="0.0019836106" flag="0"/>
    </comp>
    <comp name="--.HHE">
      <acc value="0.0353066910" flag="0"/>
      <vel value="0.0215445422" flag="0"/>
      <psa03 value="0.0929575384" flag="0"/>
      <psa10 value="0.0310725164" flag="0"/>
      <psa30 value="0.0039023545" flag="0"/>
    </comp>
  </station>
  <station code="NEST" name="NEST" netid="HT" insttype="120P," commtype="DIG" lat="40.4147" lon="21.0489">
    <comp name="--.HHE">
      <acc value="0.0068887465" flag="0"/>
      <vel value="0.0035866443" flag="0"/>
      <psa03 value="0.0185033953" flag="0"/>
      <psa10 value="0.0038021258" flag="0"/>
      <psa30 value="0.0004696312" flag="0"/>
    </comp>
    <comp name="--.HHN">
      <acc value="0.0050651887" flag="0"/>
      <vel value="0.0034819921" flag="0"/>
      <psa03 value="0.0134399468" flag="0"/>
      <psa10 value="0.0041944942" flag="0"/>
      <psa30 value="0.0011668065" flag="0"/>
    </comp>
    <comp name="--.HHZ">
      <acc value="0.0056470500" flag="0"/>
      <vel value="0.0035284458" flag="0"/>
      <psa03 value="0.0232872465" flag="0"/>
      <psa10 value="0.0037232605" flag="0"/>
      <psa30 value="0.0011889302" flag="0"/>
    </comp>
  </station>
  <station code="OHR" name="OHR" netid="MK" insttype="120" commtype="DIG" lat="41.1117" lon="20.7924">
    <comp name="00.HHE">
      <acc value="0.0058565619" flag="0"/>
      <vel value="0.0050914318" flag="0"/>
      <psa03 value="0.0214058794" flag="0"/>
      <psa10 value="0.0051487583" flag="0"/>
      <psa30 value="0.0006710306" flag="0"/>
    </comp>
    <comp name="00.HHN">
      <acc value="0.0036795850" flag="0"/>
      <vel value="0.0031252826" flag="0"/>
      <psa03 value="0.0140677582" flag="0"/>
      <psa10 value="0.0048509713" flag="0"/>
      <psa30 value="0.0005401604" flag="0"/>
    </comp>
    <comp name="00.HHZ">
      <acc value="0.0035470498" flag="0"/>
      <vel value="0.0032952269" flag="0"/>
      <psa03 value="0.0121360215" flag="0"/>
      <psa10 value="0.0027794656" flag="0"/>
      <psa30 value="0.0005358716" flag="0"/>
    </comp>
  </station>
  <station code="ZUPA" name="ZUPA" netid="MK" insttype="120" commtype="DIG" lat="41.4796" lon="20.558">
    <comp name="00.HHE">
      <acc value="0.0000171147" flag="0"/>
      <vel value="0.0000039260" flag="0"/>
      <psa03 value="0.0000426589" flag="0"/>
      <psa10 value="0.0000029656" flag="0"/>
      <psa30 value="0.0000003979" flag="0"/>
    </comp>
    <comp name="00.HHN">
      <acc value="0.0000187238" flag="0"/>
      <vel value="0.0000039773" flag="0"/>
      <psa03 value="0.0000425802" flag="0"/>
      <psa10 value="0.0000034919" flag="0"/>
      <psa30 value="0.0000005105" flag="0"/>
    </comp>
    <comp name="00.HHZ">
      <acc value="0.0110947085" flag="0"/>
      <vel value="0.0045447917" flag="0"/>
      <psa03 value="0.0142448137" flag="0"/>
      <psa10 value="0.0071913218" flag="0"/>
      <psa30 value="0.0006166085" flag="0"/>
    </comp>
  </station>
  <station code="KEK" name="KEK" netid="MN" insttype="" commtype="DIG" lat="39.7127" lon="19.7962">
    <comp name="--.HHE">
      <acc value="0.0206113301" flag="0"/>
      <vel value="0.0085037845" flag="0"/>
      <psa03 value="0.0338561031" flag="0"/>
      <psa10 value="0.0091626193" flag="0"/>
      <psa30 value="0.0010901796" flag="0"/>
    </comp>
    <comp name="--.HHZ">
      <acc value="0.0115746911" flag="0"/>
      <vel value="0.0067753491" flag="0"/>
      <psa03 value="0.0189238587" flag="0"/>
      <psa10 value="0.0111430153" flag="0"/>
      <psa30 value="0.0008048538" flag="0"/>
    </comp>
    <comp name="--.HHN">
      <acc value="0.0139212873" flag="0"/>
      <vel value="0.0081203525" flag="0"/>
      <psa03 value="0.0305111833" flag="0"/>
      <psa10 value="0.0101464546" flag="0"/>
      <psa30 value="0.0005497069" flag="0"/>
    </comp>
  </station>
  <station code="TIR" name="TIR" netid="MN" insttype="" commtype="DIG" lat="41.3472" lon="19.8631">
    <comp name="--.HHE">
      <acc value="0.0146663400" flag="0"/>
      <vel value="0.0095899627" flag="0"/>
      <psa03 value="0.0347404847" flag="0"/>
      <psa10 value="0.0106455088" flag="0"/>
      <psa30 value="0.0010548992" flag="0"/>
    </comp>
    <comp name="--.HHN">
      <acc value="0.0150251622" flag="0"/>
      <vel value="0.0086945509" flag="0"/>
      <psa03 value="0.0338549271" flag="0"/>
      <psa10 value="0.0148568419" flag="0"/>
      <psa30 value="0.0008776991" flag="0"/>
    </comp>
    <comp name="--.HHZ">
      <acc value="0.0115417785" flag="0"/>
      <vel value="0.0064718914" flag="0"/>
      <psa03 value="0.0245716558" flag="0"/>
      <psa10 value="0.0094837749" flag="0"/>
      <psa30 value="0.0008101472" flag="0"/>
    </comp>
  </station>
</stationlist>
