<?xml version="1.0" encoding="UTF-8" standalone="yes"?>
<!DOCTYPE earthquake SYSTEM "stationlist.dtd">
<stationlist created="" xmlns="ch.ethz.sed.shakemap.usgs.xml">
  <station code="JAN2" name="JAN2" netid="HI" insttype="unknown" commtype="DIG" lat="39.664" lon="20.8522">
    <comp name="--.HNN">
      <acc value="0.0246937791" flag="0"/>
      <vel value="0.0130719691" flag="0"/>
      <psa03 value="0.1253891146" flag="0"/>
      <psa10 value="0.0087525192" flag="0"/>
      <psa30 value="0.0005641881" flag="0"/>
    </comp>
    <comp name="--.HNE">
      <acc value="0.0237912824" flag="0"/>
      <vel value="0.0155680423" flag="0"/>
      <psa03 value="0.0937090265" flag="0"/>
      <psa10 value="0.0114581908" flag="0"/>
      <psa30 value="0.0007639571" flag="0"/>
    </comp>
    <comp name="--.HNZ">
      <acc value="0.0136020202" flag="0"/>
      <vel value="0.0060850119" flag="0"/>
      <psa03 value="0.0241847171" flag="0"/>
      <psa10 value="0.0074046241" flag="0"/>
      <psa30 value="0.0005535427" flag="0"/>
    </comp>
  </station>
  <station code="JAN3" name="JAN3" netid="HI" insttype="unknown" commtype="DIG" lat="39.684" lon="20.8379">
    <comp name="--.HNE">
      <acc value="0.0397726603" flag="0"/>
      <vel value="0.0174920895" flag="0"/>
      <psa03 value="0.0995599303" flag="0"/>
      <psa10 value="0.0098674167" flag="0"/>
      <psa30 value="0.0007196967" flag="0"/>
    </comp>
    <comp name="--.HNZ">
      <acc value="0.0403731222" flag="0"/>
      <vel value="0.0049247888" flag="0"/>
      <psa03 value="0.0366978935" flag="0"/>
      <psa10 value="0.0037152710" flag="0"/>
      <psa30 value="0.0005994654" flag="0"/>
    </comp>
    <comp name="--.HNN">
      <acc value="0.0247711733" flag="0"/>
      <vel value="0.0107269984" flag="0"/>
      <psa03 value="0.0748856111" flag="0"/>
      <psa10 value="0.0077463009" flag="0"/>
      <psa30 value="0.0006589813" flag="0"/>
    </comp>
  </station>
  <station code="KNS1" name="KNS1" netid="HI" insttype="unknown" commtype="DIG" lat="40.048" lon="20.7524">
    <comp name="--.HNE">
      <acc value="0.0247436288" flag="0"/>
      <vel value="0.0092219889" flag="0"/>
      <psa03 value="0.0604360815" flag="0"/>
      <psa10 value="0.0111210495" flag="0"/>
      <psa30 value="0.0020476885" flag="0"/>
    </comp>
    <comp name="--.HNN">
      <acc value="0.0219126314" flag="0"/>
      <vel value="0.0112575731" flag="0"/>
      <psa03 value="0.0655468812" flag="0"/>
      <psa10 value="0.0157559644" flag="0"/>
      <psa30 value="0.0010285435" flag="0"/>
    </comp>
    <comp name="--.HNZ">
      <acc value="0.0216884520" flag="0"/>
      <vel value="0.0073061013" flag="0"/>
      <psa03 value="0.0404533485" flag="0"/>
      <psa10 value="0.0115200099" flag="0"/>
      <psa30 value="0.0005878507" flag="0"/>
    </comp>
  </station>
  <station code="KRK1" name="KRK1" netid="HI" insttype="CMG-5TD,ACCELEROMETER,GURALP" commtype="DIG" lat="39.6189" lon="19.9202">
    <comp name="--.HNN">
      <acc value="0.0893301459" flag="0"/>
      <vel value="0.0326018705" flag="0"/>
      <psa03 value="0.1758734301" flag="0"/>
      <psa10 value="0.0093648931" flag="0"/>
      <psa30 value="0.0007317690" flag="0"/>
    </comp>
    <comp name="--.HNE">
      <acc value="0.0833303620" flag="0"/>
      <vel value="0.0268489749" flag="0"/>
      <psa03 value="0.1397846072" flag="0"/>
      <psa10 value="0.0118785821" flag="0"/>
      <psa30 value="0.0012998748" flag="0"/>
    </comp>
    <comp name="--.HNZ">
      <acc value="0.0361475735" flag="0"/>
      <vel value="0.0100626781" flag="0"/>
      <psa03 value="0.0857436029" flag="0"/>
      <psa10 value="0.0049081513" flag="0"/>
      <psa30 value="0.0005038127" flag="0"/>
    </comp>
  </station>
  <station code="LMS2" name="LMS2" netid="HI" insttype="CMG-5TD,ACCELEROMETER,GURALP" commtype="DIG" lat="40.835" lon="21.1418">
    <comp name="--.HNN">
      <acc value="0.0118771134" flag="0"/>
      <vel value="0.0037410712" flag="0"/>
      <psa03 value="0.0171436871" flag="0"/>
      <psa10 value="0.0023312801" flag="0"/>
      <psa30 value="0.0004260674" flag="0"/>
    </comp>
    <comp name="--.HNE">
      <acc value="0.0096798487" flag="0"/>
      <vel value="0.0042456103" flag="0"/>
      <psa03 value="0.0159496052" flag="0"/>
      <psa10 value="0.0042535289" flag="0"/>
      <psa30 value="0.0003103802" flag="0"/>
    </comp>
    <comp name="--.HNZ">
      <acc value="0.0041145436" flag="0"/>
      <vel value="0.0013585701" flag="0"/>
      <psa03 value="0.0089954555" flag="0"/>
      <psa10 value="0.0026013576" flag="0"/>
      <psa30 value="0.0002558991" flag="0"/>
    </comp>
  </station>
  <station code="JAN" name="JAN" netid="HL" insttype="CMG3EPSC60_DR24" commtype="DIG" lat="39.6562" lon="20.8487">
    <comp name="--.HHE">
      <acc value="0.0156510388" flag="0"/>
      <vel value="0.0088379867" flag="0"/>
      <psa03 value="0.0384584364" flag="0"/>
      <psa10 value="0.0086177200" flag="0"/>
      <psa30 value="0.0006525675" flag="0"/>
    </comp>
    <comp name="--.HHN">
      <acc value="0.0174924826" flag="0"/>
      <vel value="0.0097206587" flag="0"/>
      <psa03 value="0.0514306985" flag="0"/>
      <psa10 value="0.0102331052" flag="0"/>
      <psa30 value="0.0005531610" flag="0"/>
    </comp>
    <comp name="--.HHZ">
      <acc value="0.0081320894" flag="0"/>
      <vel value="0.0045352917" flag="0"/>
      <psa03 value="0.0297306003" flag="0"/>
      <psa10 value="0.0072751132" flag="0"/>
      <psa30 value="0.0004466681" flag="0"/>
    </comp>
  </station>
  <station code="KEK" name="KEK" netid="HL" insttype="120" commtype="DIG" lat="39.7127" lon="19.7962">
    <comp name="--.HHE">
      <acc value="0.0206113444" flag="0"/>
      <vel value="0.0085037900" flag="0"/>
      <psa03 value="0.0338561265" flag="0"/>
      <psa10 value="0.0091626256" flag="0"/>
      <psa30 value="0.0010901848" flag="0"/>
    </comp>
    <comp name="--.HHZ">
      <acc value="0.0115746991" flag="0"/>
      <vel value="0.0067753536" flag="0"/>
      <psa03 value="0.0189238718" flag="0"/>
      <psa10 value="0.0111430231" flag="0"/>
      <psa30 value="0.0008048281" flag="0"/>
    </comp>
    <comp name="--.HHN">
      <acc value="0.0139212969" flag="0"/>
      <vel value="0.0081203575" flag="0"/>
      <psa03 value="0.0305112044" flag="0"/>
      <psa10 value="0.0101464619" flag="0"/>
      <psa30 value="0.0005498006" flag="0"/>
    </comp>
  </station>
  <station code="OTHN" name="OTHN" netid="HL" insttype="30" commtype="DIG" lat="39.8416" lon="19.4057">
    <comp name="--.HHZ">
      <acc value="0.0510040865" flag="0"/>
      <vel value="0.0151417744" flag="0"/>
      <psa03 value="0.0974804805" flag="0"/>
      <psa10 value="0.0087926458" flag="0"/>
      <psa30 value="0.0011986565" flag="0"/>
    </comp>
    <comp name="--.HHE">
      <acc value="0.1031506790" flag="0"/>
      <vel value="0.0207740264" flag="0"/>
      <psa03 value="0.0987414685" flag="0"/>
      <psa10 value="0.0151072228" flag="0"/>
      <psa30 value="0.0014843230" flag="0"/>
    </comp>
    <comp name="--.HHN">
      <acc value="0.1419077410" flag="0"/>
      <vel value="0.0287449029" flag="0"/>
      <psa03 value="0.0623829226" flag="0"/>
      <psa10 value="0.0147679137" flag="0"/>
      <psa30 value="0.0009507486" flag="0"/>
    </comp>
  </station>
  <station code="PENT" name="PENT" netid="HL" insttype="Horizon,120s,1200" commtype="DIG" lat="40.1961" lon="21.1381">
    <comp name="--.HHE">
      <acc value="0.0045224879" flag="0"/>
      <vel value="0.0029589514" flag="0"/>
      <psa03 value="0.0112145186" flag="0"/>
      <psa10 value="0.0040496513" flag="0"/>
      <psa30 value="0.0003140259" flag="0"/>
    </comp>
    <comp name="--.HHN">
      <acc value="0.0048812006" flag="0"/>
      <vel value="0.0042169226" flag="0"/>
      <psa03 value="0.0147660341" flag="0"/>
      <psa10 value="0.0076077089" flag="0"/>
      <psa30 value="0.0006005567" flag="0"/>
    </comp>
    <comp name="--.HHZ">
      <acc value="0.0031037367" flag="0"/>
      <vel value="0.0017873124" flag="0"/>
      <psa03 value="0.0071699956" flag="0"/>
      <psa10 value="0.0034425328" flag="0"/>
      <psa30 value="0.0004219931" flag="0"/>
    </comp>
  </station>
  <station code="FLNA" name="FLNA" netid="HT" insttype="120" commtype="DIG" lat="40.7809" lon="21.3863">
    <comp name="--.HHN">
      <acc value="0.0036790629" flag="0"/>
      <vel value="0.0024196203" flag="0"/>
      <psa03 value="0.0137621225" flag="0"/>
      <psa10 value="0.0031341827" flag="0"/>
      <psa30 value="0.0003748294" flag="0"/>
    </comp>
    <comp name="--.HHZ">
      <acc value="0.0034066852" flag="0"/>
      <vel value="0.0025953084" flag="0"/>
      <psa03 value="0.0101070465" flag="0"/>
      <psa10 value="0.0027048692" flag="0"/>
      <psa30 value="0.0002246252" flag="0"/>
    </comp>
    <comp name="--.HHE">
      <acc value="0.0050088214" flag="0"/>
      <vel value="0.0036397829" flag="0"/>
      <psa03 value="0.0188530648" flag="0"/>
      <psa10 value="0.0032854426" flag="0"/>
      <psa30 value="0.0002903264" flag="0"/>
    </comp>
  </station>
  <station code="IGT" name="IGT" netid="HT" insttype="Compact," commtype="DIG" lat="39.5315" lon="20.3299">
    <comp name="--.HHZ">
      <acc value="0.0266362148" flag="0"/>
      <vel value="0.0118630598" flag="0"/>
      <psa03 value="0.0607584686" flag="0"/>
      <psa10 value="0.0160021249" flag="0"/>
      <psa30 value="0.0019836465" flag="0"/>
    </comp>
    <comp name="--.HHN">
      <acc value="0.0351048947" flag="0"/>
      <vel value="0.0193562857" flag="0"/>
      <psa03 value="0.0603510071" flag="0"/>
      <psa10 value="0.0226699423" flag="0"/>
      <psa30 value="0.0019500329" flag="0"/>
    </comp>
    <comp name="--.HHE">
      <acc value="0.0353066915" flag="0"/>
      <vel value="0.0215445424" flag="0"/>
      <psa03 value="0.0929575384" flag="0"/>
      <psa10 value="0.0310725164" flag="0"/>
      <psa30 value="0.0039023553" flag="0"/>
    </comp>
  </station>
  <station code="NEST" name="NEST" netid="HT" insttype="120P," commtype="DIG" lat="40.4147" lon="21.0489">
    <comp name="--.HHE">
      <acc value="0.0068887464" flag="0"/>
      <vel value="0.0035866442" flag="0"/>
      <psa03 value="0.0185033953" flag="0"/>
      <psa10 value="0.0038021258" flag="0"/>
      <psa30 value="0.0004696299" flag="0"/>
    </comp>
    <comp name="--.HHN">
      <acc value="0.0050651886" flag="0"/>
      <vel value="0.0034819922" flag="0"/>
      <psa03 value="0.0134399468" flag="0"/>
      <psa10 value="0.0041944942" flag="0"/>
      <psa30 value="0.0011668113" flag="0"/>
    </comp>
    <comp name="--.HHZ">
      <acc value="0.0056470501" flag="0"/>
      <vel value="0.0035284460" flag="0"/>
      <psa03 value="0.0232872465" flag="0"/>
      <psa10 value="0.0037232605" flag="0"/>
      <psa30 value="0.0011889272" flag="0"/>
    </comp>
  </station>
  <station code="BIA" name="BIA" netid="MK" insttype="120" commtype="DIG" lat="41.032" lon="21.3304">
    <comp name="00.HHE">
      <acc value="0.0053688170" flag="0"/>
      <vel value="0.0032360029" flag="0"/>
      <psa03 value="0.0161000458" flag="0"/>
      <psa10 value="0.0033258854" flag="0"/>
      <psa30 value="0.0004919699" flag="0"/>
    </comp>
    <comp name="00.HHN">
      <acc value="0.0049705757" flag="0"/>
      <vel value="0.0030383672" flag="0"/>
      <psa03 value="0.0154478545" flag="0"/>
      <psa10 value="0.0063537670" flag="0"/>
      <psa30 value="0.0002665583" flag="0"/>
    </comp>
    <comp name="00.HHZ">
      <acc value="0.0033473199" flag="0"/>
      <vel value="0.0026575608" flag="0"/>
      <psa03 value="0.0074442598" flag="0"/>
      <psa10 value="0.0045375582" flag="0"/>
      <psa30 value="0.0003391105" flag="0"/>
    </comp>
  </station>
  <station code="OHR" name="OHR" netid="MK" insttype="120" commtype="DIG" lat="41.1117" lon="20.7924">
    <comp name="00.HHE">
      <acc value="0.0058565618" flag="0"/>
      <vel value="0.0050914318" flag="0"/>
      <psa03 value="0.0214058794" flag="0"/>
      <psa10 value="0.0051487583" flag="0"/>
      <psa30 value="0.0006710305" flag="0"/>
    </comp>
    <comp name="00.HHN">
      <acc value="0.0036795848" flag="0"/>
      <vel value="0.0031252824" flag="0"/>
      <psa03 value="0.0140677582" flag="0"/>
      <psa10 value="0.0048509713" flag="0"/>
      <psa30 value="0.0005401600" flag="0"/>
    </comp>
    <comp name="00.HHZ">
      <acc value="0.0035470498" flag="0"/>
      <vel value="0.0032952268" flag="0"/>
      <psa03 value="0.0121360215" flag="0"/>
      <psa10 value="0.0027794656" flag="0"/>
      <psa30 value="0.0005358712" flag="0"/>
    </comp>
  </station>
  <station code="ZUPA" name="ZUPA" netid="MK" insttype="120" commtype="DIG" lat="41.4796" lon="20.558">
    <comp name="00.HHE">
      <acc value="0.0000171148" flag="0"/>
      <vel value="0.0000039260" flag="0"/>
      <psa03 value="0.0000426589" flag="0"/>
      <psa10 value="0.0000029656" flag="0"/>
      <psa30 value="0.0000003977" flag="0"/>
    </comp>
    <comp name="00.HHZ">
      <acc value="0.0110947084" flag="0"/>
      <vel value="0.0045447920" flag="0"/>
      <psa03 value="0.0142448137" flag="0"/>
      <psa10 value="0.0071913218" flag="0"/>
      <psa30 value="0.0006166125" flag="0"/>
    </comp>
    <comp name="00.HHN">
      <acc value="0.0000187238" flag="0"/>
      <vel value="0.0000039773" flag="0"/>
      <psa03 value="0.0000425802" flag="0"/>
      <psa10 value="0.0000034919" flag="0"/>
      <psa30 value="0.0000005100" flag="0"/>
    </comp>
  </station>
  <station code="KEK" name="KEK" netid="MN" insttype="" commtype="DIG" lat="39.7127" lon="19.7962">
    <comp name="--.HHN">
      <acc value="0.0139212872" flag="0"/>
      <vel value="0.0081203519" flag="0"/>
      <psa03 value="0.0305111833" flag="0"/>
      <psa10 value="0.0101464549" flag="0"/>
      <psa30 value="0.0005498003" flag="0"/>
    </comp>
    <comp name="--.HHE">
      <acc value="0.0206113301" flag="0"/>
      <vel value="0.0085037841" flag="0"/>
      <psa03 value="0.0338561031" flag="0"/>
      <psa10 value="0.0091626193" flag="0"/>
      <psa30 value="0.0010901840" flag="0"/>
    </comp>
    <comp name="--.HHZ">
      <acc value="0.0115746910" flag="0"/>
      <vel value="0.0067753489" flag="0"/>
      <psa03 value="0.0189238587" flag="0"/>
      <psa10 value="0.0111430154" flag="0"/>
      <psa30 value="0.0008048275" flag="0"/>
    </comp>
  </station>
  <station code="TIR" name="TIR" netid="MN" insttype="" commtype="DIG" lat="41.3472" lon="19.8631">
    <comp name="--.HHE">
      <acc value="0.0146663401" flag="0"/>
      <vel value="0.0095899628" flag="0"/>
      <psa03 value="0.0347404847" flag="0"/>
      <psa10 value="0.0106455088" flag="0"/>
      <psa30 value="0.0010549008" flag="0"/>
    </comp>
    <comp name="--.HHN">
      <acc value="0.0150251621" flag="0"/>
      <vel value="0.0086945507" flag="0"/>
      <psa03 value="0.0338549271" flag="0"/>
      <psa10 value="0.0148568419" flag="0"/>
      <psa30 value="0.0008776857" flag="0"/>
    </comp>
    <comp name="--.HHZ">
      <acc value="0.0115417784" flag="0"/>
      <vel value="0.0064718911" flag="0"/>
      <psa03 value="0.0245716558" flag="0"/>
      <psa10 value="0.0094837749" flag="0"/>
      <psa30 value="0.0008101466" flag="0"/>
    </comp>
  </station>
</stationlist>
