<?xml version="1.0" encoding="UTF-8" standalone="yes"?>
<!DOCTYPE earthquake SYSTEM "stationlist.dtd">
<stationlist created="" xmlns="ch.ethz.sed.shakemap.usgs.xml">
  <station code="JAN2" name="JAN2" netid="HI" insttype="unknown" commtype="DIG" lat="39.664" lon="20.8522">
    <comp name="--.HNE">
      <acc value="0.0237912824" flag="0"/>
      <vel value="0.0155680425" flag="0"/>
      <psa03 value="0.0937090265" flag="0"/>
      <psa10 value="0.0114581908" flag="0"/>
      <psa30 value="0.0007639688" flag="0"/>
    </comp>
    <comp name="--.HNZ">
      <acc value="0.0136020202" flag="0"/>
      <vel value="0.0060850119" flag="0"/>
      <psa03 value="0.0241847171" flag="0"/>
      <psa10 value="0.0074046241" flag="0"/>
      <psa30 value="0.0005535408" flag="0"/>
    </comp>
    <comp name="--.HNN">
      <acc value="0.0246937794" flag="0"/>
      <vel value="0.0130719691" flag="0"/>
      <psa03 value="0.1253891146" flag="0"/>
      <psa10 value="0.0087525192" flag="0"/>
      <psa30 value="0.0005641784" flag="0"/>
    </comp>
  </station>
  <station code="JAN3" name="JAN3" netid="HI" insttype="unknown" commtype="DIG" lat="39.684" lon="20.8379">
    <comp name="--.HNE">
      <acc value="0.0397726602" flag="0"/>
      <vel value="0.0174920896" flag="0"/>
      <psa03 value="0.0995599303" flag="0"/>
      <psa10 value="0.0098674167" flag="0"/>
      <psa30 value="0.0007197005" flag="0"/>
    </comp>
    <comp name="--.HNN">
      <acc value="0.0247711727" flag="0"/>
      <vel value="0.0107269985" flag="0"/>
      <psa03 value="0.0748856111" flag="0"/>
      <psa10 value="0.0077463009" flag="0"/>
      <psa30 value="0.0006589419" flag="0"/>
    </comp>
    <comp name="--.HNZ">
      <acc value="0.0403731218" flag="0"/>
      <vel value="0.0049247890" flag="0"/>
      <psa03 value="0.0366978935" flag="0"/>
      <psa10 value="0.0037152710" flag="0"/>
      <psa30 value="0.0005994739" flag="0"/>
    </comp>
  </station>
  <station code="KNS1" name="KNS1" netid="HI" insttype="unknown" commtype="DIG" lat="40.048" lon="20.7524">
    <comp name="--.HNE">
      <acc value="0.0247436304" flag="0"/>
      <vel value="0.0092219892" flag="0"/>
      <psa03 value="0.0604360815" flag="0"/>
      <psa10 value="0.0111210495" flag="0"/>
      <psa30 value="0.0020476807" flag="0"/>
    </comp>
    <comp name="--.HNN">
      <acc value="0.0219126322" flag="0"/>
      <vel value="0.0112575714" flag="0"/>
      <psa03 value="0.0655468812" flag="0"/>
      <psa10 value="0.0157559638" flag="0"/>
      <psa30 value="0.0010285027" flag="0"/>
    </comp>
    <comp name="--.HNZ">
      <acc value="0.0216884508" flag="0"/>
      <vel value="0.0073061021" flag="0"/>
      <psa03 value="0.0404533485" flag="0"/>
      <psa10 value="0.0115200099" flag="0"/>
      <psa30 value="0.0005877251" flag="0"/>
    </comp>
  </station>
  <station code="KRK1" name="KRK1" netid="HI" insttype="CMG-5TD,ACCELEROMETER,GURALP" commtype="DIG" lat="39.6189" lon="19.9202">
    <comp name="--.HNE">
      <acc value="0.0833303620" flag="0"/>
      <vel value="0.0268489752" flag="0"/>
      <psa03 value="0.1397846072" flag="0"/>
      <psa10 value="0.0118785821" flag="0"/>
      <psa30 value="0.0012998526" flag="0"/>
    </comp>
    <comp name="--.HNN">
      <acc value="0.0893301459" flag="0"/>
      <vel value="0.0326018704" flag="0"/>
      <psa03 value="0.1758734301" flag="0"/>
      <psa10 value="0.0093648931" flag="0"/>
      <psa30 value="0.0007317747" flag="0"/>
    </comp>
    <comp name="--.HNZ">
      <acc value="0.0361475734" flag="0"/>
      <vel value="0.0100626781" flag="0"/>
      <psa03 value="0.0857436029" flag="0"/>
      <psa10 value="0.0049081513" flag="0"/>
      <psa30 value="0.0005038146" flag="0"/>
    </comp>
  </station>
  <station code="LMS2" name="LMS2" netid="HI" insttype="CMG-5TD,ACCELEROMETER,GURALP" commtype="DIG" lat="40.835" lon="21.1418">
    <comp name="--.HNE">
      <acc value="0.0096798487" flag="0"/>
      <vel value="0.0042456117" flag="0"/>
      <psa03 value="0.0159496052" flag="0"/>
      <psa10 value="0.0042535286" flag="0"/>
      <psa30 value="0.0003104479" flag="0"/>
    </comp>
    <comp name="--.HNN">
      <acc value="0.0118771137" flag="0"/>
      <vel value="0.0037410714" flag="0"/>
      <psa03 value="0.0171436871" flag="0"/>
      <psa10 value="0.0023312801" flag="0"/>
      <psa30 value="0.0004260648" flag="0"/>
    </comp>
    <comp name="--.HNZ">
      <acc value="0.0041145425" flag="0"/>
      <vel value="0.0013585684" flag="0"/>
      <psa03 value="0.0089954555" flag="0"/>
      <psa10 value="0.0026013576" flag="0"/>
      <psa30 value="0.0002558922" flag="0"/>
    </comp>
  </station>
  <station code="JAN" name="JAN" netid="HL" insttype="CMG3EPSC60_DR24" commtype="DIG" lat="39.6562" lon="20.8487">
    <comp name="--.HHN">
      <acc value="0.0174924825" flag="0"/>
      <vel value="0.0097206586" flag="0"/>
      <psa03 value="0.0514306985" flag="0"/>
      <psa10 value="0.0102331052" flag="0"/>
      <psa30 value="0.0005531621" flag="0"/>
    </comp>
    <comp name="--.HHE">
      <acc value="0.0156510388" flag="0"/>
      <vel value="0.0088379864" flag="0"/>
      <psa03 value="0.0384584364" flag="0"/>
      <psa10 value="0.0086177200" flag="0"/>
      <psa30 value="0.0006525676" flag="0"/>
    </comp>
    <comp name="--.HHZ">
      <acc value="0.0081320895" flag="0"/>
      <vel value="0.0045352911" flag="0"/>
      <psa03 value="0.0297306003" flag="0"/>
      <psa10 value="0.0072751132" flag="0"/>
      <psa30 value="0.0004466675" flag="0"/>
    </comp>
  </station>
  <station code="KEK" name="KEK" netid="HL" insttype="120" commtype="DIG" lat="39.7127" lon="19.7962">
    <comp name="--.HHN">
      <acc value="0.0139212969" flag="0"/>
      <vel value="0.0081203575" flag="0"/>
      <psa03 value="0.0305112044" flag="0"/>
      <psa10 value="0.0101464619" flag="0"/>
      <psa30 value="0.0005498019" flag="0"/>
    </comp>
    <comp name="--.HHZ">
      <acc value="0.0115746991" flag="0"/>
      <vel value="0.0067753534" flag="0"/>
      <psa03 value="0.0189238718" flag="0"/>
      <psa10 value="0.0111430231" flag="0"/>
      <psa30 value="0.0008048253" flag="0"/>
    </comp>
    <comp name="--.HHE">
      <acc value="0.0206113444" flag="0"/>
      <vel value="0.0085037898" flag="0"/>
      <psa03 value="0.0338561265" flag="0"/>
      <psa10 value="0.0091626256" flag="0"/>
      <psa30 value="0.0010901824" flag="0"/>
    </comp>
  </station>
  <station code="OTHN" name="OTHN" netid="HL" insttype="30" commtype="DIG" lat="39.8416" lon="19.4057">
    <comp name="--.HHN">
      <acc value="0.1419077411" flag="0"/>
      <vel value="0.0287449118" flag="0"/>
      <psa03 value="0.0623829226" flag="0"/>
      <psa10 value="0.0147679137" flag="0"/>
      <psa30 value="0.0009507610" flag="0"/>
    </comp>
    <comp name="--.HHE">
      <acc value="0.1031506791" flag="0"/>
      <vel value="0.0207740263" flag="0"/>
      <psa03 value="0.0987414685" flag="0"/>
      <psa10 value="0.0151072228" flag="0"/>
      <psa30 value="0.0014843228" flag="0"/>
    </comp>
    <comp name="--.HHZ">
      <acc value="0.0510040864" flag="0"/>
      <vel value="0.0151417751" flag="0"/>
      <psa03 value="0.0974804805" flag="0"/>
      <psa10 value="0.0087926458" flag="0"/>
      <psa30 value="0.0011986512" flag="0"/>
    </comp>
  </station>
  <station code="PENT" name="PENT" netid="HL" insttype="Horizon,120s,1200" commtype="DIG" lat="40.1961" lon="21.1381">
    <comp name="--.HHE">
      <acc value="0.0045224879" flag="0"/>
      <vel value="0.0029589510" flag="0"/>
      <psa03 value="0.0112145186" flag="0"/>
      <psa10 value="0.0040496513" flag="0"/>
      <psa30 value="0.0003140254" flag="0"/>
    </comp>
    <comp name="--.HHN">
      <acc value="0.0048812003" flag="0"/>
      <vel value="0.0042169226" flag="0"/>
      <psa03 value="0.0147660341" flag="0"/>
      <psa10 value="0.0076077089" flag="0"/>
      <psa30 value="0.0006005567" flag="0"/>
    </comp>
    <comp name="--.HHZ">
      <acc value="0.0031037364" flag="0"/>
      <vel value="0.0017873125" flag="0"/>
      <psa03 value="0.0071699956" flag="0"/>
      <psa10 value="0.0034425328" flag="0"/>
      <psa30 value="0.0004219948" flag="0"/>
    </comp>
  </station>
  <station code="FLNA" name="FLNA" netid="HT" insttype="120" commtype="DIG" lat="40.7809" lon="21.3863">
    <comp name="--.HHE">
      <acc value="0.0050088214" flag="0"/>
      <vel value="0.0036397828" flag="0"/>
      <psa03 value="0.0188530648" flag="0"/>
      <psa10 value="0.0032854426" flag="0"/>
      <psa30 value="0.0002903261" flag="0"/>
    </comp>
    <comp name="--.HHN">
      <acc value="0.0036790629" flag="0"/>
      <vel value="0.0024196203" flag="0"/>
      <psa03 value="0.0137621225" flag="0"/>
      <psa10 value="0.0031341827" flag="0"/>
      <psa30 value="0.0003748297" flag="0"/>
    </comp>
    <comp name="--.HHZ">
      <acc value="0.0034066852" flag="0"/>
      <vel value="0.0025953081" flag="0"/>
      <psa03 value="0.0101070465" flag="0"/>
      <psa10 value="0.0027048692" flag="0"/>
      <psa30 value="0.0002246258" flag="0"/>
    </comp>
  </station>
  <station code="IGT" name="IGT" netid="HT" insttype="Compact," commtype="DIG" lat="39.5315" lon="20.3299">
    <comp name="--.HHE">
      <acc value="0.0353066915" flag="0"/>
      <vel value="0.0215445424" flag="0"/>
      <psa03 value="0.0929575384" flag="0"/>
      <psa10 value="0.0310725164" flag="0"/>
      <psa30 value="0.0039023553" flag="0"/>
    </comp>
    <comp name="--.HHN">
      <acc value="0.0351048947" flag="0"/>
      <vel value="0.0193562857" flag="0"/>
      <psa03 value="0.0603510071" flag="0"/>
      <psa10 value="0.0226699423" flag="0"/>
      <psa30 value="0.0019500329" flag="0"/>
    </comp>
    <comp name="--.HHZ">
      <acc value="0.0266362148" flag="0"/>
      <vel value="0.0118630598" flag="0"/>
      <psa03 value="0.0607584686" flag="0"/>
      <psa10 value="0.0160021249" flag="0"/>
      <psa30 value="0.0019836465" flag="0"/>
    </comp>
  </station>
  <station code="NEST" name="NEST" netid="HT" insttype="120P," commtype="DIG" lat="40.4147" lon="21.0489">
    <comp name="--.HHE">
      <acc value="0.0068887463" flag="0"/>
      <vel value="0.0035866435" flag="0"/>
      <psa03 value="0.0185033953" flag="0"/>
      <psa10 value="0.0038021258" flag="0"/>
      <psa30 value="0.0004696270" flag="0"/>
    </comp>
    <comp name="--.HHZ">
      <acc value="0.0056470502" flag="0"/>
      <vel value="0.0035284459" flag="0"/>
      <psa03 value="0.0232872465" flag="0"/>
      <psa10 value="0.0037232605" flag="0"/>
      <psa30 value="0.0011889321" flag="0"/>
    </comp>
    <comp name="--.HHN">
      <acc value="0.0050651882" flag="0"/>
      <vel value="0.0034819926" flag="0"/>
      <psa03 value="0.0134399468" flag="0"/>
      <psa10 value="0.0041944942" flag="0"/>
      <psa30 value="0.0011668179" flag="0"/>
    </comp>
  </station>
  <station code="OHR" name="OHR" netid="MK" insttype="120" commtype="DIG" lat="41.1117" lon="20.7924">
    <comp name="00.HHE">
      <acc value="0.0058565616" flag="0"/>
      <vel value="0.0050914317" flag="0"/>
      <psa03 value="0.0214058794" flag="0"/>
      <psa10 value="0.0051487583" flag="0"/>
      <psa30 value="0.0006710306" flag="0"/>
    </comp>
    <comp name="00.HHZ">
      <acc value="0.0035470497" flag="0"/>
      <vel value="0.0032952266" flag="0"/>
      <psa03 value="0.0121360215" flag="0"/>
      <psa10 value="0.0027794656" flag="0"/>
      <psa30 value="0.0005358709" flag="0"/>
    </comp>
    <comp name="00.HHN">
      <acc value="0.0036795845" flag="0"/>
      <vel value="0.0031252822" flag="0"/>
      <psa03 value="0.0140677582" flag="0"/>
      <psa10 value="0.0048509713" flag="0"/>
      <psa30 value="0.0005401595" flag="0"/>
    </comp>
  </station>
  <station code="ZUPA" name="ZUPA" netid="MK" insttype="120" commtype="DIG" lat="41.4796" lon="20.558">
    <comp name="00.HHE">
      <acc value="0.0000171147" flag="0"/>
      <vel value="0.0000039260" flag="0"/>
      <psa03 value="0.0000426589" flag="0"/>
      <psa10 value="0.0000029656" flag="0"/>
      <psa30 value="0.0000003979" flag="0"/>
    </comp>
    <comp name="00.HHN">
      <acc value="0.0000187238" flag="0"/>
      <vel value="0.0000039773" flag="0"/>
      <psa03 value="0.0000425802" flag="0"/>
      <psa10 value="0.0000034919" flag="0"/>
      <psa30 value="0.0000005105" flag="0"/>
    </comp>
    <comp name="00.HHZ">
      <acc value="0.0110947085" flag="0"/>
      <vel value="0.0045447917" flag="0"/>
      <psa03 value="0.0142448137" flag="0"/>
      <psa10 value="0.0071913218" flag="0"/>
      <psa30 value="0.0006166085" flag="0"/>
    </comp>
  </station>
  <station code="KEK" name="KEK" netid="MN" insttype="" commtype="DIG" lat="39.7127" lon="19.7962">
    <comp name="--.HHE">
      <acc value="0.0206113301" flag="0"/>
      <vel value="0.0085037839" flag="0"/>
      <psa03 value="0.0338561031" flag="0"/>
      <psa10 value="0.0091626193" flag="0"/>
      <psa30 value="0.0010901817" flag="0"/>
    </comp>
    <comp name="--.HHZ">
      <acc value="0.0115746910" flag="0"/>
      <vel value="0.0067753488" flag="0"/>
      <psa03 value="0.0189238587" flag="0"/>
      <psa10 value="0.0111430154" flag="0"/>
      <psa30 value="0.0008048247" flag="0"/>
    </comp>
    <comp name="--.HHN">
      <acc value="0.0139212872" flag="0"/>
      <vel value="0.0081203519" flag="0"/>
      <psa03 value="0.0305111833" flag="0"/>
      <psa10 value="0.0101464549" flag="0"/>
      <psa30 value="0.0005498015" flag="0"/>
    </comp>
  </station>
  <station code="TIR" name="TIR" netid="MN" insttype="" commtype="DIG" lat="41.3472" lon="19.8631">
    <comp name="--.HHE">
      <acc value="0.0146663402" flag="0"/>
      <vel value="0.0095899628" flag="0"/>
      <psa03 value="0.0347404847" flag="0"/>
      <psa10 value="0.0106455088" flag="0"/>
      <psa30 value="0.0010549010" flag="0"/>
    </comp>
    <comp name="--.HHN">
      <acc value="0.0150251621" flag="0"/>
      <vel value="0.0086945506" flag="0"/>
      <psa03 value="0.0338549271" flag="0"/>
      <psa10 value="0.0148568419" flag="0"/>
      <psa30 value="0.0008776797" flag="0"/>
    </comp>
    <comp name="--.HHZ">
      <acc value="0.0115417784" flag="0"/>
      <vel value="0.0064718910" flag="0"/>
      <psa03 value="0.0245716558" flag="0"/>
      <psa10 value="0.0094837749" flag="0"/>
      <psa30 value="0.0008101463" flag="0"/>
    </comp>
  </station>
</stationlist>
