<?xml version="1.0" encoding="UTF-8" standalone="yes"?>
<!DOCTYPE earthquake SYSTEM "stationlist.dtd">
<stationlist created="" xmlns="ch.ethz.sed.shakemap.usgs.xml">
  <station code="KRMN" name="KRMN" netid="KO" insttype="100" lat="37.174" lon="33.2636">
    <comp name="--.HNZ">
      <acc value="0.0069451161" flag="0"/>
      <vel value="0.0014403176" flag="0"/>
      <psa03 value="0.0061382585" flag="0"/>
      <psa10 value="0.0004548202" flag="0"/>
      <psa30 value="0.0001462448" flag="0"/>
    </comp>
    <comp name="--.HNN">
      <acc value="0.0064466035" flag="0"/>
      <vel value="0.0017453532" flag="0"/>
      <psa03 value="0.0076287657" flag="0"/>
      <psa10 value="0.0009777007" flag="0"/>
      <psa30 value="0.0000517491" flag="0"/>
    </comp>
    <comp name="--.HNE">
      <acc value="0.0081702935" flag="0"/>
      <vel value="0.0022322762" flag="0"/>
      <psa03 value="0.0144157710" flag="0"/>
      <psa10 value="0.0012331138" flag="0"/>
      <psa30 value="0.0000663310" flag="0"/>
    </comp>
  </station>
  <station code="YESY" name="YESY" netid="KO" insttype="30s," lat="37.7825" lon="33.7432">
    <comp name="--.HHE">
      <acc value="0.0048423481" flag="0"/>
      <vel value="0.0018891568" flag="0"/>
      <psa03 value="0.0138050619" flag="0"/>
      <psa10 value="0.0019865822" flag="0"/>
      <psa30 value="0.0001395338" flag="0"/>
    </comp>
    <comp name="--.HHN">
      <acc value="0.0055553881" flag="0"/>
      <vel value="0.0022213595" flag="0"/>
      <psa03 value="0.0103465293" flag="0"/>
      <psa10 value="0.0027445652" flag="0"/>
      <psa30 value="0.0001755321" flag="0"/>
    </comp>
    <comp name="--.HHZ">
      <acc value="0.0046069283" flag="0"/>
      <vel value="0.0014681485" flag="0"/>
      <psa03 value="0.0060557969" flag="0"/>
      <psa10 value="0.0014583481" flag="0"/>
      <psa30 value="0.0000972761" flag="0"/>
    </comp>
  </station>
</stationlist>
