<?xml version="1.0" encoding="UTF-8" standalone="yes"?>
<!DOCTYPE earthquake SYSTEM "stationlist.dtd">
<stationlist created="" xmlns="ch.ethz.sed.shakemap.usgs.xml">
  <station code="BNN" name="BNN" netid="KO" insttype="CMG-3T" lat="38.8521" lon="35.8472">
    <comp name="--.HHN">
      <acc value="0.0188826475" flag="0"/>
      <vel value="0.0191057882" flag="0"/>
      <psa03 value="0.0255679725" flag="0"/>
      <psa10 value="0.0373974986" flag="0"/>
      <psa30 value="0.0015890724" flag="0"/>
    </comp>
    <comp name="--.HHZ">
      <acc value="0.0071245685" flag="0"/>
      <vel value="0.0074988374" flag="0"/>
      <psa03 value="0.0195630888" flag="0"/>
      <psa10 value="0.0125329328" flag="0"/>
      <psa30 value="0.0010111288" flag="0"/>
    </comp>
    <comp name="--.HHE">
      <acc value="0.0124787018" flag="0"/>
      <vel value="0.0083905588" flag="0"/>
      <psa03 value="0.0290926458" flag="0"/>
      <psa10 value="0.0144739555" flag="0"/>
      <psa30 value="0.0012931320" flag="0"/>
    </comp>
  </station>
  <station code="DARE" name="DARE" netid="KO" insttype="CMG-3ESP" lat="38.5712" lon="37.4832">
    <comp name="--.HHE">
      <acc value="0.0432036570" flag="0"/>
      <vel value="0.0228745756" flag="0"/>
      <psa03 value="0.1082093207" flag="0"/>
      <psa10 value="0.0270262635" flag="0"/>
      <psa30 value="0.0015231761" flag="0"/>
    </comp>
    <comp name="--.HHZ">
      <acc value="0.0976495000" flag="0"/>
      <vel value="0.0230202079" flag="0"/>
      <psa03 value="0.0693245660" flag="0"/>
      <psa10 value="0.0195297577" flag="0"/>
      <psa30 value="0.0022612080" flag="0"/>
    </comp>
    <comp name="--.HHN">
      <acc value="0.0463218529" flag="0"/>
      <vel value="0.0173892970" flag="0"/>
      <psa03 value="0.1227101907" flag="0"/>
      <psa10 value="0.0180314696" flag="0"/>
      <psa30 value="0.0018340659" flag="0"/>
    </comp>
  </station>
  <station code="GAZ" name="GAZ" netid="KO" insttype="CMG-3T" lat="37.1721" lon="37.2096">
    <comp name="--.HHE">
      <acc value="0.0635070495" flag="0"/>
      <vel value="0.0433421365" flag="0"/>
      <psa03 value="0.0918697810" flag="0"/>
      <psa10 value="0.0263877532" flag="0"/>
      <psa30 value="0.0020473492" flag="0"/>
    </comp>
    <comp name="--.HHZ">
      <acc value="0.0574119269" flag="0"/>
      <vel value="0.0314853880" flag="0"/>
      <psa03 value="0.1335333145" flag="0"/>
      <psa10 value="0.0179296654" flag="0"/>
      <psa30 value="0.0011447219" flag="0"/>
    </comp>
    <comp name="--.HHN">
      <acc value="0.0440530661" flag="0"/>
      <vel value="0.0200781750" flag="0"/>
      <psa03 value="0.1222791174" flag="0"/>
      <psa10 value="0.0262221724" flag="0"/>
      <psa30 value="0.0010693229" flag="0"/>
    </comp>
  </station>
  <station code="KHMN" name="KHMN" netid="KO" insttype="CMG-5T" lat="37.3916" lon="37.1574">
    <comp name="--.HNN">
      <acc value="0.0651319251" flag="0"/>
      <vel value="0.0288653039" flag="0"/>
      <psa03 value="0.1384919958" flag="0"/>
      <psa10 value="0.0197489011" flag="0"/>
      <psa30 value="0.0013109700" flag="0"/>
    </comp>
    <comp name="--.HNE">
      <acc value="0.0614366297" flag="0"/>
      <vel value="0.0310122001" flag="0"/>
      <psa03 value="0.0861775691" flag="0"/>
      <psa10 value="0.0382827774" flag="0"/>
      <psa30 value="0.0016334517" flag="0"/>
    </comp>
    <comp name="--.HNZ">
      <acc value="0.0397445091" flag="0"/>
      <vel value="0.0139052748" flag="0"/>
      <psa03 value="0.0394823691" flag="0"/>
      <psa10 value="0.0095070064" flag="0"/>
      <psa30 value="0.0010617430" flag="0"/>
    </comp>
  </station>
  <station code="KMRS" name="KMRS" netid="KO" insttype="CMG-3T" lat="37.5053" lon="36.9">
    <comp name="--.HHZ">
      <acc value="0.0250052536" flag="0"/>
      <vel value="0.0169906826" flag="0"/>
      <psa03 value="0.0708094680" flag="0"/>
      <psa10 value="0.0175382035" flag="0"/>
      <psa30 value="0.0033617180" flag="0"/>
    </comp>
    <comp name="--.HHE">
      <acc value="0.0483936584" flag="0"/>
      <vel value="0.0256219659" flag="0"/>
      <psa03 value="0.0930181445" flag="0"/>
      <psa10 value="0.0200745297" flag="0"/>
      <psa30 value="0.0029737318" flag="0"/>
    </comp>
    <comp name="--.HHN">
      <acc value="0.0526429801" flag="0"/>
      <vel value="0.0397145079" flag="0"/>
      <psa03 value="0.1748689868" flag="0"/>
      <psa10 value="0.0285933658" flag="0"/>
      <psa30 value="0.0024998933" flag="0"/>
    </comp>
  </station>
  <station code="SARI" name="SARI" netid="KO" insttype="CMG-3T" lat="38.4072" lon="36.4181">
    <comp name="--.HHE">
      <acc value="0.1347968653" flag="0"/>
      <vel value="0.0374073909" flag="0"/>
      <psa03 value="0.1693877882" flag="0"/>
      <psa10 value="0.0380722232" flag="0"/>
      <psa30 value="0.0020101661" flag="0"/>
    </comp>
    <comp name="--.HHZ">
      <acc value="0.0741159978" flag="0"/>
      <vel value="0.0268854108" flag="0"/>
      <psa03 value="0.0909863494" flag="0"/>
      <psa10 value="0.0300280920" flag="0"/>
      <psa30 value="0.0024821586" flag="0"/>
    </comp>
    <comp name="--.HHN">
      <acc value="0.1172110318" flag="0"/>
      <vel value="0.0429779023" flag="0"/>
      <psa03 value="0.1208693801" flag="0"/>
      <psa10 value="0.0470831761" flag="0"/>
      <psa30 value="0.0043773158" flag="0"/>
    </comp>
  </station>
  <station code="ANDN" name="ANDN" netid="TU" insttype="T" lat="37.58" lon="36.3452">
    <comp name="--.HHZ">
      <acc value="0.0447475640" flag="0"/>
      <vel value="0.0453937803" flag="0"/>
      <psa03 value="0.1040128416" flag="0"/>
      <psa10 value="0.0538967663" flag="0"/>
      <psa30 value="0.0052291076" flag="0"/>
    </comp>
    <comp name="--.HHN">
      <acc value="0.1017106666" flag="0"/>
      <vel value="0.0417598206" flag="0"/>
      <psa03 value="0.1294490073" flag="0"/>
      <psa10 value="0.0803757493" flag="0"/>
      <psa30 value="0.0078070474" flag="0"/>
    </comp>
    <comp name="--.HHE">
      <acc value="0.1078709040" flag="0"/>
      <vel value="0.0788298522" flag="0"/>
      <psa03 value="0.1836593889" flag="0"/>
      <psa10 value="0.1166996368" flag="0"/>
      <psa30 value="0.0067081161" flag="0"/>
    </comp>
  </station>
</stationlist>
