<?xml version="1.0" encoding="UTF-8" standalone="yes"?>
<!DOCTYPE earthquake SYSTEM "stationlist.dtd">
<stationlist created="" xmlns="ch.ethz.sed.shakemap.usgs.xml">
  <station code="BNN" name="BNN" netid="KO" insttype="CMG-3T" lat="38.8521" lon="35.8472">
    <comp name="--.HHZ">
      <acc value="0.0071245688" flag="0"/>
      <vel value="0.0074988375" flag="0"/>
      <psa03 value="0.0195630888" flag="0"/>
      <psa10 value="0.0125329328" flag="0"/>
      <psa30 value="0.0010112089" flag="0"/>
    </comp>
    <comp name="--.HHE">
      <acc value="0.0124787021" flag="0"/>
      <vel value="0.0083905592" flag="0"/>
      <psa03 value="0.0290926458" flag="0"/>
      <psa10 value="0.0144739555" flag="0"/>
      <psa30 value="0.0012931264" flag="0"/>
    </comp>
    <comp name="--.HHN">
      <acc value="0.0188826475" flag="0"/>
      <vel value="0.0191057884" flag="0"/>
      <psa03 value="0.0255679725" flag="0"/>
      <psa10 value="0.0373974986" flag="0"/>
      <psa30 value="0.0015891419" flag="0"/>
    </comp>
  </station>
  <station code="DARE" name="DARE" netid="KO" insttype="CMG-3ESP" lat="38.5712" lon="37.4832">
    <comp name="--.HHE">
      <acc value="0.0432036570" flag="0"/>
      <vel value="0.0228745761" flag="0"/>
      <psa03 value="0.1082093207" flag="0"/>
      <psa10 value="0.0270262634" flag="0"/>
      <psa30 value="0.0015231818" flag="0"/>
    </comp>
    <comp name="--.HHN">
      <acc value="0.0463218529" flag="0"/>
      <vel value="0.0173892955" flag="0"/>
      <psa03 value="0.1227101906" flag="0"/>
      <psa10 value="0.0180314696" flag="0"/>
      <psa30 value="0.0018340623" flag="0"/>
    </comp>
  </station>
  <station code="GAZ" name="GAZ" netid="KO" insttype="CMG-3T" lat="37.1721" lon="37.2096">
    <comp name="--.HHE">
      <acc value="0.0635070485" flag="0"/>
      <vel value="0.0433421364" flag="0"/>
      <psa03 value="0.0918697810" flag="0"/>
      <psa10 value="0.0263877532" flag="0"/>
      <psa30 value="0.0020473481" flag="0"/>
    </comp>
    <comp name="--.HHN">
      <acc value="0.0440530663" flag="0"/>
      <vel value="0.0200781750" flag="0"/>
      <psa03 value="0.1222791174" flag="0"/>
      <psa10 value="0.0262221724" flag="0"/>
      <psa30 value="0.0010693213" flag="0"/>
    </comp>
    <comp name="--.HHZ">
      <acc value="0.0574119268" flag="0"/>
      <vel value="0.0314853880" flag="0"/>
      <psa03 value="0.1335333145" flag="0"/>
      <psa10 value="0.0179296654" flag="0"/>
      <psa30 value="0.0011447207" flag="0"/>
    </comp>
  </station>
  <station code="KHMN" name="KHMN" netid="KO" insttype="CMG-5T" lat="37.3916" lon="37.1574">
    <comp name="--.HNE">
      <acc value="0.0614366248" flag="0"/>
      <vel value="0.0310122004" flag="0"/>
      <psa03 value="0.0861775691" flag="0"/>
      <psa10 value="0.0382827774" flag="0"/>
      <psa30 value="0.0016334555" flag="0"/>
    </comp>
    <comp name="--.HNN">
      <acc value="0.0651319210" flag="0"/>
      <vel value="0.0288653045" flag="0"/>
      <psa03 value="0.1384919958" flag="0"/>
      <psa10 value="0.0197489011" flag="0"/>
      <psa30 value="0.0013108934" flag="0"/>
    </comp>
    <comp name="--.HNZ">
      <acc value="0.0397444521" flag="0"/>
      <vel value="0.0139052741" flag="0"/>
      <psa03 value="0.0394823691" flag="0"/>
      <psa10 value="0.0095070064" flag="0"/>
      <psa30 value="0.0010617187" flag="0"/>
    </comp>
  </station>
  <station code="KMRS" name="KMRS" netid="KO" insttype="CMG-3T" lat="37.5053" lon="36.9">
    <comp name="--.HHE">
      <acc value="0.0483936586" flag="0"/>
      <vel value="0.0256219659" flag="0"/>
      <psa03 value="0.0930181445" flag="0"/>
      <psa10 value="0.0200745297" flag="0"/>
      <psa30 value="0.0029737329" flag="0"/>
    </comp>
    <comp name="--.HHN">
      <acc value="0.0526429799" flag="0"/>
      <vel value="0.0397145081" flag="0"/>
      <psa03 value="0.1748689868" flag="0"/>
      <psa10 value="0.0285933658" flag="0"/>
      <psa30 value="0.0024998962" flag="0"/>
    </comp>
    <comp name="--.HHZ">
      <acc value="0.0250052530" flag="0"/>
      <vel value="0.0169906827" flag="0"/>
      <psa03 value="0.0708094680" flag="0"/>
      <psa10 value="0.0175382035" flag="0"/>
      <psa30 value="0.0033617252" flag="0"/>
    </comp>
  </station>
  <station code="SARI" name="SARI" netid="KO" insttype="CMG-3T" lat="38.4072" lon="36.4181">
    <comp name="--.HHN">
      <acc value="0.1172110316" flag="0"/>
      <vel value="0.0429779030" flag="0"/>
      <psa03 value="0.1208693801" flag="0"/>
      <psa10 value="0.0470831758" flag="0"/>
      <psa30 value="0.0043772328" flag="0"/>
    </comp>
    <comp name="--.HHE">
      <acc value="0.1347968653" flag="0"/>
      <vel value="0.0374073916" flag="0"/>
      <psa03 value="0.1693877882" flag="0"/>
      <psa10 value="0.0380722232" flag="0"/>
      <psa30 value="0.0020098675" flag="0"/>
    </comp>
    <comp name="--.HHZ">
      <acc value="0.0741159978" flag="0"/>
      <vel value="0.0268854113" flag="0"/>
      <psa03 value="0.0909863494" flag="0"/>
      <psa10 value="0.0300280914" flag="0"/>
      <psa30 value="0.0024823690" flag="0"/>
    </comp>
  </station>
  <station code="ANDN" name="ANDN" netid="TU" insttype="T" lat="37.58" lon="36.3452">
    <comp name="--.HHZ">
      <acc value="0.0447475640" flag="0"/>
      <vel value="0.0453937786" flag="0"/>
      <psa03 value="0.1040128416" flag="0"/>
      <psa10 value="0.0538967663" flag="0"/>
      <psa30 value="0.0052291869" flag="0"/>
    </comp>
    <comp name="--.HHE">
      <acc value="0.1078709039" flag="0"/>
      <vel value="0.0788298519" flag="0"/>
      <psa03 value="0.1836593889" flag="0"/>
      <psa10 value="0.1166996368" flag="0"/>
      <psa30 value="0.0067081370" flag="0"/>
    </comp>
    <comp name="--.HHN">
      <acc value="0.1017106670" flag="0"/>
      <vel value="0.0417598211" flag="0"/>
      <psa03 value="0.1294490073" flag="0"/>
      <psa10 value="0.0803757496" flag="0"/>
      <psa30 value="0.0078070640" flag="0"/>
    </comp>
  </station>
</stationlist>
