<stationlist created="1778069471">
	<station code="IMMV" name="IMMV" netid="GE" source="GEOFON" insttype="" lat="35.4606" lon="23.9811">
		<comp name="--.HNE" depth="0.0">
			<acc value="0.00625143854282303" flag="0"/>
			<vel value="0.0134630607987127" flag="0"/>
			<psa03 value="0.0180758514737818" flag="0"/>
			<psa10 value="0.0240359608174018" flag="0"/>
			<psa30 value="0.00416102521549927" flag="0"/>
		</comp>
		<comp name="--.HNN" depth="0.0">
			<acc value="0.0051990819681243" flag="0"/>
			<vel value="0.0129220977608406" flag="0"/>
			<psa03 value="0.0203577040113136" flag="0"/>
			<psa10 value="0.0168440985255808" flag="0"/>
			<psa30 value="0.00376639895312612" flag="0"/>
		</comp>
		<comp name="--.HNZ" depth="0.0">
			<acc value="0.00448870134270994" flag="0"/>
			<vel value="0.00847450055725895" flag="0"/>
			<psa03 value="0.0120356535803151" flag="0"/>
			<psa10 value="0.0173112071626755" flag="0"/>
			<psa30 value="0.00255567484203568" flag="0"/>
		</comp>
	</station>
	<station code="SIT2" name="SIT2" netid="HI" source="ITSAK Strong Motion Network" insttype="" lat="35.2059" lon="26.107">
		<comp name="--.HNE" depth="0.0">
			<acc value="0.0702516823330659" flag="0"/>
			<vel value="0.0581702413628753" flag="0"/>
			<psa03 value="0.247469144805661" flag="0"/>
			<psa10 value="0.0605992920658534" flag="0"/>
			<psa30 value="0.00642990251311183" flag="0"/>
		</comp>
		<comp name="--.HNN" depth="0.0">
			<acc value="0.0903358190761293" flag="0"/>
			<vel value="0.0749803564111607" flag="0"/>
			<psa03 value="0.195791896161557" flag="0"/>
			<psa10 value="0.0490907016795016" flag="0"/>
			<psa30 value="0.0123484016045768" flag="0"/>
		</comp>
		<comp name="--.HNZ" depth="0.0">
			<acc value="0.055149163574158" flag="0"/>
			<vel value="0.0336505714352781" flag="0"/>
			<psa03 value="0.133913424408487" flag="0"/>
			<psa10 value="0.0207984147465036" flag="0"/>
			<psa30 value="0.00978377832121748" flag="0"/>
		</comp>
	</station>
</stationlist>
