<?xml version="1.0" encoding="UTF-8" standalone="yes"?>
<!DOCTYPE earthquake SYSTEM "stationlist.dtd">
<stationlist created="" xmlns="ch.ethz.sed.shakemap.usgs.xml">
  <station code="GVD" name="GVD" netid="GE" insttype="STS-2/N" lat="34.8391" lon="24.0874">
    <comp name="--.HHE">
      <acc value="0.0203945258" flag="0"/>
      <vel value="0.0178898668" flag="0"/>
      <psa03 value="0.0660376128" flag="0"/>
      <psa10 value="0.0183259624" flag="0"/>
      <psa30 value="0.0065829556" flag="0"/>
    </comp>
    <comp name="--.HHN">
      <acc value="0.0166505600" flag="0"/>
      <vel value="0.0166583712" flag="0"/>
      <psa03 value="0.0541649447" flag="0"/>
      <psa10 value="0.0215012993" flag="0"/>
      <psa30 value="0.0117649529" flag="0"/>
    </comp>
    <comp name="--.HHZ">
      <acc value="0.0095127883" flag="0"/>
      <vel value="0.0093101112" flag="0"/>
      <psa03 value="0.0263170127" flag="0"/>
      <psa10 value="0.0113575505" flag="0"/>
      <psa30 value="0.0033823876" flag="0"/>
    </comp>
  </station>
  <station code="ZKR" name="ZKR" netid="GE" insttype="STS-2/N" lat="35.1147" lon="26.2169">
    <comp name="--.HHE">
      <acc value="0.0278876042" flag="0"/>
      <vel value="0.0265387355" flag="0"/>
      <psa03 value="0.1094396188" flag="0"/>
      <psa10 value="0.0283438269" flag="0"/>
      <psa30 value="0.0155561854" flag="0"/>
    </comp>
    <comp name="--.HHN">
      <acc value="0.0152909784" flag="0"/>
      <vel value="0.0098776234" flag="0"/>
      <psa03 value="0.0692842841" flag="0"/>
      <psa10 value="0.0149044457" flag="0"/>
      <psa30 value="0.0047348187" flag="0"/>
    </comp>
    <comp name="--.HHZ">
      <acc value="0.0185695597" flag="0"/>
      <vel value="0.0169398508" flag="0"/>
      <psa03 value="0.0651227997" flag="0"/>
      <psa10 value="0.0236352762" flag="0"/>
      <psa30 value="0.0129563305" flag="0"/>
    </comp>
  </station>
  <station code="STIA" name="STIA" netid="HC" insttype="120" lat="35.2021" lon="26.0909">
    <comp name="--.HHE">
      <acc value="0.0305140685" flag="0"/>
      <vel value="0.0271236889" flag="0"/>
      <psa03 value="0.0965705372" flag="0"/>
      <psa10 value="0.0509523369" flag="0"/>
      <psa30 value="0.0060712931" flag="0"/>
    </comp>
    <comp name="--.HHN">
      <acc value="0.0243546711" flag="0"/>
      <vel value="0.0186487939" flag="0"/>
      <psa03 value="0.0836521285" flag="0"/>
      <psa10 value="0.0320500764" flag="0"/>
      <psa30 value="0.0110905733" flag="0"/>
    </comp>
    <comp name="--.HHZ">
      <acc value="0.0157486534" flag="0"/>
      <vel value="0.0065215437" flag="0"/>
      <psa03 value="0.0341214058" flag="0"/>
      <psa10 value="0.0073063569" flag="0"/>
      <psa30 value="0.0009313750" flag="0"/>
    </comp>
  </station>
  <station code="SIT2" name="SIT2" netid="HI" insttype="CMG-5TD,ACCELEROMETER,GURALP" lat="35.2059" lon="26.107">
    <comp name="--.HNE">
      <acc value="0.0700360727" flag="0"/>
      <vel value="0.0595505148" flag="0"/>
      <psa03 value="0.2431831594" flag="0"/>
      <psa10 value="0.0605023822" flag="0"/>
      <psa30 value="0.0062994296" flag="0"/>
    </comp>
    <comp name="--.HNN">
      <acc value="0.0903758199" flag="0"/>
      <vel value="0.0769217716" flag="0"/>
      <psa03 value="0.1956497454" flag="0"/>
      <psa10 value="0.0489033009" flag="0"/>
      <psa30 value="0.0122648640" flag="0"/>
    </comp>
    <comp name="--.HNZ">
      <acc value="0.0547422131" flag="0"/>
      <vel value="0.0299469202" flag="0"/>
      <psa03 value="0.1331695978" flag="0"/>
      <psa10 value="0.0205938753" flag="0"/>
      <psa30 value="0.0097687572" flag="0"/>
    </comp>
  </station>
  <station code="GVD" name="GVD" netid="HL" insttype="120" lat="34.8391" lon="24.0874">
    <comp name="--.HHE">
      <acc value="0.0198392174" flag="0"/>
      <vel value="0.0177798480" flag="0"/>
      <psa03 value="0.0642365720" flag="0"/>
      <psa10 value="0.0181670397" flag="0"/>
      <psa30 value="0.0065863282" flag="0"/>
    </comp>
    <comp name="--.HHN">
      <acc value="0.0162294947" flag="0"/>
      <vel value="0.0165487072" flag="0"/>
      <psa03 value="0.0527145793" flag="0"/>
      <psa10 value="0.0214055926" flag="0"/>
      <psa30 value="0.0117728036" flag="0"/>
    </comp>
    <comp name="--.HHZ">
      <acc value="0.0091921853" flag="0"/>
      <vel value="0.0092757961" flag="0"/>
      <psa03 value="0.0256437308" flag="0"/>
      <psa10 value="0.0113129167" flag="0"/>
      <psa30 value="0.0033845598" flag="0"/>
    </comp>
  </station>
  <station code="IDI" name="IDI" netid="HL" insttype="120" lat="35.288" lon="24.89">
    <comp name="--.HHE">
      <acc value="0.0071869594" flag="0"/>
      <vel value="0.0120577615" flag="0"/>
      <psa03 value="0.0202782627" flag="0"/>
      <psa10 value="0.0098352401" flag="0"/>
      <psa30 value="0.0051454226" flag="0"/>
    </comp>
    <comp name="--.HHN">
      <acc value="0.0066152710" flag="0"/>
      <vel value="0.0107985307" flag="0"/>
      <psa03 value="0.0154839459" flag="0"/>
      <psa10 value="0.0108207996" flag="0"/>
      <psa30 value="0.0041929040" flag="0"/>
    </comp>
    <comp name="--.HHZ">
      <acc value="0.0054168713" flag="0"/>
      <vel value="0.0100048411" flag="0"/>
      <psa03 value="0.0137921052" flag="0"/>
      <psa10 value="0.0107088428" flag="0"/>
      <psa30 value="0.0045878549" flag="0"/>
    </comp>
  </station>
  <station code="NPS" name="NPS" netid="HL" insttype="CMG3ESPC-120s" lat="35.2613" lon="25.6104">
    <comp name="--.HHE">
      <acc value="0.0086291573" flag="0"/>
      <vel value="0.0069825729" flag="0"/>
      <psa03 value="0.0301814151" flag="0"/>
      <psa10 value="0.0166139710" flag="0"/>
      <psa30 value="0.0032377274" flag="0"/>
    </comp>
    <comp name="--.HHN">
      <acc value="0.0182789102" flag="0"/>
      <vel value="0.0120021019" flag="0"/>
      <psa03 value="0.0405476878" flag="0"/>
      <psa10 value="0.0145520916" flag="0"/>
      <psa30 value="0.0050173343" flag="0"/>
    </comp>
    <comp name="--.HHZ">
      <acc value="0.0104495510" flag="0"/>
      <vel value="0.0202425182" flag="0"/>
      <psa03 value="0.0223942510" flag="0"/>
      <psa10 value="0.0257703059" flag="0"/>
      <psa30 value="0.0085080484" flag="0"/>
    </comp>
  </station>
  <station code="ZKR" name="ZKR" netid="HL" insttype="120" lat="35.1147" lon="26.2169">
    <comp name="--.HHE">
      <acc value="0.0274547635" flag="0"/>
      <vel value="0.0264754705" flag="0"/>
      <psa03 value="0.1062084322" flag="0"/>
      <psa10 value="0.0282166347" flag="0"/>
      <psa30 value="0.0155653133" flag="0"/>
    </comp>
    <comp name="--.HHN">
      <acc value="0.0147766259" flag="0"/>
      <vel value="0.0097769603" flag="0"/>
      <psa03 value="0.0673547971" flag="0"/>
      <psa10 value="0.0148459023" flag="0"/>
      <psa30 value="0.0047377392" flag="0"/>
    </comp>
    <comp name="--.HHZ">
      <acc value="0.0179236120" flag="0"/>
      <vel value="0.0169102622" flag="0"/>
      <psa03 value="0.0634100068" flag="0"/>
      <psa10 value="0.0234840086" flag="0"/>
      <psa30 value="0.0129645314" flag="0"/>
    </comp>
  </station>
  <station code="IDI" name="IDI" netid="MN" insttype="" lat="35.288" lon="24.89">
    <comp name="--.HHZ">
      <acc value="0.0054519868" flag="0"/>
      <vel value="0.0099073588" flag="0"/>
      <psa03 value="0.0138784467" flag="0"/>
      <psa10 value="0.0106275871" flag="0"/>
      <psa30 value="0.0045302727" flag="0"/>
    </comp>
    <comp name="--.HHE">
      <acc value="0.0071903708" flag="0"/>
      <vel value="0.0119280406" flag="0"/>
      <psa03 value="0.0203305654" flag="0"/>
      <psa10 value="0.0097812407" flag="0"/>
      <psa30 value="0.0050826609" flag="0"/>
    </comp>
    <comp name="--.HHN">
      <acc value="0.0066468518" flag="0"/>
      <vel value="0.0107014048" flag="0"/>
      <psa03 value="0.0156757803" flag="0"/>
      <psa10 value="0.0107168277" flag="0"/>
      <psa30 value="0.0041398799" flag="0"/>
    </comp>
  </station>
</stationlist>
