<stationlist created="1732912310">
	<station code="AKDN" name="AKDN" netid="KO" source="Bogazici University Kandilli Observatory And Earthquake Research Institute (KOERI)" insttype="" lat="35.2977" lon="32.9677">
		<comp name=".HNE" depth="0.0">
			<acc value="0.12026085322662" flag="0"/>
			<vel value="0.0716593708307" flag="0"/>
			<psa03 value="0.220826378663899" flag="0"/>
			<psa10 value="0.0827571222532486" flag="0"/>
			<psa30 value="0.00554940720430599" flag="0"/>
		</comp>
		<comp name=".HNN" depth="0.0">
			<acc value="0.101492225377146" flag="0"/>
			<vel value="0.06319117101" flag="0"/>
			<psa03 value="0.242860650826091" flag="0"/>
			<psa10 value="0.0737962411389007" flag="0"/>
			<psa30 value="0.00514951237990191" flag="0"/>
		</comp>
		<comp name=".HNZ" depth="0.0">
			<acc value="0.057173325546552" flag="0"/>
			<vel value="0.0274341861864" flag="0"/>
			<psa03 value="0.175014177163438" flag="0"/>
			<psa10 value="0.0390050026399918" flag="0"/>
			<psa30 value="0.005215301321453" flag="0"/>
		</comp>
	</station>
	<station code="AKIN" name="AKIN" netid="KO" source="Bogazici University Kandilli Observatory And Earthquake Research Institute (KOERI)" insttype="" lat="35.0157" lon="33.4662">
		<comp name=".HNE" depth="0.0">
			<acc value="0.029653027127562" flag="0"/>
			<vel value="0.0245780758633" flag="0"/>
			<psa03 value="0.0849646389068842" flag="0"/>
			<psa10 value="0.0273703068985215" flag="0"/>
			<psa30 value="0.00222234513612417" flag="0"/>
		</comp>
		<comp name=".HNN" depth="0.0">
			<acc value="0.02755206373992" flag="0"/>
			<vel value="0.0188809925962" flag="0"/>
			<psa03 value="0.0502217488193824" flag="0"/>
			<psa10 value="0.0295546240987979" flag="0"/>
			<psa30 value="0.00246451826223979" flag="0"/>
		</comp>
		<comp name=".HNZ" depth="0.0">
			<acc value="0.024578380112208" flag="0"/>
			<vel value="0.0143532490514" flag="0"/>
			<psa03 value="0.110527071876045" flag="0"/>
			<psa10 value="0.0174305771902091" flag="0"/>
			<psa30 value="0.00119324071300868" flag="0"/>
		</comp>
	</station>
	<station code="ALAN" name="ALAN" netid="KO" source="Bogazici University Kandilli Observatory And Earthquake Research Institute (KOERI)" insttype="" lat="36.557" lon="32.0327">
		<comp name=".HNE" depth="0.0">
			<acc value="1.8110442506616" flag="0"/>
			<vel value="0.647588342972" flag="0"/>
			<psa03 value="3.2188078968933" flag="0"/>
			<psa10 value="0.137795243258667" flag="0"/>
			<psa30 value="0.0152955732566408" flag="0"/>
		</comp>
		<comp name=".HNN" depth="0.0">
			<acc value="0.81099853842804" flag="0"/>
			<vel value="0.321360845807" flag="0"/>
			<psa03 value="2.23998088774153" flag="0"/>
			<psa10 value="0.100999913248395" flag="0"/>
			<psa30 value="0.013473446716409" flag="0"/>
		</comp>
		<comp name=".HNZ" depth="0.0">
			<acc value="0.41362431468816" flag="0"/>
			<vel value="0.134197536775" flag="0"/>
			<psa03 value="0.499256906654703" flag="0"/>
			<psa10 value="0.0471844594889071" flag="0"/>
			<psa30 value="0.00343608179022276" flag="0"/>
		</comp>
	</station>
	<station code="BCK" name="BCK" netid="KO" source="Bogazici University Kandilli Observatory And Earthquake Research Institute (KOERI)" insttype="" lat="37.4602" lon="30.5885">
		<comp name=".HNE" depth="0.0">
			<acc value="0.026841604564554" flag="0"/>
			<vel value="0.0177341964549" flag="0"/>
			<psa03 value="0.0986135326624523" flag="0"/>
			<psa10 value="0.020837576637167" flag="0"/>
			<psa30 value="0.00309645387487265" flag="0"/>
		</comp>
		<comp name=".HNN" depth="0.0">
			<acc value="0.026879307763464" flag="0"/>
			<vel value="0.0143096446892" flag="0"/>
			<psa03 value="0.089142134395746" flag="0"/>
			<psa10 value="0.0106341116452234" flag="0"/>
			<psa30 value="0.000933331620307728" flag="0"/>
		</comp>
		<comp name=".HNZ" depth="0.0">
			<acc value="0.014118082965588" flag="0"/>
			<vel value="0.00810723025396" flag="0"/>
			<psa03 value="0.0494183101789296" flag="0"/>
			<psa10 value="0.0119329108092944" flag="0"/>
			<psa30 value="0.00121409209430868" flag="0"/>
		</comp>
	</station>
	<station code="DEMR" name="DEMR" netid="KO" source="Bogazici University Kandilli Observatory And Earthquake Research Institute (KOERI)" insttype="" lat="36.2365" lon="29.9056">
		<comp name=".HNE" depth="0.0">
			<acc value="0.013853314865616" flag="0"/>
			<vel value="0.0104547766752" flag="0"/>
			<psa03 value="0.0434644470146446" flag="0"/>
			<psa10 value="0.00895329529935631" flag="0"/>
			<psa30 value="0.00168124272824615" flag="0"/>
		</comp>
		<comp name=".HNN" depth="0.0">
			<acc value="0.01599893317404" flag="0"/>
			<vel value="0.010197906402" flag="0"/>
			<psa03 value="0.0576835660447793" flag="0"/>
			<psa10 value="0.0151767810122456" flag="0"/>
			<psa30 value="0.00171580033001769" flag="0"/>
		</comp>
		<comp name=".HNZ" depth="0.0">
			<acc value="0.011175659150172" flag="0"/>
			<vel value="0.00693768987758" flag="0"/>
			<psa03 value="0.0344639471298432" flag="0"/>
			<psa10 value="0.00825011996745356" flag="0"/>
			<psa30 value="0.00149639079521221" flag="0"/>
		</comp>
	</station>
	<station code="KEMT" name="KEMT" netid="KO" source="Bogazici University Kandilli Observatory And Earthquake Research Institute (KOERI)" insttype="" lat="36.6037" lon="30.5558">
		<comp name=".HNE" depth="0.0">
			<acc value="0.19923087348234" flag="0"/>
			<vel value="0.0944548619285" flag="0"/>
			<psa03 value="0.84865696936124" flag="0"/>
			<psa10 value="0.0344439804946459" flag="0"/>
			<psa30 value="0.00409425539099096" flag="0"/>
		</comp>
		<comp name=".HNN" depth="0.0">
			<acc value="0.2060064467277" flag="0"/>
			<vel value="0.0993042952444" flag="0"/>
			<psa03 value="0.664755661799063" flag="0"/>
			<psa10 value="0.04663439179975" flag="0"/>
			<psa30 value="0.00405707542800206" flag="0"/>
		</comp>
		<comp name=".HNZ" depth="0.0">
			<acc value="0.10812552280326" flag="0"/>
			<vel value="0.0267310234023" flag="0"/>
			<psa03 value="0.191516999561339" flag="0"/>
			<psa10 value="0.0114647157311468" flag="0"/>
			<psa30 value="0.00165464898737641" flag="0"/>
		</comp>
	</station>
	<station code="KRMN" name="KRMN" netid="KO" source="Bogazici University Kandilli Observatory And Earthquake Research Institute (KOERI)" insttype="" lat="37.174" lon="33.2636">
		<comp name=".HNE" depth="0.0">
			<acc value="0.07204599490221" flag="0"/>
			<vel value="0.0502251964934" flag="0"/>
			<psa03 value="0.267655064167872" flag="0"/>
			<psa10 value="0.0662792056721324" flag="0"/>
			<psa30 value="0.00343456523142499" flag="0"/>
		</comp>
		<comp name=".HNN" depth="0.0">
			<acc value="0.079403645597808" flag="0"/>
			<vel value="0.0656126261254" flag="0"/>
			<psa03 value="0.17498975887957" flag="0"/>
			<psa10 value="0.122947679680405" flag="0"/>
			<psa30 value="0.00707569623015107" flag="0"/>
		</comp>
		<comp name=".HNZ" depth="0.0">
			<acc value="0.038254803426126" flag="0"/>
			<vel value="0.0274276519379" flag="0"/>
			<psa03 value="0.106390026983982" flag="0"/>
			<psa10 value="0.0432585981699302" flag="0"/>
			<psa30 value="0.00267450321438021" flag="0"/>
		</comp>
	</station>
	<station code="MNVG" name="MNVG" netid="KO" source="Bogazici University Kandilli Observatory And Earthquake Research Institute (KOERI)" insttype="" lat="36.7935" lon="31.4161">
		<comp name=".HNE" depth="0.0">
			<acc value="0.32026117113456" flag="0"/>
			<vel value="0.17237985737" flag="0"/>
			<psa03 value="1.02567411254483" flag="0"/>
			<psa10 value="0.0968556712129382" flag="0"/>
			<psa30 value="0.0075290212607074" flag="0"/>
		</comp>
		<comp name=".HNN" depth="0.0">
			<acc value="0.27726670593108" flag="0"/>
			<vel value="0.112138399469" flag="0"/>
			<psa03 value="0.795629456544908" flag="0"/>
			<psa10 value="0.0821979302093419" flag="0"/>
			<psa30 value="0.0064805097186412" flag="0"/>
		</comp>
		<comp name=".HNZ" depth="0.0">
			<acc value="0.2235896394117" flag="0"/>
			<vel value="0.109461942991" flag="0"/>
			<psa03 value="0.814341946156288" flag="0"/>
			<psa10 value="0.0367616790308264" flag="0"/>
			<psa30 value="0.00464557399646073" flag="0"/>
		</comp>
	</station>
	<station code="SEYD" name="SEYD" netid="KO" source="Bogazici University Kandilli Observatory And Earthquake Research Institute (KOERI)" insttype="" lat="37.4056" lon="31.8379">
		<comp name=".HNE" depth="0.0">
			<acc value="0.0948916373349" flag="0"/>
			<vel value="0.0973442546058" flag="0"/>
			<psa03 value="0.313735720951867" flag="0"/>
			<psa10 value="0.189075150300709" flag="0"/>
			<psa30 value="0.0117466539915049" flag="0"/>
		</comp>
		<comp name=".HNN" depth="0.0">
			<acc value="0.094926697084674" flag="0"/>
			<vel value="0.0718715012901" flag="0"/>
			<psa03 value="0.356225848214096" flag="0"/>
			<psa10 value="0.0808410678239942" flag="0"/>
			<psa30 value="0.0147624179377397" flag="0"/>
		</comp>
		<comp name=".HNZ" depth="0.0">
			<acc value="0.062595944545986" flag="0"/>
			<vel value="0.047303191284" flag="0"/>
			<psa03 value="0.238528843031661" flag="0"/>
			<psa10 value="0.0842685623786915" flag="0"/>
			<psa30 value="0.00886126451527194" flag="0"/>
		</comp>
	</station>
	<station code="SLFK" name="SLFK" netid="KO" source="Bogazici University Kandilli Observatory And Earthquake Research Institute (KOERI)" insttype="" lat="36.3925" lon="33.9464">
		<comp name=".HNE" depth="0.0">
			<acc value="0.071039248265886" flag="0"/>
			<vel value="0.0311515082851" flag="0"/>
			<psa03 value="0.233045521455463" flag="0"/>
			<psa10 value="0.0452750242479634" flag="0"/>
			<psa30 value="0.00231601925824112" flag="0"/>
		</comp>
		<comp name=".HNN" depth="0.0">
			<acc value="0.07798858492776" flag="0"/>
			<vel value="0.0435713576425" flag="0"/>
			<psa03 value="0.300233118137408" flag="0"/>
			<psa10 value="0.0531653219417178" flag="0"/>
			<psa30 value="0.00223767761016123" flag="0"/>
		</comp>
		<comp name=".HNZ" depth="0.0">
			<acc value="0.045407694064134" flag="0"/>
			<vel value="0.0221226529085" flag="0"/>
			<psa03 value="0.114626458023706" flag="0"/>
			<psa10 value="0.0404558312501828" flag="0"/>
			<psa30 value="0.00339155654897589" flag="0"/>
		</comp>
	</station>
</stationlist>
