<?xml version="1.0" encoding="UTF-8" standalone="yes"?>
<!DOCTYPE earthquake SYSTEM "stationlist.dtd">
<stationlist created="" xmlns="ch.ethz.sed.shakemap.usgs.xml">
  <station code="AKDN" name="AKDN" netid="KO" insttype="CMG-5T" lat="35.2977" lon="32.9677">
    <comp name="--.HNZ">
      <acc value="0.0573958099" flag="0"/>
      <vel value="0.0262844872" flag="0"/>
      <psa03 value="0.1751028001" flag="0"/>
      <psa10 value="0.0389874274" flag="0"/>
      <psa30 value="0.0047115988" flag="0"/>
    </comp>
    <comp name="--.HNE">
      <acc value="0.1209560902" flag="0"/>
      <vel value="0.0713227700" flag="0"/>
      <psa03 value="0.2187522041" flag="0"/>
      <psa10 value="0.0825899920" flag="0"/>
      <psa30 value="0.0054717475" flag="0"/>
    </comp>
    <comp name="--.HNN">
      <acc value="0.1024666169" flag="0"/>
      <vel value="0.0633035513" flag="0"/>
      <psa03 value="0.2448821450" flag="0"/>
      <psa10 value="0.0736287667" flag="0"/>
      <psa30 value="0.0047311044" flag="0"/>
    </comp>
  </station>
  <station code="ALAN" name="ALAN" netid="KO" insttype="CMG-5T" lat="36.557" lon="32.0327">
    <comp name="--.HNE">
      <acc value="1.8144821816" flag="0"/>
      <vel value="0.6466165005" flag="0"/>
      <psa03 value="3.1724053486" flag="0"/>
      <psa10 value="0.1372981766" flag="0"/>
      <psa30 value="0.0154494875" flag="0"/>
    </comp>
    <comp name="--.HNN">
      <acc value="0.8150396100" flag="0"/>
      <vel value="0.3213063028" flag="0"/>
      <psa03 value="2.2532450782" flag="0"/>
      <psa10 value="0.1007118304" flag="0"/>
      <psa30 value="0.0133923243" flag="0"/>
    </comp>
    <comp name="--.HNZ">
      <acc value="0.4131720496" flag="0"/>
      <vel value="0.1328734896" flag="0"/>
      <psa03 value="0.4892062921" flag="0"/>
      <psa10 value="0.0473470249" flag="0"/>
      <psa30 value="0.0028333875" flag="0"/>
    </comp>
  </station>
  <station code="ANTB" name="ANTB" netid="KO" insttype="CMG-3T" lat="36.8998" lon="30.6538">
    <comp name="--.HHN">
      <acc value="0.1135728259" flag="0"/>
      <vel value="0.0542094541" flag="0"/>
      <psa03 value="0.2499881482" flag="0"/>
      <psa10 value="0.0265151479" flag="0"/>
      <psa30 value="0.0040874407" flag="0"/>
    </comp>
    <comp name="--.HHE">
      <acc value="0.0480101498" flag="0"/>
      <vel value="0.0253873515" flag="0"/>
      <psa03 value="0.1566947402" flag="0"/>
      <psa10 value="0.0266070925" flag="0"/>
      <psa30 value="0.0043445457" flag="0"/>
    </comp>
    <comp name="--.HHZ">
      <acc value="0.0406284806" flag="0"/>
      <vel value="0.0217176153" flag="0"/>
      <psa03 value="0.1134243588" flag="0"/>
      <psa10 value="0.0277670757" flag="0"/>
      <psa30 value="0.0029723205" flag="0"/>
    </comp>
  </station>
  <station code="HDMB" name="HDMB" netid="KO" insttype="CMG-3T" lat="36.9638" lon="32.4857">
    <comp name="--.HHE">
      <acc value="0.0821339842" flag="0"/>
      <vel value="0.0519370848" flag="0"/>
      <psa03 value="0.3344344314" flag="0"/>
      <psa10 value="0.0857072155" flag="0"/>
      <psa30 value="0.0024848397" flag="0"/>
    </comp>
    <comp name="--.HHN">
      <acc value="0.0724817733" flag="0"/>
      <vel value="0.0411627628" flag="0"/>
      <psa03 value="0.2636937306" flag="0"/>
      <psa10 value="0.0528746229" flag="0"/>
      <psa30 value="0.0036175213" flag="0"/>
    </comp>
    <comp name="--.HHZ">
      <acc value="0.0442231719" flag="0"/>
      <vel value="0.0235659377" flag="0"/>
      <psa03 value="0.2057460278" flag="0"/>
      <psa10 value="0.0297577965" flag="0"/>
      <psa30 value="0.0022968601" flag="0"/>
    </comp>
  </station>
  <station code="HSY" name="HSY" netid="KO" insttype="CMG-6T" lat="35.2916" lon="33.0974">
    <comp name="--.HHN">
      <acc value="0.5281564844" flag="0"/>
      <vel value="0.2070417999" flag="0"/>
      <psa03 value="0.8290500008" flag="0"/>
      <psa10 value="0.0886864207" flag="0"/>
      <psa30 value="0.0050760128" flag="0"/>
    </comp>
    <comp name="--.HHE">
      <acc value="0.3900476475" flag="0"/>
      <vel value="0.1265707237" flag="0"/>
      <psa03 value="0.7762298338" flag="0"/>
      <psa10 value="0.0842910737" flag="0"/>
      <psa30 value="0.0062228437" flag="0"/>
    </comp>
    <comp name="--.HHZ">
      <acc value="0.1210363843" flag="0"/>
      <vel value="0.0429355427" flag="0"/>
      <psa03 value="0.1887065205" flag="0"/>
      <psa10 value="0.0380464888" flag="0"/>
      <psa30 value="0.0032913385" flag="0"/>
    </comp>
  </station>
  <station code="KEMT" name="KEMT" netid="KO" insttype="CMG-5T" lat="36.6037" lon="30.5558">
    <comp name="--.HNZ">
      <acc value="0.1116190257" flag="0"/>
      <vel value="0.0271071886" flag="0"/>
      <psa03 value="0.1889843409" flag="0"/>
      <psa10 value="0.0114125305" flag="0"/>
      <psa30 value="0.0014696520" flag="0"/>
    </comp>
    <comp name="--.HNN">
      <acc value="0.2069738300" flag="0"/>
      <vel value="0.0982568694" flag="0"/>
      <psa03 value="0.6738086997" flag="0"/>
      <psa10 value="0.0465735449" flag="0"/>
      <psa30 value="0.0038916999" flag="0"/>
    </comp>
    <comp name="--.HNE">
      <acc value="0.1995266771" flag="0"/>
      <vel value="0.0945728289" flag="0"/>
      <psa03 value="0.8527050534" flag="0"/>
      <psa10 value="0.0342989956" flag="0"/>
      <psa30 value="0.0038963258" flag="0"/>
    </comp>
  </station>
  <station code="LEF" name="LEF" netid="KO" insttype="CMG-6T" lat="35.1118" lon="32.8433">
    <comp name="--.HHE">
      <acc value="0.1399448333" flag="0"/>
      <vel value="0.0609031390" flag="0"/>
      <psa03 value="0.2872812648" flag="0"/>
      <psa10 value="0.0491514089" flag="0"/>
      <psa30 value="0.0051511979" flag="0"/>
    </comp>
    <comp name="--.HHZ">
      <acc value="0.0881361651" flag="0"/>
      <vel value="0.0240231987" flag="0"/>
      <psa03 value="0.2346760168" flag="0"/>
      <psa10 value="0.0341608588" flag="0"/>
      <psa30 value="0.0023151350" flag="0"/>
    </comp>
    <comp name="--.HHN">
      <acc value="0.1402787064" flag="0"/>
      <vel value="0.0500136238" flag="0"/>
      <psa03 value="0.2426703148" flag="0"/>
      <psa10 value="0.0429299351" flag="0"/>
      <psa30 value="0.0031231323" flag="0"/>
    </comp>
  </station>
  <station code="LMOS" name="LMOS" netid="KO" insttype="CMG-6T" lat="36.6021" lon="32.6962">
    <comp name="--.HHN">
      <acc value="0.0518327276" flag="0"/>
      <vel value="0.0209597386" flag="0"/>
      <psa03 value="0.1356683943" flag="0"/>
      <psa10 value="0.0187655486" flag="0"/>
      <psa30 value="0.0022577062" flag="0"/>
    </comp>
    <comp name="--.HHE">
      <acc value="0.0557207267" flag="0"/>
      <vel value="0.0260464957" flag="0"/>
      <psa03 value="0.2557309755" flag="0"/>
      <psa10 value="0.0151419463" flag="0"/>
      <psa30 value="0.0014657352" flag="0"/>
    </comp>
    <comp name="--.HHZ">
      <acc value="0.0327990166" flag="0"/>
      <vel value="0.0157435967" flag="0"/>
      <psa03 value="0.1090041688" flag="0"/>
      <psa10 value="0.0189179326" flag="0"/>
      <psa30 value="0.0031508025" flag="0"/>
    </comp>
  </station>
  <station code="MNVG" name="MNVG" netid="KO" insttype="CMG-5T" lat="36.7935" lon="31.4161">
    <comp name="--.HNN">
      <acc value="0.2784877261" flag="0"/>
      <vel value="0.1095425120" flag="0"/>
      <psa03 value="0.7873228442" flag="0"/>
      <psa10 value="0.0820066681" flag="0"/>
      <psa30 value="0.0058488789" flag="0"/>
    </comp>
    <comp name="--.HNZ">
      <acc value="0.2285301687" flag="0"/>
      <vel value="0.1083657254" flag="0"/>
      <psa03 value="0.8094862643" flag="0"/>
      <psa10 value="0.0365081058" flag="0"/>
      <psa30 value="0.0041855325" flag="0"/>
    </comp>
    <comp name="--.HNE">
      <acc value="0.3238902496" flag="0"/>
      <vel value="0.1730025881" flag="0"/>
      <psa03 value="1.0009130022" flag="0"/>
      <psa10 value="0.0965899283" flag="0"/>
      <psa30 value="0.0070476013" flag="0"/>
    </comp>
  </station>
</stationlist>
