<?xml version="1.0" encoding="UTF-8" standalone="yes"?>
<!DOCTYPE earthquake SYSTEM "stationlist.dtd">
<stationlist created="" xmlns="ch.ethz.sed.shakemap.usgs.xml">
  <station code="ATHU" name="ATHU" netid="HA" insttype="60s," lat="37.9665" lon="23.7845">
    <comp name="--.HHE">
      <acc value="0.0555971331" flag="0"/>
      <vel value="0.0185688084" flag="0"/>
      <psa03 value="0.1765418437" flag="0"/>
      <psa10 value="0.0071737365" flag="0"/>
      <psa30 value="0.0004654292" flag="0"/>
    </comp>
    <comp name="--.HHZ">
      <acc value="0.0336755388" flag="0"/>
      <vel value="0.0086077118" flag="0"/>
      <psa03 value="0.0567739298" flag="0"/>
      <psa10 value="0.0063070493" flag="0"/>
      <psa30 value="0.0007762251" flag="0"/>
    </comp>
    <comp name="--.HHN">
      <acc value="0.0372767912" flag="0"/>
      <vel value="0.0112794666" flag="0"/>
      <psa03 value="0.0586836688" flag="0"/>
      <psa10 value="0.0044779193" flag="0"/>
      <psa30 value="0.0004916918" flag="0"/>
    </comp>
  </station>
  <station code="EPID" name="EPID" netid="HA" insttype="30" lat="37.6144" lon="23.1189">
    <comp name="--.HHE">
      <acc value="0.0272756934" flag="0"/>
      <vel value="0.0147986802" flag="0"/>
      <psa03 value="0.0745147813" flag="0"/>
      <psa10 value="0.0097093541" flag="0"/>
      <psa30 value="0.0004958617" flag="0"/>
    </comp>
    <comp name="--.HHN">
      <acc value="0.0196636391" flag="0"/>
      <vel value="0.0079808490" flag="0"/>
      <psa03 value="0.0495717130" flag="0"/>
      <psa10 value="0.0055580661" flag="0"/>
      <psa30 value="0.0006886439" flag="0"/>
    </comp>
    <comp name="--.HHZ">
      <acc value="0.0184151486" flag="0"/>
      <vel value="0.0063611853" flag="0"/>
      <psa03 value="0.0441757828" flag="0"/>
      <psa10 value="0.0080394133" flag="0"/>
      <psa30 value="0.0009540687" flag="0"/>
    </comp>
  </station>
  <station code="ERTR" name="ERTR" netid="HA" insttype="Horizon,120s,1200" lat="38.4066" lon="23.7865">
    <comp name="--.HHE">
      <acc value="0.0198682614" flag="0"/>
      <vel value="0.0088681931" flag="0"/>
      <psa03 value="0.0523502559" flag="0"/>
      <psa10 value="0.0050757468" flag="0"/>
      <psa30 value="0.0005822702" flag="0"/>
    </comp>
    <comp name="--.HHN">
      <acc value="0.0209830456" flag="0"/>
      <vel value="0.0101532766" flag="0"/>
      <psa03 value="0.0770750194" flag="0"/>
      <psa10 value="0.0070624273" flag="0"/>
      <psa30 value="0.0004026581" flag="0"/>
    </comp>
    <comp name="--.HHZ">
      <acc value="0.0111731258" flag="0"/>
      <vel value="0.0043865474" flag="0"/>
      <psa03 value="0.0186749542" flag="0"/>
      <psa10 value="0.0021606874" flag="0"/>
      <psa30 value="0.0003295947" flag="0"/>
    </comp>
  </station>
  <station code="KARY" name="KARY" netid="HA" insttype="60" lat="38.0321" lon="24.437">
    <comp name="--.HHZ">
      <acc value="0.1648731969" flag="0"/>
      <vel value="0.0240513865" flag="0"/>
      <psa03 value="0.1185165322" flag="0"/>
      <psa10 value="0.0072972072" flag="0"/>
      <psa30 value="0.0009542542" flag="0"/>
    </comp>
    <comp name="--.HHE">
      <acc value="0.2317048867" flag="0"/>
      <vel value="0.0248695559" flag="0"/>
      <psa03 value="0.0692166861" flag="0"/>
      <psa10 value="0.0048579148" flag="0"/>
      <psa30 value="0.0003726535" flag="0"/>
    </comp>
    <comp name="--.HHN">
      <acc value="0.1951119325" flag="0"/>
      <vel value="0.0316030630" flag="0"/>
      <psa03 value="0.0964396436" flag="0"/>
      <psa10 value="0.0060960512" flag="0"/>
      <psa30 value="0.0006574754" flag="0"/>
    </comp>
  </station>
  <station code="MDRA" name="MDRA" netid="HA" insttype="60" lat="38.0606" lon="23.4662">
    <comp name="--.HHN">
      <acc value="0.0464692490" flag="0"/>
      <vel value="0.0165435060" flag="0"/>
      <psa03 value="0.0795346854" flag="0"/>
      <psa10 value="0.0120961638" flag="0"/>
      <psa30 value="0.0007520674" flag="0"/>
    </comp>
    <comp name="--.HHZ">
      <acc value="0.0442152351" flag="0"/>
      <vel value="0.0182083227" flag="0"/>
      <psa03 value="0.1231721193" flag="0"/>
      <psa10 value="0.0144395787" flag="0"/>
      <psa30 value="0.0010398042" flag="0"/>
    </comp>
    <comp name="--.HHE">
      <acc value="0.0453646456" flag="0"/>
      <vel value="0.0149929553" flag="0"/>
      <psa03 value="0.0834060060" flag="0"/>
      <psa10 value="0.0078758987" flag="0"/>
      <psa30 value="0.0007019982" flag="0"/>
    </comp>
  </station>
  <station code="MRTH" name="MRTH" netid="HA" insttype="S100," lat="38.1225" lon="23.9409">
    <comp name="--.HHE">
      <acc value="0.0986130846" flag="0"/>
      <vel value="0.0388241793" flag="0"/>
      <psa03 value="0.2158283936" flag="0"/>
      <psa10 value="0.0191552842" flag="0"/>
      <psa30 value="0.0012611018" flag="0"/>
    </comp>
    <comp name="--.HHN">
      <acc value="0.0554309102" flag="0"/>
      <vel value="0.0182347003" flag="0"/>
      <psa03 value="0.1064168176" flag="0"/>
      <psa10 value="0.0164143796" flag="0"/>
      <psa30 value="0.0008821788" flag="0"/>
    </comp>
  </station>
  <station code="SERI" name="SERI" netid="HA" insttype="30" lat="37.1609" lon="24.4853">
    <comp name="--.HHN">
      <acc value="0.3773656858" flag="0"/>
      <vel value="0.0352284433" flag="0"/>
      <psa03 value="0.1198095639" flag="0"/>
      <psa10 value="0.0100948171" flag="0"/>
      <psa30 value="0.0014402167" flag="0"/>
    </comp>
    <comp name="--.HHZ">
      <acc value="0.4428806143" flag="0"/>
      <vel value="0.0400522341" flag="0"/>
      <psa03 value="0.1404891393" flag="0"/>
      <psa10 value="0.0108496754" flag="0"/>
      <psa30 value="0.0012353957" flag="0"/>
    </comp>
    <comp name="--.HHE">
      <acc value="0.4036510200" flag="0"/>
      <vel value="0.0573357026" flag="0"/>
      <psa03 value="0.2023869847" flag="0"/>
      <psa10 value="0.0159151306" flag="0"/>
      <psa30 value="0.0013589185" flag="0"/>
    </comp>
  </station>
  <station code="THNO" name="THNO" netid="HC" insttype="60" lat="37.6541" lon="25.0221">
    <comp name="--.HHZ">
      <acc value="0.1903295117" flag="0"/>
      <vel value="0.0486033819" flag="0"/>
      <psa03 value="0.2220707502" flag="0"/>
      <psa10 value="0.0106721695" flag="0"/>
      <psa30 value="0.0010503105" flag="0"/>
    </comp>
    <comp name="--.HHE">
      <acc value="0.0000000000" flag="0"/>
      <vel value="-100.0000000000" flag="0"/>
      <psa03 value="0.0000000000" flag="0"/>
      <psa10 value="0.0000000000" flag="0"/>
      <psa30 value="0.0000000000" flag="0"/>
    </comp>
    <comp name="--.HHN">
      <acc value="0.3899206492" flag="0"/>
      <vel value="0.0451865343" flag="0"/>
      <psa03 value="0.1764506509" flag="0"/>
      <psa10 value="0.0072660835" flag="0"/>
      <psa30 value="0.0009013473" flag="0"/>
    </comp>
  </station>
  <station code="APE" name="APE" netid="HL" insttype="120" lat="37.0727" lon="25.523">
    <comp name="--.HHZ">
      <acc value="0.0697942690" flag="0"/>
      <vel value="0.0235961392" flag="0"/>
      <psa03 value="0.1426396964" flag="0"/>
      <psa10 value="0.0109015754" flag="0"/>
      <psa30 value="0.0006365375" flag="0"/>
    </comp>
    <comp name="--.HHE">
      <acc value="0.2002374725" flag="0"/>
      <vel value="0.0486028623" flag="0"/>
      <psa03 value="0.1594106870" flag="0"/>
      <psa10 value="0.0142068740" flag="0"/>
      <psa30 value="0.0008360754" flag="0"/>
    </comp>
    <comp name="--.HHN">
      <acc value="0.1939984798" flag="0"/>
      <vel value="0.0465560584" flag="0"/>
      <psa03 value="0.2102683853" flag="0"/>
      <psa10 value="0.0144610026" flag="0"/>
      <psa30 value="0.0007599749" flag="0"/>
    </comp>
  </station>
  <station code="ATH" name="ATH" netid="HL" insttype="DR24" lat="37.9738" lon="23.7177">
    <comp name="--.HHE">
      <acc value="0.0862505001" flag="0"/>
      <vel value="0.0287605169" flag="0"/>
      <psa03 value="0.2343475857" flag="0"/>
      <psa10 value="0.0209702097" flag="0"/>
      <psa30 value="0.0012302365" flag="0"/>
    </comp>
    <comp name="--.HHN">
      <acc value="0.0554828176" flag="0"/>
      <vel value="0.0241064136" flag="0"/>
      <psa03 value="0.1561497839" flag="0"/>
      <psa10 value="0.0121685000" flag="0"/>
      <psa30 value="0.0012239199" flag="0"/>
    </comp>
    <comp name="--.HHZ">
      <acc value="0.0421725061" flag="0"/>
      <vel value="0.0122342651" flag="0"/>
      <psa03 value="0.0645903271" flag="0"/>
      <psa10 value="0.0135961789" flag="0"/>
      <psa30 value="0.0009131169" flag="0"/>
    </comp>
  </station>
  <station code="LVRA" name="LVRA" netid="HL" insttype="CMG-5" lat="37.712" lon="24.0552">
    <comp name="00.HNZ">
      <acc value="0.0992723374" flag="0"/>
      <vel value="0.0144157564" flag="0"/>
      <psa03 value="0.1274718482" flag="0"/>
      <psa10 value="0.0114261181" flag="0"/>
      <psa30 value="0.0016389631" flag="0"/>
    </comp>
    <comp name="00.HNN">
      <acc value="0.1763373980" flag="0"/>
      <vel value="0.0339631132" flag="0"/>
      <psa03 value="0.2244869278" flag="0"/>
      <psa10 value="0.0135075498" flag="0"/>
      <psa30 value="0.0012545110" flag="0"/>
    </comp>
    <comp name="00.HNE">
      <acc value="0.2546179966" flag="0"/>
      <vel value="0.0366477714" flag="0"/>
      <psa03 value="0.1856332669" flag="0"/>
      <psa10 value="0.0236735377" flag="0"/>
      <psa30 value="0.0012206578" flag="0"/>
    </comp>
  </station>
  <station code="MHLO" name="MHLO" netid="HL" insttype="20" lat="36.6898" lon="24.4017">
    <comp name="--.HHZ">
      <acc value="0.0520528506" flag="0"/>
      <vel value="0.0237632479" flag="0"/>
      <psa03 value="0.0986021180" flag="0"/>
      <psa10 value="0.0144056836" flag="0"/>
      <psa30 value="0.0010974577" flag="0"/>
    </comp>
    <comp name="--.HHE">
      <acc value="0.1246298022" flag="0"/>
      <vel value="0.0472439704" flag="0"/>
      <psa03 value="0.2353939786" flag="0"/>
      <psa10 value="0.0388574009" flag="0"/>
      <psa30 value="0.0016715692" flag="0"/>
    </comp>
    <comp name="--.HHN">
      <acc value="0.1137511567" flag="0"/>
      <vel value="0.0452637978" flag="0"/>
      <psa03 value="0.2882830949" flag="0"/>
      <psa10 value="0.0293681354" flag="0"/>
      <psa30 value="0.0018452079" flag="0"/>
    </comp>
  </station>
  <station code="NOAC" name="NOAC" netid="HL" insttype="CMG-5" lat="37.9738" lon="23.7177">
    <comp name="00.HNN">
      <acc value="0.0597636099" flag="0"/>
      <vel value="0.0232440035" flag="0"/>
      <psa03 value="0.1592219663" flag="0"/>
      <psa10 value="0.0122261300" flag="0"/>
      <psa30 value="0.0012257973" flag="0"/>
    </comp>
    <comp name="00.HNZ">
      <acc value="0.0426118260" flag="0"/>
      <vel value="0.0123843750" flag="0"/>
      <psa03 value="0.0674468702" flag="0"/>
      <psa10 value="0.0136554570" flag="0"/>
      <psa30 value="0.0008844943" flag="0"/>
    </comp>
    <comp name="00.HNE">
      <acc value="0.0902413102" flag="0"/>
      <vel value="0.0294962573" flag="0"/>
      <psa03 value="0.2429150008" flag="0"/>
      <psa10 value="0.0217131958" flag="0"/>
      <psa30 value="0.0012910348" flag="0"/>
    </comp>
  </station>
  <station code="PTL" name="PTL" netid="HL" insttype="120" lat="38.0473" lon="23.8638">
    <comp name="--.HHE">
      <acc value="0.0397241626" flag="0"/>
      <vel value="0.0182654638" flag="0"/>
      <psa03 value="0.0820950202" flag="0"/>
      <psa10 value="0.0062932486" flag="0"/>
      <psa30 value="0.0008198503" flag="0"/>
    </comp>
    <comp name="--.HHN">
      <acc value="0.0016127363" flag="0"/>
      <vel value="0.0005583370" flag="0"/>
      <psa03 value="0.0003559774" flag="0"/>
      <psa10 value="0.0002235469" flag="0"/>
      <psa30 value="0.0002471982" flag="0"/>
    </comp>
    <comp name="--.HHZ">
      <acc value="0.0681691963" flag="0"/>
      <vel value="0.0182271061" flag="0"/>
      <psa03 value="0.0558401833" flag="0"/>
      <psa10 value="0.0113611342" flag="0"/>
      <psa30 value="0.0065050360" flag="0"/>
    </comp>
  </station>
  <station code="TNSA" name="TNSA" netid="HL" insttype="CMG-5" lat="37.5394" lon="25.1631">
    <comp name="00.HNZ">
      <acc value="0.3121209305" flag="0"/>
      <vel value="0.0611756866" flag="0"/>
      <psa03 value="0.3355849384" flag="0"/>
      <psa10 value="0.0108623687" flag="0"/>
      <psa30 value="0.0009344186" flag="0"/>
    </comp>
    <comp name="00.HNN">
      <acc value="0.6462029702" flag="0"/>
      <vel value="0.1533517291" flag="0"/>
      <psa03 value="0.7559529856" flag="0"/>
      <psa10 value="0.0219155709" flag="0"/>
      <psa30 value="0.0023683474" flag="0"/>
    </comp>
    <comp name="00.HNE">
      <acc value="0.3896923706" flag="0"/>
      <vel value="0.0873885704" flag="0"/>
      <psa03 value="0.2465768294" flag="0"/>
      <psa10 value="0.0115334444" flag="0"/>
      <psa30 value="0.0011371805" flag="0"/>
    </comp>
  </station>
  <station code="KRND" name="KRND" netid="HT" insttype="100" lat="37.383" lon="23.1502">
    <comp name="--.HHN">
      <acc value="0.0203201093" flag="0"/>
      <vel value="0.0096208029" flag="0"/>
      <psa03 value="0.0653598954" flag="0"/>
      <psa10 value="0.0070206116" flag="0"/>
      <psa30 value="0.0005644086" flag="0"/>
    </comp>
    <comp name="--.HHE">
      <acc value="0.0321699727" flag="0"/>
      <vel value="0.0195860054" flag="0"/>
      <psa03 value="0.0869810449" flag="0"/>
      <psa10 value="0.0094634247" flag="0"/>
      <psa30 value="0.0008826475" flag="0"/>
    </comp>
    <comp name="--.HHZ">
      <acc value="0.0128991776" flag="0"/>
      <vel value="0.0094497950" flag="0"/>
      <psa03 value="0.0222380149" flag="0"/>
      <psa10 value="0.0095331226" flag="0"/>
      <psa30 value="0.0010315346" flag="0"/>
    </comp>
  </station>
</stationlist>
