<?xml version="1.0" encoding="UTF-8" standalone="yes"?>
<!DOCTYPE earthquake SYSTEM "stationlist.dtd">
<stationlist created="" xmlns="ch.ethz.sed.shakemap.usgs.xml">
  <station code="ATHU" name="ATHU" netid="HA" insttype="60s," lat="37.9665" lon="23.7845">
    <comp name="--.HHZ">
      <acc value="0.0336755393" flag="0"/>
      <vel value="0.0086077113" flag="0"/>
      <psa03 value="0.0567739298" flag="0"/>
      <psa10 value="0.0063070491" flag="0"/>
      <psa30 value="0.0007762067" flag="0"/>
    </comp>
    <comp name="--.HHE">
      <acc value="0.0555971315" flag="0"/>
      <vel value="0.0185688087" flag="0"/>
      <psa03 value="0.1765418437" flag="0"/>
      <psa10 value="0.0071737360" flag="0"/>
      <psa30 value="0.0004654843" flag="0"/>
    </comp>
    <comp name="--.HHN">
      <acc value="0.0372767910" flag="0"/>
      <vel value="0.0112794663" flag="0"/>
      <psa03 value="0.0586836688" flag="0"/>
      <psa10 value="0.0044779191" flag="0"/>
      <psa30 value="0.0004916747" flag="0"/>
    </comp>
  </station>
  <station code="EPID" name="EPID" netid="HA" insttype="30" lat="37.6144" lon="23.1189">
    <comp name="--.HHN">
      <acc value="0.0196636391" flag="0"/>
      <vel value="0.0079808520" flag="0"/>
      <psa03 value="0.0495717130" flag="0"/>
      <psa10 value="0.0055580661" flag="0"/>
      <psa30 value="0.0006890237" flag="0"/>
    </comp>
    <comp name="--.HHZ">
      <acc value="0.0184151494" flag="0"/>
      <vel value="0.0063611764" flag="0"/>
      <psa03 value="0.0441757828" flag="0"/>
      <psa10 value="0.0080394133" flag="0"/>
      <psa30 value="0.0009539206" flag="0"/>
    </comp>
    <comp name="--.HHE">
      <acc value="0.0272756946" flag="0"/>
      <vel value="0.0147987356" flag="0"/>
      <psa03 value="0.0745147812" flag="0"/>
      <psa10 value="0.0097093541" flag="0"/>
      <psa30 value="0.0004953383" flag="0"/>
    </comp>
  </station>
  <station code="ERTR" name="ERTR" netid="HA" insttype="Horizon,120s,1200" lat="38.4066" lon="23.7865">
    <comp name="--.HHZ">
      <acc value="0.0111731256" flag="0"/>
      <vel value="0.0043865473" flag="0"/>
      <psa03 value="0.0186749542" flag="0"/>
      <psa10 value="0.0021606875" flag="0"/>
      <psa30 value="0.0003295844" flag="0"/>
    </comp>
    <comp name="--.HHE">
      <acc value="0.0198682617" flag="0"/>
      <vel value="0.0088681932" flag="0"/>
      <psa03 value="0.0523502559" flag="0"/>
      <psa10 value="0.0050757468" flag="0"/>
      <psa30 value="0.0005822727" flag="0"/>
    </comp>
    <comp name="--.HHN">
      <acc value="0.0209830459" flag="0"/>
      <vel value="0.0101532767" flag="0"/>
      <psa03 value="0.0770750194" flag="0"/>
      <psa10 value="0.0070624274" flag="0"/>
      <psa30 value="0.0004026631" flag="0"/>
    </comp>
  </station>
  <station code="KARY" name="KARY" netid="HA" insttype="60" lat="38.0321" lon="24.437">
    <comp name="--.HHZ">
      <acc value="0.1648731973" flag="0"/>
      <vel value="0.0240513864" flag="0"/>
      <psa03 value="0.1185165322" flag="0"/>
      <psa10 value="0.0072972072" flag="0"/>
      <psa30 value="0.0009542660" flag="0"/>
    </comp>
    <comp name="--.HHN">
      <acc value="0.1951119347" flag="0"/>
      <vel value="0.0316030633" flag="0"/>
      <psa03 value="0.0964396436" flag="0"/>
      <psa10 value="0.0060960509" flag="0"/>
      <psa30 value="0.0006575035" flag="0"/>
    </comp>
    <comp name="--.HHE">
      <acc value="0.2317048849" flag="0"/>
      <vel value="0.0248695562" flag="0"/>
      <psa03 value="0.0692166861" flag="0"/>
      <psa10 value="0.0048579145" flag="0"/>
      <psa30 value="0.0003726546" flag="0"/>
    </comp>
  </station>
  <station code="MDRA" name="MDRA" netid="HA" insttype="60" lat="38.0606" lon="23.4662">
    <comp name="--.HHZ">
      <acc value="0.0442152352" flag="0"/>
      <vel value="0.0182083226" flag="0"/>
      <psa03 value="0.1231721193" flag="0"/>
      <psa10 value="0.0144395787" flag="0"/>
      <psa30 value="0.0010398115" flag="0"/>
    </comp>
    <comp name="--.HHN">
      <acc value="0.0464692491" flag="0"/>
      <vel value="0.0165435060" flag="0"/>
      <psa03 value="0.0795346854" flag="0"/>
      <psa10 value="0.0120961639" flag="0"/>
      <psa30 value="0.0007520452" flag="0"/>
    </comp>
    <comp name="--.HHE">
      <acc value="0.0453646456" flag="0"/>
      <vel value="0.0149929555" flag="0"/>
      <psa03 value="0.0834060060" flag="0"/>
      <psa10 value="0.0078758987" flag="0"/>
      <psa30 value="0.0007019813" flag="0"/>
    </comp>
  </station>
  <station code="MRTH" name="MRTH" netid="HA" insttype="S100," lat="38.1225" lon="23.9409">
    <comp name="--.HHE">
      <acc value="0.0986130859" flag="0"/>
      <vel value="0.0388242421" flag="0"/>
      <psa03 value="0.2158283937" flag="0"/>
      <psa10 value="0.0191552841" flag="0"/>
      <psa30 value="0.0012611075" flag="0"/>
    </comp>
    <comp name="--.HHN">
      <acc value="0.0554309094" flag="0"/>
      <vel value="0.0182348430" flag="0"/>
      <psa03 value="0.1064168177" flag="0"/>
      <psa10 value="0.0164143796" flag="0"/>
      <psa30 value="0.0008822171" flag="0"/>
    </comp>
    <comp name="--.HHZ">
      <acc value="0.0892132724" flag="0"/>
      <vel value="0.0322062632" flag="0"/>
      <psa03 value="0.2089102857" flag="0"/>
      <psa10 value="0.0095713623" flag="0"/>
      <psa30 value="0.0008088978" flag="0"/>
    </comp>
  </station>
  <station code="SERI" name="SERI" netid="HA" insttype="30" lat="37.1609" lon="24.4853">
    <comp name="--.HHN">
      <acc value="0.3773656860" flag="0"/>
      <vel value="0.0352284439" flag="0"/>
      <psa03 value="0.1198095639" flag="0"/>
      <psa10 value="0.0100948171" flag="0"/>
      <psa30 value="0.0014402247" flag="0"/>
    </comp>
    <comp name="--.HHE">
      <acc value="0.4036510194" flag="0"/>
      <vel value="0.0573357019" flag="0"/>
      <psa03 value="0.2023869847" flag="0"/>
      <psa10 value="0.0159151308" flag="0"/>
      <psa30 value="0.0013589552" flag="0"/>
    </comp>
    <comp name="--.HHZ">
      <acc value="0.4428806145" flag="0"/>
      <vel value="0.0400522340" flag="0"/>
      <psa03 value="0.1404891393" flag="0"/>
      <psa10 value="0.0108496754" flag="0"/>
      <psa30 value="0.0012354295" flag="0"/>
    </comp>
  </station>
  <station code="VILL" name="VILL" netid="HA" insttype="Horizon,120s,1200" lat="38.1642" lon="23.3122">
    <comp name="--.HHN">
      <acc value="0.0264141663" flag="0"/>
      <vel value="0.0132339802" flag="0"/>
      <psa03 value="0.0700873860" flag="0"/>
      <psa10 value="0.0253373030" flag="0"/>
      <psa30 value="0.0008191757" flag="0"/>
    </comp>
    <comp name="--.HHE">
      <acc value="0.0618703810" flag="0"/>
      <vel value="0.0302303906" flag="0"/>
      <psa03 value="0.1950775523" flag="0"/>
      <psa10 value="0.0298165854" flag="0"/>
      <psa30 value="0.0016170042" flag="0"/>
    </comp>
    <comp name="--.HHZ">
      <acc value="0.0245768735" flag="0"/>
      <vel value="0.0168338442" flag="0"/>
      <psa03 value="0.0967266764" flag="0"/>
      <psa10 value="0.0209041271" flag="0"/>
      <psa30 value="0.0010654765" flag="0"/>
    </comp>
  </station>
  <station code="THNO" name="THNO" netid="HC" insttype="60" lat="37.6541" lon="25.0221">
    <comp name="--.HHN">
      <acc value="0.3899206494" flag="0"/>
      <vel value="0.0451865347" flag="0"/>
      <psa03 value="0.1764506509" flag="0"/>
      <psa10 value="0.0072660827" flag="0"/>
      <psa30 value="0.0009013589" flag="0"/>
    </comp>
    <comp name="--.HHZ">
      <acc value="0.1903295116" flag="0"/>
      <vel value="0.0486033819" flag="0"/>
      <psa03 value="0.2220707502" flag="0"/>
      <psa10 value="0.0106721703" flag="0"/>
      <psa30 value="0.0010502753" flag="0"/>
    </comp>
    <comp name="--.HHE">
      <acc value="0.0000000000" flag="0"/>
      <vel value="-100.0000000000" flag="0"/>
      <psa03 value="0.0000000000" flag="0"/>
      <psa10 value="0.0000000000" flag="0"/>
      <psa30 value="0.0000000000" flag="0"/>
    </comp>
  </station>
  <station code="APE" name="APE" netid="HL" insttype="120" lat="37.0727" lon="25.523">
    <comp name="--.HHZ">
      <acc value="0.0697942688" flag="0"/>
      <vel value="0.0235961390" flag="0"/>
      <psa03 value="0.1426396964" flag="0"/>
      <psa10 value="0.0109015754" flag="0"/>
      <psa30 value="0.0006364913" flag="0"/>
    </comp>
    <comp name="--.HHN">
      <acc value="0.1939984797" flag="0"/>
      <vel value="0.0465560583" flag="0"/>
      <psa03 value="0.2102683853" flag="0"/>
      <psa10 value="0.0144610026" flag="0"/>
      <psa30 value="0.0007599866" flag="0"/>
    </comp>
    <comp name="--.HHE">
      <acc value="0.2002374725" flag="0"/>
      <vel value="0.0486028625" flag="0"/>
      <psa03 value="0.1594106870" flag="0"/>
      <psa10 value="0.0142068740" flag="0"/>
      <psa30 value="0.0008361005" flag="0"/>
    </comp>
  </station>
  <station code="ATH" name="ATH" netid="HL" insttype="DR24" lat="37.9738" lon="23.7177">
    <comp name="--.HHE">
      <acc value="0.0862504996" flag="0"/>
      <vel value="0.0287605167" flag="0"/>
      <psa03 value="0.2343475857" flag="0"/>
      <psa10 value="0.0209702099" flag="0"/>
      <psa30 value="0.0012301931" flag="0"/>
    </comp>
    <comp name="--.HHZ">
      <acc value="0.0421725053" flag="0"/>
      <vel value="0.0122342657" flag="0"/>
      <psa03 value="0.0645903271" flag="0"/>
      <psa10 value="0.0135961784" flag="0"/>
      <psa30 value="0.0009131499" flag="0"/>
    </comp>
    <comp name="--.HHN">
      <acc value="0.0554828174" flag="0"/>
      <vel value="0.0241064139" flag="0"/>
      <psa03 value="0.1561497839" flag="0"/>
      <psa10 value="0.0121685001" flag="0"/>
      <psa30 value="0.0012239264" flag="0"/>
    </comp>
  </station>
  <station code="LVRA" name="LVRA" netid="HL" insttype="CMG-5" lat="37.712" lon="24.0552">
    <comp name="00.HNZ">
      <acc value="0.0992723363" flag="0"/>
      <vel value="0.0144157518" flag="0"/>
      <psa03 value="0.1274718482" flag="0"/>
      <psa10 value="0.0114261431" flag="0"/>
      <psa30 value="0.0016401031" flag="0"/>
    </comp>
    <comp name="00.HNN">
      <acc value="0.1763374016" flag="0"/>
      <vel value="0.0339631115" flag="0"/>
      <psa03 value="0.2244869278" flag="0"/>
      <psa10 value="0.0135075476" flag="0"/>
      <psa30 value="0.0012544956" flag="0"/>
    </comp>
    <comp name="00.HNE">
      <acc value="0.2546180005" flag="0"/>
      <vel value="0.0366477715" flag="0"/>
      <psa03 value="0.1856332669" flag="0"/>
      <psa10 value="0.0236735413" flag="0"/>
      <psa30 value="0.0012203535" flag="0"/>
    </comp>
  </station>
  <station code="MHLO" name="MHLO" netid="HL" insttype="20" lat="36.6898" lon="24.4017">
    <comp name="--.HHZ">
      <acc value="0.0520528512" flag="0"/>
      <vel value="0.0237632446" flag="0"/>
      <psa03 value="0.0986021180" flag="0"/>
      <psa10 value="0.0144056837" flag="0"/>
      <psa30 value="0.0010974381" flag="0"/>
    </comp>
    <comp name="--.HHE">
      <acc value="0.1246298025" flag="0"/>
      <vel value="0.0472439759" flag="0"/>
      <psa03 value="0.2353939786" flag="0"/>
      <psa10 value="0.0388574006" flag="0"/>
      <psa30 value="0.0016716034" flag="0"/>
    </comp>
    <comp name="--.HHN">
      <acc value="0.1137511570" flag="0"/>
      <vel value="0.0452637965" flag="0"/>
      <psa03 value="0.2882830949" flag="0"/>
      <psa10 value="0.0293681358" flag="0"/>
      <psa30 value="0.0018451714" flag="0"/>
    </comp>
  </station>
  <station code="NOAC" name="NOAC" netid="HL" insttype="CMG-5" lat="37.9738" lon="23.7177">
    <comp name="00.HNN">
      <acc value="0.0597636073" flag="0"/>
      <vel value="0.0232440048" flag="0"/>
      <psa03 value="0.1592219663" flag="0"/>
      <psa10 value="0.0122261301" flag="0"/>
      <psa30 value="0.0012258662" flag="0"/>
    </comp>
    <comp name="00.HNE">
      <acc value="0.0902413138" flag="0"/>
      <vel value="0.0294962568" flag="0"/>
      <psa03 value="0.2429150008" flag="0"/>
      <psa10 value="0.0217131957" flag="0"/>
      <psa30 value="0.0012911383" flag="0"/>
    </comp>
    <comp name="00.HNZ">
      <acc value="0.0426118260" flag="0"/>
      <vel value="0.0123843770" flag="0"/>
      <psa03 value="0.0674468702" flag="0"/>
      <psa10 value="0.0136554578" flag="0"/>
      <psa30 value="0.0008844259" flag="0"/>
    </comp>
  </station>
  <station code="PTL" name="PTL" netid="HL" insttype="120" lat="38.0473" lon="23.8638">
    <comp name="--.HHE">
      <acc value="0.0397241619" flag="0"/>
      <vel value="0.0182654638" flag="0"/>
      <psa03 value="0.0820950202" flag="0"/>
      <psa10 value="0.0062932486" flag="0"/>
      <psa30 value="0.0008198582" flag="0"/>
    </comp>
    <comp name="--.HHZ">
      <acc value="0.0681691947" flag="0"/>
      <vel value="0.0182271039" flag="0"/>
      <psa03 value="0.0558401833" flag="0"/>
      <psa10 value="0.0113611337" flag="0"/>
      <psa30 value="0.0065049536" flag="0"/>
    </comp>
    <comp name="--.HHN">
      <acc value="0.0016127357" flag="0"/>
      <vel value="0.0005583381" flag="0"/>
      <psa03 value="0.0003559774" flag="0"/>
      <psa10 value="0.0002235479" flag="0"/>
      <psa30 value="0.0002473631" flag="0"/>
    </comp>
  </station>
  <station code="TNSA" name="TNSA" netid="HL" insttype="CMG-5" lat="37.5394" lon="25.1631">
    <comp name="00.HNN">
      <acc value="0.6462029726" flag="0"/>
      <vel value="0.1533517279" flag="0"/>
      <psa03 value="0.7559529856" flag="0"/>
      <psa10 value="0.0219155716" flag="0"/>
      <psa30 value="0.0023683127" flag="0"/>
    </comp>
    <comp name="00.HNE">
      <acc value="0.3896923710" flag="0"/>
      <vel value="0.0873885713" flag="0"/>
      <psa03 value="0.2465768294" flag="0"/>
      <psa10 value="0.0115334423" flag="0"/>
      <psa30 value="0.0011370391" flag="0"/>
    </comp>
    <comp name="00.HNZ">
      <acc value="0.3121209334" flag="0"/>
      <vel value="0.0611756826" flag="0"/>
      <psa03 value="0.3355849384" flag="0"/>
      <psa10 value="0.0108623626" flag="0"/>
      <psa30 value="0.0009342506" flag="0"/>
    </comp>
  </station>
  <station code="KRND" name="KRND" netid="HT" insttype="100" lat="37.383" lon="23.1502">
    <comp name="--.HHN">
      <acc value="0.0203201088" flag="0"/>
      <vel value="0.0096208019" flag="0"/>
      <psa03 value="0.0653598954" flag="0"/>
      <psa10 value="0.0070206116" flag="0"/>
      <psa30 value="0.0005643861" flag="0"/>
    </comp>
    <comp name="--.HHE">
      <acc value="0.0321699723" flag="0"/>
      <vel value="0.0195860056" flag="0"/>
      <psa03 value="0.0869810449" flag="0"/>
      <psa10 value="0.0094634247" flag="0"/>
      <psa30 value="0.0008826295" flag="0"/>
    </comp>
    <comp name="--.HHZ">
      <acc value="0.0128991777" flag="0"/>
      <vel value="0.0094497946" flag="0"/>
      <psa03 value="0.0222380149" flag="0"/>
      <psa10 value="0.0095331226" flag="0"/>
      <psa30 value="0.0010315651" flag="0"/>
    </comp>
  </station>
</stationlist>
