<stationlist created="1778069738">
	<station code="ROD3" name="ROD3" netid="CL" source="Corinth Riff Laboratory (CRLNET)" insttype="" lat="38.30811" lon="21.89204">
		<comp name="00.HNE" depth="0.0">
			<acc value="0.0254432286810698" flag="0"/>
			<vel value="0.0147222331107413" flag="0"/>
			<psa03 value="0.140937950847556" flag="0"/>
			<psa10 value="0.0145689573190416" flag="0"/>
			<psa30 value="0.000891264755835973" flag="0"/>
		</comp>
		<comp name="00.HNN" depth="0.0">
			<acc value="0.0315958698247846" flag="0"/>
			<vel value="0.0181673286020601" flag="0"/>
			<psa03 value="0.134450330887907" flag="0"/>
			<psa10 value="0.0135864184617044" flag="0"/>
			<psa30 value="0.00140356302161518" flag="0"/>
		</comp>
		<comp name="00.HNZ" depth="0.0">
			<acc value="0.0162517555052348" flag="0"/>
			<vel value="0.00630642744690238" flag="0"/>
			<psa03 value="0.0243397604003398" flag="0"/>
			<psa10 value="0.0090482164444131" flag="0"/>
			<psa30 value="0.000667106300678432" flag="0"/>
		</comp>
	</station>
	<station code="ARG2" name="ARG2" netid="HI" source="ITSAK Strong Motion Network" insttype="" lat="38.1783" lon="20.4878">
		<comp name="--.HNE" depth="0.0">
			<acc value="3.84221803291426" flag="0"/>
			<vel value="1.34021836222847" flag="0"/>
			<psa03 value="5.5930890227303" flag="0"/>
			<psa10 value="0.478665549064257" flag="0"/>
			<psa30 value="0.0283133157701085" flag="0"/>
		</comp>
		<comp name="--.HNN" depth="0.0">
			<acc value="2.63981728616924" flag="0"/>
			<vel value="0.752564450782237" flag="0"/>
			<psa03 value="4.00299574172354" flag="0"/>
			<psa10 value="0.328949177278196" flag="0"/>
			<psa30 value="0.0255831463222616" flag="0"/>
		</comp>
		<comp name="--.HNZ" depth="0.0">
			<acc value="2.22915133415761" flag="0"/>
			<vel value="0.483410220758219" flag="0"/>
			<psa03 value="1.6129565485887" flag="0"/>
			<psa10 value="0.162139045453624" flag="0"/>
			<psa30 value="0.0116025490202502" flag="0"/>
		</comp>
	</station>
	<station code="ART2" name="ART2" netid="HI" source="ITSAK Strong Motion Network" insttype="" lat="39.1474" lon="20.9937">
		<comp name="--.HNE" depth="0.0">
			<acc value="0.0222197898446941" flag="0"/>
			<vel value="0.0125997168024938" flag="0"/>
			<psa03 value="0.0478294188749325" flag="0"/>
			<psa10 value="0.0108200078264967" flag="0"/>
			<psa30 value="0.00178789857646614" flag="0"/>
		</comp>
		<comp name="--.HNN" depth="0.0">
			<acc value="0.0184286523835802" flag="0"/>
			<vel value="0.00941469090040037" flag="0"/>
			<psa03 value="0.0402232437498263" flag="0"/>
			<psa10 value="0.0170373848581717" flag="0"/>
			<psa30 value="0.000818782381114373" flag="0"/>
		</comp>
		<comp name="--.HNZ" depth="0.0">
			<acc value="0.0144442457191493" flag="0"/>
			<vel value="0.00970243027628101" flag="0"/>
			<psa03 value="0.0339593348232683" flag="0"/>
			<psa10 value="0.00659992289826127" flag="0"/>
			<psa30 value="0.0013409239323496" flag="0"/>
		</comp>
	</station>
	<station code="KLV1" name="KLV1" netid="HI" source="ITSAK Strong Motion Network" insttype="" lat="38.03256" lon="22.10797">
		<comp name="--.HNE" depth="0.0">
			<acc value="0.013742869921849" flag="0"/>
			<vel value="0.00977221990695713" flag="0"/>
			<psa03 value="0.0358385075012357" flag="0"/>
			<psa10 value="0.0147179488670805" flag="0"/>
			<psa30 value="0.00114316337909684" flag="0"/>
		</comp>
		<comp name="--.HNN" depth="0.0">
			<acc value="0.0111577346770589" flag="0"/>
			<vel value="0.00882761846986452" flag="0"/>
			<psa03 value="0.0324828420048653" flag="0"/>
			<psa10 value="0.0120522081967639" flag="0"/>
			<psa30 value="0.00110960672413314" flag="0"/>
		</comp>
		<comp name="--.HNZ" depth="0.0">
			<acc value="0.00744291968717252" flag="0"/>
			<vel value="0.00478435746109199" flag="0"/>
			<psa03 value="0.0154360612833038" flag="0"/>
			<psa10 value="0.0128978359018492" flag="0"/>
			<psa30 value="0.000727955701679281" flag="0"/>
		</comp>
	</station>
	<station code="KRK1" name="KRK1" netid="HI" source="ITSAK Strong Motion Network" insttype="" lat="39.618861" lon="19.9202">
		<comp name="--.HNE" depth="0.0">
			<acc value="0.0634575439605581" flag="0"/>
			<vel value="0.0241462140659249" flag="0"/>
			<psa03 value="0.0960615176094295" flag="0"/>
			<psa10 value="0.0210198886692641" flag="0"/>
			<psa30 value="0.0012143034876199" flag="0"/>
		</comp>
		<comp name="--.HNN" depth="0.0">
			<acc value="0.0631204928557721" flag="0"/>
			<vel value="0.025813908101901" flag="0"/>
			<psa03 value="0.0791042213011045" flag="0"/>
			<psa10 value="0.0109770529717268" flag="0"/>
			<psa30 value="0.000810728783923084" flag="0"/>
		</comp>
		<comp name="--.HNZ" depth="0.0">
			<acc value="0.0260739802980041" flag="0"/>
			<vel value="0.0119596029764447" flag="0"/>
			<psa03 value="0.0479636454947873" flag="0"/>
			<psa10 value="0.00630999339937487" flag="0"/>
			<psa30 value="0.000587912594964091" flag="0"/>
		</comp>
	</station>
	<station code="MSL1" name="MSL1" netid="HI" source="ITSAK Strong Motion Network" insttype="" lat="38.3727" lon="21.4243">
		<comp name="--.HNE" depth="0.0">
			<acc value="0.0598042050066739" flag="0"/>
			<vel value="0.0503083477969454" flag="0"/>
			<psa03 value="0.282502292587768" flag="0"/>
			<psa10 value="0.102514238647917" flag="0"/>
			<psa30 value="0.00467511316954321" flag="0"/>
		</comp>
		<comp name="--.HNN" depth="0.0">
			<acc value="0.0787534303933361" flag="0"/>
			<vel value="0.05170620821016" flag="0"/>
			<psa03 value="0.184785313333462" flag="0"/>
			<psa10 value="0.0814540819926961" flag="0"/>
			<psa30 value="0.0068916420854124" flag="0"/>
		</comp>
		<comp name="--.HNZ" depth="0.0">
			<acc value="0.040586774597173" flag="0"/>
			<vel value="0.0202514541323414" flag="0"/>
			<psa03 value="0.0774487596562284" flag="0"/>
			<psa10 value="0.048474601494368" flag="0"/>
			<psa30 value="0.0020970672241984" flag="0"/>
		</comp>
	</station>
	<station code="VAS2" name="VAS2" netid="HI" source="ITSAK Strong Motion Network" insttype="" lat="38.630558" lon="20.608081">
		<comp name="--.HNE" depth="0.0">
			<acc value="0.336696999562758" flag="0"/>
			<vel value="0.216567871934197" flag="0"/>
			<psa03 value="0.851981098425131" flag="0"/>
			<psa10 value="0.20950627733419" flag="0"/>
			<psa30 value="0.00834307926810913" flag="0"/>
		</comp>
		<comp name="--.HNN" depth="0.0">
			<acc value="0.317735780836223" flag="0"/>
			<vel value="0.166464219447602" flag="0"/>
			<psa03 value="0.827596595818173" flag="0"/>
			<psa10 value="0.177469067707243" flag="0"/>
			<psa30 value="0.00887282699446947" flag="0"/>
		</comp>
		<comp name="--.HNZ" depth="0.0">
			<acc value="0.166697397793042" flag="0"/>
			<vel value="0.0742601783226483" flag="0"/>
			<psa03 value="0.383440710718589" flag="0"/>
			<psa10 value="0.068725371631864" flag="0"/>
			<psa30 value="0.0041552087286389" flag="0"/>
		</comp>
	</station>
	<station code="JAN" name="JAN" netid="HL" source="National Observatory of Athens Seismic Network" insttype="" lat="39.65616" lon="20.84874">
		<comp name="00.HNE" depth="0.0">
			<acc value="0.016230529471567" flag="0"/>
			<vel value="0.00818266198307559" flag="0"/>
			<psa03 value="0.040178501543208" flag="0"/>
			<psa10 value="0.0113112772551653" flag="0"/>
			<psa30 value="0.000810281361856901" flag="0"/>
		</comp>
		<comp name="00.HNN" depth="0.0">
			<acc value="0.0113256949432871" flag="0"/>
			<vel value="0.00684553218891874" flag="0"/>
			<psa03 value="0.027158519417291" flag="0"/>
			<psa10 value="0.00672878045332189" flag="0"/>
			<psa30 value="0.000700215533575953" flag="0"/>
		</comp>
		<comp name="00.HNZ" depth="0.0">
			<acc value="0.00933182431017841" flag="0"/>
			<vel value="0.00580120763638633" flag="0"/>
			<psa03 value="0.0176284294075991" flag="0"/>
			<psa10 value="0.0113958400256738" flag="0"/>
			<psa30 value="0.00105591607619121" flag="0"/>
		</comp>
	</station>
	<station code="PATC" name="PATC" netid="HL" source="National Observatory of Athens Seismic Network" insttype="" lat="38.26933" lon="21.76001">
		<comp name="00.HNE" depth="0.0">
			<acc value="0.0262748841014434" flag="0"/>
			<vel value="0.0260527881818616" flag="0"/>
			<psa03 value="0.076553915523863" flag="0"/>
			<psa10 value="0.0477256169555781" flag="0"/>
			<psa30 value="0.00510463835307862" flag="0"/>
		</comp>
		<comp name="00.HNN" depth="0.0">
			<acc value="0.0241646260379647" flag="0"/>
			<vel value="0.0275467815711439" flag="0"/>
			<psa03 value="0.0774040174496101" flag="0"/>
			<psa10 value="0.044306864947876" flag="0"/>
			<psa30 value="0.00374492269394935" flag="0"/>
		</comp>
		<comp name="00.HNZ" depth="0.0">
			<acc value="0.0160095328219694" flag="0"/>
			<vel value="0.0123056125420708" flag="0"/>
			<psa03 value="0.0379861334189127" flag="0"/>
			<psa10 value="0.0184346839708603" flag="0"/>
			<psa30 value="0.00228811644645842" flag="0"/>
		</comp>
	</station>
	<station code="PATG" name="PATG" netid="HL" source="National Observatory of Athens Seismic Network" insttype="" lat="38.23865" lon="21.72657">
		<comp name="00.HNE" depth="0.0">
			<acc value="0.0291587476621336" flag="0"/>
			<vel value="0.0351861618782732" flag="0"/>
			<psa03 value="0.0677844430266817" flag="0"/>
			<psa10 value="0.0512208781365975" flag="0"/>
			<psa30 value="0.00417131592302147" flag="0"/>
		</comp>
		<comp name="00.HNN" depth="0.0">
			<acc value="0.0387310344887241" flag="0"/>
			<vel value="0.0358975647255784" flag="0"/>
			<psa03 value="0.104473052453665" flag="0"/>
			<psa10 value="0.0476007861991131" flag="0"/>
			<psa30 value="0.00499054572620203" flag="0"/>
		</comp>
		<comp name="00.HNZ" depth="0.0">
			<acc value="0.0159672803074225" flag="0"/>
			<vel value="0.0186255910903837" flag="0"/>
			<psa03 value="0.04478694882489" flag="0"/>
			<psa10 value="0.0320533168213299" flag="0"/>
			<psa30 value="0.0026303943270882" flag="0"/>
		</comp>
	</station>
	<station code="RIOA" name="RIOA" netid="HL" source="National Observatory of Athens Seismic Network" insttype="" lat="38.29585" lon="21.79118">
		<comp name="00.HNE" depth="0.0">
			<acc value="0.0202841603265981" flag="0"/>
			<vel value="0.0145666959675757" flag="0"/>
			<psa03 value="0.0425498384939764" flag="0"/>
			<psa10 value="0.0204641904630651" flag="0"/>
			<psa30 value="0.00441516094909106" flag="0"/>
		</comp>
		<comp name="00.HNN" depth="0.0">
			<acc value="0.0161109797356974" flag="0"/>
			<vel value="0.0152920704959359" flag="0"/>
			<psa03 value="0.0397310794770253" flag="0"/>
			<psa10 value="0.0235366377915419" flag="0"/>
			<psa30 value="0.00271540451966291" flag="0"/>
		</comp>
		<comp name="00.HNZ" depth="0.0">
			<acc value="0.0152561025566531" flag="0"/>
			<vel value="0.00883802618738927" flag="0"/>
			<psa03 value="0.0287692388555487" flag="0"/>
			<psa10 value="0.0119636186276597" flag="0"/>
			<psa30 value="0.00151049689543285" flag="0"/>
		</comp>
	</station>
	<station code="PDO" name="PDO" netid="HP" source="University of Patras, Seismological Laboratory (PSLNET)" insttype="" lat="38.5986" lon="21.1833">
		<comp name="--.HNE" depth="0.0">
			<acc value="0.0855948632601893" flag="0"/>
			<vel value="0.0407351026576298" flag="0"/>
			<psa03 value="0.246104074020277" flag="0"/>
			<psa10 value="0.0267586263776893" flag="0"/>
			<psa30 value="0.00332387352364139" flag="0"/>
		</comp>
		<comp name="--.HNN" depth="0.0">
			<acc value="0.11827919664543" flag="0"/>
			<vel value="0.0635603961406839" flag="0"/>
			<psa03 value="0.389973667175006" flag="0"/>
			<psa10 value="0.0317588551183024" flag="0"/>
			<psa30 value="0.00209326116828126" flag="0"/>
		</comp>
		<comp name="--.HNZ" depth="0.0">
			<acc value="0.0525868995043533" flag="0"/>
			<vel value="0.0218950411141506" flag="0"/>
			<psa03 value="0.139727683356635" flag="0"/>
			<psa10 value="0.0151001990640872" flag="0"/>
			<psa30 value="0.00269645883549612" flag="0"/>
		</comp>
	</station>
	<station code="PVO" name="PVO" netid="HP" source="University of Patras, Seismological Laboratory (PSLNET)" insttype="" lat="38.616" lon="21.525">
		<comp name="--.HNE" depth="0.0">
			<acc value="0.0443932002597057" flag="0"/>
			<vel value="0.0265260249134881" flag="0"/>
			<psa03 value="0.138835067136497" flag="0"/>
			<psa10 value="0.031123126345736" flag="0"/>
			<psa30 value="0.00395252653265813" flag="0"/>
		</comp>
		<comp name="--.HNN" depth="0.0">
			<acc value="0.0449878152514675" flag="0"/>
			<vel value="0.0271472044619326" flag="0"/>
			<psa03 value="0.15351051090729" flag="0"/>
			<psa10 value="0.0355646851967318" flag="0"/>
			<psa30 value="0.00169975642942814" flag="0"/>
		</comp>
		<comp name="--.HNZ" depth="0.0">
			<acc value="0.0347755947869305" flag="0"/>
			<vel value="0.0160081164519739" flag="0"/>
			<psa03 value="0.0550329141404743" flag="0"/>
			<psa10 value="0.0190991057391417" flag="0"/>
			<psa30 value="0.00225948143422272" flag="0"/>
		</comp>
	</station>
	<station code="SERG" name="SERG" netid="HP" source="University of Patras, Seismological Laboratory (PSLNET)" insttype="" lat="38.4133" lon="22.0566">
		<comp name="--.HNE" depth="0.0">
			<acc value="0.0100340384861194" flag="0"/>
			<vel value="0.0089016510466059" flag="0"/>
			<psa03 value="0.0202234773914588" flag="0"/>
			<psa10 value="0.00688179879995638" flag="0"/>
			<psa30 value="0.000639366132575103" flag="0"/>
		</comp>
		<comp name="--.HNN" depth="0.0">
			<acc value="0.014686577628233" flag="0"/>
			<vel value="0.00913970122532818" flag="0"/>
			<psa03 value="0.0529747726360338" flag="0"/>
			<psa10 value="0.00825493712107114" flag="0"/>
			<psa30 value="0.000718559838289444" flag="0"/>
		</comp>
		<comp name="--.HNZ" depth="0.0">
			<acc value="0.00731532018161169" flag="0"/>
			<vel value="0.00495673043155537" flag="0"/>
			<psa03 value="0.0151228658369759" flag="0"/>
			<psa10 value="0.00609254627521006" flag="0"/>
			<psa30 value="0.000863077165666462" flag="0"/>
		</comp>
	</station>
	<station code="UPR" name="UPR" netid="HP" source="University of Patras, Seismological Laboratory (PSLNET)" insttype="" lat="38.2836" lon="21.7864">
		<comp name="--.HNE" depth="2.0">
			<acc value="0.0185473922083258" flag="0"/>
			<vel value="0.0219323340262104" flag="0"/>
			<psa03 value="0.0374096292460197" flag="0"/>
			<psa10 value="0.0429709841168802" flag="0"/>
			<psa30 value="0.00418966879499506" flag="0"/>
		</comp>
		<comp name="--.HNN" depth="2.0">
			<acc value="0.0169616260426479" flag="0"/>
			<vel value="0.0203314016762781" flag="0"/>
			<psa03 value="0.0439758767276622" flag="0"/>
			<psa10 value="0.031197532933455" flag="0"/>
			<psa30 value="0.00267790156450097" flag="0"/>
		</comp>
		<comp name="--.HNZ" depth="2.0">
			<acc value="0.0201459824326667" flag="0"/>
			<vel value="0.0222651702424887" flag="0"/>
			<psa03 value="0.0350719587618181" flag="0"/>
			<psa10 value="0.0351470245678941" flag="0"/>
			<psa30 value="0.00172619601868038" flag="0"/>
		</comp>
	</station>
</stationlist>
