<?xml version="1.0" encoding="UTF-8" standalone="yes"?>
<!DOCTYPE earthquake SYSTEM "stationlist.dtd">
<stationlist created="" xmlns="ch.ethz.sed.shakemap.usgs.xml">
  <station code="AGRP" name="AGRP" netid="CL" insttype="CMG40-T" lat="38.3959" lon="21.7228">
    <comp name="00.HHE">
      <acc value="0.0130273955" flag="0"/>
      <vel value="0.0088525162" flag="0"/>
      <psa03 value="0.0384854747" flag="0"/>
      <psa10 value="0.0130629118" flag="0"/>
      <psa30 value="0.0009044529" flag="0"/>
    </comp>
    <comp name="00.HHN">
      <acc value="0.0116536439" flag="0"/>
      <vel value="0.0103518619" flag="0"/>
      <psa03 value="0.0296664466" flag="0"/>
      <psa10 value="0.0186043836" flag="0"/>
      <psa30 value="0.0011974691" flag="0"/>
    </comp>
    <comp name="00.HHZ">
      <acc value="0.0085320771" flag="0"/>
      <vel value="0.0058300930" flag="0"/>
      <psa03 value="0.0201608156" flag="0"/>
      <psa10 value="0.0067345560" flag="0"/>
      <psa30 value="0.0008205906" flag="0"/>
    </comp>
  </station>
  <station code="MG00" name="MG00" netid="CL" insttype="TRILLIUM-40" lat="38.4145" lon="21.9467">
    <comp name="00.HHE">
      <acc value="0.0191318833" flag="0"/>
      <vel value="0.0106079842" flag="0"/>
      <psa03 value="0.0763380260" flag="0"/>
      <psa10 value="0.0143579882" flag="0"/>
      <psa30 value="0.0007528078" flag="0"/>
    </comp>
    <comp name="00.HHN">
      <acc value="0.0224922430" flag="0"/>
      <vel value="0.0139821152" flag="0"/>
      <psa03 value="0.0554954860" flag="0"/>
      <psa10 value="0.0220554088" flag="0"/>
      <psa30 value="0.0011274403" flag="0"/>
    </comp>
    <comp name="00.HHZ">
      <acc value="0.0148836792" flag="0"/>
      <vel value="0.0053626439" flag="0"/>
      <psa03 value="0.0313655505" flag="0"/>
      <psa10 value="0.0050541294" flag="0"/>
      <psa30 value="0.0006220072" flag="0"/>
    </comp>
  </station>
  <station code="MG02" name="MG02" netid="CL" insttype="TRILLIUM-40" lat="38.415" lon="21.947">
    <comp name="02.HHE">
      <acc value="0.0199661450" flag="0"/>
      <vel value="0.0159973238" flag="0"/>
      <psa03 value="0.0503712061" flag="0"/>
      <psa10 value="0.0184539431" flag="0"/>
      <psa30 value="0.0009955219" flag="0"/>
    </comp>
    <comp name="02.HHN">
      <acc value="0.0133103300" flag="0"/>
      <vel value="0.0092574809" flag="0"/>
      <psa03 value="0.0371561596" flag="0"/>
      <psa10 value="0.0150581429" flag="0"/>
      <psa30 value="0.0006612096" flag="0"/>
    </comp>
    <comp name="02.HHZ">
      <acc value="0.0121946791" flag="0"/>
      <vel value="0.0079069501" flag="0"/>
      <psa03 value="0.0455681939" flag="0"/>
      <psa10 value="0.0082939226" flag="0"/>
      <psa30 value="0.0004719903" flag="0"/>
    </comp>
  </station>
  <station code="MG03" name="MG03" netid="CL" insttype="TRILLIUM-40" lat="38.4141" lon="21.946">
    <comp name="03.HHE">
      <acc value="0.0113158029" flag="0"/>
      <vel value="0.0080171240" flag="0"/>
      <psa03 value="0.0491202986" flag="0"/>
      <psa10 value="0.0110778236" flag="0"/>
      <psa30 value="0.0008257019" flag="0"/>
    </comp>
    <comp name="03.HHN">
      <acc value="0.0089937944" flag="0"/>
      <vel value="0.0043109996" flag="0"/>
      <psa03 value="0.0317384186" flag="0"/>
      <psa10 value="0.0074757324" flag="0"/>
      <psa30 value="0.0003929999" flag="0"/>
    </comp>
    <comp name="03.HHZ">
      <acc value="0.0094928923" flag="0"/>
      <vel value="0.0039874254" flag="0"/>
      <psa03 value="0.0131482859" flag="0"/>
      <psa10 value="0.0046220033" flag="0"/>
      <psa30 value="0.0005630650" flag="0"/>
    </comp>
  </station>
  <station code="MG04" name="MG04" netid="CL" insttype="TRILLIUM-40" lat="38.4142" lon="21.9481">
    <comp name="04.HHE">
      <acc value="0.0143031448" flag="0"/>
      <vel value="0.0104504288" flag="0"/>
      <psa03 value="0.0539630083" flag="0"/>
      <psa10 value="0.0165110741" flag="0"/>
      <psa30 value="0.0009630139" flag="0"/>
    </comp>
    <comp name="04.HHN">
      <acc value="0.0177504434" flag="0"/>
      <vel value="0.0115415110" flag="0"/>
      <psa03 value="0.0538660837" flag="0"/>
      <psa10 value="0.0185812755" flag="0"/>
      <psa30 value="0.0008536742" flag="0"/>
    </comp>
    <comp name="04.HHZ">
      <acc value="0.0105754206" flag="0"/>
      <vel value="0.0067809386" flag="0"/>
      <psa03 value="0.0250800880" flag="0"/>
      <psa10 value="0.0056992599" flag="0"/>
      <psa30 value="0.0006291507" flag="0"/>
    </comp>
  </station>
  <station code="MG05" name="MG05" netid="CL" insttype="CMG40-T" lat="38.4155" lon="21.9458">
    <comp name="05.HHE">
      <acc value="0.0278232035" flag="0"/>
      <vel value="0.0194179768" flag="0"/>
      <psa03 value="0.0861286305" flag="0"/>
      <psa10 value="0.0286026376" flag="0"/>
      <psa30 value="0.0017668714" flag="0"/>
    </comp>
    <comp name="05.HHN">
      <acc value="0.0442553960" flag="0"/>
      <vel value="0.0329596586" flag="0"/>
      <psa03 value="0.0838533898" flag="0"/>
      <psa10 value="0.0529728897" flag="0"/>
      <psa30 value="0.0025586616" flag="0"/>
    </comp>
    <comp name="05.HHZ">
      <acc value="0.0200690852" flag="0"/>
      <vel value="0.0131550595" flag="0"/>
      <psa03 value="0.0772473542" flag="0"/>
      <psa10 value="0.0125552726" flag="0"/>
      <psa30 value="0.0012526727" flag="0"/>
    </comp>
  </station>
  <station code="MG06" name="MG06" netid="CL" insttype="TRILLIUM-40" lat="38.4129" lon="21.9462">
    <comp name="06.HHE">
      <acc value="0.0096626668" flag="0"/>
      <vel value="0.0063767899" flag="0"/>
      <psa03 value="0.0271518088" flag="0"/>
      <psa10 value="0.0112444779" flag="0"/>
      <psa30 value="0.0007413225" flag="0"/>
    </comp>
    <comp name="06.HHN">
      <acc value="0.0090815239" flag="0"/>
      <vel value="0.0070971425" flag="0"/>
      <psa03 value="0.0235114159" flag="0"/>
      <psa10 value="0.0097665069" flag="0"/>
      <psa30 value="0.0007091812" flag="0"/>
    </comp>
    <comp name="06.HHZ">
      <acc value="0.0069698850" flag="0"/>
      <vel value="0.0038996286" flag="0"/>
      <psa03 value="0.0111225372" flag="0"/>
      <psa10 value="0.0044763261" flag="0"/>
      <psa30 value="0.0005596097" flag="0"/>
    </comp>
  </station>
  <station code="MG07" name="MG07" netid="CL" insttype="TRILLIUM-40" lat="38.4155" lon="21.9488">
    <comp name="07.HHE">
      <acc value="0.0196011749" flag="0"/>
      <vel value="0.0181148985" flag="0"/>
      <psa03 value="0.0479496018" flag="0"/>
      <psa10 value="0.0221130905" flag="0"/>
      <psa30 value="0.0010008964" flag="0"/>
    </comp>
    <comp name="07.HHN">
      <acc value="0.0162410819" flag="0"/>
      <vel value="0.0157106905" flag="0"/>
      <psa03 value="0.0547895429" flag="0"/>
      <psa10 value="0.0282046156" flag="0"/>
      <psa30 value="0.0012609314" flag="0"/>
    </comp>
    <comp name="07.HHZ">
      <acc value="0.0117107709" flag="0"/>
      <vel value="0.0097145398" flag="0"/>
      <psa03 value="0.0302786497" flag="0"/>
      <psa10 value="0.0084073757" flag="0"/>
      <psa30 value="0.0008712459" flag="0"/>
    </comp>
  </station>
  <station code="ARG2" name="ARG2" netid="HI" insttype="CMG-5TD,ACCELEROMETER,GURALP" lat="38.1783" lon="20.4878">
    <comp name="--.HNE">
      <acc value="3.9088614756" flag="0"/>
      <vel value="1.3250260899" flag="0"/>
      <psa03 value="5.5718291626" flag="0"/>
      <psa10 value="0.4775787618" flag="0"/>
      <psa30 value="0.0279526885" flag="0"/>
    </comp>
    <comp name="--.HNZ">
      <acc value="2.1753853586" flag="0"/>
      <vel value="0.4719566210" flag="0"/>
      <psa03 value="1.5790583059" flag="0"/>
      <psa10 value="0.1618540394" flag="0"/>
      <psa30 value="0.0111158593" flag="0"/>
    </comp>
    <comp name="--.HNN">
      <acc value="2.5923039139" flag="0"/>
      <vel value="0.7410425148" flag="0"/>
      <psa03 value="3.9346963962" flag="0"/>
      <psa10 value="0.3277724502" flag="0"/>
      <psa30 value="0.0258893062" flag="0"/>
    </comp>
  </station>
  <station code="MSL1" name="MSL1" netid="HI" insttype="CMG-5TD,ACCELEROMETER,GURALP" lat="38.3727" lon="21.4243">
    <comp name="--.HNZ">
      <acc value="0.0404403744" flag="0"/>
      <vel value="0.0201836294" flag="0"/>
      <psa03 value="0.0761632699" flag="0"/>
      <psa10 value="0.0484467864" flag="0"/>
      <psa30 value="0.0019133063" flag="0"/>
    </comp>
    <comp name="--.HNE">
      <acc value="0.0596842051" flag="0"/>
      <vel value="0.0505637620" flag="0"/>
      <psa03 value="0.2848702094" flag="0"/>
      <psa10 value="0.1022418029" flag="0"/>
      <psa30 value="0.0044861130" flag="0"/>
    </comp>
    <comp name="--.HNN">
      <acc value="0.0788423880" flag="0"/>
      <vel value="0.0518373782" flag="0"/>
      <psa03 value="0.1840142559" flag="0"/>
      <psa10 value="0.0812789395" flag="0"/>
      <psa30 value="0.0065656245" flag="0"/>
    </comp>
  </station>
  <station code="ORTH" name="ORTH" netid="HL" insttype="30" lat="37.8511" lon="20.6963">
    <comp name="--.HHN">
      <acc value="0.1694802925" flag="0"/>
      <vel value="0.0845928584" flag="0"/>
      <psa03 value="0.4199841493" flag="0"/>
      <psa10 value="0.0733165201" flag="0"/>
      <psa30 value="0.0049696712" flag="0"/>
    </comp>
    <comp name="--.HHE">
      <acc value="0.1961106847" flag="0"/>
      <vel value="0.0617525259" flag="0"/>
      <psa03 value="0.5988367736" flag="0"/>
      <psa10 value="0.0554216469" flag="0"/>
      <psa30 value="0.0033233535" flag="0"/>
    </comp>
    <comp name="--.HHZ">
      <acc value="0.0646884964" flag="0"/>
      <vel value="0.0295246776" flag="0"/>
      <psa03 value="0.1633445538" flag="0"/>
      <psa10 value="0.0262888952" flag="0"/>
      <psa30 value="0.0015894970" flag="0"/>
    </comp>
  </station>
  <station code="RLS" name="RLS" netid="HL" insttype="CMG3ESPC-120s" lat="38.0559" lon="21.4647">
    <comp name="--.HHE">
      <acc value="0.0115153307" flag="0"/>
      <vel value="0.0084245288" flag="0"/>
      <psa03 value="0.0324982444" flag="0"/>
      <psa10 value="0.0086907398" flag="0"/>
      <psa30 value="0.0010177358" flag="0"/>
    </comp>
    <comp name="--.HHZ">
      <acc value="0.0075715022" flag="0"/>
      <vel value="0.0040076877" flag="0"/>
      <psa03 value="0.0179425313" flag="0"/>
      <psa10 value="0.0052505149" flag="0"/>
      <psa30 value="0.0007049150" flag="0"/>
    </comp>
    <comp name="--.HHN">
      <acc value="0.0136755014" flag="0"/>
      <vel value="0.0102818482" flag="0"/>
      <psa03 value="0.0372644232" flag="0"/>
      <psa10 value="0.0120320689" flag="0"/>
      <psa30 value="0.0007020079" flag="0"/>
    </comp>
  </station>
  <station code="VLS" name="VLS" netid="HL" insttype="120P," lat="38.1768" lon="20.5886">
    <comp name="--.HHE">
      <acc value="3.0541489259" flag="0"/>
      <vel value="0.4272322143" flag="0"/>
      <psa03 value="0.8489821370" flag="0"/>
      <psa10 value="0.1168095223" flag="0"/>
      <psa30 value="0.0086398056" flag="0"/>
    </comp>
    <comp name="--.HHN">
      <acc value="1.3613971713" flag="0"/>
      <vel value="0.3501549603" flag="0"/>
      <psa03 value="1.2727858960" flag="0"/>
      <psa10 value="0.2196468237" flag="0"/>
      <psa30 value="0.0154918231" flag="0"/>
    </comp>
    <comp name="--.HHZ">
      <acc value="2.1814912382" flag="0"/>
      <vel value="0.3796151425" flag="0"/>
      <psa03 value="0.5860750965" flag="0"/>
      <psa10 value="0.1063415769" flag="0"/>
      <psa30 value="0.0048400981" flag="0"/>
    </comp>
  </station>
  <station code="AMPL" name="AMPL" netid="HP" insttype="Compact," lat="38.9224" lon="21.2135">
    <comp name="--.HHN">
      <acc value="0.0330056948" flag="0"/>
      <vel value="0.0157689030" flag="0"/>
      <psa03 value="0.0979619716" flag="0"/>
      <psa10 value="0.0181515935" flag="0"/>
      <psa30 value="0.0007832660" flag="0"/>
    </comp>
    <comp name="--.HHE">
      <acc value="0.0431298181" flag="0"/>
      <vel value="0.0143328499" flag="0"/>
      <psa03 value="0.1002500020" flag="0"/>
      <psa10 value="0.0211576455" flag="0"/>
      <psa30 value="0.0009064038" flag="0"/>
    </comp>
    <comp name="--.HHZ">
      <acc value="0.0185458737" flag="0"/>
      <vel value="0.0108925333" flag="0"/>
      <psa03 value="0.0656735248" flag="0"/>
      <psa10 value="0.0124345389" flag="0"/>
      <psa30 value="0.0010539688" flag="0"/>
    </comp>
  </station>
  <station code="AMT" name="AMT" netid="HP" insttype="CMG-3T," lat="37.5324" lon="21.7089">
    <comp name="00.HHZ">
      <acc value="0.0073862908" flag="0"/>
      <vel value="0.0056011248" flag="0"/>
      <psa03 value="0.0295967680" flag="0"/>
      <psa10 value="0.0080218215" flag="0"/>
      <psa30 value="0.0004981960" flag="0"/>
    </comp>
    <comp name="00.HHN">
      <acc value="0.0146628518" flag="0"/>
      <vel value="0.0122247709" flag="0"/>
      <psa03 value="0.0375340806" flag="0"/>
      <psa10 value="0.0143664077" flag="0"/>
      <psa30 value="0.0011159767" flag="0"/>
    </comp>
    <comp name="00.HHE">
      <acc value="0.0001851772" flag="0"/>
      <vel value="0.0000186203" flag="0"/>
      <psa03 value="0.0000494248" flag="0"/>
      <psa10 value="0.0000329821" flag="0"/>
      <psa30 value="0.0000111685" flag="0"/>
    </comp>
  </station>
  <station code="AXS" name="AXS" netid="HP" insttype="40," lat="38.1962" lon="21.3763">
    <comp name="--.HHN">
      <acc value="0.0120092869" flag="0"/>
      <vel value="0.0080242051" flag="0"/>
      <psa03 value="0.0322761044" flag="0"/>
      <psa10 value="0.0104929779" flag="0"/>
      <psa30 value="0.0011816632" flag="0"/>
    </comp>
    <comp name="--.HHZ">
      <acc value="0.0081156871" flag="0"/>
      <vel value="0.0045123585" flag="0"/>
      <psa03 value="0.0182704476" flag="0"/>
      <psa10 value="0.0055279746" flag="0"/>
      <psa30 value="0.0004723982" flag="0"/>
    </comp>
    <comp name="--.HHE">
      <acc value="0.0109106953" flag="0"/>
      <vel value="0.0055254228" flag="0"/>
      <psa03 value="0.0216985326" flag="0"/>
      <psa10 value="0.0082242571" flag="0"/>
      <psa30 value="0.0008495449" flag="0"/>
    </comp>
  </station>
  <station code="DRO" name="DRO" netid="HP" insttype="120P," lat="37.952" lon="21.71">
    <comp name="--.HHN">
      <acc value="0.0185467609" flag="0"/>
      <vel value="0.0146735967" flag="0"/>
      <psa03 value="0.0615915363" flag="0"/>
      <psa10 value="0.0358448454" flag="0"/>
      <psa30 value="0.0012347625" flag="0"/>
    </comp>
    <comp name="--.HHZ">
      <acc value="0.0093284031" flag="0"/>
      <vel value="0.0103776431" flag="0"/>
      <psa03 value="0.0290375220" flag="0"/>
      <psa10 value="0.0124679275" flag="0"/>
      <psa30 value="0.0011725475" flag="0"/>
    </comp>
    <comp name="--.HHE">
      <acc value="0.0309487289" flag="0"/>
      <vel value="0.0260303581" flag="0"/>
      <psa03 value="0.0859311749" flag="0"/>
      <psa10 value="0.0460886315" flag="0"/>
      <psa30 value="0.0021538948" flag="0"/>
    </comp>
  </station>
  <station code="EFP" name="EFP" netid="HP" insttype="40," lat="38.4269" lon="21.9058">
    <comp name="--.HHE">
      <acc value="0.0111782663" flag="0"/>
      <vel value="0.0095531294" flag="0"/>
      <psa03 value="0.0325814441" flag="0"/>
      <psa10 value="0.0154887023" flag="0"/>
      <psa30 value="0.0006272433" flag="0"/>
    </comp>
    <comp name="--.HHN">
      <acc value="0.0132124937" flag="0"/>
      <vel value="0.0085272551" flag="0"/>
      <psa03 value="0.0308518895" flag="0"/>
      <psa10 value="0.0127692193" flag="0"/>
      <psa30 value="0.0011795590" flag="0"/>
    </comp>
    <comp name="--.HHZ">
      <acc value="0.0060682902" flag="0"/>
      <vel value="0.0051617134" flag="0"/>
      <psa03 value="0.0241884835" flag="0"/>
      <psa10 value="0.0094463228" flag="0"/>
      <psa30 value="0.0006644840" flag="0"/>
    </comp>
  </station>
  <station code="FSK" name="FSK" netid="HP" insttype="40," lat="38.4593" lon="20.5623">
    <comp name="--.HHZ">
      <acc value="0.3990009319" flag="0"/>
      <vel value="0.0925317985" flag="0"/>
      <psa03 value="0.3993670282" flag="0"/>
      <psa10 value="0.0313434159" flag="0"/>
      <psa30 value="0.0040078932" flag="0"/>
    </comp>
    <comp name="--.HHN">
      <acc value="0.2178524595" flag="0"/>
      <vel value="0.0804722517" flag="0"/>
      <psa03 value="0.4088768531" flag="0"/>
      <psa10 value="0.0459867252" flag="0"/>
      <psa30 value="0.0046235484" flag="0"/>
    </comp>
    <comp name="--.HHE">
      <acc value="0.7652867161" flag="0"/>
      <vel value="0.1861773168" flag="0"/>
      <psa03 value="0.6826123235" flag="0"/>
      <psa10 value="0.0423789153" flag="0"/>
      <psa30 value="0.0038416116" flag="0"/>
    </comp>
  </station>
  <station code="LTHK" name="LTHK" netid="HP" insttype="40," lat="37.7095" lon="20.8367">
    <comp name="--.HHE">
      <acc value="0.0692692474" flag="0"/>
      <vel value="0.0302439684" flag="0"/>
      <psa03 value="0.1207339240" flag="0"/>
      <psa10 value="0.0311063085" flag="0"/>
      <psa30 value="0.0020691296" flag="0"/>
    </comp>
    <comp name="--.HHN">
      <acc value="0.0694868365" flag="0"/>
      <vel value="0.0282099651" flag="0"/>
      <psa03 value="0.1369871636" flag="0"/>
      <psa10 value="0.0404480373" flag="0"/>
      <psa30 value="0.0022803272" flag="0"/>
    </comp>
    <comp name="--.HHZ">
      <acc value="0.0444566218" flag="0"/>
      <vel value="0.0162833845" flag="0"/>
      <psa03 value="0.0932553196" flag="0"/>
      <psa10 value="0.0185900328" flag="0"/>
      <psa30 value="0.0010486914" flag="0"/>
    </comp>
  </station>
  <station code="PLEV" name="PLEV" netid="HP" insttype="Compact," lat="38.4124" lon="21.4073">
    <comp name="--.HHZ">
      <acc value="0.0147011422" flag="0"/>
      <vel value="0.0092154304" flag="0"/>
      <psa03 value="0.0324394114" flag="0"/>
      <psa10 value="0.0100606507" flag="0"/>
      <psa30 value="0.0013219072" flag="0"/>
    </comp>
    <comp name="--.HHE">
      <acc value="0.0194985348" flag="0"/>
      <vel value="0.0131319536" flag="0"/>
      <psa03 value="0.0430717152" flag="0"/>
      <psa10 value="0.0141896150" flag="0"/>
      <psa30 value="0.0013060722" flag="0"/>
    </comp>
    <comp name="--.HHN">
      <acc value="0.0258021624" flag="0"/>
      <vel value="0.0172163989" flag="0"/>
      <psa03 value="0.0736826103" flag="0"/>
      <psa10 value="0.0301561366" flag="0"/>
      <psa30 value="0.0015437396" flag="0"/>
    </comp>
  </station>
  <station code="PVO" name="PVO" netid="HP" insttype="DC_100" lat="38.616" lon="21.525">
    <comp name="--.HNE">
      <acc value="0.0443395395" flag="0"/>
      <vel value="0.0259968637" flag="0"/>
      <psa03 value="0.1355207973" flag="0"/>
      <psa10 value="0.0310876376" flag="0"/>
      <psa30 value="0.0037249314" flag="0"/>
    </comp>
    <comp name="--.HNN">
      <acc value="0.0447480195" flag="0"/>
      <vel value="0.0269416998" flag="0"/>
      <psa03 value="0.1525115180" flag="0"/>
      <psa10 value="0.0356143948" flag="0"/>
      <psa30 value="0.0017200894" flag="0"/>
    </comp>
    <comp name="--.HNZ">
      <acc value="0.0349087644" flag="0"/>
      <vel value="0.0159966691" flag="0"/>
      <psa03 value="0.0550240643" flag="0"/>
      <psa10 value="0.0190627999" flag="0"/>
      <psa30 value="0.0019966453" flag="0"/>
    </comp>
  </station>
  <station code="UPR" name="UPR" netid="HP" insttype="120" lat="0" lon="0">
    <comp name="--.HHE">
      <acc value="0.0185424693" flag="0"/>
      <vel value="0.0220770761" flag="0"/>
      <psa03 value="0.0390567158" flag="0"/>
      <psa10 value="0.0460245367" flag="0"/>
      <psa30 value="0.0044665043" flag="0"/>
    </comp>
    <comp name="--.HHN">
      <acc value="0.0176215892" flag="0"/>
