<stationlist created="1778138706">
	<station code="ABEA" name="ABEA" netid="HC" source="Seismological Network of Crete (HC)" insttype="" lat="35.5163" lon="24.0113">
		<comp name="--.HNE" depth="0.0">
			<acc value="0.00820619089939712" flag="0"/>
			<vel value="0.00216322128884204" flag="0"/>
			<psa03 value="0.010498463049788" flag="0"/>
			<psa10 value="0.00298186308066945" flag="0"/>
			<psa30 value="0.000903620172902218" flag="0"/>
		</comp>
		<comp name="--.HNN" depth="0.0">
			<acc value="0.00632725195999962" flag="0"/>
			<vel value="0.00178800284674714" flag="0"/>
			<psa03 value="0.00833684589493323" flag="0"/>
			<psa10 value="0.00209953861537763" flag="0"/>
			<psa30 value="0.00067139098677592" flag="0"/>
		</comp>
		<comp name="--.HNZ" depth="0.0">
			<acc value="0.0103760036365406" flag="0"/>
			<vel value="0.00226383524487083" flag="0"/>
			<psa03 value="0.00518551050679123" flag="0"/>
			<psa10 value="0.00186643477495827" flag="0"/>
			<psa30 value="0.000732477064676287" flag="0"/>
		</comp>
	</station>
	<station code="ATEI" name="ATEI" netid="HC" source="Seismological Network of Crete (HC)" insttype="" lat="35.5193" lon="24.0432">
		<comp name="--.HNE" depth="0.0">
			<acc value="0.00317566320952921" flag="0"/>
			<vel value="0.00147811220195055" flag="0"/>
			<psa03 value="0.00905122785464702" flag="0"/>
			<psa10 value="0.00183046075122808" flag="0"/>
			<psa30 value="0.000622358519865771" flag="0"/>
		</comp>
		<comp name="--.HNN" depth="0.0">
			<acc value="0.00351347125494573" flag="0"/>
			<vel value="0.00196184725658446" flag="0"/>
			<psa03 value="0.00806078984712852" flag="0"/>
			<psa10 value="0.00208090503724573" flag="0"/>
			<psa30 value="0.0010399134724973" flag="0"/>
		</comp>
		<comp name="--.HNZ" depth="0.0">
			<acc value="0.00350266129468143" flag="0"/>
			<vel value="0.00142399255739317" flag="0"/>
			<psa03 value="0.00592372249567894" flag="0"/>
			<psa10 value="0.00146189020242479" flag="0"/>
			<psa30 value="0.000864684156083406" flag="0"/>
		</comp>
	</station>
	<station code="G0LD" name="G0LD" netid="HC" source="Seismological Network of Crete (HC)" insttype="" lat="35.4955" lon="24.0306">
		<comp name="--.HNE" depth="0.0">
			<acc value="0.0102681717253453" flag="0"/>
			<vel value="0.00566184403431992" flag="0"/>
			<psa03 value="0.0196092208896639" flag="0"/>
			<psa10 value="0.00940531368085953" flag="0"/>
			<psa30 value="0.00145031524293547" flag="0"/>
		</comp>
		<comp name="--.HNN" depth="0.0">
			<acc value="0.00688394970873924" flag="0"/>
			<vel value="0.00362691675694532" flag="0"/>
			<psa03 value="0.019589930549246" flag="0"/>
			<psa10 value="0.007856508892657" flag="0"/>
			<psa30 value="0.00124322225320739" flag="0"/>
		</comp>
		<comp name="--.HNZ" depth="0.0">
			<acc value="0.00625273328849815" flag="0"/>
			<vel value="0.00380691721843572" flag="0"/>
			<psa03 value="0.0153393742311675" flag="0"/>
			<psa10 value="0.00335022631105173" flag="0"/>
			<psa30 value="0.00190334504560291" flag="0"/>
		</comp>
	</station>
	<station code="LENT" name="LENT" netid="HC" source="Seismological Network of Crete (HC)" insttype="" lat="35.5074" lon="24.0402">
		<comp name="--.HNE" depth="0.0">
			<acc value="0.0372663990629204" flag="0"/>
			<vel value="0.0020770857710136" flag="0"/>
			<psa03 value="0.00533248378471668" flag="0"/>
			<psa10 value="0.00288452772643208" flag="0"/>
			<psa30 value="0.00078877886731324" flag="0"/>
		</comp>
		<comp name="--.HNN" depth="0.0">
			<acc value="0.0164688146341265" flag="0"/>
			<vel value="0.001665360539217" flag="0"/>
			<psa03 value="0.00816700000805847" flag="0"/>
			<psa10 value="0.00266930237505567" flag="0"/>
			<psa30 value="0.000679744248470937" flag="0"/>
		</comp>
		<comp name="--.HNZ" depth="0.0">
			<acc value="0.0395916580126552" flag="0"/>
			<vel value="0.00238844736252112" flag="0"/>
			<psa03 value="0.00636970711807253" flag="0"/>
			<psa10 value="0.00190644933978933" flag="0"/>
			<psa30 value="0.000836927994457745" flag="0"/>
		</comp>
	</station>
	<station code="MULT" name="MULT" netid="HC" source="Seismological Network of Crete (HC)" insttype="" lat="35.5091" lon="24.0118">
		<comp name="--.HNE" depth="0.0">
			<acc value="0.0116112323366298" flag="0"/>
			<vel value="0.00341286122828331" flag="0"/>
			<psa03 value="0.0115059913821279" flag="0"/>
			<psa10 value="0.00363911122951027" flag="0"/>
			<psa30 value="0.00183833907260971" flag="0"/>
		</comp>
		<comp name="--.HNN" depth="0.0">
			<acc value="0.0140168023561049" flag="0"/>
			<vel value="0.00631177485609622" flag="0"/>
			<psa03 value="0.0167398914877376" flag="0"/>
			<psa10 value="0.00725508201981126" flag="0"/>
			<psa30 value="0.00230586212705107" flag="0"/>
		</comp>
		<comp name="--.HNZ" depth="0.0">
			<acc value="0.0399001083266862" flag="0"/>
			<vel value="0.00671794579216092" flag="0"/>
			<psa03 value="0.022411185151853" flag="0"/>
			<psa10 value="0.00807853578836689" flag="0"/>
			<psa30 value="0.00307715947171479" flag="0"/>
		</comp>
	</station>
	<station code="NERO" name="NERO" netid="HC" source="Seismological Network of Crete (HC)" insttype="" lat="35.474" lon="24.0423">
		<comp name="--.HNE" depth="0.0">
			<acc value="0.00311601589297647" flag="0"/>
			<vel value="0.00147293321667524" flag="0"/>
			<psa03 value="0.00522858497486107" flag="0"/>
			<psa10 value="0.00161701758823041" flag="0"/>
			<psa30 value="0.000865788395899319" flag="0"/>
		</comp>
		<comp name="--.HNN" depth="0.0">
			<acc value="0.00300250213559095" flag="0"/>
			<vel value="0.00232480172568062" flag="0"/>
			<psa03 value="0.0062055211113418" flag="0"/>
			<psa10 value="0.00457403222592305" flag="0"/>
			<psa30 value="0.00072062060216146" flag="0"/>
		</comp>
		<comp name="--.HNZ" depth="0.0">
			<acc value="0.00259632923099443" flag="0"/>
			<vel value="0.00143648219246523" flag="0"/>
			<psa03 value="0.00488893747486727" flag="0"/>
			<psa10 value="0.00283332394380718" flag="0"/>
			<psa30 value="0.000553786060608625" flag="0"/>
		</comp>
	</station>
	<station code="PASK" name="PASK" netid="HC" source="Seismological Network of Crete (HC)" insttype="" lat="35.4996" lon="24.0121">
		<comp name="--.HNE" depth="0.0">
			<acc value="0.00531222816490922" flag="0"/>
			<vel value="0.00223971872157862" flag="0"/>
			<psa03 value="0.0128588283967828" flag="0"/>
			<psa10 value="0.00340334740818821" flag="0"/>
			<psa30 value="0.000711915858849933" flag="0"/>
		</comp>
		<comp name="--.HNN" depth="0.0">
			<acc value="0.00445316085107995" flag="0"/>
			<vel value="0.00236850787701531" flag="0"/>
			<psa03 value="0.00979752664221734" flag="0"/>
			<psa10 value="0.00295113096669139" flag="0"/>
			<psa30 value="0.000813659734296058" flag="0"/>
		</comp>
		<comp name="--.HNZ" depth="0.0">
			<acc value="0.00732998857158863" flag="0"/>
			<vel value="0.00211474263413629" flag="0"/>
			<psa03 value="0.00987691862029104" flag="0"/>
			<psa10 value="0.00208106348524302" flag="0"/>
			<psa30 value="0.000693395256947661" flag="0"/>
		</comp>
	</station>
	<station code="POLY" name="POLY" netid="HC" source="Seismological Network of Crete (HC)" insttype="" lat="35.5226" lon="24.0602">
		<comp name="--.HNE" depth="0.0">
			<acc value="0.00298709942316883" flag="0"/>
			<vel value="0.00206554868989889" flag="0"/>
			<psa03 value="0.00563676273077955" flag="0"/>
			<psa10 value="0.00228555703193837" flag="0"/>
			<psa30 value="0.0010678954303308" flag="0"/>
		</comp>
		<comp name="--.HNN" depth="0.0">
			<acc value="0.00379669293908784" flag="0"/>
			<vel value="0.00225973065092116" flag="0"/>
			<psa03 value="0.00593023659908759" flag="0"/>
			<psa10 value="0.00201063077254595" flag="0"/>
			<psa30 value="0.00150920466490034" flag="0"/>
		</comp>
		<comp name="--.HNZ" depth="0.0">
			<acc value="0.00600655928683535" flag="0"/>
			<vel value="0.00127990634790791" flag="0"/>
			<psa03 value="0.00776392122272931" flag="0"/>
			<psa10 value="0.00153266887554202" flag="0"/>
			<psa30 value="0.000656769445252386" flag="0"/>
		</comp>
	</station>
	<station code="SOUD" name="SOUD" netid="HC" source="Seismological Network of Crete (HC)" insttype="" lat="35.4878" lon="24.0678">
		<comp name="--.HNE" depth="0.0">
			<acc value="0.00980189616343311" flag="0"/>
			<vel value="0.00291863516402138" flag="0"/>
			<psa03 value="0.0172618648680068" flag="0"/>
			<psa10 value="0.0035037678105451" flag="0"/>
			<psa30 value="0.000746946877399643" flag="0"/>
		</comp>
		<comp name="--.HNN" depth="0.0">
			<acc value="0.013175680166329" flag="0"/>
			<vel value="0.00302737622990026" flag="0"/>
			<psa03 value="0.0141717421938025" flag="0"/>
			<psa10 value="0.00288979612231104" flag="0"/>
			<psa30 value="0.000777473639231255" flag="0"/>
		</comp>
		<comp name="--.HNZ" depth="0.0">
			<acc value="0.00638647390572239" flag="0"/>
			<vel value="0.00584636315219633" flag="0"/>
			<psa03 value="0.00729669105224449" flag="0"/>
			<psa10 value="0.0042926848380403" flag="0"/>
			<psa30 value="0.00376205130077092" flag="0"/>
		</comp>
	</station>
	<station code="KSS1" name="KSS1" netid="HI" source="ITSAK Strong Motion Network" insttype="" lat="35.4189" lon="26.9207">
		<comp name="--.HNE" depth="0.0">
			<acc value="0.0771224230976879" flag="0"/>
			<vel value="0.0172286564966463" flag="0"/>
			<psa03 value="0.0729480043222822" flag="0"/>
			<psa10 value="0.0106183174739088" flag="0"/>
			<psa30 value="0.000930990423546242" flag="0"/>
		</comp>
		<comp name="--.HNN" depth="0.0">
			<acc value="0.087132568415378" flag="0"/>
			<vel value="0.0247016371438239" flag="0"/>
			<psa03 value="0.0895326602661998" flag="0"/>
			<psa10 value="0.00921799533446874" flag="0"/>
			<psa30 value="0.00159047723631102" flag="0"/>
		</comp>
		<comp name="--.HNZ" depth="0.0">
			<acc value="0.0984281796365133" flag="0"/>
			<vel value="0.012709787174267" flag="0"/>
			<psa03 value="0.0278109100446462" flag="0"/>
			<psa10 value="0.00731869279621308" flag="0"/>
			<psa30 value="0.00078624531406065" flag="0"/>
		</comp>
	</station>
	<station code="SIT2" name="SIT2" netid="HI" source="ITSAK Strong Motion Network" insttype="" lat="35.2059" lon="26.107">
		<comp name="--.HNE" depth="0.0">
			<acc value="0.0911590131814638" flag="0"/>
			<vel value="0.0378814991005096" flag="0"/>
			<psa03 value="0.335639255286556" flag="0"/>
			<psa10 value="0.0244412128604073" flag="0"/>
			<psa30 value="0.00266087418652366" flag="0"/>
		</comp>
		<comp name="--.HNN" depth="0.0">
			<acc value="0.139966451592334" flag="0"/>
			<vel value="0.0767188997483707" flag="0"/>
			<psa03 value="0.46797054241729" flag="0"/>
			<psa10 value="0.027006245906246" flag="0"/>
			<psa30 value="0.00293923158466945" flag="0"/>
		</comp>
		<comp name="--.HNZ" depth="0.0">
			<acc value="0.122473580139754" flag="0"/>
			<vel value="0.0406077102197109" flag="0"/>
			<psa03 value="0.18716827397976" flag="0"/>
			<psa10 value="0.00922487141497308" flag="0"/>
			<psa30 value="0.000901292727053917" flag="0"/>
		</comp>
	</station>
	<station code="IMMV" name="IMMV" netid="HL" source="National Observatory of Athens Seismic Network" insttype="" lat="35.4606" lon="23.9811">
		<comp name="--.HNE" depth="0.0">
			<acc value="0.00257824363330074" flag="0"/>
			<vel value="0.00106927539628538" flag="0"/>
			<psa03 value="0.00768797283212262" flag="0"/>
			<psa10 value="0.00175864208734347" flag="0"/>
			<psa30 value="0.00020296274216064" flag="0"/>
		</comp>
		<comp name="--.HNN" depth="0.0">
			<acc value="0.00271562861178454" flag="0"/>
			<vel value="0.0010510231230382" flag="0"/>
			<psa03 value="0.00916741458788754" flag="0"/>
			<psa10 value="0.00139236587021649" flag="0"/>
			<psa30 value="0.000175624928560498" flag="0"/>
		</comp>
		<comp name="--.HNZ" depth="0.0">
			<acc value="0.00221008932299997" flag="0"/>
			<vel value="0.00073540214884642" flag="0"/>
			<psa03 value="0.00568887360473826" flag="0"/>
			<psa10 value="0.000859182092377611" flag="0"/>
			<psa30 value="8.93678798189414e-05" flag="0"/>
		</comp>
	</station>
	<station code="KSTE" name="KSTE" netid="HL" source="National Observatory of Athens Seismic Network" insttype="" lat="35.1801" lon="25.3372">
		<comp name="--.HNE" depth="0.0">
			<acc value="0.0125050282294941" flag="0"/>
			<vel value="0.00389728635714761" flag="0"/>
			<psa03 value="0.024036209468412" flag="0"/>
			<psa10 value="0.00204333926745026" flag="0"/>
			<psa30 value="0.000310056034482391" flag="0"/>
		</comp>
		<comp name="--.HNN" depth="0.0">
			<acc value="0.0209841033919796" flag="0"/>
			<vel value="0.0108957756730077" flag="0"/>
			<psa03 value="0.0595563776095866" flag="0"/>
			<psa10 value="0.00349108259521441" flag="0"/>
			<psa30 value="0.000320502038978747" flag="0"/>
		</comp>
		<comp name="--.HNZ" depth="0.0">
			<acc value="0.0190059280421735" flag="0"/>
			<vel value="0.00702759712971546" flag="0"/>
			<psa03 value="0.0326668593316001" flag="0"/>
			<psa10 value="0.00351299459364977" flag="0"/>
			<psa30 value="0.00100891266884784" flag="0"/>
		</comp>
	</station>
	<station code="NISR" name="NISR" netid="HL" source="National Observatory of Athens Seismic Network" insttype="" lat="36.6106" lon="27.131">
		<comp name="--.HNE" depth="0.0">
			<acc value="0.0237063469942309" flag="0"/>
			<vel value="0.0108514594979338" flag="0"/>
			<psa03 value="0.0778108316689298" flag="0"/>
			<psa10 value="0.0132844562800441" flag="0"/>
			<psa30 value="0.00113953590532613" flag="0"/>
		</comp>
		<comp name="--.HNN" depth="0.0">
			<acc value="0.0191129757168558" flag="0"/>
			<vel value="0.00682341636582148" flag="0"/>
			<psa03 value="0.0449172620063462" flag="0"/>
			<psa10 value="0.00814985238774089" flag="0"/>
			<psa30 value="0.000642675647022253" flag="0"/>
		</comp>
		<comp name="--.HNZ" depth="0.0">
			<acc value="0.00688545827743138" flag="0"/>
			<vel value="0.00463178866877484" flag="0"/>
			<psa03 value="0.0210788989777899" flag="0"/>
			<psa10 value="0.00833835299994435" flag="0"/>
			<psa30 value="0.000337285286203125" flag="0"/>
		</comp>
	</station>
	<station code="DATC" name="DATC" netid="KO" source="Bogazici University Kandilli Observatory And Earthquake Research Institute (KOERI)" insttype="" lat="36.7584" lon="27.6602">
		<comp name="--.HNE" depth="0.0">
			<acc value="0.0105590123913183" flag="0"/>
			<vel value="0.00603448712314426" flag="0"/>
			<psa03 value="0.0321628285461958" flag="0"/>
			<psa10 value="0.00584065425841788" flag="0"/>
			<psa30 value="0.000686094981676259" flag="0"/>
		</comp>
		<comp name="--.HNN" depth="0.0">
			<acc value="0.00906400004304459" flag="0"/>
			<vel value="0.00380915071078549" flag="0"/>
			<psa03 value="0.0170149123106785" flag="0"/>
			<psa10 value="0.00668683031344626" flag="0"/>
			<psa30 value="0.000419170476320149" flag="0"/>
		</comp>
		<comp name="--.HNZ" depth="0.0">
			<acc value="0.0136944872809046" flag="0"/>
			<vel value="0.00464782576859471" flag="0"/>
			<psa03 value="0.010478275514527" flag="0"/>
			<psa10 value="0.00487859412043437" flag="0"/>
			<psa30 value="0.000505599483069409" flag="0"/>
		</comp>
	</station>
	<station code="DIDI" name="DIDI" netid="KO" source="Bogazici University Kandilli Observatory And Earthquake Research Institute (KOERI)" insttype="" lat="37.3767" lon="27.2398">
		<comp name="--.HNE" depth="0.0">
			<acc value="0.0292988071892729" flag="0"/>
			<vel value="0.0026860600400105" flag="0"/>
			<psa03 value="0.0106978030780118" flag="0"/>
			<psa10 value="0.0027154348842357" flag="0"/>
			<psa30 value="0.000500885056175692" flag="0"/>
		</comp>
		<comp name="--.HNN" depth="0.0">
			<acc value="0.0435543697076813" flag="0"/>
			<vel value="0.00326441710520344" flag="0"/>
			<psa03 value="0.0155012820922078" flag="0"/>
			<psa10 value="0.00248203301625636" flag="0"/>
			<psa30 value="0.000392280908560011" flag="0"/>
		</comp>
		<comp name="--.HNZ" depth="0.0">
			<acc value="0.0782786868405201" flag="0"/>
			<vel value="0.00739614728616851" flag="0"/>
			<psa03 value="0.00809596144792406" flag="0"/>
			<psa10 value="0.00213085576811308" flag="0"/>
			<psa30 value="0.000306359826085122" flag="0"/>
		</comp>
	</station>
	<station code="YKAV" name="YKAV" netid="KO" source="Bogazici University Kandilli Observatory And Earthquake Research Institute (KOERI)" insttype="" lat="37.1246" lon="27.2801">
		<comp name="--.HNE" depth="0.0">
			<acc value="0.00249362638155101" flag="0"/>
			<vel value="0.00114994307335945" flag="0"/>
			<psa03 value="0.00453948138243497" flag="0"/>
			<psa10 value="0.00172665844514711" flag="0"/>
			<psa30 value="0.000390989625102337" flag="0"/>
		</comp>
		<comp name="--.HNN" depth="0.0">
			<acc value="0.0028322721864059" flag="0"/>
			<vel value="0.000717921531575202" flag="0"/>
			<psa03 value="0.0024862680559213" flag="0"/>
			<psa10 value="0.00106292799188633" flag="0"/>
			<psa30 value="0.00028847593303148" flag="0"/>
		</comp>
		<comp name="--.HNZ" depth="0.0">
			<acc value="0.00232038502317799" flag="0"/>
			<vel value="0.000940589410651857" flag="0"/>
			<psa03 value="0.00187133229991389" flag="0"/>
			<psa10 value="0.00159178544797228" flag="0"/>
			<psa30 value="0.0003715909442016" flag="0"/>
		</comp>
	</station>
</stationlist>
