<?xml version="1.0" encoding="UTF-8" standalone="yes"?>
<!DOCTYPE earthquake SYSTEM "stationlist.dtd">
<stationlist created="" xmlns="ch.ethz.sed.shakemap.usgs.xml">
  <station code="ZKR" name="ZKR" netid="GE" insttype="STS-2/N" lat="35.1147" lon="26.2169">
    <comp name="--.HHE">
      <acc value="0.1287070188" flag="0"/>
      <vel value="0.0607842411" flag="0"/>
      <psa03 value="0.4566626989" flag="0"/>
      <psa10 value="0.0213581705" flag="0"/>
      <psa30 value="0.0019255932" flag="0"/>
    </comp>
    <comp name="--.HHN">
      <acc value="0.0724498266" flag="0"/>
      <vel value="0.0213816981" flag="0"/>
      <psa03 value="0.1987732852" flag="0"/>
      <psa10 value="0.0051626809" flag="0"/>
      <psa30 value="0.0004570916" flag="0"/>
    </comp>
    <comp name="--.HHZ">
      <acc value="0.0777951039" flag="0"/>
      <vel value="0.0196769870" flag="0"/>
      <psa03 value="0.1477010255" flag="0"/>
      <psa10 value="0.0110506757" flag="0"/>
      <psa30 value="0.0007502663" flag="0"/>
    </comp>
  </station>
</stationlist>
