<?xml version="1.0" encoding="UTF-8" standalone="yes"?>
<!DOCTYPE earthquake SYSTEM "stationlist.dtd">
<stationlist created="" xmlns="ch.ethz.sed.shakemap.usgs.xml">
  <station code="ZKR" name="ZKR" netid="GE" insttype="STS-2/N" lat="35.1147" lon="26.2169">
    <comp name="--.HHE">
      <acc value="0.1287070188" flag="0"/>
      <vel value="0.0607842411" flag="0"/>
      <psa03 value="0.4566626989" flag="0"/>
      <psa10 value="0.0213581705" flag="0"/>
      <psa30 value="0.0019255932" flag="0"/>
    </comp>
    <comp name="--.HHN">
      <acc value="0.0724498266" flag="0"/>
      <vel value="0.0213816981" flag="0"/>
      <psa03 value="0.1987732852" flag="0"/>
      <psa10 value="0.0051626809" flag="0"/>
      <psa30 value="0.0004570916" flag="0"/>
    </comp>
    <comp name="--.HHZ">
      <acc value="0.0777951039" flag="0"/>
      <vel value="0.0196769870" flag="0"/>
      <psa03 value="0.1477010255" flag="0"/>
      <psa10 value="0.0110506757" flag="0"/>
      <psa30 value="0.0007502663" flag="0"/>
    </comp>
  </station>
  <station code="KNSS" name="KNSS" netid="HC" insttype="60" lat="35.3042" lon="25.1802">
    <comp name="--.HHE">
      <acc value="0.0220471139" flag="0"/>
      <vel value="0.0072668521" flag="0"/>
      <psa03 value="0.0556013661" flag="0"/>
      <psa10 value="0.0047227109" flag="0"/>
      <psa30 value="0.0004223989" flag="0"/>
    </comp>
    <comp name="--.HHZ">
      <acc value="0.0158454075" flag="0"/>
      <vel value="0.0038838034" flag="0"/>
      <psa03 value="0.0232280350" flag="0"/>
      <psa10 value="0.0018110807" flag="0"/>
      <psa30 value="0.0002907744" flag="0"/>
    </comp>
    <comp name="--.HHN">
      <acc value="0.0217207046" flag="0"/>
      <vel value="0.0057989657" flag="0"/>
      <psa03 value="0.0485549458" flag="0"/>
      <psa10 value="0.0028373096" flag="0"/>
      <psa30 value="0.0003565142" flag="0"/>
    </comp>
  </station>
  <station code="PFKS" name="PFKS" netid="HC" insttype="120" lat="35.0429" lon="25.4733">
    <comp name="--.HHN">
      <acc value="0.0458939748" flag="0"/>
      <vel value="0.0139679402" flag="0"/>
      <psa03 value="0.0638466573" flag="0"/>
      <psa10 value="0.0072068262" flag="0"/>
      <psa30 value="0.0004102927" flag="0"/>
    </comp>
    <comp name="--.HHZ">
      <acc value="0.0197695080" flag="0"/>
      <vel value="0.0064329618" flag="0"/>
      <psa03 value="0.0409877986" flag="0"/>
      <psa10 value="0.0034155031" flag="0"/>
      <psa30 value="0.0002540431" flag="0"/>
    </comp>
    <comp name="--.HHE">
      <acc value="0.0395307316" flag="0"/>
      <vel value="0.0150281872" flag="0"/>
      <psa03 value="0.0913649156" flag="0"/>
      <psa10 value="0.0059719603" flag="0"/>
      <psa30 value="0.0004391808" flag="0"/>
    </comp>
  </station>
  <station code="STIA" name="STIA" netid="HC" insttype="120" lat="35.2021" lon="26.0909">
    <comp name="--.HHN">
      <acc value="0.1086935373" flag="0"/>
      <vel value="0.0244646851" flag="0"/>
      <psa03 value="0.0794156129" flag="0"/>
      <psa10 value="0.0098282258" flag="0"/>
      <psa30 value="0.0016809488" flag="0"/>
    </comp>
    <comp name="--.HHZ">
      <acc value="0.1467770059" flag="0"/>
      <vel value="0.0260159226" flag="0"/>
      <psa03 value="0.1532544620" flag="0"/>
      <psa10 value="0.0083191552" flag="0"/>
      <psa30 value="0.0005644216" flag="0"/>
    </comp>
    <comp name="--.HHE">
      <acc value="0.1078931894" flag="0"/>
      <vel value="0.0303109632" flag="0"/>
      <psa03 value="0.1535175882" flag="0"/>
      <psa10 value="0.0097774185" flag="0"/>
      <psa30 value="0.0017658866" flag="0"/>
    </comp>
  </station>
  <station code="SIT2" name="SIT2" netid="HI" insttype="CMG-5TD,ACCELEROMETER,GURALP" lat="35.2059" lon="26.107">
    <comp name="--.HNN">
      <acc value="0.1388717908" flag="0"/>
      <vel value="0.0762021754" flag="0"/>
      <psa03 value="0.4704029137" flag="0"/>
      <psa10 value="0.0270333200" flag="0"/>
      <psa30 value="0.0028693946" flag="0"/>
    </comp>
    <comp name="--.HNE">
      <acc value="0.0910024198" flag="0"/>
      <vel value="0.0379008672" flag="0"/>
      <psa03 value="0.3391414556" flag="0"/>
      <psa10 value="0.0244253413" flag="0"/>
      <psa30 value="0.0027093545" flag="0"/>
    </comp>
    <comp name="--.HNZ">
      <acc value="0.1191386873" flag="0"/>
      <vel value="0.0401181380" flag="0"/>
      <psa03 value="0.1894280797" flag="0"/>
      <psa10 value="0.0091582458" flag="0"/>
      <psa30 value="0.0008399426" flag="0"/>
    </comp>
  </station>
  <station code="CRE1" name="CRE1" netid="HL" insttype="LE3D20_SMART24" lat="35.2267" lon="25.2497">
    <comp name="--.HHN">
      <acc value="0.0667581771" flag="0"/>
      <vel value="0.0144320895" flag="0"/>
      <psa03 value="0.1106356567" flag="0"/>
      <psa10 value="0.0066452159" flag="0"/>
      <psa30 value="0.0004865913" flag="0"/>
    </comp>
    <comp name="--.HHE">
      <acc value="0.0585294561" flag="0"/>
      <vel value="0.0131083836" flag="0"/>
      <psa03 value="0.0830846016" flag="0"/>
      <psa10 value="0.0034345902" flag="0"/>
      <psa30 value="0.0003566356" flag="0"/>
    </comp>
    <comp name="--.HHZ">
      <acc value="0.0381472321" flag="0"/>
      <vel value="0.0091487979" flag="0"/>
      <psa03 value="0.0360758518" flag="0"/>
      <psa10 value="0.0040602455" flag="0"/>
      <psa30 value="0.0004350679" flag="0"/>
    </comp>
  </station>
  <station code="CRE3" name="CRE3" netid="HL" insttype="LE3D20_SMART24" lat="35.0769" lon="25.2462">
    <comp name="--.HHZ">
      <acc value="0.0514815125" flag="0"/>
      <vel value="0.0113741091" flag="0"/>
      <psa03 value="0.0999195416" flag="0"/>
      <psa10 value="0.0104175903" flag="0"/>
      <psa30 value="0.0011620067" flag="0"/>
    </comp>
    <comp name="--.HHN">
      <acc value="0.0964500824" flag="0"/>
      <vel value="0.0222863399" flag="0"/>
      <psa03 value="0.1180113098" flag="0"/>
      <psa10 value="0.0191454423" flag="0"/>
      <psa30 value="0.0026397049" flag="0"/>
    </comp>
    <comp name="--.HHE">
      <acc value="0.0982918610" flag="0"/>
      <vel value="0.0226714826" flag="0"/>
      <psa03 value="0.1781921339" flag="0"/>
      <psa10 value="0.0204209218" flag="0"/>
      <psa30 value="0.0021452803" flag="0"/>
    </comp>
  </station>
  <station code="KSTE" name="KSTE" netid="HL" insttype="60" lat="35.1801" lon="25.3372">
    <comp name="--.HHN">
      <acc value="0.0214568684" flag="0"/>
      <vel value="0.0110047964" flag="0"/>
      <psa03 value="0.0610246446" flag="0"/>
      <psa10 value="0.0034769095" flag="0"/>
      <psa30 value="0.0003124273" flag="0"/>
    </comp>
    <comp name="--.HHE">
      <acc value="0.0123870952" flag="0"/>
      <vel value="0.0036109171" flag="0"/>
      <psa03 value="0.0219735195" flag="0"/>
      <psa10 value="0.0019936976" flag="0"/>
      <psa30 value="0.0002984341" flag="0"/>
    </comp>
    <comp name="--.HHZ">
      <acc value="0.0207018027" flag="0"/>
      <vel value="0.0054338319" flag="0"/>
      <psa03 value="0.0332238439" flag="0"/>
      <psa10 value="0.0028646106" flag="0"/>
      <psa30 value="0.0003529035" flag="0"/>
    </comp>
  </station>
  <station code="NPS" name="NPS" netid="HL" insttype="CMG3ESPC-120s" lat="35.2613" lon="25.6104">
    <comp name="--.HHZ">
      <acc value="0.0524807401" flag="0"/>
      <vel value="0.0124713809" flag="0"/>
      <psa03 value="0.0822300392" flag="0"/>
      <psa10 value="0.0039290178" flag="0"/>
      <psa30 value="0.0004444106" flag="0"/>
    </comp>
    <comp name="--.HHN">
      <acc value="0.0726473261" flag="0"/>
      <vel value="0.0152334498" flag="0"/>
      <psa03 value="0.1403740724" flag="0"/>
      <psa10 value="0.0094874394" flag="0"/>
      <psa30 value="0.0007949293" flag="0"/>
    </comp>
    <comp name="--.HHE">
      <acc value="0.0401484272" flag="0"/>
      <vel value="0.0133860578" flag="0"/>
      <psa03 value="0.0682174636" flag="0"/>
      <psa10 value="0.0037984504" flag="0"/>
      <psa30 value="0.0003013997" flag="0"/>
    </comp>
  </station>
  <station code="ZKR" name="ZKR" netid="HL" insttype="120" lat="35.1147" lon="26.2169">
    <comp name="--.HHE">
      <acc value="0.1261644518" flag="0"/>
      <vel value="0.0592247321" flag="0"/>
      <psa03 value="0.4441260656" flag="0"/>
      <psa10 value="0.0208904638" flag="0"/>
      <psa30 value="0.0019039117" flag="0"/>
    </comp>
    <comp name="--.HHZ">
      <acc value="0.0768503191" flag="0"/>
      <vel value="0.0190088738" flag="0"/>
      <psa03 value="0.1433529413" flag="0"/>
      <psa10 value="0.0109960343" flag="0"/>
      <psa30 value="0.0007367444" flag="0"/>
    </comp>
    <comp name="--.HHN">
      <acc value="0.0703756036" flag="0"/>
      <vel value="0.0208647777" flag="0"/>
      <psa03 value="0.1930383437" flag="0"/>
      <psa10 value="0.0050814503" flag="0"/>
      <psa30 value="0.0004474814" flag="0"/>
    </comp>
  </station>
</stationlist>
