<?xml version="1.0" encoding="UTF-8" standalone="yes"?>
<!DOCTYPE earthquake SYSTEM "stationlist.dtd">
<stationlist created="" xmlns="ch.ethz.sed.shakemap.usgs.xml">
  <station code="OSTC" name="OSTC" netid="CZ" insttype="" lat="50.5565" lon="16.2156">
    <comp name="--.HHE">
      <acc value="0.0171268574" flag="0"/>
      <vel value="0.0117252734" flag="0"/>
      <psa03 value="0.0282809043" flag="0"/>
      <psa10 value="0.0140658897" flag="0"/>
      <psa30 value="0.0016707400" flag="0"/>
    </comp>
    <comp name="--.HHZ">
      <acc value="0.0106451059" flag="0"/>
      <vel value="0.0089737385" flag="0"/>
      <psa03 value="0.0270326110" flag="0"/>
      <psa10 value="0.0100315793" flag="0"/>
      <psa30 value="0.0027048287" flag="0"/>
    </comp>
    <comp name="--.HHN">
      <acc value="0.0152331195" flag="0"/>
      <vel value="0.0135043176" flag="0"/>
      <psa03 value="0.0345545023" flag="0"/>
      <psa10 value="0.0296824807" flag="0"/>
      <psa30 value="0.0020912718" flag="0"/>
    </comp>
  </station>
  <station code="UPC" name="UPC" netid="CZ" insttype="" lat="50.5074" lon="16.0121">
    <comp name="--.HHZ">
      <acc value="0.0056104742" flag="0"/>
      <vel value="0.0031239663" flag="0"/>
      <psa03 value="0.0105930316" flag="0"/>
      <psa10 value="0.0033054351" flag="0"/>
      <psa30 value="0.0001310555" flag="0"/>
    </comp>
    <comp name="--.HHN">
      <acc value="0.0047002338" flag="0"/>
      <vel value="0.0026457261" flag="0"/>
      <psa03 value="0.0115383748" flag="0"/>
      <psa10 value="0.0029933792" flag="0"/>
      <psa30 value="0.0001782631" flag="0"/>
    </comp>
    <comp name="--.HHE">
      <acc value="0.0049361604" flag="0"/>
      <vel value="0.0025695544" flag="0"/>
      <psa03 value="0.0075394032" flag="0"/>
      <psa10 value="0.0016446370" flag="0"/>
      <psa30 value="0.0001232600" flag="0"/>
    </comp>
  </station>
</stationlist>
