<?xml version="1.0" encoding="UTF-8" standalone="yes"?>
<!DOCTYPE earthquake SYSTEM "stationlist.dtd">
<stationlist created="" xmlns="ch.ethz.sed.shakemap.usgs.xml">
  <station code="HSPB" name="HSPB" netid="PL" insttype="STS-2/N" lat="77.0019" lon="15.5332">
    <comp name="--.HHE">
      <acc value="0.1570158650" flag="0"/>
      <vel value="0.0401930506" flag="0"/>
      <psa03 value="0.2681437241" flag="0"/>
      <psa10 value="0.0165269727" flag="0"/>
      <psa30 value="0.0023541767" flag="0"/>
    </comp>
    <comp name="--.HHN">
      <acc value="0.1882519599" flag="0"/>
      <vel value="0.0551051847" flag="0"/>
      <psa03 value="0.3224485675" flag="0"/>
      <psa10 value="0.0157403100" flag="0"/>
      <psa30 value="0.0014289986" flag="0"/>
    </comp>
    <comp name="--.HHZ">
      <acc value="0.1466710865" flag="0"/>
      <vel value="0.0340529225" flag="0"/>
      <psa03 value="0.1012105792" flag="0"/>
      <psa10 value="0.0155966943" flag="0"/>
      <psa30 value="0.0024217222" flag="0"/>
    </comp>
  </station>
</stationlist>
