<?xml version="1.0" encoding="UTF-8" standalone="yes"?>
<!DOCTYPE earthquake SYSTEM "stationlist.dtd">
<stationlist created="" xmlns="ch.ethz.sed.shakemap.usgs.xml">
  <station code="HSPB" name="HSPB" netid="PL" insttype="STS-2/N" lat="77.0019" lon="15.5332">
    <comp name="--.HHN">
      <acc value="0.1883093537" flag="0"/>
      <vel value="0.0546619140" flag="0"/>
      <psa03 value="0.3223777708" flag="0"/>
      <psa10 value="0.0156635771" flag="0"/>
      <psa30 value="0.0015219463" flag="0"/>
    </comp>
    <comp name="--.HHE">
      <acc value="0.1571982163" flag="0"/>
      <vel value="0.0400666070" flag="0"/>
      <psa03 value="0.2679609090" flag="0"/>
      <psa10 value="0.0166192251" flag="0"/>
      <psa30 value="0.0026413617" flag="0"/>
    </comp>
    <comp name="--.HHZ">
      <acc value="0.1465783054" flag="0"/>
      <vel value="0.0351818401" flag="0"/>
      <psa03 value="0.1012444099" flag="0"/>
      <psa10 value="0.0156334070" flag="0"/>
      <psa30 value="0.0028261696" flag="0"/>
    </comp>
  </station>
</stationlist>
