<?xml version="1.0" encoding="UTF-8" standalone="yes"?>
<!DOCTYPE earthquake SYSTEM "stationlist.dtd">
<stationlist created="" xmlns="ch.ethz.sed.shakemap.usgs.xml">
  <station code="APE" name="APE" netid="GE" insttype="STS-2/N" lat="37.0727" lon="25.523">
    <comp name="--.HHE">
      <acc value="0.6245091059" flag="0"/>
      <vel value="0.1897092080" flag="0"/>
      <psa03 value="0.6299778276" flag="0"/>
      <psa10 value="0.1209031427" flag="0"/>
      <psa30 value="0.0424444867" flag="0"/>
    </comp>
    <comp name="--.HHN">
      <acc value="0.8672388937" flag="0"/>
      <vel value="0.2008489853" flag="0"/>
      <psa03 value="0.4363384506" flag="0"/>
      <psa10 value="0.1208226256" flag="0"/>
      <psa30 value="0.0448375204" flag="0"/>
    </comp>
    <comp name="--.HHZ">
      <acc value="0.2900453478" flag="0"/>
      <vel value="0.1096652404" flag="0"/>
      <psa03 value="0.5016952763" flag="0"/>
      <psa10 value="0.0781977178" flag="0"/>
      <psa30 value="0.0482388378" flag="0"/>
    </comp>
  </station>
  <station code="THERA" name="THERA" netid="GE" insttype="STS-2/N" lat="36.367" lon="25.4753">
    <comp name="--.HHE">
      <acc value="0.5029983607" flag="0"/>
      <vel value="0.1587524716" flag="0"/>
      <psa03 value="0.5674664118" flag="0"/>
      <psa10 value="0.0863408688" flag="0"/>
      <psa30 value="0.0419190260" flag="0"/>
    </comp>
    <comp name="--.HHN">
      <acc value="0.5502726912" flag="0"/>
      <vel value="0.1482245516" flag="0"/>
      <psa03 value="0.6543711945" flag="0"/>
      <psa10 value="0.0571884877" flag="0"/>
      <psa30 value="0.0162260605" flag="0"/>
    </comp>
    <comp name="--.HHZ">
      <acc value="0.5000875995" flag="0"/>
      <vel value="0.1649014532" flag="0"/>
      <psa03 value="0.7921591622" flag="0"/>
      <psa10 value="0.1019686269" flag="0"/>
      <psa30 value="0.0256381889" flag="0"/>
    </comp>
  </station>
  <station code="ZKR" name="ZKR" netid="GE" insttype="STS-2/N" lat="35.1147" lon="26.2169">
    <comp name="--.HHE">
      <acc value="0.0286751789" flag="0"/>
      <vel value="0.0207056364" flag="0"/>
      <psa03 value="0.0919209621" flag="0"/>
      <psa10 value="0.0339921311" flag="0"/>
      <psa30 value="0.0050517412" flag="0"/>
    </comp>
    <comp name="--.HHN">
      <acc value="0.0111262796" flag="0"/>
      <vel value="0.0108110361" flag="0"/>
      <psa03 value="0.0271758147" flag="0"/>
      <psa10 value="0.0146045564" flag="0"/>
      <psa30 value="0.0025579882" flag="0"/>
    </comp>
    <comp name="--.HHZ">
      <acc value="0.0194229645" flag="0"/>
      <vel value="0.0168733995" flag="0"/>
      <psa03 value="0.0419056152" flag="0"/>
      <psa10 value="0.0173579648" flag="0"/>
      <psa30 value="0.0052824651" flag="0"/>
    </comp>
  </station>
  <station code="SERI" name="SERI" netid="HA" insttype="30" lat="37.1609" lon="24.4853">
    <comp name="--.HHE">
      <acc value="0.1263025864" flag="0"/>
      <vel value="0.0598956876" flag="0"/>
      <psa03 value="0.1369481935" flag="0"/>
      <psa10 value="0.0305651127" flag="0"/>
      <psa30 value="0.0114512393" flag="0"/>
    </comp>
    <comp name="--.HHN">
      <acc value="0.1572918247" flag="0"/>
      <vel value="0.0806383552" flag="0"/>
      <psa03 value="0.1857281761" flag="0"/>
      <psa10 value="0.0502825720" flag="0"/>
      <psa30 value="0.0160936427" flag="0"/>
    </comp>
    <comp name="--.HHZ">
      <acc value="0.1318739450" flag="0"/>
      <vel value="0.0522861782" flag="0"/>
      <psa03 value="0.1276484083" flag="0"/>
      <psa10 value="0.0328225253" flag="0"/>
      <psa30 value="0.0159564945" flag="0"/>
    </comp>
  </station>
  <station code="SNT1" name="SNT1" netid="HA" insttype="30" lat="36.4159" lon="25.4282">
    <comp name="--.HHE">
      <acc value="0.7172368243" flag="0"/>
      <vel value="0.2610100479" flag="0"/>
      <psa03 value="0.8148426037" flag="0"/>
      <psa10 value="0.1569613597" flag="0"/>
      <psa30 value="0.0768879452" flag="0"/>
    </comp>
    <comp name="--.HHN">
      <acc value="0.6035809150" flag="0"/>
      <vel value="0.3652651769" flag="0"/>
      <psa03 value="1.2664947902" flag="0"/>
      <psa10 value="0.2585037987" flag="0"/>
      <psa30 value="0.0608432898" flag="0"/>
    </comp>
    <comp name="--.HHZ">
      <acc value="0.5835255052" flag="0"/>
      <vel value="0.1935080296" flag="0"/>
      <psa03 value="0.9183779897" flag="0"/>
      <psa10 value="0.1126987594" flag="0"/>
      <psa30 value="0.0276668531" flag="0"/>
    </comp>
  </station>
  <station code="KNSS" name="KNSS" netid="HC" insttype="60" lat="35.3042" lon="25.1802">
    <comp name="--.HHE">
      <acc value="19.6508769429" flag="0"/>
      <vel value="1.2717689955" flag="0"/>
      <psa03 value="1.7241746401" flag="0"/>
      <psa10 value="0.8775556366" flag="0"/>
      <psa30 value="0.1259062947" flag="0"/>
    </comp>
    <comp name="--.HHN">
      <acc value="0.0591273954" flag="0"/>
      <vel value="0.0440430702" flag="0"/>
      <psa03 value="0.2098338391" flag="0"/>
      <psa10 value="0.0249766671" flag="0"/>
      <psa30 value="0.0071261494" flag="0"/>
    </comp>
    <comp name="--.HHZ">
      <acc value="0.0748224278" flag="0"/>
      <vel value="0.0379225263" flag="0"/>
      <psa03 value="0.2676744276" flag="0"/>
      <psa10 value="0.0262088451" flag="0"/>
      <psa30 value="0.0079446064" flag="0"/>
    </comp>
  </station>
  <station code="STIA" name="STIA" netid="HC" insttype="120" lat="35.2021" lon="26.0909">
    <comp name="--.HHN">
      <acc value="0.0461481836" flag="0"/>
      <vel value="0.0325989735" flag="0"/>
      <psa03 value="0.0785123252" flag="0"/>
      <psa10 value="0.0348270932" flag="0"/>
      <psa30 value="0.0092513728" flag="0"/>
    </comp>
    <comp name="--.HHZ">
      <acc value="0.0354176320" flag="0"/>
      <vel value="0.0226062909" flag="0"/>
      <psa03 value="0.0896039768" flag="0"/>
      <psa10 value="0.0202451244" flag="0"/>
      <psa30 value="0.0065635779" flag="0"/>
    </comp>
  </station>
  <station code="NAX1" name="NAX1" netid="HI" insttype="CMG-5TD,ACCELEROMETER,GURALP" lat="37.1014" lon="25.3741">
    <comp name="--.HNN">
      <acc value="0.4951843257" flag="0"/>
      <vel value="0.1513335525" flag="0"/>
      <psa03 value="0.7067798516" flag="0"/>
      <psa10 value="0.0777590064" flag="0"/>
      <psa30 value="0.0280035931" flag="0"/>
    </comp>
    <comp name="--.HNE">
      <acc value="0.5361192692" flag="0"/>
      <vel value="0.2024038474" flag="0"/>
      <psa03 value="1.0158690074" flag="0"/>
      <psa10 value="0.1108197121" flag="0"/>
      <psa30 value="0.0191245134" flag="0"/>
    </comp>
  </station>
  <station code="AMGA" name="AMGA" netid="HL" insttype="SMART24" lat="36.8316" lon="25.8938">
    <comp name="--.HHZ">
      <acc value="2.6899257867" flag="0"/>
      <vel value="0.9412633236" flag="0"/>
      <psa03 value="3.7796756751" flag="0"/>
      <psa10 value="0.3214367110" flag="0"/>
      <psa30 value="0.0704443597" flag="0"/>
    </comp>
    <comp name="--.HHE">
      <acc value="2.5103047274" flag="0"/>
      <vel value="0.7590379344" flag="0"/>
      <psa03 value="2.8541561106" flag="0"/>
      <psa10 value="0.3455394344" flag="0"/>
      <psa30 value="0.0486048439" flag="0"/>
    </comp>
    <comp name="--.HHN">
      <acc value="2.7278388833" flag="0"/>
      <vel value="0.7409396285" flag="0"/>
      <psa03 value="3.7202176010" flag="0"/>
      <psa10 value="0.3457400458" flag="0"/>
      <psa30 value="0.1049807209" flag="0"/>
    </comp>
  </station>
  <station code="APE" name="APE" netid="HL" insttype="120" lat="37.0727" lon="25.523">
    <comp name="--.HHE">
      <acc value="0.5873892085" flag="0"/>
      <vel value="0.1785987562" flag="0"/>
      <psa03 value="0.6101239843" flag="0"/>
      <psa10 value="0.1195877292" flag="0"/>
      <psa30 value="0.0423654463" flag="0"/>
    </comp>
    <comp name="--.HHN">
      <acc value="0.8093095988" flag="0"/>
      <vel value="0.1941223705" flag="0"/>
      <psa03 value="0.4189982646" flag="0"/>
      <psa10 value="0.1202032449" flag="0"/>
      <psa30 value="0.0447906073" flag="0"/>
    </comp>
  </station>
  <station code="IACM" name="IACM" netid="HL" insttype="120" lat="35.3058" lon="25.0709">
    <comp name="--.HHE">
      <acc value="0.1893416868" flag="0"/>
      <vel value="0.1383671187" flag="0"/>
      <psa03 value="0.5840567700" flag="0"/>
      <psa10 value="0.1616705756" flag="0"/>
      <psa30 value="0.0293194693" flag="0"/>
    </comp>
    <comp name="--.HHN">
      <acc value="0.2116439386" flag="0"/>
      <vel value="0.1183457048" flag="0"/>
      <psa03 value="0.7238940851" flag="0"/>
      <psa10 value="0.1454697245" flag="0"/>
      <psa30 value="0.0120964376" flag="0"/>
    </comp>
    <comp name="--.HHZ">
      <acc value="0.1186307088" flag="0"/>
      <vel value="0.0594567120" flag="0"/>
      <psa03 value="0.3225195509" flag="0"/>
      <psa10 value="0.0624026616" flag="0"/>
      <psa30 value="0.0056318084" flag="0"/>
    </comp>
  </station>
  <station code="IDI" name="IDI" netid="HL" insttype="120" lat="35.288" lon="24.89">
    <comp name="--.HHN">
      <acc value="0.0582533339" flag="0"/>
      <vel value="0.0240957115" flag="0"/>
      <psa03 value="0.1259429545" flag="0"/>
      <psa10 value="0.0190565079" flag="0"/>
      <psa30 value="0.0043106605" flag="0"/>
    </comp>
  </station>
  <station code="KLNA" name="KLNA" netid="HL" insttype="CMG-5" lat="36.9571" lon="26.9727">
    <comp name="00.HNE">
      <acc value="0.1578691188" flag="0"/>
      <vel value="0.0643016195" flag="0"/>
      <psa03 value="0.3761983934" flag="0"/>
      <psa10 value="0.0389823543" flag="0"/>
      <psa30 value="0.0065922409" flag="0"/>
    </comp>
    <comp name="00.HNN">
      <acc value="0.1423939073" flag="0"/>
      <vel value="0.0564775816" flag="0"/>
      <psa03 value="0.2926888652" flag="0"/>
      <psa10 value="0.0625428450" flag="0"/>
      <psa30 value="0.0126480954" flag="0"/>
    </comp>
    <comp name="00.HNZ">
      <acc value="0.1265385749" flag="0"/>
      <vel value="0.0385405282" flag="0"/>
      <psa03 value="0.2061849545" flag="0"/>
      <psa10 value="0.0223248893" flag="0"/>
      <psa30 value="0.0056389881" flag="0"/>
    </comp>
  </station>
  <station code="MHLO" name="MHLO" netid="HL" insttype="20" lat="36.6898" lon="24.4017">
    <comp name="--.HHE">
      <acc value="0.4377315162" flag="0"/>
      <vel value="0.2698806967" flag="0"/>
      <psa03 value="1.4323039988" flag="0"/>
      <psa10 value="0.5123684326" flag="0"/>
      <psa30 value="0.0406458364" flag="0"/>
    </comp>
    <comp name="--.HHZ">
      <acc value="0.1637622260" flag="0"/>
      <vel value="0.1297595798" flag="0"/>
      <psa03 value="0.3709676584" flag="0"/>
      <psa10 value="0.2266888193" flag="0"/>
      <psa30 value="0.0313050707" flag="0"/>
    </comp>
    <comp name="--.HHN">
      <acc value="0.3796693866" flag="0"/>
      <vel value="0.2568963254" flag="0"/>
      <psa03 value="1.3314866951" flag="0"/>
      <psa10 value="0.3870956977" flag="0"/>
      <psa30 value="0.0317378112" flag="0"/>
    </comp>
  </station>
  <station code="NISR" name="NISR" netid="HL" insttype="65535" lat="36.6106" lon="27.131">
    <comp name="--.HHE">
      <acc value="0.0000000000" flag="0"/>
      <vel value="-100.0000000000" flag="0"/>
      <psa03 value="0.0000000000" flag="0"/>
      <psa10 value="0.0000000000" flag="0"/>
      <psa30 value="0.0000000000" flag="0"/>
    </comp>
    <comp name="--.HHZ">
      <acc value="0.0523459764" flag="0"/>
      <vel value="0.0396760423" flag="0"/>
      <psa03 value="0.1050354334" flag="0"/>
      <psa10 value="0.0489725333" flag="0"/>
      <psa30 value="0.0078717218" flag="0"/>
    </comp>
    <comp name="--.HHN">
      <acc value="0.1020523990" flag="0"/>
      <vel value="0.0858838753" flag="0"/>
      <psa03 value="0.1927100374" flag="0"/>
      <psa10 value="0.0716205491" flag="0"/>
      <psa30 value="0.0299996707" flag="0"/>
    </comp>
  </station>
  <station code="NISR2" name="NISR2" netid="HL" insttype="120" lat="36.5744" lon="27.1767">
    <comp name="--.HHE">
      <acc value="0.1489992081" flag="0"/>
      <vel value="0.1503096726" flag="0"/>
      <psa03 value="0.4048689622" flag="0"/>
      <psa10 value="0.2560975229" flag="0"/>
      <psa30 value="0.0221332881" flag="0"/>
    </comp>
    <comp name="--.HHN">
      <acc value="0.1833885283" flag="0"/>
      <vel value="0.1500802116" flag="0"/>
      <psa03 value="0.4841862900" flag="0"/>
      <psa10 value="0.2253287700" flag="0"/>
      <psa30 value="0.0248737755" flag="0"/>
    </comp>
    <comp name="--.HHZ">
      <acc value="0.0513662592" flag="0"/>
      <vel value="0.0441688398" flag="0"/>
      <psa03 value="0.1674124320" flag="0"/>
      <psa10 value="0.0619686067" flag="0"/>
      <psa30 value="0.0104011503" flag="0"/>
    </comp>
  </station>
  <station code="NPS" name="NPS" netid="HL" insttype="CMG3ESPC-120s" lat="35.2613" lon="25.6104">
    <comp name="--.HHE">
      <acc value="0.0365467279" flag="0"/>
      <vel value="0.0187780701" flag="0"/>
      <psa03 value="0.0706676588" flag="0"/>
      <psa10 value="0.0210591549" flag="0"/>
      <psa30 value="0.0033053231" flag="0"/>
    </comp>
    <comp name="--.HHN">
      <acc value="0.0651914567" flag="0"/>
      <vel value="0.0444212800" flag="0"/>
      <psa03 value="0.1519670790" flag="0"/>
      <psa10 value="0.0422819989" flag="0"/>
      <psa30 value="0.0059499278" flag="0"/>
    </comp>
    <comp name="--.HHZ">
      <acc value="0.0566667857" flag="0"/>
      <vel value="0.0359661722" flag="0"/>
      <psa03 value="0.1050871405" flag="0"/>
      <psa10 value="0.0238003265" flag="0"/>
      <psa30 value="0.0092800493" flag="0"/>
    </comp>
  </station>
  <station code="SAP3" name="SAP3" netid="HL" insttype="LE3D20_SMART24" lat="36.4356" lon="25.3454">
    <comp name="--.HHE">
      <acc value="3.6885615580" flag="0"/>
      <vel value="1.1835935468" flag="0"/>
      <psa03 value="4.9968529310" flag="0"/>
      <psa10 value="0.6364102268" flag="0"/>
      <psa30 value="0.3007064285" flag="0"/>
    </comp>
    <comp name="--.HHN">
      <acc value="2.9368459232" flag="0"/>
      <vel value="1.1155739062" flag="0"/>
      <psa03 value="3.8077916886" flag="0"/>
      <psa10 value="0.5948548702" flag="0"/>
      <psa30 value="0.2859283844" flag="0"/>
    </comp>
    <comp name="--.HHZ">
      <acc value="2.1751630033" flag="0"/>
      <vel value="0.6980508593" flag="0"/>
      <psa03 value="3.0105665971" flag="0"/>
      <psa10 value="0.3288036030" flag="0"/>
      <psa30 value="0.1174659091" flag="0"/>
    </comp>
  </station>
  <station code="SMG" name="SMG" netid="HL" insttype="120" lat="37.7043" lon="26.8377">
    <comp name="--.HHE">
      <acc value="0.1372878694" flag="0"/>
      <vel value="0.0547409293" flag="0"/>
      <psa03 value="0.4646338887" flag="0"/>
      <psa10 value="0.0339739474" flag="0"/>
      <psa30 value="0.0059099661" flag="0"/>
    </comp>
    <comp name="--.HHZ">
      <acc value="0.0425945861" flag="0"/>
      <vel value="0.0217187015" flag="0"/>
      <psa03 value="0.1185221624" flag="0"/>
      <psa10 value="0.0219594384" flag="0"/>
      <psa30 value="0.0029510606" flag="0"/>
    </comp>
  </station>
  <station code="THERA" name="THERA" netid="HL" insttype="120" lat="36.367" lon="25.4753">
    <comp name="--.HHE">
      <acc value="0.4937866288" flag="0"/>
      <vel value="0.1548030183" flag="0"/>
      <psa03 value="0.5525089063" flag="0"/>
      <psa10 value="0.0855020481" flag="0"/>
      <psa30 value="0.0419270707" flag="0"/>
    </comp>
    <comp name="--.HHZ">
      <acc value="0.4844692030" flag="0"/>
      <vel value="0.1617012283" flag="0"/>
      <psa03 value="0.7716412279" flag="0"/>
      <psa10 value="0.1007134687" flag="0"/>
      <psa30 value="0.0256366479" flag="0"/>
    </comp>
    <comp name="--.HHN">
      <acc value="0.5521255468" flag="0"/>
      <vel value="0.1441562812" flag="0"/>
      <psa03 value="0.6361307023" flag="0"/>
      <psa10 value="0.0565780927" flag="0"/>
      <psa30 value="0.0162199436" flag="0"/>
    </comp>
  </station>
  <station code="THRA" name="THRA" netid="HL" insttype="CMG-5" lat="36.415" lon="25.4324">
    <comp name="00.HNE">
      <acc value="2.2659654911" flag="0"/>
      <vel value="0.9141847351" flag="0"/>
      <psa03 value="6.3211538278" flag="0"/>
      <psa10 value="0.4447191875" flag="0"/>
      <psa30 value="0.1259418407" flag="0"/>
    </comp>
    <comp name="00.HNN">
      <acc value="1.8752989542" flag="0"/>
      <vel value="0.8775032383" flag="0"/>
      <psa03 value="5.3107872953" flag="0"/>
      <psa10 value="0.8361067580" flag="0"/>
      <psa30 value="0.1074707174" flag="0"/>
    </comp>
    <comp name="00.HNZ">
      <acc value="1.3846406065" flag="0"/>
      <vel value="0.5619198636" flag="0"/>
      <psa03 value="3.0566207246" flag="0"/>
      <psa10 value="0.3219217627" flag="0"/>
      <psa30 value="0.0379642806" flag="0"/>
    </comp>
  </station>
  <station code="TNSA" name="TNSA" netid="HL" insttype="CMG-5" lat="37.5394" lon="25.1631">
    <comp name="00.HNE">
      <acc value="0.2560201518" flag="0"/>
      <vel value="0.1004605863" flag="0"/>
      <psa03 value="0.4793817491" flag="0"/>
      <psa10 value="0.0630514873" flag="0"/>
      <psa30 value="0.0133292730" flag="0"/>
    </comp>
    <comp name="00.HNZ">
      <acc value="0.1659918300" flag="0"/>
      <vel value="0.1281729067" flag="0"/>
      <psa03 value="0.4685785261" flag="0"/>
      <psa10 value="0.0729320735" flag="0"/>
      <psa30 value="0.0205386756" flag="0"/>
    </comp>
  </station>
  <station code="DAT" name="DAT" netid="KO" insttype="CMG-3T" lat="36.7308" lon="27.5767">
    <comp name="--.HHE">
      <acc value="0.0109455606" flag="0"/>
      <vel value="0.0145572085" flag="0"/>
      <psa03 value="0.0233253895" flag="0"/>
      <psa10 value="0.0144775898" flag="0"/>
      <psa30 value="0.0067177798" flag="0"/>
    </comp>
    <comp name="--.HHN">
      <acc value="0.0167575512" flag="0"/>
      <vel value="0.0174982558" flag="0"/>
      <psa03 value="0.0403195171" flag="0"/>
      <psa10 value="0.0189760962" flag="0"/>
      <psa30 value="0.0081525168" flag="0"/>
    </comp>
    <comp name="--.HHZ">
      <acc value="0.0000304889" flag="0"/>
      <vel value="0.0000034018" flag="0"/>
      <psa03 value="0.0000126263" flag="0"/>
      <psa10 value="0.0000044041" flag="0"/>
      <psa30 value="0.0000007263" flag="0"/>
    </comp>
  </station>
  <station code="IDI" name="IDI" netid="MN" insttype="" lat="35.288" lon="24.89">
    <comp name="--.HHE">
      <acc value="0.0461577573" flag="0"/>
      <vel value="0.0328495554" flag="0"/>
      <psa03 value="0.1238263111" flag="0"/>
      <psa10 value="0.0151941613" flag="0"/>
      <psa30 value="0.0043149422" flag="0"/>
    </comp>
    <comp name="--.HHZ">
      <acc value="0.0399107661" flag="0"/>
      <vel value="0.0262168847" flag="0"/>
      <psa03 value="0.1060895429" flag="0"/>
      <psa10 value="0.0195227611" flag="0"/>
      <psa30 value="0.0025827393" flag="0"/>
    </comp>
    <comp name="--.HHN">
      <acc value="0.0596374136" flag="0"/>
      <vel value="0.0243494668" flag="0"/>
      <psa03 value="0.1281317022" flag="0"/>
      <psa10 value="0.0190064934" flag="0"/>
      <psa30 value="0.0042613282" flag="0"/>
    </comp>
  </station>
</stationlist>
