<?xml version="1.0" encoding="UTF-8" standalone="yes"?>
<!DOCTYPE earthquake SYSTEM "stationlist.dtd">
<stationlist created="" xmlns="ch.ethz.sed.shakemap.usgs.xml">
  <station code="APE" name="APE" netid="GE" insttype="STS-2/N" lat="37.0727" lon="25.523">
    <comp name="--.HHE">
      <acc value="0.6245091059" flag="0"/>
      <vel value="0.1897092080" flag="0"/>
      <psa03 value="0.6299778276" flag="0"/>
      <psa10 value="0.1209031427" flag="0"/>
      <psa30 value="0.0424444867" flag="0"/>
    </comp>
    <comp name="--.HHN">
      <acc value="0.8672388937" flag="0"/>
      <vel value="0.2008489853" flag="0"/>
      <psa03 value="0.4363384506" flag="0"/>
      <psa10 value="0.1208226256" flag="0"/>
      <psa30 value="0.0448375204" flag="0"/>
    </comp>
    <comp name="--.HHZ">
      <acc value="0.2900453478" flag="0"/>
      <vel value="0.1096652404" flag="0"/>
      <psa03 value="0.5016952763" flag="0"/>
      <psa10 value="0.0781977178" flag="0"/>
      <psa30 value="0.0482388378" flag="0"/>
    </comp>
  </station>
  <station code="THERA" name="THERA" netid="GE" insttype="STS-2/N" lat="36.367" lon="25.4753">
    <comp name="--.HHE">
      <acc value="0.5029983607" flag="0"/>
      <vel value="0.1587524716" flag="0"/>
      <psa03 value="0.5674664118" flag="0"/>
      <psa10 value="0.0863408688" flag="0"/>
      <psa30 value="0.0419190260" flag="0"/>
    </comp>
    <comp name="--.HHN">
      <acc value="0.5502726912" flag="0"/>
      <vel value="0.1482245516" flag="0"/>
      <psa03 value="0.6543711945" flag="0"/>
      <psa10 value="0.0571884877" flag="0"/>
      <psa30 value="0.0162260605" flag="0"/>
    </comp>
    <comp name="--.HHZ">
      <acc value="0.5000875995" flag="0"/>
      <vel value="0.1649014532" flag="0"/>
      <psa03 value="0.7921591622" flag="0"/>
      <psa10 value="0.1019686269" flag="0"/>
      <psa30 value="0.0256381889" flag="0"/>
    </comp>
  </station>
  <station code="ZKR" name="ZKR" netid="GE" insttype="STS-2/N" lat="35.1147" lon="26.2169">
    <comp name="--.HHE">
      <acc value="0.0286751789" flag="0"/>
      <vel value="0.0207056364" flag="0"/>
      <psa03 value="0.0919209621" flag="0"/>
      <psa10 value="0.0339921311" flag="0"/>
      <psa30 value="0.0050517412" flag="0"/>
    </comp>
    <comp name="--.HHN">
      <acc value="0.0111262796" flag="0"/>
      <vel value="0.0108110361" flag="0"/>
      <psa03 value="0.0271758147" flag="0"/>
      <psa10 value="0.0146045564" flag="0"/>
      <psa30 value="0.0025579882" flag="0"/>
    </comp>
    <comp name="--.HHZ">
      <acc value="0.0194229645" flag="0"/>
      <vel value="0.0168733995" flag="0"/>
      <psa03 value="0.0419056152" flag="0"/>
      <psa10 value="0.0173579648" flag="0"/>
      <psa30 value="0.0052824651" flag="0"/>
    </comp>
  </station>
  <station code="DAT" name="DAT" netid="KO" insttype="CMG-3T" lat="36.7308" lon="27.5767">
    <comp name="--.HHE">
      <acc value="0.0109455606" flag="0"/>
      <vel value="0.0145572085" flag="0"/>
      <psa03 value="0.0233253895" flag="0"/>
      <psa10 value="0.0144775898" flag="0"/>
      <psa30 value="0.0067177798" flag="0"/>
    </comp>
    <comp name="--.HHN">
      <acc value="0.0167575512" flag="0"/>
      <vel value="0.0174982558" flag="0"/>
      <psa03 value="0.0403195171" flag="0"/>
      <psa10 value="0.0189760962" flag="0"/>
      <psa30 value="0.0081525168" flag="0"/>
    </comp>
    <comp name="--.HHZ">
      <acc value="0.0000304889" flag="0"/>
      <vel value="0.0000034018" flag="0"/>
      <psa03 value="0.0000126263" flag="0"/>
      <psa10 value="0.0000044041" flag="0"/>
      <psa30 value="0.0000007263" flag="0"/>
    </comp>
  </station>
  <station code="IDI" name="IDI" netid="MN" insttype="" lat="35.288" lon="24.89">
    <comp name="--.HHE">
      <acc value="0.0461577573" flag="0"/>
      <vel value="0.0328495554" flag="0"/>
      <psa03 value="0.1238263111" flag="0"/>
      <psa10 value="0.0151941613" flag="0"/>
      <psa30 value="0.0043149422" flag="0"/>
    </comp>
    <comp name="--.HHZ">
      <acc value="0.0399107661" flag="0"/>
      <vel value="0.0262168847" flag="0"/>
      <psa03 value="0.1060895429" flag="0"/>
      <psa10 value="0.0195227611" flag="0"/>
      <psa30 value="0.0025827393" flag="0"/>
    </comp>
    <comp name="--.HHN">
      <acc value="0.0596374136" flag="0"/>
      <vel value="0.0243494668" flag="0"/>
      <psa03 value="0.1281317022" flag="0"/>
      <psa10 value="0.0190064934" flag="0"/>
      <psa30 value="0.0042613282" flag="0"/>
    </comp>
  </station>
</stationlist>
