<?xml version="1.0" encoding="UTF-8" standalone="yes"?>
<!DOCTYPE earthquake SYSTEM "stationlist.dtd">
<stationlist created="" xmlns="ch.ethz.sed.shakemap.usgs.xml">
  <station code="SPA0" name="SPA0" netid="NO" insttype="CMG-3T" commtype="DIG" lat="78.1777" lon="16.37">
    <comp name="00.HHZ">
      <acc value="0.0045297126" flag="0"/>
      <vel value="0.0009094011" flag="0"/>
      <psa03 value="0.0021754857" flag="0"/>
      <psa10 value="0.0009085559" flag="0"/>
      <psa30 value="0.0000552636" flag="0"/>
    </comp>
    <comp name="00.HHE">
      <acc value="0.0030790747" flag="0"/>
      <vel value="0.0005180346" flag="0"/>
      <psa03 value="0.0014586634" flag="0"/>
      <psa10 value="0.0006111547" flag="0"/>
      <psa30 value="0.0000531524" flag="0"/>
    </comp>
    <comp name="00.HHN">
      <acc value="0.0017339708" flag="0"/>
      <vel value="0.0002629937" flag="0"/>
      <psa03 value="0.0007550067" flag="0"/>
      <psa10 value="0.0004801422" flag="0"/>
      <psa30 value="0.0000315669" flag="0"/>
    </comp>
  </station>
  <station code="SPA1" name="SPA1" netid="NO" insttype="CMG-3T" commtype="DIG" lat="78.1797" lon="16.3755">
    <comp name="00.HHZ">
      <acc value="0.0049231864" flag="0"/>
      <vel value="0.0007246015" flag="0"/>
      <psa03 value="0.0019237571" flag="0"/>
      <psa10 value="0.0008642688" flag="0"/>
      <psa30 value="0.0000502693" flag="0"/>
    </comp>
  </station>
  <station code="SPA2" name="SPA2" netid="NO" insttype="CMG-3T" commtype="DIG" lat="78.1759" lon="16.3766">
    <comp name="00.HHZ">
      <acc value="0.0051461699" flag="0"/>
      <vel value="0.0011142793" flag="0"/>
      <psa03 value="0.0023779700" flag="0"/>
      <psa10 value="0.0008087098" flag="0"/>
      <psa30 value="0.0000505865" flag="0"/>
    </comp>
  </station>
  <station code="SPA3" name="SPA3" netid="NO" insttype="CMG-3T" commtype="DIG" lat="78.1773" lon="16.3588">
    <comp name="00.HHZ">
      <acc value="0.0036947767" flag="0"/>
      <vel value="0.0009956604" flag="0"/>
      <psa03 value="0.0022385333" flag="0"/>
      <psa10 value="0.0009311314" flag="0"/>
      <psa30 value="0.0000552260" flag="0"/>
    </comp>
  </station>
  <station code="SPB1" name="SPB1" netid="NO" insttype="CMG-3T" commtype="DIG" lat="78.1796" lon="16.3906">
    <comp name="00.HHZ">
      <acc value="0.0055825958" flag="0"/>
      <vel value="0.0009421431" flag="0"/>
      <psa03 value="0.0018322685" flag="0"/>
      <psa10 value="0.0007919303" flag="0"/>
      <psa30 value="0.0000455998" flag="0"/>
    </comp>
    <comp name="00.HHE">
      <acc value="0.0022343625" flag="0"/>
      <vel value="0.0003464569" flag="0"/>
      <psa03 value="0.0013841602" flag="0"/>
      <psa10 value="0.0004361544" flag="0"/>
      <psa30 value="0.0000458506" flag="0"/>
    </comp>
    <comp name="00.HHN">
      <acc value="0.0019062754" flag="0"/>
      <vel value="0.0003624553" flag="0"/>
      <psa03 value="0.0007765254" flag="0"/>
      <psa10 value="0.0005667034" flag="0"/>
      <psa30 value="0.0000545784" flag="0"/>
    </comp>
  </station>
  <station code="SPB2" name="SPB2" netid="NO" insttype="CMG-3T" commtype="DIG" lat="78.1742" lon="16.3846">
    <comp name="00.HHE">
      <acc value="0.0017596137" flag="0"/>
      <vel value="0.0003390287" flag="0"/>
      <psa03 value="0.0019119163" flag="0"/>
      <psa10 value="0.0004414142" flag="0"/>
      <psa30 value="0.0000414992" flag="0"/>
    </comp>
    <comp name="00.HHN">
      <acc value="0.0025931903" flag="0"/>
      <vel value="0.0005212606" flag="0"/>
      <psa03 value="0.0010756832" flag="0"/>
      <psa10 value="0.0005071405" flag="0"/>
      <psa30 value="0.0000407441" flag="0"/>
    </comp>
    <comp name="00.HHZ">
      <acc value="0.0051506552" flag="0"/>
      <vel value="0.0012681316" flag="0"/>
      <psa03 value="0.0024500649" flag="0"/>
      <psa10 value="0.0007897420" flag="0"/>
      <psa30 value="0.0000427304" flag="0"/>
    </comp>
  </station>
  <station code="SPB3" name="SPB3" netid="NO" insttype="CMG-3T" commtype="DIG" lat="78.1737" lon="16.3584">
    <comp name="00.HHE">
      <acc value="0.0018290569" flag="0"/>
      <vel value="0.0004395239" flag="0"/>
      <psa03 value="0.0010666482" flag="0"/>
      <psa10 value="0.0005762708" flag="0"/>
      <psa30 value="0.0000368296" flag="0"/>
    </comp>
    <comp name="00.HHN">
      <acc value="0.0018701251" flag="0"/>
      <vel value="0.0004036287" flag="0"/>
      <psa03 value="0.0015692297" flag="0"/>
      <psa10 value="0.0004123010" flag="0"/>
      <psa30 value="0.0000409502" flag="0"/>
    </comp>
    <comp name="00.HHZ">
      <acc value="0.0037739439" flag="0"/>
      <vel value="0.0009659303" flag="0"/>
      <psa03 value="0.0025269469" flag="0"/>
      <psa10 value="0.0008028335" flag="0"/>
      <psa30 value="0.0000551544" flag="0"/>
    </comp>
  </station>
  <station code="SPB4" name="SPB4" netid="NO" insttype="CMG-3T" commtype="DIG" lat="78.1789" lon="16.3482">
    <comp name="00.HHZ">
      <acc value="0.0052650413" flag="0"/>
      <vel value="0.0012316071" flag="0"/>
      <psa03 value="0.0022382671" flag="0"/>
      <psa10 value="0.0016269924" flag="0"/>
      <psa30 value="0.0000890000" flag="0"/>
    </comp>
    <comp name="00.HHE">
      <acc value="0.0014262684" flag="0"/>
      <vel value="0.0002736617" flag="0"/>
      <psa03 value="0.0009562018" flag="0"/>
      <psa10 value="0.0004041048" flag="0"/>
      <psa30 value="0.0000447063" flag="0"/>
    </comp>
    <comp name="00.HHN">
      <acc value="0.0013260849" flag="0"/>
      <vel value="0.0003251996" flag="0"/>
      <psa03 value="0.0008110421" flag="0"/>
      <psa10 value="0.0006151536" flag="0"/>
      <psa30 value="0.0000504997" flag="0"/>
    </comp>
  </station>
  <station code="SPB5" name="SPB5" netid="NO" insttype="CMG-3T" commtype="DIG" lat="78.1823" lon="16.3683">
    <comp name="00.HHZ">
      <acc value="0.0084331112" flag="0"/>
      <vel value="0.0017347112" flag="0"/>
      <psa03 value="0.0023802485" flag="0"/>
      <psa10 value="0.0007947524" flag="0"/>
      <psa30 value="0.0000412027" flag="0"/>
    </comp>
    <comp name="00.HHN">
      <acc value="0.0015688603" flag="0"/>
      <vel value="0.0003186234" flag="0"/>
      <psa03 value="0.0007167057" flag="0"/>
      <psa10 value="0.0005288844" flag="0"/>
      <psa30 value="0.0000501551" flag="0"/>
    </comp>
    <comp name="00.HHE">
      <acc value="0.0014679843" flag="0"/>
      <vel value="0.0002684856" flag="0"/>
      <psa03 value="0.0012009330" flag="0"/>
      <psa10 value="0.0003847312" flag="0"/>
      <psa30 value="0.0000431956" flag="0"/>
    </comp>
  </station>
</stationlist>
