<?xml version="1.0" encoding="UTF-8" standalone="yes"?>
<!DOCTYPE earthquake SYSTEM "stationlist.dtd">
<stationlist created="" xmlns="ch.ethz.sed.shakemap.usgs.xml">
  <station code="RDI1" name="RDI1" netid="HI" insttype="CMG-5TD,ACCELEROMETER,GURALP" lat="36.4514" lon="28.224">
    <comp name="--.HNE">
      <acc value="0.0775777039" flag="0"/>
      <vel value="0.0689906415" flag="0"/>
      <psa03 value="0.2242530918" flag="0"/>
      <psa10 value="0.0974457270" flag="0"/>
      <psa30 value="0.0188455671" flag="0"/>
    </comp>
    <comp name="--.HNN">
      <acc value="0.0673037128" flag="0"/>
      <vel value="0.0542433434" flag="0"/>
      <psa03 value="0.2387707756" flag="0"/>
      <psa10 value="0.0954831330" flag="0"/>
      <psa30 value="0.0126137846" flag="0"/>
    </comp>
    <comp name="--.HNZ">
      <acc value="0.0573622881" flag="0"/>
      <vel value="0.0422848328" flag="0"/>
      <psa03 value="0.1710606380" flag="0"/>
      <psa10 value="0.0544633314" flag="0"/>
      <psa30 value="0.0088482420" flag="0"/>
    </comp>
  </station>
  <station code="ARG" name="ARG" netid="HL" insttype="LE3D20_DR24" lat="36.2136" lon="28.1212">
    <comp name="--.HHE">
      <acc value="0.0636659650" flag="0"/>
      <vel value="0.0295459676" flag="0"/>
      <psa03 value="0.2620478699" flag="0"/>
      <psa10 value="0.0146434087" flag="0"/>
      <psa30 value="0.0020106710" flag="0"/>
    </comp>
    <comp name="--.HHN">
      <acc value="0.0289403028" flag="0"/>
      <vel value="0.0149339449" flag="0"/>
      <psa03 value="0.0789963732" flag="0"/>
      <psa10 value="0.0184784703" flag="0"/>
      <psa30 value="0.0024078057" flag="0"/>
    </comp>
    <comp name="--.HHZ">
      <acc value="0.0187458200" flag="0"/>
      <vel value="0.0148085056" flag="0"/>
      <psa03 value="0.0548571956" flag="0"/>
      <psa10 value="0.0144548378" flag="0"/>
      <psa30 value="0.0026052326" flag="0"/>
    </comp>
  </station>
  <station code="KSL" name="KSL" netid="HL" insttype="60" lat="36.1503" lon="29.5856">
    <comp name="--.HHE">
      <acc value="0.0221631063" flag="0"/>
      <vel value="0.0189101726" flag="0"/>
      <psa03 value="0.0683760406" flag="0"/>
      <psa10 value="0.0182520355" flag="0"/>
      <psa30 value="0.0022735293" flag="0"/>
    </comp>
    <comp name="--.HHN">
      <acc value="0.0264874193" flag="0"/>
      <vel value="0.0175730574" flag="0"/>
      <psa03 value="0.0704404681" flag="0"/>
      <psa10 value="0.0171914786" flag="0"/>
      <psa30 value="0.0022165261" flag="0"/>
    </comp>
    <comp name="--.HHZ">
      <acc value="0.0160290368" flag="0"/>
      <vel value="0.0151818783" flag="0"/>
      <psa03 value="0.0686121181" flag="0"/>
      <psa10 value="0.0113704087" flag="0"/>
      <psa30 value="0.0012784661" flag="0"/>
    </comp>
  </station>
  <station code="RODB" name="RODB" netid="HL" insttype="CMG-5" lat="36.4471" lon="28.2212">
    <comp name="00.HNE">
      <acc value="0.0610088508" flag="0"/>
      <vel value="0.0609293151" flag="0"/>
      <psa03 value="0.2871059469" flag="0"/>
      <psa10 value="0.0535078657" flag="0"/>
      <psa30 value="0.0152747719" flag="0"/>
    </comp>
    <comp name="00.HNN">
      <acc value="0.0731000817" flag="0"/>
      <vel value="0.0613942051" flag="0"/>
      <psa03 value="0.2475370105" flag="0"/>
      <psa10 value="0.0703296774" flag="0"/>
      <psa30 value="0.0179045963" flag="0"/>
    </comp>
    <comp name="00.HNZ">
      <acc value="0.0537784806" flag="0"/>
      <vel value="0.0389267947" flag="0"/>
      <psa03 value="0.1509742228" flag="0"/>
      <psa10 value="0.0631206039" flag="0"/>
      <psa30 value="0.0072629217" flag="0"/>
    </comp>
  </station>
  <station code="DATC" name="DATC" netid="KO" insttype="100" lat="36.7584" lon="27.6602">
    <comp name="--.HNE">
      <acc value="1.2506361056" flag="0"/>
      <vel value="0.9139982908" flag="0"/>
      <psa03 value="2.9019812002" flag="0"/>
      <psa10 value="1.2748392813" flag="0"/>
      <psa30 value="0.0734971190" flag="0"/>
    </comp>
    <comp name="--.HNN">
      <acc value="1.5138259976" flag="0"/>
      <vel value="0.7897180492" flag="0"/>
      <psa03 value="4.2201012094" flag="0"/>
      <psa10 value="1.0947854416" flag="0"/>
      <psa30 value="0.0395532888" flag="0"/>
    </comp>
    <comp name="--.HNZ">
      <acc value="1.0743738839" flag="0"/>
      <vel value="0.5079150252" flag="0"/>
      <psa03 value="2.3742592935" flag="0"/>
      <psa10 value="0.3711802752" flag="0"/>
      <psa30 value="0.0276407691" flag="0"/>
    </comp>
  </station>
</stationlist>
