<stationlist created="1778069375">
	<station code="KARP" name="KARP" netid="GE" source="GEOFON" insttype="" lat="35.5471" lon="27.16106">
		<comp name="--.HNE" depth="0.0">
			<acc value="0.0146638768644868" flag="0"/>
			<vel value="0.00764027737076345" flag="0"/>
			<psa03 value="0.0557935316529849" flag="0"/>
			<psa10 value="0.00966834342814234" flag="0"/>
			<psa30 value="0.00114495306736157" flag="0"/>
		</comp>
		<comp name="--.HNN" depth="0.0">
			<acc value="0.0184311298880292" flag="0"/>
			<vel value="0.00991245284286841" flag="0"/>
			<psa03 value="0.0626838314721987" flag="0"/>
			<psa10 value="0.014870967213715" flag="0"/>
			<psa30 value="0.000769118531768091" flag="0"/>
		</comp>
		<comp name="--.HNZ" depth="0.0">
			<acc value="0.0136614049545969" flag="0"/>
			<vel value="0.00739558437819158" flag="0"/>
			<psa03 value="0.0345857257159241" flag="0"/>
			<psa10 value="0.0078442036643154" flag="0"/>
			<psa30 value="0.000625943470589622" flag="0"/>
		</comp>
	</station>
	<station code="KRL1" name="KRL1" netid="HI" source="ITSAK Strong Motion Network" insttype="" lat="37.7951" lon="26.7065">
		<comp name="--.HNE" depth="0.0">
			<acc value="0.0143324334748013" flag="0"/>
			<vel value="0.0154458186717163" flag="0"/>
			<psa03 value="0.0323038731783922" flag="0"/>
			<psa10 value="0.0277768567127555" flag="0"/>
			<psa30 value="0.00140043106715191" flag="0"/>
		</comp>
		<comp name="--.HNN" depth="0.0">
			<acc value="0.0154460260905953" flag="0"/>
			<vel value="0.0170721127159227" flag="0"/>
			<psa03 value="0.0381651022453858" flag="0"/>
			<psa10 value="0.0423860820177536" flag="0"/>
			<psa30 value="0.00244784612408565" flag="0"/>
		</comp>
		<comp name="--.HNZ" depth="0.0">
			<acc value="0.0104017937011928" flag="0"/>
			<vel value="0.0117159051441629" flag="0"/>
			<psa03 value="0.0172704917546529" flag="0"/>
			<psa10 value="0.0264560667733841" flag="0"/>
			<psa30 value="0.00149662681138119" flag="0"/>
		</comp>
	</station>
	<station code="RDI1" name="RDI1" netid="HI" source="ITSAK Strong Motion Network" insttype="" lat="36.4514" lon="28.224">
		<comp name="--.HNE" depth="0.0">
			<acc value="0.0779137080128387" flag="0"/>
			<vel value="0.0709429167274987" flag="0"/>
			<psa03 value="0.224516392810488" flag="0"/>
			<psa10 value="0.097549195979487" flag="0"/>
			<psa30 value="0.0218176422132679" flag="0"/>
		</comp>
		<comp name="--.HNN" depth="0.0">
			<acc value="0.0675506082362963" flag="0"/>
			<vel value="0.0600139809488762" flag="0"/>
			<psa03 value="0.238923383341571" flag="0"/>
			<psa10 value="0.0954512339111562" flag="0"/>
			<psa30 value="0.0148092229685818" flag="0"/>
		</comp>
		<comp name="--.HNZ" depth="0.0">
			<acc value="0.0570087250786389" flag="0"/>
			<vel value="0.0418980423917941" flag="0"/>
			<psa03 value="0.171675846794309" flag="0"/>
			<psa10 value="0.0546476837414909" flag="0"/>
			<psa30 value="0.0101309778445753" flag="0"/>
		</comp>
	</station>
	<station code="KARP" name="KARP" netid="HL" source="National Observatory of Athens Seismic Network" insttype="" lat="35.5471" lon="27.16106">
		<comp name="--.HNE" depth="0.0">
			<acc value="0.0143661863699591" flag="0"/>
			<vel value="0.00748515867627922" flag="0"/>
			<psa03 value="0.0546749764875281" flag="0"/>
			<psa10 value="0.00947505709555141" flag="0"/>
			<psa30 value="0.00112168711992007" flag="0"/>
		</comp>
		<comp name="--.HNN" depth="0.0">
			<acc value="0.0180569208227795" flag="0"/>
			<vel value="0.00971116085207485" flag="0"/>
			<psa03 value="0.0613863074802689" flag="0"/>
			<psa10 value="0.0145689573190416" flag="0"/>
			<psa30 value="0.000753458759451696" flag="0"/>
		</comp>
		<comp name="--.HNZ" depth="0.0">
			<acc value="0.0133840391643877" flag="0"/>
			<vel value="0.00724544379352173" flag="0"/>
			<psa03 value="0.0338698504100317" flag="0"/>
			<psa10 value="0.00768313172048962" flag="0"/>
			<psa30 value="0.000613415652736506" flag="0"/>
		</comp>
	</station>
	<station code="KSL" name="KSL" netid="HL" source="National Observatory of Athens Seismic Network" insttype="" lat="36.15031" lon="29.58561">
		<comp name="00.HNE" depth="0.0">
			<acc value="0.0227159312807704" flag="0"/>
			<vel value="0.0194591518532251" flag="0"/>
			<psa03 value="0.0703347488039232" flag="0"/>
			<psa10 value="0.0183541479989474" flag="0"/>
			<psa30 value="0.00279683533570817" flag="0"/>
		</comp>
		<comp name="00.HNN" depth="0.0">
			<acc value="0.0257756332377839" flag="0"/>
			<vel value="0.0172414035531677" flag="0"/>
			<psa03 value="0.0685003183325741" flag="0"/>
			<psa10 value="0.016920607698898" flag="0"/>
			<psa30 value="0.00249527286310102" flag="0"/>
		</comp>
		<comp name="00.HNZ" depth="0.0">
			<acc value="0.0162830859097077" flag="0"/>
			<vel value="0.0147138001393926" flag="0"/>
			<psa03 value="0.0673817631671173" flag="0"/>
			<psa10 value="0.0113998668242695" flag="0"/>
			<psa30 value="0.00140132591128427" flag="0"/>
		</comp>
	</station>
	<station code="RODB" name="RODB" netid="HL" source="National Observatory of Athens Seismic Network" insttype="" lat="36.4471" lon="28.22116">
		<comp name="00.HNE" depth="0.0">
			<acc value="0.061053252128911" flag="0"/>
			<vel value="0.0649065640120905" flag="0"/>
			<psa03 value="0.288318779448143" flag="0"/>
			<psa10 value="0.0530973662821678" flag="0"/>
			<psa30 value="0.0180870370254364" flag="0"/>
		</comp>
		<comp name="00.HNN" depth="0.0">
			<acc value="0.0732171597179898" flag="0"/>
			<vel value="0.0654487001720321" flag="0"/>
			<psa03 value="0.245858425367403" flag="0"/>
			<psa10 value="0.0709964860398074" flag="0"/>
			<psa30 value="0.0202888010131215" flag="0"/>
		</comp>
		<comp name="00.HNZ" depth="0.0">
			<acc value="0.0530573371639669" flag="0"/>
			<vel value="0.042069488908178" flag="0"/>
			<psa03 value="0.150468040857248" flag="0"/>
			<psa10 value="0.0629549692443055" flag="0"/>
			<psa30 value="0.00789252524746314" flag="0"/>
		</comp>
	</station>
	<station code="BASM" name="BASM" netid="KO" source="Bogazici University Kandilli Observatory And Earthquake Research Institute (KOERI)" insttype="" lat="37.9194" lon="30.035">
		<comp name="--.HNE" depth="0.0">
			<acc value="0.0342197229372365" flag="0"/>
			<vel value="0.0544765058409061" flag="0"/>
			<psa03 value="0.0619232139596881" flag="0"/>
			<psa10 value="0.0845144489253859" flag="0"/>
			<psa30 value="0.0156848279521013" flag="0"/>
		</comp>
		<comp name="--.HNN" depth="0.0">
			<acc value="0.0281464470749949" flag="0"/>
			<vel value="0.041600878631489" flag="0"/>
			<psa03 value="0.0675159897869721" flag="0"/>
			<psa10 value="0.0581791861098711" flag="0"/>
			<psa30 value="0.00773950690082865" flag="0"/>
		</comp>
		<comp name="--.HNZ" depth="0.0">
			<acc value="0.0171654306521689" flag="0"/>
			<vel value="0.0192902024909188" flag="0"/>
			<psa03 value="0.0433551982131053" flag="0"/>
			<psa10 value="0.0368129927613816" flag="0"/>
			<psa30 value="0.00599903506337788" flag="0"/>
		</comp>
	</station>
	<station code="CAME" name="CAME" netid="KO" source="Bogazici University Kandilli Observatory And Earthquake Research Institute (KOERI)" insttype="" lat="36.9435" lon="29.3023">
		<comp name="--.HNE" depth="0.0">
			<acc value="0.244644232873751" flag="0"/>
			<vel value="0.101906794228798" flag="0"/>
			<psa03 value="0.502857660182756" flag="0"/>
			<psa10 value="0.0703079034799522" flag="0"/>
			<psa30 value="0.00734846001498495" flag="0"/>
		</comp>
		<comp name="--.HNN" depth="0.0">
			<acc value="0.183020780497063" flag="0"/>
			<vel value="0.0660572030444138" flag="0"/>
			<psa03 value="0.467242863714612" flag="0"/>
			<psa10 value="0.0473632050819701" flag="0"/>
			<psa30 value="0.00620753374621902" flag="0"/>
		</comp>
		<comp name="--.HNZ" depth="0.0">
			<acc value="0.0885139832626908" flag="0"/>
			<vel value="0.0646129356125236" flag="0"/>
			<psa03 value="0.161385139272106" flag="0"/>
			<psa10 value="0.0465216041754804" flag="0"/>
			<psa30 value="0.00473462030434552" flag="0"/>
		</comp>
	</station>
	<station code="DATC" name="DATC" netid="KO" source="Bogazici University Kandilli Observatory And Earthquake Research Institute (KOERI)" insttype="" lat="36.7584" lon="27.6602">
		<comp name="--.HNE" depth="0.0">
			<acc value="1.24854198607533" flag="0"/>
			<vel value="0.915919767834065" flag="0"/>
			<psa03 value="2.91334404174215" flag="0"/>
			<psa10 value="1.27569784869736" flag="0"/>
			<psa30 value="0.0768492140875436" flag="0"/>
		</comp>
		<comp name="--.HNN" depth="0.0">
			<acc value="1.52791988815596" flag="0"/>
			<vel value="0.800937913746556" flag="0"/>
			<psa03 value="4.24751190089239" flag="0"/>
			<psa10 value="1.0965777935659" flag="0"/>
			<psa30 value="0.0397140774385104" flag="0"/>
		</comp>
		<comp name="--.HNZ" depth="0.0">
			<acc value="1.06205390390687" flag="0"/>
			<vel value="0.504860634510274" flag="0"/>
			<psa03 value="2.39764536825995" flag="0"/>
			<psa10 value="0.371947332682487" flag="0"/>
			<psa30 value="0.0295392522314492" flag="0"/>
		</comp>
	</station>
	<station code="FETI" name="FETI" netid="KO" source="Bogazici University Kandilli Observatory And Earthquake Research Institute (KOERI)" insttype="" lat="36.6903" lon="29.096">
		<comp name="--.HNE" depth="0.0">
			<acc value="0.41895612135623" flag="0"/>
			<vel value="0.232509823218421" flag="0"/>
			<psa03 value="0.517846299399877" flag="0"/>
			<psa10 value="0.191156156133838" flag="0"/>
			<psa30 value="0.0148781259667739" flag="0"/>
		</comp>
		<comp name="--.HNN" depth="0.0">
			<acc value="0.380880616933192" flag="0"/>
			<vel value="0.24043296565117" flag="0"/>
			<psa03 value="0.820035162899685" flag="0"/>
			<psa10 value="0.200590945243433" flag="0"/>
			<psa30 value="0.0120003072370867" flag="0"/>
		</comp>
		<comp name="--.HNZ" depth="0.0">
			<acc value="0.329687770021287" flag="0"/>
			<vel value="0.206496093860723" flag="0"/>
			<psa03 value="0.592476300039155" flag="0"/>
			<psa10 value="0.161373953720452" flag="0"/>
			<psa30 value="0.0153608943761851" flag="0"/>
		</comp>
	</station>
	<station code="GORD" name="GORD" netid="KO" source="Bogazici University Kandilli Observatory And Earthquake Research Institute (KOERI)" insttype="" lat="38.9088" lon="28.1769">
		<comp name="--.HNE" depth="0.0">
			<acc value="0.0201276545204887" flag="0"/>
			<vel value="0.0195934089240825" flag="0"/>
			<psa03 value="0.0424156118741216" flag="0"/>
			<psa10 value="0.0319848612452039" flag="0"/>
			<psa30 value="0.00555787690612172" flag="0"/>
		</comp>
		<comp name="--.HNN" depth="0.0">
			<acc value="0.020297042751424" flag="0"/>
			<vel value="0.021576904930908" flag="0"/>
			<psa03 value="0.0609836276207044" flag="0"/>
			<psa10 value="0.0527873027903032" flag="0"/>
			<psa30 value="0.0052321536419407" flag="0"/>
		</comp>
		<comp name="--.HNZ" depth="0.0">
			<acc value="0.0208760211591456" flag="0"/>
			<vel value="0.0199597947006075" flag="0"/>
			<psa03 value="0.0451001442712179" flag="0"/>
			<psa10 value="0.0325445862499985" flag="0"/>
			<psa30 value="0.00383395968511971" flag="0"/>
		</comp>
	</station>
	<station code="NAZL" name="NAZL" netid="KO" source="Bogazici University Kandilli Observatory And Earthquake Research Institute (KOERI)" insttype="" lat="37.9641" lon="28.2922">
		<comp name="--.HNE" depth="0.0">
			<acc value="0.263380987841266" flag="0"/>
			<vel value="0.182859675726072" flag="0"/>
			<psa03 value="0.806612500914203" flag="0"/>
			<psa10 value="0.202640585728616" flag="0"/>
			<psa30 value="0.0145336109758132" flag="0"/>
		</comp>
		<comp name="--.HNN" depth="0.0">
			<acc value="0.27204893239265" flag="0"/>
			<vel value="0.234758435354241" flag="0"/>
			<psa03 value="0.66741949612476" flag="0"/>
			<psa10 value="0.168682593171546" flag="0"/>
			<psa30 value="0.0105877957741478" flag="0"/>
		</comp>
		<comp name="--.HNZ" depth="0.0">
			<acc value="0.11845479851035" flag="0"/>
			<vel value="0.0660852568303485" flag="0"/>
			<psa03 value="0.381740506867095" flag="0"/>
			<psa10 value="0.0491551304570319" flag="0"/>
			<psa30 value="0.0060527257113198" flag="0"/>
		</comp>
	</station>
	<station code="ODEM" name="ODEM" netid="KO" source="Bogazici University Kandilli Observatory And Earthquake Research Institute (KOERI)" insttype="" lat="38.2762" lon="28.0747">
		<comp name="--.HNE" depth="0.0">
			<acc value="0.0494161705792968" flag="0"/>
			<vel value="0.0537390960158525" flag="0"/>
			<psa03 value="0.116866643686926" flag="0"/>
			<psa10 value="0.0876513250313929" flag="0"/>
			<psa30 value="0.00731982500274926" flag="0"/>
		</comp>
		<comp name="--.HNN" depth="0.0">
			<acc value="0.0431957844409805" flag="0"/>
			<vel value="0.0364911976234167" flag="0"/>
			<psa03 value="0.121296122142135" flag="0"/>
			<psa10 value="0.0626006109678887" flag="0"/>
			<psa30 value="0.00591402487080316" flag="0"/>
		</comp>
		<comp name="--.HNZ" depth="0.0">
			<acc value="0.0413908336083869" flag="0"/>
			<vel value="0.0384521696932712" flag="0"/>
			<psa03 value="0.101117386957294" flag="0"/>
			<psa10 value="0.050467866799212" flag="0"/>
			<psa30 value="0.00450643505059233" flag="0"/>
		</comp>
	</station>
	<station code="YKAV" name="YKAV" netid="KO" source="Bogazici University Kandilli Observatory And Earthquake Research Institute (KOERI)" insttype="" lat="37.1246" lon="27.2801">
		<comp name="--.HNE" depth="0.0">
			<acc value="0.126107856034979" flag="0"/>
			<vel value="0.0874162987418095" flag="0"/>
			<psa03 value="0.273016944784694" flag="0"/>
			<psa10 value="0.0763642085678015" flag="0"/>
			<psa30 value="0.00810684041716466" flag="0"/>
		</comp>
		<comp name="--.HNN" depth="0.0">
			<acc value="0.11868838000398" flag="0"/>
			<vel value="0.104547758918443" flag="0"/>
			<psa03 value="0.303620614111592" flag="0"/>
			<psa10 value="0.168151055756921" flag="0"/>
			<psa30 value="0.0087815528929682" flag="0"/>
		</comp>
		<comp name="--.HNZ" depth="0.0">
			<acc value="0.0972509630518113" flag="0"/>
			<vel value="0.0890164818116625" flag="0"/>
			<psa03 value="0.279415080331107" flag="0"/>
			<psa10 value="0.116857695245602" flag="0"/>
			<psa30 value="0.00875739210139433" flag="0"/>
		</comp>
	</station>
</stationlist>
