<?xml version="1.0" encoding="UTF-8" standalone="yes"?>
<!DOCTYPE earthquake SYSTEM "stationlist.dtd">
<stationlist created="" xmlns="ch.ethz.sed.shakemap.usgs.xml">
  <station code="BIR" name="BIR" netid="RO" insttype="MBB2/Quanterra" lat="46.2334" lon="27.6436">
    <comp name="--.HHE">
      <acc value="0.1368031390" flag="0"/>
      <vel value="0.0570502179" flag="0"/>
      <psa03 value="0.2194431548" flag="0"/>
      <psa10 value="0.0161325326" flag="0"/>
      <psa30 value="0.0014204869" flag="0"/>
    </comp>
    <comp name="--.HHZ">
      <acc value="0.0840149312" flag="0"/>
      <vel value="0.0158522994" flag="0"/>
      <psa03 value="0.0826095854" flag="0"/>
      <psa10 value="0.0058529859" flag="0"/>
      <psa30 value="0.0003332922" flag="0"/>
    </comp>
    <comp name="--.HHN">
      <acc value="0.1139778218" flag="0"/>
      <vel value="0.0402660546" flag="0"/>
      <psa03 value="0.1379039523" flag="0"/>
      <psa10 value="0.0257284473" flag="0"/>
      <psa30 value="0.0018506574" flag="0"/>
    </comp>
  </station>
  <station code="BISRR" name="BISRR" netid="RO" insttype="CMG40T.1to100/Basalt" lat="45.5481" lon="26.7099">
    <comp name="--.HHN">
      <acc value="0.0633134901" flag="0"/>
      <vel value="0.0306942222" flag="0"/>
      <psa03 value="0.1575683093" flag="0"/>
      <psa10 value="0.0258716730" flag="0"/>
      <psa30 value="0.0012256656" flag="0"/>
    </comp>
    <comp name="--.HHE">
      <acc value="0.0843462673" flag="0"/>
      <vel value="0.0328958644" flag="0"/>
      <psa03 value="0.2277309494" flag="0"/>
      <psa10 value="0.0212594315" flag="0"/>
      <psa30 value="0.0016057927" flag="0"/>
    </comp>
    <comp name="--.HHZ">
      <acc value="0.0512013723" flag="0"/>
      <vel value="0.0184275196" flag="0"/>
      <psa03 value="0.1103818600" flag="0"/>
      <psa10 value="0.0121784895" flag="0"/>
      <psa30 value="0.0006577201" flag="0"/>
    </comp>
  </station>
  <station code="BOSR" name="BOSR" netid="RO" insttype="Seismometer/Basalt" lat="46.0749" lon="25.6611">
    <comp name="--.HHE">
      <acc value="0.0102106693" flag="0"/>
      <vel value="0.0052064251" flag="0"/>
      <psa03 value="0.0294560634" flag="0"/>
      <psa10 value="0.0019450940" flag="0"/>
      <psa30 value="0.0001332333" flag="0"/>
    </comp>
    <comp name="--.HHN">
      <acc value="0.0118262020" flag="0"/>
      <vel value="0.0037938795" flag="0"/>
      <psa03 value="0.0232310421" flag="0"/>
      <psa10 value="0.0036437767" flag="0"/>
      <psa30 value="0.0002318194" flag="0"/>
    </comp>
    <comp name="--.HHZ">
      <acc value="0.0239233795" flag="0"/>
      <vel value="0.0060175416" flag="0"/>
      <psa03 value="0.0173191102" flag="0"/>
      <psa10 value="0.0013499563" flag="0"/>
      <psa30 value="0.0001566440" flag="0"/>
    </comp>
  </station>
  <station code="COPR" name="COPR" netid="RO" insttype="200" lat="45.8442" lon="26.1687">
    <comp name="--.HNE">
      <acc value="0.0105747462" flag="0"/>
      <vel value="0.0064078176" flag="0"/>
      <psa03 value="0.0350675830" flag="0"/>
      <psa10 value="0.0047461239" flag="0"/>
      <psa30 value="0.0002501063" flag="0"/>
    </comp>
    <comp name="--.HNN">
      <acc value="0.0107351502" flag="0"/>
      <vel value="0.0046046389" flag="0"/>
      <psa03 value="0.0280931683" flag="0"/>
      <psa10 value="0.0045217760" flag="0"/>
      <psa30 value="0.0003196352" flag="0"/>
    </comp>
    <comp name="--.HNZ">
      <acc value="0.0096760875" flag="0"/>
      <vel value="0.0043364656" flag="0"/>
      <psa03 value="0.0177536987" flag="0"/>
      <psa10 value="0.0023711065" flag="0"/>
      <psa30 value="0.0002102310" flag="0"/>
    </comp>
  </station>
  <station code="DOPR" name="DOPR" netid="RO" insttype="330" lat="45.9675" lon="25.3886">
    <comp name="--.HHE">
      <acc value="0.0115066297" flag="0"/>
      <vel value="0.0025773476" flag="0"/>
      <psa03 value="0.0163657293" flag="0"/>
      <psa10 value="0.0026979793" flag="0"/>
      <psa30 value="0.0001411944" flag="0"/>
    </comp>
    <comp name="--.HHN">
      <acc value="0.0447903319" flag="0"/>
      <vel value="0.0019148750" flag="0"/>
      <psa03 value="0.0104595487" flag="0"/>
      <psa10 value="0.0008264566" flag="0"/>
      <psa30 value="0.0000998150" flag="0"/>
    </comp>
    <comp name="--.HHZ">
      <acc value="0.0086481554" flag="0"/>
      <vel value="0.0020427258" flag="0"/>
      <psa03 value="0.0067538432" flag="0"/>
      <psa10 value="0.0010470608" flag="0"/>
      <psa30 value="0.0000631265" flag="0"/>
    </comp>
  </station>
  <station code="ISR" name="ISR" netid="RO" insttype="CMG3ESP/Quanterra" lat="45.1187" lon="26.5432">
    <comp name="--.HHE">
      <acc value="0.0193234064" flag="0"/>
      <vel value="0.0057162385" flag="0"/>
      <psa03 value="0.0284468009" flag="0"/>
      <psa10 value="0.0026455429" flag="0"/>
      <psa30 value="0.0002388133" flag="0"/>
    </comp>
    <comp name="--.HHN">
      <acc value="0.0213462231" flag="0"/>
      <vel value="0.0061839104" flag="0"/>
      <psa03 value="0.0383052082" flag="0"/>
      <psa10 value="0.0034363734" flag="0"/>
      <psa30 value="0.0002654577" flag="0"/>
    </comp>
    <comp name="--.HHZ">
      <acc value="0.0104444755" flag="0"/>
      <vel value="0.0037885158" flag="0"/>
      <psa03 value="0.0263111681" flag="0"/>
      <psa10 value="0.0027261226" flag="0"/>
      <psa30 value="0.0001171450" flag="0"/>
    </comp>
  </station>
  <station code="IZVR" name="IZVR" netid="RO" insttype="CMG40T.1to100/Quanterra" lat="45.5442" lon="27.7655">
    <comp name="--.HHE">
      <acc value="0.0563680503" flag="0"/>
      <vel value="0.0162225428" flag="0"/>
      <psa03 value="0.0939830216" flag="0"/>
      <psa10 value="0.0052729680" flag="0"/>
      <psa30 value="0.0003531548" flag="0"/>
    </comp>
    <comp name="--.HHN">
      <acc value="0.0634152109" flag="0"/>
      <vel value="0.0166996086" flag="0"/>
      <psa03 value="0.0657380702" flag="0"/>
      <psa10 value="0.0058975374" flag="0"/>
      <psa30 value="0.0004297232" flag="0"/>
    </comp>
    <comp name="--.HHZ">
      <acc value="0.0394122778" flag="0"/>
      <vel value="0.0067393802" flag="0"/>
      <psa03 value="0.0326672407" flag="0"/>
      <psa10 value="0.0018499658" flag="0"/>
      <psa30 value="0.0001177124" flag="0"/>
    </comp>
  </station>
  <station code="MLR" name="MLR" netid="RO" insttype="330HR" lat="45.4909" lon="25.945">
    <comp name="--.HHZ">
      <acc value="0.0090001459" flag="0"/>
      <vel value="0.0030677702" flag="0"/>
      <psa03 value="0.0152828197" flag="0"/>
      <psa10 value="0.0019833140" flag="0"/>
      <psa30 value="0.0001388337" flag="0"/>
    </comp>
    <comp name="--.HHN">
      <acc value="0.0066734716" flag="0"/>
      <vel value="0.0037997891" flag="0"/>
      <psa03 value="0.0132821091" flag="0"/>
      <psa10 value="0.0024584173" flag="0"/>
      <psa30 value="0.0002207256" flag="0"/>
    </comp>
    <comp name="--.HHE">
      <acc value="0.0081837969" flag="0"/>
      <vel value="0.0047209713" flag="0"/>
      <psa03 value="0.0224142371" flag="0"/>
      <psa10 value="0.0044657526" flag="0"/>
      <psa30 value="0.0003065885" flag="0"/>
    </comp>
  </station>
  <station code="MTUR" name="MTUR" netid="RO" insttype="200" lat="45.2349" lon="25.0739">
    <comp name="--.HNN">
      <acc value="0.0278971724" flag="0"/>
      <vel value="0.0073488077" flag="0"/>
      <psa03 value="0.0459276083" flag="0"/>
      <psa10 value="0.0053274607" flag="0"/>
      <psa30 value="0.0004876537" flag="0"/>
    </comp>
    <comp name="--.HNZ">
      <acc value="0.0136548224" flag="0"/>
      <vel value="0.0040564202" flag="0"/>
      <psa03 value="0.0188913579" flag="0"/>
      <psa10 value="0.0028143480" flag="0"/>
      <psa30 value="0.0001866023" flag="0"/>
    </comp>
    <comp name="--.HNE">
      <acc value="0.0175070413" flag="0"/>
      <vel value="0.0066372107" flag="0"/>
      <psa03 value="0.0248035468" flag="0"/>
      <psa10 value="0.0060898685" flag="0"/>
      <psa30 value="0.0005054828" flag="0"/>
    </comp>
  </station>
  <station code="NEGRR" name="NEGRR" netid="RO" insttype="CMG40T.1to100/Quanterra" lat="45.5373" lon="27.8771">
    <comp name="--.HHZ">
      <acc value="0.0419284224" flag="0"/>
      <vel value="0.0056019676" flag="0"/>
      <psa03 value="0.0331004079" flag="0"/>
      <psa10 value="0.0014896641" flag="0"/>
      <psa30 value="0.0001465008" flag="0"/>
    </comp>
    <comp name="--.HHE">
      <acc value="0.0571506060" flag="0"/>
      <vel value="0.0137357396" flag="0"/>
      <psa03 value="0.0598658947" flag="0"/>
      <psa10 value="0.0058586495" flag="0"/>
      <psa30 value="0.0004289836" flag="0"/>
    </comp>
    <comp name="--.HHN">
      <acc value="0.0876943097" flag="0"/>
      <vel value="0.0154025742" flag="0"/>
      <psa03 value="0.0363252016" flag="0"/>
      <psa10 value="0.0030916743" flag="0"/>
      <psa30 value="0.0002502289" flag="0"/>
    </comp>
  </station>
  <station code="NEHR" name="NEHR" netid="RO" insttype="Seismometer/Basalt" lat="45.4272" lon="26.2952">
    <comp name="--.HHE">
      <acc value="0.0197231409" flag="0"/>
      <vel value="0.0075944553" flag="0"/>
      <psa03 value="0.0471959619" flag="0"/>
      <psa10 value="0.0033310431" flag="0"/>
      <psa30 value="0.0002832108" flag="0"/>
    </comp>
    <comp name="--.HHN">
      <acc value="0.0297251394" flag="0"/>
      <vel value="0.0122009584" flag="0"/>
      <psa03 value="0.0515667647" flag="0"/>
      <psa10 value="0.0049089149" flag="0"/>
      <psa30 value="0.0003211527" flag="0"/>
    </comp>
    <comp name="--.HHZ">
      <acc value="0.0197857810" flag="0"/>
      <vel value="0.0053706648" flag="0"/>
      <psa03 value="0.0348384114" flag="0"/>
      <psa10 value="0.0018460764" flag="0"/>
      <psa30 value="0.0001775335" flag="0"/>
    </comp>
  </station>
  <station code="ODBI" name="ODBI" netid="RO" insttype="PBB.1to100/Quanterra" lat="45.7633" lon="27.0558">
    <comp name="--.HHN">
      <acc value="0.1988229124" flag="0"/>
      <vel value="0.0544303227" flag="0"/>
      <psa03 value="0.2887621014" flag="0"/>
      <psa10 value="0.0278778215" flag="0"/>
      <psa30 value="0.0020122942" flag="0"/>
    </comp>
    <comp name="--.HHZ">
      <acc value="0.1003258312" flag="0"/>
      <vel value="0.0142223798" flag="0"/>
      <psa03 value="0.1003268185" flag="0"/>
      <psa10 value="0.0029982048" flag="0"/>
      <psa30 value="0.0003010952" flag="0"/>
    </comp>
    <comp name="--.HHE">
      <acc value="0.2125067009" flag="0"/>
      <vel value="0.0628534882" flag="0"/>
      <psa03 value="0.3618996381" flag="0"/>
      <psa10 value="0.0289443988" flag="0"/>
      <psa30 value="0.0018097927" flag="0"/>
    </comp>
  </station>
  <station code="ODSR" name="ODSR" netid="RO" insttype="CMG40T.1to100/Quanterra" lat="46.2969" lon="25.2919">
    <comp name="--.HHE">
      <acc value="0.0084276871" flag="0"/>
      <vel value="0.0023849171" flag="0"/>
      <psa03 value="0.0117701008" flag="0"/>
      <psa10 value="0.0023213246" flag="0"/>
      <psa30 value="0.0002253300" flag="0"/>
    </comp>
    <comp name="--.HHN">
      <acc value="0.0069210013" flag="0"/>
      <vel value="0.0015284112" flag="0"/>
      <psa03 value="0.0097698085" flag="0"/>
      <psa10 value="0.0010316442" flag="0"/>
      <psa30 value="0.0000845898" flag="0"/>
    </comp>
    <comp name="--.HHZ">
      <acc value="0.0060367701" flag="0"/>
      <vel value="0.0013491033" flag="0"/>
      <psa03 value="0.0063353550" flag="0"/>
      <psa10 value="0.0008843913" flag="0"/>
      <psa30 value="0.0000728137" flag="0"/>
    </comp>
  </station>
  <station code="ONER" name="ONER" netid="RO" insttype="CMG40T.1to100/obsidian" lat="46.3349" lon="26.394">
    <comp name="--.HHN">
      <acc value="0.0025409228" flag="0"/>
      <vel value="0.0007489233" flag="0"/>
      <psa03 value="0.0035767074" flag="0"/>
      <psa10 value="0.0005206129" flag="0"/>
      <psa30 value="0.0000201919" flag="0"/>
    </comp>
    <comp name="--.HHZ">
      <acc value="0.0023052489" flag="0"/>
      <vel value="0.0007440185" flag="0"/>
      <psa03 value="0.0047336213" flag="0"/>
      <psa10 value="0.0004802828" flag="0"/>
      <psa30 value="0.0000269665" flag="0"/>
    </comp>
    <comp name="--.HHE">
      <acc value="0.0022361384" flag="0"/>
      <vel value="0.0010127456" flag="0"/>
      <psa03 value="0.0060273299" flag="0"/>
      <psa10 value="0.0004681090" flag="0"/>
      <psa30 value="0.0000463851" flag="0"/>
    </comp>
  </station>
  <station code="PANC" name="PANC" netid="RO" insttype="Seismometer/Basalt" lat="45.8723" lon="27.1477">
    <comp name="--.HHE">
      <acc value="0.0877469006" flag="0"/>
      <vel value="0.0204051944" flag="0"/>
      <psa03 value="0.1371400947" flag="0"/>
      <psa10 value="0.0102330594" flag="0"/>
      <psa30 value="0.0005576786" flag="0"/>
    </comp>
    <comp name="--.HHN">
      <acc value="0.1690676615" flag="0"/>
      <vel value="0.0477620059" flag="0"/>
      <psa03 value="0.0798167237" flag="0"/>
      <psa10 value="0.0457993575" flag="0"/>
      <psa30 value="0.0206057640" flag="0"/>
    </comp>
    <comp name="--.HHZ">
      <acc value="0.1497326643" flag="0"/>
      <vel value="0.0206136380" flag="0"/>
      <psa03 value="0.0552743471" flag="0"/>
      <psa10 value="0.0036914186" flag="0"/>
      <psa30 value="0.0003452516" flag="0"/>
    </comp>
  </station>
  <station code="PGOR" name="PGOR" netid="RO" insttype="CMG40T.1to100/Quanterra" lat="44.9199" lon="26.9768">
    <comp name="--.HHN">
      <acc value="0.0966101467" flag="0"/>
      <vel value="0.0381654017" flag="0"/>
      <psa03 value="0.2066287316" flag="0"/>
      <psa10 value="0.0084729046" flag="0"/>
      <psa30 value="0.0008476678" flag="0"/>
    </comp>
    <comp name="--.HHE">
      <acc value="0.1284294678" flag="0"/>
      <vel value="0.0340667631" flag="0"/>
      <psa03 value="0.1351919444" flag="0"/>
      <psa10 value="0.0073296024" flag="0"/>
      <psa30 value="0.0007603299" flag="0"/>
    </comp>
    <comp name="--.HHZ">
      <acc value="0.0704460239" flag="0"/>
      <vel value="0.0081041685" flag="0"/>
      <psa03 value="0.0402429672" flag="0"/>
      <psa10 value="0.0017255036" flag="0"/>
      <psa30 value="0.0001389555" flag="0"/>
    </comp>
  </station>
  <station code="PLAR" name="PLAR" netid="RO" insttype="200" lat="44.9142" lon="26.0274">
    <comp name="--.HNZ">
      <acc value="0.0931537369" flag="0"/>
      <vel value="0.0168516639" flag="0"/>
      <psa03 value="0.0320709240" flag="0"/>
      <psa10 value="0.0019117598" flag="0"/>
      <psa30 value="0.0002283403" flag="0"/>
    </comp>
    <comp name="--.HNN">
      <acc value="0.0794660951" flag="0"/>
      <vel value="0.0233790515" flag="0"/>
      <psa03 value="0.0561061709" flag="0"/>
      <psa10 value="0.0057672053" flag="0"/>
      <psa30 value="0.0003899362" flag="0"/>
    </comp>
    <comp name="--.HNE">
      <acc value="0.0483807239" flag="0"/>
      <vel value="0.0146823706" flag="0"/>
      <psa03 value="0.0773512864" flag="0"/>
      <psa10 value="0.0062744228" flag="0"/>
      <psa30 value="0.0004862644" flag="0"/>
    </comp>
  </station>
  <station code="PLOR" name="PLOR" netid="RO" insttype="330" lat="45.8512" lon="26.6498">
    <comp name="--.HHE">
      <acc value="0.0091666953" flag="0"/>
      <vel value="0.0040139420" flag="0"/>
      <psa03 value="0.0332055774" flag="0"/>
      <psa10 value="0.0019673482" flag="0"/>
      <psa30 value="0.0001275321" flag="0"/>
    </comp>
    <comp name="--.HHZ">
      <acc value="0.0054188094" flag="0"/>
      <vel value="0.0017496009" flag="0"/>
      <psa03 value="0.0122728165" flag="0"/>
      <psa10 value="0.0009251946" flag="0"/>
      <psa30 value="0.0000626332" flag="0"/>
    </comp>
    <comp name="--.HHN">
      <acc value="0.0095826374" flag="0"/>
      <vel value="0.0049466126" flag="0"/>
      <psa03 value="0.0257708449" flag="0"/>
      <psa10 value="0.0023986268" flag="0"/>
      <psa30 value="0.0001383324" flag="0"/>
    </comp>
  </station>
  <station code="PLOR4" name="PLOR4" netid="RO" insttype="330" lat="45.8512" lon="26.6498">
    <comp name="--.HHZ">
      <acc value="0.0054188094" flag="0"/>
      <vel value="0.0017496009" flag="0"/>
      <psa03 value="0.0122728165" flag="0"/>
      <psa10 value="0.0009251946" flag="0"/>
      <psa30 value="0.0000626332" flag="0"/>
    </comp>
    <comp name="--.HHN">
      <acc value="0.0095826376" flag="0"/>
      <vel value="0.0049466122" flag="0"/>
      <psa03 value="0.0257708449" flag="0"/>
      <psa10 value="0.0023986268" flag="0"/>
      <psa30 value="0.0001383183" flag="0"/>
    </comp>
    <comp name="--.HHE">
      <acc value="0.0091666953" flag="0"/>
      <vel value="0.0040139420" flag="0"/>
      <psa03 value="0.0332055774" flag="0"/>
      <psa10 value="0.0019673482" flag="0"/>
      <psa30 value="0.0001275321" flag="0"/>
    </comp>
  </station>
  <station code="SAHR" name="SAHR" netid="RO" insttype="Seismometer/Basalt" lat="45.7266" lon="26.6855">
    <comp name="--.HHN">
      <acc value="0.0290320076" flag="0"/>
      <vel value="0.0153884451" flag="0"/>
      <psa03 value="0.1123369563" flag="0"/>
      <psa10 value="0.0064140757" flag="0"/>
      <psa30 value="0.0005113858" flag="0"/>
    </comp>
    <comp name="--.HHZ">
      <acc value="0.0219492722" flag="0"/>
      <vel value="0.0104842732" flag="0"/>
      <psa03 value="0.0890700601" flag="0"/>
      <psa10 value="0.0040202168" flag="0"/>
      <psa30 value="0.0002587093" flag="0"/>
    </comp>
    <comp name="--.HHE">
      <acc value="0.0336578417" flag="0"/>
      <vel value="0.0153814730" flag="0"/>
      <psa03 value="0.0862401785" flag="0"/>
      <psa10 value="0.0051728977" flag="0"/>
      <psa30 value="0.0005576900" flag="0"/>
    </comp>
  </station>
  <station code="SCHL" name="SCHL" netid="RO" insttype="CMG40T.1to100/Quanterra" lat="45.5007" lon="27.8302">
    <comp name="--.HHN">
      <acc value="0.0433818201" flag="0"/>
      <vel value="0.0135026362" flag="0"/>
      <psa03 value="0.0791527120" flag="0"/>
      <psa10 value="0.0071296333" flag="0"/>
      <psa30 value="0.0004244769" flag="0"/>
    </comp>
    <comp name="--.HHE">
      <acc value="0.0600399490" flag="0"/>
      <vel value="0.0220139047" flag="0"/>
      <psa03 value="0.1251248249" flag="0"/>
      <psa10 value="0.0098681849" flag="0"/>
      <psa30 value="0.0006005945" flag="0"/>
    </comp>
    <comp name="--.HHZ">
      <acc value="0.0560640013" flag="0"/>
      <vel value="0.0070126875" flag="0"/>
      <psa03 value="0.0296778140" flag="0"/>
      <psa10 value="0.0021651973" flag="0"/>
      <psa30 value="0.0001444156" flag="0"/>
    </comp>
  </station>
  <station code="SCHLR" name="SCHLR" netid="RO" insttype="CMG40T.1to100/Quanterra" lat="45.4702" lon="27.8314">
    <comp name="--.HHE">
      <acc value="0.0401305854" flag="0"/>
      <vel value="0.0071580998" flag="0"/>
      <psa03 value="0.0281256541" flag="0"/>
      <psa10 value="0.0043074019" flag="0"/>
      <psa30 value="0.0002031117" flag="0"/>
    </comp>
    <comp name="--.HHN">
      <acc value="0.0306662325" flag="0"/>
      <vel value="0.0062014094" flag="0"/>
      <psa03 value="0.0408801192" flag="0"/>
      <psa10 value="0.0035076803" flag="0"/>
      <psa30 value="0.0001964697" flag="0"/>
    </comp>
    <comp name="--.HHZ">
      <acc value="0.0419066202" flag="0"/>
      <vel value="0.0044414382" flag="0"/>
      <psa03 value="0.0098746942" flag="0"/>
      <psa10 value="0.0011051294" flag="0"/>
      <psa30 value="0.0000750865" flag="0"/>
    </comp>
  </station>
  <station code="SULR" name="SULR" netid="RO" insttype="330" lat="44.6777" lon="26.2526">
    <comp name="--.HHN">
      <acc value="0.0306455262" flag="0"/>
      <vel value="0.0083016882" flag="0"/>
      <psa03 value="0.0377896217" flag="0"/>
