<?xml version="1.0" encoding="UTF-8" standalone="yes"?>
<!DOCTYPE earthquake SYSTEM "stationlist.dtd">
<stationlist created="" xmlns="ch.ethz.sed.shakemap.usgs.xml">
  <station code="BISRR" name="BISRR" netid="RO" insttype="CMG40T.1to100/Basalt" lat="45.5481" lon="26.7099">
    <comp name="--.HHE">
      <acc value="0.0843462673" flag="0"/>
      <vel value="0.0328958641" flag="0"/>
      <psa03 value="0.2277309494" flag="0"/>
      <psa10 value="0.0212594315" flag="0"/>
      <psa30 value="0.0016058719" flag="0"/>
    </comp>
    <comp name="--.HHN">
      <acc value="0.0633134901" flag="0"/>
      <vel value="0.0306942075" flag="0"/>
      <psa03 value="0.1575683094" flag="0"/>
      <psa10 value="0.0258716730" flag="0"/>
      <psa30 value="0.0012256995" flag="0"/>
    </comp>
    <comp name="--.HHZ">
      <acc value="0.0512013721" flag="0"/>
      <vel value="0.0184275195" flag="0"/>
      <psa03 value="0.1103818600" flag="0"/>
      <psa10 value="0.0121784895" flag="0"/>
      <psa30 value="0.0006577283" flag="0"/>
    </comp>
  </station>
  <station code="BOSR" name="BOSR" netid="RO" insttype="Seismometer/Basalt" lat="46.0749" lon="25.6611">
    <comp name="--.HHE">
      <acc value="0.0102106694" flag="0"/>
      <vel value="0.0052064244" flag="0"/>
      <psa03 value="0.0294560634" flag="0"/>
      <psa10 value="0.0019450940" flag="0"/>
      <psa30 value="0.0001332221" flag="0"/>
    </comp>
    <comp name="--.HHN">
      <acc value="0.0118262021" flag="0"/>
      <vel value="0.0037938791" flag="0"/>
      <psa03 value="0.0232310421" flag="0"/>
      <psa10 value="0.0036437767" flag="0"/>
      <psa30 value="0.0002318421" flag="0"/>
    </comp>
    <comp name="--.HHZ">
      <acc value="0.0239233794" flag="0"/>
      <vel value="0.0060175402" flag="0"/>
      <psa03 value="0.0173191102" flag="0"/>
      <psa10 value="0.0013499556" flag="0"/>
      <psa30 value="0.0001566547" flag="0"/>
    </comp>
  </station>
  <station code="BUC" name="BUC" netid="RO" insttype="200" lat="44.4107" lon="26.0938">
    <comp name="--.HNE">
      <acc value="0.0192617776" flag="0"/>
      <vel value="0.0051935804" flag="0"/>
      <psa03 value="0.0205161141" flag="0"/>
      <psa10 value="0.0017210954" flag="0"/>
      <psa30 value="0.0001383898" flag="0"/>
    </comp>
    <comp name="--.HNZ">
      <acc value="0.0190308219" flag="0"/>
      <vel value="0.0032548238" flag="0"/>
      <psa03 value="0.0112472846" flag="0"/>
      <psa10 value="0.0005950104" flag="0"/>
      <psa30 value="0.0003739207" flag="0"/>
    </comp>
    <comp name="--.HNN">
      <acc value="0.0165774836" flag="0"/>
      <vel value="0.0048124117" flag="0"/>
      <psa03 value="0.0274617834" flag="0"/>
      <psa10 value="0.0015836860" flag="0"/>
      <psa30 value="0.0001567161" flag="0"/>
    </comp>
  </station>
  <station code="CIOR" name="CIOR" netid="RO" insttype="200" lat="44.4489" lon="25.8799">
    <comp name="--.HNN">
      <acc value="0.0547106633" flag="0"/>
      <vel value="0.0120387245" flag="0"/>
      <psa03 value="0.0317379466" flag="0"/>
      <psa10 value="0.0024289307" flag="0"/>
      <psa30 value="0.0007710868" flag="0"/>
    </comp>
    <comp name="--.HNZ">
      <acc value="0.0298542312" flag="0"/>
      <vel value="0.0049692686" flag="0"/>
      <psa03 value="0.0084448258" flag="0"/>
      <psa10 value="0.0006211619" flag="0"/>
      <psa30 value="0.0003855583" flag="0"/>
    </comp>
    <comp name="--.HNE">
      <acc value="0.0633928490" flag="0"/>
      <vel value="0.0129920797" flag="0"/>
      <psa03 value="0.0380656680" flag="0"/>
      <psa10 value="0.0043401796" flag="0"/>
      <psa30 value="0.0007087299" flag="0"/>
    </comp>
  </station>
  <station code="COPR" name="COPR" netid="RO" insttype="200" lat="45.8442" lon="26.1687">
    <comp name="--.HNE">
      <acc value="0.0105747458" flag="0"/>
      <vel value="0.0064078177" flag="0"/>
      <psa03 value="0.0350675830" flag="0"/>
      <psa10 value="0.0047461239" flag="0"/>
      <psa30 value="0.0002504010" flag="0"/>
    </comp>
    <comp name="--.HNN">
      <acc value="0.0107351494" flag="0"/>
      <vel value="0.0046046361" flag="0"/>
      <psa03 value="0.0280931683" flag="0"/>
      <psa10 value="0.0045217763" flag="0"/>
      <psa30 value="0.0003194019" flag="0"/>
    </comp>
    <comp name="--.HNZ">
      <acc value="0.0096760877" flag="0"/>
      <vel value="0.0043364648" flag="0"/>
      <psa03 value="0.0177536987" flag="0"/>
      <psa10 value="0.0023711055" flag="0"/>
      <psa30 value="0.0002104368" flag="0"/>
    </comp>
  </station>
  <station code="DOPR" name="DOPR" netid="RO" insttype="330" lat="45.9675" lon="25.3886">
    <comp name="--.HHE">
      <acc value="0.0115066296" flag="0"/>
      <vel value="0.0025773484" flag="0"/>
      <psa03 value="0.0163657293" flag="0"/>
      <psa10 value="0.0026979793" flag="0"/>
      <psa30 value="0.0001412167" flag="0"/>
    </comp>
    <comp name="--.HHN">
      <acc value="0.0447903321" flag="0"/>
      <vel value="0.0019148755" flag="0"/>
      <psa03 value="0.0104595487" flag="0"/>
      <psa10 value="0.0008264566" flag="0"/>
      <psa30 value="0.0000998336" flag="0"/>
    </comp>
    <comp name="--.HHZ">
      <acc value="0.0086481552" flag="0"/>
      <vel value="0.0020427254" flag="0"/>
      <psa03 value="0.0067538432" flag="0"/>
      <psa10 value="0.0010470601" flag="0"/>
      <psa30 value="0.0000632669" flag="0"/>
    </comp>
  </station>
  <station code="ISR" name="ISR" netid="RO" insttype="CMG3ESP/Quanterra" lat="45.1187" lon="26.5432">
    <comp name="--.HHE">
      <acc value="0.0193234067" flag="0"/>
      <vel value="0.0057162388" flag="0"/>
      <psa03 value="0.0284468009" flag="0"/>
      <psa10 value="0.0026455429" flag="0"/>
      <psa30 value="0.0002388003" flag="0"/>
    </comp>
    <comp name="--.HHN">
      <acc value="0.0213462232" flag="0"/>
      <vel value="0.0061839125" flag="0"/>
      <psa03 value="0.0383052082" flag="0"/>
      <psa10 value="0.0034363734" flag="0"/>
      <psa30 value="0.0002654729" flag="0"/>
    </comp>
    <comp name="--.HHZ">
      <acc value="0.0104444754" flag="0"/>
      <vel value="0.0037885152" flag="0"/>
      <psa03 value="0.0263111681" flag="0"/>
      <psa10 value="0.0027261226" flag="0"/>
      <psa30 value="0.0001171890" flag="0"/>
    </comp>
  </station>
  <station code="IZVR" name="IZVR" netid="RO" insttype="CMG40T.1to100/Quanterra" lat="45.5442" lon="27.7655">
    <comp name="--.HHN">
      <acc value="0.0634152108" flag="0"/>
      <vel value="0.0166996082" flag="0"/>
      <psa03 value="0.0657380702" flag="0"/>
      <psa10 value="0.0058975375" flag="0"/>
      <psa30 value="0.0004297246" flag="0"/>
    </comp>
    <comp name="--.HHE">
      <acc value="0.0563680503" flag="0"/>
      <vel value="0.0162225428" flag="0"/>
      <psa03 value="0.0939830216" flag="0"/>
      <psa10 value="0.0052729680" flag="0"/>
      <psa30 value="0.0003531566" flag="0"/>
    </comp>
    <comp name="--.HHZ">
      <acc value="0.0394122778" flag="0"/>
      <vel value="0.0067393802" flag="0"/>
      <psa03 value="0.0326672407" flag="0"/>
      <psa10 value="0.0018499658" flag="0"/>
      <psa30 value="0.0001177123" flag="0"/>
    </comp>
  </station>
  <station code="LEHL" name="LEHL" netid="RO" insttype="Seismometer/Basalt" lat="44.4739" lon="26.8194">
    <comp name="--.HHE">
      <acc value="0.0113024830" flag="0"/>
      <vel value="0.0036297461" flag="0"/>
      <psa03 value="0.0211905705" flag="0"/>
      <psa10 value="0.0015610859" flag="0"/>
      <psa30 value="0.0001482085" flag="0"/>
    </comp>
    <comp name="--.HHZ">
      <acc value="0.0075773761" flag="0"/>
      <vel value="0.0010905613" flag="0"/>
      <psa03 value="0.0056270028" flag="0"/>
      <psa10 value="0.0002160226" flag="0"/>
      <psa30 value="0.0000229558" flag="0"/>
    </comp>
    <comp name="--.HHN">
      <acc value="0.0084904860" flag="0"/>
      <vel value="0.0024232192" flag="0"/>
      <psa03 value="0.0108937711" flag="0"/>
      <psa10 value="0.0008351948" flag="0"/>
      <psa30 value="0.0000999545" flag="0"/>
    </comp>
  </station>
  <station code="MLR" name="MLR" netid="RO" insttype="330HR" lat="45.4909" lon="25.945">
    <comp name="--.HHN">
      <acc value="0.0066734718" flag="0"/>
      <vel value="0.0037997891" flag="0"/>
      <psa03 value="0.0132821091" flag="0"/>
      <psa10 value="0.0024584173" flag="0"/>
      <psa30 value="0.0002207001" flag="0"/>
    </comp>
    <comp name="--.HHZ">
      <acc value="0.0090001462" flag="0"/>
      <vel value="0.0030677705" flag="0"/>
      <psa03 value="0.0152828197" flag="0"/>
      <psa10 value="0.0019833140" flag="0"/>
      <psa30 value="0.0001387853" flag="0"/>
    </comp>
    <comp name="--.HHE">
      <acc value="0.0081837969" flag="0"/>
      <vel value="0.0047209715" flag="0"/>
      <psa03 value="0.0224142371" flag="0"/>
      <psa10 value="0.0044657526" flag="0"/>
      <psa30 value="0.0003065975" flag="0"/>
    </comp>
  </station>
  <station code="MTUR" name="MTUR" netid="RO" insttype="200" lat="45.2349" lon="25.0739">
    <comp name="--.HNE">
      <acc value="0.0175070415" flag="0"/>
      <vel value="0.0066372120" flag="0"/>
      <psa03 value="0.0248035468" flag="0"/>
      <psa10 value="0.0060898684" flag="0"/>
      <psa30 value="0.0005054221" flag="0"/>
    </comp>
    <comp name="--.HNN">
      <acc value="0.0278971714" flag="0"/>
      <vel value="0.0073488096" flag="0"/>
      <psa03 value="0.0459276083" flag="0"/>
      <psa10 value="0.0053274607" flag="0"/>
      <psa30 value="0.0004878847" flag="0"/>
    </comp>
    <comp name="--.HNZ">
      <acc value="0.0136548232" flag="0"/>
      <vel value="0.0040564177" flag="0"/>
      <psa03 value="0.0188913579" flag="0"/>
      <psa10 value="0.0028143480" flag="0"/>
      <psa30 value="0.0001866097" flag="0"/>
    </comp>
  </station>
  <station code="NEGRR" name="NEGRR" netid="RO" insttype="CMG40T.1to100/Quanterra" lat="45.5373" lon="27.8771">
    <comp name="--.HHE">
      <acc value="0.0571506060" flag="0"/>
      <vel value="0.0137357404" flag="0"/>
      <psa03 value="0.0598658947" flag="0"/>
      <psa10 value="0.0058586495" flag="0"/>
      <psa30 value="0.0004289887" flag="0"/>
    </comp>
    <comp name="--.HHN">
      <acc value="0.0876943097" flag="0"/>
      <vel value="0.0154025758" flag="0"/>
      <psa03 value="0.0363252016" flag="0"/>
      <psa10 value="0.0030916742" flag="0"/>
      <psa30 value="0.0002502322" flag="0"/>
    </comp>
    <comp name="--.HHZ">
      <acc value="0.0419284225" flag="0"/>
      <vel value="0.0056019676" flag="0"/>
      <psa03 value="0.0331004079" flag="0"/>
      <psa10 value="0.0014896641" flag="0"/>
      <psa30 value="0.0001465047" flag="0"/>
    </comp>
  </station>
  <station code="NEHR" name="NEHR" netid="RO" insttype="Seismometer/Basalt" lat="45.4272" lon="26.2952">
    <comp name="--.HHE">
      <acc value="0.0197231408" flag="0"/>
      <vel value="0.0075944552" flag="0"/>
      <psa03 value="0.0471959619" flag="0"/>
      <psa10 value="0.0033310431" flag="0"/>
      <psa30 value="0.0002831938" flag="0"/>
    </comp>
    <comp name="--.HHN">
      <acc value="0.0297251393" flag="0"/>
      <vel value="0.0122009583" flag="0"/>
      <psa03 value="0.0515667647" flag="0"/>
      <psa10 value="0.0049089149" flag="0"/>
      <psa30 value="0.0003211387" flag="0"/>
    </comp>
    <comp name="--.HHZ">
      <acc value="0.0197857811" flag="0"/>
      <vel value="0.0053706647" flag="0"/>
      <psa03 value="0.0348384114" flag="0"/>
      <psa10 value="0.0018460748" flag="0"/>
      <psa30 value="0.0001775292" flag="0"/>
    </comp>
  </station>
  <station code="ODBI" name="ODBI" netid="RO" insttype="PBB.1to100/Quanterra" lat="45.7633" lon="27.0558">
    <comp name="--.HHE">
      <acc value="0.2125067009" flag="0"/>
      <vel value="0.0628534892" flag="0"/>
      <psa03 value="0.3618996381" flag="0"/>
      <psa10 value="0.0289443988" flag="0"/>
      <psa30 value="0.0018096966" flag="0"/>
    </comp>
    <comp name="--.HHN">
      <acc value="0.1988229124" flag="0"/>
      <vel value="0.0544302929" flag="0"/>
      <psa03 value="0.2887621014" flag="0"/>
      <psa10 value="0.0278778215" flag="0"/>
      <psa30 value="0.0020122784" flag="0"/>
    </comp>
    <comp name="--.HHZ">
      <acc value="0.1003258313" flag="0"/>
      <vel value="0.0142223811" flag="0"/>
      <psa03 value="0.1003268185" flag="0"/>
      <psa10 value="0.0029982048" flag="0"/>
      <psa30 value="0.0003011091" flag="0"/>
    </comp>
  </station>
  <station code="ODSR" name="ODSR" netid="RO" insttype="CMG40T.1to100/Quanterra" lat="46.2969" lon="25.2919">
    <comp name="--.HHE">
      <acc value="0.0084276868" flag="0"/>
      <vel value="0.0023849154" flag="0"/>
      <psa03 value="0.0117701008" flag="0"/>
      <psa10 value="0.0023213246" flag="0"/>
      <psa30 value="0.0002253237" flag="0"/>
    </comp>
    <comp name="--.HHN">
      <acc value="0.0069210010" flag="0"/>
      <vel value="0.0015284095" flag="0"/>
      <psa03 value="0.0097698085" flag="0"/>
      <psa10 value="0.0010316442" flag="0"/>
      <psa30 value="0.0000845810" flag="0"/>
    </comp>
    <comp name="--.HHZ">
      <acc value="0.0060367701" flag="0"/>
      <vel value="0.0013491046" flag="0"/>
      <psa03 value="0.0063353550" flag="0"/>
      <psa10 value="0.0008843915" flag="0"/>
      <psa30 value="0.0000729005" flag="0"/>
    </comp>
  </station>
  <station code="ONER" name="ONER" netid="RO" insttype="CMG40T.1to100/obsidian" lat="46.3349" lon="26.394">
    <comp name="--.HHE">
      <acc value="0.0022361384" flag="0"/>
      <vel value="0.0010127456" flag="0"/>
      <psa03 value="0.0060273299" flag="0"/>
      <psa10 value="0.0004681090" flag="0"/>
      <psa30 value="0.0000463851" flag="0"/>
    </comp>
    <comp name="--.HHN">
      <acc value="0.0025409231" flag="0"/>
      <vel value="0.0007489233" flag="0"/>
      <psa03 value="0.0035767074" flag="0"/>
      <psa10 value="0.0005206129" flag="0"/>
      <psa30 value="0.0000201923" flag="0"/>
    </comp>
    <comp name="--.HHZ">
      <acc value="0.0023052490" flag="0"/>
      <vel value="0.0007440184" flag="0"/>
      <psa03 value="0.0047336213" flag="0"/>
      <psa10 value="0.0004802828" flag="0"/>
      <psa30 value="0.0000269688" flag="0"/>
    </comp>
  </station>
  <station code="PANC" name="PANC" netid="RO" insttype="Seismometer/Basalt" lat="45.8723" lon="27.1477">
    <comp name="--.HHE">
      <acc value="0.0877469004" flag="0"/>
      <vel value="0.0204051908" flag="0"/>
      <psa03 value="0.1371400947" flag="0"/>
      <psa10 value="0.0102330595" flag="0"/>
      <psa30 value="0.0005576622" flag="0"/>
    </comp>
    <comp name="--.HHZ">
      <acc value="0.1497326644" flag="0"/>
      <vel value="0.0206136392" flag="0"/>
      <psa03 value="0.0552743471" flag="0"/>
      <psa10 value="0.0036914153" flag="0"/>
      <psa30 value="0.0003451809" flag="0"/>
    </comp>
    <comp name="--.HHN">
      <acc value="0.1690676615" flag="0"/>
      <vel value="0.0477620083" flag="0"/>
      <psa03 value="0.0798167237" flag="0"/>
      <psa10 value="0.0457993575" flag="0"/>
      <psa30 value="0.0206057666" flag="0"/>
    </comp>
  </station>
  <station code="PGOR" name="PGOR" netid="RO" insttype="CMG40T.1to100/Quanterra" lat="44.9199" lon="26.9768">
    <comp name="--.HHE">
      <acc value="0.1284294679" flag="0"/>
      <vel value="0.0340667720" flag="0"/>
      <psa03 value="0.1351919444" flag="0"/>
      <psa10 value="0.0073296024" flag="0"/>
      <psa30 value="0.0007605026" flag="0"/>
    </comp>
    <comp name="--.HHZ">
      <acc value="0.0704460238" flag="0"/>
      <vel value="0.0081041651" flag="0"/>
      <psa03 value="0.0402429672" flag="0"/>
      <psa10 value="0.0017255036" flag="0"/>
      <psa30 value="0.0001390077" flag="0"/>
    </comp>
    <comp name="--.HHN">
      <acc value="0.0966101468" flag="0"/>
      <vel value="0.0381653971" flag="0"/>
      <psa03 value="0.2066287316" flag="0"/>
      <psa10 value="0.0084729046" flag="0"/>
      <psa30 value="0.0008478396" flag="0"/>
    </comp>
  </station>
  <station code="PLAR" name="PLAR" netid="RO" insttype="200" lat="44.9142" lon="26.0274">
    <comp name="--.HNE">
      <acc value="0.0483807234" flag="0"/>
      <vel value="0.0146823707" flag="0"/>
      <psa03 value="0.0773512864" flag="0"/>
      <psa10 value="0.0062744228" flag="0"/>
      <psa30 value="0.0004862687" flag="0"/>
    </comp>
    <comp name="--.HNN">
      <acc value="0.0794660959" flag="0"/>
      <vel value="0.0233790543" flag="0"/>
      <psa03 value="0.0561061709" flag="0"/>
      <psa10 value="0.0057672054" flag="0"/>
      <psa30 value="0.0003897024" flag="0"/>
    </comp>
    <comp name="--.HNZ">
      <acc value="0.0931537383" flag="0"/>
      <vel value="0.0168516636" flag="0"/>
      <psa03 value="0.0320709240" flag="0"/>
      <psa10 value="0.0019117572" flag="0"/>
      <psa30 value="0.0002281805" flag="0"/>
    </comp>
  </station>
  <station code="PLOR" name="PLOR" netid="RO" insttype="330" lat="45.8512" lon="26.6498">
    <comp name="--.HHE">
      <acc value="0.0091666953" flag="0"/>
      <vel value="0.0040139417" flag="0"/>
      <psa03 value="0.0332055774" flag="0"/>
      <psa10 value="0.0019673482" flag="0"/>
      <psa30 value="0.0001275405" flag="0"/>
    </comp>
    <comp name="--.HHN">
      <acc value="0.0095826374" flag="0"/>
      <vel value="0.0049466126" flag="0"/>
      <psa03 value="0.0257708449" flag="0"/>
      <psa10 value="0.0023986268" flag="0"/>
      <psa30 value="0.0001383380" flag="0"/>
    </comp>
    <comp name="--.HHZ">
      <acc value="0.0054188093" flag="0"/>
      <vel value="0.0017496012" flag="0"/>
      <psa03 value="0.0122728165" flag="0"/>
      <psa10 value="0.0009251946" flag="0"/>
      <psa30 value="0.0000626541" flag="0"/>
    </comp>
  </station>
  <station code="PLOR4" name="PLOR4" netid="RO" insttype="330" lat="45.8512" lon="26.6498">
    <comp name="--.HHE">
      <acc value="0.0091666953" flag="0"/>
      <vel value="0.0040139417" flag="0"/>
      <psa03 value="0.0332055774" flag="0"/>
      <psa10 value="0.0019673482" flag="0"/>
      <psa30 value="0.0001275405" flag="0"/>
    </comp>
    <comp name="--.HHN">
      <acc value="0.0095826374" flag="0"/>
      <vel value="0.0049466126" flag="0"/>
      <psa03 value="0.0257708449" flag="0"/>
      <psa10 value="0.0023986268" flag="0"/>
      <psa30 value="0.0001383380" flag="0"/>
    </comp>
    <comp name="--.HHZ">
      <acc value="0.0054188093" flag="0"/>
      <vel value="0.0017496012" flag="0"/>
      <psa03 value="0.0122728165" flag="0"/>
      <psa10 value="0.0009251946" flag="0"/>
      <psa30 value="0.0000626541" flag="0"/>
    </comp>
  </station>
  <station code="SAHR" name="SAHR" netid="RO" insttype="Seismometer/Basalt" lat="45.7266" lon="26.6855">
    <comp name="--.HHE">
      <acc value="0.0336578416" flag="0"/>
      <vel value="0.0153814730" flag="0"/>
      <psa03 value="0.0862401785" flag="0"/>
      <psa10 value="0.0051728977" flag="0"/>
      <psa30 value="0.0005576829" flag="0"/>
    </comp>
    <comp name="--.HHZ">
      <acc value="0.0219492723" flag="0"/>
      <vel value="0.0104842732" flag="0"/>
      <psa03 value="0.0890700601" flag="0"/>
      <psa10 value="0.0040202168" flag="0"/>
      <psa30 value="0.0002587109" flag="0"/>
    </comp>
    <comp name="--.HHN">
      <acc value="0.0290320075" flag="0"/>
      <vel value="0.0153884450" flag="0"/>
      <psa03 value="0.1123369563" flag="0"/>
      <psa10 value="0.0064140757" flag="0"/>
      <psa30 value="0.0005113796" flag="0"/>
    </comp>
  </station>
  <station code="SCHL" name="SCHL" netid="RO" insttype="CMG40T.1to100/Quanterra" lat="45.5007" lon="27.8302">
    <comp name="--.HHZ">
      <acc value="0.0560640013" flag="0"/>
      <vel value="0.0070126849" flag="0"/>
      <psa03 value="0.0296778140" flag="0"/>
      <psa10 value="0.0021651973" flag="0"/>
