<?xml version="1.0" encoding="UTF-8" standalone="yes"?>
<!DOCTYPE earthquake SYSTEM "stationlist.dtd">
<stationlist created="" xmlns="ch.ethz.sed.shakemap.usgs.xml">
  <station code="AOI" name="AOI" netid="IV" insttype="" commtype="DIG" lat="43.5502" lon="13.602">
    <comp name="--.HHE">
      <acc value="0.0097518476" flag="0"/>
      <vel value="0.0042767527" flag="0"/>
      <psa03 value="0.0327643776" flag="0"/>
      <psa10 value="0.0042115794" flag="0"/>
      <psa30 value="0.0006137883" flag="0"/>
    </comp>
    <comp name="--.HHZ">
      <acc value="0.0060395619" flag="0"/>
      <vel value="0.0028794791" flag="0"/>
      <psa03 value="0.0171001973" flag="0"/>
      <psa10 value="0.0032323933" flag="0"/>
      <psa30 value="0.0001851034" flag="0"/>
    </comp>
    <comp name="--.HHN">
      <acc value="0.0098553186" flag="0"/>
      <vel value="0.0063548686" flag="0"/>
      <psa03 value="0.0330151058" flag="0"/>
      <psa10 value="0.0050657312" flag="0"/>
      <psa30 value="0.0004795722" flag="0"/>
    </comp>
  </station>
  <station code="APEC" name="APEC" netid="IV" insttype="" commtype="DIG" lat="43.5585" lon="12.4199">
    <comp name="--.HHE">
      <acc value="0.0082033309" flag="0"/>
      <vel value="0.0066779806" flag="0"/>
      <psa03 value="0.0197117903" flag="0"/>
      <psa10 value="0.0079770552" flag="0"/>
      <psa30 value="0.0012924220" flag="0"/>
    </comp>
    <comp name="--.HHN">
      <acc value="0.0109357856" flag="0"/>
      <vel value="0.0076074346" flag="0"/>
      <psa03 value="0.0353795830" flag="0"/>
      <psa10 value="0.0073871130" flag="0"/>
      <psa30 value="0.0006093608" flag="0"/>
    </comp>
    <comp name="--.HHZ">
      <acc value="0.0071927276" flag="0"/>
      <vel value="0.0046990557" flag="0"/>
      <psa03 value="0.0184470579" flag="0"/>
      <psa10 value="0.0054634542" flag="0"/>
      <psa30 value="0.0007786328" flag="0"/>
    </comp>
  </station>
  <station code="ARCI" name="ARCI" netid="IV" insttype="" commtype="DIG" lat="42.8519" lon="11.4754">
    <comp name="--.HHN">
      <acc value="0.0015722207" flag="0"/>
      <vel value="0.0008096811" flag="0"/>
      <psa03 value="0.0047589814" flag="0"/>
      <psa10 value="0.0013244054" flag="0"/>
      <psa30 value="0.0002727004" flag="0"/>
    </comp>
    <comp name="--.HHZ">
      <acc value="0.0007913856" flag="0"/>
      <vel value="0.0004730743" flag="0"/>
      <psa03 value="0.0020098082" flag="0"/>
      <psa10 value="0.0008575398" flag="0"/>
      <psa30 value="0.0001263178" flag="0"/>
    </comp>
    <comp name="--.HHE">
      <acc value="0.0012562944" flag="0"/>
      <vel value="0.0008727589" flag="0"/>
      <psa03 value="0.0030563896" flag="0"/>
      <psa10 value="0.0011991837" flag="0"/>
      <psa30 value="0.0002945301" flag="0"/>
    </comp>
  </station>
  <station code="ARVD" name="ARVD" netid="IV" insttype="" commtype="DIG" lat="43.4981" lon="12.9415">
    <comp name="--.HHE">
      <acc value="0.0075277663" flag="0"/>
      <vel value="0.0041077183" flag="0"/>
      <psa03 value="0.0149797289" flag="0"/>
      <psa10 value="0.0026484882" flag="0"/>
      <psa30 value="0.0004575126" flag="0"/>
    </comp>
    <comp name="--.HHN">
      <acc value="0.0067280288" flag="0"/>
      <vel value="0.0028872637" flag="0"/>
      <psa03 value="0.0125759153" flag="0"/>
      <psa10 value="0.0023727844" flag="0"/>
      <psa30 value="0.0005296644" flag="0"/>
    </comp>
    <comp name="--.HHZ">
      <acc value="0.0080238343" flag="0"/>
      <vel value="0.0031117862" flag="0"/>
      <psa03 value="0.0164498908" flag="0"/>
      <psa10 value="0.0038363144" flag="0"/>
      <psa30 value="0.0007642748" flag="0"/>
    </comp>
  </station>
  <station code="ASSB" name="ASSB" netid="IV" insttype="" commtype="DIG" lat="43.0426" lon="12.6587">
    <comp name="--.HHZ">
      <acc value="0.0726866342" flag="0"/>
      <vel value="0.0250958899" flag="0"/>
      <psa03 value="0.1693444314" flag="0"/>
      <psa10 value="0.0115310285" flag="0"/>
      <psa30 value="0.0010020079" flag="0"/>
    </comp>
  </station>
  <station code="ATCC" name="ATCC" netid="IV" insttype="" commtype="DIG" lat="43.1851" lon="12.6399">
    <comp name="--.HNE">
      <acc value="0.0511725991" flag="0"/>
      <vel value="0.0287916956" flag="0"/>
      <psa03 value="0.1772731122" flag="0"/>
      <psa10 value="0.0127031587" flag="0"/>
      <psa30 value="0.0014887856" flag="0"/>
    </comp>
    <comp name="--.HNN">
      <acc value="0.0497006578" flag="0"/>
      <vel value="0.0204420334" flag="0"/>
      <psa03 value="0.1018400154" flag="0"/>
      <psa10 value="0.0131373304" flag="0"/>
      <psa30 value="0.0014441113" flag="0"/>
    </comp>
    <comp name="--.HNZ">
      <acc value="0.0283770674" flag="0"/>
      <vel value="0.0111098232" flag="0"/>
      <psa03 value="0.0375094087" flag="0"/>
      <psa10 value="0.0102084390" flag="0"/>
      <psa30 value="0.0014716260" flag="0"/>
    </comp>
  </station>
  <station code="ATFO" name="ATFO" netid="IV" insttype="" commtype="DIG" lat="43.3666" lon="12.5715">
    <comp name="--.HHE">
      <acc value="0.0195098423" flag="0"/>
      <vel value="0.0125193313" flag="0"/>
      <psa03 value="0.0602033825" flag="0"/>
      <psa10 value="0.0122607838" flag="0"/>
      <psa30 value="0.0011039573" flag="0"/>
    </comp>
    <comp name="--.HHN">
      <acc value="0.0189903903" flag="0"/>
      <vel value="0.0096345439" flag="0"/>
      <psa03 value="0.0488373291" flag="0"/>
      <psa10 value="0.0089079736" flag="0"/>
      <psa30 value="0.0010404893" flag="0"/>
    </comp>
    <comp name="--.HHZ">
      <acc value="0.0096995019" flag="0"/>
      <vel value="0.0054925187" flag="0"/>
      <psa03 value="0.0207528464" flag="0"/>
      <psa10 value="0.0058372359" flag="0"/>
      <psa30 value="0.0006420051" flag="0"/>
    </comp>
  </station>
  <station code="ATMI" name="ATMI" netid="IV" insttype="" commtype="DIG" lat="43.3342" lon="12.268">
    <comp name="--.HHE">
      <acc value="0.0565940637" flag="0"/>
      <vel value="0.0272146233" flag="0"/>
      <psa03 value="0.1974765364" flag="0"/>
      <psa10 value="0.0274416856" flag="0"/>
      <psa30 value="0.0014583155" flag="0"/>
    </comp>
    <comp name="--.HHN">
      <acc value="0.0398804944" flag="0"/>
      <vel value="0.0226243165" flag="0"/>
      <psa03 value="0.1485239796" flag="0"/>
      <psa10 value="0.0313265284" flag="0"/>
      <psa30 value="0.0023643518" flag="0"/>
    </comp>
    <comp name="--.HHZ">
      <acc value="0.0263155815" flag="0"/>
      <vel value="0.0114481587" flag="0"/>
      <psa03 value="0.0604565393" flag="0"/>
      <psa10 value="0.0085263575" flag="0"/>
      <psa30 value="0.0018456612" flag="0"/>
    </comp>
  </station>
  <station code="ATPC" name="ATPC" netid="IV" insttype="" commtype="DIG" lat="43.4807" lon="12.457">
    <comp name="--.HHE">
      <acc value="0.0280097634" flag="0"/>
      <vel value="0.0203924466" flag="0"/>
      <psa03 value="0.0954889661" flag="0"/>
      <psa10 value="0.0136119641" flag="0"/>
      <psa30 value="0.0009700197" flag="0"/>
    </comp>
    <comp name="--.HHN">
      <acc value="0.0209670946" flag="0"/>
      <vel value="0.0133257985" flag="0"/>
      <psa03 value="0.0448443955" flag="0"/>
      <psa10 value="0.0118659970" flag="0"/>
      <psa30 value="0.0007327692" flag="0"/>
    </comp>
    <comp name="--.HHZ">
      <acc value="0.0155627393" flag="0"/>
      <vel value="0.0105256613" flag="0"/>
      <psa03 value="0.0468132893" flag="0"/>
      <psa10 value="0.0053813414" flag="0"/>
      <psa30 value="0.0008987294" flag="0"/>
    </comp>
  </station>
  <station code="ATVO" name="ATVO" netid="IV" insttype="" commtype="DIG" lat="43.3821" lon="12.4066">
    <comp name="--.HHE">
      <acc value="0.0131127271" flag="0"/>
      <vel value="0.0076068050" flag="0"/>
      <psa03 value="0.0373117675" flag="0"/>
      <psa10 value="0.0050884660" flag="0"/>
      <psa30 value="0.0006873414" flag="0"/>
    </comp>
    <comp name="--.HHN">
      <acc value="0.0118651734" flag="0"/>
      <vel value="0.0058275189" flag="0"/>
      <psa03 value="0.0316098007" flag="0"/>
      <psa10 value="0.0095674729" flag="0"/>
      <psa30 value="0.0007538322" flag="0"/>
    </comp>
    <comp name="--.HHZ">
      <acc value="0.0078505636" flag="0"/>
      <vel value="0.0050523226" flag="0"/>
      <psa03 value="0.0190238133" flag="0"/>
      <psa10 value="0.0046501371" flag="0"/>
      <psa30 value="0.0007429089" flag="0"/>
    </comp>
  </station>
  <station code="CAFI" name="CAFI" netid="IV" insttype="" commtype="DIG" lat="43.3292" lon="11.9663">
    <comp name="--.HHE">
      <acc value="0.0069901759" flag="0"/>
      <vel value="0.0042767293" flag="0"/>
      <psa03 value="0.0141068873" flag="0"/>
      <psa10 value="0.0055528880" flag="0"/>
      <psa30 value="0.0010999223" flag="0"/>
    </comp>
    <comp name="--.HHN">
      <acc value="0.0077723577" flag="0"/>
      <vel value="0.0046243977" flag="0"/>
      <psa03 value="0.0180988442" flag="0"/>
      <psa10 value="0.0044158886" flag="0"/>
      <psa30 value="0.0012207101" flag="0"/>
    </comp>
    <comp name="--.HHZ">
      <acc value="0.0076511149" flag="0"/>
      <vel value="0.0068583967" flag="0"/>
      <psa03 value="0.0156649874" flag="0"/>
      <psa10 value="0.0076602984" flag="0"/>
      <psa30 value="0.0003917530" flag="0"/>
    </comp>
  </station>
  <station code="CERT" name="CERT" netid="IV" insttype="" commtype="DIG" lat="41.949" lon="12.9818">
    <comp name="--.HHE">
      <acc value="0.0126178077" flag="0"/>
      <vel value="0.0060286039" flag="0"/>
      <psa03 value="0.0320774685" flag="0"/>
      <psa10 value="0.0075011000" flag="0"/>
      <psa30 value="0.0008129613" flag="0"/>
    </comp>
    <comp name="--.HHN">
      <acc value="0.0099158797" flag="0"/>
      <vel value="0.0043624950" flag="0"/>
      <psa03 value="0.0243585313" flag="0"/>
      <psa10 value="0.0059535448" flag="0"/>
      <psa30 value="0.0005280478" flag="0"/>
    </comp>
    <comp name="--.HHZ">
      <acc value="0.0044950797" flag="0"/>
      <vel value="0.0022914137" flag="0"/>
      <psa03 value="0.0135577035" flag="0"/>
      <psa10 value="0.0036505169" flag="0"/>
      <psa30 value="0.0005505247" flag="0"/>
    </comp>
  </station>
  <station code="CESI" name="CESI" netid="IV" insttype="" commtype="DIG" lat="43.0049" lon="12.9046">
    <comp name="--.HHE">
      <acc value="0.1520556751" flag="0"/>
      <vel value="0.0313071158" flag="0"/>
      <psa03 value="0.1705003525" flag="0"/>
      <psa10 value="0.0121591310" flag="0"/>
      <psa30 value="0.0008547643" flag="0"/>
    </comp>
    <comp name="--.HHZ">
      <acc value="0.0642577577" flag="0"/>
      <vel value="0.0155943761" flag="0"/>
      <psa03 value="0.0848217216" flag="0"/>
      <psa10 value="0.0075213969" flag="0"/>
      <psa30 value="0.0005941344" flag="0"/>
    </comp>
    <comp name="--.HHN">
      <acc value="0.1789426491" flag="0"/>
      <vel value="0.0482612856" flag="0"/>
      <psa03 value="0.1953478074" flag="0"/>
      <psa10 value="0.0163775065" flag="0"/>
      <psa30 value="0.0011397936" flag="0"/>
    </comp>
  </station>
  <station code="CESX" name="CESX" netid="IV" insttype="" commtype="DIG" lat="42.6085" lon="12.5868">
    <comp name="--.HHE">
      <acc value="0.1797927716" flag="0"/>
      <vel value="0.0846767719" flag="0"/>
      <psa03 value="0.2847608087" flag="0"/>
      <psa10 value="0.0757767481" flag="0"/>
      <psa30 value="0.0035581455" flag="0"/>
    </comp>
    <comp name="--.HHN">
      <acc value="0.1892353753" flag="0"/>
      <vel value="0.0966786643" flag="0"/>
      <psa03 value="0.3429922227" flag="0"/>
      <psa10 value="0.0696305546" flag="0"/>
      <psa30 value="0.0059480744" flag="0"/>
    </comp>
    <comp name="--.HHZ">
      <acc value="0.1275289098" flag="0"/>
      <vel value="0.0541890936" flag="0"/>
      <psa03 value="0.1590511386" flag="0"/>
      <psa10 value="0.0663804111" flag="0"/>
      <psa30 value="0.0052927504" flag="0"/>
    </comp>
  </station>
  <station code="CING" name="CING" netid="IV" insttype="" commtype="DIG" lat="43.3756" lon="13.1954">
    <comp name="--.HHE">
      <acc value="0.0246079034" flag="0"/>
      <vel value="0.0097013468" flag="0"/>
      <psa03 value="0.0427952548" flag="0"/>
      <psa10 value="0.0073835794" flag="0"/>
      <psa30 value="0.0006932367" flag="0"/>
    </comp>
    <comp name="--.HHN">
      <acc value="0.0248518719" flag="0"/>
      <vel value="0.0094100667" flag="0"/>
      <psa03 value="0.0603651646" flag="0"/>
      <psa10 value="0.0069512587" flag="0"/>
      <psa30 value="0.0006897904" flag="0"/>
    </comp>
    <comp name="--.HHZ">
      <acc value="0.0226782410" flag="0"/>
      <vel value="0.0092366677" flag="0"/>
      <psa03 value="0.0559388329" flag="0"/>
      <psa10 value="0.0043718738" flag="0"/>
      <psa30 value="0.0006072070" flag="0"/>
    </comp>
  </station>
  <station code="CRE" name="CRE" netid="IV" insttype="" commtype="DIG" lat="43.6189" lon="11.9517">
    <comp name="--.HHE">
      <acc value="0.0033896547" flag="0"/>
      <vel value="0.0021707612" flag="0"/>
      <psa03 value="0.0095478601" flag="0"/>
      <psa10 value="0.0022044639" flag="0"/>
      <psa30 value="0.0009795650" flag="0"/>
    </comp>
    <comp name="--.HHN">
      <acc value="0.0047085003" flag="0"/>
      <vel value="0.0032410881" flag="0"/>
      <psa03 value="0.0138446824" flag="0"/>
      <psa10 value="0.0048160541" flag="0"/>
      <psa30 value="0.0011360170" flag="0"/>
    </comp>
    <comp name="--.HHZ">
      <acc value="0.0020242051" flag="0"/>
      <vel value="0.0025948987" flag="0"/>
      <psa03 value="0.0058311026" flag="0"/>
      <psa10 value="0.0040593473" flag="0"/>
      <psa30 value="0.0009281246" flag="0"/>
    </comp>
  </station>
  <station code="CRTC" name="CRTC" netid="IV" insttype="" commtype="DIG" lat="43.7685" lon="12.883">
    <comp name="--.HHN">
      <acc value="0.0104185309" flag="0"/>
      <vel value="0.0098486912" flag="0"/>
      <psa03 value="0.0245854705" flag="0"/>
      <psa10 value="0.0147441982" flag="0"/>
      <psa30 value="0.0005242252" flag="0"/>
    </comp>
    <comp name="--.HHE">
      <acc value="0.0089796548" flag="0"/>
      <vel value="0.0062922502" flag="0"/>
      <psa03 value="0.0291835558" flag="0"/>
      <psa10 value="0.0141628111" flag="0"/>
      <psa30 value="0.0012052374" flag="0"/>
    </comp>
    <comp name="--.HHZ">
      <acc value="0.0071581836" flag="0"/>
      <vel value="0.0047025411" flag="0"/>
      <psa03 value="0.0338795259" flag="0"/>
      <psa10 value="0.0050094698" flag="0"/>
      <psa30 value="0.0008852749" flag="0"/>
    </comp>
  </station>
  <station code="FAGN" name="FAGN" netid="IV" insttype="" commtype="DIG" lat="42.2657" lon="13.5838">
    <comp name="--.HHE">
      <acc value="0.0189463273" flag="0"/>
      <vel value="0.0117664709" flag="0"/>
      <psa03 value="0.0556964724" flag="0"/>
      <psa10 value="0.0085974738" flag="0"/>
      <psa30 value="0.0009646862" flag="0"/>
    </comp>
    <comp name="--.HHN">
      <acc value="0.0215735615" flag="0"/>
      <vel value="0.0120990746" flag="0"/>
      <psa03 value="0.0516687579" flag="0"/>
      <psa10 value="0.0065468942" flag="0"/>
      <psa30 value="0.0006425429" flag="0"/>
    </comp>
    <comp name="--.HHZ">
      <acc value="0.0138684560" flag="0"/>
      <vel value="0.0078177016" flag="0"/>
      <psa03 value="0.0491559798" flag="0"/>
      <psa10 value="0.0062037750" flag="0"/>
      <psa30 value="0.0007544936" flag="0"/>
    </comp>
  </station>
  <station code="FDMO" name="FDMO" netid="IV" insttype="" commtype="DIG" lat="43.0365" lon="13.0873">
    <comp name="--.HHE">
      <acc value="0.0996015553" flag="0"/>
      <vel value="0.0269288948" flag="0"/>
      <psa03 value="0.0924705240" flag="0"/>
      <psa10 value="0.0074051938" flag="0"/>
      <psa30 value="0.0010058187" flag="0"/>
    </comp>
    <comp name="--.HHN">
      <acc value="0.0874277726" flag="0"/>
      <vel value="0.0231881048" flag="0"/>
      <psa03 value="0.0976591001" flag="0"/>
      <psa10 value="0.0057920340" flag="0"/>
      <psa30 value="0.0006368608" flag="0"/>
    </comp>
    <comp name="--.HHZ">
      <acc value="0.0463809424" flag="0"/>
      <vel value="0.0105341947" flag="0"/>
      <psa03 value="0.0454871316" flag="0"/>
      <psa10 value="0.0068763467" flag="0"/>
      <psa30 value="0.0003521657" flag="0"/>
    </comp>
  </station>
  <station code="FEMA" name="FEMA" netid="IV" insttype="" commtype="DIG" lat="42.9621" lon="13.0498">
    <comp name="--.HNE">
      <acc value="0.2693442233" flag="0"/>
      <vel value="0.0780256098" flag="0"/>
      <psa03 value="0.4206513535" flag="0"/>
      <psa10 value="0.0225944206" flag="0"/>
      <psa30 value="0.0016892390" flag="0"/>
    </comp>
    <comp name="--.HNN">
      <acc value="0.2331172953" flag="0"/>
      <vel value="0.0883636206" flag="0"/>
      <psa03 value="0.6307358804" flag="0"/>
      <psa10 value="0.0300938933" flag="0"/>
      <psa30 value="0.0021237423" flag="0"/>
    </comp>
    <comp name="--.HNZ">
      <acc value="0.1740234128" flag="0"/>
      <vel value="0.0513219316" flag="0"/>
      <psa03 value="0.2732203444" flag="0"/>
      <psa10 value="0.0094528749" flag="0"/>
      <psa30 value="0.0009703331" flag="0"/>
    </comp>
  </station>
  <station code="FIAM" name="FIAM" netid="IV" insttype="" commtype="DIG" lat="42.268" lon="13.1172">
    <comp name="--.HHN">
      <acc value="0.0206883523" flag="0"/>
      <vel value="0.0132517675" flag="0"/>
      <psa03 value="0.0536652429" flag="0"/>
      <psa10 value="0.0089622517" flag="0"/>
      <psa30 value="0.0016266663" flag="0"/>
    </comp>
    <comp name="--.HHE">
      <acc value="0.0174969418" flag="0"/>
      <vel value="0.0128177728" flag="0"/>
      <psa03 value="0.0375894578" flag="0"/>
      <psa10 value="0.0161216619" flag="0"/>
      <psa30 value="0.0010127051" flag="0"/>
    </comp>
    <comp name="--.HHZ">
      <acc value="0.0205412371" flag="0"/>
      <vel value="0.0122769140" flag="0"/>
      <psa03 value="0.0578442528" flag="0"/>
      <psa10 value="0.0071075501" flag="0"/>
      <psa30 value="0.0021695566" flag="0"/>
    </comp>
  </station>
  <station code="FOSV" name="FOSV" netid="IV" insttype="" commtype="DIG" lat="43.2948" lon="12.7612">
    <comp name="--.HNE">
      <acc value="0.0225887489" flag="0"/>
      <vel value="0.0100159329" flag="0"/>
      <psa03 value="0.0443233581" flag="0"/>
      <psa10 value="0.0069242962" flag="0"/>
      <psa30 value="0.0004509671" flag="0"/>
    </comp>
    <comp name="--.HNN">
      <acc value="0.0191297879" flag="0"/>
      <vel value="0.0096149835" flag="0"/>
      <psa03 value="0.0580744968" flag="0"/>
      <psa10 value="0.0045790838" flag="0"/>
      <psa30 value="0.0004923601" flag="0"/>
    </comp>
    <comp name="--.HNZ">
      <acc value="0.0097214897" flag="0"/>
      <vel value="0.0041398832" flag="0"/>
      <psa03 value="0.0280293128" flag="0"/>
      <psa10 value="0.0030488576" flag="0"/>
      <psa30 value="0.0005534988" flag="0"/>
    </comp>
  </station>
  <station code="GAVE" name="GAVE" netid="IV" insttype="" commtype="DIG" lat="42.6922" lon="12.8942">
    <comp name="--.HNE">
      <acc value="0.2060947993" flag="0"/>
      <vel value="0.0744330847" flag="0"/>
      <psa03 value="0.3469526655" flag="0"/>
      <psa10 value="0.0265815515" flag="0"/>
      <psa30 value="0.0035611751" flag="0"/>
    </comp>
    <comp name="--.HNN">
      <acc value="0.0888992227" flag="0"/>
      <vel value="0.0174994374" flag="0"/>
      <psa03 value="0.0923927116" flag="0"/>
      <psa10 value="0.0084245011" flag="0"/>
      <psa30 value="0.0006360372" flag="0"/>
    </comp>
    <comp name="--.HNZ">
      <acc value="0.0898343541" flag="0"/>
      <vel value="0.0274678511" flag="0"/>
      <psa03 value="0.1735066525" flag="0"/>
