<stationlist created="1770371997">
	<station code="AME" name="AME" netid="IT" source="Italian Strong Motion Network (RAN)" insttype="" lat="42.5597" lon="12.414">
		<comp name="--.HNE" depth="0.0">
			<acc value="0.060796231929306" flag="0"/>
			<vel value="0.0194034654489" flag="0"/>
			<psa03 value="0.129089093185721" flag="0"/>
			<psa10 value="0.0167325809513735" flag="0"/>
			<psa30 value="0.00165846330255276" flag="0"/>
		</comp>
		<comp name="--.HNN" depth="0.0">
			<acc value="0.092836576271736" flag="0"/>
			<vel value="0.0338537911602" flag="0"/>
			<psa03 value="0.182132627892735" flag="0"/>
			<psa10 value="0.018030406925968" flag="0"/>
			<psa30 value="0.0014386713465817" flag="0"/>
		</comp>
		<comp name="--.HNZ" depth="0.0">
			<acc value="0.069234465144852" flag="0"/>
			<vel value="0.0231158588628" flag="0"/>
			<psa03 value="0.0694825039166334" flag="0"/>
			<psa10 value="0.0104472836437888" flag="0"/>
			<psa30 value="0.00191394803966484" flag="0"/>
		</comp>
	</station>
	<station code="ASS" name="ASS" netid="IT" source="Italian Strong Motion Network (RAN)" insttype="" lat="43.075" lon="12.6041">
		<comp name="--.HNE" depth="0.0">
			<acc value="0.092439963417912" flag="0"/>
			<vel value="0.0487152203322" flag="0"/>
			<psa03 value="0.373678087672826" flag="0"/>
			<psa10 value="0.0190253965891542" flag="0"/>
			<psa30 value="0.00115981162349433" flag="0"/>
		</comp>
		<comp name="--.HNN" depth="0.0">
			<acc value="0.077859089440764" flag="0"/>
			<vel value="0.0396576071771" flag="0"/>
			<psa03 value="0.258458017408436" flag="0"/>
			<psa10 value="0.0190728991109576" flag="0"/>
			<psa30 value="0.00206402652329222" flag="0"/>
		</comp>
		<comp name="--.HNZ" depth="0.0">
			<acc value="0.045359090932758" flag="0"/>
			<vel value="0.0145384007267" flag="0"/>
			<psa03 value="0.0952250998620758" flag="0"/>
			<psa10 value="0.00720328686990021" flag="0"/>
			<psa30 value="0.0012657084303042" flag="0"/>
		</comp>
	</station>
	<station code="BVG" name="BVG" netid="IT" source="Italian Strong Motion Network (RAN)" insttype="" lat="42.9323" lon="12.611">
		<comp name="--.HGE" depth="0.0">
			<acc value="0.3498170067807" flag="0"/>
			<vel value="0.250195720572" flag="0"/>
			<psa03 value="0.487516253892106" flag="0"/>
			<psa10 value="0.281606965079573" flag="0"/>
			<psa30 value="0.0163939193500412" flag="0"/>
		</comp>
		<comp name="--.HGN" depth="0.0">
			<acc value="0.30534283018434" flag="0"/>
			<vel value="0.181377567842" flag="0"/>
			<psa03 value="0.624674298270956" flag="0"/>
			<psa10 value="0.198807390013811" flag="0"/>
			<psa30 value="0.0111717959099859" flag="0"/>
		</comp>
		<comp name="--.HGZ" depth="0.0">
			<acc value="0.26208937133304" flag="0"/>
			<vel value="0.0953855126049" flag="0"/>
			<psa03 value="0.566533196709461" flag="0"/>
			<psa10 value="0.0805018578528936" flag="0"/>
			<psa30 value="0.00505472693418602" flag="0"/>
		</comp>
	</station>
	<station code="CLF" name="CLF" netid="IT" source="Italian Strong Motion Network (RAN)" insttype="" lat="43.0367" lon="12.9204">
		<comp name="--.HGE" depth="0.0">
			<acc value="0.1685642432757" flag="0"/>
			<vel value="0.0443921314332" flag="0"/>
			<psa03 value="0.240449949462255" flag="0"/>
			<psa10 value="0.0430093341571888" flag="0"/>
			<psa30 value="0.00192521420265956" flag="0"/>
		</comp>
		<comp name="--.HGN" depth="0.0">
			<acc value="0.22038818320968" flag="0"/>
			<vel value="0.0872300992216" flag="0"/>
			<psa03 value="0.28470104754707" flag="0"/>
			<psa10 value="0.0671941762845884" flag="0"/>
			<psa30 value="0.00261495697806602" flag="0"/>
		</comp>
		<comp name="--.HGZ" depth="0.0">
			<acc value="0.12864658163484" flag="0"/>
			<vel value="0.043055980526" flag="0"/>
			<psa03 value="0.18038069933588" flag="0"/>
			<psa10 value="0.0160775756855027" flag="0"/>
			<psa30 value="0.00126414593096481" flag="0"/>
		</comp>
	</station>
	<station code="CPT" name="CPT" netid="IT" source="Italian Strong Motion Network (RAN)" insttype="" lat="42.8274" lon="12.9251">
		<comp name="--.HNE" depth="0.0">
			<acc value="0.46810261364652" flag="0"/>
			<vel value="0.0787345830083" flag="0"/>
			<psa03 value="0.343710039936565" flag="0"/>
			<psa10 value="0.0245254884432641" flag="0"/>
			<psa30 value="0.00235379821924806" flag="0"/>
		</comp>
		<comp name="--.HNN" depth="0.0">
			<acc value="0.46272900035196" flag="0"/>
			<vel value="0.0927123538416" flag="0"/>
			<psa03 value="0.22355237174756" flag="0"/>
			<psa10 value="0.0303209254875033" flag="0"/>
			<psa30 value="0.00209723789005252" flag="0"/>
		</comp>
		<comp name="--.HNZ" depth="0.0">
			<acc value="0.33525617066724" flag="0"/>
			<vel value="0.0504541739519" flag="0"/>
			<psa03 value="0.302235834140795" flag="0"/>
			<psa10 value="0.0300949036396579" flag="0"/>
			<psa30 value="0.00180005403641419" flag="0"/>
		</comp>
	</station>
	<station code="CSA" name="CSA" netid="IT" source="Italian Strong Motion Network (RAN)" insttype="" lat="43.008" lon="12.5906">
		<comp name="--.HGE" depth="0.0">
			<acc value="0.18590647316298" flag="0"/>
			<vel value="0.100785186566" flag="0"/>
			<psa03 value="0.526136812315635" flag="0"/>
			<psa10 value="0.157160206092545" flag="0"/>
			<psa30 value="0.0093724767139178" flag="0"/>
		</comp>
		<comp name="--.HGN" depth="0.0">
			<acc value="0.17747937661578" flag="0"/>
			<vel value="0.122982948668" flag="0"/>
			<psa03 value="0.394635100971916" flag="0"/>
			<psa10 value="0.104670326395466" flag="0"/>
			<psa30 value="0.0110299423462106" flag="0"/>
		</comp>
		<comp name="--.HGZ" depth="0.0">
			<acc value="0.083053601524374" flag="0"/>
			<vel value="0.0376201074917" flag="0"/>
			<psa03 value="0.147050012174876" flag="0"/>
			<psa10 value="0.0549043271421187" flag="0"/>
			<psa30 value="0.0119121391207771" flag="0"/>
		</comp>
	</station>
	<station code="CSAN" name="CSAN" netid="IT" source="Italian Strong Motion Network (RAN)" insttype="" lat="42.9003" lon="13.1453">
		<comp name="--.HGE" depth="0.0">
			<acc value="0.59328827406504" flag="0"/>
			<vel value="0.160695481851" flag="0"/>
			<psa03 value="0.473219556806331" flag="0"/>
			<psa10 value="0.0214654638566287" flag="0"/>
			<psa30 value="0.00212918896498548" flag="0"/>
		</comp>
		<comp name="--.HGN" depth="0.0">
			<acc value="0.53147955877206" flag="0"/>
			<vel value="0.130801141466" flag="0"/>
			<psa03 value="0.419185185627954" flag="0"/>
			<psa10 value="0.0164058818091388" flag="0"/>
			<psa30 value="0.00203561318271747" flag="0"/>
		</comp>
		<comp name="--.HGZ" depth="0.0">
			<acc value="0.16746066977052" flag="0"/>
			<vel value="0.0427923764219" flag="0"/>
			<psa03 value="0.130735525170088" flag="0"/>
			<psa10 value="0.00798189188617398" flag="0"/>
			<psa30 value="0.00107690519385082" flag="0"/>
		</comp>
	</station>
	<station code="CSC" name="CSC" netid="IT" source="Italian Strong Motion Network (RAN)" insttype="" lat="42.719" lon="13.0122">
		<comp name="--.HGE" depth="0.0">
			<acc value="0.15299887299486" flag="0"/>
			<vel value="0.0463915872291" flag="0"/>
			<psa03 value="0.309459250156616" flag="0"/>
			<psa10 value="0.0238990825719466" flag="0"/>
			<psa30 value="0.00212717341480004" flag="0"/>
		</comp>
		<comp name="--.HGN" depth="0.0">
			<acc value="0.13627529284458" flag="0"/>
			<vel value="0.0382866004993" flag="0"/>
			<psa03 value="0.226548632735189" flag="0"/>
			<psa10 value="0.0190889201722793" flag="0"/>
			<psa30 value="0.00166478684645603" flag="0"/>
		</comp>
		<comp name="--.HGZ" depth="0.0">
			<acc value="0.11444537704386" flag="0"/>
			<vel value="0.0391635771699" flag="0"/>
			<psa03 value="0.10188129080233" flag="0"/>
			<psa10 value="0.016586761916568" flag="0"/>
			<psa30 value="0.00225649177317097" flag="0"/>
		</comp>
	</station>
	<station code="CSD" name="CSD" netid="IT" source="Italian Strong Motion Network (RAN)" insttype="" lat="42.754" lon="12.0035">
		<comp name="--.HGE" depth="0.0">
			<acc value="0.051241915729578" flag="0"/>
			<vel value="0.0170169539318" flag="0"/>
			<psa03 value="0.0618751093391064" flag="0"/>
			<psa10 value="0.0165713596462591" flag="0"/>
			<psa30 value="0.00204085748845905" flag="0"/>
		</comp>
		<comp name="--.HGN" depth="0.0">
			<acc value="0.064558554467058" flag="0"/>
			<vel value="0.0180661303603" flag="0"/>
			<psa03 value="0.0626276852350464" flag="0"/>
			<psa10 value="0.0109520548948873" flag="0"/>
			<psa30 value="0.00133506344139927" flag="0"/>
		</comp>
		<comp name="--.HGZ" depth="0.0">
			<acc value="0.042236114270646" flag="0"/>
			<vel value="0.010630118108" flag="0"/>
			<psa03 value="0.0259392027198696" flag="0"/>
			<psa10 value="0.00592783722139058" flag="0"/>
			<psa30 value="0.0018550045516157" flag="0"/>
		</comp>
	</station>
	<station code="FLPC" name="FLPC" netid="IT" source="Italian Strong Motion Network (RAN)" insttype="" lat="42.9683" lon="12.7037">
		<comp name="--.HNE" depth="0.0">
			<acc value="0.46659942993816" flag="0"/>
			<vel value="0.0999349326116" flag="0"/>
			<psa03 value="0.539030874816376" flag="0"/>
			<psa10 value="0.0242717203823615" flag="0"/>
			<psa30 value="0.0026977162104582" flag="0"/>
		</comp>
		<comp name="--.HNN" depth="0.0">
			<acc value="0.48908470991586" flag="0"/>
			<vel value="0.108931020959" flag="0"/>
			<psa03 value="0.396127991535222" flag="0"/>
			<psa10 value="0.0445529214125853" flag="0"/>
			<psa30 value="0.00378850513653682" flag="0"/>
		</comp>
		<comp name="--.HNZ" depth="0.0">
			<acc value="0.1706883920619" flag="0"/>
			<vel value="0.0322130635195" flag="0"/>
			<psa03 value="0.15246674600682" flag="0"/>
			<psa10 value="0.0166909606942482" flag="0"/>
			<psa30 value="0.00325857148936858" flag="0"/>
		</comp>
	</station>
	<station code="FMNT" name="FMNT" netid="IT" source="Italian Strong Motion Network (RAN)" insttype="" lat="43.1836" lon="12.9381">
		<comp name="--.HNE" depth="0.0">
			<acc value="0.11593582976502" flag="0"/>
			<vel value="0.0560888055656" flag="0"/>
			<psa03 value="0.227106815545472" flag="0"/>
			<psa10 value="0.067356667048752" flag="0"/>
			<psa30 value="0.00259871590217365" flag="0"/>
		</comp>
		<comp name="--.HNN" depth="0.0">
			<acc value="0.16565124657636" flag="0"/>
			<vel value="0.0581604375854" flag="0"/>
			<psa03 value="0.362574727129672" flag="0"/>
			<psa10 value="0.0408595867469801" flag="0"/>
			<psa30 value="0.0020550067591105" flag="0"/>
		</comp>
		<comp name="--.HNZ" depth="0.0">
			<acc value="0.076185779462796" flag="0"/>
			<vel value="0.0284648371989" flag="0"/>
			<psa03 value="0.11399377027799" flag="0"/>
			<psa10 value="0.0126505836640756" flag="0"/>
			<psa30 value="0.00113764119648067" flag="0"/>
		</comp>
	</station>
	<station code="FOC" name="FOC" netid="IT" source="Italian Strong Motion Network (RAN)" insttype="" lat="43.0263" lon="12.8965">
		<comp name="--.HNE" depth="0.0">
			<acc value="0.5080589481855" flag="0"/>
			<vel value="0.0843424418106" flag="0"/>
			<psa03 value="0.201541163613021" flag="0"/>
			<psa10 value="0.0149947655171406" flag="0"/>
			<psa30 value="0.00139419673369192" flag="0"/>
		</comp>
		<comp name="--.HNN" depth="0.0">
			<acc value="0.30370032724128" flag="0"/>
			<vel value="0.0638438659172" flag="0"/>
			<psa03 value="0.24104280123576" flag="0"/>
			<psa10 value="0.0200966831816405" flag="0"/>
			<psa30 value="0.0011994526870207" flag="0"/>
		</comp>
		<comp name="--.HNZ" depth="0.0">
			<acc value="0.13468904569428" flag="0"/>
			<vel value="0.0266961172778" flag="0"/>
			<psa03 value="0.0930477993765221" flag="0"/>
			<psa10 value="0.00726893074973208" flag="0"/>
			<psa30 value="0.000758286326495721" flag="0"/>
		</comp>
	</station>
	<station code="FOCC" name="FOCC" netid="IT" source="Italian Strong Motion Network (RAN)" insttype="" lat="42.9574" lon="12.7079">
		<comp name="--.HNE" depth="0.0">
			<acc value="0.33766037867982" flag="0"/>
			<vel value="0.0997436306944" flag="0"/>
			<psa03 value="0.468675339109876" flag="0"/>
			<psa10 value="0.0333170495910408" flag="0"/>
			<psa30 value="0.00354437188057713" flag="0"/>
		</comp>
		<comp name="--.HNN" depth="0.0">
			<acc value="0.43692930999444" flag="0"/>
			<vel value="0.0961390055815" flag="0"/>
			<psa03 value="0.316136713339192" flag="0"/>
			<psa10 value="0.039998814725163" flag="0"/>
			<psa30 value="0.00309097851215694" flag="0"/>
		</comp>
		<comp name="--.HNZ" depth="0.0">
			<acc value="0.14912916025446" flag="0"/>
			<vel value="0.0370863588308" flag="0"/>
			<psa03 value="0.142152823176853" flag="0"/>
			<psa10 value="0.0171951347182833" flag="0"/>
			<psa30 value="0.0027108277040296" flag="0"/>
		</comp>
	</station>
	<station code="FOS" name="FOS" netid="IT" source="Italian Strong Motion Network (RAN)" insttype="" lat="43.0146" lon="12.8351">
		<comp name="--.HNE" depth="0.0">
			<acc value="0.242286608616" flag="0"/>
			<vel value="0.103876770285" flag="0"/>
			<psa03 value="0.327052353113372" flag="0"/>
			<psa10 value="0.0366488603071483" flag="0"/>
			<psa30 value="0.00242992326215794" flag="0"/>
		</comp>
		<comp name="--.HNN" depth="0.0">
			<acc value="0.34815236125026" flag="0"/>
			<vel value="0.108083409828" flag="0"/>
			<psa03 value="0.445980835708077" flag="0"/>
			<psa10 value="0.0374857357460366" flag="0"/>
			<psa30 value="0.0032126742822388" flag="0"/>
		</comp>
		<comp name="--.HNZ" depth="0.0">
			<acc value="0.15612976648938" flag="0"/>
			<vel value="0.0411998961374" flag="0"/>
			<psa03 value="0.185992550260235" flag="0"/>
			<psa10 value="0.0149777993932084" flag="0"/>
			<psa30 value="0.0010764699566848" flag="0"/>
		</comp>
	</station>
	<station code="GLT" name="GLT" netid="IT" source="Italian Strong Motion Network (RAN)" insttype="" lat="43.2331" lon="12.789">
		<comp name="--.HNE" depth="0.0">
			<acc value="0.02812597320978" flag="0"/>
			<vel value="0.00856816714468" flag="0"/>
			<psa03 value="0.0666784275353154" flag="0"/>
			<psa10 value="0.00578070794351575" flag="0"/>
			<psa30 value="0.000666221269303915" flag="0"/>
		</comp>
		<comp name="--.HNN" depth="0.0">
			<acc value="0.01690615750593" flag="0"/>
			<vel value="0.00582407236594" flag="0"/>
			<psa03 value="0.0233677224760778" flag="0"/>
			<psa10 value="0.00316805330548483" flag="0"/>
			<psa30 value="0.000846359921359166" flag="0"/>
		</comp>
		<comp name="--.HNZ" depth="0.0">
			<acc value="0.02170580595228" flag="0"/>
			<vel value="0.00577015412967" flag="0"/>
			<psa03 value="0.0331654835088456" flag="0"/>
			<psa10 value="0.00520774217485232" flag="0"/>
			<psa30 value="0.00110776348805996" flag="0"/>
		</comp>
	</station>
	<station code="MTCL" name="MTCL" netid="IT" source="Italian Strong Motion Network (RAN)" insttype="" lat="42.9939" lon="12.9994">
		<comp name="--.HGE" depth="0.0">
			<acc value="0.20989456409106" flag="0"/>
			<vel value="0.0481253167906" flag="0"/>
			<psa03 value="0.149841759614318" flag="0"/>
			<psa10 value="0.00962489260190545" flag="0"/>
			<psa30 value="0.00075748726314599" flag="0"/>
		</comp>
		<comp name="--.HGN" depth="0.0">
			<acc value="0.21163682085948" flag="0"/>
			<vel value="0.0637282233384" flag="0"/>
			<psa03 value="0.319807623185471" flag="0"/>
			<psa10 value="0.0150406760584547" flag="0"/>
			<psa30 value="0.00134703142172094" flag="0"/>
		</comp>
		<comp name="--.HGZ" depth="0.0">
			<acc value="0.17741874573804" flag="0"/>
			<vel value="0.025128146051" flag="0"/>
			<psa03 value="0.140964202769958" flag="0"/>
			<psa10 value="0.00749020525185576" flag="0"/>
			<psa30 value="0.000533969122834772" flag="0"/>
		</comp>
	</station>
	<station code="MVB" name="MVB" netid="IT" source="Italian Strong Motion Network (RAN)" insttype="" lat="42.9619" lon="12.257">
		<comp name="--.HNE" depth="0.0">
			<acc value="0.048285572740692" flag="0"/>
			<vel value="0.00990090216433" flag="0"/>
			<psa03 value="0.0661805351773058" flag="0"/>
			<psa10 value="0.0121839074365736" flag="0"/>
			<psa30 value="0.00218522976074764" flag="0"/>
		</comp>
		<comp name="--.HNN" depth="0.0">
			<acc value="0.055558422729432" flag="0"/>
			<vel value="0.0113245745233" flag="0"/>
			<psa03 value="0.0512297999728628" flag="0"/>
			<psa10 value="0.00987845533666987" flag="0"/>
			<psa30 value="0.00114841816039838" flag="0"/>
		</comp>
		<comp name="--.HNZ" depth="0.0">
			<acc value="0.02494019017629" flag="0"/>
			<vel value="0.00719877817452" flag="0"/>
			<psa03 value="0.0228092063104947" flag="0"/>
			<psa10 value="0.0110134764637767" flag="0"/>
			<psa30 value="0.00141898691758647" flag="0"/>
		</comp>
	</station>
	<station code="NCR" name="NCR" netid="IT" source="Italian Strong Motion Network (RAN)" insttype="" lat="43.1115" lon="12.7845">
		<comp name="--.HGE" depth="0.0">
			<acc value="0.25768648375098" flag="0"/>
			<vel value="0.0652541961927" flag="0"/>
			<psa03 value="0.207425990953775" flag="0"/>
			<psa10 value="0.0120545501172708" flag="0"/>
			<psa30 value="0.00172947998622686" flag="0"/>
		</comp>
		<comp name="--.HGN" depth="0.0">
			<acc value="0.3287526211515" flag="0"/>
			<vel value="0.0798802304783" flag="0"/>
			<psa03 value="0.158977104369738" flag="0"/>
			<psa10 value="0.0130871744610824" flag="0"/>
			<psa30 value="0.00146892074628886" flag="0"/>
		</comp>
		<comp name="--.HGZ" depth="0.0">
			<acc value="0.061131200150952" flag="0"/>
			<vel value="0.015158569522" flag="0"/>
			<psa03 value="0.0758040164355781" flag="0"/>
			<psa10 value="0.0076466506155826" flag="0"/>
			<psa30 value="0.00181020575058028" flag="0"/>
		</comp>
	</station>
	<station code="NRC" name="NRC" netid="IT" source="Italian Strong Motion Network (RAN)" insttype="" lat="42.7925" lon="13.0964">
		<comp name="--.HGE" depth="0.0">
			<acc value="0.20081358457824" flag="0"/>
			<vel value="0.0623235332398" flag="0"/>
			<psa03 value="0.522470777791819" flag="0"/>
			<psa10 value="0.04644141151553" flag="0"/>
			<psa30 value="0.0026957175363888" flag="0"/>
		</comp>
		<comp name="--.HGN" depth="0.0">
			<acc value="0.23001072005676" flag="0"/>
			<vel value="0.0660176840807" flag="0"/>
			<psa03 value="0.540692193202676" flag="0"/>
			<psa10 value="0.0304134216149165" flag="0"/>
			<psa30 value="0.00242225233732841" flag="0"/>
		</comp>
		<comp name="--.HGZ" depth="0.0">
			<acc value="0.12097155037584" flag="0"/>
			<vel value="0.0333012962615" flag="0"/>
			<psa03 value="0.218852560407933" flag="0"/>
			<psa10 value="0.0219434930237313" flag="0"/>
			<psa30 value="0.00143843518510345" flag="0"/>
		</comp>
	</station>
	<station code="NRN" name="NRN" netid="IT" source="Italian Strong Motion Network (RAN)" insttype="" lat="42.5155" lon="12.5194">
		<comp name="--.HGE" depth="0.0">
			<acc value="0.086295188239908" flag="0"/>
			<vel value="0.0541346007881" flag="0"/>
			<psa03 value="0.184798992026461" flag="0"/>
			<psa10 value="0.030328605996288" flag="0"/>
			<psa30 value="0.0020684232728904" flag="0"/>
		</comp>
		<comp name="--.HGN" depth="0.0">
			<acc value="0.07777764787461" flag="0"/>
			<vel value="0.054504367095" flag="0"/>
			<psa03 value="0.172990730620126" flag="0"/>
			<psa10 value="0.0338775692226866" flag="0"/>
			<psa30 value="0.00212084424552177" flag="0"/>
		</comp>
		<comp name="--.HGZ" depth="0.0">
			<acc value="0.048764300625768" flag="0"/>
			<vel value="0.0184810350036" flag="0"/>
			<psa03 value="0.0960960429747767" flag="0"/>
			<psa10 value="0.0140682732040487" flag="0"/>
			<psa30 value="0.00131087610994305" flag="0"/>
		</comp>
	</station>
	<station code="PAN" name="PAN" netid="IT" source="Italian Strong Motion Network (RAN)" insttype="" lat="43.0058" lon="12.1436">
		<comp name="--.HGE" depth="0.0">
			<acc value="0.014977069892814" flag="0"/>
			<vel value="0.0071790348102" flag="0"/>
			<psa03 value="0.0193452424648821" flag="0"/>
			<psa10 value="0.00629439869178383" flag="0"/>
			<psa30 value="0.00131147854568379" flag="0"/>
		</comp>
		<comp name="--.HGN" depth="0.0">
			<acc value="0.012161862638064" flag="0"/>
			<vel value="0.00615032335248" flag="0"/>
			<psa03 value="0.0252570715945355" flag="0"/>
