<stationlist created="1778136432">
	<station code="MALA" name="MALA" netid="CL" source="Corinth Riff Laboratory (CRLNET)" insttype="" lat="38.39341" lon="21.87263">
		<comp name="01.HNE" depth="0.0">
			<acc value="0.00384083619295764" flag="0"/>
			<vel value="0.00262357699640556" flag="0"/>
			<psa03 value="0.0298430518143873" flag="0"/>
			<psa10 value="0.00870191176518767" flag="0"/>
			<psa30 value="0.000870683340791568" flag="0"/>
		</comp>
		<comp name="01.HNN" depth="0.0">
			<acc value="0.00338402271871825" flag="0"/>
			<vel value="0.00259531306604073" flag="0"/>
			<psa03 value="0.021565743590007" flag="0"/>
			<psa10 value="0.00831936589860145" flag="0"/>
			<psa30 value="0.000551671407603291" flag="0"/>
		</comp>
		<comp name="01.HNZ" depth="0.0">
			<acc value="0.00220049609993501" flag="0"/>
			<vel value="0.00156643125631498" flag="0"/>
			<psa03 value="0.0099775120758746" flag="0"/>
			<psa10 value="0.00415565615070508" flag="0"/>
			<psa30 value="0.000392389152042243" flag="0"/>
		</comp>
	</station>
	<station code="ROD3" name="ROD3" netid="CL" source="Corinth Riff Laboratory (CRLNET)" insttype="" lat="38.30811" lon="21.89204">
		<comp name="00.HNE" depth="0.0">
			<acc value="0.00693929593950893" flag="0"/>
			<vel value="0.00355188080098063" flag="0"/>
			<psa03 value="0.0382098444520041" flag="0"/>
			<psa10 value="0.00299191135656383" flag="0"/>
			<psa30 value="0.000265321285246351" flag="0"/>
		</comp>
		<comp name="00.HNN" depth="0.0">
			<acc value="0.00658991729097592" flag="0"/>
			<vel value="0.00276666514656593" flag="0"/>
			<psa03 value="0.027337488243764" flag="0"/>
			<psa10 value="0.00277446423239903" flag="0"/>
			<psa30 value="0.000197760553252761" flag="0"/>
		</comp>
		<comp name="00.HNZ" depth="0.0">
			<acc value="0.00337186203915989" flag="0"/>
			<vel value="0.00109674653320433" flag="0"/>
			<psa03 value="0.0072929796787783" flag="0"/>
			<psa10 value="0.00117582518992818" flag="0"/>
			<psa30 value="0.000153018346634489" flag="0"/>
		</comp>
	</station>
	<station code="E02" name="E02" netid="EG" source="EUROSEISTEST Strong Motion Network" insttype="" lat="40.674206" lon="23.315498">
		<comp name="--.EN1" depth="0.0">
			<acc value="0.00784236829132192" flag="0"/>
			<vel value="0.00793374416256403" flag="0"/>
			<psa03 value="0.0200058031508421" flag="0"/>
			<psa10 value="0.0209103258314695" flag="0"/>
			<psa30 value="0.000573164375578154" flag="0"/>
		</comp>
		<comp name="--.EN2" depth="0.0">
			<acc value="0.00844246696745666" flag="0"/>
			<vel value="0.00955563137137218" flag="0"/>
			<psa03 value="0.0224064322328363" flag="0"/>
			<psa10 value="0.0191293403499209" flag="0"/>
			<psa30 value="0.000849104373995859" flag="0"/>
		</comp>
		<comp name="--.EN3" depth="0.0">
			<acc value="0.00418869212366577" flag="0"/>
			<vel value="0.00376459636033109" flag="0"/>
			<psa03 value="0.0123357351506699" flag="0"/>
			<psa10 value="0.00553419520700915" flag="0"/>
			<psa30 value="0.000298381016277869" flag="0"/>
		</comp>
	</station>
	<station code="STC" name="STC" netid="EG" source="EUROSEISTEST Strong Motion Network" insttype="" lat="40.64865" lon="23.304856">
		<comp name="--.EN1" depth="0.0">
			<acc value="0.00699565026622923" flag="0"/>
			<vel value="0.00553537511184249" flag="0"/>
			<psa03 value="0.0257715744278043" flag="0"/>
			<psa10 value="0.00721048359664527" flag="0"/>
			<psa30 value="0.000474667329799172" flag="0"/>
		</comp>
		<comp name="--.EN2" depth="0.0">
			<acc value="0.00562638336820326" flag="0"/>
			<vel value="0.0036970941323035" flag="0"/>
			<psa03 value="0.0137490188779203" flag="0"/>
			<psa10 value="0.0039817404895157" flag="0"/>
			<psa30 value="0.000322103968015446" flag="0"/>
		</comp>
		<comp name="--.EN3" depth="0.0">
			<acc value="0.00288264062610559" flag="0"/>
			<vel value="0.00217787331371606" flag="0"/>
			<psa03 value="0.00979870901220777" flag="0"/>
			<psa10 value="0.00343926377184703" flag="0"/>
			<psa30 value="0.000295331413214959" flag="0"/>
		</comp>
	</station>
	<station code="TST" name="TST" netid="EG" source="EUROSEISTEST Strong Motion Network" insttype="" lat="40.6638" lon="23.2906">
		<comp name="00.EN1" depth="0.0">
			<acc value="0.00401115159665492" flag="0"/>
			<vel value="0.00342790980516612" flag="0"/>
			<psa03 value="0.0100140481471731" flag="0"/>
			<psa10 value="0.00412254919239396" flag="0"/>
			<psa30 value="0.000291163532946656" flag="0"/>
		</comp>
		<comp name="00.EN2" depth="0.0">
			<acc value="0.00235233749299541" flag="0"/>
			<vel value="0.00161277067527624" flag="0"/>
			<psa03 value="0.00788872376108993" flag="0"/>
			<psa10 value="0.00272221838048204" flag="0"/>
			<psa30 value="0.000232819876299105" flag="0"/>
		</comp>
		<comp name="00.EN3" depth="0.0">
			<acc value="0.00541517453482931" flag="0"/>
			<vel value="0.00449995246836202" flag="0"/>
			<psa03 value="0.016381800057617" flag="0"/>
			<psa10 value="0.00617632962027368" flag="0"/>
			<psa30 value="0.000293445220555913" flag="0"/>
		</comp>
	</station>
	<station code="AIGS" name="AIGS" netid="HA" source="Hellenic Seismological Network, University of Athens, Seismological Laboratory (HA)" insttype="" lat="38.25001" lon="22.0878">
		<comp name="--.HNE" depth="0.0">
			<acc value="0.00425080452368099" flag="0"/>
			<vel value="0.00193067104657095" flag="0"/>
			<psa03 value="0.00993276986925633" flag="0"/>
			<psa10 value="0.00231540919249556" flag="0"/>
			<psa30 value="0.000703794910105415" flag="0"/>
		</comp>
		<comp name="--.HNN" depth="0.0">
			<acc value="0.00439640041064441" flag="0"/>
			<vel value="0.00183337306119549" flag="0"/>
			<psa03 value="0.0151676080435941" flag="0"/>
			<psa10 value="0.0030885545228593" flag="0"/>
			<psa30 value="0.000642945509104565" flag="0"/>
		</comp>
		<comp name="--.HNZ" depth="0.0">
			<acc value="0.00271386186089588" flag="0"/>
			<vel value="0.00151878584982766" flag="0"/>
			<psa03 value="0.00505586934786471" flag="0"/>
			<psa10 value="0.00206172088096996" flag="0"/>
			<psa30 value="0.000697978423245039" flag="0"/>
		</comp>
	</station>
	<station code="XLKS" name="XLKS" netid="HA" source="Hellenic Seismological Network, University of Athens, Seismological Laboratory (HA)" insttype="" lat="38.0772" lon="22.6361">
		<comp name="--.HNE" depth="0.0">
			<acc value="0.00565386245187083" flag="0"/>
			<vel value="0.00430187285565953" flag="0"/>
			<psa03 value="0.0122593646134065" flag="0"/>
			<psa10 value="0.00591536713700171" flag="0"/>
			<psa30 value="0.000620574405795429" flag="0"/>
		</comp>
		<comp name="--.HNN" depth="0.0">
			<acc value="0.00595627753593473" flag="0"/>
			<vel value="0.00478509043060924" flag="0"/>
			<psa03 value="0.0153018346634489" flag="0"/>
			<psa10 value="0.00659589609966562" flag="0"/>
			<psa30 value="0.000882763736578501" flag="0"/>
		</comp>
		<comp name="--.HNZ" depth="0.0">
			<acc value="0.00703302642365794" flag="0"/>
			<vel value="0.00204737615265021" flag="0"/>
			<psa03 value="0.0109618406214766" flag="0"/>
			<psa10 value="0.00183219336101823" flag="0"/>
			<psa30 value="0.000703794910105415" flag="0"/>
		</comp>
	</station>
	<station code="KLV1" name="KLV1" netid="HI" source="ITSAK Strong Motion Network" insttype="" lat="38.03256" lon="22.10797">
		<comp name="--.HNE" depth="0.0">
			<acc value="0.00346891229558583" flag="0"/>
			<vel value="0.00223416348193184" flag="0"/>
			<psa03 value="0.0142322383888625" flag="0"/>
			<psa10 value="0.00286567053973525" flag="0"/>
			<psa30 value="0.000122207522732091" flag="0"/>
		</comp>
		<comp name="--.HNN" depth="0.0">
			<acc value="0.00408535272154389" flag="0"/>
			<vel value="0.00227736250347377" flag="0"/>
			<psa03 value="0.0163269097026612" flag="0"/>
			<psa10 value="0.0016611271899633" flag="0"/>
			<psa30 value="0.000105654004267371" flag="0"/>
		</comp>
		<comp name="--.HNZ" depth="0.0">
			<acc value="0.00180666469895978" flag="0"/>
			<vel value="0.00079889520620059" flag="0"/>
			<psa03 value="0.00529537878762606" flag="0"/>
			<psa10 value="0.00101452447289042" flag="0"/>
			<psa30 value="8.19999828775553e-05" flag="0"/>
		</comp>
	</station>
	<station code="LMS2" name="LMS2" netid="HI" source="ITSAK Strong Motion Network" insttype="" lat="40.834985" lon="21.141815">
		<comp name="--.HNE" depth="0.0">
			<acc value="0.00624798031005712" flag="0"/>
			<vel value="0.00317570955839524" flag="0"/>
			<psa03 value="0.0139908708369378" flag="0"/>
			<psa10 value="0.00476824352897002" flag="0"/>
			<psa30 value="0.000217007682985697" flag="0"/>
		</comp>
		<comp name="--.HNN" depth="0.0">
			<acc value="0.0086987660596685" flag="0"/>
			<vel value="0.00332412384718203" flag="0"/>
			<psa03 value="0.0130273122142451" flag="0"/>
			<psa10 value="0.00413135524449961" flag="0"/>
			<psa30 value="0.000192259454995196" flag="0"/>
		</comp>
		<comp name="--.HNZ" depth="0.0">
			<acc value="0.00204732266310151" flag="0"/>
			<vel value="0.00145292371002159" flag="0"/>
			<psa03 value="0.00560322274850698" flag="0"/>
			<psa10 value="0.00294686599665798" flag="0"/>
			<psa30 value="0.000175499907257713" flag="0"/>
		</comp>
	</station>
	<station code="MSL1" name="MSL1" netid="HI" source="ITSAK Strong Motion Network" insttype="" lat="38.3727" lon="21.4243">
		<comp name="--.HNE" depth="0.0">
			<acc value="0.00828185167080937" flag="0"/>
			<vel value="0.00806884055276418" flag="0"/>
			<psa03 value="0.0213142726430474" flag="0"/>
			<psa10 value="0.0150314682609886" flag="0"/>
			<psa30 value="0.000782966138498448" flag="0"/>
		</comp>
		<comp name="--.HNN" depth="0.0">
			<acc value="0.00600358735999452" flag="0"/>
			<vel value="0.0064111702383122" flag="0"/>
			<psa03 value="0.021542613290332" flag="0"/>
			<psa10 value="0.0099756205234039" flag="0"/>
			<psa30 value="0.000603269442805893" flag="0"/>
		</comp>
		<comp name="--.HNZ" depth="0.0">
			<acc value="0.00293180172126632" flag="0"/>
			<vel value="0.00281200903801847" flag="0"/>
			<psa03 value="0.00910297932980654" flag="0"/>
			<psa10 value="0.00578932929591332" flag="0"/>
			<psa30 value="0.000194646292799332" flag="0"/>
		</comp>
	</station>
	<station code="SKO1" name="SKO1" netid="HI" source="ITSAK Strong Motion Network" insttype="" lat="39.123383" lon="23.728705">
		<comp name="--.HNE" depth="0.0">
			<acc value="0.00234648001823073" flag="0"/>
			<vel value="0.00156885496453094" flag="0"/>
			<psa03 value="0.00609974978161642" flag="0"/>
			<psa10 value="0.00174511857428917" flag="0"/>
			<psa30 value="0.000108290767482025" flag="0"/>
		</comp>
		<comp name="--.HNN" depth="0.0">
			<acc value="0.00210756712775799" flag="0"/>
			<vel value="0.00169061407705309" flag="0"/>
			<psa03 value="0.00671272723732438" flag="0"/>
			<psa10 value="0.00194327267758959" flag="0"/>
			<psa30 value="0.000141643081075843" flag="0"/>
		</comp>
		<comp name="--.HNZ" depth="0.0">
			<acc value="0.00251369292075065" flag="0"/>
			<vel value="0.00215163480077893" flag="0"/>
			<psa03 value="0.00618344608130765" flag="0"/>
			<psa10 value="0.00231625914392732" flag="0"/>
			<psa30 value="0.000106425409536184" flag="0"/>
		</comp>
	</station>
	<station code="VAS2" name="VAS2" netid="HI" source="ITSAK Strong Motion Network" insttype="" lat="38.630558" lon="20.608081">
		<comp name="--.HNE" depth="0.0">
			<acc value="0.00961136214667709" flag="0"/>
			<vel value="0.00899196845652184" flag="0"/>
			<psa03 value="0.0187821973534151" flag="0"/>
			<psa10 value="0.0249630955575659" flag="0"/>
			<psa30 value="0.000704674441638142" flag="0"/>
		</comp>
		<comp name="--.HNN" depth="0.0">
			<acc value="0.0101772888897044" flag="0"/>
			<vel value="0.011017400629372" flag="0"/>
			<psa03 value="0.037821950831113" flag="0"/>
			<psa10 value="0.0322980883398422" flag="0"/>
			<psa30 value="0.00153023324544122" flag="0"/>
		</comp>
		<comp name="--.HNZ" depth="0.0">
			<acc value="0.00617206945825084" flag="0"/>
			<vel value="0.00519353146990926" flag="0"/>
			<psa03 value="0.0167239620470726" flag="0"/>
			<psa10 value="0.01087319560834" flag="0"/>
			<psa30 value="0.000352086839650118" flag="0"/>
		</comp>
	</station>
	<station code="PATC" name="PATC" netid="HL" source="National Observatory of Athens Seismic Network" insttype="" lat="38.26933" lon="21.76001">
		<comp name="00.HNE" depth="0.0">
			<acc value="0.00309126871628538" flag="0"/>
			<vel value="0.00294887035231777" flag="0"/>
			<psa03 value="0.0112750360678045" flag="0"/>
			<psa10 value="0.00546033889569388" flag="0"/>
			<psa30 value="0.000487242630072979" flag="0"/>
		</comp>
		<comp name="00.HNN" depth="0.0">
			<acc value="0.00361237451899287" flag="0"/>
			<vel value="0.00308774511772967" flag="0"/>
			<psa03 value="0.00872473029056299" flag="0"/>
			<psa10 value="0.00623348422605762" flag="0"/>
			<psa30 value="0.000775382440694649" flag="0"/>
		</comp>
		<comp name="00.HNZ" depth="0.0">
			<acc value="0.00338534924877859" flag="0"/>
			<vel value="0.00188727003822976" flag="0"/>
			<psa03 value="0.00671133099274076" flag="0"/>
			<psa10 value="0.00341875200770214" flag="0"/>
			<psa30 value="0.000221026500694262" flag="0"/>
		</comp>
	</station>
	<station code="PATG" name="PATG" netid="HL" source="National Observatory of Athens Seismic Network" insttype="" lat="38.23865" lon="21.72657">
		<comp name="00.HNE" depth="0.0">
			<acc value="0.00426705286734113" flag="0"/>
			<vel value="0.00388144180201203" flag="0"/>
			<psa03 value="0.0121698802001699" flag="0"/>
			<psa10 value="0.00452209482290873" flag="0"/>
			<psa30 value="0.00103130786255116" flag="0"/>
		</comp>
		<comp name="00.HNN" depth="0.0">
			<acc value="0.00460920805082181" flag="0"/>
			<vel value="0.00526942538104318" flag="0"/>
			<psa03 value="0.0115434893075141" flag="0"/>
			<psa10 value="0.00491269428668624" flag="0"/>
			<psa30 value="0.000590597127361187" flag="0"/>
		</comp>
		<comp name="00.HNZ" depth="0.0">
			<acc value="0.0097184712349497" flag="0"/>
			<vel value="0.00169833257160389" flag="0"/>
			<psa03 value="0.0104249341420573" flag="0"/>
			<psa10 value="0.00287513419729014" flag="0"/>
			<psa30 value="0.000324828420048653" flag="0"/>
		</comp>
	</station>
	<station code="PLG" name="PLG" netid="HL" source="National Observatory of Athens Seismic Network" insttype="" lat="40.37328" lon="23.44443">
		<comp name="--.HNE" depth="0.0">
			<acc value="0.0" flag="1"/>
			<vel value="0.0" flag="1"/>
			<psa03 value="0.0" flag="1"/>
			<psa10 value="0.0" flag="1"/>
			<psa30 value="0.0" flag="1"/>
		</comp>
		<comp name="--.HNN" depth="0.0">
			<acc value="0.0" flag="1"/>
			<vel value="0.0" flag="1"/>
			<psa03 value="0.0" flag="1"/>
			<psa10 value="0.0" flag="1"/>
			<psa30 value="0.0" flag="1"/>
		</comp>
		<comp name="--.HNZ" depth="0.0">
			<acc value="0.0" flag="1"/>
			<vel value="0.0" flag="1"/>
			<psa03 value="0.0" flag="1"/>
			<psa10 value="0.0" flag="1"/>
			<psa30 value="0.0" flag="1"/>
		</comp>
	</station>
	<station code="RIOA" name="RIOA" netid="HL" source="National Observatory of Athens Seismic Network" insttype="" lat="38.29585" lon="21.79118">
		<comp name="00.HNE" depth="0.0">
			<acc value="0.00268865692652502" flag="0"/>
			<vel value="0.00234235467922147" flag="0"/>
			<psa03 value="0.00720349526554175" flag="0"/>
			<psa10 value="0.00380935147147966" flag="0"/>
			<psa30 value="0.000461292150234382" flag="0"/>
		</comp>
		<comp name="00.HNN" depth="0.0">
			<acc value="0.00300831882050756" flag="0"/>
			<vel value="0.00213700859275552" flag="0"/>
			<psa03 value="0.008232566017762" flag="0"/>
			<psa10 value="0.0034147252091065" flag="0"/>
			<psa30 value="0.000504692090654105" flag="0"/>
		</comp>
		<comp name="00.HNZ" depth="0.0">
			<acc value="0.00290702317231219" flag="0"/>
			<vel value="0.00136604664386316" flag="0"/>
			<psa03 value="0.00510061155448298" flag="0"/>
			<psa10 value="0.00252480271946907" flag="0"/>
			<psa30 value="0.000396415950637888" flag="0"/>
		</comp>
	</station>
</stationlist>
