<?xml version="1.0" encoding="UTF-8" standalone="yes"?>
<!DOCTYPE earthquake SYSTEM "stationlist.dtd">
<stationlist created="" xmlns="ch.ethz.sed.shakemap.usgs.xml">
  <station code="EVR" name="EVR" netid="HL" insttype="DR24" lat="38.9166" lon="21.8105">
    <comp name="--.HHZ">
      <acc value="0.0161365714" flag="0"/>
      <vel value="0.0077647905" flag="0"/>
      <psa03 value="0.0334240868" flag="0"/>
      <psa10 value="0.0076038621" flag="0"/>
      <psa30 value="0.0004214409" flag="0"/>
    </comp>
    <comp name="--.HHE">
      <acc value="0.0180249981" flag="0"/>
      <vel value="0.0079215547" flag="0"/>
      <psa03 value="0.0502643895" flag="0"/>
      <psa10 value="0.0056831641" flag="0"/>
      <psa30 value="0.0004557954" flag="0"/>
    </comp>
    <comp name="--.HHN">
      <acc value="0.0247594983" flag="0"/>
      <vel value="0.0088351104" flag="0"/>
      <psa03 value="0.0498909028" flag="0"/>
      <psa10 value="0.0055641799" flag="0"/>
      <psa30 value="0.0008589530" flag="0"/>
    </comp>
  </station>
  <station code="KZN" name="KZN" netid="HL" insttype="120" lat="40.3033" lon="21.7821">
    <comp name="--.HHE">
      <acc value="0.0420299714" flag="0"/>
      <vel value="0.0172649974" flag="0"/>
      <psa03 value="0.0959056306" flag="0"/>
      <psa10 value="0.0080186687" flag="0"/>
      <psa30 value="0.0006256828" flag="0"/>
    </comp>
    <comp name="--.HHN">
      <acc value="0.0228065414" flag="0"/>
      <vel value="0.0098350094" flag="0"/>
      <psa03 value="0.0724127392" flag="0"/>
      <psa10 value="0.0041048375" flag="0"/>
      <psa30 value="0.0003944885" flag="0"/>
    </comp>
    <comp name="--.HHZ">
      <acc value="0.0157940853" flag="0"/>
      <vel value="0.0065864239" flag="0"/>
      <psa03 value="0.0428445946" flag="0"/>
      <psa10 value="0.0036801085" flag="0"/>
      <psa30 value="0.0003064665" flag="0"/>
    </comp>
  </station>
  <station code="NEO" name="NEO" netid="HL" insttype="120" lat="39.3057" lon="23.2219">
    <comp name="--.HHN">
      <acc value="0.0224587452" flag="0"/>
      <vel value="0.0192714451" flag="0"/>
      <psa03 value="0.0592425918" flag="0"/>
      <psa10 value="0.0259678689" flag="0"/>
      <psa30 value="0.0011558589" flag="0"/>
    </comp>
    <comp name="--.HHE">
      <acc value="0.0189603824" flag="0"/>
      <vel value="0.0129082557" flag="0"/>
      <psa03 value="0.0603458218" flag="0"/>
      <psa10 value="0.0156059355" flag="0"/>
      <psa30 value="0.0006083304" flag="0"/>
    </comp>
    <comp name="--.HHZ">
      <acc value="0.0092256814" flag="0"/>
      <vel value="0.0053034807" flag="0"/>
      <psa03 value="0.0209766673" flag="0"/>
      <psa10 value="0.0089621392" flag="0"/>
      <psa30 value="0.0003775439" flag="0"/>
    </comp>
  </station>
  <station code="TETR" name="TETR" netid="HL" insttype="60" lat="39.3445" lon="21.2747">
    <comp name="--.HHZ">
      <acc value="0.0218585828" flag="0"/>
      <vel value="0.0106988721" flag="0"/>
      <psa03 value="0.0558822220" flag="0"/>
      <psa10 value="0.0069261326" flag="0"/>
      <psa30 value="0.0004176151" flag="0"/>
    </comp>
    <comp name="--.HHE">
      <acc value="0.0661589560" flag="0"/>
      <vel value="0.0226716970" flag="0"/>
      <psa03 value="0.1459430706" flag="0"/>
      <psa10 value="0.0117640206" flag="0"/>
      <psa30 value="0.0007408368" flag="0"/>
    </comp>
    <comp name="--.HHN">
      <acc value="0.0559009776" flag="0"/>
      <vel value="0.0162730806" flag="0"/>
      <psa03 value="0.0876913926" flag="0"/>
      <psa10 value="0.0117318981" flag="0"/>
      <psa30 value="0.0005420154" flag="0"/>
    </comp>
  </station>
  <station code="THL" name="THL" netid="HL" insttype="120" lat="39.5647" lon="22.0144">
    <comp name="--.HHZ">
      <acc value="0.0256046268" flag="0"/>
      <vel value="0.0092235130" flag="0"/>
      <psa03 value="0.0155695110" flag="0"/>
      <psa10 value="0.0071104529" flag="0"/>
      <psa30 value="0.0004288779" flag="0"/>
    </comp>
    <comp name="--.HHE">
      <acc value="0.0408015325" flag="0"/>
      <vel value="0.0104331102" flag="0"/>
      <psa03 value="0.0231831525" flag="0"/>
      <psa10 value="0.0099969559" flag="0"/>
      <psa30 value="0.0006162743" flag="0"/>
    </comp>
    <comp name="--.HHN">
      <acc value="0.0386610695" flag="0"/>
      <vel value="0.0103965493" flag="0"/>
      <psa03 value="0.0412792608" flag="0"/>
      <psa10 value="0.0056215451" flag="0"/>
      <psa30 value="0.0006357092" flag="0"/>
    </comp>
  </station>
  <station code="AGG" name="AGG" netid="HT" insttype="120P," lat="39.0211" lon="22.336">
    <comp name="--.HHN">
      <acc value="0.0326314506" flag="0"/>
      <vel value="0.0151923476" flag="0"/>
      <psa03 value="0.0958088753" flag="0"/>
      <psa10 value="0.0070868278" flag="0"/>
      <psa30 value="0.0007346728" flag="0"/>
    </comp>
    <comp name="--.HHE">
      <acc value="0.0403858726" flag="0"/>
      <vel value="0.0206851596" flag="0"/>
      <psa03 value="0.1173449636" flag="0"/>
      <psa10 value="0.0095588104" flag="0"/>
      <psa30 value="0.0004962030" flag="0"/>
    </comp>
    <comp name="--.HHZ">
      <acc value="0.0162718940" flag="0"/>
      <vel value="0.0053700414" flag="0"/>
      <psa03 value="0.0333571874" flag="0"/>
      <psa10 value="0.0029348744" flag="0"/>
      <psa30 value="0.0002490302" flag="0"/>
    </comp>
  </station>
  <station code="KPRO" name="KPRO" netid="HT" insttype="100" lat="39.9549" lon="21.3632">
    <comp name="--.HHE">
      <acc value="0.0242524018" flag="0"/>
      <vel value="0.0107309880" flag="0"/>
      <psa03 value="0.0531642224" flag="0"/>
      <psa10 value="0.0115181706" flag="0"/>
      <psa30 value="0.0005701788" flag="0"/>
    </comp>
    <comp name="--.HHN">
      <acc value="0.0218714476" flag="0"/>
      <vel value="0.0103794535" flag="0"/>
      <psa03 value="0.0662246507" flag="0"/>
      <psa10 value="0.0114445298" flag="0"/>
      <psa30 value="0.0005615801" flag="0"/>
    </comp>
    <comp name="--.HHZ">
      <acc value="0.0124796388" flag="0"/>
      <vel value="0.0043988297" flag="0"/>
      <psa03 value="0.0250201193" flag="0"/>
      <psa10 value="0.0040402985" flag="0"/>
      <psa30 value="0.0003591172" flag="0"/>
    </comp>
  </station>
  <station code="LIT" name="LIT" netid="HT" insttype="100" lat="40.1033" lon="22.4892">
    <comp name="--.HHE">
      <acc value="0.0567472962" flag="0"/>
      <vel value="0.0233576368" flag="0"/>
      <psa03 value="0.1345239067" flag="0"/>
      <psa10 value="0.0103760837" flag="0"/>
      <psa30 value="0.0006509948" flag="0"/>
    </comp>
    <comp name="--.HHZ">
      <acc value="0.0214344523" flag="0"/>
      <vel value="0.0155727451" flag="0"/>
      <psa03 value="0.0541887660" flag="0"/>
      <psa10 value="0.0089749729" flag="0"/>
      <psa30 value="0.0004918971" flag="0"/>
    </comp>
    <comp name="--.HHN">
      <acc value="0.0635414120" flag="0"/>
      <vel value="0.0206457935" flag="0"/>
      <psa03 value="0.1240161660" flag="0"/>
      <psa10 value="0.0109774361" flag="0"/>
      <psa30 value="0.0007740647" flag="0"/>
    </comp>
  </station>
  <station code="TYRN" name="TYRN" netid="HT" insttype="120P," lat="39.711" lon="22.2325">
    <comp name="--.HHZ">
      <acc value="0.0588479179" flag="0"/>
      <vel value="0.0138011311" flag="0"/>
      <psa03 value="0.0810646809" flag="0"/>
      <psa10 value="0.0046010713" flag="0"/>
      <psa30 value="0.0006404923" flag="0"/>
    </comp>
    <comp name="--.HHE">
      <acc value="0.0854822101" flag="0"/>
      <vel value="0.0154835524" flag="0"/>
      <psa03 value="0.0722651157" flag="0"/>
      <psa10 value="0.0047678179" flag="0"/>
      <psa30 value="0.0003618717" flag="0"/>
    </comp>
    <comp name="--.HHN">
      <acc value="0.0700218445" flag="0"/>
      <vel value="0.0133853310" flag="0"/>
      <psa03 value="0.0589707143" flag="0"/>
      <psa10 value="0.0032636344" flag="0"/>
      <psa30 value="0.0004010137" flag="0"/>
    </comp>
  </station>
  <station code="THL" name="THL" netid="MN" insttype="" lat="39.5647" lon="22.0144">
    <comp name="--.HHE">
      <acc value="0.0408015325" flag="0"/>
      <vel value="0.0104331102" flag="0"/>
      <psa03 value="0.0231831525" flag="0"/>
      <psa10 value="0.0099969559" flag="0"/>
      <psa30 value="0.0006162743" flag="0"/>
    </comp>
    <comp name="--.HHZ">
      <acc value="0.0256046268" flag="0"/>
      <vel value="0.0092235130" flag="0"/>
      <psa03 value="0.0155695110" flag="0"/>
      <psa10 value="0.0071104529" flag="0"/>
      <psa30 value="0.0004288779" flag="0"/>
    </comp>
    <comp name="--.HHN">
      <acc value="0.0386610695" flag="0"/>
      <vel value="0.0103965493" flag="0"/>
      <psa03 value="0.0412792608" flag="0"/>
      <psa10 value="0.0056215451" flag="0"/>
      <psa30 value="0.0006357092" flag="0"/>
    </comp>
  </station>
</stationlist>
