<stationlist created="1778069609">
	<station code="IMMV" name="IMMV" netid="GE" source="GEOFON" insttype="" lat="35.4606" lon="23.9811">
		<comp name="--.HNE" depth="0.0">
			<acc value="0.00479867456457061" flag="0"/>
			<vel value="0.012210766340107" flag="0"/>
			<psa03 value="0.00639813554641286" flag="0"/>
			<psa10 value="0.0135823916631088" flag="0"/>
			<psa30 value="0.0052062031621021" flag="0"/>
		</comp>
		<comp name="--.HNN" depth="0.0">
			<acc value="0.00382722498571991" flag="0"/>
			<vel value="0.0151158192077013" flag="0"/>
			<psa03 value="0.0061744245133215" flag="0"/>
			<psa10 value="0.00859318820310527" flag="0"/>
			<psa30 value="0.00433507239924435" flag="0"/>
		</comp>
		<comp name="--.HNZ" depth="0.0">
			<acc value="0.00335103117760631" flag="0"/>
			<vel value="0.0128188672195287" flag="0"/>
			<psa03 value="0.00684555761259558" flag="0"/>
			<psa10 value="0.00912472561773034" flag="0"/>
			<psa30 value="0.00225366494736235" flag="0"/>
		</comp>
	</station>
	<station code="KARP" name="KARP" netid="GE" source="GEOFON" insttype="" lat="35.5471" lon="27.16106">
		<comp name="--.HNE" depth="0.0">
			<acc value="0.00393391344321967" flag="0"/>
			<vel value="0.0124649237342406" flag="0"/>
			<psa03 value="0.0109618406214766" flag="0"/>
			<psa10 value="0.0149555299842235" flag="0"/>
			<psa30 value="0.00467869254607268" flag="0"/>
		</comp>
		<comp name="--.HNN" depth="0.0">
			<acc value="0.00426431048614843" flag="0"/>
			<vel value="0.0114039049762613" flag="0"/>
			<psa03 value="0.00756143291848793" flag="0"/>
			<psa10 value="0.0106871234728404" flag="0"/>
			<psa30 value="0.00422903336955905" flag="0"/>
		</comp>
		<comp name="--.HNZ" depth="0.0">
			<acc value="0.00340420318220632" flag="0"/>
			<vel value="0.0104722605253184" flag="0"/>
			<psa03 value="0.0131542087457719" flag="0"/>
			<psa10 value="0.00651133332915709" flag="0"/>
			<psa30 value="0.00400666460266623" flag="0"/>
		</comp>
	</station>
	<station code="IACM" name="IACM" netid="HL" source="National Observatory of Athens Seismic Network" insttype="" lat="35.3058" lon="25.0709">
		<comp name="--.HNE" depth="0.0">
			<acc value="0.0480805688490384" flag="0"/>
			<vel value="0.060924055892941" flag="0"/>
			<psa03 value="0.0775829862760832" flag="0"/>
			<psa10 value="0.139750045261841" flag="0"/>
			<psa30 value="0.0120325216258518" flag="0"/>
		</comp>
		<comp name="--.HNN" depth="0.0">
			<acc value="0.0365312762064544" flag="0"/>
			<vel value="0.055346585455359" flag="0"/>
			<psa03 value="0.0954351267167737" flag="0"/>
			<psa10 value="0.118367744718969" flag="0"/>
			<psa30 value="0.0136163957401386" flag="0"/>
		</comp>
		<comp name="--.HNZ" depth="0.0">
			<acc value="0.0201851413319319" flag="0"/>
			<vel value="0.028572299501424" flag="0"/>
			<psa03 value="0.0440263313123794" flag="0"/>
			<psa10 value="0.0278694730804553" flag="0"/>
			<psa30 value="0.00609881018413662" flag="0"/>
		</comp>
	</station>
	<station code="IMMV" name="IMMV" netid="HL" source="National Observatory of Athens Seismic Network" insttype="" lat="35.4606" lon="23.9811">
		<comp name="--.HNE" depth="0.0">
			<acc value="0.00470965470869718" flag="0"/>
			<vel value="0.0122534082814518" flag="0"/>
			<psa03 value="0.00621916671993977" flag="0"/>
			<psa10 value="0.0132924621642224" flag="0"/>
			<psa30 value="0.00515832900102055" flag="0"/>
		</comp>
		<comp name="--.HNN" depth="0.0">
			<acc value="0.00376675351211678" flag="0"/>
			<vel value="0.0148794918060728" flag="0"/>
			<psa03 value="0.00608494010008496" flag="0"/>
			<psa10 value="0.00850862543259674" flag="0"/>
			<psa30 value="0.0044191877476867" flag="0"/>
		</comp>
		<comp name="--.HNZ" depth="0.0">
			<acc value="0.00329817504806956" flag="0"/>
			<vel value="0.012546918571266" flag="0"/>
			<psa03 value="0.00680081540597731" flag="0"/>
			<psa10 value="0.00902808245143487" flag="0"/>
			<psa30 value="0.00222950415578848" flag="0"/>
		</comp>
	</station>
	<station code="SIVA" name="SIVA" netid="HL" source="National Observatory of Athens Seismic Network" insttype="" lat="35.01777" lon="24.81204">
		<comp name="00.HNE" depth="0.0">
			<acc value="0.0276650839547524" flag="0"/>
			<vel value="0.0339241616935" flag="0"/>
			<psa03 value="0.0739141253333849" flag="0"/>
			<psa10 value="0.0292063702142092" flag="0"/>
			<psa30 value="0.00936812322173374" flag="0"/>
		</comp>
		<comp name="00.HNN" depth="0.0">
			<acc value="0.0196011051858547" flag="0"/>
			<vel value="0.0386727432474846" flag="0"/>
			<psa03 value="0.0459502461969651" flag="0"/>
			<psa10 value="0.0479631980727211" flag="0"/>
			<psa30 value="0.00816142590923895" flag="0"/>
		</comp>
		<comp name="00.HNZ" depth="0.0">
			<acc value="0.0100994183356867" flag="0"/>
			<vel value="0.0201849571776247" flag="0"/>
			<psa03 value="0.0298877940210055" flag="0"/>
			<psa10 value="0.0185554879287297" flag="0"/>
			<psa30 value="0.00493998703272338" flag="0"/>
		</comp>
	</station>
</stationlist>
