<?xml version="1.0" encoding="UTF-8" standalone="yes"?>
<!DOCTYPE earthquake SYSTEM "stationlist.dtd">
<stationlist created="" xmlns="ch.ethz.sed.shakemap.usgs.xml">
  <station code="ZKR" name="ZKR" netid="GE" insttype="STS-2/N" lat="35.1147" lon="26.2169">
    <comp name="--.HHE">
      <acc value="0.0218922718" flag="0"/>
      <vel value="0.0257149570" flag="0"/>
      <psa03 value="0.0566876680" flag="0"/>
      <psa10 value="0.0299249470" flag="0"/>
      <psa30 value="0.0180213210" flag="0"/>
    </comp>
    <comp name="--.HHN">
      <acc value="0.0184585941" flag="0"/>
      <vel value="0.0117838455" flag="0"/>
      <psa03 value="0.0477864321" flag="0"/>
      <psa10 value="0.0165500719" flag="0"/>
      <psa30 value="0.0066025603" flag="0"/>
    </comp>
    <comp name="--.HHZ">
      <acc value="0.0170208820" flag="0"/>
      <vel value="0.0194896802" flag="0"/>
      <psa03 value="0.0581820244" flag="0"/>
      <psa10 value="0.0181018642" flag="0"/>
      <psa30 value="0.0064621503" flag="0"/>
    </comp>
  </station>
  <station code="IACM" name="IACM" netid="HL" insttype="120" lat="35.3058" lon="25.0709">
    <comp name="--.HHE">
      <acc value="0.0459445396" flag="0"/>
      <vel value="0.0548239316" flag="0"/>
      <psa03 value="0.0802333346" flag="0"/>
      <psa10 value="0.1402016393" flag="0"/>
      <psa30 value="0.0105675620" flag="0"/>
    </comp>
    <comp name="--.HHN">
      <acc value="0.0357283118" flag="0"/>
      <vel value="0.0526593441" flag="0"/>
      <psa03 value="0.0939050758" flag="0"/>
      <psa10 value="0.1151855850" flag="0"/>
      <psa30 value="0.0111335158" flag="0"/>
    </comp>
    <comp name="--.HHZ">
      <acc value="0.0205971448" flag="0"/>
      <vel value="0.0249842801" flag="0"/>
      <psa03 value="0.0452162706" flag="0"/>
      <psa10 value="0.0286831839" flag="0"/>
      <psa30 value="0.0049445241" flag="0"/>
    </comp>
  </station>
  <station code="IDI" name="IDI" netid="HL" insttype="120" lat="35.288" lon="24.89">
    <comp name="--.HHE">
      <acc value="0.0047406299" flag="0"/>
      <vel value="0.0085811508" flag="0"/>
      <psa03 value="0.0081045957" flag="0"/>
      <psa10 value="0.0076186482" flag="0"/>
      <psa30 value="0.0029368903" flag="0"/>
    </comp>
    <comp name="--.HHN">
      <acc value="0.0036722121" flag="0"/>
      <vel value="0.0057969799" flag="0"/>
      <psa03 value="0.0120871420" flag="0"/>
      <psa10 value="0.0059712840" flag="0"/>
      <psa30 value="0.0033652094" flag="0"/>
    </comp>
    <comp name="--.HHZ">
      <acc value="0.0035188155" flag="0"/>
      <vel value="0.0056562252" flag="0"/>
      <psa03 value="0.0087439220" flag="0"/>
      <psa10 value="0.0068854610" flag="0"/>
      <psa30 value="0.0020579983" flag="0"/>
    </comp>
  </station>
  <station code="NPS" name="NPS" netid="HL" insttype="CMG3ESPC-120s" lat="35.2613" lon="25.6104">
    <comp name="--.HHE">
      <acc value="0.0051118747" flag="0"/>
      <vel value="0.0057987191" flag="0"/>
      <psa03 value="0.0147202085" flag="0"/>
      <psa10 value="0.0095892412" flag="0"/>
      <psa30 value="0.0029015179" flag="0"/>
    </comp>
    <comp name="--.HHN">
      <acc value="0.0129784843" flag="0"/>
      <vel value="0.0138507638" flag="0"/>
      <psa03 value="0.0234991329" flag="0"/>
      <psa10 value="0.0187474137" flag="0"/>
      <psa30 value="0.0049357852" flag="0"/>
    </comp>
    <comp name="--.HHZ">
      <acc value="0.0063137012" flag="0"/>
      <vel value="0.0101204684" flag="0"/>
      <psa03 value="0.0221551397" flag="0"/>
      <psa10 value="0.0106001743" flag="0"/>
      <psa30 value="0.0054576626" flag="0"/>
    </comp>
  </station>
  <station code="SIVA" name="SIVA" netid="HL" insttype="60" lat="35.0178" lon="24.812">
    <comp name="--.HHE">
      <acc value="0.0280754551" flag="0"/>
      <vel value="0.0192681692" flag="0"/>
      <psa03 value="0.0785049826" flag="0"/>
      <psa10 value="0.0292636426" flag="0"/>
      <psa30 value="0.0076361490" flag="0"/>
    </comp>
    <comp name="--.HHN">
      <acc value="0.0188223690" flag="0"/>
      <vel value="0.0221214272" flag="0"/>
      <psa03 value="0.0402400601" flag="0"/>
      <psa10 value="0.0400572404" flag="0"/>
      <psa30 value="0.0053075491" flag="0"/>
    </comp>
    <comp name="--.HHZ">
      <acc value="0.0104024975" flag="0"/>
      <vel value="0.0113493679" flag="0"/>
      <psa03 value="0.0312189550" flag="0"/>
      <psa10 value="0.0191791536" flag="0"/>
      <psa30 value="0.0036150699" flag="0"/>
    </comp>
  </station>
  <station code="ZKR" name="ZKR" netid="HL" insttype="120" lat="35.1147" lon="26.2169">
    <comp name="--.HHE">
      <acc value="0.0215554097" flag="0"/>
      <vel value="0.0256878116" flag="0"/>
      <psa03 value="0.0551512304" flag="0"/>
      <psa10 value="0.0297720450" flag="0"/>
      <psa30 value="0.0180324309" flag="0"/>
    </comp>
    <comp name="--.HHN">
      <acc value="0.0178805642" flag="0"/>
      <vel value="0.0116397831" flag="0"/>
      <psa03 value="0.0464641835" flag="0"/>
      <psa10 value="0.0164815425" flag="0"/>
      <psa30 value="0.0066064923" flag="0"/>
    </comp>
    <comp name="--.HHZ">
      <acc value="0.0166150222" flag="0"/>
      <vel value="0.0193992816" flag="0"/>
      <psa03 value="0.0566094009" flag="0"/>
      <psa10 value="0.0180329876" flag="0"/>
      <psa30 value="0.0064664713" flag="0"/>
    </comp>
  </station>
  <station code="IDI" name="IDI" netid="MN" insttype="" lat="35.288" lon="24.89">
    <comp name="--.HHE">
      <acc value="0.0047737722" flag="0"/>
      <vel value="0.0085057229" flag="0"/>
      <psa03 value="0.0081413770" flag="0"/>
      <psa10 value="0.0075563152" flag="0"/>
      <psa30 value="0.0029017617" flag="0"/>
    </comp>
    <comp name="--.HHZ">
      <acc value="0.0035239696" flag="0"/>
      <vel value="0.0056077184" flag="0"/>
      <psa03 value="0.0088068592" flag="0"/>
      <psa10 value="0.0068316182" flag="0"/>
      <psa30 value="0.0020243360" flag="0"/>
    </comp>
    <comp name="--.HHN">
      <acc value="0.0036901735" flag="0"/>
      <vel value="0.0057342059" flag="0"/>
      <psa03 value="0.0122213966" flag="0"/>
      <psa10 value="0.0059204845" flag="0"/>
      <psa30 value="0.0033232026" flag="0"/>
    </comp>
  </station>
</stationlist>
