<stationlist created="1687253450">
	<station code="AMRR" name="AMRR" netid="RO" source="Romanian Seismic Network (NIEP)" insttype="" lat="44.6102" lon="27.3351">
		<comp name=".HNE" depth="0.0">
			<acc value="0.0306647060001" flag="0"/>
			<vel value="0.00990387090439" flag="0"/>
			<psa03 value="0.0653303955263" flag="0"/>
			<psa10 value="0.00280195780345" flag="0"/>
			<psa30 value="0.000327574981485" flag="0"/>
		</comp>
		<comp name=".HNN" depth="0.0">
			<acc value="0.026638759091" flag="0"/>
			<vel value="0.00688940856723" flag="0"/>
			<psa03 value="0.0363680159734" flag="0"/>
			<psa10 value="0.00453736510942" flag="0"/>
			<psa30 value="0.000247330316711" flag="0"/>
		</comp>
		<comp name=".HNZ" depth="0.0">
			<acc value="0.0403104373764" flag="0"/>
			<vel value="0.00581134572304" flag="0"/>
			<psa03 value="0.0148771834571" flag="0"/>
			<psa10 value="0.000985052793974" flag="0"/>
			<psa30 value="0.00011243384142" flag="0"/>
		</comp>
	</station>
	<station code="BAC" name="BAC" netid="RO" source="Romanian Seismic Network (NIEP)" insttype="" lat="46.5669" lon="26.9124">
		<comp name=".HNE" depth="0.0">
			<acc value="0.00758554205534" flag="0"/>
			<vel value="0.00316343385895" flag="0"/>
			<psa03 value="0.0145757963042" flag="0"/>
			<psa10 value="0.00156127963805" flag="0"/>
			<psa30 value="0.000236420323144" flag="0"/>
		</comp>
		<comp name=".HNN" depth="0.0">
			<acc value="0.0134502517783" flag="0"/>
			<vel value="0.00612888900939" flag="0"/>
			<psa03 value="0.0249149447636" flag="0"/>
			<psa10 value="0.00262168851775" flag="0"/>
			<psa30 value="0.000217332014367" flag="0"/>
		</comp>
		<comp name=".HNZ" depth="0.0">
			<acc value="0.00766468082544" flag="0"/>
			<vel value="0.00171249058256" flag="0"/>
			<psa03 value="0.00543780326164" flag="0"/>
			<psa10 value="0.000792244376832" flag="0"/>
			<psa30 value="7.51279846727e-05" flag="0"/>
		</comp>
	</station>
	<station code="BAPR" name="BAPR" netid="RO" source="Romanian Seismic Network (NIEP)" insttype="" lat="44.4059" lon="26.119">
		<comp name=".HNE" depth="0.0">
			<acc value="0.0980482480814" flag="0"/>
			<vel value="0.0386359462535" flag="0"/>
			<psa03 value="0.203351283525" flag="0"/>
			<psa10 value="0.0109721055982" flag="0"/>
			<psa30 value="0.00113624599989" flag="0"/>
		</comp>
		<comp name=".HNN" depth="0.0">
			<acc value="0.0455894861521" flag="0"/>
			<vel value="0.0151656249589" flag="0"/>
			<psa03 value="0.0775904108171" flag="0"/>
			<psa10 value="0.00586871361724" flag="0"/>
			<psa30 value="0.000638285408274" flag="0"/>
		</comp>
		<comp name=".HNZ" depth="0.0">
			<acc value="0.0354698960298" flag="0"/>
			<vel value="0.00710830516521" flag="0"/>
			<psa03 value="0.037583291792" flag="0"/>
			<psa10 value="0.00214310853292" flag="0"/>
			<psa30 value="0.000610430021324" flag="0"/>
		</comp>
	</station>
	<station code="BIR" name="BIR" netid="RO" source="Romanian Seismic Network (NIEP)" insttype="" lat="46.2334" lon="27.6436">
		<comp name=".HNE" depth="0.0">
			<acc value="0.128949380774" flag="0"/>
			<vel value="0.02345895507" flag="0"/>
			<psa03 value="0.095906051222" flag="0"/>
			<psa10 value="0.0113597847175" flag="0"/>
			<psa30 value="0.000670166999442" flag="0"/>
		</comp>
		<comp name=".HNN" depth="0.0">
			<acc value="0.0813499364962" flag="0"/>
			<vel value="0.015947223808" flag="0"/>
			<psa03 value="0.061897147257" flag="0"/>
			<psa10 value="0.00594647501853" flag="0"/>
			<psa30 value="0.000712839565871" flag="0"/>
		</comp>
		<comp name=".HNZ" depth="0.0">
			<acc value="0.109214434591" flag="0"/>
			<vel value="0.0168439116057" flag="0"/>
			<psa03 value="0.0847126534641" flag="0"/>
			<psa10 value="0.00346272415411" flag="0"/>
			<psa30 value="0.000272799556007" flag="0"/>
		</comp>
	</station>
	<station code="BISRR" name="BISRR" netid="RO" source="Romanian Seismic Network (NIEP)" insttype="" lat="45.5481" lon="26.7099">
		<comp name=".HNE" depth="0.0">
			<acc value="0.0209213400871" flag="0"/>
			<vel value="0.0131546933572" flag="0"/>
			<psa03 value="0.073343238838" flag="0"/>
			<psa10 value="0.0120628794191" flag="0"/>
			<psa30 value="0.000696581092996" flag="0"/>
		</comp>
		<comp name=".HNN" depth="0.0">
			<acc value="0.030501162763" flag="0"/>
			<vel value="0.0121447778412" flag="0"/>
			<psa03 value="0.059438593765" flag="0"/>
			<psa10 value="0.00980929137991" flag="0"/>
			<psa30 value="0.000498560162579" flag="0"/>
		</comp>
		<comp name=".HNZ" depth="0.0">
			<acc value="0.0191208232064" flag="0"/>
			<vel value="0.00795146947363" flag="0"/>
			<psa03 value="0.0502619233559" flag="0"/>
			<psa10 value="0.00509083099257" flag="0"/>
			<psa30 value="0.000320340387645" flag="0"/>
		</comp>
	</station>
	<station code="BSTR" name="BSTR" netid="RO" source="Romanian Seismic Network (NIEP)" insttype="" lat="44.4458" lon="26.0984">
		<comp name=".HNE" depth="0.0">
			<acc value="0.077249813283" flag="0"/>
			<vel value="0.0349790670707" flag="0"/>
			<psa03 value="0.190863456267" flag="0"/>
			<psa10 value="0.01021554923" flag="0"/>
			<psa30 value="0.00097887203297" flag="0"/>
		</comp>
		<comp name=".HNN" depth="0.0">
			<acc value="0.0386504077214" flag="0"/>
			<vel value="0.0114093738119" flag="0"/>
			<psa03 value="0.0557379371566" flag="0"/>
			<psa10 value="0.00526793038079" flag="0"/>
			<psa30 value="0.000477478088914" flag="0"/>
		</comp>
		<comp name=".HNZ" depth="0.0">
			<acc value="0.0468274382421" flag="0"/>
			<vel value="0.0102464452238" flag="0"/>
			<psa03 value="0.0574865061156" flag="0"/>
			<psa10 value="0.00206932755154" flag="0"/>
			<psa30 value="0.000598569548127" flag="0"/>
		</comp>
	</station>
	<station code="BUC" name="BUC" netid="RO" source="Romanian Seismic Network (NIEP)" insttype="" lat="44.4107" lon="26.0938">
		<comp name=".HNE" depth="0.0">
			<acc value="0.100877374111" flag="0"/>
			<vel value="0.0518441672984" flag="0"/>
			<psa03 value="0.239758278643" flag="0"/>
			<psa10 value="0.0151088208852" flag="0"/>
			<psa30 value="0.00156069276324" flag="0"/>
		</comp>
		<comp name=".HNN" depth="0.0">
			<acc value="0.0513185177797" flag="0"/>
			<vel value="0.0157945345544" flag="0"/>
			<psa03 value="0.101465950788" flag="0"/>
			<psa10 value="0.00407096874422" flag="0"/>
			<psa30 value="0.000475146319863" flag="0"/>
		</comp>
		<comp name=".HNZ" depth="0.0">
			<acc value="0.0363019539541" flag="0"/>
			<vel value="0.00791703679314" flag="0"/>
			<psa03 value="0.0478126048503" flag="0"/>
			<psa10 value="0.00183338137439" flag="0"/>
			<psa30 value="0.000121302527885" flag="0"/>
		</comp>
	</station>
	<station code="BUC1" name="BUC1" netid="RO" source="Romanian Seismic Network (NIEP)" insttype="" lat="44.3479" lon="26.0281">
		<comp name=".HNE" depth="0.0">
			<acc value="0.118567374717" flag="0"/>
			<vel value="0.0493874601111" flag="0"/>
			<psa03 value="0.231198044903" flag="0"/>
			<psa10 value="0.014345282492" flag="0"/>
			<psa30 value="0.00177193113174" flag="0"/>
		</comp>
		<comp name=".HNN" depth="0.0">
			<acc value="0.0687371887075" flag="0"/>
			<vel value="0.0236325972113" flag="0"/>
			<psa03 value="0.111979605599" flag="0"/>
			<psa10 value="0.0101264995809" flag="0"/>
			<psa30 value="0.000801308551507" flag="0"/>
		</comp>
		<comp name=".HNZ" depth="0.0">
			<acc value="0.0497565735605" flag="0"/>
			<vel value="0.0125388321231" flag="0"/>
			<psa03 value="0.0455859521373" flag="0"/>
			<psa10 value="0.00222524413025" flag="0"/>
			<psa30 value="0.00036244526022" flag="0"/>
		</comp>
	</station>
	<station code="CFR" name="CFR" netid="RO" source="Romanian Seismic Network (NIEP)" insttype="" lat="45.178" lon="28.1362">
		<comp name=".HNE" depth="0.0">
			<acc value="0.0336718688021" flag="0"/>
			<vel value="0.00638537529101" flag="0"/>
			<psa03 value="0.0263552563231" flag="0"/>
			<psa10 value="0.00142213815499" flag="0"/>
			<psa30 value="0.000120119637024" flag="0"/>
		</comp>
		<comp name=".HNN" depth="0.0">
			<acc value="0.0414225439369" flag="0"/>
			<vel value="0.00851036526585" flag="0"/>
			<psa03 value="0.0232116079676" flag="0"/>
			<psa10 value="0.000968037623836" flag="0"/>
			<psa30 value="0.000100321841142" flag="0"/>
		</comp>
		<comp name=".HNZ" depth="0.0">
			<acc value="0.0316029282457" flag="0"/>
			<vel value="0.00334178834632" flag="0"/>
			<psa03 value="0.0112361714246" flag="0"/>
			<psa10 value="0.000747953825613" flag="0"/>
			<psa30 value="7.25419735184e-05" flag="0"/>
		</comp>
	</station>
	<station code="CIOR" name="CIOR" netid="RO" source="Romanian Seismic Network (NIEP)" insttype="" lat="44.4489" lon="25.8799">
		<comp name=".HNE" depth="0.0">
			<acc value="0.110643564846" flag="0"/>
			<vel value="0.031762916602" flag="0"/>
			<psa03 value="0.0796876591246" flag="0"/>
			<psa10 value="0.0116787152201" flag="0"/>
			<psa30 value="0.000915687326459" flag="0"/>
		</comp>
		<comp name=".HNN" depth="0.0">
			<acc value="0.102176397779" flag="0"/>
			<vel value="0.025802952983" flag="0"/>
			<psa03 value="0.0730344788007" flag="0"/>
			<psa10 value="0.00844908096014" flag="0"/>
			<psa30 value="0.000739818019727" flag="0"/>
		</comp>
		<comp name=".HNZ" depth="0.0">
			<acc value="0.0439276628196" flag="0"/>
			<vel value="0.00960700766562" flag="0"/>
			<psa03 value="0.0238865901819" flag="0"/>
			<psa10 value="0.00170514092597" flag="0"/>
			<psa30 value="0.000157141060866" flag="0"/>
		</comp>
	</station>
	<station code="CLISU" name="CLISU" netid="RO" source="Romanian Seismic Network (NIEP)" insttype="" lat="44.1901" lon="27.3557">
		<comp name=".HNE" depth="0.0">
			<acc value="0.0431126145548" flag="0"/>
			<vel value="0.0169952317608" flag="0"/>
			<psa03 value="0.0580226301728" flag="0"/>
			<psa10 value="0.00697401683815" flag="0"/>
			<psa30 value="0.000453420922326" flag="0"/>
		</comp>
		<comp name=".HNN" depth="0.0">
			<acc value="0.0333664188513" flag="0"/>
			<vel value="0.0113535888338" flag="0"/>
			<psa03 value="0.0792388898124" flag="0"/>
			<psa10 value="0.00463504689285" flag="0"/>
			<psa30 value="0.000285587720868" flag="0"/>
		</comp>
		<comp name=".HNZ" depth="0.0">
			<acc value="0.0469636123579" flag="0"/>
			<vel value="0.00983655145498" flag="0"/>
			<psa03 value="0.0337999812704" flag="0"/>
			<psa10 value="0.00167433357263" flag="0"/>
			<psa30 value="0.000142461012864" flag="0"/>
		</comp>
	</station>
	<station code="COPA" name="COPA" netid="RO" source="Romanian Seismic Network (NIEP)" insttype="" lat="44.1343" lon="25.2172">
		<comp name=".HNE" depth="0.0">
			<acc value="0.0407409512498" flag="0"/>
			<vel value="0.00898563740368" flag="0"/>
			<psa03 value="0.0335165953099" flag="0"/>
			<psa10 value="0.0033169301991" flag="0"/>
			<psa30 value="0.00034635338692" flag="0"/>
		</comp>
		<comp name=".HNN" depth="0.0">
			<acc value="0.055266192393" flag="0"/>
			<vel value="0.0161335372007" flag="0"/>
			<psa03 value="0.102393439313" flag="0"/>
			<psa10 value="0.00620364361719" flag="0"/>
			<psa30 value="0.000564292121168" flag="0"/>
		</comp>
		<comp name=".HNZ" depth="0.0">
			<acc value="0.0475076284732" flag="0"/>
			<vel value="0.00924173963154" flag="0"/>
			<psa03 value="0.0244597844032" flag="0"/>
			<psa10 value="0.00144045026651" flag="0"/>
			<psa30 value="0.000155114937062" flag="0"/>
		</comp>
	</station>
	<station code="CVDA" name="CVDA" netid="RO" source="Romanian Seismic Network (NIEP)" insttype="" lat="44.3336" lon="28.0374">
		<comp name=".HNE" depth="0.0">
			<acc value="0.032231785499" flag="0"/>
			<vel value="0.009986903057" flag="0"/>
			<psa03 value="0.0581112870874" flag="0"/>
			<psa10 value="0.00368218142645" flag="0"/>
			<psa30 value="0.000326716096463" flag="0"/>
		</comp>
		<comp name=".HNN" depth="0.0">
			<acc value="0.0256437688178" flag="0"/>
			<vel value="0.0123052299176" flag="0"/>
			<psa03 value="0.0847290868443" flag="0"/>
			<psa10 value="0.0041393329605" flag="0"/>
			<psa30 value="0.000348559053868" flag="0"/>
		</comp>
		<comp name=".HNZ" depth="0.0">
			<acc value="0.0383883314672" flag="0"/>
			<vel value="0.012622653895" flag="0"/>
			<psa03 value="0.0905045788176" flag="0"/>
			<psa10 value="0.00205899678906" flag="0"/>
			<psa30 value="0.000200562921726" flag="0"/>
		</comp>
	</station>
	<station code="GRISU" name="GRISU" netid="RO" source="Romanian Seismic Network (NIEP)" insttype="" lat="43.8898" lon="25.9518">
		<comp name=".HNE" depth="0.0">
			<acc value="0.0330077149123" flag="0"/>
			<vel value="0.0150725463752" flag="0"/>
			<psa03 value="0.150096088963" flag="0"/>
			<psa10 value="0.00423755056067" flag="0"/>
			<psa30 value="0.00033273123452" flag="0"/>
		</comp>
		<comp name=".HNN" depth="0.0">
			<acc value="0.0241415395168" flag="0"/>
			<vel value="0.0100077325807" flag="0"/>
			<psa03 value="0.103669242579" flag="0"/>
			<psa10 value="0.00378370487063" flag="0"/>
			<psa30 value="0.000268514402345" flag="0"/>
		</comp>
		<comp name=".HNZ" depth="0.0">
			<acc value="0.0122761344701" flag="0"/>
			<vel value="0.00356288706839" flag="0"/>
			<psa03 value="0.0170621159585" flag="0"/>
			<psa10 value="0.000654670204625" flag="0"/>
			<psa30 value="0.000100550502123" flag="0"/>
		</comp>
	</station>
	<station code="HARR" name="HARR" netid="RO" source="Romanian Seismic Network (NIEP)" insttype="" lat="44.6893" lon="27.9303">
		<comp name=".HNE" depth="0.0">
			<acc value="0.0261502053191" flag="0"/>
			<vel value="0.0057466701962" flag="0"/>
			<psa03 value="0.0216758369595" flag="0"/>
			<psa10 value="0.00225732000512" flag="0"/>
			<psa30 value="0.000160798113023" flag="0"/>
		</comp>
		<comp name=".HNN" depth="0.0">
			<acc value="0.0262104055082" flag="0"/>
			<vel value="0.0130118005225" flag="0"/>
			<psa03 value="0.0364451591046" flag="0"/>
			<psa10 value="0.00542816583936" flag="0"/>
			<psa30 value="0.000397195739352" flag="0"/>
		</comp>
		<comp name=".HNZ" depth="0.0">
			<acc value="0.0324568802418" flag="0"/>
			<vel value="0.00483908933131" flag="0"/>
			<psa03 value="0.0206531142612" flag="0"/>
			<psa10 value="0.000984678472304" flag="0"/>
			<psa30 value="0.000116222464793" flag="0"/>
		</comp>
	</station>
	<station code="HUMR" name="HUMR" netid="RO" source="Romanian Seismic Network (NIEP)" insttype="" lat="44.5281" lon="24.9804">
		<comp name=".HNE" depth="0.0">
			<acc value="0.0286127453582" flag="0"/>
			<vel value="0.00864419099553" flag="0"/>
			<psa03 value="0.0819122283663" flag="0"/>
			<psa10 value="0.00295424015703" flag="0"/>
			<psa30 value="0.000345577450102" flag="0"/>
		</comp>
		<comp name=".HNN" depth="0.0">
			<acc value="0.0330725860983" flag="0"/>
			<vel value="0.00907201188152" flag="0"/>
			<psa03 value="0.068992544376" flag="0"/>
			<psa10 value="0.00378200647687" flag="0"/>
			<psa30 value="0.000251975806744" flag="0"/>
		</comp>
		<comp name=".HNZ" depth="0.0">
			<acc value="0.148502381668" flag="0"/>
			<vel value="0.024113455706" flag="0"/>
			<psa03 value="0.0679702266523" flag="0"/>
			<psa10 value="0.00339959317511" flag="0"/>
			<psa30 value="0.000398522467866" flag="0"/>
		</comp>
	</station>
	<station code="IASR" name="IASR" netid="RO" source="Romanian Seismic Network (NIEP)" insttype="" lat="47.1777" lon="27.5748">
		<comp name=".HNE" depth="0.0">
			<acc value="0.0152462931376" flag="0"/>
			<vel value="0.00330372888545" flag="0"/>
			<psa03 value="0.0160863026178" flag="0"/>
			<psa10 value="0.0016360264256" flag="0"/>
			<psa30 value="0.000166941671045" flag="0"/>
		</comp>
		<comp name=".HNN" depth="0.0">
			<acc value="0.0120127635861" flag="0"/>
			<vel value="0.0041275580253" flag="0"/>
			<psa03 value="0.0197086128906" flag="0"/>
			<psa10 value="0.00272599839652" flag="0"/>
			<psa30 value="0.000164000890296" flag="0"/>
		</comp>
		<comp name=".HNZ" depth="0.0">
			<acc value="0.015846004405" flag="0"/>
			<vel value="0.00275195156171" flag="0"/>
			<psa03 value="0.00926240069797" flag="0"/>
			<psa10 value="0.000805407162866" flag="0"/>
			<psa30 value="7.54810354042e-05" flag="0"/>
		</comp>
	</station>
	<station code="ICOR" name="ICOR" netid="RO" source="Romanian Seismic Network (NIEP)" insttype="" lat="44.1168" lon="27.8009">
		<comp name=".HNE" depth="0.0">
			<acc value="0.0234465874098" flag="0"/>
			<vel value="0.00898244330996" flag="0"/>
			<psa03 value="0.0722719907896" flag="0"/>
			<psa10 value="0.00449557374722" flag="0"/>
			<psa30 value="0.000327702880583" flag="0"/>
		</comp>
		<comp name=".HNN" depth="0.0">
			<acc value="0.0251128401858" flag="0"/>
			<vel value="0.00824707179923" flag="0"/>
			<psa03 value="0.116414680651" flag="0"/>
			<psa10 value="0.0079478265045" flag="0"/>
			<psa30 value="0.000243593246232" flag="0"/>
		</comp>
		<comp name=".HNZ" depth="0.0">
			<acc value="0.0217241275876" flag="0"/>
			<vel value="0.0318849492738" flag="0"/>
			<psa03 value="0.0388475916915" flag="0"/>
			<psa10 value="0.0154193367679" flag="0"/>
			<psa30 value="0.0107976319568" flag="0"/>
		</comp>
	</station>
	<station code="INCR" name="INCR" netid="RO" source="Romanian Seismic Network (NIEP)" insttype="" lat="44.441" lon="26.1611">
		<comp name=".HNE" depth="0.0">
			<acc value="0.0941179730415" flag="0"/>
			<vel value="0.0324288036171" flag="0"/>
			<psa03 value="0.139421017208" flag="0"/>
			<psa10 value="0.0109429511668" flag="0"/>
			<psa30 value="0.00112701997204" flag="0"/>
		</comp>
		<comp name=".HNN" depth="0.0">
			<acc value="0.0768901301929" flag="0"/>
			<vel value="0.019504260543" flag="0"/>
			<psa03 value="0.0710615408118" flag="0"/>
			<psa10 value="0.00559984330588" flag="0"/>
			<psa30 value="0.000452336267141" flag="0"/>
		</comp>
		<comp name=".HNZ" depth="0.0">
			<acc value="0.0462672663162" flag="0"/>
			<vel value="0.00945511662575" flag="0"/>
			<psa03 value="0.0378682221256" flag="0"/>
			<psa10 value="0.00203220454545" flag="0"/>
			<psa30 value="0.000142803314185" flag="0"/>
		</comp>
	</station>
	<station code="ISR" name="ISR" netid="RO" source="Romanian Seismic Network (NIEP)" insttype="" lat="45.1187" lon="26.5432">
		<comp name=".HNE" depth="0.0">
			<acc value="0.0301638774257" flag="0"/>
			<vel value="0.00903928282034" flag="0"/>
			<psa03 value="0.0609670856453" flag="0"/>
			<psa10 value="0.00792105910627" flag="0"/>
			<psa30 value="0.000551862964462" flag="0"/>
		</comp>
		<comp name=".HNN" depth="0.0">
			<acc value="0.0387091970136" flag="0"/>
			<vel value="0.0128726919042" flag="0"/>
			<psa03 value="0.0677863603054" flag="0"/>
			<psa10 value="0.00593116041026" flag="0"/>
			<psa30 value="0.000401530844239" flag="0"/>
		</comp>
		<comp name=".HNZ" depth="0.0">
			<acc value="0.020398667877" flag="0"/>
			<vel value="0.00716941356996" flag="0"/>
			<psa03 value="0.0436930845566" flag="0"/>
			<psa10 value="0.00375345489797" flag="0"/>
			<psa30 value="0.000238264742203" flag="0"/>
		</comp>
	</station>
	<station code="JOSR" name="JOSR" netid="RO" source="Romanian Seismic Network (NIEP)" insttype="" lat="46.7059" lon="25.5154">
		<comp name=".HNE" depth="0.0">
			<acc value="0.000671049056077" flag="0"/>
			<vel value="0.000982732943856" flag="0"/>
			<psa03 value="0.00129616724493" flag="0"/>
			<psa10 value="0.000692686297223" flag="0"/>
			<psa30 value="0.00025044185096" flag="0"/>
		</comp>
		<comp name=".HNN" depth="0.0">
			<acc value="0.000948976683368" flag="0"/>
			<vel value="0.000428322411197" flag="0"/>
			<psa03 value="0.000832074489341" flag="0"/>
			<psa10 value="0.000850811186284" flag="0"/>
			<psa30 value="7.18958630087e-05" flag="0"/>
		</comp>
		<comp name=".HNZ" depth="0.0">
			<acc value="0.000546891601419" flag="0"/>
			<vel value="0.000607191808518" flag="0"/>
			<psa03 value="0.000905727561854" flag="0"/>
			<psa10 value="0.000377961903356" flag="0"/>
			<psa30 value="0.000139965027205" flag="0"/>
		</comp>
	</station>
	<station code="JURR" name="JURR" netid="RO" source="Romanian Seismic Network (NIEP)" insttype="" lat="44.7661" lon="28.8769">
		<comp name=".HNE" depth="0.0">
			<acc value="0.0177910667848" flag="0"/>
