<?xml version="1.0" encoding="UTF-8" standalone="yes"?>
<!DOCTYPE earthquake SYSTEM "stationlist.dtd">
<stationlist created="" xmlns="ch.ethz.sed.shakemap.usgs.xml">
  <station code="BAC" name="BAC" netid="RO" insttype="2.5V" lat="46.5669" lon="26.9124">
    <comp name="--.HNE">
      <acc value="0.0075582803" flag="0"/>
      <vel value="0.0031765587" flag="0"/>
      <psa03 value="0.0144521430" flag="0"/>
      <psa10 value="0.0015563319" flag="0"/>
      <psa30 value="0.0002179688" flag="0"/>
    </comp>
    <comp name="--.HNZ">
      <acc value="0.0085011696" flag="0"/>
      <vel value="0.0017174901" flag="0"/>
      <psa03 value="0.0053776875" flag="0"/>
      <psa10 value="0.0007888725" flag="0"/>
      <psa30 value="0.0000682865" flag="0"/>
    </comp>
    <comp name="--.HNN">
      <acc value="0.0137830055" flag="0"/>
      <vel value="0.0061181305" flag="0"/>
      <psa03 value="0.0247334897" flag="0"/>
      <psa10 value="0.0026089985" flag="0"/>
      <psa30 value="0.0002259508" flag="0"/>
    </comp>
  </station>
  <station code="BAPR" name="BAPR" netid="RO" insttype="2.5V" lat="44.4059" lon="26.119">
    <comp name="--.HNN">
      <acc value="0.0466324912" flag="0"/>
      <vel value="0.0154561852" flag="0"/>
      <psa03 value="0.0773132428" flag="0"/>
      <psa10 value="0.0058241304" flag="0"/>
      <psa30 value="0.0004385660" flag="0"/>
    </comp>
    <comp name="--.HNZ">
      <acc value="0.0393117577" flag="0"/>
      <vel value="0.0069229263" flag="0"/>
      <psa03 value="0.0368589993" flag="0"/>
      <psa10 value="0.0021548425" flag="0"/>
      <psa30 value="0.0005104377" flag="0"/>
    </comp>
  </station>
  <station code="BISRR" name="BISRR" netid="RO" insttype="CMG40T.1to100/Basalt" lat="45.5481" lon="26.7099">
    <comp name="--.HHE">
      <acc value="0.0469461275" flag="0"/>
      <vel value="0.0266433682" flag="0"/>
      <psa03 value="0.1748023413" flag="0"/>
      <psa10 value="0.0257737110" flag="0"/>
      <psa30 value="0.0014028693" flag="0"/>
    </comp>
    <comp name="--.HHN">
      <acc value="0.0552209570" flag="0"/>
      <vel value="0.0229794009" flag="0"/>
      <psa03 value="0.0972669751" flag="0"/>
      <psa10 value="0.0177448861" flag="0"/>
      <psa30 value="0.0010938311" flag="0"/>
    </comp>
    <comp name="--.HHZ">
      <acc value="0.0386747308" flag="0"/>
      <vel value="0.0169224857" flag="0"/>
      <psa03 value="0.1064834741" flag="0"/>
      <psa10 value="0.0105196093" flag="0"/>
      <psa30 value="0.0005897930" flag="0"/>
    </comp>
  </station>
  <station code="BOSR" name="BOSR" netid="RO" insttype="Seismometer/Basalt" lat="46.0749" lon="25.6611">
    <comp name="--.HHN">
      <acc value="0.0140843720" flag="0"/>
      <vel value="0.0077981209" flag="0"/>
      <psa03 value="0.0216972063" flag="0"/>
      <psa10 value="0.0065603213" flag="0"/>
      <psa30 value="0.0003917868" flag="0"/>
    </comp>
    <comp name="--.HHZ">
      <acc value="0.0077004141" flag="0"/>
      <vel value="0.0037747081" flag="0"/>
      <psa03 value="0.0244266479" flag="0"/>
      <psa10 value="0.0019467172" flag="0"/>
      <psa30 value="0.0001401675" flag="0"/>
    </comp>
    <comp name="--.HHE">
      <acc value="0.0131076050" flag="0"/>
      <vel value="0.0079119411" flag="0"/>
      <psa03 value="0.0481210782" flag="0"/>
      <psa10 value="0.0033204588" flag="0"/>
      <psa30 value="0.0002408186" flag="0"/>
    </comp>
  </station>
  <station code="BUC" name="BUC" netid="RO" insttype="200" lat="44.4107" lon="26.0938">
    <comp name="--.HNN">
      <acc value="0.0514243752" flag="0"/>
      <vel value="0.0157670080" flag="0"/>
      <psa03 value="0.1009042684" flag="0"/>
      <psa10 value="0.0040578060" flag="0"/>
      <psa30 value="0.0004822445" flag="0"/>
    </comp>
    <comp name="--.HNZ">
      <acc value="0.0365344829" flag="0"/>
      <vel value="0.0078819096" flag="0"/>
      <psa03 value="0.0470885042" flag="0"/>
      <psa10 value="0.0018171129" flag="0"/>
      <psa30 value="0.0001231553" flag="0"/>
    </comp>
  </station>
  <station code="CIOR" name="CIOR" netid="RO" insttype="200" lat="44.4489" lon="25.8799">
    <comp name="--.HNE">
      <acc value="0.1103890268" flag="0"/>
      <vel value="0.0316424270" flag="0"/>
      <psa03 value="0.0786597923" flag="0"/>
      <psa10 value="0.0116428078" flag="0"/>
      <psa30 value="0.0009319644" flag="0"/>
    </comp>
    <comp name="--.HNN">
      <acc value="0.1039750193" flag="0"/>
      <vel value="0.0255466072" flag="0"/>
      <psa03 value="0.0713362382" flag="0"/>
      <psa10 value="0.0084101569" flag="0"/>
      <psa30 value="0.0007376281" flag="0"/>
    </comp>
    <comp name="--.HNZ">
      <acc value="0.0458033726" flag="0"/>
      <vel value="0.0095693102" flag="0"/>
      <psa03 value="0.0238614604" flag="0"/>
      <psa10 value="0.0016961855" flag="0"/>
      <psa30 value="0.0001550048" flag="0"/>
    </comp>
  </station>
  <station code="COPR" name="COPR" netid="RO" insttype="200" lat="45.8442" lon="26.1687">
    <comp name="--.HNE">
      <acc value="0.0172991300" flag="0"/>
      <vel value="0.0126837125" flag="0"/>
      <psa03 value="0.0555809587" flag="0"/>
      <psa10 value="0.0203218548" flag="0"/>
      <psa30 value="0.0009881328" flag="0"/>
    </comp>
    <comp name="--.HNN">
      <acc value="0.0221710523" flag="0"/>
      <vel value="0.0142897665" flag="0"/>
      <psa03 value="0.0719820654" flag="0"/>
      <psa10 value="0.0099985113" flag="0"/>
      <psa30 value="0.0005705176" flag="0"/>
    </comp>
    <comp name="--.HNZ">
      <acc value="0.0084471764" flag="0"/>
      <vel value="0.0039047545" flag="0"/>
      <psa03 value="0.0185828538" flag="0"/>
      <psa10 value="0.0036647698" flag="0"/>
      <psa30 value="0.0002324465" flag="0"/>
    </comp>
  </station>
  <station code="DOPR" name="DOPR" netid="RO" insttype="330" lat="45.9675" lon="25.3886">
    <comp name="--.HHE">
      <acc value="0.0058167650" flag="0"/>
      <vel value="0.0026129962" flag="0"/>
      <psa03 value="0.0112064646" flag="0"/>
      <psa10 value="0.0025574148" flag="0"/>
      <psa30 value="0.0001205152" flag="0"/>
    </comp>
    <comp name="--.HHN">
      <acc value="0.0049998188" flag="0"/>
      <vel value="0.0019814885" flag="0"/>
      <psa03 value="0.0105295282" flag="0"/>
      <psa10 value="0.0008005071" flag="0"/>
      <psa30 value="0.0000937846" flag="0"/>
    </comp>
    <comp name="--.HHZ">
      <acc value="0.0037789323" flag="0"/>
      <vel value="0.0011161677" flag="0"/>
      <psa03 value="0.0046362833" flag="0"/>
      <psa10 value="0.0006045711" flag="0"/>
      <psa30 value="0.0000562009" flag="0"/>
    </comp>
  </station>
  <station code="INCR" name="INCR" netid="RO" insttype="200" lat="44.441" lon="26.1611">
    <comp name="--.HNE">
      <acc value="0.0955506717" flag="0"/>
      <vel value="0.0323418754" flag="0"/>
      <psa03 value="0.1359670986" flag="0"/>
      <psa10 value="0.0109008808" flag="0"/>
      <psa30 value="0.0011443657" flag="0"/>
    </comp>
    <comp name="--.HNN">
      <acc value="0.0777676230" flag="0"/>
      <vel value="0.0194128677" flag="0"/>
      <psa03 value="0.0700939538" flag="0"/>
      <psa10 value="0.0055725923" flag="0"/>
      <psa30 value="0.0004275031" flag="0"/>
    </comp>
    <comp name="--.HNZ">
      <acc value="0.0473548997" flag="0"/>
      <vel value="0.0094045299" flag="0"/>
      <psa03 value="0.0371464190" flag="0"/>
      <psa10 value="0.0020124134" flag="0"/>
      <psa30 value="0.0001395611" flag="0"/>
    </comp>
  </station>
  <station code="ISR" name="ISR" netid="RO" insttype="CMG3ESP/Quanterra" lat="45.1187" lon="26.5432">
    <comp name="--.HHE">
      <acc value="0.0323372096" flag="0"/>
      <vel value="0.0082013655" flag="0"/>
      <psa03 value="0.0557452983" flag="0"/>
      <psa10 value="0.0078001470" flag="0"/>
      <psa30 value="0.0005356987" flag="0"/>
    </comp>
    <comp name="--.HHN">
      <acc value="0.0413617732" flag="0"/>
      <vel value="0.0137416994" flag="0"/>
      <psa03 value="0.0720101280" flag="0"/>
      <psa10 value="0.0063413372" flag="0"/>
      <psa30 value="0.0003783176" flag="0"/>
    </comp>
    <comp name="--.HHZ">
      <acc value="0.0200678081" flag="0"/>
      <vel value="0.0072749691" flag="0"/>
      <psa03 value="0.0432558880" flag="0"/>
      <psa10 value="0.0038209929" flag="0"/>
      <psa30 value="0.0002302875" flag="0"/>
    </comp>
  </station>
  <station code="IZVR" name="IZVR" netid="RO" insttype="CMG40T.1to100/Quanterra" lat="45.5442" lon="27.7655">
    <comp name="--.HHZ">
      <acc value="0.0256558177" flag="0"/>
      <vel value="0.0038961150" flag="0"/>
      <psa03 value="0.0187319158" flag="0"/>
      <psa10 value="0.0006268734" flag="0"/>
      <psa30 value="0.0000682765" flag="0"/>
    </comp>
    <comp name="--.HHN">
      <acc value="0.0271572013" flag="0"/>
      <vel value="0.0068948623" flag="0"/>
      <psa03 value="0.0246506849" flag="0"/>
      <psa10 value="0.0012300817" flag="0"/>
      <psa30 value="0.0001079870" flag="0"/>
    </comp>
    <comp name="--.HHE">
      <acc value="0.0261068395" flag="0"/>
      <vel value="0.0047581857" flag="0"/>
      <psa03 value="0.0148685435" flag="0"/>
      <psa10 value="0.0021444493" flag="0"/>
      <psa30 value="0.0000930647" flag="0"/>
    </comp>
  </station>
  <station code="LEHL" name="LEHL" netid="RO" insttype="Seismometer/Basalt" lat="44.4739" lon="26.8194">
    <comp name="--.HHE">
      <acc value="0.0235422214" flag="0"/>
      <vel value="0.0074365280" flag="0"/>
      <psa03 value="0.0377291207" flag="0"/>
      <psa10 value="0.0027743269" flag="0"/>
      <psa30 value="0.0003043340" flag="0"/>
    </comp>
    <comp name="--.HHN">
      <acc value="0.0154620025" flag="0"/>
      <vel value="0.0054846183" flag="0"/>
      <psa03 value="0.0256340797" flag="0"/>
      <psa10 value="0.0020162355" flag="0"/>
      <psa30 value="0.0001956878" flag="0"/>
    </comp>
    <comp name="--.HHZ">
      <acc value="0.0236371498" flag="0"/>
      <vel value="0.0049282544" flag="0"/>
      <psa03 value="0.0116513584" flag="0"/>
      <psa10 value="0.0003846430" flag="0"/>
      <psa30 value="0.0000468156" flag="0"/>
    </comp>
  </station>
  <station code="MLR" name="MLR" netid="RO" insttype="330HR" lat="45.4909" lon="25.945">
    <comp name="--.HHZ">
      <acc value="0.0088905254" flag="0"/>
      <vel value="0.0035937766" flag="0"/>
      <psa03 value="0.0178592282" flag="0"/>
      <psa10 value="0.0040602421" flag="0"/>
      <psa30 value="0.0001599844" flag="0"/>
    </comp>
    <comp name="--.HHN">
      <acc value="0.0114907861" flag="0"/>
      <vel value="0.0051942986" flag="0"/>
      <psa03 value="0.0455459532" flag="0"/>
      <psa10 value="0.0033427775" flag="0"/>
      <psa30 value="0.0003567438" flag="0"/>
    </comp>
    <comp name="--.HHE">
      <acc value="0.0120187773" flag="0"/>
      <vel value="0.0051316309" flag="0"/>
      <psa03 value="0.0313011697" flag="0"/>
      <psa10 value="0.0051373896" flag="0"/>
      <psa30 value="0.0004883737" flag="0"/>
    </comp>
  </station>
  <station code="MTUR" name="MTUR" netid="RO" insttype="200" lat="45.2349" lon="25.0739">
    <comp name="--.HNE">
      <acc value="0.0068670729" flag="0"/>
      <vel value="0.0030916507" flag="0"/>
      <psa03 value="0.0160787454" flag="0"/>
      <psa10 value="0.0031498816" flag="0"/>
      <psa30 value="0.0002069671" flag="0"/>
    </comp>
    <comp name="--.HNZ">
      <acc value="0.0110727967" flag="0"/>
      <vel value="0.0041698278" flag="0"/>
      <psa03 value="0.0171803054" flag="0"/>
      <psa10 value="0.0021633540" flag="0"/>
      <psa30 value="0.0001508415" flag="0"/>
    </comp>
    <comp name="--.HNN">
      <acc value="0.0103585236" flag="0"/>
      <vel value="0.0033818042" flag="0"/>
      <psa03 value="0.0201884894" flag="0"/>
      <psa10 value="0.0023778668" flag="0"/>
      <psa30 value="0.0002120094" flag="0"/>
    </comp>
  </station>
  <station code="NEGRR" name="NEGRR" netid="RO" insttype="CMG40T.1to100/Quanterra" lat="45.5373" lon="27.8771">
    <comp name="--.HHZ">
      <acc value="0.0706741998" flag="0"/>
      <vel value="0.0158117353" flag="0"/>
      <psa03 value="0.0410121726" flag="0"/>
      <psa10 value="0.0017931953" flag="0"/>
      <psa30 value="0.0001789706" flag="0"/>
    </comp>
    <comp name="--.HHE">
      <acc value="0.0456678226" flag="0"/>
      <vel value="0.0093376835" flag="0"/>
      <psa03 value="0.0291290639" flag="0"/>
      <psa10 value="0.0016336073" flag="0"/>
      <psa30 value="0.0001167741" flag="0"/>
    </comp>
    <comp name="--.HHN">
      <acc value="0.0338681984" flag="0"/>
      <vel value="0.0071094978" flag="0"/>
      <psa03 value="0.0242263353" flag="0"/>
      <psa10 value="0.0009051373" flag="0"/>
      <psa30 value="0.0000931069" flag="0"/>
    </comp>
  </station>
  <station code="ODBI" name="ODBI" netid="RO" insttype="PBB.1to100/Quanterra" lat="45.7633" lon="27.0558">
    <comp name="--.HHE">
      <acc value="0.0984397908" flag="0"/>
      <vel value="0.0219277369" flag="0"/>
      <psa03 value="0.1125197865" flag="0"/>
      <psa10 value="0.0146140574" flag="0"/>
      <psa30 value="0.0009076457" flag="0"/>
    </comp>
    <comp name="--.HHN">
      <acc value="0.1373059242" flag="0"/>
      <vel value="0.0251350305" flag="0"/>
      <psa03 value="0.1490978604" flag="0"/>
      <psa10 value="0.0159688691" flag="0"/>
      <psa30 value="0.0010373889" flag="0"/>
    </comp>
    <comp name="--.HHZ">
      <acc value="0.0752405876" flag="0"/>
      <vel value="0.0151513239" flag="0"/>
      <psa03 value="0.0418814396" flag="0"/>
      <psa10 value="0.0041237470" flag="0"/>
      <psa30 value="0.0003163849" flag="0"/>
    </comp>
  </station>
  <station code="ODSR" name="ODSR" netid="RO" insttype="CMG40T.1to100/Quanterra" lat="46.2969" lon="25.2919">
    <comp name="--.HHZ">
      <acc value="0.0018095521" flag="0"/>
      <vel value="0.0005778354" flag="0"/>
      <psa03 value="0.0031100122" flag="0"/>
      <psa10 value="0.0007340615" flag="0"/>
      <psa30 value="0.0000427948" flag="0"/>
    </comp>
    <comp name="--.HHE">
      <acc value="0.0024740584" flag="0"/>
      <vel value="0.0015342683" flag="0"/>
      <psa03 value="0.0052660195" flag="0"/>
      <psa10 value="0.0012327938" flag="0"/>
      <psa30 value="0.0001225690" flag="0"/>
    </comp>
    <comp name="--.HHN">
      <acc value="0.0023754443" flag="0"/>
      <vel value="0.0008347643" flag="0"/>
      <psa03 value="0.0045419723" flag="0"/>
      <psa10 value="0.0009100593" flag="0"/>
      <psa30 value="0.0000574884" flag="0"/>
    </comp>
  </station>
  <station code="PGOR" name="PGOR" netid="RO" insttype="CMG40T.1to100/Quanterra" lat="44.9199" lon="26.9768">
    <comp name="--.HHE">
      <acc value="0.1411303523" flag="0"/>
      <vel value="0.0381987843" flag="0"/>
      <psa03 value="0.1737738711" flag="0"/>
      <psa10 value="0.0104512426" flag="0"/>
      <psa30 value="0.0010517368" flag="0"/>
    </comp>
    <comp name="--.HHN">
      <acc value="0.0939872290" flag="0"/>
      <vel value="0.0272391693" flag="0"/>
      <psa03 value="0.1066385115" flag="0"/>
      <psa10 value="0.0098966363" flag="0"/>
      <psa30 value="0.0008705341" flag="0"/>
    </comp>
    <comp name="--.HHZ">
      <acc value="0.1273685198" flag="0"/>
      <vel value="0.0110199507" flag="0"/>
      <psa03 value="0.0350310657" flag="0"/>
      <psa10 value="0.0017639765" flag="0"/>
      <psa30 value="0.0001391171" flag="0"/>
    </comp>
  </station>
  <station code="PLAR" name="PLAR" netid="RO" insttype="200" lat="44.9142" lon="26.0274">
    <comp name="--.HNE">
      <acc value="0.0904463783" flag="0"/>
      <vel value="0.0325362670" flag="0"/>
      <psa03 value="0.1241262969" flag="0"/>
      <psa10 value="0.0158676868" flag="0"/>
      <psa30 value="0.0014591417" flag="0"/>
    </comp>
    <comp name="--.HNN">
      <acc value="0.0743408369" flag="0"/>
      <vel value="0.0273105026" flag="0"/>
      <psa03 value="0.1406879264" flag="0"/>
      <psa10 value="0.0075642059" flag="0"/>
      <psa30 value="0.0005480514" flag="0"/>
    </comp>
    <comp name="--.HNZ">
      <acc value="0.1621319848" flag="0"/>
      <vel value="0.0223042719" flag="0"/>
      <psa03 value="0.0315882639" flag="0"/>
      <psa10 value="0.0024191693" flag="0"/>
      <psa30 value="0.0001860578" flag="0"/>
    </comp>
  </station>
  <station code="PLOR" name="PLOR" netid="RO" insttype="330" lat="45.8512" lon="26.6498">
    <comp name="--.HHZ">
      <acc value="0.0051023902" flag="0"/>
      <vel value="0.0017851200" flag="0"/>
      <psa03 value="0.0094911186" flag="0"/>
      <psa10 value="0.0011923526" flag="0"/>
      <psa30 value="0.0000702878" flag="0"/>
    </comp>
    <comp name="--.HHN">
      <acc value="0.0114339611" flag="0"/>
      <vel value="0.0060755380" flag="0"/>
      <psa03 value="0.0331823246" flag="0"/>
      <psa10 value="0.0026179182" flag="0"/>
      <psa30 value="0.0001600658" flag="0"/>
    </comp>
    <comp name="--.HHE">
      <acc value="0.0087391111" flag="0"/>
      <vel value="0.0041070819" flag="0"/>
      <psa03 value="0.0212807865" flag="0"/>
      <psa10 value="0.0018800551" flag="0"/>
      <psa30 value="0.0001411904" flag="0"/>
    </comp>
  </station>
  <station code="PLOR4" name="PLOR4" netid="RO" insttype="330" lat="45.8512" lon="26.6498">
    <comp name="--.HHE">
      <acc value="0.0087391111" flag="0"/>
      <vel value="0.0041070819" flag="0"/>
      <psa03 value="0.0212807865" flag="0"/>
      <psa10 value="0.0018800551" flag="0"/>
      <psa30 value="0.0001411904" flag="0"/>
    </comp>
    <comp name="--.HHN">
      <acc value="0.0114339611" flag="0"/>
      <vel value="0.0060755380" flag="0"/>
      <psa03 value="0.0331823246" flag="0"/>
      <psa10 value="0.0026179182" flag="0"/>
      <psa30 value="0.0001600658" flag="0"/>
    </comp>
    <comp name="--.HHZ">
      <acc value="0.0051023902" flag="0"/>
      <vel value="0.0017851200" flag="0"/>
      <psa03 value="0.0094911186" flag="0"/>
      <psa10 value="0.0011923526" flag="0"/>
      <psa30 value="0.0000702878" flag="0"/>
    </comp>
  </station>
  <station code="SAHR" name="SAHR" netid="RO" insttype="Seismometer/Basalt" lat="45.7266" lon="26.6855">
    <comp name="--.HHZ">
      <acc value="0.0255945615" flag="0"/>
      <vel value="0.0109175970" flag="0"/>
      <psa03 value="0.0889991574" flag="0"/>
      <psa10 value="0.0026904524" flag="0"/>
      <psa30 value="0.0002315272" flag="0"/>
    </comp>
    <comp name="--.HHN">
      <acc value="0.0419339148" flag="0"/>
      <vel value="0.0209432711" flag="0"/>
      <psa03 value="0.1702373813" flag="0"/>
      <psa10 value="0.0081778385" flag="0"/>
      <psa30 value="0.0005890806" flag="0"/>
    </comp>
    <comp name="--.HHE">
      <acc value="0.0377545679" flag="0"/>
      <vel value="0.0206582814" flag="0"/>
      <psa03 value="0.1112120584" flag="0"/>
      <psa10 value="0.0082903465" flag="0"/>
      <psa30 value="0.0005003620" flag="0"/>
    </comp>
  </station>
  <station code="SCHL" name="SCHL" netid="RO" insttype="CMG40T.1to100/Quanterra" lat="45.5007" lon="27.8302">
    <comp name="--.HHE">
      <acc value="0.0228028576" flag="0"/>
      <vel value="0.0080794386" flag="0"/>
      <psa03 value="0.0410181645" flag="0"/>
      <psa10 value="0.0021359292" flag="0"/>
      <psa30 value="0.0001779466" flag="0"/>
    </comp>
    <comp name="--.HHZ">
      <acc value="0.0645424893" flag="0"/>
      <vel value="0.0086707011" flag="0"/>
      <psa03 value="0.0209978737" flag="0"/>
      <psa10 value="0.0010328190" flag="0"/>
      <psa30 value="0.0001226087" flag="0"/>
    </comp>
    <comp name="--.HHN">
      <acc value="0.0256030460" flag="0"/>
      <vel value="0.0074333709" flag="0"/>
      <psa03 value="0.0469014744" flag="0"/>
      <psa10 value="0.0024232156" flag="0"/>
      <psa30 value="0.0001770439" flag="0"/>
    </comp>
