<?xml version="1.0" encoding="UTF-8" standalone="yes"?>
<!DOCTYPE earthquake SYSTEM "stationlist.dtd">
<stationlist created="" xmlns="ch.ethz.sed.shakemap.usgs.xml">
  <station code="KBS" name="KBS" netid="GE" insttype="" lat="78.9154" lon="11.9385">
    <comp name="20.HNZ">
      <acc value="0.0064090817" flag="0"/>
      <vel value="0.0028667806" flag="0"/>
      <psa03 value="0.0186593477" flag="0"/>
      <psa10 value="0.0016369757" flag="0"/>
      <psa30 value="0.0001434711" flag="0"/>
    </comp>
    <comp name="20.HN1">
      <acc value="0.0069486531" flag="0"/>
      <vel value="0.0037946408" flag="0"/>
      <psa03 value="0.0219699524" flag="0"/>
      <psa10 value="0.0021415217" flag="0"/>
      <psa30 value="0.0001827360" flag="0"/>
    </comp>
    <comp name="20.HN2">
      <acc value="0.0093958646" flag="0"/>
      <vel value="0.0039651966" flag="0"/>
      <psa03 value="0.0209500235" flag="0"/>
      <psa10 value="0.0017151161" flag="0"/>
      <psa30 value="0.0001127963" flag="0"/>
    </comp>
  </station>
</stationlist>
