<?xml version="1.0" encoding="UTF-8" standalone="yes"?>
<!DOCTYPE earthquake SYSTEM "stationlist.dtd">
<stationlist created="" xmlns="ch.ethz.sed.shakemap.usgs.xml">
  <station code="RP05B" name="RP05B" netid="5B" insttype="Compact" commtype="DIG" lat="37.6182" lon="21.6541">
    <comp name="--.HHN">
      <acc value="0.1255332435" flag="0"/>
      <vel value="0.0337197956" flag="0"/>
      <psa03 value="0.1990756757" flag="0"/>
      <psa10 value="0.0133051481" flag="0"/>
      <psa30 value="0.0011452761" flag="0"/>
    </comp>
    <comp name="--.HHZ">
      <acc value="0.0658485497" flag="0"/>
      <vel value="0.0163668464" flag="0"/>
      <psa03 value="0.0983499078" flag="0"/>
      <psa10 value="0.0062627410" flag="0"/>
      <psa30 value="0.0007177246" flag="0"/>
    </comp>
    <comp name="--.HHE">
      <acc value="0.0934953729" flag="0"/>
      <vel value="0.0356556001" flag="0"/>
      <psa03 value="0.1586076457" flag="0"/>
      <psa10 value="0.0102379085" flag="0"/>
      <psa30 value="0.0008996113" flag="0"/>
    </comp>
  </station>
  <station code="ATHR" name="ATHR" netid="HA" insttype="GEOtiny," commtype="DIG" lat="38.3172" lon="20.4165">
    <comp name="--.HHE">
      <acc value="0.0189287752" flag="0"/>
      <vel value="0.0044351090" flag="0"/>
      <psa03 value="0.0461234595" flag="0"/>
      <psa10 value="0.0039061273" flag="0"/>
      <psa30 value="0.0003125897" flag="0"/>
    </comp>
    <comp name="--.HHN">
      <acc value="0.0139533680" flag="0"/>
      <vel value="0.0049701009" flag="0"/>
      <psa03 value="0.0365120510" flag="0"/>
      <psa10 value="0.0035169217" flag="0"/>
      <psa30 value="0.0002766077" flag="0"/>
    </comp>
    <comp name="--.HHZ">
      <acc value="0.0123786942" flag="0"/>
      <vel value="0.0040248591" flag="0"/>
      <psa03 value="0.0231891602" flag="0"/>
      <psa10 value="0.0030974417" flag="0"/>
      <psa30 value="0.0002424109" flag="0"/>
    </comp>
  </station>
  <station code="HAVD" name="HAVD" netid="HA" insttype="GEOtiny," commtype="DIG" lat="38.2036" lon="20.3848">
    <comp name="--.HHN">
      <acc value="0.0356166582" flag="0"/>
      <vel value="0.0117345166" flag="0"/>
      <psa03 value="0.0591860083" flag="0"/>
      <psa10 value="0.0085710828" flag="0"/>
      <psa30 value="0.0005161378" flag="0"/>
    </comp>
    <comp name="--.HHE">
      <acc value="0.0357892336" flag="0"/>
      <vel value="0.0105264522" flag="0"/>
      <psa03 value="0.0654314171" flag="0"/>
      <psa10 value="0.0101346953" flag="0"/>
      <psa30 value="0.0004996450" flag="0"/>
    </comp>
    <comp name="--.HHZ">
      <acc value="0.0284398170" flag="0"/>
      <vel value="0.0073041570" flag="0"/>
      <psa03 value="0.0383950231" flag="0"/>
      <psa10 value="0.0035460278" flag="0"/>
      <psa30 value="0.0003355741" flag="0"/>
    </comp>
  </station>
  <station code="AOL1" name="AOL1" netid="HI" insttype="unknown" commtype="DIG" lat="37.6424" lon="21.6246">
    <comp name="--.HNE">
      <acc value="0.0588511337" flag="0"/>
      <vel value="0.0215098222" flag="0"/>
      <psa03 value="0.1081629790" flag="0"/>
      <psa10 value="0.0083149022" flag="0"/>
      <psa30 value="0.0005925827" flag="0"/>
    </comp>
    <comp name="--.HNN">
      <acc value="0.0794951630" flag="0"/>
      <vel value="0.0312128993" flag="0"/>
      <psa03 value="0.2249338968" flag="0"/>
      <psa10 value="0.0133763356" flag="0"/>
      <psa30 value="0.0008408737" flag="0"/>
    </comp>
    <comp name="--.HNZ">
      <acc value="0.0710420092" flag="0"/>
      <vel value="0.0183888638" flag="0"/>
      <psa03 value="0.0925915246" flag="0"/>
      <psa10 value="0.0044423167" flag="0"/>
      <psa30 value="0.0003391055" flag="0"/>
    </comp>
  </station>
  <station code="ARG2" name="ARG2" netid="HI" insttype="CMG-5TD,ACCELEROMETER,GURALP" commtype="DIG" lat="38.1783" lon="20.4878">
    <comp name="--.HNE">
      <acc value="0.0737031728" flag="0"/>
      <vel value="0.0240549775" flag="0"/>
      <psa03 value="0.1468156352" flag="0"/>
      <psa10 value="0.0082249243" flag="0"/>
      <psa30 value="0.0006374684" flag="0"/>
    </comp>
    <comp name="--.HNN">
      <acc value="0.0604180137" flag="0"/>
      <vel value="0.0217137917" flag="0"/>
      <psa03 value="0.1326771626" flag="0"/>
      <psa10 value="0.0093789102" flag="0"/>
      <psa30 value="0.0006606056" flag="0"/>
    </comp>
    <comp name="--.HNZ">
      <acc value="0.0483656159" flag="0"/>
      <vel value="0.0134893315" flag="0"/>
      <psa03 value="0.0999310231" flag="0"/>
      <psa10 value="0.0049995373" flag="0"/>
      <psa30 value="0.0003035536" flag="0"/>
    </comp>
  </station>
  <station code="LXR2" name="LXR2" netid="HI" insttype="unknown" commtype="DIG" lat="38.2067" lon="20.4364">
    <comp name="--.HNZ">
      <acc value="0.0480376915" flag="0"/>
      <vel value="0.0129858421" flag="0"/>
      <psa03 value="0.1131920842" flag="0"/>
      <psa10 value="0.0087962605" flag="0"/>
      <psa30 value="0.0005678813" flag="0"/>
    </comp>
    <comp name="--.HNE">
      <acc value="0.0604915227" flag="0"/>
      <vel value="0.0196950095" flag="0"/>
      <psa03 value="0.1572550071" flag="0"/>
      <psa10 value="0.0139523179" flag="0"/>
      <psa30 value="0.0009401076" flag="0"/>
    </comp>
    <comp name="--.HNN">
      <acc value="0.0764632157" flag="0"/>
      <vel value="0.0292169176" flag="0"/>
      <psa03 value="0.1385798893" flag="0"/>
      <psa10 value="0.0138101792" flag="0"/>
      <psa30 value="0.0007830942" flag="0"/>
    </comp>
  </station>
  <station code="PYR2" name="PYR2" netid="HI" insttype="unknown" commtype="DIG" lat="37.6671" lon="21.4506">
    <comp name="--.HNE">
      <acc value="0.0535154606" flag="0"/>
      <vel value="0.0207852131" flag="0"/>
      <psa03 value="0.1117722594" flag="0"/>
      <psa10 value="0.0102503587" flag="0"/>
      <psa30 value="0.0008766954" flag="0"/>
    </comp>
    <comp name="--.HNZ">
      <acc value="0.0413056046" flag="0"/>
      <vel value="0.0117356235" flag="0"/>
      <psa03 value="0.0456164363" flag="0"/>
      <psa10 value="0.0058193472" flag="0"/>
      <psa30 value="0.0005700137" flag="0"/>
    </comp>
    <comp name="--.HNN">
      <acc value="0.0580771586" flag="0"/>
      <vel value="0.0226231668" flag="0"/>
      <psa03 value="0.0983292648" flag="0"/>
      <psa10 value="0.0123265006" flag="0"/>
      <psa30 value="0.0012749347" flag="0"/>
    </comp>
  </station>
  <station code="ORTH" name="ORTH" netid="HL" insttype="30" commtype="DIG" lat="37.8511" lon="20.6963">
    <comp name="--.HHE">
      <acc value="0.1373482084" flag="0"/>
      <vel value="0.0583778657" flag="0"/>
      <psa03 value="0.4441902048" flag="0"/>
      <psa10 value="0.0177187998" flag="0"/>
      <psa30 value="0.0017932450" flag="0"/>
    </comp>
    <comp name="--.HHN">
      <acc value="0.1778628288" flag="0"/>
      <vel value="0.0757524207" flag="0"/>
      <psa03 value="0.5142580294" flag="0"/>
      <psa10 value="0.0179763094" flag="0"/>
      <psa30 value="0.0016557493" flag="0"/>
    </comp>
    <comp name="--.HHZ">
      <acc value="0.0716904963" flag="0"/>
      <vel value="0.0192718016" flag="0"/>
      <psa03 value="0.1644169108" flag="0"/>
      <psa10 value="0.0068830265" flag="0"/>
      <psa30 value="0.0006283265" flag="0"/>
    </comp>
  </station>
  <station code="ZARA" name="ZARA" netid="HL" insttype="CMG-5" commtype="DIG" lat="37.4865" lon="21.6491">
    <comp name="00.HNE">
      <acc value="0.0282391002" flag="0"/>
      <vel value="0.0113301078" flag="0"/>
      <psa03 value="0.0655943269" flag="0"/>
      <psa10 value="0.0048366115" flag="0"/>
      <psa30 value="0.0006084642" flag="0"/>
    </comp>
    <comp name="00.HNZ">
      <acc value="0.0149822744" flag="0"/>
      <vel value="0.0048659932" flag="0"/>
      <psa03 value="0.0355109212" flag="0"/>
      <psa10 value="0.0043005069" flag="0"/>
      <psa30 value="0.0003231652" flag="0"/>
    </comp>
    <comp name="00.HNN">
      <acc value="0.0305571332" flag="0"/>
      <vel value="0.0093556912" flag="0"/>
      <psa03 value="0.0800787649" flag="0"/>
      <psa10 value="0.0064517976" flag="0"/>
      <psa30 value="0.0006588751" flag="0"/>
    </comp>
  </station>
  <station code="AXS" name="AXS" netid="HP" insttype="Compact," commtype="DIG" lat="38.1962" lon="21.3763">
    <comp name="--.HHE">
      <acc value="0.0055329746" flag="0"/>
      <vel value="0.0020459818" flag="0"/>
      <psa03 value="0.0106813747" flag="0"/>
      <psa10 value="0.0020413145" flag="0"/>
      <psa30 value="0.0002046477" flag="0"/>
    </comp>
    <comp name="--.HHN">
      <acc value="0.0045171758" flag="0"/>
      <vel value="0.0023549690" flag="0"/>
      <psa03 value="0.0136439050" flag="0"/>
      <psa10 value="0.0019534484" flag="0"/>
      <psa30 value="0.0001673194" flag="0"/>
    </comp>
    <comp name="--.HHZ">
      <acc value="0.0032105642" flag="0"/>
      <vel value="0.0013972039" flag="0"/>
      <psa03 value="0.0063804638" flag="0"/>
      <psa10 value="0.0012155815" flag="0"/>
      <psa30 value="0.0000846503" flag="0"/>
    </comp>
  </station>
  <station code="DRO" name="DRO" netid="HP" insttype="120P," commtype="DIG" lat="37.952" lon="21.71">
    <comp name="--.HHE">
      <acc value="0.0167601387" flag="0"/>
      <vel value="0.0071438915" flag="0"/>
      <psa03 value="0.0464882966" flag="0"/>
      <psa10 value="0.0056703228" flag="0"/>
      <psa30 value="0.0003909674" flag="0"/>
    </comp>
    <comp name="--.HHN">
      <acc value="0.0159970282" flag="0"/>
      <vel value="0.0079568886" flag="0"/>
      <psa03 value="0.0399072942" flag="0"/>
      <psa10 value="0.0057927328" flag="0"/>
      <psa30 value="0.0003198390" flag="0"/>
    </comp>
    <comp name="--.HHZ">
      <acc value="0.0099106092" flag="0"/>
      <vel value="0.0038934004" flag="0"/>
      <psa03 value="0.0191628830" flag="0"/>
      <psa10 value="0.0022303708" flag="0"/>
      <psa30 value="0.0001677939" flag="0"/>
    </comp>
  </station>
  <station code="DMLN" name="DMLN" netid="HT" insttype="1s-100Hz," commtype="DIG" lat="38.2385" lon="20.3734">
    <comp name="--.HHE">
      <acc value="0.0812827780" flag="0"/>
      <vel value="0.0294378088" flag="0"/>
      <psa03 value="0.1427338529" flag="0"/>
      <psa10 value="0.0145726024" flag="0"/>
      <psa30 value="0.0009749907" flag="0"/>
    </comp>
    <comp name="--.HHN">
      <acc value="0.0603187282" flag="0"/>
      <vel value="0.0142317954" flag="0"/>
      <psa03 value="0.0750781502" flag="0"/>
      <psa10 value="0.0095858224" flag="0"/>
      <psa30 value="0.0006978331" flag="0"/>
    </comp>
    <comp name="--.HHZ">
      <acc value="0.0627510549" flag="0"/>
      <vel value="0.0115089968" flag="0"/>
      <psa03 value="0.0647624308" flag="0"/>
      <psa10 value="0.0050663360" flag="0"/>
      <psa30 value="0.0004721279" flag="0"/>
    </comp>
  </station>
  <station code="PSDA" name="PSDA" netid="HT" insttype="30" commtype="DIG" lat="38.114" lon="20.5841">
    <comp name="--.HHN">
      <acc value="0.0692177522" flag="0"/>
      <vel value="0.0203977028" flag="0"/>
      <psa03 value="0.1888412106" flag="0"/>
      <psa10 value="0.0077871148" flag="0"/>
      <psa30 value="0.0005779471" flag="0"/>
    </comp>
    <comp name="--.HHE">
      <acc value="0.0632222893" flag="0"/>
      <vel value="0.0149867140" flag="0"/>
      <psa03 value="0.0916986035" flag="0"/>
      <psa10 value="0.0100261576" flag="0"/>
      <psa30 value="0.0004813984" flag="0"/>
    </comp>
    <comp name="--.HHZ">
      <acc value="0.0388142626" flag="0"/>
      <vel value="0.0089177602" flag="0"/>
      <psa03 value="0.0556202785" flag="0"/>
      <psa10 value="0.0029922818" flag="0"/>
      <psa30 value="0.0002879185" flag="0"/>
    </comp>
  </station>
  <station code="RTZL" name="RTZL" netid="HT" insttype="Compact," commtype="DIG" lat="38.076" lon="20.7715">
    <comp name="--.HHE">
      <acc value="0.0668848700" flag="0"/>
      <vel value="0.0125810451" flag="0"/>
      <psa03 value="0.0520968840" flag="0"/>
      <psa10 value="0.0077133519" flag="0"/>
      <psa30 value="0.0003712798" flag="0"/>
    </comp>
    <comp name="--.HHN">
      <acc value="0.0772316287" flag="0"/>
      <vel value="0.0151182483" flag="0"/>
      <psa03 value="0.0875264129" flag="0"/>
      <psa10 value="0.0051665543" flag="0"/>
      <psa30 value="0.0003475002" flag="0"/>
    </comp>
    <comp name="--.HHZ">
      <acc value="0.0364179357" flag="0"/>
      <vel value="0.0087380004" flag="0"/>
      <psa03 value="0.0343145237" flag="0"/>
      <psa10 value="0.0031852226" flag="0"/>
      <psa30 value="0.0002055771" flag="0"/>
    </comp>
  </station>
  <station code="CKVA" name="CKVA" netid="KF" insttype="Triaxial" commtype="DIG" lat="38.1642" lon="20.5063">
    <comp name="00.HN1">
      <acc value="0.1575775921" flag="0"/>
      <vel value="0.0727974280" flag="0"/>
      <psa03 value="0.7647451080" flag="0"/>
      <psa10 value="0.0327737191" flag="0"/>
      <psa30 value="0.0025531622" flag="0"/>
    </comp>
    <comp name="00.HNZ">
      <acc value="0.0573705006" flag="0"/>
      <vel value="0.0228586356" flag="0"/>
      <psa03 value="0.1958754795" flag="0"/>
      <psa10 value="0.0077336332" flag="0"/>
      <psa30 value="0.0006649754" flag="0"/>
    </comp>
    <comp name="00.HN2">
      <acc value="0.1348512255" flag="0"/>
      <vel value="0.0528153716" flag="0"/>
      <psa03 value="0.3409392059" flag="0"/>
      <psa10 value="0.0251119258" flag="0"/>
      <psa30 value="0.0014069372" flag="0"/>
    </comp>
  </station>
</stationlist>
