<stationlist created="1775820742">
	<station code="CHAY" name="CHAY" netid="KO" source="Bogazici University Kandilli Observatory And Earthquake Research Institute (KOERI)" insttype="" lat="41.0862" lon="40.7253">
		<comp name="--.HNE" depth="0.0">
			<acc value="0.0417147930001117" flag="0"/>
			<vel value="0.0541675640649084" flag="0"/>
			<psa03 value="0.103419382276516" flag="0"/>
			<psa10 value="0.139963471892974" flag="0"/>
			<psa30 value="0.0118756700381815" flag="0"/>
		</comp>
		<comp name="--.HNN" depth="0.0">
			<acc value="0.0617070004801276" flag="0"/>
			<vel value="0.082216506957727" flag="0"/>
			<psa03 value="0.0863381309357237" flag="0"/>
			<psa10 value="0.168426537431436" flag="0"/>
			<psa30 value="0.0131766687229869" flag="0"/>
		</comp>
		<comp name="--.HNZ" depth="0.0">
			<acc value="0.0450803025505271" flag="0"/>
			<vel value="0.0461602680438665" flag="0"/>
			<psa03 value="0.0585186682410586" flag="0"/>
			<psa10 value="0.0826771519555327" flag="0"/>
			<psa30 value="0.00961207591952087" flag="0"/>
		</comp>
	</station>
	<station code="ERCV" name="ERCV" netid="KO" source="Bogazici University Kandilli Observatory And Earthquake Research Institute (KOERI)" insttype="" lat="39.0198" lon="43.3381">
		<comp name="--.HNE" depth="0.0">
			<acc value="0.0313640509641452" flag="0"/>
			<vel value="0.059707438027487" flag="0"/>
			<psa03 value="0.0362901253968805" flag="0"/>
			<psa10 value="0.122641501897777" flag="0"/>
			<psa30 value="0.0296195888190694" flag="0"/>
		</comp>
		<comp name="--.HNN" depth="0.0">
			<acc value="0.0314565997856854" flag="0"/>
			<vel value="0.0626983929968479" flag="0"/>
			<psa03 value="0.0370429981876519" flag="0"/>
			<psa10 value="0.111196366213624" flag="0"/>
			<psa30 value="0.0399309785647136" flag="0"/>
		</comp>
		<comp name="--.HNZ" depth="0.0">
			<acc value="0.0169038163972803" flag="0"/>
			<vel value="0.038677938016948" flag="0"/>
			<psa03 value="0.0195378047003392" flag="0"/>
			<psa10 value="0.0811406076671205" flag="0"/>
			<psa30 value="0.00864883794305999" flag="0"/>
		</comp>
	</station>
	<station code="HOPA" name="HOPA" netid="KO" source="Bogazici University Kandilli Observatory And Earthquake Research Institute (KOERI)" insttype="" lat="41.3867" lon="41.4458">
		<comp name="--.HNE" depth="0.0">
			<acc value="0.128102064581081" flag="0"/>
			<vel value="0.0536109719343645" flag="0"/>
			<psa03 value="0.269126828331449" flag="0"/>
			<psa10 value="0.0718459469414548" flag="0"/>
			<psa30 value="0.00954702077660096" flag="0"/>
		</comp>
		<comp name="--.HNN" depth="0.0">
			<acc value="0.106953710853716" flag="0"/>
			<vel value="0.0649102926100256" flag="0"/>
			<psa03 value="0.271804089020207" flag="0"/>
			<psa10 value="0.0957642739130808" flag="0"/>
			<psa30 value="0.0107701351352501" flag="0"/>
		</comp>
		<comp name="--.HNZ" depth="0.0">
			<acc value="0.0512735048703892" flag="0"/>
			<vel value="0.0353516599085647" flag="0"/>
			<psa03 value="0.112603844868869" flag="0"/>
			<psa10 value="0.0512141989393233" flag="0"/>
			<psa30 value="0.00674057236317249" flag="0"/>
		</comp>
	</station>
</stationlist>
