<?xml version="1.0" encoding="UTF-8" standalone="yes"?>
<!DOCTYPE earthquake SYSTEM "stationlist.dtd">
<stationlist created="" xmlns="ch.ethz.sed.shakemap.usgs.xml">
  <station code="TASB" name="TASB" netid="KO" insttype="120s," lat="39.9839" lon="44.2384">
    <comp name="--.HHZ">
      <acc value="0.1319848573" flag="0"/>
      <vel value="0.1067452546" flag="0"/>
      <psa03 value="0.2612381200" flag="0"/>
      <psa10 value="0.1194765781" flag="0"/>
      <psa30 value="0.0460537729" flag="0"/>
    </comp>
    <comp name="--.HHE">
      <acc value="0.1601627211" flag="0"/>
      <vel value="0.2212446704" flag="0"/>
      <psa03 value="0.5821096859" flag="0"/>
      <psa10 value="0.3020272574" flag="0"/>
      <psa30 value="0.0830068294" flag="0"/>
    </comp>
  </station>
</stationlist>
