<?xml version="1.0" encoding="UTF-8" standalone="yes"?>
<!DOCTYPE earthquake SYSTEM "stationlist.dtd">
<stationlist created="" xmlns="ch.ethz.sed.shakemap.usgs.xml">
  <station code="GAZ" name="GAZ" netid="KO" insttype="CMG-3T" lat="37.1721" lon="37.2096">
    <comp name="--.HHE">
      <acc value="0.0085508531" flag="0"/>
      <vel value="0.0055308101" flag="0"/>
      <psa03 value="0.0166487238" flag="0"/>
      <psa10 value="0.0072723239" flag="0"/>
      <psa30 value="0.0004856777" flag="0"/>
    </comp>
    <comp name="--.HHN">
      <acc value="0.0097532224" flag="0"/>
      <vel value="0.0064421992" flag="0"/>
      <psa03 value="0.0187716051" flag="0"/>
      <psa10 value="0.0074837647" flag="0"/>
      <psa30 value="0.0005290449" flag="0"/>
    </comp>
  </station>
  <station code="KMRS" name="KMRS" netid="KO" insttype="CMG-3T" lat="37.5053" lon="36.9">
    <comp name="--.HHE">
      <acc value="0.0099321008" flag="0"/>
      <vel value="0.0040298160" flag="0"/>
      <psa03 value="0.0292492494" flag="0"/>
      <psa10 value="0.0035041147" flag="0"/>
      <psa30 value="0.0005661778" flag="0"/>
    </comp>
    <comp name="--.HHN">
      <acc value="0.0126363343" flag="0"/>
      <vel value="0.0048823648" flag="0"/>
      <psa03 value="0.0371184621" flag="0"/>
      <psa10 value="0.0047957309" flag="0"/>
      <psa30 value="0.0004073459" flag="0"/>
    </comp>
  </station>
  <station code="ANDN" name="ANDN" netid="TU" insttype="T" lat="37.58" lon="36.3452">
    <comp name="--.HHN">
      <acc value="0.1637209629" flag="0"/>
      <vel value="0.0464007857" flag="0"/>
      <psa03 value="0.2357181860" flag="0"/>
      <psa10 value="0.0175811991" flag="0"/>
      <psa30 value="0.0016541197" flag="0"/>
    </comp>
    <comp name="--.HHE">
      <acc value="0.0776075747" flag="0"/>
      <vel value="0.0286976935" flag="0"/>
      <psa03 value="0.1134494928" flag="0"/>
      <psa10 value="0.0244762816" flag="0"/>
      <psa30 value="0.0026886428" flag="0"/>
    </comp>
    <comp name="--.HHZ">
      <acc value="0.0522816409" flag="0"/>
      <vel value="0.0168985658" flag="0"/>
      <psa03 value="0.0942749096" flag="0"/>
      <psa10 value="0.0203540349" flag="0"/>
      <psa30 value="0.0010816559" flag="0"/>
    </comp>
  </station>
</stationlist>
