<stationlist xmlns:esm="https://esm-db.eu/esmws/shakemap/1/" created="1784080652">
	<station code="T1813" name="T1813" netid="3Q" source="XVIII-INGV SISMIKO Emergency Seismic Network (XVIII-ISESN) (XVIII-ISESN)" insttype="" lat="39.31469" lon="16.75119" esm:processing="automatic (Paolucci et al 2011)" esm:quality="good">
		<comp name="00.HNE" depth="0.0">
			<acc value="0.0248103464082362" flag="0"/>
			<vel value="0.0045432622829509" flag="0"/>
			<psa03 value="0.00801153918870469" flag="0"/>
			<psa10 value="0.00450098629324814" flag="0"/>
			<psa30 value="0.000295203253683511" flag="0"/>
		</comp>
		<comp name="00.HNN" depth="0.0">
			<acc value="0.0176548050665012" flag="0"/>
			<vel value="0.00366928330444335" flag="0"/>
			<psa03 value="0.00907482186554907" flag="0"/>
			<psa10 value="0.00544795121253031" flag="0"/>
			<psa30 value="0.000382634123674648" flag="0"/>
		</comp>
		<comp name="00.HNZ" depth="0.0">
			<acc value="0.0224016290309997" flag="0"/>
			<vel value="0.00423585615438597" flag="0"/>
			<psa03 value="0.0116703369046237" flag="0"/>
			<psa10 value="0.00242889246470554" flag="0"/>
			<psa30 value="0.000344521051995479" flag="0"/>
		</comp>
	</station>
	<station code="CSMBE" name="CSMBE" netid="7C" source="Urban Seismic Network (RUSN-CAL-INGV)" insttype="" lat="39.2895" lon="16.2642" esm:processing="automatic (Paolucci et al 2011)" esm:quality="good">
		<comp name="--.HNE" depth="0.0">
			<acc value="0.0216151783629426" flag="0"/>
			<vel value="0.0106626572630857" flag="0"/>
			<psa03 value="0.02941618044844" flag="0"/>
			<psa10 value="0.0162762769734792" flag="0"/>
			<psa30 value="0.000783398719239129" flag="0"/>
		</comp>
		<comp name="--.HNN" depth="0.0">
			<acc value="0.0191161347484378" flag="0"/>
			<vel value="0.00719510471603773" flag="0"/>
			<psa03 value="0.034940864139916" flag="0"/>
			<psa10 value="0.00599266448462811" flag="0"/>
			<psa30 value="0.000691256677778884" flag="0"/>
		</comp>
		<comp name="--.HNZ" depth="0.0">
			<acc value="0.0272638750124535" flag="0"/>
			<vel value="0.00574737086718687" flag="0"/>
			<psa03 value="0.0119020762145758" flag="0"/>
			<psa10 value="0.00509448373455273" flag="0"/>
			<psa30 value="0.000374395557076427" flag="0"/>
		</comp>
	</station>
	<station code="MARCO" name="MARCO" netid="GE" source="GEOFON" insttype="" lat="40.29724" lon="15.80632" esm:processing="automatic (Paolucci et al 2011)" esm:quality="good">
		<comp name="--.HLE" depth="1.0">
			<acc value="0.0024428851074178" flag="0"/>
			<vel value="0.00168533932218741" flag="0"/>
			<psa03 value="0.00522200966948283" flag="0"/>
			<psa10 value="0.00200959570397611" flag="0"/>
			<psa30 value="0.000435960286479491" flag="0"/>
		</comp>
		<comp name="--.HLN" depth="1.0">
			<acc value="0.0023977138665364" flag="0"/>
			<vel value="0.00208484893702933" flag="0"/>
			<psa03 value="0.00572383946274718" flag="0"/>
			<psa10 value="0.00311076357281907" flag="0"/>
			<psa30 value="0.000299469005018754" flag="0"/>
		</comp>
		<comp name="--.HLZ" depth="1.0">
			<acc value="0.000571530538126058" flag="0"/>
			<vel value="0.000482820248133409" flag="0"/>
			<psa03 value="0.00122251913693595" flag="0"/>
			<psa10 value="0.000647040675767291" flag="0"/>
			<psa30 value="0.000200291276126783" flag="0"/>
		</comp>
	</station>
	<station code="DLNV" name="DLNV" netid="IT" source="Italian Strong Motion Network (RAN)" insttype="" lat="38.2369995117188" lon="15.918999671936" esm:processing="manual (Paolucci et al 2011)" esm:quality="best">
		<comp name="--.HNE" depth="0.0">
			<acc value="0.246627829694304" flag="0"/>
			<vel value="0.0596186398444259" flag="0"/>
			<psa03 value="0.180177644218081" flag="0"/>
			<psa10 value="0.00710104994096572" flag="0"/>
			<psa30 value="0.000683616223720899" flag="0"/>
		</comp>
		<comp name="--.HNN" depth="0.0">
			<acc value="0.200513671865721" flag="0"/>
			<vel value="0.0402188999443107" flag="0"/>
			<psa03 value="0.125697243492376" flag="0"/>
			<psa10 value="0.00564876998453504" flag="0"/>
			<psa30 value="0.000556608695513183" flag="0"/>
		</comp>
		<comp name="--.HNZ" depth="0.0">
			<acc value="0.47083281956085" flag="0"/>
			<vel value="0.0940425506109589" flag="0"/>
			<psa03 value="0.166726294798605" flag="0"/>
			<psa10 value="0.0107846466174061" flag="0"/>
			<psa30 value="0.0011230425210569" flag="0"/>
		</comp>
	</station>
	<station code="MZZ" name="MZZ" netid="IT" source="Italian Strong Motion Network (RAN)" insttype="" lat="38.2341003417969" lon="15.2451000213623" esm:processing="manual (Paolucci et al 2011)" esm:quality="good">
		<comp name="--.HNE" depth="0.0">
			<acc value="0.0217144957000883" flag="0"/>
			<vel value="0.00660555327285441" flag="0"/>
			<psa03 value="0.0179556386916908" flag="0"/>
			<psa10 value="0.00546236622996986" flag="0"/>
			<psa30 value="0.000397012862653893" flag="0"/>
		</comp>
		<comp name="--.HNN" depth="0.0">
			<acc value="0.0186614473319911" flag="0"/>
			<vel value="0.00614215537465453" flag="0"/>
			<psa03 value="0.0140710206777463" flag="0"/>
			<psa10 value="0.00696740515015278" flag="0"/>
			<psa30 value="0.000575417910280953" flag="0"/>
		</comp>
		<comp name="--.HNZ" depth="0.0">
			<acc value="0.0508176873725576" flag="0"/>
			<vel value="0.00859479933319249" flag="0"/>
			<psa03 value="0.0183009701619722" flag="0"/>
			<psa10 value="0.00322087860177625" flag="0"/>
			<psa30 value="0.000246923623103397" flag="0"/>
		</comp>
	</station>
	<station code="NCO" name="NCO" netid="IT" source="Italian Strong Motion Network (RAN)" insttype="" lat="38.5531" lon="15.938" esm:processing="manual (Paolucci et al 2011)" esm:quality="best">
		<comp name="--.HNE" depth="0.0">
			<acc value="0.176957047486021" flag="0"/>
			<vel value="0.0196160455156582" flag="0"/>
			<psa03 value="0.0210465400633305" flag="0"/>
			<psa10 value="0.00397748067607574" flag="0"/>
			<psa30 value="0.000311856153731305" flag="0"/>
		</comp>
		<comp name="--.HNN" depth="0.0">
			<acc value="0.204644069208843" flag="0"/>
			<vel value="0.0306206877959421" flag="0"/>
			<psa03 value="0.0276416774796445" flag="0"/>
			<psa10 value="0.00414894578480174" flag="0"/>
			<psa30 value="0.000323189430546916" flag="0"/>
		</comp>
		<comp name="--.HNZ" depth="0.0">
			<acc value="0.243655199529477" flag="0"/>
			<vel value="0.0387968474326701" flag="0"/>
			<psa03 value="0.0411615444586389" flag="0"/>
			<psa10 value="0.00688379476760549" flag="0"/>
			<psa30 value="0.000533560502015529" flag="0"/>
		</comp>
	</station>
	<station code="SAAM" name="SAAM" netid="IT" source="Italian Strong Motion Network (RAN)" insttype="" lat="38.1733" lon="15.7583" esm:processing="manual (Paolucci et al 2011)" esm:quality="good">
		<comp name="--.HNE" depth="0.0">
			<acc value="0.123035789508446" flag="0"/>
			<vel value="0.0369815034166055" flag="0"/>
			<psa03 value="0.134987765193822" flag="0"/>
			<psa10 value="0.00781885780471999" flag="0"/>
			<psa30 value="0.000738323389465495" flag="0"/>
		</comp>
		<comp name="--.HNN" depth="0.0">
			<acc value="0.16686013709744" flag="0"/>
			<vel value="0.0392864610910584" flag="0"/>
			<psa03 value="0.137535027687153" flag="0"/>
			<psa10 value="0.00839211749911749" flag="0"/>
			<psa30 value="0.000688802036002643" flag="0"/>
		</comp>
		<comp name="--.HNZ" depth="0.0">
			<acc value="0.383441841708267" flag="0"/>
			<vel value="0.0902048549613148" flag="0"/>
			<psa03 value="0.174734679481835" flag="0"/>
			<psa10 value="0.012048808486923" flag="0"/>
			<psa30 value="0.00126263801857163" flag="0"/>
		</comp>
	</station>
	<station code="SCI" name="SCI" netid="IT" source="Italian Strong Motion Network (RAN)" insttype="" lat="38.2556991577148" lon="15.7146997451782" esm:processing="manual (Paolucci et al 2011)" esm:quality="best">
		<comp name="--.HNE" depth="0.0">
			<acc value="0.0463752940177318" flag="0"/>
			<vel value="0.00713917445240171" flag="0"/>
			<psa03 value="0.0326312814538953" flag="0"/>
			<psa10 value="0.00402213582175761" flag="0"/>
			<psa30 value="0.000246530107451315" flag="0"/>
		</comp>
		<comp name="--.HNN" depth="0.0">
			<acc value="0.0266917395621759" flag="0"/>
			<vel value="0.00669981066164728" flag="0"/>
			<psa03 value="0.0295542963687652" flag="0"/>
			<psa10 value="0.00335468652839213" flag="0"/>
			<psa30 value="0.000214577222500566" flag="0"/>
		</comp>
		<comp name="--.HNZ" depth="0.0">
			<acc value="0.0729562242623295" flag="0"/>
			<vel value="0.0141651494470144" flag="0"/>
			<psa03 value="0.01644717287781" flag="0"/>
			<psa10 value="0.00372842597429581" flag="0"/>
			<psa30 value="0.000348939000912895" flag="0"/>
		</comp>
	</station>
	<station code="SPR" name="SPR" netid="IT" source="Italian Strong Motion Network (RAN)" insttype="" lat="38.2672004699707" lon="15.601900100708" esm:processing="manual (Paolucci et al 2011)" esm:quality="good">
		<comp name="--.HGE" depth="0.0">
			<acc value="0.0384587713310648" flag="0"/>
			<vel value="0.0110784056689127" flag="0"/>
			<psa03 value="0.0606363970722057" flag="0"/>
			<psa10 value="0.00645834595870402" flag="0"/>
			<psa30 value="0.000537754165239005" flag="0"/>
		</comp>
		<comp name="--.HGN" depth="0.0">
			<acc value="0.0389545759808847" flag="0"/>
			<vel value="0.0121263897186723" flag="0"/>
			<psa03 value="0.0688109073431317" flag="0"/>
			<psa10 value="0.00792481029228878" flag="0"/>
			<psa30 value="0.000773590725755608" flag="0"/>
		</comp>
		<comp name="--.HGZ" depth="0.0">
			<acc value="0.157368191084116" flag="0"/>
			<vel value="0.0332088182474517" flag="0"/>
			<psa03 value="0.0518685610377861" flag="0"/>
			<psa10 value="0.00649629144117501" flag="0"/>
			<psa30 value="0.000651567277716517" flag="0"/>
		</comp>
	</station>
	<station code="TPA" name="TPA" netid="IT" source="Italian Strong Motion Network (RAN)" insttype="" lat="38.6736" lon="15.8891" esm:processing="manual (Paolucci et al 2011)" esm:quality="best">
		<comp name="--.HNE" depth="0.0">
			<acc value="0.119654813941532" flag="0"/>
			<vel value="0.0179823768376092" flag="0"/>
			<psa03 value="0.0960709579796819" flag="0"/>
			<psa10 value="0.0143543196532374" flag="0"/>
			<psa30 value="0.00125899319378661" flag="0"/>
		</comp>
		<comp name="--.HNN" depth="0.0">
			<acc value="0.176032297287513" flag="0"/>
			<vel value="0.0259247518881579" flag="0"/>
			<psa03 value="0.107075155703649" flag="0"/>
			<psa10 value="0.0122805719651162" flag="0"/>
			<psa30 value="0.000975691197252569" flag="0"/>
		</comp>
		<comp name="--.HNZ" depth="0.0">
			<acc value="0.161300502767776" flag="0"/>
			<vel value="0.0327016379374049" flag="0"/>
			<psa03 value="0.0515630303811111" flag="0"/>
			<psa10 value="0.0095323383456411" flag="0"/>
			<psa30 value="0.00068917148756135" flag="0"/>
		</comp>
	</station>
	<station code="VLS2" name="VLS2" netid="IT" source="Italian Strong Motion Network (RAN)" insttype="" lat="38.2175" lon="15.6469" esm:processing="manual (Paolucci et al 2011)" esm:quality="good">
		<comp name="--.HNE" depth="0.0">
			<acc value="0.0723355885856399" flag="0"/>
			<vel value="0.0158350790098334" flag="0"/>
			<psa03 value="0.0500130474941658" flag="0"/>
			<psa10 value="0.00596748859809401" flag="0"/>
			<psa30 value="0.000435035277285202" flag="0"/>
		</comp>
		<comp name="--.HNN" depth="0.0">
			<acc value="0.069179810828628" flag="0"/>
			<vel value="0.0144210283295649" flag="0"/>
			<psa03 value="0.0415145313839619" flag="0"/>
			<psa10 value="0.00746552908591334" flag="0"/>
			<psa30 value="0.000433910385058653" flag="0"/>
		</comp>
		<comp name="--.HNZ" depth="0.0">
			<acc value="0.145071036868105" flag="0"/>
			<vel value="0.0284652645817134" flag="0"/>
			<psa03 value="0.0532422145354328" flag="0"/>
			<psa10 value="0.00489916751453444" flag="0"/>
			<psa30 value="0.000446920283358748" flag="0"/>
		</comp>
	</station>
	<station code="VLTR" name="VLTR" netid="IT" source="Italian Strong Motion Network (RAN)" insttype="" lat="38.2354011535645" lon="15.4328002929688" esm:processing="manual (Paolucci et al 2011)" esm:quality="bad">
		<comp name="--.HNE" depth="0.0">
			<acc value="0.0265476335293807" flag="0"/>
			<vel value="0.0108995833632925" flag="0"/>
			<psa03 value="0.0736451130022202" flag="0"/>
			<psa10 value="0.00557627627594584" flag="0"/>
			<psa30 value="0.000505776473959257" flag="0"/>
		</comp>
		<comp name="--.HNN" depth="0.0">
			<acc value="0.0313623923137131" flag="0"/>
			<vel value="0.0100253834835838" flag="0"/>
			<psa03 value="0.0556661511509151" flag="0"/>
			<psa10 value="0.0104520633354145" flag="0"/>
			<psa30 value="0.000714198093369579" flag="0"/>
		</comp>
		<comp name="--.HNZ" depth="0.0">
			<acc value="0.112571344955887" flag="0"/>
			<vel value="0.0194242188392903" flag="0"/>
			<psa03 value="0.0512959033102489" flag="0"/>
			<psa10 value="0.00489277755998866" flag="0"/>
			<psa30 value="0.000411672896308961" flag="0"/>
		</comp>
	</station>
	<station code="BASIC" name="BASIC" netid="IV" source="Italian National Seismic Network (INSN)" insttype="" lat="38.06703" lon="15.068847" esm:processing="manual (Paolucci et al 2011)" esm:quality="best">
		<comp name="--.HNE" depth="0.0">
			<acc value="0.0209269085653223" flag="0"/>
			<vel value="0.0116997332671663" flag="0"/>
			<psa03 value="0.0568404164404981" flag="0"/>
			<psa10 value="0.0255034763551357" flag="0"/>
			<psa30 value="0.00138183674823609" flag="0"/>
		</comp>
		<comp name="--.HNN" depth="0.0">
			<acc value="0.019697946602062" flag="0"/>
			<vel value="0.00737053164308003" flag="0"/>
			<psa03 value="0.053849749573199" flag="0"/>
			<psa10 value="0.0136069045156302" flag="0"/>
			<psa30 value="0.00064180866250626" flag="0"/>
		</comp>
		<comp name="--.HNZ" depth="0.0">
			<acc value="0.0449427705142755" flag="0"/>
			<vel value="0.0114731982218159" flag="0"/>
			<psa03 value="0.0225954890277682" flag="0"/>
			<psa10 value="0.0104069862867661" flag="0"/>
			<psa30 value="0.000477487412447192" flag="0"/>
		</comp>
	</station>
	<station code="CORL" name="CORL" netid="IV" source="Italian National Seismic Network (INSN)" insttype="" lat="37.8943" lon="13.3038" esm:processing="automatic (Paolucci et al 2011)" esm:quality="best">
		<comp name="--.HNE" depth="0.0">
			<acc value="0.00160975710220396" flag="0"/>
			<vel value="0.00131073183501465" flag="0"/>
			<psa03 value="0.00488007686186881" flag="0"/>
			<psa10 value="0.00178971840381055" flag="0"/>
			<psa30 value="0.000422365349423343" flag="0"/>
		</comp>
		<comp name="--.HNN" depth="0.0">
			<acc value="0.0021522352435718" flag="0"/>
			<vel value="0.00162148552921935" flag="0"/>
			<psa03 value="0.0072049636215872" flag="0"/>
			<psa10 value="0.00163163582224091" flag="0"/>
			<psa30 value="0.000472767985227103" flag="0"/>
		</comp>
		<comp name="--.HNZ" depth="0.0">
			<acc value="0.00118626435568494" flag="0"/>
			<vel value="0.00103844494366566" flag="0"/>
			<psa03 value="0.00257975650818492" flag="0"/>
			<psa10 value="0.00130623461756956" flag="0"/>
			<psa30 value="0.000300167566919746" flag="0"/>
		</comp>
	</station>
	<station code="CSLB" name="CSLB" netid="IV" source="Italian National Seismic Network (INSN)" insttype="" lat="37.93745" lon="14.05785" esm:processing="automatic (Paolucci et al 2011)" esm:quality="best">
		<comp name="--.HNE" depth="0.0">
			<acc value="0.000608824608131223" flag="0"/>
			<vel value="0.000389163964087649" flag="0"/>
			<psa03 value="0.00172123381495865" flag="0"/>
			<psa10 value="0.000667682804927476" flag="0"/>
			<psa30 value="0.000105656419792173" flag="0"/>
		</comp>
		<comp name="--.HNN" depth="0.0">
			<acc value="0.000750329745719655" flag="0"/>
			<vel value="0.000430166089317652" flag="0"/>
			<psa03 value="0.00211625119385889" flag="0"/>
			<psa10 value="0.000589920524653327" flag="0"/>
			<psa30 value="0.000107926238125324" flag="0"/>
		</comp>
		<comp name="--.HNZ" depth="0.0">
			<acc value="0.00099893541434999" flag="0"/>
			<vel value="0.000488287020822506" flag="0"/>
			<psa03 value="0.00132649900686026" flag="0"/>
			<psa10 value="0.000655164710041759" flag="0"/>
			<psa30 value="0.000100120226223793" flag="0"/>
		</comp>
	</station>
	<station code="ECHR" name="ECHR" netid="IV" source="Italian National Seismic Network (INSN)" insttype="" lat="37.6863" lon="14.9129" esm:processing="automatic (Paolucci et al 2011)" esm:quality="best">
		<comp name="--.HNE" depth="0.0">
			<acc value="0.00309694338115928" flag="0"/>
			<vel value="0.00154346456197343" flag="0"/>
			<psa03 value="0.00414235318660985" flag="0"/>
			<psa10 value="0.00216995468634696" flag="0"/>
			<psa30 value="0.000376808216903289" flag="0"/>
		</comp>
		<comp name="--.HNN" depth="0.0">
			<acc value="0.0025911702748594" flag="0"/>
			<vel value="0.00145376200156944" flag="0"/>
			<psa03 value="0.00481817302146356" flag="0"/>
			<psa10 value="0.00217428997354146" flag="0"/>
			<psa30 value="0.00026306536949799" flag="0"/>
		</comp>
		<comp name="--.HNZ" depth="0.0">
			<acc value="0.00313501824717711" flag="0"/>
			<vel value="0.00184068405280251" flag="0"/>
			<psa03 value="0.00348580057864088" flag="0"/>
			<psa10 value="0.00270254317084756" flag="0"/>
			<psa30 value="0.000162611644619418" flag="0"/>
		</comp>
	</station>
	<station code="EFIU" name="EFIU" netid="IV" source="Italian National Seismic Network (INSN)" insttype="" lat="37.7896" lon="15.2103" esm:processing="manual (Paolucci et al 2011)" esm:quality="best">
		<comp name="--.HNE" depth="0.0">
			<acc value="0.00782234491692551" flag="0"/>
			<vel value="0.00333378377076181" flag="0"/>
			<psa03 value="0.00798723028669106" flag="0"/>
			<psa10 value="0.00486668708162895" flag="0"/>
			<psa30 value="0.000678033822662795" flag="0"/>
		</comp>
		<comp name="--.HNN" depth="0.0">
			<acc value="0.0127970927114183" flag="0"/>
			<vel value="0.00406487469646585" flag="0"/>
			<psa03 value="0.0104367805782061" flag="0"/>
			<psa10 value="0.00763964280758357" flag="0"/>
			<psa30 value="0.000835047817818352" flag="0"/>
		</comp>
		<comp name="--.HNZ" depth="0.0">
			<acc value="0.0204502505654765" flag="0"/>
			<vel value="0.00627931629853489" flag="0"/>
			<psa03 value="0.0140053874235935" flag="0"/>
			<psa10 value="0.00564857122135367" flag="0"/>
			<psa30 value="0.00077278270347698" flag="0"/>
		</comp>
	</station>
	<station code="EPOZ" name="EPOZ" netid="IV" source="Italian National Seismic Network (INSN)" insttype="" lat="37.6719" lon="15.1885" esm:processing="automatic (Paolucci et al 2011)" esm:quality="best">
		<comp name="--.HNE" depth="0.0">
			<acc value="0.0258750624033972" flag="0"/>
			<vel value="0.00423724385471641" flag="0"/>
			<psa03 value="0.0140801176345162" flag="0"/>
			<psa10 value="0.00588807755626092" flag="0"/>
			<psa30 value="0.000559911570561386" flag="0"/>
		</comp>
		<comp name="--.HNN" depth="0.0">
			<acc value="0.0323091186201208" flag="0"/>
			<vel value="0.00573180105304624" flag="0"/>
			<psa03 value="0.0134920956080341" flag="0"/>
			<psa10 value="0.00623825090975473" flag="0"/>
			<psa30 value="0.000533023278926833" flag="0"/>
		</comp>
		<comp name="--.HNZ" depth="0.0">
			<acc value="0.0379574745082947" flag="0"/>
			<vel value="0.00611903734421539" flag="0"/>
			<psa03 value="0.0106151992986224" flag="0"/>
			<psa10 value="0.0025004605651146" flag="0"/>
			<psa30 value="0.000371958598765192" flag="0"/>
		</comp>
	</station>
	<station code="EPZF" name="EPZF" netid="IV" source="Italian National Seismic Network (INSN)" insttype="" lat="37.824" lon="14.857" esm:processing="automatic (Paolucci et al 2011)" esm:quality="best">
		<comp name="--.HNE" depth="0.0">
			<acc value="0.0130992181050393" flag="0"/>
			<vel value="0.00616717036304075" flag="0"/>
			<psa03 value="0.0136095981836655" flag="0"/>
			<psa10 value="0.0101204804321658" flag="0"/>
			<psa30 value="0.000999127645637364" flag="0"/>
		</comp>
		<comp name="--.HNN" depth="0.0">
			<acc value="0.0208982826918825" flag="0"/>
			<vel value="0.0057997410783876" flag="0"/>
			<psa03 value="0.0218867363472137" flag="0"/>
