<?xml version="1.0" encoding="UTF-8" standalone="yes"?>
<!DOCTYPE earthquake SYSTEM "stationlist.dtd">
<stationlist created="" xmlns="ch.ethz.sed.shakemap.usgs.xml">
  <station code="EMFO" name="EMFO" netid="IV" insttype="" lat="37.7357" lon="15.0902">
    <comp name="--.HHE">
      <acc value="0.0331989629" flag="0"/>
      <vel value="0.0084813018" flag="0"/>
      <psa03 value="0.0360293194" flag="0"/>
      <psa10 value="0.0080798926" flag="0"/>
      <psa30 value="0.0005706866" flag="0"/>
    </comp>
    <comp name="--.HHN">
      <acc value="0.0283448782" flag="0"/>
      <vel value="0.0080902720" flag="0"/>
      <psa03 value="0.0346330510" flag="0"/>
      <psa10 value="0.0038419364" flag="0"/>
      <psa30 value="0.0003425435" flag="0"/>
    </comp>
    <comp name="--.HHZ">
      <acc value="0.0260106465" flag="0"/>
      <vel value="0.0077842858" flag="0"/>
      <psa03 value="0.0291773943" flag="0"/>
      <psa10 value="0.0066539672" flag="0"/>
      <psa30 value="0.0004421627" flag="0"/>
    </comp>
  </station>
  <station code="HAGA" name="HAGA" netid="IV" insttype="" lat="37.285" lon="15.155">
    <comp name="--.HHN">
      <acc value="0.0175925862" flag="0"/>
      <vel value="0.0041046691" flag="0"/>
      <psa03 value="0.0043224904" flag="0"/>
      <psa10 value="0.0063916984" flag="0"/>
      <psa30 value="0.0003266886" flag="0"/>
    </comp>
    <comp name="--.HHE">
      <acc value="0.0169542766" flag="0"/>
      <vel value="0.0028556715" flag="0"/>
      <psa03 value="0.0063218497" flag="0"/>
      <psa10 value="0.0028334967" flag="0"/>
      <psa30 value="0.0003071801" flag="0"/>
    </comp>
    <comp name="--.HHZ">
      <acc value="0.0198375026" flag="0"/>
      <vel value="0.0041484264" flag="0"/>
      <psa03 value="0.0081782609" flag="0"/>
      <psa10 value="0.0015554527" flag="0"/>
      <psa30 value="0.0002545133" flag="0"/>
    </comp>
  </station>
  <station code="HCRL" name="HCRL" netid="IV" insttype="" lat="37.2831" lon="15.0325">
    <comp name="--.HHN">
      <acc value="0.0254185745" flag="0"/>
      <vel value="0.0046661110" flag="0"/>
      <psa03 value="0.0087241627" flag="0"/>
      <psa10 value="0.0034012701" flag="0"/>
      <psa30 value="0.0002835149" flag="0"/>
    </comp>
    <comp name="--.HHE">
      <acc value="0.0286928833" flag="0"/>
      <vel value="0.0048167917" flag="0"/>
      <psa03 value="0.0078203244" flag="0"/>
      <psa10 value="0.0043595057" flag="0"/>
      <psa30 value="0.0005092724" flag="0"/>
    </comp>
    <comp name="--.HHZ">
      <acc value="0.0240108381" flag="0"/>
      <vel value="0.0049481592" flag="0"/>
      <psa03 value="0.0125469805" flag="0"/>
      <psa10 value="0.0020299317" flag="0"/>
      <psa30 value="0.0002955902" flag="0"/>
    </comp>
  </station>
  <station code="HLNI" name="HLNI" netid="IV" insttype="" lat="37.3485" lon="14.872">
    <comp name="--.HHE">
      <acc value="0.0165197112" flag="0"/>
      <vel value="0.0033751369" flag="0"/>
      <psa03 value="0.0077992449" flag="0"/>
      <psa10 value="0.0049835124" flag="0"/>
      <psa30 value="0.0007542606" flag="0"/>
    </comp>
    <comp name="--.HHN">
      <acc value="0.0222311561" flag="0"/>
      <vel value="0.0042958012" flag="0"/>
      <psa03 value="0.0086144251" flag="0"/>
      <psa10 value="0.0015706529" flag="0"/>
      <psa30 value="0.0003514398" flag="0"/>
    </comp>
    <comp name="--.HHZ">
      <acc value="0.0229417450" flag="0"/>
      <vel value="0.0054069926" flag="0"/>
      <psa03 value="0.0104096380" flag="0"/>
      <psa10 value="0.0043087569" flag="0"/>
      <psa30 value="0.0002760611" flag="0"/>
    </comp>
  </station>
</stationlist>
