<?xml version="1.0" encoding="UTF-8" standalone="yes"?>
<!DOCTYPE earthquake SYSTEM "stationlist.dtd">
<stationlist created="" xmlns="ch.ethz.sed.shakemap.usgs.xml">
  <station code="CHBY" name="CHBY" netid="KO" insttype="CMG-6T" lat="38.5823" lon="32.8902">
    <comp name="--.HHN">
      <acc value="0.0074404691" flag="0"/>
      <vel value="0.0079030836" flag="0"/>
      <psa03 value="0.0186009646" flag="0"/>
      <psa10 value="0.0107950274" flag="0"/>
      <psa30 value="0.0025278498" flag="0"/>
    </comp>
    <comp name="--.HHE">
      <acc value="0.0102510219" flag="0"/>
      <vel value="0.0084664880" flag="0"/>
      <psa03 value="0.0242712246" flag="0"/>
      <psa10 value="0.0097655799" flag="0"/>
      <psa30 value="0.0017010839" flag="0"/>
    </comp>
    <comp name="--.HHZ">
      <acc value="0.0057592370" flag="0"/>
      <vel value="0.0059634702" flag="0"/>
      <psa03 value="0.0149614037" flag="0"/>
      <psa10 value="0.0057230229" flag="0"/>
      <psa30 value="0.0029419438" flag="0"/>
    </comp>
  </station>
  <station code="GULA" name="GULA" netid="KO" insttype="CMG-6T" lat="38.3444" lon="34.236">
    <comp name="--.HHE">
      <acc value="0.0022863319" flag="0"/>
      <vel value="0.0013879151" flag="0"/>
      <psa03 value="0.0057143602" flag="0"/>
      <psa10 value="0.0014382487" flag="0"/>
      <psa30 value="0.0003199338" flag="0"/>
    </comp>
    <comp name="--.HHZ">
      <acc value="0.0015874883" flag="0"/>
      <vel value="0.0011728815" flag="0"/>
      <psa03 value="0.0063930791" flag="0"/>
      <psa10 value="0.0014696795" flag="0"/>
      <psa30 value="0.0002954981" flag="0"/>
    </comp>
    <comp name="--.HHN">
      <acc value="0.0024886761" flag="0"/>
      <vel value="0.0017372829" flag="0"/>
      <psa03 value="0.0073132461" flag="0"/>
      <psa10 value="0.0023021333" flag="0"/>
      <psa30 value="0.0003905418" flag="0"/>
    </comp>
  </station>
  <station code="HDMB" name="HDMB" netid="KO" insttype="CMG-3T" lat="36.9638" lon="32.4857">
    <comp name="--.HHE">
      <acc value="0.0101755722" flag="0"/>
      <vel value="0.0082579709" flag="0"/>
      <psa03 value="0.0331812321" flag="0"/>
      <psa10 value="0.0099228824" flag="0"/>
      <psa30 value="0.0004857687" flag="0"/>
    </comp>
    <comp name="--.HHZ">
      <acc value="0.0043261864" flag="0"/>
      <vel value="0.0048835913" flag="0"/>
      <psa03 value="0.0105663344" flag="0"/>
      <psa10 value="0.0072698237" flag="0"/>
      <psa30 value="0.0005515363" flag="0"/>
    </comp>
    <comp name="--.HHN">
      <acc value="0.0065690208" flag="0"/>
      <vel value="0.0070348328" flag="0"/>
      <psa03 value="0.0161648576" flag="0"/>
      <psa10 value="0.0064280474" flag="0"/>
      <psa30 value="0.0004530451" flag="0"/>
    </comp>
  </station>
  <station code="KONT" name="KONT" netid="KO" insttype="CMG-3T" lat="37.957" lon="32.3563">
    <comp name="--.HHE">
      <acc value="0.0132930907" flag="0"/>
      <vel value="0.0061147727" flag="0"/>
      <psa03 value="0.0396760967" flag="0"/>
      <psa10 value="0.0060252570" flag="0"/>
      <psa30 value="0.0007893564" flag="0"/>
    </comp>
    <comp name="--.HHN">
      <acc value="0.0092760560" flag="0"/>
      <vel value="0.0049743792" flag="0"/>
      <psa03 value="0.0173424535" flag="0"/>
      <psa10 value="0.0052620778" flag="0"/>
      <psa30 value="0.0010149012" flag="0"/>
    </comp>
    <comp name="--.HHZ">
      <acc value="0.0081617570" flag="0"/>
      <vel value="0.0051290763" flag="0"/>
      <psa03 value="0.0204202311" flag="0"/>
      <psa10 value="0.0053940654" flag="0"/>
      <psa30 value="0.0004909709" flag="0"/>
    </comp>
  </station>
  <station code="LADK" name="LADK" netid="KO" insttype="CMG-3T" lat="38.1999" lon="32.3648">
    <comp name="--.HHN">
      <acc value="0.0058689612" flag="0"/>
      <vel value="0.0044676641" flag="0"/>
      <psa03 value="0.0141145501" flag="0"/>
      <psa10 value="0.0065065247" flag="0"/>
      <psa30 value="0.0009544009" flag="0"/>
    </comp>
    <comp name="--.HHZ">
      <acc value="0.0055989487" flag="0"/>
      <vel value="0.0031090044" flag="0"/>
      <psa03 value="0.0142297029" flag="0"/>
      <psa10 value="0.0043114171" flag="0"/>
      <psa30 value="0.0009746180" flag="0"/>
    </comp>
  </station>
  <station code="SULT" name="SULT" netid="KO" insttype="CMG-3T" lat="38.1988" lon="33.5157">
    <comp name="--.HHN">
      <acc value="0.0227552370" flag="0"/>
      <vel value="0.0180136234" flag="0"/>
      <psa03 value="0.0501352855" flag="0"/>
      <psa10 value="0.0225394397" flag="0"/>
      <psa30 value="0.0084783567" flag="0"/>
    </comp>
    <comp name="--.HHZ">
      <acc value="0.0149949098" flag="0"/>
      <vel value="0.0181869106" flag="0"/>
      <psa03 value="0.0354128049" flag="0"/>
      <psa10 value="0.0353400746" flag="0"/>
      <psa30 value="0.0048338484" flag="0"/>
    </comp>
    <comp name="--.HHE">
      <acc value="0.0184262097" flag="0"/>
      <vel value="0.0187771034" flag="0"/>
      <psa03 value="0.0455104544" flag="0"/>
      <psa10 value="0.0232767984" flag="0"/>
      <psa30 value="0.0081072158" flag="0"/>
    </comp>
  </station>
  <station code="YESY" name="YESY" netid="KO" insttype="CMG-6T" lat="37.7825" lon="33.7431">
    <comp name="--.HHZ">
      <acc value="0.0148187904" flag="0"/>
      <vel value="0.0095473706" flag="0"/>
      <psa03 value="0.0324922628" flag="0"/>
      <psa10 value="0.0116792052" flag="0"/>
      <psa30 value="0.0048856486" flag="0"/>
    </comp>
  </station>
</stationlist>
