<?xml version="1.0" encoding="UTF-8" standalone="yes"?>
<!DOCTYPE earthquake SYSTEM "stationlist.dtd">
<stationlist created="" xmlns="ch.ethz.sed.shakemap.usgs.xml">
  <station code="APE" name="APE" netid="GE" insttype="STS-2/N" lat="37.0727" lon="25.523">
    <comp name="--.HHN">
      <acc value="0.1987521638" flag="0"/>
      <vel value="0.0338506370" flag="0"/>
      <psa03 value="0.0976505200" flag="0"/>
      <psa10 value="0.0076783397" flag="0"/>
      <psa30 value="0.0014834829" flag="0"/>
    </comp>
    <comp name="--.HHE">
      <acc value="0.1914781150" flag="0"/>
      <vel value="0.0303027224" flag="0"/>
      <psa03 value="0.1006829024" flag="0"/>
      <psa10 value="0.0099463685" flag="0"/>
      <psa30 value="0.0017264872" flag="0"/>
    </comp>
    <comp name="--.HHZ">
      <acc value="0.0984377445" flag="0"/>
      <vel value="0.0171942372" flag="0"/>
      <psa03 value="0.0702224316" flag="0"/>
      <psa10 value="0.0072803648" flag="0"/>
      <psa30 value="0.0015116138" flag="0"/>
    </comp>
  </station>
  <station code="SNT1" name="SNT1" netid="HA" insttype="30" lat="36.4159" lon="25.4282">
    <comp name="--.HHE">
      <acc value="0.0528268355" flag="0"/>
      <vel value="0.0197091716" flag="0"/>
      <psa03 value="0.0612425495" flag="0"/>
      <psa10 value="0.0127678712" flag="0"/>
      <psa30 value="0.0017684024" flag="0"/>
    </comp>
    <comp name="--.HHZ">
      <acc value="0.0429141775" flag="0"/>
      <vel value="0.0106907053" flag="0"/>
      <psa03 value="0.0649695996" flag="0"/>
      <psa10 value="0.0048946911" flag="0"/>
      <psa30 value="0.0010748996" flag="0"/>
    </comp>
    <comp name="--.HHN">
      <acc value="0.0559371239" flag="0"/>
      <vel value="0.0181148492" flag="0"/>
      <psa03 value="0.0864226587" flag="0"/>
      <psa10 value="0.0158808702" flag="0"/>
      <psa30 value="0.0023136723" flag="0"/>
    </comp>
  </station>
  <station code="APE" name="APE" netid="HL" insttype="120" lat="37.0727" lon="25.523">
    <comp name="--.HHN">
      <acc value="0.1779707974" flag="0"/>
      <vel value="0.0313146727" flag="0"/>
      <psa03 value="0.0937515778" flag="0"/>
      <psa10 value="0.0075146903" flag="0"/>
      <psa30 value="0.0014768336" flag="0"/>
    </comp>
    <comp name="--.HHE">
      <acc value="0.1638088348" flag="0"/>
      <vel value="0.0279760987" flag="0"/>
      <psa03 value="0.0981366685" flag="0"/>
      <psa10 value="0.0098623584" flag="0"/>
      <psa30 value="0.0017204884" flag="0"/>
    </comp>
    <comp name="--.HHZ">
      <acc value="0.0848477033" flag="0"/>
      <vel value="0.0154882435" flag="0"/>
      <psa03 value="0.0682991082" flag="0"/>
      <psa10 value="0.0071848040" flag="0"/>
      <psa30 value="0.0015074065" flag="0"/>
    </comp>
  </station>
  <station code="SAP3" name="SAP3" netid="HL" insttype="LE3D20_SMART24" lat="36.4356" lon="25.3454">
    <comp name="--.HHE">
      <acc value="0.1743641379" flag="0"/>
      <vel value="0.0576875175" flag="0"/>
      <psa03 value="0.2900584912" flag="0"/>
      <psa10 value="0.0379492827" flag="0"/>
      <psa30 value="0.0116773242" flag="0"/>
    </comp>
    <comp name="--.HHN">
      <acc value="0.2309745650" flag="0"/>
      <vel value="0.0662624371" flag="0"/>
      <psa03 value="0.2590491365" flag="0"/>
      <psa10 value="0.0255979717" flag="0"/>
      <psa30 value="0.0069889937" flag="0"/>
    </comp>
    <comp name="--.HHZ">
      <acc value="0.2893001409" flag="0"/>
      <vel value="0.0603275389" flag="0"/>
      <psa03 value="0.2128241542" flag="0"/>
      <psa10 value="0.0154679968" flag="0"/>
      <psa30 value="0.0032580278" flag="0"/>
    </comp>
  </station>
</stationlist>
