<?xml version="1.0" encoding="UTF-8" standalone="yes"?>
<!DOCTYPE earthquake SYSTEM "stationlist.dtd">
<stationlist created="" xmlns="ch.ethz.sed.shakemap.usgs.xml">
  <station code="AOI" name="AOI" netid="IV" insttype="" lat="43.5502" lon="13.602">
    <comp name="--.HHE">
      <acc value="0.0510622241" flag="0"/>
      <vel value="0.0093591224" flag="0"/>
      <psa03 value="0.0432448897" flag="0"/>
      <psa10 value="0.0055873678" flag="0"/>
      <psa30 value="0.0005414460" flag="0"/>
    </comp>
    <comp name="--.HHN">
      <acc value="0.0462722553" flag="0"/>
      <vel value="0.0129317080" flag="0"/>
      <psa03 value="0.0560590571" flag="0"/>
      <psa10 value="0.0053516970" flag="0"/>
      <psa30 value="0.0004451082" flag="0"/>
    </comp>
    <comp name="--.HHZ">
      <acc value="0.0242225545" flag="0"/>
      <vel value="0.0061463475" flag="0"/>
      <psa03 value="0.0466002026" flag="0"/>
      <psa10 value="0.0036899091" flag="0"/>
      <psa30 value="0.0004275260" flag="0"/>
    </comp>
  </station>
  <station code="ASSB" name="ASSB" netid="IV" insttype="" lat="43.0426" lon="12.6587">
    <comp name="--.HHZ">
      <acc value="0.0130194447" flag="0"/>
      <vel value="0.0061430066" flag="0"/>
      <psa03 value="0.0326808224" flag="0"/>
      <psa10 value="0.0028462894" flag="0"/>
      <psa30 value="0.0005236351" flag="0"/>
    </comp>
    <comp name="--.HHN">
      <acc value="0.0233630834" flag="0"/>
      <vel value="0.0093154116" flag="0"/>
      <psa03 value="0.0850475864" flag="0"/>
      <psa10 value="0.0070505539" flag="0"/>
      <psa30 value="0.0011982875" flag="0"/>
    </comp>
    <comp name="--.HHE">
      <acc value="0.0210658928" flag="0"/>
      <vel value="0.0101142392" flag="0"/>
      <psa03 value="0.0775190833" flag="0"/>
      <psa10 value="0.0041791969" flag="0"/>
      <psa30 value="0.0007015588" flag="0"/>
    </comp>
  </station>
  <station code="ATMI" name="ATMI" netid="IV" insttype="" lat="43.3342" lon="12.268">
    <comp name="--.HHE">
      <acc value="0.0096724326" flag="0"/>
      <vel value="0.0066815570" flag="0"/>
      <psa03 value="0.0334678042" flag="0"/>
      <psa10 value="0.0094112985" flag="0"/>
      <psa30 value="0.0006598413" flag="0"/>
    </comp>
    <comp name="--.HHN">
      <acc value="0.0064574778" flag="0"/>
      <vel value="0.0056951021" flag="0"/>
      <psa03 value="0.0190379802" flag="0"/>
      <psa10 value="0.0110970091" flag="0"/>
      <psa30 value="0.0009242956" flag="0"/>
    </comp>
    <comp name="--.HHZ">
      <acc value="0.0058497944" flag="0"/>
      <vel value="0.0036818635" flag="0"/>
      <psa03 value="0.0141463986" flag="0"/>
      <psa10 value="0.0040895953" flag="0"/>
      <psa30 value="0.0004071225" flag="0"/>
    </comp>
  </station>
  <station code="CESI" name="CESI" netid="IV" insttype="" lat="43.0049" lon="12.9046">
    <comp name="--.HHE">
      <acc value="0.0331429034" flag="0"/>
      <vel value="0.0149930036" flag="0"/>
      <psa03 value="0.0889032240" flag="0"/>
      <psa10 value="0.0049482338" flag="0"/>
      <psa30 value="0.0005241709" flag="0"/>
    </comp>
    <comp name="--.HHN">
      <acc value="0.0250519934" flag="0"/>
      <vel value="0.0125452159" flag="0"/>
      <psa03 value="0.0758792537" flag="0"/>
      <psa10 value="0.0051792357" flag="0"/>
      <psa30 value="0.0010006514" flag="0"/>
    </comp>
    <comp name="--.HHZ">
      <acc value="0.0188220626" flag="0"/>
      <vel value="0.0067431610" flag="0"/>
      <psa03 value="0.0465416021" flag="0"/>
      <psa10 value="0.0030878990" flag="0"/>
      <psa30 value="0.0005723719" flag="0"/>
    </comp>
  </station>
  <station code="CING" name="CING" netid="IV" insttype="" lat="43.3756" lon="13.1954">
    <comp name="--.HHZ">
      <acc value="0.0115835863" flag="0"/>
      <vel value="0.0038472089" flag="0"/>
      <psa03 value="0.0174156347" flag="0"/>
      <psa10 value="0.0040572040" flag="0"/>
      <psa30 value="0.0006730939" flag="0"/>
    </comp>
    <comp name="--.HHN">
      <acc value="0.0167730139" flag="0"/>
      <vel value="0.0044057664" flag="0"/>
      <psa03 value="0.0283848278" flag="0"/>
      <psa10 value="0.0049814394" flag="0"/>
      <psa30 value="0.0012259972" flag="0"/>
    </comp>
    <comp name="--.HHE">
      <acc value="0.0138326662" flag="0"/>
      <vel value="0.0039536015" flag="0"/>
      <psa03 value="0.0233207743" flag="0"/>
      <psa10 value="0.0034185447" flag="0"/>
      <psa30 value="0.0010888647" flag="0"/>
    </comp>
  </station>
  <station code="CRE" name="CRE" netid="IV" insttype="" lat="43.6189" lon="11.9517">
    <comp name="--.HHE">
      <acc value="0.0044816577" flag="0"/>
      <vel value="0.0043791318" flag="0"/>
      <psa03 value="0.0127782799" flag="0"/>
      <psa10 value="0.0036639488" flag="0"/>
      <psa30 value="0.0006504616" flag="0"/>
    </comp>
    <comp name="--.HHZ">
      <acc value="0.0053114320" flag="0"/>
      <vel value="0.0023003151" flag="0"/>
      <psa03 value="0.0081614177" flag="0"/>
      <psa10 value="0.0034046299" flag="0"/>
      <psa30 value="0.0004224743" flag="0"/>
    </comp>
    <comp name="--.HHN">
      <acc value="0.0069421148" flag="0"/>
      <vel value="0.0068208421" flag="0"/>
      <psa03 value="0.0134606776" flag="0"/>
      <psa10 value="0.0054620165" flag="0"/>
      <psa30 value="0.0009629975" flag="0"/>
    </comp>
  </station>
  <station code="CRTC" name="CRTC" netid="IV" insttype="" lat="43.7685" lon="12.883">
    <comp name="--.HHE">
      <acc value="0.0533823721" flag="0"/>
      <vel value="0.0226101442" flag="0"/>
      <psa03 value="0.1914120791" flag="0"/>
      <psa10 value="0.0365394209" flag="0"/>
      <psa30 value="0.0037808066" flag="0"/>
    </comp>
    <comp name="--.HHN">
      <acc value="0.0582584340" flag="0"/>
      <vel value="0.0298291122" flag="0"/>
      <psa03 value="0.1249032429" flag="0"/>
      <psa10 value="0.0555135319" flag="0"/>
      <psa30 value="0.0024609193" flag="0"/>
    </comp>
    <comp name="--.HHZ">
      <acc value="0.0602499525" flag="0"/>
      <vel value="0.0227218810" flag="0"/>
      <psa03 value="0.1300368936" flag="0"/>
      <psa10 value="0.0392630765" flag="0"/>
      <psa30 value="0.0031794579" flag="0"/>
    </comp>
  </station>
  <station code="FDMO" name="FDMO" netid="IV" insttype="" lat="43.0365" lon="13.0873">
    <comp name="--.HHE">
      <acc value="0.0176776859" flag="0"/>
      <vel value="0.0076667127" flag="0"/>
      <psa03 value="0.0505275668" flag="0"/>
      <psa10 value="0.0031536684" flag="0"/>
      <psa30 value="0.0003656155" flag="0"/>
    </comp>
    <comp name="--.HHN">
      <acc value="0.0199755775" flag="0"/>
      <vel value="0.0068036385" flag="0"/>
      <psa03 value="0.0229590046" flag="0"/>
      <psa10 value="0.0031173534" flag="0"/>
      <psa30 value="0.0009630146" flag="0"/>
    </comp>
    <comp name="--.HHZ">
      <acc value="0.0110648511" flag="0"/>
      <vel value="0.0045642988" flag="0"/>
      <psa03 value="0.0198396523" flag="0"/>
      <psa10 value="0.0024796003" flag="0"/>
      <psa30 value="0.0013150224" flag="0"/>
    </comp>
  </station>
  <station code="FEMA" name="FEMA" netid="IV" insttype="" lat="42.9621" lon="13.0498">
    <comp name="--.HNN">
      <acc value="0.0236727414" flag="0"/>
      <vel value="0.0114804068" flag="0"/>
      <psa03 value="0.0987803692" flag="0"/>
      <psa10 value="0.0067251544" flag="0"/>
      <psa30 value="0.0022133184" flag="0"/>
    </comp>
    <comp name="--.HNE">
      <acc value="0.0328434488" flag="0"/>
      <vel value="0.0118058000" flag="0"/>
      <psa03 value="0.0651067476" flag="0"/>
      <psa10 value="0.0068539392" flag="0"/>
      <psa30 value="0.0006826630" flag="0"/>
    </comp>
    <comp name="--.HNZ">
      <acc value="0.0094725668" flag="0"/>
      <vel value="0.0045581526" flag="0"/>
      <psa03 value="0.0209384998" flag="0"/>
      <psa10 value="0.0066283976" flag="0"/>
      <psa30 value="0.0018918538" flag="0"/>
    </comp>
  </station>
  <station code="GUMA" name="GUMA" netid="IV" insttype="" lat="43.0627" lon="13.3352">
    <comp name="--.HHE">
      <acc value="0.0540131212" flag="0"/>
      <vel value="0.0312199146" flag="0"/>
      <psa03 value="0.1517309297" flag="0"/>
      <psa10 value="0.0133481107" flag="0"/>
      <psa30 value="0.0014411923" flag="0"/>
    </comp>
    <comp name="--.HHZ">
      <acc value="0.0191046376" flag="0"/>
      <vel value="0.0074432913" flag="0"/>
      <psa03 value="0.0548352538" flag="0"/>
      <psa10 value="0.0039776938" flag="0"/>
      <psa30 value="0.0007707301" flag="0"/>
    </comp>
    <comp name="--.HHN">
      <acc value="0.0403581008" flag="0"/>
      <vel value="0.0162314268" flag="0"/>
      <psa03 value="0.1132462590" flag="0"/>
      <psa10 value="0.0096095215" flag="0"/>
      <psa30 value="0.0009174415" flag="0"/>
    </comp>
  </station>
  <station code="MURB" name="MURB" netid="IV" insttype="" lat="43.263" lon="12.5246">
    <comp name="--.HHE">
      <acc value="0.0522139320" flag="0"/>
      <vel value="0.0225650106" flag="0"/>
      <psa03 value="0.1955318341" flag="0"/>
      <psa10 value="0.0089440503" flag="0"/>
      <psa30 value="0.0011042637" flag="0"/>
    </comp>
    <comp name="--.HHZ">
      <acc value="0.0177484939" flag="0"/>
      <vel value="0.0055642196" flag="0"/>
      <psa03 value="0.0261816120" flag="0"/>
      <psa10 value="0.0075046891" flag="0"/>
      <psa30 value="0.0008514209" flag="0"/>
    </comp>
    <comp name="--.HHN">
      <acc value="0.0277731614" flag="0"/>
      <vel value="0.0151426203" flag="0"/>
      <psa03 value="0.1357033330" flag="0"/>
      <psa10 value="0.0123157260" flag="0"/>
      <psa30 value="0.0013387955" flag="0"/>
    </comp>
  </station>
  <station code="NRCA" name="NRCA" netid="IV" insttype="" lat="42.8336" lon="13.1143">
    <comp name="--.HHE">
      <acc value="0.0164222793" flag="0"/>
      <vel value="0.0049544024" flag="0"/>
      <psa03 value="0.0322256666" flag="0"/>
      <psa10 value="0.0031585250" flag="0"/>
      <psa30 value="0.0003366210" flag="0"/>
    </comp>
    <comp name="--.HHN">
      <acc value="0.0163353593" flag="0"/>
      <vel value="0.0040754261" flag="0"/>
      <psa03 value="0.0177009838" flag="0"/>
      <psa10 value="0.0037912468" flag="0"/>
      <psa30 value="0.0005442650" flag="0"/>
    </comp>
    <comp name="--.HHZ">
      <acc value="0.0110813353" flag="0"/>
      <vel value="0.0027929449" flag="0"/>
      <psa03 value="0.0138186519" flag="0"/>
      <psa10 value="0.0022618023" flag="0"/>
      <psa30 value="0.0007958087" flag="0"/>
    </comp>
  </station>
  <station code="OFFI" name="OFFI" netid="IV" insttype="" lat="42.935" lon="13.6857">
    <comp name="--.HHN">
      <acc value="0.0113661725" flag="0"/>
      <vel value="0.0106138657" flag="0"/>
      <psa03 value="0.0257440706" flag="0"/>
      <psa10 value="0.0214191813" flag="0"/>
      <psa30 value="0.0017015170" flag="0"/>
    </comp>
    <comp name="--.HHE">
      <acc value="0.0136225529" flag="0"/>
      <vel value="0.0095235470" flag="0"/>
      <psa03 value="0.0404456724" flag="0"/>
      <psa10 value="0.0166190797" flag="0"/>
      <psa30 value="0.0013705395" flag="0"/>
    </comp>
    <comp name="--.HHZ">
      <acc value="0.0062366566" flag="0"/>
      <vel value="0.0029301192" flag="0"/>
      <psa03 value="0.0211804704" flag="0"/>
      <psa10 value="0.0039125822" flag="0"/>
      <psa30 value="0.0004464698" flag="0"/>
    </comp>
  </station>
  <station code="PCRO" name="PCRO" netid="IV" insttype="" lat="43.6077" lon="13.5323">
    <comp name="--.HNN">
      <acc value="0.4670487455" flag="0"/>
      <vel value="0.1034312876" flag="0"/>
      <psa03 value="0.3577142080" flag="0"/>
      <psa10 value="0.0175357416" flag="0"/>
      <psa30 value="0.0018419002" flag="0"/>
    </comp>
    <comp name="--.HNZ">
      <acc value="0.2280153139" flag="0"/>
      <vel value="0.0383500060" flag="0"/>
      <psa03 value="0.3078575637" flag="0"/>
      <psa10 value="0.0097381965" flag="0"/>
      <psa30 value="0.0014080509" flag="0"/>
    </comp>
    <comp name="--.HNE">
      <acc value="0.4863631412" flag="0"/>
      <vel value="0.0848840998" flag="0"/>
      <psa03 value="0.2189933251" flag="0"/>
      <psa10 value="0.0137440907" flag="0"/>
      <psa30 value="0.0012098733" flag="0"/>
    </comp>
  </station>
  <station code="PESA" name="PESA" netid="IV" insttype="" lat="43.941" lon="12.8402">
    <comp name="--.HHZ">
      <acc value="0.1323988548" flag="0"/>
      <vel value="0.0294464902" flag="0"/>
      <psa03 value="0.1500303228" flag="0"/>
      <psa10 value="0.0265267802" flag="0"/>
      <psa30 value="0.0014974233" flag="0"/>
    </comp>
    <comp name="--.HHN">
      <acc value="0.3787633180" flag="0"/>
      <vel value="0.0854564756" flag="0"/>
      <psa03 value="0.3333678772" flag="0"/>
      <psa10 value="0.0521491324" flag="0"/>
      <psa30 value="0.0036892032" flag="0"/>
    </comp>
    <comp name="--.HHE">
      <acc value="0.2783274451" flag="0"/>
      <vel value="0.0472607976" flag="0"/>
      <psa03 value="0.2093255832" flag="0"/>
      <psa10 value="0.0558603252" flag="0"/>
      <psa30 value="0.0034343030" flag="0"/>
    </comp>
  </station>
</stationlist>
