<?xml version="1.0" encoding="UTF-8" standalone="yes"?>
<!DOCTYPE earthquake SYSTEM "stationlist.dtd">
<stationlist created="" xmlns="ch.ethz.sed.shakemap.usgs.xml">
  <station code="KTHR" name="KTHR" netid="HC" insttype="60" lat="36.2447" lon="22.9939">
    <comp name="--.HHN">
      <acc value="0.0376107217" flag="0"/>
      <vel value="0.0192811245" flag="0"/>
      <psa03 value="0.1119337892" flag="0"/>
      <psa10 value="0.0093041086" flag="0"/>
      <psa30 value="0.0006071894" flag="0"/>
    </comp>
    <comp name="--.HHE">
      <acc value="0.0358853819" flag="0"/>
      <vel value="0.0169406216" flag="0"/>
      <psa03 value="0.1018855421" flag="0"/>
      <psa10 value="0.0092004743" flag="0"/>
      <psa30 value="0.0005653011" flag="0"/>
    </comp>
    <comp name="--.HHZ">
      <acc value="0.0309584817" flag="0"/>
      <vel value="0.0106299912" flag="0"/>
      <psa03 value="0.0523323895" flag="0"/>
      <psa10 value="0.0039211983" flag="0"/>
      <psa30 value="0.0004503376" flag="0"/>
    </comp>
  </station>
  <station code="IMMV" name="IMMV" netid="HL" insttype="DC" lat="35.4606" lon="23.9811">
    <comp name="--.HNE">
      <acc value="0.0052115451" flag="0"/>
      <vel value="0.0031395661" flag="0"/>
      <psa03 value="0.0122100967" flag="0"/>
      <psa10 value="0.0032475013" flag="0"/>
      <psa30 value="0.0005404429" flag="0"/>
    </comp>
    <comp name="--.HNZ">
      <acc value="0.0040950654" flag="0"/>
      <vel value="0.0023105050" flag="0"/>
      <psa03 value="0.0085659219" flag="0"/>
      <psa10 value="0.0022455274" flag="0"/>
      <psa30 value="0.0002776460" flag="0"/>
    </comp>
    <comp name="--.HNN">
      <acc value="0.0043698988" flag="0"/>
      <vel value="0.0024414955" flag="0"/>
      <psa03 value="0.0143218611" flag="0"/>
      <psa10 value="0.0054539943" flag="0"/>
      <psa30 value="0.0003378530" flag="0"/>
    </comp>
  </station>
</stationlist>
