<?xml version="1.0" encoding="UTF-8" standalone="yes"?>
<!DOCTYPE earthquake SYSTEM "stationlist.dtd">
<stationlist created="" xmlns="ch.ethz.sed.shakemap.usgs.xml">
  <station code="BLY" name="BLY" netid="MN" insttype="" lat="44.7488" lon="17.1839">
    <comp name="--.HHE">
      <acc value="0.1271115858" flag="0"/>
      <vel value="0.0485811443" flag="0"/>
      <psa03 value="0.2891209656" flag="0"/>
      <psa10 value="0.0303315976" flag="0"/>
      <psa30 value="0.0021016110" flag="0"/>
    </comp>
    <comp name="--.HHN">
      <acc value="0.1414708243" flag="0"/>
      <vel value="0.0434595866" flag="0"/>
      <psa03 value="0.1493794775" flag="0"/>
      <psa10 value="0.0267225428" flag="0"/>
      <psa30 value="0.0039891660" flag="0"/>
    </comp>
    <comp name="--.HHZ">
      <acc value="0.0876427622" flag="0"/>
      <vel value="0.0384913584" flag="0"/>
      <psa03 value="0.1752678764" flag="0"/>
      <psa10 value="0.0202728876" flag="0"/>
      <psa30 value="0.0016293068" flag="0"/>
    </comp>
  </station>
  <station code="BH02A" name="BH02A" netid="Y5" insttype="STS2_gen3" lat="43.8746" lon="18.4241">
    <comp name="--.HH1">
      <acc value="0.0142530399" flag="0"/>
      <vel value="0.0101590710" flag="0"/>
      <psa03 value="0.0416115253" flag="0"/>
      <psa10 value="0.0098763629" flag="0"/>
      <psa30 value="0.0012946159" flag="0"/>
    </comp>
    <comp name="--.HH2">
      <acc value="0.0098440950" flag="0"/>
      <vel value="0.0054127035" flag="0"/>
      <psa03 value="0.0152606630" flag="0"/>
      <psa10 value="0.0063384790" flag="0"/>
      <psa30 value="0.0018124665" flag="0"/>
    </comp>
    <comp name="--.HHZ">
      <acc value="0.0114350190" flag="0"/>
      <vel value="0.0068054863" flag="0"/>
      <psa03 value="0.0215112434" flag="0"/>
      <psa10 value="0.0085189926" flag="0"/>
      <psa30 value="0.0008410611" flag="0"/>
    </comp>
  </station>
  <station code="BH03A" name="BH03A" netid="Y5" insttype="STS2_gen3" lat="43.8212" lon="17.6885">
    <comp name="--.HHZ">
      <acc value="0.0457770505" flag="0"/>
      <vel value="0.0133365585" flag="0"/>
      <psa03 value="0.0808757885" flag="0"/>
      <psa10 value="0.0091334877" flag="0"/>
      <psa30 value="0.0011755109" flag="0"/>
    </comp>
    <comp name="--.HH2">
      <acc value="57.6241103912" flag="0"/>
      <vel value="2.9349941920" flag="0"/>
      <psa03 value="15.4548150768" flag="0"/>
      <psa10 value="2.1517752171" flag="0"/>
      <psa30 value="1.1347871436" flag="0"/>
    </comp>
    <comp name="--.HH1">
      <acc value="0.0534637132" flag="0"/>
      <vel value="0.0155848757" flag="0"/>
      <psa03 value="0.0943838813" flag="0"/>
      <psa10 value="0.0106714044" flag="0"/>
      <psa30 value="0.0013754360" flag="0"/>
    </comp>
  </station>
  <station code="BH07A" name="BH07A" netid="Y5" insttype="STS2_gen3" lat="43.7511" lon="18.0361">
    <comp name="--.HH1">
      <acc value="0.0484097180" flag="0"/>
      <vel value="0.0114840647" flag="0"/>
      <psa03 value="0.0453072228" flag="0"/>
      <psa10 value="0.0078293385" flag="0"/>
      <psa30 value="0.0009726409" flag="0"/>
    </comp>
    <comp name="--.HHZ">
      <acc value="0.0699958099" flag="0"/>
      <vel value="0.0071336442" flag="0"/>
      <psa03 value="0.0249783100" flag="0"/>
      <psa10 value="0.0071498183" flag="0"/>
      <psa30 value="0.0014955673" flag="0"/>
    </comp>
    <comp name="--.HH2">
      <acc value="0.0801497780" flag="0"/>
      <vel value="0.0147616479" flag="0"/>
      <psa03 value="0.0491265150" flag="0"/>
      <psa10 value="0.0110448319" flag="0"/>
      <psa30 value="0.0010794434" flag="0"/>
    </comp>
  </station>
  <station code="BH09A" name="BH09A" netid="Y5" insttype="STS2_gen3" lat="44.7856" lon="16.6156">
    <comp name="--.HHZ">
      <acc value="0.0452226229" flag="0"/>
      <vel value="0.0173628199" flag="0"/>
      <psa03 value="0.0775026549" flag="0"/>
      <psa10 value="0.0172680825" flag="0"/>
      <psa30 value="0.0015023935" flag="0"/>
    </comp>
    <comp name="--.HH2">
      <acc value="0.0851969588" flag="0"/>
      <vel value="0.0366638796" flag="0"/>
      <psa03 value="0.1607819901" flag="0"/>
      <psa10 value="0.0326309844" flag="0"/>
      <psa30 value="0.0017663355" flag="0"/>
    </comp>
    <comp name="--.HH1">
      <acc value="0.0705037549" flag="0"/>
      <vel value="0.0256542382" flag="0"/>
      <psa03 value="0.0899952698" flag="0"/>
      <psa10 value="0.0239214587" flag="0"/>
      <psa30 value="0.0024505810" flag="0"/>
    </comp>
  </station>
  <station code="BH10A" name="BH10A" netid="Y5" insttype="STS2_gen3" lat="44.0685" lon="17.1657">
    <comp name="--.HH2">
      <acc value="0.0995380917" flag="0"/>
      <vel value="0.0288541992" flag="0"/>
      <psa03 value="0.1205557803" flag="0"/>
      <psa10 value="0.0208608175" flag="0"/>
      <psa30 value="0.0020543218" flag="0"/>
    </comp>
    <comp name="--.HH1">
      <acc value="0.0866589615" flag="0"/>
      <vel value="0.0260820514" flag="0"/>
      <psa03 value="0.0825908937" flag="0"/>
      <psa10 value="0.0122229035" flag="0"/>
      <psa30 value="0.0014499220" flag="0"/>
    </comp>
    <comp name="--.HHZ">
      <acc value="0.0337587857" flag="0"/>
      <vel value="0.0122360582" flag="0"/>
      <psa03 value="0.0578002061" flag="0"/>
      <psa10 value="0.0088547264" flag="0"/>
      <psa30 value="0.0014917863" flag="0"/>
    </comp>
  </station>
  <station code="BH12A" name="BH12A" netid="Y5" insttype="STS2_gen3" lat="44.3931" lon="17.1573">
    <comp name="--.HH2">
      <acc value="0.5076600227" flag="0"/>
      <vel value="0.1024258831" flag="0"/>
      <psa03 value="0.3631638941" flag="0"/>
      <psa10 value="0.0557358349" flag="0"/>
      <psa30 value="0.0026490150" flag="0"/>
    </comp>
    <comp name="--.HH1">
      <acc value="0.5629095168" flag="0"/>
      <vel value="0.1300346438" flag="0"/>
      <psa03 value="0.6525805148" flag="0"/>
      <psa10 value="0.0511078994" flag="0"/>
      <psa30 value="0.0038850245" flag="0"/>
    </comp>
    <comp name="--.HHZ">
      <acc value="0.2834763714" flag="0"/>
      <vel value="0.0649731231" flag="0"/>
      <psa03 value="0.2630286788" flag="0"/>
      <psa10 value="0.0275115727" flag="0"/>
      <psa30 value="0.0024910212" flag="0"/>
    </comp>
  </station>
  <station code="BH13A" name="BH13A" netid="Y5" insttype="STS2_gen2" lat="44.8908" lon="16.3202">
    <comp name="--.HHZ">
      <acc value="0.0122437371" flag="0"/>
      <vel value="0.0045137795" flag="0"/>
      <psa03 value="0.0174973867" flag="0"/>
      <psa10 value="0.0036973764" flag="0"/>
      <psa30 value="0.0007719668" flag="0"/>
    </comp>
    <comp name="--.HH2">
      <acc value="0.0163769432" flag="0"/>
      <vel value="0.0065732924" flag="0"/>
      <psa03 value="0.0244248065" flag="0"/>
      <psa10 value="0.0059873522" flag="0"/>
      <psa30 value="0.0004705142" flag="0"/>
    </comp>
    <comp name="--.HH1">
      <acc value="0.0098860650" flag="0"/>
      <vel value="0.0038041518" flag="0"/>
      <psa03 value="0.0204609525" flag="0"/>
      <psa10 value="0.0039452687" flag="0"/>
      <psa30 value="0.0005062247" flag="0"/>
    </comp>
  </station>
  <station code="BH15A" name="BH15A" netid="Y5" insttype="STS2_gen3" lat="45.0581" lon="18.4648">
    <comp name="--.HH1">
      <acc value="0.1909249979" flag="0"/>
      <vel value="0.0791358964" flag="0"/>
      <psa03 value="0.4283222046" flag="0"/>
      <psa10 value="0.0428953896" flag="0"/>
      <psa30 value="0.0043213990" flag="0"/>
    </comp>
    <comp name="--.HH2">
      <acc value="0.1784617155" flag="0"/>
      <vel value="0.0699110570" flag="0"/>
      <psa03 value="0.5976744912" flag="0"/>
      <psa10 value="0.0311155740" flag="0"/>
      <psa30 value="0.0040947997" flag="0"/>
    </comp>
    <comp name="--.HHZ">
      <acc value="0.1548200992" flag="0"/>
      <vel value="0.0307717080" flag="0"/>
      <psa03 value="0.1796601341" flag="0"/>
      <psa10 value="0.0128960467" flag="0"/>
      <psa30 value="0.0031372452" flag="0"/>
    </comp>
  </station>
  <station code="BH16A" name="BH16A" netid="Y5" insttype="STS2_gen2" lat="44.7263" lon="18.0892">
    <comp name="--.HH2">
      <acc value="0.3220225220" flag="0"/>
      <vel value="0.0701611359" flag="0"/>
      <psa03 value="0.2525963314" flag="0"/>
      <psa10 value="0.0617910339" flag="0"/>
      <psa30 value="0.0093661314" flag="0"/>
    </comp>
    <comp name="--.HHZ">
      <acc value="0.3309815071" flag="0"/>
      <vel value="0.0459999107" flag="0"/>
      <psa03 value="0.1606202088" flag="0"/>
      <psa10 value="0.0467733548" flag="0"/>
      <psa30 value="0.0027109330" flag="0"/>
    </comp>
    <comp name="--.HH1">
      <acc value="0.5330016614" flag="0"/>
      <vel value="0.0971191189" flag="0"/>
      <psa03 value="0.2391331263" flag="0"/>
      <psa10 value="0.0548470399" flag="0"/>
      <psa30 value="0.0073871796" flag="0"/>
    </comp>
  </station>
  <station code="BH20A" name="BH20A" netid="Y5" insttype="STS2_gen3" lat="45.0928" lon="17.6625">
    <comp name="--.HHZ">
      <acc value="0.4179805628" flag="0"/>
      <vel value="0.0375883072" flag="0"/>
      <psa03 value="0.1026100077" flag="0"/>
      <psa10 value="0.0068897117" flag="0"/>
      <psa30 value="0.0013454419" flag="0"/>
    </comp>
    <comp name="--.HH2">
      <acc value="0.6566882106" flag="0"/>
      <vel value="0.0774910276" flag="0"/>
      <psa03 value="0.1617435623" flag="0"/>
      <psa10 value="0.0177331356" flag="0"/>
      <psa30 value="0.0009799224" flag="0"/>
    </comp>
    <comp name="--.HH1">
      <acc value="0.5887986753" flag="0"/>
      <vel value="0.0761910809" flag="0"/>
      <psa03 value="0.1768700409" flag="0"/>
      <psa10 value="0.0103734193" flag="0"/>
      <psa30 value="0.0016330468" flag="0"/>
    </comp>
  </station>
</stationlist>
