<?xml version="1.0" encoding="UTF-8" standalone="yes"?>
<!DOCTYPE earthquake SYSTEM "stationlist.dtd">
<stationlist created="" xmlns="ch.ethz.sed.shakemap.usgs.xml">
  <station code="BLY" name="BLY" netid="MN" insttype="" lat="44.7488" lon="17.1839">
    <comp name="--.HHE">
      <acc value="0.1271115854" flag="0"/>
      <vel value="0.0485811443" flag="0"/>
      <psa03 value="0.2891209656" flag="0"/>
      <psa10 value="0.0303315977" flag="0"/>
      <psa30 value="0.0021015968" flag="0"/>
    </comp>
    <comp name="--.HHZ">
      <acc value="0.0876427620" flag="0"/>
      <vel value="0.0384913583" flag="0"/>
      <psa03 value="0.1752678764" flag="0"/>
      <psa10 value="0.0202728877" flag="0"/>
      <psa30 value="0.0016293055" flag="0"/>
    </comp>
    <comp name="--.HHN">
      <acc value="0.1414708241" flag="0"/>
      <vel value="0.0434595867" flag="0"/>
      <psa03 value="0.1493794775" flag="0"/>
      <psa10 value="0.0267225428" flag="0"/>
      <psa30 value="0.0039891631" flag="0"/>
    </comp>
  </station>
  <station code="BH02A" name="BH02A" netid="Y5" insttype="STS2_gen3" lat="43.8746" lon="18.4241">
    <comp name="--.HH1">
      <acc value="0.0142530401" flag="0"/>
      <vel value="0.0101590708" flag="0"/>
      <psa03 value="0.0416115253" flag="0"/>
      <psa10 value="0.0098763629" flag="0"/>
      <psa30 value="0.0012946084" flag="0"/>
    </comp>
    <comp name="--.HH2">
      <acc value="0.0098440914" flag="0"/>
      <vel value="0.0054127040" flag="0"/>
      <psa03 value="0.0152606630" flag="0"/>
      <psa10 value="0.0063384790" flag="0"/>
      <psa30 value="0.0018124588" flag="0"/>
    </comp>
    <comp name="--.HHZ">
      <acc value="0.0114350213" flag="0"/>
      <vel value="0.0068054864" flag="0"/>
      <psa03 value="0.0215112434" flag="0"/>
      <psa10 value="0.0085189926" flag="0"/>
      <psa30 value="0.0008410630" flag="0"/>
    </comp>
  </station>
  <station code="BH03A" name="BH03A" netid="Y5" insttype="STS2_gen3" lat="43.8212" lon="17.6885">
    <comp name="--.HHZ">
      <acc value="0.0457770494" flag="0"/>
      <vel value="0.0133365585" flag="0"/>
      <psa03 value="0.0808757885" flag="0"/>
      <psa10 value="0.0091334877" flag="0"/>
      <psa30 value="0.0011755169" flag="0"/>
    </comp>
    <comp name="--.HH2">
      <acc value="57.6259743526" flag="0"/>
      <vel value="2.9451440179" flag="0"/>
      <psa03 value="15.4547081515" flag="0"/>
      <psa10 value="2.1536766395" flag="0"/>
      <psa30 value="1.0439449452" flag="0"/>
    </comp>
    <comp name="--.HH1">
      <acc value="0.0534637112" flag="0"/>
      <vel value="0.0155848759" flag="0"/>
      <psa03 value="0.0943838813" flag="0"/>
      <psa10 value="0.0106714044" flag="0"/>
      <psa30 value="0.0013754420" flag="0"/>
    </comp>
  </station>
  <station code="BH04A" name="BH04A" netid="Y5" insttype="STS2_gen2" lat="43.3483" lon="17.7935">
    <comp name="--.HH2">
      <acc value="0.0151425930" flag="0"/>
      <vel value="0.0094905434" flag="0"/>
      <psa03 value="0.0333191424" flag="0"/>
      <psa10 value="0.0172832934" flag="0"/>
      <psa30 value="0.0011097421" flag="0"/>
    </comp>
    <comp name="--.HHZ">
      <acc value="0.0085588266" flag="0"/>
      <vel value="0.0074313195" flag="0"/>
      <psa03 value="0.0177710680" flag="0"/>
      <psa10 value="0.0083884694" flag="0"/>
      <psa30 value="0.0007380524" flag="0"/>
    </comp>
    <comp name="--.HH1">
      <acc value="0.0120268828" flag="0"/>
      <vel value="0.0084238245" flag="0"/>
      <psa03 value="0.0233721846" flag="0"/>
      <psa10 value="0.0194619608" flag="0"/>
      <psa30 value="0.0007726551" flag="0"/>
    </comp>
  </station>
  <station code="BH06A" name="BH06A" netid="Y5" insttype="STS2_gen3" lat="43.5022" lon="18.4463">
    <comp name="--.HH2">
      <acc value="0.0276155326" flag="0"/>
      <vel value="0.0140035556" flag="0"/>
      <psa03 value="0.0819044229" flag="0"/>
      <psa10 value="0.0137284405" flag="0"/>
      <psa30 value="0.0007840112" flag="0"/>
    </comp>
    <comp name="--.HHZ">
      <acc value="0.0139151782" flag="0"/>
      <vel value="0.0063254292" flag="0"/>
      <psa03 value="0.0296556563" flag="0"/>
      <psa10 value="0.0068567240" flag="0"/>
      <psa30 value="0.0007534887" flag="0"/>
    </comp>
    <comp name="--.HH1">
      <acc value="0.0222512360" flag="0"/>
      <vel value="0.0112223176" flag="0"/>
      <psa03 value="0.0535615053" flag="0"/>
      <psa10 value="0.0092863388" flag="0"/>
      <psa30 value="0.0007803821" flag="0"/>
    </comp>
  </station>
  <station code="BH07A" name="BH07A" netid="Y5" insttype="STS2_gen3" lat="43.7511" lon="18.0361">
    <comp name="--.HHZ">
      <acc value="0.0699958123" flag="0"/>
      <vel value="0.0071336451" flag="0"/>
      <psa03 value="0.0249783100" flag="0"/>
      <psa10 value="0.0071498183" flag="0"/>
      <psa30 value="0.0014955615" flag="0"/>
    </comp>
    <comp name="--.HH2">
      <acc value="0.0801497724" flag="0"/>
      <vel value="0.0147616498" flag="0"/>
      <psa03 value="0.0491265150" flag="0"/>
      <psa10 value="0.0110448317" flag="0"/>
      <psa30 value="0.0010794469" flag="0"/>
    </comp>
    <comp name="--.HH1">
      <acc value="0.0484097143" flag="0"/>
      <vel value="0.0114840642" flag="0"/>
      <psa03 value="0.0453072228" flag="0"/>
      <psa10 value="0.0078293385" flag="0"/>
      <psa30 value="0.0009726413" flag="0"/>
    </comp>
  </station>
  <station code="BH09A" name="BH09A" netid="Y5" insttype="STS2_gen3" lat="44.7856" lon="16.6156">
    <comp name="--.HHZ">
      <acc value="0.0452226247" flag="0"/>
      <vel value="0.0173628198" flag="0"/>
      <psa03 value="0.0775026549" flag="0"/>
      <psa10 value="0.0172680825" flag="0"/>
      <psa30 value="0.0015023919" flag="0"/>
    </comp>
    <comp name="--.HH1">
      <acc value="0.0705037556" flag="0"/>
      <vel value="0.0256542388" flag="0"/>
      <psa03 value="0.0899952698" flag="0"/>
      <psa10 value="0.0239214587" flag="0"/>
      <psa30 value="0.0024505844" flag="0"/>
    </comp>
    <comp name="--.HH2">
      <acc value="0.0851969562" flag="0"/>
      <vel value="0.0366638794" flag="0"/>
      <psa03 value="0.1607819901" flag="0"/>
      <psa10 value="0.0326309844" flag="0"/>
      <psa30 value="0.0017663316" flag="0"/>
    </comp>
  </station>
  <station code="BH10A" name="BH10A" netid="Y5" insttype="STS2_gen3" lat="44.0685" lon="17.1657">
    <comp name="--.HH2">
      <acc value="0.0995380916" flag="0"/>
      <vel value="0.0288541989" flag="0"/>
      <psa03 value="0.1205557803" flag="0"/>
      <psa10 value="0.0208608178" flag="0"/>
      <psa30 value="0.0020543271" flag="0"/>
    </comp>
    <comp name="--.HHZ">
      <acc value="0.0337587811" flag="0"/>
      <vel value="0.0122360584" flag="0"/>
      <psa03 value="0.0578002061" flag="0"/>
      <psa10 value="0.0088547264" flag="0"/>
      <psa30 value="0.0014917960" flag="0"/>
    </comp>
    <comp name="--.HH1">
      <acc value="0.0866589609" flag="0"/>
      <vel value="0.0260820516" flag="0"/>
      <psa03 value="0.0825908937" flag="0"/>
      <psa10 value="0.0122229033" flag="0"/>
      <psa30 value="0.0014499248" flag="0"/>
    </comp>
  </station>
  <station code="BH12A" name="BH12A" netid="Y5" insttype="STS2_gen3" lat="44.3931" lon="17.1573">
    <comp name="--.HH2">
      <acc value="0.5076600183" flag="0"/>
      <vel value="0.1024258830" flag="0"/>
      <psa03 value="0.3631638941" flag="0"/>
      <psa10 value="0.0557358348" flag="0"/>
      <psa30 value="0.0026490201" flag="0"/>
    </comp>
    <comp name="--.HH1">
      <acc value="0.5629095160" flag="0"/>
      <vel value="0.1300346442" flag="0"/>
      <psa03 value="0.6525805148" flag="0"/>
      <psa10 value="0.0511078996" flag="0"/>
      <psa30 value="0.0038850518" flag="0"/>
    </comp>
    <comp name="--.HHZ">
      <acc value="0.2834763749" flag="0"/>
      <vel value="0.0649731232" flag="0"/>
      <psa03 value="0.2630286788" flag="0"/>
      <psa10 value="0.0275115727" flag="0"/>
      <psa30 value="0.0024909764" flag="0"/>
    </comp>
  </station>
  <station code="BH13A" name="BH13A" netid="Y5" insttype="STS2_gen2" lat="44.8908" lon="16.3202">
    <comp name="--.HH1">
      <acc value="0.0098860647" flag="0"/>
      <vel value="0.0038041518" flag="0"/>
      <psa03 value="0.0204609525" flag="0"/>
      <psa10 value="0.0039452687" flag="0"/>
      <psa30 value="0.0005062225" flag="0"/>
    </comp>
    <comp name="--.HH2">
      <acc value="0.0163769429" flag="0"/>
      <vel value="0.0065732924" flag="0"/>
      <psa03 value="0.0244248065" flag="0"/>
      <psa10 value="0.0059873522" flag="0"/>
      <psa30 value="0.0004705141" flag="0"/>
    </comp>
    <comp name="--.HHZ">
      <acc value="0.0122437373" flag="0"/>
      <vel value="0.0045137793" flag="0"/>
      <psa03 value="0.0174973867" flag="0"/>
      <psa10 value="0.0036973764" flag="0"/>
      <psa30 value="0.0007719637" flag="0"/>
    </comp>
  </station>
  <station code="BH15A" name="BH15A" netid="Y5" insttype="STS2_gen3" lat="45.0581" lon="18.4648">
    <comp name="--.HHZ">
      <acc value="0.1548200985" flag="0"/>
      <vel value="0.0307717098" flag="0"/>
      <psa03 value="0.1796601341" flag="0"/>
      <psa10 value="0.0128960466" flag="0"/>
      <psa30 value="0.0041785809" flag="0"/>
    </comp>
    <comp name="--.HH1">
      <acc value="0.1909249962" flag="0"/>
      <vel value="0.0791358981" flag="0"/>
      <psa03 value="0.4283222046" flag="0"/>
      <psa10 value="0.0428953896" flag="0"/>
      <psa30 value="0.0043216422" flag="0"/>
    </comp>
    <comp name="--.HH2">
      <acc value="0.1784617208" flag="0"/>
      <vel value="0.0699110573" flag="0"/>
      <psa03 value="0.5976744912" flag="0"/>
      <psa10 value="0.0311155741" flag="0"/>
      <psa30 value="0.0040948066" flag="0"/>
    </comp>
  </station>
  <station code="BH16A" name="BH16A" netid="Y5" insttype="STS2_gen2" lat="44.7263" lon="18.0892">
    <comp name="--.HH1">
      <acc value="0.5330016613" flag="0"/>
      <vel value="0.0971191203" flag="0"/>
      <psa03 value="0.2391331263" flag="0"/>
      <psa10 value="0.0548470400" flag="0"/>
      <psa30 value="0.0073871632" flag="0"/>
    </comp>
    <comp name="--.HHZ">
      <acc value="0.3309815072" flag="0"/>
      <vel value="0.0459999104" flag="0"/>
      <psa03 value="0.1606202088" flag="0"/>
      <psa10 value="0.0467733547" flag="0"/>
      <psa30 value="0.0027108675" flag="0"/>
    </comp>
    <comp name="--.HH2">
      <acc value="0.3220225219" flag="0"/>
      <vel value="0.0701611373" flag="0"/>
      <psa03 value="0.2525963314" flag="0"/>
      <psa10 value="0.0617910338" flag="0"/>
      <psa30 value="0.0093660566" flag="0"/>
    </comp>
  </station>
  <station code="BH20A" name="BH20A" netid="Y5" insttype="STS2_gen3" lat="45.0928" lon="17.6625">
    <comp name="--.HH2">
      <acc value="0.6566882093" flag="0"/>
      <vel value="0.0774910277" flag="0"/>
      <psa03 value="0.1617435623" flag="0"/>
      <psa10 value="0.0177331356" flag="0"/>
      <psa30 value="0.0009798680" flag="0"/>
    </comp>
    <comp name="--.HHZ">
      <acc value="0.4179805602" flag="0"/>
      <vel value="0.0375883068" flag="0"/>
      <psa03 value="0.1026100077" flag="0"/>
      <psa10 value="0.0068897116" flag="0"/>
      <psa30 value="0.0013454357" flag="0"/>
    </comp>
    <comp name="--.HH1">
      <acc value="0.5887986735" flag="0"/>
      <vel value="0.0761910807" flag="0"/>
      <psa03 value="0.1768700409" flag="0"/>
      <psa10 value="0.0103734193" flag="0"/>
      <psa30 value="0.0016330508" flag="0"/>
    </comp>
  </station>
</stationlist>
