<?xml version="1.0" encoding="UTF-8" standalone="yes"?>
<!DOCTYPE earthquake SYSTEM "stationlist.dtd">
<stationlist created="" xmlns="ch.ethz.sed.shakemap.usgs.xml">
  <station code="AKDN" name="AKDN" netid="KO" insttype="CMG-5T" commtype="DIG" lat="35.2977" lon="32.9677">
    <comp name="--.HNE">
      <acc value="0.1834794826" flag="0"/>
      <vel value="0.2680388592" flag="0"/>
      <psa03 value="0.5651798723" flag="0"/>
      <psa10 value="0.3975528499" flag="0"/>
      <psa30 value="0.0945327088" flag="0"/>
    </comp>
    <comp name="--.HNN">
      <acc value="0.1656002067" flag="0"/>
      <vel value="0.2230172686" flag="0"/>
      <psa03 value="0.4704743336" flag="0"/>
      <psa10 value="0.3074164574" flag="0"/>
      <psa30 value="0.1104070496" flag="0"/>
    </comp>
    <comp name="--.HNZ">
      <acc value="0.1458781073" flag="0"/>
      <vel value="0.1605788245" flag="0"/>
      <psa03 value="0.3960954102" flag="0"/>
      <psa10 value="0.2230249087" flag="0"/>
      <psa30 value="0.0504314109" flag="0"/>
    </comp>
  </station>
  <station code="AKIN" name="AKIN" netid="KO" insttype="CMG-5T" commtype="DIG" lat="35.0157" lon="33.4662">
    <comp name="--.HNZ">
      <acc value="0.1021842725" flag="0"/>
      <vel value="0.1021865482" flag="0"/>
      <psa03 value="0.3813192493" flag="0"/>
      <psa10 value="0.1608064852" flag="0"/>
      <psa30 value="0.0093210741" flag="0"/>
    </comp>
    <comp name="--.HNN">
      <acc value="0.2136771283" flag="0"/>
      <vel value="0.2021911510" flag="0"/>
      <psa03 value="0.4388718319" flag="0"/>
      <psa10 value="0.3487043780" flag="0"/>
      <psa30 value="0.0261795038" flag="0"/>
    </comp>
  </station>
  <station code="EREN" name="EREN" netid="KO" insttype="CMG-6T" commtype="DIG" lat="35.5292" lon="34.1742">
    <comp name="--.HHZ">
      <acc value="0.0641962031" flag="0"/>
      <vel value="0.0606015778" flag="0"/>
      <psa03 value="0.1308258099" flag="0"/>
      <psa10 value="0.0841201336" flag="0"/>
      <psa30 value="0.0079689093" flag="0"/>
    </comp>
    <comp name="--.HHE">
      <acc value="0.0779864557" flag="0"/>
      <vel value="0.0727974314" flag="0"/>
      <psa03 value="0.1779595577" flag="0"/>
      <psa10 value="0.1389880495" flag="0"/>
      <psa30 value="0.0122975104" flag="0"/>
    </comp>
    <comp name="--.HHN">
      <acc value="0.0572492110" flag="0"/>
      <vel value="0.0790086557" flag="0"/>
      <psa03 value="0.1274259333" flag="0"/>
      <psa10 value="0.1420973362" flag="0"/>
      <psa30 value="0.0143558228" flag="0"/>
    </comp>
  </station>
  <station code="LFK" name="LFK" netid="KO" insttype="CMG-6T" commtype="DIG" lat="35.2832" lon="33.5335">
    <comp name="--.HHE">
      <acc value="1.4756192655" flag="0"/>
      <vel value="1.1469212013" flag="0"/>
      <psa03 value="4.0122239577" flag="0"/>
      <psa10 value="1.9616071750" flag="0"/>
      <psa30 value="0.2097666989" flag="0"/>
    </comp>
    <comp name="--.HHN">
      <acc value="3.0839830732" flag="0"/>
      <vel value="2.8873822696" flag="0"/>
      <psa03 value="7.0428058042" flag="0"/>
      <psa10 value="3.6752141004" flag="0"/>
      <psa30 value="0.2372946045" flag="0"/>
    </comp>
    <comp name="--.HHZ">
      <acc value="0.8146415765" flag="0"/>
      <vel value="0.7980425619" flag="0"/>
      <psa03 value="1.8497671017" flag="0"/>
      <psa10 value="0.9943077935" flag="0"/>
      <psa30 value="0.1748623204" flag="0"/>
    </comp>
  </station>
  <station code="MAGT" name="MAGT" netid="KO" insttype="CMG-6T" commtype="DIG" lat="35.1696" lon="33.8714">
    <comp name="--.HHE">
      <acc value="0.0752937238" flag="0"/>
      <vel value="0.0953791288" flag="0"/>
      <psa03 value="0.1615690321" flag="0"/>
      <psa10 value="0.1819780359" flag="0"/>
      <psa30 value="0.0190354923" flag="0"/>
    </comp>
    <comp name="--.HHZ">
      <acc value="0.0862120820" flag="0"/>
      <vel value="0.0699921958" flag="0"/>
      <psa03 value="0.1544925229" flag="0"/>
      <psa10 value="0.1379915958" flag="0"/>
      <psa30 value="0.0165309668" flag="0"/>
    </comp>
    <comp name="--.HHN">
      <acc value="0.1086694920" flag="0"/>
      <vel value="0.1243167572" flag="0"/>
      <psa03 value="0.2160939566" flag="0"/>
      <psa10 value="0.2882245336" flag="0"/>
      <psa30 value="0.0405590600" flag="0"/>
    </comp>
  </station>
</stationlist>
