<stationlist created="1762995877">
	<station code="AKDN" name="AKDN" netid="KO" source="Bogazici University Kandilli Observatory And Earthquake Research Institute (KOERI)" insttype="" lat="35.2977" lon="32.9677">
		<comp name="--.HNE" depth="0.0">
			<acc value="0.18284973901632" flag="0"/>
			<vel value="0.269085199011" flag="0"/>
			<psa03 value="0.561413607564598" flag="0"/>
			<psa10 value="0.398037148007655" flag="0"/>
			<psa30 value="0.0945043671171796" flag="0"/>
		</comp>
		<comp name="--.HNN" depth="0.0">
			<acc value="0.16545216603432" flag="0"/>
			<vel value="0.224816345285" flag="0"/>
			<psa03 value="0.472001517782933" flag="0"/>
			<psa10 value="0.308425861699803" flag="0"/>
			<psa30 value="0.110302807019446" flag="0"/>
		</comp>
		<comp name="--.HNZ" depth="0.0">
			<acc value="0.14521888098696" flag="0"/>
			<vel value="0.159890909736" flag="0"/>
			<psa03 value="0.397238315089012" flag="0"/>
			<psa10 value="0.222970150678097" flag="0"/>
			<psa30 value="0.0507693732219146" flag="0"/>
		</comp>
	</station>
	<station code="AKIN" name="AKIN" netid="KO" source="Bogazici University Kandilli Observatory And Earthquake Research Institute (KOERI)" insttype="" lat="35.0157" lon="33.4662">
		<comp name="--.HNE" depth="0.0">
			<acc value="0.1483834656078" flag="0"/>
			<vel value="0.13591929471" flag="0"/>
			<psa03 value="0.300790967591854" flag="0"/>
			<psa10 value="0.241105077028107" flag="0"/>
			<psa30 value="0.0229311207408946" flag="0"/>
		</comp>
		<comp name="--.HNN" depth="0.0">
			<acc value="0.21349395587352" flag="0"/>
			<vel value="0.202112225935" flag="0"/>
			<psa03 value="0.438803776930119" flag="0"/>
			<psa10 value="0.348976787999467" flag="0"/>
			<psa30 value="0.0262694868912613" flag="0"/>
		</comp>
		<comp name="--.HNZ" depth="0.0">
			<acc value="0.10232579293374" flag="0"/>
			<vel value="0.102983420237" flag="0"/>
			<psa03 value="0.374950213611573" flag="0"/>
			<psa10 value="0.160904139109734" flag="0"/>
			<psa30 value="0.00926305279845108" flag="0"/>
		</comp>
	</station>
	<station code="ALAN" name="ALAN" netid="KO" source="Bogazici University Kandilli Observatory And Earthquake Research Institute (KOERI)" insttype="" lat="36.557" lon="32.0327">
		<comp name="--.HNE" depth="0.0">
			<acc value="0.030999293668212" flag="0"/>
			<vel value="0.0212277091552" flag="0"/>
			<psa03 value="0.0970847126356603" flag="0"/>
			<psa10 value="0.0370198423828655" flag="0"/>
			<psa30 value="0.0038468069154114" flag="0"/>
		</comp>
		<comp name="--.HNN" depth="0.0">
			<acc value="0.031516641747804" flag="0"/>
			<vel value="0.0243093344636" flag="0"/>
			<psa03 value="0.108551566008475" flag="0"/>
			<psa10 value="0.0322166404443007" flag="0"/>
			<psa30 value="0.00254181879968575" flag="0"/>
		</comp>
		<comp name="--.HNZ" depth="0.0">
			<acc value="0.024323753904978" flag="0"/>
			<vel value="0.0157995522447" flag="0"/>
			<psa03 value="0.0545877880479169" flag="0"/>
			<psa10 value="0.0267959207232435" flag="0"/>
			<psa30 value="0.00315436396113291" flag="0"/>
		</comp>
	</station>
	<station code="BOZY" name="BOZY" netid="KO" source="Bogazici University Kandilli Observatory And Earthquake Research Institute (KOERI)" insttype="" lat="36.1069" lon="32.9763">
		<comp name="--.HNE" depth="0.0">
			<acc value="0.046113870449118" flag="0"/>
			<vel value="0.030719626603" flag="0"/>
			<psa03 value="0.159468657766007" flag="0"/>
			<psa10 value="0.043740452590332" flag="0"/>
			<psa30 value="0.00391270419745075" flag="0"/>
		</comp>
		<comp name="--.HNN" depth="0.0">
			<acc value="0.058962645602736" flag="0"/>
			<vel value="0.0373836867922" flag="0"/>
			<psa03 value="0.12058158168821" flag="0"/>
			<psa10 value="0.0380251039765092" flag="0"/>
			<psa30 value="0.0067794778571264" flag="0"/>
		</comp>
		<comp name="--.HNZ" depth="0.0">
			<acc value="0.052045126483752" flag="0"/>
			<vel value="0.0264063457746" flag="0"/>
			<psa03 value="0.111175604421447" flag="0"/>
			<psa10 value="0.0321454607290189" flag="0"/>
			<psa30 value="0.00467969875709195" flag="0"/>
		</comp>
	</station>
	<station code="DEMR" name="DEMR" netid="KO" source="Bogazici University Kandilli Observatory And Earthquake Research Institute (KOERI)" insttype="" lat="36.2365" lon="29.9056">
		<comp name="--.HNE" depth="0.0">
			<acc value="0.0050771240296518" flag="0"/>
			<vel value="0.00537569538903" flag="0"/>
			<psa03 value="0.00599118399590113" flag="0"/>
			<psa10 value="0.00643662405101442" flag="0"/>
			<psa30 value="0.00165657359403815" flag="0"/>
		</comp>
		<comp name="--.HNN" depth="0.0">
			<acc value="0.0071004749737656" flag="0"/>
			<vel value="0.0103894483894" flag="0"/>
			<psa03 value="0.00667493111372153" flag="0"/>
			<psa10 value="0.0140555504862488" flag="0"/>
			<psa30 value="0.00239800593945707" flag="0"/>
		</comp>
		<comp name="--.HNZ" depth="0.0">
			<acc value="0.0046223613210264" flag="0"/>
			<vel value="0.00401478044071" flag="0"/>
			<psa03 value="0.00579475952542922" flag="0"/>
			<psa10 value="0.00680475781306666" flag="0"/>
			<psa30 value="0.00147355428240496" flag="0"/>
		</comp>
	</station>
	<station code="KEMT" name="KEMT" netid="KO" source="Bogazici University Kandilli Observatory And Earthquake Research Institute (KOERI)" insttype="" lat="36.6037" lon="30.5558">
		<comp name="--.HNE" depth="0.0">
			<acc value="0.019118635081068" flag="0"/>
			<vel value="0.0158484247435" flag="0"/>
			<psa03 value="0.0736140171923338" flag="0"/>
			<psa10 value="0.0173350827391652" flag="0"/>
			<psa30 value="0.00467759195083164" flag="0"/>
		</comp>
		<comp name="--.HNN" depth="0.0">
			<acc value="0.019175256014754" flag="0"/>
			<vel value="0.0144135007125" flag="0"/>
			<psa03 value="0.0522279338028261" flag="0"/>
			<psa10 value="0.0141737620671679" flag="0"/>
			<psa30 value="0.00391207040546335" flag="0"/>
		</comp>
		<comp name="--.HNZ" depth="0.0">
			<acc value="0.0085759119738012" flag="0"/>
			<vel value="0.00768304731159" flag="0"/>
			<psa03 value="0.0232701430952608" flag="0"/>
			<psa10 value="0.00960528911576328" flag="0"/>
			<psa30 value="0.003172165973761" flag="0"/>
		</comp>
	</station>
	<station code="KRMN" name="KRMN" netid="KO" source="Bogazici University Kandilli Observatory And Earthquake Research Institute (KOERI)" insttype="" lat="37.174" lon="33.2636">
		<comp name="--.HNE" depth="0.0">
			<acc value="0.035421518674044" flag="0"/>
			<vel value="0.0383303444455" flag="0"/>
			<psa03 value="0.0871226829086715" flag="0"/>
			<psa10 value="0.0949244357779443" flag="0"/>
			<psa30 value="0.00667682439017209" flag="0"/>
		</comp>
		<comp name="--.HNN" depth="0.0">
			<acc value="0.021775352612076" flag="0"/>
			<vel value="0.0264649163365" flag="0"/>
			<psa03 value="0.0604760739513994" flag="0"/>
			<psa10 value="0.063779027547678" flag="0"/>
			<psa30 value="0.00630918003554342" flag="0"/>
		</comp>
		<comp name="--.HNZ" depth="0.0">
			<acc value="0.021892640650536" flag="0"/>
			<vel value="0.0193918052317" flag="0"/>
			<psa03 value="0.0623071535849362" flag="0"/>
			<psa10 value="0.030988285946877" flag="0"/>
			<psa30 value="0.00492134726510809" flag="0"/>
		</comp>
	</station>
	<station code="KRTS" name="KRTS" netid="KO" source="Bogazici University Kandilli Observatory And Earthquake Research Institute (KOERI)" insttype="" lat="36.573" lon="35.375">
		<comp name="--.HNE" depth="0.0">
			<acc value="0.02320261117887" flag="0"/>
			<vel value="0.00767558348474" flag="0"/>
			<psa03 value="0.0253479317802458" flag="0"/>
			<psa10 value="0.0136279021566399" flag="0"/>
			<psa30 value="0.00293507589270709" flag="0"/>
		</comp>
		<comp name="--.HNN" depth="0.0">
			<acc value="0.030350006980998" flag="0"/>
			<vel value="0.0100218144644" flag="0"/>
			<psa03 value="0.0310177813382786" flag="0"/>
			<psa10 value="0.0178576386059093" flag="0"/>
			<psa30 value="0.00359744247957468" flag="0"/>
		</comp>
		<comp name="--.HNZ" depth="0.0">
			<acc value="0.062698521673002" flag="0"/>
			<vel value="0.00745881269934" flag="0"/>
			<psa03 value="0.015499085332099" flag="0"/>
			<psa10 value="0.0101815260386419" flag="0"/>
			<psa30 value="0.00363691634452634" flag="0"/>
		</comp>
	</station>
	<station code="MNVG" name="MNVG" netid="KO" source="Bogazici University Kandilli Observatory And Earthquake Research Institute (KOERI)" insttype="" lat="36.7935" lon="31.4161">
		<comp name="--.HNE" depth="0.0">
			<acc value="0.032690468751564" flag="0"/>
			<vel value="0.0300343434048" flag="0"/>
			<psa03 value="0.0835737603097938" flag="0"/>
			<psa10 value="0.0597442627641567" flag="0"/>
			<psa30 value="0.00629351066418928" flag="0"/>
		</comp>
		<comp name="--.HNN" depth="0.0">
			<acc value="0.02632330969638" flag="0"/>
			<vel value="0.0904583442437" flag="0"/>
			<psa03 value="0.0879005104774012" flag="0"/>
			<psa10 value="0.0383317655413374" flag="0"/>
			<psa30 value="0.00967038144862904" flag="0"/>
		</comp>
		<comp name="--.HNZ" depth="0.0">
			<acc value="0.026195858146482" flag="0"/>
			<vel value="0.0159291808441" flag="0"/>
			<psa03 value="0.0634154145015252" flag="0"/>
			<psa10 value="0.0329969133835861" flag="0"/>
			<psa30 value="0.00327770296506961" flag="0"/>
		</comp>
	</station>
	<station code="SEYD" name="SEYD" netid="KO" source="Bogazici University Kandilli Observatory And Earthquake Research Institute (KOERI)" insttype="" lat="37.4056" lon="31.8379">
		<comp name="--.HNE" depth="0.0">
			<acc value="0.014936204657184" flag="0"/>
			<vel value="0.0174569566977" flag="0"/>
			<psa03 value="0.0306747742407538" flag="0"/>
			<psa10 value="0.046584659755093" flag="0"/>
			<psa30 value="0.00571076539351262" flag="0"/>
		</comp>
		<comp name="--.HNN" depth="0.0">
			<acc value="0.014907373432146" flag="0"/>
			<vel value="0.0198572952717" flag="0"/>
			<psa03 value="0.0289021437918281" flag="0"/>
			<psa10 value="0.0390342808295281" flag="0"/>
			<psa30 value="0.00372913662033438" flag="0"/>
		</comp>
		<comp name="--.HNZ" depth="0.0">
			<acc value="0.0089892183488712" flag="0"/>
			<vel value="0.014524126094" flag="0"/>
			<psa03 value="0.022423441172076" flag="0"/>
			<psa10 value="0.0326554832655089" flag="0"/>
			<psa30 value="0.00333886639184713" flag="0"/>
		</comp>
	</station>
	<station code="SLFK" name="SLFK" netid="KO" source="Bogazici University Kandilli Observatory And Earthquake Research Institute (KOERI)" insttype="" lat="36.3925" lon="33.9464">
		<comp name="--.HNE" depth="0.0">
			<acc value="0.046965846960816" flag="0"/>
			<vel value="0.0533276878172" flag="0"/>
			<psa03 value="0.142295197191908" flag="0"/>
			<psa10 value="0.0844889044750769" flag="0"/>
			<psa30 value="0.00720785665181704" flag="0"/>
		</comp>
		<comp name="--.HNN" depth="0.0">
			<acc value="0.042099277476348" flag="0"/>
			<vel value="0.0349040455708" flag="0"/>
			<psa03 value="0.134517411118131" flag="0"/>
			<psa10 value="0.0572105386675668" flag="0"/>
			<psa30 value="0.00400866680450203" flag="0"/>
		</comp>
		<comp name="--.HNZ" depth="0.0">
			<acc value="0.024610356478992" flag="0"/>
			<vel value="0.0247878940899" flag="0"/>
			<psa03 value="0.0814518489100586" flag="0"/>
			<psa10 value="0.0358822457726783" flag="0"/>
			<psa30 value="0.00487112852170729" flag="0"/>
		</comp>
	</station>
</stationlist>
