<?xml version="1.0" encoding="UTF-8" standalone="yes"?>
<!DOCTYPE earthquake SYSTEM "stationlist.dtd">
<stationlist created="" xmlns="ch.ethz.sed.shakemap.usgs.xml">
  <station code="MSDA" name="MSDA" netid="ML" insttype="" lat="35.9012" lon="14.484">
    <comp name="--.HHN">
      <acc value="0.0792585702" flag="0"/>
      <vel value="0.0285906349" flag="0"/>
      <psa03 value="0.1396651810" flag="0"/>
      <psa10 value="0.0700884996" flag="0"/>
      <psa30 value="0.0048566177" flag="0"/>
    </comp>
    <comp name="--.HHZ">
      <acc value="0.0723016594" flag="0"/>
      <vel value="0.0322839877" flag="0"/>
      <psa03 value="0.1438219226" flag="0"/>
      <psa10 value="0.0318889779" flag="0"/>
      <psa30 value="0.0027387370" flag="0"/>
    </comp>
    <comp name="--.HHE">
      <acc value="0.1013345936" flag="0"/>
      <vel value="0.0513560345" flag="0"/>
      <psa03 value="0.2488868407" flag="0"/>
      <psa10 value="0.0521646225" flag="0"/>
      <psa30 value="0.0044477659" flag="0"/>
    </comp>
  </station>
  <station code="XLND" name="XLND" netid="ML" insttype="" lat="36.0323" lon="14.2201">
    <comp name="--.HHE">
      <acc value="0.0361002722" flag="0"/>
      <vel value="0.0172651666" flag="0"/>
      <psa03 value="0.0998051894" flag="0"/>
      <psa10 value="0.0227266182" flag="0"/>
      <psa30 value="0.0033225818" flag="0"/>
    </comp>
    <comp name="--.HHZ">
      <acc value="0.0220214613" flag="0"/>
      <vel value="0.0130829178" flag="0"/>
      <psa03 value="0.0663568398" flag="0"/>
      <psa10 value="0.0257486571" flag="0"/>
      <psa30 value="0.0027807993" flag="0"/>
    </comp>
    <comp name="--.HHN">
      <acc value="0.0318085266" flag="0"/>
      <vel value="0.0195633864" flag="0"/>
      <psa03 value="0.0862761259" flag="0"/>
      <psa10 value="0.0320184230" flag="0"/>
      <psa30 value="0.0024287375" flag="0"/>
    </comp>
  </station>
</stationlist>
