<?xml version="1.0" encoding="UTF-8" standalone="yes"?>
<!DOCTYPE earthquake SYSTEM "stationlist.dtd">
<stationlist created="" xmlns="ch.ethz.sed.shakemap.usgs.xml">
  <station code="AKS" name="AKS" netid="KO" insttype="CMG-5T" commtype="DIG" lat="38.8785" lon="27.8129">
    <comp name="--.HNZ">
      <acc value="0.0647492028" flag="0"/>
      <vel value="0.0094697800" flag="0"/>
      <psa03 value="0.0298874445" flag="0"/>
      <psa10 value="0.0068987677" flag="0"/>
      <psa30 value="0.0008981979" flag="0"/>
    </comp>
    <comp name="--.HNN">
      <acc value="0.0949121610" flag="0"/>
      <vel value="0.0207580819" flag="0"/>
      <psa03 value="0.0729148752" flag="0"/>
      <psa10 value="0.0110399677" flag="0"/>
      <psa30 value="0.0011650188" flag="0"/>
    </comp>
    <comp name="--.HNE">
      <acc value="0.0757624782" flag="0"/>
      <vel value="0.0213227112" flag="0"/>
      <psa03 value="0.0975938462" flag="0"/>
      <psa10 value="0.0112320969" flag="0"/>
      <psa30 value="0.0008845715" flag="0"/>
    </comp>
  </station>
  <station code="BALB" name="BALB" netid="KO" insttype="CMG-5T" commtype="DIG" lat="39.6507" lon="27.8642">
    <comp name="--.HNN">
      <acc value="0.0351401962" flag="0"/>
      <vel value="0.0165736822" flag="0"/>
      <psa03 value="0.0649935875" flag="0"/>
      <psa10 value="0.0169290236" flag="0"/>
      <psa30 value="0.0012918905" flag="0"/>
    </comp>
    <comp name="--.HNE">
      <acc value="0.0449175909" flag="0"/>
      <vel value="0.0164386442" flag="0"/>
      <psa03 value="0.0678592712" flag="0"/>
      <psa10 value="0.0145945528" flag="0"/>
      <psa30 value="0.0010439674" flag="0"/>
    </comp>
    <comp name="--.HNZ">
      <acc value="0.0286558603" flag="0"/>
      <vel value="0.0080909843" flag="0"/>
      <psa03 value="0.0272194630" flag="0"/>
      <psa10 value="0.0071662817" flag="0"/>
      <psa30 value="0.0006588711" flag="0"/>
    </comp>
  </station>
  <station code="DST" name="DST" netid="KO" insttype="CMG-5T" commtype="DIG" lat="39.6041" lon="28.6267">
    <comp name="--.HNE">
      <acc value="0.0471756291" flag="0"/>
      <vel value="0.0108474118" flag="0"/>
      <psa03 value="0.0491354574" flag="0"/>
      <psa10 value="0.0061519783" flag="0"/>
      <psa30 value="0.0009278116" flag="0"/>
    </comp>
    <comp name="--.HNZ">
      <acc value="0.0490621765" flag="0"/>
      <vel value="0.0102298266" flag="0"/>
      <psa03 value="0.0567197740" flag="0"/>
      <psa10 value="0.0069041225" flag="0"/>
      <psa30 value="0.0009100141" flag="0"/>
    </comp>
    <comp name="--.HNN">
      <acc value="0.0547314163" flag="0"/>
      <vel value="0.0112580374" flag="0"/>
      <psa03 value="0.0615821208" flag="0"/>
      <psa10 value="0.0091937619" flag="0"/>
      <psa30 value="0.0012194704" flag="0"/>
    </comp>
  </station>
  <station code="GEDZ" name="GEDZ" netid="KO" insttype="CMG-6T" commtype="DIG" lat="39.0445" lon="29.4105">
    <comp name="--.HHN">
      <acc value="0.0835518038" flag="0"/>
      <vel value="0.0467048427" flag="0"/>
      <psa03 value="0.2125196411" flag="0"/>
      <psa10 value="0.0285001195" flag="0"/>
      <psa30 value="0.0018056305" flag="0"/>
    </comp>
    <comp name="--.HHZ">
      <acc value="0.0265254454" flag="0"/>
      <vel value="0.0116892846" flag="0"/>
      <psa03 value="0.0489333533" flag="0"/>
      <psa10 value="0.0115216542" flag="0"/>
      <psa30 value="0.0006625479" flag="0"/>
    </comp>
    <comp name="--.HHE">
      <acc value="0.0640453852" flag="0"/>
      <vel value="0.0225395350" flag="0"/>
      <psa03 value="0.1182274275" flag="0"/>
      <psa10 value="0.0239189620" flag="0"/>
      <psa30 value="0.0011594763" flag="0"/>
    </comp>
  </station>
  <station code="GOMA" name="GOMA" netid="KO" insttype="CMG-5T" commtype="DIG" lat="38.7077" lon="27.9175">
    <comp name="--.HNE">
      <acc value="0.0661205799" flag="0"/>
      <vel value="0.0225572749" flag="0"/>
      <psa03 value="0.0732231339" flag="0"/>
      <psa10 value="0.0105860030" flag="0"/>
      <psa30 value="0.0009243043" flag="0"/>
    </comp>
    <comp name="--.HNN">
      <acc value="0.0717895940" flag="0"/>
      <vel value="0.0417704398" flag="0"/>
      <psa03 value="0.0959329066" flag="0"/>
      <psa10 value="0.0171686920" flag="0"/>
      <psa30 value="0.0018184173" flag="0"/>
    </comp>
    <comp name="--.HNZ">
      <acc value="0.1054147841" flag="0"/>
      <vel value="0.0217473682" flag="0"/>
      <psa03 value="0.0441442954" flag="0"/>
      <psa10 value="0.0052596951" flag="0"/>
      <psa30 value="0.0007051631" flag="0"/>
    </comp>
  </station>
  <station code="GONE" name="GONE" netid="KO" insttype="CMG-5T" commtype="DIG" lat="40.0466" lon="27.686">
    <comp name="--.HNZ">
      <acc value="0.0163976274" flag="0"/>
      <vel value="0.0045842426" flag="0"/>
      <psa03 value="0.0191911630" flag="0"/>
      <psa10 value="0.0054688217" flag="0"/>
      <psa30 value="0.0004998762" flag="0"/>
    </comp>
    <comp name="--.HNN">
      <acc value="0.0371394243" flag="0"/>
      <vel value="0.0164275070" flag="0"/>
      <psa03 value="0.0889488916" flag="0"/>
      <psa10 value="0.0165472455" flag="0"/>
      <psa30 value="0.0009491040" flag="0"/>
    </comp>
    <comp name="--.HNE">
      <acc value="0.0243942972" flag="0"/>
      <vel value="0.0144411621" flag="0"/>
      <psa03 value="0.0542866620" flag="0"/>
      <psa10 value="0.0204155134" flag="0"/>
      <psa30 value="0.0010221282" flag="0"/>
    </comp>
  </station>
  <station code="GORD" name="GORD" netid="KO" insttype="CMG-5T" commtype="DIG" lat="38.9088" lon="28.1769">
    <comp name="--.HNN">
      <acc value="0.0466376520" flag="0"/>
      <vel value="0.0242771615" flag="0"/>
      <psa03 value="0.0802202188" flag="0"/>
      <psa10 value="0.0274950079" flag="0"/>
      <psa30 value="0.0026354905" flag="0"/>
    </comp>
    <comp name="--.HNZ">
      <acc value="0.0572699719" flag="0"/>
      <vel value="0.0163812220" flag="0"/>
      <psa03 value="0.0592869661" flag="0"/>
      <psa10 value="0.0152210341" flag="0"/>
      <psa30 value="0.0021426742" flag="0"/>
    </comp>
    <comp name="--.HNE">
      <acc value="0.0521698178" flag="0"/>
      <vel value="0.0206160074" flag="0"/>
      <psa03 value="0.0573020534" flag="0"/>
      <psa10 value="0.0217017264" flag="0"/>
      <psa30 value="0.0025947225" flag="0"/>
    </comp>
  </station>
  <station code="KCTX" name="KCTX" netid="KO" insttype="CMG-3ESP" commtype="DIG" lat="40.2626" lon="28.3353">
    <comp name="--.HHE">
      <acc value="0.0178573199" flag="0"/>
      <vel value="0.0101426659" flag="0"/>
      <psa03 value="0.0187446020" flag="0"/>
      <psa10 value="0.0171505826" flag="0"/>
      <psa30 value="0.0008296398" flag="0"/>
    </comp>
    <comp name="--.HHN">
      <acc value="0.0201611499" flag="0"/>
      <vel value="0.0078296150" flag="0"/>
      <psa03 value="0.0259350704" flag="0"/>
      <psa10 value="0.0097106203" flag="0"/>
      <psa30 value="0.0005391137" flag="0"/>
    </comp>
    <comp name="--.HHZ">
      <acc value="0.0197086487" flag="0"/>
      <vel value="0.0038577868" flag="0"/>
      <psa03 value="0.0189648084" flag="0"/>
      <psa10 value="0.0052886647" flag="0"/>
      <psa30 value="0.0005565795" flag="0"/>
    </comp>
  </station>
  <station code="KULA" name="KULA" netid="KO" insttype="CMG-3T" commtype="DIG" lat="38.5145" lon="28.6607">
    <comp name="--.HHZ">
      <acc value="0.0299668228" flag="0"/>
      <vel value="0.0087320329" flag="0"/>
      <psa03 value="0.0375046843" flag="0"/>
      <psa10 value="0.0057399362" flag="0"/>
      <psa30 value="0.0004809088" flag="0"/>
    </comp>
    <comp name="--.HHN">
      <acc value="0.0363662167" flag="0"/>
      <vel value="0.0071703340" flag="0"/>
      <psa03 value="0.0277256468" flag="0"/>
      <psa10 value="0.0025690053" flag="0"/>
      <psa30 value="0.0002539433" flag="0"/>
    </comp>
    <comp name="--.HHE">
      <acc value="0.0418677356" flag="0"/>
      <vel value="0.0102765899" flag="0"/>
      <psa03 value="0.0277303698" flag="0"/>
      <psa10 value="0.0056872606" flag="0"/>
      <psa30 value="0.0003963525" flag="0"/>
    </comp>
  </station>
  <station code="ORLT" name="ORLT" netid="KO" insttype="CMG-5T" commtype="DIG" lat="40.0452" lon="28.8914">
    <comp name="--.HNE">
      <acc value="0.0552389313" flag="0"/>
      <vel value="0.0265140550" flag="0"/>
      <psa03 value="0.1393340855" flag="0"/>
      <psa10 value="0.0289484367" flag="0"/>
      <psa30 value="0.0012836667" flag="0"/>
    </comp>
    <comp name="--.HNN">
      <acc value="0.0674761885" flag="0"/>
      <vel value="0.0282853264" flag="0"/>
      <psa03 value="0.1314087808" flag="0"/>
      <psa10 value="0.0376186104" flag="0"/>
      <psa30 value="0.0013580142" flag="0"/>
    </comp>
    <comp name="--.HNZ">
      <acc value="0.0220994172" flag="0"/>
      <vel value="0.0159527658" flag="0"/>
      <psa03 value="0.0437202780" flag="0"/>
      <psa10 value="0.0285069254" flag="0"/>
      <psa30 value="0.0011800087" flag="0"/>
    </comp>
  </station>
  <station code="SHAP" name="SHAP" netid="KO" insttype="CMG-5T" commtype="DIG" lat="39.0231" lon="29.222">
    <comp name="--.HNZ">
      <acc value="0.0401507920" flag="0"/>
      <vel value="0.0080083526" flag="0"/>
      <psa03 value="0.0487240889" flag="0"/>
      <psa10 value="0.0048059218" flag="0"/>
      <psa30 value="0.0002359630" flag="0"/>
    </comp>
    <comp name="--.HNE">
      <acc value="0.0534586764" flag="0"/>
      <vel value="0.0164690287" flag="0"/>
      <psa03 value="0.1155499518" flag="0"/>
      <psa10 value="0.0074596726" flag="0"/>
      <psa30 value="0.0005680003" flag="0"/>
    </comp>
    <comp name="--.HNN">
      <acc value="0.0508921316" flag="0"/>
      <vel value="0.0193009523" flag="0"/>
      <psa03 value="0.1299526954" flag="0"/>
      <psa10 value="0.0101208137" flag="0"/>
      <psa30 value="0.0006506171" flag="0"/>
    </comp>
  </station>
  <station code="SIMA" name="SIMA" netid="KO" insttype="CMG-6T" commtype="DIG" lat="39.0833" lon="28.9825">
    <comp name="--.HHE">
      <acc value="0.0540739775" flag="0"/>
      <vel value="0.0157263291" flag="0"/>
      <psa03 value="0.1216873256" flag="0"/>
      <psa10 value="0.0040639604" flag="0"/>
      <psa30 value="0.0004742734" flag="0"/>
    </comp>
    <comp name="--.HHN">
      <acc value="0.0644238323" flag="0"/>
      <vel value="0.0238772640" flag="0"/>
      <psa03 value="0.1205030879" flag="0"/>
      <psa10 value="0.0053447467" flag="0"/>
      <psa30 value="0.0005411669" flag="0"/>
    </comp>
    <comp name="--.HHZ">
      <acc value="0.0407834476" flag="0"/>
      <vel value="0.0114246958" flag="0"/>
      <psa03 value="0.0482987042" flag="0"/>
      <psa10 value="0.0031772946" flag="0"/>
      <psa30 value="0.0003325893" flag="0"/>
    </comp>
  </station>
  <station code="SMAA" name="SMAA" netid="KO" insttype="CMG-5T" commtype="DIG" lat="39.1005" lon="28.9805">
    <comp name="--.HNE">
      <acc value="0.0820276473" flag="0"/>
      <vel value="0.0279665072" flag="0"/>
      <psa03 value="0.2161667729" flag="0"/>
      <psa10 value="0.0292234756" flag="0"/>
      <psa30 value="0.0020580860" flag="0"/>
    </comp>
    <comp name="--.HNN">
      <acc value="0.0568767349" flag="0"/>
      <vel value="0.0226303611" flag="0"/>
      <psa03 value="0.1249097453" flag="0"/>
      <psa10 value="0.0257027076" flag="0"/>
      <psa30 value="0.0016578181" flag="0"/>
    </comp>
    <comp name="--.HNZ">
      <acc value="0.0322489886" flag="0"/>
      <vel value="0.0102899332" flag="0"/>
      <psa03 value="0.0556149806" flag="0"/>
      <psa10 value="0.0132109348" flag="0"/>
      <psa30 value="0.0007360679" flag="0"/>
    </comp>
  </station>
  <station code="SOMA" name="SOMA" netid="KO" insttype="CMG-5T" commtype="DIG" lat="39.1564" lon="27.5341">
    <comp name="--.HNN">
      <acc value="0.0647485297" flag="0"/>
      <vel value="0.0199062674" flag="0"/>
      <psa03 value="0.0917504410" flag="0"/>
      <psa10 value="0.0140157357" flag="0"/>
      <psa30 value="0.0008791383" flag="0"/>
    </comp>
    <comp name="--.HNE">
      <acc value="0.0473398520" flag="0"/>
      <vel value="0.0141585240" flag="0"/>
      <psa03 value="0.0682044231" flag="0"/>
      <psa10 value="0.0103751219" flag="0"/>
      <psa30 value="0.0006419647" flag="0"/>
    </comp>
    <comp name="--.HNZ">
      <acc value="0.0455297080" flag="0"/>
      <vel value="0.0108814162" flag="0"/>
      <psa03 value="0.0403191843" flag="0"/>
      <psa10 value="0.0081694572" flag="0"/>
      <psa30 value="0.0005980649" flag="0"/>
    </comp>
  </station>
  <station code="SUSR" name="SUSR" netid="KO" insttype="CMG-5T" commtype="DIG" lat="39.9627" lon="28.0835">
    <comp name="--.HNE">
      <acc value="0.0327008310" flag="0"/>
      <vel value="0.0096312216" flag="0"/>
      <psa03 value="0.0318509560" flag="0"/>
      <psa10 value="0.0062676071" flag="0"/>
      <psa30 value="0.0003399964" flag="0"/>
    </comp>
    <comp name="--.HNN">
      <acc value="0.0345035977" flag="0"/>
      <vel value="0.0078365705" flag="0"/>
      <psa03 value="0.0554514744" flag="0"/>
      <psa10 value="0.0034656047" flag="0"/>
      <psa30 value="0.0003465485" flag="0"/>
    </comp>
    <comp name="--.HNZ">
      <acc value="0.0320964512" flag="0"/>
      <vel value="0.0062043094" flag="0"/>
      <psa03 value="0.0253993568" flag="0"/>
      <psa10 value="0.0041128187" flag="0"/>
      <psa30 value="0.0003906547" flag="0"/>
    </comp>
  </station>
  <station code="TVSB" name="TVSB" netid="KO" insttype="CMG-3T" commtype="DIG" lat="39.4497" lon="29.4615">
    <comp name="--.HHN">
      <acc value="0.0455421740" flag="0"/>
      <vel value="0.0177356241" flag="0"/>
      <psa03 value="0.1335701937" flag="0"/>
      <psa10 value="0.0077110455" flag="0"/>
      <psa30 value="0.0006337744" flag="0"/>
    </comp>
    <comp name="--.HHE">
      <acc value="0.0485213138" flag="0"/>
      <vel value="0.0294403157" flag="0"/>
      <psa03 value="0.1476312942" flag="0"/>
      <psa10 value="0.0146031851" flag="0"/>
      <psa30 value="0.0009371456" flag="0"/>
    </comp>
    <comp name="--.HHZ">
      <acc value="0.0248446277" flag="0"/>
      <vel value="0.0071596464" flag="0"/>
      <psa03 value="0.0547941792" flag="0"/>
      <psa10 value="0.0049205343" flag="0"/>
      <psa30 value="0.0004349589" flag="0"/>
    </comp>
  </station>
  <station code="YAYO" name="YAYO" netid="KO" insttype="CMG-6T" commtype="DIG" lat="39.6113" lon="27.0726">
    <comp name="--.HHE">
      <acc value="0.0193221609" flag="0"/>
      <vel value="0.0108588588" flag="0"/>
      <psa03 value="0.0279088036" flag="0"/>
      <psa10 value="0.0096503969" flag="0"/>
      <psa30 value="0.0006824041" flag="0"/>
    </comp>
    <comp name="--.HHZ">
      <acc value="0.0144645726" flag="0"/>
      <vel value="0.0058155872" flag="0"/>
      <psa03 value="0.0215811939" flag="0"/>
      <psa10 value="0.0049701985" flag="0"/>
      <psa30 value="0.0003697124" flag="0"/>
    </comp>
    <comp name="--.HHN">
      <acc value="0.0144083093" flag="0"/>
      <vel value="0.0079581866" flag="0"/>
      <psa03 value="0.0403979541" flag="0"/>
      <psa10 value="0.0037116710" flag="0"/>
      <psa30 value="0.0002053431" flag="0"/>
    </comp>
  </station>
  <station code="YENI" name="YENI" netid="KO" insttype="CMG-5T" commtype="DIG" lat="39.9364" lon="27.2422">
    <comp name="--.HNN">
      <acc value="0.0350994409" flag="0"/>
      <vel value="0.0201602416" flag="0"/>
      <psa03 value="0.0429227916" flag="0"/>
      <psa10 value="0.0190317122" flag="0"/>
      <psa30 value="0.0011637036" flag="0"/>
    </comp>
    <comp name="--.HNE">
      <acc value="0.0352298047" flag="0"/>
      <vel value="0.0158758853" flag="0"/>
      <psa03 value="0.0600660419" flag="0"/>
      <psa10 value="0.0199824777" flag="0"/>
      <psa30 value="0.0009677382" flag="0"/>
    </comp>
    <comp name="--.HNZ">
      <acc value="0.0169152155" flag="0"/>
      <vel value="0.0047124685" flag="0"/>
      <psa03 value="0.0193863986" flag="0"/>
      <psa10 value="0.0059650149" flag="0"/>
      <psa30 value="0.0004035297" flag="0"/>
    </comp>
  </station>
</stationlist>
