<?xml version="1.0" encoding="UTF-8" standalone="yes"?>
<!DOCTYPE earthquake SYSTEM "stationlist.dtd">
<stationlist created="" xmlns="ch.ethz.sed.shakemap.usgs.xml">
  <station code="AKS" name="AKS" netid="KO" insttype="CMG-5T" commtype="DIG" lat="38.8785" lon="27.8129">
    <comp name="--.HNN">
      <acc value="0.0949121517" flag="0"/>
      <vel value="0.0207580852" flag="0"/>
      <psa03 value="0.0729148752" flag="0"/>
      <psa10 value="0.0110399725" flag="0"/>
      <psa30 value="0.0011634760" flag="0"/>
    </comp>
    <comp name="--.HNZ">
      <acc value="0.0647492025" flag="0"/>
      <vel value="0.0094697769" flag="0"/>
      <psa03 value="0.0298874445" flag="0"/>
      <psa10 value="0.0068987682" flag="0"/>
      <psa30 value="0.0008998230" flag="0"/>
    </comp>
    <comp name="--.HNE">
      <acc value="0.0757624807" flag="0"/>
      <vel value="0.0213227094" flag="0"/>
      <psa03 value="0.0975938462" flag="0"/>
      <psa10 value="0.0112320846" flag="0"/>
      <psa30 value="0.0008786728" flag="0"/>
    </comp>
  </station>
  <station code="BALB" name="BALB" netid="KO" insttype="CMG-5T" commtype="DIG" lat="39.6507" lon="27.8642">
    <comp name="--.HNE">
      <acc value="0.0449175916" flag="0"/>
      <vel value="0.0164386448" flag="0"/>
      <psa03 value="0.0678592712" flag="0"/>
      <psa10 value="0.0145945517" flag="0"/>
      <psa30 value="0.0010445552" flag="0"/>
    </comp>
    <comp name="--.HNN">
      <acc value="0.0351401980" flag="0"/>
      <vel value="0.0165736827" flag="0"/>
      <psa03 value="0.0649935875" flag="0"/>
      <psa10 value="0.0169290248" flag="0"/>
      <psa30 value="0.0012919046" flag="0"/>
    </comp>
    <comp name="--.HNZ">
      <acc value="0.0286558603" flag="0"/>
      <vel value="0.0080909830" flag="0"/>
      <psa03 value="0.0272194630" flag="0"/>
      <psa10 value="0.0071662849" flag="0"/>
      <psa30 value="0.0006589944" flag="0"/>
    </comp>
  </station>
  <station code="DST" name="DST" netid="KO" insttype="CMG-5T" commtype="DIG" lat="39.6041" lon="28.6267">
    <comp name="--.HNE">
      <acc value="0.0471756250" flag="0"/>
      <vel value="0.0108473990" flag="0"/>
      <psa03 value="0.0491354574" flag="0"/>
      <psa10 value="0.0061519794" flag="0"/>
      <psa30 value="0.0009280256" flag="0"/>
    </comp>
    <comp name="--.HNN">
      <acc value="0.0547314159" flag="0"/>
      <vel value="0.0112580334" flag="0"/>
      <psa03 value="0.0615821208" flag="0"/>
      <psa10 value="0.0091937620" flag="0"/>
      <psa30 value="0.0012229719" flag="0"/>
    </comp>
    <comp name="--.HNZ">
      <acc value="0.0490621781" flag="0"/>
      <vel value="0.0102298453" flag="0"/>
      <psa03 value="0.0567197740" flag="0"/>
      <psa10 value="0.0069041221" flag="0"/>
      <psa30 value="0.0009057459" flag="0"/>
    </comp>
  </station>
  <station code="GEDZ" name="GEDZ" netid="KO" insttype="CMG-6T" commtype="DIG" lat="39.0445" lon="29.4105">
    <comp name="--.HHN">
      <acc value="0.0835517829" flag="0"/>
      <vel value="0.0467046550" flag="0"/>
      <psa03 value="0.2125196414" flag="0"/>
      <psa10 value="0.0285001192" flag="0"/>
      <psa30 value="0.0018054586" flag="0"/>
    </comp>
    <comp name="--.HHE">
      <acc value="0.0640454075" flag="0"/>
      <vel value="0.0225395243" flag="0"/>
      <psa03 value="0.1182274275" flag="0"/>
      <psa10 value="0.0239189621" flag="0"/>
      <psa30 value="0.0011594037" flag="0"/>
    </comp>
    <comp name="--.HHZ">
      <acc value="0.0265254389" flag="0"/>
      <vel value="0.0116892834" flag="0"/>
      <psa03 value="0.0489333533" flag="0"/>
      <psa10 value="0.0115216540" flag="0"/>
      <psa30 value="0.0006625339" flag="0"/>
    </comp>
  </station>
  <station code="GOMA" name="GOMA" netid="KO" insttype="CMG-5T" commtype="DIG" lat="38.7077" lon="27.9175">
    <comp name="--.HNZ">
      <acc value="0.1054147995" flag="0"/>
      <vel value="0.0217473647" flag="0"/>
      <psa03 value="0.0441442954" flag="0"/>
      <psa10 value="0.0052596963" flag="0"/>
      <psa30 value="0.0007050675" flag="0"/>
    </comp>
    <comp name="--.HNE">
      <acc value="0.0661205730" flag="0"/>
      <vel value="0.0225572793" flag="0"/>
      <psa03 value="0.0732231339" flag="0"/>
      <psa10 value="0.0105860041" flag="0"/>
      <psa30 value="0.0009224786" flag="0"/>
    </comp>
    <comp name="--.HNN">
      <acc value="0.0717895850" flag="0"/>
      <vel value="0.0417704318" flag="0"/>
      <psa03 value="0.0959329066" flag="0"/>
      <psa10 value="0.0171686927" flag="0"/>
      <psa30 value="0.0018166061" flag="0"/>
    </comp>
  </station>
  <station code="GONE" name="GONE" netid="KO" insttype="CMG-5T" commtype="DIG" lat="40.0466" lon="27.686">
    <comp name="--.HNZ">
      <acc value="0.0163976267" flag="0"/>
      <vel value="0.0045842429" flag="0"/>
      <psa03 value="0.0191911630" flag="0"/>
      <psa10 value="0.0054688220" flag="0"/>
      <psa30 value="0.0004998273" flag="0"/>
    </comp>
    <comp name="--.HNE">
      <acc value="0.0243942968" flag="0"/>
      <vel value="0.0144411611" flag="0"/>
      <psa03 value="0.0542866620" flag="0"/>
      <psa10 value="0.0204155137" flag="0"/>
      <psa30 value="0.0010222401" flag="0"/>
    </comp>
    <comp name="--.HNN">
      <acc value="0.0371394249" flag="0"/>
      <vel value="0.0164275060" flag="0"/>
      <psa03 value="0.0889488916" flag="0"/>
      <psa10 value="0.0165472458" flag="0"/>
      <psa30 value="0.0009491408" flag="0"/>
    </comp>
  </station>
  <station code="GORD" name="GORD" netid="KO" insttype="CMG-5T" commtype="DIG" lat="38.9088" lon="28.1769">
    <comp name="--.HNE">
      <acc value="0.0521698166" flag="0"/>
      <vel value="0.0206160066" flag="0"/>
      <psa03 value="0.0573020534" flag="0"/>
      <psa10 value="0.0217017298" flag="0"/>
      <psa30 value="0.0025948366" flag="0"/>
    </comp>
    <comp name="--.HNN">
      <acc value="0.0466376525" flag="0"/>
      <vel value="0.0242771634" flag="0"/>
      <psa03 value="0.0802202188" flag="0"/>
      <psa10 value="0.0274949992" flag="0"/>
      <psa30 value="0.0026358178" flag="0"/>
    </comp>
    <comp name="--.HNZ">
      <acc value="0.0572699711" flag="0"/>
      <vel value="0.0163812252" flag="0"/>
      <psa03 value="0.0592869660" flag="0"/>
      <psa10 value="0.0152210342" flag="0"/>
      <psa30 value="0.0021423817" flag="0"/>
    </comp>
  </station>
  <station code="KCTX" name="KCTX" netid="KO" insttype="CMG-3ESP" commtype="DIG" lat="40.2626" lon="28.3353">
    <comp name="--.HHE">
      <acc value="0.0178573199" flag="0"/>
      <vel value="0.0101426655" flag="0"/>
      <psa03 value="0.0187446020" flag="0"/>
      <psa10 value="0.0171505822" flag="0"/>
      <psa30 value="0.0008295687" flag="0"/>
    </comp>
    <comp name="--.HHN">
      <acc value="0.0201611496" flag="0"/>
      <vel value="0.0078296150" flag="0"/>
      <psa03 value="0.0259350704" flag="0"/>
      <psa10 value="0.0097106201" flag="0"/>
      <psa30 value="0.0005390753" flag="0"/>
    </comp>
    <comp name="--.HHZ">
      <acc value="0.0197086485" flag="0"/>
      <vel value="0.0038577778" flag="0"/>
      <psa03 value="0.0189648084" flag="0"/>
      <psa10 value="0.0052886646" flag="0"/>
      <psa30 value="0.0005565528" flag="0"/>
    </comp>
  </station>
  <station code="KULA" name="KULA" netid="KO" insttype="CMG-3T" commtype="DIG" lat="38.5145" lon="28.6607">
    <comp name="--.HHE">
      <acc value="0.0418677355" flag="0"/>
      <vel value="0.0102765916" flag="0"/>
      <psa03 value="0.0277303698" flag="0"/>
      <psa10 value="0.0056872590" flag="0"/>
      <psa30 value="0.0003962849" flag="0"/>
    </comp>
    <comp name="--.HHZ">
      <acc value="0.0299668228" flag="0"/>
      <vel value="0.0087320328" flag="0"/>
      <psa03 value="0.0375046843" flag="0"/>
      <psa10 value="0.0057399363" flag="0"/>
      <psa30 value="0.0004809164" flag="0"/>
    </comp>
    <comp name="--.HHN">
      <acc value="0.0363662167" flag="0"/>
      <vel value="0.0071703340" flag="0"/>
      <psa03 value="0.0277256468" flag="0"/>
      <psa10 value="0.0025690053" flag="0"/>
      <psa30 value="0.0002539433" flag="0"/>
    </comp>
  </station>
  <station code="ORLT" name="ORLT" netid="KO" insttype="CMG-5T" commtype="DIG" lat="40.0452" lon="28.8914">
    <comp name="--.HNE">
      <acc value="0.0552389336" flag="0"/>
      <vel value="0.0265140591" flag="0"/>
      <psa03 value="0.1393340855" flag="0"/>
      <psa10 value="0.0289484376" flag="0"/>
      <psa30 value="0.0012843279" flag="0"/>
    </comp>
    <comp name="--.HNZ">
      <acc value="0.0220994136" flag="0"/>
      <vel value="0.0159527598" flag="0"/>
      <psa03 value="0.0437202780" flag="0"/>
      <psa10 value="0.0285069259" flag="0"/>
      <psa30 value="0.0011800648" flag="0"/>
    </comp>
    <comp name="--.HNN">
      <acc value="0.0674761859" flag="0"/>
      <vel value="0.0282853363" flag="0"/>
      <psa03 value="0.1314087808" flag="0"/>
      <psa10 value="0.0376186107" flag="0"/>
      <psa30 value="0.0013582834" flag="0"/>
    </comp>
  </station>
  <station code="SHAP" name="SHAP" netid="KO" insttype="CMG-5T" commtype="DIG" lat="39.0231" lon="29.222">
    <comp name="--.HNE">
      <acc value="0.0534586776" flag="0"/>
      <vel value="0.0164690285" flag="0"/>
      <psa03 value="0.1155499518" flag="0"/>
      <psa10 value="0.0074596730" flag="0"/>
      <psa30 value="0.0005680316" flag="0"/>
    </comp>
    <comp name="--.HNN">
      <acc value="0.0508921315" flag="0"/>
      <vel value="0.0193009524" flag="0"/>
      <psa03 value="0.1299526954" flag="0"/>
      <psa10 value="0.0101208137" flag="0"/>
      <psa30 value="0.0006504742" flag="0"/>
    </comp>
    <comp name="--.HNZ">
      <acc value="0.0401507928" flag="0"/>
      <vel value="0.0080083545" flag="0"/>
      <psa03 value="0.0487240889" flag="0"/>
      <psa10 value="0.0048059217" flag="0"/>
      <psa30 value="0.0002356691" flag="0"/>
    </comp>
  </station>
  <station code="SIMA" name="SIMA" netid="KO" insttype="CMG-6T" commtype="DIG" lat="39.0833" lon="28.9825">
    <comp name="--.HHE">
      <acc value="0.0540739800" flag="0"/>
      <vel value="0.0157263185" flag="0"/>
      <psa03 value="0.1216873257" flag="0"/>
      <psa10 value="0.0040639604" flag="0"/>
      <psa30 value="0.0004742639" flag="0"/>
    </comp>
    <comp name="--.HHZ">
      <acc value="0.0407834445" flag="0"/>
      <vel value="0.0114246959" flag="0"/>
      <psa03 value="0.0482987042" flag="0"/>
      <psa10 value="0.0031772947" flag="0"/>
      <psa30 value="0.0003326052" flag="0"/>
    </comp>
    <comp name="--.HHN">
      <acc value="0.0644238293" flag="0"/>
      <vel value="0.0238772638" flag="0"/>
      <psa03 value="0.1205030879" flag="0"/>
      <psa10 value="0.0053447466" flag="0"/>
      <psa30 value="0.0005412213" flag="0"/>
    </comp>
  </station>
  <station code="SMAA" name="SMAA" netid="KO" insttype="CMG-5T" commtype="DIG" lat="39.1005" lon="28.9805">
    <comp name="--.HNE">
      <acc value="0.0820276475" flag="0"/>
      <vel value="0.0279664918" flag="0"/>
      <psa03 value="0.2161667729" flag="0"/>
      <psa10 value="0.0292234754" flag="0"/>
      <psa30 value="0.0020579416" flag="0"/>
    </comp>
    <comp name="--.HNN">
      <acc value="0.0568767422" flag="0"/>
      <vel value="0.0226303630" flag="0"/>
      <psa03 value="0.1249097453" flag="0"/>
      <psa10 value="0.0257027086" flag="0"/>
      <psa30 value="0.0016579022" flag="0"/>
    </comp>
    <comp name="--.HNZ">
      <acc value="0.0322489881" flag="0"/>
      <vel value="0.0102899309" flag="0"/>
      <psa03 value="0.0556149806" flag="0"/>
      <psa10 value="0.0132109347" flag="0"/>
      <psa30 value="0.0007358228" flag="0"/>
    </comp>
  </station>
  <station code="SOMA" name="SOMA" netid="KO" insttype="CMG-5T" commtype="DIG" lat="39.1564" lon="27.5341">
    <comp name="--.HNE">
      <acc value="0.0473398524" flag="0"/>
      <vel value="0.0141585242" flag="0"/>
      <psa03 value="0.0682044231" flag="0"/>
      <psa10 value="0.0103751220" flag="0"/>
      <psa30 value="0.0006419059" flag="0"/>
    </comp>
    <comp name="--.HNN">
      <acc value="0.0647485318" flag="0"/>
      <vel value="0.0199062745" flag="0"/>
      <psa03 value="0.0917504410" flag="0"/>
      <psa10 value="0.0140157356" flag="0"/>
      <psa30 value="0.0008797041" flag="0"/>
    </comp>
    <comp name="--.HNZ">
      <acc value="0.0455297082" flag="0"/>
      <vel value="0.0108814142" flag="0"/>
      <psa03 value="0.0403191843" flag="0"/>
      <psa10 value="0.0081694568" flag="0"/>
      <psa30 value="0.0005977521" flag="0"/>
    </comp>
  </station>
  <station code="SUSR" name="SUSR" netid="KO" insttype="CMG-5T" commtype="DIG" lat="39.9627" lon="28.0835">
    <comp name="--.HNE">
      <acc value="0.0327008315" flag="0"/>
      <vel value="0.0096312245" flag="0"/>
      <psa03 value="0.0318509560" flag="0"/>
      <psa10 value="0.0062676071" flag="0"/>
      <psa30 value="0.0003400226" flag="0"/>
    </comp>
    <comp name="--.HNN">
      <acc value="0.0345035986" flag="0"/>
      <vel value="0.0078365692" flag="0"/>
      <psa03 value="0.0554514744" flag="0"/>
      <psa10 value="0.0034656051" flag="0"/>
      <psa30 value="0.0003465255" flag="0"/>
    </comp>
    <comp name="--.HNZ">
      <acc value="0.0320964511" flag="0"/>
      <vel value="0.0062043083" flag="0"/>
      <psa03 value="0.0253993568" flag="0"/>
      <psa10 value="0.0041128183" flag="0"/>
      <psa30 value="0.0003906948" flag="0"/>
    </comp>
  </station>
  <station code="TVSB" name="TVSB" netid="KO" insttype="CMG-3T" commtype="DIG" lat="39.4497" lon="29.4615">
    <comp name="--.HHE">
      <acc value="0.0485213136" flag="0"/>
      <vel value="0.0294403168" flag="0"/>
      <psa03 value="0.1476312942" flag="0"/>
      <psa10 value="0.0146031852" flag="0"/>
      <psa30 value="0.0009371646" flag="0"/>
    </comp>
    <comp name="--.HHN">
      <acc value="0.0455421739" flag="0"/>
      <vel value="0.0177356224" flag="0"/>
      <psa03 value="0.1335701937" flag="0"/>
      <psa10 value="0.0077110454" flag="0"/>
      <psa30 value="0.0006337554" flag="0"/>
    </comp>
    <comp name="--.HHZ">
      <acc value="0.0248446280" flag="0"/>
      <vel value="0.0071596460" flag="0"/>
      <psa03 value="0.0547941792" flag="0"/>
      <psa10 value="0.0049205344" flag="0"/>
      <psa30 value="0.0004349257" flag="0"/>
    </comp>
  </station>
  <station code="YAYO" name="YAYO" netid="KO" insttype="CMG-6T" commtype="DIG" lat="39.6113" lon="27.0726">
    <comp name="--.HHZ">
      <acc value="0.0144645729" flag="0"/>
      <vel value="0.0058155891" flag="0"/>
      <psa03 value="0.0215811939" flag="0"/>
      <psa10 value="0.0049701986" flag="0"/>
      <psa30 value="0.0003696994" flag="0"/>
    </comp>
    <comp name="--.HHN">
      <acc value="0.0144083096" flag="0"/>
      <vel value="0.0079581863" flag="0"/>
      <psa03 value="0.0403979541" flag="0"/>
      <psa10 value="0.0037116710" flag="0"/>
      <psa30 value="0.0002053474" flag="0"/>
    </comp>
    <comp name="--.HHE">
      <acc value="0.0193221613" flag="0"/>
      <vel value="0.0108588541" flag="0"/>
      <psa03 value="0.0279088036" flag="0"/>
      <psa10 value="0.0096503969" flag="0"/>
      <psa30 value="0.0006823958" flag="0"/>
    </comp>
  </station>
  <station code="YENI" name="YENI" netid="KO" insttype="CMG-5T" commtype="DIG" lat="39.9364" lon="27.2422">
    <comp name="--.HNN">
      <acc value="0.0350994371" flag="0"/>
      <vel value="0.0201602484" flag="0"/>
      <psa03 value="0.0429227916" flag="0"/>
      <psa10 value="0.0190317123" flag="0"/>
      <psa30 value="0.0011642650" flag="0"/>
    </comp>
    <comp name="--.HNZ">
      <acc value="0.0169152196" flag="0"/>
      <vel value="0.0047124738" flag="0"/>
      <psa03 value="0.0193863986" flag="0"/>
      <psa10 value="0.0059650150" flag="0"/>
      <psa30 value="0.0004028567" flag="0"/>
    </comp>
    <comp name="--.HNE">
      <acc value="0.0352298068" flag="0"/>
      <vel value="0.0158758931" flag="0"/>
      <psa03 value="0.0600660419" flag="0"/>
      <psa10 value="0.0199824772" flag="0"/>
      <psa30 value="0.0009684740" flag="0"/>
    </comp>
  </station>
</stationlist>
