<stationlist created="1778136294">
	<station code="STC" name="STC" netid="EG" source="EUROSEISTEST Strong Motion Network" insttype="" lat="40.64865" lon="23.304856">
		<comp name="--.EN1" depth="0.0">
			<acc value="0.0157595802713103" flag="0"/>
			<vel value="0.00965544550308736" flag="0"/>
			<psa03 value="0.0519827144330803" flag="0"/>
			<psa10 value="0.0147392179633619" flag="0"/>
			<psa30 value="0.000413450279676725" flag="0"/>
		</comp>
		<comp name="--.EN2" depth="0.0">
			<acc value="0.0110951057450341" flag="0"/>
			<vel value="0.00697276567155525" flag="0"/>
			<psa03 value="0.0243901756252484" flag="0"/>
			<psa10 value="0.00666037090438978" flag="0"/>
			<psa30 value="0.000402436763627164" flag="0"/>
		</comp>
		<comp name="--.EN3" depth="0.0">
			<acc value="0.00916342311613521" flag="0"/>
			<vel value="0.00438506540635784" flag="0"/>
			<psa03 value="0.017481457539948" flag="0"/>
			<psa10 value="0.00386065996852556" flag="0"/>
			<psa30 value="0.00035023075315167" flag="0"/>
		</comp>
	</station>
	<station code="VAS2" name="VAS2" netid="HI" source="ITSAK Strong Motion Network" insttype="" lat="38.630558" lon="20.608081">
		<comp name="--.HNE" depth="0.0">
			<acc value="0.0162300079629328" flag="0"/>
			<vel value="0.0133798940396847" flag="0"/>
			<psa03 value="0.0517667330573404" flag="0"/>
			<psa10 value="0.0311352067415229" flag="0"/>
			<psa30 value="0.00111810774339061" flag="0"/>
		</comp>
		<comp name="--.HNN" depth="0.0">
			<acc value="0.0156750366817275" flag="0"/>
			<vel value="0.0196391338628966" flag="0"/>
			<psa03 value="0.0361964451541819" flag="0"/>
			<psa10 value="0.0435900947978513" flag="0"/>
			<psa30 value="0.00267737364403738" flag="0"/>
		</comp>
		<comp name="--.HNZ" depth="0.0">
			<acc value="0.0289106364086819" flag="0"/>
			<vel value="0.00708562959729004" flag="0"/>
			<psa03 value="0.0212078059370608" flag="0"/>
			<psa10 value="0.0144038585766202" flag="0"/>
			<psa30 value="0.000638023866376555" flag="0"/>
		</comp>
	</station>
	<station code="DLFA" name="DLFA" netid="HL" source="National Observatory of Athens Seismic Network" insttype="" lat="38.47836" lon="22.49583">
		<comp name="00.HNE" depth="0.0">
			<acc value="0.00666613418751203" flag="0"/>
			<vel value="0.00472700040077255" flag="0"/>
			<psa03 value="0.0174047183745077" flag="0"/>
			<psa10 value="0.00650730653056144" flag="0"/>
			<psa30 value="0.000276059414834737" flag="0"/>
		</comp>
		<comp name="00.HNN" depth="0.0">
			<acc value="0.00633717122819985" flag="0"/>
			<vel value="0.00426922800020459" flag="0"/>
			<psa03 value="0.0127962710928257" flag="0"/>
			<psa10 value="0.00612073386537958" flag="0"/>
			<psa30 value="0.000368675782534559" flag="0"/>
		</comp>
		<comp name="00.HNZ" depth="0.0">
			<acc value="0.00324956996483673" flag="0"/>
			<vel value="0.00220090926743733" flag="0"/>
			<psa03 value="0.00662184657950422" flag="0"/>
			<psa10 value="0.00365633312484517" flag="0"/>
			<psa30 value="0.00022550072135609" flag="0"/>
		</comp>
	</station>
	<station code="PATC" name="PATC" netid="HL" source="National Observatory of Athens Seismic Network" insttype="" lat="38.26933" lon="21.76001">
		<comp name="00.HNE" depth="0.0">
			<acc value="0.00574764621051451" flag="0"/>
			<vel value="0.00361198745039572" flag="0"/>
			<psa03 value="0.0111855516545679" flag="0"/>
			<psa10 value="0.00515430220242491" flag="0"/>
			<psa30 value="0.000718559838289444" flag="0"/>
		</comp>
		<comp name="00.HNN" depth="0.0">
			<acc value="0.00349421188439453" flag="0"/>
			<vel value="0.00360999621695378" flag="0"/>
			<psa03 value="0.00988802766263806" flag="0"/>
			<psa10 value="0.00512208781365975" flag="0"/>
			<psa30 value="0.000798200966069968" flag="0"/>
		</comp>
		<comp name="00.HNZ" depth="0.0">
			<acc value="0.00637099954839994" flag="0"/>
			<vel value="0.00187244343423428" flag="0"/>
			<psa03 value="0.00608494010008496" flag="0"/>
			<psa10 value="0.00351539517399761" flag="0"/>
			<psa30 value="0.000275611992768554" flag="0"/>
		</comp>
	</station>
	<station code="PATG" name="PATG" netid="HL" source="National Observatory of Athens Seismic Network" insttype="" lat="38.23865" lon="21.72657">
		<comp name="00.HNE" depth="0.0">
			<acc value="0.00690223473849664" flag="0"/>
			<vel value="0.0045399350553507" flag="0"/>
			<psa03 value="0.0149438970105028" flag="0"/>
			<psa10 value="0.00628985940639664" flag="0"/>
			<psa30 value="0.000729745389944012" flag="0"/>
		</comp>
		<comp name="00.HNN" depth="0.0">
			<acc value="0.0144455493552821" flag="0"/>
			<vel value="0.00477807359597833" flag="0"/>
			<psa03 value="0.0114987471008958" flag="0"/>
			<psa10 value="0.00746568459632482" flag="0"/>
			<psa30 value="0.000844732860952971" flag="0"/>
		</comp>
		<comp name="00.HNZ" depth="0.0">
			<acc value="0.0579830596935252" flag="0"/>
			<vel value="0.00896070224206634" flag="0"/>
			<psa03 value="0.0101564809023477" flag="0"/>
			<psa10 value="0.00344291279927601" flag="0"/>
			<psa30 value="0.000561962115125493" flag="0"/>
		</comp>
	</station>
	<station code="PLG" name="PLG" netid="HL" source="National Observatory of Athens Seismic Network" insttype="" lat="40.37328" lon="23.44443">
		<comp name="--.HNE" depth="0.0">
			<acc value="0.0" flag="1"/>
			<vel value="0.0" flag="1"/>
			<psa03 value="0.0" flag="1"/>
			<psa10 value="0.0" flag="1"/>
			<psa30 value="0.0" flag="1"/>
		</comp>
		<comp name="--.HNN" depth="0.0">
			<acc value="0.0" flag="1"/>
			<vel value="0.0" flag="1"/>
			<psa03 value="0.0" flag="1"/>
			<psa10 value="0.0" flag="1"/>
			<psa30 value="0.0" flag="1"/>
		</comp>
		<comp name="--.HNZ" depth="0.0">
			<acc value="0.0" flag="1"/>
			<vel value="0.0" flag="1"/>
			<psa03 value="0.0" flag="1"/>
			<psa10 value="0.0" flag="1"/>
			<psa30 value="0.0" flag="1"/>
		</comp>
	</station>
	<station code="RIOA" name="RIOA" netid="HL" source="National Observatory of Athens Seismic Network" insttype="" lat="38.29585" lon="21.79118">
		<comp name="00.HNE" depth="0.0">
			<acc value="0.00536464148227985" flag="0"/>
			<vel value="0.00264206988099273" flag="0"/>
			<psa03 value="0.00796411277805237" flag="0"/>
			<psa10 value="0.0037408958953537" flag="0"/>
			<psa30 value="0.00045771277370492" flag="0"/>
		</comp>
		<comp name="00.HNN" depth="0.0">
			<acc value="0.00892213244712635" flag="0"/>
			<vel value="0.00419591565060787" flag="0"/>
			<psa03 value="0.00930637897660052" flag="0"/>
			<psa10 value="0.00403485219283575" flag="0"/>
			<psa30 value="0.00053511679115453" flag="0"/>
		</comp>
		<comp name="00.HNZ" depth="0.0">
			<acc value="0.00972449244140224" flag="0"/>
			<vel value="0.00171321527672059" flag="0"/>
			<psa03 value="0.00671133099274076" flag="0"/>
			<psa10 value="0.00221071242900881" flag="0"/>
			<psa30 value="0.000434446826263419" flag="0"/>
		</comp>
	</station>
	<station code="ANX" name="ANX" netid="HP" source="University of Patras, Seismological Laboratory (PSLNET)" insttype="" lat="38.5933" lon="21.9209">
		<comp name="--.HNE" depth="0.0">
			<acc value="0.0165403847641143" flag="0"/>
			<vel value="0.00978972863760957" flag="0"/>
			<psa03 value="0.0817618121520877" flag="0"/>
			<psa10 value="0.00843532973669197" flag="0"/>
			<psa30 value="0.000488476057059789" flag="0"/>
		</comp>
		<comp name="--.HNN" depth="0.0">
			<acc value="0.0374103452199115" flag="0"/>
			<vel value="0.0188111087356978" flag="0"/>
			<psa03 value="0.157495016605063" flag="0"/>
			<psa10 value="0.01506532644145" flag="0"/>
			<psa30 value="0.000923910996236233" flag="0"/>
		</comp>
		<comp name="--.HNZ" depth="0.0">
			<acc value="0.0154727498020119" flag="0"/>
			<vel value="0.010581459500646" flag="0"/>
			<psa03 value="0.0466776129959044" flag="0"/>
			<psa10 value="0.00930964578086206" flag="0"/>
			<psa30 value="0.000541646402247791" flag="0"/>
		</comp>
	</station>
	<station code="PDO" name="PDO" netid="HP" source="University of Patras, Seismological Laboratory (PSLNET)" insttype="" lat="38.5986" lon="21.1833">
		<comp name="--.HNE" depth="0.0">
			<acc value="0.00674172586778296" flag="0"/>
			<vel value="0.00387515097910967" flag="0"/>
			<psa03 value="0.0220054968186646" flag="0"/>
			<psa10 value="0.00320190656372047" flag="0"/>
			<psa30 value="0.000263948318614059" flag="0"/>
		</comp>
		<comp name="--.HNN" depth="0.0">
			<acc value="0.00863407495952925" flag="0"/>
			<vel value="0.00412163820442621" flag="0"/>
			<psa03 value="0.0364719864025867" flag="0"/>
			<psa10 value="0.00331836537229441" flag="0"/>
			<psa30 value="0.000276595276204665" flag="0"/>
		</comp>
		<comp name="--.HNZ" depth="0.0">
			<acc value="0.00494559558738552" flag="0"/>
			<vel value="0.0021544573345189" flag="0"/>
			<psa03 value="0.0143310027440243" flag="0"/>
			<psa10 value="0.0016046311036233" flag="0"/>
			<psa30 value="0.000133623812859354" flag="0"/>
		</comp>
	</station>
	<station code="PVO" name="PVO" netid="HP" source="University of Patras, Seismological Laboratory (PSLNET)" insttype="" lat="38.616" lon="21.525">
		<comp name="--.HNE" depth="0.0">
			<acc value="0.00406849977679286" flag="0"/>
			<vel value="0.00267825422983999" flag="0"/>
			<psa03 value="0.0136887531668792" flag="0"/>
			<psa10 value="0.00383106464860682" flag="0"/>
			<psa30 value="0.000233288995917629" flag="0"/>
		</comp>
		<comp name="--.HNN" depth="0.0">
			<acc value="0.0047421957845377" flag="0"/>
			<vel value="0.00218435166690128" flag="0"/>
			<psa03 value="0.0147187458779934" flag="0"/>
			<psa10 value="0.00199552289672267" flag="0"/>
			<psa30 value="0.000176670635854384" flag="0"/>
		</comp>
		<comp name="--.HNZ" depth="0.0">
			<acc value="0.00315830092353363" flag="0"/>
			<vel value="0.00177106634282846" flag="0"/>
			<psa03 value="0.00868024364333059" flag="0"/>
			<psa10 value="0.00295176874331859" flag="0"/>
			<psa30 value="0.000312009966003788" flag="0"/>
		</comp>
	</station>
	<station code="SERG" name="SERG" netid="HP" source="University of Patras, Seismological Laboratory (PSLNET)" insttype="" lat="38.4133" lon="22.0566">
		<comp name="--.HNE" depth="0.0">
			<acc value="0.0102687152958459" flag="0"/>
			<vel value="0.00838594621147853" flag="0"/>
			<psa03 value="0.030972471045053" flag="0"/>
			<psa10 value="0.00741360548998605" flag="0"/>
			<psa30 value="0.000410550321943925" flag="0"/>
		</comp>
		<comp name="--.HNN" depth="0.0">
			<acc value="0.010394604389446" flag="0"/>
			<vel value="0.00516934979361295" flag="0"/>
			<psa03 value="0.0217460968221863" flag="0"/>
			<psa10 value="0.0037591550411994" flag="0"/>
			<psa30 value="0.000371696758502814" flag="0"/>
		</comp>
		<comp name="--.HNZ" depth="0.0">
			<acc value="0.00670252717290504" flag="0"/>
			<vel value="0.00400855611797538" flag="0"/>
			<psa03 value="0.0160913237837311" flag="0"/>
			<psa10 value="0.00437020153565454" flag="0"/>
			<psa30 value="0.000211842497067465" flag="0"/>
		</comp>
	</station>
</stationlist>
