<?xml version="1.0" encoding="UTF-8" standalone="yes"?>
<!DOCTYPE earthquake SYSTEM "stationlist.dtd">
<stationlist created="" xmlns="ch.ethz.sed.shakemap.usgs.xml">
  <station code="EVR" name="EVR" netid="HL" insttype="DR24" lat="38.9166" lon="21.8105">
    <comp name="--.HHN">
      <acc value="0.0257976711" flag="0"/>
      <vel value="0.0089061358" flag="0"/>
      <psa03 value="0.0467483863" flag="0"/>
      <psa10 value="0.0060406299" flag="0"/>
      <psa30 value="0.0007232382" flag="0"/>
    </comp>
    <comp name="--.HHE">
      <acc value="0.0140064085" flag="0"/>
      <vel value="0.0055301001" flag="0"/>
      <psa03 value="0.0286167325" flag="0"/>
      <psa10 value="0.0075112287" flag="0"/>
      <psa30 value="0.0004438131" flag="0"/>
    </comp>
    <comp name="--.HHZ">
      <acc value="0.0138610305" flag="0"/>
      <vel value="0.0056110335" flag="0"/>
      <psa03 value="0.0260393777" flag="0"/>
      <psa10 value="0.0044753715" flag="0"/>
      <psa30 value="0.0004044705" flag="0"/>
    </comp>
  </station>
  <station code="JAN" name="JAN" netid="HL" insttype="CMG3EPSC60_DR24" lat="39.6562" lon="20.8487">
    <comp name="--.HHZ">
      <acc value="0.0039111239" flag="0"/>
      <vel value="0.0016636399" flag="0"/>
      <psa03 value="0.0090841635" flag="0"/>
      <psa10 value="0.0019988131" flag="0"/>
      <psa30 value="0.0002973481" flag="0"/>
    </comp>
    <comp name="--.HHE">
      <acc value="0.0078470392" flag="0"/>
      <vel value="0.0036790091" flag="0"/>
      <psa03 value="0.0178465013" flag="0"/>
      <psa10 value="0.0049868235" flag="0"/>
      <psa30 value="0.0004318073" flag="0"/>
    </comp>
    <comp name="--.HHN">
      <acc value="0.0079902943" flag="0"/>
      <vel value="0.0033970481" flag="0"/>
      <psa03 value="0.0161436607" flag="0"/>
      <psa10 value="0.0039201286" flag="0"/>
      <psa30 value="0.0002708097" flag="0"/>
    </comp>
  </station>
  <station code="KZN" name="KZN" netid="HL" insttype="120" lat="40.3033" lon="21.7821">
    <comp name="--.HHE">
      <acc value="0.0364593425" flag="0"/>
      <vel value="0.0149015944" flag="0"/>
      <psa03 value="0.0938139929" flag="0"/>
      <psa10 value="0.0065295447" flag="0"/>
      <psa30 value="0.0005274993" flag="0"/>
    </comp>
    <comp name="--.HHN">
      <acc value="0.0266926064" flag="0"/>
      <vel value="0.0110660211" flag="0"/>
      <psa03 value="0.0454245647" flag="0"/>
      <psa10 value="0.0086232933" flag="0"/>
      <psa30 value="0.0005610054" flag="0"/>
    </comp>
    <comp name="--.HHZ">
      <acc value="0.0096661865" flag="0"/>
      <vel value="0.0069885185" flag="0"/>
      <psa03 value="0.0337870193" flag="0"/>
      <psa10 value="0.0078456110" flag="0"/>
      <psa30 value="0.0002850627" flag="0"/>
    </comp>
  </station>
  <station code="NEO" name="NEO" netid="HL" insttype="120" lat="39.3057" lon="23.2219">
    <comp name="--.HHE">
      <acc value="0.0200717680" flag="0"/>
      <vel value="0.0099801181" flag="0"/>
      <psa03 value="0.0447758402" flag="0"/>
      <psa10 value="0.0078879737" flag="0"/>
      <psa30 value="0.0004553922" flag="0"/>
    </comp>
    <comp name="--.HHZ">
      <acc value="0.0115937401" flag="0"/>
      <vel value="0.0065312188" flag="0"/>
      <psa03 value="0.0237840182" flag="0"/>
      <psa10 value="0.0062021797" flag="0"/>
      <psa30 value="0.0007131143" flag="0"/>
    </comp>
    <comp name="--.HHN">
      <acc value="0.0182073243" flag="0"/>
      <vel value="0.0096964787" flag="0"/>
      <psa03 value="0.0393618914" flag="0"/>
      <psa10 value="0.0060484412" flag="0"/>
      <psa30 value="0.0004117978" flag="0"/>
    </comp>
  </station>
  <station code="TETR" name="TETR" netid="HL" insttype="60" lat="39.3445" lon="21.2747">
    <comp name="--.HHE">
      <acc value="0.0808991008" flag="0"/>
      <vel value="0.0283958203" flag="0"/>
      <psa03 value="0.1765050195" flag="0"/>
      <psa10 value="0.0197096617" flag="0"/>
      <psa30 value="0.0011735642" flag="0"/>
    </comp>
    <comp name="--.HHZ">
      <acc value="0.0230884787" flag="0"/>
      <vel value="0.0113084122" flag="0"/>
      <psa03 value="0.0617981182" flag="0"/>
      <psa10 value="0.0082415966" flag="0"/>
      <psa30 value="0.0005939249" flag="0"/>
    </comp>
    <comp name="--.HHN">
      <acc value="0.0597190579" flag="0"/>
      <vel value="0.0201165741" flag="0"/>
      <psa03 value="0.1544541519" flag="0"/>
      <psa10 value="0.0151996759" flag="0"/>
      <psa30 value="0.0007700069" flag="0"/>
    </comp>
  </station>
  <station code="THL" name="THL" netid="HL" insttype="120" lat="39.5647" lon="22.0144">
    <comp name="--.HHN">
      <acc value="0.4533030892" flag="0"/>
      <vel value="0.1090595167" flag="0"/>
      <psa03 value="0.3118874261" flag="0"/>
      <psa10 value="0.0292541661" flag="0"/>
      <psa30 value="0.0037203253" flag="0"/>
    </comp>
    <comp name="--.HHE">
      <acc value="0.4644468677" flag="0"/>
      <vel value="0.1014136459" flag="0"/>
      <psa03 value="0.2435726787" flag="0"/>
      <psa10 value="0.0315670944" flag="0"/>
      <psa30 value="0.0028991148" flag="0"/>
    </comp>
    <comp name="--.HHZ">
      <acc value="0.4986492705" flag="0"/>
      <vel value="0.1677521699" flag="0"/>
      <psa03 value="0.5821117208" flag="0"/>
      <psa10 value="0.0460572776" flag="0"/>
      <psa30 value="0.0055628240" flag="0"/>
    </comp>
  </station>
  <station code="AMPL" name="AMPL" netid="HP" insttype="Compact," lat="38.9224" lon="21.2135">
    <comp name="--.HHE">
      <acc value="0.0070780874" flag="0"/>
      <vel value="0.0033542557" flag="0"/>
      <psa03 value="0.0226224942" flag="0"/>
      <psa10 value="0.0035522272" flag="0"/>
      <psa30 value="0.0002653749" flag="0"/>
    </comp>
    <comp name="--.HHN">
      <acc value="0.0048414995" flag="0"/>
      <vel value="0.0029995919" flag="0"/>
      <psa03 value="0.0136692572" flag="0"/>
      <psa10 value="0.0031786221" flag="0"/>
      <psa30 value="0.0003009448" flag="0"/>
    </comp>
    <comp name="--.HHZ">
      <acc value="0.0052982800" flag="0"/>
      <vel value="0.0035946806" flag="0"/>
      <psa03 value="0.0124215452" flag="0"/>
      <psa10 value="0.0046742291" flag="0"/>
      <psa30 value="0.0002106548" flag="0"/>
    </comp>
  </station>
  <station code="ANX" name="ANX" netid="HP" insttype="120" lat="38.5933" lon="21.9209">
    <comp name="--.HHZ">
      <acc value="0.0126482256" flag="0"/>
      <vel value="0.0086852387" flag="0"/>
      <psa03 value="0.0392973638" flag="0"/>
      <psa10 value="0.0077019169" flag="0"/>
      <psa30 value="0.0005129060" flag="0"/>
    </comp>
    <comp name="--.HHN">
      <acc value="0.0295597016" flag="0"/>
      <vel value="0.0146989942" flag="0"/>
      <psa03 value="0.1231947536" flag="0"/>
      <psa10 value="0.0118840506" flag="0"/>
      <psa30 value="0.0007538096" flag="0"/>
    </comp>
    <comp name="--.HHE">
      <acc value="0.0145225073" flag="0"/>
      <vel value="0.0081811388" flag="0"/>
      <psa03 value="0.0696025073" flag="0"/>
      <psa10 value="0.0069939001" flag="0"/>
      <psa30 value="0.0003812256" flag="0"/>
    </comp>
  </station>
  <station code="EFP" name="EFP" netid="HP" insttype="40," lat="38.4269" lon="21.9058">
    <comp name="--.HHE">
      <acc value="0.0075891458" flag="0"/>
      <vel value="0.0054432227" flag="0"/>
      <psa03 value="0.0305382077" flag="0"/>
      <psa10 value="0.0070712413" flag="0"/>
      <psa30 value="0.0005002476" flag="0"/>
    </comp>
    <comp name="--.HHZ">
      <acc value="0.0046988811" flag="0"/>
      <vel value="0.0039049026" flag="0"/>
      <psa03 value="0.0137915779" flag="0"/>
      <psa10 value="0.0040927008" flag="0"/>
      <psa30 value="0.0002900008" flag="0"/>
    </comp>
    <comp name="--.HHN">
      <acc value="0.0069311684" flag="0"/>
      <vel value="0.0039331608" flag="0"/>
      <psa03 value="0.0256110937" flag="0"/>
      <psa10 value="0.0039082061" flag="0"/>
      <psa30 value="0.0003310658" flag="0"/>
    </comp>
  </station>
  <station code="PRMD" name="PRMD" netid="HP" insttype="120P," lat="39.5299" lon="21.0965">
    <comp name="--.HHZ">
      <acc value="0.0117100888" flag="0"/>
      <vel value="0.0063589122" flag="0"/>
      <psa03 value="0.0350489700" flag="0"/>
      <psa10 value="0.0046648751" flag="0"/>
      <psa30 value="0.0004565830" flag="0"/>
    </comp>
    <comp name="--.HHN">
      <acc value="0.0249561215" flag="0"/>
      <vel value="0.0137644238" flag="0"/>
      <psa03 value="0.0651741525" flag="0"/>
      <psa10 value="0.0098570961" flag="0"/>
      <psa30 value="0.0005354934" flag="0"/>
    </comp>
    <comp name="--.HHE">
      <acc value="0.0143591118" flag="0"/>
      <vel value="0.0087248052" flag="0"/>
      <psa03 value="0.0455202089" flag="0"/>
      <psa10 value="0.0071775802" flag="0"/>
      <psa30 value="0.0004391860" flag="0"/>
    </comp>
  </station>
  <station code="SERG" name="SERG" netid="HP" insttype="2000" lat="38.4133" lon="22.0566">
    <comp name="00.HHE">
      <acc value="0.0109567673" flag="0"/>
      <vel value="0.0086975097" flag="0"/>
      <psa03 value="0.0341254645" flag="0"/>
      <psa10 value="0.0075881910" flag="0"/>
      <psa30 value="0.0004628331" flag="0"/>
    </comp>
    <comp name="00.HHN">
      <acc value="0.0106517541" flag="0"/>
      <vel value="0.0050601350" flag="0"/>
      <psa03 value="0.0210055681" flag="0"/>
      <psa10 value="0.0034599983" flag="0"/>
      <psa30 value="0.0004376657" flag="0"/>
    </comp>
    <comp name="00.HHZ">
      <acc value="0.0072268181" flag="0"/>
      <vel value="0.0042328705" flag="0"/>
      <psa03 value="0.0180066527" flag="0"/>
      <psa10 value="0.0043606908" flag="0"/>
      <psa30 value="0.0002256818" flag="0"/>
    </comp>
  </station>
  <station code="AGG" name="AGG" netid="HT" insttype="120P," lat="39.0211" lon="22.336">
    <comp name="--.HHE">
      <acc value="0.0262977331" flag="0"/>
      <vel value="0.0115784996" flag="0"/>
      <psa03 value="0.0945273793" flag="0"/>
      <psa10 value="0.0069673763" flag="0"/>
      <psa30 value="0.0004660761" flag="0"/>
    </comp>
    <comp name="--.HHZ">
      <acc value="0.0109841312" flag="0"/>
      <vel value="0.0048717276" flag="0"/>
      <psa03 value="0.0230721412" flag="0"/>
      <psa10 value="0.0057563647" flag="0"/>
      <psa30 value="0.0002892284" flag="0"/>
    </comp>
    <comp name="--.HHN">
      <acc value="0.0225614599" flag="0"/>
      <vel value="0.0134775222" flag="0"/>
      <psa03 value="0.0464421859" flag="0"/>
      <psa10 value="0.0093979297" flag="0"/>
      <psa30 value="0.0005596303" flag="0"/>
    </comp>
  </station>
  <station code="GRG" name="GRG" netid="HT" insttype="100" lat="40.957" lon="22.401">
    <comp name="--.HHZ">
      <acc value="0.0062172361" flag="0"/>
      <vel value="0.0041698165" flag="0"/>
      <psa03 value="0.0163308770" flag="0"/>
      <psa10 value="0.0040034087" flag="0"/>
      <psa30 value="0.0002824542" flag="0"/>
    </comp>
    <comp name="--.HHN">
      <acc value="0.0080998854" flag="0"/>
      <vel value="0.0054490248" flag="0"/>
      <psa03 value="0.0208353231" flag="0"/>
      <psa10 value="0.0059859032" flag="0"/>
      <psa30 value="0.0006147579" flag="0"/>
    </comp>
    <comp name="--.HHE">
      <acc value="0.0080651703" flag="0"/>
      <vel value="0.0060846756" flag="0"/>
      <psa03 value="0.0128628220" flag="0"/>
      <psa10 value="0.0105118723" flag="0"/>
      <psa30 value="0.0008360810" flag="0"/>
    </comp>
  </station>
  <station code="KPRO" name="KPRO" netid="HT" insttype="100" lat="39.9549" lon="21.3632">
    <comp name="--.HHN">
      <acc value="0.0181206086" flag="0"/>
      <vel value="0.0144568549" flag="0"/>
      <psa03 value="0.0454568600" flag="0"/>
      <psa10 value="0.0183874007" flag="0"/>
      <psa30 value="0.0010776280" flag="0"/>
    </comp>
    <comp name="--.HHE">
      <acc value="0.0191878540" flag="0"/>
      <vel value="0.0119228289" flag="0"/>
      <psa03 value="0.0679263858" flag="0"/>
      <psa10 value="0.0185551864" flag="0"/>
      <psa30 value="0.0008457651" flag="0"/>
    </comp>
    <comp name="--.HHZ">
      <acc value="0.0117170843" flag="0"/>
      <vel value="0.0064715315" flag="0"/>
      <psa03 value="0.0344301867" flag="0"/>
      <psa10 value="0.0103714600" flag="0"/>
      <psa30 value="0.0006095297" flag="0"/>
    </comp>
  </station>
  <station code="LIT" name="LIT" netid="HT" insttype="100" lat="40.1033" lon="22.4892">
    <comp name="--.HHN">
      <acc value="0.1469145056" flag="0"/>
      <vel value="0.0400752179" flag="0"/>
      <psa03 value="0.1728085021" flag="0"/>
      <psa10 value="0.0112748516" flag="0"/>
      <psa30 value="0.0007850651" flag="0"/>
    </comp>
    <comp name="--.HHE">
      <acc value="0.1756894134" flag="0"/>
      <vel value="0.0482893691" flag="0"/>
      <psa03 value="0.1473015389" flag="0"/>
      <psa10 value="0.0150522560" flag="0"/>
      <psa30 value="0.0011241464" flag="0"/>
    </comp>
    <comp name="--.HHZ">
      <acc value="0.0642920229" flag="0"/>
      <vel value="0.0238174700" flag="0"/>
      <psa03 value="0.0977687267" flag="0"/>
      <psa10 value="0.0112469255" flag="0"/>
      <psa30 value="0.0007942096" flag="0"/>
    </comp>
  </station>
  <station code="TYRN" name="TYRN" netid="HT" insttype="120P," lat="39.711" lon="22.2325">
    <comp name="--.HHZ">
      <acc value="2.0083382455" flag="0"/>
      <vel value="0.6539655174" flag="0"/>
      <psa03 value="1.9526370560" flag="0"/>
      <psa10 value="0.5257794673" flag="0"/>
      <psa30 value="0.1130837200" flag="0"/>
    </comp>
    <comp name="--.HHN">
      <acc value="1.7098440596" flag="0"/>
      <vel value="0.8981084785" flag="0"/>
      <psa03 value="2.0815699379" flag="0"/>
      <psa10 value="0.4304996056" flag="0"/>
      <psa30 value="0.1480704468" flag="0"/>
    </comp>
    <comp name="--.HHE">
      <acc value="1.6513555446" flag="0"/>
      <vel value="0.5764081358" flag="0"/>
      <psa03 value="1.7214530750" flag="0"/>
      <psa10 value="0.3082160187" flag="0"/>
      <psa30 value="0.0808845631" flag="0"/>
    </comp>
  </station>
  <station code="XOR" name="XOR" netid="HT" insttype="Compact," lat="39.366" lon="23.1918">
    <comp name="--.HHZ">
      <acc value="0.0161339872" flag="0"/>
      <vel value="0.0092973950" flag="0"/>
      <psa03 value="0.0466887816" flag="0"/>
      <psa10 value="0.0066539125" flag="0"/>
      <psa30 value="0.0009133041" flag="0"/>
    </comp>
    <comp name="--.HHE">
      <acc value="0.0225286923" flag="0"/>
      <vel value="0.0123549231" flag="0"/>
      <psa03 value="0.0493615530" flag="0"/>
      <psa10 value="0.0073462601" flag="0"/>
      <psa30 value="0.0011354960" flag="0"/>
    </comp>
    <comp name="--.HHN">
      <acc value="0.0241664315" flag="0"/>
      <vel value="0.0126582980" flag="0"/>
      <psa03 value="0.0583185059" flag="0"/>
      <psa10 value="0.0183508425" flag="0"/>
      <psa30 value="0.0008504091" flag="0"/>
    </comp>
  </station>
  <station code="THL" name="THL" netid="MN" insttype="" lat="39.5647" lon="22.0144">
    <comp name="--.HHE">
      <acc value="0.4644468677" flag="0"/>
      <vel value="0.1014136459" flag="0"/>
      <psa03 value="0.2435726787" flag="0"/>
      <psa10 value="0.0315670944" flag="0"/>
      <psa30 value="0.0028991148" flag="0"/>
    </comp>
    <comp name="--.HHN">
      <acc value="0.4533030892" flag="0"/>
      <vel value="0.1090595167" flag="0"/>
      <psa03 value="0.3118874261" flag="0"/>
      <psa10 value="0.0292541661" flag="0"/>
      <psa30 value="0.0037203253" flag="0"/>
    </comp>
    <comp name="--.HHZ">
      <acc value="0.4986492705" flag="0"/>
      <vel value="0.1677521699" flag="0"/>
      <psa03 value="0.5821117208" flag="0"/>
      <psa10 value="0.0460572776" flag="0"/>
      <psa30 value="0.0055628240" flag="0"/>
    </comp>
  </station>
</stationlist>
