<?xml version="1.0" encoding="UTF-8" standalone="yes"?>
<!DOCTYPE earthquake SYSTEM "stationlist.dtd">
<stationlist created="" xmlns="ch.ethz.sed.shakemap.usgs.xml">
  <station code="STU" name="STU" netid="GE" insttype="STS-2/N" lat="48.7719" lon="9.195">
    <comp name="--.HHE">
      <acc value="0.0485968744" flag="0"/>
      <vel value="0.0107024433" flag="0"/>
      <psa03 value="0.0296244063" flag="0"/>
      <psa10 value="0.0048203893" flag="0"/>
      <psa30 value="0.0003466369" flag="0"/>
    </comp>
    <comp name="--.HHN">
      <acc value="0.0321429270" flag="0"/>
      <vel value="0.0050289751" flag="0"/>
      <psa03 value="0.0235476082" flag="0"/>
      <psa10 value="0.0025380773" flag="0"/>
      <psa30 value="0.0001416610" flag="0"/>
    </comp>
    <comp name="--.HHZ">
      <acc value="0.0234734086" flag="0"/>
      <vel value="0.0050746125" flag="0"/>
      <psa03 value="0.0233541637" flag="0"/>
      <psa10 value="0.0015864239" flag="0"/>
      <psa30 value="0.0000840028" flag="0"/>
    </comp>
  </station>
  <station code="BFO" name="BFO" netid="GR" insttype="" lat="48.3301" lon="8.3296">
    <comp name="--.HHN">
      <acc value="0.0507527672" flag="0"/>
      <vel value="0.0090971417" flag="0"/>
      <psa03 value="0.0184644308" flag="0"/>
      <psa10 value="0.0048961131" flag="0"/>
      <psa30 value="0.0003080849" flag="0"/>
    </comp>
    <comp name="--.HHE">
      <acc value="0.0656570057" flag="0"/>
      <vel value="0.0142080758" flag="0"/>
      <psa03 value="0.0295803723" flag="0"/>
      <psa10 value="0.0018146305" flag="0"/>
      <psa30 value="0.0001638206" flag="0"/>
    </comp>
    <comp name="--.HHZ">
      <acc value="0.0358694045" flag="0"/>
      <vel value="0.0054872801" flag="0"/>
      <psa03 value="0.0192376484" flag="0"/>
      <psa10 value="0.0009686247" flag="0"/>
      <psa30 value="0.0000854964" flag="0"/>
    </comp>
  </station>
  <station code="UBR" name="UBR" netid="GR" insttype="STS-2" lat="47.6799" lon="10.1071">
    <comp name="--.HHN">
      <acc value="0.0248346803" flag="0"/>
      <vel value="0.0086845501" flag="0"/>
      <psa03 value="0.0509446100" flag="0"/>
      <psa10 value="0.0030747560" flag="0"/>
      <psa30 value="0.0002313880" flag="0"/>
    </comp>
    <comp name="--.HHZ">
      <acc value="0.0105953593" flag="0"/>
      <vel value="0.0031807358" flag="0"/>
      <psa03 value="0.0117687106" flag="0"/>
      <psa10 value="0.0008470924" flag="0"/>
      <psa30 value="0.0000719068" flag="0"/>
    </comp>
    <comp name="--.HHE">
      <acc value="0.0179148708" flag="0"/>
      <vel value="0.0083894216" flag="0"/>
      <psa03 value="0.0518492441" flag="0"/>
      <psa10 value="0.0034349718" flag="0"/>
      <psa30 value="0.0002002710" flag="0"/>
    </comp>
  </station>
</stationlist>
