<?xml version="1.0" encoding="UTF-8" standalone="yes"?>
<!DOCTYPE earthquake SYSTEM "stationlist.dtd">
<stationlist created="" xmlns="ch.ethz.sed.shakemap.usgs.xml">
  <station code="ACB" name="ACB" netid="CH" insttype="Trillium 240s_g2" lat="47.5877" lon="8.25474">
    <comp name="--.HHN">
      <acc value="0.0537372314" flag="0"/>
      <vel value="0.0211960610" flag="0"/>
      <psa03 value="0.0810002724" flag="0"/>
      <psa10 value="0.0048290712" flag="0"/>
      <psa30 value="0.0003667451" flag="0"/>
    </comp>
    <comp name="--.HHE">
      <acc value="0.0612708312" flag="0"/>
      <vel value="0.0189794565" flag="0"/>
      <psa03 value="0.1094386788" flag="0"/>
      <psa10 value="0.0084378797" flag="0"/>
      <psa30 value="0.0006152130" flag="0"/>
    </comp>
    <comp name="--.HHZ">
      <acc value="0.0350294651" flag="0"/>
      <vel value="0.0089129946" flag="0"/>
      <psa03 value="0.0621980032" flag="0"/>
      <psa10 value="0.0027402603" flag="0"/>
      <psa30 value="0.0002280107" flag="0"/>
    </comp>
  </station>
  <station code="BERGE" name="BERGE" netid="CH" insttype="Trillium Compact 120s" lat="47.8716" lon="8.17798">
    <comp name="--.HHN">
      <acc value="0.1035614186" flag="0"/>
      <vel value="0.0156572587" flag="0"/>
      <psa03 value="0.0461201598" flag="0"/>
      <psa10 value="0.0023355951" flag="0"/>
      <psa30 value="0.0002120388" flag="0"/>
    </comp>
    <comp name="--.HHE">
      <acc value="0.1360043291" flag="0"/>
      <vel value="0.0259220783" flag="0"/>
      <psa03 value="0.0397370637" flag="0"/>
      <psa10 value="0.0029072735" flag="0"/>
      <psa30 value="0.0003226332" flag="0"/>
    </comp>
    <comp name="--.HHZ">
      <acc value="0.0427721264" flag="0"/>
      <vel value="0.0130623171" flag="0"/>
      <psa03 value="0.0249237108" flag="0"/>
      <psa10 value="0.0039670957" flag="0"/>
      <psa30 value="0.0003030842" flag="0"/>
    </comp>
  </station>
  <station code="BOBI" name="BOBI" netid="CH" insttype="EpiSensor ES-T" lat="47.5463" lon="8.33992">
    <comp name="SF.HGZ">
      <acc value="0.0352884351" flag="0"/>
      <vel value="0.0092396327" flag="0"/>
      <psa03 value="0.0450494547" flag="0"/>
      <psa10 value="0.0027560870" flag="0"/>
      <psa30 value="0.0001853341" flag="0"/>
    </comp>
    <comp name="SF.HGE">
      <acc value="0.1024847378" flag="0"/>
      <vel value="0.0290675343" flag="0"/>
      <psa03 value="0.1299336955" flag="0"/>
      <psa10 value="0.0076625547" flag="0"/>
      <psa30 value="0.0007138890" flag="0"/>
    </comp>
    <comp name="SF.HGN">
      <acc value="0.0643153103" flag="0"/>
      <vel value="0.0229638512" flag="0"/>
      <psa03 value="0.0884243025" flag="0"/>
      <psa10 value="0.0060143284" flag="0"/>
      <psa30 value="0.0006170947" flag="0"/>
    </comp>
  </station>
  <station code="BULAC" name="BULAC" netid="CH" insttype="ABBT" lat="47.5424" lon="8.52044">
    <comp name="BT.HG1">
      <acc value="0.0256562337" flag="0"/>
      <vel value="0.0060418658" flag="0"/>
      <psa03 value="0.0217401465" flag="0"/>
      <psa10 value="0.0023178170" flag="0"/>
      <psa30 value="0.0001212698" flag="0"/>
    </comp>
    <comp name="BT.HG2">
      <acc value="0.0276318126" flag="0"/>
      <vel value="0.0072451093" flag="0"/>
      <psa03 value="0.0386060076" flag="0"/>
      <psa10 value="0.0015730440" flag="0"/>
      <psa30 value="0.0001245412" flag="0"/>
    </comp>
    <comp name="BT.HGZ">
      <acc value="0.0141949007" flag="0"/>
      <vel value="0.0032961718" flag="0"/>
      <psa03 value="0.0154732068" flag="0"/>
      <psa10 value="0.0012152400" flag="0"/>
      <psa30 value="0.0001372636" flag="0"/>
    </comp>
  </station>
  <station code="EMING" name="EMING" netid="CH" insttype="Trillium Compact 120s" lat="47.8952" lon="8.84676">
    <comp name="--.HHE">
      <acc value="0.0872610770" flag="0"/>
      <vel value="0.0116209804" flag="0"/>
      <psa03 value="0.0530528059" flag="0"/>
      <psa10 value="0.0043045621" flag="0"/>
      <psa30 value="0.0004394170" flag="0"/>
    </comp>
    <comp name="--.HHZ">
      <acc value="0.0556826124" flag="0"/>
      <vel value="0.0075725383" flag="0"/>
      <psa03 value="0.0298385957" flag="0"/>
      <psa10 value="0.0013204765" flag="0"/>
      <psa30 value="0.0001114402" flag="0"/>
    </comp>
    <comp name="--.HHN">
      <acc value="0.1269815032" flag="0"/>
      <vel value="0.0158786369" flag="0"/>
      <psa03 value="0.0630738071" flag="0"/>
      <psa10 value="0.0024777985" flag="0"/>
      <psa30 value="0.0002362992" flag="0"/>
    </comp>
  </station>
  <station code="EMMET" name="EMMET" netid="CH" insttype="Trillium Compact 120s" lat="47.4376" lon="8.01358">
    <comp name="--.HHZ">
      <acc value="0.0157560604" flag="0"/>
      <vel value="0.0048989377" flag="0"/>
      <psa03 value="0.0273272559" flag="0"/>
      <psa10 value="0.0019068175" flag="0"/>
      <psa30 value="0.0001731017" flag="0"/>
    </comp>
    <comp name="--.HHE">
      <acc value="0.0140761342" flag="0"/>
      <vel value="0.0058227530" flag="0"/>
      <psa03 value="0.0386653354" flag="0"/>
      <psa10 value="0.0049591354" flag="0"/>
      <psa30 value="0.0002323430" flag="0"/>
    </comp>
    <comp name="--.HHN">
      <acc value="0.0192219179" flag="0"/>
      <vel value="0.0084538278" flag="0"/>
      <psa03 value="0.0458352030" flag="0"/>
      <psa10 value="0.0092939403" flag="0"/>
      <psa30 value="0.0004622819" flag="0"/>
    </comp>
  </station>
  <station code="HAUIG" name="HAUIG" netid="CH" insttype="Trillium Compact 120s" lat="47.6604" lon="7.70018">
    <comp name="--.HHN">
      <acc value="0.0581851453" flag="0"/>
      <vel value="0.0122930959" flag="0"/>
      <psa03 value="0.0551771024" flag="0"/>
      <psa10 value="0.0024822105" flag="0"/>
      <psa30 value="0.0002313422" flag="0"/>
    </comp>
    <comp name="--.HHE">
      <acc value="0.0630474581" flag="0"/>
      <vel value="0.0153408396" flag="0"/>
      <psa03 value="0.0427642937" flag="0"/>
      <psa10 value="0.0026873454" flag="0"/>
      <psa30 value="0.0001993797" flag="0"/>
    </comp>
    <comp name="--.HHZ">
      <acc value="0.0365628025" flag="0"/>
      <vel value="0.0082175513" flag="0"/>
      <psa03 value="0.0171974183" flag="0"/>
      <psa10 value="0.0013461660" flag="0"/>
      <psa30 value="0.0000990243" flag="0"/>
    </comp>
  </station>
  <station code="LIENZ" name="LIENZ" netid="CH" insttype="STS2.5" lat="47.2944" lon="9.49177">
    <comp name="--.HHZ">
      <acc value="0.0052331707" flag="0"/>
      <vel value="0.0012274170" flag="0"/>
      <psa03 value="0.0055437846" flag="0"/>
      <psa10 value="0.0007588453" flag="0"/>
      <psa30 value="0.0000754799" flag="0"/>
    </comp>
    <comp name="--.HHE">
      <acc value="0.0064682412" flag="0"/>
      <vel value="0.0022942011" flag="0"/>
      <psa03 value="0.0078534843" flag="0"/>
      <psa10 value="0.0019110019" flag="0"/>
      <psa30 value="0.0001306446" flag="0"/>
    </comp>
    <comp name="--.HHN">
      <acc value="0.0079671370" flag="0"/>
      <vel value="0.0023715917" flag="0"/>
      <psa03 value="0.0084422268" flag="0"/>
      <psa10 value="0.0014152142" flag="0"/>
      <psa30 value="0.0001147924" flag="0"/>
    </comp>
  </station>
  <station code="METMA" name="METMA" netid="CH" insttype="Trillium Compact 120s" lat="47.7122" lon="8.25262">
    <comp name="--.HHE">
      <acc value="0.0441285656" flag="0"/>
      <vel value="0.0070752971" flag="0"/>
      <psa03 value="0.0235486843" flag="0"/>
      <psa10 value="0.0018858537" flag="0"/>
      <psa30 value="0.0001316568" flag="0"/>
    </comp>
    <comp name="--.HHN">
      <acc value="0.0468895125" flag="0"/>
      <vel value="0.0080103919" flag="0"/>
      <psa03 value="0.0285216769" flag="0"/>
      <psa10 value="0.0021028318" flag="0"/>
      <psa30 value="0.0000908229" flag="0"/>
    </comp>
    <comp name="--.HHZ">
      <acc value="0.0541803329" flag="0"/>
      <vel value="0.0130161809" flag="0"/>
      <psa03 value="0.0505822855" flag="0"/>
      <psa10 value="0.0029634123" flag="0"/>
      <psa30 value="0.0002147059" flag="0"/>
    </comp>
  </station>
  <station code="ROMAN" name="ROMAN" netid="CH" insttype="Trillium Borehole 120s" lat="47.5643" lon="9.33595">
    <comp name="BT.HH2">
      <acc value="0.0118048872" flag="0"/>
      <vel value="0.0039003923" flag="0"/>
      <psa03 value="0.0117851100" flag="0"/>
      <psa10 value="0.0021611491" flag="0"/>
      <psa30 value="0.0001174330" flag="0"/>
    </comp>
    <comp name="BT.HHZ">
      <acc value="0.0073757087" flag="0"/>
      <vel value="0.0023405646" flag="0"/>
      <psa03 value="0.0098295062" flag="0"/>
      <psa10 value="0.0011023543" flag="0"/>
      <psa30 value="0.0000730829" flag="0"/>
    </comp>
    <comp name="BT.HH3">
      <acc value="0.0167019419" flag="0"/>
      <vel value="0.0032001279" flag="0"/>
      <psa03 value="0.0122842083" flag="0"/>
      <psa10 value="0.0017370752" flag="0"/>
      <psa30 value="0.0001290141" flag="0"/>
    </comp>
  </station>
  <station code="ROTHE" name="ROTHE" netid="CH" insttype="Trillium Compact 120s" lat="47.4761" lon="7.92093">
    <comp name="--.HHN">
      <acc value="0.0172328281" flag="0"/>
      <vel value="0.0034150264" flag="0"/>
      <psa03 value="0.0183575519" flag="0"/>
      <psa10 value="0.0021319336" flag="0"/>
      <psa30 value="0.0001308624" flag="0"/>
    </comp>
    <comp name="--.HHZ">
      <acc value="0.0142769352" flag="0"/>
      <vel value="0.0047820995" flag="0"/>
      <psa03 value="0.0164226001" flag="0"/>
      <psa10 value="0.0021570907" flag="0"/>
      <psa30 value="0.0001347963" flag="0"/>
    </comp>
    <comp name="--.HHE">
      <acc value="0.0141451822" flag="0"/>
      <vel value="0.0032798172" flag="0"/>
      <psa03 value="0.0158855651" flag="0"/>
      <psa10 value="0.0035395079" flag="0"/>
      <psa30 value="0.0002284741" flag="0"/>
    </comp>
  </station>
  <station code="SARE" name="SARE" netid="CH" insttype="EpiSensor ES-T" lat="47.5149" lon="9.43023">
    <comp name="--.HGE">
      <acc value="0.0573859934" flag="0"/>
      <vel value="0.0111430498" flag="0"/>
      <psa03 value="0.0423970248" flag="0"/>
      <psa10 value="0.0071625576" flag="0"/>
      <psa30 value="0.0003776414" flag="0"/>
    </comp>
    <comp name="--.HGZ">
      <acc value="0.0547872649" flag="0"/>
      <vel value="0.0084747125" flag="0"/>
      <psa03 value="0.0198588767" flag="0"/>
      <psa10 value="0.0028979890" flag="0"/>
      <psa30 value="0.0002008704" flag="0"/>
    </comp>
    <comp name="--.HGN">
      <acc value="0.0604297979" flag="0"/>
      <vel value="0.0146372896" flag="0"/>
      <psa03 value="0.0705439764" flag="0"/>
      <psa10 value="0.0055352209" flag="0"/>
      <psa30 value="0.0004839030" flag="0"/>
    </comp>
  </station>
  <station code="SCHS" name="SCHS" netid="CH" insttype="EpiSensor ES-T" lat="47.7114" lon="8.63651">
    <comp name="--.HGN">
      <acc value="0.1326644659" flag="0"/>
      <vel value="0.0169978004" flag="0"/>
      <psa03 value="0.0280303725" flag="0"/>
      <psa10 value="0.0014848074" flag="0"/>
      <psa30 value="0.0001545975" flag="0"/>
    </comp>
    <comp name="--.HGE">
      <acc value="0.1506902216" flag="0"/>
      <vel value="0.0156819329" flag="0"/>
      <psa03 value="0.0436856106" flag="0"/>
      <psa10 value="0.0032119459" flag="0"/>
      <psa30 value="0.0002064841" flag="0"/>
    </comp>
    <comp name="--.HGZ">
      <acc value="0.0551562409" flag="0"/>
      <vel value="0.0059367725" flag="0"/>
      <psa03 value="0.0148246074" flag="0"/>
      <psa10 value="0.0010503399" flag="0"/>
      <psa30 value="0.0000688476" flag="0"/>
    </comp>
  </station>
  <station code="SFEL" name="SFEL" netid="CH" insttype="EpiSensor ES-T" lat="47.5326" lon="8.23088">
    <comp name="--.HGZ">
      <acc value="0.0455301522" flag="0"/>
      <vel value="0.0096851036" flag="0"/>
      <psa03 value="0.0307758382" flag="0"/>
      <psa10 value="0.0022837123" flag="0"/>
      <psa30 value="0.0001852475" flag="0"/>
    </comp>
  </station>
  <station code="SHEK" name="SHEK" netid="CH" insttype="EpiSensor ES-T" lat="47.4157" lon="9.62796">
    <comp name="--.HGE">
      <acc value="0.0299024855" flag="0"/>
      <vel value="0.0128259001" flag="0"/>
      <psa03 value="0.0758852905" flag="0"/>
      <psa10 value="0.0046059936" flag="0"/>
      <psa30 value="0.0003391398" flag="0"/>
    </comp>
    <comp name="--.HGN">
      <acc value="0.0804484200" flag="0"/>
      <vel value="0.0195093537" flag="0"/>
      <psa03 value="0.0734389134" flag="0"/>
      <psa10 value="0.0113734871" flag="0"/>
      <psa30 value="0.0004711096" flag="0"/>
    </comp>
  </station>
  <station code="SKRK" name="SKRK" netid="CH" insttype="EpiSensor ES-T" lat="47.6481" lon="9.18059">
    <comp name="--.HGN">
      <acc value="0.0849593097" flag="0"/>
      <vel value="0.0233346782" flag="0"/>
      <psa03 value="0.1288140780" flag="0"/>
      <psa10 value="0.0038797152" flag="0"/>
      <psa30 value="0.0004101244" flag="0"/>
    </comp>
    <comp name="--.HGE">
      <acc value="0.0899900890" flag="0"/>
      <vel value="0.0299850175" flag="0"/>
      <psa03 value="0.1838102021" flag="0"/>
      <psa10 value="0.0096338707" flag="0"/>
      <psa30 value="0.0008353684" flag="0"/>
    </comp>
  </station>
  <station code="TRULL" name="TRULL" netid="CH" insttype="STS2_gen2" lat="47.6487" lon="8.68161">
    <comp name="--.HHE">
      <acc value="0.0963913705" flag="0"/>
      <vel value="0.0245026153" flag="0"/>
      <psa03 value="0.1977767559" flag="0"/>
      <psa10 value="0.0072819612" flag="0"/>
      <psa30 value="0.0005597595" flag="0"/>
    </comp>
  </station>
  <station code="STU" name="STU" netid="GE" insttype="STS-2/N" lat="48.7719" lon="9.195">
    <comp name="--.HHE">
      <acc value="0.0485968744" flag="0"/>
      <vel value="0.0107024433" flag="0"/>
      <psa03 value="0.0296244063" flag="0"/>
      <psa10 value="0.0048203893" flag="0"/>
      <psa30 value="0.0003466369" flag="0"/>
    </comp>
    <comp name="--.HHN">
      <acc value="0.0321429270" flag="0"/>
      <vel value="0.0050289751" flag="0"/>
      <psa03 value="0.0235476082" flag="0"/>
      <psa10 value="0.0025380773" flag="0"/>
      <psa30 value="0.0001416610" flag="0"/>
    </comp>
    <comp name="--.HHZ">
      <acc value="0.0234734086" flag="0"/>
      <vel value="0.0050746125" flag="0"/>
      <psa03 value="0.0233541637" flag="0"/>
      <psa10 value="0.0015864239" flag="0"/>
      <psa30 value="0.0000840028" flag="0"/>
    </comp>
  </station>
  <station code="BFO" name="BFO" netid="GR" insttype="" lat="48.3301" lon="8.3296">
    <comp name="--.HHN">
      <acc value="0.0507527672" flag="0"/>
      <vel value="0.0090971417" flag="0"/>
      <psa03 value="0.0184644308" flag="0"/>
      <psa10 value="0.0048961131" flag="0"/>
      <psa30 value="0.0003080849" flag="0"/>
    </comp>
    <comp name="--.HHE">
      <acc value="0.0656570057" flag="0"/>
      <vel value="0.0142080758" flag="0"/>
      <psa03 value="0.0295803723" flag="0"/>
      <psa10 value="0.0018146305" flag="0"/>
      <psa30 value="0.0001638206" flag="0"/>
    </comp>
    <comp name="--.HHZ">
      <acc value="0.0358694045" flag="0"/>
      <vel value="0.0054872801" flag="0"/>
      <psa03 value="0.0192376484" flag="0"/>
      <psa10 value="0.0009686247" flag="0"/>
      <psa30 value="0.0000854964" flag="0"/>
    </comp>
  </station>
  <station code="UBR" name="UBR" netid="GR" insttype="STS-2" lat="47.6799" lon="10.1071">
    <comp name="--.HHN">
      <acc value="0.0248346803" flag="0"/>
      <vel value="0.0086845501" flag="0"/>
      <psa03 value="0.0509446100" flag="0"/>
      <psa10 value="0.0030747560" flag="0"/>
      <psa30 value="0.0002313880" flag="0"/>
    </comp>
    <comp name="--.HHZ">
      <acc value="0.0105953593" flag="0"/>
      <vel value="0.0031807358" flag="0"/>
      <psa03 value="0.0117687106" flag="0"/>
      <psa10 value="0.0008470924" flag="0"/>
      <psa30 value="0.0000719068" flag="0"/>
    </comp>
    <comp name="--.HHE">
      <acc value="0.0179148708" flag="0"/>
      <vel value="0.0083894216" flag="0"/>
      <psa03 value="0.0518492441" flag="0"/>
      <psa10 value="0.0034349718" flag="0"/>
      <psa30 value="0.0002002710" flag="0"/>
    </comp>
  </station>
</stationlist>
