<stationlist created="1778205355">
	<station code="ACB" name="ACB" netid="CH" source="Switzerland Seismological Network" insttype="" lat="47.58772" lon="8.25474">
		<comp name="--.HGE" depth="0.0">
			<acc value="0.0570408304281537" flag="0"/>
			<vel value="0.0180852050811747" flag="0"/>
			<psa03 value="0.100689888960815" flag="0"/>
			<psa10 value="0.00851391244241663" flag="0"/>
			<psa30 value="0.000579064662273879" flag="0"/>
		</comp>
		<comp name="--.HGN" depth="0.0">
			<acc value="0.0588802329286834" flag="0"/>
			<vel value="0.023859429811021" flag="0"/>
			<psa03 value="0.0962174989371097" flag="0"/>
			<psa10 value="0.00461281729525694" flag="0"/>
			<psa30 value="0.000398289275334955" flag="0"/>
		</comp>
		<comp name="--.HGZ" depth="0.0">
			<acc value="0.035090847403191" flag="0"/>
			<vel value="0.00912364058996837" flag="0"/>
			<psa03 value="0.0638478858591438" flag="0"/>
			<psa10 value="0.00275794512220304" flag="0"/>
			<psa30 value="0.000251363552643225" flag="0"/>
		</comp>
	</station>
	<station code="BALST" name="BALST" netid="CH" source="Switzerland Seismological Network" insttype="" lat="47.33599" lon="7.69485">
		<comp name="--.HGE" depth="0.0">
			<acc value="0.0195016979971699" flag="0"/>
			<vel value="0.006423718535454" flag="0"/>
			<psa03 value="0.0295497622142174" flag="0"/>
			<psa10 value="0.00140365071934683" flag="0"/>
			<psa30 value="0.000124397446449595" flag="0"/>
		</comp>
		<comp name="--.HGN" depth="0.0">
			<acc value="0.0178966755033205" flag="0"/>
			<vel value="0.00552350954958285" flag="0"/>
			<psa03 value="0.0186495440345095" flag="0"/>
			<psa10 value="0.00116633054492589" flag="0"/>
			<psa30 value="0.000118963401574693" flag="0"/>
		</comp>
		<comp name="--.HGZ" depth="0.0">
			<acc value="0.011194029785417" flag="0"/>
			<vel value="0.00311138424804811" flag="0"/>
			<psa03 value="0.0134865665959362" flag="0"/>
			<psa10 value="0.0011118123630514" flag="0"/>
			<psa30 value="9.66590985035269e-05" flag="0"/>
		</comp>
	</station>
	<station code="BLOTZ" name="BLOTZ" netid="CH" source="Switzerland Seismological Network" insttype="" lat="47.620722" lon="7.44">
		<comp name="SF.HGE" depth="1.0">
			<acc value="0.00672272374264664" flag="0"/>
			<vel value="0.0017211199990612" flag="0"/>
			<psa03 value="0.0106088147610827" flag="0"/>
			<psa10 value="0.000529393214233817" flag="0"/>
			<psa30 value="4.31794847779085e-05" flag="0"/>
		</comp>
		<comp name="SF.HGN" depth="1.0">
			<acc value="0.00802253082645234" flag="0"/>
			<vel value="0.00215608114833761" flag="0"/>
			<psa03 value="0.00952677302902323" flag="0"/>
			<psa10 value="0.000581883566463631" flag="0"/>
			<psa30 value="4.15607317101457e-05" flag="0"/>
		</comp>
		<comp name="SF.HGZ" depth="1.0">
			<acc value="0.00519454467416692" flag="0"/>
			<vel value="0.00119164566451225" flag="0"/>
			<psa03 value="0.00372110360120695" flag="0"/>
			<psa10 value="0.000307910573345688" flag="0"/>
			<psa30 value="2.56850576288032e-05" flag="0"/>
		</comp>
	</station>
	<station code="BNALP" name="BNALP" netid="CH" source="Switzerland Seismological Network" insttype="" lat="46.87034" lon="8.4249">
		<comp name="--.HGE" depth="0.0">
			<acc value="0.00556896579701795" flag="0"/>
			<vel value="0.00334624853662167" flag="0"/>
			<psa03 value="0.0131106328380119" flag="0"/>
			<psa10 value="0.00207983762278395" flag="0"/>
			<psa30 value="0.000171558539390223" flag="0"/>
		</comp>
		<comp name="--.HGN" depth="0.0">
			<acc value="0.00455087934244763" flag="0"/>
			<vel value="0.00222472023707709" flag="0"/>
			<psa03 value="0.0106253373400086" flag="0"/>
			<psa10 value="0.00146461335157209" flag="0"/>
			<psa30 value="8.28359041389864e-05" flag="0"/>
		</comp>
		<comp name="--.HGZ" depth="0.0">
			<acc value="0.00459815167725134" flag="0"/>
			<vel value="0.00149007320293443" flag="0"/>
			<psa03 value="0.00685324435836781" flag="0"/>
			<psa10 value="0.000922776930223342" flag="0"/>
			<psa30 value="6.34074295974911e-05" flag="0"/>
		</comp>
	</station>
	<station code="BOBI" name="BOBI" netid="CH" source="Switzerland Seismological Network" insttype="" lat="47.54631" lon="8.33985">
		<comp name="SF.HGE" depth="1.0">
			<acc value="0.102156370335223" flag="0"/>
			<vel value="0.0291373189389341" flag="0"/>
			<psa03 value="0.130437776279328" flag="0"/>
			<psa10 value="0.00767748093918785" flag="0"/>
			<psa30 value="0.000704090809225838" flag="0"/>
		</comp>
		<comp name="SF.HGN" depth="1.0">
			<acc value="0.0640783260800224" flag="0"/>
			<vel value="0.0229947330202255" flag="0"/>
			<psa03 value="0.088338768676589" flag="0"/>
			<psa10 value="0.00601493299104632" flag="0"/>
			<psa30 value="0.000623584330234625" flag="0"/>
		</comp>
		<comp name="SF.HGZ" depth="1.0">
			<acc value="0.0347144609118392" flag="0"/>
			<vel value="0.0092933312506276" flag="0"/>
			<psa03 value="0.0451586894584212" flag="0"/>
			<psa10 value="0.00276037973660967" flag="0"/>
			<psa30 value="0.000188093736328486" flag="0"/>
		</comp>
	</station>
	<station code="BOURR" name="BOURR" netid="CH" source="Switzerland Seismological Network" insttype="" lat="47.39364" lon="7.2301">
		<comp name="--.HGE" depth="0.0">
			<acc value="0.00341749538617913" flag="0"/>
			<vel value="0.00168667591131614" flag="0"/>
			<psa03 value="0.0103167876032116" flag="0"/>
			<psa10 value="0.00176242843192265" flag="0"/>
			<psa30 value="0.000124079157135258" flag="0"/>
		</comp>
		<comp name="--.HGN" depth="0.0">
			<acc value="0.00329280006556513" flag="0"/>
			<vel value="0.00139840337630473" flag="0"/>
			<psa03 value="0.0118657652153683" flag="0"/>
			<psa10 value="0.00149138063258363" flag="0"/>
			<psa30 value="7.85679326046247e-05" flag="0"/>
		</comp>
		<comp name="--.HGZ" depth="0.0">
			<acc value="0.00426768227045912" flag="0"/>
			<vel value="0.00210537230170947" flag="0"/>
			<psa03 value="0.0156268255650894" flag="0"/>
			<psa10 value="0.00128230932169827" flag="0"/>
			<psa30 value="7.68711991103518e-05" flag="0"/>
		</comp>
	</station>
	<station code="BULAC" name="BULAC" netid="CH" source="Switzerland Seismological Network" insttype="" lat="47.54236" lon="8.52044">
		<comp name="SF.HGE" depth="0.5">
			<acc value="0.0787168485885995" flag="0"/>
			<vel value="0.0188614540311581" flag="0"/>
			<psa03 value="0.135208831921339" flag="0"/>
			<psa10 value="0.00595460883861186" flag="0"/>
			<psa30 value="0.000462332189739894" flag="0"/>
		</comp>
		<comp name="SF.HGN" depth="0.5">
			<acc value="0.0914724599259995" flag="0"/>
			<vel value="0.0291231463997753" flag="0"/>
			<psa03 value="0.140956587682185" flag="0"/>
			<psa10 value="0.00634446122691553" flag="0"/>
			<psa30 value="0.000402720063644214" flag="0"/>
		</comp>
		<comp name="SF.HGZ" depth="0.5">
			<acc value="0.0418758011738722" flag="0"/>
			<vel value="0.00723314874910079" flag="0"/>
			<psa03 value="0.0272569853290041" flag="0"/>
			<psa10 value="0.00223772542582635" flag="0"/>
			<psa30 value="0.000170152235292352" flag="0"/>
		</comp>
	</station>
	<station code="CHASS" name="CHASS" netid="CH" source="Switzerland Seismological Network" insttype="" lat="47.1609" lon="7.12129">
		<comp name="--.HGE" depth="0.0">
			<acc value="0.00352675582934634" flag="0"/>
			<vel value="0.00149367597673198" flag="0"/>
			<psa03 value="0.00780584522392595" flag="0"/>
			<psa10 value="0.000880949647654753" flag="0"/>
			<psa30 value="8.34168931472718e-05" flag="0"/>
		</comp>
		<comp name="--.HGN" depth="0.0">
			<acc value="0.00623030147789244" flag="0"/>
			<vel value="0.00234469912054154" flag="0"/>
			<psa03 value="0.0084722370253898" flag="0"/>
			<psa10 value="0.000827551149328059" flag="0"/>
			<psa30 value="6.78903046911012e-05" flag="0"/>
		</comp>
		<comp name="--.HGZ" depth="0.0">
			<acc value="0.00208423684801375" flag="0"/>
			<vel value="0.000748726574939391" flag="0"/>
			<psa03 value="0.00610477615623055" flag="0"/>
			<psa10 value="0.000540383082882673" flag="0"/>
			<psa30 value="6.6146849352039e-05" flag="0"/>
		</comp>
	</station>
	<station code="DAVOX" name="DAVOX" netid="CH" source="Switzerland Seismological Network" insttype="" lat="46.7805" lon="9.87952">
		<comp name="--.HGE" depth="0.0">
			<acc value="0.00272064544694145" flag="0"/>
			<vel value="0.00119288565868845" flag="0"/>
			<psa03 value="0.00502933284310484" flag="0"/>
			<psa10 value="0.000760235361862683" flag="0"/>
			<psa30 value="5.79664246267171e-05" flag="0"/>
		</comp>
		<comp name="--.HGN" depth="0.0">
			<acc value="0.0034614432748285" flag="0"/>
			<vel value="0.00121206356675223" flag="0"/>
			<psa03 value="0.0044954127079036" flag="0"/>
			<psa10 value="0.000493898050353781" flag="0"/>
			<psa30 value="5.03316350050192e-05" flag="0"/>
		</comp>
		<comp name="--.HGZ" depth="0.0">
			<acc value="0.00261053501863608" flag="0"/>
			<vel value="0.000644331702320331" flag="0"/>
			<psa03 value="0.00331182974403072" flag="0"/>
			<psa10 value="0.000312584847836975" flag="0"/>
			<psa30 value="3.04273802479561e-05" flag="0"/>
		</comp>
	</station>
	<station code="FUSIO" name="FUSIO" netid="CH" source="Switzerland Seismological Network" insttype="" lat="46.45481" lon="8.6629">
		<comp name="--.HGE" depth="0.0">
			<acc value="0.00677137212139284" flag="0"/>
			<vel value="0.00200508488064344" flag="0"/>
			<psa03 value="0.00948753670586926" flag="0"/>
			<psa10 value="0.00133964054148742" flag="0"/>
			<psa30 value="0.000105360163187335" flag="0"/>
		</comp>
		<comp name="--.HGN" depth="0.0">
			<acc value="0.00387876216099073" flag="0"/>
			<vel value="0.0015290072963503" flag="0"/>
			<psa03 value="0.00762801117766368" flag="0"/>
			<psa10 value="0.000772649797537893" flag="0"/>
			<psa30 value="5.73956706711231e-05" flag="0"/>
		</comp>
		<comp name="--.HGZ" depth="0.0">
			<acc value="0.00382941375261456" flag="0"/>
			<vel value="0.0011997436572919" flag="0"/>
			<psa03 value="0.0056704055844678" flag="0"/>
			<psa10 value="0.00155896432842394" flag="0"/>
			<psa30 value="6.29574128072581e-05" flag="0"/>
		</comp>
	</station>
	<station code="GRIMS" name="GRIMS" netid="CH" source="Switzerland Seismological Network" insttype="" lat="46.578146" lon="8.318864">
		<comp name="--.HGE" depth="0.0">
			<acc value="0.00229266943634483" flag="0"/>
			<vel value="0.0010388833637594" flag="0"/>
			<psa03 value="0.00350544543470244" flag="0"/>
			<psa10 value="0.000415421289152528" flag="0"/>
			<psa30 value="5.30958024923827e-05" flag="0"/>
		</comp>
		<comp name="--.HGN" depth="0.0">
			<acc value="0.00133157880304068" flag="0"/>
			<vel value="0.000503098861095708" flag="0"/>
			<psa03 value="0.00257214793123999" flag="0"/>
			<psa10 value="0.000509797697375737" flag="0"/>
			<psa30 value="2.97712820971568e-05" flag="0"/>
		</comp>
		<comp name="--.HGZ" depth="0.0">
			<acc value="0.00127903912303817" flag="0"/>
			<vel value="0.000655217669977405" flag="0"/>
			<psa03 value="0.00293121240760403" flag="0"/>
			<psa10 value="0.000641377449044461" flag="0"/>
			<psa30 value="4.50436056628105e-05" flag="0"/>
		</comp>
	</station>
	<station code="HAUIG" name="HAUIG" netid="CH" source="Switzerland Seismological Network" insttype="" lat="47.66038" lon="7.70018">
		<comp name="--.HGE" depth="0.0">
			<acc value="0.0689505440106698" flag="0"/>
			<vel value="0.0165966061798836" flag="0"/>
			<psa03 value="0.0486492175636372" flag="0"/>
			<psa10 value="0.00263686858585091" flag="0"/>
			<psa30 value="0.000206616122200073" flag="0"/>
		</comp>
		<comp name="--.HGN" depth="0.0">
			<acc value="0.0588125326604998" flag="0"/>
			<vel value="0.0132765347489228" flag="0"/>
			<psa03 value="0.0486991844152603" flag="0"/>
			<psa10 value="0.00277329535782992" flag="0"/>
			<psa30 value="0.000236537909058866" flag="0"/>
		</comp>
		<comp name="--.HGZ" depth="0.0">
			<acc value="0.0374242675874993" flag="0"/>
			<vel value="0.00834080396633523" flag="0"/>
			<psa03 value="0.0174479917813273" flag="0"/>
			<psa10 value="0.00138723599914073" flag="0"/>
			<psa30 value="0.0001001932649164" flag="0"/>
		</comp>
	</station>
	<station code="LIENZ" name="LIENZ" netid="CH" source="Switzerland Seismological Network" insttype="" lat="47.294601" lon="9.4927">
		<comp name="--.HGE" depth="0.0">
			<acc value="0.00678181733674978" flag="0"/>
			<vel value="0.00244138885095137" flag="0"/>
			<psa03 value="0.00900656148423453" flag="0"/>
			<psa10 value="0.00192676666227283" flag="0"/>
			<psa30 value="0.000136892675238681" flag="0"/>
		</comp>
		<comp name="--.HGN" depth="0.0">
			<acc value="0.00781796373044901" flag="0"/>
			<vel value="0.00264809967001636" flag="0"/>
			<psa03 value="0.00804899674820903" flag="0"/>
			<psa10 value="0.00157934517073989" flag="0"/>
			<psa30 value="0.000127285020549435" flag="0"/>
		</comp>
		<comp name="--.HGZ" depth="0.0">
			<acc value="0.0053756253936582" flag="0"/>
			<vel value="0.0012919856503397" flag="0"/>
			<psa03 value="0.00584972931274563" flag="0"/>
			<psa10 value="0.000798209322763395" flag="0"/>
			<psa30 value="8.23426553177815e-05" flag="0"/>
		</comp>
	</station>
	<station code="MUO" name="MUO" netid="CH" source="Switzerland Seismological Network" insttype="" lat="46.96765" lon="8.63706">
		<comp name="--.HGE" depth="0.0">
			<acc value="0.031503201980055" flag="0"/>
			<vel value="0.0162942870940919" flag="0"/>
			<psa03 value="0.0691330536839984" flag="0"/>
			<psa10 value="0.00956746598515155" flag="0"/>
			<psa30 value="0.000515217307700698" flag="0"/>
		</comp>
		<comp name="--.HGN" depth="0.0">
			<acc value="0.0122164908107029" flag="0"/>
			<vel value="0.007019848034541" flag="0"/>
			<psa03 value="0.0296571651624657" flag="0"/>
			<psa10 value="0.00266462769038179" flag="0"/>
			<psa30 value="0.000215496163584088" flag="0"/>
		</comp>
		<comp name="--.HGZ" depth="0.0">
			<acc value="0.0119626812046264" flag="0"/>
			<vel value="0.00490807471486671" flag="0"/>
			<psa03 value="0.0413033116625282" flag="0"/>
			<psa10 value="0.00190987777003027" flag="0"/>
			<psa30 value="0.000126468482083046" flag="0"/>
		</comp>
	</station>
	<station code="MUTEZ" name="MUTEZ" netid="CH" source="Switzerland Seismological Network" insttype="" lat="47.50647" lon="7.64884">
		<comp name="--.HGE" depth="0.0">
			<acc value="0.0355162800852221" flag="0"/>
			<vel value="0.0120503636646923" flag="0"/>
			<psa03 value="0.0381349871932591" flag="0"/>
			<psa10 value="0.00208013436119256" flag="0"/>
			<psa30 value="0.00018652277288485" flag="0"/>
		</comp>
		<comp name="--.HGN" depth="0.0">
			<acc value="0.0250590154594071" flag="0"/>
			<vel value="0.00767506908699888" flag="0"/>
			<psa03 value="0.0296951338235608" flag="0"/>
			<psa10 value="0.00247030903647616" flag="0"/>
			<psa30 value="0.000143184797790004" flag="0"/>
		</comp>
		<comp name="--.HGZ" depth="0.0">
			<acc value="0.0373194654671023" flag="0"/>
			<vel value="0.00739364971426376" flag="0"/>
			<psa03 value="0.0161748787980035" flag="0"/>
			<psa10 value="0.00142605681301678" flag="0"/>
			<psa30 value="0.000117741510734547" flag="0"/>
		</comp>
	</station>
	<station code="NALPS" name="NALPS" netid="CH" source="Switzerland Seismological Network" insttype="" lat="46.595121" lon="8.74828">
		<comp name="--.HGE" depth="0.0">
			<acc value="0.00612870388389569" flag="0"/>
			<vel value="0.00125479851852784" flag="0"/>
			<psa03 value="0.00678641441040975" flag="0"/>
			<psa10 value="0.000857177233005527" flag="0"/>
			<psa30 value="8.69420094815302e-05" flag="0"/>
		</comp>
		<comp name="--.HGN" depth="0.0">
			<acc value="0.00445908447767953" flag="0"/>
			<vel value="0.00119651982646271" flag="0"/>
			<psa03 value="0.00663640382188182" flag="0"/>
			<psa10 value="0.000604320775472094" flag="0"/>
			<psa30 value="5.86566005558777e-05" flag="0"/>
		</comp>
		<comp name="--.HGZ" depth="0.0">
			<acc value="0.00410854986663202" flag="0"/>
			<vel value="0.000923936012661075" flag="0"/>
			<psa03 value="0.00532101101950465" flag="0"/>
			<psa10 value="0.000988986335804318" flag="0"/>
			<psa30 value="0.000111608200787001" flag="0"/>
		</comp>
	</station>
	<station code="OTTER" name="OTTER" netid="CH" source="Switzerland Seismological Network" insttype="" lat="47.5778" lon="7.6038">
		<comp name="--.HGE" depth="0.0">
			<acc value="0.0266098853041559" flag="0"/>
			<vel value="0.00562987757327047" flag="0"/>
			<psa03 value="0.0188238941260358" flag="0"/>
			<psa10 value="0.00260978030701082" flag="0"/>
			<psa30 value="0.000152644981772505" flag="0"/>
		</comp>
		<comp name="--.HGN" depth="0.0">
			<acc value="0.0241015583793" flag="0"/>
			<vel value="0.00524917617453073" flag="0"/>
			<psa03 value="0.024601973509995" flag="0"/>
			<psa10 value="0.00261894474223445" flag="0"/>
			<psa30 value="0.000147689236812013" flag="0"/>
		</comp>
		<comp name="--.HGZ" depth="0.0">
			<acc value="0.0113115419307888" flag="0"/>
			<vel value="0.00386212298644916" flag="0"/>
			<psa03 value="0.0154999043967587" flag="0"/>
			<psa10 value="0.00132882681731906" flag="0"/>
			<psa30 value="0.000137672622739692" flag="0"/>
		</comp>
	</station>
	<station code="PANIX" name="PANIX" netid="CH" source="Switzerland Seismological Network" insttype="" lat="46.825743" lon="9.111708">
		<comp name="--.HGE" depth="0.0">
			<acc value="0.00898363834218191" flag="0"/>
			<vel value="0.0022355918231441" flag="0"/>
			<psa03 value="0.0154133439750458" flag="0"/>
			<psa10 value="0.000952939826804142" flag="0"/>
			<psa30 value="8.02864904609429e-05" flag="0"/>
		</comp>
		<comp name="--.HGN" depth="0.0">
			<acc value="0.00716732442391423" flag="0"/>
			<vel value="0.00261656591693978" flag="0"/>
			<psa03 value="0.0130200513165629" flag="0"/>
			<psa10 value="0.00057031123735209" flag="0"/>
			<psa30 value="6.98668353663869e-05" flag="0"/>
		</comp>
		<comp name="--.HGZ" depth="0.0">
			<acc value="0.00629717127100687" flag="0"/>
			<vel value="0.00165362477616911" flag="0"/>
			<psa03 value="0.0126771705295089" flag="0"/>
			<psa10 value="0.000783406447614616" flag="0"/>
			<psa30 value="4.53521352155479e-05" flag="0"/>
		</comp>
	</station>
	<station code="ROMAN" name="ROMAN" netid="CH" source="Switzerland Seismological Network" insttype="" lat="47.5643" lon="9.33601">
		<comp name="SF.HGE" depth="1.0">
			<acc value="0.0678947011222672" flag="0"/>
			<vel value="0.0193533887101477" flag="0"/>
			<psa03 value="0.090093499502273" flag="0"/>
			<psa10 value="0.00377147695121457" flag="0"/>
			<psa30 value="0.000352887726038508" flag="0"/>
		</comp>
		<comp name="SF.HGN" depth="1.0">
			<acc value="0.0633288500081113" flag="0"/>
			<vel value="0.0209420138336011" flag="0"/>
			<psa03 value="0.081729580850321" flag="0"/>
			<psa10 value="0.00408303329342329" flag="0"/>
			<psa30 value="0.000355800288773047" flag="0"/>
		</comp>
		<comp name="SF.HGZ" depth="1.0">
			<acc value="0.027918598525219" flag="0"/>
			<vel value="0.00496822623485294" flag="0"/>
			<psa03 value="0.0174582385538818" flag="0"/>
			<psa10 value="0.000913393046870733" flag="0"/>
			<psa30 value="8.09477647357926e-05" flag="0"/>
		</comp>
	</station>
	<station code="SAARA" name="SAARA" netid="CH" source="Switzerland Seismological Network" insttype="" lat="47.38613" lon="8.04375">
		<comp name="--.HGE" depth="1.0">
			<acc value="0.00978395779691832" flag="0"/>
			<vel value="0.00158214441088634" flag="0"/>
			<psa03 value="0.00309094369214313" flag="0"/>
			<psa10 value="0.000308285012212888" flag="0"/>
			<psa30 value="3.49852245004805e-05" flag="0"/>
		</comp>
		<comp name="--.HGN" depth="1.0">
			<acc value="0.00964720657236893" flag="0"/>
			<vel value="0.00174513601276495" flag="0"/>
			<psa03 value="0.00459541607740529" flag="0"/>
			<psa10 value="0.000585132101973933" flag="0"/>
			<psa30 value="5.14509376691261e-05" flag="0"/>
		</comp>
		<comp name="--.HGZ" depth="1.0">
			<acc value="0.00760552730228283" flag="0"/>
			<vel value="0.000761903486865019" flag="0"/>
			<psa03 value="0.00213979035086933" flag="0"/>
			<psa10 value="0.00034564425465756" flag="0"/>
