<?xml version="1.0" encoding="UTF-8" standalone="yes"?>
<!DOCTYPE earthquake SYSTEM "stationlist.dtd">
<stationlist created="" xmlns="ch.ethz.sed.shakemap.usgs.xml">
  <station code="BNN" name="BNN" netid="KO" insttype="CMG-3T" lat="38.8521" lon="35.8472">
    <comp name="--.HHZ">
      <acc value="0.0351309747" flag="0"/>
      <vel value="0.0284100053" flag="0"/>
      <psa03 value="0.0686234209" flag="0"/>
      <psa10 value="0.0429972323" flag="0"/>
      <psa30 value="0.0045470544" flag="0"/>
    </comp>
    <comp name="--.HHN">
      <acc value="0.0644707262" flag="0"/>
      <vel value="0.0524544218" flag="0"/>
      <psa03 value="0.0890634855" flag="0"/>
      <psa10 value="0.1280716713" flag="0"/>
      <psa30 value="0.0057834556" flag="0"/>
    </comp>
    <comp name="--.HHE">
      <acc value="0.0732233056" flag="0"/>
      <vel value="0.0744291360" flag="0"/>
      <psa03 value="0.1503686226" flag="0"/>
      <psa10 value="0.1169154736" flag="0"/>
      <psa30 value="0.0050857471" flag="0"/>
    </comp>
  </station>
  <station code="CEYT" name="CEYT" netid="KO" insttype="CMG-3ESP" lat="37.0105" lon="35.7478">
    <comp name="--.HHE">
      <acc value="0.0206779566" flag="0"/>
      <vel value="0.0170240257" flag="0"/>
      <psa03 value="0.0458093979" flag="0"/>
      <psa10 value="0.0400288230" flag="0"/>
      <psa30 value="0.0057052559" flag="0"/>
    </comp>
    <comp name="--.HHN">
      <acc value="0.0126928292" flag="0"/>
      <vel value="0.0192244405" flag="0"/>
      <psa03 value="0.0282442794" flag="0"/>
      <psa10 value="0.0248001274" flag="0"/>
      <psa30 value="0.0034330653" flag="0"/>
    </comp>
    <comp name="--.HHZ">
      <acc value="0.0124053179" flag="0"/>
      <vel value="0.0167925092" flag="0"/>
      <psa03 value="0.0186030337" flag="0"/>
      <psa10 value="0.0251281445" flag="0"/>
      <psa30 value="0.0056255265" flag="0"/>
    </comp>
  </station>
  <station code="CMRD" name="CMRD" netid="KO" insttype="CMG-5T" lat="37.6623" lon="34.9902">
    <comp name="--.HNN">
      <acc value="0.0222400115" flag="0"/>
      <vel value="0.0269455788" flag="0"/>
      <psa03 value="0.0544145699" flag="0"/>
      <psa10 value="0.0262538357" flag="0"/>
      <psa30 value="0.0047489826" flag="0"/>
    </comp>
    <comp name="--.HNZ">
      <acc value="0.0147803097" flag="0"/>
      <vel value="0.0144905281" flag="0"/>
      <psa03 value="0.0363428163" flag="0"/>
      <psa10 value="0.0298282035" flag="0"/>
      <psa30 value="0.0040205645" flag="0"/>
    </comp>
    <comp name="--.HNE">
      <acc value="0.0167838881" flag="0"/>
      <vel value="0.0191042545" flag="0"/>
      <psa03 value="0.0309175046" flag="0"/>
      <psa10 value="0.0354101663" flag="0"/>
      <psa30 value="0.0026390843" flag="0"/>
    </comp>
  </station>
  <station code="DARE" name="DARE" netid="KO" insttype="CMG-3ESP" lat="38.5712" lon="37.4832">
    <comp name="--.HHN">
      <acc value="0.0661624391" flag="0"/>
      <vel value="0.0421307013" flag="0"/>
      <psa03 value="0.1539613536" flag="0"/>
      <psa10 value="0.0379570015" flag="0"/>
      <psa30 value="0.0037763879" flag="0"/>
    </comp>
    <comp name="--.HHE">
      <acc value="0.0779478114" flag="0"/>
      <vel value="0.0447122743" flag="0"/>
      <psa03 value="0.1755494699" flag="0"/>
      <psa10 value="0.0641537674" flag="0"/>
      <psa30 value="0.0039813539" flag="0"/>
    </comp>
    <comp name="--.HHZ">
      <acc value="0.0698955340" flag="0"/>
      <vel value="0.0321173497" flag="0"/>
      <psa03 value="0.1250895586" flag="0"/>
      <psa10 value="0.0449061559" flag="0"/>
      <psa30 value="0.0024173150" flag="0"/>
    </comp>
  </station>
  <station code="GAZ" name="GAZ" netid="KO" insttype="CMG-3T" lat="37.1721" lon="37.2096">
    <comp name="--.HHE">
      <acc value="0.0724032052" flag="0"/>
      <vel value="0.0429031365" flag="0"/>
      <psa03 value="0.0880293447" flag="0"/>
      <psa10 value="0.0660178987" flag="0"/>
      <psa30 value="0.0065708087" flag="0"/>
    </comp>
    <comp name="--.HHN">
      <acc value="0.0505286819" flag="0"/>
      <vel value="0.0499355199" flag="0"/>
      <psa03 value="0.1403105950" flag="0"/>
      <psa10 value="0.0639361121" flag="0"/>
      <psa30 value="0.0078434858" flag="0"/>
    </comp>
    <comp name="--.HHZ">
      <acc value="0.0370020483" flag="0"/>
      <vel value="0.0206683503" flag="0"/>
      <psa03 value="0.0707240116" flag="0"/>
      <psa10 value="0.0380413681" flag="0"/>
      <psa30 value="0.0039048244" flag="0"/>
    </comp>
  </station>
  <station code="KMRS" name="KMRS" netid="KO" insttype="CMG-3T" lat="37.5053" lon="36.9">
    <comp name="--.HHE">
      <acc value="0.0358252480" flag="0"/>
      <vel value="0.0149061720" flag="0"/>
      <psa03 value="0.0478260266" flag="0"/>
      <psa10 value="0.0056397232" flag="0"/>
      <psa30 value="0.0005529384" flag="0"/>
    </comp>
    <comp name="--.HHN">
      <acc value="0.0387502633" flag="0"/>
      <vel value="0.0137603826" flag="0"/>
      <psa03 value="0.0507629002" flag="0"/>
      <psa10 value="0.0070291894" flag="0"/>
      <psa30 value="0.0014681272" flag="0"/>
    </comp>
    <comp name="--.HHZ">
      <acc value="0.0387904050" flag="0"/>
      <vel value="0.0135642439" flag="0"/>
      <psa03 value="0.0968958827" flag="0"/>
      <psa10 value="0.0123135156" flag="0"/>
      <psa30 value="0.0011813962" flag="0"/>
    </comp>
  </station>
  <station code="SARI" name="SARI" netid="KO" insttype="CMG-3T" lat="38.4072" lon="36.4181">
    <comp name="--.HHE">
      <acc value="0.8370190325" flag="0"/>
      <vel value="0.2899199556" flag="0"/>
      <psa03 value="1.7595881123" flag="0"/>
      <psa10 value="0.1953420535" flag="0"/>
      <psa30 value="0.0172621000" flag="0"/>
    </comp>
    <comp name="--.HHZ">
      <acc value="0.3949843673" flag="0"/>
      <vel value="0.1941924372" flag="0"/>
      <psa03 value="0.7799939106" flag="0"/>
      <psa10 value="0.1391621657" flag="0"/>
      <psa30 value="0.0081609877" flag="0"/>
    </comp>
    <comp name="--.HHN">
      <acc value="0.5700618336" flag="0"/>
      <vel value="0.2152094436" flag="0"/>
      <psa03 value="0.9680754428" flag="0"/>
      <psa10 value="0.1679048330" flag="0"/>
      <psa30 value="0.0164347303" flag="0"/>
    </comp>
  </station>
  <station code="ANDN" name="ANDN" netid="TU" insttype="T" lat="37.58" lon="36.3452">
    <comp name="--.HHE">
      <acc value="0.2738775460" flag="0"/>
      <vel value="0.1180582619" flag="0"/>
      <psa03 value="0.4777654610" flag="0"/>
      <psa10 value="0.1559194964" flag="0"/>
      <psa30 value="0.0279248164" flag="0"/>
    </comp>
    <comp name="--.HHZ">
      <acc value="0.1770683261" flag="0"/>
      <vel value="0.1208932602" flag="0"/>
      <psa03 value="0.4058432790" flag="0"/>
      <psa10 value="0.2359773583" flag="0"/>
      <psa30 value="0.0183080389" flag="0"/>
    </comp>
    <comp name="--.HHN">
      <acc value="0.3432119814" flag="0"/>
      <vel value="0.1403980120" flag="0"/>
      <psa03 value="0.7276036069" flag="0"/>
      <psa10 value="0.2230086748" flag="0"/>
      <psa30 value="0.0162943528" flag="0"/>
    </comp>
  </station>
</stationlist>
