<?xml version="1.0" encoding="UTF-8" standalone="yes"?>
<!DOCTYPE earthquake SYSTEM "stationlist.dtd">
<stationlist created="" xmlns="ch.ethz.sed.shakemap.usgs.xml">
  <station code="GVDS" name="GVDS" netid="HC" insttype="60" lat="34.8389" lon="24.0585">
    <comp name="--.HHE">
      <acc value="0.0154645304" flag="0"/>
      <vel value="0.0070786032" flag="0"/>
      <psa03 value="0.0464555691" flag="0"/>
      <psa10 value="0.0105200276" flag="0"/>
      <psa30 value="0.0008768115" flag="0"/>
    </comp>
    <comp name="--.HHN">
      <acc value="0.0145019755" flag="0"/>
      <vel value="0.0053085163" flag="0"/>
      <psa03 value="0.0297627259" flag="0"/>
      <psa10 value="0.0062213440" flag="0"/>
      <psa30 value="0.0011628668" flag="0"/>
    </comp>
    <comp name="--.HHZ">
      <acc value="0.0070484483" flag="0"/>
      <vel value="0.0036933113" flag="0"/>
      <psa03 value="0.0131892876" flag="0"/>
      <psa10 value="0.0044558254" flag="0"/>
      <psa30 value="0.0004743452" flag="0"/>
    </comp>
  </station>
  <station code="IMOD" name="IMOD" netid="HC" insttype="120" lat="34.9731" lon="24.7995">
    <comp name="--.HHE">
      <acc value="0.0461036003" flag="0"/>
      <vel value="0.0286162923" flag="0"/>
      <psa03 value="0.1282457901" flag="0"/>
      <psa10 value="0.0247984329" flag="0"/>
      <psa30 value="0.0017633295" flag="0"/>
    </comp>
    <comp name="--.HHN">
      <acc value="0.0664650511" flag="0"/>
      <vel value="0.0313460749" flag="0"/>
      <psa03 value="0.1688423727" flag="0"/>
      <psa10 value="0.0333772143" flag="0"/>
      <psa30 value="0.0019771299" flag="0"/>
    </comp>
    <comp name="--.HHZ">
      <acc value="0.0528625323" flag="0"/>
      <vel value="0.0200413593" flag="0"/>
      <psa03 value="0.1058090193" flag="0"/>
      <psa10 value="0.0170678639" flag="0"/>
      <psa30 value="0.0015975270" flag="0"/>
    </comp>
  </station>
  <station code="IPPL" name="IPPL" netid="HC" insttype="60" lat="35.3486" lon="24.4632">
    <comp name="--.HHE">
      <acc value="0.0166854254" flag="0"/>
      <vel value="0.0107524915" flag="0"/>
      <psa03 value="0.0347778081" flag="0"/>
      <psa10 value="0.0153882871" flag="0"/>
      <psa30 value="0.0017557323" flag="0"/>
    </comp>
    <comp name="--.HHZ">
      <acc value="0.0084973454" flag="0"/>
      <vel value="0.0050773263" flag="0"/>
      <psa03 value="0.0285915607" flag="0"/>
      <psa10 value="0.0054333467" flag="0"/>
      <psa30 value="0.0008358547" flag="0"/>
    </comp>
    <comp name="--.HHN">
      <acc value="0.0113346862" flag="0"/>
      <vel value="0.0128116395" flag="0"/>
      <psa03 value="0.0410988655" flag="0"/>
      <psa10 value="0.0198572799" flag="0"/>
      <psa30 value="0.0010494313" flag="0"/>
    </comp>
  </station>
  <station code="KNSS" name="KNSS" netid="HC" insttype="60" lat="35.3042" lon="25.1802">
    <comp name="--.HHN">
      <acc value="0.0257050972" flag="0"/>
      <vel value="0.0155255667" flag="0"/>
      <psa03 value="0.0861355023" flag="0"/>
      <psa10 value="0.0164571070" flag="0"/>
      <psa30 value="0.0012416646" flag="0"/>
    </comp>
    <comp name="--.HHE">
      <acc value="0.0224981410" flag="0"/>
      <vel value="0.0135153862" flag="0"/>
      <psa03 value="0.0931979280" flag="0"/>
      <psa10 value="0.0112759727" flag="0"/>
      <psa30 value="0.0006425649" flag="0"/>
    </comp>
    <comp name="--.HHZ">
      <acc value="0.0153399986" flag="0"/>
      <vel value="0.0077502133" flag="0"/>
      <psa03 value="0.0383100962" flag="0"/>
      <psa10 value="0.0115993792" flag="0"/>
      <psa30 value="0.0010843355" flag="0"/>
    </comp>
  </station>
  <station code="PFKS" name="PFKS" netid="HC" insttype="120" lat="35.0429" lon="25.4733">
    <comp name="--.HHN">
      <acc value="0.2506382271" flag="0"/>
      <vel value="0.0915378219" flag="0"/>
      <psa03 value="0.8088378120" flag="0"/>
      <psa10 value="0.0326482009" flag="0"/>
      <psa30 value="0.0034491827" flag="0"/>
    </comp>
    <comp name="--.HHZ">
      <acc value="0.1042245770" flag="0"/>
      <vel value="0.0313382114" flag="0"/>
      <psa03 value="0.2777275393" flag="0"/>
      <psa10 value="0.0157245739" flag="0"/>
      <psa30 value="0.0018377743" flag="0"/>
    </comp>
    <comp name="--.HHE">
      <acc value="0.1616538682" flag="0"/>
      <vel value="0.0650692122" flag="0"/>
      <psa03 value="0.5473961578" flag="0"/>
      <psa10 value="0.0474287344" flag="0"/>
      <psa30 value="0.0020060633" flag="0"/>
    </comp>
  </station>
  <station code="STIA" name="STIA" netid="HC" insttype="120" lat="35.2021" lon="26.0909">
    <comp name="--.HHN">
      <acc value="0.0364046155" flag="0"/>
      <vel value="0.0187418495" flag="0"/>
      <psa03 value="0.0760236252" flag="0"/>
      <psa10 value="0.0279350814" flag="0"/>
      <psa30 value="0.0018398607" flag="0"/>
    </comp>
    <comp name="--.HHE">
      <acc value="0.0273469382" flag="0"/>
      <vel value="0.0170091893" flag="0"/>
      <psa03 value="0.0693424908" flag="0"/>
      <psa10 value="0.0276189965" flag="0"/>
      <psa30 value="0.0017277839" flag="0"/>
    </comp>
    <comp name="--.HHZ">
      <acc value="0.0300960129" flag="0"/>
      <vel value="0.0147743523" flag="0"/>
      <psa03 value="0.0770916322" flag="0"/>
      <psa10 value="0.0155992352" flag="0"/>
      <psa30 value="0.0009007911" flag="0"/>
    </comp>
  </station>
  <station code="TEFL" name="TEFL" netid="HC" insttype="GEOtiny," lat="35.0933" lon="25.1634">
    <comp name="--.HHN">
      <acc value="0.1342975313" flag="0"/>
      <vel value="0.0563128082" flag="0"/>
      <psa03 value="0.2800264471" flag="0"/>
      <psa10 value="0.0745843171" flag="0"/>
      <psa30 value="0.0024968196" flag="0"/>
    </comp>
    <comp name="--.HHE">
      <acc value="0.1591620799" flag="0"/>
      <vel value="0.0568962240" flag="0"/>
      <psa03 value="0.2616251958" flag="0"/>
      <psa10 value="0.0327768885" flag="0"/>
      <psa30 value="0.0025715454" flag="0"/>
    </comp>
    <comp name="--.HHZ">
      <acc value="0.0729536210" flag="0"/>
      <vel value="0.0307106895" flag="0"/>
      <psa03 value="0.1883693691" flag="0"/>
      <psa10 value="0.0280894159" flag="0"/>
      <psa30 value="0.0012959630" flag="0"/>
    </comp>
  </station>
  <station code="GVD" name="GVD" netid="HL" insttype="120" lat="34.8391" lon="24.0874">
    <comp name="--.HHE">
      <acc value="0.2104184024" flag="0"/>
      <vel value="0.0198008960" flag="0"/>
      <psa03 value="0.0502010877" flag="0"/>
      <psa10 value="0.0141775298" flag="0"/>
      <psa30 value="0.0031141240" flag="0"/>
    </comp>
    <comp name="--.HHZ">
      <acc value="0.0088576242" flag="0"/>
      <vel value="0.0054850509" flag="0"/>
      <psa03 value="0.0194793074" flag="0"/>
      <psa10 value="0.0069464897" flag="0"/>
      <psa30 value="0.0005353104" flag="0"/>
    </comp>
    <comp name="--.HHN">
      <acc value="0.0135093262" flag="0"/>
      <vel value="0.0089252851" flag="0"/>
      <psa03 value="0.0415452819" flag="0"/>
      <psa10 value="0.0100542753" flag="0"/>
      <psa30 value="0.0011844302" flag="0"/>
    </comp>
  </station>
  <station code="IACM" name="IACM" netid="HL" insttype="120" lat="35.3058" lon="25.0709">
    <comp name="--.HHE">
      <acc value="0.0864050113" flag="0"/>
      <vel value="0.0764034538" flag="0"/>
      <psa03 value="0.2533486464" flag="0"/>
      <psa10 value="0.1405418905" flag="0"/>
      <psa30 value="0.0054390522" flag="0"/>
    </comp>
    <comp name="--.HHN">
      <acc value="0.0736051931" flag="0"/>
      <vel value="0.0713950523" flag="0"/>
      <psa03 value="0.1594160845" flag="0"/>
      <psa10 value="0.0927613325" flag="0"/>
      <psa30 value="0.0055452675" flag="0"/>
    </comp>
    <comp name="--.HHZ">
      <acc value="0.0408478040" flag="0"/>
      <vel value="0.0271787272" flag="0"/>
      <psa03 value="0.1162989206" flag="0"/>
      <psa10 value="0.0373224658" flag="0"/>
      <psa30 value="0.0017085960" flag="0"/>
    </comp>
  </station>
  <station code="NPS" name="NPS" netid="HL" insttype="CMG3ESPC-120s" lat="35.2613" lon="25.6104">
    <comp name="--.HHE">
      <acc value="0.0086073076" flag="0"/>
      <vel value="0.0050255922" flag="0"/>
      <psa03 value="0.0251944939" flag="0"/>
      <psa10 value="0.0054704359" flag="0"/>
      <psa30 value="0.0003556769" flag="0"/>
    </comp>
    <comp name="--.HHZ">
      <acc value="0.0248104514" flag="0"/>
      <vel value="0.0081707443" flag="0"/>
      <psa03 value="0.0431746628" flag="0"/>
      <psa10 value="0.0121644202" flag="0"/>
      <psa30 value="0.0012720499" flag="0"/>
    </comp>
    <comp name="--.HHN">
      <acc value="0.0307226091" flag="0"/>
      <vel value="0.0135911805" flag="0"/>
      <psa03 value="0.0573211431" flag="0"/>
      <psa10 value="0.0113889891" flag="0"/>
      <psa30 value="0.0010467584" flag="0"/>
    </comp>
  </station>
  <station code="VAM" name="VAM" netid="HL" insttype="CMG3ESPC-120s" lat="35.407" lon="24.1997">
    <comp name="--.HHZ">
      <acc value="0.0070114509" flag="0"/>
      <vel value="0.0033868057" flag="0"/>
      <psa03 value="0.0136570245" flag="0"/>
      <psa10 value="0.0042243432" flag="0"/>
      <psa30 value="0.0004446292" flag="0"/>
    </comp>
    <comp name="--.HHN">
      <acc value="0.0106027156" flag="0"/>
      <vel value="0.0064894248" flag="0"/>
      <psa03 value="0.0455085922" flag="0"/>
      <psa10 value="0.0101478625" flag="0"/>
      <psa30 value="0.0013322555" flag="0"/>
    </comp>
    <comp name="--.HHE">
      <acc value="0.0089418366" flag="0"/>
      <vel value="0.0056137820" flag="0"/>
      <psa03 value="0.0233230184" flag="0"/>
      <psa10 value="0.0078005477" flag="0"/>
      <psa30 value="0.0007759666" flag="0"/>
    </comp>
  </station>
  <station code="ZKR" name="ZKR" netid="HL" insttype="120" lat="35.1147" lon="26.2169">
    <comp name="--.HHE">
      <acc value="0.0215199885" flag="0"/>
      <vel value="0.0200117028" flag="0"/>
      <psa03 value="0.0642860999" flag="0"/>
      <psa10 value="0.0169307840" flag="0"/>
      <psa30 value="0.0024173951" flag="0"/>
    </comp>
    <comp name="--.HHN">
      <acc value="0.0159267033" flag="0"/>
      <vel value="0.0102757556" flag="0"/>
      <psa03 value="0.0444442701" flag="0"/>
      <psa10 value="0.0202010843" flag="0"/>
      <psa30 value="0.0006607932" flag="0"/>
    </comp>
    <comp name="--.HHZ">
      <acc value="0.0153831066" flag="0"/>
      <vel value="0.0079703020" flag="0"/>
      <psa03 value="0.0290496464" flag="0"/>
      <psa10 value="0.0111019073" flag="0"/>
      <psa30 value="0.0009178004" flag="0"/>
    </comp>
  </station>
</stationlist>
