<?xml version="1.0" encoding="UTF-8" standalone="yes"?>
<!DOCTYPE earthquake SYSTEM "stationlist.dtd">
<stationlist created="" xmlns="ch.ethz.sed.shakemap.usgs.xml">
  <station code="AGRB" name="AGRB" netid="KO" insttype="120s," lat="39.5755" lon="42.992">
    <comp name="--.HHE">
      <acc value="0.0094795826" flag="0"/>
      <vel value="0.0040149883" flag="0"/>
      <psa03 value="0.0179372968" flag="0"/>
      <psa10 value="0.0057228909" flag="0"/>
      <psa30 value="0.0003502843" flag="0"/>
    </comp>
    <comp name="--.HHZ">
      <acc value="0.0057468284" flag="0"/>
      <vel value="0.0029768336" flag="0"/>
      <psa03 value="0.0151794875" flag="0"/>
      <psa10 value="0.0023398219" flag="0"/>
      <psa30 value="0.0003547165" flag="0"/>
    </comp>
    <comp name="--.HHN">
      <acc value="0.0066894588" flag="0"/>
      <vel value="0.0034287351" flag="0"/>
      <psa03 value="0.0163479390" flag="0"/>
      <psa10 value="0.0033237084" flag="0"/>
      <psa30 value="0.0003095027" flag="0"/>
    </comp>
  </station>
  <station code="TASB" name="TASB" netid="KO" insttype="120s," lat="39.9839" lon="44.2384">
    <comp name="--.HHE">
      <acc value="0.0042619540" flag="0"/>
      <vel value="0.0047403096" flag="0"/>
      <psa03 value="0.0115865702" flag="0"/>
      <psa10 value="0.0071149112" flag="0"/>
      <psa30 value="0.0018374756" flag="0"/>
    </comp>
    <comp name="--.HHN">
      <acc value="0.0043531903" flag="0"/>
      <vel value="0.0040429078" flag="0"/>
      <psa03 value="0.0105256883" flag="0"/>
      <psa10 value="0.0056510056" flag="0"/>
      <psa30 value="0.0015841378" flag="0"/>
    </comp>
    <comp name="--.HHZ">
      <acc value="0.0032863825" flag="0"/>
      <vel value="0.0025267620" flag="0"/>
      <psa03 value="0.0082906201" flag="0"/>
      <psa10 value="0.0037974200" flag="0"/>
      <psa30 value="0.0005974713" flag="0"/>
    </comp>
  </station>
  <station code="VANB" name="VANB" netid="KO" insttype="360s," lat="38.509" lon="43.4058">
    <comp name="--.HHE">
      <acc value="0.0000409095" flag="0"/>
      <vel value="0.0000087929" flag="0"/>
      <psa03 value="0.0000245508" flag="0"/>
      <psa10 value="0.0000115776" flag="0"/>
      <psa30 value="0.0000005590" flag="0"/>
    </comp>
    <comp name="--.HHN">
      <acc value="0.0058758682" flag="0"/>
      <vel value="0.0082190534" flag="0"/>
      <psa03 value="0.0120197001" flag="0"/>
      <psa10 value="0.0215198758" flag="0"/>
      <psa30 value="0.0010876286" flag="0"/>
    </comp>
    <comp name="--.HHZ">
      <acc value="0.0031135334" flag="0"/>
      <vel value="0.0033138293" flag="0"/>
      <psa03 value="0.0065040835" flag="0"/>
      <psa10 value="0.0108789734" flag="0"/>
      <psa30 value="0.0005665889" flag="0"/>
    </comp>
  </station>
</stationlist>
