<stationlist created="1778138932">
	<station code="ERCV" name="ERCV" netid="KO" source="Bogazici University Kandilli Observatory And Earthquake Research Institute (KOERI)" insttype="" lat="39.0198" lon="43.3381">
		<comp name="--.HNE" depth="0.0">
			<acc value="0.0860485048586829" flag="0"/>
			<vel value="0.0441036218647086" flag="0"/>
			<psa03 value="0.309466708984022" flag="0"/>
			<psa10 value="0.029997408431088" flag="0"/>
			<psa30 value="0.00587467333494591" flag="0"/>
		</comp>
		<comp name="--.HNN" depth="0.0">
			<acc value="0.0727597566894601" flag="0"/>
			<vel value="0.0381075148288858" flag="0"/>
			<psa03 value="0.334906123387181" flag="0"/>
			<psa10 value="0.0388791893054887" flag="0"/>
			<psa30 value="0.00950848239030472" flag="0"/>
		</comp>
		<comp name="--.HNZ" depth="0.0">
			<acc value="0.0580727360764341" flag="0"/>
			<vel value="0.0169434898258271" flag="0"/>
			<psa03 value="0.0881812061553" flag="0"/>
			<psa10 value="0.0230264391385857" flag="0"/>
			<psa30 value="0.00155015206496446" flag="0"/>
		</comp>
	</station>
</stationlist>
