<?xml version="1.0" encoding="UTF-8" standalone="yes"?>
<!DOCTYPE earthquake SYSTEM "stationlist.dtd">
<stationlist created="" xmlns="ch.ethz.sed.shakemap.usgs.xml">
  <station code="CEYT" name="CEYT" netid="KO" insttype="CMG-3ESP" lat="37.0105" lon="35.7478">
    <comp name="--.HHZ">
      <acc value="0.0111550181" flag="0"/>
      <vel value="0.0061497383" flag="0"/>
      <psa03 value="0.0365396092" flag="0"/>
      <psa10 value="0.0051608307" flag="0"/>
      <psa30 value="0.0005335714" flag="0"/>
    </comp>
  </station>
  <station code="GAZ" name="GAZ" netid="KO" insttype="CMG-3T" lat="37.1721" lon="37.2096">
    <comp name="--.HHE">
      <acc value="0.1402726785" flag="0"/>
      <vel value="0.0895781140" flag="0"/>
      <psa03 value="0.2169104784" flag="0"/>
      <psa10 value="0.1348304193" flag="0"/>
      <psa30 value="0.0069347137" flag="0"/>
    </comp>
    <comp name="--.HHN">
      <acc value="0.1188682552" flag="0"/>
      <vel value="0.0536583278" flag="0"/>
      <psa03 value="0.2001032724" flag="0"/>
      <psa10 value="0.0902092758" flag="0"/>
      <psa30 value="0.0042123272" flag="0"/>
    </comp>
  </station>
  <station code="KHMN" name="KHMN" netid="KO" insttype="CMG-5T" lat="37.3916" lon="37.1574">
    <comp name="--.HNE">
      <acc value="0.2716476001" flag="0"/>
      <vel value="0.0464106504" flag="0"/>
      <psa03 value="0.1586288540" flag="0"/>
      <psa10 value="0.0311637549" flag="0"/>
      <psa30 value="0.0027584556" flag="0"/>
    </comp>
    <comp name="--.HNZ">
      <acc value="0.1086299974" flag="0"/>
      <vel value="0.0190482038" flag="0"/>
      <psa03 value="0.0945748726" flag="0"/>
      <psa10 value="0.0207986512" flag="0"/>
      <psa30 value="0.0019675310" flag="0"/>
    </comp>
    <comp name="--.HNN">
      <acc value="0.1503755508" flag="0"/>
      <vel value="0.0368298040" flag="0"/>
      <psa03 value="0.1112074324" flag="0"/>
      <psa10 value="0.0275469038" flag="0"/>
      <psa30 value="0.0019991264" flag="0"/>
    </comp>
  </station>
  <station code="ANDN" name="ANDN" netid="TU" insttype="T" lat="37.58" lon="36.3452">
    <comp name="--.HHZ">
      <acc value="0.1696989331" flag="0"/>
      <vel value="0.0941915418" flag="0"/>
      <psa03 value="0.2434340393" flag="0"/>
      <psa10 value="0.0924761434" flag="0"/>
      <psa30 value="0.0036814462" flag="0"/>
    </comp>
    <comp name="--.HHE">
      <acc value="0.2705319647" flag="0"/>
      <vel value="0.1019290605" flag="0"/>
      <psa03 value="0.4536187276" flag="0"/>
      <psa10 value="0.0783900360" flag="0"/>
      <psa30 value="0.0044943006" flag="0"/>
    </comp>
    <comp name="--.HHN">
      <acc value="0.4335581949" flag="0"/>
      <vel value="0.1151950309" flag="0"/>
      <psa03 value="0.4375700670" flag="0"/>
      <psa10 value="0.0534658013" flag="0"/>
      <psa30 value="0.0048316270" flag="0"/>
    </comp>
  </station>
</stationlist>
