<?xml version="1.0" encoding="UTF-8" standalone="yes"?>
<!DOCTYPE earthquake SYSTEM "stationlist.dtd">
<stationlist created="" xmlns="ch.ethz.sed.shakemap.usgs.xml">
  <station code="IMMV" name="IMMV" netid="GE" insttype="STS-2/N" lat="35.4606" lon="23.9811">
    <comp name="--.HHE">
      <acc value="0.0647145112" flag="0"/>
      <vel value="0.0286776445" flag="0"/>
      <psa03 value="0.1223616372" flag="0"/>
      <psa10 value="0.0194850919" flag="0"/>
      <psa30 value="0.0009576037" flag="0"/>
    </comp>
    <comp name="--.HHN">
      <acc value="0.0626014654" flag="0"/>
      <vel value="0.0278867384" flag="0"/>
      <psa03 value="0.1831152849" flag="0"/>
      <psa10 value="0.0116572695" flag="0"/>
      <psa30 value="0.0007309890" flag="0"/>
    </comp>
    <comp name="--.HHZ">
      <acc value="0.0422699446" flag="0"/>
      <vel value="0.0172823802" flag="0"/>
      <psa03 value="0.0938080401" flag="0"/>
      <psa10 value="0.0068177754" flag="0"/>
      <psa30 value="0.0004209976" flag="0"/>
    </comp>
  </station>
  <station code="CHAN" name="CHAN" netid="HC" insttype="120" lat="35.5193" lon="24.0428">
    <comp name="--.HHN">
      <acc value="0.0547784377" flag="0"/>
      <vel value="0.0308648602" flag="0"/>
      <psa03 value="0.1357534486" flag="0"/>
      <psa10 value="0.0230972147" flag="0"/>
      <psa30 value="0.0014414727" flag="0"/>
    </comp>
    <comp name="--.HHE">
      <acc value="0.0946337147" flag="0"/>
      <vel value="0.0362265505" flag="0"/>
      <psa03 value="0.2285977652" flag="0"/>
      <psa10 value="0.0264901080" flag="0"/>
      <psa30 value="0.0014581798" flag="0"/>
    </comp>
    <comp name="--.HHZ">
      <acc value="0.0575137452" flag="0"/>
      <vel value="0.0193345266" flag="0"/>
      <psa03 value="0.1213371662" flag="0"/>
      <psa10 value="0.0111346103" flag="0"/>
      <psa30 value="0.0005903513" flag="0"/>
    </comp>
  </station>
  <station code="IPPL" name="IPPL" netid="HC" insttype="60" lat="35.3486" lon="24.4632">
    <comp name="--.HHE">
      <acc value="0.0000000000" flag="0"/>
      <vel value="-100.0000000000" flag="0"/>
      <psa03 value="0.0000000000" flag="0"/>
      <psa10 value="0.0000000000" flag="0"/>
      <psa30 value="0.0000000000" flag="0"/>
    </comp>
    <comp name="--.HHN">
      <acc value="0.0000000000" flag="0"/>
      <vel value="-100.0000000000" flag="0"/>
      <psa03 value="0.0000000000" flag="0"/>
      <psa10 value="0.0000000000" flag="0"/>
      <psa30 value="0.0000000000" flag="0"/>
    </comp>
    <comp name="--.HHZ">
      <acc value="0.0142627168" flag="0"/>
      <vel value="0.0072816056" flag="0"/>
      <psa03 value="0.0455019152" flag="0"/>
      <psa10 value="0.0026774223" flag="0"/>
      <psa30 value="0.0002328043" flag="0"/>
    </comp>
  </station>
  <station code="KNDR" name="KNDR" netid="HC" insttype="120" lat="35.2348" lon="23.6248">
    <comp name="--.HHE">
      <acc value="0.0923152099" flag="0"/>
      <vel value="0.0304462649" flag="0"/>
      <psa03 value="0.1880091170" flag="0"/>
      <psa10 value="0.0152955148" flag="0"/>
      <psa30 value="0.0009786214" flag="0"/>
    </comp>
    <comp name="--.HHN">
      <acc value="0.0908775061" flag="0"/>
      <vel value="0.0260831997" flag="0"/>
      <psa03 value="0.1529090386" flag="0"/>
      <psa10 value="0.0156817588" flag="0"/>
      <psa30 value="0.0011744357" flag="0"/>
    </comp>
    <comp name="--.HHZ">
      <acc value="0.0783791430" flag="0"/>
      <vel value="0.0206092066" flag="0"/>
      <psa03 value="0.0849868693" flag="0"/>
      <psa10 value="0.0060250249" flag="0"/>
      <psa30 value="0.0005844133" flag="0"/>
    </comp>
  </station>
  <station code="ANKY" name="ANKY" netid="HL" insttype="60" lat="35.867" lon="23.3012">
    <comp name="--.HHN">
      <acc value="0.0373707687" flag="0"/>
      <vel value="0.0125060809" flag="0"/>
      <psa03 value="0.0597909408" flag="0"/>
      <psa10 value="0.0056271213" flag="0"/>
      <psa30 value="0.0004665320" flag="0"/>
    </comp>
    <comp name="--.HHE">
      <acc value="0.0301044291" flag="0"/>
      <vel value="0.0109566788" flag="0"/>
      <psa03 value="0.0822704982" flag="0"/>
      <psa10 value="0.0067768306" flag="0"/>
      <psa30 value="0.0006145259" flag="0"/>
    </comp>
    <comp name="--.HHZ">
      <acc value="0.0392669821" flag="0"/>
      <vel value="0.0098298632" flag="0"/>
      <psa03 value="0.0503913923" flag="0"/>
      <psa10 value="0.0025024983" flag="0"/>
      <psa30 value="0.0003229571" flag="0"/>
    </comp>
  </station>
  <station code="IMMV" name="IMMV" netid="HL" insttype="120" lat="35.4606" lon="23.9811">
    <comp name="--.HHN">
      <acc value="0.0615916083" flag="0"/>
      <vel value="0.0271505765" flag="0"/>
      <psa03 value="0.1775370951" flag="0"/>
      <psa10 value="0.0114884749" flag="0"/>
      <psa30 value="0.0007255791" flag="0"/>
    </comp>
    <comp name="--.HHE">
      <acc value="0.0632270642" flag="0"/>
      <vel value="0.0281584282" flag="0"/>
      <psa03 value="0.1189464267" flag="0"/>
      <psa10 value="0.0192107698" flag="0"/>
      <psa30 value="0.0009491162" flag="0"/>
    </comp>
    <comp name="--.HHZ">
      <acc value="0.0408612056" flag="0"/>
      <vel value="0.0169362318" flag="0"/>
      <psa03 value="0.0910933297" flag="0"/>
      <psa10 value="0.0067193072" flag="0"/>
      <psa30 value="0.0004156619" flag="0"/>
    </comp>
  </station>
  <station code="KTHA" name="KTHA" netid="HL" insttype="120" lat="36.2566" lon="23.0621">
    <comp name="--.HHE">
      <acc value="0.0214834606" flag="0"/>
      <vel value="0.0091483826" flag="0"/>
      <psa03 value="0.0634752813" flag="0"/>
      <psa10 value="0.0092942867" flag="0"/>
      <psa30 value="0.0004746231" flag="0"/>
    </comp>
    <comp name="--.HHN">
      <acc value="0.0112232494" flag="0"/>
      <vel value="0.0042738397" flag="0"/>
      <psa03 value="0.0248884607" flag="0"/>
      <psa10 value="0.0030091245" flag="0"/>
      <psa30 value="0.0001630155" flag="0"/>
    </comp>
    <comp name="--.HHZ">
      <acc value="0.0079688209" flag="0"/>
      <vel value="0.0031344167" flag="0"/>
      <psa03 value="0.0143729713" flag="0"/>
      <psa10 value="0.0024901914" flag="0"/>
      <psa30 value="0.0002173450" flag="0"/>
    </comp>
  </station>
  <station code="VAM" name="VAM" netid="HL" insttype="CMG3ESPC-120s" lat="35.407" lon="24.1997">
    <comp name="--.HHE">
      <acc value="0.0360183026" flag="0"/>
      <vel value="0.0141543166" flag="0"/>
      <psa03 value="0.0654681048" flag="0"/>
      <psa10 value="0.0094763574" flag="0"/>
      <psa30 value="0.0003944259" flag="0"/>
    </comp>
    <comp name="--.HHN">
      <acc value="0.0399915230" flag="0"/>
      <vel value="0.0139151707" flag="0"/>
      <psa03 value="0.0904211059" flag="0"/>
      <psa10 value="0.0139373584" flag="0"/>
      <psa30 value="0.0004316896" flag="0"/>
    </comp>
    <comp name="--.HHZ">
      <acc value="0.0190837983" flag="0"/>
      <vel value="0.0068526312" flag="0"/>
      <psa03 value="0.0369750812" flag="0"/>
      <psa10 value="0.0051072509" flag="0"/>
      <psa30 value="0.0003071105" flag="0"/>
    </comp>
  </station>
</stationlist>
