<?xml version="1.0" encoding="UTF-8" standalone="yes"?>
<!DOCTYPE earthquake SYSTEM "stationlist.dtd">
<stationlist created="" xmlns="ch.ethz.sed.shakemap.usgs.xml">
  <station code="IMMV" name="IMMV" netid="GE" insttype="STS-2/N" lat="35.4606" lon="23.9811">
    <comp name="--.HHE">
      <acc value="0.0647145112" flag="0"/>
      <vel value="0.0286776445" flag="0"/>
      <psa03 value="0.1223616372" flag="0"/>
      <psa10 value="0.0194850919" flag="0"/>
      <psa30 value="0.0009576037" flag="0"/>
    </comp>
    <comp name="--.HHN">
      <acc value="0.0626014654" flag="0"/>
      <vel value="0.0278867384" flag="0"/>
      <psa03 value="0.1831152849" flag="0"/>
      <psa10 value="0.0116572695" flag="0"/>
      <psa30 value="0.0007309890" flag="0"/>
    </comp>
    <comp name="--.HHZ">
      <acc value="0.0422699446" flag="0"/>
      <vel value="0.0172823802" flag="0"/>
      <psa03 value="0.0938080401" flag="0"/>
      <psa10 value="0.0068177754" flag="0"/>
      <psa30 value="0.0004209976" flag="0"/>
    </comp>
  </station>
</stationlist>
