<stationlist created="1778069685">
	<station code="KARP" name="KARP" netid="GE" source="GEOFON" insttype="" lat="35.5471" lon="27.16106">
		<comp name="--.HNE" depth="0.0">
			<acc value="0.19067919735348" flag="0"/>
			<vel value="0.0673945881544113" flag="0"/>
			<psa03 value="0.287737130762106" flag="0"/>
			<psa10 value="0.038496194574361" flag="0"/>
			<psa30 value="0.00264023761254422" flag="0"/>
		</comp>
		<comp name="--.HNN" depth="0.0">
			<acc value="0.137222445723922" flag="0"/>
			<vel value="0.0422539236380198" flag="0"/>
			<psa03 value="0.234270193853271" flag="0"/>
			<psa10 value="0.0476772953724304" flag="0"/>
			<psa30 value="0.00273553851264113" flag="0"/>
		</comp>
		<comp name="--.HNZ" depth="0.0">
			<acc value="0.124706908313208" flag="0"/>
			<vel value="0.0414222728875104" flag="0"/>
			<psa03 value="0.300846597301259" flag="0"/>
			<psa10 value="0.018982328579868" flag="0"/>
			<psa30 value="0.00119193238431076" flag="0"/>
		</comp>
	</station>
	<station code="KSS1" name="KSS1" netid="HI" source="ITSAK Strong Motion Network" insttype="" lat="35.4189" lon="26.9207">
		<comp name="--.HNE" depth="0.0">
			<acc value="0.343192148550347" flag="0"/>
			<vel value="0.0977538327378791" flag="0"/>
			<psa03 value="0.428809308229517" flag="0"/>
			<psa10 value="0.0491712376514145" flag="0"/>
			<psa30 value="0.00476772953724304" flag="0"/>
		</comp>
		<comp name="--.HNN" depth="0.0">
			<acc value="0.481891380561921" flag="0"/>
			<vel value="0.16770309585836" flag="0"/>
			<psa03 value="0.478875837435363" flag="0"/>
			<psa10 value="0.0840835814756519" flag="0"/>
			<psa30 value="0.00563035928084332" flag="0"/>
		</comp>
		<comp name="--.HNZ" depth="0.0">
			<acc value="0.305965083202922" flag="0"/>
			<vel value="0.0497916891816812" flag="0"/>
			<psa03 value="0.172257495480346" flag="0"/>
			<psa10 value="0.0279258482607943" flag="0"/>
			<psa30 value="0.00484334386642792" flag="0"/>
		</comp>
	</station>
	<station code="SIT2" name="SIT2" netid="HI" source="ITSAK Strong Motion Network" insttype="" lat="35.2059" lon="26.107">
		<comp name="--.HNE" depth="0.0">
			<acc value="0.154732719551603" flag="0"/>
			<vel value="0.0835785864753163" flag="0"/>
			<psa03 value="0.444379596132675" flag="0"/>
			<psa10 value="0.0378680139934405" flag="0"/>
			<psa30 value="0.00313687610600703" flag="0"/>
		</comp>
		<comp name="--.HNN" depth="0.0">
			<acc value="0.141138700116105" flag="0"/>
			<vel value="0.0916107606607255" flag="0"/>
			<psa03 value="0.441426610495869" flag="0"/>
			<psa10 value="0.0418384374087459" flag="0"/>
			<psa30 value="0.00363977850839641" flag="0"/>
		</comp>
		<comp name="--.HNZ" depth="0.0">
			<acc value="0.13418356187267" flag="0"/>
			<vel value="0.047518554844249" flag="0"/>
			<psa03 value="0.191944066392386" flag="0"/>
			<psa10 value="0.0127891123397668" flag="0"/>
			<psa30 value="0.00116329737207507" flag="0"/>
		</comp>
	</station>
	<station code="KARP" name="KARP" netid="HL" source="National Observatory of Athens Seismic Network" insttype="" lat="35.5471" lon="27.16106">
		<comp name="--.HNE" depth="0.0">
			<acc value="0.205135553772313" flag="0"/>
			<vel value="0.0670201703049938" flag="0"/>
			<psa03 value="0.28192064390173" flag="0"/>
			<psa10 value="0.037714995646806" flag="0"/>
			<psa30 value="0.00258699438666847" flag="0"/>
		</comp>
		<comp name="--.HNN" depth="0.0">
			<acc value="0.136362637109439" flag="0"/>
			<vel value="0.0409847660439096" flag="0"/>
			<psa03 value="0.229527519951734" flag="0"/>
			<psa10 value="0.0467108637094757" flag="0"/>
			<psa30 value="0.0026796107543683" flag="0"/>
		</comp>
		<comp name="--.HNZ" depth="0.0">
			<acc value="0.129276410830886" flag="0"/>
			<vel value="0.0408376089926804" flag="0"/>
			<psa03 value="0.294761657201174" flag="0"/>
			<psa10 value="0.0185957559146861" flag="0"/>
			<psa30 value="0.00116777159273689" flag="0"/>
		</comp>
	</station>
</stationlist>
