<?xml version="1.0" encoding="UTF-8" standalone="yes"?>
<!DOCTYPE earthquake SYSTEM "stationlist.dtd">
<stationlist created="" xmlns="ch.ethz.sed.shakemap.usgs.xml">
  <station code="KARP" name="KARP" netid="GE" insttype="STS-2/N" lat="35.5471" lon="27.1611">
    <comp name="--.HHZ">
      <acc value="0.1622207877" flag="0"/>
      <vel value="0.0491576015" flag="0"/>
      <psa03 value="0.3721398226" flag="0"/>
      <psa10 value="0.0229575436" flag="0"/>
      <psa30 value="0.0013418676" flag="0"/>
    </comp>
    <comp name="--.HHN">
      <acc value="0.2004199025" flag="0"/>
      <vel value="0.0512093768" flag="0"/>
      <psa03 value="0.2748678992" flag="0"/>
      <psa10 value="0.0582441715" flag="0"/>
      <psa30 value="0.0029870835" flag="0"/>
    </comp>
  </station>
  <station code="ZKR" name="ZKR" netid="GE" insttype="STS-2/N" lat="35.1147" lon="26.2169">
    <comp name="--.HHE">
      <acc value="0.2740786605" flag="0"/>
      <vel value="0.1108949044" flag="0"/>
      <psa03 value="0.4622598062" flag="0"/>
      <psa10 value="0.0228452640" flag="0"/>
      <psa30 value="0.0026074076" flag="0"/>
    </comp>
    <comp name="--.HHZ">
      <acc value="0.0906118846" flag="0"/>
      <vel value="0.0213018311" flag="0"/>
      <psa03 value="0.1098942001" flag="0"/>
      <psa10 value="0.0147067057" flag="0"/>
      <psa30 value="0.0009072470" flag="0"/>
    </comp>
  </station>
  <station code="KARP" name="KARP" netid="HL" insttype="120" lat="35.5471" lon="27.1611">
    <comp name="--.HHE">
      <acc value="0.2411040035" flag="0"/>
      <vel value="0.0739907280" flag="0"/>
      <psa03 value="0.3161958567" flag="0"/>
      <psa10 value="0.0432301696" flag="0"/>
      <psa30 value="0.0027687464" flag="0"/>
    </comp>
    <comp name="--.HHN">
      <acc value="0.1720222768" flag="0"/>
      <vel value="0.0498002776" flag="0"/>
      <psa03 value="0.2658616126" flag="0"/>
      <psa10 value="0.0576617434" flag="0"/>
      <psa30 value="0.0029743769" flag="0"/>
    </comp>
    <comp name="--.HHZ">
      <acc value="0.1541237939" flag="0"/>
      <vel value="0.0474672181" flag="0"/>
      <psa03 value="0.3630046680" flag="0"/>
      <psa10 value="0.0227036870" flag="0"/>
      <psa30 value="0.0013251495" flag="0"/>
    </comp>
  </station>
  <station code="ZKR" name="ZKR" netid="HL" insttype="120" lat="35.1147" lon="26.2169">
    <comp name="--.HHN">
      <acc value="0.0822727362" flag="0"/>
      <vel value="0.0259366540" flag="0"/>
      <psa03 value="0.1008039883" flag="0"/>
      <psa10 value="0.0100316656" flag="0"/>
      <psa30 value="0.0006075358" flag="0"/>
    </comp>
    <comp name="--.HHE">
      <acc value="0.2663746963" flag="0"/>
      <vel value="0.1073719220" flag="0"/>
      <psa03 value="0.4490409621" flag="0"/>
      <psa10 value="0.0221767806" flag="0"/>
      <psa30 value="0.0025618346" flag="0"/>
    </comp>
    <comp name="--.HHZ">
      <acc value="0.0886657276" flag="0"/>
      <vel value="0.0205741345" flag="0"/>
      <psa03 value="0.1066976665" flag="0"/>
      <psa10 value="0.0146108129" flag="0"/>
      <psa30 value="0.0008983337" flag="0"/>
    </comp>
  </station>
</stationlist>
