<?xml version="1.0" encoding="UTF-8" standalone="yes"?>
<!DOCTYPE earthquake SYSTEM "stationlist.dtd">
<stationlist created="" xmlns="ch.ethz.sed.shakemap.usgs.xml">
  <station code="KARP" name="KARP" netid="GE" insttype="STS-2/N" lat="35.5471" lon="27.1611">
    <comp name="--.HHE">
      <acc value="0.0008188532" flag="0"/>
      <vel value="0.0000675837" flag="0"/>
      <psa03 value="0.0000966628" flag="0"/>
      <psa10 value="0.0000047960" flag="0"/>
      <psa30 value="0.0000005434" flag="0"/>
    </comp>
    <comp name="--.HHN">
      <acc value="0.0009019911" flag="0"/>
      <vel value="0.0000957065" flag="0"/>
      <psa03 value="0.0001110478" flag="0"/>
      <psa10 value="0.0000063610" flag="0"/>
      <psa30 value="0.0000006270" flag="0"/>
    </comp>
    <comp name="--.HHZ">
      <acc value="0.0008854750" flag="0"/>
      <vel value="0.0000802845" flag="0"/>
      <psa03 value="0.0001311054" flag="0"/>
      <psa10 value="0.0000077146" flag="0"/>
      <psa30 value="0.0000007346" flag="0"/>
    </comp>
  </station>
</stationlist>
