<stationlist created="1740445317">
	<station code="BODA" name="BODA" netid="KO" source="Bogazici University Kandilli Observatory And Earthquake Research Institute (KOERI)" insttype="" lat="37.0348" lon="27.4304">
		<comp name=".HNE" depth="0.0">
			<acc value="0.040494235657332" flag="0"/>
			<vel value="0.0193028098587" flag="0"/>
			<psa03 value="0.126148492135332" flag="0"/>
			<psa10 value="0.00724408394751462" flag="0"/>
			<psa30 value="0.000543778887264048" flag="0"/>
		</comp>
		<comp name=".HNN" depth="0.0">
			<acc value="0.050020088932806" flag="0"/>
			<vel value="0.021403603371" flag="0"/>
			<psa03 value="0.114204346727609" flag="0"/>
			<psa10 value="0.00527432314801874" flag="0"/>
			<psa30 value="0.000460861415221579" flag="0"/>
		</comp>
		<comp name=".HNZ" depth="0.0">
			<acc value="0.015211781010696" flag="0"/>
			<vel value="0.00426752894171" flag="0"/>
			<psa03 value="0.0186677991500636" flag="0"/>
			<psa10 value="0.00288120242801988" flag="0"/>
			<psa30 value="0.000522004736502435" flag="0"/>
		</comp>
	</station>
	<station code="CAME" name="CAME" netid="KO" source="Bogazici University Kandilli Observatory And Earthquake Research Institute (KOERI)" insttype="" lat="36.9435" lon="29.3023">
		<comp name=".HNE" depth="0.0">
			<acc value="0.012145509984192" flag="0"/>
			<vel value="0.00576239063872" flag="0"/>
			<psa03 value="0.0335675413932152" flag="0"/>
			<psa10 value="0.00732442692608478" flag="0"/>
			<psa30 value="0.000631415526095643" flag="0"/>
		</comp>
		<comp name=".HNN" depth="0.0">
			<acc value="0.009440155560114" flag="0"/>
			<vel value="0.00679512142237" flag="0"/>
			<psa03 value="0.0399650016519017" flag="0"/>
			<psa10 value="0.00760195984254244" flag="0"/>
			<psa30 value="0.000599197610566319" flag="0"/>
		</comp>
		<comp name=".HNZ" depth="0.0">
			<acc value="0.011003677770864" flag="0"/>
			<vel value="0.00525622592593" flag="0"/>
			<psa03 value="0.0232926680249608" flag="0"/>
			<psa10 value="0.00648040023222897" flag="0"/>
			<psa30 value="0.000445175376100629" flag="0"/>
		</comp>
	</station>
	<station code="DATC" name="DATC" netid="KO" source="Bogazici University Kandilli Observatory And Earthquake Research Institute (KOERI)" insttype="" lat="36.7584" lon="27.6602">
		<comp name=".HNE" depth="0.0">
			<acc value="0.20121792884112" flag="0"/>
			<vel value="0.0647946661189" flag="0"/>
			<psa03 value="0.335078697319233" flag="0"/>
			<psa10 value="0.0700138305728257" flag="0"/>
			<psa30 value="0.0047753763452268" flag="0"/>
		</comp>
		<comp name=".HNN" depth="0.0">
			<acc value="0.13455090421992" flag="0"/>
			<vel value="0.0658903712108" flag="0"/>
			<psa03 value="0.445184491287656" flag="0"/>
			<psa10 value="0.0578127798131282" flag="0"/>
			<psa30 value="0.00312271519788975" flag="0"/>
		</comp>
		<comp name=".HNZ" depth="0.0">
			<acc value="0.15084568482804" flag="0"/>
			<vel value="0.0681530095299" flag="0"/>
			<psa03 value="0.237377579266211" flag="0"/>
			<psa10 value="0.058122017798395" flag="0"/>
			<psa30 value="0.00307250041307358" flag="0"/>
		</comp>
	</station>
	<station code="DEMR" name="DEMR" netid="KO" source="Bogazici University Kandilli Observatory And Earthquake Research Institute (KOERI)" insttype="" lat="36.2365" lon="29.9056">
		<comp name=".HNE" depth="0.0">
			<acc value="0.0030698159579436" flag="0"/>
			<vel value="0.0017683775363" flag="0"/>
			<psa03 value="0.0043275750920689" flag="0"/>
			<psa10 value="0.00378418912145588" flag="0"/>
			<psa30 value="0.000599434292915438" flag="0"/>
		</comp>
		<comp name=".HNN" depth="0.0">
			<acc value="0.0035562941061228" flag="0"/>
			<vel value="0.00259040503914" flag="0"/>
			<psa03 value="0.00665109034167535" flag="0"/>
			<psa10 value="0.00423132702339943" flag="0"/>
			<psa30 value="0.000814147162418371" flag="0"/>
		</comp>
		<comp name=".HNZ" depth="0.0">
			<acc value="0.0019951627011984" flag="0"/>
			<vel value="0.00138868772223" flag="0"/>
			<psa03 value="0.00436533215058002" flag="0"/>
			<psa10 value="0.00232733386194602" flag="0"/>
			<psa30 value="0.000388601133543024" flag="0"/>
		</comp>
	</station>
	<station code="DIDI" name="DIDI" netid="KO" source="Bogazici University Kandilli Observatory And Earthquake Research Institute (KOERI)" insttype="" lat="37.3767" lon="27.2398">
		<comp name=".HNE" depth="0.0">
			<acc value="0.026489871926766" flag="0"/>
			<vel value="0.0139331838286" flag="0"/>
			<psa03 value="0.0933601117324953" flag="0"/>
			<psa10 value="0.0133022437083683" flag="0"/>
			<psa30 value="0.00107766128560412" flag="0"/>
		</comp>
		<comp name=".HNN" depth="0.0">
			<acc value="0.025256983122996" flag="0"/>
			<vel value="0.0136998638876" flag="0"/>
			<psa03 value="0.0632668682028709" flag="0"/>
			<psa10 value="0.00897505236566873" flag="0"/>
			<psa30 value="0.00113273212127922" flag="0"/>
		</comp>
		<comp name=".HNZ" depth="0.0">
			<acc value="0.021281166431874" flag="0"/>
			<vel value="0.00619524321259" flag="0"/>
			<psa03 value="0.0324969574514644" flag="0"/>
			<psa10 value="0.00920510104275367" flag="0"/>
			<psa30 value="0.000693964721758136" flag="0"/>
		</comp>
	</station>
	<station code="FETI" name="FETI" netid="KO" source="Bogazici University Kandilli Observatory And Earthquake Research Institute (KOERI)" insttype="" lat="36.6903" lon="29.096">
		<comp name=".HNE" depth="0.0">
			<acc value="0.013630020648126" flag="0"/>
			<vel value="0.00669714651436" flag="0"/>
			<psa03 value="0.0195616956058937" flag="0"/>
			<psa10 value="0.016772260454943" flag="0"/>
			<psa30 value="0.000737074712996877" flag="0"/>
		</comp>
		<comp name=".HNN" depth="0.0">
			<acc value="0.0028502233779408" flag="0"/>
			<vel value="0.00149346139138" flag="0"/>
			<psa03 value="0.00217720526432153" flag="0"/>
			<psa10 value="0.00115569530914085" flag="0"/>
			<psa30 value="0.000707322481642758" flag="0"/>
		</comp>
		<comp name=".HNZ" depth="0.0">
			<acc value="0.027098530730208" flag="0"/>
			<vel value="0.00806540296487" flag="0"/>
			<psa03 value="0.0291686406126033" flag="0"/>
			<psa10 value="0.00674267526290573" flag="0"/>
			<psa30 value="0.00100070118737571" flag="0"/>
		</comp>
	</station>
	<station code="KUSD" name="KUSD" netid="KO" source="Bogazici University Kandilli Observatory And Earthquake Research Institute (KOERI)" insttype="" lat="37.8606" lon="27.2868">
		<comp name=".HNE" depth="0.0">
			<acc value="0.0023001694679364" flag="0"/>
			<vel value="0.00160027114679" flag="0"/>
			<psa03 value="0.0038469726164913" flag="0"/>
			<psa10 value="0.00272196734822673" flag="0"/>
			<psa30 value="0.000290463408441994" flag="0"/>
		</comp>
		<comp name=".HNN" depth="0.0">
			<acc value="0.003364041618717" flag="0"/>
			<vel value="0.00189101129696" flag="0"/>
			<psa03 value="0.00806699273202524" flag="0"/>
			<psa10 value="0.00330596869170037" flag="0"/>
			<psa30 value="0.000488431366597533" flag="0"/>
		</comp>
		<comp name=".HNZ" depth="0.0">
			<acc value="0.0015502701545814" flag="0"/>
			<vel value="0.00107577487468" flag="0"/>
			<psa03 value="0.00306437910684778" flag="0"/>
			<psa10 value="0.00204223739758161" flag="0"/>
			<psa30 value="0.000279284855417524" flag="0"/>
		</comp>
	</station>
	<station code="NAZL" name="NAZL" netid="KO" source="Bogazici University Kandilli Observatory And Earthquake Research Institute (KOERI)" insttype="" lat="37.9641" lon="28.2922">
		<comp name=".HNE" depth="0.0">
			<acc value="0.0071730354085998" flag="0"/>
			<vel value="0.00481831814038" flag="0"/>
			<psa03 value="0.0200234983334744" flag="0"/>
			<psa10 value="0.0057445827379007" flag="0"/>
			<psa30 value="0.000415201645696527" flag="0"/>
		</comp>
		<comp name=".HNN" depth="0.0">
			<acc value="0.0053564757965574" flag="0"/>
			<vel value="0.0040782674692" flag="0"/>
			<psa03 value="0.0173804378270622" flag="0"/>
			<psa10 value="0.00485680705213686" flag="0"/>
			<psa30 value="0.000604089132523164" flag="0"/>
		</comp>
		<comp name=".HNZ" depth="0.0">
			<acc value="0.002155157484492" flag="0"/>
			<vel value="0.00157503371686" flag="0"/>
			<psa03 value="0.00634844464185692" flag="0"/>
			<psa10 value="0.00180969210978477" flag="0"/>
			<psa30 value="0.000219116416428865" flag="0"/>
		</comp>
	</station>
	<station code="YKAV" name="YKAV" netid="KO" source="Bogazici University Kandilli Observatory And Earthquake Research Institute (KOERI)" insttype="" lat="37.1246" lon="27.2801">
		<comp name=".HNE" depth="0.0">
			<acc value="0.022198652967342" flag="0"/>
			<vel value="0.00820398814902" flag="0"/>
			<psa03 value="0.0476945501547489" flag="0"/>
			<psa10 value="0.00497257393987048" flag="0"/>
			<psa30 value="0.000753332456663211" flag="0"/>
		</comp>
		<comp name=".HNN" depth="0.0">
			<acc value="0.020210266369944" flag="0"/>
			<vel value="0.0079199153818" flag="0"/>
			<psa03 value="0.0467855576467282" flag="0"/>
			<psa10 value="0.00578194365038196" flag="0"/>
			<psa30 value="0.000446051475804544" flag="0"/>
		</comp>
		<comp name=".HNZ" depth="0.0">
			<acc value="0.010408596606846" flag="0"/>
			<vel value="0.00517890084328" flag="0"/>
			<psa03 value="0.0302358284960857" flag="0"/>
			<psa10 value="0.0024327556893745" flag="0"/>
			<psa30 value="0.000581716556698792" flag="0"/>
		</comp>
	</station>
</stationlist>
