<?xml version="1.0" encoding="UTF-8" standalone="yes"?>
<!DOCTYPE earthquake SYSTEM "stationlist.dtd">
<stationlist created="" xmlns="ch.ethz.sed.shakemap.usgs.xml">
  <station code="KARP" name="KARP" netid="GE" insttype="STS-2/N" lat="35.5471" lon="27.1611">
    <comp name="--.HHE">
      <acc value="0.0008188532" flag="0"/>
      <vel value="0.0000675837" flag="0"/>
      <psa03 value="0.0000966628" flag="0"/>
      <psa10 value="0.0000047960" flag="0"/>
      <psa30 value="0.0000005434" flag="0"/>
    </comp>
    <comp name="--.HHN">
      <acc value="0.0009019911" flag="0"/>
      <vel value="0.0000957065" flag="0"/>
      <psa03 value="0.0001110478" flag="0"/>
      <psa10 value="0.0000063610" flag="0"/>
      <psa30 value="0.0000006270" flag="0"/>
    </comp>
    <comp name="--.HHZ">
      <acc value="0.0008854750" flag="0"/>
      <vel value="0.0000802845" flag="0"/>
      <psa03 value="0.0001311054" flag="0"/>
      <psa10 value="0.0000077146" flag="0"/>
      <psa30 value="0.0000007346" flag="0"/>
    </comp>
  </station>
  <station code="RDI1" name="RDI1" netid="HI" insttype="CMG-5TD,ACCELEROMETER,GURALP" lat="36.4514" lon="28.224">
    <comp name="--.HNE">
      <acc value="0.0653404491" flag="0"/>
      <vel value="0.0422678319" flag="0"/>
      <psa03 value="0.2472432044" flag="0"/>
      <psa10 value="0.0525414639" flag="0"/>
      <psa30 value="0.0039644551" flag="0"/>
    </comp>
    <comp name="--.HNN">
      <acc value="0.0658357398" flag="0"/>
      <vel value="0.0432480726" flag="0"/>
      <psa03 value="0.1765998709" flag="0"/>
      <psa10 value="0.0522170082" flag="0"/>
      <psa30 value="0.0068280805" flag="0"/>
    </comp>
    <comp name="--.HNZ">
      <acc value="0.0472117205" flag="0"/>
      <vel value="0.0270513110" flag="0"/>
      <psa03 value="0.0889803011" flag="0"/>
      <psa10 value="0.0258611207" flag="0"/>
      <psa30 value="0.0030676682" flag="0"/>
    </comp>
  </station>
  <station code="RKL1" name="RKL1" netid="HI" insttype="unknown" lat="36.3367" lon="28.1712">
    <comp name="--.HNN">
      <acc value="0.1404803016" flag="0"/>
      <vel value="0.0833685283" flag="0"/>
      <psa03 value="0.3309336336" flag="0"/>
      <psa10 value="0.0822196986" flag="0"/>
      <psa30 value="0.0032654045" flag="0"/>
    </comp>
    <comp name="--.HNE">
      <acc value="0.1889390992" flag="0"/>
      <vel value="0.0891476480" flag="0"/>
      <psa03 value="0.3450811840" flag="0"/>
      <psa10 value="0.1597460846" flag="0"/>
      <psa30 value="0.0052273379" flag="0"/>
    </comp>
    <comp name="--.HNZ">
      <acc value="0.1171707614" flag="0"/>
      <vel value="0.0442018782" flag="0"/>
      <psa03 value="0.1993540220" flag="0"/>
      <psa10 value="0.0299587258" flag="0"/>
      <psa30 value="0.0026904740" flag="0"/>
    </comp>
  </station>
  <station code="RPN1" name="RPN1" netid="HI" insttype="unknown" lat="36.4487" lon="28.218">
    <comp name="--.HNZ">
      <acc value="0.1043595787" flag="0"/>
      <vel value="0.0274135388" flag="0"/>
      <psa03 value="0.0899559685" flag="0"/>
      <psa10 value="0.0292139119" flag="0"/>
      <psa30 value="0.0032105215" flag="0"/>
    </comp>
    <comp name="--.HNE">
      <acc value="0.1131531918" flag="0"/>
      <vel value="0.0802851581" flag="0"/>
      <psa03 value="0.2349311861" flag="0"/>
      <psa10 value="0.0619153995" flag="0"/>
      <psa30 value="0.0040886497" flag="0"/>
    </comp>
    <comp name="--.HNN">
      <acc value="0.1278902051" flag="0"/>
      <vel value="0.0456189571" flag="0"/>
      <psa03 value="0.3132369512" flag="0"/>
      <psa10 value="0.0471515018" flag="0"/>
      <psa30 value="0.0064123333" flag="0"/>
    </comp>
  </station>
  <station code="ARG" name="ARG" netid="HL" insttype="LE3D20_DR24" lat="36.2136" lon="28.1212">
    <comp name="--.HHZ">
      <acc value="0.1312868508" flag="0"/>
      <vel value="0.0372828979" flag="0"/>
      <psa03 value="0.1255460195" flag="0"/>
      <psa10 value="0.0291041608" flag="0"/>
      <psa30 value="0.0029914364" flag="0"/>
    </comp>
    <comp name="--.HHN">
      <acc value="0.2013071169" flag="0"/>
      <vel value="0.0640299179" flag="0"/>
      <psa03 value="0.2176594346" flag="0"/>
      <psa10 value="0.0341398885" flag="0"/>
      <psa30 value="0.0029532252" flag="0"/>
    </comp>
    <comp name="--.HHE">
      <acc value="0.3081077311" flag="0"/>
      <vel value="0.0739933333" flag="0"/>
      <psa03 value="0.3313431611" flag="0"/>
      <psa10 value="0.0477281562" flag="0"/>
      <psa30 value="0.0043262754" flag="0"/>
    </comp>
  </station>
  <station code="KARP" name="KARP" netid="HL" insttype="120" lat="35.5471" lon="27.1611">
    <comp name="--.HHE">
      <acc value="0.0006208510" flag="0"/>
      <vel value="0.0000649373" flag="0"/>
      <psa03 value="0.0000901757" flag="0"/>
      <psa10 value="0.0000044887" flag="0"/>
      <psa30 value="0.0000005118" flag="0"/>
    </comp>
    <comp name="--.HHN">
      <acc value="0.0008550192" flag="0"/>
      <vel value="0.0000775317" flag="0"/>
      <psa03 value="0.0001076601" flag="0"/>
      <psa10 value="0.0000061395" flag="0"/>
      <psa30 value="0.0000006076" flag="0"/>
    </comp>
    <comp name="--.HHZ">
      <acc value="0.0007762049" flag="0"/>
      <vel value="0.0000760609" flag="0"/>
      <psa03 value="0.0001262502" flag="0"/>
      <psa10 value="0.0000072983" flag="0"/>
      <psa30 value="0.0000006870" flag="0"/>
    </comp>
  </station>
  <station code="NISR" name="NISR" netid="HL" insttype="65535" lat="36.6106" lon="27.131">
    <comp name="--.HHN">
      <acc value="0.0432673128" flag="0"/>
      <vel value="0.0165400706" flag="0"/>
      <psa03 value="0.0928044705" flag="0"/>
      <psa10 value="0.0127148980" flag="0"/>
      <psa30 value="0.0017426622" flag="0"/>
    </comp>
    <comp name="--.HHZ">
      <acc value="0.0285759585" flag="0"/>
      <vel value="0.0114732012" flag="0"/>
      <psa03 value="0.0468473108" flag="0"/>
      <psa10 value="0.0114458092" flag="0"/>
      <psa30 value="0.0007110670" flag="0"/>
    </comp>
    <comp name="--.HHE">
      <acc value="0.0000000000" flag="0"/>
      <vel value="-100.0000000000" flag="0"/>
      <psa03 value="0.0000000000" flag="0"/>
      <psa10 value="0.0000000000" flag="0"/>
      <psa30 value="0.0000000000" flag="0"/>
    </comp>
  </station>
  <station code="NISR2" name="NISR2" netid="HL" insttype="120" lat="36.5744" lon="27.1767">
    <comp name="--.HHE">
      <acc value="0.2651590472" flag="0"/>
      <vel value="0.1493909459" flag="0"/>
      <psa03 value="0.8460018486" flag="0"/>
      <psa10 value="0.1106241317" flag="0"/>
      <psa30 value="0.0052403067" flag="0"/>
    </comp>
    <comp name="--.HHN">
      <acc value="0.3577525546" flag="0"/>
      <vel value="0.1813695571" flag="0"/>
      <psa03 value="1.4204578802" flag="0"/>
      <psa10 value="0.1256183161" flag="0"/>
      <psa30 value="0.0061318288" flag="0"/>
    </comp>
    <comp name="--.HHZ">
      <acc value="0.1256087991" flag="0"/>
      <vel value="0.0514107286" flag="0"/>
      <psa03 value="0.3441833919" flag="0"/>
      <psa10 value="0.0219653957" flag="0"/>
      <psa30 value="0.0013613520" flag="0"/>
    </comp>
  </station>
  <station code="RODB" name="RODB" netid="HL" insttype="CMG-5" lat="36.4471" lon="28.2212">
    <comp name="00.HNE">
      <acc value="0.0655462535" flag="0"/>
      <vel value="0.0518064272" flag="0"/>
      <psa03 value="0.2548498404" flag="0"/>
      <psa10 value="0.0458454457" flag="0"/>
      <psa30 value="0.0061237554" flag="0"/>
    </comp>
    <comp name="00.HNN">
      <acc value="0.0629044878" flag="0"/>
      <vel value="0.0323479255" flag="0"/>
      <psa03 value="0.1760146526" flag="0"/>
      <psa10 value="0.0350820997" flag="0"/>
      <psa30 value="0.0036724713" flag="0"/>
    </comp>
    <comp name="00.HNZ">
      <acc value="0.0514253790" flag="0"/>
      <vel value="0.0246951554" flag="0"/>
      <psa03 value="0.1009086457" flag="0"/>
      <psa10 value="0.0233402165" flag="0"/>
      <psa30 value="0.0023988711" flag="0"/>
    </comp>
  </station>
</stationlist>
