<?xml version="1.0" encoding="UTF-8" standalone="yes"?>
<!DOCTYPE earthquake SYSTEM "stationlist.dtd">
<stationlist created="" xmlns="ch.ethz.sed.shakemap.usgs.xml">
  <station code="APE" name="APE" netid="GE" insttype="STS-2/N" lat="37.0727" lon="25.523">
    <comp name="--.HHE">
      <acc value="0.1695892384" flag="0"/>
      <vel value="0.0399463968" flag="0"/>
      <psa03 value="0.1607571979" flag="0"/>
      <psa10 value="0.0146924853" flag="0"/>
      <psa30 value="0.0032671834" flag="0"/>
    </comp>
    <comp name="--.HHZ">
      <acc value="0.0802246842" flag="0"/>
      <vel value="0.0171807704" flag="0"/>
      <psa03 value="0.0627641523" flag="0"/>
      <psa10 value="0.0105566012" flag="0"/>
      <psa30 value="0.0043463465" flag="0"/>
    </comp>
    <comp name="--.HHN">
      <acc value="0.1790997971" flag="0"/>
      <vel value="0.0350621176" flag="0"/>
      <psa03 value="0.0942574961" flag="0"/>
      <psa10 value="0.0172320330" flag="0"/>
      <psa30 value="0.0043093964" flag="0"/>
    </comp>
  </station>
  <station code="THERA" name="THERA" netid="GE" insttype="STS-2/N" lat="36.367" lon="25.4753">
    <comp name="--.HHN">
      <acc value="0.1224261361" flag="0"/>
      <vel value="0.0416211513" flag="0"/>
      <psa03 value="0.2220802109" flag="0"/>
      <psa10 value="0.0177511877" flag="0"/>
      <psa30 value="0.0036724169" flag="0"/>
    </comp>
    <comp name="--.HHZ">
      <acc value="0.1588829133" flag="0"/>
      <vel value="0.0559331133" flag="0"/>
      <psa03 value="0.2029762700" flag="0"/>
      <psa10 value="0.0436184208" flag="0"/>
      <psa30 value="0.0050289770" flag="0"/>
    </comp>
    <comp name="--.HHE">
      <acc value="0.1668061644" flag="0"/>
      <vel value="0.0614703650" flag="0"/>
      <psa03 value="0.2611327895" flag="0"/>
      <psa10 value="0.0361258200" flag="0"/>
      <psa30 value="0.0062651650" flag="0"/>
    </comp>
  </station>
  <station code="SERI" name="SERI" netid="HA" insttype="30" lat="37.1609" lon="24.4853">
    <comp name="--.HHE">
      <acc value="0.0451485982" flag="0"/>
      <vel value="0.0164680250" flag="0"/>
      <psa03 value="0.0546963741" flag="0"/>
      <psa10 value="0.0115922003" flag="0"/>
      <psa30 value="0.0013527768" flag="0"/>
    </comp>
    <comp name="--.HHZ">
      <acc value="0.0449235086" flag="0"/>
      <vel value="0.0214456291" flag="0"/>
      <psa03 value="0.0567017265" flag="0"/>
      <psa10 value="0.0159030590" flag="0"/>
      <psa30 value="0.0025495173" flag="0"/>
    </comp>
    <comp name="--.HHN">
      <acc value="0.0657931504" flag="0"/>
      <vel value="0.0262646926" flag="0"/>
      <psa03 value="0.0698908863" flag="0"/>
      <psa10 value="0.0245492148" flag="0"/>
      <psa30 value="0.0015787521" flag="0"/>
    </comp>
  </station>
  <station code="SNT1" name="SNT1" netid="HA" insttype="30" lat="36.4159" lon="25.4282">
    <comp name="--.HHZ">
      <acc value="0.1333409292" flag="0"/>
      <vel value="0.0542226643" flag="0"/>
      <psa03 value="0.3165702410" flag="0"/>
      <psa10 value="0.0542133510" flag="0"/>
      <psa30 value="0.0058932144" flag="0"/>
    </comp>
    <comp name="--.HHE">
      <acc value="0.1678123607" flag="0"/>
      <vel value="0.0928786369" flag="0"/>
      <psa03 value="0.3015146711" flag="0"/>
      <psa10 value="0.0791903684" flag="0"/>
      <psa30 value="0.0132513637" flag="0"/>
    </comp>
    <comp name="--.HHN">
      <acc value="0.1614523128" flag="0"/>
      <vel value="0.0963457329" flag="0"/>
      <psa03 value="0.2272849890" flag="0"/>
      <psa10 value="0.0902337345" flag="0"/>
      <psa30 value="0.0148266094" flag="0"/>
    </comp>
  </station>
  <station code="NAX1" name="NAX1" netid="HI" insttype="CMG-5TD,ACCELEROMETER,GURALP" lat="37.1014" lon="25.3741">
    <comp name="--.HNZ">
      <acc value="0.0798647109" flag="0"/>
      <vel value="0.0263296912" flag="0"/>
      <psa03 value="0.0571640831" flag="0"/>
      <psa10 value="0.0305965224" flag="0"/>
      <psa30 value="0.0037153719" flag="0"/>
    </comp>
    <comp name="--.HNN">
      <acc value="0.1710934582" flag="0"/>
      <vel value="0.0397334844" flag="0"/>
      <psa03 value="0.1098861319" flag="0"/>
      <psa10 value="0.0186034533" flag="0"/>
      <psa30 value="0.0033674924" flag="0"/>
    </comp>
    <comp name="--.HNE">
      <acc value="0.1683198778" flag="0"/>
      <vel value="0.0424755763" flag="0"/>
      <psa03 value="0.1679754173" flag="0"/>
      <psa10 value="0.0185338050" flag="0"/>
      <psa30 value="0.0023569194" flag="0"/>
    </comp>
  </station>
  <station code="SFR2" name="SFR2" netid="HI" insttype="unknown" lat="36.3998" lon="25.4382">
    <comp name="--.HNN">
      <acc value="0.5278669064" flag="0"/>
      <vel value="0.2106500362" flag="0"/>
      <psa03 value="1.2121651920" flag="0"/>
      <psa10 value="0.1606059850" flag="0"/>
      <psa30 value="0.0101331061" flag="0"/>
    </comp>
    <comp name="--.HNE">
      <acc value="0.4699460594" flag="0"/>
      <vel value="0.1686697021" flag="0"/>
      <psa03 value="0.8744555485" flag="0"/>
      <psa10 value="0.1277334373" flag="0"/>
      <psa30 value="0.0186069322" flag="0"/>
    </comp>
    <comp name="--.HNZ">
      <acc value="0.5432803101" flag="0"/>
      <vel value="0.1556213578" flag="0"/>
      <psa03 value="0.6951664845" flag="0"/>
      <psa10 value="0.0609244719" flag="0"/>
      <psa30 value="0.0079427718" flag="0"/>
    </comp>
  </station>
  <station code="AMGA" name="AMGA" netid="HL" insttype="SMART24" lat="36.8316" lon="25.8938">
    <comp name="--.HHE">
      <acc value="0.9264966846" flag="0"/>
      <vel value="0.1786264827" flag="0"/>
      <psa03 value="0.4387232585" flag="0"/>
      <psa10 value="0.0505372525" flag="0"/>
      <psa30 value="0.0105839001" flag="0"/>
    </comp>
    <comp name="--.HHN">
      <acc value="0.6128265003" flag="0"/>
      <vel value="0.1339327341" flag="0"/>
      <psa03 value="0.5887385166" flag="0"/>
      <psa10 value="0.0598126606" flag="0"/>
      <psa30 value="0.0088973122" flag="0"/>
    </comp>
    <comp name="--.HHZ">
      <acc value="0.6386510422" flag="0"/>
      <vel value="0.1594096296" flag="0"/>
      <psa03 value="0.5304862935" flag="0"/>
      <psa10 value="0.0423954121" flag="0"/>
      <psa30 value="0.0072603600" flag="0"/>
    </comp>
  </station>
  <station code="APE" name="APE" netid="HL" insttype="120" lat="37.0727" lon="25.523">
    <comp name="--.HHE">
      <acc value="0.1477927463" flag="0"/>
      <vel value="0.0381688825" flag="0"/>
      <psa03 value="0.1573979904" flag="0"/>
      <psa10 value="0.0143681643" flag="0"/>
      <psa30 value="0.0032627530" flag="0"/>
    </comp>
    <comp name="--.HHZ">
      <acc value="0.0677307453" flag="0"/>
      <vel value="0.0163203086" flag="0"/>
      <psa03 value="0.0608383314" flag="0"/>
      <psa10 value="0.0104597650" flag="0"/>
      <psa30 value="0.0043389322" flag="0"/>
    </comp>
    <comp name="--.HHN">
      <acc value="0.1596133292" flag="0"/>
      <vel value="0.0326092663" flag="0"/>
      <psa03 value="0.0910926497" flag="0"/>
      <psa10 value="0.0170455019" flag="0"/>
      <psa30 value="0.0043021685" flag="0"/>
    </comp>
  </station>
  <station code="MHLO" name="MHLO" netid="HL" insttype="20" lat="36.6898" lon="24.4017">
    <comp name="--.HHE">
      <acc value="0.1516223733" flag="0"/>
      <vel value="0.0665931314" flag="0"/>
      <psa03 value="0.3991933062" flag="0"/>
      <psa10 value="0.0844070165" flag="0"/>
      <psa30 value="0.0059318518" flag="0"/>
    </comp>
    <comp name="--.HHN">
      <acc value="0.1259852539" flag="0"/>
      <vel value="0.0658059654" flag="0"/>
      <psa03 value="0.2879554339" flag="0"/>
      <psa10 value="0.1107337803" flag="0"/>
      <psa30 value="0.0044139876" flag="0"/>
    </comp>
    <comp name="--.HHZ">
      <acc value="0.0382860980" flag="0"/>
      <vel value="0.0266735877" flag="0"/>
      <psa03 value="0.0699081938" flag="0"/>
      <psa10 value="0.0391026699" flag="0"/>
      <psa30 value="0.0025816514" flag="0"/>
    </comp>
  </station>
  <station code="MILA" name="MILA" netid="HL" insttype="CMG-5" lat="36.7429" lon="24.4282">
    <comp name="00.HNE">
      <acc value="0.1456494476" flag="0"/>
      <vel value="0.0694234054" flag="0"/>
      <psa03 value="0.1903841848" flag="0"/>
      <psa10 value="0.0806786167" flag="0"/>
      <psa30 value="0.0055303868" flag="0"/>
    </comp>
    <comp name="00.HNZ">
      <acc value="0.0825050579" flag="0"/>
      <vel value="0.0564104843" flag="0"/>
      <psa03 value="0.1249142908" flag="0"/>
      <psa10 value="0.0645295393" flag="0"/>
      <psa30 value="0.0044301831" flag="0"/>
    </comp>
    <comp name="00.HNN">
      <acc value="0.1623700043" flag="0"/>
      <vel value="0.1165936024" flag="0"/>
      <psa03 value="0.3250320067" flag="0"/>
      <psa10 value="0.1050078272" flag="0"/>
      <psa30 value="0.0078244062" flag="0"/>
    </comp>
  </station>
  <station code="SANT" name="SANT" netid="HL" insttype="30" lat="36.3705" lon="25.4593">
    <comp name="--.HHE">
      <acc value="0.5330954476" flag="0"/>
      <vel value="0.1341087479" flag="0"/>
      <psa03 value="0.4847550527" flag="0"/>
      <psa10 value="0.0569142104" flag="0"/>
      <psa30 value="0.0071322702" flag="0"/>
    </comp>
    <comp name="--.HHN">
      <acc value="0.3841800775" flag="0"/>
      <vel value="0.0659395618" flag="0"/>
      <psa03 value="0.2519535408" flag="0"/>
      <psa10 value="0.0502226260" flag="0"/>
      <psa30 value="0.0065281496" flag="0"/>
    </comp>
    <comp name="--.HHZ">
      <acc value="0.4582114226" flag="0"/>
      <vel value="0.0694204318" flag="0"/>
      <psa03 value="0.2467717775" flag="0"/>
      <psa10 value="0.0345889020" flag="0"/>
      <psa30 value="0.0044943252" flag="0"/>
    </comp>
  </station>
  <station code="SAP3" name="SAP3" netid="HL" insttype="65535" lat="36.4356" lon="25.3454">
    <comp name="--.HHE">
      <acc value="0.6045228003" flag="0"/>
      <vel value="0.1956538454" flag="0"/>
      <psa03 value="0.7646874263" flag="0"/>
      <psa10 value="0.1213725157" flag="0"/>
      <psa30 value="0.0143568985" flag="0"/>
    </comp>
    <comp name="--.HHN">
      <acc value="0.5036815843" flag="0"/>
      <vel value="0.1759244908" flag="0"/>
      <psa03 value="0.8285006632" flag="0"/>
      <psa10 value="0.0728676782" flag="0"/>
      <psa30 value="0.0115609193" flag="0"/>
    </comp>
    <comp name="--.HHZ">
      <acc value="0.3574315725" flag="0"/>
      <vel value="0.1063917794" flag="0"/>
      <psa03 value="0.5801865803" flag="0"/>
      <psa10 value="0.0321499054" flag="0"/>
      <psa30 value="0.0052348082" flag="0"/>
    </comp>
  </station>
  <station code="THERA" name="THERA" netid="HL" insttype="120" lat="36.367" lon="25.4753">
    <comp name="--.HHN">
      <acc value="0.2376161132" flag="0"/>
      <vel value="0.0812691989" flag="0"/>
      <psa03 value="0.4322397547" flag="0"/>
      <psa10 value="0.0354470890" flag="0"/>
      <psa30 value="0.0073428551" flag="0"/>
    </comp>
    <comp name="--.HHE">
      <acc value="0.1677774846" flag="0"/>
      <vel value="0.0603118269" flag="0"/>
      <psa03 value="0.2536056459" flag="0"/>
      <psa10 value="0.0359159350" flag="0"/>
      <psa30 value="0.0062625359" flag="0"/>
    </comp>
    <comp name="--.HHZ">
      <acc value="0.1598377063" flag="0"/>
      <vel value="0.0547150346" flag="0"/>
      <psa03 value="0.1978594663" flag="0"/>
      <psa10 value="0.0432185124" flag="0"/>
      <psa30 value="0.0050285478" flag="0"/>
    </comp>
  </station>
  <station code="THRA" name="THRA" netid="HL" insttype="CMG-5" lat="36.415" lon="25.4324">
    <comp name="00.HNN">
      <acc value="0.4916238833" flag="0"/>
      <vel value="0.1872329935" flag="0"/>
      <psa03 value="1.5800399871" flag="0"/>
      <psa10 value="0.2959832300" flag="0"/>
      <psa30 value="0.0234375856" flag="0"/>
    </comp>
    <comp name="00.HNE">
      <acc value="0.6017066244" flag="0"/>
      <vel value="0.2558596142" flag="0"/>
      <psa03 value="1.4287073138" flag="0"/>
      <psa10 value="0.2075759554" flag="0"/>
      <psa30 value="0.0243024385" flag="0"/>
    </comp>
    <comp name="00.HNZ">
      <acc value="0.4478332043" flag="0"/>
      <vel value="0.1739585674" flag="0"/>
      <psa03 value="0.8722744298" flag="0"/>
      <psa10 value="0.1376603843" flag="0"/>
      <psa30 value="0.0093439839" flag="0"/>
    </comp>
  </station>
  <station code="TNSA" name="TNSA" netid="HL" insttype="CMG-5" lat="37.5394" lon="25.1631">
    <comp name="00.HNZ">
      <acc value="0.0590595338" flag="0"/>
      <vel value="0.0401951599" flag="0"/>
      <psa03 value="0.0809626917" flag="0"/>
      <psa10 value="0.0281398089" flag="0"/>
      <psa30 value="0.0030623686" flag="0"/>
    </comp>
    <comp name="00.HNE">
      <acc value="0.0421339721" flag="0"/>
      <vel value="0.0187027706" flag="0"/>
      <psa03 value="0.0760078420" flag="0"/>
      <psa10 value="0.0142825352" flag="0"/>
      <psa30 value="0.0014028348" flag="0"/>
    </comp>
    <comp name="00.HNN">
      <acc value="0.0603536307" flag="0"/>
      <vel value="0.0329695872" flag="0"/>
      <psa03 value="0.1046005326" flag="0"/>
      <psa10 value="0.0256806944" flag="0"/>
      <psa30 value="0.0023018573" flag="0"/>
    </comp>
  </station>
  <station code="AKRO" name="AKRO" netid="HT" insttype="Compact," lat="36.3584" lon="25.3967">
    <comp name="--.HHE">
      <acc value="0.7704611936" flag="0"/>
      <vel value="0.2822425974" flag="0"/>
      <psa03 value="1.1036741588" flag="0"/>
      <psa10 value="0.1698654005" flag="0"/>
      <psa30 value="0.0105050814" flag="0"/>
    </comp>
    <comp name="--.HHN">
      <acc value="0.5987004695" flag="0"/>
      <vel value="0.1554561697" flag="0"/>
      <psa03 value="0.6043182427" flag="0"/>
      <psa10 value="0.1134770895" flag="0"/>
      <psa30 value="0.0082691767" flag="0"/>
    </comp>
    <comp name="--.HHZ">
      <acc value="0.3485540449" flag="0"/>
      <vel value="0.1254996373" flag="0"/>
      <psa03 value="0.4090053655" flag="0"/>
      <psa10 value="0.0559134906" flag="0"/>
      <psa30 value="0.0077946300" flag="0"/>
    </comp>
  </station>
  <station code="CMBO" name="CMBO" netid="HT" insttype="120P," lat="36.4709" lon="25.4056">
    <comp name="--.HHN">
      <acc value="0.4094819827" flag="0"/>
      <vel value="0.1835802357" flag="0"/>
      <psa03 value="0.6564719366" flag="0"/>
      <psa10 value="0.1383846609" flag="0"/>
      <psa30 value="0.0116572303" flag="0"/>
    </comp>
    <comp name="--.HHE">
      <acc value="0.4190944972" flag="0"/>
      <vel value="0.1209625648" flag="0"/>
      <psa03 value="0.5720553101" flag="0"/>
      <psa10 value="0.0920559504" flag="0"/>
      <psa30 value="0.0102490155" flag="0"/>
    </comp>
    <comp name="--.HHZ">
      <acc value="0.4033436523" flag="0"/>
      <vel value="0.1302385777" flag="0"/>
      <psa03 value="1.0884354004" flag="0"/>
      <psa10 value="0.0452526439" flag="0"/>
      <psa30 value="0.0107801168" flag="0"/>
    </comp>
  </station>
</stationlist>
