<stationlist created="1741951941">
	<station code="BODA" name="BODA" netid="KO" source="Bogazici University Kandilli Observatory And Earthquake Research Institute (KOERI)" insttype="" lat="37.0348" lon="27.4304">
		<comp name=".HNE" depth="0.0">
			<acc value="0.0062640839201448" flag="0"/>
			<vel value="0.00251624292022" flag="0"/>
			<psa03 value="0.0290353531371687" flag="0"/>
			<psa10 value="0.00324143254149823" flag="0"/>
			<psa30 value="0.000607030004426764" flag="0"/>
		</comp>
		<comp name=".HNN" depth="0.0">
			<acc value="0.0060841323487506" flag="0"/>
			<vel value="0.00328413975806" flag="0"/>
			<psa03 value="0.0173020914911355" flag="0"/>
			<psa10 value="0.00321133046925922" flag="0"/>
			<psa30 value="0.000396091681838147" flag="0"/>
		</comp>
		<comp name=".HNZ" depth="0.0">
			<acc value="0.010865544248934" flag="0"/>
			<vel value="0.00181039591027" flag="0"/>
			<psa03 value="0.00402832675270942" flag="0"/>
			<psa10 value="0.00202711053612375" flag="0"/>
			<psa30 value="0.000603362105195426" flag="0"/>
		</comp>
	</station>
	<station code="BODM" name="BODM" netid="KO" source="Bogazici University Kandilli Observatory And Earthquake Research Institute (KOERI)" insttype="" lat="37.031" lon="27.4247">
		<comp name=".HNE" depth="0.0">
			<acc value="0.004534173652587" flag="0"/>
			<vel value="0.00285868774869" flag="0"/>
			<psa03 value="0.0146274533720091" flag="0"/>
			<psa10 value="0.00315047589106426" flag="0"/>
			<psa30 value="0.00064198929947432" flag="0"/>
		</comp>
		<comp name=".HNN" depth="0.0">
			<acc value="0.0074373014600634" flag="0"/>
			<vel value="0.00528604368372" flag="0"/>
			<psa03 value="0.0188983508813165" flag="0"/>
			<psa10 value="0.00462201946736589" flag="0"/>
			<psa30 value="0.000489386534038611" flag="0"/>
		</comp>
		<comp name=".HNZ" depth="0.0">
			<acc value="0.0021447868703874" flag="0"/>
			<vel value="0.00190570763885" flag="0"/>
			<psa03 value="0.00387483123282163" flag="0"/>
			<psa10 value="0.00187288567104581" flag="0"/>
			<psa30 value="0.000599745511445263" flag="0"/>
		</comp>
	</station>
	<station code="CESE" name="CESE" netid="KO" source="Bogazici University Kandilli Observatory And Earthquake Research Institute (KOERI)" insttype="" lat="38.3306" lon="26.2997">
		<comp name=".HNE" depth="0.0">
			<acc value="0.07552601660793" flag="0"/>
			<vel value="0.00467957472773" flag="0"/>
			<psa03 value="0.0044000502707985" flag="0"/>
			<psa10 value="0.00287726935497361" flag="0"/>
			<psa30 value="0.00114098902242209" flag="0"/>
		</comp>
		<comp name=".HNN" depth="0.0">
			<acc value="0.062413393134852" flag="0"/>
			<vel value="0.0047057339349" flag="0"/>
			<psa03 value="0.00757678577904298" flag="0"/>
			<psa10 value="0.00372504020313369" flag="0"/>
			<psa30 value="0.0012713742223031" flag="0"/>
		</comp>
		<comp name=".HNZ" depth="0.0">
			<acc value="0.014537515007268" flag="0"/>
			<vel value="0.0021349079792" flag="0"/>
			<psa03 value="0.00377568599306242" flag="0"/>
			<psa10 value="0.00177877013948103" flag="0"/>
			<psa30 value="0.00117861776514363" flag="0"/>
		</comp>
	</station>
	<station code="DATC" name="DATC" netid="KO" source="Bogazici University Kandilli Observatory And Earthquake Research Institute (KOERI)" insttype="" lat="36.7584" lon="27.6602">
		<comp name=".HNE" depth="0.0">
			<acc value="0.0100893016644612" flag="0"/>
			<vel value="0.00413435193815" flag="0"/>
			<psa03 value="0.013852485367502" flag="0"/>
			<psa10 value="0.00647301130521917" flag="0"/>
			<psa30 value="0.00125408380606532" flag="0"/>
		</comp>
		<comp name=".HNN" depth="0.0">
			<acc value="0.01022610569487" flag="0"/>
			<vel value="0.0042363842972" flag="0"/>
			<psa03 value="0.010995478396477" flag="0"/>
			<psa10 value="0.010188464935795" flag="0"/>
			<psa30 value="0.00109916875203601" flag="0"/>
		</comp>
		<comp name=".HNZ" depth="0.0">
			<acc value="0.015951459687258" flag="0"/>
			<vel value="0.00504204293655" flag="0"/>
			<psa03 value="0.00862441702843992" flag="0"/>
			<psa10 value="0.00779508357352957" flag="0"/>
			<psa30 value="0.000953844020820568" flag="0"/>
		</comp>
	</station>
	<station code="DIDI" name="DIDI" netid="KO" source="Bogazici University Kandilli Observatory And Earthquake Research Institute (KOERI)" insttype="" lat="37.3767" lon="27.2398">
		<comp name=".HNE" depth="0.0">
			<acc value="0.02122942792107" flag="0"/>
			<vel value="0.00816460919342" flag="0"/>
			<psa03 value="0.0481265944005786" flag="0"/>
			<psa10 value="0.0116389035202202" flag="0"/>
			<psa30 value="0.00189180990645288" flag="0"/>
		</comp>
		<comp name=".HNN" depth="0.0">
			<acc value="0.018222874222056" flag="0"/>
			<vel value="0.00834295803493" flag="0"/>
			<psa03 value="0.037883147593425" flag="0"/>
			<psa10 value="0.0114151740117563" flag="0"/>
			<psa30 value="0.00189931477861826" flag="0"/>
		</comp>
		<comp name=".HNZ" depth="0.0">
			<acc value="0.035120870921064" flag="0"/>
			<vel value="0.00592961580833" flag="0"/>
			<psa03 value="0.0303346214989666" flag="0"/>
			<psa10 value="0.00937655396318581" flag="0"/>
			<psa30 value="0.00119155893493298" flag="0"/>
		</comp>
	</station>
	<station code="GMLD" name="GMLD" netid="KO" source="Bogazici University Kandilli Observatory And Earthquake Research Institute (KOERI)" insttype="" lat="38.0766" lon="26.9157">
		<comp name=".HNE" depth="0.0">
			<acc value="0.01024053886521" flag="0"/>
			<vel value="0.00620389425452" flag="0"/>
			<psa03 value="0.0277591071338012" flag="0"/>
			<psa10 value="0.00934093410355982" flag="0"/>
			<psa30 value="0.000856331727774626" flag="0"/>
		</comp>
		<comp name=".HNN" depth="0.0">
			<acc value="0.010588768261692" flag="0"/>
			<vel value="0.00683601797849" flag="0"/>
			<psa03 value="0.0261390961701741" flag="0"/>
			<psa10 value="0.0072835126532086" flag="0"/>
			<psa30 value="0.000657779355906291" flag="0"/>
		</comp>
		<comp name=".HNZ" depth="0.0">
			<acc value="0.0070782603519558" flag="0"/>
			<vel value="0.00400279282874" flag="0"/>
			<psa03 value="0.0177549613352868" flag="0"/>
			<psa10 value="0.00298195871200595" flag="0"/>
			<psa30 value="0.000445318979363517" flag="0"/>
		</comp>
	</station>
	<station code="KUSD" name="KUSD" netid="KO" source="Bogazici University Kandilli Observatory And Earthquake Research Institute (KOERI)" insttype="" lat="37.8606" lon="27.2868">
		<comp name=".HNE" depth="0.0">
			<acc value="0.0081729210428616" flag="0"/>
			<vel value="0.00241857277141" flag="0"/>
			<psa03 value="0.00598661924041328" flag="0"/>
			<psa10 value="0.00472319554478744" flag="0"/>
			<psa30 value="0.000885056130625995" flag="0"/>
		</comp>
		<comp name=".HNN" depth="0.0">
			<acc value="0.015487155885852" flag="0"/>
			<vel value="0.0029575359423" flag="0"/>
			<psa03 value="0.00725637588155962" flag="0"/>
			<psa10 value="0.00476851401563564" flag="0"/>
			<psa30 value="0.000749297866471789" flag="0"/>
		</comp>
		<comp name=".HNZ" depth="0.0">
			<acc value="0.0038894691736032" flag="0"/>
			<vel value="0.00184143472304" flag="0"/>
			<psa03 value="0.00355460103476919" flag="0"/>
			<psa10 value="0.00197145473982636" flag="0"/>
			<psa30 value="0.000728514354249177" flag="0"/>
		</comp>
	</station>
	<station code="YKAV" name="YKAV" netid="KO" source="Bogazici University Kandilli Observatory And Earthquake Research Institute (KOERI)" insttype="" lat="37.1246" lon="27.2801">
		<comp name=".HNE" depth="0.0">
			<acc value="0.0080605124679882" flag="0"/>
			<vel value="0.00506859578287" flag="0"/>
			<psa03 value="0.0214132362301547" flag="0"/>
			<psa10 value="0.00809258515654783" flag="0"/>
			<psa30 value="0.00122503709019629" flag="0"/>
		</comp>
		<comp name=".HNN" depth="0.0">
			<acc value="0.0072558382054518" flag="0"/>
			<vel value="0.00373650512409" flag="0"/>
			<psa03 value="0.0126268742288486" flag="0"/>
			<psa10 value="0.00603877144520459" flag="0"/>
			<psa30 value="0.000593890436078193" flag="0"/>
		</comp>
		<comp name=".HNZ" depth="0.0">
			<acc value="0.0066879054556818" flag="0"/>
			<vel value="0.00311531425044" flag="0"/>
			<psa03 value="0.00939811867297582" flag="0"/>
			<psa10 value="0.0031083538038081" flag="0"/>
			<psa30 value="0.000888657723379143" flag="0"/>
		</comp>
	</station>
</stationlist>
