<?xml version="1.0" encoding="UTF-8" standalone="yes"?>
<!DOCTYPE earthquake SYSTEM "stationlist.dtd">
<stationlist created="" xmlns="ch.ethz.sed.shakemap.usgs.xml">
  <station code="EVR" name="EVR" netid="HL" insttype="DR24" lat="38.9166" lon="21.8105">
    <comp name="--.HHN">
      <acc value="0.0085810852" flag="0"/>
      <vel value="0.0052634833" flag="0"/>
      <psa03 value="0.0347283892" flag="0"/>
      <psa10 value="0.0036627476" flag="0"/>
      <psa30 value="0.0010160849" flag="0"/>
    </comp>
    <comp name="--.HHZ">
      <acc value="0.0065792197" flag="0"/>
      <vel value="0.0035825696" flag="0"/>
      <psa03 value="0.0247927861" flag="0"/>
      <psa10 value="0.0044901885" flag="0"/>
      <psa30 value="0.0004572739" flag="0"/>
    </comp>
    <comp name="--.HHE">
      <acc value="0.0080033250" flag="0"/>
      <vel value="0.0054441948" flag="0"/>
      <psa03 value="0.0274769225" flag="0"/>
      <psa10 value="0.0058190708" flag="0"/>
      <psa30 value="0.0007738021" flag="0"/>
    </comp>
  </station>
  <station code="JAN" name="JAN" netid="HL" insttype="CMG3EPSC60_DR24" lat="39.6562" lon="20.8487">
    <comp name="--.HHE">
      <acc value="0.0040143183" flag="0"/>
      <vel value="0.0025719180" flag="0"/>
      <psa03 value="0.0108317211" flag="0"/>
      <psa10 value="0.0027850904" flag="0"/>
      <psa30 value="0.0009867097" flag="0"/>
    </comp>
    <comp name="--.HHN">
      <acc value="0.0042783783" flag="0"/>
      <vel value="0.0024959716" flag="0"/>
      <psa03 value="0.0120740457" flag="0"/>
      <psa10 value="0.0027748342" flag="0"/>
      <psa30 value="0.0004104934" flag="0"/>
    </comp>
    <comp name="--.HHZ">
      <acc value="0.0024760863" flag="0"/>
      <vel value="0.0017455604" flag="0"/>
      <psa03 value="0.0056090647" flag="0"/>
      <psa10 value="0.0017466189" flag="0"/>
      <psa30 value="0.0006328031" flag="0"/>
    </comp>
  </station>
  <station code="KZN" name="KZN" netid="HL" insttype="120" lat="40.3033" lon="21.7821">
    <comp name="--.HHZ">
      <acc value="0.0078418374" flag="0"/>
      <vel value="0.0033595916" flag="0"/>
      <psa03 value="0.0251297963" flag="0"/>
      <psa10 value="0.0016255029" flag="0"/>
      <psa30 value="0.0006664563" flag="0"/>
    </comp>
    <comp name="--.HHN">
      <acc value="0.0170147990" flag="0"/>
      <vel value="0.0083152911" flag="0"/>
      <psa03 value="0.0647222541" flag="0"/>
      <psa10 value="0.0023427210" flag="0"/>
      <psa30 value="0.0005537657" flag="0"/>
    </comp>
    <comp name="--.HHE">
      <acc value="0.0206341254" flag="0"/>
      <vel value="0.0105123261" flag="0"/>
      <psa03 value="0.0916814981" flag="0"/>
      <psa10 value="0.0043286855" flag="0"/>
      <psa30 value="0.0004941925" flag="0"/>
    </comp>
  </station>
  <station code="NEO" name="NEO" netid="HL" insttype="120" lat="39.3057" lon="23.2219">
    <comp name="--.HHN">
      <acc value="0.0105798694" flag="0"/>
      <vel value="0.0060128396" flag="0"/>
      <psa03 value="0.0278033003" flag="0"/>
      <psa10 value="0.0031234748" flag="0"/>
      <psa30 value="0.0004285091" flag="0"/>
    </comp>
    <comp name="--.HHZ">
      <acc value="0.0002306419" flag="0"/>
      <vel value="0.0000139519" flag="0"/>
      <psa03 value="0.0000810187" flag="0"/>
      <psa10 value="0.0000105826" flag="0"/>
      <psa30 value="0.0000025638" flag="0"/>
    </comp>
    <comp name="--.HHE">
      <acc value="0.0085038229" flag="0"/>
      <vel value="0.0048223653" flag="0"/>
      <psa03 value="0.0214122578" flag="0"/>
      <psa10 value="0.0024084152" flag="0"/>
      <psa30 value="0.0003733072" flag="0"/>
    </comp>
  </station>
  <station code="PENT" name="PENT" netid="HL" insttype="30s-100Hz," lat="40.1959" lon="21.1384">
    <comp name="--.HHN">
      <acc value="0.0037727517" flag="0"/>
      <vel value="0.0022835661" flag="0"/>
      <psa03 value="0.0088226739" flag="0"/>
      <psa10 value="0.0028122790" flag="0"/>
      <psa30 value="0.0004542873" flag="0"/>
    </comp>
    <comp name="--.HHE">
      <acc value="0.0036096263" flag="0"/>
      <vel value="0.0018613430" flag="0"/>
      <psa03 value="0.0108794663" flag="0"/>
      <psa10 value="0.0029182613" flag="0"/>
      <psa30 value="0.0007204339" flag="0"/>
    </comp>
    <comp name="--.HHZ">
      <acc value="0.0030315608" flag="0"/>
      <vel value="0.0017949610" flag="0"/>
      <psa03 value="0.0079514581" flag="0"/>
      <psa10 value="0.0024964557" flag="0"/>
      <psa30 value="0.0010291925" flag="0"/>
    </comp>
  </station>
  <station code="TETR" name="TETR" netid="HL" insttype="60" lat="39.3445" lon="21.2747">
    <comp name="--.HHE">
      <acc value="0.0253706775" flag="0"/>
      <vel value="0.0137712112" flag="0"/>
      <psa03 value="0.0800671009" flag="0"/>
      <psa10 value="0.0099556816" flag="0"/>
      <psa30 value="0.0012376583" flag="0"/>
    </comp>
    <comp name="--.HHN">
      <acc value="0.0259002761" flag="0"/>
      <vel value="0.0098932605" flag="0"/>
      <psa03 value="0.0499361976" flag="0"/>
      <psa10 value="0.0113330202" flag="0"/>
      <psa30 value="0.0011547356" flag="0"/>
    </comp>
    <comp name="--.HHZ">
      <acc value="0.0136450369" flag="0"/>
      <vel value="0.0070378049" flag="0"/>
      <psa03 value="0.0352189525" flag="0"/>
      <psa10 value="0.0058379516" flag="0"/>
      <psa30 value="0.0009346620" flag="0"/>
    </comp>
  </station>
  <station code="THL" name="THL" netid="HL" insttype="120" lat="39.5647" lon="22.0144">
    <comp name="--.HHN">
      <acc value="0.0415257052" flag="0"/>
      <vel value="0.0157998043" flag="0"/>
      <psa03 value="0.0635128003" flag="0"/>
      <psa10 value="0.0153130592" flag="0"/>
      <psa30 value="0.0040288864" flag="0"/>
    </comp>
    <comp name="--.HHE">
      <acc value="0.0429303948" flag="0"/>
      <vel value="0.0158443428" flag="0"/>
      <psa03 value="0.1418818526" flag="0"/>
      <psa10 value="0.0117141334" flag="0"/>
      <psa30 value="0.0014633136" flag="0"/>
    </comp>
    <comp name="--.HHZ">
      <acc value="0.0533138409" flag="0"/>
      <vel value="0.0110467767" flag="0"/>
      <psa03 value="0.0486338949" flag="0"/>
      <psa10 value="0.0118672370" flag="0"/>
      <psa30 value="0.0023702358" flag="0"/>
    </comp>
  </station>
  <station code="AMPL" name="AMPL" netid="HP" insttype="Compact," lat="38.9224" lon="21.2135">
    <comp name="--.HHE">
      <acc value="0.0027317185" flag="0"/>
      <vel value="0.0024762286" flag="0"/>
      <psa03 value="0.0080125774" flag="0"/>
      <psa10 value="0.0029945253" flag="0"/>
      <psa30 value="0.0004471856" flag="0"/>
    </comp>
    <comp name="--.HHN">
      <acc value="0.0029727858" flag="0"/>
      <vel value="0.0021420831" flag="0"/>
      <psa03 value="0.0097078504" flag="0"/>
      <psa10 value="0.0029911768" flag="0"/>
      <psa30 value="0.0003231916" flag="0"/>
    </comp>
    <comp name="--.HHZ">
      <acc value="0.0014504367" flag="0"/>
      <vel value="0.0013653198" flag="0"/>
      <psa03 value="0.0049301963" flag="0"/>
      <psa10 value="0.0017112972" flag="0"/>
      <psa30 value="0.0002967599" flag="0"/>
    </comp>
  </station>
  <station code="KANL" name="KANL" netid="HP" insttype="" lat="39.8334" lon="22.0247">
    <comp name="--.HHE">
      <acc value="4.0284986349" flag="0"/>
      <vel value="1.2166246629" flag="0"/>
      <psa03 value="3.5865301536" flag="0"/>
      <psa10 value="0.1917988515" flag="0"/>
      <psa30 value="0.0245570038" flag="0"/>
    </comp>
    <comp name="--.HHZ">
      <acc value="2.3660813200" flag="0"/>
      <vel value="0.3530224533" flag="0"/>
      <psa03 value="0.8106095692" flag="0"/>
      <psa10 value="0.1110277349" flag="0"/>
      <psa30 value="0.0126641791" flag="0"/>
    </comp>
  </station>
  <station code="PRMD" name="PRMD" netid="HP" insttype="120P," lat="39.5299" lon="21.0965">
    <comp name="--.HHE">
      <acc value="0.0096033185" flag="0"/>
      <vel value="0.0067038411" flag="0"/>
      <psa03 value="0.0258979945" flag="0"/>
      <psa10 value="0.0082575792" flag="0"/>
      <psa30 value="0.0014478253" flag="0"/>
    </comp>
    <comp name="--.HHN">
      <acc value="0.0089141782" flag="0"/>
      <vel value="0.0045672500" flag="0"/>
      <psa03 value="0.0303419970" flag="0"/>
      <psa10 value="0.0074647441" flag="0"/>
      <psa30 value="0.0009995220" flag="0"/>
    </comp>
    <comp name="--.HHZ">
      <acc value="0.0065746112" flag="0"/>
      <vel value="0.0047434221" flag="0"/>
      <psa03 value="0.0163261074" flag="0"/>
      <psa10 value="0.0061755016" flag="0"/>
      <psa30 value="0.0022308449" flag="0"/>
    </comp>
  </station>
  <station code="VRKS" name="VRKS" netid="HP" insttype="" lat="39.784" lon="21.9765">
    <comp name="--.HHN">
      <acc value="2.8217300997" flag="0"/>
      <vel value="0.5128706513" flag="0"/>
      <psa03 value="2.3134525458" flag="0"/>
      <psa10 value="0.1641593182" flag="0"/>
      <psa30 value="0.0123594624" flag="0"/>
    </comp>
    <comp name="--.HHZ">
      <acc value="2.7239686034" flag="0"/>
      <vel value="0.4101577247" flag="0"/>
      <psa03 value="2.5230678636" flag="0"/>
      <psa10 value="0.1018172312" flag="0"/>
      <psa30 value="0.0112628120" flag="0"/>
    </comp>
    <comp name="--.HHE">
      <acc value="3.0242227088" flag="0"/>
      <vel value="0.7679845637" flag="0"/>
      <psa03 value="3.6387639039" flag="0"/>
      <psa10 value="0.1745737638" flag="0"/>
      <psa30 value="0.0158358214" flag="0"/>
    </comp>
  </station>
  <station code="AGG" name="AGG" netid="HT" insttype="120P," lat="39.0211" lon="22.336">
    <comp name="--.HHN">
      <acc value="0.0166241357" flag="0"/>
      <vel value="0.0072425072" flag="0"/>
      <psa03 value="0.0668688475" flag="0"/>
      <psa10 value="0.0030906724" flag="0"/>
      <psa30 value="0.0005035613" flag="0"/>
    </comp>
    <comp name="--.HHE">
      <acc value="0.0117663969" flag="0"/>
      <vel value="0.0054651236" flag="0"/>
      <psa03 value="0.0293000078" flag="0"/>
      <psa10 value="0.0041393282" flag="0"/>
      <psa30 value="0.0003534020" flag="0"/>
    </comp>
    <comp name="--.HHZ">
      <acc value="0.0071589560" flag="0"/>
      <vel value="0.0027857867" flag="0"/>
      <psa03 value="0.0172472029" flag="0"/>
      <psa10 value="0.0024753304" flag="0"/>
      <psa30 value="0.0005799325" flag="0"/>
    </comp>
  </station>
  <station code="LIT" name="LIT" netid="HT" insttype="100" lat="40.1033" lon="22.4892">
    <comp name="--.HHE">
      <acc value="0.0327593822" flag="0"/>
      <vel value="0.0152490862" flag="0"/>
      <psa03 value="0.0757484122" flag="0"/>
      <psa10 value="0.0045721983" flag="0"/>
      <psa30 value="0.0021594582" flag="0"/>
    </comp>
    <comp name="--.HHN">
      <acc value="0.0562873102" flag="0"/>
      <vel value="0.0235680502" flag="0"/>
      <psa03 value="0.1183656366" flag="0"/>
      <psa10 value="0.0060543778" flag="0"/>
      <psa30 value="0.0021123130" flag="0"/>
    </comp>
    <comp name="--.HHZ">
      <acc value="0.0185584011" flag="0"/>
      <vel value="0.0086609191" flag="0"/>
      <psa03 value="0.0441166695" flag="0"/>
      <psa10 value="0.0049792730" flag="0"/>
      <psa30 value="0.0021127647" flag="0"/>
    </comp>
  </station>
  <station code="NESN" name="NESN" netid="HT" insttype="1s-100Hz," lat="39.7267" lon="22.5399">
    <comp name="--.HHZ">
      <acc value="0.0323342271" flag="0"/>
      <vel value="0.0143029703" flag="0"/>
      <psa03 value="0.0654258972" flag="0"/>
      <psa10 value="0.0051084038" flag="0"/>
      <psa30 value="0.0010915142" flag="0"/>
    </comp>
    <comp name="--.HHE">
      <acc value="0.0537668696" flag="0"/>
      <vel value="0.0266491863" flag="0"/>
      <psa03 value="0.1402968580" flag="0"/>
      <psa10 value="0.0145396213" flag="0"/>
      <psa30 value="0.0020482917" flag="0"/>
    </comp>
    <comp name="--.HHN">
      <acc value="0.0946066761" flag="0"/>
      <vel value="0.0312638978" flag="0"/>
      <psa03 value="0.1236176249" flag="0"/>
      <psa10 value="0.0169835321" flag="0"/>
      <psa30 value="0.0015549048" flag="0"/>
    </comp>
  </station>
  <station code="NEST" name="NEST" netid="HT" insttype="120P," lat="40.4147" lon="21.0489">
    <comp name="--.HHN">
      <acc value="0.0023086215" flag="0"/>
      <vel value="0.0018421150" flag="0"/>
      <psa03 value="0.0064796745" flag="0"/>
      <psa10 value="0.0015206508" flag="0"/>
      <psa30 value="0.0007757791" flag="0"/>
    </comp>
    <comp name="--.HHE">
      <acc value="0.0043833038" flag="0"/>
      <vel value="0.0030091343" flag="0"/>
      <psa03 value="0.0096346624" flag="0"/>
      <psa10 value="0.0021008508" flag="0"/>
      <psa30 value="0.0006776882" flag="0"/>
    </comp>
    <comp name="--.HHZ">
      <acc value="0.0035633753" flag="0"/>
      <vel value="0.0030336422" flag="0"/>
      <psa03 value="0.0091010496" flag="0"/>
      <psa10 value="0.0042358594" flag="0"/>
      <psa30 value="0.0005133376" flag="0"/>
    </comp>
  </station>
  <station code="TYRN" name="TYRN" netid="HT" insttype="120P," lat="39.711" lon="22.2325">
    <comp name="--.HHN">
      <acc value="0.0471092229" flag="0"/>
      <vel value="0.0207751578" flag="0"/>
      <psa03 value="0.0675647123" flag="0"/>
      <psa10 value="0.0106107805" flag="0"/>
      <psa30 value="0.0016033532" flag="0"/>
    </comp>
    <comp name="--.HHE">
      <acc value="0.0598389812" flag="0"/>
      <vel value="0.0189695560" flag="0"/>
      <psa03 value="0.0839717016" flag="0"/>
      <psa10 value="0.0133096689" flag="0"/>
      <psa30 value="0.0015477028" flag="0"/>
    </comp>
    <comp name="--.HHZ">
      <acc value="0.0745122854" flag="0"/>
      <vel value="0.0197046335" flag="0"/>
      <psa03 value="0.0722348185" flag="0"/>
      <psa10 value="0.0092701140" flag="0"/>
      <psa30 value="0.0026610187" flag="0"/>
    </comp>
  </station>
  <station code="XOR" name="XOR" netid="HT" insttype="Compact," lat="39.366" lon="23.1918">
    <comp name="--.HHZ">
      <acc value="0.0099173077" flag="0"/>
      <vel value="0.0061691328" flag="0"/>
      <psa03 value="0.0201771628" flag="0"/>
      <psa10 value="0.0026603360" flag="0"/>
      <psa30 value="0.0013499381" flag="0"/>
    </comp>
    <comp name="--.HHE">
      <acc value="0.0099915929" flag="0"/>
      <vel value="0.0062626578" flag="0"/>
      <psa03 value="0.0210189327" flag="0"/>
      <psa10 value="0.0040887583" flag="0"/>
      <psa30 value="0.0009260010" flag="0"/>
    </comp>
    <comp name="--.HHN">
      <acc value="0.0215772306" flag="0"/>
      <vel value="0.0095183546" flag="0"/>
      <psa03 value="0.0609307034" flag="0"/>
      <psa10 value="0.0060160599" flag="0"/>
      <psa30 value="0.0007038841" flag="0"/>
    </comp>
  </station>
  <station code="THL" name="THL" netid="MN" insttype="" lat="39.5647" lon="22.0144">
    <comp name="--.HHE">
      <acc value="0.0429303948" flag="0"/>
      <vel value="0.0158443428" flag="0"/>
      <psa03 value="0.1418818526" flag="0"/>
      <psa10 value="0.0117141334" flag="0"/>
      <psa30 value="0.0014633136" flag="0"/>
    </comp>
    <comp name="--.HHN">
      <acc value="0.0415257052" flag="0"/>
      <vel value="0.0157998043" flag="0"/>
      <psa03 value="0.0635128003" flag="0"/>
      <psa10 value="0.0153130592" flag="0"/>
      <psa30 value="0.0040288864" flag="0"/>
    </comp>
    <comp name="--.HHZ">
      <acc value="0.0533138409" flag="0"/>
      <vel value="0.0110467767" flag="0"/>
      <psa03 value="0.0486338949" flag="0"/>
      <psa10 value="0.0118672370" flag="0"/>
      <psa30 value="0.0023702358" flag="0"/>
    </comp>
  </station>
</stationlist>
