<stationlist created="1778136705">
	<station code="ROD3" name="ROD3" netid="CL" source="Corinth Riff Laboratory (CRLNET)" insttype="" lat="38.30811" lon="21.89204">
		<comp name="00.HNE" depth="0.0">
			<acc value="0.00330524511209074" flag="0"/>
			<vel value="0.0013446461258562" flag="0"/>
			<psa03 value="0.0109955213680555" flag="0"/>
			<psa10 value="0.00193889941913398" flag="0"/>
			<psa30 value="0.000363834987699203" flag="0"/>
		</comp>
		<comp name="00.HNN" depth="0.0">
			<acc value="0.00372697455640904" flag="0"/>
			<vel value="0.00201939759578469" flag="0"/>
			<psa03 value="0.0115675110825017" flag="0"/>
			<psa10 value="0.00194988014655137" flag="0"/>
			<psa30 value="0.000440830036159588" flag="0"/>
		</comp>
		<comp name="00.HNZ" depth="0.0">
			<acc value="0.00223368317896679" flag="0"/>
			<vel value="0.000940511094388974" flag="0"/>
			<psa03 value="0.00309145674696383" flag="0"/>
			<psa10 value="0.00114731619937911" flag="0"/>
			<psa30 value="0.000274451670659708" flag="0"/>
		</comp>
	</station>
	<station code="AIGS" name="AIGS" netid="HA" source="Hellenic Seismological Network, University of Athens, Seismological Laboratory (HA)" insttype="" lat="38.25001" lon="22.0878">
		<comp name="--.HNE" depth="0.0">
			<acc value="0.00358465252856753" flag="0"/>
			<vel value="0.00216473311855729" flag="0"/>
			<psa03 value="0.00697069875375672" flag="0"/>
			<psa10 value="0.00534269533357526" flag="0"/>
			<psa30 value="0.00093794838447659" flag="0"/>
		</comp>
		<comp name="--.HNN" depth="0.0">
			<acc value="0.00284726228935143" flag="0"/>
			<vel value="0.00200098814017994" flag="0"/>
			<psa03 value="0.00625930462218099" flag="0"/>
			<psa10 value="0.0047085934837209" flag="0"/>
			<psa30 value="0.00063417622981318" flag="0"/>
		</comp>
		<comp name="--.HNZ" depth="0.0">
			<acc value="0.00542751272834755" flag="0"/>
			<vel value="0.00159783993567853" flag="0"/>
			<psa03 value="0.00348378254130776" flag="0"/>
			<psa10 value="0.00432912834601741" flag="0"/>
			<psa30 value="0.000658678217530873" flag="0"/>
		</comp>
	</station>
	<station code="XLKS" name="XLKS" netid="HA" source="Hellenic Seismological Network, University of Athens, Seismological Laboratory (HA)" insttype="" lat="38.0772" lon="22.6361">
		<comp name="--.HNE" depth="0.0">
			<acc value="0.00313278637738374" flag="0"/>
			<vel value="0.00249343740837452" flag="0"/>
			<psa03 value="0.00662547536355493" flag="0"/>
			<psa10 value="0.0077544402561189" flag="0"/>
			<psa30 value="0.000720776966688243" flag="0"/>
		</comp>
		<comp name="--.HNN" depth="0.0">
			<acc value="0.00483352364149646" flag="0"/>
			<vel value="0.00231541435526708" flag="0"/>
			<psa03 value="0.0103796784881934" flag="0"/>
			<psa10 value="0.00303118845760742" flag="0"/>
			<psa30 value="0.000800142015899793" flag="0"/>
		</comp>
		<comp name="--.HNZ" depth="0.0">
			<acc value="0.00832733704950606" flag="0"/>
			<vel value="0.00192562183418192" flag="0"/>
			<psa03 value="0.00681539484581371" flag="0"/>
			<psa10 value="0.00279231778984867" flag="0"/>
			<psa30 value="0.000877265093673908" flag="0"/>
		</comp>
	</station>
	<station code="LMS2" name="LMS2" netid="HI" source="ITSAK Strong Motion Network" insttype="" lat="40.834985" lon="21.141815">
		<comp name="--.HNE" depth="0.0">
			<acc value="0.00307017144146642" flag="0"/>
			<vel value="0.00160380041486962" flag="0"/>
			<psa03 value="0.00851434788793816" flag="0"/>
			<psa10 value="0.00135418693480161" flag="0"/>
			<psa30 value="0.000182423360694093" flag="0"/>
		</comp>
		<comp name="--.HNN" depth="0.0">
			<acc value="0.00353997945141443" flag="0"/>
			<vel value="0.00179178334389702" flag="0"/>
			<psa03 value="0.00887159355890111" flag="0"/>
			<psa10 value="0.00168826480800687" flag="0"/>
			<psa30 value="0.000140435501079252" flag="0"/>
		</comp>
		<comp name="--.HNZ" depth="0.0">
			<acc value="0.00128608724131472" flag="0"/>
			<vel value="0.00168071067420404" flag="0"/>
			<psa03 value="0.00577562349211252" flag="0"/>
			<psa10 value="0.0024959771431097" flag="0"/>
			<psa30 value="0.000326010164281738" flag="0"/>
		</comp>
	</station>
	<station code="SKO1" name="SKO1" netid="HI" source="ITSAK Strong Motion Network" insttype="" lat="39.123383" lon="23.728705">
		<comp name="--.HNE" depth="0.0">
			<acc value="0.00156070678884651" flag="0"/>
			<vel value="0.000795109475303536" flag="0"/>
			<psa03 value="0.00409205721152069" flag="0"/>
			<psa10 value="0.000826453498489311" flag="0"/>
			<psa30 value="8.60685727142918e-05" flag="0"/>
		</comp>
		<comp name="--.HNN" depth="0.0">
			<acc value="0.00145795419322675" flag="0"/>
			<vel value="0.00120096309091972" flag="0"/>
			<psa03 value="0.00377083345806399" flag="0"/>
			<psa10 value="0.000757114627782866" flag="0"/>
			<psa30 value="9.77040505386749e-05" flag="0"/>
		</comp>
		<comp name="--.HNZ" depth="0.0">
			<acc value="0.00107076868667553" flag="0"/>
			<vel value="0.000683827773565262" flag="0"/>
			<psa03 value="0.00315114169038245" flag="0"/>
			<psa10 value="0.000599956892635817" flag="0"/>
			<psa30 value="9.53100638238706e-05" flag="0"/>
		</comp>
	</station>
	<station code="DLFA" name="DLFA" netid="HL" source="National Observatory of Athens Seismic Network" insttype="" lat="38.47836" lon="22.49583">
		<comp name="00.HNE" depth="0.0">
			<acc value="0.00234580383803357" flag="0"/>
			<vel value="0.00182588053467127" flag="0"/>
			<psa03 value="0.00613378393726583" flag="0"/>
			<psa10 value="0.00203461525202383" flag="0"/>
			<psa30 value="0.000350473399434249" flag="0"/>
		</comp>
		<comp name="00.HNN" depth="0.0">
			<acc value="0.00425093201026571" flag="0"/>
			<vel value="0.00172079492627095" flag="0"/>
			<psa03 value="0.00447643814361782" flag="0"/>
			<psa10 value="0.00246491078824169" flag="0"/>
			<psa30 value="0.000387979894472062" flag="0"/>
		</comp>
		<comp name="00.HNZ" depth="0.0">
			<acc value="0.00557549102967395" flag="0"/>
			<vel value="0.00076399493212336" flag="0"/>
			<psa03 value="0.00414888714809972" flag="0"/>
			<psa10 value="0.00126819139426725" flag="0"/>
			<psa30 value="0.000252144151229248" flag="0"/>
		</comp>
	</station>
	<station code="PATC" name="PATC" netid="HL" source="National Observatory of Athens Seismic Network" insttype="" lat="38.26933" lon="21.76001">
		<comp name="00.HNE" depth="0.0">
			<acc value="0.00268627021387867" flag="0"/>
			<vel value="0.00328232435189003" flag="0"/>
			<psa03 value="0.00520972142055361" flag="0"/>
			<psa10 value="0.00479491951487896" flag="0"/>
			<psa30 value="0.00136128580350239" flag="0"/>
		</comp>
		<comp name="00.HNN" depth="0.0">
			<acc value="0.0019105336544891" flag="0"/>
			<vel value="0.00271146854109275" flag="0"/>
			<psa03 value="0.00535592837168201" flag="0"/>
			<psa10 value="0.00590483132233843" flag="0"/>
			<psa30 value="0.00136089796531285" flag="0"/>
		</comp>
		<comp name="00.HNZ" depth="0.0">
			<acc value="0.00292375462507271" flag="0"/>
			<vel value="0.00183374857718897" flag="0"/>
			<psa03 value="0.00383125119742304" flag="0"/>
			<psa10 value="0.00334327147532648" flag="0"/>
			<psa30 value="0.000481433142584975" flag="0"/>
		</comp>
	</station>
	<station code="PATG" name="PATG" netid="HL" source="National Observatory of Athens Seismic Network" insttype="" lat="38.23865" lon="21.72657">
		<comp name="00.HNE" depth="0.0">
			<acc value="0.00365060633510376" flag="0"/>
			<vel value="0.00347736769740345" flag="0"/>
			<psa03 value="0.00928463849921287" flag="0"/>
			<psa10 value="0.00380688304669486" flag="0"/>
			<psa30 value="0.00137699746932441" flag="0"/>
		</comp>
		<comp name="00.HNN" depth="0.0">
			<acc value="0.00446446385794423" flag="0"/>
			<vel value="0.00344752312105713" flag="0"/>
			<psa03 value="0.0123635234498441" flag="0"/>
			<psa10 value="0.00444547933494086" flag="0"/>
			<psa30 value="0.00149127743564558" flag="0"/>
		</comp>
		<comp name="00.HNZ" depth="0.0">
			<acc value="0.0160986516011075" flag="0"/>
			<vel value="0.00213425185636591" flag="0"/>
			<psa03 value="0.00588219435401885" flag="0"/>
			<psa10 value="0.00346940029949292" flag="0"/>
			<psa30 value="0.000746613105285419" flag="0"/>
		</comp>
	</station>
	<station code="PLG" name="PLG" netid="HL" source="National Observatory of Athens Seismic Network" insttype="" lat="40.37328" lon="23.44443">
		<comp name="--.HNE" depth="0.0">
			<acc value="5.47498719486897e-30" flag="0"/>
			<vel value="2.82388079514644e-29" flag="0"/>
			<psa03 value="0.0" flag="0"/>
			<psa10 value="0.0" flag="0"/>
			<psa30 value="0.0" flag="0"/>
		</comp>
		<comp name="--.HNN" depth="0.0">
			<acc value="5.47498635573272e-30" flag="0"/>
			<vel value="2.82404806354131e-29" flag="0"/>
			<psa03 value="0.0" flag="0"/>
			<psa10 value="0.0" flag="0"/>
			<psa30 value="0.0" flag="0"/>
		</comp>
		<comp name="--.HNZ" depth="0.0">
			<acc value="2.73749362607912e-30" flag="0"/>
			<vel value="1.41199438625026e-29" flag="0"/>
			<psa03 value="0.0" flag="0"/>
			<psa10 value="0.0" flag="0"/>
			<psa30 value="0.0" flag="0"/>
		</comp>
	</station>
	<station code="RIOA" name="RIOA" netid="HL" source="National Observatory of Athens Seismic Network" insttype="" lat="38.29585" lon="21.79118">
		<comp name="00.HNE" depth="0.0">
			<acc value="0.00301146162679365" flag="0"/>
			<vel value="0.00226557832233831" flag="0"/>
			<psa03 value="0.0060739121324955" flag="0"/>
			<psa10 value="0.00302181752433037" flag="0"/>
			<psa30 value="0.000765675670171797" flag="0"/>
		</comp>
		<comp name="00.HNN" depth="0.0">
			<acc value="0.00401224825819701" flag="0"/>
			<vel value="0.00262122165281192" flag="0"/>
			<psa03 value="0.00472582347928197" flag="0"/>
			<psa10 value="0.00347518576087503" flag="0"/>
			<psa30 value="0.000893517732831641" flag="0"/>
		</comp>
		<comp name="00.HNZ" depth="0.0">
			<acc value="0.00596274097822889" flag="0"/>
			<vel value="0.00202643219398979" flag="0"/>
			<psa03 value="0.00408395869326133" flag="0"/>
			<psa10 value="0.0018921258518644" flag="0"/>
			<psa30 value="0.000435361262421939" flag="0"/>
		</comp>
	</station>
	<station code="ANX" name="ANX" netid="HP" source="University of Patras, Seismological Laboratory (PSLNET)" insttype="" lat="38.5933" lon="21.9209">
		<comp name="--.HNE" depth="0.0">
			<acc value="0.00595069789567516" flag="0"/>
			<vel value="0.00460115066518813" flag="0"/>
			<psa03 value="0.0184977305921883" flag="0"/>
			<psa10 value="0.0042535613087946" flag="0"/>
			<psa30 value="0.000479088351834155" flag="0"/>
		</comp>
		<comp name="--.HNN" depth="0.0">
			<acc value="0.0110256036998258" flag="0"/>
			<vel value="0.0078913343063613" flag="0"/>
			<psa03 value="0.045659899744113" flag="0"/>
			<psa10 value="0.0047420461685435" flag="0"/>
			<psa30 value="0.000577582116148116" flag="0"/>
		</comp>
		<comp name="--.HNZ" depth="0.0">
			<acc value="0.00306548459776834" flag="0"/>
			<vel value="0.00217187477330189" flag="0"/>
			<psa03 value="0.0114025913032245" flag="0"/>
			<psa10 value="0.00337920963730246" flag="0"/>
			<psa30 value="0.00040002264537036" flag="0"/>
		</comp>
	</station>
	<station code="PDO" name="PDO" netid="HP" source="University of Patras, Seismological Laboratory (PSLNET)" insttype="" lat="38.5986" lon="21.1833">
		<comp name="--.HNE" depth="0.0">
			<acc value="0.00374604561893337" flag="0"/>
			<vel value="0.00425612251547259" flag="0"/>
			<psa03 value="0.011338984224954" flag="0"/>
			<psa10 value="0.00482126360379271" flag="0"/>
			<psa30 value="0.000762648802990932" flag="0"/>
		</comp>
		<comp name="--.HNN" depth="0.0">
			<acc value="0.00370664646130344" flag="0"/>
			<vel value="0.00248645826483223" flag="0"/>
			<psa03 value="0.0145362728525913" flag="0"/>
			<psa10 value="0.00184878727777253" flag="0"/>
			<psa30 value="0.000404016113043079" flag="0"/>
		</comp>
		<comp name="--.HNZ" depth="0.0">
			<acc value="0.00217079670652973" flag="0"/>
			<vel value="0.0014275232684878" flag="0"/>
			<psa03 value="0.00637484482820928" flag="0"/>
			<psa10 value="0.00171098545376456" flag="0"/>
			<psa30 value="0.000348798184293069" flag="0"/>
		</comp>
	</station>
	<station code="SERG" name="SERG" netid="HP" source="University of Patras, Seismological Laboratory (PSLNET)" insttype="" lat="38.4133" lon="22.0566">
		<comp name="--.HNE" depth="0.0">
			<acc value="0.00480945609640844" flag="0"/>
			<vel value="0.00263612683773128" flag="0"/>
			<psa03 value="0.0162461296117657" flag="0"/>
			<psa10 value="0.00465537323939771" flag="0"/>
			<psa30 value="0.000365299615973436" flag="0"/>
		</comp>
		<comp name="--.HNN" depth="0.0">
			<acc value="0.00415569740435484" flag="0"/>
			<vel value="0.00328521902479179" flag="0"/>
			<psa03 value="0.0189814188841865" flag="0"/>
			<psa10 value="0.00248602984352697" flag="0"/>
			<psa30 value="0.000803733087120376" flag="0"/>
		</comp>
		<comp name="--.HNZ" depth="0.0">
			<acc value="0.0021036001904557" flag="0"/>
			<vel value="0.00160078298461249" flag="0"/>
			<psa03 value="0.00610914363308345" flag="0"/>
			<psa10 value="0.00161162953598287" flag="0"/>
			<psa30 value="0.000483974717197996" flag="0"/>
		</comp>
	</station>
	<station code="VRKS" name="VRKS" netid="HP" source="University of Patras, Seismological Laboratory (PSLNET)" insttype="" lat="39.78398" lon="21.97651">
		<comp name="--.HNE" depth="0.0">
			<acc value="2.59892638811451" flag="0"/>
			<vel value="0.644130258149078" flag="0"/>
			<psa03 value="2.9646610609122" flag="0"/>
			<psa10 value="0.13860307677346" flag="0"/>
			<psa30 value="0.0125215078217753" flag="0"/>
		</comp>
		<comp name="--.HNN" depth="0.0">
			<acc value="2.63677766337436" flag="0"/>
			<vel value="0.491961835673485" flag="0"/>
			<psa03 value="2.25053358680712" flag="0"/>
			<psa10 value="0.152031426335988" flag="0"/>
			<psa30 value="0.0118331972245595" flag="0"/>
		</comp>
		<comp name="--.HNZ" depth="0.0">
			<acc value="2.45145079697606" flag="0"/>
			<vel value="0.377970639966844" flag="0"/>
			<psa03 value="2.30233535175051" flag="0"/>
			<psa10 value="0.0917351720047468" flag="0"/>
			<psa30 value="0.0103254473435232" flag="0"/>
		</comp>
	</station>
</stationlist>
