<?xml version="1.0" encoding="UTF-8" standalone="yes"?>
<!DOCTYPE earthquake SYSTEM "stationlist.dtd">
<stationlist created="" xmlns="ch.ethz.sed.shakemap.usgs.xml">
  <station code="BISRR" name="BISRR" netid="RO" insttype="CMG40T.1to100/Basalt" lat="45.5481" lon="26.7099">
    <comp name="--.HHE">
      <acc value="0.0729501644" flag="0"/>
      <vel value="0.0321871099" flag="0"/>
      <psa03 value="0.2614722849" flag="0"/>
      <psa10 value="0.0187444173" flag="0"/>
      <psa30 value="0.0012963737" flag="0"/>
    </comp>
    <comp name="--.HHN">
      <acc value="0.0616952335" flag="0"/>
      <vel value="0.0296240711" flag="0"/>
      <psa03 value="0.1606581877" flag="0"/>
      <psa10 value="0.0333180051" flag="0"/>
      <psa30 value="0.0017521716" flag="0"/>
    </comp>
    <comp name="--.HHZ">
      <acc value="0.0345962513" flag="0"/>
      <vel value="0.0198120146" flag="0"/>
      <psa03 value="0.0740193225" flag="0"/>
      <psa10 value="0.0100422732" flag="0"/>
      <psa30 value="0.0010093661" flag="0"/>
    </comp>
  </station>
  <station code="BOSR" name="BOSR" netid="RO" insttype="Seismometer/Basalt" lat="46.0749" lon="25.6611">
    <comp name="--.HHE">
      <acc value="0.0344836745" flag="0"/>
      <vel value="0.0137960135" flag="0"/>
      <psa03 value="0.0754907108" flag="0"/>
      <psa10 value="0.0049151612" flag="0"/>
      <psa30 value="0.0004329583" flag="0"/>
    </comp>
    <comp name="--.HHN">
      <acc value="0.0593507307" flag="0"/>
      <vel value="0.0230963512" flag="0"/>
      <psa03 value="0.0878462201" flag="0"/>
      <psa10 value="0.0048630542" flag="0"/>
      <psa30 value="0.0004294446" flag="0"/>
    </comp>
    <comp name="--.HHZ">
      <acc value="0.0280295893" flag="0"/>
      <vel value="0.0073447812" flag="0"/>
      <psa03 value="0.0397016023" flag="0"/>
      <psa10 value="0.0014041719" flag="0"/>
      <psa30 value="0.0001469606" flag="0"/>
    </comp>
  </station>
  <station code="COPR" name="COPR" netid="RO" insttype="200" lat="45.8442" lon="26.1687">
    <comp name="--.HNE">
      <acc value="0.0162971968" flag="0"/>
      <vel value="0.0080631715" flag="0"/>
      <psa03 value="0.0444213422" flag="0"/>
      <psa10 value="0.0036339696" flag="0"/>
      <psa30 value="0.0002267823" flag="0"/>
    </comp>
    <comp name="--.HNZ">
      <acc value="0.0197802175" flag="0"/>
      <vel value="0.0054472802" flag="0"/>
      <psa03 value="0.0358226288" flag="0"/>
      <psa10 value="0.0021564056" flag="0"/>
      <psa30 value="0.0002292503" flag="0"/>
    </comp>
    <comp name="--.HNN">
      <acc value="0.0152716498" flag="0"/>
      <vel value="0.0071126809" flag="0"/>
      <psa03 value="0.0630750640" flag="0"/>
      <psa10 value="0.0040656902" flag="0"/>
      <psa30 value="0.0002138283" flag="0"/>
    </comp>
  </station>
  <station code="DOPR" name="DOPR" netid="RO" insttype="330" lat="45.9675" lon="25.3886">
    <comp name="--.HHZ">
      <acc value="0.0133614820" flag="0"/>
      <vel value="0.0037752561" flag="0"/>
      <psa03 value="0.0150794180" flag="0"/>
      <psa10 value="0.0012496649" flag="0"/>
      <psa30 value="0.0000979388" flag="0"/>
    </comp>
    <comp name="--.HHN">
      <acc value="0.0125079997" flag="0"/>
      <vel value="0.0034260136" flag="0"/>
      <psa03 value="0.0188944693" flag="0"/>
      <psa10 value="0.0016628163" flag="0"/>
      <psa30 value="0.0001418269" flag="0"/>
    </comp>
    <comp name="--.HHE">
      <acc value="0.0204130066" flag="0"/>
      <vel value="0.0049062007" flag="0"/>
      <psa03 value="0.0166814154" flag="0"/>
      <psa10 value="0.0021327702" flag="0"/>
      <psa30 value="0.0001817526" flag="0"/>
    </comp>
  </station>
  <station code="ISR" name="ISR" netid="RO" insttype="CMG3ESP/Quanterra" lat="45.1187" lon="26.5432">
    <comp name="--.HHE">
      <acc value="0.0167802113" flag="0"/>
      <vel value="0.0046841752" flag="0"/>
      <psa03 value="0.0214798115" flag="0"/>
      <psa10 value="0.0032240212" flag="0"/>
      <psa30 value="0.0002770577" flag="0"/>
    </comp>
    <comp name="--.HHN">
      <acc value="0.0173635474" flag="0"/>
      <vel value="0.0063391032" flag="0"/>
      <psa03 value="0.0339309746" flag="0"/>
      <psa10 value="0.0041555135" flag="0"/>
      <psa30 value="0.0002434056" flag="0"/>
    </comp>
    <comp name="--.HHZ">
      <acc value="0.0101502593" flag="0"/>
      <vel value="0.0035667839" flag="0"/>
      <psa03 value="0.0204533395" flag="0"/>
      <psa10 value="0.0017773501" flag="0"/>
      <psa30 value="0.0001239291" flag="0"/>
    </comp>
  </station>
  <station code="IZVR" name="IZVR" netid="RO" insttype="200" lat="45.5442" lon="27.7655">
    <comp name="--.HNE">
      <acc value="0.0102264896" flag="0"/>
      <vel value="0.0022464072" flag="0"/>
      <psa03 value="0.0070158902" flag="0"/>
      <psa10 value="0.0004577557" flag="0"/>
      <psa30 value="0.0000417781" flag="0"/>
    </comp>
    <comp name="--.HNN">
      <acc value="0.0075723391" flag="0"/>
      <vel value="0.0018827797" flag="0"/>
      <psa03 value="0.0063619911" flag="0"/>
      <psa10 value="0.0004906827" flag="0"/>
      <psa30 value="0.0000344468" flag="0"/>
    </comp>
    <comp name="--.HNZ">
      <acc value="0.0070625919" flag="0"/>
      <vel value="0.0010770906" flag="0"/>
      <psa03 value="0.0034363518" flag="0"/>
      <psa10 value="0.0003618459" flag="0"/>
      <psa30 value="0.0000298399" flag="0"/>
    </comp>
  </station>
  <station code="NARR" name="NARR" netid="RO" insttype="OBS-SIO/Centaur" lat="45.8165" lon="26.7368">
    <comp name="--.HHE">
      <acc value="0.0617995343" flag="0"/>
      <vel value="0.0255565813" flag="0"/>
      <psa03 value="0.1357479042" flag="0"/>
      <psa10 value="0.0074508636" flag="0"/>
      <psa30 value="0.0006916075" flag="0"/>
    </comp>
    <comp name="--.HHN">
      <acc value="0.0658644667" flag="0"/>
      <vel value="0.0292428648" flag="0"/>
      <psa03 value="0.2068609528" flag="0"/>
      <psa10 value="0.0092268319" flag="0"/>
      <psa30 value="0.0006112425" flag="0"/>
    </comp>
    <comp name="--.HHZ">
      <acc value="0.0287921273" flag="0"/>
      <vel value="0.0098914410" flag="0"/>
      <psa03 value="0.0786218550" flag="0"/>
      <psa10 value="0.0025708081" flag="0"/>
      <psa30 value="0.0001913493" flag="0"/>
    </comp>
  </station>
  <station code="NEGRR" name="NEGRR" netid="RO" insttype="CMG40T.1to100/Quanterra" lat="45.5373" lon="27.8771">
    <comp name="--.HHZ">
      <acc value="0.0322094445" flag="0"/>
      <vel value="0.0061893423" flag="0"/>
      <psa03 value="0.0146274702" flag="0"/>
      <psa10 value="0.0007532252" flag="0"/>
      <psa30 value="0.0000655486" flag="0"/>
    </comp>
    <comp name="--.HHN">
      <acc value="0.0400055557" flag="0"/>
      <vel value="0.0078635763" flag="0"/>
      <psa03 value="0.0198517740" flag="0"/>
      <psa10 value="0.0012284823" flag="0"/>
      <psa30 value="0.0001017878" flag="0"/>
    </comp>
    <comp name="--.HHE">
      <acc value="0.0517821407" flag="0"/>
      <vel value="0.0104274971" flag="0"/>
      <psa03 value="0.0247622070" flag="0"/>
      <psa10 value="0.0014529955" flag="0"/>
      <psa30 value="0.0001109397" flag="0"/>
    </comp>
  </station>
  <station code="NEHR" name="NEHR" netid="RO" insttype="Seismometer/Basalt" lat="45.4272" lon="26.2952">
    <comp name="--.HHZ">
      <acc value="0.0017211334" flag="0"/>
      <vel value="0.0005228375" flag="0"/>
      <psa03 value="0.0035685838" flag="0"/>
      <psa10 value="0.0002683016" flag="0"/>
      <psa30 value="0.0000131156" flag="0"/>
    </comp>
    <comp name="--.HHN">
      <acc value="0.0025158854" flag="0"/>
      <vel value="0.0011734018" flag="0"/>
      <psa03 value="0.0083786555" flag="0"/>
      <psa10 value="0.0005539258" flag="0"/>
      <psa30 value="0.0000409969" flag="0"/>
    </comp>
    <comp name="--.HHE">
      <acc value="0.0029781292" flag="0"/>
      <vel value="0.0012959815" flag="0"/>
      <psa03 value="0.0085548863" flag="0"/>
      <psa10 value="0.0005544947" flag="0"/>
      <psa30 value="0.0000492536" flag="0"/>
    </comp>
  </station>
  <station code="ODBI" name="ODBI" netid="RO" insttype="200" lat="45.7633" lon="27.0558">
    <comp name="--.HNE">
      <acc value="0.0403165431" flag="0"/>
      <vel value="0.0125694100" flag="0"/>
      <psa03 value="0.0475546651" flag="0"/>
      <psa10 value="0.0043889635" flag="0"/>
      <psa30 value="0.0003572851" flag="0"/>
    </comp>
    <comp name="--.HNN">
      <acc value="0.0269471373" flag="0"/>
      <vel value="0.0098241348" flag="0"/>
      <psa03 value="0.0539075967" flag="0"/>
      <psa10 value="0.0035320005" flag="0"/>
      <psa30 value="0.0002611936" flag="0"/>
    </comp>
    <comp name="--.HNZ">
      <acc value="0.0350217216" flag="0"/>
      <vel value="0.0056556336" flag="0"/>
      <psa03 value="0.0287847616" flag="0"/>
      <psa10 value="0.0019070320" flag="0"/>
      <psa30 value="0.0001246369" flag="0"/>
    </comp>
  </station>
  <station code="PANC" name="PANC" netid="RO" insttype="Seismometer/Basalt" lat="45.8723" lon="27.1477">
    <comp name="--.HHE">
      <acc value="0.0605248938" flag="0"/>
      <vel value="0.0145394088" flag="0"/>
      <psa03 value="0.0495106871" flag="0"/>
      <psa10 value="0.0049092868" flag="0"/>
      <psa30 value="0.0004177567" flag="0"/>
    </comp>
    <comp name="--.HHN">
      <acc value="0.0571393734" flag="0"/>
      <vel value="0.0113751793" flag="0"/>
      <psa03 value="0.0656968401" flag="0"/>
      <psa10 value="0.0023899772" flag="0"/>
      <psa30 value="0.0003086972" flag="0"/>
    </comp>
    <comp name="--.HHZ">
      <acc value="0.0627693206" flag="0"/>
      <vel value="0.0067792513" flag="0"/>
      <psa03 value="0.0257881765" flag="0"/>
      <psa10 value="0.0013022266" flag="0"/>
      <psa30 value="0.0001111986" flag="0"/>
    </comp>
  </station>
  <station code="PLAR" name="PLAR" netid="RO" insttype="200" lat="44.9142" lon="26.0274">
    <comp name="--.HNE">
      <acc value="0.0077753393" flag="0"/>
      <vel value="0.0030365686" flag="0"/>
      <psa03 value="0.0147755087" flag="0"/>
      <psa10 value="0.0019265379" flag="0"/>
      <psa30 value="0.0001746890" flag="0"/>
    </comp>
    <comp name="--.HNN">
      <acc value="0.0103564627" flag="0"/>
      <vel value="0.0037476383" flag="0"/>
      <psa03 value="0.0172982904" flag="0"/>
      <psa10 value="0.0023975388" flag="0"/>
      <psa30 value="0.0002395306" flag="0"/>
    </comp>
    <comp name="--.HNZ">
      <acc value="0.0122237133" flag="0"/>
      <vel value="0.0015178038" flag="0"/>
      <psa03 value="0.0056365892" flag="0"/>
      <psa10 value="0.0010654346" flag="0"/>
      <psa30 value="0.0000946566" flag="0"/>
    </comp>
  </station>
  <station code="PLOR" name="PLOR" netid="RO" insttype="MBB2/Quanterra" lat="45.8512" lon="26.6498">
    <comp name="--.HHE">
      <acc value="0.0241069017" flag="0"/>
      <vel value="0.0078374795" flag="0"/>
      <psa03 value="0.0425148333" flag="0"/>
      <psa10 value="0.0028056490" flag="0"/>
      <psa30 value="0.0002854715" flag="0"/>
    </comp>
    <comp name="--.HHZ">
      <acc value="0.0161995912" flag="0"/>
      <vel value="0.0044138360" flag="0"/>
      <psa03 value="0.0222904406" flag="0"/>
      <psa10 value="0.0019390961" flag="0"/>
      <psa30 value="0.0001049666" flag="0"/>
    </comp>
    <comp name="--.HHN">
      <acc value="0.0310222896" flag="0"/>
      <vel value="0.0127684630" flag="0"/>
      <psa03 value="0.0596992521" flag="0"/>
      <psa10 value="0.0058342322" flag="0"/>
      <psa30 value="0.0003777336" flag="0"/>
    </comp>
  </station>
  <station code="PLOR4" name="PLOR4" netid="RO" insttype="MBB2/Quanterra" lat="45.8512" lon="26.6498">
    <comp name="--.HHE">
      <acc value="0.0241069017" flag="0"/>
      <vel value="0.0078374795" flag="0"/>
      <psa03 value="0.0425148333" flag="0"/>
      <psa10 value="0.0028056490" flag="0"/>
      <psa30 value="0.0002854715" flag="0"/>
    </comp>
    <comp name="--.HHN">
      <acc value="0.0310222896" flag="0"/>
      <vel value="0.0127684630" flag="0"/>
      <psa03 value="0.0596992521" flag="0"/>
      <psa10 value="0.0058342322" flag="0"/>
      <psa30 value="0.0003777336" flag="0"/>
    </comp>
    <comp name="--.HHZ">
      <acc value="0.0161995912" flag="0"/>
      <vel value="0.0044138360" flag="0"/>
      <psa03 value="0.0222904406" flag="0"/>
      <psa10 value="0.0019390961" flag="0"/>
      <psa30 value="0.0001049666" flag="0"/>
    </comp>
  </station>
  <station code="SCHL" name="SCHL" netid="RO" insttype="CMG40T.1to100/Quanterra" lat="45.5007" lon="27.8302">
    <comp name="--.HHE">
      <acc value="0.0289325988" flag="0"/>
      <vel value="0.0074377059" flag="0"/>
      <psa03 value="0.0373166313" flag="0"/>
      <psa10 value="0.0022226341" flag="0"/>
      <psa30 value="0.0001177585" flag="0"/>
    </comp>
    <comp name="--.HHN">
      <acc value="0.0264594855" flag="0"/>
      <vel value="0.0063117358" flag="0"/>
      <psa03 value="0.0309300136" flag="0"/>
      <psa10 value="0.0022353180" flag="0"/>
      <psa30 value="0.0001362449" flag="0"/>
    </comp>
    <comp name="--.HHZ">
      <acc value="0.0482921330" flag="0"/>
      <vel value="0.0067017317" flag="0"/>
      <psa03 value="0.0117087329" flag="0"/>
      <psa10 value="0.0009508723" flag="0"/>
      <psa30 value="0.0000692069" flag="0"/>
    </comp>
  </station>
  <station code="SCHLR" name="SCHLR" netid="RO" insttype="CMG40T.1to100/Quanterra" lat="45.4702" lon="27.8314">
    <comp name="--.HHE">
      <acc value="0.0425590948" flag="0"/>
      <vel value="0.0068079450" flag="0"/>
      <psa03 value="0.0086706335" flag="0"/>
      <psa10 value="0.0012815957" flag="0"/>
      <psa30 value="0.0000657039" flag="0"/>
    </comp>
    <comp name="--.HHN">
      <acc value="0.0274259595" flag="0"/>
      <vel value="0.0050233161" flag="0"/>
      <psa03 value="0.0131834736" flag="0"/>
      <psa10 value="0.0013604729" flag="0"/>
      <psa30 value="0.0000629273" flag="0"/>
    </comp>
    <comp name="--.HHZ">
      <acc value="0.0314714042" flag="0"/>
      <vel value="0.0040215931" flag="0"/>
      <psa03 value="0.0053708891" flag="0"/>
      <psa10 value="0.0004871204" flag="0"/>
      <psa30 value="0.0000348389" flag="0"/>
    </comp>
  </station>
  <station code="SCTR" name="SCTR" netid="RO" insttype="MBB2/Basalt" lat="45.6741" lon="27.9949">
    <comp name="--.HHE">
      <acc value="0.0555798718" flag="0"/>
      <vel value="0.0073567407" flag="0"/>
      <psa03 value="0.0376969004" flag="0"/>
      <psa10 value="0.0021306192" flag="0"/>
      <psa30 value="0.0002112670" flag="0"/>
    </comp>
    <comp name="--.HHN">
      <acc value="0.0737886840" flag="0"/>
      <vel value="0.0110202126" flag="0"/>
      <psa03 value="0.0495452380" flag="0"/>
      <psa10 value="0.0044998576" flag="0"/>
      <psa30 value="0.0002219558" flag="0"/>
    </comp>
    <comp name="--.HHZ">
      <acc value="0.0374693803" flag="0"/>
      <vel value="0.0057066638" flag="0"/>
      <psa03 value="0.0199974254" flag="0"/>
      <psa10 value="0.0022000527" flag="0"/>
      <psa30 value="0.0000956481" flag="0"/>
    </comp>
  </station>
  <station code="SULR" name="SULR" netid="RO" insttype="330" lat="44.6777" lon="26.2526">
    <comp name="--.HHE">
      <acc value="0.0130505584" flag="0"/>
      <vel value="0.0032666133" flag="0"/>
      <psa03 value="0.0111288803" flag="0"/>
      <psa10 value="0.0020365797" flag="0"/>
      <psa30 value="0.0001763767" flag="0"/>
    </comp>
    <comp name="--.HHN">
      <acc value="0.0147507368" flag="0"/>
      <vel value="0.0078809661" flag="0"/>
      <psa03 value="0.0294109577" flag="0"/>
      <psa10 value="0.0050101863" flag="0"/>
      <psa30 value="0.0004165021" flag="0"/>
    </comp>
    <comp name="--.HHZ">
      <acc value="0.0201213065" flag="0"/>
      <vel value="0.0032325021" flag="0"/>
      <psa03 value="0.0103561719" flag="0"/>
      <psa10 value="0.0009694205" flag="0"/>
      <psa30 value="0.0000989831" flag="0"/>
    </comp>
  </station>
  <station code="TATR" name="TATR" netid="RO" insttype="MBB2/Basalt" lat="45.5977" lon="28.0498">
    <comp name="--.HHE">
      <acc value="0.0595067318" flag="0"/>
      <vel value="0.0138720693" flag="0"/>
      <psa03 value="0.0409301813" flag="0"/>
      <psa10 value="0.0028846584" flag="0"/>
      <psa30 value="0.0002935039" flag="0"/>
    </comp>
    <comp name="--.HHN">
      <acc value="0.0565857718" flag="0"/>
      <vel value="0.0118881122" flag="0"/>
      <psa03 value="0.0420990489" flag="0"/>
      <psa10 value="0.0041304272" flag="0"/>
      <psa30 value="0.0002439349" flag="0"/>
    </comp>
    <comp name="--.HHZ">
      <acc value="0.0628414440" flag="0"/>
      <vel value="0.0117279207" flag="0"/>
      <psa03 value="0.0195898559" flag="0"/>
      <psa10 value="0.0017508872" flag="0"/>
      <psa30 value="0.0001181143" flag="0"/>
    </comp>
  </station>
  <station code="TESR" name="TESR" netid="RO" insttype="330" lat="46.5118" lon="26.6489">
    <comp name="--.HHN">
      <acc value="0.0091147370" flag="0"/>
      <vel value="0.0025177686" flag="0"/>
      <psa03 value="0.0142471961" flag="0"/>
      <psa10 value="0.0007024952" flag="0"/>
      <psa30 value="0.0000737230" flag="0"/>
    </comp>
    <comp name="--.HHE">
      <acc value="0.0098362120" flag="0"/>
      <vel value="0.0020862683" flag="0"/>
      <psa03 value="0.0109125590" flag="0"/>
      <psa10 value="0.0007106729" flag="0"/>
      <psa30 value="0.0000611246" flag="0"/>
    </comp>
    <comp name="--.HHZ">
      <acc value="0.0075494061" flag="0"/>
      <vel value="0.0012061753" flag="0"/>
      <psa03 value="0.0031158297" flag="0"/>
      <psa10 value="0.0004172000" flag="0"/>
      <psa30 value="0.0000356066" flag="0"/>
    </comp>
  </station>
  <station code="TUDR" name="TUDR" netid="RO" insttype="CMG40T.1to100/Quanterra" lat="45.5939" lon="27.6687">
    <comp name="--.HHE">
      <acc value="0.1156397862" flag="0"/>
      <vel value="0.0290443165" flag="0"/>
      <psa03 value="0.1182375265" flag="0"/>
      <psa10 value="0.0072197111" flag="0"/>
      <psa30 value="0.0006563161" flag="0"/>
    </comp>
    <comp name="--.HHN">
      <acc value="0.0742487396" flag="0"/>
      <vel value="0.0134986178" flag="0"/>
      <psa03 value="0.0255360438" flag="0"/>
      <psa10 value="0.0019784546" flag="0"/>
      <psa30 value="0.0002106205" flag="0"/>
    </comp>
    <comp name="--.HHZ">
      <acc value="0.1382877856" flag="0"/>
      <vel value="0.0170372626" flag="0"/>
      <psa03 value="0.0232532733" flag="0"/>
      <psa10 value="0.0020692780" flag="0"/>
      <psa30 value="0.0001923568" flag="0"/>
    </comp>
  </station>
  <station code="VOIR" name="VOIR" netid="RO" insttype="330" lat="45.4371" lon="25.0495">
    <comp name="--.HHE">
      <acc value="0.0024445962" flag="0"/>
      <vel value="0.0012840802" flag="0"/>
      <psa03 value="0.0047716738" flag="0"/>
      <psa10 value="0.0005711674" flag="0"/>
      <psa30 value="0.0000418807" flag="0"/>
    </comp>
    <comp name="--.HHN">
      <acc value="0.0023693434" flag="0"/>
      <vel value="0.0009632355" flag="0"/>
      <psa03 value="0.0062859377" flag="0"/>
      <psa10 value="0.0005207490" flag="0"/>
      <psa30 value="0.0000473670" flag="0"/>
    </comp>
    <comp name="--.HHZ">
      <acc value="0.0023996088" flag="0"/>
      <vel value="0.0007537343" flag="0"/>
      <psa03 value="0.0051692957" flag="0"/>
      <psa10 value="0.0004222488" flag="0"/>
      <psa30 value="0.0000360254" flag="0"/>
    </comp>
  </station>
  <station code="VRI" name="VRI" netid="RO" insttype="Linear" lat="45.8657" lon="26.7277">
    <comp name="--.HHN">
      <acc value="0.0370993296" flag="0"/>
      <vel value="0.0113499919" flag="0"/>
      <psa03 value="0.0703622896" flag="0"/>
      <psa10 value="0.0028997299" flag="0"/>
