<?xml version="1.0" encoding="UTF-8" standalone="yes"?>
<!DOCTYPE earthquake SYSTEM "stationlist.dtd">
<stationlist created="" xmlns="ch.ethz.sed.shakemap.usgs.xml">
  <station code="MARCO" name="MARCO" netid="GE" insttype="VBB" commtype="DIG" lat="40.2972" lon="15.8063">
    <comp name="--.HHN">
      <acc value="0.0007690152" flag="0"/>
      <vel value="0.0001932329" flag="0"/>
      <psa03 value="0.0014761987" flag="0"/>
      <psa10 value="0.0001088800" flag="0"/>
      <psa30 value="0.0000224938" flag="0"/>
    </comp>
    <comp name="--.HHE">
      <acc value="0.0005442572" flag="0"/>
      <vel value="0.0001438839" flag="0"/>
      <psa03 value="0.0008387570" flag="0"/>
      <psa10 value="0.0001322692" flag="0"/>
      <psa30 value="0.0000189012" flag="0"/>
    </comp>
    <comp name="--.HHZ">
      <acc value="0.0003346107" flag="0"/>
      <vel value="0.0001334138" flag="0"/>
      <psa03 value="0.0005443585" flag="0"/>
      <psa10 value="0.0000628583" flag="0"/>
      <psa30 value="0.0000168166" flag="0"/>
    </comp>
  </station>
  <station code="CAR1" name="CAR1" netid="IV" insttype="" commtype="DIG" lat="39.2534" lon="16.2114">
    <comp name="--.HHE">
      <acc value="0.0010631107" flag="0"/>
      <vel value="0.0004729536" flag="0"/>
      <psa03 value="0.0033394431" flag="0"/>
      <psa10 value="0.0002787005" flag="0"/>
      <psa30 value="0.0000253529" flag="0"/>
    </comp>
    <comp name="--.HHZ">
      <acc value="0.0013897148" flag="0"/>
      <vel value="0.0002605910" flag="0"/>
      <psa03 value="0.0016897169" flag="0"/>
      <psa10 value="0.0001505307" flag="0"/>
      <psa30 value="0.0000127434" flag="0"/>
    </comp>
    <comp name="--.HHN">
      <acc value="0.0008492732" flag="0"/>
      <vel value="0.0003154069" flag="0"/>
      <psa03 value="0.0032408943" flag="0"/>
      <psa10 value="0.0001584256" flag="0"/>
      <psa30 value="0.0000134941" flag="0"/>
    </comp>
  </station>
  <station code="CELI" name="CELI" netid="IV" insttype="SS08" commtype="DIG" lat="39.4027" lon="16.5088">
    <comp name="--.HHE">
      <acc value="0.0013359300" flag="0"/>
      <vel value="0.0002751965" flag="0"/>
      <psa03 value="0.0010648741" flag="0"/>
      <psa10 value="0.0000736948" flag="0"/>
      <psa30 value="0.0000057258" flag="0"/>
    </comp>
    <comp name="--.HHN">
      <acc value="0.0008678418" flag="0"/>
      <vel value="0.0001777942" flag="0"/>
      <psa03 value="0.0009375521" flag="0"/>
      <psa10 value="0.0001382669" flag="0"/>
      <psa30 value="0.0000155415" flag="0"/>
    </comp>
    <comp name="--.HHZ">
      <acc value="0.0038311522" flag="0"/>
      <vel value="0.0010260410" flag="0"/>
      <psa03 value="0.0048973089" flag="0"/>
      <psa10 value="0.0002750061" flag="0"/>
      <psa30 value="0.0000260095" flag="0"/>
    </comp>
  </station>
  <station code="CET2" name="CET2" netid="IV" insttype="" commtype="DIG" lat="39.5288" lon="15.9546">
    <comp name="--.HHE">
      <acc value="0.0034564902" flag="0"/>
      <vel value="0.0004456551" flag="0"/>
      <psa03 value="0.0010262197" flag="0"/>
      <psa10 value="0.0003724059" flag="0"/>
      <psa30 value="0.0000241125" flag="0"/>
    </comp>
    <comp name="--.HHN">
      <acc value="0.0063463317" flag="0"/>
      <vel value="0.0007040390" flag="0"/>
      <psa03 value="0.0030388908" flag="0"/>
      <psa10 value="0.0005654132" flag="0"/>
      <psa30 value="0.0000284668" flag="0"/>
    </comp>
    <comp name="--.HHZ">
      <acc value="0.0061302822" flag="0"/>
      <vel value="0.0007754111" flag="0"/>
      <psa03 value="0.0018302814" flag="0"/>
      <psa10 value="0.0001485034" flag="0"/>
      <psa30 value="0.0000118015" flag="0"/>
    </comp>
  </station>
  <station code="GIZZ" name="GIZZ" netid="IV" insttype="TrilliumCompact120PH" commtype="DIG" lat="38.9798" lon="16.2078">
    <comp name="--.HHE">
      <acc value="0.0029597814" flag="0"/>
      <vel value="0.0007279716" flag="0"/>
      <psa03 value="0.0023208890" flag="0"/>
      <psa10 value="0.0001539787" flag="0"/>
      <psa30 value="0.0000163608" flag="0"/>
    </comp>
    <comp name="--.HHN">
      <acc value="0.0042196750" flag="0"/>
      <vel value="0.0010450897" flag="0"/>
      <psa03 value="0.0050970701" flag="0"/>
      <psa10 value="0.0001674014" flag="0"/>
      <psa30 value="0.0000171003" flag="0"/>
    </comp>
    <comp name="--.HHZ">
      <acc value="0.0039861172" flag="0"/>
      <vel value="0.0007230049" flag="0"/>
      <psa03 value="0.0026501906" flag="0"/>
      <psa10 value="0.0001717462" flag="0"/>
      <psa30 value="0.0000117393" flag="0"/>
    </comp>
  </station>
  <station code="MGR" name="MGR" netid="IV" insttype="" commtype="DIG" lat="40.1376" lon="15.5535">
    <comp name="--.HHE">
      <acc value="0.0003355443" flag="0"/>
      <vel value="0.0001418093" flag="0"/>
      <psa03 value="0.0005931440" flag="0"/>
      <psa10 value="0.0000832963" flag="0"/>
      <psa30 value="0.0000126918" flag="0"/>
    </comp>
    <comp name="--.HHN">
      <acc value="0.0003189497" flag="0"/>
      <vel value="0.0000830586" flag="0"/>
      <psa03 value="0.0003966467" flag="0"/>
      <psa10 value="0.0000710749" flag="0"/>
      <psa30 value="0.0000173883" flag="0"/>
    </comp>
    <comp name="--.HHZ">
      <acc value="0.0003235118" flag="0"/>
      <vel value="0.0001553661" flag="0"/>
      <psa03 value="0.0007642620" flag="0"/>
      <psa10 value="0.0001142401" flag="0"/>
      <psa30 value="0.0000090766" flag="0"/>
    </comp>
  </station>
  <station code="SALB" name="SALB" netid="IV" insttype="" commtype="DIG" lat="39.8772" lon="16.3459">
    <comp name="--.HHE">
      <acc value="0.0007499919" flag="0"/>
      <vel value="0.0002115837" flag="0"/>
      <psa03 value="0.0015750883" flag="0"/>
      <psa10 value="0.0001248965" flag="0"/>
      <psa30 value="0.0000145534" flag="0"/>
    </comp>
    <comp name="--.HHN">
      <acc value="0.0007392121" flag="0"/>
      <vel value="0.0001615194" flag="0"/>
      <psa03 value="0.0008501427" flag="0"/>
      <psa10 value="0.0001185641" flag="0"/>
      <psa30 value="0.0000116906" flag="0"/>
    </comp>
    <comp name="--.HHZ">
      <acc value="0.0007783941" flag="0"/>
      <vel value="0.0001815574" flag="0"/>
      <psa03 value="0.0005338052" flag="0"/>
      <psa10 value="0.0001023301" flag="0"/>
      <psa30 value="0.0000078100" flag="0"/>
    </comp>
  </station>
  <station code="SCHR" name="SCHR" netid="IV" insttype="SS08" commtype="DIG" lat="40.1992" lon="16.0759">
    <comp name="--.HHE">
      <acc value="0.0004146039" flag="0"/>
      <vel value="0.0000862352" flag="0"/>
      <psa03 value="0.0003609241" flag="0"/>
      <psa10 value="0.0001054354" flag="0"/>
      <psa30 value="0.0000175722" flag="0"/>
    </comp>
    <comp name="--.HHN">
      <acc value="0.0003399456" flag="0"/>
      <vel value="0.0000885683" flag="0"/>
      <psa03 value="0.0004176345" flag="0"/>
      <psa10 value="0.0000888302" flag="0"/>
      <psa30 value="0.0000099201" flag="0"/>
    </comp>
    <comp name="--.HHZ">
      <acc value="0.0004816724" flag="0"/>
      <vel value="0.0001069145" flag="0"/>
      <psa03 value="0.0002917705" flag="0"/>
      <psa10 value="0.0000504837" flag="0"/>
      <psa30 value="0.0000078463" flag="0"/>
    </comp>
  </station>
  <station code="SPS2" name="SPS2" netid="IV" insttype="" commtype="DIG" lat="39.291" lon="16.3388">
    <comp name="--.HHE">
      <acc value="0.0003970275" flag="0"/>
      <vel value="0.0001619514" flag="0"/>
      <psa03 value="0.0011251839" flag="0"/>
      <psa10 value="0.0000457626" flag="0"/>
      <psa30 value="0.0000050963" flag="0"/>
    </comp>
    <comp name="--.HHN">
      <acc value="0.0005225631" flag="0"/>
      <vel value="0.0001346243" flag="0"/>
      <psa03 value="0.0011171472" flag="0"/>
      <psa10 value="0.0000602333" flag="0"/>
      <psa30 value="0.0000035377" flag="0"/>
    </comp>
    <comp name="--.HHZ">
      <acc value="0.0008989587" flag="0"/>
      <vel value="0.0001617863" flag="0"/>
      <psa03 value="0.0005306717" flag="0"/>
      <psa10 value="0.0000591809" flag="0"/>
      <psa30 value="0.0000038394" flag="0"/>
    </comp>
  </station>
  <station code="TDS" name="TDS" netid="IV" insttype="" commtype="DIG" lat="39.6601" lon="16.3376">
    <comp name="--.HHN">
      <acc value="0.0005080506" flag="0"/>
      <vel value="0.0001614817" flag="0"/>
      <psa03 value="0.0006998883" flag="0"/>
      <psa10 value="0.0002280681" flag="0"/>
      <psa30 value="0.0000230399" flag="0"/>
    </comp>
    <comp name="--.HHE">
      <acc value="0.0015203007" flag="0"/>
      <vel value="0.0003962919" flag="0"/>
      <psa03 value="0.0013266990" flag="0"/>
      <psa10 value="0.0002899956" flag="0"/>
      <psa30 value="0.0000320350" flag="0"/>
    </comp>
    <comp name="--.HHZ">
      <acc value="0.0027871083" flag="0"/>
      <vel value="0.0004661309" flag="0"/>
      <psa03 value="0.0022481550" flag="0"/>
      <psa10 value="0.0002873675" flag="0"/>
      <psa30 value="0.0000364093" flag="0"/>
    </comp>
  </station>
  <station code="CO22" name="CO22" netid="IY" insttype="SS08" commtype="DIG" lat="39.4925" lon="16.305">
    <comp name="00.HHE">
      <acc value="0.0005362291" flag="0"/>
      <vel value="0.0001297432" flag="0"/>
      <psa03 value="0.0006979070" flag="0"/>
      <psa10 value="0.0000948117" flag="0"/>
      <psa30 value="0.0000090242" flag="0"/>
    </comp>
    <comp name="00.HHN">
      <acc value="0.0004786319" flag="0"/>
      <vel value="0.0001115597" flag="0"/>
      <psa03 value="0.0005716195" flag="0"/>
      <psa10 value="0.0000789999" flag="0"/>
      <psa30 value="0.0000068058" flag="0"/>
    </comp>
    <comp name="00.HHZ">
      <acc value="0.0011044840" flag="0"/>
      <vel value="0.0002257509" flag="0"/>
      <psa03 value="0.0010863468" flag="0"/>
      <psa10 value="0.0000766586" flag="0"/>
      <psa30 value="0.0000073495" flag="0"/>
    </comp>
  </station>
  <station code="FALC" name="FALC" netid="IY" insttype="SS08" commtype="DIG" lat="39.2721" lon="16.0796">
    <comp name="00.HHE">
      <acc value="0.0011506952" flag="0"/>
      <vel value="0.0002923784" flag="0"/>
      <psa03 value="0.0010439005" flag="0"/>
      <psa10 value="0.0001147929" flag="0"/>
      <psa30 value="0.0000138856" flag="0"/>
    </comp>
    <comp name="00.HHZ">
      <acc value="0.0027274399" flag="0"/>
      <vel value="0.0004340671" flag="0"/>
      <psa03 value="0.0012254500" flag="0"/>
      <psa10 value="0.0001476390" flag="0"/>
      <psa30 value="0.0000096828" flag="0"/>
    </comp>
    <comp name="00.HHN">
      <acc value="0.0013954303" flag="0"/>
      <vel value="0.0001787105" flag="0"/>
      <psa03 value="0.0007765653" flag="0"/>
      <psa10 value="0.0001903677" flag="0"/>
      <psa30 value="0.0000082111" flag="0"/>
    </comp>
  </station>
  <station code="ROI" name="ROI" netid="IY" insttype="SS08" commtype="DIG" lat="39.5724" lon="16.5691">
    <comp name="00.HHE">
      <acc value="0.0029775649" flag="0"/>
      <vel value="0.0008828653" flag="0"/>
      <psa03 value="0.0022116388" flag="0"/>
      <psa10 value="0.0002005481" flag="0"/>
      <psa30 value="0.0000165609" flag="0"/>
    </comp>
    <comp name="00.HHN">
      <acc value="0.0037324368" flag="0"/>
      <vel value="0.0007396837" flag="0"/>
      <psa03 value="0.0018283976" flag="0"/>
      <psa10 value="0.0002760138" flag="0"/>
      <psa30 value="0.0000139992" flag="0"/>
    </comp>
    <comp name="00.HHZ">
      <acc value="0.0043881059" flag="0"/>
      <vel value="0.0011135373" flag="0"/>
      <psa03 value="0.0031965303" flag="0"/>
      <psa10 value="0.0003528703" flag="0"/>
      <psa30 value="0.0000246129" flag="0"/>
    </comp>
  </station>
  <station code="CUC" name="CUC" netid="MN" insttype="" commtype="DIG" lat="39.993" lon="15.815">
    <comp name="--.HHE">
      <acc value="0.0004058053" flag="0"/>
      <vel value="0.0001545259" flag="0"/>
      <psa03 value="0.0007333696" flag="0"/>
      <psa10 value="0.0001047061" flag="0"/>
      <psa30 value="0.0000074009" flag="0"/>
    </comp>
    <comp name="--.HHN">
      <acc value="0.0004252050" flag="0"/>
      <vel value="0.0001227931" flag="0"/>
      <psa03 value="0.0006978019" flag="0"/>
      <psa10 value="0.0001268806" flag="0"/>
      <psa30 value="0.0000104861" flag="0"/>
    </comp>
    <comp name="--.HHZ">
      <acc value="0.0003137591" flag="0"/>
      <vel value="0.0001904630" flag="0"/>
      <psa03 value="0.0007829020" flag="0"/>
      <psa10 value="0.0001218589" flag="0"/>
      <psa30 value="0.0000138108" flag="0"/>
    </comp>
  </station>
  <station code="BIDON" name="BIDON" netid="XE" insttype="" commtype="DIG" lat="39.9457" lon="16.4559">
    <comp name="--.HHE">
      <acc value="0.0011716860" flag="0"/>
      <vel value="0.0003996236" flag="0"/>
      <psa03 value="0.0024755645" flag="0"/>
      <psa10 value="0.0003506172" flag="0"/>
      <psa30 value="0.0000172706" flag="0"/>
    </comp>
    <comp name="--.HHN">
      <acc value="0.0018114313" flag="0"/>
      <vel value="0.0005575097" flag="0"/>
      <psa03 value="0.0025225576" flag="0"/>
      <psa10 value="0.0004605097" flag="0"/>
      <psa30 value="0.0000261542" flag="0"/>
    </comp>
    <comp name="--.HHZ">
      <acc value="0.0015010071" flag="0"/>
      <vel value="0.0003669137" flag="0"/>
      <psa03 value="0.0012535955" flag="0"/>
      <psa10 value="0.0002742277" flag="0"/>
      <psa30 value="0.0000142762" flag="0"/>
    </comp>
  </station>
  <station code="CNESE" name="CNESE" netid="XE" insttype="" commtype="DIG" lat="39.8941" lon="16.0843">
    <comp name="--.HHE">
      <acc value="0.0012438058" flag="0"/>
      <vel value="0.0003219979" flag="0"/>
      <psa03 value="0.0011462645" flag="0"/>
      <psa10 value="0.0001140852" flag="0"/>
      <psa30 value="0.0000121605" flag="0"/>
    </comp>
    <comp name="--.HHN">
      <acc value="0.0012015279" flag="0"/>
      <vel value="0.0003436540" flag="0"/>
      <psa03 value="0.0010271101" flag="0"/>
      <psa10 value="0.0001303337" flag="0"/>
      <psa30 value="0.0000144811" flag="0"/>
    </comp>
    <comp name="--.HHZ">
      <acc value="0.0014741962" flag="0"/>
      <vel value="0.0003392201" flag="0"/>
      <psa03 value="0.0007079073" flag="0"/>
      <psa10 value="0.0001368323" flag="0"/>
      <psa30 value="0.0000107632" flag="0"/>
    </comp>
  </station>
  <station code="FRASC" name="FRASC" netid="XE" insttype="" commtype="DIG" lat="39.8381" lon="16.2663">
    <comp name="--.HHE">
      <acc value="0.0006314664" flag="0"/>
      <vel value="0.0002114033" flag="0"/>
      <psa03 value="0.0006674114" flag="0"/>
      <psa10 value="0.0001726034" flag="0"/>
      <psa30 value="0.0000155754" flag="0"/>
    </comp>
    <comp name="--.HHN">
      <acc value="0.0008803755" flag="0"/>
      <vel value="0.0002746864" flag="0"/>
      <psa03 value="0.0009787158" flag="0"/>
      <psa10 value="0.0001846670" flag="0"/>
      <psa30 value="0.0000117604" flag="0"/>
    </comp>
    <comp name="--.HHZ">
      <acc value="0.0005703148" flag="0"/>
      <vel value="0.0002139676" flag="0"/>
      <psa03 value="0.0007831235" flag="0"/>
      <psa10 value="0.0001924066" flag="0"/>
      <psa30 value="0.0000124214" flag="0"/>
    </comp>
  </station>
  <station code="LAICA" name="LAICA" netid="XE" insttype="" commtype="DIG" lat="39.9485" lon="15.9751">
    <comp name="--.HHE">
      <acc value="0.0004788379" flag="0"/>
      <vel value="0.0001748251" flag="0"/>
      <psa03 value="0.0007062629" flag="0"/>
      <psa10 value="0.0001942277" flag="0"/>
      <psa30 value="0.0000111179" flag="0"/>
    </comp>
    <comp name="--.HHN">
      <acc value="0.0004259332" flag="0"/>
      <vel value="0.0001489606" flag="0"/>
      <psa03 value="0.0007097628" flag="0"/>
      <psa10 value="0.0001468197" flag="0"/>
      <psa30 value="0.0000148570" flag="0"/>
    </comp>
    <comp name="--.HHZ">
      <acc value="0.0008192667" flag="0"/>
      <vel value="0.0002786027" flag="0"/>
      <psa03 value="0.0011416547" flag="0"/>
      <psa10 value="0.0001506087" flag="0"/>
      <psa30 value="0.0000149221" flag="0"/>
    </comp>
  </station>
  <station code="MORMA" name="MORMA" netid="XE" insttype="" commtype="DIG" lat="39.8699" lon="15.9721">
    <comp name="--.HHE">
      <acc value="0.0007012927" flag="0"/>
      <vel value="0.0001939603" flag="0"/>
      <psa03 value="0.0014213442" flag="0"/>
      <psa10 value="0.0001275322" flag="0"/>
      <psa30 value="0.0000121406" flag="0"/>
    </comp>
    <comp name="--.HHN">
      <acc value="0.0004942975" flag="0"/>
      <vel value="0.0001224269" flag="0"/>
      <psa03 value="0.0008552821" flag="0"/>
      <psa10 value="0.0000922249" flag="0"/>
      <psa30 value="0.0000201148" flag="0"/>
    </comp>
    <comp name="--.HHZ">
      <acc value="0.0008045930" flag="0"/>
      <vel value="0.0001892149" flag="0"/>
      <psa03 value="0.0004068247" flag="0"/>
      <psa10 value="0.0000733682" flag="0"/>
      <psa30 value="0.0000063240" flag="0"/>
    </comp>
  </station>
  <station code="SHEVA" name="SHEVA" netid="XE" insttype="" commtype="DIG" lat="39.8153" lon="16.1677">
    <comp name="--.HHE">
      <acc value="0.0009164812" flag="0"/>
      <vel value="0.0002678501" flag="0"/>
      <psa03 value="0.0008435677" flag="0"/>
      <psa10 value="0.0001470222" flag="0"/>
      <psa30 value="0.0000170901" flag="0"/>
    </comp>
    <comp name="--.HHN">
      <acc value="0.0008081971" flag="0"/>
      <vel value="0.0002136774" flag="0"/>
      <psa03 value="0.0009535320" flag="0"/>
      <psa10 value="0.0001961100" flag="0"/>
      <psa30 value="0.0000221863" flag="0"/>
    </comp>
    <comp name="--.HHZ">
      <acc value="0.0010793816" flag="0"/>
      <vel value="0.0003099202" flag="0"/>
      <psa03 value="0.0009162127" flag="0"/>
      <psa10 value="0.0000777302" flag="0"/>
      <psa30 value="0.0000105967" flag="0"/>
    </comp>
  </station>
  <station code="T0701" name="T0701" netid="XE" insttype="" commtype="DIG" lat="39.9862" lon="16.1161">
    <comp name="--.HHE">
      <acc value="0.0009236278" flag="0"/>
      <vel value="0.0002261399" flag="0"/>
      <psa03 value="0.0009018993" flag="0"/>
      <psa10 value="0.0001927023" flag="0"/>
      <psa30 value="0.0000199297" flag="0"/>
    </comp>
    <comp name="--.HHN">
      <acc value="0.0006883432" flag="0"/>
      <vel value="0.0001689420" flag="0"/>
      <psa03 value="0.0008887135" flag="0"/>
      <psa10 value="0.0001534581" flag="0"/>
      <psa30 value="0.0000279361" flag="0"/>
    </comp>
    <comp name="--.HHZ">
      <acc value="0.0005029727" flag="0"/>
      <vel value="0.0001941260" flag="0"/>
      <psa03 value="0.0009278828" flag="0"/>
      <psa10 value="0.0001332371" flag="0"/>
      <psa30 value="0.0000110037" flag="0"/>
    </comp>
  </station>
  <station code="T0702" name="T0702" netid="XE" insttype="" commtype="DIG" lat="39.7209" lon="16.0835">
    <comp name="--.HHE">
      <acc value="0.0005969791" flag="0"/>
      <vel value="0.0001858057" flag="0"/>
      <psa03 value="0.0008145460" flag="0"/>
      <psa10 value="0.0000754368" flag="0"/>
      <psa30 value="0.0000107706" flag="0"/>
    </comp>
    <comp name="--.HHZ">
      <acc value="0.0003914153" flag="0"/>
      <vel value="0.0001233434" flag="0"/>
      <psa03 value="0.0004270058" flag="0"/>
      <psa10 value="0.0000438658" flag="0"/>
      <psa30 value="0.0000063553" flag="0"/>
    </comp>
    <comp name="--.HHN">
      <acc value="0.0006117978" flag="0"/>
      <vel value="0.0001092137" flag="0"/>
      <psa03 value="0.0005987543" flag="0"/>
      <psa10 value="0.0001162671" flag="0"/>
      <psa30 value="0.0000131933" flag="0"/>
    </comp>
  </station>
  <station code="TNOVA" name="TNOVA" netid="XE" insttype="" commtype="DIG" lat="39.9747" lon="16.2611">
    <comp name="--.HHE">
      <acc value="0.0004873830" flag="0"/>
      <vel value="0.0001251785" flag="0"/>
