<stationlist created="1779501273">
	<station code="MARCO" name="MARCO" netid="GE" source="GEOFON" insttype="" lat="40.29724" lon="15.80632">
		<comp name="--.HLE" depth="1.0">
			<acc value="0.00051396521035468" flag="0"/>
			<vel value="0.000153490824671678" flag="0"/>
			<psa03 value="0.000901335994893426" flag="0"/>
			<psa10 value="0.000135022084198862" flag="0"/>
			<psa30 value="3.75588975978447e-05" flag="0"/>
		</comp>
		<comp name="--.HLN" depth="1.0">
			<acc value="0.00063852781487159" flag="0"/>
			<vel value="0.000209485657038502" flag="0"/>
			<psa03 value="0.00145918439166923" flag="0"/>
			<psa10 value="0.000105710633181741" flag="0"/>
			<psa30 value="4.34397396487272e-05" flag="0"/>
		</comp>
		<comp name="--.HLZ" depth="1.0">
			<acc value="0.000191335831156735" flag="0"/>
			<vel value="0.000114665107532176" flag="0"/>
			<psa03 value="0.000285040122743602" flag="0"/>
			<psa10 value="8.70587066651796e-05" flag="0"/>
			<psa30 value="4.15263446665334e-05" flag="0"/>
		</comp>
	</station>
	<station code="ACR" name="ACR" netid="IT" source="Italian Strong Motion Network (RAN)" insttype="" lat="39.4889" lon="16.3798">
		<comp name="--.HNE" depth="0.0">
			<acc value="0.000830281442115876" flag="0"/>
			<vel value="0.00027508659909803" flag="0"/>
			<psa03 value="0.00261735877128785" flag="0"/>
			<psa10 value="0.000191703133962107" flag="0"/>
			<psa30 value="6.26304249999487e-05" flag="0"/>
		</comp>
		<comp name="--.HNN" depth="0.0">
			<acc value="0.00111681985632765" flag="0"/>
			<vel value="0.000320067720719283" flag="0"/>
			<psa03 value="0.00194811554397935" flag="0"/>
			<psa10 value="0.000207444450184553" flag="0"/>
			<psa30 value="7.14217560804038e-05" flag="0"/>
		</comp>
		<comp name="--.HNZ" depth="0.0">
			<acc value="0.00149550712295653" flag="0"/>
			<vel value="0.000403895735474309" flag="0"/>
			<psa03 value="0.00328175092853885" flag="0"/>
			<psa10 value="0.000174079163726198" flag="0"/>
			<psa30 value="4.04135984265144e-05" flag="0"/>
		</comp>
	</station>
	<station code="CLS7" name="CLS7" netid="IT" source="Italian Strong Motion Network (RAN)" insttype="" lat="40.0095" lon="15.974">
		<comp name="--.HNE" depth="0.0">
			<acc value="0.000953157932086194" flag="0"/>
			<vel value="0.000264046356394326" flag="0"/>
			<psa03 value="0.00121677526684814" flag="0"/>
			<psa10 value="0.000151745086546945" flag="0"/>
			<psa30 value="4.26079918411836e-05" flag="0"/>
		</comp>
		<comp name="--.HNN" depth="0.0">
			<acc value="0.00247682214291546" flag="0"/>
			<vel value="0.00124495688308578" flag="0"/>
			<psa03 value="0.00218659537204548" flag="0"/>
			<psa10 value="0.000370797639695724" flag="0"/>
			<psa30 value="0.000432236003305581" flag="0"/>
		</comp>
		<comp name="--.HNZ" depth="0.0">
			<acc value="0.00110510015495358" flag="0"/>
			<vel value="0.000298683506723112" flag="0"/>
			<psa03 value="0.000859884762624595" flag="0"/>
			<psa10 value="0.000115692534668101" flag="0"/>
			<psa30 value="5.10861543893021e-05" flag="0"/>
		</comp>
	</station>
	<station code="CSA7" name="CSA7" netid="IT" source="Italian Strong Motion Network (RAN)" insttype="" lat="40.1619" lon="15.9908">
		<comp name="--.HNE" depth="0.0">
			<acc value="0.00160702409161409" flag="0"/>
			<vel value="0.000251834796060057" flag="0"/>
			<psa03 value="0.00144237680038421" flag="0"/>
			<psa10 value="0.000188958801772943" flag="0"/>
			<psa30 value="4.93084259464341e-05" flag="0"/>
		</comp>
		<comp name="--.HNN" depth="0.0">
			<acc value="0.00222754454299099" flag="0"/>
			<vel value="0.000276906551285634" flag="0"/>
			<psa03 value="0.00180175933167148" flag="0"/>
			<psa10 value="0.000354052516741634" flag="0"/>
			<psa30 value="6.60446941472733e-05" flag="0"/>
		</comp>
		<comp name="--.HNZ" depth="0.0">
			<acc value="0.00271360854128392" flag="0"/>
			<vel value="0.00684221006418819" flag="0"/>
			<psa03 value="0.003822922195146" flag="0"/>
			<psa10 value="0.00379705059846719" flag="0"/>
			<psa30 value="0.00245678483327126" flag="0"/>
		</comp>
	</station>
	<station code="CSPC" name="CSPC" netid="IT" source="Italian Strong Motion Network (RAN)" insttype="" lat="39.3102" lon="16.2337">
		<comp name="--.HNE" depth="0.0">
			<acc value="0.00202846778683912" flag="0"/>
			<vel value="0.000488636369535998" flag="0"/>
			<psa03 value="0.00271571668675662" flag="0"/>
			<psa10 value="0.000254886455289245" flag="0"/>
			<psa30 value="6.38331999903889e-05" flag="0"/>
		</comp>
		<comp name="--.HNN" depth="0.0">
			<acc value="0.00307960089979734" flag="0"/>
			<vel value="0.000579803245966958" flag="0"/>
			<psa03 value="0.00361587625280595" flag="0"/>
			<psa10 value="0.000405649167188378" flag="0"/>
			<psa30 value="7.94149939265157e-05" flag="0"/>
		</comp>
		<comp name="--.HNZ" depth="0.0">
			<acc value="0.00855622348793028" flag="0"/>
			<vel value="0.000952433697839719" flag="0"/>
			<psa03 value="0.00256453284344397" flag="0"/>
			<psa10 value="0.000212862240727212" flag="0"/>
			<psa30 value="6.41590288666195e-05" flag="0"/>
		</comp>
	</station>
	<station code="CSSE" name="CSSE" netid="IT" source="Italian Strong Motion Network (RAN)" insttype="" lat="39.3023" lon="16.2494">
		<comp name="--.HNE" depth="0.0">
			<acc value="0.00133083953921162" flag="0"/>
			<vel value="0.000405992267088717" flag="0"/>
			<psa03 value="0.00261085313198784" flag="0"/>
			<psa10 value="0.000311545853227538" flag="0"/>
			<psa30 value="5.1370619848326e-05" flag="0"/>
		</comp>
		<comp name="--.HNN" depth="0.0">
			<acc value="0.0026705628634187" flag="0"/>
			<vel value="0.000388718808053993" flag="0"/>
			<psa03 value="0.00151146291996932" flag="0"/>
			<psa10 value="0.00029450574979494" flag="0"/>
			<psa30 value="7.37095834189869e-05" flag="0"/>
		</comp>
		<comp name="--.HNZ" depth="0.0">
			<acc value="0.00450070022039418" flag="0"/>
			<vel value="0.000417598295870503" flag="0"/>
			<psa03 value="0.00167998319819403" flag="0"/>
			<psa10 value="0.000196228804859343" flag="0"/>
			<psa30 value="5.9270091717277e-05" flag="0"/>
		</comp>
	</station>
	<station code="CSST" name="CSST" netid="IT" source="Italian Strong Motion Network (RAN)" insttype="" lat="39.2911" lon="16.2545">
		<comp name="--.HNE" depth="0.0">
			<acc value="0.00105391126756084" flag="0"/>
			<vel value="0.000382745899246983" flag="0"/>
			<psa03 value="0.00250072262674694" flag="0"/>
			<psa10 value="0.000186711392150898" flag="0"/>
			<psa30 value="6.56976333957852e-05" flag="0"/>
		</comp>
		<comp name="--.HNN" depth="0.0">
			<acc value="0.00144792774650482" flag="0"/>
			<vel value="0.000315656989602843" flag="0"/>
			<psa03 value="0.00229482340750709" flag="0"/>
			<psa10 value="0.00019783276853594" flag="0"/>
			<psa30 value="6.72109758347947e-05" flag="0"/>
		</comp>
		<comp name="--.HNZ" depth="0.0">
			<acc value="0.00140067488373513" flag="0"/>
			<vel value="0.000377267677167579" flag="0"/>
			<psa03 value="0.00147928110058173" flag="0"/>
			<psa10 value="0.000164835900038155" flag="0"/>
			<psa30 value="6.57511981421034e-05" flag="0"/>
		</comp>
	</station>
	<station code="CTN" name="CTN" netid="IT" source="Italian Strong Motion Network (RAN)" insttype="" lat="38.9171" lon="16.5849">
		<comp name="--.HGE" depth="0.0">
			<acc value="0.00124437843609345" flag="0"/>
			<vel value="0.000254944010898549" flag="0"/>
			<psa03 value="0.00075356831212944" flag="0"/>
			<psa10 value="0.000266792234223044" flag="0"/>
			<psa30 value="0.000112109327734425" flag="0"/>
		</comp>
		<comp name="--.HGN" depth="0.0">
			<acc value="0.000764324476997449" flag="0"/>
			<vel value="0.000234360600662395" flag="0"/>
			<psa03 value="0.000905504646697191" flag="0"/>
			<psa10 value="0.000202007205228134" flag="0"/>
			<psa30 value="9.89369512228778e-05" flag="0"/>
		</comp>
		<comp name="--.HGZ" depth="0.0">
			<acc value="0.00252262180851972" flag="0"/>
			<vel value="0.000519765561821898" flag="0"/>
			<psa03 value="0.000690025609898727" flag="0"/>
			<psa10 value="0.000282339416491317" flag="0"/>
			<psa30 value="0.000115689408647215" flag="0"/>
		</comp>
	</station>
	<station code="CVL" name="CVL" netid="IT" source="Italian Strong Motion Network (RAN)" insttype="" lat="39.8168" lon="16.1947">
		<comp name="--.HGE" depth="0.0">
			<acc value="0.000927566880665031" flag="0"/>
			<vel value="0.000243235908003119" flag="0"/>
			<psa03 value="0.000881240832307318" flag="0"/>
			<psa10 value="0.00024181055489533" flag="0"/>
			<psa30 value="8.42751856820336e-05" flag="0"/>
		</comp>
		<comp name="--.HGN" depth="0.0">
			<acc value="0.00115175947577061" flag="0"/>
			<vel value="0.000299246661443456" flag="0"/>
			<psa03 value="0.000961067897802386" flag="0"/>
			<psa10 value="0.000304548739312457" flag="0"/>
			<psa30 value="9.13994597135574e-05" flag="0"/>
		</comp>
		<comp name="--.HGZ" depth="0.0">
			<acc value="0.000910955731609682" flag="0"/>
			<vel value="0.000268552165594357" flag="0"/>
			<psa03 value="0.000875365931405216" flag="0"/>
			<psa10 value="0.000134481623591311" flag="0"/>
			<psa30 value="8.73730797043922e-05" flag="0"/>
		</comp>
	</station>
	<station code="FDF" name="FDF" netid="IT" source="Italian Strong Motion Network (RAN)" insttype="" lat="38.7891" lon="16.3">
		<comp name="--.HGE" depth="0.0">
			<acc value="0.00503540123686832" flag="0"/>
			<vel value="0.000992510002633799" flag="0"/>
			<psa03 value="0.00710255384266788" flag="0"/>
			<psa10 value="0.000160638551671925" flag="0"/>
			<psa30 value="6.44190981782684e-05" flag="0"/>
		</comp>
		<comp name="--.HGN" depth="0.0">
			<acc value="0.00320346301203824" flag="0"/>
			<vel value="0.00092463518436591" flag="0"/>
			<psa03 value="0.00928607023470438" flag="0"/>
			<psa10 value="0.000210295913494065" flag="0"/>
			<psa30 value="7.59016296729599e-05" flag="0"/>
		</comp>
		<comp name="--.HGZ" depth="0.0">
			<acc value="0.00449279034265333" flag="0"/>
			<vel value="0.00087899879096954" flag="0"/>
			<psa03 value="0.00165119401891678" flag="0"/>
			<psa10 value="0.000183802840098599" flag="0"/>
			<psa30 value="8.30741035120677e-05" flag="0"/>
		</comp>
	</station>
	<station code="GRM" name="GRM" netid="IT" source="Italian Strong Motion Network (RAN)" insttype="" lat="40.3102" lon="15.886">
		<comp name="--.HGE" depth="0.0">
			<acc value="0.00173274626004497" flag="0"/>
			<vel value="0.000491293725045488" flag="0"/>
			<psa03 value="0.00132774778750384" flag="0"/>
			<psa10 value="0.000507248407405044" flag="0"/>
			<psa30 value="0.000117320792760073" flag="0"/>
		</comp>
		<comp name="--.HGN" depth="0.0">
			<acc value="0.00196797450146598" flag="0"/>
			<vel value="0.000424559242353708" flag="0"/>
			<psa03 value="0.00109033240169658" flag="0"/>
			<psa10 value="0.000505106839755448" flag="0"/>
			<psa30 value="0.000115110424979889" flag="0"/>
		</comp>
		<comp name="--.HGZ" depth="0.0">
			<acc value="0.00129990786450427" flag="0"/>
			<vel value="0.000325906808515061" flag="0"/>
			<psa03 value="0.00094112899556776" flag="0"/>
			<psa10 value="0.000345140549414412" flag="0"/>
			<psa30 value="0.000104852401686189" flag="0"/>
		</comp>
	</station>
	<station code="LMZ" name="LMZ" netid="IT" source="Italian Strong Motion Network (RAN)" insttype="" lat="38.9187" lon="16.2527">
		<comp name="--.HNE" depth="0.0">
			<acc value="0.00155456183818167" flag="0"/>
			<vel value="0.000358499905929047" flag="0"/>
			<psa03 value="0.00184070901476141" flag="0"/>
			<psa10 value="0.000323521421940818" flag="0"/>
			<psa30 value="5.72245395428179e-05" flag="0"/>
		</comp>
		<comp name="--.HNN" depth="0.0">
			<acc value="0.00109982325194374" flag="0"/>
			<vel value="0.000351560298958462" flag="0"/>
			<psa03 value="0.00189054434735762" flag="0"/>
			<psa10 value="0.000438149142417861" flag="0"/>
			<psa30 value="7.10861283779657e-05" flag="0"/>
		</comp>
		<comp name="--.HNZ" depth="0.0">
			<acc value="0.00223619529744528" flag="0"/>
			<vel value="0.00062943768624859" flag="0"/>
			<psa03 value="0.00326277994524181" flag="0"/>
			<psa10 value="0.000216854116497516" flag="0"/>
			<psa30 value="6.20102992842468e-05" flag="0"/>
		</comp>
	</station>
	<station code="LRG" name="LRG" netid="IT" source="Italian Strong Motion Network (RAN)" insttype="" lat="40.0218" lon="15.8908">
		<comp name="--.HGE" depth="0.0">
			<acc value="0.000675834052986095" flag="0"/>
			<vel value="0.000248337726475315" flag="0"/>
			<psa03 value="0.0014659123764277" flag="0"/>
			<psa10 value="0.0001639785434378" flag="0"/>
			<psa30 value="9.96208897596159e-05" flag="0"/>
		</comp>
		<comp name="--.HGN" depth="0.0">
			<acc value="0.000699587125387936" flag="0"/>
			<vel value="0.000181621463265387" flag="0"/>
			<psa03 value="0.00149886621961433" flag="0"/>
			<psa10 value="0.000166178093444068" flag="0"/>
			<psa30 value="8.34341338727289e-05" flag="0"/>
		</comp>
		<comp name="--.HGZ" depth="0.0">
			<acc value="0.000593227740796796" flag="0"/>
			<vel value="0.000293088459499701" flag="0"/>
			<psa03 value="0.00173691519231549" flag="0"/>
			<psa10 value="0.00020349496980086" flag="0"/>
			<psa30 value="0.000123317049357645" flag="0"/>
		</comp>
	</station>
	<station code="LRS" name="LRS" netid="IT" source="Italian Strong Motion Network (RAN)" insttype="" lat="40.0466" lon="15.8348">
		<comp name="--.HGE" depth="0.0">
			<acc value="0.000458094173832403" flag="0"/>
			<vel value="0.000265985069903611" flag="0"/>
			<psa03 value="0.000995767380717625" flag="0"/>
			<psa10 value="0.000216897830330843" flag="0"/>
			<psa30 value="9.1489647979754e-05" flag="0"/>
		</comp>
		<comp name="--.HGN" depth="0.0">
			<acc value="0.000505881129518628" flag="0"/>
			<vel value="0.000289270532196392" flag="0"/>
			<psa03 value="0.00139643072282789" flag="0"/>
			<psa10 value="0.00021722578662665" flag="0"/>
			<psa30 value="0.00014273677331905" flag="0"/>
		</comp>
		<comp name="--.HGZ" depth="0.0">
			<acc value="0.000519910795977135" flag="0"/>
			<vel value="0.00038062767849635" flag="0"/>
			<psa03 value="0.00125478812029958" flag="0"/>
			<psa10 value="0.000234522137503135" flag="0"/>
			<psa30 value="0.000146525578996332" flag="0"/>
		</comp>
	</station>
	<station code="LTR" name="LTR" netid="IT" source="Italian Strong Motion Network (RAN)" insttype="" lat="40.0876" lon="16.0094">
		<comp name="--.HNE" depth="0.0">
			<acc value="0.000367538626547977" flag="0"/>
			<vel value="0.000148315424428543" flag="0"/>
			<psa03 value="0.00048491599374745" flag="0"/>
			<psa10 value="0.00019814447863833" flag="0"/>
			<psa30 value="7.81507369986155e-05" flag="0"/>
		</comp>
		<comp name="--.HNN" depth="0.0">
			<acc value="0.000500242035827241" flag="0"/>
			<vel value="0.000152408227512832" flag="0"/>
			<psa03 value="0.000390306169995843" flag="0"/>
			<psa10 value="0.000164939324858292" flag="0"/>
			<psa30 value="5.86675713345087e-05" flag="0"/>
		</comp>
		<comp name="--.HNZ" depth="0.0">
			<acc value="0.000853812589490105" flag="0"/>
			<vel value="0.00016339046816452" flag="0"/>
			<psa03 value="0.000815070921531724" flag="0"/>
			<psa10 value="0.000147483104992834" flag="0"/>
			<psa30 value="4.08162976294019e-05" flag="0"/>
		</comp>
	</station>
	<station code="MLR" name="MLR" netid="IT" source="Italian Strong Motion Network (RAN)" insttype="" lat="40.2402" lon="15.8631">
		<comp name="--.HNE" depth="0.0">
			<acc value="0.000363552629141599" flag="0"/>
			<vel value="0.000114122671891969" flag="0"/>
			<psa03 value="0.000473828548646647" flag="0"/>
			<psa10 value="0.000162732874980878" flag="0"/>
			<psa30 value="3.69426360704179e-05" flag="0"/>
		</comp>
		<comp name="--.HNN" depth="0.0">
			<acc value="0.000456862916178964" flag="0"/>
			<vel value="0.000132184582875409" flag="0"/>
			<psa03 value="0.000698254019573819" flag="0"/>
			<psa10 value="0.000159755880894631" flag="0"/>
			<psa30 value="5.32686850389547e-05" flag="0"/>
		</comp>
		<comp name="--.HNZ" depth="0.0">
			<acc value="0.000936817328840209" flag="0"/>
			<vel value="0.000150255543990413" flag="0"/>
			<psa03 value="0.000397991168021538" flag="0"/>
			<psa10 value="0.00016529302016387" flag="0"/>
			<psa30 value="3.90914502938144e-05" flag="0"/>
		</comp>
	</station>
	<station code="MMR7" name="MMR7" netid="IT" source="Italian Strong Motion Network (RAN)" insttype="" lat="40.297" lon="15.9887">
		<comp name="--.HNE" depth="0.0">
			<acc value="0.000811744075861967" flag="0"/>
			<vel value="0.000353662570042679" flag="0"/>
			<psa03 value="0.00225999899769626" flag="0"/>
			<psa10 value="0.000262584367581905" flag="0"/>
			<psa30 value="9.44285601161763e-05" flag="0"/>
		</comp>
		<comp name="--.HNN" depth="0.0">
			<acc value="0.000778634088887277" flag="0"/>
			<vel value="0.000358754753879742" flag="0"/>
			<psa03 value="0.00250145298111892" flag="0"/>
			<psa10 value="0.000256588482102668" flag="0"/>
			<psa30 value="9.75370863532837e-05" flag="0"/>
		</comp>
		<comp name="--.HNZ" depth="0.0">
			<acc value="0.000912500982319647" flag="0"/>
			<vel value="0.000285564837523677" flag="0"/>
			<psa03 value="0.00264377751358737" flag="0"/>
			<psa10 value="0.000177644404788734" flag="0"/>
			<psa30 value="8.40304949933097e-05" flag="0"/>
		</comp>
	</station>
	<station code="MRA" name="MRA" netid="IT" source="Italian Strong Motion Network (RAN)" insttype="" lat="39.9871" lon="15.7309">
		<comp name="--.HNE" depth="0.0">
			<acc value="0.0106779840161799" flag="0"/>
			<vel value="0.000546280413688445" flag="0"/>
			<psa03 value="0.00137989951703956" flag="0"/>
			<psa10 value="0.000188997930341581" flag="0"/>
			<psa30 value="5.30798020836775e-05" flag="0"/>
		</comp>
		<comp name="--.HNN" depth="0.0">
			<acc value="0.00723239515660078" flag="0"/>
			<vel value="0.000391544634941076" flag="0"/>
			<psa03 value="0.00209060626584245" flag="0"/>
			<psa10 value="0.000166250388272308" flag="0"/>
			<psa30 value="5.41172731547943e-05" flag="0"/>
		</comp>
		<comp name="--.HNZ" depth="0.0">
			<acc value="0.00404215120441937" flag="0"/>
			<vel value="0.00020145325865761" flag="0"/>
			<psa03 value="0.000510737121588154" flag="0"/>
			<psa10 value="0.000133623285480624" flag="0"/>
			<psa30 value="5.35079456804646e-05" flag="0"/>
		</comp>
	</station>
	<station code="MRM" name="MRM" netid="IT" source="Italian Strong Motion Network (RAN)" insttype="" lat="39.8832" lon="15.9895">
		<comp name="--.HNE" depth="0.0">
			<acc value="0.000828258554963884" flag="0"/>
			<vel value="0.00016062199612558" flag="0"/>
			<psa03 value="0.000750155325619167" flag="0"/>
			<psa10 value="0.000138837566448023" flag="0"/>
			<psa30 value="5.44973601826529e-05" flag="0"/>
		</comp>
		<comp name="--.HNN" depth="0.0">
			<acc value="0.00101106425636916" flag="0"/>
			<vel value="0.000214742277665699" flag="0"/>
			<psa03 value="0.000917107873036282" flag="0"/>
			<psa10 value="0.000182925325912903" flag="0"/>
			<psa30 value="6.40465930328807e-05" flag="0"/>
		</comp>
		<comp name="--.HNZ" depth="0.0">
			<acc value="0.000962532747549795" flag="0"/>
			<vel value="0.000196831692429365" flag="0"/>
			<psa03 value="0.000700415865259444" flag="0"/>
			<psa10 value="0.000114753331825522" flag="0"/>
			<psa30 value="5.320320869626e-05" flag="0"/>
		</comp>
	</station>
	<station code="MRV" name="MRV" netid="IT" source="Italian Strong Motion Network (RAN)" insttype="" lat="40.3613" lon="15.8265">
		<comp name="--.HNE" depth="0.0">
			<acc value="0.00682858205036728" flag="0"/>
			<vel value="0.000530909628850772" flag="0"/>
			<psa03 value="0.000831047972771499" flag="0"/>
			<psa10 value="0.000164058866141598" flag="0"/>
			<psa30 value="5.13420144377329e-05" flag="0"/>
		</comp>
		<comp name="--.HNN" depth="0.0">
			<acc value="0.00339241408628706" flag="0"/>
			<vel value="0.000307993620015409" flag="0"/>
			<psa03 value="0.000850325454237121" flag="0"/>
			<psa10 value="0.000258667906963735" flag="0"/>
			<psa30 value="6.88263041965377e-05" flag="0"/>
		</comp>
		<comp name="--.HNZ" depth="0.0">
			<acc value="0.00299764074647361" flag="0"/>
