<?xml version="1.0" encoding="UTF-8" standalone="yes"?>
<!DOCTYPE earthquake SYSTEM "stationlist.dtd">
<stationlist created="" xmlns="ch.ethz.sed.shakemap.usgs.xml">
  <station code="CUKT" name="CUKT" netid="KO" insttype="CMG-3ESP" lat="37.2473" lon="43.6077">
    <comp name="--.HHZ">
      <acc value="0.0059394885" flag="0"/>
      <vel value="0.0033275780" flag="0"/>
      <psa03 value="0.0097456722" flag="0"/>
      <psa10 value="0.0024041067" flag="0"/>
      <psa30 value="0.0004079681" flag="0"/>
    </comp>
    <comp name="--.HHN">
      <acc value="0.0084100246" flag="0"/>
      <vel value="0.0047309644" flag="0"/>
      <psa03 value="0.0155910650" flag="0"/>
      <psa10 value="0.0074986011" flag="0"/>
      <psa30 value="0.0007108832" flag="0"/>
    </comp>
    <comp name="--.HHE">
      <acc value="0.0113376745" flag="0"/>
      <vel value="0.0058615666" flag="0"/>
      <psa03 value="0.0196995730" flag="0"/>
      <psa10 value="0.0061278853" flag="0"/>
      <psa30 value="0.0005673274" flag="0"/>
    </comp>
  </station>
</stationlist>
