<stationlist xmlns:esm="https://esm-db.eu/esmws/shakemap/1/" created="1784080617">
	<station code="ABEA" name="ABEA" netid="HC" source="Seismological Network of Crete (HC)" insttype="" lat="35.5163" lon="24.0113" esm:processing="manual (Paolucci et al 2011)" esm:quality="good">
		<comp name="--.HNE" depth="0.0">
			<acc value="0.0267976525902764" flag="0"/>
			<vel value="0.0241022933746915" flag="0"/>
			<psa03 value="0.0600910536540596" flag="0"/>
			<psa10 value="0.0477774037685203" flag="0"/>
			<psa30 value="0.00382985995942633" flag="0"/>
		</comp>
		<comp name="--.HNN" depth="0.0">
			<acc value="0.0266921546631971" flag="0"/>
			<vel value="0.0198039697978105" flag="0"/>
			<psa03 value="0.0983923930131523" flag="0"/>
			<psa10 value="0.0289307233934402" flag="0"/>
			<psa30 value="0.0061818036808218" flag="0"/>
		</comp>
		<comp name="--.HNZ" depth="0.0">
			<acc value="0.0132814472944501" flag="0"/>
			<vel value="0.0144472695502624" flag="0"/>
			<psa03 value="0.0379099722871115" flag="0"/>
			<psa10 value="0.0270118506525384" flag="0"/>
			<psa30 value="0.00161639468238152" flag="0"/>
		</comp>
	</station>
	<station code="ATEI" name="ATEI" netid="HC" source="Seismological Network of Crete (HC)" insttype="" lat="35.5193" lon="24.0432" esm:processing="manual (Paolucci et al 2011)" esm:quality="good">
		<comp name="--.HNE" depth="0.0">
			<acc value="0.0226749908886367" flag="0"/>
			<vel value="0.0174062122087284" flag="0"/>
			<psa03 value="0.0735824109319338" flag="0"/>
			<psa10 value="0.0433032073749675" flag="0"/>
			<psa30 value="0.00279442970058665" flag="0"/>
		</comp>
		<comp name="--.HNN" depth="0.0">
			<acc value="0.0203219821838974" flag="0"/>
			<vel value="0.0207324217752083" flag="0"/>
			<psa03 value="0.0492171093502827" flag="0"/>
			<psa10 value="0.0332407132841181" flag="0"/>
			<psa30 value="0.00263493371809391" flag="0"/>
		</comp>
		<comp name="--.HNZ" depth="0.0">
			<acc value="0.0123193205344276" flag="0"/>
			<vel value="0.0091255944264561" flag="0"/>
			<psa03 value="0.042225982159917" flag="0"/>
			<psa10 value="0.0123415425666259" flag="0"/>
			<psa30 value="0.00143516715611399" flag="0"/>
		</comp>
	</station>
	<station code="PASK" name="PASK" netid="HC" source="Seismological Network of Crete (HC)" insttype="" lat="35.4996" lon="24.0121" esm:processing="manual (Paolucci et al 2011)" esm:quality="good">
		<comp name="--.HNE" depth="0.0">
			<acc value="0.0410149102095754" flag="0"/>
			<vel value="0.0369778147673029" flag="0"/>
			<psa03 value="0.0975902461248577" flag="0"/>
			<psa10 value="0.0598947414826751" flag="0"/>
			<psa30 value="0.00530465974100725" flag="0"/>
		</comp>
		<comp name="--.HNN" depth="0.0">
			<acc value="0.045018504343755" flag="0"/>
			<vel value="0.0387095942231376" flag="0"/>
			<psa03 value="0.116463902661976" flag="0"/>
			<psa10 value="0.0549041358795465" flag="0"/>
			<psa30 value="0.00408103909881159" flag="0"/>
		</comp>
		<comp name="--.HNZ" depth="0.0">
			<acc value="0.0266451512693995" flag="0"/>
			<vel value="0.0169781363583585" flag="0"/>
			<psa03 value="0.0679359275051183" flag="0"/>
			<psa10 value="0.0263381147708428" flag="0"/>
			<psa30 value="0.00274681883826735" flag="0"/>
		</comp>
	</station>
	<station code="POLY" name="POLY" netid="HC" source="Seismological Network of Crete (HC)" insttype="" lat="35.5226" lon="24.0602" esm:processing="manual (Paolucci et al 2011)" esm:quality="good">
		<comp name="--.HNE" depth="0.0">
			<acc value="0.0102368240853174" flag="0"/>
			<vel value="0.00631636530165716" flag="0"/>
			<psa03 value="0.0290419863890676" flag="0"/>
			<psa10 value="0.009998249522462" flag="0"/>
			<psa30 value="0.000440313231090614" flag="0"/>
		</comp>
		<comp name="--.HNN" depth="0.0">
			<acc value="0.0114342860437431" flag="0"/>
			<vel value="0.0068033313405676" flag="0"/>
			<psa03 value="0.040972253273198" flag="0"/>
			<psa10 value="0.00635799727986636" flag="0"/>
			<psa30 value="0.000453812146160822" flag="0"/>
		</comp>
		<comp name="--.HNZ" depth="0.0">
			<acc value="0.0106211457873173" flag="0"/>
			<vel value="0.00689570279979375" flag="0"/>
			<psa03 value="0.041088128136839" flag="0"/>
			<psa10 value="0.00544677738477034" flag="0"/>
			<psa30 value="0.000468522808169984" flag="0"/>
		</comp>
	</station>
	<station code="CH01" name="CH01" netid="HI" source="ITSAK Strong Motion Network" insttype="" lat="35.517" lon="24.0208" esm:processing="manual (Paolucci et al 2011)" esm:quality="good">
		<comp name="--.HNE" depth="0.0">
			<acc value="0.0224469724999197" flag="0"/>
			<vel value="0.019510509283702" flag="0"/>
			<psa03 value="0.0583657258178913" flag="0"/>
			<psa10 value="0.0319206558367907" flag="0"/>
			<psa30 value="0.0042741839770452" flag="0"/>
		</comp>
		<comp name="--.HNN" depth="0.0">
			<acc value="0.0192911747877484" flag="0"/>
			<vel value="0.0181635183618415" flag="0"/>
			<psa03 value="0.0508361905648005" flag="0"/>
			<psa10 value="0.0451687084552586" flag="0"/>
			<psa30 value="0.00480278232742502" flag="0"/>
		</comp>
		<comp name="--.HNZ" depth="0.0">
			<acc value="0.0116820259313998" flag="0"/>
			<vel value="0.0115881615926391" flag="0"/>
			<psa03 value="0.0367291622934112" flag="0"/>
			<psa10 value="0.0219714004974529" flag="0"/>
			<psa30 value="0.00147751464892756" flag="0"/>
		</comp>
	</station>
	<station code="CH03" name="CH03" netid="HI" source="ITSAK Strong Motion Network" insttype="" lat="35.53303" lon="24.0705" esm:processing="automatic (Paolucci et al 2011)" esm:quality="best">
		<comp name="--.HNE" depth="0.0">
			<acc value="0.0180372025006678" flag="0"/>
			<vel value="0.0151366114261379" flag="0"/>
			<psa03 value="0.0475951008583717" flag="0"/>
			<psa10 value="0.0238067570808085" flag="0"/>
			<psa30 value="0.00215579281069467" flag="0"/>
		</comp>
		<comp name="--.HNN" depth="0.0">
			<acc value="0.0174575965837384" flag="0"/>
			<vel value="0.0138635659675391" flag="0"/>
			<psa03 value="0.044286517097754" flag="0"/>
			<psa10 value="0.0222429934891566" flag="0"/>
			<psa30 value="0.00255496362880061" flag="0"/>
		</comp>
		<comp name="--.HNZ" depth="0.0">
			<acc value="0.00998011093368699" flag="0"/>
			<vel value="0.00876114825209542" flag="0"/>
			<psa03 value="0.0446120907487388" flag="0"/>
			<psa10 value="0.0154038126144693" flag="0"/>
			<psa30 value="0.00149750638994692" flag="0"/>
		</comp>
	</station>
	<station code="KIS1" name="KIS1" netid="HI" source="ITSAK Strong Motion Network" insttype="" lat="35.493933" lon="23.658993" esm:processing="manual (Paolucci et al 2011)" esm:quality="good">
		<comp name="--.HNE" depth="0.0">
			<acc value="0.0457918085267121" flag="0"/>
			<vel value="0.0286582232520282" flag="0"/>
			<psa03 value="0.0680001036314717" flag="0"/>
			<psa10 value="0.039063499015096" flag="0"/>
			<psa30 value="0.00297817312268659" flag="0"/>
		</comp>
		<comp name="--.HNN" depth="0.0">
			<acc value="0.0550895716875563" flag="0"/>
			<vel value="0.0364651519432755" flag="0"/>
			<psa03 value="0.126374767541468" flag="0"/>
			<psa10 value="0.0612911614886472" flag="0"/>
			<psa30 value="0.00444871970584733" flag="0"/>
		</comp>
		<comp name="--.HNZ" depth="0.0">
			<acc value="0.0279760201083961" flag="0"/>
			<vel value="0.0165928149958143" flag="0"/>
			<psa03 value="0.0958327234476058" flag="0"/>
			<psa10 value="0.0239478339264677" flag="0"/>
			<psa30 value="0.00210681789967946" flag="0"/>
		</comp>
	</station>
	<station code="PET1" name="PET1" netid="HI" source="ITSAK Strong Motion Network" insttype="" lat="36.963862" lon="21.92538" esm:processing="manual (Paolucci et al 2011)" esm:quality="good">
		<comp name="--.HNE" depth="0.0">
			<acc value="0.0107762619878598" flag="0"/>
			<vel value="0.0113318403979463" flag="0"/>
			<psa03 value="0.0308665890308713" flag="0"/>
			<psa10 value="0.0157590633356045" flag="0"/>
			<psa30 value="0.00187796336418964" flag="0"/>
		</comp>
		<comp name="--.HNN" depth="0.0">
			<acc value="0.0122019045092612" flag="0"/>
			<vel value="0.0128838178418647" flag="0"/>
			<psa03 value="0.0259393121021232" flag="0"/>
			<psa10 value="0.0257937755860433" flag="0"/>
			<psa30 value="0.00200468821742257" flag="0"/>
		</comp>
		<comp name="--.HNZ" depth="0.0">
			<acc value="0.00624711839511783" flag="0"/>
			<vel value="0.00471815262298445" flag="0"/>
			<psa03 value="0.0247104077765761" flag="0"/>
			<psa10 value="0.00627241145397543" flag="0"/>
			<psa30 value="0.00137371381429836" flag="0"/>
		</comp>
	</station>
	<station code="PYL1" name="PYL1" netid="HI" source="ITSAK Strong Motion Network" insttype="" lat="36.914188" lon="21.695161" esm:processing="manual (Paolucci et al 2011)" esm:quality="good">
		<comp name="--.HNE" depth="0.0">
			<acc value="0.00363620650733233" flag="0"/>
			<vel value="0.00481052845170036" flag="0"/>
			<psa03 value="0.0086140784529218" flag="0"/>
			<psa10 value="0.00966768293654802" flag="0"/>
			<psa30 value="0.00171617806337413" flag="0"/>
		</comp>
		<comp name="--.HNN" depth="0.0">
			<acc value="0.00430367236038455" flag="0"/>
			<vel value="0.00544154829445432" flag="0"/>
			<psa03 value="0.0072538060498843" flag="0"/>
			<psa10 value="0.00803477601447832" flag="0"/>
			<psa30 value="0.00201477138538296" flag="0"/>
		</comp>
		<comp name="--.HNZ" depth="0.0">
			<acc value="0.00269011348438097" flag="0"/>
			<vel value="0.00264002971824114" flag="0"/>
			<psa03 value="0.00636726424792418" flag="0"/>
			<psa10 value="0.00499852519026236" flag="0"/>
			<psa30 value="0.00102237106039855" flag="0"/>
		</comp>
	</station>
	<station code="ANKY" name="ANKY" netid="HL" source="National Observatory of Athens Seismic Network" insttype="" lat="35.86704" lon="23.30117" esm:processing="manual (Paolucci et al 2011)" esm:quality="best">
		<comp name="00.HNE" depth="0.0">
			<acc value="0.0560090199709298" flag="0"/>
			<vel value="0.049858546834802" flag="0"/>
			<psa03 value="0.127227667791702" flag="0"/>
			<psa10 value="0.0825329549031614" flag="0"/>
			<psa30 value="0.00567756819434968" flag="0"/>
		</comp>
		<comp name="00.HNN" depth="0.0">
			<acc value="0.0446267965443089" flag="0"/>
			<vel value="0.0390659557756103" flag="0"/>
			<psa03 value="0.114119059827753" flag="0"/>
			<psa10 value="0.0753977772326282" flag="0"/>
			<psa30 value="0.00389345417223083" flag="0"/>
		</comp>
		<comp name="00.HNZ" depth="0.0">
			<acc value="0.0316308320759272" flag="0"/>
			<vel value="0.0207448814993047" flag="0"/>
			<psa03 value="0.0821501451689642" flag="0"/>
			<psa10 value="0.0259929475301944" flag="0"/>
			<psa30 value="0.00159676400694366" flag="0"/>
		</comp>
	</station>
	<station code="CHNB" name="CHNB" netid="HL" source="National Observatory of Athens Seismic Network" insttype="" lat="35.48765" lon="24.06605" esm:processing="manual (Paolucci et al 2011)" esm:quality="good">
		<comp name="00.HNE" depth="0.0">
			<acc value="0.0574220462376732" flag="0"/>
			<vel value="0.0446965611191441" flag="0"/>
			<psa03 value="0.11144229917208" flag="0"/>
			<psa10 value="0.0607801863892508" flag="0"/>
			<psa30 value="0.0037299708422622" flag="0"/>
		</comp>
		<comp name="00.HNN" depth="0.0">
			<acc value="0.0468160417219506" flag="0"/>
			<vel value="0.0392319182941053" flag="0"/>
			<psa03 value="0.121415001481325" flag="0"/>
			<psa10 value="0.0667729333791969" flag="0"/>
			<psa30 value="0.00382584677690765" flag="0"/>
		</comp>
		<comp name="00.HNZ" depth="0.0">
			<acc value="0.0330167123692161" flag="0"/>
			<vel value="0.0191855471073989" flag="0"/>
			<psa03 value="0.146972819561221" flag="0"/>
			<psa10 value="0.0174716367851728" flag="0"/>
			<psa30 value="0.00133843699821683" flag="0"/>
		</comp>
	</station>
	<station code="IMMV" name="IMMV" netid="HL" source="National Observatory of Athens Seismic Network" insttype="" lat="35.4606" lon="23.9811" esm:processing="manual (Paolucci et al 2011)" esm:quality="best">
		<comp name="--.HNE" depth="0.0">
			<acc value="0.0172905692119773" flag="0"/>
			<vel value="0.0154858105133603" flag="0"/>
			<psa03 value="0.0470845930817427" flag="0"/>
			<psa10 value="0.0188231606920134" flag="0"/>
			<psa30 value="0.00198757666720148" flag="0"/>
		</comp>
		<comp name="--.HNN" depth="0.0">
			<acc value="0.0198342330150808" flag="0"/>
			<vel value="0.0147113359481285" flag="0"/>
			<psa03 value="0.0636502425577651" flag="0"/>
			<psa10 value="0.0269358518679736" flag="0"/>
			<psa30 value="0.00212746114219489" flag="0"/>
		</comp>
		<comp name="--.HNZ" depth="0.0">
			<acc value="0.0111102444267201" flag="0"/>
			<vel value="0.00980319235112149" flag="0"/>
			<psa03 value="0.0364432943977282" flag="0"/>
			<psa10 value="0.0122786180856868" flag="0"/>
			<psa30 value="0.000962852430083485" flag="0"/>
		</comp>
	</station>
	<station code="KTHA" name="KTHA" netid="HL" source="National Observatory of Athens Seismic Network" insttype="" lat="36.2566" lon="23.0621" esm:processing="manual (Paolucci et al 2011)" esm:quality="good">
		<comp name="--.HNE" depth="0.0">
			<acc value="0.293680810312532" flag="0"/>
			<vel value="0.213309352518169" flag="0"/>
			<psa03 value="0.811442837438179" flag="0"/>
			<psa10 value="0.214995472395062" flag="0"/>
			<psa30 value="0.0105983820907894" flag="0"/>
		</comp>
		<comp name="--.HNN" depth="0.0">
			<acc value="0.241360273365068" flag="0"/>
			<vel value="0.183415843429107" flag="0"/>
			<psa03 value="0.689222657616814" flag="0"/>
			<psa10 value="0.147316013963135" flag="0"/>
			<psa30 value="0.0451331065134389" flag="0"/>
		</comp>
		<comp name="--.HNZ" depth="0.0">
			<acc value="0.293783910371491" flag="0"/>
			<vel value="0.191721732240493" flag="0"/>
			<psa03 value="0.435094572880194" flag="0"/>
			<psa10 value="0.152629125930444" flag="0"/>
			<psa30 value="0.0107750271260202" flag="0"/>
		</comp>
	</station>
	<station code="PYL" name="PYL" netid="HP" source="University of Patras, Seismological Laboratory (PSLNET)" insttype="" lat="36.8955" lon="21.742" esm:processing="manual (Paolucci et al 2011)" esm:quality="bad">
		<comp name="--.HNE" depth="0.0">
			<acc value="0.00386352793236338" flag="0"/>
			<vel value="0.00352597426893464" flag="0"/>
			<psa03 value="0.00933881721850002" flag="0"/>
			<psa10 value="0.00649839392421066" flag="0"/>
			<psa30 value="0.00128849931508967" flag="0"/>
		</comp>
		<comp name="--.HNN" depth="0.0">
			<acc value="0.0030587883020312" flag="0"/>
			<vel value="0.00310955125437925" flag="0"/>
			<psa03 value="0.00778734790484788" flag="0"/>
			<psa10 value="0.0050493673082838" flag="0"/>
			<psa30 value="0.000922960412432883" flag="0"/>
		</comp>
		<comp name="--.HNZ" depth="0.0">
			<acc value="0.00283038156350111" flag="0"/>
			<vel value="0.00280171235935249" flag="0"/>
			<psa03 value="0.00509347088098913" flag="0"/>
			<psa10 value="0.00523163031982607" flag="0"/>
			<psa30 value="0.000799575363776818" flag="0"/>
		</comp>
	</station>
	<station code="VALY" name="VALY" netid="HP" source="University of Patras, Seismological Laboratory (PSLNET)" insttype="" lat="37.1641" lon="21.9836" esm:processing="manual (Paolucci et al 2011)" esm:quality="bad">
		<comp name="--.HNE" depth="0.0">
			<acc value="0.00313074214222933" flag="0"/>
			<vel value="0.0028084284006484" flag="0"/>
			<psa03 value="0.00622947972975177" flag="0"/>
			<psa10 value="0.00541562875882625" flag="0"/>
			<psa30 value="0.00101135897673486" flag="0"/>
		</comp>
		<comp name="--.HNN" depth="0.0">
			<acc value="0.0029936456154818" flag="0"/>
			<vel value="0.0034917009915634" flag="0"/>
			<psa03 value="0.0079611016026703" flag="0"/>
			<psa10 value="0.00685712815733199" flag="0"/>
			<psa30 value="0.000966271198225227" flag="0"/>
		</comp>
		<comp name="--.HNZ" depth="0.0">
			<acc value="0.00277926385422888" flag="0"/>
			<vel value="0.00327869123983612" flag="0"/>
			<psa03 value="0.00555755826514616" flag="0"/>
			<psa10 value="0.00578454679156882" flag="0"/>
			<psa30 value="0.00132729000978066" flag="0"/>
		</comp>
	</station>
	<station code="G0LD" name="G0LD" netid="HC" source="Seismological Network of Crete (HC)" insttype="" lat="35.4955" lon="24.0306" esm:processing="automatic (Paolucci et al 2011)" esm:quality="bad">
		<comp name="--.HNE" depth="0.0">
			<acc value="0" flag="1"/>
			<vel value="0" flag="1"/>
			<psa03 value="0" flag="1"/>
			<psa10 value="0" flag="1"/>
			<psa30 value="0" flag="1"/>
		</comp>
		<comp name="--.HNN" depth="0.0">
			<acc value="0" flag="1"/>
			<vel value="0" flag="1"/>
			<psa03 value="0" flag="1"/>
			<psa10 value="0" flag="1"/>
			<psa30 value="0" flag="1"/>
		</comp>
		<comp name="--.HNZ" depth="0.0">
			<acc value="0" flag="1"/>
			<vel value="0" flag="1"/>
			<psa03 value="0" flag="1"/>
			<psa10 value="0" flag="1"/>
			<psa30 value="0" flag="1"/>
		</comp>
	</station>
	<station code="LENT" name="LENT" netid="HC" source="Seismological Network of Crete (HC)" insttype="" lat="35.5074" lon="24.0402" esm:processing="automatic (Paolucci et al 2011)" esm:quality="bad">
		<comp name="--.HNE" depth="0.0">
			<acc value="0" flag="1"/>
			<vel value="0" flag="1"/>
			<psa03 value="0" flag="1"/>
			<psa10 value="0" flag="1"/>
			<psa30 value="0" flag="1"/>
		</comp>
		<comp name="--.HNN" depth="0.0">
			<acc value="0" flag="1"/>
			<vel value="0" flag="1"/>
			<psa03 value="0" flag="1"/>
			<psa10 value="0" flag="1"/>
			<psa30 value="0" flag="1"/>
		</comp>
		<comp name="--.HNZ" depth="0.0">
			<acc value="0" flag="1"/>
			<vel value="0" flag="1"/>
			<psa03 value="0" flag="1"/>
			<psa10 value="0" flag="1"/>
			<psa30 value="0" flag="1"/>
		</comp>
	</station>
	<station code="CH02" name="CH02" netid="HI" source="ITSAK Strong Motion Network" insttype="" lat="35.5145" lon="24.0315" esm:processing="automatic (Paolucci et al 2011)" esm:quality="bad">
		<comp name="--.HNE" depth="0.0">
			<acc value="0" flag="1"/>
			<vel value="0" flag="1"/>
			<psa03 value="0" flag="1"/>
			<psa10 value="0" flag="1"/>
			<psa30 value="0" flag="1"/>
		</comp>
		<comp name="--.HNN" depth="0.0">
			<acc value="0" flag="1"/>
			<vel value="0" flag="1"/>
			<psa03 value="0" flag="1"/>
			<psa10 value="0" flag="1"/>
			<psa30 value="0" flag="1"/>
		</comp>
		<comp name="--.HNZ" depth="0.0">
			<acc value="0" flag="1"/>
			<vel value="0" flag="1"/>
			<psa03 value="0" flag="1"/>
			<psa10 value="0" flag="1"/>
			<psa30 value="0" flag="1"/>
		</comp>
	</station>
	<station code="GTH2" name="GTH2" netid="HI" source="ITSAK Strong Motion Network" insttype="" lat="36.7603" lon="22.5659" esm:processing="automatic (Paolucci et al 2011)" esm:quality="bad">
		<comp name="--.HNE" depth="0.0">
			<acc value="0" flag="1"/>
			<vel value="0" flag="1"/>
			<psa03 value="0" flag="1"/>
			<psa10 value="0" flag="1"/>
			<psa30 value="0" flag="1"/>
		</comp>
		<comp name="--.HNN" depth="0.0">
			<acc value="0" flag="1"/>
			<vel value="0" flag="1"/>
			<psa03 value="0" flag="1"/>
			<psa10 value="0" flag="1"/>
			<psa30 value="0" flag="1"/>
		</comp>
		<comp name="--.HNZ" depth="0.0">
			<acc value="0" flag="1"/>
			<vel value="0" flag="1"/>
			<psa03 value="0" flag="1"/>
			<psa10 value="0" flag="1"/>
			<psa30 value="0" flag="1"/>
		</comp>
	</station>
	<station code="KYP2" name="KYP2" netid="HI" source="ITSAK Strong Motion Network" insttype="" lat="37.2497" lon="21.667" esm:processing="automatic (Paolucci et al 2011)" esm:quality="bad">
		<comp name="--.HNE" depth="0.0">
			<acc value="0" flag="1"/>
			<vel value="0" flag="1"/>
			<psa03 value="0" flag="1"/>
			<psa10 value="0" flag="1"/>
			<psa30 value="0" flag="1"/>
		</comp>
		<comp name="--.HNN" depth="0.0">
			<acc value="0" flag="1"/>
			<vel value="0" flag="1"/>
			<psa03 value="0" flag="1"/>
			<psa10 value="0" flag="1"/>
			<psa30 value="0" flag="1"/>
		</comp>
		<comp name="--.HNZ" depth="0.0">
			<acc value="0" flag="1"/>
			<vel value="0" flag="1"/>
			<psa03 value="0" flag="1"/>
			<psa10 value="0" flag="1"/>
			<psa30 value="0" flag="1"/>
		</comp>
	</station>
