<?xml version="1.0" encoding="UTF-8" standalone="yes"?>
<!DOCTYPE earthquake SYSTEM "stationlist.dtd">
<stationlist created="" xmlns="ch.ethz.sed.shakemap.usgs.xml">
  <station code="IMMV" name="IMMV" netid="GE" insttype="STS-2/N" lat="35.4606" lon="23.9811">
    <comp name="--.HHE">
      <acc value="0.0183002814" flag="0"/>
      <vel value="0.0164824842" flag="0"/>
      <psa03 value="0.0509429123" flag="0"/>
      <psa10 value="0.0194518179" flag="0"/>
      <psa30 value="0.0018982538" flag="0"/>
    </comp>
    <comp name="--.HHZ">
      <acc value="0.0114886023" flag="0"/>
      <vel value="0.0097446961" flag="0"/>
      <psa03 value="0.0373951058" flag="0"/>
      <psa10 value="0.0123664702" flag="0"/>
      <psa30 value="0.0009593490" flag="0"/>
    </comp>
    <comp name="--.HHN">
      <acc value="0.0204411877" flag="0"/>
      <vel value="0.0149723321" flag="0"/>
      <psa03 value="0.0667365252" flag="0"/>
      <psa10 value="0.0278626231" flag="0"/>
      <psa30 value="0.0021144734" flag="0"/>
    </comp>
  </station>
</stationlist>
