<?xml version="1.0" encoding="UTF-8" standalone="yes"?>
<!DOCTYPE earthquake SYSTEM "stationlist.dtd">
<stationlist created="" xmlns="ch.ethz.sed.shakemap.usgs.xml">
  <station code="SFR2" name="SFR2" netid="HI" insttype="unknown" lat="36.3998" lon="25.4382">
    <comp name="--.HNE">
      <acc value="0.3016459652" flag="0"/>
      <vel value="0.1065117637" flag="0"/>
      <psa03 value="0.4646126888" flag="0"/>
      <psa10 value="0.0866418886" flag="0"/>
      <psa30 value="0.0076043947" flag="0"/>
    </comp>
    <comp name="--.HNN">
      <acc value="0.3329554030" flag="0"/>
      <vel value="0.1277802034" flag="0"/>
      <psa03 value="0.4877022062" flag="0"/>
      <psa10 value="0.0732856280" flag="0"/>
      <psa30 value="0.0065587814" flag="0"/>
    </comp>
    <comp name="--.HNZ">
      <acc value="0.4729382696" flag="0"/>
      <vel value="0.1025563888" flag="0"/>
      <psa03 value="0.3880979697" flag="0"/>
      <psa10 value="0.0582949487" flag="0"/>
      <psa30 value="0.0029961999" flag="0"/>
    </comp>
  </station>
  <station code="AMGA" name="AMGA" netid="HL" insttype="SMART24" lat="36.8316" lon="25.8938">
    <comp name="--.HHN">
      <acc value="1.2353288935" flag="0"/>
      <vel value="0.3187939774" flag="0"/>
      <psa03 value="3.3621714494" flag="0"/>
      <psa10 value="0.5839782164" flag="0"/>
      <psa30 value="0.0580138140" flag="0"/>
    </comp>
    <comp name="--.HHE">
      <acc value="2.5978135065" flag="0"/>
      <vel value="1.4323692307" flag="0"/>
      <psa03 value="7.2445675416" flag="0"/>
      <psa10 value="0.5303742970" flag="0"/>
      <psa30 value="0.0596068518" flag="0"/>
    </comp>
    <comp name="--.HHZ">
      <acc value="1.6994162642" flag="0"/>
      <vel value="0.4409163732" flag="0"/>
      <psa03 value="2.4558342224" flag="0"/>
      <psa10 value="0.2777825847" flag="0"/>
      <psa30 value="0.0201896335" flag="0"/>
    </comp>
  </station>
  <station code="SAP3" name="SAP3" netid="HL" insttype="0" lat="36.4356" lon="25.3454">
    <comp name="--.HNE">
      <acc value="0.8046273063" flag="0"/>
      <vel value="0.1907867273" flag="0"/>
      <psa03 value="0.6664706964" flag="0"/>
      <psa10 value="0.1379412470" flag="0"/>
      <psa30 value="0.0313123805" flag="0"/>
    </comp>
    <comp name="--.HNN">
      <acc value="0.5470929071" flag="0"/>
      <vel value="0.1981562762" flag="0"/>
      <psa03 value="0.9618790270" flag="0"/>
      <psa10 value="0.1767555826" flag="0"/>
      <psa30 value="0.0305250624" flag="0"/>
    </comp>
    <comp name="--.HNZ">
      <acc value="0.5366955955" flag="0"/>
      <vel value="0.1245216797" flag="0"/>
      <psa03 value="0.6578362698" flag="0"/>
      <psa10 value="0.0604212823" flag="0"/>
      <psa30 value="0.0110074398" flag="0"/>
    </comp>
  </station>
  <station code="THERA" name="THERA" netid="HL" insttype="DC" lat="37.5785" lon="23.3859">
    <comp name="00.HNN">
      <acc value="0.2840487246" flag="0"/>
      <vel value="0.0713875068" flag="0"/>
      <psa03 value="0.4289035023" flag="0"/>
      <psa10 value="0.0339677910" flag="0"/>
      <psa30 value="0.0019190185" flag="0"/>
    </comp>
    <comp name="00.HNE">
      <acc value="0.2636002160" flag="0"/>
      <vel value="0.0675077255" flag="0"/>
      <psa03 value="0.4587269171" flag="0"/>
      <psa10 value="0.0307024462" flag="0"/>
      <psa30 value="0.0044361800" flag="0"/>
    </comp>
    <comp name="00.HNZ">
      <acc value="0.2046040480" flag="0"/>
      <vel value="0.0458374324" flag="0"/>
      <psa03 value="0.3032655628" flag="0"/>
      <psa10 value="0.0159364850" flag="0"/>
      <psa30 value="0.0017669931" flag="0"/>
    </comp>
  </station>
  <station code="TNSA" name="TNSA" netid="HL" insttype="CMG-5" lat="37.5394" lon="25.1631">
    <comp name="00.HNE">
      <acc value="0.0547464532" flag="0"/>
      <vel value="0.0258979879" flag="0"/>
      <psa03 value="0.1413528305" flag="0"/>
      <psa10 value="0.0146931087" flag="0"/>
      <psa30 value="0.0013111729" flag="0"/>
    </comp>
    <comp name="00.HNZ">
      <acc value="0.0564756840" flag="0"/>
      <vel value="0.0218679096" flag="0"/>
      <psa03 value="0.1130465907" flag="0"/>
      <psa10 value="0.0293968312" flag="0"/>
      <psa30 value="0.0025136635" flag="0"/>
    </comp>
    <comp name="00.HNN">
      <acc value="0.0544680618" flag="0"/>
      <vel value="0.0193651233" flag="0"/>
      <psa03 value="0.1196269744" flag="0"/>
      <psa10 value="0.0102648629" flag="0"/>
      <psa30 value="0.0011754458" flag="0"/>
    </comp>
  </station>
</stationlist>
