<stationlist created="1739289454">
	<station code="ABEA" name="ABEA" netid="HC" source="Seismological Network of Crete (HC)" insttype="" lat="35.5163" lon="24.0113">
		<comp name=".HNE" depth="0.0">
			<acc value="0.0052246604719494" flag="0"/>
			<vel value="0.00257622729729" flag="0"/>
			<psa03 value="0.00231646090859397" flag="0"/>
			<psa10 value="0.00139505608749616" flag="0"/>
			<psa30 value="0.00107011463984175" flag="0"/>
		</comp>
		<comp name=".HNN" depth="0.0">
			<acc value="0.0080669568964812" flag="0"/>
			<vel value="0.00177605966361" flag="0"/>
			<psa03 value="0.0022012345254096" flag="0"/>
			<psa10 value="0.00139860839312756" flag="0"/>
			<psa30 value="0.000820043073827402" flag="0"/>
		</comp>
		<comp name=".HNZ" depth="0.0">
			<acc value="0.0045734049511554" flag="0"/>
			<vel value="0.00148628162061" flag="0"/>
			<psa03 value="0.0012683432988609" flag="0"/>
			<psa10 value="0.000972042420383074" flag="0"/>
			<psa30 value="0.000858504423788691" flag="0"/>
		</comp>
	</station>
	<station code="ATEI" name="ATEI" netid="HC" source="Seismological Network of Crete (HC)" insttype="" lat="35.5193" lon="24.0432">
		<comp name=".HNE" depth="0.0">
			<acc value="0.0061124479503756" flag="0"/>
			<vel value="0.0057957228313" flag="0"/>
			<psa03 value="0.0163532682196122" flag="0"/>
			<psa10 value="0.00483480762602486" flag="0"/>
			<psa30 value="0.00197568150420363" flag="0"/>
		</comp>
		<comp name=".HNN" depth="0.0">
			<acc value="0.0070905310000386" flag="0"/>
			<vel value="0.00566656672268" flag="0"/>
			<psa03 value="0.0170217460967061" flag="0"/>
			<psa10 value="0.00734636916090517" flag="0"/>
			<psa30 value="0.00178024376574366" flag="0"/>
		</comp>
		<comp name=".HNZ" depth="0.0">
			<acc value="0.006186115688091" flag="0"/>
			<vel value="0.00371564434699" flag="0"/>
			<psa03 value="0.0141630358878605" flag="0"/>
			<psa10 value="0.00471394133798435" flag="0"/>
			<psa30 value="0.0013296319357551" flag="0"/>
		</comp>
	</station>
	<station code="G0LD" name="G0LD" netid="HC" source="Seismological Network of Crete (HC)" insttype="" lat="35.4955" lon="24.0306">
		<comp name=".HNE" depth="0.0">
			<acc value="0.0073551319386162" flag="0"/>
			<vel value="0.00227115851317" flag="0"/>
			<psa03 value="0.00244110816325635" flag="0"/>
			<psa10 value="0.00230503675987395" flag="0"/>
			<psa30 value="0.00175466019595878" flag="0"/>
		</comp>
		<comp name=".HNN" depth="0.0">
			<acc value="0.0038386012289946" flag="0"/>
			<vel value="0.00174324389634" flag="0"/>
			<psa03 value="0.00162796152284541" flag="0"/>
			<psa10 value="0.00184823892113291" flag="0"/>
			<psa30 value="0.00102095159136536" flag="0"/>
		</comp>
		<comp name=".HNZ" depth="0.0">
			<acc value="0.0049905111607038" flag="0"/>
			<vel value="0.00459449100034" flag="0"/>
			<psa03 value="0.00233853203215474" flag="0"/>
			<psa10 value="0.00205544225671017" flag="0"/>
			<psa30 value="0.00110387354287228" flag="0"/>
		</comp>
	</station>
	<station code="PASK" name="PASK" netid="HC" source="Seismological Network of Crete (HC)" insttype="" lat="35.4996" lon="24.0121">
		<comp name=".HNE" depth="0.0">
			<acc value="0.04091095698567" flag="0"/>
			<vel value="0.012557183301" flag="0"/>
			<psa03 value="0.0292756424926511" flag="0"/>
			<psa10 value="0.0163386061024777" flag="0"/>
			<psa30 value="0.00230943486372522" flag="0"/>
		</comp>
		<comp name=".HNN" depth="0.0">
			<acc value="0.04806981954426" flag="0"/>
			<vel value="0.00900546566375" flag="0"/>
			<psa03 value="0.0247042537230547" flag="0"/>
			<psa10 value="0.0135254209927465" flag="0"/>
			<psa30 value="0.00293398957074449" flag="0"/>
		</comp>
		<comp name=".HNZ" depth="0.0">
			<acc value="0.0207382783182" flag="0"/>
			<vel value="0.00530335416675" flag="0"/>
			<psa03 value="0.0169489066360441" flag="0"/>
			<psa10 value="0.00811166079523227" flag="0"/>
			<psa30 value="0.00103513180157035" flag="0"/>
		</comp>
	</station>
	<station code="POLY" name="POLY" netid="HC" source="Seismological Network of Crete (HC)" insttype="" lat="35.5226" lon="24.0602">
		<comp name=".HNE" depth="0.0">
			<acc value="0.001641027591396" flag="0"/>
			<vel value="0.00217364640449" flag="0"/>
			<psa03 value="0.0013934544514462" flag="0"/>
			<psa10 value="0.00101996116116979" flag="0"/>
			<psa30 value="0.00102562575517239" flag="0"/>
		</comp>
		<comp name=".HNN" depth="0.0">
			<acc value="0.001480342682763" flag="0"/>
			<vel value="0.00238129767092" flag="0"/>
			<psa03 value="0.00129843757761512" flag="0"/>
			<psa10 value="0.00125229127846553" flag="0"/>
			<psa30 value="0.000875212249351432" flag="0"/>
		</comp>
		<comp name=".HNZ" depth="0.0">
			<acc value="0.0024909854011836" flag="0"/>
			<vel value="0.00171684414255" flag="0"/>
			<psa03 value="0.00127334509505075" flag="0"/>
			<psa10 value="0.00109067713481814" flag="0"/>
			<psa30 value="0.000655788182330926" flag="0"/>
		</comp>
	</station>
	<station code="ARK1" name="ARK1" netid="HI" source="ITSAK Strong Motion Network" insttype="" lat="35.148777" lon="25.264194">
		<comp name=".HNE" depth="0.0">
			<acc value="0.026464094091312" flag="0"/>
			<vel value="0.0157498015194" flag="0"/>
			<psa03 value="0.0775451734453377" flag="0"/>
			<psa10 value="0.0218096804092816" flag="0"/>
			<psa30 value="0.00211914309116236" flag="0"/>
		</comp>
		<comp name=".HNN" depth="0.0">
			<acc value="0.024130229727972" flag="0"/>
			<vel value="0.0203442781689" flag="0"/>
			<psa03 value="0.056269519246309" flag="0"/>
			<psa10 value="0.0210722521832736" flag="0"/>
			<psa30 value="0.00207269897280204" flag="0"/>
		</comp>
		<comp name=".HNZ" depth="0.0">
			<acc value="0.011755193690328" flag="0"/>
			<vel value="0.00992791107812" flag="0"/>
			<psa03 value="0.0375534538778648" flag="0"/>
			<psa10 value="0.015264660583832" flag="0"/>
			<psa30 value="0.0016409724563701" flag="0"/>
		</comp>
	</station>
	<station code="CH01" name="CH01" netid="HI" source="ITSAK Strong Motion Network" insttype="" lat="35.517" lon="24.0208">
		<comp name=".HNE" depth="0.0">
			<acc value="0.008055616829058" flag="0"/>
			<vel value="0.00659179628584" flag="0"/>
			<psa03 value="0.015901503917445" flag="0"/>
			<psa10 value="0.0122488767404605" flag="0"/>
			<psa30 value="0.00189040314659613" flag="0"/>
		</comp>
		<comp name=".HNN" depth="0.0">
			<acc value="0.0100258880746086" flag="0"/>
			<vel value="0.00525332113362" flag="0"/>
			<psa03 value="0.02519982301044" flag="0"/>
			<psa10 value="0.00782619235307646" flag="0"/>
			<psa30 value="0.0013892600524953" flag="0"/>
		</comp>
		<comp name=".HNZ" depth="0.0">
			<acc value="0.005328278448255" flag="0"/>
			<vel value="0.00442190291309" flag="0"/>
			<psa03 value="0.0103880299528669" flag="0"/>
			<psa10 value="0.00951723234494491" flag="0"/>
			<psa30 value="0.000810333368108413" flag="0"/>
		</comp>
	</station>
	<station code="CH02" name="CH02" netid="HI" source="ITSAK Strong Motion Network" insttype="" lat="35.5145" lon="24.0315">
		<comp name=".HNE" depth="0.0">
			<acc value="0.0076725805683216" flag="0"/>
			<vel value="0.00502760591816" flag="0"/>
			<psa03 value="0.0193869340288388" flag="0"/>
			<psa10 value="0.00972423949563551" flag="0"/>
			<psa30 value="0.00117292509636252" flag="0"/>
		</comp>
		<comp name=".HNN" depth="0.0">
			<acc value="0.010384539171732" flag="0"/>
			<vel value="0.00638233352115" flag="0"/>
			<psa03 value="0.0343390768786271" flag="0"/>
			<psa10 value="0.00753639190523279" flag="0"/>
			<psa30 value="0.00168605242186587" flag="0"/>
		</comp>
		<comp name=".HNZ" depth="0.0">
			<acc value="0.0059164150055028" flag="0"/>
			<vel value="0.00292355346474" flag="0"/>
			<psa03 value="0.0100487346897873" flag="0"/>
			<psa10 value="0.00546261280880739" flag="0"/>
			<psa30 value="0.000650504498982242" flag="0"/>
		</comp>
	</station>
	<station code="CH03" name="CH03" netid="HI" source="ITSAK Strong Motion Network" insttype="" lat="35.53303" lon="24.0705">
		<comp name=".HNE" depth="0.0">
			<acc value="0.0076302859930338" flag="0"/>
			<vel value="0.0035814175052" flag="0"/>
			<psa03 value="0.0131971008056818" flag="0"/>
			<psa10 value="0.00808603816036013" flag="0"/>
			<psa30 value="0.000895521928098284" flag="0"/>
		</comp>
		<comp name=".HNN" depth="0.0">
			<acc value="0.0060873808244016" flag="0"/>
			<vel value="0.00420991326777" flag="0"/>
			<psa03 value="0.0151628000339905" flag="0"/>
			<psa10 value="0.00859527126952211" flag="0"/>
			<psa30 value="0.000969420677696303" flag="0"/>
		</comp>
		<comp name=".HNZ" depth="0.0">
			<acc value="0.0062022505659858" flag="0"/>
			<vel value="0.00276526502094" flag="0"/>
			<psa03 value="0.0121630882970088" flag="0"/>
			<psa10 value="0.00353629793425801" flag="0"/>
			<psa30 value="0.000506525638169326" flag="0"/>
		</comp>
	</station>
	<station code="GOR1" name="GOR1" netid="HI" source="ITSAK Strong Motion Network" insttype="" lat="35.0582" lon="24.9628">
		<comp name=".HNE" depth="0.0">
			<acc value="0.01159959619005" flag="0"/>
			<vel value="0.00795711038625" flag="0"/>
			<psa03 value="0.0360744027729724" flag="0"/>
			<psa10 value="0.0145848427367667" flag="0"/>
			<psa30 value="0.00194318810167337" flag="0"/>
		</comp>
		<comp name=".HNN" depth="0.0">
			<acc value="0.010715251900134" flag="0"/>
			<vel value="0.0070152681054" flag="0"/>
			<psa03 value="0.0346614914662036" flag="0"/>
			<psa10 value="0.0109126604101761" flag="0"/>
			<psa30 value="0.00232545780016594" flag="0"/>
		</comp>
		<comp name=".HNZ" depth="0.0">
			<acc value="0.010412986101366" flag="0"/>
			<vel value="0.00436567296149" flag="0"/>
			<psa03 value="0.0202441861300717" flag="0"/>
			<psa10 value="0.00963226465276341" flag="0"/>
			<psa30 value="0.00129033724934559" flag="0"/>
		</comp>
	</station>
	<station code="KRL1" name="KRL1" netid="HI" source="ITSAK Strong Motion Network" insttype="" lat="37.7951" lon="26.7065">
		<comp name=".HNE" depth="0.0">
			<acc value="0.0497475542859" flag="0"/>
			<vel value="0.0215933783087" flag="0"/>
			<psa03 value="0.13742039509343" flag="0"/>
			<psa10 value="0.0260939285947129" flag="0"/>
			<psa30 value="0.00165991923233622" flag="0"/>
		</comp>
		<comp name=".HNN" depth="0.0">
			<acc value="0.04390866485739" flag="0"/>
			<vel value="0.0185213415661" flag="0"/>
			<psa03 value="0.120965565458356" flag="0"/>
			<psa10 value="0.034574189120366" flag="0"/>
			<psa30 value="0.00265757855153853" flag="0"/>
		</comp>
		<comp name=".HNZ" depth="0.0">
			<acc value="0.01653907695252" flag="0"/>
			<vel value="0.00985330519837" flag="0"/>
			<psa03 value="0.0569610129708131" flag="0"/>
			<psa10 value="0.0135091608531037" flag="0"/>
			<psa30 value="0.00073579176342529" flag="0"/>
		</comp>
	</station>
	<station code="KTL1" name="KTL1" netid="HI" source="ITSAK Strong Motion Network" insttype="" lat="35.20778" lon="25.34272">
		<comp name=".HNE" depth="0.0">
			<acc value="0.031343696419536" flag="0"/>
			<vel value="0.0170367517404" flag="0"/>
			<psa03 value="0.118593085376423" flag="0"/>
			<psa10 value="0.0123770602319863" flag="0"/>
			<psa30 value="0.000946605207949717" flag="0"/>
		</comp>
		<comp name=".HNN" depth="0.0">
			<acc value="0.027691325028114" flag="0"/>
			<vel value="0.0196151538738" flag="0"/>
			<psa03 value="0.065790280158274" flag="0"/>
			<psa10 value="0.0167145103792698" flag="0"/>
			<psa30 value="0.00143063883530068" flag="0"/>
		</comp>
		<comp name=".HNZ" depth="0.0">
			<acc value="0.0092622361712052" flag="0"/>
			<vel value="0.00608989754953" flag="0"/>
			<psa03 value="0.0336913412610074" flag="0"/>
			<psa10 value="0.00579229011704249" flag="0"/>
			<psa30 value="0.00146434304720725" flag="0"/>
		</comp>
	</station>
	<station code="NAX1" name="NAX1" netid="HI" source="ITSAK Strong Motion Network" insttype="" lat="37.101394" lon="25.374103">
		<comp name=".HNE" depth="0.0">
			<acc value="0.11098375890234" flag="0"/>
			<vel value="0.0209021296421" flag="0"/>
			<psa03 value="0.123116937143013" flag="0"/>
			<psa10 value="0.0125725138048564" flag="0"/>
			<psa30 value="0.00158506687790079" flag="0"/>
		</comp>
		<comp name=".HNN" depth="0.0">
			<acc value="0.096556750125198" flag="0"/>
			<vel value="0.0227248772889" flag="0"/>
			<psa03 value="0.0766633962820214" flag="0"/>
			<psa10 value="0.0128395024290317" flag="0"/>
			<psa30 value="0.00205571597276267" flag="0"/>
		</comp>
		<comp name=".HNZ" depth="0.0">
			<acc value="0.060006564882624" flag="0"/>
			<vel value="0.0140212182386" flag="0"/>
			<psa03 value="0.0637238099314447" flag="0"/>
			<psa10 value="0.014821725304057" flag="0"/>
			<psa30 value="0.00205300329306128" flag="0"/>
		</comp>
	</station>
	<station code="RDI1" name="RDI1" netid="HI" source="ITSAK Strong Motion Network" insttype="" lat="36.4514" lon="28.224">
		<comp name=".HNE" depth="0.0">
			<acc value="0.006505056258414" flag="0"/>
			<vel value="0.00811721183573" flag="0"/>
			<psa03 value="0.00998338009994051" flag="0"/>
			<psa10 value="0.0112284369538365" flag="0"/>
			<psa30 value="0.00667877076913429" flag="0"/>
		</comp>
		<comp name=".HNN" depth="0.0">
			<acc value="0.0060975564091818" flag="0"/>
			<vel value="0.0133502047995" flag="0"/>
			<psa03 value="0.0114477375231096" flag="0"/>
			<psa10 value="0.011041638954387" flag="0"/>
			<psa30 value="0.00657155158303449" flag="0"/>
		</comp>
		<comp name=".HNZ" depth="0.0">
			<acc value="0.0059230686856596" flag="0"/>
			<vel value="0.00560852583786" flag="0"/>
			<psa03 value="0.00768837650472227" flag="0"/>
			<psa10 value="0.008097414538989" flag="0"/>
			<psa30 value="0.00225035824185777" flag="0"/>
		</comp>
	</station>
	<station code="RKL1" name="RKL1" netid="HI" source="ITSAK Strong Motion Network" insttype="" lat="36.336699" lon="28.171224">
		<comp name=".HNE" depth="0.0">
			<acc value="0.0085041983006982" flag="0"/>
			<vel value="0.00653497409278" flag="0"/>
			<psa03 value="0.0130006151331956" flag="0"/>
			<psa10 value="0.0145854830916887" flag="0"/>
			<psa30 value="0.00103707422191213" flag="0"/>
		</comp>
		<comp name=".HNN" depth="0.0">
			<acc value="0.007816952280579" flag="0"/>
			<vel value="0.00615427392209" flag="0"/>
			<psa03 value="0.014368794310007" flag="0"/>
			<psa10 value="0.0118725721246271" flag="0"/>
			<psa30 value="0.00110973601456457" flag="0"/>
		</comp>
		<comp name=".HNZ" depth="0.0">
			<acc value="0.011878598163786" flag="0"/>
			<vel value="0.00303270020007" flag="0"/>
			<psa03 value="0.0115671816335987" flag="0"/>
			<psa10 value="0.00318382661601355" flag="0"/>
			<psa30 value="0.000819469181645829" flag="0"/>
		</comp>
	</station>
	<station code="RPN1" name="RPN1" netid="HI" source="ITSAK Strong Motion Network" insttype="" lat="36.448678" lon="28.218047">
		<comp name=".HNE" depth="0.0">
			<acc value="0.0068244761164452" flag="0"/>
			<vel value="0.0105540139024" flag="0"/>
			<psa03 value="0.0122610843720631" flag="0"/>
			<psa10 value="0.0109682362793293" flag="0"/>
			<psa30 value="0.0073413979982456" flag="0"/>
		</comp>
		<comp name=".HNN" depth="0.0">
			<acc value="0.007808195395908" flag="0"/>
			<vel value="0.0103795228221" flag="0"/>
			<psa03 value="0.00925106270729152" flag="0"/>
			<psa10 value="0.0104104205767802" flag="0"/>
			<psa30 value="0.00580657049013552" flag="0"/>
		</comp>
		<comp name=".HNZ" depth="0.0">
			<acc value="0.0086140870453152" flag="0"/>
			<vel value="0.00606249844332" flag="0"/>
			<psa03 value="0.00715183249775756" flag="0"/>
			<psa10 value="0.00630252172986859" flag="0"/>
			<psa30 value="0.00180838542165784" flag="0"/>
		</comp>
	</station>
	<station code="RTH1" name="RTH1" netid="HI" source="ITSAK Strong Motion Network" insttype="" lat="35.365393" lon="24.471773">
		<comp name=".HNE" depth="0.0">
			<acc value="0.0078953621817924" flag="0"/>
			<vel value="0.00333161112255" flag="0"/>
			<psa03 value="0.0150336808034186" flag="0"/>
			<psa10 value="0.00445115299204251" flag="0"/>
			<psa30 value="0.00155750338529055" flag="0"/>
		</comp>
		<comp name=".HNN" depth="0.0">
			<acc value="0.011817888290718" flag="0"/>
			<vel value="0.00496209535477" flag="0"/>
			<psa03 value="0.0185138358257437" flag="0"/>
			<psa10 value="0.00509445701400583" flag="0"/>
			<psa30 value="0.00101253895073539" flag="0"/>
		</comp>
		<comp name=".HNZ" depth="0.0">
			<acc value="0.0070845764263416" flag="0"/>
			<vel value="0.00264878834439" flag="0"/>
			<psa03 value="0.0100353692210486" flag="0"/>
			<psa10 value="0.00254770338221908" flag="0"/>
			<psa30 value="0.000807192222522082" flag="0"/>
		</comp>
	</station>
	<station code="SFR2" name="SFR2" netid="HI" source="ITSAK Strong Motion Network" insttype="" lat="36.399841" lon="25.438209">
		<comp name=".HNE" depth="0.0">
			<acc value="0.2978810114511" flag="0"/>
			<vel value="0.107837612341" flag="0"/>
			<psa03 value="0.465949033505034" flag="0"/>
			<psa10 value="0.0866683688539644" flag="0"/>
			<psa30 value="0.00825767953073393" flag="0"/>
		</comp>
		<comp name=".HNN" depth="0.0">
			<acc value="0.32630292494658" flag="0"/>
			<vel value="0.128522463128" flag="0"/>
			<psa03 value="0.486852334909898" flag="0"/>
			<psa10 value="0.0732488098741121" flag="0"/>
			<psa30 value="0.0068830230498155" flag="0"/>
		</comp>
		<comp name=".HNZ" depth="0.0">
			<acc value="0.45282101953326" flag="0"/>
			<vel value="0.104157582068" flag="0"/>
			<psa03 value="0.393827339128276" flag="0"/>
			<psa10 value="0.0584703371228097" flag="0"/>
			<psa30 value="0.00303847524240644" flag="0"/>
		</comp>
	</station>
	<station code="AMGA" name="AMGA" netid="HL" source="National Observatory of Athens Seismic Network" insttype="" lat="36.831561" lon="25.893836">
		<comp name="00.HNE" depth="0.0">
			<acc value="1.6177362454482" flag="0"/>
			<vel value="0.876349296896" flag="0"/>
			<psa03 value="4.41284666276688" flag="0"/>
			<psa10 value="0.348236398952209" flag="0"/>
			<psa30 value="0.0401421058841842" flag="0"/>
		</comp>
		<comp name="00.HNN" depth="0.0">
			<acc value="2.109119591712" flag="0"/>
			<vel value="0.633638567724" flag="0"/>
			<psa03 value="2.38383741753164" flag="0"/>
			<psa10 value="0.360340070761321" flag="0"/>
			<psa30 value="0.0258728456156941" flag="0"/>
		</comp>
		<comp name="00.HNZ" depth="0.0">
			<acc value="1.076239793193" flag="0"/>
			<vel value="0.280060280467" flag="0"/>
			<psa03 value="1.49804223794654" flag="0"/>
			<psa10 value="0.168218638659349" flag="0"/>
			<psa30 value="0.0128719268686405" flag="0"/>
		</comp>
	</station>
	<station code="ANAF" name="ANAF" netid="HL" source="National Observatory of Athens Seismic Network" insttype="" lat="36.35675" lon="25.77262">
		<comp name=".HNE" depth="0.0">
			<acc value="2.2631242174152" flag="0"/>
			<vel value="0.430341488909" flag="0"/>
			<psa03 value="2.84419241378789" flag="0"/>
			<psa10 value="0.138392342813421" flag="0"/>
			<psa30 value="0.0130241844549454" flag="0"/>
		</comp>
		<comp name=".HNN" depth="0.0">
			<acc value="1.9912122095376" flag="0"/>
			<vel value="0.546375221811" flag="0"/>
			<psa03 value="2.1147397577977" flag="0"/>
			<psa10 value="0.126953035015413" flag="0"/>
			<psa30 value="0.0112670647210617" flag="0"/>
		</comp>
		<comp name=".HNZ" depth="0.0">
			<acc value="1.346817532869" flag="0"/>
			<vel value="0.293056941125" flag="0"/>
			<psa03 value="1.80961371136238" flag="0"/>
			<psa10 value="0.0794683268866935" flag="0"/>
			<psa30 value="0.00744707749902138" flag="0"/>
		</comp>
	</station>
	<station code="ASTA" name="ASTA" netid="HL" source="National Observatory of Athens Seismic Network" insttype="" lat="36.54552" lon="26.35295">
		<comp name="00.HNE" depth="0.0">
			<acc value="0.16094733098736" flag="0"/>
			<vel value="0.0493874924636" flag="0"/>
			<psa03 value="0.112072382578646" flag="0"/>
			<psa10 value="0.0386464451373428" flag="0"/>
			<psa30 value="0.00258107827543725" flag="0"/>
		</comp>
		<comp name="00.HNN" depth="0.0">
			<acc value="0.13313561904012" flag="0"/>
			<vel value="0.0393621712481" flag="0"/>
