<?xml version="1.0" encoding="UTF-8" standalone="yes"?>
<!DOCTYPE earthquake SYSTEM "stationlist.dtd">
<stationlist created="" xmlns="ch.ethz.sed.shakemap.usgs.xml">
  <station code="ALT" name="ALT" netid="KO" insttype="CMG-5T" lat="39.0541" lon="30.1104">
    <comp name="--.HNZ">
      <acc value="0.2608873052" flag="0"/>
      <vel value="0.0558720342" flag="0"/>
      <psa03 value="0.1841410793" flag="0"/>
      <psa10 value="0.0212996663" flag="0"/>
      <psa30 value="0.0023809103" flag="0"/>
    </comp>
    <comp name="--.HNE">
      <acc value="0.4828144422" flag="0"/>
      <vel value="0.1046232434" flag="0"/>
      <psa03 value="0.2668183515" flag="0"/>
      <psa10 value="0.0423670678" flag="0"/>
      <psa30 value="0.0024298690" flag="0"/>
    </comp>
    <comp name="--.HNN">
      <acc value="0.4084884551" flag="0"/>
      <vel value="0.0904639702" flag="0"/>
      <psa03 value="0.3160067412" flag="0"/>
      <psa10 value="0.0224072732" flag="0"/>
      <psa30 value="0.0026453319" flag="0"/>
    </comp>
  </station>
  <station code="BASM" name="BASM" netid="KO" insttype="CMG-5T" lat="37.9194" lon="30.035">
    <comp name="--.HNE">
      <acc value="0.0414964100" flag="0"/>
      <vel value="0.0301646607" flag="0"/>
      <psa03 value="0.0782431807" flag="0"/>
      <psa10 value="0.0489691182" flag="0"/>
      <psa30 value="0.0025187952" flag="0"/>
    </comp>
    <comp name="--.HNN">
      <acc value="0.0492894619" flag="0"/>
      <vel value="0.0405306577" flag="0"/>
      <psa03 value="0.0950621698" flag="0"/>
      <psa10 value="0.0520838667" flag="0"/>
      <psa30 value="0.0040618064" flag="0"/>
    </comp>
    <comp name="--.HNZ">
      <acc value="0.0244312123" flag="0"/>
      <vel value="0.0202634573" flag="0"/>
      <psa03 value="0.0524476021" flag="0"/>
      <psa10 value="0.0205628734" flag="0"/>
      <psa30 value="0.0015342474" flag="0"/>
    </comp>
  </station>
  <station code="BLVD" name="BLVD" netid="KO" insttype="CMG-6T" lat="38.7946" lon="31.095">
    <comp name="--.HHE">
      <acc value="0.1239757449" flag="0"/>
      <vel value="0.0247728241" flag="0"/>
      <psa03 value="0.0827434091" flag="0"/>
      <psa10 value="0.0155130304" flag="0"/>
      <psa30 value="0.0017151907" flag="0"/>
    </comp>
    <comp name="--.HHN">
      <acc value="0.1175406398" flag="0"/>
      <vel value="0.0305408339" flag="0"/>
      <psa03 value="0.0896890716" flag="0"/>
      <psa10 value="0.0191895590" flag="0"/>
      <psa30 value="0.0016293582" flag="0"/>
    </comp>
    <comp name="--.HHZ">
      <acc value="0.0882178307" flag="0"/>
      <vel value="0.0213116230" flag="0"/>
      <psa03 value="0.0670719936" flag="0"/>
      <psa10 value="0.0172804969" flag="0"/>
      <psa30 value="0.0009907091" flag="0"/>
    </comp>
  </station>
  <station code="KIZT" name="KIZT" netid="KO" insttype="CMG-3T" lat="38.8808" lon="31.883">
    <comp name="--.HHZ">
      <acc value="0.0113948518" flag="0"/>
      <vel value="0.0049514320" flag="0"/>
      <psa03 value="0.0239834974" flag="0"/>
      <psa10 value="0.0056494206" flag="0"/>
      <psa30 value="0.0007539279" flag="0"/>
    </comp>
    <comp name="--.HHN">
      <acc value="0.0142884005" flag="0"/>
      <vel value="0.0082169697" flag="0"/>
      <psa03 value="0.0220966674" flag="0"/>
      <psa10 value="0.0123188686" flag="0"/>
      <psa30 value="0.0007980207" flag="0"/>
    </comp>
    <comp name="--.HHE">
      <acc value="0.0107606575" flag="0"/>
      <vel value="0.0040713532" flag="0"/>
      <psa03 value="0.0217228486" flag="0"/>
      <psa10 value="0.0060268103" flag="0"/>
      <psa30 value="0.0004127159" flag="0"/>
    </comp>
  </station>
  <station code="SDAG" name="SDAG" netid="KO" insttype="CMG-6T" lat="38.4396" lon="30.9175">
    <comp name="--.HHN">
      <acc value="0.1604727227" flag="0"/>
      <vel value="0.0619037479" flag="0"/>
      <psa03 value="0.2539364463" flag="0"/>
      <psa10 value="0.0300048388" flag="0"/>
      <psa30 value="0.0037748069" flag="0"/>
    </comp>
    <comp name="--.HHE">
      <acc value="0.0703003863" flag="0"/>
      <vel value="0.0442902150" flag="0"/>
      <psa03 value="0.1481927256" flag="0"/>
      <psa10 value="0.0663015483" flag="0"/>
      <psa30 value="0.0037840919" flag="0"/>
    </comp>
    <comp name="--.HHZ">
      <acc value="0.0599787616" flag="0"/>
      <vel value="0.0246723967" flag="0"/>
      <psa03 value="0.1345185114" flag="0"/>
      <psa10 value="0.0204912877" flag="0"/>
      <psa30 value="0.0025718989" flag="0"/>
    </comp>
  </station>
  <station code="SHAP" name="SHAP" netid="KO" insttype="CMG-5T" lat="39.0231" lon="29.222">
    <comp name="--.HNE">
      <acc value="0.0377698999" flag="0"/>
      <vel value="0.0117258341" flag="0"/>
      <psa03 value="0.0462048175" flag="0"/>
      <psa10 value="0.0085519030" flag="0"/>
      <psa30 value="0.0016600424" flag="0"/>
    </comp>
    <comp name="--.HNN">
      <acc value="0.0347037657" flag="0"/>
      <vel value="0.0154125478" flag="0"/>
      <psa03 value="0.0535136349" flag="0"/>
      <psa10 value="0.0150909067" flag="0"/>
      <psa30 value="0.0013183514" flag="0"/>
    </comp>
    <comp name="--.HNZ">
      <acc value="0.0203299874" flag="0"/>
      <vel value="0.0067930088" flag="0"/>
      <psa03 value="0.0271022279" flag="0"/>
      <psa10 value="0.0067380333" flag="0"/>
      <psa30 value="0.0015575237" flag="0"/>
    </comp>
  </station>
  <station code="SHUT" name="SHUT" netid="KO" insttype="CMG-3T" lat="38.553" lon="30.551">
    <comp name="--.HHE">
      <acc value="0.5631446951" flag="0"/>
      <vel value="0.1538490035" flag="0"/>
      <psa03 value="0.7151336565" flag="0"/>
      <psa10 value="0.1132021771" flag="0"/>
      <psa30 value="0.0060760334" flag="0"/>
    </comp>
    <comp name="--.HHN">
      <acc value="0.6513310010" flag="0"/>
      <vel value="0.1249659768" flag="0"/>
      <psa03 value="0.6446056391" flag="0"/>
      <psa10 value="0.1042483255" flag="0"/>
      <psa30 value="0.0076740539" flag="0"/>
    </comp>
    <comp name="--.HHZ">
      <acc value="0.8553181384" flag="0"/>
      <vel value="0.1778670044" flag="0"/>
      <psa03 value="0.3630003646" flag="0"/>
      <psa10 value="0.0679575909" flag="0"/>
      <psa30 value="0.0114322750" flag="0"/>
    </comp>
  </station>
  <station code="SVRH" name="SVRH" netid="KO" insttype="CMG-3T" lat="39.447" lon="31.523">
    <comp name="--.HHE">
      <acc value="0.0270336689" flag="0"/>
      <vel value="0.0107945757" flag="0"/>
      <psa03 value="0.0634955728" flag="0"/>
      <psa10 value="0.0091231657" flag="0"/>
      <psa30 value="0.0006355438" flag="0"/>
    </comp>
    <comp name="--.HHN">
      <acc value="0.0315353424" flag="0"/>
      <vel value="0.0140259924" flag="0"/>
      <psa03 value="0.0665833840" flag="0"/>
      <psa10 value="0.0108224341" flag="0"/>
      <psa30 value="0.0013064912" flag="0"/>
    </comp>
    <comp name="--.HHZ">
      <acc value="0.0176339297" flag="0"/>
      <vel value="0.0051090724" flag="0"/>
      <psa03 value="0.0332281582" flag="0"/>
      <psa10 value="0.0063316499" flag="0"/>
      <psa30 value="0.0005393251" flag="0"/>
    </comp>
  </station>
  <station code="TVSB" name="TVSB" netid="KO" insttype="CMG-3T" lat="39.4497" lon="29.4615">
    <comp name="--.HHE">
      <acc value="0.0389468014" flag="0"/>
      <vel value="0.0226583968" flag="0"/>
      <psa03 value="0.0820447737" flag="0"/>
      <psa10 value="0.0164717125" flag="0"/>
      <psa30 value="0.0007728611" flag="0"/>
    </comp>
    <comp name="--.HHN">
      <acc value="0.0266597576" flag="0"/>
      <vel value="0.0139971951" flag="0"/>
      <psa03 value="0.0675311838" flag="0"/>
      <psa10 value="0.0141294453" flag="0"/>
      <psa30 value="0.0012315372" flag="0"/>
    </comp>
    <comp name="--.HHZ">
      <acc value="0.0158411680" flag="0"/>
      <vel value="0.0123795717" flag="0"/>
      <psa03 value="0.0347026094" flag="0"/>
      <psa10 value="0.0129539390" flag="0"/>
      <psa30 value="0.0011493151" flag="0"/>
    </comp>
  </station>
  <station code="BORA" name="BORA" netid="TU" insttype="T" lat="39.8801" lon="30.4534">
    <comp name="--.HHZ">
      <acc value="0.0259484617" flag="0"/>
      <vel value="0.0055073833" flag="0"/>
      <psa03 value="0.0194342383" flag="0"/>
      <psa10 value="0.0048109632" flag="0"/>
      <psa30 value="0.0005958587" flag="0"/>
    </comp>
    <comp name="--.HHE">
      <acc value="0.0383094970" flag="0"/>
      <vel value="0.0153089856" flag="0"/>
      <psa03 value="0.0816404972" flag="0"/>
      <psa10 value="0.0111794966" flag="0"/>
      <psa30 value="0.0011355418" flag="0"/>
    </comp>
    <comp name="--.HHN">
      <acc value="0.0220433492" flag="0"/>
      <vel value="0.0076982356" flag="0"/>
      <psa03 value="0.0665847193" flag="0"/>
      <psa10 value="0.0048564886" flag="0"/>
      <psa30 value="0.0006825625" flag="0"/>
    </comp>
  </station>
</stationlist>
