<?xml version="1.0" encoding="UTF-8" standalone="yes"?>
<!DOCTYPE earthquake SYSTEM "stationlist.dtd">
<stationlist created="" xmlns="ch.ethz.sed.shakemap.usgs.xml">
  <station code="ALT" name="ALT" netid="KO" insttype="CMG-5T" lat="39.0541" lon="30.1104">
    <comp name="--.HNE">
      <acc value="0.4828144450" flag="0"/>
      <vel value="0.1046232457" flag="0"/>
      <psa03 value="0.2668183515" flag="0"/>
      <psa10 value="0.0423671763" flag="0"/>
      <psa30 value="0.0024248467" flag="0"/>
    </comp>
    <comp name="--.HNN">
      <acc value="0.4084884674" flag="0"/>
      <vel value="0.0904639789" flag="0"/>
      <psa03 value="0.3160067412" flag="0"/>
      <psa10 value="0.0224072294" flag="0"/>
      <psa30 value="0.0026579571" flag="0"/>
    </comp>
    <comp name="--.HNZ">
      <acc value="0.2608873086" flag="0"/>
      <vel value="0.0558720282" flag="0"/>
      <psa03 value="0.1841410793" flag="0"/>
      <psa10 value="0.0212996743" flag="0"/>
      <psa30 value="0.0023922403" flag="0"/>
    </comp>
  </station>
  <station code="BASM" name="BASM" netid="KO" insttype="CMG-5T" lat="37.9194" lon="30.035">
    <comp name="--.HNZ">
      <acc value="0.0244312114" flag="0"/>
      <vel value="0.0202634566" flag="0"/>
      <psa03 value="0.0524476021" flag="0"/>
      <psa10 value="0.0205628734" flag="0"/>
      <psa30 value="0.0015343694" flag="0"/>
    </comp>
    <comp name="--.HNN">
      <acc value="0.0492894682" flag="0"/>
      <vel value="0.0405306645" flag="0"/>
      <psa03 value="0.0950621698" flag="0"/>
      <psa10 value="0.0520838667" flag="0"/>
      <psa30 value="0.0040626547" flag="0"/>
    </comp>
    <comp name="--.HNE">
      <acc value="0.0414964125" flag="0"/>
      <vel value="0.0301646716" flag="0"/>
      <psa03 value="0.0782431807" flag="0"/>
      <psa10 value="0.0489691182" flag="0"/>
      <psa30 value="0.0025193623" flag="0"/>
    </comp>
  </station>
  <station code="BLVD" name="BLVD" netid="KO" insttype="CMG-6T" lat="38.7946" lon="31.095">
    <comp name="--.HHN">
      <acc value="0.1175406416" flag="0"/>
      <vel value="0.0305408348" flag="0"/>
      <psa03 value="0.0896890716" flag="0"/>
      <psa10 value="0.0191895590" flag="0"/>
      <psa30 value="0.0016293459" flag="0"/>
    </comp>
    <comp name="--.HHZ">
      <acc value="0.0882178382" flag="0"/>
      <vel value="0.0213116231" flag="0"/>
      <psa03 value="0.0670719936" flag="0"/>
      <psa10 value="0.0172804969" flag="0"/>
      <psa30 value="0.0009908532" flag="0"/>
    </comp>
    <comp name="--.HHE">
      <acc value="0.1239757425" flag="0"/>
      <vel value="0.0247728227" flag="0"/>
      <psa03 value="0.0827434091" flag="0"/>
      <psa10 value="0.0155130307" flag="0"/>
      <psa30 value="0.0017151211" flag="0"/>
    </comp>
  </station>
  <station code="ESKT" name="ESKT" netid="KO" insttype="CMG-5T" lat="39.5212" lon="30.8492">
    <comp name="--.HNE">
      <acc value="0.0964580259" flag="0"/>
      <vel value="0.0379903376" flag="0"/>
      <psa03 value="0.2425650558" flag="0"/>
      <psa10 value="0.0165475554" flag="0"/>
      <psa30 value="0.0014928114" flag="0"/>
    </comp>
    <comp name="--.HNN">
      <acc value="0.0900966583" flag="0"/>
      <vel value="0.0406582749" flag="0"/>
      <psa03 value="0.2090810157" flag="0"/>
      <psa10 value="0.0142190527" flag="0"/>
      <psa30 value="0.0019094090" flag="0"/>
    </comp>
    <comp name="--.HNZ">
      <acc value="0.0467830527" flag="0"/>
      <vel value="0.0124344666" flag="0"/>
      <psa03 value="0.0662671808" flag="0"/>
      <psa10 value="0.0098501895" flag="0"/>
      <psa30 value="0.0017002475" flag="0"/>
    </comp>
  </station>
  <station code="SDAG" name="SDAG" netid="KO" insttype="CMG-6T" lat="38.4396" lon="30.9175">
    <comp name="--.HHE">
      <acc value="0.0703003853" flag="0"/>
      <vel value="0.0442902162" flag="0"/>
      <psa03 value="0.1481927256" flag="0"/>
      <psa10 value="0.0663015482" flag="0"/>
      <psa30 value="0.0037840771" flag="0"/>
    </comp>
    <comp name="--.HHN">
      <acc value="0.1604727221" flag="0"/>
      <vel value="0.0619037486" flag="0"/>
      <psa03 value="0.2539364463" flag="0"/>
      <psa10 value="0.0300048390" flag="0"/>
      <psa30 value="0.0037747263" flag="0"/>
    </comp>
    <comp name="--.HHZ">
      <acc value="0.0599787619" flag="0"/>
      <vel value="0.0246723969" flag="0"/>
      <psa03 value="0.1345185114" flag="0"/>
      <psa10 value="0.0204912876" flag="0"/>
      <psa30 value="0.0025719654" flag="0"/>
    </comp>
  </station>
  <station code="SHAP" name="SHAP" netid="KO" insttype="CMG-5T" lat="39.0231" lon="29.222">
    <comp name="--.HNE">
      <acc value="0.0377698983" flag="0"/>
      <vel value="0.0117258346" flag="0"/>
      <psa03 value="0.0462048175" flag="0"/>
      <psa10 value="0.0085519030" flag="0"/>
      <psa30 value="0.0016600512" flag="0"/>
    </comp>
    <comp name="--.HNN">
      <acc value="0.0347037718" flag="0"/>
      <vel value="0.0154125499" flag="0"/>
      <psa03 value="0.0535136349" flag="0"/>
      <psa10 value="0.0150909062" flag="0"/>
      <psa30 value="0.0013183486" flag="0"/>
    </comp>
    <comp name="--.HNZ">
      <acc value="0.0203299960" flag="0"/>
      <vel value="0.0067930105" flag="0"/>
      <psa03 value="0.0271022279" flag="0"/>
      <psa10 value="0.0067380328" flag="0"/>
      <psa30 value="0.0015575188" flag="0"/>
    </comp>
  </station>
  <station code="SHUT" name="SHUT" netid="KO" insttype="CMG-3T" lat="38.553" lon="30.551">
    <comp name="--.HHE">
      <acc value="0.5631446953" flag="0"/>
      <vel value="0.1538490030" flag="0"/>
      <psa03 value="0.7151336565" flag="0"/>
      <psa10 value="0.1132021771" flag="0"/>
      <psa30 value="0.0060762141" flag="0"/>
    </comp>
    <comp name="--.HHN">
      <acc value="0.6513310011" flag="0"/>
      <vel value="0.1249659772" flag="0"/>
      <psa03 value="0.6446056391" flag="0"/>
      <psa10 value="0.1042483257" flag="0"/>
      <psa30 value="0.0076743549" flag="0"/>
    </comp>
    <comp name="--.HHZ">
      <acc value="0.8553181387" flag="0"/>
      <vel value="0.1778670050" flag="0"/>
      <psa03 value="0.3630003646" flag="0"/>
      <psa10 value="0.0679575884" flag="0"/>
      <psa30 value="0.0114323040" flag="0"/>
    </comp>
  </station>
  <station code="SVRH" name="SVRH" netid="KO" insttype="CMG-3T" lat="39.447" lon="31.523">
    <comp name="--.HHZ">
      <acc value="0.0176339298" flag="0"/>
      <vel value="0.0051090728" flag="0"/>
      <psa03 value="0.0332281582" flag="0"/>
      <psa10 value="0.0063316500" flag="0"/>
      <psa30 value="0.0005392263" flag="0"/>
    </comp>
    <comp name="--.HHN">
      <acc value="0.0315353424" flag="0"/>
      <vel value="0.0140259923" flag="0"/>
      <psa03 value="0.0665833840" flag="0"/>
      <psa10 value="0.0108224341" flag="0"/>
      <psa30 value="0.0013065063" flag="0"/>
    </comp>
    <comp name="--.HHE">
      <acc value="0.0270336691" flag="0"/>
      <vel value="0.0107945751" flag="0"/>
      <psa03 value="0.0634955728" flag="0"/>
      <psa10 value="0.0091231657" flag="0"/>
      <psa30 value="0.0006355101" flag="0"/>
    </comp>
  </station>
  <station code="TVSB" name="TVSB" netid="KO" insttype="CMG-3T" lat="39.4497" lon="29.4615">
    <comp name="--.HHE">
      <acc value="0.0389467996" flag="0"/>
      <vel value="0.0226583968" flag="0"/>
      <psa03 value="0.0820447737" flag="0"/>
      <psa10 value="0.0164717125" flag="0"/>
      <psa30 value="0.0007728795" flag="0"/>
    </comp>
    <comp name="--.HHZ">
      <acc value="0.0158411693" flag="0"/>
      <vel value="0.0123795720" flag="0"/>
      <psa03 value="0.0347026094" flag="0"/>
      <psa10 value="0.0129539390" flag="0"/>
      <psa30 value="0.0011493172" flag="0"/>
    </comp>
    <comp name="--.HHN">
      <acc value="0.0266597560" flag="0"/>
      <vel value="0.0139971951" flag="0"/>
      <psa03 value="0.0675311838" flag="0"/>
      <psa10 value="0.0141294453" flag="0"/>
      <psa30 value="0.0012315892" flag="0"/>
    </comp>
  </station>
  <station code="BORA" name="BORA" netid="TU" insttype="T" lat="39.8801" lon="30.4534">
    <comp name="--.HHZ">
      <acc value="0.0259484618" flag="0"/>
      <vel value="0.0055073828" flag="0"/>
      <psa03 value="0.0194342383" flag="0"/>
      <psa10 value="0.0048109632" flag="0"/>
      <psa30 value="0.0005959417" flag="0"/>
    </comp>
    <comp name="--.HHN">
      <acc value="0.0220433491" flag="0"/>
      <vel value="0.0076982355" flag="0"/>
      <psa03 value="0.0665847193" flag="0"/>
      <psa10 value="0.0048564886" flag="0"/>
      <psa30 value="0.0006825440" flag="0"/>
    </comp>
    <comp name="--.HHE">
      <acc value="0.0383094971" flag="0"/>
      <vel value="0.0153089857" flag="0"/>
      <psa03 value="0.0816404972" flag="0"/>
      <psa10 value="0.0111794966" flag="0"/>
      <psa30 value="0.0011355667" flag="0"/>
    </comp>
  </station>
</stationlist>
