<?xml version="1.0" encoding="UTF-8" standalone="yes"?>
<!DOCTYPE earthquake SYSTEM "stationlist.dtd">
<stationlist created="" xmlns="ch.ethz.sed.shakemap.usgs.xml">
  <station code="KURC" name="KURC" netid="KO" insttype="360s," lat="41.8456" lon="32.743">
    <comp name="--.HHE">
      <acc value="0.1493989548" flag="0"/>
      <vel value="0.0516751475" flag="0"/>
      <psa03 value="0.2514026514" flag="0"/>
      <psa10 value="0.0255626325" flag="0"/>
      <psa30 value="0.0026893408" flag="0"/>
    </comp>
    <comp name="--.HHN">
      <acc value="0.1209537820" flag="0"/>
      <vel value="0.0516504451" flag="0"/>
      <psa03 value="0.1701853454" flag="0"/>
      <psa10 value="0.0542140324" flag="0"/>
      <psa30 value="0.0055327774" flag="0"/>
    </comp>
    <comp name="--.HHZ">
      <acc value="0.0588386671" flag="0"/>
      <vel value="0.0241981556" flag="0"/>
      <psa03 value="0.0792937181" flag="0"/>
      <psa10 value="0.0263157167" flag="0"/>
      <psa30 value="0.0039974836" flag="0"/>
    </comp>
  </station>
  <station code="SAFT" name="SAFT" netid="KO" insttype="100" lat="41.2398" lon="32.6872">
    <comp name="--.HNE">
      <acc value="0.0292374726" flag="0"/>
      <vel value="0.0093028409" flag="0"/>
      <psa03 value="0.0310467622" flag="0"/>
      <psa10 value="0.0045027718" flag="0"/>
      <psa30 value="0.0004399099" flag="0"/>
    </comp>
    <comp name="--.HNN">
      <acc value="0.0434273907" flag="0"/>
      <vel value="0.0125477141" flag="0"/>
      <psa03 value="0.0558130398" flag="0"/>
      <psa10 value="0.0061712588" flag="0"/>
      <psa30 value="0.0007986492" flag="0"/>
    </comp>
    <comp name="--.HNZ">
      <acc value="0.0151799931" flag="0"/>
      <vel value="0.0033548231" flag="0"/>
      <psa03 value="0.0176745401" flag="0"/>
      <psa10 value="0.0030750463" flag="0"/>
      <psa30 value="0.0004185378" flag="0"/>
    </comp>
  </station>
  <station code="TOS" name="TOS" netid="KO" insttype="100" lat="41.0362" lon="34.0225">
    <comp name="--.HNE">
      <acc value="0.0566282954" flag="0"/>
      <vel value="0.0328181932" flag="0"/>
      <psa03 value="0.1134402487" flag="0"/>
      <psa10 value="0.0485109427" flag="0"/>
      <psa30 value="0.0033146587" flag="0"/>
    </comp>
    <comp name="--.HNZ">
      <acc value="0.0757478917" flag="0"/>
      <vel value="0.0276572566" flag="0"/>
      <psa03 value="0.1745326613" flag="0"/>
      <psa10 value="0.0259741587" flag="0"/>
      <psa30 value="0.0019126131" flag="0"/>
    </comp>
    <comp name="--.HNN">
      <acc value="0.0803251186" flag="0"/>
      <vel value="0.0475780465" flag="0"/>
      <psa03 value="0.1554431291" flag="0"/>
      <psa10 value="0.0620824130" flag="0"/>
      <psa30 value="0.0054242781" flag="0"/>
    </comp>
  </station>
</stationlist>
