<stationlist created="1778136165">
	<station code="KMON" name="KMON" netid="KO" source="Bogazici University Kandilli Observatory And Earthquake Research Institute (KOERI)" insttype="" lat="41.3738" lon="33.7839">
		<comp name="--.HNE" depth="0.0">
			<acc value="1.01059141070839" flag="0"/>
			<vel value="0.486342533645202" flag="0"/>
			<psa03 value="1.6663340010843" flag="0"/>
			<psa10 value="0.355079073365333" flag="0"/>
			<psa30 value="0.0301213483395529" flag="0"/>
		</comp>
		<comp name="--.HNN" depth="0.0">
			<acc value="1.07709618327975" flag="0"/>
			<vel value="0.658462950381245" flag="0"/>
			<psa03 value="2.72059461563063" flag="0"/>
			<psa10 value="0.765180322741551" flag="0"/>
			<psa30 value="0.0502978464140625" flag="0"/>
		</comp>
		<comp name="--.HNZ" depth="0.0">
			<acc value="0.57165217489276" flag="0"/>
			<vel value="0.204252196219265" flag="0"/>
			<psa03 value="1.0262519932033" flag="0"/>
			<psa10 value="0.415513266688765" flag="0"/>
			<psa30 value="0.0141054280584764" flag="0"/>
		</comp>
	</station>
	<station code="SAFT" name="SAFT" netid="KO" source="Bogazici University Kandilli Observatory And Earthquake Research Institute (KOERI)" insttype="" lat="41.2398" lon="32.6871">
		<comp name="--.HNE" depth="0.0">
			<acc value="0.186447618552095" flag="0"/>
			<vel value="0.0590859199038845" flag="0"/>
			<psa03 value="0.196910451327014" flag="0"/>
			<psa10 value="0.0286305380150321" flag="0"/>
			<psa30 value="0.00327826147892077" flag="0"/>
		</comp>
		<comp name="--.HNN" depth="0.0">
			<acc value="0.267868109448742" flag="0"/>
			<vel value="0.07933428424389" flag="0"/>
			<psa03 value="0.352434361532127" flag="0"/>
			<psa10 value="0.0389995443988166" flag="0"/>
			<psa30 value="0.00584377960641247" flag="0"/>
		</comp>
		<comp name="--.HNZ" depth="0.0">
			<acc value="0.0892697248432695" flag="0"/>
			<vel value="0.0230369151879172" flag="0"/>
			<psa03 value="0.114137369083211" flag="0"/>
			<psa10 value="0.0193246064604978" flag="0"/>
			<psa30 value="0.00305365560169705" flag="0"/>
		</comp>
	</station>
	<station code="SINP" name="SINP" netid="KO" source="Bogazici University Kandilli Observatory And Earthquake Research Institute (KOERI)" insttype="" lat="41.9824" lon="35.0956">
		<comp name="--.HNE" depth="0.0">
			<acc value="0.0537782033510394" flag="0"/>
			<vel value="0.0457082280937434" flag="0"/>
			<psa03 value="0.0934664696255697" flag="0"/>
			<psa10 value="0.0746125511786962" flag="0"/>
			<psa30 value="0.00998467082893352" flag="0"/>
		</comp>
		<comp name="--.HNN" depth="0.0">
			<acc value="0.0544450663166699" flag="0"/>
			<vel value="0.0389379627893378" flag="0"/>
			<psa03 value="0.150512783063866" flag="0"/>
			<psa10 value="0.08032255158732" flag="0"/>
			<psa30 value="0.0115770459624778" flag="0"/>
		</comp>
		<comp name="--.HNZ" depth="0.0">
			<acc value="0.0246386420027297" flag="0"/>
			<vel value="0.0225054354076758" flag="0"/>
			<psa03 value="0.0714085617627617" flag="0"/>
			<psa10 value="0.0342519488545518" flag="0"/>
			<psa30 value="0.004204425155919" flag="0"/>
		</comp>
	</station>
	<station code="TOS" name="TOS" netid="KO" source="Bogazici University Kandilli Observatory And Earthquake Research Institute (KOERI)" insttype="" lat="41.0362" lon="34.0226">
		<comp name="--.HNE" depth="0.0">
			<acc value="0.358490257442665" flag="0"/>
			<vel value="0.205960513910375" flag="0"/>
			<psa03 value="0.715875305892348" flag="0"/>
			<psa10 value="0.304595099371738" flag="0"/>
			<psa30 value="0.0212722347145911" flag="0"/>
		</comp>
		<comp name="--.HNN" depth="0.0">
			<acc value="0.499593642979459" flag="0"/>
			<vel value="0.297696888966372" flag="0"/>
			<psa03 value="0.984373287808597" flag="0"/>
			<psa10 value="0.389987390390974" flag="0"/>
			<psa30 value="0.0351593208047703" flag="0"/>
		</comp>
		<comp name="--.HNZ" depth="0.0">
			<acc value="0.467948067539829" flag="0"/>
			<vel value="0.17525246442943" flag="0"/>
			<psa03 value="1.11090424812507" flag="0"/>
			<psa10 value="0.163318897442148" flag="0"/>
			<psa30 value="0.0126284878180072" flag="0"/>
		</comp>
	</station>
	<station code="YARM" name="YARM" netid="KO" source="Bogazici University Kandilli Observatory And Earthquake Research Institute (KOERI)" insttype="" lat="40.9231" lon="35.8266">
		<comp name="--.HNE" depth="0.0">
			<acc value="0.0301322663445248" flag="0"/>
			<vel value="0.0174742475915707" flag="0"/>
			<psa03 value="0.0963747130557574" flag="0"/>
			<psa10 value="0.0213299521611287" flag="0"/>
			<psa30 value="0.00184248406854043" flag="0"/>
		</comp>
		<comp name="--.HNN" depth="0.0">
			<acc value="0.0318728540070091" flag="0"/>
			<vel value="0.023694536714406" flag="0"/>
			<psa03 value="0.0864866853931193" flag="0"/>
			<psa10 value="0.0223285982128485" flag="0"/>
			<psa30 value="0.00241831626771759" flag="0"/>
		</comp>
		<comp name="--.HNZ" depth="0.0">
			<acc value="0.0127717051941516" flag="0"/>
			<vel value="0.00689730684710572" flag="0"/>
			<psa03 value="0.0427288073204495" flag="0"/>
			<psa10 value="0.00924955637419532" flag="0"/>
			<psa30 value="0.00101609551230095" flag="0"/>
		</comp>
	</station>
	<station code="YUVA" name="YUVA" netid="KO" source="Bogazici University Kandilli Observatory And Earthquake Research Institute (KOERI)" insttype="" lat="40.391" lon="31.6872">
		<comp name="--.HNE" depth="0.0">
			<acc value="0.0322262848641326" flag="0"/>
			<vel value="0.030606039092951" flag="0"/>
			<psa03 value="0.0886343113107964" flag="0"/>
			<psa10 value="0.0333257851775535" flag="0"/>
			<psa30 value="0.0107108368423481" flag="0"/>
		</comp>
		<comp name="--.HNN" depth="0.0">
			<acc value="0.0271485062324368" flag="0"/>
			<vel value="0.03064976957949" flag="0"/>
			<psa03 value="0.0726613435480733" flag="0"/>
			<psa10 value="0.0507698766938853" flag="0"/>
			<psa30 value="0.0136311606683227" flag="0"/>
		</comp>
		<comp name="--.HNZ" depth="0.0">
			<acc value="0.0357575006042103" flag="0"/>
			<vel value="0.0305209545673008" flag="0"/>
			<psa03 value="0.108768304289019" flag="0"/>
			<psa10 value="0.0399619492631756" flag="0"/>
			<psa30 value="0.00785404694977142" flag="0"/>
		</comp>
	</station>
</stationlist>
