<?xml version="1.0" encoding="UTF-8" standalone="yes"?>
<!DOCTYPE earthquake SYSTEM "stationlist.dtd">
<stationlist created="" xmlns="ch.ethz.sed.shakemap.usgs.xml">
  <station code="KRL1" name="KRL1" netid="HI" insttype="CMG-5TD,ACCELEROMETER,GURALP" lat="37.7951" lon="26.7065">
    <comp name="--.HNE">
      <acc value="0.5144388108" flag="0"/>
      <vel value="0.1537572467" flag="0"/>
      <psa03 value="0.7576375665" flag="0"/>
      <psa10 value="0.0646324464" flag="0"/>
      <psa30 value="0.0067108142" flag="0"/>
    </comp>
    <comp name="--.HNN">
      <acc value="0.8885681418" flag="0"/>
      <vel value="0.3323431680" flag="0"/>
      <psa03 value="1.6452025605" flag="0"/>
      <psa10 value="0.1016350638" flag="0"/>
      <psa30 value="0.0129937898" flag="0"/>
    </comp>
    <comp name="--.HNZ">
      <acc value="0.2099179252" flag="0"/>
      <vel value="0.0632266113" flag="0"/>
      <psa03 value="0.3502043494" flag="0"/>
      <psa10 value="0.0408163904" flag="0"/>
      <psa30 value="0.0033504274" flag="0"/>
    </comp>
  </station>
</stationlist>
