<?xml version="1.0" encoding="UTF-8" standalone="yes"?>
<!DOCTYPE earthquake SYSTEM "stationlist.dtd">
<stationlist created="" xmlns="ch.ethz.sed.shakemap.usgs.xml">
  <station code="BCA" name="BCA" netid="KO" insttype="CMG-3ESP" lat="41.445" lon="41.6223">
    <comp name="--.HHN">
      <acc value="0.2401466424" flag="0"/>
      <vel value="0.0347835644" flag="0"/>
      <psa03 value="0.1420080318" flag="0"/>
      <psa10 value="0.0281390843" flag="0"/>
      <psa30 value="0.0016311965" flag="0"/>
    </comp>
    <comp name="--.HHZ">
      <acc value="0.0804942994" flag="0"/>
      <vel value="0.0111530980" flag="0"/>
      <psa03 value="0.0379167660" flag="0"/>
      <psa10 value="0.0132731796" flag="0"/>
      <psa30 value="0.0009617536" flag="0"/>
    </comp>
  </station>
  <station code="HOPA" name="HOPA" netid="KO" insttype="CMG-5T" lat="41.3867" lon="41.4458">
    <comp name="--.HNN">
      <acc value="0.2329676933" flag="0"/>
      <vel value="0.0544568665" flag="0"/>
      <psa03 value="0.2743117649" flag="0"/>
      <psa10 value="0.0183233460" flag="0"/>
      <psa30 value="0.0023896919" flag="0"/>
    </comp>
    <comp name="--.HNE">
      <acc value="0.2491164833" flag="0"/>
      <vel value="0.0758642805" flag="0"/>
      <psa03 value="0.2826884280" flag="0"/>
      <psa10 value="0.0254184901" flag="0"/>
      <psa30 value="0.0022129473" flag="0"/>
    </comp>
    <comp name="--.HNZ">
      <acc value="0.0670781653" flag="0"/>
      <vel value="0.0183573879" flag="0"/>
      <psa03 value="0.1274760497" flag="0"/>
      <psa10 value="0.0097290417" flag="0"/>
      <psa30 value="0.0010954732" flag="0"/>
    </comp>
  </station>
</stationlist>
