<stationlist xmlns:esm="https://esm-db.eu/esmws/shakemap/1/" created="1784080621">
	<station code="ABEA" name="ABEA" netid="HC" source="Seismological Network of Crete (HC)" insttype="" lat="35.5163" lon="24.0113" esm:processing="manual (Paolucci et al 2011)" esm:quality="good">
		<comp name="--.HNE" depth="0.0">
			<acc value="0.0223584260492789" flag="0"/>
			<vel value="0.0157751860342717" flag="0"/>
			<psa03 value="0.0847782932291895" flag="0"/>
			<psa10 value="0.0301187139669853" flag="0"/>
			<psa30 value="0.0011047226616213" flag="0"/>
		</comp>
		<comp name="--.HNN" depth="0.0">
			<acc value="0.0329008199629074" flag="0"/>
			<vel value="0.0176895077633046" flag="0"/>
			<psa03 value="0.141104284966375" flag="0"/>
			<psa10 value="0.0184268438129683" flag="0"/>
			<psa30 value="0.00106867652374157" flag="0"/>
		</comp>
		<comp name="--.HNZ" depth="0.0">
			<acc value="0.0178580274904931" flag="0"/>
			<vel value="0.00817671884401241" flag="0"/>
			<psa03 value="0.0526308979970266" flag="0"/>
			<psa10 value="0.0179192420618435" flag="0"/>
			<psa30 value="0.000615218515623991" flag="0"/>
		</comp>
	</station>
	<station code="ATEI" name="ATEI" netid="HC" source="Seismological Network of Crete (HC)" insttype="" lat="35.5193" lon="24.0432" esm:processing="automatic (Paolucci et al 2011)" esm:quality="best">
		<comp name="--.HNE" depth="0.0">
			<acc value="0.0175285858117191" flag="0"/>
			<vel value="0.0143020324991436" flag="0"/>
			<psa03 value="0.0672595493648679" flag="0"/>
			<psa10 value="0.0212670288362798" flag="0"/>
			<psa30 value="0.00133064908647208" flag="0"/>
		</comp>
		<comp name="--.HNN" depth="0.0">
			<acc value="0.0149103258148874" flag="0"/>
			<vel value="0.0110468322455446" flag="0"/>
			<psa03 value="0.0534624218313795" flag="0"/>
			<psa10 value="0.0138940826022968" flag="0"/>
			<psa30 value="0.000994296492263871" flag="0"/>
		</comp>
		<comp name="--.HNZ" depth="0.0">
			<acc value="0.0179544022138548" flag="0"/>
			<vel value="0.0089188031370674" flag="0"/>
			<psa03 value="0.0466858843775761" flag="0"/>
			<psa10 value="0.00868654669110193" flag="0"/>
			<psa30 value="0.000608109971801402" flag="0"/>
		</comp>
	</station>
	<station code="PASK" name="PASK" netid="HC" source="Seismological Network of Crete (HC)" insttype="" lat="35.4996" lon="24.0121" esm:processing="automatic (Paolucci et al 2011)" esm:quality="best">
		<comp name="--.HNE" depth="0.0">
			<acc value="0.0563826983862335" flag="0"/>
			<vel value="0.0329286376029629" flag="0"/>
			<psa03 value="0.169134871021719" flag="0"/>
			<psa10 value="0.0411920537713499" flag="0"/>
			<psa30 value="0.00217847222976218" flag="0"/>
		</comp>
		<comp name="--.HNN" depth="0.0">
			<acc value="0.0437520296852292" flag="0"/>
			<vel value="0.0270196755145106" flag="0"/>
			<psa03 value="0.177888325895283" flag="0"/>
			<psa10 value="0.0280544159673752" flag="0"/>
			<psa30 value="0.00135475224568566" flag="0"/>
		</comp>
		<comp name="--.HNZ" depth="0.0">
			<acc value="0.032506882892917" flag="0"/>
			<vel value="0.014958244192736" flag="0"/>
			<psa03 value="0.152344039961551" flag="0"/>
			<psa10 value="0.0167823411227355" flag="0"/>
			<psa30 value="0.00102154569322135" flag="0"/>
		</comp>
	</station>
	<station code="AGN1" name="AGN1" netid="HI" source="ITSAK Strong Motion Network" insttype="" lat="35.1879" lon="25.7155" esm:processing="automatic (Paolucci et al 2011)" esm:quality="good">
		<comp name="--.HNE" depth="0.0">
			<acc value="0.00425797386659821" flag="0"/>
			<vel value="0.00323179118888929" flag="0"/>
			<psa03 value="0.0130622090572661" flag="0"/>
			<psa10 value="0.00406080603970436" flag="0"/>
			<psa30 value="0.00032457204818011" flag="0"/>
		</comp>
		<comp name="--.HNN" depth="0.0">
			<acc value="0.00405184047917524" flag="0"/>
			<vel value="0.00254210041237776" flag="0"/>
			<psa03 value="0.0105740924088197" flag="0"/>
			<psa10 value="0.00338812702491283" flag="0"/>
			<psa30 value="0.00043284536658947" flag="0"/>
		</comp>
		<comp name="--.HNZ" depth="0.0">
			<acc value="0.0130000674286974" flag="0"/>
			<vel value="0.00172647510396677" flag="0"/>
			<psa03 value="0.00669444282296269" flag="0"/>
			<psa10 value="0.00322694158154452" flag="0"/>
			<psa30 value="0.000176650230856518" flag="0"/>
		</comp>
	</station>
	<station code="ARK1" name="ARK1" netid="HI" source="ITSAK Strong Motion Network" insttype="" lat="35.148777" lon="25.264194" esm:processing="automatic (Paolucci et al 2011)" esm:quality="best">
		<comp name="--.HNE" depth="0.0">
			<acc value="0.0175532520433316" flag="0"/>
			<vel value="0.0128643926349679" flag="0"/>
			<psa03 value="0.0423076047544973" flag="0"/>
			<psa10 value="0.0128343992784464" flag="0"/>
			<psa30 value="0.000819082333100201" flag="0"/>
		</comp>
		<comp name="--.HNN" depth="0.0">
			<acc value="0.0151754989873562" flag="0"/>
			<vel value="0.00837414162141967" flag="0"/>
			<psa03 value="0.0333295568779212" flag="0"/>
			<psa10 value="0.00978011350952055" flag="0"/>
			<psa30 value="0.000674140596005615" flag="0"/>
		</comp>
		<comp name="--.HNZ" depth="0.0">
			<acc value="0.00943618863684668" flag="0"/>
			<vel value="0.00510440601935992" flag="0"/>
			<psa03 value="0.0240987969478554" flag="0"/>
			<psa10 value="0.00643421357881166" flag="0"/>
			<psa30 value="0.000358020982757932" flag="0"/>
		</comp>
	</station>
	<station code="CH01" name="CH01" netid="HI" source="ITSAK Strong Motion Network" insttype="" lat="35.517" lon="24.0208" esm:processing="automatic (Paolucci et al 2011)" esm:quality="best">
		<comp name="--.HNE" depth="0.0">
			<acc value="0.030570571181191" flag="0"/>
			<vel value="0.0196673920560267" flag="0"/>
			<psa03 value="0.110484516973629" flag="0"/>
			<psa10 value="0.0211981180212707" flag="0"/>
			<psa30 value="0.00116190113691415" flag="0"/>
		</comp>
		<comp name="--.HNN" depth="0.0">
			<acc value="0.0249836755431136" flag="0"/>
			<vel value="0.0182525128881538" flag="0"/>
			<psa03 value="0.088746066491154" flag="0"/>
			<psa10 value="0.0172886752898978" flag="0"/>
			<psa30 value="0.00122859909699578" flag="0"/>
		</comp>
		<comp name="--.HNZ" depth="0.0">
			<acc value="0.0203648906461529" flag="0"/>
			<vel value="0.0140476001892351" flag="0"/>
			<psa03 value="0.0616597096532154" flag="0"/>
			<psa10 value="0.0184745732248117" flag="0"/>
			<psa30 value="0.000734517199827324" flag="0"/>
		</comp>
	</station>
	<station code="CH02" name="CH02" netid="HI" source="ITSAK Strong Motion Network" insttype="" lat="35.5145" lon="24.0315" esm:processing="automatic (Paolucci et al 2011)" esm:quality="best">
		<comp name="--.HNE" depth="0.0">
			<acc value="0.0270853889118784" flag="0"/>
			<vel value="0.0125409778580916" flag="0"/>
			<psa03 value="0.0847695426495759" flag="0"/>
			<psa10 value="0.0169332061167944" flag="0"/>
			<psa30 value="0.000960119749054241" flag="0"/>
		</comp>
		<comp name="--.HNN" depth="0.0">
			<acc value="0.0246554157933011" flag="0"/>
			<vel value="0.0130181070970002" flag="0"/>
			<psa03 value="0.0822497663514766" flag="0"/>
			<psa10 value="0.0177865976497984" flag="0"/>
			<psa30 value="0.00107982184539755" flag="0"/>
		</comp>
		<comp name="--.HNZ" depth="0.0">
			<acc value="0.0176654799971561" flag="0"/>
			<vel value="0.00962701215912872" flag="0"/>
			<psa03 value="0.0602320421606212" flag="0"/>
			<psa10 value="0.010587901083978" flag="0"/>
			<psa30 value="0.00052401856782653" flag="0"/>
		</comp>
	</station>
	<station code="GOR1" name="GOR1" netid="HI" source="ITSAK Strong Motion Network" insttype="" lat="35.0582" lon="24.9628" esm:processing="automatic (Paolucci et al 2011)" esm:quality="best">
		<comp name="--.HNE" depth="0.0">
			<acc value="0.0199230597596682" flag="0"/>
			<vel value="0.0139766553340855" flag="0"/>
			<psa03 value="0.0862501407318771" flag="0"/>
			<psa10 value="0.027265061801521" flag="0"/>
			<psa30 value="0.001090695586565" flag="0"/>
		</comp>
		<comp name="--.HNN" depth="0.0">
			<acc value="0.0246389060711779" flag="0"/>
			<vel value="0.0159810050882462" flag="0"/>
			<psa03 value="0.0859441308767734" flag="0"/>
			<psa10 value="0.0193697162736359" flag="0"/>
			<psa30 value="0.00105164966662742" flag="0"/>
		</comp>
		<comp name="--.HNZ" depth="0.0">
			<acc value="0.0185217450064155" flag="0"/>
			<vel value="0.0102434197748705" flag="0"/>
			<psa03 value="0.0427907930133661" flag="0"/>
			<psa10 value="0.0143217628090097" flag="0"/>
			<psa30 value="0.000591000817571365" flag="0"/>
		</comp>
	</station>
	<station code="HER1" name="HER1" netid="HI" source="ITSAK Strong Motion Network" insttype="" lat="35.317672" lon="25.10217" esm:processing="manual (Paolucci et al 2011)" esm:quality="good">
		<comp name="--.HNE" depth="0.0">
			<acc value="0.0254434556672957" flag="0"/>
			<vel value="0.0258892473345136" flag="0"/>
			<psa03 value="0.065058429593337" flag="0"/>
			<psa10 value="0.0475227393982556" flag="0"/>
			<psa30 value="0.00222432193374504" flag="0"/>
		</comp>
		<comp name="--.HNN" depth="0.0">
			<acc value="0.0214155110363276" flag="0"/>
			<vel value="0.0248545686068677" flag="0"/>
			<psa03 value="0.0840469218627592" flag="0"/>
			<psa10 value="0.051746621709729" flag="0"/>
			<psa30 value="0.00206202576575375" flag="0"/>
		</comp>
		<comp name="--.HNZ" depth="0.0">
			<acc value="0.0257935507925985" flag="0"/>
			<vel value="0.0243000170643877" flag="0"/>
			<psa03 value="0.0544041665090294" flag="0"/>
			<psa10 value="0.0238675054801024" flag="0"/>
			<psa30 value="0.00138483132161199" flag="0"/>
		</comp>
	</station>
	<station code="KIS1" name="KIS1" netid="HI" source="ITSAK Strong Motion Network" insttype="" lat="35.493933" lon="23.658993" esm:processing="manual (Paolucci et al 2011)" esm:quality="good">
		<comp name="--.HNE" depth="0.0">
			<acc value="0.024672877003357" flag="0"/>
			<vel value="0.0154924571482363" flag="0"/>
			<psa03 value="0.108160592191741" flag="0"/>
			<psa10 value="0.0230159440683381" flag="0"/>
			<psa30 value="0.000874967545639114" flag="0"/>
		</comp>
		<comp name="--.HNN" depth="0.0">
			<acc value="0.0241690940155906" flag="0"/>
			<vel value="0.0134775494633515" flag="0"/>
			<psa03 value="0.0607542850898873" flag="0"/>
			<psa10 value="0.0214275450947016" flag="0"/>
			<psa30 value="0.000995955352154184" flag="0"/>
		</comp>
		<comp name="--.HNZ" depth="0.0">
			<acc value="0.0150694272805351" flag="0"/>
			<vel value="0.0118663518577798" flag="0"/>
			<psa03 value="0.0434394323367026" flag="0"/>
			<psa10 value="0.0130037586226896" flag="0"/>
			<psa30 value="0.000671764605274916" flag="0"/>
		</comp>
	</station>
	<station code="KTL1" name="KTL1" netid="HI" source="ITSAK Strong Motion Network" insttype="" lat="35.20778" lon="25.34272" esm:processing="automatic (Paolucci et al 2011)" esm:quality="best">
		<comp name="--.HNE" depth="0.0">
			<acc value="0.00862971991683494" flag="0"/>
			<vel value="0.00592335068395591" flag="0"/>
			<psa03 value="0.0284174918943531" flag="0"/>
			<psa10 value="0.00672717923636322" flag="0"/>
			<psa30 value="0.00038905678872779" flag="0"/>
		</comp>
		<comp name="--.HNN" depth="0.0">
			<acc value="0.012428502274682" flag="0"/>
			<vel value="0.00542456997915761" flag="0"/>
			<psa03 value="0.0409501242030825" flag="0"/>
			<psa10 value="0.00702166140060131" flag="0"/>
			<psa30 value="0.000414799353421249" flag="0"/>
		</comp>
		<comp name="--.HNZ" depth="0.0">
			<acc value="0.00462584257699765" flag="0"/>
			<vel value="0.00258410190994863" flag="0"/>
			<psa03 value="0.014292205903074" flag="0"/>
			<psa10 value="0.00329689684073474" flag="0"/>
			<psa30 value="0.000177425750981063" flag="0"/>
		</comp>
	</station>
	<station code="RTH1" name="RTH1" netid="HI" source="ITSAK Strong Motion Network" insttype="" lat="35.365393" lon="24.471773" esm:processing="automatic (Paolucci et al 2011)" esm:quality="best">
		<comp name="--.HNE" depth="0.0">
			<acc value="0.0573058322467565" flag="0"/>
			<vel value="0.0248973897020087" flag="0"/>
			<psa03 value="0.150608591663177" flag="0"/>
			<psa10 value="0.00872589617279525" flag="0"/>
			<psa30 value="0.000714855845273945" flag="0"/>
		</comp>
		<comp name="--.HNN" depth="0.0">
			<acc value="0.0715096748970442" flag="0"/>
			<vel value="0.0334204451360821" flag="0"/>
			<psa03 value="0.229100947646902" flag="0"/>
			<psa10 value="0.00793793897448712" flag="0"/>
			<psa30 value="0.000848647468729499" flag="0"/>
		</comp>
		<comp name="--.HNZ" depth="0.0">
			<acc value="0.0356584036637212" flag="0"/>
			<vel value="0.0119600169888067" flag="0"/>
			<psa03 value="0.0657167284108102" flag="0"/>
			<psa10 value="0.00582235773386656" flag="0"/>
			<psa30 value="0.000415778142219934" flag="0"/>
		</comp>
	</station>
	<station code="CHNB" name="CHNB" netid="HL" source="National Observatory of Athens Seismic Network" insttype="" lat="35.48765" lon="24.06605" esm:processing="manual (Paolucci et al 2011)" esm:quality="best">
		<comp name="00.HNE" depth="0.0">
			<acc value="0.0475022678697593" flag="0"/>
			<vel value="0.0335595796390208" flag="0"/>
			<psa03 value="0.158550440688792" flag="0"/>
			<psa10 value="0.0373373609169005" flag="0"/>
			<psa30 value="0.00196069613649639" flag="0"/>
		</comp>
		<comp name="00.HNN" depth="0.0">
			<acc value="0.0418502719154721" flag="0"/>
			<vel value="0.0302795307097003" flag="0"/>
			<psa03 value="0.153037429645115" flag="0"/>
			<psa10 value="0.0462845273729828" flag="0"/>
			<psa30 value="0.00180159476347995" flag="0"/>
		</comp>
		<comp name="00.HNZ" depth="0.0">
			<acc value="0.0443886089509042" flag="0"/>
			<vel value="0.0270869537239927" flag="0"/>
			<psa03 value="0.116661467832828" flag="0"/>
			<psa10 value="0.0137773608075575" flag="0"/>
			<psa30 value="0.00135671862594888" flag="0"/>
		</comp>
	</station>
	<station code="HERG" name="HERG" netid="HL" source="National Observatory of Athens Seismic Network" insttype="" lat="35.32622" lon="25.06586" esm:processing="manual (Paolucci et al 2011)" esm:quality="good">
		<comp name="00.HNE" depth="0.0">
			<acc value="0.021624395429663" flag="0"/>
			<vel value="0.0196578190133259" flag="0"/>
			<psa03 value="0.0665757228147764" flag="0"/>
			<psa10 value="0.0256534656661896" flag="0"/>
			<psa30 value="0.00158319529558606" flag="0"/>
		</comp>
		<comp name="00.HNN" depth="0.0">
			<acc value="0.0265241189305598" flag="0"/>
			<vel value="0.0177321823008144" flag="0"/>
			<psa03 value="0.0832164293468518" flag="0"/>
			<psa10 value="0.0171853390693893" flag="0"/>
			<psa30 value="0.0013742261399055" flag="0"/>
		</comp>
		<comp name="00.HNZ" depth="0.0">
			<acc value="0.0231479013509366" flag="0"/>
			<vel value="0.0162249865611164" flag="0"/>
			<psa03 value="0.0634184667871205" flag="0"/>
			<psa10 value="0.0152884512223744" flag="0"/>
			<psa30 value="0.00108629925365994" flag="0"/>
		</comp>
	</station>
	<station code="IMMV" name="IMMV" netid="HL" source="National Observatory of Athens Seismic Network" insttype="" lat="35.4606" lon="23.9811" esm:processing="manual (Paolucci et al 2011)" esm:quality="best">
		<comp name="--.HNE" depth="0.0">
			<acc value="0.0643106626518842" flag="0"/>
			<vel value="0.0206173111230075" flag="0"/>
			<psa03 value="0.116530104964306" flag="0"/>
			<psa10 value="0.0183047713512796" flag="0"/>
			<psa30 value="0.00102449672204433" flag="0"/>
		</comp>
		<comp name="--.HNN" depth="0.0">
			<acc value="0.063151735456754" flag="0"/>
			<vel value="0.029411819925692" flag="0"/>
			<psa03 value="0.215296241486065" flag="0"/>
			<psa10 value="0.0173695962755008" flag="0"/>
			<psa30 value="0.0011296724394213" flag="0"/>
		</comp>
		<comp name="--.HNZ" depth="0.0">
			<acc value="0.0526571948908678" flag="0"/>
			<vel value="0.0159423564130133" flag="0"/>
			<psa03 value="0.106094580328519" flag="0"/>
			<psa10 value="0.0120347863080486" flag="0"/>
			<psa30 value="0.000695949957434189" flag="0"/>
		</comp>
	</station>
	<station code="SIVA" name="SIVA" netid="HL" source="National Observatory of Athens Seismic Network" insttype="" lat="35.01777" lon="24.81204" esm:processing="manual (Paolucci et al 2011)" esm:quality="best">
		<comp name="00.HNE" depth="0.0">
			<acc value="0.0737413488013323" flag="0"/>
			<vel value="0.0327664553090332" flag="0"/>
			<psa03 value="0.205058521620464" flag="0"/>
			<psa10 value="0.0297628753944306" flag="0"/>
			<psa30 value="0.00141473746941289" flag="0"/>
		</comp>
		<comp name="00.HNN" depth="0.0">
			<acc value="0.0883310945391158" flag="0"/>
			<vel value="0.0381443543530663" flag="0"/>
			<psa03 value="0.129305784623412" flag="0"/>
			<psa10 value="0.0287656974612914" flag="0"/>
			<psa30 value="0.00135218759662632" flag="0"/>
		</comp>
		<comp name="00.HNZ" depth="0.0">
			<acc value="0.0441179576353504" flag="0"/>
			<vel value="0.0162627770388407" flag="0"/>
			<psa03 value="0.095826952232" flag="0"/>
			<psa10 value="0.00957219879868058" flag="0"/>
			<psa30 value="0.000627500370902691" flag="0"/>
		</comp>
	</station>
	<station code="G0LD" name="G0LD" netid="HC" source="Seismological Network of Crete (HC)" insttype="" lat="35.4955" lon="24.0306" esm:processing="automatic (Paolucci et al 2011)" esm:quality="bad">
		<comp name="--.HNE" depth="0.0">
			<acc value="0" flag="1"/>
			<vel value="0" flag="1"/>
			<psa03 value="0" flag="1"/>
			<psa10 value="0" flag="1"/>
			<psa30 value="0" flag="1"/>
		</comp>
		<comp name="--.HNN" depth="0.0">
			<acc value="0" flag="1"/>
			<vel value="0" flag="1"/>
			<psa03 value="0" flag="1"/>
			<psa10 value="0" flag="1"/>
			<psa30 value="0" flag="1"/>
		</comp>
		<comp name="--.HNZ" depth="0.0">
			<acc value="0" flag="1"/>
			<vel value="0" flag="1"/>
			<psa03 value="0" flag="1"/>
			<psa10 value="0" flag="1"/>
			<psa30 value="0" flag="1"/>
		</comp>
	</station>
	<station code="POLY" name="POLY" netid="HC" source="Seismological Network of Crete (HC)" insttype="" lat="35.5226" lon="24.0602" esm:processing="automatic (Paolucci et al 2011)" esm:quality="bad">
		<comp name="--.HNE" depth="0.0">
			<acc value="0" flag="1"/>
			<vel value="0" flag="1"/>
			<psa03 value="0" flag="1"/>
			<psa10 value="0" flag="1"/>
			<psa30 value="0" flag="1"/>
		</comp>
		<comp name="--.HNN" depth="0.0">
			<acc value="0" flag="1"/>
			<vel value="0" flag="1"/>
			<psa03 value="0" flag="1"/>
			<psa10 value="0" flag="1"/>
			<psa30 value="0" flag="1"/>
		</comp>
		<comp name="--.HNZ" depth="0.0">
			<acc value="0" flag="1"/>
			<vel value="0" flag="1"/>
			<psa03 value="0" flag="1"/>
			<psa10 value="0" flag="1"/>
			<psa30 value="0" flag="1"/>
		</comp>
	</station>
	<station code="AGNA" name="AGNA" netid="HL" source="National Observatory of Athens Seismic Network" insttype="" lat="35.1895" lon="25.71853" esm:processing="discarded" esm:quality="bad">
		<comp name="00.HNE" depth="0.0">
			<acc value="0" flag="1"/>
			<vel value="0" flag="1"/>
			<psa03 value="0" flag="1"/>
			<psa10 value="0" flag="1"/>
			<psa30 value="0" flag="1"/>
		</comp>
		<comp name="00.HNN" depth="0.0">
			<acc value="0" flag="1"/>
			<vel value="0" flag="1"/>
			<psa03 value="0" flag="1"/>
			<psa10 value="0" flag="1"/>
			<psa30 value="0" flag="1"/>
		</comp>
		<comp name="00.HNZ" depth="0.0">
			<acc value="0" flag="1"/>
			<vel value="0" flag="1"/>
			<psa03 value="0" flag="1"/>
			<psa10 value="0" flag="1"/>
			<psa30 value="0" flag="1"/>
		</comp>
	</station>
	<station code="ANKY" name="ANKY" netid="HL" source="National Observatory of Athens Seismic Network" insttype="" lat="35.86704" lon="23.30117" esm:processing="discarded" esm:quality="bad">
		<comp name="00.HNE" depth="0.0">
			<acc value="0" flag="1"/>
			<vel value="0" flag="1"/>
			<psa03 value="0" flag="1"/>
			<psa10 value="0" flag="1"/>
			<psa30 value="0" flag="1"/>
		</comp>
		<comp name="00.HNN" depth="0.0">
			<acc value="0" flag="1"/>
			<vel value="0" flag="1"/>
			<psa03 value="0" flag="1"/>
			<psa10 value="0" flag="1"/>
			<psa30 value="0" flag="1"/>
		</comp>
		<comp name="00.HNZ" depth="0.0">
