<?xml version="1.0" encoding="UTF-8" standalone="yes"?>
<!DOCTYPE earthquake SYSTEM "stationlist.dtd">
<stationlist created="" xmlns="ch.ethz.sed.shakemap.usgs.xml">
  <station code="IMMV" name="IMMV" netid="GE" insttype="STS-2/N" lat="35.4606" lon="23.9811">
    <comp name="--.HHE">
      <acc value="0.0679894351" flag="0"/>
      <vel value="0.0217330802" flag="0"/>
      <psa03 value="0.1214080287" flag="0"/>
      <psa10 value="0.0190675690" flag="0"/>
      <psa30 value="0.0010348757" flag="0"/>
    </comp>
    <comp name="--.HHN">
      <acc value="0.0663317661" flag="0"/>
      <vel value="0.0309100172" flag="0"/>
      <psa03 value="0.2287959933" flag="0"/>
      <psa10 value="0.0178786205" flag="0"/>
      <psa30 value="0.0011688349" flag="0"/>
    </comp>
    <comp name="--.HHZ">
      <acc value="0.0528284970" flag="0"/>
      <vel value="0.0164440377" flag="0"/>
      <psa03 value="0.1073359983" flag="0"/>
      <psa10 value="0.0122856194" flag="0"/>
      <psa30 value="0.0006767733" flag="0"/>
    </comp>
  </station>
  <station code="CHAN" name="CHAN" netid="HC" insttype="120" lat="35.5193" lon="24.0428">
    <comp name="--.HHE">
      <acc value="0.0342922924" flag="0"/>
      <vel value="0.0272811548" flag="0"/>
      <psa03 value="0.1226754257" flag="0"/>
      <psa10 value="0.0438125239" flag="0"/>
      <psa30 value="0.0020157548" flag="0"/>
    </comp>
    <comp name="--.HHZ">
      <acc value="0.0348203283" flag="0"/>
      <vel value="0.0167803259" flag="0"/>
      <psa03 value="0.0897614836" flag="0"/>
      <psa10 value="0.0156775516" flag="0"/>
      <psa30 value="0.0010951158" flag="0"/>
    </comp>
    <comp name="--.HHN">
      <acc value="0.0294269134" flag="0"/>
      <vel value="0.0200289836" flag="0"/>
      <psa03 value="0.1097485526" flag="0"/>
      <psa10 value="0.0233552402" flag="0"/>
      <psa30 value="0.0014217511" flag="0"/>
    </comp>
  </station>
  <station code="KNDR" name="KNDR" netid="HC" insttype="120" lat="35.2348" lon="23.6248">
    <comp name="--.HHN">
      <acc value="0.0435854304" flag="0"/>
      <vel value="0.0223852242" flag="0"/>
      <psa03 value="0.1461023086" flag="0"/>
      <psa10 value="0.0139316968" flag="0"/>
      <psa30 value="0.0008590730" flag="0"/>
    </comp>
    <comp name="--.HHE">
      <acc value="0.0386005688" flag="0"/>
      <vel value="0.0205047583" flag="0"/>
      <psa03 value="0.0975864717" flag="0"/>
      <psa10 value="0.0188031162" flag="0"/>
      <psa30 value="0.0008151236" flag="0"/>
    </comp>
    <comp name="--.HHZ">
      <acc value="0.0277000377" flag="0"/>
      <vel value="0.0116199306" flag="0"/>
      <psa03 value="0.0870836951" flag="0"/>
      <psa10 value="0.0087415936" flag="0"/>
      <psa30 value="0.0004807713" flag="0"/>
    </comp>
  </station>
  <station code="KNSS" name="KNSS" netid="HC" insttype="60" lat="35.3042" lon="25.1802">
    <comp name="--.HHE">
      <acc value="0.0090799402" flag="0"/>
      <vel value="0.0056418687" flag="0"/>
      <psa03 value="0.0257454953" flag="0"/>
      <psa10 value="0.0053460913" flag="0"/>
      <psa30 value="0.0004502043" flag="0"/>
    </comp>
    <comp name="--.HHZ">
      <acc value="0.0078167713" flag="0"/>
      <vel value="0.0037083314" flag="0"/>
      <psa03 value="0.0196364243" flag="0"/>
      <psa10 value="0.0026025087" flag="0"/>
      <psa30 value="0.0002403569" flag="0"/>
    </comp>
    <comp name="--.HHN">
      <acc value="0.0104229752" flag="0"/>
      <vel value="0.0055830829" flag="0"/>
      <psa03 value="0.0311357310" flag="0"/>
      <psa10 value="0.0067293020" flag="0"/>
      <psa30 value="0.0005071070" flag="0"/>
    </comp>
  </station>
  <station code="PASK" name="PASK" netid="HC" insttype="DC" lat="35.4996" lon="24.0121">
    <comp name="--.HNN">
      <acc value="0.0436600172" flag="0"/>
      <vel value="0.0269719486" flag="0"/>
      <psa03 value="0.1778653408" flag="0"/>
      <psa10 value="0.0280868518" flag="0"/>
      <psa30 value="0.0013517099" flag="0"/>
    </comp>
    <comp name="--.HNE">
      <acc value="0.0564367112" flag="0"/>
      <vel value="0.0328727457" flag="0"/>
      <psa03 value="0.1692910559" flag="0"/>
      <psa10 value="0.0411639138" flag="0"/>
      <psa30 value="0.0021120839" flag="0"/>
    </comp>
    <comp name="--.HNZ">
      <acc value="0.0326180876" flag="0"/>
      <vel value="0.0149048202" flag="0"/>
      <psa03 value="0.1520733463" flag="0"/>
      <psa10 value="0.0167769892" flag="0"/>
      <psa30 value="0.0007998350" flag="0"/>
    </comp>
  </station>
  <station code="CH01" name="CH01" netid="HI" insttype="CMG-5TD,ACCELEROMETER,GURALP" lat="35.517" lon="24.0208">
    <comp name="--.HNN">
      <acc value="0.0247793409" flag="0"/>
      <vel value="0.0181195097" flag="0"/>
      <psa03 value="0.0884067615" flag="0"/>
      <psa10 value="0.0172814553" flag="0"/>
      <psa30 value="0.0011744922" flag="0"/>
    </comp>
    <comp name="--.HNE">
      <acc value="0.0304250200" flag="0"/>
      <vel value="0.0194950429" flag="0"/>
      <psa03 value="0.1096359375" flag="0"/>
      <psa10 value="0.0211830980" flag="0"/>
      <psa30 value="0.0011249938" flag="0"/>
    </comp>
    <comp name="--.HNZ">
      <acc value="0.0203449147" flag="0"/>
      <vel value="0.0139586565" flag="0"/>
      <psa03 value="0.0615337657" flag="0"/>
      <psa10 value="0.0184648100" flag="0"/>
      <psa30 value="0.0007199279" flag="0"/>
    </comp>
  </station>
  <station code="IACM" name="IACM" netid="HL" insttype="120" lat="35.3058" lon="25.0709">
    <comp name="--.HHN">
      <acc value="0.0644210020" flag="0"/>
      <vel value="0.0351900506" flag="0"/>
      <psa03 value="0.1693894077" flag="0"/>
      <psa10 value="0.0410669810" flag="0"/>
      <psa30 value="0.0016232354" flag="0"/>
    </comp>
    <comp name="--.HHE">
      <acc value="0.0536250993" flag="0"/>
      <vel value="0.0364686413" flag="0"/>
      <psa03 value="0.1636329421" flag="0"/>
      <psa10 value="0.0376008370" flag="0"/>
      <psa30 value="0.0018071734" flag="0"/>
    </comp>
    <comp name="--.HHZ">
      <acc value="0.0365502841" flag="0"/>
      <vel value="0.0145392381" flag="0"/>
      <psa03 value="0.0887215555" flag="0"/>
      <psa10 value="0.0169875683" flag="0"/>
      <psa30 value="0.0007610506" flag="0"/>
    </comp>
  </station>
  <station code="IDI" name="IDI" netid="HL" insttype="120" lat="35.288" lon="24.89">
    <comp name="--.HHN">
      <acc value="0.0127259421" flag="0"/>
      <vel value="0.0056579916" flag="0"/>
      <psa03 value="0.0452955286" flag="0"/>
      <psa10 value="0.0059124467" flag="0"/>
      <psa30 value="0.0003352411" flag="0"/>
    </comp>
    <comp name="--.HHE">
      <acc value="0.0156320075" flag="0"/>
      <vel value="0.0053043645" flag="0"/>
      <psa03 value="0.0347424042" flag="0"/>
      <psa10 value="0.0064356620" flag="0"/>
      <psa30 value="0.0005842666" flag="0"/>
    </comp>
    <comp name="--.HHZ">
      <acc value="0.0091284397" flag="0"/>
      <vel value="0.0045079760" flag="0"/>
      <psa03 value="0.0347944067" flag="0"/>
      <psa10 value="0.0029141911" flag="0"/>
      <psa30 value="0.0004301669" flag="0"/>
    </comp>
  </station>
  <station code="IMMV" name="IMMV" netid="HL" insttype="120" lat="35.4606" lon="23.9811">
    <comp name="--.HHE">
      <acc value="0.0663072408" flag="0"/>
      <vel value="0.0212930932" flag="0"/>
      <psa03 value="0.1180559802" flag="0"/>
      <psa10 value="0.0188500746" flag="0"/>
      <psa30 value="0.0010243426" flag="0"/>
    </comp>
    <comp name="--.HHN">
      <acc value="0.0643775874" flag="0"/>
      <vel value="0.0300318674" flag="0"/>
      <psa03 value="0.2224503044" flag="0"/>
      <psa10 value="0.0177719577" flag="0"/>
      <psa30 value="0.0011625757" flag="0"/>
    </comp>
    <comp name="--.HHZ">
      <acc value="0.0520577414" flag="0"/>
      <vel value="0.0160308458" flag="0"/>
      <psa03 value="0.1042440583" flag="0"/>
      <psa10 value="0.0121004939" flag="0"/>
      <psa30 value="0.0006709369" flag="0"/>
    </comp>
  </station>
  <station code="SIVA" name="SIVA" netid="HL" insttype="60" lat="35.0178" lon="24.812">
    <comp name="--.HHE">
      <acc value="0.0805391810" flag="0"/>
      <vel value="0.0349785750" flag="0"/>
      <psa03 value="0.2287615858" flag="0"/>
      <psa10 value="0.0319189688" flag="0"/>
      <psa30 value="0.0014578581" flag="0"/>
    </comp>
    <comp name="--.HHZ">
      <acc value="0.0453644792" flag="0"/>
      <vel value="0.0164110986" flag="0"/>
      <psa03 value="0.0973859240" flag="0"/>
      <psa10 value="0.0099084962" flag="0"/>
      <psa30 value="0.0006281363" flag="0"/>
    </comp>
    <comp name="--.HHN">
      <acc value="0.0909444504" flag="0"/>
      <vel value="0.0364638341" flag="0"/>
      <psa03 value="0.1228284287" flag="0"/>
      <psa10 value="0.0254169534" flag="0"/>
      <psa30 value="0.0011605377" flag="0"/>
    </comp>
  </station>
  <station code="VAM" name="VAM" netid="HL" insttype="CMG3ESPC-120s" lat="35.407" lon="24.1997">
    <comp name="--.HHE">
      <acc value="0.0356685026" flag="0"/>
      <vel value="0.0161753926" flag="0"/>
      <psa03 value="0.0817268636" flag="0"/>
      <psa10 value="0.0137228449" flag="0"/>
      <psa30 value="0.0008236143" flag="0"/>
    </comp>
    <comp name="--.HHN">
      <acc value="0.0408517486" flag="0"/>
      <vel value="0.0207488894" flag="0"/>
      <psa03 value="0.1483248187" flag="0"/>
      <psa10 value="0.0129399777" flag="0"/>
      <psa30 value="0.0006896506" flag="0"/>
    </comp>
    <comp name="--.HHZ">
      <acc value="0.0241641898" flag="0"/>
      <vel value="0.0107391321" flag="0"/>
      <psa03 value="0.0640057214" flag="0"/>
      <psa10 value="0.0090990779" flag="0"/>
      <psa30 value="0.0004828191" flag="0"/>
    </comp>
  </station>
  <station code="IDI" name="IDI" netid="MN" insttype="" lat="35.288" lon="24.89">
    <comp name="--.HHE">
      <acc value="0.0161600335" flag="0"/>
      <vel value="0.0053519149" flag="0"/>
      <psa03 value="0.0352277030" flag="0"/>
      <psa10 value="0.0063959973" flag="0"/>
      <psa30 value="0.0005803315" flag="0"/>
    </comp>
    <comp name="--.HHN">
      <acc value="0.0128394248" flag="0"/>
      <vel value="0.0056954803" flag="0"/>
      <psa03 value="0.0455476624" flag="0"/>
      <psa10 value="0.0058738320" flag="0"/>
      <psa30 value="0.0003335936" flag="0"/>
    </comp>
    <comp name="--.HHZ">
      <acc value="0.0091961301" flag="0"/>
      <vel value="0.0045813454" flag="0"/>
      <psa03 value="0.0351165101" flag="0"/>
      <psa10 value="0.0029089448" flag="0"/>
      <psa30 value="0.0004265126" flag="0"/>
    </comp>
  </station>
</stationlist>
