<?xml version="1.0" encoding="UTF-8" standalone="yes"?>
<!DOCTYPE earthquake SYSTEM "stationlist.dtd">
<stationlist created="" xmlns="ch.ethz.sed.shakemap.usgs.xml">
  <station code="IMMV" name="IMMV" netid="GE" insttype="STS-2/N" lat="35.4606" lon="23.9811">
    <comp name="--.HHE">
      <acc value="0.0679894352" flag="0"/>
      <vel value="0.0217330815" flag="0"/>
      <psa03 value="0.1214080287" flag="0"/>
      <psa10 value="0.0190675691" flag="0"/>
      <psa30 value="0.0010348909" flag="0"/>
    </comp>
    <comp name="--.HHN">
      <acc value="0.0663317660" flag="0"/>
      <vel value="0.0309100197" flag="0"/>
      <psa03 value="0.2287959933" flag="0"/>
      <psa10 value="0.0178786207" flag="0"/>
      <psa30 value="0.0011688712" flag="0"/>
    </comp>
    <comp name="--.HHZ">
      <acc value="0.0528284976" flag="0"/>
      <vel value="0.0164440373" flag="0"/>
      <psa03 value="0.1073359983" flag="0"/>
      <psa10 value="0.0122856191" flag="0"/>
      <psa30 value="0.0006768577" flag="0"/>
    </comp>
  </station>
  <station code="CHAN" name="CHAN" netid="HC" insttype="120" lat="35.5193" lon="24.0428">
    <comp name="--.HHE">
      <acc value="0.0342922931" flag="0"/>
      <vel value="0.0272811565" flag="0"/>
      <psa03 value="0.1226754257" flag="0"/>
      <psa10 value="0.0438125238" flag="0"/>
      <psa30 value="0.0020155771" flag="0"/>
    </comp>
    <comp name="--.HHZ">
      <acc value="0.0348203285" flag="0"/>
      <vel value="0.0167803248" flag="0"/>
      <psa03 value="0.0897614836" flag="0"/>
      <psa10 value="0.0156775513" flag="0"/>
      <psa30 value="0.0010951515" flag="0"/>
    </comp>
    <comp name="--.HHN">
      <acc value="0.0294269139" flag="0"/>
      <vel value="0.0200289843" flag="0"/>
      <psa03 value="0.1097485526" flag="0"/>
      <psa10 value="0.0233552402" flag="0"/>
      <psa30 value="0.0014218747" flag="0"/>
    </comp>
  </station>
  <station code="IPPL" name="IPPL" netid="HC" insttype="60" lat="35.3486" lon="24.4632">
    <comp name="--.HHE">
      <acc value="0.0000000000" flag="0"/>
      <vel value="-100.0000000000" flag="0"/>
      <psa03 value="0.0000000000" flag="0"/>
      <psa10 value="0.0000000000" flag="0"/>
      <psa30 value="0.0000000000" flag="0"/>
    </comp>
    <comp name="--.HHN">
      <acc value="0.0000000000" flag="0"/>
      <vel value="-100.0000000000" flag="0"/>
      <psa03 value="0.0000000000" flag="0"/>
      <psa10 value="0.0000000000" flag="0"/>
      <psa30 value="0.0000000000" flag="0"/>
    </comp>
    <comp name="--.HHZ">
      <acc value="0.0407071089" flag="0"/>
      <vel value="0.0147886412" flag="0"/>
      <psa03 value="0.1008114066" flag="0"/>
      <psa10 value="0.0084789967" flag="0"/>
      <psa30 value="0.0005745182" flag="0"/>
    </comp>
  </station>
  <station code="KNDR" name="KNDR" netid="HC" insttype="120" lat="35.2348" lon="23.6248">
    <comp name="--.HHE">
      <acc value="0.0386005692" flag="0"/>
      <vel value="0.0205047597" flag="0"/>
      <psa03 value="0.0975864717" flag="0"/>
      <psa10 value="0.0188031150" flag="0"/>
      <psa30 value="0.0008150288" flag="0"/>
    </comp>
    <comp name="--.HHN">
      <acc value="0.0435854305" flag="0"/>
      <vel value="0.0223852247" flag="0"/>
      <psa03 value="0.1461023086" flag="0"/>
      <psa10 value="0.0139316969" flag="0"/>
      <psa30 value="0.0008592002" flag="0"/>
    </comp>
    <comp name="--.HHZ">
      <acc value="0.0277000377" flag="0"/>
      <vel value="0.0116199312" flag="0"/>
      <psa03 value="0.0870836951" flag="0"/>
      <psa10 value="0.0087415936" flag="0"/>
      <psa30 value="0.0004807931" flag="0"/>
    </comp>
  </station>
  <station code="KNSS" name="KNSS" netid="HC" insttype="60" lat="35.3042" lon="25.1802">
    <comp name="--.HHE">
      <acc value="0.0090799401" flag="0"/>
      <vel value="0.0056418685" flag="0"/>
      <psa03 value="0.0257454953" flag="0"/>
      <psa10 value="0.0053460913" flag="0"/>
      <psa30 value="0.0004501915" flag="0"/>
    </comp>
    <comp name="--.HHN">
      <acc value="0.0104229752" flag="0"/>
      <vel value="0.0055830825" flag="0"/>
      <psa03 value="0.0311357310" flag="0"/>
      <psa10 value="0.0067293020" flag="0"/>
      <psa30 value="0.0005070529" flag="0"/>
    </comp>
    <comp name="--.HHZ">
      <acc value="0.0078167711" flag="0"/>
      <vel value="0.0037083315" flag="0"/>
      <psa03 value="0.0196364243" flag="0"/>
      <psa10 value="0.0026025087" flag="0"/>
      <psa30 value="0.0002403494" flag="0"/>
    </comp>
  </station>
  <station code="PASK" name="PASK" netid="HC" insttype="DC" lat="35.4996" lon="24.0121">
    <comp name="--.HNE">
      <acc value="0.0564367203" flag="0"/>
      <vel value="0.0328727366" flag="0"/>
      <psa03 value="0.1692910559" flag="0"/>
      <psa10 value="0.0411639138" flag="0"/>
      <psa30 value="0.0021109385" flag="0"/>
    </comp>
    <comp name="--.HNN">
      <acc value="0.0436600050" flag="0"/>
      <vel value="0.0269719507" flag="0"/>
      <psa03 value="0.1778653408" flag="0"/>
      <psa10 value="0.0280868512" flag="0"/>
      <psa30 value="0.0013527285" flag="0"/>
    </comp>
    <comp name="--.HNZ">
      <acc value="0.0326180852" flag="0"/>
      <vel value="0.0149048261" flag="0"/>
      <psa03 value="0.1520733463" flag="0"/>
      <psa10 value="0.0167769887" flag="0"/>
      <psa30 value="0.0007999895" flag="0"/>
    </comp>
  </station>
  <station code="CH01" name="CH01" netid="HI" insttype="CMG-5TD,ACCELEROMETER,GURALP" lat="35.517" lon="24.0208">
    <comp name="--.HNN">
      <acc value="0.0247793383" flag="0"/>
      <vel value="0.0181195085" flag="0"/>
      <psa03 value="0.0884067615" flag="0"/>
      <psa10 value="0.0172814553" flag="0"/>
      <psa30 value="0.0011744196" flag="0"/>
    </comp>
    <comp name="--.HNZ">
      <acc value="0.0203449153" flag="0"/>
      <vel value="0.0139586571" flag="0"/>
      <psa03 value="0.0615337657" flag="0"/>
      <psa10 value="0.0184648100" flag="0"/>
      <psa30 value="0.0007200049" flag="0"/>
    </comp>
    <comp name="--.HNE">
      <acc value="0.0304250163" flag="0"/>
      <vel value="0.0194950401" flag="0"/>
      <psa03 value="0.1096359375" flag="0"/>
      <psa10 value="0.0211830982" flag="0"/>
      <psa30 value="0.0011244048" flag="0"/>
    </comp>
  </station>
  <station code="IACM" name="IACM" netid="HL" insttype="120" lat="35.3058" lon="25.0709">
    <comp name="--.HHN">
      <acc value="0.0644210019" flag="0"/>
      <vel value="0.0351900616" flag="0"/>
      <psa03 value="0.1693894077" flag="0"/>
      <psa10 value="0.0410669810" flag="0"/>
      <psa30 value="0.0016232448" flag="0"/>
    </comp>
    <comp name="--.HHZ">
      <acc value="0.0365502841" flag="0"/>
      <vel value="0.0145392357" flag="0"/>
      <psa03 value="0.0887215555" flag="0"/>
      <psa10 value="0.0169875683" flag="0"/>
      <psa30 value="0.0007610370" flag="0"/>
    </comp>
    <comp name="--.HHE">
      <acc value="0.0536250993" flag="0"/>
      <vel value="0.0364686426" flag="0"/>
      <psa03 value="0.1636329421" flag="0"/>
      <psa10 value="0.0376008370" flag="0"/>
      <psa30 value="0.0018072150" flag="0"/>
    </comp>
  </station>
  <station code="IDI" name="IDI" netid="HL" insttype="120" lat="35.288" lon="24.89">
    <comp name="--.HHE">
      <acc value="0.0156320075" flag="0"/>
      <vel value="0.0053043645" flag="0"/>
      <psa03 value="0.0347424042" flag="0"/>
      <psa10 value="0.0064356620" flag="0"/>
      <psa30 value="0.0005842666" flag="0"/>
    </comp>
    <comp name="--.HHZ">
      <acc value="0.0091284397" flag="0"/>
      <vel value="0.0045079759" flag="0"/>
      <psa03 value="0.0347944067" flag="0"/>
      <psa10 value="0.0029141911" flag="0"/>
      <psa30 value="0.0004301597" flag="0"/>
    </comp>
    <comp name="--.HHN">
      <acc value="0.0127259421" flag="0"/>
      <vel value="0.0056579916" flag="0"/>
      <psa03 value="0.0452955286" flag="0"/>
      <psa10 value="0.0059124467" flag="0"/>
      <psa30 value="0.0003352432" flag="0"/>
    </comp>
  </station>
  <station code="IMMV" name="IMMV" netid="HL" insttype="120" lat="35.4606" lon="23.9811">
    <comp name="--.HHZ">
      <acc value="0.0520577423" flag="0"/>
      <vel value="0.0160308454" flag="0"/>
      <psa03 value="0.1042440583" flag="0"/>
      <psa10 value="0.0121004936" flag="0"/>
      <psa30 value="0.0006710215" flag="0"/>
    </comp>
    <comp name="--.HHN">
      <acc value="0.0643775875" flag="0"/>
      <vel value="0.0300318699" flag="0"/>
      <psa03 value="0.2224503044" flag="0"/>
      <psa10 value="0.0177719579" flag="0"/>
      <psa30 value="0.0011626129" flag="0"/>
    </comp>
    <comp name="--.HHE">
      <acc value="0.0663072409" flag="0"/>
      <vel value="0.0212930944" flag="0"/>
      <psa03 value="0.1180559802" flag="0"/>
      <psa10 value="0.0188500747" flag="0"/>
      <psa30 value="0.0010243557" flag="0"/>
    </comp>
  </station>
  <station code="SIVA" name="SIVA" netid="HL" insttype="60" lat="35.0178" lon="24.812">
    <comp name="--.HHE">
      <acc value="0.0805391809" flag="0"/>
      <vel value="0.0349785760" flag="0"/>
      <psa03 value="0.2287615858" flag="0"/>
      <psa10 value="0.0319189689" flag="0"/>
      <psa30 value="0.0014579482" flag="0"/>
    </comp>
    <comp name="--.HHN">
      <acc value="0.0909444507" flag="0"/>
      <vel value="0.0364638343" flag="0"/>
      <psa03 value="0.1228284287" flag="0"/>
      <psa10 value="0.0254169535" flag="0"/>
      <psa30 value="0.0011605131" flag="0"/>
    </comp>
    <comp name="--.HHZ">
      <acc value="0.0453644792" flag="0"/>
      <vel value="0.0164110990" flag="0"/>
      <psa03 value="0.0973859240" flag="0"/>
      <psa10 value="0.0099084962" flag="0"/>
      <psa30 value="0.0006281239" flag="0"/>
    </comp>
  </station>
  <station code="VAM" name="VAM" netid="HL" insttype="CMG3ESPC-120s" lat="35.407" lon="24.1997">
    <comp name="--.HHE">
      <acc value="0.0356685019" flag="0"/>
      <vel value="0.0161753927" flag="0"/>
      <psa03 value="0.0817268636" flag="0"/>
      <psa10 value="0.0137228447" flag="0"/>
      <psa30 value="0.0008237249" flag="0"/>
    </comp>
    <comp name="--.HHZ">
      <acc value="0.0241641892" flag="0"/>
      <vel value="0.0107391320" flag="0"/>
      <psa03 value="0.0640057214" flag="0"/>
      <psa10 value="0.0090990779" flag="0"/>
      <psa30 value="0.0004829386" flag="0"/>
    </comp>
    <comp name="--.HHN">
      <acc value="0.0408517494" flag="0"/>
      <vel value="0.0207488892" flag="0"/>
      <psa03 value="0.1483248187" flag="0"/>
      <psa10 value="0.0129399777" flag="0"/>
      <psa30 value="0.0006895691" flag="0"/>
    </comp>
  </station>
  <station code="IDI" name="IDI" netid="MN" insttype="" lat="35.288" lon="24.89">
    <comp name="--.HHZ">
      <acc value="0.0091961301" flag="0"/>
      <vel value="0.0045813451" flag="0"/>
      <psa03 value="0.0351165101" flag="0"/>
      <psa10 value="0.0029089448" flag="0"/>
      <psa30 value="0.0004264611" flag="0"/>
    </comp>
    <comp name="--.HHE">
      <acc value="0.0161600334" flag="0"/>
      <vel value="0.0053519148" flag="0"/>
      <psa03 value="0.0352277030" flag="0"/>
      <psa10 value="0.0063959973" flag="0"/>
      <psa30 value="0.0005803343" flag="0"/>
    </comp>
    <comp name="--.HHN">
      <acc value="0.0128394248" flag="0"/>
      <vel value="0.0056954803" flag="0"/>
      <psa03 value="0.0455476624" flag="0"/>
      <psa10 value="0.0058738320" flag="0"/>
      <psa30 value="0.0003335794" flag="0"/>
    </comp>
  </station>
</stationlist>
