<?xml version="1.0" encoding="UTF-8" standalone="yes"?>
<!DOCTYPE earthquake SYSTEM "stationlist.dtd">
<stationlist created="" xmlns="ch.ethz.sed.shakemap.usgs.xml">
  <station code="BNN" name="BNN" netid="KO" insttype="CMG-3T" lat="38.8521" lon="35.8472">
    <comp name="--.HHN">
      <acc value="0.0408525355" flag="0"/>
      <vel value="0.0133078984" flag="0"/>
      <psa03 value="0.0706696195" flag="0"/>
      <psa10 value="0.0233842969" flag="0"/>
      <psa30 value="0.0012834780" flag="0"/>
    </comp>
    <comp name="--.HHZ">
      <acc value="0.0226849553" flag="0"/>
      <vel value="0.0096528141" flag="0"/>
      <psa03 value="0.0535405886" flag="0"/>
      <psa10 value="0.0062247979" flag="0"/>
      <psa30 value="0.0010442672" flag="0"/>
    </comp>
  </station>
  <station code="GAZ" name="GAZ" netid="KO" insttype="CMG-3T" lat="37.1721" lon="37.2096">
    <comp name="--.HHN">
      <acc value="0.0367657760" flag="0"/>
      <vel value="0.0313962504" flag="0"/>
      <psa03 value="0.1021865694" flag="0"/>
      <psa10 value="0.0340462889" flag="0"/>
      <psa30 value="0.0022257920" flag="0"/>
    </comp>
    <comp name="--.HHE">
      <acc value="0.0324148239" flag="0"/>
      <vel value="0.0270174231" flag="0"/>
      <psa03 value="0.0768016196" flag="0"/>
      <psa10 value="0.0360983136" flag="0"/>
      <psa30 value="0.0019608992" flag="0"/>
    </comp>
    <comp name="--.HHZ">
      <acc value="0.0209693421" flag="0"/>
      <vel value="0.0139132747" flag="0"/>
      <psa03 value="0.0596401393" flag="0"/>
      <psa10 value="0.0191422108" flag="0"/>
      <psa30 value="0.0012727473" flag="0"/>
    </comp>
  </station>
  <station code="KMRS" name="KMRS" netid="KO" insttype="CMG-3T" lat="37.5053" lon="36.9">
    <comp name="--.HHE">
      <acc value="0.0635022416" flag="0"/>
      <vel value="0.0298119259" flag="0"/>
      <psa03 value="0.2651470056" flag="0"/>
      <psa10 value="0.0369827905" flag="0"/>
      <psa30 value="0.0019718111" flag="0"/>
    </comp>
    <comp name="--.HHZ">
      <acc value="0.0420217807" flag="0"/>
      <vel value="0.0229455192" flag="0"/>
      <psa03 value="0.1490817466" flag="0"/>
      <psa10 value="0.0130832430" flag="0"/>
      <psa30 value="0.0019241716" flag="0"/>
    </comp>
  </station>
  <station code="SARI" name="SARI" netid="KO" insttype="CMG-3T" lat="38.4072" lon="36.4181">
    <comp name="--.HHN">
      <acc value="0.6390903992" flag="0"/>
      <vel value="0.1203488340" flag="0"/>
      <psa03 value="0.4039668646" flag="0"/>
      <psa10 value="0.0421986342" flag="0"/>
      <psa30 value="0.0055548640" flag="0"/>
    </comp>
    <comp name="--.HHE">
      <acc value="0.4818023722" flag="0"/>
      <vel value="0.1483517942" flag="0"/>
      <psa03 value="0.8336905962" flag="0"/>
      <psa10 value="0.0797883469" flag="0"/>
      <psa30 value="0.0043883982" flag="0"/>
    </comp>
    <comp name="--.HHZ">
      <acc value="0.2571037162" flag="0"/>
      <vel value="0.0767978981" flag="0"/>
      <psa03 value="0.3811180488" flag="0"/>
      <psa10 value="0.0653667653" flag="0"/>
      <psa30 value="0.0051473130" flag="0"/>
    </comp>
  </station>
</stationlist>
