<stationlist created="1675764066">
	<station code="CMRD" name="CMRD" netid="KO" source="Bogazici University Kandilli Observatory And Earthquake Research Institute (KOERI)" insttype="" lat="37.6623" lon="34.9902">
		<comp name=".HNE" depth="0.0">
			<acc value="0.010960056628" flag="0"/>
			<vel value="0.00589549342477" flag="0"/>
			<psa03 value="0.0296737990769" flag="0"/>
			<psa10 value="0.00645935665068" flag="0"/>
			<psa30 value="0.000438999341969" flag="0"/>
		</comp>
		<comp name=".HNN" depth="0.0">
			<acc value="0.00980862794647" flag="0"/>
			<vel value="0.00586256936186" flag="0"/>
			<psa03 value="0.0297410587408" flag="0"/>
			<psa10 value="0.00535417109379" flag="0"/>
			<psa30 value="0.000954726370938" flag="0"/>
		</comp>
		<comp name=".HNZ" depth="0.0">
			<acc value="0.00778895259247" flag="0"/>
			<vel value="0.00461666981636" flag="0"/>
			<psa03 value="0.0184920049525" flag="0"/>
			<psa10 value="0.00664783944925" flag="0"/>
			<psa30 value="0.000605323120519" flag="0"/>
		</comp>
	</station>
</stationlist>
