<?xml version="1.0" encoding="UTF-8" standalone="yes"?>
<!DOCTYPE earthquake SYSTEM "stationlist.dtd">
<stationlist created="" xmlns="ch.ethz.sed.shakemap.usgs.xml">
  <station code="GAZ" name="GAZ" netid="KO" insttype="CMG-3T" lat="37.1721" lon="37.2096">
    <comp name="--.HHN">
      <acc value="0.0367657759" flag="0"/>
      <vel value="0.0313962445" flag="0"/>
      <psa03 value="0.1021865694" flag="0"/>
      <psa10 value="0.0340462861" flag="0"/>
      <psa30 value="0.0022259753" flag="0"/>
    </comp>
    <comp name="--.HHZ">
      <acc value="0.0209693427" flag="0"/>
      <vel value="0.0139132709" flag="0"/>
      <psa03 value="0.0596401393" flag="0"/>
      <psa10 value="0.0191422089" flag="0"/>
      <psa30 value="0.0012714506" flag="0"/>
    </comp>
    <comp name="--.HHE">
      <acc value="0.0324148238" flag="0"/>
      <vel value="0.0270174406" flag="0"/>
      <psa03 value="0.0768016196" flag="0"/>
      <psa10 value="0.0360983106" flag="0"/>
      <psa30 value="0.0019610316" flag="0"/>
    </comp>
  </station>
  <station code="KMRS" name="KMRS" netid="KO" insttype="CMG-3T" lat="37.5053" lon="36.9">
    <comp name="--.HHE">
      <acc value="0.0635022416" flag="0"/>
      <vel value="0.0298119136" flag="0"/>
      <psa03 value="0.2651470056" flag="0"/>
      <psa10 value="0.0369828001" flag="0"/>
      <psa30 value="0.0019703080" flag="0"/>
    </comp>
    <comp name="--.HHZ">
      <acc value="0.0420217807" flag="0"/>
      <vel value="0.0229455207" flag="0"/>
      <psa03 value="0.1490817466" flag="0"/>
      <psa10 value="0.0130832316" flag="0"/>
      <psa30 value="0.0019241785" flag="0"/>
    </comp>
    <comp name="--.HHN">
      <acc value="0.0876662940" flag="0"/>
      <vel value="0.0460533010" flag="0"/>
      <psa03 value="0.2305031747" flag="0"/>
      <psa10 value="0.0360847982" flag="0"/>
      <psa30 value="0.0025001788" flag="0"/>
    </comp>
  </station>
  <station code="SARI" name="SARI" netid="KO" insttype="CMG-3T" lat="38.4072" lon="36.4181">
    <comp name="--.HHZ">
      <acc value="0.2571037168" flag="0"/>
      <vel value="0.0767978908" flag="0"/>
      <psa03 value="0.3811180488" flag="0"/>
      <psa10 value="0.0653667965" flag="0"/>
      <psa30 value="0.0051459735" flag="0"/>
    </comp>
    <comp name="--.HHN">
      <acc value="0.6390903994" flag="0"/>
      <vel value="0.1203488383" flag="0"/>
      <psa03 value="0.4039668646" flag="0"/>
      <psa10 value="0.0421986399" flag="0"/>
      <psa30 value="0.0055540310" flag="0"/>
    </comp>
    <comp name="--.HHE">
      <acc value="0.4818023720" flag="0"/>
      <vel value="0.1483518001" flag="0"/>
      <psa03 value="0.8336905962" flag="0"/>
      <psa10 value="0.0797883635" flag="0"/>
      <psa30 value="0.0043905340" flag="0"/>
    </comp>
  </station>
</stationlist>
