<?xml version="1.0" encoding="UTF-8" standalone="yes"?>
<!DOCTYPE earthquake SYSTEM "stationlist.dtd">
<stationlist created="" xmlns="ch.ethz.sed.shakemap.usgs.xml">
  <station code="BNN" name="BNN" netid="KO" insttype="CMG-3T" lat="38.8521" lon="35.8472">
    <comp name="--.HHZ">
      <acc value="0.0096276705" flag="0"/>
      <vel value="0.0064958977" flag="0"/>
      <psa03 value="0.0202319959" flag="0"/>
      <psa10 value="0.0076537904" flag="0"/>
      <psa30 value="0.0005314494" flag="0"/>
    </comp>
  </station>
  <station code="DARE" name="DARE" netid="KO" insttype="CMG-3ESP" lat="38.5712" lon="37.4832">
    <comp name="--.HHE">
      <acc value="0.0369254554" flag="0"/>
      <vel value="0.0179624497" flag="0"/>
      <psa03 value="0.0639052460" flag="0"/>
      <psa10 value="0.0142921395" flag="0"/>
      <psa30 value="0.0007189154" flag="0"/>
    </comp>
    <comp name="--.HHN">
      <acc value="0.0357524267" flag="0"/>
      <vel value="0.0224189522" flag="0"/>
      <psa03 value="0.1199296032" flag="0"/>
      <psa10 value="0.0175951584" flag="0"/>
      <psa30 value="0.0006913159" flag="0"/>
    </comp>
  </station>
  <station code="GAZ" name="GAZ" netid="KO" insttype="CMG-3T" lat="37.1721" lon="37.2096">
    <comp name="--.HHE">
      <acc value="0.0257032517" flag="0"/>
      <vel value="0.0117652968" flag="0"/>
      <psa03 value="0.0478362454" flag="0"/>
      <psa10 value="0.0116471330" flag="0"/>
      <psa30 value="0.0012824145" flag="0"/>
    </comp>
    <comp name="--.HHN">
      <acc value="0.0191686012" flag="0"/>
      <vel value="0.0141128050" flag="0"/>
      <psa03 value="0.0477664530" flag="0"/>
      <psa10 value="0.0199900644" flag="0"/>
      <psa30 value="0.0017229967" flag="0"/>
    </comp>
    <comp name="--.HHZ">
      <acc value="0.0138396074" flag="0"/>
      <vel value="0.0094401765" flag="0"/>
      <psa03 value="0.0325424268" flag="0"/>
      <psa10 value="0.0081255471" flag="0"/>
      <psa30 value="0.0007182831" flag="0"/>
    </comp>
  </station>
  <station code="KMRS" name="KMRS" netid="KO" insttype="CMG-3T" lat="37.5053" lon="36.9">
    <comp name="--.HHE">
      <acc value="0.0331876156" flag="0"/>
      <vel value="0.0193407860" flag="0"/>
      <psa03 value="0.0844619959" flag="0"/>
      <psa10 value="0.0160979512" flag="0"/>
      <psa30 value="0.0017776723" flag="0"/>
    </comp>
    <comp name="--.HHN">
      <acc value="0.0500395008" flag="0"/>
      <vel value="0.0499684483" flag="0"/>
      <psa03 value="0.0995108077" flag="0"/>
      <psa10 value="0.0540876635" flag="0"/>
      <psa30 value="0.0031301563" flag="0"/>
    </comp>
  </station>
  <station code="SARI" name="SARI" netid="KO" insttype="CMG-3T" lat="38.4072" lon="36.4181">
    <comp name="--.HHZ">
      <acc value="0.5976677974" flag="0"/>
      <vel value="0.0766490820" flag="0"/>
      <psa03 value="0.1913026662" flag="0"/>
      <psa10 value="0.0427759183" flag="0"/>
      <psa30 value="0.0018673587" flag="0"/>
    </comp>
  </station>
  <station code="ANDN" name="ANDN" netid="TU" insttype="T" lat="37.58" lon="36.3452">
    <comp name="--.HHE">
      <acc value="0.1587334606" flag="0"/>
      <vel value="0.0595986823" flag="0"/>
      <psa03 value="0.3288098440" flag="0"/>
      <psa10 value="0.0556829753" flag="0"/>
      <psa30 value="0.0036989035" flag="0"/>
    </comp>
    <comp name="--.HHZ">
      <acc value="0.0724076310" flag="0"/>
      <vel value="0.0545360809" flag="0"/>
      <psa03 value="0.2335776942" flag="0"/>
      <psa10 value="0.0539732490" flag="0"/>
      <psa30 value="0.0037348188" flag="0"/>
    </comp>
    <comp name="--.HHN">
      <acc value="0.1835224160" flag="0"/>
      <vel value="0.0845982185" flag="0"/>
      <psa03 value="0.3716900747" flag="0"/>
      <psa10 value="0.0868362660" flag="0"/>
      <psa30 value="0.0040313127" flag="0"/>
    </comp>
  </station>
</stationlist>
