<?xml version="1.0" encoding="UTF-8" standalone="yes"?>
<!DOCTYPE earthquake SYSTEM "stationlist.dtd">
<stationlist created="" xmlns="ch.ethz.sed.shakemap.usgs.xml">
  <station code="APE" name="APE" netid="GE" insttype="STS-2/N" lat="37.0727" lon="25.523">
    <comp name="--.HHE">
      <acc value="0.1553896886" flag="0"/>
      <vel value="0.0242949920" flag="0"/>
      <psa03 value="0.0859140841" flag="0"/>
      <psa10 value="0.0069716510" flag="0"/>
      <psa30 value="0.0017555603" flag="0"/>
    </comp>
    <comp name="--.HHZ">
      <acc value="0.0659828357" flag="0"/>
      <vel value="0.0107797303" flag="0"/>
      <psa03 value="0.0346903397" flag="0"/>
      <psa10 value="0.0051282233" flag="0"/>
      <psa30 value="0.0022432914" flag="0"/>
    </comp>
    <comp name="--.HHN">
      <acc value="0.1756038472" flag="0"/>
      <vel value="0.0259421476" flag="0"/>
      <psa03 value="0.0797432051" flag="0"/>
      <psa10 value="0.0077309059" flag="0"/>
      <psa30 value="0.0023218596" flag="0"/>
    </comp>
  </station>
  <station code="THERA" name="THERA" netid="GE" insttype="STS-2/N" lat="36.367" lon="25.4753">
    <comp name="--.HHE">
      <acc value="0.2380215681" flag="0"/>
      <vel value="0.0742084241" flag="0"/>
      <psa03 value="0.5456609206" flag="0"/>
      <psa10 value="0.0282568870" flag="0"/>
      <psa30 value="0.0024568576" flag="0"/>
    </comp>
    <comp name="--.HHZ">
      <acc value="0.2985958276" flag="0"/>
      <vel value="0.0673999708" flag="0"/>
      <psa03 value="0.2978695475" flag="0"/>
      <psa10 value="0.0174230267" flag="0"/>
      <psa30 value="0.0013021299" flag="0"/>
    </comp>
    <comp name="--.HHN">
      <acc value="0.2585655342" flag="0"/>
      <vel value="0.0558018158" flag="0"/>
      <psa03 value="0.3325257908" flag="0"/>
      <psa10 value="0.0124059883" flag="0"/>
      <psa30 value="0.0011098318" flag="0"/>
    </comp>
  </station>
  <station code="SNT1" name="SNT1" netid="HA" insttype="30" lat="36.4159" lon="25.4282">
    <comp name="--.HHN">
      <acc value="0.1684953948" flag="0"/>
      <vel value="0.0696857411" flag="0"/>
      <psa03 value="0.2367153425" flag="0"/>
      <psa10 value="0.0342691070" flag="0"/>
      <psa30 value="0.0029207871" flag="0"/>
    </comp>
    <comp name="--.HHZ">
      <acc value="0.1629975365" flag="0"/>
      <vel value="0.0484605156" flag="0"/>
      <psa03 value="0.1994496470" flag="0"/>
      <psa10 value="0.0253362353" flag="0"/>
      <psa30 value="0.0016995228" flag="0"/>
    </comp>
  </station>
  <station code="NAX1" name="NAX1" netid="HI" insttype="CMG-5TD,ACCELEROMETER,GURALP" lat="37.1014" lon="25.3741">
    <comp name="--.HNZ">
      <acc value="0.0681425950" flag="0"/>
      <vel value="0.0141040553" flag="0"/>
      <psa03 value="0.0950444079" flag="0"/>
      <psa10 value="0.0064527408" flag="0"/>
      <psa30 value="0.0018849871" flag="0"/>
    </comp>
    <comp name="--.HNN">
      <acc value="0.1255477026" flag="0"/>
      <vel value="0.0206836968" flag="0"/>
      <psa03 value="0.0796083277" flag="0"/>
      <psa10 value="0.0061449952" flag="0"/>
      <psa30 value="0.0014952703" flag="0"/>
    </comp>
    <comp name="--.HNE">
      <acc value="0.1350051654" flag="0"/>
      <vel value="0.0279622406" flag="0"/>
      <psa03 value="0.1282712900" flag="0"/>
      <psa10 value="0.0050805176" flag="0"/>
      <psa30 value="0.0008195719" flag="0"/>
    </comp>
  </station>
  <station code="APE" name="APE" netid="HL" insttype="120" lat="37.0727" lon="25.523">
    <comp name="--.HHE">
      <acc value="0.1454368230" flag="0"/>
      <vel value="0.0233860073" flag="0"/>
      <psa03 value="0.0838258380" flag="0"/>
      <psa10 value="0.0069169545" flag="0"/>
      <psa30 value="0.0017529074" flag="0"/>
    </comp>
    <comp name="--.HHN">
      <acc value="0.1645527996" flag="0"/>
      <vel value="0.0240799440" flag="0"/>
      <psa03 value="0.0775680993" flag="0"/>
      <psa10 value="0.0076847234" flag="0"/>
      <psa30 value="0.0023168346" flag="0"/>
    </comp>
    <comp name="--.HHZ">
      <acc value="0.0597676030" flag="0"/>
      <vel value="0.0101943643" flag="0"/>
      <psa03 value="0.0336120773" flag="0"/>
      <psa10 value="0.0050747926" flag="0"/>
      <psa30 value="0.0022384619" flag="0"/>
    </comp>
  </station>
  <station code="MHLO" name="MHLO" netid="HL" insttype="20" lat="36.6898" lon="24.4017">
    <comp name="--.HHN">
      <acc value="0.1606277558" flag="0"/>
      <vel value="0.0725923872" flag="0"/>
      <psa03 value="0.3487348611" flag="0"/>
      <psa10 value="0.0743009827" flag="0"/>
      <psa30 value="0.0030174166" flag="0"/>
    </comp>
    <comp name="--.HHE">
      <acc value="0.1432170137" flag="0"/>
      <vel value="0.0533250741" flag="0"/>
      <psa03 value="0.3365478248" flag="0"/>
      <psa10 value="0.0800604093" flag="0"/>
      <psa30 value="0.0030797647" flag="0"/>
    </comp>
    <comp name="--.HHZ">
      <acc value="0.0447492766" flag="0"/>
      <vel value="0.0274811920" flag="0"/>
      <psa03 value="0.1254455747" flag="0"/>
      <psa10 value="0.0449701035" flag="0"/>
      <psa30 value="0.0023195352" flag="0"/>
    </comp>
  </station>
  <station code="NISR" name="NISR" netid="HL" insttype="65535" lat="36.6106" lon="27.131">
    <comp name="--.HHE">
      <acc value="0.0000000000" flag="0"/>
      <vel value="-100.0000000000" flag="0"/>
      <psa03 value="0.0000000000" flag="0"/>
      <psa10 value="0.0000000000" flag="0"/>
      <psa30 value="0.0000000000" flag="0"/>
    </comp>
    <comp name="--.HHN">
      <acc value="0.0132959419" flag="0"/>
      <vel value="0.0057901325" flag="0"/>
      <psa03 value="0.0259438947" flag="0"/>
      <psa10 value="0.0045214880" flag="0"/>
      <psa30 value="0.0015013721" flag="0"/>
    </comp>
    <comp name="--.HHZ">
      <acc value="0.0064231037" flag="0"/>
      <vel value="0.0031480303" flag="0"/>
      <psa03 value="0.0135174296" flag="0"/>
      <psa10 value="0.0029659509" flag="0"/>
      <psa30 value="0.0003015047" flag="0"/>
    </comp>
  </station>
  <station code="SAP3" name="SAP3" netid="HL" insttype="LE3D20_SMART24" lat="36.4356" lon="25.3454">
    <comp name="--.HHE">
      <acc value="0.7278932859" flag="0"/>
      <vel value="0.2146546406" flag="0"/>
      <psa03 value="0.8015992514" flag="0"/>
      <psa10 value="0.1080130242" flag="0"/>
      <psa30 value="0.0133581327" flag="0"/>
    </comp>
    <comp name="--.HHZ">
      <acc value="0.6805620684" flag="0"/>
      <vel value="0.1588064314" flag="0"/>
      <psa03 value="0.7319654114" flag="0"/>
      <psa10 value="0.0388016245" flag="0"/>
      <psa30 value="0.0057501637" flag="0"/>
    </comp>
    <comp name="--.HHN">
      <acc value="0.6067213827" flag="0"/>
      <vel value="0.2081270842" flag="0"/>
      <psa03 value="1.0651826897" flag="0"/>
      <psa10 value="0.1041160732" flag="0"/>
      <psa30 value="0.0081668549" flag="0"/>
    </comp>
  </station>
  <station code="THERA" name="THERA" netid="HL" insttype="120" lat="36.367" lon="25.4753">
    <comp name="--.HHE">
      <acc value="0.2338739206" flag="0"/>
      <vel value="0.0713622451" flag="0"/>
      <psa03 value="0.5303043042" flag="0"/>
      <psa10 value="0.0276925680" flag="0"/>
      <psa30 value="0.0024512347" flag="0"/>
    </comp>
    <comp name="--.HHN">
      <acc value="0.2528531580" flag="0"/>
      <vel value="0.0539251659" flag="0"/>
      <psa03 value="0.3225925653" flag="0"/>
      <psa10 value="0.0121199753" flag="0"/>
      <psa30 value="0.0011006127" flag="0"/>
    </comp>
    <comp name="--.HHZ">
      <acc value="0.2942217546" flag="0"/>
      <vel value="0.0653285645" flag="0"/>
      <psa03 value="0.2902126140" flag="0"/>
      <psa10 value="0.0172765299" flag="0"/>
      <psa30 value="0.0012892997" flag="0"/>
    </comp>
  </station>
  <station code="THRA" name="THRA" netid="HL" insttype="CMG-5" lat="36.415" lon="25.4324">
    <comp name="00.HNN">
      <acc value="0.6239261101" flag="0"/>
      <vel value="0.1659119272" flag="0"/>
      <psa03 value="0.8327338346" flag="0"/>
      <psa10 value="0.1031231046" flag="0"/>
      <psa30 value="0.0052940395" flag="0"/>
    </comp>
    <comp name="00.HNE">
      <acc value="0.6271870435" flag="0"/>
      <vel value="0.1607227210" flag="0"/>
      <psa03 value="1.2820950076" flag="0"/>
      <psa10 value="0.0788252212" flag="0"/>
      <psa30 value="0.0089605414" flag="0"/>
    </comp>
    <comp name="00.HNZ">
      <acc value="0.5832915659" flag="0"/>
      <vel value="0.1607647963" flag="0"/>
      <psa03 value="0.6961698716" flag="0"/>
      <psa10 value="0.0467870185" flag="0"/>
      <psa30 value="0.0038148681" flag="0"/>
    </comp>
  </station>
  <station code="TNSA" name="TNSA" netid="HL" insttype="CMG-5" lat="37.5394" lon="25.1631">
    <comp name="00.HNE">
      <acc value="0.0369196413" flag="0"/>
      <vel value="0.0087492589" flag="0"/>
      <psa03 value="0.0251522723" flag="0"/>
      <psa10 value="0.0040366771" flag="0"/>
      <psa30 value="0.0005014681" flag="0"/>
    </comp>
    <comp name="00.HNZ">
      <acc value="0.0309860490" flag="0"/>
      <vel value="0.0072601530" flag="0"/>
      <psa03 value="0.0349385102" flag="0"/>
      <psa10 value="0.0049299646" flag="0"/>
      <psa30 value="0.0009640512" flag="0"/>
    </comp>
    <comp name="00.HNN">
      <acc value="0.0433879665" flag="0"/>
      <vel value="0.0093839020" flag="0"/>
      <psa03 value="0.0442935304" flag="0"/>
      <psa10 value="0.0044774101" flag="0"/>
      <psa30 value="0.0007904204" flag="0"/>
    </comp>
  </station>
  <station code="CMBO" name="CMBO" netid="HT" insttype="120P," lat="36.4709" lon="25.4056">
    <comp name="--.HHE">
      <acc value="0.6864488020" flag="0"/>
      <vel value="0.1745441477" flag="0"/>
      <psa03 value="0.9308897026" flag="0"/>
      <psa10 value="0.1220413953" flag="0"/>
      <psa30 value="0.0079352674" flag="0"/>
    </comp>
    <comp name="--.HHN">
      <acc value="0.9654483806" flag="0"/>
      <vel value="0.3498040107" flag="0"/>
      <psa03 value="1.7079201490" flag="0"/>
      <psa10 value="0.1869251754" flag="0"/>
      <psa30 value="0.0120835383" flag="0"/>
    </comp>
    <comp name="--.HHZ">
      <acc value="0.6351584889" flag="0"/>
      <vel value="0.1826015649" flag="0"/>
      <psa03 value="1.0610228936" flag="0"/>
      <psa10 value="0.0528816590" flag="0"/>
      <psa30 value="0.0053094276" flag="0"/>
    </comp>
  </station>
</stationlist>
