<?xml version="1.0" encoding="UTF-8" standalone="yes"?>
<!DOCTYPE earthquake SYSTEM "stationlist.dtd">
<stationlist created="" xmlns="ch.ethz.sed.shakemap.usgs.xml">
  <station code="APE" name="APE" netid="GE" insttype="STS-2/N" lat="37.0727" lon="25.523">
    <comp name="--.HHE">
      <acc value="0.1553896886" flag="0"/>
      <vel value="0.0242949920" flag="0"/>
      <psa03 value="0.0859140841" flag="0"/>
      <psa10 value="0.0069716510" flag="0"/>
      <psa30 value="0.0017555603" flag="0"/>
    </comp>
    <comp name="--.HHZ">
      <acc value="0.0659828357" flag="0"/>
      <vel value="0.0107797303" flag="0"/>
      <psa03 value="0.0346903397" flag="0"/>
      <psa10 value="0.0051282233" flag="0"/>
      <psa30 value="0.0022432914" flag="0"/>
    </comp>
    <comp name="--.HHN">
      <acc value="0.1756038472" flag="0"/>
      <vel value="0.0259421476" flag="0"/>
      <psa03 value="0.0797432051" flag="0"/>
      <psa10 value="0.0077309059" flag="0"/>
      <psa30 value="0.0023218596" flag="0"/>
    </comp>
  </station>
  <station code="THERA" name="THERA" netid="GE" insttype="STS-2/N" lat="36.367" lon="25.4753">
    <comp name="--.HHE">
      <acc value="0.2380215681" flag="0"/>
      <vel value="0.0742084241" flag="0"/>
      <psa03 value="0.5456609206" flag="0"/>
      <psa10 value="0.0282568870" flag="0"/>
      <psa30 value="0.0024568576" flag="0"/>
    </comp>
    <comp name="--.HHZ">
      <acc value="0.2985958276" flag="0"/>
      <vel value="0.0673999708" flag="0"/>
      <psa03 value="0.2978695475" flag="0"/>
      <psa10 value="0.0174230267" flag="0"/>
      <psa30 value="0.0013021299" flag="0"/>
    </comp>
    <comp name="--.HHN">
      <acc value="0.2585655342" flag="0"/>
      <vel value="0.0558018158" flag="0"/>
      <psa03 value="0.3325257908" flag="0"/>
      <psa10 value="0.0124059883" flag="0"/>
      <psa30 value="0.0011098318" flag="0"/>
    </comp>
  </station>
</stationlist>
