<stationlist created="1675692134">
	<station code="KRMN" name="KRMN" netid="KO" source="Bogazici University Kandilli Observatory And Earthquake Research Institute (KOERI)" insttype="" lat="37.174" lon="33.2636">
		<comp name=".HNE" depth="0.0">
			<acc value="0.0024474820151" flag="0"/>
			<vel value="0.00192009137421" flag="0"/>
			<psa03 value="0.00838941838802" flag="0"/>
			<psa10 value="0.00457543341251" flag="0"/>
			<psa30 value="0.000435641307015" flag="0"/>
		</comp>
		<comp name=".HNN" depth="0.0">
			<acc value="0.002911850233" flag="0"/>
			<vel value="0.00167177488741" flag="0"/>
			<psa03 value="0.00486924541516" flag="0"/>
			<psa10 value="0.00254294830159" flag="0"/>
			<psa30 value="0.000264824600622" flag="0"/>
		</comp>
		<comp name=".HNZ" depth="0.0">
			<acc value="0.00191481954967" flag="0"/>
			<vel value="0.00147368128821" flag="0"/>
			<psa03 value="0.00560525022657" flag="0"/>
			<psa10 value="0.00176479577625" flag="0"/>
			<psa30 value="0.00013583725376" flag="0"/>
		</comp>
	</station>
</stationlist>
