<?xml version="1.0" encoding="UTF-8" standalone="yes"?>
<!DOCTYPE earthquake SYSTEM "stationlist.dtd">
<stationlist created="" xmlns="ch.ethz.sed.shakemap.usgs.xml">
  <station code="CEYT" name="CEYT" netid="KO" insttype="CMG-3ESP" lat="37.0105" lon="35.7478">
    <comp name="--.HHN">
      <acc value="0.0155233445" flag="0"/>
      <vel value="0.0069940044" flag="0"/>
      <psa03 value="0.0441979421" flag="0"/>
      <psa10 value="0.0078804319" flag="0"/>
      <psa30 value="0.0004826533" flag="0"/>
    </comp>
    <comp name="--.HHE">
      <acc value="0.0147487466" flag="0"/>
      <vel value="0.0067799702" flag="0"/>
      <psa03 value="0.0590700343" flag="0"/>
      <psa10 value="0.0058157358" flag="0"/>
      <psa30 value="0.0005536791" flag="0"/>
    </comp>
    <comp name="--.HHZ">
      <acc value="0.0090545535" flag="0"/>
      <vel value="0.0044998529" flag="0"/>
      <psa03 value="0.0232389379" flag="0"/>
      <psa10 value="0.0054498412" flag="0"/>
      <psa30 value="0.0004296963" flag="0"/>
    </comp>
  </station>
</stationlist>
