<stationlist created="1778136335">
	<station code="MALA" name="MALA" netid="CL" source="Corinth Riff Laboratory (CRLNET)" insttype="" lat="38.39341" lon="21.87263">
		<comp name="01.HNE" depth="0.0">
			<acc value="0.0161389858844149" flag="0"/>
			<vel value="0.0145011224125894" flag="0"/>
			<psa03 value="0.0504244668587923" flag="0"/>
			<psa10 value="0.0323754607089814" flag="0"/>
			<psa30 value="0.00211451668477952" flag="0"/>
		</comp>
		<comp name="01.HNN" depth="0.0">
			<acc value="0.0158873607168937" flag="0"/>
			<vel value="0.0151126203278918" flag="0"/>
			<psa03 value="0.0382098444520041" flag="0"/>
			<psa10 value="0.0300077031347425" flag="0"/>
			<psa30 value="0.00188767369722488" flag="0"/>
		</comp>
		<comp name="01.HNZ" depth="0.0">
			<acc value="0.00742237752176125" flag="0"/>
			<vel value="0.00806198470883915" flag="0"/>
			<psa03 value="0.0147201859774114" flag="0"/>
			<psa10 value="0.011971672224851" flag="0"/>
			<psa30 value="0.00189170049582053" flag="0"/>
		</comp>
	</station>
	<station code="ROD3" name="ROD3" netid="CL" source="Corinth Riff Laboratory (CRLNET)" insttype="" lat="38.30811" lon="21.89204">
		<comp name="00.HNE" depth="0.0">
			<acc value="0.010166775870979" flag="0"/>
			<vel value="0.00622465245489075" flag="0"/>
			<psa03 value="0.0527510616029424" flag="0"/>
			<psa10 value="0.0139327231409298" flag="0"/>
			<psa30 value="0.000808939095658353" flag="0"/>
		</comp>
		<comp name="00.HNN" depth="0.0">
			<acc value="0.0108347966100972" flag="0"/>
			<vel value="0.00614184340854412" flag="0"/>
			<psa03 value="0.0416102521549927" flag="0"/>
			<psa10 value="0.00459055039903468" flag="0"/>
			<psa30 value="0.000651893950428219" flag="0"/>
		</comp>
		<comp name="00.HNZ" depth="0.0">
			<acc value="0.00593482508199778" flag="0"/>
			<vel value="0.00265732281243332" flag="0"/>
			<psa03 value="0.014809670390648" flag="0"/>
			<psa10 value="0.00458249680184339" flag="0"/>
			<psa30 value="0.000306036693268979" flag="0"/>
		</comp>
	</station>
	<station code="STC" name="STC" netid="EG" source="EUROSEISTEST Strong Motion Network" insttype="" lat="40.64865" lon="23.304856">
		<comp name="--.EN1" depth="0.0">
			<acc value="0.0190308269601923" flag="0"/>
			<vel value="0.0122351793793229" flag="0"/>
			<psa03 value="0.0606788790528794" flag="0"/>
			<psa10 value="0.0134772106115749" flag="0"/>
			<psa30 value="0.000760835193265165" flag="0"/>
		</comp>
		<comp name="--.EN2" depth="0.0">
			<acc value="0.0148650174539996" flag="0"/>
			<vel value="0.00970722985608617" flag="0"/>
			<psa03 value="0.0300840241689601" flag="0"/>
			<psa10 value="0.0138041310184194" flag="0"/>
			<psa30 value="0.00068439632748004" flag="0"/>
		</comp>
		<comp name="--.EN3" depth="0.0">
			<acc value="0.00781058292854604" flag="0"/>
			<vel value="0.00669418117241101" flag="0"/>
			<psa03 value="0.0186732708667234" flag="0"/>
			<psa10 value="0.0066273827815763" flag="0"/>
			<psa30 value="0.000528640592761675" flag="0"/>
		</comp>
	</station>
	<station code="TST" name="TST" netid="EG" source="EUROSEISTEST Strong Motion Network" insttype="" lat="40.6638" lon="23.2906">
		<comp name="00.EN1" depth="0.0">
			<acc value="0.0101499492960188" flag="0"/>
			<vel value="0.00971427853462162" flag="0"/>
			<psa03 value="0.0214101917576225" flag="0"/>
			<psa10 value="0.00985341492786853" flag="0"/>
			<psa30 value="0.000932780437959288" flag="0"/>
		</comp>
		<comp name="00.EN2" depth="0.0">
			<acc value="0.0039609641368918" flag="0"/>
			<vel value="0.00456721782923729" flag="0"/>
			<psa03 value="0.0142490051245782" flag="0"/>
			<psa10 value="0.00666268762035895" flag="0"/>
			<psa30 value="0.000513379894315651" flag="0"/>
		</comp>
		<comp name="00.EN3" depth="0.0">
			<acc value="0.0113760697579382" flag="0"/>
			<vel value="0.00945746709661322" flag="0"/>
			<psa03 value="0.0263460864447755" flag="0"/>
			<psa10 value="0.0169005995817916" flag="0"/>
			<psa30 value="0.000917233574722075" flag="0"/>
		</comp>
	</station>
	<station code="KLV1" name="KLV1" netid="HI" source="ITSAK Strong Motion Network" insttype="" lat="38.03256" lon="22.10797">
		<comp name="--.HNE" depth="0.0">
			<acc value="0.00478743247544621" flag="0"/>
			<vel value="0.0034427898991161" flag="0"/>
			<psa03 value="0.0173045916567826" flag="0"/>
			<psa10 value="0.00631576385709064" flag="0"/>
			<psa30 value="0.000353027813443587" flag="0"/>
		</comp>
		<comp name="--.HNN" depth="0.0">
			<acc value="0.00398553254773962" flag="0"/>
			<vel value="0.00252722635292765" flag="0"/>
			<psa03 value="0.0157529784533572" flag="0"/>
			<psa10 value="0.0040094393556805" flag="0"/>
			<psa30 value="0.000148545478429793" flag="0"/>
		</comp>
		<comp name="--.HNZ" depth="0.0">
			<acc value="0.00220999850379388" flag="0"/>
			<vel value="0.00167439145969621" flag="0"/>
			<psa03 value="0.00687603362846968" flag="0"/>
			<psa10 value="0.00307304849625777" flag="0"/>
			<psa30 value="0.000195192318553873" flag="0"/>
		</comp>
	</station>
	<station code="KRK1" name="KRK1" netid="HI" source="ITSAK Strong Motion Network" insttype="" lat="39.618861" lon="19.9202">
		<comp name="--.HNE" depth="0.0">
			<acc value="0.0149660776300013" flag="0"/>
			<vel value="0.00737076646954639" flag="0"/>
			<psa03 value="0.045347019642647" flag="0"/>
			<psa10 value="0.007380149523685" flag="0"/>
			<psa30 value="0.000353131752620398" flag="0"/>
		</comp>
		<comp name="--.HNN" depth="0.0">
			<acc value="0.0141281972496578" flag="0"/>
			<vel value="0.00674102417763239" flag="0"/>
			<psa03 value="0.0319642190351203" flag="0"/>
			<psa10 value="0.00646908010729193" flag="0"/>
			<psa30 value="0.000560022515408481" flag="0"/>
		</comp>
		<comp name="--.HNZ" depth="0.0">
			<acc value="0.00799335631453697" flag="0"/>
			<vel value="0.00337012839533713" flag="0"/>
			<psa03 value="0.0197115362612838" flag="0"/>
			<psa10 value="0.00302747266458122" flag="0"/>
			<psa30 value="0.000199535535958189" flag="0"/>
		</comp>
	</station>
	<station code="LAM2" name="LAM2" netid="HI" source="ITSAK Strong Motion Network" insttype="" lat="38.90203" lon="22.431301">
		<comp name="--.HNE" depth="0.0">
			<acc value="0.020240219361756" flag="0"/>
			<vel value="0.0104551210814453" flag="0"/>
			<psa03 value="0.0491269428668624" flag="0"/>
			<psa10 value="0.0125394508268368" flag="0"/>
			<psa30 value="0.00114226853496448" flag="0"/>
		</comp>
		<comp name="--.HNN" depth="0.0">
			<acc value="0.0195115496152222" flag="0"/>
			<vel value="0.0134139966520792" flag="0"/>
			<psa03 value="0.059596619215538" flag="0"/>
			<psa10 value="0.0244668282671357" flag="0"/>
			<psa30 value="0.00120222309183296" flag="0"/>
		</comp>
		<comp name="--.HNZ" depth="0.0">
			<acc value="0.0126186768389594" flag="0"/>
			<vel value="0.00738508135356154" flag="0"/>
			<psa03 value="0.040178501543208" flag="0"/>
			<psa10 value="0.00852875942557496" flag="0"/>
			<psa30 value="0.00119282722844312" flag="0"/>
		</comp>
	</station>
	<station code="LMS2" name="LMS2" netid="HI" source="ITSAK Strong Motion Network" insttype="" lat="40.834985" lon="21.141815">
		<comp name="--.HNE" depth="0.0">
			<acc value="0.00931538641513741" flag="0"/>
			<vel value="0.00430759579355029" flag="0"/>
			<psa03 value="0.0259397131703717" flag="0"/>
			<psa10 value="0.00509846649837421" flag="0"/>
			<psa30 value="0.000222846194758347" flag="0"/>
		</comp>
		<comp name="--.HNN" depth="0.0">
			<acc value="0.0137631454664094" flag="0"/>
			<vel value="0.00617372199364376" flag="0"/>
			<psa03 value="0.0230346066587951" flag="0"/>
			<psa10 value="0.00830875510176715" flag="0"/>
			<psa30 value="0.000402688759487321" flag="0"/>
		</comp>
		<comp name="--.HNZ" depth="0.0">
			<acc value="0.00352056012191661" flag="0"/>
			<vel value="0.00232033928232768" flag="0"/>
			<psa03 value="0.0131441545898934" flag="0"/>
			<psa10 value="0.00357504925134057" flag="0"/>
			<psa30 value="0.000418566972799491" flag="0"/>
		</comp>
	</station>
	<station code="MSL1" name="MSL1" netid="HI" source="ITSAK Strong Motion Network" insttype="" lat="38.3727" lon="21.4243">
		<comp name="--.HNE" depth="0.0">
			<acc value="0.0151882477291943" flag="0"/>
			<vel value="0.0193176176877285" flag="0"/>
			<psa03 value="0.035891700565684" flag="0"/>
			<psa10 value="0.0288767010647111" flag="0"/>
			<psa30 value="0.00151109958209684" flag="0"/>
		</comp>
		<comp name="--.HNN" depth="0.0">
			<acc value="0.0167118849222618" flag="0"/>
			<vel value="0.0208090014118611" flag="0"/>
			<psa03 value="0.0502519487368264" flag="0"/>
			<psa10 value="0.025830850542075" flag="0"/>
			<psa30 value="0.00174185601441251" flag="0"/>
		</comp>
		<comp name="--.HNZ" depth="0.0">
			<acc value="0.00862211030443392" flag="0"/>
			<vel value="0.00839296111322035" flag="0"/>
			<psa03 value="0.0221029407738602" flag="0"/>
			<psa10 value="0.0178472391669952" flag="0"/>
			<psa30 value="0.000538744960044638" flag="0"/>
		</comp>
	</station>
	<station code="SKO1" name="SKO1" netid="HI" source="ITSAK Strong Motion Network" insttype="" lat="39.123383" lon="23.728705">
		<comp name="--.HNE" depth="0.0">
			<acc value="0.00341434584813423" flag="0"/>
			<vel value="0.00295396119531232" flag="0"/>
			<psa03 value="0.00889628009010498" flag="0"/>
			<psa10 value="0.00313195692989942" flag="0"/>
			<psa30 value="0.000215437279475117" flag="0"/>
		</comp>
		<comp name="--.HNN" depth="0.0">
			<acc value="0.00266067060054115" flag="0"/>
			<vel value="0.00225819535521642" flag="0"/>
			<psa03 value="0.00684122272869525" flag="0"/>
			<psa10 value="0.00373644259910962" flag="0"/>
			<psa30 value="0.000228557224127657" flag="0"/>
		</comp>
		<comp name="--.HNZ" depth="0.0">
			<acc value="0.00255604542411204" flag="0"/>
			<vel value="0.00203451099771486" flag="0"/>
			<psa03 value="0.0094912081730455" flag="0"/>
			<psa10 value="0.00271338443590224" flag="0"/>
			<psa30 value="0.000115330543728177" flag="0"/>
		</comp>
	</station>
	<station code="VAS2" name="VAS2" netid="HI" source="ITSAK Strong Motion Network" insttype="" lat="38.630558" lon="20.608081">
		<comp name="--.HNE" depth="0.0">
			<acc value="0.0191270281210846" flag="0"/>
			<vel value="0.0179693062860839" flag="0"/>
			<psa03 value="0.0492208439725738" flag="0"/>
			<psa10 value="0.0425552240746851" flag="0"/>
			<psa30 value="0.00166312902830177" flag="0"/>
		</comp>
		<comp name="--.HNN" depth="0.0">
			<acc value="0.0213670964684485" flag="0"/>
			<vel value="0.019312092357869" flag="0"/>
			<psa03 value="0.063370520902492" flag="0"/>
			<psa10 value="0.0557454666137305" flag="0"/>
			<psa30 value="0.00299657809192521" flag="0"/>
		</comp>
		<comp name="--.HNZ" depth="0.0">
			<acc value="0.0101855111098348" flag="0"/>
			<vel value="0.00731015088226527" flag="0"/>
			<psa03 value="0.0256641298101546" flag="0"/>
			<psa10 value="0.0109634884648078" flag="0"/>
			<psa30 value="0.000716992653492493" flag="0"/>
		</comp>
	</station>
	<station code="VOL2" name="VOL2" netid="HI" source="ITSAK Strong Motion Network" insttype="" lat="39.366" lon="22.9506">
		<comp name="--.HNE" depth="0.0">
			<acc value="0.0251196948589722" flag="0"/>
			<vel value="0.0140049324804747" flag="0"/>
			<psa03 value="0.0636234178111824" flag="0"/>
			<psa10 value="0.00989384414949843" flag="0"/>
			<psa30 value="0.000899318353027262" flag="0"/>
		</comp>
		<comp name="--.HNN" depth="0.0">
			<acc value="0.0220454110096977" flag="0"/>
			<vel value="0.0148133193550178" flag="0"/>
			<psa03 value="0.07145330396938" flag="0"/>
			<psa10 value="0.0159300152443695" flag="0"/>
			<psa30 value="0.000717664994157079" flag="0"/>
		</comp>
		<comp name="--.HNZ" depth="0.0">
			<acc value="0.0252423684590982" flag="0"/>
			<vel value="0.00615796750533924" flag="0"/>
			<psa03 value="0.0237581117143023" flag="0"/>
			<psa10 value="0.00677710203646962" flag="0"/>
			<psa30 value="0.000577621887441888" flag="0"/>
		</comp>
	</station>
	<station code="DLFA" name="DLFA" netid="HL" source="National Observatory of Athens Seismic Network" insttype="" lat="38.47836" lon="22.49583">
		<comp name="00.HNE" depth="0.0">
			<acc value="0.00459011829301629" flag="0"/>
			<vel value="0.00495394202882935" flag="0"/>
			<psa03 value="0.0153274346381652" flag="0"/>
			<psa10 value="0.0102118214830729" flag="0"/>
			<psa30 value="0.000803303162809512" flag="0"/>
		</comp>
		<comp name="00.HNN" depth="0.0">
			<acc value="0.00391847682593555" flag="0"/>
			<vel value="0.00412248833844388" flag="0"/>
			<psa03 value="0.0104459231109536" flag="0"/>
			<psa10 value="0.00869803463959519" flag="0"/>
			<psa30 value="0.000694404542557414" flag="0"/>
		</comp>
		<comp name="00.HNZ" depth="0.0">
			<acc value="0.00291041600499667" flag="0"/>
			<vel value="0.00264372715005999" flag="0"/>
			<psa03 value="0.00923959059316808" flag="0"/>
			<psa10 value="0.0046483851201888" flag="0"/>
			<psa30 value="0.000396630311269698" flag="0"/>
		</comp>
	</station>
	<station code="JAN" name="JAN" netid="HL" source="National Observatory of Athens Seismic Network" insttype="" lat="39.65616" lon="20.84874">
		<comp name="00.HNE" depth="0.0">
			<acc value="0.0101882802501995" flag="0"/>
			<vel value="0.00533037434295657" flag="0"/>
			<psa03 value="0.0333329439306125" flag="0"/>
			<psa10 value="0.00502544464736428" flag="0"/>
			<psa30 value="0.00056464664752259" flag="0"/>
		</comp>
		<comp name="00.HNN" depth="0.0">
			<acc value="0.0163141477943891" flag="0"/>
			<vel value="0.00705752328707525" flag="0"/>
			<psa03 value="0.0419681898079389" flag="0"/>
			<psa10 value="0.00503752504315122" flag="0"/>
			<psa30 value="0.000604914633479034" flag="0"/>
		</comp>
		<comp name="00.HNZ" depth="0.0">
			<acc value="0.00658779718925507" flag="0"/>
			<vel value="0.00307410349172077" flag="0"/>
			<psa03 value="0.0182548203002549" flag="0"/>
			<psa10 value="0.00423619212261797" flag="0"/>
			<psa30 value="0.000557040472397483" flag="0"/>
		</comp>
	</station>
	<station code="KYMI" name="KYMI" netid="HL" source="National Observatory of Athens Seismic Network" insttype="" lat="38.633147" lon="24.100138">
		<comp name="--.HNE" depth="1.0">
			<acc value="0.000760566058136098" flag="0"/>
			<vel value="0.000704065657660862" flag="0"/>
			<psa03 value="0.0022338572919767" flag="0"/>
			<psa10 value="0.000895030014002426" flag="0"/>
			<psa30 value="0.000262183253770396" flag="0"/>
		</comp>
		<comp name="--.HNN" depth="1.0">
			<acc value="0.000655436009556936" flag="0"/>
			<vel value="0.000748203381220814" flag="0"/>
			<psa03 value="0.00129810837286588" flag="0"/>
			<psa10 value="0.00163498385652978" flag="0"/>
			<psa30 value="0.00023150111706308" flag="0"/>
		</comp>
		<comp name="--.HNZ" depth="1.0">
			<acc value="0.000427187149311622" flag="0"/>
			<vel value="0.000582781687349363" flag="0"/>
			<psa03 value="0.00152924909170342" flag="0"/>
			<psa10 value="0.000939347402936084" flag="0"/>
			<psa30 value="0.000132170396264882" flag="0"/>
		</comp>
	</station>
	<station code="PATC" name="PATC" netid="HL" source="National Observatory of Athens Seismic Network" insttype="" lat="38.26933" lon="21.76001">
		<comp name="00.HNE" depth="0.0">
			<acc value="0.00677450704074361" flag="0"/>
			<vel value="0.00713140406644714" flag="0"/>
			<psa03 value="0.0165055673711585" flag="0"/>
			<psa10 value="0.00879491386987116" flag="0"/>
			<psa30 value="0.00159675306872245" flag="0"/>
		</comp>
		<comp name="00.HNN" depth="0.0">
			<acc value="0.00664277640939836" flag="0"/>
			<vel value="0.00704901492064003" flag="0"/>
			<psa03 value="0.016716195907597" flag="0"/>
			<psa10 value="0.0115769147262928" flag="0"/>
			<psa30 value="0.00165275542443702" flag="0"/>
		</comp>
		<comp name="00.HNZ" depth="0.0">
			<acc value="0.00508298642878479" flag="0"/>
			<vel value="0.00381585371402917" flag="0"/>
			<psa03 value="0.0209934870696396" flag="0"/>
			<psa10 value="0.00586410503068903" flag="0"/>
			<psa30 value="0.000632256310962449" flag="0"/>
		</comp>
	</station>
	<station code="PATG" name="PATG" netid="HL" source="National Observatory of Athens Seismic Network" insttype="" lat="38.23865" lon="21.72657">
		<comp name="00.HNE" depth="0.0">
			<acc value="0.0103437316768969" flag="0"/>
			<vel value="0.00945326632078527" flag="0"/>
			<psa03 value="0.0257186230033966" flag="0"/>
			<psa10 value="0.00812162614288201" flag="0"/>
			<psa30 value="0.00196466869132752" flag="0"/>
		</comp>
		<comp name="00.HNN" depth="0.0">
			<acc value="0.00836173651239601" flag="0"/>
			<vel value="0.00742410667675924" flag="0"/>
			<psa03 value="0.0222897135633043" flag="0"/>
			<psa10 value="0.0100696617531696" flag="0"/>
			<psa30 value="0.00165762105926004" flag="0"/>
		</comp>
		<comp name="00.HNZ" depth="0.0">
			<acc value="0.00713851393917717" flag="0"/>
			<vel value="0.00425974260886754" flag="0"/>
			<psa03 value="0.0177739131116061" flag="0"/>
			<psa10 value="0.0059164209963413" flag="0"/>
			<psa30 value="0.000814809445876062" flag="0"/>
		</comp>
	</station>
	<station code="RIOA" name="RIOA" netid="HL" source="National Observatory of Athens Seismic Network" insttype="" lat="38.29585" lon="21.79118">
		<comp name="00.HNE" depth="0.0">
			<acc value="0.00703570946214482" flag="0"/>
			<vel value="0.00685589545109196" flag="0"/>
			<psa03 value="0.0160720243281624" flag="0"/>
			<psa10 value="0.00927395185379261" flag="0"/>
			<psa30 value="0.00124025101470999" flag="0"/>
		</comp>
		<comp name="00.HNN" depth="0.0">
			<acc value="0.00702235860580775" flag="0"/>
			<vel value="0.00529874863367265" flag="0"/>
			<psa03 value="0.0176720027147183" flag="0"/>
			<psa10 value="0.0093847238794075" flag="0"/>
			<psa30 value="0.000843213515006552" flag="0"/>
		</comp>
		<comp name="00.HNZ" depth="0.0">
			<acc value="0.00507423374330837" flag="0"/>
			<vel value="0.00368868951239233" flag="0"/>
			<psa03 value="0.0123302491101505" flag="0"/>
			<psa10 value="0.00330354462486851" flag="0"/>
			<psa30 value="0.000977869779072595" flag="0"/>
		</comp>
	</station>
	<station code="ANX" name="ANX" netid="HP" source="University of Patras, Seismological Laboratory (PSLNET)" insttype="" lat="38.5933" lon="21.9209">
		<comp name="--.HNE" depth="0.0">
			<acc value="0.0223803923930518" flag="0"/>
			<vel value="0.0166210375576817" flag="0"/>
			<psa03 value="0.0753618777712082" flag="0"/>
			<psa10 value="0.0155019997438956" flag="0"/>
			<psa30 value="0.000894913658635988" flag="0"/>
		</comp>
		<comp name="--.HNN" depth="0.0">
			<acc value="0.0256017342612369" flag="0"/>
			<vel value="0.014536120343246" flag="0"/>
			<psa03 value="0.0777400144778871" flag="0"/>
			<psa10 value="0.0124644035180794" flag="0"/>
			<psa30 value="0.000794702020108729" flag="0"/>
		</comp>
		<comp name="--.HNZ" depth="0.0">
			<acc value="0.011059273306923" flag="0"/>
			<vel value="0.00848832298619991" flag="0"/>
			<psa03 value="0.0393515834117681" flag="0"/>
			<psa10 value="0.0100422211853604" flag="0"/>
			<psa30 value="0.000597604484197703" flag="0"/>
		</comp>
	</station>
	<station code="LTK" name="LTK" netid="HP" source="University of Patras, Seismological Laboratory (PSLNET)" insttype="" lat="38.0228" lon="22.9673">
		<comp name="--.HNE" depth="0.0">
			<acc value="0.00121758619181394" flag="0"/>
			<vel value="0.00131697084421979" flag="0"/>
			<psa03 value="0.00388555980812342" flag="0"/>
			<psa10 value="0.00236782412235279" flag="0"/>
			<psa30 value="0.000178742817397043" flag="0"/>
		</comp>
		<comp name="--.HNN" depth="0.0">
			<acc value="0.00136387325506776" flag="0"/>
			<vel value="0.00141246372313052" flag="0"/>
			<psa03 value="0.00383960689417686" flag="0"/>
			<psa10 value="0.00274113463359355" flag="0"/>
			<psa30 value="0.000177664738166791" flag="0"/>
		</comp>
		<comp name="--.HNZ" depth="0.0">
			<acc value="0.00107788436827751" flag="0"/>
			<vel value="0.000805551618649234" flag="0"/>
			<psa03 value="0.0033076461986622" flag="0"/>
			<psa10 value="0.00161210827863707" flag="0"/>
