<?xml version="1.0" encoding="UTF-8" standalone="yes"?>
<!DOCTYPE earthquake SYSTEM "stationlist.dtd">
<stationlist created="" xmlns="ch.ethz.sed.shakemap.usgs.xml">
  <station code="TETR" name="TETR" netid="HL" insttype="60" lat="39.3445" lon="21.2747">
    <comp name="--.HHE">
      <acc value="0.1347846730" flag="0"/>
      <vel value="0.0474064224" flag="0"/>
      <psa03 value="0.3848520682" flag="0"/>
      <psa10 value="0.0310445872" flag="0"/>
      <psa30 value="0.0018027730" flag="0"/>
    </comp>
    <comp name="--.HHN">
      <acc value="0.1050436013" flag="0"/>
      <vel value="0.0286521357" flag="0"/>
      <psa03 value="0.1635231231" flag="0"/>
      <psa10 value="0.0153792455" flag="0"/>
      <psa30 value="0.0010710915" flag="0"/>
    </comp>
    <comp name="--.HHZ">
      <acc value="0.0396821202" flag="0"/>
      <vel value="0.0177651159" flag="0"/>
      <psa03 value="0.1183503972" flag="0"/>
      <psa10 value="0.0109418041" flag="0"/>
      <psa30 value="0.0008229835" flag="0"/>
    </comp>
  </station>
  <station code="THL" name="THL" netid="HL" insttype="120" lat="39.5647" lon="22.0144">
    <comp name="--.HHZ">
      <acc value="0.1128520969" flag="0"/>
      <vel value="0.0432044772" flag="0"/>
      <psa03 value="0.1358901423" flag="0"/>
      <psa10 value="0.0453717764" flag="0"/>
      <psa30 value="0.0027602272" flag="0"/>
    </comp>
    <comp name="--.HHE">
      <acc value="0.1790493326" flag="0"/>
      <vel value="0.0828839429" flag="0"/>
      <psa03 value="0.3377216837" flag="0"/>
      <psa10 value="0.0526203594" flag="0"/>
      <psa30 value="0.0040055404" flag="0"/>
    </comp>
    <comp name="--.HHN">
      <acc value="0.1894250547" flag="0"/>
      <vel value="0.0850804261" flag="0"/>
      <psa03 value="0.3061423001" flag="0"/>
      <psa10 value="0.0330323557" flag="0"/>
      <psa30 value="0.0028458684" flag="0"/>
    </comp>
  </station>
  <station code="LIT" name="LIT" netid="HT" insttype="100" lat="40.1033" lon="22.4892">
    <comp name="--.HHN">
      <acc value="0.1237504338" flag="0"/>
      <vel value="0.0473401623" flag="0"/>
      <psa03 value="0.2268461358" flag="0"/>
      <psa10 value="0.0154128021" flag="0"/>
      <psa30 value="0.0014543052" flag="0"/>
    </comp>
    <comp name="--.HHZ">
      <acc value="0.0863037150" flag="0"/>
      <vel value="0.0472722643" flag="0"/>
      <psa03 value="0.2468009353" flag="0"/>
      <psa10 value="0.0163589664" flag="0"/>
      <psa30 value="0.0013646203" flag="0"/>
    </comp>
    <comp name="--.HHE">
      <acc value="0.1279272843" flag="0"/>
      <vel value="0.0643945098" flag="0"/>
      <psa03 value="0.2518719339" flag="0"/>
      <psa10 value="0.0265467234" flag="0"/>
      <psa30 value="0.0024747677" flag="0"/>
    </comp>
  </station>
  <station code="TYRN" name="TYRN" netid="HT" insttype="120P," lat="39.711" lon="22.2325">
    <comp name="--.HHN">
      <acc value="0.0850138480" flag="0"/>
      <vel value="0.0477371355" flag="0"/>
      <psa03 value="0.1113678744" flag="0"/>
      <psa10 value="0.0247359815" flag="0"/>
      <psa30 value="0.0021501205" flag="0"/>
    </comp>
    <comp name="--.HHE">
      <acc value="0.1187722594" flag="0"/>
      <vel value="0.0405303115" flag="0"/>
      <psa03 value="0.2200765937" flag="0"/>
      <psa10 value="0.0341194584" flag="0"/>
      <psa30 value="0.0024935016" flag="0"/>
    </comp>
    <comp name="--.HHZ">
      <acc value="0.1071205621" flag="0"/>
      <vel value="0.0400289576" flag="0"/>
      <psa03 value="0.2048437080" flag="0"/>
      <psa10 value="0.0226265997" flag="0"/>
      <psa30 value="0.0025153965" flag="0"/>
    </comp>
  </station>
  <station code="THL" name="THL" netid="MN" insttype="" lat="39.5647" lon="22.0144">
    <comp name="--.HHN">
      <acc value="0.1894250547" flag="0"/>
      <vel value="0.0850804261" flag="0"/>
      <psa03 value="0.3061423001" flag="0"/>
      <psa10 value="0.0330323557" flag="0"/>
      <psa30 value="0.0028458684" flag="0"/>
    </comp>
    <comp name="--.HHE">
      <acc value="0.1790493326" flag="0"/>
      <vel value="0.0828839429" flag="0"/>
      <psa03 value="0.3377216837" flag="0"/>
      <psa10 value="0.0526203594" flag="0"/>
      <psa30 value="0.0040055404" flag="0"/>
    </comp>
    <comp name="--.HHZ">
      <acc value="0.1128520969" flag="0"/>
      <vel value="0.0432044772" flag="0"/>
      <psa03 value="0.1358901423" flag="0"/>
      <psa10 value="0.0453717764" flag="0"/>
      <psa30 value="0.0027602272" flag="0"/>
    </comp>
  </station>
</stationlist>
