<?xml version="1.0" encoding="UTF-8" standalone="yes"?>
<!DOCTYPE earthquake SYSTEM "stationlist.dtd">
<stationlist created="" xmlns="ch.ethz.sed.shakemap.usgs.xml">
  <station code="IT08A" name="IT08A" netid="4P" insttype="" lat="44.9839" lon="12.0697">
    <comp name="--.HHE">
      <acc value="0.4009254558" flag="0"/>
      <vel value="0.1943133684" flag="0"/>
      <psa03 value="1.1345718439" flag="0"/>
      <psa10 value="0.0512579378" flag="0"/>
      <psa30 value="0.0054828222" flag="0"/>
    </comp>
    <comp name="--.HHN">
      <acc value="0.4914125656" flag="0"/>
      <vel value="0.2030615383" flag="0"/>
      <psa03 value="1.0485460058" flag="0"/>
      <psa10 value="0.0834965533" flag="0"/>
      <psa30 value="0.0072847246" flag="0"/>
    </comp>
    <comp name="--.HHZ">
      <acc value="0.1607441357" flag="0"/>
      <vel value="0.0498589585" flag="0"/>
      <psa03 value="0.2226213846" flag="0"/>
      <psa10 value="0.0117926445" flag="0"/>
      <psa30 value="0.0007675767" flag="0"/>
    </comp>
  </station>
  <station code="IT09A" name="IT09A" netid="4P" insttype="" lat="44.6605" lon="11.4359">
    <comp name="--.HHN">
      <acc value="0.6954400829" flag="0"/>
      <vel value="0.2698321922" flag="0"/>
      <psa03 value="1.1252727222" flag="0"/>
      <psa10 value="0.1243551497" flag="0"/>
      <psa30 value="0.0066920828" flag="0"/>
    </comp>
    <comp name="--.HHE">
      <acc value="1.0126214230" flag="0"/>
      <vel value="0.2161800517" flag="0"/>
      <psa03 value="0.7151226733" flag="0"/>
      <psa10 value="0.0758546243" flag="0"/>
      <psa30 value="0.0087465542" flag="0"/>
    </comp>
    <comp name="--.HHZ">
      <acc value="0.1480946996" flag="0"/>
      <vel value="0.0318236474" flag="0"/>
      <psa03 value="0.1473024400" flag="0"/>
      <psa10 value="0.0165572290" flag="0"/>
      <psa30 value="0.0009238984" flag="0"/>
    </comp>
  </station>
  <station code="GRAM" name="GRAM" netid="GU" insttype="" lat="44.4904" lon="10.065">
    <comp name="--.HHE">
      <acc value="0.0357413747" flag="0"/>
      <vel value="0.0169503199" flag="0"/>
      <psa03 value="0.1115767365" flag="0"/>
      <psa10 value="0.0081543023" flag="0"/>
      <psa30 value="0.0005428420" flag="0"/>
    </comp>
    <comp name="--.HHN">
      <acc value="0.0325195462" flag="0"/>
      <vel value="0.0130745291" flag="0"/>
      <psa03 value="0.0782656534" flag="0"/>
      <psa10 value="0.0110462175" flag="0"/>
      <psa30 value="0.0006368869" flag="0"/>
    </comp>
    <comp name="--.HHZ">
      <acc value="0.0184180677" flag="0"/>
      <vel value="0.0045639958" flag="0"/>
      <psa03 value="0.0237590388" flag="0"/>
      <psa10 value="0.0029500076" flag="0"/>
      <psa30 value="0.0002096553" flag="0"/>
    </comp>
  </station>
  <station code="GSCL" name="GSCL" netid="GU" insttype="" lat="44.3506" lon="10.588">
    <comp name="--.HHE">
      <acc value="0.0221760742" flag="0"/>
      <vel value="0.0089700608" flag="0"/>
      <psa03 value="0.0664803743" flag="0"/>
      <psa10 value="0.0056561759" flag="0"/>
      <psa30 value="0.0005140247" flag="0"/>
    </comp>
    <comp name="--.HHN">
      <acc value="0.0181488702" flag="0"/>
      <vel value="0.0090996842" flag="0"/>
      <psa03 value="0.0434681470" flag="0"/>
      <psa10 value="0.0087925830" flag="0"/>
      <psa30 value="0.0005505582" flag="0"/>
    </comp>
    <comp name="--.HHZ">
      <acc value="0.0079067944" flag="0"/>
      <vel value="0.0042466301" flag="0"/>
      <psa03 value="0.0221632344" flag="0"/>
      <psa10 value="0.0038182159" flag="0"/>
      <psa30 value="0.0002493942" flag="0"/>
    </comp>
  </station>
  <station code="POPM" name="POPM" netid="GU" insttype="" lat="44.045" lon="10.757">
    <comp name="--.HHE">
      <acc value="0.0191869147" flag="0"/>
      <vel value="0.0067522663" flag="0"/>
      <psa03 value="0.0484559944" flag="0"/>
      <psa10 value="0.0042896869" flag="0"/>
      <psa30 value="0.0002207659" flag="0"/>
    </comp>
    <comp name="--.HHN">
      <acc value="0.0194091175" flag="0"/>
      <vel value="0.0087805100" flag="0"/>
      <psa03 value="0.0494887332" flag="0"/>
      <psa10 value="0.0058088968" flag="0"/>
      <psa30 value="0.0003366762" flag="0"/>
    </comp>
    <comp name="--.HHZ">
      <acc value="0.0168486285" flag="0"/>
      <vel value="0.0057869699" flag="0"/>
      <psa03 value="0.0262462897" flag="0"/>
      <psa10 value="0.0028377107" flag="0"/>
      <psa30 value="0.0002263396" flag="0"/>
    </comp>
  </station>
  <station code="ASOL" name="ASOL" netid="IV" insttype="" lat="45.8003" lon="11.9023">
    <comp name="--.HNZ">
      <acc value="0.0799422865" flag="0"/>
      <vel value="0.0282977452" flag="0"/>
      <psa03 value="0.2097363226" flag="0"/>
      <psa10 value="0.0128935833" flag="0"/>
      <psa30 value="0.0012731483" flag="0"/>
    </comp>
    <comp name="--.HNE">
      <acc value="0.1577965967" flag="0"/>
      <vel value="0.0688843135" flag="0"/>
      <psa03 value="0.2546138421" flag="0"/>
      <psa10 value="0.0301836395" flag="0"/>
      <psa30 value="0.0027365864" flag="0"/>
    </comp>
    <comp name="--.HNN">
      <acc value="0.1680484263" flag="0"/>
      <vel value="0.0590421231" flag="0"/>
      <psa03 value="0.2798009950" flag="0"/>
      <psa10 value="0.0266357856" flag="0"/>
      <psa30 value="0.0023744303" flag="0"/>
    </comp>
  </station>
  <station code="BAG8" name="BAG8" netid="IV" insttype="" lat="45.8228" lon="10.4664">
    <comp name="--.HNE">
      <acc value="0.0502999154" flag="0"/>
      <vel value="0.0142194362" flag="0"/>
      <psa03 value="0.0429305948" flag="0"/>
      <psa10 value="0.0095208710" flag="0"/>
      <psa30 value="0.0006377556" flag="0"/>
    </comp>
    <comp name="--.HNN">
      <acc value="0.0449925524" flag="0"/>
      <vel value="0.0097105748" flag="0"/>
      <psa03 value="0.0541269835" flag="0"/>
      <psa10 value="0.0061489172" flag="0"/>
      <psa30 value="0.0003433601" flag="0"/>
    </comp>
    <comp name="--.HNZ">
      <acc value="0.0313227103" flag="0"/>
      <vel value="0.0078418283" flag="0"/>
      <psa03 value="0.0381613040" flag="0"/>
      <psa10 value="0.0039042276" flag="0"/>
      <psa30 value="0.0003536372" flag="0"/>
    </comp>
  </station>
  <station code="BDI" name="BDI" netid="IV" insttype="" lat="44.0624" lon="10.597">
    <comp name="--.HHE">
      <acc value="0.0129069590" flag="0"/>
      <vel value="0.0057008985" flag="0"/>
      <psa03 value="0.0566828805" flag="0"/>
      <psa10 value="0.0036640954" flag="0"/>
      <psa30 value="0.0002277216" flag="0"/>
    </comp>
    <comp name="--.HHZ">
      <acc value="0.0109517754" flag="0"/>
      <vel value="0.0029540856" flag="0"/>
      <psa03 value="0.0181926468" flag="0"/>
      <psa10 value="0.0021478996" flag="0"/>
      <psa30 value="0.0001402204" flag="0"/>
    </comp>
    <comp name="--.HHN">
      <acc value="0.0134118791" flag="0"/>
      <vel value="0.0063798719" flag="0"/>
      <psa03 value="0.0373280616" flag="0"/>
      <psa10 value="0.0032331552" flag="0"/>
      <psa30 value="0.0002691349" flag="0"/>
    </comp>
  </station>
  <station code="BOSL" name="BOSL" netid="IV" insttype="" lat="43.931" lon="11.3743">
    <comp name="--.HHE">
      <acc value="0.0044154192" flag="0"/>
      <vel value="0.0019020080" flag="0"/>
      <psa03 value="0.0087890856" flag="0"/>
      <psa10 value="0.0015743590" flag="0"/>
      <psa30 value="0.0001119785" flag="0"/>
    </comp>
    <comp name="--.HHN">
      <acc value="0.0036735356" flag="0"/>
      <vel value="0.0016132679" flag="0"/>
      <psa03 value="0.0140007383" flag="0"/>
      <psa10 value="0.0016451978" flag="0"/>
      <psa30 value="0.0001130873" flag="0"/>
    </comp>
    <comp name="--.HHZ">
      <acc value="0.0032784994" flag="0"/>
      <vel value="0.0008603243" flag="0"/>
      <psa03 value="0.0039449044" flag="0"/>
      <psa10 value="0.0007724954" flag="0"/>
      <psa30 value="0.0000691966" flag="0"/>
    </comp>
  </station>
  <station code="BOZZ" name="BOZZ" netid="IV" insttype="" lat="45.1071" lon="10.482">
    <comp name="--.HHN">
      <acc value="0.0352160500" flag="0"/>
      <vel value="0.0223245386" flag="0"/>
      <psa03 value="0.0830165492" flag="0"/>
      <psa10 value="0.0215962881" flag="0"/>
      <psa30 value="0.0031663550" flag="0"/>
    </comp>
    <comp name="--.HHE">
      <acc value="0.0404422348" flag="0"/>
      <vel value="0.0236153835" flag="0"/>
      <psa03 value="0.0946811525" flag="0"/>
      <psa10 value="0.0316357683" flag="0"/>
      <psa30 value="0.0034017152" flag="0"/>
    </comp>
    <comp name="--.HHZ">
      <acc value="0.0435932789" flag="0"/>
      <vel value="0.0078074428" flag="0"/>
      <psa03 value="0.0402417737" flag="0"/>
      <psa10 value="0.0069768943" flag="0"/>
      <psa30 value="0.0005434335" flag="0"/>
    </comp>
  </station>
  <station code="CNCS" name="CNCS" netid="IV" insttype="" lat="45.606" lon="10.217">
    <comp name="--.HNE">
      <acc value="0.0605726944" flag="0"/>
      <vel value="0.0215993376" flag="0"/>
      <psa03 value="0.1160635016" flag="0"/>
      <psa10 value="0.0133554537" flag="0"/>
      <psa30 value="0.0009380874" flag="0"/>
    </comp>
    <comp name="--.HNN">
      <acc value="0.0483227781" flag="0"/>
      <vel value="0.0186881092" flag="0"/>
      <psa03 value="0.1196420922" flag="0"/>
      <psa10 value="0.0095716084" flag="0"/>
      <psa30 value="0.0015361551" flag="0"/>
    </comp>
    <comp name="--.HNZ">
      <acc value="0.0278536318" flag="0"/>
      <vel value="0.0108432279" flag="0"/>
      <psa03 value="0.0632896212" flag="0"/>
      <psa10 value="0.0052572191" flag="0"/>
      <psa30 value="0.0004511733" flag="0"/>
    </comp>
  </station>
  <station code="CRND" name="CRND" netid="IV" insttype="" lat="45.8361" lon="12.0131">
    <comp name="--.HNE">
      <acc value="0.0325855901" flag="0"/>
      <vel value="0.0123126966" flag="0"/>
      <psa03 value="0.0950959072" flag="0"/>
      <psa10 value="0.0077963966" flag="0"/>
      <psa30 value="0.0004989052" flag="0"/>
    </comp>
    <comp name="--.HNN">
      <acc value="0.0429472215" flag="0"/>
      <vel value="0.0112324365" flag="0"/>
      <psa03 value="0.0737765609" flag="0"/>
      <psa10 value="0.0077863467" flag="0"/>
      <psa30 value="0.0004526670" flag="0"/>
    </comp>
    <comp name="--.HNZ">
      <acc value="0.0367391144" flag="0"/>
      <vel value="0.0101079055" flag="0"/>
      <psa03 value="0.0406816860" flag="0"/>
      <psa10 value="0.0045442170" flag="0"/>
      <psa30 value="0.0003547138" flag="0"/>
    </comp>
  </station>
  <station code="CTI" name="CTI" netid="IV" insttype="" lat="46.0482" lon="11.6497">
    <comp name="--.HHE">
      <acc value="0.0721184846" flag="0"/>
      <vel value="0.0171046733" flag="0"/>
      <psa03 value="0.0753030011" flag="0"/>
      <psa10 value="0.0108818983" flag="0"/>
      <psa30 value="0.0004643379" flag="0"/>
    </comp>
    <comp name="--.HHN">
      <acc value="0.0733771528" flag="0"/>
      <vel value="0.0162451586" flag="0"/>
      <psa03 value="0.0672974661" flag="0"/>
      <psa10 value="0.0052437298" flag="0"/>
      <psa30 value="0.0004068820" flag="0"/>
    </comp>
    <comp name="--.HHZ">
      <acc value="0.0255025360" flag="0"/>
      <vel value="0.0073639254" flag="0"/>
      <psa03 value="0.0396247112" flag="0"/>
      <psa10 value="0.0037376991" flag="0"/>
      <psa30 value="0.0002985363" flag="0"/>
    </comp>
  </station>
  <station code="FERS" name="FERS" netid="IV" insttype="" lat="44.9035" lon="11.5406">
    <comp name="--.HNE">
      <acc value="0.8383612709" flag="0"/>
      <vel value="0.3880980017" flag="0"/>
      <psa03 value="1.7141653612" flag="0"/>
      <psa10 value="0.1365373686" flag="0"/>
      <psa30 value="0.0100788137" flag="0"/>
    </comp>
    <comp name="--.HNZ">
      <acc value="0.4923106049" flag="0"/>
      <vel value="0.1201286417" flag="0"/>
      <psa03 value="0.4531915514" flag="0"/>
      <psa10 value="0.0304720285" flag="0"/>
      <psa30 value="0.0018608512" flag="0"/>
    </comp>
    <comp name="--.HNN">
      <acc value="0.8814088545" flag="0"/>
      <vel value="0.2034869357" flag="0"/>
      <psa03 value="1.0756853957" flag="0"/>
      <psa10 value="0.0663113098" flag="0"/>
      <psa30 value="0.0053620462" flag="0"/>
    </comp>
  </station>
  <station code="IMOL" name="IMOL" netid="IV" insttype="" lat="44.3595" lon="11.7425">
    <comp name="--.HNE">
      <acc value="0.1045300866" flag="0"/>
      <vel value="0.0407928736" flag="0"/>
      <psa03 value="0.2159749368" flag="0"/>
      <psa10 value="0.0236886723" flag="0"/>
      <psa30 value="0.0020263326" flag="0"/>
    </comp>
    <comp name="--.HNZ">
      <acc value="0.0491650847" flag="0"/>
      <vel value="0.0122608555" flag="0"/>
      <psa03 value="0.0666733169" flag="0"/>
      <psa10 value="0.0097756370" flag="0"/>
      <psa30 value="0.0006014645" flag="0"/>
    </comp>
    <comp name="--.HNN">
      <acc value="0.0990909273" flag="0"/>
      <vel value="0.0304654623" flag="0"/>
      <psa03 value="0.2405936727" flag="0"/>
      <psa10 value="0.0153836330" flag="0"/>
      <psa30 value="0.0027589434" flag="0"/>
    </comp>
  </station>
  <station code="MAGA" name="MAGA" netid="IV" insttype="" lat="45.7753" lon="10.6286">
    <comp name="--.HHE">
      <acc value="0.1019411013" flag="0"/>
      <vel value="0.0513155393" flag="0"/>
      <psa03 value="0.1622536075" flag="0"/>
      <psa10 value="0.0465148244" flag="0"/>
      <psa30 value="0.0020705251" flag="0"/>
    </comp>
    <comp name="--.HHN">
      <acc value="0.0930385499" flag="0"/>
      <vel value="0.0409450543" flag="0"/>
      <psa03 value="0.1433008464" flag="0"/>
      <psa10 value="0.0164217125" flag="0"/>
      <psa30 value="0.0013720798" flag="0"/>
    </comp>
    <comp name="--.HHZ">
      <acc value="0.0374565727" flag="0"/>
      <vel value="0.0134626485" flag="0"/>
      <psa03 value="0.0593117106" flag="0"/>
      <psa10 value="0.0063091613" flag="0"/>
      <psa30 value="0.0003759425" flag="0"/>
    </comp>
  </station>
  <station code="MBAL" name="MBAL" netid="IV" insttype="" lat="45.6975" lon="10.8589">
    <comp name="--.HHE">
      <acc value="0.1375426523" flag="0"/>
      <vel value="0.0206296531" flag="0"/>
      <psa03 value="0.0561226719" flag="0"/>
      <psa10 value="0.0059580066" flag="0"/>
      <psa30 value="0.0005201334" flag="0"/>
    </comp>
    <comp name="--.HHZ">
      <acc value="0.0398602740" flag="0"/>
      <vel value="0.0092505904" flag="0"/>
      <psa03 value="0.0423218766" flag="0"/>
      <psa10 value="0.0074579884" flag="0"/>
      <psa30 value="0.0002300616" flag="0"/>
    </comp>
    <comp name="--.HHN">
      <acc value="0.1237860276" flag="0"/>
      <vel value="0.0248335167" flag="0"/>
      <psa03 value="0.0684062872" flag="0"/>
      <psa10 value="0.0061198828" flag="0"/>
      <psa30 value="0.0004265563" flag="0"/>
    </comp>
  </station>
  <station code="MODE" name="MODE" netid="IV" insttype="" lat="44.6297" lon="10.9492">
    <comp name="--.HNE">
      <acc value="0.1907815416" flag="0"/>
      <vel value="0.0861566189" flag="0"/>
      <psa03 value="0.4225712950" flag="0"/>
      <psa10 value="0.0844270588" flag="0"/>
      <psa30 value="0.0061844881" flag="0"/>
    </comp>
    <comp name="--.HNN">
      <acc value="0.1142692136" flag="0"/>
      <vel value="0.0654792281" flag="0"/>
      <psa03 value="0.2766163828" flag="0"/>
      <psa10 value="0.0436330388" flag="0"/>
      <psa30 value="0.0031989477" flag="0"/>
    </comp>
    <comp name="--.HNZ">
      <acc value="0.1612151067" flag="0"/>
      <vel value="0.0716261562" flag="0"/>
      <psa03 value="0.5037009851" flag="0"/>
      <psa10 value="0.0286312716" flag="0"/>
      <psa30 value="0.0023474441" flag="0"/>
    </comp>
  </station>
  <station code="MTRZ" name="MTRZ" netid="IV" insttype="" lat="44.3128" lon="11.4248">
    <comp name="--.HHE">
      <acc value="0.0394926833" flag="0"/>
      <vel value="0.0225769844" flag="0"/>
      <psa03 value="0.1241848463" flag="0"/>
      <psa10 value="0.0159420255" flag="0"/>
      <psa30 value="0.0017862014" flag="0"/>
    </comp>
    <comp name="--.HHN">
      <acc value="0.0608997968" flag="0"/>
      <vel value="0.0271729705" flag="0"/>
      <psa03 value="0.1422373940" flag="0"/>
      <psa10 value="0.0181844400" flag="0"/>
      <psa30 value="0.0016943757" flag="0"/>
    </comp>
    <comp name="--.HHZ">
      <acc value="0.0157136212" flag="0"/>
      <vel value="0.0085888365" flag="0"/>
      <psa03 value="0.0489684284" flag="0"/>
      <psa10 value="0.0090413111" flag="0"/>
      <psa30 value="0.0006143329" flag="0"/>
    </comp>
  </station>
  <station code="NDIM" name="NDIM" netid="IV" insttype="" lat="44.8873" lon="10.8987">
    <comp name="--.HHE">
      <acc value="0.0739959732" flag="0"/>
      <vel value="0.0278030023" flag="0"/>
      <psa03 value="0.1336122942" flag="0"/>
      <psa10 value="0.0102988083" flag="0"/>
      <psa30 value="0.0009913970" flag="0"/>
    </comp>
    <comp name="--.HHN">
      <acc value="0.2359356167" flag="0"/>
      <vel value="0.0990013395" flag="0"/>
      <psa03 value="0.6197240177" flag="0"/>
      <psa10 value="0.0573441862" flag="0"/>
      <psa30 value="0.0061336884" flag="0"/>
    </comp>
    <comp name="--.HHZ">
      <acc value="0.0610141807" flag="0"/>
      <vel value="0.0209536854" flag="0"/>
      <psa03 value="0.1337894662" flag="0"/>
      <psa10 value="0.0155220381" flag="0"/>
      <psa30 value="0.0010318241" flag="0"/>
    </comp>
  </station>
  <station code="NEVI" name="NEVI" netid="IV" insttype="" lat="44.5834" lon="10.3163">
    <comp name="--.HNE">
      <acc value="0.0266730841" flag="0"/>
      <vel value="0.0134831048" flag="0"/>
      <psa03 value="0.0876397959" flag="0"/>
      <psa10 value="0.0083457875" flag="0"/>
      <psa30 value="0.0004901933" flag="0"/>
    </comp>
    <comp name="--.HNN">
      <acc value="0.0335217115" flag="0"/>
      <vel value="0.0144499873" flag="0"/>
      <psa03 value="0.0834693189" flag="0"/>
      <psa10 value="0.0130240370" flag="0"/>
      <psa30 value="0.0011842810" flag="0"/>
    </comp>
    <comp name="--.HNZ">
      <acc value="0.0121702726" flag="0"/>
      <vel value="0.0042990162" flag="0"/>
      <psa03 value="0.0294976690" flag="0"/>
      <psa10 value="0.0058768347" flag="0"/>
      <psa30 value="0.0004643481" flag="0"/>
    </comp>
  </station>
  <station code="OPPE" name="OPPE" netid="IV" insttype="" lat="45.3082" lon="11.1724">
    <comp name="--.HHE">
      <acc value="0.1736922020" flag="0"/>
      <vel value="0.0663828461" flag="0"/>
      <psa03 value="0.1574301973" flag="0"/>
      <psa10 value="0.0506741474" flag="0"/>
      <psa30 value="0.0044336657" flag="0"/>
    </comp>
    <comp name="--.HHN">
      <acc value="0.2085231307" flag="0"/>
      <vel value="0.0645043633" flag="0"/>
      <psa03 value="0.1633094201" flag="0"/>
      <psa10 value="0.0530947506" flag="0"/>
      <psa30 value="0.0040946613" flag="0"/>
    </comp>
    <comp name="--.HHZ">
      <acc value="0.1232251954" flag="0"/>
      <vel value="0.0220325416" flag="0"/>
      <psa03 value="0.0914429299" flag="0"/>
      <psa10 value="0.0180262155" flag="0"/>
      <psa30 value="0.0012286741" flag="0"/>
    </comp>
  </station>
  <station code="ORZI" name="ORZI" netid="IV" insttype="" lat="45.4056" lon="9.9307">
    <comp name="--.HHE">
      <acc value="0.0162539478" flag="0"/>
      <vel value="0.0136331652" flag="0"/>
      <psa03 value="0.0422251801" flag="0"/>
      <psa10 value="0.0133214237" flag="0"/>
      <psa30 value="0.0017698164" flag="0"/>
    </comp>
    <comp name="--.HHN">
      <acc value="0.0172998146" flag="0"/>
      <vel value="0.0103231873" flag="0"/>
      <psa03 value="0.0477839649" flag="0"/>
      <psa10 value="0.0208964781" flag="0"/>
      <psa30 value="0.0013936188" flag="0"/>
    </comp>
