<?xml version="1.0" encoding="UTF-8" standalone="yes"?>
<!DOCTYPE earthquake SYSTEM "stationlist.dtd">
<stationlist created="" xmlns="ch.ethz.sed.shakemap.usgs.xml">
  <station code="EVR" name="EVR" netid="HL" insttype="DR24" lat="38.9166" lon="21.8105">
    <comp name="--.HHZ">
      <acc value="0.0100546215" flag="0"/>
      <vel value="0.0052749650" flag="0"/>
      <psa03 value="0.0194985242" flag="0"/>
      <psa10 value="0.0046615306" flag="0"/>
      <psa30 value="0.0003478175" flag="0"/>
    </comp>
    <comp name="--.HHE">
      <acc value="0.0096905423" flag="0"/>
      <vel value="0.0042725433" flag="0"/>
      <psa03 value="0.0155482864" flag="0"/>
      <psa10 value="0.0032519508" flag="0"/>
      <psa30 value="0.0004707978" flag="0"/>
    </comp>
    <comp name="--.HHN">
      <acc value="0.0157050577" flag="0"/>
      <vel value="0.0061205195" flag="0"/>
      <psa03 value="0.0280368932" flag="0"/>
      <psa10 value="0.0033527542" flag="0"/>
      <psa30 value="0.0007060900" flag="0"/>
    </comp>
  </station>
  <station code="GINA" name="GINA" netid="HL" insttype="CMG-5" lat="39.6689" lon="22.389">
    <comp name="00.HNN">
      <acc value="0.1756380075" flag="0"/>
      <vel value="0.0643086682" flag="0"/>
      <psa03 value="0.3754418843" flag="0"/>
      <psa10 value="0.0367964845" flag="0"/>
      <psa30 value="0.0015542826" flag="0"/>
    </comp>
    <comp name="00.HNZ">
      <acc value="0.1429238281" flag="0"/>
      <vel value="0.0302089994" flag="0"/>
      <psa03 value="0.1638108176" flag="0"/>
      <psa10 value="0.0222427726" flag="0"/>
      <psa30 value="0.0008641056" flag="0"/>
    </comp>
    <comp name="00.HNE">
      <acc value="0.1817053244" flag="0"/>
      <vel value="0.0576095490" flag="0"/>
      <psa03 value="0.2543003616" flag="0"/>
      <psa10 value="0.0233387976" flag="0"/>
      <psa30 value="0.0014452182" flag="0"/>
    </comp>
  </station>
  <station code="KZN" name="KZN" netid="HL" insttype="120" lat="40.3033" lon="21.7821">
    <comp name="--.HHE">
      <acc value="0.0482370239" flag="0"/>
      <vel value="0.0172952827" flag="0"/>
      <psa03 value="0.0971860758" flag="0"/>
      <psa10 value="0.0087969646" flag="0"/>
      <psa30 value="0.0006388417" flag="0"/>
    </comp>
    <comp name="--.HHN">
      <acc value="0.0295623068" flag="0"/>
      <vel value="0.0158579979" flag="0"/>
      <psa03 value="0.0937928868" flag="0"/>
      <psa10 value="0.0096577225" flag="0"/>
      <psa30 value="0.0006695206" flag="0"/>
    </comp>
    <comp name="--.HHZ">
      <acc value="0.0124549547" flag="0"/>
      <vel value="0.0061193718" flag="0"/>
      <psa03 value="0.0237445810" flag="0"/>
      <psa10 value="0.0034692784" flag="0"/>
      <psa30 value="0.0003247966" flag="0"/>
    </comp>
  </station>
  <station code="NEO" name="NEO" netid="HL" insttype="120" lat="39.3057" lon="23.2219">
    <comp name="--.HHE">
      <acc value="0.0091608837" flag="0"/>
      <vel value="0.0076447783" flag="0"/>
      <psa03 value="0.0265695012" flag="0"/>
      <psa10 value="0.0052499737" flag="0"/>
      <psa30 value="0.0003714196" flag="0"/>
    </comp>
    <comp name="--.HHZ">
      <acc value="0.0061621196" flag="0"/>
      <vel value="0.0027015801" flag="0"/>
      <psa03 value="0.0145970946" flag="0"/>
      <psa10 value="0.0027989718" flag="0"/>
      <psa30 value="0.0002629491" flag="0"/>
    </comp>
    <comp name="--.HHN">
      <acc value="0.0147422176" flag="0"/>
      <vel value="0.0085798077" flag="0"/>
      <psa03 value="0.0298538376" flag="0"/>
      <psa10 value="0.0137055885" flag="0"/>
      <psa30 value="0.0006625517" flag="0"/>
    </comp>
  </station>
  <station code="SOFA" name="SOFA" netid="HL" insttype="CMG-5" lat="39.3377" lon="22.0969">
    <comp name="00.HNN">
      <acc value="0.0654140194" flag="0"/>
      <vel value="0.0313022620" flag="0"/>
      <psa03 value="0.2321039469" flag="0"/>
      <psa10 value="0.0332591564" flag="0"/>
      <psa30 value="0.0019426193" flag="0"/>
    </comp>
    <comp name="00.HNE">
      <acc value="0.0571415857" flag="0"/>
      <vel value="0.0318397463" flag="0"/>
      <psa03 value="0.1784745047" flag="0"/>
      <psa10 value="0.0161863817" flag="0"/>
      <psa30 value="0.0018828168" flag="0"/>
    </comp>
    <comp name="00.HNZ">
      <acc value="0.0475106584" flag="0"/>
      <vel value="0.0161904003" flag="0"/>
      <psa03 value="0.1031886033" flag="0"/>
      <psa10 value="0.0145990699" flag="0"/>
      <psa30 value="0.0007573687" flag="0"/>
    </comp>
  </station>
  <station code="TETR" name="TETR" netid="HL" insttype="60" lat="39.3445" lon="21.2747">
    <comp name="--.HHN">
      <acc value="0.0415905987" flag="0"/>
      <vel value="0.0179674492" flag="0"/>
      <psa03 value="0.1136391990" flag="0"/>
      <psa10 value="0.0086798210" flag="0"/>
      <psa30 value="0.0006770195" flag="0"/>
    </comp>
    <comp name="--.HHE">
      <acc value="0.0565551752" flag="0"/>
      <vel value="0.0246000650" flag="0"/>
      <psa03 value="0.1364524944" flag="0"/>
      <psa10 value="0.0150537330" flag="0"/>
      <psa30 value="0.0011014940" flag="0"/>
    </comp>
    <comp name="--.HHZ">
      <acc value="0.0272553882" flag="0"/>
      <vel value="0.0118273471" flag="0"/>
      <psa03 value="0.0773958693" flag="0"/>
      <psa10 value="0.0068275916" flag="0"/>
      <psa30 value="0.0003154926" flag="0"/>
    </comp>
  </station>
  <station code="THL" name="THL" netid="HL" insttype="120" lat="39.5647" lon="22.0144">
    <comp name="--.HHE">
      <acc value="0.2211053301" flag="0"/>
      <vel value="0.0741244003" flag="0"/>
      <psa03 value="0.2304065426" flag="0"/>
      <psa10 value="0.0339044117" flag="0"/>
      <psa30 value="0.0018505165" flag="0"/>
    </comp>
    <comp name="--.HHZ">
      <acc value="0.4155427210" flag="0"/>
      <vel value="0.1339692697" flag="0"/>
      <psa03 value="0.4537885173" flag="0"/>
      <psa10 value="0.0480259543" flag="0"/>
      <psa30 value="0.0035248409" flag="0"/>
    </comp>
    <comp name="--.HHN">
      <acc value="0.3541796379" flag="0"/>
      <vel value="0.0867661250" flag="0"/>
      <psa03 value="0.1906233379" flag="0"/>
      <psa10 value="0.0320932970" flag="0"/>
      <psa30 value="0.0022834822" flag="0"/>
    </comp>
  </station>
  <station code="TRKA" name="TRKA" netid="HL" insttype="CMG-5" lat="39.5538" lon="21.7662">
    <comp name="00.HNE">
      <acc value="0.2333751114" flag="0"/>
      <vel value="0.1001794936" flag="0"/>
      <psa03 value="0.5055384454" flag="0"/>
      <psa10 value="0.1073406491" flag="0"/>
      <psa30 value="0.0039222322" flag="0"/>
    </comp>
    <comp name="00.HNN">
      <acc value="0.2016220976" flag="0"/>
      <vel value="0.1069139372" flag="0"/>
      <psa03 value="0.5509259061" flag="0"/>
      <psa10 value="0.0821337698" flag="0"/>
      <psa30 value="0.0051005417" flag="0"/>
    </comp>
    <comp name="00.HNZ">
      <acc value="0.1475220402" flag="0"/>
      <vel value="0.0624177655" flag="0"/>
      <psa03 value="0.3387020542" flag="0"/>
      <psa10 value="0.0480879929" flag="0"/>
      <psa30 value="0.0023196175" flag="0"/>
    </comp>
  </station>
  <station code="KPRO" name="KPRO" netid="HT" insttype="100" lat="39.9549" lon="21.3632">
    <comp name="--.HHE">
      <acc value="0.0190072944" flag="0"/>
      <vel value="0.0091658966" flag="0"/>
      <psa03 value="0.0440412097" flag="0"/>
      <psa10 value="0.0058877055" flag="0"/>
      <psa30 value="0.0005145666" flag="0"/>
    </comp>
    <comp name="--.HHN">
      <acc value="0.0182362877" flag="0"/>
      <vel value="0.0079775483" flag="0"/>
      <psa03 value="0.0706307651" flag="0"/>
      <psa10 value="0.0071955003" flag="0"/>
      <psa30 value="0.0007618509" flag="0"/>
    </comp>
    <comp name="--.HHZ">
      <acc value="0.0098214026" flag="0"/>
      <vel value="0.0044298771" flag="0"/>
      <psa03 value="0.0242887482" flag="0"/>
      <psa10 value="0.0053904889" flag="0"/>
      <psa30 value="0.0004724940" flag="0"/>
    </comp>
  </station>
  <station code="LIT" name="LIT" netid="HT" insttype="100" lat="40.1033" lon="22.4892">
    <comp name="--.HHN">
      <acc value="0.1458781277" flag="0"/>
      <vel value="0.0580590525" flag="0"/>
      <psa03 value="0.2703111456" flag="0"/>
      <psa10 value="0.0148382947" flag="0"/>
      <psa30 value="0.0013085621" flag="0"/>
    </comp>
    <comp name="--.HHE">
      <acc value="0.0914493695" flag="0"/>
      <vel value="0.0427187766" flag="0"/>
      <psa03 value="0.2664385246" flag="0"/>
      <psa10 value="0.0181840956" flag="0"/>
      <psa30 value="0.0014002600" flag="0"/>
    </comp>
    <comp name="--.HHZ">
      <acc value="0.0587727174" flag="0"/>
      <vel value="0.0260288288" flag="0"/>
      <psa03 value="0.1700125770" flag="0"/>
      <psa10 value="0.0101096214" flag="0"/>
      <psa30 value="0.0007672918" flag="0"/>
    </comp>
  </station>
</stationlist>
