<stationlist created="1778138695">
	<station code="ROD3" name="ROD3" netid="CL" source="Corinth Riff Laboratory (CRLNET)" insttype="" lat="38.30811" lon="21.89204">
		<comp name="00.HNE" depth="0.0">
			<acc value="0.00614639822363346" flag="0"/>
			<vel value="0.00312237016849163" flag="0"/>
			<psa03 value="0.0321177917085676" flag="0"/>
			<psa10 value="0.00283295290359947" flag="0"/>
			<psa30 value="0.000199691093138252" flag="0"/>
		</comp>
		<comp name="00.HNN" depth="0.0">
			<acc value="0.00703238114014179" flag="0"/>
			<vel value="0.00383938433868761" flag="0"/>
			<psa03 value="0.036963287178048" flag="0"/>
			<psa10 value="0.00253698821926977" flag="0"/>
			<psa30 value="0.00022363171554548" flag="0"/>
		</comp>
		<comp name="00.HNZ" depth="0.0">
			<acc value="0.0037806474011089" flag="0"/>
			<vel value="0.00197406425664885" flag="0"/>
			<psa03 value="0.0114565388874042" flag="0"/>
			<psa10 value="0.00183876438724333" flag="0"/>
			<psa30 value="0.0002284002085181" flag="0"/>
		</comp>
	</station>
	<station code="AIGS" name="AIGS" netid="HA" source="Hellenic Seismological Network, University of Athens, Seismological Laboratory (HA)" insttype="" lat="38.25001" lon="22.0878">
		<comp name="--.HNE" depth="0.0">
			<acc value="0.0110092892555701" flag="0"/>
			<vel value="0.00338885764998948" flag="0"/>
			<psa03 value="0.0142742633082091" flag="0"/>
			<psa10 value="0.00412247090595282" flag="0"/>
			<psa30 value="0.00100488500619965" flag="0"/>
		</comp>
		<comp name="--.HNN" depth="0.0">
			<acc value="0.0119613165641072" flag="0"/>
			<vel value="0.0032559543116566" flag="0"/>
			<psa03 value="0.0178549197799889" flag="0"/>
			<psa10 value="0.00405709563766754" flag="0"/>
			<psa30 value="0.00107554822896045" flag="0"/>
		</comp>
		<comp name="--.HNZ" depth="0.0">
			<acc value="0.0121981503693874" flag="0"/>
			<vel value="0.0023986733981999" flag="0"/>
			<psa03 value="0.00678526394358129" flag="0"/>
			<psa10 value="0.00342999784552179" flag="0"/>
			<psa30 value="0.000814650945794809" flag="0"/>
		</comp>
	</station>
	<station code="DRES" name="DRES" netid="HA" source="Hellenic Seismological Network, University of Athens, Seismological Laboratory (HA)" insttype="" lat="38.319719" lon="21.853176">
		<comp name="--.HNE" depth="0.0">
			<acc value="0.00367765443056635" flag="0"/>
			<vel value="0.0029767785026404" flag="0"/>
			<psa03 value="0.00880067544948484" flag="0"/>
			<psa10 value="0.00293892343925541" flag="0"/>
			<psa30 value="0.0005633105457263" flag="0"/>
		</comp>
		<comp name="--.HNN" depth="0.0">
			<acc value="0.00314829302756495" flag="0"/>
			<vel value="0.00228899454892274" flag="0"/>
			<psa03 value="0.00798296763451961" flag="0"/>
			<psa10 value="0.00332418786738213" flag="0"/>
			<psa30 value="0.000529817389470455" flag="0"/>
		</comp>
		<comp name="--.HNZ" depth="0.0">
			<acc value="0.00242361351817608" flag="0"/>
			<vel value="0.00135420656968219" flag="0"/>
			<psa03 value="0.00425150006549194" flag="0"/>
			<psa10 value="0.0027026652883109" flag="0"/>
			<psa30 value="0.000574397165574642" flag="0"/>
		</comp>
	</station>
	<station code="KIAS" name="KIAS" netid="HA" source="Hellenic Seismological Network, University of Athens, Seismological Laboratory (HA)" insttype="" lat="37.9875" lon="22.7543">
		<comp name="--.HNE" depth="0.0">
			<acc value="0.00362052692508472" flag="0"/>
			<vel value="0.00207457381334026" flag="0"/>
			<psa03 value="0.00741270329481652" flag="0"/>
			<psa10 value="0.002532381742238" flag="0"/>
			<psa30 value="0.000672340633015278" flag="0"/>
		</comp>
		<comp name="--.HNN" depth="0.0">
			<acc value="0.00334591395917947" flag="0"/>
			<vel value="0.00227354863765574" flag="0"/>
			<psa03 value="0.00780822038127952" flag="0"/>
			<psa10 value="0.00293215142814336" flag="0"/>
			<psa30 value="0.000720340948220385" flag="0"/>
		</comp>
		<comp name="--.HNZ" depth="0.0">
			<acc value="0.00478724709240141" flag="0"/>
			<vel value="0.00173664650075633" flag="0"/>
			<psa03 value="0.00602961492721106" flag="0"/>
			<psa10 value="0.00209151425567968" flag="0"/>
			<psa30 value="0.000862225711971272" flag="0"/>
		</comp>
	</station>
	<station code="ART2" name="ART2" netid="HI" source="ITSAK Strong Motion Network" insttype="" lat="39.1474" lon="20.9937">
		<comp name="--.HNE" depth="0.0">
			<acc value="0.00262961005454924" flag="0"/>
			<vel value="0.0013320483951604" flag="0"/>
			<psa03 value="0.00954711226703103" flag="0"/>
			<psa10 value="0.00114724002245695" flag="0"/>
			<psa30 value="0.000130179144562913" flag="0"/>
		</comp>
		<comp name="--.HNN" depth="0.0">
			<acc value="0.00373260519015972" flag="0"/>
			<vel value="0.00144431700201486" flag="0"/>
			<psa03 value="0.00921792249108705" flag="0"/>
			<psa10 value="0.000954925290363886" flag="0"/>
			<psa30 value="0.000137316023595942" flag="0"/>
		</comp>
		<comp name="--.HNZ" depth="0.0">
			<acc value="0.00266458858980206" flag="0"/>
			<vel value="0.00112645295510989" flag="0"/>
			<psa03 value="0.0072980329380448" flag="0"/>
			<psa10 value="0.00104727550967358" flag="0"/>
			<psa30 value="0.000109085852704628" flag="0"/>
		</comp>
	</station>
	<station code="KLV1" name="KLV1" netid="HI" source="ITSAK Strong Motion Network" insttype="" lat="38.03256" lon="22.10797">
		<comp name="--.HNE" depth="0.0">
			<acc value="0.00327431075558942" flag="0"/>
			<vel value="0.0024536070978478" flag="0"/>
			<psa03 value="0.0101814075412164" flag="0"/>
			<psa10 value="0.00302553683321482" flag="0"/>
			<psa30 value="0.000140891039068968" flag="0"/>
		</comp>
		<comp name="--.HNN" depth="0.0">
			<acc value="0.00410344864289224" flag="0"/>
			<vel value="0.00196863853016056" flag="0"/>
			<psa03 value="0.0154172322534699" flag="0"/>
			<psa10 value="0.00189578363323542" flag="0"/>
			<psa30 value="9.1589263953706e-05" flag="0"/>
		</comp>
		<comp name="--.HNZ" depth="0.0">
			<acc value="0.00209884716516025" flag="0"/>
			<vel value="0.00123109857110056" flag="0"/>
			<psa03 value="0.00551194782178044" flag="0"/>
			<psa10 value="0.00194558622928835" flag="0"/>
			<psa30 value="0.000120647992337442" flag="0"/>
		</comp>
	</station>
	<station code="KRK1" name="KRK1" netid="HI" source="ITSAK Strong Motion Network" insttype="" lat="39.618861" lon="19.9202">
		<comp name="--.HNE" depth="0.0">
			<acc value="0.00635053855528054" flag="0"/>
			<vel value="0.00320008229987836" flag="0"/>
			<psa03 value="0.0212905002349006" flag="0"/>
			<psa10 value="0.00169754034434333" flag="0"/>
			<psa30 value="0.000117282443865699" flag="0"/>
		</comp>
		<comp name="--.HNN" depth="0.0">
			<acc value="0.00576389777394527" flag="0"/>
			<vel value="0.00274797887983754" flag="0"/>
			<psa03 value="0.0137601602410083" flag="0"/>
			<psa10 value="0.00280225618259586" flag="0"/>
			<psa30 value="0.000154034123275348" flag="0"/>
		</comp>
		<comp name="--.HNZ" depth="0.0">
			<acc value="0.00349037401927992" flag="0"/>
			<vel value="0.00125006397728827" flag="0"/>
			<psa03 value="0.00907191867843566" flag="0"/>
			<psa10 value="0.000893493466901698" flag="0"/>
			<psa30 value="7.11970406731708e-05" flag="0"/>
		</comp>
	</station>
	<station code="LMS2" name="LMS2" netid="HI" source="ITSAK Strong Motion Network" insttype="" lat="40.834985" lon="21.141815">
		<comp name="--.HNE" depth="0.0">
			<acc value="0.00495149442792881" flag="0"/>
			<vel value="0.00192260246264171" flag="0"/>
			<psa03 value="0.0120775891435243" flag="0"/>
			<psa10 value="0.0014172900213196" flag="0"/>
			<psa30 value="0.000104600282119913" flag="0"/>
		</comp>
		<comp name="--.HNN" depth="0.0">
			<acc value="0.00541220696925359" flag="0"/>
			<vel value="0.00231830448392054" flag="0"/>
			<psa03 value="0.0136901425818334" flag="0"/>
			<psa10 value="0.00277892260561065" flag="0"/>
			<psa30 value="0.000150235863846995" flag="0"/>
		</comp>
		<comp name="--.HNZ" depth="0.0">
			<acc value="0.00146652778656796" flag="0"/>
			<vel value="0.000891568595904623" flag="0"/>
			<psa03 value="0.00531327320224851" flag="0"/>
			<psa10 value="0.0011887634763105" flag="0"/>
			<psa30 value="0.000153075531127521" flag="0"/>
		</comp>
	</station>
	<station code="MSL1" name="MSL1" netid="HI" source="ITSAK Strong Motion Network" insttype="" lat="38.3727" lon="21.4243">
		<comp name="--.HNE" depth="0.0">
			<acc value="0.00736152063168112" flag="0"/>
			<vel value="0.00607136851010722" flag="0"/>
			<psa03 value="0.0205699629194888" flag="0"/>
			<psa10 value="0.00961032663698098" flag="0"/>
			<psa30 value="0.000836403845149204" flag="0"/>
		</comp>
		<comp name="--.HNN" depth="0.0">
			<acc value="0.00611251818532907" flag="0"/>
			<vel value="0.0067723508973662" flag="0"/>
			<psa03 value="0.0262280473752325" flag="0"/>
			<psa10 value="0.00743885122488537" flag="0"/>
			<psa30 value="0.000571525360752328" flag="0"/>
		</comp>
		<comp name="--.HNZ" depth="0.0">
			<acc value="0.00323907367960983" flag="0"/>
			<vel value="0.00297318017739215" flag="0"/>
			<psa03 value="0.0110753860337168" flag="0"/>
			<psa10 value="0.00569776885547524" flag="0"/>
			<psa30 value="0.00024812935401868" flag="0"/>
		</comp>
	</station>
	<station code="VAS2" name="VAS2" netid="HI" source="ITSAK Strong Motion Network" insttype="" lat="38.630558" lon="20.608081">
		<comp name="--.HNE" depth="0.0">
			<acc value="0.0102249174301347" flag="0"/>
			<vel value="0.00892520789081763" flag="0"/>
			<psa03 value="0.0245278019298169" flag="0"/>
			<psa10 value="0.0186203922596172" flag="0"/>
			<psa30 value="0.00107690363124715" flag="0"/>
		</comp>
		<comp name="--.HNN" depth="0.0">
			<acc value="0.00991900085240622" flag="0"/>
			<vel value="0.0101021061594613" flag="0"/>
			<psa03 value="0.0381255516723459" flag="0"/>
			<psa10 value="0.0272550711396838" flag="0"/>
			<psa30 value="0.00123743020284454" flag="0"/>
		</comp>
		<comp name="--.HNZ" depth="0.0">
			<acc value="0.00513755252367342" flag="0"/>
			<vel value="0.004286738231111" flag="0"/>
			<psa03 value="0.0133796011766705" flag="0"/>
			<psa10 value="0.00703607032388386" flag="0"/>
			<psa30 value="0.000283400544728642" flag="0"/>
		</comp>
	</station>
	<station code="GINA" name="GINA" netid="HL" source="National Observatory of Athens Seismic Network" insttype="" lat="39.66886" lon="22.389">
		<comp name="00.HNE" depth="0.0">
			<acc value="0.180669785102137" flag="0"/>
			<vel value="0.0577653414285125" flag="0"/>
			<psa03 value="0.254250238663954" flag="0"/>
			<psa10 value="0.0270510951272874" flag="0"/>
			<psa30 value="0.00144253295656125" flag="0"/>
		</comp>
		<comp name="00.HNN" depth="0.0">
			<acc value="0.176348476448905" flag="0"/>
			<vel value="0.0642400734374027" flag="0"/>
			<psa03 value="0.375886525637578" flag="0"/>
			<psa10 value="0.0368177677464046" flag="0"/>
			<psa30 value="0.00151649775220202" flag="0"/>
		</comp>
		<comp name="00.HNZ" depth="0.0">
			<acc value="0.143682379841498" flag="0"/>
			<vel value="0.0303060335480795" flag="0"/>
			<psa03 value="0.164876443088618" flag="0"/>
			<psa10 value="0.0222474712857722" flag="0"/>
			<psa30 value="0.00091397440048326" flag="0"/>
		</comp>
	</station>
	<station code="SOFA" name="SOFA" netid="HL" source="National Observatory of Athens Seismic Network" insttype="" lat="39.33773" lon="22.09691">
		<comp name="00.HNE" depth="0.0">
			<acc value="0.0571899186116961" flag="0"/>
			<vel value="0.0316378783379193" flag="0"/>
			<psa03 value="0.178902726427833" flag="0"/>
			<psa10 value="0.0161887668013492" flag="0"/>
			<psa30 value="0.00190891333113912" flag="0"/>
		</comp>
		<comp name="00.HNN" depth="0.0">
			<acc value="0.0654793041194502" flag="0"/>
			<vel value="0.0315186244752623" flag="0"/>
			<psa03 value="0.23115752138487" flag="0"/>
			<psa10 value="0.0333203160574181" flag="0"/>
			<psa30 value="0.00205463715129411" flag="0"/>
		</comp>
		<comp name="00.HNZ" depth="0.0">
			<acc value="0.0480786634665503" flag="0"/>
			<vel value="0.0165411901205062" flag="0"/>
			<psa03 value="0.103733236401055" flag="0"/>
			<psa10 value="0.0146071614027601" flag="0"/>
			<psa30 value="0.000860114634624389" flag="0"/>
		</comp>
	</station>
	<station code="TRKA" name="TRKA" netid="HL" source="National Observatory of Athens Seismic Network" insttype="" lat="39.55381" lon="21.76624">
		<comp name="00.HNE" depth="0.0">
			<acc value="0.234057972463121" flag="0"/>
			<vel value="0.100575054863867" flag="0"/>
			<psa03 value="0.507646420749478" flag="0"/>
			<psa10 value="0.107403837477295" flag="0"/>
			<psa30 value="0.00393782586163842" flag="0"/>
		</comp>
		<comp name="00.HNN" depth="0.0">
			<acc value="0.201795354073857" flag="0"/>
			<vel value="0.107083906817823" flag="0"/>
			<psa03 value="0.551742425230023" flag="0"/>
			<psa10 value="0.0821641704729923" flag="0"/>
			<psa30 value="0.00523597102405662" flag="0"/>
		</comp>
		<comp name="00.HNZ" depth="0.0">
			<acc value="0.147308102499968" flag="0"/>
			<vel value="0.0627516371616819" flag="0"/>
			<psa03 value="0.337832713092529" flag="0"/>
			<psa10 value="0.0481725599458362" flag="0"/>
			<psa30 value="0.00229762595644455" flag="0"/>
		</comp>
	</station>
	<station code="DSF" name="DSF" netid="HP" source="University of Patras, Seismological Laboratory (PSLNET)" insttype="" lat="38.4112" lon="22.5271">
		<comp name="--.HNE" depth="1.0">
			<acc value="0.00352324348050043" flag="0"/>
			<vel value="0.00214321430024148" flag="0"/>
			<psa03 value="0.00884242951754363" flag="0"/>
			<psa10 value="0.00277146992440469" flag="0"/>
			<psa30 value="0.000147516100342461" flag="0"/>
		</comp>
		<comp name="--.HNN" depth="1.0">
			<acc value="0.00449892822210433" flag="0"/>
			<vel value="0.00244151798194923" flag="0"/>
			<psa03 value="0.0128202099530772" flag="0"/>
			<psa10 value="0.00193444400679516" flag="0"/>
			<psa30 value="9.79789645838923e-05" flag="0"/>
		</comp>
		<comp name="--.HNZ" depth="1.0">
			<acc value="0.00223107620959103" flag="0"/>
			<vel value="0.00151529818876835" flag="0"/>
			<psa03 value="0.00564198963956106" flag="0"/>
			<psa10 value="0.00241752663365144" flag="0"/>
			<psa30 value="7.68835436784441e-05" flag="0"/>
		</comp>
	</station>
	<station code="PDO" name="PDO" netid="HP" source="University of Patras, Seismological Laboratory (PSLNET)" insttype="" lat="38.5986" lon="21.1833">
		<comp name="--.HNE" depth="0.0">
			<acc value="0.0056881049497931" flag="0"/>
			<vel value="0.00320509818824585" flag="0"/>
			<psa03 value="0.0215205623503968" flag="0"/>
			<psa10 value="0.00250341927674089" flag="0"/>
			<psa30 value="0.000125013372668081" flag="0"/>
		</comp>
		<comp name="--.HNN" depth="0.0">
			<acc value="0.00740320511219501" flag="0"/>
			<vel value="0.00403536355605138" flag="0"/>
			<psa03 value="0.0276979963146462" flag="0"/>
			<psa10 value="0.00262713856628825" flag="0"/>
			<psa30 value="0.000234802403465412" flag="0"/>
		</comp>
		<comp name="--.HNZ" depth="0.0">
			<acc value="0.00403484779854303" flag="0"/>
			<vel value="0.00168798865846688" flag="0"/>
			<psa03 value="0.0106719979830967" flag="0"/>
			<psa10 value="0.00138572757890202" flag="0"/>
			<psa30 value="0.00010923534828481" flag="0"/>
		</comp>
	</station>
	<station code="SERG" name="SERG" netid="HP" source="University of Patras, Seismological Laboratory (PSLNET)" insttype="" lat="38.4133" lon="22.0566">
		<comp name="--.HNE" depth="0.0">
			<acc value="0.0106676096228834" flag="0"/>
			<vel value="0.00581162171314922" flag="0"/>
			<psa03 value="0.0313892929282663" flag="0"/>
			<psa10 value="0.00615427769070792" flag="0"/>
			<psa30 value="0.00039786612230293" flag="0"/>
		</comp>
		<comp name="--.HNN" depth="0.0">
			<acc value="0.00920932154358486" flag="0"/>
			<vel value="0.00481659233422045" flag="0"/>
			<psa03 value="0.0287665931456064" flag="0"/>
			<psa10 value="0.00445861926789367" flag="0"/>
			<psa30 value="0.000330648778858874" flag="0"/>
		</comp>
		<comp name="--.HNZ" depth="0.0">
			<acc value="0.00572289322754722" flag="0"/>
			<vel value="0.00393254818262287" flag="0"/>
			<psa03 value="0.0193464508782372" flag="0"/>
			<psa10 value="0.00384117508399652" flag="0"/>
			<psa30 value="0.00026463276499673" flag="0"/>
		</comp>
	</station>
</stationlist>
