<?xml version="1.0" encoding="UTF-8" standalone="yes"?>
<!DOCTYPE earthquake SYSTEM "stationlist.dtd">
<stationlist created="" xmlns="ch.ethz.sed.shakemap.usgs.xml">
  <station code="EVR" name="EVR" netid="HL" insttype="DR24" lat="38.9166" lon="21.8105">
    <comp name="--.HHE">
      <acc value="0.0096905454" flag="0"/>
      <vel value="0.0042725458" flag="0"/>
      <psa03 value="0.0155482864" flag="0"/>
      <psa10 value="0.0032519508" flag="0"/>
      <psa30 value="0.0004707906" flag="0"/>
    </comp>
    <comp name="--.HHN">
      <acc value="0.0157050590" flag="0"/>
      <vel value="0.0061205196" flag="0"/>
      <psa03 value="0.0280368932" flag="0"/>
      <psa10 value="0.0033527542" flag="0"/>
      <psa30 value="0.0007061080" flag="0"/>
    </comp>
    <comp name="--.HHZ">
      <acc value="0.0100546204" flag="0"/>
      <vel value="0.0052749647" flag="0"/>
      <psa03 value="0.0194985242" flag="0"/>
      <psa10 value="0.0046615306" flag="0"/>
      <psa30 value="0.0003478216" flag="0"/>
    </comp>
  </station>
  <station code="GINA" name="GINA" netid="HL" insttype="CMG-5" lat="39.6689" lon="22.389">
    <comp name="00.HNN">
      <acc value="0.1756380068" flag="0"/>
      <vel value="0.0643086680" flag="0"/>
      <psa03 value="0.3754418843" flag="0"/>
      <psa10 value="0.0367964844" flag="0"/>
      <psa30 value="0.0015542756" flag="0"/>
    </comp>
    <comp name="00.HNE">
      <acc value="0.1817053233" flag="0"/>
      <vel value="0.0576095491" flag="0"/>
      <psa03 value="0.2543003616" flag="0"/>
      <psa10 value="0.0233387976" flag="0"/>
      <psa30 value="0.0014452129" flag="0"/>
    </comp>
    <comp name="00.HNZ">
      <acc value="0.1429238250" flag="0"/>
      <vel value="0.0302089998" flag="0"/>
      <psa03 value="0.1638108176" flag="0"/>
      <psa10 value="0.0222427726" flag="0"/>
      <psa30 value="0.0008641086" flag="0"/>
    </comp>
  </station>
  <station code="KZN" name="KZN" netid="HL" insttype="120" lat="40.3033" lon="21.7821">
    <comp name="--.HHZ">
      <acc value="0.0124549561" flag="0"/>
      <vel value="0.0061193735" flag="0"/>
      <psa03 value="0.0237445810" flag="0"/>
      <psa10 value="0.0034692784" flag="0"/>
      <psa30 value="0.0003249022" flag="0"/>
    </comp>
    <comp name="--.HHE">
      <acc value="0.0482370235" flag="0"/>
      <vel value="0.0172952831" flag="0"/>
      <psa03 value="0.0971860758" flag="0"/>
      <psa10 value="0.0087969644" flag="0"/>
      <psa30 value="0.0006388476" flag="0"/>
    </comp>
    <comp name="--.HHN">
      <acc value="0.0295623049" flag="0"/>
      <vel value="0.0158579996" flag="0"/>
      <psa03 value="0.0937928868" flag="0"/>
      <psa10 value="0.0096577225" flag="0"/>
      <psa30 value="0.0006694732" flag="0"/>
    </comp>
  </station>
  <station code="SOFA" name="SOFA" netid="HL" insttype="CMG-5" lat="39.3377" lon="22.0969">
    <comp name="00.HNZ">
      <acc value="0.0475106604" flag="0"/>
      <vel value="0.0161903995" flag="0"/>
      <psa03 value="0.1031886033" flag="0"/>
      <psa10 value="0.0145990708" flag="0"/>
      <psa30 value="0.0007574236" flag="0"/>
    </comp>
    <comp name="00.HNE">
      <acc value="0.0571415864" flag="0"/>
      <vel value="0.0318397467" flag="0"/>
      <psa03 value="0.1784745047" flag="0"/>
      <psa10 value="0.0161863823" flag="0"/>
      <psa30 value="0.0018829162" flag="0"/>
    </comp>
    <comp name="00.HNN">
      <acc value="0.0654140189" flag="0"/>
      <vel value="0.0313022610" flag="0"/>
      <psa03 value="0.2321039469" flag="0"/>
      <psa10 value="0.0332591575" flag="0"/>
      <psa30 value="0.0019426710" flag="0"/>
    </comp>
  </station>
  <station code="TETR" name="TETR" netid="HL" insttype="60" lat="39.3445" lon="21.2747">
    <comp name="--.HHN">
      <acc value="0.0415905974" flag="0"/>
      <vel value="0.0179674493" flag="0"/>
      <psa03 value="0.1136391990" flag="0"/>
      <psa10 value="0.0086798210" flag="0"/>
      <psa30 value="0.0006770070" flag="0"/>
    </comp>
    <comp name="--.HHE">
      <acc value="0.0565551740" flag="0"/>
      <vel value="0.0246000623" flag="0"/>
      <psa03 value="0.1364524944" flag="0"/>
      <psa10 value="0.0150537330" flag="0"/>
      <psa30 value="0.0011015362" flag="0"/>
    </comp>
    <comp name="--.HHZ">
      <acc value="0.0272553888" flag="0"/>
      <vel value="0.0118273474" flag="0"/>
      <psa03 value="0.0773958693" flag="0"/>
      <psa10 value="0.0068275916" flag="0"/>
      <psa30 value="0.0003154842" flag="0"/>
    </comp>
  </station>
  <station code="THL" name="THL" netid="HL" insttype="120" lat="39.5647" lon="22.0144">
    <comp name="--.HHE">
      <acc value="0.2211053300" flag="0"/>
      <vel value="0.0741244001" flag="0"/>
      <psa03 value="0.2304065426" flag="0"/>
      <psa10 value="0.0339044118" flag="0"/>
      <psa30 value="0.0018505088" flag="0"/>
    </comp>
    <comp name="--.HHN">
      <acc value="0.3541796387" flag="0"/>
      <vel value="0.0867661264" flag="0"/>
      <psa03 value="0.1906233379" flag="0"/>
      <psa10 value="0.0320932971" flag="0"/>
      <psa30 value="0.0022833782" flag="0"/>
    </comp>
    <comp name="--.HHZ">
      <acc value="0.4155427209" flag="0"/>
      <vel value="0.1339692698" flag="0"/>
      <psa03 value="0.4537885173" flag="0"/>
      <psa10 value="0.0480259544" flag="0"/>
      <psa30 value="0.0035248557" flag="0"/>
    </comp>
  </station>
  <station code="TRKA" name="TRKA" netid="HL" insttype="CMG-5" lat="39.5538" lon="21.7662">
    <comp name="00.HNN">
      <acc value="0.2016220977" flag="0"/>
      <vel value="0.1069139374" flag="0"/>
      <psa03 value="0.5509259061" flag="0"/>
      <psa10 value="0.0821337688" flag="0"/>
      <psa30 value="0.0051005873" flag="0"/>
    </comp>
    <comp name="00.HNZ">
      <acc value="0.1475220367" flag="0"/>
      <vel value="0.0624177656" flag="0"/>
      <psa03 value="0.3387020542" flag="0"/>
      <psa10 value="0.0480879926" flag="0"/>
      <psa30 value="0.0023196098" flag="0"/>
    </comp>
    <comp name="00.HNE">
      <acc value="0.2333751139" flag="0"/>
      <vel value="0.1001794939" flag="0"/>
      <psa03 value="0.5055384454" flag="0"/>
      <psa10 value="0.1073406505" flag="0"/>
      <psa30 value="0.0039223886" flag="0"/>
    </comp>
  </station>
  <station code="KPRO" name="KPRO" netid="HT" insttype="100" lat="39.9549" lon="21.3632">
    <comp name="--.HHZ">
      <acc value="0.0098214008" flag="0"/>
      <vel value="0.0044298800" flag="0"/>
      <psa03 value="0.0242887482" flag="0"/>
      <psa10 value="0.0053904889" flag="0"/>
      <psa30 value="0.0004724824" flag="0"/>
    </comp>
    <comp name="--.HHN">
      <acc value="0.0182362883" flag="0"/>
      <vel value="0.0079775466" flag="0"/>
      <psa03 value="0.0706307651" flag="0"/>
      <psa10 value="0.0071955003" flag="0"/>
      <psa30 value="0.0007618709" flag="0"/>
    </comp>
    <comp name="--.HHE">
      <acc value="0.0190072959" flag="0"/>
      <vel value="0.0091658933" flag="0"/>
      <psa03 value="0.0440412097" flag="0"/>
      <psa10 value="0.0058877055" flag="0"/>
      <psa30 value="0.0005146487" flag="0"/>
    </comp>
  </station>
  <station code="LIT" name="LIT" netid="HT" insttype="100" lat="40.1033" lon="22.4892">
    <comp name="--.HHN">
      <acc value="0.1458781279" flag="0"/>
      <vel value="0.0580590524" flag="0"/>
      <psa03 value="0.2703111456" flag="0"/>
      <psa10 value="0.0148382949" flag="0"/>
      <psa30 value="0.0013086277" flag="0"/>
    </comp>
    <comp name="--.HHE">
      <acc value="0.0914493684" flag="0"/>
      <vel value="0.0427187762" flag="0"/>
      <psa03 value="0.2664385246" flag="0"/>
      <psa10 value="0.0181840954" flag="0"/>
      <psa30 value="0.0014002406" flag="0"/>
    </comp>
    <comp name="--.HHZ">
      <acc value="0.0587727182" flag="0"/>
      <vel value="0.0260288292" flag="0"/>
      <psa03 value="0.1700125770" flag="0"/>
      <psa10 value="0.0101096214" flag="0"/>
      <psa30 value="0.0007674150" flag="0"/>
    </comp>
  </station>
</stationlist>
