<?xml version="1.0" encoding="UTF-8" standalone="yes"?>
<!DOCTYPE earthquake SYSTEM "stationlist.dtd">
<stationlist created="" xmlns="ch.ethz.sed.shakemap.usgs.xml">
  <station code="ARPRA" name="ARPRA" netid="KO" insttype="CMG-5T" lat="39.0929" lon="38.3356">
    <comp name="--.HNE">
      <acc value="0.1382111731" flag="0"/>
      <vel value="0.0534263078" flag="0"/>
      <psa03 value="0.2825315878" flag="0"/>
      <psa10 value="0.0496851054" flag="0"/>
      <psa30 value="0.0107708128" flag="0"/>
    </comp>
    <comp name="--.HNN">
      <acc value="0.1232875574" flag="0"/>
      <vel value="0.0605054438" flag="0"/>
      <psa03 value="0.2886298317" flag="0"/>
      <psa10 value="0.1006620482" flag="0"/>
      <psa30 value="0.0066241651" flag="0"/>
    </comp>
  </station>
  <station code="DARE" name="DARE" netid="KO" insttype="CMG-3ESP" lat="38.5712" lon="37.4832">
    <comp name="--.HHN">
      <acc value="0.2038417123" flag="0"/>
      <vel value="0.0993731385" flag="0"/>
      <psa03 value="0.4544388995" flag="0"/>
      <psa10 value="0.0841780074" flag="0"/>
      <psa30 value="0.0079116365" flag="0"/>
    </comp>
    <comp name="--.HHZ">
      <acc value="0.1130378040" flag="0"/>
      <vel value="0.0580483350" flag="0"/>
      <psa03 value="0.3166881492" flag="0"/>
      <psa10 value="0.0517691893" flag="0"/>
      <psa30 value="0.0038331987" flag="0"/>
    </comp>
  </station>
  <station code="GAZ" name="GAZ" netid="KO" insttype="CMG-3T" lat="37.1721" lon="37.2096">
    <comp name="--.HHE">
      <acc value="0.0541390827" flag="0"/>
      <vel value="0.0512536864" flag="0"/>
      <psa03 value="0.1072852386" flag="0"/>
      <psa10 value="0.0972873397" flag="0"/>
      <psa30 value="0.0037233987" flag="0"/>
    </comp>
    <comp name="--.HHZ">
      <acc value="0.0382450778" flag="0"/>
      <vel value="0.0249218034" flag="0"/>
      <psa03 value="0.0753077452" flag="0"/>
      <psa10 value="0.0318805281" flag="0"/>
      <psa30 value="0.0020874424" flag="0"/>
    </comp>
  </station>
  <station code="KHMN" name="KHMN" netid="KO" insttype="CMG-5T" lat="37.3916" lon="37.1574">
    <comp name="--.HNE">
      <acc value="0.1299326255" flag="0"/>
      <vel value="0.0557602011" flag="0"/>
      <psa03 value="0.1112390572" flag="0"/>
      <psa10 value="0.0415756876" flag="0"/>
      <psa30 value="0.0068748085" flag="0"/>
    </comp>
    <comp name="--.HNN">
      <acc value="0.1016956530" flag="0"/>
      <vel value="0.0459804253" flag="0"/>
      <psa03 value="0.1002712170" flag="0"/>
      <psa10 value="0.0624869198" flag="0"/>
      <psa30 value="0.0046614576" flag="0"/>
    </comp>
    <comp name="--.HNZ">
      <acc value="0.0575133625" flag="0"/>
      <vel value="0.0261532096" flag="0"/>
      <psa03 value="0.0646651960" flag="0"/>
      <psa10 value="0.0360834345" flag="0"/>
      <psa30 value="0.0056299983" flag="0"/>
    </comp>
  </station>
  <station code="KMRS" name="KMRS" netid="KO" insttype="CMG-3T" lat="37.5053" lon="36.9">
    <comp name="--.HHE">
      <acc value="0.0496057813" flag="0"/>
      <vel value="0.0261324863" flag="0"/>
      <psa03 value="0.0699296860" flag="0"/>
      <psa10 value="0.0578126662" flag="0"/>
      <psa30 value="0.0046946135" flag="0"/>
    </comp>
    <comp name="--.HHZ">
      <acc value="0.0285801707" flag="0"/>
      <vel value="0.0215848022" flag="0"/>
      <psa03 value="0.0771357924" flag="0"/>
      <psa10 value="0.0282170114" flag="0"/>
      <psa30 value="0.0045021340" flag="0"/>
    </comp>
    <comp name="--.HHN">
      <acc value="0.0956753231" flag="0"/>
      <vel value="0.0487535565" flag="0"/>
      <psa03 value="0.1721617956" flag="0"/>
      <psa10 value="0.0795252156" flag="0"/>
      <psa30 value="0.0083812369" flag="0"/>
    </comp>
  </station>
  <station code="SVRC" name="SVRC" netid="KO" insttype="CMG-3T" lat="38.3775" lon="39.306">
    <comp name="--.HHN">
      <acc value="0.0560774641" flag="0"/>
      <vel value="0.0304648120" flag="0"/>
      <psa03 value="0.1549857045" flag="0"/>
      <psa10 value="0.0290655085" flag="0"/>
      <psa30 value="0.0020365520" flag="0"/>
    </comp>
  </station>
  <station code="URFA" name="URFA" netid="KO" insttype="CMG-3ESP" lat="37.4409" lon="38.8213">
    <comp name="--.HHZ">
      <acc value="0.1686737104" flag="0"/>
      <vel value="0.0969307519" flag="0"/>
      <psa03 value="0.4567800051" flag="0"/>
      <psa10 value="0.0571904022" flag="0"/>
      <psa30 value="0.0053106652" flag="0"/>
    </comp>
    <comp name="--.HHE">
      <acc value="0.2915022970" flag="0"/>
      <vel value="0.1302990037" flag="0"/>
      <psa03 value="0.7145089247" flag="0"/>
      <psa10 value="0.1442743022" flag="0"/>
      <psa30 value="0.0092489694" flag="0"/>
    </comp>
    <comp name="--.HHN">
      <acc value="0.3772672043" flag="0"/>
      <vel value="0.2274941291" flag="0"/>
      <psa03 value="0.8306701200" flag="0"/>
      <psa10 value="0.1522463842" flag="0"/>
      <psa30 value="0.0114630521" flag="0"/>
    </comp>
  </station>
</stationlist>
