<?xml version="1.0" encoding="UTF-8" standalone="yes"?>
<!DOCTYPE earthquake SYSTEM "stationlist.dtd">
<stationlist created="" xmlns="ch.ethz.sed.shakemap.usgs.xml">
  <station code="BNN" name="BNN" netid="KO" insttype="CMG-3T" lat="38.8521" lon="35.8472">
    <comp name="--.HHE">
      <acc value="0.0094168834" flag="0"/>
      <vel value="0.0118099784" flag="0"/>
      <psa03 value="0.0232544528" flag="0"/>
      <psa10 value="0.0227594317" flag="0"/>
      <psa30 value="0.0018119157" flag="0"/>
    </comp>
    <comp name="--.HHZ">
      <acc value="0.0057035297" flag="0"/>
      <vel value="0.0060485690" flag="0"/>
      <psa03 value="0.0150227372" flag="0"/>
      <psa10 value="0.0115268239" flag="0"/>
      <psa30 value="0.0020755135" flag="0"/>
    </comp>
    <comp name="--.HHN">
      <acc value="0.0000098182" flag="0"/>
      <vel value="0.0000010123" flag="0"/>
      <psa03 value="0.0000031277" flag="0"/>
      <psa10 value="0.0000011193" flag="0"/>
      <psa30 value="0.0000001842" flag="0"/>
    </comp>
  </station>
  <station code="DARE" name="DARE" netid="KO" insttype="CMG-3ESP" lat="38.5712" lon="37.4832">
    <comp name="--.HHN">
      <acc value="0.0000714188" flag="0"/>
      <vel value="0.0000180732" flag="0"/>
      <psa03 value="0.0000990289" flag="0"/>
      <psa10 value="0.0000196690" flag="0"/>
      <psa30 value="0.0000015971" flag="0"/>
    </comp>
    <comp name="--.HHE">
      <acc value="0.0843116766" flag="0"/>
      <vel value="0.0251247620" flag="0"/>
      <psa03 value="0.1497148472" flag="0"/>
      <psa10 value="0.0297308123" flag="0"/>
      <psa30 value="0.0033026687" flag="0"/>
    </comp>
    <comp name="--.HHZ">
      <acc value="0.0904370346" flag="0"/>
      <vel value="0.0251282603" flag="0"/>
      <psa03 value="0.1199893161" flag="0"/>
      <psa10 value="0.0246890640" flag="0"/>
      <psa30 value="0.0045882375" flag="0"/>
    </comp>
  </station>
</stationlist>
