<?xml version="1.0" encoding="UTF-8" standalone="yes"?>
<!DOCTYPE earthquake SYSTEM "stationlist.dtd">
<stationlist created="" xmlns="ch.ethz.sed.shakemap.usgs.xml">
  <station code="URFA" name="URFA" netid="KO" insttype="CMG-3ESP" lat="37.4409" lon="38.8213">
    <comp name="--.HHE">
      <acc value="0.0089049488" flag="0"/>
      <vel value="0.0062749690" flag="0"/>
      <psa03 value="0.0159620372" flag="0"/>
      <psa10 value="0.0074800489" flag="0"/>
      <psa30 value="0.0052735201" flag="0"/>
    </comp>
    <comp name="--.HHZ">
      <acc value="0.0051257114" flag="0"/>
      <vel value="0.0032259879" flag="0"/>
      <psa03 value="0.0138807703" flag="0"/>
      <psa10 value="0.0057693190" flag="0"/>
      <psa30 value="0.0012329506" flag="0"/>
    </comp>
    <comp name="--.HHN">
      <acc value="0.0088946547" flag="0"/>
      <vel value="0.0037715824" flag="0"/>
      <psa03 value="0.0150636896" flag="0"/>
      <psa10 value="0.0053499381" flag="0"/>
      <psa30 value="0.0019490438" flag="0"/>
    </comp>
  </station>
</stationlist>
