<?xml version="1.0" encoding="UTF-8" standalone="yes"?>
<!DOCTYPE earthquake SYSTEM "stationlist.dtd">
<stationlist created="" xmlns="ch.ethz.sed.shakemap.usgs.xml">
  <station code="CAVT" name="CAVT" netid="IV" insttype="" commtype="DIG" lat="37.6788" lon="12.7556">
    <comp name="--.HHE">
      <acc value="0.0319677391" flag="0"/>
      <vel value="0.0186492032" flag="0"/>
      <psa03 value="0.1076759386" flag="0"/>
      <psa10 value="0.0300547314" flag="0"/>
      <psa30 value="0.0035691833" flag="0"/>
    </comp>
    <comp name="--.HHN">
      <acc value="0.0280255165" flag="0"/>
      <vel value="0.0168010812" flag="0"/>
      <psa03 value="0.1022932507" flag="0"/>
      <psa10 value="0.0215458327" flag="0"/>
      <psa30 value="0.0019374398" flag="0"/>
    </comp>
    <comp name="--.HHZ">
      <acc value="0.0250966442" flag="0"/>
      <vel value="0.0123818094" flag="0"/>
      <psa03 value="0.0790353644" flag="0"/>
      <psa10 value="0.0161395001" flag="0"/>
      <psa30 value="0.0014934469" flag="0"/>
    </comp>
  </station>
  <station code="CIMI" name="CIMI" netid="IV" insttype="" commtype="DIG" lat="37.8815" lon="13.5726">
    <comp name="--.HHE">
      <acc value="0.0174944940" flag="0"/>
      <vel value="0.0166461338" flag="0"/>
      <psa03 value="0.0297027327" flag="0"/>
      <psa10 value="0.0283918820" flag="0"/>
      <psa30 value="0.0014054329" flag="0"/>
    </comp>
    <comp name="--.HHN">
      <acc value="0.0207696783" flag="0"/>
      <vel value="0.0207914258" flag="0"/>
      <psa03 value="0.0453457906" flag="0"/>
      <psa10 value="0.0215480291" flag="0"/>
      <psa30 value="0.0012550668" flag="0"/>
    </comp>
    <comp name="--.HHZ">
      <acc value="0.0142707901" flag="0"/>
      <vel value="0.0111378409" flag="0"/>
      <psa03 value="0.0448118054" flag="0"/>
      <psa10 value="0.0072760525" flag="0"/>
      <psa30 value="0.0012178568" flag="0"/>
    </comp>
  </station>
  <station code="CLTB" name="CLTB" netid="IV" insttype="" commtype="DIG" lat="37.5786" lon="13.2156">
    <comp name="--.HHE">
      <acc value="0.0284811355" flag="0"/>
      <vel value="0.0220699821" flag="0"/>
      <psa03 value="0.1215234175" flag="0"/>
      <psa10 value="0.0271816207" flag="0"/>
      <psa30 value="0.0012403628" flag="0"/>
    </comp>
    <comp name="--.HHN">
      <acc value="0.0515720195" flag="0"/>
      <vel value="0.0354969553" flag="0"/>
      <psa03 value="0.1680326758" flag="0"/>
      <psa10 value="0.0378128797" flag="0"/>
      <psa30 value="0.0026928016" flag="0"/>
    </comp>
    <comp name="--.HHZ">
      <acc value="0.0191534191" flag="0"/>
      <vel value="0.0112841265" flag="0"/>
      <psa03 value="0.0774060770" flag="0"/>
      <psa10 value="0.0136577108" flag="0"/>
      <psa30 value="0.0006417012" flag="0"/>
    </comp>
  </station>
  <station code="CORL" name="CORL" netid="IV" insttype="" commtype="DIG" lat="37.8943" lon="13.3038">
    <comp name="--.HHE">
      <acc value="0.0393556340" flag="0"/>
      <vel value="0.0274791335" flag="0"/>
      <psa03 value="0.1225618758" flag="0"/>
      <psa10 value="0.0242681792" flag="0"/>
      <psa30 value="0.0016823914" flag="0"/>
    </comp>
    <comp name="--.HHN">
      <acc value="0.0284400069" flag="0"/>
      <vel value="0.0232191499" flag="0"/>
      <psa03 value="0.1005737422" flag="0"/>
      <psa10 value="0.0461190234" flag="0"/>
      <psa30 value="0.0023118841" flag="0"/>
    </comp>
    <comp name="--.HHZ">
      <acc value="0.0145389234" flag="0"/>
      <vel value="0.0118138075" flag="0"/>
      <psa03 value="0.0601995552" flag="0"/>
      <psa10 value="0.0166671009" flag="0"/>
      <psa30 value="0.0010122010" flag="0"/>
    </comp>
  </station>
  <station code="CRJA" name="CRJA" netid="IV" insttype="" commtype="DIG" lat="37.8016" lon="13.0043">
    <comp name="--.HHE">
      <acc value="0.0285363373" flag="0"/>
      <vel value="0.0212494790" flag="0"/>
      <psa03 value="0.0953449923" flag="0"/>
      <psa10 value="0.0364644079" flag="0"/>
      <psa30 value="0.0022694418" flag="0"/>
    </comp>
    <comp name="--.HHN">
      <acc value="0.0389257840" flag="0"/>
      <vel value="0.0296069435" flag="0"/>
      <psa03 value="0.0850498955" flag="0"/>
      <psa10 value="0.0413524386" flag="0"/>
      <psa30 value="0.0025460294" flag="0"/>
    </comp>
    <comp name="--.HHZ">
      <acc value="0.0204313778" flag="0"/>
      <vel value="0.0205148218" flag="0"/>
      <psa03 value="0.0481827264" flag="0"/>
      <psa10 value="0.0253635936" flag="0"/>
      <psa30 value="0.0015811611" flag="0"/>
    </comp>
  </station>
  <station code="LEVAN" name="LEVAN" netid="IV" insttype="" commtype="DIG" lat="37.9913" lon="12.3456">
    <comp name="--.HHE">
      <acc value="1.6268264859" flag="0"/>
      <vel value="0.5212749646" flag="0"/>
      <psa03 value="1.6676138130" flag="0"/>
      <psa10 value="0.1288927391" flag="0"/>
      <psa30 value="0.0159157441" flag="0"/>
    </comp>
    <comp name="--.HHZ">
      <acc value="2.9715039822" flag="0"/>
      <vel value="0.6919747803" flag="0"/>
      <psa03 value="2.9085189614" flag="0"/>
      <psa10 value="0.1608066358" flag="0"/>
      <psa30 value="0.0155033159" flag="0"/>
    </comp>
    <comp name="--.HHN">
      <acc value="3.2625682213" flag="0"/>
      <vel value="0.9877642429" flag="0"/>
      <psa03 value="3.2575594563" flag="0"/>
      <psa10 value="0.1416763369" flag="0"/>
      <psa30 value="0.0125936952" flag="0"/>
    </comp>
  </station>
  <station code="MARIO" name="MARIO" netid="IV" insttype="" commtype="DIG" lat="37.9544" lon="13.433">
    <comp name="--.HHE">
      <acc value="0.0058858435" flag="0"/>
      <vel value="0.0042675779" flag="0"/>
      <psa03 value="0.0197468587" flag="0"/>
      <psa10 value="0.0069500049" flag="0"/>
      <psa30 value="0.0004108969" flag="0"/>
    </comp>
    <comp name="--.HHN">
      <acc value="0.0061730967" flag="0"/>
      <vel value="0.0047708890" flag="0"/>
      <psa03 value="0.0142183384" flag="0"/>
      <psa10 value="0.0098804886" flag="0"/>
      <psa30 value="0.0004459816" flag="0"/>
    </comp>
    <comp name="--.HHZ">
      <acc value="0.0035405038" flag="0"/>
      <vel value="0.0034259461" flag="0"/>
      <psa03 value="0.0121976727" flag="0"/>
      <psa10 value="0.0041322578" flag="0"/>
      <psa30 value="0.0004558693" flag="0"/>
    </comp>
  </station>
  <station code="MARS" name="MARS" netid="IV" insttype="" commtype="DIG" lat="37.7532" lon="12.5647">
    <comp name="--.HNE">
      <acc value="0.0414394991" flag="0"/>
      <vel value="0.0191618904" flag="0"/>
      <psa03 value="0.1348459845" flag="0"/>
      <psa10 value="0.0259877974" flag="0"/>
      <psa30 value="0.0073369523" flag="0"/>
    </comp>
    <comp name="--.HNN">
      <acc value="0.0407746029" flag="0"/>
      <vel value="0.0195698859" flag="0"/>
      <psa03 value="0.0888581981" flag="0"/>
      <psa10 value="0.0258124931" flag="0"/>
      <psa30 value="0.0051930520" flag="0"/>
    </comp>
    <comp name="--.HNZ">
      <acc value="0.0403628283" flag="0"/>
      <vel value="0.0152462898" flag="0"/>
      <psa03 value="0.0773337541" flag="0"/>
      <psa10 value="0.0207442998" flag="0"/>
      <psa30 value="0.0044674047" flag="0"/>
    </comp>
  </station>
  <station code="MBFT" name="MBFT" netid="IV" insttype="" commtype="DIG" lat="37.9461" lon="12.9535">
    <comp name="--.HHN">
      <acc value="0.0313873577" flag="0"/>
      <vel value="0.0213169724" flag="0"/>
      <psa03 value="0.1312765491" flag="0"/>
      <psa10 value="0.0175364582" flag="0"/>
      <psa30 value="0.0011523117" flag="0"/>
    </comp>
    <comp name="--.HHE">
      <acc value="0.0674899461" flag="0"/>
      <vel value="0.0335654729" flag="0"/>
      <psa03 value="0.2291038967" flag="0"/>
      <psa10 value="0.0143068051" flag="0"/>
      <psa30 value="0.0009864201" flag="0"/>
    </comp>
    <comp name="--.HHZ">
      <acc value="0.0240614745" flag="0"/>
      <vel value="0.0148557995" flag="0"/>
      <psa03 value="0.0770939581" flag="0"/>
      <psa10 value="0.0099745471" flag="0"/>
      <psa30 value="0.0005954671" flag="0"/>
    </comp>
  </station>
  <station code="MFNL" name="MFNL" netid="IV" insttype="" commtype="DIG" lat="37.7908" lon="12.9224">
    <comp name="--.HHE">
      <acc value="0.0245268811" flag="0"/>
      <vel value="0.0162862650" flag="0"/>
      <psa03 value="0.1098836729" flag="0"/>
      <psa10 value="0.0233681553" flag="0"/>
      <psa30 value="0.0010092783" flag="0"/>
    </comp>
    <comp name="--.HHN">
      <acc value="0.0203765839" flag="0"/>
      <vel value="0.0105772523" flag="0"/>
      <psa03 value="0.0561617241" flag="0"/>
      <psa10 value="0.0098682485" flag="0"/>
      <psa30 value="0.0006026956" flag="0"/>
    </comp>
    <comp name="--.HHZ">
      <acc value="0.0152409165" flag="0"/>
      <vel value="0.0080881132" flag="0"/>
      <psa03 value="0.0539218972" flag="0"/>
      <psa10 value="0.0086442192" flag="0"/>
      <psa30 value="0.0006414752" flag="0"/>
    </comp>
  </station>
  <station code="MMGO" name="MMGO" netid="IV" insttype="" commtype="DIG" lat="37.6619" lon="12.9767">
    <comp name="--.HHE">
      <acc value="0.0152605710" flag="0"/>
      <vel value="0.0095451327" flag="0"/>
      <psa03 value="0.0546815799" flag="0"/>
      <psa10 value="0.0076598982" flag="0"/>
      <psa30 value="0.0007002635" flag="0"/>
    </comp>
    <comp name="--.HHN">
      <acc value="0.0183996653" flag="0"/>
      <vel value="0.0096020832" flag="0"/>
      <psa03 value="0.0427088772" flag="0"/>
      <psa10 value="0.0069619006" flag="0"/>
      <psa30 value="0.0007170567" flag="0"/>
    </comp>
    <comp name="--.HHZ">
      <acc value="0.0155443931" flag="0"/>
      <vel value="0.0075584555" flag="0"/>
      <psa03 value="0.0530240446" flag="0"/>
      <psa10 value="0.0074023580" flag="0"/>
      <psa30 value="0.0005118251" flag="0"/>
    </comp>
  </station>
  <station code="SCIAC" name="SCIAC" netid="IV" insttype="" commtype="DIG" lat="37.5165" lon="13.1019">
    <comp name="--.HHE">
      <acc value="0.0100456873" flag="0"/>
      <vel value="0.0058400236" flag="0"/>
      <psa03 value="0.0369242673" flag="0"/>
      <psa10 value="0.0054356314" flag="0"/>
      <psa30 value="0.0006292359" flag="0"/>
    </comp>
    <comp name="--.HHN">
      <acc value="0.0145564119" flag="0"/>
      <vel value="0.0071924603" flag="0"/>
      <psa03 value="0.0483337695" flag="0"/>
      <psa10 value="0.0085515988" flag="0"/>
      <psa30 value="0.0005614843" flag="0"/>
    </comp>
    <comp name="--.HHZ">
      <acc value="0.0059754060" flag="0"/>
      <vel value="0.0040413986" flag="0"/>
      <psa03 value="0.0191150318" flag="0"/>
      <psa10 value="0.0050377817" flag="0"/>
      <psa30 value="0.0003413034" flag="0"/>
    </comp>
  </station>
  <station code="SOLUN" name="SOLUN" netid="IV" insttype="" commtype="DIG" lat="38.0919" lon="13.5326">
    <comp name="--.HHE">
      <acc value="0.0125473132" flag="0"/>
      <vel value="0.0092485872" flag="0"/>
      <psa03 value="0.0396412389" flag="0"/>
      <psa10 value="0.0184420133" flag="0"/>
      <psa30 value="0.0018228282" flag="0"/>
    </comp>
    <comp name="--.HHN">
      <acc value="0.0107844571" flag="0"/>
      <vel value="0.0091000871" flag="0"/>
      <psa03 value="0.0295520261" flag="0"/>
      <psa10 value="0.0225045493" flag="0"/>
      <psa30 value="0.0018650110" flag="0"/>
    </comp>
    <comp name="--.HHZ">
      <acc value="0.0085213630" flag="0"/>
      <vel value="0.0076490425" flag="0"/>
      <psa03 value="0.0227579534" flag="0"/>
      <psa10 value="0.0114392830" flag="0"/>
      <psa30 value="0.0006070662" flag="0"/>
    </comp>
  </station>
  <station code="USI" name="USI" netid="IV" insttype="" commtype="DIG" lat="38.7079" lon="13.1791">
    <comp name="--.HHE">
      <acc value="0.0362969889" flag="0"/>
      <vel value="0.0220509203" flag="0"/>
      <psa03 value="0.0892427025" flag="0"/>
      <psa10 value="0.0114265511" flag="0"/>
      <psa30 value="0.0017024744" flag="0"/>
    </comp>
    <comp name="--.HHN">
      <acc value="0.0323341677" flag="0"/>
      <vel value="0.0152645938" flag="0"/>
      <psa03 value="0.1036734463" flag="0"/>
      <psa10 value="0.0137954689" flag="0"/>
      <psa30 value="0.0013923972" flag="0"/>
    </comp>
    <comp name="--.HHZ">
      <acc value="0.0182494266" flag="0"/>
      <vel value="0.0067740426" flag="0"/>
      <psa03 value="0.0507758636" flag="0"/>
      <psa10 value="0.0034129121" flag="0"/>
      <psa30 value="0.0005621241" flag="0"/>
    </comp>
  </station>
</stationlist>
