<?xml version="1.0" encoding="UTF-8" standalone="yes"?>
<!DOCTYPE earthquake SYSTEM "stationlist.dtd">
<stationlist created="" xmlns="ch.ethz.sed.shakemap.usgs.xml">
  <station code="CAVT" name="CAVT" netid="IV" insttype="" commtype="DIG" lat="37.6788" lon="12.7556">
    <comp name="--.HHE">
      <acc value="0.0319677393" flag="0"/>
      <vel value="0.0186491971" flag="0"/>
      <psa03 value="0.1076759386" flag="0"/>
      <psa10 value="0.0300547313" flag="0"/>
      <psa30 value="0.0035691884" flag="0"/>
    </comp>
    <comp name="--.HHZ">
      <acc value="0.0250966439" flag="0"/>
      <vel value="0.0123818060" flag="0"/>
      <psa03 value="0.0790353644" flag="0"/>
      <psa10 value="0.0161395001" flag="0"/>
      <psa30 value="0.0014935318" flag="0"/>
    </comp>
    <comp name="--.HHN">
      <acc value="0.0280255167" flag="0"/>
      <vel value="0.0168010803" flag="0"/>
      <psa03 value="0.1022932507" flag="0"/>
      <psa10 value="0.0215458327" flag="0"/>
      <psa30 value="0.0019376813" flag="0"/>
    </comp>
  </station>
  <station code="CIMI" name="CIMI" netid="IV" insttype="" commtype="DIG" lat="37.8815" lon="13.5726">
    <comp name="--.HHE">
      <acc value="0.0174944938" flag="0"/>
      <vel value="0.0166461358" flag="0"/>
      <psa03 value="0.0297027327" flag="0"/>
      <psa10 value="0.0283918820" flag="0"/>
      <psa30 value="0.0014054183" flag="0"/>
    </comp>
    <comp name="--.HHN">
      <acc value="0.0207696784" flag="0"/>
      <vel value="0.0207914248" flag="0"/>
      <psa03 value="0.0453457906" flag="0"/>
      <psa10 value="0.0215480290" flag="0"/>
      <psa30 value="0.0012550336" flag="0"/>
    </comp>
    <comp name="--.HHZ">
      <acc value="0.0142707901" flag="0"/>
      <vel value="0.0111378417" flag="0"/>
      <psa03 value="0.0448118054" flag="0"/>
      <psa10 value="0.0072760525" flag="0"/>
      <psa30 value="0.0012178801" flag="0"/>
    </comp>
  </station>
  <station code="CLTB" name="CLTB" netid="IV" insttype="" commtype="DIG" lat="37.5786" lon="13.2156">
    <comp name="--.HHZ">
      <acc value="0.0191534191" flag="0"/>
      <vel value="0.0112841277" flag="0"/>
      <psa03 value="0.0774060770" flag="0"/>
      <psa10 value="0.0136577108" flag="0"/>
      <psa30 value="0.0006417405" flag="0"/>
    </comp>
    <comp name="--.HHN">
      <acc value="0.0515720195" flag="0"/>
      <vel value="0.0354969583" flag="0"/>
      <psa03 value="0.1680326758" flag="0"/>
      <psa10 value="0.0378128796" flag="0"/>
      <psa30 value="0.0026927422" flag="0"/>
    </comp>
    <comp name="--.HHE">
      <acc value="0.0284811355" flag="0"/>
      <vel value="0.0220699839" flag="0"/>
      <psa03 value="0.1215234175" flag="0"/>
      <psa10 value="0.0271816207" flag="0"/>
      <psa30 value="0.0012403532" flag="0"/>
    </comp>
  </station>
  <station code="CORL" name="CORL" netid="IV" insttype="" commtype="DIG" lat="37.8943" lon="13.3038">
    <comp name="--.HHE">
      <acc value="0.0393556342" flag="0"/>
      <vel value="0.0274791326" flag="0"/>
      <psa03 value="0.1225618758" flag="0"/>
      <psa10 value="0.0242681792" flag="0"/>
      <psa30 value="0.0016823402" flag="0"/>
    </comp>
    <comp name="--.HHN">
      <acc value="0.0284400072" flag="0"/>
      <vel value="0.0232191537" flag="0"/>
      <psa03 value="0.1005737422" flag="0"/>
      <psa10 value="0.0461190233" flag="0"/>
      <psa30 value="0.0023117378" flag="0"/>
    </comp>
    <comp name="--.HHZ">
      <acc value="0.0145389232" flag="0"/>
      <vel value="0.0118138071" flag="0"/>
      <psa03 value="0.0601995552" flag="0"/>
      <psa10 value="0.0166671009" flag="0"/>
      <psa30 value="0.0010122339" flag="0"/>
    </comp>
  </station>
  <station code="CRJA" name="CRJA" netid="IV" insttype="" commtype="DIG" lat="37.8016" lon="13.0043">
    <comp name="--.HHE">
      <acc value="0.0285363371" flag="0"/>
      <vel value="0.0212494789" flag="0"/>
      <psa03 value="0.0953449923" flag="0"/>
      <psa10 value="0.0364644080" flag="0"/>
      <psa30 value="0.0022694375" flag="0"/>
    </comp>
    <comp name="--.HHN">
      <acc value="0.0389257836" flag="0"/>
      <vel value="0.0296069418" flag="0"/>
      <psa03 value="0.0850498955" flag="0"/>
      <psa10 value="0.0413524386" flag="0"/>
      <psa30 value="0.0025463364" flag="0"/>
    </comp>
    <comp name="--.HHZ">
      <acc value="0.0204313778" flag="0"/>
      <vel value="0.0205148196" flag="0"/>
      <psa03 value="0.0481827264" flag="0"/>
      <psa10 value="0.0253635936" flag="0"/>
      <psa30 value="0.0015813818" flag="0"/>
    </comp>
  </station>
  <station code="LEVAN" name="LEVAN" netid="IV" insttype="" commtype="DIG" lat="37.9913" lon="12.3456">
    <comp name="--.HHN">
      <acc value="3.2625682211" flag="0"/>
      <vel value="0.9877642429" flag="0"/>
      <psa03 value="3.2575594563" flag="0"/>
      <psa10 value="0.1416763382" flag="0"/>
      <psa30 value="0.0125938950" flag="0"/>
    </comp>
    <comp name="--.HHE">
      <acc value="1.6268264859" flag="0"/>
      <vel value="0.5212749634" flag="0"/>
      <psa03 value="1.6676138130" flag="0"/>
      <psa10 value="0.1288927458" flag="0"/>
      <psa30 value="0.0159161515" flag="0"/>
    </comp>
    <comp name="--.HHZ">
      <acc value="2.9715039824" flag="0"/>
      <vel value="0.6919747797" flag="0"/>
      <psa03 value="2.9085189614" flag="0"/>
      <psa10 value="0.1608066433" flag="0"/>
      <psa30 value="0.0155036023" flag="0"/>
    </comp>
  </station>
  <station code="MARIO" name="MARIO" netid="IV" insttype="" commtype="DIG" lat="37.9544" lon="13.433">
    <comp name="--.HHE">
      <acc value="0.0058858430" flag="0"/>
      <vel value="0.0042675777" flag="0"/>
      <psa03 value="0.0197468587" flag="0"/>
      <psa10 value="0.0069500049" flag="0"/>
      <psa30 value="0.0004109157" flag="0"/>
    </comp>
    <comp name="--.HHN">
      <acc value="0.0061730968" flag="0"/>
      <vel value="0.0047708893" flag="0"/>
      <psa03 value="0.0142183384" flag="0"/>
      <psa10 value="0.0098804886" flag="0"/>
      <psa30 value="0.0004459977" flag="0"/>
    </comp>
    <comp name="--.HHZ">
      <acc value="0.0035405036" flag="0"/>
      <vel value="0.0034259465" flag="0"/>
      <psa03 value="0.0121976727" flag="0"/>
      <psa10 value="0.0041322578" flag="0"/>
      <psa30 value="0.0004558657" flag="0"/>
    </comp>
  </station>
  <station code="MARS" name="MARS" netid="IV" insttype="" commtype="DIG" lat="37.7532" lon="12.5647">
    <comp name="--.HNE">
      <acc value="0.0414394987" flag="0"/>
      <vel value="0.0191618889" flag="0"/>
      <psa03 value="0.1348459845" flag="0"/>
      <psa10 value="0.0259877974" flag="0"/>
      <psa30 value="0.0073369263" flag="0"/>
    </comp>
    <comp name="--.HNN">
      <acc value="0.0407746032" flag="0"/>
      <vel value="0.0195698864" flag="0"/>
      <psa03 value="0.0888581981" flag="0"/>
      <psa10 value="0.0258124931" flag="0"/>
      <psa30 value="0.0051930349" flag="0"/>
    </comp>
    <comp name="--.HNZ">
      <acc value="0.0403628277" flag="0"/>
      <vel value="0.0152462803" flag="0"/>
      <psa03 value="0.0773337541" flag="0"/>
      <psa10 value="0.0207442998" flag="0"/>
      <psa30 value="0.0044674251" flag="0"/>
    </comp>
  </station>
  <station code="MBFT" name="MBFT" netid="IV" insttype="" commtype="DIG" lat="37.9461" lon="12.9535">
    <comp name="--.HHE">
      <acc value="0.0674899460" flag="0"/>
      <vel value="0.0335654732" flag="0"/>
      <psa03 value="0.2291038967" flag="0"/>
      <psa10 value="0.0143068052" flag="0"/>
      <psa30 value="0.0009864442" flag="0"/>
    </comp>
    <comp name="--.HHN">
      <acc value="0.0313873576" flag="0"/>
      <vel value="0.0213169730" flag="0"/>
      <psa03 value="0.1312765491" flag="0"/>
      <psa10 value="0.0175364582" flag="0"/>
      <psa30 value="0.0011521836" flag="0"/>
    </comp>
    <comp name="--.HHZ">
      <acc value="0.0240614744" flag="0"/>
      <vel value="0.0148557994" flag="0"/>
      <psa03 value="0.0770939581" flag="0"/>
      <psa10 value="0.0099745471" flag="0"/>
      <psa30 value="0.0005955190" flag="0"/>
    </comp>
  </station>
  <station code="MFNL" name="MFNL" netid="IV" insttype="" commtype="DIG" lat="37.7908" lon="12.9224">
    <comp name="--.HHE">
      <acc value="0.0245268840" flag="0"/>
      <vel value="0.0162862659" flag="0"/>
      <psa03 value="0.1098836729" flag="0"/>
      <psa10 value="0.0233681553" flag="0"/>
      <psa30 value="0.0010093058" flag="0"/>
    </comp>
    <comp name="--.HHN">
      <acc value="0.0203765848" flag="0"/>
      <vel value="0.0105772530" flag="0"/>
      <psa03 value="0.0561617241" flag="0"/>
      <psa10 value="0.0098682485" flag="0"/>
      <psa30 value="0.0006027451" flag="0"/>
    </comp>
    <comp name="--.HHZ">
      <acc value="0.0152409175" flag="0"/>
      <vel value="0.0080881157" flag="0"/>
      <psa03 value="0.0539218972" flag="0"/>
      <psa10 value="0.0086442192" flag="0"/>
      <psa30 value="0.0006414843" flag="0"/>
    </comp>
  </station>
  <station code="MMGO" name="MMGO" netid="IV" insttype="" commtype="DIG" lat="37.6619" lon="12.9767">
    <comp name="--.HHE">
      <acc value="0.0152605707" flag="0"/>
      <vel value="0.0095451339" flag="0"/>
      <psa03 value="0.0546815799" flag="0"/>
      <psa10 value="0.0076598982" flag="0"/>
      <psa30 value="0.0007002994" flag="0"/>
    </comp>
    <comp name="--.HHN">
      <acc value="0.0183996655" flag="0"/>
      <vel value="0.0096020829" flag="0"/>
      <psa03 value="0.0427088772" flag="0"/>
      <psa10 value="0.0069619006" flag="0"/>
      <psa30 value="0.0007170858" flag="0"/>
    </comp>
    <comp name="--.HHZ">
      <acc value="0.0155443935" flag="0"/>
      <vel value="0.0075584548" flag="0"/>
      <psa03 value="0.0530240446" flag="0"/>
      <psa10 value="0.0074023588" flag="0"/>
      <psa30 value="0.0005117969" flag="0"/>
    </comp>
  </station>
  <station code="SCIAC" name="SCIAC" netid="IV" insttype="" commtype="DIG" lat="37.5165" lon="13.1019">
    <comp name="--.HHE">
      <acc value="0.0100456872" flag="0"/>
      <vel value="0.0058400263" flag="0"/>
      <psa03 value="0.0369242673" flag="0"/>
      <psa10 value="0.0054356314" flag="0"/>
      <psa30 value="0.0006292433" flag="0"/>
    </comp>
    <comp name="--.HHN">
      <acc value="0.0145564123" flag="0"/>
      <vel value="0.0071924585" flag="0"/>
      <psa03 value="0.0483337695" flag="0"/>
      <psa10 value="0.0085515988" flag="0"/>
      <psa30 value="0.0005614727" flag="0"/>
    </comp>
    <comp name="--.HHZ">
      <acc value="0.0059754063" flag="0"/>
      <vel value="0.0040413975" flag="0"/>
      <psa03 value="0.0191150318" flag="0"/>
      <psa10 value="0.0050377817" flag="0"/>
      <psa30 value="0.0003413769" flag="0"/>
    </comp>
  </station>
  <station code="SOLUN" name="SOLUN" netid="IV" insttype="" commtype="DIG" lat="38.0919" lon="13.5326">
    <comp name="--.HHE">
      <acc value="0.0125473131" flag="0"/>
      <vel value="0.0092485838" flag="0"/>
      <psa03 value="0.0396412389" flag="0"/>
      <psa10 value="0.0184420132" flag="0"/>
      <psa30 value="0.0018227714" flag="0"/>
    </comp>
    <comp name="--.HHZ">
      <acc value="0.0085213629" flag="0"/>
      <vel value="0.0076490408" flag="0"/>
      <psa03 value="0.0227579534" flag="0"/>
      <psa10 value="0.0114392830" flag="0"/>
      <psa30 value="0.0006070338" flag="0"/>
    </comp>
    <comp name="--.HHN">
      <acc value="0.0107844570" flag="0"/>
      <vel value="0.0091000862" flag="0"/>
      <psa03 value="0.0295520261" flag="0"/>
      <psa10 value="0.0225045494" flag="0"/>
      <psa30 value="0.0018650884" flag="0"/>
    </comp>
  </station>
  <station code="USI" name="USI" netid="IV" insttype="" commtype="DIG" lat="38.7079" lon="13.1791">
    <comp name="--.HHE">
      <acc value="0.0362969889" flag="0"/>
      <vel value="0.0220509199" flag="0"/>
      <psa03 value="0.0892427025" flag="0"/>
      <psa10 value="0.0114265511" flag="0"/>
      <psa30 value="0.0017024664" flag="0"/>
    </comp>
    <comp name="--.HHZ">
      <acc value="0.0182494266" flag="0"/>
      <vel value="0.0067740449" flag="0"/>
      <psa03 value="0.0507758636" flag="0"/>
      <psa10 value="0.0034129121" flag="0"/>
      <psa30 value="0.0005621400" flag="0"/>
    </comp>
    <comp name="--.HHN">
      <acc value="0.0323341677" flag="0"/>
      <vel value="0.0152645992" flag="0"/>
      <psa03 value="0.1036734463" flag="0"/>
      <psa10 value="0.0137954689" flag="0"/>
      <psa30 value="0.0013923965" flag="0"/>
    </comp>
  </station>
</stationlist>
