<stationlist xmlns:esm="https://esm-db.eu/esmws/shakemap/1/" created="1783994272">
	<station code="AGR3" name="AGR3" netid="HI" source="ITSAK Strong Motion Network" insttype="" lat="38.5893" lon="21.4162" esm:processing="automatic (Paolucci et al 2011)" esm:quality="best">
		<comp name="--.HNE" depth="0.0">
			<acc value="0.028843684348077" flag="0"/>
			<vel value="0.0223666893995277" flag="0"/>
			<psa03 value="0.0758271117156777" flag="0"/>
			<psa10 value="0.0260039826362287" flag="0"/>
			<psa30 value="0.00276874508244008" flag="0"/>
		</comp>
		<comp name="--.HNN" depth="0.0">
			<acc value="0.0220773694756826" flag="0"/>
			<vel value="0.0172045151660626" flag="0"/>
			<psa03 value="0.0752698560502247" flag="0"/>
			<psa10 value="0.0275919090785624" flag="0"/>
			<psa30 value="0.00312739654967295" flag="0"/>
		</comp>
		<comp name="--.HNZ" depth="0.0">
			<acc value="0.0119939473050067" flag="0"/>
			<vel value="0.010253933093799" flag="0"/>
			<psa03 value="0.0430763483883396" flag="0"/>
			<psa10 value="0.018379725691624" flag="0"/>
			<psa30 value="0.00135697947656395" flag="0"/>
		</comp>
	</station>
	<station code="AOL1" name="AOL1" netid="HI" source="ITSAK Strong Motion Network" insttype="" lat="37.642378" lon="21.624555" esm:processing="manual (Paolucci et al 2011)" esm:quality="good">
		<comp name="--.HNE" depth="0.0">
			<acc value="0.0091214766741677" flag="0"/>
			<vel value="0.00663320158958633" flag="0"/>
			<psa03 value="0.0277231203748335" flag="0"/>
			<psa10 value="0.0134943370586034" flag="0"/>
			<psa30 value="0.00103030710695602" flag="0"/>
		</comp>
		<comp name="--.HNN" depth="0.0">
			<acc value="0.0082905510027914" flag="0"/>
			<vel value="0.00724706467326737" flag="0"/>
			<psa03 value="0.0271000686840501" flag="0"/>
			<psa10 value="0.0188769111277191" flag="0"/>
			<psa30 value="0.000985619771639366" flag="0"/>
		</comp>
		<comp name="--.HNZ" depth="0.0">
			<acc value="0.00454811871261655" flag="0"/>
			<vel value="0.0032569062457444" flag="0"/>
			<psa03 value="0.0186407595984226" flag="0"/>
			<psa10 value="0.00664062725271498" flag="0"/>
			<psa30 value="0.000567665313374387" flag="0"/>
		</comp>
	</station>
	<station code="ARG2" name="ARG2" netid="HI" source="ITSAK Strong Motion Network" insttype="" lat="38.1783" lon="20.4878" esm:processing="manual (Paolucci et al 2011)" esm:quality="good">
		<comp name="--.HNE" depth="0.0">
			<acc value="1.42068878609114" flag="0"/>
			<vel value="0.237720345592058" flag="0"/>
			<psa03 value="0.931532741792418" flag="0"/>
			<psa10 value="0.126876370151566" flag="0"/>
			<psa30 value="0.0091904966614592" flag="0"/>
		</comp>
		<comp name="--.HNN" depth="0.0">
			<acc value="0.96090748913602" flag="0"/>
			<vel value="0.211011909235852" flag="0"/>
			<psa03 value="1.06848863625095" flag="0"/>
			<psa10 value="0.0697038836906056" flag="0"/>
			<psa30 value="0.00590552385154569" flag="0"/>
		</comp>
		<comp name="--.HNZ" depth="0.0">
			<acc value="0.762538273311207" flag="0"/>
			<vel value="0.147418816274979" flag="0"/>
			<psa03 value="0.58379631195521" flag="0"/>
			<psa10 value="0.0546678177344692" flag="0"/>
			<psa30 value="0.00346617874671751" flag="0"/>
		</comp>
	</station>
	<station code="AST1" name="AST1" netid="HI" source="ITSAK Strong Motion Network" insttype="" lat="38.5416" lon="21.0895" esm:processing="automatic (Paolucci et al 2011)" esm:quality="best">
		<comp name="--.HNE" depth="0.0">
			<acc value="0.0241062681519244" flag="0"/>
			<vel value="0.0128485139111995" flag="0"/>
			<psa03 value="0.0924266748969386" flag="0"/>
			<psa10 value="0.0174719274294444" flag="0"/>
			<psa30 value="0.00160647496274878" flag="0"/>
		</comp>
		<comp name="--.HNN" depth="0.0">
			<acc value="0.0214327428054101" flag="0"/>
			<vel value="0.0133764156545571" flag="0"/>
			<psa03 value="0.0825012934307944" flag="0"/>
			<psa10 value="0.00906498519828074" flag="0"/>
			<psa30 value="0.000961306702684537" flag="0"/>
		</comp>
		<comp name="--.HNZ" depth="0.0">
			<acc value="0.0183370604044736" flag="0"/>
			<vel value="0.007791882685734" flag="0"/>
			<psa03 value="0.0434908810574279" flag="0"/>
			<psa10 value="0.0121297247847374" flag="0"/>
			<psa30 value="0.00135306515475934" flag="0"/>
		</comp>
	</station>
	<station code="ITC1" name="ITC1" netid="HI" source="ITSAK Strong Motion Network" insttype="" lat="38.3647" lon="20.7156" esm:processing="automatic (Paolucci et al 2011)" esm:quality="best">
		<comp name="--.HNE" depth="0.0">
			<acc value="0.0636398525372441" flag="0"/>
			<vel value="0.0209428773315441" flag="0"/>
			<psa03 value="0.11787742338412" flag="0"/>
			<psa10 value="0.0229283251390141" flag="0"/>
			<psa30 value="0.00124218135091819" flag="0"/>
		</comp>
		<comp name="--.HNN" depth="0.0">
			<acc value="0.0588312260846094" flag="0"/>
			<vel value="0.0200000157080696" flag="0"/>
			<psa03 value="0.178371837092137" flag="0"/>
			<psa10 value="0.0163663673165127" flag="0"/>
			<psa30 value="0.00117943938207067" flag="0"/>
		</comp>
		<comp name="--.HNZ" depth="0.0">
			<acc value="0.0492303488739499" flag="0"/>
			<vel value="0.0183050677696821" flag="0"/>
			<psa03 value="0.0871575393842372" flag="0"/>
			<psa10 value="0.0166521287468051" flag="0"/>
			<psa30 value="0.00146657944535732" flag="0"/>
		</comp>
	</station>
	<station code="KAC1" name="KAC1" netid="HI" source="ITSAK Strong Motion Network" insttype="" lat="38.143412" lon="21.549694" esm:processing="manual (Paolucci et al 2011)" esm:quality="good">
		<comp name="--.HNE" depth="0.0">
			<acc value="0.0189105226163875" flag="0"/>
			<vel value="0.0138710433010242" flag="0"/>
			<psa03 value="0.0579655013883204" flag="0"/>
			<psa10 value="0.0241723688008012" flag="0"/>
			<psa30 value="0.00202789808829594" flag="0"/>
		</comp>
		<comp name="--.HNN" depth="0.0">
			<acc value="0.0201057554790629" flag="0"/>
			<vel value="0.0131467222443146" flag="0"/>
			<psa03 value="0.0762344668259545" flag="0"/>
			<psa10 value="0.0247511315159907" flag="0"/>
			<psa30 value="0.00153243412040635" flag="0"/>
		</comp>
		<comp name="--.HNZ" depth="0.0">
			<acc value="0.00764088710474792" flag="0"/>
			<vel value="0.00580709259524448" flag="0"/>
			<psa03 value="0.0289454200961913" flag="0"/>
			<psa10 value="0.0104163300307438" flag="0"/>
			<psa30 value="0.000791598012400026" flag="0"/>
		</comp>
	</station>
	<station code="LEF2" name="LEF2" netid="HI" source="ITSAK Strong Motion Network" insttype="" lat="38.830093" lon="20.708346" esm:processing="automatic (Paolucci et al 2011)" esm:quality="best">
		<comp name="--.HNE" depth="0.0">
			<acc value="0.0344528675346508" flag="0"/>
			<vel value="0.0350774303335619" flag="0"/>
			<psa03 value="0.114525545088633" flag="0"/>
			<psa10 value="0.0631653368935698" flag="0"/>
			<psa30 value="0.00480227062686071" flag="0"/>
		</comp>
		<comp name="--.HNN" depth="0.0">
			<acc value="0.0563885772552698" flag="0"/>
			<vel value="0.0389803330713956" flag="0"/>
			<psa03 value="0.147353771880879" flag="0"/>
			<psa10 value="0.0714578112292972" flag="0"/>
			<psa30 value="0.00484815991680095" flag="0"/>
		</comp>
		<comp name="--.HNZ" depth="0.0">
			<acc value="0.0361462559382364" flag="0"/>
			<vel value="0.0238111000850357" flag="0"/>
			<psa03 value="0.0830641171734385" flag="0"/>
			<psa10 value="0.0516189032490078" flag="0"/>
			<psa30 value="0.00257596231152764" flag="0"/>
		</comp>
	</station>
	<station code="LXR1" name="LXR1" netid="HI" source="ITSAK Strong Motion Network" insttype="" lat="38.201" lon="20.4374" esm:processing="manual (Paolucci et al 2011)" esm:quality="good">
		<comp name="--.HNE" depth="0.0">
			<acc value="1.50426042755436" flag="0"/>
			<vel value="0.550407424674559" flag="0"/>
			<psa03 value="2.56300395309999" flag="0"/>
			<psa10 value="0.336444537799445" flag="0"/>
			<psa30 value="0.0216269226774879" flag="0"/>
		</comp>
		<comp name="--.HNN" depth="0.0">
			<acc value="1.14781577088304" flag="0"/>
			<vel value="0.406484362017785" flag="0"/>
			<psa03 value="1.6968439075812" flag="0"/>
			<psa10 value="0.153345333375756" flag="0"/>
			<psa30 value="0.0130496328074625" flag="0"/>
		</comp>
		<comp name="--.HNZ" depth="0.0">
			<acc value="1.18630566041992" flag="0"/>
			<vel value="0.343480767887119" flag="0"/>
			<psa03 value="1.39344880914491" flag="0"/>
			<psa10 value="0.090672614115687" flag="0"/>
			<psa30 value="0.00661712876897242" flag="0"/>
		</comp>
	</station>
	<station code="PRE2" name="PRE2" netid="HI" source="ITSAK Strong Motion Network" insttype="" lat="38.9577" lon="20.7548" esm:processing="automatic (Paolucci et al 2011)" esm:quality="best">
		<comp name="--.HNE" depth="0.0">
			<acc value="0.0362122271186131" flag="0"/>
			<vel value="0.0274587922831718" flag="0"/>
			<psa03 value="0.123947877605253" flag="0"/>
			<psa10 value="0.0325701988658286" flag="0"/>
			<psa30 value="0.00386802957130913" flag="0"/>
		</comp>
		<comp name="--.HNN" depth="0.0">
			<acc value="0.0375226348913984" flag="0"/>
			<vel value="0.0281047134403532" flag="0"/>
			<psa03 value="0.116149444330655" flag="0"/>
			<psa10 value="0.0374073780552103" flag="0"/>
			<psa30 value="0.00530420221069812" flag="0"/>
		</comp>
		<comp name="--.HNZ" depth="0.0">
			<acc value="0.0170411316039397" flag="0"/>
			<vel value="0.0103188911817111" flag="0"/>
			<psa03 value="0.045875304638788" flag="0"/>
			<psa10 value="0.0147883452802974" flag="0"/>
			<psa30 value="0.000983492234867163" flag="0"/>
		</comp>
	</station>
	<station code="PYR2" name="PYR2" netid="HI" source="ITSAK Strong Motion Network" insttype="" lat="37.6671" lon="21.4506" esm:processing="manual (Paolucci et al 2011)" esm:quality="good">
		<comp name="--.HNE" depth="0.0">
			<acc value="0.0107440998081056" flag="0"/>
			<vel value="0.00827342152996584" flag="0"/>
			<psa03 value="0.036777392050896" flag="0"/>
			<psa10 value="0.0146404767347319" flag="0"/>
			<psa30 value="0.00107599680034064" flag="0"/>
		</comp>
		<comp name="--.HNN" depth="0.0">
			<acc value="0.00988280576341028" flag="0"/>
			<vel value="0.00738628035526281" flag="0"/>
			<psa03 value="0.033749972749225" flag="0"/>
			<psa10 value="0.0138804476365342" flag="0"/>
			<psa30 value="0.00102406408922006" flag="0"/>
		</comp>
		<comp name="--.HNZ" depth="0.0">
			<acc value="0.0159796582161155" flag="0"/>
			<vel value="0.00378216813026528" flag="0"/>
			<psa03 value="0.0186172346025071" flag="0"/>
			<psa10 value="0.00699227961045786" flag="0"/>
			<psa30 value="0.000841149055330103" flag="0"/>
		</comp>
	</station>
	<station code="PYR3" name="PYR3" netid="HI" source="ITSAK Strong Motion Network" insttype="" lat="37.6788" lon="21.46209" esm:processing="manual (Paolucci et al 2011)" esm:quality="good">
		<comp name="--.HNE" depth="0.0">
			<acc value="0.0217778524089044" flag="0"/>
			<vel value="0.0148996939525027" flag="0"/>
			<psa03 value="0.0632816035539988" flag="0"/>
			<psa10 value="0.0225323832848094" flag="0"/>
			<psa30 value="0.00114068796081253" flag="0"/>
		</comp>
		<comp name="--.HNN" depth="0.0">
			<acc value="0.0189271567150697" flag="0"/>
			<vel value="0.0129723181013943" flag="0"/>
			<psa03 value="0.0444854156904664" flag="0"/>
			<psa10 value="0.0167289957138644" flag="0"/>
			<psa30 value="0.0014310646968462" flag="0"/>
		</comp>
		<comp name="--.HNZ" depth="0.0">
			<acc value="0.00894176580347819" flag="0"/>
			<vel value="0.0056593555936234" flag="0"/>
			<psa03 value="0.0306131008843589" flag="0"/>
			<psa10 value="0.0112555887525153" flag="0"/>
			<psa30 value="0.000880400926407257" flag="0"/>
		</comp>
	</station>
	<station code="VAS2" name="VAS2" netid="HI" source="ITSAK Strong Motion Network" insttype="" lat="38.630558" lon="20.608081" esm:processing="manual (Paolucci et al 2011)" esm:quality="good">
		<comp name="--.HNE" depth="0.0">
			<acc value="0.102982074358157" flag="0"/>
			<vel value="0.0721157559053525" flag="0"/>
			<psa03 value="0.197715811046143" flag="0"/>
			<psa10 value="0.0858755068507137" flag="0"/>
			<psa30 value="0.0046858512991316" flag="0"/>
		</comp>
		<comp name="--.HNN" depth="0.0">
			<acc value="0.0983827013448049" flag="0"/>
			<vel value="0.0778616144659345" flag="0"/>
			<psa03 value="0.325991717420728" flag="0"/>
			<psa10 value="0.0735414227522547" flag="0"/>
			<psa30 value="0.00469479974045525" flag="0"/>
		</comp>
		<comp name="--.HNZ" depth="0.0">
			<acc value="0.0552369872535686" flag="0"/>
			<vel value="0.0329086919336158" flag="0"/>
			<psa03 value="0.130423532292262" flag="0"/>
			<psa10 value="0.0275835703801645" flag="0"/>
			<psa30 value="0.00187827783383505" flag="0"/>
		</comp>
	</station>
	<station code="VSK1" name="VSK1" netid="HI" source="ITSAK Strong Motion Network" insttype="" lat="38.4091" lon="20.564" esm:processing="automatic (Paolucci et al 2011)" esm:quality="best">
		<comp name="--.HNE" depth="0.0">
			<acc value="0.109981420174219" flag="0"/>
			<vel value="0.0422551866496129" flag="0"/>
			<psa03 value="0.149378551845948" flag="0"/>
			<psa10 value="0.0388965867079748" flag="0"/>
			<psa30 value="0.00239822303717301" flag="0"/>
		</comp>
		<comp name="--.HNN" depth="0.0">
			<acc value="0.0957059796088878" flag="0"/>
			<vel value="0.0371368777414843" flag="0"/>
			<psa03 value="0.16571611329588" flag="0"/>
			<psa10 value="0.0394319646741376" flag="0"/>
			<psa30 value="0.00367570433070582" flag="0"/>
		</comp>
		<comp name="--.HNZ" depth="0.0">
			<acc value="0.075289003085917" flag="0"/>
			<vel value="0.0244414220657802" flag="0"/>
			<psa03 value="0.102383605328047" flag="0"/>
			<psa10 value="0.0256880392065271" flag="0"/>
			<psa30 value="0.00215610637313226" flag="0"/>
		</comp>
	</station>
	<station code="ZAK2" name="ZAK2" netid="HI" source="ITSAK Strong Motion Network" insttype="" lat="37.787501" lon="20.899999" esm:processing="automatic (Paolucci et al 2011)" esm:quality="best">
		<comp name="--.HNE" depth="0.0">
			<acc value="0.0762309552105223" flag="0"/>
			<vel value="0.0584418194963982" flag="0"/>
			<psa03 value="0.171013870496294" flag="0"/>
			<psa10 value="0.0639651898799047" flag="0"/>
			<psa30 value="0.0041180002973096" flag="0"/>
		</comp>
		<comp name="--.HNN" depth="0.0">
			<acc value="0.0889582656817837" flag="0"/>
			<vel value="0.0600967287170562" flag="0"/>
			<psa03 value="0.270594425552684" flag="0"/>
			<psa10 value="0.0601628992468109" flag="0"/>
			<psa30 value="0.00369855084417521" flag="0"/>
		</comp>
		<comp name="--.HNZ" depth="0.0">
			<acc value="0.0407869706597973" flag="0"/>
			<vel value="0.0222412306292177" flag="0"/>
			<psa03 value="0.0870325623551224" flag="0"/>
			<psa10 value="0.0253775392624296" flag="0"/>
			<psa30 value="0.00265018160319146" flag="0"/>
		</comp>
	</station>
	<station code="ANX" name="ANX" netid="HP" source="University of Patras, Seismological Laboratory (PSLNET)" insttype="" lat="38.5933" lon="21.9209" esm:processing="manual (Paolucci et al 2011)" esm:quality="good">
		<comp name="--.HNE" depth="0.0">
			<acc value="0.00802956133708308" flag="0"/>
			<vel value="0.00640271366255913" flag="0"/>
			<psa03 value="0.018390927944135" flag="0"/>
			<psa10 value="0.0126361498954156" flag="0"/>
			<psa30 value="0.000454725331654879" flag="0"/>
		</comp>
		<comp name="--.HNN" depth="0.0">
			<acc value="0.0135981046785541" flag="0"/>
			<vel value="0.012574870836531" flag="0"/>
			<psa03 value="0.022592288294889" flag="0"/>
			<psa10 value="0.0210835310554598" flag="0"/>
			<psa30 value="0.000968390505285027" flag="0"/>
		</comp>
		<comp name="--.HNZ" depth="0.0">
			<acc value="0.00401034782858065" flag="0"/>
			<vel value="0.0038680215683587" flag="0"/>
			<psa03 value="0.0107241296917941" flag="0"/>
			<psa10 value="0.00819292774125405" flag="0"/>
			<psa30 value="0.000490523588530375" flag="0"/>
		</comp>
	</station>
	<station code="PVO" name="PVO" netid="HP" source="University of Patras, Seismological Laboratory (PSLNET)" insttype="" lat="38.616" lon="21.525" esm:processing="manual (Paolucci et al 2011)" esm:quality="best">
		<comp name="--.HNE" depth="0.0">
			<acc value="0.00659148465652272" flag="0"/>
			<vel value="0.005612965400045" flag="0"/>
			<psa03 value="0.0268005817643448" flag="0"/>
			<psa10 value="0.0067932092308522" flag="0"/>
			<psa30 value="0.000817887536982007" flag="0"/>
		</comp>
		<comp name="--.HNN" depth="0.0">
			<acc value="0.00808799403630028" flag="0"/>
			<vel value="0.00515401294064915" flag="0"/>
			<psa03 value="0.0233554318547379" flag="0"/>
			<psa10 value="0.00715964790305585" flag="0"/>
			<psa30 value="0.000424156118741216" flag="0"/>
		</comp>
		<comp name="--.HNZ" depth="0.0">
			<acc value="0.00697318360400903" flag="0"/>
			<vel value="0.00233589265713776" flag="0"/>
			<psa03 value="0.0143622483244652" flag="0"/>
			<psa10 value="0.00333821603578926" flag="0"/>
			<psa30 value="0.00032930264071048" flag="0"/>
		</comp>
	</station>
	<station code="SERG" name="SERG" netid="HP" source="University of Patras, Seismological Laboratory (PSLNET)" insttype="" lat="38.4133" lon="22.0566" esm:processing="manual (Paolucci et al 2011)" esm:quality="best">
		<comp name="--.HNE" depth="0.0">
			<acc value="0.00375212526660654" flag="0"/>
			<vel value="0.00271152296531706" flag="0"/>
			<psa03 value="0.00988802766263806" flag="0"/>
			<psa10 value="0.0048643727035385" flag="0"/>
			<psa30 value="0.000393731418240791" flag="0"/>
		</comp>
		<comp name="--.HNN" depth="0.0">
			<acc value="0.0047442221867465" flag="0"/>
			<vel value="0.00315943013999573" flag="0"/>
			<psa03 value="0.0153018346634489" flag="0"/>
			<psa10 value="0.00381740506867095" flag="0"/>
			<psa30 value="0.000337803659967952" flag="0"/>
		</comp>
		<comp name="--.HNZ" depth="0.0">
			<acc value="0.00311281443763273" flag="0"/>
			<vel value="0.00180617882787264" flag="0"/>
			<psa03 value="0.00662184657950422" flag="0"/>
			<psa10 value="0.00242815955317361" flag="0"/>
			<psa30 value="0.000492164272800989" flag="0"/>
		</comp>
	</station>
	<station code="AIG2" name="AIG2" netid="HI" source="ITSAK Strong Motion Network" insttype="" lat="38.2417" lon="22.0726" esm:processing="automatic (Paolucci et al 2011)" esm:quality="bad">
		<comp name="--.HNE" depth="0.0">
			<acc value="0" flag="1"/>
			<vel value="0" flag="1"/>
			<psa03 value="0" flag="1"/>
			<psa10 value="0" flag="1"/>
			<psa30 value="0" flag="1"/>
		</comp>
		<comp name="--.HNN" depth="0.0">
			<acc value="0" flag="1"/>
			<vel value="0" flag="1"/>
			<psa03 value="0" flag="1"/>
			<psa10 value="0" flag="1"/>
			<psa30 value="0" flag="1"/>
		</comp>
		<comp name="--.HNZ" depth="0.0">
			<acc value="0" flag="1"/>
			<vel value="0" flag="1"/>
			<psa03 value="0" flag="1"/>
			<psa10 value="0" flag="1"/>
			<psa30 value="0" flag="1"/>
		</comp>
	</station>
	<station code="ARS1" name="ARS1" netid="HI" source="ITSAK Strong Motion Network" insttype="" lat="37.6349" lon="22.7293" esm:processing="discarded" esm:quality="bad">
		<comp name="--.HNE" depth="0.0">
			<acc value="0" flag="1"/>
			<vel value="0" flag="1"/>
			<psa03 value="0" flag="1"/>
			<psa10 value="0" flag="1"/>
			<psa30 value="0" flag="1"/>
		</comp>
		<comp name="--.HNN" depth="0.0">
			<acc value="0" flag="1"/>
			<vel value="0" flag="1"/>
			<psa03 value="0" flag="1"/>
			<psa10 value="0" flag="1"/>
			<psa30 value="0" flag="1"/>
		</comp>
		<comp name="--.HNZ" depth="0.0">
			<acc value="0" flag="1"/>
			<vel value="0" flag="1"/>
			<psa03 value="0" flag="1"/>
			<psa10 value="0" flag="1"/>
			<psa30 value="0" flag="1"/>
		</comp>
	</station>
	<station code="ART2" name="ART2" netid="HI" source="ITSAK Strong Motion Network" insttype="" lat="39.1474" lon="20.9937" esm:processing="discarded" esm:quality="bad">
		<comp name="--.HNE" depth="0.0">
			<acc value="0" flag="1"/>
			<vel value="0" flag="1"/>
			<psa03 value="0" flag="1"/>
			<psa10 value="0" flag="1"/>
			<psa30 value="0" flag="1"/>
		</comp>
		<comp name="--.HNN" depth="0.0">
			<acc value="0" flag="1"/>
			<vel value="0" flag="1"/>
