<?xml version="1.0" encoding="UTF-8" standalone="yes"?>
<!DOCTYPE earthquake SYSTEM "stationlist.dtd">
<stationlist created="" xmlns="ch.ethz.sed.shakemap.usgs.xml">
  <station code="ARG2" name="ARG2" netid="HI" source="NOA" insttype="CMG-5TD,ACCELEROMETER,GURALP" lat="38.1783" lon="20.4878">
    <comp name="--.HNE">
      <acc value="1.5196719423" flag="0"/>
      <vel value="0.2370187405" flag="0"/>
      <psa03 value="0.9346517820" flag="0"/>
      <psa10 value="0.1263656250" flag="0"/>
      <psa30 value="0.0089757660" flag="0"/>
    </comp>
    <comp name="--.HNN">
      <acc value="0.9735210468" flag="0"/>
      <vel value="0.2065840382" flag="0"/>
      <psa03 value="1.0416250939" flag="0"/>
      <psa10 value="0.0694747910" flag="0"/>
      <psa30 value="0.0056861504" flag="0"/>
    </comp>
    <comp name="--.HNZ">
      <acc value="0.8313332810" flag="0"/>
      <vel value="0.1392497216" flag="0"/>
      <psa03 value="0.5683977224" flag="0"/>
      <psa10 value="0.0545310474" flag="0"/>
      <psa30 value="0.0033884218" flag="0"/>
    </comp>
  </station>
  <station code="ORTH" name="ORTH" netid="HL" source="NOA" insttype="30" lat="37.8511" lon="20.6963">
    <comp name="--.HHE">
      <acc value="0.0869519482" flag="0"/>
      <vel value="0.0307227384" flag="0"/>
      <psa03 value="0.1834365783" flag="0"/>
      <psa10 value="0.0292643321" flag="0"/>
      <psa30 value="0.0010970563" flag="0"/>
    </comp>
    <comp name="--.HHN">
      <acc value="0.0977437101" flag="0"/>
      <vel value="0.0308736349" flag="0"/>
      <psa03 value="0.1281206078" flag="0"/>
      <psa10 value="0.0362218360" flag="0"/>
      <psa30 value="0.0016318183" flag="0"/>
    </comp>
    <comp name="--.HHZ">
      <acc value="0.0535906827" flag="0"/>
      <vel value="0.0124941021" flag="0"/>
      <psa03 value="0.0863696564" flag="0"/>
      <psa10 value="0.0078717611" flag="0"/>
      <psa30 value="0.0003481339" flag="0"/>
    </comp>
  </station>
  <station code="RLS" name="RLS" netid="HL" source="NOA" insttype="120" lat="38.0559" lon="21.4647">
    <comp name="--.HHE">
      <acc value="0.0431173609" flag="0"/>
      <vel value="0.0030092157" flag="0"/>
      <psa03 value="0.0129351634" flag="0"/>
      <psa10 value="0.0046105695" flag="0"/>
      <psa30 value="0.0004070341" flag="0"/>
    </comp>
    <comp name="--.HHN">
      <acc value="0.0053934771" flag="0"/>
      <vel value="0.0033541065" flag="0"/>
      <psa03 value="0.0163571822" flag="0"/>
      <psa10 value="0.0056534404" flag="0"/>
      <psa30 value="0.0003554733" flag="0"/>
    </comp>
    <comp name="--.HHZ">
      <acc value="0.0040375795" flag="0"/>
      <vel value="0.0017698018" flag="0"/>
      <psa03 value="0.0089499532" flag="0"/>
      <psa10 value="0.0041448231" flag="0"/>
      <psa30 value="0.0002668514" flag="0"/>
    </comp>
  </station>
  <station code="VLS" name="VLS" netid="HL" source="NOA" insttype="120P," lat="38.1768" lon="20.5886">
    <comp name="--.HHE">
      <acc value="2.5109242481" flag="0"/>
      <vel value="0.1949141024" flag="0"/>
      <psa03 value="0.4630458521" flag="0"/>
      <psa10 value="0.0342442906" flag="0"/>
      <psa30 value="0.0028525991" flag="0"/>
    </comp>
    <comp name="--.HHN">
      <acc value="0.8424202521" flag="0"/>
      <vel value="0.1142677954" flag="0"/>
      <psa03 value="0.5682441851" flag="0"/>
      <psa10 value="0.0363000672" flag="0"/>
      <psa30 value="0.0037972350" flag="0"/>
    </comp>
    <comp name="--.HHZ">
      <acc value="0.6931030677" flag="0"/>
      <vel value="0.0665903177" flag="0"/>
      <psa03 value="0.3599377468" flag="0"/>
      <psa10 value="0.0279996837" flag="0"/>
      <psa30 value="0.0025610025" flag="0"/>
    </comp>
  </station>
  <station code="AMPL" name="AMPL" netid="HP" source="NOA" insttype="Compact," lat="38.9224" lon="21.2135">
    <comp name="--.HHE">
      <acc value="0.0083843667" flag="0"/>
      <vel value="0.0052664121" flag="0"/>
      <psa03 value="0.0220211364" flag="0"/>
      <psa10 value="0.0071657668" flag="0"/>
      <psa30 value="0.0005710435" flag="0"/>
    </comp>
    <comp name="--.HHN">
      <acc value="0.0081040609" flag="0"/>
      <vel value="0.0044577154" flag="0"/>
      <psa03 value="0.0181614983" flag="0"/>
      <psa10 value="0.0052486283" flag="0"/>
      <psa30 value="0.0005364391" flag="0"/>
    </comp>
    <comp name="--.HHZ">
      <acc value="0.0051013598" flag="0"/>
      <vel value="0.0029738729" flag="0"/>
      <psa03 value="0.0139457207" flag="0"/>
      <psa10 value="0.0060508835" flag="0"/>
      <psa30 value="0.0003597035" flag="0"/>
    </comp>
  </station>
  <station code="AXS" name="AXS" netid="HP" source="NOA" insttype="40," lat="38.1962" lon="21.3763">
    <comp name="--.HHE">
      <acc value="0.0080836188" flag="0"/>
      <vel value="0.0018500334" flag="0"/>
      <psa03 value="0.0086738813" flag="0"/>
      <psa10 value="0.0026551232" flag="0"/>
      <psa30 value="0.0003606836" flag="0"/>
    </comp>
    <comp name="--.HHN">
      <acc value="0.0178338606" flag="0"/>
      <vel value="0.0039577433" flag="0"/>
      <psa03 value="0.0157151412" flag="0"/>
      <psa10 value="0.0049836013" flag="0"/>
      <psa30 value="0.0005794700" flag="0"/>
    </comp>
    <comp name="--.HHZ">
      <acc value="0.0044040170" flag="0"/>
      <vel value="0.0021886191" flag="0"/>
      <psa03 value="0.0101951977" flag="0"/>
      <psa10 value="0.0038567427" flag="0"/>
      <psa30 value="0.0002748707" flag="0"/>
    </comp>
  </station>
  <station code="DRO" name="DRO" netid="HP" source="NOA" insttype="120P," lat="37.952" lon="21.71">
    <comp name="--.HHE">
      <acc value="0.0103058294" flag="0"/>
      <vel value="0.0075790304" flag="0"/>
      <psa03 value="0.0304688568" flag="0"/>
      <psa10 value="0.0202096260" flag="0"/>
      <psa30 value="0.0006065387" flag="0"/>
    </comp>
    <comp name="--.HHN">
      <acc value="0.0096557444" flag="0"/>
      <vel value="0.0062942830" flag="0"/>
      <psa03 value="0.0307848404" flag="0"/>
      <psa10 value="0.0128428105" flag="0"/>
      <psa30 value="0.0004467569" flag="0"/>
    </comp>
    <comp name="--.HHZ">
      <acc value="0.0043633339" flag="0"/>
      <vel value="0.0026685724" flag="0"/>
      <psa03 value="0.0134284762" flag="0"/>
      <psa10 value="0.0045051311" flag="0"/>
      <psa30 value="0.0003364879" flag="0"/>
    </comp>
  </station>
  <station code="FSK" name="FSK" netid="HP" source="NOA" insttype="40," lat="38.4593" lon="20.5623">
    <comp name="--.HHE">
      <acc value="0.1745564111" flag="0"/>
      <vel value="0.0350255220" flag="0"/>
      <psa03 value="0.1622373927" flag="0"/>
      <psa10 value="0.0174894935" flag="0"/>
      <psa30 value="0.0023726416" flag="0"/>
    </comp>
    <comp name="--.HHN">
      <acc value="0.0733184252" flag="0"/>
      <vel value="0.0218470130" flag="0"/>
      <psa03 value="0.1145082134" flag="0"/>
      <psa10 value="0.0245758332" flag="0"/>
      <psa30 value="0.0021208889" flag="0"/>
    </comp>
    <comp name="--.HHZ">
      <acc value="0.0568604623" flag="0"/>
      <vel value="0.0261004674" flag="0"/>
      <psa03 value="0.0939020527" flag="0"/>
      <psa10 value="0.0188200462" flag="0"/>
      <psa30 value="0.0022376327" flag="0"/>
    </comp>
  </station>
  <station code="LTHK" name="LTHK" netid="HP" source="NOA" insttype="40," lat="37.7095" lon="20.8367">
    <comp name="--.HHE">
      <acc value="0.0415813401" flag="0"/>
      <vel value="0.0152669049" flag="0"/>
      <psa03 value="0.0774173225" flag="0"/>
      <psa10 value="0.0141817592" flag="0"/>
      <psa30 value="0.0009781016" flag="0"/>
    </comp>
    <comp name="--.HHN">
      <acc value="0.0455993465" flag="0"/>
      <vel value="0.0211032296" flag="0"/>
      <psa03 value="0.0756894703" flag="0"/>
      <psa10 value="0.0245709181" flag="0"/>
      <psa30 value="0.0015671451" flag="0"/>
    </comp>
    <comp name="--.HHZ">
      <acc value="0.0303876033" flag="0"/>
      <vel value="0.0124440925" flag="0"/>
      <psa03 value="0.0501068837" flag="0"/>
      <psa10 value="0.0109494954" flag="0"/>
      <psa30 value="0.0007291049" flag="0"/>
    </comp>
  </station>
  <station code="PVO" name="PVO" netid="HP" source="NOA" insttype="120P," lat="38.616" lon="21.525">
    <comp name="--.HHE">
      <acc value="0.0151036366" flag="0"/>
      <vel value="0.0111361833" flag="0"/>
      <psa03 value="0.0627817068" flag="0"/>
      <psa10 value="0.0157767681" flag="0"/>
      <psa30 value="0.0013778503" flag="0"/>
    </comp>
    <comp name="--.HHN">
      <acc value="0.0134716907" flag="0"/>
      <vel value="0.0093279703" flag="0"/>
      <psa03 value="0.0454288296" flag="0"/>
      <psa10 value="0.0112969825" flag="0"/>
      <psa30 value="0.0010287502" flag="0"/>
    </comp>
    <comp name="--.HHZ">
      <acc value="0.0146860700" flag="0"/>
      <vel value="0.0046512673" flag="0"/>
      <psa03 value="0.0294048828" flag="0"/>
      <psa10 value="0.0068809910" flag="0"/>
      <psa30 value="0.0006792939" flag="0"/>
    </comp>
  </station>
  <station code="DMLN" name="DMLN" netid="HT" source="NOA" insttype="1s-100Hz," lat="38.2385" lon="20.3734">
    <comp name="--.HHE">
      <acc value="2.3449782008" flag="0"/>
      <vel value="0.4558769202" flag="0"/>
      <psa03 value="1.4311724705" flag="0"/>
      <psa10 value="0.2333744706" flag="0"/>
      <psa30 value="0.0120925018" flag="0"/>
    </comp>
    <comp name="--.HHN">
      <acc value="1.9816753627" flag="0"/>
      <vel value="0.4641123984" flag="0"/>
      <psa03 value="1.4093773249" flag="0"/>
      <psa10 value="0.2769297232" flag="0"/>
      <psa30 value="0.0147424074" flag="0"/>
    </comp>
    <comp name="--.HHZ">
      <acc value="1.4244699201" flag="0"/>
      <vel value="0.2449675207" flag="0"/>
      <psa03 value="0.9159635441" flag="0"/>
      <psa10 value="0.0634898149" flag="0"/>
      <psa30 value="0.0050202483" flag="0"/>
    </comp>
  </station>
  <station code="DRAG" name="DRAG" netid="HT" source="NOA" insttype="1s-100Hz," lat="38.6839" lon="20.5746">
    <comp name="--.HHE">
      <acc value="0.0000000000" flag="0"/>
      <vel value="-100.0000000000" flag="0"/>
      <psa03 value="0.0000000000" flag="0"/>
      <psa10 value="0.0000000000" flag="0"/>
      <psa30 value="0.0000000000" flag="0"/>
    </comp>
    <comp name="--.HHN">
      <acc value="0.1100241109" flag="0"/>
      <vel value="0.0388413732" flag="0"/>
      <psa03 value="0.1970118283" flag="0"/>
      <psa10 value="0.0297120931" flag="0"/>
      <psa30 value="0.0066809333" flag="0"/>
    </comp>
    <comp name="--.HHZ">
      <acc value="0.0575205421" flag="0"/>
      <vel value="0.0159238944" flag="0"/>
      <psa03 value="0.0804424714" flag="0"/>
      <psa10 value="0.0152275281" flag="0"/>
      <psa30 value="0.0013070864" flag="0"/>
    </comp>
  </station>
  <station code="EVGI" name="EVGI" netid="HT" source="NOA" insttype="30" lat="38.621" lon="20.656">
    <comp name="--.HHE">
      <acc value="0.2134793345" flag="0"/>
      <vel value="0.0316874253" flag="0"/>
      <psa03 value="0.1050734007" flag="0"/>
      <psa10 value="0.0074634922" flag="0"/>
      <psa30 value="0.0011260799" flag="0"/>
    </comp>
    <comp name="--.HHZ">
      <acc value="0.1276258962" flag="0"/>
      <vel value="0.0245838525" flag="0"/>
      <psa03 value="0.0979716716" flag="0"/>
      <psa10 value="0.0135098663" flag="0"/>
      <psa30 value="0.0012495440" flag="0"/>
    </comp>
  </station>
  <station code="LKD2" name="LKD2" netid="HT" source="NOA" insttype="100" lat="38.7889" lon="20.6578">
    <comp name="--.HHE">
      <acc value="0.0311594603" flag="0"/>
      <vel value="0.0085746483" flag="0"/>
      <psa03 value="0.0566472646" flag="0"/>
      <psa10 value="0.0096036029" flag="0"/>
      <psa30 value="0.0005582095" flag="0"/>
    </comp>
    <comp name="--.HHN">
      <acc value="0.0296568593" flag="0"/>
      <vel value="0.0129929129" flag="0"/>
      <psa03 value="0.0449179562" flag="0"/>
      <psa10 value="0.0142446926" flag="0"/>
      <psa30 value="0.0009681149" flag="0"/>
    </comp>
    <comp name="--.HHZ">
      <acc value="0.0124707077" flag="0"/>
      <vel value="0.0056569515" flag="0"/>
      <psa03 value="0.0247376741" flag="0"/>
      <psa10 value="0.0064458434" flag="0"/>
      <psa30 value="0.0007956007" flag="0"/>
    </comp>
  </station>
  <station code="NYDR" name="NYDR" netid="HT" source="NOA" insttype="1s-100Hz," lat="38.7135" lon="20.6983">
    <comp name="--.HHE">
      <acc value="0.0237699099" flag="0"/>
      <vel value="0.0134169986" flag="0"/>
      <psa03 value="0.0766815500" flag="0"/>
      <psa10 value="0.0084551066" flag="0"/>
      <psa30 value="0.0009378268" flag="0"/>
    </comp>
    <comp name="--.HHN">
      <acc value="0.0583246921" flag="0"/>
      <vel value="0.0279816618" flag="0"/>
      <psa03 value="0.1431994726" flag="0"/>
      <psa10 value="0.0113946125" flag="0"/>
      <psa30 value="0.0007987212" flag="0"/>
    </comp>
    <comp name="--.HHZ">
      <acc value="0.0332426633" flag="0"/>
      <vel value="0.0179643659" flag="0"/>
      <psa03 value="0.0977373135" flag="0"/>
      <psa10 value="0.0097382440" flag="0"/>
      <psa30 value="0.0009041673" flag="0"/>
    </comp>
  </station>
  <station code="RTZL" name="RTZL" netid="HT" source="NOA" insttype="Compact," lat="38.076" lon="20.7715">
    <comp name="--.HHE">
      <acc value="0.1812968494" flag="0"/>
      <vel value="0.0357044033" flag="0"/>
      <psa03 value="0.0968637348" flag="0"/>
      <psa10 value="0.0201321066" flag="0"/>
      <psa30 value="0.0013957723" flag="0"/>
    </comp>
    <comp name="--.HHN">
      <acc value="0.2776941981" flag="0"/>
      <vel value="0.0360244692" flag="0"/>
      <psa03 value="0.1244128365" flag="0"/>
      <psa10 value="0.0204792897" flag="0"/>
      <psa30 value="0.0018158938" flag="0"/>
    </comp>
    <comp name="--.HHZ">
      <acc value="0.0884727523" flag="0"/>
      <vel value="0.0148318704" flag="0"/>
      <psa03 value="0.0647575469" flag="0"/>
      <psa10 value="0.0149422312" flag="0"/>
      <psa30 value="0.0008980524" flag="0"/>
    </comp>
  </station>
</stationlist>
