<?xml version="1.0" encoding="UTF-8" standalone="yes"?>
<!DOCTYPE earthquake SYSTEM "stationlist.dtd">
<stationlist created="" xmlns="ch.ethz.sed.shakemap.usgs.xml">
  <station code="AKS" name="AKS" netid="KO" insttype="CMG-5T" commtype="DIG" lat="38.8785" lon="27.8129">
    <comp name="--.HNN">
      <acc value="0.1354233969" flag="0"/>
      <vel value="0.0406018291" flag="0"/>
      <psa03 value="0.2233473440" flag="0"/>
      <psa10 value="0.0088870436" flag="0"/>
      <psa30 value="0.0008005786" flag="0"/>
    </comp>
    <comp name="--.HNZ">
      <acc value="0.1084561369" flag="0"/>
      <vel value="0.0171656333" flag="0"/>
      <psa03 value="0.0495784243" flag="0"/>
      <psa10 value="0.0039472970" flag="0"/>
      <psa30 value="0.0005013677" flag="0"/>
    </comp>
    <comp name="--.HNE">
      <acc value="0.1150376220" flag="0"/>
      <vel value="0.0273195135" flag="0"/>
      <psa03 value="0.1184222137" flag="0"/>
      <psa10 value="0.0125901969" flag="0"/>
      <psa30 value="0.0006887541" flag="0"/>
    </comp>
  </station>
  <station code="BALB" name="BALB" netid="KO" insttype="CMG-5T" commtype="DIG" lat="39.6507" lon="27.8642">
    <comp name="--.HNE">
      <acc value="0.0341894743" flag="0"/>
      <vel value="0.0117881013" flag="0"/>
      <psa03 value="0.0429118450" flag="0"/>
      <psa10 value="0.0082575776" flag="0"/>
      <psa30 value="0.0005185280" flag="0"/>
    </comp>
    <comp name="--.HNZ">
      <acc value="0.0275171178" flag="0"/>
      <vel value="0.0074100382" flag="0"/>
      <psa03 value="0.0296266430" flag="0"/>
      <psa10 value="0.0049935146" flag="0"/>
      <psa30 value="0.0002774284" flag="0"/>
    </comp>
    <comp name="--.HNN">
      <acc value="0.0413546659" flag="0"/>
      <vel value="0.0128186344" flag="0"/>
      <psa03 value="0.0658306529" flag="0"/>
      <psa10 value="0.0065564639" flag="0"/>
      <psa30 value="0.0006290559" flag="0"/>
    </comp>
  </station>
  <station code="GOMA" name="GOMA" netid="KO" insttype="CMG-5T" commtype="DIG" lat="38.7077" lon="27.9175">
    <comp name="--.HNE">
      <acc value="0.1407344042" flag="0"/>
      <vel value="0.0720796430" flag="0"/>
      <psa03 value="0.4801512314" flag="0"/>
      <psa10 value="0.0259554212" flag="0"/>
      <psa30 value="0.0021131407" flag="0"/>
    </comp>
    <comp name="--.HNN">
      <acc value="0.1209387891" flag="0"/>
      <vel value="0.0709922025" flag="0"/>
      <psa03 value="0.2559866445" flag="0"/>
      <psa10 value="0.0298100312" flag="0"/>
      <psa30 value="0.0025024932" flag="0"/>
    </comp>
  </station>
  <station code="GONE" name="GONE" netid="KO" insttype="CMG-5T" commtype="DIG" lat="40.0466" lon="27.686">
    <comp name="--.HNZ">
      <acc value="0.0106168218" flag="0"/>
      <vel value="0.0033027186" flag="0"/>
      <psa03 value="0.0251453105" flag="0"/>
      <psa10 value="0.0025076849" flag="0"/>
      <psa30 value="0.0002287289" flag="0"/>
    </comp>
    <comp name="--.HNN">
      <acc value="0.0312023286" flag="0"/>
      <vel value="0.0171498846" flag="0"/>
      <psa03 value="0.0989374585" flag="0"/>
      <psa10 value="0.0120111277" flag="0"/>
      <psa30 value="0.0010356591" flag="0"/>
    </comp>
  </station>
  <station code="GORD" name="GORD" netid="KO" insttype="CMG-5T" commtype="DIG" lat="38.9088" lon="28.1769">
    <comp name="--.HNN">
      <acc value="0.0713703140" flag="0"/>
      <vel value="0.0401891099" flag="0"/>
      <psa03 value="0.0827669604" flag="0"/>
      <psa10 value="0.0396577935" flag="0"/>
      <psa30 value="0.0023529417" flag="0"/>
    </comp>
    <comp name="--.HNE">
      <acc value="0.0446242498" flag="0"/>
      <vel value="0.0179494172" flag="0"/>
      <psa03 value="0.0701341193" flag="0"/>
      <psa10 value="0.0277602257" flag="0"/>
      <psa30 value="0.0021635628" flag="0"/>
    </comp>
    <comp name="--.HNZ">
      <acc value="0.0626593416" flag="0"/>
      <vel value="0.0167056636" flag="0"/>
      <psa03 value="0.0693987543" flag="0"/>
      <psa10 value="0.0106228218" flag="0"/>
      <psa30 value="0.0009142218" flag="0"/>
    </comp>
  </station>
  <station code="KCTX" name="KCTX" netid="KO" insttype="CMG-3ESP" commtype="DIG" lat="40.2626" lon="28.3353">
    <comp name="--.HHZ">
      <acc value="0.0119127107" flag="0"/>
      <vel value="0.0031736014" flag="0"/>
      <psa03 value="0.0181285050" flag="0"/>
      <psa10 value="0.0039922882" flag="0"/>
      <psa30 value="0.0002629540" flag="0"/>
    </comp>
    <comp name="--.HHN">
      <acc value="0.0222934816" flag="0"/>
      <vel value="0.0055580812" flag="0"/>
      <psa03 value="0.0304210264" flag="0"/>
      <psa10 value="0.0035094066" flag="0"/>
      <psa30 value="0.0002305440" flag="0"/>
    </comp>
    <comp name="--.HHE">
      <acc value="0.0123893673" flag="0"/>
      <vel value="0.0065922483" flag="0"/>
      <psa03 value="0.0270988377" flag="0"/>
      <psa10 value="0.0070994142" flag="0"/>
      <psa30 value="0.0004818142" flag="0"/>
    </comp>
  </station>
  <station code="KULA" name="KULA" netid="KO" insttype="CMG-3T" commtype="DIG" lat="38.5145" lon="28.6607">
    <comp name="--.HHN">
      <acc value="0.0299430840" flag="0"/>
      <vel value="0.0042002621" flag="0"/>
      <psa03 value="0.0125639039" flag="0"/>
      <psa10 value="0.0020953921" flag="0"/>
      <psa30 value="0.0001195533" flag="0"/>
    </comp>
    <comp name="--.HHE">
      <acc value="0.0283814967" flag="0"/>
      <vel value="0.0077239996" flag="0"/>
      <psa03 value="0.0355006289" flag="0"/>
      <psa10 value="0.0034271722" flag="0"/>
      <psa30 value="0.0003203413" flag="0"/>
    </comp>
  </station>
  <station code="ORLT" name="ORLT" netid="KO" insttype="CMG-5T" commtype="DIG" lat="40.0452" lon="28.8914">
    <comp name="--.HNZ">
      <acc value="0.0190108553" flag="0"/>
      <vel value="0.0081033703" flag="0"/>
      <psa03 value="0.0651905627" flag="0"/>
      <psa10 value="0.0072691381" flag="0"/>
      <psa30 value="0.0004448725" flag="0"/>
    </comp>
    <comp name="--.HNN">
      <acc value="0.0440922907" flag="0"/>
      <vel value="0.0121675123" flag="0"/>
      <psa03 value="0.0845390365" flag="0"/>
      <psa10 value="0.0107299306" flag="0"/>
      <psa30 value="0.0008829942" flag="0"/>
    </comp>
    <comp name="--.HNE">
      <acc value="0.0309219287" flag="0"/>
      <vel value="0.0119707656" flag="0"/>
      <psa03 value="0.1213969257" flag="0"/>
      <psa10 value="0.0080411782" flag="0"/>
      <psa30 value="0.0005286829" flag="0"/>
    </comp>
  </station>
  <station code="SHAP" name="SHAP" netid="KO" insttype="CMG-5T" commtype="DIG" lat="39.0231" lon="29.222">
    <comp name="--.HNE">
      <acc value="0.0568095482" flag="0"/>
      <vel value="0.0171339371" flag="0"/>
      <psa03 value="0.0679164875" flag="0"/>
      <psa10 value="0.0054057481" flag="0"/>
      <psa30 value="0.0003701199" flag="0"/>
    </comp>
    <comp name="--.HNN">
      <acc value="0.0463560027" flag="0"/>
      <vel value="0.0186861521" flag="0"/>
      <psa03 value="0.0665747841" flag="0"/>
      <psa10 value="0.0091321576" flag="0"/>
      <psa30 value="0.0005230763" flag="0"/>
    </comp>
    <comp name="--.HNZ">
      <acc value="0.0284980062" flag="0"/>
      <vel value="0.0068218486" flag="0"/>
      <psa03 value="0.0310956118" flag="0"/>
      <psa10 value="0.0041196842" flag="0"/>
      <psa30 value="0.0002318662" flag="0"/>
    </comp>
  </station>
  <station code="SIMA" name="SIMA" netid="KO" insttype="CMG-6T" commtype="DIG" lat="39.0833" lon="28.9825">
    <comp name="--.HHZ">
      <acc value="0.0359726583" flag="0"/>
      <vel value="0.0089828721" flag="0"/>
      <psa03 value="0.0366391362" flag="0"/>
      <psa10 value="0.0038502658" flag="0"/>
      <psa30 value="0.0003009257" flag="0"/>
    </comp>
    <comp name="--.HHN">
      <acc value="0.0611896002" flag="0"/>
      <vel value="0.0163390071" flag="0"/>
      <psa03 value="0.1249679437" flag="0"/>
      <psa10 value="0.0101648446" flag="0"/>
      <psa30 value="0.0006529717" flag="0"/>
    </comp>
    <comp name="--.HHE">
      <acc value="0.0547939157" flag="0"/>
      <vel value="0.0175595700" flag="0"/>
      <psa03 value="0.0698155326" flag="0"/>
      <psa10 value="0.0056983959" flag="0"/>
      <psa30 value="0.0006120615" flag="0"/>
    </comp>
  </station>
  <station code="SMAA" name="SMAA" netid="KO" insttype="CMG-5T" commtype="DIG" lat="39.1005" lon="28.9805">
    <comp name="--.HNE">
      <acc value="0.0490834580" flag="0"/>
      <vel value="0.0232760931" flag="0"/>
      <psa03 value="0.1619534047" flag="0"/>
      <psa10 value="0.0287266033" flag="0"/>
      <psa30 value="0.0015432356" flag="0"/>
    </comp>
    <comp name="--.HNN">
      <acc value="0.0539371413" flag="0"/>
      <vel value="0.0296654061" flag="0"/>
      <psa03 value="0.1059955293" flag="0"/>
      <psa10 value="0.0214738811" flag="0"/>
      <psa30 value="0.0016062043" flag="0"/>
    </comp>
    <comp name="--.HNZ">
      <acc value="0.0309138832" flag="0"/>
      <vel value="0.0075071840" flag="0"/>
      <psa03 value="0.0416982028" flag="0"/>
      <psa10 value="0.0130352247" flag="0"/>
      <psa30 value="0.0005103009" flag="0"/>
    </comp>
  </station>
  <station code="SOMA" name="SOMA" netid="KO" insttype="CMG-5T" commtype="DIG" lat="39.1564" lon="27.5341">
    <comp name="--.HNZ">
      <acc value="0.1002917049" flag="0"/>
      <vel value="0.0203268752" flag="0"/>
      <psa03 value="0.0409743144" flag="0"/>
      <psa10 value="0.0078381229" flag="0"/>
      <psa30 value="0.0004158968" flag="0"/>
    </comp>
    <comp name="--.HNN">
      <acc value="0.0864081923" flag="0"/>
      <vel value="0.0231879906" flag="0"/>
      <psa03 value="0.1017125601" flag="0"/>
      <psa10 value="0.0152074301" flag="0"/>
      <psa30 value="0.0008429491" flag="0"/>
    </comp>
    <comp name="--.HNE">
      <acc value="0.0979414534" flag="0"/>
      <vel value="0.0213979607" flag="0"/>
      <psa03 value="0.1325264575" flag="0"/>
      <psa10 value="0.0077499929" flag="0"/>
      <psa30 value="0.0005291153" flag="0"/>
    </comp>
  </station>
  <station code="SUSR" name="SUSR" netid="KO" insttype="CMG-5T" commtype="DIG" lat="39.9627" lon="28.0835">
    <comp name="--.HNE">
      <acc value="0.0243285137" flag="0"/>
      <vel value="0.0063294859" flag="0"/>
      <psa03 value="0.0296894146" flag="0"/>
      <psa10 value="0.0031025027" flag="0"/>
      <psa30 value="0.0001958631" flag="0"/>
    </comp>
    <comp name="--.HNN">
      <acc value="0.0208770496" flag="0"/>
      <vel value="0.0062803506" flag="0"/>
      <psa03 value="0.0351214916" flag="0"/>
      <psa10 value="0.0026629002" flag="0"/>
      <psa30 value="0.0001976911" flag="0"/>
    </comp>
    <comp name="--.HNZ">
      <acc value="0.0311937757" flag="0"/>
      <vel value="0.0060807732" flag="0"/>
      <psa03 value="0.0282108900" flag="0"/>
      <psa10 value="0.0022746033" flag="0"/>
      <psa30 value="0.0002255965" flag="0"/>
    </comp>
  </station>
  <station code="TVSB" name="TVSB" netid="KO" insttype="CMG-3T" commtype="DIG" lat="39.4497" lon="29.4615">
    <comp name="--.HHE">
      <acc value="0.0299951049" flag="0"/>
      <vel value="0.0151742990" flag="0"/>
      <psa03 value="0.0874928318" flag="0"/>
      <psa10 value="0.0089501326" flag="0"/>
      <psa30 value="0.0006592327" flag="0"/>
    </comp>
    <comp name="--.HHN">
      <acc value="0.0314279114" flag="0"/>
      <vel value="0.0185129946" flag="0"/>
      <psa03 value="0.1193127195" flag="0"/>
      <psa10 value="0.0068899209" flag="0"/>
      <psa30 value="0.0005738992" flag="0"/>
    </comp>
    <comp name="--.HHZ">
      <acc value="0.0153966180" flag="0"/>
      <vel value="0.0071181173" flag="0"/>
      <psa03 value="0.0566743346" flag="0"/>
      <psa10 value="0.0041416921" flag="0"/>
      <psa30 value="0.0002428894" flag="0"/>
    </comp>
  </station>
  <station code="YAYO" name="YAYO" netid="KO" insttype="CMG-6T" commtype="DIG" lat="39.6113" lon="27.0726">
    <comp name="--.HHZ">
      <acc value="0.0087636573" flag="0"/>
      <vel value="0.0035579251" flag="0"/>
      <psa03 value="0.0186167680" flag="0"/>
      <psa10 value="0.0025756023" flag="0"/>
      <psa30 value="0.0001744186" flag="0"/>
    </comp>
    <comp name="--.HHE">
      <acc value="0.0156891608" flag="0"/>
      <vel value="0.0064197202" flag="0"/>
      <psa03 value="0.0354127162" flag="0"/>
      <psa10 value="0.0045514635" flag="0"/>
      <psa30 value="0.0003384221" flag="0"/>
    </comp>
    <comp name="--.HHN">
      <acc value="0.0115712729" flag="0"/>
      <vel value="0.0051348855" flag="0"/>
      <psa03 value="0.0386204310" flag="0"/>
      <psa10 value="0.0032997370" flag="0"/>
      <psa30 value="0.0002470433" flag="0"/>
    </comp>
  </station>
  <station code="YENI" name="YENI" netid="KO" insttype="CMG-5T" commtype="DIG" lat="39.9364" lon="27.2422">
    <comp name="--.HNE">
      <acc value="0.0225476441" flag="0"/>
      <vel value="0.0077619943" flag="0"/>
      <psa03 value="0.0358445681" flag="0"/>
      <psa10 value="0.0055021172" flag="0"/>
      <psa30 value="0.0004775269" flag="0"/>
    </comp>
    <comp name="--.HNN">
      <acc value="0.0301527328" flag="0"/>
      <vel value="0.0112137657" flag="0"/>
      <psa03 value="0.0436521428" flag="0"/>
      <psa10 value="0.0080666961" flag="0"/>
      <psa30 value="0.0005258967" flag="0"/>
    </comp>
    <comp name="--.HNZ">
      <acc value="0.0086605813" flag="0"/>
      <vel value="0.0030519305" flag="0"/>
      <psa03 value="0.0120312090" flag="0"/>
      <psa10 value="0.0024660483" flag="0"/>
      <psa30 value="0.0003923105" flag="0"/>
    </comp>
  </station>
</stationlist>
