<?xml version="1.0" encoding="UTF-8" standalone="yes"?>
<!DOCTYPE earthquake SYSTEM "stationlist.dtd">
<stationlist created="" xmlns="ch.ethz.sed.shakemap.usgs.xml">
  <station code="AGRB" name="AGRB" netid="KO" insttype="120s," lat="39.5755" lon="42.992">
    <comp name="--.HHZ">
      <acc value="0.0046004561" flag="0"/>
      <vel value="0.0030983197" flag="0"/>
      <psa03 value="0.0139549027" flag="0"/>
      <psa10 value="0.0024761861" flag="0"/>
      <psa30 value="0.0001879520" flag="0"/>
    </comp>
    <comp name="--.HHN">
      <acc value="0.0068973560" flag="0"/>
      <vel value="0.0029332826" flag="0"/>
      <psa03 value="0.0170016836" flag="0"/>
      <psa10 value="0.0040835608" flag="0"/>
      <psa30 value="0.0002704435" flag="0"/>
    </comp>
    <comp name="--.HHE">
      <acc value="0.0087798166" flag="0"/>
      <vel value="0.0039425143" flag="0"/>
      <psa03 value="0.0217951792" flag="0"/>
      <psa10 value="0.0063157290" flag="0"/>
      <psa30 value="0.0004544175" flag="0"/>
    </comp>
  </station>
  <station code="KARS" name="KARS" netid="KO" insttype="CMG-3T" lat="40.6152" lon="43.0937">
    <comp name="--.HHN">
      <acc value="0.0268986063" flag="0"/>
      <vel value="0.0075395890" flag="0"/>
      <psa03 value="0.0293068528" flag="0"/>
      <psa10 value="0.0042203415" flag="0"/>
      <psa30 value="0.0003370813" flag="0"/>
    </comp>
    <comp name="--.HHE">
      <acc value="0.0282555782" flag="0"/>
      <vel value="0.0114125558" flag="0"/>
      <psa03 value="0.0825923654" flag="0"/>
      <psa10 value="0.0049691905" flag="0"/>
      <psa30 value="0.0003567353" flag="0"/>
    </comp>
    <comp name="--.HHZ">
      <acc value="0.0207324204" flag="0"/>
      <vel value="0.0068925275" flag="0"/>
      <psa03 value="0.0412608032" flag="0"/>
      <psa10 value="0.0035308013" flag="0"/>
      <psa30 value="0.0002570477" flag="0"/>
    </comp>
  </station>
</stationlist>
