<stationlist created="1631873543">
	<station code="SKO1" name="SKO1" netid="HI" source="ITSAK Strong Motion Network" insttype="" lat="39.123383" lon="23.728705">
		<comp name="--.HNE" depth="0.0">
			<acc value="0.220799808" flag="0"/>
			<vel value="0.066544" flag="0"/>
			<psa03 value="0.262323557403" flag="0"/>
			<psa10 value="0.0175246274882" flag="0"/>
			<psa30 value="0.00143175061178" flag="0"/>
		</comp>
		<comp name="--.HNN" depth="0.0">
			<acc value="-0.215827206" flag="0"/>
			<vel value="0.073793" flag="0"/>
			<psa03 value="0.200400343443" flag="0"/>
			<psa10 value="0.017407850329" flag="0"/>
			<psa30 value="0.00151676080436" flag="0"/>
		</comp>
		<comp name="--.HNZ" depth="0.0">
			<acc value="-0.160314114" flag="0"/>
			<vel value="0.033315" flag="0"/>
			<psa03 value="0.0950324468572" flag="0"/>
			<psa10 value="0.0150320391575" flag="0"/>
			<psa30 value="0.00167022657306" flag="0"/>
		</comp>
	</station>
	<station code="VOL2" name="VOL2" netid="HI" source="ITSAK Strong Motion Network" insttype="" lat="39.366" lon="22.9506">
		<comp name="--.HNE" depth="0.0">
			<acc value="0.121184262" flag="0"/>
			<vel value="-0.056844" flag="0"/>
			<psa03 value="0.367959907229" flag="0"/>
			<psa10 value="0.0228601356275" flag="0"/>
			<psa30 value="0.00167470079372" flag="0"/>
		</comp>
		<comp name="--.HNN" depth="0.0">
			<acc value="-0.181103958" flag="0"/>
			<vel value="-0.081161" flag="0"/>
			<psa03 value="0.48039707246" flag="0"/>
			<psa10 value="0.0343405384237" flag="0"/>
			<psa30 value="0.00248498215558" flag="0"/>
		</comp>
		<comp name="--.HNZ" depth="0.0">
			<acc value="-0.073672254" flag="0"/>
			<vel value="-0.018292" flag="0"/>
			<psa03 value="0.0710953663164" flag="0"/>
			<psa10 value="0.00718783549323" flag="0"/>
			<psa30 value="0.000586122906699" flag="0"/>
		</comp>
	</station>
	<station code="DLFA" name="DLFA" netid="HL" source="National Observatory of Athens Seismic Network" insttype="" lat="38.47836" lon="22.49583">
		<comp name="--.HNE" depth="0.0">
			<acc value="0.007611444" flag="0"/>
			<vel value="-0.006242" flag="0"/>
			<psa03 value="0.0217447124165" flag="0"/>
			<psa10 value="0.00534356173642" flag="0"/>
			<psa30 value="0.000496191071397" flag="0"/>
		</comp>
		<comp name="--.HNN" depth="0.0">
			<acc value="-0.005963328" flag="0"/>
			<vel value="-0.004361" flag="0"/>
			<psa03 value="0.0212972903503" flag="0"/>
			<psa10 value="0.00409122737317" flag="0"/>
			<psa30 value="0.000404916969895" flag="0"/>
		</comp>
		<comp name="--.HNZ" depth="0.0">
			<acc value="0.005958126" flag="0"/>
			<vel value="0.004708" flag="0"/>
			<psa03 value="0.0138700840517" flag="0"/>
			<psa10 value="0.0026818478647" flag="0"/>
			<psa30 value="0.000253688311526" flag="0"/>
		</comp>
	</station>
	<station code="KYMI" name="KYMI" netid="HL" source="National Observatory of Athens Seismic Network" insttype="" lat="38.633147" lon="24.100138">
		<comp name="--.HNE" depth="1.0">
			<acc value="-0.012637596" flag="0"/>
			<vel value="-0.003941" flag="0"/>
			<psa03 value="0.020626157251" flag="0"/>
			<psa10 value="0.00227916800513" flag="0"/>
			<psa30 value="0.00024966151293" flag="0"/>
		</comp>
		<comp name="--.HNN" depth="1.0">
			<acc value="0.012393408" flag="0"/>
			<vel value="-0.004576" flag="0"/>
			<psa03 value="0.0132884353656" flag="0"/>
			<psa10 value="0.00606838548364" flag="0"/>
			<psa30 value="0.000353463432284" flag="0"/>
		</comp>
		<comp name="--.HNZ" depth="1.0">
			<acc value="-0.007472826" flag="0"/>
			<vel value="-0.002506" flag="0"/>
			<psa03 value="0.0128410132994" flag="0"/>
			<psa10 value="0.00339459121613" flag="0"/>
			<psa30 value="0.000174494605811" flag="0"/>
		</comp>
	</station>
</stationlist>
