<?xml version="1.0" encoding="UTF-8" standalone="yes"?>
<!DOCTYPE earthquake SYSTEM "stationlist.dtd">
<stationlist created="" xmlns="ch.ethz.sed.shakemap.usgs.xml">
  <station code="ATAL" name="ATAL" netid="HA" insttype="120" lat="38.6926" lon="23.0213">
    <comp name="--.HHE">
      <acc value="0.0000352182" flag="0"/>
      <vel value="0.0000030815" flag="0"/>
      <psa03 value="0.0000116092" flag="0"/>
      <psa10 value="0.0000027653" flag="0"/>
      <psa30 value="0.0000007290" flag="0"/>
    </comp>
    <comp name="--.HHN">
      <acc value="0.0000369593" flag="0"/>
      <vel value="0.0000032271" flag="0"/>
      <psa03 value="0.0000120488" flag="0"/>
      <psa10 value="0.0000025854" flag="0"/>
      <psa30 value="0.0000007112" flag="0"/>
    </comp>
    <comp name="--.HHZ">
      <acc value="0.0186191164" flag="0"/>
      <vel value="0.0042076116" flag="0"/>
      <psa03 value="0.0191063427" flag="0"/>
      <psa10 value="0.0036119410" flag="0"/>
      <psa30 value="0.0004090051" flag="0"/>
    </comp>
  </station>
  <station code="AXAR" name="AXAR" netid="HA" insttype="30" lat="38.7664" lon="22.659">
    <comp name="--.HHZ">
      <acc value="0.0178116819" flag="0"/>
      <vel value="0.0073085391" flag="0"/>
      <psa03 value="0.0378450610" flag="0"/>
      <psa10 value="0.0062385411" flag="0"/>
      <psa30 value="0.0004394271" flag="0"/>
    </comp>
    <comp name="--.HHE">
      <acc value="0.0237705582" flag="0"/>
      <vel value="0.0101325303" flag="0"/>
      <psa03 value="0.0714917987" flag="0"/>
      <psa10 value="0.0100705005" flag="0"/>
      <psa30 value="0.0009834800" flag="0"/>
    </comp>
    <comp name="--.HHN">
      <acc value="0.0220595125" flag="0"/>
      <vel value="0.0139348315" flag="0"/>
      <psa03 value="0.0940751567" flag="0"/>
      <psa10 value="0.0097748549" flag="0"/>
      <psa30 value="0.0008667500" flag="0"/>
    </comp>
  </station>
  <station code="STFN" name="STFN" netid="HA" insttype="1s-100Hz," lat="38.1766" lon="23.544">
    <comp name="--.HHZ">
      <acc value="0.0089208351" flag="0"/>
      <vel value="0.0050894784" flag="0"/>
      <psa03 value="0.0125257991" flag="0"/>
      <psa10 value="0.0037221174" flag="0"/>
      <psa30 value="0.0003055496" flag="0"/>
    </comp>
    <comp name="--.HHE">
      <acc value="0.0071900798" flag="0"/>
      <vel value="0.0037281541" flag="0"/>
      <psa03 value="0.0135537813" flag="0"/>
      <psa10 value="0.0040327106" flag="0"/>
      <psa30 value="0.0002784011" flag="0"/>
    </comp>
    <comp name="--.HHN">
      <acc value="0.0078923784" flag="0"/>
      <vel value="0.0033936337" flag="0"/>
      <psa03 value="0.0159558748" flag="0"/>
      <psa10 value="0.0046065626" flag="0"/>
      <psa30 value="0.0003295056" flag="0"/>
    </comp>
  </station>
  <station code="VILL" name="VILL" netid="HA" insttype="30" lat="38.1642" lon="23.3122">
    <comp name="--.HHN">
      <acc value="0.0082643162" flag="0"/>
      <vel value="0.0070728342" flag="0"/>
      <psa03 value="0.0185989817" flag="0"/>
      <psa10 value="0.0081517187" flag="0"/>
      <psa30 value="0.0006477535" flag="0"/>
    </comp>
    <comp name="--.HHE">
      <acc value="0.0093511048" flag="0"/>
      <vel value="0.0087796481" flag="0"/>
      <psa03 value="0.0198499440" flag="0"/>
      <psa10 value="0.0100759963" flag="0"/>
      <psa30 value="0.0007622769" flag="0"/>
    </comp>
    <comp name="--.HHZ">
      <acc value="0.0044201870" flag="0"/>
      <vel value="0.0031619845" flag="0"/>
      <psa03 value="0.0105283199" flag="0"/>
      <psa10 value="0.0030878324" flag="0"/>
      <psa30 value="0.0002555810" flag="0"/>
    </comp>
  </station>
  <station code="SKO1" name="SKO1" netid="HI" insttype="CMG-5TD,ACCELEROMETER,GURALP" lat="39.1234" lon="23.7287">
    <comp name="--.HNE">
      <acc value="0.2234048930" flag="0"/>
      <vel value="0.0657851261" flag="0"/>
      <psa03 value="0.2580864478" flag="0"/>
      <psa10 value="0.0175232852" flag="0"/>
      <psa30 value="0.0013478875" flag="0"/>
    </comp>
    <comp name="--.HNZ">
      <acc value="0.1702158542" flag="0"/>
      <vel value="0.0315956985" flag="0"/>
      <psa03 value="0.0954837968" flag="0"/>
      <psa10 value="0.0149517864" flag="0"/>
      <psa30 value="0.0015131693" flag="0"/>
    </comp>
    <comp name="--.HNN">
      <acc value="0.2200235741" flag="0"/>
      <vel value="0.0736084143" flag="0"/>
      <psa03 value="0.1991397659" flag="0"/>
      <psa10 value="0.0173241042" flag="0"/>
      <psa30 value="0.0015276808" flag="0"/>
    </comp>
  </station>
  <station code="VOL2" name="VOL2" netid="HI" insttype="CMG-5TD,ACCELEROMETER,GURALP" lat="39.366" lon="22.9506">
    <comp name="--.HNE">
      <acc value="0.1211364903" flag="0"/>
      <vel value="0.0568935842" flag="0"/>
      <psa03 value="0.3740250400" flag="0"/>
      <psa10 value="0.0228247226" flag="0"/>
      <psa30 value="0.0016878509" flag="0"/>
    </comp>
    <comp name="--.HNN">
      <acc value="0.1805333589" flag="0"/>
      <vel value="0.0811304272" flag="0"/>
      <psa03 value="0.4757037887" flag="0"/>
      <psa10 value="0.0341984258" flag="0"/>
      <psa30 value="0.0024250203" flag="0"/>
    </comp>
    <comp name="--.HNZ">
      <acc value="0.0753283732" flag="0"/>
      <vel value="0.0180374254" flag="0"/>
      <psa03 value="0.0706699397" flag="0"/>
      <psa10 value="0.0071465210" flag="0"/>
      <psa30 value="0.0005497196" flag="0"/>
    </comp>
  </station>
  <station code="DION" name="DION" netid="HL" insttype="30" lat="38.0779" lon="23.9331">
    <comp name="--.HHE">
      <acc value="0.0080396164" flag="0"/>
      <vel value="0.0038461305" flag="0"/>
      <psa03 value="0.0161900526" flag="0"/>
      <psa10 value="0.0034373224" flag="0"/>
      <psa30 value="0.0002541034" flag="0"/>
    </comp>
    <comp name="--.HHZ">
      <acc value="0.0066010515" flag="0"/>
      <vel value="0.0027208800" flag="0"/>
      <psa03 value="0.0069992617" flag="0"/>
      <psa10 value="0.0030107332" flag="0"/>
      <psa30 value="0.0001794137" flag="0"/>
    </comp>
    <comp name="--.HHN">
      <acc value="0.0075012772" flag="0"/>
      <vel value="0.0035466005" flag="0"/>
      <psa03 value="0.0130132338" flag="0"/>
      <psa10 value="0.0047675597" flag="0"/>
      <psa30 value="0.0003000000" flag="0"/>
    </comp>
  </station>
  <station code="KYMI" name="KYMI" netid="HL" insttype="60" lat="38.6331" lon="24.1001">
    <comp name="--.HHZ">
      <acc value="0.0079620629" flag="0"/>
      <vel value="0.0025453665" flag="0"/>
      <psa03 value="0.0131582678" flag="0"/>
      <psa10 value="0.0034489562" flag="0"/>
      <psa30 value="0.0001633402" flag="0"/>
    </comp>
    <comp name="--.HHE">
      <acc value="0.0129714765" flag="0"/>
      <vel value="0.0039252159" flag="0"/>
      <psa03 value="0.0209970776" flag="0"/>
      <psa10 value="0.0022939084" flag="0"/>
      <psa30 value="0.0002478203" flag="0"/>
    </comp>
    <comp name="--.HHN">
      <acc value="0.0125328826" flag="0"/>
      <vel value="0.0046821396" flag="0"/>
      <psa03 value="0.0130442036" flag="0"/>
      <psa10 value="0.0060853801" flag="0"/>
      <psa30 value="0.0003522408" flag="0"/>
    </comp>
  </station>
  <station code="LKR" name="LKR" netid="HL" insttype="30" lat="38.6496" lon="22.9989">
    <comp name="--.HHZ">
      <acc value="0.0228402436" flag="0"/>
      <vel value="0.0057854930" flag="0"/>
      <psa03 value="0.0224018700" flag="0"/>
      <psa10 value="0.0037802588" flag="0"/>
      <psa30 value="0.0003353743" flag="0"/>
    </comp>
    <comp name="--.HHN">
      <acc value="0.0396140337" flag="0"/>
      <vel value="0.0138382216" flag="0"/>
      <psa03 value="0.0606009835" flag="0"/>
      <psa10 value="0.0070654810" flag="0"/>
      <psa30 value="0.0004899919" flag="0"/>
    </comp>
    <comp name="--.HHE">
      <acc value="0.0483407092" flag="0"/>
      <vel value="0.0140463748" flag="0"/>
      <psa03 value="0.0552059663" flag="0"/>
      <psa10 value="0.0041329130" flag="0"/>
      <psa30 value="0.0003783861" flag="0"/>
    </comp>
  </station>
  <station code="NEO" name="NEO" netid="HL" insttype="120" lat="39.3057" lon="23.2219">
    <comp name="--.HHN">
      <acc value="0.5299439209" flag="0"/>
      <vel value="0.1739572060" flag="0"/>
      <psa03 value="1.1155082492" flag="0"/>
      <psa10 value="0.0464581483" flag="0"/>
      <psa30 value="0.0046466979" flag="0"/>
    </comp>
    <comp name="--.HHE">
      <acc value="0.3877296410" flag="0"/>
      <vel value="0.1210869164" flag="0"/>
      <psa03 value="0.9868949587" flag="0"/>
      <psa10 value="0.0412149238" flag="0"/>
      <psa30 value="0.0033362500" flag="0"/>
    </comp>
    <comp name="--.HHZ">
      <acc value="0.2289912410" flag="0"/>
      <vel value="0.1149752452" flag="0"/>
      <psa03 value="0.8267293543" flag="0"/>
      <psa10 value="0.0418735373" flag="0"/>
      <psa30 value="0.0028915028" flag="0"/>
    </comp>
  </station>
  <station code="PTL" name="PTL" netid="HL" insttype="120" lat="38.0473" lon="23.8638">
    <comp name="--.HHE">
      <acc value="0.0035895086" flag="0"/>
      <vel value="0.0025971757" flag="0"/>
      <psa03 value="0.0072337645" flag="0"/>
      <psa10 value="0.0027337766" flag="0"/>
      <psa30 value="0.0001547001" flag="0"/>
    </comp>
    <comp name="--.HHZ">
      <acc value="0.0038128177" flag="0"/>
      <vel value="0.0017405773" flag="0"/>
      <psa03 value="0.0095266064" flag="0"/>
      <psa10 value="0.0014414621" flag="0"/>
      <psa30 value="0.0001717062" flag="0"/>
    </comp>
    <comp name="--.HHN">
      <acc value="0.0045908313" flag="0"/>
      <vel value="0.0019974302" flag="0"/>
      <psa03 value="0.0124294019" flag="0"/>
      <psa10 value="0.0019312216" flag="0"/>
      <psa30 value="0.0003724706" flag="0"/>
    </comp>
  </station>
  <station code="SKY" name="SKY" netid="HL" insttype="120" lat="38.8831" lon="24.5482">
    <comp name="--.HHZ">
      <acc value="0.0417642709" flag="0"/>
      <vel value="0.0102801608" flag="0"/>
      <psa03 value="0.0189009318" flag="0"/>
      <psa10 value="0.0085723578" flag="0"/>
      <psa30 value="0.0005840161" flag="0"/>
    </comp>
    <comp name="--.HHN">
      <acc value="0.1015303986" flag="0"/>
      <vel value="0.0243043873" flag="0"/>
      <psa03 value="0.0474262884" flag="0"/>
      <psa10 value="0.0067859349" flag="0"/>
      <psa30 value="0.0008859489" flag="0"/>
    </comp>
    <comp name="--.HHE">
      <acc value="0.1408807569" flag="0"/>
      <vel value="0.0421993914" flag="0"/>
      <psa03 value="0.1040009678" flag="0"/>
      <psa10 value="0.0071629035" flag="0"/>
      <psa30 value="0.0006946450" flag="0"/>
    </comp>
  </station>
  <station code="AGG" name="AGG" netid="HT" insttype="120P," lat="39.0211" lon="22.336">
    <comp name="--.HHE">
      <acc value="0.0044907112" flag="0"/>
      <vel value="0.0026224839" flag="0"/>
      <psa03 value="0.0170403640" flag="0"/>
      <psa10 value="0.0030944141" flag="0"/>
      <psa30 value="0.0002088048" flag="0"/>
    </comp>
    <comp name="--.HHZ">
      <acc value="0.0047927532" flag="0"/>
      <vel value="0.0020852792" flag="0"/>
      <psa03 value="0.0117833638" flag="0"/>
      <psa10 value="0.0030562499" flag="0"/>
      <psa30 value="0.0003106589" flag="0"/>
    </comp>
    <comp name="--.HHN">
      <acc value="0.0046633975" flag="0"/>
      <vel value="0.0024054483" flag="0"/>
      <psa03 value="0.0156802518" flag="0"/>
      <psa10 value="0.0029496948" flag="0"/>
      <psa30 value="0.0003361657" flag="0"/>
    </comp>
  </station>
  <station code="AOS2" name="AOS2" netid="HT" insttype="100" lat="39.1478" lon="23.8436">
    <comp name="--.HHE">
      <acc value="0.1515304997" flag="0"/>
      <vel value="0.0407377475" flag="0"/>
      <psa03 value="0.1908226051" flag="0"/>
      <psa10 value="0.0138681886" flag="0"/>
      <psa30 value="0.0011067968" flag="0"/>
    </comp>
    <comp name="--.HHN">
      <acc value="0.1887317770" flag="0"/>
      <vel value="0.0501720715" flag="0"/>
      <psa03 value="0.1327541328" flag="0"/>
      <psa10 value="0.0147108404" flag="0"/>
      <psa30 value="0.0008707837" flag="0"/>
    </comp>
    <comp name="--.HHZ">
      <acc value="0.1977715660" flag="0"/>
      <vel value="0.0470785031" flag="0"/>
      <psa03 value="0.1923376377" flag="0"/>
      <psa10 value="0.0133864454" flag="0"/>
      <psa30 value="0.0008273957" flag="0"/>
    </comp>
  </station>
  <station code="PAIG" name="PAIG" netid="HT" insttype="100" lat="39.9363" lon="23.6768">
    <comp name="--.HHE">
      <acc value="0.0056089646" flag="0"/>
      <vel value="0.0032571475" flag="0"/>
      <psa03 value="0.0106361312" flag="0"/>
      <psa10 value="0.0021590634" flag="0"/>
      <psa30 value="0.0002401119" flag="0"/>
    </comp>
    <comp name="--.HHN">
      <acc value="0.0048836314" flag="0"/>
      <vel value="0.0025145096" flag="0"/>
      <psa03 value="0.0127584268" flag="0"/>
      <psa10 value="0.0009829463" flag="0"/>
      <psa30 value="0.0000773382" flag="0"/>
    </comp>
    <comp name="--.HHZ">
      <acc value="0.0019235522" flag="0"/>
      <vel value="0.0011568339" flag="0"/>
      <psa03 value="0.0041076505" flag="0"/>
      <psa10 value="0.0009057411" flag="0"/>
      <psa30 value="0.0000438881" flag="0"/>
    </comp>
  </station>
  <station code="XOR" name="XOR" netid="HT" insttype="Compact," lat="39.366" lon="23.1918">
    <comp name="--.HHN">
      <acc value="0.1276437470" flag="0"/>
      <vel value="0.0359968161" flag="0"/>
      <psa03 value="0.2153587275" flag="0"/>
      <psa10 value="0.0138439536" flag="0"/>
      <psa30 value="0.0014555920" flag="0"/>
    </comp>
    <comp name="--.HHE">
      <acc value="0.1041176640" flag="0"/>
      <vel value="0.0326152790" flag="0"/>
      <psa03 value="0.1945027471" flag="0"/>
      <psa10 value="0.0180323354" flag="0"/>
      <psa30 value="0.0012748209" flag="0"/>
    </comp>
    <comp name="--.HHZ">
      <acc value="0.0614835021" flag="0"/>
      <vel value="0.0259142364" flag="0"/>
      <psa03 value="0.1634957894" flag="0"/>
      <psa10 value="0.0114548000" flag="0"/>
      <psa30 value="0.0007101508" flag="0"/>
    </comp>
  </station>
</stationlist>
