<?xml version="1.0" encoding="UTF-8" standalone="yes"?>
<!DOCTYPE earthquake SYSTEM "stationlist.dtd">
<stationlist created="" xmlns="ch.ethz.sed.shakemap.usgs.xml">
  <station code="BNN" name="BNN" netid="KO" insttype="CMG-3T" lat="38.8521" lon="35.8472">
    <comp name="--.HHE">
      <acc value="0.0499178609" flag="0"/>
      <vel value="0.0300152017" flag="0"/>
      <psa03 value="0.1240680037" flag="0"/>
      <psa10 value="0.0537553729" flag="0"/>
      <psa30 value="0.0032155196" flag="0"/>
    </comp>
    <comp name="--.HHZ">
      <acc value="0.0265867832" flag="0"/>
      <vel value="0.0208768720" flag="0"/>
      <psa03 value="0.0541149639" flag="0"/>
      <psa10 value="0.0466997027" flag="0"/>
      <psa30 value="0.0021571017" flag="0"/>
    </comp>
    <comp name="--.HHN">
      <acc value="0.0346019492" flag="0"/>
      <vel value="0.0238487127" flag="0"/>
      <psa03 value="0.0983450070" flag="0"/>
      <psa10 value="0.0531966544" flag="0"/>
      <psa30 value="0.0038584498" flag="0"/>
    </comp>
  </station>
  <station code="CEYT" name="CEYT" netid="KO" insttype="CMG-3ESP" lat="37.0105" lon="35.7478">
    <comp name="--.HHE">
      <acc value="0.0397938655" flag="0"/>
      <vel value="0.0219963873" flag="0"/>
      <psa03 value="0.1127672684" flag="0"/>
      <psa10 value="0.0292256477" flag="0"/>
      <psa30 value="0.0020571409" flag="0"/>
    </comp>
    <comp name="--.HHN">
      <acc value="0.0293232706" flag="0"/>
      <vel value="0.0231060751" flag="0"/>
      <psa03 value="0.0665999862" flag="0"/>
      <psa10 value="0.0146188733" flag="0"/>
      <psa30 value="0.0023870969" flag="0"/>
    </comp>
    <comp name="--.HHZ">
      <acc value="0.0145631376" flag="0"/>
      <vel value="0.0100973908" flag="0"/>
      <psa03 value="0.0570749878" flag="0"/>
      <psa10 value="0.0101059047" flag="0"/>
      <psa30 value="0.0007003938" flag="0"/>
    </comp>
  </station>
  <station code="CMRD" name="CMRD" netid="KO" insttype="CMG-5T" lat="37.6623" lon="34.9902">
    <comp name="--.HNE">
      <acc value="0.0288009409" flag="0"/>
      <vel value="0.0179449302" flag="0"/>
      <psa03 value="0.0686789219" flag="0"/>
      <psa10 value="0.0226955526" flag="0"/>
      <psa30 value="0.0015193584" flag="0"/>
    </comp>
    <comp name="--.HNZ">
      <acc value="0.0209124967" flag="0"/>
      <vel value="0.0144571699" flag="0"/>
      <psa03 value="0.0501402509" flag="0"/>
      <psa10 value="0.0153688238" flag="0"/>
      <psa30 value="0.0017038244" flag="0"/>
    </comp>
    <comp name="--.HNN">
      <acc value="0.0303051373" flag="0"/>
      <vel value="0.0184732024" flag="0"/>
      <psa03 value="0.0831492226" flag="0"/>
      <psa10 value="0.0275014695" flag="0"/>
      <psa30 value="0.0021827229" flag="0"/>
    </comp>
  </station>
  <station code="DARE" name="DARE" netid="KO" insttype="CMG-3ESP" lat="38.5712" lon="37.4832">
    <comp name="--.HHN">
      <acc value="0.0286837794" flag="0"/>
      <vel value="0.0196471067" flag="0"/>
      <psa03 value="0.0557266196" flag="0"/>
      <psa10 value="0.0257842610" flag="0"/>
      <psa30 value="0.0013971500" flag="0"/>
    </comp>
    <comp name="--.HHZ">
      <acc value="0.0221268808" flag="0"/>
      <vel value="0.0164188644" flag="0"/>
      <psa03 value="0.0658824974" flag="0"/>
      <psa10 value="0.0239304851" flag="0"/>
      <psa30 value="0.0012548237" flag="0"/>
    </comp>
  </station>
  <station code="GAZ" name="GAZ" netid="KO" insttype="CMG-3T" lat="37.1721" lon="37.2096">
    <comp name="--.HHE">
      <acc value="0.1289781648" flag="0"/>
      <vel value="0.1132471714" flag="0"/>
      <psa03 value="0.2189666936" flag="0"/>
      <psa10 value="0.1405650203" flag="0"/>
      <psa30 value="0.0097789196" flag="0"/>
    </comp>
    <comp name="--.HHN">
      <acc value="0.0917503676" flag="0"/>
      <vel value="0.1007165962" flag="0"/>
      <psa03 value="0.2461406912" flag="0"/>
      <psa10 value="0.1788670161" flag="0"/>
      <psa30 value="0.0113537762" flag="0"/>
    </comp>
    <comp name="--.HHZ">
      <acc value="0.0659091973" flag="0"/>
      <vel value="0.0631482001" flag="0"/>
      <psa03 value="0.1588350141" flag="0"/>
      <psa10 value="0.0723513652" flag="0"/>
      <psa30 value="0.0055319161" flag="0"/>
    </comp>
  </station>
  <station code="KHMN" name="KHMN" netid="KO" insttype="CMG-5T" lat="37.3916" lon="37.1574">
    <comp name="--.HNE">
      <acc value="0.1346672532" flag="0"/>
      <vel value="0.0764245893" flag="0"/>
      <psa03 value="0.4706499842" flag="0"/>
      <psa10 value="0.0640689374" flag="0"/>
      <psa30 value="0.0062931788" flag="0"/>
    </comp>
    <comp name="--.HNN">
      <acc value="0.0723774496" flag="0"/>
      <vel value="0.0358474043" flag="0"/>
      <psa03 value="0.1702228418" flag="0"/>
      <psa10 value="0.0437925006" flag="0"/>
      <psa30 value="0.0037041528" flag="0"/>
    </comp>
    <comp name="--.HNZ">
      <acc value="0.0683685300" flag="0"/>
      <vel value="0.0300177961" flag="0"/>
      <psa03 value="0.1771146075" flag="0"/>
      <psa10 value="0.0228980885" flag="0"/>
      <psa30 value="0.0026597711" flag="0"/>
    </comp>
  </station>
  <station code="ANDN" name="ANDN" netid="TU" insttype="T" lat="37.58" lon="36.3452">
    <comp name="--.HHN">
      <acc value="1.0363311643" flag="0"/>
      <vel value="0.4660901028" flag="0"/>
      <psa03 value="2.6416358988" flag="0"/>
      <psa10 value="0.5166615287" flag="0"/>
      <psa30 value="0.0273319872" flag="0"/>
    </comp>
    <comp name="--.HHZ">
      <acc value="0.4291572906" flag="0"/>
      <vel value="0.2495432134" flag="0"/>
      <psa03 value="0.8874429721" flag="0"/>
      <psa10 value="0.3390646541" flag="0"/>
      <psa30 value="0.0155100526" flag="0"/>
    </comp>
    <comp name="--.HHE">
      <acc value="0.7111903263" flag="0"/>
      <vel value="0.4473229506" flag="0"/>
      <psa03 value="2.2049170868" flag="0"/>
      <psa10 value="0.5734564169" flag="0"/>
      <psa30 value="0.0430176979" flag="0"/>
    </comp>
  </station>
</stationlist>
