<?xml version="1.0" encoding="UTF-8" standalone="yes"?>
<!DOCTYPE earthquake SYSTEM "stationlist.dtd">
<stationlist created="" xmlns="ch.ethz.sed.shakemap.usgs.xml">
  <station code="BNN" name="BNN" netid="KO" insttype="CMG-3T" lat="38.8521" lon="35.8472">
    <comp name="--.HHZ">
      <acc value="0.0265867833" flag="0"/>
      <vel value="0.0208768719" flag="0"/>
      <psa03 value="0.0541149639" flag="0"/>
      <psa10 value="0.0466997027" flag="0"/>
      <psa30 value="0.0021571015" flag="0"/>
    </comp>
    <comp name="--.HHN">
      <acc value="0.0346019491" flag="0"/>
      <vel value="0.0238487130" flag="0"/>
      <psa03 value="0.0983450070" flag="0"/>
      <psa10 value="0.0531966544" flag="0"/>
      <psa30 value="0.0038584344" flag="0"/>
    </comp>
    <comp name="--.HHE">
      <acc value="0.0499178609" flag="0"/>
      <vel value="0.0300152016" flag="0"/>
      <psa03 value="0.1240680037" flag="0"/>
      <psa10 value="0.0537553729" flag="0"/>
      <psa30 value="0.0032155092" flag="0"/>
    </comp>
  </station>
  <station code="CEYT" name="CEYT" netid="KO" insttype="CMG-3ESP" lat="37.0105" lon="35.7478">
    <comp name="--.HHN">
      <acc value="0.0293232706" flag="0"/>
      <vel value="0.0231060750" flag="0"/>
      <psa03 value="0.0665999862" flag="0"/>
      <psa10 value="0.0146188732" flag="0"/>
      <psa30 value="0.0023871014" flag="0"/>
    </comp>
    <comp name="--.HHZ">
      <acc value="0.0145631379" flag="0"/>
      <vel value="0.0100973912" flag="0"/>
      <psa03 value="0.0570749878" flag="0"/>
      <psa10 value="0.0101059075" flag="0"/>
      <psa30 value="0.0007003606" flag="0"/>
    </comp>
    <comp name="--.HHE">
      <acc value="0.0397938656" flag="0"/>
      <vel value="0.0219963879" flag="0"/>
      <psa03 value="0.1127672684" flag="0"/>
      <psa10 value="0.0292256477" flag="0"/>
      <psa30 value="0.0020571524" flag="0"/>
    </comp>
  </station>
  <station code="CMRD" name="CMRD" netid="KO" insttype="CMG-5T" lat="37.6623" lon="34.9902">
    <comp name="--.HNE">
      <acc value="0.0288009429" flag="0"/>
      <vel value="0.0179449316" flag="0"/>
      <psa03 value="0.0686789219" flag="0"/>
      <psa10 value="0.0226955526" flag="0"/>
      <psa30 value="0.0015195824" flag="0"/>
    </comp>
    <comp name="--.HNN">
      <acc value="0.0303051292" flag="0"/>
      <vel value="0.0184732011" flag="0"/>
      <psa03 value="0.0831492226" flag="0"/>
      <psa10 value="0.0275014695" flag="0"/>
      <psa30 value="0.0021827904" flag="0"/>
    </comp>
    <comp name="--.HNZ">
      <acc value="0.0209124957" flag="0"/>
      <vel value="0.0144571723" flag="0"/>
      <psa03 value="0.0501402509" flag="0"/>
      <psa10 value="0.0153688238" flag="0"/>
      <psa30 value="0.0017043635" flag="0"/>
    </comp>
  </station>
  <station code="DARE" name="DARE" netid="KO" insttype="CMG-3ESP" lat="38.5712" lon="37.4832">
    <comp name="--.HHN">
      <acc value="0.0286837793" flag="0"/>
      <vel value="0.0196471065" flag="0"/>
      <psa03 value="0.0557266196" flag="0"/>
      <psa10 value="0.0257842610" flag="0"/>
      <psa30 value="0.0013971215" flag="0"/>
    </comp>
    <comp name="--.HHZ">
      <acc value="0.0221268808" flag="0"/>
      <vel value="0.0164188647" flag="0"/>
      <psa03 value="0.0658824974" flag="0"/>
      <psa10 value="0.0239304851" flag="0"/>
      <psa30 value="0.0012548407" flag="0"/>
    </comp>
  </station>
  <station code="GAZ" name="GAZ" netid="KO" insttype="CMG-3T" lat="37.1721" lon="37.2096">
    <comp name="--.HHE">
      <acc value="0.1289781655" flag="0"/>
      <vel value="0.1132471711" flag="0"/>
      <psa03 value="0.2189666936" flag="0"/>
      <psa10 value="0.1405650203" flag="0"/>
      <psa30 value="0.0097788989" flag="0"/>
    </comp>
    <comp name="--.HHN">
      <acc value="0.0917503675" flag="0"/>
      <vel value="0.1007165963" flag="0"/>
      <psa03 value="0.2461406912" flag="0"/>
      <psa10 value="0.1788670161" flag="0"/>
      <psa30 value="0.0113537898" flag="0"/>
    </comp>
    <comp name="--.HHZ">
      <acc value="0.0659091980" flag="0"/>
      <vel value="0.0631482000" flag="0"/>
      <psa03 value="0.1588350141" flag="0"/>
      <psa10 value="0.0723513651" flag="0"/>
      <psa30 value="0.0055319035" flag="0"/>
    </comp>
  </station>
  <station code="KHMN" name="KHMN" netid="KO" insttype="CMG-5T" lat="37.3916" lon="37.1574">
    <comp name="--.HNE">
      <acc value="0.1346672583" flag="0"/>
      <vel value="0.0764245920" flag="0"/>
      <psa03 value="0.4706499842" flag="0"/>
      <psa10 value="0.0640689398" flag="0"/>
      <psa30 value="0.0062933111" flag="0"/>
    </comp>
    <comp name="--.HNZ">
      <acc value="0.0683685299" flag="0"/>
      <vel value="0.0300178174" flag="0"/>
      <psa03 value="0.1771146075" flag="0"/>
      <psa10 value="0.0228980887" flag="0"/>
      <psa30 value="0.0026602101" flag="0"/>
    </comp>
    <comp name="--.HNN">
      <acc value="0.0723774566" flag="0"/>
      <vel value="0.0358473956" flag="0"/>
      <psa03 value="0.1702228418" flag="0"/>
      <psa10 value="0.0437924992" flag="0"/>
      <psa30 value="0.0037054615" flag="0"/>
    </comp>
  </station>
  <station code="ANDN" name="ANDN" netid="TU" insttype="T" lat="37.58" lon="36.3452">
    <comp name="--.HHE">
      <acc value="0.7111903260" flag="0"/>
      <vel value="0.4473229513" flag="0"/>
      <psa03 value="2.2049170868" flag="0"/>
      <psa10 value="0.5734564169" flag="0"/>
      <psa30 value="0.0430176266" flag="0"/>
    </comp>
    <comp name="--.HHN">
      <acc value="1.0363311641" flag="0"/>
      <vel value="0.4660901026" flag="0"/>
      <psa03 value="2.6416358988" flag="0"/>
      <psa10 value="0.5166615292" flag="0"/>
      <psa30 value="0.0273320013" flag="0"/>
    </comp>
    <comp name="--.HHZ">
      <acc value="0.4291572910" flag="0"/>
      <vel value="0.2495432131" flag="0"/>
      <psa03 value="0.8874429721" flag="0"/>
      <psa10 value="0.3390646537" flag="0"/>
      <psa30 value="0.0155097385" flag="0"/>
    </comp>
  </station>
</stationlist>
