<stationlist xmlns:esm="https://esm-db.eu/esmws/shakemap/1/" created="1784166811">
	<station code="MALA" name="MALA" netid="CL" source="Corinth Riff Laboratory (CRLNET)" insttype="" lat="38.39341" lon="21.87263" esm:processing="automatic (Paolucci et al 2011)" esm:quality="best">
		<comp name="01.HNE" depth="0.0">
			<acc value="0.0170884050579177" flag="0"/>
			<vel value="0.0242259747200465" flag="0"/>
			<psa03 value="0.0413735923599428" flag="0"/>
			<psa10 value="0.0574885520844364" flag="0"/>
			<psa30 value="0.0057069259725042" flag="0"/>
		</comp>
		<comp name="01.HNN" depth="0.0">
			<acc value="0.0197798096290522" flag="0"/>
			<vel value="0.0247797846733295" flag="0"/>
			<psa03 value="0.0437570653574981" flag="0"/>
			<psa10 value="0.0461693534930815" flag="0"/>
			<psa30 value="0.00336180561979009" flag="0"/>
		</comp>
		<comp name="01.HNZ" depth="0.0">
			<acc value="0.00683546816489175" flag="0"/>
			<vel value="0.00834922825995355" flag="0"/>
			<psa03 value="0.0131501107136307" flag="0"/>
			<psa10 value="0.0138904036085685" flag="0"/>
			<psa30 value="0.00239879911700214" flag="0"/>
		</comp>
	</station>
	<station code="ROD3" name="ROD3" netid="CL" source="Corinth Riff Laboratory (CRLNET)" insttype="" lat="38.30811" lon="21.89204" esm:processing="automatic (Paolucci et al 2011)" esm:quality="good">
		<comp name="00.HNE" depth="0.0">
			<acc value="0.0239892681054007" flag="0"/>
			<vel value="0.0161744395331024" flag="0"/>
			<psa03 value="0.0763824610048426" flag="0"/>
			<psa10 value="0.0216447688597099" flag="0"/>
			<psa30 value="0.00283048875598876" flag="0"/>
		</comp>
		<comp name="00.HNN" depth="0.0">
			<acc value="0.021519465676084" flag="0"/>
			<vel value="0.0172492987368817" flag="0"/>
			<psa03 value="0.103717120750232" flag="0"/>
			<psa10 value="0.0258402505397809" flag="0"/>
			<psa30 value="0.00224028028257399" flag="0"/>
		</comp>
		<comp name="00.HNZ" depth="0.0">
			<acc value="0.00965138994190884" flag="0"/>
			<vel value="0.0102406857142679" flag="0"/>
			<psa03 value="0.0201768939118653" flag="0"/>
			<psa10 value="0.0252210357698413" flag="0"/>
			<psa30 value="0.00118876145794578" flag="0"/>
		</comp>
	</station>
	<station code="TRIZ" name="TRIZ" netid="CL" source="Corinth Riff Laboratory (CRLNET)" insttype="" lat="38.36543" lon="22.07272" esm:processing="automatic (Paolucci et al 2011)" esm:quality="best">
		<comp name="00.HNE" depth="0.0">
			<acc value="0.00656175722894052" flag="0"/>
			<vel value="0.00897422600308641" flag="0"/>
			<psa03 value="0.0187338425876305" flag="0"/>
			<psa10 value="0.00811831467350449" flag="0"/>
			<psa30 value="0.00340959961924133" flag="0"/>
		</comp>
		<comp name="00.HNN" depth="0.0">
			<acc value="0.0103266295011371" flag="0"/>
			<vel value="0.00890513702459959" flag="0"/>
			<psa03 value="0.0489835417942451" flag="0"/>
			<psa10 value="0.0120325239706605" flag="0"/>
			<psa30 value="0.00262469929011328" flag="0"/>
		</comp>
		<comp name="00.HNZ" depth="0.0">
			<acc value="0.00442582692746843" flag="0"/>
			<vel value="0.00453201565512878" flag="0"/>
			<psa03 value="0.0114902038779492" flag="0"/>
			<psa10 value="0.00958309983333254" flag="0"/>
			<psa30 value="0.00131130603425588" flag="0"/>
		</comp>
	</station>
	<station code="AGR3" name="AGR3" netid="HI" source="ITSAK Strong Motion Network" insttype="" lat="38.5893" lon="21.4162" esm:processing="manual (Paolucci et al 2011)" esm:quality="good">
		<comp name="--.HNE" depth="0.0">
			<acc value="0.0280676328809745" flag="0"/>
			<vel value="0.0295387474469637" flag="0"/>
			<psa03 value="0.0631014822468462" flag="0"/>
			<psa10 value="0.0572101111390903" flag="0"/>
			<psa30 value="0.00572571096691789" flag="0"/>
		</comp>
		<comp name="--.HNN" depth="0.0">
			<acc value="0.018307365626696" flag="0"/>
			<vel value="0.0273748208955894" flag="0"/>
			<psa03 value="0.0617166457165558" flag="0"/>
			<psa10 value="0.0399640911749067" flag="0"/>
			<psa30 value="0.0044583265922564" flag="0"/>
		</comp>
		<comp name="--.HNZ" depth="0.0">
			<acc value="0.0124368703008725" flag="0"/>
			<vel value="0.0146958849536835" flag="0"/>
			<psa03 value="0.0293977339139285" flag="0"/>
			<psa10 value="0.0344869620919854" flag="0"/>
			<psa30 value="0.00279002795065898" flag="0"/>
		</comp>
	</station>
	<station code="AIG2" name="AIG2" netid="HI" source="ITSAK Strong Motion Network" insttype="" lat="38.2417" lon="22.0726" esm:processing="manual (Paolucci et al 2011)" esm:quality="good">
		<comp name="--.HNE" depth="0.0">
			<acc value="0.00750462292648735" flag="0"/>
			<vel value="0.01032668963614" flag="0"/>
			<psa03 value="0.0176394719138609" flag="0"/>
			<psa10 value="0.0191225355241299" flag="0"/>
			<psa30 value="0.00312063297661943" flag="0"/>
		</comp>
		<comp name="--.HNN" depth="0.0">
			<acc value="0.00892039029505295" flag="0"/>
			<vel value="0.00976603756515991" flag="0"/>
			<psa03 value="0.0159942431338619" flag="0"/>
			<psa10 value="0.0157044100275911" flag="0"/>
			<psa30 value="0.00229675423202932" flag="0"/>
		</comp>
		<comp name="--.HNZ" depth="0.0">
			<acc value="0.00465650118558135" flag="0"/>
			<vel value="0.00690811482697294" flag="0"/>
			<psa03 value="0.0105251256233346" flag="0"/>
			<psa10 value="0.014409083593572" flag="0"/>
			<psa30 value="0.00208556503344804" flag="0"/>
		</comp>
	</station>
	<station code="ARE2" name="ARE2" netid="HI" source="ITSAK Strong Motion Network" insttype="" lat="36.66629" lon="22.382635" esm:processing="automatic (Paolucci et al 2011)" esm:quality="good">
		<comp name="--.HNE" depth="0.0">
			<acc value="0.00683496651482684" flag="0"/>
			<vel value="0.00584232634230992" flag="0"/>
			<psa03 value="0.0271507933984801" flag="0"/>
			<psa10 value="0.0102056279477649" flag="0"/>
			<psa30 value="0.000676548828456222" flag="0"/>
		</comp>
		<comp name="--.HNN" depth="0.0">
			<acc value="0.00761623978227112" flag="0"/>
			<vel value="0.0061058069931929" flag="0"/>
			<psa03 value="0.0310696155012119" flag="0"/>
			<psa10 value="0.00793494908893443" flag="0"/>
			<psa30 value="0.000664057063438096" flag="0"/>
		</comp>
		<comp name="--.HNZ" depth="0.0">
			<acc value="0.00419267782133739" flag="0"/>
			<vel value="0.00278962208426787" flag="0"/>
			<psa03 value="0.0119077120045636" flag="0"/>
			<psa10 value="0.00536056573617173" flag="0"/>
			<psa30 value="0.000454309470772803" flag="0"/>
		</comp>
	</station>
	<station code="ARG2" name="ARG2" netid="HI" source="ITSAK Strong Motion Network" insttype="" lat="38.1783" lon="20.4878" esm:processing="automatic (Paolucci et al 2011)" esm:quality="best">
		<comp name="--.HNE" depth="0.0">
			<acc value="0.0578895600956264" flag="0"/>
			<vel value="0.0302862934524961" flag="0"/>
			<psa03 value="0.143311483265763" flag="0"/>
			<psa10 value="0.0272907228764546" flag="0"/>
			<psa30 value="0.00408080408324296" flag="0"/>
		</comp>
		<comp name="--.HNN" depth="0.0">
			<acc value="0.0468913933391624" flag="0"/>
			<vel value="0.0302280476733809" flag="0"/>
			<psa03 value="0.107477182335859" flag="0"/>
			<psa10 value="0.0410972137387155" flag="0"/>
			<psa30 value="0.00342318176899209" flag="0"/>
		</comp>
		<comp name="--.HNZ" depth="0.0">
			<acc value="0.0270837823804374" flag="0"/>
			<vel value="0.0124297431741397" flag="0"/>
			<psa03 value="0.0794972558863835" flag="0"/>
			<psa10 value="0.0160085786147672" flag="0"/>
			<psa30 value="0.00259804314927477" flag="0"/>
		</comp>
	</station>
	<station code="AST1" name="AST1" netid="HI" source="ITSAK Strong Motion Network" insttype="" lat="38.5416" lon="21.0895" esm:processing="automatic (Paolucci et al 2011)" esm:quality="best">
		<comp name="--.HNE" depth="0.0">
			<acc value="0.0134705519462135" flag="0"/>
			<vel value="0.0109935548096272" flag="0"/>
			<psa03 value="0.0369048171588507" flag="0"/>
			<psa10 value="0.0189501947323983" flag="0"/>
			<psa30 value="0.00181420914078523" flag="0"/>
		</comp>
		<comp name="--.HNN" depth="0.0">
			<acc value="0.0152185730915648" flag="0"/>
			<vel value="0.0124503552573059" flag="0"/>
			<psa03 value="0.0379286896728798" flag="0"/>
			<psa10 value="0.0179365025802681" flag="0"/>
			<psa30 value="0.000957102049146876" flag="0"/>
		</comp>
		<comp name="--.HNZ" depth="0.0">
			<acc value="0.00992020339721986" flag="0"/>
			<vel value="0.00969266886785599" flag="0"/>
			<psa03 value="0.0371974120626604" flag="0"/>
			<psa10 value="0.0172532916959001" flag="0"/>
			<psa30 value="0.00109761948273723" flag="0"/>
		</comp>
	</station>
	<station code="KRI1" name="KRI1" netid="HI" source="ITSAK Strong Motion Network" insttype="" lat="37.6621" lon="20.8172" esm:processing="automatic (Paolucci et al 2011)" esm:quality="best">
		<comp name="--.HNE" depth="0.0">
			<acc value="0.155127442959446" flag="0"/>
			<vel value="0.0554035144734684" flag="0"/>
			<psa03 value="0.534624874607473" flag="0"/>
			<psa10 value="0.0612528076978968" flag="0"/>
			<psa30 value="0.0041027722051899" flag="0"/>
		</comp>
		<comp name="--.HNN" depth="0.0">
			<acc value="0.110834615211026" flag="0"/>
			<vel value="0.0748507545396407" flag="0"/>
			<psa03 value="0.306954480061183" flag="0"/>
			<psa10 value="0.0842331450324635" flag="0"/>
			<psa30 value="0.00544725877082647" flag="0"/>
		</comp>
		<comp name="--.HNZ" depth="0.0">
			<acc value="0.0869128970900903" flag="0"/>
			<vel value="0.0490516937428037" flag="0"/>
			<psa03 value="0.184623751250767" flag="0"/>
			<psa10 value="0.0382477149734069" flag="0"/>
			<psa30 value="0.00329513641161558" flag="0"/>
		</comp>
	</station>
	<station code="KYP2" name="KYP2" netid="HI" source="ITSAK Strong Motion Network" insttype="" lat="37.2497" lon="21.667" esm:processing="automatic (Paolucci et al 2011)" esm:quality="best">
		<comp name="--.HNE" depth="0.0">
			<acc value="0.0234215854437575" flag="0"/>
			<vel value="0.0109917579452669" flag="0"/>
			<psa03 value="0.0807439634746427" flag="0"/>
			<psa10 value="0.0126552489731357" flag="0"/>
			<psa30 value="0.00140465409310665" flag="0"/>
		</comp>
		<comp name="--.HNN" depth="0.0">
			<acc value="0.0247567353310024" flag="0"/>
			<vel value="0.0133842878914555" flag="0"/>
			<psa03 value="0.0780251583671475" flag="0"/>
			<psa10 value="0.0122428444658611" flag="0"/>
			<psa30 value="0.00140681163186634" flag="0"/>
		</comp>
		<comp name="--.HNZ" depth="0.0">
			<acc value="0.0132569454930915" flag="0"/>
			<vel value="0.00724938444270528" flag="0"/>
			<psa03 value="0.043747007399541" flag="0"/>
			<psa10 value="0.0064867156505767" flag="0"/>
			<psa30 value="0.00176829526588302" flag="0"/>
		</comp>
	</station>
	<station code="LEF2" name="LEF2" netid="HI" source="ITSAK Strong Motion Network" insttype="" lat="38.830093" lon="20.708346" esm:processing="manual (Paolucci et al 2011)" esm:quality="good">
		<comp name="--.HNE" depth="0.0">
			<acc value="0.0259985016691346" flag="0"/>
			<vel value="0.0289081334702931" flag="0"/>
			<psa03 value="0.0634401088458631" flag="0"/>
			<psa10 value="0.0686915754797547" flag="0"/>
			<psa30 value="0.005647349525857" flag="0"/>
		</comp>
		<comp name="--.HNN" depth="0.0">
			<acc value="0.0339267654807485" flag="0"/>
			<vel value="0.0327934303404969" flag="0"/>
			<psa03 value="0.0852343390649879" flag="0"/>
			<psa10 value="0.0691506133887634" flag="0"/>
			<psa30 value="0.00495690378721535" flag="0"/>
		</comp>
		<comp name="--.HNZ" depth="0.0">
			<acc value="0.0219727934445377" flag="0"/>
			<vel value="0.0233047537275043" flag="0"/>
			<psa03 value="0.0474393665835492" flag="0"/>
			<psa10 value="0.0507417763936583" flag="0"/>
			<psa30 value="0.00257741344932506" flag="0"/>
		</comp>
	</station>
	<station code="MSL1" name="MSL1" netid="HI" source="ITSAK Strong Motion Network" insttype="" lat="38.3727" lon="21.4243" esm:processing="manual (Paolucci et al 2011)" esm:quality="good">
		<comp name="--.HNE" depth="0.0">
			<acc value="0.0532724086472496" flag="0"/>
			<vel value="0.0578807357196851" flag="0"/>
			<psa03 value="0.0762805896730334" flag="0"/>
			<psa10 value="0.0880384246135604" flag="0"/>
			<psa30 value="0.00496431469481827" flag="0"/>
		</comp>
		<comp name="--.HNN" depth="0.0">
			<acc value="0.0539525168107277" flag="0"/>
			<vel value="0.0650444729099069" flag="0"/>
			<psa03 value="0.102716127355999" flag="0"/>
			<psa10 value="0.0973390707357208" flag="0"/>
			<psa30 value="0.00722206925997773" flag="0"/>
		</comp>
		<comp name="--.HNZ" depth="0.0">
			<acc value="0.0227816328597599" flag="0"/>
			<vel value="0.0290705942515628" flag="0"/>
			<psa03 value="0.0289956734252277" flag="0"/>
			<psa10 value="0.0621676958047438" flag="0"/>
			<psa30 value="0.00292571110566877" flag="0"/>
		</comp>
	</station>
	<station code="PET1" name="PET1" netid="HI" source="ITSAK Strong Motion Network" insttype="" lat="36.963862" lon="21.92538" esm:processing="manual (Paolucci et al 2011)" esm:quality="good">
		<comp name="--.HNE" depth="0.0">
			<acc value="0.0300735863162804" flag="0"/>
			<vel value="0.0271447498581214" flag="0"/>
			<psa03 value="0.0839790996615379" flag="0"/>
			<psa10 value="0.0286466026968384" flag="0"/>
			<psa30 value="0.00152444661210646" flag="0"/>
		</comp>
		<comp name="--.HNN" depth="0.0">
			<acc value="0.0287345588043958" flag="0"/>
			<vel value="0.0239201212221782" flag="0"/>
			<psa03 value="0.0799164034445188" flag="0"/>
			<psa10 value="0.0302056541013425" flag="0"/>
			<psa30 value="0.00124278274492426" flag="0"/>
		</comp>
		<comp name="--.HNZ" depth="0.0">
			<acc value="0.00894912280051484" flag="0"/>
			<vel value="0.00712244898419195" flag="0"/>
			<psa03 value="0.0281962558844056" flag="0"/>
			<psa10 value="0.00929971512298626" flag="0"/>
			<psa30 value="0.000554816753887045" flag="0"/>
		</comp>
	</station>
	<station code="PRE2" name="PRE2" netid="HI" source="ITSAK Strong Motion Network" insttype="" lat="38.9577" lon="20.7548" esm:processing="manual (Paolucci et al 2011)" esm:quality="good">
		<comp name="--.HNE" depth="0.0">
			<acc value="0.017362182698913" flag="0"/>
			<vel value="0.020707664991718" flag="0"/>
			<psa03 value="0.039346351294338" flag="0"/>
			<psa10 value="0.0451332798582879" flag="0"/>
			<psa30 value="0.00385093802241123" flag="0"/>
		</comp>
		<comp name="--.HNN" depth="0.0">
			<acc value="0.0168898495917523" flag="0"/>
			<vel value="0.0252389122387645" flag="0"/>
			<psa03 value="0.0477368810840914" flag="0"/>
			<psa10 value="0.0328422756395796" flag="0"/>
			<psa30 value="0.00838682141909196" flag="0"/>
		</comp>
		<comp name="--.HNZ" depth="0.0">
			<acc value="0.00862177820639012" flag="0"/>
			<vel value="0.0112659322855489" flag="0"/>
			<psa03 value="0.0243267391312447" flag="0"/>
			<psa10 value="0.0193973893568474" flag="0"/>
			<psa30 value="0.00272805217840157" flag="0"/>
		</comp>
	</station>
	<station code="PYL1" name="PYL1" netid="HI" source="ITSAK Strong Motion Network" insttype="" lat="36.914188" lon="21.695161" esm:processing="automatic (Paolucci et al 2011)" esm:quality="best">
		<comp name="--.HNE" depth="0.0">
			<acc value="0.0247342958851145" flag="0"/>
			<vel value="0.0122172529386204" flag="0"/>
			<psa03 value="0.0969566520690276" flag="0"/>
			<psa10 value="0.0179921056386979" flag="0"/>
			<psa30 value="0.00107870552144678" flag="0"/>
		</comp>
		<comp name="--.HNN" depth="0.0">
			<acc value="0.0158965457499018" flag="0"/>
			<vel value="0.00974549701184103" flag="0"/>
			<psa03 value="0.0434577746976273" flag="0"/>
			<psa10 value="0.00956157434487457" flag="0"/>
			<psa30 value="0.000777077883846104" flag="0"/>
		</comp>
		<comp name="--.HNZ" depth="0.0">
			<acc value="0.0097501007801872" flag="0"/>
			<vel value="0.005226832417891" flag="0"/>
			<psa03 value="0.0374600180006816" flag="0"/>
			<psa10 value="0.00612965684093291" flag="0"/>
			<psa30 value="0.000986518789528223" flag="0"/>
		</comp>
	</station>
	<station code="PYR2" name="PYR2" netid="HI" source="ITSAK Strong Motion Network" insttype="" lat="37.6671" lon="21.4506" esm:processing="automatic (Paolucci et al 2011)" esm:quality="best">
		<comp name="--.HNE" depth="0.0">
			<acc value="0.0594958030152457" flag="0"/>
			<vel value="0.0370895623066986" flag="0"/>
			<psa03 value="0.152761223848033" flag="0"/>
			<psa10 value="0.0342119563742062" flag="0"/>
			<psa30 value="0.00497196478493253" flag="0"/>
		</comp>
		<comp name="--.HNN" depth="0.0">
			<acc value="0.0540082400900403" flag="0"/>
			<vel value="0.02926353626301" flag="0"/>
			<psa03 value="0.173605448425613" flag="0"/>
			<psa10 value="0.0463789811298836" flag="0"/>
			<psa30 value="0.00471625826229701" flag="0"/>
		</comp>
		<comp name="--.HNZ" depth="0.0">
			<acc value="0.0219063565200471" flag="0"/>
			<vel value="0.0141517069492997" flag="0"/>
			<psa03 value="0.0744083614804374" flag="0"/>
			<psa10 value="0.023233284091048" flag="0"/>
			<psa30 value="0.00208565066412065" flag="0"/>
		</comp>
	</station>
	<station code="TRP1" name="TRP1" netid="HI" source="ITSAK Strong Motion Network" insttype="" lat="37.511219" lon="22.363399" esm:processing="manual (Paolucci et al 2011)" esm:quality="good">
		<comp name="--.HNE" depth="0.0">
			<acc value="0.00421220608698813" flag="0"/>
			<vel value="0.00462595007051291" flag="0"/>
			<psa03 value="0.00975831961786667" flag="0"/>
			<psa10 value="0.00786623797466032" flag="0"/>
			<psa30 value="0.000850512540198355" flag="0"/>
		</comp>
		<comp name="--.HNN" depth="0.0">
			<acc value="0.00396791007179683" flag="0"/>
			<vel value="0.00463686597482552" flag="0"/>
			<psa03 value="0.0119093605512717" flag="0"/>
			<psa10 value="0.00928841843713626" flag="0"/>
			<psa30 value="0.000733284514000278" flag="0"/>
		</comp>
		<comp name="--.HNZ" depth="0.0">
			<acc value="0.00251651912048653" flag="0"/>
			<vel value="0.00260224449856613" flag="0"/>
			<psa03 value="0.00791562918929423" flag="0"/>
			<psa10 value="0.00429489795341115" flag="0"/>
			<psa30 value="0.000843775375144235" flag="0"/>
		</comp>
	</station>
	<station code="VSK1" name="VSK1" netid="HI" source="ITSAK Strong Motion Network" insttype="" lat="38.4091" lon="20.564" esm:processing="automatic (Paolucci et al 2011)" esm:quality="best">
		<comp name="--.HNE" depth="0.0">
			<acc value="0.019455943402609" flag="0"/>
			<vel value="0.0175009934887658" flag="0"/>
			<psa03 value="0.0484368909979793" flag="0"/>
			<psa10 value="0.0208791387654737" flag="0"/>
			<psa30 value="0.00311797175866013" flag="0"/>
		</comp>
		<comp name="--.HNN" depth="0.0">
			<acc value="0.0197124718778146" flag="0"/>
			<vel value="0.0239425752556345" flag="0"/>
			<psa03 value="0.0713849111916941" flag="0"/>
			<psa10 value="0.033920633325484" flag="0"/>
			<psa30 value="0.00371127252025715" flag="0"/>
		</comp>
		<comp name="--.HNZ" depth="0.0">
			<acc value="0.00967487794989128" flag="0"/>
			<vel value="0.0102699228244771" flag="0"/>
			<psa03 value="0.0249193434925419" flag="0"/>
			<psa10 value="0.0152544224056195" flag="0"/>
			<psa30 value="0.00176620741924009" flag="0"/>
		</comp>
	</station>
	<station code="ZAK2" name="ZAK2" netid="HI" source="ITSAK Strong Motion Network" insttype="" lat="37.787501" lon="20.899999" esm:processing="manual (Paolucci et al 2011)" esm:quality="good">
		<comp name="--.HNE" depth="0.0">
			<acc value="0.496587655850372" flag="0"/>
			<vel value="0.348105450660655" flag="0"/>
			<psa03 value="1.19578221470313" flag="0"/>
			<psa10 value="0.244114306374746" flag="0"/>
			<psa30 value="0.0189548740007102" flag="0"/>
		</comp>
		<comp name="--.HNN" depth="0.0">
			<acc value="0.310654335065844" flag="0"/>
			<vel value="0.181609292822628" flag="0"/>
			<psa03 value="0.954955761132495" flag="0"/>
			<psa10 value="0.303152382357536" flag="0"/>
			<psa30 value="0.00913804618404582" flag="0"/>
		</comp>
		<comp name="--.HNZ" depth="0.0">
			<acc value="0.15488918097386" flag="0"/>
			<vel value="0.0841650805969113" flag="0"/>
			<psa03 value="0.372963248651481" flag="0"/>
			<psa10 value="0.118307399784613" flag="0"/>
