<stationlist created="1775808453">
	<station code="AGRP" name="AGRP" netid="CL" source="Corinth Riff Laboratory (CRLNET)" insttype="" lat="38.3959" lon="21.72277">
		<comp name="00.HNE" depth="0.0">
			<acc value="0.00760753922661299" flag="0"/>
			<vel value="0.00864392400332385" flag="0"/>
			<psa03 value="0.024517431451175" flag="0"/>
			<psa10 value="0.0118222166013294" flag="0"/>
			<psa30 value="0.0021346591190236" flag="0"/>
		</comp>
		<comp name="00.HNN" depth="0.0">
			<acc value="0.00810138939216344" flag="0"/>
			<vel value="0.00999631297718495" flag="0"/>
			<psa03 value="0.0226231991967512" flag="0"/>
			<psa10 value="0.0187176512025307" flag="0"/>
			<psa30 value="0.00151565405047573" flag="0"/>
		</comp>
		<comp name="00.HNZ" depth="0.0">
			<acc value="0.00613248684839281" flag="0"/>
			<vel value="0.00642245939051127" flag="0"/>
			<psa03 value="0.0181125331997661" flag="0"/>
			<psa10 value="0.0102827639951495" flag="0"/>
			<psa30 value="0.00184415091594756" flag="0"/>
		</comp>
	</station>
	<station code="MALA" name="MALA" netid="CL" source="Corinth Riff Laboratory (CRLNET)" insttype="" lat="38.39341" lon="21.87263">
		<comp name="01.HNE" depth="0.0">
			<acc value="0.0170884050579177" flag="0"/>
			<vel value="0.0242259747200465" flag="0"/>
			<psa03 value="0.0413735923599428" flag="0"/>
			<psa10 value="0.0574885520844364" flag="0"/>
			<psa30 value="0.0057069259725042" flag="0"/>
		</comp>
		<comp name="01.HNN" depth="0.0">
			<acc value="0.0197798096290522" flag="0"/>
			<vel value="0.0247797846733295" flag="0"/>
			<psa03 value="0.0437570653574981" flag="0"/>
			<psa10 value="0.0461693534930815" flag="0"/>
			<psa30 value="0.00336180561979009" flag="0"/>
		</comp>
		<comp name="01.HNZ" depth="0.0">
			<acc value="0.00683546816489175" flag="0"/>
			<vel value="0.00834922825995355" flag="0"/>
			<psa03 value="0.0131501107136307" flag="0"/>
			<psa10 value="0.0138904036085685" flag="0"/>
			<psa30 value="0.00239879911700214" flag="0"/>
		</comp>
	</station>
	<station code="ROD3" name="ROD3" netid="CL" source="Corinth Riff Laboratory (CRLNET)" insttype="" lat="38.30811" lon="21.89204">
		<comp name="00.HNE" depth="0.0">
			<acc value="0.0239892681054007" flag="0"/>
			<vel value="0.0161744395331024" flag="0"/>
			<psa03 value="0.0763824610048426" flag="0"/>
			<psa10 value="0.0216447688597099" flag="0"/>
			<psa30 value="0.00283048875598876" flag="0"/>
		</comp>
		<comp name="00.HNN" depth="0.0">
			<acc value="0.021519465676084" flag="0"/>
			<vel value="0.0172492987368817" flag="0"/>
			<psa03 value="0.103717120750232" flag="0"/>
			<psa10 value="0.0258402505397809" flag="0"/>
			<psa30 value="0.00224028028257399" flag="0"/>
		</comp>
		<comp name="00.HNZ" depth="0.0">
			<acc value="0.00965138994190884" flag="0"/>
			<vel value="0.0102406857142679" flag="0"/>
			<psa03 value="0.0201768939118653" flag="0"/>
			<psa10 value="0.0252210357698413" flag="0"/>
			<psa30 value="0.00118876145794578" flag="0"/>
		</comp>
	</station>
	<station code="TRIZ" name="TRIZ" netid="CL" source="Corinth Riff Laboratory (CRLNET)" insttype="" lat="38.36543" lon="22.07272">
		<comp name="00.HNE" depth="0.0">
			<acc value="0.00656175722894052" flag="0"/>
			<vel value="0.00897422600308641" flag="0"/>
			<psa03 value="0.0187338425876305" flag="0"/>
			<psa10 value="0.00811831467350449" flag="0"/>
			<psa30 value="0.00340959961924133" flag="0"/>
		</comp>
		<comp name="00.HNN" depth="0.0">
			<acc value="0.0103266295011371" flag="0"/>
			<vel value="0.00890513702459959" flag="0"/>
			<psa03 value="0.0489835417942451" flag="0"/>
			<psa10 value="0.0120325239706605" flag="0"/>
			<psa30 value="0.00262469929011328" flag="0"/>
		</comp>
		<comp name="00.HNZ" depth="0.0">
			<acc value="0.00442582692746843" flag="0"/>
			<vel value="0.00453201565512878" flag="0"/>
			<psa03 value="0.0114902038779492" flag="0"/>
			<psa10 value="0.00958309983333254" flag="0"/>
			<psa30 value="0.00131130603425588" flag="0"/>
		</comp>
	</station>
	<station code="AGR3" name="AGR3" netid="HI" source="ITSAK Strong Motion Network" insttype="" lat="38.5893" lon="21.4162">
		<comp name="--.HNE" depth="0.0">
			<acc value="0.0280605119265895" flag="0"/>
			<vel value="0.0296863598563539" flag="0"/>
			<psa03 value="0.0630700739161984" flag="0"/>
			<psa10 value="0.057218219176208" flag="0"/>
			<psa30 value="0.00592000258778424" flag="0"/>
		</comp>
		<comp name="--.HNN" depth="0.0">
			<acc value="0.0183437517298417" flag="0"/>
			<vel value="0.0277893975938799" flag="0"/>
			<psa03 value="0.0617137705260885" flag="0"/>
			<psa10 value="0.0400175172141196" flag="0"/>
			<psa30 value="0.00459594779231883" flag="0"/>
		</comp>
		<comp name="--.HNZ" depth="0.0">
			<acc value="0.0124830862965421" flag="0"/>
			<vel value="0.0151358441645633" flag="0"/>
			<psa03 value="0.0294031874001952" flag="0"/>
			<psa10 value="0.0345063208744097" flag="0"/>
			<psa30 value="0.00282536154133596" flag="0"/>
		</comp>
	</station>
	<station code="AIG2" name="AIG2" netid="HI" source="ITSAK Strong Motion Network" insttype="" lat="38.2417" lon="22.0726">
		<comp name="--.HNE" depth="0.0">
			<acc value="0.0074830189975221" flag="0"/>
			<vel value="0.0104668632450995" flag="0"/>
			<psa03 value="0.0176219850783606" flag="0"/>
			<psa10 value="0.0191451195202088" flag="0"/>
			<psa30 value="0.00322529053466902" flag="0"/>
		</comp>
		<comp name="--.HNN" depth="0.0">
			<acc value="0.00891682938590665" flag="0"/>
			<vel value="0.00998987597743426" flag="0"/>
			<psa03 value="0.0159970519136798" flag="0"/>
			<psa10 value="0.0157206336023233" flag="0"/>
			<psa30 value="0.00234748780121262" flag="0"/>
		</comp>
		<comp name="--.HNZ" depth="0.0">
			<acc value="0.00465828827872576" flag="0"/>
			<vel value="0.00684067394612196" flag="0"/>
			<psa03 value="0.0105238130363821" flag="0"/>
			<psa10 value="0.0144118512769174" flag="0"/>
			<psa30 value="0.00212116572515248" flag="0"/>
		</comp>
	</station>
	<station code="ARE2" name="ARE2" netid="HI" source="ITSAK Strong Motion Network" insttype="" lat="36.66629" lon="22.382635">
		<comp name="--.HNE" depth="0.0">
			<acc value="0.00683496651482684" flag="0"/>
			<vel value="0.00584232634230992" flag="0"/>
			<psa03 value="0.0271507933984801" flag="0"/>
			<psa10 value="0.0102056279477649" flag="0"/>
			<psa30 value="0.000676548828456222" flag="0"/>
		</comp>
		<comp name="--.HNN" depth="0.0">
			<acc value="0.00761623978227112" flag="0"/>
			<vel value="0.0061058069931929" flag="0"/>
			<psa03 value="0.0310696155012119" flag="0"/>
			<psa10 value="0.00793494908893443" flag="0"/>
			<psa30 value="0.000664057063438096" flag="0"/>
		</comp>
		<comp name="--.HNZ" depth="0.0">
			<acc value="0.00419267782133739" flag="0"/>
			<vel value="0.00278962208426787" flag="0"/>
			<psa03 value="0.0119077120045636" flag="0"/>
			<psa10 value="0.00536056573617173" flag="0"/>
			<psa30 value="0.000454309470772803" flag="0"/>
		</comp>
	</station>
	<station code="ARG2" name="ARG2" netid="HI" source="ITSAK Strong Motion Network" insttype="" lat="38.1783" lon="20.4878">
		<comp name="--.HNE" depth="0.0">
			<acc value="0.0578895600956264" flag="0"/>
			<vel value="0.0302862934524961" flag="0"/>
			<psa03 value="0.143311483265763" flag="0"/>
			<psa10 value="0.0272907228764546" flag="0"/>
			<psa30 value="0.00408080408324296" flag="0"/>
		</comp>
		<comp name="--.HNN" depth="0.0">
			<acc value="0.0468913933391624" flag="0"/>
			<vel value="0.0302280476733809" flag="0"/>
			<psa03 value="0.107477182335859" flag="0"/>
			<psa10 value="0.0410972137387155" flag="0"/>
			<psa30 value="0.00342318176899209" flag="0"/>
		</comp>
		<comp name="--.HNZ" depth="0.0">
			<acc value="0.0270837823804374" flag="0"/>
			<vel value="0.0124297431741397" flag="0"/>
			<psa03 value="0.0794972558863835" flag="0"/>
			<psa10 value="0.0160085786147672" flag="0"/>
			<psa30 value="0.00259804314927477" flag="0"/>
		</comp>
	</station>
	<station code="AST1" name="AST1" netid="HI" source="ITSAK Strong Motion Network" insttype="" lat="38.5416" lon="21.0895">
		<comp name="--.HNE" depth="0.0">
			<acc value="0.0134705519462135" flag="0"/>
			<vel value="0.0109935548096272" flag="0"/>
			<psa03 value="0.0369048171588507" flag="0"/>
			<psa10 value="0.0189501947323983" flag="0"/>
			<psa30 value="0.00181420914078523" flag="0"/>
		</comp>
		<comp name="--.HNN" depth="0.0">
			<acc value="0.0152185730915648" flag="0"/>
			<vel value="0.0124503552573059" flag="0"/>
			<psa03 value="0.0379286896728798" flag="0"/>
			<psa10 value="0.0179365025802681" flag="0"/>
			<psa30 value="0.000957102049146876" flag="0"/>
		</comp>
		<comp name="--.HNZ" depth="0.0">
			<acc value="0.00992020339721986" flag="0"/>
			<vel value="0.00969266886785599" flag="0"/>
			<psa03 value="0.0371974120626604" flag="0"/>
			<psa10 value="0.0172532916959001" flag="0"/>
			<psa30 value="0.00109761948273723" flag="0"/>
		</comp>
	</station>
	<station code="KAL3" name="KAL3" netid="HI" source="ITSAK Strong Motion Network" insttype="" lat="37.0246" lon="22.103">
		<comp name="--.HNE" depth="0.0">
			<acc value="0.00279723502924698" flag="0"/>
			<vel value="0.000472570120072285" flag="0"/>
			<psa03 value="0.00146131197401736" flag="0"/>
			<psa10 value="5.13640984202197e-05" flag="0"/>
			<psa30 value="5.29789449792123e-06" flag="0"/>
		</comp>
		<comp name="--.HNN" depth="0.0">
			<acc value="0.00269552414014246" flag="0"/>
			<vel value="0.000450822036614553" flag="0"/>
			<psa03 value="0.0011532689439805" flag="0"/>
			<psa10 value="4.27963372445745e-05" flag="0"/>
			<psa30 value="4.30569294587017e-06" flag="0"/>
		</comp>
		<comp name="--.HNZ" depth="0.0">
			<acc value="0.00493744603401278" flag="0"/>
			<vel value="0.000669761575344438" flag="0"/>
			<psa03 value="0.000914289896645634" flag="0"/>
			<psa10 value="4.56923164424993e-05" flag="0"/>
			<psa30 value="5.00445180031911e-06" flag="0"/>
		</comp>
	</station>
	<station code="KLV1" name="KLV1" netid="HI" source="ITSAK Strong Motion Network" insttype="" lat="38.03256" lon="22.10797">
		<comp name="--.HNE" depth="0.0">
			<acc value="0.0108289878854998" flag="0"/>
			<vel value="0.0118907859596545" flag="0"/>
			<psa03 value="0.0312269410274225" flag="0"/>
			<psa10 value="0.0167025020837914" flag="0"/>
			<psa30 value="0.00156326553783644" flag="0"/>
		</comp>
		<comp name="--.HNN" depth="0.0">
			<acc value="0.00964394454691431" flag="0"/>
			<vel value="0.00970911443416266" flag="0"/>
			<psa03 value="0.0302360003824681" flag="0"/>
			<psa10 value="0.014328853591228" flag="0"/>
			<psa30 value="0.00122365147757169" flag="0"/>
		</comp>
		<comp name="--.HNZ" depth="0.0">
			<acc value="0.00620486402995968" flag="0"/>
			<vel value="0.00709117875178379" flag="0"/>
			<psa03 value="0.0121769030142302" flag="0"/>
			<psa10 value="0.0146718972536871" flag="0"/>
			<psa30 value="0.00128651230845989" flag="0"/>
		</comp>
	</station>
	<station code="KRI1" name="KRI1" netid="HI" source="ITSAK Strong Motion Network" insttype="" lat="37.6621" lon="20.8172">
		<comp name="--.HNE" depth="0.0">
			<acc value="0.155127442959446" flag="0"/>
			<vel value="0.0554035144734684" flag="0"/>
			<psa03 value="0.534624874607473" flag="0"/>
			<psa10 value="0.0612528076978968" flag="0"/>
			<psa30 value="0.0041027722051899" flag="0"/>
		</comp>
		<comp name="--.HNN" depth="0.0">
			<acc value="0.110834615211026" flag="0"/>
			<vel value="0.0748507545396407" flag="0"/>
			<psa03 value="0.306954480061183" flag="0"/>
			<psa10 value="0.0842331450324635" flag="0"/>
			<psa30 value="0.00544725877082647" flag="0"/>
		</comp>
		<comp name="--.HNZ" depth="0.0">
			<acc value="0.0869128970900903" flag="0"/>
			<vel value="0.0490516937428037" flag="0"/>
			<psa03 value="0.184623751250767" flag="0"/>
			<psa10 value="0.0382477149734069" flag="0"/>
			<psa30 value="0.00329513641161558" flag="0"/>
		</comp>
	</station>
	<station code="KYP2" name="KYP2" netid="HI" source="ITSAK Strong Motion Network" insttype="" lat="37.2497" lon="21.667">
		<comp name="--.HNE" depth="0.0">
			<acc value="0.0234215854437575" flag="0"/>
			<vel value="0.0109917579452669" flag="0"/>
			<psa03 value="0.0807439634746427" flag="0"/>
			<psa10 value="0.0126552489731357" flag="0"/>
			<psa30 value="0.00140465409310665" flag="0"/>
		</comp>
		<comp name="--.HNN" depth="0.0">
			<acc value="0.0247567353310024" flag="0"/>
			<vel value="0.0133842878914555" flag="0"/>
			<psa03 value="0.0780251583671475" flag="0"/>
			<psa10 value="0.0122428444658611" flag="0"/>
			<psa30 value="0.00140681163186634" flag="0"/>
		</comp>
		<comp name="--.HNZ" depth="0.0">
			<acc value="0.0132569454930915" flag="0"/>
			<vel value="0.00724938444270528" flag="0"/>
			<psa03 value="0.043747007399541" flag="0"/>
			<psa10 value="0.0064867156505767" flag="0"/>
			<psa30 value="0.00176829526588302" flag="0"/>
		</comp>
	</station>
	<station code="LEF2" name="LEF2" netid="HI" source="ITSAK Strong Motion Network" insttype="" lat="38.830093" lon="20.708346">
		<comp name="--.HNE" depth="0.0">
			<acc value="0.0261067543230099" flag="0"/>
			<vel value="0.0292396872021362" flag="0"/>
			<psa03 value="0.0634587142450462" flag="0"/>
			<psa10 value="0.068692198020995" flag="0"/>
			<psa30 value="0.00572889201097978" flag="0"/>
		</comp>
		<comp name="--.HNN" depth="0.0">
			<acc value="0.0340083500477909" flag="0"/>
			<vel value="0.0327899736933735" flag="0"/>
			<psa03 value="0.085324777347747" flag="0"/>
			<psa10 value="0.0691541761247771" flag="0"/>
			<psa30 value="0.0051227685249402" flag="0"/>
		</comp>
		<comp name="--.HNZ" depth="0.0">
			<acc value="0.0221245172633378" flag="0"/>
			<vel value="0.0233625670092783" flag="0"/>
			<psa03 value="0.0475006779367921" flag="0"/>
			<psa10 value="0.050787158149977" flag="0"/>
			<psa30 value="0.00259662826387889" flag="0"/>
		</comp>
	</station>
	<station code="MSL1" name="MSL1" netid="HI" source="ITSAK Strong Motion Network" insttype="" lat="38.3727" lon="21.4243">
		<comp name="--.HNE" depth="0.0">
			<acc value="0.0531266570450441" flag="0"/>
			<vel value="0.0578959846672547" flag="0"/>
			<psa03 value="0.0761441118820496" flag="0"/>
			<psa10 value="0.0883226784439817" flag="0"/>
			<psa30 value="0.00584480260615452" flag="0"/>
		</comp>
		<comp name="--.HNN" depth="0.0">
			<acc value="0.0543280738531815" flag="0"/>
			<vel value="0.0659539457775208" flag="0"/>
			<psa03 value="0.10279280951915" flag="0"/>
			<psa10 value="0.0980949933118816" flag="0"/>
			<psa30 value="0.00831572170908511" flag="0"/>
		</comp>
		<comp name="--.HNZ" depth="0.0">
			<acc value="0.0228362804844433" flag="0"/>
			<vel value="0.029811740907355" flag="0"/>
			<psa03 value="0.0289058289318043" flag="0"/>
			<psa10 value="0.0624542447872076" flag="0"/>
			<psa30 value="0.00304263947659949" flag="0"/>
		</comp>
	</station>
	<station code="PAT5" name="PAT5" netid="HI" source="ITSAK Strong Motion Network" insttype="" lat="38.29595" lon="21.795083">
		<comp name="--.HNE" depth="0.0">
			<acc value="0.0168243298103187" flag="0"/>
			<vel value="0.0160082388028087" flag="0"/>
			<psa03 value="0.0340095602581235" flag="0"/>
			<psa10 value="0.032282506057592" flag="0"/>
			<psa30 value="0.0047141014527523" flag="0"/>
		</comp>
		<comp name="--.HNN" depth="0.0">
			<acc value="0.0140269127837993" flag="0"/>
			<vel value="0.0121961038905888" flag="0"/>
			<psa03 value="0.0305129796684864" flag="0"/>
			<psa10 value="0.0209809523851263" flag="0"/>
			<psa30 value="0.00415790669091232" flag="0"/>
		</comp>
		<comp name="--.HNZ" depth="0.0">
			<acc value="0.0103919873035984" flag="0"/>
			<vel value="0.00868294122097572" flag="0"/>
			<psa03 value="0.0204497296942302" flag="0"/>
			<psa10 value="0.012518287087583" flag="0"/>
			<psa30 value="0.00232950327649279" flag="0"/>
		</comp>
	</station>
	<station code="PET1" name="PET1" netid="HI" source="ITSAK Strong Motion Network" insttype="" lat="36.963862" lon="21.92538">
		<comp name="--.HNE" depth="0.0">
			<acc value="0.0300427634218845" flag="0"/>
			<vel value="0.0278188696730508" flag="0"/>
			<psa03 value="0.0840643865613764" flag="0"/>
			<psa10 value="0.0290712020744634" flag="0"/>
			<psa30 value="0.00192203857562276" flag="0"/>
		</comp>
		<comp name="--.HNN" depth="0.0">
			<acc value="0.0288248006227685" flag="0"/>
			<vel value="0.023879693386084" flag="0"/>
			<psa03 value="0.079923169517738" flag="0"/>
			<psa10 value="0.0306454663617463" flag="0"/>
			<psa30 value="0.00146790713747708" flag="0"/>
		</comp>
		<comp name="--.HNZ" depth="0.0">
			<acc value="0.0089857169832012" flag="0"/>
			<vel value="0.007548855676009" flag="0"/>
			<psa03 value="0.0283227382215731" flag="0"/>
			<psa10 value="0.00940208940478" flag="0"/>
			<psa30 value="0.000829538546607548" flag="0"/>
		</comp>
	</station>
	<station code="PRE2" name="PRE2" netid="HI" source="ITSAK Strong Motion Network" insttype="" lat="38.9577" lon="20.7548">
		<comp name="--.HNE" depth="0.0">
			<acc value="0.0173951354342247" flag="0"/>
			<vel value="0.0211903666194496" flag="0"/>
			<psa03 value="0.0393042156905611" flag="0"/>
			<psa10 value="0.0451627680617367" flag="0"/>
			<psa30 value="0.00402545041633419" flag="0"/>
		</comp>
		<comp name="--.HNN" depth="0.0">
			<acc value="0.0170241299997696" flag="0"/>
			<vel value="0.0254267154812368" flag="0"/>
			<psa03 value="0.0476083152755708" flag="0"/>
			<psa10 value="0.0328353601814644" flag="0"/>
			<psa30 value="0.00905569906228647" flag="0"/>
		</comp>
		<comp name="--.HNZ" depth="0.0">
			<acc value="0.00860196329182628" flag="0"/>
			<vel value="0.0113039387744536" flag="0"/>
			<psa03 value="0.0243787582022528" flag="0"/>
			<psa10 value="0.019381094527395" flag="0"/>
			<psa30 value="0.00302223854180435" flag="0"/>
		</comp>
	</station>
	<station code="PYL1" name="PYL1" netid="HI" source="ITSAK Strong Motion Network" insttype="" lat="36.914188" lon="21.695161">
		<comp name="--.HNE" depth="0.0">
			<acc value="0.0247342958851145" flag="0"/>
			<vel value="0.0122172529386204" flag="0"/>
			<psa03 value="0.0969566520690276" flag="0"/>
			<psa10 value="0.0179921056386979" flag="0"/>
			<psa30 value="0.00107870552144678" flag="0"/>
		</comp>
		<comp name="--.HNN" depth="0.0">
			<acc value="0.0158965457499018" flag="0"/>
			<vel value="0.00974549701184103" flag="0"/>
			<psa03 value="0.0434577746976273" flag="0"/>
			<psa10 value="0.00956157434487457" flag="0"/>
			<psa30 value="0.000777077883846104" flag="0"/>
		</comp>
		<comp name="--.HNZ" depth="0.0">
			<acc value="0.0097501007801872" flag="0"/>
			<vel value="0.005226832417891" flag="0"/>
			<psa03 value="0.0374600180006816" flag="0"/>
			<psa10 value="0.00612965684093291" flag="0"/>
			<psa30 value="0.000986518789528223" flag="0"/>
		</comp>
	</station>
	<station code="PYR2" name="PYR2" netid="HI" source="ITSAK Strong Motion Network" insttype="" lat="37.6671" lon="21.4506">
		<comp name="--.HNE" depth="0.0">
			<acc value="0.0594958030152457" flag="0"/>
			<vel value="0.0370895623066986" flag="0"/>
			<psa03 value="0.152761223848033" flag="0"/>
			<psa10 value="0.0342119563742062" flag="0"/>
			<psa30 value="0.00497196478493253" flag="0"/>
		</comp>
		<comp name="--.HNN" depth="0.0">
			<acc value="0.0540082400900403" flag="0"/>
			<vel value="0.02926353626301" flag="0"/>
			<psa03 value="0.173605448425613" flag="0"/>
			<psa10 value="0.0463789811298836" flag="0"/>
			<psa30 value="0.00471625826229701" flag="0"/>
		</comp>
		<comp name="--.HNZ" depth="0.0">
			<acc value="0.0219063565200471" flag="0"/>
			<vel value="0.0141517069492997" flag="0"/>
			<psa03 value="0.0744083614804374" flag="0"/>
			<psa10 value="0.023233284091048" flag="0"/>
			<psa30 value="0.00208565066412065" flag="0"/>
		</comp>
	</station>
	<station code="TRP1" name="TRP1" netid="HI" source="ITSAK Strong Motion Network" insttype="" lat="37.511219" lon="22.363399">
		<comp name="--.HNE" depth="0.0">
			<acc value="0.00422123396387626" flag="0"/>
			<vel value="0.00467341387798187" flag="0"/>
