<?xml version="1.0" encoding="UTF-8" standalone="yes"?>
<!DOCTYPE earthquake SYSTEM "stationlist.dtd">
<stationlist created="" xmlns="ch.ethz.sed.shakemap.usgs.xml">
  <station code="RP05B" name="RP05B" netid="5B" insttype="Compact" commtype="DIG" lat="37.6182" lon="21.6541">
    <comp name="--.HHZ">
      <acc value="0.0435160170" flag="0"/>
      <vel value="0.0261920741" flag="0"/>
      <psa03 value="0.1640557359" flag="0"/>
      <psa10 value="0.0235726048" flag="0"/>
      <psa30 value="0.0031961002" flag="0"/>
    </comp>
    <comp name="--.HHN">
      <acc value="0.1445764357" flag="0"/>
      <vel value="0.0772204854" flag="0"/>
      <psa03 value="0.3501978132" flag="0"/>
      <psa10 value="0.0740037048" flag="0"/>
      <psa30 value="0.0040963627" flag="0"/>
    </comp>
    <comp name="--.HHE">
      <acc value="0.1023556444" flag="0"/>
      <vel value="0.0677295405" flag="0"/>
      <psa03 value="0.2783713876" flag="0"/>
      <psa10 value="0.0587326408" flag="0"/>
      <psa30 value="0.0050700162" flag="0"/>
    </comp>
  </station>
  <station code="RP08B" name="RP08B" netid="5B" insttype="Compact" commtype="DIG" lat="37.5664" lon="21.9493">
    <comp name="--.HHE">
      <acc value="0.0106930329" flag="0"/>
      <vel value="0.0080334099" flag="0"/>
      <psa03 value="0.0457427905" flag="0"/>
      <psa10 value="0.0139723086" flag="0"/>
      <psa30 value="0.0016406299" flag="0"/>
    </comp>
    <comp name="--.HHN">
      <acc value="0.0141858643" flag="0"/>
      <vel value="0.0123952688" flag="0"/>
      <psa03 value="0.0329833533" flag="0"/>
      <psa10 value="0.0119444982" flag="0"/>
      <psa30 value="0.0012148846" flag="0"/>
    </comp>
    <comp name="--.HHZ">
      <acc value="0.0086204467" flag="0"/>
      <vel value="0.0056836018" flag="0"/>
      <psa03 value="0.0312489453" flag="0"/>
      <psa10 value="0.0061836304" flag="0"/>
      <psa30 value="0.0010369739" flag="0"/>
    </comp>
  </station>
  <station code="ATHR" name="ATHR" netid="HA" insttype="GEOtiny," commtype="DIG" lat="38.3172" lon="20.4165">
    <comp name="--.HHN">
      <acc value="0.0142809994" flag="0"/>
      <vel value="0.0158494382" flag="0"/>
      <psa03 value="0.0359460013" flag="0"/>
      <psa10 value="0.0335262143" flag="0"/>
      <psa30 value="0.0022842056" flag="0"/>
    </comp>
    <comp name="--.HHE">
      <acc value="0.0144419868" flag="0"/>
      <vel value="0.0158492914" flag="0"/>
      <psa03 value="0.0385917365" flag="0"/>
      <psa10 value="0.0319597914" flag="0"/>
      <psa30 value="0.0039673329" flag="0"/>
    </comp>
    <comp name="--.HHZ">
      <acc value="0.0120202109" flag="0"/>
      <vel value="0.0103316111" flag="0"/>
      <psa03 value="0.0311314848" flag="0"/>
      <psa10 value="0.0210409247" flag="0"/>
      <psa30 value="0.0015963714" flag="0"/>
    </comp>
  </station>
  <station code="HAVD" name="HAVD" netid="HA" insttype="GEOtiny," commtype="DIG" lat="38.2036" lon="20.3848">
    <comp name="--.HHN">
      <acc value="0.0287781460" flag="0"/>
      <vel value="0.0196844198" flag="0"/>
      <psa03 value="0.0627968258" flag="0"/>
      <psa10 value="0.0356835390" flag="0"/>
      <psa30 value="0.0025034683" flag="0"/>
    </comp>
    <comp name="--.HHE">
      <acc value="0.0274506394" flag="0"/>
      <vel value="0.0225347638" flag="0"/>
      <psa03 value="0.0719929922" flag="0"/>
      <psa10 value="0.0334803505" flag="0"/>
      <psa30 value="0.0040158036" flag="0"/>
    </comp>
    <comp name="--.HHZ">
      <acc value="0.0228611056" flag="0"/>
      <vel value="0.0116920884" flag="0"/>
      <psa03 value="0.0530847170" flag="0"/>
      <psa10 value="0.0190021643" flag="0"/>
      <psa30 value="0.0013678526" flag="0"/>
    </comp>
  </station>
  <station code="ARG2" name="ARG2" netid="HI" insttype="CMG-5TD,ACCELEROMETER,GURALP" commtype="DIG" lat="38.1783" lon="20.4878">
    <comp name="--.HNE">
      <acc value="0.0576475577" flag="0"/>
      <vel value="0.0293682408" flag="0"/>
      <psa03 value="0.1433925024" flag="0"/>
      <psa10 value="0.0269733968" flag="0"/>
      <psa30 value="0.0035997279" flag="0"/>
    </comp>
    <comp name="--.HNN">
      <acc value="0.0468277733" flag="0"/>
      <vel value="0.0285522699" flag="0"/>
      <psa03 value="0.1053920495" flag="0"/>
      <psa10 value="0.0410694712" flag="0"/>
      <psa30 value="0.0031548248" flag="0"/>
    </comp>
    <comp name="--.HNZ">
      <acc value="0.0270908029" flag="0"/>
      <vel value="0.0121968063" flag="0"/>
      <psa03 value="0.0783519267" flag="0"/>
      <psa10 value="0.0159156041" flag="0"/>
      <psa30 value="0.0022293676" flag="0"/>
    </comp>
  </station>
  <station code="KRI1" name="KRI1" netid="HI" insttype="CMG-5TD,ACCELEROMETER,GURALP" commtype="DIG" lat="37.6621" lon="20.8172">
    <comp name="--.HNN">
      <acc value="0.1102152149" flag="0"/>
      <vel value="0.0762263982" flag="0"/>
      <psa03 value="0.2986440162" flag="0"/>
      <psa10 value="0.0842049503" flag="0"/>
      <psa30 value="0.0047028066" flag="0"/>
    </comp>
    <comp name="--.HNZ">
      <acc value="0.0872522631" flag="0"/>
      <vel value="0.0448578921" flag="0"/>
      <psa03 value="0.1823794660" flag="0"/>
      <psa10 value="0.0382994632" flag="0"/>
      <psa30 value="0.0028881606" flag="0"/>
    </comp>
    <comp name="--.HNE">
      <acc value="0.1543190773" flag="0"/>
      <vel value="0.0559961674" flag="0"/>
      <psa03 value="0.5265705758" flag="0"/>
      <psa10 value="0.0612001592" flag="0"/>
      <psa30 value="0.0040381295" flag="0"/>
    </comp>
  </station>
  <station code="MSL1" name="MSL1" netid="HI" insttype="CMG-5TD,ACCELEROMETER,GURALP" commtype="DIG" lat="38.3727" lon="21.4243">
    <comp name="--.HNE">
      <acc value="0.0530798746" flag="0"/>
      <vel value="0.0578684769" flag="0"/>
      <psa03 value="0.0766436685" flag="0"/>
      <psa10 value="0.0881247156" flag="0"/>
      <psa30 value="0.0057148759" flag="0"/>
    </comp>
    <comp name="--.HNZ">
      <acc value="0.0231191969" flag="0"/>
      <vel value="0.0292946135" flag="0"/>
      <psa03 value="0.0291257118" flag="0"/>
      <psa10 value="0.0621889815" flag="0"/>
      <psa30 value="0.0029979455" flag="0"/>
    </comp>
    <comp name="--.HNN">
      <acc value="0.0543625624" flag="0"/>
      <vel value="0.0664733899" flag="0"/>
      <psa03 value="0.1025842189" flag="0"/>
      <psa10 value="0.0980246612" flag="0"/>
      <psa30 value="0.0081165794" flag="0"/>
    </comp>
  </station>
  <station code="PYR2" name="PYR2" netid="HI" insttype="unknown" commtype="DIG" lat="37.6671" lon="21.4506">
    <comp name="--.HNN">
      <acc value="0.0539362331" flag="0"/>
      <vel value="0.0295567797" flag="0"/>
      <psa03 value="0.1709671762" flag="0"/>
      <psa10 value="0.0464314280" flag="0"/>
      <psa30 value="0.0040526784" flag="0"/>
    </comp>
    <comp name="--.HNZ">
      <acc value="0.0219154261" flag="0"/>
      <vel value="0.0144987230" flag="0"/>
      <psa03 value="0.0737401378" flag="0"/>
      <psa10 value="0.0232514132" flag="0"/>
      <psa30 value="0.0019460305" flag="0"/>
    </comp>
    <comp name="--.HNE">
      <acc value="0.0592101327" flag="0"/>
      <vel value="0.0365736402" flag="0"/>
      <psa03 value="0.1530780364" flag="0"/>
      <psa10 value="0.0337688459" flag="0"/>
      <psa30 value="0.0041517067" flag="0"/>
    </comp>
  </station>
  <station code="ZAK2" name="ZAK2" netid="HI" insttype="unknown" commtype="DIG" lat="37.7875" lon="20.9">
    <comp name="--.HNE">
      <acc value="0.4968696489" flag="0"/>
      <vel value="0.3479644145" flag="0"/>
      <psa03 value="1.1945104394" flag="0"/>
      <psa10 value="0.2450740152" flag="0"/>
      <psa30 value="0.0192593018" flag="0"/>
    </comp>
    <comp name="--.HNN">
      <acc value="0.3102045812" flag="0"/>
      <vel value="0.1829067258" flag="0"/>
      <psa03 value="0.9383965368" flag="0"/>
      <psa10 value="0.3044708184" flag="0"/>
      <psa30 value="0.0097539556" flag="0"/>
    </comp>
    <comp name="--.HNZ">
      <acc value="0.1547134043" flag="0"/>
      <vel value="0.0838886643" flag="0"/>
      <psa03 value="0.3730663634" flag="0"/>
      <psa10 value="0.1181560320" flag="0"/>
      <psa30 value="0.0094722174" flag="0"/>
    </comp>
  </station>
  <station code="ORTH" name="ORTH" netid="HL" insttype="30" commtype="DIG" lat="37.8511" lon="20.6963">
    <comp name="--.HHE">
      <acc value="0.1353817152" flag="0"/>
      <vel value="0.0818085661" flag="0"/>
      <psa03 value="0.4933542905" flag="0"/>
      <psa10 value="0.0832273304" flag="0"/>
      <psa30 value="0.0042007889" flag="0"/>
    </comp>
    <comp name="--.HHN">
      <acc value="0.2155118733" flag="0"/>
      <vel value="0.1171899387" flag="0"/>
      <psa03 value="0.4893087842" flag="0"/>
      <psa10 value="0.0771957891" flag="0"/>
      <psa30 value="0.0077273907" flag="0"/>
    </comp>
    <comp name="--.HHZ">
      <acc value="0.0598699302" flag="0"/>
      <vel value="0.0255376448" flag="0"/>
      <psa03 value="0.1224243359" flag="0"/>
      <psa10 value="0.0505544037" flag="0"/>
      <psa30 value="0.0049415342" flag="0"/>
    </comp>
  </station>
  <station code="RLS" name="RLS" netid="HL" insttype="CMG3ESPC-120s" commtype="DIG" lat="38.0559" lon="21.4647">
    <comp name="--.HHE">
      <acc value="0.0125979456" flag="0"/>
      <vel value="0.0120283147" flag="0"/>
      <psa03 value="0.0370012706" flag="0"/>
      <psa10 value="0.0150939403" flag="0"/>
      <psa30 value="0.0011879952" flag="0"/>
    </comp>
    <comp name="--.HHZ">
      <acc value="0.0069741939" flag="0"/>
      <vel value="0.0041030074" flag="0"/>
      <psa03 value="0.0119666434" flag="0"/>
      <psa10 value="0.0080156402" flag="0"/>
      <psa30 value="0.0003471451" flag="0"/>
    </comp>
    <comp name="--.HHN">
      <acc value="0.0167860864" flag="0"/>
      <vel value="0.0171691869" flag="0"/>
      <psa03 value="0.0333309393" flag="0"/>
      <psa10 value="0.0265744287" flag="0"/>
      <psa30 value="0.0016630149" flag="0"/>
    </comp>
  </station>
  <station code="AMT" name="AMT" netid="HP" insttype="DC_200" commtype="DIG" lat="37.5324" lon="21.7089">
    <comp name="--.HNE">
      <acc value="0.0249212045" flag="0"/>
      <vel value="0.0206885093" flag="0"/>
      <psa03 value="0.0712996542" flag="0"/>
      <psa10 value="0.0429667858" flag="0"/>
      <psa30 value="0.0018173439" flag="0"/>
    </comp>
    <comp name="--.HNN">
      <acc value="0.0244569802" flag="0"/>
      <vel value="0.0266854457" flag="0"/>
      <psa03 value="0.0587238604" flag="0"/>
      <psa10 value="0.0445487613" flag="0"/>
      <psa30 value="0.0018497229" flag="0"/>
    </comp>
    <comp name="--.HNZ">
      <acc value="0.0163485369" flag="0"/>
      <vel value="0.0140013160" flag="0"/>
      <psa03 value="0.0567956703" flag="0"/>
      <psa10 value="0.0214996216" flag="0"/>
      <psa30 value="0.0014808207" flag="0"/>
    </comp>
  </station>
  <station code="AXS" name="AXS" netid="HP" insttype="Compact," commtype="DIG" lat="38.1962" lon="21.3763">
    <comp name="--.HHE">
      <acc value="0.0083034317" flag="0"/>
      <vel value="0.0069535532" flag="0"/>
      <psa03 value="0.0168560659" flag="0"/>
      <psa10 value="0.0107966437" flag="0"/>
      <psa30 value="0.0012200178" flag="0"/>
    </comp>
    <comp name="--.HHN">
      <acc value="0.0130064956" flag="0"/>
      <vel value="0.0118250023" flag="0"/>
      <psa03 value="0.0302586778" flag="0"/>
      <psa10 value="0.0168312766" flag="0"/>
      <psa30 value="0.0014469541" flag="0"/>
    </comp>
    <comp name="--.HHZ">
      <acc value="0.0036177627" flag="0"/>
      <vel value="0.0024765317" flag="0"/>
      <psa03 value="0.0070588961" flag="0"/>
      <psa10 value="0.0059097447" flag="0"/>
      <psa30 value="0.0003237815" flag="0"/>
    </comp>
  </station>
  <station code="DRO" name="DRO" netid="HP" insttype="120P," commtype="DIG" lat="37.952" lon="21.71">
    <comp name="--.HHE">
      <acc value="0.0244431106" flag="0"/>
      <vel value="0.0152280798" flag="0"/>
      <psa03 value="0.0708557227" flag="0"/>
      <psa10 value="0.0204922520" flag="0"/>
      <psa30 value="0.0015040455" flag="0"/>
    </comp>
    <comp name="--.HHN">
      <acc value="0.0190551899" flag="0"/>
      <vel value="0.0133466381" flag="0"/>
      <psa03 value="0.0745245828" flag="0"/>
      <psa10 value="0.0161200884" flag="0"/>
      <psa30 value="0.0013666763" flag="0"/>
    </comp>
    <comp name="--.HHZ">
      <acc value="0.0093614108" flag="0"/>
      <vel value="0.0080694580" flag="0"/>
      <psa03 value="0.0355020430" flag="0"/>
      <psa10 value="0.0162499828" flag="0"/>
      <psa30 value="0.0019388968" flag="0"/>
    </comp>
  </station>
  <station code="FSK" name="FSK" netid="HP" insttype="40," commtype="DIG" lat="38.4593" lon="20.5623">
    <comp name="--.HHE">
      <acc value="0.0148978013" flag="0"/>
      <vel value="0.0113784667" flag="0"/>
      <psa03 value="0.0323118979" flag="0"/>
      <psa10 value="0.0153672982" flag="0"/>
      <psa30 value="0.0046216193" flag="0"/>
    </comp>
    <comp name="--.HHZ">
      <acc value="0.0071689248" flag="0"/>
      <vel value="0.0075097408" flag="0"/>
      <psa03 value="0.0156307850" flag="0"/>
      <psa10 value="0.0113852147" flag="0"/>
      <psa30 value="0.0017236015" flag="0"/>
    </comp>
    <comp name="--.HHN">
      <acc value="0.0102447785" flag="0"/>
      <vel value="0.0093741604" flag="0"/>
      <psa03 value="0.0213559407" flag="0"/>
      <psa10 value="0.0169566507" flag="0"/>
      <psa30 value="0.0021360101" flag="0"/>
    </comp>
  </station>
  <station code="LTHK" name="LTHK" netid="HP" insttype="40," commtype="DIG" lat="37.7095" lon="20.8367">
    <comp name="--.HHE">
      <acc value="0.2102871748" flag="0"/>
      <vel value="0.0796775124" flag="0"/>
      <psa03 value="0.3424041187" flag="0"/>
      <psa10 value="0.0689869799" flag="0"/>
      <psa30 value="0.0041914775" flag="0"/>
    </comp>
    <comp name="--.HHN">
      <acc value="0.1537115286" flag="0"/>
      <vel value="0.0680051887" flag="0"/>
      <psa03 value="0.3891146571" flag="0"/>
      <psa10 value="0.1072844262" flag="0"/>
      <psa30 value="0.0046449904" flag="0"/>
    </comp>
    <comp name="--.HHZ">
      <acc value="0.0964320117" flag="0"/>
      <vel value="0.0417445197" flag="0"/>
      <psa03 value="0.1829527323" flag="0"/>
      <psa10 value="0.0442547381" flag="0"/>
      <psa30 value="0.0022022200" flag="0"/>
    </comp>
  </station>
  <station code="PDO" name="PDO" netid="HP" insttype="120s" commtype="DIG" lat="38.5986" lon="21.1833">
    <comp name="--.HHE">
      <acc value="0.0224433771" flag="0"/>
      <vel value="0.0181816262" flag="0"/>
      <psa03 value="0.0967513750" flag="0"/>
      <psa10 value="0.0163815475" flag="0"/>
      <psa30 value="0.0012455157" flag="0"/>
    </comp>
    <comp name="--.HHZ">
      <acc value="0.0126602231" flag="0"/>
      <vel value="0.0047458598" flag="0"/>
      <psa03 value="0.0288535897" flag="0"/>
      <psa10 value="0.0052714373" flag="0"/>
      <psa30 value="0.0003042983" flag="0"/>
    </comp>
    <comp name="--.HHN">
      <acc value="0.0340089112" flag="0"/>
      <vel value="0.0195744526" flag="0"/>
      <psa03 value="0.1441667482" flag="0"/>
      <psa10 value="0.0251515615" flag="0"/>
      <psa30 value="0.0013453126" flag="0"/>
    </comp>
  </station>
  <station code="PLEV" name="PLEV" netid="HP" insttype="Compact," commtype="DIG" lat="38.4124" lon="21.4073">
    <comp name="--.HHZ">
      <acc value="0.0073535002" flag="0"/>
      <vel value="0.0046076689" flag="0"/>
      <psa03 value="0.0112045971" flag="0"/>
      <psa10 value="0.0061873979" flag="0"/>
      <psa30 value="0.0004462727" flag="0"/>
    </comp>
    <comp name="--.HHN">
      <acc value="0.0126392581" flag="0"/>
      <vel value="0.0134944657" flag="0"/>
      <psa03 value="0.0321404631" flag="0"/>
      <psa10 value="0.0195125513" flag="0"/>
      <psa30 value="0.0016368688" flag="0"/>
    </comp>
    <comp name="--.HHE">
      <acc value="0.0095691223" flag="0"/>
      <vel value="0.0101417532" flag="0"/>
      <psa03 value="0.0295948188" flag="0"/>
      <psa10 value="0.0165214446" flag="0"/>
      <psa30 value="0.0014011220" flag="0"/>
    </comp>
  </station>
  <station code="DMLN" name="DMLN" netid="HT" insttype="1s-100Hz," commtype="DIG" lat="38.2385" lon="20.3734">
    <comp name="--.HHN">
      <acc value="0.0355157462" flag="0"/>
      <vel value="0.0305636163" flag="0"/>
      <psa03 value="0.1169378733" flag="0"/>
      <psa10 value="0.0483142992" flag="0"/>
      <psa30 value="0.0044285532" flag="0"/>
    </comp>
    <comp name="--.HHE">
      <acc value="0.0584195334" flag="0"/>
      <vel value="0.0401266125" flag="0"/>
      <psa03 value="0.1465987578" flag="0"/>
      <psa10 value="0.0473961323" flag="0"/>
      <psa30 value="0.0055073927" flag="0"/>
    </comp>
    <comp name="--.HHZ">
      <acc value="0.0262829772" flag="0"/>
      <vel value="0.0197398503" flag="0"/>
      <psa03 value="0.0808372396" flag="0"/>
      <psa10 value="0.0234625913" flag="0"/>
      <psa30 value="0.0024021828" flag="0"/>
    </comp>
  </station>
  <station code="EVGI" name="EVGI" netid="HT" insttype="30" commtype="DIG" lat="38.621" lon="20.656">
    <comp name="--.HHZ">
      <acc value="0.0116515278" flag="0"/>
      <vel value="0.0090972627" flag="0"/>
      <psa03 value="0.0411349073" flag="0"/>
      <psa10 value="0.0100070511" flag="0"/>
      <psa30 value="0.0009868609" flag="0"/>
    </comp>
    <comp name="--.HHN">
      <acc value="0.0253657293" flag="0"/>
      <vel value="0.0094346068" flag="0"/>
      <psa03 value="0.0397339462" flag="0"/>
      <psa10 value="0.0066503295" flag="0"/>
      <psa30 value="0.0009123128" flag="0"/>
    </comp>
    <comp name="--.HHE">
      <acc value="0.0193750192" flag="0"/>
      <vel value="0.0094051835" flag="0"/>
      <psa03 value="0.0504819187" flag="0"/>
      <psa10 value="0.0068287436" flag="0"/>
      <psa30 value="0.0019564947" flag="0"/>
    </comp>
  </station>
  <station code="NYDR" name="NYDR" netid="HT" insttype="1s-100Hz," commtype="DIG" lat="38.7135" lon="20.6983">
    <comp name="--.HHE">
      <acc value="0.0106438642" flag="0"/>
      <vel value="0.0076499501" flag="0"/>
      <psa03 value="0.0218263960" flag="0"/>
      <psa10 value="0.0122113131" flag="0"/>
      <psa30 value="0.0013163997" flag="0"/>
    </comp>
    <comp name="--.HHN">
      <acc value="0.0087135839" flag="0"/>
      <vel value="0.0085137826" flag="0"/>
      <psa03 value="0.0272546290" flag="0"/>
      <psa10 value="0.0155546299" flag="0"/>
      <psa30 value="0.0010705280" flag="0"/>
    </comp>
    <comp name="--.HHZ">
      <acc value="0.0056177452" flag="0"/>
      <vel value="0.0054834517" flag="0"/>
      <psa03 value="0.0161390360" flag="0"/>
      <psa10 value="0.0100050021" flag="0"/>
      <psa30 value="0.0009773411" flag="0"/>
    </comp>
  </station>
  <station code="PSDA" name="PSDA" netid="HT" insttype="30" commtype="DIG" lat="38.114" lon="20.5841">
    <comp name="--.HHN">
      <acc value="0.0004629009" flag="0"/>
      <vel value="0.0002370183" flag="0"/>
      <psa03 value="0.0011202624" flag="0"/>
      <psa10 value="0.0002053071" flag="0"/>
      <psa30 value="0.0000176474" flag="0"/>
    </comp>
    <comp name="--.HHE">
      <acc value="0.0560437181" flag="0"/>
      <vel value="0.0299987514" flag="0"/>
      <psa03 value="0.1826871397" flag="0"/>
      <psa10 value="0.0325328309" flag="0"/>
      <psa30 value="0.0024428837" flag="0"/>
    </comp>
    <comp name="--.HHZ">
      <acc value="0.0390088953" flag="0"/>
      <vel value="0.0126358325" flag="0"/>
      <psa03 value="0.0516917360" flag="0"/>
      <psa10 value="0.0175062091" flag="0"/>
      <psa30 value="0.0018077037" flag="0"/>
    </comp>
  </station>
