<stationlist xmlns:esm="https://esm-db.eu/esmws/shakemap/1/" created="1781488470">
	<station code="MALA" name="MALA" netid="CL" source="Corinth Riff Laboratory (CRLNET)" insttype="" lat="38.39341" lon="21.87263" esm:processing="automatic (Paolucci et al 2011)" esm:quality="best">
		<comp name="01.HNE" depth="0.0">
			<acc value="0.0170884050579177" flag="0"/>
			<vel value="0.0242259747200465" flag="0"/>
			<psa03 value="0.0413735923599428" flag="0"/>
			<psa10 value="0.0574885520844364" flag="0"/>
			<psa30 value="0.0057069259725042" flag="0"/>
		</comp>
		<comp name="01.HNN" depth="0.0">
			<acc value="0.0197798096290522" flag="0"/>
			<vel value="0.0247797846733295" flag="0"/>
			<psa03 value="0.0437570653574981" flag="0"/>
			<psa10 value="0.0461693534930815" flag="0"/>
			<psa30 value="0.00336180561979009" flag="0"/>
		</comp>
		<comp name="01.HNZ" depth="0.0">
			<acc value="0.00683546816489175" flag="0"/>
			<vel value="0.00834922825995355" flag="0"/>
			<psa03 value="0.0131501107136307" flag="0"/>
			<psa10 value="0.0138904036085685" flag="0"/>
			<psa30 value="0.00239879911700214" flag="0"/>
		</comp>
	</station>
	<station code="TRIZ" name="TRIZ" netid="CL" source="Corinth Riff Laboratory (CRLNET)" insttype="" lat="38.36543" lon="22.07272" esm:processing="automatic (Paolucci et al 2011)" esm:quality="best">
		<comp name="00.HNE" depth="0.0">
			<acc value="0.00656175722894052" flag="0"/>
			<vel value="0.00897422600308641" flag="0"/>
			<psa03 value="0.0187338425876305" flag="0"/>
			<psa10 value="0.00811831467350449" flag="0"/>
			<psa30 value="0.00340959961924133" flag="0"/>
		</comp>
		<comp name="00.HNN" depth="0.0">
			<acc value="0.0103266295011371" flag="0"/>
			<vel value="0.00890513702459959" flag="0"/>
			<psa03 value="0.0489835417942451" flag="0"/>
			<psa10 value="0.0120325239706605" flag="0"/>
			<psa30 value="0.00262469929011328" flag="0"/>
		</comp>
		<comp name="00.HNZ" depth="0.0">
			<acc value="0.00442582692746843" flag="0"/>
			<vel value="0.00453201565512878" flag="0"/>
			<psa03 value="0.0114902038779492" flag="0"/>
			<psa10 value="0.00958309983333254" flag="0"/>
			<psa30 value="0.00131130603425588" flag="0"/>
		</comp>
	</station>
	<station code="ARG2" name="ARG2" netid="HI" source="ITSAK Strong Motion Network" insttype="" lat="38.1783" lon="20.4878" esm:processing="automatic (Paolucci et al 2011)" esm:quality="best">
		<comp name="--.HNE" depth="0.0">
			<acc value="0.0578895600956264" flag="0"/>
			<vel value="0.0302862934524961" flag="0"/>
			<psa03 value="0.143311483265763" flag="0"/>
			<psa10 value="0.0272907228764546" flag="0"/>
			<psa30 value="0.00408080408324296" flag="0"/>
		</comp>
		<comp name="--.HNN" depth="0.0">
			<acc value="0.0468913933391624" flag="0"/>
			<vel value="0.0302280476733809" flag="0"/>
			<psa03 value="0.107477182335859" flag="0"/>
			<psa10 value="0.0410972137387155" flag="0"/>
			<psa30 value="0.00342318176899209" flag="0"/>
		</comp>
		<comp name="--.HNZ" depth="0.0">
			<acc value="0.0270837823804374" flag="0"/>
			<vel value="0.0124297431741397" flag="0"/>
			<psa03 value="0.0794972558863835" flag="0"/>
			<psa10 value="0.0160085786147672" flag="0"/>
			<psa30 value="0.00259804314927477" flag="0"/>
		</comp>
	</station>
	<station code="AST1" name="AST1" netid="HI" source="ITSAK Strong Motion Network" insttype="" lat="38.5416" lon="21.0895" esm:processing="automatic (Paolucci et al 2011)" esm:quality="best">
		<comp name="--.HNE" depth="0.0">
			<acc value="0.0134705519462135" flag="0"/>
			<vel value="0.0109935548096272" flag="0"/>
			<psa03 value="0.0369048171588507" flag="0"/>
			<psa10 value="0.0189501947323983" flag="0"/>
			<psa30 value="0.00181420914078523" flag="0"/>
		</comp>
		<comp name="--.HNN" depth="0.0">
			<acc value="0.0152185730915648" flag="0"/>
			<vel value="0.0124503552573059" flag="0"/>
			<psa03 value="0.0379286896728798" flag="0"/>
			<psa10 value="0.0179365025802681" flag="0"/>
			<psa30 value="0.000957102049146876" flag="0"/>
		</comp>
		<comp name="--.HNZ" depth="0.0">
			<acc value="0.00992020339721986" flag="0"/>
			<vel value="0.00969266886785599" flag="0"/>
			<psa03 value="0.0371974120626604" flag="0"/>
			<psa10 value="0.0172532916959001" flag="0"/>
			<psa30 value="0.00109761948273723" flag="0"/>
		</comp>
	</station>
	<station code="KRI1" name="KRI1" netid="HI" source="ITSAK Strong Motion Network" insttype="" lat="37.6621" lon="20.8172" esm:processing="automatic (Paolucci et al 2011)" esm:quality="best">
		<comp name="--.HNE" depth="0.0">
			<acc value="0.155127442959446" flag="0"/>
			<vel value="0.0554035144734684" flag="0"/>
			<psa03 value="0.534624874607473" flag="0"/>
			<psa10 value="0.0612528076978968" flag="0"/>
			<psa30 value="0.0041027722051899" flag="0"/>
		</comp>
		<comp name="--.HNN" depth="0.0">
			<acc value="0.110834615211026" flag="0"/>
			<vel value="0.0748507545396407" flag="0"/>
			<psa03 value="0.306954480061183" flag="0"/>
			<psa10 value="0.0842331450324635" flag="0"/>
			<psa30 value="0.00544725877082647" flag="0"/>
		</comp>
		<comp name="--.HNZ" depth="0.0">
			<acc value="0.0869128970900903" flag="0"/>
			<vel value="0.0490516937428037" flag="0"/>
			<psa03 value="0.184623751250767" flag="0"/>
			<psa10 value="0.0382477149734069" flag="0"/>
			<psa30 value="0.00329513641161558" flag="0"/>
		</comp>
	</station>
	<station code="KYP2" name="KYP2" netid="HI" source="ITSAK Strong Motion Network" insttype="" lat="37.2497" lon="21.667" esm:processing="automatic (Paolucci et al 2011)" esm:quality="best">
		<comp name="--.HNE" depth="0.0">
			<acc value="0.0234215854437575" flag="0"/>
			<vel value="0.0109917579452669" flag="0"/>
			<psa03 value="0.0807439634746427" flag="0"/>
			<psa10 value="0.0126552489731357" flag="0"/>
			<psa30 value="0.00140465409310665" flag="0"/>
		</comp>
		<comp name="--.HNN" depth="0.0">
			<acc value="0.0247567353310024" flag="0"/>
			<vel value="0.0133842878914555" flag="0"/>
			<psa03 value="0.0780251583671475" flag="0"/>
			<psa10 value="0.0122428444658611" flag="0"/>
			<psa30 value="0.00140681163186634" flag="0"/>
		</comp>
		<comp name="--.HNZ" depth="0.0">
			<acc value="0.0132569454930915" flag="0"/>
			<vel value="0.00724938444270528" flag="0"/>
			<psa03 value="0.043747007399541" flag="0"/>
			<psa10 value="0.0064867156505767" flag="0"/>
			<psa30 value="0.00176829526588302" flag="0"/>
		</comp>
	</station>
	<station code="PYL1" name="PYL1" netid="HI" source="ITSAK Strong Motion Network" insttype="" lat="36.914188" lon="21.695161" esm:processing="automatic (Paolucci et al 2011)" esm:quality="best">
		<comp name="--.HNE" depth="0.0">
			<acc value="0.0247342958851145" flag="0"/>
			<vel value="0.0122172529386204" flag="0"/>
			<psa03 value="0.0969566520690276" flag="0"/>
			<psa10 value="0.0179921056386979" flag="0"/>
			<psa30 value="0.00107870552144678" flag="0"/>
		</comp>
		<comp name="--.HNN" depth="0.0">
			<acc value="0.0158965457499018" flag="0"/>
			<vel value="0.00974549701184103" flag="0"/>
			<psa03 value="0.0434577746976273" flag="0"/>
			<psa10 value="0.00956157434487457" flag="0"/>
			<psa30 value="0.000777077883846104" flag="0"/>
		</comp>
		<comp name="--.HNZ" depth="0.0">
			<acc value="0.0097501007801872" flag="0"/>
			<vel value="0.005226832417891" flag="0"/>
			<psa03 value="0.0374600180006816" flag="0"/>
			<psa10 value="0.00612965684093291" flag="0"/>
			<psa30 value="0.000986518789528223" flag="0"/>
		</comp>
	</station>
	<station code="PYR2" name="PYR2" netid="HI" source="ITSAK Strong Motion Network" insttype="" lat="37.6671" lon="21.4506" esm:processing="automatic (Paolucci et al 2011)" esm:quality="best">
		<comp name="--.HNE" depth="0.0">
			<acc value="0.0594958030152457" flag="0"/>
			<vel value="0.0370895623066986" flag="0"/>
			<psa03 value="0.152761223848033" flag="0"/>
			<psa10 value="0.0342119563742062" flag="0"/>
			<psa30 value="0.00497196478493253" flag="0"/>
		</comp>
		<comp name="--.HNN" depth="0.0">
			<acc value="0.0540082400900403" flag="0"/>
			<vel value="0.02926353626301" flag="0"/>
			<psa03 value="0.173605448425613" flag="0"/>
			<psa10 value="0.0463789811298836" flag="0"/>
			<psa30 value="0.00471625826229701" flag="0"/>
		</comp>
		<comp name="--.HNZ" depth="0.0">
			<acc value="0.0219063565200471" flag="0"/>
			<vel value="0.0141517069492997" flag="0"/>
			<psa03 value="0.0744083614804374" flag="0"/>
			<psa10 value="0.023233284091048" flag="0"/>
			<psa30 value="0.00208565066412065" flag="0"/>
		</comp>
	</station>
	<station code="VSK1" name="VSK1" netid="HI" source="ITSAK Strong Motion Network" insttype="" lat="38.4091" lon="20.564" esm:processing="automatic (Paolucci et al 2011)" esm:quality="best">
		<comp name="--.HNE" depth="0.0">
			<acc value="0.019455943402609" flag="0"/>
			<vel value="0.0175009934887658" flag="0"/>
			<psa03 value="0.0484368909979793" flag="0"/>
			<psa10 value="0.0208791387654737" flag="0"/>
			<psa30 value="0.00311797175866013" flag="0"/>
		</comp>
		<comp name="--.HNN" depth="0.0">
			<acc value="0.0197124718778146" flag="0"/>
			<vel value="0.0239425752556345" flag="0"/>
			<psa03 value="0.0713849111916941" flag="0"/>
			<psa10 value="0.033920633325484" flag="0"/>
			<psa30 value="0.00371127252025715" flag="0"/>
		</comp>
		<comp name="--.HNZ" depth="0.0">
			<acc value="0.00967487794989128" flag="0"/>
			<vel value="0.0102699228244771" flag="0"/>
			<psa03 value="0.0249193434925419" flag="0"/>
			<psa10 value="0.0152544224056195" flag="0"/>
			<psa30 value="0.00176620741924009" flag="0"/>
		</comp>
	</station>
	<station code="LXRA" name="LXRA" netid="HL" source="National Observatory of Athens Seismic Network" insttype="" lat="38.20006" lon="20.43718" esm:processing="automatic (Paolucci et al 2011)" esm:quality="best">
		<comp name="00.HNE" depth="0.0">
			<acc value="0.0488012340220779" flag="0"/>
			<vel value="0.0402855264391416" flag="0"/>
			<psa03 value="0.140172504490492" flag="0"/>
			<psa10 value="0.0728578464747612" flag="0"/>
			<psa30 value="0.0113948331851089" flag="0"/>
		</comp>
		<comp name="00.HNN" depth="0.0">
			<acc value="0.0490129510601679" flag="0"/>
			<vel value="0.0497030365475415" flag="0"/>
			<psa03 value="0.169965551050276" flag="0"/>
			<psa10 value="0.0724154671693033" flag="0"/>
			<psa30 value="0.00928797111583676" flag="0"/>
		</comp>
		<comp name="00.HNZ" depth="0.0">
			<acc value="0.0410696447268856" flag="0"/>
			<vel value="0.0197168121881132" flag="0"/>
			<psa03 value="0.0928482653252355" flag="0"/>
			<psa10 value="0.0389619310367159" flag="0"/>
			<psa30 value="0.00382270323532848" flag="0"/>
		</comp>
	</station>
	<station code="AMT" name="AMT" netid="HP" source="University of Patras, Seismological Laboratory (PSLNET)" insttype="" lat="37.5324" lon="21.7089" esm:processing="automatic (Paolucci et al 2011)" esm:quality="best">
		<comp name="--.HNE" depth="0.0">
			<acc value="0.0258444798321069" flag="0"/>
			<vel value="0.0214320693680773" flag="0"/>
			<psa03 value="0.0745647520488784" flag="0"/>
			<psa10 value="0.0447632990988784" flag="0"/>
			<psa30 value="0.00203868380279659" flag="0"/>
		</comp>
		<comp name="--.HNN" depth="0.0">
			<acc value="0.0254351553166244" flag="0"/>
			<vel value="0.0276471202797995" flag="0"/>
			<psa03 value="0.0613706748810192" flag="0"/>
			<psa10 value="0.0464595589677699" flag="0"/>
			<psa30 value="0.00199870927968062" flag="0"/>
		</comp>
		<comp name="--.HNZ" depth="0.0">
			<acc value="0.0169150560979472" flag="0"/>
			<vel value="0.0154841621086645" flag="0"/>
			<psa03 value="0.0591539342828338" flag="0"/>
			<psa10 value="0.0223679630177737" flag="0"/>
			<psa30 value="0.00169322050088162" flag="0"/>
		</comp>
	</station>
	<station code="EFP" name="EFP" netid="HP" source="University of Patras, Seismological Laboratory (PSLNET)" insttype="" lat="38.4269" lon="21.9058" esm:processing="automatic (Paolucci et al 2011)" esm:quality="best">
		<comp name="--.HNE" depth="0.0">
			<acc value="0.00759766189918289" flag="0"/>
			<vel value="0.00753583687495669" flag="0"/>
			<psa03 value="0.0157696761740696" flag="0"/>
			<psa10 value="0.0139970569238272" flag="0"/>
			<psa30 value="0.00162821286111119" flag="0"/>
		</comp>
		<comp name="--.HNN" depth="0.0">
			<acc value="0.00936374100005031" flag="0"/>
			<vel value="0.0102445654407797" flag="0"/>
			<psa03 value="0.0211162113453686" flag="0"/>
			<psa10 value="0.0160861356275387" flag="0"/>
			<psa30 value="0.00118552738953796" flag="0"/>
		</comp>
		<comp name="--.HNZ" depth="0.0">
			<acc value="0.00539879253765675" flag="0"/>
			<vel value="0.00521737778314034" flag="0"/>
			<psa03 value="0.0123193043747048" flag="0"/>
			<psa10 value="0.00929360690584685" flag="0"/>
			<psa30 value="0.00156897852046017" flag="0"/>
		</comp>
	</station>
	<station code="FSK" name="FSK" netid="HP" source="University of Patras, Seismological Laboratory (PSLNET)" insttype="" lat="38.4593" lon="20.5623" esm:processing="automatic (Paolucci et al 2011)" esm:quality="best">
		<comp name="--.HNE" depth="0.0">
			<acc value="0.0143979971130566" flag="0"/>
			<vel value="0.0113485878843403" flag="0"/>
			<psa03 value="0.0321996799457686" flag="0"/>
			<psa10 value="0.0169424692304372" flag="0"/>
			<psa30 value="0.00512608291116869" flag="0"/>
		</comp>
		<comp name="--.HNN" depth="0.0">
			<acc value="0.0101273463372604" flag="0"/>
			<vel value="0.00971227323075708" flag="0"/>
			<psa03 value="0.0219384324801502" flag="0"/>
			<psa10 value="0.0160491863048274" flag="0"/>
			<psa30 value="0.00255396439594036" flag="0"/>
		</comp>
		<comp name="--.HNZ" depth="0.0">
			<acc value="0.00735251057331764" flag="0"/>
			<vel value="0.00731334338295827" flag="0"/>
			<psa03 value="0.0158846304038065" flag="0"/>
			<psa10 value="0.0114455800885089" flag="0"/>
			<psa30 value="0.00186637488817665" flag="0"/>
		</comp>
	</station>
	<station code="GUR" name="GUR" netid="HP" source="University of Patras, Seismological Laboratory (PSLNET)" insttype="" lat="37.9363" lon="22.3423" esm:processing="automatic (Paolucci et al 2011)" esm:quality="best">
		<comp name="--.HNE" depth="0.0">
			<acc value="0.0126206926068532" flag="0"/>
			<vel value="0.00945684164808896" flag="0"/>
			<psa03 value="0.0417119012295784" flag="0"/>
			<psa10 value="0.0161234318482302" flag="0"/>
			<psa30 value="0.00115991152594604" flag="0"/>
		</comp>
		<comp name="--.HNN" depth="0.0">
			<acc value="0.00907938191073029" flag="0"/>
			<vel value="0.00686493495540555" flag="0"/>
			<psa03 value="0.0273617891467463" flag="0"/>
			<psa10 value="0.0123965005823247" flag="0"/>
			<psa30 value="0.000691148389355481" flag="0"/>
		</comp>
		<comp name="--.HNZ" depth="0.0">
			<acc value="0.00525702217313263" flag="0"/>
			<vel value="0.00591029541872708" flag="0"/>
			<psa03 value="0.0121735329993166" flag="0"/>
			<psa10 value="0.0118912211725436" flag="0"/>
			<psa30 value="0.000907473344822112" flag="0"/>
		</comp>
	</station>
	<station code="LTHK" name="LTHK" netid="HP" source="University of Patras, Seismological Laboratory (PSLNET)" insttype="" lat="37.7095" lon="20.8367" esm:processing="automatic (Paolucci et al 2011)" esm:quality="best">
		<comp name="--.HNE" depth="0.0">
			<acc value="0.211422979183285" flag="0"/>
			<vel value="0.0814545536139575" flag="0"/>
			<psa03 value="0.345665461140362" flag="0"/>
			<psa10 value="0.0706244235214516" flag="0"/>
			<psa30 value="0.00486817999303275" flag="0"/>
		</comp>
		<comp name="--.HNN" depth="0.0">
			<acc value="0.151525440018581" flag="0"/>
			<vel value="0.0698197252437451" flag="0"/>
			<psa03 value="0.389432881350485" flag="0"/>
			<psa10 value="0.107259662926266" flag="0"/>
			<psa30 value="0.00564927381999871" flag="0"/>
		</comp>
		<comp name="--.HNZ" depth="0.0">
			<acc value="0.0914030890162261" flag="0"/>
			<vel value="0.0430789157536622" flag="0"/>
			<psa03 value="0.186734641086859" flag="0"/>
			<psa10 value="0.0443592623334256" flag="0"/>
			<psa30 value="0.00272685918270479" flag="0"/>
		</comp>
	</station>
	<station code="PDO" name="PDO" netid="HP" source="University of Patras, Seismological Laboratory (PSLNET)" insttype="" lat="38.5986" lon="21.1833" esm:processing="manual (Paolucci et al 2011)" esm:quality="good">
		<comp name="--.HNE" depth="0.0">
			<acc value="0.02103256566408" flag="0"/>
			<vel value="0.0179951344798694" flag="0"/>
			<psa03 value="0.0793637782941481" flag="0"/>
			<psa10 value="0.0166421043327368" flag="0"/>
			<psa30 value="0.00131576320452153" flag="0"/>
		</comp>
		<comp name="--.HNN" depth="0.0">
			<acc value="0.0356899018909773" flag="0"/>
			<vel value="0.0200170993167892" flag="0"/>
			<psa03 value="0.149747763804428" flag="0"/>
			<psa10 value="0.0250549260158853" flag="0"/>
			<psa30 value="0.00128255048350843" flag="0"/>
		</comp>
		<comp name="--.HNZ" depth="0.0">
			<acc value="0.0122606054117863" flag="0"/>
			<vel value="0.00800557808624833" flag="0"/>
			<psa03 value="0.0342437059774616" flag="0"/>
			<psa10 value="0.010860967923322" flag="0"/>
			<psa30 value="0.000789606838827883" flag="0"/>
		</comp>
	</station>
	<station code="PVO" name="PVO" netid="HP" source="University of Patras, Seismological Laboratory (PSLNET)" insttype="" lat="38.616" lon="21.525" esm:processing="automatic (Paolucci et al 2011)" esm:quality="best">
		<comp name="--.HNE" depth="0.0">
			<acc value="0.0122807806566651" flag="0"/>
			<vel value="0.0119317708887089" flag="0"/>
			<psa03 value="0.0421340255474094" flag="0"/>
			<psa10 value="0.020112505479781" flag="0"/>
			<psa30 value="0.00215417687031217" flag="0"/>
		</comp>
		<comp name="--.HNN" depth="0.0">
			<acc value="0.0140192157252298" flag="0"/>
			<vel value="0.0104374642865002" flag="0"/>
			<psa03 value="0.0289599757479318" flag="0"/>
			<psa10 value="0.0151784817499238" flag="0"/>
			<psa30 value="0.001433881445942" flag="0"/>
		</comp>
		<comp name="--.HNZ" depth="0.0">
			<acc value="0.00809131080447944" flag="0"/>
			<vel value="0.00652628507753085" flag="0"/>
			<psa03 value="0.0190648840487526" flag="0"/>
			<psa10 value="0.0109205274938513" flag="0"/>
			<psa30 value="0.00128961209713901" flag="0"/>
		</comp>
	</station>
	<station code="SERG" name="SERG" netid="HP" source="University of Patras, Seismological Laboratory (PSLNET)" insttype="" lat="38.4133" lon="22.0566" esm:processing="automatic (Paolucci et al 2011)" esm:quality="best">
		<comp name="--.HNE" depth="0.0">
			<acc value="0.00716930099405116" flag="0"/>
			<vel value="0.00955333186374713" flag="0"/>
			<psa03 value="0.024438957502661" flag="0"/>
			<psa10 value="0.0119848555003583" flag="0"/>
			<psa30 value="0.00127698886507851" flag="0"/>
		</comp>
		<comp name="--.HNN" depth="0.0">
			<acc value="0.00952549881374887" flag="0"/>
			<vel value="0.0076605426105031" flag="0"/>
			<psa03 value="0.0257731031749308" flag="0"/>
			<psa10 value="0.0145489941119572" flag="0"/>
			<psa30 value="0.00131997056657196" flag="0"/>
		</comp>
		<comp name="--.HNZ" depth="0.0">
			<acc value="0.00512784900186089" flag="0"/>
			<vel value="0.00491929003966786" flag="0"/>
			<psa03 value="0.013155320694183" flag="0"/>
			<psa10 value="0.00641696384236173" flag="0"/>
			<psa30 value="0.00148474846146547" flag="0"/>
		</comp>
	</station>
	<station code="UPR" name="UPR" netid="HP" source="University of Patras, Seismological Laboratory (PSLNET)" insttype="" lat="38.2836" lon="21.7864" esm:processing="manual (Paolucci et al 2011)" esm:quality="good">
		<comp name="--.HNE" depth="2.0">
			<acc value="0.0143956833886812" flag="0"/>
			<vel value="0.019096534135954" flag="0"/>
			<psa03 value="0.0301918568331746" flag="0"/>
			<psa10 value="0.046916913015231" flag="0"/>
			<psa30 value="0.00546287855556055" flag="0"/>
		</comp>
		<comp name="--.HNN" depth="2.0">
			<acc value="0.0222750898168294" flag="0"/>
			<vel value="0.0308134600815369" flag="0"/>
			<psa03 value="0.0347720977516568" flag="0"/>
			<psa10 value="0.0710490341498218" flag="0"/>
			<psa30 value="0.00484175615925011" flag="0"/>
		</comp>
