<?xml version="1.0" encoding="UTF-8" standalone="yes"?>
<!DOCTYPE earthquake SYSTEM "stationlist.dtd">
<stationlist created="" xmlns="ch.ethz.sed.shakemap.usgs.xml">
  <station code="RP05B" name="RP05B" netid="5B" insttype="Compact" commtype="DIG" lat="37.6182" lon="21.6541">
    <comp name="--.HHE">
      <acc value="0.1023556436" flag="0"/>
      <vel value="0.0677294666" flag="0"/>
      <psa03 value="0.2783713874" flag="0"/>
      <psa10 value="0.0587326409" flag="0"/>
      <psa30 value="0.0050677414" flag="0"/>
    </comp>
    <comp name="--.HHN">
      <acc value="0.1445764352" flag="0"/>
      <vel value="0.0772205080" flag="0"/>
      <psa03 value="0.3501978132" flag="0"/>
      <psa10 value="0.0740037047" flag="0"/>
      <psa30 value="0.0040963820" flag="0"/>
    </comp>
    <comp name="--.HHZ">
      <acc value="0.0435160157" flag="0"/>
      <vel value="0.0261921053" flag="0"/>
      <psa03 value="0.1640557358" flag="0"/>
      <psa10 value="0.0235726047" flag="0"/>
      <psa30 value="0.0031961196" flag="0"/>
    </comp>
  </station>
  <station code="ATHR" name="ATHR" netid="HA" insttype="GEOtiny," commtype="DIG" lat="38.3172" lon="20.4165">
    <comp name="--.HHZ">
      <acc value="0.0120202103" flag="0"/>
      <vel value="0.0103314505" flag="0"/>
      <psa03 value="0.0311314845" flag="0"/>
      <psa10 value="0.0210409244" flag="0"/>
      <psa30 value="0.0015964523" flag="0"/>
    </comp>
    <comp name="--.HHN">
      <acc value="0.0142809999" flag="0"/>
      <vel value="0.0158497873" flag="0"/>
      <psa03 value="0.0359460005" flag="0"/>
      <psa10 value="0.0335262137" flag="0"/>
      <psa30 value="0.0022842007" flag="0"/>
    </comp>
    <comp name="--.HHE">
      <acc value="0.0144419865" flag="0"/>
      <vel value="0.0158495425" flag="0"/>
      <psa03 value="0.0385917371" flag="0"/>
      <psa10 value="0.0319597920" flag="0"/>
      <psa30 value="0.0039676710" flag="0"/>
    </comp>
  </station>
  <station code="HAVD" name="HAVD" netid="HA" insttype="GEOtiny," commtype="DIG" lat="38.2036" lon="20.3848">
    <comp name="--.HHE">
      <acc value="0.0274506416" flag="0"/>
      <vel value="0.0225365774" flag="0"/>
      <psa03 value="0.0719929912" flag="0"/>
      <psa10 value="0.0334803517" flag="0"/>
      <psa30 value="0.0040157561" flag="0"/>
    </comp>
    <comp name="--.HHZ">
      <acc value="0.0228611079" flag="0"/>
      <vel value="0.0116911813" flag="0"/>
      <psa03 value="0.0530847169" flag="0"/>
      <psa10 value="0.0190021642" flag="0"/>
      <psa30 value="0.0013675239" flag="0"/>
    </comp>
    <comp name="--.HHN">
      <acc value="0.0287781370" flag="0"/>
      <vel value="0.0196858456" flag="0"/>
      <psa03 value="0.0627968256" flag="0"/>
      <psa10 value="0.0356835387" flag="0"/>
      <psa30 value="0.0025035418" flag="0"/>
    </comp>
  </station>
  <station code="ARG2" name="ARG2" netid="HI" insttype="CMG-5TD,ACCELEROMETER,GURALP" commtype="DIG" lat="38.1783" lon="20.4878">
    <comp name="--.HNN">
      <acc value="0.0468277727" flag="0"/>
      <vel value="0.0285522671" flag="0"/>
      <psa03 value="0.1053920495" flag="0"/>
      <psa10 value="0.0410694712" flag="0"/>
      <psa30 value="0.0031548378" flag="0"/>
    </comp>
    <comp name="--.HNE">
      <acc value="0.0576475574" flag="0"/>
      <vel value="0.0293682372" flag="0"/>
      <psa03 value="0.1433925024" flag="0"/>
      <psa10 value="0.0269733969" flag="0"/>
      <psa30 value="0.0035995878" flag="0"/>
    </comp>
    <comp name="--.HNZ">
      <acc value="0.0270908032" flag="0"/>
      <vel value="0.0121968032" flag="0"/>
      <psa03 value="0.0783519267" flag="0"/>
      <psa10 value="0.0159156042" flag="0"/>
      <psa30 value="0.0022292795" flag="0"/>
    </comp>
  </station>
  <station code="KRI1" name="KRI1" netid="HI" insttype="CMG-5TD,ACCELEROMETER,GURALP" commtype="DIG" lat="37.6621" lon="20.8172">
    <comp name="--.HNN">
      <acc value="0.1102152155" flag="0"/>
      <vel value="0.0762263975" flag="0"/>
      <psa03 value="0.2986440162" flag="0"/>
      <psa10 value="0.0842049502" flag="0"/>
      <psa30 value="0.0047028397" flag="0"/>
    </comp>
    <comp name="--.HNE">
      <acc value="0.1543190769" flag="0"/>
      <vel value="0.0559961709" flag="0"/>
      <psa03 value="0.5265705758" flag="0"/>
      <psa10 value="0.0612001587" flag="0"/>
      <psa30 value="0.0040384187" flag="0"/>
    </comp>
    <comp name="--.HNZ">
      <acc value="0.0872522638" flag="0"/>
      <vel value="0.0448578839" flag="0"/>
      <psa03 value="0.1823794660" flag="0"/>
      <psa10 value="0.0382994631" flag="0"/>
      <psa30 value="0.0028881679" flag="0"/>
    </comp>
  </station>
  <station code="PYR2" name="PYR2" netid="HI" insttype="unknown" commtype="DIG" lat="37.6671" lon="21.4506">
    <comp name="--.HNE">
      <acc value="0.0592101330" flag="0"/>
      <vel value="0.0365736315" flag="0"/>
      <psa03 value="0.1530780364" flag="0"/>
      <psa10 value="0.0337688459" flag="0"/>
      <psa30 value="0.0041516740" flag="0"/>
    </comp>
    <comp name="--.HNN">
      <acc value="0.0539362353" flag="0"/>
      <vel value="0.0295567657" flag="0"/>
      <psa03 value="0.1709671762" flag="0"/>
      <psa10 value="0.0464314280" flag="0"/>
      <psa30 value="0.0040524411" flag="0"/>
    </comp>
    <comp name="--.HNZ">
      <acc value="0.0219154224" flag="0"/>
      <vel value="0.0144987156" flag="0"/>
      <psa03 value="0.0737401378" flag="0"/>
      <psa10 value="0.0232514132" flag="0"/>
      <psa30 value="0.0019461743" flag="0"/>
    </comp>
  </station>
  <station code="ZAK2" name="ZAK2" netid="HI" insttype="unknown" commtype="DIG" lat="37.7875" lon="20.9">
    <comp name="--.HNE">
      <acc value="0.4968696486" flag="0"/>
      <vel value="0.3479644211" flag="0"/>
      <psa03 value="1.1945104394" flag="0"/>
      <psa10 value="0.2450740150" flag="0"/>
      <psa30 value="0.0192593511" flag="0"/>
    </comp>
    <comp name="--.HNN">
      <acc value="0.3102045805" flag="0"/>
      <vel value="0.1829067167" flag="0"/>
      <psa03 value="0.9383965368" flag="0"/>
      <psa10 value="0.3044708186" flag="0"/>
      <psa30 value="0.0097534372" flag="0"/>
    </comp>
    <comp name="--.HNZ">
      <acc value="0.1547134060" flag="0"/>
      <vel value="0.0838886663" flag="0"/>
      <psa03 value="0.3730663634" flag="0"/>
      <psa10 value="0.1181560314" flag="0"/>
      <psa30 value="0.0094722550" flag="0"/>
    </comp>
  </station>
  <station code="ORTH" name="ORTH" netid="HL" insttype="30" commtype="DIG" lat="37.8511" lon="20.6963">
    <comp name="--.HHE">
      <acc value="0.1353817150" flag="0"/>
      <vel value="0.0818085420" flag="0"/>
      <psa03 value="0.4933542904" flag="0"/>
      <psa10 value="0.0832273302" flag="0"/>
      <psa30 value="0.0042007477" flag="0"/>
    </comp>
    <comp name="--.HHN">
      <acc value="0.2155118733" flag="0"/>
      <vel value="0.1171899317" flag="0"/>
      <psa03 value="0.4893087841" flag="0"/>
      <psa10 value="0.0771957891" flag="0"/>
      <psa30 value="0.0077272815" flag="0"/>
    </comp>
    <comp name="--.HHZ">
      <acc value="0.0598699305" flag="0"/>
      <vel value="0.0255376457" flag="0"/>
      <psa03 value="0.1224243359" flag="0"/>
      <psa10 value="0.0505544041" flag="0"/>
      <psa30 value="0.0049414412" flag="0"/>
    </comp>
  </station>
  <station code="RLS" name="RLS" netid="HL" insttype="CMG3ESPC-120s" commtype="DIG" lat="38.0559" lon="21.4647">
    <comp name="--.HHE">
      <acc value="0.0125979456" flag="0"/>
      <vel value="0.0120283255" flag="0"/>
      <psa03 value="0.0370012706" flag="0"/>
      <psa10 value="0.0150939403" flag="0"/>
      <psa30 value="0.0011877927" flag="0"/>
    </comp>
    <comp name="--.HHN">
      <acc value="0.0167860863" flag="0"/>
      <vel value="0.0171691902" flag="0"/>
      <psa03 value="0.0333309393" flag="0"/>
      <psa10 value="0.0265744287" flag="0"/>
      <psa30 value="0.0016629681" flag="0"/>
    </comp>
    <comp name="--.HHZ">
      <acc value="0.0069741933" flag="0"/>
      <vel value="0.0041030081" flag="0"/>
      <psa03 value="0.0119666434" flag="0"/>
      <psa10 value="0.0080156363" flag="0"/>
      <psa30 value="0.0003475164" flag="0"/>
    </comp>
  </station>
  <station code="AXS" name="AXS" netid="HP" insttype="Compact," commtype="DIG" lat="38.1962" lon="21.3763">
    <comp name="--.HHE">
      <acc value="0.0083034312" flag="0"/>
      <vel value="0.0069535543" flag="0"/>
      <psa03 value="0.0168560659" flag="0"/>
      <psa10 value="0.0107966437" flag="0"/>
      <psa30 value="0.0012200597" flag="0"/>
    </comp>
    <comp name="--.HHZ">
      <acc value="0.0036177628" flag="0"/>
      <vel value="0.0024765308" flag="0"/>
      <psa03 value="0.0070588961" flag="0"/>
      <psa10 value="0.0059097439" flag="0"/>
      <psa30 value="0.0003241137" flag="0"/>
    </comp>
    <comp name="--.HHN">
      <acc value="0.0130064964" flag="0"/>
      <vel value="0.0118250040" flag="0"/>
      <psa03 value="0.0302586778" flag="0"/>
      <psa10 value="0.0168312766" flag="0"/>
      <psa30 value="0.0014469412" flag="0"/>
    </comp>
  </station>
  <station code="DRO" name="DRO" netid="HP" insttype="120P," commtype="DIG" lat="37.952" lon="21.71">
    <comp name="--.HHE">
      <acc value="0.0244431105" flag="0"/>
      <vel value="0.0152280792" flag="0"/>
      <psa03 value="0.0708557227" flag="0"/>
      <psa10 value="0.0204922520" flag="0"/>
      <psa30 value="0.0015040587" flag="0"/>
    </comp>
    <comp name="--.HHZ">
      <acc value="0.0093614108" flag="0"/>
      <vel value="0.0080694551" flag="0"/>
      <psa03 value="0.0355020430" flag="0"/>
      <psa10 value="0.0162499828" flag="0"/>
      <psa30 value="0.0019388903" flag="0"/>
    </comp>
    <comp name="--.HHN">
      <acc value="0.0190551900" flag="0"/>
      <vel value="0.0133466322" flag="0"/>
      <psa03 value="0.0745245828" flag="0"/>
      <psa10 value="0.0161200884" flag="0"/>
      <psa30 value="0.0013667693" flag="0"/>
    </comp>
  </station>
  <station code="FSK" name="FSK" netid="HP" insttype="40," commtype="DIG" lat="38.4593" lon="20.5623">
    <comp name="--.HHZ">
      <acc value="0.0071689249" flag="0"/>
      <vel value="0.0075097295" flag="0"/>
      <psa03 value="0.0156307850" flag="0"/>
      <psa10 value="0.0113852147" flag="0"/>
      <psa30 value="0.0017238323" flag="0"/>
    </comp>
    <comp name="--.HHN">
      <acc value="0.0102447789" flag="0"/>
      <vel value="0.0093741543" flag="0"/>
      <psa03 value="0.0213559407" flag="0"/>
      <psa10 value="0.0169566507" flag="0"/>
      <psa30 value="0.0021359505" flag="0"/>
    </comp>
    <comp name="--.HHE">
      <acc value="0.0148978012" flag="0"/>
      <vel value="0.0113784905" flag="0"/>
      <psa03 value="0.0323118979" flag="0"/>
      <psa10 value="0.0153672983" flag="0"/>
      <psa30 value="0.0046215635" flag="0"/>
    </comp>
  </station>
  <station code="LTHK" name="LTHK" netid="HP" insttype="40," commtype="DIG" lat="37.7095" lon="20.8367">
    <comp name="--.HHE">
      <acc value="0.2102871748" flag="0"/>
      <vel value="0.0796775142" flag="0"/>
      <psa03 value="0.3424041187" flag="0"/>
      <psa10 value="0.0689869793" flag="0"/>
      <psa30 value="0.0041917341" flag="0"/>
    </comp>
    <comp name="--.HHN">
      <acc value="0.1537115285" flag="0"/>
      <vel value="0.0680051892" flag="0"/>
      <psa03 value="0.3891146571" flag="0"/>
      <psa10 value="0.1072844262" flag="0"/>
      <psa30 value="0.0046450698" flag="0"/>
    </comp>
    <comp name="--.HHZ">
      <acc value="0.0964320118" flag="0"/>
      <vel value="0.0417445208" flag="0"/>
      <psa03 value="0.1829527323" flag="0"/>
      <psa10 value="0.0442547379" flag="0"/>
      <psa30 value="0.0022022530" flag="0"/>
    </comp>
  </station>
  <station code="DMLN" name="DMLN" netid="HT" insttype="1s-100Hz," commtype="DIG" lat="38.2385" lon="20.3734">
    <comp name="--.HHN">
      <acc value="0.0355157456" flag="0"/>
      <vel value="0.0305639887" flag="0"/>
      <psa03 value="0.1169378738" flag="0"/>
      <psa10 value="0.0483142998" flag="0"/>
      <psa30 value="0.0044283652" flag="0"/>
    </comp>
    <comp name="--.HHZ">
      <acc value="0.0262829857" flag="0"/>
      <vel value="0.0197357716" flag="0"/>
      <psa03 value="0.0808372309" flag="0"/>
      <psa10 value="0.0234626000" flag="0"/>
      <psa30 value="0.0024024340" flag="0"/>
    </comp>
    <comp name="--.HHE">
      <acc value="0.0584195331" flag="0"/>
      <vel value="0.0401265367" flag="0"/>
      <psa03 value="0.1465987582" flag="0"/>
      <psa10 value="0.0473961319" flag="0"/>
      <psa30 value="0.0055059143" flag="0"/>
    </comp>
  </station>
  <station code="EVGI" name="EVGI" netid="HT" insttype="30" commtype="DIG" lat="38.621" lon="20.656">
    <comp name="--.HHE">
      <acc value="0.0193750192" flag="0"/>
      <vel value="0.0094051795" flag="0"/>
      <psa03 value="0.0504819187" flag="0"/>
      <psa10 value="0.0068287436" flag="0"/>
      <psa30 value="0.0019565321" flag="0"/>
    </comp>
    <comp name="--.HHZ">
      <acc value="0.0116515275" flag="0"/>
      <vel value="0.0090972549" flag="0"/>
      <psa03 value="0.0411349073" flag="0"/>
      <psa10 value="0.0100070511" flag="0"/>
      <psa30 value="0.0009868445" flag="0"/>
    </comp>
    <comp name="--.HHN">
      <acc value="0.0253657296" flag="0"/>
      <vel value="0.0094346073" flag="0"/>
      <psa03 value="0.0397339462" flag="0"/>
      <psa10 value="0.0066503295" flag="0"/>
      <psa30 value="0.0009123492" flag="0"/>
    </comp>
  </station>
  <station code="NYDR" name="NYDR" netid="HT" insttype="1s-100Hz," commtype="DIG" lat="38.7135" lon="20.6983">
    <comp name="--.HHE">
      <acc value="0.0106438641" flag="0"/>
      <vel value="0.0076498620" flag="0"/>
      <psa03 value="0.0218263961" flag="0"/>
      <psa10 value="0.0122113132" flag="0"/>
      <psa30 value="0.0013164597" flag="0"/>
    </comp>
    <comp name="--.HHN">
      <acc value="0.0087135840" flag="0"/>
      <vel value="0.0085138539" flag="0"/>
      <psa03 value="0.0272546292" flag="0"/>
      <psa10 value="0.0155546298" flag="0"/>
      <psa30 value="0.0010706209" flag="0"/>
    </comp>
    <comp name="--.HHZ">
      <acc value="0.0056177448" flag="0"/>
      <vel value="0.0054832252" flag="0"/>
      <psa03 value="0.0161390358" flag="0"/>
      <psa10 value="0.0100050019" flag="0"/>
      <psa30 value="0.0009771969" flag="0"/>
    </comp>
  </station>
  <station code="PSDA" name="PSDA" netid="HT" insttype="30" commtype="DIG" lat="38.114" lon="20.5841">
    <comp name="--.HHE">
      <acc value="0.0560437180" flag="0"/>
      <vel value="0.0299987517" flag="0"/>
      <psa03 value="0.1826871397" flag="0"/>
      <psa10 value="0.0325328309" flag="0"/>
      <psa30 value="0.0024428477" flag="0"/>
    </comp>
    <comp name="--.HHN">
      <acc value="0.0004629009" flag="0"/>
      <vel value="0.0002370183" flag="0"/>
      <psa03 value="0.0011202624" flag="0"/>
      <psa10 value="0.0002053071" flag="0"/>
      <psa30 value="0.0000176471" flag="0"/>
    </comp>
    <comp name="--.HHZ">
      <acc value="0.0390088953" flag="0"/>
      <vel value="0.0126358332" flag="0"/>
      <psa03 value="0.0516917360" flag="0"/>
      <psa10 value="0.0175062091" flag="0"/>
      <psa30 value="0.0018077050" flag="0"/>
    </comp>
  </station>
  <station code="RTZL" name="RTZL" netid="HT" insttype="Compact," commtype="DIG" lat="38.076" lon="20.7715">
    <comp name="--.HHN">
      <acc value="0.0485777611" flag="0"/>
      <vel value="0.0362412066" flag="0"/>
      <psa03 value="0.1117643678" flag="0"/>
      <psa10 value="0.0451760374" flag="0"/>
      <psa30 value="0.0019939485" flag="0"/>
    </comp>
    <comp name="--.HHE">
      <acc value="0.0584338420" flag="0"/>
      <vel value="0.0337338464" flag="0"/>
      <psa03 value="0.1894373244" flag="0"/>
      <psa10 value="0.0341922093" flag="0"/>
      <psa30 value="0.0028059439" flag="0"/>
    </comp>
    <comp name="--.HHZ">
      <acc value="0.0303216003" flag="0"/>
      <vel value="0.0171959204" flag="0"/>
      <psa03 value="0.1031600578" flag="0"/>
      <psa10 value="0.0237786010" flag="0"/>
      <psa30 value="0.0015956563" flag="0"/>
    </comp>
  </station>
  <station code="CKVA" name="CKVA" netid="KF" insttype="Triaxial" commtype="DIG" lat="38.1642" lon="20.5063">
    <comp name="00.HN2">
      <acc value="0.1796621063" flag="0"/>
      <vel value="0.0975756919" flag="0"/>
      <psa03 value="0.4205979573" flag="0"/>
      <psa10 value="0.0753322057" flag="0"/>
      <psa30 value="0.0051140607" flag="0"/>
    </comp>
    <comp name="00.HNZ">
      <acc value="0.0658510225" flag="0"/>
      <vel value="0.0358513913" flag="0"/>
      <psa03 value="0.2510561332" flag="0"/>
      <psa10 value="0.0166727391" flag="0"/>
      <psa30 value="0.0024028020" flag="0"/>
    </comp>
    <comp name="00.HN1">
      <acc value="0.2085267510" flag="0"/>
      <vel value="0.1154196021" flag="0"/>
      <psa03 value="0.7838382971" flag="0"/>
      <psa10 value="0.1333516052" flag="0"/>
      <psa30 value="0.0058516864" flag="0"/>
    </comp>
  </station>
</stationlist>
