<?xml version="1.0" encoding="UTF-8" standalone="yes"?>
<!DOCTYPE earthquake SYSTEM "stationlist.dtd">
<stationlist created="" xmlns="ch.ethz.sed.shakemap.usgs.xml">
  <station code="ARMT" name="ARMT" netid="KO" insttype="CMG-3ESP" lat="40.5683" lon="28.866">
    <comp name="--.HHE">
      <acc value="0.0627344766" flag="0"/>
      <vel value="0.0130611868" flag="0"/>
      <psa03 value="0.0878169131" flag="0"/>
      <psa10 value="0.0048047941" flag="0"/>
      <psa30 value="0.0003395640" flag="0"/>
    </comp>
    <comp name="--.HHN">
      <acc value="0.0756499736" flag="0"/>
      <vel value="0.0213563739" flag="0"/>
      <psa03 value="0.1433120826" flag="0"/>
      <psa10 value="0.0072812295" flag="0"/>
      <psa30 value="0.0004126984" flag="0"/>
    </comp>
    <comp name="--.HHZ">
      <acc value="0.0326212093" flag="0"/>
      <vel value="0.0093408692" flag="0"/>
      <psa03 value="0.0727561047" flag="0"/>
      <psa10 value="0.0036204548" flag="0"/>
      <psa30 value="0.0002865841" flag="0"/>
    </comp>
  </station>
  <station code="AVCI" name="AVCI" netid="KO" insttype="CMG-5T" lat="40.9958" lon="28.7225">
    <comp name="--.HNE">
      <acc value="0.0179647786" flag="0"/>
      <vel value="0.0087979616" flag="0"/>
      <psa03 value="0.0616829714" flag="0"/>
      <psa10 value="0.0064251538" flag="0"/>
      <psa30 value="0.0008457838" flag="0"/>
    </comp>
    <comp name="--.HNZ">
      <acc value="0.0187988443" flag="0"/>
      <vel value="0.0107926512" flag="0"/>
      <psa03 value="0.0565815433" flag="0"/>
      <psa10 value="0.0040011778" flag="0"/>
      <psa30 value="0.0004136917" flag="0"/>
    </comp>
    <comp name="--.HNN">
      <acc value="0.0205143617" flag="0"/>
      <vel value="0.0074048705" flag="0"/>
      <psa03 value="0.0391593218" flag="0"/>
      <psa10 value="0.0079599038" flag="0"/>
      <psa30 value="0.0006412911" flag="0"/>
    </comp>
  </station>
  <station code="BALB" name="BALB" netid="KO" insttype="CMG-5T" lat="39.6507" lon="27.8642">
    <comp name="--.HNN">
      <acc value="0.0830610230" flag="0"/>
      <vel value="0.0220935073" flag="0"/>
      <psa03 value="0.1072254067" flag="0"/>
      <psa10 value="0.0139567324" flag="0"/>
      <psa30 value="0.0008109490" flag="0"/>
    </comp>
    <comp name="--.HNE">
      <acc value="0.0905612642" flag="0"/>
      <vel value="0.0239877863" flag="0"/>
      <psa03 value="0.0802786762" flag="0"/>
      <psa10 value="0.0086033751" flag="0"/>
      <psa30 value="0.0010584018" flag="0"/>
    </comp>
    <comp name="--.HNZ">
      <acc value="0.0853947934" flag="0"/>
      <vel value="0.0256157163" flag="0"/>
      <psa03 value="0.0958027859" flag="0"/>
      <psa10 value="0.0139610806" flag="0"/>
      <psa30 value="0.0007713839" flag="0"/>
    </comp>
  </station>
  <station code="BIGA" name="BIGA" netid="KO" insttype="CMG-5T" lat="40.2813" lon="27.1505">
    <comp name="--.HNE">
      <acc value="0.0795805439" flag="0"/>
      <vel value="0.0215166204" flag="0"/>
      <psa03 value="0.0648772775" flag="0"/>
      <psa10 value="0.0057135159" flag="0"/>
      <psa30 value="0.0004602795" flag="0"/>
    </comp>
    <comp name="--.HNN">
      <acc value="0.0708017161" flag="0"/>
      <vel value="0.0229103604" flag="0"/>
      <psa03 value="0.1481967557" flag="0"/>
      <psa10 value="0.0086106414" flag="0"/>
      <psa30 value="0.0006862589" flag="0"/>
    </comp>
    <comp name="--.HNZ">
      <acc value="0.0456988283" flag="0"/>
      <vel value="0.0081890915" flag="0"/>
      <psa03 value="0.0263118446" flag="0"/>
      <psa10 value="0.0016927621" flag="0"/>
      <psa30 value="0.0004352377" flag="0"/>
    </comp>
  </station>
  <station code="BMYO" name="BMYO" netid="KO" insttype="CMG-5T" lat="39.8098" lon="26.6009">
    <comp name="--.HNZ">
      <acc value="0.0112985115" flag="0"/>
      <vel value="0.0050152023" flag="0"/>
      <psa03 value="0.0261166331" flag="0"/>
      <psa10 value="0.0079480668" flag="0"/>
      <psa30 value="0.0005398230" flag="0"/>
    </comp>
    <comp name="--.HNN">
      <acc value="0.0421857846" flag="0"/>
      <vel value="0.0296901666" flag="0"/>
      <psa03 value="0.0590292864" flag="0"/>
      <psa10 value="0.0233716913" flag="0"/>
      <psa30 value="0.0022177967" flag="0"/>
    </comp>
    <comp name="--.HNE">
      <acc value="0.0269302658" flag="0"/>
      <vel value="0.0103833118" flag="0"/>
      <psa03 value="0.0458897272" flag="0"/>
      <psa10 value="0.0095538254" flag="0"/>
      <psa30 value="0.0009162931" flag="0"/>
    </comp>
  </station>
  <station code="CANM" name="CANM" netid="KO" insttype="CMG-5T" lat="40.0113" lon="27.0529">
    <comp name="--.HNE">
      <acc value="0.0509079234" flag="0"/>
      <vel value="0.0134186711" flag="0"/>
      <psa03 value="0.0423859016" flag="0"/>
      <psa10 value="0.0058035019" flag="0"/>
      <psa30 value="0.0004254079" flag="0"/>
    </comp>
    <comp name="--.HNN">
      <acc value="0.0512170478" flag="0"/>
      <vel value="0.0195420862" flag="0"/>
      <psa03 value="0.0564837529" flag="0"/>
      <psa10 value="0.0088632457" flag="0"/>
      <psa30 value="0.0007194459" flag="0"/>
    </comp>
    <comp name="--.HNZ">
      <acc value="0.0479249299" flag="0"/>
      <vel value="0.0117024587" flag="0"/>
      <psa03 value="0.0632982415" flag="0"/>
      <psa10 value="0.0030720452" flag="0"/>
      <psa30 value="0.0002879751" flag="0"/>
    </comp>
  </station>
  <station code="EDC" name="EDC" netid="KO" insttype="CMG-3T" lat="40.3465" lon="27.8618">
    <comp name="--.HHE">
      <acc value="0.1501935166" flag="0"/>
      <vel value="0.0550585133" flag="0"/>
      <psa03 value="0.2650123533" flag="0"/>
      <psa10 value="0.0304414459" flag="0"/>
      <psa30 value="0.0022240818" flag="0"/>
    </comp>
    <comp name="--.HHN">
      <acc value="0.1807611576" flag="0"/>
      <vel value="0.0621301482" flag="0"/>
      <psa03 value="0.3682439391" flag="0"/>
      <psa10 value="0.0223101085" flag="0"/>
      <psa30 value="0.0020082367" flag="0"/>
    </comp>
    <comp name="--.HHZ">
      <acc value="0.0853697847" flag="0"/>
      <vel value="0.0240894953" flag="0"/>
      <psa03 value="0.1044083823" flag="0"/>
      <psa10 value="0.0097407926" flag="0"/>
      <psa30 value="0.0005351155" flag="0"/>
    </comp>
  </station>
  <station code="GAZK" name="GAZK" netid="KO" insttype="CMG-6T" lat="40.7479" lon="27.3275">
    <comp name="--.HHE">
      <acc value="0.0617433292" flag="0"/>
      <vel value="0.0208770230" flag="0"/>
      <psa03 value="0.0911390770" flag="0"/>
      <psa10 value="0.0147029393" flag="0"/>
      <psa30 value="0.0006868609" flag="0"/>
    </comp>
    <comp name="--.HHZ">
      <acc value="0.0440525578" flag="0"/>
      <vel value="0.0103426589" flag="0"/>
      <psa03 value="0.0748616985" flag="0"/>
      <psa10 value="0.0074805704" flag="0"/>
      <psa30 value="0.0004463931" flag="0"/>
    </comp>
    <comp name="--.HHN">
      <acc value="0.0453368385" flag="0"/>
      <vel value="0.0247453304" flag="0"/>
      <psa03 value="0.0846909772" flag="0"/>
      <psa10 value="0.0199039047" flag="0"/>
      <psa30 value="0.0016225671" flag="0"/>
    </comp>
  </station>
  <station code="GEML" name="GEML" netid="KO" insttype="CMG-3T" lat="40.4646" lon="29.2116">
    <comp name="--.HHE">
      <acc value="0.0891698323" flag="0"/>
      <vel value="0.0286976443" flag="0"/>
      <psa03 value="0.1167283854" flag="0"/>
      <psa10 value="0.0132987715" flag="0"/>
      <psa30 value="0.0005682611" flag="0"/>
    </comp>
    <comp name="--.HHN">
      <acc value="0.1071225359" flag="0"/>
      <vel value="0.0324904176" flag="0"/>
      <psa03 value="0.1670722277" flag="0"/>
      <psa10 value="0.0092823860" flag="0"/>
      <psa30 value="0.0008367964" flag="0"/>
    </comp>
    <comp name="--.HHZ">
      <acc value="0.0526082000" flag="0"/>
      <vel value="0.0152242234" flag="0"/>
      <psa03 value="0.0570600157" flag="0"/>
      <psa10 value="0.0089016002" flag="0"/>
      <psa30 value="0.0004795234" flag="0"/>
    </comp>
  </station>
  <station code="GONE" name="GONE" netid="KO" insttype="CMG-5T" lat="40.0466" lon="27.686">
    <comp name="--.HNE">
      <acc value="0.1195471001" flag="0"/>
      <vel value="0.0533034673" flag="0"/>
      <psa03 value="0.1721087592" flag="0"/>
      <psa10 value="0.0198615379" flag="0"/>
      <psa30 value="0.0018946647" flag="0"/>
    </comp>
    <comp name="--.HNN">
      <acc value="0.1316267559" flag="0"/>
      <vel value="0.0283208704" flag="0"/>
      <psa03 value="0.0924595466" flag="0"/>
      <psa10 value="0.0269274097" flag="0"/>
      <psa30 value="0.0018980242" flag="0"/>
    </comp>
    <comp name="--.HNZ">
      <acc value="0.1905363093" flag="0"/>
      <vel value="0.0355706920" flag="0"/>
      <psa03 value="0.1075884257" flag="0"/>
      <psa10 value="0.0094819194" flag="0"/>
      <psa30 value="0.0009954059" flag="0"/>
    </comp>
  </station>
  <station code="GORD" name="GORD" netid="KO" insttype="CMG-5T" lat="38.9088" lon="28.1769">
    <comp name="--.HNE">
      <acc value="0.0081018399" flag="0"/>
      <vel value="0.0069207279" flag="0"/>
      <psa03 value="0.0153484184" flag="0"/>
      <psa10 value="0.0060581503" flag="0"/>
      <psa30 value="0.0006604182" flag="0"/>
    </comp>
    <comp name="--.HNN">
      <acc value="0.0127506863" flag="0"/>
      <vel value="0.0073368129" flag="0"/>
      <psa03 value="0.0294836094" flag="0"/>
      <psa10 value="0.0086165561" flag="0"/>
      <psa30 value="0.0004957123" flag="0"/>
    </comp>
    <comp name="--.HNZ">
      <acc value="0.0083392847" flag="0"/>
      <vel value="0.0044130719" flag="0"/>
      <psa03 value="0.0184100242" flag="0"/>
      <psa10 value="0.0046282833" flag="0"/>
      <psa30 value="0.0003216359" flag="0"/>
    </comp>
  </station>
  <station code="IZI" name="IZI" netid="KO" insttype="CMG-5T" lat="40.3483" lon="29.4612">
    <comp name="--.HNE">
      <acc value="0.0441846005" flag="0"/>
      <vel value="0.0190565810" flag="0"/>
      <psa03 value="0.1413020577" flag="0"/>
      <psa10 value="0.0071027678" flag="0"/>
      <psa30 value="0.0007141258" flag="0"/>
    </comp>
    <comp name="--.HNN">
      <acc value="0.0410380513" flag="0"/>
      <vel value="0.0178117598" flag="0"/>
      <psa03 value="0.0673431399" flag="0"/>
      <psa10 value="0.0112951192" flag="0"/>
      <psa30 value="0.0009460608" flag="0"/>
    </comp>
    <comp name="--.HNZ">
      <acc value="0.0372140772" flag="0"/>
      <vel value="0.0163792527" flag="0"/>
      <psa03 value="0.0990705090" flag="0"/>
      <psa10 value="0.0087465709" flag="0"/>
      <psa30 value="0.0009004107" flag="0"/>
    </comp>
  </station>
  <station code="KCTX" name="KCTX" netid="KO" insttype="CMG-3ESP" lat="40.2626" lon="28.3353">
    <comp name="--.HHE">
      <acc value="0.0964283506" flag="0"/>
      <vel value="0.0140678321" flag="0"/>
      <psa03 value="0.0469209977" flag="0"/>
      <psa10 value="0.0110996304" flag="0"/>
      <psa30 value="0.0005756985" flag="0"/>
    </comp>
    <comp name="--.HHZ">
      <acc value="0.1227521855" flag="0"/>
      <vel value="0.0198200830" flag="0"/>
      <psa03 value="0.0538172070" flag="0"/>
      <psa10 value="0.0063077072" flag="0"/>
      <psa30 value="0.0005397363" flag="0"/>
    </comp>
    <comp name="--.HHN">
      <acc value="0.1098654315" flag="0"/>
      <vel value="0.0166441400" flag="0"/>
      <psa03 value="0.0682779846" flag="0"/>
      <psa10 value="0.0096855706" flag="0"/>
      <psa30 value="0.0006639523" flag="0"/>
    </comp>
  </station>
  <station code="KRBG" name="KRBG" netid="KO" insttype="CMG-3ESP" lat="40.3932" lon="27.2977">
    <comp name="--.HHE">
      <acc value="0.0434241235" flag="0"/>
      <vel value="0.0115822545" flag="0"/>
      <psa03 value="0.0619097543" flag="0"/>
      <psa10 value="0.0060689595" flag="0"/>
      <psa30 value="0.0004276987" flag="0"/>
    </comp>
  </station>
  <station code="LAPK" name="LAPK" netid="KO" insttype="CMG-5T" lat="40.3151" lon="26.6425">
    <comp name="--.HNE">
      <acc value="0.0404434314" flag="0"/>
      <vel value="0.0159120183" flag="0"/>
      <psa03 value="0.0788288314" flag="0"/>
      <psa10 value="0.0148475885" flag="0"/>
      <psa30 value="0.0010722793" flag="0"/>
    </comp>
    <comp name="--.HNN">
      <acc value="0.0381616064" flag="0"/>
      <vel value="0.0154729700" flag="0"/>
      <psa03 value="0.0679797266" flag="0"/>
      <psa10 value="0.0225981528" flag="0"/>
      <psa30 value="0.0009678995" flag="0"/>
    </comp>
    <comp name="--.HNZ">
      <acc value="0.0193197535" flag="0"/>
      <vel value="0.0065316029" flag="0"/>
      <psa03 value="0.0355292429" flag="0"/>
      <psa10 value="0.0093154352" flag="0"/>
      <psa30 value="0.0005413136" flag="0"/>
    </comp>
  </station>
  <station code="MDNY" name="MDNY" netid="KO" insttype="CMG-3ESP" lat="40.3709" lon="28.8846">
    <comp name="--.HHE">
      <acc value="0.1776371274" flag="0"/>
      <vel value="0.0507362634" flag="0"/>
      <psa03 value="0.2215007929" flag="0"/>
      <psa10 value="0.0110222327" flag="0"/>
      <psa30 value="0.0009200893" flag="0"/>
    </comp>
    <comp name="--.HHN">
      <acc value="0.2153101920" flag="0"/>
      <vel value="0.0544973116" flag="0"/>
      <psa03 value="0.3762595808" flag="0"/>
      <psa10 value="0.0110351978" flag="0"/>
      <psa30 value="0.0008885061" flag="0"/>
    </comp>
  </station>
  <station code="MRMT" name="MRMT" netid="KO" insttype="CMG-3T" lat="40.609" lon="27.5832">
    <comp name="--.HHZ">
      <acc value="0.0299819613" flag="0"/>
      <vel value="0.0061984640" flag="0"/>
      <psa03 value="0.0297198872" flag="0"/>
      <psa10 value="0.0027696359" flag="0"/>
      <psa30 value="0.0003195612" flag="0"/>
    </comp>
    <comp name="--.HHN">
      <acc value="0.0417951094" flag="0"/>
      <vel value="0.0101835750" flag="0"/>
      <psa03 value="0.0482379370" flag="0"/>
      <psa10 value="0.0029586334" flag="0"/>
      <psa30 value="0.0002877986" flag="0"/>
    </comp>
    <comp name="--.HHE">
      <acc value="0.0364898389" flag="0"/>
      <vel value="0.0123026205" flag="0"/>
      <psa03 value="0.0622263404" flag="0"/>
      <psa10 value="0.0043684204" flag="0"/>
      <psa30 value="0.0004402816" flag="0"/>
    </comp>
  </station>
  <station code="ORLT" name="ORLT" netid="KO" insttype="CMG-5T" lat="40.0452" lon="28.8914">
    <comp name="--.HNE">
      <acc value="0.0732355549" flag="0"/>
      <vel value="0.0228631709" flag="0"/>
      <psa03 value="0.1739722756" flag="0"/>
      <psa10 value="0.0136975896" flag="0"/>
      <psa30 value="0.0008539155" flag="0"/>
    </comp>
    <comp name="--.HNN">
      <acc value="0.0914622223" flag="0"/>
      <vel value="0.0280801951" flag="0"/>
      <psa03 value="0.1887372938" flag="0"/>
      <psa10 value="0.0144450695" flag="0"/>
      <psa30 value="0.0007972071" flag="0"/>
    </comp>
    <comp name="--.HNZ">
      <acc value="0.0358655535" flag="0"/>
      <vel value="0.0109819313" flag="0"/>
      <psa03 value="0.0532975360" flag="0"/>
      <psa10 value="0.0049807694" flag="0"/>
      <psa30 value="0.0004425438" flag="0"/>
    </comp>
  </station>
  <station code="RKY" name="RKY" netid="KO" insttype="CMG-3ESP" lat="40.6874" lon="27.1776">
    <comp name="--.HHE">
      <acc value="0.0389183332" flag="0"/>
      <vel value="0.0126213447" flag="0"/>
      <psa03 value="0.0586633200" flag="0"/>
      <psa10 value="0.0119076312" flag="0"/>
      <psa30 value="0.0007937426" flag="0"/>
    </comp>
  </station>
  <station code="SIMA" name="SIMA" netid="KO" insttype="CMG-6T" lat="39.0833" lon="28.9825">
    <comp name="--.HHE">
      <acc value="0.0245494857" flag="0"/>
      <vel value="0.0090071847" flag="0"/>
      <psa03 value="0.0770301355" flag="0"/>
      <psa10 value="0.0069440688" flag="0"/>
      <psa30 value="0.0004284302" flag="0"/>
    </comp>
    <comp name="--.HHZ">
      <acc value="0.0158674280" flag="0"/>
      <vel value="0.0086285629" flag="0"/>
      <psa03 value="0.0508615115" flag="0"/>
      <psa10 value="0.0037346035" flag="0"/>
      <psa30 value="0.0002819381" flag="0"/>
    </comp>
    <comp name="--.HHN">
      <acc value="0.0203522817" flag="0"/>
      <vel value="0.0125860609" flag="0"/>
      <psa03 value="0.0588976474" flag="0"/>
      <psa10 value="0.0108387990" flag="0"/>
      <psa30 value="0.0006612089" flag="0"/>
    </comp>
  </station>
  <station code="SINB" name="SINB" netid="KO" insttype="CMG-5T" lat="40.9998" lon="28.5392">
    <comp name="--.HNZ">
      <acc value="0.0585713850" flag="0"/>
      <vel value="0.0180152920" flag="0"/>
      <psa03 value="0.0802252209" flag="0"/>
      <psa10 value="0.0057308675" flag="0"/>
      <psa30 value="0.0007000344" flag="0"/>
    </comp>
  </station>
  <station code="SMAA" name="SMAA" netid="KO" insttype="CMG-5T" lat="39.1005" lon="28.9805">
    <comp name="--.HNE">
      <acc value="0.0582121971" flag="0"/>
      <vel value="0.0412920367" flag="0"/>
      <psa03 value="0.2029566015" flag="0"/>
      <psa10 value="0.0371521324" flag="0"/>
      <psa30 value="0.0024380843" flag="0"/>
    </comp>
    <comp name="--.HNZ">
      <acc value="0.0400834920" flag="0"/>
      <vel value="0.0142829784" flag="0"/>
      <psa03 value="0.0689423088" flag="0"/>
      <psa10 value="0.0166239541" flag="0"/>
      <psa30 value="0.0007469920" flag="0"/>
    </comp>
    <comp name="--.HNN">
      <acc value="0.0384298552" flag="0"/>
      <vel value="0.0173718103" flag="0"/>
      <psa03 value="0.0994318050" flag="0"/>
      <psa10 value="0.0273926968" flag="0"/>
      <psa30 value="0.0013473414" flag="0"/>
    </comp>
  </station>
  <station code="SOMA" name="SOMA" netid="KO" insttype="CMG-5T" lat="39.1564" lon="27.5341">
    <comp name="--.HNZ">
      <acc value="0.0196541191" flag="0"/>
      <vel value="0.0056795469" flag="0"/>
      <psa03 value="0.0212031217" flag="0"/>
      <psa10 value="0.0057816815" flag="0"/>
      <psa30 value="0.0003019793" flag="0"/>
    </comp>
    <comp name="--.HNE">
      <acc value="0.0208284223" flag="0"/>
      <vel value="0.0094831985" flag="0"/>
      <psa03 value="0.0309009668" flag="0"/>
      <psa10 value="0.0084635193" flag="0"/>
      <psa30 value="0.0004133899" flag="0"/>
    </comp>
    <comp name="--.HNN">
      <acc value="0.0196380325" flag="0"/>
      <vel value="0.0095666741" flag="0"/>
      <psa03 value="0.0295826788" flag="0"/>
      <psa10 value="0.0084521612" flag="0"/>
      <psa30 value="0.0006050275" flag="0"/>
    </comp>
  </station>
  <station code="SUSR" name="SUSR" netid="KO" insttype="CMG-5T" lat="39.9627" lon="28.0835">
    <comp name="--.HNZ">
      <acc value="6.6660591204" flag="0"/>
      <vel value="0.8755867082" flag="0"/>
      <psa03 value="1.4661001377" flag="0"/>
      <psa10 value="0.0588119702" flag="0"/>
      <psa30 value="0.0061631527" flag="0"/>
    </comp>
    <comp name="--.HNE">
      <acc value="11.8462976663" flag="0"/>
      <vel value="1.3364569932" flag="0"/>
      <psa03 value="1.1500091770" flag="0"/>
      <psa10 value="0.1186777001" flag="0"/>
      <psa30 value="0.0134026523" flag="0"/>
    </comp>
    <comp name="--.HNN">
      <acc value="12.1415952717" flag="0"/>
      <vel value="1.7915329155" flag="0"/>
      <psa03 value="3.1322676307" flag="0"/>
      <psa10 value="0.2539857108" flag="0"/>
      <psa30 value="0.0299273329" flag="0"/>
    </comp>
  </station>
  <station code="YENI" name="YENI" netid="KO" insttype="CMG-5T" lat="39.9364" lon="27.2422">
    <comp name="--.HNE">
      <acc value="0.0877597572" flag="0"/>
      <vel value="0.0333971243" flag="0"/>
      <psa03 value="0.1350359880" flag="0"/>
      <psa10 value="0.0229146915" flag="0"/>
      <psa30 value="0.0014250983" flag="0"/>
    </comp>
    <comp name="--.HNN">
      <acc value="0.0952281314" flag="0"/>
      <vel value="0.0225183937" flag="0"/>
      <psa03 value="0.0721663800" flag="0"/>
