<?xml version="1.0" encoding="UTF-8" standalone="yes"?>
<!DOCTYPE earthquake SYSTEM "stationlist.dtd">
<stationlist created="" xmlns="ch.ethz.sed.shakemap.usgs.xml">
  <station code="ALAN" name="ALAN" netid="KO" insttype="CMG-5T" lat="36.557" lon="32.0327">
    <comp name="--.HNE">
      <acc value="0.1079255707" flag="0"/>
      <vel value="0.0397316419" flag="0"/>
      <psa03 value="0.2051284212" flag="0"/>
      <psa10 value="0.0341779435" flag="0"/>
      <psa30 value="0.0050091144" flag="0"/>
    </comp>
    <comp name="--.HNN">
      <acc value="0.1169191264" flag="0"/>
      <vel value="0.0447307843" flag="0"/>
      <psa03 value="0.2342487276" flag="0"/>
      <psa10 value="0.0415701351" flag="0"/>
      <psa30 value="0.0040731630" flag="0"/>
    </comp>
    <comp name="--.HNZ">
      <acc value="0.0587858169" flag="0"/>
      <vel value="0.0247418175" flag="0"/>
      <psa03 value="0.1276765696" flag="0"/>
      <psa10 value="0.0359236132" flag="0"/>
      <psa30 value="0.0029262291" flag="0"/>
    </comp>
  </station>
  <station code="CHBY" name="CHBY" netid="KO" insttype="30s," lat="38.5823" lon="32.8902">
    <comp name="--.HHE">
      <acc value="0.0776228902" flag="0"/>
      <vel value="0.0543632042" flag="0"/>
      <psa03 value="0.2368982364" flag="0"/>
      <psa10 value="0.0854007015" flag="0"/>
      <psa30 value="0.0061376405" flag="0"/>
    </comp>
    <comp name="--.HHN">
      <acc value="0.0750757880" flag="0"/>
      <vel value="0.0491944020" flag="0"/>
      <psa03 value="0.2269243136" flag="0"/>
      <psa10 value="0.0858431852" flag="0"/>
      <psa30 value="0.0051270482" flag="0"/>
    </comp>
    <comp name="--.HHZ">
      <acc value="0.0426860204" flag="0"/>
      <vel value="0.0286896066" flag="0"/>
      <psa03 value="0.1736738515" flag="0"/>
      <psa10 value="0.0382828410" flag="0"/>
      <psa30 value="0.0066486427" flag="0"/>
    </comp>
  </station>
  <station code="SDAG" name="SDAG" netid="KO" insttype="30s," lat="38.4396" lon="30.9175">
    <comp name="--.HHZ">
      <acc value="0.0448932483" flag="0"/>
      <vel value="0.0580597932" flag="0"/>
      <psa03 value="0.1053107162" flag="0"/>
      <psa10 value="0.0833238969" flag="0"/>
      <psa30 value="0.0120479238" flag="0"/>
    </comp>
    <comp name="--.HHN">
      <acc value="0.0959019646" flag="0"/>
      <vel value="0.1277614415" flag="0"/>
      <psa03 value="0.3566243248" flag="0"/>
      <psa10 value="0.0728208774" flag="0"/>
      <psa30 value="0.0186703559" flag="0"/>
    </comp>
    <comp name="--.HHE">
      <acc value="0.1248294284" flag="0"/>
      <vel value="0.1388736809" flag="0"/>
      <psa03 value="0.2574639920" flag="0"/>
      <psa10 value="0.1332343517" flag="0"/>
      <psa30 value="0.0371446744" flag="0"/>
    </comp>
  </station>
  <station code="SERE" name="SERE" netid="KO" insttype="30s," lat="38.9463" lon="33.564">
    <comp name="--.HHN">
      <acc value="0.0374405224" flag="0"/>
      <vel value="0.0303465619" flag="0"/>
      <psa03 value="0.1016707075" flag="0"/>
      <psa10 value="0.0589908720" flag="0"/>
      <psa30 value="0.0104329489" flag="0"/>
    </comp>
    <comp name="--.HHZ">
      <acc value="0.0145525258" flag="0"/>
      <vel value="0.0091348826" flag="0"/>
      <psa03 value="0.0574646600" flag="0"/>
      <psa10 value="0.0088262629" flag="0"/>
      <psa30 value="0.0009722701" flag="0"/>
    </comp>
    <comp name="--.HHE">
      <acc value="0.0352280674" flag="0"/>
      <vel value="0.0301402297" flag="0"/>
      <psa03 value="0.0976320457" flag="0"/>
      <psa10 value="0.0616012281" flag="0"/>
      <psa30 value="0.0070474563" flag="0"/>
    </comp>
  </station>
  <station code="YESY" name="YESY" netid="KO" insttype="30s," lat="37.7825" lon="33.7432">
    <comp name="--.HHN">
      <acc value="0.0271129791" flag="0"/>
      <vel value="0.0525421737" flag="0"/>
      <psa03 value="0.0482051467" flag="0"/>
      <psa10 value="0.0531494919" flag="0"/>
      <psa30 value="0.0118655217" flag="0"/>
    </comp>
    <comp name="--.HHE">
      <acc value="0.0253892742" flag="0"/>
      <vel value="0.0337787589" flag="0"/>
      <psa03 value="0.0592326353" flag="0"/>
      <psa10 value="0.0676183589" flag="0"/>
      <psa30 value="0.0095405073" flag="0"/>
    </comp>
    <comp name="--.HHZ">
      <acc value="0.0226502504" flag="0"/>
      <vel value="0.0234389653" flag="0"/>
      <psa03 value="0.0553159283" flag="0"/>
      <psa10 value="0.0316282951" flag="0"/>
      <psa30 value="0.0102988951" flag="0"/>
    </comp>
  </station>
</stationlist>
