<stationlist xmlns:esm="https://esm-db.eu/esmws/shakemap/1/" created="1783994069">
	<station code="ROD3" name="ROD3" netid="CL" source="Corinth Riff Laboratory (CRLNET)" insttype="" lat="38.30811" lon="21.89204" esm:processing="manual (Paolucci et al 2011)" esm:quality="good">
		<comp name="00.HNE" depth="0.0">
			<acc value="0.04149554550738" flag="0"/>
			<vel value="0.0207881586812217" flag="0"/>
			<psa03 value="0.150512783063866" flag="0"/>
			<psa10 value="0.0276761867478644" flag="0"/>
			<psa30 value="0.00340219739125338" flag="0"/>
		</comp>
		<comp name="00.HNN" depth="0.0">
			<acc value="0.0368656860979808" flag="0"/>
			<vel value="0.0245748071102578" flag="0"/>
			<psa03 value="0.12143034876199" flag="0"/>
			<psa10 value="0.0303660882097549" flag="0"/>
			<psa30 value="0.00499009830413585" flag="0"/>
		</comp>
		<comp name="00.HNZ" depth="0.0">
			<acc value="0.013892562117459" flag="0"/>
			<vel value="0.0135829048015008" flag="0"/>
			<psa03 value="0.0295298563680594" flag="0"/>
			<psa10 value="0.0227111440794347" flag="0"/>
			<psa30 value="0.00306886795194726" flag="0"/>
		</comp>
	</station>
	<station code="ARG2" name="ARG2" netid="HI" source="ITSAK Strong Motion Network" insttype="" lat="38.1783" lon="20.4878" esm:processing="manual (Paolucci et al 2011)" esm:quality="good">
		<comp name="--.HNE" depth="0.0">
			<acc value="0.135761028341775" flag="0"/>
			<vel value="0.0739295619595474" flag="0"/>
			<psa03 value="0.278788689438451" flag="0"/>
			<psa10 value="0.0847842444312941" flag="0"/>
			<psa30 value="0.0133680764934072" flag="0"/>
		</comp>
		<comp name="--.HNN" depth="0.0">
			<acc value="0.106469086416519" flag="0"/>
			<vel value="0.0680794352818903" flag="0"/>
			<psa03 value="0.262547268436019" flag="0"/>
			<psa10 value="0.0455189313251649" flag="0"/>
			<psa30 value="0.0163152456433528" flag="0"/>
		</comp>
		<comp name="--.HNZ" depth="0.0">
			<acc value="0.0733064087950219" flag="0"/>
			<vel value="0.0362464960627377" flag="0"/>
			<psa03 value="0.196731482500541" flag="0"/>
			<psa10 value="0.0397364485418195" flag="0"/>
			<psa30 value="0.00814397644865782" flag="0"/>
		</comp>
	</station>
	<station code="ARS1" name="ARS1" netid="HI" source="ITSAK Strong Motion Network" insttype="" lat="37.6349" lon="22.7293" esm:processing="manual (Paolucci et al 2011)" esm:quality="good">
		<comp name="--.HNE" depth="0.0">
			<acc value="0.00989038054724756" flag="0"/>
			<vel value="0.0104650787009641" flag="0"/>
			<psa03 value="0.022550072135609" flag="0"/>
			<psa10 value="0.0217849804024365" flag="0"/>
			<psa30 value="0.00284739402918681" flag="0"/>
		</comp>
		<comp name="--.HNN" depth="0.0">
			<acc value="0.010414239970925" flag="0"/>
			<vel value="0.0107320895450461" flag="0"/>
			<psa03 value="0.0232659474415013" flag="0"/>
			<psa10 value="0.0242211935528014" flag="0"/>
			<psa30 value="0.00425274673906673" flag="0"/>
		</comp>
		<comp name="--.HNZ" depth="0.0">
			<acc value="0.00603354300646966" flag="0"/>
			<vel value="0.00487594015827756" flag="0"/>
			<psa03 value="0.0227737831687003" flag="0"/>
			<psa10 value="0.00628180580920535" flag="0"/>
			<psa30 value="0.00279817760190671" flag="0"/>
		</comp>
	</station>
	<station code="KLV1" name="KLV1" netid="HI" source="ITSAK Strong Motion Network" insttype="" lat="38.03256" lon="22.10797" esm:processing="manual (Paolucci et al 2011)" esm:quality="best">
		<comp name="--.HNE" depth="0.0">
			<acc value="0.0173348440347955" flag="0"/>
			<vel value="0.0165768735357345" flag="0"/>
			<psa03 value="0.0426704126429421" flag="0"/>
			<psa10 value="0.0154765543082554" flag="0"/>
			<psa30 value="0.00415426353290236" flag="0"/>
		</comp>
		<comp name="--.HNN" depth="0.0">
			<acc value="0.01563367773344" flag="0"/>
			<vel value="0.014266516532506" flag="0"/>
			<psa03 value="0.0445838753379547" flag="0"/>
			<psa10 value="0.0163846310263749" flag="0"/>
			<psa30 value="0.00300083462389969" flag="0"/>
		</comp>
		<comp name="--.HNZ" depth="0.0">
			<acc value="0.00954946961008979" flag="0"/>
			<vel value="0.0165265525888842" flag="0"/>
			<psa03 value="0.0230373438193023" flag="0"/>
			<psa10 value="0.0242101844308889" flag="0"/>
			<psa30 value="0.00219785559714696" flag="0"/>
		</comp>
	</station>
	<station code="KRI1" name="KRI1" netid="HI" source="ITSAK Strong Motion Network" insttype="" lat="37.6621" lon="20.8172" esm:processing="manual (Paolucci et al 2011)" esm:quality="good">
		<comp name="--.HNE" depth="0.0">
			<acc value="0.63858121707372" flag="0"/>
			<vel value="0.199833895590946" flag="0"/>
			<psa03 value="0.774174401115956" flag="0"/>
			<psa10 value="0.130146130611229" flag="0"/>
			<psa30 value="0.0536123490803441" flag="0"/>
		</comp>
		<comp name="--.HNN" depth="0.0">
			<acc value="0.538098533434001" flag="0"/>
			<vel value="0.289605391759186" flag="0"/>
			<psa03 value="1.04379093819766" flag="0"/>
			<psa10 value="0.376638553046413" flag="0"/>
			<psa30 value="0.0396062487205603" flag="0"/>
		</comp>
		<comp name="--.HNZ" depth="0.0">
			<acc value="0.29543397869225" flag="0"/>
			<vel value="0.0887890818451439" flag="0"/>
			<psa03 value="0.490553553362732" flag="0"/>
			<psa10 value="0.103375973547385" flag="0"/>
			<psa30 value="0.0226051050497494" flag="0"/>
		</comp>
	</station>
	<station code="MSL1" name="MSL1" netid="HI" source="ITSAK Strong Motion Network" insttype="" lat="38.3727" lon="21.4243" esm:processing="manual (Paolucci et al 2011)" esm:quality="good">
		<comp name="--.HNE" depth="0.0">
			<acc value="0.051420186514218" flag="0"/>
			<vel value="0.0539418123193652" flag="0"/>
			<psa03 value="0.172570690926674" flag="0"/>
			<psa10 value="0.112766467872427" flag="0"/>
			<psa30 value="0.0155389683585258" flag="0"/>
		</comp>
		<comp name="--.HNN" depth="0.0">
			<acc value="0.0711213003258016" flag="0"/>
			<vel value="0.0705200735927754" flag="0"/>
			<psa03 value="0.182503460795931" flag="0"/>
			<psa10 value="0.132103154728712" flag="0"/>
			<psa30 value="0.0137430161848684" flag="0"/>
		</comp>
		<comp name="--.HNZ" depth="0.0">
			<acc value="0.0301558251868354" flag="0"/>
			<vel value="0.0306352689833842" flag="0"/>
			<psa03 value="0.0569568290250599" flag="0"/>
			<psa10 value="0.0757360279868809" flag="0"/>
			<psa30 value="0.00383440710718589" flag="0"/>
		</comp>
	</station>
	<station code="ARTB" name="ARTB" netid="HL" source="National Observatory of Athens Seismic Network" insttype="" lat="39.15702" lon="20.9785" esm:processing="manual (Paolucci et al 2011)" esm:quality="good">
		<comp name="00.HNE" depth="0.0">
			<acc value="0.0150432233696057" flag="0"/>
			<vel value="0.00912713089493974" flag="0"/>
			<psa03 value="0.0407662213954305" flag="0"/>
			<psa10 value="0.00981943486436847" flag="0"/>
			<psa30 value="0.00188723835361217" flag="0"/>
		</comp>
		<comp name="00.HNN" depth="0.0">
			<acc value="0.014348800434421" flag="0"/>
			<vel value="0.00761114205799342" flag="0"/>
			<psa03 value="0.0428331838423819" flag="0"/>
			<psa10 value="0.00559857994094468" flag="0"/>
			<psa30 value="0.00185139431245369" flag="0"/>
		</comp>
		<comp name="00.HNZ" depth="0.0">
			<acc value="0.00683466121110309" flag="0"/>
			<vel value="0.00415389993502282" flag="0"/>
			<psa03 value="0.0103413426152789" flag="0"/>
			<psa10 value="0.00556397452350561" flag="0"/>
			<psa30 value="0.0014209670487599" flag="0"/>
		</comp>
	</station>
	<station code="ITM" name="ITM" netid="HL" source="National Observatory of Athens Seismic Network" insttype="" lat="37.17872" lon="21.92522" esm:processing="manual (Paolucci et al 2011)" esm:quality="good">
		<comp name="--.HNE" depth="0.0">
			<acc value="0.0221098138859796" flag="0"/>
			<vel value="0.0243773029499792" flag="0"/>
			<psa03 value="0.0536011635286896" flag="0"/>
			<psa10 value="0.018925953399529" flag="0"/>
			<psa30 value="0.0132521941782659" flag="0"/>
		</comp>
		<comp name="--.HNN" depth="0.0">
			<acc value="0.0227425907369071" flag="0"/>
			<vel value="0.0219923659567168" flag="0"/>
			<psa03 value="0.0604914633479034" flag="0"/>
			<psa10 value="0.0148266724291629" flag="0"/>
			<psa30 value="0.0109255994341158" flag="0"/>
		</comp>
		<comp name="--.HNZ" depth="0.0">
			<acc value="0.0124267537049053" flag="0"/>
			<vel value="0.012587093026625" flag="0"/>
			<psa03 value="0.043623651452815" flag="0"/>
			<psa10 value="0.0136709812322129" flag="0"/>
			<psa30 value="0.00425945807005947" flag="0"/>
		</comp>
	</station>
	<station code="LXRA" name="LXRA" netid="HL" source="National Observatory of Athens Seismic Network" insttype="" lat="38.20006" lon="20.43718" esm:processing="manual (Paolucci et al 2011)" esm:quality="good">
		<comp name="00.HNE" depth="0.0">
			<acc value="0.121806343313613" flag="0"/>
			<vel value="0.1090089285093" flag="0"/>
			<psa03 value="0.292479804663642" flag="0"/>
			<psa10 value="0.136907125453316" flag="0"/>
			<psa30 value="0.0544467912337749" flag="0"/>
		</comp>
		<comp name="00.HNN" depth="0.0">
			<acc value="0.202733313908652" flag="0"/>
			<vel value="0.121828964096414" flag="0"/>
			<psa03 value="0.433283528891344" flag="0"/>
			<psa10 value="0.12374754764275" flag="0"/>
			<psa30 value="0.0585867876121636" flag="0"/>
		</comp>
		<comp name="00.HNZ" depth="0.0">
			<acc value="0.0845888524591937" flag="0"/>
			<vel value="0.0441606618347188" flag="0"/>
			<psa03 value="0.177447591448066" flag="0"/>
			<psa10 value="0.0808339550089669" flag="0"/>
			<psa30 value="0.0167532718461457" flag="0"/>
		</comp>
	</station>
	<station code="PATC" name="PATC" netid="HL" source="National Observatory of Athens Seismic Network" insttype="" lat="38.26933" lon="21.76001" esm:processing="manual (Paolucci et al 2011)" esm:quality="good">
		<comp name="00.HNE" depth="0.0">
			<acc value="0.0358744797946348" flag="0"/>
			<vel value="0.0401969396481801" flag="0"/>
			<psa03 value="0.122056739654645" flag="0"/>
			<psa10 value="0.0678596099338004" flag="0"/>
			<psa30 value="0.0157617845474848" flag="0"/>
		</comp>
		<comp name="00.HNN" depth="0.0">
			<acc value="0.0349662304442875" flag="0"/>
			<vel value="0.0455234035088307" flag="0"/>
			<psa03 value="0.0788357680613948" flag="0"/>
			<psa10 value="0.0514826200453144" flag="0"/>
			<psa30 value="0.0118450517801213" flag="0"/>
		</comp>
		<comp name="00.HNZ" depth="0.0">
			<acc value="0.0220949155116473" flag="0"/>
			<vel value="0.0217997233141544" flag="0"/>
			<psa03 value="0.0636234178111824" flag="0"/>
			<psa10 value="0.0332895439901927" flag="0"/>
			<psa30 value="0.00581738170450769" flag="0"/>
		</comp>
	</station>
	<station code="PATG" name="PATG" netid="HL" source="National Observatory of Athens Seismic Network" insttype="" lat="38.23865" lon="21.72657" esm:processing="manual (Paolucci et al 2011)" esm:quality="good">
		<comp name="00.HNE" depth="0.0">
			<acc value="0.0608771259623911" flag="0"/>
			<vel value="0.0533026176543172" flag="0"/>
			<psa03 value="0.155031745932312" flag="0"/>
			<psa10 value="0.0782648575049457" flag="0"/>
			<psa30 value="0.0193375817004171" flag="0"/>
		</comp>
		<comp name="00.HNN" depth="0.0">
			<acc value="0.0501115564355378" flag="0"/>
			<vel value="0.0699482329053571" flag="0"/>
			<psa03 value="0.0973142993947411" flag="0"/>
			<psa10 value="0.0980565726025382" flag="0"/>
			<psa30 value="0.0160790067924083" flag="0"/>
		</comp>
		<comp name="00.HNZ" depth="0.0">
			<acc value="0.0193658022054046" flag="0"/>
			<vel value="0.0299289174462116" flag="0"/>
			<psa03 value="0.0497980759661365" flag="0"/>
			<psa10 value="0.036865341143125" flag="0"/>
			<psa30 value="0.0100142006853016" flag="0"/>
		</comp>
	</station>
	<station code="RIOA" name="RIOA" netid="HL" source="National Observatory of Athens Seismic Network" insttype="" lat="38.29585" lon="21.79118" esm:processing="manual (Paolucci et al 2011)" esm:quality="good">
		<comp name="00.HNE" depth="0.0">
			<acc value="0.0194841878472022" flag="0"/>
			<vel value="0.0258579672018837" flag="0"/>
			<psa03 value="0.0588807439096456" flag="0"/>
			<psa10 value="0.034147252091065" flag="0"/>
			<psa30 value="0.0130213243921156" flag="0"/>
		</comp>
		<comp name="00.HNN" depth="0.0">
			<acc value="0.0222966328434251" flag="0"/>
			<vel value="0.0238511085478983" flag="0"/>
			<psa03 value="0.0445632377917987" flag="0"/>
			<psa10 value="0.0381257291035617" flag="0"/>
			<psa30 value="0.0130235615024465" flag="0"/>
		</comp>
		<comp name="00.HNZ" depth="0.0">
			<acc value="0.0156347103279441" flag="0"/>
			<vel value="0.0199523425306009" flag="0"/>
			<psa03 value="0.031453771252645" flag="0"/>
			<psa10 value="0.0220426955125578" flag="0"/>
			<psa30 value="0.00815292488998148" flag="0"/>
		</comp>
	</station>
	<station code="SMHA" name="SMHA" netid="HL" source="National Observatory of Athens Seismic Network" insttype="" lat="38.25123" lon="20.6477" esm:processing="manual (Paolucci et al 2011)" esm:quality="good">
		<comp name="00.HNE" depth="0.0">
			<acc value="0.194421562753898" flag="0"/>
			<vel value="0.104302114251839" flag="0"/>
			<psa03 value="0.449099125613008" flag="0"/>
			<psa10 value="0.0865075507006769" flag="0"/>
			<psa30 value="0.00796602270990932" flag="0"/>
		</comp>
		<comp name="00.HNN" depth="0.0">
			<acc value="0.205481144410845" flag="0"/>
			<vel value="0.121708028977465" flag="0"/>
			<psa03 value="0.597718387576394" flag="0"/>
			<psa10 value="0.100807780520721" flag="0"/>
			<psa30 value="0.00883651954271898" flag="0"/>
		</comp>
		<comp name="00.HNZ" depth="0.0">
			<acc value="0.111854464370802" flag="0"/>
			<vel value="0.0521383462074248" flag="0"/>
			<psa03 value="0.186584401967588" flag="0"/>
			<psa10 value="0.0469878339633957" flag="0"/>
			<psa30 value="0.00910703746320358" flag="0"/>
		</comp>
	</station>
	<station code="ZARA" name="ZARA" netid="HL" source="National Observatory of Athens Seismic Network" insttype="" lat="37.4865" lon="21.6491" esm:processing="manual (Paolucci et al 2011)" esm:quality="good">
		<comp name="00.HNE" depth="0.0">
			<acc value="0.0980106440191309" flag="0"/>
			<vel value="0.0524769034887673" flag="0"/>
			<psa03 value="0.319740722920354" flag="0"/>
			<psa10 value="0.0493857165613497" flag="0"/>
			<psa30 value="0.0135554688166156" flag="0"/>
		</comp>
		<comp name="00.HNN" depth="0.0">
			<acc value="0.0837015978029402" flag="0"/>
			<vel value="0.0496114621583684" flag="0"/>
			<psa03 value="0.21228345857063" flag="0"/>
			<psa10 value="0.0581720611135551" flag="0"/>
			<psa30 value="0.00826393827868699" flag="0"/>
		</comp>
		<comp name="00.HNZ" depth="0.0">
			<acc value="0.0369942635269115" flag="0"/>
			<vel value="0.0223739352337719" flag="0"/>
			<psa03 value="0.0941210058880515" flag="0"/>
			<psa10 value="0.0222259748617552" flag="0"/>
			<psa30 value="0.00660223861590619" flag="0"/>
		</comp>
	</station>
	<station code="ANX" name="ANX" netid="HP" source="University of Patras, Seismological Laboratory (PSLNET)" insttype="" lat="38.5933" lon="21.9209" esm:processing="manual (Paolucci et al 2011)" esm:quality="good">
		<comp name="--.HNE" depth="0.0">
			<acc value="0.0203125697435291" flag="0"/>
			<vel value="0.0196696744727601" flag="0"/>
			<psa03 value="0.0512988253787531" flag="0"/>
			<psa10 value="0.0213853547998016" flag="0"/>
			<psa30 value="0.0030405170443321" flag="0"/>
		</comp>
		<comp name="--.HNN" depth="0.0">
			<acc value="0.0203173293688612" flag="0"/>
			<vel value="0.0187754809801337" flag="0"/>
			<psa03 value="0.0379301585201837" flag="0"/>
			<psa10 value="0.0320651829110001" flag="0"/>
			<psa30 value="0.00513972506489442" flag="0"/>
		</comp>
		<comp name="--.HNZ" depth="0.0">
			<acc value="0.00930271851151518" flag="0"/>
			<vel value="0.00999917559171299" flag="0"/>
			<psa03 value="0.0192369891998742" flag="0"/>
			<psa10 value="0.00983315139802151" flag="0"/>
			<psa30 value="0.00249336058956895" flag="0"/>
		</comp>
	</station>
	<station code="FSK" name="FSK" netid="HP" source="University of Patras, Seismological Laboratory (PSLNET)" insttype="" lat="38.4593" lon="20.5623" esm:processing="manual (Paolucci et al 2011)" esm:quality="bad">
		<comp name="--.HNE" depth="0.0">
			<acc value="0.0825146999256102" flag="0"/>
			<vel value="0.0338475303561547" flag="0"/>
			<psa03 value="0.0918921499039478" flag="0"/>
			<psa10 value="0.0363509368211632" flag="0"/>
			<psa30 value="0.00993319385867688" flag="0"/>
		</comp>
		<comp name="--.HNN" depth="0.0">
			<acc value="0.03667358508336" flag="0"/>
			<vel value="0.0380299812769921" flag="0"/>
			<psa03 value="0.0754834066552375" flag="0"/>
			<psa10 value="0.0265812377515471" flag="0"/>
			<psa30 value="0.00741279689474749" flag="0"/>
		</comp>
		<comp name="--.HNZ" depth="0.0">
			<acc value="0.0422903817546145" flag="0"/>
			<vel value="0.0285435207833336" flag="0"/>
			<psa03 value="0.0546337910955313" flag="0"/>
			<psa10 value="0.0229132978935328" flag="0"/>
			<psa30 value="0.00520630697561924" flag="0"/>
		</comp>
	</station>
	<station code="ART2" name="ART2" netid="HI" source="ITSAK Strong Motion Network" insttype="" lat="39.1474" lon="20.9937" esm:processing="discarded" esm:quality="good">
		<comp name="--.HNE" depth="0.0">
			<acc value="0" flag="1"/>
			<vel value="0" flag="1"/>
			<psa03 value="0" flag="1"/>
			<psa10 value="0" flag="1"/>
			<psa30 value="0" flag="1"/>
		</comp>
		<comp name="--.HNN" depth="0.0">
			<acc value="0" flag="1"/>
			<vel value="0" flag="1"/>
			<psa03 value="0" flag="1"/>
			<psa10 value="0" flag="1"/>
			<psa30 value="0" flag="1"/>
		</comp>
		<comp name="--.HNZ" depth="0.0">
			<acc value="0" flag="1"/>
			<vel value="0" flag="1"/>
			<psa03 value="0" flag="1"/>
			<psa10 value="0" flag="1"/>
			<psa30 value="0" flag="1"/>
		</comp>
	</station>
	<station code="LAM2" name="LAM2" netid="HI" source="ITSAK Strong Motion Network" insttype="" lat="38.90203" lon="22.431301" esm:processing="discarded" esm:quality="bad">
		<comp name="--.HNE" depth="0.0">
			<acc value="0" flag="1"/>
			<vel value="0" flag="1"/>
			<psa03 value="0" flag="1"/>
			<psa10 value="0" flag="1"/>
			<psa30 value="0" flag="1"/>
		</comp>
		<comp name="--.HNN" depth="0.0">
			<acc value="0" flag="1"/>
			<vel value="0" flag="1"/>
			<psa03 value="0" flag="1"/>
			<psa10 value="0" flag="1"/>
			<psa30 value="0" flag="1"/>
		</comp>
		<comp name="--.HNZ" depth="0.0">
			<acc value="0" flag="1"/>
			<vel value="0" flag="1"/>
			<psa03 value="0" flag="1"/>
			<psa10 value="0" flag="1"/>
			<psa30 value="0" flag="1"/>
		</comp>
	</station>
	<station code="PYL1" name="PYL1" netid="HI" source="ITSAK Strong Motion Network" insttype="" lat="36.914188" lon="21.695161" esm:processing="discarded" esm:quality="good">
		<comp name="--.HNE" depth="0.0">
			<acc value="0" flag="1"/>
			<vel value="0" flag="1"/>
			<psa03 value="0" flag="1"/>
			<psa10 value="0" flag="1"/>
			<psa30 value="0" flag="1"/>
		</comp>
		<comp name="--.HNN" depth="0.0">
			<acc value="0" flag="1"/>
			<vel value="0" flag="1"/>
			<psa03 value="0" flag="1"/>
			<psa10 value="0" flag="1"/>
			<psa30 value="0" flag="1"/>
		</comp>
		<comp name="--.HNZ" depth="0.0">
			<acc value="0" flag="1"/>
			<vel value="0" flag="1"/>
			<psa03 value="0" flag="1"/>
			<psa10 value="0" flag="1"/>
			<psa30 value="0" flag="1"/>
		</comp>
	</station>
	<station code="DLFA" name="DLFA" netid="HL" source="National Observatory of Athens Seismic Network" insttype="" lat="38.47836" lon="22.49583" esm:processing="discarded" esm:quality="bad">
		<comp name="00.HNE" depth="0.0">
			<acc value="0" flag="1"/>
			<vel value="0" flag="1"/>
			<psa03 value="0" flag="1"/>
			<psa10 value="0" flag="1"/>
			<psa30 value="0" flag="1"/>
		</comp>
		<comp name="00.HNN" depth="0.0">
			<acc value="0" flag="1"/>
			<vel value="0" flag="1"/>
			<psa03 value="0" flag="1"/>
			<psa10 value="0" flag="1"/>
			<psa30 value="0" flag="1"/>
		</comp>
		<comp name="00.HNZ" depth="0.0">
			<acc value="0" flag="1"/>
			<vel value="0" flag="1"/>
			<psa03 value="0" flag="1"/>
