<?xml version="1.0" encoding="UTF-8" standalone="yes"?>
<!DOCTYPE earthquake SYSTEM "stationlist.dtd">
<stationlist created="" xmlns="ch.ethz.sed.shakemap.usgs.xml">
  <station code="FSK" name="FSK" netid="HP" source="NOA" insttype="40," lat="38.4593" lon="20.5623">
    <comp name="--.HHE">
      <acc value="0.0759148596" flag="0"/>
      <vel value="0.0307266925" flag="0"/>
      <psa03 value="0.0804448430" flag="0"/>
      <psa10 value="0.0387900178" flag="0"/>
      <psa30 value="0.0082732004" flag="0"/>
    </comp>
    <comp name="--.HHN">
      <acc value="0.0432966237" flag="0"/>
      <vel value="0.0326048039" flag="0"/>
      <psa03 value="0.0696678251" flag="0"/>
      <psa10 value="0.0234845463" flag="0"/>
      <psa30 value="0.0055693545" flag="0"/>
    </comp>
    <comp name="--.HHZ">
      <acc value="0.0418920112" flag="0"/>
      <vel value="0.0263836379" flag="0"/>
      <psa03 value="0.0531265581" flag="0"/>
      <psa10 value="0.0227857434" flag="0"/>
      <psa30 value="0.0030662687" flag="0"/>
    </comp>
  </station>
  <station code="DMLN" name="DMLN" netid="HT" source="NOA" insttype="1s-100Hz," lat="38.2385" lon="20.3734">
    <comp name="--.HHE">
      <acc value="0.1152004909" flag="0"/>
      <vel value="0.0688228740" flag="0"/>
      <psa03 value="0.2636619146" flag="0"/>
      <psa10 value="0.1212268244" flag="0"/>
      <psa30 value="0.0122039135" flag="0"/>
    </comp>
    <comp name="--.HHN">
      <acc value="0.1689144171" flag="0"/>
      <vel value="0.1329027134" flag="0"/>
      <psa03 value="0.4296198919" flag="0"/>
      <psa10 value="0.1066443110" flag="0"/>
      <psa30 value="0.0106841592" flag="0"/>
    </comp>
    <comp name="--.HHZ">
      <acc value="0.0834041064" flag="0"/>
      <vel value="0.0393367769" flag="0"/>
      <psa03 value="0.1882100608" flag="0"/>
      <psa10 value="0.0563647104" flag="0"/>
      <psa30 value="0.0082163399" flag="0"/>
    </comp>
  </station>
</stationlist>
