<?xml version="1.0" encoding="UTF-8" standalone="yes"?>
<!DOCTYPE earthquake SYSTEM "stationlist.dtd">
<stationlist created="" xmlns="ch.ethz.sed.shakemap.usgs.xml">
  <station code="CEYT" name="CEYT" netid="KO" insttype="CMG-3ESP" lat="37.0105" lon="35.7478">
    <comp name="--.HHE">
      <acc value="0.0402999207" flag="0"/>
      <vel value="0.0242137160" flag="0"/>
      <psa03 value="0.1450529770" flag="0"/>
      <psa10 value="0.0364663972" flag="0"/>
      <psa30 value="0.0024660191" flag="0"/>
    </comp>
    <comp name="--.HHZ">
      <acc value="0.0231757247" flag="0"/>
      <vel value="0.0159583640" flag="0"/>
      <psa03 value="0.0576093243" flag="0"/>
      <psa10 value="0.0269028900" flag="0"/>
      <psa30 value="0.0030279113" flag="0"/>
    </comp>
    <comp name="--.HHN">
      <acc value="0.0376123023" flag="0"/>
      <vel value="0.0245376348" flag="0"/>
      <psa03 value="0.1129755653" flag="0"/>
      <psa10 value="0.0366410554" flag="0"/>
      <psa30 value="0.0042079989" flag="0"/>
    </comp>
  </station>
  <station code="DARE" name="DARE" netid="KO" insttype="CMG-3ESP" lat="38.5712" lon="37.4832">
    <comp name="--.HHZ">
      <acc value="0.0192322318" flag="0"/>
      <vel value="0.0185458253" flag="0"/>
      <psa03 value="0.0289536313" flag="0"/>
      <psa10 value="0.0210015562" flag="0"/>
      <psa30 value="0.0032299759" flag="0"/>
    </comp>
  </station>
  <station code="GAZ" name="GAZ" netid="KO" insttype="CMG-3T" lat="37.1721" lon="37.2096">
    <comp name="--.HHE">
      <acc value="2.2188813982" flag="0"/>
      <vel value="0.8521614958" flag="0"/>
      <psa03 value="3.5061842695" flag="0"/>
      <psa10 value="0.6900662139" flag="0"/>
      <psa30 value="0.0509321260" flag="0"/>
    </comp>
    <comp name="--.HHZ">
      <acc value="0.7692391881" flag="0"/>
      <vel value="0.3714792278" flag="0"/>
      <psa03 value="3.0492423850" flag="0"/>
      <psa10 value="0.1629961571" flag="0"/>
      <psa30 value="0.0121763940" flag="0"/>
    </comp>
    <comp name="--.HHN">
      <acc value="2.3675169829" flag="0"/>
      <vel value="0.8590280957" flag="0"/>
      <psa03 value="4.6674996966" flag="0"/>
      <psa10 value="0.6089861927" flag="0"/>
      <psa30 value="0.0508706761" flag="0"/>
    </comp>
  </station>
  <station code="KMRS" name="KMRS" netid="KO" insttype="CMG-3T" lat="37.5053" lon="36.9">
    <comp name="--.HHE">
      <acc value="0.5916441464" flag="0"/>
      <vel value="0.2852395942" flag="0"/>
      <psa03 value="0.9865894448" flag="0"/>
      <psa10 value="0.3215671508" flag="0"/>
      <psa30 value="0.0273442734" flag="0"/>
    </comp>
    <comp name="--.HHZ">
      <acc value="0.2043260970" flag="0"/>
      <vel value="0.0640614020" flag="0"/>
      <psa03 value="0.4494468409" flag="0"/>
      <psa10 value="0.0713538920" flag="0"/>
      <psa30 value="0.0050737572" flag="0"/>
    </comp>
  </station>
  <station code="ANDN" name="ANDN" netid="TU" insttype="T" lat="37.58" lon="36.3452">
    <comp name="--.HHE">
      <acc value="0.4303047667" flag="0"/>
      <vel value="0.1406049769" flag="0"/>
      <psa03 value="0.4275554451" flag="0"/>
      <psa10 value="0.2556628554" flag="0"/>
      <psa30 value="0.0114664755" flag="0"/>
    </comp>
    <comp name="--.HHZ">
      <acc value="0.2318947601" flag="0"/>
      <vel value="0.1599928429" flag="0"/>
      <psa03 value="0.3152369076" flag="0"/>
      <psa10 value="0.2940776352" flag="0"/>
      <psa30 value="0.0172396106" flag="0"/>
    </comp>
    <comp name="--.HHN">
      <acc value="0.7920670235" flag="0"/>
      <vel value="0.2218021996" flag="0"/>
      <psa03 value="0.6368232019" flag="0"/>
      <psa10 value="0.1761546337" flag="0"/>
      <psa30 value="0.0139685525" flag="0"/>
    </comp>
  </station>
</stationlist>
