<?xml version="1.0" encoding="UTF-8" standalone="yes"?>
<!DOCTYPE earthquake SYSTEM "stationlist.dtd">
<stationlist created="" xmlns="ch.ethz.sed.shakemap.usgs.xml">
  <station code="THERA" name="THERA" netid="GE" insttype="STS-2/N" lat="36.367" lon="25.4753">
    <comp name="--.HHE">
      <acc value="0.1623583784" flag="0"/>
      <vel value="0.0550883178" flag="0"/>
      <psa03 value="0.3360267168" flag="0"/>
      <psa10 value="0.0320938839" flag="0"/>
      <psa30 value="0.0029378754" flag="0"/>
    </comp>
    <comp name="--.HHZ">
      <acc value="0.1126402735" flag="0"/>
      <vel value="0.0245627300" flag="0"/>
      <psa03 value="0.1213588804" flag="0"/>
      <psa10 value="0.0148486621" flag="0"/>
      <psa30 value="0.0011427662" flag="0"/>
    </comp>
    <comp name="--.HHN">
      <acc value="0.1039162658" flag="0"/>
      <vel value="0.0260743266" flag="0"/>
      <psa03 value="0.1381152435" flag="0"/>
      <psa10 value="0.0165384254" flag="0"/>
      <psa30 value="0.0009612394" flag="0"/>
    </comp>
  </station>
</stationlist>
