<?xml version="1.0" encoding="UTF-8" standalone="yes"?>
<!DOCTYPE earthquake SYSTEM "stationlist.dtd">
<stationlist created="" xmlns="ch.ethz.sed.shakemap.usgs.xml">
  <station code="THERA" name="THERA" netid="GE" insttype="STS-2/N" lat="36.367" lon="25.4753">
    <comp name="--.HHE">
      <acc value="0.1623583784" flag="0"/>
      <vel value="0.0550883178" flag="0"/>
      <psa03 value="0.3360267168" flag="0"/>
      <psa10 value="0.0320938839" flag="0"/>
      <psa30 value="0.0029378754" flag="0"/>
    </comp>
    <comp name="--.HHZ">
      <acc value="0.1126402735" flag="0"/>
      <vel value="0.0245627300" flag="0"/>
      <psa03 value="0.1213588804" flag="0"/>
      <psa10 value="0.0148486621" flag="0"/>
      <psa30 value="0.0011427662" flag="0"/>
    </comp>
    <comp name="--.HHN">
      <acc value="0.1039162658" flag="0"/>
      <vel value="0.0260743266" flag="0"/>
      <psa03 value="0.1381152435" flag="0"/>
      <psa10 value="0.0165384254" flag="0"/>
      <psa30 value="0.0009612394" flag="0"/>
    </comp>
  </station>
  <station code="SNT1" name="SNT1" netid="HA" insttype="30" lat="36.4159" lon="25.4282">
    <comp name="--.HHE">
      <acc value="0.1096580434" flag="0"/>
      <vel value="0.0577370951" flag="0"/>
      <psa03 value="0.2731457902" flag="0"/>
      <psa10 value="0.0457116545" flag="0"/>
      <psa30 value="0.0032263827" flag="0"/>
    </comp>
    <comp name="--.HHN">
      <acc value="0.0954930203" flag="0"/>
      <vel value="0.0375032832" flag="0"/>
      <psa03 value="0.2065900562" flag="0"/>
      <psa10 value="0.0443532388" flag="0"/>
      <psa30 value="0.0032427294" flag="0"/>
    </comp>
    <comp name="--.HHZ">
      <acc value="0.0933586174" flag="0"/>
      <vel value="0.0474820602" flag="0"/>
      <psa03 value="0.2279144508" flag="0"/>
      <psa10 value="0.0275715151" flag="0"/>
      <psa30 value="0.0013071419" flag="0"/>
    </comp>
  </station>
  <station code="SAP3" name="SAP3" netid="HL" insttype="LE3D20_SMART24" lat="36.4356" lon="25.3454">
    <comp name="--.HHE">
      <acc value="0.4571443699" flag="0"/>
      <vel value="0.1515025443" flag="0"/>
      <psa03 value="0.9505423880" flag="0"/>
      <psa10 value="0.1327351521" flag="0"/>
      <psa30 value="0.0106332783" flag="0"/>
    </comp>
    <comp name="--.HHN">
      <acc value="0.4801275386" flag="0"/>
      <vel value="0.1442742374" flag="0"/>
      <psa03 value="0.7685742284" flag="0"/>
      <psa10 value="0.0992062504" flag="0"/>
      <psa30 value="0.0144278499" flag="0"/>
    </comp>
    <comp name="--.HHZ">
      <acc value="0.7544439363" flag="0"/>
      <vel value="0.1943246366" flag="0"/>
      <psa03 value="0.6489779153" flag="0"/>
      <psa10 value="0.0524989956" flag="0"/>
      <psa30 value="0.0053404174" flag="0"/>
    </comp>
  </station>
  <station code="THERA" name="THERA" netid="HL" insttype="120" lat="36.367" lon="25.4753">
    <comp name="--.HHE">
      <acc value="0.1684072379" flag="0"/>
      <vel value="0.0538135860" flag="0"/>
      <psa03 value="0.3262205890" flag="0"/>
      <psa10 value="0.0319528139" flag="0"/>
      <psa30 value="0.0029080372" flag="0"/>
    </comp>
    <comp name="--.HHN">
      <acc value="0.1008966732" flag="0"/>
      <vel value="0.0257485975" flag="0"/>
      <psa03 value="0.1340556423" flag="0"/>
      <psa10 value="0.0164113979" flag="0"/>
      <psa30 value="0.0009428730" flag="0"/>
    </comp>
    <comp name="--.HHZ">
      <acc value="0.1097757772" flag="0"/>
      <vel value="0.0240948522" flag="0"/>
      <psa03 value="0.1180833612" flag="0"/>
      <psa10 value="0.0147481444" flag="0"/>
      <psa30 value="0.0011398173" flag="0"/>
    </comp>
  </station>
  <station code="THRA" name="THRA" netid="HL" insttype="CMG-5" lat="36.415" lon="25.4324">
    <comp name="00.HNE">
      <acc value="0.4190063659" flag="0"/>
      <vel value="0.2183613769" flag="0"/>
      <psa03 value="1.5575013615" flag="0"/>
      <psa10 value="0.1601850725" flag="0"/>
      <psa30 value="0.0081247369" flag="0"/>
    </comp>
    <comp name="00.HNN">
      <acc value="0.4134697932" flag="0"/>
      <vel value="0.1870043063" flag="0"/>
      <psa03 value="1.5927173643" flag="0"/>
      <psa10 value="0.1079543350" flag="0"/>
      <psa30 value="0.0087351434" flag="0"/>
    </comp>
    <comp name="00.HNZ">
      <acc value="0.3250928069" flag="0"/>
      <vel value="0.1301721696" flag="0"/>
      <psa03 value="0.8978594875" flag="0"/>
      <psa10 value="0.0615670865" flag="0"/>
      <psa30 value="0.0035532319" flag="0"/>
    </comp>
  </station>
  <station code="CMBO" name="CMBO" netid="HT" insttype="120P," lat="36.4709" lon="25.4056">
    <comp name="--.HHE">
      <acc value="0.4577272028" flag="0"/>
      <vel value="0.1655954706" flag="0"/>
      <psa03 value="0.8582421340" flag="0"/>
      <psa10 value="0.1134319098" flag="0"/>
      <psa30 value="0.0105971332" flag="0"/>
    </comp>
    <comp name="--.HHN">
      <acc value="0.7120918353" flag="0"/>
      <vel value="0.2714456286" flag="0"/>
      <psa03 value="1.4516362669" flag="0"/>
      <psa10 value="0.1930708840" flag="0"/>
      <psa30 value="0.0136168925" flag="0"/>
    </comp>
    <comp name="--.HHZ">
      <acc value="0.4588787842" flag="0"/>
      <vel value="0.1423465096" flag="0"/>
      <psa03 value="0.7129416673" flag="0"/>
      <psa10 value="0.0794354933" flag="0"/>
      <psa30 value="0.0050796438" flag="0"/>
    </comp>
  </station>
</stationlist>
