<?xml version="1.0" encoding="UTF-8" standalone="yes"?>
<!DOCTYPE earthquake SYSTEM "stationlist.dtd">
<stationlist created="" xmlns="ch.ethz.sed.shakemap.usgs.xml">
  <station code="ZKR" name="ZKR" netid="GE" insttype="STS-2/N" lat="35.1147" lon="26.2169">
    <comp name="--.HHE">
      <acc value="0.0059940269" flag="0"/>
      <vel value="0.0032609252" flag="0"/>
      <psa03 value="0.0157505183" flag="0"/>
      <psa10 value="0.0013103393" flag="0"/>
      <psa30 value="0.0002095877" flag="0"/>
    </comp>
    <comp name="--.HHN">
      <acc value="0.0035744299" flag="0"/>
      <vel value="0.0011993445" flag="0"/>
      <psa03 value="0.0066233496" flag="0"/>
      <psa10 value="0.0005361928" flag="0"/>
      <psa30 value="0.0000530426" flag="0"/>
    </comp>
    <comp name="--.HHZ">
      <acc value="0.0028889894" flag="0"/>
      <vel value="0.0010660965" flag="0"/>
      <psa03 value="0.0081672957" flag="0"/>
      <psa10 value="0.0010167852" flag="0"/>
      <psa30 value="0.0001090875" flag="0"/>
    </comp>
  </station>
  <station code="ZKR" name="ZKR" netid="HL" insttype="120" lat="35.1147" lon="26.2169">
    <comp name="--.HHE">
      <acc value="0.0058068045" flag="0"/>
      <vel value="0.0031862244" flag="0"/>
      <psa03 value="0.0153003933" flag="0"/>
      <psa10 value="0.0012990905" flag="0"/>
      <psa30 value="0.0002091225" flag="0"/>
    </comp>
    <comp name="--.HHZ">
      <acc value="0.0028027492" flag="0"/>
      <vel value="0.0010432510" flag="0"/>
      <psa03 value="0.0079281057" flag="0"/>
      <psa10 value="0.0010095906" flag="0"/>
      <psa30 value="0.0001091679" flag="0"/>
    </comp>
    <comp name="--.HHN">
      <acc value="0.0034568547" flag="0"/>
      <vel value="0.0011602927" flag="0"/>
      <psa03 value="0.0064262842" flag="0"/>
      <psa10 value="0.0005325871" flag="0"/>
      <psa30 value="0.0000529780" flag="0"/>
    </comp>
  </station>
</stationlist>
