<?xml version="1.0" encoding="UTF-8" standalone="yes"?>
<!DOCTYPE earthquake SYSTEM "stationlist.dtd">
<stationlist created="" xmlns="ch.ethz.sed.shakemap.usgs.xml">
  <station code="DARE" name="DARE" netid="KO" insttype="CMG-3ESP" lat="38.5712" lon="37.4832">
    <comp name="--.HHZ">
      <acc value="0.0179535504" flag="0"/>
      <vel value="0.0052031291" flag="0"/>
      <psa03 value="0.0210728154" flag="0"/>
      <psa10 value="0.0029330054" flag="0"/>
      <psa30 value="0.0002290942" flag="0"/>
    </comp>
    <comp name="--.HHE">
      <acc value="0.0188859439" flag="0"/>
      <vel value="0.0087410947" flag="0"/>
      <psa03 value="0.0383053085" flag="0"/>
      <psa10 value="0.0057011817" flag="0"/>
      <psa30 value="0.0003160828" flag="0"/>
    </comp>
    <comp name="--.HHN">
      <acc value="0.0200069479" flag="0"/>
      <vel value="0.0053311310" flag="0"/>
      <psa03 value="0.0213887257" flag="0"/>
      <psa10 value="0.0028880328" flag="0"/>
      <psa30 value="0.0001898424" flag="0"/>
    </comp>
  </station>
  <station code="GAZ" name="GAZ" netid="KO" insttype="CMG-3T" lat="37.1721" lon="37.2096">
    <comp name="--.HHE">
      <acc value="0.0082352000" flag="0"/>
      <vel value="0.0020138555" flag="0"/>
      <psa03 value="0.0059406554" flag="0"/>
      <psa10 value="0.0014573817" flag="0"/>
      <psa30 value="0.0001522591" flag="0"/>
    </comp>
    <comp name="--.HHZ">
      <acc value="0.0030744389" flag="0"/>
      <vel value="0.0007941558" flag="0"/>
      <psa03 value="0.0065881905" flag="0"/>
      <psa10 value="0.0007476873" flag="0"/>
      <psa30 value="0.0001773096" flag="0"/>
    </comp>
    <comp name="--.HHN">
      <acc value="0.0069069795" flag="0"/>
      <vel value="0.0014008532" flag="0"/>
      <psa03 value="0.0072337735" flag="0"/>
      <psa10 value="0.0009745921" flag="0"/>
      <psa30 value="0.0000738786" flag="0"/>
    </comp>
  </station>
  <station code="KMRS" name="KMRS" netid="KO" insttype="CMG-3T" lat="37.5053" lon="36.9">
    <comp name="--.HHE">
      <acc value="0.0057799269" flag="0"/>
      <vel value="0.0016544383" flag="0"/>
      <psa03 value="0.0085190159" flag="0"/>
      <psa10 value="0.0016460025" flag="0"/>
      <psa30 value="0.0000875435" flag="0"/>
    </comp>
    <comp name="--.HHN">
      <acc value="0.0063758561" flag="0"/>
      <vel value="0.0020120576" flag="0"/>
      <psa03 value="0.0114880165" flag="0"/>
      <psa10 value="0.0015973829" flag="0"/>
      <psa30 value="0.0001579436" flag="0"/>
    </comp>
    <comp name="--.HHZ">
      <acc value="0.0064099257" flag="0"/>
      <vel value="0.0021715569" flag="0"/>
      <psa03 value="0.0136550631" flag="0"/>
      <psa10 value="0.0008839161" flag="0"/>
      <psa30 value="0.0000512186" flag="0"/>
    </comp>
  </station>
  <station code="SARI" name="SARI" netid="KO" insttype="CMG-3T" lat="38.4072" lon="36.4181">
    <comp name="--.HHE">
      <acc value="0.0068988654" flag="0"/>
      <vel value="0.0022993040" flag="0"/>
      <psa03 value="0.0155230235" flag="0"/>
      <psa10 value="0.0021503853" flag="0"/>
      <psa30 value="0.0000913728" flag="0"/>
    </comp>
    <comp name="--.HHZ">
      <acc value="0.0042222639" flag="0"/>
      <vel value="0.0014935730" flag="0"/>
      <psa03 value="0.0089396243" flag="0"/>
      <psa10 value="0.0023967727" flag="0"/>
      <psa30 value="0.0000630826" flag="0"/>
    </comp>
  </station>
  <station code="URFA" name="URFA" netid="KO" insttype="CMG-3ESP" lat="37.4409" lon="38.8213">
    <comp name="--.HHN">
      <acc value="0.0120055540" flag="0"/>
      <vel value="0.0029640441" flag="0"/>
      <psa03 value="0.0134234452" flag="0"/>
      <psa10 value="0.0026983111" flag="0"/>
      <psa30 value="0.0001582903" flag="0"/>
    </comp>
    <comp name="--.HHE">
      <acc value="0.0128530288" flag="0"/>
      <vel value="0.0035027682" flag="0"/>
      <psa03 value="0.0193928421" flag="0"/>
      <psa10 value="0.0033003729" flag="0"/>
      <psa30 value="0.0002351435" flag="0"/>
    </comp>
  </station>
  <station code="ANDN" name="ANDN" netid="TU" insttype="T" lat="37.58" lon="36.3452">
    <comp name="--.HHZ">
      <acc value="0.0127758589" flag="0"/>
      <vel value="0.0038266408" flag="0"/>
      <psa03 value="0.0133487277" flag="0"/>
      <psa10 value="0.0028571816" flag="0"/>
      <psa30 value="0.0002092589" flag="0"/>
    </comp>
    <comp name="--.HHE">
      <acc value="0.0172649439" flag="0"/>
      <vel value="0.0055713100" flag="0"/>
      <psa03 value="0.0236279438" flag="0"/>
      <psa10 value="0.0026086927" flag="0"/>
      <psa30 value="0.0002638907" flag="0"/>
    </comp>
    <comp name="--.HHN">
      <acc value="0.0215789626" flag="0"/>
      <vel value="0.0058480459" flag="0"/>
      <psa03 value="0.0386072180" flag="0"/>
      <psa10 value="0.0038931400" flag="0"/>
      <psa30 value="0.0003857862" flag="0"/>
    </comp>
  </station>
</stationlist>
