<?xml version="1.0" encoding="UTF-8" standalone="yes"?>
<!DOCTYPE earthquake SYSTEM "stationlist.dtd">
<stationlist created="" xmlns="ch.ethz.sed.shakemap.usgs.xml">
  <station code="DARE" name="DARE" netid="KO" insttype="CMG-3ESP" lat="38.5712" lon="37.4832">
    <comp name="--.HHE">
      <acc value="0.0188859439" flag="0"/>
      <vel value="0.0087410947" flag="0"/>
      <psa03 value="0.0383053085" flag="0"/>
      <psa10 value="0.0057011817" flag="0"/>
      <psa30 value="0.0003160776" flag="0"/>
    </comp>
    <comp name="--.HHN">
      <acc value="0.0200069478" flag="0"/>
      <vel value="0.0053311314" flag="0"/>
      <psa03 value="0.0213887257" flag="0"/>
      <psa10 value="0.0028880328" flag="0"/>
      <psa30 value="0.0001898008" flag="0"/>
    </comp>
    <comp name="--.HHZ">
      <acc value="0.0179535506" flag="0"/>
      <vel value="0.0052031295" flag="0"/>
      <psa03 value="0.0210728154" flag="0"/>
      <psa10 value="0.0029330055" flag="0"/>
      <psa30 value="0.0002290317" flag="0"/>
    </comp>
  </station>
  <station code="GAZ" name="GAZ" netid="KO" insttype="CMG-3T" lat="37.1721" lon="37.2096">
    <comp name="--.HHE">
      <acc value="0.0082351997" flag="0"/>
      <vel value="0.0020138555" flag="0"/>
      <psa03 value="0.0059406554" flag="0"/>
      <psa10 value="0.0014573817" flag="0"/>
      <psa30 value="0.0001522590" flag="0"/>
    </comp>
    <comp name="--.HHN">
      <acc value="0.0069069804" flag="0"/>
      <vel value="0.0014008522" flag="0"/>
      <psa03 value="0.0072337735" flag="0"/>
      <psa10 value="0.0009745921" flag="0"/>
      <psa30 value="0.0000738783" flag="0"/>
    </comp>
    <comp name="--.HHZ">
      <acc value="0.0030744384" flag="0"/>
      <vel value="0.0007941555" flag="0"/>
      <psa03 value="0.0065881905" flag="0"/>
      <psa10 value="0.0007476873" flag="0"/>
      <psa30 value="0.0001773088" flag="0"/>
    </comp>
  </station>
  <station code="KMRS" name="KMRS" netid="KO" insttype="CMG-3T" lat="37.5053" lon="36.9">
    <comp name="--.HHE">
      <acc value="0.0057799269" flag="0"/>
      <vel value="0.0016544383" flag="0"/>
      <psa03 value="0.0085190159" flag="0"/>
      <psa10 value="0.0016460025" flag="0"/>
      <psa30 value="0.0000875570" flag="0"/>
    </comp>
    <comp name="--.HHN">
      <acc value="0.0063758561" flag="0"/>
      <vel value="0.0020120575" flag="0"/>
      <psa03 value="0.0114880165" flag="0"/>
      <psa10 value="0.0015973830" flag="0"/>
      <psa30 value="0.0001579436" flag="0"/>
    </comp>
    <comp name="--.HHZ">
      <acc value="0.0064099256" flag="0"/>
      <vel value="0.0021715576" flag="0"/>
      <psa03 value="0.0136550631" flag="0"/>
      <psa10 value="0.0008839161" flag="0"/>
      <psa30 value="0.0000513950" flag="0"/>
    </comp>
  </station>
  <station code="URFA" name="URFA" netid="KO" insttype="CMG-3ESP" lat="37.4409" lon="38.8213">
    <comp name="--.HHE">
      <acc value="0.0128530288" flag="0"/>
      <vel value="0.0035027681" flag="0"/>
      <psa03 value="0.0193928421" flag="0"/>
      <psa10 value="0.0033003729" flag="0"/>
      <psa30 value="0.0002351366" flag="0"/>
    </comp>
    <comp name="--.HHN">
      <acc value="0.0120055540" flag="0"/>
      <vel value="0.0029640455" flag="0"/>
      <psa03 value="0.0134234452" flag="0"/>
      <psa10 value="0.0026983111" flag="0"/>
      <psa30 value="0.0001582949" flag="0"/>
    </comp>
  </station>
</stationlist>
