<stationlist created="1684222260">
	<station code="TUNC" name="TUNC" netid="KO" source="Bogazici University Kandilli Observatory And Earthquake Research Institute (KOERI)" insttype="" lat="39.6942" lon="37.5388">
		<comp name=".HNE" depth="0.0">
			<acc value="0.0125120406861" flag="0"/>
			<vel value="0.00247480116374" flag="0"/>
			<psa03 value="0.0099771798194" flag="0"/>
			<psa10 value="0.00205048302194" flag="0"/>
			<psa30 value="0.000696766730295" flag="0"/>
		</comp>
		<comp name=".HNN" depth="0.0">
			<acc value="0.00918708676508" flag="0"/>
			<vel value="0.0018244007937" flag="0"/>
			<psa03 value="0.00863787820662" flag="0"/>
			<psa10 value="0.00184027983919" flag="0"/>
			<psa30 value="0.000340176857964" flag="0"/>
		</comp>
		<comp name=".HNZ" depth="0.0">
			<acc value="0.00371380617727" flag="0"/>
			<vel value="0.00125373707153" flag="0"/>
			<psa03 value="0.00536427462769" flag="0"/>
			<psa10 value="0.000847414398763" flag="0"/>
			<psa30 value="0.000488917648809" flag="0"/>
		</comp>
	</station>
</stationlist>
