<?xml version="1.0" encoding="UTF-8" standalone="yes"?>
<!DOCTYPE earthquake SYSTEM "stationlist.dtd">
<stationlist created="" xmlns="ch.ethz.sed.shakemap.usgs.xml">
  <station code="FAG" name="FAG" netid="VI" source="ODC" insttype="CMG-3T" lat="63.8748" lon="-16.6536">
    <comp name="--.HHE">
      <acc value="0.0077949860" flag="0"/>
      <vel value="0.0072787431" flag="0"/>
      <psa03 value="0.0122534168" flag="0"/>
      <psa10 value="0.0085028392" flag="0"/>
      <psa30 value="0.0057748408" flag="0"/>
    </comp>
    <comp name="--.HHN">
      <acc value="0.0034997010" flag="0"/>
      <vel value="0.0073266676" flag="0"/>
      <psa03 value="0.0054336875" flag="0"/>
      <psa10 value="0.0078157217" flag="0"/>
      <psa30 value="0.0058818199" flag="0"/>
    </comp>
    <comp name="--.HHZ">
      <acc value="0.0027333337" flag="0"/>
      <vel value="0.0070621450" flag="0"/>
      <psa03 value="0.0048447973" flag="0"/>
      <psa10 value="0.0056027093" flag="0"/>
      <psa30 value="0.0059519225" flag="0"/>
    </comp>
  </station>
  <station code="SKR" name="SKR" netid="VI" source="ODC" insttype="LE-3D/5s" lat="64.5601" lon="-18.3865">
    <comp name="--.HHN">
      <acc value="0.0235638035" flag="0"/>
      <vel value="0.0532441573" flag="0"/>
      <psa03 value="0.0545537988" flag="0"/>
      <psa10 value="0.0599063528" flag="0"/>
      <psa30 value="0.0398806985" flag="0"/>
    </comp>
    <comp name="--.HHZ">
      <acc value="0.0382815259" flag="0"/>
      <vel value="0.0442194099" flag="0"/>
      <psa03 value="0.1108402668" flag="0"/>
      <psa10 value="0.0397570582" flag="0"/>
      <psa30 value="0.0144662382" flag="0"/>
    </comp>
    <comp name="--.HHE">
      <acc value="0.0254940027" flag="0"/>
      <vel value="0.0353663166" flag="0"/>
      <psa03 value="0.0589906412" flag="0"/>
      <psa10 value="0.0650877948" flag="0"/>
      <psa30 value="0.0209684339" flag="0"/>
    </comp>
  </station>
</stationlist>
