<?xml version="1.0" encoding="UTF-8" standalone="yes"?>
<!DOCTYPE earthquake SYSTEM "stationlist.dtd">
<stationlist created="" xmlns="ch.ethz.sed.shakemap.usgs.xml">
  <station code="ATHR" name="ATHR" netid="HA" insttype="GEOtiny," commtype="DIG" lat="38.3172" lon="20.4165">
    <comp name="--.HHE">
      <acc value="0.0265246516" flag="0"/>
      <vel value="0.0155010660" flag="0"/>
      <psa03 value="0.0648576501" flag="0"/>
      <psa10 value="0.0219745865" flag="0"/>
      <psa30 value="0.0014652903" flag="0"/>
    </comp>
    <comp name="--.HHZ">
      <acc value="0.0251139070" flag="0"/>
      <vel value="0.0107168464" flag="0"/>
      <psa03 value="0.0497822954" flag="0"/>
      <psa10 value="0.0097094765" flag="0"/>
      <psa30 value="0.0007875451" flag="0"/>
    </comp>
    <comp name="--.HHN">
      <acc value="0.0231010670" flag="0"/>
      <vel value="0.0187482930" flag="0"/>
      <psa03 value="0.0567411049" flag="0"/>
      <psa10 value="0.0160906658" flag="0"/>
      <psa30 value="0.0026630644" flag="0"/>
    </comp>
  </station>
  <station code="HAVD" name="HAVD" netid="HA" insttype="GEOtiny," commtype="DIG" lat="38.2036" lon="20.3848">
    <comp name="--.HHE">
      <acc value="0.2645340739" flag="0"/>
      <vel value="0.0895662667" flag="0"/>
      <psa03 value="0.2467729074" flag="0"/>
      <psa10 value="0.0514584473" flag="0"/>
      <psa30 value="0.0029071334" flag="0"/>
    </comp>
    <comp name="--.HHZ">
      <acc value="0.1865131066" flag="0"/>
      <vel value="0.0459768444" flag="0"/>
      <psa03 value="0.1951099625" flag="0"/>
      <psa10 value="0.0197149940" flag="0"/>
      <psa30 value="0.0011967532" flag="0"/>
    </comp>
    <comp name="--.HHN">
      <acc value="0.2657136469" flag="0"/>
      <vel value="0.0885839078" flag="0"/>
      <psa03 value="0.3029997847" flag="0"/>
      <psa10 value="0.0586523214" flag="0"/>
      <psa30 value="0.0051089493" flag="0"/>
    </comp>
  </station>
  <station code="ARG2" name="ARG2" netid="HI" insttype="CMG-5TD,ACCELEROMETER,GURALP" commtype="DIG" lat="38.1783" lon="20.4878">
    <comp name="--.HNE">
      <acc value="0.2224029603" flag="0"/>
      <vel value="0.0493974964" flag="0"/>
      <psa03 value="0.2398186263" flag="0"/>
      <psa10 value="0.0293624489" flag="0"/>
      <psa30 value="0.0020810820" flag="0"/>
    </comp>
    <comp name="--.HNN">
      <acc value="0.2783838561" flag="0"/>
      <vel value="0.0792665274" flag="0"/>
      <psa03 value="0.2073315519" flag="0"/>
      <psa10 value="0.0504115939" flag="0"/>
      <psa30 value="0.0026107649" flag="0"/>
    </comp>
    <comp name="--.HNZ">
      <acc value="0.1601664359" flag="0"/>
      <vel value="0.0295083281" flag="0"/>
      <psa03 value="0.1519090567" flag="0"/>
      <psa10 value="0.0170786035" flag="0"/>
      <psa30 value="0.0016592639" flag="0"/>
    </comp>
  </station>
  <station code="LEF2" name="LEF2" netid="HI" insttype="unknown" commtype="DIG" lat="38.8301" lon="20.7083">
    <comp name="--.HNZ">
      <acc value="0.0108591139" flag="0"/>
      <vel value="0.0098427159" flag="0"/>
      <psa03 value="0.0249393294" flag="0"/>
      <psa10 value="0.0175954882" flag="0"/>
      <psa30 value="0.0008420589" flag="0"/>
    </comp>
    <comp name="--.HNN">
      <acc value="0.0195669893" flag="0"/>
      <vel value="0.0140046248" flag="0"/>
      <psa03 value="0.0456890301" flag="0"/>
      <psa10 value="0.0269862879" flag="0"/>
      <psa30 value="0.0011482059" flag="0"/>
    </comp>
    <comp name="--.HNE">
      <acc value="0.0184337129" flag="0"/>
      <vel value="0.0135268955" flag="0"/>
      <psa03 value="0.0581070983" flag="0"/>
      <psa10 value="0.0139803294" flag="0"/>
      <psa30 value="0.0014045445" flag="0"/>
    </comp>
  </station>
  <station code="LXR2" name="LXR2" netid="HI" insttype="unknown" commtype="DIG" lat="38.2067" lon="20.4364">
    <comp name="--.HNE">
      <acc value="0.1488985440" flag="0"/>
      <vel value="0.0774258384" flag="0"/>
      <psa03 value="0.2455144843" flag="0"/>
      <psa10 value="0.0592530958" flag="0"/>
      <psa30 value="0.0051525101" flag="0"/>
    </comp>
    <comp name="--.HNN">
      <acc value="0.3210933071" flag="0"/>
      <vel value="0.1204022494" flag="0"/>
      <psa03 value="0.3590780239" flag="0"/>
      <psa10 value="0.0491260276" flag="0"/>
      <psa30 value="0.0052426903" flag="0"/>
    </comp>
    <comp name="--.HNZ">
      <acc value="0.2709397013" flag="0"/>
      <vel value="0.0348860224" flag="0"/>
      <psa03 value="0.1380655399" flag="0"/>
      <psa10 value="0.0228736768" flag="0"/>
      <psa30 value="0.0021348401" flag="0"/>
    </comp>
  </station>
  <station code="VSK1" name="VSK1" netid="HI" insttype="unknown" commtype="DIG" lat="38.4091" lon="20.564">
    <comp name="--.HNN">
      <acc value="0.0344102148" flag="0"/>
      <vel value="0.0154721361" flag="0"/>
      <psa03 value="0.0493899801" flag="0"/>
      <psa10 value="0.0159401385" flag="0"/>
      <psa30 value="0.0010248331" flag="0"/>
    </comp>
    <comp name="--.HNZ">
      <acc value="0.0226614095" flag="0"/>
      <vel value="0.0085789766" flag="0"/>
      <psa03 value="0.0372124182" flag="0"/>
      <psa10 value="0.0129417458" flag="0"/>
      <psa30 value="0.0004259514" flag="0"/>
    </comp>
    <comp name="--.HNE">
      <acc value="0.0295748914" flag="0"/>
      <vel value="0.0119147832" flag="0"/>
      <psa03 value="0.0539043664" flag="0"/>
      <psa10 value="0.0132971920" flag="0"/>
      <psa30 value="0.0010110428" flag="0"/>
    </comp>
  </station>
  <station code="LXRA" name="LXRA" netid="HL" insttype="CMG-5" commtype="DIG" lat="38.2001" lon="20.4372">
    <comp name="00.HNE">
      <acc value="0.2027249740" flag="0"/>
      <vel value="0.0554946029" flag="0"/>
      <psa03 value="0.2199777228" flag="0"/>
      <psa10 value="0.0705071546" flag="0"/>
      <psa30 value="0.0061647510" flag="0"/>
    </comp>
    <comp name="00.HNN">
      <acc value="0.3135839645" flag="0"/>
      <vel value="0.1039968756" flag="0"/>
      <psa03 value="0.3519644017" flag="0"/>
      <psa10 value="0.0581330498" flag="0"/>
      <psa30 value="0.0054199071" flag="0"/>
    </comp>
    <comp name="00.HNZ">
      <acc value="0.2333590757" flag="0"/>
      <vel value="0.0375379047" flag="0"/>
      <psa03 value="0.1901286966" flag="0"/>
      <psa10 value="0.0253314567" flag="0"/>
      <psa30 value="0.0026716668" flag="0"/>
    </comp>
  </station>
  <station code="ORTH" name="ORTH" netid="HL" insttype="30" commtype="DIG" lat="37.8511" lon="20.6963">
    <comp name="--.HHE">
      <acc value="0.1004523382" flag="0"/>
      <vel value="0.0433107261" flag="0"/>
      <psa03 value="0.2224560899" flag="0"/>
      <psa10 value="0.0227361154" flag="0"/>
      <psa30 value="0.0014342235" flag="0"/>
    </comp>
    <comp name="--.HHZ">
      <acc value="0.0451433683" flag="0"/>
      <vel value="0.0155034393" flag="0"/>
      <psa03 value="0.0517043125" flag="0"/>
      <psa10 value="0.0130451081" flag="0"/>
      <psa30 value="0.0006906351" flag="0"/>
    </comp>
    <comp name="--.HHN">
      <acc value="0.1276281733" flag="0"/>
      <vel value="0.0511833104" flag="0"/>
      <psa03 value="0.2759968963" flag="0"/>
      <psa10 value="0.0364876879" flag="0"/>
      <psa30 value="0.0031269396" flag="0"/>
    </comp>
  </station>
  <station code="RLS" name="RLS" netid="HL" insttype="CMG3ESPC-120s" commtype="DIG" lat="38.0559" lon="21.4647">
    <comp name="--.HHE">
      <acc value="0.0045952713" flag="0"/>
      <vel value="0.0023487451" flag="0"/>
      <psa03 value="0.0102241404" flag="0"/>
      <psa10 value="0.0038044884" flag="0"/>
      <psa30 value="0.0002290522" flag="0"/>
    </comp>
    <comp name="--.HHZ">
      <acc value="0.0031603544" flag="0"/>
      <vel value="0.0017811328" flag="0"/>
      <psa03 value="0.0046509449" flag="0"/>
      <psa10 value="0.0021864282" flag="0"/>
      <psa30 value="0.0002336819" flag="0"/>
    </comp>
    <comp name="--.HHN">
      <acc value="0.0058410838" flag="0"/>
      <vel value="0.0035380612" flag="0"/>
      <psa03 value="0.0082691771" flag="0"/>
      <psa10 value="0.0038160519" flag="0"/>
      <psa30 value="0.0003015597" flag="0"/>
    </comp>
  </station>
  <station code="AXS" name="AXS" netid="HP" insttype="Compact," commtype="DIG" lat="38.1962" lon="21.3763">
    <comp name="--.HHE">
      <acc value="0.0031086995" flag="0"/>
      <vel value="0.0013508251" flag="0"/>
      <psa03 value="0.0060461098" flag="0"/>
      <psa10 value="0.0016782524" flag="0"/>
      <psa30 value="0.0001693259" flag="0"/>
    </comp>
    <comp name="--.HHN">
      <acc value="0.0033713060" flag="0"/>
      <vel value="0.0029122201" flag="0"/>
      <psa03 value="0.0084617174" flag="0"/>
      <psa10 value="0.0032455694" flag="0"/>
      <psa30 value="0.0002881190" flag="0"/>
    </comp>
    <comp name="--.HHZ">
      <acc value="0.0022469110" flag="0"/>
      <vel value="0.0019989317" flag="0"/>
      <psa03 value="0.0041553632" flag="0"/>
      <psa10 value="0.0020953589" flag="0"/>
      <psa30 value="0.0001597230" flag="0"/>
    </comp>
  </station>
  <station code="FSK" name="FSK" netid="HP" insttype="40," commtype="DIG" lat="38.4593" lon="20.5623">
    <comp name="--.HHZ">
      <acc value="0.0146310591" flag="0"/>
      <vel value="0.0071904452" flag="0"/>
      <psa03 value="0.0211363974" flag="0"/>
      <psa10 value="0.0083475943" flag="0"/>
      <psa30 value="0.0005245448" flag="0"/>
    </comp>
    <comp name="--.HHN">
      <acc value="0.0154305474" flag="0"/>
      <vel value="0.0071614526" flag="0"/>
      <psa03 value="0.0177828746" flag="0"/>
      <psa10 value="0.0093030897" flag="0"/>
      <psa30 value="0.0005555309" flag="0"/>
    </comp>
    <comp name="--.HHE">
      <acc value="0.0327542377" flag="0"/>
      <vel value="0.0094106568" flag="0"/>
      <psa03 value="0.0267080646" flag="0"/>
      <psa10 value="0.0126514227" flag="0"/>
      <psa30 value="0.0014446664" flag="0"/>
    </comp>
  </station>
  <station code="LTHK" name="LTHK" netid="HP" insttype="40," commtype="DIG" lat="37.7095" lon="20.8367">
    <comp name="--.HHN">
      <acc value="0.0593217603" flag="0"/>
      <vel value="0.0216793256" flag="0"/>
      <psa03 value="0.0749085257" flag="0"/>
      <psa10 value="0.0119114587" flag="0"/>
      <psa30 value="0.0010162606" flag="0"/>
    </comp>
    <comp name="--.HHE">
      <acc value="0.0628000986" flag="0"/>
      <vel value="0.0162580283" flag="0"/>
      <psa03 value="0.0794077675" flag="0"/>
      <psa10 value="0.0137231211" flag="0"/>
      <psa30 value="0.0006948390" flag="0"/>
    </comp>
    <comp name="--.HHZ">
      <acc value="0.0313313226" flag="0"/>
      <vel value="0.0096931833" flag="0"/>
      <psa03 value="0.0455010894" flag="0"/>
      <psa10 value="0.0055552126" flag="0"/>
      <psa30 value="0.0004531821" flag="0"/>
    </comp>
  </station>
  <station code="PDO" name="PDO" netid="HP" insttype="120s" commtype="DIG" lat="38.5986" lon="21.1833">
    <comp name="--.HHZ">
      <acc value="0.0069863532" flag="0"/>
      <vel value="0.0044971931" flag="0"/>
      <psa03 value="0.0151037431" flag="0"/>
      <psa10 value="0.0043987737" flag="0"/>
      <psa30 value="0.0005125075" flag="0"/>
    </comp>
    <comp name="--.HHN">
      <acc value="0.0124572682" flag="0"/>
      <vel value="0.0064054936" flag="0"/>
      <psa03 value="0.0375992949" flag="0"/>
      <psa10 value="0.0103161233" flag="0"/>
      <psa30 value="0.0008520997" flag="0"/>
    </comp>
    <comp name="--.HHE">
      <acc value="0.0106900116" flag="0"/>
      <vel value="0.0065869046" flag="0"/>
      <psa03 value="0.0329959872" flag="0"/>
      <psa10 value="0.0096510915" flag="0"/>
      <psa30 value="0.0007863572" flag="0"/>
    </comp>
  </station>
  <station code="PLEV" name="PLEV" netid="HP" insttype="Compact," commtype="DIG" lat="38.4124" lon="21.4073">
    <comp name="--.HHE">
      <acc value="0.0044491448" flag="0"/>
      <vel value="0.0027926442" flag="0"/>
      <psa03 value="0.0128239538" flag="0"/>
      <psa10 value="0.0043963554" flag="0"/>
      <psa30 value="0.0004041601" flag="0"/>
    </comp>
    <comp name="--.HHN">
      <acc value="0.0047025492" flag="0"/>
      <vel value="0.0029390333" flag="0"/>
      <psa03 value="0.0161079342" flag="0"/>
      <psa10 value="0.0065465898" flag="0"/>
      <psa30 value="0.0004950719" flag="0"/>
    </comp>
    <comp name="--.HHZ">
      <acc value="0.0029861107" flag="0"/>
      <vel value="0.0017549538" flag="0"/>
      <psa03 value="0.0064585848" flag="0"/>
      <psa10 value="0.0032707500" flag="0"/>
      <psa30 value="0.0003442811" flag="0"/>
    </comp>
  </station>
  <station code="CKVA" name="CKVA" netid="KF" insttype="Triaxial" commtype="DIG" lat="38.1642" lon="20.5063">
    <comp name="00.HN1">
      <acc value="0.5904790105" flag="0"/>
      <vel value="0.1439987463" flag="0"/>
      <psa03 value="0.8437491229" flag="0"/>
      <psa10 value="0.0821271266" flag="0"/>
      <psa30 value="0.0047063226" flag="0"/>
    </comp>
    <comp name="00.HN2">
      <acc value="0.7196390110" flag="0"/>
      <vel value="0.1528214485" flag="0"/>
      <psa03 value="0.7590623596" flag="0"/>
      <psa10 value="0.0605081573" flag="0"/>
      <psa30 value="0.0038177331" flag="0"/>
    </comp>
    <comp name="00.HNZ">
      <acc value="0.4091653821" flag="0"/>
      <vel value="0.0547969078" flag="0"/>
      <psa03 value="0.3073114822" flag="0"/>
      <psa10 value="0.0185455580" flag="0"/>
      <psa30 value="0.0015888439" flag="0"/>
    </comp>
  </station>
  <station code="CKWP" name="CKWP" netid="KF" insttype="Triaxial" commtype="DIG" lat="38.1662" lon="20.5102">
    <comp name="00.HNZ">
      <acc value="0.1112927886" flag="0"/>
      <vel value="0.0215855537" flag="0"/>
      <psa03 value="0.1032528119" flag="0"/>
      <psa10 value="0.0106221452" flag="0"/>
      <psa30 value="0.0010231216" flag="0"/>
    </comp>
    <comp name="00.HNN">
      <acc value="0.1611817692" flag="0"/>
      <vel value="0.0362741503" flag="0"/>
      <psa03 value="0.1693205649" flag="0"/>
      <psa10 value="0.0242017303" flag="0"/>
      <psa30 value="0.0018554421" flag="0"/>
    </comp>
    <comp name="00.HNE">
      <acc value="0.1329806631" flag="0"/>
      <vel value="0.0344622708" flag="0"/>
      <psa03 value="0.1083667224" flag="0"/>
      <psa10 value="0.0200491641" flag="0"/>
      <psa30 value="0.0011515072" flag="0"/>
    </comp>
  </station>
</stationlist>
