<stationlist xmlns:esm="https://esm-db.eu/esmws/shakemap/1/" created="1779933274">
	<station code="MALA" name="MALA" netid="CL" source="Corinth Riff Laboratory (CRLNET)" insttype="" lat="38.39341" lon="21.87263" esm:processing="manual (Paolucci et al 2011)" esm:quality="good">
		<comp name="01.HNE" depth="0.0">
			<acc value="0.00635636152176516" flag="0"/>
			<vel value="0.00692478313570236" flag="0"/>
			<psa03 value="0.0119981541938274" flag="0"/>
			<psa10 value="0.0169545056527739" flag="0"/>
			<psa30 value="0.000712092068437946" flag="0"/>
		</comp>
		<comp name="01.HNN" depth="0.0">
			<acc value="0.00538983864769343" flag="0"/>
			<vel value="0.0057665103755522" flag="0"/>
			<psa03 value="0.0132900561822624" flag="0"/>
			<psa10 value="0.0143808254715906" flag="0"/>
			<psa30 value="0.00117542869971443" flag="0"/>
		</comp>
		<comp name="01.HNZ" depth="0.0">
			<acc value="0.00511224416650175" flag="0"/>
			<vel value="0.00222989696552757" flag="0"/>
			<psa03 value="0.00489245463494235" flag="0"/>
			<psa10 value="0.00338155635526074" flag="0"/>
			<psa30 value="0.000277720246561845" flag="0"/>
		</comp>
	</station>
	<station code="ARG2" name="ARG2" netid="HI" source="ITSAK Strong Motion Network" insttype="" lat="38.1783" lon="20.4878" esm:processing="manual (Paolucci et al 2011)" esm:quality="best">
		<comp name="--.HNE" depth="0.0">
			<acc value="0.218862226450612" flag="0"/>
			<vel value="0.0500483422692337" flag="0"/>
			<psa03 value="0.239164322629327" flag="0"/>
			<psa10 value="0.0293534513970889" flag="0"/>
			<psa30 value="0.00204777982202932" flag="0"/>
		</comp>
		<comp name="--.HNN" depth="0.0">
			<acc value="0.274042683516692" flag="0"/>
			<vel value="0.0804415245907096" flag="0"/>
			<psa03 value="0.209695370455812" flag="0"/>
			<psa10 value="0.0504479594296266" flag="0"/>
			<psa30 value="0.00269688303026318" flag="0"/>
		</comp>
		<comp name="--.HNZ" depth="0.0">
			<acc value="0.162752291504423" flag="0"/>
			<vel value="0.0304100941940349" flag="0"/>
			<psa03 value="0.156536130167163" flag="0"/>
			<psa10 value="0.0170937261254572" flag="0"/>
			<psa30 value="0.00181171751739376" flag="0"/>
		</comp>
	</station>
	<station code="AST1" name="AST1" netid="HI" source="ITSAK Strong Motion Network" insttype="" lat="38.5416" lon="21.0895" esm:processing="automatic (Paolucci et al 2011)" esm:quality="best">
		<comp name="--.HNE" depth="0.0">
			<acc value="0.0142488649430612" flag="0"/>
			<vel value="0.00479824423660336" flag="0"/>
			<psa03 value="0.0188115912276581" flag="0"/>
			<psa10 value="0.00632833375228665" flag="0"/>
			<psa30 value="0.000795134757107092" flag="0"/>
		</comp>
		<comp name="--.HNN" depth="0.0">
			<acc value="0.010880213636965" flag="0"/>
			<vel value="0.00875696051927072" flag="0"/>
			<psa03 value="0.0227285968038256" flag="0"/>
			<psa10 value="0.00557468851449442" flag="0"/>
			<psa30 value="0.000997324088657693" flag="0"/>
		</comp>
		<comp name="--.HNZ" depth="0.0">
			<acc value="0.00933584494535631" flag="0"/>
			<vel value="0.00549958043468243" flag="0"/>
			<psa03 value="0.0171688482894566" flag="0"/>
			<psa10 value="0.00912567734384697" flag="0"/>
			<psa30 value="0.000519830321622544" flag="0"/>
		</comp>
	</station>
	<station code="KAC1" name="KAC1" netid="HI" source="ITSAK Strong Motion Network" insttype="" lat="38.143412" lon="21.549694" esm:processing="automatic (Paolucci et al 2011)" esm:quality="best">
		<comp name="--.HNE" depth="0.0">
			<acc value="0.0101245329804066" flag="0"/>
			<vel value="0.00932267415502781" flag="0"/>
			<psa03 value="0.0312609432798896" flag="0"/>
			<psa10 value="0.0134402500380946" flag="0"/>
			<psa30 value="0.00112909906810613" flag="0"/>
		</comp>
		<comp name="--.HNN" depth="0.0">
			<acc value="0.0114102941188617" flag="0"/>
			<vel value="0.011598363162668" flag="0"/>
			<psa03 value="0.0336959926107856" flag="0"/>
			<psa10 value="0.0134595122516464" flag="0"/>
			<psa30 value="0.00140110250366598" flag="0"/>
		</comp>
		<comp name="--.HNZ" depth="0.0">
			<acc value="0.00487946050409087" flag="0"/>
			<vel value="0.00334920532328617" flag="0"/>
			<psa03 value="0.0124460679804849" flag="0"/>
			<psa10 value="0.00544996650228927" flag="0"/>
			<psa30 value="0.000768905311203052" flag="0"/>
		</comp>
	</station>
	<station code="LEF2" name="LEF2" netid="HI" source="ITSAK Strong Motion Network" insttype="" lat="38.830093" lon="20.708346" esm:processing="automatic (Paolucci et al 2011)" esm:quality="best">
		<comp name="--.HNE" depth="0.0">
			<acc value="0.018383493804566" flag="0"/>
			<vel value="0.0138777392552508" flag="0"/>
			<psa03 value="0.0583945766875912" flag="0"/>
			<psa10 value="0.0139931894801462" flag="0"/>
			<psa30 value="0.0015089816292956" flag="0"/>
		</comp>
		<comp name="--.HNN" depth="0.0">
			<acc value="0.0195881953192251" flag="0"/>
			<vel value="0.0142485092788254" flag="0"/>
			<psa03 value="0.0453951947089381" flag="0"/>
			<psa10 value="0.0270520345645409" flag="0"/>
			<psa30 value="0.00120896550469973" flag="0"/>
		</comp>
		<comp name="--.HNZ" depth="0.0">
			<acc value="0.0108276371436491" flag="0"/>
			<vel value="0.0096775253709674" flag="0"/>
			<psa03 value="0.0254513058157845" flag="0"/>
			<psa10 value="0.0175830154134865" flag="0"/>
			<psa30 value="0.000819499860759465" flag="0"/>
		</comp>
	</station>
	<station code="LXR2" name="LXR2" netid="HI" source="ITSAK Strong Motion Network" insttype="" lat="38.206718" lon="20.436386" esm:processing="manual (Paolucci et al 2011)" esm:quality="best">
		<comp name="--.HNE" depth="0.0">
			<acc value="0.150263180427161" flag="0"/>
			<vel value="0.0791002084272728" flag="0"/>
			<psa03 value="0.24242874721486" flag="0"/>
			<psa10 value="0.0593930707494087" flag="0"/>
			<psa30 value="0.0055353491896981" flag="0"/>
		</comp>
		<comp name="--.HNN" depth="0.0">
			<acc value="0.307241546426861" flag="0"/>
			<vel value="0.122390599690726" flag="0"/>
			<psa03 value="0.363737095797608" flag="0"/>
			<psa10 value="0.0492500738258693" flag="0"/>
			<psa30 value="0.0054678868039829" flag="0"/>
		</comp>
		<comp name="--.HNZ" depth="0.0">
			<acc value="0.239684582519381" flag="0"/>
			<vel value="0.0366200190494795" flag="0"/>
			<psa03 value="0.143738490719405" flag="0"/>
			<psa10 value="0.0229383364272302" flag="0"/>
			<psa30 value="0.00222217720833202" flag="0"/>
		</comp>
	</station>
	<station code="PRE2" name="PRE2" netid="HI" source="ITSAK Strong Motion Network" insttype="" lat="38.9577" lon="20.7548" esm:processing="automatic (Paolucci et al 2011)" esm:quality="best">
		<comp name="--.HNE" depth="0.0">
			<acc value="0.0162982016319372" flag="0"/>
			<vel value="0.0106449371138619" flag="0"/>
			<psa03 value="0.0405980201487431" flag="0"/>
			<psa10 value="0.0149643613154835" flag="0"/>
			<psa30 value="0.00130403107315659" flag="0"/>
		</comp>
		<comp name="--.HNN" depth="0.0">
			<acc value="0.0121958474986264" flag="0"/>
			<vel value="0.0121116723837726" flag="0"/>
			<psa03 value="0.0332664797826763" flag="0"/>
			<psa10 value="0.0244267425267952" flag="0"/>
			<psa30 value="0.00238842759660616" flag="0"/>
		</comp>
		<comp name="--.HNZ" depth="0.0">
			<acc value="0.00844386304003506" flag="0"/>
			<vel value="0.00580512470521843" flag="0"/>
			<psa03 value="0.0194963970093525" flag="0"/>
			<psa10 value="0.00944058007958117" flag="0"/>
			<psa30 value="0.000887838189924029" flag="0"/>
		</comp>
	</station>
	<station code="VAS2" name="VAS2" netid="HI" source="ITSAK Strong Motion Network" insttype="" lat="38.630558" lon="20.608081" esm:processing="manual (Paolucci et al 2011)" esm:quality="best">
		<comp name="--.HNE" depth="0.0">
			<acc value="0.0259306355776598" flag="0"/>
			<vel value="0.018602886344029" flag="0"/>
			<psa03 value="0.070909864096934" flag="0"/>
			<psa10 value="0.0312694927004295" flag="0"/>
			<psa30 value="0.00138244574691135" flag="0"/>
		</comp>
		<comp name="--.HNN" depth="0.0">
			<acc value="0.0416942067989921" flag="0"/>
			<vel value="0.0230124467938106" flag="0"/>
			<psa03 value="0.100259100006808" flag="0"/>
			<psa10 value="0.0453650489620469" flag="0"/>
			<psa30 value="0.00186756621709577" flag="0"/>
		</comp>
		<comp name="--.HNZ" depth="0.0">
			<acc value="0.0250030416342003" flag="0"/>
			<vel value="0.0156291469025452" flag="0"/>
			<psa03 value="0.0439438798163564" flag="0"/>
			<psa10 value="0.0167115683093713" flag="0"/>
			<psa30 value="0.000770637248853847" flag="0"/>
		</comp>
	</station>
	<station code="VSK1" name="VSK1" netid="HI" source="ITSAK Strong Motion Network" insttype="" lat="38.4091" lon="20.564" esm:processing="manual (Paolucci et al 2011)" esm:quality="best">
		<comp name="--.HNE" depth="0.0">
			<acc value="0.0292725365579048" flag="0"/>
			<vel value="0.0121204382832373" flag="0"/>
			<psa03 value="0.0539837584506311" flag="0"/>
			<psa10 value="0.0133299739828736" flag="0"/>
			<psa30 value="0.00105927319248495" flag="0"/>
		</comp>
		<comp name="--.HNN" depth="0.0">
			<acc value="0.0346724772654846" flag="0"/>
			<vel value="0.0157088134250901" flag="0"/>
			<psa03 value="0.0503537471471478" flag="0"/>
			<psa10 value="0.0159561970197566" flag="0"/>
			<psa30 value="0.00101864831378506" flag="0"/>
		</comp>
		<comp name="--.HNZ" depth="0.0">
			<acc value="0.022465542230034" flag="0"/>
			<vel value="0.00871758354857412" flag="0"/>
			<psa03 value="0.0375349995303205" flag="0"/>
			<psa10 value="0.0129471261210502" flag="0"/>
			<psa30 value="0.000467094484383135" flag="0"/>
		</comp>
	</station>
	<station code="ZAK2" name="ZAK2" netid="HI" source="ITSAK Strong Motion Network" insttype="" lat="37.787501" lon="20.899999" esm:processing="manual (Paolucci et al 2011)" esm:quality="best">
		<comp name="--.HNE" depth="0.0">
			<acc value="0.0786493596157282" flag="0"/>
			<vel value="0.0405936936603043" flag="0"/>
			<psa03 value="0.239619644458704" flag="0"/>
			<psa10 value="0.0450300467695753" flag="0"/>
			<psa30 value="0.00204129814264904" flag="0"/>
		</comp>
		<comp name="--.HNN" depth="0.0">
			<acc value="0.108256013790974" flag="0"/>
			<vel value="0.0613048170380733" flag="0"/>
			<psa03 value="0.269136599812375" flag="0"/>
			<psa10 value="0.0573858515312015" flag="0"/>
			<psa30 value="0.00372569139210354" flag="0"/>
		</comp>
		<comp name="--.HNZ" depth="0.0">
			<acc value="0.041755515650773" flag="0"/>
			<vel value="0.0186952269915829" flag="0"/>
			<psa03 value="0.118324619675561" flag="0"/>
			<psa10 value="0.0187576851045779" flag="0"/>
			<psa30 value="0.00152936902152385" flag="0"/>
		</comp>
	</station>
	<station code="LXRA" name="LXRA" netid="HL" source="National Observatory of Athens Seismic Network" insttype="" lat="38.20006" lon="20.43718" esm:processing="manual (Paolucci et al 2011)" esm:quality="best">
		<comp name="00.HNE" depth="0.0">
			<acc value="0.203933861490979" flag="0"/>
			<vel value="0.0561858760814303" flag="0"/>
			<psa03 value="0.221511674061261" flag="0"/>
			<psa10 value="0.0705044980768483" flag="0"/>
			<psa30 value="0.00662549098959162" flag="0"/>
		</comp>
		<comp name="00.HNN" depth="0.0">
			<acc value="0.307839510583345" flag="0"/>
			<vel value="0.105036062410874" flag="0"/>
			<psa03 value="0.353183980038454" flag="0"/>
			<psa10 value="0.0582591418821191" flag="0"/>
			<psa30 value="0.00564608152518158" flag="0"/>
		</comp>
		<comp name="00.HNZ" depth="0.0">
			<acc value="0.217361794125526" flag="0"/>
			<vel value="0.037863994577022" flag="0"/>
			<psa03 value="0.191102222084265" flag="0"/>
			<psa10 value="0.0253278128433154" flag="0"/>
			<psa30 value="0.00277460484561989" flag="0"/>
		</comp>
	</station>
	<station code="SMHA" name="SMHA" netid="HL" source="National Observatory of Athens Seismic Network" insttype="" lat="38.25123" lon="20.6477" esm:processing="manual (Paolucci et al 2011)" esm:quality="best">
		<comp name="00.HNE" depth="0.0">
			<acc value="0.344738081994837" flag="0"/>
			<vel value="0.106092137033679" flag="0"/>
			<psa03 value="0.276173211786768" flag="0"/>
			<psa10 value="0.0498825569746471" flag="0"/>
			<psa30 value="0.00331369805790042" flag="0"/>
		</comp>
		<comp name="00.HNN" depth="0.0">
			<acc value="0.232160976890499" flag="0"/>
			<vel value="0.0589678288846024" flag="0"/>
			<psa03 value="0.25485265357093" flag="0"/>
			<psa10 value="0.0298138300199192" flag="0"/>
			<psa30 value="0.00183043667411293" flag="0"/>
		</comp>
		<comp name="00.HNZ" depth="0.0">
			<acc value="0.131884916704256" flag="0"/>
			<vel value="0.0343453238308405" flag="0"/>
			<psa03 value="0.140486379449981" flag="0"/>
			<psa10 value="0.0237968207975843" flag="0"/>
			<psa30 value="0.00139025668101354" flag="0"/>
		</comp>
	</station>
	<station code="AMT" name="AMT" netid="HP" source="University of Patras, Seismological Laboratory (PSLNET)" insttype="" lat="37.5324" lon="21.7089" esm:processing="automatic (Paolucci et al 2011)" esm:quality="best">
		<comp name="--.HNE" depth="0.0">
			<acc value="0.00882362227779729" flag="0"/>
			<vel value="0.00491586677398759" flag="0"/>
			<psa03 value="0.0308781496925284" flag="0"/>
			<psa10 value="0.00800567689931898" flag="0"/>
			<psa30 value="0.000516827258100961" flag="0"/>
		</comp>
		<comp name="--.HNN" depth="0.0">
			<acc value="0.00556382959671542" flag="0"/>
			<vel value="0.00489294302854252" flag="0"/>
			<psa03 value="0.0174170261883538" flag="0"/>
			<psa10 value="0.00736569137838687" flag="0"/>
			<psa30 value="0.000437465750792552" flag="0"/>
		</comp>
		<comp name="--.HNZ" depth="0.0">
			<acc value="0.00548756524861157" flag="0"/>
			<vel value="0.0045328766106453" flag="0"/>
			<psa03 value="0.0147789608044376" flag="0"/>
			<psa10 value="0.00372776733691499" flag="0"/>
			<psa30 value="0.000222963754629282" flag="0"/>
		</comp>
	</station>
	<station code="DSF" name="DSF" netid="HP" source="University of Patras, Seismological Laboratory (PSLNET)" insttype="" lat="38.4112" lon="22.5271" esm:processing="automatic (Paolucci et al 2011)" esm:quality="best">
		<comp name="--.HNE" depth="1.0">
			<acc value="0.00140449444612672" flag="0"/>
			<vel value="0.000798398995610698" flag="0"/>
			<psa03 value="0.00451981471502194" flag="0"/>
			<psa10 value="0.000752338803597201" flag="0"/>
			<psa30 value="0.000115306987480357" flag="0"/>
		</comp>
		<comp name="--.HNN" depth="1.0">
			<acc value="0.0018555076422669" flag="0"/>
			<vel value="0.000962084840203057" flag="0"/>
			<psa03 value="0.00281489220196027" flag="0"/>
			<psa10 value="0.00080229586300721" flag="0"/>
			<psa30 value="0.000120271131434697" flag="0"/>
		</comp>
		<comp name="--.HNZ" depth="1.0">
			<acc value="0.00108571869087605" flag="0"/>
			<vel value="0.000459898259431908" flag="0"/>
			<psa03 value="0.00161991427751659" flag="0"/>
			<psa10 value="0.000701988612675408" flag="0"/>
			<psa30 value="0.000112878675574944" flag="0"/>
		</comp>
	</station>
	<station code="EFP" name="EFP" netid="HP" source="University of Patras, Seismological Laboratory (PSLNET)" insttype="" lat="38.4269" lon="21.9058" esm:processing="automatic (Paolucci et al 2011)" esm:quality="best">
		<comp name="--.HNE" depth="0.0">
			<acc value="0.00241586139991488" flag="0"/>
			<vel value="0.00205552107122076" flag="0"/>
			<psa03 value="0.00664568308243056" flag="0"/>
			<psa10 value="0.00253146410332306" flag="0"/>
			<psa30 value="0.000154106133254181" flag="0"/>
		</comp>
		<comp name="--.HNN" depth="0.0">
			<acc value="0.00215618238526071" flag="0"/>
			<vel value="0.00189190454591137" flag="0"/>
			<psa03 value="0.00625979814444724" flag="0"/>
			<psa10 value="0.0022048549670707" flag="0"/>
			<psa30 value="0.000293099494528055" flag="0"/>
		</comp>
		<comp name="--.HNZ" depth="0.0">
			<acc value="0.00437491945304891" flag="0"/>
			<vel value="0.00151087422687302" flag="0"/>
			<psa03 value="0.00488223032483994" flag="0"/>
			<psa10 value="0.00221955289386122" flag="0"/>
			<psa30 value="0.000234237392077648" flag="0"/>
		</comp>
	</station>
	<station code="FSK" name="FSK" netid="HP" source="University of Patras, Seismological Laboratory (PSLNET)" insttype="" lat="38.4593" lon="20.5623" esm:processing="manual (Paolucci et al 2011)" esm:quality="good">
		<comp name="--.HNE" depth="0.0">
			<acc value="0.0335579532977936" flag="0"/>
			<vel value="0.0090671887884874" flag="0"/>
			<psa03 value="0.0258837641514971" flag="0"/>
			<psa10 value="0.0133425982566424" flag="0"/>
			<psa30 value="0.00150236837870068" flag="0"/>
		</comp>
		<comp name="--.HNN" depth="0.0">
			<acc value="0.0147721628956222" flag="0"/>
			<vel value="0.00689538798427571" flag="0"/>
			<psa03 value="0.0183073781385223" flag="0"/>
			<psa10 value="0.00884359396968969" flag="0"/>
			<psa30 value="0.000532164732468864" flag="0"/>
		</comp>
		<comp name="--.HNZ" depth="0.0">
			<acc value="0.0152344765526291" flag="0"/>
			<vel value="0.00714547579303425" flag="0"/>
			<psa03 value="0.0209894112788199" flag="0"/>
			<psa10 value="0.00842362239862743" flag="0"/>
			<psa30 value="0.000591008526416431" flag="0"/>
		</comp>
	</station>
	<station code="GUR" name="GUR" netid="HP" source="University of Patras, Seismological Laboratory (PSLNET)" insttype="" lat="37.9363" lon="22.3423" esm:processing="automatic (Paolucci et al 2011)" esm:quality="best">
		<comp name="--.HNE" depth="0.0">
			<acc value="0.00320624420308652" flag="0"/>
			<vel value="0.00227311498405237" flag="0"/>
			<psa03 value="0.00731968801839876" flag="0"/>
			<psa10 value="0.00449334797476252" flag="0"/>
			<psa30 value="0.000304891473605626" flag="0"/>
		</comp>
		<comp name="--.HNN" depth="0.0">
			<acc value="0.00288198991393484" flag="0"/>
			<vel value="0.00265005696437227" flag="0"/>
			<psa03 value="0.00747734690003851" flag="0"/>
			<psa10 value="0.00263508698345593" flag="0"/>
			<psa30 value="0.000231278341888407" flag="0"/>
		</comp>
		<comp name="--.HNZ" depth="0.0">
			<acc value="0.00161735824793319" flag="0"/>
			<vel value="0.00109098133214076" flag="0"/>
			<psa03 value="0.00283731979445117" flag="0"/>
			<psa10 value="0.00293199368331771" flag="0"/>
			<psa30 value="0.000166511538384841" flag="0"/>
		</comp>
	</station>
	<station code="LTHK" name="LTHK" netid="HP" source="University of Patras, Seismological Laboratory (PSLNET)" insttype="" lat="37.7095" lon="20.8367" esm:processing="manual (Paolucci et al 2011)" esm:quality="good">
		<comp name="--.HNE" depth="0.0">
			<acc value="0.0606722426707199" flag="0"/>
			<vel value="0.0165698155207579" flag="0"/>
			<psa03 value="0.0790844993766904" flag="0"/>
			<psa10 value="0.0139010299375257" flag="0"/>
			<psa30 value="0.000707221902061599" flag="0"/>
		</comp>
		<comp name="--.HNN" depth="0.0">
			<acc value="0.0577088735354718" flag="0"/>
			<vel value="0.0215899243746975" flag="0"/>
			<psa03 value="0.0749626013211014" flag="0"/>
			<psa10 value="0.0117919924116144" flag="0"/>
			<psa30 value="0.000955494755169439" flag="0"/>
		</comp>
		<comp name="--.HNZ" depth="0.0">
			<acc value="0.0322429279167427" flag="0"/>
			<vel value="0.00975670820933336" flag="0"/>
			<psa03 value="0.0458487299618708" flag="0"/>
			<psa10 value="0.00557628658910053" flag="0"/>
			<psa30 value="0.0004934085192274" flag="0"/>
		</comp>
	</station>
	<station code="PVO" name="PVO" netid="HP" source="University of Patras, Seismological Laboratory (PSLNET)" insttype="" lat="38.616" lon="21.525" esm:processing="manual (Paolucci et al 2011)" esm:quality="bad">
		<comp name="--.HNE" depth="0.0">
			<acc value="0.00657765815202201" flag="0"/>
			<vel value="0.00570036429021564" flag="0"/>
			<psa03 value="0.0187210435626816" flag="0"/>
			<psa10 value="0.00647333429537881" flag="0"/>
			<psa30 value="0.0010636284810015" flag="0"/>
		</comp>
		<comp name="--.HNN" depth="0.0">
			<acc value="0.0055850809373728" flag="0"/>
			<vel value="0.00385583775969116" flag="0"/>
			<psa03 value="0.0127226201548875" flag="0"/>
			<psa10 value="0.00491000385739159" flag="0"/>
			<psa30 value="0.000516290555883137" flag="0"/>
		</comp>
