<stationlist created="1763975325">
	<station code="MALA" name="MALA" netid="CL" source="Corinth Riff Laboratory (CRLNET)" insttype="" lat="38.39341" lon="21.87263">
		<comp name="01.HNE" depth="0.0">
			<acc value="0.0063563614794936" flag="0"/>
			<vel value="0.00692480097627" flag="0"/>
			<psa03 value="0.0119981541938274" flag="0"/>
			<psa10 value="0.0169545056527739" flag="0"/>
			<psa30 value="0.000712092068437946" flag="0"/>
		</comp>
		<comp name="01.HNN" depth="0.0">
			<acc value="0.0053898326402256" flag="0"/>
			<vel value="0.00576635618996" flag="0"/>
			<psa03 value="0.0132900561822624" flag="0"/>
			<psa10 value="0.0143808254715906" flag="0"/>
			<psa30 value="0.00117542869971443" flag="0"/>
		</comp>
		<comp name="01.HNZ" depth="0.0">
			<acc value="0.0051122441813166" flag="0"/>
			<vel value="0.00222989117026" flag="0"/>
			<psa03 value="0.00489245463494235" flag="0"/>
			<psa10 value="0.00338155635526074" flag="0"/>
			<psa30 value="0.000277720246561845" flag="0"/>
		</comp>
	</station>
	<station code="KIAS" name="KIAS" netid="HA" source="Hellenic Seismological Network, University of Athens, Seismological Laboratory (HA)" insttype="" lat="37.9875" lon="22.7543">
		<comp name="--.HNE" depth="0.0">
			<acc value="0.0032513537367744" flag="0"/>
			<vel value="0.00273183753694" flag="0"/>
			<psa03 value="0.00566679336599539" flag="0"/>
			<psa10 value="0.00622867980694899" flag="0"/>
			<psa30 value="0.000972953203372639" flag="0"/>
		</comp>
		<comp name="--.HNN" depth="0.0">
			<acc value="0.0031756041727758" flag="0"/>
			<vel value="0.00267810162735" flag="0"/>
			<psa03 value="0.00466722519636785" flag="0"/>
			<psa10 value="0.00327172001664515" flag="0"/>
			<psa30 value="0.000966862279047161" flag="0"/>
		</comp>
		<comp name="--.HNZ" depth="0.0">
			<acc value="0.0031016363251218" flag="0"/>
			<vel value="0.00187240693799" flag="0"/>
			<psa03 value="0.00328761069171913" flag="0"/>
			<psa10 value="0.00358872523543514" flag="0"/>
			<psa30 value="0.00051709675512266" flag="0"/>
		</comp>
	</station>
	<station code="AGR3" name="AGR3" netid="HI" source="ITSAK Strong Motion Network" insttype="" lat="38.5893" lon="21.4162">
		<comp name="--.HNE" depth="0.0">
			<acc value="0.014391254996112" flag="0"/>
			<vel value="0.0138719375178" flag="0"/>
			<psa03 value="0.0344683328370425" flag="0"/>
			<psa10 value="0.0300063940263445" flag="0"/>
			<psa30 value="0.00209681515371137" flag="0"/>
		</comp>
		<comp name="--.HNN" depth="0.0">
			<acc value="0.013180267149984" flag="0"/>
			<vel value="0.00982058265" flag="0"/>
			<psa03 value="0.0323236126348609" flag="0"/>
			<psa10 value="0.0153753407283726" flag="0"/>
			<psa30 value="0.00189708463088162" flag="0"/>
		</comp>
		<comp name="--.HNZ" depth="0.0">
			<acc value="0.010274440994646" flag="0"/>
			<vel value="0.00745708423437" flag="0"/>
			<psa03 value="0.0175539297887924" flag="0"/>
			<psa10 value="0.0135672081359491" flag="0"/>
			<psa30 value="0.000936284732600772" flag="0"/>
		</comp>
	</station>
	<station code="AIG2" name="AIG2" netid="HI" source="ITSAK Strong Motion Network" insttype="" lat="38.2417" lon="22.0726">
		<comp name="--.HNE" depth="0.0">
			<acc value="0.0023086686974046" flag="0"/>
			<vel value="0.00229214931024" flag="0"/>
			<psa03 value="0.00422639944436493" flag="0"/>
			<psa10 value="0.00210243076009297" flag="0"/>
			<psa30 value="0.000541264293602048" flag="0"/>
		</comp>
		<comp name="--.HNN" depth="0.0">
			<acc value="0.0026589639682062" flag="0"/>
			<vel value="0.00212508546808" flag="0"/>
			<psa03 value="0.00543828864537026" flag="0"/>
			<psa10 value="0.00535149904180225" flag="0"/>
			<psa30 value="0.000558957392768702" flag="0"/>
		</comp>
		<comp name="--.HNZ" depth="0.0">
			<acc value="0.002272242526173" flag="0"/>
			<vel value="0.00131031702121" flag="0"/>
			<psa03 value="0.00281403732761876" flag="0"/>
			<psa10 value="0.0030286040676552" flag="0"/>
			<psa30 value="0.000362216104414035" flag="0"/>
		</comp>
	</station>
	<station code="AKR1" name="AKR1" netid="HI" source="ITSAK Strong Motion Network" insttype="" lat="38.153583" lon="22.31326">
		<comp name="--.HNE" depth="0.0">
			<acc value="0.0026376584284446" flag="0"/>
			<vel value="0.00247349683821" flag="0"/>
			<psa03 value="0.00826546681743453" flag="0"/>
			<psa10 value="0.00340875315691895" flag="0"/>
			<psa30 value="0.000257480937056906" flag="0"/>
		</comp>
		<comp name="--.HNN" depth="0.0">
			<acc value="0.0026672785938516" flag="0"/>
			<vel value="0.00204420175154" flag="0"/>
			<psa03 value="0.00874658462662053" flag="0"/>
			<psa10 value="0.00293537945448386" flag="0"/>
			<psa30 value="0.000318349057812669" flag="0"/>
		</comp>
		<comp name="--.HNZ" depth="0.0">
			<acc value="0.0014745791278014" flag="0"/>
			<vel value="0.00128813607229" flag="0"/>
			<psa03 value="0.00395485476315498" flag="0"/>
			<psa10 value="0.00354881415402067" flag="0"/>
			<psa30 value="0.000218847961144884" flag="0"/>
		</comp>
	</station>
	<station code="AOL1" name="AOL1" netid="HI" source="ITSAK Strong Motion Network" insttype="" lat="37.642378" lon="21.624555">
		<comp name="--.HNE" depth="0.0">
			<acc value="0.0094457798330862" flag="0"/>
			<vel value="0.00665994188634" flag="0"/>
			<psa03 value="0.0223506837481291" flag="0"/>
			<psa10 value="0.00839274004032805" flag="0"/>
			<psa30 value="0.000700940027586529" flag="0"/>
		</comp>
		<comp name="--.HNN" depth="0.0">
			<acc value="0.0089333627420952" flag="0"/>
			<vel value="0.00562643705865" flag="0"/>
			<psa03 value="0.0216556455177396" flag="0"/>
			<psa10 value="0.00907985680844789" flag="0"/>
			<psa30 value="0.00134390267279068" flag="0"/>
		</comp>
		<comp name="--.HNZ" depth="0.0">
			<acc value="0.006398270384346" flag="0"/>
			<vel value="0.0030573842675" flag="0"/>
			<psa03 value="0.0196540233367417" flag="0"/>
			<psa10 value="0.00546714170255758" flag="0"/>
			<psa30 value="0.000348921317449679" flag="0"/>
		</comp>
	</station>
	<station code="ARG2" name="ARG2" netid="HI" source="ITSAK Strong Motion Network" insttype="" lat="38.1783" lon="20.4878">
		<comp name="--.HNE" depth="0.0">
			<acc value="0.21670429749342" flag="0"/>
			<vel value="0.0496654968704" flag="0"/>
			<psa03 value="0.239164322629327" flag="0"/>
			<psa10 value="0.0293534513970889" flag="0"/>
			<psa30 value="0.00204777982202932" flag="0"/>
		</comp>
		<comp name="--.HNN" depth="0.0">
			<acc value="0.27137466390018" flag="0"/>
			<vel value="0.0794558310273" flag="0"/>
			<psa03 value="0.209695370455812" flag="0"/>
			<psa10 value="0.0504479594296266" flag="0"/>
			<psa30 value="0.00269688303026318" flag="0"/>
		</comp>
		<comp name="--.HNZ" depth="0.0">
			<acc value="0.16008162769602" flag="0"/>
			<vel value="0.0300984925218" flag="0"/>
			<psa03 value="0.156536130167163" flag="0"/>
			<psa10 value="0.0170937261254572" flag="0"/>
			<psa30 value="0.00181171751739376" flag="0"/>
		</comp>
	</station>
	<station code="ARS1" name="ARS1" netid="HI" source="ITSAK Strong Motion Network" insttype="" lat="37.6349" lon="22.7293">
		<comp name="--.HNE" depth="0.0">
			<acc value="0.0031102608529914" flag="0"/>
			<vel value="0.00181214812451" flag="0"/>
			<psa03 value="0.00506549865036191" flag="0"/>
			<psa10 value="0.00228667788743758" flag="0"/>
			<psa30 value="0.000339952389968927" flag="0"/>
		</comp>
		<comp name="--.HNN" depth="0.0">
			<acc value="0.0034220941899474" flag="0"/>
			<vel value="0.00262172589883" flag="0"/>
			<psa03 value="0.00808743288813821" flag="0"/>
			<psa10 value="0.00366749053137305" flag="0"/>
			<psa30 value="0.000461613496296902" flag="0"/>
		</comp>
		<comp name="--.HNZ" depth="0.0">
			<acc value="0.0038277905318508" flag="0"/>
			<vel value="0.000810672113405" flag="0"/>
			<psa03 value="0.00300605427957131" flag="0"/>
			<psa10 value="0.00108282212227607" flag="0"/>
			<psa30 value="0.000265179650183737" flag="0"/>
		</comp>
	</station>
	<station code="ART2" name="ART2" netid="HI" source="ITSAK Strong Motion Network" insttype="" lat="39.1474" lon="20.9937">
		<comp name="--.HNE" depth="0.0">
			<acc value="0.0027040705052184" flag="0"/>
			<vel value="0.00231502328048" flag="0"/>
			<psa03 value="0.0041392468610418" flag="0"/>
			<psa10 value="0.00295101799045952" flag="0"/>
			<psa30 value="0.000334214822383468" flag="0"/>
		</comp>
		<comp name="--.HNN" depth="0.0">
			<acc value="0.0028492315832664" flag="0"/>
			<vel value="0.00197889465902" flag="0"/>
			<psa03 value="0.0041801633085324" flag="0"/>
			<psa10 value="0.00350764814572559" flag="0"/>
			<psa30 value="0.000298871048740227" flag="0"/>
		</comp>
		<comp name="--.HNZ" depth="0.0">
			<acc value="0.001878516017808" flag="0"/>
			<vel value="0.00174537358406" flag="0"/>
			<psa03 value="0.00345697640355463" flag="0"/>
			<psa10 value="0.00227372617007525" flag="0"/>
			<psa30 value="0.000383681120116338" flag="0"/>
		</comp>
	</station>
	<station code="AST1" name="AST1" netid="HI" source="ITSAK Strong Motion Network" insttype="" lat="38.5416" lon="21.0895">
		<comp name="--.HNE" depth="0.0">
			<acc value="0.014273030229534" flag="0"/>
			<vel value="0.00480138024983" flag="0"/>
			<psa03 value="0.0188115912276581" flag="0"/>
			<psa10 value="0.00632833375228665" flag="0"/>
			<psa30 value="0.000795134757107092" flag="0"/>
		</comp>
		<comp name="--.HNN" depth="0.0">
			<acc value="0.010803823941426" flag="0"/>
			<vel value="0.00874207655948" flag="0"/>
			<psa03 value="0.0227285968038256" flag="0"/>
			<psa10 value="0.00557468851449442" flag="0"/>
			<psa30 value="0.000997324088657693" flag="0"/>
		</comp>
		<comp name="--.HNZ" depth="0.0">
			<acc value="0.0094331204663184" flag="0"/>
			<vel value="0.00548280670075" flag="0"/>
			<psa03 value="0.0171688482894566" flag="0"/>
			<psa10 value="0.00912567734384697" flag="0"/>
			<psa30 value="0.000519830321622544" flag="0"/>
		</comp>
	</station>
	<station code="JAN2" name="JAN2" netid="HI" source="ITSAK Strong Motion Network" insttype="" lat="39.664" lon="20.85222">
		<comp name="--.HNE" depth="0.0">
			<acc value="0.0038860599280818" flag="0"/>
			<vel value="0.00236125604283" flag="0"/>
			<psa03 value="0.014738508905954" flag="0"/>
			<psa10 value="0.00482791841964701" flag="0"/>
			<psa30 value="0.000265680646913982" flag="0"/>
		</comp>
		<comp name="--.HNN" depth="0.0">
			<acc value="0.0045981460508778" flag="0"/>
			<vel value="0.00216836455132" flag="0"/>
			<psa03 value="0.0170158902400595" flag="0"/>
			<psa10 value="0.00224772476010725" flag="0"/>
			<psa30 value="0.000253207242486941" flag="0"/>
		</comp>
		<comp name="--.HNZ" depth="0.0">
			<acc value="0.0065866792334346" flag="0"/>
			<vel value="0.00134912942599" flag="0"/>
			<psa03 value="0.00270524333669916" flag="0"/>
			<psa10 value="0.00296127093529044" flag="0"/>
			<psa30 value="0.000177459503217187" flag="0"/>
		</comp>
	</station>
	<station code="KAC1" name="KAC1" netid="HI" source="ITSAK Strong Motion Network" insttype="" lat="38.143412" lon="21.549694">
		<comp name="--.HNE" depth="0.0">
			<acc value="0.010123746277572" flag="0"/>
			<vel value="0.00926538177783" flag="0"/>
			<psa03 value="0.0312609432798896" flag="0"/>
			<psa10 value="0.0134402500380946" flag="0"/>
			<psa30 value="0.00112909906810613" flag="0"/>
		</comp>
		<comp name="--.HNN" depth="0.0">
			<acc value="0.011422150148094" flag="0"/>
			<vel value="0.0115977831237" flag="0"/>
			<psa03 value="0.0336959926107856" flag="0"/>
			<psa10 value="0.0134595122516464" flag="0"/>
			<psa30 value="0.00140110250366598" flag="0"/>
		</comp>
		<comp name="--.HNZ" depth="0.0">
			<acc value="0.0053024613036534" flag="0"/>
			<vel value="0.00335088789474" flag="0"/>
			<psa03 value="0.0124460679804849" flag="0"/>
			<psa10 value="0.00544996650228927" flag="0"/>
			<psa30 value="0.000768905311203052" flag="0"/>
		</comp>
	</station>
	<station code="KAR2" name="KAR2" netid="HI" source="ITSAK Strong Motion Network" insttype="" lat="39.365759" lon="21.91933">
		<comp name="--.HNE" depth="0.0">
			<acc value="0.003545058248193" flag="0"/>
			<vel value="0.00371222635901" flag="0"/>
			<psa03 value="0.00574058796807182" flag="0"/>
			<psa10 value="0.00516964058829894" flag="0"/>
			<psa30 value="0.00171154650655743" flag="0"/>
		</comp>
		<comp name="--.HNN" depth="0.0">
			<acc value="0.0043937281537566" flag="0"/>
			<vel value="0.00281100753276" flag="0"/>
			<psa03 value="0.00607639471884014" flag="0"/>
			<psa10 value="0.00557406456692445" flag="0"/>
			<psa30 value="0.00109162596069393" flag="0"/>
		</comp>
		<comp name="--.HNZ" depth="0.0">
			<acc value="0.026593248321396" flag="0"/>
			<vel value="0.00281924403855" flag="0"/>
			<psa03 value="0.00342501106986206" flag="0"/>
			<psa10 value="0.00293566330141085" flag="0"/>
			<psa30 value="0.00038374729637502" flag="0"/>
		</comp>
	</station>
	<station code="KLV1" name="KLV1" netid="HI" source="ITSAK Strong Motion Network" insttype="" lat="38.03256" lon="22.10797">
		<comp name="--.HNE" depth="0.0">
			<acc value="0.0048286718683866" flag="0"/>
			<vel value="0.0039680502795" flag="0"/>
			<psa03 value="0.0103066137521766" flag="0"/>
			<psa10 value="0.00745438241001044" flag="0"/>
			<psa30 value="0.000314351709674768" flag="0"/>
		</comp>
		<comp name="--.HNN" depth="0.0">
			<acc value="0.003543618113406" flag="0"/>
			<vel value="0.00287454234409" flag="0"/>
			<psa03 value="0.0085107089750125" flag="0"/>
			<psa10 value="0.00614485894174651" flag="0"/>
			<psa30 value="0.000403605044145052" flag="0"/>
		</comp>
		<comp name="--.HNZ" depth="0.0">
			<acc value="0.0057936336097038" flag="0"/>
			<vel value="0.00166284757496" flag="0"/>
			<psa03 value="0.00368095022509729" flag="0"/>
			<psa10 value="0.00339606231621102" flag="0"/>
			<psa30 value="0.000235170552853201" flag="0"/>
		</comp>
	</station>
	<station code="KRK1" name="KRK1" netid="HI" source="ITSAK Strong Motion Network" insttype="" lat="39.618861" lon="19.9202">
		<comp name="--.HNE" depth="0.0">
			<acc value="0.011870946223134" flag="0"/>
			<vel value="0.0055007513924" flag="0"/>
			<psa03 value="0.0305417654295805" flag="0"/>
			<psa10 value="0.00311334139983856" flag="0"/>
			<psa30 value="0.000578133819362954" flag="0"/>
		</comp>
		<comp name="--.HNN" depth="0.0">
			<acc value="0.013903086447078" flag="0"/>
			<vel value="0.00775390728361" flag="0"/>
			<psa03 value="0.0251309799082372" flag="0"/>
			<psa10 value="0.00584343366131741" flag="0"/>
			<psa30 value="0.000353849456414997" flag="0"/>
		</comp>
		<comp name="--.HNZ" depth="0.0">
			<acc value="0.0078397536528498" flag="0"/>
			<vel value="0.00223836362624" flag="0"/>
			<psa03 value="0.0122605804324468" flag="0"/>
			<psa10 value="0.00153276028784861" flag="0"/>
			<psa30 value="0.000268143231923155" flag="0"/>
		</comp>
	</station>
	<station code="KYP2" name="KYP2" netid="HI" source="ITSAK Strong Motion Network" insttype="" lat="37.2497" lon="21.667">
		<comp name="--.HNE" depth="0.0">
			<acc value="0.0062496567973542" flag="0"/>
			<vel value="0.00163610967293" flag="0"/>
			<psa03 value="0.00703525185820151" flag="0"/>
			<psa10 value="0.00165327838876612" flag="0"/>
			<psa30 value="0.000153851858597445" flag="0"/>
		</comp>
		<comp name="--.HNN" depth="0.0">
			<acc value="0.0046267454387592" flag="0"/>
			<vel value="0.00159595395005" flag="0"/>
			<psa03 value="0.00714474478865616" flag="0"/>
			<psa10 value="0.00223299847206645" flag="0"/>
			<psa30 value="0.000245146760602926" flag="0"/>
		</comp>
		<comp name="--.HNZ" depth="0.0">
			<acc value="0.011345855260608" flag="0"/>
			<vel value="0.0012168156072" flag="0"/>
			<psa03 value="0.00558530619705141" flag="0"/>
			<psa10 value="0.00209532708638568" flag="0"/>
			<psa30 value="0.000183898614672383" flag="0"/>
		</comp>
	</station>
	<station code="LAM2" name="LAM2" netid="HI" source="ITSAK Strong Motion Network" insttype="" lat="38.90203" lon="22.431301">
		<comp name="--.HNE" depth="0.0">
			<acc value="0.0024767213337162" flag="0"/>
			<vel value="0.0010697213214" flag="0"/>
			<psa03 value="0.00151687164415628" flag="0"/>
			<psa10 value="0.00171585819843607" flag="0"/>
			<psa30 value="0.000242512341294224" flag="0"/>
		</comp>
		<comp name="--.HNN" depth="0.0">
			<acc value="0.0018593103599004" flag="0"/>
			<vel value="0.000970348382873" flag="0"/>
			<psa03 value="0.00176148208668007" flag="0"/>
			<psa10 value="0.00117694843580752" flag="0"/>
			<psa30 value="0.00036777105573599" flag="0"/>
		</comp>
		<comp name="--.HNZ" depth="0.0">
			<acc value="0.0072203805778926" flag="0"/>
			<vel value="0.000901366270043" flag="0"/>
			<psa03 value="0.00133148892075044" flag="0"/>
			<psa10 value="0.000946719278004151" flag="0"/>
			<psa30 value="0.000271407432535466" flag="0"/>
		</comp>
	</station>
	<station code="LEF2" name="LEF2" netid="HI" source="ITSAK Strong Motion Network" insttype="" lat="38.830093" lon="20.708346">
		<comp name="--.HNE" depth="0.0">
			<acc value="0.018342514648776" flag="0"/>
			<vel value="0.0136900409932" flag="0"/>
			<psa03 value="0.0583945766875912" flag="0"/>
			<psa10 value="0.0139931894801462" flag="0"/>
			<psa30 value="0.0015089816292956" flag="0"/>
		</comp>
		<comp name="--.HNN" depth="0.0">
			<acc value="0.019547175869628" flag="0"/>
			<vel value="0.0141496560065" flag="0"/>
			<psa03 value="0.0453951947089381" flag="0"/>
			<psa10 value="0.0270520345645409" flag="0"/>
			<psa30 value="0.00120896550469973" flag="0"/>
		</comp>
		<comp name="--.HNZ" depth="0.0">
			<acc value="0.01083492352896" flag="0"/>
			<vel value="0.00972717904565" flag="0"/>
			<psa03 value="0.0254513058157845" flag="0"/>
			<psa10 value="0.0175830154134865" flag="0"/>
			<psa30 value="0.000819499860759465" flag="0"/>
		</comp>
	</station>
	<station code="LXR2" name="LXR2" netid="HI" source="ITSAK Strong Motion Network" insttype="" lat="38.206718" lon="20.436386">
		<comp name="--.HNE" depth="0.0">
			<acc value="0.14779810556082" flag="0"/>
			<vel value="0.0787326574016" flag="0"/>
			<psa03 value="0.24242874721486" flag="0"/>
			<psa10 value="0.0593930707494087" flag="0"/>
			<psa30 value="0.0055353491896981" flag="0"/>
		</comp>
		<comp name="--.HNN" depth="0.0">
			<acc value="0.3025086503487" flag="0"/>
			<vel value="0.121735105365" flag="0"/>
			<psa03 value="0.363737095797608" flag="0"/>
			<psa10 value="0.0492500738258693" flag="0"/>
			<psa30 value="0.0054678868039829" flag="0"/>
		</comp>
		<comp name="--.HNZ" depth="0.0">
			<acc value="0.23486189465736" flag="0"/>
			<vel value="0.0362247029374" flag="0"/>
			<psa03 value="0.143738490719405" flag="0"/>
			<psa10 value="0.0229383364272302" flag="0"/>
			<psa30 value="0.00222217720833202" flag="0"/>
		</comp>
	</station>
	<station code="MSL1" name="MSL1" netid="HI" source="ITSAK Strong Motion Network" insttype="" lat="38.3727" lon="21.4243">
		<comp name="--.HNE" depth="0.0">
			<acc value="0.01268319828597" flag="0"/>
			<vel value="0.011128156805" flag="0"/>
			<psa03 value="0.0325976542262884" flag="0"/>
			<psa10 value="0.0277272424187363" flag="0"/>
			<psa30 value="0.00142895007759734" flag="0"/>
		</comp>
		<comp name="--.HNN" depth="0.0">
			<acc value="0.01937465390868" flag="0"/>
			<vel value="0.0168260037212" flag="0"/>
			<psa03 value="0.0369050984274861" flag="0"/>
			<psa10 value="0.0407911409628203" flag="0"/>
			<psa30 value="0.00172295882506621" flag="0"/>
		</comp>
		<comp name="--.HNZ" depth="0.0">
			<acc value="0.01509980633961" flag="0"/>
			<vel value="0.00646006332342" flag="0"/>
			<psa03 value="0.0138067075953528" flag="0"/>
			<psa10 value="0.014198299942699" flag="0"/>
			<psa30 value="0.000507245737958306" flag="0"/>
		</comp>
	</station>
	<station code="NMA1" name="NMA1" netid="HI" source="ITSAK Strong Motion Network" insttype="" lat="37.81873" lon="22.662702">
		<comp name="--.HNE" depth="0.0">
			<acc value="0.0023239942623786" flag="0"/>
			<vel value="0.00172777461816" flag="0"/>
			<psa03 value="0.0050071038314691" flag="0"/>
