<stationlist created="1779846976">
	<station code="MALA" name="MALA" netid="CL" source="Corinth Riff Laboratory (CRLNET)" insttype="" lat="38.39341" lon="21.87263">
		<comp name="01.HNE" depth="0.0">
			<acc value="0.00635636152176516" flag="0"/>
			<vel value="0.00692478313570236" flag="0"/>
			<psa03 value="0.0119981541938274" flag="0"/>
			<psa10 value="0.0169545056527739" flag="0"/>
			<psa30 value="0.000712092068437946" flag="0"/>
		</comp>
		<comp name="01.HNN" depth="0.0">
			<acc value="0.00538983864769343" flag="0"/>
			<vel value="0.0057665103755522" flag="0"/>
			<psa03 value="0.0132900561822624" flag="0"/>
			<psa10 value="0.0143808254715906" flag="0"/>
			<psa30 value="0.00117542869971443" flag="0"/>
		</comp>
		<comp name="01.HNZ" depth="0.0">
			<acc value="0.00511224416650175" flag="0"/>
			<vel value="0.00222989696552757" flag="0"/>
			<psa03 value="0.00489245463494235" flag="0"/>
			<psa10 value="0.00338155635526074" flag="0"/>
			<psa30 value="0.000277720246561845" flag="0"/>
		</comp>
	</station>
	<station code="KIAS" name="KIAS" netid="HA" source="Hellenic Seismological Network, University of Athens, Seismological Laboratory (HA)" insttype="" lat="37.9875" lon="22.7543">
		<comp name="--.HNE" depth="0.0">
			<acc value="0.0033219466294645" flag="0"/>
			<vel value="0.00255917227014422" flag="0"/>
			<psa03 value="0.00566679336599539" flag="0"/>
			<psa10 value="0.00622867980694899" flag="0"/>
			<psa30 value="0.000972953203372639" flag="0"/>
		</comp>
		<comp name="--.HNN" depth="0.0">
			<acc value="0.00324153963150379" flag="0"/>
			<vel value="0.00252812487473867" flag="0"/>
			<psa03 value="0.00466722519636785" flag="0"/>
			<psa10 value="0.00327172001664515" flag="0"/>
			<psa30 value="0.000966862279047161" flag="0"/>
		</comp>
		<comp name="--.HNZ" depth="0.0">
			<acc value="0.00325764069593154" flag="0"/>
			<vel value="0.00176538876704512" flag="0"/>
			<psa03 value="0.00328761069171913" flag="0"/>
			<psa10 value="0.00358872523543514" flag="0"/>
			<psa30 value="0.00051709675512266" flag="0"/>
		</comp>
	</station>
	<station code="AGR3" name="AGR3" netid="HI" source="ITSAK Strong Motion Network" insttype="" lat="38.5893" lon="21.4162">
		<comp name="--.HNE" depth="0.0">
			<acc value="0.0144640560793035" flag="0"/>
			<vel value="0.0139460369930923" flag="0"/>
			<psa03 value="0.0344683328370425" flag="0"/>
			<psa10 value="0.0300063940263445" flag="0"/>
			<psa30 value="0.00209681515371137" flag="0"/>
		</comp>
		<comp name="--.HNN" depth="0.0">
			<acc value="0.0130839662070799" flag="0"/>
			<vel value="0.00985218450240956" flag="0"/>
			<psa03 value="0.0323236126348609" flag="0"/>
			<psa10 value="0.0153753407283726" flag="0"/>
			<psa30 value="0.00189708463088162" flag="0"/>
		</comp>
		<comp name="--.HNZ" depth="0.0">
			<acc value="0.00912907816898087" flag="0"/>
			<vel value="0.00744307435566437" flag="0"/>
			<psa03 value="0.0175539297887924" flag="0"/>
			<psa10 value="0.0135672081359491" flag="0"/>
			<psa30 value="0.000936284732600772" flag="0"/>
		</comp>
	</station>
	<station code="AIG2" name="AIG2" netid="HI" source="ITSAK Strong Motion Network" insttype="" lat="38.2417" lon="22.0726">
		<comp name="--.HNE" depth="0.0">
			<acc value="0.00233881461301947" flag="0"/>
			<vel value="0.00227395621193238" flag="0"/>
			<psa03 value="0.00422639944436493" flag="0"/>
			<psa10 value="0.00210243076009297" flag="0"/>
			<psa30 value="0.000541264293602048" flag="0"/>
		</comp>
		<comp name="--.HNN" depth="0.0">
			<acc value="0.00269186972411079" flag="0"/>
			<vel value="0.00211600655403159" flag="0"/>
			<psa03 value="0.00543828864537026" flag="0"/>
			<psa10 value="0.00535149904180225" flag="0"/>
			<psa30 value="0.000558957392768702" flag="0"/>
		</comp>
		<comp name="--.HNZ" depth="0.0">
			<acc value="0.00231860583076483" flag="0"/>
			<vel value="0.00130307190654602" flag="0"/>
			<psa03 value="0.00281403732761876" flag="0"/>
			<psa10 value="0.0030286040676552" flag="0"/>
			<psa30 value="0.000362216104414035" flag="0"/>
		</comp>
	</station>
	<station code="AKR1" name="AKR1" netid="HI" source="ITSAK Strong Motion Network" insttype="" lat="38.153583" lon="22.31326">
		<comp name="--.HNE" depth="0.0">
			<acc value="0.00252539307721512" flag="0"/>
			<vel value="0.00246969013233735" flag="0"/>
			<psa03 value="0.00826546681743453" flag="0"/>
			<psa10 value="0.00340875315691895" flag="0"/>
			<psa30 value="0.000257480937056906" flag="0"/>
		</comp>
		<comp name="--.HNN" depth="0.0">
			<acc value="0.00260927229962126" flag="0"/>
			<vel value="0.0020366908952848" flag="0"/>
			<psa03 value="0.00874658462662053" flag="0"/>
			<psa10 value="0.00293537945448386" flag="0"/>
			<psa30 value="0.000318349057812669" flag="0"/>
		</comp>
		<comp name="--.HNZ" depth="0.0">
			<acc value="0.00146461208369738" flag="0"/>
			<vel value="0.00127526834312218" flag="0"/>
			<psa03 value="0.00395485476315498" flag="0"/>
			<psa10 value="0.00354881415402067" flag="0"/>
			<psa30 value="0.000218847961144884" flag="0"/>
		</comp>
	</station>
	<station code="AOL1" name="AOL1" netid="HI" source="ITSAK Strong Motion Network" insttype="" lat="37.642378" lon="21.624555">
		<comp name="--.HNE" depth="0.0">
			<acc value="0.00941615575559842" flag="0"/>
			<vel value="0.00665575210752575" flag="0"/>
			<psa03 value="0.0223506837481291" flag="0"/>
			<psa10 value="0.00839274004032805" flag="0"/>
			<psa30 value="0.000700940027586529" flag="0"/>
		</comp>
		<comp name="--.HNN" depth="0.0">
			<acc value="0.00882518265675581" flag="0"/>
			<vel value="0.00562763420188654" flag="0"/>
			<psa03 value="0.0216556455177396" flag="0"/>
			<psa10 value="0.00907985680844789" flag="0"/>
			<psa30 value="0.00134390267279068" flag="0"/>
		</comp>
		<comp name="--.HNZ" depth="0.0">
			<acc value="0.00619692552003848" flag="0"/>
			<vel value="0.00304911454963947" flag="0"/>
			<psa03 value="0.0196540233367417" flag="0"/>
			<psa10 value="0.00546714170255758" flag="0"/>
			<psa30 value="0.000348921317449679" flag="0"/>
		</comp>
	</station>
	<station code="ARG2" name="ARG2" netid="HI" source="ITSAK Strong Motion Network" insttype="" lat="38.1783" lon="20.4878">
		<comp name="--.HNE" depth="0.0">
			<acc value="0.218862226450612" flag="0"/>
			<vel value="0.0500483422692337" flag="0"/>
			<psa03 value="0.239164322629327" flag="0"/>
			<psa10 value="0.0293534513970889" flag="0"/>
			<psa30 value="0.00204777982202932" flag="0"/>
		</comp>
		<comp name="--.HNN" depth="0.0">
			<acc value="0.274042683516692" flag="0"/>
			<vel value="0.0804415245907096" flag="0"/>
			<psa03 value="0.209695370455812" flag="0"/>
			<psa10 value="0.0504479594296266" flag="0"/>
			<psa30 value="0.00269688303026318" flag="0"/>
		</comp>
		<comp name="--.HNZ" depth="0.0">
			<acc value="0.162752291504423" flag="0"/>
			<vel value="0.0304100941940349" flag="0"/>
			<psa03 value="0.156536130167163" flag="0"/>
			<psa10 value="0.0170937261254572" flag="0"/>
			<psa30 value="0.00181171751739376" flag="0"/>
		</comp>
	</station>
	<station code="ARS1" name="ARS1" netid="HI" source="ITSAK Strong Motion Network" insttype="" lat="37.6349" lon="22.7293">
		<comp name="--.HNE" depth="0.0">
			<acc value="0.00376817704030494" flag="0"/>
			<vel value="0.0018074304932377" flag="0"/>
			<psa03 value="0.00506549865036191" flag="0"/>
			<psa10 value="0.00228667788743758" flag="0"/>
			<psa30 value="0.000339952389968927" flag="0"/>
		</comp>
		<comp name="--.HNN" depth="0.0">
			<acc value="0.00476850115657805" flag="0"/>
			<vel value="0.00261662916986733" flag="0"/>
			<psa03 value="0.00808743288813821" flag="0"/>
			<psa10 value="0.00366749053137305" flag="0"/>
			<psa30 value="0.000461613496296902" flag="0"/>
		</comp>
		<comp name="--.HNZ" depth="0.0">
			<acc value="0.00539522404442672" flag="0"/>
			<vel value="0.000806697898197273" flag="0"/>
			<psa03 value="0.00300605427957131" flag="0"/>
			<psa10 value="0.00108282212227607" flag="0"/>
			<psa30 value="0.000265179650183737" flag="0"/>
		</comp>
	</station>
	<station code="ART2" name="ART2" netid="HI" source="ITSAK Strong Motion Network" insttype="" lat="39.1474" lon="20.9937">
		<comp name="--.HNE" depth="0.0">
			<acc value="0.00273984942598705" flag="0"/>
			<vel value="0.00222365261398128" flag="0"/>
			<psa03 value="0.0041392468610418" flag="0"/>
			<psa10 value="0.00295101799045952" flag="0"/>
			<psa30 value="0.000334214822383468" flag="0"/>
		</comp>
		<comp name="--.HNN" depth="0.0">
			<acc value="0.00286913571480594" flag="0"/>
			<vel value="0.00197240982111161" flag="0"/>
			<psa03 value="0.0041801633085324" flag="0"/>
			<psa10 value="0.00350764814572559" flag="0"/>
			<psa30 value="0.000298871048740227" flag="0"/>
		</comp>
		<comp name="--.HNZ" depth="0.0">
			<acc value="0.00189260223822512" flag="0"/>
			<vel value="0.00173783931587757" flag="0"/>
			<psa03 value="0.00345697640355463" flag="0"/>
			<psa10 value="0.00227372617007525" flag="0"/>
			<psa30 value="0.000383681120116338" flag="0"/>
		</comp>
	</station>
	<station code="AST1" name="AST1" netid="HI" source="ITSAK Strong Motion Network" insttype="" lat="38.5416" lon="21.0895">
		<comp name="--.HNE" depth="0.0">
			<acc value="0.0142488649430612" flag="0"/>
			<vel value="0.00479824423660336" flag="0"/>
			<psa03 value="0.0188115912276581" flag="0"/>
			<psa10 value="0.00632833375228665" flag="0"/>
			<psa30 value="0.000795134757107092" flag="0"/>
		</comp>
		<comp name="--.HNN" depth="0.0">
			<acc value="0.010880213636965" flag="0"/>
			<vel value="0.00875696051927072" flag="0"/>
			<psa03 value="0.0227285968038256" flag="0"/>
			<psa10 value="0.00557468851449442" flag="0"/>
			<psa30 value="0.000997324088657693" flag="0"/>
		</comp>
		<comp name="--.HNZ" depth="0.0">
			<acc value="0.00933584494535631" flag="0"/>
			<vel value="0.00549958043468243" flag="0"/>
			<psa03 value="0.0171688482894566" flag="0"/>
			<psa10 value="0.00912567734384697" flag="0"/>
			<psa30 value="0.000519830321622544" flag="0"/>
		</comp>
	</station>
	<station code="JAN2" name="JAN2" netid="HI" source="ITSAK Strong Motion Network" insttype="" lat="39.664" lon="20.85222">
		<comp name="--.HNE" depth="0.0">
			<acc value="0.00389736378685921" flag="0"/>
			<vel value="0.00233583201596334" flag="0"/>
			<psa03 value="0.014738508905954" flag="0"/>
			<psa10 value="0.00482791841964701" flag="0"/>
			<psa30 value="0.000265680646913982" flag="0"/>
		</comp>
		<comp name="--.HNN" depth="0.0">
			<acc value="0.00462449363168564" flag="0"/>
			<vel value="0.00217760242346717" flag="0"/>
			<psa03 value="0.0170158902400595" flag="0"/>
			<psa10 value="0.00224772476010725" flag="0"/>
			<psa30 value="0.000253207242486941" flag="0"/>
		</comp>
		<comp name="--.HNZ" depth="0.0">
			<acc value="0.00672682293391371" flag="0"/>
			<vel value="0.00136986961042793" flag="0"/>
			<psa03 value="0.00270524333669916" flag="0"/>
			<psa10 value="0.00296127093529044" flag="0"/>
			<psa30 value="0.000177459503217187" flag="0"/>
		</comp>
	</station>
	<station code="KAC1" name="KAC1" netid="HI" source="ITSAK Strong Motion Network" insttype="" lat="38.143412" lon="21.549694">
		<comp name="--.HNE" depth="0.0">
			<acc value="0.0101245329804066" flag="0"/>
			<vel value="0.00932267415502781" flag="0"/>
			<psa03 value="0.0312609432798896" flag="0"/>
			<psa10 value="0.0134402500380946" flag="0"/>
			<psa30 value="0.00112909906810613" flag="0"/>
		</comp>
		<comp name="--.HNN" depth="0.0">
			<acc value="0.0114102941188617" flag="0"/>
			<vel value="0.011598363162668" flag="0"/>
			<psa03 value="0.0336959926107856" flag="0"/>
			<psa10 value="0.0134595122516464" flag="0"/>
			<psa30 value="0.00140110250366598" flag="0"/>
		</comp>
		<comp name="--.HNZ" depth="0.0">
			<acc value="0.00487946050409087" flag="0"/>
			<vel value="0.00334920532328617" flag="0"/>
			<psa03 value="0.0124460679804849" flag="0"/>
			<psa10 value="0.00544996650228927" flag="0"/>
			<psa30 value="0.000768905311203052" flag="0"/>
		</comp>
	</station>
	<station code="KAR2" name="KAR2" netid="HI" source="ITSAK Strong Motion Network" insttype="" lat="39.365759" lon="21.91933">
		<comp name="--.HNE" depth="0.0">
			<acc value="0.00491265519592636" flag="0"/>
			<vel value="0.00366661716437688" flag="0"/>
			<psa03 value="0.00574058796807182" flag="0"/>
			<psa10 value="0.00516964058829894" flag="0"/>
			<psa30 value="0.00171154650655743" flag="0"/>
		</comp>
		<comp name="--.HNN" depth="0.0">
			<acc value="0.00456616065152468" flag="0"/>
			<vel value="0.00283696365803298" flag="0"/>
			<psa03 value="0.00607639471884014" flag="0"/>
			<psa10 value="0.00557406456692445" flag="0"/>
			<psa30 value="0.00109162596069393" flag="0"/>
		</comp>
		<comp name="--.HNZ" depth="0.0">
			<acc value="0.0346664495327281" flag="0"/>
			<vel value="0.00375696006982852" flag="0"/>
			<psa03 value="0.00342501106986206" flag="0"/>
			<psa10 value="0.00293566330141085" flag="0"/>
			<psa30 value="0.00038374729637502" flag="0"/>
		</comp>
	</station>
	<station code="KLV1" name="KLV1" netid="HI" source="ITSAK Strong Motion Network" insttype="" lat="38.03256" lon="22.10797">
		<comp name="--.HNE" depth="0.0">
			<acc value="0.0048449002193926" flag="0"/>
			<vel value="0.00396855138298224" flag="0"/>
			<psa03 value="0.0103066137521766" flag="0"/>
			<psa10 value="0.00745438241001044" flag="0"/>
			<psa30 value="0.000314351709674768" flag="0"/>
		</comp>
		<comp name="--.HNN" depth="0.0">
			<acc value="0.00451274605455119" flag="0"/>
			<vel value="0.00285545305490161" flag="0"/>
			<psa03 value="0.0085107089750125" flag="0"/>
			<psa10 value="0.00614485894174651" flag="0"/>
			<psa30 value="0.000403605044145052" flag="0"/>
		</comp>
		<comp name="--.HNZ" depth="0.0">
			<acc value="0.00922105375118453" flag="0"/>
			<vel value="0.00173918125599778" flag="0"/>
			<psa03 value="0.00368095022509729" flag="0"/>
			<psa10 value="0.00339606231621102" flag="0"/>
			<psa30 value="0.000235170552853201" flag="0"/>
		</comp>
	</station>
	<station code="KRK1" name="KRK1" netid="HI" source="ITSAK Strong Motion Network" insttype="" lat="39.618861" lon="19.9202">
		<comp name="--.HNE" depth="0.0">
			<acc value="0.0113131603810165" flag="0"/>
			<vel value="0.00541920357076458" flag="0"/>
			<psa03 value="0.0305417654295805" flag="0"/>
			<psa10 value="0.00311334139983856" flag="0"/>
			<psa30 value="0.000578133819362954" flag="0"/>
		</comp>
		<comp name="--.HNN" depth="0.0">
			<acc value="0.0135197735431711" flag="0"/>
			<vel value="0.00766771821412668" flag="0"/>
			<psa03 value="0.0251309799082372" flag="0"/>
			<psa10 value="0.00584343366131741" flag="0"/>
			<psa30 value="0.000353849456414997" flag="0"/>
		</comp>
		<comp name="--.HNZ" depth="0.0">
			<acc value="0.0055981049873555" flag="0"/>
			<vel value="0.00216892941873466" flag="0"/>
			<psa03 value="0.0122605804324468" flag="0"/>
			<psa10 value="0.00153276028784861" flag="0"/>
			<psa30 value="0.000268143231923155" flag="0"/>
		</comp>
	</station>
	<station code="KYP2" name="KYP2" netid="HI" source="ITSAK Strong Motion Network" insttype="" lat="37.2497" lon="21.667">
		<comp name="--.HNE" depth="0.0">
			<acc value="0.00636510111700217" flag="0"/>
			<vel value="0.00164243485503377" flag="0"/>
			<psa03 value="0.00703525185820151" flag="0"/>
			<psa10 value="0.00165327838876612" flag="0"/>
			<psa30 value="0.000153851858597445" flag="0"/>
		</comp>
		<comp name="--.HNN" depth="0.0">
			<acc value="0.00462253361021594" flag="0"/>
			<vel value="0.00160631977852804" flag="0"/>
			<psa03 value="0.00714474478865616" flag="0"/>
			<psa10 value="0.00223299847206645" flag="0"/>
			<psa30 value="0.000245146760602926" flag="0"/>
		</comp>
		<comp name="--.HNZ" depth="0.0">
			<acc value="0.0116824454276417" flag="0"/>
			<vel value="0.00123357211054581" flag="0"/>
			<psa03 value="0.00558530619705141" flag="0"/>
			<psa10 value="0.00209532708638568" flag="0"/>
			<psa30 value="0.000183898614672383" flag="0"/>
		</comp>
	</station>
	<station code="LAM2" name="LAM2" netid="HI" source="ITSAK Strong Motion Network" insttype="" lat="38.90203" lon="22.431301">
		<comp name="--.HNE" depth="0.0">
			<acc value="0.00255042743312893" flag="0"/>
			<vel value="0.00104351767098139" flag="0"/>
			<psa03 value="0.00151687164415628" flag="0"/>
			<psa10 value="0.00171585819843607" flag="0"/>
			<psa30 value="0.000242512341294224" flag="0"/>
		</comp>
		<comp name="--.HNN" depth="0.0">
			<acc value="0.00254286064102117" flag="0"/>
			<vel value="0.000974008357830009" flag="0"/>
			<psa03 value="0.00176148208668007" flag="0"/>
			<psa10 value="0.00117694843580752" flag="0"/>
			<psa30 value="0.00036777105573599" flag="0"/>
		</comp>
		<comp name="--.HNZ" depth="0.0">
			<acc value="0.0075418710411673" flag="0"/>
			<vel value="0.000954155186493475" flag="0"/>
			<psa03 value="0.00133148892075044" flag="0"/>
			<psa10 value="0.000946719278004151" flag="0"/>
			<psa30 value="0.000271407432535466" flag="0"/>
		</comp>
	</station>
	<station code="LEF2" name="LEF2" netid="HI" source="ITSAK Strong Motion Network" insttype="" lat="38.830093" lon="20.708346">
		<comp name="--.HNE" depth="0.0">
			<acc value="0.018383493804566" flag="0"/>
			<vel value="0.0138777392552508" flag="0"/>
			<psa03 value="0.0583945766875912" flag="0"/>
			<psa10 value="0.0139931894801462" flag="0"/>
			<psa30 value="0.0015089816292956" flag="0"/>
		</comp>
		<comp name="--.HNN" depth="0.0">
			<acc value="0.0195881953192251" flag="0"/>
			<vel value="0.0142485092788254" flag="0"/>
			<psa03 value="0.0453951947089381" flag="0"/>
			<psa10 value="0.0270520345645409" flag="0"/>
			<psa30 value="0.00120896550469973" flag="0"/>
		</comp>
		<comp name="--.HNZ" depth="0.0">
			<acc value="0.0108276371436491" flag="0"/>
			<vel value="0.0096775253709674" flag="0"/>
			<psa03 value="0.0254513058157845" flag="0"/>
			<psa10 value="0.0175830154134865" flag="0"/>
			<psa30 value="0.000819499860759465" flag="0"/>
		</comp>
	</station>
	<station code="LXR2" name="LXR2" netid="HI" source="ITSAK Strong Motion Network" insttype="" lat="38.206718" lon="20.436386">
		<comp name="--.HNE" depth="0.0">
			<acc value="0.150263180427161" flag="0"/>
			<vel value="0.0791002084272728" flag="0"/>
			<psa03 value="0.24242874721486" flag="0"/>
			<psa10 value="0.0593930707494087" flag="0"/>
			<psa30 value="0.0055353491896981" flag="0"/>
		</comp>
		<comp name="--.HNN" depth="0.0">
			<acc value="0.307241546426861" flag="0"/>
			<vel value="0.122390599690726" flag="0"/>
			<psa03 value="0.363737095797608" flag="0"/>
			<psa10 value="0.0492500738258693" flag="0"/>
			<psa30 value="0.0054678868039829" flag="0"/>
		</comp>
		<comp name="--.HNZ" depth="0.0">
			<acc value="0.239684582519381" flag="0"/>
			<vel value="0.0366200190494795" flag="0"/>
			<psa03 value="0.143738490719405" flag="0"/>
			<psa10 value="0.0229383364272302" flag="0"/>
			<psa30 value="0.00222217720833202" flag="0"/>
		</comp>
	</station>
	<station code="MSL1" name="MSL1" netid="HI" source="ITSAK Strong Motion Network" insttype="" lat="38.3727" lon="21.4243">
		<comp name="--.HNE" depth="0.0">
			<acc value="0.0125499665253749" flag="0"/>
			<vel value="0.0110245275932487" flag="0"/>
			<psa03 value="0.0325976542262884" flag="0"/>
			<psa10 value="0.0277272424187363" flag="0"/>
			<psa30 value="0.00142895007759734" flag="0"/>
		</comp>
		<comp name="--.HNN" depth="0.0">
			<acc value="0.0192618882939424" flag="0"/>
			<vel value="0.0167820519689071" flag="0"/>
			<psa03 value="0.0369050984274861" flag="0"/>
			<psa10 value="0.0407911409628203" flag="0"/>
			<psa30 value="0.00172295882506621" flag="0"/>
		</comp>
		<comp name="--.HNZ" depth="0.0">
			<acc value="0.0074082660769071" flag="0"/>
			<vel value="0.00637713946790225" flag="0"/>
			<psa03 value="0.0138067075953528" flag="0"/>
			<psa10 value="0.014198299942699" flag="0"/>
			<psa30 value="0.000507245737958306" flag="0"/>
		</comp>
	</station>
