<?xml version="1.0" encoding="UTF-8" standalone="yes"?>
<!DOCTYPE earthquake SYSTEM "stationlist.dtd">
<stationlist created="" xmlns="ch.ethz.sed.shakemap.usgs.xml">
  <station code="ATHR" name="ATHR" netid="HA" insttype="GEOtiny," commtype="DIG" lat="38.3172" lon="20.4165">
    <comp name="--.HHE">
      <acc value="0.0265246450" flag="0"/>
      <vel value="0.0155008996" flag="0"/>
      <psa03 value="0.0648576493" flag="0"/>
      <psa10 value="0.0219745873" flag="0"/>
      <psa30 value="0.0014652997" flag="0"/>
    </comp>
    <comp name="--.HHN">
      <acc value="0.0231010593" flag="0"/>
      <vel value="0.0187481735" flag="0"/>
      <psa03 value="0.0567411049" flag="0"/>
      <psa10 value="0.0160906658" flag="0"/>
      <psa30 value="0.0026630847" flag="0"/>
    </comp>
    <comp name="--.HHZ">
      <acc value="0.0251139023" flag="0"/>
      <vel value="0.0107162482" flag="0"/>
      <psa03 value="0.0497822954" flag="0"/>
      <psa10 value="0.0097094766" flag="0"/>
      <psa30 value="0.0007875708" flag="0"/>
    </comp>
  </station>
  <station code="HAVD" name="HAVD" netid="HA" insttype="GEOtiny," commtype="DIG" lat="38.2036" lon="20.3848">
    <comp name="--.HHE">
      <acc value="0.2645340695" flag="0"/>
      <vel value="0.0895661868" flag="0"/>
      <psa03 value="0.2467729071" flag="0"/>
      <psa10 value="0.0514584469" flag="0"/>
      <psa30 value="0.0029071745" flag="0"/>
    </comp>
    <comp name="--.HHN">
      <acc value="0.2657136507" flag="0"/>
      <vel value="0.0885831074" flag="0"/>
      <psa03 value="0.3029997844" flag="0"/>
      <psa10 value="0.0586523215" flag="0"/>
      <psa30 value="0.0051089935" flag="0"/>
    </comp>
    <comp name="--.HHZ">
      <acc value="0.1865131042" flag="0"/>
      <vel value="0.0459768594" flag="0"/>
      <psa03 value="0.1951099625" flag="0"/>
      <psa10 value="0.0197149935" flag="0"/>
      <psa30 value="0.0011967529" flag="0"/>
    </comp>
  </station>
  <station code="ARG2" name="ARG2" netid="HI" insttype="CMG-5TD,ACCELEROMETER,GURALP" commtype="DIG" lat="38.1783" lon="20.4878">
    <comp name="--.HNE">
      <acc value="0.2224029561" flag="0"/>
      <vel value="0.0493974964" flag="0"/>
      <psa03 value="0.2398186263" flag="0"/>
      <psa10 value="0.0293624582" flag="0"/>
      <psa30 value="0.0020811741" flag="0"/>
    </comp>
    <comp name="--.HNN">
      <acc value="0.2783838510" flag="0"/>
      <vel value="0.0792665281" flag="0"/>
      <psa03 value="0.2073315519" flag="0"/>
      <psa10 value="0.0504115945" flag="0"/>
      <psa30 value="0.0026107667" flag="0"/>
    </comp>
    <comp name="--.HNZ">
      <acc value="0.1601664192" flag="0"/>
      <vel value="0.0295083273" flag="0"/>
      <psa03 value="0.1519090567" flag="0"/>
      <psa10 value="0.0170786034" flag="0"/>
      <psa30 value="0.0016592950" flag="0"/>
    </comp>
  </station>
  <station code="LEF2" name="LEF2" netid="HI" insttype="unknown" commtype="DIG" lat="38.8301" lon="20.7083">
    <comp name="--.HNE">
      <acc value="0.0184337117" flag="0"/>
      <vel value="0.0135268960" flag="0"/>
      <psa03 value="0.0581070983" flag="0"/>
      <psa10 value="0.0139803293" flag="0"/>
      <psa30 value="0.0014045355" flag="0"/>
    </comp>
    <comp name="--.HNN">
      <acc value="0.0195669916" flag="0"/>
      <vel value="0.0140046240" flag="0"/>
      <psa03 value="0.0456890301" flag="0"/>
      <psa10 value="0.0269862879" flag="0"/>
      <psa30 value="0.0011481998" flag="0"/>
    </comp>
    <comp name="--.HNZ">
      <acc value="0.0108591171" flag="0"/>
      <vel value="0.0098427170" flag="0"/>
      <psa03 value="0.0249393292" flag="0"/>
      <psa10 value="0.0175954882" flag="0"/>
      <psa30 value="0.0008420575" flag="0"/>
    </comp>
  </station>
  <station code="LXR2" name="LXR2" netid="HI" insttype="unknown" commtype="DIG" lat="38.2067" lon="20.4364">
    <comp name="--.HNE">
      <acc value="0.1488985386" flag="0"/>
      <vel value="0.0774258380" flag="0"/>
      <psa03 value="0.2455144843" flag="0"/>
      <psa10 value="0.0592531003" flag="0"/>
      <psa30 value="0.0051524444" flag="0"/>
    </comp>
    <comp name="--.HNN">
      <acc value="0.3210933177" flag="0"/>
      <vel value="0.1204022490" flag="0"/>
      <psa03 value="0.3590780239" flag="0"/>
      <psa10 value="0.0491260269" flag="0"/>
      <psa30 value="0.0052426004" flag="0"/>
    </comp>
    <comp name="--.HNZ">
      <acc value="0.2709397085" flag="0"/>
      <vel value="0.0348860226" flag="0"/>
      <psa03 value="0.1380655399" flag="0"/>
      <psa10 value="0.0228736766" flag="0"/>
      <psa30 value="0.0021349220" flag="0"/>
    </comp>
  </station>
  <station code="VSK1" name="VSK1" netid="HI" insttype="unknown" commtype="DIG" lat="38.4091" lon="20.564">
    <comp name="--.HNE">
      <acc value="0.0295748852" flag="0"/>
      <vel value="0.0119147831" flag="0"/>
      <psa03 value="0.0539043664" flag="0"/>
      <psa10 value="0.0132971922" flag="0"/>
      <psa30 value="0.0010110090" flag="0"/>
    </comp>
    <comp name="--.HNN">
      <acc value="0.0344102250" flag="0"/>
      <vel value="0.0154721354" flag="0"/>
      <psa03 value="0.0493899801" flag="0"/>
      <psa10 value="0.0159401386" flag="0"/>
      <psa30 value="0.0010248838" flag="0"/>
    </comp>
    <comp name="--.HNZ">
      <acc value="0.0226614032" flag="0"/>
      <vel value="0.0085789768" flag="0"/>
      <psa03 value="0.0372124182" flag="0"/>
      <psa10 value="0.0129417458" flag="0"/>
      <psa30 value="0.0004259943" flag="0"/>
    </comp>
  </station>
  <station code="LXRA" name="LXRA" netid="HL" insttype="CMG-5" commtype="DIG" lat="38.2001" lon="20.4372">
    <comp name="00.HNE">
      <acc value="0.2027249768" flag="0"/>
      <vel value="0.0554946030" flag="0"/>
      <psa03 value="0.2199777228" flag="0"/>
      <psa10 value="0.0705071533" flag="0"/>
      <psa30 value="0.0061648530" flag="0"/>
    </comp>
    <comp name="00.HNN">
      <acc value="0.3135839609" flag="0"/>
      <vel value="0.1039968756" flag="0"/>
      <psa03 value="0.3519644017" flag="0"/>
      <psa10 value="0.0581330500" flag="0"/>
      <psa30 value="0.0054198095" flag="0"/>
    </comp>
    <comp name="00.HNZ">
      <acc value="0.2333590757" flag="0"/>
      <vel value="0.0375379047" flag="0"/>
      <psa03 value="0.1901286966" flag="0"/>
      <psa10 value="0.0253314567" flag="0"/>
      <psa30 value="0.0026716160" flag="0"/>
    </comp>
  </station>
  <station code="ORTH" name="ORTH" netid="HL" insttype="30" commtype="DIG" lat="37.8511" lon="20.6963">
    <comp name="--.HHE">
      <acc value="0.1004523393" flag="0"/>
      <vel value="0.0433107262" flag="0"/>
      <psa03 value="0.2224560899" flag="0"/>
      <psa10 value="0.0227361161" flag="0"/>
      <psa30 value="0.0014341849" flag="0"/>
    </comp>
    <comp name="--.HHN">
      <acc value="0.1276281717" flag="0"/>
      <vel value="0.0511833080" flag="0"/>
      <psa03 value="0.2759968963" flag="0"/>
      <psa10 value="0.0364876881" flag="0"/>
      <psa30 value="0.0031268563" flag="0"/>
    </comp>
    <comp name="--.HHZ">
      <acc value="0.0451433706" flag="0"/>
      <vel value="0.0155034388" flag="0"/>
      <psa03 value="0.0517043125" flag="0"/>
      <psa10 value="0.0130451081" flag="0"/>
      <psa30 value="0.0006907388" flag="0"/>
    </comp>
  </station>
  <station code="AXS" name="AXS" netid="HP" insttype="Compact," commtype="DIG" lat="38.1962" lon="21.3763">
    <comp name="--.HHE">
      <acc value="0.0031087022" flag="0"/>
      <vel value="0.0013508251" flag="0"/>
      <psa03 value="0.0060461098" flag="0"/>
      <psa10 value="0.0016782524" flag="0"/>
      <psa30 value="0.0001692869" flag="0"/>
    </comp>
    <comp name="--.HHZ">
      <acc value="0.0022469117" flag="0"/>
      <vel value="0.0019989317" flag="0"/>
      <psa03 value="0.0041553632" flag="0"/>
      <psa10 value="0.0020953588" flag="0"/>
      <psa30 value="0.0001597536" flag="0"/>
    </comp>
    <comp name="--.HHN">
      <acc value="0.0033713050" flag="0"/>
      <vel value="0.0029122193" flag="0"/>
      <psa03 value="0.0084617174" flag="0"/>
      <psa10 value="0.0032455694" flag="0"/>
      <psa30 value="0.0002881125" flag="0"/>
    </comp>
  </station>
  <station code="FSK" name="FSK" netid="HP" insttype="40," commtype="DIG" lat="38.4593" lon="20.5623">
    <comp name="--.HHE">
      <acc value="0.0327542368" flag="0"/>
      <vel value="0.0094106548" flag="0"/>
      <psa03 value="0.0267080646" flag="0"/>
      <psa10 value="0.0126514228" flag="0"/>
      <psa30 value="0.0014446532" flag="0"/>
    </comp>
    <comp name="--.HHN">
      <acc value="0.0154305470" flag="0"/>
      <vel value="0.0071614526" flag="0"/>
      <psa03 value="0.0177828746" flag="0"/>
      <psa10 value="0.0093030897" flag="0"/>
      <psa30 value="0.0005555346" flag="0"/>
    </comp>
    <comp name="--.HHZ">
      <acc value="0.0146310584" flag="0"/>
      <vel value="0.0071904451" flag="0"/>
      <psa03 value="0.0211363974" flag="0"/>
      <psa10 value="0.0083475942" flag="0"/>
      <psa30 value="0.0005245482" flag="0"/>
    </comp>
  </station>
  <station code="LTHK" name="LTHK" netid="HP" insttype="40," commtype="DIG" lat="37.7095" lon="20.8367">
    <comp name="--.HHE">
      <acc value="0.0628000976" flag="0"/>
      <vel value="0.0162580285" flag="0"/>
      <psa03 value="0.0794077675" flag="0"/>
      <psa10 value="0.0137231210" flag="0"/>
      <psa30 value="0.0006947928" flag="0"/>
    </comp>
    <comp name="--.HHZ">
      <acc value="0.0313313233" flag="0"/>
      <vel value="0.0096931850" flag="0"/>
      <psa03 value="0.0455010894" flag="0"/>
      <psa10 value="0.0055552125" flag="0"/>
      <psa30 value="0.0004531739" flag="0"/>
    </comp>
    <comp name="--.HHN">
      <acc value="0.0593217589" flag="0"/>
      <vel value="0.0216793259" flag="0"/>
      <psa03 value="0.0749085257" flag="0"/>
      <psa10 value="0.0119114587" flag="0"/>
      <psa30 value="0.0010163414" flag="0"/>
    </comp>
  </station>
  <station code="CKVA" name="CKVA" netid="KF" insttype="Triaxial" commtype="DIG" lat="38.1642" lon="20.5063">
    <comp name="00.HN1">
      <acc value="0.5904790114" flag="0"/>
      <vel value="0.1439987465" flag="0"/>
      <psa03 value="0.8437491229" flag="0"/>
      <psa10 value="0.0821271256" flag="0"/>
      <psa30 value="0.0047062862" flag="0"/>
    </comp>
    <comp name="00.HN2">
      <acc value="0.7196390160" flag="0"/>
      <vel value="0.1528214487" flag="0"/>
      <psa03 value="0.7590623596" flag="0"/>
      <psa10 value="0.0605081573" flag="0"/>
      <psa30 value="0.0038179020" flag="0"/>
    </comp>
    <comp name="00.HNZ">
      <acc value="0.4091653780" flag="0"/>
      <vel value="0.0547969076" flag="0"/>
      <psa03 value="0.3073114822" flag="0"/>
      <psa10 value="0.0185455578" flag="0"/>
      <psa30 value="0.0015888772" flag="0"/>
    </comp>
  </station>
  <station code="CKWP" name="CKWP" netid="KF" insttype="Triaxial" commtype="DIG" lat="38.1662" lon="20.5102">
    <comp name="00.HNE">
      <acc value="0.1329806680" flag="0"/>
      <vel value="0.0344622632" flag="0"/>
      <psa03 value="0.1083667223" flag="0"/>
      <psa10 value="0.0200491617" flag="0"/>
      <psa30 value="0.0011501869" flag="0"/>
    </comp>
    <comp name="00.HNN">
      <acc value="0.1611817746" flag="0"/>
      <vel value="0.0362741501" flag="0"/>
      <psa03 value="0.1693205649" flag="0"/>
      <psa10 value="0.0242017301" flag="0"/>
      <psa30 value="0.0018553466" flag="0"/>
    </comp>
    <comp name="00.HNZ">
      <acc value="0.1112927929" flag="0"/>
      <vel value="0.0215855551" flag="0"/>
      <psa03 value="0.1032528119" flag="0"/>
      <psa10 value="0.0106221449" flag="0"/>
      <psa30 value="0.0010233409" flag="0"/>
    </comp>
  </station>
</stationlist>
