<?xml version="1.0" encoding="UTF-8" standalone="yes"?>
<!DOCTYPE earthquake SYSTEM "stationlist.dtd">
<stationlist created="" xmlns="ch.ethz.sed.shakemap.usgs.xml">
  <station code="ADVT" name="ADVT" netid="KO" insttype="CMG-3ESP" lat="40.4332" lon="29.7383">
    <comp name="--.HHE">
      <acc value="0.0074709030" flag="0"/>
      <vel value="0.0036314178" flag="0"/>
      <psa03 value="0.0201040756" flag="0"/>
      <psa10 value="0.0040853409" flag="0"/>
      <psa30 value="0.0002509467" flag="0"/>
    </comp>
    <comp name="--.HHN">
      <acc value="0.0089432350" flag="0"/>
      <vel value="0.0059167831" flag="0"/>
      <psa03 value="0.0132064536" flag="0"/>
      <psa10 value="0.0047971806" flag="0"/>
      <psa30 value="0.0003208109" flag="0"/>
    </comp>
    <comp name="--.HHZ">
      <acc value="0.0066515170" flag="0"/>
      <vel value="0.0031076192" flag="0"/>
      <psa03 value="0.0104830727" flag="0"/>
      <psa10 value="0.0025489835" flag="0"/>
      <psa30 value="0.0002352030" flag="0"/>
    </comp>
  </station>
  <station code="CAVI" name="CAVI" netid="KO" insttype="CMG-3T" lat="40.2018" lon="29.8377">
    <comp name="--.HHE">
      <acc value="0.0049585888" flag="0"/>
      <vel value="0.0046569349" flag="0"/>
      <psa03 value="0.0134438512" flag="0"/>
      <psa10 value="0.0059342229" flag="0"/>
      <psa30 value="0.0005935475" flag="0"/>
    </comp>
    <comp name="--.HHN">
      <acc value="0.0030166259" flag="0"/>
      <vel value="0.0025063410" flag="0"/>
      <psa03 value="0.0113057510" flag="0"/>
      <psa10 value="0.0030972341" flag="0"/>
      <psa30 value="0.0003574431" flag="0"/>
    </comp>
  </station>
  <station code="GPA" name="GPA" netid="KO" insttype="CMG-5T" lat="40.2911" lon="30.3171">
    <comp name="--.HNE">
      <acc value="0.0123369985" flag="0"/>
      <vel value="0.0066493769" flag="0"/>
      <psa03 value="0.0377441423" flag="0"/>
      <psa10 value="0.0030002205" flag="0"/>
      <psa30 value="0.0005192834" flag="0"/>
    </comp>
    <comp name="--.HNN">
      <acc value="0.0126386378" flag="0"/>
      <vel value="0.0060574761" flag="0"/>
      <psa03 value="0.0335599713" flag="0"/>
      <psa10 value="0.0034184482" flag="0"/>
      <psa30 value="0.0005605712" flag="0"/>
    </comp>
    <comp name="--.HNZ">
      <acc value="0.0080167362" flag="0"/>
      <vel value="0.0031821563" flag="0"/>
      <psa03 value="0.0142711745" flag="0"/>
      <psa10 value="0.0029672136" flag="0"/>
      <psa30 value="0.0006530379" flag="0"/>
    </comp>
  </station>
  <station code="GULT" name="GULT" netid="KO" insttype="CMG-3ESP" lat="40.432" lon="30.5152">
    <comp name="--.HHE">
      <acc value="0.0977564879" flag="0"/>
      <vel value="0.0404862048" flag="0"/>
      <psa03 value="0.2063730494" flag="0"/>
      <psa10 value="0.0292650465" flag="0"/>
      <psa30 value="0.0031340319" flag="0"/>
    </comp>
    <comp name="--.HHN">
      <acc value="0.0725750124" flag="0"/>
      <vel value="0.0290788851" flag="0"/>
      <psa03 value="0.2174561910" flag="0"/>
      <psa10 value="0.0246513945" flag="0"/>
      <psa30 value="0.0013524119" flag="0"/>
    </comp>
  </station>
  <station code="KDZE" name="KDZE" netid="KO" insttype="CMG-3T" lat="41.3132" lon="31.443">
    <comp name="--.HHN">
      <acc value="0.0032171162" flag="0"/>
      <vel value="0.0013785877" flag="0"/>
      <psa03 value="0.0096993339" flag="0"/>
      <psa10 value="0.0017796502" flag="0"/>
      <psa30 value="0.0001224972" flag="0"/>
    </comp>
    <comp name="--.HHE">
      <acc value="0.0036919034" flag="0"/>
      <vel value="0.0014814329" flag="0"/>
      <psa03 value="0.0089310754" flag="0"/>
      <psa10 value="0.0018341887" flag="0"/>
      <psa30 value="0.0000937249" flag="0"/>
    </comp>
    <comp name="--.HHZ">
      <acc value="0.0031013653" flag="0"/>
      <vel value="0.0010978438" flag="0"/>
      <psa03 value="0.0064971941" flag="0"/>
      <psa10 value="0.0016827584" flag="0"/>
      <psa30 value="0.0000991579" flag="0"/>
    </comp>
  </station>
  <station code="MDUB" name="MDUB" netid="KO" insttype="CMG-3T" lat="40.4712" lon="31.1976">
    <comp name="--.HHZ">
      <acc value="0.0308743353" flag="0"/>
      <vel value="0.0168359634" flag="0"/>
      <psa03 value="0.0805554283" flag="0"/>
      <psa10 value="0.0228244357" flag="0"/>
      <psa30 value="0.0011732033" flag="0"/>
    </comp>
    <comp name="--.HHN">
      <acc value="0.0000088128" flag="0"/>
      <vel value="0.0000008801" flag="0"/>
      <psa03 value="0.0000032456" flag="0"/>
      <psa10 value="0.0000008790" flag="0"/>
      <psa30 value="0.0000002100" flag="0"/>
    </comp>
    <comp name="--.HHE">
      <acc value="0.0660471931" flag="0"/>
      <vel value="0.0417907371" flag="0"/>
      <psa03 value="0.1080512378" flag="0"/>
      <psa10 value="0.0579076922" flag="0"/>
      <psa30 value="0.0030650958" flag="0"/>
    </comp>
  </station>
  <station code="RUZG" name="RUZG" netid="KO" insttype="CMG-6T" lat="40.7242" lon="31.7936">
    <comp name="--.HHE">
      <acc value="0.0102821612" flag="0"/>
      <vel value="0.0053637226" flag="0"/>
      <psa03 value="0.0247001909" flag="0"/>
      <psa10 value="0.0064199108" flag="0"/>
      <psa30 value="0.0008515487" flag="0"/>
    </comp>
    <comp name="--.HHN">
      <acc value="0.0105867241" flag="0"/>
      <vel value="0.0054189925" flag="0"/>
      <psa03 value="0.0287910155" flag="0"/>
      <psa10 value="0.0063968858" flag="0"/>
      <psa30 value="0.0007508380" flag="0"/>
    </comp>
    <comp name="--.HHZ">
      <acc value="0.0075439656" flag="0"/>
      <vel value="0.0026174020" flag="0"/>
      <psa03 value="0.0125014416" flag="0"/>
      <psa10 value="0.0024074889" flag="0"/>
      <psa30 value="0.0009497209" flag="0"/>
    </comp>
  </station>
  <station code="SILT" name="SILT" netid="KO" insttype="CMG-3ESP" lat="41.153" lon="29.643">
    <comp name="--.HHE">
      <acc value="0.0083046693" flag="0"/>
      <vel value="0.0064701292" flag="0"/>
      <psa03 value="0.0176562193" flag="0"/>
      <psa10 value="0.0062548489" flag="0"/>
      <psa30 value="0.0003213282" flag="0"/>
    </comp>
    <comp name="--.HHZ">
      <acc value="0.0068271677" flag="0"/>
      <vel value="0.0045260241" flag="0"/>
      <psa03 value="0.0112686943" flag="0"/>
      <psa10 value="0.0045796619" flag="0"/>
      <psa30 value="0.0002960055" flag="0"/>
    </comp>
    <comp name="--.HHN">
      <acc value="0.0083497103" flag="0"/>
      <vel value="0.0058466817" flag="0"/>
      <psa03 value="0.0186085899" flag="0"/>
      <psa10 value="0.0063693849" flag="0"/>
      <psa30 value="0.0003197799" flag="0"/>
    </comp>
  </station>
  <station code="UVEZ" name="UVEZ" netid="KO" insttype="CMG-6T" lat="40.904" lon="30.9032">
    <comp name="--.HHN">
      <acc value="0.6213122786" flag="0"/>
      <vel value="0.1683932775" flag="0"/>
      <psa03 value="0.9173322831" flag="0"/>
      <psa10 value="0.1129314053" flag="0"/>
      <psa30 value="0.0068064850" flag="0"/>
    </comp>
    <comp name="--.HHE">
      <acc value="0.5670495637" flag="0"/>
      <vel value="0.1976254221" flag="0"/>
      <psa03 value="0.7872935233" flag="0"/>
      <psa10 value="0.0875791632" flag="0"/>
      <psa30 value="0.0055963906" flag="0"/>
    </comp>
    <comp name="--.HHZ">
      <acc value="0.3924989124" flag="0"/>
      <vel value="0.1053640310" flag="0"/>
      <psa03 value="0.9072566457" flag="0"/>
      <psa10 value="0.0577970124" flag="0"/>
      <psa30 value="0.0047381747" flag="0"/>
    </comp>
  </station>
  <station code="YUVA" name="YUVA" netid="KO" insttype="CMG-5T" lat="40.391" lon="31.6872">
    <comp name="--.HNN">
      <acc value="0.0061166787" flag="0"/>
      <vel value="0.0030221217" flag="0"/>
      <psa03 value="0.0099698449" flag="0"/>
      <psa10 value="0.0036143533" flag="0"/>
      <psa30 value="0.0011357615" flag="0"/>
    </comp>
    <comp name="--.HNE">
      <acc value="0.0051330561" flag="0"/>
      <vel value="0.0023173304" flag="0"/>
      <psa03 value="0.0113537966" flag="0"/>
      <psa10 value="0.0033291288" flag="0"/>
      <psa30 value="0.0006632929" flag="0"/>
    </comp>
    <comp name="--.HNZ">
      <acc value="0.0064212237" flag="0"/>
      <vel value="0.0022748862" flag="0"/>
      <psa03 value="0.0123698782" flag="0"/>
      <psa10 value="0.0021110870" flag="0"/>
      <psa30 value="0.0007068410" flag="0"/>
    </comp>
  </station>
  <station code="BORA" name="BORA" netid="TU" insttype="T" lat="39.8801" lon="30.4534">
    <comp name="--.HHN">
      <acc value="0.0112508319" flag="0"/>
      <vel value="0.0044081582" flag="0"/>
      <psa03 value="0.0234100595" flag="0"/>
      <psa10 value="0.0038953209" flag="0"/>
      <psa30 value="0.0003493258" flag="0"/>
    </comp>
    <comp name="--.HHZ">
      <acc value="0.0058526135" flag="0"/>
      <vel value="0.0026342996" flag="0"/>
      <psa03 value="0.0111258725" flag="0"/>
      <psa10 value="0.0025133826" flag="0"/>
      <psa30 value="0.0003822290" flag="0"/>
    </comp>
    <comp name="--.HHE">
      <acc value="0.0140244272" flag="0"/>
      <vel value="0.0061478015" flag="0"/>
      <psa03 value="0.0286945804" flag="0"/>
      <psa10 value="0.0033028896" flag="0"/>
      <psa30 value="0.0003191635" flag="0"/>
    </comp>
  </station>
</stationlist>
