<?xml version="1.0" encoding="UTF-8" standalone="yes"?>
<!DOCTYPE earthquake SYSTEM "stationlist.dtd">
<stationlist created="" xmlns="ch.ethz.sed.shakemap.usgs.xml">
  <station code="GVD" name="GVD" netid="GE" source="GFZ" insttype="STS-2/N" lat="34.8391" lon="24.0874">
    <comp name="--.HHE">
      <acc value="0.0851808901" flag="0"/>
      <vel value="0.0501276144" flag="0"/>
      <psa03 value="0.2370436428" flag="0"/>
      <psa10 value="0.0538028061" flag="0"/>
      <psa30 value="0.0066243642" flag="0"/>
    </comp>
    <comp name="--.HHN">
      <acc value="0.0755809308" flag="0"/>
      <vel value="0.0467544033" flag="0"/>
      <psa03 value="0.2238040066" flag="0"/>
      <psa10 value="0.0378164198" flag="0"/>
      <psa30 value="0.0037681263" flag="0"/>
    </comp>
    <comp name="--.HHZ">
      <acc value="0.0358147253" flag="0"/>
      <vel value="0.0227187456" flag="0"/>
      <psa03 value="0.0801617798" flag="0"/>
      <psa10 value="0.0350287397" flag="0"/>
      <psa30 value="0.0033557091" flag="0"/>
    </comp>
  </station>
  <station code="IMMV" name="IMMV" netid="GE" source="GFZ" insttype="STS-2/N" lat="35.4606" lon="23.9811">
    <comp name="--.HHE">
      <acc value="0.0149738843" flag="0"/>
      <vel value="0.0208476927" flag="0"/>
      <psa03 value="0.0363114368" flag="0"/>
      <psa10 value="0.0466326385" flag="0"/>
      <psa30 value="0.0041635191" flag="0"/>
    </comp>
    <comp name="--.HHN">
      <acc value="0.0168652799" flag="0"/>
      <vel value="0.0206427131" flag="0"/>
      <psa03 value="0.0614636698" flag="0"/>
      <psa10 value="0.0266809594" flag="0"/>
      <psa30 value="0.0018697205" flag="0"/>
    </comp>
    <comp name="--.HHZ">
      <acc value="0.0141886992" flag="0"/>
      <vel value="0.0112957177" flag="0"/>
      <psa03 value="0.0352992952" flag="0"/>
      <psa10 value="0.0172368924" flag="0"/>
      <psa30 value="0.0015609310" flag="0"/>
    </comp>
  </station>
  <station code="CHAN" name="CHAN" netid="HC" source="NOA" insttype="120" lat="35.5193" lon="24.0428">
    <comp name="--.HHE">
      <acc value="0.0230448080" flag="0"/>
      <vel value="0.0327979976" flag="0"/>
      <psa03 value="0.0425361668" flag="0"/>
      <psa10 value="0.0865509765" flag="0"/>
      <psa30 value="0.0112881189" flag="0"/>
    </comp>
    <comp name="--.HHN">
      <acc value="0.0197880592" flag="0"/>
      <vel value="0.0290041038" flag="0"/>
      <psa03 value="0.0419379563" flag="0"/>
      <psa10 value="0.0649402657" flag="0"/>
      <psa30 value="0.0077830235" flag="0"/>
    </comp>
    <comp name="--.HHZ">
      <acc value="0.0157229085" flag="0"/>
      <vel value="0.0181588065" flag="0"/>
      <psa03 value="0.0442722643" flag="0"/>
      <psa10 value="0.0369169766" flag="0"/>
      <psa30 value="0.0047534382" flag="0"/>
    </comp>
  </station>
  <station code="PRNS" name="PRNS" netid="HC" source="NOA" insttype="120" lat="35.3445" lon="24.4266">
    <comp name="--.HHE">
      <acc value="0.0208247436" flag="0"/>
      <vel value="0.0204814081" flag="0"/>
      <psa03 value="0.0286738374" flag="0"/>
      <psa10 value="0.0416865109" flag="0"/>
      <psa30 value="0.0038646836" flag="0"/>
    </comp>
    <comp name="--.HHN">
      <acc value="0.0233368447" flag="0"/>
      <vel value="0.0255658509" flag="0"/>
      <psa03 value="0.0597926870" flag="0"/>
      <psa10 value="0.0483298031" flag="0"/>
      <psa30 value="0.0073370198" flag="0"/>
    </comp>
    <comp name="--.HHZ">
      <acc value="0.0187078035" flag="0"/>
      <vel value="0.0220171461" flag="0"/>
      <psa03 value="0.0382283961" flag="0"/>
      <psa10 value="0.0278886142" flag="0"/>
      <psa30 value="0.0045204227" flag="0"/>
    </comp>
  </station>
  <station code="RODP" name="RODP" netid="HC" source="NOA" insttype="1s-100Hz," lat="35.5604" lon="23.7577">
    <comp name="--.HHE">
      <acc value="0.0046925553" flag="0"/>
      <vel value="0.0062738734" flag="0"/>
      <psa03 value="0.0134166499" flag="0"/>
      <psa10 value="0.0139431757" flag="0"/>
      <psa30 value="0.0023709024" flag="0"/>
    </comp>
    <comp name="--.HHN">
      <acc value="0.0106254883" flag="0"/>
      <vel value="0.0174067251" flag="0"/>
      <psa03 value="0.0226878117" flag="0"/>
      <psa10 value="0.0200662606" flag="0"/>
      <psa30 value="0.0039862216" flag="0"/>
    </comp>
    <comp name="--.HHZ">
      <acc value="0.0086384114" flag="0"/>
      <vel value="0.0104427768" flag="0"/>
      <psa03 value="0.0158142640" flag="0"/>
      <psa10 value="0.0157385723" flag="0"/>
      <psa30 value="0.0026294600" flag="0"/>
    </comp>
  </station>
  <station code="TMBK" name="TMBK" netid="HC" source="NOA" insttype="120" lat="35.0724" lon="24.7662">
    <comp name="--.HHE">
      <acc value="0.0463890532" flag="0"/>
      <vel value="0.0282943145" flag="0"/>
      <psa03 value="0.0503164489" flag="0"/>
      <psa10 value="0.0371855978" flag="0"/>
      <psa30 value="0.0097094661" flag="0"/>
    </comp>
    <comp name="--.HHN">
      <acc value="0.0000000000" flag="0"/>
      <vel value="-100.0000000000" flag="0"/>
      <psa03 value="0.0000000000" flag="0"/>
      <psa10 value="0.0000000000" flag="0"/>
      <psa30 value="0.0000000000" flag="0"/>
    </comp>
    <comp name="--.HHZ">
      <acc value="0.1169351881" flag="0"/>
      <vel value="0.0285710918" flag="0"/>
      <psa03 value="0.0525731771" flag="0"/>
      <psa10 value="0.0372989027" flag="0"/>
      <psa30 value="0.0092311438" flag="0"/>
    </comp>
  </station>
  <station code="GVD" name="GVD" netid="HL" source="NOA" insttype="120" lat="34.8391" lon="24.0874">
    <comp name="--.HHE">
      <acc value="0.0830604766" flag="0"/>
      <vel value="0.0489644257" flag="0"/>
      <psa03 value="0.2304120171" flag="0"/>
      <psa10 value="0.0534387794" flag="0"/>
      <psa30 value="0.0066170089" flag="0"/>
    </comp>
    <comp name="--.HHN">
      <acc value="0.0736415696" flag="0"/>
      <vel value="0.0458458553" flag="0"/>
      <psa03 value="0.2179584079" flag="0"/>
      <psa10 value="0.0375543580" flag="0"/>
      <psa30 value="0.0037617606" flag="0"/>
    </comp>
    <comp name="--.HHZ">
      <acc value="0.0349217508" flag="0"/>
      <vel value="0.0225602725" flag="0"/>
      <psa03 value="0.0779074211" flag="0"/>
      <psa10 value="0.0347852017" flag="0"/>
      <psa30 value="0.0033477911" flag="0"/>
    </comp>
  </station>
  <station code="IMMV" name="IMMV" netid="HL" source="NOA" insttype="120" lat="35.4606" lon="23.9811">
    <comp name="--.HHE">
      <acc value="0.0146751563" flag="0"/>
      <vel value="0.0206803097" flag="0"/>
      <psa03 value="0.0352959719" flag="0"/>
      <psa10 value="0.0463555394" flag="0"/>
      <psa30 value="0.0041631372" flag="0"/>
    </comp>
    <comp name="--.HHN">
      <acc value="0.0165739034" flag="0"/>
      <vel value="0.0203928035" flag="0"/>
      <psa03 value="0.0598632610" flag="0"/>
      <psa10 value="0.0264855151" flag="0"/>
      <psa30 value="0.0018703122" flag="0"/>
    </comp>
    <comp name="--.HHZ">
      <acc value="0.0139146850" flag="0"/>
      <vel value="0.0111364883" flag="0"/>
      <psa03 value="0.0342898339" flag="0"/>
      <psa10 value="0.0170969033" flag="0"/>
      <psa30 value="0.0015607641" flag="0"/>
    </comp>
  </station>
</stationlist>
