<stationlist xmlns:esm="https://esm-db.eu/esmws/shakemap/1/" created="1780710880">
	<station code="IMMV" name="IMMV" netid="GE" source="GEOFON" insttype="" lat="35.4606" lon="23.9811" esm:processing="manual (Paolucci et al 2011)" esm:quality="good">
		<comp name="--.HNE" depth="0.0">
			<acc value="0.0145935908118431" flag="0"/>
			<vel value="0.0211573370569572" flag="0"/>
			<psa03 value="0.0350778899887251" flag="0"/>
			<psa10 value="0.0468034800771755" flag="0"/>
			<psa30 value="0.00472522444095568" flag="0"/>
		</comp>
		<comp name="--.HNN" depth="0.0">
			<acc value="0.016459434157468" flag="0"/>
			<vel value="0.0205956825868447" flag="0"/>
			<psa03 value="0.0590597127361187" flag="0"/>
			<psa10 value="0.0266896210919315" flag="0"/>
			<psa30 value="0.0022782731610024" flag="0"/>
		</comp>
		<comp name="--.HNZ" depth="0.0">
			<acc value="0.0140104747830937" flag="0"/>
			<vel value="0.0117621039010177" flag="0"/>
			<psa03 value="0.0336461393769404" flag="0"/>
			<psa10 value="0.0175044934952665" flag="0"/>
			<psa30 value="0.00183979953614333" flag="0"/>
		</comp>
	</station>
	<station code="ARK1" name="ARK1" netid="HI" source="ITSAK Strong Motion Network" insttype="" lat="35.148777" lon="25.264194" esm:processing="manual (Paolucci et al 2011)" esm:quality="good">
		<comp name="--.HNE" depth="0.0">
			<acc value="0.00450370024942957" flag="0"/>
			<vel value="0.00737238280172359" flag="0"/>
			<psa03 value="0.0083930957149416" flag="0"/>
			<psa10 value="0.0107407433965372" flag="0"/>
			<psa30 value="0.00245594581935737" flag="0"/>
		</comp>
		<comp name="--.HNN" depth="0.0">
			<acc value="0.00485186860910071" flag="0"/>
			<vel value="0.00886105596709396" flag="0"/>
			<psa03 value="0.00843491098499803" flag="0"/>
			<psa10 value="0.0121687236182187" flag="0"/>
			<psa30 value="0.00347796894003996" flag="0"/>
		</comp>
		<comp name="--.HNZ" depth="0.0">
			<acc value="0.00322815529181631" flag="0"/>
			<vel value="0.00475204924105883" flag="0"/>
			<psa03 value="0.00752443595695413" flag="0"/>
			<psa10 value="0.00964788912530516" flag="0"/>
			<psa30 value="0.00127689135861918" flag="0"/>
		</comp>
	</station>
	<station code="CH02" name="CH02" netid="HI" source="ITSAK Strong Motion Network" insttype="" lat="35.5145" lon="24.0315" esm:processing="manual (Paolucci et al 2011)" esm:quality="good">
		<comp name="--.HNE" depth="0.0">
			<acc value="0.0159763247963125" flag="0"/>
			<vel value="0.0228130865367224" flag="0"/>
			<psa03 value="0.0283301475665725" flag="0"/>
			<psa10 value="0.038918690672254" flag="0"/>
			<psa30 value="0.0103947194324811" flag="0"/>
		</comp>
		<comp name="--.HNN" depth="0.0">
			<acc value="0.0120475590419543" flag="0"/>
			<vel value="0.0146384567907587" flag="0"/>
			<psa03 value="0.0336203964570983" flag="0"/>
			<psa10 value="0.0338137812470582" flag="0"/>
			<psa30 value="0.00500299559057111" flag="0"/>
		</comp>
		<comp name="--.HNZ" depth="0.0">
			<acc value="0.00840143017116428" flag="0"/>
			<vel value="0.0113375972284518" flag="0"/>
			<psa03 value="0.022609518602979" flag="0"/>
			<psa10 value="0.0235053814911654" flag="0"/>
			<psa30 value="0.00325611653507359" flag="0"/>
		</comp>
	</station>
	<station code="GOR1" name="GOR1" netid="HI" source="ITSAK Strong Motion Network" insttype="" lat="35.0582" lon="24.9628" esm:processing="manual (Paolucci et al 2011)" esm:quality="good">
		<comp name="--.HNE" depth="0.0">
			<acc value="0.00827797145409089" flag="0"/>
			<vel value="0.0116302948265132" flag="0"/>
			<psa03 value="0.0175391501638707" flag="0"/>
			<psa10 value="0.033851122470731" flag="0"/>
			<psa30 value="0.00400869805657258" flag="0"/>
		</comp>
		<comp name="--.HNN" depth="0.0">
			<acc value="0.00830078724817596" flag="0"/>
			<vel value="0.0165923674214155" flag="0"/>
			<psa03 value="0.0117928814809383" flag="0"/>
			<psa10 value="0.0340833378538605" flag="0"/>
			<psa30 value="0.00794932243693153" flag="0"/>
		</comp>
		<comp name="--.HNZ" depth="0.0">
			<acc value="0.00569360588378233" flag="0"/>
			<vel value="0.00961694850646171" flag="0"/>
			<psa03 value="0.0119277992727465" flag="0"/>
			<psa10 value="0.0140769212769486" flag="0"/>
			<psa30 value="0.00375645468002016" flag="0"/>
		</comp>
	</station>
	<station code="IMMV" name="IMMV" netid="HL" source="National Observatory of Athens Seismic Network" insttype="" lat="35.4606" lon="23.9811" esm:processing="manual (Paolucci et al 2011)" esm:quality="good">
		<comp name="--.HNE" depth="0.0">
			<acc value="0.0142974867719568" flag="0"/>
			<vel value="0.020728017978145" flag="0"/>
			<psa03 value="0.0343620146828327" flag="0"/>
			<psa10 value="0.0458571824071991" flag="0"/>
			<psa30 value="0.00462902869672639" flag="0"/>
		</comp>
		<comp name="--.HNN" depth="0.0">
			<acc value="0.0161254206881087" flag="0"/>
			<vel value="0.0201778042736994" flag="0"/>
			<psa03 value="0.0578516731574254" flag="0"/>
			<psa10 value="0.0261460032815195" flag="0"/>
			<psa30 value="0.00223218868818558" flag="0"/>
		</comp>
		<comp name="--.HNZ" depth="0.0">
			<acc value="0.0137262048992278" flag="0"/>
			<vel value="0.0115234648722973" flag="0"/>
			<psa03 value="0.032930264071048" flag="0"/>
			<psa10 value="0.0171501352188497" flag="0"/>
			<psa30 value="0.00180266350465017" flag="0"/>
		</comp>
	</station>
</stationlist>
