<?xml version="1.0" encoding="UTF-8" standalone="yes"?>
<!DOCTYPE earthquake SYSTEM "stationlist.dtd">
<stationlist created="" xmlns="ch.ethz.sed.shakemap.usgs.xml">
  <station code="ROD3" name="ROD3" netid="CL" source="RESIF" insttype="30" lat="38.3081" lon="21.892">
    <comp name="00.HHE">
      <acc value="0.0299643465" flag="0"/>
      <vel value="0.0125857657" flag="0"/>
      <psa03 value="0.1130280715" flag="0"/>
      <psa10 value="0.0089287291" flag="0"/>
      <psa30 value="0.0005201260" flag="0"/>
    </comp>
    <comp name="00.HHN">
      <acc value="0.0276294065" flag="0"/>
      <vel value="0.0144334513" flag="0"/>
      <psa03 value="0.1239952923" flag="0"/>
      <psa10 value="0.0085152713" flag="0"/>
      <psa30 value="0.0005995073" flag="0"/>
    </comp>
    <comp name="00.HHZ">
      <acc value="0.0091971091" flag="0"/>
      <vel value="0.0038821776" flag="0"/>
      <psa03 value="0.0185318096" flag="0"/>
      <psa10 value="0.0079048458" flag="0"/>
      <psa30 value="0.0003546340" flag="0"/>
    </comp>
  </station>
  <station code="KLV1" name="KLV1" netid="HI" source="NOA" insttype="CMG-5TD,ACCELEROMETER,GURALP" lat="38.0326" lon="22.108">
    <comp name="--.HNE">
      <acc value="0.0131096896" flag="0"/>
      <vel value="0.0069449819" flag="0"/>
      <psa03 value="0.0429160049" flag="0"/>
      <psa10 value="0.0086039321" flag="0"/>
      <psa30 value="0.0006284464" flag="0"/>
    </comp>
    <comp name="--.HNN">
      <acc value="0.0115263437" flag="0"/>
      <vel value="0.0064292608" flag="0"/>
      <psa03 value="0.0635836225" flag="0"/>
      <psa10 value="0.0059843640" flag="0"/>
      <psa30 value="0.0003502254" flag="0"/>
    </comp>
    <comp name="--.HNZ">
      <acc value="0.0067574246" flag="0"/>
      <vel value="0.0042248053" flag="0"/>
      <psa03 value="0.0142318999" flag="0"/>
      <psa10 value="0.0054451678" flag="0"/>
      <psa30 value="0.0003634422" flag="0"/>
    </comp>
  </station>
  <station code="KRI1" name="KRI1" netid="HI" source="NOA" insttype="CMG-5TD,ACCELEROMETER,GURALP" lat="37.6621" lon="20.8172">
    <comp name="--.HNE">
      <acc value="0.4356397100" flag="0"/>
      <vel value="0.1837856409" flag="0"/>
      <psa03 value="1.2071006351" flag="0"/>
      <psa10 value="0.1271768614" flag="0"/>
      <psa30 value="0.0102672043" flag="0"/>
    </comp>
    <comp name="--.HNN">
      <acc value="0.2980349037" flag="0"/>
      <vel value="0.1336389796" flag="0"/>
      <psa03 value="0.6165000141" flag="0"/>
      <psa10 value="0.0744449378" flag="0"/>
      <psa30 value="0.0048474499" flag="0"/>
    </comp>
    <comp name="--.HNZ">
      <acc value="0.1889796354" flag="0"/>
      <vel value="0.0636007031" flag="0"/>
      <psa03 value="0.2396175452" flag="0"/>
      <psa10 value="0.0385810516" flag="0"/>
      <psa30 value="0.0039848069" flag="0"/>
    </comp>
  </station>
  <station code="ITM" name="ITM" netid="HL" source="NOA" insttype="DR24" lat="37.1787" lon="21.9252">
    <comp name="--.HHE">
      <acc value="0.0138624171" flag="0"/>
      <vel value="0.0087847296" flag="0"/>
      <psa03 value="0.0328927181" flag="0"/>
      <psa10 value="0.0049032652" flag="0"/>
      <psa30 value="0.0003593019" flag="0"/>
    </comp>
    <comp name="--.HHN">
      <acc value="0.0178341014" flag="0"/>
      <vel value="0.0061362856" flag="0"/>
      <psa03 value="0.0310252003" flag="0"/>
      <psa10 value="0.0067206141" flag="0"/>
      <psa30 value="0.0004976221" flag="0"/>
    </comp>
    <comp name="--.HHZ">
      <acc value="0.0094439000" flag="0"/>
      <vel value="0.0043211488" flag="0"/>
      <psa03 value="0.0282360310" flag="0"/>
      <psa10 value="0.0024577908" flag="0"/>
      <psa30 value="0.0004454662" flag="0"/>
    </comp>
  </station>
  <station code="KLV" name="KLV" netid="HL" source="NOA" insttype="120" lat="38.0435" lon="22.1504">
    <comp name="--.HHE">
      <acc value="0.0037103990" flag="0"/>
      <vel value="0.0029843268" flag="0"/>
      <psa03 value="0.0094763859" flag="0"/>
      <psa10 value="0.0029616486" flag="0"/>
      <psa30 value="0.0002371079" flag="0"/>
    </comp>
    <comp name="--.HHN">
      <acc value="0.0038584369" flag="0"/>
      <vel value="0.0023899337" flag="0"/>
      <psa03 value="0.0117853619" flag="0"/>
      <psa10 value="0.0025306592" flag="0"/>
      <psa30 value="0.0002456316" flag="0"/>
    </comp>
    <comp name="--.HHZ">
      <acc value="0.0038020711" flag="0"/>
      <vel value="0.0033644977" flag="0"/>
      <psa03 value="0.0116427598" flag="0"/>
      <psa10 value="0.0033784899" flag="0"/>
      <psa30 value="0.0004000686" flag="0"/>
    </comp>
  </station>
  <station code="AMT" name="AMT" netid="HP" source="NOA" insttype="CMG-3T," lat="37.5324" lon="21.7089">
    <comp name="00.HHE">
      <acc value="0.0775082745" flag="0"/>
      <vel value="0.0309630596" flag="0"/>
      <psa03 value="0.2082234420" flag="0"/>
      <psa10 value="0.0251743933" flag="0"/>
      <psa30 value="0.0010015926" flag="0"/>
    </comp>
    <comp name="00.HHN">
      <acc value="0.0961081303" flag="0"/>
      <vel value="0.0306008601" flag="0"/>
      <psa03 value="0.2089125830" flag="0"/>
      <psa10 value="0.0278510137" flag="0"/>
      <psa30 value="0.0009671874" flag="0"/>
    </comp>
    <comp name="00.HHZ">
      <acc value="0.0468426655" flag="0"/>
      <vel value="0.0152989362" flag="0"/>
      <psa03 value="0.0869287526" flag="0"/>
      <psa10 value="0.0098257823" flag="0"/>
      <psa30 value="0.0005154089" flag="0"/>
    </comp>
  </station>
  <station code="DRO" name="DRO" netid="HP" source="NOA" insttype="120P," lat="37.952" lon="21.71">
    <comp name="--.HHE">
      <acc value="0.0514606184" flag="0"/>
      <vel value="0.0223694457" flag="0"/>
      <psa03 value="0.1620765115" flag="0"/>
      <psa10 value="0.0186597755" flag="0"/>
      <psa30 value="0.0008644367" flag="0"/>
    </comp>
    <comp name="--.HHN">
      <acc value="0.0365866408" flag="0"/>
      <vel value="0.0144815120" flag="0"/>
      <psa03 value="0.1100580440" flag="0"/>
      <psa10 value="0.0126577372" flag="0"/>
      <psa30 value="0.0006755057" flag="0"/>
    </comp>
    <comp name="--.HHZ">
      <acc value="0.0166162882" flag="0"/>
      <vel value="0.0080929423" flag="0"/>
      <psa03 value="0.0497115127" flag="0"/>
      <psa10 value="0.0096936397" flag="0"/>
      <psa30 value="0.0004468455" flag="0"/>
    </comp>
  </station>
  <station code="FSK" name="FSK" netid="HP" source="NOA" insttype="DC_100" lat="38.4593" lon="20.5623">
    <comp name="--.HNE">
      <acc value="0.0148821466" flag="0"/>
      <vel value="0.0036887649" flag="0"/>
      <psa03 value="0.0236349758" flag="0"/>
      <psa10 value="0.0040732399" flag="0"/>
      <psa30 value="0.0004045997" flag="0"/>
    </comp>
    <comp name="--.HNN">
      <acc value="0.0063425019" flag="0"/>
      <vel value="0.0031186349" flag="0"/>
      <psa03 value="0.0126615625" flag="0"/>
      <psa10 value="0.0040384755" flag="0"/>
      <psa30 value="0.0002833112" flag="0"/>
    </comp>
    <comp name="--.HNZ">
      <acc value="0.0067460677" flag="0"/>
      <vel value="0.0024065901" flag="0"/>
      <psa03 value="0.0117017101" flag="0"/>
      <psa10 value="0.0025748904" flag="0"/>
      <psa30 value="0.0002210984" flag="0"/>
    </comp>
  </station>
  <station code="LTHK" name="LTHK" netid="HP" source="NOA" insttype="40," lat="37.7095" lon="20.8367">
    <comp name="--.HHE">
      <acc value="1.3972010321" flag="0"/>
      <vel value="0.2800090716" flag="0"/>
      <psa03 value="1.4257221064" flag="0"/>
      <psa10 value="0.1494094324" flag="0"/>
      <psa30 value="0.0088149582" flag="0"/>
    </comp>
    <comp name="--.HHN">
      <acc value="0.9078574329" flag="0"/>
      <vel value="0.2266849743" flag="0"/>
      <psa03 value="0.7533916173" flag="0"/>
      <psa10 value="0.1111881727" flag="0"/>
      <psa30 value="0.0057117551" flag="0"/>
    </comp>
    <comp name="--.HHZ">
      <acc value="0.7366466571" flag="0"/>
      <vel value="0.1025424060" flag="0"/>
      <psa03 value="0.4896936091" flag="0"/>
      <psa10 value="0.0492714735" flag="0"/>
      <psa30 value="0.0052144091" flag="0"/>
    </comp>
  </station>
  <station code="DMLN" name="DMLN" netid="HT" source="NOA" insttype="1s-100Hz," lat="38.2385" lon="20.3734">
    <comp name="--.HHE">
      <acc value="0.0404182018" flag="0"/>
      <vel value="0.0137273883" flag="0"/>
      <psa03 value="0.0784637257" flag="0"/>
      <psa10 value="0.0139159811" flag="0"/>
      <psa30 value="0.0007710325" flag="0"/>
    </comp>
    <comp name="--.HHN">
      <acc value="0.0491566768" flag="0"/>
      <vel value="0.0178388798" flag="0"/>
      <psa03 value="0.1289404979" flag="0"/>
      <psa10 value="0.0148277225" flag="0"/>
      <psa30 value="0.0008018991" flag="0"/>
    </comp>
    <comp name="--.HHZ">
      <acc value="0.0194807720" flag="0"/>
      <vel value="0.0063604019" flag="0"/>
      <psa03 value="0.0487259396" flag="0"/>
      <psa10 value="0.0069043892" flag="0"/>
      <psa30 value="0.0005097805" flag="0"/>
    </comp>
  </station>
  <station code="DRAG" name="DRAG" netid="HT" source="NOA" insttype="1s-100Hz," lat="38.6839" lon="20.5746">
    <comp name="--.HHE">
      <acc value="0.0002600628" flag="0"/>
      <vel value="0.0001068728" flag="0"/>
      <psa03 value="0.0005263275" flag="0"/>
      <psa10 value="0.0000632304" flag="0"/>
      <psa30 value="0.0000044260" flag="0"/>
    </comp>
    <comp name="--.HHN">
      <acc value="0.0042153427" flag="0"/>
      <vel value="0.0018471293" flag="0"/>
      <psa03 value="0.0122856227" flag="0"/>
      <psa10 value="0.0013524123" flag="0"/>
      <psa30 value="0.0000656885" flag="0"/>
    </comp>
    <comp name="--.HHZ">
      <acc value="0.0001250489" flag="0"/>
      <vel value="0.0000396289" flag="0"/>
      <psa03 value="0.0002887694" flag="0"/>
      <psa10 value="0.0000335330" flag="0"/>
      <psa30 value="0.0000029425" flag="0"/>
    </comp>
  </station>
  <station code="NYDR" name="NYDR" netid="HT" source="NOA" insttype="1s-100Hz," lat="38.7135" lon="20.6983">
    <comp name="--.HHE">
      <acc value="0.0046237951" flag="0"/>
      <vel value="0.0030863738" flag="0"/>
      <psa03 value="0.0112923953" flag="0"/>
      <psa10 value="0.0065846725" flag="0"/>
      <psa30 value="0.0003316803" flag="0"/>
    </comp>
    <comp name="--.HHN">
      <acc value="0.0062934262" flag="0"/>
      <vel value="0.0026396040" flag="0"/>
      <psa03 value="0.0168472077" flag="0"/>
      <psa10 value="0.0058094525" flag="0"/>
      <psa30 value="0.0002805388" flag="0"/>
    </comp>
    <comp name="--.HHZ">
      <acc value="0.0040629665" flag="0"/>
      <vel value="0.0027076218" flag="0"/>
      <psa03 value="0.0088693905" flag="0"/>
      <psa10 value="0.0034395234" flag="0"/>
      <psa30 value="0.0001862984" flag="0"/>
    </comp>
  </station>
  <station code="PSDA" name="PSDA" netid="HT" source="NOA" insttype="30" lat="38.114" lon="20.5841">
    <comp name="--.HHE">
      <acc value="0.0935579593" flag="0"/>
      <vel value="0.0284492776" flag="0"/>
      <psa03 value="0.1525555793" flag="0"/>
      <psa10 value="0.0101686030" flag="0"/>
      <psa30 value="0.0005536963" flag="0"/>
    </comp>
    <comp name="--.HHN">
      <acc value="0.1022163929" flag="0"/>
      <vel value="0.0218052060" flag="0"/>
      <psa03 value="0.0978438666" flag="0"/>
      <psa10 value="0.0104516199" flag="0"/>
      <psa30 value="0.0006415008" flag="0"/>
    </comp>
    <comp name="--.HHZ">
      <acc value="0.0670899609" flag="0"/>
      <vel value="0.0135648415" flag="0"/>
      <psa03 value="0.0541250137" flag="0"/>
      <psa10 value="0.0056182491" flag="0"/>
      <psa30 value="0.0003404949" flag="0"/>
    </comp>
  </station>
</stationlist>
