<stationlist xmlns:esm="https://esm-db.eu/esmws/shakemap/1/" created="1783994241">
	<station code="ROD3" name="ROD3" netid="CL" source="Corinth Riff Laboratory (CRLNET)" insttype="" lat="38.30811" lon="21.89204" esm:processing="manual (Paolucci et al 2011)" esm:quality="good">
		<comp name="00.HNE" depth="0.0">
			<acc value="0.0269099456582849" flag="0"/>
			<vel value="0.0107667408870813" flag="0"/>
			<psa03 value="0.0927505943196774" flag="0"/>
			<psa10 value="0.00805762398988456" flag="0"/>
			<psa30 value="0.000502902402389374" flag="0"/>
		</comp>
		<comp name="00.HNN" depth="0.0">
			<acc value="0.024266190922835" flag="0"/>
			<vel value="0.0128438252683282" flag="0"/>
			<psa03 value="0.109170984148583" flag="0"/>
			<psa10 value="0.00674488764770447" flag="0"/>
			<psa30 value="0.000496191071396634" flag="0"/>
		</comp>
		<comp name="00.HNZ" depth="0.0">
			<acc value="0.0073767916436219" flag="0"/>
			<vel value="0.00302539554460967" flag="0"/>
			<psa03 value="0.0136911152251912" flag="0"/>
			<psa10 value="0.0059596619215538" flag="0"/>
			<psa30 value="0.000277401681033285" flag="0"/>
		</comp>
	</station>
	<station code="ARG2" name="ARG2" netid="HI" source="ITSAK Strong Motion Network" insttype="" lat="38.1783" lon="20.4878" esm:processing="manual (Paolucci et al 2011)" esm:quality="best">
		<comp name="--.HNE" depth="0.0">
			<acc value="0.0388591201244205" flag="0"/>
			<vel value="0.014341955242376" flag="0"/>
			<psa03 value="0.0743615473995677" flag="0"/>
			<psa10 value="0.00794487362920651" flag="0"/>
			<psa30 value="0.000647867151832575" flag="0"/>
		</comp>
		<comp name="--.HNN" depth="0.0">
			<acc value="0.0424185313878794" flag="0"/>
			<vel value="0.0195937117782585" flag="0"/>
			<psa03 value="0.107068100437524" flag="0"/>
			<psa10 value="0.0106226946953101" flag="0"/>
			<psa30 value="0.000782541193753573" flag="0"/>
		</comp>
		<comp name="--.HNZ" depth="0.0">
			<acc value="0.029043847377934" flag="0"/>
			<vel value="0.0117228630419059" flag="0"/>
			<psa03 value="0.0968668773285584" flag="0"/>
			<psa10 value="0.0106629626812665" flag="0"/>
			<psa30 value="0.000373150003196386" flag="0"/>
		</comp>
	</station>
	<station code="KLV1" name="KLV1" netid="HI" source="ITSAK Strong Motion Network" insttype="" lat="38.03256" lon="22.10797" esm:processing="manual (Paolucci et al 2011)" esm:quality="good">
		<comp name="--.HNE" depth="0.0">
			<acc value="0.0129719431405818" flag="0"/>
			<vel value="0.00699445326722434" flag="0"/>
			<psa03 value="0.0434446826263419" flag="0"/>
			<psa10 value="0.00859318820310527" flag="0"/>
			<psa30 value="0.000640708398773651" flag="0"/>
		</comp>
		<comp name="--.HNN" depth="0.0">
			<acc value="0.0115359004026817" flag="0"/>
			<vel value="0.00639334933445153" flag="0"/>
			<psa03 value="0.0642498087038382" flag="0"/>
			<psa10 value="0.00599187631031895" flag="0"/>
			<psa30 value="0.000368228360468376" flag="0"/>
		</comp>
		<comp name="--.HNZ" depth="0.0">
			<acc value="0.00663292934566211" flag="0"/>
			<vel value="0.00426193955569703" flag="0"/>
			<psa03 value="0.0141385372913739" flag="0"/>
			<psa10 value="0.00544825849990695" flag="0"/>
			<psa30 value="0.000369570626666925" flag="0"/>
		</comp>
	</station>
	<station code="KRI1" name="KRI1" netid="HI" source="ITSAK Strong Motion Network" insttype="" lat="37.6621" lon="20.8172" esm:processing="manual (Paolucci et al 2011)" esm:quality="best">
		<comp name="--.HNE" depth="0.0">
			<acc value="0.43880290036537" flag="0"/>
			<vel value="0.186240842853979" flag="0"/>
			<psa03 value="1.22392306204282" flag="0"/>
			<psa10 value="0.1273072376013" flag="0"/>
			<psa30 value="0.0104401464923075" flag="0"/>
		</comp>
		<comp name="--.HNN" depth="0.0">
			<acc value="0.296084121589367" flag="0"/>
			<vel value="0.134668980866604" flag="0"/>
			<psa03 value="0.623885329085181" flag="0"/>
			<psa10 value="0.0745682563941441" flag="0"/>
			<psa30 value="0.00490419326742877" flag="0"/>
		</comp>
		<comp name="--.HNZ" depth="0.0">
			<acc value="0.191034389407601" flag="0"/>
			<vel value="0.0643750752300866" flag="0"/>
			<psa03 value="0.248050793491699" flag="0"/>
			<psa10 value="0.0386250521294216" flag="0"/>
			<psa30 value="0.00402098210878408" flag="0"/>
		</comp>
	</station>
	<station code="MSL1" name="MSL1" netid="HI" source="ITSAK Strong Motion Network" insttype="" lat="38.3727" lon="21.4243" esm:processing="manual (Paolucci et al 2011)" esm:quality="good">
		<comp name="--.HNE" depth="0.0">
			<acc value="0.0148248590172768" flag="0"/>
			<vel value="0.0117877772491603" flag="0"/>
			<psa03 value="0.0433551982131053" flag="0"/>
			<psa10 value="0.0235003966041811" flag="0"/>
			<psa30 value="0.00115703346314851" flag="0"/>
		</comp>
		<comp name="--.HNN" depth="0.0">
			<acc value="0.0162432625518476" flag="0"/>
			<vel value="0.0115097712700279" flag="0"/>
			<psa03 value="0.0530642570492703" flag="0"/>
			<psa10 value="0.0212051214046637" flag="0"/>
			<psa30 value="0.00103399239494826" flag="0"/>
		</comp>
		<comp name="--.HNZ" depth="0.0">
			<acc value="0.00787633860137966" flag="0"/>
			<vel value="0.0051075723074215" flag="0"/>
			<psa03 value="0.0209840949039695" flag="0"/>
			<psa10 value="0.00699052236203878" flag="0"/>
			<psa30 value="0.000429525183535409" flag="0"/>
		</comp>
	</station>
	<station code="PYL1" name="PYL1" netid="HI" source="ITSAK Strong Motion Network" insttype="" lat="36.914188" lon="21.695161" esm:processing="manual (Paolucci et al 2011)" esm:quality="best">
		<comp name="--.HNE" depth="0.0">
			<acc value="0.00686805598441483" flag="0"/>
			<vel value="0.00339108109699294" flag="0"/>
			<psa03 value="0.0162414210024326" flag="0"/>
			<psa10 value="0.00457041640605646" flag="0"/>
			<psa30 value="0.000592386815625918" flag="0"/>
		</comp>
		<comp name="--.HNN" depth="0.0">
			<acc value="0.00723322575822145" flag="0"/>
			<vel value="0.00280376878049764" flag="0"/>
			<psa03 value="0.0178073982340722" flag="0"/>
			<psa10 value="0.00342277880629779" flag="0"/>
			<psa30 value="0.000297088251945324" flag="0"/>
		</comp>
		<comp name="--.HNZ" depth="0.0">
			<acc value="0.00431128063350325" flag="0"/>
			<vel value="0.00190906122109592" flag="0"/>
			<psa03 value="0.00738246409201484" flag="0"/>
			<psa10 value="0.00206172088096996" flag="0"/>
			<psa30 value="0.000267110973511082" flag="0"/>
		</comp>
	</station>
	<station code="ITM" name="ITM" netid="HL" source="National Observatory of Athens Seismic Network" insttype="" lat="37.17872" lon="21.92522" esm:processing="manual (Paolucci et al 2011)" esm:quality="best">
		<comp name="--.HNE" depth="0.0">
			<acc value="0.0135427497246441" flag="0"/>
			<vel value="0.0086468285355353" flag="0"/>
			<psa03 value="0.0324828420048653" flag="0"/>
			<psa10 value="0.00480799752319948" flag="0"/>
			<psa30 value="0.000414312833285196" flag="0"/>
		</comp>
		<comp name="--.HNN" depth="0.0">
			<acc value="0.0174302365835881" flag="0"/>
			<vel value="0.00583817281146478" flag="0"/>
			<psa03 value="0.0305589271202796" flag="0"/>
			<psa10 value="0.00652744052353967" flag="0"/>
			<psa30 value="0.000550329141404742" flag="0"/>
		</comp>
		<comp name="--.HNZ" depth="0.0">
			<acc value="0.00891820947440424" flag="0"/>
			<vel value="0.00396932576264099" flag="0"/>
			<psa03 value="0.0264426441113986" flag="0"/>
			<psa10 value="0.00223084642198703" flag="0"/>
			<psa30 value="0.000432657137998688" flag="0"/>
		</comp>
	</station>
	<station code="PATC" name="PATC" netid="HL" source="National Observatory of Athens Seismic Network" insttype="" lat="38.26933" lon="21.76001" esm:processing="manual (Paolucci et al 2011)" esm:quality="good">
		<comp name="00.HNE" depth="0.0">
			<acc value="0.0169104172384006" flag="0"/>
			<vel value="0.010241368123851" flag="0"/>
			<psa03 value="0.0628628002986718" flag="0"/>
			<psa10 value="0.0157165949188003" flag="0"/>
			<psa30 value="0.00146083304608657" flag="0"/>
		</comp>
		<comp name="00.HNN" depth="0.0">
			<acc value="0.0189057195739539" flag="0"/>
			<vel value="0.0147288435374271" flag="0"/>
			<psa03 value="0.0458160195771103" flag="0"/>
			<psa10 value="0.015052173150519" flag="0"/>
			<psa30 value="0.00137090121078385" flag="0"/>
		</comp>
		<comp name="00.HNZ" depth="0.0">
			<acc value="0.0121534811111956" flag="0"/>
			<vel value="0.006028382665124" flag="0"/>
			<psa03 value="0.0302009894673334" flag="0"/>
			<psa10 value="0.00715964790305585" flag="0"/>
			<psa30 value="0.00050871888924975" flag="0"/>
		</comp>
	</station>
	<station code="PATG" name="PATG" netid="HL" source="National Observatory of Athens Seismic Network" insttype="" lat="38.23865" lon="21.72657" esm:processing="manual (Paolucci et al 2011)" esm:quality="good">
		<comp name="00.HNE" depth="0.0">
			<acc value="0.0223690216608319" flag="0"/>
			<vel value="0.0168171747779516" flag="0"/>
			<psa03 value="0.0602677523148121" flag="0"/>
			<psa10 value="0.0249943388831651" flag="0"/>
			<psa30 value="0.00213196614536065" flag="0"/>
		</comp>
		<comp name="00.HNN" depth="0.0">
			<acc value="0.0232753162742361" flag="0"/>
			<vel value="0.0152383876326791" flag="0"/>
			<psa03 value="0.0665764034479884" flag="0"/>
			<psa10 value="0.0178669053688745" flag="0"/>
			<psa30 value="0.00157850504949263" flag="0"/>
		</comp>
		<comp name="00.HNZ" depth="0.0">
			<acc value="0.0169633142448075" flag="0"/>
			<vel value="0.00573320807214456" flag="0"/>
			<psa03 value="0.0281428479628929" flag="0"/>
			<psa10 value="0.0104374619599104" flag="0"/>
			<psa30 value="0.00092526883286586" flag="0"/>
		</comp>
	</station>
	<station code="SMHA" name="SMHA" netid="HL" source="National Observatory of Athens Seismic Network" insttype="" lat="38.25123" lon="20.6477" esm:processing="automatic (Paolucci et al 2011)" esm:quality="best">
		<comp name="00.HNE" depth="0.0">
			<acc value="0.0633578070372241" flag="0"/>
			<vel value="0.0279951109990542" flag="0"/>
			<psa03 value="0.193458503176468" flag="0"/>
			<psa10 value="0.0151254007335685" flag="0"/>
			<psa30 value="0.0011450346029236" flag="0"/>
		</comp>
		<comp name="00.HNN" depth="0.0">
			<acc value="0.0561344553237689" flag="0"/>
			<vel value="0.0232759919350012" flag="0"/>
			<psa03 value="0.172222940174409" flag="0"/>
			<psa10 value="0.0143348146111264" flag="0"/>
			<psa30 value="0.00084621116150417" flag="0"/>
		</comp>
		<comp name="00.HNZ" depth="0.0">
			<acc value="0.0318523244596491" flag="0"/>
			<vel value="0.0102774435850746" flag="0"/>
			<psa03 value="0.0684750986392766" flag="0"/>
			<psa10 value="0.00598888235906676" flag="0"/>
			<psa30 value="0.000350773315135491" flag="0"/>
		</comp>
	</station>
	<station code="ZARA" name="ZARA" netid="HL" source="National Observatory of Athens Seismic Network" insttype="" lat="37.4865" lon="21.6491" esm:processing="manual (Paolucci et al 2011)" esm:quality="good">
		<comp name="00.HNE" depth="0.0">
			<acc value="0.131544589776715" flag="0"/>
			<vel value="0.0429190123268836" flag="0"/>
			<psa03 value="0.207176057730391" flag="0"/>
			<psa10 value="0.0159714642811247" flag="0"/>
			<psa30 value="0.00128686358173002" flag="0"/>
		</comp>
		<comp name="00.HNN" depth="0.0">
			<acc value="0.138635305104969" flag="0"/>
			<vel value="0.0372482049239734" flag="0"/>
			<psa03 value="0.195487095894035" flag="0"/>
			<psa10 value="0.0236962278838022" flag="0"/>
			<psa30 value="0.00145407486699037" flag="0"/>
		</comp>
		<comp name="00.HNZ" depth="0.0">
			<acc value="0.0402431221469617" flag="0"/>
			<vel value="0.0150962484235609" flag="0"/>
			<psa03 value="0.10727122077525" flag="0"/>
			<psa10 value="0.00740638204271169" flag="0"/>
			<psa30 value="0.000703525928056674" flag="0"/>
		</comp>
	</station>
	<station code="ANX" name="ANX" netid="HP" source="University of Patras, Seismological Laboratory (PSLNET)" insttype="" lat="38.5933" lon="21.9209" esm:processing="manual (Paolucci et al 2011)" esm:quality="best">
		<comp name="--.HNE" depth="0.0">
			<acc value="0.00581730429259047" flag="0"/>
			<vel value="0.00409101748561374" flag="0"/>
			<psa03 value="0.0155702879031586" flag="0"/>
			<psa10 value="0.00506168583472508" flag="0"/>
			<psa30 value="0.000306036693268979" flag="0"/>
		</comp>
		<comp name="--.HNN" depth="0.0">
			<acc value="0.00677439981224802" flag="0"/>
			<vel value="0.00473335950530865" flag="0"/>
			<psa03 value="0.0194181176723299" flag="0"/>
			<psa10 value="0.00665629807860029" flag="0"/>
			<psa30 value="0.000312748024261719" flag="0"/>
		</comp>
		<comp name="--.HNZ" depth="0.0">
			<acc value="0.00253223762632158" flag="0"/>
			<vel value="0.00204214760575507" flag="0"/>
			<psa03 value="0.00697978423245039" flag="0"/>
			<psa10 value="0.00213420325569156" flag="0"/>
			<psa30 value="0.000333776861372307" flag="0"/>
		</comp>
	</station>
	<station code="ARS1" name="ARS1" netid="HI" source="ITSAK Strong Motion Network" insttype="" lat="37.6349" lon="22.7293" esm:processing="discarded" esm:quality="bad">
		<comp name="--.HNE" depth="0.0">
			<acc value="0" flag="1"/>
			<vel value="0" flag="1"/>
			<psa03 value="0" flag="1"/>
			<psa10 value="0" flag="1"/>
			<psa30 value="0" flag="1"/>
		</comp>
		<comp name="--.HNN" depth="0.0">
			<acc value="0" flag="1"/>
			<vel value="0" flag="1"/>
			<psa03 value="0" flag="1"/>
			<psa10 value="0" flag="1"/>
			<psa30 value="0" flag="1"/>
		</comp>
		<comp name="--.HNZ" depth="0.0">
			<acc value="0" flag="1"/>
			<vel value="0" flag="1"/>
			<psa03 value="0" flag="1"/>
			<psa10 value="0" flag="1"/>
			<psa30 value="0" flag="1"/>
		</comp>
	</station>
	<station code="ART2" name="ART2" netid="HI" source="ITSAK Strong Motion Network" insttype="" lat="39.1474" lon="20.9937" esm:processing="discarded" esm:quality="bad">
		<comp name="--.HNE" depth="0.0">
			<acc value="0" flag="1"/>
			<vel value="0" flag="1"/>
			<psa03 value="0" flag="1"/>
			<psa10 value="0" flag="1"/>
			<psa30 value="0" flag="1"/>
		</comp>
		<comp name="--.HNN" depth="0.0">
			<acc value="0" flag="1"/>
			<vel value="0" flag="1"/>
			<psa03 value="0" flag="1"/>
			<psa10 value="0" flag="1"/>
			<psa30 value="0" flag="1"/>
		</comp>
		<comp name="--.HNZ" depth="0.0">
			<acc value="0" flag="1"/>
			<vel value="0" flag="1"/>
			<psa03 value="0" flag="1"/>
			<psa10 value="0" flag="1"/>
			<psa30 value="0" flag="1"/>
		</comp>
	</station>
	<station code="LAM2" name="LAM2" netid="HI" source="ITSAK Strong Motion Network" insttype="" lat="38.90203" lon="22.431301" esm:processing="discarded" esm:quality="bad">
		<comp name="--.HNE" depth="0.0">
			<acc value="0" flag="1"/>
			<vel value="0" flag="1"/>
			<psa03 value="0" flag="1"/>
			<psa10 value="0" flag="1"/>
			<psa30 value="0" flag="1"/>
		</comp>
		<comp name="--.HNN" depth="0.0">
			<acc value="0" flag="1"/>
			<vel value="0" flag="1"/>
			<psa03 value="0" flag="1"/>
			<psa10 value="0" flag="1"/>
			<psa30 value="0" flag="1"/>
		</comp>
		<comp name="--.HNZ" depth="0.0">
			<acc value="0" flag="1"/>
			<vel value="0" flag="1"/>
			<psa03 value="0" flag="1"/>
			<psa10 value="0" flag="1"/>
			<psa30 value="0" flag="1"/>
		</comp>
	</station>
	<station code="ARTB" name="ARTB" netid="HL" source="National Observatory of Athens Seismic Network" insttype="" lat="39.15702" lon="20.9785" esm:processing="automatic (Paolucci et al 2011)" esm:quality="bad">
		<comp name="00.HNE" depth="0.0">
			<acc value="0" flag="1"/>
			<vel value="0" flag="1"/>
			<psa03 value="0" flag="1"/>
			<psa10 value="0" flag="1"/>
			<psa30 value="0" flag="1"/>
		</comp>
		<comp name="00.HNN" depth="0.0">
			<acc value="0" flag="1"/>
			<vel value="0" flag="1"/>
			<psa03 value="0" flag="1"/>
			<psa10 value="0" flag="1"/>
			<psa30 value="0" flag="1"/>
		</comp>
		<comp name="00.HNZ" depth="0.0">
			<acc value="0" flag="1"/>
			<vel value="0" flag="1"/>
			<psa03 value="0" flag="1"/>
			<psa10 value="0" flag="1"/>
			<psa30 value="0" flag="1"/>
		</comp>
	</station>
	<station code="DLFA" name="DLFA" netid="HL" source="National Observatory of Athens Seismic Network" insttype="" lat="38.47836" lon="22.49583" esm:processing="discarded" esm:quality="bad">
		<comp name="00.HNE" depth="0.0">
			<acc value="0" flag="1"/>
			<vel value="0" flag="1"/>
			<psa03 value="0" flag="1"/>
			<psa10 value="0" flag="1"/>
			<psa30 value="0" flag="1"/>
		</comp>
		<comp name="00.HNN" depth="0.0">
			<acc value="0" flag="1"/>
			<vel value="0" flag="1"/>
			<psa03 value="0" flag="1"/>
			<psa10 value="0" flag="1"/>
			<psa30 value="0" flag="1"/>
		</comp>
		<comp name="00.HNZ" depth="0.0">
			<acc value="0" flag="1"/>
			<vel value="0" flag="1"/>
			<psa03 value="0" flag="1"/>
			<psa10 value="0" flag="1"/>
			<psa30 value="0" flag="1"/>
		</comp>
	</station>
	<station code="KIAA" name="KIAA" netid="HL" source="National Observatory of Athens Seismic Network" insttype="" lat="38.0139" lon="22.7495" esm:processing="automatic (Paolucci et al 2011)" esm:quality="bad">
		<comp name="00.HNE" depth="0.0">
			<acc value="0" flag="1"/>
			<vel value="0" flag="1"/>
			<psa03 value="0" flag="1"/>
			<psa10 value="0" flag="1"/>
			<psa30 value="0" flag="1"/>
		</comp>
		<comp name="00.HNN" depth="0.0">
			<acc value="0" flag="1"/>
			<vel value="0" flag="1"/>
			<psa03 value="0" flag="1"/>
			<psa10 value="0" flag="1"/>
			<psa30 value="0" flag="1"/>
		</comp>
		<comp name="00.HNZ" depth="0.0">
			<acc value="0" flag="1"/>
			<vel value="0" flag="1"/>
			<psa03 value="0" flag="1"/>
			<psa10 value="0" flag="1"/>
			<psa30 value="0" flag="1"/>
		</comp>
	</station>
	<station code="MNVA" name="MNVA" netid="HL" source="National Observatory of Athens Seismic Network" insttype="" lat="36.68709" lon="23.03734" esm:processing="discarded" esm:quality="bad">
		<comp name="00.HNE" depth="0.0">
			<acc value="0" flag="1"/>
			<vel value="0" flag="1"/>
			<psa03 value="0" flag="1"/>
			<psa10 value="0" flag="1"/>
			<psa30 value="0" flag="1"/>
		</comp>
		<comp name="00.HNN" depth="0.0">
			<acc value="0" flag="1"/>
			<vel value="0" flag="1"/>
			<psa03 value="0" flag="1"/>
			<psa10 value="0" flag="1"/>
			<psa30 value="0" flag="1"/>
		</comp>
		<comp name="00.HNZ" depth="0.0">
			<acc value="0" flag="1"/>
			<vel value="0" flag="1"/>
			<psa03 value="0" flag="1"/>
			<psa10 value="0" flag="1"/>
			<psa30 value="0" flag="1"/>
		</comp>
	</station>
	<station code="NPLA" name="NPLA" netid="HL" source="National Observatory of Athens Seismic Network" insttype="" lat="37.56561" lon="22.79975" esm:processing="automatic (Paolucci et al 2011)" esm:quality="bad">
		<comp name="00.HNE" depth="0.0">
			<acc value="0" flag="1"/>
			<vel value="0" flag="1"/>
			<psa03 value="0" flag="1"/>
			<psa10 value="0" flag="1"/>
			<psa30 value="0" flag="1"/>
		</comp>
		<comp name="00.HNN" depth="0.0">
			<acc value="0" flag="1"/>
			<vel value="0" flag="1"/>
			<psa03 value="0" flag="1"/>
			<psa10 value="0" flag="1"/>
			<psa30 value="0" flag="1"/>
		</comp>
		<comp name="00.HNZ" depth="0.0">
			<acc value="0" flag="1"/>
			<vel value="0" flag="1"/>
			<psa03 value="0" flag="1"/>
			<psa10 value="0" flag="1"/>
			<psa30 value="0" flag="1"/>
		</comp>
	</station>
	<station code="PRGA" name="PRGA" netid="HL" source="National Observatory of Athens Seismic Network" insttype="" lat="39.28557" lon="20.40157" esm:processing="automatic (Paolucci et al 2011)" esm:quality="bad">
		<comp name="00.HNE" depth="0.0">
			<acc value="0" flag="1"/>
			<vel value="0" flag="1"/>
			<psa03 value="0" flag="1"/>
			<psa10 value="0" flag="1"/>
			<psa30 value="0" flag="1"/>
		</comp>
		<comp name="00.HNN" depth="0.0">
			<acc value="0" flag="1"/>
			<vel value="0" flag="1"/>
			<psa03 value="0" flag="1"/>
			<psa10 value="0" flag="1"/>
			<psa30 value="0" flag="1"/>
		</comp>
		<comp name="00.HNZ" depth="0.0">
			<acc value="0" flag="1"/>
			<vel value="0" flag="1"/>
			<psa03 value="0" flag="1"/>
			<psa10 value="0" flag="1"/>
			<psa30 value="0" flag="1"/>
		</comp>
	</station>
