<stationlist created="1719999081">
	<station code="ABEA" name="ABEA" netid="HC" source="Seismological Network of Crete (HC)" insttype="" lat="35.5163" lon="24.0113">
		<comp name=".HNE" depth="0.0">
			<acc value="0.0020440706992422" flag="0"/>
			<vel value="0.00181476204964" flag="0"/>
			<psa03 value="0.00122842317388317" flag="0"/>
			<psa10 value="0.000853998604466476" flag="0"/>
			<psa30 value="0.000658288920910936" flag="0"/>
		</comp>
		<comp name=".HNN" depth="0.0">
			<acc value="0.00146198049114" flag="0"/>
			<vel value="0.00192915631276" flag="0"/>
			<psa03 value="0.00123455289309772" flag="0"/>
			<psa10 value="0.00119834899411294" flag="0"/>
			<psa30 value="0.000616580637109224" flag="0"/>
		</comp>
		<comp name=".HNZ" depth="0.0">
			<acc value="0.0025795795783218" flag="0"/>
			<vel value="0.00252972566588" flag="0"/>
			<psa03 value="0.00115593928689288" flag="0"/>
			<psa10 value="0.000703680091916097" flag="0"/>
			<psa30 value="0.000700418013841407" flag="0"/>
		</comp>
	</station>
	<station code="ATEI" name="ATEI" netid="HC" source="Seismological Network of Crete (HC)" insttype="" lat="35.5193" lon="24.0432">
		<comp name=".HNE" depth="0.0">
			<acc value="0.015480816428568" flag="0"/>
			<vel value="0.0160334734452" flag="0"/>
			<psa03 value="0.0408948809601688" flag="0"/>
			<psa10 value="0.0224443762047611" flag="0"/>
			<psa30 value="0.00569452890126693" flag="0"/>
		</comp>
		<comp name=".HNN" depth="0.0">
			<acc value="0.018707929549938" flag="0"/>
			<vel value="0.0225223417535" flag="0"/>
			<psa03 value="0.0544719262059145" flag="0"/>
			<psa10 value="0.0251910375326175" flag="0"/>
			<psa30 value="0.00579490388392176" flag="0"/>
		</comp>
		<comp name=".HNZ" depth="0.0">
			<acc value="0.014823332991876" flag="0"/>
			<vel value="0.0110783098804" flag="0"/>
			<psa03 value="0.0434139645037659" flag="0"/>
			<psa10 value="0.0150441037855522" flag="0"/>
			<psa30 value="0.00266424732664363" flag="0"/>
		</comp>
	</station>
	<station code="G0LD" name="G0LD" netid="HC" source="Seismological Network of Crete (HC)" insttype="" lat="35.4955" lon="24.0306">
		<comp name=".HNE" depth="0.0">
			<acc value="0.0021888398542956" flag="0"/>
			<vel value="0.00279467326003" flag="0"/>
			<psa03 value="0.00255153540039802" flag="0"/>
			<psa10 value="0.00169004699638159" flag="0"/>
			<psa30 value="0.00093611440881872" flag="0"/>
		</comp>
		<comp name=".HNN" depth="0.0">
			<acc value="0.0030514979410824" flag="0"/>
			<vel value="0.00237490746156" flag="0"/>
			<psa03 value="0.00270037468735207" flag="0"/>
			<psa10 value="0.00134566554998652" flag="0"/>
			<psa30 value="0.000953842874910017" flag="0"/>
		</comp>
		<comp name=".HNZ" depth="0.0">
			<acc value="0.003437893038675" flag="0"/>
			<vel value="0.0058930660539" flag="0"/>
			<psa03 value="0.00209718596603718" flag="0"/>
			<psa10 value="0.00180010319331599" flag="0"/>
			<psa30 value="0.00141673947703619" flag="0"/>
		</comp>
	</station>
	<station code="LENT" name="LENT" netid="HC" source="Seismological Network of Crete (HC)" insttype="" lat="35.5074" lon="24.0402">
		<comp name=".HNE" depth="0.0">
			<acc value="0.002226588498051" flag="0"/>
			<vel value="0.0020146576499" flag="0"/>
			<psa03 value="0.00138425706482049" flag="0"/>
			<psa10 value="0.000953241604610251" flag="0"/>
			<psa30 value="0.000804851859151308" flag="0"/>
		</comp>
		<comp name=".HNN" depth="0.0">
			<acc value="0.0018866511359688" flag="0"/>
			<vel value="0.00233828289019" flag="0"/>
			<psa03 value="0.00138720501401501" flag="0"/>
			<psa10 value="0.000925766581398257" flag="0"/>
			<psa30 value="0.000797043581474456" flag="0"/>
		</comp>
		<comp name=".HNZ" depth="0.0">
			<acc value="0.0024644886134766" flag="0"/>
			<vel value="0.00177718064053" flag="0"/>
			<psa03 value="0.00124018672985024" flag="0"/>
			<psa10 value="0.000949352538384111" flag="0"/>
			<psa30 value="0.000792124818131153" flag="0"/>
		</comp>
	</station>
	<station code="MULT" name="MULT" netid="HC" source="Seismological Network of Crete (HC)" insttype="" lat="35.5091" lon="24.0118">
		<comp name=".HNE" depth="0.0">
			<acc value="0.026938507997976" flag="0"/>
			<vel value="0.0207972538521" flag="0"/>
			<psa03 value="0.067186820588998" flag="0"/>
			<psa10 value="0.0275622127363135" flag="0"/>
			<psa30 value="0.00604479252117827" flag="0"/>
		</comp>
		<comp name=".HNN" depth="0.0">
			<acc value="0.023935208617938" flag="0"/>
			<vel value="0.0243723878255" flag="0"/>
			<psa03 value="0.0785821952679828" flag="0"/>
			<psa10 value="0.0350437164742115" flag="0"/>
			<psa30 value="0.00644489194247632" flag="0"/>
		</comp>
		<comp name=".HNZ" depth="0.0">
			<acc value="0.017651620895436" flag="0"/>
			<vel value="0.0198459763803" flag="0"/>
			<psa03 value="0.0379745052079551" flag="0"/>
			<psa10 value="0.0205381174244812" flag="0"/>
			<psa30 value="0.00430145578367016" flag="0"/>
		</comp>
	</station>
	<station code="PASK" name="PASK" netid="HC" source="Seismological Network of Crete (HC)" insttype="" lat="35.4996" lon="24.0121">
		<comp name=".HNE" depth="0.0">
			<acc value="0.044120114931474" flag="0"/>
			<vel value="0.0289559653879" flag="0"/>
			<psa03 value="0.104751387181963" flag="0"/>
			<psa10 value="0.0605006128688467" flag="0"/>
			<psa30 value="0.00401751405725387" flag="0"/>
		</comp>
		<comp name=".HNN" depth="0.0">
			<acc value="0.04799059430061" flag="0"/>
			<vel value="0.0353360268781" flag="0"/>
			<psa03 value="0.0826292498238607" flag="0"/>
			<psa10 value="0.0283820264199571" flag="0"/>
			<psa30 value="0.00609224608140156" flag="0"/>
		</comp>
		<comp name=".HNZ" depth="0.0">
			<acc value="0.022204839339048" flag="0"/>
			<vel value="0.0180556956626" flag="0"/>
			<psa03 value="0.0763151440452345" flag="0"/>
			<psa10 value="0.0233637102311287" flag="0"/>
			<psa30 value="0.00312457657119624" flag="0"/>
		</comp>
	</station>
	<station code="POLY" name="POLY" netid="HC" source="Seismological Network of Crete (HC)" insttype="" lat="35.5226" lon="24.0602">
		<comp name=".HNE" depth="0.0">
			<acc value="0.001520478769353" flag="0"/>
			<vel value="0.00285425552502" flag="0"/>
			<psa03 value="0.00159643762464914" flag="0"/>
			<psa10 value="0.0012538619293853" flag="0"/>
			<psa30 value="0.00103547307417413" flag="0"/>
		</comp>
		<comp name=".HNN" depth="0.0">
			<acc value="0.00101406511243866" flag="0"/>
			<vel value="0.002761911339" flag="0"/>
			<psa03 value="0.00123746649756595" flag="0"/>
			<psa10 value="0.000900632474981443" flag="0"/>
			<psa30 value="0.00076912944063394" flag="0"/>
		</comp>
		<comp name=".HNZ" depth="0.0">
			<acc value="0.0012727651179432" flag="0"/>
			<vel value="0.00173547089373" flag="0"/>
			<psa03 value="0.00132983825802042" flag="0"/>
			<psa10 value="0.00069542831480509" flag="0"/>
			<psa30 value="0.000790900778712528" flag="0"/>
		</comp>
	</station>
	<station code="AGN1" name="AGN1" netid="HI" source="ITSAK Strong Motion Network" insttype="" lat="35.1879" lon="25.7155">
		<comp name=".HNE" depth="0.0">
			<acc value="0.035017646271222" flag="0"/>
			<vel value="0.0170717666091" flag="0"/>
			<psa03 value="0.0998454163523027" flag="0"/>
			<psa10 value="0.0248026149265235" flag="0"/>
			<psa30 value="0.00605287347317303" flag="0"/>
		</comp>
		<comp name=".HNN" depth="0.0">
			<acc value="0.041487792598176" flag="0"/>
			<vel value="0.0159330089762" flag="0"/>
			<psa03 value="0.103651553906966" flag="0"/>
			<psa10 value="0.0215089554877446" flag="0"/>
			<psa30 value="0.00421374205639684" flag="0"/>
		</comp>
		<comp name=".HNZ" depth="0.0">
			<acc value="0.018753660866418" flag="0"/>
			<vel value="0.0085324226513" flag="0"/>
			<psa03 value="0.0658924015066572" flag="0"/>
			<psa10 value="0.0141425103094121" flag="0"/>
			<psa30 value="0.00306062233454282" flag="0"/>
		</comp>
	</station>
	<station code="ARK1" name="ARK1" netid="HI" source="ITSAK Strong Motion Network" insttype="" lat="35.148777" lon="25.264194">
		<comp name=".HNE" depth="0.0">
			<acc value="0.29204986590492" flag="0"/>
			<vel value="0.120891431849" flag="0"/>
			<psa03 value="0.8785438658849" flag="0"/>
			<psa10 value="0.0819832434874262" flag="0"/>
			<psa30 value="0.00797617088219815" flag="0"/>
		</comp>
		<comp name=".HNN" depth="0.0">
			<acc value="0.27671481343356" flag="0"/>
			<vel value="0.165831733821" flag="0"/>
			<psa03 value="0.65777536605581" flag="0"/>
			<psa10 value="0.0943550805610883" flag="0"/>
			<psa30 value="0.0109486536279236" flag="0"/>
		</comp>
		<comp name=".HNZ" depth="0.0">
			<acc value="0.13169758311528" flag="0"/>
			<vel value="0.0529463095708" flag="0"/>
			<psa03 value="0.21834060982713" flag="0"/>
			<psa10 value="0.0563589285024369" flag="0"/>
			<psa30 value="0.00937964885572412" flag="0"/>
		</comp>
	</station>
	<station code="CH01" name="CH01" netid="HI" source="ITSAK Strong Motion Network" insttype="" lat="35.517" lon="24.0208">
		<comp name=".HNE" depth="0.0">
			<acc value="0.023328779164746" flag="0"/>
			<vel value="0.019749256295" flag="0"/>
			<psa03 value="0.0920870690662024" flag="0"/>
			<psa10 value="0.018105140001685" flag="0"/>
			<psa30 value="0.00621732145035567" flag="0"/>
		</comp>
		<comp name=".HNN" depth="0.0">
			<acc value="0.020754770088954" flag="0"/>
			<vel value="0.0226841670426" flag="0"/>
			<psa03 value="0.047582162501243" flag="0"/>
			<psa10 value="0.0250582262345105" flag="0"/>
			<psa30 value="0.00604088101206353" flag="0"/>
		</comp>
		<comp name=".HNZ" depth="0.0">
			<acc value="0.015914064782226" flag="0"/>
			<vel value="0.0114047467377" flag="0"/>
			<psa03 value="0.035034169800145" flag="0"/>
			<psa10 value="0.0244613010661486" flag="0"/>
			<psa30 value="0.00284183659105856" flag="0"/>
		</comp>
	</station>
	<station code="GOR1" name="GOR1" netid="HI" source="ITSAK Strong Motion Network" insttype="" lat="35.0582" lon="24.9628">
		<comp name=".HNE" depth="0.0">
			<acc value="0.41942900567142" flag="0"/>
			<vel value="0.196666590166" flag="0"/>
			<psa03 value="0.785063006570611" flag="0"/>
			<psa10 value="0.414415592997934" flag="0"/>
			<psa30 value="0.0256544978178901" flag="0"/>
		</comp>
		<comp name=".HNN" depth="0.0">
			<acc value="0.39410668775484" flag="0"/>
			<vel value="0.261376432388" flag="0"/>
			<psa03 value="0.674819370138668" flag="0"/>
			<psa10 value="0.401275892558512" flag="0"/>
			<psa30 value="0.0376654918206462" flag="0"/>
		</comp>
		<comp name=".HNZ" depth="0.0">
			<acc value="0.31461734973996" flag="0"/>
			<vel value="0.118896981967" flag="0"/>
			<psa03 value="0.877352953658694" flag="0"/>
			<psa10 value="0.121069675271608" flag="0"/>
			<psa30 value="0.0151210416947959" flag="0"/>
		</comp>
	</station>
	<station code="HER1" name="HER1" netid="HI" source="ITSAK Strong Motion Network" insttype="" lat="35.317672" lon="25.10217">
		<comp name=".HNE" depth="0.0">
			<acc value="0.15435454767636" flag="0"/>
			<vel value="0.256247752244" flag="0"/>
			<psa03 value="0.389373335738992" flag="0"/>
			<psa10 value="0.531556192988246" flag="0"/>
			<psa30 value="0.026571968595859" flag="0"/>
		</comp>
		<comp name=".HNN" depth="0.0">
			<acc value="0.12163270435536" flag="0"/>
			<vel value="0.14371354648" flag="0"/>
			<psa03 value="0.400816677137708" flag="0"/>
			<psa10 value="0.207439246832161" flag="0"/>
			<psa30 value="0.0210337800513667" flag="0"/>
		</comp>
		<comp name=".HNZ" depth="0.0">
			<acc value="0.1194441948819" flag="0"/>
			<vel value="0.131221145484" flag="0"/>
			<psa03 value="0.348600280557596" flag="0"/>
			<psa10 value="0.285777541359468" flag="0"/>
			<psa30 value="0.00776688618473627" flag="0"/>
		</comp>
	</station>
	<station code="HER3" name="HER3" netid="HI" source="ITSAK Strong Motion Network" insttype="" lat="35.3296" lon="25.1065">
		<comp name=".HNE" depth="0.0">
			<acc value="0.1542164394489" flag="0"/>
			<vel value="0.127981340264" flag="0"/>
			<psa03 value="0.444996562171676" flag="0"/>
			<psa10 value="0.192623260345813" flag="0"/>
			<psa30 value="0.0142033375680542" flag="0"/>
		</comp>
		<comp name=".HNN" depth="0.0">
			<acc value="0.25526751831108" flag="0"/>
			<vel value="0.131585018826" flag="0"/>
			<psa03 value="0.507035338604157" flag="0"/>
			<psa10 value="0.216107151038122" flag="0"/>
			<psa30 value="0.0154791520845161" flag="0"/>
		</comp>
		<comp name=".HNZ" depth="0.0">
			<acc value="0.08978348132871" flag="0"/>
			<vel value="0.0618749791024" flag="0"/>
			<psa03 value="0.220269466771208" flag="0"/>
			<psa10 value="0.092199580269898" flag="0"/>
			<psa30 value="0.00642583484667147" flag="0"/>
		</comp>
	</station>
	<station code="KSS1" name="KSS1" netid="HI" source="ITSAK Strong Motion Network" insttype="" lat="35.4189" lon="26.9207">
		<comp name=".HNE" depth="0.0">
			<acc value="0.0025053546911268" flag="0"/>
			<vel value="0.00298510075898" flag="0"/>
			<psa03 value="0.0100727102363664" flag="0"/>
			<psa10 value="0.00395373738444603" flag="0"/>
			<psa30 value="0.0017717092420409" flag="0"/>
		</comp>
		<comp name=".HNN" depth="0.0">
			<acc value="0.0034702771905756" flag="0"/>
			<vel value="0.00412290905596" flag="0"/>
			<psa03 value="0.0106122909028002" flag="0"/>
			<psa10 value="0.00543106384383908" flag="0"/>
			<psa30 value="0.00114099975230121" flag="0"/>
		</comp>
		<comp name=".HNZ" depth="0.0">
			<acc value="0.0016690134177492" flag="0"/>
			<vel value="0.00330823997753" flag="0"/>
			<psa03 value="0.00340518130571456" flag="0"/>
			<psa10 value="0.0036539901057873" flag="0"/>
			<psa30 value="0.000941227872558631" flag="0"/>
		</comp>
	</station>
	<station code="KTL1" name="KTL1" netid="HI" source="ITSAK Strong Motion Network" insttype="" lat="35.20778" lon="25.34272">
		<comp name=".HNE" depth="0.0">
			<acc value="0.088140556434906" flag="0"/>
			<vel value="0.0595963716788" flag="0"/>
			<psa03 value="0.303917695555563" flag="0"/>
			<psa10 value="0.0542806908291849" flag="0"/>
			<psa30 value="0.00523722069017363" flag="0"/>
		</comp>
		<comp name=".HNN" depth="0.0">
			<acc value="0.092194214389512" flag="0"/>
			<vel value="0.0578214375916" flag="0"/>
			<psa03 value="0.309009074501125" flag="0"/>
			<psa10 value="0.0361496047339098" flag="0"/>
			<psa30 value="0.00794700645019647" flag="0"/>
		</comp>
		<comp name=".HNZ" depth="0.0">
			<acc value="0.056790937116498" flag="0"/>
			<vel value="0.0283779643175" flag="0"/>
			<psa03 value="0.132641672276559" flag="0"/>
			<psa10 value="0.0311221941926391" flag="0"/>
			<psa30 value="0.00476374932499354" flag="0"/>
		</comp>
	</station>
	<station code="RTH1" name="RTH1" netid="HI" source="ITSAK Strong Motion Network" insttype="" lat="35.365393" lon="24.471773">
		<comp name=".HNE" depth="0.0">
			<acc value="0.0670052929791" flag="0"/>
			<vel value="0.0273784913121" flag="0"/>
			<psa03 value="0.248806357200162" flag="0"/>
			<psa10 value="0.0192572857006851" flag="0"/>
			<psa30 value="0.00917966560781096" flag="0"/>
		</comp>
		<comp name=".HNN" depth="0.0">
			<acc value="0.066804495882834" flag="0"/>
			<vel value="0.0298685734962" flag="0"/>
			<psa03 value="0.212862642772272" flag="0"/>
			<psa10 value="0.0170957531347303" flag="0"/>
			<psa30 value="0.00483212427118895" flag="0"/>
		</comp>
		<comp name=".HNZ" depth="0.0">
			<acc value="0.067418590615626" flag="0"/>
			<vel value="0.025876653299" flag="0"/>
			<psa03 value="0.111622373601297" flag="0"/>
			<psa10 value="0.013660019284246" flag="0"/>
			<psa30 value="0.00468482201312462" flag="0"/>
		</comp>
	</station>
	<station code="IMMV" name="IMMV" netid="HL" source="National Observatory of Athens Seismic Network" insttype="" lat="35.4606" lon="23.9811">
		<comp name=".HNE" depth="0.0">
			<acc value="0.029303830942134" flag="0"/>
			<vel value="0.0154249238649" flag="0"/>
			<psa03 value="0.110502445244723" flag="0"/>
			<psa10 value="0.0166220817563432" flag="0"/>
			<psa30 value="0.00348621031932624" flag="0"/>
		</comp>
		<comp name=".HNN" depth="0.0">
			<acc value="0.028401519500628" flag="0"/>
			<vel value="0.0170488235625" flag="0"/>
			<psa03 value="0.0889063062733366" flag="0"/>
			<psa10 value="0.0161712456406526" flag="0"/>
			<psa30 value="0.00393646035451227" flag="0"/>
		</comp>
		<comp name=".HNZ" depth="0.0">
			<acc value="0.02584251314961" flag="0"/>
			<vel value="0.0127694276935" flag="0"/>
			<psa03 value="0.0696848089850288" flag="0"/>
			<psa10 value="0.0121136727838621" flag="0"/>
			<psa30 value="0.00184622251151589" flag="0"/>
		</comp>
	</station>
	<station code="SIVA" name="SIVA" netid="HL" source="National Observatory of Athens Seismic Network" insttype="" lat="35.01777" lon="24.81204">
		<comp name="00.HNE" depth="0.0">
			<acc value="1.4301086867898" flag="0"/>
			<vel value="0.637128050165" flag="0"/>
			<psa03 value="3.67289497793422" flag="0"/>
			<psa10 value="0.520820041772722" flag="0"/>
			<psa30 value="0.0401091303663689" flag="0"/>
		</comp>
		<comp name="00.HNN" depth="0.0">
			<acc value="1.5178463478756" flag="0"/>
			<vel value="0.779447993955" flag="0"/>
			<psa03 value="2.30039772339302" flag="0"/>
			<psa10 value="0.423248268121422" flag="0"/>
			<psa30 value="0.0331701140239231" flag="0"/>
		</comp>
		<comp name="00.HNZ" depth="0.0">
			<acc value="0.61516322187636" flag="0"/>
			<vel value="0.223195570066" flag="0"/>
			<psa03 value="0.96602307762047" flag="0"/>
			<psa10 value="0.231056001326151" flag="0"/>
			<psa30 value="0.0134436797444665" flag="0"/>
		</comp>
	</station>
</stationlist>
