<?xml version="1.0" encoding="UTF-8" standalone="yes"?>
<!DOCTYPE earthquake SYSTEM "stationlist.dtd">
<stationlist created="" xmlns="ch.ethz.sed.shakemap.usgs.xml">
  <station code="IMMV" name="IMMV" netid="GE" insttype="STS-2/N" lat="35.4606" lon="23.9811">
    <comp name="--.HHE">
      <acc value="0.0311407855" flag="0"/>
      <vel value="0.0156761820" flag="0"/>
      <psa03 value="0.1139044228" flag="0"/>
      <psa10 value="0.0172568552" flag="0"/>
      <psa30 value="0.0030024827" flag="0"/>
    </comp>
    <comp name="--.HHN">
      <acc value="0.0298865025" flag="0"/>
      <vel value="0.0174217066" flag="0"/>
      <psa03 value="0.0931854282" flag="0"/>
      <psa10 value="0.0167423248" flag="0"/>
      <psa30 value="0.0036685715" flag="0"/>
    </comp>
    <comp name="--.HHZ">
      <acc value="0.0270337104" flag="0"/>
      <vel value="0.0137593855" flag="0"/>
      <psa03 value="0.0729902167" flag="0"/>
      <psa10 value="0.0122901814" flag="0"/>
      <psa30 value="0.0017122159" flag="0"/>
    </comp>
  </station>
  <station code="ZKR" name="ZKR" netid="GE" insttype="STS-2/N" lat="35.1147" lon="26.2169">
    <comp name="--.HHE">
      <acc value="0.0136897757" flag="0"/>
      <vel value="0.0110217079" flag="0"/>
      <psa03 value="0.0359711776" flag="0"/>
      <psa10 value="0.0180375514" flag="0"/>
      <psa30 value="0.0021500770" flag="0"/>
    </comp>
    <comp name="--.HHN">
      <acc value="0.0056380201" flag="0"/>
      <vel value="0.0042611337" flag="0"/>
      <psa03 value="0.0188166152" flag="0"/>
      <psa10 value="0.0090004699" flag="0"/>
      <psa30 value="0.0008305226" flag="0"/>
    </comp>
    <comp name="--.HHZ">
      <acc value="0.0056417262" flag="0"/>
      <vel value="0.0063252052" flag="0"/>
      <psa03 value="0.0153082956" flag="0"/>
      <psa10 value="0.0095292418" flag="0"/>
      <psa30 value="0.0017784843" flag="0"/>
    </comp>
  </station>
  <station code="IDI" name="IDI" netid="MN" insttype="" lat="35.288" lon="24.89">
    <comp name="--.HHE">
      <acc value="0.2230090984" flag="0"/>
      <vel value="0.0828137821" flag="0"/>
      <psa03 value="0.2260396394" flag="0"/>
      <psa10 value="0.0353764682" flag="0"/>
      <psa30 value="0.0044407995" flag="0"/>
    </comp>
    <comp name="--.HHZ">
      <acc value="0.1264250900" flag="0"/>
      <vel value="0.0553375942" flag="0"/>
      <psa03 value="0.4491149939" flag="0"/>
      <psa10 value="0.0152523805" flag="0"/>
      <psa30 value="0.0026380620" flag="0"/>
    </comp>
    <comp name="--.HHN">
      <acc value="0.1769558934" flag="0"/>
      <vel value="0.0549663415" flag="0"/>
      <psa03 value="0.4076495108" flag="0"/>
      <psa10 value="0.0202912833" flag="0"/>
      <psa30 value="0.0029611516" flag="0"/>
    </comp>
  </station>
</stationlist>
