<?xml version="1.0" encoding="UTF-8" standalone="yes"?>
<!DOCTYPE earthquake SYSTEM "stationlist.dtd">
<stationlist created="" xmlns="ch.ethz.sed.shakemap.usgs.xml">
  <station code="IMMV" name="IMMV" netid="GE" insttype="STS-2/N" lat="35.4606" lon="23.9811">
    <comp name="--.HHE">
      <acc value="0.0311407847" flag="0"/>
      <vel value="0.0156761825" flag="0"/>
      <psa03 value="0.1139044228" flag="0"/>
      <psa10 value="0.0172568552" flag="0"/>
      <psa30 value="0.0030024912" flag="0"/>
    </comp>
    <comp name="--.HHN">
      <acc value="0.0298865029" flag="0"/>
      <vel value="0.0174217067" flag="0"/>
      <psa03 value="0.0931854282" flag="0"/>
      <psa10 value="0.0167423248" flag="0"/>
      <psa30 value="0.0036685934" flag="0"/>
    </comp>
    <comp name="--.HHZ">
      <acc value="0.0270337107" flag="0"/>
      <vel value="0.0137593857" flag="0"/>
      <psa03 value="0.0729902167" flag="0"/>
      <psa10 value="0.0122901814" flag="0"/>
      <psa30 value="0.0017122100" flag="0"/>
    </comp>
  </station>
  <station code="ZKR" name="ZKR" netid="GE" insttype="STS-2/N" lat="35.1147" lon="26.2169">
    <comp name="--.HHE">
      <acc value="0.0136897758" flag="0"/>
      <vel value="0.0110217090" flag="0"/>
      <psa03 value="0.0359711776" flag="0"/>
      <psa10 value="0.0180375514" flag="0"/>
      <psa30 value="0.0021500197" flag="0"/>
    </comp>
    <comp name="--.HHN">
      <acc value="0.0056380204" flag="0"/>
      <vel value="0.0042611334" flag="0"/>
      <psa03 value="0.0188166152" flag="0"/>
      <psa10 value="0.0090004699" flag="0"/>
      <psa30 value="0.0008305023" flag="0"/>
    </comp>
    <comp name="--.HHZ">
      <acc value="0.0056417268" flag="0"/>
      <vel value="0.0063252050" flag="0"/>
      <psa03 value="0.0153082956" flag="0"/>
      <psa10 value="0.0095292418" flag="0"/>
      <psa30 value="0.0017783199" flag="0"/>
    </comp>
  </station>
  <station code="CHAN" name="CHAN" netid="HC" insttype="120" lat="35.5193" lon="24.0428">
    <comp name="--.HHE">
      <acc value="0.0331353419" flag="0"/>
      <vel value="0.0285841891" flag="0"/>
      <psa03 value="0.0807713541" flag="0"/>
      <psa10 value="0.0415366609" flag="0"/>
      <psa30 value="0.0099437445" flag="0"/>
    </comp>
    <comp name="--.HHZ">
      <acc value="0.0281075488" flag="0"/>
      <vel value="0.0206138995" flag="0"/>
      <psa03 value="0.0837592140" flag="0"/>
      <psa10 value="0.0288067815" flag="0"/>
      <psa30 value="0.0042897634" flag="0"/>
    </comp>
    <comp name="--.HHN">
      <acc value="0.0371598262" flag="0"/>
      <vel value="0.0414004947" flag="0"/>
      <psa03 value="0.1101468107" flag="0"/>
      <psa10 value="0.0485431995" flag="0"/>
      <psa30 value="0.0080157716" flag="0"/>
    </comp>
  </station>
  <station code="IMOD" name="IMOD" netid="HC" insttype="120" lat="34.9731" lon="24.7995">
    <comp name="--.HHE">
      <acc value="11.1817977920" flag="0"/>
      <vel value="0.7319391709" flag="0"/>
      <psa03 value="2.5582141134" flag="0"/>
      <psa10 value="0.2855339369" flag="0"/>
      <psa30 value="0.0455210016" flag="0"/>
    </comp>
    <comp name="--.HHN">
      <acc value="17.7090398905" flag="0"/>
      <vel value="0.7037506325" flag="0"/>
      <psa03 value="3.5168504147" flag="0"/>
      <psa10 value="0.2611848650" flag="0"/>
      <psa30 value="0.0461545106" flag="0"/>
    </comp>
    <comp name="--.HHZ">
      <acc value="0.7180646094" flag="0"/>
      <vel value="0.2855627734" flag="0"/>
      <psa03 value="2.0593959887" flag="0"/>
      <psa10 value="0.1121942992" flag="0"/>
      <psa30 value="0.0159046256" flag="0"/>
    </comp>
  </station>
  <station code="IPPL" name="IPPL" netid="HC" insttype="60" lat="35.3486" lon="24.4632">
    <comp name="--.HHE">
      <acc value="0.0000000000" flag="0"/>
      <vel value="-100.0000000000" flag="0"/>
      <psa03 value="0.0000000000" flag="0"/>
      <psa10 value="0.0000000000" flag="0"/>
      <psa30 value="0.0000000000" flag="0"/>
    </comp>
    <comp name="--.HHN">
      <acc value="0.0000000000" flag="0"/>
      <vel value="-100.0000000000" flag="0"/>
      <psa03 value="0.0000000000" flag="0"/>
      <psa10 value="0.0000000000" flag="0"/>
      <psa30 value="0.0000000000" flag="0"/>
    </comp>
    <comp name="--.HHZ">
      <acc value="0.0459305694" flag="0"/>
      <vel value="0.0193104395" flag="0"/>
      <psa03 value="0.1183426835" flag="0"/>
      <psa10 value="0.0144250014" flag="0"/>
      <psa30 value="0.0035050532" flag="0"/>
    </comp>
  </station>
  <station code="KNDR" name="KNDR" netid="HC" insttype="120" lat="35.2348" lon="23.6248">
    <comp name="--.HHE">
      <acc value="0.0256897821" flag="0"/>
      <vel value="0.0171195832" flag="0"/>
      <psa03 value="0.0942237132" flag="0"/>
      <psa10 value="0.0186253726" flag="0"/>
      <psa30 value="0.0016566131" flag="0"/>
    </comp>
    <comp name="--.HHN">
      <acc value="0.0221808233" flag="0"/>
      <vel value="0.0153436710" flag="0"/>
      <psa03 value="0.0601951207" flag="0"/>
      <psa10 value="0.0221192938" flag="0"/>
      <psa30 value="0.0022003389" flag="0"/>
    </comp>
    <comp name="--.HHZ">
      <acc value="0.0166297875" flag="0"/>
      <vel value="0.0104172802" flag="0"/>
      <psa03 value="0.0523946913" flag="0"/>
      <psa10 value="0.0095817585" flag="0"/>
      <psa30 value="0.0022096008" flag="0"/>
    </comp>
  </station>
  <station code="KNSS" name="KNSS" netid="HC" insttype="60" lat="35.3042" lon="25.1802">
    <comp name="--.HHN">
      <acc value="0.0765358352" flag="0"/>
      <vel value="0.0386093145" flag="0"/>
      <psa03 value="0.1976779498" flag="0"/>
      <psa10 value="0.0193226072" flag="0"/>
      <psa30 value="0.0056137939" flag="0"/>
    </comp>
    <comp name="--.HHZ">
      <acc value="0.0633762103" flag="0"/>
      <vel value="0.0274158510" flag="0"/>
      <psa03 value="0.1399825999" flag="0"/>
      <psa10 value="0.0122633645" flag="0"/>
      <psa30 value="0.0060832860" flag="0"/>
    </comp>
    <comp name="--.HHE">
      <acc value="0.0859494243" flag="0"/>
      <vel value="0.0328204744" flag="0"/>
      <psa03 value="0.2106366155" flag="0"/>
      <psa10 value="0.0293746799" flag="0"/>
      <psa30 value="0.0046691051" flag="0"/>
    </comp>
  </station>
  <station code="PFKS" name="PFKS" netid="HC" insttype="120" lat="35.0429" lon="25.4733">
    <comp name="--.HHE">
      <acc value="0.0826985104" flag="0"/>
      <vel value="0.0426407495" flag="0"/>
      <psa03 value="0.2019560745" flag="0"/>
      <psa10 value="0.0358322827" flag="0"/>
      <psa30 value="0.0023914559" flag="0"/>
    </comp>
    <comp name="--.HHN">
      <acc value="0.1304666469" flag="0"/>
      <vel value="0.0545524108" flag="0"/>
      <psa03 value="0.3951290126" flag="0"/>
      <psa10 value="0.0259133462" flag="0"/>
      <psa30 value="0.0026618575" flag="0"/>
    </comp>
    <comp name="--.HHZ">
      <acc value="0.0514085661" flag="0"/>
      <vel value="0.0257801814" flag="0"/>
      <psa03 value="0.1048143257" flag="0"/>
      <psa10 value="0.0191188263" flag="0"/>
      <psa30 value="0.0053279044" flag="0"/>
    </comp>
  </station>
  <station code="STIA" name="STIA" netid="HC" insttype="120" lat="35.2021" lon="26.0909">
    <comp name="--.HHZ">
      <acc value="0.0098786229" flag="0"/>
      <vel value="0.0096584397" flag="0"/>
      <psa03 value="0.0285323886" flag="0"/>
      <psa10 value="0.0118455874" flag="0"/>
      <psa30 value="0.0016542055" flag="0"/>
    </comp>
    <comp name="--.HHE">
      <acc value="0.0131155198" flag="0"/>
      <vel value="0.0166899138" flag="0"/>
      <psa03 value="0.0365252196" flag="0"/>
      <psa10 value="0.0320494860" flag="0"/>
      <psa30 value="0.0031193824" flag="0"/>
    </comp>
    <comp name="--.HHN">
      <acc value="0.0000000000" flag="0"/>
      <vel value="-100.0000000000" flag="0"/>
      <psa03 value="0.0000000000" flag="0"/>
      <psa10 value="0.0000000000" flag="0"/>
      <psa30 value="0.0000000000" flag="0"/>
    </comp>
  </station>
  <station code="IACM" name="IACM" netid="HL" insttype="120" lat="35.3058" lon="25.0709">
    <comp name="--.HHE">
      <acc value="0.3232012305" flag="0"/>
      <vel value="0.1134404235" flag="0"/>
      <psa03 value="0.5039616648" flag="0"/>
      <psa10 value="0.1874432817" flag="0"/>
      <psa30 value="0.0135781688" flag="0"/>
    </comp>
    <comp name="--.HHN">
      <acc value="0.1876843981" flag="0"/>
      <vel value="0.1106255323" flag="0"/>
      <psa03 value="0.6374200449" flag="0"/>
      <psa10 value="0.1215701048" flag="0"/>
      <psa30 value="0.0104754793" flag="0"/>
    </comp>
    <comp name="--.HHZ">
      <acc value="0.1733560055" flag="0"/>
      <vel value="0.0646436228" flag="0"/>
      <psa03 value="0.2497303795" flag="0"/>
      <psa10 value="0.0627672504" flag="0"/>
      <psa30 value="0.0045916741" flag="0"/>
    </comp>
  </station>
  <station code="IDI" name="IDI" netid="HL" insttype="120" lat="35.288" lon="24.89">
    <comp name="--.HHE">
      <acc value="0.2168246367" flag="0"/>
      <vel value="0.0820765108" flag="0"/>
      <psa03 value="0.2250158865" flag="0"/>
      <psa10 value="0.0356528142" flag="0"/>
      <psa30 value="0.0044633025" flag="0"/>
    </comp>
    <comp name="--.HHN">
      <acc value="0.1738874785" flag="0"/>
      <vel value="0.0545720309" flag="0"/>
      <psa03 value="0.4028681927" flag="0"/>
      <psa10 value="0.0204070049" flag="0"/>
      <psa30 value="0.0029832936" flag="0"/>
    </comp>
    <comp name="--.HHZ">
      <acc value="0.1226216187" flag="0"/>
      <vel value="0.0551166456" flag="0"/>
      <psa03 value="0.4457326344" flag="0"/>
      <psa10 value="0.0151045031" flag="0"/>
      <psa30 value="0.0026666470" flag="0"/>
    </comp>
  </station>
  <station code="IMMV" name="IMMV" netid="HL" insttype="120" lat="35.4606" lon="23.9811">
    <comp name="--.HHE">
      <acc value="0.0300010742" flag="0"/>
      <vel value="0.0153297388" flag="0"/>
      <psa03 value="0.1106077295" flag="0"/>
      <psa10 value="0.0171585632" flag="0"/>
      <psa30 value="0.0030006627" flag="0"/>
    </comp>
    <comp name="--.HHN">
      <acc value="0.0291521377" flag="0"/>
      <vel value="0.0170889756" flag="0"/>
      <psa03 value="0.0904552597" flag="0"/>
      <psa10 value="0.0166582694" flag="0"/>
      <psa30 value="0.0036635812" flag="0"/>
    </comp>
    <comp name="--.HHZ">
      <acc value="0.0262841066" flag="0"/>
      <vel value="0.0134841693" flag="0"/>
      <psa03 value="0.0710798383" flag="0"/>
      <psa10 value="0.0122032422" flag="0"/>
      <psa30 value="0.0017074906" flag="0"/>
    </comp>
  </station>
  <station code="SIVA" name="SIVA" netid="HL" insttype="60" lat="35.0178" lon="24.812">
    <comp name="--.HHN">
      <acc value="1.6246327517" flag="0"/>
      <vel value="0.7523186821" flag="0"/>
      <psa03 value="2.2321806682" flag="0"/>
      <psa10 value="0.3700167010" flag="0"/>
      <psa30 value="0.0286984061" flag="0"/>
    </comp>
    <comp name="--.HHZ">
      <acc value="0.6282628217" flag="0"/>
      <vel value="0.2256341864" flag="0"/>
      <psa03 value="0.9609052677" flag="0"/>
      <psa10 value="0.2347931016" flag="0"/>
      <psa30 value="0.0125828043" flag="0"/>
    </comp>
    <comp name="--.HHE">
      <acc value="1.5391177531" flag="0"/>
      <vel value="0.6967552416" flag="0"/>
      <psa03 value="3.9087461980" flag="0"/>
      <psa10 value="0.5563677984" flag="0"/>
      <psa30 value="0.0396860278" flag="0"/>
    </comp>
  </station>
  <station code="VAM" name="VAM" netid="HL" insttype="CMG3ESPC-120s" lat="35.407" lon="24.1997">
    <comp name="--.HHN">
      <acc value="0.0758246642" flag="0"/>
      <vel value="0.0390514594" flag="0"/>
      <psa03 value="0.2265448584" flag="0"/>
      <psa10 value="0.0218530233" flag="0"/>
      <psa30 value="0.0022795873" flag="0"/>
    </comp>
    <comp name="--.HHE">
      <acc value="0.0656186169" flag="0"/>
      <vel value="0.0264390770" flag="0"/>
      <psa03 value="0.1757820407" flag="0"/>
      <psa10 value="0.0233360092" flag="0"/>
      <psa30 value="0.0025317519" flag="0"/>
    </comp>
    <comp name="--.HHZ">
      <acc value="0.0344971159" flag="0"/>
      <vel value="0.0149296540" flag="0"/>
      <psa03 value="0.0881318492" flag="0"/>
      <psa10 value="0.0144208071" flag="0"/>
      <psa30 value="0.0016839251" flag="0"/>
    </comp>
  </station>
  <station code="ZKR" name="ZKR" netid="HL" insttype="120" lat="35.1147" lon="26.2169">
    <comp name="--.HHE">
      <acc value="0.0134479027" flag="0"/>
      <vel value="0.0108349643" flag="0"/>
      <psa03 value="0.0350537674" flag="0"/>
      <psa10 value="0.0179323256" flag="0"/>
      <psa30 value="0.0021510885" flag="0"/>
    </comp>
    <comp name="--.HHN">
      <acc value="0.0055443277" flag="0"/>
      <vel value="0.0042539823" flag="0"/>
      <psa03 value="0.0183123471" flag="0"/>
      <psa10 value="0.0089477568" flag="0"/>
      <psa30 value="0.0008287987" flag="0"/>
    </comp>
    <comp name="--.HHZ">
      <acc value="0.0055928210" flag="0"/>
      <vel value="0.0062505883" flag="0"/>
      <psa03 value="0.0149084701" flag="0"/>
      <psa10 value="0.0094826834" flag="0"/>
      <psa30 value="0.0017790172" flag="0"/>
    </comp>
  </station>
  <station code="IDI" name="IDI" netid="MN" insttype="" lat="35.288" lon="24.89">
    <comp name="--.HHE">
      <acc value="0.2230090984" flag="0"/>
      <vel value="0.0828137819" flag="0"/>
      <psa03 value="0.2260396394" flag="0"/>
      <psa10 value="0.0353764681" flag="0"/>
      <psa30 value="0.0044407289" flag="0"/>
    </comp>
    <comp name="--.HHN">
      <acc value="0.1769558934" flag="0"/>
      <vel value="0.0549663413" flag="0"/>
      <psa03 value="0.4076495108" flag="0"/>
      <psa10 value="0.0202912835" flag="0"/>
      <psa30 value="0.0029611952" flag="0"/>
    </comp>
    <comp name="--.HHZ">
      <acc value="0.1264250900" flag="0"/>
      <vel value="0.0553375944" flag="0"/>
      <psa03 value="0.4491149939" flag="0"/>
      <psa10 value="0.0152523805" flag="0"/>
      <psa30 value="0.0026380894" flag="0"/>
    </comp>
  </station>
</stationlist>
