<?xml version="1.0" encoding="UTF-8" standalone="yes"?>
<!DOCTYPE earthquake SYSTEM "stationlist.dtd">
<stationlist created="" xmlns="ch.ethz.sed.shakemap.usgs.xml">
  <station code="IMMV" name="IMMV" netid="GE" insttype="STS-2/N" lat="35.4606" lon="23.9811">
    <comp name="--.HHN">
      <acc value="0.0298865025" flag="0"/>
      <vel value="0.0174217066" flag="0"/>
      <psa03 value="0.0931854282" flag="0"/>
      <psa10 value="0.0167423248" flag="0"/>
      <psa30 value="0.0036685638" flag="0"/>
    </comp>
    <comp name="--.HHE">
      <acc value="0.0311407856" flag="0"/>
      <vel value="0.0156761822" flag="0"/>
      <psa03 value="0.1139044228" flag="0"/>
      <psa10 value="0.0172568552" flag="0"/>
      <psa30 value="0.0030024806" flag="0"/>
    </comp>
    <comp name="--.HHZ">
      <acc value="0.0270337104" flag="0"/>
      <vel value="0.0137593857" flag="0"/>
      <psa03 value="0.0729902167" flag="0"/>
      <psa10 value="0.0122901814" flag="0"/>
      <psa30 value="0.0017122155" flag="0"/>
    </comp>
  </station>
  <station code="ZKR" name="ZKR" netid="GE" insttype="STS-2/N" lat="35.1147" lon="26.2169">
    <comp name="--.HHE">
      <acc value="0.0136897754" flag="0"/>
      <vel value="0.0110217082" flag="0"/>
      <psa03 value="0.0359711776" flag="0"/>
      <psa10 value="0.0180375514" flag="0"/>
      <psa30 value="0.0021500749" flag="0"/>
    </comp>
    <comp name="--.HHN">
      <acc value="0.0056380199" flag="0"/>
      <vel value="0.0042611332" flag="0"/>
      <psa03 value="0.0188166152" flag="0"/>
      <psa10 value="0.0090004699" flag="0"/>
      <psa30 value="0.0008305091" flag="0"/>
    </comp>
    <comp name="--.HHZ">
      <acc value="0.0056417262" flag="0"/>
      <vel value="0.0063252047" flag="0"/>
      <psa03 value="0.0153082956" flag="0"/>
      <psa10 value="0.0095292418" flag="0"/>
      <psa30 value="0.0017784785" flag="0"/>
    </comp>
  </station>
  <station code="CHAN" name="CHAN" netid="HC" insttype="120" lat="35.5193" lon="24.0428">
    <comp name="--.HHN">
      <acc value="0.0371598265" flag="0"/>
      <vel value="0.0414004943" flag="0"/>
      <psa03 value="0.1101468107" flag="0"/>
      <psa10 value="0.0485431995" flag="0"/>
      <psa30 value="0.0080157788" flag="0"/>
    </comp>
    <comp name="--.HHE">
      <acc value="0.0331353410" flag="0"/>
      <vel value="0.0285841887" flag="0"/>
      <psa03 value="0.0807713541" flag="0"/>
      <psa10 value="0.0415366612" flag="0"/>
      <psa30 value="0.0099437275" flag="0"/>
    </comp>
    <comp name="--.HHZ">
      <acc value="0.0281075486" flag="0"/>
      <vel value="0.0206138999" flag="0"/>
      <psa03 value="0.0837592140" flag="0"/>
      <psa10 value="0.0288067815" flag="0"/>
      <psa30 value="0.0042897846" flag="0"/>
    </comp>
  </station>
  <station code="IMOD" name="IMOD" netid="HC" insttype="120" lat="34.9731" lon="24.7995">
    <comp name="--.HHZ">
      <acc value="0.7180646099" flag="0"/>
      <vel value="0.2855627727" flag="0"/>
      <psa03 value="2.0593959887" flag="0"/>
      <psa10 value="0.1121943015" flag="0"/>
      <psa30 value="0.0159051387" flag="0"/>
    </comp>
    <comp name="--.HHE">
      <acc value="11.1817977997" flag="0"/>
      <vel value="0.7319365017" flag="0"/>
      <psa03 value="2.5582141057" flag="0"/>
      <psa10 value="0.2855339409" flag="0"/>
      <psa30 value="0.0455219277" flag="0"/>
    </comp>
    <comp name="--.HHN">
      <acc value="17.7090398882" flag="0"/>
      <vel value="0.7037514012" flag="0"/>
      <psa03 value="3.5168504125" flag="0"/>
      <psa10 value="0.2611848228" flag="0"/>
      <psa30 value="0.0461545582" flag="0"/>
    </comp>
  </station>
  <station code="KNSS" name="KNSS" netid="HC" insttype="60" lat="35.3042" lon="25.1802">
    <comp name="--.HHN">
      <acc value="0.0765358351" flag="0"/>
      <vel value="0.0386093138" flag="0"/>
      <psa03 value="0.1976779498" flag="0"/>
      <psa10 value="0.0193226075" flag="0"/>
      <psa30 value="0.0056138621" flag="0"/>
    </comp>
    <comp name="--.HHE">
      <acc value="0.0859494244" flag="0"/>
      <vel value="0.0328204752" flag="0"/>
      <psa03 value="0.2106366155" flag="0"/>
      <psa10 value="0.0293746798" flag="0"/>
      <psa30 value="0.0046691071" flag="0"/>
    </comp>
    <comp name="--.HHZ">
      <acc value="0.0633762106" flag="0"/>
      <vel value="0.0274158516" flag="0"/>
      <psa03 value="0.1399825999" flag="0"/>
      <psa10 value="0.0122633645" flag="0"/>
      <psa30 value="0.0060833373" flag="0"/>
    </comp>
  </station>
  <station code="PFKS" name="PFKS" netid="HC" insttype="120" lat="35.0429" lon="25.4733">
    <comp name="--.HHE">
      <acc value="0.0826985105" flag="0"/>
      <vel value="0.0426407495" flag="0"/>
      <psa03 value="0.2019560745" flag="0"/>
      <psa10 value="0.0358322827" flag="0"/>
      <psa30 value="0.0023914861" flag="0"/>
    </comp>
    <comp name="--.HHZ">
      <acc value="0.0514085660" flag="0"/>
      <vel value="0.0257801822" flag="0"/>
      <psa03 value="0.1048143257" flag="0"/>
      <psa10 value="0.0191188262" flag="0"/>
      <psa30 value="0.0053279182" flag="0"/>
    </comp>
    <comp name="--.HHN">
      <acc value="0.1304666468" flag="0"/>
      <vel value="0.0545524118" flag="0"/>
      <psa03 value="0.3951290126" flag="0"/>
      <psa10 value="0.0259133461" flag="0"/>
      <psa30 value="0.0026618509" flag="0"/>
    </comp>
  </station>
  <station code="STIA" name="STIA" netid="HC" insttype="120" lat="35.2021" lon="26.0909">
    <comp name="--.HHN">
      <acc value="0.0000000000" flag="0"/>
      <vel value="-100.0000000000" flag="0"/>
      <psa03 value="0.0000000000" flag="0"/>
      <psa10 value="0.0000000000" flag="0"/>
      <psa30 value="0.0000000000" flag="0"/>
    </comp>
    <comp name="--.HHZ">
      <acc value="0.0098786230" flag="0"/>
      <vel value="0.0096584394" flag="0"/>
      <psa03 value="0.0285323886" flag="0"/>
      <psa10 value="0.0118455874" flag="0"/>
      <psa30 value="0.0016541998" flag="0"/>
    </comp>
    <comp name="--.HHE">
      <acc value="0.0131155199" flag="0"/>
      <vel value="0.0166899140" flag="0"/>
      <psa03 value="0.0365252196" flag="0"/>
      <psa10 value="0.0320494860" flag="0"/>
      <psa30 value="0.0031193459" flag="0"/>
    </comp>
  </station>
  <station code="IACM" name="IACM" netid="HL" insttype="120" lat="35.3058" lon="25.0709">
    <comp name="--.HHN">
      <acc value="0.1876843983" flag="0"/>
      <vel value="0.1106255333" flag="0"/>
      <psa03 value="0.6374200449" flag="0"/>
      <psa10 value="0.1215701035" flag="0"/>
      <psa30 value="0.0104755016" flag="0"/>
    </comp>
    <comp name="--.HHZ">
      <acc value="0.1733560056" flag="0"/>
      <vel value="0.0646436028" flag="0"/>
      <psa03 value="0.2497303795" flag="0"/>
      <psa10 value="0.0627672506" flag="0"/>
      <psa30 value="0.0045915679" flag="0"/>
    </comp>
    <comp name="--.HHE">
      <acc value="0.3232012306" flag="0"/>
      <vel value="0.1134404229" flag="0"/>
      <psa03 value="0.5039616648" flag="0"/>
      <psa10 value="0.1874432803" flag="0"/>
      <psa30 value="0.0135776440" flag="0"/>
    </comp>
  </station>
  <station code="IDI" name="IDI" netid="HL" insttype="120" lat="35.288" lon="24.89">
    <comp name="--.HHN">
      <acc value="0.1738874784" flag="0"/>
      <vel value="0.0545720308" flag="0"/>
      <psa03 value="0.4028681927" flag="0"/>
      <psa10 value="0.0204070045" flag="0"/>
      <psa30 value="0.0029831931" flag="0"/>
    </comp>
    <comp name="--.HHE">
      <acc value="0.2168246367" flag="0"/>
      <vel value="0.0820765110" flag="0"/>
      <psa03 value="0.2250158865" flag="0"/>
      <psa10 value="0.0356528147" flag="0"/>
      <psa30 value="0.0044633956" flag="0"/>
    </comp>
    <comp name="--.HHZ">
      <acc value="0.1226216187" flag="0"/>
      <vel value="0.0551166452" flag="0"/>
      <psa03 value="0.4457326344" flag="0"/>
      <psa10 value="0.0151045030" flag="0"/>
      <psa30 value="0.0026666219" flag="0"/>
    </comp>
  </station>
  <station code="IMMV" name="IMMV" netid="HL" insttype="120" lat="35.4606" lon="23.9811">
    <comp name="--.HHE">
      <acc value="0.0300010754" flag="0"/>
      <vel value="0.0153297385" flag="0"/>
      <psa03 value="0.1106077295" flag="0"/>
      <psa10 value="0.0171585632" flag="0"/>
      <psa30 value="0.0030006522" flag="0"/>
    </comp>
    <comp name="--.HHN">
      <acc value="0.0291521371" flag="0"/>
      <vel value="0.0170889755" flag="0"/>
      <psa03 value="0.0904552597" flag="0"/>
      <psa10 value="0.0166582694" flag="0"/>
      <psa30 value="0.0036635515" flag="0"/>
    </comp>
    <comp name="--.HHZ">
      <acc value="0.0262841062" flag="0"/>
      <vel value="0.0134841692" flag="0"/>
      <psa03 value="0.0710798383" flag="0"/>
      <psa10 value="0.0122032422" flag="0"/>
      <psa30 value="0.0017074961" flag="0"/>
    </comp>
  </station>
  <station code="SIVA" name="SIVA" netid="HL" insttype="60" lat="35.0178" lon="24.812">
    <comp name="--.HHN">
      <acc value="1.6246327520" flag="0"/>
      <vel value="0.7523186804" flag="0"/>
      <psa03 value="2.2321806682" flag="0"/>
      <psa10 value="0.3700167123" flag="0"/>
      <psa30 value="0.0286980142" flag="0"/>
    </comp>
    <comp name="--.HHZ">
      <acc value="0.6282628215" flag="0"/>
      <vel value="0.2256341873" flag="0"/>
      <psa03 value="0.9609052677" flag="0"/>
      <psa10 value="0.2347931009" flag="0"/>
      <psa30 value="0.0125821877" flag="0"/>
    </comp>
    <comp name="--.HHE">
      <acc value="1.5391177533" flag="0"/>
      <vel value="0.6967552383" flag="0"/>
      <psa03 value="3.9087461980" flag="0"/>
      <psa10 value="0.5563678006" flag="0"/>
      <psa30 value="0.0396864448" flag="0"/>
    </comp>
  </station>
  <station code="ZKR" name="ZKR" netid="HL" insttype="120" lat="35.1147" lon="26.2169">
    <comp name="--.HHN">
      <acc value="0.0055443271" flag="0"/>
      <vel value="0.0042539821" flag="0"/>
      <psa03 value="0.0183123471" flag="0"/>
      <psa10 value="0.0089477568" flag="0"/>
      <psa30 value="0.0008288056" flag="0"/>
    </comp>
    <comp name="--.HHE">
      <acc value="0.0134479022" flag="0"/>
      <vel value="0.0108349636" flag="0"/>
      <psa03 value="0.0350537674" flag="0"/>
      <psa10 value="0.0179323256" flag="0"/>
      <psa30 value="0.0021511436" flag="0"/>
    </comp>
    <comp name="--.HHZ">
      <acc value="0.0055928202" flag="0"/>
      <vel value="0.0062505880" flag="0"/>
      <psa03 value="0.0149084701" flag="0"/>
      <psa10 value="0.0094826834" flag="0"/>
      <psa30 value="0.0017791757" flag="0"/>
    </comp>
  </station>
  <station code="IDI" name="IDI" netid="MN" insttype="" lat="35.288" lon="24.89">
    <comp name="--.HHZ">
      <acc value="0.1264250900" flag="0"/>
      <vel value="0.0553375940" flag="0"/>
      <psa03 value="0.4491149939" flag="0"/>
      <psa10 value="0.0152523803" flag="0"/>
      <psa30 value="0.0026380653" flag="0"/>
    </comp>
    <comp name="--.HHE">
      <acc value="0.2230090984" flag="0"/>
      <vel value="0.0828137821" flag="0"/>
      <psa03 value="0.2260396394" flag="0"/>
      <psa10 value="0.0353764686" flag="0"/>
      <psa30 value="0.0044408216" flag="0"/>
    </comp>
    <comp name="--.HHN">
      <acc value="0.1769558934" flag="0"/>
      <vel value="0.0549663411" flag="0"/>
      <psa03 value="0.4076495108" flag="0"/>
      <psa10 value="0.0202912830" flag="0"/>
      <psa30 value="0.0029610946" flag="0"/>
    </comp>
  </station>
</stationlist>
