<?xml version="1.0" encoding="UTF-8" standalone="yes"?>
<!DOCTYPE earthquake SYSTEM "stationlist.dtd">
<stationlist created="" xmlns="ch.ethz.sed.shakemap.usgs.xml">
  <station code="ANTB" name="ANTB" netid="KO" insttype="CMG-3T" lat="36.8998" lon="30.6538">
    <comp name="--.HHE">
      <acc value="0.0079669308" flag="0"/>
      <vel value="0.0062654616" flag="0"/>
      <psa03 value="0.0215982142" flag="0"/>
      <psa10 value="0.0097929261" flag="0"/>
      <psa30 value="0.0008350678" flag="0"/>
    </comp>
    <comp name="--.HHN">
      <acc value="0.0075788540" flag="0"/>
      <vel value="0.0059862911" flag="0"/>
      <psa03 value="0.0159741982" flag="0"/>
      <psa10 value="0.0089975893" flag="0"/>
      <psa30 value="0.0013774136" flag="0"/>
    </comp>
    <comp name="--.HHZ">
      <acc value="0.0114186694" flag="0"/>
      <vel value="0.0071112578" flag="0"/>
      <psa03 value="0.0234625740" flag="0"/>
      <psa10 value="0.0117351498" flag="0"/>
      <psa30 value="0.0010114203" flag="0"/>
    </comp>
  </station>
  <station code="APMY" name="APMY" netid="KO" insttype="CMG-6T" lat="37.4717" lon="29.3018">
    <comp name="--.HHE">
      <acc value="0.0064840776" flag="0"/>
      <vel value="0.0041186324" flag="0"/>
      <psa03 value="0.0150459454" flag="0"/>
      <psa10 value="0.0052612529" flag="0"/>
      <psa30 value="0.0005368569" flag="0"/>
    </comp>
    <comp name="--.HHN">
      <acc value="0.0065394071" flag="0"/>
      <vel value="0.0035429545" flag="0"/>
      <psa03 value="0.0169843504" flag="0"/>
      <psa10 value="0.0029114809" flag="0"/>
      <psa30 value="0.0003626269" flag="0"/>
    </comp>
    <comp name="--.HHZ">
      <acc value="0.0032742283" flag="0"/>
      <vel value="0.0021318060" flag="0"/>
      <psa03 value="0.0066453424" flag="0"/>
      <psa10 value="0.0030393445" flag="0"/>
      <psa30 value="0.0001942793" flag="0"/>
    </comp>
  </station>
  <station code="BASM" name="BASM" netid="KO" insttype="CMG-5T" lat="37.9194" lon="30.035">
    <comp name="--.HNE">
      <acc value="0.0095587006" flag="0"/>
      <vel value="0.0102334682" flag="0"/>
      <psa03 value="0.0281247257" flag="0"/>
      <psa10 value="0.0122853540" flag="0"/>
      <psa30 value="0.0014660625" flag="0"/>
    </comp>
    <comp name="--.HNN">
      <acc value="0.0080573645" flag="0"/>
      <vel value="0.0116252651" flag="0"/>
      <psa03 value="0.0302651890" flag="0"/>
      <psa10 value="0.0157044341" flag="0"/>
      <psa30 value="0.0013971205" flag="0"/>
    </comp>
    <comp name="--.HNZ">
      <acc value="0.0056584701" flag="0"/>
      <vel value="0.0050571698" flag="0"/>
      <psa03 value="0.0109191854" flag="0"/>
      <psa10 value="0.0098167999" flag="0"/>
      <psa30 value="0.0005170121" flag="0"/>
    </comp>
  </station>
  <station code="CAME" name="CAME" netid="KO" insttype="CMG-5T" lat="36.9435" lon="29.3023">
    <comp name="--.HNE">
      <acc value="0.1667162146" flag="0"/>
      <vel value="0.0505074830" flag="0"/>
      <psa03 value="0.4066262102" flag="0"/>
      <psa10 value="0.0300471703" flag="0"/>
      <psa30 value="0.0018935846" flag="0"/>
    </comp>
    <comp name="--.HNN">
      <acc value="0.1872955677" flag="0"/>
      <vel value="0.0426790319" flag="0"/>
      <psa03 value="0.3724979047" flag="0"/>
      <psa10 value="0.0178487462" flag="0"/>
      <psa30 value="0.0016145879" flag="0"/>
    </comp>
    <comp name="--.HNZ">
      <acc value="0.0845770010" flag="0"/>
      <vel value="0.0205691439" flag="0"/>
      <psa03 value="0.2042993305" flag="0"/>
      <psa10 value="0.0158751594" flag="0"/>
      <psa30 value="0.0011660274" flag="0"/>
    </comp>
  </station>
  <station code="DALY" name="DALY" netid="KO" insttype="CMG-3T" lat="36.8162" lon="28.6532">
    <comp name="--.HHE">
      <acc value="0.0071178838" flag="0"/>
      <vel value="0.0053456020" flag="0"/>
      <psa03 value="0.0154613758" flag="0"/>
      <psa10 value="0.0071595971" flag="0"/>
      <psa30 value="0.0004366841" flag="0"/>
    </comp>
    <comp name="--.HHN">
      <acc value="0.0099938593" flag="0"/>
      <vel value="0.0065398700" flag="0"/>
      <psa03 value="0.0301728790" flag="0"/>
      <psa10 value="0.0052707243" flag="0"/>
      <psa30 value="0.0005782902" flag="0"/>
    </comp>
    <comp name="--.HHZ">
      <acc value="0.0030753578" flag="0"/>
      <vel value="0.0033384330" flag="0"/>
      <psa03 value="0.0094855714" flag="0"/>
      <psa10 value="0.0051779334" flag="0"/>
      <psa30 value="0.0004531777" flag="0"/>
    </comp>
  </station>
  <station code="ELL" name="ELL" netid="KO" insttype="CMG-3T" lat="36.7483" lon="29.9085">
    <comp name="--.HHE">
      <acc value="0.1385340611" flag="0"/>
      <vel value="0.0337204842" flag="0"/>
      <psa03 value="0.1438162033" flag="0"/>
      <psa10 value="0.0331562705" flag="0"/>
      <psa30 value="0.0013061787" flag="0"/>
    </comp>
    <comp name="--.HHN">
      <acc value="0.2040971994" flag="0"/>
      <vel value="0.0396407963" flag="0"/>
      <psa03 value="0.1182329838" flag="0"/>
      <psa10 value="0.0184803253" flag="0"/>
      <psa30 value="0.0011985023" flag="0"/>
    </comp>
    <comp name="--.HHZ">
      <acc value="0.0742668877" flag="0"/>
      <vel value="0.0167322665" flag="0"/>
      <psa03 value="0.0813969476" flag="0"/>
      <psa10 value="0.0192278028" flag="0"/>
      <psa30 value="0.0013598774" flag="0"/>
    </comp>
  </station>
  <station code="FETY" name="FETY" netid="KO" insttype="CMG-3ESP" lat="36.6353" lon="29.0835">
    <comp name="--.HHE">
      <acc value="0.0215907369" flag="0"/>
      <vel value="0.0093392878" flag="0"/>
      <psa03 value="0.0606866245" flag="0"/>
      <psa10 value="0.0072307968" flag="0"/>
      <psa30 value="0.0007853281" flag="0"/>
    </comp>
    <comp name="--.HHN">
      <acc value="0.0255025815" flag="0"/>
      <vel value="0.0096687631" flag="0"/>
      <psa03 value="0.0376639706" flag="0"/>
      <psa10 value="0.0077025864" flag="0"/>
      <psa30 value="0.0004110356" flag="0"/>
    </comp>
    <comp name="--.HHZ">
      <acc value="0.0106627127" flag="0"/>
      <vel value="0.0066564601" flag="0"/>
      <psa03 value="0.0207647275" flag="0"/>
      <psa10 value="0.0042989978" flag="0"/>
      <psa30 value="0.0003197446" flag="0"/>
    </comp>
  </station>
</stationlist>
