<?xml version="1.0" encoding="UTF-8" standalone="yes"?>
<!DOCTYPE earthquake SYSTEM "stationlist.dtd">
<stationlist created="" xmlns="ch.ethz.sed.shakemap.usgs.xml">
  <station code="TASB" name="TASB" netid="KO" insttype="CMG-3T" lat="39.9838" lon="44.2384">
    <comp name="--.HHE">
      <acc value="0.0185176147" flag="0"/>
      <vel value="0.0300569376" flag="0"/>
      <psa03 value="0.0249326757" flag="0"/>
      <psa10 value="0.0334828172" flag="0"/>
      <psa30 value="0.0176224455" flag="0"/>
    </comp>
    <comp name="--.HHN">
      <acc value="0.0159557650" flag="0"/>
      <vel value="0.0196346707" flag="0"/>
      <psa03 value="0.0259356070" flag="0"/>
      <psa10 value="0.0300652659" flag="0"/>
      <psa30 value="0.0103638800" flag="0"/>
    </comp>
    <comp name="--.HHZ">
      <acc value="0.0115631806" flag="0"/>
      <vel value="0.0151101018" flag="0"/>
      <psa03 value="0.0154593823" flag="0"/>
      <psa10 value="0.0243660079" flag="0"/>
      <psa30 value="0.0083076672" flag="0"/>
    </comp>
  </station>
</stationlist>
