<?xml version="1.0" encoding="UTF-8" standalone="yes"?>
<!DOCTYPE earthquake SYSTEM "stationlist.dtd">
<stationlist created="" xmlns="ch.ethz.sed.shakemap.usgs.xml">
  <station code="ZKR" name="ZKR" netid="GE" insttype="STS-2/N" commtype="DIG" lat="35.1147" lon="26.2169">
    <comp name="--.HHZ">
      <acc value="0.0573361789" flag="0"/>
      <vel value="0.0137447612" flag="0"/>
      <psa03 value="0.0492542423" flag="0"/>
      <psa10 value="0.0169867236" flag="0"/>
      <psa30 value="0.0011657270" flag="0"/>
    </comp>
    <comp name="--.HHE">
      <acc value="0.0952828420" flag="0"/>
      <vel value="0.0268665787" flag="0"/>
      <psa03 value="0.1182186950" flag="0"/>
      <psa10 value="0.0283690415" flag="0"/>
      <psa30 value="0.0013724028" flag="0"/>
    </comp>
    <comp name="--.HHN">
      <acc value="0.0327331746" flag="0"/>
      <vel value="0.0095496877" flag="0"/>
      <psa03 value="0.0541989979" flag="0"/>
      <psa10 value="0.0109348804" flag="0"/>
      <psa30 value="0.0005721785" flag="0"/>
    </comp>
  </station>
  <station code="KNSS" name="KNSS" netid="HC" insttype="60" commtype="DIG" lat="35.3042" lon="25.1802">
    <comp name="--.HHE">
      <acc value="0.0000000000" flag="0"/>
      <vel value="-100.0000000000" flag="0"/>
      <psa03 value="0.0000000000" flag="0"/>
      <psa10 value="0.0000000000" flag="0"/>
      <psa30 value="0.0000000000" flag="0"/>
    </comp>
    <comp name="--.HHZ">
      <acc value="0.0173209567" flag="0"/>
      <vel value="0.0061811368" flag="0"/>
      <psa03 value="0.0303135431" flag="0"/>
      <psa10 value="0.0023251199" flag="0"/>
      <psa30 value="0.0005455932" flag="0"/>
    </comp>
    <comp name="--.HHN">
      <acc value="0.0267566537" flag="0"/>
      <vel value="0.0123781913" flag="0"/>
      <psa03 value="0.0541908644" flag="0"/>
      <psa10 value="0.0064513096" flag="0"/>
      <psa30 value="0.0006897257" flag="0"/>
    </comp>
  </station>
</stationlist>
