<?xml version="1.0" encoding="UTF-8" standalone="yes"?>
<!DOCTYPE earthquake SYSTEM "stationlist.dtd">
<stationlist created="" xmlns="ch.ethz.sed.shakemap.usgs.xml">
  <station code="KTHA" name="KTHA" netid="GE" insttype="STS-2/N" lat="36.2566" lon="23.0621">
    <comp name="--.HHE">
      <acc value="0.0146795791" flag="0"/>
      <vel value="0.0146994542" flag="0"/>
      <psa03 value="0.0334252506" flag="0"/>
      <psa10 value="0.0350858758" flag="0"/>
      <psa30 value="0.0016914726" flag="0"/>
    </comp>
    <comp name="--.HHN">
      <acc value="0.0093729395" flag="0"/>
      <vel value="0.0057403552" flag="0"/>
      <psa03 value="0.0237550221" flag="0"/>
      <psa10 value="0.0076403724" flag="0"/>
      <psa30 value="0.0004854210" flag="0"/>
    </comp>
    <comp name="--.HHZ">
      <acc value="0.0111661654" flag="0"/>
      <vel value="0.0046505139" flag="0"/>
      <psa03 value="0.0154310506" flag="0"/>
      <psa10 value="0.0050972404" flag="0"/>
      <psa30 value="0.0005789857" flag="0"/>
    </comp>
  </station>
  <station code="KTRS" name="KTRS" netid="HC" insttype="60" lat="36.9261" lon="22.136">
    <comp name="--.HHN">
      <acc value="0.0059645179" flag="0"/>
      <vel value="0.0032685609" flag="0"/>
      <psa03 value="0.0166726323" flag="0"/>
      <psa10 value="0.0040590815" flag="0"/>
      <psa30 value="0.0002860227" flag="0"/>
    </comp>
    <comp name="--.HHE">
      <acc value="0.0064836708" flag="0"/>
      <vel value="0.0038556160" flag="0"/>
      <psa03 value="0.0131805748" flag="0"/>
      <psa10 value="0.0043628816" flag="0"/>
      <psa30 value="0.0002666917" flag="0"/>
    </comp>
    <comp name="--.HHZ">
      <acc value="0.0055019977" flag="0"/>
      <vel value="0.0022754974" flag="0"/>
      <psa03 value="0.0102360159" flag="0"/>
      <psa10 value="0.0024459515" flag="0"/>
      <psa30 value="0.0001596570" flag="0"/>
    </comp>
  </station>
  <station code="NPS1" name="NPS1" netid="HI" insttype="CMG-5TD,ACCELEROMETER,GURALP" lat="36.5126" lon="23.0625">
    <comp name="--.HNE">
      <acc value="0.0199352928" flag="0"/>
      <vel value="0.0154206068" flag="0"/>
      <psa03 value="0.0508433633" flag="0"/>
      <psa10 value="0.0231208089" flag="0"/>
      <psa30 value="0.0009712633" flag="0"/>
    </comp>
    <comp name="--.HNN">
      <acc value="0.0196740506" flag="0"/>
      <vel value="0.0229162493" flag="0"/>
      <psa03 value="0.0544309646" flag="0"/>
      <psa10 value="0.0309453654" flag="0"/>
      <psa30 value="0.0016590401" flag="0"/>
    </comp>
    <comp name="--.HNZ">
      <acc value="0.0145311498" flag="0"/>
      <vel value="0.0067585356" flag="0"/>
      <psa03 value="0.0318628284" flag="0"/>
      <psa10 value="0.0081115745" flag="0"/>
      <psa30 value="0.0008819557" flag="0"/>
    </comp>
  </station>
  <station code="ANKY" name="ANKY" netid="HL" insttype="60" lat="35.867" lon="23.3012">
    <comp name="--.HHE">
      <acc value="0.0055362417" flag="0"/>
      <vel value="0.0056565399" flag="0"/>
      <psa03 value="0.0119890256" flag="0"/>
      <psa10 value="0.0060978021" flag="0"/>
      <psa30 value="0.0005870939" flag="0"/>
    </comp>
    <comp name="--.HHN">
      <acc value="0.0053844621" flag="0"/>
      <vel value="0.0045612088" flag="0"/>
      <psa03 value="0.0118482157" flag="0"/>
      <psa10 value="0.0054418281" flag="0"/>
      <psa30 value="0.0005392730" flag="0"/>
    </comp>
    <comp name="--.HHZ">
      <acc value="0.0077901767" flag="0"/>
      <vel value="0.0038846042" flag="0"/>
      <psa03 value="0.0134954766" flag="0"/>
      <psa10 value="0.0040247960" flag="0"/>
      <psa30 value="0.0003215206" flag="0"/>
    </comp>
  </station>
  <station code="ITM" name="ITM" netid="HL" insttype="DR24" lat="37.1787" lon="21.9252">
    <comp name="--.HHZ">
      <acc value="0.0045232617" flag="0"/>
      <vel value="0.0024134871" flag="0"/>
      <psa03 value="0.0123330938" flag="0"/>
      <psa10 value="0.0029914132" flag="0"/>
      <psa30 value="0.0002533800" flag="0"/>
    </comp>
    <comp name="--.HHE">
      <acc value="0.0057283556" flag="0"/>
      <vel value="0.0035866453" flag="0"/>
      <psa03 value="0.0213396632" flag="0"/>
      <psa10 value="0.0028433032" flag="0"/>
      <psa30 value="0.0002410433" flag="0"/>
    </comp>
    <comp name="--.HHN">
      <acc value="0.0066861472" flag="0"/>
      <vel value="0.0025968370" flag="0"/>
      <psa03 value="0.0192481766" flag="0"/>
      <psa10 value="0.0026501482" flag="0"/>
      <psa30 value="0.0002664598" flag="0"/>
    </comp>
  </station>
  <station code="KTHA" name="KTHA" netid="HL" insttype="120" lat="36.2566" lon="23.0621">
    <comp name="--.HHN">
      <acc value="0.0091034684" flag="0"/>
      <vel value="0.0056538122" flag="0"/>
      <psa03 value="0.0232630972" flag="0"/>
      <psa10 value="0.0075898546" flag="0"/>
      <psa30 value="0.0004831742" flag="0"/>
    </comp>
    <comp name="--.HHE">
      <acc value="0.0143772929" flag="0"/>
      <vel value="0.0144800977" flag="0"/>
      <psa03 value="0.0326293836" flag="0"/>
      <psa10 value="0.0348635894" flag="0"/>
      <psa30 value="0.0016838661" flag="0"/>
    </comp>
    <comp name="--.HHZ">
      <acc value="0.0105525283" flag="0"/>
      <vel value="0.0045694171" flag="0"/>
      <psa03 value="0.0151204679" flag="0"/>
      <psa10 value="0.0050640137" flag="0"/>
      <psa30 value="0.0005766462" flag="0"/>
    </comp>
  </station>
  <station code="VLI" name="VLI" netid="HL" insttype="60" lat="36.718" lon="22.9469">
    <comp name="--.HHZ">
      <acc value="0.0107302112" flag="0"/>
      <vel value="0.0064467330" flag="0"/>
      <psa03 value="0.0160944683" flag="0"/>
      <psa10 value="0.0036464761" flag="0"/>
      <psa30 value="0.0007015453" flag="0"/>
    </comp>
    <comp name="--.HHN">
      <acc value="0.0092155648" flag="0"/>
      <vel value="0.0078186270" flag="0"/>
      <psa03 value="0.0218320571" flag="0"/>
      <psa10 value="0.0119485197" flag="0"/>
      <psa30 value="0.0011031490" flag="0"/>
    </comp>
    <comp name="--.HHE">
      <acc value="0.0097746147" flag="0"/>
      <vel value="0.0100527175" flag="0"/>
      <psa03 value="0.0202418457" flag="0"/>
      <psa10 value="0.0231336265" flag="0"/>
      <psa30 value="0.0011346165" flag="0"/>
    </comp>
  </station>
  <station code="PYL" name="PYL" netid="HP" insttype="120s" lat="36.8955" lon="21.742">
    <comp name="--.HHE">
      <acc value="0.0111294123" flag="0"/>
      <vel value="0.0047989697" flag="0"/>
      <psa03 value="0.0191406712" flag="0"/>
      <psa10 value="0.0069195522" flag="0"/>
      <psa30 value="0.0004228632" flag="0"/>
    </comp>
    <comp name="--.HHZ">
      <acc value="0.0059788131" flag="0"/>
      <vel value="0.0021123201" flag="0"/>
      <psa03 value="0.0146170539" flag="0"/>
      <psa10 value="0.0024420251" flag="0"/>
      <psa30 value="0.0002677383" flag="0"/>
    </comp>
    <comp name="--.HHN">
      <acc value="0.0065355786" flag="0"/>
      <vel value="0.0035047715" flag="0"/>
      <psa03 value="0.0157985283" flag="0"/>
      <psa10 value="0.0035852098" flag="0"/>
      <psa30 value="0.0002781241" flag="0"/>
    </comp>
  </station>
  <station code="VALY" name="VALY" netid="HP" insttype="DC_100" lat="37.1641" lon="21.9836">
    <comp name="--.HNZ">
      <acc value="0.0026041251" flag="0"/>
      <vel value="0.0019039879" flag="0"/>
      <psa03 value="0.0065582288" flag="0"/>
      <psa10 value="0.0024723412" flag="0"/>
      <psa30 value="0.0001810767" flag="0"/>
    </comp>
    <comp name="--.HNE">
      <acc value="0.0045795033" flag="0"/>
      <vel value="0.0022964526" flag="0"/>
      <psa03 value="0.0106173219" flag="0"/>
      <psa10 value="0.0038489316" flag="0"/>
      <psa30 value="0.0003370800" flag="0"/>
    </comp>
    <comp name="--.HNN">
      <acc value="0.0054907724" flag="0"/>
      <vel value="0.0027988904" flag="0"/>
      <psa03 value="0.0177627539" flag="0"/>
      <psa10 value="0.0051762220" flag="0"/>
      <psa30 value="0.0002549928" flag="0"/>
    </comp>
  </station>
</stationlist>
