<?xml version="1.0" encoding="UTF-8" standalone="yes"?>
<!DOCTYPE earthquake SYSTEM "stationlist.dtd">
<stationlist created="" xmlns="ch.ethz.sed.shakemap.usgs.xml">
  <station code="ARPRA" name="ARPRA" netid="KO" insttype="CMG-5T" lat="39.0929" lon="38.3356">
    <comp name="--.HNE">
      <acc value="0.1708444650" flag="0"/>
      <vel value="0.0919946723" flag="0"/>
      <psa03 value="0.3733689916" flag="0"/>
      <psa10 value="0.1040924482" flag="0"/>
      <psa30 value="0.0071186107" flag="0"/>
    </comp>
    <comp name="--.HNN">
      <acc value="0.2412526623" flag="0"/>
      <vel value="0.1184988739" flag="0"/>
      <psa03 value="0.7973519439" flag="0"/>
      <psa10 value="0.1230863479" flag="0"/>
      <psa30 value="0.0056829832" flag="0"/>
    </comp>
    <comp name="--.HNZ">
      <acc value="0.0709673914" flag="0"/>
      <vel value="0.0424728912" flag="0"/>
      <psa03 value="0.1916245366" flag="0"/>
      <psa10 value="0.0599001739" flag="0"/>
      <psa30 value="0.0042409675" flag="0"/>
    </comp>
  </station>
  <station code="KHMN" name="KHMN" netid="KO" insttype="CMG-5T" lat="37.3916" lon="37.1574">
    <comp name="--.HNE">
      <acc value="0.1649994609" flag="0"/>
      <vel value="0.0635909784" flag="0"/>
      <psa03 value="0.4419149837" flag="0"/>
      <psa10 value="0.0365496459" flag="0"/>
      <psa30 value="0.0027368206" flag="0"/>
    </comp>
    <comp name="--.HNZ">
      <acc value="0.0914881531" flag="0"/>
      <vel value="0.0528856971" flag="0"/>
      <psa03 value="0.1686169308" flag="0"/>
      <psa10 value="0.0427942184" flag="0"/>
      <psa30 value="0.0039785614" flag="0"/>
    </comp>
    <comp name="--.HNN">
      <acc value="0.1322241908" flag="0"/>
      <vel value="0.0825489390" flag="0"/>
      <psa03 value="0.2798071840" flag="0"/>
      <psa10 value="0.0477465926" flag="0"/>
      <psa30 value="0.0065705643" flag="0"/>
    </comp>
  </station>
  <station code="SINE" name="SINE" netid="KO" insttype="CMG-6T" lat="39.1636" lon="39.3871">
    <comp name="--.HHE">
      <acc value="0.0301449703" flag="0"/>
      <vel value="0.0198053026" flag="0"/>
      <psa03 value="0.0738023194" flag="0"/>
      <psa10 value="0.0361555677" flag="0"/>
      <psa30 value="0.0010895160" flag="0"/>
    </comp>
    <comp name="--.HHN">
      <acc value="0.0287896772" flag="0"/>
      <vel value="0.0152920275" flag="0"/>
      <psa03 value="0.0650206872" flag="0"/>
      <psa10 value="0.0269326838" flag="0"/>
      <psa30 value="0.0010918919" flag="0"/>
    </comp>
    <comp name="--.HHZ">
      <acc value="0.0314850339" flag="0"/>
      <vel value="0.0216540351" flag="0"/>
      <psa03 value="0.0607448024" flag="0"/>
      <psa10 value="0.0165770456" flag="0"/>
      <psa30 value="0.0008693438" flag="0"/>
    </comp>
  </station>
  <station code="SVRC" name="SVRC" netid="KO" insttype="CMG-3T" lat="38.3775" lon="39.306">
    <comp name="--.HHN">
      <acc value="0.0693316622" flag="0"/>
      <vel value="0.0444905019" flag="0"/>
      <psa03 value="0.1565889750" flag="0"/>
      <psa10 value="0.0449081349" flag="0"/>
      <psa30 value="0.0034827731" flag="0"/>
    </comp>
  </station>
</stationlist>
