<?xml version="1.0" encoding="UTF-8" standalone="yes"?>
<!DOCTYPE earthquake SYSTEM "stationlist.dtd">
<stationlist created="" xmlns="ch.ethz.sed.shakemap.usgs.xml">
  <station code="KARO" name="KARO" netid="KO" insttype="120s," lat="39.3089" lon="41.0493">
    <comp name="--.HHE">
      <acc value="0.0277125709" flag="0"/>
      <vel value="0.0204325065" flag="0"/>
      <psa03 value="0.0708135457" flag="0"/>
      <psa10 value="0.0290497365" flag="0"/>
      <psa30 value="0.0053244025" flag="0"/>
    </comp>
    <comp name="--.HHZ">
      <acc value="0.0008233844" flag="0"/>
      <vel value="0.0001271308" flag="0"/>
      <psa03 value="0.0023359837" flag="0"/>
      <psa10 value="0.0000746081" flag="0"/>
      <psa30 value="0.0000102442" flag="0"/>
    </comp>
    <comp name="--.HHN">
      <acc value="0.0202170627" flag="0"/>
      <vel value="0.0146395844" flag="0"/>
      <psa03 value="0.0772281592" flag="0"/>
      <psa10 value="0.0223983002" flag="0"/>
      <psa30 value="0.0021548833" flag="0"/>
    </comp>
  </station>
</stationlist>
