<stationlist created="1778135754">
	<station code="ARPRA" name="ARPRA" netid="KO" source="Bogazici University Kandilli Observatory And Earthquake Research Institute (KOERI)" insttype="" lat="39.0929" lon="38.3356">
		<comp name="--.HNE" depth="0.0">
			<acc value="0.0098401372995516" flag="0"/>
			<vel value="0.00603461957315942" flag="0"/>
			<psa03 value="0.0284113012026026" flag="0"/>
			<psa10 value="0.0127085763678539" flag="0"/>
			<psa30 value="0.00139148262582825" flag="0"/>
		</comp>
		<comp name="--.HNN" depth="0.0">
			<acc value="0.0105704440600561" flag="0"/>
			<vel value="0.00938599775273923" flag="0"/>
			<psa03 value="0.0386572665181868" flag="0"/>
			<psa10 value="0.0132723281712441" flag="0"/>
			<psa30 value="0.00151362884989613" flag="0"/>
		</comp>
		<comp name="--.HNZ" depth="0.0">
			<acc value="0.00460155705986409" flag="0"/>
			<vel value="0.00382703558883036" flag="0"/>
			<psa03 value="0.0123935912332613" flag="0"/>
			<psa10 value="0.00757038135981158" flag="0"/>
			<psa30 value="0.0010742603809047" flag="0"/>
		</comp>
	</station>
	<station code="CHAY" name="CHAY" netid="KO" source="Bogazici University Kandilli Observatory And Earthquake Research Institute (KOERI)" insttype="" lat="41.0862" lon="40.7253">
		<comp name="--.HNE" depth="0.0">
			<acc value="0.019294568169835" flag="0"/>
			<vel value="0.00962410218031493" flag="0"/>
			<psa03 value="0.0347199523357789" flag="0"/>
			<psa10 value="0.00998646051719826" flag="0"/>
			<psa30 value="0.00200355601236621" flag="0"/>
		</comp>
		<comp name="--.HNN" depth="0.0">
			<acc value="0.0239367592204908" flag="0"/>
			<vel value="0.0139882423819475" flag="0"/>
			<psa03 value="0.0465766370896209" flag="0"/>
			<psa10 value="0.0151407627196232" flag="0"/>
			<psa30 value="0.00172481206513438" flag="0"/>
		</comp>
		<comp name="--.HNZ" depth="0.0">
			<acc value="0.00647478311149301" flag="0"/>
			<vel value="0.00370955544643427" flag="0"/>
			<psa03 value="0.0132884353656267" flag="0"/>
			<psa10 value="0.00858513460591399" flag="0"/>
			<psa30 value="0.00119461691670786" flag="0"/>
		</comp>
	</station>
</stationlist>
