<?xml version="1.0" encoding="UTF-8" standalone="yes"?>
<!DOCTYPE earthquake SYSTEM "stationlist.dtd">
<stationlist created="" xmlns="ch.ethz.sed.shakemap.usgs.xml">
  <station code="KALE" name="KALE" netid="HA" insttype="40," lat="38.3911" lon="22.1398">
    <comp name="--.HHN">
      <acc value="0.9341948667" flag="0"/>
      <vel value="0.1892158883" flag="0"/>
      <psa03 value="0.7155770315" flag="0"/>
      <psa10 value="0.1234750384" flag="0"/>
      <psa30 value="0.0177087021" flag="0"/>
    </comp>
    <comp name="--.HHZ">
      <acc value="0.4313921017" flag="0"/>
      <vel value="0.1598393615" flag="0"/>
      <psa03 value="0.3973364621" flag="0"/>
      <psa10 value="0.1293489952" flag="0"/>
      <psa30 value="0.0245293606" flag="0"/>
    </comp>
    <comp name="--.HHE">
      <acc value="0.4464308639" flag="0"/>
      <vel value="0.1918189322" flag="0"/>
      <psa03 value="0.5046757099" flag="0"/>
      <psa10 value="0.1701486910" flag="0"/>
      <psa30 value="0.0118078549" flag="0"/>
    </comp>
  </station>
  <station code="LAKA" name="LAKA" netid="HA" insttype="120s" lat="38.2401" lon="21.9785">
    <comp name="--.HHN">
      <acc value="0.2886026321" flag="0"/>
      <vel value="0.1006644557" flag="0"/>
      <psa03 value="0.2252211266" flag="0"/>
      <psa10 value="0.0649487580" flag="0"/>
      <psa30 value="0.0382861321" flag="0"/>
    </comp>
    <comp name="--.HHE">
      <acc value="0.3005467596" flag="0"/>
      <vel value="0.0605624268" flag="0"/>
      <psa03 value="0.1451598374" flag="0"/>
      <psa10 value="0.0474996553" flag="0"/>
      <psa30 value="0.0156977785" flag="0"/>
    </comp>
    <comp name="--.HHZ">
      <acc value="0.2401032972" flag="0"/>
      <vel value="0.0507183124" flag="0"/>
      <psa03 value="0.1979570315" flag="0"/>
      <psa10 value="0.0973281635" flag="0"/>
      <psa30 value="0.0188432093" flag="0"/>
    </comp>
  </station>
  <station code="STFN" name="STFN" netid="HA" insttype="1s-100Hz," lat="38.1766" lon="23.544">
    <comp name="--.HHE">
      <acc value="0.0091823984" flag="0"/>
      <vel value="0.0075959457" flag="0"/>
      <psa03 value="0.0190654553" flag="0"/>
      <psa10 value="0.0155210047" flag="0"/>
      <psa30 value="0.0012666672" flag="0"/>
    </comp>
    <comp name="--.HHZ">
      <acc value="0.0056631432" flag="0"/>
      <vel value="0.0073242590" flag="0"/>
      <psa03 value="0.0161293726" flag="0"/>
      <psa10 value="0.0191683708" flag="0"/>
      <psa30 value="0.0013907528" flag="0"/>
    </comp>
    <comp name="--.HHN">
      <acc value="0.0096092913" flag="0"/>
      <vel value="0.0085500321" flag="0"/>
      <psa03 value="0.0142143356" flag="0"/>
      <psa10 value="0.0113810033" flag="0"/>
      <psa30 value="0.0015580800" flag="0"/>
    </comp>
  </station>
  <station code="THAL" name="THAL" netid="HA" insttype="30" lat="38.0357" lon="22.6634">
    <comp name="--.HHN">
      <acc value="0.0686138377" flag="0"/>
      <vel value="0.0214092493" flag="0"/>
      <psa03 value="0.1343090401" flag="0"/>
      <psa10 value="0.0293808622" flag="0"/>
      <psa30 value="0.0036803062" flag="0"/>
    </comp>
    <comp name="--.HHE">
      <acc value="0.0741271586" flag="0"/>
      <vel value="0.0274053887" flag="0"/>
      <psa03 value="0.1403490377" flag="0"/>
      <psa10 value="0.0325585256" flag="0"/>
      <psa30 value="0.0085804211" flag="0"/>
    </comp>
    <comp name="--.HHZ">
      <acc value="0.0383548082" flag="0"/>
      <vel value="0.0104567872" flag="0"/>
      <psa03 value="0.0532881100" flag="0"/>
      <psa10 value="0.0163429255" flag="0"/>
      <psa30 value="0.0016713420" flag="0"/>
    </comp>
  </station>
  <station code="KLV1" name="KLV1" netid="HI" insttype="CMG-5TD,ACCELEROMETER,GURALP" lat="38.0326" lon="22.108">
    <comp name="--.HNE">
      <acc value="0.1570012898" flag="0"/>
      <vel value="0.0512691914" flag="0"/>
      <psa03 value="0.3824689401" flag="0"/>
      <psa10 value="0.0595551822" flag="0"/>
      <psa30 value="0.0058865874" flag="0"/>
    </comp>
    <comp name="--.HNN">
      <acc value="0.1498320126" flag="0"/>
      <vel value="0.0626218400" flag="0"/>
      <psa03 value="0.2936526113" flag="0"/>
      <psa10 value="0.0480919030" flag="0"/>
      <psa30 value="0.0083925987" flag="0"/>
    </comp>
    <comp name="--.HNZ">
      <acc value="0.1023493311" flag="0"/>
      <vel value="0.0276033592" flag="0"/>
      <psa03 value="0.0818136308" flag="0"/>
      <psa10 value="0.0422946142" flag="0"/>
      <psa30 value="0.0091112944" flag="0"/>
    </comp>
  </station>
  <station code="MSL1" name="MSL1" netid="HI" insttype="CMG-5TD,ACCELEROMETER,GURALP" lat="38.3727" lon="21.4243">
    <comp name="--.HNZ">
      <acc value="0.0382436768" flag="0"/>
      <vel value="0.0155025339" flag="0"/>
      <psa03 value="0.0981812919" flag="0"/>
      <psa10 value="0.0168309409" flag="0"/>
      <psa30 value="0.0028685892" flag="0"/>
    </comp>
    <comp name="--.HNE">
      <acc value="0.0999955151" flag="0"/>
      <vel value="0.0531738419" flag="0"/>
      <psa03 value="0.4158294486" flag="0"/>
      <psa10 value="0.0375890694" flag="0"/>
      <psa30 value="0.0142378197" flag="0"/>
    </comp>
    <comp name="--.HNN">
      <acc value="0.0687786691" flag="0"/>
      <vel value="0.0331321254" flag="0"/>
      <psa03 value="0.2563601757" flag="0"/>
      <psa10 value="0.0384974089" flag="0"/>
      <psa30 value="0.0088666357" flag="0"/>
    </comp>
  </station>
  <station code="DLFA" name="DLFA" netid="HL" insttype="CMG-5" lat="38.4784" lon="22.4958">
    <comp name="00.HNE">
      <acc value="0.1022617677" flag="0"/>
      <vel value="0.0313780807" flag="0"/>
      <psa03 value="0.1255268328" flag="0"/>
      <psa10 value="0.0323777894" flag="0"/>
      <psa30 value="0.0046703961" flag="0"/>
    </comp>
    <comp name="00.HNZ">
      <acc value="0.1009002104" flag="0"/>
      <vel value="0.0302971277" flag="0"/>
      <psa03 value="0.0860841327" flag="0"/>
      <psa10 value="0.0290753678" flag="0"/>
      <psa30 value="0.0048308466" flag="0"/>
    </comp>
    <comp name="00.HNN">
      <acc value="0.1144685623" flag="0"/>
      <vel value="0.0361388122" flag="0"/>
      <psa03 value="0.2002875272" flag="0"/>
      <psa10 value="0.0350651938" flag="0"/>
      <psa30 value="0.0031912586" flag="0"/>
    </comp>
  </station>
  <station code="EVR" name="EVR" netid="HL" insttype="DR24" lat="38.9166" lon="21.8105">
    <comp name="--.HHN">
      <acc value="0.0527728480" flag="0"/>
      <vel value="0.0242881872" flag="0"/>
      <psa03 value="0.0414599734" flag="0"/>
      <psa10 value="0.0237410223" flag="0"/>
      <psa30 value="0.0084681808" flag="0"/>
    </comp>
    <comp name="--.HHE">
      <acc value="0.0419149485" flag="0"/>
      <vel value="0.0216747742" flag="0"/>
      <psa03 value="0.0451314510" flag="0"/>
      <psa10 value="0.0246764950" flag="0"/>
      <psa30 value="0.0076277354" flag="0"/>
    </comp>
    <comp name="--.HHZ">
      <acc value="0.0264210191" flag="0"/>
      <vel value="0.0162628461" flag="0"/>
      <psa03 value="0.0494019070" flag="0"/>
      <psa10 value="0.0240323829" flag="0"/>
      <psa30 value="0.0058346584" flag="0"/>
    </comp>
  </station>
  <station code="ITM" name="ITM" netid="HL" insttype="DR24" lat="37.1787" lon="21.9252">
    <comp name="--.HHE">
      <acc value="0.0068051998" flag="0"/>
      <vel value="0.0043094484" flag="0"/>
      <psa03 value="0.0134140919" flag="0"/>
      <psa10 value="0.0049304375" flag="0"/>
      <psa30 value="0.0016162656" flag="0"/>
    </comp>
    <comp name="--.HHZ">
      <acc value="0.0026379077" flag="0"/>
      <vel value="0.0027569602" flag="0"/>
      <psa03 value="0.0060960400" flag="0"/>
      <psa10 value="0.0027990328" flag="0"/>
      <psa30 value="0.0004710357" flag="0"/>
    </comp>
    <comp name="--.HHN">
      <acc value="0.0046142989" flag="0"/>
      <vel value="0.0037133433" flag="0"/>
      <psa03 value="0.0120226918" flag="0"/>
      <psa10 value="0.0052710733" flag="0"/>
      <psa30 value="0.0016408122" flag="0"/>
    </comp>
  </station>
  <station code="KLV" name="KLV" netid="HL" insttype="120" lat="38.0435" lon="22.1504">
    <comp name="--.HHE">
      <acc value="0.0761731265" flag="0"/>
      <vel value="0.0180084885" flag="0"/>
      <psa03 value="0.1470194162" flag="0"/>
      <psa10 value="0.0157472812" flag="0"/>
      <psa30 value="0.0039170031" flag="0"/>
    </comp>
    <comp name="--.HHZ">
      <acc value="0.0496942542" flag="0"/>
      <vel value="0.0232411754" flag="0"/>
      <psa03 value="0.0720772708" flag="0"/>
      <psa10 value="0.0294176873" flag="0"/>
      <psa30 value="0.0118632245" flag="0"/>
    </comp>
    <comp name="--.HHN">
      <acc value="0.0648431928" flag="0"/>
      <vel value="0.0179632105" flag="0"/>
      <psa03 value="0.0822197673" flag="0"/>
      <psa10 value="0.0204764677" flag="0"/>
      <psa30 value="0.0081388613" flag="0"/>
    </comp>
  </station>
  <station code="LKR" name="LKR" netid="HL" insttype="30" lat="38.6496" lon="22.9989">
    <comp name="--.HHE">
      <acc value="0.0438724251" flag="0"/>
      <vel value="0.0128685545" flag="0"/>
      <psa03 value="0.0627380926" flag="0"/>
      <psa10 value="0.0096636282" flag="0"/>
      <psa30 value="0.0037184798" flag="0"/>
    </comp>
    <comp name="--.HHZ">
      <acc value="0.0273232385" flag="0"/>
      <vel value="0.0108951273" flag="0"/>
      <psa03 value="0.0344608937" flag="0"/>
      <psa10 value="0.0091928184" flag="0"/>
      <psa30 value="0.0052440047" flag="0"/>
    </comp>
    <comp name="--.HHN">
      <acc value="0.0426284611" flag="0"/>
      <vel value="0.0137739889" flag="0"/>
      <psa03 value="0.0532332441" flag="0"/>
      <psa10 value="0.0246039531" flag="0"/>
      <psa30 value="0.0028528223" flag="0"/>
    </comp>
  </station>
  <station code="PATC" name="PATC" netid="HL" insttype="CMG-5" lat="38.2693" lon="21.76">
    <comp name="00.HNN">
      <acc value="0.2852135167" flag="0"/>
      <vel value="0.1349642612" flag="0"/>
      <psa03 value="0.5574864595" flag="0"/>
      <psa10 value="0.1622686443" flag="0"/>
      <psa30 value="0.0659517003" flag="0"/>
    </comp>
    <comp name="00.HNZ">
      <acc value="0.3283121307" flag="0"/>
      <vel value="0.0913018257" flag="0"/>
      <psa03 value="0.3358737080" flag="0"/>
      <psa10 value="0.0710662371" flag="0"/>
      <psa30 value="0.0233793910" flag="0"/>
    </comp>
    <comp name="00.HNE">
      <acc value="0.3478851967" flag="0"/>
      <vel value="0.1234576632" flag="0"/>
      <psa03 value="0.5521123204" flag="0"/>
      <psa10 value="0.1708620866" flag="0"/>
      <psa30 value="0.0373391276" flag="0"/>
    </comp>
  </station>
  <station code="PATG" name="PATG" netid="HL" insttype="CMG-5" lat="38.2386" lon="21.7266">
    <comp name="00.HNE">
      <acc value="0.2305038455" flag="0"/>
      <vel value="0.1115044805" flag="0"/>
      <psa03 value="0.3850025996" flag="0"/>
      <psa10 value="0.1283124644" flag="0"/>
      <psa30 value="0.0340232247" flag="0"/>
    </comp>
    <comp name="00.HNN">
      <acc value="0.2248869453" flag="0"/>
      <vel value="0.1034295183" flag="0"/>
      <psa03 value="0.3301645842" flag="0"/>
      <psa10 value="0.0885601841" flag="0"/>
      <psa30 value="0.0659333442" flag="0"/>
    </comp>
    <comp name="00.HNZ">
      <acc value="0.1735074835" flag="0"/>
      <vel value="0.0745727584" flag="0"/>
      <psa03 value="0.1949690131" flag="0"/>
      <psa10 value="0.0820099632" flag="0"/>
      <psa30 value="0.0268702794" flag="0"/>
    </comp>
  </station>
  <station code="RIOA" name="RIOA" netid="HL" insttype="CMG-5" lat="38.2959" lon="21.7912">
    <comp name="00.HNZ">
      <acc value="0.4594202994" flag="0"/>
      <vel value="0.1063504284" flag="0"/>
      <psa03 value="0.3962849094" flag="0"/>
      <psa10 value="0.0420296566" flag="0"/>
      <psa30 value="0.0218076926" flag="0"/>
    </comp>
    <comp name="00.HNE">
      <acc value="0.4652482870" flag="0"/>
      <vel value="0.1358475237" flag="0"/>
      <psa03 value="0.7669194561" flag="0"/>
      <psa10 value="0.0815974209" flag="0"/>
      <psa30 value="0.0185081433" flag="0"/>
    </comp>
    <comp name="00.HNN">
      <acc value="0.4687439947" flag="0"/>
      <vel value="0.1708271630" flag="0"/>
      <psa03 value="0.5217238202" flag="0"/>
      <psa10 value="0.0839653212" flag="0"/>
      <psa30 value="0.0299706298" flag="0"/>
    </comp>
  </station>
  <station code="RLS" name="RLS" netid="HL" insttype="CMG3ESPC-120s" lat="38.0559" lon="21.4647">
    <comp name="--.HHE">
      <acc value="0.0315722136" flag="0"/>
      <vel value="0.0096754503" flag="0"/>
      <psa03 value="0.0347936764" flag="0"/>
      <psa10 value="0.0137155501" flag="0"/>
      <psa30 value="0.0016647312" flag="0"/>
    </comp>
    <comp name="--.HHZ">
      <acc value="0.0202265474" flag="0"/>
      <vel value="0.0073737148" flag="0"/>
      <psa03 value="0.0244728129" flag="0"/>
      <psa10 value="0.0098440566" flag="0"/>
      <psa30 value="0.0023488214" flag="0"/>
    </comp>
    <comp name="--.HHN">
      <acc value="0.0369061770" flag="0"/>
      <vel value="0.0086602772" flag="0"/>
      <psa03 value="0.0400174906" flag="0"/>
      <psa10 value="0.0090356937" flag="0"/>
      <psa30 value="0.0024392526" flag="0"/>
    </comp>
  </station>
  <station code="THL" name="THL" netid="HL" insttype="120" lat="39.5647" lon="22.0144">
    <comp name="--.HHE">
      <acc value="0.0047818663" flag="0"/>
      <vel value="0.0066152477" flag="0"/>
      <psa03 value="0.0066479519" flag="0"/>
      <psa10 value="0.0101458375" flag="0"/>
      <psa30 value="0.0020528942" flag="0"/>
    </comp>
    <comp name="--.HHZ">
      <acc value="0.0016802753" flag="0"/>
      <vel value="0.0022685231" flag="0"/>
      <psa03 value="0.0037890594" flag="0"/>
      <psa10 value="0.0042376849" flag="0"/>
      <psa30 value="0.0009189852" flag="0"/>
    </comp>
    <comp name="--.HHN">
      <acc value="0.0027786345" flag="0"/>
      <vel value="0.0026600259" flag="0"/>
      <psa03 value="0.0054400513" flag="0"/>
      <psa10 value="0.0041682541" flag="0"/>
      <psa30 value="0.0010522384" flag="0"/>
    </comp>
  </station>
  <station code="VLS" name="VLS" netid="HL" insttype="120P," lat="38.1768" lon="20.5886">
    <comp name="--.HHE">
      <acc value="0.0338045035" flag="0"/>
      <vel value="0.0057638836" flag="0"/>
      <psa03 value="0.0145246292" flag="0"/>
      <psa10 value="0.0057877039" flag="0"/>
      <psa30 value="0.0006553846" flag="0"/>
    </comp>
    <comp name="--.HHN">
      <acc value="0.0267075817" flag="0"/>
      <vel value="0.0057119399" flag="0"/>
      <psa03 value="0.0195664722" flag="0"/>
      <psa10 value="0.0053980309" flag="0"/>
      <psa30 value="0.0007988925" flag="0"/>
    </comp>
    <comp name="--.HHZ">
      <acc value="0.0192002540" flag="0"/>
      <vel value="0.0049290933" flag="0"/>
      <psa03 value="0.0172656166" flag="0"/>
      <psa10 value="0.0035535535" flag="0"/>
      <psa30 value="0.0004409732" flag="0"/>
    </comp>
  </station>
  <station code="AMPL" name="AMPL" netid="HP" insttype="Compact," lat="38.9224" lon="21.2135">
    <comp name="--.HHZ">
      <acc value="0.0067085789" flag="0"/>
      <vel value="0.0043061236" flag="0"/>
      <psa03 value="0.0228871979" flag="0"/>
      <psa10 value="0.0068433937" flag="0"/>
      <psa30 value="0.0015792020" flag="0"/>
    </comp>
    <comp name="--.HHN">
      <acc value="0.0133175823" flag="0"/>
      <vel value="0.0063841656" flag="0"/>
      <psa03 value="0.0237329560" flag="0"/>
      <psa10 value="0.0063309508" flag="0"/>
      <psa30 value="0.0014117158" flag="0"/>
    </comp>
    <comp name="--.HHE">
      <acc value="0.0116932024" flag="0"/>
      <vel value="0.0068947105" flag="0"/>
      <psa03 value="0.0205276661" flag="0"/>
      <psa10 value="0.0082840835" flag="0"/>
      <psa30 value="0.0020502771" flag="0"/>
    </comp>
  </station>
  <station code="AMT" name="AMT" netid="HP" insttype="CMG-3T," lat="37.5324" lon="21.7089">
    <comp name="00.HHZ">
      <acc value="0.0157447132" flag="0"/>
      <vel value="0.0078939396" flag="0"/>
      <psa03 value="0.0340226266" flag="0"/>
      <psa10 value="0.0083096520" flag="0"/>
      <psa30 value="0.0020006618" flag="0"/>
    </comp>
    <comp name="00.HHE">
      <acc value="0.0133085870" flag="0"/>
      <vel value="0.0087628642" flag="0"/>
      <psa03 value="0.0329781171" flag="0"/>
      <psa10 value="0.0141842557" flag="0"/>
      <psa30 value="0.0022656441" flag="0"/>
    </comp>
    <comp name="00.HHN">
      <acc value="0.0208139587" flag="0"/>
      <vel value="0.0105236559" flag="0"/>
      <psa03 value="0.0442822535" flag="0"/>
      <psa10 value="0.0147120548" flag="0"/>
      <psa30 value="0.0034831835" flag="0"/>
    </comp>
  </station>
  <station code="ANX" name="ANX" netid="HP" insttype="120" lat="38.5933" lon="21.9209">
    <comp name="--.HHE">
      <acc value="0.3340235057" flag="0"/>
      <vel value="0.1058495261" flag="0"/>
      <psa03 value="0.4527935198" flag="0"/>
      <psa10 value="0.0823943989" flag="0"/>
      <psa30 value="0.0188277288" flag="0"/>
    </comp>
    <comp name="--.HHN">
      <acc value="0.2422533825" flag="0"/>
      <vel value="0.1231541019" flag="0"/>
      <psa03 value="0.5530380815" flag="0"/>
      <psa10 value="0.0999713577" flag="0"/>
      <psa30 value="0.0196625703" flag="0"/>
    </comp>
    <comp name="--.HHZ">
      <acc value="0.1533776525" flag="0"/>
      <vel value="0.0705478819" flag="0"/>
      <psa03 value="0.2929351949" flag="0"/>
      <psa10 value="0.0435391893" flag="0"/>
      <psa30 value="0.0148005516" flag="0"/>
    </comp>
  </station>
  <station code="AXS" name="AXS" netid="HP" insttype="40," lat="38.1962" lon="21.3763">
    <comp name="--.HHE">
      <acc value="0.0224378198" flag="0"/>
      <vel value="0.0064210637" flag="0"/>
      <psa03 value="0.0369453395" flag="0"/>
      <psa10 value="0.0049160898" flag="0"/>
      <psa30 value="0.0014733615" flag="0"/>
    </comp>
    <comp name="--.HHN">
      <acc value="0.0242146058" flag="0"/>
      <vel value="0.0093084183" flag="0"/>
      <psa03 value="0.0274349294" flag="0"/>
      <psa10 value="0.0129945971" flag="0"/>
      <psa30 value="0.0013290825" flag="0"/>
    </comp>
    <comp name="--.HHZ">
      <acc value="0.0175543807" flag="0"/>
      <vel value="0.0053325517" flag="0"/>
      <psa03 value="0.0176152674" flag="0"/>
      <psa10 value="0.0030832044" flag="0"/>
      <psa30 value="0.0008517762" flag="0"/>
    </comp>
  </station>
  <station code="DRO" name="DRO" netid="HP" insttype="120P," lat="37.952" lon="21.71">
    <comp name="--.HHE">
      <acc value="0.1478608099" flag="0"/>
      <vel value="0.0436313166" flag="0"/>
      <psa03 value="0.1554632164" flag="0"/>
      <psa10 value="0.0249050805" flag="0"/>
      <psa30 value="0.0089356113" flag="0"/>
    </comp>
    <comp name="--.HHZ">
      <acc value="0.0760554573" flag="0"/>
      <vel value="0.0210737164" flag="0"/>
      <psa03 value="0.0823636780" flag="0"/>
      <psa10 value="0.0180972752" flag="0"/>
      <psa30 value="0.0066464391" flag="0"/>
    </comp>
    <comp name="--.HHN">
      <acc value="0.1070456639" flag="0"/>
      <vel value="0.0265916797" flag="0"/>
      <psa03 value="0.1277897753" flag="0"/>
      <psa10 value="0.0305153196" flag="0"/>
      <psa30 value="0.0079784890" flag="0"/>
    </comp>
  </station>
  <station code="EFP" name="EFP" netid="HP" insttype="40," lat="38.4269" lon="21.9058">
    <comp name="--.HHZ">
      <acc value="0.6152662211" flag="0"/>
      <vel value="0.1461368486" flag="0"/>
      <psa03 value="1.0363884196" flag="0"/>
      <psa10 value="0.0877957533" flag="0"/>
      <psa30 value="0.0074146071" flag="0"/>
    </comp>
    <comp name="--.HHN">
      <acc value="0.6795274436" flag="0"/>
      <vel value="0.2366205829" flag="0"/>
