<stationlist created="1778136195">
	<station code="MALA" name="MALA" netid="CL" source="Corinth Riff Laboratory (CRLNET)" insttype="" lat="38.39341" lon="21.87263">
		<comp name="01.HNE" depth="0.0">
			<acc value="2.02023884147329" flag="0"/>
			<vel value="0.843208154835159" flag="0"/>
			<psa03 value="2.40238804216148" flag="0"/>
			<psa10 value="0.405112045916215" flag="0"/>
			<psa30 value="0.0948427399011477" flag="0"/>
		</comp>
		<comp name="01.HNN" depth="0.0">
			<acc value="2.44216092421214" flag="0"/>
			<vel value="0.719877092829983" flag="0"/>
			<psa03 value="2.68614311653456" flag="0"/>
			<psa10 value="0.417325326056805" flag="0"/>
			<psa30 value="0.0632198431074856" flag="0"/>
		</comp>
		<comp name="01.HNZ" depth="0.0">
			<acc value="0.764403002257561" flag="0"/>
			<vel value="0.181906565268581" flag="0"/>
			<psa03 value="0.642184891592054" flag="0"/>
			<psa10 value="0.113040290176931" flag="0"/>
			<psa30 value="0.0182758491373655" flag="0"/>
		</comp>
	</station>
	<station code="AIGS" name="AIGS" netid="HA" source="Hellenic Seismological Network, University of Athens, Seismological Laboratory (HA)" insttype="" lat="38.25001" lon="22.0878">
		<comp name="--.HNE" depth="0.0">
			<acc value="2.86035134308562" flag="0"/>
			<vel value="0.872937952709034" flag="0"/>
			<psa03 value="3.66671331678061" flag="0"/>
			<psa10 value="0.162513537723019" flag="0"/>
			<psa30 value="0.025588962809122" flag="0"/>
		</comp>
		<comp name="--.HNN" depth="0.0">
			<acc value="2.46070190692908" flag="0"/>
			<vel value="0.694791834746709" flag="0"/>
			<psa03 value="3.69606420432219" flag="0"/>
			<psa10 value="0.225689980890085" flag="0"/>
			<psa30 value="0.037056390365385" flag="0"/>
		</comp>
		<comp name="--.HNZ" depth="0.0">
			<acc value="1.22727083950797" flag="0"/>
			<vel value="0.238043353469622" flag="0"/>
			<psa03 value="0.480173361427292" flag="0"/>
			<psa10 value="0.13915005227109" flag="0"/>
			<psa30 value="0.020297302032379" flag="0"/>
		</comp>
	</station>
	<station code="LTRS" name="LTRS" netid="HA" source="Hellenic Seismological Network, University of Athens, Seismological Laboratory (HA)" insttype="" lat="37.97528" lon="22.9765">
		<comp name="--.HNE" depth="0.0">
			<acc value="0.0189276617414952" flag="0"/>
			<vel value="0.0177616250253627" flag="0"/>
			<psa03 value="0.0676949586134452" flag="0"/>
			<psa10 value="0.0246963557870875" flag="0"/>
			<psa30 value="0.00708716552833424" flag="0"/>
		</comp>
		<comp name="--.HNN" depth="0.0">
			<acc value="0.0196492840706165" flag="0"/>
			<vel value="0.0221159530252958" flag="0"/>
			<psa03 value="0.0560619848926945" flag="0"/>
			<psa10 value="0.0387619632816735" flag="0"/>
			<psa30 value="0.00494580351958376" flag="0"/>
		</comp>
		<comp name="--.HNZ" depth="0.0">
			<acc value="0.011236554634301" flag="0"/>
			<vel value="0.0117611553020656" flag="0"/>
			<psa03 value="0.032930264071048" flag="0"/>
			<psa10 value="0.0182051564509086" flag="0"/>
			<psa30 value="0.00431270129593521" flag="0"/>
		</comp>
	</station>
	<station code="XLKS" name="XLKS" netid="HA" source="Hellenic Seismological Network, University of Athens, Seismological Laboratory (HA)" insttype="" lat="38.0772" lon="22.6361">
		<comp name="--.HNE" depth="0.0">
			<acc value="0.0707550072096743" flag="0"/>
			<vel value="0.0605481665254473" flag="0"/>
			<psa03 value="0.153063088841108" flag="0"/>
			<psa10 value="0.0587751523020265" flag="0"/>
			<psa30 value="0.0165107690862746" flag="0"/>
		</comp>
		<comp name="--.HNN" depth="0.0">
			<acc value="0.0572964584530648" flag="0"/>
			<vel value="0.0389913522398982" flag="0"/>
			<psa03 value="0.155300199172021" flag="0"/>
			<psa10 value="0.0612234458481783" flag="0"/>
			<psa30 value="0.00893904546026451" flag="0"/>
		</comp>
		<comp name="--.HNZ" depth="0.0">
			<acc value="0.0393192926600775" flag="0"/>
			<vel value="0.0198593364956131" flag="0"/>
			<psa03 value="0.116598190447216" flag="0"/>
			<psa10 value="0.0261460032815195" flag="0"/>
			<psa30 value="0.00543080903932582" flag="0"/>
		</comp>
	</station>
	<station code="ARS1" name="ARS1" netid="HI" source="ITSAK Strong Motion Network" insttype="" lat="37.6349" lon="22.7293">
		<comp name="--.HNE" depth="0.0">
			<acc value="0.04162363840493" flag="0"/>
			<vel value="0.0410402115277087" flag="0"/>
			<psa03 value="0.0997303785521278" flag="0"/>
			<psa10 value="0.0636556321999476" flag="0"/>
			<psa30 value="0.00330510680289173" flag="0"/>
		</comp>
		<comp name="--.HNN" depth="0.0">
			<acc value="0.0440043128563842" flag="0"/>
			<vel value="0.0321270171166265" flag="0"/>
			<psa03 value="0.145949077988802" flag="0"/>
			<psa10 value="0.0433122456947518" flag="0"/>
			<psa30 value="0.00402321921911499" flag="0"/>
		</comp>
		<comp name="--.HNZ" depth="0.0">
			<acc value="0.0184432463558447" flag="0"/>
			<vel value="0.0123746040416944" flag="0"/>
			<psa03 value="0.0731982500274926" flag="0"/>
			<psa10 value="0.0123783788830111" flag="0"/>
			<psa30 value="0.00206395799130088" flag="0"/>
		</comp>
	</station>
	<station code="KLV1" name="KLV1" netid="HI" source="ITSAK Strong Motion Network" insttype="" lat="38.03256" lon="22.10797">
		<comp name="--.HNE" depth="0.0">
			<acc value="0.157111654052586" flag="0"/>
			<vel value="0.0545883231459999" flag="0"/>
			<psa03 value="0.380979889354584" flag="0"/>
			<psa10 value="0.0596046728127293" flag="0"/>
			<psa30 value="0.00650104262163488" flag="0"/>
		</comp>
		<comp name="--.HNN" depth="0.0">
			<acc value="0.150314778771513" flag="0"/>
			<vel value="0.0646435574506159" flag="0"/>
			<psa03 value="0.296775056498997" flag="0"/>
			<psa10 value="0.0484383603070072" flag="0"/>
			<psa30 value="0.0100871304820894" flag="0"/>
		</comp>
		<comp name="--.HNZ" depth="0.0">
			<acc value="0.104029817752058" flag="0"/>
			<vel value="0.0309239237371743" flag="0"/>
			<psa03 value="0.082146691351147" flag="0"/>
			<psa10 value="0.0427927886759136" flag="0"/>
			<psa30 value="0.0108562490138575" flag="0"/>
		</comp>
	</station>
	<station code="LAM2" name="LAM2" netid="HI" source="ITSAK Strong Motion Network" insttype="" lat="38.90203" lon="22.431301">
		<comp name="--.HNE" depth="0.0">
			<acc value="0.0310603922888067" flag="0"/>
			<vel value="0.0138978948206208" flag="0"/>
			<psa03 value="0.0434446826263419" flag="0"/>
			<psa10 value="0.0182212636452912" flag="0"/>
			<psa30 value="0.00284381465265735" flag="0"/>
		</comp>
		<comp name="--.HNN" depth="0.0">
			<acc value="0.0278448799590059" flag="0"/>
			<vel value="0.0132175397506618" flag="0"/>
			<psa03 value="0.0468898325359488" flag="0"/>
			<psa10 value="0.0132360869838833" flag="0"/>
			<psa30 value="0.00380979889354584" flag="0"/>
		</comp>
		<comp name="--.HNZ" depth="0.0">
			<acc value="0.0229219173327449" flag="0"/>
			<vel value="0.0102543355701048" flag="0"/>
			<psa03 value="0.024697698053286" flag="0"/>
			<psa10 value="0.00843211625927949" flag="0"/>
			<psa30 value="0.00345499319506294" flag="0"/>
		</comp>
	</station>
	<station code="MSL1" name="MSL1" netid="HI" source="ITSAK Strong Motion Network" insttype="" lat="38.3727" lon="21.4243">
		<comp name="--.HNE" depth="0.0">
			<acc value="0.10064602213205" flag="0"/>
			<vel value="0.0569513953879382" flag="0"/>
			<psa03 value="0.422366430476485" flag="0"/>
			<psa10 value="0.0376505668692757" flag="0"/>
			<psa30 value="0.0161250912652251" flag="0"/>
		</comp>
		<comp name="--.HNN" depth="0.0">
			<acc value="0.0688192121706723" flag="0"/>
			<vel value="0.032237474323261" flag="0"/>
			<psa03 value="0.251406458988069" flag="0"/>
			<psa10 value="0.0384881409771697" flag="0"/>
			<psa30 value="0.010894279889483" flag="0"/>
		</comp>
		<comp name="--.HNZ" depth="0.0">
			<acc value="0.0386679599051509" flag="0"/>
			<vel value="0.0157718675070454" flag="0"/>
			<psa03 value="0.0989250188329989" flag="0"/>
			<psa10 value="0.0169045005045154" flag="0"/>
			<psa30 value="0.00324515224602325" flag="0"/>
		</comp>
	</station>
	<station code="PYL1" name="PYL1" netid="HI" source="ITSAK Strong Motion Network" insttype="" lat="36.914188" lon="21.695161">
		<comp name="--.HNE" depth="0.0">
			<acc value="0.00252613160578136" flag="0"/>
			<vel value="0.00342274934072471" flag="0"/>
			<psa03 value="0.00626390892655805" flag="0"/>
			<psa10 value="0.00385767305462739" flag="0"/>
			<psa30 value="0.00245455745507839" flag="0"/>
		</comp>
		<comp name="--.HNN" depth="0.0">
			<acc value="0.00153275426421284" flag="0"/>
			<vel value="0.0021571923367977" flag="0"/>
			<psa03 value="0.00375834535593483" flag="0"/>
			<psa10 value="0.00296775056498997" flag="0"/>
			<psa30 value="0.00165277711247896" flag="0"/>
		</comp>
		<comp name="--.HNZ" depth="0.0">
			<acc value="0.00178921678830074" flag="0"/>
			<vel value="0.00275327314631907" flag="0"/>
			<psa03 value="0.00469793169491853" flag="0"/>
			<psa10 value="0.00231138239389992" flag="0"/>
			<psa30 value="0.00183443047134914" flag="0"/>
		</comp>
	</station>
	<station code="SKO1" name="SKO1" netid="HI" source="ITSAK Strong Motion Network" insttype="" lat="39.123383" lon="23.728705">
		<comp name="--.HNE" depth="0.0">
			<acc value="0.0018415744187035" flag="0"/>
			<vel value="0.00200903538101617" flag="0"/>
			<psa03 value="0.00366886094269828" flag="0"/>
			<psa10 value="0.00283083941273805" flag="0"/>
			<psa30 value="0.00102549137569079" flag="0"/>
		</comp>
		<comp name="--.HNN" depth="0.0">
			<acc value="0.00142042117111618" flag="0"/>
			<vel value="0.00215253300600677" flag="0"/>
			<psa03 value="0.00366886094269828" flag="0"/>
			<psa10 value="0.0025449367124473" flag="0"/>
			<psa30 value="0.00134718784127616" flag="0"/>
		</comp>
		<comp name="--.HNZ" depth="0.0">
			<acc value="0.0010994618639543" flag="0"/>
			<vel value="0.00182824698377926" flag="0"/>
			<psa03 value="0.00277401681033285" flag="0"/>
			<psa10 value="0.00268184786469921" flag="0"/>
			<psa30 value="0.000825941134173296" flag="0"/>
		</comp>
	</station>
	<station code="DLFA" name="DLFA" netid="HL" source="National Observatory of Athens Seismic Network" insttype="" lat="38.47836" lon="22.49583">
		<comp name="00.HNE" depth="0.0">
			<acc value="0.102159276752325" flag="0"/>
			<vel value="0.0322309647000368" flag="0"/>
			<psa03 value="0.125770342803962" flag="0"/>
			<psa10 value="0.0323674071117901" flag="0"/>
			<psa30 value="0.00527555358236042" flag="0"/>
		</comp>
		<comp name="00.HNN" depth="0.0">
			<acc value="0.113540698342209" flag="0"/>
			<vel value="0.0368276958554035" flag="0"/>
			<psa03 value="0.201116218749132" flag="0"/>
			<psa10 value="0.0353150236838019" flag="0"/>
			<psa30 value="0.00362143420368292" flag="0"/>
		</comp>
		<comp name="00.HNZ" depth="0.0">
			<acc value="0.099330722008809" flag="0"/>
			<vel value="0.0295505210366108" flag="0"/>
			<psa03 value="0.086262974360028" flag="0"/>
			<psa10 value="0.0292023434156136" flag="0"/>
			<psa30 value="0.0056697324226674" flag="0"/>
		</comp>
	</station>
	<station code="KYMI" name="KYMI" netid="HL" source="National Observatory of Athens Seismic Network" insttype="" lat="38.633147" lon="24.100138">
		<comp name="--.HNE" depth="1.0">
			<acc value="0.0021648128869827" flag="0"/>
			<vel value="0.00367149362849532" flag="0"/>
			<psa03 value="0.00536906479419261" flag="0"/>
			<psa10 value="0.00437713007346553" flag="0"/>
			<psa30 value="0.00154226386213183" flag="0"/>
		</comp>
		<comp name="--.HNN" depth="1.0">
			<acc value="0.00245253977148884" flag="0"/>
			<vel value="0.00381437346594914" flag="0"/>
			<psa03 value="0.00550329141404743" flag="0"/>
			<psa10 value="0.00668045887017416" flag="0"/>
			<psa30 value="0.000994171831057998" flag="0"/>
		</comp>
		<comp name="--.HNZ" depth="1.0">
			<acc value="0.00155939596956074" flag="0"/>
			<vel value="0.00272618948083695" flag="0"/>
			<psa03 value="0.00272927460371458" flag="0"/>
			<psa10 value="0.0039583430195185" flag="0"/>
			<psa30 value="0.00113018813917754" flag="0"/>
		</comp>
	</station>
	<station code="PATC" name="PATC" netid="HL" source="National Observatory of Athens Seismic Network" insttype="" lat="38.26933" lon="21.76001">
		<comp name="00.HNE" depth="0.0">
			<acc value="0.346776054637339" flag="0"/>
			<vel value="0.128315637940708" flag="0"/>
			<psa03 value="0.553461095868022" flag="0"/>
			<psa10 value="0.17058324210869" flag="0"/>
			<psa30 value="0.0441533991791753" flag="0"/>
		</comp>
		<comp name="00.HNN" depth="0.0">
			<acc value="0.284954286929598" flag="0"/>
			<vel value="0.133847172964065" flag="0"/>
			<psa03 value="0.557219441223957" flag="0"/>
			<psa10 value="0.162038375488733" flag="0"/>
			<psa30 value="0.0736962307871539" flag="0"/>
		</comp>
		<comp name="00.HNZ" depth="0.0">
			<acc value="0.32352256742617" flag="0"/>
			<vel value="0.0921440448121205" flag="0"/>
			<psa03 value="0.335119127570855" flag="0"/>
			<psa10 value="0.0710850756089116" flag="0"/>
			<psa30 value="0.0260565188682829" flag="0"/>
		</comp>
	</station>
	<station code="PATG" name="PATG" netid="HL" source="National Observatory of Athens Seismic Network" insttype="" lat="38.23865" lon="21.72657">
		<comp name="00.HNE" depth="0.0">
			<acc value="0.226901347344045" flag="0"/>
			<vel value="0.11939593849012" flag="0"/>
			<psa03 value="0.387959673587034" flag="0"/>
			<psa10 value="0.131176991051714" flag="0"/>
			<psa30 value="0.0399078111931675" flag="0"/>
		</comp>
		<comp name="00.HNN" depth="0.0">
			<acc value="0.222920325235593" flag="0"/>
			<vel value="0.119833488973008" flag="0"/>
			<psa03 value="0.33060016470241" flag="0"/>
			<psa10 value="0.0908727639079085" flag="0"/>
			<psa30 value="0.0764505610265747" flag="0"/>
		</comp>
		<comp name="00.HNZ" depth="0.0">
			<acc value="0.175840261041589" flag="0"/>
			<vel value="0.0760396902578345" flag="0"/>
			<psa03 value="0.197760553252761" flag="0"/>
			<psa10 value="0.0825896391966678" flag="0"/>
			<psa30 value="0.0306810733443475" flag="0"/>
		</comp>
	</station>
	<station code="RIOA" name="RIOA" netid="HL" source="National Observatory of Athens Seismic Network" insttype="" lat="38.29585" lon="21.79118">
		<comp name="00.HNE" depth="0.0">
			<acc value="0.467298653454526" flag="0"/>
			<vel value="0.130045459125391" flag="0"/>
			<psa03 value="0.76786574998278" flag="0"/>
			<psa10 value="0.0813050904446573" flag="0"/>
			<psa30 value="0.0225925772318963" flag="0"/>
		</comp>
		<comp name="00.HNN" depth="0.0">
			<acc value="0.466112851879185" flag="0"/>
			<vel value="0.171281278020648" flag="0"/>
			<psa03 value="0.524826083632328" flag="0"/>
			<psa10 value="0.0859439624268397" flag="0"/>
			<psa30 value="0.0352626753020585" flag="0"/>
		</comp>
		<comp name="00.HNZ" depth="0.0">
			<acc value="0.457866508261647" flag="0"/>
			<vel value="0.110111380142043" flag="0"/>
			<psa03 value="0.39842934993571" flag="0"/>
			<psa10 value="0.0428773514464222" flag="0"/>
			<psa30 value="0.0244663808450695" flag="0"/>
		</comp>
	</station>
	<station code="YDRA" name="YDRA" netid="HL" source="National Observatory of Athens Seismic Network" insttype="" lat="37.34923" lon="23.46525">
		<comp name="00.HNE" depth="0.0">
			<acc value="0.00492129022472987" flag="0"/>
			<vel value="0.00485481371711173" flag="0"/>
			<psa03 value="0.014809670390648" flag="0"/>
			<psa10 value="0.00705897793816473" flag="0"/>
			<psa30 value="0.000923479144601129" flag="0"/>
		</comp>
		<comp name="00.HNN" depth="0.0">
			<acc value="0.00555616590810012" flag="0"/>
			<vel value="0.00450070794166474" flag="0"/>
			<psa03 value="0.0182548203002549" flag="0"/>
			<psa10 value="0.00560127684654144" flag="0"/>
			<psa30 value="0.000725271169282185" flag="0"/>
		</comp>
		<comp name="00.HNZ" depth="0.0">
			<acc value="0.00281984911752411" flag="0"/>
			<vel value="0.00272226514644739" flag="0"/>
			<psa03 value="0.0101564809023477" flag="0"/>
			<psa10 value="0.00344291279927601" flag="0"/>
			<psa30 value="0.000716770150024713" flag="0"/>
		</comp>
	</station>
	<station code="ANX" name="ANX" netid="HP" source="University of Patras, Seismological Laboratory (PSLNET)" insttype="" lat="38.5933" lon="21.9209">
		<comp name="--.HNE" depth="0.0">
			<acc value="0.417221315642507" flag="0"/>
			<vel value="0.129179665354986" flag="0"/>
			<psa03 value="0.550418625817979" flag="0"/>
			<psa10 value="0.103649795851888" flag="0"/>
			<psa30 value="0.0249894172404371" flag="0"/>
		</comp>
		<comp name="--.HNN" depth="0.0">
			<acc value="0.311766870900109" flag="0"/>
			<vel value="0.158399841667881" flag="0"/>
			<psa03 value="0.70133408874141" flag="0"/>
			<psa10 value="0.12612335881418" flag="0"/>
			<psa30 value="0.0302018843114658" flag="0"/>
		</comp>
		<comp name="--.HNZ" depth="0.0">
			<acc value="0.178440095662807" flag="0"/>
			<vel value="0.0915347336827131" flag="0"/>
			<psa03 value="0.352881783598309" flag="0"/>
			<psa10 value="0.0543899686313697" flag="0"/>
			<psa30 value="0.0217178670925091" flag="0"/>
		</comp>
	</station>
	<station code="GUR" name="GUR" netid="HP" source="University of Patras, Seismological Laboratory (PSLNET)" insttype="" lat="37.9363" lon="22.3423">
		<comp name="--.HNE" depth="0.0">
			<acc value="0.0602924100977357" flag="0"/>
			<vel value="0.0246927503788742" flag="0"/>
			<psa03 value="0.16621729758688" flag="0"/>
			<psa10 value="0.0190225965658244" flag="0"/>
			<psa30 value="0.00402456148531354" flag="0"/>
		</comp>
		<comp name="--.HNN" depth="0.0">
			<acc value="0.0769084796230816" flag="0"/>
			<vel value="0.0417377299451803" flag="0"/>
			<psa03 value="0.34974982913503" flag="0"/>
			<psa10 value="0.0356734087588143" flag="0"/>
			<psa30 value="0.00369078462394124" flag="0"/>
		</comp>
		<comp name="--.HNZ" depth="0.0">
			<acc value="0.0389954143924148" flag="0"/>
			<vel value="0.0150485502309181" flag="0"/>
			<psa03 value="0.0757932980113524" flag="0"/>
			<psa10 value="0.0220990706928968" flag="0"/>
			<psa30 value="0.00384067101611245" flag="0"/>
		</comp>
	</station>
	<station code="LTK" name="LTK" netid="HP" source="University of Patras, Seismological Laboratory (PSLNET)" insttype="" lat="38.0228" lon="22.9673">
		<comp name="--.HNE" depth="0.0">
			<acc value="0.00992144025234754" flag="0"/>
			<vel value="0.00935827386882148" flag="0"/>
			<psa03 value="0.0281875901695112" flag="0"/>
			<psa10 value="0.0125313972296456" flag="0"/>
			<psa30 value="0.00285500020431192" flag="0"/>
		</comp>
		<comp name="--.HNN" depth="0.0">
			<acc value="0.0130897906667558" flag="0"/>
			<vel value="0.0103414823352134" flag="0"/>
			<psa03 value="0.0331539751041394" flag="0"/>
			<psa10 value="0.0134454805108568" flag="0"/>
			<psa30 value="0.00220444852008225" flag="0"/>
		</comp>
		<comp name="--.HNZ" depth="0.0">
			<acc value="0.0100998196268224" flag="0"/>
			<vel value="0.00672790159720331" flag="0"/>
			<psa03 value="0.0262189330783073" flag="0"/>
			<psa10 value="0.00629388620499229" flag="0"/>
			<psa30 value="0.00207693323122017" flag="0"/>
		</comp>
	</station>
	<station code="PDO" name="PDO" netid="HP" source="University of Patras, Seismological Laboratory (PSLNET)" insttype="" lat="38.5986" lon="21.1833">
		<comp name="--.HNE" depth="0.0">
			<acc value="0.035200978879787" flag="0"/>
			<vel value="0.0139853166313925" flag="0"/>
			<psa03 value="0.0936006962454245" flag="0"/>
			<psa10 value="0.00837574107894047" flag="0"/>
			<psa30 value="0.00329168414090625" flag="0"/>
		</comp>
		<comp name="--.HNN" depth="0.0">
			<acc value="0.032994565613278" flag="0"/>
			<vel value="0.0147532110980314" flag="0"/>
			<psa03 value="0.108544593255927" flag="0"/>
			<psa10 value="0.0104898103416538" flag="0"/>
			<psa30 value="0.00160132357486795" flag="0"/>
		</comp>
		<comp name="--.HNZ" depth="0.0">
			<acc value="0.023505909837371" flag="0"/>
			<vel value="0.00773982179789824" flag="0"/>
			<psa03 value="0.0369570626666925" flag="0"/>
			<psa10 value="0.00302815254392463" flag="0"/>
			<psa30 value="0.00180847999151054" flag="0"/>
		</comp>
	</station>
