<?xml version="1.0" encoding="UTF-8" standalone="yes"?>
<!DOCTYPE earthquake SYSTEM "stationlist.dtd">
<stationlist created="" xmlns="ch.ethz.sed.shakemap.usgs.xml">
  <station code="CANF" name="CANF" netid="LC" source="ODC" insttype="(Nanometrix)" lat="42.7637" lon="-0.517495">
    <comp name="00.HHN">
      <acc value="0.0295999947" flag="0"/>
      <vel value="0.0183332853" flag="0"/>
      <psa03 value="0.0737233810" flag="0"/>
      <psa10 value="0.0193445961" flag="0"/>
      <psa30 value="0.0022577131" flag="0"/>
    </comp>
    <comp name="00.HHE">
      <acc value="0.0353893964" flag="0"/>
      <vel value="0.0169564905" flag="0"/>
      <psa03 value="0.0789603892" flag="0"/>
      <psa10 value="0.0204561882" flag="0"/>
      <psa30 value="0.0017139856" flag="0"/>
    </comp>
    <comp name="00.HHZ">
      <acc value="0.0393260852" flag="0"/>
      <vel value="0.0262449584" flag="0"/>
      <psa03 value="0.1151440267" flag="0"/>
      <psa10 value="0.0385777187" flag="0"/>
      <psa30 value="0.0022028513" flag="0"/>
    </comp>
  </station>
</stationlist>
