<stationlist created="1778069895">
	<station code="CTRM" name="CTRM" netid="CA" source="Catalan Seismic Network (CA)" insttype="" lat="42.160858" lon="0.893644">
		<comp name="--.HNE" depth="0.0">
			<acc value="0.061053866936588" flag="0"/>
			<vel value="0.0184243488324367" flag="0"/>
			<psa03 value="0.0734667032672022" flag="0"/>
			<psa10 value="0.0134736681010264" flag="0"/>
			<psa30 value="0.00110110570487567" flag="0"/>
		</comp>
		<comp name="--.HNN" depth="0.0">
			<acc value="0.0674634095457637" flag="0"/>
			<vel value="0.0198393225257463" flag="0"/>
			<psa03 value="0.0942718293446986" flag="0"/>
			<psa10 value="0.0194494372169627" flag="0"/>
			<psa30 value="0.00126038796043672" flag="0"/>
		</comp>
		<comp name="--.HNZ" depth="0.0">
			<acc value="0.0307346891739886" flag="0"/>
			<vel value="0.010176971540958" flag="0"/>
			<psa03 value="0.0430867449733957" flag="0"/>
			<psa10 value="0.0121971729462071" flag="0"/>
			<psa30 value="0.00120043340356823" flag="0"/>
		</comp>
	</station>
	<station code="ILER" name="ILER" netid="CA" source="Catalan Seismic Network (CA)" insttype="" lat="41.6153" lon="0.6262">
		<comp name="--.HNE" depth="0.0">
			<acc value="0.0295389545410792" flag="0"/>
			<vel value="0.0124675902595874" flag="0"/>
			<psa03 value="0.0820124647312921" flag="0"/>
			<psa10 value="0.0160508192022388" flag="0"/>
			<psa30 value="0.00133823939995251" flag="0"/>
		</comp>
		<comp name="--.HNN" depth="0.0">
			<acc value="0.0240615744561458" flag="0"/>
			<vel value="0.0124536820485594" flag="0"/>
			<psa03 value="0.0606704321743765" flag="0"/>
			<psa10 value="0.0206172088096996" flag="0"/>
			<psa30 value="0.00124159623365704" flag="0"/>
		</comp>
		<comp name="--.HNZ" depth="0.0">
			<acc value="0.018107980081669" flag="0"/>
			<vel value="0.00678488121607529" flag="0"/>
			<psa03 value="0.050379724652174" flag="0"/>
			<psa10 value="0.0105582659177798" flag="0"/>
			<psa30 value="0.000937349228652793" flag="0"/>
		</comp>
	</station>
	<station code="VIER" name="VIER" netid="CA" source="Catalan Seismic Network (CA)" insttype="" lat="42.706473" lon="0.786306">
		<comp name="--.HNE" depth="0.0">
			<acc value="0.0817638372135372" flag="0"/>
			<vel value="0.0291956637879703" flag="0"/>
			<psa03 value="0.134584557507761" flag="0"/>
			<psa10 value="0.0151327091224319" flag="0"/>
			<psa30 value="0.00107247069263997" flag="0"/>
		</comp>
		<comp name="--.HNN" depth="0.0">
			<acc value="0.0762160900892595" flag="0"/>
			<vel value="0.0275711502388586" flag="0"/>
			<psa03 value="0.129841883606225" flag="0"/>
			<psa10 value="0.0218171947912017" flag="0"/>
			<psa30 value="0.00131855282904047" flag="0"/>
		</comp>
		<comp name="--.HNZ" depth="0.0">
			<acc value="0.0346263814420384" flag="0"/>
			<vel value="0.0127254168482056" flag="0"/>
			<psa03 value="0.0791042213011045" flag="0"/>
			<psa10 value="0.0102804168146803" flag="0"/>
			<psa30 value="0.00100669964891111" flag="0"/>
		</comp>
	</station>
	<station code="ATE" name="ATE" netid="FR" source="RESIF and other broad-band and accelerometric permanent networks in metropolitan France (RESIF)" insttype="" lat="43.0858" lon="-0.7007">
		<comp name="00.HNE" depth="0.0">
			<acc value="0.107377918078904" flag="0"/>
			<vel value="0.0481743064907707" flag="0"/>
			<psa03 value="0.257133461435208" flag="0"/>
			<psa10 value="0.0521591222093827" flag="0"/>
			<psa30 value="0.00343217466968763" flag="0"/>
		</comp>
		<comp name="00.HNN" depth="0.0">
			<acc value="0.123183677601476" flag="0"/>
			<vel value="0.0590408279964606" flag="0"/>
			<psa03 value="0.27986250239729" flag="0"/>
			<psa10 value="0.0512087977408106" flag="0"/>
			<psa30 value="0.00725673849141749" flag="0"/>
		</comp>
		<comp name="00.HNZ" depth="0.0">
			<acc value="0.0729713582531827" flag="0"/>
			<vel value="0.0476317107847496" flag="0"/>
			<psa03 value="0.159505966594139" flag="0"/>
			<psa10 value="0.0470410611943185" flag="0"/>
			<psa30 value="0.00730863945109469" flag="0"/>
		</comp>
	</station>
	<station code="PYLO" name="PYLO" netid="FR" source="RESIF and other broad-band and accelerometric permanent networks in metropolitan France (RESIF)" insttype="" lat="43.0969" lon="-0.04925">
		<comp name="00.HNE" depth="0.0">
			<acc value="0.0379192175017004" flag="0"/>
			<vel value="0.018489136122184" flag="0"/>
			<psa03 value="0.114763759975867" flag="0"/>
			<psa10 value="0.0107354450559881" flag="0"/>
			<psa30 value="0.00154673808279365" flag="0"/>
		</comp>
		<comp name="00.HNN" depth="0.0">
			<acc value="0.0253963608799382" flag="0"/>
			<vel value="0.0121559322133424" flag="0"/>
			<psa03 value="0.0747194850525138" flag="0"/>
			<psa10 value="0.00705092434097344" flag="0"/>
			<psa30 value="0.00176865942762028" flag="0"/>
		</comp>
		<comp name="00.HNZ" depth="0.0">
			<acc value="0.0181798882310217" flag="0"/>
			<vel value="0.0124193210758874" flag="0"/>
			<psa03 value="0.0434894248329602" flag="0"/>
			<psa10 value="0.00765091733172447" flag="0"/>
			<psa30 value="0.00156597723163951" flag="0"/>
		</comp>
	</station>
	<station code="CANF" name="CANF" netid="LC" source="LSC (Laboratorio Subterraneo Canfranc)" insttype="" lat="42.763652" lon="-0.517495">
		<comp name="10.HNE" depth="0.0">
			<acc value="0.0351207111929354" flag="0"/>
			<vel value="0.0174540574614613" flag="0"/>
			<psa03 value="0.0791042213011045" flag="0"/>
			<psa10 value="0.0206292892054866" flag="0"/>
			<psa30 value="0.00180042639431925" flag="0"/>
		</comp>
		<comp name="10.HNN" depth="0.0">
			<acc value="0.0286777660941737" flag="0"/>
			<vel value="0.0180480187147411" flag="0"/>
			<psa03 value="0.072437632514982" flag="0"/>
			<psa10 value="0.0187528010599162" flag="0"/>
			<psa30 value="0.0028424723864588" flag="0"/>
		</comp>
		<comp name="10.HNZ" depth="0.0">
			<acc value="0.0390216654297387" flag="0"/>
			<vel value="0.0252418134027338" flag="0"/>
			<psa03 value="0.11624025279427" flag="0"/>
			<psa10 value="0.0383794174150873" flag="0"/>
			<psa30 value="0.00221115985107499" flag="0"/>
		</comp>
	</station>
	<station code="PYAD" name="PYAD" netid="RA" source="Reseau Accelerometrique Permanent (French Accelerometrique Network) (RAP)" insttype="" lat="43.0967" lon="-0.42805">
		<comp name="00.HNE" depth="0.0">
			<acc value="0.0443216655189181" flag="0"/>
			<vel value="0.017928197425416" flag="0"/>
			<psa03 value="0.0932241131400525" flag="0"/>
			<psa10 value="0.0205307856888033" flag="0"/>
			<psa30 value="0.000823633051230785" flag="0"/>
		</comp>
		<comp name="00.HNN" depth="0.0">
			<acc value="0.0460347325701289" flag="0"/>
			<vel value="0.0190498424402459" flag="0"/>
			<psa03 value="0.0835112457519593" flag="0"/>
			<psa10 value="0.0232868170123248" flag="0"/>
			<psa30 value="0.000932245923384812" flag="0"/>
		</comp>
		<comp name="00.HNZ" depth="0.0">
			<acc value="0.038674458605577" flag="0"/>
			<vel value="0.0216357966285112" flag="0"/>
			<psa03 value="0.129531007876869" flag="0"/>
			<psa10 value="0.0148998148521066" flag="0"/>
			<psa30 value="0.0010999983903261" flag="0"/>
		</comp>
	</station>
	<station code="PYAS" name="PYAS" netid="RA" source="Reseau Accelerometrique Permanent (French Accelerometrique Network) (RAP)" insttype="" lat="43.011889" lon="0.797306">
		<comp name="00.HNE" depth="0.0">
			<acc value="0.0108380629766912" flag="0"/>
			<vel value="0.00597557387918033" flag="0"/>
			<psa03 value="0.031453771252645" flag="0"/>
			<psa10 value="0.00799319521235425" flag="0"/>
			<psa30 value="0.000485900363874431" flag="0"/>
		</comp>
		<comp name="00.HNN" depth="0.0">
			<acc value="0.0156197741939147" flag="0"/>
			<vel value="0.00625386192923319" flag="0"/>
			<psa03 value="0.0453238553043093" flag="0"/>
			<psa10 value="0.00801332920533247" flag="0"/>
			<psa30 value="0.000551223985537108" flag="0"/>
		</comp>
		<comp name="00.HNZ" depth="0.0">
			<acc value="0.0125504676100657" flag="0"/>
			<vel value="0.00725092486186711" flag="0"/>
			<psa03 value="0.039686337270407" flag="0"/>
			<psa10 value="0.00606033188644491" flag="0"/>
			<psa30 value="0.000763749466973899" flag="0"/>
		</comp>
	</station>
	<station code="PYCA" name="PYCA" netid="RA" source="Reseau Accelerometrique Permanent (French Accelerometrique Network) (RAP)" insttype="" lat="43.0236" lon="0.1771">
		<comp name="00.HNE" depth="0.0">
			<acc value="0.162744455082851" flag="0"/>
			<vel value="0.0545403871366249" flag="0"/>
			<psa03 value="0.384514523677427" flag="0"/>
			<psa10 value="0.0305956157297066" flag="0"/>
			<psa30 value="0.00688224622202256" flag="0"/>
		</comp>
		<comp name="00.HNN" depth="0.0">
			<acc value="0.185380322811846" flag="0"/>
			<vel value="0.0971289182963996" flag="0"/>
			<psa03 value="0.56464664752259" flag="0"/>
			<psa10 value="0.0939411844377896" flag="0"/>
			<psa30 value="0.00382590608792842" flag="0"/>
		</comp>
		<comp name="00.HNZ" depth="0.0">
			<acc value="0.14135023788381" flag="0"/>
			<vel value="0.0657330858511216" flag="0"/>
			<psa03 value="0.276596321314156" flag="0"/>
			<psa10 value="0.0829641314660628" flag="0"/>
			<psa30 value="0.010774370775746" flag="0"/>
		</comp>
	</station>
	<station code="PYLI" name="PYLI" netid="RA" source="Reseau Accelerometrique Permanent (French Accelerometrique Network) (RAP)" insttype="" lat="43.00156" lon="1.13606">
		<comp name="00.HNE" depth="0.0">
			<acc value="0.0158332680605273" flag="0"/>
			<vel value="0.0110036367877671" flag="0"/>
			<psa03 value="0.0457265351638737" flag="0"/>
			<psa10 value="0.0115287243793301" flag="0"/>
			<psa30 value="0.000876499827651943" flag="0"/>
		</comp>
		<comp name="00.HNN" depth="0.0">
			<acc value="0.00993903163963538" flag="0"/>
			<vel value="0.00767553884412292" flag="0"/>
			<psa03 value="0.0364648983938915" flag="0"/>
			<psa10 value="0.00953948587308172" flag="0"/>
			<psa30 value="0.000766881421437178" flag="0"/>
		</comp>
		<comp name="00.HNZ" depth="0.0">
			<acc value="0.0103323279239489" flag="0"/>
			<vel value="0.00690546249293362" flag="0"/>
			<psa03 value="0.0247424402599043" flag="0"/>
			<psa10 value="0.00784017686571976" flag="0"/>
			<psa30 value="0.000807149407393622" flag="0"/>
		</comp>
	</station>
	<station code="PYLS" name="PYLS" netid="RA" source="Reseau Accelerometrique Permanent (French Accelerometrique Network) (RAP)" insttype="" lat="42.86026" lon="-0.00846">
		<comp name="00.HNE" depth="0.0">
			<acc value="0.0613165254912511" flag="0"/>
			<vel value="0.0209290117342752" flag="0"/>
			<psa03 value="0.134316104268052" flag="0"/>
			<psa10 value="0.0117622786978775" flag="0"/>
			<psa30 value="0.00179818928398834" flag="0"/>
		</comp>
		<comp name="00.HNN" depth="0.0">
			<acc value="0.0593885682336215" flag="0"/>
			<vel value="0.0336727245384291" flag="0"/>
			<psa03 value="0.17319708181933" flag="0"/>
			<psa10 value="0.0146132521035937" flag="0"/>
			<psa30 value="0.00120222309183296" flag="0"/>
		</comp>
		<comp name="00.HNZ" depth="0.0">
			<acc value="0.0349888673227494" flag="0"/>
			<vel value="0.0141174085628826" flag="0"/>
			<psa03 value="0.0890817333769791" flag="0"/>
			<psa10 value="0.00853681302276625" flag="0"/>
			<psa30 value="0.00286708060009885" flag="0"/>
		</comp>
	</station>
	<station code="PYPC" name="PYPC" netid="RA" source="Reseau Accelerometrique Permanent (French Accelerometrique Network) (RAP)" insttype="" lat="43.295" lon="-0.37523">
		<comp name="00.HNE" depth="0.0">
			<acc value="0.0534248783565637" flag="0"/>
			<vel value="0.0251212239212419" flag="0"/>
			<psa03 value="0.183129851688586" flag="0"/>
			<psa10 value="0.0242493811429709" flag="0"/>
			<psa30 value="0.00389436166405437" flag="0"/>
		</comp>
		<comp name="00.HNN" depth="0.0">
			<acc value="0.0739808820042119" flag="0"/>
			<vel value="0.0310234330381702" flag="0"/>
			<psa03 value="0.217312897544946" flag="0"/>
			<psa10 value="0.0203957348869392" flag="0"/>
			<psa30 value="0.00607062259396711" flag="0"/>
		</comp>
		<comp name="00.HNZ" depth="0.0">
			<acc value="0.0259012428320314" flag="0"/>
			<vel value="0.016707573603981" flag="0"/>
			<psa03 value="0.0511850843713029" flag="0"/>
			<psa10 value="0.0166588657901811" flag="0"/>
			<psa30 value="0.0111542321099351" flag="0"/>
		</comp>
	</station>
	<station code="PYPP" name="PYPP" netid="RA" source="Reseau Accelerometrique Permanent (French Accelerometrique Network) (RAP)" insttype="" lat="43.1622" lon="-1.23361">
		<comp name="00.HNE" depth="0.0">
			<acc value="0.0927936177982253" flag="0"/>
			<vel value="0.062157167741737" flag="0"/>
			<psa03 value="0.411538816474864" flag="0"/>
			<psa10 value="0.0832943289509056" flag="0"/>
			<psa30 value="0.00736456720936753" flag="0"/>
		</comp>
		<comp name="00.HNN" depth="0.0">
			<acc value="0.127027840081479" flag="0"/>
			<vel value="0.0506020972279867" flag="0"/>
			<psa03 value="0.498472923934166" flag="0"/>
			<psa10 value="0.0434813712357689" flag="0"/>
			<psa30 value="0.00293866813068809" flag="0"/>
		</comp>
		<comp name="00.HNZ" depth="0.0">
			<acc value="0.0842075291159005" flag="0"/>
			<vel value="0.0297953082208708" flag="0"/>
			<psa03 value="0.174091925951695" flag="0"/>
			<psa10 value="0.0430786913762044" flag="0"/>
			<psa30 value="0.00811757854675304" flag="0"/>
		</comp>
	</station>
	<station code="PYPU" name="PYPU" netid="RA" source="Reseau Accelerometrique Permanent (French Accelerometrique Network) (RAP)" insttype="" lat="43.315" lon="-0.36528">
		<comp name="00.HNE" depth="0.0">
			<acc value="0.0777360650551267" flag="0"/>
			<vel value="0.0549835844205084" flag="0"/>
			<psa03 value="0.307065764021199" flag="0"/>
			<psa10 value="0.0834916420820922" flag="0"/>
			<psa30 value="0.00554937588686424" flag="0"/>
		</comp>
		<comp name="00.HNN" depth="0.0">
			<acc value="0.0736190239934706" flag="0"/>
			<vel value="0.0531260608475051" flag="0"/>
			<psa03 value="0.185859126292301" flag="0"/>
			<psa10 value="0.0573496655991684" flag="0"/>
			<psa30 value="0.00624198524531509" flag="0"/>
		</comp>
		<comp name="00.HNZ" depth="0.0">
			<acc value="0.0380379084628044" flag="0"/>
			<vel value="0.0237393627587395" flag="0"/>
			<psa03 value="0.110244797107422" flag="0"/>
			<psa10 value="0.0228842964190475" flag="0"/>
			<psa30 value="0.0100669964891111" flag="0"/>
		</comp>
	</station>
	<station code="PYTB" name="PYTB" netid="RA" source="Reseau Accelerometrique Permanent (French Accelerometrique Network) (RAP)" insttype="" lat="43.2258" lon="0.04833">
		<comp name="00.HNE" depth="0.0">
			<acc value="0.075912659046411" flag="0"/>
			<vel value="0.0434334009445895" flag="0"/>
			<psa03 value="0.185411704226118" flag="0"/>
			<psa10 value="0.0532745454203762" flag="0"/>
			<psa30 value="0.00320488426006681" flag="0"/>
		</comp>
		<comp name="00.HNN" depth="0.0">
			<acc value="0.0366638874035038" flag="0"/>
			<vel value="0.0278317994075343" flag="0"/>
			<psa03 value="0.107202327057379" flag="0"/>
			<psa10 value="0.0321459331890297" flag="0"/>
			<psa30 value="0.0029641711884605" flag="0"/>
		</comp>
		<comp name="00.HNZ" depth="0.0">
			<acc value="0.0281708338115685" flag="0"/>
			<vel value="0.0166617499434506" flag="0"/>
			<psa03 value="0.0778514395157929" flag="0"/>
			<psa10 value="0.0208910311142034" flag="0"/>
			<psa30 value="0.00363440944360221" flag="0"/>
		</comp>
	</station>
	<station code="PYTO" name="PYTO" netid="RA" source="Reseau Accelerometrique Permanent (French Accelerometrique Network) (RAP)" insttype="" lat="43.0881" lon="-0.041719">
		<comp name="08.HN1" depth="0.0">
			<acc value="0.0120984347706222" flag="0"/>
			<vel value="0.00681095652637193" flag="0"/>
			<psa03 value="0.0313642868394085" flag="0"/>
			<psa10 value="0.00655562811370918" flag="0"/>
			<psa30 value="0.00118701074158275" flag="0"/>
		</comp>
		<comp name="08.HN2" depth="0.0">
			<acc value="0.019839238700395" flag="0"/>
			<vel value="0.00747905682036198" flag="0"/>
			<psa03 value="0.0364648983938915" flag="0"/>
			<psa10 value="0.00432880849031779" flag="0"/>
			<psa30 value="0.00195031278649047" flag="0"/>
		</comp>
		<comp name="08.HNZ" depth="0.0">
			<acc value="0.0177693556155125" flag="0"/>
			<vel value="0.00795480326786524" flag="0"/>
			<psa03 value="0.0378519067990579" flag="0"/>
			<psa10 value="0.00630596660077922" flag="0"/>
			<psa30 value="0.00162414210024326" flag="0"/>
		</comp>
		<comp name="09.HN1" depth="0.0">
			<acc value="0.0129134810155504" flag="0"/>
			<vel value="0.00693972111510041" flag="0"/>
			<psa03 value="0.0317669666989729" flag="0"/>
			<psa10 value="0.00655965491230482" flag="0"/>
			<psa30 value="0.00122951583787011" flag="0"/>
		</comp>
		<comp name="09.HN2" depth="0.0">
			<acc value="0.0193021528484835" flag="0"/>
			<vel value="0.00796588424705458" flag="0"/>
			<psa03 value="0.0382545866586224" flag="0"/>
			<psa10 value="0.00418384374087459" flag="0"/>
			<psa30 value="0.00188230463243069" flag="0"/>
		</comp>
		<comp name="09.HNZ" depth="0.0">
			<acc value="0.021386951630914" flag="0"/>
			<vel value="0.00981062553711803" flag="0"/>
			<psa03 value="0.0463081838499113" flag="0"/>
			<psa10 value="0.00625764501763149" flag="0"/>
			<psa30 value="0.00160669263966214" flag="0"/>
		</comp>
	</station>
</stationlist>
