<?xml version="1.0" encoding="UTF-8" standalone="yes"?>
<!DOCTYPE earthquake SYSTEM "stationlist.dtd">
<stationlist created="" xmlns="ch.ethz.sed.shakemap.usgs.xml">
  <station code="ARPRA" name="ARPRA" netid="KO" insttype="CMG-5T" lat="39.0929" lon="38.3356">
    <comp name="--.HNN">
      <acc value="0.2650830910" flag="0"/>
      <vel value="0.1890191530" flag="0"/>
      <psa03 value="0.8332881077" flag="0"/>
      <psa10 value="0.2776974236" flag="0"/>
      <psa30 value="0.0462257668" flag="0"/>
    </comp>
    <comp name="--.HNZ">
      <acc value="0.1323171734" flag="0"/>
      <vel value="0.0882595157" flag="0"/>
      <psa03 value="0.2624005357" flag="0"/>
      <psa10 value="0.1407362131" flag="0"/>
      <psa30 value="0.0138275515" flag="0"/>
    </comp>
    <comp name="--.HNE">
      <acc value="0.3077990324" flag="0"/>
      <vel value="0.3000451962" flag="0"/>
      <psa03 value="0.6249264091" flag="0"/>
      <psa10 value="0.2462071806" flag="0"/>
      <psa30 value="0.0550948341" flag="0"/>
    </comp>
  </station>
  <station code="DARE" name="DARE" netid="KO" insttype="CMG-3ESP" lat="38.5712" lon="37.4832">
    <comp name="--.HHN">
      <acc value="0.2577014785" flag="0"/>
      <vel value="0.1787165137" flag="0"/>
      <psa03 value="0.3522253711" flag="0"/>
      <psa10 value="0.1991986199" flag="0"/>
      <psa30 value="0.0338327395" flag="0"/>
    </comp>
    <comp name="--.HHZ">
      <acc value="0.1890881137" flag="0"/>
      <vel value="0.1234235373" flag="0"/>
      <psa03 value="0.5362858630" flag="0"/>
      <psa10 value="0.1340595212" flag="0"/>
      <psa30 value="0.0308053471" flag="0"/>
    </comp>
    <comp name="--.HHE">
      <acc value="0.2749939225" flag="0"/>
      <vel value="0.1803031466" flag="0"/>
      <psa03 value="0.6654599996" flag="0"/>
      <psa10 value="0.2430992108" flag="0"/>
      <psa30 value="0.0298953684" flag="0"/>
    </comp>
  </station>
  <station code="GAZ" name="GAZ" netid="KO" insttype="CMG-3T" lat="37.1721" lon="37.2096">
    <comp name="--.HHN">
      <acc value="0.1258073464" flag="0"/>
      <vel value="0.1977309040" flag="0"/>
      <psa03 value="0.2694809157" flag="0"/>
      <psa10 value="0.2403889547" flag="0"/>
      <psa30 value="0.0413140814" flag="0"/>
    </comp>
    <comp name="--.HHE">
      <acc value="0.1900203405" flag="0"/>
      <vel value="0.3236567268" flag="0"/>
      <psa03 value="0.4387942541" flag="0"/>
      <psa10 value="0.3719736923" flag="0"/>
      <psa30 value="0.1006711307" flag="0"/>
    </comp>
    <comp name="--.HHZ">
      <acc value="0.0709601020" flag="0"/>
      <vel value="0.0779606474" flag="0"/>
      <psa03 value="0.1532304136" flag="0"/>
      <psa10 value="0.1004862539" flag="0"/>
      <psa30 value="0.0365127949" flag="0"/>
    </comp>
  </station>
  <station code="KMRS" name="KMRS" netid="KO" insttype="CMG-3T" lat="37.5053" lon="36.9">
    <comp name="--.HHN">
      <acc value="0.2668002227" flag="0"/>
      <vel value="0.2091943130" flag="0"/>
      <psa03 value="0.7198043568" flag="0"/>
      <psa10 value="0.2336719846" flag="0"/>
      <psa30 value="0.0706146062" flag="0"/>
    </comp>
    <comp name="--.HHZ">
      <acc value="0.1411626465" flag="0"/>
      <vel value="0.1145944660" flag="0"/>
      <psa03 value="0.4048875021" flag="0"/>
      <psa10 value="0.2347905947" flag="0"/>
      <psa30 value="0.0656945344" flag="0"/>
    </comp>
  </station>
  <station code="SARI" name="SARI" netid="KO" insttype="CMG-3T" lat="38.4072" lon="36.4181">
    <comp name="--.HHE">
      <acc value="0.2168508225" flag="0"/>
      <vel value="0.1938692303" flag="0"/>
      <psa03 value="0.5011909651" flag="0"/>
      <psa10 value="0.3085307385" flag="0"/>
      <psa30 value="0.0322959767" flag="0"/>
    </comp>
    <comp name="--.HHZ">
      <acc value="0.1332551795" flag="0"/>
      <vel value="0.1269912157" flag="0"/>
      <psa03 value="0.3159309344" flag="0"/>
      <psa10 value="0.2391490861" flag="0"/>
      <psa30 value="0.0236446645" flag="0"/>
    </comp>
  </station>
  <station code="ANDN" name="ANDN" netid="TU" insttype="T" lat="37.58" lon="36.3452">
    <comp name="--.HHZ">
      <acc value="0.2422968981" flag="0"/>
      <vel value="0.2753597234" flag="0"/>
      <psa03 value="0.5161932059" flag="0"/>
      <psa10 value="0.4243475220" flag="0"/>
      <psa30 value="0.1002910492" flag="0"/>
    </comp>
    <comp name="--.HHN">
      <acc value="0.4685477683" flag="0"/>
      <vel value="0.4998023818" flag="0"/>
      <psa03 value="1.2034934145" flag="0"/>
      <psa10 value="1.0188041705" flag="0"/>
      <psa30 value="0.0772878782" flag="0"/>
    </comp>
    <comp name="--.HHE">
      <acc value="0.4332992126" flag="0"/>
      <vel value="0.4172809215" flag="0"/>
      <psa03 value="0.9564797442" flag="0"/>
      <psa10 value="0.6781457240" flag="0"/>
      <psa30 value="0.0745639641" flag="0"/>
    </comp>
  </station>
</stationlist>
