<?xml version="1.0" encoding="UTF-8" standalone="yes"?>
<!DOCTYPE earthquake SYSTEM "stationlist.dtd">
<stationlist created="" xmlns="ch.ethz.sed.shakemap.usgs.xml">
  <station code="URFA" name="URFA" netid="KO" insttype="CMG-3ESP" lat="37.4409" lon="38.8213">
    <comp name="--.HHZ">
      <acc value="0.0911980944" flag="0"/>
      <vel value="0.0254417035" flag="0"/>
      <psa03 value="0.1104657222" flag="0"/>
      <psa10 value="0.0144922664" flag="0"/>
      <psa30 value="0.0010216495" flag="0"/>
    </comp>
  </station>
</stationlist>
