<?xml version="1.0" encoding="UTF-8" standalone="yes"?>
<!DOCTYPE earthquake SYSTEM "stationlist.dtd">
<stationlist created="" xmlns="ch.ethz.sed.shakemap.usgs.xml">
  <station code="GAZ" name="GAZ" netid="KO" insttype="CMG-3T" lat="37.1721" lon="37.2096">
    <comp name="--.HHE">
      <acc value="0.0195360344" flag="0"/>
      <vel value="0.0148372666" flag="0"/>
      <psa03 value="0.0686938610" flag="0"/>
      <psa10 value="0.0191133037" flag="0"/>
      <psa30 value="0.0012678311" flag="0"/>
    </comp>
    <comp name="--.HHN">
      <acc value="0.0156476544" flag="0"/>
      <vel value="0.0104513126" flag="0"/>
      <psa03 value="0.0340843229" flag="0"/>
      <psa10 value="0.0141853991" flag="0"/>
      <psa30 value="0.0010666339" flag="0"/>
    </comp>
    <comp name="--.HHZ">
      <acc value="0.0164548368" flag="0"/>
      <vel value="0.0121829165" flag="0"/>
      <psa03 value="0.0400394633" flag="0"/>
      <psa10 value="0.0141386666" flag="0"/>
      <psa30 value="0.0007069240" flag="0"/>
    </comp>
  </station>
  <station code="KMRS" name="KMRS" netid="KO" insttype="CMG-3T" lat="37.5053" lon="36.9">
    <comp name="--.HHN">
      <acc value="0.0213290068" flag="0"/>
      <vel value="0.0105406511" flag="0"/>
      <psa03 value="0.0324105557" flag="0"/>
      <psa10 value="0.0078909063" flag="0"/>
      <psa30 value="0.0011337086" flag="0"/>
    </comp>
  </station>
  <station code="SARI" name="SARI" netid="KO" insttype="CMG-3T" lat="38.4072" lon="36.4181">
    <comp name="--.HHZ">
      <acc value="0.0123320397" flag="0"/>
      <vel value="0.0096731995" flag="0"/>
      <psa03 value="0.0186831247" flag="0"/>
      <psa10 value="0.0140513873" flag="0"/>
      <psa30 value="0.0010522757" flag="0"/>
    </comp>
    <comp name="--.HHN">
      <acc value="0.0130125889" flag="0"/>
      <vel value="0.0070527487" flag="0"/>
      <psa03 value="0.0215407016" flag="0"/>
      <psa10 value="0.0107768840" flag="0"/>
      <psa30 value="0.0009134739" flag="0"/>
    </comp>
  </station>
  <station code="URFA" name="URFA" netid="KO" insttype="CMG-3ESP" lat="37.4409" lon="38.8213">
    <comp name="--.HHZ">
      <acc value="0.0911980941" flag="0"/>
      <vel value="0.0254417035" flag="0"/>
      <psa03 value="0.1104657222" flag="0"/>
      <psa10 value="0.0144922654" flag="0"/>
      <psa30 value="0.0010216503" flag="0"/>
    </comp>
  </station>
</stationlist>
