<?xml version="1.0" encoding="UTF-8" standalone="yes"?>
<!DOCTYPE earthquake SYSTEM "stationlist.dtd">
<stationlist created="" xmlns="ch.ethz.sed.shakemap.usgs.xml">
  <station code="ADA" name="ADA" netid="VI" insttype="CMG-3ESP" commtype="DIG" lat="65.0188" lon="-15.5745">
    <comp name="--.HHE">
      <acc value="0.0081228386" flag="0"/>
      <vel value="0.0247798952" flag="0"/>
      <psa03 value="0.0112295085" flag="0"/>
      <psa10 value="0.0150557371" flag="0"/>
      <psa30 value="0.0323361743" flag="0"/>
    </comp>
    <comp name="--.HHZ">
      <acc value="0.0048891677" flag="0"/>
      <vel value="0.0163247442" flag="0"/>
      <psa03 value="0.0128337571" flag="0"/>
      <psa10 value="0.0094939362" flag="0"/>
      <psa30 value="0.0152271407" flag="0"/>
    </comp>
    <comp name="--.HHN">
      <acc value="0.0049405227" flag="0"/>
      <vel value="0.0201452115" flag="0"/>
      <psa03 value="0.0111070007" flag="0"/>
      <psa10 value="0.0152328675" flag="0"/>
      <psa30 value="0.0256605585" flag="0"/>
    </comp>
  </station>
  <station code="FAG" name="FAG" netid="VI" insttype="CMG-3T" commtype="DIG" lat="63.8748" lon="-16.6536">
    <comp name="--.HHE">
      <acc value="0.0080601308" flag="0"/>
      <vel value="0.0262253000" flag="0"/>
      <psa03 value="0.0127465936" flag="0"/>
      <psa10 value="0.0258717493" flag="0"/>
      <psa30 value="0.0190691162" flag="0"/>
    </comp>
    <comp name="--.HHN">
      <acc value="0.0090595483" flag="0"/>
      <vel value="0.0311629375" flag="0"/>
      <psa03 value="0.0097337594" flag="0"/>
      <psa10 value="0.0183947382" flag="0"/>
      <psa30 value="0.0147424783" flag="0"/>
    </comp>
    <comp name="--.HHZ">
      <acc value="0.0069898019" flag="0"/>
      <vel value="0.0223084669" flag="0"/>
      <psa03 value="0.0192267791" flag="0"/>
      <psa10 value="0.0153071051" flag="0"/>
      <psa30 value="0.0183589550" flag="0"/>
    </comp>
  </station>
  <station code="SKR" name="SKR" netid="VI" insttype="LE-3D/5s" commtype="DIG" lat="64.5601" lon="-18.3865">
    <comp name="--.HHE">
      <acc value="0.1159415462" flag="0"/>
      <vel value="0.3024700714" flag="0"/>
      <psa03 value="0.2417762268" flag="0"/>
      <psa10 value="0.2592400461" flag="0"/>
      <psa30 value="0.1084935960" flag="0"/>
    </comp>
    <comp name="--.HHZ">
      <acc value="0.0740089353" flag="0"/>
      <vel value="0.1692712252" flag="0"/>
      <psa03 value="0.2289982111" flag="0"/>
      <psa10 value="0.2097634582" flag="0"/>
      <psa30 value="0.0750090150" flag="0"/>
    </comp>
    <comp name="--.HHN">
      <acc value="0.1096847667" flag="0"/>
      <vel value="0.2540738759" flag="0"/>
      <psa03 value="0.1977097949" flag="0"/>
      <psa10 value="0.2167662054" flag="0"/>
      <psa30 value="0.1688372776" flag="0"/>
    </comp>
  </station>
</stationlist>
