<?xml version="1.0" encoding="UTF-8" standalone="yes"?>
<!DOCTYPE earthquake SYSTEM "stationlist.dtd">
<stationlist created="" xmlns="ch.ethz.sed.shakemap.usgs.xml">
  <station code="DRA2" name="DRA2" netid="HI" insttype="CMG-5TD,ACCELEROMETER,GURALP" lat="41.1593" lon="24.1485">
    <comp name="--.HNE">
      <acc value="0.0323695142" flag="0"/>
      <vel value="0.0098581655" flag="0"/>
      <psa03 value="0.0676671839" flag="0"/>
      <psa10 value="0.0059941453" flag="0"/>
      <psa30 value="0.0004585470" flag="0"/>
    </comp>
    <comp name="--.HNN">
      <acc value="0.0337844390" flag="0"/>
      <vel value="0.0076807612" flag="0"/>
      <psa03 value="0.0419455177" flag="0"/>
      <psa10 value="0.0043186394" flag="0"/>
      <psa30 value="0.0003023425" flag="0"/>
    </comp>
    <comp name="--.HNZ">
      <acc value="0.0273189610" flag="0"/>
      <vel value="0.0060522392" flag="0"/>
      <psa03 value="0.0214989930" flag="0"/>
      <psa10 value="0.0025980261" flag="0"/>
      <psa30 value="0.0002019452" flag="0"/>
    </comp>
  </station>
  <station code="PLN1" name="PLN1" netid="HI" insttype="CMG-5TD,ACCELEROMETER,GURALP" lat="39.998" lon="23.575">
    <comp name="--.HNE">
      <acc value="0.0386043863" flag="0"/>
      <vel value="0.0274773347" flag="0"/>
      <psa03 value="0.0903935033" flag="0"/>
      <psa10 value="0.0251349994" flag="0"/>
      <psa30 value="0.0024035174" flag="0"/>
    </comp>
    <comp name="--.HNZ">
      <acc value="0.0676100628" flag="0"/>
      <vel value="0.0176289720" flag="0"/>
      <psa03 value="0.0625809847" flag="0"/>
      <psa10 value="0.0181262615" flag="0"/>
      <psa30 value="0.0011355675" flag="0"/>
    </comp>
    <comp name="--.HNN">
      <acc value="0.0636145958" flag="0"/>
      <vel value="0.0442934738" flag="0"/>
      <psa03 value="0.1406988387" flag="0"/>
      <psa10 value="0.0620932531" flag="0"/>
      <psa30 value="0.0030423604" flag="0"/>
    </comp>
  </station>
  <station code="LIA" name="LIA" netid="HL" insttype="GMG5TD" lat="39.8972" lon="25.1806">
    <comp name="00.HNZ">
      <acc value="0.0215510193" flag="0"/>
      <vel value="0.0075515427" flag="0"/>
      <psa03 value="0.0414824769" flag="0"/>
      <psa10 value="0.0060546887" flag="0"/>
      <psa30 value="0.0005222905" flag="0"/>
    </comp>
    <comp name="00.HNN">
      <acc value="0.0321071249" flag="0"/>
      <vel value="0.0113866255" flag="0"/>
      <psa03 value="0.0415334482" flag="0"/>
      <psa10 value="0.0072353344" flag="0"/>
      <psa30 value="0.0009415231" flag="0"/>
    </comp>
    <comp name="00.HNE">
      <acc value="0.0238299206" flag="0"/>
      <vel value="0.0095360151" flag="0"/>
      <psa03 value="0.0715814154" flag="0"/>
      <psa10 value="0.0083469279" flag="0"/>
      <psa30 value="0.0003972754" flag="0"/>
    </comp>
  </station>
  <station code="PLG" name="PLG" netid="HL" insttype="120" lat="40.3733" lon="23.4444">
    <comp name="--.HHE">
      <acc value="0.0737942874" flag="0"/>
      <vel value="0.0150958391" flag="0"/>
      <psa03 value="0.0910193627" flag="0"/>
      <psa10 value="0.0058774770" flag="0"/>
      <psa30 value="0.0008344999" flag="0"/>
    </comp>
    <comp name="--.HHN">
      <acc value="0.0773816707" flag="0"/>
      <vel value="0.0206545615" flag="0"/>
      <psa03 value="0.1110821955" flag="0"/>
      <psa10 value="0.0117904390" flag="0"/>
      <psa30 value="0.0007507468" flag="0"/>
    </comp>
    <comp name="--.HHZ">
      <acc value="0.0616038878" flag="0"/>
      <vel value="0.0151405761" flag="0"/>
      <psa03 value="0.0783131633" flag="0"/>
      <psa10 value="0.0084337859" flag="0"/>
      <psa30 value="0.0003848358" flag="0"/>
    </comp>
  </station>
  <station code="PRAS" name="PRAS" netid="HL" insttype="120" lat="41.3524" lon="24.55">
    <comp name="--.HHZ">
      <acc value="0.0094392461" flag="0"/>
      <vel value="0.0032864031" flag="0"/>
      <psa03 value="0.0137792097" flag="0"/>
      <psa10 value="0.0058092799" flag="0"/>
      <psa30 value="0.0005320823" flag="0"/>
    </comp>
    <comp name="--.HHE">
      <acc value="0.0127450363" flag="0"/>
      <vel value="0.0045157924" flag="0"/>
      <psa03 value="0.0144871836" flag="0"/>
      <psa10 value="0.0048225936" flag="0"/>
      <psa30 value="0.0004442765" flag="0"/>
    </comp>
    <comp name="--.HHN">
      <acc value="0.0165401098" flag="0"/>
      <vel value="0.0048035494" flag="0"/>
      <psa03 value="0.0286664957" flag="0"/>
      <psa10 value="0.0042920482" flag="0"/>
      <psa30 value="0.0004789434" flag="0"/>
    </comp>
  </station>
  <station code="HORT" name="HORT" netid="HT" insttype="100" lat="40.5978" lon="23.0996">
    <comp name="--.HHE">
      <acc value="0.0309110251" flag="0"/>
      <vel value="0.0070347131" flag="0"/>
      <psa03 value="0.0184065151" flag="0"/>
      <psa10 value="0.0027701749" flag="0"/>
      <psa30 value="0.0004519378" flag="0"/>
    </comp>
    <comp name="--.HHZ">
      <acc value="0.0238366104" flag="0"/>
      <vel value="0.0036220515" flag="0"/>
      <psa03 value="0.0109560842" flag="0"/>
      <psa10 value="0.0025604098" flag="0"/>
      <psa30 value="0.0001665995" flag="0"/>
    </comp>
    <comp name="--.HHN">
      <acc value="0.0000104808" flag="0"/>
      <vel value="0.0000019763" flag="0"/>
      <psa03 value="0.0000111321" flag="0"/>
      <psa10 value="0.0000025656" flag="0"/>
      <psa30 value="0.0000004069" flag="0"/>
    </comp>
  </station>
  <station code="KAVA" name="KAVA" netid="HT" insttype="Compact," lat="40.9967" lon="24.5137">
    <comp name="--.HHN">
      <acc value="0.1064897858" flag="0"/>
      <vel value="0.0186193319" flag="0"/>
      <psa03 value="0.0621350865" flag="0"/>
      <psa10 value="0.0070840895" flag="0"/>
      <psa30 value="0.0009882607" flag="0"/>
    </comp>
    <comp name="--.HHE">
      <acc value="0.1129081558" flag="0"/>
      <vel value="0.0220041652" flag="0"/>
      <psa03 value="0.0650885073" flag="0"/>
      <psa10 value="0.0209902608" flag="0"/>
      <psa30 value="0.0013198081" flag="0"/>
    </comp>
    <comp name="--.HHZ">
      <acc value="0.0786199874" flag="0"/>
      <vel value="0.0144215773" flag="0"/>
      <psa03 value="0.0651694602" flag="0"/>
      <psa10 value="0.0083526988" flag="0"/>
      <psa30 value="0.0010126687" flag="0"/>
    </comp>
  </station>
  <station code="OUR" name="OUR" netid="HT" insttype="100" lat="40.3325" lon="23.9791">
    <comp name="--.HHN">
      <acc value="0.7940734113" flag="0"/>
      <vel value="0.1864334240" flag="0"/>
      <psa03 value="0.5197513131" flag="0"/>
      <psa10 value="0.1785076245" flag="0"/>
      <psa30 value="0.0126923168" flag="0"/>
    </comp>
    <comp name="--.HHE">
      <acc value="0.9134848573" flag="0"/>
      <vel value="0.1670695919" flag="0"/>
      <psa03 value="0.3804268707" flag="0"/>
      <psa10 value="0.0886056594" flag="0"/>
      <psa30 value="0.0059605202" flag="0"/>
    </comp>
    <comp name="--.HHZ">
      <acc value="0.8326711267" flag="0"/>
      <vel value="0.1601742421" flag="0"/>
      <psa03 value="0.4339350139" flag="0"/>
      <psa10 value="0.0547504800" flag="0"/>
      <psa30 value="0.0033329519" flag="0"/>
    </comp>
  </station>
  <station code="PAIG" name="PAIG" netid="HT" insttype="100" lat="39.9363" lon="23.6768">
    <comp name="--.HHN">
      <acc value="0.0707543169" flag="0"/>
      <vel value="0.0180290952" flag="0"/>
      <psa03 value="0.0545758038" flag="0"/>
      <psa10 value="0.0097527099" flag="0"/>
      <psa30 value="0.0008081279" flag="0"/>
    </comp>
    <comp name="--.HHZ">
      <acc value="0.0576076316" flag="0"/>
      <vel value="0.0103023740" flag="0"/>
      <psa03 value="0.0402670015" flag="0"/>
      <psa10 value="0.0080369122" flag="0"/>
      <psa30 value="0.0008698907" flag="0"/>
    </comp>
    <comp name="--.HHE">
      <acc value="0.1039406843" flag="0"/>
      <vel value="0.0215825795" flag="0"/>
      <psa03 value="0.0678035605" flag="0"/>
      <psa10 value="0.0108739153" flag="0"/>
      <psa30 value="0.0010479077" flag="0"/>
    </comp>
  </station>
  <station code="SOH" name="SOH" netid="HT" insttype="120P," lat="40.8217" lon="23.3539">
    <comp name="--.HHE">
      <acc value="0.0372521306" flag="0"/>
      <vel value="0.0097928039" flag="0"/>
      <psa03 value="0.0898970990" flag="0"/>
      <psa10 value="0.0152396021" flag="0"/>
      <psa30 value="0.0008752973" flag="0"/>
    </comp>
    <comp name="--.HHN">
      <acc value="0.0397603556" flag="0"/>
      <vel value="0.0118543802" flag="0"/>
      <psa03 value="0.0788105156" flag="0"/>
      <psa10 value="0.0076526986" flag="0"/>
      <psa30 value="0.0010600713" flag="0"/>
    </comp>
    <comp name="--.HHZ">
      <acc value="0.0293691483" flag="0"/>
      <vel value="0.0073486484" flag="0"/>
      <psa03 value="0.0634749900" flag="0"/>
      <psa10 value="0.0046530760" flag="0"/>
      <psa30 value="0.0004273328" flag="0"/>
    </comp>
  </station>
  <station code="SRS" name="SRS" netid="HT" insttype="100" lat="41.1087" lon="23.595">
    <comp name="--.HHE">
      <acc value="0.0341104221" flag="0"/>
      <vel value="0.0057680354" flag="0"/>
      <psa03 value="0.0232033038" flag="0"/>
      <psa10 value="0.0049518632" flag="0"/>
      <psa30 value="0.0006707388" flag="0"/>
    </comp>
    <comp name="--.HHN">
      <acc value="0.0362830923" flag="0"/>
      <vel value="0.0059817101" flag="0"/>
      <psa03 value="0.0343765791" flag="0"/>
      <psa10 value="0.0036756787" flag="0"/>
      <psa30 value="0.0003975393" flag="0"/>
    </comp>
    <comp name="--.HHZ">
      <acc value="0.0209483383" flag="0"/>
      <vel value="0.0040615486" flag="0"/>
      <psa03 value="0.0123907169" flag="0"/>
      <psa10 value="0.0024746900" flag="0"/>
      <psa30 value="0.0002385244" flag="0"/>
    </comp>
  </station>
  <station code="THAS" name="THAS" netid="HT" insttype="100" lat="40.6064" lon="24.7194">
    <comp name="--.HHE">
      <acc value="0.2361263586" flag="0"/>
      <vel value="0.0657367637" flag="0"/>
      <psa03 value="0.2063925568" flag="0"/>
      <psa10 value="0.0311842955" flag="0"/>
      <psa30 value="0.0019708479" flag="0"/>
    </comp>
    <comp name="--.HHN">
      <acc value="0.2691915839" flag="0"/>
      <vel value="0.0730414814" flag="0"/>
      <psa03 value="0.4118135047" flag="0"/>
      <psa10 value="0.0189538201" flag="0"/>
      <psa30 value="0.0014839249" flag="0"/>
    </comp>
    <comp name="--.HHZ">
      <acc value="0.1853653174" flag="0"/>
      <vel value="0.0592745429" flag="0"/>
      <psa03 value="0.2457378435" flag="0"/>
      <psa10 value="0.0245048957" flag="0"/>
      <psa30 value="0.0015031756" flag="0"/>
    </comp>
  </station>
</stationlist>
