<?xml version="1.0" encoding="UTF-8" standalone="yes"?>
<!DOCTYPE earthquake SYSTEM "stationlist.dtd">
<stationlist created="" xmlns="ch.ethz.sed.shakemap.usgs.xml">
  <station code="KSL" name="KSL" netid="HL" source="NOA" insttype="60" lat="36.1503" lon="29.5856">
    <comp name="--.HHE">
      <acc value="0.0594819230" flag="0"/>
      <vel value="0.1378742097" flag="0"/>
      <psa03 value="0.0982257634" flag="0"/>
      <psa10 value="0.1174580823" flag="0"/>
      <psa30 value="0.1034810501" flag="0"/>
    </comp>
    <comp name="--.HHN">
      <acc value="0.0401596833" flag="0"/>
      <vel value="0.1129370972" flag="0"/>
      <psa03 value="0.0611630975" flag="0"/>
      <psa10 value="0.1217331731" flag="0"/>
      <psa30 value="0.0572436880" flag="0"/>
    </comp>
    <comp name="--.HHZ">
      <acc value="0.0446132640" flag="0"/>
      <vel value="0.1326406587" flag="0"/>
      <psa03 value="0.1095860903" flag="0"/>
      <psa10 value="0.1427689976" flag="0"/>
      <psa30 value="0.0888377385" flag="0"/>
    </comp>
  </station>
  <station code="BASM" name="BASM" netid="KO" source="KOERI" insttype="100" lat="37.9194" lon="30.035">
    <comp name="--.HNE">
      <acc value="78.3688571511" flag="0"/>
      <vel value="20.3146714258" flag="0"/>
      <psa03 value="99.7519233107" flag="0"/>
      <psa10 value="14.1629098789" flag="0"/>
      <psa30 value="2.5936599476" flag="0"/>
    </comp>
    <comp name="--.HNN">
      <acc value="84.0928466047" flag="0"/>
      <vel value="33.0162824058" flag="0"/>
      <psa03 value="95.2414903332" flag="0"/>
      <psa10 value="17.0985790956" flag="0"/>
      <psa30 value="3.1045885702" flag="0"/>
    </comp>
    <comp name="--.HNZ">
      <acc value="31.2892922053" flag="0"/>
      <vel value="10.4662824432" flag="0"/>
      <psa03 value="45.0178062563" flag="0"/>
      <psa10 value="12.4275791662" flag="0"/>
      <psa30 value="1.5312886407" flag="0"/>
    </comp>
  </station>
  <station code="GOMA" name="GOMA" netid="KO" source="KOERI" insttype="100" lat="38.7077" lon="27.9175">
    <comp name="--.HNE">
      <acc value="0.4985895183" flag="0"/>
      <vel value="0.3049860030" flag="0"/>
      <psa03 value="1.4402583689" flag="0"/>
      <psa10 value="0.2492987403" flag="0"/>
      <psa30 value="0.0422119367" flag="0"/>
    </comp>
    <comp name="--.HNN">
      <acc value="0.2376264596" flag="0"/>
      <vel value="0.2093210431" flag="0"/>
      <psa03 value="0.5212183108" flag="0"/>
      <psa10 value="0.2276132694" flag="0"/>
      <psa30 value="0.0939077777" flag="0"/>
    </comp>
    <comp name="--.HNZ">
      <acc value="0.1104417440" flag="0"/>
      <vel value="0.0793305021" flag="0"/>
      <psa03 value="0.2914217237" flag="0"/>
      <psa10 value="0.0976683548" flag="0"/>
      <psa30 value="0.0180933444" flag="0"/>
    </comp>
  </station>
  <station code="KEMT" name="KEMT" netid="KO" source="KOERI" insttype="100" lat="36.6037" lon="30.5559">
    <comp name="--.HNE">
      <acc value="1.0475476460" flag="0"/>
      <vel value="1.5140786742" flag="0"/>
      <psa03 value="2.5490982867" flag="0"/>
      <psa10 value="1.7494306559" flag="0"/>
      <psa30 value="0.9374527932" flag="0"/>
    </comp>
    <comp name="--.HNN">
      <acc value="6.7332139061" flag="0"/>
      <vel value="22.4226305348" flag="0"/>
      <psa03 value="9.6329487490" flag="0"/>
      <psa10 value="10.7885084236" flag="0"/>
      <psa30 value="10.3045620012" flag="0"/>
    </comp>
    <comp name="--.HNZ">
      <acc value="0.5967400262" flag="0"/>
      <vel value="1.1282102002" flag="0"/>
      <psa03 value="0.6306723705" flag="0"/>
      <psa10 value="0.7877495520" flag="0"/>
      <psa30 value="0.8244911712" flag="0"/>
    </comp>
  </station>
  <station code="KHL" name="KHL" netid="KO" source="KOERI" insttype="100" lat="38.3232" lon="29.5286">
    <comp name="--.HNE">
      <acc value="3.8468688732" flag="0"/>
      <vel value="2.3010360019" flag="0"/>
      <psa03 value="11.0925641126" flag="0"/>
      <psa10 value="1.5465444262" flag="0"/>
      <psa30 value="0.2941149517" flag="0"/>
    </comp>
    <comp name="--.HNN">
      <acc value="4.6162388514" flag="0"/>
      <vel value="2.0047225379" flag="0"/>
      <psa03 value="15.1001026712" flag="0"/>
      <psa10 value="2.1955316009" flag="0"/>
      <psa30 value="0.3643148952" flag="0"/>
    </comp>
    <comp name="--.HNZ">
      <acc value="2.3495728898" flag="0"/>
      <vel value="1.4606979082" flag="0"/>
      <psa03 value="6.4830943096" flag="0"/>
      <psa10 value="1.0730827599" flag="0"/>
      <psa30 value="0.3463132411" flag="0"/>
    </comp>
  </station>
  <station code="SHAP" name="SHAP" netid="KO" source="KOERI" insttype="100" lat="39.0231" lon="29.222">
    <comp name="--.HNE">
      <acc value="1.0687413770" flag="0"/>
      <vel value="0.8040567878" flag="0"/>
      <psa03 value="4.8421733671" flag="0"/>
      <psa10 value="0.6338288591" flag="0"/>
      <psa30 value="0.1690771877" flag="0"/>
    </comp>
    <comp name="--.HNN">
      <acc value="1.3454822403" flag="0"/>
      <vel value="0.9322550053" flag="0"/>
      <psa03 value="3.7360573274" flag="0"/>
      <psa10 value="1.4086818320" flag="0"/>
      <psa30 value="0.3858969394" flag="0"/>
    </comp>
    <comp name="--.HNZ">
      <acc value="0.5600077596" flag="0"/>
      <vel value="0.5970631608" flag="0"/>
      <psa03 value="1.7442176218" flag="0"/>
      <psa10 value="0.6557514319" flag="0"/>
      <psa30 value="0.1456720566" flag="0"/>
    </comp>
  </station>
  <station code="SMAA" name="SMAA" netid="KO" source="KOERI" insttype="100" lat="39.1005" lon="28.9805">
    <comp name="--.HNE">
      <acc value="1.3558041645" flag="0"/>
      <vel value="2.5398287733" flag="0"/>
      <psa03 value="2.7297322997" flag="0"/>
      <psa10 value="5.1615381740" flag="0"/>
      <psa30 value="0.5520353380" flag="0"/>
    </comp>
    <comp name="--.HNN">
      <acc value="1.3518806673" flag="0"/>
      <vel value="2.1173765509" flag="0"/>
      <psa03 value="2.3990251196" flag="0"/>
      <psa10 value="4.3681881355" flag="0"/>
      <psa30 value="0.4514646233" flag="0"/>
    </comp>
    <comp name="--.HNZ">
      <acc value="0.7241105823" flag="0"/>
      <vel value="0.5963677591" flag="0"/>
      <psa03 value="1.6267791802" flag="0"/>
      <psa10 value="1.2950150988" flag="0"/>
      <psa30 value="0.1626439950" flag="0"/>
    </comp>
  </station>
  <station code="TVSB" name="TVSB" netid="KO" source="KOERI" insttype="120" lat="39.4497" lon="29.4615">
    <comp name="--.HHE">
      <acc value="0.0282230944" flag="0"/>
      <vel value="0.0403397212" flag="0"/>
      <psa03 value="0.0820033043" flag="0"/>
      <psa10 value="0.0370331025" flag="0"/>
      <psa30 value="0.0126387922" flag="0"/>
    </comp>
    <comp name="--.HHN">
      <acc value="0.0421054890" flag="0"/>
      <vel value="0.0466041268" flag="0"/>
      <psa03 value="0.1021756713" flag="0"/>
      <psa10 value="0.0404600532" flag="0"/>
      <psa30 value="0.0111174954" flag="0"/>
    </comp>
    <comp name="--.HHZ">
      <acc value="0.0207393846" flag="0"/>
      <vel value="0.0379884457" flag="0"/>
      <psa03 value="0.0382801868" flag="0"/>
      <psa10 value="0.0419608953" flag="0"/>
      <psa30 value="0.0092970361" flag="0"/>
    </comp>
  </station>
  <station code="1505" name="1505" netid="TK" source="ODC" insttype="DC_100" lat="37.3161" lon="29.779">
    <comp name="--.HNE">
      <acc value="1.8066534173" flag="0"/>
      <vel value="1.9809430744" flag="0"/>
      <psa03 value="4.2698999875" flag="0"/>
      <psa10 value="3.4992810716" flag="0"/>
      <psa30 value="0.4254306318" flag="0"/>
    </comp>
    <comp name="--.HNN">
      <acc value="1.7696825097" flag="0"/>
      <vel value="1.4591767909" flag="0"/>
      <psa03 value="3.3415262272" flag="0"/>
      <psa10 value="3.1028872089" flag="0"/>
      <psa30 value="0.4752239830" flag="0"/>
    </comp>
    <comp name="--.HNZ">
      <acc value="1.1944379214" flag="0"/>
      <vel value="1.6755268231" flag="0"/>
      <psa03 value="3.1216870349" flag="0"/>
      <psa10 value="3.0540579966" flag="0"/>
      <psa30 value="0.2591557099" flag="0"/>
    </comp>
  </station>
  <station code="AYDN" name="AYDN" netid="TU" source="ODC" insttype="T" lat="37.6608" lon="27.8792">
    <comp name="--.HHE">
      <acc value="0.1634844715" flag="0"/>
      <vel value="0.1044174456" flag="0"/>
      <psa03 value="0.5151396878" flag="0"/>
      <psa10 value="0.1103226305" flag="0"/>
      <psa30 value="0.0658524943" flag="0"/>
    </comp>
    <comp name="--.HHN">
      <acc value="0.1206661174" flag="0"/>
      <vel value="0.1062536620" flag="0"/>
      <psa03 value="0.3560412666" flag="0"/>
      <psa10 value="0.0949289059" flag="0"/>
      <psa30 value="0.0387179001" flag="0"/>
    </comp>
    <comp name="--.HHZ">
      <acc value="0.0632877738" flag="0"/>
      <vel value="0.0782368796" flag="0"/>
      <psa03 value="0.1531635862" flag="0"/>
      <psa10 value="0.1046016239" flag="0"/>
      <psa30 value="0.0413532690" flag="0"/>
    </comp>
  </station>
</stationlist>
