<stationlist created="1778637295">
	<station code="KRL1" name="KRL1" netid="HI" source="ITSAK Strong Motion Network" insttype="" lat="37.7951" lon="26.7065">
		<comp name="--.HNE" depth="0.0">
			<acc value="0.0212086470485524" flag="0"/>
			<vel value="0.0590867281022815" flag="0"/>
			<psa03 value="0.0467377576055862" flag="0"/>
			<psa10 value="0.0510308305420098" flag="0"/>
			<psa30 value="0.0163134590199292" flag="0"/>
		</comp>
		<comp name="--.HNN" depth="0.0">
			<acc value="0.0217507981261328" flag="0"/>
			<vel value="0.0606852288201227" flag="0"/>
			<psa03 value="0.0343344854286413" flag="0"/>
			<psa10 value="0.0531734224780923" flag="0"/>
			<psa30 value="0.0226137847189109" flag="0"/>
		</comp>
		<comp name="--.HNZ" depth="0.0">
			<acc value="0.0168899773400971" flag="0"/>
			<vel value="0.0484234928033712" flag="0"/>
			<psa03 value="0.0272079143699575" flag="0"/>
			<psa10 value="0.036882414528972" flag="0"/>
			<psa30 value="0.014126369135941" flag="0"/>
		</comp>
	</station>
	<station code="KSL" name="KSL" netid="HL" source="National Observatory of Athens Seismic Network" insttype="" lat="36.15031" lon="29.58561">
		<comp name="00.HNE" depth="0.0">
			<acc value="0.0621197832488796" flag="0"/>
			<vel value="0.152916219803242" flag="0"/>
			<psa03 value="0.0985670811800527" flag="0"/>
			<psa10 value="0.123352921380377" flag="0"/>
			<psa30 value="0.111555743761337" flag="0"/>
		</comp>
		<comp name="00.HNN" depth="0.0">
			<acc value="0.0413707197368474" flag="0"/>
			<vel value="0.15646919322525" flag="0"/>
			<psa03 value="0.0583885796368446" flag="0"/>
			<psa10 value="0.116644274920033" flag="0"/>
			<psa30 value="0.0585653113529868" flag="0"/>
		</comp>
		<comp name="00.HNZ" depth="0.0">
			<acc value="0.0430981424176697" flag="0"/>
			<vel value="0.148870697323628" flag="0"/>
			<psa03 value="0.106978616024288" flag="0"/>
			<psa10 value="0.141074861999808" flag="0"/>
			<psa30 value="0.0918025069614362" flag="0"/>
		</comp>
	</station>
	<station code="RODB" name="RODB" netid="HL" source="National Observatory of Athens Seismic Network" insttype="" lat="36.4471" lon="28.22116">
		<comp name="00.HNE" depth="0.0">
			<acc value="0.079420256922017" flag="0"/>
			<vel value="0.271095246069533" flag="0"/>
			<psa03 value="0.168096470264847" flag="0"/>
			<psa10 value="0.189932009360762" flag="0"/>
			<psa30 value="0.147237653539409" flag="0"/>
		</comp>
		<comp name="00.HNN" depth="0.0">
			<acc value="0.0709563217638484" flag="0"/>
			<vel value="0.29071465393056" flag="0"/>
			<psa03 value="0.153778964147" flag="0"/>
			<psa10 value="0.175330837652955" flag="0"/>
			<psa30 value="0.176914711767242" flag="0"/>
		</comp>
		<comp name="00.HNZ" depth="0.0">
			<acc value="0.0511398867670278" flag="0"/>
			<vel value="0.101171288227735" flag="0"/>
			<psa03 value="0.0876499827651944" flag="0"/>
			<psa10 value="0.125825375718102" flag="0"/>
			<psa30 value="0.045688056866182" flag="0"/>
		</comp>
	</station>
	<station code="AKS" name="AKS" netid="KO" source="Bogazici University Kandilli Observatory And Earthquake Research Institute (KOERI)" insttype="" lat="38.8785" lon="27.8129">
		<comp name="--.HNE" depth="0.0">
			<acc value="0.22186336601022" flag="0"/>
			<vel value="0.357754929157983" flag="0"/>
			<psa03 value="0.5561008860585" flag="0"/>
			<psa10 value="0.312302391883802" flag="0"/>
			<psa30 value="0.106864523397411" flag="0"/>
		</comp>
		<comp name="--.HNN" depth="0.0">
			<acc value="0.263024276128055" flag="0"/>
			<vel value="0.421902962090986" flag="0"/>
			<psa03 value="0.610641635926173" flag="0"/>
			<psa10 value="0.34322015150116" flag="0"/>
			<psa30 value="0.080452303986513" flag="0"/>
		</comp>
		<comp name="--.HNZ" depth="0.0">
			<acc value="0.104357579616815" flag="0"/>
			<vel value="0.360662547351654" flag="0"/>
			<psa03 value="0.274806633049425" flag="0"/>
			<psa10 value="0.214475346801215" flag="0"/>
			<psa30 value="0.0862115208224169" flag="0"/>
		</comp>
	</station>
	<station code="CAME" name="CAME" netid="KO" source="Bogazici University Kandilli Observatory And Earthquake Research Institute (KOERI)" insttype="" lat="36.9435" lon="29.3023">
		<comp name="--.HNE" depth="0.0">
			<acc value="0.88922063306851" flag="0"/>
			<vel value="0.861753913656454" flag="0"/>
			<psa03 value="2.31634877883455" flag="0"/>
			<psa10 value="0.951097613902456" flag="0"/>
			<psa30 value="0.295243978188519" flag="0"/>
		</comp>
		<comp name="--.HNN" depth="0.0">
			<acc value="0.690542802123453" flag="0"/>
			<vel value="0.705882332664354" flag="0"/>
			<psa03 value="3.12461674139363" flag="0"/>
			<psa10 value="0.595362172366033" flag="0"/>
			<psa30 value="0.325243180304004" flag="0"/>
		</comp>
		<comp name="--.HNZ" depth="0.0">
			<acc value="0.407667131811575" flag="0"/>
			<vel value="0.650297056488813" flag="0"/>
			<psa03 value="1.09215726355201" flag="0"/>
			<psa10 value="0.676224314965169" flag="0"/>
			<psa30 value="0.238338155279004" flag="0"/>
		</comp>
	</station>
	<station code="CANM" name="CANM" netid="KO" source="Bogazici University Kandilli Observatory And Earthquake Research Institute (KOERI)" insttype="" lat="40.0113" lon="27.0529">
		<comp name="--.HNE" depth="0.0">
			<acc value="0.071254753808728" flag="0"/>
			<vel value="0.220665274730376" flag="0"/>
			<psa03 value="0.140535270987992" flag="0"/>
			<psa10 value="0.157850504949263" flag="0"/>
			<psa30 value="0.0888871047781896" flag="0"/>
		</comp>
		<comp name="--.HNN" depth="0.0">
			<acc value="0.0579689024121904" flag="0"/>
			<vel value="0.239741358830717" flag="0"/>
			<psa03 value="0.131363118631246" flag="0"/>
			<psa10 value="0.238688486756825" flag="0"/>
			<psa30 value="0.0705316145130436" flag="0"/>
		</comp>
		<comp name="--.HNZ" depth="0.0">
			<acc value="0.0572098734333742" flag="0"/>
			<vel value="0.19076926848417" flag="0"/>
			<psa03 value="0.184203664647425" flag="0"/>
			<psa10 value="0.10888060722763" flag="0"/>
			<psa30 value="0.0576713620647537" flag="0"/>
		</comp>
	</station>
	<station code="DST" name="DST" netid="KO" source="Bogazici University Kandilli Observatory And Earthquake Research Institute (KOERI)" insttype="" lat="39.6041" lon="28.6267">
		<comp name="--.HNE" depth="0.0">
			<acc value="0.198238236652964" flag="0"/>
			<vel value="0.39808110383488" flag="0"/>
			<psa03 value="0.430643738700866" flag="0"/>
			<psa10 value="0.443129051457694" flag="0"/>
			<psa30 value="0.0727597764026335" flag="0"/>
		</comp>
		<comp name="--.HNN" depth="0.0">
			<acc value="0.203662264869778" flag="0"/>
			<vel value="0.326513492957715" flag="0"/>
			<psa03 value="0.380264014048692" flag="0"/>
			<psa10 value="0.447522288725542" flag="0"/>
			<psa30 value="0.100232833532451" flag="0"/>
		</comp>
		<comp name="--.HNZ" depth="0.0">
			<acc value="0.130438179857141" flag="0"/>
			<vel value="0.271585480698815" flag="0"/>
			<psa03 value="0.298385775937254" flag="0"/>
			<psa10 value="0.237931448620844" flag="0"/>
			<psa30 value="0.0612932436905028" flag="0"/>
		</comp>
	</station>
	<station code="ESKT" name="ESKT" netid="KO" source="Bogazici University Kandilli Observatory And Earthquake Research Institute (KOERI)" insttype="" lat="39.5212" lon="30.8492">
		<comp name="--.HNE" depth="0.0">
			<acc value="0.21751555956356" flag="0"/>
			<vel value="0.440066923490684" flag="0"/>
			<psa03 value="0.715920048098966" flag="0"/>
			<psa10 value="0.352767690971433" flag="0"/>
			<psa30 value="0.127203435681945" flag="0"/>
		</comp>
		<comp name="--.HNN" depth="0.0">
			<acc value="0.241958803217806" flag="0"/>
			<vel value="0.463797600614113" flag="0"/>
			<psa03 value="0.592207846799445" flag="0"/>
			<psa10 value="0.316792272317945" flag="0"/>
			<psa30 value="0.0990391114598754" flag="0"/>
		</comp>
		<comp name="--.HNZ" depth="0.0">
			<acc value="0.11843392324435" flag="0"/>
			<vel value="0.343743556104381" flag="0"/>
			<psa03 value="0.28813981062167" flag="0"/>
			<psa10 value="0.262301633721684" flag="0"/>
			<psa30 value="0.0831994754728749" flag="0"/>
		</comp>
	</station>
	<station code="FOCM" name="FOCM" netid="KO" source="Bogazici University Kandilli Observatory And Earthquake Research Institute (KOERI)" insttype="" lat="38.7131" lon="26.7309">
		<comp name="--.HNE" depth="0.0">
			<acc value="0.114407452295839" flag="0"/>
			<vel value="0.158080729601385" flag="0"/>
			<psa03 value="0.214762591767704" flag="0"/>
			<psa10 value="0.210400226622423" flag="0"/>
			<psa30 value="0.043425443477496" flag="0"/>
		</comp>
		<comp name="--.HNN" depth="0.0">
			<acc value="0.0826451246442961" flag="0"/>
			<vel value="0.17768868544817" flag="0"/>
			<psa03 value="0.184561602300371" flag="0"/>
			<psa10 value="0.217604169310031" flag="0"/>
			<psa30 value="0.0708542058227613" flag="0"/>
		</comp>
		<comp name="--.HNZ" depth="0.0">
			<acc value="0.0609744461533662" flag="0"/>
			<vel value="0.109580976826354" flag="0"/>
			<psa03 value="0.147246601980732" flag="0"/>
			<psa10 value="0.156155222740496" flag="0"/>
			<psa30 value="0.0245236508695409" flag="0"/>
		</comp>
	</station>
	<station code="GMLD" name="GMLD" netid="KO" source="Bogazici University Kandilli Observatory And Earthquake Research Institute (KOERI)" insttype="" lat="38.0766" lon="26.9157">
		<comp name="--.HNE" depth="0.0">
			<acc value="2.55391761830399" flag="0"/>
			<vel value="0.469737343427319" flag="0"/>
			<psa03 value="0.52786855368237" flag="0"/>
			<psa10 value="0.319099627913249" flag="0"/>
			<psa30 value="0.0584521135702426" flag="0"/>
		</comp>
		<comp name="--.HNN" depth="0.0">
			<acc value="3.5049446574226" flag="0"/>
			<vel value="0.610718826763858" flag="0"/>
			<psa03 value="0.495743649330451" flag="0"/>
			<psa10 value="0.608948590827737" flag="0"/>
			<psa30 value="0.0649451025946862" flag="0"/>
		</comp>
		<comp name="--.HNZ" depth="0.0">
			<acc value="2.65778032650139" flag="0"/>
			<vel value="0.27812433204188" flag="0"/>
			<psa03 value="0.377221543998649" flag="0"/>
			<psa10 value="0.165223573177888" flag="0"/>
			<psa30 value="0.0519524132148062" flag="0"/>
		</comp>
	</station>
	<station code="GORD" name="GORD" netid="KO" source="Bogazici University Kandilli Observatory And Earthquake Research Institute (KOERI)" insttype="" lat="38.9088" lon="28.1769">
		<comp name="--.HNE" depth="0.0">
			<acc value="0.401613217845505" flag="0"/>
			<vel value="0.53974225077037" flag="0"/>
			<psa03 value="0.799051067995715" flag="0"/>
			<psa10 value="0.666982812188165" flag="0"/>
			<psa30 value="0.175546495088855" flag="0"/>
		</comp>
		<comp name="--.HNN" depth="0.0">
			<acc value="0.294666155121376" flag="0"/>
			<vel value="0.38895794022216" flag="0"/>
			<psa03 value="0.728313639332228" flag="0"/>
			<psa10 value="0.83987340989216" flag="0"/>
			<psa30 value="0.181478416842306" flag="0"/>
		</comp>
		<comp name="--.HNZ" depth="0.0">
			<acc value="0.246659515438301" flag="0"/>
			<vel value="0.373153336754117" flag="0"/>
			<psa03 value="0.480665525700094" flag="0"/>
			<psa10 value="0.344271145934623" flag="0"/>
			<psa30 value="0.135907137135398" flag="0"/>
		</comp>
	</station>
	<station code="GPA" name="GPA" netid="KO" source="Bogazici University Kandilli Observatory And Earthquake Research Institute (KOERI)" insttype="" lat="40.2911" lon="30.3171">
		<comp name="--.HNE" depth="0.0">
			<acc value="0.153444997933408" flag="0"/>
			<vel value="0.425971559785343" flag="0"/>
			<psa03 value="0.272837975958221" flag="0"/>
			<psa10 value="0.330551843119262" flag="0"/>
			<psa30 value="0.0991930246506423" flag="0"/>
		</comp>
		<comp name="--.HNN" depth="0.0">
			<acc value="0.0949995823998334" flag="0"/>
			<vel value="0.351848934217557" flag="0"/>
			<psa03 value="0.194628598789482" flag="0"/>
			<psa10 value="0.323996215005553" flag="0"/>
			<psa30 value="0.0710649416159334" flag="0"/>
		</comp>
		<comp name="--.HNZ" depth="0.0">
			<acc value="0.0942649241997606" flag="0"/>
			<vel value="0.347218025600027" flag="0"/>
			<psa03 value="0.171273166934744" flag="0"/>
			<psa10 value="0.286212763782621" flag="0"/>
			<psa30 value="0.0952391558517856" flag="0"/>
		</comp>
	</station>
	<station code="KHL" name="KHL" netid="KO" source="Bogazici University Kandilli Observatory And Earthquake Research Institute (KOERI)" insttype="" lat="38.3231" lon="29.5286">
		<comp name="--.HNE" depth="0.0">
			<acc value="3.87435162459139" flag="0"/>
			<vel value="2.09550482369605" flag="0"/>
			<psa03 value="11.2211664510361" flag="0"/>
			<psa10 value="1.53984778297444" flag="0"/>
			<psa30 value="0.294040860252554" flag="0"/>
		</comp>
		<comp name="--.HNN" depth="0.0">
			<acc value="4.6474706014059" flag="0"/>
			<vel value="2.21310591311475" flag="0"/>
			<psa03 value="15.3837129015604" flag="0"/>
			<psa10 value="2.18579459929896" flag="0"/>
			<psa30 value="0.346368660580887" flag="0"/>
		</comp>
		<comp name="--.HNZ" depth="0.0">
			<acc value="2.33800946655258" flag="0"/>
			<vel value="1.88687570459332" flag="0"/>
			<psa03 value="6.47880574494561" flag="0"/>
			<psa10 value="1.07046803147174" flag="0"/>
			<psa30 value="0.384246070437718" flag="0"/>
		</comp>
	</station>
	<station code="KRMN" name="KRMN" netid="KO" source="Bogazici University Kandilli Observatory And Earthquake Research Institute (KOERI)" insttype="" lat="37.174" lon="33.2636">
		<comp name="--.HNE" depth="0.0">
			<acc value="0.0817643153211162" flag="0"/>
			<vel value="0.177109901798493" flag="0"/>
			<psa03 value="0.159058544527956" flag="0"/>
			<psa10 value="0.377246599634355" flag="0"/>
			<psa30 value="0.0792603716022022" flag="0"/>
		</comp>
		<comp name="--.HNN" depth="0.0">
			<acc value="0.0991730345505441" flag="0"/>
			<vel value="0.213897326154444" flag="0"/>
			<psa03 value="0.129841883606225" flag="0"/>
			<psa10 value="0.208519711678257" flag="0"/>
			<psa30 value="0.0698206608498792" flag="0"/>
		</comp>
		<comp name="--.HNZ" depth="0.0">
			<acc value="0.0475244173618239" flag="0"/>
			<vel value="0.146739878060745" flag="0"/>
			<psa03 value="0.0961062598160477" flag="0"/>
			<psa10 value="0.0935948797585641" flag="0"/>
			<psa30 value="0.0953581701213902" flag="0"/>
		</comp>
	</station>
	<station code="KUSD" name="KUSD" netid="KO" source="Bogazici University Kandilli Observatory And Earthquake Research Institute (KOERI)" insttype="" lat="37.8606" lon="27.2868">
		<comp name="--.HNE" depth="0.0">
			<acc value="0.0863036017816321" flag="0"/>
			<vel value="0.236798038498602" flag="0"/>
			<psa03 value="0.202503227154298" flag="0"/>
			<psa10 value="0.190616565122022" flag="0"/>
			<psa30 value="0.0540843793601669" flag="0"/>
		</comp>
		<comp name="--.HNN" depth="0.0">
			<acc value="0.11863403040699" flag="0"/>
			<vel value="0.302059922356997" flag="0"/>
			<psa03 value="0.228677418025987" flag="0"/>
			<psa10 value="0.379312347313921" flag="0"/>
			<psa30 value="0.0655974439671806" flag="0"/>
		</comp>
		<comp name="--.HNZ" depth="0.0">
			<acc value="0.0930583497870285" flag="0"/>
			<vel value="0.251590043081301" flag="0"/>
			<psa03 value="0.0993724408991816" flag="0"/>
			<psa10 value="0.182643503902646" flag="0"/>
			<psa30 value="0.0659723836586417" flag="0"/>
		</comp>
	</station>
	<station code="NAZL" name="NAZL" netid="KO" source="Bogazici University Kandilli Observatory And Earthquake Research Institute (KOERI)" insttype="" lat="37.9641" lon="28.2922">
		<comp name="--.HNE" depth="0.0">
			<acc value="1.24983325876854" flag="0"/>
			<vel value="0.803690759212936" flag="0"/>
			<psa03 value="4.68947541786768" flag="0"/>
			<psa10 value="0.854675921529749" flag="0"/>
			<psa30 value="0.121207532573031" flag="0"/>
		</comp>
		<comp name="--.HNN" depth="0.0">
			<acc value="0.746797114158471" flag="0"/>
			<vel value="0.713001238102834" flag="0"/>
			<psa03 value="2.96144191385679" flag="0"/>
			<psa10 value="0.725443874199732" flag="0"/>
			<psa30 value="0.160695661868119" flag="0"/>
		</comp>
		<comp name="--.HNZ" depth="0.0">
			<acc value="0.551605706329297" flag="0"/>
			<vel value="0.531018693071944" flag="0"/>
			<psa03 value="1.86870300161874" flag="0"/>
			<psa10 value="0.774631219045529" flag="0"/>
			<psa30 value="0.137035088164244" flag="0"/>
		</comp>
	</station>
	<station code="ODEM" name="ODEM" netid="KO" source="Bogazici University Kandilli Observatory And Earthquake Research Institute (KOERI)" insttype="" lat="38.2762" lon="28.0747">
		<comp name="--.HNE" depth="0.0">
			<acc value="0.267275980686669" flag="0"/>
			<vel value="0.423767917410257" flag="0"/>
			<psa03 value="0.705181918510581" flag="0"/>
			<psa10 value="0.577334195053333" flag="0"/>
			<psa30 value="0.0825055238482255" flag="0"/>
		</comp>
		<comp name="--.HNN" depth="0.0">
			<acc value="0.416777400717385" flag="0"/>
			<vel value="0.375745509396291" flag="0"/>
			<psa03 value="1.25483992681605" flag="0"/>
			<psa10 value="0.325401567715433" flag="0"/>
			<psa30 value="0.113083242695285" flag="0"/>
		</comp>
		<comp name="--.HNZ" depth="0.0">
			<acc value="0.339715414076809" flag="0"/>
			<vel value="0.411814548756016" flag="0"/>
			<psa03 value="0.853233880210442" flag="0"/>
			<psa10 value="0.57731808785895" flag="0"/>
			<psa30 value="0.0812585585497742" flag="0"/>
		</comp>
	</station>
	<station code="ORLT" name="ORLT" netid="KO" source="Bogazici University Kandilli Observatory And Earthquake Research Institute (KOERI)" insttype="" lat="40.0452" lon="28.8914">
		<comp name="--.HNE" depth="0.0">
			<acc value="0.199111564496419" flag="0"/>
			<vel value="0.419405697984683" flag="0"/>
			<psa03 value="0.660484454098928" flag="0"/>
			<psa10 value="0.538934643645267" flag="0"/>
			<psa30 value="0.131832464378672" flag="0"/>
		</comp>
		<comp name="--.HNN" depth="0.0">
			<acc value="0.266411095876431" flag="0"/>
			<vel value="0.51759743247895" flag="0"/>
			<psa03 value="0.587599399517763" flag="0"/>
			<psa10 value="0.88304874443466" flag="0"/>
			<psa30 value="0.131851703527517" flag="0"/>
		</comp>
		<comp name="--.HNZ" depth="0.0">
			<acc value="0.123715528121681" flag="0"/>
			<vel value="0.466751207566601" flag="0"/>
			<psa03 value="0.27364333567735" flag="0"/>
			<psa10 value="0.313627208621769" flag="0"/>
			<psa30 value="0.103066357477586" flag="0"/>
		</comp>
	</station>
	<station code="OSMT" name="OSMT" netid="KO" source="Bogazici University Kandilli Observatory And Earthquake Research Institute (KOERI)" insttype="" lat="40.6009" lon="29.7">
		<comp name="--.HNE" depth="0.0">
			<acc value="0.11478379233369" flag="0"/>
			<vel value="0.220104248395767" flag="0"/>
			<psa03 value="0.179729443985598" flag="0"/>
			<psa10 value="0.209002927509734" flag="0"/>
			<psa30 value="0.121180239826993" flag="0"/>
		</comp>
		<comp name="--.HNN" depth="0.0">
			<acc value="0.0913956443313019" flag="0"/>
			<vel value="0.290111073351709" flag="0"/>
			<psa03 value="0.165769875520697" flag="0"/>
			<psa10 value="0.293493215643546" flag="0"/>
			<psa30 value="0.0865282956452743" flag="0"/>
		</comp>
		<comp name="--.HNZ" depth="0.0">
			<acc value="0.0691676998719586" flag="0"/>
			<vel value="0.359162354111037" flag="0"/>
			<psa03 value="0.149394227898409" flag="0"/>
			<psa10 value="0.247007852655427" flag="0"/>
			<psa30 value="0.144021136305621" flag="0"/>
		</comp>
	</station>
	<station code="SEYD" name="SEYD" netid="KO" source="Bogazici University Kandilli Observatory And Earthquake Research Institute (KOERI)" insttype="" lat="37.4056" lon="31.8379">
		<comp name="--.HNE" depth="0.0">
			<acc value="0.508988727276096" flag="0"/>
			<vel value="0.370951445778686" flag="0"/>
			<psa03 value="0.902047627630977" flag="0"/>
			<psa10 value="0.44694242972777" flag="0"/>
			<psa30 value="0.158510899918948" flag="0"/>
		</comp>
		<comp name="--.HNN" depth="0.0">
			<acc value="0.368854551228166" flag="0"/>
			<vel value="0.639530303958727" flag="0"/>
			<psa03 value="0.568091797432197" flag="0"/>
			<psa10 value="0.949893601122358" flag="0"/>
			<psa30 value="0.124891158443913" flag="0"/>
		</comp>
