<stationlist created="1778136352">
	<station code="MALA" name="MALA" netid="CL" source="Corinth Riff Laboratory (CRLNET)" insttype="" lat="38.39341" lon="21.87263">
		<comp name="01.HNE" depth="0.0">
			<acc value="0.0155544212438939" flag="0"/>
			<vel value="0.021458615468523" flag="0"/>
			<psa03 value="0.0313642868394085" flag="0"/>
			<psa10 value="0.0527631419987293" flag="0"/>
			<psa30 value="0.00580843326318404" flag="0"/>
		</comp>
		<comp name="01.HNN" depth="0.0">
			<acc value="0.0143608961938935" flag="0"/>
			<vel value="0.0160049240977503" flag="0"/>
			<psa03 value="0.0308721225666075" flag="0"/>
			<psa10 value="0.036865341143125" flag="0"/>
			<psa30 value="0.00350644673267396" flag="0"/>
		</comp>
		<comp name="01.HNZ" depth="0.0">
			<acc value="0.00880346093622681" flag="0"/>
			<vel value="0.00834727747590113" flag="0"/>
			<psa03 value="0.0121251379935516" flag="0"/>
			<psa10 value="0.0144843945485331" flag="0"/>
			<psa30 value="0.00183308820515059" flag="0"/>
		</comp>
	</station>
	<station code="ROD3" name="ROD3" netid="CL" source="Corinth Riff Laboratory (CRLNET)" insttype="" lat="38.30811" lon="21.89204">
		<comp name="00.HNE" depth="0.0">
			<acc value="0.00754463565049009" flag="0"/>
			<vel value="0.00784019409357626" flag="0"/>
			<psa03 value="0.0328855218644297" flag="0"/>
			<psa10 value="0.0113273844495479" flag="0"/>
			<psa30 value="0.00161340397065488" flag="0"/>
		</comp>
		<comp name="00.HNN" depth="0.0">
			<acc value="0.0110929787858278" flag="0"/>
			<vel value="0.00639725133321762" flag="0"/>
			<psa03 value="0.0371807736997838" flag="0"/>
			<psa10 value="0.00774756049801994" flag="0"/>
			<psa30 value="0.00102728106395552" flag="0"/>
		</comp>
		<comp name="00.HNZ" depth="0.0">
			<acc value="0.0050362893077355" flag="0"/>
			<vel value="0.00298155639626195" flag="0"/>
			<psa03 value="0.0096643166295467" flag="0"/>
			<psa10 value="0.00580261677632366" flag="0"/>
			<psa30 value="0.00066352692414897" flag="0"/>
		</comp>
	</station>
	<station code="STC" name="STC" netid="EG" source="EUROSEISTEST Strong Motion Network" insttype="" lat="40.64865" lon="23.304856">
		<comp name="--.EN1" depth="0.0">
			<acc value="0.018689331359886" flag="0"/>
			<vel value="0.0159760939874968" flag="0"/>
			<psa03 value="0.0706774632852691" flag="0"/>
			<psa10 value="0.0174249630682777" flag="0"/>
			<psa30 value="0.00120308917792097" flag="0"/>
		</comp>
		<comp name="--.EN2" depth="0.0">
			<acc value="0.0213343942842139" flag="0"/>
			<vel value="0.0102013776794085" flag="0"/>
			<psa03 value="0.0514114995097171" flag="0"/>
			<psa10 value="0.00842619881930765" flag="0"/>
			<psa30 value="0.00112668494984753" flag="0"/>
		</comp>
		<comp name="--.EN3" depth="0.0">
			<acc value="0.00845959937669619" flag="0"/>
			<vel value="0.00620002793251215" flag="0"/>
			<psa03 value="0.0262697845151222" flag="0"/>
			<psa10 value="0.00632796575918965" flag="0"/>
			<psa30 value="0.00149205811235999" flag="0"/>
		</comp>
	</station>
	<station code="TST" name="TST" netid="EG" source="EUROSEISTEST Strong Motion Network" insttype="" lat="40.6638" lon="23.2906">
		<comp name="00.EN1" depth="0.0">
			<acc value="0.0114137691107174" flag="0"/>
			<vel value="0.0107531723957553" flag="0"/>
			<psa03 value="0.0312275504427884" flag="0"/>
			<psa10 value="0.0134826287830034" flag="0"/>
			<psa30 value="0.00145179211160183" flag="0"/>
		</comp>
		<comp name="00.EN2" depth="0.0">
			<acc value="0.00504929006706508" flag="0"/>
			<vel value="0.00385907415936572" flag="0"/>
			<psa03 value="0.0169512583543427" flag="0"/>
			<psa10 value="0.00664311976159924" flag="0"/>
			<psa30 value="0.000879200951081171" flag="0"/>
		</comp>
		<comp name="00.EN3" depth="0.0">
			<acc value="0.0109515663504891" flag="0"/>
			<vel value="0.0109821712118335" flag="0"/>
			<psa03 value="0.0351016352068987" flag="0"/>
			<psa10 value="0.0241347838109837" flag="0"/>
			<psa30 value="0.00103340627059191" flag="0"/>
		</comp>
	</station>
	<station code="AIGS" name="AIGS" netid="HA" source="Hellenic Seismological Network, University of Athens, Seismological Laboratory (HA)" insttype="" lat="38.25001" lon="22.0878">
		<comp name="--.HNE" depth="0.0">
			<acc value="0.00616347416423539" flag="0"/>
			<vel value="0.00530099632056488" flag="0"/>
			<psa03 value="0.014988639217121" flag="0"/>
			<psa10 value="0.00850862543259674" flag="0"/>
			<psa30 value="0.0012451756101865" flag="0"/>
		</comp>
		<comp name="--.HNN" depth="0.0">
			<acc value="0.00637968441068688" flag="0"/>
			<vel value="0.00452586111896792" flag="0"/>
			<psa03 value="0.0161519365891961" flag="0"/>
			<psa10 value="0.00671267325893931" flag="0"/>
			<psa30 value="0.00299817526549039" flag="0"/>
		</comp>
		<comp name="--.HNZ" depth="0.0">
			<acc value="0.0096812792794473" flag="0"/>
			<vel value="0.00393776794736061" flag="0"/>
			<psa03 value="0.00604019789346669" flag="0"/>
			<psa10 value="0.00437310327486988" flag="0"/>
			<psa30 value="0.00223711033091359" flag="0"/>
		</comp>
	</station>
	<station code="KIAS" name="KIAS" netid="HA" source="Hellenic Seismological Network, University of Athens, Seismological Laboratory (HA)" insttype="" lat="37.9875" lon="22.7543">
		<comp name="--.HNE" depth="0.0">
			<acc value="0.00405530841414085" flag="0"/>
			<vel value="0.00474083979993666" flag="0"/>
			<psa03 value="0.00604019789346669" flag="0"/>
			<psa10 value="0.00913680601351727" flag="0"/>
			<psa30 value="0.00219057843603058" flag="0"/>
		</comp>
		<comp name="--.HNN" depth="0.0">
			<acc value="0.0038099350839609" flag="0"/>
			<vel value="0.00498966010301285" flag="0"/>
			<psa03 value="0.00953009000969188" flag="0"/>
			<psa10 value="0.00773145330363736" flag="0"/>
			<psa30 value="0.0025086955250865" flag="0"/>
		</comp>
		<comp name="--.HNZ" depth="0.0">
			<acc value="0.00388516380707371" flag="0"/>
			<vel value="0.0026533003134608" flag="0"/>
			<psa03 value="0.00742720629863311" flag="0"/>
			<psa10 value="0.00349928797961503" flag="0"/>
			<psa30 value="0.00104830990106611" flag="0"/>
		</comp>
	</station>
	<station code="LTRS" name="LTRS" netid="HA" source="Hellenic Seismological Network, University of Athens, Seismological Laboratory (HA)" insttype="" lat="37.97528" lon="22.9765">
		<comp name="--.HNE" depth="0.0">
			<acc value="0.00494186609311774" flag="0"/>
			<vel value="0.0048644863357067" flag="0"/>
			<psa03 value="0.00953009000969188" flag="0"/>
			<psa10 value="0.00637039537830953" flag="0"/>
			<psa30 value="0.0011597179955456" flag="0"/>
		</comp>
		<comp name="--.HNN" depth="0.0">
			<acc value="0.00453523133253983" flag="0"/>
			<vel value="0.00374777472225095" flag="0"/>
			<psa03 value="0.00953009000969188" flag="0"/>
			<psa10 value="0.00684555761259558" flag="0"/>
			<psa30 value="0.000867998808394472" flag="0"/>
		</comp>
		<comp name="--.HNZ" depth="0.0">
			<acc value="0.00761099107727471" flag="0"/>
			<vel value="0.00350819269475456" flag="0"/>
			<psa03 value="0.00474267390153681" flag="0"/>
			<psa10 value="0.00589925994261913" flag="0"/>
			<psa30 value="0.000824598867974748" flag="0"/>
		</comp>
	</station>
	<station code="XLKS" name="XLKS" netid="HA" source="Hellenic Seismological Network, University of Athens, Seismological Laboratory (HA)" insttype="" lat="38.0772" lon="22.6361">
		<comp name="--.HNE" depth="0.0">
			<acc value="0.0175195839551275" flag="0"/>
			<vel value="0.00921590971577386" flag="0"/>
			<psa03 value="0.0186575001598193" flag="0"/>
			<psa10 value="0.0116495283371994" flag="0"/>
			<psa30 value="0.00199192303864546" flag="0"/>
		</comp>
		<comp name="--.HNN" depth="0.0">
			<acc value="0.00834572700160073" flag="0"/>
			<vel value="0.00864361756288687" flag="0"/>
			<psa03 value="0.0159282255561047" flag="0"/>
			<psa10 value="0.0155192817876137" flag="0"/>
			<psa30 value="0.00238162765829061" flag="0"/>
		</comp>
		<comp name="--.HNZ" depth="0.0">
			<acc value="0.0148264758965244" flag="0"/>
			<vel value="0.00376372820733592" flag="0"/>
			<psa03 value="0.0116777159273689" flag="0"/>
			<psa10 value="0.00411136136615299" flag="0"/>
			<psa30 value="0.00122414677307592" flag="0"/>
		</comp>
	</station>
	<station code="ART2" name="ART2" netid="HI" source="ITSAK Strong Motion Network" insttype="" lat="39.1474" lon="20.9937">
		<comp name="--.HNE" depth="0.0">
			<acc value="0.00521759874914531" flag="0"/>
			<vel value="0.00425516728679638" flag="0"/>
			<psa03 value="0.0155067459958046" flag="0"/>
			<psa10 value="0.00456624061603358" flag="0"/>
			<psa30 value="0.000753721492847712" flag="0"/>
		</comp>
		<comp name="--.HNN" depth="0.0">
			<acc value="0.00738347344118832" flag="0"/>
			<vel value="0.00412412228483399" flag="0"/>
			<psa03 value="0.0140549479983968" flag="0"/>
			<psa10 value="0.00496415978873019" flag="0"/>
			<psa30 value="0.000648129966677303" flag="0"/>
		</comp>
		<comp name="--.HNZ" depth="0.0">
			<acc value="0.00370944935054118" flag="0"/>
			<vel value="0.00298043082691332" flag="0"/>
			<psa03 value="0.00577638395915699" flag="0"/>
			<psa10 value="0.00301301170661259" flag="0"/>
			<psa30 value="0.000612424997235734" flag="0"/>
		</comp>
	</station>
	<station code="SKO1" name="SKO1" netid="HI" source="ITSAK Strong Motion Network" insttype="" lat="39.123383" lon="23.728705">
		<comp name="--.HNE" depth="0.0">
			<acc value="0.00488362350884028" flag="0"/>
			<vel value="0.00328095877774352" flag="0"/>
			<psa03 value="0.0171603477263012" flag="0"/>
			<psa10 value="0.0033815172120442" flag="0"/>
			<psa30 value="0.000307715462764163" flag="0"/>
		</comp>
		<comp name="--.HNN" depth="0.0">
			<acc value="0.00456460364522584" flag="0"/>
			<vel value="0.00334304590323898" flag="0"/>
			<psa03 value="0.0139203896054156" flag="0"/>
			<psa10 value="0.00490585139481431" flag="0"/>
			<psa30 value="0.000429937153101214" flag="0"/>
		</comp>
		<comp name="--.HNZ" depth="0.0">
			<acc value="0.00470211278158228" flag="0"/>
			<vel value="0.00351313859725047" flag="0"/>
			<psa03 value="0.0126025418877799" flag="0"/>
			<psa10 value="0.00296283760157622" flag="0"/>
			<psa30 value="0.000249871552763921" flag="0"/>
		</comp>
	</station>
	<station code="VOL2" name="VOL2" netid="HI" source="ITSAK Strong Motion Network" insttype="" lat="39.366" lon="22.9506">
		<comp name="--.HNE" depth="0.0">
			<acc value="0.0299729681485144" flag="0"/>
			<vel value="0.0155634072295143" flag="0"/>
			<psa03 value="0.123751166657295" flag="0"/>
			<psa10 value="0.0102581923673984" flag="0"/>
			<psa30 value="0.000991718092291342" flag="0"/>
		</comp>
		<comp name="--.HNN" depth="0.0">
			<acc value="0.0371840477482055" flag="0"/>
			<vel value="0.0221097511931144" flag="0"/>
			<psa03 value="0.0891029338818829" flag="0"/>
			<psa10 value="0.025832823172735" flag="0"/>
			<psa30 value="0.00150183125978527" flag="0"/>
		</comp>
		<comp name="--.HNZ" depth="0.0">
			<acc value="0.0246592706754003" flag="0"/>
			<vel value="0.00835424166946272" flag="0"/>
			<psa03 value="0.0315002247561396" flag="0"/>
			<psa10 value="0.0118053564219361" flag="0"/>
			<psa30 value="0.000729893976892751" flag="0"/>
		</comp>
	</station>
	<station code="ANX" name="ANX" netid="HP" source="University of Patras, Seismological Laboratory (PSLNET)" insttype="" lat="38.5933" lon="21.9209">
		<comp name="--.HNE" depth="0.0">
			<acc value="0.021168288693621" flag="0"/>
			<vel value="0.0159979336647605" flag="0"/>
			<psa03 value="0.0490774751002366" flag="0"/>
			<psa10 value="0.0328671210354593" flag="0"/>
			<psa30 value="0.001401188134339" flag="0"/>
		</comp>
		<comp name="--.HNN" depth="0.0">
			<acc value="0.0217059800179884" flag="0"/>
			<vel value="0.0143707704025885" flag="0"/>
			<psa03 value="0.0854598019173602" flag="0"/>
			<psa10 value="0.0205619971313791" flag="0"/>
			<psa30 value="0.00137333222651842" flag="0"/>
		</comp>
		<comp name="--.HNZ" depth="0.0">
			<acc value="0.00921924617963824" flag="0"/>
			<vel value="0.00785399322914604" flag="0"/>
			<psa03 value="0.0391897367527422" flag="0"/>
			<psa10 value="0.0165997321508053" flag="0"/>
			<psa30 value="0.00132398031136251" flag="0"/>
		</comp>
	</station>
	<station code="PDO" name="PDO" netid="HP" source="University of Patras, Seismological Laboratory (PSLNET)" insttype="" lat="38.5986" lon="21.1833">
		<comp name="--.HNE" depth="0.0">
			<acc value="0.00898976288399338" flag="0"/>
			<vel value="0.00901601285777456" flag="0"/>
			<psa03 value="0.0242264486333344" flag="0"/>
			<psa10 value="0.0112925568264654" flag="0"/>
			<psa30 value="0.000903382344647022" flag="0"/>
		</comp>
		<comp name="--.HNN" depth="0.0">
			<acc value="0.0107323105075525" flag="0"/>
			<vel value="0.00725160123047084" flag="0"/>
			<psa03 value="0.0406785515252287" flag="0"/>
			<psa10 value="0.00819406969189611" flag="0"/>
			<psa30 value="0.000716049518098774" flag="0"/>
		</comp>
		<comp name="--.HNZ" depth="0.0">
			<acc value="0.00682900598408311" flag="0"/>
			<vel value="0.00331530053344229" flag="0"/>
			<psa03 value="0.0149997944440292" flag="0"/>
			<psa10 value="0.005013177410901" flag="0"/>
			<psa30 value="0.000454002783788561" flag="0"/>
		</comp>
	</station>
	<station code="PVO" name="PVO" netid="HP" source="University of Patras, Seismological Laboratory (PSLNET)" insttype="" lat="38.616" lon="21.525">
		<comp name="--.HNE" depth="0.0">
			<acc value="0.00670599953788977" flag="0"/>
			<vel value="0.00566594511522186" flag="0"/>
			<psa03 value="0.0181132819472938" flag="0"/>
			<psa10 value="0.00985652482140385" flag="0"/>
			<psa30 value="0.00110346809934477" flag="0"/>
		</comp>
		<comp name="--.HNN" depth="0.0">
			<acc value="0.00497844442438409" flag="0"/>
			<vel value="0.00388515893508009" flag="0"/>
			<psa03 value="0.0175131367218559" flag="0"/>
			<psa10 value="0.00716044168786322" flag="0"/>
			<psa30 value="0.00083738297251172" flag="0"/>
		</comp>
		<comp name="--.HNZ" depth="0.0">
			<acc value="0.00437876438542352" flag="0"/>
			<vel value="0.00498248133271054" flag="0"/>
			<psa03 value="0.0115432933323539" flag="0"/>
			<psa10 value="0.0096350079594806" flag="0"/>
			<psa30 value="0.0010475226223975" flag="0"/>
		</comp>
	</station>
	<station code="SERG" name="SERG" netid="HP" source="University of Patras, Seismological Laboratory (PSLNET)" insttype="" lat="38.4133" lon="22.0566">
		<comp name="--.HNE" depth="0.0">
			<acc value="0.0118269294601502" flag="0"/>
			<vel value="0.00942004957608158" flag="0"/>
			<psa03 value="0.0374830637981636" flag="0"/>
			<psa10 value="0.0182055866557486" flag="0"/>
			<psa30 value="0.00192874943685012" flag="0"/>
		</comp>
		<comp name="--.HNN" depth="0.0">
			<acc value="0.013968808654215" flag="0"/>
			<vel value="0.00911277708679247" flag="0"/>
			<psa03 value="0.0432140267797057" flag="0"/>
			<psa10 value="0.0104437030940874" flag="0"/>
			<psa30 value="0.00190774596214123" flag="0"/>
		</comp>
		<comp name="--.HNZ" depth="0.0">
			<acc value="0.010242926367216" flag="0"/>
			<vel value="0.00656343476613208" flag="0"/>
			<psa03 value="0.0212773965022542" flag="0"/>
			<psa10 value="0.00881539960197519" flag="0"/>
			<psa30 value="0.00153590414194424" flag="0"/>
		</comp>
	</station>
</stationlist>
