<?xml version="1.0" encoding="UTF-8" standalone="yes"?>
<!DOCTYPE earthquake SYSTEM "stationlist.dtd">
<stationlist created="" xmlns="ch.ethz.sed.shakemap.usgs.xml">
  <station code="THL" name="THL" netid="HL" insttype="120" lat="39.5647" lon="22.0144">
    <comp name="--.HHZ">
      <acc value="0.2159302078" flag="0"/>
      <vel value="0.1048830752" flag="0"/>
      <psa03 value="0.1817963231" flag="0"/>
      <psa10 value="0.0982457054" flag="0"/>
      <psa30 value="0.0091484490" flag="0"/>
    </comp>
    <comp name="--.HHN">
      <acc value="0.3129050146" flag="0"/>
      <vel value="0.0966416138" flag="0"/>
      <psa03 value="0.2669972851" flag="0"/>
      <psa10 value="0.0519013591" flag="0"/>
      <psa30 value="0.0058178552" flag="0"/>
    </comp>
    <comp name="--.HHE">
      <acc value="0.3909732019" flag="0"/>
      <vel value="0.1177486417" flag="0"/>
      <psa03 value="0.3768039386" flag="0"/>
      <psa10 value="0.0675844935" flag="0"/>
      <psa30 value="0.0041821757" flag="0"/>
    </comp>
  </station>
  <station code="LIT" name="LIT" netid="HT" insttype="100" lat="40.1033" lon="22.4892">
    <comp name="--.HHE">
      <acc value="0.2666829463" flag="0"/>
      <vel value="0.1246294915" flag="0"/>
      <psa03 value="0.7696522175" flag="0"/>
      <psa10 value="0.0399057933" flag="0"/>
      <psa30 value="0.0023960834" flag="0"/>
    </comp>
    <comp name="--.HHN">
      <acc value="0.1374867942" flag="0"/>
      <vel value="0.0583116498" flag="0"/>
      <psa03 value="0.2243371268" flag="0"/>
      <psa10 value="0.0258466729" flag="0"/>
      <psa30 value="0.0027324999" flag="0"/>
    </comp>
    <comp name="--.HHZ">
      <acc value="0.1099566964" flag="0"/>
      <vel value="0.0437238909" flag="0"/>
      <psa03 value="0.3016950160" flag="0"/>
      <psa10 value="0.0252092194" flag="0"/>
      <psa30 value="0.0020926640" flag="0"/>
    </comp>
  </station>
  <station code="TYRN" name="TYRN" netid="HT" insttype="120P," lat="39.711" lon="22.2325">
    <comp name="--.HHZ">
      <acc value="0.4351545005" flag="0"/>
      <vel value="0.1873584115" flag="0"/>
      <psa03 value="0.5159870150" flag="0"/>
      <psa10 value="0.0890992898" flag="0"/>
      <psa30 value="0.0081933618" flag="0"/>
    </comp>
    <comp name="--.HHN">
      <acc value="0.4185278714" flag="0"/>
      <vel value="0.1378889710" flag="0"/>
      <psa03 value="0.4824546883" flag="0"/>
      <psa10 value="0.0666256343" flag="0"/>
      <psa30 value="0.0042017298" flag="0"/>
    </comp>
    <comp name="--.HHE">
      <acc value="0.4881900683" flag="0"/>
      <vel value="0.1434341138" flag="0"/>
      <psa03 value="0.4047515162" flag="0"/>
      <psa10 value="0.0968682969" flag="0"/>
      <psa30 value="0.0074303713" flag="0"/>
    </comp>
  </station>
  <station code="THL" name="THL" netid="MN" insttype="" lat="39.5647" lon="22.0144">
    <comp name="--.HHZ">
      <acc value="0.2159302078" flag="0"/>
      <vel value="0.1048830752" flag="0"/>
      <psa03 value="0.1817963231" flag="0"/>
      <psa10 value="0.0982457054" flag="0"/>
      <psa30 value="0.0091484490" flag="0"/>
    </comp>
    <comp name="--.HHE">
      <acc value="0.3909732019" flag="0"/>
      <vel value="0.1177486417" flag="0"/>
      <psa03 value="0.3768039386" flag="0"/>
      <psa10 value="0.0675844935" flag="0"/>
      <psa30 value="0.0041821757" flag="0"/>
    </comp>
    <comp name="--.HHN">
      <acc value="0.3129050146" flag="0"/>
      <vel value="0.0966416138" flag="0"/>
      <psa03 value="0.2669972851" flag="0"/>
      <psa10 value="0.0519013591" flag="0"/>
      <psa30 value="0.0058178552" flag="0"/>
    </comp>
  </station>
</stationlist>
