<?xml version="1.0" encoding="UTF-8" standalone="yes"?>
<!DOCTYPE earthquake SYSTEM "stationlist.dtd">
<stationlist created="" xmlns="ch.ethz.sed.shakemap.usgs.xml">
  <station code="KTHA" name="KTHA" netid="GE" source="GFZ" insttype="STS-2/N" lat="36.2566" lon="23.0621">
    <comp name="--.HHE">
      <acc value="0.0403545696" flag="0"/>
      <vel value="0.0128749021" flag="0"/>
      <psa03 value="0.0408143413" flag="0"/>
      <psa10 value="0.0055247988" flag="0"/>
      <psa30 value="0.0004286196" flag="0"/>
    </comp>
    <comp name="--.HHN">
      <acc value="0.0221010036" flag="0"/>
      <vel value="0.0083956109" flag="0"/>
      <psa03 value="0.0389652218" flag="0"/>
      <psa10 value="0.0025720776" flag="0"/>
      <psa30 value="0.0001537642" flag="0"/>
    </comp>
    <comp name="--.HHZ">
      <acc value="0.0142825482" flag="0"/>
      <vel value="0.0033960455" flag="0"/>
      <psa03 value="0.0161846997" flag="0"/>
      <psa10 value="0.0010340354" flag="0"/>
      <psa30 value="0.0000727067" flag="0"/>
    </comp>
  </station>
  <station code="KTHA" name="KTHA" netid="HL" source="NOA" insttype="120" lat="36.2566" lon="23.0621">
    <comp name="--.HHZ">
      <acc value="0.0129378591" flag="0"/>
      <vel value="0.0032857140" flag="0"/>
      <psa03 value="0.0157721536" flag="0"/>
      <psa10 value="0.0010196947" flag="0"/>
      <psa30 value="0.0000721437" flag="0"/>
    </comp>
  </station>
  <station code="MHLO" name="MHLO" netid="HL" source="NOA" insttype="20" lat="36.6898" lon="24.4017">
    <comp name="--.HHE">
      <acc value="0.0177890025" flag="0"/>
      <vel value="0.0053908254" flag="0"/>
      <psa03 value="0.0378524213" flag="0"/>
      <psa10 value="0.0037891961" flag="0"/>
      <psa30 value="0.0002424731" flag="0"/>
    </comp>
    <comp name="--.HHN">
      <acc value="0.0242229138" flag="0"/>
      <vel value="0.0051697037" flag="0"/>
      <psa03 value="0.0197954550" flag="0"/>
      <psa10 value="0.0039301584" flag="0"/>
      <psa30 value="0.0001929991" flag="0"/>
    </comp>
    <comp name="--.HHZ">
      <acc value="0.0098291504" flag="0"/>
      <vel value="0.0024673967" flag="0"/>
      <psa03 value="0.0150851105" flag="0"/>
      <psa10 value="0.0018082809" flag="0"/>
      <psa30 value="0.0001106200" flag="0"/>
    </comp>
  </station>
  <station code="VLI" name="VLI" netid="HL" source="NOA" insttype="60" lat="36.718" lon="22.9469">
    <comp name="--.HHE">
      <acc value="0.0208893424" flag="0"/>
      <vel value="0.0054037909" flag="0"/>
      <psa03 value="0.0197624450" flag="0"/>
      <psa10 value="0.0032890492" flag="0"/>
      <psa30 value="0.0002170750" flag="0"/>
    </comp>
    <comp name="--.HHN">
      <acc value="0.0238454868" flag="0"/>
      <vel value="0.0053849717" flag="0"/>
      <psa03 value="0.0282731318" flag="0"/>
      <psa10 value="0.0015363357" flag="0"/>
      <psa30 value="0.0001502166" flag="0"/>
    </comp>
    <comp name="--.HHZ">
      <acc value="0.0217645067" flag="0"/>
      <vel value="0.0034378707" flag="0"/>
      <psa03 value="0.0137809519" flag="0"/>
      <psa10 value="0.0010693215" flag="0"/>
      <psa30 value="0.0001112614" flag="0"/>
    </comp>
  </station>
</stationlist>
