<stationlist xmlns:esm="https://esm-db.eu/esmws/shakemap/1/" created="1780970068">
	<station code="LEO1" name="LEO1" netid="HI" source="ITSAK Strong Motion Network" insttype="" lat="37.1689" lon="22.8637" esm:processing="manual (Paolucci et al 2011)" esm:quality="good">
		<comp name="--.HNE" depth="0.0">
			<acc value="0.0206542730207099" flag="0"/>
			<vel value="0.00456829939788225" flag="0"/>
			<psa03 value="0.0108323770970285" flag="0"/>
			<psa10 value="0.000961636184146484" flag="0"/>
			<psa30 value="7.1658848609537e-05" flag="0"/>
		</comp>
		<comp name="--.HNN" depth="0.0">
			<acc value="0.0157196727985461" flag="0"/>
			<vel value="0.00326536858192802" flag="0"/>
			<psa03 value="0.00674612202768442" flag="0"/>
			<psa10 value="0.000753881210461586" flag="0"/>
			<psa30 value="4.93713239933293e-05" flag="0"/>
		</comp>
		<comp name="--.HNZ" depth="0.0">
			<acc value="0.0163462828688632" flag="0"/>
			<vel value="0.00270297790459414" flag="0"/>
			<psa03 value="0.00652231488385119" flag="0"/>
			<psa10 value="0.000633487512313695" flag="0"/>
			<psa30 value="3.3426918145318e-05" flag="0"/>
		</comp>
	</station>
	<station code="NPS1" name="NPS1" netid="HI" source="ITSAK Strong Motion Network" insttype="" lat="36.51263" lon="23.06248" esm:processing="manual (Paolucci et al 2011)" esm:quality="good">
		<comp name="--.HNE" depth="0.0">
			<acc value="0.031589969701133" flag="0"/>
			<vel value="0.0184969206039839" flag="0"/>
			<psa03 value="0.0970188020194902" flag="0"/>
			<psa10 value="0.00627929737888416" flag="0"/>
			<psa30 value="0.00045329929968726" flag="0"/>
		</comp>
		<comp name="--.HNN" depth="0.0">
			<acc value="0.0341028896247229" flag="0"/>
			<vel value="0.0112759551284977" flag="0"/>
			<psa03 value="0.0610679308673808" flag="0"/>
			<psa10 value="0.00489715316236302" flag="0"/>
			<psa30 value="0.000377033231809557" flag="0"/>
		</comp>
		<comp name="--.HNZ" depth="0.0">
			<acc value="0.030176634545289" flag="0"/>
			<vel value="0.00558182269013092" flag="0"/>
			<psa03 value="0.0382636936360816" flag="0"/>
			<psa10 value="0.00184216691732989" flag="0"/>
			<psa30 value="0.00011885845972713" flag="0"/>
		</comp>
	</station>
</stationlist>
