<stationlist created="1778135973">
	<station code="BLY" name="BLY" netid="MN" source="Mediterranean Very Broadband Seismographic Network (MedNet)" insttype="" lat="44.7488" lon="17.1839">
		<comp name="--.HNE" depth="1.0">
			<acc value="0.0325932212615709" flag="0"/>
			<vel value="0.0230302768607716" flag="0"/>
			<psa03 value="0.0810728783923084" flag="0"/>
			<psa10 value="0.0262345928506236" flag="0"/>
			<psa30 value="0.00196910451327014" flag="0"/>
		</comp>
		<comp name="--.HNN" depth="1.0">
			<acc value="0.0232423046761443" flag="0"/>
			<vel value="0.0211026111401032" flag="0"/>
			<psa03 value="0.0551671407603291" flag="0"/>
			<psa10 value="0.0227594656625825" flag="0"/>
			<psa30 value="0.00200981992129277" flag="0"/>
		</comp>
		<comp name="--.HNZ" depth="1.0">
			<acc value="0.0188190583331049" flag="0"/>
			<vel value="0.0134455627854723" flag="0"/>
			<psa03 value="0.0480978721146421" flag="0"/>
			<psa10 value="0.0159179348485825" flag="0"/>
			<psa30 value="0.00154226386213183" flag="0"/>
		</comp>
	</station>
	<station code="BOJS" name="BOJS" netid="SL" source="Seismic Network of the Republic of Slovenia (SNRS)" insttype="" lat="45.5043" lon="15.2518">
		<comp name="--.HNE" depth="0.0">
			<acc value="0.201373258706512" flag="0"/>
			<vel value="0.0580770562897305" flag="0"/>
			<psa03 value="0.304694427070431" flag="0"/>
			<psa10 value="0.0248654813281045" flag="0"/>
			<psa30 value="0.00176731716142173" flag="0"/>
		</comp>
		<comp name="--.HNN" depth="0.0">
			<acc value="0.169751315557036" flag="0"/>
			<vel value="0.0640353994481517" flag="0"/>
			<psa03 value="0.601961647842228" flag="0"/>
			<psa10 value="0.0203957348869392" flag="0"/>
			<psa30 value="0.00164740804768477" flag="0"/>
		</comp>
		<comp name="--.HNZ" depth="0.0">
			<acc value="0.112626842922317" flag="0"/>
			<vel value="0.0376996357210008" flag="0"/>
			<psa03 value="0.256730781575643" flag="0"/>
			<psa10 value="0.0170051704694065" flag="0"/>
			<psa30 value="0.00177984497927485" flag="0"/>
		</comp>
	</station>
	<station code="BZKE" name="BZKE" netid="SL" source="Seismic Network of the Republic of Slovenia (SNRS)" insttype="" lat="46.038" lon="14.5645">
		<comp name="--.HN1" depth="0.0">
			<acc value="0.11709306583927" flag="0"/>
			<vel value="0.0574958136759819" flag="0"/>
			<psa03 value="0.319311194466291" flag="0"/>
			<psa10 value="0.032123330513012" flag="0"/>
			<psa30 value="0.00210083375325739" flag="0"/>
		</comp>
		<comp name="--.HN2" depth="0.0">
			<acc value="0.16011281623521" flag="0"/>
			<vel value="0.0757865289420376" flag="0"/>
			<psa03 value="0.362104570984107" flag="0"/>
			<psa10 value="0.0647335482798458" flag="0"/>
			<psa30 value="0.00356905559908455" flag="0"/>
		</comp>
		<comp name="--.HNZ" depth="0.0">
			<acc value="0.044423804614731" flag="0"/>
			<vel value="0.026120186536525" flag="0"/>
			<psa03 value="0.182047955617018" flag="0"/>
			<psa10 value="0.0213742596898138" flag="0"/>
			<psa30 value="0.00182129231834421" flag="0"/>
		</comp>
	</station>
	<station code="CADS" name="CADS" netid="SL" source="Seismic Network of the Republic of Slovenia (SNRS)" insttype="" lat="46.2281" lon="13.7368">
		<comp name="--.HNE" depth="0.0">
			<acc value="0.0646854350073586" flag="0"/>
			<vel value="0.0272974829812254" flag="0"/>
			<psa03 value="0.174002441538459" flag="0"/>
			<psa10 value="0.0108522222152618" flag="0"/>
			<psa30 value="0.00111945000958916" flag="0"/>
		</comp>
		<comp name="--.HNN" depth="0.0">
			<acc value="0.054183949026525" flag="0"/>
			<vel value="0.0280188832829782" flag="0"/>
			<psa03 value="0.278922916058306" flag="0"/>
			<psa10 value="0.0121931461476114" flag="0"/>
			<psa30 value="0.00124741272051742" flag="0"/>
		</comp>
		<comp name="--.HNZ" depth="0.0">
			<acc value="0.0227182234527805" flag="0"/>
			<vel value="0.0130298022977373" flag="0"/>
			<psa03 value="0.0866209120129741" flag="0"/>
			<psa10 value="0.0165259814365249" flag="0"/>
			<psa30 value="0.00105502123205885" flag="0"/>
		</comp>
	</station>
	<station code="CENE" name="CENE" netid="SL" source="Seismic Network of the Republic of Slovenia (SNRS)" insttype="" lat="45.5097" lon="13.77">
		<comp name="--.HN1" depth="0.0">
			<acc value="0.110284802959976" flag="0"/>
			<vel value="0.0540471534483423" flag="0"/>
			<psa03 value="0.374992049716123" flag="0"/>
			<psa10 value="0.0493210735289185" flag="0"/>
			<psa30 value="0.00240016524916667" flag="0"/>
		</comp>
		<comp name="--.HN2" depth="0.0">
			<acc value="0.144652413671823" flag="0"/>
			<vel value="0.0663341988361401" flag="0"/>
			<psa03 value="0.497871564883311" flag="0"/>
			<psa10 value="0.0303789868337817" flag="0"/>
			<psa30 value="0.0019660056548945" flag="0"/>
		</comp>
		<comp name="--.HNZ" depth="0.0">
			<acc value="0.0504311458080393" flag="0"/>
			<vel value="0.0291888059490029" flag="0"/>
			<psa03 value="0.135155557558915" flag="0"/>
			<psa10 value="0.0178076252927932" flag="0"/>
			<psa30 value="0.00109247039163447" flag="0"/>
		</comp>
	</station>
	<station code="CEY" name="CEY" netid="SL" source="Seismic Network of the Republic of Slovenia (SNRS)" insttype="" lat="45.7381" lon="14.4221">
		<comp name="--.HNE" depth="0.0">
			<acc value="0.0766455838044955" flag="0"/>
			<vel value="0.0264754259621169" flag="0"/>
			<psa03 value="0.250064192789521" flag="0"/>
			<psa10 value="0.0204802976574477" flag="0"/>
			<psa30 value="0.00112034485372152" flag="0"/>
		</comp>
		<comp name="--.HNN" depth="0.0">
			<acc value="0.0794306737193615" flag="0"/>
			<vel value="0.0387393072471353" flag="0"/>
			<psa03 value="0.314716681352924" flag="0"/>
			<psa10 value="0.02677418386244" flag="0"/>
			<psa30 value="0.00228095769339949" flag="0"/>
		</comp>
		<comp name="--.HNZ" depth="0.0">
			<acc value="0.0645043063742868" flag="0"/>
			<vel value="0.0286160763331207" flag="0"/>
			<psa03 value="0.212212285990463" flag="0"/>
			<psa10 value="0.0129622646793795" flag="0"/>
			<psa30 value="0.00172883886373002" flag="0"/>
		</comp>
	</station>
	<station code="CRES" name="CRES" netid="SL" source="Seismic Network of the Republic of Slovenia (SNRS)" insttype="" lat="45.826" lon="15.4569">
		<comp name="--.HNE" depth="0.0">
			<acc value="0.300154752527871" flag="0"/>
			<vel value="0.14802720201193" flag="0"/>
			<psa03 value="1.36674018556835" flag="0"/>
			<psa10 value="0.0489739245202279" flag="0"/>
			<psa30 value="0.00330108000429609" flag="0"/>
		</comp>
		<comp name="--.HNN" depth="0.0">
			<acc value="0.240147269188415" flag="0"/>
			<vel value="0.107087200579472" flag="0"/>
			<psa03 value="1.0333660040556" flag="0"/>
			<psa10 value="0.0343123508334864" flag="0"/>
			<psa30 value="0.00272659007131748" flag="0"/>
		</comp>
		<comp name="--.HNZ" depth="0.0">
			<acc value="0.119252782213196" flag="0"/>
			<vel value="0.0448362548979199" flag="0"/>
			<psa03 value="0.472432959682332" flag="0"/>
			<psa10 value="0.0144803677499375" flag="0"/>
			<psa30 value="0.00156687207577188" flag="0"/>
		</comp>
	</station>
	<station code="CRNS" name="CRNS" netid="SL" source="Seismic Network of the Republic of Slovenia (SNRS)" insttype="" lat="46.0807" lon="14.2613">
		<comp name="--.HNE" depth="0.0">
			<acc value="0.132317714775857" flag="0"/>
			<vel value="0.0592812912128125" flag="0"/>
			<psa03 value="0.38133782700753" flag="0"/>
			<psa10 value="0.0225218845454394" flag="0"/>
			<psa30 value="0.0021435991190814" flag="0"/>
		</comp>
		<comp name="--.HNN" depth="0.0">
			<acc value="0.112903418164834" flag="0"/>
			<vel value="0.0514658041717067" flag="0"/>
			<psa03 value="0.354268792003476" flag="0"/>
			<psa10 value="0.0244265602811793" flag="0"/>
			<psa30 value="0.00196284060434358" flag="0"/>
		</comp>
		<comp name="--.HNZ" depth="0.0">
			<acc value="0.0436139462650913" flag="0"/>
			<vel value="0.0232466786349428" flag="0"/>
			<psa03 value="0.126441475903236" flag="0"/>
			<psa10 value="0.0232708690842293" flag="0"/>
			<psa30 value="0.000976722370476872" flag="0"/>
		</comp>
	</station>
	<station code="DOBS" name="DOBS" netid="SL" source="Seismic Network of the Republic of Slovenia (SNRS)" insttype="" lat="46.1495" lon="15.4695">
		<comp name="--.HNE" depth="0.0">
			<acc value="0.140910070003137" flag="0"/>
			<vel value="0.06378323952943" flag="0"/>
			<psa03 value="0.332819672669831" flag="0"/>
			<psa10 value="0.0821237127930103" flag="0"/>
			<psa30 value="0.00547765078414614" flag="0"/>
		</comp>
		<comp name="--.HNN" depth="0.0">
			<acc value="0.147514471483974" flag="0"/>
			<vel value="0.0667941443748676" flag="0"/>
			<psa03 value="0.252585086688882" flag="0"/>
			<psa10 value="0.0513869053802525" flag="0"/>
			<psa30 value="0.00311816427141261" flag="0"/>
		</comp>
		<comp name="--.HNZ" depth="0.0">
			<acc value="0.0658115811265721" flag="0"/>
			<vel value="0.0355775503303583" flag="0"/>
			<psa03 value="0.111551316810816" flag="0"/>
			<psa10 value="0.0472205256281115" flag="0"/>
			<psa30 value="0.00240052006434155" flag="0"/>
		</comp>
	</station>
	<station code="DOLA" name="DOLA" netid="SL" source="Seismic Network of the Republic of Slovenia (SNRS)" insttype="" lat="46.0938" lon="14.6781">
		<comp name="--.HGE" depth="0.0">
			<acc value="0.104882007609987" flag="0"/>
			<vel value="0.044296106276328" flag="0"/>
			<psa03 value="0.319987822622624" flag="0"/>
			<psa10 value="0.0302790839657279" flag="0"/>
			<psa30 value="0.00320531900331914" flag="0"/>
		</comp>
		<comp name="--.HGN" depth="0.0">
			<acc value="0.174422642828446" flag="0"/>
			<vel value="0.0764888186512915" flag="0"/>
			<psa03 value="0.539701335896655" flag="0"/>
			<psa10 value="0.0301848327220264" flag="0"/>
			<psa30 value="0.00224722532598291" flag="0"/>
		</comp>
		<comp name="--.HGZ" depth="0.0">
			<acc value="0.0716794107136014" flag="0"/>
			<vel value="0.0394082790647448" flag="0"/>
			<psa03 value="0.211216408717136" flag="0"/>
			<psa10 value="0.0315601294536979" flag="0"/>
			<psa30 value="0.00226783064931624" flag="0"/>
		</comp>
	</station>
	<station code="DTSE" name="DTSE" netid="SL" source="Seismic Network of the Republic of Slovenia (SNRS)" insttype="" lat="46.0251" lon="14.8395">
		<comp name="--.HN1" depth="0.0">
			<acc value="0.177873550754928" flag="0"/>
			<vel value="0.0979141698750366" flag="0"/>
			<psa03 value="0.463046216203851" flag="0"/>
			<psa10 value="0.0634515708549777" flag="0"/>
			<psa30 value="0.00409187356654302" flag="0"/>
		</comp>
		<comp name="--.HN2" depth="0.0">
			<acc value="0.128607007688554" flag="0"/>
			<vel value="0.100501902510655" flag="0"/>
			<psa03 value="0.332399915696566" flag="0"/>
			<psa10 value="0.0966889951714934" flag="0"/>
			<psa30 value="0.00443575843056074" flag="0"/>
		</comp>
		<comp name="--.HNZ" depth="0.0">
			<acc value="0.0994525961984045" flag="0"/>
			<vel value="0.0629792448066555" flag="0"/>
			<psa03 value="0.363996612989137" flag="0"/>
			<psa10 value="0.050571792632913" flag="0"/>
			<psa30 value="0.00439055418600229" flag="0"/>
		</comp>
	</station>
	<station code="FAGG" name="FAGG" netid="SL" source="Seismic Network of the Republic of Slovenia (SNRS)" insttype="" lat="46.0459" lon="14.4944">
		<comp name="--.HG1" depth="0.0">
			<acc value="0.530788295919057" flag="0"/>
			<vel value="0.247139392286586" flag="0"/>
			<psa03 value="1.38671311293824" flag="0"/>
			<psa10 value="0.0962795130452201" flag="0"/>
			<psa30 value="0.00608813247554261" flag="0"/>
		</comp>
		<comp name="--.HG2" depth="0.0">
			<acc value="0.263667427592176" flag="0"/>
			<vel value="0.139973460334397" flag="0"/>
			<psa03 value="1.23036400557684" flag="0"/>
			<psa10 value="0.0817243113346099" flag="0"/>
			<psa30 value="0.00558569377480552" flag="0"/>
		</comp>
		<comp name="--.HGZ" depth="0.0">
			<acc value="0.0798942350519245" flag="0"/>
			<vel value="0.0472082493801286" flag="0"/>
			<psa03 value="0.288080583924755" flag="0"/>
			<psa10 value="0.0361750764212568" flag="0"/>
			<psa30 value="0.00348308969592969" flag="0"/>
		</comp>
	</station>
	<station code="GBAS" name="GBAS" netid="SL" source="Seismic Network of the Republic of Slovenia (SNRS)" insttype="" lat="45.9348" lon="14.4434">
		<comp name="--.HNE" depth="0.0">
			<acc value="0.0377702041407894" flag="0"/>
			<vel value="0.0189892720890552" flag="0"/>
			<psa03 value="0.115613861901614" flag="0"/>
			<psa10 value="0.015358209843788" flag="0"/>
			<psa30 value="0.000894844132365435" flag="0"/>
		</comp>
		<comp name="--.HNN" depth="0.0">
			<acc value="0.0697887448707576" flag="0"/>
			<vel value="0.0295197956882754" flag="0"/>
			<psa03 value="0.211899090544135" flag="0"/>
			<psa10 value="0.0155233085862094" flag="0"/>
			<psa30 value="0.00140087848921809" flag="0"/>
		</comp>
		<comp name="--.HNZ" depth="0.0">
			<acc value="0.0445121445951783" flag="0"/>
			<vel value="0.026747104364184" flag="0"/>
			<psa03 value="0.138208676243841" flag="0"/>
			<psa10 value="0.0137635975999128" flag="0"/>
			<psa30 value="0.00175478934356862" flag="0"/>
		</comp>
	</station>
	<station code="GBRS" name="GBRS" netid="SL" source="Seismic Network of the Republic of Slovenia (SNRS)" insttype="" lat="45.5311" lon="14.8101">
		<comp name="--.HNE" depth="0.0">
			<acc value="0.109789468369503" flag="0"/>
			<vel value="0.0433007499311478" flag="0"/>
			<psa03 value="0.162751125213242" flag="0"/>
			<psa10 value="0.0359241285471933" flag="0"/>
			<psa30 value="0.00133028343724927" flag="0"/>
		</comp>
		<comp name="--.HNN" depth="0.0">
			<acc value="0.0939967302203516" flag="0"/>
			<vel value="0.0347274295456561" flag="0"/>
			<psa03 value="0.169429963486688" flag="0"/>
			<psa10 value="0.0161116579432523" flag="0"/>
			<psa30 value="0.00100579777499957" flag="0"/>
		</comp>
		<comp name="--.HNZ" depth="0.0">
			<acc value="0.0532876980232369" flag="0"/>
			<vel value="0.0335439059929278" flag="0"/>
			<psa03 value="0.130170852346585" flag="0"/>
			<psa10 value="0.0201408311062304" flag="0"/>
			<psa30 value="0.00117670565930678" flag="0"/>
		</comp>
	</station>
	<station code="GCIS" name="GCIS" netid="SL" source="Seismic Network of the Republic of Slovenia (SNRS)" insttype="" lat="45.8672" lon="15.6275">
		<comp name="--.HNE" depth="0.0">
			<acc value="0.155866979217931" flag="0"/>
			<vel value="0.0489141161592689" flag="0"/>
			<psa03 value="0.440382048149234" flag="0"/>
			<psa10 value="0.0411313297487949" flag="0"/>
			<psa30 value="0.00240505786494519" flag="0"/>
		</comp>
		<comp name="--.HNN" depth="0.0">
			<acc value="0.131546171771054" flag="0"/>
			<vel value="0.0700145208373668" flag="0"/>
			<psa03 value="0.414473206815705" flag="0"/>
			<psa10 value="0.0309496452621114" flag="0"/>
			<psa30 value="0.0022946649269554" flag="0"/>
		</comp>
		<comp name="--.HNZ" depth="0.0">
			<acc value="0.111587656423985" flag="0"/>
			<vel value="0.0309133366653091" flag="0"/>
			<psa03 value="0.211841387619128" flag="0"/>
			<psa10 value="0.029419048867624" flag="0"/>
			<psa30 value="0.00138284941948862" flag="0"/>
		</comp>
	</station>
	<station code="GOLS" name="GOLS" netid="SL" source="Seismic Network of the Republic of Slovenia (SNRS)" insttype="" lat="46.0108" lon="15.6245">
		<comp name="--.HNE" depth="0.0">
			<acc value="0.175820240213537" flag="0"/>
			<vel value="0.0949597109397925" flag="0"/>
			<psa03 value="0.482460002275777" flag="0"/>
			<psa10 value="0.0724627653024938" flag="0"/>
			<psa30 value="0.00442525690155062" flag="0"/>
		</comp>
		<comp name="--.HNN" depth="0.0">
			<acc value="0.165606588029223" flag="0"/>
			<vel value="0.0761508589653694" flag="0"/>
			<psa03 value="0.44068444318169" flag="0"/>
			<psa10 value="0.08363537793314" flag="0"/>
			<psa30 value="0.00325781685604567" flag="0"/>
		</comp>
		<comp name="--.HNZ" depth="0.0">
			<acc value="0.0731849626795665" flag="0"/>
			<vel value="0.0477881873781948" flag="0"/>
			<psa03 value="0.230884607471991" flag="0"/>
			<psa10 value="0.0521832218822074" flag="0"/>
			<psa30 value="0.00219240731956002" flag="0"/>
		</comp>
	</station>
	<station code="GORS" name="GORS" netid="SL" source="Seismic Network of the Republic of Slovenia (SNRS)" insttype="" lat="46.3174" lon="13.9999">
		<comp name="--.HNE" depth="0.0">
			<acc value="0.0293522063354292" flag="0"/>
			<vel value="0.0147401754286467" flag="0"/>
			<psa03 value="0.0773592752429919" flag="0"/>
			<psa10 value="0.010815981027901" flag="0"/>
			<psa30 value="0.00095658837749865" flag="0"/>
		</comp>
		<comp name="--.HNN" depth="0.0">
			<acc value="0.0210804315297284" flag="0"/>
			<vel value="0.0117028414644543" flag="0"/>
			<psa03 value="0.0885448268975598" flag="0"/>
			<psa10 value="0.0102884704118716" flag="0"/>
			<psa30 value="0.00112795102884663" flag="0"/>
		</comp>
		<comp name="--.HNZ" depth="0.0">
			<acc value="0.0311860408682215" flag="0"/>
			<vel value="0.0150346507823498" flag="0"/>
			<psa03 value="0.0975380104278324" flag="0"/>
			<psa10 value="0.00918110079806936" flag="0"/>
			<psa30 value="0.0011597179955456" flag="0"/>
		</comp>
	</station>
	<station code="GOTE" name="GOTE" netid="SL" source="Seismic Network of the Republic of Slovenia (SNRS)" insttype="" lat="45.6095" lon="14.7464">
		<comp name="--.HGE" depth="0.0">
			<acc value="0.0580714516256921" flag="0"/>
			<vel value="0.0272770224500431" flag="0"/>
			<psa03 value="0.176129584387146" flag="0"/>
			<psa10 value="0.0141017347957069" flag="0"/>
			<psa30 value="0.000863659400694643" flag="0"/>
		</comp>
		<comp name="--.HGN" depth="0.0">
			<acc value="0.0756792697186827" flag="0"/>
			<vel value="0.0304395655842038" flag="0"/>
			<psa03 value="0.182300555683986" flag="0"/>
			<psa10 value="0.0201408104798405" flag="0"/>
			<psa30 value="0.00134818785249314" flag="0"/>
		</comp>
		<comp name="--.HGZ" depth="0.0">
			<acc value="0.058645109825586" flag="0"/>
			<vel value="0.0219096080373641" flag="0"/>
			<psa03 value="0.178159198006064" flag="0"/>
			<psa10 value="0.0226075945172039" flag="0"/>
			<psa30 value="0.00119858356694576" flag="0"/>
		</comp>
	</station>
	<station code="JAVS" name="JAVS" netid="SL" source="Seismic Network of the Republic of Slovenia (SNRS)" insttype="" lat="45.8934" lon="14.0643">
		<comp name="--.HNE" depth="0.0">
			<acc value="0.0555459666552109" flag="0"/>
			<vel value="0.0337081356837874" flag="0"/>
			<psa03 value="0.168611815538431" flag="0"/>
			<psa10 value="0.0210597732316326" flag="0"/>
			<psa30 value="0.00139550952899091" flag="0"/>
		</comp>
		<comp name="--.HNN" depth="0.0">
			<acc value="0.028980960497217" flag="0"/>
			<vel value="0.0139936787870592" flag="0"/>
			<psa03 value="0.0987596569258665" flag="0"/>
			<psa10 value="0.0164943726712216" flag="0"/>
			<psa30 value="0.000694521321130542" flag="0"/>
		</comp>
		<comp name="--.HNZ" depth="0.0">
			<acc value="0.0273205094738147" flag="0"/>
			<vel value="0.0164238783975488" flag="0"/>
			<psa03 value="0.0992586691495408" flag="0"/>
			<psa10 value="0.0124848517476416" flag="0"/>
			<psa30 value="0.000712147019992858" flag="0"/>
		</comp>
	</station>
	<station code="KNDS" name="KNDS" netid="SL" source="Seismic Network of the Republic of Slovenia (SNRS)" insttype="" lat="45.5278" lon="14.3807">
		<comp name="--.HNE" depth="0.0">
			<acc value="0.056474377320425" flag="0"/>
			<vel value="0.0364979735757028" flag="0"/>
			<psa03 value="0.142127925694109" flag="0"/>
			<psa10 value="0.0457296481149349" flag="0"/>
			<psa30 value="0.00265392810137851" flag="0"/>
		</comp>
		<comp name="--.HNN" depth="0.0">
			<acc value="0.0739927732696076" flag="0"/>
			<vel value="0.041775277654099" flag="0"/>
			<psa03 value="0.220429331528241" flag="0"/>
			<psa10 value="0.0340074440762522" flag="0"/>
			<psa30 value="0.00224741117162837" flag="0"/>
		</comp>
		<comp name="--.HNZ" depth="0.0">
			<acc value="0.026858911451936" flag="0"/>
			<vel value="0.0162263626896825" flag="0"/>
			<psa03 value="0.102574222122121" flag="0"/>
			<psa10 value="0.0215982732796167" flag="0"/>
			<psa30 value="0.0014113733923951" flag="0"/>
		</comp>
