<?xml version="1.0" encoding="UTF-8" standalone="yes"?>
<!DOCTYPE earthquake SYSTEM "stationlist.dtd">
<stationlist created="" xmlns="ch.ethz.sed.shakemap.usgs.xml">
  <station code="BEHE" name="BEHE" netid="HU" insttype="" lat="46.4703" lon="16.7755">
    <comp name="--.HHN">
      <acc value="0.0580287082" flag="0"/>
      <vel value="0.0410560583" flag="0"/>
      <psa03 value="0.2050210490" flag="0"/>
      <psa10 value="0.0459011765" flag="0"/>
      <psa30 value="0.0031687864" flag="0"/>
    </comp>
    <comp name="--.HHZ">
      <acc value="0.0576960091" flag="0"/>
      <vel value="0.0310528501" flag="0"/>
      <psa03 value="0.2806628217" flag="0"/>
      <psa10 value="0.0226086348" flag="0"/>
      <psa30 value="0.0015293915" flag="0"/>
    </comp>
    <comp name="--.HHE">
      <acc value="0.0513247478" flag="0"/>
      <vel value="0.0292164945" flag="0"/>
      <psa03 value="0.2138318163" flag="0"/>
      <psa10 value="0.0289674695" flag="0"/>
      <psa30 value="0.0021597116" flag="0"/>
    </comp>
  </station>
  <station code="BLY" name="BLY" netid="MN" insttype="" lat="44.7488" lon="17.1839">
    <comp name="--.HHZ">
      <acc value="0.0190316966" flag="0"/>
      <vel value="0.0130165014" flag="0"/>
      <psa03 value="0.0500591352" flag="0"/>
      <psa10 value="0.0158869203" flag="0"/>
      <psa30 value="0.0012898394" flag="0"/>
    </comp>
    <comp name="--.HHN">
      <acc value="0.0236213277" flag="0"/>
      <vel value="0.0222824679" flag="0"/>
      <psa03 value="0.0571057951" flag="0"/>
      <psa10 value="0.0228630525" flag="0"/>
      <psa30 value="0.0019324847" flag="0"/>
    </comp>
    <comp name="--.HHE">
      <acc value="0.0332761728" flag="0"/>
      <vel value="0.0222816611" flag="0"/>
      <psa03 value="0.0839872049" flag="0"/>
      <psa10 value="0.0265181995" flag="0"/>
      <psa30 value="0.0016780201" flag="0"/>
    </comp>
  </station>
</stationlist>
