<stationlist xmlns:esm="https://esm-db.eu/esmws/shakemap/1/" created="1784080708">
	<station code="CSMBE" name="CSMBE" netid="7C" source="Urban Seismic Network (RUSN-CAL-INGV)" insttype="" lat="39.2895" lon="16.2642" esm:processing="manual (Paolucci et al 2011)" esm:quality="good">
		<comp name="--.HNE" depth="0.0">
			<acc value="0.0218696370694911" flag="0"/>
			<vel value="0.0155125348589079" flag="0"/>
			<psa03 value="0.0784411286313903" flag="0"/>
			<psa10 value="0.0149147895941079" flag="0"/>
			<psa30 value="0.000984978374981447" flag="0"/>
		</comp>
		<comp name="--.HNN" depth="0.0">
			<acc value="0.0170860107541624" flag="0"/>
			<vel value="0.0159265894177577" flag="0"/>
			<psa03 value="0.0481841555053185" flag="0"/>
			<psa10 value="0.0195393081332724" flag="0"/>
			<psa30 value="0.0012147703684073" flag="0"/>
		</comp>
		<comp name="--.HNZ" depth="0.0">
			<acc value="0.0191024334312916" flag="0"/>
			<vel value="0.00988573367911616" flag="0"/>
			<psa03 value="0.0415691808375709" flag="0"/>
			<psa10 value="0.01222309003223" flag="0"/>
			<psa30 value="0.00113437306331296" flag="0"/>
		</comp>
	</station>
	<station code="MARCO" name="MARCO" netid="GE" source="GEOFON" insttype="" lat="40.29724" lon="15.80632" esm:processing="automatic (Paolucci et al 2011)" esm:quality="good">
		<comp name="--.HLE" depth="1.0">
			<acc value="0.00521338989623922" flag="0"/>
			<vel value="0.00304708548671267" flag="0"/>
			<psa03 value="0.013290771073374" flag="0"/>
			<psa10 value="0.0032212388600173" flag="0"/>
			<psa30 value="0.000619973986899139" flag="0"/>
		</comp>
		<comp name="--.HLN" depth="1.0">
			<acc value="0.00555709637498533" flag="0"/>
			<vel value="0.00460287534493295" flag="0"/>
			<psa03 value="0.0154045400064415" flag="0"/>
			<psa10 value="0.00531088807025532" flag="0"/>
			<psa30 value="0.00160442951474923" flag="0"/>
		</comp>
		<comp name="--.HLZ" depth="1.0">
			<acc value="0.00144550244761154" flag="0"/>
			<vel value="0.000797296692862563" flag="0"/>
			<psa03 value="0.00462743121910212" flag="0"/>
			<psa10 value="0.00113500647766987" flag="0"/>
			<psa30 value="0.000207917380276792" flag="0"/>
		</comp>
	</station>
	<station code="ACR" name="ACR" netid="IT" source="Italian Strong Motion Network (RAN)" insttype="" lat="39.4889" lon="16.3798" esm:processing="manual (Paolucci et al 2011)" esm:quality="best">
		<comp name="--.HNE" depth="0.0">
			<acc value="0.0300004416048214" flag="0"/>
			<vel value="0.0132696305413679" flag="0"/>
			<psa03 value="0.115524184160435" flag="0"/>
			<psa10 value="0.0174294764922757" flag="0"/>
			<psa30 value="0.000971799481114656" flag="0"/>
		</comp>
		<comp name="--.HNN" depth="0.0">
			<acc value="0.0254471586340945" flag="0"/>
			<vel value="0.0171587160184621" flag="0"/>
			<psa03 value="0.0765975012920894" flag="0"/>
			<psa10 value="0.0125538881959884" flag="0"/>
			<psa30 value="0.00143615117963357" flag="0"/>
		</comp>
		<comp name="--.HNZ" depth="0.0">
			<acc value="0.0180238096855012" flag="0"/>
			<vel value="0.0070677241614647" flag="0"/>
			<psa03 value="0.0560271959017917" flag="0"/>
			<psa10 value="0.0126721869701843" flag="0"/>
			<psa30 value="0.00091223063913614" flag="0"/>
		</comp>
	</station>
	<station code="ALD" name="ALD" netid="IT" source="Italian Strong Motion Network (RAN)" insttype="" lat="39.9298" lon="16.4653" esm:processing="manual (Paolucci et al 2011)" esm:quality="bad">
		<comp name="--.HNE" depth="0.0">
			<acc value="0.0125842526928354" flag="0"/>
			<vel value="0.00660875095068581" flag="0"/>
			<psa03 value="0.0327637433538738" flag="0"/>
			<psa10 value="0.00821304501143034" flag="0"/>
			<psa30 value="0.000538461191243356" flag="0"/>
		</comp>
		<comp name="--.HNN" depth="0.0">
			<acc value="0.0131495949381869" flag="0"/>
			<vel value="0.00640584172160558" flag="0"/>
			<psa03 value="0.0364229466956135" flag="0"/>
			<psa10 value="0.00894203049063211" flag="0"/>
			<psa30 value="0.00050535649822121" flag="0"/>
		</comp>
		<comp name="--.HNZ" depth="0.0">
			<acc value="0.00741697049068042" flag="0"/>
			<vel value="0.00367477716026345" flag="0"/>
			<psa03 value="0.0251182316679032" flag="0"/>
			<psa10 value="0.00369224521812434" flag="0"/>
			<psa30 value="0.000323980238142534" flag="0"/>
		</comp>
	</station>
	<station code="ARE" name="ARE" netid="IT" source="Italian Strong Motion Network (RAN)" insttype="" lat="38.5614" lon="16.2088" esm:processing="manual (Paolucci et al 2011)" esm:quality="good">
		<comp name="--.HGE" depth="0.0">
			<acc value="0.00948482892904609" flag="0"/>
			<vel value="0.00528786099744641" flag="0"/>
			<psa03 value="0.0280922515987988" flag="0"/>
			<psa10 value="0.00721003216049563" flag="0"/>
			<psa30 value="0.000373236938657101" flag="0"/>
		</comp>
		<comp name="--.HGN" depth="0.0">
			<acc value="0.00810857026660545" flag="0"/>
			<vel value="0.00435201625822929" flag="0"/>
			<psa03 value="0.0215999426089408" flag="0"/>
			<psa10 value="0.00571998063939515" flag="0"/>
			<psa30 value="0.000304472956297412" flag="0"/>
		</comp>
		<comp name="--.HGZ" depth="0.0">
			<acc value="0.00536751097667534" flag="0"/>
			<vel value="0.00298785060817357" flag="0"/>
			<psa03 value="0.0201296824510044" flag="0"/>
			<psa10 value="0.00284239649794323" flag="0"/>
			<psa30 value="0.000204946910060297" flag="0"/>
		</comp>
	</station>
	<station code="ARMO" name="ARMO" netid="IT" source="Italian Strong Motion Network (RAN)" insttype="" lat="38.076099395752" lon="15.7124996185303" esm:processing="manual (Paolucci et al 2011)" esm:quality="good">
		<comp name="--.HNE" depth="0.0">
			<acc value="0.00807425431809274" flag="0"/>
			<vel value="0.00443838878405107" flag="0"/>
			<psa03 value="0.0150541912767066" flag="0"/>
			<psa10 value="0.00828495977542465" flag="0"/>
			<psa30 value="0.000612210555944758" flag="0"/>
		</comp>
		<comp name="--.HNN" depth="0.0">
			<acc value="0.00690641519291791" flag="0"/>
			<vel value="0.00380655870363053" flag="0"/>
			<psa03 value="0.0158350555051295" flag="0"/>
			<psa10 value="0.00876222576695429" flag="0"/>
			<psa30 value="0.00051164222711987" flag="0"/>
		</comp>
		<comp name="--.HNZ" depth="0.0">
			<acc value="0.00719863164051303" flag="0"/>
			<vel value="0.00387953184499241" flag="0"/>
			<psa03 value="0.0148613907442009" flag="0"/>
			<psa10 value="0.0078139379475402" flag="0"/>
			<psa30 value="0.000316804346108134" flag="0"/>
		</comp>
	</station>
	<station code="AVT" name="AVT" netid="IT" source="Italian Strong Motion Network (RAN)" insttype="" lat="40.3217" lon="17.6994" esm:processing="automatic (Paolucci et al 2011)" esm:quality="best">
		<comp name="--.HGE" depth="0.0">
			<acc value="0.0259378341739298" flag="0"/>
			<vel value="0.0149670498426857" flag="0"/>
			<psa03 value="0.0962502719412729" flag="0"/>
			<psa10 value="0.0195379936712054" flag="0"/>
			<psa30 value="0.00163872668260125" flag="0"/>
		</comp>
		<comp name="--.HGN" depth="0.0">
			<acc value="0.0250204612964327" flag="0"/>
			<vel value="0.0150765931770568" flag="0"/>
			<psa03 value="0.0433422201677155" flag="0"/>
			<psa10 value="0.0126856663006487" flag="0"/>
			<psa30 value="0.00103219119010218" flag="0"/>
		</comp>
		<comp name="--.HGZ" depth="0.0">
			<acc value="0.0152306353616501" flag="0"/>
			<vel value="0.00613828073349895" flag="0"/>
			<psa03 value="0.0362270118408983" flag="0"/>
			<psa10 value="0.00745570531015334" flag="0"/>
			<psa30 value="0.000545529680332154" flag="0"/>
		</comp>
	</station>
	<station code="BRDS" name="BRDS" netid="IT" source="Italian Strong Motion Network (RAN)" insttype="" lat="40.6302" lon="17.9412" esm:processing="manual (Paolucci et al 2011)" esm:quality="good">
		<comp name="--.HNE" depth="0.0">
			<acc value="0.0509042900149698" flag="0"/>
			<vel value="0.029493589031833" flag="0"/>
			<psa03 value="0.105015602601616" flag="0"/>
			<psa10 value="0.0264726718095862" flag="0"/>
			<psa30 value="0.00184004564399344" flag="0"/>
		</comp>
		<comp name="--.HNN" depth="0.0">
			<acc value="0.0453755378474906" flag="0"/>
			<vel value="0.0220278450140019" flag="0"/>
			<psa03 value="0.13232100520053" flag="0"/>
			<psa10 value="0.0233241357345235" flag="0"/>
			<psa30 value="0.00115899229838506" flag="0"/>
		</comp>
		<comp name="--.HNZ" depth="0.0">
			<acc value="0.0258632495682845" flag="0"/>
			<vel value="0.0124054636805126" flag="0"/>
			<psa03 value="0.0574900740602598" flag="0"/>
			<psa10 value="0.0092659122587124" flag="0"/>
			<psa30 value="0.000538051320342687" flag="0"/>
		</comp>
	</station>
	<station code="BRO" name="BRO" netid="IT" source="Italian Strong Motion Network (RAN)" insttype="" lat="38.6021" lon="16.3493" esm:processing="manual (Paolucci et al 2011)" esm:quality="good">
		<comp name="--.HGE" depth="0.0">
			<acc value="0.0160330603220245" flag="0"/>
			<vel value="0.00928010754596872" flag="0"/>
			<psa03 value="0.0570349345345" flag="0"/>
			<psa10 value="0.0085450516927377" flag="0"/>
			<psa30 value="0.00107675466304532" flag="0"/>
		</comp>
		<comp name="--.HGN" depth="0.0">
			<acc value="0.0152348260362464" flag="0"/>
			<vel value="0.00990574630022035" flag="0"/>
			<psa03 value="0.0439425411860281" flag="0"/>
			<psa10 value="0.00756230518435459" flag="0"/>
			<psa30 value="0.000681878296090631" flag="0"/>
		</comp>
		<comp name="--.HGZ" depth="0.0">
			<acc value="0.00546925703679043" flag="0"/>
			<vel value="0.00332421052018083" flag="0"/>
			<psa03 value="0.0138804077901446" flag="0"/>
			<psa10 value="0.00288620150918524" flag="0"/>
			<psa30 value="0.000394805528928686" flag="0"/>
		</comp>
	</station>
	<station code="COR" name="COR" netid="IT" source="Italian Strong Motion Network (RAN)" insttype="" lat="39.1179" lon="16.38" esm:processing="manual (Paolucci et al 2011)" esm:quality="best">
		<comp name="--.HGE" depth="0.0">
			<acc value="0.0312084315448333" flag="0"/>
			<vel value="0.0154489089706941" flag="0"/>
			<psa03 value="0.0902387903772128" flag="0"/>
			<psa10 value="0.0129776193911031" flag="0"/>
			<psa30 value="0.00088047582720345" flag="0"/>
		</comp>
		<comp name="--.HGN" depth="0.0">
			<acc value="0.0221591025769467" flag="0"/>
			<vel value="0.0141142319515496" flag="0"/>
			<psa03 value="0.057892746568872" flag="0"/>
			<psa10 value="0.0195062571938102" flag="0"/>
			<psa30 value="0.00168841080726324" flag="0"/>
		</comp>
		<comp name="--.HGZ" depth="0.0">
			<acc value="0.0225772346597935" flag="0"/>
			<vel value="0.00654789431219064" flag="0"/>
			<psa03 value="0.0439448486305419" flag="0"/>
			<psa10 value="0.0116435116380113" flag="0"/>
			<psa30 value="0.00104358559075765" flag="0"/>
		</comp>
	</station>
	<station code="COS" name="COS" netid="IT" source="Italian Strong Motion Network (RAN)" insttype="" lat="39.289" lon="16.2576" esm:processing="manual (Paolucci et al 2011)" esm:quality="best">
		<comp name="--.HNE" depth="0.0">
			<acc value="0.030588883145498" flag="0"/>
			<vel value="0.0188077843704355" flag="0"/>
			<psa03 value="0.138994666047867" flag="0"/>
			<psa10 value="0.0220005736800167" flag="0"/>
			<psa30 value="0.00142210483246432" flag="0"/>
		</comp>
		<comp name="--.HNN" depth="0.0">
			<acc value="0.0273030090617247" flag="0"/>
			<vel value="0.0156053549980614" flag="0"/>
			<psa03 value="0.095498826328773" flag="0"/>
			<psa10 value="0.025565284199593" flag="0"/>
			<psa30 value="0.00105084430077861" flag="0"/>
		</comp>
		<comp name="--.HNZ" depth="0.0">
			<acc value="0.0255674974024406" flag="0"/>
			<vel value="0.0124848357934282" flag="0"/>
			<psa03 value="0.0737902163648092" flag="0"/>
			<psa10 value="0.0114600072942457" flag="0"/>
			<psa30 value="0.00146800870670637" flag="0"/>
		</comp>
	</station>
	<station code="CRV" name="CRV" netid="IT" source="Italian Strong Motion Network (RAN)" insttype="" lat="40.7095" lon="17.6522" esm:processing="automatic (Paolucci et al 2011)" esm:quality="best">
		<comp name="--.HGE" depth="0.0">
			<acc value="0.0159516703188549" flag="0"/>
			<vel value="0.0108350555065291" flag="0"/>
			<psa03 value="0.0387375974256944" flag="0"/>
			<psa10 value="0.0146918129479899" flag="0"/>
			<psa30 value="0.00128321083975222" flag="0"/>
		</comp>
		<comp name="--.HGN" depth="0.0">
			<acc value="0.014215456927254" flag="0"/>
			<vel value="0.00731533811275708" flag="0"/>
			<psa03 value="0.043183602889263" flag="0"/>
			<psa10 value="0.0097513941069866" flag="0"/>
			<psa30 value="0.000576262653741334" flag="0"/>
		</comp>
		<comp name="--.HGZ" depth="0.0">
			<acc value="0.0107741491286943" flag="0"/>
			<vel value="0.00650407920902912" flag="0"/>
			<psa03 value="0.0222681079653701" flag="0"/>
			<psa10 value="0.00620626832232189" flag="0"/>
			<psa30 value="0.000488601950815022" flag="0"/>
		</comp>
	</station>
	<station code="CSPC" name="CSPC" netid="IT" source="Italian Strong Motion Network (RAN)" insttype="" lat="39.3102" lon="16.2337" esm:processing="manual (Paolucci et al 2011)" esm:quality="good">
		<comp name="--.HNE" depth="0.0">
			<acc value="0.0346229729039883" flag="0"/>
			<vel value="0.0219255697645536" flag="0"/>
			<psa03 value="0.129712561570684" flag="0"/>
			<psa10 value="0.0206148475074862" flag="0"/>
			<psa30 value="0.00189307749042769" flag="0"/>
		</comp>
		<comp name="--.HNN" depth="0.0">
			<acc value="0.0324796261392648" flag="0"/>
			<vel value="0.0238918828925589" flag="0"/>
			<psa03 value="0.0850754066616407" flag="0"/>
			<psa10 value="0.0420179072299927" flag="0"/>
			<psa30 value="0.00182250656544771" flag="0"/>
		</comp>
		<comp name="--.HNZ" depth="0.0">
			<acc value="0.0204842126016835" flag="0"/>
			<vel value="0.0131973071127161" flag="0"/>
			<psa03 value="0.0651994493517635" flag="0"/>
			<psa10 value="0.0127041906527666" flag="0"/>
			<psa30 value="0.00158667708873649" flag="0"/>
		</comp>
	</station>
	<station code="CSSE" name="CSSE" netid="IT" source="Italian Strong Motion Network (RAN)" insttype="" lat="39.3023" lon="16.2494" esm:processing="manual (Paolucci et al 2011)" esm:quality="good">
		<comp name="--.HNE" depth="0.0">
			<acc value="0.0263445456710477" flag="0"/>
			<vel value="0.0183558576369479" flag="0"/>
			<psa03 value="0.0888972119205184" flag="0"/>
			<psa10 value="0.0270093529870625" flag="0"/>
			<psa30 value="0.00143078801184879" flag="0"/>
		</comp>
		<comp name="--.HNN" depth="0.0">
			<acc value="0.0333361176737469" flag="0"/>
			<vel value="0.0231269457643331" flag="0"/>
			<psa03 value="0.0819784150427146" flag="0"/>
			<psa10 value="0.036242539640385" flag="0"/>
			<psa30 value="0.00140194453861214" flag="0"/>
		</comp>
		<comp name="--.HNZ" depth="0.0">
			<acc value="0.0180159178508942" flag="0"/>
			<vel value="0.00894148304861298" flag="0"/>
			<psa03 value="0.0480442399868219" flag="0"/>
			<psa10 value="0.0145591272832206" flag="0"/>
			<psa30 value="0.0010040675562146" flag="0"/>
		</comp>
	</station>
	<station code="CTZ" name="CTZ" netid="IT" source="Italian Strong Motion Network (RAN)" insttype="" lat="38.9407" lon="16.5851" esm:processing="manual (Paolucci et al 2011)" esm:quality="good">
		<comp name="--.HGE" depth="0.0">
			<acc value="0.0423559857206984" flag="0"/>
			<vel value="0.0235913357700528" flag="0"/>
			<psa03 value="0.178104736064671" flag="0"/>
			<psa10 value="0.0465376766427519" flag="0"/>
			<psa30 value="0.00174131191586945" flag="0"/>
		</comp>
		<comp name="--.HGN" depth="0.0">
			<acc value="0.0320072241554899" flag="0"/>
			<vel value="0.0211931797450056" flag="0"/>
			<psa03 value="0.0988595489598009" flag="0"/>
			<psa10 value="0.0361526236838901" flag="0"/>
			<psa30 value="0.00147610372212521" flag="0"/>
		</comp>
		<comp name="--.HGZ" depth="0.0">
			<acc value="0.0319758904920911" flag="0"/>
			<vel value="0.020523157938442" flag="0"/>
			<psa03 value="0.0734823626377336" flag="0"/>
			<psa10 value="0.028407959387875" flag="0"/>
			<psa30 value="0.00106144646145429" flag="0"/>
		</comp>
	</station>
	<station code="DNMI" name="DNMI" netid="IT" source="Italian Strong Motion Network (RAN)" insttype="" lat="38.5315" lon="16.1448" esm:processing="manual (Paolucci et al 2011)" esm:quality="good">
		<comp name="--.HGE" depth="0.0">
			<acc value="0.0202458853245889" flag="0"/>
			<vel value="0.0195010705243699" flag="0"/>
			<psa03 value="0.0480038310597827" flag="0"/>
			<psa10 value="0.0414760338335645" flag="0"/>
			<psa30 value="0.00138340070600586" flag="0"/>
		</comp>
		<comp name="--.HGN" depth="0.0">
			<acc value="0.018165477925342" flag="0"/>
			<vel value="0.0160111533202962" flag="0"/>
			<psa03 value="0.043551327770065" flag="0"/>
			<psa10 value="0.0317480994057651" flag="0"/>
			<psa30 value="0.00153774697235773" flag="0"/>
		</comp>
		<comp name="--.HGZ" depth="0.0">
			<acc value="0.0110196906812315" flag="0"/>
			<vel value="0.00829290844781507" flag="0"/>
			<psa03 value="0.0304990594755054" flag="0"/>
			<psa10 value="0.0096628919941896" flag="0"/>
			<psa30 value="0.000682497503778844" flag="0"/>
		</comp>
	</station>
	<station code="FDF" name="FDF" netid="IT" source="Italian Strong Motion Network (RAN)" insttype="" lat="38.7891" lon="16.3" esm:processing="manual (Paolucci et al 2011)" esm:quality="good">
		<comp name="--.HGE" depth="0.0">
			<acc value="0.0189631973060301" flag="0"/>
			<vel value="0.0124605970479623" flag="0"/>
			<psa03 value="0.0998257796344995" flag="0"/>
			<psa10 value="0.00743195404923149" flag="0"/>
			<psa30 value="0.000769902460592167" flag="0"/>
		</comp>
		<comp name="--.HGN" depth="0.0">
			<acc value="0.0232122054815152" flag="0"/>
			<vel value="0.0105372190858612" flag="0"/>
			<psa03 value="0.0779408819509963" flag="0"/>
			<psa10 value="0.0114769321654384" flag="0"/>
			<psa30 value="0.000754778125345064" flag="0"/>
		</comp>
		<comp name="--.HGZ" depth="0.0">
			<acc value="0.0144960337890051" flag="0"/>
			<vel value="0.00460129655799692" flag="0"/>
			<psa03 value="0.023349486893092" flag="0"/>
			<psa10 value="0.00284000735529924" flag="0"/>
			<psa30 value="0.000373114769105538" flag="0"/>
		</comp>
	</station>
	<station code="GNL" name="GNL" netid="IT" source="Italian Strong Motion Network (RAN)" insttype="" lat="40.8433" lon="16.0331" esm:processing="manual (Paolucci et al 2011)" esm:quality="good">
		<comp name="--.HGE" depth="0.0">
			<acc value="0.0141322220585641" flag="0"/>
			<vel value="0.00670358961114375" flag="0"/>
			<psa03 value="0.0498837368444159" flag="0"/>
			<psa10 value="0.00775742920411328" flag="0"/>
			<psa30 value="0.00176366662592501" flag="0"/>
		</comp>
		<comp name="--.HGN" depth="0.0">
			<acc value="0.0125705996512087" flag="0"/>
			<vel value="0.0068819756970774" flag="0"/>
			<psa03 value="0.0494402543408766" flag="0"/>
			<psa10 value="0.0102235325713584" flag="0"/>
			<psa30 value="0.00110704687808924" flag="0"/>
		</comp>
		<comp name="--.HGZ" depth="0.0">
			<acc value="0.00526553318781425" flag="0"/>
			<vel value="0.00287537986377818" flag="0"/>
			<psa03 value="0.009371215198057" flag="0"/>
			<psa10 value="0.00635866482408789" flag="0"/>
			<psa30 value="0.000836933932348892" flag="0"/>
		</comp>
	</station>
	<station code="LCCE" name="LCCE" netid="IT" source="Italian Strong Motion Network (RAN)" insttype="" lat="40.3559" lon="18.1996" esm:processing="automatic (Paolucci et al 2011)" esm:quality="best">
		<comp name="--.HNE" depth="0.0">
			<acc value="0.0404321360233296" flag="0"/>
			<vel value="0.0266348912237787" flag="0"/>
			<psa03 value="0.120408330627603" flag="0"/>
			<psa10 value="0.0355589668570247" flag="0"/>
			<psa30 value="0.00124404678699335" flag="0"/>
		</comp>
		<comp name="--.HNN" depth="0.0">
			<acc value="0.0425252267198324" flag="0"/>
			<vel value="0.0255376741983765" flag="0"/>
			<psa03 value="0.140295752238451" flag="0"/>
			<psa10 value="0.0247324965315143" flag="0"/>
			<psa30 value="0.00103164177870397" flag="0"/>
		</comp>
		<comp name="--.HNZ" depth="0.0">
			<acc value="0.0295116783885496" flag="0"/>
			<vel value="0.0104752012894065" flag="0"/>
