<?xml version="1.0" encoding="UTF-8" standalone="yes"?>
<!DOCTYPE earthquake SYSTEM "stationlist.dtd">
<stationlist created="" xmlns="ch.ethz.sed.shakemap.usgs.xml">
  <station code="CAR1" name="CAR1" netid="IV" insttype="" lat="39.2534" lon="16.2114">
    <comp name="--.HHE">
      <acc value="0.0168769221" flag="0"/>
      <vel value="0.0148501523" flag="0"/>
      <psa03 value="0.0649652260" flag="0"/>
      <psa10 value="0.0175864357" flag="0"/>
      <psa30 value="0.0012137244" flag="0"/>
    </comp>
    <comp name="--.HHN">
      <acc value="0.0182430750" flag="0"/>
      <vel value="0.0167684928" flag="0"/>
      <psa03 value="0.0536853179" flag="0"/>
      <psa10 value="0.0176763806" flag="0"/>
      <psa30 value="0.0009535014" flag="0"/>
    </comp>
    <comp name="--.HHZ">
      <acc value="0.0118247441" flag="0"/>
      <vel value="0.0061320536" flag="0"/>
      <psa03 value="0.0401095731" flag="0"/>
      <psa10 value="0.0100169795" flag="0"/>
      <psa30 value="0.0011497217" flag="0"/>
    </comp>
  </station>
  <station code="CELI" name="CELI" netid="IV" insttype="" lat="39.4027" lon="16.5088">
    <comp name="--.HHE">
      <acc value="0.0196631300" flag="0"/>
      <vel value="0.0122464585" flag="0"/>
      <psa03 value="0.0700646807" flag="0"/>
      <psa10 value="0.0107531873" flag="0"/>
      <psa30 value="0.0019218838" flag="0"/>
    </comp>
    <comp name="--.HHN">
      <acc value="0.0168789085" flag="0"/>
      <vel value="0.0119855641" flag="0"/>
      <psa03 value="0.0548639035" flag="0"/>
      <psa10 value="0.0133331870" flag="0"/>
      <psa30 value="0.0016747548" flag="0"/>
    </comp>
    <comp name="--.HHZ">
      <acc value="0.0133213279" flag="0"/>
      <vel value="0.0112331898" flag="0"/>
      <psa03 value="0.0449677462" flag="0"/>
      <psa10 value="0.0075376909" flag="0"/>
      <psa30 value="0.0009995359" flag="0"/>
    </comp>
  </station>
  <station code="CET2" name="CET2" netid="IV" insttype="" lat="39.5288" lon="15.9546">
    <comp name="--.HHE">
      <acc value="0.0150317453" flag="0"/>
      <vel value="0.0127255123" flag="0"/>
      <psa03 value="0.0237743519" flag="0"/>
      <psa10 value="0.0189381131" flag="0"/>
      <psa30 value="0.0008448185" flag="0"/>
    </comp>
    <comp name="--.HHZ">
      <acc value="0.0133806299" flag="0"/>
      <vel value="0.0078320050" flag="0"/>
      <psa03 value="0.0217585018" flag="0"/>
      <psa10 value="0.0093973893" flag="0"/>
      <psa30 value="0.0007917624" flag="0"/>
    </comp>
    <comp name="--.HHN">
      <acc value="0.0283371764" flag="0"/>
      <vel value="0.0181683043" flag="0"/>
      <psa03 value="0.0640086024" flag="0"/>
      <psa10 value="0.0325455914" flag="0"/>
      <psa30 value="0.0014190997" flag="0"/>
    </comp>
  </station>
  <station code="GIZZ" name="GIZZ" netid="IV" insttype="" lat="38.9798" lon="16.2078">
    <comp name="--.HHE">
      <acc value="0.0229795859" flag="0"/>
      <vel value="0.0114600248" flag="0"/>
      <psa03 value="0.0718885370" flag="0"/>
      <psa10 value="0.0126924367" flag="0"/>
      <psa30 value="0.0007760663" flag="0"/>
    </comp>
    <comp name="--.HHN">
      <acc value="0.0205201116" flag="0"/>
      <vel value="0.0082896439" flag="0"/>
      <psa03 value="0.0527065457" flag="0"/>
      <psa10 value="0.0107386409" flag="0"/>
      <psa30 value="0.0007977905" flag="0"/>
    </comp>
    <comp name="--.HHZ">
      <acc value="0.0143076517" flag="0"/>
      <vel value="0.0042175074" flag="0"/>
      <psa03 value="0.0285430705" flag="0"/>
      <psa10 value="0.0061263972" flag="0"/>
      <psa30 value="0.0003543973" flag="0"/>
    </comp>
  </station>
  <station code="GRIS" name="GRIS" netid="IV" insttype="" lat="39.7405" lon="15.8531">
    <comp name="--.HNE">
      <acc value="0.0081425384" flag="0"/>
      <vel value="0.0058518283" flag="0"/>
      <psa03 value="0.0178071053" flag="0"/>
      <psa10 value="0.0074043456" flag="0"/>
      <psa30 value="0.0016589590" flag="0"/>
    </comp>
    <comp name="--.HNN">
      <acc value="0.0080918751" flag="0"/>
      <vel value="0.0081878013" flag="0"/>
      <psa03 value="0.0213979471" flag="0"/>
      <psa10 value="0.0125859858" flag="0"/>
      <psa30 value="0.0014186070" flag="0"/>
    </comp>
    <comp name="--.HNZ">
      <acc value="0.0069619454" flag="0"/>
      <vel value="0.0031281840" flag="0"/>
      <psa03 value="0.0150094695" flag="0"/>
      <psa10 value="0.0067093150" flag="0"/>
      <psa30 value="0.0007762978" flag="0"/>
    </comp>
  </station>
  <station code="MMN" name="MMN" netid="IV" insttype="" lat="39.891" lon="15.9904">
    <comp name="--.HHE">
      <acc value="0.0092482934" flag="0"/>
      <vel value="0.0039539322" flag="0"/>
      <psa03 value="0.0286165058" flag="0"/>
      <psa10 value="0.0062895990" flag="0"/>
      <psa30 value="0.0010342817" flag="0"/>
    </comp>
    <comp name="--.HHN">
      <acc value="0.0139962124" flag="0"/>
      <vel value="0.0067789035" flag="0"/>
      <psa03 value="0.0364744523" flag="0"/>
      <psa10 value="0.0102134801" flag="0"/>
      <psa30 value="0.0010653417" flag="0"/>
    </comp>
    <comp name="--.HHZ">
      <acc value="0.0070791579" flag="0"/>
      <vel value="0.0038021163" flag="0"/>
      <psa03 value="0.0229231642" flag="0"/>
      <psa10 value="0.0054009363" flag="0"/>
      <psa30 value="0.0006196147" flag="0"/>
    </comp>
  </station>
  <station code="ORI" name="ORI" netid="IV" insttype="" lat="40.051" lon="16.4504">
    <comp name="--.HHE">
      <acc value="0.0311701129" flag="0"/>
      <vel value="0.0201085029" flag="0"/>
      <psa03 value="0.1139202301" flag="0"/>
      <psa10 value="0.0148591474" flag="0"/>
      <psa30 value="0.0007765211" flag="0"/>
    </comp>
    <comp name="--.HHN">
      <acc value="0.0302964007" flag="0"/>
      <vel value="0.0186415204" flag="0"/>
      <psa03 value="0.0948052383" flag="0"/>
      <psa10 value="0.0114573365" flag="0"/>
      <psa30 value="0.0009603652" flag="0"/>
    </comp>
    <comp name="--.HHZ">
      <acc value="0.0121387612" flag="0"/>
      <vel value="0.0055849136" flag="0"/>
      <psa03 value="0.0429208606" flag="0"/>
      <psa10 value="0.0035088512" flag="0"/>
      <psa30 value="0.0004748169" flag="0"/>
    </comp>
  </station>
  <station code="PIPA" name="PIPA" netid="IV" insttype="" lat="39.4851" lon="16.8158">
    <comp name="--.HHE">
      <acc value="0.3512338682" flag="0"/>
      <vel value="0.1795256333" flag="0"/>
      <psa03 value="0.8071723095" flag="0"/>
      <psa10 value="0.0667973141" flag="0"/>
      <psa30 value="0.0053832138" flag="0"/>
    </comp>
    <comp name="--.HHZ">
      <acc value="0.2402841079" flag="0"/>
      <vel value="0.0774343056" flag="0"/>
      <psa03 value="0.4634528676" flag="0"/>
      <psa10 value="0.0279152779" flag="0"/>
      <psa30 value="0.0022737463" flag="0"/>
    </comp>
    <comp name="--.HHN">
      <acc value="0.2246956927" flag="0"/>
      <vel value="0.0785069077" flag="0"/>
      <psa03 value="0.4572690163" flag="0"/>
      <psa10 value="0.0385197021" flag="0"/>
      <psa30 value="0.0043489238" flag="0"/>
    </comp>
  </station>
  <station code="PLAC" name="PLAC" netid="IV" insttype="" lat="38.4494" lon="16.4383">
    <comp name="--.HHN">
      <acc value="0.0038353156" flag="0"/>
      <vel value="0.0032259986" flag="0"/>
      <psa03 value="0.0078077606" flag="0"/>
      <psa10 value="0.0095297760" flag="0"/>
      <psa30 value="0.0003361582" flag="0"/>
    </comp>
    <comp name="--.HHE">
      <acc value="0.0040596250" flag="0"/>
      <vel value="0.0034829512" flag="0"/>
      <psa03 value="0.0099637126" flag="0"/>
      <psa10 value="0.0077715349" flag="0"/>
      <psa30 value="0.0003477852" flag="0"/>
    </comp>
    <comp name="--.HHZ">
      <acc value="0.0027812493" flag="0"/>
      <vel value="0.0019345449" flag="0"/>
      <psa03 value="0.0084354745" flag="0"/>
      <psa10 value="0.0047993749" flag="0"/>
      <psa30 value="0.0002750797" flag="0"/>
    </comp>
  </station>
  <station code="SALB" name="SALB" netid="IV" insttype="" lat="39.8772" lon="16.3459">
    <comp name="--.HHE">
      <acc value="0.0135313401" flag="0"/>
      <vel value="0.0055669673" flag="0"/>
      <psa03 value="0.0470034847" flag="0"/>
      <psa10 value="0.0057003216" flag="0"/>
      <psa30 value="0.0004379745" flag="0"/>
    </comp>
    <comp name="--.HHN">
      <acc value="0.0071433582" flag="0"/>
      <vel value="0.0035114190" flag="0"/>
      <psa03 value="0.0211041279" flag="0"/>
      <psa10 value="0.0035050766" flag="0"/>
      <psa30 value="0.0003555128" flag="0"/>
    </comp>
    <comp name="--.HHZ">
      <acc value="0.0055142098" flag="0"/>
      <vel value="0.0024853505" flag="0"/>
      <psa03 value="0.0164222954" flag="0"/>
      <psa10 value="0.0019624322" flag="0"/>
      <psa30 value="0.0003465451" flag="0"/>
    </comp>
  </station>
  <station code="SELL" name="SELL" netid="IV" insttype="" lat="38.983" lon="16.6279">
    <comp name="--.HHE">
      <acc value="0.0105147080" flag="0"/>
      <vel value="0.0078172632" flag="0"/>
      <psa03 value="0.0268176102" flag="0"/>
      <psa10 value="0.0119498116" flag="0"/>
      <psa30 value="0.0004599455" flag="0"/>
    </comp>
    <comp name="--.HHN">
      <acc value="0.0103579907" flag="0"/>
      <vel value="0.0061469546" flag="0"/>
      <psa03 value="0.0358836328" flag="0"/>
      <psa10 value="0.0052808505" flag="0"/>
      <psa30 value="0.0003758684" flag="0"/>
    </comp>
    <comp name="--.HHZ">
      <acc value="0.0068365660" flag="0"/>
      <vel value="0.0037240877" flag="0"/>
      <psa03 value="0.0215642324" flag="0"/>
      <psa10 value="0.0055218335" flag="0"/>
      <psa30 value="0.0002710296" flag="0"/>
    </comp>
  </station>
  <station code="SERS" name="SERS" netid="IV" insttype="" lat="39.0359" lon="16.6886">
    <comp name="--.HHE">
      <acc value="0.0243554693" flag="0"/>
      <vel value="0.0121329028" flag="0"/>
      <psa03 value="0.0636191414" flag="0"/>
      <psa10 value="0.0155599971" flag="0"/>
      <psa30 value="0.0013788470" flag="0"/>
    </comp>
    <comp name="--.HHN">
      <acc value="0.0231100580" flag="0"/>
      <vel value="0.0122238661" flag="0"/>
      <psa03 value="0.0828096000" flag="0"/>
      <psa10 value="0.0102100455" flag="0"/>
      <psa30 value="0.0006379381" flag="0"/>
    </comp>
    <comp name="--.HHZ">
      <acc value="0.0187989709" flag="0"/>
      <vel value="0.0074148264" flag="0"/>
      <psa03 value="0.0375745449" flag="0"/>
      <psa10 value="0.0106328741" flag="0"/>
      <psa30 value="0.0005418883" flag="0"/>
    </comp>
  </station>
  <station code="SPS2" name="SPS2" netid="IV" insttype="" lat="39.291" lon="16.3388">
    <comp name="--.HHE">
      <acc value="0.0091946622" flag="0"/>
      <vel value="0.0064593620" flag="0"/>
      <psa03 value="0.0325256996" flag="0"/>
      <psa10 value="0.0094028591" flag="0"/>
      <psa30 value="0.0004396812" flag="0"/>
    </comp>
    <comp name="--.HHN">
      <acc value="0.0094837759" flag="0"/>
      <vel value="0.0063595935" flag="0"/>
      <psa03 value="0.0501497278" flag="0"/>
      <psa10 value="0.0052282954" flag="0"/>
      <psa30 value="0.0004288478" flag="0"/>
    </comp>
    <comp name="--.HHZ">
      <acc value="0.0059069291" flag="0"/>
      <vel value="0.0031871242" flag="0"/>
      <psa03 value="0.0159876325" flag="0"/>
      <psa10 value="0.0038897254" flag="0"/>
      <psa30 value="0.0003024836" flag="0"/>
    </comp>
  </station>
  <station code="TDS" name="TDS" netid="IV" insttype="" lat="39.6601" lon="16.3376">
    <comp name="--.HHE">
      <acc value="0.0043896680" flag="0"/>
      <vel value="0.0033277026" flag="0"/>
      <psa03 value="0.0129613132" flag="0"/>
      <psa10 value="0.0048553684" flag="0"/>
      <psa30 value="0.0007046533" flag="0"/>
    </comp>
    <comp name="--.HHN">
      <acc value="0.0043609611" flag="0"/>
      <vel value="0.0033685465" flag="0"/>
      <psa03 value="0.0124608769" flag="0"/>
      <psa10 value="0.0054928523" flag="0"/>
      <psa30 value="0.0006169917" flag="0"/>
    </comp>
    <comp name="--.HHZ">
      <acc value="0.0060016760" flag="0"/>
      <vel value="0.0033857526" flag="0"/>
      <psa03 value="0.0199046208" flag="0"/>
      <psa10 value="0.0050961500" flag="0"/>
      <psa30 value="0.0007312508" flag="0"/>
    </comp>
  </station>
  <station code="CHCE" name="CHCE" netid="IY" insttype="" lat="38.684" lon="16.4142">
    <comp name="00.HHE">
      <acc value="0.0149628779" flag="0"/>
      <vel value="0.0094859120" flag="0"/>
      <psa03 value="0.0721641570" flag="0"/>
      <psa10 value="0.0044645347" flag="0"/>
      <psa30 value="0.0004592361" flag="0"/>
    </comp>
    <comp name="00.HHN">
      <acc value="0.0153358819" flag="0"/>
      <vel value="0.0094068645" flag="0"/>
      <psa03 value="0.0407443201" flag="0"/>
      <psa10 value="0.0044828884" flag="0"/>
      <psa30 value="0.0004628082" flag="0"/>
    </comp>
    <comp name="00.HHZ">
      <acc value="0.0066985495" flag="0"/>
      <vel value="0.0023954191" flag="0"/>
      <psa03 value="0.0227008281" flag="0"/>
      <psa10 value="0.0024490895" flag="0"/>
      <psa30 value="0.0001464090" flag="0"/>
    </comp>
  </station>
  <station code="SPDC" name="SPDC" netid="IY" insttype="" lat="38.5264" lon="16.1322">
    <comp name="--.HHE">
      <acc value="0.0226167780" flag="0"/>
      <vel value="0.0202184514" flag="0"/>
      <psa03 value="0.0656337295" flag="0"/>
      <psa10 value="0.0183171742" flag="0"/>
      <psa30 value="0.0013452442" flag="0"/>
    </comp>
    <comp name="--.HHN">
      <acc value="0.0123807824" flag="0"/>
      <vel value="0.0096695545" flag="0"/>
      <psa03 value="0.0388041835" flag="0"/>
      <psa10 value="0.0099384961" flag="0"/>
      <psa30 value="0.0007362396" flag="0"/>
    </comp>
    <comp name="--.HHZ">
      <acc value="0.0126727350" flag="0"/>
      <vel value="0.0051516252" flag="0"/>
      <psa03 value="0.0356104676" flag="0"/>
      <psa10 value="0.0042407725" flag="0"/>
      <psa30 value="0.0002967668" flag="0"/>
    </comp>
  </station>
  <station code="CUC" name="CUC" netid="MN" insttype="" lat="39.9938" lon="15.8155">
    <comp name="--.HHE">
      <acc value="0.0060495899" flag="0"/>
      <vel value="0.0049260921" flag="0"/>
      <psa03 value="0.0122242544" flag="0"/>
      <psa10 value="0.0089924767" flag="0"/>
      <psa30 value="0.0004780886" flag="0"/>
    </comp>
    <comp name="--.HHN">
      <acc value="0.0036094790" flag="0"/>
      <vel value="0.0034717619" flag="0"/>
      <psa03 value="0.0117101166" flag="0"/>
      <psa10 value="0.0061062713" flag="0"/>
      <psa30 value="0.0008064391" flag="0"/>
    </comp>
    <comp name="--.HHZ">
      <acc value="0.0035461434" flag="0"/>
      <vel value="0.0020626023" flag="0"/>
      <psa03 value="0.0120361400" flag="0"/>
      <psa10 value="0.0035467305" flag="0"/>
      <psa30 value="0.0004192172" flag="0"/>
    </comp>
  </station>
  <station code="CNESE" name="CNESE" netid="XE" insttype="" lat="39.8941" lon="16.0843">
    <comp name="--.HHE">
      <acc value="0.0057532835" flag="0"/>
      <vel value="0.0043760571" flag="0"/>
      <psa03 value="0.0144403863" flag="0"/>
      <psa10 value="0.0052975640" flag="0"/>
      <psa30 value="0.0014596617" flag="0"/>
    </comp>
    <comp name="--.HHN">
      <acc value="0.0037828008" flag="0"/>
      <vel value="0.0030636191" flag="0"/>
      <psa03 value="0.0112595236" flag="0"/>
      <psa10 value="0.0031342202" flag="0"/>
      <psa30 value="0.0009164672" flag="0"/>
    </comp>
    <comp name="--.HHZ">
      <acc value="0.0039581471" flag="0"/>
      <vel value="0.0029519458" flag="0"/>
      <psa03 value="0.0083098732" flag="0"/>
      <psa10 value="0.0054051976" flag="0"/>
      <psa30 value="0.0005523125" flag="0"/>
    </comp>
  </station>
  <station code="FRASC" name="FRASC" netid="XE" insttype="" lat="39.8381" lon="16.2663">
    <comp name="--.HHE">
      <acc value="0.0061830283" flag="0"/>
      <vel value="0.0044223296" flag="0"/>
      <psa03 value="0.0181474594" flag="0"/>
      <psa10 value="0.0070726788" flag="0"/>
      <psa30 value="0.0004850370" flag="0"/>
    </comp>
    <comp name="--.HHN">
      <acc value="0.0072659853" flag="0"/>
      <vel value="0.0052186292" flag="0"/>
      <psa03 value="0.0169725627" flag="0"/>
      <psa10 value="0.0083278897" flag="0"/>
      <psa30 value="0.0005630689" flag="0"/>
    </comp>
    <comp name="--.HHZ">
      <acc value="0.0045347617" flag="0"/>
      <vel value="0.0026048189" flag="0"/>
      <psa03 value="0.0144024733" flag="0"/>
      <psa10 value="0.0037056837" flag="0"/>
      <psa30 value="0.0004577545" flag="0"/>
    </comp>
  </station>
  <station code="LAICA" name="LAICA" netid="XE" insttype="" lat="39.9485" lon="15.9751">
    <comp name="--.HHE">
      <acc value="0.0058230763" flag="0"/>
      <vel value="0.0059094038" flag="0"/>
      <psa03 value="0.0130431843" flag="0"/>
      <psa10 value="0.0086717580" flag="0"/>
      <psa30 value="0.0014289753" flag="0"/>
    </comp>
    <comp name="--.HHN">
      <acc value="0.0049923250" flag="0"/>
      <vel value="0.0070515577" flag="0"/>
      <psa03 value="0.0144398226" flag="0"/>
      <psa10 value="0.0147940438" flag="0"/>
      <psa30 value="0.0013051525" flag="0"/>
    </comp>
    <comp name="--.HHZ">
      <acc value="0.0042034919" flag="0"/>
      <vel value="0.0046117135" flag="0"/>
      <psa03 value="0.0096322861" flag="0"/>
      <psa10 value="0.0065895987" flag="0"/>
      <psa30 value="0.0004995979" flag="0"/>
    </comp>
  </station>
  <station code="MORMA" name="MORMA" netid="XE" insttype="" lat="39.8699" lon="15.9721">
    <comp name="--.HHE">
      <acc value="0.0073888872" flag="0"/>
      <vel value="0.0084134303" flag="0"/>
      <psa03 value="0.0216398923" flag="0"/>
      <psa10 value="0.0155552531" flag="0"/>
      <psa30 value="0.0021539279" flag="0"/>
    </comp>
    <comp name="--.HHN">
      <acc value="0.0060937326" flag="0"/>
      <vel value="0.0046213538" flag="0"/>
      <psa03 value="0.0190853589" flag="0"/>
      <psa10 value="0.0082910514" flag="0"/>
      <psa30 value="0.0009685044" flag="0"/>
    </comp>
    <comp name="--.HHZ">
      <acc value="0.0091804050" flag="0"/>
      <vel value="0.0039234259" flag="0"/>
      <psa03 value="0.0304167691" flag="0"/>
      <psa10 value="0.0088620696" flag="0"/>
      <psa30 value="0.0007860175" flag="0"/>
    </comp>
  </station>
  <station code="SHEVA" name="SHEVA" netid="XE" insttype="" lat="39.8153" lon="16.1677">
    <comp name="--.HHE">
      <acc value="0.0058220496" flag="0"/>
      <vel value="0.0057742090" flag="0"/>
      <psa03 value="0.0161794465" flag="0"/>
      <psa10 value="0.0082934327" flag="0"/>
      <psa30 value="0.0006799318" flag="0"/>
    </comp>
    <comp name="--.HHZ">
      <acc value="0.0054577288" flag="0"/>
      <vel value="0.0030068421" flag="0"/>
      <psa03 value="0.0247095860" flag="0"/>
      <psa10 value="0.0063963600" flag="0"/>
      <psa30 value="0.0003760561" flag="0"/>
    </comp>
    <comp name="--.HHN">
      <acc value="0.0069528100" flag="0"/>
      <vel value="0.0065899383" flag="0"/>
      <psa03 value="0.0217565448" flag="0"/>
      <psa10 value="0.0083047201" flag="0"/>
      <psa30 value="0.0005735050" flag="0"/>
    </comp>
  </station>
  <station code="TNOVA" name="TNOVA" netid="XE" insttype="" lat="39.9747" lon="16.2611">
    <comp name="--.HHN">
      <acc value="0.0070014111" flag="0"/>
      <vel value="0.0034936631" flag="0"/>
      <psa03 value="0.0260854097" flag="0"/>
      <psa10 value="0.0034362705" flag="0"/>
      <psa30 value="0.0003122844" flag="0"/>
    </comp>
    <comp name="--.HHE">
      <acc value="0.0072744410" flag="0"/>
      <vel value="0.0038128602" flag="0"/>
      <psa03 value="0.0227690119" flag="0"/>
      <psa10 value="0.0063716265" flag="0"/>
      <psa30 value="0.0003134962" flag="0"/>
    </comp>
