<?xml version="1.0" encoding="UTF-8" standalone="yes"?>
<!DOCTYPE earthquake SYSTEM "stationlist.dtd">
<stationlist created="" xmlns="ch.ethz.sed.shakemap.usgs.xml">
  <station code="KARO" name="KARO" netid="KO" insttype="120s," lat="39.3089" lon="41.0493">
    <comp name="--.HHE">
      <acc value="0.1751322223" flag="0"/>
      <vel value="0.1576902760" flag="0"/>
      <psa03 value="0.4819730789" flag="0"/>
      <psa10 value="0.1499196380" flag="0"/>
      <psa30 value="0.0202371134" flag="0"/>
    </comp>
    <comp name="--.HHN">
      <acc value="0.1030264331" flag="0"/>
      <vel value="0.0853228270" flag="0"/>
      <psa03 value="0.2799990841" flag="0"/>
      <psa10 value="0.0753979279" flag="0"/>
      <psa30 value="0.0055408411" flag="0"/>
    </comp>
    <comp name="--.HHZ">
      <acc value="0.0815681405" flag="0"/>
      <vel value="0.0398879855" flag="0"/>
      <psa03 value="0.1480867646" flag="0"/>
      <psa10 value="0.0489712604" flag="0"/>
      <psa30 value="0.0084903246" flag="0"/>
    </comp>
  </station>
  <station code="KOPR" name="KOPR" netid="KO" insttype="120s," lat="39.9917" lon="41.8535">
    <comp name="--.HHE">
      <acc value="0.0070641622" flag="0"/>
      <vel value="0.0089676999" flag="0"/>
      <psa03 value="0.0243241141" flag="0"/>
      <psa10 value="0.0134449537" flag="0"/>
      <psa30 value="0.0023498587" flag="0"/>
    </comp>
    <comp name="--.HHZ">
      <acc value="0.0063553318" flag="0"/>
      <vel value="0.0057137714" flag="0"/>
      <psa03 value="0.0176339394" flag="0"/>
      <psa10 value="0.0099552690" flag="0"/>
      <psa30 value="0.0018298337" flag="0"/>
    </comp>
    <comp name="--.HHN">
      <acc value="0.0074665863" flag="0"/>
      <vel value="0.0078839323" flag="0"/>
      <psa03 value="0.0220109908" flag="0"/>
      <psa10 value="0.0182057837" flag="0"/>
      <psa30 value="0.0016220404" flag="0"/>
    </comp>
  </station>
</stationlist>
