<?xml version="1.0" encoding="UTF-8" standalone="yes"?>
<!DOCTYPE earthquake SYSTEM "stationlist.dtd">
<stationlist created="" xmlns="ch.ethz.sed.shakemap.usgs.xml">
  <station code="KSP" name="KSP" netid="PL" insttype="STS-2/N" lat="50.8428" lon="16.2931">
    <comp name="--.HHE">
      <acc value="0.0053062759" flag="0"/>
      <vel value="0.0016189374" flag="0"/>
      <psa03 value="0.0131756194" flag="0"/>
      <psa10 value="0.0008277530" flag="0"/>
      <psa30 value="0.0004048629" flag="0"/>
    </comp>
    <comp name="--.HHN">
      <acc value="0.0062939838" flag="0"/>
      <vel value="0.0031845260" flag="0"/>
      <psa03 value="0.0142341976" flag="0"/>
      <psa10 value="0.0015669835" flag="0"/>
      <psa30 value="0.0007720889" flag="0"/>
    </comp>
    <comp name="--.HHZ">
      <acc value="0.0064654068" flag="0"/>
      <vel value="0.0033864033" flag="0"/>
      <psa03 value="0.0117020589" flag="0"/>
      <psa10 value="0.0017005068" flag="0"/>
      <psa30 value="0.0007643751" flag="0"/>
    </comp>
  </station>
</stationlist>
