<?xml version="1.0" encoding="UTF-8" standalone="yes"?>
<!DOCTYPE earthquake SYSTEM "stationlist.dtd">
<stationlist created="" xmlns="ch.ethz.sed.shakemap.usgs.xml">
  <station code="KLV" name="KLV" netid="MN" insttype="" lat="38.0437" lon="22.1504">
    <comp name="--.HHN">
      <acc value="0.1161831476" flag="0"/>
      <vel value="0.0286955436" flag="0"/>
      <psa03 value="0.1184668625" flag="0"/>
      <psa10 value="0.0231187864" flag="0"/>
      <psa30 value="0.0034605615" flag="0"/>
    </comp>
    <comp name="--.HHZ">
      <acc value="0.1364515748" flag="0"/>
      <vel value="0.0359716823" flag="0"/>
      <psa03 value="0.1331186119" flag="0"/>
      <psa10 value="0.0320320452" flag="0"/>
      <psa30 value="0.0049195278" flag="0"/>
    </comp>
    <comp name="--.HHE">
      <acc value="0.1576195521" flag="0"/>
      <vel value="0.0291410678" flag="0"/>
      <psa03 value="0.1859539474" flag="0"/>
      <psa10 value="0.0347562174" flag="0"/>
      <psa30 value="0.0029158668" flag="0"/>
    </comp>
  </station>
</stationlist>
