<?xml version="1.0" encoding="UTF-8" standalone="yes"?>
<!DOCTYPE earthquake SYSTEM "stationlist.dtd">
<stationlist created="" xmlns="ch.ethz.sed.shakemap.usgs.xml">
  <station code="ACOR" name="ACOR" netid="HA" insttype="30" lat="37.8902" lon="22.8692">
    <comp name="--.HHZ">
      <acc value="0.0077413729" flag="0"/>
      <vel value="0.0046425850" flag="0"/>
      <psa03 value="0.0250530277" flag="0"/>
      <psa10 value="0.0057354278" flag="0"/>
      <psa30 value="0.0008539475" flag="0"/>
    </comp>
    <comp name="--.HHN">
      <acc value="0.0411500366" flag="0"/>
      <vel value="0.0367398081" flag="0"/>
      <psa03 value="0.0916157812" flag="0"/>
      <psa10 value="0.0317405500" flag="0"/>
      <psa30 value="0.0056270640" flag="0"/>
    </comp>
    <comp name="--.HHE">
      <acc value="0.0081102903" flag="0"/>
      <vel value="0.0046290941" flag="0"/>
      <psa03 value="0.0242466865" flag="0"/>
      <psa10 value="0.0057023349" flag="0"/>
      <psa30 value="0.0017196101" flag="0"/>
    </comp>
  </station>
  <station code="AIGS" name="AIGS" netid="HA" insttype="DC" lat="38.25" lon="22.0878">
    <comp name="--.HNN">
      <acc value="2.2240990409" flag="0"/>
      <vel value="0.8457887970" flag="0"/>
      <psa03 value="5.0098915868" flag="0"/>
      <psa10 value="0.2359458949" flag="0"/>
      <psa30 value="0.0180013463" flag="0"/>
    </comp>
    <comp name="--.HNZ">
      <acc value="1.9349246268" flag="0"/>
      <vel value="0.2690742774" flag="0"/>
      <psa03 value="0.4861264149" flag="0"/>
      <psa10 value="0.1359994815" flag="0"/>
      <psa30 value="0.0115854556" flag="0"/>
    </comp>
    <comp name="--.HNE">
      <acc value="1.2506829156" flag="0"/>
      <vel value="0.3853176418" flag="0"/>
      <psa03 value="2.3362623459" flag="0"/>
      <psa10 value="0.2090329820" flag="0"/>
      <psa30 value="0.0220810853" flag="0"/>
    </comp>
  </station>
  <station code="AMPE" name="AMPE" netid="HA" insttype="1s-100Hz," lat="38.3015" lon="23.2688">
    <comp name="--.HHE">
      <acc value="0.0145986553" flag="0"/>
      <vel value="0.0140109330" flag="0"/>
      <psa03 value="0.0464624332" flag="0"/>
      <psa10 value="0.0199325575" flag="0"/>
      <psa30 value="0.0026821129" flag="0"/>
    </comp>
    <comp name="--.HHN">
      <acc value="0.0107945832" flag="0"/>
      <vel value="0.0127963768" flag="0"/>
      <psa03 value="0.0322446129" flag="0"/>
      <psa10 value="0.0175998725" flag="0"/>
      <psa30 value="0.0019994541" flag="0"/>
    </comp>
    <comp name="--.HHZ">
      <acc value="0.0067287438" flag="0"/>
      <vel value="0.0066523405" flag="0"/>
      <psa03 value="0.0199383121" flag="0"/>
      <psa10 value="0.0167219882" flag="0"/>
      <psa30 value="0.0010721857" flag="0"/>
    </comp>
  </station>
  <station code="ATAL" name="ATAL" netid="HA" insttype="120" lat="38.6926" lon="23.0213">
    <comp name="--.HHE">
      <acc value="0.0122428323" flag="0"/>
      <vel value="0.0101179739" flag="0"/>
      <psa03 value="0.0240085825" flag="0"/>
      <psa10 value="0.0184750770" flag="0"/>
      <psa30 value="0.0023470788" flag="0"/>
    </comp>
    <comp name="--.HHN">
      <acc value="0.0231938350" flag="0"/>
      <vel value="0.0189905755" flag="0"/>
      <psa03 value="0.0471681117" flag="0"/>
      <psa10 value="0.0287709502" flag="0"/>
      <psa30 value="0.0037299471" flag="0"/>
    </comp>
    <comp name="--.HHZ">
      <acc value="0.0045286125" flag="0"/>
      <vel value="0.0026071579" flag="0"/>
      <psa03 value="0.0084169079" flag="0"/>
      <psa10 value="0.0047677335" flag="0"/>
      <psa30 value="0.0007974297" flag="0"/>
    </comp>
  </station>
  <station code="AXAR" name="AXAR" netid="HA" insttype="30" lat="38.7664" lon="22.659">
    <comp name="--.HHN">
      <acc value="0.0192810753" flag="0"/>
      <vel value="0.0115617423" flag="0"/>
      <psa03 value="0.0636681637" flag="0"/>
      <psa10 value="0.0233688286" flag="0"/>
      <psa30 value="0.0013055557" flag="0"/>
    </comp>
    <comp name="--.HHE">
      <acc value="0.0284979775" flag="0"/>
      <vel value="0.0106509758" flag="0"/>
      <psa03 value="0.0912761074" flag="0"/>
      <psa10 value="0.0124508452" flag="0"/>
      <psa30 value="0.0007969290" flag="0"/>
    </comp>
    <comp name="--.HHZ">
      <acc value="0.0152326204" flag="0"/>
      <vel value="0.0055215472" flag="0"/>
      <psa03 value="0.0343993952" flag="0"/>
      <psa10 value="0.0089784515" flag="0"/>
      <psa30 value="0.0007814274" flag="0"/>
    </comp>
  </station>
  <station code="CORS" name="CORS" netid="HA" insttype="DC" lat="38.2562" lon="22.0748">
    <comp name="00.HNE">
      <acc value="0.5502436920" flag="0"/>
      <vel value="0.2522478178" flag="0"/>
      <psa03 value="1.0455430467" flag="0"/>
      <psa10 value="0.5010466201" flag="0"/>
      <psa30 value="0.0178537961" flag="0"/>
    </comp>
    <comp name="00.HNZ">
      <acc value="0.3583297386" flag="0"/>
      <vel value="0.1275476021" flag="0"/>
      <psa03 value="1.0923713724" flag="0"/>
      <psa10 value="0.1754508154" flag="0"/>
      <psa30 value="0.0072871574" flag="0"/>
    </comp>
    <comp name="00.HNN">
      <acc value="0.6033435991" flag="0"/>
      <vel value="0.3943219306" flag="0"/>
      <psa03 value="1.6003979118" flag="0"/>
      <psa10 value="0.5122732005" flag="0"/>
      <psa30 value="0.0239521482" flag="0"/>
    </comp>
  </station>
  <station code="DOMV" name="DOMV" netid="HA" insttype="60" lat="38.2569" lon="22.9795">
    <comp name="--.HHN">
      <acc value="0.0456850150" flag="0"/>
      <vel value="0.0217051841" flag="0"/>
      <psa03 value="0.0768127987" flag="0"/>
      <psa10 value="0.0207004818" flag="0"/>
      <psa30 value="0.0013484894" flag="0"/>
    </comp>
    <comp name="--.HHE">
      <acc value="0.0362891246" flag="0"/>
      <vel value="0.0161992108" flag="0"/>
      <psa03 value="0.0633014983" flag="0"/>
      <psa10 value="0.0160077228" flag="0"/>
      <psa30 value="0.0008153766" flag="0"/>
    </comp>
    <comp name="--.HHZ">
      <acc value="0.0277327938" flag="0"/>
      <vel value="0.0104724978" flag="0"/>
      <psa03 value="0.0532376196" flag="0"/>
      <psa10 value="0.0133395404" flag="0"/>
      <psa30 value="0.0008208864" flag="0"/>
    </comp>
  </station>
  <station code="DRES" name="DRES" netid="HA" insttype="DC" lat="38.3197" lon="21.8532">
    <comp name="--.HNN">
      <acc value="1.1920939367" flag="0"/>
      <vel value="0.4460487984" flag="0"/>
      <psa03 value="2.4773171449" flag="0"/>
      <psa10 value="0.3172152988" flag="0"/>
      <psa30 value="0.0191258214" flag="0"/>
    </comp>
    <comp name="--.HNZ">
      <acc value="1.1310604609" flag="0"/>
      <vel value="0.2612531039" flag="0"/>
      <psa03 value="0.8229458216" flag="0"/>
      <psa10 value="0.1974207711" flag="0"/>
      <psa30 value="0.0120686501" flag="0"/>
    </comp>
    <comp name="--.HNE">
      <acc value="1.1289776298" flag="0"/>
      <vel value="0.4879528699" flag="0"/>
      <psa03 value="2.4019388227" flag="0"/>
      <psa10 value="0.3542827534" flag="0"/>
      <psa30 value="0.0239000460" flag="0"/>
    </comp>
  </station>
  <station code="EPID" name="EPID" netid="HA" insttype="30" lat="37.6144" lon="23.1189">
    <comp name="--.HHN">
      <acc value="0.0111517521" flag="0"/>
      <vel value="0.0075320139" flag="0"/>
      <psa03 value="0.0403512025" flag="0"/>
      <psa10 value="0.0124603825" flag="0"/>
      <psa30 value="0.0009196656" flag="0"/>
    </comp>
    <comp name="--.HHE">
      <acc value="0.0163994695" flag="0"/>
      <vel value="0.0068840190" flag="0"/>
      <psa03 value="0.0503581410" flag="0"/>
      <psa10 value="0.0069628446" flag="0"/>
      <psa30 value="0.0006306554" flag="0"/>
    </comp>
    <comp name="--.HHZ">
      <acc value="0.0096865990" flag="0"/>
      <vel value="0.0058268243" flag="0"/>
      <psa03 value="0.0292737127" flag="0"/>
      <psa10 value="0.0058130082" flag="0"/>
      <psa30 value="0.0007768421" flag="0"/>
    </comp>
  </station>
  <station code="KALE" name="KALE" netid="HA" insttype="40," lat="38.3911" lon="22.1398">
    <comp name="--.HHE">
      <acc value="1.0255129293" flag="0"/>
      <vel value="0.4076352050" flag="0"/>
      <psa03 value="1.3789410464" flag="0"/>
      <psa10 value="0.3002596932" flag="0"/>
      <psa30 value="0.0300348199" flag="0"/>
    </comp>
    <comp name="--.HHN">
      <acc value="1.3315936734" flag="0"/>
      <vel value="0.5338685510" flag="0"/>
      <psa03 value="1.3140594969" flag="0"/>
      <psa10 value="0.3234771294" flag="0"/>
      <psa30 value="0.0266881569" flag="0"/>
    </comp>
    <comp name="--.HHZ">
      <acc value="0.6009720612" flag="0"/>
      <vel value="0.1648646187" flag="0"/>
      <psa03 value="0.7707014633" flag="0"/>
      <psa10 value="0.1224769535" flag="0"/>
      <psa30 value="0.0117913017" flag="0"/>
    </comp>
  </station>
  <station code="LAKA" name="LAKA" netid="HA" insttype="120s" lat="38.2401" lon="21.9785">
    <comp name="--.HHN">
      <acc value="0.0004312848" flag="0"/>
      <vel value="0.0001226504" flag="0"/>
      <psa03 value="0.0003958404" flag="0"/>
      <psa10 value="0.0001924215" flag="0"/>
      <psa30 value="0.0000578828" flag="0"/>
    </comp>
    <comp name="--.HHE">
      <acc value="0.0070585205" flag="0"/>
      <vel value="0.0005602204" flag="0"/>
      <psa03 value="0.0008354405" flag="0"/>
      <psa10 value="0.0001855469" flag="0"/>
      <psa30 value="0.0000586862" flag="0"/>
    </comp>
    <comp name="--.HHZ">
      <acc value="0.4861910786" flag="0"/>
      <vel value="0.1063898514" flag="0"/>
      <psa03 value="0.4163659982" flag="0"/>
      <psa10 value="0.0975770556" flag="0"/>
      <psa30 value="0.0090873012" flag="0"/>
    </comp>
  </station>
  <station code="LOUT" name="LOUT" netid="HA" insttype="30" lat="37.9879" lon="22.9743">
    <comp name="--.HHE">
      <acc value="0.0218488157" flag="0"/>
      <vel value="0.0139509007" flag="0"/>
      <psa03 value="0.0642494652" flag="0"/>
      <psa10 value="0.0213520825" flag="0"/>
      <psa30 value="0.0014050597" flag="0"/>
    </comp>
    <comp name="--.HHZ">
      <acc value="0.0125774708" flag="0"/>
      <vel value="0.0072748473" flag="0"/>
      <psa03 value="0.0290101390" flag="0"/>
      <psa10 value="0.0105431279" flag="0"/>
      <psa30 value="0.0012897837" flag="0"/>
    </comp>
    <comp name="--.HHN">
      <acc value="0.0105780616" flag="0"/>
      <vel value="0.0035825670" flag="0"/>
      <psa03 value="0.0158011729" flag="0"/>
      <psa10 value="0.0020831895" flag="0"/>
      <psa30 value="0.0001828499" flag="0"/>
    </comp>
  </station>
  <station code="MDRA" name="MDRA" netid="HA" insttype="60" lat="38.0606" lon="23.4662">
    <comp name="--.HHE">
      <acc value="0.0034932684" flag="0"/>
      <vel value="0.0024493255" flag="0"/>
      <psa03 value="0.0106169443" flag="0"/>
      <psa10 value="0.0027881269" flag="0"/>
      <psa30 value="0.0002125016" flag="0"/>
    </comp>
    <comp name="--.HHN">
      <acc value="0.0038496779" flag="0"/>
      <vel value="0.0029785385" flag="0"/>
      <psa03 value="0.0124261383" flag="0"/>
      <psa10 value="0.0036118242" flag="0"/>
      <psa30 value="0.0003243726" flag="0"/>
    </comp>
    <comp name="--.HHZ">
      <acc value="0.0045399743" flag="0"/>
      <vel value="0.0036683356" flag="0"/>
      <psa03 value="0.0085800402" flag="0"/>
      <psa10 value="0.0049168016" flag="0"/>
      <psa30 value="0.0004798165" flag="0"/>
    </comp>
  </station>
  <station code="MRKA" name="MRKA" netid="HA" insttype="30" lat="38.7047" lon="23.5863">
    <comp name="--.HHE">
      <acc value="0.0054228278" flag="0"/>
      <vel value="0.0078802670" flag="0"/>
      <psa03 value="0.0143857326" flag="0"/>
      <psa10 value="0.0120177842" flag="0"/>
      <psa30 value="0.0020671645" flag="0"/>
    </comp>
    <comp name="--.HHZ">
      <acc value="0.0042474116" flag="0"/>
      <vel value="0.0046726881" flag="0"/>
      <psa03 value="0.0095661733" flag="0"/>
      <psa10 value="0.0052645282" flag="0"/>
      <psa30 value="0.0008925127" flag="0"/>
    </comp>
    <comp name="--.HHN">
      <acc value="0.0046375044" flag="0"/>
      <vel value="0.0040695689" flag="0"/>
      <psa03 value="0.0153486283" flag="0"/>
      <psa10 value="0.0069275691" flag="0"/>
      <psa30 value="0.0007769880" flag="0"/>
    </comp>
  </station>
  <station code="STFN" name="STFN" netid="HA" insttype="1s-100Hz," lat="38.1766" lon="23.544">
    <comp name="--.HHE">
      <acc value="0.0088483880" flag="0"/>
      <vel value="0.0079351846" flag="0"/>
      <psa03 value="0.0179471378" flag="0"/>
      <psa10 value="0.0131539565" flag="0"/>
      <psa30 value="0.0010107212" flag="0"/>
    </comp>
    <comp name="--.HHZ">
      <acc value="0.0058639109" flag="0"/>
      <vel value="0.0067985728" flag="0"/>
      <psa03 value="0.0121163514" flag="0"/>
      <psa10 value="0.0131710974" flag="0"/>
      <psa30 value="0.0015243549" flag="0"/>
    </comp>
    <comp name="--.HHN">
      <acc value="0.0084838405" flag="0"/>
      <vel value="0.0060525362" flag="0"/>
      <psa03 value="0.0206700196" flag="0"/>
      <psa10 value="0.0099098732" flag="0"/>
      <psa30 value="0.0010815921" flag="0"/>
    </comp>
  </station>
  <station code="THAL" name="THAL" netid="HA" insttype="30" lat="38.0357" lon="22.6634">
    <comp name="--.HHZ">
      <acc value="0.0580813551" flag="0"/>
      <vel value="0.0252100611" flag="0"/>
      <psa03 value="0.0753433470" flag="0"/>
      <psa10 value="0.0200829741" flag="0"/>
      <psa30 value="0.0013391342" flag="0"/>
    </comp>
    <comp name="--.HHN">
      <acc value="0.0787538381" flag="0"/>
      <vel value="0.0322104936" flag="0"/>
      <psa03 value="0.1701321581" flag="0"/>
      <psa10 value="0.0533782819" flag="0"/>
      <psa30 value="0.0020911292" flag="0"/>
    </comp>
    <comp name="--.HHE">
      <acc value="0.0873872490" flag="0"/>
      <vel value="0.0407236288" flag="0"/>
      <psa03 value="0.1669310594" flag="0"/>
      <psa10 value="0.0418948525" flag="0"/>
      <psa30 value="0.0029161837" flag="0"/>
    </comp>
  </station>
  <station code="THIV" name="THIV" netid="HA" insttype="1s-100Hz," lat="38.299" lon="23.332">
    <comp name="--.HHN">
      <acc value="0.0307194917" flag="0"/>
      <vel value="0.0245667540" flag="0"/>
      <psa03 value="0.0571989946" flag="0"/>
      <psa10 value="0.0415917620" flag="0"/>
      <psa30 value="0.0025403073" flag="0"/>
    </comp>
    <comp name="--.HHE">
      <acc value="0.0294502199" flag="0"/>
      <vel value="0.0211716772" flag="0"/>
      <psa03 value="0.0332239162" flag="0"/>
      <psa10 value="0.0276298427" flag="0"/>
      <psa30 value="0.0028837858" flag="0"/>
    </comp>
    <comp name="--.HHZ">
      <acc value="0.0264588169" flag="0"/>
      <vel value="0.0108848018" flag="0"/>
      <psa03 value="0.0315258789" flag="0"/>
      <psa10 value="0.0198693965" flag="0"/>
      <psa30 value="0.0030196568" flag="0"/>
    </comp>
  </station>
  <station code="VILL" name="VILL" netid="HA" insttype="30" lat="38.1642" lon="23.3122">
    <comp name="--.HHZ">
      <acc value="0.0138044185" flag="0"/>
      <vel value="0.0103732287" flag="0"/>
      <psa03 value="0.0278730491" flag="0"/>
      <psa10 value="0.0143014803" flag="0"/>
      <psa30 value="0.0012723700" flag="0"/>
    </comp>
    <comp name="--.HHE">
      <acc value="0.0183400983" flag="0"/>
      <vel value="0.0256867565" flag="0"/>
      <psa03 value="0.0397709357" flag="0"/>
      <psa10 value="0.0301920666" flag="0"/>
      <psa30 value="0.0019683255" flag="0"/>
    </comp>
    <comp name="--.HHN">
      <acc value="0.0176029272" flag="0"/>
      <vel value="0.0134358669" flag="0"/>
      <psa03 value="0.0407523953" flag="0"/>
      <psa10 value="0.0162201550" flag="0"/>
      <psa30 value="0.0011716308" flag="0"/>
    </comp>
  </station>
  <station code="KLV1" name="KLV1" netid="HI" insttype="CMG-5TD,ACCELEROMETER,GURALP" lat="38.0326" lon="22.108">
    <comp name="--.HNZ">
      <acc value="0.2504759494" flag="0"/>
      <vel value="0.0834710839" flag="0"/>
      <psa03 value="0.2570743682" flag="0"/>
      <psa10 value="0.1185051345" flag="0"/>
      <psa30 value="0.0051955555" flag="0"/>
    </comp>
    <comp name="--.HNN">
      <acc value="0.3502482389" flag="0"/>
      <vel value="0.1737817435" flag="0"/>
      <psa03 value="0.9140241145" flag="0"/>
      <psa10 value="0.1142099099" flag="0"/>
      <psa30 value="0.0068121442" flag="0"/>
    </comp>
    <comp name="--.HNE">
      <acc value="0.4024987726" flag="0"/>
      <vel value="0.1603507170" flag="0"/>
      <psa03 value="1.2004288922" flag="0"/>
      <psa10 value="0.1852841724" flag="0"/>
      <psa30 value="0.0065086499" flag="0"/>
    </comp>
  </station>
  <station code="KRI1" name="KRI1" netid="HI" insttype="CMG-5TD,ACCELEROMETER,GURALP" lat="37.6621" lon="20.8172">
    <comp name="--.HNZ">
      <acc value="0.0180660081" flag="0"/>
      <vel value="0.0100921074" flag="0"/>
      <psa03 value="0.0321759646" flag="0"/>
      <psa10 value="0.0098565079" flag="0"/>
      <psa30 value="0.0005458750" flag="0"/>
    </comp>
    <comp name="--.HNE">
      <acc value="0.0203984885" flag="0"/>
      <vel value="0.0138163307" flag="0"/>
      <psa03 value="0.0524390348" flag="0"/>
      <psa10 value="0.0141621794" flag="0"/>
      <psa30 value="0.0011582057" flag="0"/>
    </comp>
    <comp name="--.HNN">
      <acc value="0.0206861699" flag="0"/>
      <vel value="0.0155907454" flag="0"/>
      <psa03 value="0.0662076627" flag="0"/>
      <psa10 value="0.0252220715" flag="0"/>
      <psa30 value="0.0011970566" flag="0"/>
    </comp>
  </station>
  <station code="MSL1" name="MSL1" netid="HI" insttype="CMG-5TD,ACCELEROMETER,GURALP" lat="38.3727" lon="21.4243">
    <comp name="--.HNE">
      <acc value="0.1684206008" flag="0"/>
      <vel value="0.1023141321" flag="0"/>
      <psa03 value="0.4239060182" flag="0"/>
      <psa10 value="0.2079907508" flag="0"/>
      <psa30 value="0.0094863100" flag="0"/>
    </comp>
    <comp name="--.HNZ">
      <acc value="0.1117391986" flag="0"/>
      <vel value="0.0516742737" flag="0"/>
      <psa03 value="0.2181534968" flag="0"/>
      <psa10 value="0.1334886816" flag="0"/>
      <psa30 value="0.0039445353" flag="0"/>
    </comp>
    <comp name="--.HNN">
      <acc value="0.1677813026" flag="0"/>
      <vel value="0.1021991479" flag="0"/>
      <psa03 value="0.5312482252" flag="0"/>
      <psa10 value="0.1812231293" flag="0"/>
      <psa30 value="0.0073579888" flag="0"/>
    </comp>
  </station>
  <station code="DLFA" name="DLFA" netid="HL" insttype="CMG-5" lat="38.4784" lon="22.4958">
    <comp name="00.HNE">
      <acc value="0.1078205683" flag="0"/>
      <vel value="0.0553810414" flag="0"/>
      <psa03 value="0.2063665670" flag="0"/>
      <psa10 value="0.0437154132" flag="0"/>
      <psa30 value="0.0028197963" flag="0"/>
    </comp>
    <comp name="00.HNN">
      <acc value="0.1190976918" flag="0"/>
      <vel value="0.0475623751" flag="0"/>
      <psa03 value="0.1791791120" flag="0"/>
      <psa10 value="0.0475654276" flag="0"/>
      <psa30 value="0.0045680253" flag="0"/>
    </comp>
    <comp name="00.HNZ">
      <acc value="0.0792137422" flag="0"/>
      <vel value="0.0266575141" flag="0"/>
      <psa03 value="0.1348607751" flag="0"/>
      <psa10 value="0.0210047911" flag="0"/>
      <psa30 value="0.0015470113" flag="0"/>
    </comp>
  </station>
  <station code="EVR" name="EVR" netid="HL" insttype="DR24" lat="38.9166" lon="21.8105">
    <comp name="--.HHE">
      <acc value="0.1975017529" flag="0"/>
      <vel value="0.0719878417" flag="0"/>
      <psa03 value="0.2685311863" flag="0"/>
      <psa10 value="0.0943336381" flag="0"/>
      <psa30 value="0.0092911373" flag="0"/>
    </comp>
    <comp name="--.HHN">
      <acc value="0.1550054420" flag="0"/>
      <vel value="0.0506053359" flag="0"/>
