<?xml version="1.0" encoding="UTF-8" standalone="yes"?>
<!DOCTYPE earthquake SYSTEM "stationlist.dtd">
<stationlist created="" xmlns="ch.ethz.sed.shakemap.usgs.xml">
  <station code="BNN" name="BNN" netid="KO" insttype="CMG-3T" lat="38.8521" lon="35.8472">
    <comp name="--.HHE">
      <acc value="0.0150486775" flag="0"/>
      <vel value="0.0058893163" flag="0"/>
      <psa03 value="0.0511769677" flag="0"/>
      <psa10 value="0.0076502440" flag="0"/>
      <psa30 value="0.0005630313" flag="0"/>
    </comp>
    <comp name="--.HHN">
      <acc value="0.0172922882" flag="0"/>
      <vel value="0.0092357589" flag="0"/>
      <psa03 value="0.0488063385" flag="0"/>
      <psa10 value="0.0059142127" flag="0"/>
      <psa30 value="0.0005254423" flag="0"/>
    </comp>
  </station>
  <station code="DARE" name="DARE" netid="KO" insttype="CMG-3ESP" lat="38.5712" lon="37.4832">
    <comp name="--.HHN">
      <acc value="0.0202873883" flag="0"/>
      <vel value="0.0072708084" flag="0"/>
      <psa03 value="0.0342213425" flag="0"/>
      <psa10 value="0.0076736365" flag="0"/>
      <psa30 value="0.0004121659" flag="0"/>
    </comp>
    <comp name="--.HHZ">
      <acc value="0.0094146057" flag="0"/>
      <vel value="0.0051252760" flag="0"/>
      <psa03 value="0.0193638207" flag="0"/>
      <psa10 value="0.0047735225" flag="0"/>
      <psa30 value="0.0002489623" flag="0"/>
    </comp>
  </station>
  <station code="GAZ" name="GAZ" netid="KO" insttype="CMG-3T" lat="37.1721" lon="37.2096">
    <comp name="--.HHN">
      <acc value="0.0187458940" flag="0"/>
      <vel value="0.0138018791" flag="0"/>
      <psa03 value="0.0294537048" flag="0"/>
      <psa10 value="0.0221377289" flag="0"/>
      <psa30 value="0.0015449144" flag="0"/>
    </comp>
    <comp name="--.HHE">
      <acc value="0.0228721533" flag="0"/>
      <vel value="0.0150305596" flag="0"/>
      <psa03 value="0.0311345352" flag="0"/>
      <psa10 value="0.0194271511" flag="0"/>
      <psa30 value="0.0012235132" flag="0"/>
    </comp>
    <comp name="--.HHZ">
      <acc value="0.0165128124" flag="0"/>
      <vel value="0.0074636563" flag="0"/>
      <psa03 value="0.0250342420" flag="0"/>
      <psa10 value="0.0092246126" flag="0"/>
      <psa30 value="0.0007189077" flag="0"/>
    </comp>
  </station>
  <station code="SARI" name="SARI" netid="KO" insttype="CMG-3T" lat="38.4072" lon="36.4181">
    <comp name="--.HHN">
      <acc value="0.2297250077" flag="0"/>
      <vel value="0.0702992135" flag="0"/>
      <psa03 value="0.2626201115" flag="0"/>
      <psa10 value="0.0441574846" flag="0"/>
      <psa30 value="0.0029872960" flag="0"/>
    </comp>
  </station>
  <station code="ANDN" name="ANDN" netid="TU" insttype="T" lat="37.58" lon="36.3452">
    <comp name="--.HHE">
      <acc value="0.1499267456" flag="0"/>
      <vel value="0.0689001758" flag="0"/>
      <psa03 value="0.2334346041" flag="0"/>
      <psa10 value="0.0589330533" flag="0"/>
      <psa30 value="0.0086773427" flag="0"/>
    </comp>
    <comp name="--.HHN">
      <acc value="0.3420158215" flag="0"/>
      <vel value="0.1387021799" flag="0"/>
      <psa03 value="0.5380120534" flag="0"/>
      <psa10 value="0.0681889023" flag="0"/>
      <psa30 value="0.0053275546" flag="0"/>
    </comp>
    <comp name="--.HHZ">
      <acc value="0.0873609837" flag="0"/>
      <vel value="0.0386513930" flag="0"/>
      <psa03 value="0.1935578895" flag="0"/>
      <psa10 value="0.0444641604" flag="0"/>
      <psa30 value="0.0023018618" flag="0"/>
    </comp>
  </station>
</stationlist>
