<?xml version="1.0" encoding="UTF-8" standalone="yes"?>
<!DOCTYPE earthquake SYSTEM "stationlist.dtd">
<stationlist created="" xmlns="ch.ethz.sed.shakemap.usgs.xml">
  <station code="ACOR" name="ACOR" netid="HA" insttype="30" lat="37.8902" lon="22.8692">
    <comp name="--.HHE">
      <acc value="0.0152075081" flag="0"/>
      <vel value="0.0127887381" flag="0"/>
      <psa03 value="0.0443469166" flag="0"/>
      <psa10 value="0.0146626511" flag="0"/>
      <psa30 value="0.0048186561" flag="0"/>
    </comp>
    <comp name="--.HHN">
      <acc value="0.0666066112" flag="0"/>
      <vel value="0.0581595247" flag="0"/>
      <psa03 value="0.1849860648" flag="0"/>
      <psa10 value="0.0529173573" flag="0"/>
      <psa30 value="0.0188442009" flag="0"/>
    </comp>
    <comp name="--.HHZ">
      <acc value="0.0147926123" flag="0"/>
      <vel value="0.0077304454" flag="0"/>
      <psa03 value="0.0362684152" flag="0"/>
      <psa10 value="0.0112383014" flag="0"/>
      <psa30 value="0.0038517994" flag="0"/>
    </comp>
  </station>
  <station code="ATAL" name="ATAL" netid="HA" insttype="120" lat="38.6926" lon="23.0213">
    <comp name="--.HHE">
      <acc value="0.0000308054" flag="0"/>
      <vel value="0.0000028750" flag="0"/>
      <psa03 value="0.0000093864" flag="0"/>
      <psa10 value="0.0000033490" flag="0"/>
      <psa30 value="0.0000007032" flag="0"/>
    </comp>
    <comp name="--.HHN">
      <acc value="0.0000302101" flag="0"/>
      <vel value="0.0000031857" flag="0"/>
      <psa03 value="0.0000103282" flag="0"/>
      <psa10 value="0.0000031832" flag="0"/>
      <psa30 value="0.0000006737" flag="0"/>
    </comp>
    <comp name="--.HHZ">
      <acc value="0.0333636406" flag="0"/>
      <vel value="0.0208365732" flag="0"/>
      <psa03 value="0.0598283487" flag="0"/>
      <psa10 value="0.0177042505" flag="0"/>
      <psa30 value="0.0051024996" flag="0"/>
    </comp>
  </station>
  <station code="EPID" name="EPID" netid="HA" insttype="30" lat="37.6144" lon="23.1189">
    <comp name="--.HHN">
      <acc value="0.0264216371" flag="0"/>
      <vel value="0.0150206862" flag="0"/>
      <psa03 value="0.0791221655" flag="0"/>
      <psa10 value="0.0284979027" flag="0"/>
      <psa30 value="0.0025869655" flag="0"/>
    </comp>
    <comp name="--.HHE">
      <acc value="0.0241537145" flag="0"/>
      <vel value="0.0133858336" flag="0"/>
      <psa03 value="0.0477719633" flag="0"/>
      <psa10 value="0.0134329784" flag="0"/>
      <psa30 value="0.0017880054" flag="0"/>
    </comp>
    <comp name="--.HHZ">
      <acc value="0.0233351939" flag="0"/>
      <vel value="0.0187228447" flag="0"/>
      <psa03 value="0.0581973706" flag="0"/>
      <psa10 value="0.0143165279" flag="0"/>
      <psa30 value="0.0030059712" flag="0"/>
    </comp>
  </station>
  <station code="KALE" name="KALE" netid="HA" insttype="40," lat="38.3911" lon="22.1398">
    <comp name="--.HHN">
      <acc value="3.2961790886" flag="0"/>
      <vel value="0.4779979046" flag="0"/>
      <psa03 value="3.3749716235" flag="0"/>
      <psa10 value="0.4911930626" flag="0"/>
      <psa30 value="0.1272252375" flag="0"/>
    </comp>
    <comp name="--.HHZ">
      <acc value="1.9547695638" flag="0"/>
      <vel value="0.5664776550" flag="0"/>
      <psa03 value="2.3269160049" flag="0"/>
      <psa10 value="0.3736485485" flag="0"/>
      <psa30 value="0.0434677796" flag="0"/>
    </comp>
    <comp name="--.HHE">
      <acc value="1.8548982129" flag="0"/>
      <vel value="0.7441139724" flag="0"/>
      <psa03 value="4.2834261965" flag="0"/>
      <psa10 value="0.5297965185" flag="0"/>
      <psa30 value="0.0680271047" flag="0"/>
    </comp>
  </station>
  <station code="LAKA" name="LAKA" netid="HA" insttype="120s" lat="38.2401" lon="21.9785">
    <comp name="--.HHN">
      <acc value="0.6701904669" flag="0"/>
      <vel value="0.2542840950" flag="0"/>
      <psa03 value="0.4985933569" flag="0"/>
      <psa10 value="0.2372614058" flag="0"/>
      <psa30 value="0.0462970053" flag="0"/>
    </comp>
    <comp name="--.HHZ">
      <acc value="0.3845689040" flag="0"/>
      <vel value="0.1396917485" flag="0"/>
      <psa03 value="0.4704489902" flag="0"/>
      <psa10 value="0.2432321733" flag="0"/>
      <psa30 value="0.0472256503" flag="0"/>
    </comp>
    <comp name="--.HHE">
      <acc value="0.5646401960" flag="0"/>
      <vel value="0.1084160828" flag="0"/>
      <psa03 value="0.4819452828" flag="0"/>
      <psa10 value="0.1585396197" flag="0"/>
      <psa30 value="0.0161393866" flag="0"/>
    </comp>
  </station>
  <station code="STFN" name="STFN" netid="HA" insttype="1s-100Hz," lat="38.1766" lon="23.544">
    <comp name="--.HHE">
      <acc value="0.0165533680" flag="0"/>
      <vel value="0.0171480558" flag="0"/>
      <psa03 value="0.0440024796" flag="0"/>
      <psa10 value="0.0216530089" flag="0"/>
      <psa30 value="0.0027922864" flag="0"/>
    </comp>
    <comp name="--.HHZ">
      <acc value="0.0117675464" flag="0"/>
      <vel value="0.0126085060" flag="0"/>
      <psa03 value="0.0305429289" flag="0"/>
      <psa10 value="0.0232963535" flag="0"/>
      <psa30 value="0.0033299641" flag="0"/>
    </comp>
    <comp name="--.HHN">
      <acc value="0.0201722232" flag="0"/>
      <vel value="0.0174427204" flag="0"/>
      <psa03 value="0.0637444829" flag="0"/>
      <psa10 value="0.0238549392" flag="0"/>
      <psa30 value="0.0033112839" flag="0"/>
    </comp>
  </station>
  <station code="THAL" name="THAL" netid="HA" insttype="30" lat="38.0357" lon="22.6634">
    <comp name="--.HHN">
      <acc value="0.1846124210" flag="0"/>
      <vel value="0.0552235919" flag="0"/>
      <psa03 value="0.4533797126" flag="0"/>
      <psa10 value="0.0540442838" flag="0"/>
      <psa30 value="0.0065786529" flag="0"/>
    </comp>
    <comp name="--.HHZ">
      <acc value="0.1074312362" flag="0"/>
      <vel value="0.0367832643" flag="0"/>
      <psa03 value="0.2113083407" flag="0"/>
      <psa10 value="0.0493809775" flag="0"/>
      <psa30 value="0.0050222422" flag="0"/>
    </comp>
    <comp name="--.HHE">
      <acc value="0.2304476031" flag="0"/>
      <vel value="0.0821701322" flag="0"/>
      <psa03 value="0.3888727169" flag="0"/>
      <psa10 value="0.0599880697" flag="0"/>
      <psa30 value="0.0082033235" flag="0"/>
    </comp>
  </station>
  <station code="VILL" name="VILL" netid="HA" insttype="30" lat="38.1642" lon="23.3122">
    <comp name="--.HHN">
      <acc value="0.0424899910" flag="0"/>
      <vel value="0.0379915831" flag="0"/>
      <psa03 value="0.1208779195" flag="0"/>
      <psa10 value="0.0457440178" flag="0"/>
      <psa30 value="0.0035622475" flag="0"/>
    </comp>
    <comp name="--.HHZ">
      <acc value="0.0202587640" flag="0"/>
      <vel value="0.0177737198" flag="0"/>
      <psa03 value="0.0619444836" flag="0"/>
      <psa10 value="0.0300549926" flag="0"/>
      <psa30 value="0.0036686179" flag="0"/>
    </comp>
    <comp name="--.HHE">
      <acc value="0.0627208440" flag="0"/>
      <vel value="0.0428929678" flag="0"/>
      <psa03 value="0.2138395948" flag="0"/>
      <psa10 value="0.0565344622" flag="0"/>
      <psa30 value="0.0043705253" flag="0"/>
    </comp>
  </station>
  <station code="KLV1" name="KLV1" netid="HI" insttype="CMG-5TD,ACCELEROMETER,GURALP" lat="38.0326" lon="22.108">
    <comp name="--.HNE">
      <acc value="0.2892044932" flag="0"/>
      <vel value="0.1559226285" flag="0"/>
      <psa03 value="0.8824233304" flag="0"/>
      <psa10 value="0.1820875983" flag="0"/>
      <psa30 value="0.0078732016" flag="0"/>
    </comp>
    <comp name="--.HNN">
      <acc value="0.3612594024" flag="0"/>
      <vel value="0.1872909044" flag="0"/>
      <psa03 value="1.0314184943" flag="0"/>
      <psa10 value="0.1208677079" flag="0"/>
      <psa30 value="0.0131345183" flag="0"/>
    </comp>
    <comp name="--.HNZ">
      <acc value="0.2897766477" flag="0"/>
      <vel value="0.1220860669" flag="0"/>
      <psa03 value="0.4244850690" flag="0"/>
      <psa10 value="0.1195078588" flag="0"/>
      <psa30 value="0.0185253601" flag="0"/>
    </comp>
  </station>
  <station code="MSL1" name="MSL1" netid="HI" insttype="CMG-5TD,ACCELEROMETER,GURALP" lat="38.3727" lon="21.4243">
    <comp name="--.HNE">
      <acc value="0.1240251232" flag="0"/>
      <vel value="0.0785008736" flag="0"/>
      <psa03 value="0.3945938589" flag="0"/>
      <psa10 value="0.1252320892" flag="0"/>
      <psa30 value="0.0174415979" flag="0"/>
    </comp>
    <comp name="--.HNN">
      <acc value="0.1417563891" flag="0"/>
      <vel value="0.0591080774" flag="0"/>
      <psa03 value="0.2237586567" flag="0"/>
      <psa10 value="0.0969958670" flag="0"/>
      <psa30 value="0.0096423397" flag="0"/>
    </comp>
    <comp name="--.HNZ">
      <acc value="0.0816051021" flag="0"/>
      <vel value="0.0348035122" flag="0"/>
      <psa03 value="0.1327297438" flag="0"/>
      <psa10 value="0.0811223794" flag="0"/>
      <psa30 value="0.0056343333" flag="0"/>
    </comp>
  </station>
  <station code="DLFA" name="DLFA" netid="HL" insttype="CMG-5" lat="38.4784" lon="22.4958">
    <comp name="00.HNE">
      <acc value="0.2923715633" flag="0"/>
      <vel value="0.1248252041" flag="0"/>
      <psa03 value="0.8634645063" flag="0"/>
      <psa10 value="0.0667821259" flag="0"/>
      <psa30 value="0.0058550363" flag="0"/>
    </comp>
    <comp name="00.HNN">
      <acc value="0.3352521185" flag="0"/>
      <vel value="0.1270801661" flag="0"/>
      <psa03 value="0.8027983920" flag="0"/>
      <psa10 value="0.0756186173" flag="0"/>
      <psa30 value="0.0062930730" flag="0"/>
    </comp>
    <comp name="00.HNZ">
      <acc value="0.3192653821" flag="0"/>
      <vel value="0.0654343878" flag="0"/>
      <psa03 value="0.4332825646" flag="0"/>
      <psa10 value="0.0362808453" flag="0"/>
      <psa30 value="0.0052927994" flag="0"/>
    </comp>
  </station>
  <station code="EVR" name="EVR" netid="HL" insttype="DR24" lat="38.9166" lon="21.8105">
    <comp name="--.HHN">
      <acc value="0.1387440610" flag="0"/>
      <vel value="0.0470970724" flag="0"/>
      <psa03 value="0.1520178796" flag="0"/>
      <psa10 value="0.0457047393" flag="0"/>
      <psa30 value="0.0099933926" flag="0"/>
    </comp>
    <comp name="--.HHE">
      <acc value="0.1985550380" flag="0"/>
      <vel value="0.0529631944" flag="0"/>
      <psa03 value="0.1617295282" flag="0"/>
      <psa10 value="0.0514163558" flag="0"/>
      <psa30 value="0.0105620757" flag="0"/>
    </comp>
    <comp name="--.HHZ">
      <acc value="0.0730052203" flag="0"/>
      <vel value="0.0290274571" flag="0"/>
      <psa03 value="0.1308905245" flag="0"/>
      <psa10 value="0.0454969263" flag="0"/>
      <psa30 value="0.0114932832" flag="0"/>
    </comp>
  </station>
  <station code="ITM" name="ITM" netid="HL" insttype="DR24" lat="37.1787" lon="21.9252">
    <comp name="--.HHN">
      <acc value="0.0150048207" flag="0"/>
      <vel value="0.0125660346" flag="0"/>
      <psa03 value="0.0344005372" flag="0"/>
      <psa10 value="0.0188824223" flag="0"/>
      <psa30 value="0.0029650266" flag="0"/>
    </comp>
    <comp name="--.HHE">
      <acc value="0.0141895854" flag="0"/>
      <vel value="0.0087652570" flag="0"/>
      <psa03 value="0.0301231316" flag="0"/>
      <psa10 value="0.0129161198" flag="0"/>
      <psa30 value="0.0031859395" flag="0"/>
    </comp>
    <comp name="--.HHZ">
      <acc value="0.0099092077" flag="0"/>
      <vel value="0.0125180332" flag="0"/>
      <psa03 value="0.0227169750" flag="0"/>
      <psa10 value="0.0156775793" flag="0"/>
      <psa30 value="0.0020835869" flag="0"/>
    </comp>
  </station>
  <station code="KLV" name="KLV" netid="HL" insttype="120" lat="38.0435" lon="22.1504">
    <comp name="--.HHE">
      <acc value="0.1786616684" flag="0"/>
      <vel value="0.0378491690" flag="0"/>
      <psa03 value="0.1653019107" flag="0"/>
      <psa10 value="0.0421474021" flag="0"/>
      <psa30 value="0.0045828188" flag="0"/>
    </comp>
    <comp name="--.HHZ">
      <acc value="0.1072591723" flag="0"/>
      <vel value="0.0504293111" flag="0"/>
      <psa03 value="0.1547565959" flag="0"/>
      <psa10 value="0.0511689091" flag="0"/>
      <psa30 value="0.0133709671" flag="0"/>
    </comp>
    <comp name="--.HHN">
      <acc value="0.1767306993" flag="0"/>
      <vel value="0.0369211021" flag="0"/>
      <psa03 value="0.1383405939" flag="0"/>
      <psa10 value="0.0509217350" flag="0"/>
      <psa30 value="0.0094092475" flag="0"/>
    </comp>
  </station>
  <station code="LKR" name="LKR" netid="HL" insttype="30" lat="38.6496" lon="22.9989">
    <comp name="--.HHE">
      <acc value="0.1520164203" flag="0"/>
      <vel value="0.0564255594" flag="0"/>
      <psa03 value="0.1459426176" flag="0"/>
      <psa10 value="0.0176190782" flag="0"/>
      <psa30 value="0.0048154978" flag="0"/>
    </comp>
    <comp name="--.HHZ">
      <acc value="0.0601852756" flag="0"/>
      <vel value="0.0192785745" flag="0"/>
      <psa03 value="0.1001176564" flag="0"/>
      <psa10 value="0.0216124326" flag="0"/>
      <psa30 value="0.0051005964" flag="0"/>
    </comp>
    <comp name="--.HHN">
      <acc value="0.1695799127" flag="0"/>
      <vel value="0.0500251175" flag="0"/>
      <psa03 value="0.2283745364" flag="0"/>
      <psa10 value="0.0284233871" flag="0"/>
      <psa30 value="0.0039421607" flag="0"/>
    </comp>
  </station>
  <station code="NEO" name="NEO" netid="HL" insttype="120" lat="39.3057" lon="23.2219">
    <comp name="--.HHE">
      <acc value="0.0163693759" flag="0"/>
      <vel value="0.0085081422" flag="0"/>
      <psa03 value="0.0428109345" flag="0"/>
      <psa10 value="0.0130981761" flag="0"/>
      <psa30 value="0.0017216139" flag="0"/>
    </comp>
    <comp name="--.HHN">
      <acc value="0.0143301929" flag="0"/>
      <vel value="0.0092462783" flag="0"/>
      <psa03 value="0.0499075404" flag="0"/>
      <psa10 value="0.0122127336" flag="0"/>
      <psa30 value="0.0026733418" flag="0"/>
    </comp>
    <comp name="--.HHZ">
      <acc value="0.0105867949" flag="0"/>
      <vel value="0.0068166244" flag="0"/>
      <psa03 value="0.0258857987" flag="0"/>
      <psa10 value="0.0071057400" flag="0"/>
      <psa30 value="0.0013176979" flag="0"/>
    </comp>
  </station>
  <station code="PATC" name="PATC" netid="HL" insttype="CMG-5" lat="38.2693" lon="21.76">
    <comp name="00.HNE">
      <acc value="0.4356340709" flag="0"/>
      <vel value="0.2218581348" flag="0"/>
      <psa03 value="1.0729101424" flag="0"/>
      <psa10 value="0.2669330083" flag="0"/>
      <psa30 value="0.0403719260" flag="0"/>
    </comp>
    <comp name="00.HNN">
      <acc value="0.5754499299" flag="0"/>
      <vel value="0.2603964752" flag="0"/>
      <psa03 value="0.9870294888" flag="0"/>
      <psa10 value="0.5655654755" flag="0"/>
      <psa30 value="0.0723809954" flag="0"/>
    </comp>
    <comp name="00.HNZ">
      <acc value="0.4655795424" flag="0"/>
      <vel value="0.2005691679" flag="0"/>
      <psa03 value="0.5029930451" flag="0"/>
      <psa10 value="0.2402381378" flag="0"/>
      <psa30 value="0.0324449152" flag="0"/>
    </comp>
  </station>
  <station code="PATG" name="PATG" netid="HL" insttype="CMG-5" lat="38.2386" lon="21.7266">
    <comp name="00.HNE">
      <acc value="0.4317655897" flag="0"/>
      <vel value="0.1880494011" flag="0"/>
      <psa03 value="0.7151345819" flag="0"/>
      <psa10 value="0.3113968754" flag="0"/>
      <psa30 value="0.0530953816" flag="0"/>
    </comp>
    <comp name="00.HNN">
      <acc value="0.3598111789" flag="0"/>
      <vel value="0.2496614742" flag="0"/>
      <psa03 value="0.6498270073" flag="0"/>
      <psa10 value="0.3180026105" flag="0"/>
      <psa30 value="0.0916804496" flag="0"/>
    </comp>
    <comp name="00.HNZ">
      <acc value="0.2709391315" flag="0"/>
      <vel value="0.1674809080" flag="0"/>
      <psa03 value="0.3214107679" flag="0"/>
      <psa10 value="0.3077338336" flag="0"/>
      <psa30 value="0.0406422459" flag="0"/>
    </comp>
  </station>
  <station code="RIOA" name="RIOA" netid="HL" insttype="CMG-5" lat="38.2959" lon="21.7912">
    <comp name="00.HNE">
      <acc value="0.4826226541" flag="0"/>
      <vel value="0.1836259348" flag="0"/>
      <psa03 value="0.7992595669" flag="0"/>
      <psa10 value="0.2165099473" flag="0"/>
      <psa30 value="0.0222046200" flag="0"/>
    </comp>
    <comp name="00.HNN">
      <acc value="0.5010167877" flag="0"/>
      <vel value="0.1612590514" flag="0"/>
      <psa03 value="0.5471224280" flag="0"/>
      <psa10 value="0.1535581327" flag="0"/>
      <psa30 value="0.0232407195" flag="0"/>
    </comp>
    <comp name="00.HNZ">
      <acc value="0.6119846378" flag="0"/>
      <vel value="0.1857653101" flag="0"/>
      <psa03 value="0.5156855771" flag="0"/>
      <psa10 value="0.1201869426" flag="0"/>
      <psa30 value="0.0493923813" flag="0"/>
    </comp>
  </station>
  <station code="TETR" name="TETR" netid="HL" insttype="60" lat="39.3445" lon="21.2747">
    <comp name="--.HHE">
      <acc value="0.0254404605" flag="0"/>
      <vel value="0.0152614059" flag="0"/>
      <psa03 value="0.0594775509" flag="0"/>
      <psa10 value="0.0242194113" flag="0"/>
      <psa30 value="0.0025232165" flag="0"/>
    </comp>
    <comp name="--.HHZ">
      <acc value="0.0098914648" flag="0"/>
      <vel value="0.0075234430" flag="0"/>
      <psa03 value="0.0150128652" flag="0"/>
      <psa10 value="0.0146668025" flag="0"/>
      <psa30 value="0.0023152848" flag="0"/>
    </comp>
    <comp name="--.HHN">
      <acc value="0.0213006809" flag="0"/>
      <vel value="0.0146610037" flag="0"/>
      <psa03 value="0.0484680631" flag="0"/>
      <psa10 value="0.0215884257" flag="0"/>
      <psa30 value="0.0038600011" flag="0"/>
    </comp>
  </station>
  <station code="THL" name="THL" netid="HL" insttype="120" lat="39.5647" lon="22.0144">
    <comp name="--.HHZ">
      <acc value="0.0044650407" flag="0"/>
      <vel value="0.0056248993" flag="0"/>
      <psa03 value="0.0134556311" flag="0"/>
      <psa10 value="0.0120162932" flag="0"/>
      <psa30 value="0.0016204838" flag="0"/>
    </comp>
    <comp name="--.HHE">
      <acc value="0.0098573440" flag="0"/>
      <vel value="0.0104108030" flag="0"/>
      <psa03 value="0.0206587849" flag="0"/>
      <psa10 value="0.0155830324" flag="0"/>
      <psa30 value="0.0028036536" flag="0"/>
    </comp>
    <comp name="--.HHN">
      <acc value="0.0055354783" flag="0"/>
      <vel value="0.0057981751" flag="0"/>
      <psa03 value="0.0106228356" flag="0"/>
      <psa10 value="0.0130189598" flag="0"/>
      <psa30 value="0.0018592193" flag="0"/>
    </comp>
  </station>
  <station code="VLS" name="VLS" netid="HL" insttype="120P," lat="38.1768" lon="20.5886">
    <comp name="--.HHE">
      <acc value="0.0597414737" flag="0"/>
      <vel value="0.0086380239" flag="0"/>
      <psa03 value="0.0314068151" flag="0"/>
      <psa10 value="0.0114398129" flag="0"/>
      <psa30 value="0.0010083768" flag="0"/>
    </comp>
    <comp name="--.HHN">
      <acc value="0.0500267323" flag="0"/>
      <vel value="0.0118041580" flag="0"/>
      <psa03 value="0.0454728011" flag="0"/>
      <psa10 value="0.0143519663" flag="0"/>
      <psa30 value="0.0012377484" flag="0"/>
    </comp>
    <comp name="--.HHZ">
      <acc value="0.0260716767" flag="0"/>
      <vel value="0.0070738019" flag="0"/>
      <psa03 value="0.0331623425" flag="0"/>
      <psa10 value="0.0103800057" flag="0"/>
      <psa30 value="0.0011709620" flag="0"/>
    </comp>
  </station>
  <station code="AMPL" name="AMPL" netid="HP" insttype="Compact," lat="38.9224" lon="21.2135">
    <comp name="--.HHE">
      <acc value="0.0176419852" flag="0"/>
      <vel value="0.0138679616" flag="0"/>
      <psa03 value="0.0472667907" flag="0"/>
      <psa10 value="0.0218202127" flag="0"/>
      <psa30 value="0.0036796125" flag="0"/>
    </comp>
    <comp name="--.HHZ">
      <acc value="0.0133293891" flag="0"/>
      <vel value="0.0086353066" flag="0"/>
