<stationlist xmlns:esm="https://esm-db.eu/esmws/shakemap/1/" created="1780711015">
	<station code="AGRP" name="AGRP" netid="CL" source="Corinth Riff Laboratory (CRLNET)" insttype="" lat="38.3959" lon="21.72277" esm:processing="manual (Paolucci et al 2011)" esm:quality="good">
		<comp name="00.HNE" depth="0.0">
			<acc value="0.436574820343837" flag="0"/>
			<vel value="0.100718266745428" flag="0"/>
			<psa03 value="0.493148601346591" flag="0"/>
			<psa10 value="0.0900150558070362" flag="0"/>
			<psa30 value="0.0166405214854676" flag="0"/>
		</comp>
		<comp name="00.HNN" depth="0.0">
			<acc value="0.340758801386534" flag="0"/>
			<vel value="0.0972791772947195" flag="0"/>
			<psa03 value="0.334447994471581" flag="0"/>
			<psa10 value="0.0757481083826679" flag="0"/>
			<psa30 value="0.0173716091416102" flag="0"/>
		</comp>
		<comp name="00.HNZ" depth="0.0">
			<acc value="0.237679796512423" flag="0"/>
			<vel value="0.0748186328600448" flag="0"/>
			<psa03 value="0.235612460051819" flag="0"/>
			<psa10 value="0.0601321834287587" flag="0"/>
			<psa30 value="0.0199778426771245" flag="0"/>
		</comp>
	</station>
	<station code="MALA" name="MALA" netid="CL" source="Corinth Riff Laboratory (CRLNET)" insttype="" lat="38.39341" lon="21.87263" esm:processing="manual (Paolucci et al 2011)" esm:quality="good">
		<comp name="01.HNE" depth="0.0">
			<acc value="2.51614990597832" flag="0"/>
			<vel value="1.14290442074094" flag="0"/>
			<psa03 value="3.99337616730061" flag="0"/>
			<psa10 value="1.1762721645723" flag="0"/>
			<psa30 value="0.123497438707754" flag="0"/>
		</comp>
		<comp name="01.HNN" depth="0.0">
			<acc value="5.14072598101448" flag="0"/>
			<vel value="2.23151375443425" flag="0"/>
			<psa03 value="4.54670303654878" flag="0"/>
			<psa10 value="1.46870230538659" flag="0"/>
			<psa30 value="0.095555930674643" flag="0"/>
		</comp>
		<comp name="01.HNZ" depth="0.0">
			<acc value="1.18318797631829" flag="0"/>
			<vel value="0.345203220979418" flag="0"/>
			<psa03 value="0.945760763497028" flag="0"/>
			<psa10 value="0.440576061148056" flag="0"/>
			<psa30 value="0.0595384543469342" flag="0"/>
		</comp>
	</station>
	<station code="AIGS" name="AIGS" netid="HA" source="Hellenic Seismological Network, University of Athens, Seismological Laboratory (HA)" insttype="" lat="38.25001" lon="22.0878" esm:processing="manual (Paolucci et al 2011)" esm:quality="good">
		<comp name="--.HNE" depth="0.0">
			<acc value="2.22973177209266" flag="0"/>
			<vel value="0.894976580627817" flag="0"/>
			<psa03 value="5.14709870715936" flag="0"/>
			<psa10 value="0.511343019667911" flag="0"/>
			<psa30 value="0.0807959241333413" flag="0"/>
		</comp>
		<comp name="--.HNN" depth="0.0">
			<acc value="3.4306577404119" flag="0"/>
			<vel value="1.55139131813437" flag="0"/>
			<psa03 value="9.4032905961357" flag="0"/>
			<psa10 value="0.343840278484889" flag="0"/>
			<psa30 value="0.0468880428476841" flag="0"/>
		</comp>
		<comp name="--.HNZ" depth="0.0">
			<acc value="2.66544017297817" flag="0"/>
			<vel value="0.433968229936001" flag="0"/>
			<psa03 value="1.17757013598629" flag="0"/>
			<psa10 value="0.457714115971119" flag="0"/>
			<psa30 value="0.0513743439052982" flag="0"/>
		</comp>
	</station>
	<station code="LTRS" name="LTRS" netid="HA" source="Hellenic Seismological Network, University of Athens, Seismological Laboratory (HA)" insttype="" lat="37.97528" lon="22.9765" esm:processing="manual (Paolucci et al 2011)" esm:quality="best">
		<comp name="--.HNE" depth="0.0">
			<acc value="0.0611437134291556" flag="0"/>
			<vel value="0.0478447433358865" flag="0"/>
			<psa03 value="0.188588400896015" flag="0"/>
			<psa10 value="0.0632408719445962" flag="0"/>
			<psa30 value="0.00929071920428413" flag="0"/>
		</comp>
		<comp name="--.HNN" depth="0.0">
			<acc value="0.0549005709503452" flag="0"/>
			<vel value="0.0456192309258763" flag="0"/>
			<psa03 value="0.152257729121979" flag="0"/>
			<psa10 value="0.0705414577984996" flag="0"/>
			<psa30 value="0.00786254796902889" flag="0"/>
		</comp>
		<comp name="--.HNZ" depth="0.0">
			<acc value="0.0460511726786422" flag="0"/>
			<vel value="0.0276620411212155" flag="0"/>
			<psa03 value="0.0707374286634876" flag="0"/>
			<psa10 value="0.0641750892187857" flag="0"/>
			<psa30 value="0.0070312377700614" flag="0"/>
		</comp>
	</station>
	<station code="AGR3" name="AGR3" netid="HI" source="ITSAK Strong Motion Network" insttype="" lat="38.5893" lon="21.4162" esm:processing="automatic (Paolucci et al 2011)" esm:quality="best">
		<comp name="--.HNE" depth="0.0">
			<acc value="0.150486890345245" flag="0"/>
			<vel value="0.075095010487055" flag="0"/>
			<psa03 value="0.287832088296576" flag="0"/>
			<psa10 value="0.0853810735770959" flag="0"/>
			<psa30 value="0.0296509075604401" flag="0"/>
		</comp>
		<comp name="--.HNN" depth="0.0">
			<acc value="0.148619411886337" flag="0"/>
			<vel value="0.0802312928517394" flag="0"/>
			<psa03 value="0.220717163095498" flag="0"/>
			<psa10 value="0.0877971336292169" flag="0"/>
			<psa30 value="0.0334932787653417" flag="0"/>
		</comp>
		<comp name="--.HNZ" depth="0.0">
			<acc value="0.0816570075642797" flag="0"/>
			<vel value="0.0435597741615448" flag="0"/>
			<psa03 value="0.119151757802521" flag="0"/>
			<psa10 value="0.0764365435458788" flag="0"/>
			<psa30 value="0.0207716676877089" flag="0"/>
		</comp>
	</station>
	<station code="AIG2" name="AIG2" netid="HI" source="ITSAK Strong Motion Network" insttype="" lat="38.2417" lon="22.0726" esm:processing="manual (Paolucci et al 2011)" esm:quality="good">
		<comp name="--.HNE" depth="0.0">
			<acc value="1.6108566929117" flag="0"/>
			<vel value="0.372530036367079" flag="0"/>
			<psa03 value="2.06750612880091" flag="0"/>
			<psa10 value="0.26278908848741" flag="0"/>
			<psa30 value="0.0430388244442291" flag="0"/>
		</comp>
		<comp name="--.HNN" depth="0.0">
			<acc value="1.38707738526428" flag="0"/>
			<vel value="0.486732689132824" flag="0"/>
			<psa03 value="1.39632966665425" flag="0"/>
			<psa10 value="0.3538713722417" flag="0"/>
			<psa30 value="0.0718582935926216" flag="0"/>
		</comp>
		<comp name="--.HNZ" depth="0.0">
			<acc value="0.943505241459295" flag="0"/>
			<vel value="0.257238381249874" flag="0"/>
			<psa03 value="0.92660913330752" flag="0"/>
			<psa10 value="0.248374438587598" flag="0"/>
			<psa30 value="0.0485996028185056" flag="0"/>
		</comp>
	</station>
	<station code="AKR1" name="AKR1" netid="HI" source="ITSAK Strong Motion Network" insttype="" lat="38.153583" lon="22.31326" esm:processing="automatic (Paolucci et al 2011)" esm:quality="best">
		<comp name="--.HNE" depth="0.0">
			<acc value="0.317184108253878" flag="0"/>
			<vel value="0.089545290220118" flag="0"/>
			<psa03 value="0.686182581228397" flag="0"/>
			<psa10 value="0.134834557127676" flag="0"/>
			<psa30 value="0.01301476799784" flag="0"/>
		</comp>
		<comp name="--.HNN" depth="0.0">
			<acc value="0.23766945370235" flag="0"/>
			<vel value="0.091337662130565" flag="0"/>
			<psa03 value="0.768586081722556" flag="0"/>
			<psa10 value="0.0917800549782091" flag="0"/>
			<psa30 value="0.014108057922932" flag="0"/>
		</comp>
		<comp name="--.HNZ" depth="0.0">
			<acc value="0.205146917899443" flag="0"/>
			<vel value="0.0738251716950621" flag="0"/>
			<psa03 value="0.265517047534642" flag="0"/>
			<psa10 value="0.0952503398675518" flag="0"/>
			<psa30 value="0.0202539567252318" flag="0"/>
		</comp>
	</station>
	<station code="AOL1" name="AOL1" netid="HI" source="ITSAK Strong Motion Network" insttype="" lat="37.642378" lon="21.624555" esm:processing="automatic (Paolucci et al 2011)" esm:quality="best">
		<comp name="--.HNE" depth="0.0">
			<acc value="0.18514942156531" flag="0"/>
			<vel value="0.0634884085032466" flag="0"/>
			<psa03 value="0.336890254826011" flag="0"/>
			<psa10 value="0.108616225291865" flag="0"/>
			<psa30 value="0.019285200883245" flag="0"/>
		</comp>
		<comp name="--.HNN" depth="0.0">
			<acc value="0.144438627530697" flag="0"/>
			<vel value="0.0569799546197014" flag="0"/>
			<psa03 value="0.318491536001185" flag="0"/>
			<psa10 value="0.0652891850880894" flag="0"/>
			<psa30 value="0.016854326516415" flag="0"/>
		</comp>
		<comp name="--.HNZ" depth="0.0">
			<acc value="0.0706316679474679" flag="0"/>
			<vel value="0.0289923279711505" flag="0"/>
			<psa03 value="0.194962331964334" flag="0"/>
			<psa10 value="0.0417060665722276" flag="0"/>
			<psa30 value="0.00876233462833248" flag="0"/>
		</comp>
	</station>
	<station code="ARE2" name="ARE2" netid="HI" source="ITSAK Strong Motion Network" insttype="" lat="36.66629" lon="22.382635" esm:processing="manual (Paolucci et al 2011)" esm:quality="good">
		<comp name="--.HNE" depth="0.0">
			<acc value="0.00854398918201911" flag="0"/>
			<vel value="0.00957504708680749" flag="0"/>
			<psa03 value="0.0171906635366752" flag="0"/>
			<psa10 value="0.0158345483361153" flag="0"/>
			<psa30 value="0.00301954461334481" flag="0"/>
		</comp>
		<comp name="--.HNN" depth="0.0">
			<acc value="0.00580638615340615" flag="0"/>
			<vel value="0.00712061491780652" flag="0"/>
			<psa03 value="0.0228985872315236" flag="0"/>
			<psa10 value="0.00828213115054213" flag="0"/>
			<psa30 value="0.00203965074185156" flag="0"/>
		</comp>
		<comp name="--.HNZ" depth="0.0">
			<acc value="0.00430425622483993" flag="0"/>
			<vel value="0.00595851890639622" flag="0"/>
			<psa03 value="0.00849854475771484" flag="0"/>
			<psa10 value="0.00755220810922292" flag="0"/>
			<psa30 value="0.00213091012067086" flag="0"/>
		</comp>
	</station>
	<station code="ARS1" name="ARS1" netid="HI" source="ITSAK Strong Motion Network" insttype="" lat="37.6349" lon="22.7293" esm:processing="manual (Paolucci et al 2011)" esm:quality="good">
		<comp name="--.HNE" depth="0.0">
			<acc value="0.0391676275128489" flag="0"/>
			<vel value="0.0405635790607201" flag="0"/>
			<psa03 value="0.116144162730685" flag="0"/>
			<psa10 value="0.0743512179034606" flag="0"/>
			<psa30 value="0.00392011843860778" flag="0"/>
		</comp>
		<comp name="--.HNN" depth="0.0">
			<acc value="0.0659970491565885" flag="0"/>
			<vel value="0.0467918383560093" flag="0"/>
			<psa03 value="0.268228352145317" flag="0"/>
			<psa10 value="0.081322539719066" flag="0"/>
			<psa30 value="0.00668771802850307" flag="0"/>
		</comp>
		<comp name="--.HNZ" depth="0.0">
			<acc value="0.0345368796508875" flag="0"/>
			<vel value="0.0205342352186663" flag="0"/>
			<psa03 value="0.110260002100711" flag="0"/>
			<psa10 value="0.0265014287145701" flag="0"/>
			<psa30 value="0.00378657167512393" flag="0"/>
		</comp>
	</station>
	<station code="AST1" name="AST1" netid="HI" source="ITSAK Strong Motion Network" insttype="" lat="38.5416" lon="21.0895" esm:processing="automatic (Paolucci et al 2011)" esm:quality="best">
		<comp name="--.HNE" depth="0.0">
			<acc value="0.0469273897501092" flag="0"/>
			<vel value="0.0220178859838354" flag="0"/>
			<psa03 value="0.145805638074612" flag="0"/>
			<psa10 value="0.0176198334774942" flag="0"/>
			<psa30 value="0.0041367027862577" flag="0"/>
		</comp>
		<comp name="--.HNN" depth="0.0">
			<acc value="0.055551856351408" flag="0"/>
			<vel value="0.0234533506789005" flag="0"/>
			<psa03 value="0.126470003017017" flag="0"/>
			<psa10 value="0.0250493962745671" flag="0"/>
			<psa30 value="0.0038722248492257" flag="0"/>
		</comp>
		<comp name="--.HNZ" depth="0.0">
			<acc value="0.0282787588347831" flag="0"/>
			<vel value="0.0161691252044916" flag="0"/>
			<psa03 value="0.100506418473631" flag="0"/>
			<psa10 value="0.0197525997627935" flag="0"/>
			<psa30 value="0.00531220815771948" flag="0"/>
		</comp>
	</station>
	<station code="ATH5" name="ATH5" netid="HI" source="ITSAK Strong Motion Network" insttype="" lat="37.975421" lon="23.737098" esm:processing="manual (Paolucci et al 2011)" esm:quality="good">
		<comp name="--.HNE" depth="0.0">
			<acc value="0.0140697596576426" flag="0"/>
			<vel value="0.0129271166979015" flag="0"/>
			<psa03 value="0.0288286389225191" flag="0"/>
			<psa10 value="0.0272261829759938" flag="0"/>
			<psa30 value="0.00211363001761651" flag="0"/>
		</comp>
		<comp name="--.HNN" depth="0.0">
			<acc value="0.0153592055926808" flag="0"/>
			<vel value="0.0113774615512163" flag="0"/>
			<psa03 value="0.0483716887619414" flag="0"/>
			<psa10 value="0.0157959582797139" flag="0"/>
			<psa30 value="0.00203353179483582" flag="0"/>
		</comp>
		<comp name="--.HNZ" depth="0.0">
			<acc value="0.00804450439832176" flag="0"/>
			<vel value="0.00654820674326367" flag="0"/>
			<psa03 value="0.0155091875637917" flag="0"/>
			<psa10 value="0.0117674189087411" flag="0"/>
			<psa30 value="0.00178284060444038" flag="0"/>
		</comp>
	</station>
	<station code="FRS1" name="FRS1" netid="HI" source="ITSAK Strong Motion Network" insttype="" lat="39.2934" lon="22.3844" esm:processing="automatic (Paolucci et al 2011)" esm:quality="best">
		<comp name="--.HNE" depth="0.0">
			<acc value="0.0169537463116283" flag="0"/>
			<vel value="0.0129319790595549" flag="0"/>
			<psa03 value="0.0355049666131221" flag="0"/>
			<psa10 value="0.0147683733322538" flag="0"/>
			<psa30 value="0.00353507584809235" flag="0"/>
		</comp>
		<comp name="--.HNN" depth="0.0">
			<acc value="0.0212512427333938" flag="0"/>
			<vel value="0.015169385971265" flag="0"/>
			<psa03 value="0.0340009685431312" flag="0"/>
			<psa10 value="0.0229256924646123" flag="0"/>
			<psa30 value="0.00355297453379243" flag="0"/>
		</comp>
		<comp name="--.HNZ" depth="0.0">
			<acc value="0.0172587136190241" flag="0"/>
			<vel value="0.0172020513751336" flag="0"/>
			<psa03 value="0.02506057420255" flag="0"/>
			<psa10 value="0.0146093693615211" flag="0"/>
			<psa30 value="0.0059044119716491" flag="0"/>
		</comp>
	</station>
	<station code="GTH2" name="GTH2" netid="HI" source="ITSAK Strong Motion Network" insttype="" lat="36.7603" lon="22.5659" esm:processing="manual (Paolucci et al 2011)" esm:quality="good">
		<comp name="--.HNE" depth="0.0">
			<acc value="0.0211484641753962" flag="0"/>
			<vel value="0.0258225361874294" flag="0"/>
			<psa03 value="0.0527227582489841" flag="0"/>
			<psa10 value="0.0248746815755758" flag="0"/>
			<psa30 value="0.00278795072971996" flag="0"/>
		</comp>
		<comp name="--.HNN" depth="0.0">
			<acc value="0.0203096928078086" flag="0"/>
			<vel value="0.0184351064003909" flag="0"/>
			<psa03 value="0.0621992610207845" flag="0"/>
			<psa10 value="0.0165458017031602" flag="0"/>
			<psa30 value="0.00476414101762789" flag="0"/>
		</comp>
		<comp name="--.HNZ" depth="0.0">
			<acc value="0.00955019758965121" flag="0"/>
			<vel value="0.00832057614269974" flag="0"/>
			<psa03 value="0.0301092966764694" flag="0"/>
			<psa10 value="0.0122688008728457" flag="0"/>
			<psa30 value="0.00244891139502795" flag="0"/>
		</comp>
	</station>
	<station code="IGM2" name="IGM2" netid="HI" source="ITSAK Strong Motion Network" insttype="" lat="39.486153" lon="20.259241" esm:processing="manual (Paolucci et al 2011)" esm:quality="good">
		<comp name="--.HNE" depth="0.0">
			<acc value="0.0146903774777089" flag="0"/>
			<vel value="0.0201652523539038" flag="0"/>
			<psa03 value="0.0247916918070776" flag="0"/>
			<psa10 value="0.0477521158433194" flag="0"/>
			<psa30 value="0.00259064224233434" flag="0"/>
		</comp>
		<comp name="--.HNN" depth="0.0">
			<acc value="0.0180246080158776" flag="0"/>
			<vel value="0.0215642514274285" flag="0"/>
			<psa03 value="0.0281874401962429" flag="0"/>
			<psa10 value="0.0373532619702852" flag="0"/>
			<psa30 value="0.00320560923087923" flag="0"/>
		</comp>
		<comp name="--.HNZ" depth="0.0">
			<acc value="0.00534400610099651" flag="0"/>
			<vel value="0.00513919945001968" flag="0"/>
			<psa03 value="0.015118502828698" flag="0"/>
			<psa10 value="0.00572885888378527" flag="0"/>
			<psa30 value="0.00142024543845676" flag="0"/>
		</comp>
	</station>
	<station code="ITC1" name="ITC1" netid="HI" source="ITSAK Strong Motion Network" insttype="" lat="38.3647" lon="20.7156" esm:processing="automatic (Paolucci et al 2011)" esm:quality="best">
		<comp name="--.HNE" depth="0.0">
			<acc value="0.0139829611638478" flag="0"/>
			<vel value="0.00891231129333902" flag="0"/>
			<psa03 value="0.053163131171529" flag="0"/>
			<psa10 value="0.00924872674525647" flag="0"/>
			<psa30 value="0.00124766358908956" flag="0"/>
		</comp>
		<comp name="--.HNN" depth="0.0">
			<acc value="0.0172695034933836" flag="0"/>
			<vel value="0.0114598914795036" flag="0"/>
			<psa03 value="0.0526110373063533" flag="0"/>
			<psa10 value="0.0108810711300608" flag="0"/>
			<psa30 value="0.00169607141890762" flag="0"/>
		</comp>
		<comp name="--.HNZ" depth="0.0">
			<acc value="0.00973956657433218" flag="0"/>
			<vel value="0.0055910555780671" flag="0"/>
			<psa03 value="0.0349517685081293" flag="0"/>
			<psa10 value="0.0065159389927297" flag="0"/>
			<psa30 value="0.00152459360101042" flag="0"/>
		</comp>
	</station>
	<station code="ITE1" name="ITE1" netid="HI" source="ITSAK Strong Motion Network" insttype="" lat="38.4338" lon="22.4272" esm:processing="manual (Paolucci et al 2011)" esm:quality="good">
		<comp name="--.HNE" depth="0.0">
			<acc value="1.72562707933182" flag="0"/>
			<vel value="0.749617405380888" flag="0"/>
			<psa03 value="3.62449810521136" flag="0"/>
			<psa10 value="0.306445190489915" flag="0"/>
			<psa30 value="0.0191951032480522" flag="0"/>
		</comp>
		<comp name="--.HNN" depth="0.0">
			<acc value="2.34414004536888" flag="0"/>
			<vel value="0.919475613705523" flag="0"/>
			<psa03 value="8.99475252487748" flag="0"/>
			<psa10 value="0.285732058346565" flag="0"/>
			<psa30 value="0.0225554875236852" flag="0"/>
		</comp>
		<comp name="--.HNZ" depth="0.0">
			<acc value="1.75461789323165" flag="0"/>
			<vel value="0.50758220610762" flag="0"/>
			<psa03 value="2.41106672133739" flag="0"/>
			<psa10 value="0.0817986562595302" flag="0"/>
			<psa30 value="0.01113661774627" flag="0"/>
		</comp>
	</station>
	<station code="KAC1" name="KAC1" netid="HI" source="ITSAK Strong Motion Network" insttype="" lat="38.143412" lon="21.549694" esm:processing="automatic (Paolucci et al 2011)" esm:quality="best">
		<comp name="--.HNE" depth="0.0">
			<acc value="0.200501457266389" flag="0"/>
			<vel value="0.117357742145675" flag="0"/>
			<psa03 value="0.439645582695518" flag="0"/>
			<psa10 value="0.148328446031591" flag="0"/>
			<psa30 value="0.0459746655959638" flag="0"/>
		</comp>
		<comp name="--.HNN" depth="0.0">
			<acc value="0.15214837736282" flag="0"/>
			<vel value="0.0773945502137947" flag="0"/>
			<psa03 value="0.467007270273036" flag="0"/>
			<psa10 value="0.117171119511622" flag="0"/>
			<psa30 value="0.0495446154209526" flag="0"/>
		</comp>
		<comp name="--.HNZ" depth="0.0">
			<acc value="0.108571141875036" flag="0"/>
			<vel value="0.0450052958958487" flag="0"/>
			<psa03 value="0.189878599358665" flag="0"/>
			<psa10 value="0.0623815274700422" flag="0"/>
			<psa30 value="0.0129744003236797" flag="0"/>
		</comp>
	</station>
	<station code="KAR2" name="KAR2" netid="HI" source="ITSAK Strong Motion Network" insttype="" lat="39.365759" lon="21.91933" esm:processing="manual (Paolucci et al 2011)" esm:quality="good">
		<comp name="--.HNE" depth="0.0">
			<acc value="0.0429024912905579" flag="0"/>
			<vel value="0.0435224128440953" flag="0"/>
			<psa03 value="0.114086255571192" flag="0"/>
			<psa10 value="0.0536535217825002" flag="0"/>
			<psa30 value="0.030158387845185" flag="0"/>
		</comp>
		<comp name="--.HNN" depth="0.0">
			<acc value="0.0511734921578286" flag="0"/>
			<vel value="0.03906506029251" flag="0"/>
			<psa03 value="0.105193072691472" flag="0"/>
			<psa10 value="0.0765384377958728" flag="0"/>
			<psa30 value="0.0297655218197389" flag="0"/>
		</comp>
		<comp name="--.HNZ" depth="0.0">
			<acc value="0.019802282214921" flag="0"/>
			<vel value="0.0186774398609052" flag="0"/>
			<psa03 value="0.0459984117523634" flag="0"/>
			<psa10 value="0.0270895239230114" flag="0"/>
			<psa30 value="0.00342840003134303" flag="0"/>
		</comp>
	</station>
