<stationlist created="1778135940">
	<station code="AGRP" name="AGRP" netid="CL" source="Corinth Riff Laboratory (CRLNET)" insttype="" lat="38.3959" lon="21.72277">
		<comp name="00.HNE" depth="0.0">
			<acc value="0.436574820343837" flag="0"/>
			<vel value="0.100718266745428" flag="0"/>
			<psa03 value="0.493148601346591" flag="0"/>
			<psa10 value="0.0900150558070362" flag="0"/>
			<psa30 value="0.0166405214854676" flag="0"/>
		</comp>
		<comp name="00.HNN" depth="0.0">
			<acc value="0.340758801386534" flag="0"/>
			<vel value="0.0972791772947195" flag="0"/>
			<psa03 value="0.334447994471581" flag="0"/>
			<psa10 value="0.0757481083826679" flag="0"/>
			<psa30 value="0.0173716091416102" flag="0"/>
		</comp>
		<comp name="00.HNZ" depth="0.0">
			<acc value="0.237679796512423" flag="0"/>
			<vel value="0.0748186328600448" flag="0"/>
			<psa03 value="0.235612460051819" flag="0"/>
			<psa10 value="0.0601321834287587" flag="0"/>
			<psa30 value="0.0199778426771245" flag="0"/>
		</comp>
	</station>
	<station code="MALA" name="MALA" netid="CL" source="Corinth Riff Laboratory (CRLNET)" insttype="" lat="38.39341" lon="21.87263">
		<comp name="01.HNE" depth="0.0">
			<acc value="2.51614990597832" flag="0"/>
			<vel value="1.14290442074094" flag="0"/>
			<psa03 value="3.99337616730061" flag="0"/>
			<psa10 value="1.1762721645723" flag="0"/>
			<psa30 value="0.123497438707754" flag="0"/>
		</comp>
		<comp name="01.HNN" depth="0.0">
			<acc value="5.14072598101448" flag="0"/>
			<vel value="2.23151375443425" flag="0"/>
			<psa03 value="4.54670303654878" flag="0"/>
			<psa10 value="1.46870230538659" flag="0"/>
			<psa30 value="0.095555930674643" flag="0"/>
		</comp>
		<comp name="01.HNZ" depth="0.0">
			<acc value="1.18318797631829" flag="0"/>
			<vel value="0.345203220979418" flag="0"/>
			<psa03 value="0.945760763497028" flag="0"/>
			<psa10 value="0.440576061148056" flag="0"/>
			<psa30 value="0.0595384543469342" flag="0"/>
		</comp>
	</station>
	<station code="AIGS" name="AIGS" netid="HA" source="Hellenic Seismological Network, University of Athens, Seismological Laboratory (HA)" insttype="" lat="38.25001" lon="22.0878">
		<comp name="--.HNE" depth="0.0">
			<acc value="2.22973177209266" flag="0"/>
			<vel value="0.894976580627817" flag="0"/>
			<psa03 value="5.14709870715936" flag="0"/>
			<psa10 value="0.511343019667911" flag="0"/>
			<psa30 value="0.0807959241333413" flag="0"/>
		</comp>
		<comp name="--.HNN" depth="0.0">
			<acc value="3.4306577404119" flag="0"/>
			<vel value="1.55139131813437" flag="0"/>
			<psa03 value="9.4032905961357" flag="0"/>
			<psa10 value="0.343840278484889" flag="0"/>
			<psa30 value="0.0468880428476841" flag="0"/>
		</comp>
		<comp name="--.HNZ" depth="0.0">
			<acc value="2.66544017297817" flag="0"/>
			<vel value="0.433968229936001" flag="0"/>
			<psa03 value="1.17757013598629" flag="0"/>
			<psa10 value="0.457714115971119" flag="0"/>
			<psa30 value="0.0513743439052982" flag="0"/>
		</comp>
	</station>
	<station code="LTRS" name="LTRS" netid="HA" source="Hellenic Seismological Network, University of Athens, Seismological Laboratory (HA)" insttype="" lat="37.97528" lon="22.9765">
		<comp name="--.HNE" depth="0.0">
			<acc value="0.0611437134291556" flag="0"/>
			<vel value="0.0478447433358865" flag="0"/>
			<psa03 value="0.188588400896015" flag="0"/>
			<psa10 value="0.0632408719445962" flag="0"/>
			<psa30 value="0.00929071920428413" flag="0"/>
		</comp>
		<comp name="--.HNN" depth="0.0">
			<acc value="0.0549005709503452" flag="0"/>
			<vel value="0.0456192309258763" flag="0"/>
			<psa03 value="0.152257729121979" flag="0"/>
			<psa10 value="0.0705414577984996" flag="0"/>
			<psa30 value="0.00786254796902889" flag="0"/>
		</comp>
		<comp name="--.HNZ" depth="0.0">
			<acc value="0.0460511726786422" flag="0"/>
			<vel value="0.0276620411212155" flag="0"/>
			<psa03 value="0.0707374286634876" flag="0"/>
			<psa10 value="0.0641750892187857" flag="0"/>
			<psa30 value="0.0070312377700614" flag="0"/>
		</comp>
	</station>
	<station code="ARS1" name="ARS1" netid="HI" source="ITSAK Strong Motion Network" insttype="" lat="37.6349" lon="22.7293">
		<comp name="--.HNE" depth="0.0">
			<acc value="0.0391676275128489" flag="0"/>
			<vel value="0.0405635790607201" flag="0"/>
			<psa03 value="0.116144162730685" flag="0"/>
			<psa10 value="0.0743512179034606" flag="0"/>
			<psa30 value="0.00392011843860778" flag="0"/>
		</comp>
		<comp name="--.HNN" depth="0.0">
			<acc value="0.0659970491565885" flag="0"/>
			<vel value="0.0467918383560093" flag="0"/>
			<psa03 value="0.268228352145317" flag="0"/>
			<psa10 value="0.081322539719066" flag="0"/>
			<psa30 value="0.00668771802850307" flag="0"/>
		</comp>
		<comp name="--.HNZ" depth="0.0">
			<acc value="0.0345368796508875" flag="0"/>
			<vel value="0.0205342352186663" flag="0"/>
			<psa03 value="0.110260002100711" flag="0"/>
			<psa10 value="0.0265014287145701" flag="0"/>
			<psa30 value="0.00378657167512393" flag="0"/>
		</comp>
	</station>
	<station code="ATH5" name="ATH5" netid="HI" source="ITSAK Strong Motion Network" insttype="" lat="37.975421" lon="23.737098">
		<comp name="--.HNE" depth="0.0">
			<acc value="0.0140697596576426" flag="0"/>
			<vel value="0.0129271166979015" flag="0"/>
			<psa03 value="0.0288286389225191" flag="0"/>
			<psa10 value="0.0272261829759938" flag="0"/>
			<psa30 value="0.00211363001761651" flag="0"/>
		</comp>
		<comp name="--.HNN" depth="0.0">
			<acc value="0.0153592055926808" flag="0"/>
			<vel value="0.0113774615512163" flag="0"/>
			<psa03 value="0.0483716887619414" flag="0"/>
			<psa10 value="0.0157959582797139" flag="0"/>
			<psa30 value="0.00203353179483582" flag="0"/>
		</comp>
		<comp name="--.HNZ" depth="0.0">
			<acc value="0.00804450439832176" flag="0"/>
			<vel value="0.00654820674326367" flag="0"/>
			<psa03 value="0.0155091875637917" flag="0"/>
			<psa10 value="0.0117674189087411" flag="0"/>
			<psa30 value="0.00178284060444038" flag="0"/>
		</comp>
	</station>
	<station code="KLV1" name="KLV1" netid="HI" source="ITSAK Strong Motion Network" insttype="" lat="38.03256" lon="22.10797">
		<comp name="--.HNE" depth="0.0">
			<acc value="0.291128753823784" flag="0"/>
			<vel value="0.158103148483612" flag="0"/>
			<psa03 value="0.89600742973751" flag="0"/>
			<psa10 value="0.18241800318129" flag="0"/>
			<psa30 value="0.00913546374731872" flag="0"/>
		</comp>
		<comp name="--.HNN" depth="0.0">
			<acc value="0.363614022913712" flag="0"/>
			<vel value="0.183809515785121" flag="0"/>
			<psa03 value="1.021598803715" flag="0"/>
			<psa10 value="0.119978464157227" flag="0"/>
			<psa30 value="0.0154919890415766" flag="0"/>
		</comp>
		<comp name="--.HNZ" depth="0.0">
			<acc value="0.282000438693002" flag="0"/>
			<vel value="0.130287911825458" flag="0"/>
			<psa03 value="0.429122503675844" flag="0"/>
			<psa10 value="0.119519409117323" flag="0"/>
			<psa30 value="0.021881623568732" flag="0"/>
		</comp>
	</station>
	<station code="LAM2" name="LAM2" netid="HI" source="ITSAK Strong Motion Network" insttype="" lat="38.90203" lon="22.431301">
		<comp name="--.HNE" depth="0.0">
			<acc value="0.0744224563890732" flag="0"/>
			<vel value="0.0315765510893046" flag="0"/>
			<psa03 value="0.115966307198589" flag="0"/>
			<psa10 value="0.030141680488422" flag="0"/>
			<psa30 value="0.00864768036638171" flag="0"/>
		</comp>
		<comp name="--.HNN" depth="0.0">
			<acc value="0.0829182969555624" flag="0"/>
			<vel value="0.0399511164985381" flag="0"/>
			<psa03 value="0.142373129437639" flag="0"/>
			<psa10 value="0.0255225294923111" flag="0"/>
			<psa30 value="0.00612453155349738" flag="0"/>
		</comp>
		<comp name="--.HNZ" depth="0.0">
			<acc value="0.0438780443602093" flag="0"/>
			<vel value="0.020302279085524" flag="0"/>
			<psa03 value="0.0582451397044875" flag="0"/>
			<psa10 value="0.0194630693328235" flag="0"/>
			<psa30 value="0.00724103218286622" flag="0"/>
		</comp>
	</station>
	<station code="MSL1" name="MSL1" netid="HI" source="ITSAK Strong Motion Network" insttype="" lat="38.3727" lon="21.4243">
		<comp name="--.HNE" depth="0.0">
			<acc value="0.121909293594359" flag="0"/>
			<vel value="0.0859194251359776" flag="0"/>
			<psa03 value="0.39583430195185" flag="0"/>
			<psa10 value="0.1268441557628" flag="0"/>
			<psa30 value="0.018913873003742" flag="0"/>
		</comp>
		<comp name="--.HNN" depth="0.0">
			<acc value="0.141540957805906" flag="0"/>
			<vel value="0.0584083114258964" flag="0"/>
			<psa03 value="0.2262613388686" flag="0"/>
			<psa10 value="0.0976820803331432" flag="0"/>
			<psa30 value="0.0120857648517276" flag="0"/>
		</comp>
		<comp name="--.HNZ" depth="0.0">
			<acc value="0.0827116873506052" flag="0"/>
			<vel value="0.0362965081208727" flag="0"/>
			<psa03 value="0.134763526334235" flag="0"/>
			<psa10 value="0.0812567688615095" flag="0"/>
			<psa30 value="0.00640708398773651" flag="0"/>
		</comp>
	</station>
	<station code="PYL1" name="PYL1" netid="HI" source="ITSAK Strong Motion Network" insttype="" lat="36.914188" lon="21.695161">
		<comp name="--.HNE" depth="0.0">
			<acc value="0.00667990954241507" flag="0"/>
			<vel value="0.0115915130501016" flag="0"/>
			<psa03 value="0.017096801850045" flag="0"/>
			<psa10 value="0.0155675428358176" flag="0"/>
			<psa30 value="0.00338888408027232" flag="0"/>
		</comp>
		<comp name="--.HNN" depth="0.0">
			<acc value="0.00545430493461202" flag="0"/>
			<vel value="0.00599594874178893" flag="0"/>
			<psa03 value="0.014771658237354" flag="0"/>
			<psa10 value="0.00593360135320709" flag="0"/>
			<psa30 value="0.00291028320864488" flag="0"/>
		</comp>
		<comp name="--.HNZ" depth="0.0">
			<acc value="0.00530753345325427" flag="0"/>
			<vel value="0.00659788184524579" flag="0"/>
			<psa03 value="0.0127822855657826" flag="0"/>
			<psa10 value="0.00635664578410308" flag="0"/>
			<psa30 value="0.00322028541143579" flag="0"/>
		</comp>
	</station>
	<station code="SKO1" name="SKO1" netid="HI" source="ITSAK Strong Motion Network" insttype="" lat="39.123383" lon="23.728705">
		<comp name="--.HNE" depth="0.0">
			<acc value="0.00462447771232102" flag="0"/>
			<vel value="0.00449834886792004" flag="0"/>
			<psa03 value="0.0201758013915523" flag="0"/>
			<psa10 value="0.00644946630799508" flag="0"/>
			<psa30 value="0.00162679964249034" flag="0"/>
		</comp>
		<comp name="--.HNN" depth="0.0">
			<acc value="0.00480572501771295" flag="0"/>
			<vel value="0.00484191029348111" flag="0"/>
			<psa03 value="0.0193657490316733" flag="0"/>
			<psa10 value="0.00430769286350522" flag="0"/>
			<psa30 value="0.000851327229585022" flag="0"/>
		</comp>
		<comp name="--.HNZ" depth="0.0">
			<acc value="0.00449808425448306" flag="0"/>
			<vel value="0.00344331746098498" flag="0"/>
			<psa03 value="0.0145770281565684" flag="0"/>
			<psa10 value="0.00346539034635283" flag="0"/>
			<psa30 value="0.00152271451819833" flag="0"/>
		</comp>
	</station>
	<station code="VAS2" name="VAS2" netid="HI" source="ITSAK Strong Motion Network" insttype="" lat="38.630558" lon="20.608081">
		<comp name="--.HNE" depth="0.0">
			<acc value="0.0421439391136513" flag="0"/>
			<vel value="0.0379614990863394" flag="0"/>
			<psa03 value="0.114844930829849" flag="0"/>
			<psa10 value="0.0761778814109589" flag="0"/>
			<psa30 value="0.00542823834416709" flag="0"/>
		</comp>
		<comp name="--.HNN" depth="0.0">
			<acc value="0.0642663046640945" flag="0"/>
			<vel value="0.0445621610210072" flag="0"/>
			<psa03 value="0.131226880636678" flag="0"/>
			<psa10 value="0.0985237892174319" flag="0"/>
			<psa30 value="0.00729679004321333" flag="0"/>
		</comp>
		<comp name="--.HNZ" depth="0.0">
			<acc value="0.0227243006354415" flag="0"/>
			<vel value="0.0202234927323929" flag="0"/>
			<psa03 value="0.0724339598527414" flag="0"/>
			<psa10 value="0.0482066834563255" flag="0"/>
			<psa30 value="0.00281910591859876" flag="0"/>
		</comp>
	</station>
	<station code="ATHP" name="ATHP" netid="HL" source="National Observatory of Athens Seismic Network" insttype="" lat="38.000799" lon="23.773487">
		<comp name="00.HNE" depth="0.0">
			<acc value="0.0202774144846977" flag="0"/>
			<vel value="0.0129726186473555" flag="0"/>
			<psa03 value="0.0348699557967838" flag="0"/>
			<psa10 value="0.0342558530321369" flag="0"/>
			<psa30 value="0.00214518939993516" flag="0"/>
		</comp>
		<comp name="00.HNN" depth="0.0">
			<acc value="0.0116704108277034" flag="0"/>
			<vel value="0.0116382565197087" flag="0"/>
			<psa03 value="0.0309238167802436" flag="0"/>
			<psa10 value="0.0183953004733899" flag="0"/>
			<psa30 value="0.00236083576878331" flag="0"/>
		</comp>
		<comp name="00.HNZ" depth="0.0">
			<acc value="0.00832586571064672" flag="0"/>
			<vel value="0.00692365180099382" flag="0"/>
			<psa03 value="0.0142956918110757" flag="0"/>
			<psa10 value="0.0143645540811933" flag="0"/>
			<psa30 value="0.00248648909269928" flag="0"/>
		</comp>
	</station>
	<station code="DLFA" name="DLFA" netid="HL" source="National Observatory of Athens Seismic Network" insttype="" lat="38.47836" lon="22.49583">
		<comp name="00.HNE" depth="0.0">
			<acc value="0.290735840503951" flag="0"/>
			<vel value="0.122321338241049" flag="0"/>
			<psa03 value="0.867775097361381" flag="0"/>
			<psa10 value="0.0668569370834849" flag="0"/>
			<psa30 value="0.00633639130127964" flag="0"/>
		</comp>
		<comp name="00.HNN" depth="0.0">
			<acc value="0.333387297001149" flag="0"/>
			<vel value="0.127823140324255" flag="0"/>
			<psa03 value="0.805091265889182" flag="0"/>
			<psa10 value="0.0757521351812635" flag="0"/>
			<psa30 value="0.00700081306956098" flag="0"/>
		</comp>
		<comp name="00.HNZ" depth="0.0">
			<acc value="0.321091732812188" flag="0"/>
			<vel value="0.063502521237487" flag="0"/>
			<psa03 value="0.434715279503128" flag="0"/>
			<psa10 value="0.0363499109228825" flag="0"/>
			<psa30 value="0.0063220737951618" flag="0"/>
		</comp>
	</station>
	<station code="ITM" name="ITM" netid="HL" source="National Observatory of Athens Seismic Network" insttype="" lat="37.17872" lon="21.92522">
		<comp name="--.HNE" depth="0.0">
			<acc value="0.0138645306011817" flag="0"/>
			<vel value="0.010715174665925" flag="0"/>
			<psa03 value="0.0288155286790315" flag="0"/>
			<psa10 value="0.0129726446865341" flag="0"/>
			<psa30 value="0.00384013730691559" flag="0"/>
		</comp>
		<comp name="--.HNN" depth="0.0">
			<acc value="0.0147104620586718" flag="0"/>
			<vel value="0.012579598307873" flag="0"/>
			<psa03 value="0.0335097458978803" flag="0"/>
			<psa10 value="0.018442876125037" flag="0"/>
			<psa30 value="0.00371201423605756" flag="0"/>
		</comp>
		<comp name="--.HNZ" depth="0.0">
			<acc value="0.00943146525975477" flag="0"/>
			<vel value="0.0123419346148292" flag="0"/>
			<psa03 value="0.0210986255449684" flag="0"/>
			<psa10 value="0.0146547370544072" flag="0"/>
			<psa30 value="0.00228048732109135" flag="0"/>
		</comp>
	</station>
	<station code="JAN" name="JAN" netid="HL" source="National Observatory of Athens Seismic Network" insttype="" lat="39.65616" lon="20.84874">
		<comp name="00.HNE" depth="0.0">
			<acc value="0.00494765295458771" flag="0"/>
			<vel value="0.00851436887533367" flag="0"/>
			<psa03 value="0.0141136589189659" flag="0"/>
			<psa10 value="0.0122831165086923" flag="0"/>
			<psa30 value="0.0021234169159505" flag="0"/>
		</comp>
		<comp name="00.HNN" depth="0.0">
			<acc value="0.00538874515678987" flag="0"/>
			<vel value="0.00491805687208775" flag="0"/>
			<psa03 value="0.0119598000905684" flag="0"/>
			<psa10 value="0.0067996162224607" flag="0"/>
			<psa30 value="0.00212639294643218" flag="0"/>
		</comp>
		<comp name="00.HNZ" depth="0.0">
			<acc value="0.00361526204517707" flag="0"/>
			<vel value="0.00505686972199784" flag="0"/>
			<psa03 value="0.00807075014235854" flag="0"/>
			<psa10 value="0.00591691743549481" flag="0"/>
			<psa30 value="0.00228713109454222" flag="0"/>
		</comp>
	</station>
	<station code="KYMI" name="KYMI" netid="HL" source="National Observatory of Athens Seismic Network" insttype="" lat="38.633147" lon="24.100138">
		<comp name="--.HNE" depth="1.0">
			<acc value="0.00549007652887282" flag="0"/>
			<vel value="0.00495976287420696" flag="0"/>
			<psa03 value="0.0131950616080724" flag="0"/>
			<psa10 value="0.00764473564497384" flag="0"/>
			<psa30 value="0.00169600568538833" flag="0"/>
		</comp>
		<comp name="--.HNN" depth="1.0">
			<acc value="0.00443933432657375" flag="0"/>
			<vel value="0.00479065954894194" flag="0"/>
			<psa03 value="0.0128544270635468" flag="0"/>
			<psa10 value="0.0103347555643261" flag="0"/>
			<psa30 value="0.00201001752879635" flag="0"/>
		</comp>
		<comp name="--.HNZ" depth="1.0">
			<acc value="0.00282785279017687" flag="0"/>
			<vel value="0.00356222720071801" flag="0"/>
			<psa03 value="0.00728446758627211" flag="0"/>
			<psa10 value="0.00595912413772892" flag="0"/>
			<psa30 value="0.00118880687762003" flag="0"/>
		</comp>
	</station>
	<station code="MNVA" name="MNVA" netid="HL" source="National Observatory of Athens Seismic Network" insttype="" lat="36.68709" lon="23.03734">
		<comp name="00.HNE" depth="0.0">
			<acc value="0.00437827141608125" flag="0"/>
			<vel value="0.00638765807573652" flag="0"/>
			<psa03 value="0.00960050642913008" flag="0"/>
			<psa10 value="0.0108546018766165" flag="0"/>
			<psa30 value="0.00202126848245198" flag="0"/>
		</comp>
		<comp name="00.HNN" depth="0.0">
			<acc value="0.00435285167408394" flag="0"/>
			<vel value="0.00478395628554394" flag="0"/>
			<psa03 value="0.00806143442107497" flag="0"/>
			<psa10 value="0.00544675253936568" flag="0"/>
			<psa30 value="0.00235755951008189" flag="0"/>
		</comp>
		<comp name="00.HNZ" depth="0.0">
			<acc value="0.00954096135289972" flag="0"/>
			<vel value="0.00417325470232599" flag="0"/>
			<psa03 value="0.00799564685986569" flag="0"/>
			<psa10 value="0.00485954567105647" flag="0"/>
			<psa30 value="0.00120923364745985" flag="0"/>
		</comp>
	</station>
	<station code="NOAC" name="NOAC" netid="HL" source="National Observatory of Athens Seismic Network" insttype="" lat="37.97384" lon="23.71767">
		<comp name="00.HNE" depth="0.0">
			<acc value="0.0240641012495431" flag="0"/>
			<vel value="0.0155376265095902" flag="0"/>
			<psa03 value="0.0805132606918531" flag="0"/>
			<psa10 value="0.0174981979197389" flag="0"/>
			<psa30 value="0.0024169265678584" flag="0"/>
		</comp>
		<comp name="00.HNN" depth="0.0">
			<acc value="0.0158335760398072" flag="0"/>
			<vel value="0.0109639911473975" flag="0"/>
			<psa03 value="0.0377795287500527" flag="0"/>
			<psa10 value="0.00994236332028421" flag="0"/>
			<psa30 value="0.00223246226466745" flag="0"/>
		</comp>
		<comp name="00.HNZ" depth="0.0">
			<acc value="0.0118107692946202" flag="0"/>
			<vel value="0.00913921740130067" flag="0"/>
			<psa03 value="0.045691870612233" flag="0"/>
			<psa10 value="0.0123404015535564" flag="0"/>
			<psa30 value="0.0017920199625295" flag="0"/>
		</comp>
	</station>
	<station code="PATC" name="PATC" netid="HL" source="National Observatory of Athens Seismic Network" insttype="" lat="38.26933" lon="21.76001">
		<comp name="00.HNE" depth="0.0">
			<acc value="0.43742484333733" flag="0"/>
			<vel value="0.233928410522839" flag="0"/>
			<psa03 value="1.07144162188775" flag="0"/>
			<psa10 value="0.266855942933358" flag="0"/>
			<psa30 value="0.0481350081461353" flag="0"/>
		</comp>
		<comp name="00.HNN" depth="0.0">
			<acc value="0.5740521452161" flag="0"/>
			<vel value="0.272654224361762" flag="0"/>
			<psa03 value="0.989652868189553" flag="0"/>
			<psa10 value="0.564734342247561" flag="0"/>
			<psa30 value="0.0788178711787475" flag="0"/>
		</comp>
		<comp name="00.HNZ" depth="0.0">
			<acc value="0.448947674905893" flag="0"/>
			<vel value="0.19620309318497" flag="0"/>
			<psa03 value="0.50276817576952" flag="0"/>
			<psa10 value="0.239880419141136" flag="0"/>
			<psa30 value="0.0349664818942456" flag="0"/>
		</comp>
	</station>
