<?xml version="1.0" encoding="UTF-8" standalone="yes"?>
<!DOCTYPE earthquake SYSTEM "stationlist.dtd">
<stationlist created="" xmlns="ch.ethz.sed.shakemap.usgs.xml">
  <station code="SNT1" name="SNT1" netid="HA" insttype="30" lat="36.4159" lon="25.4282">
    <comp name="--.HHN">
      <acc value="0.0201080064" flag="0"/>
      <vel value="0.0097230936" flag="0"/>
      <psa03 value="0.0602943493" flag="0"/>
      <psa10 value="0.0103682819" flag="0"/>
      <psa30 value="0.0006002529" flag="0"/>
    </comp>
    <comp name="--.HHE">
      <acc value="0.0319440161" flag="0"/>
      <vel value="0.0111648702" flag="0"/>
      <psa03 value="0.0641423848" flag="0"/>
      <psa10 value="0.0119660778" flag="0"/>
      <psa30 value="0.0005761620" flag="0"/>
    </comp>
    <comp name="--.HHZ">
      <acc value="0.0282589010" flag="0"/>
      <vel value="0.0106033714" flag="0"/>
      <psa03 value="0.0621420732" flag="0"/>
      <psa10 value="0.0052975179" flag="0"/>
      <psa30 value="0.0003100019" flag="0"/>
    </comp>
  </station>
  <station code="SNT5" name="SNT5" netid="HA" insttype="1s-100Hz," lat="36.4037" lon="25.3953">
    <comp name="--.HHE">
      <acc value="0.0973219323" flag="0"/>
      <vel value="0.0369471459" flag="0"/>
      <psa03 value="0.1884455587" flag="0"/>
      <psa10 value="0.0073984505" flag="0"/>
      <psa30 value="0.0012500499" flag="0"/>
    </comp>
    <comp name="--.HHN">
      <acc value="0.0811372821" flag="0"/>
      <vel value="0.0228150216" flag="0"/>
      <psa03 value="0.2254334555" flag="0"/>
      <psa10 value="0.0045727280" flag="0"/>
      <psa30 value="0.0005876693" flag="0"/>
    </comp>
    <comp name="--.HHZ">
      <acc value="0.0433839647" flag="0"/>
      <vel value="0.0088712596" flag="0"/>
      <psa03 value="0.0688236721" flag="0"/>
      <psa10 value="0.0039111556" flag="0"/>
      <psa30 value="0.0002571812" flag="0"/>
    </comp>
  </station>
  <station code="IMOD" name="IMOD" netid="HC" insttype="120" lat="34.9731" lon="24.7995">
    <comp name="--.HHE">
      <acc value="0.0289308895" flag="0"/>
      <vel value="0.0147118122" flag="0"/>
      <psa03 value="0.0573149867" flag="0"/>
      <psa10 value="0.0076571697" flag="0"/>
      <psa30 value="0.0005767992" flag="0"/>
    </comp>
    <comp name="--.HHN">
      <acc value="0.0287858339" flag="0"/>
      <vel value="0.0172383867" flag="0"/>
      <psa03 value="0.1136538870" flag="0"/>
      <psa10 value="0.0121496539" flag="0"/>
      <psa30 value="0.0007690702" flag="0"/>
    </comp>
    <comp name="--.HHZ">
      <acc value="0.0165639959" flag="0"/>
      <vel value="0.0089441794" flag="0"/>
      <psa03 value="0.0598778709" flag="0"/>
      <psa10 value="0.0041208727" flag="0"/>
      <psa30 value="0.0002757628" flag="0"/>
    </comp>
  </station>
  <station code="IPPL" name="IPPL" netid="HC" insttype="60" lat="35.3486" lon="24.4632">
    <comp name="--.HHN">
      <acc value="0.0000000000" flag="0"/>
      <vel value="-100.0000000000" flag="0"/>
      <psa03 value="0.0000000000" flag="0"/>
      <psa10 value="0.0000000000" flag="0"/>
      <psa30 value="0.0000000000" flag="0"/>
    </comp>
    <comp name="--.HHE">
      <acc value="0.0000000000" flag="0"/>
      <vel value="-100.0000000000" flag="0"/>
      <psa03 value="0.0000000000" flag="0"/>
      <psa10 value="0.0000000000" flag="0"/>
      <psa30 value="0.0000000000" flag="0"/>
    </comp>
    <comp name="--.HHZ">
      <acc value="0.0178927755" flag="0"/>
      <vel value="0.0067981275" flag="0"/>
      <psa03 value="0.0429165022" flag="0"/>
      <psa10 value="0.0035257811" flag="0"/>
      <psa30 value="0.0002023065" flag="0"/>
    </comp>
  </station>
  <station code="KNSS" name="KNSS" netid="HC" insttype="60" lat="35.3042" lon="25.1802">
    <comp name="--.HHE">
      <acc value="0.1224259959" flag="0"/>
      <vel value="0.0282427196" flag="0"/>
      <psa03 value="0.2003936786" flag="0"/>
      <psa10 value="0.0089844384" flag="0"/>
      <psa30 value="0.0007142668" flag="0"/>
    </comp>
    <comp name="--.HHN">
      <acc value="0.1026060722" flag="0"/>
      <vel value="0.0237961531" flag="0"/>
      <psa03 value="0.1284195766" flag="0"/>
      <psa10 value="0.0062826149" flag="0"/>
      <psa30 value="0.0006594378" flag="0"/>
    </comp>
    <comp name="--.HHZ">
      <acc value="0.0686363115" flag="0"/>
      <vel value="0.0237604469" flag="0"/>
      <psa03 value="0.1725655559" flag="0"/>
      <psa10 value="0.0109140078" flag="0"/>
      <psa30 value="0.0007579056" flag="0"/>
    </comp>
  </station>
  <station code="PFKS" name="PFKS" netid="HC" insttype="120" lat="35.0429" lon="25.4733">
    <comp name="--.HHE">
      <acc value="0.0754322037" flag="0"/>
      <vel value="0.0202243411" flag="0"/>
      <psa03 value="0.1335592534" flag="0"/>
      <psa10 value="0.0082425860" flag="0"/>
      <psa30 value="0.0004882325" flag="0"/>
    </comp>
    <comp name="--.HHZ">
      <acc value="0.0466235777" flag="0"/>
      <vel value="0.0109157710" flag="0"/>
      <psa03 value="0.0412244940" flag="0"/>
      <psa10 value="0.0039685444" flag="0"/>
      <psa30 value="0.0003308862" flag="0"/>
    </comp>
    <comp name="--.HHN">
      <acc value="0.1010894197" flag="0"/>
      <vel value="0.0244632668" flag="0"/>
      <psa03 value="0.1054999347" flag="0"/>
      <psa10 value="0.0057572607" flag="0"/>
      <psa30 value="0.0003822194" flag="0"/>
    </comp>
  </station>
  <station code="STIA" name="STIA" netid="HC" insttype="120" lat="35.2021" lon="26.0909">
    <comp name="--.HHE">
      <acc value="0.0292726493" flag="0"/>
      <vel value="0.0094462920" flag="0"/>
      <psa03 value="0.0583667795" flag="0"/>
      <psa10 value="0.0075606811" flag="0"/>
      <psa30 value="0.0004831960" flag="0"/>
    </comp>
    <comp name="--.HHN">
      <acc value="0.0000000000" flag="0"/>
      <vel value="-100.0000000000" flag="0"/>
      <psa03 value="0.0000000000" flag="0"/>
      <psa10 value="0.0000000000" flag="0"/>
      <psa30 value="0.0000000000" flag="0"/>
    </comp>
    <comp name="--.HHZ">
      <acc value="0.0432634836" flag="0"/>
      <vel value="0.0076783832" flag="0"/>
      <psa03 value="0.0414246274" flag="0"/>
      <psa10 value="0.0025595877" flag="0"/>
      <psa30 value="0.0003248130" flag="0"/>
    </comp>
  </station>
  <station code="IACM" name="IACM" netid="HL" insttype="120" lat="35.3058" lon="25.0709">
    <comp name="--.HHE">
      <acc value="0.2246351553" flag="0"/>
      <vel value="0.0765204626" flag="0"/>
      <psa03 value="0.5508274722" flag="0"/>
      <psa10 value="0.0451328485" flag="0"/>
      <psa30 value="0.0025885686" flag="0"/>
    </comp>
    <comp name="--.HHN">
      <acc value="0.3237361954" flag="0"/>
      <vel value="0.0733193535" flag="0"/>
      <psa03 value="0.5997140782" flag="0"/>
      <psa10 value="0.0347152100" flag="0"/>
      <psa30 value="0.0025487920" flag="0"/>
    </comp>
    <comp name="--.HHZ">
      <acc value="0.2198479645" flag="0"/>
      <vel value="0.0659504790" flag="0"/>
      <psa03 value="0.2593748774" flag="0"/>
      <psa10 value="0.0223307693" flag="0"/>
      <psa30 value="0.0010133686" flag="0"/>
    </comp>
  </station>
  <station code="IDI" name="IDI" netid="HL" insttype="120" lat="35.288" lon="24.89">
    <comp name="--.HHE">
      <acc value="0.0563470159" flag="0"/>
      <vel value="0.0153790815" flag="0"/>
      <psa03 value="0.0772620127" flag="0"/>
      <psa10 value="0.0035837164" flag="0"/>
      <psa30 value="0.0003617925" flag="0"/>
    </comp>
    <comp name="--.HHZ">
      <acc value="0.0439169160" flag="0"/>
      <vel value="0.0109411717" flag="0"/>
      <psa03 value="0.0502858692" flag="0"/>
      <psa10 value="0.0035865026" flag="0"/>
      <psa30 value="0.0002536947" flag="0"/>
    </comp>
    <comp name="--.HHN">
      <acc value="0.0463621524" flag="0"/>
      <vel value="0.0107777120" flag="0"/>
      <psa03 value="0.0767273767" flag="0"/>
      <psa10 value="0.0034146799" flag="0"/>
      <psa30 value="0.0003052482" flag="0"/>
    </comp>
  </station>
  <station code="SIVA" name="SIVA" netid="HL" insttype="60" lat="35.0178" lon="24.812">
    <comp name="--.HHN">
      <acc value="0.0405842094" flag="0"/>
      <vel value="0.0162990749" flag="0"/>
      <psa03 value="0.0624994838" flag="0"/>
      <psa10 value="0.0081058172" flag="0"/>
      <psa30 value="0.0005449553" flag="0"/>
    </comp>
    <comp name="--.HHE">
      <acc value="0.0486041280" flag="0"/>
      <vel value="0.0229835749" flag="0"/>
      <psa03 value="0.1244831549" flag="0"/>
      <psa10 value="0.0141248987" flag="0"/>
      <psa30 value="0.0007031776" flag="0"/>
    </comp>
    <comp name="--.HHZ">
      <acc value="0.0271896848" flag="0"/>
      <vel value="0.0113034962" flag="0"/>
      <psa03 value="0.0667973759" flag="0"/>
      <psa10 value="0.0042389677" flag="0"/>
      <psa30 value="0.0003603564" flag="0"/>
    </comp>
  </station>
  <station code="THERA" name="THERA" netid="HL" insttype="120" lat="36.367" lon="25.4753">
    <comp name="--.HHE">
      <acc value="0.0638507521" flag="0"/>
      <vel value="0.0254849520" flag="0"/>
      <psa03 value="0.1147013515" flag="0"/>
      <psa10 value="0.0098047678" flag="0"/>
      <psa30 value="0.0005660522" flag="0"/>
    </comp>
    <comp name="--.HHN">
      <acc value="0.0416154068" flag="0"/>
      <vel value="0.0163113499" flag="0"/>
      <psa03 value="0.0743360889" flag="0"/>
      <psa10 value="0.0036897374" flag="0"/>
      <psa30 value="0.0003422438" flag="0"/>
    </comp>
    <comp name="--.HHZ">
      <acc value="0.0345283558" flag="0"/>
      <vel value="0.0145840639" flag="0"/>
      <psa03 value="0.0781277157" flag="0"/>
      <psa10 value="0.0057417226" flag="0"/>
      <psa30 value="0.0003761666" flag="0"/>
    </comp>
  </station>
  <station code="CMBO" name="CMBO" netid="HT" insttype="120P," lat="36.4709" lon="25.4056">
    <comp name="--.HHE">
      <acc value="0.0772845776" flag="0"/>
      <vel value="0.0563624188" flag="0"/>
      <psa03 value="0.1822517793" flag="0"/>
      <psa10 value="0.0441497191" flag="0"/>
      <psa30 value="0.0023744023" flag="0"/>
    </comp>
    <comp name="--.HHN">
      <acc value="0.0828838732" flag="0"/>
      <vel value="0.0391427212" flag="0"/>
      <psa03 value="0.1975293798" flag="0"/>
      <psa10 value="0.0243796868" flag="0"/>
      <psa30 value="0.0014883707" flag="0"/>
    </comp>
    <comp name="--.HHZ">
      <acc value="0.0677238777" flag="0"/>
      <vel value="0.0284425493" flag="0"/>
      <psa03 value="0.1575125290" flag="0"/>
      <psa10 value="0.0102908199" flag="0"/>
      <psa30 value="0.0008220682" flag="0"/>
    </comp>
  </station>
  <station code="IDI" name="IDI" netid="MN" insttype="" lat="35.288" lon="24.89">
    <comp name="--.HHE">
      <acc value="0.0555347945" flag="0"/>
      <vel value="0.0155494044" flag="0"/>
      <psa03 value="0.0780228242" flag="0"/>
      <psa10 value="0.0035921107" flag="0"/>
      <psa30 value="0.0003611805" flag="0"/>
    </comp>
    <comp name="--.HHN">
      <acc value="0.0485942628" flag="0"/>
      <vel value="0.0111223625" flag="0"/>
      <psa03 value="0.0771550520" flag="0"/>
      <psa10 value="0.0034463565" flag="0"/>
      <psa30 value="0.0003041690" flag="0"/>
    </comp>
    <comp name="--.HHZ">
      <acc value="0.0443641732" flag="0"/>
      <vel value="0.0113619744" flag="0"/>
      <psa03 value="0.0509749517" flag="0"/>
      <psa10 value="0.0035942447" flag="0"/>
      <psa30 value="0.0002564294" flag="0"/>
    </comp>
  </station>
</stationlist>
