<?xml version="1.0" encoding="UTF-8" standalone="yes"?>
<!DOCTYPE earthquake SYSTEM "stationlist.dtd">
<stationlist created="" xmlns="ch.ethz.sed.shakemap.usgs.xml">
  <station code="IDI" name="IDI" netid="MN" insttype="" lat="35.288" lon="24.89">
    <comp name="--.HHE">
      <acc value="0.0555347945" flag="0"/>
      <vel value="0.0155494044" flag="0"/>
      <psa03 value="0.0780228242" flag="0"/>
      <psa10 value="0.0035921107" flag="0"/>
      <psa30 value="0.0003611805" flag="0"/>
    </comp>
    <comp name="--.HHN">
      <acc value="0.0485942628" flag="0"/>
      <vel value="0.0111223625" flag="0"/>
      <psa03 value="0.0771550520" flag="0"/>
      <psa10 value="0.0034463565" flag="0"/>
      <psa30 value="0.0003041690" flag="0"/>
    </comp>
    <comp name="--.HHZ">
      <acc value="0.0443641732" flag="0"/>
      <vel value="0.0113619744" flag="0"/>
      <psa03 value="0.0509749517" flag="0"/>
      <psa10 value="0.0035942447" flag="0"/>
      <psa30 value="0.0002564294" flag="0"/>
    </comp>
  </station>
</stationlist>
