<?xml version="1.0" encoding="UTF-8" standalone="yes"?>
<!DOCTYPE earthquake SYSTEM "stationlist.dtd">
<stationlist created="" xmlns="ch.ethz.sed.shakemap.usgs.xml">
  <station code="ARES" name="ARES" netid="CA" insttype="Titan Accelerometer" lat="42.0514" lon="0.72942">
    <comp name="--.HNE">
      <acc value="0.0747459737" flag="0"/>
      <vel value="0.0205857915" flag="0"/>
      <psa03 value="0.0427212686" flag="0"/>
      <psa10 value="0.0052044192" flag="0"/>
      <psa30 value="0.0003018664" flag="0"/>
    </comp>
    <comp name="--.HNZ">
      <acc value="0.0492388361" flag="0"/>
      <vel value="0.0118637200" flag="0"/>
      <psa03 value="0.0333336418" flag="0"/>
      <psa10 value="0.0037697130" flag="0"/>
      <psa30 value="0.0003222189" flag="0"/>
    </comp>
    <comp name="--.HNN">
      <acc value="0.0643306716" flag="0"/>
      <vel value="0.0170377837" flag="0"/>
      <psa03 value="0.0484549411" flag="0"/>
      <psa10 value="0.0062131922" flag="0"/>
      <psa30 value="0.0004325092" flag="0"/>
    </comp>
  </station>
  <station code="CARA" name="CARA" netid="CA" insttype="Trillium120BH" lat="42.7076" lon="0.818132">
    <comp name="--.HHZ">
      <acc value="0.0422657361" flag="0"/>
      <vel value="0.0092904287" flag="0"/>
      <psa03 value="0.0321818418" flag="0"/>
      <psa10 value="0.0036850272" flag="0"/>
      <psa30 value="0.0002207326" flag="0"/>
    </comp>
    <comp name="--.HH1">
      <acc value="0.0589144466" flag="0"/>
      <vel value="0.0111172627" flag="0"/>
      <psa03 value="0.0492730313" flag="0"/>
      <psa10 value="0.0075857870" flag="0"/>
      <psa30 value="0.0003799426" flag="0"/>
    </comp>
    <comp name="--.HH2">
      <acc value="0.0530437380" flag="0"/>
      <vel value="0.0111812839" flag="0"/>
      <psa03 value="0.0523515352" flag="0"/>
      <psa10 value="0.0048291252" flag="0"/>
      <psa30 value="0.0003870810" flag="0"/>
    </comp>
  </station>
  <station code="CEST" name="CEST" netid="CA" insttype="CMG3T" lat="42.5987" lon="1.25406">
    <comp name="--.HHE">
      <acc value="0.0470566646" flag="0"/>
      <vel value="0.0051687876" flag="0"/>
      <psa03 value="0.0170867277" flag="0"/>
      <psa10 value="0.0014950516" flag="0"/>
      <psa30 value="0.0001582172" flag="0"/>
    </comp>
    <comp name="--.HHN">
      <acc value="0.0557483053" flag="0"/>
      <vel value="0.0074443690" flag="0"/>
      <psa03 value="0.0257138387" flag="0"/>
      <psa10 value="0.0028196265" flag="0"/>
      <psa30 value="0.0001597477" flag="0"/>
    </comp>
    <comp name="--.HHZ">
      <acc value="0.0283938805" flag="0"/>
      <vel value="0.0047197253" flag="0"/>
      <psa03 value="0.0116787132" flag="0"/>
      <psa10 value="0.0017561596" flag="0"/>
      <psa30 value="0.0001318961" flag="0"/>
    </comp>
  </station>
  <station code="CSOR" name="CSOR" netid="CA" insttype="STS2" lat="42.3744" lon="1.13274">
    <comp name="--.HHE">
      <acc value="0.0304025973" flag="0"/>
      <vel value="0.0065537197" flag="0"/>
      <psa03 value="0.0261412884" flag="0"/>
      <psa10 value="0.0035509490" flag="0"/>
      <psa30 value="0.0002552927" flag="0"/>
    </comp>
    <comp name="--.HHZ">
      <acc value="0.0173189550" flag="0"/>
      <vel value="0.0035114389" flag="0"/>
      <psa03 value="0.0143104294" flag="0"/>
      <psa10 value="0.0016256617" flag="0"/>
      <psa30 value="0.0001322301" flag="0"/>
    </comp>
    <comp name="--.HHN">
      <acc value="0.0315741361" flag="0"/>
      <vel value="0.0077559695" flag="0"/>
      <psa03 value="0.0219811177" flag="0"/>
      <psa10 value="0.0028901789" flag="0"/>
      <psa30 value="0.0001597559" flag="0"/>
    </comp>
  </station>
  <station code="CTRE" name="CTRE" netid="CA" insttype="CMG3T" lat="42.3223" lon="0.77236">
    <comp name="--.HHE">
      <acc value="0.0237411217" flag="0"/>
      <vel value="0.0055390001" flag="0"/>
      <psa03 value="0.0146603985" flag="0"/>
      <psa10 value="0.0026114610" flag="0"/>
      <psa30 value="0.0001640169" flag="0"/>
    </comp>
    <comp name="--.HHN">
      <acc value="0.0248539745" flag="0"/>
      <vel value="0.0055355736" flag="0"/>
      <psa03 value="0.0236545908" flag="0"/>
      <psa10 value="0.0024825633" flag="0"/>
      <psa30 value="0.0002312526" flag="0"/>
    </comp>
    <comp name="--.HHZ">
      <acc value="0.0241391174" flag="0"/>
      <vel value="0.0041229369" flag="0"/>
      <psa03 value="0.0108444792" flag="0"/>
      <psa10 value="0.0024062649" flag="0"/>
      <psa30 value="0.0001850926" flag="0"/>
    </comp>
  </station>
  <station code="CTRM" name="CTRM" netid="CA" insttype="CMG5TDE" lat="42.1609" lon="0.893644">
    <comp name="--.HNZ">
      <acc value="0.0468287141" flag="0"/>
      <vel value="0.0097212239" flag="0"/>
      <psa03 value="0.0203722189" flag="0"/>
      <psa10 value="0.0023547215" flag="0"/>
      <psa30 value="0.0002406079" flag="0"/>
    </comp>
    <comp name="--.HNE">
      <acc value="0.1523972894" flag="0"/>
      <vel value="0.0346516535" flag="0"/>
      <psa03 value="0.0811268824" flag="0"/>
      <psa10 value="0.0048276389" flag="0"/>
      <psa30 value="0.0004637412" flag="0"/>
    </comp>
    <comp name="--.HNN">
      <acc value="0.1302726787" flag="0"/>
      <vel value="0.0314479566" flag="0"/>
      <psa03 value="0.0847276571" flag="0"/>
      <psa10 value="0.0052034663" flag="0"/>
      <psa30 value="0.0005229649" flag="0"/>
    </comp>
  </station>
  <station code="VIER" name="VIER" netid="CA" insttype="TitanSMA" lat="42.7065" lon="0.786306">
    <comp name="--.HNZ">
      <acc value="0.1222066201" flag="0"/>
      <vel value="0.0142748380" flag="0"/>
      <psa03 value="0.0299163056" flag="0"/>
      <psa10 value="0.0042107326" flag="0"/>
      <psa30 value="0.0002869535" flag="0"/>
    </comp>
    <comp name="--.HNN">
      <acc value="0.1169211023" flag="0"/>
      <vel value="0.0221305422" flag="0"/>
      <psa03 value="0.0472925325" flag="0"/>
      <psa10 value="0.0058394724" flag="0"/>
      <psa30 value="0.0005911231" flag="0"/>
    </comp>
    <comp name="--.HNE">
      <acc value="0.1670193547" flag="0"/>
      <vel value="0.0347514099" flag="0"/>
      <psa03 value="0.0618356853" flag="0"/>
      <psa10 value="0.0043763040" flag="0"/>
      <psa30 value="0.0004170047" flag="0"/>
    </comp>
  </station>
  <station code="VIES" name="VIES" netid="CA" insttype="CMG5TD" lat="42.7016" lon="0.7969">
    <comp name="--.HNN">
      <acc value="0.1348481444" flag="0"/>
      <vel value="0.0231867010" flag="0"/>
      <psa03 value="0.0912037705" flag="0"/>
      <psa10 value="0.0045725538" flag="0"/>
      <psa30 value="0.0004676704" flag="0"/>
    </comp>
    <comp name="--.HNE">
      <acc value="0.1453119685" flag="0"/>
      <vel value="0.0265852266" flag="0"/>
      <psa03 value="0.1781987927" flag="0"/>
      <psa10 value="0.0044345582" flag="0"/>
      <psa30 value="0.0005288936" flag="0"/>
    </comp>
    <comp name="--.HNZ">
      <acc value="0.1543868825" flag="0"/>
      <vel value="0.0209918121" flag="0"/>
      <psa03 value="0.0478610978" flag="0"/>
      <psa10 value="0.0032145536" flag="0"/>
      <psa30 value="0.0003461570" flag="0"/>
    </comp>
  </station>
  <station code="EXVI3" name="EXVI3" netid="ES" insttype="" lat="42.6214" lon="0.76514">
    <comp name="--.HNE">
      <acc value="0.3108269724" flag="0"/>
      <vel value="0.0591307340" flag="0"/>
      <psa03 value="0.1086005598" flag="0"/>
      <psa10 value="0.0053401223" flag="0"/>
      <psa30 value="0.0006838723" flag="0"/>
    </comp>
    <comp name="--.HNN">
      <acc value="0.3433475751" flag="0"/>
      <vel value="0.0541122355" flag="0"/>
      <psa03 value="0.0994674851" flag="0"/>
      <psa10 value="0.0056054696" flag="0"/>
      <psa30 value="0.0006407754" flag="0"/>
    </comp>
    <comp name="--.HNZ">
      <acc value="0.1913946825" flag="0"/>
      <vel value="0.0197950011" flag="0"/>
      <psa03 value="0.0300439231" flag="0"/>
      <psa10 value="0.0030022019" flag="0"/>
      <psa30 value="0.0002498416" flag="0"/>
    </comp>
  </station>
  <station code="BORF" name="BORF" netid="FR" insttype="TRILLIUM-120QA" lat="42.9445" lon="-0.20308">
    <comp name="00.HHE">
      <acc value="1.1299695342" flag="0"/>
      <vel value="0.1553236751" flag="0"/>
      <psa03 value="0.2957672666" flag="0"/>
      <psa10 value="0.0213547092" flag="0"/>
      <psa30 value="0.0024756077" flag="0"/>
    </comp>
    <comp name="00.HHZ">
      <acc value="0.4865176957" flag="0"/>
      <vel value="0.0683240557" flag="0"/>
      <psa03 value="0.1599203735" flag="0"/>
      <psa10 value="0.0191270201" flag="0"/>
      <psa30 value="0.0018449661" flag="0"/>
    </comp>
    <comp name="00.HHN">
      <acc value="0.6465584226" flag="0"/>
      <vel value="0.1272822884" flag="0"/>
      <psa03 value="0.3512419728" flag="0"/>
      <psa10 value="0.0279849383" flag="0"/>
      <psa30 value="0.0030630048" flag="0"/>
    </comp>
  </station>
  <station code="CRAS" name="CRAS" netid="FR" insttype="TRILLIUM-120PH" lat="43.721" lon="0.7292">
    <comp name="00.HH2">
      <acc value="0.0345683517" flag="0"/>
      <vel value="0.0094124083" flag="0"/>
      <psa03 value="0.0412715861" flag="0"/>
      <psa10 value="0.0087095657" flag="0"/>
      <psa30 value="0.0010927362" flag="0"/>
    </comp>
    <comp name="00.HHZ">
      <acc value="0.0312965684" flag="0"/>
      <vel value="0.0053139374" flag="0"/>
      <psa03 value="0.0233321843" flag="0"/>
      <psa10 value="0.0033113613" flag="0"/>
      <psa30 value="0.0010224029" flag="0"/>
    </comp>
    <comp name="00.HH1">
      <acc value="0.0345659709" flag="0"/>
      <vel value="0.0096674204" flag="0"/>
      <psa03 value="0.0530746244" flag="0"/>
      <psa10 value="0.0097058855" flag="0"/>
      <psa30 value="0.0010208920" flag="0"/>
    </comp>
  </station>
  <station code="GENF" name="GENF" netid="FR" insttype="TRILLIUM-120PH" lat="42.8233" lon="1.5723">
    <comp name="00.HHZ">
      <acc value="0.0154523947" flag="0"/>
      <vel value="0.0029938895" flag="0"/>
      <psa03 value="0.0100676479" flag="0"/>
      <psa10 value="0.0013442363" flag="0"/>
      <psa30 value="0.0001380091" flag="0"/>
    </comp>
    <comp name="00.HH1">
      <acc value="0.0259442010" flag="0"/>
      <vel value="0.0040851171" flag="0"/>
      <psa03 value="0.0166456381" flag="0"/>
      <psa10 value="0.0014176162" flag="0"/>
      <psa30 value="0.0001588901" flag="0"/>
    </comp>
    <comp name="00.HH2">
      <acc value="0.0291362531" flag="0"/>
      <vel value="0.0051649430" flag="0"/>
      <psa03 value="0.0184568657" flag="0"/>
      <psa10 value="0.0021222602" flag="0"/>
      <psa30 value="0.0001698307" flag="0"/>
    </comp>
  </station>
  <station code="IRAF" name="IRAF" netid="FR" insttype="TRILLIUM-120PH" lat="43.0335" lon="-1.03705">
    <comp name="00.HHN">
      <acc value="0.0222382792" flag="0"/>
      <vel value="0.0123135951" flag="0"/>
      <psa03 value="0.0417065158" flag="0"/>
      <psa10 value="0.0085831472" flag="0"/>
      <psa30 value="0.0006213173" flag="0"/>
    </comp>
    <comp name="00.HHZ">
      <acc value="0.0142680517" flag="0"/>
      <vel value="0.0054883755" flag="0"/>
      <psa03 value="0.0183007741" flag="0"/>
      <psa10 value="0.0058464804" flag="0"/>
      <psa30 value="0.0004420904" flag="0"/>
    </comp>
    <comp name="00.HHE">
      <acc value="0.0156675792" flag="0"/>
      <vel value="0.0094221319" flag="0"/>
      <psa03 value="0.0276731770" flag="0"/>
      <psa10 value="0.0078180550" flag="0"/>
      <psa30 value="0.0004896165" flag="0"/>
    </comp>
  </station>
  <station code="LATF" name="LATF" netid="FR" insttype="TRILLIUM-120PH" lat="43.235" lon="1.309">
    <comp name="00.HH1">
      <acc value="0.0210692325" flag="0"/>
      <vel value="0.0067411730" flag="0"/>
      <psa03 value="0.0365646249" flag="0"/>
      <psa10 value="0.0058638407" flag="0"/>
      <psa30 value="0.0004794429" flag="0"/>
    </comp>
    <comp name="00.HHZ">
      <acc value="0.0296575653" flag="0"/>
      <vel value="0.0069413687" flag="0"/>
      <psa03 value="0.0166898684" flag="0"/>
      <psa10 value="0.0037366725" flag="0"/>
      <psa30 value="0.0005874412" flag="0"/>
    </comp>
    <comp name="00.HH2">
      <acc value="0.0340134827" flag="0"/>
      <vel value="0.0162785547" flag="0"/>
      <psa03 value="0.0683960020" flag="0"/>
      <psa10 value="0.0150288681" flag="0"/>
      <psa30 value="0.0011770067" flag="0"/>
    </comp>
  </station>
  <station code="MELF" name="MELF" netid="FR" insttype="TRILLIUM-120PH" lat="42.8717" lon="0.7575">
    <comp name="00.HH2">
      <acc value="0.1282228136" flag="0"/>
      <vel value="0.0185805975" flag="0"/>
      <psa03 value="0.0383936298" flag="0"/>
      <psa10 value="0.0060325490" flag="0"/>
      <psa30 value="0.0003673384" flag="0"/>
    </comp>
    <comp name="00.HHZ">
      <acc value="0.1389082838" flag="0"/>
      <vel value="0.0150594881" flag="0"/>
      <psa03 value="0.0277110264" flag="0"/>
      <psa10 value="0.0056785462" flag="0"/>
      <psa30 value="0.0004347795" flag="0"/>
    </comp>
    <comp name="00.HH1">
      <acc value="0.1139329829" flag="0"/>
      <vel value="0.0209959070" flag="0"/>
      <psa03 value="0.0456962009" flag="0"/>
      <psa10 value="0.0054547254" flag="0"/>
      <psa30 value="0.0005204014" flag="0"/>
    </comp>
  </station>
  <station code="MLZA" name="MLZA" netid="FR" insttype="TRILLIUM-120PH" lat="43.8283" lon="-0.127342">
    <comp name="00.HH1">
      <acc value="0.0625798527" flag="0"/>
      <vel value="0.0150682628" flag="0"/>
      <psa03 value="0.0565118796" flag="0"/>
      <psa10 value="0.0097410252" flag="0"/>
      <psa30 value="0.0008105658" flag="0"/>
    </comp>
    <comp name="00.HHZ">
      <acc value="0.0353952052" flag="0"/>
      <vel value="0.0055269204" flag="0"/>
      <psa03 value="0.0187977011" flag="0"/>
      <psa10 value="0.0030485612" flag="0"/>
      <psa30 value="0.0012155776" flag="0"/>
    </comp>
    <comp name="00.HH2">
      <acc value="0.0637034273" flag="0"/>
      <vel value="0.0143690831" flag="0"/>
      <psa03 value="0.0781247496" flag="0"/>
      <psa10 value="0.0108257686" flag="0"/>
      <psa30 value="0.0008982085" flag="0"/>
    </comp>
  </station>
  <station code="ORDF" name="ORDF" netid="FR" insttype="TRILLIUM-120PH" lat="43.2119" lon="-0.9372">
    <comp name="00.HHE">
      <acc value="0.0161713826" flag="0"/>
      <vel value="0.0043298405" flag="0"/>
      <psa03 value="0.0140498476" flag="0"/>
      <psa10 value="0.0020168862" flag="0"/>
      <psa30 value="0.0001939759" flag="0"/>
    </comp>
    <comp name="00.HHN">
      <acc value="0.0144297308" flag="0"/>
      <vel value="0.0034603197" flag="0"/>
      <psa03 value="0.0126471308" flag="0"/>
      <psa10 value="0.0037255964" flag="0"/>
      <psa30 value="0.0001769710" flag="0"/>
    </comp>
    <comp name="00.HHZ">
      <acc value="0.0156231309" flag="0"/>
      <vel value="0.0037297451" flag="0"/>
      <psa03 value="0.0148066235" flag="0"/>
      <psa10 value="0.0027866721" flag="0"/>
      <psa30 value="0.0001896648" flag="0"/>
    </comp>
  </station>
  <station code="OSSF" name="OSSF" netid="FR" insttype="TRILLIUM-120PH" lat="43.2558" lon="-1.2615">
    <comp name="00.HHN">
      <acc value="0.0086830069" flag="0"/>
      <vel value="0.0019152038" flag="0"/>
      <psa03 value="0.0073927384" flag="0"/>
      <psa10 value="0.0013851393" flag="0"/>
      <psa30 value="0.0000742727" flag="0"/>
    </comp>
    <comp name="00.HHE">
      <acc value="0.0114783249" flag="0"/>
      <vel value="0.0024485709" flag="0"/>
      <psa03 value="0.0098113534" flag="0"/>
      <psa10 value="0.0014389075" flag="0"/>
      <psa30 value="0.0000843770" flag="0"/>
    </comp>
    <comp name="00.HHZ">
      <acc value="0.0125228917" flag="0"/>
      <vel value="0.0018828065" flag="0"/>
      <psa03 value="0.0084167164" flag="0"/>
      <psa10 value="0.0012952100" flag="0"/>
      <psa30 value="0.0000876714" flag="0"/>
    </comp>
  </station>
  <station code="RESF" name="RESF" netid="FR" insttype="TRILLIUM-120PH" lat="42.807" lon="0.3379">
    <comp name="00.HHZ">
      <acc value="0.2383593348" flag="0"/>
      <vel value="0.0571790982" flag="0"/>
      <psa03 value="0.2577511732" flag="0"/>
      <psa10 value="0.0304532618" flag="0"/>
      <psa30 value="0.0017237220" flag="0"/>
    </comp>
    <comp name="00.HH2">
      <acc value="0.3012921213" flag="0"/>
      <vel value="0.0677459783" flag="0"/>
      <psa03 value="0.4569664421" flag="0"/>
      <psa10 value="0.0556530695" flag="0"/>
      <psa30 value="0.0022601161" flag="0"/>
    </comp>
    <comp name="00.HH1">
      <acc value="0.3810272591" flag="0"/>
      <vel value="0.0782401315" flag="0"/>
      <psa03 value="0.3461281422" flag="0"/>
      <psa10 value="0.0584306895" flag="0"/>
      <psa30 value="0.0030018845" flag="0"/>
    </comp>
  </station>
  <station code="REYF" name="REYF" netid="FR" insttype="TRILLIUM-120PH" lat="43.0683" lon="-0.3933">
    <comp name="00.HH1">
      <acc value="0.1298527811" flag="0"/>
      <vel value="0.0200477429" flag="0"/>
      <psa03 value="0.0681986421" flag="0"/>
      <psa10 value="0.0066608926" flag="0"/>
      <psa30 value="0.0006582585" flag="0"/>
    </comp>
    <comp name="00.HH2">
      <acc value="0.1363120841" flag="0"/>
      <vel value="0.0269946399" flag="0"/>
      <psa03 value="0.1167163914" flag="0"/>
      <psa10 value="0.0066620506" flag="0"/>
      <psa30 value="0.0005367753" flag="0"/>
    </comp>
    <comp name="00.HHZ">
      <acc value="0.1027494722" flag="0"/>
      <vel value="0.0173811882" flag="0"/>
      <psa03 value="0.0571523851" flag="0"/>
      <psa10 value="0.0148458569" flag="0"/>
      <psa30 value="0.0005411744" flag="0"/>
    </comp>
  </station>
  <station code="TERF" name="TERF" netid="FR" insttype="TRILLIUM-120PH" lat="43.6787" lon="-1.11312">
    <comp name="00.HH1">
      <acc value="0.0057634478" flag="0"/>
      <vel value="0.0021681080" flag="0"/>
      <psa03 value="0.0070844959" flag="0"/>
      <psa10 value="0.0029039258" flag="0"/>
      <psa30 value="0.0002516370" flag="0"/>
    </comp>
    <comp name="00.HH2">
      <acc value="0.0041867943" flag="0"/>
      <vel value="0.0019526935" flag="0"/>
      <psa03 value="0.0093408412" flag="0"/>
      <psa10 value="0.0030371872" flag="0"/>
      <psa30 value="0.0002405305" flag="0"/>
    </comp>
    <comp name="00.HHZ">
      <acc value="0.0044468310" flag="0"/>
      <vel value="0.0011670910" flag="0"/>
      <psa03 value="0.0044338949" flag="0"/>
      <psa10 value="0.0012748566" flag="0"/>
      <psa30 value="0.0001428807" flag="0"/>
    </comp>
  </station>
  <station code="PYAD" name="PYAD" netid="RA" insttype="" lat="43.0967" lon="-0.42805">
    <comp name="00.HNZ">
      <acc value="0.0903359833" flag="0"/>
      <vel value="0.0099460096" flag="0"/>
      <psa03 value="0.0277227995" flag="0"/>
      <psa10 value="0.0042669820" flag="0"/>
      <psa30 value="0.0002292190" flag="0"/>
    </comp>
    <comp name="00.HNN">
      <acc value="0.2874621603" flag="0"/>
      <vel value="0.0204357669" flag="0"/>
      <psa03 value="0.0448073671" flag="0"/>
      <psa10 value="0.0081755099" flag="0"/>
      <psa30 value="0.0004438746" flag="0"/>
    </comp>
    <comp name="00.HNE">
      <acc value="0.1937863491" flag="0"/>
      <vel value="0.0178133589" flag="0"/>
      <psa03 value="0.0346014261" flag="0"/>
      <psa10 value="0.0057266267" flag="0"/>
      <psa30 value="0.0002824227" flag="0"/>
    </comp>
  </station>
  <station code="PYAS" name="PYAS" netid="RA" insttype="" lat="43.0119" lon="0.797306">
    <comp name="00.HNE">
      <acc value="0.0814335299" flag="0"/>
      <vel value="0.0095575744" flag="0"/>
      <psa03 value="0.0292403057" flag="0"/>
      <psa10 value="0.0040851995" flag="0"/>
      <psa30 value="0.0003168286" flag="0"/>
    </comp>
