<?xml version="1.0" encoding="UTF-8" standalone="yes"?>
<!DOCTYPE earthquake SYSTEM "stationlist.dtd">
<stationlist created="" xmlns="ch.ethz.sed.shakemap.usgs.xml">
  <station code="ARES" name="ARES" netid="CA" insttype="Titan Accelerometer" lat="42.0514" lon="0.72942">
    <comp name="--.HNN">
      <acc value="0.0643306715" flag="0"/>
      <vel value="0.0170377837" flag="0"/>
      <psa03 value="0.0484549411" flag="0"/>
      <psa10 value="0.0062131922" flag="0"/>
      <psa30 value="0.0004325111" flag="0"/>
    </comp>
    <comp name="--.HNZ">
      <acc value="0.0492388361" flag="0"/>
      <vel value="0.0118637200" flag="0"/>
      <psa03 value="0.0333336418" flag="0"/>
      <psa10 value="0.0037697130" flag="0"/>
      <psa30 value="0.0003222257" flag="0"/>
    </comp>
    <comp name="--.HNE">
      <acc value="0.0747459736" flag="0"/>
      <vel value="0.0205857915" flag="0"/>
      <psa03 value="0.0427212686" flag="0"/>
      <psa10 value="0.0052044192" flag="0"/>
      <psa30 value="0.0003018506" flag="0"/>
    </comp>
  </station>
  <station code="CARA" name="CARA" netid="CA" insttype="Trillium120BH" lat="42.7076" lon="0.818132">
    <comp name="--.HH1">
      <acc value="0.0589144465" flag="0"/>
      <vel value="0.0111172625" flag="0"/>
      <psa03 value="0.0492730313" flag="0"/>
      <psa10 value="0.0075857871" flag="0"/>
      <psa30 value="0.0003799442" flag="0"/>
    </comp>
    <comp name="--.HHZ">
      <acc value="0.0422657362" flag="0"/>
      <vel value="0.0092904289" flag="0"/>
      <psa03 value="0.0321818418" flag="0"/>
      <psa10 value="0.0036850272" flag="0"/>
      <psa30 value="0.0002207142" flag="0"/>
    </comp>
    <comp name="--.HH2">
      <acc value="0.0530437379" flag="0"/>
      <vel value="0.0111812839" flag="0"/>
      <psa03 value="0.0523515352" flag="0"/>
      <psa10 value="0.0048291252" flag="0"/>
      <psa30 value="0.0003870766" flag="0"/>
    </comp>
  </station>
  <station code="CEST" name="CEST" netid="CA" insttype="CMG3T" lat="42.5987" lon="1.25406">
    <comp name="--.HHZ">
      <acc value="0.0283938806" flag="0"/>
      <vel value="0.0047197249" flag="0"/>
      <psa03 value="0.0116787132" flag="0"/>
      <psa10 value="0.0017561597" flag="0"/>
      <psa30 value="0.0001319271" flag="0"/>
    </comp>
    <comp name="--.HHE">
      <acc value="0.0470566647" flag="0"/>
      <vel value="0.0051687874" flag="0"/>
      <psa03 value="0.0170867277" flag="0"/>
      <psa10 value="0.0014950516" flag="0"/>
      <psa30 value="0.0001582171" flag="0"/>
    </comp>
    <comp name="--.HHN">
      <acc value="0.0557483053" flag="0"/>
      <vel value="0.0074443689" flag="0"/>
      <psa03 value="0.0257138387" flag="0"/>
      <psa10 value="0.0028196265" flag="0"/>
      <psa30 value="0.0001597371" flag="0"/>
    </comp>
  </station>
  <station code="CSOR" name="CSOR" netid="CA" insttype="STS2" lat="42.3744" lon="1.13274">
    <comp name="--.HHE">
      <acc value="0.0304025973" flag="0"/>
      <vel value="0.0065537194" flag="0"/>
      <psa03 value="0.0261412884" flag="0"/>
      <psa10 value="0.0035509490" flag="0"/>
      <psa30 value="0.0002552733" flag="0"/>
    </comp>
    <comp name="--.HHZ">
      <acc value="0.0173189550" flag="0"/>
      <vel value="0.0035114392" flag="0"/>
      <psa03 value="0.0143104294" flag="0"/>
      <psa10 value="0.0016256617" flag="0"/>
      <psa30 value="0.0001322198" flag="0"/>
    </comp>
    <comp name="--.HHN">
      <acc value="0.0315741360" flag="0"/>
      <vel value="0.0077559699" flag="0"/>
      <psa03 value="0.0219811177" flag="0"/>
      <psa10 value="0.0028901789" flag="0"/>
      <psa30 value="0.0001597412" flag="0"/>
    </comp>
  </station>
  <station code="CTRE" name="CTRE" netid="CA" insttype="CMG3T" lat="42.3223" lon="0.77236">
    <comp name="--.HHN">
      <acc value="0.0248539745" flag="0"/>
      <vel value="0.0055355737" flag="0"/>
      <psa03 value="0.0236545908" flag="0"/>
      <psa10 value="0.0024825633" flag="0"/>
      <psa30 value="0.0002312557" flag="0"/>
    </comp>
    <comp name="--.HHZ">
      <acc value="0.0241391174" flag="0"/>
      <vel value="0.0041229371" flag="0"/>
      <psa03 value="0.0108444792" flag="0"/>
      <psa10 value="0.0024062649" flag="0"/>
      <psa30 value="0.0001850932" flag="0"/>
    </comp>
    <comp name="--.HHE">
      <acc value="0.0237411217" flag="0"/>
      <vel value="0.0055390000" flag="0"/>
      <psa03 value="0.0146603985" flag="0"/>
      <psa10 value="0.0026114610" flag="0"/>
      <psa30 value="0.0001640015" flag="0"/>
    </comp>
  </station>
  <station code="CTRM" name="CTRM" netid="CA" insttype="CMG5TDE" lat="42.1609" lon="0.893644">
    <comp name="--.HNN">
      <acc value="0.1302726789" flag="0"/>
      <vel value="0.0314479571" flag="0"/>
      <psa03 value="0.0847276571" flag="0"/>
      <psa10 value="0.0052034663" flag="0"/>
      <psa30 value="0.0005230026" flag="0"/>
    </comp>
    <comp name="--.HNE">
      <acc value="0.1523972889" flag="0"/>
      <vel value="0.0346516538" flag="0"/>
      <psa03 value="0.0811268824" flag="0"/>
      <psa10 value="0.0048276389" flag="0"/>
      <psa30 value="0.0004637272" flag="0"/>
    </comp>
    <comp name="--.HNZ">
      <acc value="0.0468287139" flag="0"/>
      <vel value="0.0097212242" flag="0"/>
      <psa03 value="0.0203722189" flag="0"/>
      <psa10 value="0.0023547215" flag="0"/>
      <psa30 value="0.0002406158" flag="0"/>
    </comp>
  </station>
  <station code="VIER" name="VIER" netid="CA" insttype="TitanSMA" lat="42.7065" lon="0.786306">
    <comp name="--.HNE">
      <acc value="0.1670193543" flag="0"/>
      <vel value="0.0347514098" flag="0"/>
      <psa03 value="0.0618356853" flag="0"/>
      <psa10 value="0.0043763036" flag="0"/>
      <psa30 value="0.0004169256" flag="0"/>
    </comp>
    <comp name="--.HNZ">
      <acc value="0.1222066198" flag="0"/>
      <vel value="0.0142748380" flag="0"/>
      <psa03 value="0.0299163056" flag="0"/>
      <psa10 value="0.0042107327" flag="0"/>
      <psa30 value="0.0002869604" flag="0"/>
    </comp>
    <comp name="--.HNN">
      <acc value="0.1169211020" flag="0"/>
      <vel value="0.0221305421" flag="0"/>
      <psa03 value="0.0472925325" flag="0"/>
      <psa10 value="0.0058394723" flag="0"/>
      <psa30 value="0.0005910757" flag="0"/>
    </comp>
  </station>
  <station code="VIES" name="VIES" netid="CA" insttype="CMG5TD" lat="42.7016" lon="0.7969">
    <comp name="--.HNN">
      <acc value="0.1348481446" flag="0"/>
      <vel value="0.0231866996" flag="0"/>
      <psa03 value="0.0912037705" flag="0"/>
      <psa10 value="0.0045725538" flag="0"/>
      <psa30 value="0.0004682055" flag="0"/>
    </comp>
    <comp name="--.HNZ">
      <acc value="0.1543868825" flag="0"/>
      <vel value="0.0209918129" flag="0"/>
      <psa03 value="0.0478610978" flag="0"/>
      <psa10 value="0.0032145546" flag="0"/>
      <psa30 value="0.0003461611" flag="0"/>
    </comp>
    <comp name="--.HNE">
      <acc value="0.1453119688" flag="0"/>
      <vel value="0.0265852248" flag="0"/>
      <psa03 value="0.1781987927" flag="0"/>
      <psa10 value="0.0044345573" flag="0"/>
      <psa30 value="0.0005289995" flag="0"/>
    </comp>
  </station>
  <station code="EXVI3" name="EXVI3" netid="ES" insttype="" lat="42.6214" lon="0.76514">
    <comp name="--.HNN">
      <acc value="0.3433475751" flag="0"/>
      <vel value="0.0541122376" flag="0"/>
      <psa03 value="0.0994674851" flag="0"/>
      <psa10 value="0.0056054686" flag="0"/>
      <psa30 value="0.0006403709" flag="0"/>
    </comp>
    <comp name="--.HNE">
      <acc value="0.3108269719" flag="0"/>
      <vel value="0.0591307301" flag="0"/>
      <psa03 value="0.1086005598" flag="0"/>
      <psa10 value="0.0053401269" flag="0"/>
      <psa30 value="0.0006841036" flag="0"/>
    </comp>
    <comp name="--.HNZ">
      <acc value="0.1913946829" flag="0"/>
      <vel value="0.0197950010" flag="0"/>
      <psa03 value="0.0300439231" flag="0"/>
      <psa10 value="0.0030022000" flag="0"/>
      <psa30 value="0.0002495003" flag="0"/>
    </comp>
  </station>
  <station code="BORF" name="BORF" netid="FR" insttype="TRILLIUM-120QA" lat="42.9445" lon="-0.20308">
    <comp name="00.HHE">
      <acc value="1.1299695341" flag="0"/>
      <vel value="0.1553236749" flag="0"/>
      <psa03 value="0.2957672666" flag="0"/>
      <psa10 value="0.0213547107" flag="0"/>
      <psa30 value="0.0024755559" flag="0"/>
    </comp>
    <comp name="00.HHZ">
      <acc value="0.4865176957" flag="0"/>
      <vel value="0.0683240556" flag="0"/>
      <psa03 value="0.1599203735" flag="0"/>
      <psa10 value="0.0191270203" flag="0"/>
      <psa30 value="0.0018449370" flag="0"/>
    </comp>
    <comp name="00.HHN">
      <acc value="0.6465584227" flag="0"/>
      <vel value="0.1272822882" flag="0"/>
      <psa03 value="0.3512419728" flag="0"/>
      <psa10 value="0.0279849367" flag="0"/>
      <psa30 value="0.0030629778" flag="0"/>
    </comp>
  </station>
  <station code="CRAS" name="CRAS" netid="FR" insttype="TRILLIUM-120PH" lat="43.721" lon="0.7292">
    <comp name="00.HH2">
      <acc value="0.0345683517" flag="0"/>
      <vel value="0.0094124098" flag="0"/>
      <psa03 value="0.0412715861" flag="0"/>
      <psa10 value="0.0087095657" flag="0"/>
      <psa30 value="0.0010927155" flag="0"/>
    </comp>
    <comp name="00.HH1">
      <acc value="0.0345659708" flag="0"/>
      <vel value="0.0096674187" flag="0"/>
      <psa03 value="0.0530746244" flag="0"/>
      <psa10 value="0.0097058855" flag="0"/>
      <psa30 value="0.0010209151" flag="0"/>
    </comp>
    <comp name="00.HHZ">
      <acc value="0.0312965687" flag="0"/>
      <vel value="0.0053139378" flag="0"/>
      <psa03 value="0.0233321843" flag="0"/>
      <psa10 value="0.0033113613" flag="0"/>
      <psa30 value="0.0010223971" flag="0"/>
    </comp>
  </station>
  <station code="GENF" name="GENF" netid="FR" insttype="TRILLIUM-120PH" lat="42.8233" lon="1.5723">
    <comp name="00.HH2">
      <acc value="0.0291362531" flag="0"/>
      <vel value="0.0051649430" flag="0"/>
      <psa03 value="0.0184568657" flag="0"/>
      <psa10 value="0.0021222602" flag="0"/>
      <psa30 value="0.0001698287" flag="0"/>
    </comp>
    <comp name="00.HH1">
      <acc value="0.0259442012" flag="0"/>
      <vel value="0.0040851170" flag="0"/>
      <psa03 value="0.0166456381" flag="0"/>
      <psa10 value="0.0014176162" flag="0"/>
      <psa30 value="0.0001588912" flag="0"/>
    </comp>
    <comp name="00.HHZ">
      <acc value="0.0154523948" flag="0"/>
      <vel value="0.0029938889" flag="0"/>
      <psa03 value="0.0100676479" flag="0"/>
      <psa10 value="0.0013442363" flag="0"/>
      <psa30 value="0.0001380255" flag="0"/>
    </comp>
  </station>
  <station code="IRAF" name="IRAF" netid="FR" insttype="TRILLIUM-120PH" lat="43.0335" lon="-1.03705">
    <comp name="00.HHN">
      <acc value="0.0222382791" flag="0"/>
      <vel value="0.0123135953" flag="0"/>
      <psa03 value="0.0417065158" flag="0"/>
      <psa10 value="0.0085831473" flag="0"/>
      <psa30 value="0.0006213340" flag="0"/>
    </comp>
    <comp name="00.HHE">
      <acc value="0.0156675793" flag="0"/>
      <vel value="0.0094221331" flag="0"/>
      <psa03 value="0.0276731770" flag="0"/>
      <psa10 value="0.0078180549" flag="0"/>
      <psa30 value="0.0004897262" flag="0"/>
    </comp>
    <comp name="00.HHZ">
      <acc value="0.0142680516" flag="0"/>
      <vel value="0.0054883758" flag="0"/>
      <psa03 value="0.0183007741" flag="0"/>
      <psa10 value="0.0058464807" flag="0"/>
      <psa30 value="0.0004420619" flag="0"/>
    </comp>
  </station>
  <station code="LATF" name="LATF" netid="FR" insttype="TRILLIUM-120PH" lat="43.235" lon="1.309">
    <comp name="00.HH2">
      <acc value="0.0340134825" flag="0"/>
      <vel value="0.0162785538" flag="0"/>
      <psa03 value="0.0683960020" flag="0"/>
      <psa10 value="0.0150288680" flag="0"/>
      <psa30 value="0.0011768145" flag="0"/>
    </comp>
    <comp name="00.HH1">
      <acc value="0.0210692327" flag="0"/>
      <vel value="0.0067411728" flag="0"/>
      <psa03 value="0.0365646249" flag="0"/>
      <psa10 value="0.0058638408" flag="0"/>
      <psa30 value="0.0004794046" flag="0"/>
    </comp>
    <comp name="00.HHZ">
      <acc value="0.0296575654" flag="0"/>
      <vel value="0.0069413682" flag="0"/>
      <psa03 value="0.0166898684" flag="0"/>
      <psa10 value="0.0037366726" flag="0"/>
      <psa30 value="0.0005874101" flag="0"/>
    </comp>
  </station>
  <station code="MELF" name="MELF" netid="FR" insttype="TRILLIUM-120PH" lat="42.8717" lon="0.7575">
    <comp name="00.HHZ">
      <acc value="0.1389082835" flag="0"/>
      <vel value="0.0150594885" flag="0"/>
      <psa03 value="0.0277110264" flag="0"/>
      <psa10 value="0.0056785464" flag="0"/>
      <psa30 value="0.0004348470" flag="0"/>
    </comp>
    <comp name="00.HH2">
      <acc value="0.1282228137" flag="0"/>
      <vel value="0.0185805978" flag="0"/>
      <psa03 value="0.0383936298" flag="0"/>
      <psa10 value="0.0060325490" flag="0"/>
      <psa30 value="0.0003673636" flag="0"/>
    </comp>
    <comp name="00.HH1">
      <acc value="0.1139329829" flag="0"/>
      <vel value="0.0209959072" flag="0"/>
      <psa03 value="0.0456962009" flag="0"/>
      <psa10 value="0.0054547253" flag="0"/>
      <psa30 value="0.0005203605" flag="0"/>
    </comp>
  </station>
  <station code="MLZA" name="MLZA" netid="FR" insttype="TRILLIUM-120PH" lat="43.8283" lon="-0.127342">
    <comp name="00.HH2">
      <acc value="0.0637034272" flag="0"/>
      <vel value="0.0143690846" flag="0"/>
      <psa03 value="0.0781247496" flag="0"/>
      <psa10 value="0.0108257682" flag="0"/>
      <psa30 value="0.0008981924" flag="0"/>
    </comp>
    <comp name="00.HH1">
      <acc value="0.0625798524" flag="0"/>
      <vel value="0.0150682611" flag="0"/>
      <psa03 value="0.0565118796" flag="0"/>
      <psa10 value="0.0097410252" flag="0"/>
      <psa30 value="0.0008107983" flag="0"/>
    </comp>
    <comp name="00.HHZ">
      <acc value="0.0353952048" flag="0"/>
      <vel value="0.0055269201" flag="0"/>
      <psa03 value="0.0187977011" flag="0"/>
      <psa10 value="0.0030485612" flag="0"/>
      <psa30 value="0.0012155798" flag="0"/>
    </comp>
  </station>
  <station code="ORDF" name="ORDF" netid="FR" insttype="TRILLIUM-120PH" lat="43.2119" lon="-0.9372">
    <comp name="00.HHE">
      <acc value="0.0161713824" flag="0"/>
      <vel value="0.0043298401" flag="0"/>
      <psa03 value="0.0140498476" flag="0"/>
      <psa10 value="0.0020168862" flag="0"/>
      <psa30 value="0.0001939537" flag="0"/>
    </comp>
    <comp name="00.HHZ">
      <acc value="0.0156231309" flag="0"/>
      <vel value="0.0037297443" flag="0"/>
      <psa03 value="0.0148066235" flag="0"/>
      <psa10 value="0.0027866721" flag="0"/>
      <psa30 value="0.0001896053" flag="0"/>
    </comp>
    <comp name="00.HHN">
      <acc value="0.0144297307" flag="0"/>
      <vel value="0.0034603194" flag="0"/>
      <psa03 value="0.0126471308" flag="0"/>
      <psa10 value="0.0037255964" flag="0"/>
      <psa30 value="0.0001769965" flag="0"/>
    </comp>
  </station>
  <station code="OSSF" name="OSSF" netid="FR" insttype="TRILLIUM-120PH" lat="43.2558" lon="-1.2615">
    <comp name="00.HHE">
      <acc value="0.0114783248" flag="0"/>
      <vel value="0.0024485708" flag="0"/>
      <psa03 value="0.0098113534" flag="0"/>
      <psa10 value="0.0014389075" flag="0"/>
      <psa30 value="0.0000843863" flag="0"/>
    </comp>
    <comp name="00.HHN">
      <acc value="0.0086830069" flag="0"/>
      <vel value="0.0019152035" flag="0"/>
      <psa03 value="0.0073927384" flag="0"/>
      <psa10 value="0.0013851393" flag="0"/>
      <psa30 value="0.0000742668" flag="0"/>
    </comp>
    <comp name="00.HHZ">
      <acc value="0.0125228916" flag="0"/>
      <vel value="0.0018828068" flag="0"/>
      <psa03 value="0.0084167164" flag="0"/>
      <psa10 value="0.0012952100" flag="0"/>
      <psa30 value="0.0000876657" flag="0"/>
    </comp>
  </station>
  <station code="RESF" name="RESF" netid="FR" insttype="TRILLIUM-120PH" lat="42.807" lon="0.3379">
    <comp name="00.HH1">
      <acc value="0.3810272591" flag="0"/>
      <vel value="0.0782401317" flag="0"/>
      <psa03 value="0.3461281422" flag="0"/>
      <psa10 value="0.0584306885" flag="0"/>
      <psa30 value="0.0030018897" flag="0"/>
    </comp>
    <comp name="00.HH2">
      <acc value="0.3012921212" flag="0"/>
      <vel value="0.0677459785" flag="0"/>
      <psa03 value="0.4569664421" flag="0"/>
      <psa10 value="0.0556530694" flag="0"/>
      <psa30 value="0.0022601579" flag="0"/>
    </comp>
    <comp name="00.HHZ">
      <acc value="0.2383593347" flag="0"/>
      <vel value="0.0571790980" flag="0"/>
      <psa03 value="0.2577511732" flag="0"/>
      <psa10 value="0.0304532624" flag="0"/>
      <psa30 value="0.0017236527" flag="0"/>
    </comp>
  </station>
  <station code="REYF" name="REYF" netid="FR" insttype="TRILLIUM-120PH" lat="43.0683" lon="-0.3933">
    <comp name="00.HH2">
      <acc value="0.1363120841" flag="0"/>
      <vel value="0.0269946398" flag="0"/>
      <psa03 value="0.1167163914" flag="0"/>
      <psa10 value="0.0066620506" flag="0"/>
      <psa30 value="0.0005368102" flag="0"/>
    </comp>
    <comp name="00.HH1">
      <acc value="0.1298527809" flag="0"/>
      <vel value="0.0200477430" flag="0"/>
      <psa03 value="0.0681986421" flag="0"/>
      <psa10 value="0.0066608928" flag="0"/>
      <psa30 value="0.0006582519" flag="0"/>
    </comp>
    <comp name="00.HHZ">
      <acc value="0.1027494720" flag="0"/>
      <vel value="0.0173811879" flag="0"/>
      <psa03 value="0.0571523851" flag="0"/>
      <psa10 value="0.0148458569" flag="0"/>
      <psa30 value="0.0005411529" flag="0"/>
    </comp>
  </station>
  <station code="TERF" name="TERF" netid="FR" insttype="TRILLIUM-120PH" lat="43.6787" lon="-1.11312">
    <comp name="00.HH2">
      <acc value="0.0041867941" flag="0"/>
      <vel value="0.0019526937" flag="0"/>
      <psa03 value="0.0093408412" flag="0"/>
      <psa10 value="0.0030371872" flag="0"/>
      <psa30 value="0.0002405149" flag="0"/>
    </comp>
    <comp name="00.HH1">
      <acc value="0.0057634478" flag="0"/>
      <vel value="0.0021681078" flag="0"/>
      <psa03 value="0.0070844959" flag="0"/>
      <psa10 value="0.0029039258" flag="0"/>
      <psa30 value="0.0002515331" flag="0"/>
    </comp>
    <comp name="00.HHZ">
      <acc value="0.0044468311" flag="0"/>
      <vel value="0.0011670904" flag="0"/>
      <psa03 value="0.0044338949" flag="0"/>
      <psa10 value="0.0012748540" flag="0"/>
      <psa30 value="0.0001428853" flag="0"/>
    </comp>
  </station>
  <station code="PYAD" name="PYAD" netid="RA" insttype="" lat="43.0967" lon="-0.42805">
    <comp name="00.HNE">
      <acc value="0.1937863490" flag="0"/>
      <vel value="0.0178133582" flag="0"/>
      <psa03 value="0.0346014261" flag="0"/>
      <psa10 value="0.0057266260" flag="0"/>
      <psa30 value="0.0002824053" flag="0"/>
    </comp>
    <comp name="00.HNN">
      <acc value="0.2874621604" flag="0"/>
      <vel value="0.0204357665" flag="0"/>
      <psa03 value="0.0448073671" flag="0"/>
      <psa10 value="0.0081755111" flag="0"/>
      <psa30 value="0.0004434952" flag="0"/>
    </comp>
    <comp name="00.HNZ">
      <acc value="0.0903359844" flag="0"/>
      <vel value="0.0099460114" flag="0"/>
      <psa03 value="0.0277227995" flag="0"/>
      <psa10 value="0.0042669829" flag="0"/>
      <psa30 value="0.0002291759" flag="0"/>
    </comp>
  </station>
  <station code="PYAS" name="PYAS" netid="RA" insttype="" lat="43.0119" lon="0.797306">
    <comp name="00.HNE">
      <acc value="0.0814335288" flag="0"/>
      <vel value="0.0095575743" flag="0"/>
      <psa03 value="0.0292403057" flag="0"/>
      <psa10 value="0.0040851995" flag="0"/>
      <psa30 value="0.0003167472" flag="0"/>
    </comp>
