<stationlist created="1675764119">
	<station code="CMRD" name="CMRD" netid="KO" source="Bogazici University Kandilli Observatory And Earthquake Research Institute (KOERI)" insttype="" lat="37.6623" lon="34.9902">
		<comp name=".HNE" depth="0.0">
			<acc value="0.00268426599443" flag="0"/>
			<vel value="0.0021477858344" flag="0"/>
			<psa03 value="0.00597232076714" flag="0"/>
			<psa10 value="0.00233241169833" flag="0"/>
			<psa30 value="0.000340284807823" flag="0"/>
		</comp>
		<comp name=".HNN" depth="0.0">
			<acc value="0.00330707928573" flag="0"/>
			<vel value="0.00351909063247" flag="0"/>
			<psa03 value="0.0082450520536" flag="0"/>
			<psa10 value="0.00197166240984" flag="0"/>
			<psa30 value="0.000442627134375" flag="0"/>
		</comp>
		<comp name=".HNZ" depth="0.0">
			<acc value="0.00242175993842" flag="0"/>
			<vel value="0.00253627133801" flag="0"/>
			<psa03 value="0.00458730030541" flag="0"/>
			<psa10 value="0.00373451379946" flag="0"/>
			<psa30 value="0.000364846981822" flag="0"/>
		</comp>
	</station>
</stationlist>
