<stationlist created="1675762332">
	<station code="ARPRA" name="ARPRA" netid="KO" source="Bogazici University Kandilli Observatory And Earthquake Research Institute (KOERI)" insttype="" lat="39.0929" lon="38.3356">
		<comp name=".HNE" depth="0.0">
			<acc value="0.0126449224241" flag="0"/>
			<vel value="0.00340020603247" flag="0"/>
			<psa03 value="0.0166082655807" flag="0"/>
			<psa10 value="0.00318544250431" flag="0"/>
			<psa30 value="0.0003259428942" flag="0"/>
		</comp>
		<comp name=".HNN" depth="0.0">
			<acc value="0.010484611063" flag="0"/>
			<vel value="0.00326376011845" flag="0"/>
			<psa03 value="0.0206785768855" flag="0"/>
			<psa10 value="0.00829339127148" flag="0"/>
			<psa30 value="0.000474515809346" flag="0"/>
		</comp>
		<comp name=".HNZ" depth="0.0">
			<acc value="0.00434367719683" flag="0"/>
			<vel value="0.00208947246892" flag="0"/>
			<psa03 value="0.00750881057288" flag="0"/>
			<psa10 value="0.00275606765408" flag="0"/>
			<psa30 value="0.000556541347298" flag="0"/>
		</comp>
	</station>
	<station code="CMRD" name="CMRD" netid="KO" source="Bogazici University Kandilli Observatory And Earthquake Research Institute (KOERI)" insttype="" lat="37.6623" lon="34.9902">
		<comp name=".HNE" depth="0.0">
			<acc value="0.00268426599443" flag="0"/>
			<vel value="0.0021477858344" flag="0"/>
			<psa03 value="0.00597232076714" flag="0"/>
			<psa10 value="0.00233241169833" flag="0"/>
			<psa30 value="0.000340284807823" flag="0"/>
		</comp>
		<comp name=".HNN" depth="0.0">
			<acc value="0.00330707928573" flag="0"/>
			<vel value="0.00351909063247" flag="0"/>
			<psa03 value="0.0082450520536" flag="0"/>
			<psa10 value="0.00197166240984" flag="0"/>
			<psa30 value="0.000442627134375" flag="0"/>
		</comp>
		<comp name=".HNZ" depth="0.0">
			<acc value="0.00242175993842" flag="0"/>
			<vel value="0.00253627133801" flag="0"/>
			<psa03 value="0.00458730030541" flag="0"/>
			<psa10 value="0.00373451379946" flag="0"/>
			<psa30 value="0.000364846981822" flag="0"/>
		</comp>
	</station>
	<station code="KOZK" name="KOZK" netid="KO" source="Bogazici University Kandilli Observatory And Earthquake Research Institute (KOERI)" insttype="" lat="39.2101" lon="34.868">
		<comp name=".HNE" depth="0.0">
			<acc value="0.00867370512326" flag="0"/>
			<vel value="0.0068176703728" flag="0"/>
			<psa03 value="0.0171401914432" flag="0"/>
			<psa10 value="0.00774022353306" flag="0"/>
			<psa30 value="0.000450536825021" flag="0"/>
		</comp>
		<comp name=".HNN" depth="0.0">
			<acc value="0.00827828191852" flag="0"/>
			<vel value="0.00576847383583" flag="0"/>
			<psa03 value="0.0228627984024" flag="0"/>
			<psa10 value="0.00907855734737" flag="0"/>
			<psa30 value="0.000380228000739" flag="0"/>
		</comp>
		<comp name=".HNZ" depth="0.0">
			<acc value="0.00494971728711" flag="0"/>
			<vel value="0.00303622288968" flag="0"/>
			<psa03 value="0.0111627290594" flag="0"/>
			<psa10 value="0.00264256615079" flag="0"/>
			<psa30 value="0.000254504594055" flag="0"/>
		</comp>
	</station>
	<station code="KRTS" name="KRTS" netid="KO" source="Bogazici University Kandilli Observatory And Earthquake Research Institute (KOERI)" insttype="" lat="36.573" lon="35.375">
		<comp name=".HNE" depth="0.0">
			<acc value="0.00297472377834" flag="0"/>
			<vel value="0.00111656303532" flag="0"/>
			<psa03 value="0.00466351173425" flag="0"/>
			<psa10 value="0.000924882108746" flag="0"/>
			<psa30 value="0.000315785528616" flag="0"/>
		</comp>
		<comp name=".HNN" depth="0.0">
			<acc value="0.00268510054973" flag="0"/>
			<vel value="0.00122764785218" flag="0"/>
			<psa03 value="0.00450725105721" flag="0"/>
			<psa10 value="0.0011992648751" flag="0"/>
			<psa30 value="0.000372907020968" flag="0"/>
		</comp>
		<comp name=".HNZ" depth="0.0">
			<acc value="0.00431144157432" flag="0"/>
			<vel value="0.00202165326005" flag="0"/>
			<psa03 value="0.00275237536522" flag="0"/>
			<psa10 value="0.00105044353204" flag="0"/>
			<psa30 value="0.000553365772351" flag="0"/>
		</comp>
	</station>
	<station code="TUNC" name="TUNC" netid="KO" source="Bogazici University Kandilli Observatory And Earthquake Research Institute (KOERI)" insttype="" lat="39.6942" lon="37.5388">
		<comp name=".HNE" depth="0.0">
			<acc value="0.00601213556921" flag="0"/>
			<vel value="0.00562553536353" flag="0"/>
			<psa03 value="0.0160479849753" flag="0"/>
			<psa10 value="0.00790445675648" flag="0"/>
			<psa30 value="0.000641585522724" flag="0"/>
		</comp>
		<comp name=".HNN" depth="0.0">
			<acc value="0.00508797845567" flag="0"/>
			<vel value="0.00382310599998" flag="0"/>
			<psa03 value="0.0145860521919" flag="0"/>
			<psa10 value="0.00616217055731" flag="0"/>
			<psa30 value="0.000479042880075" flag="0"/>
		</comp>
		<comp name=".HNZ" depth="0.0">
			<acc value="0.00225258271005" flag="0"/>
			<vel value="0.00199135333319" flag="0"/>
			<psa03 value="0.00715401232965" flag="0"/>
			<psa10 value="0.00324316679701" flag="0"/>
			<psa30 value="0.000376945491622" flag="0"/>
		</comp>
	</station>
</stationlist>
