<?xml version="1.0" encoding="UTF-8" standalone="yes"?>
<!DOCTYPE earthquake SYSTEM "stationlist.dtd">
<stationlist created="" xmlns="ch.ethz.sed.shakemap.usgs.xml">
  <station code="BNN" name="BNN" netid="KO" insttype="CMG-3T" lat="38.8521" lon="35.8472">
    <comp name="--.HHE">
      <acc value="0.0130135220" flag="0"/>
      <vel value="0.0059821137" flag="0"/>
      <psa03 value="0.0220341538" flag="0"/>
      <psa10 value="0.0084507517" flag="0"/>
      <psa30 value="0.0003187760" flag="0"/>
    </comp>
    <comp name="--.HHN">
      <acc value="0.0000091005" flag="0"/>
      <vel value="0.0000009142" flag="0"/>
      <psa03 value="0.0000035009" flag="0"/>
      <psa10 value="0.0000009129" flag="0"/>
      <psa30 value="0.0000001436" flag="0"/>
    </comp>
    <comp name="--.HHZ">
      <acc value="0.0066707169" flag="0"/>
      <vel value="0.0025092819" flag="0"/>
      <psa03 value="0.0168101474" flag="0"/>
      <psa10 value="0.0026248827" flag="0"/>
      <psa30 value="0.0002277834" flag="0"/>
    </comp>
  </station>
  <station code="SARI" name="SARI" netid="KO" insttype="CMG-3T" lat="38.4072" lon="36.4181">
    <comp name="--.HHE">
      <acc value="0.1882626571" flag="0"/>
      <vel value="0.0331675630" flag="0"/>
      <psa03 value="0.2228770878" flag="0"/>
      <psa10 value="0.0118366419" flag="0"/>
      <psa30 value="0.0008804387" flag="0"/>
    </comp>
    <comp name="--.HHN">
      <acc value="0.1908532939" flag="0"/>
      <vel value="0.0389819137" flag="0"/>
      <psa03 value="0.1471900025" flag="0"/>
      <psa10 value="0.0126111125" flag="0"/>
      <psa30 value="0.0011220570" flag="0"/>
    </comp>
    <comp name="--.HHZ">
      <acc value="0.1179606894" flag="0"/>
      <vel value="0.0316430200" flag="0"/>
      <psa03 value="0.1802915968" flag="0"/>
      <psa10 value="0.0164450279" flag="0"/>
      <psa30 value="0.0012992671" flag="0"/>
    </comp>
  </station>
</stationlist>
