<?xml version="1.0" encoding="UTF-8" standalone="yes"?>
<!DOCTYPE earthquake SYSTEM "stationlist.dtd">
<stationlist created="" xmlns="ch.ethz.sed.shakemap.usgs.xml">
  <station code="ARPRA" name="ARPRA" netid="KO" insttype="CMG-5T" lat="39.0929" lon="38.3356">
    <comp name="--.HNE">
      <acc value="0.0479992068" flag="0"/>
      <vel value="0.0187110251" flag="0"/>
      <psa03 value="0.1091831813" flag="0"/>
      <psa10 value="0.0107161576" flag="0"/>
      <psa30 value="0.0010915415" flag="0"/>
    </comp>
    <comp name="--.HNZ">
      <acc value="0.0228747011" flag="0"/>
      <vel value="0.0101665792" flag="0"/>
      <psa03 value="0.0460762453" flag="0"/>
      <psa10 value="0.0054918405" flag="0"/>
      <psa30 value="0.0003777106" flag="0"/>
    </comp>
    <comp name="--.HNN">
      <acc value="0.0426170937" flag="0"/>
      <vel value="0.0131337050" flag="0"/>
      <psa03 value="0.0938647284" flag="0"/>
      <psa10 value="0.0094454367" flag="0"/>
      <psa30 value="0.0006130407" flag="0"/>
    </comp>
  </station>
</stationlist>
