<?xml version="1.0" encoding="UTF-8" standalone="yes"?>
<!DOCTYPE earthquake SYSTEM "stationlist.dtd">
<stationlist created="" xmlns="ch.ethz.sed.shakemap.usgs.xml">
  <station code="EVR" name="EVR" netid="HL" insttype="DR24" lat="38.9166" lon="21.8105">
    <comp name="--.HHN">
      <acc value="0.0096753377" flag="0"/>
      <vel value="0.0038705505" flag="0"/>
      <psa03 value="0.0140641023" flag="0"/>
      <psa10 value="0.0023791261" flag="0"/>
      <psa30 value="0.0006184061" flag="0"/>
    </comp>
    <comp name="--.HHZ">
      <acc value="0.0059844843" flag="0"/>
      <vel value="0.0028001686" flag="0"/>
      <psa03 value="0.0146403609" flag="0"/>
      <psa10 value="0.0031482981" flag="0"/>
      <psa30 value="0.0001886024" flag="0"/>
    </comp>
    <comp name="--.HHE">
      <acc value="0.0056241792" flag="0"/>
      <vel value="0.0023982061" flag="0"/>
      <psa03 value="0.0143053004" flag="0"/>
      <psa10 value="0.0021628577" flag="0"/>
      <psa30 value="0.0003484569" flag="0"/>
    </comp>
  </station>
  <station code="KZN" name="KZN" netid="HL" insttype="120" lat="40.3033" lon="21.7821">
    <comp name="--.HHN">
      <acc value="0.0102453279" flag="0"/>
      <vel value="0.0037857062" flag="0"/>
      <psa03 value="0.0200285948" flag="0"/>
      <psa10 value="0.0025934660" flag="0"/>
      <psa30 value="0.0002714836" flag="0"/>
    </comp>
    <comp name="--.HHE">
      <acc value="0.0162634538" flag="0"/>
      <vel value="0.0059094106" flag="0"/>
      <psa03 value="0.0384151890" flag="0"/>
      <psa10 value="0.0048320028" flag="0"/>
      <psa30 value="0.0002190520" flag="0"/>
    </comp>
    <comp name="--.HHZ">
      <acc value="0.0046111802" flag="0"/>
      <vel value="0.0030116506" flag="0"/>
      <psa03 value="0.0093511764" flag="0"/>
      <psa10 value="0.0036794168" flag="0"/>
      <psa30 value="0.0002792927" flag="0"/>
    </comp>
  </station>
  <station code="TETR" name="TETR" netid="HL" insttype="60" lat="39.3445" lon="21.2747">
    <comp name="--.HHN">
      <acc value="0.0286242110" flag="0"/>
      <vel value="0.0107922607" flag="0"/>
      <psa03 value="0.0690626064" flag="0"/>
      <psa10 value="0.0043538097" flag="0"/>
      <psa30 value="0.0004366306" flag="0"/>
    </comp>
    <comp name="--.HHE">
      <acc value="0.0365749361" flag="0"/>
      <vel value="0.0164550323" flag="0"/>
      <psa03 value="0.0816947646" flag="0"/>
      <psa10 value="0.0077411727" flag="0"/>
      <psa30 value="0.0004794179" flag="0"/>
    </comp>
    <comp name="--.HHZ">
      <acc value="0.0092443392" flag="0"/>
      <vel value="0.0042321395" flag="0"/>
      <psa03 value="0.0411896696" flag="0"/>
      <psa10 value="0.0045325729" flag="0"/>
      <psa30 value="0.0002045142" flag="0"/>
    </comp>
  </station>
  <station code="THL" name="THL" netid="HL" insttype="120" lat="39.5647" lon="22.0144">
    <comp name="--.HHZ">
      <acc value="0.1108869179" flag="0"/>
      <vel value="0.0551565706" flag="0"/>
      <psa03 value="0.1853463115" flag="0"/>
      <psa10 value="0.0225811362" flag="0"/>
      <psa30 value="0.0022319309" flag="0"/>
    </comp>
    <comp name="--.HHN">
      <acc value="0.0918374363" flag="0"/>
      <vel value="0.0200079965" flag="0"/>
      <psa03 value="0.0827794766" flag="0"/>
      <psa10 value="0.0123858132" flag="0"/>
      <psa30 value="0.0015687307" flag="0"/>
    </comp>
    <comp name="--.HHE">
      <acc value="0.1066971789" flag="0"/>
      <vel value="0.0230145176" flag="0"/>
      <psa03 value="0.0720391874" flag="0"/>
      <psa10 value="0.0075186483" flag="0"/>
      <psa30 value="0.0005227780" flag="0"/>
    </comp>
  </station>
  <station code="PRMD" name="PRMD" netid="HP" insttype="120P," lat="39.5299" lon="21.0965">
    <comp name="--.HHE">
      <acc value="0.0097882558" flag="0"/>
      <vel value="0.0062229807" flag="0"/>
      <psa03 value="0.0429966669" flag="0"/>
      <psa10 value="0.0043786365" flag="0"/>
      <psa30 value="0.0002140697" flag="0"/>
    </comp>
    <comp name="--.HHN">
      <acc value="0.0079558902" flag="0"/>
      <vel value="0.0048390862" flag="0"/>
      <psa03 value="0.0295319593" flag="0"/>
      <psa10 value="0.0057300714" flag="0"/>
      <psa30 value="0.0002446228" flag="0"/>
    </comp>
    <comp name="--.HHZ">
      <acc value="0.0051547574" flag="0"/>
      <vel value="0.0030633429" flag="0"/>
      <psa03 value="0.0116676650" flag="0"/>
      <psa10 value="0.0031135568" flag="0"/>
      <psa30 value="0.0001861261" flag="0"/>
    </comp>
  </station>
  <station code="AGG" name="AGG" netid="HT" insttype="120P," lat="39.0211" lon="22.336">
    <comp name="--.HHN">
      <acc value="0.0077736709" flag="0"/>
      <vel value="0.0047921154" flag="0"/>
      <psa03 value="0.0204033610" flag="0"/>
      <psa10 value="0.0039739686" flag="0"/>
      <psa30 value="0.0003418188" flag="0"/>
    </comp>
    <comp name="--.HHE">
      <acc value="0.0096394794" flag="0"/>
      <vel value="0.0043737404" flag="0"/>
      <psa03 value="0.0166648502" flag="0"/>
      <psa10 value="0.0036876642" flag="0"/>
      <psa30 value="0.0003256774" flag="0"/>
    </comp>
    <comp name="--.HHZ">
      <acc value="0.0035397900" flag="0"/>
      <vel value="0.0021342560" flag="0"/>
      <psa03 value="0.0081738198" flag="0"/>
      <psa10 value="0.0041906252" flag="0"/>
      <psa30 value="0.0001943993" flag="0"/>
    </comp>
  </station>
  <station code="KPRO" name="KPRO" netid="HT" insttype="100" lat="39.9549" lon="21.3632">
    <comp name="--.HHN">
      <acc value="0.0092755089" flag="0"/>
      <vel value="0.0058132128" flag="0"/>
      <psa03 value="0.0421641185" flag="0"/>
      <psa10 value="0.0052010389" flag="0"/>
      <psa30 value="0.0004522658" flag="0"/>
    </comp>
    <comp name="--.HHZ">
      <acc value="0.0058266036" flag="0"/>
      <vel value="0.0038435666" flag="0"/>
      <psa03 value="0.0228288763" flag="0"/>
      <psa10 value="0.0039683962" flag="0"/>
      <psa30 value="0.0004008647" flag="0"/>
    </comp>
    <comp name="--.HHE">
      <acc value="0.0111233921" flag="0"/>
      <vel value="0.0071367584" flag="0"/>
      <psa03 value="0.0413195916" flag="0"/>
      <psa10 value="0.0077715062" flag="0"/>
      <psa30 value="0.0003618452" flag="0"/>
    </comp>
  </station>
  <station code="LIT" name="LIT" netid="HT" insttype="100" lat="40.1033" lon="22.4892">
    <comp name="--.HHN">
      <acc value="0.0263662524" flag="0"/>
      <vel value="0.0093982396" flag="0"/>
      <psa03 value="0.0342956815" flag="0"/>
      <psa10 value="0.0052489572" flag="0"/>
      <psa30 value="0.0003398479" flag="0"/>
    </comp>
    <comp name="--.HHE">
      <acc value="0.0378207670" flag="0"/>
      <vel value="0.0110482476" flag="0"/>
      <psa03 value="0.0479145782" flag="0"/>
      <psa10 value="0.0038638014" flag="0"/>
      <psa30 value="0.0003987931" flag="0"/>
    </comp>
    <comp name="--.HHZ">
      <acc value="0.0130845587" flag="0"/>
      <vel value="0.0043307807" flag="0"/>
      <psa03 value="0.0186557950" flag="0"/>
      <psa10 value="0.0028391035" flag="0"/>
      <psa30 value="0.0003603829" flag="0"/>
    </comp>
  </station>
  <station code="TYRN" name="TYRN" netid="HT" insttype="120P," lat="39.711" lon="22.2325">
    <comp name="--.HHZ">
      <acc value="0.2620594125" flag="0"/>
      <vel value="0.0597949258" flag="0"/>
      <psa03 value="0.1909805765" flag="0"/>
      <psa10 value="0.0284464460" flag="0"/>
      <psa30 value="0.0024931125" flag="0"/>
    </comp>
    <comp name="--.HHN">
      <acc value="0.2477160518" flag="0"/>
      <vel value="0.0613832379" flag="0"/>
      <psa03 value="0.2559809279" flag="0"/>
      <psa10 value="0.0239855027" flag="0"/>
      <psa30 value="0.0025480882" flag="0"/>
    </comp>
    <comp name="--.HHE">
      <acc value="0.2670283668" flag="0"/>
      <vel value="0.0802085775" flag="0"/>
      <psa03 value="0.1606920339" flag="0"/>
      <psa10 value="0.0547547344" flag="0"/>
      <psa30 value="0.0042895803" flag="0"/>
    </comp>
  </station>
  <station code="XOR" name="XOR" netid="HT" insttype="Compact," lat="39.366" lon="23.1918">
    <comp name="--.HHZ">
      <acc value="0.0037931686" flag="0"/>
      <vel value="0.0027352603" flag="0"/>
      <psa03 value="0.0084081462" flag="0"/>
      <psa10 value="0.0017902359" flag="0"/>
      <psa30 value="0.0003329852" flag="0"/>
    </comp>
    <comp name="--.HHN">
      <acc value="0.0076701338" flag="0"/>
      <vel value="0.0036575728" flag="0"/>
      <psa03 value="0.0171739608" flag="0"/>
      <psa10 value="0.0061462657" flag="0"/>
      <psa30 value="0.0002721116" flag="0"/>
    </comp>
    <comp name="--.HHE">
      <acc value="0.0049265303" flag="0"/>
      <vel value="0.0031996813" flag="0"/>
      <psa03 value="0.0090005881" flag="0"/>
      <psa10 value="0.0035056214" flag="0"/>
      <psa30 value="0.0003267242" flag="0"/>
    </comp>
  </station>
  <station code="THL" name="THL" netid="MN" insttype="" lat="39.5647" lon="22.0144">
    <comp name="--.HHN">
      <acc value="0.0918374363" flag="0"/>
      <vel value="0.0200079965" flag="0"/>
      <psa03 value="0.0827794766" flag="0"/>
      <psa10 value="0.0123858132" flag="0"/>
      <psa30 value="0.0015687307" flag="0"/>
    </comp>
    <comp name="--.HHZ">
      <acc value="0.1108869179" flag="0"/>
      <vel value="0.0551565706" flag="0"/>
      <psa03 value="0.1853463115" flag="0"/>
      <psa10 value="0.0225811362" flag="0"/>
      <psa30 value="0.0022319309" flag="0"/>
    </comp>
    <comp name="--.HHE">
      <acc value="0.1066971789" flag="0"/>
      <vel value="0.0230145176" flag="0"/>
      <psa03 value="0.0720391874" flag="0"/>
      <psa10 value="0.0075186483" flag="0"/>
      <psa30 value="0.0005227780" flag="0"/>
    </comp>
  </station>
</stationlist>
