<?xml version="1.0" encoding="UTF-8" standalone="yes"?>
<!DOCTYPE earthquake SYSTEM "stationlist.dtd">
<stationlist created="" xmlns="ch.ethz.sed.shakemap.usgs.xml">
  <station code="CAR1" name="CAR1" netid="IV" insttype="" lat="39.2534" lon="16.2114">
    <comp name="--.HHE">
      <acc value="0.0143786794" flag="0"/>
      <vel value="0.0110468778" flag="0"/>
      <psa03 value="0.0501005917" flag="0"/>
      <psa10 value="0.0161967678" flag="0"/>
      <psa30 value="0.0007838991" flag="0"/>
    </comp>
    <comp name="--.HHN">
      <acc value="0.0124329486" flag="0"/>
      <vel value="0.0087788388" flag="0"/>
      <psa03 value="0.0347718749" flag="0"/>
      <psa10 value="0.0131741492" flag="0"/>
      <psa30 value="0.0010845172" flag="0"/>
    </comp>
    <comp name="--.HHZ">
      <acc value="0.0092982239" flag="0"/>
      <vel value="0.0061687810" flag="0"/>
      <psa03 value="0.0373305574" flag="0"/>
      <psa10 value="0.0049443129" flag="0"/>
      <psa30 value="0.0008262062" flag="0"/>
    </comp>
  </station>
  <station code="CELI" name="CELI" netid="IV" insttype="" lat="39.4027" lon="16.5088">
    <comp name="--.HHE">
      <acc value="0.0091917914" flag="0"/>
      <vel value="0.0078050685" flag="0"/>
      <psa03 value="0.0236340199" flag="0"/>
      <psa10 value="0.0170175269" flag="0"/>
      <psa30 value="0.0015109310" flag="0"/>
    </comp>
    <comp name="--.HHN">
      <acc value="0.0132673742" flag="0"/>
      <vel value="0.0142995725" flag="0"/>
      <psa03 value="0.0270707894" flag="0"/>
      <psa10 value="0.0221844356" flag="0"/>
      <psa30 value="0.0012196056" flag="0"/>
    </comp>
    <comp name="--.HHZ">
      <acc value="0.0107344047" flag="0"/>
      <vel value="0.0069926651" flag="0"/>
      <psa03 value="0.0286262235" flag="0"/>
      <psa10 value="0.0101796282" flag="0"/>
      <psa30 value="0.0008337872" flag="0"/>
    </comp>
  </station>
  <station code="CET2" name="CET2" netid="IV" insttype="" lat="39.5288" lon="15.9546">
    <comp name="--.HHE">
      <acc value="0.0072714890" flag="0"/>
      <vel value="0.0070508288" flag="0"/>
      <psa03 value="0.0147615097" flag="0"/>
      <psa10 value="0.0135843627" flag="0"/>
      <psa30 value="0.0006136687" flag="0"/>
    </comp>
    <comp name="--.HHN">
      <acc value="0.0142645966" flag="0"/>
      <vel value="0.0130271372" flag="0"/>
      <psa03 value="0.0272538969" flag="0"/>
      <psa10 value="0.0224314337" flag="0"/>
      <psa30 value="0.0009685607" flag="0"/>
    </comp>
    <comp name="--.HHZ">
      <acc value="0.0064821948" flag="0"/>
      <vel value="0.0043968467" flag="0"/>
      <psa03 value="0.0134144301" flag="0"/>
      <psa10 value="0.0052717356" flag="0"/>
      <psa30 value="0.0004241642" flag="0"/>
    </comp>
  </station>
  <station code="JOPP" name="JOPP" netid="IV" insttype="" lat="38.6068" lon="15.8856">
    <comp name="--.HHE">
      <acc value="0.0023977612" flag="0"/>
      <vel value="0.0015134291" flag="0"/>
      <psa03 value="0.0058253994" flag="0"/>
      <psa10 value="0.0033432523" flag="0"/>
      <psa30 value="0.0004031102" flag="0"/>
    </comp>
    <comp name="--.HHN">
      <acc value="0.0025496740" flag="0"/>
      <vel value="0.0019780566" flag="0"/>
      <psa03 value="0.0073402515" flag="0"/>
      <psa10 value="0.0026976059" flag="0"/>
      <psa30 value="0.0003192351" flag="0"/>
    </comp>
    <comp name="--.HHZ">
      <acc value="0.0015737156" flag="0"/>
      <vel value="0.0015783422" flag="0"/>
      <psa03 value="0.0033247772" flag="0"/>
      <psa10 value="0.0020468804" flag="0"/>
      <psa30 value="0.0005712049" flag="0"/>
    </comp>
  </station>
  <station code="ORI" name="ORI" netid="IV" insttype="" lat="40.051" lon="16.4504">
    <comp name="--.HHE">
      <acc value="0.0133399852" flag="0"/>
      <vel value="0.0068288940" flag="0"/>
      <psa03 value="0.0490698432" flag="0"/>
      <psa10 value="0.0065134534" flag="0"/>
      <psa30 value="0.0003751457" flag="0"/>
    </comp>
    <comp name="--.HHN">
      <acc value="0.0136611429" flag="0"/>
      <vel value="0.0060956441" flag="0"/>
      <psa03 value="0.0333035841" flag="0"/>
      <psa10 value="0.0043104169" flag="0"/>
      <psa30 value="0.0004855647" flag="0"/>
    </comp>
    <comp name="--.HHZ">
      <acc value="0.0035437327" flag="0"/>
      <vel value="0.0021481616" flag="0"/>
      <psa03 value="0.0134353844" flag="0"/>
      <psa10 value="0.0026165411" flag="0"/>
      <psa30 value="0.0003147273" flag="0"/>
    </comp>
  </station>
  <station code="PIPA" name="PIPA" netid="IV" insttype="" lat="39.4851" lon="16.8158">
    <comp name="--.HHE">
      <acc value="0.0298907267" flag="0"/>
      <vel value="0.0149483621" flag="0"/>
      <psa03 value="0.0785413219" flag="0"/>
      <psa10 value="0.0147344195" flag="0"/>
      <psa30 value="0.0008404002" flag="0"/>
    </comp>
    <comp name="--.HHN">
      <acc value="0.0256349750" flag="0"/>
      <vel value="0.0232665250" flag="0"/>
      <psa03 value="0.0537152698" flag="0"/>
      <psa10 value="0.0237705308" flag="0"/>
      <psa30 value="0.0011965667" flag="0"/>
    </comp>
    <comp name="--.HHZ">
      <acc value="0.0250857289" flag="0"/>
      <vel value="0.0093722556" flag="0"/>
      <psa03 value="0.0481833145" flag="0"/>
      <psa10 value="0.0131879528" flag="0"/>
      <psa30 value="0.0007659269" flag="0"/>
    </comp>
  </station>
  <station code="PLAC" name="PLAC" netid="IV" insttype="" lat="38.4494" lon="16.4383">
    <comp name="--.HHE">
      <acc value="0.0028804031" flag="0"/>
      <vel value="0.0031219865" flag="0"/>
      <psa03 value="0.0078173129" flag="0"/>
      <psa10 value="0.0046539815" flag="0"/>
      <psa30 value="0.0004278231" flag="0"/>
    </comp>
    <comp name="--.HHN">
      <acc value="0.0030812043" flag="0"/>
      <vel value="0.0029128811" flag="0"/>
      <psa03 value="0.0063509526" flag="0"/>
      <psa10 value="0.0083818800" flag="0"/>
      <psa30 value="0.0003485298" flag="0"/>
    </comp>
    <comp name="--.HHZ">
      <acc value="0.0016745421" flag="0"/>
      <vel value="0.0014294623" flag="0"/>
      <psa03 value="0.0043096357" flag="0"/>
      <psa10 value="0.0031253508" flag="0"/>
      <psa30 value="0.0003420566" flag="0"/>
    </comp>
  </station>
  <station code="SALB" name="SALB" netid="IV" insttype="" lat="39.8772" lon="16.3459">
    <comp name="--.HHE">
      <acc value="0.0037602840" flag="0"/>
      <vel value="0.0024159917" flag="0"/>
      <psa03 value="0.0146768592" flag="0"/>
      <psa10 value="0.0030449836" flag="0"/>
      <psa30 value="0.0003001353" flag="0"/>
    </comp>
    <comp name="--.HHZ">
      <acc value="0.0021530350" flag="0"/>
      <vel value="0.0010694955" flag="0"/>
      <psa03 value="0.0049196876" flag="0"/>
      <psa10 value="0.0012100251" flag="0"/>
      <psa30 value="0.0002376589" flag="0"/>
    </comp>
    <comp name="--.HHN">
      <acc value="0.0032625495" flag="0"/>
      <vel value="0.0018024683" flag="0"/>
      <psa03 value="0.0074364977" flag="0"/>
      <psa10 value="0.0023026649" flag="0"/>
      <psa30 value="0.0002429101" flag="0"/>
    </comp>
  </station>
  <station code="SERS" name="SERS" netid="IV" insttype="" lat="39.0359" lon="16.6886">
    <comp name="--.HHE">
      <acc value="0.0138363833" flag="0"/>
      <vel value="0.0128773924" flag="0"/>
      <psa03 value="0.0427056036" flag="0"/>
      <psa10 value="0.0128770858" flag="0"/>
      <psa30 value="0.0010498863" flag="0"/>
    </comp>
    <comp name="--.HHN">
      <acc value="0.0285952072" flag="0"/>
      <vel value="0.0164296039" flag="0"/>
      <psa03 value="0.0718056749" flag="0"/>
      <psa10 value="0.0149291828" flag="0"/>
      <psa30 value="0.0014352422" flag="0"/>
    </comp>
    <comp name="--.HHZ">
      <acc value="0.0136913713" flag="0"/>
      <vel value="0.0101614573" flag="0"/>
      <psa03 value="0.0341882195" flag="0"/>
      <psa10 value="0.0088151434" flag="0"/>
      <psa30 value="0.0009324158" flag="0"/>
    </comp>
  </station>
  <station code="SPS2" name="SPS2" netid="IV" insttype="" lat="39.291" lon="16.3388">
    <comp name="--.HHE">
      <acc value="0.0048635485" flag="0"/>
      <vel value="0.0033557322" flag="0"/>
      <psa03 value="0.0173834715" flag="0"/>
      <psa10 value="0.0031640725" flag="0"/>
      <psa30 value="0.0003519897" flag="0"/>
    </comp>
    <comp name="--.HHN">
      <acc value="0.0079261898" flag="0"/>
      <vel value="0.0047416449" flag="0"/>
      <psa03 value="0.0320612589" flag="0"/>
      <psa10 value="0.0057632740" flag="0"/>
      <psa30 value="0.0003043576" flag="0"/>
    </comp>
    <comp name="--.HHZ">
      <acc value="0.0029416834" flag="0"/>
      <vel value="0.0015960488" flag="0"/>
      <psa03 value="0.0092690714" flag="0"/>
      <psa10 value="0.0025926675" flag="0"/>
      <psa30 value="0.0001748539" flag="0"/>
    </comp>
  </station>
  <station code="TDS" name="TDS" netid="IV" insttype="" lat="39.6601" lon="16.3376">
    <comp name="--.HHE">
      <acc value="0.0037420652" flag="0"/>
      <vel value="0.0033341514" flag="0"/>
      <psa03 value="0.0071014093" flag="0"/>
      <psa10 value="0.0050520946" flag="0"/>
      <psa30 value="0.0008737258" flag="0"/>
    </comp>
    <comp name="--.HHZ">
      <acc value="0.0022797733" flag="0"/>
      <vel value="0.0031289407" flag="0"/>
      <psa03 value="0.0055139147" flag="0"/>
      <psa10 value="0.0040326254" flag="0"/>
      <psa30 value="0.0008112064" flag="0"/>
    </comp>
    <comp name="--.HHN">
      <acc value="0.0024367748" flag="0"/>
      <vel value="0.0039517688" flag="0"/>
      <psa03 value="0.0055802601" flag="0"/>
      <psa10 value="0.0057659918" flag="0"/>
      <psa30 value="0.0008791309" flag="0"/>
    </comp>
  </station>
  <station code="TIP" name="TIP" netid="MN" insttype="" lat="39.1794" lon="16.7583">
    <comp name="--.HHE">
      <acc value="0.0153320633" flag="0"/>
      <vel value="0.0099403563" flag="0"/>
      <psa03 value="0.0345361829" flag="0"/>
      <psa10 value="0.0131204891" flag="0"/>
      <psa30 value="0.0011801773" flag="0"/>
    </comp>
    <comp name="--.HHN">
      <acc value="0.0130303832" flag="0"/>
      <vel value="0.0075812185" flag="0"/>
      <psa03 value="0.0369625722" flag="0"/>
      <psa10 value="0.0082834449" flag="0"/>
      <psa30 value="0.0009341010" flag="0"/>
    </comp>
    <comp name="--.HHZ">
      <acc value="0.0243883629" flag="0"/>
      <vel value="0.0107686457" flag="0"/>
      <psa03 value="0.0652296612" flag="0"/>
      <psa10 value="0.0167789482" flag="0"/>
      <psa30 value="0.0013706183" flag="0"/>
    </comp>
  </station>
</stationlist>
