<stationlist created="1778069290">
	<station code="ACR" name="ACR" netid="IT" source="Italian Strong Motion Network (RAN)" insttype="" lat="39.4889" lon="16.3798">
		<comp name="--.HNE" depth="0.0">
			<acc value="0.012888108" flag="0"/>
			<vel value="0.010241" flag="0"/>
			<psa03 value="0.0472030279822767" flag="0"/>
			<psa10 value="0.0202829845262611" flag="0"/>
			<psa30 value="0.000950771890638275" flag="0"/>
		</comp>
		<comp name="--.HNN" depth="0.0">
			<acc value="0.013183602" flag="0"/>
			<vel value="0.014866" flag="0"/>
			<psa03 value="0.0336013971703221" flag="0"/>
			<psa10 value="0.0131072294288227" flag="0"/>
			<psa30 value="0.00117716745612673" flag="0"/>
		</comp>
		<comp name="--.HNZ" depth="0.0">
			<acc value="0.009537408" flag="0"/>
			<vel value="0.00668" flag="0"/>
			<psa03 value="0.0296640829879142" flag="0"/>
			<psa10 value="0.0084240626620882" flag="0"/>
			<psa30 value="0.00117314065753109" flag="0"/>
		</comp>
	</station>
	<station code="CIR" name="CIR" netid="IT" source="Italian Strong Motion Network (RAN)" insttype="" lat="39.38764833" lon="17.05777">
		<comp name="--.HGE" depth="0.0">
			<acc value="0.073266294" flag="0"/>
			<vel value="0.051056" flag="0"/>
			<psa03 value="0.29462743058132" flag="0"/>
			<psa10 value="0.048100109224973" flag="0"/>
			<psa30 value="0.00378698036817052" flag="0"/>
		</comp>
		<comp name="--.HGN" depth="0.0">
			<acc value="0.078866706" flag="0"/>
			<vel value="0.053229" flag="0"/>
			<psa03 value="0.254180475798402" flag="0"/>
			<psa10 value="0.0514826200453144" flag="0"/>
			<psa30 value="0.00379369169916326" flag="0"/>
		</comp>
		<comp name="--.HGZ" depth="0.0">
			<acc value="0.065897814" flag="0"/>
			<vel value="0.022839" flag="0"/>
			<psa03 value="0.20916981594042" flag="0"/>
			<psa10 value="0.0180682452986567" flag="0"/>
			<psa30 value="0.00204113946592556" flag="0"/>
		</comp>
	</station>
	<station code="COR" name="COR" netid="IT" source="Italian Strong Motion Network (RAN)" insttype="" lat="39.1179" lon="16.38">
		<comp name="--.HGE" depth="0.0">
			<acc value="0.0120819" flag="0"/>
			<vel value="0.009979" flag="0"/>
			<psa03 value="0.0352121166085799" flag="0"/>
			<psa10 value="0.00991397814247666" flag="0"/>
			<psa30 value="0.000646972307700209" flag="0"/>
		</comp>
		<comp name="--.HGN" depth="0.0">
			<acc value="0.014527248" flag="0"/>
			<vel value="0.009261" flag="0"/>
			<psa03 value="0.0440710735189977" flag="0"/>
			<psa10 value="0.00856500061293576" flag="0"/>
			<psa30 value="0.000729745389944012" flag="0"/>
		</comp>
		<comp name="--.HGZ" depth="0.0">
			<acc value="0.008592378" flag="0"/>
			<vel value="0.007436" flag="0"/>
			<psa03 value="0.0182548203002549" flag="0"/>
			<psa10 value="0.00902808245143487" flag="0"/>
			<psa30 value="0.000788357680613948" flag="0"/>
		</comp>
	</station>
	<station code="COS" name="COS" netid="IT" source="Italian Strong Motion Network (RAN)" insttype="" lat="39.289" lon="16.2576">
		<comp name="--.HNE" depth="0.0">
			<acc value="0.028951272" flag="0"/>
			<vel value="0.022874" flag="0"/>
			<psa03 value="0.0872025606990117" flag="0"/>
			<psa10 value="0.028517787654354" flag="0"/>
			<psa30 value="0.00152347213535215" flag="0"/>
		</comp>
		<comp name="--.HNN" depth="0.0">
			<acc value="0.016140174" flag="0"/>
			<vel value="0.014617" flag="0"/>
			<psa03 value="0.0527958038095607" flag="0"/>
			<psa10 value="0.0194776248071322" flag="0"/>
			<psa30 value="0.00108141913396363" flag="0"/>
		</comp>
		<comp name="--.HNZ" depth="0.0">
			<acc value="0.007928358" flag="0"/>
			<vel value="0.006571" flag="0"/>
			<psa03 value="0.0218789390363349" flag="0"/>
			<psa10 value="0.00655562811370918" flag="0"/>
			<psa30 value="0.000675607319935903" flag="0"/>
		</comp>
	</station>
	<station code="CRN" name="CRN" netid="IT" source="Italian Strong Motion Network (RAN)" insttype="" lat="39.0777" lon="17.1113">
		<comp name="--.HGE" depth="0.0">
			<acc value="0.336311238" flag="0"/>
			<vel value="0.186412" flag="0"/>
			<psa03 value="0.742362692210365" flag="0"/>
			<psa10 value="0.261081513747204" flag="0"/>
			<psa30 value="0.0230337353891525" flag="0"/>
		</comp>
		<comp name="--.HGN" depth="0.0">
			<acc value="0.28647159" flag="0"/>
			<vel value="0.211527" flag="0"/>
			<psa03 value="0.749208249822961" flag="0"/>
			<psa10 value="0.229523493153138" flag="0"/>
			<psa30 value="0.0125170797235277" flag="0"/>
		</comp>
		<comp name="--.HGZ" depth="0.0">
			<acc value="0.348671394" flag="0"/>
			<vel value="0.093662" flag="0"/>
			<psa03 value="0.342725302695962" flag="0"/>
			<psa10 value="0.0565765202688046" flag="0"/>
			<psa30 value="0.00409480674970423" flag="0"/>
		</comp>
	</station>
	<station code="KRT" name="KRT" netid="IT" source="Italian Strong Motion Network (RAN)" insttype="" lat="39.06977" lon="17.1278">
		<comp name="--.HGE" depth="0.0">
			<acc value="0.393165936" flag="0"/>
			<vel value="0.344709" flag="0"/>
			<psa03 value="0.747508045971466" flag="0"/>
			<psa10 value="0.260477493957857" flag="0"/>
			<psa30 value="0.019136689192701" flag="0"/>
		</comp>
		<comp name="--.HGN" depth="0.0">
			<acc value="0.18918399" flag="0"/>
			<vel value="0.172624" flag="0"/>
			<psa03 value="0.467600801367558" flag="0"/>
			<psa10 value="0.174573799516974" flag="0"/>
			<psa30 value="0.00683526690507338" flag="0"/>
		</comp>
		<comp name="--.HGZ" depth="0.0">
			<acc value="0.794239422" flag="0"/>
			<vel value="0.174736" flag="0"/>
			<psa03 value="0.823390828396055" flag="0"/>
			<psa10 value="0.0818044134705172" flag="0"/>
			<psa30 value="0.00741467848077999" flag="0"/>
		</comp>
	</station>
	<station code="LMZ" name="LMZ" netid="IT" source="Italian Strong Motion Network (RAN)" insttype="" lat="38.9187" lon="16.2527">
		<comp name="--.HNE" depth="0.0">
			<acc value="0.02100894" flag="0"/>
			<vel value="0.021582" flag="0"/>
			<psa03 value="0.0432209715932505" flag="0"/>
			<psa10 value="0.0319687540508213" flag="0"/>
			<psa30 value="0.00365364859244807" flag="0"/>
		</comp>
		<comp name="--.HNN" depth="0.0">
			<acc value="0.015993396" flag="0"/>
			<vel value="0.015562" flag="0"/>
			<psa03 value="0.0423708696675034" flag="0"/>
			<psa10 value="0.0273500160616172" flag="0"/>
			<psa30 value="0.00396773888290834" flag="0"/>
		</comp>
		<comp name="--.HNZ" depth="0.0">
			<acc value="0.009750792" flag="0"/>
			<vel value="0.011485" flag="0"/>
			<psa03 value="0.019104922226002" flag="0"/>
			<psa10 value="0.0219903471308144" flag="0"/>
			<psa30 value="0.00207424869882308" flag="0"/>
		</comp>
	</station>
	<station code="MSR" name="MSR" netid="IT" source="Italian Strong Motion Network (RAN)" insttype="" lat="39.0768" lon="16.7897">
		<comp name="--.HGE" depth="0.0">
			<acc value="0.086898696" flag="0"/>
			<vel value="0.035096" flag="0"/>
			<psa03 value="0.296327634432814" flag="0"/>
			<psa10 value="0.017283019572506" flag="0"/>
			<psa30 value="0.0015896906011472" flag="0"/>
		</comp>
		<comp name="--.HGN" depth="0.0">
			<acc value="0.13359093" flag="0"/>
			<vel value="0.073803" flag="0"/>
			<psa03 value="0.634847169706658" flag="0"/>
			<psa10 value="0.0335673930932922" flag="0"/>
			<psa30 value="0.00225008557083289" flag="0"/>
		</comp>
		<comp name="--.HGZ" depth="0.0">
			<acc value="0.051371994" flag="0"/>
			<vel value="0.017302" flag="0"/>
			<psa03 value="0.135031979573944" flag="0"/>
			<psa10 value="0.0091931811938563" flag="0"/>
			<psa30 value="0.00140445786574755" flag="0"/>
		</comp>
	</station>
	<station code="PNI" name="PNI" netid="IT" source="Italian Strong Motion Network (RAN)" insttype="" lat="39.158" lon="16.4126">
		<comp name="--.HGE" depth="0.0">
			<acc value="0.023705106" flag="0"/>
			<vel value="0.01594" flag="0"/>
			<psa03 value="0.0727955701679281" flag="0"/>
			<psa10 value="0.0190346769616114" flag="0"/>
			<psa30 value="0.000985670811800527" flag="0"/>
		</comp>
		<comp name="--.HGN" depth="0.0">
			<acc value="0.024519372" flag="0"/>
			<vel value="0.018531" flag="0"/>
			<psa03 value="0.0791489635077227" flag="0"/>
			<psa10 value="0.0128736751102753" flag="0"/>
			<psa30 value="0.000850101925747163" flag="0"/>
		</comp>
		<comp name="--.HGZ" depth="0.0">
			<acc value="0.02244102" flag="0"/>
			<vel value="0.008376" flag="0"/>
			<psa03 value="0.0483215831477335" flag="0"/>
			<psa10 value="0.00936633353346901" flag="0"/>
			<psa30 value="0.000744510318128042" flag="0"/>
		</comp>
	</station>
	<station code="SGV" name="SGV" netid="IT" source="Italian Strong Motion Network (RAN)" insttype="" lat="39.2633" lon="16.6897">
		<comp name="--.HGE" depth="0.0">
			<acc value="0.04741674" flag="0"/>
			<vel value="0.034783" flag="0"/>
			<psa03 value="0.188051494416596" flag="0"/>
			<psa10 value="0.0405941566426918" flag="0"/>
			<psa30 value="0.00321159559105955" flag="0"/>
		</comp>
		<comp name="--.HGN" depth="0.0">
			<acc value="0.044740872" flag="0"/>
			<vel value="0.021434" flag="0"/>
			<psa03 value="0.16129565485887" flag="0"/>
			<psa10 value="0.0260856013025848" flag="0"/>
			<psa30 value="0.00136776925632057" flag="0"/>
		</comp>
		<comp name="--.HGZ" depth="0.0">
			<acc value="0.036959802" flag="0"/>
			<vel value="0.014032" flag="0"/>
			<psa03 value="0.0892607022034522" flag="0"/>
			<psa10 value="0.0231259043347861" flag="0"/>
			<psa30 value="0.00139908880095336" flag="0"/>
		</comp>
	</station>
	<station code="SMA" name="SMA" netid="IT" source="Italian Strong Motion Network (RAN)" insttype="" lat="39.5564" lon="16.125">
		<comp name="--.HNE" depth="0.0">
			<acc value="0.014370372" flag="0"/>
			<vel value="0.011076" flag="0"/>
			<psa03 value="0.0376729379725848" flag="0"/>
			<psa10 value="0.0227836264541563" flag="0"/>
			<psa30 value="0.00208274971808055" flag="0"/>
		</comp>
		<comp name="--.HNN" depth="0.0">
			<acc value="0.013352514" flag="0"/>
			<vel value="0.011024" flag="0"/>
			<psa03 value="0.0270690350040544" flag="0"/>
			<psa10 value="0.0215473992852935" flag="0"/>
			<psa30 value="0.00176865942762028" flag="0"/>
		</comp>
		<comp name="--.HNZ" depth="0.0">
			<acc value="0.007819422" flag="0"/>
			<vel value="0.006834" flag="0"/>
			<psa03 value="0.0173152339612712" flag="0"/>
			<psa10 value="0.0174118771275666" flag="0"/>
			<psa30 value="0.000921689456336398" flag="0"/>
		</comp>
	</station>
	<station code="SPS" name="SPS" netid="IT" source="Italian Strong Motion Network (RAN)" insttype="" lat="39.3402" lon="16.4491">
		<comp name="--.HNE" depth="0.0">
			<acc value="0.025568034" flag="0"/>
			<vel value="0.01703" flag="0"/>
			<psa03 value="0.112302938611862" flag="0"/>
			<psa10 value="0.0143354030004943" flag="0"/>
			<psa30 value="0.00134897752954089" flag="0"/>
		</comp>
		<comp name="--.HNN" depth="0.0">
			<acc value="0.021343398" flag="0"/>
			<vel value="0.008996" flag="0"/>
			<psa03 value="0.0654578482825316" flag="0"/>
			<psa10 value="0.00748984538789869" flag="0"/>
			<psa30 value="0.00113466235983937" flag="0"/>
		</comp>
		<comp name="--.HNZ" depth="0.0">
			<acc value="0.019308804" flag="0"/>
			<vel value="0.005661" flag="0"/>
			<psa03 value="0.0209840949039695" flag="0"/>
			<psa10 value="0.00761064934576803" flag="0"/>
			<psa30 value="0.000755248447716427" flag="0"/>
		</comp>
	</station>
	<station code="CELI" name="CELI" netid="IV" source="Italian National Seismic Network (INSN)" insttype="" lat="39.4027" lon="16.5088">
		<comp name="--.HNE" depth="0.0">
			<acc value="0.00947863870938806" flag="0"/>
			<vel value="0.00784468605535927" flag="0"/>
			<psa03 value="0.0241607915738668" flag="0"/>
			<psa10 value="0.0173716091416102" flag="0"/>
			<psa30 value="0.001584321536353" flag="0"/>
		</comp>
		<comp name="--.HNN" depth="0.0">
			<acc value="0.0133440298284788" flag="0"/>
			<vel value="0.0144177591825844" flag="0"/>
			<psa03 value="0.0277401681033285" flag="0"/>
			<psa10 value="0.0224735629622917" flag="0"/>
			<psa30 value="0.00120088082563441" flag="0"/>
		</comp>
		<comp name="--.HNZ" depth="0.0">
			<acc value="0.0106615466737101" flag="0"/>
			<vel value="0.00727650135615276" flag="0"/>
			<psa03 value="0.0295745985746776" flag="0"/>
			<psa10 value="0.0104374619599104" flag="0"/>
			<psa30 value="0.000855918412607539" flag="0"/>
		</comp>
	</station>
	<station code="JOPP" name="JOPP" netid="IV" source="Italian National Seismic Network (INSN)" insttype="" lat="38.6068" lon="15.8856">
		<comp name="--.HNE" depth="0.0">
			<acc value="0.00241864802435708" flag="0"/>
			<vel value="0.00163909071866667" flag="0"/>
			<psa03 value="0.00572700244713878" flag="0"/>
			<psa10 value="0.00324559966808943" flag="0"/>
			<psa30 value="0.000413865411219014" flag="0"/>
		</comp>
		<comp name="--.HNN" depth="0.0">
			<acc value="0.00259829356721926" flag="0"/>
			<vel value="0.00195706336983278" flag="0"/>
			<psa03 value="0.00702452643906867" flag="0"/>
			<psa10 value="0.00264560667733841" flag="0"/>
			<psa30 value="0.000396415950637888" flag="0"/>
		</comp>
		<comp name="--.HNZ" depth="0.0">
			<acc value="0.00164149396724086" flag="0"/>
			<vel value="0.00151663049710768" flag="0"/>
			<psa03 value="0.00322143887651557" flag="0"/>
			<psa10 value="0.00200534570063094" flag="0"/>
			<psa30 value="0.000659052703487143" flag="0"/>
		</comp>
	</station>
	<station code="MCEL" name="MCEL" netid="IV" source="Italian National Seismic Network (INSN)" insttype="" lat="40.3249" lon="15.8019">
		<comp name="--.HNE" depth="0.0">
			<acc value="0.00154746705439755" flag="0"/>
			<vel value="0.00188443405981267" flag="0"/>
			<psa03 value="0.00483215831477335" flag="0"/>
			<psa10 value="0.00212212285990463" flag="0"/>
			<psa30 value="0.000433999404197236" flag="0"/>
		</comp>
		<comp name="--.HNN" depth="0.0">
			<acc value="0.00142874422604241" flag="0"/>
			<vel value="0.00185976731514655" flag="0"/>
			<psa03 value="0.00371360314931656" flag="0"/>
			<psa10 value="0.00367646711782339" flag="0"/>
			<psa30 value="0.00057135797851533" flag="0"/>
		</comp>
		<comp name="--.HNZ" depth="0.0">
			<acc value="0.00101564229274464" flag="0"/>
			<vel value="0.00105905252934797" flag="0"/>
			<psa03 value="0.00241607915738667" flag="0"/>
			<psa10 value="0.00162279983404472" flag="0"/>
			<psa30 value="0.000520799285036683" flag="0"/>
		</comp>
	</station>
	<station code="PIPA" name="PIPA" netid="IV" source="Italian National Seismic Network (INSN)" insttype="" lat="39.48514" lon="16.8158">
		<comp name="--.HNE" depth="0.0">
			<acc value="0.0298500508404297" flag="0"/>
			<vel value="0.0148711217784979" flag="0"/>
			<psa03 value="0.0785673148216852" flag="0"/>
			<psa10 value="0.0146494932909545" flag="0"/>
			<psa30 value="0.000872920451122482" flag="0"/>
		</comp>
		<comp name="--.HNN" depth="0.0">
			<acc value="0.0243864048917836" flag="0"/>
			<vel value="0.0228358323614013" flag="0"/>
			<psa03 value="0.0527958038095607" flag="0"/>
			<psa10 value="0.024112469990719" flag="0"/>
			<psa30 value="0.00122817357167156" flag="0"/>
		</comp>
		<comp name="--.HNZ" depth="0.0">
			<acc value="0.0243595943246468" flag="0"/>
			<vel value="0.00933880489118142" flag="0"/>
			<psa03 value="0.0493059116933355" flag="0"/>
			<psa10 value="0.0134615877052394" flag="0"/>
			<psa30 value="0.000779856661356477" flag="0"/>
		</comp>
	</station>
	<station code="PLAC" name="PLAC" netid="IV" source="Italian National Seismic Network (INSN)" insttype="" lat="38.4494" lon="16.4383">
		<comp name="--.HNE" depth="1.0">
			<acc value="0.0030006777083786" flag="0"/>
			<vel value="0.00287896348253612" flag="0"/>
			<psa03 value="0.00604019789346669" flag="0"/>
			<psa10 value="0.00822272273230598" flag="0"/>
			<psa30 value="0.000371360314931656" flag="0"/>
		</comp>
		<comp name="--.HNN" depth="1.0">
			<acc value="0.00277074491493428" flag="0"/>
			<vel value="0.00309091418711589" flag="0"/>
			<psa03 value="0.00751669071186965" flag="0"/>
			<psa10 value="0.00442545165661326" flag="0"/>
			<psa30 value="0.000450554020645997" flag="0"/>
		</comp>
		<comp name="--.HNZ" depth="1.0">
			<acc value="0.00164847039036589" flag="0"/>
			<vel value="0.00147522294910602" flag="0"/>
			<psa03 value="0.00416102521549927" flag="0"/>
			<psa10 value="0.00299996495375512" flag="0"/>
			<psa30 value="0.000383888132784772" flag="0"/>
		</comp>
	</station>
	<station code="SERS" name="SERS" netid="IV" source="Italian National Seismic Network (INSN)" insttype="" lat="39.0359" lon="16.6886">
		<comp name="--.HNE" depth="0.0">
			<acc value="0.0260432995173599" flag="0"/>
			<vel value="0.0139708045398043" flag="0"/>
			<psa03 value="0.0683660917127192" flag="0"/>
			<psa10 value="0.0141703042580728" flag="0"/>
			<psa30 value="0.00154226386213183" flag="0"/>
		</comp>
		<comp name="--.HNN" depth="0.0">
			<acc value="0.0150393885219898" flag="0"/>
			<vel value="0.0133379086604862" flag="0"/>
			<psa03 value="0.0424156118741216" flag="0"/>
			<psa10 value="0.0125233436324543" flag="0"/>
			<psa30 value="0.00111810774339061" flag="0"/>
		</comp>
		<comp name="--.HNZ" depth="0.0">
			<acc value="0.0132064326391217" flag="0"/>
			<vel value="0.0100579584815841" flag="0"/>
			<psa03 value="0.0332882017239942" flag="0"/>
			<psa10 value="0.00866969737642252" flag="0"/>
			<psa30 value="0.00100356769444784" flag="0"/>
		</comp>
	</station>
	<station code="SIRI" name="SIRI" netid="IV" source="Italian National Seismic Network (INSN)" insttype="" lat="40.1821" lon="15.8675">
		<comp name="--.HNE" depth="0.0">
			<acc value="0.00308266968470183" flag="0"/>
			<vel value="0.00259591479006856" flag="0"/>
			<psa03 value="0.0106486451751487" flag="0"/>
			<psa10 value="0.00318117089055912" flag="0"/>
			<psa30 value="0.000577174465375705" flag="0"/>
		</comp>
		<comp name="--.HNN" depth="0.0">
			<acc value="0.00243167662238219" flag="0"/>
			<vel value="0.00225988116101524" flag="0"/>
			<psa03 value="0.00639813554641286" flag="0"/>
			<psa10 value="0.00303620614111592" flag="0"/>
			<psa30 value="0.000593729081824466" flag="0"/>
		</comp>
		<comp name="--.HNZ" depth="0.0">
			<acc value="0.00152154206587061" flag="0"/>
			<vel value="0.00112798259803524" flag="0"/>
			<psa03 value="0.00357937652946174" flag="0"/>
			<psa10 value="0.00219863203322187" flag="0"/>
			<psa30 value="0.000394178840306974" flag="0"/>
		</comp>
	</station>
	<station code="CEL" name="CEL" netid="MN" source="Mediterranean Very Broadband Seismographic Network (MedNet)" insttype="" lat="38.2603" lon="15.8939">
		<comp name="--.HNE" depth="0.0">
			<acc value="0.00138271051876579" flag="0"/>
			<vel value="0.00147426426908069" flag="0"/>
			<psa03 value="0.00286350122356939" flag="0"/>
			<psa10 value="0.00236775757423894" flag="0"/>
			<psa30 value="0.000461292150234382" flag="0"/>
		</comp>
		<comp name="--.HNN" depth="0.0">
			<acc value="0.00150795491713581" flag="0"/>
			<vel value="0.00188288692583815" flag="0"/>
			<psa03 value="0.00268453239709631" flag="0"/>
			<psa10 value="0.0029073485860553" flag="0"/>
			<psa30 value="0.000440710735189977" flag="0"/>
		</comp>
		<comp name="--.HNZ" depth="0.0">
			<acc value="0.000903399522517391" flag="0"/>
			<vel value="0.00102852614756643" flag="0"/>
			<psa03 value="0.00201339929782223" flag="0"/>
			<psa10 value="0.00156642465370569" flag="0"/>
			<psa30 value="0.000149438970105028" flag="0"/>
		</comp>
	</station>
	<station code="CUC" name="CUC" netid="MN" source="Mediterranean Very Broadband Seismographic Network (MedNet)" insttype="" lat="39.9938" lon="15.8155">
		<comp name="--.HNE" depth="0.0">
			<acc value="0.00289318872216303" flag="0"/>
			<vel value="0.00245019534332943" flag="0"/>
			<psa03 value="0.00818782381114373" flag="0"/>
			<psa10 value="0.00494490867545139" flag="0"/>
			<psa30 value="0.000677397008200634" flag="0"/>
		</comp>
		<comp name="--.HNN" depth="0.0">
			<acc value="0.00192759806160613" flag="0"/>
			<vel value="0.00184181168135601" flag="0"/>
			<psa03 value="0.00572700244713878" flag="0"/>
			<psa10 value="0.00451001442712179" flag="0"/>
			<psa30 value="0.000372255159064021" flag="0"/>
