<?xml version="1.0" encoding="UTF-8" standalone="yes"?>
<!DOCTYPE earthquake SYSTEM "stationlist.dtd">
<stationlist created="" xmlns="ch.ethz.sed.shakemap.usgs.xml">
  <station code="APE" name="APE" netid="GE" insttype="STS-2/N" lat="37.0727" lon="25.523">
    <comp name="--.HHE">
      <acc value="0.0747451583" flag="0"/>
      <vel value="0.0139108820" flag="0"/>
      <psa03 value="0.0609428429" flag="0"/>
      <psa10 value="0.0057619819" flag="0"/>
      <psa30 value="0.0009336479" flag="0"/>
    </comp>
    <comp name="--.HHN">
      <acc value="0.1302790378" flag="0"/>
      <vel value="0.0222615637" flag="0"/>
      <psa03 value="0.0712467911" flag="0"/>
      <psa10 value="0.0074522685" flag="0"/>
      <psa30 value="0.0010058753" flag="0"/>
    </comp>
    <comp name="--.HHZ">
      <acc value="0.0490931171" flag="0"/>
      <vel value="0.0097078887" flag="0"/>
      <psa03 value="0.0313107957" flag="0"/>
      <psa10 value="0.0041422894" flag="0"/>
      <psa30 value="0.0009938168" flag="0"/>
    </comp>
  </station>
  <station code="THERA" name="THERA" netid="GE" insttype="STS-2/N" lat="36.367" lon="25.4753">
    <comp name="--.HHE">
      <acc value="0.0756842172" flag="0"/>
      <vel value="0.0175555542" flag="0"/>
      <psa03 value="0.0874577009" flag="0"/>
      <psa10 value="0.0097053212" flag="0"/>
      <psa30 value="0.0010141825" flag="0"/>
    </comp>
    <comp name="--.HHN">
      <acc value="0.0515135528" flag="0"/>
      <vel value="0.0132205910" flag="0"/>
      <psa03 value="0.0720049799" flag="0"/>
      <psa10 value="0.0070888002" flag="0"/>
      <psa30 value="0.0004552854" flag="0"/>
    </comp>
    <comp name="--.HHZ">
      <acc value="0.0645258508" flag="0"/>
      <vel value="0.0177086518" flag="0"/>
      <psa03 value="0.0702017269" flag="0"/>
      <psa10 value="0.0103716403" flag="0"/>
      <psa30 value="0.0008063155" flag="0"/>
    </comp>
  </station>
</stationlist>
