<?xml version="1.0" encoding="UTF-8" standalone="yes"?>
<!DOCTYPE earthquake SYSTEM "stationlist.dtd">
<stationlist created="" xmlns="ch.ethz.sed.shakemap.usgs.xml">
  <station code="APE" name="APE" netid="GE" insttype="STS-2/N" lat="37.0727" lon="25.523">
    <comp name="--.HHE">
      <acc value="0.0747451583" flag="0"/>
      <vel value="0.0139108820" flag="0"/>
      <psa03 value="0.0609428429" flag="0"/>
      <psa10 value="0.0057619819" flag="0"/>
      <psa30 value="0.0009336479" flag="0"/>
    </comp>
    <comp name="--.HHN">
      <acc value="0.1302790378" flag="0"/>
      <vel value="0.0222615637" flag="0"/>
      <psa03 value="0.0712467911" flag="0"/>
      <psa10 value="0.0074522685" flag="0"/>
      <psa30 value="0.0010058753" flag="0"/>
    </comp>
    <comp name="--.HHZ">
      <acc value="0.0490931171" flag="0"/>
      <vel value="0.0097078887" flag="0"/>
      <psa03 value="0.0313107957" flag="0"/>
      <psa10 value="0.0041422894" flag="0"/>
      <psa30 value="0.0009938168" flag="0"/>
    </comp>
  </station>
  <station code="THERA" name="THERA" netid="GE" insttype="STS-2/N" lat="36.367" lon="25.4753">
    <comp name="--.HHE">
      <acc value="0.0756842172" flag="0"/>
      <vel value="0.0175555542" flag="0"/>
      <psa03 value="0.0874577009" flag="0"/>
      <psa10 value="0.0097053212" flag="0"/>
      <psa30 value="0.0010141825" flag="0"/>
    </comp>
    <comp name="--.HHN">
      <acc value="0.0515135528" flag="0"/>
      <vel value="0.0132205910" flag="0"/>
      <psa03 value="0.0720049799" flag="0"/>
      <psa10 value="0.0070888002" flag="0"/>
      <psa30 value="0.0004552854" flag="0"/>
    </comp>
    <comp name="--.HHZ">
      <acc value="0.0645258508" flag="0"/>
      <vel value="0.0177086518" flag="0"/>
      <psa03 value="0.0702017269" flag="0"/>
      <psa10 value="0.0103716403" flag="0"/>
      <psa30 value="0.0008063155" flag="0"/>
    </comp>
  </station>
  <station code="SERI" name="SERI" netid="HA" insttype="30" lat="37.1609" lon="24.4853">
    <comp name="--.HHE">
      <acc value="0.0186945326" flag="0"/>
      <vel value="0.0047002481" flag="0"/>
      <psa03 value="0.0123680704" flag="0"/>
      <psa10 value="0.0017087236" flag="0"/>
      <psa30 value="0.0002162054" flag="0"/>
    </comp>
    <comp name="--.HHN">
      <acc value="0.0195633694" flag="0"/>
      <vel value="0.0036349677" flag="0"/>
      <psa03 value="0.0237223453" flag="0"/>
      <psa10 value="0.0027767649" flag="0"/>
      <psa30 value="0.0003433703" flag="0"/>
    </comp>
    <comp name="--.HHZ">
      <acc value="0.0169399746" flag="0"/>
      <vel value="0.0025292465" flag="0"/>
      <psa03 value="0.0096035906" flag="0"/>
      <psa10 value="0.0017414368" flag="0"/>
      <psa30 value="0.0003320239" flag="0"/>
    </comp>
  </station>
  <station code="SNT1" name="SNT1" netid="HA" insttype="30" lat="36.4159" lon="25.4282">
    <comp name="--.HHE">
      <acc value="0.0578659225" flag="0"/>
      <vel value="0.0211101762" flag="0"/>
      <psa03 value="0.0613297354" flag="0"/>
      <psa10 value="0.0253425642" flag="0"/>
      <psa30 value="0.0020014509" flag="0"/>
    </comp>
    <comp name="--.HHN">
      <acc value="0.0608231466" flag="0"/>
      <vel value="0.0319486795" flag="0"/>
      <psa03 value="0.1027222333" flag="0"/>
      <psa10 value="0.0338106793" flag="0"/>
      <psa30 value="0.0016760985" flag="0"/>
    </comp>
    <comp name="--.HHZ">
      <acc value="0.0473501397" flag="0"/>
      <vel value="0.0164076225" flag="0"/>
      <psa03 value="0.0829774577" flag="0"/>
      <psa10 value="0.0077721014" flag="0"/>
      <psa30 value="0.0009243185" flag="0"/>
    </comp>
  </station>
  <station code="SNT5" name="SNT5" netid="HA" insttype="1s-100Hz," lat="36.4037" lon="25.3953">
    <comp name="--.HHE">
      <acc value="0.2824119755" flag="0"/>
      <vel value="0.0632311897" flag="0"/>
      <psa03 value="0.2812982840" flag="0"/>
      <psa10 value="0.0375914660" flag="0"/>
      <psa30 value="0.0021963398" flag="0"/>
    </comp>
    <comp name="--.HHN">
      <acc value="0.1793683052" flag="0"/>
      <vel value="0.0343011977" flag="0"/>
      <psa03 value="0.1787667484" flag="0"/>
      <psa10 value="0.0138549190" flag="0"/>
      <psa30 value="0.0019329471" flag="0"/>
    </comp>
    <comp name="--.HHZ">
      <acc value="0.1167870564" flag="0"/>
      <vel value="0.0157281850" flag="0"/>
      <psa03 value="0.0719611489" flag="0"/>
      <psa10 value="0.0127539564" flag="0"/>
      <psa30 value="0.0006159185" flag="0"/>
    </comp>
  </station>
  <station code="NAX1" name="NAX1" netid="HI" insttype="CMG-5TD,ACCELEROMETER,GURALP" lat="37.1014" lon="25.3741">
    <comp name="--.HNE">
      <acc value="0.0592724608" flag="0"/>
      <vel value="0.0140366008" flag="0"/>
      <psa03 value="0.0585783034" flag="0"/>
      <psa10 value="0.0067160207" flag="0"/>
      <psa30 value="0.0006153501" flag="0"/>
    </comp>
    <comp name="--.HNZ">
      <acc value="0.0344677995" flag="0"/>
      <vel value="0.0063385194" flag="0"/>
      <psa03 value="0.0242224741" flag="0"/>
      <psa10 value="0.0043033644" flag="0"/>
      <psa30 value="0.0006936048" flag="0"/>
    </comp>
    <comp name="--.HNN">
      <acc value="0.0656440227" flag="0"/>
      <vel value="0.0119061250" flag="0"/>
      <psa03 value="0.0433103020" flag="0"/>
      <psa10 value="0.0031804210" flag="0"/>
      <psa30 value="0.0005812478" flag="0"/>
    </comp>
  </station>
  <station code="SFR2" name="SFR2" netid="HI" insttype="unknown" lat="36.3998" lon="25.4382">
    <comp name="--.HNN">
      <acc value="0.1497113773" flag="0"/>
      <vel value="0.0540793472" flag="0"/>
      <psa03 value="0.3071750973" flag="0"/>
      <psa10 value="0.0565953451" flag="0"/>
      <psa30 value="0.0021379934" flag="0"/>
    </comp>
    <comp name="--.HNE">
      <acc value="0.1716679965" flag="0"/>
      <vel value="0.0439563429" flag="0"/>
      <psa03 value="0.2516354155" flag="0"/>
      <psa10 value="0.0280336312" flag="0"/>
      <psa30 value="0.0020243581" flag="0"/>
    </comp>
    <comp name="--.HNZ">
      <acc value="0.1753078392" flag="0"/>
      <vel value="0.0454887282" flag="0"/>
      <psa03 value="0.2223780717" flag="0"/>
      <psa10 value="0.0295672878" flag="0"/>
      <psa30 value="0.0021694833" flag="0"/>
    </comp>
  </station>
  <station code="AMGA" name="AMGA" netid="HL" insttype="SMART24" lat="36.8316" lon="25.8938">
    <comp name="--.HHN">
      <acc value="0.3751179011" flag="0"/>
      <vel value="0.0842842731" flag="0"/>
      <psa03 value="0.2010087470" flag="0"/>
      <psa10 value="0.0210649818" flag="0"/>
      <psa30 value="0.0026523979" flag="0"/>
    </comp>
    <comp name="--.HHE">
      <acc value="0.2302018312" flag="0"/>
      <vel value="0.0523850974" flag="0"/>
      <psa03 value="0.1450317313" flag="0"/>
      <psa10 value="0.0177192380" flag="0"/>
      <psa30 value="0.0018315761" flag="0"/>
    </comp>
    <comp name="--.HHZ">
      <acc value="0.1759648226" flag="0"/>
      <vel value="0.0393519162" flag="0"/>
      <psa03 value="0.1278242169" flag="0"/>
      <psa10 value="0.0172404799" flag="0"/>
      <psa30 value="0.0019901729" flag="0"/>
    </comp>
  </station>
  <station code="APE" name="APE" netid="HL" insttype="120" lat="37.0727" lon="25.523">
    <comp name="--.HHN">
      <acc value="0.1255343699" flag="0"/>
      <vel value="0.0212655216" flag="0"/>
      <psa03 value="0.0683316379" flag="0"/>
      <psa10 value="0.0072806521" flag="0"/>
      <psa30 value="0.0010016453" flag="0"/>
    </comp>
    <comp name="--.HHE">
      <acc value="0.0673117275" flag="0"/>
      <vel value="0.0134582615" flag="0"/>
      <psa03 value="0.0591716127" flag="0"/>
      <psa10 value="0.0057028443" flag="0"/>
      <psa30 value="0.0009308323" flag="0"/>
    </comp>
    <comp name="--.HHZ">
      <acc value="0.0471774174" flag="0"/>
      <vel value="0.0089471636" flag="0"/>
      <psa03 value="0.0304399432" flag="0"/>
      <psa10 value="0.0041231161" flag="0"/>
      <psa30 value="0.0009918495" flag="0"/>
    </comp>
  </station>
  <station code="MHLO" name="MHLO" netid="HL" insttype="20" lat="36.6898" lon="24.4017">
    <comp name="--.HHE">
      <acc value="0.0503783268" flag="0"/>
      <vel value="0.0214037957" flag="0"/>
      <psa03 value="0.1141399679" flag="0"/>
      <psa10 value="0.0364283091" flag="0"/>
      <psa30 value="0.0016705998" flag="0"/>
    </comp>
    <comp name="--.HHN">
      <acc value="0.0561935430" flag="0"/>
      <vel value="0.0250009064" flag="0"/>
      <psa03 value="0.1299906901" flag="0"/>
      <psa10 value="0.0334100086" flag="0"/>
      <psa30 value="0.0014292661" flag="0"/>
    </comp>
    <comp name="--.HHZ">
      <acc value="0.0185285095" flag="0"/>
      <vel value="0.0138321510" flag="0"/>
      <psa03 value="0.0487961871" flag="0"/>
      <psa10 value="0.0188015126" flag="0"/>
      <psa30 value="0.0011303838" flag="0"/>
    </comp>
  </station>
  <station code="MILA" name="MILA" netid="HL" insttype="CMG-5" lat="36.7429" lon="24.4282">
    <comp name="00.HNE">
      <acc value="0.0380808761" flag="0"/>
      <vel value="0.0172664899" flag="0"/>
      <psa03 value="0.0929571239" flag="0"/>
      <psa10 value="0.0156672100" flag="0"/>
      <psa30 value="0.0013644953" flag="0"/>
    </comp>
    <comp name="00.HNZ">
      <acc value="0.0395043711" flag="0"/>
      <vel value="0.0168567588" flag="0"/>
      <psa03 value="0.0517118434" flag="0"/>
      <psa10 value="0.0180654187" flag="0"/>
      <psa30 value="0.0011139376" flag="0"/>
    </comp>
    <comp name="00.HNN">
      <acc value="0.0566898802" flag="0"/>
      <vel value="0.0255893678" flag="0"/>
      <psa03 value="0.1854115660" flag="0"/>
      <psa10 value="0.0200668099" flag="0"/>
      <psa30 value="0.0014405649" flag="0"/>
    </comp>
  </station>
  <station code="SAP3" name="SAP3" netid="HL" insttype="65535" lat="36.4356" lon="25.3454">
    <comp name="--.HHE">
      <acc value="0.0904985594" flag="0"/>
      <vel value="0.0288324968" flag="0"/>
      <psa03 value="0.1002203103" flag="0"/>
      <psa10 value="0.0225762055" flag="0"/>
      <psa30 value="0.0033060554" flag="0"/>
    </comp>
    <comp name="--.HHN">
      <acc value="0.0937462298" flag="0"/>
      <vel value="0.0362210351" flag="0"/>
      <psa03 value="0.1154972894" flag="0"/>
      <psa10 value="0.0205938725" flag="0"/>
      <psa30 value="0.0032267202" flag="0"/>
    </comp>
    <comp name="--.HHZ">
      <acc value="0.0925127143" flag="0"/>
      <vel value="0.0201950735" flag="0"/>
      <psa03 value="0.0735683447" flag="0"/>
      <psa10 value="0.0086082324" flag="0"/>
      <psa30 value="0.0013362465" flag="0"/>
    </comp>
  </station>
  <station code="THERA" name="THERA" netid="HL" insttype="120" lat="36.367" lon="25.4753">
    <comp name="--.HHE">
      <acc value="0.0736480474" flag="0"/>
      <vel value="0.0171299132" flag="0"/>
      <psa03 value="0.0847816188" flag="0"/>
      <psa10 value="0.0095697625" flag="0"/>
      <psa30 value="0.0010118779" flag="0"/>
    </comp>
    <comp name="--.HHZ">
      <acc value="0.0636940255" flag="0"/>
      <vel value="0.0173603108" flag="0"/>
      <psa03 value="0.0680852463" flag="0"/>
      <psa10 value="0.0103107076" flag="0"/>
      <psa30 value="0.0007996653" flag="0"/>
    </comp>
    <comp name="--.HHN">
      <acc value="0.0996270193" flag="0"/>
      <vel value="0.0257454223" flag="0"/>
      <psa03 value="0.1395009199" flag="0"/>
      <psa10 value="0.0140484394" flag="0"/>
      <psa30 value="0.0009051132" flag="0"/>
    </comp>
  </station>
  <station code="THRA" name="THRA" netid="HL" insttype="CMG-5" lat="36.415" lon="25.4324">
    <comp name="00.HNE">
      <acc value="0.2536216781" flag="0"/>
      <vel value="0.0743676725" flag="0"/>
      <psa03 value="0.3079479471" flag="0"/>
      <psa10 value="0.0441002005" flag="0"/>
      <psa30 value="0.0053077443" flag="0"/>
    </comp>
    <comp name="00.HNN">
      <acc value="0.2286641448" flag="0"/>
      <vel value="0.0890532392" flag="0"/>
      <psa03 value="0.2921593011" flag="0"/>
      <psa10 value="0.1032745584" flag="0"/>
      <psa30 value="0.0031863241" flag="0"/>
    </comp>
    <comp name="00.HNZ">
      <acc value="0.1787952602" flag="0"/>
      <vel value="0.0494471422" flag="0"/>
      <psa03 value="0.2336646931" flag="0"/>
      <psa10 value="0.0296236574" flag="0"/>
      <psa30 value="0.0021135416" flag="0"/>
    </comp>
  </station>
  <station code="TNSA" name="TNSA" netid="HL" insttype="CMG-5" lat="37.5394" lon="25.1631">
    <comp name="00.HNN">
      <acc value="0.0298542688" flag="0"/>
      <vel value="0.0100852855" flag="0"/>
      <psa03 value="0.0415459682" flag="0"/>
      <psa10 value="0.0056116056" flag="0"/>
      <psa30 value="0.0005435555" flag="0"/>
    </comp>
    <comp name="00.HNE">
      <acc value="0.0205726837" flag="0"/>
      <vel value="0.0059737234" flag="0"/>
      <psa03 value="0.0271515051" flag="0"/>
      <psa10 value="0.0026242213" flag="0"/>
      <psa30 value="0.0003219617" flag="0"/>
    </comp>
    <comp name="00.HNZ">
      <acc value="0.0258710862" flag="0"/>
      <vel value="0.0077536185" flag="0"/>
      <psa03 value="0.0212907716" flag="0"/>
      <psa10 value="0.0036060413" flag="0"/>
      <psa30 value="0.0005210073" flag="0"/>
    </comp>
  </station>
  <station code="AKRO" name="AKRO" netid="HT" insttype="Compact," lat="36.3584" lon="25.3967">
    <comp name="--.HHE">
      <acc value="0.3875614713" flag="0"/>
      <vel value="0.0840056293" flag="0"/>
      <psa03 value="0.4299952685" flag="0"/>
      <psa10 value="0.0317332799" flag="0"/>
      <psa30 value="0.0024189949" flag="0"/>
    </comp>
    <comp name="--.HHN">
      <acc value="0.2822384934" flag="0"/>
      <vel value="0.0655267730" flag="0"/>
      <psa03 value="0.3045379784" flag="0"/>
      <psa10 value="0.0308449310" flag="0"/>
      <psa30 value="0.0017333439" flag="0"/>
    </comp>
    <comp name="--.HHZ">
      <acc value="0.1448821707" flag="0"/>
      <vel value="0.0324451276" flag="0"/>
      <psa03 value="0.1523064044" flag="0"/>
      <psa10 value="0.0177011282" flag="0"/>
      <psa30 value="0.0013990678" flag="0"/>
    </comp>
  </station>
  <station code="CMBO" name="CMBO" netid="HT" insttype="120P," lat="36.4709" lon="25.4056">
    <comp name="--.HHZ">
      <acc value="0.1199720982" flag="0"/>
      <vel value="0.0328232960" flag="0"/>
      <psa03 value="0.1877973243" flag="0"/>
      <psa10 value="0.0095820379" flag="0"/>
      <psa30 value="0.0010623244" flag="0"/>
    </comp>
    <comp name="--.HHN">
      <acc value="0.1564368979" flag="0"/>
      <vel value="0.0625106876" flag="0"/>
      <psa03 value="0.1888098405" flag="0"/>
      <psa10 value="0.0342186192" flag="0"/>
      <psa30 value="0.0022532566" flag="0"/>
    </comp>
    <comp name="--.HHE">
      <acc value="0.1043802880" flag="0"/>
      <vel value="0.0561028271" flag="0"/>
      <psa03 value="0.1401150640" flag="0"/>
      <psa10 value="0.0317717923" flag="0"/>
      <psa30 value="0.0020769464" flag="0"/>
    </comp>
  </station>
</stationlist>
