<stationlist xmlns:esm="https://esm-db.eu/esmws/shakemap/1/" created="1780711011">
	<station code="AGN1" name="AGN1" netid="HI" source="ITSAK Strong Motion Network" insttype="" lat="35.1879" lon="25.7155" esm:processing="automatic (Paolucci et al 2011)" esm:quality="best">
		<comp name="--.HNE" depth="0.0">
			<acc value="0.444355517207299" flag="0"/>
			<vel value="0.174026637737133" flag="0"/>
			<psa03 value="0.739141214477942" flag="0"/>
			<psa10 value="0.104587730923884" flag="0"/>
			<psa30 value="0.00795879973142244" flag="0"/>
		</comp>
		<comp name="--.HNN" depth="0.0">
			<acc value="0.670397954605282" flag="0"/>
			<vel value="0.233411030987158" flag="0"/>
			<psa03 value="1.83929584432289" flag="0"/>
			<psa10 value="0.103255807690506" flag="0"/>
			<psa30 value="0.00791530518345543" flag="0"/>
		</comp>
		<comp name="--.HNZ" depth="0.0">
			<acc value="0.375111962366911" flag="0"/>
			<vel value="0.107053521005217" flag="0"/>
			<psa03 value="0.609136852326978" flag="0"/>
			<psa10 value="0.0489255535778104" flag="0"/>
			<psa30 value="0.00370425122179725" flag="0"/>
		</comp>
	</station>
	<station code="ARK1" name="ARK1" netid="HI" source="ITSAK Strong Motion Network" insttype="" lat="35.148777" lon="25.264194" esm:processing="automatic (Paolucci et al 2011)" esm:quality="best">
		<comp name="--.HNE" depth="0.0">
			<acc value="0.251988175163224" flag="0"/>
			<vel value="0.108417846527894" flag="0"/>
			<psa03 value="0.609644969320568" flag="0"/>
			<psa10 value="0.0942145662526331" flag="0"/>
			<psa30 value="0.00730364216378226" flag="0"/>
		</comp>
		<comp name="--.HNN" depth="0.0">
			<acc value="0.257478083033955" flag="0"/>
			<vel value="0.112786051362069" flag="0"/>
			<psa03 value="0.56503872270898" flag="0"/>
			<psa10 value="0.0692199254803493" flag="0"/>
			<psa30 value="0.00774853996941178" flag="0"/>
		</comp>
		<comp name="--.HNZ" depth="0.0">
			<acc value="0.233510792748691" flag="0"/>
			<vel value="0.0850709935446709" flag="0"/>
			<psa03 value="0.683655830510229" flag="0"/>
			<psa10 value="0.0669556604839057" flag="0"/>
			<psa30 value="0.00502236979068345" flag="0"/>
		</comp>
	</station>
	<station code="CH01" name="CH01" netid="HI" source="ITSAK Strong Motion Network" insttype="" lat="35.517" lon="24.0208" esm:processing="manual (Paolucci et al 2011)" esm:quality="best">
		<comp name="--.HNE" depth="0.0">
			<acc value="0.0240712741954252" flag="0"/>
			<vel value="0.0146160596328623" flag="0"/>
			<psa03 value="0.0691267092252299" flag="0"/>
			<psa10 value="0.0256990286374029" flag="0"/>
			<psa30 value="0.00216910217685381" flag="0"/>
		</comp>
		<comp name="--.HNN" depth="0.0">
			<acc value="0.0293478625027603" flag="0"/>
			<vel value="0.0187770482726674" flag="0"/>
			<psa03 value="0.0836679263761682" flag="0"/>
			<psa10 value="0.0335915538848661" flag="0"/>
			<psa30 value="0.00204874564105066" flag="0"/>
		</comp>
		<comp name="--.HNZ" depth="0.0">
			<acc value="0.0135532124942578" flag="0"/>
			<vel value="0.0103704875803226" flag="0"/>
			<psa03 value="0.0275611992768554" flag="0"/>
			<psa10 value="0.0178507981744919" flag="0"/>
			<psa30 value="0.00161161428239015" flag="0"/>
		</comp>
	</station>
	<station code="CH02" name="CH02" netid="HI" source="ITSAK Strong Motion Network" insttype="" lat="35.5145" lon="24.0315" esm:processing="automatic (Paolucci et al 2011)" esm:quality="best">
		<comp name="--.HNE" depth="0.0">
			<acc value="0.0239308942721076" flag="0"/>
			<vel value="0.0170201383733137" flag="0"/>
			<psa03 value="0.0551034367905871" flag="0"/>
			<psa10 value="0.0332830948416883" flag="0"/>
			<psa30 value="0.00201117114688483" flag="0"/>
		</comp>
		<comp name="--.HNN" depth="0.0">
			<acc value="0.0318763234412828" flag="0"/>
			<vel value="0.0134867227418893" flag="0"/>
			<psa03 value="0.08576090519741" flag="0"/>
			<psa10 value="0.0201180389713476" flag="0"/>
			<psa30 value="0.00210247594537963" flag="0"/>
		</comp>
		<comp name="--.HNZ" depth="0.0">
			<acc value="0.0149246960060332" flag="0"/>
			<vel value="0.0103169767088547" flag="0"/>
			<psa03 value="0.0301702043571376" flag="0"/>
			<psa10 value="0.0260446747068787" flag="0"/>
			<psa30 value="0.00144578421360861" flag="0"/>
		</comp>
	</station>
	<station code="CH03" name="CH03" netid="HI" source="ITSAK Strong Motion Network" insttype="" lat="35.53303" lon="24.0705" esm:processing="automatic (Paolucci et al 2011)" esm:quality="best">
		<comp name="--.HNE" depth="0.0">
			<acc value="0.0202039702402619" flag="0"/>
			<vel value="0.014605404351675" flag="0"/>
			<psa03 value="0.07454329750262" flag="0"/>
			<psa10 value="0.0258613625633488" flag="0"/>
			<psa30 value="0.00137497441864054" flag="0"/>
		</comp>
		<comp name="--.HNN" depth="0.0">
			<acc value="0.0268144349234672" flag="0"/>
			<vel value="0.0209495614372291" flag="0"/>
			<psa03 value="0.0706989699181178" flag="0"/>
			<psa10 value="0.0269044435373442" flag="0"/>
			<psa30 value="0.00130796935488391" flag="0"/>
		</comp>
		<comp name="--.HNZ" depth="0.0">
			<acc value="0.0183034675279788" flag="0"/>
			<vel value="0.0114088806505858" flag="0"/>
			<psa03 value="0.0696050745362507" flag="0"/>
			<psa10 value="0.0124127813483456" flag="0"/>
			<psa30 value="0.000950870386329797" flag="0"/>
		</comp>
	</station>
	<station code="GOR1" name="GOR1" netid="HI" source="ITSAK Strong Motion Network" insttype="" lat="35.0582" lon="24.9628" esm:processing="automatic (Paolucci et al 2011)" esm:quality="best">
		<comp name="--.HNE" depth="0.0">
			<acc value="0.1019210432601" flag="0"/>
			<vel value="0.0532465959892447" flag="0"/>
			<psa03 value="0.191670051366902" flag="0"/>
			<psa10 value="0.0613078875966698" flag="0"/>
			<psa30 value="0.00429450365645757" flag="0"/>
		</comp>
		<comp name="--.HNN" depth="0.0">
			<acc value="0.0956214285332677" flag="0"/>
			<vel value="0.0600062208990077" flag="0"/>
			<psa03 value="0.259918676670048" flag="0"/>
			<psa10 value="0.0642945741999993" flag="0"/>
			<psa30 value="0.00681588193539427" flag="0"/>
		</comp>
		<comp name="--.HNZ" depth="0.0">
			<acc value="0.0647249696805732" flag="0"/>
			<vel value="0.0337337750265727" flag="0"/>
			<psa03 value="0.116253232456109" flag="0"/>
			<psa10 value="0.0350330732691707" flag="0"/>
			<psa30 value="0.00306050899370063" flag="0"/>
		</comp>
	</station>
	<station code="HER1" name="HER1" netid="HI" source="ITSAK Strong Motion Network" insttype="" lat="35.317672" lon="25.10217" esm:processing="automatic (Paolucci et al 2011)" esm:quality="best">
		<comp name="--.HNE" depth="0.0">
			<acc value="0.215737242569743" flag="0"/>
			<vel value="0.136959027311883" flag="0"/>
			<psa03 value="0.600084419314385" flag="0"/>
			<psa10 value="0.210170627772626" flag="0"/>
			<psa30 value="0.0142563960829404" flag="0"/>
		</comp>
		<comp name="--.HNN" depth="0.0">
			<acc value="0.228199958888375" flag="0"/>
			<vel value="0.138747133366378" flag="0"/>
			<psa03 value="0.743561173945231" flag="0"/>
			<psa10 value="0.195310703375563" flag="0"/>
			<psa30 value="0.0126472511516526" flag="0"/>
		</comp>
		<comp name="--.HNZ" depth="0.0">
			<acc value="0.169706955003377" flag="0"/>
			<vel value="0.131772835794595" flag="0"/>
			<psa03 value="0.434735090732858" flag="0"/>
			<psa10 value="0.204143993537685" flag="0"/>
			<psa30 value="0.0069727785790269" flag="0"/>
		</comp>
	</station>
	<station code="HER2" name="HER2" netid="HI" source="ITSAK Strong Motion Network" insttype="" lat="35.337866" lon="25.135624" esm:processing="manual (Paolucci et al 2011)" esm:quality="good">
		<comp name="--.HNE" depth="0.0">
			<acc value="0.258960146541936" flag="0"/>
			<vel value="0.123356605982288" flag="0"/>
			<psa03 value="0.409791605016013" flag="0"/>
			<psa10 value="0.10418501424588" flag="0"/>
			<psa30 value="0.00551875517377895" flag="0"/>
		</comp>
		<comp name="--.HNN" depth="0.0">
			<acc value="0.384308953468905" flag="0"/>
			<vel value="0.13510760957456" flag="0"/>
			<psa03 value="0.856443485177686" flag="0"/>
			<psa10 value="0.0939614244832332" flag="0"/>
			<psa30 value="0.00754239131307502" flag="0"/>
		</comp>
		<comp name="--.HNZ" depth="0.0">
			<acc value="0.184035730166379" flag="0"/>
			<vel value="0.0760390990822425" flag="0"/>
			<psa03 value="0.417044335473811" flag="0"/>
			<psa10 value="0.0363972973923236" flag="0"/>
			<psa30 value="0.00327586013465683" flag="0"/>
		</comp>
	</station>
	<station code="HER3" name="HER3" netid="HI" source="ITSAK Strong Motion Network" insttype="" lat="35.3296" lon="25.1065" esm:processing="automatic (Paolucci et al 2011)" esm:quality="best">
		<comp name="--.HNE" depth="0.0">
			<acc value="0.280361981915408" flag="0"/>
			<vel value="0.14132009091134" flag="0"/>
			<psa03 value="0.683131254092949" flag="0"/>
			<psa10 value="0.241153725250777" flag="0"/>
			<psa30 value="0.0080930877940142" flag="0"/>
		</comp>
		<comp name="--.HNN" depth="0.0">
			<acc value="0.358250084804271" flag="0"/>
			<vel value="0.163150053332007" flag="0"/>
			<psa03 value="1.11504469957232" flag="0"/>
			<psa10 value="0.199608293069789" flag="0"/>
			<psa30 value="0.0113518770061395" flag="0"/>
		</comp>
		<comp name="--.HNZ" depth="0.0">
			<acc value="0.242657312003363" flag="0"/>
			<vel value="0.0845626438764487" flag="0"/>
			<psa03 value="0.655718229781291" flag="0"/>
			<psa10 value="0.0998621778791863" flag="0"/>
			<psa30 value="0.00441142890218126" flag="0"/>
		</comp>
	</station>
	<station code="KOS2" name="KOS2" netid="HI" source="ITSAK Strong Motion Network" insttype="" lat="36.8941" lon="27.2888" esm:processing="manual (Paolucci et al 2011)" esm:quality="good">
		<comp name="--.HNE" depth="0.0">
			<acc value="0.0154108515164968" flag="0"/>
			<vel value="0.0184669691831652" flag="0"/>
			<psa03 value="0.0514888171314409" flag="0"/>
			<psa10 value="0.0326892017491856" flag="0"/>
			<psa30 value="0.00461462444622216" flag="0"/>
		</comp>
		<comp name="--.HNN" depth="0.0">
			<acc value="0.0153458796339251" flag="0"/>
			<vel value="0.0143063599429647" flag="0"/>
			<psa03 value="0.0637011053022641" flag="0"/>
			<psa10 value="0.0249864127272162" flag="0"/>
			<psa30 value="0.00404047682842692" flag="0"/>
		</comp>
		<comp name="--.HNZ" depth="0.0">
			<acc value="0.00886939150290129" flag="0"/>
			<vel value="0.00843396405125368" flag="0"/>
			<psa03 value="0.0173840773910605" flag="0"/>
			<psa10 value="0.0187606065481115" flag="0"/>
			<psa30 value="0.00181883653066044" flag="0"/>
		</comp>
	</station>
	<station code="KSS1" name="KSS1" netid="HI" source="ITSAK Strong Motion Network" insttype="" lat="35.4189" lon="26.9207" esm:processing="manual (Paolucci et al 2011)" esm:quality="good">
		<comp name="--.HNE" depth="0.0">
			<acc value="0.324593722409145" flag="0"/>
			<vel value="0.0998398493273365" flag="0"/>
			<psa03 value="0.385685508105562" flag="0"/>
			<psa10 value="0.073751005642251" flag="0"/>
			<psa30 value="0.00402888647728916" flag="0"/>
		</comp>
		<comp name="--.HNN" depth="0.0">
			<acc value="0.399895930839704" flag="0"/>
			<vel value="0.145495973247655" flag="0"/>
			<psa03 value="1.21055285985165" flag="0"/>
			<psa10 value="0.071996504415227" flag="0"/>
			<psa30 value="0.00624268854747928" flag="0"/>
		</comp>
		<comp name="--.HNZ" depth="0.0">
			<acc value="0.218230669173597" flag="0"/>
			<vel value="0.0660789012963677" flag="0"/>
			<psa03 value="0.268019796662692" flag="0"/>
			<psa10 value="0.0414092681606497" flag="0"/>
			<psa30 value="0.00465833442510874" flag="0"/>
		</comp>
	</station>
	<station code="NAX1" name="NAX1" netid="HI" source="ITSAK Strong Motion Network" insttype="" lat="37.101394" lon="25.374103" esm:processing="manual (Paolucci et al 2011)" esm:quality="best">
		<comp name="--.HNE" depth="0.0">
			<acc value="0.0124956010128527" flag="0"/>
			<vel value="0.00702753308542982" flag="0"/>
			<psa03 value="0.0339593348232683" flag="0"/>
			<psa10 value="0.00996632652422003" flag="0"/>
			<psa30 value="0.00118343136505329" flag="0"/>
		</comp>
		<comp name="--.HNN" depth="0.0">
			<acc value="0.0101924508377962" flag="0"/>
			<vel value="0.0058307692330072" flag="0"/>
			<psa03 value="0.0209393526973512" flag="0"/>
			<psa10 value="0.00662811048843078" flag="0"/>
			<psa30 value="0.000858602945004635" flag="0"/>
		</comp>
		<comp name="--.HNZ" depth="0.0">
			<acc value="0.00698976217637917" flag="0"/>
			<vel value="0.00607583626942871" flag="0"/>
			<psa03 value="0.0196418287054213" flag="0"/>
			<psa10 value="0.00974887940005523" flag="0"/>
			<psa30 value="0.00111542321099351" flag="0"/>
		</comp>
	</station>
	<station code="RKL1" name="RKL1" netid="HI" source="ITSAK Strong Motion Network" insttype="" lat="36.336699" lon="28.171224" esm:processing="manual (Paolucci et al 2011)" esm:quality="good">
		<comp name="--.HNE" depth="0.0">
			<acc value="0.0323363277962816" flag="0"/>
			<vel value="0.0238441189698939" flag="0"/>
			<psa03 value="0.0757677119474012" flag="0"/>
			<psa10 value="0.0379238210170219" flag="0"/>
			<psa30 value="0.00139982637746085" flag="0"/>
		</comp>
		<comp name="--.HNN" depth="0.0">
			<acc value="0.024921394087881" flag="0"/>
			<vel value="0.0162475630188781" flag="0"/>
			<psa03 value="0.078709224516506" flag="0"/>
			<psa10 value="0.0202025376939733" flag="0"/>
			<psa30 value="0.00192122623014219" flag="0"/>
		</comp>
		<comp name="--.HNZ" depth="0.0">
			<acc value="0.0158890180283399" flag="0"/>
			<vel value="0.010058251899327" flag="0"/>
			<psa03 value="0.0420815350910076" flag="0"/>
			<psa10 value="0.00967637788754585" flag="0"/>
			<psa30 value="0.00106000563683787" flag="0"/>
		</comp>
	</station>
	<station code="RKT1" name="RKT1" netid="HI" source="ITSAK Strong Motion Network" insttype="" lat="35.954336" lon="27.767327" esm:processing="automatic (Paolucci et al 2011)" esm:quality="best">
		<comp name="--.HNE" depth="0.0">
			<acc value="0.0430880706040068" flag="0"/>
			<vel value="0.017259453473091" flag="0"/>
			<psa03 value="0.119569389635247" flag="0"/>
			<psa10 value="0.0251697192453734" flag="0"/>
			<psa30 value="0.00213831790306676" flag="0"/>
		</comp>
		<comp name="--.HNN" depth="0.0">
			<acc value="0.0514726789538842" flag="0"/>
			<vel value="0.0204281858824125" flag="0"/>
			<psa03 value="0.0889114732820834" flag="0"/>
			<psa10 value="0.0149998602296247" flag="0"/>
			<psa30 value="0.00261468550174895" flag="0"/>
		</comp>
		<comp name="--.HNZ" depth="0.0">
			<acc value="0.0252947748341595" flag="0"/>
			<vel value="0.0101546830044339" flag="0"/>
			<psa03 value="0.0364479040781015" flag="0"/>
			<psa10 value="0.0181169345329995" flag="0"/>
			<psa30 value="0.0018919909601157" flag="0"/>
		</comp>
	</station>
	<station code="RPN1" name="RPN1" netid="HI" source="ITSAK Strong Motion Network" insttype="" lat="36.448678" lon="28.218047" esm:processing="manual (Paolucci et al 2011)" esm:quality="good">
		<comp name="--.HNE" depth="0.0">
			<acc value="0.0152251390141501" flag="0"/>
			<vel value="0.0136964204262045" flag="0"/>
			<psa03 value="0.0437243913180033" flag="0"/>
			<psa10 value="0.023353578934991" flag="0"/>
			<psa30 value="0.00442534107379436" flag="0"/>
		</comp>
		<comp name="--.HNN" depth="0.0">
			<acc value="0.0167178859482344" flag="0"/>
			<vel value="0.0127957441089903" flag="0"/>
			<psa03 value="0.0433405976643906" flag="0"/>
			<psa10 value="0.0201102440799743" flag="0"/>
			<psa30 value="0.00453043470239814" flag="0"/>
		</comp>
		<comp name="--.HNZ" depth="0.0">
			<acc value="0.0106422640318978" flag="0"/>
			<vel value="0.0100686514062739" flag="0"/>
			<psa03 value="0.0187872797213283" flag="0"/>
			<psa10 value="0.0142003813305713" flag="0"/>
			<psa30 value="0.00195417987149253" flag="0"/>
		</comp>
	</station>
	<station code="RSO1" name="RSO1" netid="HI" source="ITSAK Strong Motion Network" insttype="" lat="36.3632" lon="28.0016" esm:processing="automatic (Paolucci et al 2011)" esm:quality="best">
		<comp name="--.HNE" depth="0.0">
			<acc value="0.0288202966772053" flag="0"/>
			<vel value="0.0164746791993366" flag="0"/>
			<psa03 value="0.0726924561434634" flag="0"/>
			<psa10 value="0.0180477705762268" flag="0"/>
			<psa30 value="0.00280660571552121" flag="0"/>
		</comp>
		<comp name="--.HNN" depth="0.0">
			<acc value="0.022520362634336" flag="0"/>
			<vel value="0.0135572409989059" flag="0"/>
			<psa03 value="0.0654761083041684" flag="0"/>
			<psa10 value="0.0132176512295251" flag="0"/>
			<psa30 value="0.0031108764969672" flag="0"/>
		</comp>
		<comp name="--.HNZ" depth="0.0">
			<acc value="0.012407039699064" flag="0"/>
			<vel value="0.00727597051422943" flag="0"/>
			<psa03 value="0.0381252573820258" flag="0"/>
			<psa10 value="0.016442553613481" flag="0"/>
			<psa30 value="0.00178810511985529" flag="0"/>
		</comp>
	</station>
	<station code="RTH1" name="RTH1" netid="HI" source="ITSAK Strong Motion Network" insttype="" lat="35.365393" lon="24.471773" esm:processing="automatic (Paolucci et al 2011)" esm:quality="best">
		<comp name="--.HNE" depth="0.0">
			<acc value="0.0542639030570845" flag="0"/>
			<vel value="0.0250945657781775" flag="0"/>
			<psa03 value="0.16852859127541" flag="0"/>
			<psa10 value="0.0178229581835091" flag="0"/>
			<psa30 value="0.00176330868554655" flag="0"/>
		</comp>
		<comp name="--.HNN" depth="0.0">
			<acc value="0.0590712179688504" flag="0"/>
			<vel value="0.0304008192072424" flag="0"/>
			<psa03 value="0.177342789756135" flag="0"/>
			<psa10 value="0.0165786295028409" flag="0"/>
			<psa30 value="0.00311638352844767" flag="0"/>
		</comp>
		<comp name="--.HNZ" depth="0.0">
			<acc value="0.053526799461869" flag="0"/>
			<vel value="0.0158427933381811" flag="0"/>
			<psa03 value="0.0827153857383591" flag="0"/>
			<psa10 value="0.0161502236230538" flag="0"/>
			<psa30 value="0.00197640946909428" flag="0"/>
		</comp>
	</station>
	<station code="SFIR" name="SFIR" netid="HI" source="ITSAK Strong Motion Network" insttype="" lat="36.421468" lon="25.428495" esm:processing="automatic (Paolucci et al 2011)" esm:quality="best">
		<comp name="--.HNE" depth="0.0">
			<acc value="0.0693155866699632" flag="0"/>
			<vel value="0.0868185076541424" flag="0"/>
			<psa03 value="0.184120363737148" flag="0"/>
			<psa10 value="0.236714511174631" flag="0"/>
			<psa30 value="0.0159018734210718" flag="0"/>
		</comp>
		<comp name="--.HNN" depth="0.0">
			<acc value="0.0926779668148012" flag="0"/>
			<vel value="0.0715820579604329" flag="0"/>
			<psa03 value="0.237703350847073" flag="0"/>
			<psa10 value="0.17906087690431" flag="0"/>
			<psa30 value="0.00852726072250657" flag="0"/>
		</comp>
		<comp name="--.HNZ" depth="0.0">
			<acc value="0.0607017428542017" flag="0"/>
			<vel value="0.0374967133105928" flag="0"/>
			<psa03 value="0.162812098002452" flag="0"/>
			<psa10 value="0.0533177132868355" flag="0"/>
			<psa30 value="0.00298749790707446" flag="0"/>
		</comp>
	</station>
	<station code="SFK2" name="SFK2" netid="HI" source="ITSAK Strong Motion Network" insttype="" lat="35.211556" lon="24.188889" esm:processing="manual (Paolucci et al 2011)" esm:quality="good">
		<comp name="--.HNE" depth="0.0">
			<acc value="0.0290701590251562" flag="0"/>
			<vel value="0.0158928084287057" flag="0"/>
			<psa03 value="0.128493699576983" flag="0"/>
			<psa10 value="0.0172969070852056" flag="0"/>
			<psa30 value="0.00107564125595423" flag="0"/>
		</comp>
		<comp name="--.HNN" depth="0.0">
			<acc value="0.0363016432606386" flag="0"/>
			<vel value="0.0165984269045149" flag="0"/>
			<psa03 value="0.0936721844891698" flag="0"/>
			<psa10 value="0.0199431761375431" flag="0"/>
			<psa30 value="0.00183019582482459" flag="0"/>
		</comp>
		<comp name="--.HNZ" depth="0.0">
			<acc value="0.0172576078774508" flag="0"/>
			<vel value="0.010154073779129" flag="0"/>
			<psa03 value="0.0442163353652154" flag="0"/>
			<psa10 value="0.0093588837301161" flag="0"/>
			<psa30 value="0.000863108791304839" flag="0"/>
		</comp>
	</station>
