<?xml version="1.0" encoding="UTF-8" standalone="yes"?>
<!DOCTYPE earthquake SYSTEM "stationlist.dtd">
<stationlist created="" xmlns="ch.ethz.sed.shakemap.usgs.xml">
  <station code="KARP" name="KARP" netid="GE" insttype="STS-2/N" lat="35.5471" lon="27.1611">
    <comp name="--.HHE">
      <acc value="0.3993581056" flag="0"/>
      <vel value="0.1344626390" flag="0"/>
      <psa03 value="0.3084415653" flag="0"/>
      <psa10 value="0.2143926730" flag="0"/>
      <psa30 value="0.0053514755" flag="0"/>
    </comp>
    <comp name="--.HHZ">
      <acc value="0.1965568073" flag="0"/>
      <vel value="0.0809981126" flag="0"/>
      <psa03 value="0.2980534640" flag="0"/>
      <psa10 value="0.0665803150" flag="0"/>
      <psa30 value="0.0029907383" flag="0"/>
    </comp>
    <comp name="--.HHN">
      <acc value="0.3142646906" flag="0"/>
      <vel value="0.1116396006" flag="0"/>
      <psa03 value="0.2646178351" flag="0"/>
      <psa10 value="0.1409608309" flag="0"/>
      <psa30 value="0.0072266841" flag="0"/>
    </comp>
  </station>
  <station code="THERA" name="THERA" netid="GE" insttype="STS-2/N" lat="36.367" lon="25.4753">
    <comp name="--.HHN">
      <acc value="0.0279466341" flag="0"/>
      <vel value="0.0106059815" flag="0"/>
      <psa03 value="0.0758766984" flag="0"/>
      <psa10 value="0.0130433329" flag="0"/>
      <psa30 value="0.0010729558" flag="0"/>
    </comp>
    <comp name="--.HHE">
      <acc value="0.0514711890" flag="0"/>
      <vel value="0.0244281938" flag="0"/>
      <psa03 value="0.0936856848" flag="0"/>
      <psa10 value="0.0635303955" flag="0"/>
      <psa30 value="0.0033971092" flag="0"/>
    </comp>
    <comp name="--.HHZ">
      <acc value="0.0333752826" flag="0"/>
      <vel value="0.0162168901" flag="0"/>
      <psa03 value="0.0516477507" flag="0"/>
      <psa10 value="0.0258428585" flag="0"/>
      <psa30 value="0.0026460129" flag="0"/>
    </comp>
  </station>
  <station code="ZKR" name="ZKR" netid="GE" insttype="STS-2/N" lat="35.1147" lon="26.2169">
    <comp name="--.HHN">
      <acc value="0.3815611812" flag="0"/>
      <vel value="0.0737095884" flag="0"/>
      <psa03 value="0.2880400845" flag="0"/>
      <psa10 value="0.0361580695" flag="0"/>
      <psa30 value="0.0032260063" flag="0"/>
    </comp>
    <comp name="--.HHE">
      <acc value="0.7183568872" flag="0"/>
      <vel value="0.1725361851" flag="0"/>
      <psa03 value="0.7585997179" flag="0"/>
      <psa10 value="0.0471847497" flag="0"/>
      <psa30 value="0.0055096374" flag="0"/>
    </comp>
    <comp name="--.HHZ">
      <acc value="0.4625564205" flag="0"/>
      <vel value="0.1082780537" flag="0"/>
      <psa03 value="0.4005851961" flag="0"/>
      <psa10 value="0.0577258661" flag="0"/>
      <psa30 value="0.0053293231" flag="0"/>
    </comp>
  </station>
  <station code="STIA" name="STIA" netid="HC" insttype="120" lat="35.2021" lon="26.0909">
    <comp name="--.HHE">
      <acc value="0.5599300318" flag="0"/>
      <vel value="0.1587080834" flag="0"/>
      <psa03 value="1.0904680700" flag="0"/>
      <psa10 value="0.1479654302" flag="0"/>
      <psa30 value="0.0081948026" flag="0"/>
    </comp>
    <comp name="--.HHN">
      <acc value="0.6007491703" flag="0"/>
      <vel value="0.1879824548" flag="0"/>
      <psa03 value="1.0148562521" flag="0"/>
      <psa10 value="0.1624664657" flag="0"/>
      <psa30 value="0.0116569051" flag="0"/>
    </comp>
    <comp name="--.HHZ">
      <acc value="1.0103354489" flag="0"/>
      <vel value="0.2415355309" flag="0"/>
      <psa03 value="1.0395305769" flag="0"/>
      <psa10 value="0.1074043021" flag="0"/>
      <psa30 value="0.0060214392" flag="0"/>
    </comp>
  </station>
  <station code="SIT2" name="SIT2" netid="HI" insttype="CMG-5TD,ACCELEROMETER,GURALP" lat="35.2059" lon="26.107">
    <comp name="--.HNE">
      <acc value="0.7945265822" flag="0"/>
      <vel value="0.4597694945" flag="0"/>
      <psa03 value="2.5586847143" flag="0"/>
      <psa10 value="0.2264681817" flag="0"/>
      <psa30 value="0.0169403736" flag="0"/>
    </comp>
    <comp name="--.HNZ">
      <acc value="0.8931510321" flag="0"/>
      <vel value="0.3446416467" flag="0"/>
      <psa03 value="1.4266905797" flag="0"/>
      <psa10 value="0.0962374856" flag="0"/>
      <psa30 value="0.0066813839" flag="0"/>
    </comp>
    <comp name="--.HNN">
      <acc value="0.9684813076" flag="0"/>
      <vel value="0.5367233894" flag="0"/>
      <psa03 value="2.9991434077" flag="0"/>
      <psa10 value="0.2448988821" flag="0"/>
      <psa30 value="0.0161925514" flag="0"/>
    </comp>
  </station>
  <station code="IACM" name="IACM" netid="HL" insttype="120" lat="35.3058" lon="25.0709">
    <comp name="--.HHZ">
      <acc value="0.2953304564" flag="0"/>
      <vel value="0.1290691530" flag="0"/>
      <psa03 value="0.5790722977" flag="0"/>
      <psa10 value="0.0772403695" flag="0"/>
      <psa30 value="0.0042256069" flag="0"/>
    </comp>
    <comp name="--.HHN">
      <acc value="0.5234919855" flag="0"/>
      <vel value="0.2405711970" flag="0"/>
      <psa03 value="1.3395842197" flag="0"/>
      <psa10 value="0.2269612430" flag="0"/>
      <psa30 value="0.0122721235" flag="0"/>
    </comp>
    <comp name="--.HHE">
      <acc value="0.6270639225" flag="0"/>
      <vel value="0.2289935117" flag="0"/>
      <psa03 value="1.4929653715" flag="0"/>
      <psa10 value="0.2860765687" flag="0"/>
      <psa30 value="0.0101921014" flag="0"/>
    </comp>
  </station>
  <station code="IDI" name="IDI" netid="HL" insttype="120" lat="35.288" lon="24.89">
    <comp name="--.HHE">
      <acc value="0.0802472913" flag="0"/>
      <vel value="0.0313551824" flag="0"/>
      <psa03 value="0.1523763132" flag="0"/>
      <psa10 value="0.0157987814" flag="0"/>
      <psa30 value="0.0014263158" flag="0"/>
    </comp>
    <comp name="--.HHN">
      <acc value="0.0747684171" flag="0"/>
      <vel value="0.0297569635" flag="0"/>
      <psa03 value="0.2130191723" flag="0"/>
      <psa10 value="0.0217725300" flag="0"/>
      <psa30 value="0.0021034272" flag="0"/>
    </comp>
    <comp name="--.HHZ">
      <acc value="0.0654235788" flag="0"/>
      <vel value="0.0315327543" flag="0"/>
      <psa03 value="0.1484532340" flag="0"/>
      <psa10 value="0.0175762841" flag="0"/>
      <psa30 value="0.0017047271" flag="0"/>
    </comp>
  </station>
  <station code="KARP" name="KARP" netid="HL" insttype="120" lat="35.5471" lon="27.1611">
    <comp name="--.HHE">
      <acc value="0.3574116378" flag="0"/>
      <vel value="0.1287027707" flag="0"/>
      <psa03 value="0.2996753968" flag="0"/>
      <psa10 value="0.2127975397" flag="0"/>
      <psa30 value="0.0052988719" flag="0"/>
    </comp>
    <comp name="--.HHZ">
      <acc value="0.1806279416" flag="0"/>
      <vel value="0.0794640972" flag="0"/>
      <psa03 value="0.2877829121" flag="0"/>
      <psa10 value="0.0661381740" flag="0"/>
      <psa30 value="0.0029490806" flag="0"/>
    </comp>
    <comp name="--.HHN">
      <acc value="0.2940001681" flag="0"/>
      <vel value="0.1089102636" flag="0"/>
      <psa03 value="0.2551702205" flag="0"/>
      <psa10 value="0.1398989084" flag="0"/>
      <psa30 value="0.0071656071" flag="0"/>
    </comp>
  </station>
  <station code="NPS" name="NPS" netid="HL" insttype="CMG3ESPC-120s" lat="35.2613" lon="25.6104">
    <comp name="--.HHE">
      <acc value="0.3189884832" flag="0"/>
      <vel value="0.1249898886" flag="0"/>
      <psa03 value="0.9014873751" flag="0"/>
      <psa10 value="0.0470313349" flag="0"/>
      <psa30 value="0.0033525675" flag="0"/>
    </comp>
    <comp name="--.HHZ">
      <acc value="0.7464841424" flag="0"/>
      <vel value="0.2709815092" flag="0"/>
      <psa03 value="1.1908790902" flag="0"/>
      <psa10 value="0.0537023293" flag="0"/>
      <psa30 value="0.0056630528" flag="0"/>
    </comp>
    <comp name="--.HHN">
      <acc value="0.8014374416" flag="0"/>
      <vel value="0.2665391007" flag="0"/>
      <psa03 value="1.5179681398" flag="0"/>
      <psa10 value="0.0587382765" flag="0"/>
      <psa30 value="0.0063851072" flag="0"/>
    </comp>
  </station>
  <station code="SAP3" name="SAP3" netid="HL" insttype="LE3D20_SMART24" lat="36.4356" lon="25.3454">
    <comp name="--.HHZ">
      <acc value="0.0924140474" flag="0"/>
      <vel value="0.0398636148" flag="0"/>
      <psa03 value="0.1357522913" flag="0"/>
      <psa10 value="0.0402919583" flag="0"/>
      <psa30 value="0.0067712134" flag="0"/>
    </comp>
    <comp name="--.HHE">
      <acc value="0.0939510532" flag="0"/>
      <vel value="0.0682999399" flag="0"/>
      <psa03 value="0.2311710754" flag="0"/>
      <psa10 value="0.1232248950" flag="0"/>
      <psa30 value="0.0140792495" flag="0"/>
    </comp>
    <comp name="--.HHN">
      <acc value="0.1025588686" flag="0"/>
      <vel value="0.0722362646" flag="0"/>
      <psa03 value="0.2351879829" flag="0"/>
      <psa10 value="0.1045422920" flag="0"/>
      <psa30 value="0.0200198762" flag="0"/>
    </comp>
  </station>
  <station code="THERA" name="THERA" netid="HL" insttype="120" lat="36.367" lon="25.4753">
    <comp name="--.HHE">
      <acc value="0.0502685839" flag="0"/>
      <vel value="0.0241987441" flag="0"/>
      <psa03 value="0.0913575973" flag="0"/>
      <psa10 value="0.0630682963" flag="0"/>
      <psa30 value="0.0033838546" flag="0"/>
    </comp>
    <comp name="--.HHZ">
      <acc value="0.0325608869" flag="0"/>
      <vel value="0.0159003273" flag="0"/>
      <psa03 value="0.0501770173" flag="0"/>
      <psa10 value="0.0256350087" flag="0"/>
      <psa30 value="0.0026462112" flag="0"/>
    </comp>
    <comp name="--.HHN">
      <acc value="0.0271928554" flag="0"/>
      <vel value="0.0103043653" flag="0"/>
      <psa03 value="0.0737173335" flag="0"/>
      <psa10 value="0.0129902215" flag="0"/>
      <psa30 value="0.0010692589" flag="0"/>
    </comp>
  </station>
  <station code="THRA" name="THRA" netid="HL" insttype="CMG-5" lat="36.415" lon="25.4324">
    <comp name="00.HNE">
      <acc value="0.1505196446" flag="0"/>
      <vel value="0.1056108709" flag="0"/>
      <psa03 value="0.4966085743" flag="0"/>
      <psa10 value="0.1997468357" flag="0"/>
      <psa30 value="0.0098856206" flag="0"/>
    </comp>
    <comp name="00.HNZ">
      <acc value="0.1012143725" flag="0"/>
      <vel value="0.0529216371" flag="0"/>
      <psa03 value="0.2670780482" flag="0"/>
      <psa10 value="0.0664919324" flag="0"/>
      <psa30 value="0.0036947148" flag="0"/>
    </comp>
    <comp name="00.HNN">
      <acc value="0.1291411371" flag="0"/>
      <vel value="0.0747577986" flag="0"/>
      <psa03 value="0.2353027922" flag="0"/>
      <psa10 value="0.1346044736" flag="0"/>
      <psa30 value="0.0069799206" flag="0"/>
    </comp>
  </station>
  <station code="ZKR" name="ZKR" netid="HL" insttype="120" lat="35.1147" lon="26.2169">
    <comp name="--.HHN">
      <acc value="0.3787391969" flag="0"/>
      <vel value="0.0714702968" flag="0"/>
      <psa03 value="0.2810779834" flag="0"/>
      <psa10 value="0.0359844842" flag="0"/>
      <psa30 value="0.0031838684" flag="0"/>
    </comp>
    <comp name="--.HHE">
      <acc value="0.6913737104" flag="0"/>
      <vel value="0.1677152086" flag="0"/>
      <psa03 value="0.7349426588" flag="0"/>
      <psa10 value="0.0465829510" flag="0"/>
      <psa30 value="0.0054783018" flag="0"/>
    </comp>
    <comp name="--.HHZ">
      <acc value="0.4595935646" flag="0"/>
      <vel value="0.1058832178" flag="0"/>
      <psa03 value="0.3900463499" flag="0"/>
      <psa10 value="0.0572322211" flag="0"/>
      <psa30 value="0.0052831033" flag="0"/>
    </comp>
  </station>
  <station code="CMBO" name="CMBO" netid="HT" insttype="120P," lat="36.4709" lon="25.4056">
    <comp name="--.HHZ">
      <acc value="0.1812666104" flag="0"/>
      <vel value="0.0854961761" flag="0"/>
      <psa03 value="0.6544092209" flag="0"/>
      <psa10 value="0.0593922631" flag="0"/>
      <psa30 value="0.0082270010" flag="0"/>
    </comp>
    <comp name="--.HHN">
      <acc value="0.2212281630" flag="0"/>
      <vel value="0.1839827157" flag="0"/>
      <psa03 value="0.6089411572" flag="0"/>
      <psa10 value="0.2285169819" flag="0"/>
      <psa30 value="0.0107844908" flag="0"/>
    </comp>
    <comp name="--.HHE">
      <acc value="0.2005335423" flag="0"/>
      <vel value="0.1238877461" flag="0"/>
      <psa03 value="0.5008297046" flag="0"/>
      <psa10 value="0.1973800771" flag="0"/>
      <psa30 value="0.0138106058" flag="0"/>
    </comp>
  </station>
  <station code="IDI" name="IDI" netid="MN" insttype="" lat="35.288" lon="24.89">
    <comp name="--.HHZ">
      <acc value="0.0699941216" flag="0"/>
      <vel value="0.0316437163" flag="0"/>
      <psa03 value="0.1510556861" flag="0"/>
      <psa10 value="0.0174396134" flag="0"/>
      <psa30 value="0.0016856642" flag="0"/>
    </comp>
    <comp name="--.HHN">
      <acc value="0.0775894688" flag="0"/>
      <vel value="0.0302622529" flag="0"/>
      <psa03 value="0.2143366897" flag="0"/>
      <psa10 value="0.0216203990" flag="0"/>
      <psa30 value="0.0020843314" flag="0"/>
    </comp>
    <comp name="--.HHE">
      <acc value="0.0848295196" flag="0"/>
      <vel value="0.0320106704" flag="0"/>
      <psa03 value="0.1554609685" flag="0"/>
      <psa10 value="0.0156652112" flag="0"/>
      <psa30 value="0.0014118256" flag="0"/>
    </comp>
  </station>
</stationlist>
