<stationlist created="1778069934">
	<station code="CH01" name="CH01" netid="HI" source="ITSAK Strong Motion Network" insttype="" lat="35.517" lon="24.0208">
		<comp name="--.HNE" depth="0.0">
			<acc value="0.0240712741954252" flag="0"/>
			<vel value="0.0146160596328623" flag="0"/>
			<psa03 value="0.0691267092252299" flag="0"/>
			<psa10 value="0.0256990286374029" flag="0"/>
			<psa30 value="0.00216910217685381" flag="0"/>
		</comp>
		<comp name="--.HNN" depth="0.0">
			<acc value="0.0293478625027603" flag="0"/>
			<vel value="0.0187770482726674" flag="0"/>
			<psa03 value="0.0836679263761682" flag="0"/>
			<psa10 value="0.0335915538848661" flag="0"/>
			<psa30 value="0.00204874564105066" flag="0"/>
		</comp>
		<comp name="--.HNZ" depth="0.0">
			<acc value="0.0135532124942578" flag="0"/>
			<vel value="0.0103704875803226" flag="0"/>
			<psa03 value="0.0275611992768554" flag="0"/>
			<psa10 value="0.0178507981744919" flag="0"/>
			<psa30 value="0.00161161428239015" flag="0"/>
		</comp>
	</station>
	<station code="KSS1" name="KSS1" netid="HI" source="ITSAK Strong Motion Network" insttype="" lat="35.4189" lon="26.9207">
		<comp name="--.HNE" depth="0.0">
			<acc value="0.324593722409145" flag="0"/>
			<vel value="0.0998398493273365" flag="0"/>
			<psa03 value="0.385685508105562" flag="0"/>
			<psa10 value="0.073751005642251" flag="0"/>
			<psa30 value="0.00402888647728916" flag="0"/>
		</comp>
		<comp name="--.HNN" depth="0.0">
			<acc value="0.399895930839704" flag="0"/>
			<vel value="0.145495973247655" flag="0"/>
			<psa03 value="1.21055285985165" flag="0"/>
			<psa10 value="0.071996504415227" flag="0"/>
			<psa30 value="0.00624268854747928" flag="0"/>
		</comp>
		<comp name="--.HNZ" depth="0.0">
			<acc value="0.218230669173597" flag="0"/>
			<vel value="0.0660789012963677" flag="0"/>
			<psa03 value="0.268019796662692" flag="0"/>
			<psa10 value="0.0414092681606497" flag="0"/>
			<psa30 value="0.00465833442510874" flag="0"/>
		</comp>
	</station>
	<station code="NAX1" name="NAX1" netid="HI" source="ITSAK Strong Motion Network" insttype="" lat="37.101394" lon="25.374103">
		<comp name="--.HNE" depth="0.0">
			<acc value="0.0124956010128527" flag="0"/>
			<vel value="0.00702753308542982" flag="0"/>
			<psa03 value="0.0339593348232683" flag="0"/>
			<psa10 value="0.00996632652422003" flag="0"/>
			<psa30 value="0.00118343136505329" flag="0"/>
		</comp>
		<comp name="--.HNN" depth="0.0">
			<acc value="0.0101924508377962" flag="0"/>
			<vel value="0.0058307692330072" flag="0"/>
			<psa03 value="0.0209393526973512" flag="0"/>
			<psa10 value="0.00662811048843078" flag="0"/>
			<psa30 value="0.000858602945004635" flag="0"/>
		</comp>
		<comp name="--.HNZ" depth="0.0">
			<acc value="0.00698976217637917" flag="0"/>
			<vel value="0.00607583626942871" flag="0"/>
			<psa03 value="0.0196418287054213" flag="0"/>
			<psa10 value="0.00974887940005523" flag="0"/>
			<psa30 value="0.00111542321099351" flag="0"/>
		</comp>
	</station>
	<station code="SIT2" name="SIT2" netid="HI" source="ITSAK Strong Motion Network" insttype="" lat="35.2059" lon="26.107">
		<comp name="--.HNE" depth="0.0">
			<acc value="0.792102285276125" flag="0"/>
			<vel value="0.457768796592058" flag="0"/>
			<psa03 value="2.51370665222774" flag="0"/>
			<psa10 value="0.227264459140982" flag="0"/>
			<psa30 value="0.0173756359402058" flag="0"/>
		</comp>
		<comp name="--.HNN" depth="0.0">
			<acc value="0.973653263565864" flag="0"/>
			<vel value="0.539749386029959" flag="0"/>
			<psa03 value="2.96479757935316" flag="0"/>
			<psa10 value="0.245296463252278" flag="0"/>
			<psa30 value="0.0170628879159441" flag="0"/>
		</comp>
		<comp name="--.HNZ" depth="0.0">
			<acc value="0.890302784213228" flag="0"/>
			<vel value="0.351052385648956" flag="0"/>
			<psa03 value="1.49899814833196" flag="0"/>
			<psa10 value="0.0964901479488325" flag="0"/>
			<psa30 value="0.00699812853716388" flag="0"/>
		</comp>
	</station>
	<station code="ASTA" name="ASTA" netid="HL" source="National Observatory of Athens Seismic Network" insttype="" lat="36.54552" lon="26.35295">
		<comp name="00.HNE" depth="0.0">
			<acc value="0.0258399702322207" flag="0"/>
			<vel value="0.0135669486409477" flag="0"/>
			<psa03 value="0.0460844728168199" flag="0"/>
			<psa10 value="0.0174964398980752" flag="0"/>
			<psa30 value="0.00245232034474747" flag="0"/>
		</comp>
		<comp name="00.HNN" depth="0.0">
			<acc value="0.0307097819217792" flag="0"/>
			<vel value="0.0300956132913482" flag="0"/>
			<psa03 value="0.0761959778709168" flag="0"/>
			<psa10 value="0.0337647062244788" flag="0"/>
			<psa30 value="0.00268900661775813" flag="0"/>
		</comp>
		<comp name="00.HNZ" depth="0.0">
			<acc value="0.0195004931546901" flag="0"/>
			<vel value="0.0187389195360321" flag="0"/>
			<psa03 value="0.0326170686247201" flag="0"/>
			<psa10 value="0.0218614895757538" flag="0"/>
			<psa30 value="0.00300399175235077" flag="0"/>
		</comp>
	</station>
	<station code="IACM" name="IACM" netid="HL" source="National Observatory of Athens Seismic Network" insttype="" lat="35.3058" lon="25.0709">
		<comp name="--.HNE" depth="0.0">
			<acc value="0.620811961670381" flag="0"/>
			<vel value="0.221957578417541" flag="0"/>
			<psa03 value="1.40137065349089" flag="0"/>
			<psa10 value="0.28839528862146" flag="0"/>
			<psa30 value="0.0102732580616214" flag="0"/>
		</comp>
		<comp name="--.HNN" depth="0.0">
			<acc value="0.536268284573694" flag="0"/>
			<vel value="0.25273174026924" flag="0"/>
			<psa03 value="1.35770225983146" flag="0"/>
			<psa10 value="0.233707336894013" flag="0"/>
			<psa30 value="0.012571665215602" flag="0"/>
		</comp>
		<comp name="--.HNZ" depth="0.0">
			<acc value="0.303058462044069" flag="0"/>
			<vel value="0.127502789196548" flag="0"/>
			<psa03 value="0.580798584111786" flag="0"/>
			<psa10 value="0.0771897022799086" flag="0"/>
			<psa30 value="0.00433238786684725" flag="0"/>
		</comp>
	</station>
	<station code="IMMV" name="IMMV" netid="HL" source="National Observatory of Athens Seismic Network" insttype="" lat="35.4606" lon="23.9811">
		<comp name="--.HNE" depth="0.0">
			<acc value="0.024591375769618" flag="0"/>
			<vel value="0.0157250695132815" flag="0"/>
			<psa03 value="0.049887560379373" flag="0"/>
			<psa10 value="0.026536602745297" flag="0"/>
			<psa30 value="0.00149215259071936" flag="0"/>
		</comp>
		<comp name="--.HNN" depth="0.0">
			<acc value="0.0271696818580528" flag="0"/>
			<vel value="0.0149919564200508" flag="0"/>
			<psa03 value="0.0771355642099005" flag="0"/>
			<psa10 value="0.0238990496651499" flag="0"/>
			<psa30 value="0.00125636116184107" flag="0"/>
		</comp>
		<comp name="--.HNZ" depth="0.0">
			<acc value="0.0156257458967587" flag="0"/>
			<vel value="0.0081964844420465" flag="0"/>
			<psa03 value="0.0602230101081938" flag="0"/>
			<psa10 value="0.0104455155571017" flag="0"/>
			<psa30 value="0.00116821901480308" flag="0"/>
		</comp>
	</station>
	<station code="KARP" name="KARP" netid="HL" source="National Observatory of Athens Seismic Network" insttype="" lat="35.5471" lon="27.16106">
		<comp name="--.HNE" depth="0.0">
			<acc value="0.301169787142535" flag="0"/>
			<vel value="0.104250788044573" flag="0"/>
			<psa03 value="0.261428713270562" flag="0"/>
			<psa10 value="0.188562897838243" flag="0"/>
			<psa30 value="0.00540754309188432" flag="0"/>
		</comp>
		<comp name="--.HNN" depth="0.0">
			<acc value="0.274629108565699" flag="0"/>
			<vel value="0.0967640110236417" flag="0"/>
			<psa03 value="0.245232034474748" flag="0"/>
			<psa10 value="0.107922229161867" flag="0"/>
			<psa30 value="0.00575563745937448" flag="0"/>
		</comp>
		<comp name="--.HNZ" depth="0.0">
			<acc value="0.150427903787775" flag="0"/>
			<vel value="0.0669415310500519" flag="0"/>
			<psa03 value="0.239147094374663" flag="0"/>
			<psa10 value="0.0541684947086092" flag="0"/>
			<psa30 value="0.00255701710823423" flag="0"/>
		</comp>
	</station>
	<station code="KLNA" name="KLNA" netid="HL" source="National Observatory of Athens Seismic Network" insttype="" lat="36.95708" lon="26.97274">
		<comp name="00.HNE" depth="0.0">
			<acc value="0.0270216496479" flag="0"/>
			<vel value="0.011558141472929" flag="0"/>
			<psa03 value="0.0943165715513169" flag="0"/>
			<psa10 value="0.00947505709555141" flag="0"/>
			<psa30 value="0.000890369911703608" flag="0"/>
		</comp>
		<comp name="00.HNN" depth="0.0">
			<acc value="0.0324682332302455" flag="0"/>
			<vel value="0.0119213308557561" flag="0"/>
			<psa03 value="0.0816992692849642" flag="0"/>
			<psa10 value="0.0061771090457186" flag="0"/>
			<psa30 value="0.000731535078208743" flag="0"/>
		</comp>
		<comp name="00.HNZ" depth="0.0">
			<acc value="0.0275290221951271" flag="0"/>
			<vel value="0.00814562125597793" flag="0"/>
			<psa03 value="0.0281875901695112" flag="0"/>
			<psa10 value="0.00463887198218242" flag="0"/>
			<psa30 value="0.000656368171090046" flag="0"/>
		</comp>
	</station>
	<station code="SIVA" name="SIVA" netid="HL" source="National Observatory of Athens Seismic Network" insttype="" lat="35.01777" lon="24.81204">
		<comp name="00.HNE" depth="0.0">
			<acc value="0.0917499080190743" flag="0"/>
			<vel value="0.056426302562803" flag="0"/>
			<psa03 value="0.255746453030041" flag="0"/>
			<psa10 value="0.059528163639412" flag="0"/>
			<psa30 value="0.0030263628556599" flag="0"/>
		</comp>
		<comp name="00.HNN" depth="0.0">
			<acc value="0.106227296508273" flag="0"/>
			<vel value="0.0548119679937028" flag="0"/>
			<psa03 value="0.322859762957449" flag="0"/>
			<psa10 value="0.0611670706678393" flag="0"/>
			<psa30 value="0.00378653294610434" flag="0"/>
		</comp>
		<comp name="00.HNZ" depth="0.0">
			<acc value="0.0551760964724371" flag="0"/>
			<vel value="0.0217355097446694" flag="0"/>
			<psa03 value="0.163443280776547" flag="0"/>
			<psa10 value="0.0158212916822871" flag="0"/>
			<psa30 value="0.00197134162360105" flag="0"/>
		</comp>
	</station>
	<station code="SMG" name="SMG" netid="HL" source="National Observatory of Athens Seismic Network" insttype="" lat="37.70425" lon="26.83772">
		<comp name="00.HNE" depth="0.0">
			<acc value="0.00545550012995314" flag="0"/>
			<vel value="0.00296659113313265" flag="0"/>
			<psa03 value="0.0190154378127655" flag="0"/>
			<psa10 value="0.00374894949254499" flag="0"/>
			<psa30 value="0.00057627962124334" flag="0"/>
		</comp>
		<comp name="00.HNN" depth="0.0">
			<acc value="0.00386897276181045" flag="0"/>
			<vel value="0.00287129625741852" flag="0"/>
			<psa03 value="0.0118119425472237" flag="0"/>
			<psa10 value="0.00310063491864623" flag="0"/>
			<psa30 value="0.000551223985537108" flag="0"/>
		</comp>
		<comp name="00.HNZ" depth="0.0">
			<acc value="0.00249788839446611" flag="0"/>
			<vel value="0.00196753152506327" flag="0"/>
			<psa03 value="0.0058612290669936" flag="0"/>
			<psa10 value="0.00369660111080161" flag="0"/>
			<psa30 value="0.000472925123955132" flag="0"/>
		</comp>
	</station>
	<station code="THRA" name="THRA" netid="HL" source="National Observatory of Athens Seismic Network" insttype="" lat="36.41502" lon="25.43244">
		<comp name="00.HNE" depth="0.0">
			<acc value="0.150557907315681" flag="0"/>
			<vel value="0.106472613440434" flag="0"/>
			<psa03 value="0.494356640925285" flag="0"/>
			<psa10 value="0.199451361240866" flag="0"/>
			<psa30 value="0.010796294456989" flag="0"/>
		</comp>
		<comp name="00.HNN" depth="0.0">
			<acc value="0.128709487188096" flag="0"/>
			<vel value="0.075019753867292" flag="0"/>
			<psa03 value="0.23480710033269" flag="0"/>
			<psa10 value="0.134954128134428" flag="0"/>
			<psa30 value="0.0074249691883022" flag="0"/>
		</comp>
		<comp name="00.HNZ" depth="0.0">
			<acc value="0.100289991573885" flag="0"/>
			<vel value="0.0527526820530709" flag="0"/>
			<psa03 value="0.267245200130937" flag="0"/>
			<psa10 value="0.0665750611817898" flag="0"/>
			<psa30 value="0.00397623990216581" flag="0"/>
		</comp>
	</station>
</stationlist>
