<?xml version="1.0" encoding="UTF-8" standalone="yes"?>
<!DOCTYPE earthquake SYSTEM "stationlist.dtd">
<stationlist created="" xmlns="ch.ethz.sed.shakemap.usgs.xml">
  <station code="GAZ" name="GAZ" netid="KO" insttype="CMG-3T" commtype="DIG" lat="37.1721" lon="37.2096">
    <comp name="--.HHN">
      <acc value="0.0401985290" flag="0"/>
      <vel value="0.0300291252" flag="0"/>
      <psa03 value="0.1056912294" flag="0"/>
      <psa10 value="0.0330153093" flag="0"/>
      <psa30 value="0.0019029395" flag="0"/>
    </comp>
    <comp name="--.HHE">
      <acc value="0.0571773562" flag="0"/>
      <vel value="0.0278323606" flag="0"/>
      <psa03 value="0.1189333803" flag="0"/>
      <psa10 value="0.0219327335" flag="0"/>
      <psa30 value="0.0022122042" flag="0"/>
    </comp>
    <comp name="--.HHZ">
      <acc value="0.0450741831" flag="0"/>
      <vel value="0.0286499030" flag="0"/>
      <psa03 value="0.1248521329" flag="0"/>
      <psa10 value="0.0410533345" flag="0"/>
      <psa30 value="0.0021018445" flag="0"/>
    </comp>
  </station>
  <station code="KMRS" name="KMRS" netid="KO" insttype="CMG-3T" commtype="DIG" lat="37.5087" lon="36.9">
    <comp name="--.HHN">
      <acc value="0.1896818938" flag="0"/>
      <vel value="0.1068424637" flag="0"/>
      <psa03 value="0.3709481721" flag="0"/>
      <psa10 value="0.0579046134" flag="0"/>
      <psa30 value="0.0069419390" flag="0"/>
    </comp>
    <comp name="--.HHZ">
      <acc value="0.0895148892" flag="0"/>
      <vel value="0.0445090538" flag="0"/>
      <psa03 value="0.1822491837" flag="0"/>
      <psa10 value="0.0233814788" flag="0"/>
      <psa30 value="0.0034283240" flag="0"/>
    </comp>
    <comp name="--.HHE">
      <acc value="0.0877116434" flag="0"/>
      <vel value="0.0507016922" flag="0"/>
      <psa03 value="0.1626923516" flag="0"/>
      <psa10 value="0.0423258294" flag="0"/>
      <psa30 value="0.0072032556" flag="0"/>
    </comp>
  </station>
  <station code="MLTY" name="MLTY" netid="KO" insttype="CMG-6T" commtype="DIG" lat="38.3223" lon="38.4407">
    <comp name="--.HHZ">
      <acc value="0.0278345131" flag="0"/>
      <vel value="0.0164305396" flag="0"/>
      <psa03 value="0.0423189696" flag="0"/>
      <psa10 value="0.0232235060" flag="0"/>
      <psa30 value="0.0014980751" flag="0"/>
    </comp>
    <comp name="--.HHE">
      <acc value="0.0268089382" flag="0"/>
      <vel value="0.0125165145" flag="0"/>
      <psa03 value="0.0538941680" flag="0"/>
      <psa10 value="0.0322284606" flag="0"/>
      <psa30 value="0.0011881117" flag="0"/>
    </comp>
    <comp name="--.HHN">
      <acc value="0.0256437899" flag="0"/>
      <vel value="0.0223706903" flag="0"/>
      <psa03 value="0.0613130605" flag="0"/>
      <psa10 value="0.0157040673" flag="0"/>
      <psa30 value="0.0012351285" flag="0"/>
    </comp>
  </station>
  <station code="NURH" name="NURH" netid="KO" insttype="CMG-6T" commtype="DIG" lat="37.9693" lon="37.4363">
    <comp name="--.HHE">
      <acc value="0.8259911296" flag="0"/>
      <vel value="0.2982780746" flag="0"/>
      <psa03 value="0.9425168980" flag="0"/>
      <psa10 value="0.2635151626" flag="0"/>
      <psa30 value="0.0138318400" flag="0"/>
    </comp>
    <comp name="--.HHN">
      <acc value="0.8505596131" flag="0"/>
      <vel value="0.2577164873" flag="0"/>
      <psa03 value="0.8259859884" flag="0"/>
      <psa10 value="0.2220922631" flag="0"/>
      <psa30 value="0.0170274750" flag="0"/>
    </comp>
    <comp name="--.HHZ">
      <acc value="0.4326795617" flag="0"/>
      <vel value="0.1109936081" flag="0"/>
      <psa03 value="0.3131779619" flag="0"/>
      <psa10 value="0.0488523651" flag="0"/>
      <psa30 value="0.0053740521" flag="0"/>
    </comp>
  </station>
  <station code="ANDN" name="ANDN" netid="TU" insttype="T" commtype="DIG" lat="37.58" lon="36.3452">
    <comp name="--.HHZ">
      <acc value="0.1607791733" flag="0"/>
      <vel value="0.1149068688" flag="0"/>
      <psa03 value="0.4507411097" flag="0"/>
      <psa10 value="0.1443028942" flag="0"/>
      <psa30 value="0.0078573356" flag="0"/>
    </comp>
    <comp name="--.HHE">
      <acc value="0.2764641005" flag="0"/>
      <vel value="0.1622114131" flag="0"/>
      <psa03 value="0.5152555593" flag="0"/>
      <psa10 value="0.1766771861" flag="0"/>
      <psa30 value="0.0107064503" flag="0"/>
    </comp>
    <comp name="--.HHN">
      <acc value="0.3401163062" flag="0"/>
      <vel value="0.1907499104" flag="0"/>
      <psa03 value="0.8982062995" flag="0"/>
      <psa10 value="0.2456474490" flag="0"/>
      <psa30 value="0.0143123430" flag="0"/>
    </comp>
  </station>
</stationlist>
