<stationlist created="1775808362">
	<station code="CMRD" name="CMRD" netid="KO" source="Bogazici University Kandilli Observatory And Earthquake Research Institute (KOERI)" insttype="" lat="37.6623" lon="34.9902">
		<comp name="--.HNE" depth="0.0">
			<acc value="0.00580252232510591" flag="0"/>
			<vel value="0.00533903332984694" flag="0"/>
			<psa03 value="0.0234899727620793" flag="0"/>
			<psa10 value="0.00660521037527067" flag="0"/>
			<psa30 value="0.000583688718596344" flag="0"/>
		</comp>
		<comp name="--.HNN" depth="0.0">
			<acc value="0.00781569842893873" flag="0"/>
			<vel value="0.00616334198013238" flag="0"/>
			<psa03 value="0.0206356157061828" flag="0"/>
			<psa10 value="0.00754721418464992" flag="0"/>
			<psa30 value="0.000959974635274942" flag="0"/>
		</comp>
		<comp name="--.HNZ" depth="0.0">
			<acc value="0.0064362057806021" flag="0"/>
			<vel value="0.00499427256957106" flag="0"/>
			<psa03 value="0.0125080590662768" flag="0"/>
			<psa10 value="0.00897674747796482" flag="0"/>
			<psa30 value="0.000757048692427137" flag="0"/>
		</comp>
	</station>
	<station code="TUNC" name="TUNC" netid="KO" source="Bogazici University Kandilli Observatory And Earthquake Research Institute (KOERI)" insttype="" lat="39.6942" lon="37.5388">
		<comp name="--.HNE" depth="0.0">
			<acc value="0.0381348822351878" flag="0"/>
			<vel value="0.0274520474410368" flag="0"/>
			<psa03 value="0.137659869290741" flag="0"/>
			<psa10 value="0.0623609461066279" flag="0"/>
			<psa30 value="0.00264028198905728" flag="0"/>
		</comp>
		<comp name="--.HNN" depth="0.0">
			<acc value="0.0397060108438796" flag="0"/>
			<vel value="0.0248431433167762" flag="0"/>
			<psa03 value="0.196175662341517" flag="0"/>
			<psa10 value="0.0258817920417015" flag="0"/>
			<psa30 value="0.00274324630993821" flag="0"/>
		</comp>
		<comp name="--.HNZ" depth="0.0">
			<acc value="0.0149854107819645" flag="0"/>
			<vel value="0.0127475754326108" flag="0"/>
			<psa03 value="0.054032298124574" flag="0"/>
			<psa10 value="0.0248825739734084" flag="0"/>
			<psa30 value="0.002731458862411" flag="0"/>
		</comp>
	</station>
</stationlist>
