<?xml version="1.0" encoding="UTF-8" standalone="yes"?>
<!DOCTYPE earthquake SYSTEM "stationlist.dtd">
<stationlist created="" xmlns="ch.ethz.sed.shakemap.usgs.xml">
  <station code="ARGN" name="ARGN" netid="KO" insttype="CMG-6T" commtype="DIG" lat="38.7763" lon="38.2639">
    <comp name="--.HHE">
      <acc value="0.4601079024" flag="0"/>
      <vel value="0.2472549740" flag="0"/>
      <psa03 value="1.4764199344" flag="0"/>
      <psa10 value="0.1246017717" flag="0"/>
      <psa30 value="0.0075617015" flag="0"/>
    </comp>
    <comp name="--.HHN">
      <acc value="0.2276726450" flag="0"/>
      <vel value="0.0990213776" flag="0"/>
      <psa03 value="0.8370978720" flag="0"/>
      <psa10 value="0.0847752121" flag="0"/>
      <psa30 value="0.0031619691" flag="0"/>
    </comp>
    <comp name="--.HHZ">
      <acc value="0.1697490451" flag="0"/>
      <vel value="0.0704730529" flag="0"/>
      <psa03 value="0.6678906508" flag="0"/>
      <psa10 value="0.0421447574" flag="0"/>
      <psa30 value="0.0023378069" flag="0"/>
    </comp>
  </station>
  <station code="GAZ" name="GAZ" netid="KO" insttype="CMG-3T" commtype="DIG" lat="37.1721" lon="37.2096">
    <comp name="--.HHE">
      <acc value="0.0571773567" flag="0"/>
      <vel value="0.0278323611" flag="0"/>
      <psa03 value="0.1189333803" flag="0"/>
      <psa10 value="0.0219327335" flag="0"/>
      <psa30 value="0.0022121725" flag="0"/>
    </comp>
    <comp name="--.HHZ">
      <acc value="0.0450741833" flag="0"/>
      <vel value="0.0286499029" flag="0"/>
      <psa03 value="0.1248521329" flag="0"/>
      <psa10 value="0.0410533396" flag="0"/>
      <psa30 value="0.0021018707" flag="0"/>
    </comp>
    <comp name="--.HHN">
      <acc value="0.0401985285" flag="0"/>
      <vel value="0.0300291257" flag="0"/>
      <psa03 value="0.1056912294" flag="0"/>
      <psa10 value="0.0330153093" flag="0"/>
      <psa30 value="0.0019029470" flag="0"/>
    </comp>
  </station>
  <station code="KMRS" name="KMRS" netid="KO" insttype="CMG-3T" commtype="DIG" lat="37.5087" lon="36.9">
    <comp name="--.HHZ">
      <acc value="0.0895148894" flag="0"/>
      <vel value="0.0445090554" flag="0"/>
      <psa03 value="0.1822491837" flag="0"/>
      <psa10 value="0.0233814788" flag="0"/>
      <psa30 value="0.0034283915" flag="0"/>
    </comp>
    <comp name="--.HHN">
      <acc value="0.1896818937" flag="0"/>
      <vel value="0.1068424636" flag="0"/>
      <psa03 value="0.3709481721" flag="0"/>
      <psa10 value="0.0579046133" flag="0"/>
      <psa30 value="0.0069420421" flag="0"/>
    </comp>
    <comp name="--.HHE">
      <acc value="0.0877116434" flag="0"/>
      <vel value="0.0507016923" flag="0"/>
      <psa03 value="0.1626923516" flag="0"/>
      <psa10 value="0.0423258294" flag="0"/>
      <psa30 value="0.0072030895" flag="0"/>
    </comp>
  </station>
  <station code="KOZT" name="KOZT" netid="KO" insttype="CMG-3T" commtype="DIG" lat="37.4795" lon="35.8264">
    <comp name="--.HHE">
      <acc value="0.0405495243" flag="0"/>
      <vel value="0.0250937976" flag="0"/>
      <psa03 value="0.1871488445" flag="0"/>
      <psa10 value="0.0295241771" flag="0"/>
      <psa30 value="0.0024219974" flag="0"/>
    </comp>
    <comp name="--.HHN">
      <acc value="0.0258004564" flag="0"/>
      <vel value="0.0198315068" flag="0"/>
      <psa03 value="0.0839594141" flag="0"/>
      <psa10 value="0.0269876778" flag="0"/>
      <psa30 value="0.0018601883" flag="0"/>
    </comp>
    <comp name="--.HHZ">
      <acc value="0.0249247295" flag="0"/>
      <vel value="0.0128824274" flag="0"/>
      <psa03 value="0.0729474114" flag="0"/>
      <psa10 value="0.0175268072" flag="0"/>
      <psa30 value="0.0014598896" flag="0"/>
    </comp>
  </station>
  <station code="MLTY" name="MLTY" netid="KO" insttype="CMG-6T" commtype="DIG" lat="38.3223" lon="38.4407">
    <comp name="--.HHE">
      <acc value="0.0268089472" flag="0"/>
      <vel value="0.0125165194" flag="0"/>
      <psa03 value="0.0538941680" flag="0"/>
      <psa10 value="0.0322284606" flag="0"/>
      <psa30 value="0.0011881505" flag="0"/>
    </comp>
    <comp name="--.HHN">
      <acc value="0.0256437801" flag="0"/>
      <vel value="0.0223706919" flag="0"/>
      <psa03 value="0.0613130605" flag="0"/>
      <psa10 value="0.0157040673" flag="0"/>
      <psa30 value="0.0012350049" flag="0"/>
    </comp>
    <comp name="--.HHZ">
      <acc value="0.0278345242" flag="0"/>
      <vel value="0.0164305395" flag="0"/>
      <psa03 value="0.0423189696" flag="0"/>
      <psa10 value="0.0232235060" flag="0"/>
      <psa30 value="0.0014980518" flag="0"/>
    </comp>
  </station>
  <station code="NURH" name="NURH" netid="KO" insttype="CMG-6T" commtype="DIG" lat="37.9693" lon="37.4363">
    <comp name="--.HHE">
      <acc value="0.8259911413" flag="0"/>
      <vel value="0.2982780828" flag="0"/>
      <psa03 value="0.9425168980" flag="0"/>
      <psa10 value="0.2635151638" flag="0"/>
      <psa30 value="0.0138317751" flag="0"/>
    </comp>
    <comp name="--.HHN">
      <acc value="0.8505600046" flag="0"/>
      <vel value="0.2577164874" flag="0"/>
      <psa03 value="0.8259859884" flag="0"/>
      <psa10 value="0.2220922610" flag="0"/>
      <psa30 value="0.0170272942" flag="0"/>
    </comp>
    <comp name="--.HHZ">
      <acc value="0.4326795429" flag="0"/>
      <vel value="0.1109936098" flag="0"/>
      <psa03 value="0.3131779619" flag="0"/>
      <psa10 value="0.0488523645" flag="0"/>
      <psa30 value="0.0053741947" flag="0"/>
    </comp>
  </station>
  <station code="SARI" name="SARI" netid="KO" insttype="CMG-3T" commtype="DIG" lat="38.4072" lon="36.4181">
    <comp name="--.HHE">
      <acc value="0.1185645727" flag="0"/>
      <vel value="0.0534291020" flag="0"/>
      <psa03 value="0.3538177009" flag="0"/>
      <psa10 value="0.0569978240" flag="0"/>
      <psa30 value="0.0019149440" flag="0"/>
    </comp>
    <comp name="--.HHN">
      <acc value="0.1162755835" flag="0"/>
      <vel value="0.0516866497" flag="0"/>
      <psa03 value="0.2339839592" flag="0"/>
      <psa10 value="0.0753978716" flag="0"/>
      <psa30 value="0.0044780502" flag="0"/>
    </comp>
    <comp name="--.HHZ">
      <acc value="0.0694809071" flag="0"/>
      <vel value="0.0359348197" flag="0"/>
      <psa03 value="0.2171753742" flag="0"/>
      <psa10 value="0.0441084343" flag="0"/>
      <psa30 value="0.0016483427" flag="0"/>
    </comp>
  </station>
  <station code="ANDN" name="ANDN" netid="TU" insttype="T" commtype="DIG" lat="37.58" lon="36.3452">
    <comp name="--.HHZ">
      <acc value="0.1607791744" flag="0"/>
      <vel value="0.1149068696" flag="0"/>
      <psa03 value="0.4507411097" flag="0"/>
      <psa10 value="0.1443028950" flag="0"/>
      <psa30 value="0.0078574305" flag="0"/>
    </comp>
    <comp name="--.HHE">
      <acc value="0.2764641007" flag="0"/>
      <vel value="0.1622114140" flag="0"/>
      <psa03 value="0.5152555593" flag="0"/>
      <psa10 value="0.1766771867" flag="0"/>
      <psa30 value="0.0107062501" flag="0"/>
    </comp>
    <comp name="--.HHN">
      <acc value="0.3401163050" flag="0"/>
      <vel value="0.1907499124" flag="0"/>
      <psa03 value="0.8982062995" flag="0"/>
      <psa10 value="0.2456474489" flag="0"/>
      <psa30 value="0.0143120135" flag="0"/>
    </comp>
  </station>
</stationlist>
