<?xml version="1.0" encoding="UTF-8" standalone="yes"?>
<!DOCTYPE earthquake SYSTEM "stationlist.dtd">
<stationlist created="" xmlns="ch.ethz.sed.shakemap.usgs.xml">
  <station code="AMT" name="AMT" netid="HP" source="NOA" insttype="CMG-3T," lat="37.5324" lon="21.7089">
    <comp name="00.HHE">
      <acc value="0.0118453794" flag="0"/>
      <vel value="0.0088597926" flag="0"/>
      <psa03 value="0.0476055869" flag="0"/>
      <psa10 value="0.0177615100" flag="0"/>
      <psa30 value="0.0009036557" flag="0"/>
    </comp>
    <comp name="00.HHN">
      <acc value="0.0193558661" flag="0"/>
      <vel value="0.0131495397" flag="0"/>
      <psa03 value="0.0479183035" flag="0"/>
      <psa10 value="0.0145225877" flag="0"/>
      <psa30 value="0.0009688261" flag="0"/>
    </comp>
    <comp name="00.HHZ">
      <acc value="0.0103063182" flag="0"/>
      <vel value="0.0058903387" flag="0"/>
      <psa03 value="0.0265850617" flag="0"/>
      <psa10 value="0.0064318080" flag="0"/>
      <psa30 value="0.0003990359" flag="0"/>
    </comp>
  </station>
</stationlist>
