<?xml version="1.0" encoding="UTF-8" standalone="yes"?>
<!DOCTYPE earthquake SYSTEM "stationlist.dtd">
<stationlist created="" xmlns="ch.ethz.sed.shakemap.usgs.xml">
  <station code="CEYT" name="CEYT" netid="KO" insttype="CMG-3ESP" lat="37.0105" lon="35.7478">
    <comp name="--.HHE">
      <acc value="0.0263696000" flag="0"/>
      <vel value="0.0099592986" flag="0"/>
      <psa03 value="0.0454397817" flag="0"/>
      <psa10 value="0.0054389815" flag="0"/>
      <psa30 value="0.0005609606" flag="0"/>
    </comp>
    <comp name="--.HHN">
      <acc value="0.0185575661" flag="0"/>
      <vel value="0.0086022445" flag="0"/>
      <psa03 value="0.0398725690" flag="0"/>
      <psa10 value="0.0065066180" flag="0"/>
      <psa30 value="0.0005040227" flag="0"/>
    </comp>
    <comp name="--.HHZ">
      <acc value="0.0130782090" flag="0"/>
      <vel value="0.0048060234" flag="0"/>
      <psa03 value="0.0269618689" flag="0"/>
      <psa10 value="0.0071344903" flag="0"/>
      <psa30 value="0.0003106902" flag="0"/>
    </comp>
  </station>
  <station code="TAHT" name="TAHT" netid="KO" insttype="CMG-3ESPC" lat="36.3755" lon="36.1855">
    <comp name="--.HHE">
      <acc value="1.0831898653" flag="0"/>
      <vel value="0.2175043606" flag="0"/>
      <psa03 value="1.6685583027" flag="0"/>
      <psa10 value="0.0681002049" flag="0"/>
      <psa30 value="0.0054787855" flag="0"/>
    </comp>
    <comp name="--.HHN">
      <acc value="1.1643262929" flag="0"/>
      <vel value="0.2288214630" flag="0"/>
      <psa03 value="1.1665297142" flag="0"/>
      <psa10 value="0.0865822463" flag="0"/>
      <psa30 value="0.0049388600" flag="0"/>
    </comp>
  </station>
</stationlist>
