<?xml version="1.0" encoding="UTF-8" standalone="yes"?>
<!DOCTYPE earthquake SYSTEM "stationlist.dtd">
<stationlist created="" xmlns="ch.ethz.sed.shakemap.usgs.xml">
  <station code="BNN" name="BNN" netid="KO" insttype="CMG-3T" lat="38.8521" lon="35.8472">
    <comp name="--.HHE">
      <acc value="0.0058879567" flag="0"/>
      <vel value="0.0029572650" flag="0"/>
      <psa03 value="0.0160401703" flag="0"/>
      <psa10 value="0.0050691369" flag="0"/>
      <psa30 value="0.0002418321" flag="0"/>
    </comp>
  </station>
  <station code="CEYT" name="CEYT" netid="KO" insttype="CMG-3ESP" lat="37.0105" lon="35.7478">
    <comp name="--.HHN">
      <acc value="0.0017727416" flag="0"/>
      <vel value="0.0013149532" flag="0"/>
      <psa03 value="0.0038331454" flag="0"/>
      <psa10 value="0.0017729640" flag="0"/>
      <psa30 value="0.0002724405" flag="0"/>
    </comp>
    <comp name="--.HHE">
      <acc value="0.0021816972" flag="0"/>
      <vel value="0.0015303741" flag="0"/>
      <psa03 value="0.0062885701" flag="0"/>
      <psa10 value="0.0024115910" flag="0"/>
      <psa30 value="0.0003481274" flag="0"/>
    </comp>
    <comp name="--.HHZ">
      <acc value="0.0014870054" flag="0"/>
      <vel value="0.0008854785" flag="0"/>
      <psa03 value="0.0022476568" flag="0"/>
      <psa10 value="0.0010384080" flag="0"/>
      <psa30 value="0.0001043567" flag="0"/>
    </comp>
  </station>
  <station code="DARE" name="DARE" netid="KO" insttype="CMG-3ESP" lat="38.5712" lon="37.4832">
    <comp name="--.HHE">
      <acc value="0.0134189985" flag="0"/>
      <vel value="0.0052163376" flag="0"/>
      <psa03 value="0.0305188496" flag="0"/>
      <psa10 value="0.0041213304" flag="0"/>
      <psa30 value="0.0001994612" flag="0"/>
    </comp>
    <comp name="--.HHN">
      <acc value="0.0101307389" flag="0"/>
      <vel value="0.0035219696" flag="0"/>
      <psa03 value="0.0195602673" flag="0"/>
      <psa10 value="0.0026066579" flag="0"/>
      <psa30 value="0.0002493056" flag="0"/>
    </comp>
  </station>
  <station code="KMRS" name="KMRS" netid="KO" insttype="CMG-3T" lat="37.5053" lon="36.9">
    <comp name="--.HHE">
      <acc value="0.0155390101" flag="0"/>
      <vel value="0.0070851215" flag="0"/>
      <psa03 value="0.0432651356" flag="0"/>
      <psa10 value="0.0087328640" flag="0"/>
      <psa30 value="0.0008778627" flag="0"/>
    </comp>
    <comp name="--.HHN">
      <acc value="0.0215810303" flag="0"/>
      <vel value="0.0111567196" flag="0"/>
      <psa03 value="0.0473189927" flag="0"/>
      <psa10 value="0.0096026470" flag="0"/>
      <psa30 value="0.0005843138" flag="0"/>
    </comp>
  </station>
  <station code="SARI" name="SARI" netid="KO" insttype="CMG-3T" lat="38.4072" lon="36.4181">
    <comp name="--.HHN">
      <acc value="0.1711351307" flag="0"/>
      <vel value="0.0573426331" flag="0"/>
      <psa03 value="0.2662444566" flag="0"/>
      <psa10 value="0.0282667221" flag="0"/>
      <psa30 value="0.0017332498" flag="0"/>
    </comp>
  </station>
  <station code="ANDN" name="ANDN" netid="TU" insttype="T" lat="37.58" lon="36.3452">
    <comp name="--.HHE">
      <acc value="0.1072674932" flag="0"/>
      <vel value="0.0468980152" flag="0"/>
      <psa03 value="0.1566162532" flag="0"/>
      <psa10 value="0.0510991604" flag="0"/>
      <psa30 value="0.0060960948" flag="0"/>
    </comp>
    <comp name="--.HHZ">
      <acc value="0.0469203165" flag="0"/>
      <vel value="0.0201366635" flag="0"/>
      <psa03 value="0.1229716999" flag="0"/>
      <psa10 value="0.0218632360" flag="0"/>
      <psa30 value="0.0019435508" flag="0"/>
    </comp>
    <comp name="--.HHN">
      <acc value="0.1514513980" flag="0"/>
      <vel value="0.0623671104" flag="0"/>
      <psa03 value="0.2960958061" flag="0"/>
      <psa10 value="0.0488600667" flag="0"/>
      <psa30 value="0.0032603292" flag="0"/>
    </comp>
  </station>
</stationlist>
