<?xml version="1.0" encoding="UTF-8" standalone="yes"?>
<!DOCTYPE earthquake SYSTEM "stationlist.dtd">
<stationlist created="" xmlns="ch.ethz.sed.shakemap.usgs.xml">
  <station code="MYT1" name="MYT1" netid="HI" insttype="CMG-5TD,ACCELEROMETER,GURALP" lat="39.085" lon="26.5694">
    <comp name="--.HNE">
      <acc value="0.0618028864" flag="0"/>
      <vel value="0.0510230419" flag="0"/>
      <psa03 value="0.1452630024" flag="0"/>
      <psa10 value="0.0730289665" flag="0"/>
      <psa30 value="0.0088376100" flag="0"/>
    </comp>
    <comp name="--.HNN">
      <acc value="0.0534043092" flag="0"/>
      <vel value="0.0548124175" flag="0"/>
      <psa03 value="0.1316415746" flag="0"/>
      <psa10 value="0.1355702505" flag="0"/>
      <psa30 value="0.0101704450" flag="0"/>
    </comp>
    <comp name="--.HNZ">
      <acc value="0.0276961237" flag="0"/>
      <vel value="0.0246507202" flag="0"/>
      <psa03 value="0.0909771737" flag="0"/>
      <psa10 value="0.0518092573" flag="0"/>
      <psa30 value="0.0024174239" flag="0"/>
    </comp>
  </station>
  <station code="AKS" name="AKS" netid="KO" insttype="CMG-5T" lat="38.8785" lon="27.8129">
    <comp name="--.HNZ">
      <acc value="0.0328915911" flag="0"/>
      <vel value="0.0126280284" flag="0"/>
      <psa03 value="0.0539331226" flag="0"/>
      <psa10 value="0.0113455124" flag="0"/>
      <psa30 value="0.0013104776" flag="0"/>
    </comp>
    <comp name="--.HNN">
      <acc value="0.0717805309" flag="0"/>
      <vel value="0.0401180475" flag="0"/>
      <psa03 value="0.2946245903" flag="0"/>
      <psa10 value="0.0280760735" flag="0"/>
      <psa30 value="0.0022394429" flag="0"/>
    </comp>
    <comp name="--.HNE">
      <acc value="0.0699865858" flag="0"/>
      <vel value="0.0288887341" flag="0"/>
      <psa03 value="0.1479758123" flag="0"/>
      <psa10 value="0.0236277697" flag="0"/>
      <psa30 value="0.0019486175" flag="0"/>
    </comp>
  </station>
  <station code="AVCI" name="AVCI" netid="KO" insttype="CMG-5T" lat="40.9958" lon="28.7225">
    <comp name="--.HNN">
      <acc value="0.0576280244" flag="0"/>
      <vel value="0.0485661550" flag="0"/>
      <psa03 value="0.1511606197" flag="0"/>
      <psa10 value="0.0657004828" flag="0"/>
      <psa30 value="0.0121581372" flag="0"/>
    </comp>
    <comp name="--.HNE">
      <acc value="0.0732268651" flag="0"/>
      <vel value="0.0535329251" flag="0"/>
      <psa03 value="0.2684188573" flag="0"/>
      <psa10 value="0.0947446227" flag="0"/>
      <psa30 value="0.0081101531" flag="0"/>
    </comp>
    <comp name="--.HNZ">
      <acc value="0.0243014154" flag="0"/>
      <vel value="0.0154705443" flag="0"/>
      <psa03 value="0.0816095736" flag="0"/>
      <psa10 value="0.0208490705" flag="0"/>
      <psa30 value="0.0031563174" flag="0"/>
    </comp>
  </station>
  <station code="BIGA" name="BIGA" netid="KO" insttype="CMG-5T" lat="40.2813" lon="27.1505">
    <comp name="--.HNN">
      <acc value="0.4669332789" flag="0"/>
      <vel value="0.1028784200" flag="0"/>
      <psa03 value="0.7162084464" flag="0"/>
      <psa10 value="0.0393963508" flag="0"/>
      <psa30 value="0.0037470951" flag="0"/>
    </comp>
    <comp name="--.HNE">
      <acc value="0.3311250760" flag="0"/>
      <vel value="0.0894821094" flag="0"/>
      <psa03 value="0.3192666361" flag="0"/>
      <psa10 value="0.0272991132" flag="0"/>
      <psa30 value="0.0035374012" flag="0"/>
    </comp>
    <comp name="--.HNZ">
      <acc value="0.1885721500" flag="0"/>
      <vel value="0.0363154731" flag="0"/>
      <psa03 value="0.2154089993" flag="0"/>
      <psa10 value="0.0111145661" flag="0"/>
      <psa30 value="0.0015011181" flag="0"/>
    </comp>
  </station>
  <station code="CRLT" name="CRLT" netid="KO" insttype="30s," lat="41.129" lon="27.736">
    <comp name="--.HHZ">
      <acc value="0.0376823793" flag="0"/>
      <vel value="0.0275453390" flag="0"/>
      <psa03 value="0.0782763104" flag="0"/>
      <psa10 value="0.0234522884" flag="0"/>
      <psa30 value="0.0020848846" flag="0"/>
    </comp>
    <comp name="--.HHE">
      <acc value="0.0337969266" flag="0"/>
      <vel value="0.0197779498" flag="0"/>
      <psa03 value="0.0712624444" flag="0"/>
      <psa10 value="0.0151850492" flag="0"/>
      <psa30 value="0.0020789946" flag="0"/>
    </comp>
    <comp name="--.HHN">
      <acc value="0.0301789694" flag="0"/>
      <vel value="0.0201246241" flag="0"/>
      <psa03 value="0.0644409586" flag="0"/>
      <psa10 value="0.0294936080" flag="0"/>
      <psa30 value="0.0036260651" flag="0"/>
    </comp>
  </station>
  <station code="DST" name="DST" netid="KO" insttype="CMG-5T" lat="39.6041" lon="28.6267">
    <comp name="--.HNZ">
      <acc value="0.2252269639" flag="0"/>
      <vel value="0.0551023455" flag="0"/>
      <psa03 value="0.3475143672" flag="0"/>
      <psa10 value="0.0303309404" flag="0"/>
      <psa30 value="0.0028297284" flag="0"/>
    </comp>
    <comp name="--.HNE">
      <acc value="0.3851534533" flag="0"/>
      <vel value="0.0853553964" flag="0"/>
      <psa03 value="0.3679172535" flag="0"/>
      <psa10 value="0.0380887786" flag="0"/>
      <psa30 value="0.0026180773" flag="0"/>
    </comp>
  </station>
  <station code="EDC" name="EDC" netid="KO" insttype="120s," lat="40.3465" lon="27.8618">
    <comp name="--.HHN">
      <acc value="0.3447978481" flag="0"/>
      <vel value="0.2022425807" flag="0"/>
      <psa03 value="1.3239522819" flag="0"/>
      <psa10 value="0.0695293700" flag="0"/>
      <psa30 value="0.0064129424" flag="0"/>
    </comp>
    <comp name="--.HHZ">
      <acc value="0.1929182555" flag="0"/>
      <vel value="0.0604173660" flag="0"/>
      <psa03 value="0.2074721512" flag="0"/>
      <psa10 value="0.0207975041" flag="0"/>
      <psa30 value="0.0022048539" flag="0"/>
    </comp>
    <comp name="--.HHE">
      <acc value="0.1979496104" flag="0"/>
      <vel value="0.0758498850" flag="0"/>
      <psa03 value="0.3192766800" flag="0"/>
      <psa10 value="0.0351335320" flag="0"/>
      <psa30 value="0.0022276067" flag="0"/>
    </comp>
  </station>
  <station code="EZN" name="EZN" netid="KO" insttype="120s," lat="39.8255" lon="26.3247">
    <comp name="--.HHN">
      <acc value="0.0384704606" flag="0"/>
      <vel value="0.0114949903" flag="0"/>
      <psa03 value="0.0409250791" flag="0"/>
      <psa10 value="0.0121173727" flag="0"/>
      <psa30 value="0.0007211429" flag="0"/>
    </comp>
    <comp name="--.HHE">
      <acc value="0.0444941042" flag="0"/>
      <vel value="0.0124628249" flag="0"/>
      <psa03 value="0.0616272201" flag="0"/>
      <psa10 value="0.0105621425" flag="0"/>
      <psa30 value="0.0011842199" flag="0"/>
    </comp>
    <comp name="--.HHZ">
      <acc value="0.0258394818" flag="0"/>
      <vel value="0.0102263561" flag="0"/>
      <psa03 value="0.0518256087" flag="0"/>
      <psa10 value="0.0071485703" flag="0"/>
      <psa30 value="0.0009497214" flag="0"/>
    </comp>
  </station>
  <station code="GAZK" name="GAZK" netid="KO" insttype="30s," lat="40.7479" lon="27.3275">
    <comp name="--.HHN">
      <acc value="0.1739099409" flag="0"/>
      <vel value="0.1038725163" flag="0"/>
      <psa03 value="0.6240998350" flag="0"/>
      <psa10 value="0.0841191276" flag="0"/>
      <psa30 value="0.0054472436" flag="0"/>
    </comp>
    <comp name="--.HHZ">
      <acc value="0.0868529460" flag="0"/>
      <vel value="0.0492230053" flag="0"/>
      <psa03 value="0.1599512601" flag="0"/>
      <psa10 value="0.0504174341" flag="0"/>
      <psa30 value="0.0025686785" flag="0"/>
    </comp>
    <comp name="--.HHE">
      <acc value="0.2109389588" flag="0"/>
      <vel value="0.1098841083" flag="0"/>
      <psa03 value="0.3775586251" flag="0"/>
      <psa10 value="0.0651602363" flag="0"/>
      <psa30 value="0.0049856414" flag="0"/>
    </comp>
  </station>
  <station code="GELI" name="GELI" netid="KO" insttype="30s," lat="40.398" lon="26.4742">
    <comp name="--.HHE">
      <acc value="0.0421386526" flag="0"/>
      <vel value="0.0214959907" flag="0"/>
      <psa03 value="0.0814598172" flag="0"/>
      <psa10 value="0.0305094133" flag="0"/>
      <psa30 value="0.0017980129" flag="0"/>
    </comp>
    <comp name="--.HHN">
      <acc value="0.0419562712" flag="0"/>
      <vel value="0.0280707437" flag="0"/>
      <psa03 value="0.0840777441" flag="0"/>
      <psa10 value="0.0458532219" flag="0"/>
      <psa30 value="0.0036415848" flag="0"/>
    </comp>
    <comp name="--.HHZ">
      <acc value="0.0178865366" flag="0"/>
      <vel value="0.0100634479" flag="0"/>
      <psa03 value="0.0391574113" flag="0"/>
      <psa10 value="0.0140175274" flag="0"/>
      <psa30 value="0.0009768283" flag="0"/>
    </comp>
  </station>
  <station code="GOMA" name="GOMA" netid="KO" insttype="CMG-5T" lat="38.7077" lon="27.9175">
    <comp name="--.HNE">
      <acc value="0.1119332531" flag="0"/>
      <vel value="0.0948526329" flag="0"/>
      <psa03 value="0.2558593279" flag="0"/>
      <psa10 value="0.0555767559" flag="0"/>
      <psa30 value="0.0039367786" flag="0"/>
    </comp>
    <comp name="--.HNN">
      <acc value="0.0790737792" flag="0"/>
      <vel value="0.0649109405" flag="0"/>
      <psa03 value="0.1715472786" flag="0"/>
      <psa10 value="0.0389745994" flag="0"/>
      <psa30 value="0.0029939407" flag="0"/>
    </comp>
    <comp name="--.HNZ">
      <acc value="0.0349393558" flag="0"/>
      <vel value="0.0193224118" flag="0"/>
      <psa03 value="0.0788058272" flag="0"/>
      <psa10 value="0.0103235760" flag="0"/>
      <psa30 value="0.0019466924" flag="0"/>
    </comp>
  </station>
  <station code="GONE" name="GONE" netid="KO" insttype="CMG-5T" lat="40.0466" lon="27.686">
    <comp name="--.HNE">
      <acc value="0.8668237496" flag="0"/>
      <vel value="0.3502760224" flag="0"/>
      <psa03 value="1.0659068578" flag="0"/>
      <psa10 value="0.2271450864" flag="0"/>
      <psa30 value="0.0172790968" flag="0"/>
    </comp>
    <comp name="--.HNN">
      <acc value="1.2651285413" flag="0"/>
      <vel value="0.5419006435" flag="0"/>
      <psa03 value="2.3426728896" flag="0"/>
      <psa10 value="0.4490004679" flag="0"/>
      <psa30 value="0.0360192538" flag="0"/>
    </comp>
    <comp name="--.HNZ">
      <acc value="0.5194904464" flag="0"/>
      <vel value="0.1448734895" flag="0"/>
      <psa03 value="0.3034902757" flag="0"/>
      <psa10 value="0.1563013365" flag="0"/>
      <psa30 value="0.0110448952" flag="0"/>
    </comp>
  </station>
  <station code="IZI" name="IZI" netid="KO" insttype="CMG-5T" lat="40.3483" lon="29.4612">
    <comp name="--.HNN">
      <acc value="0.0423493237" flag="0"/>
      <vel value="0.0265403628" flag="0"/>
      <psa03 value="0.0922099647" flag="0"/>
      <psa10 value="0.0237165661" flag="0"/>
      <psa30 value="0.0024973239" flag="0"/>
    </comp>
    <comp name="--.HNZ">
      <acc value="0.0272617807" flag="0"/>
      <vel value="0.0161508884" flag="0"/>
      <psa03 value="0.0762648873" flag="0"/>
      <psa10 value="0.0151883188" flag="0"/>
      <psa30 value="0.0013791690" flag="0"/>
    </comp>
    <comp name="--.HNE">
      <acc value="0.0409214727" flag="0"/>
      <vel value="0.0167935906" flag="0"/>
      <psa03 value="0.0898926793" flag="0"/>
      <psa10 value="0.0195889740" flag="0"/>
      <psa30 value="0.0025240550" flag="0"/>
    </comp>
  </station>
  <station code="KRBG" name="KRBG" netid="KO" insttype="30s," lat="40.3932" lon="27.2977">
    <comp name="--.HHN">
      <acc value="0.0868661981" flag="0"/>
      <vel value="0.0251335611" flag="0"/>
      <psa03 value="0.1363782306" flag="0"/>
      <psa10 value="0.0156850669" flag="0"/>
      <psa30 value="0.0022736222" flag="0"/>
    </comp>
    <comp name="--.HHZ">
      <acc value="0.0504452018" flag="0"/>
      <vel value="0.0110264002" flag="0"/>
      <psa03 value="0.0403437629" flag="0"/>
      <psa10 value="0.0078874426" flag="0"/>
      <psa30 value="0.0012676626" flag="0"/>
    </comp>
    <comp name="--.HHE">
      <acc value="0.0960465399" flag="0"/>
      <vel value="0.0267286926" flag="0"/>
      <psa03 value="0.0960197374" flag="0"/>
      <psa10 value="0.0185018122" flag="0"/>
      <psa30 value="0.0025087445" flag="0"/>
    </comp>
  </station>
  <station code="LAP" name="LAP" netid="KO" insttype="30s," lat="40.3703" lon="26.7593">
    <comp name="--.HHE">
      <acc value="0.0881306257" flag="0"/>
      <vel value="0.0426779194" flag="0"/>
      <psa03 value="0.1620616506" flag="0"/>
      <psa10 value="0.0368421346" flag="0"/>
      <psa30 value="0.0034515183" flag="0"/>
    </comp>
    <comp name="--.HHN">
      <acc value="0.0903683388" flag="0"/>
      <vel value="0.0482376468" flag="0"/>
      <psa03 value="0.1567966299" flag="0"/>
      <psa10 value="0.0459084852" flag="0"/>
      <psa30 value="0.0059172643" flag="0"/>
    </comp>
    <comp name="--.HHZ">
      <acc value="0.0768721167" flag="0"/>
      <vel value="0.0327834505" flag="0"/>
      <psa03 value="0.1174701127" flag="0"/>
      <psa10 value="0.0244301679" flag="0"/>
      <psa30 value="0.0024855299" flag="0"/>
    </comp>
  </station>
  <station code="MDNY" name="MDNY" netid="KO" insttype="30s," lat="40.371" lon="28.8847">
    <comp name="--.HHN">
      <acc value="0.8253338867" flag="0"/>
      <vel value="0.2635767550" flag="0"/>
      <psa03 value="2.4627453231" flag="0"/>
      <psa10 value="0.1167573277" flag="0"/>
      <psa30 value="0.0112545754" flag="0"/>
    </comp>
    <comp name="--.HHE">
      <acc value="0.4900293071" flag="0"/>
      <vel value="0.1704459907" flag="0"/>
      <psa03 value="1.4224666708" flag="0"/>
      <psa10 value="0.0857561337" flag="0"/>
      <psa30 value="0.0061684055" flag="0"/>
    </comp>
    <comp name="--.HHZ">
      <acc value="0.3226509053" flag="0"/>
      <vel value="0.0959102401" flag="0"/>
      <psa03 value="0.4233908753" flag="0"/>
      <psa10 value="0.0314767934" flag="0"/>
      <psa30 value="0.0027145156" flag="0"/>
    </comp>
  </station>
  <station code="MRMT" name="MRMT" netid="KO" insttype="120s," lat="40.609" lon="27.5832">
    <comp name="--.HHE">
      <acc value="0.0312336523" flag="0"/>
      <vel value="0.0205613466" flag="0"/>
      <psa03 value="0.0630564543" flag="0"/>
      <psa10 value="0.0145872235" flag="0"/>
      <psa30 value="0.0008441042" flag="0"/>
    </comp>
    <comp name="--.HHN">
      <acc value="0.0263665903" flag="0"/>
      <vel value="0.0128340613" flag="0"/>
      <psa03 value="0.0507675996" flag="0"/>
      <psa10 value="0.0050052653" flag="0"/>
      <psa30 value="0.0003783119" flag="0"/>
    </comp>
    <comp name="--.HHZ">
      <acc value="0.0291011505" flag="0"/>
      <vel value="0.0140544899" flag="0"/>
      <psa03 value="0.0481920858" flag="0"/>
      <psa10 value="0.0050849234" flag="0"/>
      <psa30 value="0.0003426534" flag="0"/>
    </comp>
  </station>
  <station code="ORLT" name="ORLT" netid="KO" insttype="CMG-5T" lat="40.0452" lon="28.8914">
    <comp name="--.HNE">
      <acc value="0.1922394151" flag="0"/>
      <vel value="0.0788770602" flag="0"/>
      <psa03 value="0.4341533957" flag="0"/>
      <psa10 value="0.0366842299" flag="0"/>
      <psa30 value="0.0033717817" flag="0"/>
    </comp>
    <comp name="--.HNZ">
      <acc value="0.0561549038" flag="0"/>
      <vel value="0.0220846499" flag="0"/>
      <psa03 value="0.1193033556" flag="0"/>
      <psa10 value="0.0142395044" flag="0"/>
      <psa30 value="0.0013204520" flag="0"/>
    </comp>
    <comp name="--.HNN">
      <acc value="0.1647549974" flag="0"/>
      <vel value="0.0713002802" flag="0"/>
      <psa03 value="0.3997048440" flag="0"/>
      <psa10 value="0.0314243471" flag="0"/>
      <psa30 value="0.0034427697" flag="0"/>
    </comp>
  </station>
  <station code="RKY" name="RKY" netid="KO" insttype="30s," lat="40.6875" lon="27.1777">
    <comp name="--.HHE">
      <acc value="0.1787437951" flag="0"/>
      <vel value="0.0592257815" flag="0"/>
      <psa03 value="0.4186014752" flag="0"/>
      <psa10 value="0.0377739684" flag="0"/>
      <psa30 value="0.0025366191" flag="0"/>
    </comp>
    <comp name="--.HHN">
      <acc value="0.1276629478" flag="0"/>
      <vel value="0.0615934073" flag="0"/>
      <psa03 value="0.3450989107" flag="0"/>
      <psa10 value="0.0431818983" flag="0"/>
      <psa30 value="0.0053128218" flag="0"/>
    </comp>
    <comp name="--.HHZ">
      <acc value="0.0568841495" flag="0"/>
      <vel value="0.0242517974" flag="0"/>
      <psa03 value="0.1069315295" flag="0"/>
      <psa10 value="0.0241221052" flag="0"/>
      <psa30 value="0.0018513721" flag="0"/>
    </comp>
  </station>
  <station code="SHAP" name="SHAP" netid="KO" insttype="CMG-5T" lat="39.0231" lon="29.222">
    <comp name="--.HNE">
      <acc value="0.2276171611" flag="0"/>
      <vel value="0.1019189302" flag="0"/>
      <psa03 value="0.5491963703" flag="0"/>
      <psa10 value="0.0281084089" flag="0"/>
      <psa30 value="0.0027872157" flag="0"/>
    </comp>
    <comp name="--.HNN">
      <acc value="0.1291383398" flag="0"/>
      <vel value="0.0629722979" flag="0"/>
      <psa03 value="0.3396344404" flag="0"/>
      <psa10 value="0.0202120012" flag="0"/>
      <psa30 value="0.0026361459" flag="0"/>
    </comp>
    <comp name="--.HNZ">
      <acc value="0.0663875765" flag="0"/>
      <vel value="0.0236792246" flag="0"/>
      <psa03 value="0.1612353198" flag="0"/>
      <psa10 value="0.0102049377" flag="0"/>
      <psa30 value="0.0009548069" flag="0"/>
    </comp>
  </station>
  <station code="SINB" name="SINB" netid="KO" insttype="CMG-5T" lat="40.9998" lon="28.5392">
    <comp name="--.HNE">
      <acc value="0.0906825733" flag="0"/>
      <vel value="0.0689643444" flag="0"/>
      <psa03 value="0.2894585990" flag="0"/>
      <psa10 value="0.0744159568" flag="0"/>
      <psa30 value="0.0075543135" flag="0"/>
    </comp>
    <comp name="--.HNN">
      <acc value="0.0806616938" flag="0"/>
      <vel value="0.0685120613" flag="0"/>
      <psa03 value="0.1556497440" flag="0"/>
      <psa10 value="0.0555689305" flag="0"/>
      <psa30 value="0.0063066854" flag="0"/>
    </comp>
    <comp name="--.HNZ">
      <acc value="0.0316172212" flag="0"/>
      <vel value="0.0168699835" flag="0"/>
      <psa03 value="0.0869090262" flag="0"/>
      <psa10 value="0.0158354486" flag="0"/>
      <psa30 value="0.0017608708" flag="0"/>
    </comp>
  </station>
  <station code="SMAA" name="SMAA" netid="KO" insttype="CMG-5T" lat="39.1005" lon="28.9805">
    <comp name="--.HNE">
      <acc value="0.1679562904" flag="0"/>
      <vel value="0.1214876143" flag="0"/>
      <psa03 value="0.4320128956" flag="0"/>
      <psa10 value="0.1675331079" flag="0"/>
      <psa30 value="0.0090917816" flag="0"/>
    </comp>
    <comp name="--.HNZ">
      <acc value="0.0593207114" flag="0"/>
      <vel value="0.0357908112" flag="0"/>
      <psa03 value="0.1243719858" flag="0"/>
      <psa10 value="0.0642656349" flag="0"/>
      <psa30 value="0.0040417925" flag="0"/>
    </comp>
    <comp name="--.HNN">
      <acc value="0.1261178304" flag="0"/>
      <vel value="0.1020171793" flag="0"/>
      <psa03 value="0.4041386650" flag="0"/>
      <psa10 value="0.1480535600" flag="0"/>
      <psa30 value="0.0127095402" flag="0"/>
    </comp>
  </station>
  <station code="TKR" name="TKR" netid="KO" insttype="CMG-5T" lat="40.9893" lon="27.5351">
    <comp name="--.HNE">
      <acc value="0.1847514852" flag="0"/>
      <vel value="0.0582106829" flag="0"/>
      <psa03 value="0.5432984010" flag="0"/>
      <psa10 value="0.0360810682" flag="0"/>
      <psa30 value="0.0023713200" flag="0"/>
    </comp>
    <comp name="--.HNN">
      <acc value="0.1858655403" flag="0"/>
      <vel value="0.0746876169" flag="0"/>
      <psa03 value="0.4747838469" flag="0"/>
      <psa10 value="0.0341773502" flag="0"/>
      <psa30 value="0.0030899700" flag="0"/>
    </comp>
    <comp name="--.HNZ">
      <acc value="0.0441096632" flag="0"/>
      <vel value="0.0177813009" flag="0"/>
