<stationlist created="1778138971">
	<station code="MYT1" name="MYT1" netid="HI" source="ITSAK Strong Motion Network" insttype="" lat="39.085" lon="26.5694">
		<comp name="--.HNE" depth="0.0">
			<acc value="0.0624836252458018" flag="0"/>
			<vel value="0.0519240099591395" flag="0"/>
			<psa03 value="0.144093441316867" flag="0"/>
			<psa10 value="0.0729721840492053" flag="0"/>
			<psa30 value="0.00992324069932537" flag="0"/>
		</comp>
		<comp name="--.HNN" depth="0.0">
			<acc value="0.05381415855671" flag="0"/>
			<vel value="0.0544476867130018" flag="0"/>
			<psa03 value="0.130523823645916" flag="0"/>
			<psa10 value="0.135664442103366" flag="0"/>
			<psa30 value="0.0111044222801466" flag="0"/>
		</comp>
		<comp name="--.HNZ" depth="0.0">
			<acc value="0.0275196672067563" flag="0"/>
			<vel value="0.0244043686245677" flag="0"/>
			<psa03 value="0.0927232570439591" flag="0"/>
			<psa10 value="0.0517914409287424" flag="0"/>
			<psa30 value="0.00234015064849403" flag="0"/>
		</comp>
	</station>
	<station code="SFL1" name="SFL1" netid="HI" source="ITSAK Strong Motion Network" insttype="" lat="41.189954" lon="26.304374">
		<comp name="--.HNE" depth="0.0">
			<acc value="0.0796559676496687" flag="0"/>
			<vel value="0.0618174378176402" flag="0"/>
			<psa03 value="0.293177046540682" flag="0"/>
			<psa10 value="0.0850634650370291" flag="0"/>
			<psa30 value="0.00738533507552236" flag="0"/>
		</comp>
		<comp name="--.HNN" depth="0.0">
			<acc value="0.0806019994749482" flag="0"/>
			<vel value="0.0593122585683005" flag="0"/>
			<psa03 value="0.239927706533233" flag="0"/>
			<psa10 value="0.0504697333721714" flag="0"/>
			<psa30 value="0.00445838826300842" flag="0"/>
		</comp>
		<comp name="--.HNZ" depth="0.0">
			<acc value="0.0341248147076723" flag="0"/>
			<vel value="0.0182197853042375" flag="0"/>
			<psa03 value="0.0937705347543989" flag="0"/>
			<psa10 value="0.019104667465457" flag="0"/>
			<psa30 value="0.00158714451553542" flag="0"/>
		</comp>
	</station>
	<station code="PRK" name="PRK" netid="HL" source="National Observatory of Athens Seismic Network" insttype="" lat="39.24565" lon="26.26499">
		<comp name="--.HNE" depth="0.0">
			<acc value="0.0332648452306606" flag="0"/>
			<vel value="0.0215959255641825" flag="0"/>
			<psa03 value="0.130588380005849" flag="0"/>
			<psa10 value="0.0258359883824429" flag="0"/>
			<psa30 value="0.00155094336738472" flag="0"/>
		</comp>
		<comp name="--.HNN" depth="0.0">
			<acc value="0.0411852353032543" flag="0"/>
			<vel value="0.0258760076650591" flag="0"/>
			<psa03 value="0.103313218993696" flag="0"/>
			<psa10 value="0.0232489563792519" flag="0"/>
			<psa30 value="0.00311778549632076" flag="0"/>
		</comp>
		<comp name="--.HNZ" depth="0.0">
			<acc value="0.0279001484746373" flag="0"/>
			<vel value="0.015486492890299" flag="0"/>
			<psa03 value="0.0541594471726938" flag="0"/>
			<psa10 value="0.0156847990409715" flag="0"/>
			<psa30 value="0.00120599134934156" flag="0"/>
		</comp>
	</station>
	<station code="AKS" name="AKS" netid="KO" source="Bogazici University Kandilli Observatory And Earthquake Research Institute (KOERI)" insttype="" lat="38.8785" lon="27.8129">
		<comp name="--.HNE" depth="0.0">
			<acc value="0.0699039262100251" flag="0"/>
			<vel value="0.0290478960096517" flag="0"/>
			<psa03 value="0.145051411027222" flag="0"/>
			<psa10 value="0.023696199756927" flag="0"/>
			<psa30 value="0.00201883332113273" flag="0"/>
		</comp>
		<comp name="--.HNN" depth="0.0">
			<acc value="0.0718545248498598" flag="0"/>
			<vel value="0.0400293930373464" flag="0"/>
			<psa03 value="0.295887621935999" flag="0"/>
			<psa10 value="0.0280923347292993" flag="0"/>
			<psa30 value="0.00247432203668983" flag="0"/>
		</comp>
		<comp name="--.HNZ" depth="0.0">
			<acc value="0.0325164705655324" flag="0"/>
			<vel value="0.0127329443766093" flag="0"/>
			<psa03 value="0.0532003211353552" flag="0"/>
			<psa10 value="0.0113896779477814" flag="0"/>
			<psa30 value="0.00138731669458953" flag="0"/>
		</comp>
	</station>
	<station code="ALT" name="ALT" netid="KO" source="Bogazici University Kandilli Observatory And Earthquake Research Institute (KOERI)" insttype="" lat="39.0541" lon="30.1104">
		<comp name="--.HNE" depth="0.0">
			<acc value="0.0106685033668102" flag="0"/>
			<vel value="0.00365138488835132" flag="0"/>
			<psa03 value="0.0135412069343496" flag="0"/>
			<psa10 value="0.00461961790199869" flag="0"/>
			<psa30 value="0.000643845255756839" flag="0"/>
		</comp>
		<comp name="--.HNN" depth="0.0">
			<acc value="0.0197661101976158" flag="0"/>
			<vel value="0.00711660995090799" flag="0"/>
			<psa03 value="0.0317160802013148" flag="0"/>
			<psa10 value="0.00407144971357741" flag="0"/>
			<psa30 value="0.000980240769472602" flag="0"/>
		</comp>
		<comp name="--.HNZ" depth="0.0">
			<acc value="0.00668225860590382" flag="0"/>
			<vel value="0.00393720675117623" flag="0"/>
			<psa03 value="0.0178456873975528" flag="0"/>
			<psa10 value="0.00280270785313948" flag="0"/>
			<psa30 value="0.00076562894832835" flag="0"/>
		</comp>
	</station>
	<station code="AVCI" name="AVCI" netid="KO" source="Bogazici University Kandilli Observatory And Earthquake Research Institute (KOERI)" insttype="" lat="40.9958" lon="28.7225">
		<comp name="--.HNE" depth="0.0">
			<acc value="0.0732416908817655" flag="0"/>
			<vel value="0.0522040635408289" flag="0"/>
			<psa03 value="0.270669180504854" flag="0"/>
			<psa10 value="0.0947413036465956" flag="0"/>
			<psa30 value="0.00924458740853021" flag="0"/>
		</comp>
		<comp name="--.HNN" depth="0.0">
			<acc value="0.0579830866055973" flag="0"/>
			<vel value="0.048538339858646" flag="0"/>
			<psa03 value="0.153376254174141" flag="0"/>
			<psa10 value="0.0662111986668735" flag="0"/>
			<psa30 value="0.0144511323165728" flag="0"/>
		</comp>
		<comp name="--.HNZ" depth="0.0">
			<acc value="0.0245712179092479" flag="0"/>
			<vel value="0.0157061072748156" flag="0"/>
			<psa03 value="0.0809044376468708" flag="0"/>
			<psa10 value="0.020925525588359" flag="0"/>
			<psa30 value="0.00339827303557731" flag="0"/>
		</comp>
	</station>
	<station code="BIGA" name="BIGA" netid="KO" source="Bogazici University Kandilli Observatory And Earthquake Research Institute (KOERI)" insttype="" lat="40.28134" lon="27.15048">
		<comp name="--.HNE" depth="0.0">
			<acc value="0.330480796908911" flag="0"/>
			<vel value="0.0894172176079336" flag="0"/>
			<psa03 value="0.328686628042445" flag="0"/>
			<psa10 value="0.0274362737684727" flag="0"/>
			<psa30 value="0.00392951697788134" flag="0"/>
		</comp>
		<comp name="--.HNN" depth="0.0">
			<acc value="0.470882214673776" flag="0"/>
			<vel value="0.104538231092844" flag="0"/>
			<psa03 value="0.728757359933822" flag="0"/>
			<psa10 value="0.0396351493841311" flag="0"/>
			<psa30 value="0.00393247175695581" flag="0"/>
		</comp>
		<comp name="--.HNZ" depth="0.0">
			<acc value="0.180392756696345" flag="0"/>
			<vel value="0.036345213876264" flag="0"/>
			<psa03 value="0.219407367994559" flag="0"/>
			<psa10 value="0.0110972626391965" flag="0"/>
			<psa30 value="0.00168903980726636" flag="0"/>
		</comp>
	</station>
	<station code="BOTS" name="BOTS" netid="KO" source="Bogazici University Kandilli Observatory And Earthquake Research Institute (KOERI)" insttype="" lat="40.9902" lon="27.981">
		<comp name="--.HNE" depth="0.0">
			<acc value="0.0567109341238629" flag="0"/>
			<vel value="0.0257468235720853" flag="0"/>
			<psa03 value="0.140764970821814" flag="0"/>
			<psa10 value="0.0201646114315376" flag="0"/>
			<psa30 value="0.00192644615926982" flag="0"/>
		</comp>
		<comp name="--.HNN" depth="0.0">
			<acc value="0.0491110133962743" flag="0"/>
			<vel value="0.025782700782835" flag="0"/>
			<psa03 value="0.130994875684371" flag="0"/>
			<psa10 value="0.0145571546525606" flag="0"/>
			<psa30 value="0.00295724736145802" flag="0"/>
		</comp>
		<comp name="--.HNZ" depth="0.0">
			<acc value="0.0344668168026768" flag="0"/>
			<vel value="0.0234121931224991" flag="0"/>
			<psa03 value="0.0577161150761675" flag="0"/>
			<psa10 value="0.0161498673494723" flag="0"/>
			<psa30 value="0.00137511005262642" flag="0"/>
		</comp>
	</station>
	<station code="BRGA" name="BRGA" netid="KO" source="Bogazici University Kandilli Observatory And Earthquake Research Institute (KOERI)" insttype="" lat="40.8846" lon="29.065">
		<comp name="--.HNE" depth="0.0">
			<acc value="0.0435540296139259" flag="0"/>
			<vel value="0.0379255632926511" flag="0"/>
			<psa03 value="0.108756923362465" flag="0"/>
			<psa10 value="0.0668001301808068" flag="0"/>
			<psa30 value="0.00397555002734365" flag="0"/>
		</comp>
		<comp name="--.HNN" depth="0.0">
			<acc value="0.0632724520553171" flag="0"/>
			<vel value="0.0401364088172664" flag="0"/>
			<psa03 value="0.201603334398138" flag="0"/>
			<psa10 value="0.0565112110905526" flag="0"/>
			<psa30 value="0.00306490595164608" flag="0"/>
		</comp>
		<comp name="--.HNZ" depth="0.0">
			<acc value="0.0355679323398473" flag="0"/>
			<vel value="0.0151727289027346" flag="0"/>
			<psa03 value="0.0796092528889111" flag="0"/>
			<psa10 value="0.0211472646524918" flag="0"/>
			<psa30 value="0.00158921475684481" flag="0"/>
		</comp>
	</station>
	<station code="BUYA" name="BUYA" netid="KO" source="Bogazici University Kandilli Observatory And Earthquake Research Institute (KOERI)" insttype="" lat="40.8694" lon="29.1278">
		<comp name="--.HNE" depth="0.0">
			<acc value="0.0709054502356599" flag="0"/>
			<vel value="0.0426434804858642" flag="0"/>
			<psa03 value="0.193299096783207" flag="0"/>
			<psa10 value="0.0261638313504293" flag="0"/>
			<psa30 value="0.00327501466198279" flag="0"/>
		</comp>
		<comp name="--.HNN" depth="0.0">
			<acc value="0.0750921764337877" flag="0"/>
			<vel value="0.0375397642916308" flag="0"/>
			<psa03 value="0.182901595499644" flag="0"/>
			<psa10 value="0.0332684088688025" flag="0"/>
			<psa30 value="0.00334850390528197" flag="0"/>
		</comp>
		<comp name="--.HNZ" depth="0.0">
			<acc value="0.0606555251172939" flag="0"/>
			<vel value="0.0264120562815746" flag="0"/>
			<psa03 value="0.166555710581564" flag="0"/>
			<psa10 value="0.0127386198085443" flag="0"/>
			<psa30 value="0.001461314721596" flag="0"/>
		</comp>
	</station>
	<station code="CANM" name="CANM" netid="KO" source="Bogazici University Kandilli Observatory And Earthquake Research Institute (KOERI)" insttype="" lat="40.0113" lon="27.0529">
		<comp name="--.HNE" depth="0.0">
			<acc value="0.18416474001968" flag="0"/>
			<vel value="0.0523704371153853" flag="0"/>
			<psa03 value="0.30866582259608" flag="0"/>
			<psa10 value="0.0602219806605332" flag="0"/>
			<psa30 value="0.00257919648410979" flag="0"/>
		</comp>
		<comp name="--.HNN" depth="0.0">
			<acc value="0.197034515226532" flag="0"/>
			<vel value="0.0605056095115557" flag="0"/>
			<psa03 value="0.288742336096035" flag="0"/>
			<psa10 value="0.0567049001714587" flag="0"/>
			<psa30 value="0.00461171467013357" flag="0"/>
		</comp>
		<comp name="--.HNZ" depth="0.0">
			<acc value="0.231413553583249" flag="0"/>
			<vel value="0.0569714251665756" flag="0"/>
			<psa03 value="0.378817094773395" flag="0"/>
			<psa10 value="0.019482420614771" flag="0"/>
			<psa30 value="0.00171454274670906" flag="0"/>
		</comp>
	</station>
	<station code="CESE" name="CESE" netid="KO" source="Bogazici University Kandilli Observatory And Earthquake Research Institute (KOERI)" insttype="" lat="38.3306" lon="26.2997">
		<comp name="--.HNE" depth="0.0">
			<acc value="0.00795104327879121" flag="0"/>
			<vel value="0.00656175114266168" flag="0"/>
			<psa03 value="0.0214867046387264" flag="0"/>
			<psa10 value="0.00622195514272946" flag="0"/>
			<psa30 value="0.00281783458437694" flag="0"/>
		</comp>
		<comp name="--.HNN" depth="0.0">
			<acc value="0.00874110396504245" flag="0"/>
			<vel value="0.0063292610162139" flag="0"/>
			<psa03 value="0.0268702617938174" flag="0"/>
			<psa10 value="0.00789866074751843" flag="0"/>
			<psa30 value="0.00109253018726255" flag="0"/>
		</comp>
		<comp name="--.HNZ" depth="0.0">
			<acc value="0.00539335636640933" flag="0"/>
			<vel value="0.00673365867672201" flag="0"/>
			<psa03 value="0.0136153863275013" flag="0"/>
			<psa10 value="0.00707816686257272" flag="0"/>
			<psa30 value="0.00190878894789868" flag="0"/>
		</comp>
	</station>
	<station code="CTYL" name="CTYL" netid="KO" source="Bogazici University Kandilli Observatory And Earthquake Research Institute (KOERI)" insttype="" lat="41.476" lon="28.2897">
		<comp name="--.HNE" depth="0.0">
			<acc value="0.0304255126810109" flag="0"/>
			<vel value="0.0170145103893541" flag="0"/>
			<psa03 value="0.0919489036637259" flag="0"/>
			<psa10 value="0.0209581958776103" flag="0"/>
			<psa30 value="0.00192227234110757" flag="0"/>
		</comp>
		<comp name="--.HNN" depth="0.0">
			<acc value="0.0347737435503658" flag="0"/>
			<vel value="0.02185321252716" flag="0"/>
			<psa03 value="0.0818790803373924" flag="0"/>
			<psa10 value="0.0201596367270088" flag="0"/>
			<psa30 value="0.000889239636930095" flag="0"/>
		</comp>
		<comp name="--.HNZ" depth="0.0">
			<acc value="0.0180574128400355" flag="0"/>
			<vel value="0.00980052593523161" flag="0"/>
			<psa03 value="0.0603324498538559" flag="0"/>
			<psa10 value="0.0114107252795663" flag="0"/>
			<psa30 value="0.000906840177876022" flag="0"/>
		</comp>
	</station>
	<station code="DST" name="DST" netid="KO" source="Bogazici University Kandilli Observatory And Earthquake Research Institute (KOERI)" insttype="" lat="39.6041" lon="28.6267">
		<comp name="--.HNE" depth="0.0">
			<acc value="0.371967395886077" flag="0"/>
			<vel value="0.085384937389278" flag="0"/>
			<psa03 value="0.372662978760185" flag="0"/>
			<psa10 value="0.0381445081364763" flag="0"/>
			<psa30 value="0.00253607008552805" flag="0"/>
		</comp>
		<comp name="--.HNN" depth="0.0">
			<acc value="0.174599859596019" flag="0"/>
			<vel value="0.0746330868286664" flag="0"/>
			<psa03 value="0.256713255993356" flag="0"/>
			<psa10 value="0.0593481840258657" flag="0"/>
			<psa30 value="0.00451051546619024" flag="0"/>
		</comp>
		<comp name="--.HNZ" depth="0.0">
			<acc value="0.225067823728318" flag="0"/>
			<vel value="0.0566735437928819" flag="0"/>
			<psa03 value="0.34093668954932" flag="0"/>
			<psa10 value="0.0303896300388549" flag="0"/>
			<psa30 value="0.00289756257430156" flag="0"/>
		</comp>
	</station>
	<station code="EDC" name="EDC" netid="KO" source="Bogazici University Kandilli Observatory And Earthquake Research Institute (KOERI)" insttype="" lat="40.3465" lon="27.8618">
		<comp name="--.HNE" depth="0.0">
			<acc value="0.207005710611587" flag="0"/>
			<vel value="0.0807981366748305" flag="0"/>
			<psa03 value="0.340222413065018" flag="0"/>
			<psa10 value="0.0372320051876354" flag="0"/>
			<psa30 value="0.00246096531854248" flag="0"/>
		</comp>
		<comp name="--.HNN" depth="0.0">
			<acc value="0.346767329277104" flag="0"/>
			<vel value="0.196917439942304" flag="0"/>
			<psa03 value="1.32017362168991" flag="0"/>
			<psa10 value="0.0680239562531997" flag="0"/>
			<psa30 value="0.00630044445687848" flag="0"/>
		</comp>
		<comp name="--.HNZ" depth="0.0">
			<acc value="0.186313431011549" flag="0"/>
			<vel value="0.0588324985695745" flag="0"/>
			<psa03 value="0.248081725863673" flag="0"/>
			<psa10 value="0.0211558283447979" flag="0"/>
			<psa30 value="0.00211424109976183" flag="0"/>
		</comp>
	</station>
	<station code="ENZZ" name="ENZZ" netid="KO" source="Bogazici University Kandilli Observatory And Earthquake Research Institute (KOERI)" insttype="" lat="40.607" lon="26.1406">
		<comp name="--.HNE" depth="0.0">
			<acc value="0.134457956587186" flag="0"/>
			<vel value="0.0643224104219495" flag="0"/>
			<psa03 value="0.483017622549007" flag="0"/>
			<psa10 value="0.0931666943362901" flag="0"/>
			<psa30 value="0.00612169303211621" flag="0"/>
		</comp>
		<comp name="--.HNN" depth="0.0">
			<acc value="0.125671849630581" flag="0"/>
			<vel value="0.0901243137684696" flag="0"/>
			<psa03 value="0.252939922695288" flag="0"/>
			<psa10 value="0.0900213084696959" flag="0"/>
			<psa30 value="0.00634551910950119" flag="0"/>
		</comp>
		<comp name="--.HNZ" depth="0.0">
			<acc value="0.0595214492268987" flag="0"/>
			<vel value="0.0289033546987183" flag="0"/>
			<psa03 value="0.206097277933361" flag="0"/>
			<psa10 value="0.0250103655639648" flag="0"/>
			<psa30 value="0.00266649351711008" flag="0"/>
		</comp>
	</station>
	<station code="EZNE" name="EZNE" netid="KO" source="Bogazici University Kandilli Observatory And Earthquake Research Institute (KOERI)" insttype="" lat="39.756" lon="26.3655">
		<comp name="--.HNE" depth="0.0">
			<acc value="0.0502003125015024" flag="0"/>
			<vel value="0.027629377752015" flag="0"/>
			<psa03 value="0.176928512312509" flag="0"/>
			<psa10 value="0.0274218840652207" flag="0"/>
			<psa30 value="0.00220326616390374" flag="0"/>
		</comp>
		<comp name="--.HNN" depth="0.0">
			<acc value="0.0677186443792598" flag="0"/>
			<vel value="0.0281294934207233" flag="0"/>
			<psa03 value="0.197474519217539" flag="0"/>
			<psa10 value="0.0235233470563105" flag="0"/>
			<psa30 value="0.00194958560881102" flag="0"/>
		</comp>
		<comp name="--.HNZ" depth="0.0">
			<acc value="0.0446536228135439" flag="0"/>
			<vel value="0.0178062176047564" flag="0"/>
			<psa03 value="0.08102761247324" flag="0"/>
			<psa10 value="0.0115131558150846" flag="0"/>
			<psa30 value="0.00131204577075757" flag="0"/>
		</comp>
	</station>
	<station code="FOCM" name="FOCM" netid="KO" source="Bogazici University Kandilli Observatory And Earthquake Research Institute (KOERI)" insttype="" lat="38.7131" lon="26.7309">
		<comp name="--.HNE" depth="0.0">
			<acc value="0.0249404179370814" flag="0"/>
			<vel value="0.0207168081984172" flag="0"/>
			<psa03 value="0.0558531947917813" flag="0"/>
			<psa10 value="0.02050323261353" flag="0"/>
			<psa30 value="0.00448628594441259" flag="0"/>
		</comp>
		<comp name="--.HNN" depth="0.0">
			<acc value="0.0359517612504942" flag="0"/>
			<vel value="0.0188104728738923" flag="0"/>
			<psa03 value="0.0904207920170255" flag="0"/>
			<psa10 value="0.0189408997416474" flag="0"/>
			<psa30 value="0.00425344301972457" flag="0"/>
		</comp>
		<comp name="--.HNZ" depth="0.0">
			<acc value="0.0199471226493238" flag="0"/>
			<vel value="0.00994251317651163" flag="0"/>
			<psa03 value="0.0461263837715023" flag="0"/>
			<psa10 value="0.00947451232744571" flag="0"/>
			<psa30 value="0.000863198641007987" flag="0"/>
		</comp>
	</station>
	<station code="GMLD" name="GMLD" netid="KO" source="Bogazici University Kandilli Observatory And Earthquake Research Institute (KOERI)" insttype="" lat="38.0766" lon="26.9157">
		<comp name="--.HNE" depth="0.0">
			<acc value="0.0436724687769961" flag="0"/>
			<vel value="0.0322590108933743" flag="0"/>
			<psa03 value="0.0925627984978891" flag="0"/>
			<psa10 value="0.0259920118432193" flag="0"/>
			<psa30 value="0.00333554179660524" flag="0"/>
		</comp>
		<comp name="--.HNN" depth="0.0">
			<acc value="0.0388184231302234" flag="0"/>
			<vel value="0.0279879872718556" flag="0"/>
			<psa03 value="0.118452971928248" flag="0"/>
			<psa10 value="0.0152088221973294" flag="0"/>
			<psa30 value="0.00156865204049919" flag="0"/>
		</comp>
		<comp name="--.HNZ" depth="0.0">
			<acc value="0.0270500724468771" flag="0"/>
			<vel value="0.0129168660338291" flag="0"/>
			<psa03 value="0.0890046357036017" flag="0"/>
			<psa10 value="0.0112743624961834" flag="0"/>
			<psa30 value="0.00113905056067836" flag="0"/>
		</comp>
	</station>
	<station code="GOKC" name="GOKC" netid="KO" source="Bogazici University Kandilli Observatory And Earthquake Research Institute (KOERI)" insttype="" lat="40.1998" lon="25.9183">
		<comp name="--.HNE" depth="0.0">
			<acc value="0.198478358042266" flag="0"/>
			<vel value="0.147203572779562" flag="0"/>
			<psa03 value="0.503991053599925" flag="0"/>
			<psa10 value="0.0689492925523468" flag="0"/>
			<psa30 value="0.00673544785704256" flag="0"/>
		</comp>
