<?xml version="1.0" encoding="UTF-8" standalone="yes"?>
<!DOCTYPE earthquake SYSTEM "stationlist.dtd">
<stationlist created="" xmlns="ch.ethz.sed.shakemap.usgs.xml">
  <station code="AKS" name="AKS" netid="KO" insttype="CMG-5T" lat="38.8785" lon="27.8129">
    <comp name="--.HNN">
      <acc value="0.0717805755" flag="0"/>
      <vel value="0.0401180525" flag="0"/>
      <psa03 value="0.2946245903" flag="0"/>
      <psa10 value="0.0280760742" flag="0"/>
      <psa30 value="0.0022394440" flag="0"/>
    </comp>
    <comp name="--.HNZ">
      <acc value="0.0328915988" flag="0"/>
      <vel value="0.0126280324" flag="0"/>
      <psa03 value="0.0539331226" flag="0"/>
      <psa10 value="0.0113455122" flag="0"/>
      <psa30 value="0.0013067996" flag="0"/>
    </comp>
    <comp name="--.HNE">
      <acc value="0.0699865742" flag="0"/>
      <vel value="0.0288887482" flag="0"/>
      <psa03 value="0.1479758123" flag="0"/>
      <psa10 value="0.0236277700" flag="0"/>
      <psa30 value="0.0019485709" flag="0"/>
    </comp>
  </station>
  <station code="BIGA" name="BIGA" netid="KO" insttype="CMG-5T" lat="40.2813" lon="27.1505">
    <comp name="--.HNE">
      <acc value="0.3311250894" flag="0"/>
      <vel value="0.0894821137" flag="0"/>
      <psa03 value="0.3192666361" flag="0"/>
      <psa10 value="0.0272991101" flag="0"/>
      <psa30 value="0.0035389792" flag="0"/>
    </comp>
    <comp name="--.HNN">
      <acc value="0.4669332998" flag="0"/>
      <vel value="0.1028784072" flag="0"/>
      <psa03 value="0.7162084464" flag="0"/>
      <psa10 value="0.0393963548" flag="0"/>
      <psa30 value="0.0037443727" flag="0"/>
    </comp>
    <comp name="--.HNZ">
      <acc value="0.1885721916" flag="0"/>
      <vel value="0.0363154608" flag="0"/>
      <psa03 value="0.2154089993" flag="0"/>
      <psa10 value="0.0111145659" flag="0"/>
      <psa30 value="0.0015015092" flag="0"/>
    </comp>
  </station>
  <station code="EDC" name="EDC" netid="KO" insttype="120s," lat="40.3465" lon="27.8618">
    <comp name="--.HHE">
      <acc value="0.1979496105" flag="0"/>
      <vel value="0.0758498852" flag="0"/>
      <psa03 value="0.3192766800" flag="0"/>
      <psa10 value="0.0351335317" flag="0"/>
      <psa30 value="0.0022276329" flag="0"/>
    </comp>
    <comp name="--.HHN">
      <acc value="0.3447978478" flag="0"/>
      <vel value="0.2022425805" flag="0"/>
      <psa03 value="1.3239522819" flag="0"/>
      <psa10 value="0.0695293695" flag="0"/>
      <psa30 value="0.0064130673" flag="0"/>
    </comp>
    <comp name="--.HHZ">
      <acc value="0.1929182554" flag="0"/>
      <vel value="0.0604173655" flag="0"/>
      <psa03 value="0.2074721512" flag="0"/>
      <psa10 value="0.0207975051" flag="0"/>
      <psa30 value="0.0022047602" flag="0"/>
    </comp>
  </station>
  <station code="GAZK" name="GAZK" netid="KO" insttype="30s," lat="40.7479" lon="27.3275">
    <comp name="--.HHZ">
      <acc value="0.0868529393" flag="0"/>
      <vel value="0.0492230071" flag="0"/>
      <psa03 value="0.1599512601" flag="0"/>
      <psa10 value="0.0504174342" flag="0"/>
      <psa30 value="0.0025686790" flag="0"/>
    </comp>
    <comp name="--.HHN">
      <acc value="0.1739099389" flag="0"/>
      <vel value="0.1038725093" flag="0"/>
      <psa03 value="0.6240998350" flag="0"/>
      <psa10 value="0.0841191276" flag="0"/>
      <psa30 value="0.0054472029" flag="0"/>
    </comp>
    <comp name="--.HHE">
      <acc value="0.2109389607" flag="0"/>
      <vel value="0.1098841098" flag="0"/>
      <psa03 value="0.3775586251" flag="0"/>
      <psa10 value="0.0651602366" flag="0"/>
      <psa30 value="0.0049855651" flag="0"/>
    </comp>
  </station>
  <station code="GOMA" name="GOMA" netid="KO" insttype="CMG-5T" lat="38.7077" lon="27.9175">
    <comp name="--.HNE">
      <acc value="0.1119332371" flag="0"/>
      <vel value="0.0948526307" flag="0"/>
      <psa03 value="0.2558593279" flag="0"/>
      <psa10 value="0.0555767564" flag="0"/>
      <psa30 value="0.0039360570" flag="0"/>
    </comp>
    <comp name="--.HNZ">
      <acc value="0.0349393463" flag="0"/>
      <vel value="0.0193224114" flag="0"/>
      <psa03 value="0.0788058272" flag="0"/>
      <psa10 value="0.0103235759" flag="0"/>
      <psa30 value="0.0019464835" flag="0"/>
    </comp>
    <comp name="--.HNN">
      <acc value="0.0790737832" flag="0"/>
      <vel value="0.0649109447" flag="0"/>
      <psa03 value="0.1715472786" flag="0"/>
      <psa10 value="0.0389745994" flag="0"/>
      <psa30 value="0.0029940063" flag="0"/>
    </comp>
  </station>
  <station code="GONE" name="GONE" netid="KO" insttype="CMG-5T" lat="40.0466" lon="27.686">
    <comp name="--.HNE">
      <acc value="0.8668237515" flag="0"/>
      <vel value="0.3502760229" flag="0"/>
      <psa03 value="1.0659068578" flag="0"/>
      <psa10 value="0.2271450867" flag="0"/>
      <psa30 value="0.0172799609" flag="0"/>
    </comp>
    <comp name="--.HNZ">
      <acc value="0.5194904507" flag="0"/>
      <vel value="0.1448734881" flag="0"/>
      <psa03 value="0.3034902757" flag="0"/>
      <psa10 value="0.1563013326" flag="0"/>
      <psa30 value="0.0110452068" flag="0"/>
    </comp>
    <comp name="--.HNN">
      <acc value="1.2651285417" flag="0"/>
      <vel value="0.5419006441" flag="0"/>
      <psa03 value="2.3426728896" flag="0"/>
      <psa10 value="0.4490004696" flag="0"/>
      <psa30 value="0.0360195313" flag="0"/>
    </comp>
  </station>
  <station code="KRBG" name="KRBG" netid="KO" insttype="30s," lat="40.3932" lon="27.2977">
    <comp name="--.HHN">
      <acc value="0.0868661974" flag="0"/>
      <vel value="0.0251335610" flag="0"/>
      <psa03 value="0.1363782306" flag="0"/>
      <psa10 value="0.0156850668" flag="0"/>
      <psa30 value="0.0022736332" flag="0"/>
    </comp>
    <comp name="--.HHE">
      <acc value="0.0960465397" flag="0"/>
      <vel value="0.0267286915" flag="0"/>
      <psa03 value="0.0960197374" flag="0"/>
      <psa10 value="0.0185018122" flag="0"/>
      <psa30 value="0.0025087475" flag="0"/>
    </comp>
    <comp name="--.HHZ">
      <acc value="0.0504452019" flag="0"/>
      <vel value="0.0110263978" flag="0"/>
      <psa03 value="0.0403437629" flag="0"/>
      <psa10 value="0.0078874424" flag="0"/>
      <psa30 value="0.0012677051" flag="0"/>
    </comp>
  </station>
  <station code="LAP" name="LAP" netid="KO" insttype="30s," lat="40.3703" lon="26.7593">
    <comp name="--.HHE">
      <acc value="0.0881306257" flag="0"/>
      <vel value="0.0426779191" flag="0"/>
      <psa03 value="0.1620616506" flag="0"/>
      <psa10 value="0.0368421346" flag="0"/>
      <psa30 value="0.0034515272" flag="0"/>
    </comp>
    <comp name="--.HHN">
      <acc value="0.0903683390" flag="0"/>
      <vel value="0.0482376488" flag="0"/>
      <psa03 value="0.1567966299" flag="0"/>
      <psa10 value="0.0459084852" flag="0"/>
      <psa30 value="0.0059173717" flag="0"/>
    </comp>
    <comp name="--.HHZ">
      <acc value="0.0768721167" flag="0"/>
      <vel value="0.0327834509" flag="0"/>
      <psa03 value="0.1174701127" flag="0"/>
      <psa10 value="0.0244301681" flag="0"/>
      <psa30 value="0.0024854750" flag="0"/>
    </comp>
  </station>
  <station code="MDNY" name="MDNY" netid="KO" insttype="30s," lat="40.371" lon="28.8847">
    <comp name="--.HHN">
      <acc value="0.8253338868" flag="0"/>
      <vel value="0.2635767560" flag="0"/>
      <psa03 value="2.4627453231" flag="0"/>
      <psa10 value="0.1167573276" flag="0"/>
      <psa30 value="0.0112545816" flag="0"/>
    </comp>
    <comp name="--.HHZ">
      <acc value="0.3226509055" flag="0"/>
      <vel value="0.0959102397" flag="0"/>
      <psa03 value="0.4233908753" flag="0"/>
      <psa10 value="0.0314767934" flag="0"/>
      <psa30 value="0.0027145487" flag="0"/>
    </comp>
    <comp name="--.HHE">
      <acc value="0.4900293078" flag="0"/>
      <vel value="0.1704459919" flag="0"/>
      <psa03 value="1.4224666708" flag="0"/>
      <psa10 value="0.0857561336" flag="0"/>
      <psa30 value="0.0061683740" flag="0"/>
    </comp>
  </station>
  <station code="MRMT" name="MRMT" netid="KO" insttype="120s," lat="40.609" lon="27.5832">
    <comp name="--.HHE">
      <acc value="0.0312336522" flag="0"/>
      <vel value="0.0205613468" flag="0"/>
      <psa03 value="0.0630564543" flag="0"/>
      <psa10 value="0.0145872235" flag="0"/>
      <psa30 value="0.0008440722" flag="0"/>
    </comp>
    <comp name="--.HHN">
      <acc value="0.0263665903" flag="0"/>
      <vel value="0.0128340614" flag="0"/>
      <psa03 value="0.0507675996" flag="0"/>
      <psa10 value="0.0050052653" flag="0"/>
      <psa30 value="0.0003782600" flag="0"/>
    </comp>
    <comp name="--.HHZ">
      <acc value="0.0291011502" flag="0"/>
      <vel value="0.0140544900" flag="0"/>
      <psa03 value="0.0481920858" flag="0"/>
      <psa10 value="0.0050849234" flag="0"/>
      <psa30 value="0.0003426363" flag="0"/>
    </comp>
  </station>
  <station code="ORLT" name="ORLT" netid="KO" insttype="CMG-5T" lat="40.0452" lon="28.8914">
    <comp name="--.HNE">
      <acc value="0.1922394063" flag="0"/>
      <vel value="0.0788770565" flag="0"/>
      <psa03 value="0.4341533957" flag="0"/>
      <psa10 value="0.0366842297" flag="0"/>
      <psa30 value="0.0033723553" flag="0"/>
    </comp>
    <comp name="--.HNN">
      <acc value="0.1647549873" flag="0"/>
      <vel value="0.0713002836" flag="0"/>
      <psa03 value="0.3997048440" flag="0"/>
      <psa10 value="0.0314243448" flag="0"/>
      <psa30 value="0.0034412713" flag="0"/>
    </comp>
    <comp name="--.HNZ">
      <acc value="0.0561549191" flag="0"/>
      <vel value="0.0220846529" flag="0"/>
      <psa03 value="0.1193033556" flag="0"/>
      <psa10 value="0.0142395052" flag="0"/>
      <psa30 value="0.0013220753" flag="0"/>
    </comp>
  </station>
  <station code="RKY" name="RKY" netid="KO" insttype="30s," lat="40.6875" lon="27.1777">
    <comp name="--.HHN">
      <acc value="0.1276629485" flag="0"/>
      <vel value="0.0615934118" flag="0"/>
      <psa03 value="0.3450989107" flag="0"/>
      <psa10 value="0.0431818982" flag="0"/>
      <psa30 value="0.0053127634" flag="0"/>
    </comp>
    <comp name="--.HHZ">
      <acc value="0.0568841491" flag="0"/>
      <vel value="0.0242518050" flag="0"/>
      <psa03 value="0.1069315295" flag="0"/>
      <psa10 value="0.0241221051" flag="0"/>
      <psa30 value="0.0018513839" flag="0"/>
    </comp>
    <comp name="--.HHE">
      <acc value="0.1787437960" flag="0"/>
      <vel value="0.0592257868" flag="0"/>
      <psa03 value="0.4186014752" flag="0"/>
      <psa10 value="0.0377739684" flag="0"/>
      <psa30 value="0.0025365671" flag="0"/>
    </comp>
  </station>
  <station code="SMAA" name="SMAA" netid="KO" insttype="CMG-5T" lat="39.1005" lon="28.9805">
    <comp name="--.HNN">
      <acc value="0.1261178264" flag="0"/>
      <vel value="0.1020171761" flag="0"/>
      <psa03 value="0.4041386650" flag="0"/>
      <psa10 value="0.1480535603" flag="0"/>
      <psa30 value="0.0127091420" flag="0"/>
    </comp>
    <comp name="--.HNE">
      <acc value="0.1679563067" flag="0"/>
      <vel value="0.1214876177" flag="0"/>
      <psa03 value="0.4320128956" flag="0"/>
      <psa10 value="0.1675331085" flag="0"/>
      <psa30 value="0.0090920194" flag="0"/>
    </comp>
    <comp name="--.HNZ">
      <acc value="0.0593206984" flag="0"/>
      <vel value="0.0357908023" flag="0"/>
      <psa03 value="0.1243719858" flag="0"/>
      <psa10 value="0.0642656347" flag="0"/>
      <psa30 value="0.0040410862" flag="0"/>
    </comp>
  </station>
  <station code="YAYO" name="YAYO" netid="KO" insttype="30s," lat="39.6113" lon="27.0726">
    <comp name="--.HHN">
      <acc value="0.1073845145" flag="0"/>
      <vel value="0.0584370973" flag="0"/>
      <psa03 value="0.3242341055" flag="0"/>
      <psa10 value="0.0493072792" flag="0"/>
      <psa30 value="0.0028954922" flag="0"/>
    </comp>
    <comp name="--.HHE">
      <acc value="0.1502834270" flag="0"/>
      <vel value="0.0513640653" flag="0"/>
      <psa03 value="0.2622843379" flag="0"/>
      <psa10 value="0.0313773244" flag="0"/>
      <psa30 value="0.0023057377" flag="0"/>
    </comp>
    <comp name="--.HHZ">
      <acc value="0.0955102730" flag="0"/>
      <vel value="0.0449035121" flag="0"/>
      <psa03 value="0.2245486825" flag="0"/>
      <psa10 value="0.0288249916" flag="0"/>
      <psa30 value="0.0025168466" flag="0"/>
    </comp>
  </station>
  <station code="YENI" name="YENI" netid="KO" insttype="CMG-5T" lat="39.9364" lon="27.2422">
    <comp name="--.HNZ">
      <acc value="0.2641149926" flag="0"/>
      <vel value="0.0576837374" flag="0"/>
      <psa03 value="0.2474442049" flag="0"/>
      <psa10 value="0.0290354509" flag="0"/>
      <psa30 value="0.0021534799" flag="0"/>
    </comp>
    <comp name="--.HNE">
      <acc value="0.7072353266" flag="0"/>
      <vel value="0.2070795340" flag="0"/>
      <psa03 value="0.5332235418" flag="0"/>
      <psa10 value="0.1009667413" flag="0"/>
      <psa30 value="0.0061264040" flag="0"/>
    </comp>
    <comp name="--.HNN">
      <acc value="0.5197014395" flag="0"/>
      <vel value="0.1370054726" flag="0"/>
      <psa03 value="0.4313796190" flag="0"/>
      <psa10 value="0.0659933968" flag="0"/>
      <psa30 value="0.0059125731" flag="0"/>
    </comp>
  </station>
</stationlist>
