<?xml version="1.0" encoding="UTF-8" standalone="yes"?>
<!DOCTYPE earthquake SYSTEM "stationlist.dtd">
<stationlist created="" xmlns="ch.ethz.sed.shakemap.usgs.xml">
  <station code="AGRP" name="AGRP" netid="CL" source="RESIF" insttype="30" lat="38.3959" lon="21.7228">
    <comp name="00.HHE">
      <acc value="0.0080937543" flag="0"/>
      <vel value="0.0032868848" flag="0"/>
      <psa03 value="0.0181039256" flag="0"/>
      <psa10 value="0.0033188933" flag="0"/>
      <psa30 value="0.0004032907" flag="0"/>
    </comp>
    <comp name="00.HHN">
      <acc value="0.0088873528" flag="0"/>
      <vel value="0.0038195400" flag="0"/>
      <psa03 value="0.0157190693" flag="0"/>
      <psa10 value="0.0043424450" flag="0"/>
      <psa30 value="0.0003747655" flag="0"/>
    </comp>
    <comp name="00.HHZ">
      <acc value="0.0042806981" flag="0"/>
      <vel value="0.0023517240" flag="0"/>
      <psa03 value="0.0132441051" flag="0"/>
      <psa10 value="0.0029450719" flag="0"/>
      <psa30 value="0.0002902876" flag="0"/>
    </comp>
  </station>
  <station code="MALA" name="MALA" netid="CL" source="RESIF" insttype="30" lat="38.3935" lon="21.8726">
    <comp name="00.HH2">
      <acc value="0.0080133153" flag="0"/>
      <vel value="0.0036448018" flag="0"/>
      <psa03 value="0.0217840009" flag="0"/>
      <psa10 value="0.0024226694" flag="0"/>
      <psa30 value="0.0003787829" flag="0"/>
    </comp>
    <comp name="00.HH3">
      <acc value="0.0099066141" flag="0"/>
      <vel value="0.0039932381" flag="0"/>
      <psa03 value="0.0184897682" flag="0"/>
      <psa10 value="0.0032541338" flag="0"/>
      <psa30 value="0.0005723326" flag="0"/>
    </comp>
    <comp name="00.HHZ">
      <acc value="0.0038678576" flag="0"/>
      <vel value="0.0019066642" flag="0"/>
      <psa03 value="0.0096225186" flag="0"/>
      <psa10 value="0.0028873908" flag="0"/>
      <psa30 value="0.0003408831" flag="0"/>
    </comp>
  </station>
  <station code="MG00" name="MG00" netid="CL" source="RESIF" insttype="40" lat="38.4145" lon="21.9467">
    <comp name="00.HHE">
      <acc value="0.0145542058" flag="0"/>
      <vel value="0.0061913990" flag="0"/>
      <psa03 value="0.0503094408" flag="0"/>
      <psa10 value="0.0037400281" flag="0"/>
      <psa30 value="0.0002908370" flag="0"/>
    </comp>
    <comp name="00.HHN">
      <acc value="0.0120457762" flag="0"/>
      <vel value="0.0046263521" flag="0"/>
      <psa03 value="0.0336615057" flag="0"/>
      <psa10 value="0.0047937730" flag="0"/>
      <psa30 value="0.0003540547" flag="0"/>
    </comp>
    <comp name="00.HHZ">
      <acc value="0.0102710422" flag="0"/>
      <vel value="0.0031309548" flag="0"/>
      <psa03 value="0.0187068979" flag="0"/>
      <psa10 value="0.0017240276" flag="0"/>
      <psa30 value="0.0001914143" flag="0"/>
    </comp>
  </station>
  <station code="MG02" name="MG02" netid="CL" source="RESIF" insttype="40" lat="38.415" lon="21.947">
    <comp name="02.HHE">
      <acc value="0.0090672328" flag="0"/>
      <vel value="0.0041300189" flag="0"/>
      <psa03 value="0.0286067904" flag="0"/>
      <psa10 value="0.0046949262" flag="0"/>
      <psa30 value="0.0003198009" flag="0"/>
    </comp>
    <comp name="02.HHN">
      <acc value="0.0120375487" flag="0"/>
      <vel value="0.0052000385" flag="0"/>
      <psa03 value="0.0372989172" flag="0"/>
      <psa10 value="0.0057877695" flag="0"/>
      <psa30 value="0.0003446211" flag="0"/>
    </comp>
    <comp name="02.HHZ">
      <acc value="0.0065950348" flag="0"/>
      <vel value="0.0027732778" flag="0"/>
      <psa03 value="0.0204703616" flag="0"/>
      <psa10 value="0.0017751730" flag="0"/>
      <psa30 value="0.0001869020" flag="0"/>
    </comp>
  </station>
  <station code="MG03" name="MG03" netid="CL" source="RESIF" insttype="40" lat="38.4141" lon="21.946">
    <comp name="03.HHE">
      <acc value="0.0087786099" flag="0"/>
      <vel value="0.0038472826" flag="0"/>
      <psa03 value="0.0248050132" flag="0"/>
      <psa10 value="0.0026563466" flag="0"/>
      <psa30 value="0.0002777516" flag="0"/>
    </comp>
    <comp name="03.HHN">
      <acc value="0.0083511697" flag="0"/>
      <vel value="0.0032853701" flag="0"/>
      <psa03 value="0.0206987550" flag="0"/>
      <psa10 value="0.0016144596" flag="0"/>
      <psa30 value="0.0001704948" flag="0"/>
    </comp>
    <comp name="03.HHZ">
      <acc value="0.0064884303" flag="0"/>
      <vel value="0.0020401755" flag="0"/>
      <psa03 value="0.0112860369" flag="0"/>
      <psa10 value="0.0016686164" flag="0"/>
      <psa30 value="0.0001913096" flag="0"/>
    </comp>
  </station>
  <station code="MG04" name="MG04" netid="CL" source="RESIF" insttype="40" lat="38.4142" lon="21.9481">
    <comp name="04.HHE">
      <acc value="0.0161298634" flag="0"/>
      <vel value="0.0050385363" flag="0"/>
      <psa03 value="0.0327605913" flag="0"/>
      <psa10 value="0.0040979843" flag="0"/>
      <psa30 value="0.0003187891" flag="0"/>
    </comp>
    <comp name="04.HHN">
      <acc value="0.0129198232" flag="0"/>
      <vel value="0.0050465659" flag="0"/>
      <psa03 value="0.0278598625" flag="0"/>
      <psa10 value="0.0045045475" flag="0"/>
      <psa30 value="0.0003069435" flag="0"/>
    </comp>
    <comp name="04.HHZ">
      <acc value="0.0077671598" flag="0"/>
      <vel value="0.0026037028" flag="0"/>
      <psa03 value="0.0117229050" flag="0"/>
      <psa10 value="0.0016923066" flag="0"/>
      <psa30 value="0.0001945167" flag="0"/>
    </comp>
  </station>
  <station code="MG05" name="MG05" netid="CL" source="RESIF" insttype="30" lat="38.4155" lon="21.9458">
    <comp name="05.HHE">
      <acc value="0.0162261681" flag="0"/>
      <vel value="0.0108488587" flag="0"/>
      <psa03 value="0.0605809199" flag="0"/>
      <psa10 value="0.0106979519" flag="0"/>
      <psa30 value="0.0005440551" flag="0"/>
    </comp>
    <comp name="05.HHN">
      <acc value="0.0185073536" flag="0"/>
      <vel value="0.0104404240" flag="0"/>
      <psa03 value="0.0559292438" flag="0"/>
      <psa10 value="0.0103820271" flag="0"/>
      <psa30 value="0.0008416840" flag="0"/>
    </comp>
    <comp name="05.HHZ">
      <acc value="0.0214436883" flag="0"/>
      <vel value="0.0081232044" flag="0"/>
      <psa03 value="0.0511088232" flag="0"/>
      <psa10 value="0.0041500229" flag="0"/>
      <psa30 value="0.0003852624" flag="0"/>
    </comp>
  </station>
  <station code="MG06" name="MG06" netid="CL" source="RESIF" insttype="40" lat="38.4129" lon="21.9462">
    <comp name="06.HHE">
      <acc value="0.0082395237" flag="0"/>
      <vel value="0.0032331037" flag="0"/>
      <psa03 value="0.0206665341" flag="0"/>
      <psa10 value="0.0027005072" flag="0"/>
      <psa30 value="0.0003273078" flag="0"/>
    </comp>
    <comp name="06.HHN">
      <acc value="0.0053587249" flag="0"/>
      <vel value="0.0020138572" flag="0"/>
      <psa03 value="0.0118469116" flag="0"/>
      <psa10 value="0.0023426648" flag="0"/>
      <psa30 value="0.0002571362" flag="0"/>
    </comp>
    <comp name="06.HHZ">
      <acc value="0.0043024615" flag="0"/>
      <vel value="0.0015282330" flag="0"/>
      <psa03 value="0.0109780257" flag="0"/>
      <psa10 value="0.0016629370" flag="0"/>
      <psa30 value="0.0001886065" flag="0"/>
    </comp>
  </station>
  <station code="KALE" name="KALE" netid="HA" source="NOA" insttype="40," lat="38.3911" lon="22.1398">
    <comp name="--.HHE">
      <acc value="0.0056968060" flag="0"/>
      <vel value="0.0022454119" flag="0"/>
      <psa03 value="0.0127333302" flag="0"/>
      <psa10 value="0.0025651861" flag="0"/>
      <psa30 value="0.0002034448" flag="0"/>
    </comp>
    <comp name="--.HHN">
      <acc value="0.0053454872" flag="0"/>
      <vel value="0.0026380389" flag="0"/>
      <psa03 value="0.0205985418" flag="0"/>
      <psa10 value="0.0027455468" flag="0"/>
      <psa30 value="0.0002566452" flag="0"/>
    </comp>
    <comp name="--.HHZ">
      <acc value="0.0030860108" flag="0"/>
      <vel value="0.0014241158" flag="0"/>
      <psa03 value="0.0063015357" flag="0"/>
      <psa10 value="0.0014656531" flag="0"/>
      <psa30 value="0.0002521538" flag="0"/>
    </comp>
  </station>
  <station code="KLV1" name="KLV1" netid="HI" source="NOA" insttype="CMG-5TD,ACCELEROMETER,GURALP" lat="38.0326" lon="22.108">
    <comp name="--.HNE">
      <acc value="0.0158612806" flag="0"/>
      <vel value="0.0075198879" flag="0"/>
      <psa03 value="0.0572644594" flag="0"/>
      <psa10 value="0.0052953899" flag="0"/>
      <psa30 value="0.0003156789" flag="0"/>
    </comp>
    <comp name="--.HNN">
      <acc value="0.0145503546" flag="0"/>
      <vel value="0.0064399844" flag="0"/>
      <psa03 value="0.0377804591" flag="0"/>
      <psa10 value="0.0042122962" flag="0"/>
      <psa30 value="0.0002511295" flag="0"/>
    </comp>
    <comp name="--.HNZ">
      <acc value="0.0060885162" flag="0"/>
      <vel value="0.0024743073" flag="0"/>
      <psa03 value="0.0108262871" flag="0"/>
      <psa10 value="0.0043011779" flag="0"/>
      <psa30 value="0.0004856762" flag="0"/>
    </comp>
  </station>
  <station code="ITM" name="ITM" netid="HL" source="NOA" insttype="DR24" lat="37.1787" lon="21.9252">
    <comp name="--.HHE">
      <acc value="0.0024034073" flag="0"/>
      <vel value="0.0016764211" flag="0"/>
      <psa03 value="0.0053082445" flag="0"/>
      <psa10 value="0.0017638808" flag="0"/>
      <psa30 value="0.0003648730" flag="0"/>
    </comp>
    <comp name="--.HHN">
      <acc value="0.0025523553" flag="0"/>
      <vel value="0.0017471400" flag="0"/>
      <psa03 value="0.0073183298" flag="0"/>
      <psa10 value="0.0031911445" flag="0"/>
      <psa30 value="0.0003462640" flag="0"/>
    </comp>
    <comp name="--.HHZ">
      <acc value="0.0015916133" flag="0"/>
      <vel value="0.0013813455" flag="0"/>
      <psa03 value="0.0051444080" flag="0"/>
      <psa10 value="0.0025774171" flag="0"/>
      <psa30 value="0.0003526163" flag="0"/>
    </comp>
  </station>
  <station code="KLV" name="KLV" netid="HL" source="NOA" insttype="120" lat="38.0435" lon="22.1504">
    <comp name="--.HHE">
      <acc value="0.0038093618" flag="0"/>
      <vel value="0.0016263474" flag="0"/>
      <psa03 value="0.0114076201" flag="0"/>
      <psa10 value="0.0034200479" flag="0"/>
      <psa30 value="0.0002243122" flag="0"/>
    </comp>
    <comp name="--.HHN">
      <acc value="0.0050468532" flag="0"/>
      <vel value="0.0018184499" flag="0"/>
      <psa03 value="0.0193181563" flag="0"/>
      <psa10 value="0.0031151693" flag="0"/>
      <psa30 value="0.0002462007" flag="0"/>
    </comp>
    <comp name="--.HHZ">
      <acc value="0.0048039085" flag="0"/>
      <vel value="0.0023438985" flag="0"/>
      <psa03 value="0.0129242988" flag="0"/>
      <psa10 value="0.0034050681" flag="0"/>
      <psa30 value="0.0003069875" flag="0"/>
    </comp>
  </station>
  <station code="PATC" name="PATC" netid="HL" source="NOA" insttype="CMG-5" lat="38.2693" lon="21.76">
    <comp name="00.HNE">
      <acc value="0.0281078695" flag="0"/>
      <vel value="0.0136630086" flag="0"/>
      <psa03 value="0.0924799104" flag="0"/>
      <psa10 value="0.0232115512" flag="0"/>
      <psa30 value="0.0015757627" flag="0"/>
    </comp>
    <comp name="00.HNN">
      <acc value="0.0281108957" flag="0"/>
      <vel value="0.0109201909" flag="0"/>
      <psa03 value="0.0639628804" flag="0"/>
      <psa10 value="0.0179898761" flag="0"/>
      <psa30 value="0.0015243041" flag="0"/>
    </comp>
    <comp name="00.HNZ">
      <acc value="0.0187915196" flag="0"/>
      <vel value="0.0072366348" flag="0"/>
      <psa03 value="0.0390587632" flag="0"/>
      <psa10 value="0.0076237986" flag="0"/>
      <psa30 value="0.0006812297" flag="0"/>
    </comp>
  </station>
  <station code="PATG" name="PATG" netid="HL" source="NOA" insttype="CMG-5" lat="38.2386" lon="21.7266">
    <comp name="00.HNE">
      <acc value="0.0679777988" flag="0"/>
      <vel value="0.0282328348" flag="0"/>
      <psa03 value="0.1429738449" flag="0"/>
      <psa10 value="0.0244877936" flag="0"/>
      <psa30 value="0.0033884799" flag="0"/>
    </comp>
    <comp name="00.HNN">
      <acc value="0.0947630100" flag="0"/>
      <vel value="0.0478421693" flag="0"/>
      <psa03 value="0.2287109264" flag="0"/>
      <psa10 value="0.0277449792" flag="0"/>
      <psa30 value="0.0036952208" flag="0"/>
    </comp>
    <comp name="00.HNZ">
      <acc value="0.0209196322" flag="0"/>
      <vel value="0.0087841246" flag="0"/>
      <psa03 value="0.0471841033" flag="0"/>
      <psa10 value="0.0090951632" flag="0"/>
      <psa30 value="0.0022241090" flag="0"/>
    </comp>
  </station>
  <station code="RLS" name="RLS" netid="HL" source="NOA" insttype="120" lat="38.0559" lon="21.4647">
    <comp name="--.HHE">
      <acc value="0.1593625201" flag="0"/>
      <vel value="0.0343088107" flag="0"/>
      <psa03 value="0.1416422029" flag="0"/>
      <psa10 value="0.0172288962" flag="0"/>
      <psa30 value="0.0019236109" flag="0"/>
    </comp>
    <comp name="--.HHN">
      <acc value="0.1466127262" flag="0"/>
      <vel value="0.0381443139" flag="0"/>
      <psa03 value="0.1994490836" flag="0"/>
      <psa10 value="0.0165756670" flag="0"/>
      <psa30 value="0.0016038194" flag="0"/>
    </comp>
    <comp name="--.HHZ">
      <acc value="0.0570900387" flag="0"/>
      <vel value="0.0144092267" flag="0"/>
      <psa03 value="0.0967130048" flag="0"/>
      <psa10 value="0.0098481545" flag="0"/>
      <psa30 value="0.0018218986" flag="0"/>
    </comp>
  </station>
  <station code="VLS" name="VLS" netid="HL" source="NOA" insttype="120P," lat="38.1768" lon="20.5886">
    <comp name="--.HHE">
      <acc value="0.0082371945" flag="0"/>
      <vel value="0.0029075892" flag="0"/>
      <psa03 value="0.0097153019" flag="0"/>
      <psa10 value="0.0031999130" flag="0"/>
      <psa30 value="0.0005001547" flag="0"/>
    </comp>
    <comp name="--.HHN">
      <acc value="0.0073716611" flag="0"/>
      <vel value="0.0033815809" flag="0"/>
      <psa03 value="0.0131401681" flag="0"/>
      <psa10 value="0.0042629421" flag="0"/>
      <psa30 value="0.0004873521" flag="0"/>
    </comp>
    <comp name="--.HHZ">
      <acc value="0.0042572460" flag="0"/>
      <vel value="0.0025322408" flag="0"/>
      <psa03 value="0.0094331816" flag="0"/>
      <psa10 value="0.0033544488" flag="0"/>
      <psa30 value="0.0004403392" flag="0"/>
    </comp>
  </station>
  <station code="AMPL" name="AMPL" netid="HP" source="NOA" insttype="Compact," lat="38.9224" lon="21.2135">
    <comp name="--.HHE">
      <acc value="0.0023812185" flag="0"/>
      <vel value="0.0022193534" flag="0"/>
      <psa03 value="0.0083915761" flag="0"/>
      <psa10 value="0.0028166225" flag="0"/>
      <psa30 value="0.0003931229" flag="0"/>
    </comp>
    <comp name="--.HHN">
      <acc value="0.0024593211" flag="0"/>
      <vel value="0.0017826963" flag="0"/>
      <psa03 value="0.0073333142" flag="0"/>
      <psa10 value="0.0024900952" flag="0"/>
      <psa30 value="0.0002013352" flag="0"/>
    </comp>
    <comp name="--.HHZ">
      <acc value="0.0013538513" flag="0"/>
      <vel value="0.0007500013" flag="0"/>
      <psa03 value="0.0037877256" flag="0"/>
      <psa10 value="0.0014390923" flag="0"/>
      <psa30 value="0.0000710583" flag="0"/>
    </comp>
  </station>
  <station code="AMT" name="AMT" netid="HP" source="NOA" insttype="CMG-3T," lat="37.5324" lon="21.7089">
    <comp name="00.HHE">
      <acc value="0.0152240834" flag="0"/>
      <vel value="0.0102552500" flag="0"/>
      <psa03 value="0.0736964988" flag="0"/>
      <psa10 value="0.0129734828" flag="0"/>
      <psa30 value="0.0012582711" flag="0"/>
    </comp>
    <comp name="00.HHN">
      <acc value="0.0164901858" flag="0"/>
      <vel value="0.0113257669" flag="0"/>
      <psa03 value="0.0676921491" flag="0"/>
      <psa10 value="0.0102610251" flag="0"/>
      <psa30 value="0.0010462447" flag="0"/>
    </comp>
    <comp name="00.HHZ">
      <acc value="0.0088413917" flag="0"/>
      <vel value="0.0047628803" flag="0"/>
      <psa03 value="0.0239648243" flag="0"/>
      <psa10 value="0.0051149544" flag="0"/>
      <psa30 value="0.0006303408" flag="0"/>
    </comp>
  </station>
  <station code="ANX" name="ANX" netid="HP" source="NOA" insttype="120" lat="38.5933" lon="21.9209">
    <comp name="--.HHE">
      <acc value="0.0045500880" flag="0"/>
      <vel value="0.0034670894" flag="0"/>
      <psa03 value="0.0138136223" flag="0"/>
      <psa10 value="0.0038613316" flag="0"/>
      <psa30 value="0.0003502862" flag="0"/>
    </comp>
    <comp name="--.HHN">
      <acc value="0.0044203289" flag="0"/>
      <vel value="0.0033377375" flag="0"/>
      <psa03 value="0.0124250029" flag="0"/>
      <psa10 value="0.0031819462" flag="0"/>
      <psa30 value="0.0002449138" flag="0"/>
    </comp>
    <comp name="--.HHZ">
      <acc value="0.0020787687" flag="0"/>
      <vel value="0.0014609329" flag="0"/>
      <psa03 value="0.0077620866" flag="0"/>
      <psa10 value="0.0017302635" flag="0"/>
      <psa30 value="0.0001294416" flag="0"/>
    </comp>
  </station>
  <station code="AXS" name="AXS" netid="HP" source="NOA" insttype="40," lat="38.1962" lon="21.3763">
    <comp name="--.HHE">
      <acc value="0.0123772462" flag="0"/>
      <vel value="0.0048690360" flag="0"/>
      <psa03 value="0.0294713434" flag="0"/>
      <psa10 value="0.0047517550" flag="0"/>
      <psa30 value="0.0009225404" flag="0"/>
    </comp>
    <comp name="--.HHN">
      <acc value="0.0194705566" flag="0"/>
      <vel value="0.0066089863" flag="0"/>
      <psa03 value="0.0510632959" flag="0"/>
      <psa10 value="0.0082929683" flag="0"/>
      <psa30 value="0.0008024785" flag="0"/>
    </comp>
    <comp name="--.HHZ">
      <acc value="0.0118975651" flag="0"/>
      <vel value="0.0044855572" flag="0"/>
      <psa03 value="0.0153013112" flag="0"/>
      <psa10 value="0.0040936655" flag="0"/>
      <psa30 value="0.0004262307" flag="0"/>
    </comp>
  </station>
  <station code="DRO" name="DRO" netid="HP" source="NOA" insttype="120P," lat="37.952" lon="21.71">
    <comp name="--.HHE">
      <acc value="0.0711358531" flag="0"/>
      <vel value="0.0228041380" flag="0"/>
      <psa03 value="0.1812488361" flag="0"/>
      <psa10 value="0.0228400734" flag="0"/>
      <psa30 value="0.0011922942" flag="0"/>
    </comp>
    <comp name="--.HHN">
      <acc value="0.0581695777" flag="0"/>
      <vel value="0.0253626697" flag="0"/>
      <psa03 value="0.1391092764" flag="0"/>
      <psa10 value="0.0142695087" flag="0"/>
      <psa30 value="0.0011668032" flag="0"/>
    </comp>
    <comp name="--.HHZ">
      <acc value="0.0312454876" flag="0"/>
      <vel value="0.0106369509" flag="0"/>
      <psa03 value="0.0673241831" flag="0"/>
      <psa10 value="0.0088600046" flag="0"/>
      <psa30 value="0.0012595776" flag="0"/>
    </comp>
  </station>
  <station code="EFP" name="EFP" netid="HP" source="NOA" insttype="40," lat="38.4269" lon="21.9058">
    <comp name="--.HHE">
      <acc value="0.0086233518" flag="0"/>
      <vel value="0.0028520590" flag="0"/>
      <psa03 value="0.0182912938" flag="0"/>
      <psa10 value="0.0034905957" flag="0"/>
      <psa30 value="0.0002900464" flag="0"/>
    </comp>
    <comp name="--.HHN">
      <acc value="0.0086617919" flag="0"/>
      <vel value="0.0031880418" flag="0"/>
      <psa03 value="0.0229157660" flag="0"/>
      <psa10 value="0.0029004585" flag="0"/>
      <psa30 value="0.0002666234" flag="0"/>
    </comp>
    <comp name="--.HHZ">
      <acc value="0.0054397214" flag="0"/>
      <vel value="0.0020674206" flag="0"/>
      <psa03 value="0.0103039939" flag="0"/>
      <psa10 value="0.0020325103" flag="0"/>
      <psa30 value="0.0002119858" flag="0"/>
    </comp>
  </station>
  <station code="FSK" name="FSK" netid="HP" source="NOA" insttype="40," lat="38.4593" lon="20.5623">
    <comp name="--.HHE">
      <acc value="0.0049861729" flag="0"/>
      <vel value="0.0039302804" flag="0"/>
