<stationlist xmlns:esm="https://esm-db.eu/esmws/shakemap/1/" created="1780710905">
	<station code="AGR3" name="AGR3" netid="HI" source="ITSAK Strong Motion Network" insttype="" lat="38.5893" lon="21.4162" esm:processing="manual (Paolucci et al 2011)" esm:quality="good">
		<comp name="--.HNE" depth="0.0">
			<acc value="0.0149452531897336" flag="0"/>
			<vel value="0.0175340805535021" flag="0"/>
			<psa03 value="0.0293422484674567" flag="0"/>
			<psa10 value="0.0218975899828686" flag="0"/>
			<psa30 value="0.00301052484916303" flag="0"/>
		</comp>
		<comp name="--.HNN" depth="0.0">
			<acc value="0.0153067251571069" flag="0"/>
			<vel value="0.0153197420374038" flag="0"/>
			<psa03 value="0.0298655279238192" flag="0"/>
			<psa10 value="0.0195821359704039" flag="0"/>
			<psa30 value="0.00176495046097278" flag="0"/>
		</comp>
		<comp name="--.HNZ" depth="0.0">
			<acc value="0.00634354477889214" flag="0"/>
			<vel value="0.00731375560751215" flag="0"/>
			<psa03 value="0.0148543121502788" flag="0"/>
			<psa10 value="0.0164378020487132" flag="0"/>
			<psa30 value="0.00117519347580022" flag="0"/>
		</comp>
	</station>
	<station code="AKR1" name="AKR1" netid="HI" source="ITSAK Strong Motion Network" insttype="" lat="38.153583" lon="22.31326" esm:processing="automatic (Paolucci et al 2011)" esm:quality="best">
		<comp name="--.HNE" depth="0.0">
			<acc value="0.00857589926299449" flag="0"/>
			<vel value="0.00392299904151453" flag="0"/>
			<psa03 value="0.0292627015311959" flag="0"/>
			<psa10 value="0.00512081047856257" flag="0"/>
			<psa30 value="0.00038643510463749" flag="0"/>
		</comp>
		<comp name="--.HNN" depth="0.0">
			<acc value="0.0092962059701627" flag="0"/>
			<vel value="0.00440136748376291" flag="0"/>
			<psa03 value="0.028834496081353" flag="0"/>
			<psa10 value="0.00420963839913411" flag="0"/>
			<psa30 value="0.000288589560350382" flag="0"/>
		</comp>
		<comp name="--.HNZ" depth="0.0">
			<acc value="0.00397907199350093" flag="0"/>
			<vel value="0.00248684162226829" flag="0"/>
			<psa03 value="0.0145143807773269" flag="0"/>
			<psa10 value="0.0049084479730888" flag="0"/>
			<psa30 value="0.000187394458234007" flag="0"/>
		</comp>
	</station>
	<station code="AOL1" name="AOL1" netid="HI" source="ITSAK Strong Motion Network" insttype="" lat="37.642378" lon="21.624555" esm:processing="automatic (Paolucci et al 2011)" esm:quality="best">
		<comp name="--.HNE" depth="0.0">
			<acc value="0.0455900746682645" flag="0"/>
			<vel value="0.0176773946966404" flag="0"/>
			<psa03 value="0.0819417146947828" flag="0"/>
			<psa10 value="0.0170240315085378" flag="0"/>
			<psa30 value="0.00554383516853885" flag="0"/>
		</comp>
		<comp name="--.HNN" depth="0.0">
			<acc value="0.0361707727111785" flag="0"/>
			<vel value="0.0160347374103291" flag="0"/>
			<psa03 value="0.0774989776769258" flag="0"/>
			<psa10 value="0.0182559731186234" flag="0"/>
			<psa30 value="0.00248764146070473" flag="0"/>
		</comp>
		<comp name="--.HNZ" depth="0.0">
			<acc value="0.0259144989326059" flag="0"/>
			<vel value="0.00867630682140995" flag="0"/>
			<psa03 value="0.0618228246253874" flag="0"/>
			<psa10 value="0.0126703212215982" flag="0"/>
			<psa30 value="0.00102800372520161" flag="0"/>
		</comp>
	</station>
	<station code="ARG2" name="ARG2" netid="HI" source="ITSAK Strong Motion Network" insttype="" lat="38.1783" lon="20.4878" esm:processing="manual (Paolucci et al 2011)" esm:quality="best">
		<comp name="--.HNE" depth="0.0">
			<acc value="0.0116886867250999" flag="0"/>
			<vel value="0.00510676943642087" flag="0"/>
			<psa03 value="0.0298877940210055" flag="0"/>
			<psa10 value="0.00441739805942197" flag="0"/>
			<psa30 value="0.000765091733172447" flag="0"/>
		</comp>
		<comp name="--.HNN" depth="0.0">
			<acc value="0.0117754453721064" flag="0"/>
			<vel value="0.00603485410461019" flag="0"/>
			<psa03 value="0.0207603838708781" flag="0"/>
			<psa10 value="0.0058871795468322" flag="0"/>
			<psa30 value="0.000896186398563983" flag="0"/>
		</comp>
		<comp name="--.HNZ" depth="0.0">
			<acc value="0.0104112364720974" flag="0"/>
			<vel value="0.003137066860068" flag="0"/>
			<psa03 value="0.0227290409620821" flag="0"/>
			<psa10 value="0.00295164337060739" flag="0"/>
			<psa30 value="0.000537353901485444" flag="0"/>
		</comp>
	</station>
	<station code="AST1" name="AST1" netid="HI" source="ITSAK Strong Motion Network" insttype="" lat="38.5416" lon="21.0895" esm:processing="automatic (Paolucci et al 2011)" esm:quality="best">
		<comp name="--.HNE" depth="0.0">
			<acc value="0.00629259215281696" flag="0"/>
			<vel value="0.00425069054010242" flag="0"/>
			<psa03 value="0.0132813772218927" flag="0"/>
			<psa10 value="0.00838828568275891" flag="0"/>
			<psa30 value="0.00089307093239964" flag="0"/>
		</comp>
		<comp name="--.HNN" depth="0.0">
			<acc value="0.00498229165387212" flag="0"/>
			<vel value="0.0039248559638258" flag="0"/>
			<psa03 value="0.0147240092475176" flag="0"/>
			<psa10 value="0.00423064541574586" flag="0"/>
			<psa30 value="0.000679671847840929" flag="0"/>
		</comp>
		<comp name="--.HNZ" depth="0.0">
			<acc value="0.00992783926322118" flag="0"/>
			<vel value="0.00339888339157734" flag="0"/>
			<psa03 value="0.0160059483363575" flag="0"/>
			<psa10 value="0.00521125475130176" flag="0"/>
			<psa30 value="0.000568382965081957" flag="0"/>
		</comp>
	</station>
	<station code="ITE1" name="ITE1" netid="HI" source="ITSAK Strong Motion Network" insttype="" lat="38.4338" lon="22.4272" esm:processing="automatic (Paolucci et al 2011)" esm:quality="best">
		<comp name="--.HNE" depth="0.0">
			<acc value="0.00703024701356411" flag="0"/>
			<vel value="0.00555315923445354" flag="0"/>
			<psa03 value="0.0253764128336426" flag="0"/>
			<psa10 value="0.00528778513356399" flag="0"/>
			<psa30 value="0.000305448958452765" flag="0"/>
		</comp>
		<comp name="--.HNN" depth="0.0">
			<acc value="0.00820864289773179" flag="0"/>
			<vel value="0.00658892535192973" flag="0"/>
			<psa03 value="0.0344321455439914" flag="0"/>
			<psa10 value="0.00541664273224751" flag="0"/>
			<psa30 value="0.000329090915241374" flag="0"/>
		</comp>
		<comp name="--.HNZ" depth="0.0">
			<acc value="0.0101467165123547" flag="0"/>
			<vel value="0.00156590300802088" flag="0"/>
			<psa03 value="0.00942685820704993" flag="0"/>
			<psa10 value="0.0011684547090775" flag="0"/>
			<psa30 value="0.000114826916615518" flag="0"/>
		</comp>
	</station>
	<station code="KAC1" name="KAC1" netid="HI" source="ITSAK Strong Motion Network" insttype="" lat="38.143412" lon="21.549694" esm:processing="automatic (Paolucci et al 2011)" esm:quality="best">
		<comp name="--.HNE" depth="0.0">
			<acc value="0.0760513833488828" flag="0"/>
			<vel value="0.0304639479876396" flag="0"/>
			<psa03 value="0.197066804708658" flag="0"/>
			<psa10 value="0.0470255802138996" flag="0"/>
			<psa30 value="0.00725289213517527" flag="0"/>
		</comp>
		<comp name="--.HNN" depth="0.0">
			<acc value="0.102577444479025" flag="0"/>
			<vel value="0.0413286099174292" flag="0"/>
			<psa03 value="0.224790662111483" flag="0"/>
			<psa10 value="0.0459524803763018" flag="0"/>
			<psa30 value="0.00520159791366699" flag="0"/>
		</comp>
		<comp name="--.HNZ" depth="0.0">
			<acc value="0.0470739218183826" flag="0"/>
			<vel value="0.0144529778948186" flag="0"/>
			<psa03 value="0.0933817277478362" flag="0"/>
			<psa10 value="0.0162962545468859" flag="0"/>
			<psa30 value="0.00463748179374259" flag="0"/>
		</comp>
	</station>
	<station code="KAL3" name="KAL3" netid="HI" source="ITSAK Strong Motion Network" insttype="" lat="37.0246" lon="22.103" esm:processing="manual (Paolucci et al 2011)" esm:quality="good">
		<comp name="--.HNE" depth="0.0">
			<acc value="0.00538348454462446" flag="0"/>
			<vel value="0.00457725318945628" flag="0"/>
			<psa03 value="0.0157891384008466" flag="0"/>
			<psa10 value="0.0078767414829662" flag="0"/>
			<psa30 value="0.00173416144218472" flag="0"/>
		</comp>
		<comp name="--.HNN" depth="0.0">
			<acc value="0.00660529322408094" flag="0"/>
			<vel value="0.00583733537501116" flag="0"/>
			<psa03 value="0.0163431829160767" flag="0"/>
			<psa10 value="0.0076428675524661" flag="0"/>
			<psa30 value="0.00107601878096341" flag="0"/>
		</comp>
		<comp name="--.HNZ" depth="0.0">
			<acc value="0.00309209057569771" flag="0"/>
			<vel value="0.00257607812234584" flag="0"/>
			<psa03 value="0.00726093217299665" flag="0"/>
			<psa10 value="0.00562623192900318" flag="0"/>
			<psa30 value="0.000521441834629107" flag="0"/>
		</comp>
	</station>
	<station code="KLV1" name="KLV1" netid="HI" source="ITSAK Strong Motion Network" insttype="" lat="38.03256" lon="22.10797" esm:processing="manual (Paolucci et al 2011)" esm:quality="best">
		<comp name="--.HNE" depth="0.0">
			<acc value="0.0159220726998741" flag="0"/>
			<vel value="0.00753247476543131" flag="0"/>
			<psa03 value="0.0578964153640437" flag="0"/>
			<psa10 value="0.00530329375046375" flag="0"/>
			<psa30 value="0.00033422428343849" flag="0"/>
		</comp>
		<comp name="--.HNN" depth="0.0">
			<acc value="0.014627180908987" flag="0"/>
			<vel value="0.00648152723038554" flag="0"/>
			<psa03 value="0.0386572665181868" flag="0"/>
			<psa10 value="0.00421605812963975" flag="0"/>
			<psa30 value="0.000285902700290756" flag="0"/>
		</comp>
		<comp name="--.HNZ" depth="0.0">
			<acc value="0.00605657483203393" flag="0"/>
			<vel value="0.00245954864474365" flag="0"/>
			<psa03 value="0.0108276140016218" flag="0"/>
			<psa10 value="0.00429659410155264" flag="0"/>
			<psa30 value="0.00050871888924975" flag="0"/>
		</comp>
	</station>
	<station code="LEF2" name="LEF2" netid="HI" source="ITSAK Strong Motion Network" insttype="" lat="38.830093" lon="20.708346" esm:processing="manual (Paolucci et al 2011)" esm:quality="good">
		<comp name="--.HNE" depth="0.0">
			<acc value="0.0083044563911591" flag="0"/>
			<vel value="0.00851298348818403" flag="0"/>
			<psa03 value="0.0266671207325398" flag="0"/>
			<psa10 value="0.0120980848762487" flag="0"/>
			<psa30 value="0.00207489432656608" flag="0"/>
		</comp>
		<comp name="--.HNN" depth="0.0">
			<acc value="0.0115342204835069" flag="0"/>
			<vel value="0.0108004850836608" flag="0"/>
			<psa03 value="0.0232535586633056" flag="0"/>
			<psa10 value="0.0138837328541638" flag="0"/>
			<psa30 value="0.00147307341721775" flag="0"/>
		</comp>
		<comp name="--.HNZ" depth="0.0">
			<acc value="0.00540744876836377" flag="0"/>
			<vel value="0.00611537042021804" flag="0"/>
			<psa03 value="0.0162576863669332" flag="0"/>
			<psa10 value="0.0077228064417752" flag="0"/>
			<psa30 value="0.000831487061103738" flag="0"/>
		</comp>
	</station>
	<station code="LEO1" name="LEO1" netid="HI" source="ITSAK Strong Motion Network" insttype="" lat="37.1689" lon="22.8637" esm:processing="manual (Paolucci et al 2011)" esm:quality="good">
		<comp name="--.HNE" depth="0.0">
			<acc value="0.000862828920968604" flag="0"/>
			<vel value="0.00124525979971005" flag="0"/>
			<psa03 value="0.00216811465560121" flag="0"/>
			<psa10 value="0.00240719915262994" flag="0"/>
			<psa30 value="0.000265916886522013" flag="0"/>
		</comp>
		<comp name="--.HNN" depth="0.0">
			<acc value="0.000771115514830599" flag="0"/>
			<vel value="0.000774310192626089" flag="0"/>
			<psa03 value="0.00285109739985611" flag="0"/>
			<psa10 value="0.00125518471232706" flag="0"/>
			<psa30 value="0.000241716377107034" flag="0"/>
		</comp>
		<comp name="--.HNZ" depth="0.0">
			<acc value="0.000700461848452327" flag="0"/>
			<vel value="0.000591885172842991" flag="0"/>
			<psa03 value="0.00246204949192489" flag="0"/>
			<psa10 value="0.000995617712599721" flag="0"/>
			<psa30 value="0.000275894995439425" flag="0"/>
		</comp>
	</station>
	<station code="LXR1" name="LXR1" netid="HI" source="ITSAK Strong Motion Network" insttype="" lat="38.201" lon="20.4374" esm:processing="automatic (Paolucci et al 2011)" esm:quality="best">
		<comp name="--.HNE" depth="0.0">
			<acc value="0.0228423839296777" flag="0"/>
			<vel value="0.0099633625610282" flag="0"/>
			<psa03 value="0.0990755216004019" flag="0"/>
			<psa10 value="0.00874225475647285" flag="0"/>
			<psa30 value="0.00156429956466897" flag="0"/>
		</comp>
		<comp name="--.HNN" depth="0.0">
			<acc value="0.0182467033106085" flag="0"/>
			<vel value="0.0138063751633045" flag="0"/>
			<psa03 value="0.0628982344076743" flag="0"/>
			<psa10 value="0.0177631660975769" flag="0"/>
			<psa30 value="0.00331936134973217" flag="0"/>
		</comp>
		<comp name="--.HNZ" depth="0.0">
			<acc value="0.0147261751519826" flag="0"/>
			<vel value="0.00520565504208619" flag="0"/>
			<psa03 value="0.0252120373612409" flag="0"/>
			<psa10 value="0.00822971674084472" flag="0"/>
			<psa30 value="0.000770559691631193" flag="0"/>
		</comp>
	</station>
	<station code="NMA1" name="NMA1" netid="HI" source="ITSAK Strong Motion Network" insttype="" lat="37.81873" lon="22.662702" esm:processing="automatic (Paolucci et al 2011)" esm:quality="best">
		<comp name="--.HNE" depth="0.0">
			<acc value="0.00341133605960443" flag="0"/>
			<vel value="0.00250660309509763" flag="0"/>
			<psa03 value="0.010145286658784" flag="0"/>
			<psa10 value="0.00363250704201411" flag="0"/>
			<psa30 value="0.000494411866943071" flag="0"/>
		</comp>
		<comp name="--.HNN" depth="0.0">
			<acc value="0.00360312055394931" flag="0"/>
			<vel value="0.00284169347779015" flag="0"/>
			<psa03 value="0.0101605539462085" flag="0"/>
			<psa10 value="0.0048230923186956" flag="0"/>
			<psa30 value="0.000562812127291294" flag="0"/>
		</comp>
		<comp name="--.HNZ" depth="0.0">
			<acc value="0.00259030274272881" flag="0"/>
			<vel value="0.00203438041600766" flag="0"/>
			<psa03 value="0.0075100424253283" flag="0"/>
			<psa10 value="0.00340973619078852" flag="0"/>
			<psa30 value="0.000264937681029455" flag="0"/>
		</comp>
	</station>
	<station code="PAT4" name="PAT4" netid="HI" source="ITSAK Strong Motion Network" insttype="" lat="38.2338" lon="21.74795" esm:processing="manual (Paolucci et al 2011)" esm:quality="good">
		<comp name="--.HNE" depth="0.0">
			<acc value="0.0290548515693533" flag="0"/>
			<vel value="0.013391793888958" flag="0"/>
			<psa03 value="0.0798961781463587" flag="0"/>
			<psa10 value="0.0202148085068544" flag="0"/>
			<psa30 value="0.00220854505527093" flag="0"/>
		</comp>
		<comp name="--.HNN" depth="0.0">
			<acc value="0.0339138746528234" flag="0"/>
			<vel value="0.0138864532816959" flag="0"/>
			<psa03 value="0.0601003771883647" flag="0"/>
			<psa10 value="0.0191015060060276" flag="0"/>
			<psa30 value="0.00452138160267472" flag="0"/>
		</comp>
		<comp name="--.HNZ" depth="0.0">
			<acc value="0.0291348445826598" flag="0"/>
			<vel value="0.0105317487424405" flag="0"/>
			<psa03 value="0.0426542240705086" flag="0"/>
			<psa10 value="0.0108947867261518" flag="0"/>
			<psa30 value="0.00180662134646443" flag="0"/>
		</comp>
	</station>
	<station code="PAT5" name="PAT5" netid="HI" source="ITSAK Strong Motion Network" insttype="" lat="38.29595" lon="21.795083" esm:processing="manual (Paolucci et al 2011)" esm:quality="good">
		<comp name="--.HNE" depth="0.0">
			<acc value="0.0309430219628007" flag="0"/>
			<vel value="0.0142364593190226" flag="0"/>
			<psa03 value="0.123535683632759" flag="0"/>
			<psa10 value="0.00878079324695871" flag="0"/>
			<psa30 value="0.0010752828988815" flag="0"/>
		</comp>
		<comp name="--.HNN" depth="0.0">
			<acc value="0.0222648040059968" flag="0"/>
			<vel value="0.00811476427670499" flag="0"/>
			<psa03 value="0.0469943579372437" flag="0"/>
			<psa10 value="0.0060649692744491" flag="0"/>
			<psa30 value="0.00083829053263367" flag="0"/>
		</comp>
		<comp name="--.HNZ" depth="0.0">
			<acc value="0.017978461040395" flag="0"/>
			<vel value="0.00595143854176805" flag="0"/>
			<psa03 value="0.0358726472201578" flag="0"/>
			<psa10 value="0.00464106744794125" flag="0"/>
			<psa30 value="0.000490988775596735" flag="0"/>
		</comp>
	</station>
	<station code="PET1" name="PET1" netid="HI" source="ITSAK Strong Motion Network" insttype="" lat="36.963862" lon="21.92538" esm:processing="manual (Paolucci et al 2011)" esm:quality="good">
		<comp name="--.HNE" depth="0.0">
			<acc value="0.00883019927361079" flag="0"/>
			<vel value="0.00473055283303718" flag="0"/>
			<psa03 value="0.0150638312382234" flag="0"/>
			<psa10 value="0.0102512103423748" flag="0"/>
			<psa30 value="0.000601905914979533" flag="0"/>
		</comp>
		<comp name="--.HNN" depth="0.0">
			<acc value="0.0111111567007776" flag="0"/>
			<vel value="0.00336261050551816" flag="0"/>
			<psa03 value="0.0101978806376686" flag="0"/>
			<psa10 value="0.00496734515598812" flag="0"/>
			<psa30 value="0.000387634038227623" flag="0"/>
		</comp>
		<comp name="--.HNZ" depth="0.0">
			<acc value="0.00307382554273529" flag="0"/>
			<vel value="0.00141658479110363" flag="0"/>
			<psa03 value="0.00614808045724041" flag="0"/>
			<psa10 value="0.00193875937079338" flag="0"/>
			<psa30 value="0.000292901356402376" flag="0"/>
		</comp>
	</station>
	<station code="PRE2" name="PRE2" netid="HI" source="ITSAK Strong Motion Network" insttype="" lat="38.9577" lon="20.7548" esm:processing="manual (Paolucci et al 2011)" esm:quality="good">
		<comp name="--.HNE" depth="0.0">
			<acc value="0.00584926001048557" flag="0"/>
			<vel value="0.00727813972417682" flag="0"/>
			<psa03 value="0.0128717016453963" flag="0"/>
			<psa10 value="0.00943579288747032" flag="0"/>
			<psa30 value="0.00149027997373434" flag="0"/>
		</comp>
		<comp name="--.HNN" depth="0.0">
			<acc value="0.00574020557062745" flag="0"/>
			<vel value="0.00799084740289888" flag="0"/>
			<psa03 value="0.0165881965428603" flag="0"/>
			<psa10 value="0.00897860666362675" flag="0"/>
			<psa30 value="0.00154562697353479" flag="0"/>
		</comp>
		<comp name="--.HNZ" depth="0.0">
			<acc value="0.00256606302030527" flag="0"/>
			<vel value="0.00318523768033652" flag="0"/>
			<psa03 value="0.00749848371691226" flag="0"/>
			<psa10 value="0.00434394792148081" flag="0"/>
			<psa30 value="0.000473482407552436" flag="0"/>
		</comp>
	</station>
	<station code="PYR2" name="PYR2" netid="HI" source="ITSAK Strong Motion Network" insttype="" lat="37.6671" lon="21.4506" esm:processing="automatic (Paolucci et al 2011)" esm:quality="best">
		<comp name="--.HNE" depth="0.0">
			<acc value="0.0860395314598599" flag="0"/>
			<vel value="0.0296781123475488" flag="0"/>
			<psa03 value="0.131344440507912" flag="0"/>
			<psa10 value="0.0233057988947978" flag="0"/>
			<psa30 value="0.00460446043957327" flag="0"/>
		</comp>
		<comp name="--.HNN" depth="0.0">
			<acc value="0.0827742632742972" flag="0"/>
			<vel value="0.0254074310041366" flag="0"/>
			<psa03 value="0.116386001668084" flag="0"/>
			<psa10 value="0.0354582051820735" flag="0"/>
			<psa30 value="0.0038703330572371" flag="0"/>
		</comp>
		<comp name="--.HNZ" depth="0.0">
			<acc value="0.0727418533084051" flag="0"/>
			<vel value="0.0147057535883348" flag="0"/>
			<psa03 value="0.0554123895488577" flag="0"/>
			<psa10 value="0.0149813977565765" flag="0"/>
			<psa30 value="0.00384262163815825" flag="0"/>
		</comp>
	</station>
	<station code="PYR3" name="PYR3" netid="HI" source="ITSAK Strong Motion Network" insttype="" lat="37.6788" lon="21.46209" esm:processing="automatic (Paolucci et al 2011)" esm:quality="best">
		<comp name="--.HNE" depth="0.0">
			<acc value="0.116178104501893" flag="0"/>
			<vel value="0.0417907725985011" flag="0"/>
			<psa03 value="0.214503751487473" flag="0"/>
			<psa10 value="0.041452763542145" flag="0"/>
			<psa30 value="0.00533389042739677" flag="0"/>
		</comp>
		<comp name="--.HNN" depth="0.0">
			<acc value="0.116319048566667" flag="0"/>
			<vel value="0.0450691563631046" flag="0"/>
			<psa03 value="0.184607500174213" flag="0"/>
			<psa10 value="0.0221817650580726" flag="0"/>
			<psa30 value="0.00282738896730964" flag="0"/>
		</comp>
		<comp name="--.HNZ" depth="0.0">
			<acc value="0.0470200500878848" flag="0"/>
			<vel value="0.18253019709254" flag="0"/>
			<psa03 value="0.112455564212559" flag="0"/>
