<stationlist created="1778069844">
	<station code="KRMN" name="KRMN" netid="KO" source="Bogazici University Kandilli Observatory And Earthquake Research Institute (KOERI)" insttype="" lat="37.174" lon="33.2636">
		<comp name="--.HNE" depth="0.0">
			<acc value="0.0255338485686282" flag="0"/>
			<vel value="0.020862262680902" flag="0"/>
			<psa03 value="0.0652341372494402" flag="0"/>
			<psa10 value="0.0291499950338702" flag="0"/>
			<psa30 value="0.00507510849671056" flag="0"/>
		</comp>
		<comp name="--.HNN" depth="0.0">
			<acc value="0.0229675396591225" flag="0"/>
			<vel value="0.0159711631247648" flag="0"/>
			<psa03 value="0.0610731120339409" flag="0"/>
			<psa10 value="0.0296775056498997" flag="0"/>
			<psa30 value="0.00370420728592672" flag="0"/>
		</comp>
		<comp name="--.HNZ" depth="0.0">
			<acc value="0.0190432299514594" flag="0"/>
			<vel value="0.0141974632098377" flag="0"/>
			<psa03 value="0.0531537414625068" flag="0"/>
			<psa10 value="0.0111824197001047" flag="0"/>
			<psa30 value="0.0034715478115117" flag="0"/>
		</comp>
	</station>
	<station code="KRTS" name="KRTS" netid="KO" source="Bogazici University Kandilli Observatory And Earthquake Research Institute (KOERI)" insttype="" lat="36.573" lon="35.375">
		<comp name="--.HNE" depth="0.0">
			<acc value="0.0274139532500263" flag="0"/>
			<vel value="0.022309168701021" flag="0"/>
			<psa03 value="0.0689029981921385" flag="0"/>
			<psa10 value="0.0269916309866048" flag="0"/>
			<psa30 value="0.00855605217161211" flag="0"/>
		</comp>
		<comp name="--.HNN" depth="0.0">
			<acc value="0.0250151972381556" flag="0"/>
			<vel value="0.0152483191305937" flag="0"/>
			<psa03 value="0.0444737533785621" flag="0"/>
			<psa10 value="0.0230332879670863" flag="0"/>
			<psa30 value="0.00661647751471003" flag="0"/>
		</comp>
		<comp name="--.HNZ" depth="0.0">
			<acc value="0.0548815792098171" flag="0"/>
			<vel value="0.0121016147574211" flag="0"/>
			<psa03 value="0.0330197484842846" flag="0"/>
			<psa10 value="0.0198682242709098" flag="0"/>
			<psa30 value="0.00546436569428953" flag="0"/>
		</comp>
	</station>
</stationlist>
