<?xml version="1.0" encoding="UTF-8" standalone="yes"?>
<!DOCTYPE earthquake SYSTEM "stationlist.dtd">
<stationlist created="" xmlns="ch.ethz.sed.shakemap.usgs.xml">
  <station code="GULA" name="GULA" netid="KO" insttype="30s," lat="38.3444" lon="34.236">
    <comp name="--.HHE">
      <acc value="0.2998134029" flag="0"/>
      <vel value="0.1173233049" flag="0"/>
      <psa03 value="0.6983761049" flag="0"/>
      <psa10 value="0.0521102439" flag="0"/>
      <psa30 value="0.0041987262" flag="0"/>
    </comp>
    <comp name="--.HHZ">
      <acc value="0.0960063153" flag="0"/>
      <vel value="0.0277530248" flag="0"/>
      <psa03 value="0.1995035350" flag="0"/>
      <psa10 value="0.0114162528" flag="0"/>
      <psa30 value="0.0010936805" flag="0"/>
    </comp>
    <comp name="--.HHN">
      <acc value="0.2494147207" flag="0"/>
      <vel value="0.1048994858" flag="0"/>
      <psa03 value="0.6991025621" flag="0"/>
      <psa10 value="0.0379473851" flag="0"/>
      <psa30 value="0.0032980928" flag="0"/>
    </comp>
  </station>
  <station code="SERE" name="SERE" netid="KO" insttype="30s," lat="38.9463" lon="33.564">
    <comp name="--.HHN">
      <acc value="0.0207398948" flag="0"/>
      <vel value="0.0144283176" flag="0"/>
      <psa03 value="0.0845414146" flag="0"/>
      <psa10 value="0.0099161497" flag="0"/>
      <psa30 value="0.0045270593" flag="0"/>
    </comp>
    <comp name="--.HHE">
      <acc value="0.0179702179" flag="0"/>
      <vel value="0.0095846632" flag="0"/>
      <psa03 value="0.0778960689" flag="0"/>
      <psa10 value="0.0072984426" flag="0"/>
      <psa30 value="0.0026280016" flag="0"/>
    </comp>
    <comp name="--.HHZ">
      <acc value="0.0123551496" flag="0"/>
      <vel value="0.0044633883" flag="0"/>
      <psa03 value="0.0293373801" flag="0"/>
      <psa10 value="0.0054577464" flag="0"/>
      <psa30 value="0.0016454248" flag="0"/>
    </comp>
  </station>
  <station code="YESY" name="YESY" netid="KO" insttype="30s," lat="37.7825" lon="33.7432">
    <comp name="--.HHE">
      <acc value="0.0417689595" flag="0"/>
      <vel value="0.0324091062" flag="0"/>
      <psa03 value="0.1011342263" flag="0"/>
      <psa10 value="0.0650652961" flag="0"/>
      <psa30 value="0.0151239688" flag="0"/>
    </comp>
    <comp name="--.HHN">
      <acc value="0.0348556157" flag="0"/>
      <vel value="0.0449726724" flag="0"/>
      <psa03 value="0.0944726446" flag="0"/>
      <psa10 value="0.0588430752" flag="0"/>
      <psa30 value="0.0067565622" flag="0"/>
    </comp>
    <comp name="--.HHZ">
      <acc value="0.0250125625" flag="0"/>
      <vel value="0.0230983530" flag="0"/>
      <psa03 value="0.0785381250" flag="0"/>
      <psa10 value="0.0198455938" flag="0"/>
      <psa30 value="0.0056122821" flag="0"/>
    </comp>
  </station>
</stationlist>
