<?xml version="1.0" encoding="UTF-8" standalone="yes"?>
<!DOCTYPE earthquake SYSTEM "stationlist.dtd">
<stationlist created="" xmlns="ch.ethz.sed.shakemap.usgs.xml">
  <station code="SARI" name="SARI" netid="KO" insttype="CMG-3T" lat="38.4072" lon="36.4181">
    <comp name="--.HHE">
      <acc value="0.2180594597" flag="0"/>
      <vel value="0.0562211919" flag="0"/>
      <psa03 value="0.1989761011" flag="0"/>
      <psa10 value="0.0232822575" flag="0"/>
      <psa30 value="0.0019603051" flag="0"/>
    </comp>
    <comp name="--.HHN">
      <acc value="0.1462595659" flag="0"/>
      <vel value="0.0351603711" flag="0"/>
      <psa03 value="0.2647763113" flag="0"/>
      <psa10 value="0.0343778198" flag="0"/>
      <psa30 value="0.0020041973" flag="0"/>
    </comp>
    <comp name="--.HHZ">
      <acc value="0.1227402156" flag="0"/>
      <vel value="0.0448382446" flag="0"/>
      <psa03 value="0.1713871324" flag="0"/>
      <psa10 value="0.0250995330" flag="0"/>
      <psa30 value="0.0024107507" flag="0"/>
    </comp>
  </station>
</stationlist>
