<?xml version="1.0" encoding="UTF-8" standalone="yes"?>
<!DOCTYPE earthquake SYSTEM "stationlist.dtd">
<stationlist created="" xmlns="ch.ethz.sed.shakemap.usgs.xml">
  <station code="THERA" name="THERA" netid="GE" insttype="STS-2/N" lat="36.367" lon="25.4753">
    <comp name="--.HHE">
      <acc value="0.0661697724" flag="0"/>
      <vel value="0.0224001238" flag="0"/>
      <psa03 value="0.0702613917" flag="0"/>
      <psa10 value="0.0120887475" flag="0"/>
      <psa30 value="0.0011745442" flag="0"/>
    </comp>
    <comp name="--.HHN">
      <acc value="0.0498000237" flag="0"/>
      <vel value="0.0123785443" flag="0"/>
      <psa03 value="0.0557149014" flag="0"/>
      <psa10 value="0.0054161043" flag="0"/>
      <psa30 value="0.0005996126" flag="0"/>
    </comp>
    <comp name="--.HHZ">
      <acc value="0.0562856239" flag="0"/>
      <vel value="0.0152017907" flag="0"/>
      <psa03 value="0.0618748850" flag="0"/>
      <psa10 value="0.0098340416" flag="0"/>
      <psa30 value="0.0007595550" flag="0"/>
    </comp>
  </station>
</stationlist>
