<stationlist created="1778135977">
	<station code="BLY" name="BLY" netid="MN" source="Mediterranean Very Broadband Seismographic Network (MedNet)" insttype="" lat="44.7488" lon="17.1839">
		<comp name="--.HNE" depth="1.0">
			<acc value="0.0275671690433801" flag="0"/>
			<vel value="0.0225057466785124" flag="0"/>
			<psa03 value="0.0645895443653972" flag="0"/>
			<psa10 value="0.0310793607301161" flag="0"/>
			<psa30 value="0.0022381297234433" flag="0"/>
		</comp>
		<comp name="--.HNN" depth="1.0">
			<acc value="0.0218900182016977" flag="0"/>
			<vel value="0.0164934080673031" flag="0"/>
			<psa03 value="0.0736730679789997" flag="0"/>
			<psa10 value="0.0269097613896139" flag="0"/>
			<psa30 value="0.00272699981702291" flag="0"/>
		</comp>
		<comp name="--.HNZ" depth="1.0">
			<acc value="0.0158930576336566" flag="0"/>
			<vel value="0.0116555715372536" flag="0"/>
			<psa03 value="0.0512534994593112" flag="0"/>
			<psa10 value="0.0129587500160762" flag="0"/>
			<psa30 value="0.00163016746975962" flag="0"/>
		</comp>
	</station>
	<station code="BOJS" name="BOJS" netid="SL" source="Seismic Network of the Republic of Slovenia (SNRS)" insttype="" lat="45.5043" lon="15.2518">
		<comp name="--.HNE" depth="0.0">
			<acc value="0.0730337513325847" flag="0"/>
			<vel value="0.0269251727982729" flag="0"/>
			<psa03 value="0.163890702842729" flag="0"/>
			<psa10 value="0.0182776388256302" flag="0"/>
			<psa30 value="0.00187738298970268" flag="0"/>
		</comp>
		<comp name="--.HNN" depth="0.0">
			<acc value="0.0901685533090932" flag="0"/>
			<vel value="0.0392695892147172" flag="0"/>
			<psa03 value="0.187648814557032" flag="0"/>
			<psa10 value="0.029911059968447" flag="0"/>
			<psa30 value="0.00235522975638582" flag="0"/>
		</comp>
		<comp name="--.HNZ" depth="0.0">
			<acc value="0.0627279175915887" flag="0"/>
			<vel value="0.0215908836819953" flag="0"/>
			<psa03 value="0.111184383446405" flag="0"/>
			<psa10 value="0.0225218845454394" flag="0"/>
			<psa30 value="0.00166262039793498" flag="0"/>
		</comp>
	</station>
	<station code="CADS" name="CADS" netid="SL" source="Seismic Network of the Republic of Slovenia (SNRS)" insttype="" lat="46.2281" lon="13.7368">
		<comp name="--.HNE" depth="0.0">
			<acc value="0.0170629932883813" flag="0"/>
			<vel value="0.0081957753297086" flag="0"/>
			<psa03 value="0.0495018417538785" flag="0"/>
			<psa10 value="0.00775480918681568" flag="0"/>
			<psa30 value="0.000791950327404491" flag="0"/>
		</comp>
		<comp name="--.HNN" depth="0.0">
			<acc value="0.0169647084366174" flag="0"/>
			<vel value="0.00868924612483898" flag="0"/>
			<psa03 value="0.0572419690828059" flag="0"/>
			<psa10 value="0.0103412031789634" flag="0"/>
			<psa30 value="0.00070101966828031" flag="0"/>
		</comp>
		<comp name="--.HNZ" depth="0.0">
			<acc value="0.0096887930200531" flag="0"/>
			<vel value="0.00624850267518442" flag="0"/>
			<psa03 value="0.0283264676353023" flag="0"/>
			<psa10 value="0.0062255741324919" flag="0"/>
			<psa30 value="0.000386999803504249" flag="0"/>
		</comp>
	</station>
	<station code="CEY" name="CEY" netid="SL" source="Seismic Network of the Republic of Slovenia (SNRS)" insttype="" lat="45.7381" lon="14.4221">
		<comp name="--.HNE" depth="0.0">
			<acc value="0.0370722820846043" flag="0"/>
			<vel value="0.0178167585698453" flag="0"/>
			<psa03 value="0.0867511687141057" flag="0"/>
			<psa10 value="0.0242896071922763" flag="0"/>
			<psa30 value="0.00105770975558158" flag="0"/>
		</comp>
		<comp name="--.HNN" depth="0.0">
			<acc value="0.0278382092673678" flag="0"/>
			<vel value="0.0204542017964509" flag="0"/>
			<psa03 value="0.0769884230219008" flag="0"/>
			<psa10 value="0.0252103681881751" flag="0"/>
			<psa30 value="0.00153544421564383" flag="0"/>
		</comp>
		<comp name="--.HNZ" depth="0.0">
			<acc value="0.0278857049826592" flag="0"/>
			<vel value="0.0169595120179252" flag="0"/>
			<psa03 value="0.0781877733061313" flag="0"/>
			<psa10 value="0.031599195791652" flag="0"/>
			<psa30 value="0.00124199810961101" flag="0"/>
		</comp>
	</station>
	<station code="CRES" name="CRES" netid="SL" source="Seismic Network of the Republic of Slovenia (SNRS)" insttype="" lat="45.826" lon="15.4569">
		<comp name="--.HNE" depth="0.0">
			<acc value="0.135552296990335" flag="0"/>
			<vel value="0.0464713118721626" flag="0"/>
			<psa03 value="0.372120932444166" flag="0"/>
			<psa10 value="0.0243017295247143" flag="0"/>
			<psa30 value="0.00138074449623987" flag="0"/>
		</comp>
		<comp name="--.HNN" depth="0.0">
			<acc value="0.122806724949095" flag="0"/>
			<vel value="0.0546196573485459" flag="0"/>
			<psa03 value="0.447243097356245" flag="0"/>
			<psa10 value="0.0251070892438432" flag="0"/>
			<psa30 value="0.00155165972552166" flag="0"/>
		</comp>
		<comp name="--.HNZ" depth="0.0">
			<acc value="0.0778112363535714" flag="0"/>
			<vel value="0.0228139340823549" flag="0"/>
			<psa03 value="0.150557525270484" flag="0"/>
			<psa10 value="0.0127085763678539" flag="0"/>
			<psa30 value="0.00104741505693374" flag="0"/>
		</comp>
	</station>
	<station code="CRNS" name="CRNS" netid="SL" source="Seismic Network of the Republic of Slovenia (SNRS)" insttype="" lat="46.0807" lon="14.2613">
		<comp name="--.HNE" depth="0.0">
			<acc value="0.0539682338679323" flag="0"/>
			<vel value="0.0199017615007167" flag="0"/>
			<psa03 value="0.121568803336479" flag="0"/>
			<psa10 value="0.0145365995408912" flag="0"/>
			<psa30 value="0.001346530451032" flag="0"/>
		</comp>
		<comp name="--.HNN" depth="0.0">
			<acc value="0.046858749768023" flag="0"/>
			<vel value="0.0179570465944881" flag="0"/>
			<psa03 value="0.129941930931857" flag="0"/>
			<psa10 value="0.0122049107029404" flag="0"/>
			<psa30 value="0.00131845692463512" flag="0"/>
		</comp>
		<comp name="--.HNZ" depth="0.0">
			<acc value="0.0227432999020308" flag="0"/>
			<vel value="0.00802610201638934" flag="0"/>
			<psa03 value="0.0490420560871636" flag="0"/>
			<psa10 value="0.00900763733676238" flag="0"/>
			<psa30 value="0.000706006092354438" flag="0"/>
		</comp>
	</station>
	<station code="GBAS" name="GBAS" netid="SL" source="Seismic Network of the Republic of Slovenia (SNRS)" insttype="" lat="45.9348" lon="14.4434">
		<comp name="--.HNE" depth="0.0">
			<acc value="0.0125477485299569" flag="0"/>
			<vel value="0.00864711744070612" flag="0"/>
			<psa03 value="0.0292078984215913" flag="0"/>
			<psa10 value="0.0111958904228039" flag="0"/>
			<psa30 value="0.000608813820509536" flag="0"/>
		</comp>
		<comp name="--.HNN" depth="0.0">
			<acc value="0.0187910631370299" flag="0"/>
			<vel value="0.00894512469906682" flag="0"/>
			<psa03 value="0.0343646853459064" flag="0"/>
			<psa10 value="0.0109224607469079" flag="0"/>
			<psa30 value="0.000730552249667989" flag="0"/>
		</comp>
		<comp name="--.HNZ" depth="0.0">
			<acc value="0.0138039928830992" flag="0"/>
			<vel value="0.0105055759856061" flag="0"/>
			<psa03 value="0.0352858218875387" flag="0"/>
			<psa10 value="0.0101422187472074" flag="0"/>
			<psa30 value="0.000734481364120685" flag="0"/>
		</comp>
	</station>
	<station code="GORS" name="GORS" netid="SL" source="Seismic Network of the Republic of Slovenia (SNRS)" insttype="" lat="46.3174" lon="13.9999">
		<comp name="--.HNE" depth="0.0">
			<acc value="0.0107969610571767" flag="0"/>
			<vel value="0.00627006501581974" flag="0"/>
			<psa03 value="0.0261330046208" flag="0"/>
			<psa10 value="0.00909625570730191" flag="0"/>
			<psa30 value="0.000545234348265509" flag="0"/>
		</comp>
		<comp name="--.HNN" depth="0.0">
			<acc value="0.00748404951615742" flag="0"/>
			<vel value="0.00559615874103989" flag="0"/>
			<psa03 value="0.0224829138618668" flag="0"/>
			<psa10 value="0.00989610681850168" flag="0"/>
			<psa30 value="0.000678432859513464" flag="0"/>
		</comp>
		<comp name="--.HNZ" depth="0.0">
			<acc value="0.0106889525642779" flag="0"/>
			<vel value="0.00725468201380199" flag="0"/>
			<psa03 value="0.0301479476744065" flag="0"/>
			<psa10 value="0.00899696787998249" flag="0"/>
			<psa30 value="0.000542927737131306" flag="0"/>
		</comp>
	</station>
	<station code="KOGS" name="KOGS" netid="SL" source="Seismic Network of the Republic of Slovenia (SNRS)" insttype="" lat="46.4481" lon="16.2504">
		<comp name="--.HNE" depth="0.0">
			<acc value="0.229159542401876" flag="0"/>
			<vel value="0.11215925923819" flag="0"/>
			<psa03 value="0.418895666448659" flag="0"/>
			<psa10 value="0.090753656984308" flag="0"/>
			<psa30 value="0.00821745936636648" flag="0"/>
		</comp>
		<comp name="--.HNN" depth="0.0">
			<acc value="0.241133847498103" flag="0"/>
			<vel value="0.0902448914484344" flag="0"/>
			<psa03 value="0.620858378822513" flag="0"/>
			<psa10 value="0.049060761284708" flag="0"/>
			<psa30 value="0.00357554769581964" flag="0"/>
		</comp>
		<comp name="--.HNZ" depth="0.0">
			<acc value="0.131102121648078" flag="0"/>
			<vel value="0.0607816925587538" flag="0"/>
			<psa03 value="0.318554227654309" flag="0"/>
			<psa10 value="0.0253049813308166" flag="0"/>
			<psa30 value="0.00199397709119543" flag="0"/>
		</comp>
	</station>
	<station code="LJU" name="LJU" netid="SL" source="Seismic Network of the Republic of Slovenia (SNRS)" insttype="" lat="46.0438" lon="14.5278">
		<comp name="--.HNE" depth="0.0">
			<acc value="0.0382195727043358" flag="0"/>
			<vel value="0.0185628978497828" flag="0"/>
			<psa03 value="0.0799869966626031" flag="0"/>
			<psa10 value="0.0325695013196198" flag="0"/>
			<psa30 value="0.00165660380436979" flag="0"/>
		</comp>
		<comp name="--.HNN" depth="0.0">
			<acc value="0.0368003386410815" flag="0"/>
			<vel value="0.0183548497422138" flag="0"/>
			<psa03 value="0.123233746964097" flag="0"/>
			<psa10 value="0.0207641017698251" flag="0"/>
			<psa30 value="0.00129578479771509" flag="0"/>
		</comp>
		<comp name="--.HNZ" depth="0.0">
			<acc value="0.0212377556346771" flag="0"/>
			<vel value="0.0113269021782907" flag="0"/>
			<psa03 value="0.0341706881195621" flag="0"/>
			<psa10 value="0.0124442862478722" flag="0"/>
			<psa30 value="0.00169631935199694" flag="0"/>
		</comp>
	</station>
	<station code="MOZS" name="MOZS" netid="SL" source="Seismic Network of the Republic of Slovenia (SNRS)" insttype="" lat="46.2941" lon="14.4433">
		<comp name="--.HNE" depth="0.0">
			<acc value="0.026731846400688" flag="0"/>
			<vel value="0.01524328590081" flag="0"/>
			<psa03 value="0.0837370419597963" flag="0"/>
			<psa10 value="0.0117001525776752" flag="0"/>
			<psa30 value="0.000939569012667101" flag="0"/>
		</comp>
		<comp name="--.HNN" depth="0.0">
			<acc value="0.0203646820731811" flag="0"/>
			<vel value="0.0101020839717433" flag="0"/>
			<psa03 value="0.0611329091300091" flag="0"/>
			<psa10 value="0.0119903224250155" flag="0"/>
			<psa30 value="0.00106119144455874" flag="0"/>
		</comp>
		<comp name="--.HNZ" depth="0.0">
			<acc value="0.00896946627457689" flag="0"/>
			<vel value="0.00777584433655695" flag="0"/>
			<psa03 value="0.0214054349320742" flag="0"/>
			<psa10 value="0.0093106067820247" flag="0"/>
			<psa30 value="0.00121696811816448" flag="0"/>
		</comp>
	</station>
	<station code="PERS" name="PERS" netid="SL" source="Seismic Network of the Republic of Slovenia (SNRS)" insttype="" lat="46.6365" lon="15.1139">
		<comp name="--.HNE" depth="0.0">
			<acc value="0.0390810091253102" flag="0"/>
			<vel value="0.0194381197430264" flag="0"/>
			<psa03 value="0.106573726653175" flag="0"/>
			<psa10 value="0.0106181243361248" flag="0"/>
			<psa30 value="0.000850330809408865" flag="0"/>
		</comp>
		<comp name="--.HNN" depth="0.0">
			<acc value="0.0618866518419116" flag="0"/>
			<vel value="0.0401482330556349" flag="0"/>
			<psa03 value="0.216392355764688" flag="0"/>
			<psa10 value="0.0173509744169112" flag="0"/>
			<psa30 value="0.00154273844885158" flag="0"/>
		</comp>
		<comp name="--.HNZ" depth="0.0">
			<acc value="0.0267149304897258" flag="0"/>
			<vel value="0.0125722005198408" flag="0"/>
			<psa03 value="0.0650963748154106" flag="0"/>
			<psa10 value="0.0124934257531427" flag="0"/>
			<psa30 value="0.000811580846582078" flag="0"/>
		</comp>
	</station>
	<station code="SKDS" name="SKDS" netid="SL" source="Seismic Network of the Republic of Slovenia (SNRS)" insttype="" lat="45.5464" lon="14.0143">
		<comp name="--.HNE" depth="0.0">
			<acc value="0.0162292291718155" flag="0"/>
			<vel value="0.0116903844665049" flag="0"/>
			<psa03 value="0.0268048668367017" flag="0"/>
			<psa10 value="0.0136787855274039" flag="0"/>
			<psa30 value="0.000817873815544989" flag="0"/>
		</comp>
		<comp name="--.HNN" depth="0.0">
			<acc value="0.0209082007214343" flag="0"/>
			<vel value="0.0172113668902636" flag="0"/>
			<psa03 value="0.0481357043791651" flag="0"/>
			<psa10 value="0.0271408141957603" flag="0"/>
			<psa30 value="0.00201907312868471" flag="0"/>
		</comp>
		<comp name="--.HNZ" depth="0.0">
			<acc value="0.0182823829579881" flag="0"/>
			<vel value="0.0129268247737967" flag="0"/>
			<psa03 value="0.0549173723815335" flag="0"/>
			<psa10 value="0.0249415147529259" flag="0"/>
			<psa30 value="0.00175795603929495" flag="0"/>
		</comp>
	</station>
	<station code="VISS" name="VISS" netid="SL" source="Seismic Network of the Republic of Slovenia (SNRS)" insttype="" lat="45.8033" lon="14.8393">
		<comp name="--.HNE" depth="0.0">
			<acc value="0.0463820672263499" flag="0"/>
			<vel value="0.0162171262170544" flag="0"/>
			<psa03 value="0.0877366246205868" flag="0"/>
			<psa10 value="0.0102249314140406" flag="0"/>
			<psa30 value="0.00100703702376177" flag="0"/>
		</comp>
		<comp name="--.HNN" depth="0.0">
			<acc value="0.0472082131692902" flag="0"/>
			<vel value="0.0135757946767837" flag="0"/>
			<psa03 value="0.0730140451557004" flag="0"/>
			<psa10 value="0.012078175744855" flag="0"/>
			<psa30 value="0.00120431425907687" flag="0"/>
		</comp>
		<comp name="--.HNZ" depth="0.0">
			<acc value="0.0306313820948214" flag="0"/>
			<vel value="0.0155688410070386" flag="0"/>
			<psa03 value="0.0860393038481634" flag="0"/>
			<psa10 value="0.0174726381015155" flag="0"/>
			<psa30 value="0.000873986647324663" flag="0"/>
		</comp>
	</station>
	<station code="VNDS" name="VNDS" netid="SL" source="Seismic Network of the Republic of Slovenia (SNRS)" insttype="" lat="46.1016" lon="14.7014">
		<comp name="--.HNE" depth="0.0">
			<acc value="0.0395416281030882" flag="0"/>
			<vel value="0.0185382570258901" flag="0"/>
			<psa03 value="0.112524943808506" flag="0"/>
			<psa10 value="0.0223825946120508" flag="0"/>
			<psa30 value="0.00212242955887651" flag="0"/>
		</comp>
		<comp name="--.HNN" depth="0.0">
			<acc value="0.045749405250443" flag="0"/>
			<vel value="0.0160429622784101" flag="0"/>
			<psa03 value="0.149040987817431" flag="0"/>
			<psa10 value="0.0286316973344148" flag="0"/>
			<psa30 value="0.00161474488558957" flag="0"/>
		</comp>
		<comp name="--.HNZ" depth="0.0">
			<acc value="0.016508941680798" flag="0"/>
			<vel value="0.0108516256899773" flag="0"/>
			<psa03 value="0.0400322925678975" flag="0"/>
			<psa10 value="0.011997282886118" flag="0"/>
			<psa30 value="0.00178343043517848" flag="0"/>
		</comp>
	</station>
	<station code="VOJS" name="VOJS" netid="SL" source="Seismic Network of the Republic of Slovenia (SNRS)" insttype="" lat="46.0322" lon="13.8877">
		<comp name="--.HNE" depth="0.0">
			<acc value="0.018291855832578" flag="0"/>
			<vel value="0.00731498129506779" flag="0"/>
			<psa03 value="0.0483989978625973" flag="0"/>
			<psa10 value="0.00840974460432132" flag="0"/>
			<psa30 value="0.000781378897935793" flag="0"/>
		</comp>
		<comp name="--.HNN" depth="0.0">
			<acc value="0.0153032836314856" flag="0"/>
			<vel value="0.00912925757112717" flag="0"/>
			<psa03 value="0.0382282277449869" flag="0"/>
			<psa10 value="0.0107983800271842" flag="0"/>
			<psa30 value="0.00118444710964351" flag="0"/>
		</comp>
		<comp name="--.HNZ" depth="0.0">
			<acc value="0.0112220465733432" flag="0"/>
			<vel value="0.00673300765618681" flag="0"/>
			<psa03 value="0.0323250424170841" flag="0"/>
			<psa10 value="0.00666994200715525" flag="0"/>
			<psa30 value="0.000940106964973229" flag="0"/>
		</comp>
	</station>
</stationlist>
