<?xml version="1.0" encoding="UTF-8" standalone="yes"?>
<!DOCTYPE earthquake SYSTEM "stationlist.dtd">
<stationlist created="" xmlns="ch.ethz.sed.shakemap.usgs.xml">
  <station code="BEHE" name="BEHE" netid="HU" insttype="" lat="46.4703" lon="16.7755">
    <comp name="--.HHE">
      <acc value="0.0743330270" flag="0"/>
      <vel value="0.0294377021" flag="0"/>
      <psa03 value="0.2291605199" flag="0"/>
      <psa10 value="0.0371792190" flag="0"/>
      <psa30 value="0.0021748901" flag="0"/>
    </comp>
    <comp name="--.HHZ">
      <acc value="0.0414005850" flag="0"/>
      <vel value="0.0187665906" flag="0"/>
      <psa03 value="0.1275681080" flag="0"/>
      <psa10 value="0.0184934280" flag="0"/>
      <psa30 value="0.0011040979" flag="0"/>
    </comp>
    <comp name="--.HHN">
      <acc value="0.0631314273" flag="0"/>
      <vel value="0.0356245278" flag="0"/>
      <psa03 value="0.2472023780" flag="0"/>
      <psa10 value="0.0280876155" flag="0"/>
      <psa30 value="0.0020964695" flag="0"/>
    </comp>
  </station>
  <station code="BLY" name="BLY" netid="MN" insttype="" lat="44.7488" lon="17.1839">
    <comp name="--.HHE">
      <acc value="0.0285801536" flag="0"/>
      <vel value="0.0222886324" flag="0"/>
      <psa03 value="0.0647106463" flag="0"/>
      <psa10 value="0.0307630857" flag="0"/>
      <psa30 value="0.0021412976" flag="0"/>
    </comp>
    <comp name="--.HHZ">
      <acc value="0.0162844728" flag="0"/>
      <vel value="0.0112167021" flag="0"/>
      <psa03 value="0.0526898667" flag="0"/>
      <psa10 value="0.0129115119" flag="0"/>
      <psa30 value="0.0012475005" flag="0"/>
    </comp>
    <comp name="--.HHN">
      <acc value="0.0220965608" flag="0"/>
      <vel value="0.0162491242" flag="0"/>
      <psa03 value="0.0735196575" flag="0"/>
      <psa10 value="0.0264511683" flag="0"/>
      <psa30 value="0.0023205692" flag="0"/>
    </comp>
  </station>
</stationlist>
