<stationlist created="1775820310">
	<station code="CTRM" name="CTRM" netid="CA" source="Catalan Seismic Network (CA)" insttype="" lat="42.160858" lon="0.893644">
		<comp name="--.HNE" depth="0.0">
			<acc value="0.0118558507642622" flag="0"/>
			<vel value="0.00579768345331079" flag="0"/>
			<psa03 value="0.0194181176723299" flag="0"/>
			<psa10 value="0.00559322324935015" flag="0"/>
			<psa30 value="0.000539143589750175" flag="0"/>
		</comp>
		<comp name="--.HNN" depth="0.0">
			<acc value="0.0148854987232273" flag="0"/>
			<vel value="0.00646626850388921" flag="0"/>
			<psa03 value="0.0281875901695112" flag="0"/>
			<psa10 value="0.00934217274189514" flag="0"/>
			<psa30 value="0.000500217869992278" flag="0"/>
		</comp>
		<comp name="--.HNZ" depth="0.0">
			<acc value="0.0118285731083092" flag="0"/>
			<vel value="0.00455800882836991" flag="0"/>
			<psa03 value="0.0198655397385127" flag="0"/>
			<psa10 value="0.00344291279927601" flag="0"/>
			<psa30 value="0.000663974346215153" flag="0"/>
		</comp>
	</station>
	<station code="ILER" name="ILER" netid="CA" source="Catalan Seismic Network (CA)" insttype="" lat="41.6153" lon="0.6262">
		<comp name="--.HNE" depth="0.0">
			<acc value="0.00966637370692067" flag="0"/>
			<vel value="0.00584190543516034" flag="0"/>
			<psa03 value="0.0310958335996989" flag="0"/>
			<psa10 value="0.00633012739235309" flag="0"/>
			<psa30 value="0.000726613435480733" flag="0"/>
		</comp>
		<comp name="--.HNN" depth="0.0">
			<acc value="0.00943937199853805" flag="0"/>
			<vel value="0.00453930568932672" flag="0"/>
			<psa03 value="0.0182995625068731" flag="0"/>
			<psa10 value="0.00527913295888988" flag="0"/>
			<psa30 value="0.000461739572300564" flag="0"/>
		</comp>
		<comp name="--.HNZ" depth="0.0">
			<acc value="0.005026065435027" flag="0"/>
			<vel value="0.00277923994019673" flag="0"/>
			<psa03 value="0.0125725600597344" flag="0"/>
			<psa10 value="0.00503752504315122" flag="0"/>
			<psa30 value="0.00049887560379373" flag="0"/>
		</comp>
	</station>
	<station code="VIER" name="VIER" netid="CA" source="Catalan Seismic Network (CA)" insttype="" lat="42.706473" lon="0.786306">
		<comp name="--.HNE" depth="0.0">
			<acc value="0.01587523226952" flag="0"/>
			<vel value="0.00618960007103145" flag="0"/>
			<psa03 value="0.0346304679225423" flag="0"/>
			<psa10 value="0.00599187631031895" flag="0"/>
			<psa30 value="0.000326170686247201" flag="0"/>
		</comp>
		<comp name="--.HNN" depth="0.0">
			<acc value="0.0154321480791948" flag="0"/>
			<vel value="0.00600709754933415" flag="0"/>
			<psa03 value="0.0310510913930806" flag="0"/>
			<psa10 value="0.00951532508150785" flag="0"/>
			<psa30 value="0.000496191071396634" flag="0"/>
		</comp>
		<comp name="--.HNZ" depth="0.0">
			<acc value="0.00852448393605148" flag="0"/>
			<vel value="0.00365311155060938" flag="0"/>
			<psa03 value="0.01449647494432" flag="0"/>
			<psa10 value="0.00465900597516064" flag="0"/>
			<psa30 value="0.000372702581130204" flag="0"/>
		</comp>
	</station>
	<station code="ATE" name="ATE" netid="FR" source="RESIF and other broad-band and accelerometric permanent networks in metropolitan France (RESIF)" insttype="" lat="43.0858" lon="-0.7007">
		<comp name="00.HNE" depth="0.0">
			<acc value="0.0237961704906379" flag="0"/>
			<vel value="0.0121829110122168" flag="0"/>
			<psa03 value="0.0448764332381266" flag="0"/>
			<psa10 value="0.0184507911652429" flag="0"/>
			<psa30 value="0.000968221351219401" flag="0"/>
		</comp>
		<comp name="00.HNN" depth="0.0">
			<acc value="0.0303983927724448" flag="0"/>
			<vel value="0.0159437057699357" flag="0"/>
			<psa03 value="0.0570463134382965" flag="0"/>
			<psa10 value="0.020375600893961" flag="0"/>
			<psa30 value="0.0023869967230848" flag="0"/>
		</comp>
		<comp name="00.HNZ" depth="0.0">
			<acc value="0.0227471331438095" flag="0"/>
			<vel value="0.00904451475201972" flag="0"/>
			<psa03 value="0.0285007856158391" flag="0"/>
			<psa10 value="0.0165219546379292" flag="0"/>
			<psa30 value="0.00218834132569967" flag="0"/>
		</comp>
	</station>
	<station code="PYLO" name="PYLO" netid="FR" source="RESIF and other broad-band and accelerometric permanent networks in metropolitan France (RESIF)" insttype="" lat="43.0969" lon="-0.04925">
		<comp name="00.HNE" depth="0.0">
			<acc value="0.00798649357189698" flag="0"/>
			<vel value="0.0044233337497583" flag="0"/>
			<psa03 value="0.0334671705504673" flag="0"/>
			<psa10 value="0.00459055039903468" flag="0"/>
			<psa30 value="0.000478294188749325" flag="0"/>
		</comp>
		<comp name="00.HNN" depth="0.0">
			<acc value="0.00692839369454287" flag="0"/>
			<vel value="0.00596691412673596" flag="0"/>
			<psa03 value="0.016465132035524" flag="0"/>
			<psa10 value="0.00600798350470153" flag="0"/>
			<psa30 value="0.000759275246312072" flag="0"/>
		</comp>
		<comp name="00.HNZ" depth="0.0">
			<acc value="0.00693968905099413" flag="0"/>
			<vel value="0.004476423812763" flag="0"/>
			<psa03 value="0.018433789126728" flag="0"/>
			<psa10 value="0.00397042341530543" flag="0"/>
			<psa30 value="0.000588807439096456" flag="0"/>
		</comp>
	</station>
	<station code="CANF" name="CANF" netid="LC" source="LSC (Laboratorio Subterraneo Canfranc)" insttype="" lat="42.763652" lon="-0.517495">
		<comp name="10.HNE" depth="0.0">
			<acc value="0.00874321793673635" flag="0"/>
			<vel value="0.00547216769775114" flag="0"/>
			<psa03 value="0.0227737831687003" flag="0"/>
			<psa10 value="0.00524289177152908" flag="0"/>
			<psa30 value="0.00100133058411692" flag="0"/>
		</comp>
		<comp name="10.HNN" depth="0.0">
			<acc value="0.00902624217476393" flag="0"/>
			<vel value="0.0057575811741037" flag="0"/>
			<psa03 value="0.014317506117847" flag="0"/>
			<psa10 value="0.006467038544605" flag="0"/>
			<psa30 value="0.00139193004789443" flag="0"/>
		</comp>
		<comp name="10.HNZ" depth="0.0">
			<acc value="0.00944841675826989" flag="0"/>
			<vel value="0.00877679068288252" flag="0"/>
			<psa03 value="0.0211183215238243" flag="0"/>
			<psa10 value="0.0106186678967144" flag="0"/>
			<psa30 value="0.00116598190447216" flag="0"/>
		</comp>
	</station>
	<station code="PYAD" name="PYAD" netid="RA" source="Reseau Accelerometrique Permanent (French Accelerometrique Network) (RAP)" insttype="" lat="43.0967" lon="-0.42805">
		<comp name="00.HNE" depth="0.0">
			<acc value="0.0245711595410341" flag="0"/>
			<vel value="0.00518626710139103" flag="0"/>
			<psa03 value="0.0156018825064573" flag="0"/>
			<psa10 value="0.00739570227271923" flag="0"/>
			<psa30 value="0.000322223246750417" flag="0"/>
		</comp>
		<comp name="00.HNN" depth="0.0">
			<acc value="0.0364580421892607" flag="0"/>
			<vel value="0.00803701523312503" flag="0"/>
			<psa03 value="0.015615076088837" flag="0"/>
			<psa10 value="0.00862864098010598" flag="0"/>
			<psa30 value="0.000274498705025231" flag="0"/>
		</comp>
		<comp name="00.HNZ" depth="0.0">
			<acc value="0.012841281832054" flag="0"/>
			<vel value="0.00360527765354804" flag="0"/>
			<psa03 value="0.0271212081052504" flag="0"/>
			<psa10 value="0.00575837802676797" flag="0"/>
			<psa30 value="0.000408207380277097" flag="0"/>
		</comp>
	</station>
	<station code="PYAS" name="PYAS" netid="RA" source="Reseau Accelerometrique Permanent (French Accelerometrique Network) (RAP)" insttype="" lat="43.011889" lon="0.797306">
		<comp name="00.HNE" depth="0.0">
			<acc value="0.00336013861115412" flag="0"/>
			<vel value="0.00213508212098394" flag="0"/>
			<psa03 value="0.00765091733172447" flag="0"/>
			<psa10 value="0.00335835002876748" flag="0"/>
			<psa30 value="0.000227737831687003" flag="0"/>
		</comp>
		<comp name="00.HNN" depth="0.0">
			<acc value="0.00471984810573872" flag="0"/>
			<vel value="0.00291011571252908" flag="0"/>
			<psa03 value="0.00908266794350917" flag="0"/>
			<psa10 value="0.00358385075012357" flag="0"/>
			<psa30 value="0.000319011933188278" flag="0"/>
		</comp>
		<comp name="00.HNZ" depth="0.0">
			<acc value="0.00344531049138923" flag="0"/>
			<vel value="0.00199646239034137" flag="0"/>
			<psa03 value="0.00872473029056299" flag="0"/>
			<psa10 value="0.00277446423239903" flag="0"/>
			<psa30 value="0.000291719187151132" flag="0"/>
		</comp>
	</station>
	<station code="PYCA" name="PYCA" netid="RA" source="Reseau Accelerometrique Permanent (French Accelerometrique Network) (RAP)" insttype="" lat="43.0236" lon="0.1771">
		<comp name="00.HNE" depth="0.0">
			<acc value="0.0536087674234768" flag="0"/>
			<vel value="0.0165347821002133" flag="0"/>
			<psa03 value="0.0783883459952121" flag="0"/>
			<psa10 value="0.01268441557628" flag="0"/>
			<psa30 value="0.00278386009578887" flag="0"/>
		</comp>
		<comp name="00.HNN" depth="0.0">
			<acc value="0.0578118916305482" flag="0"/>
			<vel value="0.0201567475496942" flag="0"/>
			<psa03 value="0.0879631782115223" flag="0"/>
			<psa10 value="0.0309056792215712" flag="0"/>
			<psa30 value="0.00153599995320527" flag="0"/>
		</comp>
		<comp name="00.HNZ" depth="0.0">
			<acc value="0.0605974188839447" flag="0"/>
			<vel value="0.0254014857348857" flag="0"/>
			<psa03 value="0.102056973296278" flag="0"/>
			<psa10 value="0.0395995373895676" flag="0"/>
			<psa30 value="0.00412165207367519" flag="0"/>
		</comp>
	</station>
	<station code="PYLI" name="PYLI" netid="RA" source="Reseau Accelerometrique Permanent (French Accelerometrique Network) (RAP)" insttype="" lat="43.00156" lon="1.13606">
		<comp name="00.HNE" depth="0.0">
			<acc value="0.00460454129029477" flag="0"/>
			<vel value="0.00298208491542658" flag="0"/>
			<psa03 value="0.0131542087457719" flag="0"/>
			<psa10 value="0.00552074087462855" flag="0"/>
			<psa30 value="0.000394178840306974" flag="0"/>
		</comp>
		<comp name="00.HNN" depth="0.0">
			<acc value="0.00480848280728261" flag="0"/>
			<vel value="0.00259298019081209" flag="0"/>
			<psa03 value="0.00841153484423509" flag="0"/>
			<psa10 value="0.00489658709230366" flag="0"/>
			<psa30 value="0.000385677821049502" flag="0"/>
		</comp>
		<comp name="00.HNZ" depth="0.0">
			<acc value="0.00305409360555631" flag="0"/>
			<vel value="0.00277960237832017" flag="0"/>
			<psa03 value="0.00689029981921385" flag="0"/>
			<psa10 value="0.0042482725184049" flag="0"/>
			<psa30 value="0.000396415950637888" flag="0"/>
		</comp>
	</station>
	<station code="PYLS" name="PYLS" netid="RA" source="Reseau Accelerometrique Permanent (French Accelerometrique Network) (RAP)" insttype="" lat="42.86026" lon="-0.00846">
		<comp name="00.HNE" depth="0.0">
			<acc value="0.0253211020819157" flag="0"/>
			<vel value="0.00682738879711613" flag="0"/>
			<psa03 value="0.0296193407812959" flag="0"/>
			<psa10 value="0.00511403421646846" flag="0"/>
			<psa30 value="0.000789699946812496" flag="0"/>
		</comp>
		<comp name="00.HNN" depth="0.0">
			<acc value="0.0191415879735404" flag="0"/>
			<vel value="0.00779182585159725" flag="0"/>
			<psa03 value="0.0499770447926096" flag="0"/>
			<psa10 value="0.00459055039903468" flag="0"/>
			<psa30 value="0.000423708696675033" flag="0"/>
		</comp>
		<comp name="00.HNZ" depth="0.0">
			<acc value="0.0173000406692645" flag="0"/>
			<vel value="0.00458044426495434" flag="0"/>
			<psa03 value="0.0230869786150282" flag="0"/>
			<psa10 value="0.00328989445264152" flag="0"/>
			<psa30 value="0.00122951583787011" flag="0"/>
		</comp>
	</station>
	<station code="PYPC" name="PYPC" netid="RA" source="Reseau Accelerometrique Permanent (French Accelerometrique Network) (RAP)" insttype="" lat="43.295" lon="-0.37523">
		<comp name="00.HNE" depth="0.0">
			<acc value="0.0198475141127274" flag="0"/>
			<vel value="0.00742994621117511" flag="0"/>
			<psa03 value="0.0549434297272377" flag="0"/>
			<psa10 value="0.00956364666465559" flag="0"/>
			<psa30 value="0.00118745816364893" flag="0"/>
		</comp>
		<comp name="00.HNN" depth="0.0">
			<acc value="0.0188206845283322" flag="0"/>
			<vel value="0.0081132935439187" flag="0"/>
			<psa03 value="0.0461739572300565" flag="0"/>
			<psa10 value="0.00798514161516296" flag="0"/>
			<psa30 value="0.00143219803385088" flag="0"/>
		</comp>
		<comp name="00.HNZ" depth="0.0">
			<acc value="0.0117506231068351" flag="0"/>
			<vel value="0.00633959001126107" flag="0"/>
			<psa03 value="0.0153465768700672" flag="0"/>
			<psa10 value="0.00735293423564678" flag="0"/>
			<psa30 value="0.00324202029155997" flag="0"/>
		</comp>
	</station>
	<station code="PYPP" name="PYPP" netid="RA" source="Reseau Accelerometrique Permanent (French Accelerometrique Network) (RAP)" insttype="" lat="43.1622" lon="-1.23361">
		<comp name="00.HNE" depth="0.0">
			<acc value="0.0443214159926648" flag="0"/>
			<vel value="0.0212065091367837" flag="0"/>
			<psa03 value="0.139998364508572" flag="0"/>
			<psa10 value="0.0234641554168203" flag="0"/>
			<psa30 value="0.00363933108633022" flag="0"/>
		</comp>
		<comp name="00.HNN" depth="0.0">
			<acc value="0.0418664422528916" flag="0"/>
			<vel value="0.0184796555042054" flag="0"/>
			<psa03 value="0.0980301747006334" flag="0"/>
			<psa10 value="0.0208145219408862" flag="0"/>
			<psa30 value="0.00174986770084061" flag="0"/>
		</comp>
		<comp name="00.HNZ" depth="0.0">
			<acc value="0.0338129537704023" flag="0"/>
			<vel value="0.0128400509807299" flag="0"/>
			<psa03 value="0.0499323025859913" flag="0"/>
			<psa10 value="0.015233379087323" flag="0"/>
			<psa30 value="0.00268945403982431" flag="0"/>
		</comp>
	</station>
	<station code="PYPU" name="PYPU" netid="RA" source="Reseau Accelerometrique Permanent (French Accelerometrique Network) (RAP)" insttype="" lat="43.315" lon="-0.36528">
		<comp name="00.HNE" depth="0.0">
			<acc value="0.0284817920267717" flag="0"/>
			<vel value="0.0184610845589044" flag="0"/>
			<psa03 value="0.0767776265569543" flag="0"/>
			<psa10 value="0.0390760535721338" flag="0"/>
			<psa30 value="0.00220086914355279" flag="0"/>
		</comp>
		<comp name="00.HNN" depth="0.0">
			<acc value="0.0337189441596556" flag="0"/>
			<vel value="0.0112220306562067" flag="0"/>
			<psa03 value="0.0499323025859913" flag="0"/>
			<psa10 value="0.0228520820302823" flag="0"/>
			<psa30 value="0.00156284527717623" flag="0"/>
		</comp>
		<comp name="00.HNZ" depth="0.0">
			<acc value="0.0097714160875617" flag="0"/>
			<vel value="0.0073371828381271" flag="0"/>
			<psa03 value="0.021565743590007" flag="0"/>
			<psa10 value="0.00807373118426714" flag="0"/>
			<psa30 value="0.00279773017984053" flag="0"/>
		</comp>
	</station>
	<station code="PYTB" name="PYTB" netid="RA" source="Reseau Accelerometrique Permanent (French Accelerometrique Network) (RAP)" insttype="" lat="43.2258" lon="0.04833">
		<comp name="00.HNE" depth="0.0">
			<acc value="0.0197981017453814" flag="0"/>
			<vel value="0.018467865634678" flag="0"/>
			<psa03 value="0.0387914931380416" flag="0"/>
			<psa10 value="0.0234842894097985" flag="0"/>
			<psa30 value="0.00162145756784617" flag="0"/>
		</comp>
		<comp name="00.HNN" depth="0.0">
			<acc value="0.0139233529657339" flag="0"/>
			<vel value="0.0103946762541184" flag="0"/>
			<psa03 value="0.037046547079929" flag="0"/>
			<psa10 value="0.0100750500863024" flag="0"/>
			<psa30 value="0.000785225726150669" flag="0"/>
		</comp>
		<comp name="00.HNZ" depth="0.0">
			<acc value="0.00844824789412611" flag="0"/>
			<vel value="0.00579653769113413" flag="0"/>
			<psa03 value="0.0234896584745927" flag="0"/>
			<psa10 value="0.00897170727109585" flag="0"/>
			<psa30 value="0.00132973838069504" flag="0"/>
		</comp>
	</station>
	<station code="PYTO" name="PYTO" netid="RA" source="Reseau Accelerometrique Permanent (French Accelerometrique Network) (RAP)" insttype="" lat="43.0881" lon="-0.041719">
		<comp name="08.HN1" depth="0.0">
			<acc value="0.00565513947639383" flag="0"/>
			<vel value="0.00271877910829563" flag="0"/>
			<psa03 value="0.0090379257368909" flag="0"/>
			<psa10 value="0.00426840651138312" flag="0"/>
			<psa30 value="0.000455923085440189" flag="0"/>
		</comp>
		<comp name="08.HN2" depth="0.0">
			<acc value="0.00645906837847283" flag="0"/>
			<vel value="0.00241782078347347" flag="0"/>
			<psa03 value="0.0106486451751487" flag="0"/>
			<psa10 value="0.00253688311525601" flag="0"/>
			<psa30 value="0.000702900065973049" flag="0"/>
		</comp>
		<comp name="08.HNZ" depth="0.0">
			<acc value="0.00593553372920285" flag="0"/>
			<vel value="0.00228204784362531" flag="0"/>
			<psa03 value="0.00926163676998225" flag="0"/>
			<psa10 value="0.00275835703801645" flag="0"/>
			<psa30 value="0.000594176503890649" flag="0"/>
		</comp>
		<comp name="09.HN1" depth="0.0">
			<acc value="0.00623444300338112" flag="0"/>
			<vel value="0.00271897072103112" flag="0"/>
			<psa03 value="0.00894844132365435" flag="0"/>
			<psa10 value="0.00433686208750908" flag="0"/>
			<psa30 value="0.00046755605916094" flag="0"/>
		</comp>
		<comp name="09.HN2" depth="0.0">
			<acc value="0.00714520141951575" flag="0"/>
			<vel value="0.00265720215772619" flag="0"/>
			<psa03 value="0.010380191935439" flag="0"/>
			<psa10 value="0.00237983797002587" flag="0"/>
			<psa30 value="0.000733772188539657" flag="0"/>
		</comp>
		<comp name="09.HNZ" depth="0.0">
			<acc value="0.00662912068685245" flag="0"/>
			<vel value="0.00256392127787097" flag="0"/>
			<psa03 value="0.0101117386957294" flag="0"/>
			<psa10 value="0.00281070541975983" flag="0"/>
			<psa30 value="0.000565988913721138" flag="0"/>
		</comp>
	</station>
</stationlist>
