<?xml version="1.0" encoding="UTF-8" standalone="yes"?>
<!DOCTYPE earthquake SYSTEM "stationlist.dtd">
<stationlist created="" xmlns="ch.ethz.sed.shakemap.usgs.xml">
  <station code="CANF" name="CANF" netid="LC" source="ODC" insttype="(Nanometrix)" lat="42.7637" lon="-0.517495">
    <comp name="00.HHE">
      <acc value="0.0089966673" flag="0"/>
      <vel value="0.0057224508" flag="0"/>
      <psa03 value="0.0229979369" flag="0"/>
      <psa10 value="0.0052884818" flag="0"/>
      <psa30 value="0.0009770069" flag="0"/>
    </comp>
    <comp name="00.HHN">
      <acc value="0.0094321181" flag="0"/>
      <vel value="0.0052646913" flag="0"/>
      <psa03 value="0.0143972292" flag="0"/>
      <psa10 value="0.0065251915" flag="0"/>
      <psa30 value="0.0012757184" flag="0"/>
    </comp>
    <comp name="00.HHZ">
      <acc value="0.0095682314" flag="0"/>
      <vel value="0.0090358294" flag="0"/>
      <psa03 value="0.0212667901" flag="0"/>
      <psa10 value="0.0107507068" flag="0"/>
      <psa30 value="0.0010770278" flag="0"/>
    </comp>
  </station>
</stationlist>
