<?xml version="1.0" encoding="UTF-8" standalone="yes"?>
<!DOCTYPE earthquake SYSTEM "stationlist.dtd">
<stationlist created="" xmlns="ch.ethz.sed.shakemap.usgs.xml">
  <station code="AKS" name="AKS" netid="KO" insttype="CMG-5T" commtype="DIG" lat="38.8785" lon="27.8129">
    <comp name="--.HNE">
      <acc value="0.0894893458" flag="0"/>
      <vel value="0.0136149351" flag="0"/>
      <psa03 value="0.0758031834" flag="0"/>
      <psa10 value="0.0083861205" flag="0"/>
      <psa30 value="0.0008407281" flag="0"/>
    </comp>
    <comp name="--.HNN">
      <acc value="0.0852916323" flag="0"/>
      <vel value="0.0174233481" flag="0"/>
      <psa03 value="0.0418503278" flag="0"/>
      <psa10 value="0.0065112110" flag="0"/>
      <psa30 value="0.0006967902" flag="0"/>
    </comp>
    <comp name="--.HNZ">
      <acc value="0.0483217373" flag="0"/>
      <vel value="0.0094025979" flag="0"/>
      <psa03 value="0.0272283915" flag="0"/>
      <psa10 value="0.0040694287" flag="0"/>
      <psa30 value="0.0004431412" flag="0"/>
    </comp>
  </station>
  <station code="BALB" name="BALB" netid="KO" insttype="CMG-5T" commtype="DIG" lat="39.6507" lon="27.8642">
    <comp name="--.HNZ">
      <acc value="0.0307506453" flag="0"/>
      <vel value="0.0071525675" flag="0"/>
      <psa03 value="0.0191504859" flag="0"/>
      <psa10 value="0.0071572256" flag="0"/>
      <psa30 value="0.0005334980" flag="0"/>
    </comp>
    <comp name="--.HNN">
      <acc value="0.0801985424" flag="0"/>
      <vel value="0.0236062254" flag="0"/>
      <psa03 value="0.0471260391" flag="0"/>
      <psa10 value="0.0158371815" flag="0"/>
      <psa30 value="0.0008677799" flag="0"/>
    </comp>
    <comp name="--.HNE">
      <acc value="0.0721048391" flag="0"/>
      <vel value="0.0198696961" flag="0"/>
      <psa03 value="0.0646139622" flag="0"/>
      <psa10 value="0.0136367829" flag="0"/>
      <psa30 value="0.0007619868" flag="0"/>
    </comp>
  </station>
  <station code="DST" name="DST" netid="KO" insttype="CMG-5T" commtype="DIG" lat="39.6041" lon="28.6267">
    <comp name="--.HNE">
      <acc value="0.0400359310" flag="0"/>
      <vel value="0.0113618442" flag="0"/>
      <psa03 value="0.0558584006" flag="0"/>
      <psa10 value="0.0070559671" flag="0"/>
      <psa30 value="0.0006947915" flag="0"/>
    </comp>
    <comp name="--.HNN">
      <acc value="0.0467480713" flag="0"/>
      <vel value="0.0113738476" flag="0"/>
      <psa03 value="0.0417621866" flag="0"/>
      <psa10 value="0.0092197244" flag="0"/>
      <psa30 value="0.0009183151" flag="0"/>
    </comp>
    <comp name="--.HNZ">
      <acc value="0.0377891797" flag="0"/>
      <vel value="0.0087004338" flag="0"/>
      <psa03 value="0.0495384186" flag="0"/>
      <psa10 value="0.0043926395" flag="0"/>
      <psa30 value="0.0005892162" flag="0"/>
    </comp>
  </station>
  <station code="GOMA" name="GOMA" netid="KO" insttype="CMG-5T" commtype="DIG" lat="38.7077" lon="27.9175">
    <comp name="--.HNE">
      <acc value="0.0645826073" flag="0"/>
      <vel value="0.0298559254" flag="0"/>
      <psa03 value="0.0904119303" flag="0"/>
      <psa10 value="0.0090347228" flag="0"/>
      <psa30 value="0.0007825948" flag="0"/>
    </comp>
    <comp name="--.HNN">
      <acc value="0.0564032602" flag="0"/>
      <vel value="0.0261623795" flag="0"/>
      <psa03 value="0.0920198285" flag="0"/>
      <psa10 value="0.0101154916" flag="0"/>
      <psa30 value="0.0010856730" flag="0"/>
    </comp>
    <comp name="--.HNZ">
      <acc value="0.0443878956" flag="0"/>
      <vel value="0.0113850612" flag="0"/>
      <psa03 value="0.0375161682" flag="0"/>
      <psa10 value="0.0043397632" flag="0"/>
      <psa30 value="0.0006598926" flag="0"/>
    </comp>
  </station>
  <station code="GONE" name="GONE" netid="KO" insttype="CMG-5T" commtype="DIG" lat="40.0466" lon="27.686">
    <comp name="--.HNZ">
      <acc value="0.0144488640" flag="0"/>
      <vel value="0.0038775474" flag="0"/>
      <psa03 value="0.0145629954" flag="0"/>
      <psa10 value="0.0036143483" flag="0"/>
      <psa30 value="0.0003073343" flag="0"/>
    </comp>
    <comp name="--.HNE">
      <acc value="0.0146077301" flag="0"/>
      <vel value="0.0063752469" flag="0"/>
      <psa03 value="0.0150346314" flag="0"/>
      <psa10 value="0.0056607105" flag="0"/>
      <psa30 value="0.0005563791" flag="0"/>
    </comp>
    <comp name="--.HNN">
      <acc value="0.0221394595" flag="0"/>
      <vel value="0.0144670063" flag="0"/>
      <psa03 value="0.0385628645" flag="0"/>
      <psa10 value="0.0116359677" flag="0"/>
      <psa30 value="0.0008427239" flag="0"/>
    </comp>
  </station>
  <station code="GORD" name="GORD" netid="KO" insttype="CMG-5T" commtype="DIG" lat="38.9088" lon="28.1769">
    <comp name="--.HNE">
      <acc value="0.0993796370" flag="0"/>
      <vel value="0.0587369411" flag="0"/>
      <psa03 value="0.0970584522" flag="0"/>
      <psa10 value="0.0708825869" flag="0"/>
      <psa30 value="0.0036556770" flag="0"/>
    </comp>
    <comp name="--.HNN">
      <acc value="0.0786256787" flag="0"/>
      <vel value="0.0408022771" flag="0"/>
      <psa03 value="0.0704630323" flag="0"/>
      <psa10 value="0.0680962635" flag="0"/>
      <psa30 value="0.0035723887" flag="0"/>
    </comp>
    <comp name="--.HNZ">
      <acc value="0.1116267505" flag="0"/>
      <vel value="0.0269220045" flag="0"/>
      <psa03 value="0.1027896226" flag="0"/>
      <psa10 value="0.0296094383" flag="0"/>
      <psa30 value="0.0033058243" flag="0"/>
    </comp>
  </station>
  <station code="KCTX" name="KCTX" netid="KO" insttype="CMG-3ESP" commtype="DIG" lat="40.2626" lon="28.3353">
    <comp name="--.HHZ">
      <acc value="0.0132265914" flag="0"/>
      <vel value="0.0044220519" flag="0"/>
      <psa03 value="0.0259166750" flag="0"/>
      <psa10 value="0.0040625746" flag="0"/>
      <psa30 value="0.0004122797" flag="0"/>
    </comp>
    <comp name="--.HHN">
      <acc value="0.0227262204" flag="0"/>
      <vel value="0.0072061260" flag="0"/>
      <psa03 value="0.0346984342" flag="0"/>
      <psa10 value="0.0036842113" flag="0"/>
      <psa30 value="0.0004764777" flag="0"/>
    </comp>
    <comp name="--.HHE">
      <acc value="0.0221307073" flag="0"/>
      <vel value="0.0074456855" flag="0"/>
      <psa03 value="0.0284118541" flag="0"/>
      <psa10 value="0.0097391803" flag="0"/>
      <psa30 value="0.0007798138" flag="0"/>
    </comp>
  </station>
  <station code="KULA" name="KULA" netid="KO" insttype="CMG-3T" commtype="DIG" lat="38.5145" lon="28.6607">
    <comp name="--.HHZ">
      <acc value="0.0303048938" flag="0"/>
      <vel value="0.0084888035" flag="0"/>
      <psa03 value="0.0543034532" flag="0"/>
      <psa10 value="0.0058940468" flag="0"/>
      <psa30 value="0.0005021791" flag="0"/>
    </comp>
  </station>
  <station code="ORLT" name="ORLT" netid="KO" insttype="CMG-5T" commtype="DIG" lat="40.0452" lon="28.8914">
    <comp name="--.HNZ">
      <acc value="0.0214222649" flag="0"/>
      <vel value="0.0160796088" flag="0"/>
      <psa03 value="0.0435226028" flag="0"/>
      <psa10 value="0.0168962913" flag="0"/>
      <psa30 value="0.0010546234" flag="0"/>
    </comp>
    <comp name="--.HNE">
      <acc value="0.0467119244" flag="0"/>
      <vel value="0.0208520698" flag="0"/>
      <psa03 value="0.0818872653" flag="0"/>
      <psa10 value="0.0210166345" flag="0"/>
      <psa30 value="0.0010673244" flag="0"/>
    </comp>
    <comp name="--.HNN">
      <acc value="0.0386700021" flag="0"/>
      <vel value="0.0313197024" flag="0"/>
      <psa03 value="0.1479114620" flag="0"/>
      <psa10 value="0.0331151473" flag="0"/>
      <psa30 value="0.0017193006" flag="0"/>
    </comp>
  </station>
  <station code="SHAP" name="SHAP" netid="KO" insttype="CMG-5T" commtype="DIG" lat="39.0231" lon="29.222">
    <comp name="--.HNE">
      <acc value="0.0874565856" flag="0"/>
      <vel value="0.0236693931" flag="0"/>
      <psa03 value="0.1248156325" flag="0"/>
      <psa10 value="0.0057833731" flag="0"/>
      <psa30 value="0.0005042507" flag="0"/>
    </comp>
    <comp name="--.HNN">
      <acc value="0.1057095165" flag="0"/>
      <vel value="0.0293279216" flag="0"/>
      <psa03 value="0.1180903333" flag="0"/>
      <psa10 value="0.0072997551" flag="0"/>
      <psa30 value="0.0006222347" flag="0"/>
    </comp>
    <comp name="--.HNZ">
      <acc value="0.0700201821" flag="0"/>
      <vel value="0.0160711549" flag="0"/>
      <psa03 value="0.0378091169" flag="0"/>
      <psa10 value="0.0035119379" flag="0"/>
      <psa30 value="0.0003095033" flag="0"/>
    </comp>
  </station>
  <station code="SIMA" name="SIMA" netid="KO" insttype="CMG-6T" commtype="DIG" lat="39.0833" lon="28.9825">
    <comp name="--.HHE">
      <acc value="0.1105616143" flag="0"/>
      <vel value="0.0248252859" flag="0"/>
      <psa03 value="0.1079506448" flag="0"/>
      <psa10 value="0.0058778251" flag="0"/>
      <psa30 value="0.0005107080" flag="0"/>
    </comp>
    <comp name="--.HHN">
      <acc value="0.1029314076" flag="0"/>
      <vel value="0.0309845134" flag="0"/>
      <psa03 value="0.2224410431" flag="0"/>
      <psa10 value="0.0094508600" flag="0"/>
      <psa30 value="0.0007750906" flag="0"/>
    </comp>
    <comp name="--.HHZ">
      <acc value="0.0734998579" flag="0"/>
      <vel value="0.0136355385" flag="0"/>
      <psa03 value="0.0634113565" flag="0"/>
      <psa10 value="0.0048632849" flag="0"/>
      <psa30 value="0.0005101722" flag="0"/>
    </comp>
  </station>
  <station code="SMAA" name="SMAA" netid="KO" insttype="CMG-5T" commtype="DIG" lat="39.1005" lon="28.9805">
    <comp name="--.HNE">
      <acc value="0.0900441616" flag="0"/>
      <vel value="0.0360221427" flag="0"/>
      <psa03 value="0.1726471925" flag="0"/>
      <psa10 value="0.0387734591" flag="0"/>
      <psa30 value="0.0033308344" flag="0"/>
    </comp>
    <comp name="--.HNZ">
      <acc value="0.0695300834" flag="0"/>
      <vel value="0.0096700694" flag="0"/>
      <psa03 value="0.0502839875" flag="0"/>
      <psa10 value="0.0178086635" flag="0"/>
      <psa30 value="0.0010683250" flag="0"/>
    </comp>
    <comp name="--.HNN">
      <acc value="0.1267073867" flag="0"/>
      <vel value="0.0426642565" flag="0"/>
      <psa03 value="0.2404236052" flag="0"/>
      <psa10 value="0.0365742701" flag="0"/>
      <psa30 value="0.0030343973" flag="0"/>
    </comp>
  </station>
  <station code="SOMA" name="SOMA" netid="KO" insttype="CMG-5T" commtype="DIG" lat="39.1564" lon="27.5341">
    <comp name="--.HNZ">
      <acc value="0.0436254076" flag="0"/>
      <vel value="0.0088979824" flag="0"/>
      <psa03 value="0.0291648551" flag="0"/>
      <psa10 value="0.0059456966" flag="0"/>
      <psa30 value="0.0003667165" flag="0"/>
    </comp>
    <comp name="--.HNE">
      <acc value="0.0586876768" flag="0"/>
      <vel value="0.0153080025" flag="0"/>
      <psa03 value="0.0955312524" flag="0"/>
      <psa10 value="0.0067040679" flag="0"/>
      <psa30 value="0.0005743897" flag="0"/>
    </comp>
    <comp name="--.HNN">
      <acc value="0.0490521231" flag="0"/>
      <vel value="0.0181595086" flag="0"/>
      <psa03 value="0.0530594080" flag="0"/>
      <psa10 value="0.0146884898" flag="0"/>
      <psa30 value="0.0009340544" flag="0"/>
    </comp>
  </station>
  <station code="SUSR" name="SUSR" netid="KO" insttype="CMG-5T" commtype="DIG" lat="39.9627" lon="28.0835">
    <comp name="--.HNE">
      <acc value="0.0377884882" flag="0"/>
      <vel value="0.0091139970" flag="0"/>
      <psa03 value="0.0374375628" flag="0"/>
      <psa10 value="0.0044959551" flag="0"/>
      <psa30 value="0.0003609937" flag="0"/>
    </comp>
    <comp name="--.HNN">
      <acc value="0.0411401027" flag="0"/>
      <vel value="0.0117959891" flag="0"/>
      <psa03 value="0.0524906851" flag="0"/>
      <psa10 value="0.0030480786" flag="0"/>
      <psa30 value="0.0001965428" flag="0"/>
    </comp>
    <comp name="--.HNZ">
      <acc value="0.0368052709" flag="0"/>
      <vel value="0.0072604952" flag="0"/>
      <psa03 value="0.0304234302" flag="0"/>
      <psa10 value="0.0029896178" flag="0"/>
      <psa30 value="0.0002478409" flag="0"/>
    </comp>
  </station>
  <station code="TVSB" name="TVSB" netid="KO" insttype="CMG-3T" commtype="DIG" lat="39.4497" lon="29.4615">
    <comp name="--.HHN">
      <acc value="0.0614288005" flag="0"/>
      <vel value="0.0363183977" flag="0"/>
      <psa03 value="0.2299481356" flag="0"/>
      <psa10 value="0.0138634992" flag="0"/>
      <psa30 value="0.0010530714" flag="0"/>
    </comp>
    <comp name="--.HHZ">
      <acc value="0.0283144762" flag="0"/>
      <vel value="0.0124516316" flag="0"/>
      <psa03 value="0.0755607775" flag="0"/>
      <psa10 value="0.0071321901" flag="0"/>
      <psa30 value="0.0004479469" flag="0"/>
    </comp>
    <comp name="--.HHE">
      <acc value="0.0801913777" flag="0"/>
      <vel value="0.0493604094" flag="0"/>
      <psa03 value="0.2443643111" flag="0"/>
      <psa10 value="0.0213472989" flag="0"/>
      <psa30 value="0.0014486354" flag="0"/>
    </comp>
  </station>
  <station code="YAYO" name="YAYO" netid="KO" insttype="CMG-6T" commtype="DIG" lat="39.6113" lon="27.0726">
    <comp name="--.HHZ">
      <acc value="0.0094606622" flag="0"/>
      <vel value="0.0035213439" flag="0"/>
      <psa03 value="0.0153524649" flag="0"/>
      <psa10 value="0.0023766852" flag="0"/>
      <psa30 value="0.0001578031" flag="0"/>
    </comp>
    <comp name="--.HHN">
      <acc value="0.0087304761" flag="0"/>
      <vel value="0.0045702472" flag="0"/>
      <psa03 value="0.0167683469" flag="0"/>
      <psa10 value="0.0047069423" flag="0"/>
      <psa30 value="0.0002744612" flag="0"/>
    </comp>
    <comp name="--.HHE">
      <acc value="0.0063392899" flag="0"/>
      <vel value="0.0026504592" flag="0"/>
      <psa03 value="0.0089228351" flag="0"/>
      <psa10 value="0.0024722961" flag="0"/>
      <psa30 value="0.0001608024" flag="0"/>
    </comp>
  </station>
  <station code="YENI" name="YENI" netid="KO" insttype="CMG-5T" commtype="DIG" lat="39.9364" lon="27.2422">
    <comp name="--.HNZ">
      <acc value="0.0169098959" flag="0"/>
      <vel value="0.0033852276" flag="0"/>
      <psa03 value="0.0085074775" flag="0"/>
      <psa10 value="0.0020839354" flag="0"/>
      <psa30 value="0.0003775259" flag="0"/>
    </comp>
    <comp name="--.HNE">
      <acc value="0.0186122111" flag="0"/>
      <vel value="0.0102065333" flag="0"/>
      <psa03 value="0.0222210080" flag="0"/>
      <psa10 value="0.0090457746" flag="0"/>
      <psa30 value="0.0005803967" flag="0"/>
    </comp>
    <comp name="--.HNN">
      <acc value="0.0372392112" flag="0"/>
      <vel value="0.0154081099" flag="0"/>
      <psa03 value="0.0406192764" flag="0"/>
      <psa10 value="0.0098806929" flag="0"/>
      <psa30 value="0.0005408953" flag="0"/>
    </comp>
  </station>
</stationlist>
