<?xml version="1.0" encoding="UTF-8" standalone="yes"?>
<!DOCTYPE earthquake SYSTEM "stationlist.dtd">
<stationlist created="" xmlns="ch.ethz.sed.shakemap.usgs.xml">
  <station code="AKS" name="AKS" netid="KO" insttype="CMG-5T" commtype="DIG" lat="38.8785" lon="27.8129">
    <comp name="--.HNE">
      <acc value="0.0894893465" flag="0"/>
      <vel value="0.0136149352" flag="0"/>
      <psa03 value="0.0758031834" flag="0"/>
      <psa10 value="0.0083861203" flag="0"/>
      <psa30 value="0.0008408348" flag="0"/>
    </comp>
    <comp name="--.HNZ">
      <acc value="0.0483217374" flag="0"/>
      <vel value="0.0094025977" flag="0"/>
      <psa03 value="0.0272283915" flag="0"/>
      <psa10 value="0.0040694287" flag="0"/>
      <psa30 value="0.0004428767" flag="0"/>
    </comp>
    <comp name="--.HNN">
      <acc value="0.0852916325" flag="0"/>
      <vel value="0.0174233485" flag="0"/>
      <psa03 value="0.0418503278" flag="0"/>
      <psa10 value="0.0065112110" flag="0"/>
      <psa30 value="0.0006968064" flag="0"/>
    </comp>
  </station>
  <station code="BALB" name="BALB" netid="KO" insttype="CMG-5T" commtype="DIG" lat="39.6507" lon="27.8642">
    <comp name="--.HNZ">
      <acc value="0.0307506456" flag="0"/>
      <vel value="0.0071525674" flag="0"/>
      <psa03 value="0.0191504859" flag="0"/>
      <psa10 value="0.0071572255" flag="0"/>
      <psa30 value="0.0005335892" flag="0"/>
    </comp>
    <comp name="--.HNE">
      <acc value="0.0721048396" flag="0"/>
      <vel value="0.0198696961" flag="0"/>
      <psa03 value="0.0646139622" flag="0"/>
      <psa10 value="0.0136367827" flag="0"/>
      <psa30 value="0.0007619918" flag="0"/>
    </comp>
    <comp name="--.HNN">
      <acc value="0.0801985421" flag="0"/>
      <vel value="0.0236062251" flag="0"/>
      <psa03 value="0.0471260391" flag="0"/>
      <psa10 value="0.0158371813" flag="0"/>
      <psa30 value="0.0008679871" flag="0"/>
    </comp>
  </station>
  <station code="DST" name="DST" netid="KO" insttype="CMG-5T" commtype="DIG" lat="39.6041" lon="28.6267">
    <comp name="--.HNE">
      <acc value="0.0400359309" flag="0"/>
      <vel value="0.0113618444" flag="0"/>
      <psa03 value="0.0558584006" flag="0"/>
      <psa10 value="0.0070559675" flag="0"/>
      <psa30 value="0.0006946438" flag="0"/>
    </comp>
    <comp name="--.HNN">
      <acc value="0.0467480711" flag="0"/>
      <vel value="0.0113738487" flag="0"/>
      <psa03 value="0.0417621866" flag="0"/>
      <psa10 value="0.0092197242" flag="0"/>
      <psa30 value="0.0009183225" flag="0"/>
    </comp>
    <comp name="--.HNZ">
      <acc value="0.0377891797" flag="0"/>
      <vel value="0.0087004347" flag="0"/>
      <psa03 value="0.0495384186" flag="0"/>
      <psa10 value="0.0043926395" flag="0"/>
      <psa30 value="0.0005892734" flag="0"/>
    </comp>
  </station>
  <station code="GOMA" name="GOMA" netid="KO" insttype="CMG-5T" commtype="DIG" lat="38.7077" lon="27.9175">
    <comp name="--.HNE">
      <acc value="0.0645826071" flag="0"/>
      <vel value="0.0298559245" flag="0"/>
      <psa03 value="0.0904119303" flag="0"/>
      <psa10 value="0.0090347229" flag="0"/>
      <psa30 value="0.0007823451" flag="0"/>
    </comp>
    <comp name="--.HNZ">
      <acc value="0.0443878948" flag="0"/>
      <vel value="0.0113850610" flag="0"/>
      <psa03 value="0.0375161682" flag="0"/>
      <psa10 value="0.0043397631" flag="0"/>
      <psa30 value="0.0006598199" flag="0"/>
    </comp>
    <comp name="--.HNN">
      <acc value="0.0564032599" flag="0"/>
      <vel value="0.0261623788" flag="0"/>
      <psa03 value="0.0920198285" flag="0"/>
      <psa10 value="0.0101154920" flag="0"/>
      <psa30 value="0.0010854499" flag="0"/>
    </comp>
  </station>
  <station code="GONE" name="GONE" netid="KO" insttype="CMG-5T" commtype="DIG" lat="40.0466" lon="27.686">
    <comp name="--.HNZ">
      <acc value="0.0144488643" flag="0"/>
      <vel value="0.0038775481" flag="0"/>
      <psa03 value="0.0145629954" flag="0"/>
      <psa10 value="0.0036143483" flag="0"/>
      <psa30 value="0.0003073308" flag="0"/>
    </comp>
    <comp name="--.HNE">
      <acc value="0.0146077304" flag="0"/>
      <vel value="0.0063752476" flag="0"/>
      <psa03 value="0.0150346314" flag="0"/>
      <psa10 value="0.0056607105" flag="0"/>
      <psa30 value="0.0005564189" flag="0"/>
    </comp>
    <comp name="--.HNN">
      <acc value="0.0221394601" flag="0"/>
      <vel value="0.0144670061" flag="0"/>
      <psa03 value="0.0385628645" flag="0"/>
      <psa10 value="0.0116359677" flag="0"/>
      <psa30 value="0.0008426825" flag="0"/>
    </comp>
  </station>
  <station code="GORD" name="GORD" netid="KO" insttype="CMG-5T" commtype="DIG" lat="38.9088" lon="28.1769">
    <comp name="--.HNN">
      <acc value="0.0786256788" flag="0"/>
      <vel value="0.0408022774" flag="0"/>
      <psa03 value="0.0704630323" flag="0"/>
      <psa10 value="0.0680962649" flag="0"/>
      <psa30 value="0.0035724006" flag="0"/>
    </comp>
    <comp name="--.HNZ">
      <acc value="0.1116267510" flag="0"/>
      <vel value="0.0269220009" flag="0"/>
      <psa03 value="0.1027896226" flag="0"/>
      <psa10 value="0.0296094383" flag="0"/>
      <psa30 value="0.0033061717" flag="0"/>
    </comp>
    <comp name="--.HNE">
      <acc value="0.0993796377" flag="0"/>
      <vel value="0.0587369384" flag="0"/>
      <psa03 value="0.0970584522" flag="0"/>
      <psa10 value="0.0708825873" flag="0"/>
      <psa30 value="0.0036559006" flag="0"/>
    </comp>
  </station>
  <station code="KCTX" name="KCTX" netid="KO" insttype="CMG-3ESP" commtype="DIG" lat="40.2626" lon="28.3353">
    <comp name="--.HHE">
      <acc value="0.0221307073" flag="0"/>
      <vel value="0.0074456813" flag="0"/>
      <psa03 value="0.0284118541" flag="0"/>
      <psa10 value="0.0097391803" flag="0"/>
      <psa30 value="0.0007797753" flag="0"/>
    </comp>
    <comp name="--.HHN">
      <acc value="0.0227262205" flag="0"/>
      <vel value="0.0072061237" flag="0"/>
      <psa03 value="0.0346984342" flag="0"/>
      <psa10 value="0.0036842113" flag="0"/>
      <psa30 value="0.0004764331" flag="0"/>
    </comp>
    <comp name="--.HHZ">
      <acc value="0.0132265914" flag="0"/>
      <vel value="0.0044220515" flag="0"/>
      <psa03 value="0.0259166750" flag="0"/>
      <psa10 value="0.0040625746" flag="0"/>
      <psa30 value="0.0004122651" flag="0"/>
    </comp>
  </station>
  <station code="KULA" name="KULA" netid="KO" insttype="CMG-3T" commtype="DIG" lat="38.5145" lon="28.6607">
    <comp name="--.HHZ">
      <acc value="0.0303048938" flag="0"/>
      <vel value="0.0084888035" flag="0"/>
      <psa03 value="0.0543034532" flag="0"/>
      <psa10 value="0.0058940468" flag="0"/>
      <psa30 value="0.0005021825" flag="0"/>
    </comp>
  </station>
  <station code="ORLT" name="ORLT" netid="KO" insttype="CMG-5T" commtype="DIG" lat="40.0452" lon="28.8914">
    <comp name="--.HNE">
      <acc value="0.0467119249" flag="0"/>
      <vel value="0.0208520703" flag="0"/>
      <psa03 value="0.0818872653" flag="0"/>
      <psa10 value="0.0210166345" flag="0"/>
      <psa30 value="0.0010674241" flag="0"/>
    </comp>
    <comp name="--.HNZ">
      <acc value="0.0214222626" flag="0"/>
      <vel value="0.0160796092" flag="0"/>
      <psa03 value="0.0435226028" flag="0"/>
      <psa10 value="0.0168962913" flag="0"/>
      <psa30 value="0.0010546788" flag="0"/>
    </comp>
    <comp name="--.HNN">
      <acc value="0.0386700027" flag="0"/>
      <vel value="0.0313196998" flag="0"/>
      <psa03 value="0.1479114620" flag="0"/>
      <psa10 value="0.0331151474" flag="0"/>
      <psa30 value="0.0017195022" flag="0"/>
    </comp>
  </station>
  <station code="SHAP" name="SHAP" netid="KO" insttype="CMG-5T" commtype="DIG" lat="39.0231" lon="29.222">
    <comp name="--.HNE">
      <acc value="0.0874565849" flag="0"/>
      <vel value="0.0236693928" flag="0"/>
      <psa03 value="0.1248156325" flag="0"/>
      <psa10 value="0.0057833733" flag="0"/>
      <psa30 value="0.0005045341" flag="0"/>
    </comp>
    <comp name="--.HNZ">
      <acc value="0.0700201814" flag="0"/>
      <vel value="0.0160711554" flag="0"/>
      <psa03 value="0.0378091169" flag="0"/>
      <psa10 value="0.0035119379" flag="0"/>
      <psa30 value="0.0003094942" flag="0"/>
    </comp>
    <comp name="--.HNN">
      <acc value="0.1057095168" flag="0"/>
      <vel value="0.0293279212" flag="0"/>
      <psa03 value="0.1180903333" flag="0"/>
      <psa10 value="0.0072997551" flag="0"/>
      <psa30 value="0.0006222173" flag="0"/>
    </comp>
  </station>
  <station code="SIMA" name="SIMA" netid="KO" insttype="CMG-6T" commtype="DIG" lat="39.0833" lon="28.9825">
    <comp name="--.HHN">
      <acc value="0.1029314086" flag="0"/>
      <vel value="0.0309845198" flag="0"/>
      <psa03 value="0.2224410431" flag="0"/>
      <psa10 value="0.0094508601" flag="0"/>
      <psa30 value="0.0007750985" flag="0"/>
    </comp>
    <comp name="--.HHZ">
      <acc value="0.0734998575" flag="0"/>
      <vel value="0.0136355400" flag="0"/>
      <psa03 value="0.0634113565" flag="0"/>
      <psa10 value="0.0048632847" flag="0"/>
      <psa30 value="0.0005101348" flag="0"/>
    </comp>
    <comp name="--.HHE">
      <acc value="0.1105616132" flag="0"/>
      <vel value="0.0248252861" flag="0"/>
      <psa03 value="0.1079506448" flag="0"/>
      <psa10 value="0.0058778250" flag="0"/>
      <psa30 value="0.0005107211" flag="0"/>
    </comp>
  </station>
  <station code="SMAA" name="SMAA" netid="KO" insttype="CMG-5T" commtype="DIG" lat="39.1005" lon="28.9805">
    <comp name="--.HNE">
      <acc value="0.0900441647" flag="0"/>
      <vel value="0.0360221433" flag="0"/>
      <psa03 value="0.1726471925" flag="0"/>
      <psa10 value="0.0387734591" flag="0"/>
      <psa30 value="0.0033310420" flag="0"/>
    </comp>
    <comp name="--.HNN">
      <acc value="0.1267073900" flag="0"/>
      <vel value="0.0426642568" flag="0"/>
      <psa03 value="0.2404236052" flag="0"/>
      <psa10 value="0.0365742724" flag="0"/>
      <psa30 value="0.0030345370" flag="0"/>
    </comp>
    <comp name="--.HNZ">
      <acc value="0.0695300819" flag="0"/>
      <vel value="0.0096700708" flag="0"/>
      <psa03 value="0.0502839875" flag="0"/>
      <psa10 value="0.0178086636" flag="0"/>
      <psa30 value="0.0010682547" flag="0"/>
    </comp>
  </station>
  <station code="SOMA" name="SOMA" netid="KO" insttype="CMG-5T" commtype="DIG" lat="39.1564" lon="27.5341">
    <comp name="--.HNE">
      <acc value="0.0586876764" flag="0"/>
      <vel value="0.0153080020" flag="0"/>
      <psa03 value="0.0955312524" flag="0"/>
      <psa10 value="0.0067040680" flag="0"/>
      <psa30 value="0.0005746024" flag="0"/>
    </comp>
    <comp name="--.HNN">
      <acc value="0.0490521231" flag="0"/>
      <vel value="0.0181595096" flag="0"/>
      <psa03 value="0.0530594080" flag="0"/>
      <psa10 value="0.0146884902" flag="0"/>
      <psa30 value="0.0009340255" flag="0"/>
    </comp>
    <comp name="--.HNZ">
      <acc value="0.0436254074" flag="0"/>
      <vel value="0.0088979819" flag="0"/>
      <psa03 value="0.0291648551" flag="0"/>
      <psa10 value="0.0059456966" flag="0"/>
      <psa30 value="0.0003667018" flag="0"/>
    </comp>
  </station>
  <station code="SUSR" name="SUSR" netid="KO" insttype="CMG-5T" commtype="DIG" lat="39.9627" lon="28.0835">
    <comp name="--.HNN">
      <acc value="0.0411401031" flag="0"/>
      <vel value="0.0117959893" flag="0"/>
      <psa03 value="0.0524906851" flag="0"/>
      <psa10 value="0.0030480786" flag="0"/>
      <psa30 value="0.0001966131" flag="0"/>
    </comp>
    <comp name="--.HNZ">
      <acc value="0.0368052705" flag="0"/>
      <vel value="0.0072604949" flag="0"/>
      <psa03 value="0.0304234302" flag="0"/>
      <psa10 value="0.0029896183" flag="0"/>
      <psa30 value="0.0002478163" flag="0"/>
    </comp>
    <comp name="--.HNE">
      <acc value="0.0377884881" flag="0"/>
      <vel value="0.0091139967" flag="0"/>
      <psa03 value="0.0374375628" flag="0"/>
      <psa10 value="0.0044959552" flag="0"/>
      <psa30 value="0.0003609672" flag="0"/>
    </comp>
  </station>
  <station code="TVSB" name="TVSB" netid="KO" insttype="CMG-3T" commtype="DIG" lat="39.4497" lon="29.4615">
    <comp name="--.HHE">
      <acc value="0.0801913776" flag="0"/>
      <vel value="0.0493604094" flag="0"/>
      <psa03 value="0.2443643111" flag="0"/>
      <psa10 value="0.0213472989" flag="0"/>
      <psa30 value="0.0014486362" flag="0"/>
    </comp>
    <comp name="--.HHN">
      <acc value="0.0614288005" flag="0"/>
      <vel value="0.0363183978" flag="0"/>
      <psa03 value="0.2299481356" flag="0"/>
      <psa10 value="0.0138634992" flag="0"/>
      <psa30 value="0.0010530705" flag="0"/>
    </comp>
    <comp name="--.HHZ">
      <acc value="0.0283144763" flag="0"/>
      <vel value="0.0124516316" flag="0"/>
      <psa03 value="0.0755607775" flag="0"/>
      <psa10 value="0.0071321901" flag="0"/>
      <psa30 value="0.0004479449" flag="0"/>
    </comp>
  </station>
  <station code="YAYO" name="YAYO" netid="KO" insttype="CMG-6T" commtype="DIG" lat="39.6113" lon="27.0726">
    <comp name="--.HHZ">
      <acc value="0.0094606620" flag="0"/>
      <vel value="0.0035213447" flag="0"/>
      <psa03 value="0.0153524649" flag="0"/>
      <psa10 value="0.0023766862" flag="0"/>
      <psa30 value="0.0001578024" flag="0"/>
    </comp>
    <comp name="--.HHE">
      <acc value="0.0063392899" flag="0"/>
      <vel value="0.0026504603" flag="0"/>
      <psa03 value="0.0089228351" flag="0"/>
      <psa10 value="0.0024722961" flag="0"/>
      <psa30 value="0.0001607999" flag="0"/>
    </comp>
    <comp name="--.HHN">
      <acc value="0.0087304762" flag="0"/>
      <vel value="0.0045702475" flag="0"/>
      <psa03 value="0.0167683469" flag="0"/>
      <psa10 value="0.0047069423" flag="0"/>
      <psa30 value="0.0002744626" flag="0"/>
    </comp>
  </station>
  <station code="YENI" name="YENI" netid="KO" insttype="CMG-5T" commtype="DIG" lat="39.9364" lon="27.2422">
    <comp name="--.HNN">
      <acc value="0.0372392125" flag="0"/>
      <vel value="0.0154081073" flag="0"/>
      <psa03 value="0.0406192764" flag="0"/>
      <psa10 value="0.0098806925" flag="0"/>
      <psa30 value="0.0005399087" flag="0"/>
    </comp>
    <comp name="--.HNE">
      <acc value="0.0186122113" flag="0"/>
      <vel value="0.0102065257" flag="0"/>
      <psa03 value="0.0222210080" flag="0"/>
      <psa10 value="0.0090457746" flag="0"/>
      <psa30 value="0.0005807478" flag="0"/>
    </comp>
    <comp name="--.HNZ">
      <acc value="0.0169098988" flag="0"/>
      <vel value="0.0033852288" flag="0"/>
      <psa03 value="0.0085074775" flag="0"/>
      <psa10 value="0.0020839353" flag="0"/>
      <psa30 value="0.0003776144" flag="0"/>
    </comp>
  </station>
</stationlist>
