<stationlist created="1738657926">
	<station code="BODA" name="BODA" netid="KO" source="Bogazici University Kandilli Observatory And Earthquake Research Institute (KOERI)" insttype="" lat="37.0348" lon="27.4304">
		<comp name=".HNE" depth="0.0">
			<acc value="0.01154736961557" flag="0"/>
			<vel value="0.00510925819219" flag="0"/>
			<psa03 value="0.0396887489765059" flag="0"/>
			<psa10 value="0.00308501061681166" flag="0"/>
			<psa30 value="0.000576272498140871" flag="0"/>
		</comp>
		<comp name=".HNN" depth="0.0">
			<acc value="0.012951140000784" flag="0"/>
			<vel value="0.00605540811167" flag="0"/>
			<psa03 value="0.0561763932854572" flag="0"/>
			<psa10 value="0.00347213516816641" flag="0"/>
			<psa30 value="0.000552509153105155" flag="0"/>
		</comp>
		<comp name=".HNZ" depth="0.0">
			<acc value="0.014687464596186" flag="0"/>
			<vel value="0.00370596897042" flag="0"/>
			<psa03 value="0.00812042661030461" flag="0"/>
			<psa10 value="0.00244381095298289" flag="0"/>
			<psa30 value="0.000678821999875718" flag="0"/>
		</comp>
	</station>
	<station code="BODM" name="BODM" netid="KO" source="Bogazici University Kandilli Observatory And Earthquake Research Institute (KOERI)" insttype="" lat="37.031" lon="27.4247">
		<comp name=".HNE" depth="0.0">
			<acc value="0.012024598982436" flag="0"/>
			<vel value="0.0076360192326" flag="0"/>
			<psa03 value="0.0348258773559683" flag="0"/>
			<psa10 value="0.00515619547889784" flag="0"/>
			<psa30 value="0.000630641672751179" flag="0"/>
		</comp>
		<comp name=".HNN" depth="0.0">
			<acc value="0.016927063323624" flag="0"/>
			<vel value="0.0113437419917" flag="0"/>
			<psa03 value="0.0383916526335846" flag="0"/>
			<psa10 value="0.00677005254526627" flag="0"/>
			<psa30 value="0.000766867572046397" flag="0"/>
		</comp>
		<comp name=".HNZ" depth="0.0">
			<acc value="0.0027304962997728" flag="0"/>
			<vel value="0.00316759692508" flag="0"/>
			<psa03 value="0.00808297881703965" flag="0"/>
			<psa10 value="0.00206268140814619" flag="0"/>
			<psa30 value="0.000731236982527851" flag="0"/>
		</comp>
	</station>
	<station code="CESE" name="CESE" netid="KO" source="Bogazici University Kandilli Observatory And Earthquake Research Institute (KOERI)" insttype="" lat="38.3306" lon="26.2997">
		<comp name=".HNE" depth="0.0">
			<acc value="0.01794530317674" flag="0"/>
			<vel value="0.00374347327179" flag="0"/>
			<psa03 value="0.00591514054694185" flag="0"/>
			<psa10 value="0.00404733702247518" flag="0"/>
			<psa30 value="0.00152178518580219" flag="0"/>
		</comp>
		<comp name=".HNN" depth="0.0">
			<acc value="0.012829050598536" flag="0"/>
			<vel value="0.00541193058324" flag="0"/>
			<psa03 value="0.0102320879818633" flag="0"/>
			<psa10 value="0.00471931872547326" flag="0"/>
			<psa30 value="0.00124360884131758" flag="0"/>
		</comp>
		<comp name=".HNZ" depth="0.0">
			<acc value="0.003231723928452" flag="0"/>
			<vel value="0.00289872722802" flag="0"/>
			<psa03 value="0.00631146237424978" flag="0"/>
			<psa10 value="0.00405621386050556" flag="0"/>
			<psa30 value="0.00118397093226225" flag="0"/>
		</comp>
	</station>
	<station code="DATC" name="DATC" netid="KO" source="Bogazici University Kandilli Observatory And Earthquake Research Institute (KOERI)" insttype="" lat="36.7584" lon="27.6602">
		<comp name=".HNE" depth="0.0">
			<acc value="0.0073472137111236" flag="0"/>
			<vel value="0.00573787106636" flag="0"/>
			<psa03 value="0.0249731048664828" flag="0"/>
			<psa10 value="0.00777434891870935" flag="0"/>
			<psa30 value="0.00153872193277564" flag="0"/>
		</comp>
		<comp name=".HNN" depth="0.0">
			<acc value="0.0081226245829044" flag="0"/>
			<vel value="0.00622031427325" flag="0"/>
			<psa03 value="0.0245870740854851" flag="0"/>
			<psa10 value="0.0114732494214678" flag="0"/>
			<psa30 value="0.00164924425433671" flag="0"/>
		</comp>
		<comp name=".HNZ" depth="0.0">
			<acc value="0.015692159078394" flag="0"/>
			<vel value="0.00675180508957" flag="0"/>
			<psa03 value="0.0175781267041948" flag="0"/>
			<psa10 value="0.00817313955537297" flag="0"/>
			<psa30 value="0.000868761665777908" flag="0"/>
		</comp>
	</station>
	<station code="DIDI" name="DIDI" netid="KO" source="Bogazici University Kandilli Observatory And Earthquake Research Institute (KOERI)" insttype="" lat="37.3767" lon="27.2398">
		<comp name=".HNE" depth="0.0">
			<acc value="0.024464734333302" flag="0"/>
			<vel value="0.0180332524775" flag="0"/>
			<psa03 value="0.085453775476353" flag="0"/>
			<psa10 value="0.0172979121517894" flag="0"/>
			<psa30 value="0.00355309745860275" flag="0"/>
		</comp>
		<comp name=".HNN" depth="0.0">
			<acc value="0.021064005549966" flag="0"/>
			<vel value="0.0153399601615" flag="0"/>
			<psa03 value="0.0907114571055288" flag="0"/>
			<psa10 value="0.0182066836034439" flag="0"/>
			<psa30 value="0.00400412358686995" flag="0"/>
		</comp>
		<comp name=".HNZ" depth="0.0">
			<acc value="0.021272698198992" flag="0"/>
			<vel value="0.00878186008225" flag="0"/>
			<psa03 value="0.0421158238207853" flag="0"/>
			<psa10 value="0.0149669855518199" flag="0"/>
			<psa30 value="0.00149171121438121" flag="0"/>
		</comp>
	</station>
	<station code="GMLD" name="GMLD" netid="KO" source="Bogazici University Kandilli Observatory And Earthquake Research Institute (KOERI)" insttype="" lat="38.0766" lon="26.9157">
		<comp name=".HNE" depth="0.0">
			<acc value="0.070584315486714" flag="0"/>
			<vel value="0.018070954365" flag="0"/>
			<psa03 value="0.0672969060063118" flag="0"/>
			<psa10 value="0.0114074841273362" flag="0"/>
			<psa30 value="0.000923190010972139" flag="0"/>
		</comp>
		<comp name=".HNN" depth="0.0">
			<acc value="0.082764721553622" flag="0"/>
			<vel value="0.0168881038084" flag="0"/>
			<psa03 value="0.0831428515558443" flag="0"/>
			<psa10 value="0.0154921919066877" flag="0"/>
			<psa30 value="0.00101972807281313" flag="0"/>
		</comp>
		<comp name=".HNZ" depth="0.0">
			<acc value="0.061425229054164" flag="0"/>
			<vel value="0.0106554878284" flag="0"/>
			<psa03 value="0.0608312381043077" flag="0"/>
			<psa10 value="0.00452615608562524" flag="0"/>
			<psa30 value="0.000758819174297722" flag="0"/>
		</comp>
	</station>
	<station code="KUSD" name="KUSD" netid="KO" source="Bogazici University Kandilli Observatory And Earthquake Research Institute (KOERI)" insttype="" lat="37.8606" lon="27.2868">
		<comp name=".HNE" depth="0.0">
			<acc value="0.0063763021110798" flag="0"/>
			<vel value="0.00433592507081" flag="0"/>
			<psa03 value="0.0243440345478132" flag="0"/>
			<psa10 value="0.00450364615696698" flag="0"/>
			<psa30 value="0.000744686102633773" flag="0"/>
		</comp>
		<comp name=".HNN" depth="0.0">
			<acc value="0.0064711870735194" flag="0"/>
			<vel value="0.00503329094835" flag="0"/>
			<psa03 value="0.0179230063216341" flag="0"/>
			<psa10 value="0.00688443887280575" flag="0"/>
			<psa30 value="0.00080065444567634" flag="0"/>
		</comp>
		<comp name=".HNZ" depth="0.0">
			<acc value="0.0029677180069662" flag="0"/>
			<vel value="0.00350551294671" flag="0"/>
			<psa03 value="0.00711558856031703" flag="0"/>
			<psa10 value="0.00293452463222846" flag="0"/>
			<psa30 value="0.000760768001311861" flag="0"/>
		</comp>
	</station>
	<station code="YKAV" name="YKAV" netid="KO" source="Bogazici University Kandilli Observatory And Earthquake Research Institute (KOERI)" insttype="" lat="37.1246" lon="27.2801">
		<comp name=".HNE" depth="0.0">
			<acc value="0.016521918160212" flag="0"/>
			<vel value="0.00805516211058" flag="0"/>
			<psa03 value="0.0525925256634949" flag="0"/>
			<psa10 value="0.00931247440573691" flag="0"/>
			<psa30 value="0.0012304460943494" flag="0"/>
		</comp>
		<comp name=".HNN" depth="0.0">
			<acc value="0.0098062199777124" flag="0"/>
			<vel value="0.0061519691353" flag="0"/>
			<psa03 value="0.0332109318320918" flag="0"/>
			<psa10 value="0.0061300703058126" flag="0"/>
			<psa30 value="0.00101478524537511" flag="0"/>
		</comp>
		<comp name=".HNZ" depth="0.0">
			<acc value="0.0061872740582718" flag="0"/>
			<vel value="0.00438757174084" flag="0"/>
			<psa03 value="0.0230663014667845" flag="0"/>
			<psa10 value="0.0063878994169779" flag="0"/>
			<psa30 value="0.00119217824678977" flag="0"/>
		</comp>
	</station>
</stationlist>
