<?xml version="1.0" encoding="UTF-8" standalone="yes"?>
<!DOCTYPE earthquake SYSTEM "stationlist.dtd">
<stationlist created="" xmlns="ch.ethz.sed.shakemap.usgs.xml">
  <station code="THERA" name="THERA" netid="GE" insttype="STS-2/N" lat="36.367" lon="25.4753">
    <comp name="--.HHE">
      <acc value="0.3613578541" flag="0"/>
      <vel value="0.1213216004" flag="0"/>
      <psa03 value="0.4399995722" flag="0"/>
      <psa10 value="0.0882061147" flag="0"/>
      <psa30 value="0.0107678246" flag="0"/>
    </comp>
    <comp name="--.HHN">
      <acc value="0.2780534241" flag="0"/>
      <vel value="0.0928157871" flag="0"/>
      <psa03 value="0.5266904641" flag="0"/>
      <psa10 value="0.0301691082" flag="0"/>
      <psa30 value="0.0043891132" flag="0"/>
    </comp>
    <comp name="--.HHZ">
      <acc value="0.2525963996" flag="0"/>
      <vel value="0.1070036699" flag="0"/>
      <psa03 value="0.4557784385" flag="0"/>
      <psa10 value="0.0757116088" flag="0"/>
      <psa30 value="0.0063994938" flag="0"/>
    </comp>
  </station>
</stationlist>
