<?xml version="1.0" encoding="UTF-8" standalone="yes"?>
<!DOCTYPE earthquake SYSTEM "stationlist.dtd">
<stationlist created="" xmlns="ch.ethz.sed.shakemap.usgs.xml">
  <station code="THERA" name="THERA" netid="GE" insttype="STS-2/N" lat="36.367" lon="25.4753">
    <comp name="--.HHE">
      <acc value="0.3613578541" flag="0"/>
      <vel value="0.1213216004" flag="0"/>
      <psa03 value="0.4399995722" flag="0"/>
      <psa10 value="0.0882061147" flag="0"/>
      <psa30 value="0.0107678246" flag="0"/>
    </comp>
    <comp name="--.HHN">
      <acc value="0.2780534241" flag="0"/>
      <vel value="0.0928157871" flag="0"/>
      <psa03 value="0.5266904641" flag="0"/>
      <psa10 value="0.0301691082" flag="0"/>
      <psa30 value="0.0043891132" flag="0"/>
    </comp>
    <comp name="--.HHZ">
      <acc value="0.2525963996" flag="0"/>
      <vel value="0.1070036699" flag="0"/>
      <psa03 value="0.4557784385" flag="0"/>
      <psa10 value="0.0757116088" flag="0"/>
      <psa30 value="0.0063994938" flag="0"/>
    </comp>
  </station>
  <station code="SNT1" name="SNT1" netid="HA" insttype="30" lat="36.4159" lon="25.4282">
    <comp name="--.HHE">
      <acc value="0.4080412779" flag="0"/>
      <vel value="0.1596464519" flag="0"/>
      <psa03 value="0.8281212341" flag="0"/>
      <psa10 value="0.1471676918" flag="0"/>
      <psa30 value="0.0249345796" flag="0"/>
    </comp>
    <comp name="--.HHN">
      <acc value="0.4224086360" flag="0"/>
      <vel value="0.1915274079" flag="0"/>
      <psa03 value="0.7686958147" flag="0"/>
      <psa10 value="0.1530883180" flag="0"/>
      <psa30 value="0.0111384879" flag="0"/>
    </comp>
    <comp name="--.HHZ">
      <acc value="0.3626095197" flag="0"/>
      <vel value="0.1345077246" flag="0"/>
      <psa03 value="0.5634755757" flag="0"/>
      <psa10 value="0.0800692640" flag="0"/>
      <psa30 value="0.0094044231" flag="0"/>
    </comp>
  </station>
  <station code="KNSS" name="KNSS" netid="HC" insttype="60" lat="35.3042" lon="25.1802">
    <comp name="--.HHN">
      <acc value="0.0415541366" flag="0"/>
      <vel value="0.0312346926" flag="0"/>
      <psa03 value="0.1126172039" flag="0"/>
      <psa10 value="0.0202010392" flag="0"/>
      <psa30 value="0.0019530219" flag="0"/>
    </comp>
    <comp name="--.HHZ">
      <acc value="0.0363012652" flag="0"/>
      <vel value="0.0202188979" flag="0"/>
      <psa03 value="0.0884068720" flag="0"/>
      <psa10 value="0.0168133731" flag="0"/>
      <psa30 value="0.0015888745" flag="0"/>
    </comp>
    <comp name="--.HHE">
      <acc value="20.3400245733" flag="0"/>
      <vel value="1.2461772748" flag="0"/>
      <psa03 value="4.4550301015" flag="0"/>
      <psa10 value="1.3858657389" flag="0"/>
      <psa30 value="0.2098861048" flag="0"/>
    </comp>
  </station>
  <station code="KLNA" name="KLNA" netid="HL" insttype="CMG-5" lat="36.9571" lon="26.9727">
    <comp name="00.HNE">
      <acc value="0.0522929319" flag="0"/>
      <vel value="0.0192478775" flag="0"/>
      <psa03 value="0.1477471943" flag="0"/>
      <psa10 value="0.0083697740" flag="0"/>
      <psa30 value="0.0008238314" flag="0"/>
    </comp>
    <comp name="00.HNN">
      <acc value="0.0358228277" flag="0"/>
      <vel value="0.0151421952" flag="0"/>
      <psa03 value="0.1208378678" flag="0"/>
      <psa10 value="0.0058487973" flag="0"/>
      <psa30 value="0.0018415675" flag="0"/>
    </comp>
    <comp name="00.HNZ">
      <acc value="0.0026428711" flag="0"/>
      <vel value="-100.0000000000" flag="0"/>
      <psa03 value="0.0005326198" flag="0"/>
      <psa10 value="0.0001231138" flag="0"/>
      <psa30 value="0.0000262695" flag="0"/>
    </comp>
  </station>
  <station code="MHLO" name="MHLO" netid="HL" insttype="20" lat="36.6898" lon="24.4017">
    <comp name="--.HHE">
      <acc value="0.3796847884" flag="0"/>
      <vel value="0.1849229011" flag="0"/>
      <psa03 value="1.4889994578" flag="0"/>
      <psa10 value="0.2761650932" flag="0"/>
      <psa30 value="0.0127309127" flag="0"/>
    </comp>
    <comp name="--.HHN">
      <acc value="0.3886681598" flag="0"/>
      <vel value="0.1905847094" flag="0"/>
      <psa03 value="1.4022667636" flag="0"/>
      <psa10 value="0.2340313993" flag="0"/>
      <psa30 value="0.0113915289" flag="0"/>
    </comp>
    <comp name="--.HHZ">
      <acc value="0.1544454132" flag="0"/>
      <vel value="0.1104745679" flag="0"/>
      <psa03 value="0.5261278784" flag="0"/>
      <psa10 value="0.1326200544" flag="0"/>
      <psa30 value="0.0086614821" flag="0"/>
    </comp>
  </station>
  <station code="NISR" name="NISR" netid="HL" insttype="65535" lat="36.6106" lon="27.131">
    <comp name="--.HHN">
      <acc value="0.0353914857" flag="0"/>
      <vel value="0.0248020677" flag="0"/>
      <psa03 value="0.1013470789" flag="0"/>
      <psa10 value="0.0179357418" flag="0"/>
      <psa30 value="0.0058882278" flag="0"/>
    </comp>
    <comp name="--.HHZ">
      <acc value="0.0186715125" flag="0"/>
      <vel value="0.0103899411" flag="0"/>
      <psa03 value="0.0356881512" flag="0"/>
      <psa10 value="0.0121166553" flag="0"/>
      <psa30 value="0.0011869526" flag="0"/>
    </comp>
    <comp name="--.HHE">
      <acc value="0.0000000000" flag="0"/>
      <vel value="-100.0000000000" flag="0"/>
      <psa03 value="0.0000000000" flag="0"/>
      <psa10 value="0.0000000000" flag="0"/>
      <psa30 value="0.0000000000" flag="0"/>
    </comp>
  </station>
  <station code="NISR2" name="NISR2" netid="HL" insttype="120" lat="36.5744" lon="27.1767">
    <comp name="--.HHN">
      <acc value="0.0675276443" flag="0"/>
      <vel value="0.0445059734" flag="0"/>
      <psa03 value="0.2588933527" flag="0"/>
      <psa10 value="0.0657876938" flag="0"/>
      <psa30 value="0.0042145547" flag="0"/>
    </comp>
    <comp name="--.HHZ">
      <acc value="0.0182311557" flag="0"/>
      <vel value="0.0161766324" flag="0"/>
      <psa03 value="0.0610087124" flag="0"/>
      <psa10 value="0.0126994299" flag="0"/>
      <psa30 value="0.0021368082" flag="0"/>
    </comp>
    <comp name="--.HHE">
      <acc value="0.0475752581" flag="0"/>
      <vel value="0.0400326330" flag="0"/>
      <psa03 value="0.1455608815" flag="0"/>
      <psa10 value="0.0408150772" flag="0"/>
      <psa30 value="0.0049631177" flag="0"/>
    </comp>
  </station>
  <station code="NPS" name="NPS" netid="HL" insttype="CMG3ESPC-120s" lat="35.2613" lon="25.6104">
    <comp name="--.HHE">
      <acc value="0.0190995271" flag="0"/>
      <vel value="0.0128558300" flag="0"/>
      <psa03 value="0.0415034785" flag="0"/>
      <psa10 value="0.0115730777" flag="0"/>
      <psa30 value="0.0009165496" flag="0"/>
    </comp>
    <comp name="--.HHN">
      <acc value="0.0471787421" flag="0"/>
      <vel value="0.0321160932" flag="0"/>
      <psa03 value="0.1229552850" flag="0"/>
      <psa10 value="0.0372036494" flag="0"/>
      <psa30 value="0.0016258290" flag="0"/>
    </comp>
    <comp name="--.HHZ">
      <acc value="0.0314347698" flag="0"/>
      <vel value="0.0293253477" flag="0"/>
      <psa03 value="0.0996917613" flag="0"/>
      <psa10 value="0.0177589038" flag="0"/>
      <psa30 value="0.0021405498" flag="0"/>
    </comp>
  </station>
  <station code="SAP3" name="SAP3" netid="HL" insttype="LE3D20_SMART24" lat="36.4356" lon="25.3454">
    <comp name="--.HHE">
      <acc value="1.9942738770" flag="0"/>
      <vel value="0.6828853161" flag="0"/>
      <psa03 value="2.7244810215" flag="0"/>
      <psa10 value="0.4243413566" flag="0"/>
      <psa30 value="0.0461466049" flag="0"/>
    </comp>
    <comp name="--.HHN">
      <acc value="1.6797502188" flag="0"/>
      <vel value="0.6578683476" flag="0"/>
      <psa03 value="2.4757736084" flag="0"/>
      <psa10 value="0.4040736241" flag="0"/>
      <psa30 value="0.0518607475" flag="0"/>
    </comp>
    <comp name="--.HHZ">
      <acc value="1.3639851137" flag="0"/>
      <vel value="0.4588459851" flag="0"/>
      <psa03 value="2.1075560906" flag="0"/>
      <psa10 value="0.1328716241" flag="0"/>
      <psa30 value="0.0176257632" flag="0"/>
    </comp>
  </station>
  <station code="THERA" name="THERA" netid="HL" insttype="120" lat="36.367" lon="25.4753">
    <comp name="--.HHN">
      <acc value="0.2767961590" flag="0"/>
      <vel value="0.0909741775" flag="0"/>
      <psa03 value="0.5118502535" flag="0"/>
      <psa10 value="0.0297890743" flag="0"/>
      <psa30 value="0.0043919656" flag="0"/>
    </comp>
    <comp name="--.HHE">
      <acc value="0.3519755282" flag="0"/>
      <vel value="0.1192560439" flag="0"/>
      <psa03 value="0.4278752779" flag="0"/>
      <psa10 value="0.0876176231" flag="0"/>
      <psa30 value="0.0107660743" flag="0"/>
    </comp>
    <comp name="--.HHZ">
      <acc value="0.2456327787" flag="0"/>
      <vel value="0.1051804301" flag="0"/>
      <psa03 value="0.4423834783" flag="0"/>
      <psa10 value="0.0749534349" flag="0"/>
      <psa30 value="0.0063966607" flag="0"/>
    </comp>
  </station>
  <station code="THRA" name="THRA" netid="HL" insttype="CMG-5" lat="36.415" lon="25.4324">
    <comp name="00.HNZ">
      <acc value="0.9791148441" flag="0"/>
      <vel value="0.4181331130" flag="0"/>
      <psa03 value="2.4210651869" flag="0"/>
      <psa10 value="0.2135504890" flag="0"/>
      <psa30 value="0.0224965052" flag="0"/>
    </comp>
    <comp name="00.HNN">
      <acc value="1.6245560316" flag="0"/>
      <vel value="0.7157136398" flag="0"/>
      <psa03 value="4.1296671841" flag="0"/>
      <psa10 value="0.5391070752" flag="0"/>
      <psa30 value="0.0297782922" flag="0"/>
    </comp>
    <comp name="00.HNE">
      <acc value="1.5699647650" flag="0"/>
      <vel value="0.7960941065" flag="0"/>
      <psa03 value="4.9726923068" flag="0"/>
      <psa10 value="0.3115322808" flag="0"/>
      <psa30 value="0.0387589412" flag="0"/>
    </comp>
  </station>
</stationlist>
