<stationlist created="1738675935">
	<station code="ABEA" name="ABEA" netid="HC" source="Seismological Network of Crete (HC)" insttype="" lat="35.5163" lon="24.0113">
		<comp name=".HNE" depth="0.0">
			<acc value="0.003343157138607" flag="0"/>
			<vel value="0.00164608841649" flag="0"/>
			<psa03 value="0.00350974975630208" flag="0"/>
			<psa10 value="0.000995325427611409" flag="0"/>
			<psa30 value="0.000524856644174642" flag="0"/>
		</comp>
		<comp name=".HNN" depth="0.0">
			<acc value="0.0041014021750716" flag="0"/>
			<vel value="0.002604756653" flag="0"/>
			<psa03 value="0.0030281993012576" flag="0"/>
			<psa10 value="0.00110276289637864" flag="0"/>
			<psa30 value="0.000644923087572532" flag="0"/>
		</comp>
		<comp name=".HNZ" depth="0.0">
			<acc value="0.005763987117138" flag="0"/>
			<vel value="0.00220447996366" flag="0"/>
			<psa03 value="0.00192348712210192" flag="0"/>
			<psa10 value="0.000802648972336024" flag="0"/>
			<psa30 value="0.000901282934738782" flag="0"/>
		</comp>
	</station>
	<station code="ATEI" name="ATEI" netid="HC" source="Seismological Network of Crete (HC)" insttype="" lat="35.5193" lon="24.0432">
		<comp name=".HNE" depth="0.0">
			<acc value="0.043094255923668" flag="0"/>
			<vel value="0.0221970487781" flag="0"/>
			<psa03 value="0.167037586253753" flag="0"/>
			<psa10 value="0.0269537968067396" flag="0"/>
			<psa30 value="0.00210773962740472" flag="0"/>
		</comp>
		<comp name=".HNN" depth="0.0">
			<acc value="0.032651729024676" flag="0"/>
			<vel value="0.016940997194" flag="0"/>
			<psa03 value="0.0760885717444506" flag="0"/>
			<psa10 value="0.02352491841041" flag="0"/>
			<psa30 value="0.00224266148198329" flag="0"/>
		</comp>
		<comp name=".HNZ" depth="0.0">
			<acc value="0.020346654010098" flag="0"/>
			<vel value="0.0104453249306" flag="0"/>
			<psa03 value="0.0650269691761105" flag="0"/>
			<psa10 value="0.0139860696334829" flag="0"/>
			<psa30 value="0.00108359688714456" flag="0"/>
		</comp>
	</station>
	<station code="PASK" name="PASK" netid="HC" source="Seismological Network of Crete (HC)" insttype="" lat="35.4996" lon="24.0121">
		<comp name=".HNE" depth="0.0">
			<acc value="0.06383577835503" flag="0"/>
			<vel value="0.0472726191027" flag="0"/>
			<psa03 value="0.145642971048927" flag="0"/>
			<psa10 value="0.0640282465569183" flag="0"/>
			<psa30 value="0.00449502485668512" flag="0"/>
		</comp>
		<comp name=".HNN" depth="0.0">
			<acc value="0.045292749400194" flag="0"/>
			<vel value="0.0310307314057" flag="0"/>
			<psa03 value="0.117357461855989" flag="0"/>
			<psa10 value="0.0351864209276841" flag="0"/>
			<psa30 value="0.00234069922650153" flag="0"/>
		</comp>
		<comp name=".HNZ" depth="0.0">
			<acc value="0.029451794909496" flag="0"/>
			<vel value="0.0202085870187" flag="0"/>
			<psa03 value="0.0989355227429521" flag="0"/>
			<psa10 value="0.0204046442075431" flag="0"/>
			<psa30 value="0.00186913069573642" flag="0"/>
		</comp>
	</station>
	<station code="POLY" name="POLY" netid="HC" source="Seismological Network of Crete (HC)" insttype="" lat="35.5226" lon="24.0602">
		<comp name=".HNE" depth="0.0">
			<acc value="0.0016994073251376" flag="0"/>
			<vel value="0.00272704568768" flag="0"/>
			<psa03 value="0.00141874339885189" flag="0"/>
			<psa10 value="0.00148981314593428" flag="0"/>
			<psa30 value="0.000884815906376419" flag="0"/>
		</comp>
		<comp name=".HNN" depth="0.0">
			<acc value="0.0020786187984012" flag="0"/>
			<vel value="0.00302552838337" flag="0"/>
			<psa03 value="0.00237123943974647" flag="0"/>
			<psa10 value="0.00129663046571635" flag="0"/>
			<psa30 value="0.00121594898815071" flag="0"/>
		</comp>
		<comp name=".HNZ" depth="0.0">
			<acc value="0.0033696761613858" flag="0"/>
			<vel value="0.00278165865445" flag="0"/>
			<psa03 value="0.00192760588453597" flag="0"/>
			<psa10 value="0.00112139752927002" flag="0"/>
			<psa30 value="0.000669431898660177" flag="0"/>
		</comp>
	</station>
	<station code="ARK1" name="ARK1" netid="HI" source="ITSAK Strong Motion Network" insttype="" lat="35.148777" lon="25.264194">
		<comp name=".HNE" depth="0.0">
			<acc value="0.055919659808514" flag="0"/>
			<vel value="0.0392857803996" flag="0"/>
			<psa03 value="0.184759843599685" flag="0"/>
			<psa10 value="0.0560756647376263" flag="0"/>
			<psa30 value="0.00570026178105033" flag="0"/>
		</comp>
		<comp name=".HNN" depth="0.0">
			<acc value="0.077870965753848" flag="0"/>
			<vel value="0.0617618302619" flag="0"/>
			<psa03 value="0.228076754799218" flag="0"/>
			<psa10 value="0.0455942566458693" flag="0"/>
			<psa30 value="0.00349134440943369" flag="0"/>
		</comp>
		<comp name=".HNZ" depth="0.0">
			<acc value="0.033498390903792" flag="0"/>
			<vel value="0.0215142202891" flag="0"/>
			<psa03 value="0.0584155884962653" flag="0"/>
			<psa10 value="0.0364519685140329" flag="0"/>
			<psa30 value="0.00295478636509382" flag="0"/>
		</comp>
	</station>
	<station code="CH01" name="CH01" netid="HI" source="ITSAK Strong Motion Network" insttype="" lat="35.517" lon="24.0208">
		<comp name=".HNE" depth="0.0">
			<acc value="0.030056490419502" flag="0"/>
			<vel value="0.0167236989052" flag="0"/>
			<psa03 value="0.0931982364257951" flag="0"/>
			<psa10 value="0.0230667486838822" flag="0"/>
			<psa30 value="0.00247201563390218" flag="0"/>
		</comp>
		<comp name=".HNN" depth="0.0">
			<acc value="0.050071479425322" flag="0"/>
			<vel value="0.0271632006191" flag="0"/>
			<psa03 value="0.122135059598308" flag="0"/>
			<psa10 value="0.0280138514051653" flag="0"/>
			<psa30 value="0.00247107036294952" flag="0"/>
		</comp>
		<comp name=".HNZ" depth="0.0">
			<acc value="0.018252536342358" flag="0"/>
			<vel value="0.01166497564" flag="0"/>
			<psa03 value="0.0424899553760049" flag="0"/>
			<psa10 value="0.0242741542935924" flag="0"/>
			<psa30 value="0.00143046069850028" flag="0"/>
		</comp>
	</station>
	<station code="CH02" name="CH02" netid="HI" source="ITSAK Strong Motion Network" insttype="" lat="35.5145" lon="24.0315">
		<comp name=".HNE" depth="0.0">
			<acc value="0.031546411867644" flag="0"/>
			<vel value="0.0193612812458" flag="0"/>
			<psa03 value="0.142242454114552" flag="0"/>
			<psa10 value="0.0285159196647266" flag="0"/>
			<psa30 value="0.00240295189210243" flag="0"/>
		</comp>
		<comp name=".HNN" depth="0.0">
			<acc value="0.041377396522644" flag="0"/>
			<vel value="0.023648113057" flag="0"/>
			<psa03 value="0.106013137433421" flag="0"/>
			<psa10 value="0.0367249228458846" flag="0"/>
			<psa30 value="0.00207717864455902" flag="0"/>
		</comp>
		<comp name=".HNZ" depth="0.0">
			<acc value="0.016514964256968" flag="0"/>
			<vel value="0.00989050623394" flag="0"/>
			<psa03 value="0.042161141927074" flag="0"/>
			<psa10 value="0.0181906531664868" flag="0"/>
			<psa30 value="0.00106223245101939" flag="0"/>
		</comp>
	</station>
	<station code="CH03" name="CH03" netid="HI" source="ITSAK Strong Motion Network" insttype="" lat="35.53303" lon="24.0705">
		<comp name=".HNE" depth="0.0">
			<acc value="0.021561289781472" flag="0"/>
			<vel value="0.0187486998586" flag="0"/>
			<psa03 value="0.0709851503346497" flag="0"/>
			<psa10 value="0.0223909295391904" flag="0"/>
			<psa30 value="0.00168827725674734" flag="0"/>
		</comp>
		<comp name=".HNN" depth="0.0">
			<acc value="0.022825021207848" flag="0"/>
			<vel value="0.0205337619977" flag="0"/>
			<psa03 value="0.0677346589635273" flag="0"/>
			<psa10 value="0.0339977984372836" flag="0"/>
			<psa30 value="0.00172809864472194" flag="0"/>
		</comp>
		<comp name=".HNZ" depth="0.0">
			<acc value="0.01616137161042" flag="0"/>
			<vel value="0.00846593465254" flag="0"/>
			<psa03 value="0.0456497219865017" flag="0"/>
			<psa10 value="0.0128976490934678" flag="0"/>
			<psa30 value="0.000724926043627217" flag="0"/>
		</comp>
	</station>
	<station code="GOR1" name="GOR1" netid="HI" source="ITSAK Strong Motion Network" insttype="" lat="35.0582" lon="24.9628">
		<comp name=".HNE" depth="0.0">
			<acc value="0.024374860364214" flag="0"/>
			<vel value="0.0188002446426" flag="0"/>
			<psa03 value="0.0841030505810955" flag="0"/>
			<psa10 value="0.0306670865439904" flag="0"/>
			<psa30 value="0.00372446256070063" flag="0"/>
		</comp>
		<comp name=".HNN" depth="0.0">
			<acc value="0.02620981132257" flag="0"/>
			<vel value="0.0207075427109" flag="0"/>
			<psa03 value="0.058697226944806" flag="0"/>
			<psa10 value="0.0328310623967713" flag="0"/>
			<psa30 value="0.00322105337897876" flag="0"/>
		</comp>
		<comp name=".HNZ" depth="0.0">
			<acc value="0.015131568758436" flag="0"/>
			<vel value="0.0119079737494" flag="0"/>
			<psa03 value="0.0417869869327994" flag="0"/>
			<psa10 value="0.019010948757051" flag="0"/>
			<psa30 value="0.00159103300229271" flag="0"/>
		</comp>
	</station>
	<station code="HER1" name="HER1" netid="HI" source="ITSAK Strong Motion Network" insttype="" lat="35.317672" lon="25.10217">
		<comp name=".HNE" depth="0.0">
			<acc value="0.073477865402166" flag="0"/>
			<vel value="0.0689816553628" flag="0"/>
			<psa03 value="0.21377980769623" flag="0"/>
			<psa10 value="0.158604126744886" flag="0"/>
			<psa30 value="0.00980658130453723" flag="0"/>
		</comp>
		<comp name=".HNN" depth="0.0">
			<acc value="0.069031938447642" flag="0"/>
			<vel value="0.0716312808063" flag="0"/>
			<psa03 value="0.154201090065297" flag="0"/>
			<psa10 value="0.146043614672547" flag="0"/>
			<psa30 value="0.00679773823346913" flag="0"/>
		</comp>
		<comp name=".HNZ" depth="0.0">
			<acc value="0.067357521632178" flag="0"/>
			<vel value="0.0623454907473" flag="0"/>
			<psa03 value="0.142550328676284" flag="0"/>
			<psa10 value="0.0738846119928418" flag="0"/>
			<psa30 value="0.00434461739291439" flag="0"/>
		</comp>
	</station>
	<station code="HER3" name="HER3" netid="HI" source="ITSAK Strong Motion Network" insttype="" lat="35.3296" lon="25.1065">
		<comp name=".HNE" depth="0.0">
			<acc value="0.1255194876087" flag="0"/>
			<vel value="0.0641107046371" flag="0"/>
			<psa03 value="0.318206454615951" flag="0"/>
			<psa10 value="0.111681663361995" flag="0"/>
			<psa30 value="0.00927287261563541" flag="0"/>
		</comp>
		<comp name=".HNN" depth="0.0">
			<acc value="0.16678145551596" flag="0"/>
			<vel value="0.123580136528" flag="0"/>
			<psa03 value="0.48585693563904" flag="0"/>
			<psa10 value="0.123463758867965" flag="0"/>
			<psa30 value="0.00634590705185954" flag="0"/>
		</comp>
		<comp name=".HNZ" depth="0.0">
			<acc value="0.068505707692236" flag="0"/>
			<vel value="0.052992824194" flag="0"/>
			<psa03 value="0.238942016235754" flag="0"/>
			<psa10 value="0.0612487874315955" flag="0"/>
			<psa30 value="0.00275339739906566" flag="0"/>
		</comp>
	</station>
	<station code="KIS1" name="KIS1" netid="HI" source="ITSAK Strong Motion Network" insttype="" lat="35.493933" lon="23.658993">
		<comp name=".HNE" depth="0.0">
			<acc value="0.020242229683992" flag="0"/>
			<vel value="0.0122755485873" flag="0"/>
			<psa03 value="0.048895046348635" flag="0"/>
			<psa10 value="0.0194993736127895" flag="0"/>
			<psa30 value="0.00158024103737799" flag="0"/>
		</comp>
		<comp name=".HNN" depth="0.0">
			<acc value="0.021431441224026" flag="0"/>
			<vel value="0.0192295934952" flag="0"/>
			<psa03 value="0.0575482497893317" flag="0"/>
			<psa10 value="0.0239770239851496" flag="0"/>
			<psa30 value="0.00163583326175853" flag="0"/>
		</comp>
		<comp name=".HNZ" depth="0.0">
			<acc value="0.014362707924102" flag="0"/>
			<vel value="0.00961501193243" flag="0"/>
			<psa03 value="0.036480653643437" flag="0"/>
			<psa10 value="0.0111605162044156" flag="0"/>
			<psa30 value="0.00112531162970751" flag="0"/>
		</comp>
	</station>
	<station code="KRL1" name="KRL1" netid="HI" source="ITSAK Strong Motion Network" insttype="" lat="37.7951" lon="26.7065">
		<comp name=".HNE" depth="0.0">
			<acc value="0.04901492787057" flag="0"/>
			<vel value="0.0221157971929" flag="0"/>
			<psa03 value="0.111242640112147" flag="0"/>
			<psa10 value="0.0150099080827385" flag="0"/>
			<psa30 value="0.00234311501153708" flag="0"/>
		</comp>
		<comp name=".HNN" depth="0.0">
			<acc value="0.037462459518168" flag="0"/>
			<vel value="0.0143885982972" flag="0"/>
			<psa03 value="0.0665138958023774" flag="0"/>
			<psa10 value="0.0214791053853325" flag="0"/>
			<psa30 value="0.00258821895680573" flag="0"/>
		</comp>
		<comp name=".HNZ" depth="0.0">
			<acc value="0.014360927950968" flag="0"/>
			<vel value="0.00730029656557" flag="0"/>
			<psa03 value="0.032706065053814" flag="0"/>
			<psa10 value="0.00746873601712041" flag="0"/>
			<psa30 value="0.00172189667137161" flag="0"/>
		</comp>
	</station>
	<station code="KTL1" name="KTL1" netid="HI" source="ITSAK Strong Motion Network" insttype="" lat="35.20778" lon="25.34272">
		<comp name=".HNE" depth="0.0">
			<acc value="0.053220350812338" flag="0"/>
			<vel value="0.0397978259167" flag="0"/>
			<psa03 value="0.147514272096705" flag="0"/>
			<psa10 value="0.0319619535725747" flag="0"/>
			<psa30 value="0.00342129060204573" flag="0"/>
		</comp>
		<comp name=".HNN" depth="0.0">
			<acc value="0.049106713950936" flag="0"/>
			<vel value="0.0388018437341" flag="0"/>
			<psa03 value="0.125575464591534" flag="0"/>
			<psa10 value="0.054520680477654" flag="0"/>
			<psa30 value="0.00218567208171458" flag="0"/>
		</comp>
		<comp name=".HNZ" depth="0.0">
			<acc value="0.028273779873252" flag="0"/>
			<vel value="0.0159376441133" flag="0"/>
			<psa03 value="0.0783861666573607" flag="0"/>
			<psa10 value="0.0202394626400759" flag="0"/>
			<psa30 value="0.00154124793344532" flag="0"/>
		</comp>
	</station>
	<station code="NAX1" name="NAX1" netid="HI" source="ITSAK Strong Motion Network" insttype="" lat="37.101394" lon="25.374103">
		<comp name=".HNE" depth="0.0">
			<acc value="0.23048994591828" flag="0"/>
			<vel value="0.0965495647821" flag="0"/>
			<psa03 value="0.584868327990969" flag="0"/>
			<psa10 value="0.030112632939131" flag="0"/>
			<psa30 value="0.00500887347996793" flag="0"/>
		</comp>
		<comp name=".HNN" depth="0.0">
			<acc value="0.2200513398387" flag="0"/>
			<vel value="0.0683920360858" flag="0"/>
			<psa03 value="0.30521246882795" flag="0"/>
			<psa10 value="0.0300621283434588" flag="0"/>
			<psa30 value="0.00393883842871319" flag="0"/>
		</comp>
		<comp name=".HNZ" depth="0.0">
			<acc value="0.11071947526626" flag="0"/>
			<vel value="0.0304372253987" flag="0"/>
			<psa03 value="0.142314729735537" flag="0"/>
			<psa10 value="0.0326604035914649" flag="0"/>
			<psa30 value="0.0064268165783794" flag="0"/>
		</comp>
	</station>
	<station code="RTH1" name="RTH1" netid="HI" source="ITSAK Strong Motion Network" insttype="" lat="35.365393" lon="24.471773">
		<comp name=".HNE" depth="0.0">
			<acc value="0.030643407709356" flag="0"/>
			<vel value="0.0161164383726" flag="0"/>
			<psa03 value="0.123251893999974" flag="0"/>
			<psa10 value="0.00942242512691961" flag="0"/>
			<psa30 value="0.00308150163435783" flag="0"/>
		</comp>
		<comp name=".HNN" depth="0.0">
			<acc value="0.02357253048663" flag="0"/>
			<vel value="0.0124828239535" flag="0"/>
			<psa03 value="0.0785852267189222" flag="0"/>
			<psa10 value="0.0157746324919874" flag="0"/>
			<psa30 value="0.00291713657931609" flag="0"/>
		</comp>
		<comp name=".HNZ" depth="0.0">
			<acc value="0.014972235847206" flag="0"/>
			<vel value="0.00909797996599" flag="0"/>
			<psa03 value="0.0412610953242546" flag="0"/>
			<psa10 value="0.0146352057605491" flag="0"/>
			<psa30 value="0.00181734018153407" flag="0"/>
		</comp>
	</station>
	<station code="SFR2" name="SFR2" netid="HI" source="ITSAK Strong Motion Network" insttype="" lat="36.399841" lon="25.438209">
		<comp name=".HNE" depth="0.0">
			<acc value="1.2358846848258" flag="0"/>
			<vel value="0.458550677855" flag="0"/>
			<psa03 value="2.22541742298472" flag="0"/>
			<psa10 value="0.320603548411505" flag="0"/>
			<psa30 value="0.0304883763719856" flag="0"/>
		</comp>
		<comp name=".HNN" depth="0.0">
			<acc value="1.3878653478258" flag="0"/>
			<vel value="0.567113522487" flag="0"/>
			<psa03 value="1.83284841721359" flag="0"/>
			<psa10 value="0.325751169416142" flag="0"/>
			<psa30 value="0.0176356716100187" flag="0"/>
		</comp>
		<comp name=".HNZ" depth="0.0">
			<acc value="1.0296555522846" flag="0"/>
			<vel value="0.355722214049" flag="0"/>
			<psa03 value="2.10662188669508" flag="0"/>
			<psa10 value="0.175038315429324" flag="0"/>
			<psa30 value="0.0137234041081644" flag="0"/>
		</comp>
	</station>
	<station code="CHNB" name="CHNB" netid="HL" source="National Observatory of Athens Seismic Network" insttype="" lat="35.48765" lon="24.06605">
		<comp name="00.HNE" depth="0.0">
			<acc value="0.065340102386568" flag="0"/>
			<vel value="0.0602036898612" flag="0"/>
			<psa03 value="0.149390573475777" flag="0"/>
			<psa10 value="0.0813416284835837" flag="0"/>
			<psa30 value="0.00325787019291251" flag="0"/>
		</comp>
		<comp name="00.HNN" depth="0.0">
			<acc value="0.069944799062688" flag="0"/>
			<vel value="0.0543030543483" flag="0"/>
			<psa03 value="0.209301073502343" flag="0"/>
			<psa10 value="0.0904372560241972" flag="0"/>
			<psa30 value="0.00334336919013484" flag="0"/>
		</comp>
		<comp name="00.HNZ" depth="0.0">
			<acc value="0.048006687516054" flag="0"/>
			<vel value="0.0288405282369" flag="0"/>
			<psa03 value="0.193228154583781" flag="0"/>
			<psa10 value="0.0198921127548594" flag="0"/>
			<psa30 value="0.00151013128878672" flag="0"/>
		</comp>
	</station>
	<station code="HERG" name="HERG" netid="HL" source="National Observatory of Athens Seismic Network" insttype="" lat="35.32622" lon="25.06586">
		<comp name="00.HNE" depth="0.0">
			<acc value="0.080832056173716" flag="0"/>
			<vel value="0.0672977494682" flag="0"/>
			<psa03 value="0.306129321231621" flag="0"/>
			<psa10 value="0.0628357950631014" flag="0"/>
			<psa30 value="0.0091964817217865" flag="0"/>
		</comp>
		<comp name="00.HNN" depth="0.0">
			<acc value="0.070972947356862" flag="0"/>
			<vel value="0.0503098293539" flag="0"/>
			<psa03 value="0.189563453481972" flag="0"/>
			<psa10 value="0.0803560181916578" flag="0"/>
			<psa30 value="0.00654112665085892" flag="0"/>
		</comp>
		<comp name="00.HNZ" depth="0.0">
			<acc value="0.055510882944384" flag="0"/>
			<vel value="0.0416453840494" flag="0"/>
			<psa03 value="0.174825435493639" flag="0"/>
			<psa10 value="0.0405958355249579" flag="0"/>
			<psa30 value="0.002803118192825" flag="0"/>
		</comp>
	</station>
	<station code="KARA" name="KARA" netid="HL" source="National Observatory of Athens Seismic Network" insttype="" lat="38.01581" lon="24.42014">
		<comp name="00.HNE" depth="0.0">
			<acc value="0.018524493695376" flag="0"/>
			<vel value="0.00981298559391" flag="0"/>
			<psa03 value="0.0510902126008684" flag="0"/>
			<psa10 value="0.0229626661639445" flag="0"/>
			<psa30 value="0.00151464523364668" flag="0"/>
		</comp>
		<comp name="00.HNN" depth="0.0">
			<acc value="0.016602867881244" flag="0"/>
			<vel value="0.0116468972073" flag="0"/>
			<psa03 value="0.0348595202096118" flag="0"/>
			<psa10 value="0.0108576405153869" flag="0"/>
			<psa30 value="0.00156986639177596" flag="0"/>
		</comp>
		<comp name="00.HNZ" depth="0.0">
			<acc value="0.028012974828648" flag="0"/>
			<vel value="0.00777467790503" flag="0"/>
			<psa03 value="0.0179646041293707" flag="0"/>
			<psa10 value="0.00922486016421861" flag="0"/>
			<psa30 value="0.0021229218831564" flag="0"/>
		</comp>
	</station>
	<station code="KARP" name="KARP" netid="HL" source="National Observatory of Athens Seismic Network" insttype="" lat="35.5471" lon="27.16106">
		<comp name=".HNE" depth="0.0">
			<acc value="6.3107813948538e-05" flag="0"/>
			<vel value="0.000162750975099" flag="0"/>
			<psa03 value="5.65157271253121e-05" flag="0"/>
			<psa10 value="5.36163203727873e-05" flag="0"/>
			<psa30 value="3.84284831984002e-05" flag="0"/>
		</comp>
		<comp name=".HNN" depth="0.0">
			<acc value="6.0992064362232e-05" flag="0"/>
			<vel value="0.000152343336886" flag="0"/>
			<psa03 value="6.17911874792315e-05" flag="0"/>
