<?xml version="1.0" encoding="UTF-8" standalone="yes"?>
<!DOCTYPE earthquake SYSTEM "stationlist.dtd">
<stationlist created="" xmlns="ch.ethz.sed.shakemap.usgs.xml">
  <station code="CEYT" name="CEYT" netid="KO" insttype="CMG-3ESP" lat="37.0105" lon="35.7478">
    <comp name="--.HHZ">
      <acc value="0.0042201731" flag="0"/>
      <vel value="0.0023240795" flag="0"/>
      <psa03 value="0.0128142068" flag="0"/>
      <psa10 value="0.0027159394" flag="0"/>
      <psa30 value="0.0002290701" flag="0"/>
    </comp>
    <comp name="--.HHE">
      <acc value="0.0092128138" flag="0"/>
      <vel value="0.0038246968" flag="0"/>
      <psa03 value="0.0304575230" flag="0"/>
      <psa10 value="0.0038479057" flag="0"/>
      <psa30 value="0.0002216792" flag="0"/>
    </comp>
  </station>
  <station code="KHMN" name="KHMN" netid="KO" insttype="CMG-5T" lat="37.3916" lon="37.1574">
    <comp name="--.HNE">
      <acc value="1.9549453484" flag="0"/>
      <vel value="0.2907396778" flag="0"/>
      <psa03 value="0.9176908648" flag="0"/>
      <psa10 value="0.0494101335" flag="0"/>
      <psa30 value="0.0051109489" flag="0"/>
    </comp>
    <comp name="--.HNZ">
      <acc value="1.0070911015" flag="0"/>
      <vel value="0.1190791610" flag="0"/>
      <psa03 value="0.2151785687" flag="0"/>
      <psa10 value="0.0161907918" flag="0"/>
      <psa30 value="0.0014896812" flag="0"/>
    </comp>
    <comp name="--.HNN">
      <acc value="1.4859964433" flag="0"/>
      <vel value="0.2184289518" flag="0"/>
      <psa03 value="0.3888617551" flag="0"/>
      <psa10 value="0.0361691569" flag="0"/>
      <psa30 value="0.0031483601" flag="0"/>
    </comp>
  </station>
  <station code="KMRS" name="KMRS" netid="KO" insttype="CMG-3T" lat="37.5053" lon="36.9">
    <comp name="--.HHE">
      <acc value="0.0741314195" flag="0"/>
      <vel value="0.0233164741" flag="0"/>
      <psa03 value="0.1313561295" flag="0"/>
      <psa10 value="0.0142018259" flag="0"/>
      <psa30 value="0.0012279819" flag="0"/>
    </comp>
    <comp name="--.HHN">
      <acc value="0.0861388630" flag="0"/>
      <vel value="0.0283550669" flag="0"/>
      <psa03 value="0.0778756781" flag="0"/>
      <psa10 value="0.0230072861" flag="0"/>
      <psa30 value="0.0016904282" flag="0"/>
    </comp>
    <comp name="--.HHZ">
      <acc value="0.0918730680" flag="0"/>
      <vel value="0.0233321651" flag="0"/>
      <psa03 value="0.1216754399" flag="0"/>
      <psa10 value="0.0158523171" flag="0"/>
      <psa30 value="0.0012556583" flag="0"/>
    </comp>
  </station>
  <station code="ANDN" name="ANDN" netid="TU" insttype="T" lat="37.58" lon="36.3452">
    <comp name="--.HHZ">
      <acc value="0.0603831878" flag="0"/>
      <vel value="0.0169435962" flag="0"/>
      <psa03 value="0.1214211976" flag="0"/>
      <psa10 value="0.0134507125" flag="0"/>
      <psa30 value="0.0009818151" flag="0"/>
    </comp>
    <comp name="--.HHE">
      <acc value="0.1281657441" flag="0"/>
      <vel value="0.0444083279" flag="0"/>
      <psa03 value="0.1686164913" flag="0"/>
      <psa10 value="0.0161414106" flag="0"/>
      <psa30 value="0.0012958097" flag="0"/>
    </comp>
    <comp name="--.HHN">
      <acc value="0.1800739735" flag="0"/>
      <vel value="0.0499100148" flag="0"/>
      <psa03 value="0.2181722754" flag="0"/>
      <psa10 value="0.0163202560" flag="0"/>
      <psa30 value="0.0012606426" flag="0"/>
    </comp>
  </station>
</stationlist>
