<?xml version="1.0" encoding="UTF-8" standalone="yes"?>
<!DOCTYPE earthquake SYSTEM "stationlist.dtd">
<stationlist created="" xmlns="ch.ethz.sed.shakemap.usgs.xml">
  <station code="CEYT" name="CEYT" netid="KO" insttype="CMG-3ESP" lat="37.0105" lon="35.7478">
    <comp name="--.HHZ">
      <acc value="0.0042201730" flag="0"/>
      <vel value="0.0023240796" flag="0"/>
      <psa03 value="0.0128142068" flag="0"/>
      <psa10 value="0.0027159395" flag="0"/>
      <psa30 value="0.0002290466" flag="0"/>
    </comp>
    <comp name="--.HHE">
      <acc value="0.0092128138" flag="0"/>
      <vel value="0.0038246932" flag="0"/>
      <psa03 value="0.0304575230" flag="0"/>
      <psa10 value="0.0038479057" flag="0"/>
      <psa30 value="0.0002216870" flag="0"/>
    </comp>
  </station>
  <station code="KHMN" name="KHMN" netid="KO" insttype="CMG-5T" lat="37.3916" lon="37.1574">
    <comp name="--.HNE">
      <acc value="1.9549453459" flag="0"/>
      <vel value="0.2907396962" flag="0"/>
      <psa03 value="0.9176908647" flag="0"/>
      <psa10 value="0.0494101744" flag="0"/>
      <psa30 value="0.0051226056" flag="0"/>
    </comp>
    <comp name="--.HNN">
      <acc value="1.4859964388" flag="0"/>
      <vel value="0.2184289559" flag="0"/>
      <psa03 value="0.3888617551" flag="0"/>
      <psa10 value="0.0361692063" flag="0"/>
      <psa30 value="0.0031519387" flag="0"/>
    </comp>
    <comp name="--.HNZ">
      <acc value="1.0070910722" flag="0"/>
      <vel value="0.1190791432" flag="0"/>
      <psa03 value="0.2151785687" flag="0"/>
      <psa10 value="0.0161907245" flag="0"/>
      <psa30 value="0.0014931908" flag="0"/>
    </comp>
  </station>
  <station code="KMRS" name="KMRS" netid="KO" insttype="CMG-3T" lat="37.5053" lon="36.9">
    <comp name="--.HHE">
      <acc value="0.0741314195" flag="0"/>
      <vel value="0.0233164742" flag="0"/>
      <psa03 value="0.1313561295" flag="0"/>
      <psa10 value="0.0142018152" flag="0"/>
      <psa30 value="0.0012280829" flag="0"/>
    </comp>
    <comp name="--.HHN">
      <acc value="0.0861388627" flag="0"/>
      <vel value="0.0283550668" flag="0"/>
      <psa03 value="0.0778756781" flag="0"/>
      <psa10 value="0.0230072784" flag="0"/>
      <psa30 value="0.0016904017" flag="0"/>
    </comp>
    <comp name="--.HHZ">
      <acc value="0.0918730681" flag="0"/>
      <vel value="0.0233321644" flag="0"/>
      <psa03 value="0.1216754399" flag="0"/>
      <psa10 value="0.0158523185" flag="0"/>
      <psa30 value="0.0012556269" flag="0"/>
    </comp>
  </station>
  <station code="ANDN" name="ANDN" netid="TU" insttype="T" lat="37.58" lon="36.3452">
    <comp name="--.HHN">
      <acc value="0.1800739737" flag="0"/>
      <vel value="0.0499100185" flag="0"/>
      <psa03 value="0.2181722754" flag="0"/>
      <psa10 value="0.0163202576" flag="0"/>
      <psa30 value="0.0012607228" flag="0"/>
    </comp>
    <comp name="--.HHE">
      <acc value="0.1281657441" flag="0"/>
      <vel value="0.0444083273" flag="0"/>
      <psa03 value="0.1686164913" flag="0"/>
      <psa10 value="0.0161414108" flag="0"/>
      <psa30 value="0.0012959154" flag="0"/>
    </comp>
    <comp name="--.HHZ">
      <acc value="0.0603831878" flag="0"/>
      <vel value="0.0169435964" flag="0"/>
      <psa03 value="0.1214211976" flag="0"/>
      <psa10 value="0.0134507123" flag="0"/>
      <psa30 value="0.0009818652" flag="0"/>
    </comp>
  </station>
</stationlist>
