<?xml version="1.0" encoding="UTF-8" standalone="yes"?>
<!DOCTYPE earthquake SYSTEM "stationlist.dtd">
<stationlist created="" xmlns="ch.ethz.sed.shakemap.usgs.xml">
  <station code="DARE" name="DARE" netid="KO" insttype="CMG-3ESP" lat="38.5712" lon="37.4832">
    <comp name="--.HHE">
      <acc value="0.0077425254" flag="0"/>
      <vel value="0.0050533557" flag="0"/>
      <psa03 value="0.0139346579" flag="0"/>
      <psa10 value="0.0100891622" flag="0"/>
      <psa30 value="0.0004611300" flag="0"/>
    </comp>
    <comp name="--.HHZ">
      <acc value="0.0064215967" flag="0"/>
      <vel value="0.0055274621" flag="0"/>
      <psa03 value="0.0150060920" flag="0"/>
      <psa10 value="0.0060861331" flag="0"/>
      <psa30 value="0.0004309890" flag="0"/>
    </comp>
    <comp name="--.HHN">
      <acc value="0.0079623428" flag="0"/>
      <vel value="0.0059200783" flag="0"/>
      <psa03 value="0.0215753613" flag="0"/>
      <psa10 value="0.0104038269" flag="0"/>
      <psa30 value="0.0004295447" flag="0"/>
    </comp>
  </station>
  <station code="URFA" name="URFA" netid="KO" insttype="CMG-3ESP" lat="37.4409" lon="38.8213">
    <comp name="--.HHZ">
      <acc value="0.0590580499" flag="0"/>
      <vel value="0.0139153858" flag="0"/>
      <psa03 value="0.0931680781" flag="0"/>
      <psa10 value="0.0097233688" flag="0"/>
      <psa30 value="0.0012435859" flag="0"/>
    </comp>
  </station>
</stationlist>
