<?xml version="1.0" encoding="UTF-8" standalone="yes"?>
<!DOCTYPE earthquake SYSTEM "stationlist.dtd">
<stationlist created="" xmlns="ch.ethz.sed.shakemap.usgs.xml">
  <station code="DARE" name="DARE" netid="KO" insttype="CMG-3ESP" lat="38.5712" lon="37.4832">
    <comp name="--.HHE">
      <acc value="0.0469377283" flag="0"/>
      <vel value="0.0232212959" flag="0"/>
      <psa03 value="0.0710836378" flag="0"/>
      <psa10 value="0.0209997255" flag="0"/>
      <psa30 value="0.0011194263" flag="0"/>
    </comp>
  </station>
  <station code="GAZ" name="GAZ" netid="KO" insttype="CMG-3T" lat="37.1721" lon="37.2096">
    <comp name="--.HHZ">
      <acc value="0.0085531133" flag="0"/>
      <vel value="0.0034029878" flag="0"/>
      <psa03 value="0.0266367599" flag="0"/>
      <psa10 value="0.0038108440" flag="0"/>
      <psa30 value="0.0004599167" flag="0"/>
    </comp>
    <comp name="--.HHN">
      <acc value="0.0095620485" flag="0"/>
      <vel value="0.0050517690" flag="0"/>
      <psa03 value="0.0254932284" flag="0"/>
      <psa10 value="0.0038496427" flag="0"/>
      <psa30 value="0.0004149750" flag="0"/>
    </comp>
  </station>
  <station code="ANDN" name="ANDN" netid="TU" insttype="T" lat="37.58" lon="36.3452">
    <comp name="--.HHN">
      <acc value="0.0904241930" flag="0"/>
      <vel value="0.0364538718" flag="0"/>
      <psa03 value="0.1736117854" flag="0"/>
      <psa10 value="0.0491771306" flag="0"/>
      <psa30 value="0.0038645380" flag="0"/>
    </comp>
    <comp name="--.HHZ">
      <acc value="0.0286904596" flag="0"/>
      <vel value="0.0205850159" flag="0"/>
      <psa03 value="0.0850284494" flag="0"/>
      <psa10 value="0.0333672648" flag="0"/>
      <psa30 value="0.0016449249" flag="0"/>
    </comp>
    <comp name="--.HHE">
      <acc value="0.0563941585" flag="0"/>
      <vel value="0.0293404743" flag="0"/>
      <psa03 value="0.1243975869" flag="0"/>
      <psa10 value="0.0486640001" flag="0"/>
      <psa30 value="0.0016444162" flag="0"/>
    </comp>
  </station>
</stationlist>
