<?xml version="1.0" encoding="UTF-8" standalone="yes"?>
<!DOCTYPE earthquake SYSTEM "stationlist.dtd">
<stationlist created="" xmlns="ch.ethz.sed.shakemap.usgs.xml">
  <station code="DARE" name="DARE" netid="KO" insttype="CMG-3ESP" lat="38.5712" lon="37.4832">
    <comp name="--.HHE">
      <acc value="0.0469377283" flag="0"/>
      <vel value="0.0232212959" flag="0"/>
      <psa03 value="0.0710836378" flag="0"/>
      <psa10 value="0.0209997255" flag="0"/>
      <psa30 value="0.0011194159" flag="0"/>
    </comp>
  </station>
  <station code="GAZ" name="GAZ" netid="KO" insttype="CMG-3T" lat="37.1721" lon="37.2096">
    <comp name="--.HHN">
      <acc value="0.0095620487" flag="0"/>
      <vel value="0.0050517695" flag="0"/>
      <psa03 value="0.0254932284" flag="0"/>
      <psa10 value="0.0038496426" flag="0"/>
      <psa30 value="0.0004149763" flag="0"/>
    </comp>
    <comp name="--.HHZ">
      <acc value="0.0085531130" flag="0"/>
      <vel value="0.0034029878" flag="0"/>
      <psa03 value="0.0266367599" flag="0"/>
      <psa10 value="0.0038108448" flag="0"/>
      <psa30 value="0.0004599156" flag="0"/>
    </comp>
  </station>
  <station code="ANDN" name="ANDN" netid="TU" insttype="T" lat="37.58" lon="36.3452">
    <comp name="--.HHE">
      <acc value="0.0563941585" flag="0"/>
      <vel value="0.0293404744" flag="0"/>
      <psa03 value="0.1243975869" flag="0"/>
      <psa10 value="0.0486640002" flag="0"/>
      <psa30 value="0.0016444227" flag="0"/>
    </comp>
    <comp name="--.HHZ">
      <acc value="0.0286904598" flag="0"/>
      <vel value="0.0205850162" flag="0"/>
      <psa03 value="0.0850284494" flag="0"/>
      <psa10 value="0.0333672648" flag="0"/>
      <psa30 value="0.0016449288" flag="0"/>
    </comp>
    <comp name="--.HHN">
      <acc value="0.0904241930" flag="0"/>
      <vel value="0.0364538720" flag="0"/>
      <psa03 value="0.1736117854" flag="0"/>
      <psa10 value="0.0491771306" flag="0"/>
      <psa30 value="0.0038645395" flag="0"/>
    </comp>
  </station>
</stationlist>
