<?xml version="1.0" encoding="UTF-8" standalone="yes"?>
<!DOCTYPE earthquake SYSTEM "stationlist.dtd">
<stationlist created="" xmlns="ch.ethz.sed.shakemap.usgs.xml">
  <station code="HSY" name="HSY" netid="KO" insttype="CMG-6T" lat="35.2916" lon="33.0974">
    <comp name="--.HHE">
      <acc value="0.0568172329" flag="0"/>
      <vel value="0.0249498830" flag="0"/>
      <psa03 value="0.1598072077" flag="0"/>
      <psa10 value="0.0133042729" flag="0"/>
      <psa30 value="0.0010422206" flag="0"/>
    </comp>
    <comp name="--.HHZ">
      <acc value="0.0129293050" flag="0"/>
      <vel value="0.0051000976" flag="0"/>
      <psa03 value="0.0235781652" flag="0"/>
      <psa10 value="0.0062749586" flag="0"/>
      <psa30 value="0.0002940308" flag="0"/>
    </comp>
    <comp name="--.HHN">
      <acc value="0.0614044613" flag="0"/>
      <vel value="0.0271553707" flag="0"/>
      <psa03 value="0.1929844306" flag="0"/>
      <psa10 value="0.0129139228" flag="0"/>
      <psa30 value="0.0008955856" flag="0"/>
    </comp>
  </station>
  <station code="LEF" name="LEF" netid="KO" insttype="CMG-6T" lat="35.1118" lon="32.8433">
    <comp name="--.HHE">
      <acc value="0.0118276535" flag="0"/>
      <vel value="0.0082921096" flag="0"/>
      <psa03 value="0.0331137049" flag="0"/>
      <psa10 value="0.0048513961" flag="0"/>
      <psa30 value="0.0006831138" flag="0"/>
    </comp>
    <comp name="--.HHN">
      <acc value="0.0139060938" flag="0"/>
      <vel value="0.0078789303" flag="0"/>
      <psa03 value="0.0416759019" flag="0"/>
      <psa10 value="0.0049131146" flag="0"/>
      <psa30 value="0.0005454140" flag="0"/>
    </comp>
    <comp name="--.HHZ">
      <acc value="0.0122329990" flag="0"/>
      <vel value="0.0060014482" flag="0"/>
      <psa03 value="0.0273255469" flag="0"/>
      <psa10 value="0.0061218796" flag="0"/>
      <psa30 value="0.0004602823" flag="0"/>
    </comp>
  </station>
  <station code="MAGT" name="MAGT" netid="KO" insttype="CMG-6T" lat="35.1696" lon="33.8714">
    <comp name="--.HHE">
      <acc value="0.0043611972" flag="0"/>
      <vel value="0.0039118771" flag="0"/>
      <psa03 value="0.0089481235" flag="0"/>
      <psa10 value="0.0060343584" flag="0"/>
      <psa30 value="0.0008183202" flag="0"/>
    </comp>
    <comp name="--.HHN">
      <acc value="0.0046507286" flag="0"/>
      <vel value="0.0045883987" flag="0"/>
      <psa03 value="0.0100127956" flag="0"/>
      <psa10 value="0.0068530438" flag="0"/>
      <psa30 value="0.0010465000" flag="0"/>
    </comp>
    <comp name="--.HHZ">
      <acc value="0.0039310910" flag="0"/>
      <vel value="0.0025965961" flag="0"/>
      <psa03 value="0.0084563864" flag="0"/>
      <psa10 value="0.0062483488" flag="0"/>
      <psa30 value="0.0003580813" flag="0"/>
    </comp>
  </station>
</stationlist>
