<?xml version="1.0" encoding="UTF-8" standalone="yes"?>
<!DOCTYPE earthquake SYSTEM "stationlist.dtd">
<stationlist created="" xmlns="ch.ethz.sed.shakemap.usgs.xml">
  <station code="HSY" name="HSY" netid="KO" insttype="CMG-6T" lat="35.2916" lon="33.0974">
    <comp name="--.HHZ">
      <acc value="0.0129293043" flag="0"/>
      <vel value="0.0051001003" flag="0"/>
      <psa03 value="0.0235781652" flag="0"/>
      <psa10 value="0.0062749586" flag="0"/>
      <psa30 value="0.0002940080" flag="0"/>
    </comp>
    <comp name="--.HHN">
      <acc value="0.0614044608" flag="0"/>
      <vel value="0.0271553727" flag="0"/>
      <psa03 value="0.1929844306" flag="0"/>
      <psa10 value="0.0129139227" flag="0"/>
      <psa30 value="0.0008955025" flag="0"/>
    </comp>
    <comp name="--.HHE">
      <acc value="0.0568172326" flag="0"/>
      <vel value="0.0249498816" flag="0"/>
      <psa03 value="0.1598072077" flag="0"/>
      <psa10 value="0.0133042727" flag="0"/>
      <psa30 value="0.0010422520" flag="0"/>
    </comp>
  </station>
  <station code="LEF" name="LEF" netid="KO" insttype="CMG-6T" lat="35.1118" lon="32.8433">
    <comp name="--.HHE">
      <acc value="0.0118276538" flag="0"/>
      <vel value="0.0082921100" flag="0"/>
      <psa03 value="0.0331137049" flag="0"/>
      <psa10 value="0.0048513961" flag="0"/>
      <psa30 value="0.0006831583" flag="0"/>
    </comp>
    <comp name="--.HHN">
      <acc value="0.0139060980" flag="0"/>
      <vel value="0.0078789307" flag="0"/>
      <psa03 value="0.0416759019" flag="0"/>
      <psa10 value="0.0049131146" flag="0"/>
      <psa30 value="0.0005453603" flag="0"/>
    </comp>
    <comp name="--.HHZ">
      <acc value="0.0122329987" flag="0"/>
      <vel value="0.0060014508" flag="0"/>
      <psa03 value="0.0273255469" flag="0"/>
      <psa10 value="0.0061218796" flag="0"/>
      <psa30 value="0.0004602815" flag="0"/>
    </comp>
  </station>
  <station code="MAGT" name="MAGT" netid="KO" insttype="CMG-6T" lat="35.1696" lon="33.8714">
    <comp name="--.HHE">
      <acc value="0.0043611975" flag="0"/>
      <vel value="0.0039118812" flag="0"/>
      <psa03 value="0.0089481235" flag="0"/>
      <psa10 value="0.0060343584" flag="0"/>
      <psa30 value="0.0008182851" flag="0"/>
    </comp>
    <comp name="--.HHZ">
      <acc value="0.0039310908" flag="0"/>
      <vel value="0.0025965960" flag="0"/>
      <psa03 value="0.0084563864" flag="0"/>
      <psa10 value="0.0062483488" flag="0"/>
      <psa30 value="0.0003580443" flag="0"/>
    </comp>
    <comp name="--.HHN">
      <acc value="0.0046507292" flag="0"/>
      <vel value="0.0045884010" flag="0"/>
      <psa03 value="0.0100127956" flag="0"/>
      <psa10 value="0.0068530440" flag="0"/>
      <psa30 value="0.0010465646" flag="0"/>
    </comp>
  </station>
</stationlist>
