<?xml version="1.0" encoding="UTF-8" standalone="yes"?>
<!DOCTYPE earthquake SYSTEM "stationlist.dtd">
<stationlist created="" xmlns="ch.ethz.sed.shakemap.usgs.xml">
  <station code="ITM" name="ITM" netid="HL" source="NOA" insttype="DR24" lat="37.1787" lon="21.9252">
    <comp name="--.HHE">
      <acc value="0.0081088104" flag="0"/>
      <vel value="0.0039753433" flag="0"/>
      <psa03 value="0.0287018910" flag="0"/>
      <psa10 value="0.0040200349" flag="0"/>
      <psa30 value="0.0003445438" flag="0"/>
    </comp>
    <comp name="--.HHN">
      <acc value="0.0119971036" flag="0"/>
      <vel value="0.0039051468" flag="0"/>
      <psa03 value="0.0219884642" flag="0"/>
      <psa10 value="0.0024335925" flag="0"/>
      <psa30 value="0.0007552917" flag="0"/>
    </comp>
    <comp name="--.HHZ">
      <acc value="0.0074531726" flag="0"/>
      <vel value="0.0030128191" flag="0"/>
      <psa03 value="0.0151437152" flag="0"/>
      <psa10 value="0.0022019591" flag="0"/>
      <psa30 value="0.0002596830" flag="0"/>
    </comp>
  </station>
  <station code="RLS" name="RLS" netid="HL" source="NOA" insttype="120" lat="38.0559" lon="21.4647">
    <comp name="--.HHE">
      <acc value="0.0030044020" flag="0"/>
      <vel value="0.0022425343" flag="0"/>
      <psa03 value="0.0088149593" flag="0"/>
      <psa10 value="0.0025161486" flag="0"/>
      <psa30 value="0.0004455940" flag="0"/>
    </comp>
    <comp name="--.HHN">
      <acc value="0.0036433436" flag="0"/>
      <vel value="0.0022604679" flag="0"/>
      <psa03 value="0.0118210242" flag="0"/>
      <psa10 value="0.0037639898" flag="0"/>
      <psa30 value="0.0002990687" flag="0"/>
    </comp>
    <comp name="--.HHZ">
      <acc value="0.0022886900" flag="0"/>
      <vel value="0.0016808865" flag="0"/>
      <psa03 value="0.0069328028" flag="0"/>
      <psa10 value="0.0020103321" flag="0"/>
      <psa30 value="0.0004939602" flag="0"/>
    </comp>
  </station>
  <station code="VLS" name="VLS" netid="HL" source="NOA" insttype="120P," lat="38.1768" lon="20.5886">
    <comp name="--.HHE">
      <acc value="0.0156314516" flag="0"/>
      <vel value="0.0048111414" flag="0"/>
      <psa03 value="0.0262507520" flag="0"/>
      <psa10 value="0.0030696172" flag="0"/>
      <psa30 value="0.0004407863" flag="0"/>
    </comp>
    <comp name="--.HHN">
      <acc value="0.0121421151" flag="0"/>
      <vel value="0.0035545144" flag="0"/>
      <psa03 value="0.0248332069" flag="0"/>
      <psa10 value="0.0053404931" flag="0"/>
      <psa30 value="0.0003156102" flag="0"/>
    </comp>
    <comp name="--.HHZ">
      <acc value="0.0064484370" flag="0"/>
      <vel value="0.0023690812" flag="0"/>
      <psa03 value="0.0182044618" flag="0"/>
      <psa10 value="0.0030333635" flag="0"/>
      <psa30 value="0.0003599335" flag="0"/>
    </comp>
  </station>
  <station code="AMT" name="AMT" netid="HP" source="NOA" insttype="CMG-3T," lat="37.5324" lon="21.7089">
    <comp name="00.HHE">
      <acc value="0.0142120168" flag="0"/>
      <vel value="0.0100674356" flag="0"/>
      <psa03 value="0.0618188061" flag="0"/>
      <psa10 value="0.0103990573" flag="0"/>
      <psa30 value="0.0007176408" flag="0"/>
    </comp>
    <comp name="00.HHN">
      <acc value="0.0186924856" flag="0"/>
      <vel value="0.0100482650" flag="0"/>
      <psa03 value="0.0531952146" flag="0"/>
      <psa10 value="0.0086742973" flag="0"/>
      <psa30 value="0.0006135864" flag="0"/>
    </comp>
    <comp name="00.HHZ">
      <acc value="0.0101926124" flag="0"/>
      <vel value="0.0077984250" flag="0"/>
      <psa03 value="0.0332769463" flag="0"/>
      <psa10 value="0.0084073571" flag="0"/>
      <psa30 value="0.0005339211" flag="0"/>
    </comp>
  </station>
  <station code="DRO" name="DRO" netid="HP" source="NOA" insttype="120P," lat="37.952" lon="21.71">
    <comp name="--.HHE">
      <acc value="0.0080999979" flag="0"/>
      <vel value="0.0047850713" flag="0"/>
      <psa03 value="0.0224427991" flag="0"/>
      <psa10 value="0.0078749756" flag="0"/>
      <psa30 value="0.0006329352" flag="0"/>
    </comp>
    <comp name="--.HHN">
      <acc value="0.0078442681" flag="0"/>
      <vel value="0.0038323488" flag="0"/>
      <psa03 value="0.0267726787" flag="0"/>
      <psa10 value="0.0063745471" flag="0"/>
      <psa30 value="0.0003903459" flag="0"/>
    </comp>
    <comp name="--.HHZ">
      <acc value="0.0047679238" flag="0"/>
      <vel value="0.0033457500" flag="0"/>
      <psa03 value="0.0148393915" flag="0"/>
      <psa10 value="0.0036318819" flag="0"/>
      <psa30 value="0.0007815355" flag="0"/>
    </comp>
  </station>
  <station code="LTHK" name="LTHK" netid="HP" source="NOA" insttype="40," lat="37.7095" lon="20.8367">
    <comp name="--.HHN">
      <acc value="0.0736901662" flag="0"/>
      <vel value="0.0310082082" flag="0"/>
      <psa03 value="0.1598018974" flag="0"/>
      <psa10 value="0.0325285464" flag="0"/>
      <psa30 value="0.0020499307" flag="0"/>
    </comp>
    <comp name="--.HHZ">
      <acc value="0.0320590231" flag="0"/>
      <vel value="0.0098565450" flag="0"/>
      <psa03 value="0.0650061380" flag="0"/>
      <psa10 value="0.0063499061" flag="0"/>
      <psa30 value="0.0007867428" flag="0"/>
    </comp>
  </station>
  <station code="PYL" name="PYL" netid="HP" source="NOA" insttype="120s" lat="36.8955" lon="21.742">
    <comp name="--.HHE">
      <acc value="0.0082194413" flag="0"/>
      <vel value="0.0028228322" flag="0"/>
      <psa03 value="0.0185465375" flag="0"/>
      <psa10 value="0.0018908830" flag="0"/>
      <psa30 value="0.0002238163" flag="0"/>
    </comp>
    <comp name="--.HHN">
      <acc value="0.0006681522" flag="0"/>
      <vel value="0.0002530407" flag="0"/>
      <psa03 value="0.0017057512" flag="0"/>
      <psa10 value="0.0002362267" flag="0"/>
      <psa30 value="0.0000262713" flag="0"/>
    </comp>
    <comp name="--.HHZ">
      <acc value="0.0002963904" flag="0"/>
      <vel value="0.0001185915" flag="0"/>
      <psa03 value="0.0006909437" flag="0"/>
      <psa10 value="0.0001071068" flag="0"/>
      <psa30 value="0.0000103401" flag="0"/>
    </comp>
  </station>
  <station code="DMLN" name="DMLN" netid="HT" source="NOA" insttype="1s-100Hz," lat="38.2385" lon="20.3734">
    <comp name="--.HHE">
      <acc value="0.0119286582" flag="0"/>
      <vel value="0.0070613905" flag="0"/>
      <psa03 value="0.0406696311" flag="0"/>
      <psa10 value="0.0106820513" flag="0"/>
      <psa30 value="0.0007642237" flag="0"/>
    </comp>
    <comp name="--.HHN">
      <acc value="0.0189383526" flag="0"/>
      <vel value="0.0128106466" flag="0"/>
      <psa03 value="0.0608879450" flag="0"/>
      <psa10 value="0.0150301021" flag="0"/>
      <psa30 value="0.0007526488" flag="0"/>
    </comp>
    <comp name="--.HHZ">
      <acc value="0.0094127574" flag="0"/>
      <vel value="0.0055149400" flag="0"/>
      <psa03 value="0.0291294716" flag="0"/>
      <psa10 value="0.0059223716" flag="0"/>
      <psa30 value="0.0002632838" flag="0"/>
    </comp>
  </station>
  <station code="PSDA" name="PSDA" netid="HT" source="NOA" insttype="30" lat="38.114" lon="20.5841">
    <comp name="--.HHE">
      <acc value="0.0172570484" flag="0"/>
      <vel value="0.0062169073" flag="0"/>
      <psa03 value="0.0472913431" flag="0"/>
      <psa10 value="0.0065587204" flag="0"/>
      <psa30 value="0.0006932964" flag="0"/>
    </comp>
    <comp name="--.HHN">
      <acc value="0.0144901057" flag="0"/>
      <vel value="0.0064351511" flag="0"/>
      <psa03 value="0.0498114523" flag="0"/>
      <psa10 value="0.0049578338" flag="0"/>
      <psa30 value="0.0005627950" flag="0"/>
    </comp>
    <comp name="--.HHZ">
      <acc value="0.0124209185" flag="0"/>
      <vel value="0.0032027378" flag="0"/>
      <psa03 value="0.0222241937" flag="0"/>
      <psa10 value="0.0030362637" flag="0"/>
      <psa30 value="0.0004495295" flag="0"/>
    </comp>
  </station>
</stationlist>
