<stationlist xmlns:esm="https://esm-db.eu/esmws/shakemap/1/" created="1783994060">
	<station code="ARG2" name="ARG2" netid="HI" source="ITSAK Strong Motion Network" insttype="" lat="38.1783" lon="20.4878" esm:processing="manual (Paolucci et al 2011)" esm:quality="best">
		<comp name="--.HNE" depth="0.0">
			<acc value="0.016828140469077" flag="0"/>
			<vel value="0.00719945064964275" flag="0"/>
			<psa03 value="0.0389257197578964" flag="0"/>
			<psa10 value="0.00675294124489576" flag="0"/>
			<psa30 value="0.000616995029265967" flag="0"/>
		</comp>
		<comp name="--.HNN" depth="0.0">
			<acc value="0.0139599768552511" flag="0"/>
			<vel value="0.0070094626613379" flag="0"/>
			<psa03 value="0.0281428479628929" flag="0"/>
			<psa10 value="0.00682139682102171" flag="0"/>
			<psa30 value="0.000492611694867172" flag="0"/>
		</comp>
		<comp name="--.HNZ" depth="0.0">
			<acc value="0.0124556160827154" flag="0"/>
			<vel value="0.00397809909003248" flag="0"/>
			<psa03 value="0.0298430518143873" flag="0"/>
			<psa10 value="0.00341875200770214" flag="0"/>
			<psa30 value="0.000659500125553326" flag="0"/>
		</comp>
	</station>
	<station code="KRI1" name="KRI1" netid="HI" source="ITSAK Strong Motion Network" insttype="" lat="37.6621" lon="20.8172" esm:processing="manual (Paolucci et al 2011)" esm:quality="best">
		<comp name="--.HNE" depth="0.0">
			<acc value="0.0610836691152392" flag="0"/>
			<vel value="0.0242390400044342" flag="0"/>
			<psa03 value="0.157761020536026" flag="0"/>
			<psa10 value="0.0235003966041811" flag="0"/>
			<psa30 value="0.00116463963827361" flag="0"/>
		</comp>
		<comp name="--.HNN" depth="0.0">
			<acc value="0.0789891079197604" flag="0"/>
			<vel value="0.0507590418091914" flag="0"/>
			<psa03 value="0.217044444305236" flag="0"/>
			<psa10 value="0.0482128595856511" flag="0"/>
			<psa30 value="0.00293598359829099" flag="0"/>
		</comp>
		<comp name="--.HNZ" depth="0.0">
			<acc value="0.0407126932213033" flag="0"/>
			<vel value="0.0157214210090063" flag="0"/>
			<psa03 value="0.146307015641749" flag="0"/>
			<psa10 value="0.0115045635877562" flag="0"/>
			<psa30 value="0.00109215726355201" flag="0"/>
		</comp>
	</station>
	<station code="MSL1" name="MSL1" netid="HI" source="ITSAK Strong Motion Network" insttype="" lat="38.3727" lon="21.4243" esm:processing="manual (Paolucci et al 2011)" esm:quality="best">
		<comp name="--.HNE" depth="0.0">
			<acc value="0.00864620609271463" flag="0"/>
			<vel value="0.0104950296490711" flag="0"/>
			<psa03 value="0.0214679026119328" flag="0"/>
			<psa10 value="0.0161950503425878" flag="0"/>
			<psa30 value="0.00140604543527728" flag="0"/>
		</comp>
		<comp name="--.HNN" depth="0.0">
			<acc value="0.00729207772310909" flag="0"/>
			<vel value="0.00750690323281887" flag="0"/>
			<psa03 value="0.0252283222941942" flag="0"/>
			<psa10 value="0.0122969727390892" flag="0"/>
			<psa30 value="0.00134233965258043" flag="0"/>
		</comp>
		<comp name="--.HNZ" depth="0.0">
			<acc value="0.00349149927587211" flag="0"/>
			<vel value="0.00359857005120239" flag="0"/>
			<psa03 value="0.00799218439091904" flag="0"/>
			<psa10 value="0.00842471559604438" flag="0"/>
			<psa30 value="0.000432384711073409" flag="0"/>
		</comp>
	</station>
	<station code="PYL1" name="PYL1" netid="HI" source="ITSAK Strong Motion Network" insttype="" lat="36.914188" lon="21.695161" esm:processing="manual (Paolucci et al 2011)" esm:quality="best">
		<comp name="--.HNE" depth="0.0">
			<acc value="0.013466340082298" flag="0"/>
			<vel value="0.00517836533887075" flag="0"/>
			<psa03 value="0.0512745687845394" flag="0"/>
			<psa10 value="0.00331002844561974" flag="0"/>
			<psa30 value="0.000286797544423122" flag="0"/>
		</comp>
		<comp name="--.HNN" depth="0.0">
			<acc value="0.00815938843935056" flag="0"/>
			<vel value="0.00441256807947755" flag="0"/>
			<psa03 value="0.0217447124164801" flag="0"/>
			<psa10 value="0.00336640362595877" flag="0"/>
			<psa30 value="0.000552118829669473" flag="0"/>
		</comp>
		<comp name="--.HNZ" depth="0.0">
			<acc value="0.00658319446528712" flag="0"/>
			<vel value="0.00236416734980616" flag="0"/>
			<psa03 value="0.0152570924568307" flag="0"/>
			<psa10 value="0.00192078293012241" flag="0"/>
			<psa30 value="0.000216104857966253" flag="0"/>
		</comp>
	</station>
	<station code="ITM" name="ITM" netid="HL" source="National Observatory of Athens Seismic Network" insttype="" lat="37.17872" lon="21.92522" esm:processing="automatic (Paolucci et al 2011)" esm:quality="best">
		<comp name="--.HNE" depth="0.0">
			<acc value="0.00802909521903933" flag="0"/>
			<vel value="0.00386897825099657" flag="0"/>
			<psa03 value="0.0282323323761295" flag="0"/>
			<psa10 value="0.00398653060968801" flag="0"/>
			<psa30 value="0.000376729379725848" flag="0"/>
		</comp>
		<comp name="--.HNN" depth="0.0">
			<acc value="0.0118075870841895" flag="0"/>
			<vel value="0.00380274108273895" flag="0"/>
			<psa03 value="0.0215210013833887" flag="0"/>
			<psa10 value="0.0023274895882825" flag="0"/>
			<psa30 value="0.000807596829459805" flag="0"/>
		</comp>
		<comp name="--.HNZ" depth="0.0">
			<acc value="0.00708356709209781" flag="0"/>
			<vel value="0.00283002807674296" flag="0"/>
			<psa03 value="0.0142280217046104" flag="0"/>
			<psa10 value="0.00211809606130898" flag="0"/>
			<psa30 value="0.000245187292268129" flag="0"/>
		</comp>
	</station>
	<station code="PATC" name="PATC" netid="HL" source="National Observatory of Athens Seismic Network" insttype="" lat="38.26933" lon="21.76001" esm:processing="manual (Paolucci et al 2011)" esm:quality="good">
		<comp name="00.HNE" depth="0.0">
			<acc value="0.00556976345316004" flag="0"/>
			<vel value="0.0060757496198167" flag="0"/>
			<psa03 value="0.0157817173363209" flag="0"/>
			<psa10 value="0.0125822513248998" flag="0"/>
			<psa30 value="0.00215634826415636" flag="0"/>
		</comp>
		<comp name="00.HNN" depth="0.0">
			<acc value="0.00557289835450007" flag="0"/>
			<vel value="0.00634721635571548" flag="0"/>
			<psa03 value="0.015094209552721" flag="0"/>
			<psa10 value="0.0096340113309694" flag="0"/>
			<psa30 value="0.00127148995913631" flag="0"/>
		</comp>
		<comp name="00.HNZ" depth="0.0">
			<acc value="0.00470300888681578" flag="0"/>
			<vel value="0.00298402514194528" flag="0"/>
			<psa03 value="0.00898636548490224" flag="0"/>
			<psa10 value="0.00671008044739827" flag="0"/>
			<psa30 value="0.000679464282007378" flag="0"/>
		</comp>
	</station>
	<station code="ARS1" name="ARS1" netid="HI" source="ITSAK Strong Motion Network" insttype="" lat="37.6349" lon="22.7293" esm:processing="discarded" esm:quality="good">
		<comp name="--.HNE" depth="0.0">
			<acc value="0" flag="1"/>
			<vel value="0" flag="1"/>
			<psa03 value="0" flag="1"/>
			<psa10 value="0" flag="1"/>
			<psa30 value="0" flag="1"/>
		</comp>
		<comp name="--.HNN" depth="0.0">
			<acc value="0" flag="1"/>
			<vel value="0" flag="1"/>
			<psa03 value="0" flag="1"/>
			<psa10 value="0" flag="1"/>
			<psa30 value="0" flag="1"/>
		</comp>
		<comp name="--.HNZ" depth="0.0">
			<acc value="0" flag="1"/>
			<vel value="0" flag="1"/>
			<psa03 value="0" flag="1"/>
			<psa10 value="0" flag="1"/>
			<psa30 value="0" flag="1"/>
		</comp>
	</station>
	<station code="ART2" name="ART2" netid="HI" source="ITSAK Strong Motion Network" insttype="" lat="39.1474" lon="20.9937" esm:processing="discarded" esm:quality="bad">
		<comp name="--.HNE" depth="0.0">
			<acc value="0" flag="1"/>
			<vel value="0" flag="1"/>
			<psa03 value="0" flag="1"/>
			<psa10 value="0" flag="1"/>
			<psa30 value="0" flag="1"/>
		</comp>
		<comp name="--.HNN" depth="0.0">
			<acc value="0" flag="1"/>
			<vel value="0" flag="1"/>
			<psa03 value="0" flag="1"/>
			<psa10 value="0" flag="1"/>
			<psa30 value="0" flag="1"/>
		</comp>
		<comp name="--.HNZ" depth="0.0">
			<acc value="0" flag="1"/>
			<vel value="0" flag="1"/>
			<psa03 value="0" flag="1"/>
			<psa10 value="0" flag="1"/>
			<psa30 value="0" flag="1"/>
		</comp>
	</station>
	<station code="KLV1" name="KLV1" netid="HI" source="ITSAK Strong Motion Network" insttype="" lat="38.03256" lon="22.10797" esm:processing="discarded" esm:quality="bad">
		<comp name="--.HNE" depth="0.0">
			<acc value="0" flag="1"/>
			<vel value="0" flag="1"/>
			<psa03 value="0" flag="1"/>
			<psa10 value="0" flag="1"/>
			<psa30 value="0" flag="1"/>
		</comp>
		<comp name="--.HNN" depth="0.0">
			<acc value="0" flag="1"/>
			<vel value="0" flag="1"/>
			<psa03 value="0" flag="1"/>
			<psa10 value="0" flag="1"/>
			<psa30 value="0" flag="1"/>
		</comp>
		<comp name="--.HNZ" depth="0.0">
			<acc value="0" flag="1"/>
			<vel value="0" flag="1"/>
			<psa03 value="0" flag="1"/>
			<psa10 value="0" flag="1"/>
			<psa30 value="0" flag="1"/>
		</comp>
	</station>
	<station code="DLFA" name="DLFA" netid="HL" source="National Observatory of Athens Seismic Network" insttype="" lat="38.47836" lon="22.49583" esm:processing="automatic (Paolucci et al 2011)" esm:quality="bad">
		<comp name="00.HNE" depth="0.0">
			<acc value="0" flag="1"/>
			<vel value="0" flag="1"/>
			<psa03 value="0" flag="1"/>
			<psa10 value="0" flag="1"/>
			<psa30 value="0" flag="1"/>
		</comp>
		<comp name="00.HNN" depth="0.0">
			<acc value="0" flag="1"/>
			<vel value="0" flag="1"/>
			<psa03 value="0" flag="1"/>
			<psa10 value="0" flag="1"/>
			<psa30 value="0" flag="1"/>
		</comp>
		<comp name="00.HNZ" depth="0.0">
			<acc value="0" flag="1"/>
			<vel value="0" flag="1"/>
			<psa03 value="0" flag="1"/>
			<psa10 value="0" flag="1"/>
			<psa30 value="0" flag="1"/>
		</comp>
	</station>
	<station code="LXRA" name="LXRA" netid="HL" source="National Observatory of Athens Seismic Network" insttype="" lat="38.20006" lon="20.43718" esm:processing="automatic (Paolucci et al 2011)" esm:quality="bad">
		<comp name="00.HNE" depth="0.0">
			<acc value="0" flag="1"/>
			<vel value="0" flag="1"/>
			<psa03 value="0" flag="1"/>
			<psa10 value="0" flag="1"/>
			<psa30 value="0" flag="1"/>
		</comp>
		<comp name="00.HNN" depth="0.0">
			<acc value="0" flag="1"/>
			<vel value="0" flag="1"/>
			<psa03 value="0" flag="1"/>
			<psa10 value="0" flag="1"/>
			<psa30 value="0" flag="1"/>
		</comp>
		<comp name="00.HNZ" depth="0.0">
			<acc value="0" flag="1"/>
			<vel value="0" flag="1"/>
			<psa03 value="0" flag="1"/>
			<psa10 value="0" flag="1"/>
			<psa30 value="0" flag="1"/>
		</comp>
	</station>
	<station code="PATG" name="PATG" netid="HL" source="National Observatory of Athens Seismic Network" insttype="" lat="38.23865" lon="21.72657" esm:processing="automatic (Paolucci et al 2011)" esm:quality="bad">
		<comp name="00.HNE" depth="0.0">
			<acc value="0" flag="1"/>
			<vel value="0" flag="1"/>
			<psa03 value="0" flag="1"/>
			<psa10 value="0" flag="1"/>
			<psa30 value="0" flag="1"/>
		</comp>
		<comp name="00.HNN" depth="0.0">
			<acc value="0" flag="1"/>
			<vel value="0" flag="1"/>
			<psa03 value="0" flag="1"/>
			<psa10 value="0" flag="1"/>
			<psa30 value="0" flag="1"/>
		</comp>
		<comp name="00.HNZ" depth="0.0">
			<acc value="0" flag="1"/>
			<vel value="0" flag="1"/>
			<psa03 value="0" flag="1"/>
			<psa10 value="0" flag="1"/>
			<psa30 value="0" flag="1"/>
		</comp>
	</station>
	<station code="RIOA" name="RIOA" netid="HL" source="National Observatory of Athens Seismic Network" insttype="" lat="38.29585" lon="21.79118" esm:processing="automatic (Paolucci et al 2011)" esm:quality="bad">
		<comp name="00.HNE" depth="0.0">
			<acc value="0" flag="1"/>
			<vel value="0" flag="1"/>
			<psa03 value="0" flag="1"/>
			<psa10 value="0" flag="1"/>
			<psa30 value="0" flag="1"/>
		</comp>
		<comp name="00.HNN" depth="0.0">
			<acc value="0" flag="1"/>
			<vel value="0" flag="1"/>
			<psa03 value="0" flag="1"/>
			<psa10 value="0" flag="1"/>
			<psa30 value="0" flag="1"/>
		</comp>
		<comp name="00.HNZ" depth="0.0">
			<acc value="0" flag="1"/>
			<vel value="0" flag="1"/>
			<psa03 value="0" flag="1"/>
			<psa10 value="0" flag="1"/>
			<psa30 value="0" flag="1"/>
		</comp>
	</station>
</stationlist>
