<?xml version="1.0" encoding="UTF-8" standalone="yes"?>
<!DOCTYPE earthquake SYSTEM "stationlist.dtd">
<stationlist created="" xmlns="ch.ethz.sed.shakemap.usgs.xml">
  <station code="EREN" name="EREN" netid="KO" insttype="120s," lat="35.5292" lon="34.1742">
    <comp name="--.HHN">
      <acc value="0.0153708675" flag="0"/>
      <vel value="0.0100645804" flag="0"/>
      <psa03 value="0.0537999723" flag="0"/>
      <psa10 value="0.0133804289" flag="0"/>
      <psa30 value="0.0008898089" flag="0"/>
    </comp>
    <comp name="--.HHZ">
      <acc value="0.0178090723" flag="0"/>
      <vel value="0.0108620571" flag="0"/>
      <psa03 value="0.0507994183" flag="0"/>
      <psa10 value="0.0088057831" flag="0"/>
      <psa30 value="0.0009412406" flag="0"/>
    </comp>
    <comp name="--.HHE">
      <acc value="0.0153611394" flag="0"/>
      <vel value="0.0106735373" flag="0"/>
      <psa03 value="0.0546113170" flag="0"/>
      <psa10 value="0.0111146828" flag="0"/>
      <psa30 value="0.0011739407" flag="0"/>
    </comp>
  </station>
</stationlist>
