<stationlist created="1778069317">
	<station code="KRTS" name="KRTS" netid="KO" source="Bogazici University Kandilli Observatory And Earthquake Research Institute (KOERI)" insttype="" lat="36.573" lon="35.375">
		<comp name="--.HNE" depth="0.0">
			<acc value="0.358312678440342" flag="0"/>
			<vel value="0.203611581635172" flag="0"/>
			<psa03 value="1.42946875924716" flag="0"/>
			<psa10 value="0.107575924482642" flag="0"/>
			<psa30 value="0.0121864348166187" flag="0"/>
		</comp>
		<comp name="--.HNN" depth="0.0">
			<acc value="0.287200073096052" flag="0"/>
			<vel value="0.219210670777792" flag="0"/>
			<psa03 value="0.629120167259519" flag="0"/>
			<psa10 value="0.300314612464568" flag="0"/>
			<psa30 value="0.0247880773106549" flag="0"/>
		</comp>
		<comp name="--.HNZ" depth="0.0">
			<acc value="0.154615458785645" flag="0"/>
			<vel value="0.061191440875551" flag="0"/>
			<psa03 value="0.349257664862229" flag="0"/>
			<psa10 value="0.0677226987815485" flag="0"/>
			<psa30 value="0.00906924528152368" flag="0"/>
		</comp>
	</station>
</stationlist>
