<stationlist created="1778069299">
	<station code="GUMT" name="GUMT" netid="KO" source="Bogazici University Kandilli Observatory And Earthquake Research Institute (KOERI)" insttype="" lat="40.4665" lon="39.478">
		<comp name="--.HNE" depth="0.0">
			<acc value="0.214069414969362" flag="0"/>
			<vel value="0.0387736278211229" flag="0"/>
			<psa03 value="0.187559330143795" flag="0"/>
			<psa10 value="0.0209393526973512" flag="0"/>
			<psa30 value="0.00123622716886285" flag="0"/>
		</comp>
		<comp name="--.HNN" depth="0.0">
			<acc value="0.243903605275447" flag="0"/>
			<vel value="0.0382638992792935" flag="0"/>
			<psa03 value="0.127425804448838" flag="0"/>
			<psa10 value="0.031360707462879" flag="0"/>
			<psa30 value="0.00145188460476292" flag="0"/>
		</comp>
		<comp name="--.HNZ" depth="0.0">
			<acc value="0.169932532695629" flag="0"/>
			<vel value="0.0334711750178506" flag="0"/>
			<psa03 value="0.10563634982574" flag="0"/>
			<psa10 value="0.031360707462879" flag="0"/>
			<psa30 value="0.00146038562402039" flag="0"/>
		</comp>
	</station>
	<station code="KIZO" name="KIZO" netid="KO" source="Bogazici University Kandilli Observatory And Earthquake Research Institute (KOERI)" insttype="" lat="40.9005" lon="35.9334">
		<comp name="--.HNE" depth="0.0">
			<acc value="0.0397069410311217" flag="0"/>
			<vel value="0.0152815054928503" flag="0"/>
			<psa03 value="0.0515430220242491" flag="0"/>
			<psa10 value="0.0179273073478091" flag="0"/>
			<psa30 value="0.000958378065763381" flag="0"/>
		</comp>
		<comp name="--.HNN" depth="0.0">
			<acc value="0.0517323331869013" flag="0"/>
			<vel value="0.0155050635494415" flag="0"/>
			<psa03 value="0.0368675782534559" flag="0"/>
			<psa10 value="0.0149555299842235" flag="0"/>
			<psa30 value="0.00121654059795081" flag="0"/>
		</comp>
		<comp name="--.HNZ" depth="0.0">
			<acc value="0.0147667053554658" flag="0"/>
			<vel value="0.00511313797885658" flag="0"/>
			<psa03 value="0.0222368766892811" flag="0"/>
			<psa10 value="0.00489658709230366" flag="0"/>
			<psa30 value="0.000414760255351379" flag="0"/>
		</comp>
	</station>
	<station code="YARM" name="YARM" netid="KO" source="Bogazici University Kandilli Observatory And Earthquake Research Institute (KOERI)" insttype="" lat="40.9231" lon="35.8266">
		<comp name="--.HNE" depth="0.0">
			<acc value="0.0513166959652026" flag="0"/>
			<vel value="0.019712038118721" flag="0"/>
			<psa03 value="0.0861734899467914" flag="0"/>
			<psa10 value="0.0177783157997703" flag="0"/>
			<psa30 value="0.00106754904991196" flag="0"/>
		</comp>
		<comp name="--.HNN" depth="0.0">
			<acc value="0.0353491262752055" flag="0"/>
			<vel value="0.0165448513538339" flag="0"/>
			<psa03 value="0.09449554037779" flag="0"/>
			<psa10 value="0.0105502123205885" flag="0"/>
			<psa30 value="0.00149975876584447" flag="0"/>
		</comp>
		<comp name="--.HNZ" depth="0.0">
			<acc value="0.028691146076169" flag="0"/>
			<vel value="0.0077158133441006" flag="0"/>
			<psa03 value="0.0392836574108426" flag="0"/>
			<psa10 value="0.00526705256310295" flag="0"/>
			<psa30 value="0.000289034654754035" flag="0"/>
		</comp>
	</station>
</stationlist>
