<?xml version="1.0" encoding="UTF-8" standalone="yes"?>
<!DOCTYPE earthquake SYSTEM "stationlist.dtd">
<stationlist created="" xmlns="ch.ethz.sed.shakemap.usgs.xml">
  <station code="TOKT" name="TOKT" netid="KO" insttype="120s," lat="40.3173" lon="36.5445">
    <comp name="--.HHZ">
      <acc value="0.0115282478" flag="0"/>
      <vel value="0.0089757107" flag="0"/>
      <psa03 value="0.0166608713" flag="0"/>
      <psa10 value="0.0062625628" flag="0"/>
      <psa30 value="0.0005331785" flag="0"/>
    </comp>
    <comp name="--.HHE">
      <acc value="0.0085935208" flag="0"/>
      <vel value="0.0032500308" flag="0"/>
      <psa03 value="0.0158477657" flag="0"/>
      <psa10 value="0.0035585201" flag="0"/>
      <psa30 value="0.0002946870" flag="0"/>
    </comp>
    <comp name="--.HHN">
      <acc value="0.0112659095" flag="0"/>
      <vel value="0.0047690361" flag="0"/>
      <psa03 value="0.0173050944" flag="0"/>
      <psa10 value="0.0056472958" flag="0"/>
      <psa30 value="0.0003489117" flag="0"/>
    </comp>
  </station>
</stationlist>
