<stationlist created="1642764510">
	<station code="KRL1" name="KRL1" netid="HI" source="ITSAK Strong Motion Network" insttype="" lat="37.7951" lon="26.7065">
		<comp name=".HNE" depth="0.0">
			<acc value="0.57371073" flag="0"/>
			<vel value="0.106676" flag="0"/>
			<psa03 value="0.224829588257" flag="0"/>
			<psa10 value="0.0358143467097" flag="0"/>
			<psa30 value="0.00335074385364" flag="0"/>
		</comp>
		<comp name=".HNN" depth="0.0">
			<acc value="0.353409192" flag="0"/>
			<vel value="0.112594" flag="0"/>
			<psa03 value="0.382859062033" flag="0"/>
			<psa10 value="0.0309781615963" flag="0"/>
			<psa30 value="0.00305678755616" flag="0"/>
		</comp>
		<comp name=".HNZ" depth="0.0">
			<acc value="0.1998333" flag="0"/>
			<vel value="0.039251" flag="0"/>
			<psa03 value="0.122772614961" flag="0"/>
			<psa10 value="0.0173434215514" flag="0"/>
			<psa30 value="0.00156955660817" flag="0"/>
		</comp>
	</station>
	<station code="MYT1" name="MYT1" netid="HI" source="ITSAK Strong Motion Network" insttype="" lat="39.085" lon="26.5694">
		<comp name=".HNE" depth="0.0">
			<acc value="0.006293298" flag="0"/>
			<vel value="0.003764" flag="0"/>
			<psa03 value="0.0203577040113" flag="0"/>
			<psa10 value="0.00353955596557" flag="0"/>
			<psa30 value="0.000506481778919" flag="0"/>
		</comp>
		<comp name=".HNN" depth="0.0">
			<acc value="0.005242392" flag="0"/>
			<vel value="0.003292" flag="0"/>
			<psa03 value="0.0201787351848" flag="0"/>
			<psa10 value="0.00365633312485" flag="0"/>
			<psa30 value="0.000363754139807" flag="0"/>
		</comp>
		<comp name=".HNZ" depth="0.0">
			<acc value="0.004594284" flag="0"/>
			<vel value="0.002927" flag="0"/>
			<psa03 value="0.0151676080436" flag="0"/>
			<psa10 value="0.00429256730296" flag="0"/>
			<psa30 value="0.000247424402599" flag="0"/>
		</comp>
	</station>
	<station code="NAX1" name="NAX1" netid="HI" source="ITSAK Strong Motion Network" insttype="" lat="37.101394" lon="25.374103">
		<comp name=".HNE" depth="0.0">
			<acc value="0.003596214" flag="0"/>
			<vel value="0.001089" flag="0"/>
			<psa03 value="0.0046531894883" flag="0"/>
			<psa10 value="0.000837574107894" flag="0"/>
			<psa30 value="6.97978423245e-05" flag="0"/>
		</comp>
		<comp name=".HNN" depth="0.0">
			<acc value="0.00340527" flag="0"/>
			<vel value="0.001074" flag="0"/>
			<psa03 value="0.00384782976917" flag="0"/>
			<psa10 value="0.000575832199177" flag="0"/>
			<psa30 value="0.000100222542825" flag="0"/>
		</comp>
		<comp name=".HNZ" depth="0.0">
			<acc value="0.001946364" flag="0"/>
			<vel value="0.000646" flag="0"/>
			<psa03 value="0.00272927460371" flag="0"/>
			<psa10 value="0.000712743351429" flag="0"/>
			<psa30 value="6.39813554641e-05" flag="0"/>
		</comp>
	</station>
	<station code="RDI1" name="RDI1" netid="HI" source="ITSAK Strong Motion Network" insttype="" lat="36.4514" lon="28.224">
		<comp name=".HNE" depth="0.0">
			<acc value="0.001810194" flag="0"/>
			<vel value="0.002163" flag="0"/>
			<psa03 value="0.00348989211623" flag="0"/>
			<psa10 value="0.00227111440794" flag="0"/>
			<psa30 value="0.000467108637095" flag="0"/>
		</comp>
		<comp name=".HNN" depth="0.0">
			<acc value="0.00191913" flag="0"/>
			<vel value="0.001835" flag="0"/>
			<psa03 value="0.00380308756255" flag="0"/>
			<psa10 value="0.00187246134697" flag="0"/>
			<psa30 value="0.00062594347059" flag="0"/>
		</comp>
		<comp name=".HNZ" depth="0.0">
			<acc value="0.002625684" flag="0"/>
			<vel value="0.001045" flag="0"/>
			<psa03 value="0.00380308756255" flag="0"/>
			<psa10 value="0.00153421026494" flag="0"/>
			<psa30 value="0.000216999702099" flag="0"/>
		</comp>
	</station>
	<station code="ASTA" name="ASTA" netid="HL" source="National Observatory of Athens Seismic Network" insttype="" lat="36.54543" lon="26.3528">
		<comp name="00.HNE" depth="0.0">
			<acc value="0.002378028" flag="0"/>
			<vel value="0.001215" flag="0"/>
			<psa03 value="0.00577174465376" flag="0"/>
			<psa10 value="0.00158655864668" flag="0"/>
			<psa30 value="0.000155255456965" flag="0"/>
		</comp>
		<comp name="00.HNN" depth="0.0">
			<acc value="0.003485544" flag="0"/>
			<vel value="0.00233" flag="0"/>
			<psa03 value="0.00689029981921" flag="0"/>
			<psa10 value="0.00153018346634" flag="0"/>
			<psa30 value="0.000208946104907" flag="0"/>
		</comp>
		<comp name="00.HNZ" depth="0.0">
			<acc value="0.002530008" flag="0"/>
			<vel value="0.001064" flag="0"/>
			<psa03 value="0.00429525183535" flag="0"/>
			<psa10 value="0.00131273634218" flag="0"/>
			<psa30 value="0.000171810073414" flag="0"/>
		</comp>
	</station>
	<station code="PRK" name="PRK" netid="HL" source="National Observatory of Athens Seismic Network" insttype="" lat="39.24565" lon="26.26499">
		<comp name=".HNE" depth="0.0">
			<acc value="0.004998408" flag="0"/>
			<vel value="0.003231" flag="0"/>
			<psa03 value="0.0263979019048" flag="0"/>
			<psa10 value="0.00507376623051" flag="0"/>
			<psa30 value="0.00020984094904" flag="0"/>
		</comp>
		<comp name=".HNN" depth="0.0">
			<acc value="0.00548199" flag="0"/>
			<vel value="0.004234" flag="0"/>
			<psa03 value="0.0187469845731" flag="0"/>
			<psa10 value="0.00438115687206" flag="0"/>
			<psa30 value="0.000300220206409" flag="0"/>
		</comp>
		<comp name=".HNZ" depth="0.0">
			<acc value="0.004227696" flag="0"/>
			<vel value="0.002656" flag="0"/>
			<psa03 value="0.0176284294076" flag="0"/>
			<psa10 value="0.00170333580596" flag="0"/>
			<psa30 value="0.000133331775722" flag="0"/>
		</comp>
	</station>
	<station code="RODB" name="RODB" netid="HL" source="National Observatory of Athens Seismic Network" insttype="" lat="36.4471" lon="28.22116">
		<comp name="00.HNE" depth="0.0">
			<acc value="0.003066324" flag="0"/>
			<vel value="0.001711" flag="0"/>
			<psa03 value="0.00331092328975" flag="0"/>
			<psa10 value="0.00161071943826" flag="0"/>
			<psa30 value="0.000497980759661" flag="0"/>
		</comp>
		<comp name="00.HNN" depth="0.0">
			<acc value="0.002237268" flag="0"/>
			<vel value="0.001338" flag="0"/>
			<psa03 value="0.00505586934786" flag="0"/>
			<psa10 value="0.00171944300034" flag="0"/>
			<psa30 value="0.000474267390154" flag="0"/>
		</comp>
		<comp name="00.HNZ" depth="0.0">
			<acc value="0.005451492" flag="0"/>
			<vel value="0.00094" flag="0"/>
			<psa03 value="0.002460821364" flag="0"/>
			<psa10 value="0.00105502123206" flag="0"/>
			<psa30 value="0.000243397604003" flag="0"/>
		</comp>
	</station>
	<station code="THRA" name="THRA" netid="HL" source="National Observatory of Athens Seismic Network" insttype="" lat="36.41502" lon="25.43244">
		<comp name="00.HNE" depth="0.0">
			<acc value="0.010353102" flag="0"/>
			<vel value="0.003532" flag="0"/>
			<psa03 value="0.0236238850944" flag="0"/>
			<psa10 value="0.00401874499845" flag="0"/>
			<psa30 value="0.000517667330573" flag="0"/>
		</comp>
		<comp name="00.HNN" depth="0.0">
			<acc value="0.008304126" flag="0"/>
			<vel value="0.003194" flag="0"/>
			<psa03 value="0.0126173022664" flag="0"/>
			<psa10 value="0.00561335724233" flag="0"/>
			<psa30 value="0.000527958038096" flag="0"/>
		</comp>
		<comp name="00.HNZ" depth="0.0">
			<acc value="0.011124324" flag="0"/>
			<vel value="0.002295" flag="0"/>
			<psa03 value="0.0127067866796" flag="0"/>
			<psa10 value="0.0018483005554" flag="0"/>
			<psa30 value="0.000137805996384" flag="0"/>
		</comp>
	</station>
	<station code="TNSA" name="TNSA" netid="HL" source="National Observatory of Athens Seismic Network" insttype="" lat="37.53942" lon="25.1631">
		<comp name="00.HNE" depth="0.0">
			<acc value="0.002734314" flag="0"/>
			<vel value="0.000913" flag="0"/>
			<psa03 value="0.00362411873608" flag="0"/>
			<psa10 value="0.000805359719129" flag="0"/>
			<psa30 value="9.61957442293e-05" flag="0"/>
		</comp>
		<comp name="00.HNN" depth="0.0">
			<acc value="0.002337432" flag="0"/>
			<vel value="0.000703" flag="0"/>
			<psa03 value="0.00429525183535" flag="0"/>
			<psa10 value="0.000451001442712" flag="0"/>
			<psa30 value="5.54803362067e-05" flag="0"/>
		</comp>
		<comp name="00.HNZ" depth="0.0">
			<acc value="0.002301222" flag="0"/>
			<vel value="0.000664" flag="0"/>
			<psa03 value="0.00371360314932" flag="0"/>
			<psa10 value="0.000358385075012" flag="0"/>
			<psa30 value="0.000116777159274" flag="0"/>
		</comp>
	</station>
	<station code="AKS" name="AKS" netid="KO" source="Bogazici University Kandilli Observatory And Earthquake Research Institute (KOERI)" insttype="" lat="38.8785" lon="27.8129">
		<comp name=".HNE" depth="0.0">
			<acc value="0.006745668" flag="0"/>
			<vel value="0.003839" flag="0"/>
			<psa03 value="0.0316774822857" flag="0"/>
			<psa10 value="0.00293956297482" flag="0"/>
			<psa30 value="0.000388362353447" flag="0"/>
		</comp>
		<comp name=".HNN" depth="0.0">
			<acc value="0.00846753" flag="0"/>
			<vel value="0.005232" flag="0"/>
			<psa03 value="0.0247871824665" flag="0"/>
			<psa10 value="0.00288721459308" flag="0"/>
			<psa30 value="0.00034227788063" flag="0"/>
		</comp>
		<comp name=".HNZ" depth="0.0">
			<acc value="0.00260457" flag="0"/>
			<vel value="0.001423" flag="0"/>
			<psa03 value="0.0061296823067" flag="0"/>
			<psa10 value="0.00105099443346" flag="0"/>
			<psa30 value="0.000312748024262" flag="0"/>
		</comp>
	</station>
	<station code="DATC" name="DATC" netid="KO" source="Bogazici University Kandilli Observatory And Earthquake Research Institute (KOERI)" insttype="" lat="36.7584" lon="27.6602">
		<comp name=".HNE" depth="0.0">
			<acc value="0.048564954" flag="0"/>
			<vel value="0.017925" flag="0"/>
			<psa03 value="0.0623706360259" flag="0"/>
			<psa10 value="0.0283768497035" flag="0"/>
			<psa30 value="0.00221250211727" flag="0"/>
		</comp>
		<comp name=".HNN" depth="0.0">
			<acc value="0.073355136" flag="0"/>
			<vel value="0.026415" flag="0"/>
			<psa03 value="0.140222075542" flag="0"/>
			<psa10 value="0.0302452842519" flag="0"/>
			<psa30 value="0.0035789291074" flag="0"/>
		</comp>
		<comp name=".HNZ" depth="0.0">
			<acc value="0.053470644" flag="0"/>
			<vel value="0.010939" flag="0"/>
			<psa03 value="0.0361964451542" flag="0"/>
			<psa10 value="0.0115206707821" flag="0"/>
			<psa30 value="0.00153644737527" flag="0"/>
		</comp>
	</station>
	<station code="EZNE" name="EZNE" netid="KO" source="Bogazici University Kandilli Observatory And Earthquake Research Institute (KOERI)" insttype="" lat="39.756" lon="26.3655">
		<comp name=".HNE" depth="0.0">
			<acc value="0.009252624" flag="0"/>
			<vel value="0.004691" flag="0"/>
			<psa03 value="0.0251898623261" flag="0"/>
			<psa10 value="0.00370465470799" flag="0"/>
			<psa30 value="0.00108544593256" flag="0"/>
		</comp>
		<comp name=".HNN" depth="0.0">
			<acc value="0.0091851" flag="0"/>
			<vel value="0.005174" flag="0"/>
			<psa03 value="0.032930264071" flag="0"/>
			<psa10 value="0.00363619913187" flag="0"/>
			<psa30 value="0.00170691518249" flag="0"/>
		</comp>
		<comp name=".HNZ" depth="0.0">
			<acc value="0.009753648" flag="0"/>
			<vel value="0.002981" flag="0"/>
			<psa03 value="0.0134674041921" flag="0"/>
			<psa10 value="0.00235567717845" flag="0"/>
			<psa30 value="0.00130691985532" flag="0"/>
		</comp>
	</station>
	<station code="FOCM" name="FOCM" netid="KO" source="Bogazici University Kandilli Observatory And Earthquake Research Institute (KOERI)" insttype="" lat="38.7131" lon="26.7309">
		<comp name=".HNE" depth="0.0">
			<acc value="0.016164552" flag="0"/>
			<vel value="0.006331" flag="0"/>
			<psa03 value="0.048411067561" flag="0"/>
			<psa10 value="0.00343888600068" flag="0"/>
			<psa30 value="0.000321249043519" flag="0"/>
		</comp>
		<comp name=".HNN" depth="0.0">
			<acc value="0.015781236" flag="0"/>
			<vel value="0.006884" flag="0"/>
			<psa03 value="0.0280981057563" flag="0"/>
			<psa10 value="0.00661603009264" flag="0"/>
			<psa30 value="0.000464871526764" flag="0"/>
		</comp>
		<comp name=".HNZ" depth="0.0">
			<acc value="0.011977554" flag="0"/>
			<vel value="0.005038" flag="0"/>
			<psa03 value="0.0471582857757" flag="0"/>
			<psa10 value="0.00229124840092" flag="0"/>
			<psa30 value="0.000283218167894" flag="0"/>
		</comp>
	</station>
	<station code="GMLD" name="GMLD" netid="KO" source="Bogazici University Kandilli Observatory And Earthquake Research Institute (KOERI)" insttype="" lat="38.0766" lon="26.9157">
		<comp name=".HNE" depth="0.0">
			<acc value="0.803978178" flag="0"/>
			<vel value="0.249936" flag="0"/>
			<psa03 value="1.36571111482" flag="0"/>
			<psa10 value="0.0882472912235" flag="0"/>
			<psa30 value="0.00656054975644" flag="0"/>
		</comp>
		<comp name=".HNN" depth="0.0">
			<acc value="0.690313866" flag="0"/>
			<vel value="0.238031" flag="0"/>
			<psa03 value="1.11103847474" flag="0"/>
			<psa10 value="0.0981894569562" flag="0"/>
			<psa30 value="0.00722139214819" flag="0"/>
		</comp>
		<comp name=".HNZ" depth="0.0">
			<acc value="0.55833219" flag="0"/>
			<vel value="0.129732" flag="0"/>
			<psa03 value="0.734980228118" flag="0"/>
			<psa10 value="0.0292667721931" flag="0"/>
			<psa30 value="0.00565228296209" flag="0"/>
		</comp>
	</station>
	<station code="GORD" name="GORD" netid="KO" source="Bogazici University Kandilli Observatory And Earthquake Research Institute (KOERI)" insttype="" lat="38.9088" lon="28.1769">
		<comp name=".HNE" depth="0.0">
			<acc value="0.015218196" flag="0"/>
			<vel value="0.009806" flag="0"/>
			<psa03 value="0.0607599165876" flag="0"/>
			<psa10 value="0.0126522011875" flag="0"/>
			<psa30 value="0.00100580480478" flag="0"/>
		</comp>
		<comp name=".HNN" depth="0.0">
			<acc value="0.013015404" flag="0"/>
			<vel value="0.00886" flag="0"/>
			<psa03 value="0.0523483817434" flag="0"/>
			<psa10 value="0.00846030384945" flag="0"/>
			<psa30 value="0.000801780342599" flag="0"/>
		</comp>
		<comp name=".HNZ" depth="0.0">
			<acc value="0.012651672" flag="0"/>
			<vel value="0.008818" flag="0"/>
			<psa03 value="0.0437131358661" flag="0"/>
			<psa10 value="0.00987371015652" flag="0"/>
			<psa30 value="0.000521246707103" flag="0"/>
		</comp>
	</station>
	<station code="KRBN" name="KRBN" netid="KO" source="Bogazici University Kandilli Observatory And Earthquake Research Institute (KOERI)" insttype="" lat="38.5936" lon="26.5537">
		<comp name=".HNE" depth="0.0">
			<acc value="0.119890086" flag="0"/>
			<vel value="0.058695" flag="0"/>
			<psa03 value="0.196776224707" flag="0"/>
			<psa10 value="0.0263111020239" flag="0"/>
			<psa30 value="0.00314314001493" flag="0"/>
		</comp>
		<comp name=".HNN" depth="0.0">
			<acc value="0.130135068" flag="0"/>
			<vel value="0.062727" flag="0"/>
			<psa03 value="0.443037329934" flag="0"/>
			<psa10 value="0.0492235860332" flag="0"/>
			<psa30 value="0.00377892677098" flag="0"/>
		</comp>
		<comp name=".HNZ" depth="0.0">
			<acc value="0.081951594" flag="0"/>
			<vel value="0.037654" flag="0"/>
			<psa03 value="0.173733988299" flag="0"/>
			<psa10 value="0.0252882951806" flag="0"/>
			<psa30 value="0.00218789390363" flag="0"/>
		</comp>
	</station>
	<station code="NAZL" name="NAZL" netid="KO" source="Bogazici University Kandilli Observatory And Earthquake Research Institute (KOERI)" insttype="" lat="37.9641" lon="28.2922">
		<comp name=".HNE" depth="0.0">
			<acc value="0.039149538" flag="0"/>
			<vel value="0.019118" flag="0"/>
			<psa03 value="0.13283961145" flag="0"/>
			<psa10 value="0.0141340630707" flag="0"/>
			<psa30 value="0.000820572069379" flag="0"/>
		</comp>
		<comp name=".HNN" depth="0.0">
			<acc value="0.050691042" flag="0"/>
			<vel value="0.019518" flag="0"/>
			<psa03 value="0.154315870626" flag="0"/>
			<psa10 value="0.011452215206" flag="0"/>
			<psa30 value="0.000670685677208" flag="0"/>
		</comp>
		<comp name=".HNZ" depth="0.0">
			<acc value="0.018095922" flag="0"/>
			<vel value="0.007045" flag="0"/>
			<psa03 value="0.0352568588152" flag="0"/>
			<psa10 value="0.00465095237797" flag="0"/>
			<psa30 value="0.000708716552833" flag="0"/>
		</comp>
	</station>
	<station code="SOMA" name="SOMA" netid="KO" source="Bogazici University Kandilli Observatory And Earthquake Research Institute (KOERI)" insttype="" lat="39.1564" lon="27.5341">
		<comp name=".HNE" depth="0.0">
			<acc value="0.048230394" flag="0"/>
			<vel value="0.018821" flag="0"/>
			<psa03 value="0.148454641559" flag="0"/>
			<psa10 value="0.007578434957" flag="0"/>
			<psa30 value="0.000946297669976" flag="0"/>
		</comp>
		<comp name=".HNN" depth="0.0">
			<acc value="0.05932575" flag="0"/>
			<vel value="0.022949" flag="0"/>
			<psa03 value="0.172302237687" flag="0"/>
			<psa10 value="0.00742944340896" flag="0"/>
			<psa30 value="0.00134002908822" flag="0"/>
		</comp>
		<comp name=".HNZ" depth="0.0">
			<acc value="0.045205992" flag="0"/>
			<vel value="0.01657" flag="0"/>
			<psa03 value="0.158655864668" flag="0"/>
			<psa10 value="0.00539188331957" flag="0"/>
			<psa30 value="0.00118029941059" flag="0"/>
		</comp>
	</station>
	<station code="YKAV" name="YKAV" netid="KO" source="Bogazici University Kandilli Observatory And Earthquake Research Institute (KOERI)" insttype="" lat="37.1246" lon="27.2801">
		<comp name=".HNE" depth="0.0">
			<acc value="0.013985832" flag="0"/>
			<vel value="0.008673" flag="0"/>
			<psa03 value="0.0369123204601" flag="0"/>
			<psa10 value="0.00669253926596" flag="0"/>
			<psa30 value="0.000304247005004" flag="0"/>
		</comp>
		<comp name=".HNN" depth="0.0">
			<acc value="0.013300494" flag="0"/>
			<vel value="0.0051" flag="0"/>
			<psa03 value="0.0263979019048" flag="0"/>
			<psa10 value="0.00388988744339" flag="0"/>
			<psa30 value="0.000418339631881" flag="0"/>
		</comp>
		<comp name=".HNZ" depth="0.0">
			<acc value="0.008608494" flag="0"/>
			<vel value="0.003838" flag="0"/>
			<psa03 value="0.0152570924568" flag="0"/>
			<psa10 value="0.00311271531443" flag="0"/>
			<psa30 value="0.000262189330783" flag="0"/>
		</comp>
	</station>
</stationlist>
