<stationlist created="1778135771">
	<station code="KRL1" name="KRL1" netid="HI" source="ITSAK Strong Motion Network" insttype="" lat="37.7951" lon="26.7065">
		<comp name="--.HNE" depth="0.0">
			<acc value="0.57945049598118" flag="0"/>
			<vel value="0.108655061678943" flag="0"/>
			<psa03 value="0.224829588256816" flag="0"/>
			<psa10 value="0.0358143467096618" flag="0"/>
			<psa30 value="0.00335074385364237" flag="0"/>
		</comp>
		<comp name="--.HNN" depth="0.0">
			<acc value="0.35882211013438" flag="0"/>
			<vel value="0.113348015356133" flag="0"/>
			<psa03 value="0.382859062032551" flag="0"/>
			<psa10 value="0.0309781615962928" flag="0"/>
			<psa30 value="0.00305678755616033" flag="0"/>
		</comp>
		<comp name="--.HNZ" depth="0.0">
			<acc value="0.204629030254062" flag="0"/>
			<vel value="0.0398413679988937" flag="0"/>
			<psa03 value="0.122772614960538" flag="0"/>
			<psa10 value="0.0173434215514407" flag="0"/>
			<psa30 value="0.00156955660816897" flag="0"/>
		</comp>
	</station>
	<station code="MYT1" name="MYT1" netid="HI" source="ITSAK Strong Motion Network" insttype="" lat="39.085" lon="26.5694">
		<comp name="--.HNE" depth="0.0">
			<acc value="0.00631558503538774" flag="0"/>
			<vel value="0.00372757402532414" flag="0"/>
			<psa03 value="0.0203451433388108" flag="0"/>
			<psa10 value="0.00349414537623299" flag="0"/>
			<psa30 value="0.000318405858450678" flag="0"/>
		</comp>
		<comp name="--.HNN" depth="0.0">
			<acc value="0.00526972683740444" flag="0"/>
			<vel value="0.00343690705979624" flag="0"/>
			<psa03 value="0.0201517438083029" flag="0"/>
			<psa10 value="0.00362229066210577" flag="0"/>
			<psa30 value="0.000259075495813263" flag="0"/>
		</comp>
		<comp name="--.HNZ" depth="0.0">
			<acc value="0.00457991565837249" flag="0"/>
			<vel value="0.00286274034577644" flag="0"/>
			<psa03 value="0.0151865268662045" flag="0"/>
			<psa10 value="0.00426136698215735" flag="0"/>
			<psa30 value="0.000179731919378603" flag="0"/>
		</comp>
	</station>
	<station code="NAX1" name="NAX1" netid="HI" source="ITSAK Strong Motion Network" insttype="" lat="37.101394" lon="25.374103">
		<comp name="--.HNE" depth="0.0">
			<acc value="0.0033632265162512" flag="0"/>
			<vel value="0.00107058207718125" flag="0"/>
			<psa03 value="0.00465923313049354" flag="0"/>
			<psa10 value="0.000841825649629294" flag="0"/>
			<psa30 value="5.36752874954194e-05" flag="0"/>
		</comp>
		<comp name="--.HNN" depth="0.0">
			<acc value="0.00326434070606783" flag="0"/>
			<vel value="0.00111000819419975" flag="0"/>
			<psa03 value="0.00383725517588728" flag="0"/>
			<psa10 value="0.000580888988855658" flag="0"/>
			<psa30 value="7.46675505254435e-05" flag="0"/>
		</comp>
		<comp name="--.HNZ" depth="0.0">
			<acc value="0.00187102602956433" flag="0"/>
			<vel value="0.000674968894497685" flag="0"/>
			<psa03 value="0.00272323801834267" flag="0"/>
			<psa10 value="0.000713025828213677" flag="0"/>
			<psa30 value="5.12657138101328e-05" flag="0"/>
		</comp>
	</station>
	<station code="AKS" name="AKS" netid="KO" source="Bogazici University Kandilli Observatory And Earthquake Research Institute (KOERI)" insttype="" lat="38.8785" lon="27.8129">
		<comp name="--.HNE" depth="0.0">
			<acc value="0.00590959624641812" flag="0"/>
			<vel value="0.00285857812250837" flag="0"/>
			<psa03 value="0.0316774822857364" flag="0"/>
			<psa10 value="0.00293956297482045" flag="0"/>
			<psa30 value="0.000388362353446599" flag="0"/>
		</comp>
		<comp name="--.HNN" depth="0.0">
			<acc value="0.00728209780351514" flag="0"/>
			<vel value="0.00442875401349272" flag="0"/>
			<psa03 value="0.0247871824665226" flag="0"/>
			<psa10 value="0.00288721459307708" flag="0"/>
			<psa30 value="0.000342277880629779" flag="0"/>
		</comp>
		<comp name="--.HNZ" depth="0.0">
			<acc value="0.00153961346395997" flag="0"/>
			<vel value="0.000807333602798254" flag="0"/>
			<psa03 value="0.00612968230670323" flag="0"/>
			<psa10 value="0.0010509944334632" flag="0"/>
			<psa30 value="0.000312748024261719" flag="0"/>
		</comp>
	</station>
	<station code="DATC" name="DATC" netid="KO" source="Bogazici University Kandilli Observatory And Earthquake Research Institute (KOERI)" insttype="" lat="36.7584" lon="27.6602">
		<comp name="--.HNE" depth="0.0">
			<acc value="0.0574554848804823" flag="0"/>
			<vel value="0.0170033905517574" flag="0"/>
			<psa03 value="0.0623706360258708" flag="0"/>
			<psa10 value="0.0283768497035065" flag="0"/>
			<psa30 value="0.00221250211727354" flag="0"/>
		</comp>
		<comp name="--.HNN" depth="0.0">
			<acc value="0.0767476159555283" flag="0"/>
			<vel value="0.0265332221531672" flag="0"/>
			<psa03 value="0.140222075541664" flag="0"/>
			<psa10 value="0.0302452842518855" flag="0"/>
			<psa30 value="0.00357892910739556" flag="0"/>
		</comp>
		<comp name="--.HNZ" depth="0.0">
			<acc value="0.0613035517460496" flag="0"/>
			<vel value="0.0126002526518991" flag="0"/>
			<psa03 value="0.0361964451541819" flag="0"/>
			<psa10 value="0.0115206707821388" flag="0"/>
			<psa30 value="0.00153644737527145" flag="0"/>
		</comp>
	</station>
	<station code="EZNE" name="EZNE" netid="KO" source="Bogazici University Kandilli Observatory And Earthquake Research Institute (KOERI)" insttype="" lat="39.756" lon="26.3655">
		<comp name="--.HNE" depth="0.0">
			<acc value="0.015884709944456" flag="0"/>
			<vel value="0.00462891373261223" flag="0"/>
			<psa03 value="0.025189862326087" flag="0"/>
			<psa10 value="0.0037046547079929" flag="0"/>
			<psa30 value="0.00108544593255927" flag="0"/>
		</comp>
		<comp name="--.HNN" depth="0.0">
			<acc value="0.0312790332919094" flag="0"/>
			<vel value="0.00498869401488722" flag="0"/>
			<psa03 value="0.032930264071048" flag="0"/>
			<psa10 value="0.00363619913186695" flag="0"/>
			<psa30 value="0.00170691518248707" flag="0"/>
		</comp>
		<comp name="--.HNZ" depth="0.0">
			<acc value="0.0316677212552973" flag="0"/>
			<vel value="0.00314113188566758" flag="0"/>
			<psa03 value="0.0134674041920998" flag="0"/>
			<psa10 value="0.00235567717845201" flag="0"/>
			<psa30 value="0.00130691985531972" flag="0"/>
		</comp>
	</station>
	<station code="FOCM" name="FOCM" netid="KO" source="Bogazici University Kandilli Observatory And Earthquake Research Institute (KOERI)" insttype="" lat="38.7131" lon="26.7309">
		<comp name="--.HNE" depth="0.0">
			<acc value="0.0116086927046309" flag="0"/>
			<vel value="0.00521444086300196" flag="0"/>
			<psa03 value="0.04841106756097" flag="0"/>
			<psa10 value="0.00343888600068037" flag="0"/>
			<psa30 value="0.000321249043519191" flag="0"/>
		</comp>
		<comp name="--.HNN" depth="0.0">
			<acc value="0.00893142511582998" flag="0"/>
			<vel value="0.00513230694954721" flag="0"/>
			<psa03 value="0.0280981057562747" flag="0"/>
			<psa10 value="0.00661603009264384" flag="0"/>
			<psa30 value="0.000464871526763843" flag="0"/>
		</comp>
		<comp name="--.HNZ" depth="0.0">
			<acc value="0.00860086547321429" flag="0"/>
			<vel value="0.00417463437205951" flag="0"/>
			<psa03 value="0.0471582857756584" flag="0"/>
			<psa10 value="0.0022912484009217" flag="0"/>
			<psa30 value="0.00028321816789366" flag="0"/>
		</comp>
	</station>
	<station code="GMLD" name="GMLD" netid="KO" source="Bogazici University Kandilli Observatory And Earthquake Research Institute (KOERI)" insttype="" lat="38.0766" lon="26.9157">
		<comp name="--.HNE" depth="0.0">
			<acc value="0.808894035163032" flag="0"/>
			<vel value="0.251880733771274" flag="0"/>
			<psa03 value="1.36571111481613" flag="0"/>
			<psa10 value="0.0882472912235483" flag="0"/>
			<psa30 value="0.00656054975643719" flag="0"/>
		</comp>
		<comp name="--.HNN" depth="0.0">
			<acc value="0.694590493685601" flag="0"/>
			<vel value="0.239247618883122" flag="0"/>
			<psa03 value="1.11103847474492" flag="0"/>
			<psa10 value="0.0981894569561945" flag="0"/>
			<psa30 value="0.00722139214818906" flag="0"/>
		</comp>
		<comp name="--.HNZ" depth="0.0">
			<acc value="0.564381332204355" flag="0"/>
			<vel value="0.130511873029567" flag="0"/>
			<psa03 value="0.73498022811835" flag="0"/>
			<psa10 value="0.0292667721931439" flag="0"/>
			<psa30 value="0.00565228296208627" flag="0"/>
		</comp>
	</station>
	<station code="GORD" name="GORD" netid="KO" source="Bogazici University Kandilli Observatory And Earthquake Research Institute (KOERI)" insttype="" lat="38.9088" lon="28.1769">
		<comp name="--.HNE" depth="0.0">
			<acc value="0.0123184484632786" flag="0"/>
			<vel value="0.00735245716881202" flag="0"/>
			<psa03 value="0.0607599165876131" flag="0"/>
			<psa10 value="0.0126522011875149" flag="0"/>
			<psa30 value="0.00100580480477875" flag="0"/>
		</comp>
		<comp name="--.HNN" depth="0.0">
			<acc value="0.0121171548247453" flag="0"/>
			<vel value="0.00600456673977056" flag="0"/>
			<psa03 value="0.052348381743378" flag="0"/>
			<psa10 value="0.008460303849449" flag="0"/>
			<psa30 value="0.00080178034259943" flag="0"/>
		</comp>
		<comp name="--.HNZ" depth="0.0">
			<acc value="0.00937393022924689" flag="0"/>
			<vel value="0.00498868393617528" flag="0"/>
			<psa03 value="0.0437131358660515" flag="0"/>
			<psa10 value="0.00987371015652021" flag="0"/>
			<psa30 value="0.000521246707102866" flag="0"/>
		</comp>
	</station>
	<station code="KRBN" name="KRBN" netid="KO" source="Bogazici University Kandilli Observatory And Earthquake Research Institute (KOERI)" insttype="" lat="38.5936" lon="26.5537">
		<comp name="--.HNE" depth="0.0">
			<acc value="0.12051697605012" flag="0"/>
			<vel value="0.0585423000765007" flag="0"/>
			<psa03 value="0.196776224707159" flag="0"/>
			<psa10 value="0.0263111020239409" flag="0"/>
			<psa30 value="0.00314314001493359" flag="0"/>
		</comp>
		<comp name="--.HNN" depth="0.0">
			<acc value="0.130973657021374" flag="0"/>
			<vel value="0.0627844895498256" flag="0"/>
			<psa03 value="0.443037329934127" flag="0"/>
			<psa10 value="0.0492235860331579" flag="0"/>
			<psa30 value="0.00377892677097923" flag="0"/>
		</comp>
		<comp name="--.HNZ" depth="0.0">
			<acc value="0.0825661446565174" flag="0"/>
			<vel value="0.0377812440213058" flag="0"/>
			<psa03 value="0.173733988298749" flag="0"/>
			<psa10 value="0.0252882951806472" flag="0"/>
			<psa30 value="0.00218789390363349" flag="0"/>
		</comp>
	</station>
	<station code="NAZL" name="NAZL" netid="KO" source="Bogazici University Kandilli Observatory And Earthquake Research Institute (KOERI)" insttype="" lat="37.9641" lon="28.2922">
		<comp name="--.HNE" depth="0.0">
			<acc value="0.0370695510919932" flag="0"/>
			<vel value="0.013100502686786" flag="0"/>
			<psa03 value="0.132839611449649" flag="0"/>
			<psa10 value="0.014134063070712" flag="0"/>
			<psa30 value="0.000820572069379104" flag="0"/>
		</comp>
		<comp name="--.HNN" depth="0.0">
			<acc value="0.0415733403108235" flag="0"/>
			<vel value="0.0157825182879797" flag="0"/>
			<psa03 value="0.154315870626419" flag="0"/>
			<psa10 value="0.0114522152060128" flag="0"/>
			<psa30 value="0.000670685677207893" flag="0"/>
		</comp>
		<comp name="--.HNZ" depth="0.0">
			<acc value="0.0156049950287759" flag="0"/>
			<vel value="0.0046286897032108" flag="0"/>
			<psa03 value="0.0352568588151981" flag="0"/>
			<psa10 value="0.00465095237796935" flag="0"/>
			<psa30 value="0.000708716552833424" flag="0"/>
		</comp>
	</station>
	<station code="SOMA" name="SOMA" netid="KO" source="Bogazici University Kandilli Observatory And Earthquake Research Institute (KOERI)" insttype="" lat="39.1564" lon="27.5341">
		<comp name="--.HNE" depth="0.0">
			<acc value="0.00729642693340369" flag="0"/>
			<vel value="0.00147743932962266" flag="0"/>
			<psa03 value="0.148454641559426" flag="0"/>
			<psa10 value="0.00757843495700287" flag="0"/>
			<psa30 value="0.000946297669976447" flag="0"/>
		</comp>
		<comp name="--.HNN" depth="0.0">
			<acc value="0.00762028975201293" flag="0"/>
			<vel value="0.0016985094240998" flag="0"/>
			<psa03 value="0.172302237686965" flag="0"/>
			<psa10 value="0.00742944340896402" flag="0"/>
			<psa30 value="0.00134002908821724" flag="0"/>
		</comp>
		<comp name="--.HNZ" depth="0.0">
			<acc value="0.00650067689125731" flag="0"/>
			<vel value="0.00126535558411585" flag="0"/>
			<psa03 value="0.158655864668392" flag="0"/>
			<psa10 value="0.00539188331956793" flag="0"/>
			<psa30 value="0.00118029941059001" flag="0"/>
		</comp>
	</station>
	<station code="YKAV" name="YKAV" netid="KO" source="Bogazici University Kandilli Observatory And Earthquake Research Institute (KOERI)" insttype="" lat="37.1246" lon="27.2801">
		<comp name="--.HNE" depth="0.0">
			<acc value="0.0101852132609699" flag="0"/>
			<vel value="0.00225017377231655" flag="0"/>
			<psa03 value="0.0369123204600742" flag="0"/>
			<psa10 value="0.00669253926596109" flag="0"/>
			<psa30 value="0.000304247005004248" flag="0"/>
		</comp>
		<comp name="--.HNN" depth="0.0">
			<acc value="0.00563213409421371" flag="0"/>
			<vel value="0.00138940067149261" flag="0"/>
			<psa03 value="0.0263979019047803" flag="0"/>
			<psa10 value="0.00388988744339255" flag="0"/>
			<psa30 value="0.000418339631880841" flag="0"/>
		</comp>
		<comp name="--.HNZ" depth="0.0">
			<acc value="0.00431105567214727" flag="0"/>
			<vel value="0.00102596800000138" flag="0"/>
			<psa03 value="0.0152570924568307" flag="0"/>
			<psa10 value="0.00311271531443317" flag="0"/>
			<psa30 value="0.000262189330783072" flag="0"/>
		</comp>
	</station>
</stationlist>
