<?xml version="1.0" encoding="UTF-8" standalone="yes"?>
<!DOCTYPE earthquake SYSTEM "stationlist.dtd">
<stationlist created="" xmlns="ch.ethz.sed.shakemap.usgs.xml">
  <station code="KRL1" name="KRL1" netid="HI" insttype="CMG-5TD,ACCELEROMETER,GURALP" lat="37.7951" lon="26.7065">
    <comp name="--.HNE">
      <acc value="0.5873466362" flag="0"/>
      <vel value="0.1034848981" flag="0"/>
      <psa03 value="0.2203724744" flag="0"/>
      <psa10 value="0.0357342947" flag="0"/>
      <psa30 value="0.0033551040" flag="0"/>
    </comp>
    <comp name="--.HNN">
      <acc value="0.3571561095" flag="0"/>
      <vel value="0.1120850497" flag="0"/>
      <psa03 value="0.3765487515" flag="0"/>
      <psa10 value="0.0309050287" flag="0"/>
      <psa30 value="0.0029291406" flag="0"/>
    </comp>
    <comp name="--.HNZ">
      <acc value="0.2100251128" flag="0"/>
      <vel value="0.0383063519" flag="0"/>
      <psa03 value="0.1213977815" flag="0"/>
      <psa10 value="0.0172954409" flag="0"/>
      <psa30 value="0.0014463540" flag="0"/>
    </comp>
  </station>
  <station code="GMLD" name="GMLD" netid="KO" insttype="100" lat="38.0764" lon="26.8747">
    <comp name="--.HNZ">
      <acc value="0.0879460586" flag="0"/>
      <vel value="0.0205973570" flag="0"/>
      <psa03 value="0.1164902500" flag="0"/>
      <psa10 value="0.0046055587" flag="0"/>
      <psa30 value="0.0008642608" flag="0"/>
    </comp>
    <comp name="--.HNN">
      <acc value="0.1114383003" flag="0"/>
      <vel value="0.0376771468" flag="0"/>
      <psa03 value="0.1771296802" flag="0"/>
      <psa10 value="0.0155803852" flag="0"/>
      <psa30 value="0.0011166934" flag="0"/>
    </comp>
    <comp name="--.HNE">
      <acc value="0.1292288254" flag="0"/>
      <vel value="0.0395212442" flag="0"/>
      <psa03 value="0.2171069939" flag="0"/>
      <psa10 value="0.0139977076" flag="0"/>
      <psa30 value="0.0010402110" flag="0"/>
    </comp>
  </station>
</stationlist>
