<stationlist created="1631873510">
	<station code="KRL1" name="KRL1" netid="HI" source="ITSAK Strong Motion Network" insttype="" lat="37.7951" lon="26.7065">
		<comp name="--.HNE" depth="0.0">
			<acc value="0.57371073" flag="0"/>
			<vel value="0.106676" flag="0"/>
			<psa03 value="0.224829588257" flag="0"/>
			<psa10 value="0.0358143467097" flag="0"/>
			<psa30 value="0.00335074385364" flag="0"/>
		</comp>
		<comp name="--.HNN" depth="0.0">
			<acc value="-0.353409192" flag="0"/>
			<vel value="-0.112594" flag="0"/>
			<psa03 value="0.382859062033" flag="0"/>
			<psa10 value="0.0309781615963" flag="0"/>
			<psa30 value="0.00305678755616" flag="0"/>
		</comp>
		<comp name="--.HNZ" depth="0.0">
			<acc value="-0.1998333" flag="0"/>
			<vel value="-0.039251" flag="0"/>
			<psa03 value="0.122772614961" flag="0"/>
			<psa10 value="0.0173434215514" flag="0"/>
			<psa30 value="0.00156955660817" flag="0"/>
		</comp>
	</station>
	<station code="GMLD" name="GMLD" netid="KO" source="Bogazici University Kandilli Observatory And Earthquake Research Institute (KOERI)" insttype="" lat="38.0766" lon="26.9157">
		<comp name="--.HNE" depth="0.0">
			<acc value="0.803978178" flag="0"/>
			<vel value="0.249936" flag="0"/>
			<psa03 value="1.36571111482" flag="0"/>
			<psa10 value="0.0882472912235" flag="0"/>
			<psa30 value="0.00656054975644" flag="0"/>
		</comp>
		<comp name="--.HNN" depth="0.0">
			<acc value="-0.690313866" flag="0"/>
			<vel value="0.238031" flag="0"/>
			<psa03 value="1.11103847474" flag="0"/>
			<psa10 value="0.0981894569562" flag="0"/>
			<psa30 value="0.00722139214819" flag="0"/>
		</comp>
		<comp name="--.HNZ" depth="0.0">
			<acc value="-0.55833219" flag="0"/>
			<vel value="0.129732" flag="0"/>
			<psa03 value="0.734980228118" flag="0"/>
			<psa10 value="0.0292667721931" flag="0"/>
			<psa30 value="0.00565228296209" flag="0"/>
		</comp>
	</station>
</stationlist>
