<stationlist created="1768010772">
	<station code="MARCO" name="MARCO" netid="GE" source="GEOFON" insttype="" lat="40.29724" lon="15.80632">
		<comp name="--.HLE" depth="1.0">
			<acc value="0.012563474250156" flag="0"/>
			<vel value="0.00838045299608" flag="0"/>
			<psa03 value="0.0370514128076055" flag="0"/>
			<psa10 value="0.00985353962364671" flag="0"/>
			<psa30 value="0.0014897003520023" flag="0"/>
		</comp>
		<comp name="--.HLN" depth="1.0">
			<acc value="0.012307101468978" flag="0"/>
			<vel value="0.00900264282635" flag="0"/>
			<psa03 value="0.0447580014561244" flag="0"/>
			<psa10 value="0.0138551568986326" flag="0"/>
			<psa30 value="0.00199545343899539" flag="0"/>
		</comp>
		<comp name="--.HLZ" depth="1.0">
			<acc value="0.0034963997801238" flag="0"/>
			<vel value="0.00206016222165" flag="0"/>
			<psa03 value="0.0108189413111259" flag="0"/>
			<psa10 value="0.00287132333607925" flag="0"/>
			<psa30 value="0.000484793990222148" flag="0"/>
		</comp>
	</station>
	<station code="ARI" name="ARI" netid="IT" source="Italian Strong Motion Network (RAN)" insttype="" lat="41.1546" lon="15.0903">
		<comp name="--.HGE" depth="0.0">
			<acc value="0.12350705279148" flag="0"/>
			<vel value="0.0577404746151" flag="0"/>
			<psa03 value="0.317767821392062" flag="0"/>
			<psa10 value="0.0524187074819516" flag="0"/>
			<psa30 value="0.00464935133005122" flag="0"/>
		</comp>
		<comp name="--.HGN" depth="0.0">
			<acc value="0.11556195651396" flag="0"/>
			<vel value="0.0410579365202" flag="0"/>
			<psa03 value="0.264139122920612" flag="0"/>
			<psa10 value="0.0387622453084997" flag="0"/>
			<psa30 value="0.00340003461060447" flag="0"/>
		</comp>
		<comp name="--.HGZ" depth="0.0">
			<acc value="0.11387296784712" flag="0"/>
			<vel value="0.0430516871382" flag="0"/>
			<psa03 value="0.265191588474697" flag="0"/>
			<psa10 value="0.0270572024068536" flag="0"/>
			<psa30 value="0.00226503025547177" flag="0"/>
		</comp>
	</station>
	<station code="ARR" name="ARR" netid="IT" source="Italian Strong Motion Network (RAN)" insttype="" lat="41.1418" lon="15.0819">
		<comp name="--.HNE" depth="0.0">
			<acc value="0.100273195896102" flag="0"/>
			<vel value="0.0587837883306" flag="0"/>
			<psa03 value="0.435567020844175" flag="0"/>
			<psa10 value="0.0898580751566231" flag="0"/>
			<psa30 value="0.00485436116094296" flag="0"/>
		</comp>
		<comp name="--.HNN" depth="0.0">
			<acc value="0.11707168286952" flag="0"/>
			<vel value="0.0711622838848" flag="0"/>
			<psa03 value="0.38936912712686" flag="0"/>
			<psa10 value="0.0710750758748582" flag="0"/>
			<psa30 value="0.00487780813083347" flag="0"/>
		</comp>
		<comp name="--.HNZ" depth="0.0">
			<acc value="0.0782561707353" flag="0"/>
			<vel value="0.0456623192876" flag="0"/>
			<psa03 value="0.185960714817826" flag="0"/>
			<psa10 value="0.0479462249519444" flag="0"/>
			<psa30 value="0.00336229252704592" flag="0"/>
		</comp>
	</station>
	<station code="AVHO" name="AVHO" netid="IT" source="Italian Strong Motion Network (RAN)" insttype="" lat="40.9221" lon="14.7985">
		<comp name="--.HNE" depth="0.0">
			<acc value="2.6512498661634" flag="0"/>
			<vel value="0.869418880382" flag="0"/>
			<psa03 value="3.56863107096121" flag="0"/>
			<psa10 value="0.236850765200925" flag="0"/>
			<psa30 value="0.0170002711845381" flag="0"/>
		</comp>
		<comp name="--.HNN" depth="0.0">
			<acc value="1.4592786651804" flag="0"/>
			<vel value="0.40919937972" flag="0"/>
			<psa03 value="1.71725425966792" flag="0"/>
			<psa10 value="0.275358601155799" flag="0"/>
			<psa30 value="0.0231461133164185" flag="0"/>
		</comp>
		<comp name="--.HNZ" depth="0.0">
			<acc value="1.3880896884414" flag="0"/>
			<vel value="0.169942967739" flag="0"/>
			<psa03 value="0.900559740994896" flag="0"/>
			<psa10 value="0.111242674281099" flag="0"/>
			<psa30 value="0.00531409286591687" flag="0"/>
		</comp>
	</station>
	<station code="AVL" name="AVL" netid="IT" source="Italian Strong Motion Network (RAN)" insttype="" lat="40.9228" lon="14.787">
		<comp name="--.HNE" depth="0.0">
			<acc value="2.9940237152172" flag="0"/>
			<vel value="0.700930098266" flag="0"/>
			<psa03 value="1.71989660137669" flag="0"/>
			<psa10 value="0.264480870559472" flag="0"/>
			<psa30 value="0.0149285822786298" flag="0"/>
		</comp>
		<comp name="--.HNN" depth="0.0">
			<acc value="2.5828734966864" flag="0"/>
			<vel value="0.762959322668" flag="0"/>
			<psa03 value="1.62581136868882" flag="0"/>
			<psa10 value="0.320929700017572" flag="0"/>
			<psa30 value="0.0174908236812242" flag="0"/>
		</comp>
		<comp name="--.HNZ" depth="0.0">
			<acc value="1.7366082550356" flag="0"/>
			<vel value="0.20124188486" flag="0"/>
			<psa03 value="0.769413219851208" flag="0"/>
			<psa10 value="0.0673780509652491" flag="0"/>
			<psa30 value="0.00450166196299688" flag="0"/>
		</comp>
	</station>
	<station code="AVZA" name="AVZA" netid="IT" source="Italian Strong Motion Network (RAN)" insttype="" lat="40.9291" lon="14.7667">
		<comp name="--.HNE" depth="0.0">
			<acc value="2.5079436623382" flag="0"/>
			<vel value="0.535927525968" flag="0"/>
			<psa03 value="2.76310304201779" flag="0"/>
			<psa10 value="0.139796150808729" flag="0"/>
			<psa30 value="0.0110917122714912" flag="0"/>
		</comp>
		<comp name="--.HNN" depth="0.0">
			<acc value="2.8074032878716" flag="0"/>
			<vel value="0.944654010936" flag="0"/>
			<psa03 value="3.62022482212885" flag="0"/>
			<psa10 value="0.222121769477125" flag="0"/>
			<psa30 value="0.0236512517793524" flag="0"/>
		</comp>
		<comp name="--.HNZ" depth="0.0">
			<acc value="1.1778349310292" flag="0"/>
			<vel value="0.296618528577" flag="0"/>
			<psa03 value="1.26302766938429" flag="0"/>
			<psa10 value="0.0933595396112148" flag="0"/>
			<psa30 value="0.0086899198311861" flag="0"/>
		</comp>
	</station>
	<station code="BNE" name="BNE" netid="IT" source="Italian Strong Motion Network (RAN)" insttype="" lat="41.1276" lon="14.7849">
		<comp name="--.HGE" depth="0.0">
			<acc value="0.6514580347917" flag="0"/>
			<vel value="0.304448304477" flag="0"/>
			<psa03 value="1.32577849298663" flag="0"/>
			<psa10 value="0.182440180766501" flag="0"/>
			<psa30 value="0.0144837028075761" flag="0"/>
		</comp>
		<comp name="--.HGN" depth="0.0">
			<acc value="1.01582062118988" flag="0"/>
			<vel value="0.353002704709" flag="0"/>
			<psa03 value="1.91315040349306" flag="0"/>
			<psa10 value="0.124756589511681" flag="0"/>
			<psa30 value="0.011414460318662" flag="0"/>
		</comp>
		<comp name="--.HGZ" depth="0.0">
			<acc value="0.73411824597936" flag="0"/>
			<vel value="0.130429982521" flag="0"/>
			<psa03 value="0.566950349344023" flag="0"/>
			<psa10 value="0.079716210807638" flag="0"/>
			<psa30 value="0.00425557941125" flag="0"/>
		</comp>
	</station>
	<station code="BNOM" name="BNOM" netid="IT" source="Italian Strong Motion Network (RAN)" insttype="" lat="41.1527" lon="14.7896">
		<comp name="--.HNE" depth="0.0">
			<acc value="0.36931377009138" flag="0"/>
			<vel value="0.167375368303" flag="0"/>
			<psa03 value="1.59756099724378" flag="0"/>
			<psa10 value="0.132318680463108" flag="0"/>
			<psa30 value="0.00698873796959585" flag="0"/>
		</comp>
		<comp name="--.HNN" depth="0.0">
			<acc value="0.25243290880554" flag="0"/>
			<vel value="0.146237761877" flag="0"/>
			<psa03 value="0.895326727667249" flag="0"/>
			<psa10 value="0.107258342839008" flag="0"/>
			<psa30 value="0.00630938713258716" flag="0"/>
		</comp>
		<comp name="--.HNZ" depth="0.0">
			<acc value="0.18110136142272" flag="0"/>
			<vel value="0.071697687886" flag="0"/>
			<psa03 value="0.377033101592468" flag="0"/>
			<psa10 value="0.0566167393311715" flag="0"/>
			<psa30 value="0.00356522492865407" flag="0"/>
		</comp>
	</station>
	<station code="BNPI" name="BNPI" netid="IT" source="Italian Strong Motion Network (RAN)" insttype="" lat="41.1173" lon="14.7652">
		<comp name="--.HNE" depth="0.0">
			<acc value="2.4051860557368" flag="0"/>
			<vel value="0.702501452191" flag="0"/>
			<psa03 value="3.21452694663584" flag="0"/>
			<psa10 value="0.274590550276525" flag="0"/>
			<psa30 value="0.0221622681415008" flag="0"/>
		</comp>
		<comp name="--.HNN" depth="0.0">
			<acc value="1.8843022736856" flag="0"/>
			<vel value="0.514733996294" flag="0"/>
			<psa03 value="2.02257148543583" flag="0"/>
			<psa10 value="0.120731702882694" flag="0"/>
			<psa30 value="0.0109279305884487" flag="0"/>
		</comp>
		<comp name="--.HNZ" depth="0.0">
			<acc value="1.01859686904228" flag="0"/>
			<vel value="0.233080422865" flag="0"/>
			<psa03 value="1.26340711118871" flag="0"/>
			<psa10 value="0.111680088257576" flag="0"/>
			<psa30 value="0.0061198749950104" flag="0"/>
		</comp>
	</station>
	<station code="BNV" name="BNV" netid="IT" source="Italian Strong Motion Network (RAN)" insttype="" lat="41.1177" lon="14.7973">
		<comp name="--.HGE" depth="0.0">
			<acc value="0.61422588568638" flag="0"/>
			<vel value="0.277531815141" flag="0"/>
			<psa03 value="1.5539517750139" flag="0"/>
			<psa10 value="0.134281740506454" flag="0"/>
			<psa30 value="0.012019472897753" flag="0"/>
		</comp>
		<comp name="--.HGN" depth="0.0">
			<acc value="0.7110734722683" flag="0"/>
			<vel value="0.292535144227" flag="0"/>
			<psa03 value="2.39727630778839" flag="0"/>
			<psa10 value="0.151816807118519" flag="0"/>
			<psa30 value="0.0119711330288234" flag="0"/>
		</comp>
		<comp name="--.HGZ" depth="0.0">
			<acc value="0.47603048236578" flag="0"/>
			<vel value="0.169421520434" flag="0"/>
			<psa03 value="0.851685586655887" flag="0"/>
			<psa10 value="0.0813549793681527" flag="0"/>
			<psa30 value="0.00555302452728254" flag="0"/>
		</comp>
	</station>
	<station code="BSA" name="BSA" netid="IT" source="Italian Strong Motion Network (RAN)" insttype="" lat="41.0092" lon="15.3582">
		<comp name="--.HNE" depth="0.0">
			<acc value="0.027397005744672" flag="0"/>
			<vel value="0.0160273906815" flag="0"/>
			<psa03 value="0.102743118727557" flag="0"/>
			<psa10 value="0.0167534267072985" flag="0"/>
			<psa30 value="0.00220594175781465" flag="0"/>
		</comp>
		<comp name="--.HNN" depth="0.0">
			<acc value="0.028677335821074" flag="0"/>
			<vel value="0.0206592865027" flag="0"/>
			<psa03 value="0.112123625556748" flag="0"/>
			<psa10 value="0.0287118926469785" flag="0"/>
			<psa30 value="0.00232512819499632" flag="0"/>
		</comp>
		<comp name="--.HNZ" depth="0.0">
			<acc value="0.015342370750428" flag="0"/>
			<vel value="0.00913791892477" flag="0"/>
			<psa03 value="0.0560545727153031" flag="0"/>
			<psa10 value="0.0104074831946792" flag="0"/>
			<psa30 value="0.00130890566690851" flag="0"/>
		</comp>
	</station>
	<station code="BVN" name="BVN" netid="IT" source="Italian Strong Motion Network (RAN)" insttype="" lat="41.249" lon="15.3422">
		<comp name="--.HGE" depth="0.0">
			<acc value="0.027774979836372" flag="0"/>
			<vel value="0.0139983491917" flag="0"/>
			<psa03 value="0.0878826238760655" flag="0"/>
			<psa10 value="0.00735500692061443" flag="0"/>
			<psa30 value="0.000895459007262869" flag="0"/>
		</comp>
		<comp name="--.HGN" depth="0.0">
			<acc value="0.041324284756872" flag="0"/>
			<vel value="0.0157498070822" flag="0"/>
			<psa03 value="0.0704512295483151" flag="0"/>
			<psa10 value="0.0107026980637134" flag="0"/>
			<psa30 value="0.000740420872165824" flag="0"/>
		</comp>
		<comp name="--.HGZ" depth="0.0">
			<acc value="0.018072282606378" flag="0"/>
			<vel value="0.00656594991934" flag="0"/>
			<psa03 value="0.0358019133677072" flag="0"/>
			<psa10 value="0.00631333838393561" flag="0"/>
			<psa30 value="0.000632498618677619" flag="0"/>
		</comp>
	</station>
	<station code="CLT" name="CLT" netid="IT" source="Italian Strong Motion Network (RAN)" insttype="" lat="40.8988" lon="15.4388">
		<comp name="--.HGE" depth="0.0">
			<acc value="0.029543191835688" flag="0"/>
			<vel value="0.0180034032598" flag="0"/>
			<psa03 value="0.0780579834581587" flag="0"/>
			<psa10 value="0.0271938689603657" flag="0"/>
			<psa30 value="0.00143411854498104" flag="0"/>
		</comp>
		<comp name="--.HGN" depth="0.0">
			<acc value="0.029860276887138" flag="0"/>
			<vel value="0.0174460984524" flag="0"/>
			<psa03 value="0.0763412655673703" flag="0"/>
			<psa10 value="0.0162985046959578" flag="0"/>
			<psa30 value="0.00262174888633221" flag="0"/>
		</comp>
		<comp name="--.HGZ" depth="0.0">
			<acc value="0.020865040169292" flag="0"/>
			<vel value="0.00991388949441" flag="0"/>
			<psa03 value="0.0633477173089333" flag="0"/>
			<psa10 value="0.0154695525944536" flag="0"/>
			<psa30 value="0.00117407288073461" flag="0"/>
		</comp>
	</station>
	<station code="CMG" name="CMG" netid="IT" source="Italian Strong Motion Network (RAN)" insttype="" lat="40.67" lon="15.1018">
		<comp name="--.HNE" depth="0.0">
			<acc value="0.086666577913062" flag="0"/>
			<vel value="0.0289293554847" flag="0"/>
			<psa03 value="0.118779306046143" flag="0"/>
			<psa10 value="0.0182966783151396" flag="0"/>
			<psa30 value="0.00102474465513897" flag="0"/>
		</comp>
		<comp name="--.HNN" depth="0.0">
			<acc value="0.091775539689774" flag="0"/>
			<vel value="0.0371798145412" flag="0"/>
			<psa03 value="0.191673864119418" flag="0"/>
			<psa10 value="0.0210098968025684" flag="0"/>
			<psa30 value="0.00124218458030063" flag="0"/>
		</comp>
		<comp name="--.HNZ" depth="0.0">
			<acc value="0.061307384102946" flag="0"/>
			<vel value="0.0283700756784" flag="0"/>
			<psa03 value="0.140052465288636" flag="0"/>
			<psa10 value="0.0240167016136" flag="0"/>
			<psa30 value="0.000963947815143781" flag="0"/>
		</comp>
	</station>
	<station code="EBO" name="EBO" netid="IT" source="Italian Strong Motion Network (RAN)" insttype="" lat="40.5241" lon="15.0028">
		<comp name="--.HGE" depth="0.0">
			<acc value="0.070240577195724" flag="0"/>
			<vel value="0.0594317383529" flag="0"/>
			<psa03 value="0.216236178752492" flag="0"/>
			<psa10 value="0.0432283936690945" flag="0"/>
			<psa30 value="0.00662111945001213" flag="0"/>
		</comp>
		<comp name="--.HGN" depth="0.0">
			<acc value="0.089441245926222" flag="0"/>
			<vel value="0.0685549495902" flag="0"/>
			<psa03 value="0.226789273676542" flag="0"/>
			<psa10 value="0.0628135298382422" flag="0"/>
			<psa30 value="0.0050222710341483" flag="0"/>
		</comp>
		<comp name="--.HGZ" depth="0.0">
			<acc value="0.052540307442312" flag="0"/>
			<vel value="0.0319632675665" flag="0"/>
			<psa03 value="0.174249793193809" flag="0"/>
			<psa10 value="0.0280752804745308" flag="0"/>
			<psa30 value="0.00230312007039981" flag="0"/>
		</comp>
	</station>
	<station code="LVN1" name="LVN1" netid="IT" source="Italian Strong Motion Network (RAN)" insttype="" lat="40.7842" lon="15.3046">
		<comp name="--.HNE" depth="0.0">
			<acc value="0.045348612259782" flag="0"/>
			<vel value="0.0239684652533" flag="0"/>
			<psa03 value="0.129009139972549" flag="0"/>
			<psa10 value="0.00779213212799558" flag="0"/>
			<psa30 value="0.000857715517358335" flag="0"/>
		</comp>
		<comp name="--.HNN" depth="0.0">
			<acc value="0.030158358261468" flag="0"/>
			<vel value="0.0153220023022" flag="0"/>
			<psa03 value="0.0957719902575229" flag="0"/>
			<psa10 value="0.0131264433124559" flag="0"/>
			<psa30 value="0.00070731034542212" flag="0"/>
		</comp>
		<comp name="--.HNZ" depth="0.0">
			<acc value="0.033083303029974" flag="0"/>
			<vel value="0.0100502780353" flag="0"/>
			<psa03 value="0.0647959747068531" flag="0"/>
			<psa10 value="0.00635772257416807" flag="0"/>
			<psa30 value="0.000694413761921747" flag="0"/>
		</comp>
	</station>
	<station code="MCN" name="MCN" netid="IT" source="Italian Strong Motion Network (RAN)" insttype="" lat="41.3393" lon="14.6635">
		<comp name="--.HNE" depth="0.0">
			<acc value="0.019605596049144" flag="0"/>
			<vel value="0.0125151685526" flag="0"/>
			<psa03 value="0.0538153983391509" flag="0"/>
			<psa10 value="0.0104292965147238" flag="0"/>
			<psa30 value="0.00175077223006788" flag="0"/>
		</comp>
		<comp name="--.HNN" depth="0.0">
			<acc value="0.024498295839654" flag="0"/>
			<vel value="0.0139503683059" flag="0"/>
			<psa03 value="0.0847328943882235" flag="0"/>
			<psa10 value="0.0123073281125853" flag="0"/>
			<psa30 value="0.00185221019983487" flag="0"/>
		</comp>
		<comp name="--.HNZ" depth="0.0">
			<acc value="0.024315833187696" flag="0"/>
			<vel value="0.00970772526659" flag="0"/>
			<psa03 value="0.0375180635126003" flag="0"/>
			<psa10 value="0.0101332415900268" flag="0"/>
			<psa30 value="0.00113387250932161" flag="0"/>
		</comp>
	</station>
	<station code="MRC" name="MRC" netid="IT" source="Italian Strong Motion Network (RAN)" insttype="" lat="41.3444" lon="14.6941">
		<comp name="--.HGE" depth="0.0">
			<acc value="0.08476464382113" flag="0"/>
			<vel value="0.059749183439" flag="0"/>
			<psa03 value="0.30139919538439" flag="0"/>
			<psa10 value="0.0813946044930286" flag="0"/>
			<psa30 value="0.00764065615598255" flag="0"/>
		</comp>
		<comp name="--.HGN" depth="0.0">
			<acc value="0.078021132156312" flag="0"/>
			<vel value="0.0571513382057" flag="0"/>
			<psa03 value="0.207139680320442" flag="0"/>
			<psa10 value="0.0610927995980405" flag="0"/>
			<psa30 value="0.00644120544822732" flag="0"/>
		</comp>
		<comp name="--.HGZ" depth="0.0">
			<acc value="0.068202123410052" flag="0"/>
			<vel value="0.0469308174191" flag="0"/>
			<psa03 value="0.219874919800973" flag="0"/>
			<psa10 value="0.0618380827196684" flag="0"/>
			<psa30 value="0.00423258455461919" flag="0"/>
		</comp>
	</station>
	<station code="MRT" name="MRT" netid="IT" source="Italian Strong Motion Network (RAN)" insttype="" lat="40.7901" lon="14.7529">
		<comp name="--.HGE" depth="0.0">
			<acc value="0.9321925379886" flag="0"/>
			<vel value="0.52656333263" flag="0"/>
			<psa03 value="3.5364559395182" flag="0"/>
			<psa10 value="0.328546454590004" flag="0"/>
			<psa30 value="0.0239659976297158" flag="0"/>
		</comp>
		<comp name="--.HGN" depth="0.0">
			<acc value="0.99856552586136" flag="0"/>
			<vel value="0.445994949635" flag="0"/>
			<psa03 value="2.58441537149955" flag="0"/>
			<psa10 value="0.172808822736489" flag="0"/>
			<psa30 value="0.0126474403308727" flag="0"/>
		</comp>
		<comp name="--.HGZ" depth="0.0">
			<acc value="0.65647612279104" flag="0"/>
			<vel value="0.248934313006" flag="0"/>
			<psa03 value="1.20913518260566" flag="0"/>
			<psa10 value="0.0841486069321177" flag="0"/>
			<psa30 value="0.0057908836175988" flag="0"/>
		</comp>
	</station>
	<station code="NAD" name="NAD" netid="IT" source="Italian Strong Motion Network (RAN)" insttype="" lat="40.8717" lon="14.28">
		<comp name="--.HNE" depth="0.0">
			<acc value="0.36344129273454" flag="0"/>
			<vel value="0.128467763635" flag="0"/>
			<psa03 value="1.53527587115856" flag="0"/>
			<psa10 value="0.0559809559636322" flag="0"/>
			<psa30 value="0.00478946227838997" flag="0"/>
		</comp>
		<comp name="--.HNN" depth="0.0">
			<acc value="0.4474074877482" flag="0"/>
			<vel value="0.234468772943" flag="0"/>
			<psa03 value="1.41411367809166" flag="0"/>
			<psa10 value="0.0990091013672384" flag="0"/>
			<psa30 value="0.00832373724006245" flag="0"/>
		</comp>
		<comp name="--.HNZ" depth="0.0">
			<acc value="0.2778282277947" flag="0"/>
			<vel value="0.0888603954445" flag="0"/>
			<psa03 value="0.681273797712029" flag="0"/>
			<psa10 value="0.0374869245747659" flag="0"/>
			<psa30 value="0.00309013595633991" flag="0"/>
		</comp>
	</station>
	<station code="NAFG" name="NAFG" netid="IT" source="Italian Strong Motion Network (RAN)" insttype="" lat="40.8202" lon="14.1786">
		<comp name="--.HNE" depth="0.0">
			<acc value="0.1395150437022" flag="0"/>
			<vel value="0.0630809401247" flag="0"/>
			<psa03 value="0.339103463940405" flag="0"/>
			<psa10 value="0.0752325337859912" flag="0"/>
			<psa30 value="0.00363642589536997" flag="0"/>
		</comp>
		<comp name="--.HNN" depth="0.0">
			<acc value="0.12784326658842" flag="0"/>
			<vel value="0.0567128379561" flag="0"/>
			<psa03 value="0.313693613995895" flag="0"/>
			<psa10 value="0.0483464627160111" flag="0"/>
