<?xml version="1.0" encoding="UTF-8" standalone="yes"?>
<!DOCTYPE earthquake SYSTEM "stationlist.dtd">
<stationlist created="" xmlns="ch.ethz.sed.shakemap.usgs.xml">
  <station code="CGAU" name="CGAU" netid="2I" insttype="" commtype="DIG" lat="40.8524" lon="14.113">
    <comp name="--.HHZ">
      <acc value="0.2457022837" flag="0"/>
      <vel value="0.0661210950" flag="0"/>
      <psa03 value="0.2435238556" flag="0"/>
      <psa10 value="0.0230694976" flag="0"/>
      <psa30 value="0.0017585217" flag="0"/>
    </comp>
    <comp name="--.HHE">
      <acc value="0.4986479749" flag="0"/>
      <vel value="0.1246995536" flag="0"/>
      <psa03 value="0.2772319134" flag="0"/>
      <psa10 value="0.0307793503" flag="0"/>
      <psa30 value="0.0022262153" flag="0"/>
    </comp>
    <comp name="--.HHN">
      <acc value="0.2634291962" flag="0"/>
      <vel value="0.0594604526" flag="0"/>
      <psa03 value="0.2467206537" flag="0"/>
      <psa10 value="0.0292151434" flag="0"/>
      <psa30 value="0.0016315335" flag="0"/>
    </comp>
  </station>
  <station code="CLAC" name="CLAC" netid="2I" insttype="" commtype="DIG" lat="40.8836" lon="14.0706">
    <comp name="--.HHN">
      <acc value="0.1072854421" flag="0"/>
      <vel value="0.0616431292" flag="0"/>
      <psa03 value="0.3724365430" flag="0"/>
      <psa10 value="0.0440899221" flag="0"/>
      <psa30 value="0.0024697214" flag="0"/>
    </comp>
    <comp name="--.HHE">
      <acc value="0.1682432030" flag="0"/>
      <vel value="0.0674996304" flag="0"/>
      <psa03 value="0.3447305880" flag="0"/>
      <psa10 value="0.0351444235" flag="0"/>
      <psa30 value="0.0030000713" flag="0"/>
    </comp>
    <comp name="--.HHZ">
      <acc value="0.1444492076" flag="0"/>
      <vel value="0.0439950799" flag="0"/>
      <psa03 value="0.4352895282" flag="0"/>
      <psa10 value="0.0293127647" flag="0"/>
      <psa30 value="0.0014600905" flag="0"/>
    </comp>
  </station>
  <station code="VCDC" name="VCDC" netid="2I" insttype="" commtype="DIG" lat="40.9163" lon="14.4096">
    <comp name="--.HNE">
      <acc value="0.0775388448" flag="0"/>
      <vel value="0.0393934654" flag="0"/>
      <psa03 value="0.1692192165" flag="0"/>
      <psa10 value="0.0805664215" flag="0"/>
      <psa30 value="0.0037920948" flag="0"/>
    </comp>
    <comp name="--.HNN">
      <acc value="0.1021096936" flag="0"/>
      <vel value="0.0658193153" flag="0"/>
      <psa03 value="0.1921407842" flag="0"/>
      <psa10 value="0.0993368209" flag="0"/>
      <psa30 value="0.0054055251" flag="0"/>
    </comp>
    <comp name="--.HNZ">
      <acc value="0.0796519585" flag="0"/>
      <vel value="0.0322342967" flag="0"/>
      <psa03 value="0.1662147641" flag="0"/>
      <psa10 value="0.0219816369" flag="0"/>
      <psa30 value="0.0020388691" flag="0"/>
    </comp>
  </station>
  <station code="VSVT" name="VSVT" netid="2I" insttype="" commtype="DIG" lat="40.8229" lon="14.3692">
    <comp name="--.HNE">
      <acc value="0.2022095248" flag="0"/>
      <vel value="0.0613429130" flag="0"/>
      <psa03 value="0.2950178258" flag="0"/>
      <psa10 value="0.0281204668" flag="0"/>
      <psa30 value="0.0024137399" flag="0"/>
    </comp>
    <comp name="--.HNN">
      <acc value="0.1663544775" flag="0"/>
      <vel value="0.0623396554" flag="0"/>
      <psa03 value="0.3273341432" flag="0"/>
      <psa10 value="0.0382000011" flag="0"/>
      <psa30 value="0.0020076857" flag="0"/>
    </comp>
    <comp name="--.HNZ">
      <acc value="0.1433703031" flag="0"/>
      <vel value="0.0548769406" flag="0"/>
      <psa03 value="0.2880321235" flag="0"/>
      <psa10 value="0.0252522710" flag="0"/>
      <psa30 value="0.0019135550" flag="0"/>
    </comp>
  </station>
  <station code="MARCO" name="MARCO" netid="GE" insttype="VBB" commtype="DIG" lat="40.2972" lon="15.8063">
    <comp name="--.HHE">
      <acc value="0.0124712306" flag="0"/>
      <vel value="0.0081991625" flag="0"/>
      <psa03 value="0.0359929806" flag="0"/>
      <psa10 value="0.0093933686" flag="0"/>
      <psa30 value="0.0013050042" flag="0"/>
    </comp>
    <comp name="--.HHN">
      <acc value="0.0127174076" flag="0"/>
      <vel value="0.0089334301" flag="0"/>
      <psa03 value="0.0455897086" flag="0"/>
      <psa10 value="0.0136680583" flag="0"/>
      <psa30 value="0.0018221739" flag="0"/>
    </comp>
    <comp name="--.HHZ">
      <acc value="0.0069236310" flag="0"/>
      <vel value="0.0040414074" flag="0"/>
      <psa03 value="0.0215733225" flag="0"/>
      <psa10 value="0.0056655559" flag="0"/>
      <psa30 value="0.0008740100" flag="0"/>
    </comp>
  </station>
  <station code="CAMPI" name="CAMPI" netid="GX" insttype="Trillium Compact" commtype="DIG" lat="40.7071" lon="15.2738">
    <comp name="--.HHE">
      <acc value="0.0686978067" flag="0"/>
      <vel value="0.0371410463" flag="0"/>
      <psa03 value="0.2618483780" flag="0"/>
      <psa10 value="0.0375457286" flag="0"/>
      <psa30 value="0.0029688085" flag="0"/>
    </comp>
    <comp name="--.HHZ">
      <acc value="0.0420688142" flag="0"/>
      <vel value="0.0225567796" flag="0"/>
      <psa03 value="0.0985380136" flag="0"/>
      <psa10 value="0.0212774701" flag="0"/>
      <psa30 value="0.0013781599" flag="0"/>
    </comp>
    <comp name="--.HHN">
      <acc value="0.1036319636" flag="0"/>
      <vel value="0.0609273545" flag="0"/>
      <psa03 value="0.2594322246" flag="0"/>
      <psa10 value="0.0321472426" flag="0"/>
      <psa30 value="0.0021766842" flag="0"/>
    </comp>
  </station>
  <station code="ACER" name="ACER" netid="IV" insttype="" commtype="DIG" lat="40.7867" lon="15.9427">
    <comp name="--.HHE">
      <acc value="0.0212226973" flag="0"/>
      <vel value="0.0127867999" flag="0"/>
      <psa03 value="0.0632433230" flag="0"/>
      <psa10 value="0.0205454261" flag="0"/>
      <psa30 value="0.0013451011" flag="0"/>
    </comp>
    <comp name="--.HHN">
      <acc value="0.0177873790" flag="0"/>
      <vel value="0.0168881094" flag="0"/>
      <psa03 value="0.0540120931" flag="0"/>
      <psa10 value="0.0235865458" flag="0"/>
      <psa30 value="0.0012624649" flag="0"/>
    </comp>
    <comp name="--.HHZ">
      <acc value="0.0108803238" flag="0"/>
      <vel value="0.0071761496" flag="0"/>
      <psa03 value="0.0361270044" flag="0"/>
      <psa10 value="0.0049071231" flag="0"/>
      <psa30 value="0.0005139186" flag="0"/>
    </comp>
  </station>
  <station code="APRC" name="APRC" netid="IV" insttype="" commtype="DIG" lat="41.7574" lon="15.5431">
    <comp name="--.HHE">
      <acc value="0.0206789631" flag="0"/>
      <vel value="0.0122175176" flag="0"/>
      <psa03 value="0.0631357243" flag="0"/>
      <psa10 value="0.0136005697" flag="0"/>
      <psa30 value="0.0007645120" flag="0"/>
    </comp>
    <comp name="--.HHN">
      <acc value="0.0230328201" flag="0"/>
      <vel value="0.0102401761" flag="0"/>
      <psa03 value="0.0469088702" flag="0"/>
      <psa10 value="0.0097043888" flag="0"/>
      <psa30 value="0.0004075379" flag="0"/>
    </comp>
    <comp name="--.HHZ">
      <acc value="0.0083195187" flag="0"/>
      <vel value="0.0044559623" flag="0"/>
      <psa03 value="0.0205853599" flag="0"/>
      <psa10 value="0.0051628393" flag="0"/>
      <psa30 value="0.0004372563" flag="0"/>
    </comp>
  </station>
  <station code="BSSO" name="BSSO" netid="IV" insttype="" commtype="DIG" lat="41.5461" lon="14.5938">
    <comp name="--.HHE">
      <acc value="0.0215118948" flag="0"/>
      <vel value="0.0097452211" flag="0"/>
      <psa03 value="0.0952069686" flag="0"/>
      <psa10 value="0.0111508013" flag="0"/>
      <psa30 value="0.0009213061" flag="0"/>
    </comp>
    <comp name="--.HHN">
      <acc value="0.0223708734" flag="0"/>
      <vel value="0.0150779782" flag="0"/>
      <psa03 value="0.0640417575" flag="0"/>
      <psa10 value="0.0176758325" flag="0"/>
      <psa30 value="0.0012817266" flag="0"/>
    </comp>
    <comp name="--.HHZ">
      <acc value="0.0177335591" flag="0"/>
      <vel value="0.0077930047" flag="0"/>
      <psa03 value="0.0599973899" flag="0"/>
      <psa10 value="0.0047504137" flag="0"/>
      <psa30 value="0.0006324045" flag="0"/>
    </comp>
  </station>
  <station code="CAAM" name="CAAM" netid="IV" insttype="" commtype="DIG" lat="40.8201" lon="14.142">
    <comp name="--.HHE">
      <acc value="0.0399377415" flag="0"/>
      <vel value="0.0159784932" flag="0"/>
      <psa03 value="0.0862228730" flag="0"/>
      <psa10 value="0.0148884125" flag="0"/>
      <psa30 value="0.0038953041" flag="0"/>
    </comp>
    <comp name="--.HHZ">
      <acc value="0.0479853908" flag="0"/>
      <vel value="0.0188943989" flag="0"/>
      <psa03 value="0.1322819774" flag="0"/>
      <psa10 value="0.0135545434" flag="0"/>
      <psa30 value="0.0014509450" flag="0"/>
    </comp>
    <comp name="--.HHN">
      <acc value="0.0485959718" flag="0"/>
      <vel value="0.0154941687" flag="0"/>
      <psa03 value="0.0572257086" flag="0"/>
      <psa10 value="0.0190822702" flag="0"/>
      <psa30 value="0.0018369238" flag="0"/>
    </comp>
  </station>
  <station code="CAFE" name="CAFE" netid="IV" insttype="" commtype="DIG" lat="41.028" lon="15.2366">
    <comp name="--.HHE">
      <acc value="0.0505885266" flag="0"/>
      <vel value="0.0216066797" flag="0"/>
      <psa03 value="0.1122050945" flag="0"/>
      <psa10 value="0.0233002079" flag="0"/>
      <psa30 value="0.0027628407" flag="0"/>
    </comp>
    <comp name="--.HHN">
      <acc value="0.0285712391" flag="0"/>
      <vel value="0.0161925445" flag="0"/>
      <psa03 value="0.0862774656" flag="0"/>
      <psa10 value="0.0184117486" flag="0"/>
      <psa30 value="0.0019295958" flag="0"/>
    </comp>
    <comp name="--.HHZ">
      <acc value="0.0250894717" flag="0"/>
      <vel value="0.0087280184" flag="0"/>
      <psa03 value="0.0629860864" flag="0"/>
      <psa10 value="0.0081438129" flag="0"/>
      <psa30 value="0.0018582898" flag="0"/>
    </comp>
  </station>
  <station code="CAPA" name="CAPA" netid="IV" insttype="" commtype="DIG" lat="41.1583" lon="15.8169">
    <comp name="--.HHE">
      <acc value="0.0596054518" flag="0"/>
      <vel value="0.0243451271" flag="0"/>
      <psa03 value="0.1739842928" flag="0"/>
      <psa10 value="0.0207898462" flag="0"/>
      <psa30 value="0.0014447980" flag="0"/>
    </comp>
    <comp name="--.HHN">
      <acc value="0.0552006436" flag="0"/>
      <vel value="0.0228491190" flag="0"/>
      <psa03 value="0.1709312267" flag="0"/>
      <psa10 value="0.0179362576" flag="0"/>
      <psa30 value="0.0018999111" flag="0"/>
    </comp>
    <comp name="--.HHZ">
      <acc value="0.0343571992" flag="0"/>
      <vel value="0.0145060821" flag="0"/>
      <psa03 value="0.1046557267" flag="0"/>
      <psa10 value="0.0091061980" flag="0"/>
      <psa30 value="0.0008195764" flag="0"/>
    </comp>
  </station>
  <station code="CAWE" name="CAWE" netid="IV" insttype="" commtype="DIG" lat="40.8405" lon="14.1393">
    <comp name="--.HHE">
      <acc value="0.2919360695" flag="0"/>
      <vel value="0.1110557605" flag="0"/>
      <psa03 value="0.6290411303" flag="0"/>
      <psa10 value="0.0733571762" flag="0"/>
      <psa30 value="0.0040162060" flag="0"/>
    </comp>
    <comp name="--.HHZ">
      <acc value="0.2437189094" flag="0"/>
      <vel value="0.0765570653" flag="0"/>
      <psa03 value="0.4329556266" flag="0"/>
      <psa10 value="0.0311265045" flag="0"/>
      <psa30 value="0.0016910500" flag="0"/>
    </comp>
    <comp name="--.HHN">
      <acc value="0.2277716015" flag="0"/>
      <vel value="0.1005053802" flag="0"/>
      <psa03 value="0.5832346038" flag="0"/>
      <psa10 value="0.0660010672" flag="0"/>
      <psa30 value="0.0046180894" flag="0"/>
    </comp>
  </station>
  <station code="CBAC" name="CBAC" netid="IV" insttype="" commtype="DIG" lat="40.8109" lon="14.0806">
    <comp name="--.HNE">
      <acc value="0.0439936919" flag="0"/>
      <vel value="0.0340368133" flag="0"/>
      <psa03 value="0.0857433725" flag="0"/>
      <psa10 value="0.0341181993" flag="0"/>
      <psa30 value="0.0027110764" flag="0"/>
    </comp>
    <comp name="--.HNN">
      <acc value="0.0659260050" flag="0"/>
      <vel value="0.0543021735" flag="0"/>
      <psa03 value="0.1347956301" flag="0"/>
      <psa10 value="0.0690850595" flag="0"/>
      <psa30 value="0.0041596810" flag="0"/>
    </comp>
    <comp name="--.HNZ">
      <acc value="0.0413270107" flag="0"/>
      <vel value="0.0207905776" flag="0"/>
      <psa03 value="0.1008489749" flag="0"/>
      <psa10 value="0.0182665319" flag="0"/>
      <psa30 value="0.0016726277" flag="0"/>
    </comp>
  </station>
  <station code="CERA" name="CERA" netid="IV" insttype="" commtype="DIG" lat="41.5978" lon="14.0183">
    <comp name="--.HHE">
      <acc value="0.0104990322" flag="0"/>
      <vel value="0.0075719049" flag="0"/>
      <psa03 value="0.0369275801" flag="0"/>
      <psa10 value="0.0113740029" flag="0"/>
      <psa30 value="0.0007176280" flag="0"/>
    </comp>
    <comp name="--.HHN">
      <acc value="0.0117848127" flag="0"/>
      <vel value="0.0074634785" flag="0"/>
      <psa03 value="0.0385359489" flag="0"/>
      <psa10 value="0.0103435263" flag="0"/>
      <psa30 value="0.0007951197" flag="0"/>
    </comp>
    <comp name="--.HHZ">
      <acc value="0.0071095196" flag="0"/>
      <vel value="0.0050192649" flag="0"/>
      <psa03 value="0.0216986579" flag="0"/>
      <psa10 value="0.0064619168" flag="0"/>
      <psa30 value="0.0005316684" flag="0"/>
    </comp>
  </station>
  <station code="CFMN" name="CFMN" netid="IV" insttype="" commtype="DIG" lat="40.8329" lon="14.0904">
    <comp name="--.HHE">
      <acc value="0.1671043346" flag="0"/>
      <vel value="0.0405779540" flag="0"/>
      <psa03 value="0.1418418628" flag="0"/>
      <psa10 value="0.0133735434" flag="0"/>
      <psa30 value="0.0019913657" flag="0"/>
    </comp>
    <comp name="--.HHZ">
      <acc value="0.0957784139" flag="0"/>
      <vel value="0.0259022527" flag="0"/>
      <psa03 value="0.1214980115" flag="0"/>
      <psa10 value="0.0183884406" flag="0"/>
      <psa30 value="0.0014941179" flag="0"/>
    </comp>
    <comp name="--.HHN">
      <acc value="0.0943329876" flag="0"/>
      <vel value="0.0275917709" flag="0"/>
      <psa03 value="0.1048447248" flag="0"/>
      <psa10 value="0.0119990533" flag="0"/>
      <psa30 value="0.0014361359" flag="0"/>
    </comp>
  </station>
  <station code="CIGN" name="CIGN" netid="IV" insttype="SS08" commtype="DIG" lat="41.6542" lon="14.905">
    <comp name="--.HHE">
      <acc value="0.0077227763" flag="0"/>
      <vel value="0.0044276074" flag="0"/>
      <psa03 value="0.0302662610" flag="0"/>
      <psa10 value="0.0054252663" flag="0"/>
      <psa30 value="0.0011355876" flag="0"/>
    </comp>
    <comp name="--.HHN">
      <acc value="0.0101181612" flag="0"/>
      <vel value="0.0060235107" flag="0"/>
      <psa03 value="0.0280351277" flag="0"/>
      <psa10 value="0.0077934406" flag="0"/>
      <psa30 value="0.0014876029" flag="0"/>
    </comp>
    <comp name="--.HHZ">
      <acc value="0.0083899690" flag="0"/>
      <vel value="0.0045222561" flag="0"/>
      <psa03 value="0.0308681554" flag="0"/>
      <psa10 value="0.0081165774" flag="0"/>
      <psa30 value="0.0014748259" flag="0"/>
    </comp>
  </station>
  <station code="CMSN" name="CMSN" netid="IV" insttype="" commtype="DIG" lat="40.8382" lon="14.1818">
    <comp name="--.HHE">
      <acc value="0.2173091745" flag="0"/>
      <vel value="0.0862571885" flag="0"/>
      <psa03 value="0.5408710317" flag="0"/>
      <psa10 value="0.0478699581" flag="0"/>
      <psa30 value="0.0048902252" flag="0"/>
    </comp>
    <comp name="--.HHN">
      <acc value="0.3375479433" flag="0"/>
      <vel value="0.1197436398" flag="0"/>
      <psa03 value="0.6137110105" flag="0"/>
      <psa10 value="0.0663457759" flag="0"/>
      <psa30 value="0.0040774995" flag="0"/>
    </comp>
    <comp name="--.HHZ">
      <acc value="0.1252535086" flag="0"/>
      <vel value="0.0486992059" flag="0"/>
      <psa03 value="0.3126834363" flag="0"/>
      <psa10 value="0.0297829488" flag="0"/>
      <psa30 value="0.0027635455" flag="0"/>
    </comp>
  </station>
  <station code="CNIS" name="CNIS" netid="IV" insttype="" commtype="DIG" lat="40.7982" lon="14.1632">
    <comp name="--.HNN">
      <acc value="0.0375198848" flag="0"/>
      <vel value="0.0219728796" flag="0"/>
      <psa03 value="0.1897459974" flag="0"/>
      <psa10 value="0.0161028452" flag="0"/>
      <psa30 value="0.0020990318" flag="0"/>
    </comp>
    <comp name="--.HNE">
      <acc value="0.0469450452" flag="0"/>
      <vel value="0.0211294800" flag="0"/>
      <psa03 value="0.1631591818" flag="0"/>
      <psa10 value="0.0182488039" flag="0"/>
      <psa30 value="0.0028893903" flag="0"/>
    </comp>
    <comp name="--.HNZ">
      <acc value="0.0353830738" flag="0"/>
      <vel value="0.0135174525" flag="0"/>
      <psa03 value="0.0713050352" flag="0"/>
      <psa10 value="0.0180468276" flag="0"/>
      <psa30 value="0.0011590789" flag="0"/>
    </comp>
  </station>
  <station code="CPIS" name="CPIS" netid="IV" insttype="" commtype="DIG" lat="40.8294" lon="14.1468">
    <comp name="--.HHE">
      <acc value="0.1419782294" flag="0"/>
      <vel value="0.0500374649" flag="0"/>
      <psa03 value="0.2306136516" flag="0"/>
      <psa10 value="0.0192636504" flag="0"/>
      <psa30 value="0.0024712074" flag="0"/>
    </comp>
    <comp name="--.HHZ">
      <acc value="0.1539367726" flag="0"/>
      <vel value="0.0361364616" flag="0"/>
      <psa03 value="0.1790370983" flag="0"/>
      <psa10 value="0.0136828400" flag="0"/>
      <psa30 value="0.0010625922" flag="0"/>
    </comp>
    <comp name="--.HHN">
      <acc value="0.2020562175" flag="0"/>
      <vel value="0.0417526704" flag="0"/>
      <psa03 value="0.2831092222" flag="0"/>
      <psa10 value="0.0171907944" flag="0"/>
      <psa30 value="0.0018656037" flag="0"/>
    </comp>
  </station>
  <station code="CRTO" name="CRTO" netid="IV" insttype="" commtype="DIG" lat="40.8212" lon="14.4223">
    <comp name="--.HHE">
      <acc value="0.6575253363" flag="0"/>
      <vel value="0.2355180035" flag="0"/>
      <psa03 value="1.2630539149" flag="0"/>
      <psa10 value="0.2167500154" flag="0"/>
      <psa30 value="0.0110484106" flag="0"/>
    </comp>
    <comp name="--.HHZ">
      <acc value="0.2803284941" flag="0"/>
      <vel value="0.0792383072" flag="0"/>
      <psa03 value="0.3706493464" flag="0"/>
      <psa10 value="0.0281431123" flag="0"/>
      <psa30 value="0.0018607849" flag="0"/>
    </comp>
    <comp name="--.HHN">
      <acc value="0.4971905764" flag="0"/>
      <vel value="0.1525325153" flag="0"/>
      <psa03 value="1.0108460657" flag="0"/>
      <psa10 value="0.1190394510" flag="0"/>
      <psa30 value="0.0051226798" flag="0"/>
    </comp>
  </station>
  <station code="CSFT" name="CSFT" netid="IV" insttype="" commtype="DIG" lat="40.8292" lon="14.1396">
    <comp name="--.HHE">
      <acc value="0.5143307004" flag="0"/>
      <vel value="0.1827870275" flag="0"/>
      <psa03 value="1.0007741470" flag="0"/>
      <psa10 value="0.0311388675" flag="0"/>
      <psa30 value="0.0040953010" flag="0"/>
    </comp>
    <comp name="--.HHN">
      <acc value="0.6993972093" flag="0"/>
      <vel value="0.2126529823" flag="0"/>
      <psa03 value="1.3030072537" flag="0"/>
      <psa10 value="0.0375915154" flag="0"/>
      <psa30 value="0.0040338589" flag="0"/>
    </comp>
    <comp name="--.HHZ">
      <acc value="0.2241506723" flag="0"/>
      <vel value="0.0511813801" flag="0"/>
      <psa03 value="0.1986125718" flag="0"/>
      <psa10 value="0.0131464698" flag="0"/>
      <psa30 value="0.0016251877" flag="0"/>
    </comp>
  </station>
  <station code="CSOB" name="CSOB" netid="IV" insttype="" commtype="DIG" lat="40.8265" lon="14.144">
    <comp name="--.HHE">
      <acc value="0.2008582227" flag="0"/>
      <vel value="0.0606986687" flag="0"/>
