<?xml version="1.0" encoding="UTF-8" standalone="yes"?>
<!DOCTYPE earthquake SYSTEM "stationlist.dtd">
<stationlist created="" xmlns="ch.ethz.sed.shakemap.usgs.xml">
  <station code="KARP" name="KARP" netid="GE" source="GFZ" insttype="STS-2/N" lat="35.5471" lon="27.1611">
    <comp name="--.HHE">
      <acc value="0.0565716309" flag="0"/>
      <vel value="0.0236690327" flag="0"/>
      <psa03 value="0.1374064522" flag="0"/>
      <psa10 value="0.0141258698" flag="0"/>
      <psa30 value="0.0009856342" flag="0"/>
    </comp>
    <comp name="--.HHN">
      <acc value="0.0521232928" flag="0"/>
      <vel value="0.0214799718" flag="0"/>
      <psa03 value="0.0911113983" flag="0"/>
      <psa10 value="0.0184396616" flag="0"/>
      <psa30 value="0.0010264618" flag="0"/>
    </comp>
    <comp name="--.HHZ">
      <acc value="0.0303215238" flag="0"/>
      <vel value="0.0094442288" flag="0"/>
      <psa03 value="0.0492507713" flag="0"/>
      <psa10 value="0.0073947013" flag="0"/>
      <psa30 value="0.0003201468" flag="0"/>
    </comp>
  </station>
  <station code="STIA" name="STIA" netid="HC" source="NOA" insttype="120" lat="35.2021" lon="26.0909">
    <comp name="--.HHE">
      <acc value="0.0226893856" flag="0"/>
      <vel value="0.0072803380" flag="0"/>
      <psa03 value="0.0390073389" flag="0"/>
      <psa10 value="0.0045298927" flag="0"/>
      <psa30 value="0.0002195143" flag="0"/>
    </comp>
    <comp name="--.HHN">
      <acc value="0.0246849643" flag="0"/>
      <vel value="0.0086031201" flag="0"/>
      <psa03 value="0.0553993531" flag="0"/>
      <psa10 value="0.0046103332" flag="0"/>
      <psa30 value="0.0003009750" flag="0"/>
    </comp>
    <comp name="--.HHZ">
      <acc value="0.0285212508" flag="0"/>
      <vel value="0.0065033139" flag="0"/>
      <psa03 value="0.0328372829" flag="0"/>
      <psa10 value="0.0022876188" flag="0"/>
      <psa30 value="0.0001732057" flag="0"/>
    </comp>
  </station>
  <station code="KARP" name="KARP" netid="HL" source="NOA" insttype="120" lat="35.5471" lon="27.1611">
    <comp name="--.HHE">
      <acc value="0.0546098451" flag="0"/>
      <vel value="0.0233077141" flag="0"/>
      <psa03 value="0.1342047585" flag="0"/>
      <psa10 value="0.0140230175" flag="0"/>
      <psa30 value="0.0009718723" flag="0"/>
    </comp>
    <comp name="--.HHN">
      <acc value="0.0482523721" flag="0"/>
      <vel value="0.0209579313" flag="0"/>
      <psa03 value="0.0896873468" flag="0"/>
      <psa10 value="0.0183173645" flag="0"/>
      <psa30 value="0.0010152355" flag="0"/>
    </comp>
    <comp name="--.HHZ">
      <acc value="0.0273450850" flag="0"/>
      <vel value="0.0090363528" flag="0"/>
      <psa03 value="0.0477685470" flag="0"/>
      <psa10 value="0.0073486266" flag="0"/>
      <psa30 value="0.0003167723" flag="0"/>
    </comp>
  </station>
</stationlist>
