<?xml version="1.0" encoding="UTF-8" standalone="yes"?>
<!DOCTYPE earthquake SYSTEM "stationlist.dtd">
<stationlist created="" xmlns="ch.ethz.sed.shakemap.usgs.xml">
  <station code="ARPRA" name="ARPRA" netid="KO" insttype="CMG-5T" lat="39.0929" lon="38.3356">
    <comp name="--.HNE">
      <acc value="0.0267261125" flag="0"/>
      <vel value="0.0119556128" flag="0"/>
      <psa03 value="0.0703709589" flag="0"/>
      <psa10 value="0.0079652834" flag="0"/>
      <psa30 value="0.0014677545" flag="0"/>
    </comp>
    <comp name="--.HNN">
      <acc value="0.0218442481" flag="0"/>
      <vel value="0.0110051106" flag="0"/>
      <psa03 value="0.0530422051" flag="0"/>
      <psa10 value="0.0063719851" flag="0"/>
      <psa30 value="0.0006215040" flag="0"/>
    </comp>
    <comp name="--.HNZ">
      <acc value="0.0117541028" flag="0"/>
      <vel value="0.0047232573" flag="0"/>
      <psa03 value="0.0320642822" flag="0"/>
      <psa10 value="0.0043961226" flag="0"/>
      <psa30 value="0.0004178249" flag="0"/>
    </comp>
  </station>
  <station code="SVRC" name="SVRC" netid="KO" insttype="CMG-3T" lat="38.3775" lon="39.306">
    <comp name="--.HHN">
      <acc value="0.0270382849" flag="0"/>
      <vel value="0.0146211447" flag="0"/>
      <psa03 value="0.0771097254" flag="0"/>
      <psa10 value="0.0053221731" flag="0"/>
      <psa30 value="0.0009511235" flag="0"/>
    </comp>
  </station>
  <station code="URFA" name="URFA" netid="KO" insttype="CMG-3ESP" lat="37.4409" lon="38.8213">
    <comp name="--.HHE">
      <acc value="0.0111822686" flag="0"/>
      <vel value="0.0039780014" flag="0"/>
      <psa03 value="0.0122305985" flag="0"/>
      <psa10 value="0.0038876270" flag="0"/>
      <psa30 value="0.0012331155" flag="0"/>
    </comp>
    <comp name="--.HHZ">
      <acc value="0.0103623547" flag="0"/>
      <vel value="0.0015993250" flag="0"/>
      <psa03 value="0.0063734549" flag="0"/>
      <psa10 value="0.0017167577" flag="0"/>
      <psa30 value="0.0007644881" flag="0"/>
    </comp>
  </station>
</stationlist>
