<?xml version="1.0" encoding="UTF-8" standalone="yes"?>
<!DOCTYPE earthquake SYSTEM "stationlist.dtd">
<stationlist created="" xmlns="ch.ethz.sed.shakemap.usgs.xml">
  <station code="KRL1" name="KRL1" netid="HI" insttype="CMG-5TD,ACCELEROMETER,GURALP" lat="37.7951" lon="26.7065">
    <comp name="--.HNE">
      <acc value="0.1416447486" flag="0"/>
      <vel value="0.0651804804" flag="0"/>
      <psa03 value="0.1780649015" flag="0"/>
      <psa10 value="0.0294960290" flag="0"/>
      <psa30 value="0.0023639782" flag="0"/>
    </comp>
    <comp name="--.HNN">
      <acc value="0.0966077681" flag="0"/>
      <vel value="0.0224411396" flag="0"/>
      <psa03 value="0.1048921031" flag="0"/>
      <psa10 value="0.0263984427" flag="0"/>
      <psa30 value="0.0015388373" flag="0"/>
    </comp>
    <comp name="--.HNZ">
      <acc value="0.0713921828" flag="0"/>
      <vel value="0.0207098572" flag="0"/>
      <psa03 value="0.0669553782" flag="0"/>
      <psa10 value="0.0160679566" flag="0"/>
      <psa30 value="0.0009690714" flag="0"/>
    </comp>
  </station>
  <station code="EAG2" name="EAG2" netid="HL" insttype="SMART24" lat="38.5438" lon="26.1079">
    <comp name="--.HHE">
      <acc value="0.1187691889" flag="0"/>
      <vel value="0.0645443811" flag="0"/>
      <psa03 value="0.3986702094" flag="0"/>
      <psa10 value="0.0206663720" flag="0"/>
      <psa30 value="0.0016567318" flag="0"/>
    </comp>
    <comp name="--.HHN">
      <acc value="0.1547486327" flag="0"/>
      <vel value="0.0740093337" flag="0"/>
      <psa03 value="0.5851291658" flag="0"/>
      <psa10 value="0.0232412267" flag="0"/>
      <psa30 value="0.0020326267" flag="0"/>
    </comp>
    <comp name="--.HHZ">
      <acc value="0.0633821048" flag="0"/>
      <vel value="0.0215033120" flag="0"/>
      <psa03 value="0.1772881422" flag="0"/>
      <psa10 value="0.0055101891" flag="0"/>
      <psa30 value="0.0005085694" flag="0"/>
    </comp>
  </station>
  <station code="CHOS" name="CHOS" netid="HT" insttype="100" lat="38.3869" lon="26.0506">
    <comp name="--.HHN">
      <acc value="0.0207607347" flag="0"/>
      <vel value="0.0060397013" flag="0"/>
      <psa03 value="0.0417220708" flag="0"/>
      <psa10 value="0.0032065593" flag="0"/>
      <psa30 value="0.0005557373" flag="0"/>
    </comp>
    <comp name="--.HHZ">
      <acc value="0.0077190909" flag="0"/>
      <vel value="0.0031027073" flag="0"/>
      <psa03 value="0.0187881213" flag="0"/>
      <psa10 value="0.0027246511" flag="0"/>
      <psa30 value="0.0003443210" flag="0"/>
    </comp>
    <comp name="--.HHE">
      <acc value="0.0321764860" flag="0"/>
      <vel value="0.0093547317" flag="0"/>
      <psa03 value="0.0618251804" flag="0"/>
      <psa10 value="0.0044193065" flag="0"/>
      <psa30 value="0.0006005192" flag="0"/>
    </comp>
  </station>
</stationlist>
