<?xml version="1.0" encoding="UTF-8" standalone="yes"?>
<!DOCTYPE earthquake SYSTEM "stationlist.dtd">
<stationlist created="" xmlns="ch.ethz.sed.shakemap.usgs.xml">
  <station code="AKMS" name="AKMS" netid="CQ" insttype="Trillium120P" lat="35.018" lon="32.335">
    <comp name="--.HHE">
      <acc value="0.0635959104" flag="0"/>
      <vel value="0.0213900046" flag="0"/>
      <psa03 value="0.0752141247" flag="0"/>
      <psa10 value="0.0149854218" flag="0"/>
      <psa30 value="0.0008929090" flag="0"/>
    </comp>
    <comp name="--.HHZ">
      <acc value="0.0391893938" flag="0"/>
      <vel value="0.0134231964" flag="0"/>
      <psa03 value="0.0595400663" flag="0"/>
      <psa10 value="0.0064062728" flag="0"/>
      <psa30 value="0.0007134578" flag="0"/>
    </comp>
    <comp name="--.HHN">
      <acc value="0.0508552154" flag="0"/>
      <vel value="0.0154253376" flag="0"/>
      <psa03 value="0.0487672598" flag="0"/>
      <psa10 value="0.0177532923" flag="0"/>
      <psa30 value="0.0012700144" flag="0"/>
    </comp>
  </station>
  <station code="ASGA" name="ASGA" netid="CQ" insttype="Trillium120P" lat="34.786" lon="33.248">
    <comp name="--.HHE">
      <acc value="0.0931323911" flag="0"/>
      <vel value="0.0217000920" flag="0"/>
      <psa03 value="0.1033352255" flag="0"/>
      <psa10 value="0.0127205663" flag="0"/>
      <psa30 value="0.0009766528" flag="0"/>
    </comp>
    <comp name="--.HHZ">
      <acc value="0.0591570571" flag="0"/>
      <vel value="0.0138020384" flag="0"/>
      <psa03 value="0.0602505386" flag="0"/>
      <psa10 value="0.0092775363" flag="0"/>
      <psa30 value="0.0007769579" flag="0"/>
    </comp>
    <comp name="--.HHN">
      <acc value="0.0772718043" flag="0"/>
      <vel value="0.0218577072" flag="0"/>
      <psa03 value="0.1412786429" flag="0"/>
      <psa10 value="0.0119802191" flag="0"/>
      <psa30 value="0.0014532522" flag="0"/>
    </comp>
  </station>
  <station code="ATHA" name="ATHA" netid="CQ" insttype="" lat="35.141" lon="33.396">
    <comp name="--.HHN">
      <acc value="0.0242552619" flag="0"/>
      <vel value="0.0157122849" flag="0"/>
      <psa03 value="0.0628428028" flag="0"/>
      <psa10 value="0.0229118290" flag="0"/>
      <psa30 value="0.0017842246" flag="0"/>
    </comp>
    <comp name="--.HHE">
      <acc value="0.0165262910" flag="0"/>
      <vel value="0.0140974088" flag="0"/>
      <psa03 value="0.0602273845" flag="0"/>
      <psa10 value="0.0180450015" flag="0"/>
      <psa30 value="0.0019863043" flag="0"/>
    </comp>
    <comp name="--.HHZ">
      <acc value="0.0100847663" flag="0"/>
      <vel value="0.0081269939" flag="0"/>
      <psa03 value="0.0316201595" flag="0"/>
      <psa10 value="0.0127578857" flag="0"/>
      <psa30 value="0.0015091758" flag="0"/>
    </comp>
  </station>
  <station code="MVOU" name="MVOU" netid="CQ" insttype="Trillium120P" lat="35.016" lon="33.632">
    <comp name="--.HHE">
      <acc value="0.0134343203" flag="0"/>
      <vel value="0.0057486081" flag="0"/>
      <psa03 value="0.0229434774" flag="0"/>
      <psa10 value="0.0048524456" flag="0"/>
      <psa30 value="0.0003591593" flag="0"/>
    </comp>
    <comp name="--.HHN">
      <acc value="0.0091919771" flag="0"/>
      <vel value="0.0047969918" flag="0"/>
      <psa03 value="0.0246772821" flag="0"/>
      <psa10 value="0.0059308809" flag="0"/>
      <psa30 value="0.0003904095" flag="0"/>
    </comp>
    <comp name="--.HHZ">
      <acc value="0.0070252020" flag="0"/>
      <vel value="0.0032507710" flag="0"/>
      <psa03 value="0.0133068509" flag="0"/>
      <psa10 value="0.0026153709" flag="0"/>
      <psa30 value="0.0001879637" flag="0"/>
    </comp>
  </station>
  <station code="NATA" name="NATA" netid="CQ" insttype="" lat="34.7789" lon="32.5699">
    <comp name="--.HHZ">
      <acc value="0.4301456724" flag="0"/>
      <vel value="0.0933917077" flag="0"/>
      <psa03 value="0.3110554277" flag="0"/>
      <psa10 value="0.0648188483" flag="0"/>
      <psa30 value="0.0047552448" flag="0"/>
    </comp>
    <comp name="--.HHE">
      <acc value="0.4391437181" flag="0"/>
      <vel value="0.1725284984" flag="0"/>
      <psa03 value="0.7918298672" flag="0"/>
      <psa10 value="0.1889204963" flag="0"/>
      <psa30 value="0.0111524478" flag="0"/>
    </comp>
    <comp name="--.HHN">
      <acc value="0.2927489421" flag="0"/>
      <vel value="0.1161367209" flag="0"/>
      <psa03 value="0.3980656669" flag="0"/>
      <psa10 value="0.1422738638" flag="0"/>
      <psa30 value="0.0085462556" flag="0"/>
    </comp>
  </station>
  <station code="XYLS" name="XYLS" netid="CQ" insttype="120QA" lat="35.014" lon="33.0493">
    <comp name="--.HHZ">
      <acc value="0.0882514333" flag="0"/>
      <vel value="0.0259252233" flag="0"/>
      <psa03 value="0.0976253765" flag="0"/>
      <psa10 value="0.0215529976" flag="0"/>
      <psa30 value="0.0013238236" flag="0"/>
    </comp>
  </station>
</stationlist>
