<?xml version="1.0" encoding="UTF-8" standalone="yes"?>
<!DOCTYPE earthquake SYSTEM "stationlist.dtd">
<stationlist created="" xmlns="ch.ethz.sed.shakemap.usgs.xml">
  <station code="BASM" name="BASM" netid="KO" insttype="CMG-5T" commtype="DIG" lat="37.9194" lon="30.035">
    <comp name="--.HNZ">
      <acc value="0.0092939300" flag="0"/>
      <vel value="0.0026021571" flag="0"/>
      <psa03 value="0.0064167555" flag="0"/>
      <psa10 value="0.0032061860" flag="0"/>
      <psa30 value="0.0001692979" flag="0"/>
    </comp>
    <comp name="--.HNE">
      <acc value="0.0062032233" flag="0"/>
      <vel value="0.0048651970" flag="0"/>
      <psa03 value="0.0148892243" flag="0"/>
      <psa10 value="0.0053329126" flag="0"/>
      <psa30 value="0.0005365035" flag="0"/>
    </comp>
    <comp name="--.HNN">
      <acc value="0.0078235459" flag="0"/>
      <vel value="0.0060310549" flag="0"/>
      <psa03 value="0.0137127195" flag="0"/>
      <psa10 value="0.0053033076" flag="0"/>
      <psa30 value="0.0004129387" flag="0"/>
    </comp>
  </station>
  <station code="ELL" name="ELL" netid="KO" insttype="CMG-3T" commtype="DIG" lat="36.7483" lon="29.9085">
    <comp name="--.HHZ">
      <acc value="0.0086807860" flag="0"/>
      <vel value="0.0033379839" flag="0"/>
      <psa03 value="0.0047881286" flag="0"/>
      <psa10 value="0.0041197456" flag="0"/>
      <psa30 value="0.0003720656" flag="0"/>
    </comp>
    <comp name="--.HHN">
      <acc value="0.0131768051" flag="0"/>
      <vel value="0.0077007707" flag="0"/>
      <psa03 value="0.0099002533" flag="0"/>
      <psa10 value="0.0109403620" flag="0"/>
      <psa30 value="0.0009076468" flag="0"/>
    </comp>
  </station>
  <station code="SEYD" name="SEYD" netid="KO" insttype="CMG-5T" commtype="DIG" lat="37.4056" lon="31.8379">
    <comp name="--.HNZ">
      <acc value="0.0080327982" flag="0"/>
      <vel value="0.0032175688" flag="0"/>
      <psa03 value="0.0103579487" flag="0"/>
      <psa10 value="0.0025240489" flag="0"/>
      <psa30 value="0.0001909986" flag="0"/>
    </comp>
    <comp name="--.HNN">
      <acc value="0.0097517985" flag="0"/>
      <vel value="0.0050865194" flag="0"/>
      <psa03 value="0.0187876657" flag="0"/>
      <psa10 value="0.0041203095" flag="0"/>
      <psa30 value="0.0003305702" flag="0"/>
    </comp>
    <comp name="--.HNE">
      <acc value="0.0108915012" flag="0"/>
      <vel value="0.0054430031" flag="0"/>
      <psa03 value="0.0309287859" flag="0"/>
      <psa10 value="0.0024902509" flag="0"/>
      <psa30 value="0.0002588766" flag="0"/>
    </comp>
  </station>
  <station code="SUTC" name="SUTC" netid="KO" insttype="CMG-3T" commtype="DIG" lat="37.4765" lon="30.9997">
    <comp name="--.HHE">
      <acc value="0.0171973223" flag="0"/>
      <vel value="0.0077339742" flag="0"/>
      <psa03 value="0.0277209102" flag="0"/>
      <psa10 value="0.0081414532" flag="0"/>
      <psa30 value="0.0004055436" flag="0"/>
    </comp>
    <comp name="--.HHN">
      <acc value="0.0117526097" flag="0"/>
      <vel value="0.0054826098" flag="0"/>
      <psa03 value="0.0267667087" flag="0"/>
      <psa10 value="0.0123020509" flag="0"/>
      <psa30 value="0.0004364713" flag="0"/>
    </comp>
    <comp name="--.HHZ">
      <acc value="0.0089042278" flag="0"/>
      <vel value="0.0052328881" flag="0"/>
      <psa03 value="0.0146389046" flag="0"/>
      <psa10 value="0.0105633388" flag="0"/>
      <psa30 value="0.0003292966" flag="0"/>
    </comp>
  </station>
</stationlist>
