<?xml version="1.0" encoding="UTF-8" standalone="yes"?>
<!DOCTYPE earthquake SYSTEM "stationlist.dtd">
<stationlist created="" xmlns="ch.ethz.sed.shakemap.usgs.xml">
  <station code="BLY" name="BLY" netid="MN" insttype="" lat="44.7488" lon="17.1839">
    <comp name="--.HHE">
      <acc value="0.0047139621" flag="0"/>
      <vel value="0.0018019364" flag="0"/>
      <psa03 value="0.0117564534" flag="0"/>
      <psa10 value="0.0020478951" flag="0"/>
      <psa30 value="0.0001340722" flag="0"/>
    </comp>
    <comp name="--.HHN">
      <acc value="0.0036733247" flag="0"/>
      <vel value="0.0019895847" flag="0"/>
      <psa03 value="0.0094533145" flag="0"/>
      <psa10 value="0.0015708422" flag="0"/>
      <psa30 value="0.0001358846" flag="0"/>
    </comp>
    <comp name="--.HHZ">
      <acc value="0.0032902953" flag="0"/>
      <vel value="0.0012567349" flag="0"/>
      <psa03 value="0.0074220958" flag="0"/>
      <psa10 value="0.0012705159" flag="0"/>
      <psa30 value="0.0001067189" flag="0"/>
    </comp>
  </station>
</stationlist>
