<stationlist created="1777600499">
	<station code="ACB" name="ACB" netid="CH" source="Switzerland Seismological Network" insttype="" lat="47.58772" lon="8.25474">
		<comp name="--.HGE" depth="0.0">
			<acc value="0.0494378500219495" flag="0"/>
			<vel value="0.0201993399296392" flag="0"/>
			<psa03 value="0.103264674111143" flag="0"/>
			<psa10 value="0.00897525300396913" flag="0"/>
			<psa30 value="0.000755270605887101" flag="0"/>
		</comp>
		<comp name="--.HGN" depth="0.0">
			<acc value="0.134423923100584" flag="0"/>
			<vel value="0.0394797610577379" flag="0"/>
			<psa03 value="0.184969128297058" flag="0"/>
			<psa10 value="0.00989635527245825" flag="0"/>
			<psa30 value="0.000677686872595136" flag="0"/>
		</comp>
		<comp name="--.HGZ" depth="0.0">
			<acc value="0.0462112433377864" flag="0"/>
			<vel value="0.0159341865683604" flag="0"/>
			<psa03 value="0.085531119141935" flag="0"/>
			<psa10 value="0.00370971785997694" flag="0"/>
			<psa30 value="0.000305898180919772" flag="0"/>
		</comp>
	</station>
	<station code="AIGLE" name="AIGLE" netid="CH" source="Switzerland Seismological Network" insttype="" lat="46.34176" lon="6.95295">
		<comp name="--.HGE" depth="0.0">
			<acc value="0.0217458230116438" flag="0"/>
			<vel value="0.00692815471623749" flag="0"/>
			<psa03 value="0.0300963973844582" flag="0"/>
			<psa10 value="0.00291781282202995" flag="0"/>
			<psa30 value="0.000322173113221099" flag="0"/>
		</comp>
		<comp name="--.HGN" depth="0.0">
			<acc value="0.0118636865968179" flag="0"/>
			<vel value="0.00428618898578972" flag="0"/>
			<psa03 value="0.0201187533415794" flag="0"/>
			<psa10 value="0.00470617082320415" flag="0"/>
			<psa30 value="0.000228651943944162" flag="0"/>
		</comp>
		<comp name="--.HGZ" depth="0.0">
			<acc value="0.0149400349504252" flag="0"/>
			<vel value="0.00475526144313183" flag="0"/>
			<psa03 value="0.0226873857404748" flag="0"/>
			<psa10 value="0.00311652395441766" flag="0"/>
			<psa30 value="0.000177192688667059" flag="0"/>
		</comp>
	</station>
	<station code="BALST" name="BALST" netid="CH" source="Switzerland Seismological Network" insttype="" lat="47.33599" lon="7.69485">
		<comp name="--.HGE" depth="0.0">
			<acc value="0.0134636671943856" flag="0"/>
			<vel value="0.00440525526775671" flag="0"/>
			<psa03 value="0.0240837048022412" flag="0"/>
			<psa10 value="0.00232491963951728" flag="0"/>
			<psa30 value="0.000118747944593722" flag="0"/>
		</comp>
		<comp name="--.HGN" depth="0.0">
			<acc value="0.0135335822740219" flag="0"/>
			<vel value="0.00438908273934618" flag="0"/>
			<psa03 value="0.0181717754055265" flag="0"/>
			<psa10 value="0.0034996941031847" flag="0"/>
			<psa30 value="0.000248082397782893" flag="0"/>
		</comp>
		<comp name="--.HGZ" depth="0.0">
			<acc value="0.0140984061919512" flag="0"/>
			<vel value="0.0048283136360304" flag="0"/>
			<psa03 value="0.014176117483629" flag="0"/>
			<psa10 value="0.00188009599244414" flag="0"/>
			<psa30 value="0.000130374339785061" flag="0"/>
		</comp>
	</station>
	<station code="BIBA" name="BIBA" netid="CH" source="Switzerland Seismological Network" insttype="" lat="46.30255" lon="7.93038">
		<comp name="--.HGE" depth="0.0">
			<acc value="0.120113789627522" flag="0"/>
			<vel value="0.0213372716818425" flag="0"/>
			<psa03 value="0.0878717585725713" flag="0"/>
			<psa10 value="0.0033498072207879" flag="0"/>
			<psa30 value="0.000247897567830707" flag="0"/>
		</comp>
		<comp name="--.HGN" depth="0.0">
			<acc value="0.0873914649808498" flag="0"/>
			<vel value="0.0161543682502064" flag="0"/>
			<psa03 value="0.0794298660055768" flag="0"/>
			<psa10 value="0.00337001262179903" flag="0"/>
			<psa30 value="0.000297108562192619" flag="0"/>
		</comp>
		<comp name="--.HGZ" depth="0.0">
			<acc value="0.112015796085986" flag="0"/>
			<vel value="0.0184472907178442" flag="0"/>
			<psa03 value="0.0447994677448605" flag="0"/>
			<psa10 value="0.00271182362938156" flag="0"/>
			<psa30 value="0.000329131985670552" flag="0"/>
		</comp>
	</station>
	<station code="BLOTZ" name="BLOTZ" netid="CH" source="Switzerland Seismological Network" insttype="" lat="47.620722" lon="7.44">
		<comp name="SF.HGE" depth="1.0">
			<acc value="0.0495863310040905" flag="0"/>
			<vel value="0.0102785303720159" flag="0"/>
			<psa03 value="0.0476225505936263" flag="0"/>
			<psa10 value="0.00241919736932951" flag="0"/>
			<psa30 value="0.000198345300860986" flag="0"/>
		</comp>
		<comp name="SF.HGN" depth="1.0">
			<acc value="0.0295829594490293" flag="0"/>
			<vel value="0.007366334996369" flag="0"/>
			<psa03 value="0.028777059984807" flag="0"/>
			<psa10 value="0.00206557167773445" flag="0"/>
			<psa30 value="0.000140677613472319" flag="0"/>
		</comp>
		<comp name="SF.HGZ" depth="1.0">
			<acc value="0.0172639617146821" flag="0"/>
			<vel value="0.00338304443709199" flag="0"/>
			<psa03 value="0.0136051096050954" flag="0"/>
			<psa10 value="0.000676064551581896" flag="0"/>
			<psa30 value="0.000104679050358561" flag="0"/>
		</comp>
	</station>
	<station code="BNALP" name="BNALP" netid="CH" source="Switzerland Seismological Network" insttype="" lat="46.87034" lon="8.4249">
		<comp name="--.HGE" depth="0.0">
			<acc value="0.213240770133624" flag="0"/>
			<vel value="0.0561429271169179" flag="0"/>
			<psa03 value="0.183785841576847" flag="0"/>
			<psa10 value="0.00917324080718008" flag="0"/>
			<psa30 value="0.00137720842079739" flag="0"/>
		</comp>
		<comp name="--.HGN" depth="0.0">
			<acc value="0.166075869392133" flag="0"/>
			<vel value="0.0368984049996406" flag="0"/>
			<psa03 value="0.205443380448844" flag="0"/>
			<psa10 value="0.00844240176769912" flag="0"/>
			<psa30 value="0.000666919440557122" flag="0"/>
		</comp>
		<comp name="--.HGZ" depth="0.0">
			<acc value="0.201317855596518" flag="0"/>
			<vel value="0.0412441283662027" flag="0"/>
			<psa03 value="0.130506676676656" flag="0"/>
			<psa10 value="0.0079720615474571" flag="0"/>
			<psa30 value="0.000816301992667993" flag="0"/>
		</comp>
	</station>
	<station code="BOBI" name="BOBI" netid="CH" source="Switzerland Seismological Network" insttype="" lat="47.54631" lon="8.33985">
		<comp name="SF.HGE" depth="1.0">
			<acc value="0.0569796547218272" flag="0"/>
			<vel value="0.0177437709870823" flag="0"/>
			<psa03 value="0.0648300186290551" flag="0"/>
			<psa10 value="0.00674201053135584" flag="0"/>
			<psa30 value="0.000693960086031531" flag="0"/>
		</comp>
		<comp name="SF.HGN" depth="1.0">
			<acc value="0.0488533130260139" flag="0"/>
			<vel value="0.0158766806373784" flag="0"/>
			<psa03 value="0.0743002241083535" flag="0"/>
			<psa10 value="0.0079835279320412" flag="0"/>
			<psa30 value="0.00043924628541075" flag="0"/>
		</comp>
		<comp name="SF.HGZ" depth="1.0">
			<acc value="0.0260061363289035" flag="0"/>
			<vel value="0.00711068508002236" flag="0"/>
			<psa03 value="0.0486577389616276" flag="0"/>
			<psa10 value="0.00220245082343275" flag="0"/>
			<psa30 value="0.000190236208986007" flag="0"/>
		</comp>
	</station>
	<station code="BOURR" name="BOURR" netid="CH" source="Switzerland Seismological Network" insttype="" lat="47.39364" lon="7.2301">
		<comp name="--.HGE" depth="0.0">
			<acc value="0.00276136235937695" flag="0"/>
			<vel value="0.00145199249945865" flag="0"/>
			<psa03 value="0.00875028343938334" flag="0"/>
			<psa10 value="0.00129059139378422" flag="0"/>
			<psa30 value="8.89701972244877e-05" flag="0"/>
		</comp>
		<comp name="--.HGN" depth="0.0">
			<acc value="0.00352428527218103" flag="0"/>
			<vel value="0.00139279639017334" flag="0"/>
			<psa03 value="0.00583427646615506" flag="0"/>
			<psa10 value="0.0013381427860154" flag="0"/>
			<psa30 value="0.000132221727790496" flag="0"/>
		</comp>
		<comp name="--.HGZ" depth="0.0">
			<acc value="0.00431823901773002" flag="0"/>
			<vel value="0.00195500378405502" flag="0"/>
			<psa03 value="0.0174855802088778" flag="0"/>
			<psa10 value="0.001126633696453" flag="0"/>
			<psa30 value="8.76412810650598e-05" flag="0"/>
		</comp>
	</station>
	<station code="CHASS" name="CHASS" netid="CH" source="Switzerland Seismological Network" insttype="" lat="47.1609" lon="7.12129">
		<comp name="--.HGE" depth="0.0">
			<acc value="0.0136816463593942" flag="0"/>
			<vel value="0.00484533384778911" flag="0"/>
			<psa03 value="0.0131134611503401" flag="0"/>
			<psa10 value="0.00207772951438315" flag="0"/>
			<psa30 value="0.000119415749249106" flag="0"/>
		</comp>
		<comp name="--.HGN" depth="0.0">
			<acc value="0.0276889807798597" flag="0"/>
			<vel value="0.00810569591951002" flag="0"/>
			<psa03 value="0.0310749309574899" flag="0"/>
			<psa10 value="0.00230833135312539" flag="0"/>
			<psa30 value="0.0001935302162604" flag="0"/>
		</comp>
		<comp name="--.HGZ" depth="0.0">
			<acc value="0.0115402882031934" flag="0"/>
			<vel value="0.00238778355789083" flag="0"/>
			<psa03 value="0.00805309988461534" flag="0"/>
			<psa10 value="0.00145170734036307" flag="0"/>
			<psa30 value="8.88985062772095e-05" flag="0"/>
		</comp>
	</station>
	<station code="DAVOX" name="DAVOX" netid="CH" source="Switzerland Seismological Network" insttype="" lat="46.7805" lon="9.87952">
		<comp name="--.HGE" depth="0.0">
			<acc value="0.00444803818222609" flag="0"/>
			<vel value="0.00136252885456487" flag="0"/>
			<psa03 value="0.0097641767766947" flag="0"/>
			<psa10 value="0.000554091412869174" flag="0"/>
			<psa30 value="8.19479091154225e-05" flag="0"/>
		</comp>
		<comp name="--.HGN" depth="0.0">
			<acc value="0.00503538211319669" flag="0"/>
			<vel value="0.0023447777871351" flag="0"/>
			<psa03 value="0.0105698668684742" flag="0"/>
			<psa10 value="0.000997462717633725" flag="0"/>
			<psa30 value="7.02169301726999e-05" flag="0"/>
		</comp>
		<comp name="--.HGZ" depth="0.0">
			<acc value="0.00533384819738557" flag="0"/>
			<vel value="0.0018645585243873" flag="0"/>
			<psa03 value="0.00958931753688814" flag="0"/>
			<psa10 value="0.000478283363612252" flag="0"/>
			<psa30 value="0.000104341371739191" flag="0"/>
		</comp>
	</station>
	<station code="DIX" name="DIX" netid="CH" source="Switzerland Seismological Network" insttype="" lat="46.081053" lon="7.408391">
		<comp name="--.HGE" depth="0.0">
			<acc value="0.0107244193175267" flag="0"/>
			<vel value="0.00218660681793931" flag="0"/>
			<psa03 value="0.0100433437076652" flag="0"/>
			<psa10 value="0.000632583409450833" flag="0"/>
			<psa30 value="8.05492487528645e-05" flag="0"/>
		</comp>
		<comp name="--.HGN" depth="0.0">
			<acc value="0.00929755561186755" flag="0"/>
			<vel value="0.00275545094425608" flag="0"/>
			<psa03 value="0.0102146981579905" flag="0"/>
			<psa10 value="0.000691555655918819" flag="0"/>
			<psa30 value="5.53991712250901e-05" flag="0"/>
		</comp>
		<comp name="--.HGZ" depth="0.0">
			<acc value="0.0115152181623246" flag="0"/>
			<vel value="0.00164704990746494" flag="0"/>
			<psa03 value="0.00562968674118329" flag="0"/>
			<psa10 value="0.000613207106337891" flag="0"/>
			<psa30 value="7.18016966143699e-05" flag="0"/>
		</comp>
	</station>
	<station code="FIESA" name="FIESA" netid="CH" source="Switzerland Seismological Network" insttype="" lat="46.43521" lon="8.11051">
		<comp name="--.HGE" depth="0.0">
			<acc value="0.0735515040535226" flag="0"/>
			<vel value="0.0138732111831978" flag="0"/>
			<psa03 value="0.0382465154147916" flag="0"/>
			<psa10 value="0.0105928589124354" flag="0"/>
			<psa30 value="0.000629098028824633" flag="0"/>
		</comp>
		<comp name="--.HGN" depth="0.0">
			<acc value="0.0708334258543812" flag="0"/>
			<vel value="0.0116150348491409" flag="0"/>
			<psa03 value="0.0407952701947607" flag="0"/>
			<psa10 value="0.0112429269762388" flag="0"/>
			<psa30 value="0.000732133239815967" flag="0"/>
		</comp>
		<comp name="--.HGZ" depth="0.0">
			<acc value="0.112968957856608" flag="0"/>
			<vel value="0.0193243471893665" flag="0"/>
			<psa03 value="0.0423118914968124" flag="0"/>
			<psa10 value="0.00703282495265606" flag="0"/>
			<psa30 value="0.00045216260980489" flag="0"/>
		</comp>
	</station>
	<station code="FUORN" name="FUORN" netid="CH" source="Switzerland Seismological Network" insttype="" lat="46.620334" lon="10.263551">
		<comp name="--.HGE" depth="0.0">
			<acc value="0.00225557676204893" flag="0"/>
			<vel value="0.000808610040502237" flag="0"/>
			<psa03 value="0.00641048521006086" flag="0"/>
			<psa10 value="0.000807943912943803" flag="0"/>
			<psa30 value="5.4653386143778e-05" flag="0"/>
		</comp>
		<comp name="--.HGN" depth="0.0">
			<acc value="0.00199661074427369" flag="0"/>
			<vel value="0.00125654511448095" flag="0"/>
			<psa03 value="0.00646744796792046" flag="0"/>
			<psa10 value="0.00118092873854634" flag="0"/>
			<psa30 value="9.64350732463659e-05" flag="0"/>
		</comp>
		<comp name="--.HGZ" depth="0.0">
			<acc value="0.0027924723162235" flag="0"/>
			<vel value="0.00136003358430226" flag="0"/>
			<psa03 value="0.00645667251451754" flag="0"/>
			<psa10 value="0.000974364292945701" flag="0"/>
			<psa30 value="7.10839797979995e-05" flag="0"/>
		</comp>
	</station>
	<station code="FUSIO" name="FUSIO" netid="CH" source="Switzerland Seismological Network" insttype="" lat="46.45481" lon="8.6629">
		<comp name="--.HGE" depth="0.0">
			<acc value="0.0875809337813609" flag="0"/>
			<vel value="0.0148197300217712" flag="0"/>
			<psa03 value="0.0641948463436834" flag="0"/>
			<psa10 value="0.00524792139905376" flag="0"/>
			<psa30 value="0.000507845673531383" flag="0"/>
		</comp>
		<comp name="--.HGN" depth="0.0">
			<acc value="0.104751912772222" flag="0"/>
			<vel value="0.0133452100255416" flag="0"/>
			<psa03 value="0.0721194598520787" flag="0"/>
			<psa10 value="0.00665795433803003" flag="0"/>
			<psa30 value="0.000344897769659458" flag="0"/>
		</comp>
		<comp name="--.HGZ" depth="0.0">
			<acc value="0.109331371426385" flag="0"/>
			<vel value="0.0218326754536453" flag="0"/>
			<psa03 value="0.0858875802555309" flag="0"/>
			<psa10 value="0.00572432295828456" flag="0"/>
			<psa30 value="0.000429593927239265" flag="0"/>
		</comp>
	</station>
	<station code="GIMEL" name="GIMEL" netid="CH" source="Switzerland Seismological Network" insttype="" lat="46.53364" lon="6.26545">
		<comp name="--.HGE" depth="0.0">
			<acc value="0.0134490743752034" flag="0"/>
			<vel value="0.00464933254769484" flag="0"/>
			<psa03 value="0.0269399278671667" flag="0"/>
			<psa10 value="0.0013456587526619" flag="0"/>
			<psa30 value="0.000106321476869811" flag="0"/>
		</comp>
		<comp name="--.HGN" depth="0.0">
			<acc value="0.0117934764894315" flag="0"/>
			<vel value="0.00329207559874971" flag="0"/>
			<psa03 value="0.0186151875918868" flag="0"/>
			<psa10 value="0.00203943197735916" flag="0"/>
			<psa30 value="0.000181436290097303" flag="0"/>
		</comp>
		<comp name="--.HGZ" depth="0.0">
			<acc value="0.00905916960289695" flag="0"/>
			<vel value="0.00253487186189863" flag="0"/>
			<psa03 value="0.0163936419879123" flag="0"/>
			<psa10 value="0.00124330474564951" flag="0"/>
			<psa30 value="0.000147956650360065" flag="0"/>
		</comp>
	</station>
	<station code="GRIMS" name="GRIMS" netid="CH" source="Switzerland Seismological Network" insttype="" lat="46.578146" lon="8.318864">
		<comp name="--.HGE" depth="0.0">
			<acc value="2.49055760988125" flag="0"/>
			<vel value="0.503392360892406" flag="0"/>
			<psa03 value="0.688469107699591" flag="0"/>
			<psa10 value="0.0608358513264776" flag="0"/>
			<psa30 value="0.00691761492472133" flag="0"/>
		</comp>
		<comp name="--.HGN" depth="0.0">
			<acc value="1.57895660654325" flag="0"/>
			<vel value="0.189578441653781" flag="0"/>
			<psa03 value="0.336376949988556" flag="0"/>
			<psa10 value="0.0222692264769656" flag="0"/>
			<psa30 value="0.00239549056449324" flag="0"/>
		</comp>
		<comp name="--.HGZ" depth="0.0">
			<acc value="1.65967415591224" flag="0"/>
			<vel value="0.224552497908859" flag="0"/>
			<psa03 value="0.472365750248247" flag="0"/>
			<psa10 value="0.0330380423581554" flag="0"/>
			<psa30 value="0.00460648724050803" flag="0"/>
		</comp>
	</station>
	<station code="GRYON" name="GRYON" netid="CH" source="Switzerland Seismological Network" insttype="" lat="46.25053" lon="7.11106">
		<comp name="--.HGE" depth="0.0">
			<acc value="0.00683123559087102" flag="0"/>
			<vel value="0.00239582824352405" flag="0"/>
			<psa03 value="0.0227555412971079" flag="0"/>
			<psa10 value="0.00131420272354347" flag="0"/>
			<psa30 value="0.000148076202550902" flag="0"/>
		</comp>
		<comp name="--.HGN" depth="0.0">
			<acc value="0.00775472036765328" flag="0"/>
			<vel value="0.0025118554254253" flag="0"/>
			<psa03 value="0.0106457807515645" flag="0"/>
			<psa10 value="0.00136487572882003" flag="0"/>
			<psa30 value="0.000135794282162966" flag="0"/>
		</comp>
		<comp name="--.HGZ" depth="0.0">
			<acc value="0.00850077165174627" flag="0"/>
			<vel value="0.00312236346281736" flag="0"/>
			<psa03 value="0.0146386871890953" flag="0"/>
			<psa10 value="0.00181168677316992" flag="0"/>
			<psa30 value="0.000129086728445562" flag="0"/>
		</comp>
	</station>
	<station code="HAUIG" name="HAUIG" netid="CH" source="Switzerland Seismological Network" insttype="" lat="47.66038" lon="7.70018">
		<comp name="--.HGE" depth="0.0">
			<acc value="0.0875585480268992" flag="0"/>
			<vel value="0.0237573761339683" flag="0"/>
			<psa03 value="0.0990008395696158" flag="0"/>
			<psa10 value="0.00437547907275288" flag="0"/>
			<psa30 value="0.000499061654134791" flag="0"/>
		</comp>
		<comp name="--.HGN" depth="0.0">
			<acc value="0.0830309556945762" flag="0"/>
			<vel value="0.0246249175579734" flag="0"/>
			<psa03 value="0.0784315238286069" flag="0"/>
			<psa10 value="0.00423677988461067" flag="0"/>
			<psa30 value="0.000343564426123564" flag="0"/>
		</comp>
		<comp name="--.HGZ" depth="0.0">
			<acc value="0.0456079186648572" flag="0"/>
			<vel value="0.00898344969173513" flag="0"/>
			<psa03 value="0.024454841367393" flag="0"/>
			<psa10 value="0.00167723521016173" flag="0"/>
			<psa30 value="0.00011356296569732" flag="0"/>
		</comp>
	</station>
	<station code="JAUN" name="JAUN" netid="CH" source="Switzerland Seismological Network" insttype="" lat="46.63395" lon="7.29096">
		<comp name="--.HGE" depth="0.0">
			<acc value="0.016110276008066" flag="0"/>
			<vel value="0.00457493631960134" flag="0"/>
			<psa03 value="0.0276818936854452" flag="0"/>
			<psa10 value="0.0013681724315824" flag="0"/>
			<psa30 value="0.00013246596271984" flag="0"/>
		</comp>
		<comp name="--.HGN" depth="0.0">
			<acc value="0.0142630185476474" flag="0"/>
			<vel value="0.00459603178501041" flag="0"/>
			<psa03 value="0.0199743414312707" flag="0"/>
			<psa10 value="0.00286036464137091" flag="0"/>
			<psa30 value="0.00017330385032103" flag="0"/>
		</comp>
		<comp name="--.HGZ" depth="0.0">
			<acc value="0.00881191598191439" flag="0"/>
			<vel value="0.00226884617040066" flag="0"/>
			<psa03 value="0.00995149908173275" flag="0"/>
			<psa10 value="0.00189073896311332" flag="0"/>
			<psa30 value="0.000128013115657539" flag="0"/>
		</comp>
	</station>
	<station code="LADOL" name="LADOL" netid="CH" source="Switzerland Seismological Network" insttype="" lat="46.43213" lon="6.13151">
		<comp name="--.HGE" depth="0.0">
			<acc value="0.00912908129550659" flag="0"/>
			<vel value="0.0032344788211615" flag="0"/>
			<psa03 value="0.0270486407980534" flag="0"/>
			<psa10 value="0.00237057071054842" flag="0"/>
			<psa30 value="0.000130573584754976" flag="0"/>
		</comp>
		<comp name="--.HGN" depth="0.0">
			<acc value="0.0114021445958194" flag="0"/>
			<vel value="0.00398944725921274" flag="0"/>
			<psa03 value="0.0324554520977708" flag="0"/>
			<psa10 value="0.00164466852153101" flag="0"/>
			<psa30 value="0.000179921827792267" flag="0"/>
		</comp>
		<comp name="--.HGZ" depth="0.0">
			<acc value="0.00518954000187613" flag="0"/>
			<vel value="0.00171664741992457" flag="0"/>
			<psa03 value="0.0157263230417091" flag="0"/>
			<psa10 value="0.00129059514403035" flag="0"/>
			<psa30 value="0.000134685315470282" flag="0"/>
		</comp>
	</station>
