<?xml version="1.0" encoding="UTF-8" standalone="yes"?>
<!DOCTYPE earthquake SYSTEM "stationlist.dtd">
<stationlist created="" xmlns="ch.ethz.sed.shakemap.usgs.xml">
  <station code="ACB" name="ACB" netid="CH" insttype="Trillium 240s_g2" lat="47.5877" lon="8.25474">
    <comp name="--.HHZ">
      <acc value="0.0461618854" flag="0"/>
      <vel value="0.0157395580" flag="0"/>
      <psa03 value="0.0847872974" flag="0"/>
      <psa10 value="0.0037946594" flag="0"/>
      <psa30 value="0.0002645030" flag="0"/>
    </comp>
    <comp name="--.HHE">
      <acc value="0.0566047809" flag="0"/>
      <vel value="0.0207281279" flag="0"/>
      <psa03 value="0.1225066764" flag="0"/>
      <psa10 value="0.0091065550" flag="0"/>
      <psa30 value="0.0007792011" flag="0"/>
    </comp>
    <comp name="--.HHN">
      <acc value="0.1336313259" flag="0"/>
      <vel value="0.0380196150" flag="0"/>
      <psa03 value="0.1690703500" flag="0"/>
      <psa10 value="0.0093301901" flag="0"/>
      <psa30 value="0.0006352347" flag="0"/>
    </comp>
  </station>
  <station code="AIGLE" name="AIGLE" netid="CH" insttype="Trillium 240s_g2" lat="46.3418" lon="6.95295">
    <comp name="--.HHN">
      <acc value="0.0117373603" flag="0"/>
      <vel value="0.0041755782" flag="0"/>
      <psa03 value="0.0209981604" flag="0"/>
      <psa10 value="0.0045161416" flag="0"/>
      <psa30 value="0.0002185476" flag="0"/>
    </comp>
    <comp name="--.HHE">
      <acc value="0.0215045203" flag="0"/>
      <vel value="0.0067224827" flag="0"/>
      <psa03 value="0.0288202221" flag="0"/>
      <psa10 value="0.0026028894" flag="0"/>
      <psa30 value="0.0003167095" flag="0"/>
    </comp>
    <comp name="--.HHZ">
      <acc value="0.0146199821" flag="0"/>
      <vel value="0.0045930223" flag="0"/>
      <psa03 value="0.0220485971" flag="0"/>
      <psa10 value="0.0030471870" flag="0"/>
      <psa30 value="0.0001714488" flag="0"/>
    </comp>
  </station>
  <station code="BALST" name="BALST" netid="CH" insttype="STS2_gen3" lat="47.336" lon="7.69485">
    <comp name="--.HHE">
      <acc value="0.0125570555" flag="0"/>
      <vel value="0.0040450547" flag="0"/>
      <psa03 value="0.0239273218" flag="0"/>
      <psa10 value="0.0022470028" flag="0"/>
      <psa30 value="0.0001112459" flag="0"/>
    </comp>
    <comp name="--.HHZ">
      <acc value="0.0137525645" flag="0"/>
      <vel value="0.0047136139" flag="0"/>
      <psa03 value="0.0139195040" flag="0"/>
      <psa10 value="0.0018333516" flag="0"/>
      <psa30 value="0.0001234511" flag="0"/>
    </comp>
    <comp name="--.HHN">
      <acc value="0.0133456089" flag="0"/>
      <vel value="0.0045187608" flag="0"/>
      <psa03 value="0.0173941759" flag="0"/>
      <psa10 value="0.0035959579" flag="0"/>
      <psa30 value="0.0002268882" flag="0"/>
    </comp>
  </station>
  <station code="BIBA" name="BIBA" netid="CH" insttype="EpiSensor ES-T" lat="46.3025" lon="7.93038">
    <comp name="--.HGZ">
      <acc value="0.1188258247" flag="0"/>
      <vel value="0.0182782809" flag="0"/>
      <psa03 value="0.0448667826" flag="0"/>
      <psa10 value="0.0027147732" flag="0"/>
      <psa30 value="0.0003280921" flag="0"/>
    </comp>
    <comp name="--.HGE">
      <acc value="0.1212515124" flag="0"/>
      <vel value="0.0212506754" flag="0"/>
      <psa03 value="0.0877457592" flag="0"/>
      <psa10 value="0.0033611042" flag="0"/>
      <psa30 value="0.0002470670" flag="0"/>
    </comp>
    <comp name="--.HGN">
      <acc value="0.0902522716" flag="0"/>
      <vel value="0.0160867101" flag="0"/>
      <psa03 value="0.0793982120" flag="0"/>
      <psa10 value="0.0033772432" flag="0"/>
      <psa30 value="0.0002930641" flag="0"/>
    </comp>
  </station>
  <station code="BNALP" name="BNALP" netid="CH" insttype="STS2_gen3" lat="46.8703" lon="8.4249">
    <comp name="--.HHZ">
      <acc value="0.1976556038" flag="0"/>
      <vel value="0.0405132079" flag="0"/>
      <psa03 value="0.1285731888" flag="0"/>
      <psa10 value="0.0079252856" flag="0"/>
      <psa30 value="0.0008155453" flag="0"/>
    </comp>
    <comp name="--.HHE">
      <acc value="0.2307933223" flag="0"/>
      <vel value="0.0553748632" flag="0"/>
      <psa03 value="0.1893508265" flag="0"/>
      <psa10 value="0.0090199706" flag="0"/>
      <psa30 value="0.0014051997" flag="0"/>
    </comp>
    <comp name="--.HHN">
      <acc value="0.1768878355" flag="0"/>
      <vel value="0.0377962847" flag="0"/>
      <psa03 value="0.2109247111" flag="0"/>
      <psa10 value="0.0096337902" flag="0"/>
      <psa30 value="0.0006737203" flag="0"/>
    </comp>
  </station>
  <station code="BOBI" name="BOBI" netid="CH" insttype="EpiSensor ES-T" lat="47.5463" lon="8.33992">
    <comp name="SF.HGE">
      <acc value="0.0567990436" flag="0"/>
      <vel value="0.0176775708" flag="0"/>
      <psa03 value="0.0649486375" flag="0"/>
      <psa10 value="0.0067373145" flag="0"/>
      <psa30 value="0.0006756209" flag="0"/>
    </comp>
    <comp name="SF.HGZ">
      <acc value="0.0260377869" flag="0"/>
      <vel value="0.0071030233" flag="0"/>
      <psa03 value="0.0487310212" flag="0"/>
      <psa10 value="0.0021976427" flag="0"/>
      <psa30 value="0.0001920141" flag="0"/>
    </comp>
    <comp name="SF.HGN">
      <acc value="0.0492674904" flag="0"/>
      <vel value="0.0157719678" flag="0"/>
      <psa03 value="0.0743109094" flag="0"/>
      <psa10 value="0.0079813252" flag="0"/>
      <psa30 value="0.0004333726" flag="0"/>
    </comp>
  </station>
  <station code="BOURR" name="BOURR" netid="CH" insttype="STS2.5" lat="47.3936" lon="7.2301">
    <comp name="--.HHE">
      <acc value="0.0027071335" flag="0"/>
      <vel value="0.0014356034" flag="0"/>
      <psa03 value="0.0086449893" flag="0"/>
      <psa10 value="0.0012467332" flag="0"/>
      <psa30 value="0.0000737314" flag="0"/>
    </comp>
    <comp name="--.HHZ">
      <acc value="0.0043175375" flag="0"/>
      <vel value="0.0019216407" flag="0"/>
      <psa03 value="0.0174061483" flag="0"/>
      <psa10 value="0.0011182150" flag="0"/>
      <psa30 value="0.0000800898" flag="0"/>
    </comp>
    <comp name="--.HHN">
      <acc value="0.0035444235" flag="0"/>
      <vel value="0.0013983237" flag="0"/>
      <psa03 value="0.0057342561" flag="0"/>
      <psa10 value="0.0013322676" flag="0"/>
      <psa30 value="0.0001110369" flag="0"/>
    </comp>
  </station>
  <station code="CHASS" name="CHASS" netid="CH" insttype="Trillium 240s_g2" lat="47.1609" lon="7.12129">
    <comp name="--.HHZ">
      <acc value="0.0110874339" flag="0"/>
      <vel value="0.0022873683" flag="0"/>
      <psa03 value="0.0079715816" flag="0"/>
      <psa10 value="0.0014472938" flag="0"/>
      <psa30 value="0.0000790787" flag="0"/>
    </comp>
    <comp name="--.HHE">
      <acc value="0.0131656852" flag="0"/>
      <vel value="0.0044522540" flag="0"/>
      <psa03 value="0.0134754983" flag="0"/>
      <psa10 value="0.0019613027" flag="0"/>
      <psa30 value="0.0001177746" flag="0"/>
    </comp>
    <comp name="--.HHN">
      <acc value="0.0273456191" flag="0"/>
      <vel value="0.0079546229" flag="0"/>
      <psa03 value="0.0297509220" flag="0"/>
      <psa10 value="0.0023188874" flag="0"/>
      <psa30 value="0.0001879226" flag="0"/>
    </comp>
  </station>
  <station code="DAGMA" name="DAGMA" netid="CH" insttype="Trillium Compact 120s" lat="47.2309" lon="8.01248">
    <comp name="--.HHN">
      <acc value="0.0428695832" flag="0"/>
      <vel value="0.0081313628" flag="0"/>
      <psa03 value="0.0212789420" flag="0"/>
      <psa10 value="0.0032714012" flag="0"/>
      <psa30 value="0.0001894622" flag="0"/>
    </comp>
    <comp name="--.HHZ">
      <acc value="0.0332665634" flag="0"/>
      <vel value="0.0071660474" flag="0"/>
      <psa03 value="0.0182382926" flag="0"/>
      <psa10 value="0.0024881739" flag="0"/>
      <psa30 value="0.0001600519" flag="0"/>
    </comp>
    <comp name="--.HHE">
      <acc value="0.0330281527" flag="0"/>
      <vel value="0.0087301417" flag="0"/>
      <psa03 value="0.0397925769" flag="0"/>
      <psa10 value="0.0030169464" flag="0"/>
      <psa30 value="0.0003409026" flag="0"/>
    </comp>
  </station>
  <station code="DAVOX" name="DAVOX" netid="CH" insttype="STS2.5" lat="46.7805" lon="9.87952">
    <comp name="--.HHN">
      <acc value="0.0052203937" flag="0"/>
      <vel value="0.0022955966" flag="0"/>
      <psa03 value="0.0101998283" flag="0"/>
      <psa10 value="0.0009609183" flag="0"/>
      <psa30 value="0.0000664270" flag="0"/>
    </comp>
    <comp name="--.HHE">
      <acc value="0.0048208697" flag="0"/>
      <vel value="0.0013534949" flag="0"/>
      <psa03 value="0.0098942319" flag="0"/>
      <psa10 value="0.0005621987" flag="0"/>
      <psa30 value="0.0000718921" flag="0"/>
    </comp>
    <comp name="--.HHZ">
      <acc value="0.0053536335" flag="0"/>
      <vel value="0.0018391021" flag="0"/>
      <psa03 value="0.0095489991" flag="0"/>
      <psa10 value="0.0004788255" flag="0"/>
      <psa30 value="0.0000792477" flag="0"/>
    </comp>
  </station>
  <station code="DIX" name="DIX" netid="CH" insttype="STS2.5" lat="46.0811" lon="7.40839">
    <comp name="--.HHN">
      <acc value="0.0096010901" flag="0"/>
      <vel value="0.0027884822" flag="0"/>
      <psa03 value="0.0101306684" flag="0"/>
      <psa10 value="0.0006863123" flag="0"/>
      <psa30 value="0.0000611404" flag="0"/>
    </comp>
    <comp name="--.HHE">
      <acc value="0.0113592743" flag="0"/>
      <vel value="0.0022110778" flag="0"/>
      <psa03 value="0.0098854371" flag="0"/>
      <psa10 value="0.0006199260" flag="0"/>
      <psa30 value="0.0000691913" flag="0"/>
    </comp>
    <comp name="--.HHZ">
      <acc value="0.0119585944" flag="0"/>
      <vel value="0.0016438566" flag="0"/>
      <psa03 value="0.0055690009" flag="0"/>
      <psa10 value="0.0006203770" flag="0"/>
      <psa30 value="0.0000561578" flag="0"/>
    </comp>
  </station>
  <station code="EMBD" name="EMBD" netid="CH" insttype="Trillium 40s" lat="46.2165" lon="7.83223">
    <comp name="--.HHZ">
      <acc value="0.0220254513" flag="0"/>
      <vel value="0.0113552547" flag="0"/>
      <psa03 value="0.0785380880" flag="0"/>
      <psa10 value="0.0036456842" flag="0"/>
      <psa30 value="0.0003048332" flag="0"/>
    </comp>
    <comp name="--.HHE">
      <acc value="0.0224340753" flag="0"/>
      <vel value="0.0085948786" flag="0"/>
      <psa03 value="0.0355330712" flag="0"/>
      <psa10 value="0.0018792326" flag="0"/>
      <psa30 value="0.0001988799" flag="0"/>
    </comp>
    <comp name="--.HHN">
      <acc value="0.0274253911" flag="0"/>
      <vel value="0.0067451874" flag="0"/>
      <psa03 value="0.0542649027" flag="0"/>
      <psa10 value="0.0022736761" flag="0"/>
      <psa30 value="0.0002329792" flag="0"/>
    </comp>
  </station>
  <station code="EMMET" name="EMMET" netid="CH" insttype="Trillium Compact 120s" lat="47.4376" lon="8.01358">
    <comp name="--.HHN">
      <acc value="0.0231805603" flag="0"/>
      <vel value="0.0083560171" flag="0"/>
      <psa03 value="0.0326454600" flag="0"/>
      <psa10 value="0.0064783997" flag="0"/>
      <psa30 value="0.0003626002" flag="0"/>
    </comp>
    <comp name="--.HHZ">
      <acc value="0.0199792266" flag="0"/>
      <vel value="0.0074836285" flag="0"/>
      <psa03 value="0.0670278116" flag="0"/>
      <psa10 value="0.0023400897" flag="0"/>
      <psa30 value="0.0002319151" flag="0"/>
    </comp>
    <comp name="--.HHE">
      <acc value="0.0230207018" flag="0"/>
      <vel value="0.0131852074" flag="0"/>
      <psa03 value="0.0452848380" flag="0"/>
      <psa10 value="0.0097782913" flag="0"/>
      <psa30 value="0.0006378837" flag="0"/>
    </comp>
  </station>
  <station code="FIESA" name="FIESA" netid="CH" insttype="STS2_gen2" lat="46.4352" lon="8.11051">
    <comp name="--.HHE">
      <acc value="0.0712485191" flag="0"/>
      <vel value="0.0133214690" flag="0"/>
      <psa03 value="0.0349816101" flag="0"/>
      <psa10 value="0.0110133749" flag="0"/>
      <psa30 value="0.0006259889" flag="0"/>
    </comp>
    <comp name="--.HHZ">
      <acc value="0.1035807178" flag="0"/>
      <vel value="0.0187782958" flag="0"/>
      <psa03 value="0.0410064202" flag="0"/>
      <psa10 value="0.0069423958" flag="0"/>
      <psa30 value="0.0004622651" flag="0"/>
    </comp>
    <comp name="--.HHN">
      <acc value="0.0765875321" flag="0"/>
      <vel value="0.0113853203" flag="0"/>
      <psa03 value="0.0411468745" flag="0"/>
      <psa10 value="0.0106265898" flag="0"/>
      <psa30 value="0.0006677737" flag="0"/>
    </comp>
  </station>
  <station code="FULLY" name="FULLY" netid="CH" insttype="Trillium Compact 120s" lat="46.1563" lon="7.13579">
    <comp name="--.HHN">
      <acc value="0.0088238789" flag="0"/>
      <vel value="0.0029378617" flag="0"/>
      <psa03 value="0.0189476250" flag="0"/>
      <psa10 value="0.0013805064" flag="0"/>
      <psa30 value="0.0000999956" flag="0"/>
    </comp>
    <comp name="--.HHZ">
      <acc value="0.0074520658" flag="0"/>
      <vel value="0.0023842327" flag="0"/>
      <psa03 value="0.0096808496" flag="0"/>
      <psa10 value="0.0012901580" flag="0"/>
      <psa30 value="0.0001074161" flag="0"/>
    </comp>
    <comp name="--.HHE">
      <acc value="0.0055869983" flag="0"/>
      <vel value="0.0028690400" flag="0"/>
      <psa03 value="0.0115597249" flag="0"/>
      <psa10 value="0.0016331930" flag="0"/>
      <psa30 value="0.0001074049" flag="0"/>
    </comp>
  </station>
  <station code="FUSIO" name="FUSIO" netid="CH" insttype="STS2.5" lat="46.4548" lon="8.6629">
    <comp name="--.HHN">
      <acc value="0.1233606348" flag="0"/>
      <vel value="0.0135514553" flag="0"/>
      <psa03 value="0.0712524240" flag="0"/>
      <psa10 value="0.0065405062" flag="0"/>
      <psa30 value="0.0003178662" flag="0"/>
    </comp>
    <comp name="--.HHZ">
      <acc value="0.1239453842" flag="0"/>
      <vel value="0.0218139685" flag="0"/>
      <psa03 value="0.0843090364" flag="0"/>
      <psa10 value="0.0056613258" flag="0"/>
      <psa30 value="0.0004220929" flag="0"/>
    </comp>
    <comp name="--.HHE">
      <acc value="0.1096084382" flag="0"/>
      <vel value="0.0151631004" flag="0"/>
      <psa03 value="0.0630168574" flag="0"/>
      <psa10 value="0.0051579526" flag="0"/>
      <psa30 value="0.0004906879" flag="0"/>
    </comp>
  </station>
  <station code="GRIMS" name="GRIMS" netid="CH" insttype="STS2_gen3" lat="46.5781" lon="8.31886">
    <comp name="--.HHN">
      <acc value="1.3478011697" flag="0"/>
      <vel value="0.1852085970" flag="0"/>
      <psa03 value="0.3087398266" flag="0"/>
      <psa10 value="0.0187942580" flag="0"/>
      <psa30 value="0.0020225111" flag="0"/>
    </comp>
    <comp name="--.HHE">
      <acc value="2.7115854324" flag="0"/>
      <vel value="0.4370351605" flag="0"/>
      <psa03 value="0.6704135146" flag="0"/>
      <psa10 value="0.0596292654" flag="0"/>
      <psa30 value="0.0067700668" flag="0"/>
    </comp>
    <comp name="--.HHZ">
      <acc value="1.5306225502" flag="0"/>
      <vel value="0.2194801576" flag="0"/>
      <psa03 value="0.4482574416" flag="0"/>
      <psa10 value="0.0324026766" flag="0"/>
      <psa30 value="0.0044162088" flag="0"/>
    </comp>
  </station>
  <station code="GRYON" name="GRYON" netid="CH" insttype="Trillium 240s_g2" lat="46.2505" lon="7.11106">
    <comp name="--.HHN">
      <acc value="0.0075725263" flag="0"/>
      <vel value="0.0023711348" flag="0"/>
      <psa03 value="0.0101951047" flag="0"/>
      <psa10 value="0.0012883949" flag="0"/>
      <psa30 value="0.0001185572" flag="0"/>
    </comp>
    <comp name="--.HHZ">
      <acc value="0.0083141544" flag="0"/>
      <vel value="0.0030780190" flag="0"/>
      <psa03 value="0.0145124090" flag="0"/>
      <psa10 value="0.0017603471" flag="0"/>
      <psa30 value="0.0001109398" flag="0"/>
    </comp>
    <comp name="--.HHE">
      <acc value="0.0065706098" flag="0"/>
      <vel value="0.0024408236" flag="0"/>
      <psa03 value="0.0225768985" flag="0"/>
      <psa10 value="0.0013431391" flag="0"/>
      <psa30 value="0.0001348788" flag="0"/>
    </comp>
  </station>
  <station code="HASLI" name="HASLI" netid="CH" insttype="STS2_gen3" lat="46.7568" lon="8.15117">
    <comp name="--.HHN">
      <acc value="0.4801790300" flag="0"/>
      <vel value="0.1180941976" flag="0"/>
      <psa03 value="0.4465337531" flag="0"/>
      <psa10 value="0.0200992669" flag="0"/>
      <psa30 value="0.0018278278" flag="0"/>
    </comp>
    <comp name="--.HHZ">
      <acc value="0.3485775623" flag="0"/>
      <vel value="0.0824677573" flag="0"/>
      <psa03 value="0.3227344786" flag="0"/>
      <psa10 value="0.0167554139" flag="0"/>
      <psa30 value="0.0019743432" flag="0"/>
    </comp>
    <comp name="--.HHE">
      <acc value="0.3801659098" flag="0"/>
      <vel value="0.0908981987" flag="0"/>
      <psa03 value="0.4480147500" flag="0"/>
      <psa10 value="0.0186419135" flag="0"/>
      <psa30 value="0.0018363809" flag="0"/>
    </comp>
  </station>
  <station code="ILLEZ" name="ILLEZ" netid="CH" insttype="Trillium Compact 120s" lat="46.2193" lon="6.94038">
    <comp name="--.HHE">
      <acc value="0.0251618969" flag="0"/>
      <vel value="0.0063046708" flag="0"/>
      <psa03 value="0.0356401016" flag="0"/>
      <psa10 value="0.0037156752" flag="0"/>
      <psa30 value="0.0002114466" flag="0"/>
    </comp>
    <comp name="--.HHZ">
      <acc value="0.0084758691" flag="0"/>
      <vel value="0.0038906516" flag="0"/>
      <psa03 value="0.0225191213" flag="0"/>
      <psa10 value="0.0022597977" flag="0"/>
      <psa30 value="0.0001137168" flag="0"/>
    </comp>
    <comp name="--.HHN">
      <acc value="0.0241481023" flag="0"/>
      <vel value="0.0063076942" flag="0"/>
      <psa03 value="0.0269538989" flag="0"/>
      <psa10 value="0.0024803620" flag="0"/>
      <psa30 value="0.0001644073" flag="0"/>
    </comp>
  </station>
  <station code="JAUN" name="JAUN" netid="CH" insttype="Trillium 240s_g2" lat="46.6339" lon="7.29096">
    <comp name="--.HHE">
      <acc value="0.0161148165" flag="0"/>
      <vel value="0.0045142067" flag="0"/>
      <psa03 value="0.0275645393" flag="0"/>
      <psa10 value="0.0013031113" flag="0"/>
      <psa30 value="0.0001213842" flag="0"/>
    </comp>
    <comp name="--.HHN">
      <acc value="0.0135024125" flag="0"/>
      <vel value="0.0043523644" flag="0"/>
      <psa03 value="0.0192505775" flag="0"/>
      <psa10 value="0.0027451550" flag="0"/>
      <psa30 value="0.0001588350" flag="0"/>
    </comp>
    <comp name="--.HHZ">
      <acc value="0.0084758973" flag="0"/>
      <vel value="0.0021867324" flag="0"/>
      <psa03 value="0.0097866183" flag="0"/>
      <psa10 value="0.0018463356" flag="0"/>
      <psa30 value="0.0001211864" flag="0"/>
    </comp>
  </station>
  <station code="LAUCH" name="LAUCH" netid="CH" insttype="Trillium 40s" lat="46.4155" lon="7.77166">
    <comp name="--.HHN">
      <acc value="0.0637832478" flag="0"/>
      <vel value="0.0111861186" flag="0"/>
      <psa03 value="0.0178178538" flag="0"/>
      <psa10 value="0.0034521069" flag="0"/>
      <psa30 value="0.0001812063" flag="0"/>
    </comp>
    <comp name="--.HHE">
      <acc value="0.0711541349" flag="0"/>
      <vel value="0.0181305158" flag="0"/>
      <psa03 value="0.0495948268" flag="0"/>
      <psa10 value="0.0053914666" flag="0"/>
      <psa30 value="0.0003302581" flag="0"/>
    </comp>
    <comp name="--.HHZ">
      <acc value="0.0308326566" flag="0"/>
      <vel value="0.0063953397" flag="0"/>
      <psa03 value="0.0266068649" flag="0"/>
      <psa10 value="0.0022712390" flag="0"/>
      <psa30 value="0.0001605383" flag="0"/>
    </comp>
  </station>
  <station code="LKBD2" name="LKBD2" netid="CH" insttype="Trillium 240s_g2" lat="46.3745" lon="7.64433">
    <comp name="--.HHE">
      <acc value="0.0332513347" flag="0"/>
      <vel value="0.0068049960" flag="0"/>
      <psa03 value="0.0303318440" flag="0"/>
