<?xml version="1.0" encoding="UTF-8" standalone="yes"?>
<!DOCTYPE earthquake SYSTEM "stationlist.dtd">
<stationlist created="" xmlns="ch.ethz.sed.shakemap.usgs.xml">
  <station code="AKDM" name="AKDM" netid="KO" insttype="30s," lat="38.3285" lon="42.98">
    <comp name="--.HHZ">
      <acc value="0.0310318423" flag="0"/>
      <vel value="0.0274718049" flag="0"/>
      <psa03 value="0.0750943538" flag="0"/>
      <psa10 value="0.0558481493" flag="0"/>
      <psa30 value="0.0037934741" flag="0"/>
    </comp>
    <comp name="--.HHN">
      <acc value="0.0399831983" flag="0"/>
      <vel value="0.0423523003" flag="0"/>
      <psa03 value="0.1136489141" flag="0"/>
      <psa10 value="0.0495293023" flag="0"/>
      <psa30 value="0.0122610817" flag="0"/>
    </comp>
    <comp name="--.HHE">
      <acc value="0.0374920736" flag="0"/>
      <vel value="0.0377074138" flag="0"/>
      <psa03 value="0.0745872129" flag="0"/>
      <psa10 value="0.0657379924" flag="0"/>
      <psa30 value="0.0070138158" flag="0"/>
    </comp>
  </station>
  <station code="GURO" name="GURO" netid="KO" insttype="120s," lat="38.5509" lon="42.0322">
    <comp name="--.HHE">
      <acc value="0.2999256269" flag="0"/>
      <vel value="0.1698338145" flag="0"/>
      <psa03 value="0.7515815462" flag="0"/>
      <psa10 value="0.0872661210" flag="0"/>
      <psa30 value="0.0146381147" flag="0"/>
    </comp>
    <comp name="--.HHZ">
      <acc value="0.2537140270" flag="0"/>
      <vel value="0.0888008371" flag="0"/>
      <psa03 value="0.6524250539" flag="0"/>
      <psa10 value="0.0829252536" flag="0"/>
      <psa30 value="0.0063655876" flag="0"/>
    </comp>
    <comp name="--.HHN">
      <acc value="0.1640759251" flag="0"/>
      <vel value="0.1101265642" flag="0"/>
      <psa03 value="0.5279200869" flag="0"/>
      <psa10 value="0.1608069463" flag="0"/>
      <psa30 value="0.0074501403" flag="0"/>
    </comp>
  </station>
  <station code="KARO" name="KARO" netid="KO" insttype="120s," lat="39.3089" lon="41.0493">
    <comp name="--.HHZ">
      <acc value="0.0605376132" flag="0"/>
      <vel value="0.0522162373" flag="0"/>
      <psa03 value="0.1526700500" flag="0"/>
      <psa10 value="0.0645276317" flag="0"/>
      <psa30 value="0.0103846887" flag="0"/>
    </comp>
    <comp name="--.HHN">
      <acc value="0.1555858459" flag="0"/>
      <vel value="0.1250145591" flag="0"/>
      <psa03 value="0.4291970616" flag="0"/>
      <psa10 value="0.1786592024" flag="0"/>
      <psa30 value="0.0169642207" flag="0"/>
    </comp>
    <comp name="--.HHE">
      <acc value="0.1143190351" flag="0"/>
      <vel value="0.1219669125" flag="0"/>
      <psa03 value="0.2873192309" flag="0"/>
      <psa10 value="0.1565919043" flag="0"/>
      <psa30 value="0.0239095748" flag="0"/>
    </comp>
  </station>
  <station code="MLAZ" name="MLAZ" netid="KO" insttype="120s," lat="39.141" lon="42.5496">
    <comp name="--.HHN">
      <acc value="0.0934073554" flag="0"/>
      <vel value="0.1312731058" flag="0"/>
      <psa03 value="0.1743477028" flag="0"/>
      <psa10 value="0.1856887240" flag="0"/>
      <psa30 value="0.0120566944" flag="0"/>
    </comp>
    <comp name="--.HHE">
      <acc value="0.0863174171" flag="0"/>
      <vel value="0.0880499073" flag="0"/>
      <psa03 value="0.2668833677" flag="0"/>
      <psa10 value="0.1137141643" flag="0"/>
      <psa30 value="0.0231058775" flag="0"/>
    </comp>
    <comp name="--.HHZ">
      <acc value="0.0443515220" flag="0"/>
      <vel value="0.0476794035" flag="0"/>
      <psa03 value="0.0715130722" flag="0"/>
      <psa10 value="0.0816577532" flag="0"/>
      <psa30 value="0.0081113692" flag="0"/>
    </comp>
  </station>
  <station code="VANB" name="VANB" netid="KO" insttype="360s," lat="38.509" lon="43.4058">
    <comp name="--.HHE">
      <acc value="0.0318560544" flag="0"/>
      <vel value="0.0373856660" flag="0"/>
      <psa03 value="0.0553429976" flag="0"/>
      <psa10 value="0.0775905008" flag="0"/>
      <psa30 value="0.0105776055" flag="0"/>
    </comp>
    <comp name="--.HHZ">
      <acc value="0.0140121345" flag="0"/>
      <vel value="0.0209149000" flag="0"/>
      <psa03 value="0.0264666833" flag="0"/>
      <psa10 value="0.0564988238" flag="0"/>
      <psa30 value="0.0067282266" flag="0"/>
    </comp>
    <comp name="--.HHN">
      <acc value="0.0231211217" flag="0"/>
      <vel value="0.0277643789" flag="0"/>
      <psa03 value="0.0430955854" flag="0"/>
      <psa10 value="0.0499588303" flag="0"/>
      <psa30 value="0.0075216114" flag="0"/>
    </comp>
  </station>
</stationlist>
