<stationlist created="1778069931">
	<station code="ERCV" name="ERCV" netid="KO" source="Bogazici University Kandilli Observatory And Earthquake Research Institute (KOERI)" insttype="" lat="39.0198" lon="43.3381">
		<comp name="--.HNE" depth="0.0">
			<acc value="0.0609499987348466" flag="0"/>
			<vel value="0.0755371551018508" flag="0"/>
			<psa03 value="0.165165691416491" flag="0"/>
			<psa10 value="0.166477293303468" flag="0"/>
			<psa30 value="0.0198676978041294" flag="0"/>
		</comp>
		<comp name="--.HNN" depth="0.0">
			<acc value="0.0936498243805013" flag="0"/>
			<vel value="0.0758304132778223" flag="0"/>
			<psa03 value="0.180967154852564" flag="0"/>
			<psa10 value="0.178792779144162" flag="0"/>
			<psa30 value="0.0197677045133914" flag="0"/>
		</comp>
		<comp name="--.HNZ" depth="0.0">
			<acc value="0.113529194613771" flag="0"/>
			<vel value="0.0421302799903938" flag="0"/>
			<psa03 value="0.0760018368319796" flag="0"/>
			<psa10 value="0.09721609258886" flag="0"/>
			<psa30 value="0.00504472085465865" flag="0"/>
		</comp>
	</station>
</stationlist>
