<?xml version="1.0" encoding="UTF-8" standalone="yes"?>
<!DOCTYPE earthquake SYSTEM "stationlist.dtd">
<stationlist created="" xmlns="ch.ethz.sed.shakemap.usgs.xml">
  <station code="KMON" name="KMON" netid="KO" insttype="CMG-5T" lat="41.3738" lon="33.7839">
    <comp name="--.HNZ">
      <acc value="0.0675915794" flag="0"/>
      <vel value="0.0174172618" flag="0"/>
      <psa03 value="0.0780120845" flag="0"/>
      <psa10 value="0.0153223799" flag="0"/>
      <psa30 value="0.0017250004" flag="0"/>
    </comp>
    <comp name="--.HNE">
      <acc value="0.0972276730" flag="0"/>
      <vel value="0.0332861261" flag="0"/>
      <psa03 value="0.2393479464" flag="0"/>
      <psa10 value="0.0363918707" flag="0"/>
      <psa30 value="0.0034157749" flag="0"/>
    </comp>
    <comp name="--.HNN">
      <acc value="0.1682453583" flag="0"/>
      <vel value="0.0724879845" flag="0"/>
      <psa03 value="0.2430547639" flag="0"/>
      <psa10 value="0.0465919233" flag="0"/>
      <psa30 value="0.0037081954" flag="0"/>
    </comp>
  </station>
  <station code="TOS" name="TOS" netid="KO" insttype="CMG-5T" lat="41.0362" lon="34.0226">
    <comp name="--.HNZ">
      <acc value="0.2299402200" flag="0"/>
      <vel value="0.0586714125" flag="0"/>
      <psa03 value="0.3282030615" flag="0"/>
      <psa10 value="0.0312161845" flag="0"/>
      <psa30 value="0.0029673062" flag="0"/>
    </comp>
    <comp name="--.HNE">
      <acc value="0.1880829212" flag="0"/>
      <vel value="0.0691451511" flag="0"/>
      <psa03 value="0.5098098127" flag="0"/>
      <psa10 value="0.0393455282" flag="0"/>
      <psa30 value="0.0030157308" flag="0"/>
    </comp>
    <comp name="--.HNN">
      <acc value="0.2814961669" flag="0"/>
      <vel value="0.0785432101" flag="0"/>
      <psa03 value="0.4577350089" flag="0"/>
      <psa10 value="0.0244764376" flag="0"/>
      <psa30 value="0.0033605618" flag="0"/>
    </comp>
  </station>
</stationlist>
