<?xml version="1.0" encoding="UTF-8" standalone="yes"?>
<!DOCTYPE earthquake SYSTEM "stationlist.dtd">
<stationlist created="" xmlns="ch.ethz.sed.shakemap.usgs.xml">
  <station code="BNN" name="BNN" netid="KO" insttype="CMG-3T" lat="38.8521" lon="35.8472">
    <comp name="--.HHE">
      <acc value="0.0133737048" flag="0"/>
      <vel value="0.0140098071" flag="0"/>
      <psa03 value="0.0502040853" flag="0"/>
      <psa10 value="0.0335929443" flag="0"/>
      <psa30 value="0.0014160879" flag="0"/>
    </comp>
    <comp name="--.HHZ">
      <acc value="0.0060785861" flag="0"/>
      <vel value="0.0078244775" flag="0"/>
      <psa03 value="0.0153311469" flag="0"/>
      <psa10 value="0.0176243654" flag="0"/>
      <psa30 value="0.0014238126" flag="0"/>
    </comp>
  </station>
  <station code="CEYT" name="CEYT" netid="KO" insttype="CMG-3ESP" lat="37.0105" lon="35.7478">
    <comp name="--.HHN">
      <acc value="0.0186301348" flag="0"/>
      <vel value="0.0109786575" flag="0"/>
      <psa03 value="0.0481001430" flag="0"/>
      <psa10 value="0.0123801349" flag="0"/>
      <psa30 value="0.0025144292" flag="0"/>
    </comp>
    <comp name="--.HHE">
      <acc value="0.0114673974" flag="0"/>
      <vel value="0.0109845433" flag="0"/>
      <psa03 value="0.0473015304" flag="0"/>
      <psa10 value="0.0221761625" flag="0"/>
      <psa30 value="0.0018544198" flag="0"/>
    </comp>
    <comp name="--.HHZ">
      <acc value="0.0073265616" flag="0"/>
      <vel value="0.0072481489" flag="0"/>
      <psa03 value="0.0161741520" flag="0"/>
      <psa10 value="0.0180673349" flag="0"/>
      <psa30 value="0.0020461078" flag="0"/>
    </comp>
  </station>
  <station code="CMRD" name="CMRD" netid="KO" insttype="CMG-5T" lat="37.6623" lon="34.9902">
    <comp name="--.HNN">
      <acc value="0.0136081646" flag="0"/>
      <vel value="0.0064261304" flag="0"/>
      <psa03 value="0.0213683677" flag="0"/>
      <psa10 value="0.0112993117" flag="0"/>
      <psa30 value="0.0021221622" flag="0"/>
    </comp>
    <comp name="--.HNE">
      <acc value="0.0136893912" flag="0"/>
      <vel value="0.0062511675" flag="0"/>
      <psa03 value="0.0210872754" flag="0"/>
      <psa10 value="0.0102630272" flag="0"/>
      <psa30 value="0.0011165438" flag="0"/>
    </comp>
    <comp name="--.HNZ">
      <acc value="0.0091828122" flag="0"/>
      <vel value="0.0087431637" flag="0"/>
      <psa03 value="0.0224234499" flag="0"/>
      <psa10 value="0.0184687036" flag="0"/>
      <psa30 value="0.0014579482" flag="0"/>
    </comp>
  </station>
  <station code="DARE" name="DARE" netid="KO" insttype="CMG-3ESP" lat="38.5712" lon="37.4832">
    <comp name="--.HHZ">
      <acc value="0.0082015479" flag="0"/>
      <vel value="0.0058751936" flag="0"/>
      <psa03 value="0.0170955445" flag="0"/>
      <psa10 value="0.0093676033" flag="0"/>
      <psa30 value="0.0013190077" flag="0"/>
    </comp>
  </station>
  <station code="GAZ" name="GAZ" netid="KO" insttype="CMG-3T" lat="37.1721" lon="37.2096">
    <comp name="--.HHN">
      <acc value="0.0354011656" flag="0"/>
      <vel value="0.0247227413" flag="0"/>
      <psa03 value="0.0879654709" flag="0"/>
      <psa10 value="0.0340310150" flag="0"/>
      <psa30 value="0.0032897252" flag="0"/>
    </comp>
    <comp name="--.HHZ">
      <acc value="0.0192151062" flag="0"/>
      <vel value="0.0129081315" flag="0"/>
      <psa03 value="0.0484785419" flag="0"/>
      <psa10 value="0.0187334842" flag="0"/>
      <psa30 value="0.0024170102" flag="0"/>
    </comp>
  </station>
  <station code="KMRS" name="KMRS" netid="KO" insttype="CMG-3T" lat="37.5053" lon="36.9">
    <comp name="--.HHE">
      <acc value="0.0168443674" flag="0"/>
      <vel value="0.0133334220" flag="0"/>
      <psa03 value="0.0343156877" flag="0"/>
      <psa10 value="0.0198138781" flag="0"/>
      <psa30 value="0.0040270537" flag="0"/>
    </comp>
    <comp name="--.HHN">
      <acc value="0.0295174055" flag="0"/>
      <vel value="0.0209612211" flag="0"/>
      <psa03 value="0.0375609864" flag="0"/>
      <psa10 value="0.0266505742" flag="0"/>
      <psa30 value="0.0050266834" flag="0"/>
    </comp>
  </station>
  <station code="ANDN" name="ANDN" netid="TU" insttype="T" lat="37.58" lon="36.3452">
    <comp name="--.HHN">
      <acc value="0.6267858548" flag="0"/>
      <vel value="0.2060918501" flag="0"/>
      <psa03 value="0.5096794192" flag="0"/>
      <psa10 value="0.2826166119" flag="0"/>
      <psa30 value="0.0299293707" flag="0"/>
    </comp>
    <comp name="--.HHZ">
      <acc value="0.2433351269" flag="0"/>
      <vel value="0.1153818052" flag="0"/>
      <psa03 value="0.1975336189" flag="0"/>
      <psa10 value="0.3061140694" flag="0"/>
      <psa30 value="0.0197108705" flag="0"/>
    </comp>
    <comp name="--.HHE">
      <acc value="0.4757699165" flag="0"/>
      <vel value="0.1541503569" flag="0"/>
      <psa03 value="0.4785583631" flag="0"/>
      <psa10 value="0.1852256458" flag="0"/>
      <psa30 value="0.0203377002" flag="0"/>
    </comp>
  </station>
</stationlist>
