<stationlist created="1778135681">
	<station code="S2114" name="S2114" netid="S2" source="IceSMN Icelandic Strong Motion Network (IceSMN)" insttype="" lat="63.7515" lon="-20.2168">
		<comp name="00.HN1" depth="0.0">
			<acc value="0.26238487025035" flag="0"/>
			<vel value="0.126499932485946" flag="0"/>
			<psa03 value="1.00545910673226" flag="0"/>
			<psa10 value="0.0919920640227387" flag="0"/>
			<psa30 value="0.00915041450339899" flag="0"/>
		</comp>
		<comp name="00.HN2" depth="0.0">
			<acc value="0.186017254513627" flag="0"/>
			<vel value="0.0697564953534645" flag="0"/>
			<psa03 value="0.391600191591042" flag="0"/>
			<psa10 value="0.0432295637464322" flag="0"/>
			<psa30 value="0.00467176573155699" flag="0"/>
		</comp>
		<comp name="00.HNZ" depth="0.0">
			<acc value="0.085743481302558" flag="0"/>
			<vel value="0.0408113244802378" flag="0"/>
			<psa03 value="0.269215771723713" flag="0"/>
			<psa10 value="0.0238437420308764" flag="0"/>
			<psa30 value="0.00581924049612622" flag="0"/>
		</comp>
	</station>
	<station code="S2405" name="S2405" netid="S2" source="IceSMN Icelandic Strong Motion Network (IceSMN)" insttype="" lat="64.0447" lon="-21.9848">
		<comp name="00.HN1" depth="0.0">
			<acc value="0.445827144276375" flag="0"/>
			<vel value="0.157487266098501" flag="0"/>
			<psa03 value="0.462959085432022" flag="0"/>
			<psa10 value="0.25782096937397" flag="0"/>
			<psa30 value="0.0161316203073407" flag="0"/>
		</comp>
		<comp name="00.HN2" depth="0.0">
			<acc value="0.291417265814925" flag="0"/>
			<vel value="0.171873408054303" flag="0"/>
			<psa03 value="0.474771242929755" flag="0"/>
			<psa10 value="0.254159076791387" flag="0"/>
			<psa30 value="0.0223675867428346" flag="0"/>
		</comp>
		<comp name="00.HNZ" depth="0.0">
			<acc value="0.361619384336192" flag="0"/>
			<vel value="0.11808879541249" flag="0"/>
			<psa03 value="0.271821256824123" flag="0"/>
			<psa10 value="0.0978768413603186" flag="0"/>
			<psa30 value="0.0199542802064804" flag="0"/>
		</comp>
	</station>
	<station code="S2602" name="S2602" netid="S2" source="IceSMN Icelandic Strong Motion Network (IceSMN)" insttype="" lat="63.8464" lon="-22.4268">
		<comp name="00.HN1" depth="0.0">
			<acc value="0.968821914076145" flag="0"/>
			<vel value="0.76787366673469" flag="0"/>
			<psa03 value="1.97589689347265" flag="0"/>
			<psa10 value="1.041622562381" flag="0"/>
			<psa30 value="0.149115984868816" flag="0"/>
		</comp>
		<comp name="00.HN2" depth="0.0">
			<acc value="1.38436179999071" flag="0"/>
			<vel value="0.653673328393205" flag="0"/>
			<psa03 value="3.28639070725537" flag="0"/>
			<psa10 value="1.11319386363187" flag="0"/>
			<psa30 value="0.0792326554414247" flag="0"/>
		</comp>
		<comp name="00.HNZ" depth="0.0">
			<acc value="2.69295153754001" flag="0"/>
			<vel value="0.917152293525964" flag="0"/>
			<psa03 value="3.25919823922349" flag="0"/>
			<psa10 value="0.322828045773703" flag="0"/>
			<psa30 value="0.037553417729607" flag="0"/>
		</comp>
	</station>
	<station code="S2604" name="S2604" netid="S2" source="IceSMN Icelandic Strong Motion Network (IceSMN)" insttype="" lat="63.9843" lon="-21.6486">
		<comp name="00.HN1" depth="0.0">
			<acc value="0.282128134414702" flag="0"/>
			<vel value="0.164069517277383" flag="0"/>
			<psa03 value="0.81181511210037" flag="0"/>
			<psa10 value="0.187157003232814" flag="0"/>
			<psa30 value="0.0240706095597417" flag="0"/>
		</comp>
		<comp name="00.HN2" depth="0.0">
			<acc value="0.185483365744825" flag="0"/>
			<vel value="0.15692015591484" flag="0"/>
			<psa03 value="0.452543812139073" flag="0"/>
			<psa10 value="0.158059365657092" flag="0"/>
			<psa30 value="0.0129764979626334" flag="0"/>
		</comp>
		<comp name="00.HNZ" depth="0.0">
			<acc value="0.214535930356953" flag="0"/>
			<vel value="0.108797821130811" flag="0"/>
			<psa03 value="0.616990997626265" flag="0"/>
			<psa10 value="0.0883001319502782" flag="0"/>
			<psa30 value="0.0107137222315039" flag="0"/>
		</comp>
	</station>
</stationlist>
