<?xml version="1.0" encoding="UTF-8" standalone="yes"?>
<!DOCTYPE earthquake SYSTEM "stationlist.dtd">
<stationlist created="" xmlns="ch.ethz.sed.shakemap.usgs.xml">
  <station code="ASB" name="ASB" netid="VI" source="ODC" insttype="STS-2.5" lat="64.7482" lon="-21.3254">
    <comp name="--.HHN">
      <acc value="0.0599873612" flag="0"/>
      <vel value="0.0300274568" flag="0"/>
      <psa03 value="0.0987612276" flag="0"/>
      <psa10 value="0.0390143151" flag="0"/>
      <psa30 value="0.0028985608" flag="0"/>
    </comp>
    <comp name="--.HHE">
      <acc value="0.0640692508" flag="0"/>
      <vel value="0.0349949703" flag="0"/>
      <psa03 value="0.0848122548" flag="0"/>
      <psa10 value="0.0352450270" flag="0"/>
      <psa30 value="0.0045967531" flag="0"/>
    </comp>
    <comp name="--.HHZ">
      <acc value="0.0323168152" flag="0"/>
      <vel value="0.0175974219" flag="0"/>
      <psa03 value="0.0495673323" flag="0"/>
      <psa10 value="0.0231475174" flag="0"/>
      <psa30 value="0.0034095844" flag="0"/>
    </comp>
  </station>
</stationlist>
