<?xml version="1.0" encoding="UTF-8" standalone="yes"?>
<!DOCTYPE earthquake SYSTEM "stationlist.dtd">
<stationlist created="" xmlns="ch.ethz.sed.shakemap.usgs.xml">
  <station code="KARP" name="KARP" netid="GE" insttype="STS-2/N" lat="35.5471" lon="27.1611">
    <comp name="--.HHN">
      <acc value="0.0273386423" flag="0"/>
      <vel value="0.0091878632" flag="0"/>
      <psa03 value="0.0346758956" flag="0"/>
      <psa10 value="0.0115930928" flag="0"/>
      <psa30 value="0.0006572787" flag="0"/>
    </comp>
    <comp name="--.HHE">
      <acc value="0.0307213772" flag="0"/>
      <vel value="0.0106079931" flag="0"/>
      <psa03 value="0.0372585359" flag="0"/>
      <psa10 value="0.0145687995" flag="0"/>
      <psa30 value="0.0008456233" flag="0"/>
    </comp>
    <comp name="--.HHZ">
      <acc value="0.0203204451" flag="0"/>
      <vel value="0.0059453146" flag="0"/>
      <psa03 value="0.0242406184" flag="0"/>
      <psa10 value="0.0042223852" flag="0"/>
      <psa30 value="0.0006569745" flag="0"/>
    </comp>
  </station>
  <station code="ARG" name="ARG" netid="HL" insttype="LE3D20_DR24" lat="36.2136" lon="28.1212">
    <comp name="--.HHN">
      <acc value="0.0362530460" flag="0"/>
      <vel value="0.0132692993" flag="0"/>
      <psa03 value="0.0381305765" flag="0"/>
      <psa10 value="0.0171299289" flag="0"/>
      <psa30 value="0.0013699918" flag="0"/>
    </comp>
    <comp name="--.HHZ">
      <acc value="0.0180889382" flag="0"/>
      <vel value="0.0100481550" flag="0"/>
      <psa03 value="0.0330250884" flag="0"/>
      <psa10 value="0.0087834218" flag="0"/>
      <psa30 value="0.0017252723" flag="0"/>
    </comp>
    <comp name="--.HHE">
      <acc value="0.0505490126" flag="0"/>
      <vel value="0.0269923428" flag="0"/>
      <psa03 value="0.1237537836" flag="0"/>
      <psa10 value="0.0101940417" flag="0"/>
      <psa30 value="0.0025742834" flag="0"/>
    </comp>
  </station>
  <station code="KARP" name="KARP" netid="HL" insttype="120" lat="35.5471" lon="27.1611">
    <comp name="--.HHE">
      <acc value="0.0270254261" flag="0"/>
      <vel value="0.0101737828" flag="0"/>
      <psa03 value="0.0364905820" flag="0"/>
      <psa10 value="0.0144536554" flag="0"/>
      <psa30 value="0.0008422795" flag="0"/>
    </comp>
    <comp name="--.HHN">
      <acc value="0.0253322488" flag="0"/>
      <vel value="0.0089282961" flag="0"/>
      <psa03 value="0.0336691493" flag="0"/>
      <psa10 value="0.0115200015" flag="0"/>
      <psa30 value="0.0006531264" flag="0"/>
    </comp>
    <comp name="--.HHZ">
      <acc value="0.0185287462" flag="0"/>
      <vel value="0.0057859243" flag="0"/>
      <psa03 value="0.0236059799" flag="0"/>
      <psa10 value="0.0041901183" flag="0"/>
      <psa30 value="0.0006546617" flag="0"/>
    </comp>
  </station>
  <station code="NISR" name="NISR" netid="HL" insttype="65535" lat="36.6106" lon="27.131">
    <comp name="--.HHE">
      <acc value="1.5376018853" flag="0"/>
      <vel value="0.5629970939" flag="0"/>
      <psa03 value="2.7985321105" flag="0"/>
      <psa10 value="0.2419060301" flag="0"/>
      <psa30 value="0.0360515956" flag="0"/>
    </comp>
    <comp name="--.HHN">
      <acc value="2.0525317649" flag="0"/>
      <vel value="0.3397709133" flag="0"/>
      <psa03 value="1.7031336514" flag="0"/>
      <psa10 value="0.1499058355" flag="0"/>
      <psa30 value="0.0270183530" flag="0"/>
    </comp>
    <comp name="--.HHZ">
      <acc value="1.5377319303" flag="0"/>
      <vel value="0.1911675504" flag="0"/>
      <psa03 value="0.7431386287" flag="0"/>
      <psa10 value="0.1227196814" flag="0"/>
      <psa30 value="0.0091056895" flag="0"/>
    </comp>
  </station>
  <station code="DATC" name="DATC" netid="KO" insttype="CMG-5T" lat="36.7584" lon="27.6602">
    <comp name="--.HNN">
      <acc value="0.1559529267" flag="0"/>
      <vel value="0.0607433391" flag="0"/>
      <psa03 value="0.2333175815" flag="0"/>
      <psa10 value="0.0659788466" flag="0"/>
      <psa30 value="0.0059333532" flag="0"/>
    </comp>
    <comp name="--.HNE">
      <acc value="0.1680440298" flag="0"/>
      <vel value="0.1203029343" flag="0"/>
      <psa03 value="0.3546078477" flag="0"/>
      <psa10 value="0.1439714990" flag="0"/>
      <psa30 value="0.0108319202" flag="0"/>
    </comp>
    <comp name="--.HNZ">
      <acc value="0.2033330628" flag="0"/>
      <vel value="0.0618339257" flag="0"/>
      <psa03 value="0.1811209565" flag="0"/>
      <psa10 value="0.0606941720" flag="0"/>
      <psa30 value="0.0041918792" flag="0"/>
    </comp>
  </station>
</stationlist>
