<stationlist created="1778136522">
	<station code="KRL1" name="KRL1" netid="HI" source="ITSAK Strong Motion Network" insttype="" lat="37.7951" lon="26.7065">
		<comp name="--.HNE" depth="0.0">
			<acc value="0.0161003071442613" flag="0"/>
			<vel value="0.00892478983284934" flag="0"/>
			<psa03 value="0.0290376920952584" flag="0"/>
			<psa10 value="0.0100669964891111" flag="0"/>
			<psa30 value="0.00150557525270484" flag="0"/>
		</comp>
		<comp name="--.HNN" depth="0.0">
			<acc value="0.00783965084255397" flag="0"/>
			<vel value="0.00641051684344987" flag="0"/>
			<psa03 value="0.0289482076820218" flag="0"/>
			<psa10 value="0.0188252834346378" flag="0"/>
			<psa30 value="0.00107381295883852" flag="0"/>
		</comp>
		<comp name="--.HNZ" depth="0.0">
			<acc value="0.00482161610856148" flag="0"/>
			<vel value="0.00343377615600384" flag="0"/>
			<psa03 value="0.0128857555060623" flag="0"/>
			<psa10 value="0.00739722902019887" flag="0"/>
			<psa30 value="0.0010563634982574" flag="0"/>
		</comp>
	</station>
	<station code="RDI1" name="RDI1" netid="HI" source="ITSAK Strong Motion Network" insttype="" lat="36.4514" lon="28.224">
		<comp name="--.HNE" depth="0.0">
			<acc value="0.0141509295765428" flag="0"/>
			<vel value="0.0146861824587311" flag="0"/>
			<psa03 value="0.0315879978724999" flag="0"/>
			<psa10 value="0.0305110529591981" flag="0"/>
			<psa30 value="0.00517488361746931" flag="0"/>
		</comp>
		<comp name="--.HNN" depth="0.0">
			<acc value="0.0154386262946277" flag="0"/>
			<vel value="0.0221650216919771" flag="0"/>
			<psa03 value="0.0385677821049503" flag="0"/>
			<psa10 value="0.032947266109563" flag="0"/>
			<psa30 value="0.00396639661670979" flag="0"/>
		</comp>
		<comp name="--.HNZ" depth="0.0">
			<acc value="0.0118628712246117" flag="0"/>
			<vel value="0.0116746923178354" flag="0"/>
			<psa03 value="0.0283665589959843" flag="0"/>
			<psa10 value="0.0276922939422469" flag="0"/>
			<psa30 value="0.00205456212791104" flag="0"/>
		</comp>
	</station>
	<station code="KLNA" name="KLNA" netid="HL" source="National Observatory of Athens Seismic Network" insttype="" lat="36.95708" lon="26.97274">
		<comp name="00.HNE" depth="0.0">
			<acc value="0.0721410753925557" flag="0"/>
			<vel value="0.0252788106579868" flag="0"/>
			<psa03 value="0.286126411323848" flag="0"/>
			<psa10 value="0.014633386096572" flag="0"/>
			<psa30 value="0.00170109869562669" flag="0"/>
		</comp>
		<comp name="00.HNN" depth="0.0">
			<acc value="0.0634333216862089" flag="0"/>
			<vel value="0.025636283783656" flag="0"/>
			<psa03 value="0.214449396321377" flag="0"/>
			<psa10 value="0.00787239125448492" flag="0"/>
			<psa30 value="0.000797753544003785" flag="0"/>
		</comp>
		<comp name="00.HNZ" depth="0.0">
			<acc value="0.0937325856209257" flag="0"/>
			<vel value="0.016170418430661" flag="0"/>
			<psa03 value="0.0539143589750175" flag="0"/>
			<psa10 value="0.00410733456755735" flag="0"/>
			<psa30 value="0.00143264545591706" flag="0"/>
		</comp>
	</station>
	<station code="NISR" name="NISR" netid="HL" source="National Observatory of Athens Seismic Network" insttype="" lat="36.6106" lon="27.131">
		<comp name="--.HNE" depth="0.0">
			<acc value="1.42289878153459" flag="0"/>
			<vel value="0.564313947508217" flag="0"/>
			<psa03 value="2.61415290608576" flag="0"/>
			<psa10 value="0.243613261439298" flag="0"/>
			<psa30 value="0.0437229791515075" flag="0"/>
		</comp>
		<comp name="--.HNN" depth="0.0">
			<acc value="2.04306247306587" flag="0"/>
			<vel value="0.345131492425355" flag="0"/>
			<psa03 value="1.61913097310202" flag="0"/>
			<psa10 value="0.157222324368342" flag="0"/>
			<psa30 value="0.029602338742781" flag="0"/>
		</comp>
		<comp name="--.HNZ" depth="0.0">
			<acc value="1.40930904460127" flag="0"/>
			<vel value="0.177062524758686" flag="0"/>
			<psa03 value="0.630954597730868" flag="0"/>
			<psa10 value="0.126993147310839" flag="0"/>
			<psa30 value="0.011239689724576" flag="0"/>
		</comp>
	</station>
	<station code="CAME" name="CAME" netid="KO" source="Bogazici University Kandilli Observatory And Earthquake Research Institute (KOERI)" insttype="" lat="36.9435" lon="29.3023">
		<comp name="--.HNE" depth="0.0">
			<acc value="0.00706278061482011" flag="0"/>
			<vel value="0.00452429840545111" flag="0"/>
			<psa03 value="0.0174047183745077" flag="0"/>
			<psa10 value="0.00643482415583984" flag="0"/>
			<psa30 value="0.000648314573898758" flag="0"/>
		</comp>
		<comp name="--.HNN" depth="0.0">
			<acc value="0.00461137979292278" flag="0"/>
			<vel value="0.00268405857562999" flag="0"/>
			<psa03 value="0.0139148262582825" flag="0"/>
			<psa10 value="0.00404693258862268" flag="0"/>
			<psa30 value="0.000900213197159627" flag="0"/>
		</comp>
		<comp name="--.HNZ" depth="0.0">
			<acc value="0.00439767483174382" flag="0"/>
			<vel value="0.0019540566976247" flag="0"/>
			<psa03 value="0.00697978423245039" flag="0"/>
			<psa10 value="0.00349526118101939" flag="0"/>
			<psa30 value="0.000373150003196386" flag="0"/>
		</comp>
	</station>
</stationlist>
