<?xml version="1.0" encoding="UTF-8" standalone="yes"?>
<!DOCTYPE earthquake SYSTEM "stationlist.dtd">
<stationlist created="" xmlns="ch.ethz.sed.shakemap.usgs.xml">
  <station code="DARE" name="DARE" netid="KO" insttype="CMG-3ESP" lat="38.5712" lon="37.4832">
    <comp name="--.HHE">
      <acc value="0.0342582765" flag="0"/>
      <vel value="0.0075056921" flag="0"/>
      <psa03 value="0.0425183398" flag="0"/>
      <psa10 value="0.0044586804" flag="0"/>
      <psa30 value="0.0004620864" flag="0"/>
    </comp>
    <comp name="--.HHN">
      <acc value="0.0272895006" flag="0"/>
      <vel value="0.0087691676" flag="0"/>
      <psa03 value="0.0371067269" flag="0"/>
      <psa10 value="0.0142795455" flag="0"/>
      <psa30 value="0.0005973790" flag="0"/>
    </comp>
    <comp name="--.HHZ">
      <acc value="0.0271235262" flag="0"/>
      <vel value="0.0080015267" flag="0"/>
      <psa03 value="0.0441653404" flag="0"/>
      <psa10 value="0.0140865562" flag="0"/>
      <psa30 value="0.0008260158" flag="0"/>
    </comp>
  </station>
  <station code="GAZ" name="GAZ" netid="KO" insttype="CMG-3T" lat="37.1721" lon="37.2096">
    <comp name="--.HHZ">
      <acc value="0.0054492439" flag="0"/>
      <vel value="0.0022608182" flag="0"/>
      <psa03 value="0.0109576428" flag="0"/>
      <psa10 value="0.0035950208" flag="0"/>
      <psa30 value="0.0004627636" flag="0"/>
    </comp>
    <comp name="--.HHN">
      <acc value="0.0063064792" flag="0"/>
      <vel value="0.0039456088" flag="0"/>
      <psa03 value="0.0132148567" flag="0"/>
      <psa10 value="0.0051251455" flag="0"/>
      <psa30 value="0.0003575011" flag="0"/>
    </comp>
    <comp name="--.HHE">
      <acc value="0.0112997930" flag="0"/>
      <vel value="0.0063890661" flag="0"/>
      <psa03 value="0.0149854146" flag="0"/>
      <psa10 value="0.0101545143" flag="0"/>
      <psa30 value="0.0016982555" flag="0"/>
    </comp>
  </station>
  <station code="KMRS" name="KMRS" netid="KO" insttype="CMG-3T" lat="37.5087" lon="36.9">
    <comp name="--.HHN">
      <acc value="0.0207930517" flag="0"/>
      <vel value="0.0108394765" flag="0"/>
      <psa03 value="0.0372589472" flag="0"/>
      <psa10 value="0.0099893825" flag="0"/>
      <psa30 value="0.0012070645" flag="0"/>
    </comp>
    <comp name="--.HHE">
      <acc value="0.0160733194" flag="0"/>
      <vel value="0.0075248851" flag="0"/>
      <psa03 value="0.0316733704" flag="0"/>
      <psa10 value="0.0082713702" flag="0"/>
      <psa30 value="0.0008067780" flag="0"/>
    </comp>
    <comp name="--.HHZ">
      <acc value="0.0172367776" flag="0"/>
      <vel value="0.0093177835" flag="0"/>
      <psa03 value="0.0431331370" flag="0"/>
      <psa10 value="0.0073252738" flag="0"/>
      <psa30 value="0.0005262544" flag="0"/>
    </comp>
  </station>
  <station code="SARI" name="SARI" netid="KO" insttype="CMG-3T" lat="38.4072" lon="36.4181">
    <comp name="--.HHE">
      <acc value="0.0278561573" flag="0"/>
      <vel value="0.0071066270" flag="0"/>
      <psa03 value="0.0559284263" flag="0"/>
      <psa10 value="0.0058938332" flag="0"/>
      <psa30 value="0.0004678287" flag="0"/>
    </comp>
    <comp name="--.HHN">
      <acc value="0.0234526406" flag="0"/>
      <vel value="0.0095182631" flag="0"/>
      <psa03 value="0.0615906385" flag="0"/>
      <psa10 value="0.0094353977" flag="0"/>
      <psa30 value="0.0005768438" flag="0"/>
    </comp>
    <comp name="--.HHZ">
      <acc value="0.0140246622" flag="0"/>
      <vel value="0.0066930366" flag="0"/>
      <psa03 value="0.0409456652" flag="0"/>
      <psa10 value="0.0097519255" flag="0"/>
      <psa30 value="0.0003530798" flag="0"/>
    </comp>
  </station>
  <station code="ANDN" name="ANDN" netid="TU" insttype="T" lat="37.58" lon="36.3452">
    <comp name="--.HHE">
      <acc value="0.0534800439" flag="0"/>
      <vel value="0.0211562786" flag="0"/>
      <psa03 value="0.0904098136" flag="0"/>
      <psa10 value="0.0186414463" flag="0"/>
      <psa30 value="0.0013568934" flag="0"/>
    </comp>
    <comp name="--.HHZ">
      <acc value="0.0295296415" flag="0"/>
      <vel value="0.0130416260" flag="0"/>
      <psa03 value="0.0467089433" flag="0"/>
      <psa10 value="0.0094555204" flag="0"/>
      <psa30 value="0.0009120351" flag="0"/>
    </comp>
    <comp name="--.HHN">
      <acc value="0.0678059898" flag="0"/>
      <vel value="0.0215486549" flag="0"/>
      <psa03 value="0.1219114773" flag="0"/>
      <psa10 value="0.0193441860" flag="0"/>
      <psa30 value="0.0010846706" flag="0"/>
    </comp>
  </station>
</stationlist>
