<?xml version="1.0" encoding="UTF-8" standalone="yes"?>
<!DOCTYPE earthquake SYSTEM "stationlist.dtd">
<stationlist created="" xmlns="ch.ethz.sed.shakemap.usgs.xml">
  <station code="SVRC" name="SVRC" netid="KO" insttype="CMG-3T" lat="38.3775" lon="39.306">
    <comp name="--.HHZ">
      <acc value="0.0167228608" flag="0"/>
      <vel value="0.0042828190" flag="0"/>
      <psa03 value="0.0213709471" flag="0"/>
      <psa10 value="0.0010679986" flag="0"/>
      <psa30 value="0.0002355946" flag="0"/>
    </comp>
    <comp name="--.HHN">
      <acc value="0.0126295713" flag="0"/>
      <vel value="0.0042978888" flag="0"/>
      <psa03 value="0.0273145977" flag="0"/>
      <psa10 value="0.0013764534" flag="0"/>
      <psa30 value="0.0002188429" flag="0"/>
    </comp>
  </station>
</stationlist>
