<?xml version="1.0" encoding="UTF-8" standalone="yes"?>
<!DOCTYPE earthquake SYSTEM "stationlist.dtd">
<stationlist created="" xmlns="ch.ethz.sed.shakemap.usgs.xml">
  <station code="BAYT" name="BAYT" netid="KO" insttype="CMG-3ESPC" lat="40.3937" lon="40.141">
    <comp name="--.HHE">
      <acc value="0.2608192503" flag="0"/>
      <vel value="0.1004021054" flag="0"/>
      <psa03 value="0.4287620594" flag="0"/>
      <psa10 value="0.0678327898" flag="0"/>
      <psa30 value="0.0047239814" flag="0"/>
    </comp>
    <comp name="--.HHN">
      <acc value="0.2109058717" flag="0"/>
      <vel value="0.0667267764" flag="0"/>
      <psa03 value="0.3409087695" flag="0"/>
      <psa10 value="0.0589933049" flag="0"/>
      <psa30 value="0.0032153002" flag="0"/>
    </comp>
    <comp name="--.HHZ">
      <acc value="0.0110654096" flag="0"/>
      <vel value="0.0054131216" flag="0"/>
      <psa03 value="0.0339201922" flag="0"/>
      <psa10 value="0.0024453819" flag="0"/>
      <psa30 value="0.0001640339" flag="0"/>
    </comp>
  </station>
  <station code="BCA" name="BCA" netid="KO" insttype="CMG-3ESP" lat="41.445" lon="41.6223">
    <comp name="--.HHE">
      <acc value="1.3693209115" flag="0"/>
      <vel value="0.2159769408" flag="0"/>
      <psa03 value="0.4160884457" flag="0"/>
      <psa10 value="0.0465070340" flag="0"/>
      <psa30 value="0.0036270632" flag="0"/>
    </comp>
    <comp name="--.HHZ">
      <acc value="0.2451962235" flag="0"/>
      <vel value="0.0420170849" flag="0"/>
      <psa03 value="0.2120336384" flag="0"/>
      <psa10 value="0.0393234778" flag="0"/>
      <psa30 value="0.0026938992" flag="0"/>
    </comp>
  </station>
  <station code="CHAY" name="CHAY" netid="KO" insttype="CMG-5T" lat="41.0862" lon="40.7253">
    <comp name="--.HNN">
      <acc value="9.5447491670" flag="0"/>
      <vel value="3.4224199891" flag="0"/>
      <psa03 value="18.6768749691" flag="0"/>
      <psa10 value="3.2717641306" flag="0"/>
      <psa30 value="0.1272159977" flag="0"/>
    </comp>
    <comp name="--.HNZ">
      <acc value="5.2236190184" flag="0"/>
      <vel value="1.7596027597" flag="0"/>
      <psa03 value="3.7387890471" flag="0"/>
      <psa10 value="1.5749690907" flag="0"/>
      <psa30 value="0.1095462060" flag="0"/>
    </comp>
    <comp name="--.HNE">
      <acc value="9.4965467186" flag="0"/>
      <vel value="3.1356669688" flag="0"/>
      <psa03 value="10.9797865009" flag="0"/>
      <psa10 value="1.3418975123" flag="0"/>
      <psa30 value="0.0884555231" flag="0"/>
    </comp>
  </station>
  <station code="GUMT" name="GUMT" netid="KO" insttype="CMG-5T" lat="40.4665" lon="39.478">
    <comp name="--.HNN">
      <acc value="0.2736319607" flag="0"/>
      <vel value="0.0797228695" flag="0"/>
      <psa03 value="0.2124094245" flag="0"/>
      <psa10 value="0.0572773064" flag="0"/>
      <psa30 value="0.0032326681" flag="0"/>
    </comp>
    <comp name="--.HNE">
      <acc value="0.3255697618" flag="0"/>
      <vel value="0.0529294177" flag="0"/>
      <psa03 value="0.1331473474" flag="0"/>
      <psa10 value="0.0493476802" flag="0"/>
      <psa30 value="0.0035297411" flag="0"/>
    </comp>
    <comp name="--.HNZ">
      <acc value="0.4026075741" flag="0"/>
      <vel value="0.0539116506" flag="0"/>
      <psa03 value="0.1503940414" flag="0"/>
      <psa10 value="0.0278980180" flag="0"/>
      <psa30 value="0.0018803260" flag="0"/>
    </comp>
  </station>
  <station code="KOPR" name="KOPR" netid="KO" insttype="CMG-3T" lat="39.9917" lon="41.8535">
    <comp name="--.HHZ">
      <acc value="0.0324886067" flag="0"/>
      <vel value="0.0527918609" flag="0"/>
      <psa03 value="0.0553203771" flag="0"/>
      <psa10 value="0.0788994168" flag="0"/>
      <psa30 value="0.0111344019" flag="0"/>
    </comp>
    <comp name="--.HHE">
      <acc value="0.0294787708" flag="0"/>
      <vel value="0.0371522715" flag="0"/>
      <psa03 value="0.0443259588" flag="0"/>
      <psa10 value="0.0444381288" flag="0"/>
      <psa30 value="0.0055220138" flag="0"/>
    </comp>
    <comp name="--.HHN">
      <acc value="0.0468291326" flag="0"/>
      <vel value="0.0757762956" flag="0"/>
      <psa03 value="0.0662679591" flag="0"/>
      <psa10 value="0.0869554003" flag="0"/>
      <psa30 value="0.0141097555" flag="0"/>
    </comp>
  </station>
</stationlist>
