<?xml version="1.0" encoding="UTF-8" standalone="yes"?>
<!DOCTYPE earthquake SYSTEM "stationlist.dtd">
<stationlist created="" xmlns="ch.ethz.sed.shakemap.usgs.xml">
  <station code="BAYT" name="BAYT" netid="KO" insttype="CMG-3ESPC" lat="40.3937" lon="40.141">
    <comp name="--.HHZ">
      <acc value="0.0110654096" flag="0"/>
      <vel value="0.0054131216" flag="0"/>
      <psa03 value="0.0339201922" flag="0"/>
      <psa10 value="0.0024453819" flag="0"/>
      <psa30 value="0.0001640366" flag="0"/>
    </comp>
    <comp name="--.HHE">
      <acc value="0.2608192504" flag="0"/>
      <vel value="0.1004021060" flag="0"/>
      <psa03 value="0.4287620594" flag="0"/>
      <psa10 value="0.0678327898" flag="0"/>
      <psa30 value="0.0047240248" flag="0"/>
    </comp>
    <comp name="--.HHN">
      <acc value="0.2109058718" flag="0"/>
      <vel value="0.0667267767" flag="0"/>
      <psa03 value="0.3409087695" flag="0"/>
      <psa10 value="0.0589933053" flag="0"/>
      <psa30 value="0.0032153722" flag="0"/>
    </comp>
  </station>
  <station code="CHAY" name="CHAY" netid="KO" insttype="CMG-5T" lat="41.0862" lon="40.7253">
    <comp name="--.HNE">
      <acc value="9.4965467269" flag="0"/>
      <vel value="3.1356669747" flag="0"/>
      <psa03 value="10.9797865009" flag="0"/>
      <psa10 value="1.3418975156" flag="0"/>
      <psa30 value="0.0884563305" flag="0"/>
    </comp>
    <comp name="--.HNZ">
      <acc value="5.2236190333" flag="0"/>
      <vel value="1.7596027485" flag="0"/>
      <psa03 value="3.7387890471" flag="0"/>
      <psa10 value="1.5749690981" flag="0"/>
      <psa30 value="0.1095395312" flag="0"/>
    </comp>
    <comp name="--.HNN">
      <acc value="9.5447491850" flag="0"/>
      <vel value="3.4224199868" flag="0"/>
      <psa03 value="18.6768749691" flag="0"/>
      <psa10 value="3.2717641283" flag="0"/>
      <psa30 value="0.1272145446" flag="0"/>
    </comp>
  </station>
  <station code="GUMT" name="GUMT" netid="KO" insttype="CMG-5T" lat="40.4665" lon="39.478">
    <comp name="--.HNE">
      <acc value="0.3255697625" flag="0"/>
      <vel value="0.0529294018" flag="0"/>
      <psa03 value="0.1331473474" flag="0"/>
      <psa10 value="0.0493476807" flag="0"/>
      <psa30 value="0.0035304628" flag="0"/>
    </comp>
    <comp name="--.HNN">
      <acc value="0.2736319604" flag="0"/>
      <vel value="0.0797228742" flag="0"/>
      <psa03 value="0.2124094245" flag="0"/>
      <psa10 value="0.0572773055" flag="0"/>
      <psa30 value="0.0032302493" flag="0"/>
    </comp>
    <comp name="--.HNZ">
      <acc value="0.4026075761" flag="0"/>
      <vel value="0.0539116624" flag="0"/>
      <psa03 value="0.1503940414" flag="0"/>
      <psa10 value="0.0278980188" flag="0"/>
      <psa30 value="0.0018811371" flag="0"/>
    </comp>
  </station>
  <station code="KOPR" name="KOPR" netid="KO" insttype="CMG-3T" lat="39.9917" lon="41.8535">
    <comp name="--.HHZ">
      <acc value="0.0324886068" flag="0"/>
      <vel value="0.0527918620" flag="0"/>
      <psa03 value="0.0553203771" flag="0"/>
      <psa10 value="0.0788994168" flag="0"/>
      <psa30 value="0.0111344024" flag="0"/>
    </comp>
    <comp name="--.HHE">
      <acc value="0.0294787704" flag="0"/>
      <vel value="0.0371522711" flag="0"/>
      <psa03 value="0.0443259588" flag="0"/>
      <psa10 value="0.0444381288" flag="0"/>
      <psa30 value="0.0055220145" flag="0"/>
    </comp>
    <comp name="--.HHN">
      <acc value="0.0468291329" flag="0"/>
      <vel value="0.0757762962" flag="0"/>
      <psa03 value="0.0662679591" flag="0"/>
      <psa10 value="0.0869554003" flag="0"/>
      <psa30 value="0.0141097528" flag="0"/>
    </comp>
  </station>
</stationlist>
