<?xml version="1.0" encoding="UTF-8" standalone="yes"?>
<!DOCTYPE earthquake SYSTEM "stationlist.dtd">
<stationlist created="" xmlns="ch.ethz.sed.shakemap.usgs.xml">
  <station code="BAYT" name="BAYT" netid="KO" insttype="CMG-3ESPC" lat="40.3937" lon="40.141">
    <comp name="--.HHE">
      <acc value="0.2608192504" flag="0"/>
      <vel value="0.1004021059" flag="0"/>
      <psa03 value="0.4287620594" flag="0"/>
      <psa10 value="0.0678327899" flag="0"/>
      <psa30 value="0.0047240183" flag="0"/>
    </comp>
    <comp name="--.HHN">
      <acc value="0.2109058718" flag="0"/>
      <vel value="0.0667267758" flag="0"/>
      <psa03 value="0.3409087695" flag="0"/>
      <psa10 value="0.0589933054" flag="0"/>
      <psa30 value="0.0032154047" flag="0"/>
    </comp>
    <comp name="--.HHZ">
      <acc value="0.0110654096" flag="0"/>
      <vel value="0.0054131217" flag="0"/>
      <psa03 value="0.0339201922" flag="0"/>
      <psa10 value="0.0024453819" flag="0"/>
      <psa30 value="0.0001640379" flag="0"/>
    </comp>
  </station>
  <station code="BCA" name="BCA" netid="KO" insttype="CMG-3ESP" lat="41.445" lon="41.6223">
    <comp name="--.HHE">
      <acc value="1.3693209117" flag="0"/>
      <vel value="0.2159769407" flag="0"/>
      <psa03 value="0.4160884457" flag="0"/>
      <psa10 value="0.0465070340" flag="0"/>
      <psa30 value="0.0036270626" flag="0"/>
    </comp>
    <comp name="--.HHZ">
      <acc value="0.2451962234" flag="0"/>
      <vel value="0.0420170848" flag="0"/>
      <psa03 value="0.2120336384" flag="0"/>
      <psa10 value="0.0393234778" flag="0"/>
      <psa30 value="0.0026938989" flag="0"/>
    </comp>
  </station>
  <station code="CHAY" name="CHAY" netid="KO" insttype="CMG-5T" lat="41.0862" lon="40.7253">
    <comp name="--.HNE">
      <acc value="9.4965467297" flag="0"/>
      <vel value="3.1356669709" flag="0"/>
      <psa03 value="10.9797865009" flag="0"/>
      <psa10 value="1.3418975331" flag="0"/>
      <psa30 value="0.0884546641" flag="0"/>
    </comp>
    <comp name="--.HNN">
      <acc value="9.5447491889" flag="0"/>
      <vel value="3.4224199911" flag="0"/>
      <psa03 value="18.6768749691" flag="0"/>
      <psa10 value="3.2717641314" flag="0"/>
      <psa30 value="0.1272170335" flag="0"/>
    </comp>
    <comp name="--.HNZ">
      <acc value="5.2236190388" flag="0"/>
      <vel value="1.7596027422" flag="0"/>
      <psa03 value="3.7387890471" flag="0"/>
      <psa10 value="1.5749691242" flag="0"/>
      <psa30 value="0.1095444022" flag="0"/>
    </comp>
  </station>
  <station code="GUMT" name="GUMT" netid="KO" insttype="CMG-5T" lat="40.4665" lon="39.478">
    <comp name="--.HNE">
      <acc value="0.3255697622" flag="0"/>
      <vel value="0.0529294007" flag="0"/>
      <psa03 value="0.1331473474" flag="0"/>
      <psa10 value="0.0493476807" flag="0"/>
      <psa30 value="0.0035305112" flag="0"/>
    </comp>
    <comp name="--.HNN">
      <acc value="0.2736319606" flag="0"/>
      <vel value="0.0797228741" flag="0"/>
      <psa03 value="0.2124094245" flag="0"/>
      <psa10 value="0.0572773056" flag="0"/>
      <psa30 value="0.0032307480" flag="0"/>
    </comp>
    <comp name="--.HNZ">
      <acc value="0.4026075764" flag="0"/>
      <vel value="0.0539116639" flag="0"/>
      <psa03 value="0.1503940414" flag="0"/>
      <psa10 value="0.0278980188" flag="0"/>
      <psa30 value="0.0018809965" flag="0"/>
    </comp>
  </station>
  <station code="KOPR" name="KOPR" netid="KO" insttype="CMG-3T" lat="39.9917" lon="41.8535">
    <comp name="--.HHZ">
      <acc value="0.0324886067" flag="0"/>
      <vel value="0.0527918599" flag="0"/>
      <psa03 value="0.0553203771" flag="0"/>
      <psa10 value="0.0788994168" flag="0"/>
      <psa30 value="0.0111344000" flag="0"/>
    </comp>
    <comp name="--.HHE">
      <acc value="0.0294787710" flag="0"/>
      <vel value="0.0371522712" flag="0"/>
      <psa03 value="0.0443259588" flag="0"/>
      <psa10 value="0.0444381287" flag="0"/>
      <psa30 value="0.0055220135" flag="0"/>
    </comp>
    <comp name="--.HHN">
      <acc value="0.0468291326" flag="0"/>
      <vel value="0.0757762962" flag="0"/>
      <psa03 value="0.0662679591" flag="0"/>
      <psa10 value="0.0869554003" flag="0"/>
      <psa30 value="0.0141097612" flag="0"/>
    </comp>
  </station>
</stationlist>
