<?xml version="1.0" encoding="UTF-8" standalone="yes"?>
<!DOCTYPE earthquake SYSTEM "stationlist.dtd">
<stationlist created="" xmlns="ch.ethz.sed.shakemap.usgs.xml">
  <station code="MYT1" name="MYT1" netid="HI" insttype="CMG-5TD,ACCELEROMETER,GURALP" commtype="DIG" lat="39.085" lon="26.5694">
    <comp name="--.HNE">
      <acc value="0.0322835986" flag="0"/>
      <vel value="0.0304545888" flag="0"/>
      <psa03 value="0.0575342186" flag="0"/>
      <psa10 value="0.0581717735" flag="0"/>
      <psa30 value="0.0059688554" flag="0"/>
    </comp>
    <comp name="--.HNN">
      <acc value="0.0365450923" flag="0"/>
      <vel value="0.0399540661" flag="0"/>
      <psa03 value="0.0540301524" flag="0"/>
      <psa10 value="0.0758469870" flag="0"/>
      <psa30 value="0.0076077308" flag="0"/>
    </comp>
    <comp name="--.HNZ">
      <acc value="0.0177342343" flag="0"/>
      <vel value="0.0154871033" flag="0"/>
      <psa03 value="0.0305671470" flag="0"/>
      <psa10 value="0.0262846414" flag="0"/>
      <psa30 value="0.0034911229" flag="0"/>
    </comp>
  </station>
  <station code="AKS" name="AKS" netid="KO" insttype="CMG-5T" commtype="DIG" lat="38.8785" lon="27.8129">
    <comp name="--.HNE">
      <acc value="0.2127756787" flag="0"/>
      <vel value="0.0923274511" flag="0"/>
      <psa03 value="0.2976540243" flag="0"/>
      <psa10 value="0.0763960897" flag="0"/>
      <psa30 value="0.0043672255" flag="0"/>
    </comp>
    <comp name="--.HNN">
      <acc value="0.2405526350" flag="0"/>
      <vel value="0.0645812800" flag="0"/>
      <psa03 value="0.3540159477" flag="0"/>
      <psa10 value="0.0469056097" flag="0"/>
      <psa30 value="0.0035087152" flag="0"/>
    </comp>
    <comp name="--.HNZ">
      <acc value="0.1233286526" flag="0"/>
      <vel value="0.0344843592" flag="0"/>
      <psa03 value="0.1181364058" flag="0"/>
      <psa10 value="0.0315139931" flag="0"/>
      <psa30 value="0.0027690741" flag="0"/>
    </comp>
  </station>
  <station code="AYVL" name="AYVL" netid="KO" insttype="CMG-6T" commtype="DIG" lat="39.2907" lon="26.69">
    <comp name="--.HHE">
      <acc value="0.0530196555" flag="0"/>
      <vel value="0.0286110435" flag="0"/>
      <psa03 value="0.1060553113" flag="0"/>
      <psa10 value="0.0378656949" flag="0"/>
      <psa30 value="0.0017281473" flag="0"/>
    </comp>
    <comp name="--.HHN">
      <acc value="0.0740070353" flag="0"/>
      <vel value="0.0367917415" flag="0"/>
      <psa03 value="0.1436652739" flag="0"/>
      <psa10 value="0.0314368040" flag="0"/>
      <psa30 value="0.0015314974" flag="0"/>
    </comp>
    <comp name="--.HHZ">
      <acc value="0.0341027462" flag="0"/>
      <vel value="0.0166655727" flag="0"/>
      <psa03 value="0.0409139262" flag="0"/>
      <psa10 value="0.0187339346" flag="0"/>
      <psa30 value="0.0008934542" flag="0"/>
    </comp>
  </station>
  <station code="BALB" name="BALB" netid="KO" insttype="CMG-5T" commtype="DIG" lat="39.6507" lon="27.8642">
    <comp name="--.HNE">
      <acc value="0.1071669316" flag="0"/>
      <vel value="0.0570133207" flag="0"/>
      <psa03 value="0.1956205420" flag="0"/>
      <psa10 value="0.1048249311" flag="0"/>
      <psa30 value="0.0060472289" flag="0"/>
    </comp>
    <comp name="--.HNN">
      <acc value="0.0728303356" flag="0"/>
      <vel value="0.0566580123" flag="0"/>
      <psa03 value="0.2219521776" flag="0"/>
      <psa10 value="0.0590509714" flag="0"/>
      <psa30 value="0.0056812114" flag="0"/>
    </comp>
    <comp name="--.HNZ">
      <acc value="0.0482693603" flag="0"/>
      <vel value="0.0228580206" flag="0"/>
      <psa03 value="0.0678362526" flag="0"/>
      <psa10 value="0.0418151946" flag="0"/>
      <psa30 value="0.0046870985" flag="0"/>
    </comp>
  </station>
  <station code="BIGA" name="BIGA" netid="KO" insttype="CMG-5T" commtype="DIG" lat="40.2813" lon="27.1505">
    <comp name="--.HNE">
      <acc value="0.0330247289" flag="0"/>
      <vel value="0.0245448555" flag="0"/>
      <psa03 value="0.0489857643" flag="0"/>
      <psa10 value="0.0265867364" flag="0"/>
      <psa30 value="0.0032971525" flag="0"/>
    </comp>
    <comp name="--.HNN">
      <acc value="0.0360184961" flag="0"/>
      <vel value="0.0148090201" flag="0"/>
      <psa03 value="0.0557385919" flag="0"/>
      <psa10 value="0.0187499431" flag="0"/>
      <psa30 value="0.0024992289" flag="0"/>
    </comp>
    <comp name="--.HNZ">
      <acc value="0.0133775525" flag="0"/>
      <vel value="0.0067497407" flag="0"/>
      <psa03 value="0.0190992454" flag="0"/>
      <psa10 value="0.0113302766" flag="0"/>
      <psa30 value="0.0008666944" flag="0"/>
    </comp>
  </station>
  <station code="BLCB" name="BLCB" netid="KO" insttype="CMG-3T" commtype="DIG" lat="38.3853" lon="27.042">
    <comp name="--.HHE">
      <acc value="0.0502332618" flag="0"/>
      <vel value="0.0357925385" flag="0"/>
      <psa03 value="0.1949187073" flag="0"/>
      <psa10 value="0.0436122488" flag="0"/>
      <psa30 value="0.0028967635" flag="0"/>
    </comp>
    <comp name="--.HHN">
      <acc value="0.0000468786" flag="0"/>
      <vel value="0.0000177460" flag="0"/>
      <psa03 value="0.0000731472" flag="0"/>
      <psa10 value="0.0000234448" flag="0"/>
      <psa30 value="0.0000013511" flag="0"/>
    </comp>
    <comp name="--.HHZ">
      <acc value="0.0280239529" flag="0"/>
      <vel value="0.0130000236" flag="0"/>
      <psa03 value="0.0987536691" flag="0"/>
      <psa10 value="0.0101225680" flag="0"/>
      <psa30 value="0.0011887959" flag="0"/>
    </comp>
  </station>
  <station code="BMYO" name="BMYO" netid="KO" insttype="CMG-5T" commtype="DIG" lat="39.8098" lon="26.6009">
    <comp name="--.HNE">
      <acc value="0.0285574924" flag="0"/>
      <vel value="0.0172420919" flag="0"/>
      <psa03 value="0.0626796586" flag="0"/>
      <psa10 value="0.0246720813" flag="0"/>
      <psa30 value="0.0027161956" flag="0"/>
    </comp>
    <comp name="--.HNN">
      <acc value="0.0342827974" flag="0"/>
      <vel value="0.0179151921" flag="0"/>
      <psa03 value="0.0557954076" flag="0"/>
      <psa10 value="0.0276244438" flag="0"/>
      <psa30 value="0.0036452918" flag="0"/>
    </comp>
    <comp name="--.HNZ">
      <acc value="0.0181125565" flag="0"/>
      <vel value="0.0142135291" flag="0"/>
      <psa03 value="0.0268111986" flag="0"/>
      <psa10 value="0.0340499911" flag="0"/>
      <psa30 value="0.0017081896" flag="0"/>
    </comp>
  </station>
  <station code="CANM" name="CANM" netid="KO" insttype="CMG-5T" commtype="DIG" lat="40.0113" lon="27.0529">
    <comp name="--.HNE">
      <acc value="0.0214564166" flag="0"/>
      <vel value="0.0154037837" flag="0"/>
      <psa03 value="0.0266836009" flag="0"/>
      <psa10 value="0.0279739815" flag="0"/>
      <psa30 value="0.0016746316" flag="0"/>
    </comp>
    <comp name="--.HNN">
      <acc value="0.0286923851" flag="0"/>
      <vel value="0.0267943639" flag="0"/>
      <psa03 value="0.0457085155" flag="0"/>
      <psa10 value="0.0625202296" flag="0"/>
      <psa30 value="0.0034824524" flag="0"/>
    </comp>
    <comp name="--.HNZ">
      <acc value="0.0194968877" flag="0"/>
      <vel value="0.0110586400" flag="0"/>
      <psa03 value="0.0281536970" flag="0"/>
      <psa10 value="0.0190010815" flag="0"/>
      <psa30 value="0.0014914575" flag="0"/>
    </comp>
  </station>
  <station code="DGNL" name="DGNL" netid="KO" insttype="SA10" commtype="DIG" lat="40.5209" lon="27.7484">
    <comp name="--.HNE">
      <acc value="0.0167324375" flag="0"/>
      <vel value="0.0125391069" flag="0"/>
      <psa03 value="0.0263994655" flag="0"/>
      <psa10 value="0.0163129038" flag="0"/>
      <psa30 value="0.0016182422" flag="0"/>
    </comp>
    <comp name="--.HNN">
      <acc value="0.0158272643" flag="0"/>
      <vel value="0.0122835101" flag="0"/>
      <psa03 value="0.0244704320" flag="0"/>
      <psa10 value="0.0215565580" flag="0"/>
      <psa30 value="0.0012621904" flag="0"/>
    </comp>
    <comp name="--.HNZ">
      <acc value="0.0096212290" flag="0"/>
      <vel value="0.0061551937" flag="0"/>
      <psa03 value="0.0234671746" flag="0"/>
      <psa10 value="0.0089261348" flag="0"/>
      <psa30 value="0.0006435533" flag="0"/>
    </comp>
  </station>
  <station code="DKL" name="DKL" netid="KO" insttype="CMG-3ESPC" commtype="DIG" lat="39.0713" lon="26.9053">
    <comp name="--.HHZ">
      <acc value="0.0162962200" flag="0"/>
      <vel value="0.0081030279" flag="0"/>
      <psa03 value="0.0183887794" flag="0"/>
      <psa10 value="0.0113366176" flag="0"/>
      <psa30 value="0.0011825294" flag="0"/>
    </comp>
  </station>
  <station code="DST" name="DST" netid="KO" insttype="CMG-5T" commtype="DIG" lat="39.6041" lon="28.6267">
    <comp name="--.HNE">
      <acc value="0.0774260594" flag="0"/>
      <vel value="0.0265111460" flag="0"/>
      <psa03 value="0.0895835075" flag="0"/>
      <psa10 value="0.0391162157" flag="0"/>
      <psa30 value="0.0024618557" flag="0"/>
    </comp>
    <comp name="--.HNN">
      <acc value="0.0901288937" flag="0"/>
      <vel value="0.0250364698" flag="0"/>
      <psa03 value="0.1259984706" flag="0"/>
      <psa10 value="0.0264088777" flag="0"/>
      <psa30 value="0.0028118766" flag="0"/>
    </comp>
    <comp name="--.HNZ">
      <acc value="0.0850562892" flag="0"/>
      <vel value="0.0204395749" flag="0"/>
      <psa03 value="0.0676781992" flag="0"/>
      <psa10 value="0.0226261243" flag="0"/>
      <psa30 value="0.0019468312" flag="0"/>
    </comp>
  </station>
  <station code="EDC" name="EDC" netid="KO" insttype="CMG-3T" commtype="DIG" lat="40.3465" lon="27.8618">
    <comp name="--.HHZ">
      <acc value="0.0235124985" flag="0"/>
      <vel value="0.0083197049" flag="0"/>
      <psa03 value="0.0228938514" flag="0"/>
      <psa10 value="0.0127298268" flag="0"/>
      <psa30 value="0.0006113798" flag="0"/>
    </comp>
    <comp name="--.HHE">
      <acc value="0.0352234263" flag="0"/>
      <vel value="0.0221086983" flag="0"/>
      <psa03 value="0.0586801057" flag="0"/>
      <psa10 value="0.0217995345" flag="0"/>
      <psa30 value="0.0021561796" flag="0"/>
    </comp>
    <comp name="--.HHN">
      <acc value="0.0529940292" flag="0"/>
      <vel value="0.0254197805" flag="0"/>
      <psa03 value="0.0980511715" flag="0"/>
      <psa10 value="0.0403096021" flag="0"/>
      <psa30 value="0.0015014560" flag="0"/>
    </comp>
  </station>
  <station code="FOCM" name="FOCM" netid="KO" insttype="CMG-5T" commtype="DIG" lat="38.7131" lon="26.7309">
    <comp name="--.HNE">
      <acc value="0.0339304009" flag="0"/>
      <vel value="0.0275080666" flag="0"/>
      <psa03 value="0.0577830492" flag="0"/>
      <psa10 value="0.0303798236" flag="0"/>
      <psa30 value="0.0035156634" flag="0"/>
    </comp>
    <comp name="--.HNN">
      <acc value="0.0268946674" flag="0"/>
      <vel value="0.0214404503" flag="0"/>
      <psa03 value="0.0511762671" flag="0"/>
      <psa10 value="0.0232268849" flag="0"/>
      <psa30 value="0.0033685824" flag="0"/>
    </comp>
    <comp name="--.HNZ">
      <acc value="0.0161487472" flag="0"/>
      <vel value="0.0148396583" flag="0"/>
      <psa03 value="0.0418168290" flag="0"/>
      <psa10 value="0.0226667500" flag="0"/>
      <psa30 value="0.0019867866" flag="0"/>
    </comp>
  </station>
  <station code="GEDZ" name="GEDZ" netid="KO" insttype="CMG-6T" commtype="DIG" lat="39.0445" lon="29.4105">
    <comp name="--.HHE">
      <acc value="0.0876050835" flag="0"/>
      <vel value="0.0668916852" flag="0"/>
      <psa03 value="0.1828751037" flag="0"/>
      <psa10 value="0.0814139134" flag="0"/>
      <psa30 value="0.0045137262" flag="0"/>
    </comp>
    <comp name="--.HHN">
      <acc value="0.1174473660" flag="0"/>
      <vel value="0.0589189878" flag="0"/>
      <psa03 value="0.2786347516" flag="0"/>
      <psa10 value="0.1258086619" flag="0"/>
      <psa30 value="0.0055777990" flag="0"/>
    </comp>
    <comp name="--.HHZ">
      <acc value="0.0742310521" flag="0"/>
      <vel value="0.0245254388" flag="0"/>
      <psa03 value="0.0558484216" flag="0"/>
      <psa10 value="0.0352665350" flag="0"/>
      <psa30 value="0.0017888695" flag="0"/>
    </comp>
  </station>
  <station code="GOMA" name="GOMA" netid="KO" insttype="CMG-5T" commtype="DIG" lat="38.7077" lon="27.9175">
    <comp name="--.HNE">
      <acc value="0.2031647795" flag="0"/>
      <vel value="0.0855579740" flag="0"/>
      <psa03 value="0.6306760744" flag="0"/>
      <psa10 value="0.0588131875" flag="0"/>
      <psa30 value="0.0036656990" flag="0"/>
    </comp>
    <comp name="--.HNN">
      <acc value="0.2921783776" flag="0"/>
      <vel value="0.1573480722" flag="0"/>
      <psa03 value="1.2165601317" flag="0"/>
      <psa10 value="0.0473590558" flag="0"/>
      <psa30 value="0.0045128090" flag="0"/>
    </comp>
  </station>
  <station code="GONE" name="GONE" netid="KO" insttype="CMG-5T" commtype="DIG" lat="40.0466" lon="27.686">
    <comp name="--.HNE">
      <acc value="0.0354747895" flag="0"/>
      <vel value="0.0283403762" flag="0"/>
      <psa03 value="0.0704967558" flag="0"/>
      <psa10 value="0.0344901361" flag="0"/>
      <psa30 value="0.0028622428" flag="0"/>
    </comp>
    <comp name="--.HNN">
      <acc value="0.0504604806" flag="0"/>
      <vel value="0.0272012591" flag="0"/>
      <psa03 value="0.0736430829" flag="0"/>
      <psa10 value="0.0318970142" flag="0"/>
      <psa30 value="0.0049684293" flag="0"/>
    </comp>
    <comp name="--.HNZ">
      <acc value="0.0264976672" flag="0"/>
      <vel value="0.0082572528" flag="0"/>
      <psa03 value="0.0333116681" flag="0"/>
      <psa10 value="0.0096919401" flag="0"/>
      <psa30 value="0.0009172762" flag="0"/>
    </comp>
  </station>
  <station code="GORD" name="GORD" netid="KO" insttype="CMG-5T" commtype="DIG" lat="38.9088" lon="28.1769">
    <comp name="--.HNE">
      <acc value="0.2878974751" flag="0"/>
      <vel value="0.1245660433" flag="0"/>
      <psa03 value="0.6843060684" flag="0"/>
      <psa10 value="0.2109913632" flag="0"/>
      <psa30 value="0.0101373692" flag="0"/>
    </comp>
    <comp name="--.HNN">
      <acc value="0.4299033485" flag="0"/>
      <vel value="0.3161761351" flag="0"/>
      <psa03 value="0.8819983010" flag="0"/>
      <psa10 value="0.2449946410" flag="0"/>
      <psa30 value="0.0124452792" flag="0"/>
    </comp>
    <comp name="--.HNZ">
      <acc value="0.3109807649" flag="0"/>
      <vel value="0.1258760862" flag="0"/>
      <psa03 value="0.4269689867" flag="0"/>
      <psa10 value="0.0687410916" flag="0"/>
      <psa30 value="0.0078663666" flag="0"/>
    </comp>
  </station>
  <station code="IMRL" name="IMRL" netid="KO" insttype="SA10" commtype="DIG" lat="40.5554" lon="28.527">
    <comp name="--.HNZ">
      <acc value="0.0333702050" flag="0"/>
      <vel value="0.0087138715" flag="0"/>
      <psa03 value="0.0465565395" flag="0"/>
      <psa10 value="0.0085672259" flag="0"/>
      <psa30 value="0.0012547922" flag="0"/>
    </comp>
    <comp name="--.HNN">
      <acc value="0.0530108649" flag="0"/>
      <vel value="0.0257650258" flag="0"/>
      <psa03 value="0.1326584316" flag="0"/>
      <psa10 value="0.0322462875" flag="0"/>
      <psa30 value="0.0021330361" flag="0"/>
    </comp>
  </station>
  <station code="KCTX" name="KCTX" netid="KO" insttype="CMG-3ESP" commtype="DIG" lat="40.2626" lon="28.3353">
    <comp name="--.HHE">
      <acc value="0.0384523369" flag="0"/>
      <vel value="0.0226139828" flag="0"/>
      <psa03 value="0.0623969347" flag="0"/>
      <psa10 value="0.0417153598" flag="0"/>
      <psa30 value="0.0024497697" flag="0"/>
    </comp>
    <comp name="--.HHN">
      <acc value="0.0540636962" flag="0"/>
      <vel value="0.0173741007" flag="0"/>
      <psa03 value="0.0727388778" flag="0"/>
      <psa10 value="0.0185919207" flag="0"/>
      <psa30 value="0.0012964886" flag="0"/>
    </comp>
    <comp name="--.HHZ">
      <acc value="0.0385237183" flag="0"/>
      <vel value="0.0085790399" flag="0"/>
      <psa03 value="0.0357184897" flag="0"/>
      <psa10 value="0.0097466676" flag="0"/>
      <psa30 value="0.0007732830" flag="0"/>
    </comp>
  </station>
  <station code="KRBG" name="KRBG" netid="KO" insttype="CMG-3ESP" commtype="DIG" lat="40.3932" lon="27.2977">
    <comp name="--.HHN">
      <acc value="0.0116831676" flag="0"/>
      <vel value="0.0086803253" flag="0"/>
      <psa03 value="0.0209253664" flag="0"/>
      <psa10 value="0.0139998142" flag="0"/>
      <psa30 value="0.0017480969" flag="0"/>
    </comp>
    <comp name="--.HHZ">
      <acc value="0.0062849553" flag="0"/>
      <vel value="0.0036792618" flag="0"/>
      <psa03 value="0.0083213006" flag="0"/>
      <psa10 value="0.0071912957" flag="0"/>
      <psa30 value="0.0004998376" flag="0"/>
    </comp>
  </station>
  <station code="MDNY" name="MDNY" netid="KO" insttype="CMG-5T" commtype="DIG" lat="40.3709" lon="28.8846">
    <comp name="--.HNE">
      <acc value="0.1196978833" flag="0"/>
      <vel value="0.0387379769" flag="0"/>
      <psa03 value="0.1994718269" flag="0"/>
      <psa10 value="0.0192048401" flag="0"/>
      <psa30 value="0.0019427820" flag="0"/>
    </comp>
    <comp name="--.HNN">
      <acc value="0.1036554804" flag="0"/>
      <vel value="0.0436593962" flag="0"/>
      <psa03 value="0.3105316093" flag="0"/>
      <psa10 value="0.0294194680" flag="0"/>
      <psa30 value="0.0023045990" flag="0"/>
    </comp>
    <comp name="--.HNZ">
      <acc value="0.0470628759" flag="0"/>
      <vel value="0.0185116125" flag="0"/>
      <psa03 value="0.0414076577" flag="0"/>
      <psa10 value="0.0134837817" flag="0"/>
      <psa30 value="0.0019386562" flag="0"/>
    </comp>
  </station>
  <station code="MSKC" name="MSKC" netid="KO" insttype="SA10" commtype="DIG" lat="40.3092" lon="27.6724">
    <comp name="--.HNN">
      <acc value="0.0458719265" flag="0"/>
      <vel value="0.0253580237" flag="0"/>
      <psa03 value="0.1296522099" flag="0"/>
      <psa10 value="0.0352017274" flag="0"/>
      <psa30 value="0.0015855700" flag="0"/>
    </comp>
    <comp name="--.HNE">
      <acc value="0.0481348087" flag="0"/>
      <vel value="0.0354785011" flag="0"/>
      <psa03 value="0.1009266827" flag="0"/>
      <psa10 value="0.0419162536" flag="0"/>
      <psa30 value="0.0034091243" flag="0"/>
    </comp>
    <comp name="--.HNZ">
      <acc value="0.0202929636" flag="0"/>
      <vel value="0.0116137711" flag="0"/>
      <psa03 value="0.0515496161" flag="0"/>
      <psa10 value="0.0185646278" flag="0"/>
      <psa30 value="0.0010680851" flag="0"/>
    </comp>
  </station>
  <station code="MUDA" name="MUDA" netid="KO" insttype="SA10" commtype="DIG" lat="40.3566" lon="28.9294">
    <comp name="--.HNZ">
      <acc value="0.0575834295" flag="0"/>
      <vel value="0.0273696053" flag="0"/>
      <psa03 value="0.1189686717" flag="0"/>
      <psa10 value="0.0320260992" flag="0"/>
      <psa30 value="0.0024972165" flag="0"/>
    </comp>
    <comp name="--.HNE">
      <acc value="0.1079188386" flag="0"/>
      <vel value="0.0815460459" flag="0"/>
      <psa03 value="0.1725972312" flag="0"/>
      <psa10 value="0.1982409349" flag="0"/>
      <psa30 value="0.0065388209" flag="0"/>
    </comp>
    <comp name="--.HNN">
      <acc value="0.1371076679" flag="0"/>
      <vel value="0.0755067955" flag="0"/>
      <psa03 value="0.2845112240" flag="0"/>
      <psa10 value="0.1740250497" flag="0"/>
      <psa30 value="0.0044794232" flag="0"/>
    </comp>
  </station>
  <station code="ORLT" name="ORLT" netid="KO" insttype="CMG-5T" commtype="DIG" lat="40.0452" lon="28.8914">
    <comp name="--.HNE">
      <acc value="0.0928617722" flag="0"/>
      <vel value="0.0390367317" flag="0"/>
      <psa03 value="0.1908098685" flag="0"/>
      <psa10 value="0.0513431404" flag="0"/>
      <psa30 value="0.0031712525" flag="0"/>
    </comp>
    <comp name="--.HNN">
      <acc value="0.1055675532" flag="0"/>
      <vel value="0.0540898812" flag="0"/>
      <psa03 value="0.2311791372" flag="0"/>
