<?xml version="1.0" encoding="UTF-8" standalone="yes"?>
<!DOCTYPE earthquake SYSTEM "stationlist.dtd">
<stationlist created="" xmlns="ch.ethz.sed.shakemap.usgs.xml">
  <station code="AKS" name="AKS" netid="KO" insttype="CMG-5T" commtype="DIG" lat="38.8785" lon="27.8129">
    <comp name="--.HNZ">
      <acc value="0.1233286206" flag="0"/>
      <vel value="0.0344843618" flag="0"/>
      <psa03 value="0.1181364058" flag="0"/>
      <psa10 value="0.0315139931" flag="0"/>
      <psa30 value="0.0027690741" flag="0"/>
    </comp>
    <comp name="--.HNE">
      <acc value="0.2127756897" flag="0"/>
      <vel value="0.0923274490" flag="0"/>
      <psa03 value="0.2976540243" flag="0"/>
      <psa10 value="0.0763960897" flag="0"/>
      <psa30 value="0.0043672255" flag="0"/>
    </comp>
    <comp name="--.HNN">
      <acc value="0.2405526017" flag="0"/>
      <vel value="0.0645812824" flag="0"/>
      <psa03 value="0.3540159477" flag="0"/>
      <psa10 value="0.0469056097" flag="0"/>
      <psa30 value="0.0035087151" flag="0"/>
    </comp>
  </station>
  <station code="BALB" name="BALB" netid="KO" insttype="CMG-5T" commtype="DIG" lat="39.6507" lon="27.8642">
    <comp name="--.HNE">
      <acc value="0.1071669233" flag="0"/>
      <vel value="0.0570133213" flag="0"/>
      <psa03 value="0.1956205420" flag="0"/>
      <psa10 value="0.1048249311" flag="0"/>
      <psa30 value="0.0060472289" flag="0"/>
    </comp>
    <comp name="--.HNZ">
      <acc value="0.0482693665" flag="0"/>
      <vel value="0.0228580212" flag="0"/>
      <psa03 value="0.0678362526" flag="0"/>
      <psa10 value="0.0418151946" flag="0"/>
      <psa30 value="0.0046870985" flag="0"/>
    </comp>
    <comp name="--.HNN">
      <acc value="0.0728303375" flag="0"/>
      <vel value="0.0566580127" flag="0"/>
      <psa03 value="0.2219521776" flag="0"/>
      <psa10 value="0.0590509714" flag="0"/>
      <psa30 value="0.0056812114" flag="0"/>
    </comp>
  </station>
  <station code="DKL" name="DKL" netid="KO" insttype="CMG-3ESPC" commtype="DIG" lat="39.0713" lon="26.9053">
    <comp name="--.HHZ">
      <acc value="0.0162962209" flag="0"/>
      <vel value="0.0081030279" flag="0"/>
      <psa03 value="0.0183887794" flag="0"/>
      <psa10 value="0.0113366176" flag="0"/>
      <psa30 value="0.0011825294" flag="0"/>
    </comp>
  </station>
  <station code="DST" name="DST" netid="KO" insttype="CMG-5T" commtype="DIG" lat="39.6041" lon="28.6267">
    <comp name="--.HNE">
      <acc value="0.0774260962" flag="0"/>
      <vel value="0.0265111449" flag="0"/>
      <psa03 value="0.0895835075" flag="0"/>
      <psa10 value="0.0391162157" flag="0"/>
      <psa30 value="0.0024618557" flag="0"/>
    </comp>
    <comp name="--.HNN">
      <acc value="0.0901289082" flag="0"/>
      <vel value="0.0250364724" flag="0"/>
      <psa03 value="0.1259984706" flag="0"/>
      <psa10 value="0.0264088777" flag="0"/>
      <psa30 value="0.0028118766" flag="0"/>
    </comp>
    <comp name="--.HNZ">
      <acc value="0.0850562806" flag="0"/>
      <vel value="0.0204395758" flag="0"/>
      <psa03 value="0.0676781992" flag="0"/>
      <psa10 value="0.0226261243" flag="0"/>
      <psa30 value="0.0019468312" flag="0"/>
    </comp>
  </station>
  <station code="GEDZ" name="GEDZ" netid="KO" insttype="CMG-6T" commtype="DIG" lat="39.0445" lon="29.4105">
    <comp name="--.HHE">
      <acc value="0.0876050699" flag="0"/>
      <vel value="0.0668916851" flag="0"/>
      <psa03 value="0.1828751037" flag="0"/>
      <psa10 value="0.0814139134" flag="0"/>
      <psa30 value="0.0045137262" flag="0"/>
    </comp>
    <comp name="--.HHN">
      <acc value="0.1174473717" flag="0"/>
      <vel value="0.0589189863" flag="0"/>
      <psa03 value="0.2786347516" flag="0"/>
      <psa10 value="0.1258086619" flag="0"/>
      <psa30 value="0.0055777990" flag="0"/>
    </comp>
    <comp name="--.HHZ">
      <acc value="0.0742310463" flag="0"/>
      <vel value="0.0245254387" flag="0"/>
      <psa03 value="0.0558484216" flag="0"/>
      <psa10 value="0.0352665350" flag="0"/>
      <psa30 value="0.0017888695" flag="0"/>
    </comp>
  </station>
  <station code="GOMA" name="GOMA" netid="KO" insttype="CMG-5T" commtype="DIG" lat="38.7077" lon="27.9175">
    <comp name="--.HNE">
      <acc value="0.2031647603" flag="0"/>
      <vel value="0.0855579739" flag="0"/>
      <psa03 value="0.6306760744" flag="0"/>
      <psa10 value="0.0588131875" flag="0"/>
      <psa30 value="0.0036656990" flag="0"/>
    </comp>
    <comp name="--.HNN">
      <acc value="0.2921783619" flag="0"/>
      <vel value="0.1573480727" flag="0"/>
      <psa03 value="1.2165601317" flag="0"/>
      <psa10 value="0.0473590558" flag="0"/>
      <psa30 value="0.0045128090" flag="0"/>
    </comp>
  </station>
  <station code="GONE" name="GONE" netid="KO" insttype="CMG-5T" commtype="DIG" lat="40.0466" lon="27.686">
    <comp name="--.HNZ">
      <acc value="0.0264976599" flag="0"/>
      <vel value="0.0082572531" flag="0"/>
      <psa03 value="0.0333116681" flag="0"/>
      <psa10 value="0.0096919401" flag="0"/>
      <psa30 value="0.0009172762" flag="0"/>
    </comp>
    <comp name="--.HNE">
      <acc value="0.0354747849" flag="0"/>
      <vel value="0.0283403761" flag="0"/>
      <psa03 value="0.0704967558" flag="0"/>
      <psa10 value="0.0344901361" flag="0"/>
      <psa30 value="0.0028622428" flag="0"/>
    </comp>
    <comp name="--.HNN">
      <acc value="0.0504604702" flag="0"/>
      <vel value="0.0272012595" flag="0"/>
      <psa03 value="0.0736430829" flag="0"/>
      <psa10 value="0.0318970142" flag="0"/>
      <psa30 value="0.0049684293" flag="0"/>
    </comp>
  </station>
  <station code="GORD" name="GORD" netid="KO" insttype="CMG-5T" commtype="DIG" lat="38.9088" lon="28.1769">
    <comp name="--.HNE">
      <acc value="0.2878974800" flag="0"/>
      <vel value="0.1245660433" flag="0"/>
      <psa03 value="0.6843060684" flag="0"/>
      <psa10 value="0.2109913632" flag="0"/>
      <psa30 value="0.0101373692" flag="0"/>
    </comp>
    <comp name="--.HNN">
      <acc value="0.4299033380" flag="0"/>
      <vel value="0.3161761352" flag="0"/>
      <psa03 value="0.8819983010" flag="0"/>
      <psa10 value="0.2449946410" flag="0"/>
      <psa30 value="0.0124452792" flag="0"/>
    </comp>
    <comp name="--.HNZ">
      <acc value="0.3109807680" flag="0"/>
      <vel value="0.1258760861" flag="0"/>
      <psa03 value="0.4269689867" flag="0"/>
      <psa10 value="0.0687410916" flag="0"/>
      <psa30 value="0.0078663666" flag="0"/>
    </comp>
  </station>
  <station code="KCTX" name="KCTX" netid="KO" insttype="CMG-3ESP" commtype="DIG" lat="40.2626" lon="28.3353">
    <comp name="--.HHE">
      <acc value="0.0384523365" flag="0"/>
      <vel value="0.0226139830" flag="0"/>
      <psa03 value="0.0623969347" flag="0"/>
      <psa10 value="0.0417153598" flag="0"/>
      <psa30 value="0.0024497697" flag="0"/>
    </comp>
    <comp name="--.HHN">
      <acc value="0.0540636964" flag="0"/>
      <vel value="0.0173741005" flag="0"/>
      <psa03 value="0.0727388778" flag="0"/>
      <psa10 value="0.0185919207" flag="0"/>
      <psa30 value="0.0012964886" flag="0"/>
    </comp>
    <comp name="--.HHZ">
      <acc value="0.0385237181" flag="0"/>
      <vel value="0.0085790399" flag="0"/>
      <psa03 value="0.0357184897" flag="0"/>
      <psa10 value="0.0097466676" flag="0"/>
      <psa30 value="0.0007732830" flag="0"/>
    </comp>
  </station>
  <station code="ORLT" name="ORLT" netid="KO" insttype="CMG-5T" commtype="DIG" lat="40.0452" lon="28.8914">
    <comp name="--.HNZ">
      <acc value="0.0447497624" flag="0"/>
      <vel value="0.0274060922" flag="0"/>
      <psa03 value="0.0613418205" flag="0"/>
      <psa10 value="0.0444659822" flag="0"/>
      <psa30 value="0.0026580285" flag="0"/>
    </comp>
    <comp name="--.HNE">
      <acc value="0.0928617649" flag="0"/>
      <vel value="0.0390367295" flag="0"/>
      <psa03 value="0.1908098685" flag="0"/>
      <psa10 value="0.0513431404" flag="0"/>
      <psa30 value="0.0031712525" flag="0"/>
    </comp>
    <comp name="--.HNN">
      <acc value="0.1055675529" flag="0"/>
      <vel value="0.0540898799" flag="0"/>
      <psa03 value="0.2311791372" flag="0"/>
      <psa10 value="0.0509813744" flag="0"/>
      <psa30 value="0.0023875080" flag="0"/>
    </comp>
  </station>
  <station code="SIMA" name="SIMA" netid="KO" insttype="CMG-6T" commtype="DIG" lat="39.0833" lon="28.9825">
    <comp name="--.HHZ">
      <acc value="0.1000823618" flag="0"/>
      <vel value="0.0237727750" flag="0"/>
      <psa03 value="0.0648252050" flag="0"/>
      <psa10 value="0.0200399242" flag="0"/>
      <psa30 value="0.0009942751" flag="0"/>
    </comp>
    <comp name="--.HHN">
      <acc value="0.0852187328" flag="0"/>
      <vel value="0.0423560024" flag="0"/>
      <psa03 value="0.1444140199" flag="0"/>
      <psa10 value="0.0289129975" flag="0"/>
      <psa30 value="0.0025037256" flag="0"/>
    </comp>
    <comp name="--.HHE">
      <acc value="0.1314628250" flag="0"/>
      <vel value="0.0235285038" flag="0"/>
      <psa03 value="0.1162444994" flag="0"/>
      <psa10 value="0.0213004936" flag="0"/>
      <psa30 value="0.0022346576" flag="0"/>
    </comp>
  </station>
  <station code="SMAA" name="SMAA" netid="KO" insttype="CMG-5T" commtype="DIG" lat="39.1005" lon="28.9805">
    <comp name="--.HNE">
      <acc value="0.1668177611" flag="0"/>
      <vel value="0.0816093180" flag="0"/>
      <psa03 value="0.2478236606" flag="0"/>
      <psa10 value="0.1450551696" flag="0"/>
      <psa30 value="0.0139498261" flag="0"/>
    </comp>
    <comp name="--.HNZ">
      <acc value="0.0750250511" flag="0"/>
      <vel value="0.0291901035" flag="0"/>
      <psa03 value="0.0672309212" flag="0"/>
      <psa10 value="0.0723580595" flag="0"/>
      <psa30 value="0.0030857924" flag="0"/>
    </comp>
    <comp name="--.HNN">
      <acc value="0.1237341942" flag="0"/>
      <vel value="0.0841381940" flag="0"/>
      <psa03 value="0.2321186426" flag="0"/>
      <psa10 value="0.0902418496" flag="0"/>
      <psa30 value="0.0085457775" flag="0"/>
    </comp>
  </station>
  <station code="SOMA" name="SOMA" netid="KO" insttype="CMG-5T" commtype="DIG" lat="39.1564" lon="27.5341">
    <comp name="--.HNN">
      <acc value="0.1582435372" flag="0"/>
      <vel value="0.0567578226" flag="0"/>
      <psa03 value="0.1885970725" flag="0"/>
      <psa10 value="0.0619015635" flag="0"/>
      <psa30 value="0.0037862685" flag="0"/>
    </comp>
    <comp name="--.HNZ">
      <acc value="0.1014889319" flag="0"/>
      <vel value="0.0386398725" flag="0"/>
      <psa03 value="0.1203070810" flag="0"/>
      <psa10 value="0.0425266287" flag="0"/>
      <psa30 value="0.0026519902" flag="0"/>
    </comp>
    <comp name="--.HNE">
      <acc value="0.1414148450" flag="0"/>
      <vel value="0.0367395441" flag="0"/>
      <psa03 value="0.2155030678" flag="0"/>
      <psa10 value="0.0531528689" flag="0"/>
      <psa30 value="0.0036960781" flag="0"/>
    </comp>
  </station>
  <station code="SUSR" name="SUSR" netid="KO" insttype="CMG-5T" commtype="DIG" lat="39.9627" lon="28.0835">
    <comp name="--.HNZ">
      <acc value="0.0524526691" flag="0"/>
      <vel value="0.0107748028" flag="0"/>
      <psa03 value="0.0531242405" flag="0"/>
      <psa10 value="0.0068603486" flag="0"/>
      <psa30 value="0.0008883056" flag="0"/>
    </comp>
    <comp name="--.HNE">
      <acc value="0.0440037374" flag="0"/>
      <vel value="0.0163350044" flag="0"/>
      <psa03 value="0.1118387670" flag="0"/>
      <psa10 value="0.0158257075" flag="0"/>
      <psa30 value="0.0013591660" flag="0"/>
    </comp>
    <comp name="--.HNN">
      <acc value="0.0555641672" flag="0"/>
      <vel value="0.0142504773" flag="0"/>
      <psa03 value="0.0848173500" flag="0"/>
      <psa10 value="0.0098794107" flag="0"/>
      <psa30 value="0.0012888801" flag="0"/>
    </comp>
  </station>
  <station code="TVSB" name="TVSB" netid="KO" insttype="CMG-3T" commtype="DIG" lat="39.4497" lon="29.4615">
    <comp name="--.HHE">
      <acc value="0.0696622461" flag="0"/>
      <vel value="0.0238302968" flag="0"/>
      <psa03 value="0.1653677187" flag="0"/>
      <psa10 value="0.0150278114" flag="0"/>
      <psa30 value="0.0011120919" flag="0"/>
    </comp>
    <comp name="--.HHN">
      <acc value="0.0622461852" flag="0"/>
      <vel value="0.0295437566" flag="0"/>
      <psa03 value="0.1734993534" flag="0"/>
      <psa10 value="0.0397582570" flag="0"/>
      <psa30 value="0.0020108776" flag="0"/>
    </comp>
    <comp name="--.HHZ">
      <acc value="0.0287671451" flag="0"/>
      <vel value="0.0118480777" flag="0"/>
      <psa03 value="0.0624871175" flag="0"/>
      <psa10 value="0.0141016930" flag="0"/>
      <psa30 value="0.0009335850" flag="0"/>
    </comp>
  </station>
  <station code="YAYO" name="YAYO" netid="KO" insttype="CMG-6T" commtype="DIG" lat="39.6113" lon="27.0726">
    <comp name="--.HHN">
      <acc value="0.0266620481" flag="0"/>
      <vel value="0.0169744662" flag="0"/>
      <psa03 value="0.0602944639" flag="0"/>
      <psa10 value="0.0211236238" flag="0"/>
      <psa30 value="0.0022211549" flag="0"/>
    </comp>
    <comp name="--.HHE">
      <acc value="0.0337834928" flag="0"/>
      <vel value="0.0251338223" flag="0"/>
      <psa03 value="0.0402654998" flag="0"/>
      <psa10 value="0.0431197016" flag="0"/>
      <psa30 value="0.0024250234" flag="0"/>
    </comp>
    <comp name="--.HHZ">
      <acc value="0.0313993897" flag="0"/>
      <vel value="0.0211825784" flag="0"/>
      <psa03 value="0.0722299932" flag="0"/>
      <psa10 value="0.0242721932" flag="0"/>
      <psa30 value="0.0017639073" flag="0"/>
    </comp>
  </station>
  <station code="YENI" name="YENI" netid="KO" insttype="CMG-5T" commtype="DIG" lat="39.9364" lon="27.2422">
    <comp name="--.HNE">
      <acc value="0.0553859023" flag="0"/>
      <vel value="0.0327394836" flag="0"/>
      <psa03 value="0.0682615171" flag="0"/>
      <psa10 value="0.0290793494" flag="0"/>
      <psa30 value="0.0022680784" flag="0"/>
    </comp>
    <comp name="--.HNN">
      <acc value="0.0497484681" flag="0"/>
      <vel value="0.0254336635" flag="0"/>
      <psa03 value="0.0617254410" flag="0"/>
      <psa10 value="0.0189831282" flag="0"/>
      <psa30 value="0.0015921001" flag="0"/>
    </comp>
    <comp name="--.HNZ">
      <acc value="0.0286399845" flag="0"/>
      <vel value="0.0078715656" flag="0"/>
      <psa03 value="0.0241625918" flag="0"/>
      <psa10 value="0.0090315080" flag="0"/>
      <psa30 value="0.0009729686" flag="0"/>
    </comp>
  </station>
</stationlist>
