<?xml version="1.0" encoding="UTF-8" standalone="yes"?>
<!DOCTYPE earthquake SYSTEM "stationlist.dtd">
<stationlist created="" xmlns="ch.ethz.sed.shakemap.usgs.xml">
  <station code="SKR" name="SKR" netid="VI" source="ODC" insttype="LE-3D/5s" lat="64.5601" lon="-18.3865">
    <comp name="--.HHZ">
      <acc value="0.0272330990" flag="0"/>
      <vel value="0.0603458934" flag="0"/>
      <psa03 value="0.0621967871" flag="0"/>
      <psa10 value="0.0647334623" flag="0"/>
      <psa30 value="0.0472378058" flag="0"/>
    </comp>
    <comp name="--.HHE">
      <acc value="0.0202521748" flag="0"/>
      <vel value="0.0616169242" flag="0"/>
      <psa03 value="0.0383084615" flag="0"/>
      <psa10 value="0.0792039298" flag="0"/>
      <psa30 value="0.0405052659" flag="0"/>
    </comp>
    <comp name="--.HHN">
      <acc value="0.0312402451" flag="0"/>
      <vel value="0.0739345479" flag="0"/>
      <psa03 value="0.0459560554" flag="0"/>
      <psa10 value="0.0704467790" flag="0"/>
      <psa30 value="0.0537899945" flag="0"/>
    </comp>
  </station>
</stationlist>
