<?xml version="1.0" encoding="UTF-8" standalone="yes"?>
<!DOCTYPE earthquake SYSTEM "stationlist.dtd">
<stationlist created="" xmlns="ch.ethz.sed.shakemap.usgs.xml">
  <station code="IMMV" name="IMMV" netid="GE" insttype="STS-2/N" commtype="DIG" lat="35.4606" lon="23.9811">
    <comp name="--.HHE">
      <acc value="0.0143123998" flag="0"/>
      <vel value="0.0139340305" flag="0"/>
      <psa03 value="0.0526551890" flag="0"/>
      <psa10 value="0.0201107565" flag="0"/>
      <psa30 value="0.0051074006" flag="0"/>
    </comp>
    <comp name="--.HHZ">
      <acc value="0.0115049324" flag="0"/>
      <vel value="0.0080480604" flag="0"/>
      <psa03 value="0.0338503466" flag="0"/>
      <psa10 value="0.0125414813" flag="0"/>
      <psa30 value="0.0016346461" flag="0"/>
    </comp>
    <comp name="--.HHN">
      <acc value="0.0178780909" flag="0"/>
      <vel value="0.0125266064" flag="0"/>
      <psa03 value="0.0715664813" flag="0"/>
      <psa10 value="0.0189290728" flag="0"/>
      <psa30 value="0.0026594821" flag="0"/>
    </comp>
  </station>
  <station code="CHAN" name="CHAN" netid="HC" insttype="120" commtype="DIG" lat="35.5193" lon="24.0428">
    <comp name="--.HHZ">
      <acc value="0.0162172326" flag="0"/>
      <vel value="0.0147420853" flag="0"/>
      <psa03 value="0.0422105211" flag="0"/>
      <psa10 value="0.0271374016" flag="0"/>
      <psa30 value="0.0047978142" flag="0"/>
    </comp>
    <comp name="--.HHE">
      <acc value="0.0199165613" flag="0"/>
      <vel value="0.0218954875" flag="0"/>
      <psa03 value="0.0597917593" flag="0"/>
      <psa10 value="0.0427722854" flag="0"/>
      <psa30 value="0.0051451104" flag="0"/>
    </comp>
    <comp name="--.HHN">
      <acc value="0.0213601170" flag="0"/>
      <vel value="0.0318322267" flag="0"/>
      <psa03 value="0.0548101372" flag="0"/>
      <psa10 value="0.0362960279" flag="0"/>
      <psa30 value="0.0078176134" flag="0"/>
    </comp>
  </station>
  <station code="IPPL" name="IPPL" netid="HC" insttype="60" commtype="DIG" lat="35.3486" lon="24.4632">
    <comp name="--.HHZ">
      <acc value="0.0077905262" flag="0"/>
      <vel value="0.0061276478" flag="0"/>
      <psa03 value="0.0228389839" flag="0"/>
      <psa10 value="0.0094728481" flag="0"/>
      <psa30 value="0.0018378734" flag="0"/>
    </comp>
    <comp name="--.HHN">
      <acc value="0.0000000000" flag="0"/>
      <vel value="-100.0000000000" flag="0"/>
      <psa03 value="0.0000000000" flag="0"/>
      <psa10 value="0.0000000000" flag="0"/>
      <psa30 value="0.0000000000" flag="0"/>
    </comp>
    <comp name="--.HHE">
      <acc value="0.0000000000" flag="0"/>
      <vel value="-100.0000000000" flag="0"/>
      <psa03 value="0.0000000000" flag="0"/>
      <psa10 value="0.0000000000" flag="0"/>
      <psa30 value="0.0000000000" flag="0"/>
    </comp>
  </station>
  <station code="KNDR" name="KNDR" netid="HC" insttype="120" commtype="DIG" lat="35.2348" lon="23.6248">
    <comp name="--.HHE">
      <acc value="0.0362433557" flag="0"/>
      <vel value="0.0323494172" flag="0"/>
      <psa03 value="0.1357461506" flag="0"/>
      <psa10 value="0.0405287118" flag="0"/>
      <psa30 value="0.0054028282" flag="0"/>
    </comp>
    <comp name="--.HHN">
      <acc value="0.0392191447" flag="0"/>
      <vel value="0.0345157015" flag="0"/>
      <psa03 value="0.1231362018" flag="0"/>
      <psa10 value="0.0351510610" flag="0"/>
      <psa30 value="0.0062949369" flag="0"/>
    </comp>
    <comp name="--.HHZ">
      <acc value="0.0294452607" flag="0"/>
      <vel value="0.0203478323" flag="0"/>
      <psa03 value="0.1148712663" flag="0"/>
      <psa10 value="0.0157070415" flag="0"/>
      <psa30 value="0.0066383962" flag="0"/>
    </comp>
  </station>
  <station code="CH03" name="CH03" netid="HI" insttype="unknown" commtype="DIG" lat="35.533" lon="24.0705">
    <comp name="--.HNE">
      <acc value="0.0085372703" flag="0"/>
      <vel value="0.0118542102" flag="0"/>
      <psa03 value="0.0257157319" flag="0"/>
      <psa10 value="0.0224367938" flag="0"/>
      <psa30 value="0.0031553841" flag="0"/>
    </comp>
    <comp name="--.HNN">
      <acc value="0.0106834616" flag="0"/>
      <vel value="0.0106131387" flag="0"/>
      <psa03 value="0.0232318359" flag="0"/>
      <psa10 value="0.0218925711" flag="0"/>
      <psa30 value="0.0038070081" flag="0"/>
    </comp>
    <comp name="--.HNZ">
      <acc value="0.0078182454" flag="0"/>
      <vel value="0.0062247006" flag="0"/>
      <psa03 value="0.0200842094" flag="0"/>
      <psa10 value="0.0102159192" flag="0"/>
      <psa30 value="0.0027011084" flag="0"/>
    </comp>
  </station>
  <station code="ANKY" name="ANKY" netid="HL" insttype="60" commtype="DIG" lat="35.867" lon="23.3012">
    <comp name="--.HHE">
      <acc value="0.0044039883" flag="0"/>
      <vel value="0.0057558598" flag="0"/>
      <psa03 value="0.0185001609" flag="0"/>
      <psa10 value="0.0117911279" flag="0"/>
      <psa30 value="0.0026470618" flag="0"/>
    </comp>
    <comp name="--.HHN">
      <acc value="0.0058290525" flag="0"/>
      <vel value="0.0053719964" flag="0"/>
      <psa03 value="0.0176439733" flag="0"/>
      <psa10 value="0.0093134312" flag="0"/>
      <psa30 value="0.0020673881" flag="0"/>
    </comp>
    <comp name="--.HHZ">
      <acc value="0.0052392461" flag="0"/>
      <vel value="0.0030295866" flag="0"/>
      <psa03 value="0.0137145884" flag="0"/>
      <psa10 value="0.0018606359" flag="0"/>
      <psa30 value="0.0005673314" flag="0"/>
    </comp>
  </station>
  <station code="IMMV" name="IMMV" netid="HL" insttype="120" commtype="DIG" lat="35.4606" lon="23.9811">
    <comp name="--.HHE">
      <acc value="0.0140791259" flag="0"/>
      <vel value="0.0137688753" flag="0"/>
      <psa03 value="0.0512260667" flag="0"/>
      <psa10 value="0.0199651289" flag="0"/>
      <psa30 value="0.0051068927" flag="0"/>
    </comp>
    <comp name="--.HHN">
      <acc value="0.0174436992" flag="0"/>
      <vel value="0.0123486640" flag="0"/>
      <psa03 value="0.0695403389" flag="0"/>
      <psa10 value="0.0188068218" flag="0"/>
      <psa30 value="0.0026596862" flag="0"/>
    </comp>
    <comp name="--.HHZ">
      <acc value="0.0112101292" flag="0"/>
      <vel value="0.0079203616" flag="0"/>
      <psa03 value="0.0329025317" flag="0"/>
      <psa10 value="0.0124380075" flag="0"/>
      <psa30 value="0.0016353760" flag="0"/>
    </comp>
  </station>
  <station code="VAM" name="VAM" netid="HL" insttype="CMG3ESPC-120s" commtype="DIG" lat="35.407" lon="24.1997">
    <comp name="--.HHZ">
      <acc value="0.0084497663" flag="0"/>
      <vel value="0.0062219819" flag="0"/>
      <psa03 value="0.0297370825" flag="0"/>
      <psa10 value="0.0058338038" flag="0"/>
      <psa30 value="0.0016413041" flag="0"/>
    </comp>
    <comp name="--.HHN">
      <acc value="0.0136035233" flag="0"/>
      <vel value="0.0116099824" flag="0"/>
      <psa03 value="0.0437278102" flag="0"/>
      <psa10 value="0.0208297519" flag="0"/>
      <psa30 value="0.0032958494" flag="0"/>
    </comp>
    <comp name="--.HHE">
      <acc value="0.0111236711" flag="0"/>
      <vel value="0.0105611134" flag="0"/>
      <psa03 value="0.0269085794" flag="0"/>
      <psa10 value="0.0232451070" flag="0"/>
      <psa30 value="0.0030303972" flag="0"/>
    </comp>
  </station>
</stationlist>
