<?xml version="1.0" encoding="UTF-8" standalone="yes"?>
<!DOCTYPE earthquake SYSTEM "stationlist.dtd">
<stationlist created="" xmlns="ch.ethz.sed.shakemap.usgs.xml">
  <station code="IMMV" name="IMMV" netid="GE" insttype="STS-2/N" commtype="DIG" lat="35.4606" lon="23.9811">
    <comp name="--.HHE">
      <acc value="0.0143123998" flag="0"/>
      <vel value="0.0139340305" flag="0"/>
      <psa03 value="0.0526551890" flag="0"/>
      <psa10 value="0.0201107565" flag="0"/>
      <psa30 value="0.0051074006" flag="0"/>
    </comp>
    <comp name="--.HHZ">
      <acc value="0.0115049324" flag="0"/>
      <vel value="0.0080480604" flag="0"/>
      <psa03 value="0.0338503466" flag="0"/>
      <psa10 value="0.0125414813" flag="0"/>
      <psa30 value="0.0016346461" flag="0"/>
    </comp>
    <comp name="--.HHN">
      <acc value="0.0178780909" flag="0"/>
      <vel value="0.0125266064" flag="0"/>
      <psa03 value="0.0715664813" flag="0"/>
      <psa10 value="0.0189290728" flag="0"/>
      <psa30 value="0.0026594821" flag="0"/>
    </comp>
  </station>
</stationlist>
