<?xml version="1.0" encoding="UTF-8" standalone="yes"?>
<!DOCTYPE earthquake SYSTEM "stationlist.dtd">
<stationlist created="" xmlns="ch.ethz.sed.shakemap.usgs.xml">
  <station code="IMMV" name="IMMV" netid="GE" insttype="STS-2/N" commtype="DIG" lat="35.4606" lon="23.9811">
    <comp name="--.HHN">
      <acc value="0.0178780897" flag="0"/>
      <vel value="0.0125266070" flag="0"/>
      <psa03 value="0.0715664813" flag="0"/>
      <psa10 value="0.0189290728" flag="0"/>
      <psa30 value="0.0026594851" flag="0"/>
    </comp>
    <comp name="--.HHE">
      <acc value="0.0143123987" flag="0"/>
      <vel value="0.0139340307" flag="0"/>
      <psa03 value="0.0526551890" flag="0"/>
      <psa10 value="0.0201107565" flag="0"/>
      <psa30 value="0.0051074051" flag="0"/>
    </comp>
    <comp name="--.HHZ">
      <acc value="0.0115049328" flag="0"/>
      <vel value="0.0080480601" flag="0"/>
      <psa03 value="0.0338503466" flag="0"/>
      <psa10 value="0.0125414813" flag="0"/>
      <psa30 value="0.0016346444" flag="0"/>
    </comp>
  </station>
  <station code="CHAN" name="CHAN" netid="HC" insttype="120" commtype="DIG" lat="35.5193" lon="24.0428">
    <comp name="--.HHZ">
      <acc value="0.0162172332" flag="0"/>
      <vel value="0.0147420831" flag="0"/>
      <psa03 value="0.0422105211" flag="0"/>
      <psa10 value="0.0271374016" flag="0"/>
      <psa30 value="0.0047978770" flag="0"/>
    </comp>
    <comp name="--.HHE">
      <acc value="0.0199165596" flag="0"/>
      <vel value="0.0218954874" flag="0"/>
      <psa03 value="0.0597917593" flag="0"/>
      <psa10 value="0.0427722854" flag="0"/>
      <psa30 value="0.0051452929" flag="0"/>
    </comp>
    <comp name="--.HHN">
      <acc value="0.0213601169" flag="0"/>
      <vel value="0.0318322266" flag="0"/>
      <psa03 value="0.0548101372" flag="0"/>
      <psa10 value="0.0362960279" flag="0"/>
      <psa30 value="0.0078176556" flag="0"/>
    </comp>
  </station>
  <station code="IMOD" name="IMOD" netid="HC" insttype="120" commtype="DIG" lat="34.9731" lon="24.7995">
    <comp name="--.HHN">
      <acc value="0.0150657101" flag="0"/>
      <vel value="0.0188672047" flag="0"/>
      <psa03 value="0.0402810850" flag="0"/>
      <psa10 value="0.0218851124" flag="0"/>
      <psa30 value="0.0036594182" flag="0"/>
    </comp>
    <comp name="--.HHE">
      <acc value="0.0195336307" flag="0"/>
      <vel value="0.0237973784" flag="0"/>
      <psa03 value="0.0428456496" flag="0"/>
      <psa10 value="0.0342432439" flag="0"/>
      <psa30 value="0.0027181684" flag="0"/>
    </comp>
    <comp name="--.HHZ">
      <acc value="0.0073880609" flag="0"/>
      <vel value="0.0081820364" flag="0"/>
      <psa03 value="0.0227622362" flag="0"/>
      <psa10 value="0.0101220876" flag="0"/>
      <psa30 value="0.0015779034" flag="0"/>
    </comp>
  </station>
  <station code="IPPL" name="IPPL" netid="HC" insttype="60" commtype="DIG" lat="35.3486" lon="24.4632">
    <comp name="--.HHE">
      <acc value="0.0000000000" flag="0"/>
      <vel value="-100.0000000000" flag="0"/>
      <psa03 value="0.0000000000" flag="0"/>
      <psa10 value="0.0000000000" flag="0"/>
      <psa30 value="0.0000000000" flag="0"/>
    </comp>
    <comp name="--.HHZ">
      <acc value="0.0077905265" flag="0"/>
      <vel value="0.0061276467" flag="0"/>
      <psa03 value="0.0228389839" flag="0"/>
      <psa10 value="0.0094728481" flag="0"/>
      <psa30 value="0.0018378621" flag="0"/>
    </comp>
    <comp name="--.HHN">
      <acc value="0.0000000000" flag="0"/>
      <vel value="-100.0000000000" flag="0"/>
      <psa03 value="0.0000000000" flag="0"/>
      <psa10 value="0.0000000000" flag="0"/>
      <psa30 value="0.0000000000" flag="0"/>
    </comp>
  </station>
  <station code="KNDR" name="KNDR" netid="HC" insttype="120" commtype="DIG" lat="35.2348" lon="23.6248">
    <comp name="--.HHE">
      <acc value="0.0362433555" flag="0"/>
      <vel value="0.0323494173" flag="0"/>
      <psa03 value="0.1357461506" flag="0"/>
      <psa10 value="0.0405287118" flag="0"/>
      <psa30 value="0.0054028310" flag="0"/>
    </comp>
    <comp name="--.HHN">
      <acc value="0.0392191444" flag="0"/>
      <vel value="0.0345157014" flag="0"/>
      <psa03 value="0.1231362018" flag="0"/>
      <psa10 value="0.0351510610" flag="0"/>
      <psa30 value="0.0062949393" flag="0"/>
    </comp>
    <comp name="--.HHZ">
      <acc value="0.0294452609" flag="0"/>
      <vel value="0.0203478322" flag="0"/>
      <psa03 value="0.1148712663" flag="0"/>
      <psa10 value="0.0157070415" flag="0"/>
      <psa30 value="0.0066383964" flag="0"/>
    </comp>
  </station>
  <station code="CH03" name="CH03" netid="HI" insttype="unknown" commtype="DIG" lat="35.533" lon="24.0705">
    <comp name="--.HNN">
      <acc value="0.0106834554" flag="0"/>
      <vel value="0.0106131370" flag="0"/>
      <psa03 value="0.0232318359" flag="0"/>
      <psa10 value="0.0218925711" flag="0"/>
      <psa30 value="0.0038073521" flag="0"/>
    </comp>
    <comp name="--.HNE">
      <acc value="0.0085372700" flag="0"/>
      <vel value="0.0118542121" flag="0"/>
      <psa03 value="0.0257157319" flag="0"/>
      <psa10 value="0.0224367938" flag="0"/>
      <psa30 value="0.0031553298" flag="0"/>
    </comp>
    <comp name="--.HNZ">
      <acc value="0.0078182476" flag="0"/>
      <vel value="0.0062246909" flag="0"/>
      <psa03 value="0.0200842094" flag="0"/>
      <psa10 value="0.0102159192" flag="0"/>
      <psa30 value="0.0027012244" flag="0"/>
    </comp>
  </station>
  <station code="ANKY" name="ANKY" netid="HL" insttype="60" commtype="DIG" lat="35.867" lon="23.3012">
    <comp name="--.HHE">
      <acc value="0.0044039869" flag="0"/>
      <vel value="0.0057558634" flag="0"/>
      <psa03 value="0.0185001609" flag="0"/>
      <psa10 value="0.0117911279" flag="0"/>
      <psa30 value="0.0026470699" flag="0"/>
    </comp>
    <comp name="--.HHZ">
      <acc value="0.0052392461" flag="0"/>
      <vel value="0.0030295867" flag="0"/>
      <psa03 value="0.0137145884" flag="0"/>
      <psa10 value="0.0018606363" flag="0"/>
      <psa30 value="0.0005672760" flag="0"/>
    </comp>
    <comp name="--.HHN">
      <acc value="0.0058290530" flag="0"/>
      <vel value="0.0053719976" flag="0"/>
      <psa03 value="0.0176439733" flag="0"/>
      <psa10 value="0.0093134312" flag="0"/>
      <psa30 value="0.0020673872" flag="0"/>
    </comp>
  </station>
  <station code="IMMV" name="IMMV" netid="HL" insttype="120" commtype="DIG" lat="35.4606" lon="23.9811">
    <comp name="--.HHN">
      <acc value="0.0174436987" flag="0"/>
      <vel value="0.0123486658" flag="0"/>
      <psa03 value="0.0695403389" flag="0"/>
      <psa10 value="0.0188068218" flag="0"/>
      <psa30 value="0.0026596868" flag="0"/>
    </comp>
    <comp name="--.HHE">
      <acc value="0.0140791248" flag="0"/>
      <vel value="0.0137688767" flag="0"/>
      <psa03 value="0.0512260667" flag="0"/>
      <psa10 value="0.0199651290" flag="0"/>
      <psa30 value="0.0051068725" flag="0"/>
    </comp>
    <comp name="--.HHZ">
      <acc value="0.0112101300" flag="0"/>
      <vel value="0.0079203604" flag="0"/>
      <psa03 value="0.0329025317" flag="0"/>
      <psa10 value="0.0124380075" flag="0"/>
      <psa30 value="0.0016354013" flag="0"/>
    </comp>
  </station>
  <station code="SIVA" name="SIVA" netid="HL" insttype="60" commtype="DIG" lat="35.0178" lon="24.812">
    <comp name="--.HHZ">
      <acc value="0.0067735308" flag="0"/>
      <vel value="0.0103373568" flag="0"/>
      <psa03 value="0.0189492885" flag="0"/>
      <psa10 value="0.0159941866" flag="0"/>
      <psa30 value="0.0020084964" flag="0"/>
    </comp>
    <comp name="--.HHN">
      <acc value="0.0147508395" flag="0"/>
      <vel value="0.0177655789" flag="0"/>
      <psa03 value="0.0417076946" flag="0"/>
      <psa10 value="0.0297311832" flag="0"/>
      <psa30 value="0.0039850029" flag="0"/>
    </comp>
    <comp name="--.HHE">
      <acc value="0.0205322294" flag="0"/>
      <vel value="0.0242604117" flag="0"/>
      <psa03 value="0.0442875377" flag="0"/>
      <psa10 value="0.0424965590" flag="0"/>
      <psa30 value="0.0033521790" flag="0"/>
    </comp>
  </station>
  <station code="VAM" name="VAM" netid="HL" insttype="CMG3ESPC-120s" commtype="DIG" lat="35.407" lon="24.1997">
    <comp name="--.HHN">
      <acc value="0.0136035227" flag="0"/>
      <vel value="0.0116099819" flag="0"/>
      <psa03 value="0.0437278102" flag="0"/>
      <psa10 value="0.0208297520" flag="0"/>
      <psa30 value="0.0032959023" flag="0"/>
    </comp>
    <comp name="--.HHE">
      <acc value="0.0111236708" flag="0"/>
      <vel value="0.0105611135" flag="0"/>
      <psa03 value="0.0269085794" flag="0"/>
      <psa10 value="0.0232451071" flag="0"/>
      <psa30 value="0.0030303911" flag="0"/>
    </comp>
    <comp name="--.HHZ">
      <acc value="0.0084497650" flag="0"/>
      <vel value="0.0062219827" flag="0"/>
      <psa03 value="0.0297370825" flag="0"/>
      <psa10 value="0.0058338038" flag="0"/>
      <psa30 value="0.0016412422" flag="0"/>
    </comp>
  </station>
</stationlist>
