<?xml version="1.0" encoding="UTF-8" standalone="yes"?>
<!DOCTYPE earthquake SYSTEM "stationlist.dtd">
<stationlist created="" xmlns="ch.ethz.sed.shakemap.usgs.xml">
  <station code="IDI" name="IDI" netid="MN" source="INGV" insttype="" lat="35.288" lon="24.89">
    <comp name="--.HHE">
      <acc value="0.0194157271" flag="0"/>
      <vel value="0.0142306310" flag="0"/>
      <psa03 value="0.0549322086" flag="0"/>
      <psa10 value="0.0127340529" flag="0"/>
      <psa30 value="0.0025537949" flag="0"/>
    </comp>
    <comp name="--.HHN">
      <acc value="0.0114510117" flag="0"/>
      <vel value="0.0076703772" flag="0"/>
      <psa03 value="0.0331380250" flag="0"/>
      <psa10 value="0.0130586670" flag="0"/>
      <psa30 value="0.0009829287" flag="0"/>
    </comp>
    <comp name="--.HHZ">
      <acc value="0.0138305662" flag="0"/>
      <vel value="0.0101784728" flag="0"/>
      <psa03 value="0.0562980267" flag="0"/>
      <psa10 value="0.0140609514" flag="0"/>
      <psa30 value="0.0009367544" flag="0"/>
    </comp>
  </station>
  <station code="RETH" name="RETH" netid="Z3" source="GFZ" insttype="CMG-3ESP/60" lat="35.2934" lon="24.4948">
    <comp name="--.HHE">
      <acc value="0.0099299021" flag="0"/>
      <vel value="0.0053011007" flag="0"/>
      <psa03 value="0.0394303425" flag="0"/>
      <psa10 value="0.0077239337" flag="0"/>
      <psa30 value="0.0009189598" flag="0"/>
    </comp>
    <comp name="--.HHN">
      <acc value="0.0080614137" flag="0"/>
      <vel value="0.0063212095" flag="0"/>
      <psa03 value="0.0249368275" flag="0"/>
      <psa10 value="0.0110540265" flag="0"/>
      <psa30 value="0.0012331739" flag="0"/>
    </comp>
    <comp name="--.HHZ">
      <acc value="0.0042435827" flag="0"/>
      <vel value="0.0031677446" flag="0"/>
      <psa03 value="0.0089921892" flag="0"/>
      <psa10 value="0.0039556205" flag="0"/>
      <psa30 value="0.0003321283" flag="0"/>
    </comp>
  </station>
</stationlist>
