<?xml version="1.0" encoding="UTF-8" standalone="yes"?>
<!DOCTYPE earthquake SYSTEM "stationlist.dtd">
<stationlist created="" xmlns="ch.ethz.sed.shakemap.usgs.xml">
  <station code="APE" name="APE" netid="GE" insttype="STS-2/N" lat="37.0727" lon="25.523">
    <comp name="--.HHZ">
      <acc value="0.0414322413" flag="0"/>
      <vel value="0.0064982309" flag="0"/>
      <psa03 value="0.0417723514" flag="0"/>
      <psa10 value="0.0047057818" flag="0"/>
      <psa30 value="0.0006670492" flag="0"/>
    </comp>
    <comp name="--.HHE">
      <acc value="0.0781404068" flag="0"/>
      <vel value="0.0185453863" flag="0"/>
      <psa03 value="0.1770766763" flag="0"/>
      <psa10 value="0.0061216347" flag="0"/>
      <psa30 value="0.0006608648" flag="0"/>
    </comp>
    <comp name="--.HHN">
      <acc value="0.0684945761" flag="0"/>
      <vel value="0.0125523643" flag="0"/>
      <psa03 value="0.0749502379" flag="0"/>
      <psa10 value="0.0033982396" flag="0"/>
      <psa30 value="0.0006698134" flag="0"/>
    </comp>
  </station>
  <station code="THERA" name="THERA" netid="GE" insttype="STS-2/N" lat="36.367" lon="25.4753">
    <comp name="--.HHE">
      <acc value="0.1454104989" flag="0"/>
      <vel value="0.0307848188" flag="0"/>
      <psa03 value="0.0721233906" flag="0"/>
      <psa10 value="0.0118903083" flag="0"/>
      <psa30 value="0.0014576565" flag="0"/>
    </comp>
    <comp name="--.HHN">
      <acc value="0.0886976890" flag="0"/>
      <vel value="0.0228948250" flag="0"/>
      <psa03 value="0.0704881766" flag="0"/>
      <psa10 value="0.0057849852" flag="0"/>
      <psa30 value="0.0009122224" flag="0"/>
    </comp>
    <comp name="--.HHZ">
      <acc value="0.1303555995" flag="0"/>
      <vel value="0.0303316441" flag="0"/>
      <psa03 value="0.0838856201" flag="0"/>
      <psa10 value="0.0151281612" flag="0"/>
      <psa30 value="0.0011572949" flag="0"/>
    </comp>
  </station>
  <station code="SERI" name="SERI" netid="HA" insttype="30" lat="37.1609" lon="24.4853">
    <comp name="--.HHE">
      <acc value="0.0227331559" flag="0"/>
      <vel value="0.0095577955" flag="0"/>
      <psa03 value="0.0807239638" flag="0"/>
      <psa10 value="0.0027503950" flag="0"/>
      <psa30 value="0.0003866029" flag="0"/>
    </comp>
    <comp name="--.HHN">
      <acc value="0.0312651478" flag="0"/>
      <vel value="0.0139050229" flag="0"/>
      <psa03 value="0.0812375028" flag="0"/>
      <psa10 value="0.0074212100" flag="0"/>
      <psa30 value="0.0005504558" flag="0"/>
    </comp>
    <comp name="--.HHZ">
      <acc value="0.0196461958" flag="0"/>
      <vel value="0.0069849383" flag="0"/>
      <psa03 value="0.0437272239" flag="0"/>
      <psa10 value="0.0033600106" flag="0"/>
      <psa30 value="0.0004288106" flag="0"/>
    </comp>
  </station>
  <station code="SNT1" name="SNT1" netid="HA" insttype="30" lat="36.4159" lon="25.4282">
    <comp name="--.HHE">
      <acc value="0.0874177407" flag="0"/>
      <vel value="0.0374076455" flag="0"/>
      <psa03 value="0.1252500038" flag="0"/>
      <psa10 value="0.0290815002" flag="0"/>
      <psa30 value="0.0032144760" flag="0"/>
    </comp>
    <comp name="--.HHZ">
      <acc value="0.0992609282" flag="0"/>
      <vel value="0.0241345298" flag="0"/>
      <psa03 value="0.0948339731" flag="0"/>
      <psa10 value="0.0183557836" flag="0"/>
      <psa30 value="0.0014601831" flag="0"/>
    </comp>
    <comp name="--.HHN">
      <acc value="0.1026122179" flag="0"/>
      <vel value="0.0491916987" flag="0"/>
      <psa03 value="0.1222075934" flag="0"/>
      <psa10 value="0.0388011060" flag="0"/>
      <psa30 value="0.0022408647" flag="0"/>
    </comp>
  </station>
  <station code="SNT5" name="SNT5" netid="HA" insttype="1s-100Hz," lat="36.4037" lon="25.3953">
    <comp name="--.HHE">
      <acc value="0.5553534527" flag="0"/>
      <vel value="0.1533254768" flag="0"/>
      <psa03 value="0.4197532594" flag="0"/>
      <psa10 value="0.0420009621" flag="0"/>
      <psa30 value="0.0033501283" flag="0"/>
    </comp>
    <comp name="--.HHZ">
      <acc value="0.2324734451" flag="0"/>
      <vel value="0.0401109416" flag="0"/>
      <psa03 value="0.1196636645" flag="0"/>
      <psa10 value="0.0147665244" flag="0"/>
      <psa30 value="0.0010521069" flag="0"/>
    </comp>
    <comp name="--.HHN">
      <acc value="0.4188165434" flag="0"/>
      <vel value="0.1120313519" flag="0"/>
      <psa03 value="0.3902905826" flag="0"/>
      <psa10 value="0.0171337798" flag="0"/>
      <psa30 value="0.0026342940" flag="0"/>
    </comp>
  </station>
  <station code="NAX1" name="NAX1" netid="HI" insttype="CMG-5TD,ACCELEROMETER,GURALP" lat="37.1014" lon="25.3741">
    <comp name="--.HNE">
      <acc value="0.1034857671" flag="0"/>
      <vel value="0.0305181981" flag="0"/>
      <psa03 value="0.1484459830" flag="0"/>
      <psa10 value="0.0071317069" flag="0"/>
      <psa30 value="0.0006419001" flag="0"/>
    </comp>
    <comp name="--.HNN">
      <acc value="0.0975232784" flag="0"/>
      <vel value="0.0394397666" flag="0"/>
      <psa03 value="0.1547190463" flag="0"/>
      <psa10 value="0.0090589220" flag="0"/>
      <psa30 value="0.0007304503" flag="0"/>
    </comp>
    <comp name="--.HNZ">
      <acc value="0.0416231295" flag="0"/>
      <vel value="0.0171256842" flag="0"/>
      <psa03 value="0.0627413658" flag="0"/>
      <psa10 value="0.0070626801" flag="0"/>
      <psa30 value="0.0005875954" flag="0"/>
    </comp>
  </station>
  <station code="AMGA" name="AMGA" netid="HL" insttype="SMART24" lat="36.8316" lon="25.8938">
    <comp name="--.HHN">
      <acc value="0.1126444761" flag="0"/>
      <vel value="0.0187091375" flag="0"/>
      <psa03 value="0.0860286015" flag="0"/>
      <psa10 value="0.0153191241" flag="0"/>
      <psa30 value="0.0012086164" flag="0"/>
    </comp>
    <comp name="--.HHE">
      <acc value="0.1097619905" flag="0"/>
      <vel value="0.0251954632" flag="0"/>
      <psa03 value="0.0952880787" flag="0"/>
      <psa10 value="0.0092325253" flag="0"/>
      <psa30 value="0.0013848730" flag="0"/>
    </comp>
    <comp name="--.HHZ">
      <acc value="0.0669828959" flag="0"/>
      <vel value="0.0140616879" flag="0"/>
      <psa03 value="0.0365125787" flag="0"/>
      <psa10 value="0.0099413359" flag="0"/>
      <psa30 value="0.0010472202" flag="0"/>
    </comp>
  </station>
  <station code="APE" name="APE" netid="HL" insttype="120" lat="37.0727" lon="25.523">
    <comp name="--.HHE">
      <acc value="0.0676860779" flag="0"/>
      <vel value="0.0173235875" flag="0"/>
      <psa03 value="0.1724342675" flag="0"/>
      <psa10 value="0.0060048624" flag="0"/>
      <psa30 value="0.0006570458" flag="0"/>
    </comp>
    <comp name="--.HHN">
      <acc value="0.0606609346" flag="0"/>
      <vel value="0.0122579482" flag="0"/>
      <psa03 value="0.0727453776" flag="0"/>
      <psa10 value="0.0033204530" flag="0"/>
      <psa30 value="0.0006679928" flag="0"/>
    </comp>
    <comp name="--.HHZ">
      <acc value="0.0383702060" flag="0"/>
      <vel value="0.0061787842" flag="0"/>
      <psa03 value="0.0404831254" flag="0"/>
      <psa10 value="0.0046459996" flag="0"/>
      <psa30 value="0.0006649891" flag="0"/>
    </comp>
  </station>
  <station code="MHLO" name="MHLO" netid="HL" insttype="20" lat="36.6898" lon="24.4017">
    <comp name="--.HHZ">
      <acc value="0.0259735792" flag="0"/>
      <vel value="0.0172218934" flag="0"/>
      <psa03 value="0.1077020166" flag="0"/>
      <psa10 value="0.0105156170" flag="0"/>
      <psa30 value="0.0006950005" flag="0"/>
    </comp>
    <comp name="--.HHN">
      <acc value="0.0810189958" flag="0"/>
      <vel value="0.0341518409" flag="0"/>
      <psa03 value="0.2778644426" flag="0"/>
      <psa10 value="0.0199377120" flag="0"/>
      <psa30 value="0.0010825936" flag="0"/>
    </comp>
    <comp name="--.HHE">
      <acc value="0.0648879003" flag="0"/>
      <vel value="0.0334698475" flag="0"/>
      <psa03 value="0.2106116772" flag="0"/>
      <psa10 value="0.0213662533" flag="0"/>
      <psa30 value="0.0012129344" flag="0"/>
    </comp>
  </station>
  <station code="MILA" name="MILA" netid="HL" insttype="CMG-5" lat="36.7429" lon="24.4282">
    <comp name="00.HNN">
      <acc value="0.1011678637" flag="0"/>
      <vel value="0.0606318841" flag="0"/>
      <psa03 value="0.3675134741" flag="0"/>
      <psa10 value="0.0232842085" flag="0"/>
      <psa30 value="0.0020335816" flag="0"/>
    </comp>
    <comp name="00.HNE">
      <acc value="0.0673560963" flag="0"/>
      <vel value="0.0277717836" flag="0"/>
      <psa03 value="0.2745171767" flag="0"/>
      <psa10 value="0.0124109713" flag="0"/>
      <psa30 value="0.0011966368" flag="0"/>
    </comp>
    <comp name="00.HNZ">
      <acc value="0.0844834981" flag="0"/>
      <vel value="0.0331066373" flag="0"/>
      <psa03 value="0.2020203506" flag="0"/>
      <psa10 value="0.0129351125" flag="0"/>
      <psa30 value="0.0010411779" flag="0"/>
    </comp>
  </station>
  <station code="SANT" name="SANT" netid="HL" insttype="30" lat="36.3705" lon="25.4593">
    <comp name="--.HHE">
      <acc value="0.4322165521" flag="0"/>
      <vel value="0.0734801173" flag="0"/>
      <psa03 value="0.2391594236" flag="0"/>
      <psa10 value="0.0243263104" flag="0"/>
      <psa30 value="0.0019746211" flag="0"/>
    </comp>
    <comp name="--.HHN">
      <acc value="0.2952601871" flag="0"/>
      <vel value="0.0453296166" flag="0"/>
      <psa03 value="0.0779218184" flag="0"/>
      <psa10 value="0.0172987161" flag="0"/>
      <psa30 value="0.0016023980" flag="0"/>
    </comp>
    <comp name="--.HHZ">
      <acc value="0.2310137026" flag="0"/>
      <vel value="0.0382544228" flag="0"/>
      <psa03 value="0.1096866414" flag="0"/>
      <psa10 value="0.0137170958" flag="0"/>
      <psa30 value="0.0013050425" flag="0"/>
    </comp>
  </station>
  <station code="SAP3" name="SAP3" netid="HL" insttype="65535" lat="36.4356" lon="25.3454">
    <comp name="--.HHE">
      <acc value="0.1882315265" flag="0"/>
      <vel value="0.0702896394" flag="0"/>
      <psa03 value="0.3045320173" flag="0"/>
      <psa10 value="0.0446410071" flag="0"/>
      <psa30 value="0.0035721132" flag="0"/>
    </comp>
    <comp name="--.HHN">
      <acc value="0.1808148334" flag="0"/>
      <vel value="0.0565538489" flag="0"/>
      <psa03 value="0.4654380490" flag="0"/>
      <psa10 value="0.0220087144" flag="0"/>
      <psa30 value="0.0024237853" flag="0"/>
    </comp>
    <comp name="--.HHZ">
      <acc value="0.1905448556" flag="0"/>
      <vel value="0.0462269036" flag="0"/>
      <psa03 value="0.1864928493" flag="0"/>
      <psa10 value="0.0105121359" flag="0"/>
      <psa30 value="0.0010565436" flag="0"/>
    </comp>
  </station>
  <station code="THERA" name="THERA" netid="HL" insttype="120" lat="36.367" lon="25.4753">
    <comp name="--.HHE">
      <acc value="0.1441753157" flag="0"/>
      <vel value="0.0296855192" flag="0"/>
      <psa03 value="0.0701504137" flag="0"/>
      <psa10 value="0.0117315589" flag="0"/>
      <psa30 value="0.0014570996" flag="0"/>
    </comp>
    <comp name="--.HHN">
      <acc value="0.1761377553" flag="0"/>
      <vel value="0.0442539471" flag="0"/>
      <psa03 value="0.1367128966" flag="0"/>
      <psa10 value="0.0113782310" flag="0"/>
      <psa30 value="0.0018216585" flag="0"/>
    </comp>
    <comp name="--.HHZ">
      <acc value="0.1269195776" flag="0"/>
      <vel value="0.0297991042" flag="0"/>
      <psa03 value="0.0811838617" flag="0"/>
      <psa10 value="0.0149707589" flag="0"/>
      <psa30 value="0.0011560117" flag="0"/>
    </comp>
  </station>
  <station code="THRA" name="THRA" netid="HL" insttype="CMG-5" lat="36.415" lon="25.4324">
    <comp name="00.HNE">
      <acc value="0.4532473738" flag="0"/>
      <vel value="0.1037875853" flag="0"/>
      <psa03 value="0.5478902906" flag="0"/>
      <psa10 value="0.0573566364" flag="0"/>
      <psa30 value="0.0060811544" flag="0"/>
    </comp>
    <comp name="00.HNN">
      <acc value="0.3464116377" flag="0"/>
      <vel value="0.0998777092" flag="0"/>
      <psa03 value="0.3790690321" flag="0"/>
      <psa10 value="0.1121270017" flag="0"/>
      <psa30 value="0.0051637554" flag="0"/>
    </comp>
    <comp name="00.HNZ">
      <acc value="0.2445774633" flag="0"/>
      <vel value="0.0661854748" flag="0"/>
      <psa03 value="0.3063564365" flag="0"/>
      <psa10 value="0.0302840802" flag="0"/>
      <psa30 value="0.0027611208" flag="0"/>
    </comp>
  </station>
  <station code="TNSA" name="TNSA" netid="HL" insttype="CMG-5" lat="37.5394" lon="25.1631">
    <comp name="00.HNE">
      <acc value="0.0226114915" flag="0"/>
      <vel value="0.0072525378" flag="0"/>
      <psa03 value="0.0373251093" flag="0"/>
      <psa10 value="0.0040709205" flag="0"/>
      <psa30 value="0.0004049115" flag="0"/>
    </comp>
    <comp name="00.HNZ">
      <acc value="0.0320322022" flag="0"/>
      <vel value="0.0140331403" flag="0"/>
      <psa03 value="0.0611274374" flag="0"/>
      <psa10 value="0.0083623983" flag="0"/>
      <psa30 value="0.0009393270" flag="0"/>
    </comp>
  </station>
  <station code="AKRO" name="AKRO" netid="HT" insttype="Compact," lat="36.3584" lon="25.3967">
    <comp name="--.HHE">
      <acc value="0.5557576104" flag="0"/>
      <vel value="0.1354215806" flag="0"/>
      <psa03 value="0.4913154602" flag="0"/>
      <psa10 value="0.0626540632" flag="0"/>
      <psa30 value="0.0037641061" flag="0"/>
    </comp>
    <comp name="--.HHN">
      <acc value="0.3349518727" flag="0"/>
      <vel value="0.0719902428" flag="0"/>
      <psa03 value="0.3030111070" flag="0"/>
      <psa10 value="0.0276083588" flag="0"/>
      <psa30 value="0.0022326547" flag="0"/>
    </comp>
    <comp name="--.HHZ">
      <acc value="0.2311853208" flag="0"/>
      <vel value="0.0653863429" flag="0"/>
      <psa03 value="0.1934120573" flag="0"/>
      <psa10 value="0.0220319990" flag="0"/>
      <psa30 value="0.0025566418" flag="0"/>
    </comp>
  </station>
  <station code="CMBO" name="CMBO" netid="HT" insttype="120P," lat="36.4709" lon="25.4056">
    <comp name="--.HHE">
      <acc value="0.1630239183" flag="0"/>
      <vel value="0.0424771856" flag="0"/>
      <psa03 value="0.2435443891" flag="0"/>
      <psa10 value="0.0322977351" flag="0"/>
      <psa30 value="0.0030827437" flag="0"/>
    </comp>
    <comp name="--.HHZ">
      <acc value="0.1720751426" flag="0"/>
      <vel value="0.0481523411" flag="0"/>
      <psa03 value="0.3461855427" flag="0"/>
      <psa10 value="0.0138885824" flag="0"/>
      <psa30 value="0.0022121319" flag="0"/>
    </comp>
    <comp name="--.HHN">
      <acc value="0.2387095338" flag="0"/>
      <vel value="0.0871311935" flag="0"/>
      <psa03 value="0.2589018602" flag="0"/>
      <psa10 value="0.0381194059" flag="0"/>
      <psa30 value="0.0032214191" flag="0"/>
    </comp>
  </station>
</stationlist>
