<?xml version="1.0" encoding="UTF-8" standalone="yes"?>
<!DOCTYPE earthquake SYSTEM "stationlist.dtd">
<stationlist created="" xmlns="ch.ethz.sed.shakemap.usgs.xml">
  <station code="APE" name="APE" netid="GE" insttype="STS-2/N" lat="37.0727" lon="25.523">
    <comp name="--.HHZ">
      <acc value="0.0414322413" flag="0"/>
      <vel value="0.0064982309" flag="0"/>
      <psa03 value="0.0417723514" flag="0"/>
      <psa10 value="0.0047057818" flag="0"/>
      <psa30 value="0.0006670492" flag="0"/>
    </comp>
    <comp name="--.HHE">
      <acc value="0.0781404068" flag="0"/>
      <vel value="0.0185453863" flag="0"/>
      <psa03 value="0.1770766763" flag="0"/>
      <psa10 value="0.0061216347" flag="0"/>
      <psa30 value="0.0006608648" flag="0"/>
    </comp>
    <comp name="--.HHN">
      <acc value="0.0684945761" flag="0"/>
      <vel value="0.0125523643" flag="0"/>
      <psa03 value="0.0749502379" flag="0"/>
      <psa10 value="0.0033982396" flag="0"/>
      <psa30 value="0.0006698134" flag="0"/>
    </comp>
  </station>
  <station code="THERA" name="THERA" netid="GE" insttype="STS-2/N" lat="36.367" lon="25.4753">
    <comp name="--.HHE">
      <acc value="0.1454104989" flag="0"/>
      <vel value="0.0307848188" flag="0"/>
      <psa03 value="0.0721233906" flag="0"/>
      <psa10 value="0.0118903083" flag="0"/>
      <psa30 value="0.0014576565" flag="0"/>
    </comp>
    <comp name="--.HHN">
      <acc value="0.0886976890" flag="0"/>
      <vel value="0.0228948250" flag="0"/>
      <psa03 value="0.0704881766" flag="0"/>
      <psa10 value="0.0057849852" flag="0"/>
      <psa30 value="0.0009122224" flag="0"/>
    </comp>
    <comp name="--.HHZ">
      <acc value="0.1303555995" flag="0"/>
      <vel value="0.0303316441" flag="0"/>
      <psa03 value="0.0838856201" flag="0"/>
      <psa10 value="0.0151281612" flag="0"/>
      <psa30 value="0.0011572949" flag="0"/>
    </comp>
  </station>
</stationlist>
