<?xml version="1.0" encoding="UTF-8" standalone="yes"?>
<!DOCTYPE earthquake SYSTEM "stationlist.dtd">
<stationlist created="" xmlns="ch.ethz.sed.shakemap.usgs.xml">
  <station code="KAPA" name="KAPA" netid="Z3" source="GFZ" insttype="CMG-3ESP/60" lat="35.6402" lon="27.1376">
    <comp name="--.HHE">
      <acc value="0.0107412882" flag="0"/>
      <vel value="0.0043686962" flag="0"/>
      <psa03 value="0.0234440911" flag="0"/>
      <psa10 value="0.0047479584" flag="0"/>
      <psa30 value="0.0004590237" flag="0"/>
    </comp>
    <comp name="--.HHN">
      <acc value="0.0079298421" flag="0"/>
      <vel value="0.0044258731" flag="0"/>
      <psa03 value="0.0130771638" flag="0"/>
      <psa10 value="0.0030086670" flag="0"/>
      <psa30 value="0.0003983343" flag="0"/>
    </comp>
    <comp name="--.HHZ">
      <acc value="0.0091295729" flag="0"/>
      <vel value="0.0029894478" flag="0"/>
      <psa03 value="0.0116597888" flag="0"/>
      <psa10 value="0.0030968398" flag="0"/>
      <psa30 value="0.0002419663" flag="0"/>
    </comp>
  </station>
  <station code="KASO" name="KASO" netid="Z3" source="GFZ" insttype="CMG-3ESP/60" lat="35.4115" lon="26.9152">
    <comp name="--.HHE">
      <acc value="0.0085387013" flag="0"/>
      <vel value="0.0025168350" flag="0"/>
      <psa03 value="0.0168190521" flag="0"/>
      <psa10 value="0.0026642403" flag="0"/>
      <psa30 value="0.0001529173" flag="0"/>
    </comp>
    <comp name="--.HHN">
      <acc value="0.0097094495" flag="0"/>
      <vel value="0.0034242450" flag="0"/>
      <psa03 value="0.0167300215" flag="0"/>
      <psa10 value="0.0019551262" flag="0"/>
      <psa30 value="0.0002881788" flag="0"/>
    </comp>
    <comp name="--.HHZ">
      <acc value="0.0036575949" flag="0"/>
      <vel value="0.0017863354" flag="0"/>
      <psa03 value="0.0072570624" flag="0"/>
      <psa10 value="0.0016694750" flag="0"/>
      <psa30 value="0.0001825680" flag="0"/>
    </comp>
  </station>
  <station code="RHON" name="RHON" netid="Z3" source="GFZ" insttype="CMG-3ESP/60" lat="36.38" lon="28.0844">
    <comp name="--.HHE">
      <acc value="0.0026361279" flag="0"/>
      <vel value="0.0022277234" flag="0"/>
      <psa03 value="0.0089381218" flag="0"/>
      <psa10 value="0.0022452988" flag="0"/>
      <psa30 value="0.0002931710" flag="0"/>
    </comp>
    <comp name="--.HHN">
      <acc value="0.0032940973" flag="0"/>
      <vel value="0.0029174955" flag="0"/>
      <psa03 value="0.0105989225" flag="0"/>
      <psa10 value="0.0043340853" flag="0"/>
      <psa30 value="0.0002832635" flag="0"/>
    </comp>
    <comp name="--.HHZ">
      <acc value="0.0019176218" flag="0"/>
      <vel value="0.0012868474" flag="0"/>
      <psa03 value="0.0066775996" flag="0"/>
      <psa10 value="0.0027611223" flag="0"/>
      <psa30 value="0.0001548431" flag="0"/>
    </comp>
  </station>
  <station code="RHOS" name="RHOS" netid="Z3" source="GFZ" insttype="CMG-3ESP/60" lat="36.011" lon="27.8197">
    <comp name="--.HHE">
      <acc value="0.0079557631" flag="0"/>
      <vel value="0.0040299072" flag="0"/>
      <psa03 value="0.0193451363" flag="0"/>
      <psa10 value="0.0045980361" flag="0"/>
      <psa30 value="0.0005644920" flag="0"/>
    </comp>
    <comp name="--.HHN">
      <acc value="0.0091627914" flag="0"/>
      <vel value="0.0049676414" flag="0"/>
      <psa03 value="0.0183028516" flag="0"/>
      <psa10 value="0.0065623816" flag="0"/>
      <psa30 value="0.0003581683" flag="0"/>
    </comp>
    <comp name="--.HHZ">
      <acc value="0.0059376130" flag="0"/>
      <vel value="0.0027442561" flag="0"/>
      <psa03 value="0.0104573847" flag="0"/>
      <psa10 value="0.0036673398" flag="0"/>
      <psa30 value="0.0002766148" flag="0"/>
    </comp>
  </station>
  <station code="TILO" name="TILO" netid="Z3" source="GFZ" insttype="CMG-3ESP/60" lat="36.4485" lon="27.3535">
    <comp name="--.HHE">
      <acc value="0.0122295476" flag="0"/>
      <vel value="0.0041779725" flag="0"/>
      <psa03 value="0.0267901041" flag="0"/>
      <psa10 value="0.0020890917" flag="0"/>
      <psa30 value="0.0003034044" flag="0"/>
    </comp>
    <comp name="--.HHN">
      <acc value="0.0168391968" flag="0"/>
      <vel value="0.0083475449" flag="0"/>
      <psa03 value="0.0440061224" flag="0"/>
      <psa10 value="0.0034455776" flag="0"/>
      <psa30 value="0.0002118310" flag="0"/>
    </comp>
    <comp name="--.HHZ">
      <acc value="0.0099328835" flag="0"/>
      <vel value="0.0023199987" flag="0"/>
      <psa03 value="0.0102007719" flag="0"/>
      <psa10 value="0.0009302498" flag="0"/>
      <psa30 value="0.0001551208" flag="0"/>
    </comp>
  </station>
</stationlist>
