<?xml version="1.0" encoding="UTF-8" standalone="yes"?>
<!DOCTYPE earthquake SYSTEM "stationlist.dtd">
<stationlist created="" xmlns="ch.ethz.sed.shakemap.usgs.xml">
  <station code="WDD" name="WDD" netid="MN" insttype="" lat="35.8373" lon="14.5242">
    <comp name="--.HHE">
      <acc value="0.0328630637" flag="0"/>
      <vel value="0.0210816480" flag="0"/>
      <psa03 value="0.0667886860" flag="0"/>
      <psa10 value="0.0237089234" flag="0"/>
      <psa30 value="0.0018223267" flag="0"/>
    </comp>
    <comp name="--.HHN">
      <acc value="0.0314523213" flag="0"/>
      <vel value="0.0207540714" flag="0"/>
      <psa03 value="0.0720122533" flag="0"/>
      <psa10 value="0.0319605645" flag="0"/>
      <psa30 value="0.0013108821" flag="0"/>
    </comp>
    <comp name="--.HHZ">
      <acc value="0.0262722163" flag="0"/>
      <vel value="0.0099340659" flag="0"/>
      <psa03 value="0.0557200492" flag="0"/>
      <psa10 value="0.0113293947" flag="0"/>
      <psa30 value="0.0007566131" flag="0"/>
    </comp>
  </station>
</stationlist>
