<stationlist created="1678266041">
	<station code="CROCE" name="CROCE" netid="IV" source="Italian National Seismic Network (INSN)" insttype="" lat="36.8326" lon="14.5345">
		<comp name=".HNE" depth="0.0">
			<acc value="0.00658562283309" flag="0"/>
			<vel value="0.004265927505" flag="0"/>
			<psa03 value="0.0127286752435" flag="0"/>
			<psa10 value="0.00783299436618" flag="0"/>
			<psa30 value="0.000546788409547" flag="0"/>
		</comp>
		<comp name=".HNN" depth="0.0">
			<acc value="0.00339971245749" flag="0"/>
			<vel value="0.00357983704091" flag="0"/>
			<psa03 value="0.0109532972168" flag="0"/>
			<psa10 value="0.00693863324417" flag="0"/>
			<psa30 value="0.000756359219671" flag="0"/>
		</comp>
		<comp name=".HNZ" depth="0.0">
			<acc value="0.00252081914895" flag="0"/>
			<vel value="0.00207952156941" flag="0"/>
			<psa03 value="0.00769309752058" flag="0"/>
			<psa10 value="0.00503543982316" flag="0"/>
			<psa30 value="0.000488024985511" flag="0"/>
		</comp>
	</station>
</stationlist>
