<?xml version="1.0" encoding="UTF-8" standalone="yes"?>
<!DOCTYPE earthquake SYSTEM "stationlist.dtd">
<stationlist created="" xmlns="ch.ethz.sed.shakemap.usgs.xml">
  <station code="SKR" name="SKR" netid="VI" source="ODC" insttype="LE-3D/5s" lat="64.5601" lon="-18.3865">
    <comp name="--.HHZ">
      <acc value="0.0095309567" flag="0"/>
      <vel value="0.0188580320" flag="0"/>
      <psa03 value="0.0313877200" flag="0"/>
      <psa10 value="0.0207644801" flag="0"/>
      <psa30 value="0.0098069958" flag="0"/>
    </comp>
    <comp name="--.HHN">
      <acc value="0.0118128627" flag="0"/>
      <vel value="0.0280434952" flag="0"/>
      <psa03 value="0.0188685387" flag="0"/>
      <psa10 value="0.0196531806" flag="0"/>
      <psa30 value="0.0192064486" flag="0"/>
    </comp>
    <comp name="--.HHE">
      <acc value="0.0077517656" flag="0"/>
      <vel value="0.0135958148" flag="0"/>
      <psa03 value="0.0181199019" flag="0"/>
      <psa10 value="0.0283335592" flag="0"/>
      <psa30 value="0.0085604537" flag="0"/>
    </comp>
  </station>
</stationlist>
