<stationlist xmlns:esm="https://esm-db.eu/esmws/shakemap/1/" created="1783994259">
	<station code="BULG" name="BULG" netid="IV" source="Italian National Seismic Network (INSN)" insttype="" lat="40.0783" lon="15.3776" esm:processing="automatic (Paolucci et al 2011)" esm:quality="good">
		<comp name="--.HNE" depth="1.0">
			<acc value="0.00182946205333411" flag="0"/>
			<vel value="0.000962509037077709" flag="0"/>
			<psa03 value="0.0055365490608711" flag="0"/>
			<psa10 value="0.000911493780426163" flag="0"/>
			<psa30 value="0.000285972147376105" flag="0"/>
		</comp>
		<comp name="--.HNN" depth="1.0">
			<acc value="0.00390386862092408" flag="0"/>
			<vel value="0.00170827312406887" flag="0"/>
			<psa03 value="0.0110747154163609" flag="0"/>
			<psa10 value="0.00207238212889542" flag="0"/>
			<psa30 value="0.000270753821528587" flag="0"/>
		</comp>
		<comp name="--.HNZ" depth="1.0">
			<acc value="0.000820414480103334" flag="0"/>
			<vel value="0.000696814881161271" flag="0"/>
			<psa03 value="0.00212232500116733" flag="0"/>
			<psa10 value="0.000776069262341295" flag="0"/>
			<psa30 value="0.000249266278292587" flag="0"/>
		</comp>
	</station>
	<station code="JOPP" name="JOPP" netid="IV" source="Italian National Seismic Network (INSN)" insttype="" lat="38.6068" lon="15.8856" esm:processing="manual (Paolucci et al 2011)" esm:quality="best">
		<comp name="--.HNE" depth="2.0">
			<acc value="0.00414569138337455" flag="0"/>
			<vel value="0.00246941468885773" flag="0"/>
			<psa03 value="0.00859050367070818" flag="0"/>
			<psa10 value="0.00254090991385165" flag="0"/>
			<psa30 value="0.000308273803599892" flag="0"/>
		</comp>
		<comp name="--.HNN" depth="2.0">
			<acc value="0.00486135666599732" flag="0"/>
			<vel value="0.00177411354749004" flag="0"/>
			<psa03 value="0.00769565953834274" flag="0"/>
			<psa10 value="0.00263352628155148" flag="0"/>
			<psa30 value="0.000306036693268979" flag="0"/>
		</comp>
		<comp name="--.HNZ" depth="2.0">
			<acc value="0.00284385598487753" flag="0"/>
			<vel value="0.00103541946533533" flag="0"/>
			<psa03 value="0.00568226024052051" flag="0"/>
			<psa10 value="0.00121206637728898" flag="0"/>
			<psa30 value="0.000259952220452159" flag="0"/>
		</comp>
	</station>
	<station code="MCEL" name="MCEL" netid="IV" source="Italian National Seismic Network (INSN)" insttype="" lat="40.3249" lon="15.8019" esm:processing="automatic (Paolucci et al 2011)" esm:quality="best">
		<comp name="--.HNE" depth="1.0">
			<acc value="0.00114792053297173" flag="0"/>
			<vel value="0.00102023254029296" flag="0"/>
			<psa03 value="0.0038631227749044" flag="0"/>
			<psa10 value="0.00145789923491928" flag="0"/>
			<psa30 value="0.000515940220172703" flag="0"/>
		</comp>
		<comp name="--.HNN" depth="1.0">
			<acc value="0.00106945388222389" flag="0"/>
			<vel value="0.00132534964466259" flag="0"/>
			<psa03 value="0.00347211672944266" flag="0"/>
			<psa10 value="0.00284061302042238" flag="0"/>
			<psa30 value="0.000481763633225229" flag="0"/>
		</comp>
		<comp name="--.HNZ" depth="1.0">
			<acc value="0.000679851234651869" flag="0"/>
			<vel value="0.000859456518400176" flag="0"/>
			<psa03 value="0.00202299566717844" flag="0"/>
			<psa10 value="0.00109743332457006" flag="0"/>
			<psa30 value="0.000490480148153153" flag="0"/>
		</comp>
	</station>
	<station code="PLAC" name="PLAC" netid="IV" source="Italian National Seismic Network (INSN)" insttype="" lat="38.4494" lon="16.4383" esm:processing="manual (Paolucci et al 2011)" esm:quality="good">
		<comp name="--.HNE" depth="1.0">
			<acc value="0.00566855782191286" flag="0"/>
			<vel value="0.00572644254511991" flag="0"/>
			<psa03 value="0.0112750360678045" flag="0"/>
			<psa10 value="0.00771131931065914" flag="0"/>
			<psa30 value="0.000746300006392773" flag="0"/>
		</comp>
		<comp name="--.HNN" depth="1.0">
			<acc value="0.00606642073458253" flag="0"/>
			<vel value="0.00505462781558894" flag="0"/>
			<psa03 value="0.0176284294075991" flag="0"/>
			<psa10 value="0.00396639661670979" flag="0"/>
			<psa30 value="0.000599545568684841" flag="0"/>
		</comp>
		<comp name="--.HNZ" depth="1.0">
			<acc value="0.00216489663576124" flag="0"/>
			<vel value="0.00161439032238142" flag="0"/>
			<psa03 value="0.0093511211832188" flag="0"/>
			<psa10 value="0.00331808204281103" flag="0"/>
			<psa30 value="0.000374044847328752" flag="0"/>
		</comp>
	</station>
	<station code="CEL" name="CEL" netid="MN" source="Mediterranean Very Broadband Seismographic Network (MedNet)" insttype="" lat="38.2603" lon="15.8939" esm:processing="manual (Paolucci et al 2011)" esm:quality="best">
		<comp name="--.HNE" depth="0.0">
			<acc value="0.00223125805718839" flag="0"/>
			<vel value="0.00165702700398746" flag="0"/>
			<psa03 value="0.00738246409201484" flag="0"/>
			<psa10 value="0.00312882250881574" flag="0"/>
			<psa30 value="0.000541828122147271" flag="0"/>
		</comp>
		<comp name="--.HNN" depth="0.0">
			<acc value="0.001974386704727" flag="0"/>
			<vel value="0.00203811962134195" flag="0"/>
			<psa03 value="0.00595071348023014" flag="0"/>
			<psa10 value="0.00235970397704765" flag="0"/>
			<psa30 value="0.000403127281630628" flag="0"/>
		</comp>
		<comp name="--.HNZ" depth="0.0">
			<acc value="0.00279689328367476" flag="0"/>
			<vel value="0.000992879427496258" flag="0"/>
			<psa03 value="0.00496638493462817" flag="0"/>
			<psa10 value="0.00166306782000116" flag="0"/>
			<psa30 value="0.000189706956061472" flag="0"/>
		</comp>
	</station>
	<station code="TIP" name="TIP" netid="MN" source="Mediterranean Very Broadband Seismographic Network (MedNet)" insttype="" lat="39.1794" lon="16.7583" esm:processing="manual (Paolucci et al 2011)" esm:quality="best">
		<comp name="--.HNE" depth="0.0">
			<acc value="0.00595287794567107" flag="0"/>
			<vel value="0.0039666836300347" flag="0"/>
			<psa03 value="0.0170467807215615" flag="0"/>
			<psa10 value="0.00698649556344313" flag="0"/>
			<psa30 value="0.000876499827651943" flag="0"/>
		</comp>
		<comp name="--.HNN" depth="0.0">
			<acc value="0.00666220016526404" flag="0"/>
			<vel value="0.00557733337480952" flag="0"/>
			<psa03 value="0.0181205936804001" flag="0"/>
			<psa10 value="0.0133729981361352" flag="0"/>
			<psa30 value="0.00165009258008186" flag="0"/>
		</comp>
		<comp name="--.HNZ" depth="0.0">
			<acc value="0.00733289288084636" flag="0"/>
			<vel value="0.00437611790140732" flag="0"/>
			<psa03 value="0.0160177099693413" flag="0"/>
			<psa10 value="0.00361203834029308" flag="0"/>
			<psa30 value="0.000600440412817207" flag="0"/>
		</comp>
	</station>
	<station code="KRK1" name="KRK1" netid="HI" source="ITSAK Strong Motion Network" insttype="" lat="39.618861" lon="19.9202" esm:processing="discarded" esm:quality="good">
		<comp name="--.HNE" depth="0.0">
			<acc value="0" flag="1"/>
			<vel value="0" flag="1"/>
			<psa03 value="0" flag="1"/>
			<psa10 value="0" flag="1"/>
			<psa30 value="0" flag="1"/>
		</comp>
		<comp name="--.HNN" depth="0.0">
			<acc value="0" flag="1"/>
			<vel value="0" flag="1"/>
			<psa03 value="0" flag="1"/>
			<psa10 value="0" flag="1"/>
			<psa30 value="0" flag="1"/>
		</comp>
		<comp name="--.HNZ" depth="0.0">
			<acc value="0" flag="1"/>
			<vel value="0" flag="1"/>
			<psa03 value="0" flag="1"/>
			<psa10 value="0" flag="1"/>
			<psa30 value="0" flag="1"/>
		</comp>
	</station>
	<station code="CAR1" name="CAR1" netid="IV" source="Italian National Seismic Network (INSN)" insttype="" lat="39.2534" lon="16.2114" esm:processing="automatic (Paolucci et al 2011)" esm:quality="bad">
		<comp name="--.HNE" depth="0.0">
			<acc value="0" flag="1"/>
			<vel value="0" flag="1"/>
			<psa03 value="0" flag="1"/>
			<psa10 value="0" flag="1"/>
			<psa30 value="0" flag="1"/>
		</comp>
		<comp name="--.HNN" depth="0.0">
			<acc value="0" flag="1"/>
			<vel value="0" flag="1"/>
			<psa03 value="0" flag="1"/>
			<psa10 value="0" flag="1"/>
			<psa30 value="0" flag="1"/>
		</comp>
		<comp name="--.HNZ" depth="0.0">
			<acc value="0" flag="1"/>
			<vel value="0" flag="1"/>
			<psa03 value="0" flag="1"/>
			<psa10 value="0" flag="1"/>
			<psa30 value="0" flag="1"/>
		</comp>
	</station>
	<station code="CELI" name="CELI" netid="IV" source="Italian National Seismic Network (INSN)" insttype="" lat="39.4027" lon="16.5088" esm:processing="discarded" esm:quality="bad">
		<comp name="--.HNE" depth="0.0">
			<acc value="0" flag="1"/>
			<vel value="0" flag="1"/>
			<psa03 value="0" flag="1"/>
			<psa10 value="0" flag="1"/>
			<psa30 value="0" flag="1"/>
		</comp>
		<comp name="--.HNN" depth="0.0">
			<acc value="0" flag="1"/>
			<vel value="0" flag="1"/>
			<psa03 value="0" flag="1"/>
			<psa10 value="0" flag="1"/>
			<psa30 value="0" flag="1"/>
		</comp>
		<comp name="--.HNZ" depth="0.0">
			<acc value="0" flag="1"/>
			<vel value="0" flag="1"/>
			<psa03 value="0" flag="1"/>
			<psa10 value="0" flag="1"/>
			<psa30 value="0" flag="1"/>
		</comp>
	</station>
	<station code="FERC" name="FERC" netid="IV" source="Italian National Seismic Network (INSN)" insttype="" lat="38.45271" lon="16.12807" esm:processing="discarded" esm:quality="good">
		<comp name="--.HNE" depth="0.0">
			<acc value="0" flag="1"/>
			<vel value="0" flag="1"/>
			<psa03 value="0" flag="1"/>
			<psa10 value="0" flag="1"/>
			<psa30 value="0" flag="1"/>
		</comp>
		<comp name="--.HNN" depth="0.0">
			<acc value="0" flag="1"/>
			<vel value="0" flag="1"/>
			<psa03 value="0" flag="1"/>
			<psa10 value="0" flag="1"/>
			<psa30 value="0" flag="1"/>
		</comp>
		<comp name="--.HNZ" depth="0.0">
			<acc value="0" flag="1"/>
			<vel value="0" flag="1"/>
			<psa03 value="0" flag="1"/>
			<psa10 value="0" flag="1"/>
			<psa30 value="0" flag="1"/>
		</comp>
	</station>
	<station code="GRIS" name="GRIS" netid="IV" source="Italian National Seismic Network (INSN)" insttype="" lat="39.7405" lon="15.8531" esm:processing="discarded" esm:quality="bad">
		<comp name="--.HNE" depth="0.0">
			<acc value="0" flag="1"/>
			<vel value="0" flag="1"/>
			<psa03 value="0" flag="1"/>
			<psa10 value="0" flag="1"/>
			<psa30 value="0" flag="1"/>
		</comp>
		<comp name="--.HNN" depth="0.0">
			<acc value="0" flag="1"/>
			<vel value="0" flag="1"/>
			<psa03 value="0" flag="1"/>
			<psa10 value="0" flag="1"/>
			<psa30 value="0" flag="1"/>
		</comp>
		<comp name="--.HNZ" depth="0.0">
			<acc value="0" flag="1"/>
			<vel value="0" flag="1"/>
			<psa03 value="0" flag="1"/>
			<psa10 value="0" flag="1"/>
			<psa30 value="0" flag="1"/>
		</comp>
	</station>
	<station code="MESG" name="MESG" netid="IV" source="Italian National Seismic Network (INSN)" insttype="" lat="40.589408" lon="17.850423" esm:processing="discarded" esm:quality="bad">
		<comp name="--.HNE" depth="0.0">
			<acc value="0" flag="1"/>
			<vel value="0" flag="1"/>
			<psa03 value="0" flag="1"/>
			<psa10 value="0" flag="1"/>
			<psa30 value="0" flag="1"/>
		</comp>
		<comp name="--.HNN" depth="0.0">
			<acc value="0" flag="1"/>
			<vel value="0" flag="1"/>
			<psa03 value="0" flag="1"/>
			<psa10 value="0" flag="1"/>
			<psa30 value="0" flag="1"/>
		</comp>
		<comp name="--.HNZ" depth="0.0">
			<acc value="0" flag="1"/>
			<vel value="0" flag="1"/>
			<psa03 value="0" flag="1"/>
			<psa10 value="0" flag="1"/>
			<psa30 value="0" flag="1"/>
		</comp>
	</station>
	<station code="MGR" name="MGR" netid="IV" source="Italian National Seismic Network (INSN)" insttype="" lat="40.1376" lon="15.55352" esm:processing="automatic (Paolucci et al 2011)" esm:quality="bad">
		<comp name="--.HNE" depth="0.0">
			<acc value="0" flag="1"/>
			<vel value="0" flag="1"/>
			<psa03 value="0" flag="1"/>
			<psa10 value="0" flag="1"/>
			<psa30 value="0" flag="1"/>
		</comp>
		<comp name="--.HNN" depth="0.0">
			<acc value="0" flag="1"/>
			<vel value="0" flag="1"/>
			<psa03 value="0" flag="1"/>
			<psa10 value="0" flag="1"/>
			<psa30 value="0" flag="1"/>
		</comp>
		<comp name="--.HNZ" depth="0.0">
			<acc value="0" flag="1"/>
			<vel value="0" flag="1"/>
			<psa03 value="0" flag="1"/>
			<psa10 value="0" flag="1"/>
			<psa30 value="0" flag="1"/>
		</comp>
	</station>
	<station code="NOV" name="NOV" netid="IV" source="Italian National Seismic Network (INSN)" insttype="" lat="38.0278" lon="15.1367" esm:processing="automatic (Paolucci et al 2011)" esm:quality="bad">
		<comp name="--.HNE" depth="0.0">
			<acc value="0" flag="1"/>
			<vel value="0" flag="1"/>
			<psa03 value="0" flag="1"/>
			<psa10 value="0" flag="1"/>
			<psa30 value="0" flag="1"/>
		</comp>
		<comp name="--.HNN" depth="0.0">
			<acc value="0" flag="1"/>
			<vel value="0" flag="1"/>
			<psa03 value="0" flag="1"/>
			<psa10 value="0" flag="1"/>
			<psa30 value="0" flag="1"/>
		</comp>
		<comp name="--.HNZ" depth="0.0">
			<acc value="0" flag="1"/>
			<vel value="0" flag="1"/>
			<psa03 value="0" flag="1"/>
			<psa10 value="0" flag="1"/>
			<psa30 value="0" flag="1"/>
		</comp>
	</station>
	<station code="SIRI" name="SIRI" netid="IV" source="Italian National Seismic Network (INSN)" insttype="" lat="40.1821" lon="15.8675" esm:processing="discarded" esm:quality="bad">
		<comp name="--.HNE" depth="0.0">
			<acc value="0" flag="1"/>
			<vel value="0" flag="1"/>
			<psa03 value="0" flag="1"/>
			<psa10 value="0" flag="1"/>
			<psa30 value="0" flag="1"/>
		</comp>
		<comp name="--.HNN" depth="0.0">
			<acc value="0" flag="1"/>
			<vel value="0" flag="1"/>
			<psa03 value="0" flag="1"/>
			<psa10 value="0" flag="1"/>
			<psa30 value="0" flag="1"/>
		</comp>
		<comp name="--.HNZ" depth="0.0">
			<acc value="0" flag="1"/>
			<vel value="0" flag="1"/>
			<psa03 value="0" flag="1"/>
			<psa10 value="0" flag="1"/>
			<psa30 value="0" flag="1"/>
		</comp>
	</station>
	<station code="SLCN" name="SLCN" netid="IV" source="Italian National Seismic Network (INSN)" insttype="" lat="40.39" lon="15.63277" esm:processing="automatic (Paolucci et al 2011)" esm:quality="bad">
		<comp name="--.HNE" depth="0.0">
			<acc value="0" flag="1"/>
			<vel value="0" flag="1"/>
			<psa03 value="0" flag="1"/>
			<psa10 value="0" flag="1"/>
			<psa30 value="0" flag="1"/>
		</comp>
		<comp name="--.HNN" depth="0.0">
			<acc value="0" flag="1"/>
			<vel value="0" flag="1"/>
			<psa03 value="0" flag="1"/>
			<psa10 value="0" flag="1"/>
			<psa30 value="0" flag="1"/>
		</comp>
		<comp name="--.HNZ" depth="0.0">
			<acc value="0" flag="1"/>
			<vel value="0" flag="1"/>
			<psa03 value="0" flag="1"/>
			<psa10 value="0" flag="1"/>
			<psa30 value="0" flag="1"/>
		</comp>
	</station>
	<station code="CUC" name="CUC" netid="MN" source="Mediterranean Very Broadband Seismographic Network (MedNet)" insttype="" lat="39.9938" lon="15.8155" esm:processing="discarded" esm:quality="best">
		<comp name="--.HNE" depth="0.0">
			<acc value="0" flag="1"/>
			<vel value="0" flag="1"/>
			<psa03 value="0" flag="1"/>
			<psa10 value="0" flag="1"/>
			<psa30 value="0" flag="1"/>
		</comp>
		<comp name="--.HNN" depth="0.0">
			<acc value="0" flag="1"/>
			<vel value="0" flag="1"/>
			<psa03 value="0" flag="1"/>
			<psa10 value="0" flag="1"/>
			<psa30 value="0" flag="1"/>
		</comp>
		<comp name="--.HNZ" depth="0.0">
			<acc value="0" flag="1"/>
			<vel value="0" flag="1"/>
			<psa03 value="0" flag="1"/>
			<psa10 value="0" flag="1"/>
			<psa30 value="0" flag="1"/>
		</comp>
	</station>
</stationlist>
