<?xml version="1.0" encoding="UTF-8" standalone="yes"?>
<!DOCTYPE earthquake SYSTEM "stationlist.dtd">
<stationlist created="" xmlns="ch.ethz.sed.shakemap.usgs.xml">
  <station code="CAR1" name="CAR1" netid="IV" source="INGV" insttype="" lat="39.2534" lon="16.2114">
    <comp name="--.HHE">
      <acc value="0.0068261912" flag="0"/>
      <vel value="0.0069174105" flag="0"/>
      <psa03 value="0.0220029206" flag="0"/>
      <psa10 value="0.0115876332" flag="0"/>
      <psa30 value="0.0006822719" flag="0"/>
    </comp>
    <comp name="--.HHN">
      <acc value="0.0075254599" flag="0"/>
      <vel value="0.0053714509" flag="0"/>
      <psa03 value="0.0272200203" flag="0"/>
      <psa10 value="0.0118078569" flag="0"/>
      <psa30 value="0.0009610570" flag="0"/>
    </comp>
    <comp name="--.HHZ">
      <acc value="0.0064989765" flag="0"/>
      <vel value="0.0036684867" flag="0"/>
      <psa03 value="0.0165703237" flag="0"/>
      <psa10 value="0.0062954828" flag="0"/>
      <psa30 value="0.0003943207" flag="0"/>
    </comp>
  </station>
  <station code="CELI" name="CELI" netid="IV" source="INGV" insttype="" lat="39.4027" lon="16.5088">
    <comp name="--.HHE">
      <acc value="0.0100219423" flag="0"/>
      <vel value="0.0122648697" flag="0"/>
      <psa03 value="0.0225292550" flag="0"/>
      <psa10 value="0.0297518455" flag="0"/>
      <psa30 value="0.0015604111" flag="0"/>
    </comp>
    <comp name="--.HHN">
      <acc value="0.0085253916" flag="0"/>
      <vel value="0.0119051624" flag="0"/>
      <psa03 value="0.0225922631" flag="0"/>
      <psa10 value="0.0286220226" flag="0"/>
      <psa30 value="0.0021737142" flag="0"/>
    </comp>
    <comp name="--.HHZ">
      <acc value="0.0064070847" flag="0"/>
      <vel value="0.0078961277" flag="0"/>
      <psa03 value="0.0130109075" flag="0"/>
      <psa10 value="0.0167134148" flag="0"/>
      <psa30 value="0.0015229084" flag="0"/>
    </comp>
  </station>
  <station code="PLAC" name="PLAC" netid="IV" source="INGV" insttype="" lat="38.4494" lon="16.4383">
    <comp name="--.HHE">
      <acc value="0.0063168028" flag="0"/>
      <vel value="0.0052650035" flag="0"/>
      <psa03 value="0.0181173394" flag="0"/>
      <psa10 value="0.0043298596" flag="0"/>
      <psa30 value="0.0005307929" flag="0"/>
    </comp>
    <comp name="--.HHZ">
      <acc value="0.0023403616" flag="0"/>
      <vel value="0.0016437092" flag="0"/>
      <psa03 value="0.0096762701" flag="0"/>
      <psa10 value="0.0034450377" flag="0"/>
      <psa30 value="0.0003184332" flag="0"/>
    </comp>
    <comp name="--.HHN">
      <acc value="0.0057574350" flag="0"/>
      <vel value="0.0060942795" flag="0"/>
      <psa03 value="0.0117755683" flag="0"/>
      <psa10 value="0.0080751823" flag="0"/>
      <psa30 value="0.0007146300" flag="0"/>
    </comp>
  </station>
  <station code="SPS2" name="SPS2" netid="IV" source="INGV" insttype="" lat="39.291" lon="16.3388">
    <comp name="--.HHZ">
      <acc value="0.0014615779" flag="0"/>
      <vel value="0.0008917312" flag="0"/>
      <psa03 value="0.0035890705" flag="0"/>
      <psa10 value="0.0011579929" flag="0"/>
      <psa30 value="0.0001162351" flag="0"/>
    </comp>
    <comp name="--.HHE">
      <acc value="0.0026985515" flag="0"/>
      <vel value="0.0015552382" flag="0"/>
      <psa03 value="0.0058624952" flag="0"/>
      <psa10 value="0.0026580294" flag="0"/>
      <psa30 value="0.0001919153" flag="0"/>
    </comp>
    <comp name="--.HHN">
      <acc value="0.0022686271" flag="0"/>
      <vel value="0.0017950356" flag="0"/>
      <psa03 value="0.0092010665" flag="0"/>
      <psa10 value="0.0023741558" flag="0"/>
      <psa30 value="0.0001813728" flag="0"/>
    </comp>
  </station>
  <station code="TDS" name="TDS" netid="IV" source="INGV" insttype="" lat="39.6601" lon="16.3376">
    <comp name="--.HHE">
      <acc value="0.0017965415" flag="0"/>
      <vel value="0.0018559918" flag="0"/>
      <psa03 value="0.0040077496" flag="0"/>
      <psa10 value="0.0025259325" flag="0"/>
      <psa30 value="0.0004515122" flag="0"/>
    </comp>
    <comp name="--.HHN">
      <acc value="0.0012970657" flag="0"/>
      <vel value="0.0024384397" flag="0"/>
      <psa03 value="0.0025500721" flag="0"/>
      <psa10 value="0.0030468589" flag="0"/>
      <psa30 value="0.0005059125" flag="0"/>
    </comp>
    <comp name="--.HHZ">
      <acc value="0.0009880174" flag="0"/>
      <vel value="0.0011969183" flag="0"/>
      <psa03 value="0.0031477344" flag="0"/>
      <psa10 value="0.0012158419" flag="0"/>
      <psa30 value="0.0002522555" flag="0"/>
    </comp>
  </station>
  <station code="TIP" name="TIP" netid="MN" source="INGV" insttype="" lat="39.1794" lon="16.7583">
    <comp name="--.HHN">
      <acc value="0.0068180500" flag="0"/>
      <vel value="0.0057514061" flag="0"/>
      <psa03 value="0.0184127389" flag="0"/>
      <psa10 value="0.0132992129" flag="0"/>
      <psa30 value="0.0013569282" flag="0"/>
    </comp>
    <comp name="--.HHZ">
      <acc value="0.0074889319" flag="0"/>
      <vel value="0.0045867653" flag="0"/>
      <psa03 value="0.0160498467" flag="0"/>
      <psa10 value="0.0035765687" flag="0"/>
      <psa30 value="0.0005139651" flag="0"/>
    </comp>
    <comp name="--.HHE">
      <acc value="0.0060509035" flag="0"/>
      <vel value="0.0040481118" flag="0"/>
      <psa03 value="0.0174687285" flag="0"/>
      <psa10 value="0.0067486065" flag="0"/>
      <psa30 value="0.0006827447" flag="0"/>
    </comp>
  </station>
</stationlist>
