<stationlist created="1778205317">
	<station code="ARPRA" name="ARPRA" netid="KO" source="Bogazici University Kandilli Observatory And Earthquake Research Institute (KOERI)" insttype="" lat="39.0929" lon="38.3356">
		<comp name="--.HNE" depth="0.0">
			<acc value="0.0884819062458453" flag="0"/>
			<vel value="0.0771357752359683" flag="0"/>
			<psa03 value="0.121698802001699" flag="0"/>
			<psa10 value="0.0666435167579158" flag="0"/>
			<psa30 value="0.00903658347069234" flag="0"/>
		</comp>
		<comp name="--.HNN" depth="0.0">
			<acc value="0.0680006794924222" flag="0"/>
			<vel value="0.0375333577678194" flag="0"/>
			<psa03 value="0.143846194277744" flag="0"/>
			<psa10 value="0.0297741488161951" flag="0"/>
			<psa30 value="0.00554087486760677" flag="0"/>
		</comp>
		<comp name="--.HNZ" depth="0.0">
			<acc value="0.0460269414266608" flag="0"/>
			<vel value="0.0196546795361884" flag="0"/>
			<psa03 value="0.052348381743378" flag="0"/>
			<psa10 value="0.0166306782000116" flag="0"/>
			<psa30 value="0.00243442346210017" flag="0"/>
		</comp>
	</station>
</stationlist>
