<?xml version="1.0" encoding="UTF-8" standalone="yes"?>
<!DOCTYPE earthquake SYSTEM "stationlist.dtd">
<stationlist created="" xmlns="ch.ethz.sed.shakemap.usgs.xml">
  <station code="THERA" name="THERA" netid="GE" insttype="STS-2/N" lat="36.367" lon="25.4753">
    <comp name="--.HHE">
      <acc value="0.3326965859" flag="0"/>
      <vel value="0.1137267713" flag="0"/>
      <psa03 value="0.3971563772" flag="0"/>
      <psa10 value="0.0706749017" flag="0"/>
      <psa30 value="0.0055531146" flag="0"/>
    </comp>
    <comp name="--.HHN">
      <acc value="0.3825501084" flag="0"/>
      <vel value="0.1188153800" flag="0"/>
      <psa03 value="0.4189697460" flag="0"/>
      <psa10 value="0.0271352866" flag="0"/>
      <psa30 value="0.0021390344" flag="0"/>
    </comp>
    <comp name="--.HHZ">
      <acc value="0.3448564143" flag="0"/>
      <vel value="0.0921473189" flag="0"/>
      <psa03 value="0.3292585428" flag="0"/>
      <psa10 value="0.0568504290" flag="0"/>
      <psa30 value="0.0040674599" flag="0"/>
    </comp>
  </station>
</stationlist>
