<?xml version="1.0" encoding="UTF-8" standalone="yes"?>
<!DOCTYPE earthquake SYSTEM "stationlist.dtd">
<stationlist created="" xmlns="ch.ethz.sed.shakemap.usgs.xml">
  <station code="THERA" name="THERA" netid="GE" insttype="STS-2/N" lat="36.367" lon="25.4753">
    <comp name="--.HHE">
      <acc value="0.3326965856" flag="0"/>
      <vel value="0.1137267497" flag="0"/>
      <psa03 value="0.3971563772" flag="0"/>
      <psa10 value="0.0706754126" flag="0"/>
      <psa30 value="0.0055467050" flag="0"/>
    </comp>
    <comp name="--.HHN">
      <acc value="0.3825501079" flag="0"/>
      <vel value="0.1188153802" flag="0"/>
      <psa03 value="0.4189697460" flag="0"/>
      <psa10 value="0.0271352743" flag="0"/>
      <psa30 value="0.0021414109" flag="0"/>
    </comp>
    <comp name="--.HHZ">
      <acc value="0.3448564146" flag="0"/>
      <vel value="0.0921472925" flag="0"/>
      <psa03 value="0.3292585428" flag="0"/>
      <psa10 value="0.0568500592" flag="0"/>
      <psa30 value="0.0040738094" flag="0"/>
    </comp>
  </station>
</stationlist>
