<?xml version="1.0" encoding="UTF-8" standalone="yes"?>
<!DOCTYPE earthquake SYSTEM "stationlist.dtd">
<stationlist created="" xmlns="ch.ethz.sed.shakemap.usgs.xml">
  <station code="THERA" name="THERA" netid="GE" insttype="STS-2/N" lat="36.367" lon="25.4753">
    <comp name="--.HHE">
      <acc value="0.3326965859" flag="0"/>
      <vel value="0.1137267713" flag="0"/>
      <psa03 value="0.3971563772" flag="0"/>
      <psa10 value="0.0706749017" flag="0"/>
      <psa30 value="0.0055531146" flag="0"/>
    </comp>
    <comp name="--.HHN">
      <acc value="0.3825501084" flag="0"/>
      <vel value="0.1188153800" flag="0"/>
      <psa03 value="0.4189697460" flag="0"/>
      <psa10 value="0.0271352866" flag="0"/>
      <psa30 value="0.0021390344" flag="0"/>
    </comp>
    <comp name="--.HHZ">
      <acc value="0.3448564143" flag="0"/>
      <vel value="0.0921473189" flag="0"/>
      <psa03 value="0.3292585428" flag="0"/>
      <psa10 value="0.0568504290" flag="0"/>
      <psa30 value="0.0040674599" flag="0"/>
    </comp>
  </station>
  <station code="SNT1" name="SNT1" netid="HA" insttype="30" lat="36.4159" lon="25.4282">
    <comp name="--.HHE">
      <acc value="0.4016623978" flag="0"/>
      <vel value="0.1222004915" flag="0"/>
      <psa03 value="0.6376516824" flag="0"/>
      <psa10 value="0.1055993844" flag="0"/>
      <psa30 value="0.0104362561" flag="0"/>
    </comp>
    <comp name="--.HHN">
      <acc value="0.2948874125" flag="0"/>
      <vel value="0.1340417537" flag="0"/>
      <psa03 value="0.4828103854" flag="0"/>
      <psa10 value="0.1483608299" flag="0"/>
      <psa30 value="0.0078337954" flag="0"/>
    </comp>
    <comp name="--.HHZ">
      <acc value="0.2601054283" flag="0"/>
      <vel value="0.0807907961" flag="0"/>
      <psa03 value="0.4948201700" flag="0"/>
      <psa10 value="0.0561147040" flag="0"/>
      <psa30 value="0.0047101196" flag="0"/>
    </comp>
  </station>
  <station code="SAP3" name="SAP3" netid="HL" insttype="LE3D20_SMART24" lat="36.4356" lon="25.3454">
    <comp name="--.HHE">
      <acc value="1.5529024423" flag="0"/>
      <vel value="0.5404164176" flag="0"/>
      <psa03 value="2.4115028973" flag="0"/>
      <psa10 value="0.3177130435" flag="0"/>
      <psa30 value="0.0318175385" flag="0"/>
    </comp>
    <comp name="--.HHZ">
      <acc value="0.9730543680" flag="0"/>
      <vel value="0.2660537504" flag="0"/>
      <psa03 value="1.6396915408" flag="0"/>
      <psa10 value="0.1157621421" flag="0"/>
      <psa30 value="0.0096697943" flag="0"/>
    </comp>
    <comp name="--.HHN">
      <acc value="1.0651813442" flag="0"/>
      <vel value="0.3190526824" flag="0"/>
      <psa03 value="1.2738745544" flag="0"/>
      <psa10 value="0.2209789993" flag="0"/>
      <psa30 value="0.0262357192" flag="0"/>
    </comp>
  </station>
  <station code="THERA" name="THERA" netid="HL" insttype="120" lat="36.367" lon="25.4753">
    <comp name="--.HHE">
      <acc value="0.3336521202" flag="0"/>
      <vel value="0.1107048008" flag="0"/>
      <psa03 value="0.3839556848" flag="0"/>
      <psa10 value="0.0702844344" flag="0"/>
      <psa30 value="0.0054958455" flag="0"/>
    </comp>
    <comp name="--.HHN">
      <acc value="0.3711738818" flag="0"/>
      <vel value="0.1160851981" flag="0"/>
      <psa03 value="0.4075017293" flag="0"/>
      <psa10 value="0.0269487442" flag="0"/>
      <psa30 value="0.0021042153" flag="0"/>
    </comp>
    <comp name="--.HHZ">
      <acc value="0.3386928139" flag="0"/>
      <vel value="0.0897463791" flag="0"/>
      <psa03 value="0.3199139721" flag="0"/>
      <psa10 value="0.0563324942" flag="0"/>
      <psa30 value="0.0040070474" flag="0"/>
    </comp>
  </station>
  <station code="CMBO" name="CMBO" netid="HT" insttype="120P," lat="36.4709" lon="25.4056">
    <comp name="--.HHE">
      <acc value="1.3841611213" flag="0"/>
      <vel value="0.4421430358" flag="0"/>
      <psa03 value="2.0927515193" flag="0"/>
      <psa10 value="0.3340696144" flag="0"/>
      <psa30 value="0.0322637436" flag="0"/>
    </comp>
    <comp name="--.HHN">
      <acc value="2.1817535913" flag="0"/>
      <vel value="0.8680091936" flag="0"/>
      <psa03 value="2.6369860962" flag="0"/>
      <psa10 value="0.4346568050" flag="0"/>
      <psa30 value="0.0282203251" flag="0"/>
    </comp>
    <comp name="--.HHZ">
      <acc value="1.3640952213" flag="0"/>
      <vel value="0.4133089972" flag="0"/>
      <psa03 value="2.9818376931" flag="0"/>
      <psa10 value="0.1356684882" flag="0"/>
      <psa30 value="0.0141478788" flag="0"/>
    </comp>
  </station>
</stationlist>
