<stationlist created="1741951778">
	<station code="BODA" name="BODA" netid="KO" source="Bogazici University Kandilli Observatory And Earthquake Research Institute (KOERI)" insttype="" lat="37.0348" lon="27.4304">
		<comp name=".HNE" depth="0.0">
			<acc value="0.0059028516336042" flag="0"/>
			<vel value="0.00231665639137" flag="0"/>
			<psa03 value="0.0165520899843155" flag="0"/>
			<psa10 value="0.002571407999412" flag="0"/>
			<psa30 value="0.000316258164093084" flag="0"/>
		</comp>
		<comp name=".HNN" depth="0.0">
			<acc value="0.0063046471797258" flag="0"/>
			<vel value="0.00291062623511" flag="0"/>
			<psa03 value="0.0206719709791283" flag="0"/>
			<psa10 value="0.00348610906261697" flag="0"/>
			<psa30 value="0.000345775171532948" flag="0"/>
		</comp>
		<comp name=".HNZ" depth="0.0">
			<acc value="0.0042725345486994" flag="0"/>
			<vel value="0.00216080232033" flag="0"/>
			<psa03 value="0.00428035191168223" flag="0"/>
			<psa10 value="0.00195696377987265" flag="0"/>
			<psa30 value="0.000312228574235641" flag="0"/>
		</comp>
	</station>
	<station code="BODM" name="BODM" netid="KO" source="Bogazici University Kandilli Observatory And Earthquake Research Institute (KOERI)" insttype="" lat="37.031" lon="27.4247">
		<comp name=".HNE" depth="0.0">
			<acc value="0.0075038472662832" flag="0"/>
			<vel value="0.00492736752372" flag="0"/>
			<psa03 value="0.0161580547668497" flag="0"/>
			<psa10 value="0.00401977785305291" flag="0"/>
			<psa30 value="0.000326502280215506" flag="0"/>
		</comp>
		<comp name=".HNN" depth="0.0">
			<acc value="0.00975683874054" flag="0"/>
			<vel value="0.00689937334979" flag="0"/>
			<psa03 value="0.0236309326207968" flag="0"/>
			<psa10 value="0.00509270236655769" flag="0"/>
			<psa30 value="0.000436704736837245" flag="0"/>
		</comp>
		<comp name=".HNZ" depth="0.0">
			<acc value="0.002820701304618" flag="0"/>
			<vel value="0.00163341291826" flag="0"/>
			<psa03 value="0.00374968882817189" flag="0"/>
			<psa10 value="0.00174850457984721" flag="0"/>
			<psa30 value="0.000340556049750399" flag="0"/>
		</comp>
	</station>
	<station code="CESE" name="CESE" netid="KO" source="Bogazici University Kandilli Observatory And Earthquake Research Institute (KOERI)" insttype="" lat="38.3306" lon="26.2997">
		<comp name=".HNE" depth="0.0">
			<acc value="0.050081540861586" flag="0"/>
			<vel value="0.00334609366439" flag="0"/>
			<psa03 value="0.00304941848036381" flag="0"/>
			<psa10 value="0.00254085847565525" flag="0"/>
			<psa30 value="0.000861551188119663" flag="0"/>
		</comp>
		<comp name=".HNN" depth="0.0">
			<acc value="0.033616074267324" flag="0"/>
			<vel value="0.00358589275565" flag="0"/>
			<psa03 value="0.00548196927333867" flag="0"/>
			<psa10 value="0.00285136943610721" flag="0"/>
			<psa30 value="0.00068675726513395" flag="0"/>
		</comp>
		<comp name=".HNZ" depth="0.0">
			<acc value="0.007518953725608" flag="0"/>
			<vel value="0.00153164698429" flag="0"/>
			<psa03 value="0.00247049536392182" flag="0"/>
			<psa10 value="0.00148465467921272" flag="0"/>
			<psa30 value="0.000725091627513859" flag="0"/>
		</comp>
	</station>
	<station code="DATC" name="DATC" netid="KO" source="Bogazici University Kandilli Observatory And Earthquake Research Institute (KOERI)" insttype="" lat="36.7584" lon="27.6602">
		<comp name=".HNE" depth="0.0">
			<acc value="0.18784282898928" flag="0"/>
			<vel value="0.018197715282" flag="0"/>
			<psa03 value="0.0254257259962243" flag="0"/>
			<psa10 value="0.00996946355302224" flag="0"/>
			<psa30 value="0.00184208077881327" flag="0"/>
		</comp>
		<comp name=".HNN" depth="0.0">
			<acc value="0.24682566047892" flag="0"/>
			<vel value="0.0212619181842" flag="0"/>
			<psa03 value="0.0310912237034856" flag="0"/>
			<psa10 value="0.0190002736748738" flag="0"/>
			<psa30 value="0.000906808404940712" flag="0"/>
		</comp>
		<comp name=".HNZ" depth="0.0">
			<acc value="0.25732961263104" flag="0"/>
			<vel value="0.0456017094927" flag="0"/>
			<psa03 value="0.0457357537277688" flag="0"/>
			<psa10 value="0.0101729951609995" flag="0"/>
			<psa30 value="0.00102282171525418" flag="0"/>
		</comp>
	</station>
	<station code="DIDI" name="DIDI" netid="KO" source="Bogazici University Kandilli Observatory And Earthquake Research Institute (KOERI)" insttype="" lat="37.3767" lon="27.2398">
		<comp name=".HNE" depth="0.0">
			<acc value="0.01920201380001" flag="0"/>
			<vel value="0.00627042219001" flag="0"/>
			<psa03 value="0.0379711716537888" flag="0"/>
			<psa10 value="0.0118481383185245" flag="0"/>
			<psa30 value="0.00163496028726329" flag="0"/>
		</comp>
		<comp name=".HNN" depth="0.0">
			<acc value="0.019026462509544" flag="0"/>
			<vel value="0.0085110626737" flag="0"/>
			<psa03 value="0.0449139336608886" flag="0"/>
			<psa10 value="0.0135810831176169" flag="0"/>
			<psa30 value="0.00225722453004698" flag="0"/>
		</comp>
		<comp name=".HNZ" depth="0.0">
			<acc value="0.030753706588272" flag="0"/>
			<vel value="0.00637482652571" flag="0"/>
			<psa03 value="0.0169087763734452" flag="0"/>
			<psa10 value="0.00912324155749699" flag="0"/>
			<psa30 value="0.000718840744672264" flag="0"/>
		</comp>
	</station>
	<station code="GMLD" name="GMLD" netid="KO" source="Bogazici University Kandilli Observatory And Earthquake Research Institute (KOERI)" insttype="" lat="38.0766" lon="26.9157">
		<comp name=".HNE" depth="0.0">
			<acc value="0.01965870678798" flag="0"/>
			<vel value="0.00656898620548" flag="0"/>
			<psa03 value="0.0258085169792758" flag="0"/>
			<psa10 value="0.00651966345820512" flag="0"/>
			<psa30 value="0.000701524076691951" flag="0"/>
		</comp>
		<comp name=".HNN" depth="0.0">
			<acc value="0.025254824497302" flag="0"/>
			<vel value="0.00845299324549" flag="0"/>
			<psa03 value="0.027293268982625" flag="0"/>
			<psa10 value="0.0117376935021072" flag="0"/>
			<psa30 value="0.000562017439230863" flag="0"/>
		</comp>
		<comp name=".HNZ" depth="0.0">
			<acc value="0.014485499122356" flag="0"/>
			<vel value="0.0039975777614" flag="0"/>
			<psa03 value="0.0209697602374704" flag="0"/>
			<psa10 value="0.00606902610569594" flag="0"/>
			<psa30 value="0.000670475196941938" flag="0"/>
		</comp>
	</station>
	<station code="KUSD" name="KUSD" netid="KO" source="Bogazici University Kandilli Observatory And Earthquake Research Institute (KOERI)" insttype="" lat="37.8606" lon="27.2868">
		<comp name=".HNE" depth="0.0">
			<acc value="0.0049451321836704" flag="0"/>
			<vel value="0.00283092602786" flag="0"/>
			<psa03 value="0.00761700393806473" flag="0"/>
			<psa10 value="0.00324870310126264" flag="0"/>
			<psa30 value="0.00056814263665931" flag="0"/>
		</comp>
		<comp name=".HNN" depth="0.0">
			<acc value="0.01061096958822" flag="0"/>
			<vel value="0.00211567484971" flag="0"/>
			<psa03 value="0.00648976585265668" flag="0"/>
			<psa10 value="0.00357787459475711" flag="0"/>
			<psa30 value="0.00049791090082199" flag="0"/>
		</comp>
		<comp name=".HNZ" depth="0.0">
			<acc value="0.0026048366527248" flag="0"/>
			<vel value="0.00125133822159" flag="0"/>
			<psa03 value="0.00311412100877664" flag="0"/>
			<psa10 value="0.00165336194898861" flag="0"/>
			<psa30 value="0.000412916468273005" flag="0"/>
		</comp>
	</station>
	<station code="YKAV" name="YKAV" netid="KO" source="Bogazici University Kandilli Observatory And Earthquake Research Institute (KOERI)" insttype="" lat="37.1246" lon="27.2801">
		<comp name=".HNE" depth="0.0">
			<acc value="0.0090674093589006" flag="0"/>
			<vel value="0.00620626799454" flag="0"/>
			<psa03 value="0.0195362967879326" flag="0"/>
			<psa10 value="0.00923172686908751" flag="0"/>
			<psa30 value="0.00118461222474816" flag="0"/>
		</comp>
		<comp name=".HNN" depth="0.0">
			<acc value="0.013063104627318" flag="0"/>
			<vel value="0.00370645450588" flag="0"/>
			<psa03 value="0.0128100777714436" flag="0"/>
			<psa10 value="0.00629284562015534" flag="0"/>
			<psa30 value="0.000692543065077649" flag="0"/>
		</comp>
		<comp name=".HNZ" depth="0.0">
			<acc value="0.011978070101436" flag="0"/>
			<vel value="0.00314747959771" flag="0"/>
			<psa03 value="0.011767629808161" flag="0"/>
			<psa10 value="0.0045570070356204" flag="0"/>
			<psa30 value="0.000763721269871536" flag="0"/>
		</comp>
	</station>
</stationlist>
