<?xml version="1.0" encoding="UTF-8" standalone="yes"?>
<!DOCTYPE earthquake SYSTEM "stationlist.dtd">
<stationlist created="" xmlns="ch.ethz.sed.shakemap.usgs.xml">
  <station code="GAZ" name="GAZ" netid="KO" insttype="CMG-3T" lat="37.1721" lon="37.2096">
    <comp name="--.HHZ">
      <acc value="0.0854475524" flag="0"/>
      <vel value="0.0315951796" flag="0"/>
      <psa03 value="0.1484303746" flag="0"/>
      <psa10 value="0.0350987647" flag="0"/>
      <psa30 value="0.0027394552" flag="0"/>
    </comp>
    <comp name="--.HHN">
      <acc value="0.1182006629" flag="0"/>
      <vel value="0.0331914399" flag="0"/>
      <psa03 value="0.1078241916" flag="0"/>
      <psa10 value="0.0234162946" flag="0"/>
      <psa30 value="0.0019385326" flag="0"/>
    </comp>
    <comp name="--.HHE">
      <acc value="0.1116233224" flag="0"/>
      <vel value="0.0525055287" flag="0"/>
      <psa03 value="0.1766527577" flag="0"/>
      <psa10 value="0.0618241872" flag="0"/>
      <psa30 value="0.0036534404" flag="0"/>
    </comp>
  </station>
  <station code="ANDN" name="ANDN" netid="TU" insttype="T" lat="37.58" lon="36.3452">
    <comp name="--.HHN">
      <acc value="0.0977389552" flag="0"/>
      <vel value="0.0366041409" flag="0"/>
      <psa03 value="0.2747137244" flag="0"/>
      <psa10 value="0.0204047240" flag="0"/>
      <psa30 value="0.0009688044" flag="0"/>
    </comp>
    <comp name="--.HHZ">
      <acc value="0.0379946277" flag="0"/>
      <vel value="0.0118333394" flag="0"/>
      <psa03 value="0.0626650692" flag="0"/>
      <psa10 value="0.0131429278" flag="0"/>
      <psa30 value="0.0009650461" flag="0"/>
    </comp>
    <comp name="--.HHE">
      <acc value="0.0594681806" flag="0"/>
      <vel value="0.0192477391" flag="0"/>
      <psa03 value="0.1209620043" flag="0"/>
      <psa10 value="0.0150383860" flag="0"/>
      <psa30 value="0.0009792730" flag="0"/>
    </comp>
  </station>
</stationlist>
