<stationlist xmlns:esm="https://esm-db.eu/esmws/shakemap/1/" created="1783475621">
	<station code="ANKY" name="ANKY" netid="HL" source="National Observatory of Athens Seismic Network" insttype="" lat="35.86704" lon="23.30117" esm:processing="manual (Paolucci et al 2011)" esm:quality="best">
		<comp name="00.HNE" depth="0.0">
			<acc value="0.0961411350364385" flag="0"/>
			<vel value="0.0422397152568672" flag="0"/>
			<psa03 value="0.197581584426288" flag="0"/>
			<psa10 value="0.0203192257136219" flag="0"/>
			<psa30 value="0.00191362417706348" flag="0"/>
		</comp>
		<comp name="00.HNN" depth="0.0">
			<acc value="0.0601156837823073" flag="0"/>
			<vel value="0.0367931084274426" flag="0"/>
			<psa03 value="0.112258196405244" flag="0"/>
			<psa10 value="0.0513497356916581" flag="0"/>
			<psa30 value="0.00303710098524829" flag="0"/>
		</comp>
		<comp name="00.HNZ" depth="0.0">
			<acc value="0.127763944143097" flag="0"/>
			<vel value="0.0280012834440234" flag="0"/>
			<psa03 value="0.126173022663526" flag="0"/>
			<psa10 value="0.0248534009323176" flag="0"/>
			<psa30 value="0.00139148262582825" flag="0"/>
		</comp>
	</station>
	<station code="GVD" name="GVD" netid="HL" source="National Observatory of Athens Seismic Network" insttype="" lat="34.83914" lon="24.08738" esm:processing="manual (Paolucci et al 2011)" esm:quality="best">
		<comp name="00.HNE" depth="1.0">
			<acc value="0.0167643669765419" flag="0"/>
			<vel value="0.00828447561871527" flag="0"/>
			<psa03 value="0.0504546288299235" flag="0"/>
			<psa10 value="0.00292491087036403" flag="0"/>
			<psa30 value="0.000298093549318" flag="0"/>
		</comp>
		<comp name="00.HNN" depth="1.0">
			<acc value="0.0187003871084884" flag="0"/>
			<vel value="0.00697482558079063" flag="0"/>
			<psa03 value="0.0431790218566051" flag="0"/>
			<psa10 value="0.00293894851903893" flag="0"/>
			<psa30 value="0.000201425062172028" flag="0"/>
		</comp>
		<comp name="00.HNZ" depth="1.0">
			<acc value="0.00885982869294643" flag="0"/>
			<vel value="0.00346557167357051" flag="0"/>
			<psa03 value="0.0254763673718242" flag="0"/>
			<psa10 value="0.00150242194995494" flag="0"/>
			<psa30 value="0.000122262695657571" flag="0"/>
		</comp>
	</station>
	<station code="IACM" name="IACM" netid="HL" source="National Observatory of Athens Seismic Network" insttype="" lat="35.3058" lon="25.0709" esm:processing="manual (Paolucci et al 2011)" esm:quality="bad">
		<comp name="--.HNE" depth="0.0">
			<acc value="0.0255905084400046" flag="0"/>
			<vel value="0.00838795857616451" flag="0"/>
			<psa03 value="0.0709163974899607" flag="0"/>
			<psa10 value="0.00705897793816473" flag="0"/>
			<psa30 value="0.000314985134592633" flag="0"/>
		</comp>
		<comp name="--.HNN" depth="0.0">
			<acc value="0.0240092407081392" flag="0"/>
			<vel value="0.00810068945207563" flag="0"/>
			<psa03 value="0.0649209418031123" flag="0"/>
			<psa10 value="0.007010656355017" flag="0"/>
			<psa30 value="0.000328855218644297" flag="0"/>
		</comp>
		<comp name="--.HNZ" depth="0.0">
			<acc value="0.0282477441118675" flag="0"/>
			<vel value="0.006816656795432" flag="0"/>
			<psa03 value="0.0340935614431231" flag="0"/>
			<psa10 value="0.00325365326528072" flag="0"/>
			<psa30 value="0.000272032616239092" flag="0"/>
		</comp>
	</station>
	<station code="LVRA" name="LVRA" netid="HL" source="National Observatory of Athens Seismic Network" insttype="" lat="37.71196" lon="24.05518" esm:processing="manual (Paolucci et al 2011)" esm:quality="bad">
		<comp name="00.HNE" depth="0.0">
			<acc value="0.0206193653410882" flag="0"/>
			<vel value="0.00702667741861315" flag="0"/>
			<psa03 value="0.0585938763485908" flag="0"/>
			<psa10 value="0.00388024798488737" flag="0"/>
			<psa30 value="0.00023549776202933" flag="0"/>
		</comp>
		<comp name="00.HNN" depth="0.0">
			<acc value="0.0195604195141862" flag="0"/>
			<vel value="0.00652897002642579" flag="0"/>
			<psa03 value="0.0483162059197237" flag="0"/>
			<psa10 value="0.0027500745226887" flag="0"/>
			<psa30 value="0.000195502938089354" flag="0"/>
		</comp>
		<comp name="00.HNZ" depth="0.0">
			<acc value="0.0148101442028398" flag="0"/>
			<vel value="0.00415353140560437" flag="0"/>
			<psa03 value="0.029461342294317" flag="0"/>
			<psa10 value="0.00130047599390212" flag="0"/>
			<psa30 value="0.000430982118158581" flag="0"/>
		</comp>
	</station>
	<station code="MILA" name="MILA" netid="HL" source="National Observatory of Athens Seismic Network" insttype="" lat="36.74288" lon="24.4282" esm:processing="manual (Paolucci et al 2011)" esm:quality="best">
		<comp name="00.HNE" depth="0.0">
			<acc value="0.07204633411606" flag="0"/>
			<vel value="0.0213907867996671" flag="0"/>
			<psa03 value="0.1426231043308" flag="0"/>
			<psa10 value="0.00891016837993949" flag="0"/>
			<psa30 value="0.000894303409876904" flag="0"/>
		</comp>
		<comp name="00.HNN" depth="0.0">
			<acc value="0.0849639229094556" flag="0"/>
			<vel value="0.0297437812519924" flag="0"/>
			<psa03 value="0.154945222693878" flag="0"/>
			<psa10 value="0.0105744348794273" flag="0"/>
			<psa30 value="0.000930300586182254" flag="0"/>
		</comp>
		<comp name="00.HNZ" depth="0.0">
			<acc value="0.071113115471479" flag="0"/>
			<vel value="0.0210946496117356" flag="0"/>
			<psa03 value="0.089055149466509" flag="0"/>
			<psa10 value="0.0068715783333541" flag="0"/>
			<psa30 value="0.00048168222158122" flag="0"/>
		</comp>
	</station>
	<station code="NOAC" name="NOAC" netid="HL" source="National Observatory of Athens Seismic Network" insttype="" lat="37.97384" lon="23.71767" esm:processing="manual (Paolucci et al 2011)" esm:quality="bad">
		<comp name="00.HNE" depth="0.0">
			<acc value="0.00703337283710819" flag="0"/>
			<vel value="0.00263188933506006" flag="0"/>
			<psa03 value="0.0178968826473087" flag="0"/>
			<psa10 value="0.00133689713375396" flag="0"/>
			<psa30 value="0.000100222542824929" flag="0"/>
		</comp>
		<comp name="00.HNN" depth="0.0">
			<acc value="0.00727347170171408" flag="0"/>
			<vel value="0.00269730650457972" flag="0"/>
			<psa03 value="0.0131542087457719" flag="0"/>
			<psa10 value="0.000954351267167736" flag="0"/>
			<psa30 value="7.78514395157928e-05" flag="0"/>
		</comp>
		<comp name="00.HNZ" depth="0.0">
			<acc value="0.00571902979911105" flag="0"/>
			<vel value="0.00135311841417022" flag="0"/>
			<psa03 value="0.00778514395157929" flag="0"/>
			<psa10 value="0.000744957740194225" flag="0"/>
			<psa30 value="7.51669071186965e-05" flag="0"/>
		</comp>
	</station>
	<station code="NPLA" name="NPLA" netid="HL" source="National Observatory of Athens Seismic Network" insttype="" lat="37.56561" lon="22.79975" esm:processing="manual (Paolucci et al 2011)" esm:quality="good">
		<comp name="00.HNE" depth="0.0">
			<acc value="0.0140539597992625" flag="0"/>
			<vel value="0.00797644520647278" flag="0"/>
			<psa03 value="0.0760719560602588" flag="0"/>
			<psa10 value="0.00233991922691433" flag="0"/>
			<psa30 value="0.000217429598956559" flag="0"/>
		</comp>
		<comp name="00.HNN" depth="0.0">
			<acc value="0.0146378509388007" flag="0"/>
			<vel value="0.00734473270836612" flag="0"/>
			<psa03 value="0.0521950201640642" flag="0"/>
			<psa10 value="0.00383929620952984" flag="0"/>
			<psa30 value="0.000227936714271891" flag="0"/>
		</comp>
		<comp name="00.HNZ" depth="0.0">
			<acc value="0.00835621106530441" flag="0"/>
			<vel value="0.00169738968206406" flag="0"/>
			<psa03 value="0.00694412733204459" flag="0"/>
			<psa10 value="0.000738059967068132" flag="0"/>
			<psa30 value="9.2900151574754e-05" flag="0"/>
		</comp>
	</station>
	<station code="SIVA" name="SIVA" netid="HL" source="National Observatory of Athens Seismic Network" insttype="" lat="35.01777" lon="24.81204" esm:processing="manual (Paolucci et al 2011)" esm:quality="bad">
		<comp name="00.HNE" depth="0.0">
			<acc value="0.00429168941118939" flag="0"/>
			<vel value="0.00276105834028189" flag="0"/>
			<psa03 value="0.0127962710928257" flag="0"/>
			<psa10 value="0.0023274895882825" flag="0"/>
			<psa30 value="0.000201787351848406" flag="0"/>
		</comp>
		<comp name="00.HNN" depth="0.0">
			<acc value="0.00480926781901255" flag="0"/>
			<vel value="0.00296934608696461" flag="0"/>
			<psa03 value="0.0102907075222025" flag="0"/>
			<psa10 value="0.00225098041496525" flag="0"/>
			<psa30 value="0.000139595684649008" flag="0"/>
		</comp>
		<comp name="00.HNZ" depth="0.0">
			<acc value="0.00469936822868778" flag="0"/>
			<vel value="0.00141676145706926" flag="0"/>
			<psa03 value="0.0105591607619121" flag="0"/>
			<psa10 value="0.00138521871690169" flag="0"/>
			<psa30 value="0.000148096703906479" flag="0"/>
		</comp>
	</station>
	<station code="THRA" name="THRA" netid="HL" source="National Observatory of Athens Seismic Network" insttype="" lat="36.41502" lon="25.43244" esm:processing="manual (Paolucci et al 2011)" esm:quality="bad">
		<comp name="00.HNE" depth="0.0">
			<acc value="0.0246304459785099" flag="0"/>
			<vel value="0.00975734142575522" flag="0"/>
			<psa03 value="0.0407272031856837" flag="0"/>
			<psa10 value="0.00992107034722129" flag="0"/>
			<psa30 value="0.000754812450536911" flag="0"/>
		</comp>
		<comp name="00.HNN" depth="0.0">
			<acc value="0.018125534116201" flag="0"/>
			<vel value="0.00655601739679596" flag="0"/>
			<psa03 value="0.042123631629707" flag="0"/>
			<psa10 value="0.00938336722704144" flag="0"/>
			<psa30 value="0.000520358012831542" flag="0"/>
		</comp>
		<comp name="00.HNZ" depth="0.0">
			<acc value="0.0306469909491987" flag="0"/>
			<vel value="0.00484234909400375" flag="0"/>
			<psa03 value="0.0345514815744056" flag="0"/>
			<psa10 value="0.00254633711983777" flag="0"/>
			<psa30 value="0.000247032067787305" flag="0"/>
		</comp>
	</station>
	<station code="IMMV" name="IMMV" netid="GE" source="GEOFON" insttype="" lat="35.4606" lon="23.9811" esm:processing="discarded" esm:quality="bad">
		<comp name="--.HNE" depth="0.0">
			<acc value="0" flag="1"/>
			<vel value="0" flag="1"/>
			<psa03 value="0" flag="1"/>
			<psa10 value="0" flag="1"/>
			<psa30 value="0" flag="1"/>
		</comp>
		<comp name="--.HNN" depth="0.0">
			<acc value="0" flag="1"/>
			<vel value="0" flag="1"/>
			<psa03 value="0" flag="1"/>
			<psa10 value="0" flag="1"/>
			<psa30 value="0" flag="1"/>
		</comp>
		<comp name="--.HNZ" depth="0.0">
			<acc value="0" flag="1"/>
			<vel value="0" flag="1"/>
			<psa03 value="0" flag="1"/>
			<psa10 value="0" flag="1"/>
			<psa30 value="0" flag="1"/>
		</comp>
	</station>
	<station code="DRPA" name="DRPA" netid="HL" source="National Observatory of Athens Seismic Network" insttype="" lat="37.94738" lon="23.63024" esm:processing="discarded" esm:quality="bad">
		<comp name="00.HNE" depth="0.0">
			<acc value="0" flag="1"/>
			<vel value="0" flag="1"/>
			<psa03 value="0" flag="1"/>
			<psa10 value="0" flag="1"/>
			<psa30 value="0" flag="1"/>
		</comp>
		<comp name="00.HNN" depth="0.0">
			<acc value="0" flag="1"/>
			<vel value="0" flag="1"/>
			<psa03 value="0" flag="1"/>
			<psa10 value="0" flag="1"/>
			<psa30 value="0" flag="1"/>
		</comp>
		<comp name="00.HNZ" depth="0.0">
			<acc value="0" flag="1"/>
			<vel value="0" flag="1"/>
			<psa03 value="0" flag="1"/>
			<psa10 value="0" flag="1"/>
			<psa30 value="0" flag="1"/>
		</comp>
	</station>
	<station code="IMMV" name="IMMV" netid="HL" source="National Observatory of Athens Seismic Network" insttype="" lat="35.4606" lon="23.9811" esm:processing="discarded" esm:quality="bad">
		<comp name="--.HNE" depth="0.0">
			<acc value="0" flag="1"/>
			<vel value="0" flag="1"/>
			<psa03 value="0" flag="1"/>
			<psa10 value="0" flag="1"/>
			<psa30 value="0" flag="1"/>
		</comp>
		<comp name="--.HNN" depth="0.0">
			<acc value="0" flag="1"/>
			<vel value="0" flag="1"/>
			<psa03 value="0" flag="1"/>
			<psa10 value="0" flag="1"/>
			<psa30 value="0" flag="1"/>
		</comp>
		<comp name="--.HNZ" depth="0.0">
			<acc value="0" flag="1"/>
			<vel value="0" flag="1"/>
			<psa03 value="0" flag="1"/>
			<psa10 value="0" flag="1"/>
			<psa30 value="0" flag="1"/>
		</comp>
	</station>
	<station code="MNVA" name="MNVA" netid="HL" source="National Observatory of Athens Seismic Network" insttype="" lat="36.68709" lon="23.03734" esm:processing="discarded" esm:quality="bad">
		<comp name="00.HNE" depth="0.0">
			<acc value="0" flag="1"/>
			<vel value="0" flag="1"/>
			<psa03 value="0" flag="1"/>
			<psa10 value="0" flag="1"/>
			<psa30 value="0" flag="1"/>
		</comp>
		<comp name="00.HNN" depth="0.0">
			<acc value="0" flag="1"/>
			<vel value="0" flag="1"/>
			<psa03 value="0" flag="1"/>
			<psa10 value="0" flag="1"/>
			<psa30 value="0" flag="1"/>
		</comp>
		<comp name="00.HNZ" depth="0.0">
			<acc value="0" flag="1"/>
			<vel value="0" flag="1"/>
			<psa03 value="0" flag="1"/>
			<psa10 value="0" flag="1"/>
			<psa30 value="0" flag="1"/>
		</comp>
	</station>
</stationlist>
