<stationlist xmlns:esm="https://esm-db.eu/esmws/shakemap/1/" created="1783994280">
	<station code="KARP" name="KARP" netid="GE" source="GEOFON" insttype="" lat="35.5471" lon="27.16106" esm:processing="manual (Paolucci et al 2011)" esm:quality="good">
		<comp name="--.HNE" depth="0.0">
			<acc value="0.0277540096815754" flag="0"/>
			<vel value="0.0272708950998989" flag="0"/>
			<psa03 value="0.0711848507296704" flag="0"/>
			<psa10 value="0.0658421838373825" flag="0"/>
			<psa30 value="0.00543573068205383" flag="0"/>
		</comp>
		<comp name="--.HNN" depth="0.0">
			<acc value="0.0247898953447386" flag="0"/>
			<vel value="0.0298280980174754" flag="0"/>
			<psa03 value="0.0693951624649395" flag="0"/>
			<psa10 value="0.0402438251648707" flag="0"/>
			<psa30 value="0.00818290216841572" flag="0"/>
		</comp>
		<comp name="--.HNZ" depth="0.0">
			<acc value="0.0257775543561475" flag="0"/>
			<vel value="0.0238590190854026" flag="0"/>
			<psa03 value="0.058612290669936" flag="0"/>
			<psa10 value="0.0403928167129096" flag="0"/>
			<psa30 value="0.0049990467454595" flag="0"/>
		</comp>
	</station>
	<station code="KSS1" name="KSS1" netid="HI" source="ITSAK Strong Motion Network" insttype="" lat="35.4189" lon="26.9207" esm:processing="manual (Paolucci et al 2011)" esm:quality="good">
		<comp name="--.HNE" depth="0.0">
			<acc value="0.0242016402078157" flag="0"/>
			<vel value="0.0203009187335159" flag="0"/>
			<psa03 value="0.083309988723222" flag="0"/>
			<psa10 value="0.0301808554743552" flag="0"/>
			<psa30 value="0.00802227764665612" flag="0"/>
		</comp>
		<comp name="--.HNN" depth="0.0">
			<acc value="0.0285494593585263" flag="0"/>
			<vel value="0.0245686409532971" flag="0"/>
			<psa03 value="0.114450564529539" flag="0"/>
			<psa10 value="0.0193527940506673" flag="0"/>
			<psa30 value="0.00831131230141016" flag="0"/>
		</comp>
		<comp name="--.HNZ" depth="0.0">
			<acc value="0.0139058491857092" flag="0"/>
			<vel value="0.0188365784139326" flag="0"/>
			<psa03 value="0.0291719187151132" flag="0"/>
			<psa10 value="0.01746422550931" flag="0"/>
			<psa30 value="0.00744510318128042" flag="0"/>
		</comp>
	</station>
	<station code="RDI1" name="RDI1" netid="HI" source="ITSAK Strong Motion Network" insttype="" lat="36.4514" lon="28.224" esm:processing="manual (Paolucci et al 2011)" esm:quality="good">
		<comp name="--.HNE" depth="0.0">
			<acc value="0.015655313108271" flag="0"/>
			<vel value="0.0257594501327355" flag="0"/>
			<psa03 value="0.0344962413026875" flag="0"/>
			<psa10 value="0.0274345788321257" flag="0"/>
			<psa30 value="0.0131389963955217" flag="0"/>
		</comp>
		<comp name="--.HNN" depth="0.0">
			<acc value="0.0163877135793858" flag="0"/>
			<vel value="0.0271031052464721" flag="0"/>
			<psa03 value="0.0338698504100317" flag="0"/>
			<psa10 value="0.0265808975298491" flag="0"/>
			<psa30 value="0.0123135026834146" flag="0"/>
		</comp>
		<comp name="--.HNZ" depth="0.0">
			<acc value="0.0107024793949357" flag="0"/>
			<vel value="0.0143757648597363" flag="0"/>
			<psa03 value="0.0197313131186578" flag="0"/>
			<psa10 value="0.017283019572506" flag="0"/>
			<psa30 value="0.00715920048098966" flag="0"/>
		</comp>
	</station>
	<station code="RKL1" name="RKL1" netid="HI" source="ITSAK Strong Motion Network" insttype="" lat="36.336699" lon="28.171224" esm:processing="manual (Paolucci et al 2011)" esm:quality="good">
		<comp name="--.HNE" depth="0.0">
			<acc value="0.0248754608053049" flag="0"/>
			<vel value="0.0260855090350558" flag="0"/>
			<psa03 value="0.0459167553013576" flag="0"/>
			<psa10 value="0.0305586612363328" flag="0"/>
			<psa30 value="0.00454801128342704" flag="0"/>
		</comp>
		<comp name="--.HNN" depth="0.0">
			<acc value="0.016600461873201" flag="0"/>
			<vel value="0.0224233186165417" flag="0"/>
			<psa03 value="0.0448605134555191" flag="0"/>
			<psa10 value="0.0331062256249707" flag="0"/>
			<psa30 value="0.00648005843873575" flag="0"/>
		</comp>
		<comp name="--.HNZ" depth="0.0">
			<acc value="0.0114233392707695" flag="0"/>
			<vel value="0.00966754906207756" flag="0"/>
			<psa03 value="0.0322067950004394" flag="0"/>
			<psa10 value="0.0133735349935594" flag="0"/>
			<psa30 value="0.00358562252989528" flag="0"/>
		</comp>
	</station>
	<station code="RKT1" name="RKT1" netid="HI" source="ITSAK Strong Motion Network" insttype="" lat="35.954336" lon="27.767327" esm:processing="manual (Paolucci et al 2011)" esm:quality="good">
		<comp name="--.HNE" depth="0.0">
			<acc value="0.0342995295706838" flag="0"/>
			<vel value="0.0321379432523348" flag="0"/>
			<psa03 value="0.0936799870893871" flag="0"/>
			<psa10 value="0.0358354314214605" flag="0"/>
			<psa30 value="0.00591574480572707" flag="0"/>
		</comp>
		<comp name="--.HNN" depth="0.0">
			<acc value="0.0434508810175158" flag="0"/>
			<vel value="0.0370817214035518" flag="0"/>
			<psa03 value="0.128015209546033" flag="0"/>
			<psa10 value="0.0469169880201997" flag="0"/>
			<psa30 value="0.00414984365677588" flag="0"/>
		</comp>
		<comp name="--.HNZ" depth="0.0">
			<acc value="0.0192548860440241" flag="0"/>
			<vel value="0.0165497624716853" flag="0"/>
			<psa03 value="0.0553285089921825" flag="0"/>
			<psa10 value="0.0422732653963661" flag="0"/>
			<psa30 value="0.00312832431946648" flag="0"/>
		</comp>
	</station>
	<station code="RPN1" name="RPN1" netid="HI" source="ITSAK Strong Motion Network" insttype="" lat="36.448678" lon="28.218047" esm:processing="manual (Paolucci et al 2011)" esm:quality="good">
		<comp name="--.HNE" depth="0.0">
			<acc value="0.0143774370377415" flag="0"/>
			<vel value="0.030897705124004" flag="0"/>
			<psa03 value="0.0368508161857179" flag="0"/>
			<psa10 value="0.0361780466180358" flag="0"/>
			<psa30 value="0.014193410243771" flag="0"/>
		</comp>
		<comp name="--.HNN" depth="0.0">
			<acc value="0.0184815491362059" flag="0"/>
			<vel value="0.0395105473212318" flag="0"/>
			<psa03 value="0.0442475040966576" flag="0"/>
			<psa10 value="0.0314510366018212" flag="0"/>
			<psa30 value="0.0143024157981873" flag="0"/>
		</comp>
		<comp name="--.HNZ" depth="0.0">
			<acc value="0.00917982571035449" flag="0"/>
			<vel value="0.0152021095663686" flag="0"/>
			<psa03 value="0.0227934162019591" flag="0"/>
			<psa10 value="0.0176000152896365" flag="0"/>
			<psa30 value="0.00869011401073767" flag="0"/>
		</comp>
	</station>
	<station code="KARP" name="KARP" netid="HL" source="National Observatory of Athens Seismic Network" insttype="" lat="35.5471" lon="27.16106" esm:processing="manual (Paolucci et al 2011)" esm:quality="good">
		<comp name="--.HNE" depth="0.0">
			<acc value="0.0271905413754137" flag="0"/>
			<vel value="0.0267171811926245" flag="0"/>
			<psa03 value="0.0697531001178857" flag="0"/>
			<psa10 value="0.0645052867036286" flag="0"/>
			<psa30 value="0.00532566485377289" flag="0"/>
		</comp>
		<comp name="--.HNN" depth="0.0">
			<acc value="0.0242865777533534" flag="0"/>
			<vel value="0.02922247820823" flag="0"/>
			<psa03 value="0.0680081540597731" flag="0"/>
			<psa10 value="0.0394263850499549" flag="0"/>
			<psa30 value="0.00801646115979575" flag="0"/>
		</comp>
		<comp name="--.HNZ" depth="0.0">
			<acc value="0.0252542679999597" flag="0"/>
			<vel value="0.0233746223521433" flag="0"/>
			<psa03 value="0.0574489932978609" flag="0"/>
			<psa10 value="0.0395713497993981" flag="0"/>
			<psa30 value="0.00489748193643602" flag="0"/>
		</comp>
	</station>
	<station code="AGN1" name="AGN1" netid="HI" source="ITSAK Strong Motion Network" insttype="" lat="35.1879" lon="25.7155" esm:processing="automatic (Paolucci et al 2011)" esm:quality="bad">
		<comp name="--.HNE" depth="0.0">
			<acc value="0" flag="1"/>
			<vel value="0" flag="1"/>
			<psa03 value="0" flag="1"/>
			<psa10 value="0" flag="1"/>
			<psa30 value="0" flag="1"/>
		</comp>
		<comp name="--.HNN" depth="0.0">
			<acc value="0" flag="1"/>
			<vel value="0" flag="1"/>
			<psa03 value="0" flag="1"/>
			<psa10 value="0" flag="1"/>
			<psa30 value="0" flag="1"/>
		</comp>
		<comp name="--.HNZ" depth="0.0">
			<acc value="0" flag="1"/>
			<vel value="0" flag="1"/>
			<psa03 value="0" flag="1"/>
			<psa10 value="0" flag="1"/>
			<psa30 value="0" flag="1"/>
		</comp>
	</station>
	<station code="KOS2" name="KOS2" netid="HI" source="ITSAK Strong Motion Network" insttype="" lat="36.8941" lon="27.2888" esm:processing="automatic (Paolucci et al 2011)" esm:quality="bad">
		<comp name="--.HNE" depth="0.0">
			<acc value="0" flag="1"/>
			<vel value="0" flag="1"/>
			<psa03 value="0" flag="1"/>
			<psa10 value="0" flag="1"/>
			<psa30 value="0" flag="1"/>
		</comp>
		<comp name="--.HNN" depth="0.0">
			<acc value="0" flag="1"/>
			<vel value="0" flag="1"/>
			<psa03 value="0" flag="1"/>
			<psa10 value="0" flag="1"/>
			<psa30 value="0" flag="1"/>
		</comp>
		<comp name="--.HNZ" depth="0.0">
			<acc value="0" flag="1"/>
			<vel value="0" flag="1"/>
			<psa03 value="0" flag="1"/>
			<psa10 value="0" flag="1"/>
			<psa30 value="0" flag="1"/>
		</comp>
	</station>
	<station code="RSO1" name="RSO1" netid="HI" source="ITSAK Strong Motion Network" insttype="" lat="36.3632" lon="28.0016" esm:processing="automatic (Paolucci et al 2011)" esm:quality="bad">
		<comp name="--.HNE" depth="0.0">
			<acc value="0" flag="1"/>
			<vel value="0" flag="1"/>
			<psa03 value="0" flag="1"/>
			<psa10 value="0" flag="1"/>
			<psa30 value="0" flag="1"/>
		</comp>
		<comp name="--.HNN" depth="0.0">
			<acc value="0" flag="1"/>
			<vel value="0" flag="1"/>
			<psa03 value="0" flag="1"/>
			<psa10 value="0" flag="1"/>
			<psa30 value="0" flag="1"/>
		</comp>
		<comp name="--.HNZ" depth="0.0">
			<acc value="0" flag="1"/>
			<vel value="0" flag="1"/>
			<psa03 value="0" flag="1"/>
			<psa10 value="0" flag="1"/>
			<psa30 value="0" flag="1"/>
		</comp>
	</station>
	<station code="SIT2" name="SIT2" netid="HI" source="ITSAK Strong Motion Network" insttype="" lat="35.2059" lon="26.107" esm:processing="discarded" esm:quality="bad">
		<comp name="--.HNE" depth="0.0">
			<acc value="0" flag="1"/>
			<vel value="0" flag="1"/>
			<psa03 value="0" flag="1"/>
			<psa10 value="0" flag="1"/>
			<psa30 value="0" flag="1"/>
		</comp>
		<comp name="--.HNN" depth="0.0">
			<acc value="0" flag="1"/>
			<vel value="0" flag="1"/>
			<psa03 value="0" flag="1"/>
			<psa10 value="0" flag="1"/>
			<psa30 value="0" flag="1"/>
		</comp>
		<comp name="--.HNZ" depth="0.0">
			<acc value="0" flag="1"/>
			<vel value="0" flag="1"/>
			<psa03 value="0" flag="1"/>
			<psa10 value="0" flag="1"/>
			<psa30 value="0" flag="1"/>
		</comp>
	</station>
	<station code="KSL" name="KSL" netid="HL" source="National Observatory of Athens Seismic Network" insttype="" lat="36.15031" lon="29.58561" esm:processing="automatic (Paolucci et al 2011)" esm:quality="bad">
		<comp name="00.HNE" depth="0.0">
			<acc value="0" flag="1"/>
			<vel value="0" flag="1"/>
			<psa03 value="0" flag="1"/>
			<psa10 value="0" flag="1"/>
			<psa30 value="0" flag="1"/>
		</comp>
		<comp name="00.HNN" depth="0.0">
			<acc value="0" flag="1"/>
			<vel value="0" flag="1"/>
			<psa03 value="0" flag="1"/>
			<psa10 value="0" flag="1"/>
			<psa30 value="0" flag="1"/>
		</comp>
		<comp name="00.HNZ" depth="0.0">
			<acc value="0" flag="1"/>
			<vel value="0" flag="1"/>
			<psa03 value="0" flag="1"/>
			<psa10 value="0" flag="1"/>
			<psa30 value="0" flag="1"/>
		</comp>
	</station>
	<station code="RODB" name="RODB" netid="HL" source="National Observatory of Athens Seismic Network" insttype="" lat="36.4471" lon="28.22116" esm:processing="discarded" esm:quality="bad">
		<comp name="00.HNE" depth="0.0">
			<acc value="0" flag="1"/>
			<vel value="0" flag="1"/>
			<psa03 value="0" flag="1"/>
			<psa10 value="0" flag="1"/>
			<psa30 value="0" flag="1"/>
		</comp>
		<comp name="00.HNN" depth="0.0">
			<acc value="0" flag="1"/>
			<vel value="0" flag="1"/>
			<psa03 value="0" flag="1"/>
			<psa10 value="0" flag="1"/>
			<psa30 value="0" flag="1"/>
		</comp>
		<comp name="00.HNZ" depth="0.0">
			<acc value="0" flag="1"/>
			<vel value="0" flag="1"/>
			<psa03 value="0" flag="1"/>
			<psa10 value="0" flag="1"/>
			<psa30 value="0" flag="1"/>
		</comp>
	</station>
	<station code="DATC" name="DATC" netid="KO" source="Bogazici University Kandilli Observatory And Earthquake Research Institute (KOERI)" insttype="" lat="36.7584" lon="27.6602" esm:processing="discarded" esm:quality="bad">
		<comp name="--.HNE" depth="0.0">
			<acc value="0" flag="1"/>
			<vel value="0" flag="1"/>
			<psa03 value="0" flag="1"/>
			<psa10 value="0" flag="1"/>
			<psa30 value="0" flag="1"/>
		</comp>
		<comp name="--.HNN" depth="0.0">
			<acc value="0" flag="1"/>
			<vel value="0" flag="1"/>
			<psa03 value="0" flag="1"/>
			<psa10 value="0" flag="1"/>
			<psa30 value="0" flag="1"/>
		</comp>
		<comp name="--.HNZ" depth="0.0">
			<acc value="0" flag="1"/>
			<vel value="0" flag="1"/>
			<psa03 value="0" flag="1"/>
			<psa10 value="0" flag="1"/>
			<psa30 value="0" flag="1"/>
		</comp>
	</station>
	<station code="FETI" name="FETI" netid="KO" source="Bogazici University Kandilli Observatory And Earthquake Research Institute (KOERI)" insttype="" lat="36.6903" lon="29.096" esm:processing="discarded" esm:quality="bad">
		<comp name="--.HNE" depth="0.0">
			<acc value="0" flag="1"/>
			<vel value="0" flag="1"/>
			<psa03 value="0" flag="1"/>
			<psa10 value="0" flag="1"/>
			<psa30 value="0" flag="1"/>
		</comp>
		<comp name="--.HNN" depth="0.0">
			<acc value="0" flag="1"/>
			<vel value="0" flag="1"/>
			<psa03 value="0" flag="1"/>
			<psa10 value="0" flag="1"/>
			<psa30 value="0" flag="1"/>
		</comp>
		<comp name="--.HNZ" depth="0.0">
			<acc value="0" flag="1"/>
			<vel value="0" flag="1"/>
			<psa03 value="0" flag="1"/>
			<psa10 value="0" flag="1"/>
			<psa30 value="0" flag="1"/>
		</comp>
	</station>
</stationlist>
