<?xml version="1.0" encoding="UTF-8" standalone="yes"?>
<!DOCTYPE earthquake SYSTEM "stationlist.dtd">
<stationlist created="" xmlns="ch.ethz.sed.shakemap.usgs.xml">
  <station code="KARP" name="KARP" netid="GE" insttype="STS-2/N" lat="35.5471" lon="27.1611">
    <comp name="--.HHN">
      <acc value="0.0320494771" flag="0"/>
      <vel value="0.0358986112" flag="0"/>
      <psa03 value="0.0832172608" flag="0"/>
      <psa10 value="0.0458458334" flag="0"/>
      <psa30 value="0.0078150650" flag="0"/>
    </comp>
    <comp name="--.HHE">
      <acc value="0.0312456556" flag="0"/>
      <vel value="0.0239795090" flag="0"/>
      <psa03 value="0.0801744914" flag="0"/>
      <psa10 value="0.0747562814" flag="0"/>
      <psa30 value="0.0061914403" flag="0"/>
    </comp>
    <comp name="--.HHZ">
      <acc value="0.0325570600" flag="0"/>
      <vel value="0.0242607060" flag="0"/>
      <psa03 value="0.0706065634" flag="0"/>
      <psa10 value="0.0482008246" flag="0"/>
      <psa30 value="0.0049859669" flag="0"/>
    </comp>
  </station>
  <station code="ZKR" name="ZKR" netid="GE" insttype="STS-2/N" lat="35.1147" lon="26.2169">
    <comp name="--.HHE">
      <acc value="0.0078684582" flag="0"/>
      <vel value="0.0106889643" flag="0"/>
      <psa03 value="0.0207213420" flag="0"/>
      <psa10 value="0.0235421447" flag="0"/>
      <psa30 value="0.0037936723" flag="0"/>
    </comp>
    <comp name="--.HHN">
      <acc value="0.0043616599" flag="0"/>
      <vel value="0.0053591981" flag="0"/>
      <psa03 value="0.0089079324" flag="0"/>
      <psa10 value="0.0096000628" flag="0"/>
      <psa30 value="0.0034691492" flag="0"/>
    </comp>
    <comp name="--.HHZ">
      <acc value="0.0060749339" flag="0"/>
      <vel value="0.0094915059" flag="0"/>
      <psa03 value="0.0147115402" flag="0"/>
      <psa10 value="0.0176514761" flag="0"/>
      <psa30 value="0.0046022133" flag="0"/>
    </comp>
  </station>
  <station code="ARG" name="ARG" netid="HL" insttype="LE3D20_DR24" lat="36.2136" lon="28.1212">
    <comp name="--.HHE">
      <acc value="0.0112743285" flag="0"/>
      <vel value="0.0147070718" flag="0"/>
      <psa03 value="0.0303183639" flag="0"/>
      <psa10 value="0.0251693998" flag="0"/>
      <psa30 value="0.0057165094" flag="0"/>
    </comp>
    <comp name="--.HHN">
      <acc value="0.0108825411" flag="0"/>
      <vel value="0.0200143031" flag="0"/>
      <psa03 value="0.0213845175" flag="0"/>
      <psa10 value="0.0221518190" flag="0"/>
      <psa30 value="0.0090206768" flag="0"/>
    </comp>
    <comp name="--.HHZ">
      <acc value="0.0089409303" flag="0"/>
      <vel value="0.0106790662" flag="0"/>
      <psa03 value="0.0251033719" flag="0"/>
      <psa10 value="0.0206298320" flag="0"/>
      <psa30 value="0.0044572410" flag="0"/>
    </comp>
  </station>
  <station code="KARP" name="KARP" netid="HL" insttype="120" lat="35.5471" lon="27.1611">
    <comp name="--.HHE">
      <acc value="0.0304276101" flag="0"/>
      <vel value="0.0237094294" flag="0"/>
      <psa03 value="0.0776055701" flag="0"/>
      <psa10 value="0.0743651693" flag="0"/>
      <psa30 value="0.0061756510" flag="0"/>
    </comp>
    <comp name="--.HHN">
      <acc value="0.0315927767" flag="0"/>
      <vel value="0.0353630883" flag="0"/>
      <psa03 value="0.0811140948" flag="0"/>
      <psa10 value="0.0455969863" flag="0"/>
      <psa30 value="0.0078031649" flag="0"/>
    </comp>
    <comp name="--.HHZ">
      <acc value="0.0306316919" flag="0"/>
      <vel value="0.0240441725" flag="0"/>
      <psa03 value="0.0689859842" flag="0"/>
      <psa10 value="0.0479154986" flag="0"/>
      <psa30 value="0.0049750087" flag="0"/>
    </comp>
  </station>
  <station code="ZKR" name="ZKR" netid="HL" insttype="120" lat="35.1147" lon="26.2169">
    <comp name="--.HHE">
      <acc value="0.0077569042" flag="0"/>
      <vel value="0.0106420079" flag="0"/>
      <psa03 value="0.0202813223" flag="0"/>
      <psa10 value="0.0234108922" flag="0"/>
      <psa30 value="0.0037915981" flag="0"/>
    </comp>
    <comp name="--.HHN">
      <acc value="0.0042839980" flag="0"/>
      <vel value="0.0053621872" flag="0"/>
      <psa03 value="0.0086729627" flag="0"/>
      <psa10 value="0.0095360998" flag="0"/>
      <psa30 value="0.0034700350" flag="0"/>
    </comp>
    <comp name="--.HHZ">
      <acc value="0.0060086172" flag="0"/>
      <vel value="0.0094708984" flag="0"/>
      <psa03 value="0.0143578966" flag="0"/>
      <psa10 value="0.0175577633" flag="0"/>
      <psa30 value="0.0046030475" flag="0"/>
    </comp>
  </station>
</stationlist>
