<stationlist created="1778136236">
	<station code="KSS1" name="KSS1" netid="HI" source="ITSAK Strong Motion Network" insttype="" lat="35.4189" lon="26.9207">
		<comp name="--.HNE" depth="0.0">
			<acc value="0.191817652259898" flag="0"/>
			<vel value="0.0319063167762106" flag="0"/>
			<psa03 value="0.176463262902464" flag="0"/>
			<psa10 value="0.0141582238622859" flag="0"/>
			<psa30 value="0.00117090354720017" flag="0"/>
		</comp>
		<comp name="--.HNN" depth="0.0">
			<acc value="0.269239654819868" flag="0"/>
			<vel value="0.0507187742518228" flag="0"/>
			<psa03 value="0.250153677202757" flag="0"/>
			<psa10 value="0.0116334211428168" flag="0"/>
			<psa30 value="0.0012943920374666" flag="0"/>
		</comp>
		<comp name="--.HNZ" depth="0.0">
			<acc value="0.195383230952614" flag="0"/>
			<vel value="0.0202576136621367" flag="0"/>
			<psa03 value="0.0443395267587073" flag="0"/>
			<psa10 value="0.00524691857012473" flag="0"/>
			<psa30 value="0.000843390594754422" flag="0"/>
		</comp>
	</station>
	<station code="SIT2" name="SIT2" netid="HI" source="ITSAK Strong Motion Network" insttype="" lat="35.2059" lon="26.107">
		<comp name="--.HNE" depth="0.0">
			<acc value="0.118752084179491" flag="0"/>
			<vel value="0.0528431892554355" flag="0"/>
			<psa03 value="0.189930667094564" flag="0"/>
			<psa10 value="0.0247164897800657" flag="0"/>
			<psa30 value="0.00235299264605491" flag="0"/>
		</comp>
		<comp name="--.HNN" depth="0.0">
			<acc value="0.086196676309728" flag="0"/>
			<vel value="0.0502813823108907" flag="0"/>
			<psa03 value="0.263710565808094" flag="0"/>
			<psa10 value="0.0254090991385165" flag="0"/>
			<psa30 value="0.00174181410364932" flag="0"/>
		</comp>
		<comp name="--.HNZ" depth="0.0">
			<acc value="0.092617720455605" flag="0"/>
			<vel value="0.0257811167026648" flag="0"/>
			<psa03 value="0.101609551230095" flag="0"/>
			<psa10 value="0.00886298370901345" flag="0"/>
			<psa30 value="0.000766433999370995" flag="0"/>
		</comp>
	</station>
	<station code="AGNA" name="AGNA" netid="HL" source="National Observatory of Athens Seismic Network" insttype="" lat="35.1895" lon="25.71853">
		<comp name="00.HNE" depth="0.0">
			<acc value="0.0443182138091711" flag="0"/>
			<vel value="0.0200363516421872" flag="0"/>
			<psa03 value="0.0593145959674658" flag="0"/>
			<psa10 value="0.011202215216782" flag="0"/>
			<psa30 value="0.000729238881413728" flag="0"/>
		</comp>
		<comp name="00.HNN" depth="0.0">
			<acc value="0.0527475988692547" flag="0"/>
			<vel value="0.0186038579579922" flag="0"/>
			<psa03 value="0.0487147687808514" flag="0"/>
			<psa10 value="0.0123499881261143" flag="0"/>
			<psa30 value="0.00171368435651325" flag="0"/>
		</comp>
		<comp name="00.HNZ" depth="0.0">
			<acc value="0.0148814633789905" flag="0"/>
			<vel value="0.00631251708017456" flag="0"/>
			<psa03 value="0.0177929807809787" flag="0"/>
			<psa10 value="0.00529821129299249" flag="0"/>
			<psa30 value="0.000728131047608481" flag="0"/>
		</comp>
	</station>
	<station code="HERG" name="HERG" netid="HL" source="National Observatory of Athens Seismic Network" insttype="" lat="35.32622" lon="25.06586">
		<comp name="00.HNE" depth="0.0">
			<acc value="0.022778962190759" flag="0"/>
			<vel value="0.0183118263844806" flag="0"/>
			<psa03 value="0.0504837036728152" flag="0"/>
			<psa10 value="0.0363464365230551" flag="0"/>
			<psa30 value="0.00183214991260858" flag="0"/>
		</comp>
		<comp name="00.HNN" depth="0.0">
			<acc value="0.0220039560291455" flag="0"/>
			<vel value="0.020512790666907" flag="0"/>
			<psa03 value="0.0571074132940896" flag="0"/>
			<psa10 value="0.0323689717855113" flag="0"/>
			<psa30 value="0.00183825365028325" flag="0"/>
		</comp>
		<comp name="00.HNZ" depth="0.0">
			<acc value="0.0207082998944267" flag="0"/>
			<vel value="0.0155199099779702" flag="0"/>
			<psa03 value="0.0351144303253428" flag="0"/>
			<psa10 value="0.0143810345479669" flag="0"/>
			<psa30 value="0.000736641871825234" flag="0"/>
		</comp>
	</station>
	<station code="IACM" name="IACM" netid="HL" source="National Observatory of Athens Seismic Network" insttype="" lat="35.3058" lon="25.0709">
		<comp name="--.HNE" depth="0.0">
			<acc value="0.0520212417733231" flag="0"/>
			<vel value="0.0294505365628691" flag="0"/>
			<psa03 value="0.118164167678856" flag="0"/>
			<psa10 value="0.0410693188769778" flag="0"/>
			<psa30 value="0.00195389216301993" flag="0"/>
		</comp>
		<comp name="--.HNN" depth="0.0">
			<acc value="0.0517709544551971" flag="0"/>
			<vel value="0.026529075178358" flag="0"/>
			<psa03 value="0.123085810406866" flag="0"/>
			<psa10 value="0.0458491288100078" flag="0"/>
			<psa30 value="0.00167067399512627" flag="0"/>
		</comp>
		<comp name="--.HNZ" depth="0.0">
			<acc value="0.0355465927622588" flag="0"/>
			<vel value="0.0185534687955146" flag="0"/>
			<psa03 value="0.0546749764875281" flag="0"/>
			<psa10 value="0.0163125611109557" flag="0"/>
			<psa30 value="0.000832205043099855" flag="0"/>
		</comp>
	</station>
	<station code="KARP" name="KARP" netid="HL" source="National Observatory of Athens Seismic Network" insttype="" lat="35.5471" lon="27.16106">
		<comp name="--.HNE" depth="0.0">
			<acc value="0.270289377653952" flag="0"/>
			<vel value="0.0479273782472079" flag="0"/>
			<psa03 value="0.10017780061831" flag="0"/>
			<psa10 value="0.0187608546571075" flag="0"/>
			<psa30 value="0.000924373988733494" flag="0"/>
		</comp>
		<comp name="--.HNN" depth="0.0">
			<acc value="0.153877653945589" flag="0"/>
			<vel value="0.0281565723699085" flag="0"/>
			<psa03 value="0.115300666455286" flag="0"/>
			<psa10 value="0.0159058544527956" flag="0"/>
			<psa30 value="0.000953456423035371" flag="0"/>
		</comp>
		<comp name="--.HNZ" depth="0.0">
			<acc value="0.131161967766881" flag="0"/>
			<vel value="0.0248229398729485" flag="0"/>
			<psa03 value="0.072437632514982" flag="0"/>
			<psa10 value="0.00746165779772918" flag="0"/>
			<psa30 value="0.000883658580710867" flag="0"/>
		</comp>
	</station>
	<station code="SIVA" name="SIVA" netid="HL" source="National Observatory of Athens Seismic Network" insttype="" lat="35.01777" lon="24.81204">
		<comp name="00.HNE" depth="0.0">
			<acc value="0.0137391263761847" flag="0"/>
			<vel value="0.00617081957890627" flag="0"/>
			<psa03 value="0.0318564511122095" flag="0"/>
			<psa10 value="0.013046827449888" flag="0"/>
			<psa30 value="0.000478741610815508" flag="0"/>
		</comp>
		<comp name="00.HNN" depth="0.0">
			<acc value="0.0109780391060225" flag="0"/>
			<vel value="0.00807745547120529" flag="0"/>
			<psa03 value="0.0295745985746776" flag="0"/>
			<psa10 value="0.00877842093850492" flag="0"/>
			<psa30 value="0.000572252822647696" flag="0"/>
		</comp>
		<comp name="00.HNZ" depth="0.0">
			<acc value="0.00491563694926751" flag="0"/>
			<vel value="0.00303103962782342" flag="0"/>
			<psa03 value="0.0102907075222025" flag="0"/>
			<psa10 value="0.00391404823496641" flag="0"/>
			<psa30 value="0.000246529558466677" flag="0"/>
		</comp>
	</station>
</stationlist>
