<?xml version="1.0" encoding="UTF-8" standalone="yes"?>
<!DOCTYPE earthquake SYSTEM "stationlist.dtd">
<stationlist created="" xmlns="ch.ethz.sed.shakemap.usgs.xml">
  <station code="KARP" name="KARP" netid="GE" insttype="STS-2/N" lat="35.5471" lon="27.1611">
    <comp name="--.HHN">
      <acc value="0.2228181997" flag="0"/>
      <vel value="0.0341648014" flag="0"/>
      <psa03 value="0.1424879834" flag="0"/>
      <psa10 value="0.0192649302" flag="0"/>
      <psa30 value="0.0010162584" flag="0"/>
    </comp>
    <comp name="--.HHE">
      <acc value="0.3450591745" flag="0"/>
      <vel value="0.0580437780" flag="0"/>
      <psa03 value="0.1114850020" flag="0"/>
      <psa10 value="0.0216703068" flag="0"/>
      <psa30 value="0.0010531225" flag="0"/>
    </comp>
    <comp name="--.HHZ">
      <acc value="0.1652131912" flag="0"/>
      <vel value="0.0314826304" flag="0"/>
      <psa03 value="0.0899811066" flag="0"/>
      <psa10 value="0.0092660065" flag="0"/>
      <psa30 value="0.0009937304" flag="0"/>
    </comp>
  </station>
  <station code="ZKR" name="ZKR" netid="GE" insttype="STS-2/N" lat="35.1147" lon="26.2169">
    <comp name="--.HHZ">
      <acc value="0.1194722433" flag="0"/>
      <vel value="0.0191008602" flag="0"/>
      <psa03 value="0.0473495621" flag="0"/>
      <psa10 value="0.0079622490" flag="0"/>
      <psa30 value="0.0007052816" flag="0"/>
    </comp>
    <comp name="--.HHN">
      <acc value="0.0588830233" flag="0"/>
      <vel value="0.0145524479" flag="0"/>
      <psa03 value="0.0431275332" flag="0"/>
      <psa10 value="0.0033159632" flag="0"/>
      <psa30 value="0.0003847453" flag="0"/>
    </comp>
    <comp name="--.HHE">
      <acc value="0.1078771001" flag="0"/>
      <vel value="0.0235906882" flag="0"/>
      <psa03 value="0.0666201810" flag="0"/>
      <psa10 value="0.0148224082" flag="0"/>
      <psa30 value="0.0010185669" flag="0"/>
    </comp>
  </station>
  <station code="STIA" name="STIA" netid="HC" insttype="120" lat="35.2021" lon="26.0909">
    <comp name="--.HHN">
      <acc value="0.0714744921" flag="0"/>
      <vel value="0.0160042588" flag="0"/>
      <psa03 value="0.0662575601" flag="0"/>
      <psa10 value="0.0129820361" flag="0"/>
      <psa30 value="0.0015093500" flag="0"/>
    </comp>
    <comp name="--.HHE">
      <acc value="0.0674407633" flag="0"/>
      <vel value="0.0222899982" flag="0"/>
      <psa03 value="0.1344881200" flag="0"/>
      <psa10 value="0.0134604710" flag="0"/>
      <psa30 value="0.0013595702" flag="0"/>
    </comp>
    <comp name="--.HHZ">
      <acc value="0.0681853913" flag="0"/>
      <vel value="0.0161630441" flag="0"/>
      <psa03 value="0.0610727358" flag="0"/>
      <psa10 value="0.0088620321" flag="0"/>
      <psa30 value="0.0005413568" flag="0"/>
    </comp>
  </station>
  <station code="SIT2" name="SIT2" netid="HI" insttype="CMG-5TD,ACCELEROMETER,GURALP" lat="35.2059" lon="26.107">
    <comp name="--.HNN">
      <acc value="0.0863922403" flag="0"/>
      <vel value="0.0501036754" flag="0"/>
      <psa03 value="0.2619673278" flag="0"/>
      <psa10 value="0.0253837151" flag="0"/>
      <psa30 value="0.0016635046" flag="0"/>
    </comp>
    <comp name="--.HNE">
      <acc value="0.1182328927" flag="0"/>
      <vel value="0.0528144829" flag="0"/>
      <psa03 value="0.1920461030" flag="0"/>
      <psa10 value="0.0246524228" flag="0"/>
      <psa30 value="0.0022955744" flag="0"/>
    </comp>
    <comp name="--.HNZ">
      <acc value="0.0922227719" flag="0"/>
      <vel value="0.0254958760" flag="0"/>
      <psa03 value="0.0988513983" flag="0"/>
      <psa10 value="0.0088117191" flag="0"/>
      <psa30 value="0.0007450001" flag="0"/>
    </comp>
  </station>
  <station code="KARP" name="KARP" netid="HL" insttype="120" lat="35.5471" lon="27.1611">
    <comp name="--.HHN">
      <acc value="0.1906099112" flag="0"/>
      <vel value="0.0315936499" flag="0"/>
      <psa03 value="0.1387540813" flag="0"/>
      <psa10 value="0.0189374519" flag="0"/>
      <psa30 value="0.0010125955" flag="0"/>
    </comp>
    <comp name="--.HHZ">
      <acc value="0.1481049616" flag="0"/>
      <vel value="0.0298180124" flag="0"/>
      <psa03 value="0.0876391984" flag="0"/>
      <psa10 value="0.0092035853" flag="0"/>
      <psa30 value="0.0009896522" flag="0"/>
    </comp>
    <comp name="--.HHE">
      <acc value="0.2948799538" flag="0"/>
      <vel value="0.0535342356" flag="0"/>
      <psa03 value="0.1082579058" flag="0"/>
      <psa10 value="0.0215756511" flag="0"/>
      <psa30 value="0.0010455525" flag="0"/>
    </comp>
  </station>
  <station code="NISR" name="NISR" netid="HL" insttype="65535" lat="36.6106" lon="27.131">
    <comp name="--.HHN">
      <acc value="0.0167662601" flag="0"/>
      <vel value="0.0076213540" flag="0"/>
      <psa03 value="0.0319951099" flag="0"/>
      <psa10 value="0.0048734286" flag="0"/>
      <psa30 value="0.0006164899" flag="0"/>
    </comp>
    <comp name="--.HHZ">
      <acc value="0.0089804846" flag="0"/>
      <vel value="0.0042189199" flag="0"/>
      <psa03 value="0.0213787924" flag="0"/>
      <psa10 value="0.0043244391" flag="0"/>
      <psa30 value="0.0003119775" flag="0"/>
    </comp>
    <comp name="--.HHE">
      <acc value="0.0294142365" flag="0"/>
      <vel value="0.0119043306" flag="0"/>
      <psa03 value="0.0626721548" flag="0"/>
      <psa10 value="0.0061216548" flag="0"/>
      <psa30 value="0.0006909271" flag="0"/>
    </comp>
  </station>
  <station code="NPS" name="NPS" netid="HL" insttype="CMG3ESPC-120s" lat="35.2613" lon="25.6104">
    <comp name="--.HHE">
      <acc value="0.0188883266" flag="0"/>
      <vel value="0.0082573526" flag="0"/>
      <psa03 value="0.0321969287" flag="0"/>
      <psa10 value="0.0057555003" flag="0"/>
      <psa30 value="0.0005824550" flag="0"/>
    </comp>
    <comp name="--.HHN">
      <acc value="0.0563956343" flag="0"/>
      <vel value="0.0224753109" flag="0"/>
      <psa03 value="0.0550167942" flag="0"/>
      <psa10 value="0.0245566525" flag="0"/>
      <psa30 value="0.0017005848" flag="0"/>
    </comp>
    <comp name="--.HHZ">
      <acc value="0.0517848405" flag="0"/>
      <vel value="0.0134445782" flag="0"/>
      <psa03 value="0.0429351304" flag="0"/>
      <psa10 value="0.0091159470" flag="0"/>
      <psa30 value="0.0005639035" flag="0"/>
    </comp>
  </station>
  <station code="ZKR" name="ZKR" netid="HL" insttype="120" lat="35.1147" lon="26.2169">
    <comp name="--.HHN">
      <acc value="0.0571389278" flag="0"/>
      <vel value="0.0141385088" flag="0"/>
      <psa03 value="0.0415914239" flag="0"/>
      <psa10 value="0.0032726863" flag="0"/>
      <psa30 value="0.0003841822" flag="0"/>
    </comp>
    <comp name="--.HHE">
      <acc value="0.1053438530" flag="0"/>
      <vel value="0.0230673931" flag="0"/>
      <psa03 value="0.0646474418" flag="0"/>
      <psa10 value="0.0147134316" flag="0"/>
      <psa30 value="0.0010139975" flag="0"/>
    </comp>
    <comp name="--.HHZ">
      <acc value="0.1167322589" flag="0"/>
      <vel value="0.0186359025" flag="0"/>
      <psa03 value="0.0457207651" flag="0"/>
      <psa10 value="0.0078787210" flag="0"/>
      <psa30 value="0.0006997842" flag="0"/>
    </comp>
  </station>
</stationlist>
