<?xml version="1.0" encoding="UTF-8" standalone="yes"?>
<!DOCTYPE earthquake SYSTEM "stationlist.dtd">
<stationlist created="" xmlns="ch.ethz.sed.shakemap.usgs.xml">
  <station code="CEYT" name="CEYT" netid="KO" insttype="CMG-3ESP" lat="37.0105" lon="35.7478">
    <comp name="--.HHN">
      <acc value="0.0339703949" flag="0"/>
      <vel value="0.0148554890" flag="0"/>
      <psa03 value="0.0471484140" flag="0"/>
      <psa10 value="0.0115986060" flag="0"/>
      <psa30 value="0.0010329986" flag="0"/>
    </comp>
    <comp name="--.HHE">
      <acc value="0.0306357354" flag="0"/>
      <vel value="0.0115181314" flag="0"/>
      <psa03 value="0.0765488715" flag="0"/>
      <psa10 value="0.0059389941" flag="0"/>
      <psa30 value="0.0003647927" flag="0"/>
    </comp>
    <comp name="--.HHZ">
      <acc value="0.0163909834" flag="0"/>
      <vel value="0.0053722823" flag="0"/>
      <psa03 value="0.0323809869" flag="0"/>
      <psa10 value="0.0044744386" flag="0"/>
      <psa30 value="0.0002999329" flag="0"/>
    </comp>
  </station>
</stationlist>
