<?xml version="1.0" encoding="UTF-8" standalone="yes"?>
<!DOCTYPE earthquake SYSTEM "stationlist.dtd">
<stationlist created="" xmlns="ch.ethz.sed.shakemap.usgs.xml">
  <station code="GAZ" name="GAZ" netid="KO" insttype="CMG-3T" lat="37.1721" lon="37.2096">
    <comp name="--.HHZ">
      <acc value="0.0031730542" flag="0"/>
      <vel value="0.0006323652" flag="0"/>
      <psa03 value="0.0030691216" flag="0"/>
      <psa10 value="0.0004551609" flag="0"/>
      <psa30 value="0.0000438055" flag="0"/>
    </comp>
    <comp name="--.HHE">
      <acc value="0.0042810519" flag="0"/>
      <vel value="0.0007986830" flag="0"/>
      <psa03 value="0.0041903821" flag="0"/>
      <psa10 value="0.0006255041" flag="0"/>
      <psa30 value="0.0000748956" flag="0"/>
    </comp>
  </station>
  <station code="ANDN" name="ANDN" netid="TU" insttype="T" lat="37.58" lon="36.3452">
    <comp name="--.HHZ">
      <acc value="0.0063805990" flag="0"/>
      <vel value="0.0029468297" flag="0"/>
      <psa03 value="0.0138774543" flag="0"/>
      <psa10 value="0.0022768481" flag="0"/>
      <psa30 value="0.0001065352" flag="0"/>
    </comp>
    <comp name="--.HHE">
      <acc value="0.0139286362" flag="0"/>
      <vel value="0.0042101971" flag="0"/>
      <psa03 value="0.0218379936" flag="0"/>
      <psa10 value="0.0023804809" flag="0"/>
      <psa30 value="0.0001450295" flag="0"/>
    </comp>
    <comp name="--.HHN">
      <acc value="0.0237724233" flag="0"/>
      <vel value="0.0073239158" flag="0"/>
      <psa03 value="0.0306936960" flag="0"/>
      <psa10 value="0.0026551241" flag="0"/>
      <psa30 value="0.0001865162" flag="0"/>
    </comp>
  </station>
</stationlist>
