<?xml version="1.0" encoding="UTF-8" standalone="yes"?>
<!DOCTYPE earthquake SYSTEM "stationlist.dtd">
<stationlist created="" xmlns="ch.ethz.sed.shakemap.usgs.xml">
  <station code="DARE" name="DARE" netid="KO" insttype="CMG-3ESP" lat="38.5712" lon="37.4832">
    <comp name="--.HHZ">
      <acc value="0.0209725153" flag="0"/>
      <vel value="0.0123994803" flag="0"/>
      <psa03 value="0.0503662901" flag="0"/>
      <psa10 value="0.0083552290" flag="0"/>
      <psa30 value="0.0004542778" flag="0"/>
    </comp>
    <comp name="--.HHN">
      <acc value="0.0358994372" flag="0"/>
      <vel value="0.0087193677" flag="0"/>
      <psa03 value="0.0493380138" flag="0"/>
      <psa10 value="0.0066593998" flag="0"/>
      <psa30 value="0.0003906178" flag="0"/>
    </comp>
    <comp name="--.HHE">
      <acc value="0.0457803532" flag="0"/>
      <vel value="0.0176037640" flag="0"/>
      <psa03 value="0.0760401863" flag="0"/>
      <psa10 value="0.0175915321" flag="0"/>
      <psa30 value="0.0009727154" flag="0"/>
    </comp>
  </station>
  <station code="GAZ" name="GAZ" netid="KO" insttype="CMG-3T" lat="37.1721" lon="37.2096">
    <comp name="--.HHE">
      <acc value="0.0541123049" flag="0"/>
      <vel value="0.0298001438" flag="0"/>
      <psa03 value="0.1395888426" flag="0"/>
      <psa10 value="0.0135228968" flag="0"/>
      <psa30 value="0.0011780867" flag="0"/>
    </comp>
    <comp name="--.HHN">
      <acc value="0.0323116898" flag="0"/>
      <vel value="0.0151522868" flag="0"/>
      <psa03 value="0.0776228648" flag="0"/>
      <psa10 value="0.0085888682" flag="0"/>
      <psa30 value="0.0006372081" flag="0"/>
    </comp>
    <comp name="--.HHZ">
      <acc value="0.0163124141" flag="0"/>
      <vel value="0.0080937206" flag="0"/>
      <psa03 value="0.0390423579" flag="0"/>
      <psa10 value="0.0067193582" flag="0"/>
      <psa30 value="0.0003322198" flag="0"/>
    </comp>
  </station>
  <station code="SARI" name="SARI" netid="KO" insttype="CMG-3T" lat="38.4072" lon="36.4181">
    <comp name="--.HHE">
      <acc value="0.0194734394" flag="0"/>
      <vel value="0.0079078929" flag="0"/>
      <psa03 value="0.0391971964" flag="0"/>
      <psa10 value="0.0087476892" flag="0"/>
      <psa30 value="0.0004630667" flag="0"/>
    </comp>
    <comp name="--.HHZ">
      <acc value="0.0114928806" flag="0"/>
      <vel value="0.0056163922" flag="0"/>
      <psa03 value="0.0280157930" flag="0"/>
      <psa10 value="0.0075584218" flag="0"/>
      <psa30 value="0.0004761999" flag="0"/>
    </comp>
    <comp name="--.HHN">
      <acc value="0.0183934086" flag="0"/>
      <vel value="0.0106626221" flag="0"/>
      <psa03 value="0.0476732181" flag="0"/>
      <psa10 value="0.0108080318" flag="0"/>
      <psa30 value="0.0003971043" flag="0"/>
    </comp>
  </station>
  <station code="ANDN" name="ANDN" netid="TU" insttype="T" lat="37.58" lon="36.3452">
    <comp name="--.HHN">
      <acc value="0.0965270172" flag="0"/>
      <vel value="0.0224226835" flag="0"/>
      <psa03 value="0.1039328387" flag="0"/>
      <psa10 value="0.0202460869" flag="0"/>
      <psa30 value="0.0014561087" flag="0"/>
    </comp>
    <comp name="--.HHZ">
      <acc value="0.0689441420" flag="0"/>
      <vel value="0.0154199314" flag="0"/>
      <psa03 value="0.0634940734" flag="0"/>
      <psa10 value="0.0171813720" flag="0"/>
      <psa30 value="0.0010291866" flag="0"/>
    </comp>
    <comp name="--.HHE">
      <acc value="0.0483523639" flag="0"/>
      <vel value="0.0173437356" flag="0"/>
      <psa03 value="0.0946109119" flag="0"/>
      <psa10 value="0.0122672341" flag="0"/>
      <psa30 value="0.0010754551" flag="0"/>
    </comp>
  </station>
</stationlist>
