<?xml version="1.0" encoding="UTF-8" standalone="yes"?>
<!DOCTYPE earthquake SYSTEM "stationlist.dtd">
<stationlist created="" xmlns="ch.ethz.sed.shakemap.usgs.xml">
  <station code="AYDB" name="AYDB" netid="KO" insttype="CMG-3ESPC" lat="37.9467" lon="27.8908">
    <comp name="--.HHE">
      <acc value="0.0942574762" flag="0"/>
      <vel value="0.0455708874" flag="0"/>
      <psa03 value="0.3220585306" flag="0"/>
      <psa10 value="0.0377021746" flag="0"/>
      <psa30 value="0.0042350768" flag="0"/>
    </comp>
    <comp name="--.HHN">
      <acc value="0.1021925426" flag="0"/>
      <vel value="0.0610699558" flag="0"/>
      <psa03 value="0.2985702694" flag="0"/>
      <psa10 value="0.0710869960" flag="0"/>
      <psa30 value="0.0074265678" flag="0"/>
    </comp>
    <comp name="--.HHZ">
      <acc value="0.0618599577" flag="0"/>
      <vel value="0.0368766607" flag="0"/>
      <psa03 value="0.1823420020" flag="0"/>
      <psa10 value="0.0618782051" flag="0"/>
      <psa30 value="0.0031726731" flag="0"/>
    </comp>
  </station>
  <station code="BALB" name="BALB" netid="KO" insttype="CMG-5T" lat="39.6507" lon="27.8642">
    <comp name="--.HNN">
      <acc value="0.2007338948" flag="0"/>
      <vel value="0.0724060774" flag="0"/>
      <psa03 value="0.4060098743" flag="0"/>
      <psa10 value="0.0800378546" flag="0"/>
      <psa30 value="0.0076898342" flag="0"/>
    </comp>
    <comp name="--.HNE">
      <acc value="0.2694251205" flag="0"/>
      <vel value="0.0857374482" flag="0"/>
      <psa03 value="0.4180361036" flag="0"/>
      <psa10 value="0.0476570002" flag="0"/>
      <psa30 value="0.0099329116" flag="0"/>
    </comp>
    <comp name="--.HNZ">
      <acc value="0.1822304589" flag="0"/>
      <vel value="0.0491369531" flag="0"/>
      <psa03 value="0.2346581786" flag="0"/>
      <psa10 value="0.0511183458" flag="0"/>
      <psa30 value="0.0058393281" flag="0"/>
    </comp>
  </station>
  <station code="BIGA" name="BIGA" netid="KO" insttype="CMG-5T" lat="40.2813" lon="27.1505">
    <comp name="--.HNE">
      <acc value="0.1846888149" flag="0"/>
      <vel value="0.0870821388" flag="0"/>
      <psa03 value="0.3068408126" flag="0"/>
      <psa10 value="0.0637595766" flag="0"/>
      <psa30 value="0.0081100813" flag="0"/>
    </comp>
    <comp name="--.HNN">
      <acc value="0.2875192101" flag="0"/>
      <vel value="0.0950891709" flag="0"/>
      <psa03 value="0.7131900751" flag="0"/>
      <psa10 value="0.0454888157" flag="0"/>
      <psa30 value="0.0040721765" flag="0"/>
    </comp>
    <comp name="--.HNZ">
      <acc value="0.1214962616" flag="0"/>
      <vel value="0.0327446420" flag="0"/>
      <psa03 value="0.1343033845" flag="0"/>
      <psa10 value="0.0233687339" flag="0"/>
      <psa30 value="0.0029996395" flag="0"/>
    </comp>
  </station>
  <station code="BLCB" name="BLCB" netid="KO" insttype="CMG-3T" lat="38.3853" lon="27.042">
    <comp name="--.HHZ">
      <acc value="0.0971793156" flag="0"/>
      <vel value="0.0326935216" flag="0"/>
      <psa03 value="0.2465459218" flag="0"/>
      <psa10 value="0.0216119275" flag="0"/>
      <psa30 value="0.0028914602" flag="0"/>
    </comp>
    <comp name="--.HHN">
      <acc value="0.0000612670" flag="0"/>
      <vel value="0.0000284012" flag="0"/>
      <psa03 value="0.0001197332" flag="0"/>
      <psa10 value="0.0000199090" flag="0"/>
      <psa30 value="0.0000021425" flag="0"/>
    </comp>
    <comp name="--.HHE">
      <acc value="0.1265982976" flag="0"/>
      <vel value="0.0574983743" flag="0"/>
      <psa03 value="0.3261562744" flag="0"/>
      <psa10 value="0.0388352526" flag="0"/>
      <psa30 value="0.0032030631" flag="0"/>
    </comp>
  </station>
  <station code="BMYO" name="BMYO" netid="KO" insttype="CMG-5T" lat="39.8098" lon="26.6009">
    <comp name="--.HNE">
      <acc value="0.7204943214" flag="0"/>
      <vel value="0.4458099166" flag="0"/>
      <psa03 value="1.6732568771" flag="0"/>
      <psa10 value="0.3131152376" flag="0"/>
      <psa30 value="0.0199156006" flag="0"/>
    </comp>
    <comp name="--.HNZ">
      <acc value="0.1739934390" flag="0"/>
      <vel value="0.0694305554" flag="0"/>
      <psa03 value="0.3301498684" flag="0"/>
      <psa10 value="0.1765648877" flag="0"/>
      <psa30 value="0.0064750760" flag="0"/>
    </comp>
    <comp name="--.HNN">
      <acc value="0.3716431619" flag="0"/>
      <vel value="0.2379681998" flag="0"/>
      <psa03 value="0.7744811556" flag="0"/>
      <psa10 value="0.1815791096" flag="0"/>
      <psa30 value="0.0123501611" flag="0"/>
    </comp>
  </station>
  <station code="CANM" name="CANM" netid="KO" insttype="CMG-5T" lat="40.0113" lon="27.0529">
    <comp name="--.HNZ">
      <acc value="0.5028651174" flag="0"/>
      <vel value="0.2606592817" flag="0"/>
      <psa03 value="1.1355083533" flag="0"/>
      <psa10 value="0.1072246177" flag="0"/>
      <psa30 value="0.0091245526" flag="0"/>
    </comp>
    <comp name="--.HNE">
      <acc value="0.6645362790" flag="0"/>
      <vel value="0.2348597524" flag="0"/>
      <psa03 value="1.1645660407" flag="0"/>
      <psa10 value="0.1617939190" flag="0"/>
      <psa30 value="0.0111564806" flag="0"/>
    </comp>
    <comp name="--.HNN">
      <acc value="0.7654216342" flag="0"/>
      <vel value="0.3990479378" flag="0"/>
      <psa03 value="1.2290318124" flag="0"/>
      <psa10 value="0.3505198888" flag="0"/>
      <psa30 value="0.0204209152" flag="0"/>
    </comp>
  </station>
  <station code="DKL" name="DKL" netid="KO" insttype="CMG-3ESPC" lat="39.0713" lon="26.9053">
    <comp name="--.HHE">
      <acc value="0.1602825777" flag="0"/>
      <vel value="0.1112528882" flag="0"/>
      <psa03 value="0.2894974324" flag="0"/>
      <psa10 value="0.1027625571" flag="0"/>
      <psa30 value="0.0106260622" flag="0"/>
    </comp>
    <comp name="--.HHN">
      <acc value="0.1706229155" flag="0"/>
      <vel value="0.1025778101" flag="0"/>
      <psa03 value="0.3211905217" flag="0"/>
      <psa10 value="0.1459119134" flag="0"/>
      <psa30 value="0.0127758065" flag="0"/>
    </comp>
  </station>
  <station code="EDC" name="EDC" netid="KO" insttype="CMG-3T" lat="40.3465" lon="27.8618">
    <comp name="--.HHN">
      <acc value="0.1752862009" flag="0"/>
      <vel value="0.1147608024" flag="0"/>
      <psa03 value="0.3985511467" flag="0"/>
      <psa10 value="0.1971890493" flag="0"/>
      <psa30 value="0.0087542687" flag="0"/>
    </comp>
    <comp name="--.HHE">
      <acc value="0.1317117131" flag="0"/>
      <vel value="0.0677023675" flag="0"/>
      <psa03 value="0.3046787769" flag="0"/>
      <psa10 value="0.1389067499" flag="0"/>
      <psa30 value="0.0039275215" flag="0"/>
    </comp>
    <comp name="--.HHZ">
      <acc value="0.0865574027" flag="0"/>
      <vel value="0.0601385465" flag="0"/>
      <psa03 value="0.1326587079" flag="0"/>
      <psa10 value="0.0926035468" flag="0"/>
      <psa30 value="0.0061890307" flag="0"/>
    </comp>
  </station>
  <station code="EZN" name="EZN" netid="KO" insttype="CMG-3ESP" lat="39.8255" lon="26.3246">
    <comp name="--.HHZ">
      <acc value="0.0533331404" flag="0"/>
      <vel value="0.0375059796" flag="0"/>
      <psa03 value="0.1120887482" flag="0"/>
      <psa10 value="0.0403658669" flag="0"/>
      <psa30 value="0.0031218063" flag="0"/>
    </comp>
    <comp name="--.HHE">
      <acc value="0.0791185466" flag="0"/>
      <vel value="0.0559557873" flag="0"/>
      <psa03 value="0.1491928276" flag="0"/>
      <psa10 value="0.0609584741" flag="0"/>
      <psa30 value="0.0038934459" flag="0"/>
    </comp>
    <comp name="--.HHN">
      <acc value="0.0677246397" flag="0"/>
      <vel value="0.0317998241" flag="0"/>
      <psa03 value="0.1553738213" flag="0"/>
      <psa10 value="0.0342281381" flag="0"/>
      <psa30 value="0.0033527233" flag="0"/>
    </comp>
  </station>
  <station code="GADA" name="GADA" netid="KO" insttype="CMG-3T" lat="40.1908" lon="25.8987">
    <comp name="--.HHE">
      <acc value="0.0195065244" flag="0"/>
      <vel value="0.0157954580" flag="0"/>
      <psa03 value="0.0522024226" flag="0"/>
      <psa10 value="0.0165997873" flag="0"/>
      <psa30 value="0.0037955087" flag="0"/>
    </comp>
    <comp name="--.HHZ">
      <acc value="0.0142408123" flag="0"/>
      <vel value="0.0109853407" flag="0"/>
      <psa03 value="0.0376113990" flag="0"/>
      <psa10 value="0.0128346253" flag="0"/>
      <psa30 value="0.0033331304" flag="0"/>
    </comp>
    <comp name="--.HHN">
      <acc value="0.0189961900" flag="0"/>
      <vel value="0.0146812528" flag="0"/>
      <psa03 value="0.0484867347" flag="0"/>
      <psa10 value="0.0156242823" flag="0"/>
      <psa30 value="0.0015641880" flag="0"/>
    </comp>
  </station>
  <station code="GAZK" name="GAZK" netid="KO" insttype="CMG-6T" lat="40.7479" lon="27.3275">
    <comp name="--.HHE">
      <acc value="0.1308307282" flag="0"/>
      <vel value="0.0906899928" flag="0"/>
      <psa03 value="0.2361134955" flag="0"/>
      <psa10 value="0.0655037616" flag="0"/>
      <psa30 value="0.0108084446" flag="0"/>
    </comp>
    <comp name="--.HHN">
      <acc value="0.0840751853" flag="0"/>
      <vel value="0.0727852567" flag="0"/>
      <psa03 value="0.2798131697" flag="0"/>
      <psa10 value="0.0752925276" flag="0"/>
      <psa30 value="0.0134922840" flag="0"/>
    </comp>
    <comp name="--.HHZ">
      <acc value="0.0619147257" flag="0"/>
      <vel value="0.0384575772" flag="0"/>
      <psa03 value="0.1369490324" flag="0"/>
      <psa10 value="0.0454038910" flag="0"/>
      <psa30 value="0.0053008434" flag="0"/>
    </comp>
  </station>
  <station code="GEDZ" name="GEDZ" netid="KO" insttype="CMG-6T" lat="39.0445" lon="29.4105">
    <comp name="--.HHZ">
      <acc value="0.0240608905" flag="0"/>
      <vel value="0.0140519006" flag="0"/>
      <psa03 value="0.0468818043" flag="0"/>
      <psa10 value="0.0315992324" flag="0"/>
      <psa30 value="0.0019387755" flag="0"/>
    </comp>
    <comp name="--.HHE">
      <acc value="0.0523221346" flag="0"/>
      <vel value="0.0366699924" flag="0"/>
      <psa03 value="0.1009928155" flag="0"/>
      <psa10 value="0.0866419727" flag="0"/>
      <psa30 value="0.0043504163" flag="0"/>
    </comp>
    <comp name="--.HHN">
      <acc value="0.0661655164" flag="0"/>
      <vel value="0.0428414458" flag="0"/>
      <psa03 value="0.1201997789" flag="0"/>
      <psa10 value="0.0958963955" flag="0"/>
      <psa30 value="0.0068395316" flag="0"/>
    </comp>
  </station>
  <station code="GELI" name="GELI" netid="KO" insttype="CMG-3ESP" lat="40.398" lon="26.4742">
    <comp name="--.HHE">
      <acc value="0.0444387691" flag="0"/>
      <vel value="0.0307796442" flag="0"/>
      <psa03 value="0.1909947587" flag="0"/>
      <psa10 value="0.0464292960" flag="0"/>
      <psa30 value="0.0057687240" flag="0"/>
    </comp>
    <comp name="--.HHZ">
      <acc value="0.0273030824" flag="0"/>
      <vel value="0.0162197235" flag="0"/>
      <psa03 value="0.0744076277" flag="0"/>
      <psa10 value="0.0270727737" flag="0"/>
      <psa30 value="0.0013308846" flag="0"/>
    </comp>
    <comp name="--.HHN">
      <acc value="0.0487120100" flag="0"/>
      <vel value="0.0330006151" flag="0"/>
      <psa03 value="0.1510483148" flag="0"/>
      <psa10 value="0.0546139448" flag="0"/>
      <psa30 value="0.0061597118" flag="0"/>
    </comp>
  </station>
  <station code="GMLD" name="GMLD" netid="KO" insttype="CMG-5T" lat="38.0766" lon="26.9157">
    <comp name="--.HNE">
      <acc value="0.2335137369" flag="0"/>
      <vel value="0.1185206265" flag="0"/>
      <psa03 value="0.5605340998" flag="0"/>
      <psa10 value="0.1858240444" flag="0"/>
      <psa30 value="0.0070512997" flag="0"/>
    </comp>
    <comp name="--.HNZ">
      <acc value="0.1075414976" flag="0"/>
      <vel value="0.0552407486" flag="0"/>
      <psa03 value="0.3278403719" flag="0"/>
      <psa10 value="0.0472465340" flag="0"/>
      <psa30 value="0.0050623987" flag="0"/>
    </comp>
    <comp name="--.HNN">
      <acc value="0.1890320651" flag="0"/>
      <vel value="0.1103756875" flag="0"/>
      <psa03 value="0.3442859966" flag="0"/>
      <psa10 value="0.1228948212" flag="0"/>
      <psa30 value="0.0061654392" flag="0"/>
    </comp>
  </station>
  <station code="GOMA" name="GOMA" netid="KO" insttype="CMG-5T" lat="38.7077" lon="27.9175">
    <comp name="--.HNE">
      <acc value="0.1360755333" flag="0"/>
      <vel value="0.0945895454" flag="0"/>
      <psa03 value="0.2066629811" flag="0"/>
      <psa10 value="0.0522426451" flag="0"/>
      <psa30 value="0.0087052248" flag="0"/>
    </comp>
  </station>
  <station code="GONE" name="GONE" netid="KO" insttype="CMG-5T" lat="40.0466" lon="27.686">
    <comp name="--.HNE">
      <acc value="0.1464045510" flag="0"/>
      <vel value="0.0592618444" flag="0"/>
      <psa03 value="0.2014482859" flag="0"/>
      <psa10 value="0.0933674467" flag="0"/>
      <psa30 value="0.0113393471" flag="0"/>
    </comp>
    <comp name="--.HNZ">
      <acc value="0.1021723154" flag="0"/>
      <vel value="0.0313317547" flag="0"/>
      <psa03 value="0.1106013660" flag="0"/>
      <psa10 value="0.0335882212" flag="0"/>
      <psa30 value="0.0052804464" flag="0"/>
    </comp>
    <comp name="--.HNN">
      <acc value="0.1759769372" flag="0"/>
      <vel value="0.0753909064" flag="0"/>
      <psa03 value="0.2652149281" flag="0"/>
      <psa10 value="0.0790269167" flag="0"/>
      <psa30 value="0.0079233926" flag="0"/>
    </comp>
  </station>
  <station code="GORD" name="GORD" netid="KO" insttype="CMG-5T" lat="38.9088" lon="28.1769">
    <comp name="--.HNE">
      <acc value="0.0625656534" flag="0"/>
      <vel value="0.0328912849" flag="0"/>
      <psa03 value="0.1031104984" flag="0"/>
      <psa10 value="0.0680421651" flag="0"/>
      <psa30 value="0.0081573133" flag="0"/>
    </comp>
    <comp name="--.HNZ">
      <acc value="0.0469855428" flag="0"/>
      <vel value="0.0295094417" flag="0"/>
      <psa03 value="0.0589132163" flag="0"/>
      <psa10 value="0.0456151867" flag="0"/>
      <psa30 value="0.0053526127" flag="0"/>
    </comp>
    <comp name="--.HNN">
      <acc value="0.0739889047" flag="0"/>
      <vel value="0.0320972370" flag="0"/>
      <psa03 value="0.1066038921" flag="0"/>
      <psa10 value="0.0551294674" flag="0"/>
      <psa30 value="0.0083969535" flag="0"/>
    </comp>
  </station>
  <station code="KCTX" name="KCTX" netid="KO" insttype="CMG-3ESP" lat="40.2626" lon="28.3353">
    <comp name="--.HHE">
      <acc value="0.0784396496" flag="0"/>
      <vel value="0.0346244700" flag="0"/>
      <psa03 value="0.1197468257" flag="0"/>
      <psa10 value="0.0524628385" flag="0"/>
      <psa30 value="0.0057264398" flag="0"/>
    </comp>
    <comp name="--.HHN">
      <acc value="0.1028338909" flag="0"/>
      <vel value="0.0323242303" flag="0"/>
      <psa03 value="0.1842362390" flag="0"/>
      <psa10 value="0.0327718383" flag="0"/>
      <psa30 value="0.0038862848" flag="0"/>
    </comp>
    <comp name="--.HHZ">
      <acc value="0.0800056182" flag="0"/>
      <vel value="0.0363252633" flag="0"/>
      <psa03 value="0.1152269327" flag="0"/>
      <psa10 value="0.0402482551" flag="0"/>
      <psa30 value="0.0053123705" flag="0"/>
    </comp>
  </station>
  <station code="KRBG" name="KRBG" netid="KO" insttype="CMG-3ESP" lat="40.3932" lon="27.2977">
    <comp name="--.HHE">
      <acc value="0.1098734286" flag="0"/>
      <vel value="0.0776241141" flag="0"/>
      <psa03 value="0.1546917415" flag="0"/>
      <psa10 value="0.0861173438" flag="0"/>
      <psa30 value="0.0074398865" flag="0"/>
    </comp>
    <comp name="--.HHN">
      <acc value="0.0941748118" flag="0"/>
      <vel value="0.0609625449" flag="0"/>
      <psa03 value="0.1406767112" flag="0"/>
      <psa10 value="0.0476942886" flag="0"/>
      <psa30 value="0.0048987119" flag="0"/>
    </comp>
    <comp name="--.HHZ">
      <acc value="0.0626663541" flag="0"/>
      <vel value="0.0240973325" flag="0"/>
      <psa03 value="0.1230186034" flag="0"/>
      <psa10 value="0.0174724503" flag="0"/>
      <psa30 value="0.0029954582" flag="0"/>
    </comp>
  </station>
  <station code="KRBN" name="KRBN" netid="KO" insttype="CMG-5T" lat="38.5936" lon="26.5537">
    <comp name="--.HNE">
      <acc value="0.1271167559" flag="0"/>
      <vel value="0.1047354084" flag="0"/>
      <psa03 value="0.3470117120" flag="0"/>
      <psa10 value="0.1985300219" flag="0"/>
      <psa30 value="0.0114924746" flag="0"/>
    </comp>
    <comp name="--.HNZ">
      <acc value="0.0579719757" flag="0"/>
      <vel value="0.0649983148" flag="0"/>
      <psa03 value="0.1522868441" flag="0"/>
      <psa10 value="0.1348648629" flag="0"/>
      <psa30 value="0.0103689017" flag="0"/>
    </comp>
    <comp name="--.HNN">
      <acc value="0.1181302736" flag="0"/>
      <vel value="0.1824720245" flag="0"/>
      <psa03 value="0.2130627253" flag="0"/>
      <psa10 value="0.3538295429" flag="0"/>
      <psa30 value="0.0197559575" flag="0"/>
    </comp>
  </station>
  <station code="KULA" name="KULA" netid="KO" insttype="CMG-3T" lat="38.5145" lon="28.6607">
    <comp name="--.HHE">
      <acc value="0.0250331883" flag="0"/>
      <vel value="0.0144855753" flag="0"/>
      <psa03 value="0.0589807711" flag="0"/>
      <psa10 value="0.0154693132" flag="0"/>
      <psa30 value="0.0020669962" flag="0"/>
    </comp>
    <comp name="--.HHZ">
      <acc value="0.0313581893" flag="0"/>
      <vel value="0.0135833587" flag="0"/>
      <psa03 value="0.0511397085" flag="0"/>
      <psa10 value="0.0111250922" flag="0"/>
      <psa30 value="0.0027253850" flag="0"/>
    </comp>
    <comp name="--.HHN">
      <acc value="0.0253793776" flag="0"/>
      <vel value="0.0127291569" flag="0"/>
      <psa03 value="0.0624436321" flag="0"/>
      <psa10 value="0.0137085065" flag="0"/>
      <psa30 value="0.0019825142" flag="0"/>
    </comp>
  </station>
  <station code="LAP" name="LAP" netid="KO" insttype="CMG-3ESP" lat="40.3703" lon="26.7593">
    <comp name="--.HHE">
      <acc value="0.0707497659" flag="0"/>
      <vel value="0.0564762935" flag="0"/>
      <psa03 value="0.1679691726" flag="0"/>
      <psa10 value="0.0853250061" flag="0"/>
      <psa30 value="0.0099807230" flag="0"/>
    </comp>
    <comp name="--.HHZ">
      <acc value="0.0555000852" flag="0"/>
      <vel value="0.0283322710" flag="0"/>
      <psa03 value="0.0877229254" flag="0"/>
      <psa10 value="0.0387696775" flag="0"/>
      <psa30 value="0.0038254296" flag="0"/>
    </comp>
    <comp name="--.HHN">
      <acc value="0.0805308326" flag="0"/>
      <vel value="0.0892376329" flag="0"/>
      <psa03 value="0.1935476605" flag="0"/>
      <psa10 value="0.1159443558" flag="0"/>
      <psa30 value="0.0123976577" flag="0"/>
    </comp>
  </station>
  <station code="LAPK" name="LAPK" netid="KO" insttype="CMG-5T" lat="40.3151" lon="26.6425">
    <comp name="--.HNE">
      <acc value="0.3150869191" flag="0"/>
      <vel value="0.1321657658" flag="0"/>
      <psa03 value="0.7516393734" flag="0"/>
      <psa10 value="0.2209381524" flag="0"/>
      <psa30 value="0.0104693422" flag="0"/>
    </comp>
    <comp name="--.HNN">
      <acc value="0.4172258880" flag="0"/>
      <vel value="0.2311171148" flag="0"/>
      <psa03 value="0.8683967180" flag="0"/>
      <psa10 value="0.3024461704" flag="0"/>
      <psa30 value="0.0196377651" flag="0"/>
    </comp>
    <comp name="--.HNZ">
      <acc value="0.1423833260" flag="0"/>
      <vel value="0.0718037984" flag="0"/>
      <psa03 value="0.2587440389" flag="0"/>
      <psa10 value="0.1537134261" flag="0"/>
      <psa30 value="0.0067362620" flag="0"/>
    </comp>
  </station>
  <station code="MDNY" name="MDNY" netid="KO" insttype="CMG-3ESP" lat="40.3709" lon="28.8846">
    <comp name="--.HHN">
      <acc value="0.1439813243" flag="0"/>
      <vel value="0.0436524016" flag="0"/>
      <psa03 value="0.3438888983" flag="0"/>
      <psa10 value="0.0324501225" flag="0"/>
      <psa30 value="0.0047662164" flag="0"/>
    </comp>
