<?xml version="1.0" encoding="UTF-8" standalone="yes"?>
<!DOCTYPE earthquake SYSTEM "stationlist.dtd">
<stationlist created="" xmlns="ch.ethz.sed.shakemap.usgs.xml">
  <station code="MYT1" name="MYT1" netid="HI" insttype="CMG-5TD,ACCELEROMETER,GURALP" lat="39.085" lon="26.5694">
    <comp name="--.HNE">
      <acc value="0.2009823017" flag="0"/>
      <vel value="0.1551727025" flag="0"/>
      <psa03 value="0.5735669518" flag="0"/>
      <psa10 value="0.1613665783" flag="0"/>
      <psa30 value="0.0142384094" flag="0"/>
    </comp>
    <comp name="--.HNZ">
      <acc value="0.0995939646" flag="0"/>
      <vel value="0.0760461946" flag="0"/>
      <psa03 value="0.3051551793" flag="0"/>
      <psa10 value="0.0858558088" flag="0"/>
      <psa30 value="0.0061677030" flag="0"/>
    </comp>
    <comp name="--.HNN">
      <acc value="0.2542796365" flag="0"/>
      <vel value="0.1892480527" flag="0"/>
      <psa03 value="0.4031382657" flag="0"/>
      <psa10 value="0.4540701201" flag="0"/>
      <psa30 value="0.0146953602" flag="0"/>
    </comp>
  </station>
  <station code="PRK" name="PRK" netid="HL" insttype="120" lat="39.2456" lon="26.265">
    <comp name="--.HHE">
      <acc value="0.4244742858" flag="0"/>
      <vel value="0.2683767209" flag="0"/>
      <psa03 value="1.1038893562" flag="0"/>
      <psa10 value="0.3168505539" flag="0"/>
      <psa30 value="0.0140557451" flag="0"/>
    </comp>
    <comp name="--.HHZ">
      <acc value="0.1867957276" flag="0"/>
      <vel value="0.0989992553" flag="0"/>
      <psa03 value="0.6315005278" flag="0"/>
      <psa10 value="0.1006623596" flag="0"/>
      <psa30 value="0.0055610794" flag="0"/>
    </comp>
    <comp name="--.HHN">
      <acc value="0.2628717463" flag="0"/>
      <vel value="0.1981963699" flag="0"/>
      <psa03 value="0.5855301601" flag="0"/>
      <psa10 value="0.3002968565" flag="0"/>
      <psa30 value="0.0182741701" flag="0"/>
    </comp>
  </station>
  <station code="LES3" name="LES3" netid="HT" insttype="" lat="39.3032" lon="26.1807">
    <comp name="--.HHE">
      <acc value="0.1416886519" flag="0"/>
      <vel value="0.0715936899" flag="0"/>
      <psa03 value="0.3780984110" flag="0"/>
      <psa10 value="0.0528575384" flag="0"/>
      <psa30 value="0.0030503591" flag="0"/>
    </comp>
    <comp name="--.HHN">
      <acc value="0.1443544193" flag="0"/>
      <vel value="0.0990390862" flag="0"/>
      <psa03 value="0.6270648405" flag="0"/>
      <psa10 value="0.0496553671" flag="0"/>
      <psa30 value="0.0056954466" flag="0"/>
    </comp>
    <comp name="--.HHZ">
      <acc value="0.0888584386" flag="0"/>
      <vel value="0.0560719482" flag="0"/>
      <psa03 value="0.4006701279" flag="0"/>
      <psa10 value="0.0363210550" flag="0"/>
      <psa30 value="0.0019863179" flag="0"/>
    </comp>
  </station>
  <station code="SIGR" name="SIGR" netid="HT" insttype="100" lat="39.2114" lon="25.8553">
    <comp name="--.HHN">
      <acc value="0.1587347133" flag="0"/>
      <vel value="0.1818068048" flag="0"/>
      <psa03 value="0.4364854795" flag="0"/>
      <psa10 value="0.2430293662" flag="0"/>
      <psa30 value="0.0150129427" flag="0"/>
    </comp>
    <comp name="--.HHZ">
      <acc value="0.0689422039" flag="0"/>
      <vel value="0.0469733866" flag="0"/>
      <psa03 value="0.2223596893" flag="0"/>
      <psa10 value="0.0620329576" flag="0"/>
      <psa30 value="0.0037548945" flag="0"/>
    </comp>
    <comp name="--.HHE">
      <acc value="0.1265750031" flag="0"/>
      <vel value="0.0989885189" flag="0"/>
      <psa03 value="0.2467618117" flag="0"/>
      <psa10 value="0.0705869608" flag="0"/>
      <psa30 value="0.0046901447" flag="0"/>
    </comp>
  </station>
  <station code="BALB" name="BALB" netid="KO" insttype="CMG-5T" lat="39.6507" lon="27.8642">
    <comp name="--.HNZ">
      <acc value="0.1821272740" flag="0"/>
      <vel value="0.0479321212" flag="0"/>
      <psa03 value="0.2345382772" flag="0"/>
      <psa10 value="0.0511065951" flag="0"/>
      <psa30 value="0.0054648341" flag="0"/>
    </comp>
    <comp name="--.HNE">
      <acc value="0.2691013684" flag="0"/>
      <vel value="0.0862090237" flag="0"/>
      <psa03 value="0.4177241104" flag="0"/>
      <psa10 value="0.0474899097" flag="0"/>
      <psa30 value="0.0080945493" flag="0"/>
    </comp>
    <comp name="--.HNN">
      <acc value="0.2012272055" flag="0"/>
      <vel value="0.0717274042" flag="0"/>
      <psa03 value="0.4065130131" flag="0"/>
      <psa10 value="0.0798145194" flag="0"/>
      <psa30 value="0.0069160215" flag="0"/>
    </comp>
  </station>
  <station code="BIGA" name="BIGA" netid="KO" insttype="CMG-5T" lat="40.2813" lon="27.1505">
    <comp name="--.HNE">
      <acc value="0.1848726980" flag="0"/>
      <vel value="0.0864546429" flag="0"/>
      <psa03 value="0.3070192529" flag="0"/>
      <psa10 value="0.0635906372" flag="0"/>
      <psa30 value="0.0074101078" flag="0"/>
    </comp>
    <comp name="--.HNN">
      <acc value="0.2875207251" flag="0"/>
      <vel value="0.0953670279" flag="0"/>
      <psa03 value="0.7130864477" flag="0"/>
      <psa10 value="0.0456500542" flag="0"/>
      <psa30 value="0.0038190715" flag="0"/>
    </comp>
    <comp name="--.HNZ">
      <acc value="0.1214814124" flag="0"/>
      <vel value="0.0324455049" flag="0"/>
      <psa03 value="0.1342588165" flag="0"/>
      <psa10 value="0.0233979788" flag="0"/>
      <psa30 value="0.0028388022" flag="0"/>
    </comp>
  </station>
  <station code="BLCB" name="BLCB" netid="KO" insttype="CMG-3T" lat="38.3853" lon="27.042">
    <comp name="--.HHN">
      <acc value="0.0000613054" flag="0"/>
      <vel value="0.0000283569" flag="0"/>
      <psa03 value="0.0001197306" flag="0"/>
      <psa10 value="0.0000199227" flag="0"/>
      <psa30 value="0.0000020315" flag="0"/>
    </comp>
    <comp name="--.HHZ">
      <acc value="0.0971810193" flag="0"/>
      <vel value="0.0328637961" flag="0"/>
      <psa03 value="0.2465583834" flag="0"/>
      <psa10 value="0.0215496532" flag="0"/>
      <psa30 value="0.0027315996" flag="0"/>
    </comp>
    <comp name="--.HHE">
      <acc value="0.1265511398" flag="0"/>
      <vel value="0.0576399662" flag="0"/>
      <psa03 value="0.3261055829" flag="0"/>
      <psa10 value="0.0387506085" flag="0"/>
      <psa30 value="0.0029786424" flag="0"/>
    </comp>
  </station>
  <station code="BMYO" name="BMYO" netid="KO" insttype="CMG-5T" lat="39.8098" lon="26.6009">
    <comp name="--.HNE">
      <acc value="0.7204494078" flag="0"/>
      <vel value="0.4451150426" flag="0"/>
      <psa03 value="1.6732897417" flag="0"/>
      <psa10 value="0.3130696008" flag="0"/>
      <psa30 value="0.0199570522" flag="0"/>
    </comp>
    <comp name="--.HNN">
      <acc value="0.3716359887" flag="0"/>
      <vel value="0.2359704396" flag="0"/>
      <psa03 value="0.7746144192" flag="0"/>
      <psa10 value="0.1815499561" flag="0"/>
      <psa30 value="0.0117460371" flag="0"/>
    </comp>
    <comp name="--.HNZ">
      <acc value="0.1740453996" flag="0"/>
      <vel value="0.0696022654" flag="0"/>
      <psa03 value="0.3299869302" flag="0"/>
      <psa10 value="0.1765742926" flag="0"/>
      <psa30 value="0.0061439939" flag="0"/>
    </comp>
  </station>
  <station code="CANM" name="CANM" netid="KO" insttype="CMG-5T" lat="40.0113" lon="27.0529">
    <comp name="--.HNN">
      <acc value="0.7655891799" flag="0"/>
      <vel value="0.3977215895" flag="0"/>
      <psa03 value="1.2291986358" flag="0"/>
      <psa10 value="0.3503302839" flag="0"/>
      <psa30 value="0.0200322394" flag="0"/>
    </comp>
    <comp name="--.HNE">
      <acc value="0.6644873582" flag="0"/>
      <vel value="0.2348078732" flag="0"/>
      <psa03 value="1.1645607412" flag="0"/>
      <psa10 value="0.1619494826" flag="0"/>
      <psa30 value="0.0109567646" flag="0"/>
    </comp>
    <comp name="--.HNZ">
      <acc value="0.5029029880" flag="0"/>
      <vel value="0.2615948380" flag="0"/>
      <psa03 value="1.1354220910" flag="0"/>
      <psa10 value="0.1072480531" flag="0"/>
      <psa30 value="0.0090489071" flag="0"/>
    </comp>
  </station>
  <station code="DKL" name="DKL" netid="KO" insttype="CMG-3ESPC" lat="39.0713" lon="26.9053">
    <comp name="--.HHZ">
      <acc value="0.1082387014" flag="0"/>
      <vel value="0.0495730060" flag="0"/>
      <psa03 value="0.2481654772" flag="0"/>
      <psa10 value="0.0781480990" flag="0"/>
      <psa30 value="0.0083368073" flag="0"/>
    </comp>
    <comp name="--.HHN">
      <acc value="0.1707234221" flag="0"/>
      <vel value="0.1032470526" flag="0"/>
      <psa03 value="0.3213432030" flag="0"/>
      <psa10 value="0.1457782062" flag="0"/>
      <psa30 value="0.0115056972" flag="0"/>
    </comp>
    <comp name="--.HHE">
      <acc value="0.1604045058" flag="0"/>
      <vel value="0.1119038934" flag="0"/>
      <psa03 value="0.2895949633" flag="0"/>
      <psa10 value="0.1030085641" flag="0"/>
      <psa30 value="0.0096345222" flag="0"/>
    </comp>
  </station>
  <station code="EDC" name="EDC" netid="KO" insttype="CMG-3T" lat="40.3465" lon="27.8618">
    <comp name="--.HHE">
      <acc value="0.1317777399" flag="0"/>
      <vel value="0.0674443032" flag="0"/>
      <psa03 value="0.3046848926" flag="0"/>
      <psa10 value="0.1389587874" flag="0"/>
      <psa30 value="0.0040567741" flag="0"/>
    </comp>
    <comp name="--.HHZ">
      <acc value="0.0865324566" flag="0"/>
      <vel value="0.0594166609" flag="0"/>
      <psa03 value="0.1326264218" flag="0"/>
      <psa10 value="0.0925798049" flag="0"/>
      <psa30 value="0.0060195346" flag="0"/>
    </comp>
    <comp name="--.HHN">
      <acc value="0.1752231730" flag="0"/>
      <vel value="0.1149576248" flag="0"/>
      <psa03 value="0.3986969441" flag="0"/>
      <psa10 value="0.1972585548" flag="0"/>
      <psa30 value="0.0083574028" flag="0"/>
    </comp>
  </station>
  <station code="EZN" name="EZN" netid="KO" insttype="CMG-3ESP" lat="39.8255" lon="26.3246">
    <comp name="--.HHZ">
      <acc value="0.0533396639" flag="0"/>
      <vel value="0.0374381276" flag="0"/>
      <psa03 value="0.1120706319" flag="0"/>
      <psa10 value="0.0403394815" flag="0"/>
      <psa30 value="0.0027715407" flag="0"/>
    </comp>
    <comp name="--.HHE">
      <acc value="0.0791406674" flag="0"/>
      <vel value="0.0557574570" flag="0"/>
      <psa03 value="0.1492123807" flag="0"/>
      <psa10 value="0.0609820600" flag="0"/>
      <psa30 value="0.0038361149" flag="0"/>
    </comp>
    <comp name="--.HHN">
      <acc value="0.0677528095" flag="0"/>
      <vel value="0.0316987799" flag="0"/>
      <psa03 value="0.1553928407" flag="0"/>
      <psa10 value="0.0340954221" flag="0"/>
      <psa30 value="0.0032467466" flag="0"/>
    </comp>
  </station>
  <station code="EZNE" name="EZNE" netid="KO" insttype="CMG-5T" lat="39.756" lon="26.3655">
    <comp name="--.HNN">
      <acc value="0.0983862634" flag="0"/>
      <vel value="0.0468716196" flag="0"/>
      <psa03 value="0.3303559302" flag="0"/>
      <psa10 value="0.0451488797" flag="0"/>
      <psa30 value="0.0035137395" flag="0"/>
    </comp>
    <comp name="--.HNE">
      <acc value="0.0842203188" flag="0"/>
      <vel value="0.0567688665" flag="0"/>
      <psa03 value="0.3440333612" flag="0"/>
      <psa10 value="0.0334094009" flag="0"/>
      <psa30 value="0.0028464707" flag="0"/>
    </comp>
    <comp name="--.HNZ">
      <acc value="0.0583553429" flag="0"/>
      <vel value="0.0264258078" flag="0"/>
      <psa03 value="0.1730886311" flag="0"/>
      <psa10 value="0.0230722556" flag="0"/>
      <psa30 value="0.0018542795" flag="0"/>
    </comp>
  </station>
  <station code="FOCM" name="FOCM" netid="KO" insttype="CMG-5T" lat="38.7131" lon="26.7309">
    <comp name="--.HNE">
      <acc value="0.1645811480" flag="0"/>
      <vel value="0.0864441984" flag="0"/>
      <psa03 value="0.1981239135" flag="0"/>
      <psa10 value="0.1386507608" flag="0"/>
      <psa30 value="0.0071369175" flag="0"/>
    </comp>
    <comp name="--.HNZ">
      <acc value="0.0901487918" flag="0"/>
      <vel value="0.0513335720" flag="0"/>
      <psa03 value="0.1828856820" flag="0"/>
      <psa10 value="0.0520735127" flag="0"/>
      <psa30 value="0.0051083601" flag="0"/>
    </comp>
    <comp name="--.HNN">
      <acc value="0.1846062564" flag="0"/>
      <vel value="0.0905150194" flag="0"/>
      <psa03 value="0.3121948631" flag="0"/>
      <psa10 value="0.1797891288" flag="0"/>
      <psa30 value="0.0072368875" flag="0"/>
    </comp>
  </station>
  <station code="GMLD" name="GMLD" netid="KO" insttype="CMG-5T" lat="38.0766" lon="26.9157">
    <comp name="--.HNE">
      <acc value="0.2335055991" flag="0"/>
      <vel value="0.1190728728" flag="0"/>
      <psa03 value="0.5606503178" flag="0"/>
      <psa10 value="0.1858210347" flag="0"/>
      <psa30 value="0.0068690932" flag="0"/>
    </comp>
    <comp name="--.HNN">
      <acc value="0.1889737351" flag="0"/>
      <vel value="0.1104353947" flag="0"/>
      <psa03 value="0.3443341804" flag="0"/>
      <psa10 value="0.1228191077" flag="0"/>
      <psa30 value="0.0063242465" flag="0"/>
    </comp>
    <comp name="--.HNZ">
      <acc value="0.1076297396" flag="0"/>
      <vel value="0.0556907449" flag="0"/>
      <psa03 value="0.3277767733" flag="0"/>
      <psa10 value="0.0471413240" flag="0"/>
      <psa30 value="0.0048222791" flag="0"/>
    </comp>
  </station>
  <station code="GONE" name="GONE" netid="KO" insttype="CMG-5T" lat="40.0466" lon="27.686">
    <comp name="--.HNE">
      <acc value="0.1465534878" flag="0"/>
      <vel value="0.0600575919" flag="0"/>
      <psa03 value="0.2014333707" flag="0"/>
      <psa10 value="0.0932207245" flag="0"/>
      <psa30 value="0.0106338581" flag="0"/>
    </comp>
    <comp name="--.HNN">
      <acc value="0.1762194208" flag="0"/>
      <vel value="0.0732077481" flag="0"/>
      <psa03 value="0.2653178156" flag="0"/>
      <psa10 value="0.0793378690" flag="0"/>
      <psa30 value="0.0072087234" flag="0"/>
    </comp>
    <comp name="--.HNZ">
      <acc value="0.1020861456" flag="0"/>
      <vel value="0.0310144201" flag="0"/>
      <psa03 value="0.1107013998" flag="0"/>
      <psa10 value="0.0338588503" flag="0"/>
      <psa30 value="0.0048862857" flag="0"/>
    </comp>
  </station>
  <station code="GORD" name="GORD" netid="KO" insttype="CMG-5T" lat="38.9088" lon="28.1769">
    <comp name="--.HNE">
      <acc value="0.0626310149" flag="0"/>
      <vel value="0.0324083938" flag="0"/>
      <psa03 value="0.1031827535" flag="0"/>
      <psa10 value="0.0681954582" flag="0"/>
      <psa30 value="0.0072183559" flag="0"/>
    </comp>
    <comp name="--.HNZ">
      <acc value="0.0468825470" flag="0"/>
      <vel value="0.0303394918" flag="0"/>
      <psa03 value="0.0588465486" flag="0"/>
      <psa10 value="0.0454221626" flag="0"/>
      <psa30 value="0.0048825467" flag="0"/>
    </comp>
    <comp name="--.HNN">
      <acc value="0.0740793616" flag="0"/>
      <vel value="0.0312360561" flag="0"/>
      <psa03 value="0.1066582315" flag="0"/>
      <psa10 value="0.0551517828" flag="0"/>
      <psa30 value="0.0072908239" flag="0"/>
    </comp>
  </station>
  <station code="KCTX" name="KCTX" netid="KO" insttype="CMG-3ESP" lat="40.2626" lon="28.3353">
    <comp name="--.HHZ">
      <acc value="0.0800346008" flag="0"/>
      <vel value="0.0364697657" flag="0"/>
      <psa03 value="0.1152508756" flag="0"/>
      <psa10 value="0.0402658899" flag="0"/>
      <psa30 value="0.0051823821" flag="0"/>
    </comp>
    <comp name="--.HHE">
      <acc value="0.0784180003" flag="0"/>
      <vel value="0.0341018708" flag="0"/>
      <psa03 value="0.1197371740" flag="0"/>
      <psa10 value="0.0523945782" flag="0"/>
      <psa30 value="0.0050276853" flag="0"/>
    </comp>
    <comp name="--.HHN">
      <acc value="0.1028326310" flag="0"/>
      <vel value="0.0326195864" flag="0"/>
      <psa03 value="0.1842003667" flag="0"/>
      <psa10 value="0.0327371636" flag="0"/>
      <psa30 value="0.0036772511" flag="0"/>
    </comp>
  </station>
  <station code="KRBG" name="KRBG" netid="KO" insttype="CMG-3ESP" lat="40.3932" lon="27.2977">
    <comp name="--.HHN">
      <acc value="0.0940389087" flag="0"/>
      <vel value="0.0601766263" flag="0"/>
      <psa03 value="0.1405894341" flag="0"/>
      <psa10 value="0.0478357854" flag="0"/>
      <psa30 value="0.0047736452" flag="0"/>
    </comp>
    <comp name="--.HHE">
      <acc value="0.1101152943" flag="0"/>
      <vel value="0.0782391490" flag="0"/>
      <psa03 value="0.1545331709" flag="0"/>
      <psa10 value="0.0863680389" flag="0"/>
      <psa30 value="0.0074110912" flag="0"/>
    </comp>
    <comp name="--.HHZ">
      <acc value="0.0627205471" flag="0"/>
      <vel value="0.0236377184" flag="0"/>
      <psa03 value="0.1230612124" flag="0"/>
      <psa10 value="0.0174443898" flag="0"/>
      <psa30 value="0.0028782724" flag="0"/>
    </comp>
  </station>
  <station code="KRBN" name="KRBN" netid="KO" insttype="CMG-5T" lat="38.5936" lon="26.5537">
    <comp name="--.HNZ">
      <acc value="0.0578984049" flag="0"/>
      <vel value="0.0649758969" flag="0"/>
      <psa03 value="0.1521653984" flag="0"/>
      <psa10 value="0.1347206146" flag="0"/>
      <psa30 value="0.0100312913" flag="0"/>
    </comp>
    <comp name="--.HNN">
      <acc value="0.1180168204" flag="0"/>
      <vel value="0.1813955734" flag="0"/>
      <psa03 value="0.2129860968" flag="0"/>
      <psa10 value="0.3539150855" flag="0"/>
      <psa30 value="0.0192215046" flag="0"/>
    </comp>
    <comp name="--.HNE">
      <acc value="0.1268381295" flag="0"/>
      <vel value="0.1035778886" flag="0"/>
      <psa03 value="0.3469437284" flag="0"/>
      <psa10 value="0.1987370027" flag="0"/>
      <psa30 value="0.0117911974" flag="0"/>
    </comp>
  </station>
  <station code="KULA" name="KULA" netid="KO" insttype="CMG-3T" lat="38.5145" lon="28.6607">
    <comp name="--.HHE">
      <acc value="0.0251110833" flag="0"/>
      <vel value="0.0148900327" flag="0"/>
      <psa03 value="0.0590542037" flag="0"/>
      <psa10 value="0.0153786610" flag="0"/>
      <psa30 value="0.0018722437" flag="0"/>
    </comp>
    <comp name="--.HHN">
      <acc value="0.0254403800" flag="0"/>
      <vel value="0.0131721134" flag="0"/>
      <psa03 value="0.0624588842" flag="0"/>
      <psa10 value="0.0137596100" flag="0"/>
      <psa30 value="0.0016885618" flag="0"/>
    </comp>
    <comp name="--.HHZ">
      <acc value="0.0313462031" flag="0"/>
      <vel value="0.0134105429" flag="0"/>
      <psa03 value="0.0511499392" flag="0"/>
      <psa10 value="0.0111011524" flag="0"/>
      <psa30 value="0.0023966962" flag="0"/>
    </comp>
  </station>
  <station code="LAP" name="LAP" netid="KO" insttype="CMG-3ESP" lat="40.3703" lon="26.7593">
    <comp name="--.HHN">
      <acc value="0.0802992365" flag="0"/>
      <vel value="0.0865973395" flag="0"/>
      <psa03 value="0.1933630953" flag="0"/>
      <psa10 value="0.1159101775" flag="0"/>
      <psa30 value="0.0119353820" flag="0"/>
    </comp>
    <comp name="--.HHZ">
      <acc value="0.0555304911" flag="0"/>
      <vel value="0.0287913306" flag="0"/>
      <psa03 value="0.0877245556" flag="0"/>
      <psa10 value="0.0387939784" flag="0"/>
      <psa30 value="0.0036366165" flag="0"/>
    </comp>
    <comp name="--.HHE">
      <acc value="0.0710958850" flag="0"/>
      <vel value="0.0582276953" flag="0"/>
      <psa03 value="0.1683235405" flag="0"/>
      <psa10 value="0.0856952595" flag="0"/>
      <psa30 value="0.0088707687" flag="0"/>
    </comp>
  </station>
  <station code="LAPK" name="LAPK" netid="KO" insttype="CMG-5T" lat="40.3151" lon="26.6425">
    <comp name="--.HNN">
      <acc value="0.4169762079" flag="0"/>
      <vel value="0.2285400208" flag="0"/>
      <psa03 value="0.8688140352" flag="0"/>
      <psa10 value="0.3026289334" flag="0"/>
      <psa30 value="0.0192808855" flag="0"/>
    </comp>
    <comp name="--.HNE">
      <acc value="0.3153462580" flag="0"/>
      <vel value="0.1326236371" flag="0"/>
