<stationlist created="1716303676">
	<station code="MARCO" name="MARCO" netid="GE" source="GEOFON" insttype="" lat="40.29724" lon="15.80632">
		<comp name=".HLE" depth="1.0">
			<acc value="0.00069143592203982" flag="0"/>
			<vel value="0.00104605525023" flag="0"/>
			<psa03 value="0.00166311554433849" flag="0"/>
			<psa10 value="0.00154453888062168" flag="0"/>
			<psa30 value="0.000473965199952389" flag="0"/>
		</comp>
		<comp name=".HLN" depth="1.0">
			<acc value="0.00080245204493832" flag="0"/>
			<vel value="0.0013062388048" flag="0"/>
			<psa03 value="0.00184371718929816" flag="0"/>
			<psa10 value="0.00233562144220924" flag="0"/>
			<psa30 value="0.000391051269810825" flag="0"/>
		</comp>
		<comp name=".HLZ" depth="1.0">
			<acc value="0.00023294266041846" flag="0"/>
			<vel value="0.000433170714299" flag="0"/>
			<psa03 value="0.000744497724266218" flag="0"/>
			<psa10 value="0.000452699227382986" flag="0"/>
			<psa30 value="0.000206751013948176" flag="0"/>
		</comp>
	</station>
	<station code="AMSN" name="AMSN" netid="IT" source="Italian Strong Motion Network (RAN)" insttype="" lat="41.468399" lon="13.3336">
		<comp name="00.HNE" depth="0.0">
			<acc value="0.0096648197430618" flag="0"/>
			<vel value="0.00207938249326" flag="0"/>
			<psa03 value="0.00358016490273054" flag="0"/>
			<psa10 value="0.00323620821103738" flag="0"/>
			<psa30 value="0.000349717880634882" flag="0"/>
		</comp>
		<comp name="00.HNN" depth="0.0">
			<acc value="0.011747488528116" flag="0"/>
			<vel value="0.00180588499346" flag="0"/>
			<psa03 value="0.00541052052980818" flag="0"/>
			<psa10 value="0.00325603178987817" flag="0"/>
			<psa30 value="0.000302933922052247" flag="0"/>
		</comp>
		<comp name="00.HNZ" depth="0.0">
			<acc value="0.0023740821801738" flag="0"/>
			<vel value="0.00180298986221" flag="0"/>
			<psa03 value="0.00321455637306165" flag="0"/>
			<psa10 value="0.00478193006065144" flag="0"/>
			<psa30 value="0.000307343537084471" flag="0"/>
		</comp>
	</station>
	<station code="ARI" name="ARI" netid="IT" source="Italian Strong Motion Network (RAN)" insttype="" lat="41.15463" lon="15.09039">
		<comp name="00.HGE" depth="0.0">
			<acc value="0.011914909449582" flag="0"/>
			<vel value="0.00559257884082" flag="0"/>
			<psa03 value="0.0121118804776458" flag="0"/>
			<psa10 value="0.00827619825749927" flag="0"/>
			<psa30 value="0.0020084274234618" flag="0"/>
		</comp>
		<comp name="00.HGN" depth="0.0">
			<acc value="0.012148325244678" flag="0"/>
			<vel value="0.00486952838243" flag="0"/>
			<psa03 value="0.00928407531089283" flag="0"/>
			<psa10 value="0.006902642578683" flag="0"/>
			<psa30 value="0.00249652850776116" flag="0"/>
		</comp>
		<comp name="00.HGZ" depth="0.0">
			<acc value="0.020117575569264" flag="0"/>
			<vel value="0.00528565105397" flag="0"/>
			<psa03 value="0.00777279290418906" flag="0"/>
			<psa10 value="0.00636606687694314" flag="0"/>
			<psa30 value="0.00171299097724433" flag="0"/>
		</comp>
	</station>
	<station code="ARL" name="ARL" netid="IT" source="Italian Strong Motion Network (RAN)" insttype="" lat="41.057068" lon="14.542928">
		<comp name="00.HNE" depth="0.0">
			<acc value="0.003833601639906" flag="0"/>
			<vel value="0.00362517056747" flag="0"/>
			<psa03 value="0.00945130579011106" flag="0"/>
			<psa10 value="0.00557527402204365" flag="0"/>
			<psa30 value="0.00150652157049539" flag="0"/>
		</comp>
		<comp name="00.HNN" depth="0.0">
			<acc value="0.0036509208787572" flag="0"/>
			<vel value="0.00299998171863" flag="0"/>
			<psa03 value="0.00813747266137027" flag="0"/>
			<psa10 value="0.00465950366926593" flag="0"/>
			<psa30 value="0.00105443016332178" flag="0"/>
		</comp>
		<comp name="00.HNZ" depth="0.0">
			<acc value="0.0028637090418738" flag="0"/>
			<vel value="0.00280935531711" flag="0"/>
			<psa03 value="0.00625836901333469" flag="0"/>
			<psa10 value="0.00441898898633977" flag="0"/>
			<psa30 value="0.00115454492043497" flag="0"/>
		</comp>
	</station>
	<station code="ARR" name="ARR" netid="IT" source="Italian Strong Motion Network (RAN)" insttype="" lat="41.141762" lon="15.082042">
		<comp name="00.HNE" depth="0.0">
			<acc value="0.029763769203516" flag="0"/>
			<vel value="0.00863251111626" flag="0"/>
			<psa03 value="0.0141746694710148" flag="0"/>
			<psa10 value="0.0186429668800432" flag="0"/>
			<psa30 value="0.00196342756744181" flag="0"/>
		</comp>
		<comp name="00.HNN" depth="0.0">
			<acc value="0.05925386381445" flag="0"/>
			<vel value="0.00873802624283" flag="0"/>
			<psa03 value="0.0117528371615536" flag="0"/>
			<psa10 value="0.0117333413387891" flag="0"/>
			<psa30 value="0.00274149244375268" flag="0"/>
		</comp>
		<comp name="00.HNZ" depth="0.0">
			<acc value="0.016405771134756" flag="0"/>
			<vel value="0.00619442469413" flag="0"/>
			<psa03 value="0.0102163219634951" flag="0"/>
			<psa10 value="0.0109248740317892" flag="0"/>
			<psa30 value="0.00178319771143189" flag="0"/>
		</comp>
	</station>
	<station code="ATI" name="ATI" netid="IT" source="Italian Strong Motion Network (RAN)" insttype="" lat="41.621971" lon="13.794765">
		<comp name="00.HNE" depth="0.0">
			<acc value="0.0027281710518666" flag="0"/>
			<vel value="0.00210430741239" flag="0"/>
			<psa03 value="0.00485010124332569" flag="0"/>
			<psa10 value="0.00394154720190943" flag="0"/>
			<psa30 value="0.000489281474997478" flag="0"/>
		</comp>
		<comp name="00.HNN" depth="0.0">
			<acc value="0.0039183910807008" flag="0"/>
			<vel value="0.00385300048386" flag="0"/>
			<psa03 value="0.00340034635000964" flag="0"/>
			<psa10 value="0.00459097678594615" flag="0"/>
			<psa30 value="0.000959579400758206" flag="0"/>
		</comp>
		<comp name="00.HNZ" depth="0.0">
			<acc value="0.0014125076831922" flag="0"/>
			<vel value="0.00166752321626" flag="0"/>
			<psa03 value="0.00220820910853502" flag="0"/>
			<psa10 value="0.00272300804216979" flag="0"/>
			<psa30 value="0.000536055302700701" flag="0"/>
		</comp>
	</station>
	<station code="ATN" name="ATN" netid="IT" source="Italian Strong Motion Network (RAN)" insttype="" lat="41.620319" lon="13.801154">
		<comp name="00.HGE" depth="0.0">
			<acc value="0.019475788402062" flag="0"/>
			<vel value="0.00269183072889" flag="0"/>
			<psa03 value="0.00441226820257155" flag="0"/>
			<psa10 value="0.00432844908227486" flag="0"/>
			<psa30 value="0.000479362901271104" flag="0"/>
		</comp>
		<comp name="00.HGN" depth="0.0">
			<acc value="0.028629285856302" flag="0"/>
			<vel value="0.00290188806032" flag="0"/>
			<psa03 value="0.00461769131606253" flag="0"/>
			<psa10 value="0.00450556253389488" flag="0"/>
			<psa30 value="0.000710521131036065" flag="0"/>
		</comp>
		<comp name="00.HGZ" depth="0.0">
			<acc value="0.011683788482412" flag="0"/>
			<vel value="0.00185724863961" flag="0"/>
			<psa03 value="0.00349593210917699" flag="0"/>
			<psa10 value="0.00219031548827689" flag="0"/>
			<psa30 value="0.000540172815046451" flag="0"/>
		</comp>
	</station>
	<station code="AVL" name="AVL" netid="IT" source="Italian Strong Motion Network (RAN)" insttype="" lat="40.922832" lon="14.787044">
		<comp name="00.HNE" depth="0.0">
			<acc value="0.051463155667578" flag="0"/>
			<vel value="0.00641777982288" flag="0"/>
			<psa03 value="0.0103567466304955" flag="0"/>
			<psa10 value="0.00996522670984683" flag="0"/>
			<psa30 value="0.00171806589676785" flag="0"/>
		</comp>
		<comp name="00.HNN" depth="0.0">
			<acc value="0.0213481924335" flag="0"/>
			<vel value="0.00543108405662" flag="0"/>
			<psa03 value="0.0103832763827616" flag="0"/>
			<psa10 value="0.0083603941475958" flag="0"/>
			<psa30 value="0.0013130276066343" flag="0"/>
		</comp>
		<comp name="00.HNZ" depth="0.0">
			<acc value="0.021804543812556" flag="0"/>
			<vel value="0.00414904833715" flag="0"/>
			<psa03 value="0.00652068717187451" flag="0"/>
			<psa10 value="0.0069061771878473" flag="0"/>
			<psa30 value="0.00193346787442629" flag="0"/>
		</comp>
	</station>
	<station code="BAN" name="BAN" netid="IT" source="Italian Strong Motion Network (RAN)" insttype="" lat="40.8138" lon="14.1652">
		<comp name="00.HNE" depth="0.0">
			<acc value="4.6394298402438" flag="0"/>
			<vel value="1.66015677009" flag="0"/>
			<psa03 value="3.77811794843702" flag="0"/>
			<psa10 value="1.63647508844312" flag="0"/>
			<psa30 value="0.137681854080619" flag="0"/>
		</comp>
		<comp name="00.HNN" depth="0.0">
			<acc value="3.2752403252646" flag="0"/>
			<vel value="2.20791673683" flag="0"/>
			<psa03 value="3.73764160041359" flag="0"/>
			<psa10 value="2.22616643260197" flag="0"/>
			<psa30 value="0.162334780549107" flag="0"/>
		</comp>
		<comp name="00.HNZ" depth="0.0">
			<acc value="2.7603392691144" flag="0"/>
			<vel value="0.975618625749" flag="0"/>
			<psa03 value="4.05833617818646" flag="0"/>
			<psa10 value="0.888837921150544" flag="0"/>
			<psa30 value="0.0549661279027886" flag="0"/>
		</comp>
	</station>
	<station code="BGI" name="BGI" netid="IT" source="Italian Strong Motion Network (RAN)" insttype="" lat="40.83113" lon="15.068183">
		<comp name="00.HGE" depth="0.0">
			<acc value="0.012231624553254" flag="0"/>
			<vel value="0.00442033983096" flag="0"/>
			<psa03 value="0.00372547140357282" flag="0"/>
			<psa10 value="0.0120518199364271" flag="0"/>
			<psa30 value="0.000740993358005883" flag="0"/>
		</comp>
		<comp name="00.HGN" depth="0.0">
			<acc value="0.01676758583739" flag="0"/>
			<vel value="0.00410961987749" flag="0"/>
			<psa03 value="0.00489314511041074" flag="0"/>
			<psa10 value="0.00927430156445889" flag="0"/>
			<psa30 value="0.000563257156770583" flag="0"/>
		</comp>
		<comp name="00.HGZ" depth="0.0">
			<acc value="0.0074946597774942" flag="0"/>
			<vel value="0.00268806771336" flag="0"/>
			<psa03 value="0.00382041616975859" flag="0"/>
			<psa10 value="0.0070099503122987" flag="0"/>
			<psa30 value="0.000679806492177796" flag="0"/>
		</comp>
	</station>
	<station code="BNE" name="BNE" netid="IT" source="Italian Strong Motion Network (RAN)" insttype="" lat="41.127556" lon="14.784882">
		<comp name="00.HGE" depth="0.0">
			<acc value="0.10400789393532" flag="0"/>
			<vel value="0.0077748610482" flag="0"/>
			<psa03 value="0.00574714764741337" flag="0"/>
			<psa10 value="0.0110588310307669" flag="0"/>
			<psa30 value="0.00265075476615928" flag="0"/>
		</comp>
		<comp name="00.HGN" depth="0.0">
			<acc value="0.1650632591532" flag="0"/>
			<vel value="0.0133000702356" flag="0"/>
			<psa03 value="0.00550543111406217" flag="0"/>
			<psa10 value="0.0150779432147426" flag="0"/>
			<psa30 value="0.00246247145998096" flag="0"/>
		</comp>
		<comp name="00.HGZ" depth="0.0">
			<acc value="0.025420620746958" flag="0"/>
			<vel value="0.00570750756356" flag="0"/>
			<psa03 value="0.00627166286273103" flag="0"/>
			<psa10 value="0.0108083022469753" flag="0"/>
			<psa30 value="0.00229254812006024" flag="0"/>
		</comp>
	</station>
	<station code="BNV" name="BNV" netid="IT" source="Italian Strong Motion Network (RAN)" insttype="" lat="41.117723" lon="14.797374">
		<comp name="00.HGE" depth="0.0">
			<acc value="0.023449690849596" flag="0"/>
			<vel value="0.00725754010934" flag="0"/>
			<psa03 value="0.00635080873074918" flag="0"/>
			<psa10 value="0.0128312228180243" flag="0"/>
			<psa30 value="0.00387297448221729" flag="0"/>
		</comp>
		<comp name="00.HGN" depth="0.0">
			<acc value="0.043296899800008" flag="0"/>
			<vel value="0.00765098382627" flag="0"/>
			<psa03 value="0.00702622391637483" flag="0"/>
			<psa10 value="0.0106669563209878" flag="0"/>
			<psa30 value="0.00275784498536302" flag="0"/>
		</comp>
		<comp name="00.HGZ" depth="0.0">
			<acc value="0.017730117914472" flag="0"/>
			<vel value="0.0046178561772" flag="0"/>
			<psa03 value="0.00411800489396914" flag="0"/>
			<psa10 value="0.010077264444313" flag="0"/>
			<psa30 value="0.0019735257363945" flag="0"/>
		</comp>
	</station>
	<station code="BOI" name="BOI" netid="IT" source="Italian Strong Motion Network (RAN)" insttype="" lat="41.481264" lon="14.47253">
		<comp name="00.HGE" depth="0.0">
			<acc value="0.0073588396954098" flag="0"/>
			<vel value="0.00299954071991" flag="0"/>
			<psa03 value="0.00457302527119434" flag="0"/>
			<psa10 value="0.00567658885863613" flag="0"/>
			<psa30 value="0.000989335226101659" flag="0"/>
		</comp>
		<comp name="00.HGN" depth="0.0">
			<acc value="0.0077794386490668" flag="0"/>
			<vel value="0.00350736451696" flag="0"/>
			<psa03 value="0.00482918937625803" flag="0"/>
			<psa10 value="0.00756881092780872" flag="0"/>
			<psa30 value="0.00111669387132164" flag="0"/>
		</comp>
		<comp name="00.HGZ" depth="0.0">
			<acc value="0.011833378942692" flag="0"/>
			<vel value="0.00342991360009" flag="0"/>
			<psa03 value="0.00316601897801002" flag="0"/>
			<psa10 value="0.00411540731302159" flag="0"/>
			<psa30 value="0.000874475638050646" flag="0"/>
		</comp>
	</station>
	<station code="BOJ" name="BOJ" netid="IT" source="Italian Strong Motion Network (RAN)" insttype="" lat="41.484451" lon="14.472103">
		<comp name="00.HNE" depth="0.0">
			<acc value="0.009031605040461" flag="0"/>
			<vel value="0.0142799514047" flag="0"/>
			<psa03 value="0.0109442796923095" flag="0"/>
			<psa10 value="0.0337789526898337" flag="0"/>
			<psa30 value="0.00427656788496635" flag="0"/>
		</comp>
		<comp name="00.HNN" depth="0.0">
			<acc value="0.009265464830898" flag="0"/>
			<vel value="0.0121155176902" flag="0"/>
			<psa03 value="0.0136534669751628" flag="0"/>
			<psa10 value="0.0289738718768022" flag="0"/>
			<psa30 value="0.00277189862467974" flag="0"/>
		</comp>
		<comp name="00.HNZ" depth="0.0">
			<acc value="0.023012282787834" flag="0"/>
			<vel value="0.00833104891222" flag="0"/>
			<psa03 value="0.0101320826590959" flag="0"/>
			<psa10 value="0.0139274401245666" flag="0"/>
			<psa30 value="0.00215561029860311" flag="0"/>
		</comp>
	</station>
	<station code="BRLL" name="BRLL" netid="IT" source="Italian Strong Motion Network (RAN)" insttype="" lat="41.521900177" lon="14.5839004517">
		<comp name="00.HNE" depth="0.0">
			<acc value="0.014453976764304" flag="0"/>
			<vel value="0.00427275416098" flag="0"/>
			<psa03 value="0.0114393658747792" flag="0"/>
			<psa10 value="0.00612359878334722" flag="0"/>
			<psa30 value="0.000897145056456455" flag="0"/>
		</comp>
		<comp name="00.HNN" depth="0.0">
			<acc value="0.01481327421006" flag="0"/>
			<vel value="0.00376880601545" flag="0"/>
			<psa03 value="0.00729450470950842" flag="0"/>
			<psa10 value="0.0051908604315182" flag="0"/>
			<psa30 value="0.0013321786669656" flag="0"/>
		</comp>
		<comp name="00.HNZ" depth="0.0">
			<acc value="0.018650135770068" flag="0"/>
			<vel value="0.00175293885938" flag="0"/>
			<psa03 value="0.00182869308204795" flag="0"/>
			<psa10 value="0.00152402689680285" flag="0"/>
			<psa30 value="0.000493255227823553" flag="0"/>
		</comp>
	</station>
	<station code="CBAG" name="CBAG" netid="IT" source="Italian Strong Motion Network (RAN)" insttype="" lat="41.595199585" lon="14.6696996689">
		<comp name="00.HNE" depth="0.0">
			<acc value="0.023156115678594" flag="0"/>
			<vel value="0.00285991541774" flag="0"/>
			<psa03 value="0.00301968864632298" flag="0"/>
			<psa10 value="0.0029509612679517" flag="0"/>
			<psa30 value="0.00143150410095532" flag="0"/>
		</comp>
		<comp name="00.HNN" depth="0.0">
			<acc value="0.014698048746444" flag="0"/>
			<vel value="0.00301974910158" flag="0"/>
			<psa03 value="0.00361121090468867" flag="0"/>
			<psa10 value="0.00666530060594087" flag="0"/>
			<psa30 value="0.00154365642632891" flag="0"/>
		</comp>
		<comp name="00.HNZ" depth="0.0">
			<acc value="0.034555063424628" flag="0"/>
			<vel value="0.0040405578754" flag="0"/>
			<psa03 value="0.002112242627529" flag="0"/>
			<psa10 value="0.00267494438943705" flag="0"/>
			<psa30 value="0.000967155215119425" flag="0"/>
		</comp>
	</station>
	<station code="CBHG" name="CBHG" netid="IT" source="Italian Strong Motion Network (RAN)" insttype="" lat="41.5479011536" lon="14.6147003174">
		<comp name="00.HNE" depth="0.0">
			<acc value="0.016905356230548" flag="0"/>
			<vel value="0.00398341958574" flag="0"/>
			<psa03 value="0.0034746165695231" flag="0"/>
			<psa10 value="0.00576666654461084" flag="0"/>
			<psa30 value="0.00086636812180245" flag="0"/>
		</comp>
		<comp name="00.HNN" depth="0.0">
			<acc value="0.023183373734376" flag="0"/>
			<vel value="0.00346596143898" flag="0"/>
			<psa03 value="0.00453408226175028" flag="0"/>
			<psa10 value="0.00437992124202627" flag="0"/>
			<psa30 value="0.00102415180336234" flag="0"/>
		</comp>
		<comp name="00.HNZ" depth="0.0">
			<acc value="0.042629182821942" flag="0"/>
			<vel value="0.00561327149581" flag="0"/>
			<psa03 value="0.0031118226794383" flag="0"/>
			<psa10 value="0.00317706304296132" flag="0"/>
			<psa30 value="0.000800034404602122" flag="0"/>
		</comp>
	</station>
	<station code="CLPS" name="CLPS" netid="IT" source="Italian Strong Motion Network (RAN)" insttype="" lat="41.521999" lon="14.3921">
		<comp name="00.HNE" depth="0.0">
			<acc value="0.0066609059363112" flag="0"/>
			<vel value="0.00400710147833" flag="0"/>
			<psa03 value="0.00745889711011436" flag="0"/>
			<psa10 value="0.00740311182607867" flag="0"/>
			<psa30 value="0.00118014119939576" flag="0"/>
		</comp>
		<comp name="00.HNN" depth="0.0">
			<acc value="0.0052973977146036" flag="0"/>
			<vel value="0.00515929946628" flag="0"/>
			<psa03 value="0.00625809165120576" flag="0"/>
			<psa10 value="0.00960057317834583" flag="0"/>
			<psa30 value="0.00171606097228378" flag="0"/>
		</comp>
		<comp name="00.HNZ" depth="0.0">
			<acc value="0.0046095686102706" flag="0"/>
			<vel value="0.0035873520512" flag="0"/>
			<psa03 value="0.00431711541479357" flag="0"/>
			<psa10 value="0.0054583337753329" flag="0"/>
			<psa30 value="0.00117796793042642" flag="0"/>
		</comp>
	</station>
	<station code="CMB" name="CMB" netid="IT" source="Italian Strong Motion Network (RAN)" insttype="" lat="41.5628" lon="14.6523">
		<comp name="00.HGE" depth="0.0">
			<acc value="0.002660451537369" flag="0"/>
			<vel value="0.00237028181782" flag="0"/>
			<psa03 value="0.000982736488187318" flag="0"/>
			<psa10 value="0.00261363040581433" flag="0"/>
			<psa30 value="0.000920872669963286" flag="0"/>
		</comp>
		<comp name="00.HGN" depth="0.0">
			<acc value="0.0018512223379242" flag="0"/>
			<vel value="0.00279047746919" flag="0"/>
			<psa03 value="0.00110920816384066" flag="0"/>
			<psa10 value="0.00274494629234411" flag="0"/>
			<psa30 value="0.00129606596217543" flag="0"/>
		</comp>
		<comp name="00.HGZ" depth="0.0">
			<acc value="0.0013089773075364" flag="0"/>
			<vel value="0.00237288851033" flag="0"/>
			<psa03 value="0.00104892650120513" flag="0"/>
			<psa10 value="0.00274835784646946" flag="0"/>
			<psa30 value="0.0014497769781095" flag="0"/>
		</comp>
	</station>
	<station code="CMG" name="CMG" netid="IT" source="Italian Strong Motion Network (RAN)" insttype="" lat="40.670071" lon="15.101825">
		<comp name="00.HNE" depth="0.0">
			<acc value="0.0020730241644666" flag="0"/>
			<vel value="0.00171002308071" flag="0"/>
			<psa03 value="0.00471257032269884" flag="0"/>
			<psa10 value="0.0035248737399609" flag="0"/>
			<psa30 value="0.000457223882588512" flag="0"/>
		</comp>
		<comp name="00.HNN" depth="0.0">
			<acc value="0.0018149007690798" flag="0"/>
			<vel value="0.00209882671357" flag="0"/>
			<psa03 value="0.00522424679686052" flag="0"/>
			<psa10 value="0.00628095498870187" flag="0"/>
			<psa30 value="0.000757426842478235" flag="0"/>
		</comp>
		<comp name="00.HNZ" depth="0.0">
			<acc value="0.0027373778237046" flag="0"/>
			<vel value="0.00183537816414" flag="0"/>
			<psa03 value="0.00684802916913619" flag="0"/>
			<psa10 value="0.00443525428258007" flag="0"/>
			<psa30 value="0.000550261400035038" flag="0"/>
		</comp>
	</station>
	<station code="CML" name="CML" netid="IT" source="Italian Strong Motion Network (RAN)" insttype="" lat="40.746983" lon="13.901292">
		<comp name="00.HGE" depth="0.0">
			<acc value="0.081964928038536" flag="0"/>
			<vel value="0.0619235470431" flag="0"/>
