<?xml version="1.0" encoding="UTF-8" standalone="yes"?>
<!DOCTYPE earthquake SYSTEM "stationlist.dtd">
<stationlist created="" xmlns="ch.ethz.sed.shakemap.usgs.xml">
  <station code="BSSO" name="BSSO" netid="IV" insttype="" lat="41.5461" lon="14.5938">
    <comp name="--.HHN">
      <acc value="0.0007660442" flag="0"/>
      <vel value="0.0011867607" flag="0"/>
      <psa03 value="0.0011574423" flag="0"/>
      <psa10 value="0.0015386863" flag="0"/>
      <psa30 value="0.0004510562" flag="0"/>
    </comp>
    <comp name="--.HHE">
      <acc value="0.0007143068" flag="0"/>
      <vel value="0.0008488436" flag="0"/>
      <psa03 value="0.0017107518" flag="0"/>
      <psa10 value="0.0015012423" flag="0"/>
      <psa30 value="0.0003462247" flag="0"/>
    </comp>
    <comp name="--.HHZ">
      <acc value="0.0005633024" flag="0"/>
      <vel value="0.0008780707" flag="0"/>
      <psa03 value="0.0014087703" flag="0"/>
      <psa10 value="0.0015366088" flag="0"/>
      <psa30 value="0.0003495034" flag="0"/>
    </comp>
  </station>
  <station code="CAAM" name="CAAM" netid="IV" insttype="" lat="40.8201" lon="14.142">
    <comp name="--.HNE">
      <acc value="5.8591442860" flag="0"/>
      <vel value="2.1636468010" flag="0"/>
      <psa03 value="3.6006602211" flag="0"/>
      <psa10 value="2.4178858786" flag="0"/>
      <psa30 value="0.1996383145" flag="0"/>
    </comp>
    <comp name="--.HNN">
      <acc value="6.1267065504" flag="0"/>
      <vel value="2.3699062549" flag="0"/>
      <psa03 value="4.1454836875" flag="0"/>
      <psa10 value="2.2065652008" flag="0"/>
      <psa30 value="0.2323709314" flag="0"/>
    </comp>
    <comp name="--.HNZ">
      <acc value="5.6006825615" flag="0"/>
      <vel value="2.8483739838" flag="0"/>
      <psa03 value="9.3183373437" flag="0"/>
      <psa10 value="1.9859535594" flag="0"/>
      <psa30 value="0.3171496605" flag="0"/>
    </comp>
  </station>
  <station code="CAFE" name="CAFE" netid="IV" insttype="" lat="41.028" lon="15.2366">
    <comp name="--.HHE">
      <acc value="0.0024310380" flag="0"/>
      <vel value="0.0050084585" flag="0"/>
      <psa03 value="0.0044600408" flag="0"/>
      <psa10 value="0.0046363943" flag="0"/>
      <psa30 value="0.0010984894" flag="0"/>
    </comp>
    <comp name="--.HHZ">
      <acc value="0.0015985560" flag="0"/>
      <vel value="0.0020204062" flag="0"/>
      <psa03 value="0.0030334178" flag="0"/>
      <psa10 value="0.0038138514" flag="0"/>
      <psa30 value="0.0004599018" flag="0"/>
    </comp>
    <comp name="--.HHN">
      <acc value="0.0019077010" flag="0"/>
      <vel value="0.0025115715" flag="0"/>
      <psa03 value="0.0029571962" flag="0"/>
      <psa10 value="0.0047993372" flag="0"/>
      <psa30 value="0.0009573159" flag="0"/>
    </comp>
  </station>
  <station code="CBAC" name="CBAC" netid="IV" insttype="" lat="40.8109" lon="14.0806">
    <comp name="--.HNN">
      <acc value="2.3061893897" flag="0"/>
      <vel value="1.1411663725" flag="0"/>
      <psa03 value="3.3611598740" flag="0"/>
      <psa10 value="2.0121769943" flag="0"/>
      <psa30 value="0.1245546474" flag="0"/>
    </comp>
    <comp name="--.HNE">
      <acc value="1.9365151818" flag="0"/>
      <vel value="0.8878597608" flag="0"/>
      <psa03 value="1.9503711567" flag="0"/>
      <psa10 value="1.3762561674" flag="0"/>
      <psa30 value="0.0818289941" flag="0"/>
    </comp>
    <comp name="--.HNZ">
      <acc value="1.3403113162" flag="0"/>
      <vel value="0.5370863733" flag="0"/>
      <psa03 value="3.1106643021" flag="0"/>
      <psa10 value="0.7170963943" flag="0"/>
      <psa30 value="0.0487573864" flag="0"/>
    </comp>
  </station>
  <station code="CDRU" name="CDRU" netid="IV" insttype="" lat="40.4896" lon="15.3046">
    <comp name="--.HHE">
      <acc value="0.0012937100" flag="0"/>
      <vel value="0.0008392745" flag="0"/>
      <psa03 value="0.0045731663" flag="0"/>
      <psa10 value="0.0013499830" flag="0"/>
      <psa30 value="0.0001043453" flag="0"/>
    </comp>
    <comp name="--.HHZ">
      <acc value="0.0007801888" flag="0"/>
      <vel value="0.0007361833" flag="0"/>
      <psa03 value="0.0028708564" flag="0"/>
      <psa10 value="0.0009979906" flag="0"/>
      <psa30 value="0.0003458752" flag="0"/>
    </comp>
    <comp name="--.HHN">
      <acc value="0.0008041565" flag="0"/>
      <vel value="0.0008886266" flag="0"/>
      <psa03 value="0.0018329421" flag="0"/>
      <psa10 value="0.0015772187" flag="0"/>
      <psa30 value="0.0003251264" flag="0"/>
    </comp>
  </station>
  <station code="CERA" name="CERA" netid="IV" insttype="" lat="41.5978" lon="14.0183">
    <comp name="--.HHN">
      <acc value="0.0041686891" flag="0"/>
      <vel value="0.0044585816" flag="0"/>
      <psa03 value="0.0108330564" flag="0"/>
      <psa10 value="0.0076897495" flag="0"/>
      <psa30 value="0.0005070675" flag="0"/>
    </comp>
    <comp name="--.HHE">
      <acc value="0.0043753712" flag="0"/>
      <vel value="0.0045215013" flag="0"/>
      <psa03 value="0.0075343103" flag="0"/>
      <psa10 value="0.0081525601" flag="0"/>
      <psa30 value="0.0008602819" flag="0"/>
    </comp>
    <comp name="--.HHZ">
      <acc value="0.0027379732" flag="0"/>
      <vel value="0.0029319457" flag="0"/>
      <psa03 value="0.0048513016" flag="0"/>
      <psa10 value="0.0057758641" flag="0"/>
      <psa30 value="0.0006625278" flag="0"/>
    </comp>
  </station>
  <station code="CFMN" name="CFMN" netid="IV" insttype="" lat="40.8329" lon="14.0904">
    <comp name="--.HNE">
      <acc value="6.4291924553" flag="0"/>
      <vel value="2.3050133706" flag="0"/>
      <psa03 value="10.1793266643" flag="0"/>
      <psa10 value="0.9458018418" flag="0"/>
      <psa30 value="0.1307427614" flag="0"/>
    </comp>
    <comp name="--.HNN">
      <acc value="6.4413865445" flag="0"/>
      <vel value="1.7808272363" flag="0"/>
      <psa03 value="7.6698891949" flag="0"/>
      <psa10 value="1.1110534312" flag="0"/>
      <psa30 value="0.1074080543" flag="0"/>
    </comp>
    <comp name="--.HNZ">
      <acc value="4.0214433475" flag="0"/>
      <vel value="0.9365431467" flag="0"/>
      <psa03 value="4.3422899863" flag="0"/>
      <psa10 value="0.7054494233" flag="0"/>
      <psa30 value="0.0468011125" flag="0"/>
    </comp>
  </station>
  <station code="CMIS" name="CMIS" netid="IV" insttype="" lat="40.7782" lon="14.089">
    <comp name="--.HNN">
      <acc value="1.2707158599" flag="0"/>
      <vel value="0.6501870712" flag="0"/>
      <psa03 value="3.7076054446" flag="0"/>
      <psa10 value="0.8262864026" flag="0"/>
      <psa30 value="0.1088257193" flag="0"/>
    </comp>
    <comp name="--.HNE">
      <acc value="1.4679588367" flag="0"/>
      <vel value="0.9474700986" flag="0"/>
      <psa03 value="6.9283793467" flag="0"/>
      <psa10 value="0.7555953926" flag="0"/>
      <psa30 value="0.1070639606" flag="0"/>
    </comp>
    <comp name="--.HNZ">
      <acc value="1.2755073868" flag="0"/>
      <vel value="0.4844455864" flag="0"/>
      <psa03 value="4.7280530658" flag="0"/>
      <psa10 value="0.3492642516" flag="0"/>
      <psa30 value="0.0403331340" flag="0"/>
    </comp>
  </station>
  <station code="CMPR" name="CMPR" netid="IV" insttype="" lat="40.3181" lon="15.303">
    <comp name="--.HHN">
      <acc value="0.0009710295" flag="0"/>
      <vel value="0.0009156730" flag="0"/>
      <psa03 value="0.0026756126" flag="0"/>
      <psa10 value="0.0014055414" flag="0"/>
      <psa30 value="0.0002245699" flag="0"/>
    </comp>
    <comp name="--.HHE">
      <acc value="0.0011274026" flag="0"/>
      <vel value="0.0011200693" flag="0"/>
      <psa03 value="0.0030157751" flag="0"/>
      <psa10 value="0.0025705343" flag="0"/>
      <psa30 value="0.0002161542" flag="0"/>
    </comp>
    <comp name="--.HHZ">
      <acc value="0.0007823682" flag="0"/>
      <vel value="0.0008254531" flag="0"/>
      <psa03 value="0.0023276074" flag="0"/>
      <psa10 value="0.0021950095" flag="0"/>
      <psa30 value="0.0001874246" flag="0"/>
    </comp>
  </station>
  <station code="CMSN" name="CMSN" netid="IV" insttype="" lat="40.8382" lon="14.1818">
    <comp name="--.HHE">
      <acc value="0.9550094074" flag="0"/>
      <vel value="0.8341735029" flag="0"/>
      <psa03 value="1.4111900024" flag="0"/>
      <psa10 value="0.9923702197" flag="0"/>
      <psa30 value="0.0817705710" flag="0"/>
    </comp>
    <comp name="--.HHN">
      <acc value="1.0670664184" flag="0"/>
      <vel value="0.7058434344" flag="0"/>
      <psa03 value="2.0354813492" flag="0"/>
      <psa10 value="1.1146412265" flag="0"/>
      <psa30 value="0.0539238304" flag="0"/>
    </comp>
    <comp name="--.HHZ">
      <acc value="0.7297377527" flag="0"/>
      <vel value="0.5079456561" flag="0"/>
      <psa03 value="1.2902350026" flag="0"/>
      <psa10 value="0.7744945728" flag="0"/>
      <psa30 value="0.0605517170" flag="0"/>
    </comp>
  </station>
  <station code="CNIS" name="CNIS" netid="IV" insttype="" lat="40.7982" lon="14.1632">
    <comp name="--.HNN">
      <acc value="0.7853601080" flag="0"/>
      <vel value="0.4744040136" flag="0"/>
      <psa03 value="1.2789244042" flag="0"/>
      <psa10 value="0.6422036555" flag="0"/>
      <psa30 value="0.0750800547" flag="0"/>
    </comp>
    <comp name="--.HNZ">
      <acc value="1.7244370922" flag="0"/>
      <vel value="0.6333237459" flag="0"/>
      <psa03 value="1.2244061674" flag="0"/>
      <psa10 value="1.3572425914" flag="0"/>
      <psa30 value="0.0755014344" flag="0"/>
    </comp>
    <comp name="--.HNE">
      <acc value="1.0005058567" flag="0"/>
      <vel value="0.6652091671" flag="0"/>
      <psa03 value="1.4612601280" flag="0"/>
      <psa10 value="0.6147200546" flag="0"/>
      <psa30 value="0.1289153815" flag="0"/>
    </comp>
  </station>
  <station code="COLB" name="COLB" netid="IV" insttype="" lat="40.819" lon="14.1446">
    <comp name="--.HNE">
      <acc value="13.4699941088" flag="0"/>
      <vel value="3.1418404697" flag="0"/>
      <psa03 value="8.4090633246" flag="0"/>
      <psa10 value="2.6191369323" flag="0"/>
      <psa30 value="0.2027710656" flag="0"/>
    </comp>
    <comp name="--.HNN">
      <acc value="16.1399129307" flag="0"/>
      <vel value="3.8785429415" flag="0"/>
      <psa03 value="15.2064767934" flag="0"/>
      <psa10 value="2.7432378102" flag="0"/>
      <psa30 value="0.1929151414" flag="0"/>
    </comp>
    <comp name="--.HNZ">
      <acc value="9.9350483508" flag="0"/>
      <vel value="3.0297856391" flag="0"/>
      <psa03 value="5.5236598064" flag="0"/>
      <psa10 value="1.9116583603" flag="0"/>
      <psa30 value="0.2296030917" flag="0"/>
    </comp>
  </station>
  <station code="CQUE" name="CQUE" netid="IV" insttype="" lat="40.8854" lon="14.1554">
    <comp name="--.HHE">
      <acc value="0.7342855079" flag="0"/>
      <vel value="0.5191571832" flag="0"/>
      <psa03 value="2.6357560275" flag="0"/>
      <psa10 value="0.3458688584" flag="0"/>
      <psa30 value="0.0361783839" flag="0"/>
    </comp>
    <comp name="--.HHN">
      <acc value="0.7051129029" flag="0"/>
      <vel value="0.5634568075" flag="0"/>
      <psa03 value="2.3533639384" flag="0"/>
      <psa10 value="0.6178680572" flag="0"/>
      <psa30 value="0.0668835843" flag="0"/>
    </comp>
    <comp name="--.HHZ">
      <acc value="0.4495223715" flag="0"/>
      <vel value="0.2702161794" flag="0"/>
      <psa03 value="0.7924227364" flag="0"/>
      <psa10 value="0.3704375452" flag="0"/>
      <psa30 value="0.0313534510" flag="0"/>
    </comp>
  </station>
  <station code="CRTO" name="CRTO" netid="IV" insttype="" lat="40.8212" lon="14.4223">
    <comp name="--.HHN">
      <acc value="0.0781041446" flag="0"/>
      <vel value="0.0700076823" flag="0"/>
      <psa03 value="0.2335465232" flag="0"/>
      <psa10 value="0.1413408114" flag="0"/>
      <psa30 value="0.0091227960" flag="0"/>
    </comp>
    <comp name="--.HHE">
      <acc value="0.1187765884" flag="0"/>
      <vel value="0.1088144761" flag="0"/>
      <psa03 value="0.3142764692" flag="0"/>
      <psa10 value="0.2149549528" flag="0"/>
      <psa30 value="0.0102870733" flag="0"/>
    </comp>
    <comp name="--.HHZ">
      <acc value="0.0354585499" flag="0"/>
      <vel value="0.0210963406" flag="0"/>
      <psa03 value="0.0990152929" flag="0"/>
      <psa10 value="0.0240667836" flag="0"/>
      <psa30 value="0.0033674561" flag="0"/>
    </comp>
  </station>
  <station code="CSOB" name="CSOB" netid="IV" insttype="" lat="40.8265" lon="14.144">
    <comp name="--.HNE">
      <acc value="15.5618102876" flag="0"/>
      <vel value="3.1932420051" flag="0"/>
      <psa03 value="8.4870124847" flag="0"/>
      <psa10 value="2.2145619274" flag="0"/>
      <psa30 value="0.1846433800" flag="0"/>
    </comp>
    <comp name="--.HNZ">
      <acc value="11.7720770525" flag="0"/>
      <vel value="3.5629523001" flag="0"/>
      <psa03 value="9.2911738066" flag="0"/>
      <psa10 value="2.5477889658" flag="0"/>
      <psa30 value="0.2652108299" flag="0"/>
    </comp>
    <comp name="--.HNN">
      <acc value="12.4147240435" flag="0"/>
      <vel value="4.1099129382" flag="0"/>
      <psa03 value="11.5441139610" flag="0"/>
      <psa10 value="3.6675712959" flag="0"/>
      <psa30 value="0.2367944245" flag="0"/>
    </comp>
  </station>
  <station code="CSTH" name="CSTH" netid="IV" insttype="" lat="40.8294" lon="14.1493">
    <comp name="--.HNE">
      <acc value="29.4886117248" flag="0"/>
      <vel value="5.2757736201" flag="0"/>
      <psa03 value="11.5598794107" flag="0"/>
      <psa10 value="2.0164026487" flag="0"/>
      <psa30 value="0.1816789550" flag="0"/>
    </comp>
    <comp name="--.HNN">
      <acc value="27.7741949551" flag="0"/>
      <vel value="4.8767417595" flag="0"/>
      <psa03 value="7.3305483074" flag="0"/>
      <psa10 value="2.9552717446" flag="0"/>
      <psa30 value="0.1932690598" flag="0"/>
    </comp>
    <comp name="--.HNZ">
      <acc value="21.7872261586" flag="0"/>
      <vel value="2.4549545698" flag="0"/>
      <psa03 value="9.5693435011" flag="0"/>
      <psa10 value="0.9020214037" flag="0"/>
      <psa30 value="0.1339724639" flag="0"/>
    </comp>
  </station>
  <station code="GATE" name="GATE" netid="IV" insttype="" lat="41.5131" lon="14.9102">
    <comp name="--.HHE">
      <acc value="0.0013117781" flag="0"/>
      <vel value="0.0016951453" flag="0"/>
      <psa03 value="0.0018225752" flag="0"/>
      <psa10 value="0.0033459474" flag="0"/>
      <psa30 value="0.0005530441" flag="0"/>
    </comp>
    <comp name="--.HHN">
      <acc value="0.0011914032" flag="0"/>
      <vel value="0.0015065308" flag="0"/>
      <psa03 value="0.0023719320" flag="0"/>
      <psa10 value="0.0035231063" flag="0"/>
      <psa30 value="0.0004673897" flag="0"/>
    </comp>
    <comp name="--.HHZ">
      <acc value="0.0008268083" flag="0"/>
      <vel value="0.0010686044" flag="0"/>
      <psa03 value="0.0017619008" flag="0"/>
      <psa10 value="0.0016956195" flag="0"/>
      <psa30 value="0.0003180377" flag="0"/>
    </comp>
  </station>
  <station code="GIUL" name="GIUL" netid="IV" insttype="" lat="41.5583" lon="13.2546">
    <comp name="--.HHE">
      <acc value="0.0016301856" flag="0"/>
      <vel value="0.0016630622" flag="0"/>
      <psa03 value="0.0037916161" flag="0"/>
      <psa10 value="0.0040163847" flag="0"/>
      <psa30 value="0.0001741525" flag="0"/>
    </comp>
    <comp name="--.HHN">
      <acc value="0.0017609099" flag="0"/>
      <vel value="0.0020022601" flag="0"/>
      <psa03 value="0.0040744917" flag="0"/>
      <psa10 value="0.0041123104" flag="0"/>
      <psa30 value="0.0003764941" flag="0"/>
    </comp>
    <comp name="--.HHZ">
      <acc value="0.0011464752" flag="0"/>
      <vel value="0.0014910813" flag="0"/>
      <psa03 value="0.0025136978" flag="0"/>
      <psa10 value="0.0020209018" flag="0"/>
      <psa30 value="0.0002964208" flag="0"/>
    </comp>
  </station>
  <station code="IFOR" name="IFOR" netid="IV" insttype="" lat="40.7115" lon="13.8552">
    <comp name="--.HHZ">
      <acc value="0.0603341078" flag="0"/>
      <vel value="0.0339188539" flag="0"/>
      <psa03 value="0.1136649112" flag="0"/>
      <psa10 value="0.0595838307" flag="0"/>
      <psa30 value="0.0025223734" flag="0"/>
    </comp>
    <comp name="--.HHE">
      <acc value="0.0741236753" flag="0"/>
      <vel value="0.0599511902" flag="0"/>
      <psa03 value="0.2906219426" flag="0"/>
      <psa10 value="0.1463542646" flag="0"/>
      <psa30 value="0.0072962954" flag="0"/>
    </comp>
    <comp name="--.HHN">
      <acc value="0.1258137604" flag="0"/>
      <vel value="0.0991209044" flag="0"/>
      <psa03 value="0.2476636913" flag="0"/>
      <psa10 value="0.2345035883" flag="0"/>
      <psa30 value="0.0089841874" flag="0"/>
    </comp>
  </station>
  <station code="IMTC" name="IMTC" netid="IV" insttype="" lat="40.7209" lon="13.8758">
    <comp name="--.HHE">
      <acc value="0.0254805934" flag="0"/>
      <vel value="0.0230270675" flag="0"/>
      <psa03 value="0.0443955424" flag="0"/>
      <psa10 value="0.0375252797" flag="0"/>
      <psa30 value="0.0048355071" flag="0"/>
    </comp>
    <comp name="--.HHZ">
      <acc value="0.0261834817" flag="0"/>
      <vel value="0.0205859980" flag="0"/>
      <psa03 value="0.0490946686" flag="0"/>
      <psa10 value="0.0313394305" flag="0"/>
      <psa30 value="0.0037352360" flag="0"/>
    </comp>
    <comp name="--.HHN">
      <acc value="0.0244692465" flag="0"/>
      <vel value="0.0220111272" flag="0"/>
      <psa03 value="0.0620831837" flag="0"/>
      <psa10 value="0.0382761840" flag="0"/>
      <psa30 value="0.0041447493" flag="0"/>
    </comp>
  </station>
  <station code="IOCA" name="IOCA" netid="IV" insttype="" lat="40.7468" lon="13.9014">
    <comp name="--.HHE">
      <acc value="0.0930391092" flag="0"/>
      <vel value="0.0697181907" flag="0"/>
      <psa03 value="0.2188040833" flag="0"/>
      <psa10 value="0.0824161713" flag="0"/>
      <psa30 value="0.0100219318" flag="0"/>
    </comp>
    <comp name="--.HHN">
      <acc value="0.0829421623" flag="0"/>
      <vel value="0.0590328927" flag="0"/>
      <psa03 value="0.2159158299" flag="0"/>
      <psa10 value="0.0844841148" flag="0"/>
      <psa30 value="0.0068957911" flag="0"/>
    </comp>
    <comp name="--.HHZ">
      <acc value="0.0444886683" flag="0"/>
      <vel value="0.0300172130" flag="0"/>
      <psa03 value="0.1043156748" flag="0"/>
      <psa10 value="0.0190562940" flag="0"/>
      <psa30 value="0.0035698439" flag="0"/>
    </comp>
  </station>
  <station code="MCRV" name="MCRV" netid="IV" insttype="" lat="40.7826" lon="15.1684">
    <comp name="--.HHE">
      <acc value="0.0012860565" flag="0"/>
      <vel value="0.0010756749" flag="0"/>
      <psa03 value="0.0028430673" flag="0"/>
      <psa10 value="0.0016893626" flag="0"/>
      <psa30 value="0.0001748828" flag="0"/>
    </comp>
    <comp name="--.HHN">
      <acc value="0.0012235039" flag="0"/>
      <vel value="0.0009661314" flag="0"/>
      <psa03 value="0.0039806816" flag="0"/>
      <psa10 value="0.0012480172" flag="0"/>
      <psa30 value="0.0002027575" flag="0"/>
    </comp>
    <comp name="--.HHZ">
      <acc value="0.0008212705" flag="0"/>
      <vel value="0.0007684872" flag="0"/>
      <psa03 value="0.0019924826" flag="0"/>
      <psa10 value="0.0013619069" flag="0"/>
      <psa30 value="0.0001419711" flag="0"/>
    </comp>
  </station>
  <station code="MIDA" name="MIDA" netid="IV" insttype="" lat="41.6419" lon="14.254">
    <comp name="--.HHE">
      <acc value="nan" flag="0"/>
      <vel value="-100.0000000000" flag="0"/>
      <psa03 value="0.0000000000" flag="0"/>
      <psa10 value="0.0000000000" flag="0"/>
      <psa30 value="0.0000000000" flag="0"/>
    </comp>
    <comp name="--.HHN">
      <acc value="nan" flag="0"/>
      <vel value="-100.0000000000" flag="0"/>
      <psa03 value="0.0000000000" flag="0"/>
      <psa10 value="0.0000000000" flag="0"/>
      <psa30 value="0.0000000000" flag="0"/>
    </comp>
