<stationlist created="1778069811">
	<station code="PHP" name="PHP" netid="AC" source="Albanian Seismological Network (AC)" insttype="" lat="41.6847" lon="20.4408">
		<comp name="--.HNE" depth="0.0">
			<acc value="0.727757974679797" flag="0"/>
			<vel value="0.240906605700017" flag="0"/>
			<psa03 value="1.69580750559165" flag="0"/>
			<psa10 value="0.204249090499726" flag="0"/>
			<psa30 value="0.0112995935426189" flag="0"/>
		</comp>
		<comp name="--.HNN" depth="0.0">
			<acc value="0.986190921211221" flag="0"/>
			<vel value="0.36909211377854" flag="0"/>
			<psa03 value="2.95796828421725" flag="0"/>
			<psa10 value="0.33567168660196" flag="0"/>
			<psa30 value="0.0316717247629747" flag="0"/>
		</comp>
		<comp name="--.HNZ" depth="0.0">
			<acc value="0.78069049836353" flag="0"/>
			<vel value="0.209125670619859" flag="0"/>
			<psa03 value="1.56698580511888" flag="0"/>
			<psa10 value="0.162458767095882" flag="0"/>
			<psa30 value="0.0128854602651713" flag="0"/>
		</comp>
	</station>
	<station code="AMYA" name="AMYA" netid="HL" source="National Observatory of Athens Seismic Network" insttype="" lat="40.6901" lon="21.67899">
		<comp name="00.HNE" depth="0.0">
			<acc value="0.00389896462018251" flag="0"/>
			<vel value="0.000751933670153706" flag="0"/>
			<psa03 value="0.000806592495295564" flag="0"/>
			<psa10 value="0.000612321344533876" flag="0"/>
			<psa30 value="0.000117291884595231" flag="0"/>
		</comp>
		<comp name="00.HNN" depth="0.0">
			<acc value="0.00309080725707449" flag="0"/>
			<vel value="0.000625680606579472" flag="0"/>
			<psa03 value="0.000899838825398892" flag="0"/>
			<psa10 value="0.000476351136001064" flag="0"/>
			<psa30 value="0.000187919922730826" flag="0"/>
		</comp>
		<comp name="00.HNZ" depth="0.0">
			<acc value="0.00892027387450506" flag="0"/>
			<vel value="0.000736748532985334" flag="0"/>
			<psa03 value="0.000761373516685526" flag="0"/>
			<psa10 value="0.000301792218815734" flag="0"/>
			<psa30 value="8.4134408127074e-05" flag="0"/>
		</comp>
	</station>
	<station code="MESG" name="MESG" netid="IV" source="Italian National Seismic Network (INSN)" insttype="" lat="40.589408" lon="17.850423">
		<comp name="--.HNE" depth="0.0">
			<acc value="0.0050745424523281" flag="0"/>
			<vel value="0.00183591354101915" flag="0"/>
			<psa03 value="0.00825058171678414" flag="0"/>
			<psa10 value="0.00105622196170951" flag="0"/>
			<psa30 value="0.000108295396694613" flag="0"/>
		</comp>
		<comp name="--.HNN" depth="0.0">
			<acc value="0.00460177331481534" flag="0"/>
			<vel value="0.00133594218082203" flag="0"/>
			<psa03 value="0.00835892092496738" flag="0"/>
			<psa10 value="0.00180966456889442" flag="0"/>
			<psa30 value="0.000131760121690461" flag="0"/>
		</comp>
		<comp name="--.HNZ" depth="0.0">
			<acc value="0.00249148418758436" flag="0"/>
			<vel value="0.000754304713490258" flag="0"/>
			<psa03 value="0.00505622948164412" flag="0"/>
			<psa10 value="0.000544435460709697" flag="0"/>
			<psa30 value="8.65202562819212e-05" flag="0"/>
		</comp>
	</station>
</stationlist>
