<?xml version="1.0" encoding="UTF-8" standalone="yes"?>
<!DOCTYPE earthquake SYSTEM "stationlist.dtd">
<stationlist created="" xmlns="ch.ethz.sed.shakemap.usgs.xml">
  <station code="PHP" name="PHP" netid="AC" insttype="" lat="41.6847" lon="20.4408">
    <comp name="--.HHE">
      <acc value="0.0757698103" flag="0"/>
      <vel value="0.0104332756" flag="0"/>
      <psa03 value="0.0573696373" flag="0"/>
      <psa10 value="0.0071974979" flag="0"/>
      <psa30 value="0.0006307896" flag="0"/>
    </comp>
    <comp name="--.HHN">
      <acc value="0.0284061319" flag="0"/>
      <vel value="0.0108625546" flag="0"/>
      <psa03 value="0.0747869790" flag="0"/>
      <psa10 value="0.0085743442" flag="0"/>
      <psa30 value="0.0006745126" flag="0"/>
    </comp>
    <comp name="--.HHZ">
      <acc value="0.0143690491" flag="0"/>
      <vel value="0.0059418447" flag="0"/>
      <psa03 value="0.0381036958" flag="0"/>
      <psa10 value="0.0041895359" flag="0"/>
      <psa30 value="0.0002522592" flag="0"/>
    </comp>
  </station>
  <station code="PDG" name="PDG" netid="MN" insttype="" lat="42.4297" lon="19.2608">
    <comp name="--.HHE">
      <acc value="0.0701284557" flag="0"/>
      <vel value="0.0163892910" flag="0"/>
      <psa03 value="0.0710091694" flag="0"/>
      <psa10 value="0.0032905511" flag="0"/>
      <psa30 value="0.0002870401" flag="0"/>
    </comp>
    <comp name="--.HHN">
      <acc value="0.0668408840" flag="0"/>
      <vel value="0.0161485856" flag="0"/>
      <psa03 value="0.0591752160" flag="0"/>
      <psa10 value="0.0033529221" flag="0"/>
      <psa30 value="0.0004691429" flag="0"/>
    </comp>
    <comp name="--.HHZ">
      <acc value="0.0638654892" flag="0"/>
      <vel value="0.0114181061" flag="0"/>
      <psa03 value="0.0377062749" flag="0"/>
      <psa10 value="0.0021982140" flag="0"/>
      <psa30 value="0.0002634812" flag="0"/>
    </comp>
  </station>
  <station code="TIR" name="TIR" netid="MN" insttype="" lat="41.3472" lon="19.8631">
    <comp name="--.HHE">
      <acc value="0.0268065902" flag="0"/>
      <vel value="0.0101521397" flag="0"/>
      <psa03 value="0.0817110853" flag="0"/>
      <psa10 value="0.0069755464" flag="0"/>
      <psa30 value="0.0005930404" flag="0"/>
    </comp>
    <comp name="--.HHZ">
      <acc value="0.0206494450" flag="0"/>
      <vel value="0.0068966826" flag="0"/>
      <psa03 value="0.0379955355" flag="0"/>
      <psa10 value="0.0082423716" flag="0"/>
      <psa30 value="0.0004674273" flag="0"/>
    </comp>
  </station>
</stationlist>
