<?xml version="1.0" encoding="UTF-8" standalone="yes"?>
<!DOCTYPE earthquake SYSTEM "stationlist.dtd">
<stationlist created="" xmlns="ch.ethz.sed.shakemap.usgs.xml">
  <station code="BNN" name="BNN" netid="KO" insttype="CMG-3T" lat="38.8521" lon="35.8472">
    <comp name="--.HHE">
      <acc value="0.0078260585" flag="0"/>
      <vel value="0.0071406499" flag="0"/>
      <psa03 value="0.0101656140" flag="0"/>
      <psa10 value="0.0142482003" flag="0"/>
      <psa30 value="0.0011339129" flag="0"/>
    </comp>
    <comp name="--.HHZ">
      <acc value="0.0026150899" flag="0"/>
      <vel value="0.0026537094" flag="0"/>
      <psa03 value="0.0080896185" flag="0"/>
      <psa10 value="0.0053248112" flag="0"/>
      <psa30 value="0.0007297054" flag="0"/>
    </comp>
    <comp name="--.HHN">
      <acc value="0.0048005609" flag="0"/>
      <vel value="0.0053424346" flag="0"/>
      <psa03 value="0.0096215052" flag="0"/>
      <psa10 value="0.0112551025" flag="0"/>
      <psa30 value="0.0017257006" flag="0"/>
    </comp>
  </station>
  <station code="DARE" name="DARE" netid="KO" insttype="CMG-3ESP" lat="38.5712" lon="37.4832">
    <comp name="--.HHE">
      <acc value="0.0096633175" flag="0"/>
      <vel value="0.0092606453" flag="0"/>
      <psa03 value="0.0229745487" flag="0"/>
      <psa10 value="0.0126003941" flag="0"/>
      <psa30 value="0.0041176585" flag="0"/>
    </comp>
    <comp name="--.HHZ">
      <acc value="0.0069992917" flag="0"/>
      <vel value="0.0106914135" flag="0"/>
      <psa03 value="0.0225617965" flag="0"/>
      <psa10 value="0.0149638363" flag="0"/>
      <psa30 value="0.0035204063" flag="0"/>
    </comp>
    <comp name="--.HHN">
      <acc value="0.0091437806" flag="0"/>
      <vel value="0.0112589955" flag="0"/>
      <psa03 value="0.0166519430" flag="0"/>
      <psa10 value="0.0175010190" flag="0"/>
      <psa30 value="0.0038331313" flag="0"/>
    </comp>
  </station>
  <station code="GAZ" name="GAZ" netid="KO" insttype="CMG-3T" lat="37.1721" lon="37.2096">
    <comp name="--.HHE">
      <acc value="0.0098906652" flag="0"/>
      <vel value="0.0082800118" flag="0"/>
      <psa03 value="0.0273643568" flag="0"/>
      <psa10 value="0.0116873217" flag="0"/>
      <psa30 value="0.0019968167" flag="0"/>
    </comp>
    <comp name="--.HHN">
      <acc value="0.0071274734" flag="0"/>
      <vel value="0.0059008285" flag="0"/>
      <psa03 value="0.0204060849" flag="0"/>
      <psa10 value="0.0105288878" flag="0"/>
      <psa30 value="0.0011888451" flag="0"/>
    </comp>
    <comp name="--.HHZ">
      <acc value="0.0068128117" flag="0"/>
      <vel value="0.0051058637" flag="0"/>
      <psa03 value="0.0190206451" flag="0"/>
      <psa10 value="0.0088029461" flag="0"/>
      <psa30 value="0.0020153943" flag="0"/>
    </comp>
  </station>
  <station code="KMRS" name="KMRS" netid="KO" insttype="CMG-3T" lat="37.5053" lon="36.9">
    <comp name="--.HHZ">
      <acc value="0.0104107518" flag="0"/>
      <vel value="0.0090762771" flag="0"/>
      <psa03 value="0.0205200387" flag="0"/>
      <psa10 value="0.0108442596" flag="0"/>
      <psa30 value="0.0036926196" flag="0"/>
    </comp>
    <comp name="--.HHE">
      <acc value="0.0150315391" flag="0"/>
      <vel value="0.0119598452" flag="0"/>
      <psa03 value="0.0319496463" flag="0"/>
      <psa10 value="0.0185364861" flag="0"/>
      <psa30 value="0.0032348197" flag="0"/>
    </comp>
    <comp name="--.HHN">
      <acc value="0.0216721954" flag="0"/>
      <vel value="0.0214515994" flag="0"/>
      <psa03 value="0.0423527561" flag="0"/>
      <psa10 value="0.0272310857" flag="0"/>
      <psa30 value="0.0058156186" flag="0"/>
    </comp>
  </station>
  <station code="SARI" name="SARI" netid="KO" insttype="CMG-3T" lat="38.4072" lon="36.4181">
    <comp name="--.HHE">
      <acc value="0.0165453018" flag="0"/>
      <vel value="0.0155989868" flag="0"/>
      <psa03 value="0.0359253742" flag="0"/>
      <psa10 value="0.0209259744" flag="0"/>
      <psa30 value="0.0049669968" flag="0"/>
    </comp>
    <comp name="--.HHN">
      <acc value="0.0178697721" flag="0"/>
      <vel value="0.0175782263" flag="0"/>
      <psa03 value="0.0463463023" flag="0"/>
      <psa10 value="0.0229065601" flag="0"/>
      <psa30 value="0.0041903274" flag="0"/>
    </comp>
    <comp name="--.HHZ">
      <acc value="0.0127572761" flag="0"/>
      <vel value="0.0101406715" flag="0"/>
      <psa03 value="0.0451232574" flag="0"/>
      <psa10 value="0.0210752435" flag="0"/>
      <psa30 value="0.0026683895" flag="0"/>
    </comp>
  </station>
  <station code="ANDN" name="ANDN" netid="TU" insttype="T" lat="37.58" lon="36.3452">
    <comp name="--.HHZ">
      <acc value="0.0279185491" flag="0"/>
      <vel value="0.0259534451" flag="0"/>
      <psa03 value="0.0468365037" flag="0"/>
      <psa10 value="0.0332784675" flag="0"/>
      <psa30 value="0.0050955935" flag="0"/>
    </comp>
    <comp name="--.HHE">
      <acc value="0.0468676580" flag="0"/>
      <vel value="0.0437760102" flag="0"/>
      <psa03 value="0.0842653013" flag="0"/>
      <psa10 value="0.0547861796" flag="0"/>
      <psa30 value="0.0082221279" flag="0"/>
    </comp>
    <comp name="--.HHN">
      <acc value="0.0387550882" flag="0"/>
      <vel value="0.0370560429" flag="0"/>
      <psa03 value="0.0656193012" flag="0"/>
      <psa10 value="0.0490651207" flag="0"/>
      <psa30 value="0.0063870836" flag="0"/>
    </comp>
  </station>
</stationlist>
