<?xml version="1.0" encoding="UTF-8" standalone="yes"?>
<!DOCTYPE earthquake SYSTEM "stationlist.dtd">
<stationlist created="" xmlns="ch.ethz.sed.shakemap.usgs.xml">
  <station code="DARE" name="DARE" netid="KO" insttype="CMG-3ESP" lat="38.5712" lon="37.4832">
    <comp name="--.HHZ">
      <acc value="0.0069992918" flag="0"/>
      <vel value="0.0106914139" flag="0"/>
      <psa03 value="0.0225617965" flag="0"/>
      <psa10 value="0.0149638363" flag="0"/>
      <psa30 value="0.0035204065" flag="0"/>
    </comp>
    <comp name="--.HHE">
      <acc value="0.0096633176" flag="0"/>
      <vel value="0.0092606456" flag="0"/>
      <psa03 value="0.0229745487" flag="0"/>
      <psa10 value="0.0126003941" flag="0"/>
      <psa30 value="0.0041176582" flag="0"/>
    </comp>
    <comp name="--.HHN">
      <acc value="0.0091437805" flag="0"/>
      <vel value="0.0112589963" flag="0"/>
      <psa03 value="0.0166519430" flag="0"/>
      <psa10 value="0.0175010190" flag="0"/>
      <psa30 value="0.0038331312" flag="0"/>
    </comp>
  </station>
  <station code="GAZ" name="GAZ" netid="KO" insttype="CMG-3T" lat="37.1721" lon="37.2096">
    <comp name="--.HHN">
      <acc value="0.0071274727" flag="0"/>
      <vel value="0.0059008284" flag="0"/>
      <psa03 value="0.0204060849" flag="0"/>
      <psa10 value="0.0105288879" flag="0"/>
      <psa30 value="0.0011888472" flag="0"/>
    </comp>
    <comp name="--.HHE">
      <acc value="0.0098906683" flag="0"/>
      <vel value="0.0082800120" flag="0"/>
      <psa03 value="0.0273643568" flag="0"/>
      <psa10 value="0.0116873217" flag="0"/>
      <psa30 value="0.0019968149" flag="0"/>
    </comp>
    <comp name="--.HHZ">
      <acc value="0.0068128115" flag="0"/>
      <vel value="0.0051058641" flag="0"/>
      <psa03 value="0.0190206451" flag="0"/>
      <psa10 value="0.0088029461" flag="0"/>
      <psa30 value="0.0020153947" flag="0"/>
    </comp>
  </station>
  <station code="KMRS" name="KMRS" netid="KO" insttype="CMG-3T" lat="37.5053" lon="36.9">
    <comp name="--.HHE">
      <acc value="0.0150315387" flag="0"/>
      <vel value="0.0119598452" flag="0"/>
      <psa03 value="0.0319496463" flag="0"/>
      <psa10 value="0.0185364861" flag="0"/>
      <psa30 value="0.0032348141" flag="0"/>
    </comp>
    <comp name="--.HHN">
      <acc value="0.0216721960" flag="0"/>
      <vel value="0.0214515996" flag="0"/>
      <psa03 value="0.0423527561" flag="0"/>
      <psa10 value="0.0272310858" flag="0"/>
      <psa30 value="0.0058156244" flag="0"/>
    </comp>
    <comp name="--.HHZ">
      <acc value="0.0104107517" flag="0"/>
      <vel value="0.0090762774" flag="0"/>
      <psa03 value="0.0205200387" flag="0"/>
      <psa10 value="0.0108442597" flag="0"/>
      <psa30 value="0.0036926309" flag="0"/>
    </comp>
  </station>
  <station code="SARI" name="SARI" netid="KO" insttype="CMG-3T" lat="38.4072" lon="36.4181">
    <comp name="--.HHE">
      <acc value="0.0165453016" flag="0"/>
      <vel value="0.0155989865" flag="0"/>
      <psa03 value="0.0359253742" flag="0"/>
      <psa10 value="0.0209259744" flag="0"/>
      <psa30 value="0.0049670299" flag="0"/>
    </comp>
    <comp name="--.HHN">
      <acc value="0.0178697726" flag="0"/>
      <vel value="0.0175782249" flag="0"/>
      <psa03 value="0.0463463023" flag="0"/>
      <psa10 value="0.0229065600" flag="0"/>
      <psa30 value="0.0041903399" flag="0"/>
    </comp>
    <comp name="--.HHZ">
      <acc value="0.0127572761" flag="0"/>
      <vel value="0.0101406718" flag="0"/>
      <psa03 value="0.0451232574" flag="0"/>
      <psa10 value="0.0210752434" flag="0"/>
      <psa30 value="0.0026683900" flag="0"/>
    </comp>
  </station>
  <station code="ANDN" name="ANDN" netid="TU" insttype="T" lat="37.58" lon="36.3452">
    <comp name="--.HHZ">
      <acc value="0.0279185486" flag="0"/>
      <vel value="0.0259534450" flag="0"/>
      <psa03 value="0.0468365037" flag="0"/>
      <psa10 value="0.0332784675" flag="0"/>
      <psa30 value="0.0050955933" flag="0"/>
    </comp>
    <comp name="--.HHN">
      <acc value="0.0387550884" flag="0"/>
      <vel value="0.0370560429" flag="0"/>
      <psa03 value="0.0656193012" flag="0"/>
      <psa10 value="0.0490651207" flag="0"/>
      <psa30 value="0.0063870860" flag="0"/>
    </comp>
    <comp name="--.HHE">
      <acc value="0.0468676578" flag="0"/>
      <vel value="0.0437760101" flag="0"/>
      <psa03 value="0.0842653013" flag="0"/>
      <psa10 value="0.0547861796" flag="0"/>
      <psa30 value="0.0082221256" flag="0"/>
    </comp>
  </station>
</stationlist>
