<?xml version="1.0" encoding="UTF-8" standalone="yes"?>
<!DOCTYPE earthquake SYSTEM "stationlist.dtd">
<stationlist created="" xmlns="ch.ethz.sed.shakemap.usgs.xml">
  <station code="GAZ" name="GAZ" netid="KO" insttype="CMG-3T" lat="37.1721" lon="37.2096">
    <comp name="--.HHE">
      <acc value="0.0108982616" flag="0"/>
      <vel value="0.0021456769" flag="0"/>
      <psa03 value="0.0154206731" flag="0"/>
      <psa10 value="0.0012921055" flag="0"/>
      <psa30 value="0.0001395163" flag="0"/>
    </comp>
    <comp name="--.HHZ">
      <acc value="0.0090272270" flag="0"/>
      <vel value="0.0023099255" flag="0"/>
      <psa03 value="0.0056420551" flag="0"/>
      <psa10 value="0.0008164231" flag="0"/>
      <psa30 value="0.0001706202" flag="0"/>
    </comp>
    <comp name="--.HHN">
      <acc value="0.0082361041" flag="0"/>
      <vel value="0.0013546035" flag="0"/>
      <psa03 value="0.0064033523" flag="0"/>
      <psa10 value="0.0010683060" flag="0"/>
      <psa30 value="0.0001655106" flag="0"/>
    </comp>
  </station>
  <station code="KMRS" name="KMRS" netid="KO" insttype="CMG-3T" lat="37.5053" lon="36.9">
    <comp name="--.HHE">
      <acc value="0.0005695364" flag="0"/>
      <vel value="0.0003160202" flag="0"/>
      <psa03 value="0.0015045019" flag="0"/>
      <psa10 value="0.0003676943" flag="0"/>
      <psa30 value="0.0000739112" flag="0"/>
    </comp>
    <comp name="--.HHN">
      <acc value="0.0092277337" flag="0"/>
      <vel value="0.0027499693" flag="0"/>
      <psa03 value="0.0160992597" flag="0"/>
      <psa10 value="0.0024993119" flag="0"/>
      <psa30 value="0.0002767117" flag="0"/>
    </comp>
    <comp name="--.HHZ">
      <acc value="0.0084066716" flag="0"/>
      <vel value="0.0019373694" flag="0"/>
      <psa03 value="0.0087341675" flag="0"/>
      <psa10 value="0.0016696158" flag="0"/>
      <psa30 value="0.0002220922" flag="0"/>
    </comp>
  </station>
  <station code="ANDN" name="ANDN" netid="TU" insttype="T" lat="37.58" lon="36.3452">
    <comp name="--.HHZ">
      <acc value="0.0094297115" flag="0"/>
      <vel value="0.0029978831" flag="0"/>
      <psa03 value="0.0190863745" flag="0"/>
      <psa10 value="0.0025028219" flag="0"/>
      <psa30 value="0.0002176713" flag="0"/>
    </comp>
    <comp name="--.HHE">
      <acc value="0.0304892187" flag="0"/>
      <vel value="0.0082035514" flag="0"/>
      <psa03 value="0.0219106092" flag="0"/>
      <psa10 value="0.0027592961" flag="0"/>
      <psa30 value="0.0006010509" flag="0"/>
    </comp>
    <comp name="--.HHN">
      <acc value="0.0417962867" flag="0"/>
      <vel value="0.0095629345" flag="0"/>
      <psa03 value="0.0363855660" flag="0"/>
      <psa10 value="0.0035051365" flag="0"/>
      <psa30 value="0.0003776844" flag="0"/>
    </comp>
  </station>
</stationlist>
