<?xml version="1.0" encoding="UTF-8" standalone="yes"?>
<!DOCTYPE earthquake SYSTEM "stationlist.dtd">
<stationlist created="" xmlns="ch.ethz.sed.shakemap.usgs.xml">
  <station code="IMMV" name="IMMV" netid="GE" insttype="STS-2/N" commtype="DIG" lat="35.4606" lon="23.9811">
    <comp name="--.HHN">
      <acc value="0.0762196793" flag="0"/>
      <vel value="0.0453401461" flag="0"/>
      <psa03 value="0.3480652913" flag="0"/>
      <psa10 value="0.0249064921" flag="0"/>
      <psa30 value="0.0022208836" flag="0"/>
    </comp>
    <comp name="--.HHE">
      <acc value="0.0959025059" flag="0"/>
      <vel value="0.0524632461" flag="0"/>
      <psa03 value="0.3616258390" flag="0"/>
      <psa10 value="0.0398309206" flag="0"/>
      <psa30 value="0.0029704587" flag="0"/>
    </comp>
    <comp name="--.HHZ">
      <acc value="0.0625735111" flag="0"/>
      <vel value="0.0364650740" flag="0"/>
      <psa03 value="0.2253477376" flag="0"/>
      <psa10 value="0.0251877519" flag="0"/>
      <psa30 value="0.0013043427" flag="0"/>
    </comp>
  </station>
</stationlist>
