<?xml version="1.0" encoding="UTF-8" standalone="yes"?>
<!DOCTYPE earthquake SYSTEM "stationlist.dtd">
<stationlist created="" xmlns="ch.ethz.sed.shakemap.usgs.xml">
  <station code="IMMV" name="IMMV" netid="GE" insttype="STS-2/N" commtype="DIG" lat="35.4606" lon="23.9811">
    <comp name="--.HHN">
      <acc value="0.0762196793" flag="0"/>
      <vel value="0.0453401461" flag="0"/>
      <psa03 value="0.3480652913" flag="0"/>
      <psa10 value="0.0249064921" flag="0"/>
      <psa30 value="0.0022208836" flag="0"/>
    </comp>
    <comp name="--.HHE">
      <acc value="0.0959025059" flag="0"/>
      <vel value="0.0524632461" flag="0"/>
      <psa03 value="0.3616258390" flag="0"/>
      <psa10 value="0.0398309206" flag="0"/>
      <psa30 value="0.0029704587" flag="0"/>
    </comp>
    <comp name="--.HHZ">
      <acc value="0.0625735111" flag="0"/>
      <vel value="0.0364650740" flag="0"/>
      <psa03 value="0.2253477376" flag="0"/>
      <psa10 value="0.0251877519" flag="0"/>
      <psa30 value="0.0013043427" flag="0"/>
    </comp>
  </station>
  <station code="ATEI" name="ATEI" netid="HC" insttype="DC" commtype="DIG" lat="35.5193" lon="24.0432">
    <comp name="--.HNZ">
      <acc value="0.0227851802" flag="0"/>
      <vel value="0.0087899648" flag="0"/>
      <psa03 value="0.0579950080" flag="0"/>
      <psa10 value="0.0076634882" flag="0"/>
      <psa30 value="0.0008690255" flag="0"/>
    </comp>
    <comp name="--.HNN">
      <acc value="0.0268150073" flag="0"/>
      <vel value="0.0139968682" flag="0"/>
      <psa03 value="0.0820642586" flag="0"/>
      <psa10 value="0.0106301056" flag="0"/>
      <psa30 value="0.0011376411" flag="0"/>
    </comp>
    <comp name="--.HNE">
      <acc value="0.0455353778" flag="0"/>
      <vel value="0.0259150087" flag="0"/>
      <psa03 value="0.1283521366" flag="0"/>
      <psa10 value="0.0288132878" flag="0"/>
      <psa30 value="0.0009710773" flag="0"/>
    </comp>
  </station>
  <station code="CHAN" name="CHAN" netid="HC" insttype="120" commtype="DIG" lat="35.5193" lon="24.0428">
    <comp name="--.HHE">
      <acc value="0.0874767116" flag="0"/>
      <vel value="0.0517899506" flag="0"/>
      <psa03 value="0.2475346989" flag="0"/>
      <psa10 value="0.0555703598" flag="0"/>
      <psa30 value="0.0021576290" flag="0"/>
    </comp>
    <comp name="--.HHN">
      <acc value="0.0449626520" flag="0"/>
      <vel value="0.0241527670" flag="0"/>
      <psa03 value="0.1571457479" flag="0"/>
      <psa10 value="0.0185365729" flag="0"/>
      <psa30 value="0.0017665103" flag="0"/>
    </comp>
    <comp name="--.HHZ">
      <acc value="0.0420275775" flag="0"/>
      <vel value="0.0173070026" flag="0"/>
      <psa03 value="0.1124848806" flag="0"/>
      <psa10 value="0.0147943791" flag="0"/>
      <psa30 value="0.0013441777" flag="0"/>
    </comp>
  </station>
  <station code="IMOD" name="IMOD" netid="HC" insttype="120" commtype="DIG" lat="34.9731" lon="24.7995">
    <comp name="--.HHN">
      <acc value="0.0480603802" flag="0"/>
      <vel value="0.0286845763" flag="0"/>
      <psa03 value="0.2014870348" flag="0"/>
      <psa10 value="0.0155236771" flag="0"/>
      <psa30 value="0.0014912943" flag="0"/>
    </comp>
    <comp name="--.HHZ">
      <acc value="0.0610105582" flag="0"/>
      <vel value="0.0245133781" flag="0"/>
      <psa03 value="0.1032780925" flag="0"/>
      <psa10 value="0.0128691215" flag="0"/>
      <psa30 value="0.0005757763" flag="0"/>
    </comp>
    <comp name="--.HHE">
      <acc value="0.0347939407" flag="0"/>
      <vel value="0.0233544382" flag="0"/>
      <psa03 value="0.1382014405" flag="0"/>
      <psa10 value="0.0170153159" flag="0"/>
      <psa30 value="0.0013474440" flag="0"/>
    </comp>
  </station>
  <station code="IPPL" name="IPPL" netid="HC" insttype="60" commtype="DIG" lat="35.3486" lon="24.4632">
    <comp name="--.HHE">
      <acc value="0.0000000000" flag="0"/>
      <vel value="-100.0000000000" flag="0"/>
      <psa03 value="0.0000000000" flag="0"/>
      <psa10 value="0.0000000000" flag="0"/>
      <psa30 value="0.0000000000" flag="0"/>
    </comp>
    <comp name="--.HHN">
      <acc value="0.0000000000" flag="0"/>
      <vel value="-100.0000000000" flag="0"/>
      <psa03 value="0.0000000000" flag="0"/>
      <psa10 value="0.0000000000" flag="0"/>
      <psa30 value="0.0000000000" flag="0"/>
    </comp>
    <comp name="--.HHZ">
      <acc value="0.0490278906" flag="0"/>
      <vel value="0.0213324115" flag="0"/>
      <psa03 value="0.0830765367" flag="0"/>
      <psa10 value="0.0066945275" flag="0"/>
      <psa30 value="0.0006747214" flag="0"/>
    </comp>
  </station>
  <station code="KNDR" name="KNDR" netid="HC" insttype="120" commtype="DIG" lat="35.2348" lon="23.6248">
    <comp name="--.HHE">
      <acc value="0.0369001522" flag="0"/>
      <vel value="0.0164469611" flag="0"/>
      <psa03 value="0.1055703891" flag="0"/>
      <psa10 value="0.0134375565" flag="0"/>
      <psa30 value="0.0009670572" flag="0"/>
    </comp>
    <comp name="--.HHN">
      <acc value="0.0389226328" flag="0"/>
      <vel value="0.0212427706" flag="0"/>
      <psa03 value="0.1508029091" flag="0"/>
      <psa10 value="0.0149931412" flag="0"/>
      <psa30 value="0.0012566566" flag="0"/>
    </comp>
    <comp name="--.HHZ">
      <acc value="0.0306042300" flag="0"/>
      <vel value="0.0140745326" flag="0"/>
      <psa03 value="0.0753713796" flag="0"/>
      <psa10 value="0.0059566486" flag="0"/>
      <psa30 value="0.0005626010" flag="0"/>
    </comp>
  </station>
  <station code="PFKS" name="PFKS" netid="HC" insttype="120" commtype="DIG" lat="35.0429" lon="25.4733">
    <comp name="--.HHE">
      <acc value="0.0087005489" flag="0"/>
      <vel value="0.0042322522" flag="0"/>
      <psa03 value="0.0206511761" flag="0"/>
      <psa10 value="0.0029438313" flag="0"/>
      <psa30 value="0.0001908318" flag="0"/>
    </comp>
    <comp name="--.HHN">
      <acc value="0.0090518873" flag="0"/>
      <vel value="0.0053696398" flag="0"/>
      <psa03 value="0.0314987064" flag="0"/>
      <psa10 value="0.0070652745" flag="0"/>
      <psa30 value="0.0003186123" flag="0"/>
    </comp>
    <comp name="--.HHZ">
      <acc value="0.0040218590" flag="0"/>
      <vel value="0.0019463170" flag="0"/>
      <psa03 value="0.0098393448" flag="0"/>
      <psa10 value="0.0036969578" flag="0"/>
      <psa30 value="0.0002001606" flag="0"/>
    </comp>
  </station>
  <station code="ARK1" name="ARK1" netid="HI" insttype="unknown" commtype="DIG" lat="35.1488" lon="25.2642">
    <comp name="--.HNN">
      <acc value="0.0157603831" flag="0"/>
      <vel value="0.0088709003" flag="0"/>
      <psa03 value="0.0535245007" flag="0"/>
      <psa10 value="0.0060476737" flag="0"/>
      <psa30 value="0.0006701845" flag="0"/>
    </comp>
    <comp name="--.HNE">
      <acc value="0.0118052535" flag="0"/>
      <vel value="0.0079047766" flag="0"/>
      <psa03 value="0.0659831091" flag="0"/>
      <psa10 value="0.0071980871" flag="0"/>
      <psa30 value="0.0005525501" flag="0"/>
    </comp>
    <comp name="--.HNZ">
      <acc value="0.0092559366" flag="0"/>
      <vel value="0.0045293347" flag="0"/>
      <psa03 value="0.0249596363" flag="0"/>
      <psa10 value="0.0065575615" flag="0"/>
      <psa30 value="0.0004524368" flag="0"/>
    </comp>
  </station>
  <station code="CH02" name="CH02" netid="HI" insttype="unknown" commtype="DIG" lat="35.5145" lon="24.0315">
    <comp name="--.HNE">
      <acc value="0.0243252370" flag="0"/>
      <vel value="0.0175245110" flag="0"/>
      <psa03 value="0.0791382285" flag="0"/>
      <psa10 value="0.0183339341" flag="0"/>
      <psa30 value="0.0008474458" flag="0"/>
    </comp>
    <comp name="--.HNN">
      <acc value="0.0228324225" flag="0"/>
      <vel value="0.0148996405" flag="0"/>
      <psa03 value="0.0799928315" flag="0"/>
      <psa10 value="0.0152576459" flag="0"/>
      <psa30 value="0.0013626756" flag="0"/>
    </comp>
    <comp name="--.HNZ">
      <acc value="0.0263310467" flag="0"/>
      <vel value="0.0130362111" flag="0"/>
      <psa03 value="0.0458082681" flag="0"/>
      <psa10 value="0.0096291082" flag="0"/>
      <psa30 value="0.0008610109" flag="0"/>
    </comp>
  </station>
  <station code="CH03" name="CH03" netid="HI" insttype="unknown" commtype="DIG" lat="35.533" lon="24.0705">
    <comp name="--.HNN">
      <acc value="0.0149808136" flag="0"/>
      <vel value="0.0098671793" flag="0"/>
      <psa03 value="0.0393074619" flag="0"/>
      <psa10 value="0.0132131900" flag="0"/>
      <psa30 value="0.0009774184" flag="0"/>
    </comp>
    <comp name="--.HNE">
      <acc value="0.0126220929" flag="0"/>
      <vel value="0.0069930106" flag="0"/>
      <psa03 value="0.0392808467" flag="0"/>
      <psa10 value="0.0121488703" flag="0"/>
      <psa30 value="0.0008715673" flag="0"/>
    </comp>
    <comp name="--.HNZ">
      <acc value="0.0166655952" flag="0"/>
      <vel value="0.0088293909" flag="0"/>
      <psa03 value="0.0342048323" flag="0"/>
      <psa10 value="0.0085603948" flag="0"/>
      <psa30 value="0.0006774508" flag="0"/>
    </comp>
  </station>
  <station code="GOR1" name="GOR1" netid="HI" insttype="unknown" commtype="DIG" lat="35.0582" lon="24.9628">
    <comp name="--.HNN">
      <acc value="0.0200253365" flag="0"/>
      <vel value="0.0143035262" flag="0"/>
      <psa03 value="0.0678867821" flag="0"/>
      <psa10 value="0.0126370398" flag="0"/>
      <psa30 value="0.0010525777" flag="0"/>
    </comp>
    <comp name="--.HNE">
      <acc value="0.0222006312" flag="0"/>
      <vel value="0.0174162778" flag="0"/>
      <psa03 value="0.0831800803" flag="0"/>
      <psa10 value="0.0195255505" flag="0"/>
      <psa30 value="0.0011476088" flag="0"/>
    </comp>
    <comp name="--.HNZ">
      <acc value="0.0132701273" flag="0"/>
      <vel value="0.0089046392" flag="0"/>
      <psa03 value="0.0443213064" flag="0"/>
      <psa10 value="0.0093600203" flag="0"/>
      <psa30 value="0.0005032013" flag="0"/>
    </comp>
  </station>
  <station code="KTL1" name="KTL1" netid="HI" insttype="unknown" commtype="DIG" lat="35.2078" lon="25.3427">
    <comp name="--.HNN">
      <acc value="0.0093082767" flag="0"/>
      <vel value="0.0044758847" flag="0"/>
      <psa03 value="0.0301189386" flag="0"/>
      <psa10 value="0.0042710840" flag="0"/>
      <psa30 value="0.0004315492" flag="0"/>
    </comp>
    <comp name="--.HNE">
      <acc value="0.0073990879" flag="0"/>
      <vel value="0.0045291131" flag="0"/>
      <psa03 value="0.0255160320" flag="0"/>
      <psa10 value="0.0043343007" flag="0"/>
      <psa30 value="0.0003561294" flag="0"/>
    </comp>
    <comp name="--.HNZ">
      <acc value="0.0054011231" flag="0"/>
      <vel value="0.0031814668" flag="0"/>
      <psa03 value="0.0114082453" flag="0"/>
      <psa10 value="0.0024237824" flag="0"/>
      <psa30 value="0.0002378685" flag="0"/>
    </comp>
  </station>
  <station code="RTH1" name="RTH1" netid="HI" insttype="unknown" commtype="DIG" lat="35.3654" lon="24.4718">
    <comp name="--.HNN">
      <acc value="0.0428388179" flag="0"/>
      <vel value="0.0201804303" flag="0"/>
      <psa03 value="0.1986169363" flag="0"/>
      <psa10 value="0.0076509343" flag="0"/>
      <psa30 value="0.0008262102" flag="0"/>
    </comp>
    <comp name="--.HNE">
      <acc value="0.0395435031" flag="0"/>
      <vel value="0.0177410486" flag="0"/>
      <psa03 value="0.1631276181" flag="0"/>
      <psa10 value="0.0069802466" flag="0"/>
      <psa30 value="0.0006691780" flag="0"/>
    </comp>
    <comp name="--.HNZ">
      <acc value="0.0349639131" flag="0"/>
      <vel value="0.0123493323" flag="0"/>
      <psa03 value="0.0618283022" flag="0"/>
      <psa10 value="0.0043861990" flag="0"/>
      <psa30 value="0.0004923885" flag="0"/>
    </comp>
  </station>
  <station code="CHNB" name="CHNB" netid="HL" insttype="CMG-5" commtype="DIG" lat="35.4877" lon="24.0661">
    <comp name="00.HNE">
      <acc value="0.0707826863" flag="0"/>
      <vel value="0.0410336854" flag="0"/>
      <psa03 value="0.2069842458" flag="0"/>
      <psa10 value="0.0614285438" flag="0"/>
      <psa30 value="0.0020198222" flag="0"/>
    </comp>
    <comp name="00.HNN">
      <acc value="0.0468619673" flag="0"/>
      <vel value="0.0294574637" flag="0"/>
      <psa03 value="0.1787213514" flag="0"/>
      <psa10 value="0.0370414594" flag="0"/>
      <psa30 value="0.0022226040" flag="0"/>
    </comp>
    <comp name="00.HNZ">
      <acc value="0.0534703717" flag="0"/>
      <vel value="0.0252490793" flag="0"/>
      <psa03 value="0.1929666538" flag="0"/>
      <psa10 value="0.0191369041" flag="0"/>
      <psa30 value="0.0010433224" flag="0"/>
    </comp>
  </station>
  <station code="IMMV" name="IMMV" netid="HL" insttype="120" commtype="DIG" lat="35.4606" lon="23.9811">
    <comp name="--.HHE">
      <acc value="0.0939122807" flag="0"/>
      <vel value="0.0510072516" flag="0"/>
      <psa03 value="0.3517573044" flag="0"/>
      <psa10 value="0.0396072994" flag="0"/>
      <psa30 value="0.0029312801" flag="0"/>
    </comp>
    <comp name="--.HHN">
      <acc value="0.0743316042" flag="0"/>
      <vel value="0.0446052369" flag="0"/>
      <psa03 value="0.3381608945" flag="0"/>
      <psa10 value="0.0247102782" flag="0"/>
      <psa30 value="0.0021885644" flag="0"/>
    </comp>
    <comp name="--.HHZ">
      <acc value="0.0610741912" flag="0"/>
      <vel value="0.0355227525" flag="0"/>
      <psa03 value="0.2191237403" flag="0"/>
      <psa10 value="0.0249221217" flag="0"/>
      <psa30 value="0.0012945149" flag="0"/>
    </comp>
  </station>
  <station code="SIVA" name="SIVA" netid="HL" insttype="60" commtype="DIG" lat="35.0178" lon="24.812">
    <comp name="--.HHE">
      <acc value="0.0870183759" flag="0"/>
      <vel value="0.0453958092" flag="0"/>
      <psa03 value="0.2391502341" flag="0"/>
      <psa10 value="0.0245779202" flag="0"/>
      <psa30 value="0.0016157815" flag="0"/>
    </comp>
    <comp name="--.HHN">
      <acc value="0.0540328386" flag="0"/>
      <vel value="0.0224684665" flag="0"/>
      <psa03 value="0.1493313626" flag="0"/>
      <psa10 value="0.0239530142" flag="0"/>
      <psa30 value="0.0016901952" flag="0"/>
    </comp>
    <comp name="--.HHZ">
      <acc value="0.0384172216" flag="0"/>
      <vel value="0.0194910873" flag="0"/>
      <psa03 value="0.1321427679" flag="0"/>
      <psa10 value="0.0103772801" flag="0"/>
      <psa30 value="0.0007428822" flag="0"/>
    </comp>
  </station>
</stationlist>
