<?xml version="1.0" encoding="UTF-8" standalone="yes"?>
<!DOCTYPE earthquake SYSTEM "stationlist.dtd">
<stationlist created="" xmlns="ch.ethz.sed.shakemap.usgs.xml">
  <station code="ATAL" name="ATAL" netid="HA" insttype="120" lat="38.6926" lon="23.0213">
    <comp name="--.HHZ">
      <acc value="1.6112543937" flag="0"/>
      <vel value="0.3059346154" flag="0"/>
      <psa03 value="0.9016074674" flag="0"/>
      <psa10 value="0.0986589753" flag="0"/>
      <psa30 value="0.0095412436" flag="0"/>
    </comp>
    <comp name="--.HHN">
      <acc value="1.7111879289" flag="0"/>
      <vel value="0.3404315550" flag="0"/>
      <psa03 value="0.8827835096" flag="0"/>
      <psa10 value="0.0764127155" flag="0"/>
      <psa30 value="0.0116432209" flag="0"/>
    </comp>
    <comp name="--.HHE">
      <acc value="1.8026972497" flag="0"/>
      <vel value="0.3951397818" flag="0"/>
      <psa03 value="0.6120655974" flag="0"/>
      <psa10 value="0.1109477813" flag="0"/>
      <psa30 value="0.0134213893" flag="0"/>
    </comp>
  </station>
  <station code="ATHU" name="ATHU" netid="HA" insttype="60" lat="37.9665" lon="23.7845">
    <comp name="--.HHN">
      <acc value="0.0024047169" flag="0"/>
      <vel value="0.0018996482" flag="0"/>
      <psa03 value="0.0064146960" flag="0"/>
      <psa10 value="0.0014591240" flag="0"/>
      <psa30 value="0.0005220182" flag="0"/>
    </comp>
    <comp name="--.HHE">
      <acc value="0.0026773246" flag="0"/>
      <vel value="0.0015461556" flag="0"/>
      <psa03 value="0.0044405120" flag="0"/>
      <psa10 value="0.0017681724" flag="0"/>
      <psa30 value="0.0002978296" flag="0"/>
    </comp>
    <comp name="--.HHZ">
      <acc value="0.0025130616" flag="0"/>
      <vel value="0.0015273521" flag="0"/>
      <psa03 value="0.0043123485" flag="0"/>
      <psa10 value="0.0027332209" flag="0"/>
      <psa30 value="0.0006295862" flag="0"/>
    </comp>
  </station>
  <station code="AXAR" name="AXAR" netid="HA" insttype="30" lat="38.7664" lon="22.659">
    <comp name="--.HHE">
      <acc value="0.0329389611" flag="0"/>
      <vel value="0.0143192537" flag="0"/>
      <psa03 value="0.0747082862" flag="0"/>
      <psa10 value="0.0144492562" flag="0"/>
      <psa30 value="0.0017275876" flag="0"/>
    </comp>
    <comp name="--.HHN">
      <acc value="0.0397722503" flag="0"/>
      <vel value="0.0130376634" flag="0"/>
      <psa03 value="0.0981439706" flag="0"/>
      <psa10 value="0.0150377836" flag="0"/>
      <psa30 value="0.0015294759" flag="0"/>
    </comp>
    <comp name="--.HHZ">
      <acc value="0.0327045584" flag="0"/>
      <vel value="0.0119148004" flag="0"/>
      <psa03 value="0.0706019659" flag="0"/>
      <psa10 value="0.0092063996" flag="0"/>
      <psa30 value="0.0009446142" flag="0"/>
    </comp>
  </station>
  <station code="DOMV" name="DOMV" netid="HA" insttype="60" lat="38.2569" lon="22.9795">
    <comp name="--.HHN">
      <acc value="0.0773278287" flag="0"/>
      <vel value="0.0205904419" flag="0"/>
      <psa03 value="0.0989907722" flag="0"/>
      <psa10 value="0.0110601417" flag="0"/>
      <psa30 value="0.0014225501" flag="0"/>
    </comp>
    <comp name="--.HHZ">
      <acc value="0.0640841731" flag="0"/>
      <vel value="0.0155747648" flag="0"/>
      <psa03 value="0.0839986388" flag="0"/>
      <psa10 value="0.0074450118" flag="0"/>
      <psa30 value="0.0010153569" flag="0"/>
    </comp>
    <comp name="--.HHE">
      <acc value="0.0921921636" flag="0"/>
      <vel value="0.0240247595" flag="0"/>
      <psa03 value="0.0993892268" flag="0"/>
      <psa10 value="0.0105832530" flag="0"/>
      <psa30 value="0.0013549730" flag="0"/>
    </comp>
  </station>
  <station code="EPID" name="EPID" netid="HA" insttype="30" lat="37.6144" lon="23.1189">
    <comp name="--.HHZ">
      <acc value="0.0031334779" flag="0"/>
      <vel value="0.0031298897" flag="0"/>
      <psa03 value="0.0064701679" flag="0"/>
      <psa10 value="0.0044868353" flag="0"/>
      <psa30 value="0.0011599585" flag="0"/>
    </comp>
    <comp name="--.HHN">
      <acc value="0.0036485646" flag="0"/>
      <vel value="0.0025294942" flag="0"/>
      <psa03 value="0.0074547548" flag="0"/>
      <psa10 value="0.0022786350" flag="0"/>
      <psa30 value="0.0005348551" flag="0"/>
    </comp>
    <comp name="--.HHE">
      <acc value="0.0041010961" flag="0"/>
      <vel value="0.0017977676" flag="0"/>
      <psa03 value="0.0104711956" flag="0"/>
      <psa10 value="0.0022971154" flag="0"/>
      <psa30 value="0.0004438064" flag="0"/>
    </comp>
  </station>
  <station code="KALE" name="KALE" netid="HA" insttype="40," lat="38.3911" lon="22.1398">
    <comp name="--.HHE">
      <acc value="0.0287879428" flag="0"/>
      <vel value="0.0158867559" flag="0"/>
      <psa03 value="0.0931658609" flag="0"/>
      <psa10 value="0.0258932703" flag="0"/>
      <psa30 value="0.0023274340" flag="0"/>
    </comp>
    <comp name="--.HHN">
      <acc value="0.0263411138" flag="0"/>
      <vel value="0.0148079372" flag="0"/>
      <psa03 value="0.0433929525" flag="0"/>
      <psa10 value="0.0154380409" flag="0"/>
      <psa30 value="0.0021088662" flag="0"/>
    </comp>
    <comp name="--.HHZ">
      <acc value="0.0127923908" flag="0"/>
      <vel value="0.0085024163" flag="0"/>
      <psa03 value="0.0436027539" flag="0"/>
      <psa10 value="0.0101924231" flag="0"/>
      <psa30 value="0.0026699030" flag="0"/>
    </comp>
  </station>
  <station code="LAKA" name="LAKA" netid="HA" insttype="120s" lat="38.2401" lon="21.9785">
    <comp name="--.HHE">
      <acc value="0.0024931764" flag="0"/>
      <vel value="0.0027744234" flag="0"/>
      <psa03 value="0.0062689546" flag="0"/>
      <psa10 value="0.0040536855" flag="0"/>
      <psa30 value="0.0013136700" flag="0"/>
    </comp>
    <comp name="--.HHN">
      <acc value="0.0032838986" flag="0"/>
      <vel value="0.0038776927" flag="0"/>
      <psa03 value="0.0074159885" flag="0"/>
      <psa10 value="0.0030832956" flag="0"/>
      <psa30 value="0.0018606067" flag="0"/>
    </comp>
    <comp name="--.HHZ">
      <acc value="0.0025190635" flag="0"/>
      <vel value="0.0028109197" flag="0"/>
      <psa03 value="0.0048570936" flag="0"/>
      <psa10 value="0.0039275691" flag="0"/>
      <psa30 value="0.0017114182" flag="0"/>
    </comp>
  </station>
  <station code="LOUT" name="LOUT" netid="HA" insttype="30" lat="37.9879" lon="22.9743">
    <comp name="--.HHN">
      <acc value="0.0244104626" flag="0"/>
      <vel value="0.0097516909" flag="0"/>
      <psa03 value="0.0513278163" flag="0"/>
      <psa10 value="0.0125343418" flag="0"/>
      <psa30 value="0.0008055823" flag="0"/>
    </comp>
    <comp name="--.HHZ">
      <acc value="0.0136790318" flag="0"/>
      <vel value="0.0051393725" flag="0"/>
      <psa03 value="0.0239164441" flag="0"/>
      <psa10 value="0.0044367231" flag="0"/>
      <psa30 value="0.0008559027" flag="0"/>
    </comp>
    <comp name="--.HHE">
      <acc value="0.0289688203" flag="0"/>
      <vel value="0.0104053823" flag="0"/>
      <psa03 value="0.0512054562" flag="0"/>
      <psa10 value="0.0078147491" flag="0"/>
      <psa30 value="0.0007968201" flag="0"/>
    </comp>
  </station>
  <station code="MDRA" name="MDRA" netid="HA" insttype="60" lat="38.0606" lon="23.4662">
    <comp name="--.HHE">
      <acc value="0.0056502602" flag="0"/>
      <vel value="0.0032119300" flag="0"/>
      <psa03 value="0.0148780565" flag="0"/>
      <psa10 value="0.0034071986" flag="0"/>
      <psa30 value="0.0003703757" flag="0"/>
    </comp>
    <comp name="--.HHN">
      <acc value="0.0048664414" flag="0"/>
      <vel value="0.0035120294" flag="0"/>
      <psa03 value="0.0102010078" flag="0"/>
      <psa10 value="0.0036275239" flag="0"/>
      <psa30 value="0.0005288734" flag="0"/>
    </comp>
    <comp name="--.HHZ">
      <acc value="0.0051702323" flag="0"/>
      <vel value="0.0020149264" flag="0"/>
      <psa03 value="0.0089268861" flag="0"/>
      <psa10 value="0.0025087404" flag="0"/>
      <psa30 value="0.0005399080" flag="0"/>
    </comp>
  </station>
  <station code="MRKA" name="MRKA" netid="HA" insttype="30" lat="38.7047" lon="23.5863">
    <comp name="--.HHE">
      <acc value="0.0200347778" flag="0"/>
      <vel value="0.0047851649" flag="0"/>
      <psa03 value="0.0223722436" flag="0"/>
      <psa10 value="0.0067847147" flag="0"/>
      <psa30 value="0.0010006458" flag="0"/>
    </comp>
    <comp name="--.HHN">
      <acc value="0.0179073279" flag="0"/>
      <vel value="0.0052041068" flag="0"/>
      <psa03 value="0.0269976896" flag="0"/>
      <psa10 value="0.0043709648" flag="0"/>
      <psa30 value="0.0009076232" flag="0"/>
    </comp>
    <comp name="--.HHZ">
      <acc value="0.0089742358" flag="0"/>
      <vel value="0.0031747135" flag="0"/>
      <psa03 value="0.0173919839" flag="0"/>
      <psa10 value="0.0042393205" flag="0"/>
      <psa30 value="0.0009362457" flag="0"/>
    </comp>
  </station>
  <station code="MRTH" name="MRTH" netid="HA" insttype="S100," lat="38.1225" lon="23.9409">
    <comp name="--.HHN">
      <acc value="0.0084191310" flag="0"/>
      <vel value="0.0056088571" flag="0"/>
      <psa03 value="0.0213433645" flag="0"/>
      <psa10 value="0.0051665023" flag="0"/>
      <psa30 value="0.0005469523" flag="0"/>
    </comp>
    <comp name="--.HHE">
      <acc value="0.0097315638" flag="0"/>
      <vel value="0.0040880915" flag="0"/>
      <psa03 value="0.0341507274" flag="0"/>
      <psa10 value="0.0060237851" flag="0"/>
      <psa30 value="0.0003446743" flag="0"/>
    </comp>
    <comp name="--.HHZ">
      <acc value="0.0069027899" flag="0"/>
      <vel value="0.0035288974" flag="0"/>
      <psa03 value="0.0136942557" flag="0"/>
      <psa10 value="0.0024033957" flag="0"/>
      <psa30 value="0.0005227649" flag="0"/>
    </comp>
  </station>
  <station code="STFN" name="STFN" netid="HA" insttype="1s-100Hz," lat="38.1766" lon="23.544">
    <comp name="--.HHE">
      <acc value="0.0118344295" flag="0"/>
      <vel value="0.0096377492" flag="0"/>
      <psa03 value="0.0355440753" flag="0"/>
      <psa10 value="0.0104826090" flag="0"/>
      <psa30 value="0.0015166919" flag="0"/>
    </comp>
    <comp name="--.HHN">
      <acc value="0.0117095839" flag="0"/>
      <vel value="0.0085054759" flag="0"/>
      <psa03 value="0.0247913062" flag="0"/>
      <psa10 value="0.0101106894" flag="0"/>
      <psa30 value="0.0014431956" flag="0"/>
    </comp>
    <comp name="--.HHZ">
      <acc value="0.0075071555" flag="0"/>
      <vel value="0.0048387361" flag="0"/>
      <psa03 value="0.0209098319" flag="0"/>
      <psa10 value="0.0052661296" flag="0"/>
      <psa30 value="0.0021807103" flag="0"/>
    </comp>
  </station>
  <station code="THAL" name="THAL" netid="HA" insttype="30" lat="38.0357" lon="22.6634">
    <comp name="--.HHE">
      <acc value="0.0265502617" flag="0"/>
      <vel value="0.0127283012" flag="0"/>
      <psa03 value="0.0663021069" flag="0"/>
      <psa10 value="0.0194410560" flag="0"/>
      <psa30 value="0.0033662339" flag="0"/>
    </comp>
    <comp name="--.HHZ">
      <acc value="0.0162891587" flag="0"/>
      <vel value="0.0055387575" flag="0"/>
      <psa03 value="0.0362925354" flag="0"/>
      <psa10 value="0.0099825968" flag="0"/>
      <psa30 value="0.0019261717" flag="0"/>
    </comp>
    <comp name="--.HHN">
      <acc value="0.0254290260" flag="0"/>
      <vel value="0.0116026694" flag="0"/>
      <psa03 value="0.0695398412" flag="0"/>
      <psa10 value="0.0174993620" flag="0"/>
      <psa30 value="0.0040659218" flag="0"/>
    </comp>
  </station>
  <station code="VILL" name="VILL" netid="HA" insttype="30" lat="38.1642" lon="23.3122">
    <comp name="--.HHE">
      <acc value="0.0229067049" flag="0"/>
      <vel value="0.0107471135" flag="0"/>
      <psa03 value="0.0581614965" flag="0"/>
      <psa10 value="0.0110628470" flag="0"/>
      <psa30 value="0.0022162491" flag="0"/>
    </comp>
    <comp name="--.HHZ">
      <acc value="0.0112258385" flag="0"/>
      <vel value="0.0050629780" flag="0"/>
      <psa03 value="0.0286307764" flag="0"/>
      <psa10 value="0.0071785501" flag="0"/>
      <psa30 value="0.0016702861" flag="0"/>
    </comp>
    <comp name="--.HHN">
      <acc value="0.0258764044" flag="0"/>
      <vel value="0.0136427627" flag="0"/>
      <psa03 value="0.0818954199" flag="0"/>
      <psa10 value="0.0110337657" flag="0"/>
      <psa30 value="0.0015612093" flag="0"/>
    </comp>
  </station>
  <station code="LAM2" name="LAM2" netid="HI" insttype="CMG-5TD,ACCELEROMETER,GURALP" lat="38.902" lon="22.4313">
    <comp name="--.HNE">
      <acc value="0.0538452847" flag="0"/>
      <vel value="0.0254002140" flag="0"/>
      <psa03 value="0.0835673075" flag="0"/>
      <psa10 value="0.0152761744" flag="0"/>
      <psa30 value="0.0007493507" flag="0"/>
    </comp>
    <comp name="--.HNZ">
      <acc value="0.0378834677" flag="0"/>
      <vel value="0.0132506260" flag="0"/>
      <psa03 value="0.0779904243" flag="0"/>
      <psa10 value="0.0060398268" flag="0"/>
      <psa30 value="0.0015564680" flag="0"/>
    </comp>
    <comp name="--.HNN">
      <acc value="0.0637777694" flag="0"/>
      <vel value="0.0222029025" flag="0"/>
      <psa03 value="0.0957850004" flag="0"/>
      <psa10 value="0.0178013905" flag="0"/>
      <psa30 value="0.0010941242" flag="0"/>
    </comp>
  </station>
  <station code="ATH" name="ATH" netid="HL" insttype="DR24" lat="37.9738" lon="23.7177">
    <comp name="--.HHE">
      <acc value="0.0141085573" flag="0"/>
      <vel value="0.0061290238" flag="0"/>
      <psa03 value="0.0382872628" flag="0"/>
      <psa10 value="0.0076932744" flag="0"/>
      <psa30 value="0.0011412582" flag="0"/>
    </comp>
    <comp name="--.HHN">
      <acc value="0.0109215194" flag="0"/>
      <vel value="0.0060942029" flag="0"/>
      <psa03 value="0.0168018567" flag="0"/>
      <psa10 value="0.0050237344" flag="0"/>
      <psa30 value="0.0015250091" flag="0"/>
    </comp>
    <comp name="--.HHZ">
      <acc value="0.0067854840" flag="0"/>
      <vel value="0.0033845978" flag="0"/>
      <psa03 value="0.0112047079" flag="0"/>
      <psa10 value="0.0039518539" flag="0"/>
      <psa30 value="0.0010818423" flag="0"/>
    </comp>
  </station>
  <station code="DION" name="DION" netid="HL" insttype="30" lat="38.0779" lon="23.9331">
    <comp name="--.HHE">
      <acc value="0.0081993848" flag="0"/>
      <vel value="0.0031646040" flag="0"/>
      <psa03 value="0.0198899055" flag="0"/>
      <psa10 value="0.0034681578" flag="0"/>
      <psa30 value="0.0005438875" flag="0"/>
    </comp>
    <comp name="--.HHN">
      <acc value="0.0067336756" flag="0"/>
      <vel value="0.0039720561" flag="0"/>
      <psa03 value="0.0142058686" flag="0"/>
      <psa10 value="0.0052967159" flag="0"/>
      <psa30 value="0.0005159905" flag="0"/>
    </comp>
    <comp name="--.HHZ">
      <acc value="0.0054295951" flag="0"/>
      <vel value="0.0028415152" flag="0"/>
      <psa03 value="0.0103618456" flag="0"/>
      <psa10 value="0.0042898775" flag="0"/>
      <psa30 value="0.0004862485" flag="0"/>
    </comp>
  </station>
  <station code="EVR" name="EVR" netid="HL" insttype="DR24" lat="38.9166" lon="21.8105">
    <comp name="--.HHZ">
      <acc value="0.0028557804" flag="0"/>
      <vel value="0.0026371362" flag="0"/>
      <psa03 value="0.0075779482" flag="0"/>
      <psa10 value="0.0031906271" flag="0"/>
      <psa30 value="0.0017788349" flag="0"/>
    </comp>
    <comp name="--.HHE">
      <acc value="0.0039178395" flag="0"/>
      <vel value="0.0024994158" flag="0"/>
      <psa03 value="0.0099790862" flag="0"/>
      <psa10 value="0.0046599564" flag="0"/>
      <psa30 value="0.0015103330" flag="0"/>
    </comp>
    <comp name="--.HHN">
      <acc value="0.0040496574" flag="0"/>
      <vel value="0.0022779391" flag="0"/>
      <psa03 value="0.0079645096" flag="0"/>
      <psa10 value="0.0038335927" flag="0"/>
      <psa30 value="0.0004625024" flag="0"/>
    </comp>
  </station>
  <station code="KLV" name="KLV" netid="HL" insttype="120" lat="38.0435" lon="22.1504">
    <comp name="--.HHE">
      <acc value="0.0040417902" flag="0"/>
      <vel value="0.0040037297" flag="0"/>
      <psa03 value="0.0076561887" flag="0"/>
      <psa10 value="0.0100814121" flag="0"/>
      <psa30 value="0.0005707024" flag="0"/>
    </comp>
    <comp name="--.HHN">
      <acc value="0.0062810590" flag="0"/>
      <vel value="0.0075389817" flag="0"/>
      <psa03 value="0.0066630549" flag="0"/>
      <psa10 value="0.0096478978" flag="0"/>
      <psa30 value="0.0006608632" flag="0"/>
    </comp>
    <comp name="--.HHZ">
      <acc value="0.0046938559" flag="0"/>
      <vel value="0.0060451385" flag="0"/>
      <psa03 value="0.0066507851" flag="0"/>
      <psa10 value="0.0129899298" flag="0"/>
      <psa30 value="0.0007635347" flag="0"/>
    </comp>
  </station>
  <station code="LKR" name="LKR" netid="HL" insttype="30" lat="38.6496" lon="22.9989">
    <comp name="--.HHE">
      <acc value="0.6998083647" flag="0"/>
      <vel value="0.1384724526" flag="0"/>
      <psa03 value="0.4361717515" flag="0"/>
      <psa10 value="0.0372434674" flag="0"/>
      <psa30 value="0.0121073918" flag="0"/>
    </comp>
    <comp name="--.HHZ">
      <acc value="0.5497305509" flag="0"/>
      <vel value="0.0777405937" flag="0"/>
      <psa03 value="0.1458377001" flag="0"/>
      <psa10 value="0.0428880065" flag="0"/>
      <psa30 value="0.0063281253" flag="0"/>
    </comp>
    <comp name="--.HHN">
      <acc value="0.6636657578" flag="0"/>
      <vel value="0.1095534182" flag="0"/>
      <psa03 value="0.2550369902" flag="0"/>
      <psa10 value="0.0527388331" flag="0"/>
      <psa30 value="0.0120614743" flag="0"/>
    </comp>
  </station>
  <station code="NEO" name="NEO" netid="HL" insttype="120" lat="39.3057" lon="23.2219">
    <comp name="--.HHZ">
      <acc value="0.0457613558" flag="0"/>
      <vel value="0.0182949671" flag="0"/>
      <psa03 value="0.0746717029" flag="0"/>
      <psa10 value="0.0087650841" flag="0"/>
      <psa30 value="0.0014755292" flag="0"/>
    </comp>
    <comp name="--.HHE">
      <acc value="0.1310872865" flag="0"/>
      <vel value="0.0583606560" flag="0"/>
      <psa03 value="0.1856819815" flag="0"/>
      <psa10 value="0.0187495274" flag="0"/>
      <psa30 value="0.0012287327" flag="0"/>
    </comp>
    <comp name="--.HHN">
      <acc value="0.1360875301" flag="0"/>
      <vel value="0.0548670960" flag="0"/>
      <psa03 value="0.2383670471" flag="0"/>
      <psa10 value="0.0295696774" flag="0"/>
      <psa30 value="0.0016664062" flag="0"/>
    </comp>
  </station>
  <station code="PTL" name="PTL" netid="HL" insttype="120" lat="38.0473" lon="23.8638">
    <comp name="--.HHN">
      <acc value="0.0002169946" flag="0"/>
      <vel value="0.0000429341" flag="0"/>
      <psa03 value="0.0000817450" flag="0"/>
      <psa10 value="0.0000390090" flag="0"/>
      <psa30 value="0.0000149131" flag="0"/>
    </comp>
    <comp name="--.HHZ">
      <acc value="0.0035529929" flag="0"/>
      <vel value="0.0024969710" flag="0"/>
      <psa03 value="0.0063294585" flag="0"/>
      <psa10 value="0.0028861014" flag="0"/>
      <psa30 value="0.0010301250" flag="0"/>
    </comp>
    <comp name="--.HHE">
      <acc value="0.0036265480" flag="0"/>
      <vel value="0.0022494735" flag="0"/>
      <psa03 value="0.0083199473" flag="0"/>
      <psa10 value="0.0035864892" flag="0"/>
      <psa30 value="0.0010644885" flag="0"/>
    </comp>
  </station>
  <station code="THI1" name="THI1" netid="HL" insttype="LE3D20_SMART24" lat="38.3878" lon="23.3945">
    <comp name="--.HHE">
      <acc value="0.1432927454" flag="0"/>
      <vel value="0.0430736139" flag="0"/>
      <psa03 value="0.1183354369" flag="0"/>
      <psa10 value="0.0144696819" flag="0"/>
      <psa30 value="0.0046984175" flag="0"/>
    </comp>
    <comp name="--.HHN">
      <acc value="0.0903218294" flag="0"/>
      <vel value="0.0254709605" flag="0"/>
      <psa03 value="0.1346679804" flag="0"/>
