<stationlist created="1778138317">
	<station code="MALA" name="MALA" netid="CL" source="Corinth Riff Laboratory (CRLNET)" insttype="" lat="38.39341" lon="21.87263">
		<comp name="01.HNE" depth="0.0">
			<acc value="0.0230072684153729" flag="0"/>
			<vel value="0.0249147290045234" flag="0"/>
			<psa03 value="0.0424759023617413" flag="0"/>
			<psa10 value="0.0338302298366821" flag="0"/>
			<psa30 value="0.00545859327170186" flag="0"/>
		</comp>
		<comp name="01.HNN" depth="0.0">
			<acc value="0.0193201616228071" flag="0"/>
			<vel value="0.0278833893571665" flag="0"/>
			<psa03 value="0.0432357157164874" flag="0"/>
			<psa10 value="0.0583165619361577" flag="0"/>
			<psa30 value="0.00411734400383298" flag="0"/>
		</comp>
		<comp name="01.HNZ" depth="0.0">
			<acc value="0.0118820781437309" flag="0"/>
			<vel value="0.0124406240349382" flag="0"/>
			<psa03 value="0.018686317303887" flag="0"/>
			<psa10 value="0.0230102024379711" flag="0"/>
			<psa30 value="0.00265189984201715" flag="0"/>
		</comp>
	</station>
	<station code="ROD3" name="ROD3" netid="CL" source="Corinth Riff Laboratory (CRLNET)" insttype="" lat="38.30811" lon="21.89204">
		<comp name="00.HNE" depth="0.0">
			<acc value="0.0203960288888528" flag="0"/>
			<vel value="0.0144479189559354" flag="0"/>
			<psa03 value="0.0580394646213227" flag="0"/>
			<psa10 value="0.0145094233655907" flag="0"/>
			<psa30 value="0.00158222596053867" flag="0"/>
		</comp>
		<comp name="00.HNN" depth="0.0">
			<acc value="0.0184817625335829" flag="0"/>
			<vel value="0.0116378875510957" flag="0"/>
			<psa03 value="0.075370951288923" flag="0"/>
			<psa10 value="0.0103093185667619" flag="0"/>
			<psa30 value="0.00162872768688373" flag="0"/>
		</comp>
		<comp name="00.HNZ" depth="0.0">
			<acc value="0.00639909986503676" flag="0"/>
			<vel value="0.00630151066753943" flag="0"/>
			<psa03 value="0.00985721028345877" flag="0"/>
			<psa10 value="0.0134425958184893" flag="0"/>
			<psa30 value="0.00101206839872912" flag="0"/>
		</comp>
	</station>
	<station code="AIGS" name="AIGS" netid="HA" source="Hellenic Seismological Network, University of Athens, Seismological Laboratory (HA)" insttype="" lat="38.25001" lon="22.0878">
		<comp name="--.HNE" depth="0.0">
			<acc value="0.016149250773968" flag="0"/>
			<vel value="0.0094110152655523" flag="0"/>
			<psa03 value="0.0410395650239424" flag="0"/>
			<psa10 value="0.0105222257958016" flag="0"/>
			<psa30 value="0.00212080486791467" flag="0"/>
		</comp>
		<comp name="--.HNN" depth="0.0">
			<acc value="0.00802910304638264" flag="0"/>
			<vel value="0.00756856917164092" flag="0"/>
			<psa03 value="0.0187211724774619" flag="0"/>
			<psa10 value="0.0112674001599618" flag="0"/>
			<psa30 value="0.00176574113835219" flag="0"/>
		</comp>
		<comp name="--.HNZ" depth="0.0">
			<acc value="0.00609304266516783" flag="0"/>
			<vel value="0.00385643272784825" flag="0"/>
			<psa03 value="0.00830753340622718" flag="0"/>
			<psa10 value="0.00539349807401945" flag="0"/>
			<psa30 value="0.00133799176038911" flag="0"/>
		</comp>
	</station>
	<station code="LTRS" name="LTRS" netid="HA" source="Hellenic Seismological Network, University of Athens, Seismological Laboratory (HA)" insttype="" lat="37.97528" lon="22.9765">
		<comp name="--.HNE" depth="0.0">
			<acc value="0.0205781876358546" flag="0"/>
			<vel value="0.0115679019910502" flag="0"/>
			<psa03 value="0.0506723151253435" flag="0"/>
			<psa10 value="0.0146565699883367" flag="0"/>
			<psa30 value="0.00230958820721794" flag="0"/>
		</comp>
		<comp name="--.HNN" depth="0.0">
			<acc value="0.0162195843702953" flag="0"/>
			<vel value="0.00926180027201034" flag="0"/>
			<psa03 value="0.0443081695737984" flag="0"/>
			<psa10 value="0.0140405991832756" flag="0"/>
			<psa30 value="0.00145247371925436" flag="0"/>
		</comp>
		<comp name="--.HNZ" depth="0.0">
			<acc value="0.0149116594072431" flag="0"/>
			<vel value="0.00624329261183654" flag="0"/>
			<psa03 value="0.02769376165915" flag="0"/>
			<psa10 value="0.0136130539855357" flag="0"/>
			<psa30 value="0.00138846322887332" flag="0"/>
		</comp>
	</station>
	<station code="XLKS" name="XLKS" netid="HA" source="Hellenic Seismological Network, University of Athens, Seismological Laboratory (HA)" insttype="" lat="38.0772" lon="22.6361">
		<comp name="--.HNE" depth="0.0">
			<acc value="0.0172922513073968" flag="0"/>
			<vel value="0.0215214274664619" flag="0"/>
			<psa03 value="0.0646577207568652" flag="0"/>
			<psa10 value="0.0273623807484185" flag="0"/>
			<psa30 value="0.00851018209114529" flag="0"/>
		</comp>
		<comp name="--.HNN" depth="0.0">
			<acc value="0.0243233602859847" flag="0"/>
			<vel value="0.0247731482378019" flag="0"/>
			<psa03 value="0.0600853241077231" flag="0"/>
			<psa10 value="0.0334376575807297" flag="0"/>
			<psa30 value="0.00917120004697594" flag="0"/>
		</comp>
		<comp name="--.HNZ" depth="0.0">
			<acc value="0.0169622075122305" flag="0"/>
			<vel value="0.00768528161036009" flag="0"/>
			<psa03 value="0.0444354800908244" flag="0"/>
			<psa10 value="0.0165229608150607" flag="0"/>
			<psa30 value="0.00314059700747377" flag="0"/>
		</comp>
	</station>
	<station code="KLV1" name="KLV1" netid="HI" source="ITSAK Strong Motion Network" insttype="" lat="38.03256" lon="22.10797">
		<comp name="--.HNE" depth="0.0">
			<acc value="0.0175709324828846" flag="0"/>
			<vel value="0.0153136406088742" flag="0"/>
			<psa03 value="0.0323548959572323" flag="0"/>
			<psa10 value="0.0276005102733294" flag="0"/>
			<psa30 value="0.0015458025059962" flag="0"/>
		</comp>
		<comp name="--.HNN" depth="0.0">
			<acc value="0.0111048583374486" flag="0"/>
			<vel value="0.00755258733589497" flag="0"/>
			<psa03 value="0.0185961355485509" flag="0"/>
			<psa10 value="0.00670405004793258" flag="0"/>
			<psa30 value="0.000553451767628003" flag="0"/>
		</comp>
		<comp name="--.HNZ" depth="0.0">
			<acc value="0.00542504298572414" flag="0"/>
			<vel value="0.00649476193363976" flag="0"/>
			<psa03 value="0.00759830348050966" flag="0"/>
			<psa10 value="0.0082009063948202" flag="0"/>
			<psa30 value="0.000945057709602875" flag="0"/>
		</comp>
	</station>
	<station code="KRI1" name="KRI1" netid="HI" source="ITSAK Strong Motion Network" insttype="" lat="37.6621" lon="20.8172">
		<comp name="--.HNE" depth="0.0">
			<acc value="0.00151370544579019" flag="0"/>
			<vel value="0.00163161205424106" flag="0"/>
			<psa03 value="0.00293871713652723" flag="0"/>
			<psa10 value="0.00318532554343296" flag="0"/>
			<psa30 value="0.000238211431380002" flag="0"/>
		</comp>
		<comp name="--.HNN" depth="0.0">
			<acc value="0.00202578113885812" flag="0"/>
			<vel value="0.0021720427746056" flag="0"/>
			<psa03 value="0.00415578278719437" flag="0"/>
			<psa10 value="0.00286212678935156" flag="0"/>
			<psa30 value="0.000589961321625497" flag="0"/>
		</comp>
		<comp name="--.HNZ" depth="0.0">
			<acc value="0.000720727659449012" flag="0"/>
			<vel value="0.000661543299967309" flag="0"/>
			<psa03 value="0.00201856942995158" flag="0"/>
			<psa10 value="0.00120845767157553" flag="0"/>
			<psa30 value="0.00017308052823552" flag="0"/>
		</comp>
	</station>
	<station code="LAM2" name="LAM2" netid="HI" source="ITSAK Strong Motion Network" insttype="" lat="38.90203" lon="22.431301">
		<comp name="--.HNE" depth="0.0">
			<acc value="0.0536587997631358" flag="0"/>
			<vel value="0.0256959034504154" flag="0"/>
			<psa03 value="0.086472572133385" flag="0"/>
			<psa10 value="0.0153461872345743" flag="0"/>
			<psa30 value="0.00111137841503318" flag="0"/>
		</comp>
		<comp name="--.HNN" depth="0.0">
			<acc value="0.0638114178416467" flag="0"/>
			<vel value="0.0223415957116888" flag="0"/>
			<psa03 value="0.0987915548722434" flag="0"/>
			<psa10 value="0.0178370234902698" flag="0"/>
			<psa30 value="0.00197843126969549" flag="0"/>
		</comp>
		<comp name="--.HNZ" depth="0.0">
			<acc value="0.0379673790692569" flag="0"/>
			<vel value="0.0133293310795852" flag="0"/>
			<psa03 value="0.0788840954757944" flag="0"/>
			<psa10 value="0.00607079434781747" flag="0"/>
			<psa30 value="0.00157776420663501" flag="0"/>
		</comp>
	</station>
	<station code="SKO1" name="SKO1" netid="HI" source="ITSAK Strong Motion Network" insttype="" lat="39.123383" lon="23.728705">
		<comp name="--.HNE" depth="0.0">
			<acc value="0.0124568402746335" flag="0"/>
			<vel value="0.00581015908920431" flag="0"/>
			<psa03 value="0.0310263704489454" flag="0"/>
			<psa10 value="0.0042971593532177" flag="0"/>
			<psa30 value="0.000766429470108471" flag="0"/>
		</comp>
		<comp name="--.HNN" depth="0.0">
			<acc value="0.00798858983825216" flag="0"/>
			<vel value="0.00676850532873467" flag="0"/>
			<psa03 value="0.0250088442131738" flag="0"/>
			<psa10 value="0.00616256527095101" flag="0"/>
			<psa30 value="0.000681779070766813" flag="0"/>
		</comp>
		<comp name="--.HNZ" depth="0.0">
			<acc value="0.00779053259789452" flag="0"/>
			<vel value="0.00374871923702957" flag="0"/>
			<psa03 value="0.0143335185356634" flag="0"/>
			<psa10 value="0.00438163744949394" flag="0"/>
			<psa30 value="0.00043490183094527" flag="0"/>
		</comp>
	</station>
	<station code="SKY1" name="SKY1" netid="HI" source="ITSAK Strong Motion Network" insttype="" lat="38.904483" lon="24.564572">
		<comp name="--.HNE" depth="0.0">
			<acc value="0.00322900717034298" flag="0"/>
			<vel value="0.00216050261253511" flag="0"/>
			<psa03 value="0.0118741785331448" flag="0"/>
			<psa10 value="0.00226815353529142" flag="0"/>
			<psa30 value="0.000336857445360987" flag="0"/>
		</comp>
		<comp name="--.HNN" depth="0.0">
			<acc value="0.00497284467367192" flag="0"/>
			<vel value="0.00284554158438507" flag="0"/>
			<psa03 value="0.0119820242190398" flag="0"/>
			<psa10 value="0.00170870284161443" flag="0"/>
			<psa30 value="0.000347777257286427" flag="0"/>
		</comp>
		<comp name="--.HNZ" depth="0.0">
			<acc value="0.00235700868511192" flag="0"/>
			<vel value="0.00110433321521263" flag="0"/>
			<psa03 value="0.00484892994175182" flag="0"/>
			<psa10 value="0.00119281749486869" flag="0"/>
			<psa30 value="0.000263571001952156" flag="0"/>
		</comp>
	</station>
	<station code="ATHP" name="ATHP" netid="HL" source="National Observatory of Athens Seismic Network" insttype="" lat="38.000799" lon="23.773487">
		<comp name="00.HNE" depth="0.0">
			<acc value="0.00702917663670464" flag="0"/>
			<vel value="0.00445555970302168" flag="0"/>
			<psa03 value="0.0225544264117212" flag="0"/>
			<psa10 value="0.00557442130930724" flag="0"/>
			<psa30 value="0.00112512995100218" flag="0"/>
		</comp>
		<comp name="00.HNN" depth="0.0">
			<acc value="0.006457083532768" flag="0"/>
			<vel value="0.00594622874671709" flag="0"/>
			<psa03 value="0.0181841056494014" flag="0"/>
			<psa10 value="0.00707014930019536" flag="0"/>
			<psa30 value="0.00101560029937025" flag="0"/>
		</comp>
		<comp name="00.HNZ" depth="0.0">
			<acc value="0.00665602255663366" flag="0"/>
			<vel value="0.0031163325415302" flag="0"/>
			<psa03 value="0.016017494674183" flag="0"/>
			<psa10 value="0.00335787564590798" flag="0"/>
			<psa30 value="0.00106670826835608" flag="0"/>
		</comp>
	</station>
	<station code="DION" name="DION" netid="HL" source="National Observatory of Athens Seismic Network" insttype="" lat="38.07794" lon="23.93306">
		<comp name="--.HNE" depth="0.0">
			<acc value="2.73749076776414e-30" flag="0"/>
			<vel value="1.41168537620378e-29" flag="0"/>
			<psa03 value="0.0" flag="0"/>
			<psa10 value="0.0" flag="0"/>
			<psa30 value="0.0" flag="0"/>
		</comp>
		<comp name="--.HNN" depth="0.0">
			<acc value="5.47497910183324e-30" flag="0"/>
			<vel value="2.82327345770855e-29" flag="0"/>
			<psa03 value="0.0" flag="0"/>
			<psa10 value="0.0" flag="0"/>
			<psa30 value="0.0" flag="0"/>
		</comp>
		<comp name="--.HNZ" depth="0.0">
			<acc value="2.74814140791049e-30" flag="0"/>
			<vel value="1.41217994131657e-29" flag="0"/>
			<psa03 value="0.0" flag="0"/>
			<psa10 value="0.0" flag="0"/>
			<psa30 value="0.0" flag="0"/>
		</comp>
	</station>
	<station code="DLFA" name="DLFA" netid="HL" source="National Observatory of Athens Seismic Network" insttype="" lat="38.47836" lon="22.49583">
		<comp name="00.HNE" depth="0.0">
			<acc value="0.0421212497091838" flag="0"/>
			<vel value="0.0222613334074369" flag="0"/>
			<psa03 value="0.0546661317796682" flag="0"/>
			<psa10 value="0.0328716063325913" flag="0"/>
			<psa30 value="0.00434956063704552" flag="0"/>
		</comp>
		<comp name="00.HNN" depth="0.0">
			<acc value="0.0513529138690472" flag="0"/>
			<vel value="0.0260796133436677" flag="0"/>
			<psa03 value="0.0805477890209241" flag="0"/>
			<psa10 value="0.0244424523175116" flag="0"/>
			<psa30 value="0.00313652319593294" flag="0"/>
		</comp>
		<comp name="00.HNZ" depth="0.0">
			<acc value="0.0330961536450625" flag="0"/>
			<vel value="0.0171799642640926" flag="0"/>
			<psa03 value="0.0611023289794231" flag="0"/>
			<psa10 value="0.0109142589535821" flag="0"/>
			<psa30 value="0.00309782188216198" flag="0"/>
		</comp>
	</station>
	<station code="ITM" name="ITM" netid="HL" source="National Observatory of Athens Seismic Network" insttype="" lat="37.17872" lon="21.92522">
		<comp name="--.HNE" depth="0.0">
			<acc value="0.00114455039951073" flag="0"/>
			<vel value="0.00133553918774088" flag="0"/>
			<psa03 value="0.00254920679561471" flag="0"/>
			<psa10 value="0.00218560728575565" flag="0"/>
			<psa30 value="0.000478955686797847" flag="0"/>
		</comp>
		<comp name="--.HNN" depth="0.0">
			<acc value="0.00112935242391756" flag="0"/>
			<vel value="0.00124502019165676" flag="0"/>
			<psa03 value="0.00138519544078435" flag="0"/>
			<psa10 value="0.00161390757751929" flag="0"/>
			<psa30 value="0.00055735353652096" flag="0"/>
		</comp>
		<comp name="--.HNZ" depth="0.0">
			<acc value="0.000631047167384425" flag="0"/>
			<vel value="0.00092663961046692" flag="0"/>
			<psa03 value="0.00102342627678664" flag="0"/>
			<psa10 value="0.00122208162097194" flag="0"/>
			<psa30 value="0.00051308320799637" flag="0"/>
		</comp>
	</station>
	<station code="NOAC" name="NOAC" netid="HL" source="National Observatory of Athens Seismic Network" insttype="" lat="37.97384" lon="23.71767">
		<comp name="00.HNE" depth="0.0">
			<acc value="0.0149560866545418" flag="0"/>
			<vel value="0.00615823857524211" flag="0"/>
			<psa03 value="0.0391613546642185" flag="0"/>
			<psa10 value="0.00763483639545125" flag="0"/>
			<psa30 value="0.00130698897743839" flag="0"/>
		</comp>
		<comp name="00.HNN" depth="0.0">
			<acc value="0.00922432040261337" flag="0"/>
			<vel value="0.00615434046165803" flag="0"/>
			<psa03 value="0.0166381074012758" flag="0"/>
			<psa10 value="0.00523035195390116" flag="0"/>
			<psa30 value="0.00178303728413825" flag="0"/>
		</comp>
		<comp name="00.HNZ" depth="0.0">
			<acc value="0.00730407269250954" flag="0"/>
			<vel value="0.00345524734404274" flag="0"/>
			<psa03 value="0.0116069485908669" flag="0"/>
			<psa10 value="0.00401803633143801" flag="0"/>
			<psa30 value="0.00117775041601893" flag="0"/>
		</comp>
	</station>
	<station code="PATC" name="PATC" netid="HL" source="National Observatory of Athens Seismic Network" insttype="" lat="38.26933" lon="21.76001">
		<comp name="00.HNE" depth="0.0">
			<acc value="0.0139602863686464" flag="0"/>
			<vel value="0.00985214824606963" flag="0"/>
			<psa03 value="0.0288370353120816" flag="0"/>
			<psa10 value="0.0206190909135782" flag="0"/>
			<psa30 value="0.00338936015347583" flag="0"/>
		</comp>
		<comp name="00.HNN" depth="0.0">
			<acc value="0.0157474297772313" flag="0"/>
			<vel value="0.0157049172077289" flag="0"/>
			<psa03 value="0.0329589854543552" flag="0"/>
			<psa10 value="0.0300004067547187" flag="0"/>
			<psa30 value="0.00424525289383742" flag="0"/>
		</comp>
		<comp name="00.HNZ" depth="0.0">
			<acc value="0.00926937509228926" flag="0"/>
			<vel value="0.00579119631571933" flag="0"/>
			<psa03 value="0.0158491436779878" flag="0"/>
			<psa10 value="0.00794179891768972" flag="0"/>
			<psa30 value="0.00174961090313364" flag="0"/>
		</comp>
	</station>
	<station code="PATG" name="PATG" netid="HL" source="National Observatory of Athens Seismic Network" insttype="" lat="38.23865" lon="21.72657">
		<comp name="00.HNE" depth="0.0">
			<acc value="0.0108055868890313" flag="0"/>
			<vel value="0.0111050504868913" flag="0"/>
			<psa03 value="0.0199645087486438" flag="0"/>
			<psa10 value="0.0242051534726281" flag="0"/>
			<psa30 value="0.00510872384454565" flag="0"/>
		</comp>
		<comp name="00.HNN" depth="0.0">
			<acc value="0.0182979188584513" flag="0"/>
			<vel value="0.0133612788096617" flag="0"/>
			<psa03 value="0.0193579086685458" flag="0"/>
			<psa10 value="0.0272390238266553" flag="0"/>
			<psa30 value="0.00295290061517278" flag="0"/>
		</comp>
		<comp name="00.HNZ" depth="0.0">
			<acc value="0.0593668210782174" flag="0"/>
			<vel value="0.0102719820032016" flag="0"/>
			<psa03 value="0.0130680401726804" flag="0"/>
			<psa10 value="0.00867040187156158" flag="0"/>
			<psa30 value="0.00207080197213547" flag="0"/>
		</comp>
	</station>
	<station code="PLG" name="PLG" netid="HL" source="National Observatory of Athens Seismic Network" insttype="" lat="40.37328" lon="23.44443">
		<comp name="--.HNE" depth="0.0">
			<acc value="5.47498749907255e-30" flag="0"/>
			<vel value="2.82401083712976e-29" flag="0"/>
			<psa03 value="0.0" flag="0"/>
			<psa10 value="0.0" flag="0"/>
			<psa30 value="0.0" flag="0"/>
		</comp>
		<comp name="--.HNN" depth="0.0">
			<acc value="1.36875356264443e-30" flag="0"/>
			<vel value="7.06604130725976e-30" flag="0"/>
			<psa03 value="0.0" flag="0"/>
			<psa10 value="0.0" flag="0"/>
			<psa30 value="0.0" flag="0"/>
		</comp>
		<comp name="--.HNZ" depth="0.0">
			<acc value="1.36875320822199e-30" flag="0"/>
			<vel value="7.06549028193615e-30" flag="0"/>
			<psa03 value="0.0" flag="0"/>
			<psa10 value="0.0" flag="0"/>
			<psa30 value="0.0" flag="0"/>
		</comp>
	</station>
	<station code="RIOA" name="RIOA" netid="HL" source="National Observatory of Athens Seismic Network" insttype="" lat="38.29585" lon="21.79118">
		<comp name="00.HNE" depth="0.0">
			<acc value="0.00795363401641507" flag="0"/>
			<vel value="0.00670880666378069" flag="0"/>
			<psa03 value="0.0125309030274995" flag="0"/>
			<psa10 value="0.00848047897762453" flag="0"/>
			<psa30 value="0.00170684348667139" flag="0"/>
		</comp>
		<comp name="00.HNN" depth="0.0">
			<acc value="0.00740012289108079" flag="0"/>
			<vel value="0.00538718543060012" flag="0"/>
			<psa03 value="0.0162282273841696" flag="0"/>
			<psa10 value="0.0103955986573828" flag="0"/>
			<psa30 value="0.00343085311051339" flag="0"/>
		</comp>
		<comp name="00.HNZ" depth="0.0">
			<acc value="0.0165683893911265" flag="0"/>
			<vel value="0.00479414039986899" flag="0"/>
			<psa03 value="0.00955489793907487" flag="0"/>
			<psa10 value="0.00566644256151638" flag="0"/>
			<psa30 value="0.00183446235745986" flag="0"/>
		</comp>
	</station>
	<station code="YDRA" name="YDRA" netid="HL" source="National Observatory of Athens Seismic Network" insttype="" lat="37.34923" lon="23.46525">
		<comp name="00.HNE" depth="0.0">
			<acc value="0.117849180831455" flag="0"/>
			<vel value="0.0089593009095604" flag="0"/>
			<psa03 value="0.00835512444954235" flag="0"/>
			<psa10 value="0.00365805982850968" flag="0"/>
			<psa30 value="0.000785551570187488" flag="0"/>
		</comp>
		<comp name="00.HNN" depth="0.0">
			<acc value="0.0528034007283475" flag="0"/>
			<vel value="0.00448491613289283" flag="0"/>
			<psa03 value="0.00527736945658323" flag="0"/>
			<psa10 value="0.00243455416788912" flag="0"/>
			<psa30 value="0.000553986386380233" flag="0"/>
		</comp>
		<comp name="00.HNZ" depth="0.0">
			<acc value="0.194301004400632" flag="0"/>
			<vel value="0.0133467179324038" flag="0"/>
			<psa03 value="0.0108791803277138" flag="0"/>
			<psa10 value="0.00107995997954983" flag="0"/>
			<psa30 value="0.000329671422447034" flag="0"/>
		</comp>
	</station>
