<stationlist created="1778069582">
	<station code="KARP" name="KARP" netid="GE" source="GEOFON" insttype="" lat="35.5471" lon="27.16106">
		<comp name="--.HNE" depth="0.0">
			<acc value="0.273627528335952" flag="0"/>
			<vel value="0.0756416480438666" flag="0"/>
			<psa03 value="0.185456446432736" flag="0"/>
			<psa10 value="0.0652341372494402" flag="0"/>
			<psa30 value="0.00272390553892038" flag="0"/>
		</comp>
		<comp name="--.HNN" depth="0.0">
			<acc value="0.159757961002545" flag="0"/>
			<vel value="0.0467057880828218" flag="0"/>
			<psa03 value="0.150244329824157" flag="0"/>
			<psa10 value="0.0416209902845811" flag="0"/>
			<psa30 value="0.00231809372489266" flag="0"/>
		</comp>
		<comp name="--.HNZ" depth="0.0">
			<acc value="0.142614615615741" flag="0"/>
			<vel value="0.0308962740794848" flag="0"/>
			<psa03 value="0.133868682201869" flag="0"/>
			<psa10 value="0.0273016944784694" flag="0"/>
			<psa30 value="0.00218655163743494" flag="0"/>
		</comp>
	</station>
	<station code="KSS1" name="KSS1" netid="HI" source="ITSAK Strong Motion Network" insttype="" lat="35.4189" lon="26.9207">
		<comp name="--.HNE" depth="0.0">
			<acc value="0.456924505322527" flag="0"/>
			<vel value="0.0833272708546559" flag="0"/>
			<psa03 value="0.352434361532127" flag="0"/>
			<psa10 value="0.0849131019863547" flag="0"/>
			<psa30 value="0.00351136837540197" flag="0"/>
		</comp>
		<comp name="--.HNN" depth="0.0">
			<acc value="0.431226155773684" flag="0"/>
			<vel value="0.127397807225901" flag="0"/>
			<psa03 value="0.470598529210982" flag="0"/>
			<psa10 value="0.0360640082225918" flag="0"/>
			<psa30 value="0.00530284632839757" flag="0"/>
		</comp>
		<comp name="--.HNZ" depth="0.0">
			<acc value="0.374194916856248" flag="0"/>
			<vel value="0.0651489833297288" flag="0"/>
			<psa03 value="0.146664953294695" flag="0"/>
			<psa10 value="0.037296208592859" flag="0"/>
			<psa30 value="0.00323709864883196" flag="0"/>
		</comp>
	</station>
	<station code="SIT2" name="SIT2" netid="HI" source="ITSAK Strong Motion Network" insttype="" lat="35.2059" lon="26.107">
		<comp name="--.HNE" depth="0.0">
			<acc value="0.195404963303196" flag="0"/>
			<vel value="0.128292828422357" flag="0"/>
			<psa03 value="0.605719993198163" flag="0"/>
			<psa10 value="0.0648636717786409" flag="0"/>
			<psa30 value="0.00450151340786432" flag="0"/>
		</comp>
		<comp name="--.HNN" depth="0.0">
			<acc value="0.192663411514472" flag="0"/>
			<vel value="0.094878511755501" flag="0"/>
			<psa03 value="0.681468549002897" flag="0"/>
			<psa10 value="0.0477900457331084" flag="0"/>
			<psa30 value="0.00388809775512781" flag="0"/>
		</comp>
		<comp name="--.HNZ" depth="0.0">
			<acc value="0.116866929986611" flag="0"/>
			<vel value="0.0454635716693283" flag="0"/>
			<psa03 value="0.230556590703954" flag="0"/>
			<psa10 value="0.0143192958061117" flag="0"/>
			<psa30 value="0.0011597179955456" flag="0"/>
		</comp>
	</station>
	<station code="IACM" name="IACM" netid="HL" source="National Observatory of Athens Seismic Network" insttype="" lat="35.3058" lon="25.0709">
		<comp name="--.HNE" depth="0.0">
			<acc value="0.0569289895940497" flag="0"/>
			<vel value="0.0527121390911977" flag="0"/>
			<psa03 value="0.145188460476292" flag="0"/>
			<psa10 value="0.0609536503422702" flag="0"/>
			<psa30 value="0.00266887262477991" flag="0"/>
		</comp>
		<comp name="--.HNN" depth="0.0">
			<acc value="0.0634420141818754" flag="0"/>
			<vel value="0.0432051348943955" flag="0"/>
			<psa03 value="0.169080798810449" flag="0"/>
			<psa10 value="0.0638811329213037" flag="0"/>
			<psa30 value="0.00287200224282686" flag="0"/>
		</comp>
		<comp name="--.HNZ" depth="0.0">
			<acc value="0.0440003859372904" flag="0"/>
			<vel value="0.0215648656746147" flag="0"/>
			<psa03 value="0.10639696733825" flag="0"/>
			<psa10 value="0.0208467363296514" flag="0"/>
			<psa30 value="0.000983881123535796" flag="0"/>
		</comp>
	</station>
	<station code="KARP" name="KARP" netid="HL" source="National Observatory of Athens Seismic Network" insttype="" lat="35.5471" lon="27.16106">
		<comp name="--.HNE" depth="0.0">
			<acc value="0.2816290562464" flag="0"/>
			<vel value="0.0734921776865389" flag="0"/>
			<psa03 value="0.181698101076802" flag="0"/>
			<psa10 value="0.0639093205114732" flag="0"/>
			<psa30 value="0.00266932004684609" flag="0"/>
		</comp>
		<comp name="--.HNN" depth="0.0">
			<acc value="0.164331003120604" flag="0"/>
			<vel value="0.0458850544952272" flag="0"/>
			<psa03 value="0.147201859774114" flag="0"/>
			<psa10 value="0.0407753625794958" flag="0"/>
			<psa30 value="0.00227111440794347" flag="0"/>
		</comp>
		<comp name="--.HNZ" depth="0.0">
			<acc value="0.14831680890308" flag="0"/>
			<vel value="0.0311685687990773" flag="0"/>
			<psa03 value="0.131139407598155" flag="0"/>
			<psa10 value="0.0267500230708661" flag="0"/>
			<psa30 value="0.00214225685288285" flag="0"/>
		</comp>
	</station>
</stationlist>
