<?xml version="1.0" encoding="UTF-8" standalone="yes"?>
<!DOCTYPE earthquake SYSTEM "stationlist.dtd">
<stationlist created="" xmlns="ch.ethz.sed.shakemap.usgs.xml">
  <station code="KARP" name="KARP" netid="GE" insttype="STS-2/N" lat="35.5471" lon="27.1611">
    <comp name="--.HHE">
      <acc value="0.3750618599" flag="0"/>
      <vel value="0.0868958445" flag="0"/>
      <psa03 value="0.2183771946" flag="0"/>
      <psa10 value="0.0704938437" flag="0"/>
      <psa30 value="0.0031475433" flag="0"/>
    </comp>
    <comp name="--.HHN">
      <acc value="0.2209073053" flag="0"/>
      <vel value="0.0582275330" flag="0"/>
      <psa03 value="0.1606184120" flag="0"/>
      <psa10 value="0.0536330548" flag="0"/>
      <psa30 value="0.0026596522" flag="0"/>
    </comp>
    <comp name="--.HHZ">
      <acc value="0.1715616121" flag="0"/>
      <vel value="0.0378916661" flag="0"/>
      <psa03 value="0.1635077155" flag="0"/>
      <psa10 value="0.0326645172" flag="0"/>
      <psa30 value="0.0024666790" flag="0"/>
    </comp>
  </station>
  <station code="ZKR" name="ZKR" netid="GE" insttype="STS-2/N" lat="35.1147" lon="26.2169">
    <comp name="--.HHE">
      <acc value="0.0923670961" flag="0"/>
      <vel value="0.0414397068" flag="0"/>
      <psa03 value="0.2465825320" flag="0"/>
      <psa10 value="0.0207919975" flag="0"/>
      <psa30 value="0.0016143090" flag="0"/>
    </comp>
    <comp name="--.HHN">
      <acc value="0.0593934835" flag="0"/>
      <vel value="0.0223191768" flag="0"/>
      <psa03 value="0.0955262181" flag="0"/>
      <psa10 value="0.0155239947" flag="0"/>
      <psa30 value="0.0007364062" flag="0"/>
    </comp>
    <comp name="--.HHZ">
      <acc value="0.0656483566" flag="0"/>
      <vel value="0.0190696868" flag="0"/>
      <psa03 value="0.1428160026" flag="0"/>
      <psa10 value="0.0161172634" flag="0"/>
      <psa30 value="0.0009779382" flag="0"/>
    </comp>
  </station>
  <station code="SIT2" name="SIT2" netid="HI" insttype="CMG-5TD,ACCELEROMETER,GURALP" lat="35.2059" lon="26.107">
    <comp name="--.HNN">
      <acc value="0.1931532593" flag="0"/>
      <vel value="0.0946763892" flag="0"/>
      <psa03 value="0.6834151304" flag="0"/>
      <psa10 value="0.0475594285" flag="0"/>
      <psa30 value="0.0036530489" flag="0"/>
    </comp>
    <comp name="--.HNZ">
      <acc value="0.1172316400" flag="0"/>
      <vel value="0.0448260463" flag="0"/>
      <psa03 value="0.2268967371" flag="0"/>
      <psa10 value="0.0142766347" flag="0"/>
      <psa30 value="0.0011246317" flag="0"/>
    </comp>
    <comp name="--.HNE">
      <acc value="0.1953735674" flag="0"/>
      <vel value="0.1280443261" flag="0"/>
      <psa03 value="0.6167158670" flag="0"/>
      <psa10 value="0.0647664723" flag="0"/>
      <psa30 value="0.0045171939" flag="0"/>
    </comp>
  </station>
  <station code="KARP" name="KARP" netid="HL" insttype="120" lat="35.5471" lon="27.1611">
    <comp name="--.HHE">
      <acc value="0.3484574047" flag="0"/>
      <vel value="0.0844922420" flag="0"/>
      <psa03 value="0.2130169844" flag="0"/>
      <psa10 value="0.0698476238" flag="0"/>
      <psa30 value="0.0031261141" flag="0"/>
    </comp>
    <comp name="--.HHN">
      <acc value="0.1983876082" flag="0"/>
      <vel value="0.0547463413" flag="0"/>
      <psa03 value="0.1561817299" flag="0"/>
      <psa10 value="0.0531239155" flag="0"/>
      <psa30 value="0.0026286807" flag="0"/>
    </comp>
    <comp name="--.HHZ">
      <acc value="0.1500652338" flag="0"/>
      <vel value="0.0363035491" flag="0"/>
      <psa03 value="0.1580961170" flag="0"/>
      <psa10 value="0.0323806982" flag="0"/>
      <psa30 value="0.0024531389" flag="0"/>
    </comp>
  </station>
  <station code="NPS" name="NPS" netid="HL" insttype="CMG3ESPC-120s" lat="35.2613" lon="25.6104">
    <comp name="--.HHE">
      <acc value="0.0292933640" flag="0"/>
      <vel value="0.0080398051" flag="0"/>
      <psa03 value="0.0458747842" flag="0"/>
      <psa10 value="0.0054237722" flag="0"/>
      <psa30 value="0.0003501353" flag="0"/>
    </comp>
    <comp name="--.HHN">
      <acc value="0.0551746017" flag="0"/>
      <vel value="0.0231195180" flag="0"/>
      <psa03 value="0.0795538713" flag="0"/>
      <psa10 value="0.0194701675" flag="0"/>
      <psa30 value="0.0009038196" flag="0"/>
    </comp>
    <comp name="--.HHZ">
      <acc value="0.0418383463" flag="0"/>
      <vel value="0.0115317373" flag="0"/>
      <psa03 value="0.0439877981" flag="0"/>
      <psa10 value="0.0070807914" flag="0"/>
      <psa30 value="0.0006935405" flag="0"/>
    </comp>
  </station>
  <station code="ZKR" name="ZKR" netid="HL" insttype="120" lat="35.1147" lon="26.2169">
    <comp name="--.HHE">
      <acc value="0.0894720426" flag="0"/>
      <vel value="0.0406058374" flag="0"/>
      <psa03 value="0.2396761360" flag="0"/>
      <psa10 value="0.0204684686" flag="0"/>
      <psa30 value="0.0016012848" flag="0"/>
    </comp>
    <comp name="--.HHN">
      <acc value="0.0577729501" flag="0"/>
      <vel value="0.0216708881" flag="0"/>
      <psa03 value="0.0929312246" flag="0"/>
      <psa10 value="0.0154125280" flag="0"/>
      <psa30 value="0.0007304343" flag="0"/>
    </comp>
    <comp name="--.HHZ">
      <acc value="0.0644817744" flag="0"/>
      <vel value="0.0184711160" flag="0"/>
      <psa03 value="0.1383912276" flag="0"/>
      <psa10 value="0.0160049887" flag="0"/>
      <psa30 value="0.0009777982" flag="0"/>
    </comp>
  </station>
</stationlist>
