<?xml version="1.0" encoding="UTF-8" standalone="yes"?>
<!DOCTYPE earthquake SYSTEM "stationlist.dtd">
<stationlist created="" xmlns="ch.ethz.sed.shakemap.usgs.xml">
  <station code="ADVT" name="ADVT" netid="KO" insttype="120s," lat="40.4332" lon="29.7383">
    <comp name="--.HHN">
      <acc value="0.8203259500" flag="0"/>
      <vel value="0.3924495056" flag="0"/>
      <psa03 value="1.4386171558" flag="0"/>
      <psa10 value="0.5651065671" flag="0"/>
      <psa30 value="0.0742425724" flag="0"/>
    </comp>
    <comp name="--.HHZ">
      <acc value="0.2943936412" flag="0"/>
      <vel value="0.2455515165" flag="0"/>
      <psa03 value="0.6597487367" flag="0"/>
      <psa10 value="0.4900204189" flag="0"/>
      <psa30 value="0.0325935429" flag="0"/>
    </comp>
  </station>
  <station code="ALT" name="ALT" netid="KO" insttype="CMG-5T" lat="39.0541" lon="30.1104">
    <comp name="--.HNE">
      <acc value="0.0938441500" flag="0"/>
      <vel value="0.1247950694" flag="0"/>
      <psa03 value="0.2447979027" flag="0"/>
      <psa10 value="0.2026070242" flag="0"/>
      <psa30 value="0.0227897504" flag="0"/>
    </comp>
    <comp name="--.HNN">
      <acc value="0.0660830797" flag="0"/>
      <vel value="0.0777554175" flag="0"/>
      <psa03 value="0.1968229165" flag="0"/>
      <psa10 value="0.1176680695" flag="0"/>
      <psa30 value="0.0343838279" flag="0"/>
    </comp>
    <comp name="--.HNZ">
      <acc value="0.0573004135" flag="0"/>
      <vel value="0.0776593452" flag="0"/>
      <psa03 value="0.1427553769" flag="0"/>
      <psa10 value="0.1227277203" flag="0"/>
      <psa30 value="0.0274323100" flag="0"/>
    </comp>
  </station>
  <station code="AVCI" name="AVCI" netid="KO" insttype="CMG-5T" lat="40.9958" lon="28.7225">
    <comp name="--.HNE">
      <acc value="1.2145674672" flag="0"/>
      <vel value="1.4400667668" flag="0"/>
      <psa03 value="1.8328991773" flag="0"/>
      <psa10 value="1.8433572309" flag="0"/>
      <psa30 value="0.5276149818" flag="0"/>
    </comp>
    <comp name="--.HNN">
      <acc value="0.6812217133" flag="0"/>
      <vel value="0.9015313955" flag="0"/>
      <psa03 value="0.9130073683" flag="0"/>
      <psa10 value="1.3971706179" flag="0"/>
      <psa30 value="0.3013040296" flag="0"/>
    </comp>
    <comp name="--.HNZ">
      <acc value="0.3137343746" flag="0"/>
      <vel value="0.3920096499" flag="0"/>
      <psa03 value="0.8402839043" flag="0"/>
      <psa10 value="0.5323511556" flag="0"/>
      <psa30 value="0.1619103276" flag="0"/>
    </comp>
  </station>
  <station code="BGKT" name="BGKT" netid="KO" insttype="120s," lat="41.181" lon="28.773">
    <comp name="--.HHZ">
      <acc value="0.1630836113" flag="0"/>
      <vel value="0.1290643669" flag="0"/>
      <psa03 value="0.5020659355" flag="0"/>
      <psa10 value="0.2380894626" flag="0"/>
      <psa30 value="0.0247187886" flag="0"/>
    </comp>
    <comp name="--.HHE">
      <acc value="0.2270375946" flag="0"/>
      <vel value="0.2275437263" flag="0"/>
      <psa03 value="0.5581118674" flag="0"/>
      <psa10 value="0.4232551655" flag="0"/>
      <psa30 value="0.0325874638" flag="0"/>
    </comp>
  </station>
  <station code="BRGA" name="BRGA" netid="KO" insttype="CMG-5T" lat="40.8846" lon="29.065">
    <comp name="--.HNE">
      <acc value="1.0432751013" flag="0"/>
      <vel value="0.9392902065" flag="0"/>
      <psa03 value="1.9407501943" flag="0"/>
      <psa10 value="1.4255189176" flag="0"/>
      <psa30 value="0.1389238966" flag="0"/>
    </comp>
    <comp name="--.HNN">
      <acc value="0.9016945613" flag="0"/>
      <vel value="0.7808716510" flag="0"/>
      <psa03 value="1.9191064898" flag="0"/>
      <psa10 value="1.0585292393" flag="0"/>
      <psa30 value="0.2094420449" flag="0"/>
    </comp>
    <comp name="--.HNZ">
      <acc value="0.3555902982" flag="0"/>
      <vel value="0.1366214581" flag="0"/>
      <psa03 value="0.9493087330" flag="0"/>
      <psa10 value="0.2115888534" flag="0"/>
      <psa30 value="0.0248020452" flag="0"/>
    </comp>
  </station>
  <station code="BUYA" name="BUYA" netid="KO" insttype="CMG-5T" lat="40.8694" lon="29.1278">
    <comp name="--.HNZ">
      <acc value="0.3484817595" flag="0"/>
      <vel value="0.2858068456" flag="0"/>
      <psa03 value="1.0143210489" flag="0"/>
      <psa10 value="0.3493868671" flag="0"/>
      <psa30 value="0.0592852871" flag="0"/>
    </comp>
    <comp name="--.HNN">
      <acc value="0.9612399753" flag="0"/>
      <vel value="0.8761573311" flag="0"/>
      <psa03 value="2.6824640909" flag="0"/>
      <psa10 value="0.8687663482" flag="0"/>
      <psa30 value="0.1835656530" flag="0"/>
    </comp>
    <comp name="--.HNE">
      <acc value="0.6289790854" flag="0"/>
      <vel value="0.4931673816" flag="0"/>
      <psa03 value="1.6859161720" flag="0"/>
      <psa10 value="0.5945496104" flag="0"/>
      <psa30 value="0.0959523628" flag="0"/>
    </comp>
  </station>
  <station code="CAVI" name="CAVI" netid="KO" insttype="120s," lat="40.2018" lon="29.8377">
    <comp name="--.HHN">
      <acc value="0.3104818638" flag="0"/>
      <vel value="0.3205362314" flag="0"/>
      <psa03 value="0.9264159638" flag="0"/>
      <psa10 value="0.6614839000" flag="0"/>
      <psa30 value="0.1104134402" flag="0"/>
    </comp>
    <comp name="--.HHZ">
      <acc value="0.2725895855" flag="0"/>
      <vel value="0.2951345820" flag="0"/>
      <psa03 value="0.6680544443" flag="0"/>
      <psa10 value="0.6691570664" flag="0"/>
      <psa30 value="0.0647015491" flag="0"/>
    </comp>
  </station>
  <station code="ESKT" name="ESKT" netid="KO" insttype="CMG-5T" lat="39.5212" lon="30.8492">
    <comp name="--.HNN">
      <acc value="0.2731352344" flag="0"/>
      <vel value="0.2266147559" flag="0"/>
      <psa03 value="0.9945381266" flag="0"/>
      <psa10 value="0.3630204553" flag="0"/>
      <psa30 value="0.0457331960" flag="0"/>
    </comp>
    <comp name="--.HNE">
      <acc value="0.4663631839" flag="0"/>
      <vel value="0.4084720554" flag="0"/>
      <psa03 value="1.3769542986" flag="0"/>
      <psa10 value="0.4723005987" flag="0"/>
      <psa30 value="0.1330608363" flag="0"/>
    </comp>
    <comp name="--.HNZ">
      <acc value="0.1121345263" flag="0"/>
      <vel value="0.1735704405" flag="0"/>
      <psa03 value="0.3470536958" flag="0"/>
      <psa10 value="0.1486500047" flag="0"/>
      <psa30 value="0.0596941200" flag="0"/>
    </comp>
  </station>
  <station code="GEML" name="GEML" netid="KO" insttype="120s," lat="40.4646" lon="29.2116">
    <comp name="--.HHE">
      <acc value="0.4074275326" flag="0"/>
      <vel value="0.3127942891" flag="0"/>
      <psa03 value="0.9562529567" flag="0"/>
      <psa10 value="0.4781943302" flag="0"/>
      <psa30 value="0.0263455388" flag="0"/>
    </comp>
    <comp name="--.HHN">
      <acc value="0.4051247379" flag="0"/>
      <vel value="0.3096370616" flag="0"/>
      <psa03 value="1.6268231457" flag="0"/>
      <psa10 value="0.5734568101" flag="0"/>
      <psa30 value="0.1274009603" flag="0"/>
    </comp>
    <comp name="--.HHZ">
      <acc value="0.2487619244" flag="0"/>
      <vel value="0.2798070418" flag="0"/>
      <psa03 value="0.5886697774" flag="0"/>
      <psa10 value="0.3622772601" flag="0"/>
      <psa30 value="0.0369035818" flag="0"/>
    </comp>
  </station>
  <station code="GPA" name="GPA" netid="KO" insttype="CMG-5T" lat="40.2911" lon="30.3171">
    <comp name="--.HNN">
      <acc value="0.7046027971" flag="0"/>
      <vel value="0.6818515529" flag="0"/>
      <psa03 value="2.2341809551" flag="0"/>
      <psa10 value="0.7616944039" flag="0"/>
      <psa30 value="0.1346239202" flag="0"/>
    </comp>
    <comp name="--.HNZ">
      <acc value="0.3452580649" flag="0"/>
      <vel value="0.3227046603" flag="0"/>
      <psa03 value="0.8508996087" flag="0"/>
      <psa10 value="0.3046933972" flag="0"/>
      <psa30 value="0.0603037209" flag="0"/>
    </comp>
  </station>
  <station code="HRTX" name="HRTX" netid="KO" insttype="-3ESP," lat="40.801" lon="29.673">
    <comp name="--.HHE">
      <acc value="0.0267869329" flag="0"/>
      <vel value="0.0165137151" flag="0"/>
      <psa03 value="0.0858518125" flag="0"/>
      <psa10 value="0.0259326119" flag="0"/>
      <psa30 value="0.0027287984" flag="0"/>
    </comp>
    <comp name="--.HHZ">
      <acc value="0.0134924461" flag="0"/>
      <vel value="0.0163129494" flag="0"/>
      <psa03 value="0.0401040271" flag="0"/>
      <psa10 value="0.0283507962" flag="0"/>
      <psa30 value="0.0031777989" flag="0"/>
    </comp>
  </station>
  <station code="HVHR" name="HVHR" netid="KO" insttype="CMG-5T" lat="40.9908" lon="28.6678">
    <comp name="--.HNZ">
      <acc value="1.0338941782" flag="0"/>
      <vel value="0.9872126839" flag="0"/>
      <psa03 value="2.0216373205" flag="0"/>
      <psa10 value="1.3890597890" flag="0"/>
      <psa30 value="0.1513511863" flag="0"/>
    </comp>
  </station>
  <station code="HYBA" name="HYBA" netid="KO" insttype="CMG-5T" lat="40.8754" lon="29.0854">
    <comp name="--.HNE">
      <acc value="0.4719807251" flag="0"/>
      <vel value="0.4389978969" flag="0"/>
      <psa03 value="0.9691462585" flag="0"/>
      <psa10 value="0.7940582395" flag="0"/>
      <psa30 value="0.1042468974" flag="0"/>
    </comp>
    <comp name="--.HNN">
      <acc value="0.9681057139" flag="0"/>
      <vel value="0.7903338479" flag="0"/>
      <psa03 value="2.2559676033" flag="0"/>
      <psa10 value="1.3511735855" flag="0"/>
      <psa30 value="0.2144088497" flag="0"/>
    </comp>
    <comp name="--.HNZ">
      <acc value="0.3194107078" flag="0"/>
      <vel value="0.1574609998" flag="0"/>
      <psa03 value="0.6337961461" flag="0"/>
      <psa10 value="0.2525335679" flag="0"/>
      <psa30 value="0.0246282898" flag="0"/>
    </comp>
  </station>
  <station code="ISK" name="ISK" netid="KO" insttype="120s," lat="41.0615" lon="29.0592">
    <comp name="--.HHE">
      <acc value="0.2517171004" flag="0"/>
      <vel value="0.2096273780" flag="0"/>
      <psa03 value="0.4268615902" flag="0"/>
      <psa10 value="0.3949901549" flag="0"/>
      <psa30 value="0.0414445999" flag="0"/>
    </comp>
    <comp name="--.HHN">
      <acc value="0.5317879657" flag="0"/>
      <vel value="0.3012081876" flag="0"/>
      <psa03 value="0.7095330610" flag="0"/>
      <psa10 value="0.6601831012" flag="0"/>
      <psa30 value="0.0646790325" flag="0"/>
    </comp>
    <comp name="--.HHZ">
      <acc value="0.2459174424" flag="0"/>
      <vel value="0.1761161242" flag="0"/>
      <psa03 value="0.5393149628" flag="0"/>
      <psa10 value="0.2812200707" flag="0"/>
      <psa30 value="0.0452563904" flag="0"/>
    </comp>
  </station>
  <station code="IZI" name="IZI" netid="KO" insttype="CMG-5T" lat="40.3483" lon="29.4612">
    <comp name="--.HNE">
      <acc value="0.8912262068" flag="0"/>
      <vel value="0.9722253735" flag="0"/>
      <psa03 value="1.1539761052" flag="0"/>
      <psa10 value="1.5660950228" flag="0"/>
      <psa30 value="0.0978038969" flag="0"/>
    </comp>
    <comp name="--.HNN">
      <acc value="0.8534352824" flag="0"/>
      <vel value="1.3188164018" flag="0"/>
      <psa03 value="1.1165117665" flag="0"/>
      <psa10 value="1.8926513905" flag="0"/>
      <psa30 value="0.2128385140" flag="0"/>
    </comp>
    <comp name="--.HNZ">
      <acc value="0.3621582461" flag="0"/>
      <vel value="0.4581119400" flag="0"/>
      <psa03 value="0.6274856105" flag="0"/>
      <psa10 value="0.8449814982" flag="0"/>
      <psa30 value="0.0689636909" flag="0"/>
    </comp>
  </station>
  <station code="KAVV" name="KAVV" netid="KO" insttype="CMG-3ESPC" lat="41.0638" lon="29.06">
    <comp name="--.HHE">
      <acc value="0.7705596192" flag="0"/>
      <vel value="0.2722438351" flag="0"/>
      <psa03 value="1.0548636189" flag="0"/>
      <psa10 value="0.4161559361" flag="0"/>
      <psa30 value="0.0425157733" flag="0"/>
    </comp>
    <comp name="--.HHN">
      <acc value="0.5899927451" flag="0"/>
      <vel value="0.3230982274" flag="0"/>
      <psa03 value="0.9712009653" flag="0"/>
      <psa10 value="0.6889237788" flag="0"/>
      <psa30 value="0.0635162268" flag="0"/>
    </comp>
    <comp name="--.HHZ">
      <acc value="0.3813838716" flag="0"/>
      <vel value="0.2027483542" flag="0"/>
      <psa03 value="0.9259811284" flag="0"/>
      <psa10 value="0.2716199295" flag="0"/>
      <psa30 value="0.0484427528" flag="0"/>
    </comp>
  </station>
  <station code="KURC" name="KURC" netid="KO" insttype="360s," lat="41.8456" lon="32.743">
    <comp name="--.HHE">
      <acc value="0.3455646840" flag="0"/>
      <vel value="0.3677370148" flag="0"/>
      <psa03 value="0.8096117756" flag="0"/>
      <psa10 value="0.5480256660" flag="0"/>
      <psa30 value="0.1634862698" flag="0"/>
    </comp>
    <comp name="--.HHN">
      <acc value="0.5654524810" flag="0"/>
      <vel value="0.3527279567" flag="0"/>
      <psa03 value="0.9343267347" flag="0"/>
      <psa10 value="0.6533952575" flag="0"/>
      <psa30 value="0.1763208370" flag="0"/>
    </comp>
    <comp name="--.HHZ">
      <acc value="0.2981610462" flag="0"/>
      <vel value="0.3186101894" flag="0"/>
      <psa03 value="0.5808073075" flag="0"/>
      <psa10 value="0.6927916868" flag="0"/>
      <psa30 value="0.1121006957" flag="0"/>
    </comp>
  </station>
  <station code="LAFA" name="LAFA" netid="KO" insttype="CMG-5T" lat="40.7598" lon="29.3554">
    <comp name="--.HNN">
      <acc value="0.6297391282" flag="0"/>
      <vel value="0.4566892459" flag="0"/>
      <psa03 value="1.1954736286" flag="0"/>
      <psa10 value="0.6209940692" flag="0"/>
      <psa30 value="0.0822121347" flag="0"/>
    </comp>
    <comp name="--.HNZ">
      <acc value="0.3407055573" flag="0"/>
      <vel value="0.3885092089" flag="0"/>
      <psa03 value="0.5948017709" flag="0"/>
      <psa10 value="0.4850878770" flag="0"/>
      <psa30 value="0.0490426221" flag="0"/>
    </comp>
    <comp name="--.HNE">
      <acc value="0.0195304412" flag="0"/>
      <vel value="0.0121840311" flag="0"/>
      <psa03 value="0.0327061075" flag="0"/>
      <psa10 value="0.0210270794" flag="0"/>
      <psa30 value="0.0012771355" flag="0"/>
    </comp>
  </station>
  <station code="MDNY" name="MDNY" netid="KO" insttype="30s," lat="40.371" lon="28.8847">
    <comp name="--.HHN">
      <acc value="0.4045699011" flag="0"/>
      <vel value="0.2989750009" flag="0"/>
      <psa03 value="1.2136535922" flag="0"/>
      <psa10 value="0.4282417682" flag="0"/>
      <psa30 value="0.0874012779" flag="0"/>
    </comp>
    <comp name="--.HHE">
      <acc value="0.4727019128" flag="0"/>
      <vel value="0.2863939140" flag="0"/>
      <psa03 value="1.5384547733" flag="0"/>
      <psa10 value="0.4030578788" flag="0"/>
      <psa30 value="0.0605591340" flag="0"/>
    </comp>
  </station>
  <station code="ORLT" name="ORLT" netid="KO" insttype="CMG-5T" lat="40.0452" lon="28.8914">
    <comp name="--.HNE">
      <acc value="0.5571287382" flag="0"/>
      <vel value="0.4620177492" flag="0"/>
      <psa03 value="1.6912089878" flag="0"/>
      <psa10 value="0.5317390585" flag="0"/>
      <psa30 value="0.0761334436" flag="0"/>
    </comp>
    <comp name="--.HNZ">
      <acc value="0.2087133299" flag="0"/>
      <vel value="0.2683673232" flag="0"/>
      <psa03 value="0.4821506535" flag="0"/>
      <psa10 value="0.4307973055" flag="0"/>
      <psa30 value="0.0504291365" flag="0"/>
    </comp>
    <comp name="--.HNN">
      <acc value="0.4620889650" flag="0"/>
      <vel value="0.5566502711" flag="0"/>
      <psa03 value="1.2861677897" flag="0"/>
      <psa10 value="0.8087897949" flag="0"/>
      <psa30 value="0.1178831072" flag="0"/>
    </comp>
  </station>
  <station code="OSMT" name="OSMT" netid="KO" insttype="CMG-5T" lat="40.6009" lon="29.7">
    <comp name="--.HNE">
      <acc value="0.7723686838" flag="0"/>
      <vel value="0.4299063071" flag="0"/>
      <psa03 value="2.4621486786" flag="0"/>
      <psa10 value="0.4859387493" flag="0"/>
      <psa30 value="0.0596430869" flag="0"/>
    </comp>
    <comp name="--.HNN">
      <acc value="0.6057565312" flag="0"/>
      <vel value="0.5325366899" flag="0"/>
      <psa03 value="1.4700772529" flag="0"/>
      <psa10 value="0.6412644398" flag="0"/>
      <psa30 value="0.0807836461" flag="0"/>
    </comp>
    <comp name="--.HNZ">
      <acc value="0.3696601143" flag="0"/>
      <vel value="0.2492875194" flag="0"/>
      <psa03 value="1.0932064560" flag="0"/>
      <psa10 value="0.6500092349" flag="0"/>
      <psa30 value="0.0442546688" flag="0"/>
    </comp>
  </station>
  <station code="SAFT" name="SAFT" netid="KO" insttype="CMG-5T" lat="41.2398" lon="32.6871">
    <comp name="--.HNE">
      <acc value="0.2423290364" flag="0"/>
      <vel value="0.3319071869" flag="0"/>
      <psa03 value="0.5049984273" flag="0"/>
      <psa10 value="0.4056347301" flag="0"/>
      <psa30 value="0.0783120638" flag="0"/>
    </comp>
    <comp name="--.HNN">
      <acc value="0.5956398321" flag="0"/>
      <vel value="1.1644995497" flag="0"/>
      <psa03 value="0.7707071231" flag="0"/>
      <psa10 value="1.0609753491" flag="0"/>
      <psa30 value="0.3397588335" flag="0"/>
    </comp>
    <comp name="--.HNZ">
      <acc value="0.4497186639" flag="0"/>
      <vel value="0.8867235240" flag="0"/>
      <psa03 value="0.5764418058" flag="0"/>
      <psa10 value="1.1427574837" flag="0"/>
      <psa30 value="0.2229122478" flag="0"/>
    </comp>
  </station>
  <station code="SINB" name="SINB" netid="KO" insttype="CMG-5T" lat="40.9998" lon="28.5392">
    <comp name="--.HNZ">
      <acc value="0.2485974217" flag="0"/>
      <vel value="0.3763520929" flag="0"/>
      <psa03 value="0.4640462499" flag="0"/>
      <psa10 value="0.4077432125" flag="0"/>
      <psa30 value="0.1692358384" flag="0"/>
    </comp>
  </station>
  <station code="TUZL" name="TUZL" netid="KO" insttype="CMG-5T" lat="40.8128" lon="29.2657">
    <comp name="--.HNE">
      <acc value="0.9812308612" flag="0"/>
      <vel value="0.4904371029" flag="0"/>
      <psa03 value="2.2718183216" flag="0"/>
      <psa10 value="0.5072911790" flag="0"/>
      <psa30 value="0.0467987748" flag="0"/>
    </comp>
    <comp name="--.HNZ">
      <acc value="0.3131122710" flag="0"/>
      <vel value="0.3495396023" flag="0"/>
      <psa03 value="0.5091053656" flag="0"/>
      <psa10 value="0.3994787738" flag="0"/>
      <psa30 value="0.0553896033" flag="0"/>
    </comp>
    <comp name="--.HNN">
      <acc value="1.0858349977" flag="0"/>
      <vel value="0.6540423491" flag="0"/>
      <psa03 value="2.1131028510" flag="0"/>
      <psa10 value="0.7926386533" flag="0"/>
      <psa30 value="0.0984372283" flag="0"/>
    </comp>
  </station>
  <station code="TVSB" name="TVSB" netid="KO" insttype="120" lat="39.4497" lon="29.4615">
    <comp name="--.HHE">
      <acc value="0.1088902015" flag="0"/>
      <vel value="0.1221244201" flag="0"/>
      <psa03 value="0.2966439273" flag="0"/>
      <psa10 value="0.1413491635" flag="0"/>
      <psa30 value="0.0357277723" flag="0"/>
    </comp>
    <comp name="--.HHN">
      <acc value="0.1269265355" flag="0"/>
      <vel value="0.1084649883" flag="0"/>
      <psa03 value="0.4561979671" flag="0"/>
      <psa10 value="0.1498040602" flag="0"/>
      <psa30 value="0.0178642305" flag="0"/>
    </comp>
    <comp name="--.HHZ">
      <acc value="0.0514454238" flag="0"/>
      <vel value="0.0967144339" flag="0"/>
      <psa03 value="0.1183290097" flag="0"/>
      <psa10 value="0.1509385405" flag="0"/>
      <psa30 value="0.0213495480" flag="0"/>
    </comp>
  </station>
  <station code="YKBL" name="YKBL" netid="KO" insttype="CMG-5T" lat="40.9908" lon="28.6678">
    <comp name="--.HNE">
      <acc value="0.9751342865" flag="0"/>
      <vel value="1.2494038277" flag="0"/>
      <psa03 value="1.4704386084" flag="0"/>
      <psa10 value="1.8401119218" flag="0"/>
      <psa30 value="0.2619222923" flag="0"/>
    </comp>
    <comp name="--.HNN">
      <acc value="0.6952589079" flag="0"/>
