<?xml version="1.0" encoding="UTF-8" standalone="yes"?>
<!DOCTYPE earthquake SYSTEM "stationlist.dtd">
<stationlist created="" xmlns="ch.ethz.sed.shakemap.usgs.xml">
  <station code="ANDN" name="ANDN" netid="TU" insttype="T" lat="37.58" lon="36.3452">
    <comp name="--.HHZ">
      <acc value="0.0078331391" flag="0"/>
      <vel value="0.0030341355" flag="0"/>
      <psa03 value="0.0159420416" flag="0"/>
      <psa10 value="0.0041198187" flag="0"/>
      <psa30 value="0.0001842875" flag="0"/>
    </comp>
    <comp name="--.HHE">
      <acc value="0.0168905218" flag="0"/>
      <vel value="0.0053724566" flag="0"/>
      <psa03 value="0.0274258590" flag="0"/>
      <psa10 value="0.0042959267" flag="0"/>
      <psa30 value="0.0002985100" flag="0"/>
    </comp>
    <comp name="--.HHN">
      <acc value="0.0230233506" flag="0"/>
      <vel value="0.0064885847" flag="0"/>
      <psa03 value="0.0303477956" flag="0"/>
      <psa10 value="0.0040017958" flag="0"/>
      <psa30 value="0.0002690001" flag="0"/>
    </comp>
  </station>
</stationlist>
