<?xml version="1.0" encoding="UTF-8" standalone="yes"?>
<!DOCTYPE earthquake SYSTEM "stationlist.dtd">
<stationlist created="" xmlns="ch.ethz.sed.shakemap.usgs.xml">
  <station code="KARP" name="KARP" netid="GE" insttype="STS-2/N" commtype="DIG" lat="35.5471" lon="27.1611">
    <comp name="--.HHZ">
      <acc value="0.0043127205" flag="0"/>
      <vel value="0.0023055927" flag="0"/>
      <psa03 value="0.0133072057" flag="0"/>
      <psa10 value="0.0034790363" flag="0"/>
      <psa30 value="0.0002622101" flag="0"/>
    </comp>
    <comp name="--.HHE">
      <acc value="0.0074239642" flag="0"/>
      <vel value="0.0044611695" flag="0"/>
      <psa03 value="0.0136903706" flag="0"/>
      <psa10 value="0.0072160778" flag="0"/>
      <psa30 value="0.0003872430" flag="0"/>
    </comp>
    <comp name="--.HHN">
      <acc value="0.0088799443" flag="0"/>
      <vel value="0.0042885905" flag="0"/>
      <psa03 value="0.0162053894" flag="0"/>
      <psa10 value="0.0071979926" flag="0"/>
      <psa30 value="0.0004338702" flag="0"/>
    </comp>
  </station>
  <station code="ZKR" name="ZKR" netid="GE" insttype="STS-2/N" commtype="DIG" lat="35.1147" lon="26.2169">
    <comp name="--.HHE">
      <acc value="0.1136108997" flag="0"/>
      <vel value="0.0360272606" flag="0"/>
      <psa03 value="0.1818313583" flag="0"/>
      <psa10 value="0.0556148479" flag="0"/>
      <psa30 value="0.0026782755" flag="0"/>
    </comp>
    <comp name="--.HHN">
      <acc value="0.0847325630" flag="0"/>
      <vel value="0.0241521680" flag="0"/>
      <psa03 value="0.1486913262" flag="0"/>
      <psa10 value="0.0119899043" flag="0"/>
      <psa30 value="0.0009365500" flag="0"/>
    </comp>
    <comp name="--.HHZ">
      <acc value="0.1017589450" flag="0"/>
      <vel value="0.0280081838" flag="0"/>
      <psa03 value="0.1226897012" flag="0"/>
      <psa10 value="0.0450559896" flag="0"/>
      <psa30 value="0.0038543000" flag="0"/>
    </comp>
  </station>
  <station code="IMOD" name="IMOD" netid="HC" insttype="120" commtype="DIG" lat="34.9731" lon="24.7995">
    <comp name="--.HHN">
      <acc value="0.0100409821" flag="0"/>
      <vel value="0.0068007176" flag="0"/>
      <psa03 value="0.0332319785" flag="0"/>
      <psa10 value="0.0083133147" flag="0"/>
      <psa30 value="0.0004938960" flag="0"/>
    </comp>
    <comp name="--.HHE">
      <acc value="0.0066339911" flag="0"/>
      <vel value="0.0044773680" flag="0"/>
      <psa03 value="0.0168778957" flag="0"/>
      <psa10 value="0.0061219828" flag="0"/>
      <psa30 value="0.0004180215" flag="0"/>
    </comp>
    <comp name="--.HHZ">
      <acc value="0.0049029500" flag="0"/>
      <vel value="0.0033918145" flag="0"/>
      <psa03 value="0.0153434022" flag="0"/>
      <psa10 value="0.0039046236" flag="0"/>
      <psa30 value="0.0003667909" flag="0"/>
    </comp>
  </station>
  <station code="KNSS" name="KNSS" netid="HC" insttype="60" commtype="DIG" lat="35.3042" lon="25.1802">
    <comp name="--.HHE">
      <acc value="0.0000000000" flag="0"/>
      <vel value="-100.0000000000" flag="0"/>
      <psa03 value="0.0000000000" flag="0"/>
      <psa10 value="0.0000000000" flag="0"/>
      <psa30 value="0.0000000000" flag="0"/>
    </comp>
    <comp name="--.HHN">
      <acc value="0.0138639683" flag="0"/>
      <vel value="0.0073081665" flag="0"/>
      <psa03 value="0.0505714065" flag="0"/>
      <psa10 value="0.0073513148" flag="0"/>
      <psa30 value="0.0010119403" flag="0"/>
    </comp>
    <comp name="--.HHZ">
      <acc value="0.0110208538" flag="0"/>
      <vel value="0.0043126502" flag="0"/>
      <psa03 value="0.0243794886" flag="0"/>
      <psa10 value="0.0024015445" flag="0"/>
      <psa30 value="0.0005925689" flag="0"/>
    </comp>
  </station>
  <station code="PFKS" name="PFKS" netid="HC" insttype="120" commtype="DIG" lat="35.0429" lon="25.4733">
    <comp name="--.HHN">
      <acc value="0.0762223471" flag="0"/>
      <vel value="0.0275385483" flag="0"/>
      <psa03 value="0.1652411005" flag="0"/>
      <psa10 value="0.0189221073" flag="0"/>
      <psa30 value="0.0009501224" flag="0"/>
    </comp>
    <comp name="--.HHE">
      <acc value="0.0898535515" flag="0"/>
      <vel value="0.0341395421" flag="0"/>
      <psa03 value="0.2637840034" flag="0"/>
      <psa10 value="0.0170468185" flag="0"/>
      <psa30 value="0.0014946026" flag="0"/>
    </comp>
    <comp name="--.HHZ">
      <acc value="0.0427536057" flag="0"/>
      <vel value="0.0211412200" flag="0"/>
      <psa03 value="0.1148091945" flag="0"/>
      <psa10 value="0.0078402824" flag="0"/>
      <psa30 value="0.0012044172" flag="0"/>
    </comp>
  </station>
  <station code="STIA" name="STIA" netid="HC" insttype="120" commtype="DIG" lat="35.2021" lon="26.0909">
    <comp name="--.HHN">
      <acc value="0.2036020123" flag="0"/>
      <vel value="0.0655627018" flag="0"/>
      <psa03 value="0.2978853448" flag="0"/>
      <psa10 value="0.0380356683" flag="0"/>
      <psa30 value="0.0051537383" flag="0"/>
    </comp>
    <comp name="--.HHE">
      <acc value="0.2383078434" flag="0"/>
      <vel value="0.1029199272" flag="0"/>
      <psa03 value="0.4569489291" flag="0"/>
      <psa10 value="0.0575734747" flag="0"/>
      <psa30 value="0.0041665100" flag="0"/>
    </comp>
    <comp name="--.HHZ">
      <acc value="0.2278321162" flag="0"/>
      <vel value="0.0584075271" flag="0"/>
      <psa03 value="0.3751777482" flag="0"/>
      <psa10 value="0.0215560384" flag="0"/>
      <psa30 value="0.0020385772" flag="0"/>
    </comp>
  </station>
  <station code="AGN1" name="AGN1" netid="HI" insttype="unknown" commtype="DIG" lat="35.1879" lon="25.7155">
    <comp name="--.HNE">
      <acc value="0.0002506885" flag="0"/>
      <vel value="0.0002635285" flag="0"/>
      <psa03 value="0.0003249733" flag="0"/>
      <psa10 value="0.0001814005" flag="0"/>
      <psa30 value="0.0001670968" flag="0"/>
    </comp>
    <comp name="--.HNN">
      <acc value="0.1131311462" flag="0"/>
      <vel value="0.0350708606" flag="0"/>
      <psa03 value="0.1984421901" flag="0"/>
      <psa10 value="0.0127797211" flag="0"/>
      <psa30 value="0.0017331006" flag="0"/>
    </comp>
    <comp name="--.HNZ">
      <acc value="0.0424754361" flag="0"/>
      <vel value="0.0141986659" flag="0"/>
      <psa03 value="0.0743678697" flag="0"/>
      <psa10 value="0.0067706705" flag="0"/>
      <psa30 value="0.0009625358" flag="0"/>
    </comp>
  </station>
  <station code="SIT2" name="SIT2" netid="HI" insttype="CMG-5TD,ACCELEROMETER,GURALP" commtype="DIG" lat="35.2059" lon="26.107">
    <comp name="--.HNE">
      <acc value="0.3354939348" flag="0"/>
      <vel value="0.1597937717" flag="0"/>
      <psa03 value="1.2251683217" flag="0"/>
      <psa10 value="0.0939052986" flag="0"/>
      <psa30 value="0.0059437656" flag="0"/>
    </comp>
    <comp name="--.HNN">
      <acc value="0.2336947262" flag="0"/>
      <vel value="0.1340935414" flag="0"/>
      <psa03 value="0.6401079927" flag="0"/>
      <psa10 value="0.0791691295" flag="0"/>
      <psa30 value="0.0070212513" flag="0"/>
    </comp>
    <comp name="--.HNZ">
      <acc value="0.2339868897" flag="0"/>
      <vel value="0.0926347803" flag="0"/>
      <psa03 value="0.4668889711" flag="0"/>
      <psa10 value="0.0215793053" flag="0"/>
      <psa30 value="0.0021960862" flag="0"/>
    </comp>
  </station>
  <station code="IDI" name="IDI" netid="HL" insttype="120" commtype="DIG" lat="35.288" lon="24.89">
    <comp name="--.HHE">
      <acc value="0.0044838679" flag="0"/>
      <vel value="0.0024108044" flag="0"/>
      <psa03 value="0.0155112939" flag="0"/>
      <psa10 value="0.0028513762" flag="0"/>
      <psa30 value="0.0004629287" flag="0"/>
    </comp>
    <comp name="--.HHN">
      <acc value="0.0044915369" flag="0"/>
      <vel value="0.0022527082" flag="0"/>
      <psa03 value="0.0188649651" flag="0"/>
      <psa10 value="0.0020260175" flag="0"/>
      <psa30 value="0.0004880742" flag="0"/>
    </comp>
    <comp name="--.HHZ">
      <acc value="0.0034120098" flag="0"/>
      <vel value="0.0017594297" flag="0"/>
      <psa03 value="0.0135388713" flag="0"/>
      <psa10 value="0.0018158500" flag="0"/>
      <psa30 value="0.0006342936" flag="0"/>
    </comp>
  </station>
  <station code="KARP" name="KARP" netid="HL" insttype="120" commtype="DIG" lat="35.5471" lon="27.1611">
    <comp name="--.HHN">
      <acc value="0.0085897268" flag="0"/>
      <vel value="0.0041947841" flag="0"/>
      <psa03 value="0.0156694301" flag="0"/>
      <psa10 value="0.0071509025" flag="0"/>
      <psa30 value="0.0004330049" flag="0"/>
    </comp>
    <comp name="--.HHE">
      <acc value="0.0070710104" flag="0"/>
      <vel value="0.0044047361" flag="0"/>
      <psa03 value="0.0133123419" flag="0"/>
      <psa10 value="0.0071764383" flag="0"/>
      <psa30 value="0.0003863270" flag="0"/>
    </comp>
    <comp name="--.HHZ">
      <acc value="0.0040378038" flag="0"/>
      <vel value="0.0022757373" flag="0"/>
      <psa03 value="0.0129530538" flag="0"/>
      <psa10 value="0.0034531531" flag="0"/>
      <psa30 value="0.0002615780" flag="0"/>
    </comp>
  </station>
  <station code="SIVA" name="SIVA" netid="HL" insttype="60" commtype="DIG" lat="35.0178" lon="24.812">
    <comp name="--.HHZ">
      <acc value="0.0067944370" flag="0"/>
      <vel value="0.0037615598" flag="0"/>
      <psa03 value="0.0145206885" flag="0"/>
      <psa10 value="0.0032044948" flag="0"/>
      <psa30 value="0.0003282853" flag="0"/>
    </comp>
    <comp name="--.HHN">
      <acc value="0.0081538342" flag="0"/>
      <vel value="0.0046630576" flag="0"/>
      <psa03 value="0.0205756525" flag="0"/>
      <psa10 value="0.0068880893" flag="0"/>
      <psa30 value="0.0004934437" flag="0"/>
    </comp>
    <comp name="--.HHE">
      <acc value="0.0101062509" flag="0"/>
      <vel value="0.0077569689" flag="0"/>
      <psa03 value="0.0371411506" flag="0"/>
      <psa10 value="0.0087264784" flag="0"/>
      <psa30 value="0.0006820792" flag="0"/>
    </comp>
  </station>
  <station code="IDI" name="IDI" netid="MN" insttype="" commtype="DIG" lat="35.288" lon="24.89">
    <comp name="--.HHE">
      <acc value="0.0040978414" flag="0"/>
      <vel value="0.0021662331" flag="0"/>
      <psa03 value="0.0140294185" flag="0"/>
      <psa10 value="0.0025394078" flag="0"/>
      <psa30 value="0.0004105339" flag="0"/>
    </comp>
    <comp name="--.HHZ">
      <acc value="0.0031520884" flag="0"/>
      <vel value="0.0015712530" flag="0"/>
      <psa03 value="0.0123443835" flag="0"/>
      <psa10 value="0.0016177392" flag="0"/>
      <psa30 value="0.0005627551" flag="0"/>
    </comp>
    <comp name="--.HHN">
      <acc value="0.0040892640" flag="0"/>
      <vel value="0.0020419792" flag="0"/>
      <psa03 value="0.0170868669" flag="0"/>
      <psa10 value="0.0018031296" flag="0"/>
      <psa30 value="0.0004328255" flag="0"/>
    </comp>
  </station>
</stationlist>
