<?xml version="1.0" encoding="UTF-8" standalone="yes"?>
<!DOCTYPE earthquake SYSTEM "stationlist.dtd">
<stationlist created="" xmlns="ch.ethz.sed.shakemap.usgs.xml">
  <station code="AOI" name="AOI" netid="IV" insttype="" lat="43.5502" lon="13.602">
    <comp name="--.HHE">
      <acc value="0.0303071077" flag="0"/>
      <vel value="0.0063313833" flag="0"/>
      <psa03 value="0.0234270153" flag="0"/>
      <psa10 value="0.0024115366" flag="0"/>
      <psa30 value="0.0001637589" flag="0"/>
    </comp>
    <comp name="--.HHN">
      <acc value="0.0345973959" flag="0"/>
      <vel value="0.0064179355" flag="0"/>
      <psa03 value="0.0185262107" flag="0"/>
      <psa10 value="0.0033262678" flag="0"/>
      <psa30 value="0.0002223905" flag="0"/>
    </comp>
    <comp name="--.HHZ">
      <acc value="0.0137959132" flag="0"/>
      <vel value="0.0043586295" flag="0"/>
      <psa03 value="0.0114970371" flag="0"/>
      <psa10 value="0.0023890250" flag="0"/>
      <psa30 value="0.0001706555" flag="0"/>
    </comp>
  </station>
  <station code="APEC" name="APEC" netid="IV" insttype="" lat="43.5585" lon="12.4199">
    <comp name="--.HHN">
      <acc value="0.0149101400" flag="0"/>
      <vel value="0.0074326244" flag="0"/>
      <psa03 value="0.0396637429" flag="0"/>
      <psa10 value="0.0050516378" flag="0"/>
      <psa30 value="0.0003337728" flag="0"/>
    </comp>
    <comp name="--.HHE">
      <acc value="0.0103536866" flag="0"/>
      <vel value="0.0066043711" flag="0"/>
      <psa03 value="0.0545495859" flag="0"/>
      <psa10 value="0.0050526528" flag="0"/>
      <psa30 value="0.0002635759" flag="0"/>
    </comp>
    <comp name="--.HHZ">
      <acc value="0.0086942267" flag="0"/>
      <vel value="0.0052548384" flag="0"/>
      <psa03 value="0.0351091650" flag="0"/>
      <psa10 value="0.0045807588" flag="0"/>
      <psa30 value="0.0002523944" flag="0"/>
    </comp>
  </station>
  <station code="ARVD" name="ARVD" netid="IV" insttype="" lat="43.4981" lon="12.9415">
    <comp name="--.HHE">
      <acc value="0.0096843610" flag="0"/>
      <vel value="0.0039465037" flag="0"/>
      <psa03 value="0.0215128805" flag="0"/>
      <psa10 value="0.0025797414" flag="0"/>
      <psa30 value="0.0004638244" flag="0"/>
    </comp>
    <comp name="--.HHN">
      <acc value="0.0100687740" flag="0"/>
      <vel value="0.0041736078" flag="0"/>
      <psa03 value="0.0198333138" flag="0"/>
      <psa10 value="0.0030315816" flag="0"/>
      <psa30 value="0.0006289156" flag="0"/>
    </comp>
    <comp name="--.HHZ">
      <acc value="0.0086673920" flag="0"/>
      <vel value="0.0033235793" flag="0"/>
      <psa03 value="0.0189349230" flag="0"/>
      <psa10 value="0.0021336945" flag="0"/>
      <psa30 value="0.0005651884" flag="0"/>
    </comp>
  </station>
  <station code="ASSB" name="ASSB" netid="IV" insttype="" lat="43.0426" lon="12.6587">
    <comp name="--.HHN">
      <acc value="0.0061912084" flag="0"/>
      <vel value="0.0047701769" flag="0"/>
      <psa03 value="0.0175044070" flag="0"/>
      <psa10 value="0.0043719041" flag="0"/>
      <psa30 value="0.0004249641" flag="0"/>
    </comp>
    <comp name="--.HHZ">
      <acc value="0.0056081468" flag="0"/>
      <vel value="0.0026340121" flag="0"/>
      <psa03 value="0.0156633688" flag="0"/>
      <psa10 value="0.0019580884" flag="0"/>
      <psa30 value="0.0003206801" flag="0"/>
    </comp>
    <comp name="--.HHE">
      <acc value="0.0081882085" flag="0"/>
      <vel value="0.0051744161" flag="0"/>
      <psa03 value="0.0216239223" flag="0"/>
      <psa10 value="0.0038949177" flag="0"/>
      <psa30 value="0.0002704722" flag="0"/>
    </comp>
  </station>
  <station code="ATBU" name="ATBU" netid="IV" insttype="" lat="43.4757" lon="12.5483">
    <comp name="--.HNE">
      <acc value="0.0196693467" flag="0"/>
      <vel value="0.0132835974" flag="0"/>
      <psa03 value="0.0715941107" flag="0"/>
      <psa10 value="0.0099939842" flag="0"/>
      <psa30 value="0.0006071598" flag="0"/>
    </comp>
    <comp name="--.HNN">
      <acc value="0.0275887700" flag="0"/>
      <vel value="0.0187010597" flag="0"/>
      <psa03 value="0.0651568432" flag="0"/>
      <psa10 value="0.0097502804" flag="0"/>
      <psa30 value="0.0007188208" flag="0"/>
    </comp>
    <comp name="--.HNZ">
      <acc value="0.0110670751" flag="0"/>
      <vel value="0.0073501383" flag="0"/>
      <psa03 value="0.0349133089" flag="0"/>
      <psa10 value="0.0058281188" flag="0"/>
      <psa30 value="0.0004290326" flag="0"/>
    </comp>
  </station>
  <station code="ATFO" name="ATFO" netid="IV" insttype="" lat="43.3666" lon="12.5715">
    <comp name="--.HHZ">
      <acc value="0.0048923130" flag="0"/>
      <vel value="0.0035534998" flag="0"/>
      <psa03 value="0.0169776718" flag="0"/>
      <psa10 value="0.0034539562" flag="0"/>
      <psa30 value="0.0003751277" flag="0"/>
    </comp>
    <comp name="--.HHE">
      <acc value="0.0121960921" flag="0"/>
      <vel value="0.0087819941" flag="0"/>
      <psa03 value="0.0372984277" flag="0"/>
      <psa10 value="0.0118009065" flag="0"/>
      <psa30 value="0.0004449442" flag="0"/>
    </comp>
    <comp name="--.HHN">
      <acc value="0.0138569843" flag="0"/>
      <vel value="0.0067487997" flag="0"/>
      <psa03 value="0.0377443614" flag="0"/>
      <psa10 value="0.0053593788" flag="0"/>
      <psa30 value="0.0003575980" flag="0"/>
    </comp>
  </station>
  <station code="ATMI" name="ATMI" netid="IV" insttype="" lat="43.3342" lon="12.268">
    <comp name="--.HHZ">
      <acc value="0.0033198543" flag="0"/>
      <vel value="0.0021175898" flag="0"/>
      <psa03 value="0.0109133978" flag="0"/>
      <psa10 value="0.0022068035" flag="0"/>
      <psa30 value="0.0001839651" flag="0"/>
    </comp>
    <comp name="--.HHE">
      <acc value="0.0103440089" flag="0"/>
      <vel value="0.0089406257" flag="0"/>
      <psa03 value="0.0223943160" flag="0"/>
      <psa10 value="0.0066746042" flag="0"/>
      <psa30 value="0.0004156331" flag="0"/>
    </comp>
    <comp name="--.HHN">
      <acc value="0.0101395795" flag="0"/>
      <vel value="0.0092070526" flag="0"/>
      <psa03 value="0.0261766261" flag="0"/>
      <psa10 value="0.0092242591" flag="0"/>
      <psa30 value="0.0005270144" flag="0"/>
    </comp>
  </station>
  <station code="ATPC" name="ATPC" netid="IV" insttype="" lat="43.4807" lon="12.457">
    <comp name="--.HHE">
      <acc value="0.0167755017" flag="0"/>
      <vel value="0.0116582310" flag="0"/>
      <psa03 value="0.0543638076" flag="0"/>
      <psa10 value="0.0098248713" flag="0"/>
      <psa30 value="0.0004773955" flag="0"/>
    </comp>
    <comp name="--.HHN">
      <acc value="0.0137102610" flag="0"/>
      <vel value="0.0074901998" flag="0"/>
      <psa03 value="0.0586636772" flag="0"/>
      <psa10 value="0.0091258837" flag="0"/>
      <psa30 value="0.0003463828" flag="0"/>
    </comp>
    <comp name="--.HHZ">
      <acc value="0.0063475055" flag="0"/>
      <vel value="0.0033992828" flag="0"/>
      <psa03 value="0.0147637829" flag="0"/>
      <psa10 value="0.0028669517" flag="0"/>
      <psa30 value="0.0002125683" flag="0"/>
    </comp>
  </station>
  <station code="ATVO" name="ATVO" netid="IV" insttype="" lat="43.3821" lon="12.4066">
    <comp name="--.HHE">
      <acc value="0.0058585110" flag="0"/>
      <vel value="0.0034141348" flag="0"/>
      <psa03 value="0.0178787172" flag="0"/>
      <psa10 value="0.0053822334" flag="0"/>
      <psa30 value="0.0002742973" flag="0"/>
    </comp>
    <comp name="--.HHN">
      <acc value="0.0077127851" flag="0"/>
      <vel value="0.0044056935" flag="0"/>
      <psa03 value="0.0286435043" flag="0"/>
      <psa10 value="0.0042708365" flag="0"/>
      <psa30 value="0.0002500003" flag="0"/>
    </comp>
    <comp name="--.HHZ">
      <acc value="0.0038247786" flag="0"/>
      <vel value="0.0024181035" flag="0"/>
      <psa03 value="0.0091066791" flag="0"/>
      <psa10 value="0.0044571077" flag="0"/>
      <psa30 value="0.0002101966" flag="0"/>
    </comp>
  </station>
  <station code="BRIS" name="BRIS" netid="IV" insttype="" lat="44.2245" lon="11.7666">
    <comp name="--.HHE">
      <acc value="0.0027098203" flag="0"/>
      <vel value="0.0018022540" flag="0"/>
      <psa03 value="0.0098010770" flag="0"/>
      <psa10 value="0.0017961603" flag="0"/>
      <psa30 value="0.0001300200" flag="0"/>
    </comp>
    <comp name="--.HHN">
      <acc value="0.0025602050" flag="0"/>
      <vel value="0.0018725509" flag="0"/>
      <psa03 value="0.0075674723" flag="0"/>
      <psa10 value="0.0019086514" flag="0"/>
      <psa30 value="0.0001812324" flag="0"/>
    </comp>
    <comp name="--.HHZ">
      <acc value="0.0020018675" flag="0"/>
      <vel value="0.0013699971" flag="0"/>
      <psa03 value="0.0063841151" flag="0"/>
      <psa10 value="0.0020535588" flag="0"/>
      <psa30 value="0.0001010599" flag="0"/>
    </comp>
  </station>
  <station code="CAFI" name="CAFI" netid="IV" insttype="" lat="43.3292" lon="11.9663">
    <comp name="--.HHE">
      <acc value="0.0031783552" flag="0"/>
      <vel value="0.0030183067" flag="0"/>
      <psa03 value="0.0092580168" flag="0"/>
      <psa10 value="0.0044711541" flag="0"/>
      <psa30 value="0.0004248511" flag="0"/>
    </comp>
    <comp name="--.HHZ">
      <acc value="0.0028680598" flag="0"/>
      <vel value="0.0016967380" flag="0"/>
      <psa03 value="0.0057438200" flag="0"/>
      <psa10 value="0.0019179571" flag="0"/>
      <psa30 value="0.0001969709" flag="0"/>
    </comp>
    <comp name="--.HHN">
      <acc value="0.0030739772" flag="0"/>
      <vel value="0.0027322557" flag="0"/>
      <psa03 value="0.0068844679" flag="0"/>
      <psa10 value="0.0035839178" flag="0"/>
      <psa30 value="0.0002451442" flag="0"/>
    </comp>
  </station>
  <station code="CESI" name="CESI" netid="IV" insttype="" lat="43.0049" lon="12.9046">
    <comp name="--.HHE">
      <acc value="0.0122491649" flag="0"/>
      <vel value="0.0056635576" flag="0"/>
      <psa03 value="0.0260864569" flag="0"/>
      <psa10 value="0.0062104260" flag="0"/>
      <psa30 value="0.0003511761" flag="0"/>
    </comp>
    <comp name="--.HHN">
      <acc value="0.0100320833" flag="0"/>
      <vel value="0.0046473196" flag="0"/>
      <psa03 value="0.0293874616" flag="0"/>
      <psa10 value="0.0029795597" flag="0"/>
      <psa30 value="0.0002826695" flag="0"/>
    </comp>
    <comp name="--.HHZ">
      <acc value="0.0080612512" flag="0"/>
      <vel value="0.0046146584" flag="0"/>
      <psa03 value="0.0227085503" flag="0"/>
      <psa10 value="0.0057885416" flag="0"/>
      <psa30 value="0.0004007533" flag="0"/>
    </comp>
  </station>
  <station code="CING" name="CING" netid="IV" insttype="" lat="43.3756" lon="13.1954">
    <comp name="--.HHE">
      <acc value="0.0113492650" flag="0"/>
      <vel value="0.0032657288" flag="0"/>
      <psa03 value="0.0098567859" flag="0"/>
      <psa10 value="0.0029415436" flag="0"/>
      <psa30 value="0.0004539536" flag="0"/>
    </comp>
    <comp name="--.HHN">
      <acc value="0.0114957010" flag="0"/>
      <vel value="0.0029911842" flag="0"/>
      <psa03 value="0.0101456728" flag="0"/>
      <psa10 value="0.0022537103" flag="0"/>
      <psa30 value="0.0004281847" flag="0"/>
    </comp>
    <comp name="--.HHZ">
      <acc value="0.0075641654" flag="0"/>
      <vel value="0.0030845273" flag="0"/>
      <psa03 value="0.0116945345" flag="0"/>
      <psa10 value="0.0029096896" flag="0"/>
      <psa30 value="0.0004236354" flag="0"/>
    </comp>
  </station>
  <station code="CRTC" name="CRTC" netid="IV" insttype="" lat="43.7685" lon="12.883">
    <comp name="--.HHE">
      <acc value="0.0795738507" flag="0"/>
      <vel value="0.0435262000" flag="0"/>
      <psa03 value="0.3347812628" flag="0"/>
      <psa10 value="0.0243072317" flag="0"/>
      <psa30 value="0.0021956455" flag="0"/>
    </comp>
    <comp name="--.HHN">
      <acc value="0.0401083433" flag="0"/>
      <vel value="0.0271148050" flag="0"/>
      <psa03 value="0.1663165488" flag="0"/>
      <psa10 value="0.0286772835" flag="0"/>
      <psa30 value="0.0012656066" flag="0"/>
    </comp>
    <comp name="--.HHZ">
      <acc value="0.0385368011" flag="0"/>
      <vel value="0.0217597895" flag="0"/>
      <psa03 value="0.1052158792" flag="0"/>
      <psa10 value="0.0222876231" flag="0"/>
      <psa30 value="0.0012319517" flag="0"/>
    </comp>
  </station>
  <station code="FANO" name="FANO" netid="IV" insttype="" lat="43.8435" lon="13.0184">
    <comp name="--.HNE">
      <acc value="0.1300471457" flag="0"/>
      <vel value="0.0585777848" flag="0"/>
      <psa03 value="0.2227678484" flag="0"/>
      <psa10 value="0.0756367797" flag="0"/>
      <psa30 value="0.0047117474" flag="0"/>
    </comp>
    <comp name="--.HNZ">
      <acc value="0.1281461244" flag="0"/>
      <vel value="0.0311483818" flag="0"/>
      <psa03 value="0.1833625879" flag="0"/>
      <psa10 value="0.0267079617" flag="0"/>
      <psa30 value="0.0028455176" flag="0"/>
    </comp>
    <comp name="--.HNN">
      <acc value="0.1575786937" flag="0"/>
      <vel value="0.0870965474" flag="0"/>
      <psa03 value="0.5669442754" flag="0"/>
      <psa10 value="0.1408066802" flag="0"/>
      <psa30 value="0.0075207838" flag="0"/>
    </comp>
  </station>
  <station code="FDMO" name="FDMO" netid="IV" insttype="" lat="43.0365" lon="13.0873">
    <comp name="--.HHE">
      <acc value="0.0129723276" flag="0"/>
      <vel value="0.0051306576" flag="0"/>
      <psa03 value="0.0236505793" flag="0"/>
      <psa10 value="0.0038754097" flag="0"/>
      <psa30 value="0.0002601426" flag="0"/>
    </comp>
    <comp name="--.HHN">
      <acc value="0.0140615596" flag="0"/>
      <vel value="0.0036187761" flag="0"/>
      <psa03 value="0.0156863318" flag="0"/>
      <psa10 value="0.0027415518" flag="0"/>
      <psa30 value="0.0001783869" flag="0"/>
    </comp>
    <comp name="--.HHZ">
      <acc value="0.0053700509" flag="0"/>
      <vel value="0.0020483538" flag="0"/>
      <psa03 value="0.0090009277" flag="0"/>
      <psa10 value="0.0036555177" flag="0"/>
      <psa30 value="0.0003197942" flag="0"/>
    </comp>
  </station>
  <station code="GUMA" name="GUMA" netid="IV" insttype="" lat="43.0627" lon="13.3352">
    <comp name="--.HHE">
      <acc value="0.0302787665" flag="0"/>
      <vel value="0.0202552833" flag="0"/>
      <psa03 value="0.1223982788" flag="0"/>
      <psa10 value="0.0114862220" flag="0"/>
      <psa30 value="0.0009341457" flag="0"/>
    </comp>
    <comp name="--.HHN">
      <acc value="0.0337523858" flag="0"/>
      <vel value="0.0230564646" flag="0"/>
      <psa03 value="0.0697578122" flag="0"/>
      <psa10 value="0.0197690394" flag="0"/>
      <psa30 value="0.0013124298" flag="0"/>
    </comp>
    <comp name="--.HHZ">
      <acc value="0.0145905767" flag="0"/>
      <vel value="0.0079418419" flag="0"/>
      <psa03 value="0.0271490806" flag="0"/>
      <psa10 value="0.0040346085" flag="0"/>
      <psa30 value="0.0004675581" flag="0"/>
    </comp>
  </station>
  <station code="LMD" name="LMD" netid="IV" insttype="" lat="44.0775" lon="11.7073">
    <comp name="--.HHE">
      <acc value="0.0084606437" flag="0"/>
      <vel value="0.0047549157" flag="0"/>
      <psa03 value="0.0237657335" flag="0"/>
      <psa10 value="0.0034826134" flag="0"/>
      <psa30 value="0.0003649353" flag="0"/>
    </comp>
    <comp name="--.HHN">
      <acc value="0.0080599049" flag="0"/>
      <vel value="0.0046947858" flag="0"/>
      <psa03 value="0.0266209189" flag="0"/>
      <psa10 value="0.0032424251" flag="0"/>
      <psa30 value="0.0003961500" flag="0"/>
    </comp>
    <comp name="--.HHZ">
      <acc value="0.0031096737" flag="0"/>
      <vel value="0.0017385642" flag="0"/>
      <psa03 value="0.0105416637" flag="0"/>
      <psa10 value="0.0027140590" flag="0"/>
      <psa30 value="0.0001172395" flag="0"/>
    </comp>
  </station>
  <station code="MML1" name="MML1" netid="IV" insttype="" lat="43.1135" lon="12.9717">
    <comp name="--.HNE">
      <acc value="0.0170427347" flag="0"/>
      <vel value="0.0059769063" flag="0"/>
      <psa03 value="0.0222846106" flag="0"/>
      <psa10 value="0.0051514973" flag="0"/>
      <psa30 value="0.0003495056" flag="0"/>
    </comp>
    <comp name="--.HNN">
      <acc value="0.0102686384" flag="0"/>
      <vel value="0.0070095636" flag="0"/>
      <psa03 value="0.0222536553" flag="0"/>
      <psa10 value="0.0048840249" flag="0"/>
      <psa30 value="0.0004146992" flag="0"/>
    </comp>
    <comp name="--.HNZ">
      <acc value="0.0096347411" flag="0"/>
      <vel value="0.0050189227" flag="0"/>
      <psa03 value="0.0134264736" flag="0"/>
      <psa10 value="0.0047108263" flag="0"/>
      <psa30 value="0.0004088753" flag="0"/>
    </comp>
  </station>
  <station code="MURB" name="MURB" netid="IV" insttype="" lat="43.263" lon="12.5246">
    <comp name="--.HHE">
      <acc value="0.0234295179" flag="0"/>
      <vel value="0.0109441953" flag="0"/>
      <psa03 value="0.1165499546" flag="0"/>
      <psa10 value="0.0069796150" flag="0"/>
      <psa30 value="0.0006463858" flag="0"/>
    </comp>
    <comp name="--.HHN">
      <acc value="0.0194290111" flag="0"/>
      <vel value="0.0091808249" flag="0"/>
      <psa03 value="0.1020341132" flag="0"/>
      <psa10 value="0.0045834823" flag="0"/>
      <psa30 value="0.0003385094" flag="0"/>
    </comp>
    <comp name="--.HHZ">
      <acc value="0.0079921493" flag="0"/>
      <vel value="0.0035342705" flag="0"/>
      <psa03 value="0.0236512921" flag="0"/>
      <psa10 value="0.0040861648" flag="0"/>
      <psa30 value="0.0002180248" flag="0"/>
    </comp>
  </station>
  <station code="NARO" name="NARO" netid="IV" insttype="" lat="43.6108" lon="12.5806">
    <comp name="--.HHE">
      <acc value="0.0105336295" flag="0"/>
      <vel value="0.0050826738" flag="0"/>
      <psa03 value="0.0370416351" flag="0"/>
      <psa10 value="0.0071994099" flag="0"/>
      <psa30 value="0.0002833518" flag="0"/>
    </comp>
    <comp name="--.HHN">
      <acc value="0.0141502623" flag="0"/>
      <vel value="0.0041949378" flag="0"/>
      <psa03 value="0.0283274732" flag="0"/>
      <psa10 value="0.0054565451" flag="0"/>
      <psa30 value="0.0002350975" flag="0"/>
    </comp>
    <comp name="--.HHZ">
      <acc value="0.0086964143" flag="0"/>
      <vel value="0.0044039217" flag="0"/>
      <psa03 value="0.0230647249" flag="0"/>
      <psa10 value="0.0056039409" flag="0"/>
      <psa30 value="0.0002566611" flag="0"/>
    </comp>
  </station>
  <station code="NRCA" name="NRCA" netid="IV" insttype="" lat="42.8336" lon="13.1143">
    <comp name="--.HHE">
      <acc value="0.0161409258" flag="0"/>
      <vel value="0.0038353806" flag="0"/>
      <psa03 value="0.0150924721" flag="0"/>
      <psa10 value="0.0048186206" flag="0"/>
      <psa30 value="0.0002568959" flag="0"/>
    </comp>
    <comp name="--.HHN">
      <acc value="0.0187787413" flag="0"/>
      <vel value="0.0049322038" flag="0"/>
      <psa03 value="0.0128047204" flag="0"/>
      <psa10 value="0.0041112468" flag="0"/>
      <psa30 value="0.0002468153" flag="0"/>
    </comp>
    <comp name="--.HHZ">
      <acc value="0.0077158956" flag="0"/>
      <vel value="0.0020388714" flag="0"/>
      <psa03 value="0.0071675807" flag="0"/>
      <psa10 value="0.0022225556" flag="0"/>
      <psa30 value="0.0001893870" flag="0"/>
    </comp>
  </station>
  <station code="OFFI" name="OFFI" netid="IV" insttype="" lat="42.935" lon="13.6857">
    <comp name="--.HHN">
      <acc value="0.0082607407" flag="0"/>
      <vel value="0.0095416977" flag="0"/>
      <psa03 value="0.0238402630" flag="0"/>
      <psa10 value="0.0115044403" flag="0"/>
      <psa30 value="0.0012195343" flag="0"/>
    </comp>
    <comp name="--.HHE">
      <acc value="0.0107731658" flag="0"/>
      <vel value="0.0094435190" flag="0"/>
      <psa03 value="0.0233511296" flag="0"/>
      <psa10 value="0.0195038654" flag="0"/>
      <psa30 value="0.0009999317" flag="0"/>
    </comp>
