<?xml version="1.0" encoding="UTF-8" standalone="yes"?>
<!DOCTYPE earthquake SYSTEM "stationlist.dtd">
<stationlist created="" xmlns="ch.ethz.sed.shakemap.usgs.xml">
  <station code="CHAN" name="CHAN" netid="HC" insttype="120" lat="35.5193" lon="24.0428">
    <comp name="--.HHN">
      <acc value="0.0204476096" flag="0"/>
      <vel value="0.0130594253" flag="0"/>
      <psa03 value="0.0644909430" flag="0"/>
      <psa10 value="0.0169042391" flag="0"/>
      <psa30 value="0.0010833178" flag="0"/>
    </comp>
    <comp name="--.HHE">
      <acc value="0.0279374520" flag="0"/>
      <vel value="0.0162403747" flag="0"/>
      <psa03 value="0.0700784325" flag="0"/>
      <psa10 value="0.0149872882" flag="0"/>
      <psa30 value="0.0012659169" flag="0"/>
    </comp>
    <comp name="--.HHZ">
      <acc value="0.0205360012" flag="0"/>
      <vel value="0.0100229325" flag="0"/>
      <psa03 value="0.0561448881" flag="0"/>
      <psa10 value="0.0119943745" flag="0"/>
      <psa30 value="0.0006926208" flag="0"/>
    </comp>
  </station>
  <station code="GVDS" name="GVDS" netid="HC" insttype="60" lat="34.8389" lon="24.0585">
    <comp name="--.HHE">
      <acc value="1.7886479494" flag="0"/>
      <vel value="0.2611991941" flag="0"/>
      <psa03 value="1.1339438190" flag="0"/>
      <psa10 value="0.0474770608" flag="0"/>
      <psa30 value="0.0056407422" flag="0"/>
    </comp>
    <comp name="--.HHZ">
      <acc value="0.9485135874" flag="0"/>
      <vel value="0.1758835938" flag="0"/>
      <psa03 value="0.8980632884" flag="0"/>
      <psa10 value="0.0442908148" flag="0"/>
      <psa30 value="0.0050055565" flag="0"/>
    </comp>
    <comp name="--.HHN">
      <acc value="2.0135728924" flag="0"/>
      <vel value="0.6129206939" flag="0"/>
      <psa03 value="2.7687886553" flag="0"/>
      <psa10 value="0.1155057743" flag="0"/>
      <psa30 value="0.0100221340" flag="0"/>
    </comp>
  </station>
  <station code="IMOD" name="IMOD" netid="HC" insttype="120" lat="34.9731" lon="24.7995">
    <comp name="--.HHE">
      <acc value="0.0144633306" flag="0"/>
      <vel value="0.0070267077" flag="0"/>
      <psa03 value="0.0399201469" flag="0"/>
      <psa10 value="0.0082782213" flag="0"/>
      <psa30 value="0.0004833922" flag="0"/>
    </comp>
    <comp name="--.HHN">
      <acc value="0.0189997867" flag="0"/>
      <vel value="0.0124799730" flag="0"/>
      <psa03 value="0.0626461716" flag="0"/>
      <psa10 value="0.0146547119" flag="0"/>
      <psa30 value="0.0006043862" flag="0"/>
    </comp>
    <comp name="--.HHZ">
      <acc value="0.0151477781" flag="0"/>
      <vel value="0.0055618165" flag="0"/>
      <psa03 value="0.0290203985" flag="0"/>
      <psa10 value="0.0035966299" flag="0"/>
      <psa30 value="0.0002551842" flag="0"/>
    </comp>
  </station>
  <station code="IPPL" name="IPPL" netid="HC" insttype="60" lat="35.3486" lon="24.4632">
    <comp name="--.HHE">
      <acc value="0.0168707447" flag="0"/>
      <vel value="0.0117572245" flag="0"/>
      <psa03 value="0.0688726058" flag="0"/>
      <psa10 value="0.0088791548" flag="0"/>
      <psa30 value="0.0005738416" flag="0"/>
    </comp>
    <comp name="--.HHZ">
      <acc value="0.0112122605" flag="0"/>
      <vel value="0.0061014883" flag="0"/>
      <psa03 value="0.0335907623" flag="0"/>
      <psa10 value="0.0058983527" flag="0"/>
      <psa30 value="0.0002649299" flag="0"/>
    </comp>
    <comp name="--.HHN">
      <acc value="0.0187318201" flag="0"/>
      <vel value="0.0123177110" flag="0"/>
      <psa03 value="0.0622038866" flag="0"/>
      <psa10 value="0.0103765969" flag="0"/>
      <psa30 value="0.0005461710" flag="0"/>
    </comp>
  </station>
  <station code="KNDR" name="KNDR" netid="HC" insttype="120" lat="35.2348" lon="23.6248">
    <comp name="--.HHE">
      <acc value="0.0324902682" flag="0"/>
      <vel value="0.0123192954" flag="0"/>
      <psa03 value="0.0831704792" flag="0"/>
      <psa10 value="0.0148163500" flag="0"/>
      <psa30 value="0.0005487973" flag="0"/>
    </comp>
    <comp name="--.HHN">
      <acc value="0.0365337577" flag="0"/>
      <vel value="0.0193096160" flag="0"/>
      <psa03 value="0.1514336809" flag="0"/>
      <psa10 value="0.0137796589" flag="0"/>
      <psa30 value="0.0006927215" flag="0"/>
    </comp>
    <comp name="--.HHZ">
      <acc value="0.0243091291" flag="0"/>
      <vel value="0.0112797571" flag="0"/>
      <psa03 value="0.0767399895" flag="0"/>
      <psa10 value="0.0080716719" flag="0"/>
      <psa30 value="0.0003995368" flag="0"/>
    </comp>
  </station>
  <station code="RODP" name="RODP" netid="HC" insttype="120" lat="35.5604" lon="23.7577">
    <comp name="--.HHN">
      <acc value="0.0105263516" flag="0"/>
      <vel value="0.0050383761" flag="0"/>
      <psa03 value="0.0299615947" flag="0"/>
      <psa10 value="0.0053051323" flag="0"/>
      <psa30 value="0.0002854822" flag="0"/>
    </comp>
    <comp name="--.HHZ">
      <acc value="0.0050448829" flag="0"/>
      <vel value="0.0031589447" flag="0"/>
      <psa03 value="0.0198680943" flag="0"/>
      <psa10 value="0.0031572040" flag="0"/>
      <psa30 value="0.0001790529" flag="0"/>
    </comp>
    <comp name="--.HHE">
      <acc value="0.0159198564" flag="0"/>
      <vel value="0.0115476242" flag="0"/>
      <psa03 value="0.0542986936" flag="0"/>
      <psa10 value="0.0061237508" flag="0"/>
      <psa30 value="0.0003938582" flag="0"/>
    </comp>
  </station>
  <station code="IMMV" name="IMMV" netid="HL" insttype="120" lat="35.4606" lon="23.9811">
    <comp name="--.HHE">
      <acc value="0.0237723820" flag="0"/>
      <vel value="0.0109820001" flag="0"/>
      <psa03 value="0.0624987892" flag="0"/>
      <psa10 value="0.0069902701" flag="0"/>
      <psa30 value="0.0006123690" flag="0"/>
    </comp>
    <comp name="--.HHN">
      <acc value="0.0298143426" flag="0"/>
      <vel value="0.0144252918" flag="0"/>
      <psa03 value="0.1538964857" flag="0"/>
      <psa10 value="0.0068892966" flag="0"/>
      <psa30 value="0.0005643855" flag="0"/>
    </comp>
    <comp name="--.HHZ">
      <acc value="0.0163552409" flag="0"/>
      <vel value="0.0085278738" flag="0"/>
      <psa03 value="0.0437321023" flag="0"/>
      <psa10 value="0.0048938397" flag="0"/>
      <psa30 value="0.0003725746" flag="0"/>
    </comp>
  </station>
  <station code="SIVA" name="SIVA" netid="HL" insttype="60" lat="35.0178" lon="24.812">
    <comp name="--.HHE">
      <acc value="0.0290196076" flag="0"/>
      <vel value="0.0150948454" flag="0"/>
      <psa03 value="0.1014568540" flag="0"/>
      <psa10 value="0.0133075675" flag="0"/>
      <psa30 value="0.0006926567" flag="0"/>
    </comp>
    <comp name="--.HHN">
      <acc value="0.0226943108" flag="0"/>
      <vel value="0.0114362326" flag="0"/>
      <psa03 value="0.0483053425" flag="0"/>
      <psa10 value="0.0098019907" flag="0"/>
      <psa30 value="0.0005183179" flag="0"/>
    </comp>
    <comp name="--.HHZ">
      <acc value="0.0147294821" flag="0"/>
      <vel value="0.0081768793" flag="0"/>
      <psa03 value="0.0380836471" flag="0"/>
      <psa10 value="0.0049730140" flag="0"/>
      <psa30 value="0.0003227105" flag="0"/>
    </comp>
  </station>
  <station code="VAM" name="VAM" netid="HL" insttype="CMG3ESPC-120s" lat="35.407" lon="24.1997">
    <comp name="--.HHZ">
      <acc value="0.0092573371" flag="0"/>
      <vel value="0.0060154039" flag="0"/>
      <psa03 value="0.0258711937" flag="0"/>
      <psa10 value="0.0064135094" flag="0"/>
      <psa30 value="0.0004957592" flag="0"/>
    </comp>
    <comp name="--.HHE">
      <acc value="0.0165628389" flag="0"/>
      <vel value="0.0083095595" flag="0"/>
      <psa03 value="0.0460077840" flag="0"/>
      <psa10 value="0.0088241023" flag="0"/>
      <psa30 value="0.0005815480" flag="0"/>
    </comp>
    <comp name="--.HHN">
      <acc value="0.0221671342" flag="0"/>
      <vel value="0.0128764528" flag="0"/>
      <psa03 value="0.0879677901" flag="0"/>
      <psa10 value="0.0070198974" flag="0"/>
      <psa30 value="0.0006283809" flag="0"/>
    </comp>
  </station>
</stationlist>
