<?xml version="1.0" encoding="UTF-8" standalone="yes"?>
<!DOCTYPE earthquake SYSTEM "stationlist.dtd">
<stationlist created="" xmlns="ch.ethz.sed.shakemap.usgs.xml">
  <station code="CHAN" name="CHAN" netid="HC" insttype="120" lat="35.5193" lon="24.0428">
    <comp name="--.HHN">
      <acc value="0.0204476093" flag="0"/>
      <vel value="0.0130594225" flag="0"/>
      <psa03 value="0.0644909430" flag="0"/>
      <psa10 value="0.0169042395" flag="0"/>
      <psa30 value="0.0010832294" flag="0"/>
    </comp>
    <comp name="--.HHZ">
      <acc value="0.0205360014" flag="0"/>
      <vel value="0.0100229376" flag="0"/>
      <psa03 value="0.0561448881" flag="0"/>
      <psa10 value="0.0119943745" flag="0"/>
      <psa30 value="0.0006926399" flag="0"/>
    </comp>
    <comp name="--.HHE">
      <acc value="0.0279374514" flag="0"/>
      <vel value="0.0162403739" flag="0"/>
      <psa03 value="0.0700784325" flag="0"/>
      <psa10 value="0.0149872882" flag="0"/>
      <psa30 value="0.0012659798" flag="0"/>
    </comp>
  </station>
  <station code="GVDS" name="GVDS" netid="HC" insttype="60" lat="34.8389" lon="24.0585">
    <comp name="--.HHE">
      <acc value="1.7886479500" flag="0"/>
      <vel value="0.2611992002" flag="0"/>
      <psa03 value="1.1339438190" flag="0"/>
      <psa10 value="0.0474770627" flag="0"/>
      <psa30 value="0.0056405824" flag="0"/>
    </comp>
    <comp name="--.HHZ">
      <acc value="0.9485135872" flag="0"/>
      <vel value="0.1758835977" flag="0"/>
      <psa03 value="0.8980632884" flag="0"/>
      <psa10 value="0.0442908143" flag="0"/>
      <psa30 value="0.0050071470" flag="0"/>
    </comp>
    <comp name="--.HHN">
      <acc value="2.0135728920" flag="0"/>
      <vel value="0.6129206929" flag="0"/>
      <psa03 value="2.7687886553" flag="0"/>
      <psa10 value="0.1155057595" flag="0"/>
      <psa30 value="0.0100218530" flag="0"/>
    </comp>
  </station>
  <station code="IMOD" name="IMOD" netid="HC" insttype="120" lat="34.9731" lon="24.7995">
    <comp name="--.HHE">
      <acc value="0.0144633307" flag="0"/>
      <vel value="0.0070267078" flag="0"/>
      <psa03 value="0.0399201469" flag="0"/>
      <psa10 value="0.0082782215" flag="0"/>
      <psa30 value="0.0004834134" flag="0"/>
    </comp>
    <comp name="--.HHN">
      <acc value="0.0189997869" flag="0"/>
      <vel value="0.0124799706" flag="0"/>
      <psa03 value="0.0626461716" flag="0"/>
      <psa10 value="0.0146547118" flag="0"/>
      <psa30 value="0.0006040447" flag="0"/>
    </comp>
    <comp name="--.HHZ">
      <acc value="0.0151477775" flag="0"/>
      <vel value="0.0055618132" flag="0"/>
      <psa03 value="0.0290203985" flag="0"/>
      <psa10 value="0.0035966299" flag="0"/>
      <psa30 value="0.0002551180" flag="0"/>
    </comp>
  </station>
  <station code="IPPL" name="IPPL" netid="HC" insttype="60" lat="35.3486" lon="24.4632">
    <comp name="--.HHZ">
      <acc value="0.0112122605" flag="0"/>
      <vel value="0.0061014863" flag="0"/>
      <psa03 value="0.0335907623" flag="0"/>
      <psa10 value="0.0058983527" flag="0"/>
      <psa30 value="0.0002650283" flag="0"/>
    </comp>
    <comp name="--.HHE">
      <acc value="0.0168707446" flag="0"/>
      <vel value="0.0117572222" flag="0"/>
      <psa03 value="0.0688726058" flag="0"/>
      <psa10 value="0.0088791548" flag="0"/>
      <psa30 value="0.0005738611" flag="0"/>
    </comp>
    <comp name="--.HHN">
      <acc value="0.0187318204" flag="0"/>
      <vel value="0.0123177114" flag="0"/>
      <psa03 value="0.0622038866" flag="0"/>
      <psa10 value="0.0103765970" flag="0"/>
      <psa30 value="0.0005460908" flag="0"/>
    </comp>
  </station>
  <station code="KNDR" name="KNDR" netid="HC" insttype="120" lat="35.2348" lon="23.6248">
    <comp name="--.HHN">
      <acc value="0.0365337577" flag="0"/>
      <vel value="0.0193096173" flag="0"/>
      <psa03 value="0.1514336809" flag="0"/>
      <psa10 value="0.0137796589" flag="0"/>
      <psa30 value="0.0006927071" flag="0"/>
    </comp>
    <comp name="--.HHZ">
      <acc value="0.0243091291" flag="0"/>
      <vel value="0.0112797570" flag="0"/>
      <psa03 value="0.0767399895" flag="0"/>
      <psa10 value="0.0080716719" flag="0"/>
      <psa30 value="0.0003995519" flag="0"/>
    </comp>
    <comp name="--.HHE">
      <acc value="0.0324902682" flag="0"/>
      <vel value="0.0123192954" flag="0"/>
      <psa03 value="0.0831704792" flag="0"/>
      <psa10 value="0.0148163500" flag="0"/>
      <psa30 value="0.0005487936" flag="0"/>
    </comp>
  </station>
  <station code="KNSS" name="KNSS" netid="HC" insttype="60" lat="35.3042" lon="25.1802">
    <comp name="--.HHZ">
      <acc value="0.0024099474" flag="0"/>
      <vel value="0.0016095166" flag="0"/>
      <psa03 value="0.0090630886" flag="0"/>
      <psa10 value="0.0018859828" flag="0"/>
      <psa30 value="0.0001872487" flag="0"/>
    </comp>
    <comp name="--.HHE">
      <acc value="0.0042835106" flag="0"/>
      <vel value="0.0030496730" flag="0"/>
      <psa03 value="0.0128540267" flag="0"/>
      <psa10 value="0.0034295419" flag="0"/>
      <psa30 value="0.0002883527" flag="0"/>
    </comp>
    <comp name="--.HHN">
      <acc value="0.0037885387" flag="0"/>
      <vel value="0.0027805843" flag="0"/>
      <psa03 value="0.0130036308" flag="0"/>
      <psa10 value="0.0041021605" flag="0"/>
      <psa30 value="0.0003947822" flag="0"/>
    </comp>
  </station>
  <station code="RODP" name="RODP" netid="HC" insttype="120" lat="35.5604" lon="23.7577">
    <comp name="--.HHN">
      <acc value="0.0105263514" flag="0"/>
      <vel value="0.0050383805" flag="0"/>
      <psa03 value="0.0299615947" flag="0"/>
      <psa10 value="0.0053051322" flag="0"/>
      <psa30 value="0.0002857086" flag="0"/>
    </comp>
    <comp name="--.HHZ">
      <acc value="0.0050448828" flag="0"/>
      <vel value="0.0031589487" flag="0"/>
      <psa03 value="0.0198680943" flag="0"/>
      <psa10 value="0.0031572040" flag="0"/>
      <psa30 value="0.0001791544" flag="0"/>
    </comp>
    <comp name="--.HHE">
      <acc value="0.0159198564" flag="0"/>
      <vel value="0.0115476262" flag="0"/>
      <psa03 value="0.0542986936" flag="0"/>
      <psa10 value="0.0061237509" flag="0"/>
      <psa30 value="0.0003938229" flag="0"/>
    </comp>
  </station>
  <station code="IMMV" name="IMMV" netid="HL" insttype="120" lat="35.4606" lon="23.9811">
    <comp name="--.HHE">
      <acc value="0.0237723817" flag="0"/>
      <vel value="0.0109819984" flag="0"/>
      <psa03 value="0.0624987892" flag="0"/>
      <psa10 value="0.0069902701" flag="0"/>
      <psa30 value="0.0006121819" flag="0"/>
    </comp>
    <comp name="--.HHN">
      <acc value="0.0298143413" flag="0"/>
      <vel value="0.0144252929" flag="0"/>
      <psa03 value="0.1538964857" flag="0"/>
      <psa10 value="0.0068892967" flag="0"/>
      <psa30 value="0.0005641501" flag="0"/>
    </comp>
    <comp name="--.HHZ">
      <acc value="0.0163552410" flag="0"/>
      <vel value="0.0085278745" flag="0"/>
      <psa03 value="0.0437321023" flag="0"/>
      <psa10 value="0.0048938398" flag="0"/>
      <psa30 value="0.0003724286" flag="0"/>
    </comp>
  </station>
  <station code="SIVA" name="SIVA" netid="HL" insttype="GMG5TD" lat="35.0178" lon="24.812">
    <comp name="00.HNZ">
      <acc value="0.0143398585" flag="0"/>
      <vel value="0.0080364465" flag="0"/>
      <psa03 value="0.0380151359" flag="0"/>
      <psa10 value="0.0049633605" flag="0"/>
      <psa30 value="0.0003412886" flag="0"/>
    </comp>
    <comp name="00.HNE">
      <acc value="0.0271046638" flag="0"/>
      <vel value="0.0142081852" flag="0"/>
      <psa03 value="0.0967029504" flag="0"/>
      <psa10 value="0.0124708807" flag="0"/>
      <psa30 value="0.0006168927" flag="0"/>
    </comp>
    <comp name="00.HNN">
      <acc value="0.0225320152" flag="0"/>
      <vel value="0.0128493926" flag="0"/>
      <psa03 value="0.0532124801" flag="0"/>
      <psa10 value="0.0114048251" flag="0"/>
      <psa30 value="0.0006086483" flag="0"/>
    </comp>
  </station>
  <station code="VAM" name="VAM" netid="HL" insttype="CMG3ESPC-120s" lat="35.407" lon="24.1997">
    <comp name="--.HHZ">
      <acc value="0.0092573369" flag="0"/>
      <vel value="0.0060154097" flag="0"/>
      <psa03 value="0.0258711937" flag="0"/>
      <psa10 value="0.0064135094" flag="0"/>
      <psa30 value="0.0004960165" flag="0"/>
    </comp>
    <comp name="--.HHN">
      <acc value="0.0221671344" flag="0"/>
      <vel value="0.0128764511" flag="0"/>
      <psa03 value="0.0879677901" flag="0"/>
      <psa10 value="0.0070198973" flag="0"/>
      <psa30 value="0.0006286371" flag="0"/>
    </comp>
    <comp name="--.HHE">
      <acc value="0.0165628392" flag="0"/>
      <vel value="0.0083095570" flag="0"/>
      <psa03 value="0.0460077840" flag="0"/>
      <psa10 value="0.0088241025" flag="0"/>
      <psa30 value="0.0005816289" flag="0"/>
    </comp>
  </station>
</stationlist>
