<?xml version="1.0" encoding="UTF-8" standalone="yes"?>
<!DOCTYPE earthquake SYSTEM "stationlist.dtd">
<stationlist created="" xmlns="ch.ethz.sed.shakemap.usgs.xml">
  <station code="CHAN" name="CHAN" netid="HC" insttype="120" lat="35.5193" lon="24.0428">
    <comp name="--.HHE">
      <acc value="0.0279374517" flag="0"/>
      <vel value="0.0162403682" flag="0"/>
      <psa03 value="0.0700784325" flag="0"/>
      <psa10 value="0.0149872880" flag="0"/>
      <psa30 value="0.0012660853" flag="0"/>
    </comp>
    <comp name="--.HHN">
      <acc value="0.0204476106" flag="0"/>
      <vel value="0.0130594240" flag="0"/>
      <psa03 value="0.0644909430" flag="0"/>
      <psa10 value="0.0169042391" flag="0"/>
      <psa30 value="0.0010833174" flag="0"/>
    </comp>
    <comp name="--.HHZ">
      <acc value="0.0205360008" flag="0"/>
      <vel value="0.0100229368" flag="0"/>
      <psa03 value="0.0561448881" flag="0"/>
      <psa10 value="0.0119943741" flag="0"/>
      <psa30 value="0.0006926436" flag="0"/>
    </comp>
  </station>
  <station code="IPPL" name="IPPL" netid="HC" insttype="60" lat="35.3486" lon="24.4632">
    <comp name="--.HHN">
      <acc value="0.0187318204" flag="0"/>
      <vel value="0.0123177136" flag="0"/>
      <psa03 value="0.0622038866" flag="0"/>
      <psa10 value="0.0103765969" flag="0"/>
      <psa30 value="0.0005466190" flag="0"/>
    </comp>
    <comp name="--.HHE">
      <acc value="0.0168707445" flag="0"/>
      <vel value="0.0117572257" flag="0"/>
      <psa03 value="0.0688726058" flag="0"/>
      <psa10 value="0.0088791547" flag="0"/>
      <psa30 value="0.0005737709" flag="0"/>
    </comp>
    <comp name="--.HHZ">
      <acc value="0.0112122602" flag="0"/>
      <vel value="0.0061014896" flag="0"/>
      <psa03 value="0.0335907623" flag="0"/>
      <psa10 value="0.0058983527" flag="0"/>
      <psa30 value="0.0002649245" flag="0"/>
    </comp>
  </station>
  <station code="KNDR" name="KNDR" netid="HC" insttype="120" lat="35.2348" lon="23.6248">
    <comp name="--.HHZ">
      <acc value="0.0243091288" flag="0"/>
      <vel value="0.0112797578" flag="0"/>
      <psa03 value="0.0767399895" flag="0"/>
      <psa10 value="0.0080716721" flag="0"/>
      <psa30 value="0.0003995931" flag="0"/>
    </comp>
    <comp name="--.HHE">
      <acc value="0.0324902680" flag="0"/>
      <vel value="0.0123192939" flag="0"/>
      <psa03 value="0.0831704792" flag="0"/>
      <psa10 value="0.0148163501" flag="0"/>
      <psa30 value="0.0005484435" flag="0"/>
    </comp>
    <comp name="--.HHN">
      <acc value="0.0365337577" flag="0"/>
      <vel value="0.0193096171" flag="0"/>
      <psa03 value="0.1514336809" flag="0"/>
      <psa10 value="0.0137796591" flag="0"/>
      <psa30 value="0.0006917420" flag="0"/>
    </comp>
  </station>
  <station code="KNSS" name="KNSS" netid="HC" insttype="60" lat="35.3042" lon="25.1802">
    <comp name="--.HHN">
      <acc value="0.0037885387" flag="0"/>
      <vel value="0.0027805840" flag="0"/>
      <psa03 value="0.0130036308" flag="0"/>
      <psa10 value="0.0041021605" flag="0"/>
      <psa30 value="0.0003947824" flag="0"/>
    </comp>
    <comp name="--.HHE">
      <acc value="0.0042835106" flag="0"/>
      <vel value="0.0030496728" flag="0"/>
      <psa03 value="0.0128540267" flag="0"/>
      <psa10 value="0.0034295419" flag="0"/>
      <psa30 value="0.0002883525" flag="0"/>
    </comp>
    <comp name="--.HHZ">
      <acc value="0.0024099474" flag="0"/>
      <vel value="0.0016095217" flag="0"/>
      <psa03 value="0.0090630886" flag="0"/>
      <psa10 value="0.0018859828" flag="0"/>
      <psa30 value="0.0001872542" flag="0"/>
    </comp>
  </station>
  <station code="RODP" name="RODP" netid="HC" insttype="120" lat="35.5604" lon="23.7577">
    <comp name="--.HHN">
      <acc value="0.0105263517" flag="0"/>
      <vel value="0.0050383786" flag="0"/>
      <psa03 value="0.0299615947" flag="0"/>
      <psa10 value="0.0053051323" flag="0"/>
      <psa30 value="0.0002850269" flag="0"/>
    </comp>
    <comp name="--.HHE">
      <acc value="0.0159198564" flag="0"/>
      <vel value="0.0115476255" flag="0"/>
      <psa03 value="0.0542986936" flag="0"/>
      <psa10 value="0.0061237508" flag="0"/>
      <psa30 value="0.0003937860" flag="0"/>
    </comp>
    <comp name="--.HHZ">
      <acc value="0.0050448831" flag="0"/>
      <vel value="0.0031589488" flag="0"/>
      <psa03 value="0.0198680943" flag="0"/>
      <psa10 value="0.0031572040" flag="0"/>
      <psa30 value="0.0001786602" flag="0"/>
    </comp>
  </station>
  <station code="IMMV" name="IMMV" netid="HL" insttype="120" lat="35.4606" lon="23.9811">
    <comp name="--.HHE">
      <acc value="0.0237723823" flag="0"/>
      <vel value="0.0109819974" flag="0"/>
      <psa03 value="0.0624987892" flag="0"/>
      <psa10 value="0.0069902703" flag="0"/>
      <psa30 value="0.0006122006" flag="0"/>
    </comp>
    <comp name="--.HHZ">
      <acc value="0.0163552409" flag="0"/>
      <vel value="0.0085278737" flag="0"/>
      <psa03 value="0.0437321023" flag="0"/>
      <psa10 value="0.0048938395" flag="0"/>
      <psa30 value="0.0003725802" flag="0"/>
    </comp>
    <comp name="--.HHN">
      <acc value="0.0298143422" flag="0"/>
      <vel value="0.0144252919" flag="0"/>
      <psa03 value="0.1538964857" flag="0"/>
      <psa10 value="0.0068892968" flag="0"/>
      <psa30 value="0.0005645143" flag="0"/>
    </comp>
  </station>
  <station code="VAM" name="VAM" netid="HL" insttype="CMG3ESPC-120s" lat="35.407" lon="24.1997">
    <comp name="--.HHZ">
      <acc value="0.0092573379" flag="0"/>
      <vel value="0.0060154083" flag="0"/>
      <psa03 value="0.0258711937" flag="0"/>
      <psa10 value="0.0064135094" flag="0"/>
      <psa30 value="0.0004950974" flag="0"/>
    </comp>
    <comp name="--.HHN">
      <acc value="0.0221671335" flag="0"/>
      <vel value="0.0128764524" flag="0"/>
      <psa03 value="0.0879677901" flag="0"/>
      <psa10 value="0.0070198969" flag="0"/>
      <psa30 value="0.0006276791" flag="0"/>
    </comp>
    <comp name="--.HHE">
      <acc value="0.0165628388" flag="0"/>
      <vel value="0.0083095578" flag="0"/>
      <psa03 value="0.0460077840" flag="0"/>
      <psa10 value="0.0088241022" flag="0"/>
      <psa30 value="0.0005818968" flag="0"/>
    </comp>
  </station>
</stationlist>
