<?xml version="1.0" encoding="UTF-8" standalone="yes"?>
<!DOCTYPE earthquake SYSTEM "stationlist.dtd">
<stationlist created="" xmlns="ch.ethz.sed.shakemap.usgs.xml">
  <station code="CAYL" name="CAYL" netid="KO" insttype="CMG-6T" lat="40.3745" lon="36.159">
    <comp name="--.HHE">
      <acc value="0.1558586211" flag="0"/>
      <vel value="0.0286238254" flag="0"/>
      <psa03 value="0.1081793112" flag="0"/>
      <psa10 value="0.0081924434" flag="0"/>
      <psa30 value="0.0005109545" flag="0"/>
    </comp>
    <comp name="--.HHN">
      <acc value="0.1786979278" flag="0"/>
      <vel value="0.0326728482" flag="0"/>
      <psa03 value="0.1000623597" flag="0"/>
      <psa10 value="0.0073309455" flag="0"/>
      <psa30 value="0.0005287453" flag="0"/>
    </comp>
    <comp name="--.HHZ">
      <acc value="0.2848111396" flag="0"/>
      <vel value="0.0458669495" flag="0"/>
      <psa03 value="0.0938179727" flag="0"/>
      <psa10 value="0.0069888071" flag="0"/>
      <psa30 value="0.0006408576" flag="0"/>
    </comp>
  </station>
  <station code="CORM" name="CORM" netid="KO" insttype="CMG-3ESP" lat="40.1785" lon="34.6302">
    <comp name="--.HHE">
      <acc value="0.0083873610" flag="0"/>
      <vel value="0.0030385951" flag="0"/>
      <psa03 value="0.0182554376" flag="0"/>
      <psa10 value="0.0031225714" flag="0"/>
      <psa30 value="0.0002045708" flag="0"/>
    </comp>
    <comp name="--.HHN">
      <acc value="0.0076172932" flag="0"/>
      <vel value="0.0034930853" flag="0"/>
      <psa03 value="0.0202337055" flag="0"/>
      <psa10 value="0.0027036661" flag="0"/>
      <psa30 value="0.0003006164" flag="0"/>
    </comp>
    <comp name="--.HHZ">
      <acc value="0.0048338170" flag="0"/>
      <vel value="0.0021463354" flag="0"/>
      <psa03 value="0.0133114076" flag="0"/>
      <psa10 value="0.0017537705" flag="0"/>
      <psa30 value="0.0001844751" flag="0"/>
    </comp>
  </station>
  <station code="KVT" name="KVT" netid="KO" insttype="CMG-3T" lat="41.0807" lon="36.0463">
    <comp name="--.HHE">
      <acc value="0.0060012831" flag="0"/>
      <vel value="0.0042094483" flag="0"/>
      <psa03 value="0.0237585962" flag="0"/>
      <psa10 value="0.0039888220" flag="0"/>
      <psa30 value="0.0005031526" flag="0"/>
    </comp>
    <comp name="--.HHZ">
      <acc value="0.0125992772" flag="0"/>
      <vel value="0.0045306971" flag="0"/>
      <psa03 value="0.0230044874" flag="0"/>
      <psa10 value="0.0025198999" flag="0"/>
      <psa30 value="0.0002274714" flag="0"/>
    </comp>
    <comp name="--.HHN">
      <acc value="0.0059213407" flag="0"/>
      <vel value="0.0032979956" flag="0"/>
      <psa03 value="0.0235240801" flag="0"/>
      <psa10 value="0.0053463729" flag="0"/>
      <psa30 value="0.0002804331" flag="0"/>
    </comp>
  </station>
  <station code="RSDY" name="RSDY" netid="KO" insttype="CMG-3T" lat="40.3971" lon="37.3273">
    <comp name="--.HHN">
      <acc value="0.0080441606" flag="0"/>
      <vel value="0.0077205000" flag="0"/>
      <psa03 value="0.0222643509" flag="0"/>
      <psa10 value="0.0089321079" flag="0"/>
      <psa30 value="0.0005589747" flag="0"/>
    </comp>
    <comp name="--.HHZ">
      <acc value="0.0073653426" flag="0"/>
      <vel value="0.0046304810" flag="0"/>
      <psa03 value="0.0277736996" flag="0"/>
      <psa10 value="0.0034486211" flag="0"/>
      <psa30 value="0.0002774512" flag="0"/>
    </comp>
    <comp name="--.HHE">
      <acc value="0.0122045823" flag="0"/>
      <vel value="0.0074929240" flag="0"/>
      <psa03 value="0.0316228900" flag="0"/>
      <psa10 value="0.0071194972" flag="0"/>
      <psa30 value="0.0005034118" flag="0"/>
    </comp>
  </station>
  <station code="TOKT" name="TOKT" netid="KO" insttype="CMG-3T" lat="40.3173" lon="36.5443">
    <comp name="--.HHZ">
      <acc value="0.0000493624" flag="0"/>
      <vel value="0.0000054240" flag="0"/>
      <psa03 value="0.0000128747" flag="0"/>
      <psa10 value="0.0000036208" flag="0"/>
      <psa30 value="0.0000007292" flag="0"/>
    </comp>
    <comp name="--.HHE">
      <acc value="0.0163325637" flag="0"/>
      <vel value="0.0060139820" flag="0"/>
      <psa03 value="0.0263066863" flag="0"/>
      <psa10 value="0.0100960055" flag="0"/>
      <psa30 value="0.0007798404" flag="0"/>
    </comp>
    <comp name="--.HHN">
      <acc value="0.0209010578" flag="0"/>
      <vel value="0.0060570469" flag="0"/>
      <psa03 value="0.0391936831" flag="0"/>
      <psa10 value="0.0048858236" flag="0"/>
      <psa30 value="0.0007076727" flag="0"/>
    </comp>
  </station>
  <station code="YOZ" name="YOZ" netid="KO" insttype="CMG-3T" lat="39.6376" lon="35.3152">
    <comp name="--.HHE">
      <acc value="0.1423520972" flag="0"/>
      <vel value="0.0441191856" flag="0"/>
      <psa03 value="0.1831998367" flag="0"/>
      <psa10 value="0.0286271347" flag="0"/>
      <psa30 value="0.0011598291" flag="0"/>
    </comp>
    <comp name="--.HHN">
      <acc value="0.1436822246" flag="0"/>
      <vel value="0.0360822050" flag="0"/>
      <psa03 value="0.2159233110" flag="0"/>
      <psa10 value="0.0165845139" flag="0"/>
      <psa30 value="0.0009136234" flag="0"/>
    </comp>
    <comp name="--.HHZ">
      <acc value="0.1083244500" flag="0"/>
      <vel value="0.0319167395" flag="0"/>
      <psa03 value="0.1165555693" flag="0"/>
      <psa10 value="0.0059810840" flag="0"/>
      <psa30 value="0.0004936135" flag="0"/>
    </comp>
  </station>
</stationlist>
