<?xml version="1.0" encoding="UTF-8" standalone="yes"?>
<!DOCTYPE earthquake SYSTEM "stationlist.dtd">
<stationlist created="" xmlns="ch.ethz.sed.shakemap.usgs.xml">
  <station code="CAYL" name="CAYL" netid="KO" insttype="CMG-6T" lat="40.3745" lon="36.159">
    <comp name="--.HHE">
      <acc value="0.1558586202" flag="0"/>
      <vel value="0.0286238261" flag="0"/>
      <psa03 value="0.1081793112" flag="0"/>
      <psa10 value="0.0081924391" flag="0"/>
      <psa30 value="0.0005109366" flag="0"/>
    </comp>
    <comp name="--.HHZ">
      <acc value="0.2848111411" flag="0"/>
      <vel value="0.0458669504" flag="0"/>
      <psa03 value="0.0938179727" flag="0"/>
      <psa10 value="0.0069888139" flag="0"/>
      <psa30 value="0.0006409034" flag="0"/>
    </comp>
    <comp name="--.HHN">
      <acc value="0.1786979301" flag="0"/>
      <vel value="0.0326728483" flag="0"/>
      <psa03 value="0.1000623597" flag="0"/>
      <psa10 value="0.0073309456" flag="0"/>
      <psa30 value="0.0005287247" flag="0"/>
    </comp>
  </station>
  <station code="CORM" name="CORM" netid="KO" insttype="CMG-3ESP" lat="40.1785" lon="34.6302">
    <comp name="--.HHE">
      <acc value="0.0083873610" flag="0"/>
      <vel value="0.0030385956" flag="0"/>
      <psa03 value="0.0182554376" flag="0"/>
      <psa10 value="0.0031225714" flag="0"/>
      <psa30 value="0.0002045775" flag="0"/>
    </comp>
    <comp name="--.HHN">
      <acc value="0.0076172931" flag="0"/>
      <vel value="0.0034930867" flag="0"/>
      <psa03 value="0.0202337055" flag="0"/>
      <psa10 value="0.0027036661" flag="0"/>
      <psa30 value="0.0003006339" flag="0"/>
    </comp>
    <comp name="--.HHZ">
      <acc value="0.0048338171" flag="0"/>
      <vel value="0.0021463341" flag="0"/>
      <psa03 value="0.0133114076" flag="0"/>
      <psa10 value="0.0017537705" flag="0"/>
      <psa30 value="0.0001844730" flag="0"/>
    </comp>
  </station>
  <station code="ERBG" name="ERBG" netid="KO" insttype="CMG-5T" lat="40.712" lon="36.6768">
    <comp name="--.HNN">
      <acc value="0.0155621174" flag="0"/>
      <vel value="0.0095704674" flag="0"/>
      <psa03 value="0.0229135739" flag="0"/>
      <psa10 value="0.0109664484" flag="0"/>
      <psa30 value="0.0006127212" flag="0"/>
    </comp>
    <comp name="--.HNE">
      <acc value="0.0207786738" flag="0"/>
      <vel value="0.0063806690" flag="0"/>
      <psa03 value="0.0342350485" flag="0"/>
      <psa10 value="0.0069653176" flag="0"/>
      <psa30 value="0.0006567710" flag="0"/>
    </comp>
    <comp name="--.HNZ">
      <acc value="0.0213942285" flag="0"/>
      <vel value="0.0051503189" flag="0"/>
      <psa03 value="0.0258892065" flag="0"/>
      <psa10 value="0.0054451777" flag="0"/>
      <psa30 value="0.0008925105" flag="0"/>
    </comp>
  </station>
  <station code="KVT" name="KVT" netid="KO" insttype="CMG-3T" lat="41.0807" lon="36.0463">
    <comp name="--.HHN">
      <acc value="0.0059213406" flag="0"/>
      <vel value="0.0032979956" flag="0"/>
      <psa03 value="0.0235240801" flag="0"/>
      <psa10 value="0.0053463726" flag="0"/>
      <psa30 value="0.0002804139" flag="0"/>
    </comp>
    <comp name="--.HHE">
      <acc value="0.0060012832" flag="0"/>
      <vel value="0.0042094483" flag="0"/>
      <psa03 value="0.0237585962" flag="0"/>
      <psa10 value="0.0039888221" flag="0"/>
      <psa30 value="0.0005031240" flag="0"/>
    </comp>
    <comp name="--.HHZ">
      <acc value="0.0125992774" flag="0"/>
      <vel value="0.0045306966" flag="0"/>
      <psa03 value="0.0230044874" flag="0"/>
      <psa10 value="0.0025198999" flag="0"/>
      <psa30 value="0.0002274385" flag="0"/>
    </comp>
  </station>
  <station code="RSDY" name="RSDY" netid="KO" insttype="CMG-3T" lat="40.3971" lon="37.3273">
    <comp name="--.HHE">
      <acc value="0.0122045825" flag="0"/>
      <vel value="0.0074929246" flag="0"/>
      <psa03 value="0.0316228900" flag="0"/>
      <psa10 value="0.0071194972" flag="0"/>
      <psa30 value="0.0005034505" flag="0"/>
    </comp>
    <comp name="--.HHN">
      <acc value="0.0080441607" flag="0"/>
      <vel value="0.0077205004" flag="0"/>
      <psa03 value="0.0222643509" flag="0"/>
      <psa10 value="0.0089321081" flag="0"/>
      <psa30 value="0.0005589238" flag="0"/>
    </comp>
    <comp name="--.HHZ">
      <acc value="0.0073653426" flag="0"/>
      <vel value="0.0046304813" flag="0"/>
      <psa03 value="0.0277736996" flag="0"/>
      <psa10 value="0.0034486211" flag="0"/>
      <psa30 value="0.0002774650" flag="0"/>
    </comp>
  </station>
  <station code="TOKT" name="TOKT" netid="KO" insttype="CMG-3T" lat="40.3173" lon="36.5443">
    <comp name="--.HHZ">
      <acc value="0.0000493629" flag="0"/>
      <vel value="0.0000054239" flag="0"/>
      <psa03 value="0.0000128747" flag="0"/>
      <psa10 value="0.0000036208" flag="0"/>
      <psa30 value="0.0000008570" flag="0"/>
    </comp>
    <comp name="--.HHE">
      <acc value="0.0163325634" flag="0"/>
      <vel value="0.0060139823" flag="0"/>
      <psa03 value="0.0263066863" flag="0"/>
      <psa10 value="0.0100960055" flag="0"/>
      <psa30 value="0.0007797092" flag="0"/>
    </comp>
    <comp name="--.HHN">
      <acc value="0.0209010575" flag="0"/>
      <vel value="0.0060570470" flag="0"/>
      <psa03 value="0.0391936831" flag="0"/>
      <psa10 value="0.0048858238" flag="0"/>
      <psa30 value="0.0007076974" flag="0"/>
    </comp>
  </station>
  <station code="YOZ" name="YOZ" netid="KO" insttype="CMG-3T" lat="39.6376" lon="35.3152">
    <comp name="--.HHE">
      <acc value="0.1423520980" flag="0"/>
      <vel value="0.0441191824" flag="0"/>
      <psa03 value="0.1831998367" flag="0"/>
      <psa10 value="0.0286271348" flag="0"/>
      <psa30 value="0.0011596008" flag="0"/>
    </comp>
    <comp name="--.HHN">
      <acc value="0.1436822243" flag="0"/>
      <vel value="0.0360822066" flag="0"/>
      <psa03 value="0.2159233110" flag="0"/>
      <psa10 value="0.0165845136" flag="0"/>
      <psa30 value="0.0009135840" flag="0"/>
    </comp>
    <comp name="--.HHZ">
      <acc value="0.1083244502" flag="0"/>
      <vel value="0.0319167392" flag="0"/>
      <psa03 value="0.1165555693" flag="0"/>
      <psa10 value="0.0059810840" flag="0"/>
      <psa30 value="0.0004936437" flag="0"/>
    </comp>
  </station>
</stationlist>
