<?xml version="1.0" encoding="UTF-8" standalone="yes"?>
<!DOCTYPE earthquake SYSTEM "stationlist.dtd">
<stationlist created="" xmlns="ch.ethz.sed.shakemap.usgs.xml">
  <station code="CEYT" name="CEYT" netid="KO" insttype="CMG-3ESP" lat="37.0105" lon="35.7478">
    <comp name="--.HHE">
      <acc value="0.0078045677" flag="0"/>
      <vel value="0.0084745984" flag="0"/>
      <psa03 value="0.0133636267" flag="0"/>
      <psa10 value="0.0274457447" flag="0"/>
      <psa30 value="0.0018137310" flag="0"/>
    </comp>
    <comp name="--.HHN">
      <acc value="0.0066535334" flag="0"/>
      <vel value="0.0059920655" flag="0"/>
      <psa03 value="0.0123906284" flag="0"/>
      <psa10 value="0.0138338392" flag="0"/>
      <psa30 value="0.0009487695" flag="0"/>
    </comp>
    <comp name="--.HHZ">
      <acc value="0.0047361308" flag="0"/>
      <vel value="0.0055081625" flag="0"/>
      <psa03 value="0.0076284205" flag="0"/>
      <psa10 value="0.0075384279" flag="0"/>
      <psa30 value="0.0011319860" flag="0"/>
    </comp>
  </station>
  <station code="CMRD" name="CMRD" netid="KO" insttype="CMG-5T" lat="37.6623" lon="34.9902">
    <comp name="--.HNN">
      <acc value="0.0131586985" flag="0"/>
      <vel value="0.0123654809" flag="0"/>
      <psa03 value="0.0264296425" flag="0"/>
      <psa10 value="0.0147904491" flag="0"/>
      <psa30 value="0.0012699057" flag="0"/>
    </comp>
    <comp name="--.HNE">
      <acc value="0.0090178497" flag="0"/>
      <vel value="0.0083272431" flag="0"/>
      <psa03 value="0.0152465900" flag="0"/>
      <psa10 value="0.0248740788" flag="0"/>
      <psa30 value="0.0009626956" flag="0"/>
    </comp>
    <comp name="--.HNZ">
      <acc value="0.0069144269" flag="0"/>
      <vel value="0.0063980429" flag="0"/>
      <psa03 value="0.0130054590" flag="0"/>
      <psa10 value="0.0116996959" flag="0"/>
      <psa30 value="0.0010732146" flag="0"/>
    </comp>
  </station>
  <station code="DARE" name="DARE" netid="KO" insttype="CMG-3ESP" lat="38.5712" lon="37.4832">
    <comp name="--.HHN">
      <acc value="0.0366810369" flag="0"/>
      <vel value="0.0126078611" flag="0"/>
      <psa03 value="0.0675159340" flag="0"/>
      <psa10 value="0.0202062387" flag="0"/>
      <psa30 value="0.0014077746" flag="0"/>
    </comp>
  </station>
  <station code="GAZ" name="GAZ" netid="KO" insttype="CMG-3T" lat="37.1721" lon="37.2096">
    <comp name="--.HHZ">
      <acc value="0.0414593996" flag="0"/>
      <vel value="0.0128784302" flag="0"/>
      <psa03 value="0.0320736992" flag="0"/>
      <psa10 value="0.0112603119" flag="0"/>
      <psa30 value="0.0021836666" flag="0"/>
    </comp>
    <comp name="--.HHN">
      <acc value="0.0174952650" flag="0"/>
      <vel value="0.0113472539" flag="0"/>
      <psa03 value="0.0354044823" flag="0"/>
      <psa10 value="0.0156756656" flag="0"/>
      <psa30 value="0.0016524950" flag="0"/>
    </comp>
  </station>
</stationlist>
