<?xml version="1.0" encoding="UTF-8" standalone="yes"?>
<!DOCTYPE earthquake SYSTEM "stationlist.dtd">
<stationlist created="" xmlns="ch.ethz.sed.shakemap.usgs.xml">
  <station code="CEYT" name="CEYT" netid="KO" insttype="CMG-3ESP" lat="37.0105" lon="35.7478">
    <comp name="--.HHE">
      <acc value="0.0078045677" flag="0"/>
      <vel value="0.0084745762" flag="0"/>
      <psa03 value="0.0133636267" flag="0"/>
      <psa10 value="0.0274457448" flag="0"/>
      <psa30 value="0.0018137335" flag="0"/>
    </comp>
    <comp name="--.HHN">
      <acc value="0.0066535334" flag="0"/>
      <vel value="0.0059920666" flag="0"/>
      <psa03 value="0.0123906284" flag="0"/>
      <psa10 value="0.0138338392" flag="0"/>
      <psa30 value="0.0009487725" flag="0"/>
    </comp>
    <comp name="--.HHZ">
      <acc value="0.0047361309" flag="0"/>
      <vel value="0.0055081670" flag="0"/>
      <psa03 value="0.0076284205" flag="0"/>
      <psa10 value="0.0075384279" flag="0"/>
      <psa30 value="0.0011319903" flag="0"/>
    </comp>
  </station>
  <station code="GAZ" name="GAZ" netid="KO" insttype="CMG-3T" lat="37.1721" lon="37.2096">
    <comp name="--.HHN">
      <acc value="0.0174952646" flag="0"/>
      <vel value="0.0113472539" flag="0"/>
      <psa03 value="0.0354044823" flag="0"/>
      <psa10 value="0.0156756656" flag="0"/>
      <psa30 value="0.0016525146" flag="0"/>
    </comp>
    <comp name="--.HHZ">
      <acc value="0.0414593996" flag="0"/>
      <vel value="0.0128784304" flag="0"/>
      <psa03 value="0.0320736992" flag="0"/>
      <psa10 value="0.0112603120" flag="0"/>
      <psa30 value="0.0021836712" flag="0"/>
    </comp>
  </station>
  <station code="KMRS" name="KMRS" netid="KO" insttype="CMG-3T" lat="37.5053" lon="36.9">
    <comp name="--.HHE">
      <acc value="0.0364163166" flag="0"/>
      <vel value="0.0291634171" flag="0"/>
      <psa03 value="0.0922964119" flag="0"/>
      <psa10 value="0.0372639469" flag="0"/>
      <psa30 value="0.0056361005" flag="0"/>
    </comp>
    <comp name="--.HHZ">
      <acc value="0.0529157355" flag="0"/>
      <vel value="0.0167594112" flag="0"/>
      <psa03 value="0.0777526358" flag="0"/>
      <psa10 value="0.0174826167" flag="0"/>
      <psa30 value="0.0038337691" flag="0"/>
    </comp>
  </station>
  <station code="ANDN" name="ANDN" netid="TU" insttype="T" lat="37.58" lon="36.3452">
    <comp name="--.HHE">
      <acc value="0.1301418886" flag="0"/>
      <vel value="0.0471393646" flag="0"/>
      <psa03 value="0.3157745208" flag="0"/>
      <psa10 value="0.0830964798" flag="0"/>
      <psa30 value="0.0074054807" flag="0"/>
    </comp>
    <comp name="--.HHN">
      <acc value="0.1924210523" flag="0"/>
      <vel value="0.0612834240" flag="0"/>
      <psa03 value="0.4109237827" flag="0"/>
      <psa10 value="0.0883676896" flag="0"/>
      <psa30 value="0.0059039616" flag="0"/>
    </comp>
    <comp name="--.HHZ">
      <acc value="0.0772109632" flag="0"/>
      <vel value="0.0546169028" flag="0"/>
      <psa03 value="0.1325689003" flag="0"/>
      <psa10 value="0.0991362576" flag="0"/>
      <psa30 value="0.0057103840" flag="0"/>
    </comp>
  </station>
</stationlist>
