<?xml version="1.0" encoding="UTF-8" standalone="yes"?>
<!DOCTYPE earthquake SYSTEM "stationlist.dtd">
<stationlist created="" xmlns="ch.ethz.sed.shakemap.usgs.xml">
  <station code="BH03A" name="BH03A" netid="Y5" insttype="STS2_gen3" lat="43.8212" lon="17.6885">
    <comp name="--.HHZ">
      <acc value="0.0288343969" flag="0"/>
      <vel value="0.0147780797" flag="0"/>
      <psa03 value="0.1080822233" flag="0"/>
      <psa10 value="0.0177613528" flag="0"/>
      <psa30 value="0.0010423368" flag="0"/>
    </comp>
    <comp name="--.HH1">
      <acc value="0.0384559841" flag="0"/>
      <vel value="0.0146532934" flag="0"/>
      <psa03 value="0.0670249095" flag="0"/>
      <psa10 value="0.0138688906" flag="0"/>
      <psa30 value="0.0007216278" flag="0"/>
    </comp>
    <comp name="--.HH2">
      <acc value="0.0771988789" flag="0"/>
      <vel value="0.0235905136" flag="0"/>
      <psa03 value="0.1590087232" flag="0"/>
      <psa10 value="0.0164226728" flag="0"/>
      <psa30 value="0.0009881474" flag="0"/>
    </comp>
  </station>
  <station code="BH04A" name="BH04A" netid="Y5" insttype="STS2_gen2" lat="43.3483" lon="17.7935">
    <comp name="--.HHZ">
      <acc value="0.1624038105" flag="0"/>
      <vel value="0.0562904328" flag="0"/>
      <psa03 value="0.2676350431" flag="0"/>
      <psa10 value="0.0364235360" flag="0"/>
      <psa30 value="0.0022524471" flag="0"/>
    </comp>
    <comp name="--.HH2">
      <acc value="0.1635197285" flag="0"/>
      <vel value="0.0703801998" flag="0"/>
      <psa03 value="0.3572305165" flag="0"/>
      <psa10 value="0.0366988851" flag="0"/>
      <psa30 value="0.0017225704" flag="0"/>
    </comp>
    <comp name="--.HH1">
      <acc value="0.2832352375" flag="0"/>
      <vel value="0.0842057776" flag="0"/>
      <psa03 value="0.4594900301" flag="0"/>
      <psa10 value="0.0437723247" flag="0"/>
      <psa30 value="0.0020055439" flag="0"/>
    </comp>
  </station>
</stationlist>
