<?xml version="1.0" encoding="UTF-8" standalone="yes"?>
<!DOCTYPE earthquake SYSTEM "stationlist.dtd">
<stationlist created="" xmlns="ch.ethz.sed.shakemap.usgs.xml">
  <station code="BH02A" name="BH02A" netid="Y5" insttype="STS2_gen3" lat="43.8746" lon="18.4241">
    <comp name="--.HH1">
      <acc value="0.0047821081" flag="0"/>
      <vel value="0.0039743465" flag="0"/>
      <psa03 value="0.0137337849" flag="0"/>
      <psa10 value="0.0052867842" flag="0"/>
      <psa30 value="0.0002798419" flag="0"/>
    </comp>
    <comp name="--.HHZ">
      <acc value="0.0042831345" flag="0"/>
      <vel value="0.0031083292" flag="0"/>
      <psa03 value="0.0133815398" flag="0"/>
      <psa10 value="0.0037219247" flag="0"/>
      <psa30 value="0.0002854444" flag="0"/>
    </comp>
    <comp name="--.HH2">
      <acc value="0.0077090751" flag="0"/>
      <vel value="0.0028766874" flag="0"/>
      <psa03 value="0.0072049544" flag="0"/>
      <psa10 value="0.0039839999" flag="0"/>
      <psa30 value="0.0002996097" flag="0"/>
    </comp>
  </station>
  <station code="BH03A" name="BH03A" netid="Y5" insttype="STS2_gen3" lat="43.8212" lon="17.6885">
    <comp name="--.HHZ">
      <acc value="0.0288343969" flag="0"/>
      <vel value="0.0147780804" flag="0"/>
      <psa03 value="0.1080822233" flag="0"/>
      <psa10 value="0.0177613528" flag="0"/>
      <psa30 value="0.0010423507" flag="0"/>
    </comp>
    <comp name="--.HH2">
      <acc value="0.0771988788" flag="0"/>
      <vel value="0.0235905144" flag="0"/>
      <psa03 value="0.1590087232" flag="0"/>
      <psa10 value="0.0164226728" flag="0"/>
      <psa30 value="0.0009881575" flag="0"/>
    </comp>
    <comp name="--.HH1">
      <acc value="0.0384559840" flag="0"/>
      <vel value="0.0146532937" flag="0"/>
      <psa03 value="0.0670249095" flag="0"/>
      <psa10 value="0.0138688906" flag="0"/>
      <psa30 value="0.0007216345" flag="0"/>
    </comp>
  </station>
  <station code="BH04A" name="BH04A" netid="Y5" insttype="STS2_gen2" lat="43.3483" lon="17.7935">
    <comp name="--.HH1">
      <acc value="0.2832352374" flag="0"/>
      <vel value="0.0842057778" flag="0"/>
      <psa03 value="0.4594900301" flag="0"/>
      <psa10 value="0.0437723247" flag="0"/>
      <psa30 value="0.0020055830" flag="0"/>
    </comp>
    <comp name="--.HH2">
      <acc value="0.1635197286" flag="0"/>
      <vel value="0.0703801943" flag="0"/>
      <psa03 value="0.3572305165" flag="0"/>
      <psa10 value="0.0366988847" flag="0"/>
      <psa30 value="0.0017225940" flag="0"/>
    </comp>
    <comp name="--.HHZ">
      <acc value="0.1624038105" flag="0"/>
      <vel value="0.0562904110" flag="0"/>
      <psa03 value="0.2676350431" flag="0"/>
      <psa10 value="0.0364235358" flag="0"/>
      <psa30 value="0.0022523833" flag="0"/>
    </comp>
  </station>
</stationlist>
