<?xml version="1.0" encoding="UTF-8" standalone="yes"?>
<!DOCTYPE earthquake SYSTEM "stationlist.dtd">
<stationlist created="" xmlns="ch.ethz.sed.shakemap.usgs.xml">
  <station code="BH03A" name="BH03A" netid="Y5" insttype="STS2_gen3" lat="43.8212" lon="17.6885">
    <comp name="--.HHZ">
      <acc value="0.0288343959" flag="0"/>
      <vel value="0.0147780796" flag="0"/>
      <psa03 value="0.1080822233" flag="0"/>
      <psa10 value="0.0177613528" flag="0"/>
      <psa30 value="0.0010424357" flag="0"/>
    </comp>
    <comp name="--.HH2">
      <acc value="0.0771988781" flag="0"/>
      <vel value="0.0235905138" flag="0"/>
      <psa03 value="0.1590087232" flag="0"/>
      <psa10 value="0.0164226728" flag="0"/>
      <psa30 value="0.0009881693" flag="0"/>
    </comp>
    <comp name="--.HH1">
      <acc value="0.0384559829" flag="0"/>
      <vel value="0.0146532933" flag="0"/>
      <psa03 value="0.0670249095" flag="0"/>
      <psa10 value="0.0138688906" flag="0"/>
      <psa30 value="0.0007216883" flag="0"/>
    </comp>
  </station>
  <station code="BH04A" name="BH04A" netid="Y5" insttype="STS2_gen2" lat="43.3483" lon="17.7935">
    <comp name="--.HH2">
      <acc value="0.1635197282" flag="0"/>
      <vel value="0.0703801987" flag="0"/>
      <psa03 value="0.3572305165" flag="0"/>
      <psa10 value="0.0366988839" flag="0"/>
      <psa30 value="0.0017222067" flag="0"/>
    </comp>
    <comp name="--.HHZ">
      <acc value="0.1624038107" flag="0"/>
      <vel value="0.0562904328" flag="0"/>
      <psa03 value="0.2676350431" flag="0"/>
      <psa10 value="0.0364235379" flag="0"/>
      <psa30 value="0.0022518488" flag="0"/>
    </comp>
    <comp name="--.HH1">
      <acc value="0.2832352369" flag="0"/>
      <vel value="0.0842057769" flag="0"/>
      <psa03 value="0.4594900301" flag="0"/>
      <psa10 value="0.0437723251" flag="0"/>
      <psa30 value="0.0020058180" flag="0"/>
    </comp>
  </station>
  <station code="BH07A" name="BH07A" netid="Y5" insttype="STS2_gen3" lat="43.7511" lon="18.0361">
    <comp name="--.HHZ">
      <acc value="0.0149361692" flag="0"/>
      <vel value="0.0064376379" flag="0"/>
      <psa03 value="0.0185209070" flag="0"/>
      <psa10 value="0.0090137606" flag="0"/>
      <psa30 value="0.0010061403" flag="0"/>
    </comp>
    <comp name="--.HH1">
      <acc value="0.0338424535" flag="0"/>
      <vel value="0.0100760704" flag="0"/>
      <psa03 value="0.0408160809" flag="0"/>
      <psa10 value="0.0152513113" flag="0"/>
      <psa30 value="0.0006907314" flag="0"/>
    </comp>
    <comp name="--.HH2">
      <acc value="0.0275339992" flag="0"/>
      <vel value="0.0107096711" flag="0"/>
      <psa03 value="0.0253486213" flag="0"/>
      <psa10 value="0.0183972561" flag="0"/>
      <psa30 value="0.0006692569" flag="0"/>
    </comp>
  </station>
</stationlist>
