<stationlist created="1661947215">
	<station code="ATH5" name="ATH5" netid="HI" source="ITSAK Strong Motion Network" insttype="" lat="37.975421" lon="23.737098">
		<comp name=".HNE" depth="0.0">
			<acc value="0.0152583214502" flag="0"/>
			<vel value="0.0129177454051" flag="0"/>
			<psa03 value="0.0531006530742" flag="0"/>
			<psa10 value="0.0165705308414" flag="0"/>
			<psa30 value="0.00270169043207" flag="0"/>
		</comp>
		<comp name=".HNN" depth="0.0">
			<acc value="0.0138223638554" flag="0"/>
			<vel value="0.0122049746549" flag="0"/>
			<psa03 value="0.0549366080306" flag="0"/>
			<psa10 value="0.0250007518021" flag="0"/>
			<psa30 value="0.00243451460798" flag="0"/>
		</comp>
		<comp name=".HNZ" depth="0.0">
			<acc value="0.00792799266423" flag="0"/>
			<vel value="0.0108382040761" flag="0"/>
			<psa03 value="0.0211118139186" flag="0"/>
			<psa10 value="0.0101045934422" flag="0"/>
			<psa30 value="0.00204061913934" flag="0"/>
		</comp>
	</station>
	<station code="KRL1" name="KRL1" netid="HI" source="ITSAK Strong Motion Network" insttype="" lat="37.7951" lon="26.7065">
		<comp name=".HNE" depth="0.0">
			<acc value="9.1534885883" flag="0"/>
			<vel value="2.13051590675" flag="0"/>
			<psa03 value="6.94677018945" flag="0"/>
			<psa10 value="2.12196832999" flag="0"/>
			<psa30 value="0.143777071192" flag="0"/>
		</comp>
		<comp name=".HNN" depth="0.0">
			<acc value="3.56315662705" flag="0"/>
			<vel value="1.68222416928" flag="0"/>
			<psa03 value="3.84280423359" flag="0"/>
			<psa10 value="2.19243483805" flag="0"/>
			<psa30 value="0.173180725707" flag="0"/>
		</comp>
		<comp name=".HNZ" depth="0.0">
			<acc value="1.76987247899" flag="0"/>
			<vel value="0.893570284505" flag="0"/>
			<psa03 value="3.10550105754" flag="0"/>
			<psa10 value="0.695797933199" flag="0"/>
			<psa30 value="0.146682783681" flag="0"/>
		</comp>
	</station>
	<station code="MYT1" name="MYT1" netid="HI" source="ITSAK Strong Motion Network" insttype="" lat="39.085" lon="26.5694">
		<comp name=".HNE" depth="0.0">
			<acc value="0.0906327526944" flag="0"/>
			<vel value="0.0768688976429" flag="0"/>
			<psa03 value="0.188932307505" flag="0"/>
			<psa10 value="0.116728267675" flag="0"/>
			<psa30 value="0.027523593303" flag="0"/>
		</comp>
		<comp name=".HNN" depth="0.0">
			<acc value="0.0574500168808" flag="0"/>
			<vel value="0.0682473958727" flag="0"/>
			<psa03 value="0.146643141472" flag="0"/>
			<psa10 value="0.108947799757" flag="0"/>
			<psa30 value="0.0241678159992" flag="0"/>
		</comp>
		<comp name=".HNZ" depth="0.0">
			<acc value="0.0477312491642" flag="0"/>
			<vel value="0.0619088089336" flag="0"/>
			<psa03 value="0.0938351952881" flag="0"/>
			<psa10 value="0.0636859838839" flag="0"/>
			<psa30 value="0.019145493295" flag="0"/>
		</comp>
	</station>
	<station code="NAX1" name="NAX1" netid="HI" source="ITSAK Strong Motion Network" insttype="" lat="37.101394" lon="25.374103">
		<comp name=".HNE" depth="0.0">
			<acc value="0.0938297525812" flag="0"/>
			<vel value="0.0510498579573" flag="0"/>
			<psa03 value="0.187248050098" flag="0"/>
			<psa10 value="0.0431987592059" flag="0"/>
			<psa30 value="0.00906022769564" flag="0"/>
		</comp>
		<comp name=".HNN" depth="0.0">
			<acc value="0.0932172386224" flag="0"/>
			<vel value="0.0544630299047" flag="0"/>
			<psa03 value="0.222712836966" flag="0"/>
			<psa10 value="0.0659274548702" flag="0"/>
			<psa30 value="0.0187572275743" flag="0"/>
		</comp>
		<comp name=".HNZ" depth="0.0">
			<acc value="0.0788226828372" flag="0"/>
			<vel value="0.0566797826881" flag="0"/>
			<psa03 value="0.214541128963" flag="0"/>
			<psa10 value="0.0394854882198" flag="0"/>
			<psa30 value="0.00659743996467" flag="0"/>
		</comp>
	</station>
	<station code="SIT2" name="SIT2" netid="HI" source="ITSAK Strong Motion Network" insttype="" lat="35.2059" lon="26.107">
		<comp name=".HNE" depth="0.0">
			<acc value="0.0318028272279" flag="0"/>
			<vel value="0.0271253069708" flag="0"/>
			<psa03 value="0.0786499705912" flag="0"/>
			<psa10 value="0.0242599521028" flag="0"/>
			<psa30 value="0.00538433126887" flag="0"/>
		</comp>
		<comp name=".HNN" depth="0.0">
			<acc value="0.0368344170826" flag="0"/>
			<vel value="0.029814456711" flag="0"/>
			<psa03 value="0.0759326968352" flag="0"/>
			<psa10 value="0.0259229041402" flag="0"/>
			<psa30 value="0.00625958049981" flag="0"/>
		</comp>
		<comp name=".HNZ" depth="0.0">
			<acc value="0.0119848555844" flag="0"/>
			<vel value="0.0117195454887" flag="0"/>
			<psa03 value="0.0372889467722" flag="0"/>
			<psa10 value="0.00945153268014" flag="0"/>
			<psa30 value="0.00389872702153" flag="0"/>
		</comp>
	</station>
	<station code="SKY1" name="SKY1" netid="HI" source="ITSAK Strong Motion Network" insttype="" lat="38.904483" lon="24.564572">
		<comp name=".HNE" depth="0.0">
			<acc value="0.0097389613424" flag="0"/>
			<vel value="0.0114391614521" flag="0"/>
			<psa03 value="0.025291073847" flag="0"/>
			<psa10 value="0.0102516847488" flag="0"/>
			<psa30 value="0.00408274379507" flag="0"/>
		</comp>
		<comp name=".HNN" depth="0.0">
			<acc value="0.0109789252872" flag="0"/>
			<vel value="0.0123995945362" flag="0"/>
			<psa03 value="0.026336567585" flag="0"/>
			<psa10 value="0.0101153444669" flag="0"/>
			<psa30 value="0.00309919218127" flag="0"/>
		</comp>
		<comp name=".HNZ" depth="0.0">
			<acc value="0.00703661404807" flag="0"/>
			<vel value="0.0103424995883" flag="0"/>
			<psa03 value="0.0146959396797" flag="0"/>
			<psa10 value="0.0075340789395" flag="0"/>
			<psa30 value="0.00352026278346" flag="0"/>
		</comp>
	</station>
	<station code="ATHP" name="ATHP" netid="HL" source="National Observatory of Athens Seismic Network" insttype="" lat="38.000799" lon="23.773487">
		<comp name="00.HNE" depth="0.0">
			<acc value="0.00909984603228" flag="0"/>
			<vel value="0.0102194186676" flag="0"/>
			<psa03 value="0.0231012673247" flag="0"/>
			<psa10 value="0.0139295318256" flag="0"/>
			<psa30 value="0.00287666931522" flag="0"/>
		</comp>
		<comp name="00.HNN" depth="0.0">
			<acc value="0.00980725519532" flag="0"/>
			<vel value="0.0128801575695" flag="0"/>
			<psa03 value="0.0306848217814" flag="0"/>
			<psa10 value="0.0161211591977" flag="0"/>
			<psa30 value="0.00326342556093" flag="0"/>
		</comp>
		<comp name="00.HNZ" depth="0.0">
			<acc value="0.00799206495007" flag="0"/>
			<vel value="0.00815914130535" flag="0"/>
			<psa03 value="0.0140396917794" flag="0"/>
			<psa10 value="0.00784116756388" flag="0"/>
			<psa30 value="0.00223301230111" flag="0"/>
		</comp>
	</station>
	<station code="EFSA" name="EFSA" netid="HL" source="National Observatory of Athens Seismic Network" insttype="" lat="39.54015" lon="24.98864">
		<comp name="00.HNE" depth="0.0">
			<acc value="0.00741847881661" flag="0"/>
			<vel value="0.0274465982048" flag="0"/>
			<psa03 value="0.0143708478315" flag="0"/>
			<psa10 value="0.0146442897998" flag="0"/>
			<psa30 value="0.0182690302336" flag="0"/>
		</comp>
		<comp name="00.HNN" depth="0.0">
			<acc value="0.00939499427266" flag="0"/>
			<vel value="0.0197748235187" flag="0"/>
			<psa03 value="0.0210491574242" flag="0"/>
			<psa10 value="0.018457080191" flag="0"/>
			<psa30 value="0.0091801398059" flag="0"/>
		</comp>
		<comp name="00.HNZ" depth="0.0">
			<acc value="0.00566964308488" flag="0"/>
			<vel value="0.0118479173558" flag="0"/>
			<psa03 value="0.0104768405236" flag="0"/>
			<psa10 value="0.0132808072883" flag="0"/>
			<psa30 value="0.00381443018728" flag="0"/>
		</comp>
	</station>
	<station code="IACM" name="IACM" netid="HL" source="National Observatory of Athens Seismic Network" insttype="" lat="35.3058" lon="25.0709">
		<comp name=".HNE" depth="0.0">
			<acc value="0.0398772723926" flag="0"/>
			<vel value="0.0497956860645" flag="0"/>
			<psa03 value="0.105616579914" flag="0"/>
			<psa10 value="0.100227587086" flag="0"/>
			<psa30 value="0.00705996602143" flag="0"/>
		</comp>
		<comp name=".HNN" depth="0.0">
			<acc value="0.0378916993196" flag="0"/>
			<vel value="0.0409764738947" flag="0"/>
			<psa03 value="0.0907535848962" flag="0"/>
			<psa10 value="0.0808334098167" flag="0"/>
			<psa30 value="0.0064196144346" flag="0"/>
		</comp>
		<comp name=".HNZ" depth="0.0">
			<acc value="0.0252052123779" flag="0"/>
			<vel value="0.0193241265404" flag="0"/>
			<psa03 value="0.0480088261826" flag="0"/>
			<psa10 value="0.032457695163" flag="0"/>
			<psa30 value="0.00362969711629" flag="0"/>
		</comp>
	</station>
	<station code="KARP" name="KARP" netid="HL" source="National Observatory of Athens Seismic Network" insttype="" lat="35.5471" lon="27.16106">
		<comp name=".HNE" depth="0.0">
			<acc value="0.00910511907391" flag="0"/>
			<vel value="0.00860065041673" flag="0"/>
			<psa03 value="0.0217944554945" flag="0"/>
			<psa10 value="0.0136059707038" flag="0"/>
			<psa30 value="0.00343412207707" flag="0"/>
		</comp>
		<comp name=".HNN" depth="0.0">
			<acc value="0.0108645704825" flag="0"/>
			<vel value="0.011622639596" flag="0"/>
			<psa03 value="0.0200643890631" flag="0"/>
			<psa10 value="0.0131656662233" flag="0"/>
			<psa30 value="0.00342397869679" flag="0"/>
		</comp>
		<comp name=".HNZ" depth="0.0">
			<acc value="0.0064869039382" flag="0"/>
			<vel value="0.00732359945656" flag="0"/>
			<psa03 value="0.0150824053853" flag="0"/>
			<psa10 value="0.0107491758301" flag="0"/>
			<psa30 value="0.00232618263985" flag="0"/>
		</comp>
	</station>
	<station code="KLNA" name="KLNA" netid="HL" source="National Observatory of Athens Seismic Network" insttype="" lat="36.95708" lon="26.97274">
		<comp name="00.HNE" depth="0.0">
			<acc value="1.14191037558" flag="0"/>
			<vel value="0.433398185385" flag="0"/>
			<psa03 value="2.7508362294" flag="0"/>
			<psa10 value="0.198741235631" flag="0"/>
			<psa30 value="0.0249357718725" flag="0"/>
		</comp>
		<comp name="00.HNN" depth="0.0">
			<acc value="0.87179578043" flag="0"/>
			<vel value="0.358955232392" flag="0"/>
			<psa03 value="2.14806929905" flag="0"/>
			<psa10 value="0.304345591402" flag="0"/>
			<psa30 value="0.0228524588632" flag="0"/>
		</comp>
		<comp name="00.HNZ" depth="0.0">
			<acc value="0.821258940482" flag="0"/>
			<vel value="0.256712561147" flag="0"/>
			<psa03 value="1.10083709172" flag="0"/>
			<psa10 value="0.171749962592" flag="0"/>
			<psa30 value="0.0177186354393" flag="0"/>
		</comp>
	</station>
	<station code="LIA" name="LIA" netid="HL" source="National Observatory of Athens Seismic Network" insttype="" lat="39.89725" lon="25.18055">
		<comp name="00.HNE" depth="0.0">
			<acc value="0.00833897098981" flag="0"/>
			<vel value="0.00618189043693" flag="0"/>
			<psa03 value="0.0122694000271" flag="0"/>
			<psa10 value="0.00652750804039" flag="0"/>
			<psa30 value="0.00245248371501" flag="0"/>
		</comp>
		<comp name="00.HNN" depth="0.0">
			<acc value="0.0047730205254" flag="0"/>
			<vel value="0.00724045097474" flag="0"/>
			<psa03 value="0.0117767293693" flag="0"/>
			<psa10 value="0.00834769018099" flag="0"/>
			<psa30 value="0.0030673854909" flag="0"/>
		</comp>
		<comp name="00.HNZ" depth="0.0">
			<acc value="0.00502019893256" flag="0"/>
			<vel value="0.0085192920837" flag="0"/>
			<psa03 value="0.0100957091558" flag="0"/>
			<psa10 value="0.00733776749734" flag="0"/>
			<psa30 value="0.00375033302449" flag="0"/>
		</comp>
	</station>
	<station code="NISR" name="NISR" netid="HL" source="National Observatory of Athens Seismic Network" insttype="" lat="36.6106" lon="27.131">
		<comp name=".HNE" depth="0.0">
			<acc value="0.104316877195" flag="0"/>
			<vel value="0.0810326630885" flag="0"/>
			<psa03 value="0.309500627898" flag="0"/>
			<psa10 value="0.0774668717999" flag="0"/>
			<psa30 value="0.0264110929386" flag="0"/>
		</comp>
		<comp name=".HNN" depth="0.0">
			<acc value="0.0658662765373" flag="0"/>
			<vel value="0.0798573790245" flag="0"/>
			<psa03 value="0.19934824751" flag="0"/>
			<psa10 value="0.0500311043153" flag="0"/>
			<psa30 value="0.0241859472003" flag="0"/>
		</comp>
		<comp name=".HNZ" depth="0.0">
			<acc value="0.0510432483316" flag="0"/>
			<vel value="0.0564061915191" flag="0"/>
			<psa03 value="0.103309572919" flag="0"/>
			<psa10 value="0.0776582619787" flag="0"/>
			<psa30 value="0.011159784281" flag="0"/>
		</comp>
	</station>
	<station code="NOAC" name="NOAC" netid="HL" source="National Observatory of Athens Seismic Network" insttype="" lat="37.97384" lon="23.71767">
		<comp name="00.HNE" depth="0.0">
			<acc value="0.0191083233587" flag="0"/>
			<vel value="0.0148090561691" flag="0"/>
			<psa03 value="0.0392878708578" flag="0"/>
			<psa10 value="0.0185352653704" flag="0"/>
			<psa30 value="0.00220206920961" flag="0"/>
		</comp>
		<comp name="00.HNN" depth="0.0">
			<acc value="0.0129757804404" flag="0"/>
			<vel value="0.0137369973961" flag="0"/>
			<psa03 value="0.0538163150667" flag="0"/>
			<psa10 value="0.0217054310033" flag="0"/>
			<psa30 value="0.00376458396854" flag="0"/>
		</comp>
		<comp name="00.HNZ" depth="0.0">
			<acc value="0.00953079522464" flag="0"/>
			<vel value="0.0108990699289" flag="0"/>
			<psa03 value="0.043551304331" flag="0"/>
			<psa10 value="0.0129870222015" flag="0"/>
			<psa30 value="0.00203171771633" flag="0"/>
		</comp>
	</station>
	<station code="PRK" name="PRK" netid="HL" source="National Observatory of Athens Seismic Network" insttype="" lat="39.24565" lon="26.26499">
		<comp name=".HNE" depth="0.0">
			<acc value="0.0971552831813" flag="0"/>
			<vel value="0.101079102276" flag="0"/>
			<psa03 value="0.199763275003" flag="0"/>
			<psa10 value="0.134683887147" flag="0"/>
			<psa30 value="0.0152640094991" flag="0"/>
		</comp>
		<comp name=".HNN" depth="0.0">
			<acc value="0.114539619929" flag="0"/>
			<vel value="0.109886444564" flag="0"/>
			<psa03 value="0.246356778261" flag="0"/>
			<psa10 value="0.164238139971" flag="0"/>
			<psa30 value="0.0108330568035" flag="0"/>
		</comp>
		<comp name=".HNZ" depth="0.0">
			<acc value="0.0606850993641" flag="0"/>
			<vel value="0.0498217502776" flag="0"/>
			<psa03 value="0.146445920074" flag="0"/>
			<psa10 value="0.0431890123101" flag="0"/>
			<psa30 value="0.00694001682539" flag="0"/>
		</comp>
	</station>
	<station code="RODB" name="RODB" netid="HL" source="National Observatory of Athens Seismic Network" insttype="" lat="36.4471" lon="28.22116">
		<comp name="00.HNE" depth="0.0">
			<acc value="0.0751983458905" flag="0"/>
			<vel value="0.0882822062904" flag="0"/>
			<psa03 value="0.161268610337" flag="0"/>
			<psa10 value="0.138926153176" flag="0"/>
			<psa30 value="0.031861403995" flag="0"/>
		</comp>
		<comp name="00.HNN" depth="0.0">
			<acc value="0.0504494708392" flag="0"/>
			<vel value="0.0711514608737" flag="0"/>
			<psa03 value="0.120623646974" flag="0"/>
			<psa10 value="0.126363075934" flag="0"/>
			<psa30 value="0.0383838060721" flag="0"/>
		</comp>
		<comp name="00.HNZ" depth="0.0">
			<acc value="0.0387971152124" flag="0"/>
			<vel value="0.0507475079284" flag="0"/>
			<psa03 value="0.0773128247203" flag="0"/>
			<psa10 value="0.072011932937" flag="0"/>
			<psa30 value="0.0130526830095" flag="0"/>
		</comp>
	</station>
	<station code="SMG" name="SMG" netid="HL" source="National Observatory of Athens Seismic Network" insttype="" lat="37.70425" lon="26.83772">
		<comp name="00.HNE" depth="0.0">
			<acc value="5.80699626191" flag="0"/>
			<vel value="2.01948785534" flag="0"/>
			<psa03 value="14.9667088043" flag="0"/>
			<psa10 value="1.31194731007" flag="0"/>
			<psa30 value="0.117158321164" flag="0"/>
		</comp>
		<comp name="00.HNN" depth="0.0">
			<acc value="8.04175873649" flag="0"/>
			<vel value="2.9364944196" flag="0"/>
			<psa03 value="17.8052928466" flag="0"/>
			<psa10 value="1.02266406648" flag="0"/>
			<psa30 value="0.233623689756" flag="0"/>
		</comp>
		<comp name="00.HNZ" depth="0.0">
			<acc value="3.46293867796" flag="0"/>
			<vel value="1.00776562964" flag="0"/>
			<psa03 value="6.83935707385" flag="0"/>
			<psa10 value="0.965653689819" flag="0"/>
			<psa30 value="0.073911576279" flag="0"/>
		</comp>
	</station>
	<station code="THRA" name="THRA" netid="HL" source="National Observatory of Athens Seismic Network" insttype="" lat="36.41502" lon="25.43244">
		<comp name="00.HNE" depth="0.0">
			<acc value="0.187566555358" flag="0"/>
			<vel value="0.231823906091" flag="0"/>
			<psa03 value="0.540303750805" flag="0"/>
			<psa10 value="0.327052715637" flag="0"/>
			<psa30 value="0.0410570698294" flag="0"/>
		</comp>
		<comp name="00.HNN" depth="0.0">
			<acc value="0.202090203144" flag="0"/>
			<vel value="0.191274810897" flag="0"/>
			<psa03 value="0.455190029105" flag="0"/>
			<psa10 value="0.261129888573" flag="0"/>
			<psa30 value="0.0331203773958" flag="0"/>
		</comp>
		<comp name="00.HNZ" depth="0.0">
			<acc value="0.170568044913" flag="0"/>
			<vel value="0.126755976" flag="0"/>
			<psa03 value="0.415297053058" flag="0"/>
			<psa10 value="0.12180026867" flag="0"/>
			<psa30 value="0.0140908367821" flag="0"/>
		</comp>
	</station>
	<station code="THVC" name="THVC" netid="HL" source="National Observatory of Athens Seismic Network" insttype="" lat="38.3191" lon="23.3177">
		<comp name=".HNE" depth="0.0">
			<acc value="0.0310480936057" flag="0"/>
			<vel value="0.0260196913403" flag="0"/>
			<psa03 value="0.0376607552569" flag="0"/>
			<psa10 value="0.0182624422972" flag="0"/>
			<psa30 value="0.0117189913257" flag="0"/>
		</comp>
		<comp name=".HNN" depth="0.0">
			<acc value="0.0348024139108" flag="0"/>
			<vel value="0.02644620915" flag="0"/>
			<psa03 value="0.0295696072788" flag="0"/>
			<psa10 value="0.0174029584856" flag="0"/>
			<psa30 value="0.00855621764078" flag="0"/>
		</comp>
		<comp name=".HNZ" depth="0.0">
			<acc value="0.0309883800919" flag="0"/>
			<vel value="0.022930182958" flag="0"/>
			<psa03 value="0.0323547058405" flag="0"/>
			<psa10 value="0.0203069146084" flag="0"/>
			<psa30 value="0.00663339901345" flag="0"/>
		</comp>
	</station>
	<station code="TNSA" name="TNSA" netid="HL" source="National Observatory of Athens Seismic Network" insttype="" lat="37.53942" lon="25.1631">
		<comp name="00.HNE" depth="0.0">
			<acc value="0.0959599564021" flag="0"/>
			<vel value="0.0482392072461" flag="0"/>
			<psa03 value="0.256718068812" flag="0"/>
			<psa10 value="0.0475515975601" flag="0"/>
			<psa30 value="0.00531667303685" flag="0"/>
		</comp>
		<comp name="00.HNN" depth="0.0">
			<acc value="0.162219717632" flag="0"/>
			<vel value="0.0632668467002" flag="0"/>
			<psa03 value="0.281455561716" flag="0"/>
			<psa10 value="0.0344148523151" flag="0"/>
			<psa30 value="0.00474024401789" flag="0"/>
		</comp>
		<comp name="00.HNZ" depth="0.0">
			<acc value="0.0860670794654" flag="0"/>
			<vel value="0.0625885216512" flag="0"/>
			<psa03 value="0.316090022746" flag="0"/>
			<psa10 value="0.0301413917193" flag="0"/>
			<psa30 value="0.00567182739739" flag="0"/>
		</comp>
	</station>
	<station code="YDRA" name="YDRA" netid="HL" source="National Observatory of Athens Seismic Network" insttype="" lat="37.34923" lon="23.46525">
		<comp name="00.HNE" depth="0.0">
			<acc value="0.0120294224709" flag="0"/>
			<vel value="0.0180616122587" flag="0"/>
			<psa03 value="0.0253163229155" flag="0"/>
			<psa10 value="0.033728823119" flag="0"/>
			<psa30 value="0.00276945596287" flag="0"/>
		</comp>
		<comp name="00.HNN" depth="0.0">
			<acc value="0.00956884782311" flag="0"/>
			<vel value="0.011809414525" flag="0"/>
			<psa03 value="0.0197633209418" flag="0"/>
			<psa10 value="0.0153333876367" flag="0"/>
			<psa30 value="0.00374165744978" flag="0"/>
		</comp>
		<comp name="00.HNZ" depth="0.0">
			<acc value="0.0142868810422" flag="0"/>
			<vel value="0.00767419086399" flag="0"/>
			<psa03 value="0.0186730442892" flag="0"/>
			<psa10 value="0.0109226266954" flag="0"/>
			<psa30 value="0.00274182142388" flag="0"/>
		</comp>
	</station>
	<station code="AKS" name="AKS" netid="KO" source="Bogazici University Kandilli Observatory And Earthquake Research Institute (KOERI)" insttype="" lat="38.8785" lon="27.8129">
