<?xml version="1.0" encoding="UTF-8" standalone="yes"?>
<!DOCTYPE earthquake SYSTEM "stationlist.dtd">
<stationlist created="" xmlns="ch.ethz.sed.shakemap.usgs.xml">
  <station code="APE" name="APE" netid="GE" insttype="STS-2/N" lat="37.0727" lon="25.523">
    <comp name="--.HHN">
      <acc value="0.1707153967" flag="0"/>
      <vel value="0.0694036611" flag="0"/>
      <psa03 value="0.2501195285" flag="0"/>
      <psa10 value="0.0592161831" flag="0"/>
      <psa30 value="0.0204791360" flag="0"/>
    </comp>
    <comp name="--.HHZ">
      <acc value="0.1027906414" flag="0"/>
      <vel value="0.0530647785" flag="0"/>
      <psa03 value="0.1602568610" flag="0"/>
      <psa10 value="0.0628080642" flag="0"/>
      <psa30 value="0.0118411024" flag="0"/>
    </comp>
    <comp name="--.HHE">
      <acc value="0.1499641326" flag="0"/>
      <vel value="0.0720106745" flag="0"/>
      <psa03 value="0.2755401755" flag="0"/>
      <psa10 value="0.0528677631" flag="0"/>
      <psa30 value="0.0151366172" flag="0"/>
    </comp>
  </station>
  <station code="THERA" name="THERA" netid="GE" insttype="STS-2/N" lat="36.367" lon="25.4753">
    <comp name="--.HHN">
      <acc value="0.0307800474" flag="0"/>
      <vel value="0.0287114788" flag="0"/>
      <psa03 value="0.1326412671" flag="0"/>
      <psa10 value="0.0348079459" flag="0"/>
      <psa30 value="0.0036386291" flag="0"/>
    </comp>
    <comp name="--.HHZ">
      <acc value="0.0337365171" flag="0"/>
      <vel value="0.0282069109" flag="0"/>
      <psa03 value="0.0861610673" flag="0"/>
      <psa10 value="0.0262279904" flag="0"/>
      <psa30 value="0.0063956616" flag="0"/>
    </comp>
    <comp name="--.HHE">
      <acc value="0.0621653166" flag="0"/>
      <vel value="0.0619040621" flag="0"/>
      <psa03 value="0.1924591861" flag="0"/>
      <psa10 value="0.0478568509" flag="0"/>
      <psa30 value="0.0103651860" flag="0"/>
    </comp>
  </station>
  <station code="SNT1" name="SNT1" netid="HA" insttype="30" lat="36.4159" lon="25.4282">
    <comp name="--.HHE">
      <acc value="0.0503403650" flag="0"/>
      <vel value="0.0669947003" flag="0"/>
      <psa03 value="0.1073498624" flag="0"/>
      <psa10 value="0.0790159807" flag="0"/>
      <psa30 value="0.0255446253" flag="0"/>
    </comp>
    <comp name="--.HHN">
      <acc value="0.0745313511" flag="0"/>
      <vel value="0.0627649515" flag="0"/>
      <psa03 value="0.1607629046" flag="0"/>
      <psa10 value="0.0897350740" flag="0"/>
      <psa30 value="0.0181425386" flag="0"/>
    </comp>
    <comp name="--.HHZ">
      <acc value="0.0462975441" flag="0"/>
      <vel value="0.0428555411" flag="0"/>
      <psa03 value="0.1556133532" flag="0"/>
      <psa10 value="0.0710018287" flag="0"/>
      <psa30 value="0.0116413464" flag="0"/>
    </comp>
  </station>
  <station code="SNT5" name="SNT5" netid="HA" insttype="1s-100Hz," lat="36.4037" lon="25.3953">
    <comp name="--.HHZ">
      <acc value="0.0294811072" flag="0"/>
      <vel value="0.0389249344" flag="0"/>
      <psa03 value="0.0788275365" flag="0"/>
      <psa10 value="0.0545965188" flag="0"/>
      <psa30 value="0.0125391460" flag="0"/>
    </comp>
    <comp name="--.HHN">
      <acc value="0.0614470402" flag="0"/>
      <vel value="0.0782953230" flag="0"/>
      <psa03 value="0.2497485614" flag="0"/>
      <psa10 value="0.0741448290" flag="0"/>
      <psa30 value="0.0440861439" flag="0"/>
    </comp>
    <comp name="--.HHE">
      <acc value="0.1169054374" flag="0"/>
      <vel value="0.1199506024" flag="0"/>
      <psa03 value="0.3509379482" flag="0"/>
      <psa10 value="0.1246416301" flag="0"/>
      <psa30 value="0.0373548032" flag="0"/>
    </comp>
  </station>
  <station code="THNO" name="THNO" netid="HC" insttype="60" lat="37.6541" lon="25.0221">
    <comp name="--.HHN">
      <acc value="0.0000000000" flag="0"/>
      <vel value="-100.0000000000" flag="0"/>
      <psa03 value="0.0000000000" flag="0"/>
      <psa10 value="0.0000000000" flag="0"/>
      <psa30 value="0.0000000000" flag="0"/>
    </comp>
    <comp name="--.HHE">
      <acc value="0.0000000000" flag="0"/>
      <vel value="-100.0000000000" flag="0"/>
      <psa03 value="0.0000000000" flag="0"/>
      <psa10 value="0.0000000000" flag="0"/>
      <psa30 value="0.0000000000" flag="0"/>
    </comp>
    <comp name="--.HHZ">
      <acc value="0.0491910757" flag="0"/>
      <vel value="0.0277137541" flag="0"/>
      <psa03 value="0.0730876840" flag="0"/>
      <psa10 value="0.0247571865" flag="0"/>
      <psa30 value="0.0039539697" flag="0"/>
    </comp>
  </station>
  <station code="KRL1" name="KRL1" netid="HI" insttype="CMG-5TD,ACCELEROMETER,GURALP" lat="37.7951" lon="26.7065">
    <comp name="--.HNE">
      <acc value="9.3018774942" flag="0"/>
      <vel value="2.0992637993" flag="0"/>
      <psa03 value="6.8372189127" flag="0"/>
      <psa10 value="2.1214509114" flag="0"/>
      <psa30 value="0.1424104465" flag="0"/>
    </comp>
    <comp name="--.HNZ">
      <acc value="1.7729118039" flag="0"/>
      <vel value="0.8770275424" flag="0"/>
      <psa03 value="3.0854888842" flag="0"/>
      <psa10 value="0.6951677840" flag="0"/>
      <psa30 value="0.1450980670" flag="0"/>
    </comp>
    <comp name="--.HNN">
      <acc value="3.5706036826" flag="0"/>
      <vel value="1.6506427498" flag="0"/>
      <psa03 value="3.8296524135" flag="0"/>
      <psa10 value="2.1942659618" flag="0"/>
      <psa30 value="0.1701151458" flag="0"/>
    </comp>
  </station>
  <station code="NAX1" name="NAX1" netid="HI" insttype="CMG-5TD,ACCELEROMETER,GURALP" lat="37.1014" lon="25.3741">
    <comp name="--.HNE">
      <acc value="0.0945841079" flag="0"/>
      <vel value="0.0495016771" flag="0"/>
      <psa03 value="0.1869347229" flag="0"/>
      <psa10 value="0.0429989114" flag="0"/>
      <psa30 value="0.0090339086" flag="0"/>
    </comp>
    <comp name="--.HNZ">
      <acc value="0.0795332686" flag="0"/>
      <vel value="0.0550389344" flag="0"/>
      <psa03 value="0.2174679437" flag="0"/>
      <psa10 value="0.0393261915" flag="0"/>
      <psa30 value="0.0061343345" flag="0"/>
    </comp>
    <comp name="--.HNN">
      <acc value="0.0932512276" flag="0"/>
      <vel value="0.0567645331" flag="0"/>
      <psa03 value="0.2243059702" flag="0"/>
      <psa10 value="0.0658105924" flag="0"/>
      <psa30 value="0.0185122897" flag="0"/>
    </comp>
  </station>
  <station code="APE" name="APE" netid="HL" insttype="120" lat="37.0727" lon="25.523">
    <comp name="--.HHN">
      <acc value="0.1652803940" flag="0"/>
      <vel value="0.0671641797" flag="0"/>
      <psa03 value="0.2451797458" flag="0"/>
      <psa10 value="0.0588555559" flag="0"/>
      <psa30 value="0.0204271393" flag="0"/>
    </comp>
    <comp name="--.HHZ">
      <acc value="0.0990837592" flag="0"/>
      <vel value="0.0524864023" flag="0"/>
      <psa03 value="0.1570767458" flag="0"/>
      <psa10 value="0.0623921815" flag="0"/>
      <psa30 value="0.0118102467" flag="0"/>
    </comp>
    <comp name="--.HHE">
      <acc value="0.1423147112" flag="0"/>
      <vel value="0.0704851614" flag="0"/>
      <psa03 value="0.2692984374" flag="0"/>
      <psa10 value="0.0525825775" flag="0"/>
      <psa30 value="0.0151237428" flag="0"/>
    </comp>
  </station>
  <station code="ARG" name="ARG" netid="HL" insttype="LE3D20_DR24" lat="36.2136" lon="28.1212">
    <comp name="--.HHN">
      <acc value="0.0365161567" flag="0"/>
      <vel value="0.0395235421" flag="0"/>
      <psa03 value="0.0694795811" flag="0"/>
      <psa10 value="0.0716901066" flag="0"/>
      <psa30 value="0.0090625445" flag="0"/>
    </comp>
    <comp name="--.HHE">
      <acc value="0.0335880056" flag="0"/>
      <vel value="0.0285374864" flag="0"/>
      <psa03 value="0.1313440538" flag="0"/>
      <psa10 value="0.0285005716" flag="0"/>
      <psa30 value="0.0086878663" flag="0"/>
    </comp>
    <comp name="--.HHZ">
      <acc value="0.0253713987" flag="0"/>
      <vel value="0.0319489354" flag="0"/>
      <psa03 value="0.0413812240" flag="0"/>
      <psa10 value="0.0530773179" flag="0"/>
      <psa30 value="0.0080853933" flag="0"/>
    </comp>
  </station>
  <station code="KLNA" name="KLNA" netid="HL" insttype="CMG-5" lat="36.9571" lon="26.9727">
    <comp name="00.HNN">
      <acc value="0.8688406370" flag="0"/>
      <vel value="0.3542008812" flag="0"/>
      <psa03 value="2.1437337003" flag="0"/>
      <psa10 value="0.3036557065" flag="0"/>
      <psa30 value="0.0241156886" flag="0"/>
    </comp>
    <comp name="00.HNE">
      <acc value="1.1408669075" flag="0"/>
      <vel value="0.4233986777" flag="0"/>
      <psa03 value="2.7269538858" flag="0"/>
      <psa10 value="0.1976786768" flag="0"/>
      <psa30 value="0.0246781518" flag="0"/>
    </comp>
    <comp name="00.HNZ">
      <acc value="0.8246864201" flag="0"/>
      <vel value="0.2492415216" flag="0"/>
      <psa03 value="1.0938165294" flag="0"/>
      <psa10 value="0.1707949302" flag="0"/>
      <psa30 value="0.0168318627" flag="0"/>
    </comp>
  </station>
  <station code="NISR" name="NISR" netid="HL" insttype="65535" lat="36.6106" lon="27.131">
    <comp name="--.HHN">
      <acc value="0.0644405497" flag="0"/>
      <vel value="0.0605135607" flag="0"/>
      <psa03 value="0.1811354418" flag="0"/>
      <psa10 value="0.0459065066" flag="0"/>
      <psa30 value="0.0215496900" flag="0"/>
    </comp>
    <comp name="--.HHE">
      <acc value="0.1080599145" flag="0"/>
      <vel value="0.0830400448" flag="0"/>
      <psa03 value="0.3181199899" flag="0"/>
      <psa10 value="0.0770197436" flag="0"/>
      <psa30 value="0.0267236955" flag="0"/>
    </comp>
    <comp name="--.HHZ">
      <acc value="0.0500227525" flag="0"/>
      <vel value="0.0434963528" flag="0"/>
      <psa03 value="0.1031923156" flag="0"/>
      <psa10 value="0.0779160087" flag="0"/>
      <psa30 value="0.0093161337" flag="0"/>
    </comp>
  </station>
  <station code="NISR2" name="NISR2" netid="HL" insttype="120" lat="36.5744" lon="27.1767">
    <comp name="--.HHZ">
      <acc value="0.0595280395" flag="0"/>
      <vel value="0.0678997436" flag="0"/>
      <psa03 value="0.1789422044" flag="0"/>
      <psa10 value="0.0479169484" flag="0"/>
      <psa30 value="0.0183642826" flag="0"/>
    </comp>
    <comp name="--.HHN">
      <acc value="0.1377590480" flag="0"/>
      <vel value="0.1237674878" flag="0"/>
      <psa03 value="0.4924106680" flag="0"/>
      <psa10 value="0.2082924792" flag="0"/>
      <psa30 value="0.0329082522" flag="0"/>
    </comp>
    <comp name="--.HHE">
      <acc value="0.1224515370" flag="0"/>
      <vel value="0.1221742721" flag="0"/>
      <psa03 value="0.4198918015" flag="0"/>
      <psa10 value="0.1952323283" flag="0"/>
      <psa30 value="0.0310485696" flag="0"/>
    </comp>
  </station>
  <station code="PRK" name="PRK" netid="HL" insttype="120" lat="39.2456" lon="26.265">
    <comp name="--.HHE">
      <acc value="0.1086893721" flag="0"/>
      <vel value="0.1182396507" flag="0"/>
      <psa03 value="0.2296969984" flag="0"/>
      <psa10 value="0.1438117472" flag="0"/>
      <psa30 value="0.0173095183" flag="0"/>
    </comp>
    <comp name="--.HHN">
      <acc value="0.0901307677" flag="0"/>
      <vel value="0.0824495709" flag="0"/>
      <psa03 value="0.1891000142" flag="0"/>
      <psa10 value="0.1211352376" flag="0"/>
      <psa30 value="0.0080776146" flag="0"/>
    </comp>
    <comp name="--.HHZ">
      <acc value="0.0618210341" flag="0"/>
      <vel value="0.0503658536" flag="0"/>
      <psa03 value="0.1447505664" flag="0"/>
      <psa10 value="0.0432263990" flag="0"/>
      <psa30 value="0.0069828087" flag="0"/>
    </comp>
  </station>
  <station code="SAP3" name="SAP3" netid="HL" insttype="LE3D20_SMART24" lat="36.4356" lon="25.3454">
    <comp name="--.HHE">
      <acc value="0.0000279077" flag="0"/>
      <vel value="0.0000015501" flag="0"/>
      <psa03 value="0.0000044745" flag="0"/>
      <psa10 value="0.0000008667" flag="0"/>
      <psa30 value="0.0000001802" flag="0"/>
    </comp>
    <comp name="--.HHN">
      <acc value="0.0000262697" flag="0"/>
      <vel value="0.0000015905" flag="0"/>
      <psa03 value="0.0000048630" flag="0"/>
      <psa10 value="0.0000007311" flag="0"/>
      <psa30 value="0.0000001987" flag="0"/>
    </comp>
    <comp name="--.HHZ">
      <acc value="0.1140540903" flag="0"/>
      <vel value="0.1113019856" flag="0"/>
      <psa03 value="0.3075250484" flag="0"/>
      <psa10 value="0.1117090389" flag="0"/>
      <psa30 value="0.0181260392" flag="0"/>
    </comp>
  </station>
  <station code="SMG" name="SMG" netid="HL" insttype="0" lat="37.7043" lon="26.8377">
    <comp name="00.HNN">
      <acc value="8.0613748979" flag="0"/>
      <vel value="2.8943336122" flag="0"/>
      <psa03 value="17.6925016931" flag="0"/>
      <psa10 value="1.0184662322" flag="0"/>
      <psa30 value="0.2295734879" flag="0"/>
    </comp>
    <comp name="00.HNZ">
      <acc value="3.4559724518" flag="0"/>
      <vel value="1.0010857793" flag="0"/>
      <psa03 value="6.8355585452" flag="0"/>
      <psa10 value="0.9684877027" flag="0"/>
      <psa30 value="0.0676781496" flag="0"/>
    </comp>
    <comp name="00.HNE">
      <acc value="5.7967357989" flag="0"/>
      <vel value="2.0338758073" flag="0"/>
      <psa03 value="14.9366910683" flag="0"/>
      <psa10 value="1.3108147327" flag="0"/>
      <psa30 value="0.1156426910" flag="0"/>
    </comp>
  </station>
  <station code="THERA" name="THERA" netid="HL" insttype="120" lat="36.367" lon="25.4753">
    <comp name="--.HHZ">
      <acc value="0.0329955244" flag="0"/>
      <vel value="0.0280471385" flag="0"/>
      <psa03 value="0.0838468718" flag="0"/>
      <psa10 value="0.0260713973" flag="0"/>
      <psa30 value="0.0063982840" flag="0"/>
    </comp>
    <comp name="--.HHE">
      <acc value="0.0610632541" flag="0"/>
      <vel value="0.0611771233" flag="0"/>
      <psa03 value="0.1869422629" flag="0"/>
      <psa10 value="0.0474197673" flag="0"/>
      <psa30 value="0.0103259194" flag="0"/>
    </comp>
    <comp name="--.HHN">
      <acc value="0.0301055487" flag="0"/>
      <vel value="0.0284469041" flag="0"/>
      <psa03 value="0.1290219265" flag="0"/>
      <psa10 value="0.0345787836" flag="0"/>
      <psa30 value="0.0036256064" flag="0"/>
    </comp>
  </station>
  <station code="CHOS" name="CHOS" netid="HT" insttype="100" lat="38.3869" lon="26.0506">
    <comp name="--.HHZ">
      <acc value="0.0909465473" flag="0"/>
      <vel value="0.0652327806" flag="0"/>
      <psa03 value="0.1942263860" flag="0"/>
      <psa10 value="0.0568820229" flag="0"/>
      <psa30 value="0.0202526550" flag="0"/>
    </comp>
    <comp name="--.HHN">
      <acc value="0.1430150857" flag="0"/>
      <vel value="0.0936360394" flag="0"/>
      <psa03 value="0.2889949142" flag="0"/>
      <psa10 value="0.1219568169" flag="0"/>
      <psa30 value="0.0280638801" flag="0"/>
    </comp>
    <comp name="--.HHE">
      <acc value="0.2116642524" flag="0"/>
      <vel value="0.1216066183" flag="0"/>
      <psa03 value="0.5280695050" flag="0"/>
      <psa10 value="0.1142548413" flag="0"/>
      <psa30 value="0.0190287116" flag="0"/>
    </comp>
  </station>
  <station code="CMBO" name="CMBO" netid="HT" insttype="120P," lat="36.4709" lon="25.4056">
    <comp name="--.HHE">
      <acc value="0.2547968847" flag="0"/>
      <vel value="0.2316992635" flag="0"/>
      <psa03 value="0.6814894237" flag="0"/>
      <psa10 value="0.1940215145" flag="0"/>
      <psa30 value="0.0331135913" flag="0"/>
    </comp>
    <comp name="--.HHN">
      <acc value="0.3953032775" flag="0"/>
      <vel value="0.2748917532" flag="0"/>
      <psa03 value="0.7931670746" flag="0"/>
      <psa10 value="0.3024319599" flag="0"/>
      <psa30 value="0.0479708224" flag="0"/>
    </comp>
    <comp name="--.HHZ">
      <acc value="0.2204190864" flag="0"/>
      <vel value="0.1445737861" flag="0"/>
      <psa03 value="0.5939014187" flag="0"/>
      <psa10 value="0.1064840326" flag="0"/>
      <psa30 value="0.0304199270" flag="0"/>
    </comp>
  </station>
  <station code="SIGR" name="SIGR" netid="HT" insttype="100" lat="39.2114" lon="25.8553">
    <comp name="--.HHE">
      <acc value="0.0217923775" flag="0"/>
      <vel value="0.0207357111" flag="0"/>
      <psa03 value="0.0586678322" flag="0"/>
      <psa10 value="0.0363511791" flag="0"/>
      <psa30 value="0.0041368300" flag="0"/>
    </comp>
    <comp name="--.HHN">
      <acc value="0.0302594625" flag="0"/>
      <vel value="0.0304660023" flag="0"/>
      <psa03 value="0.0748123758" flag="0"/>
      <psa10 value="0.0256363410" flag="0"/>
      <psa30 value="0.0039854726" flag="0"/>
    </comp>
    <comp name="--.HHZ">
      <acc value="0.0153899755" flag="0"/>
      <vel value="0.0104799980" flag="0"/>
      <psa03 value="0.0493971851" flag="0"/>
      <psa10 value="0.0147704663" flag="0"/>
      <psa30 value="0.0030942384" flag="0"/>
    </comp>
  </station>
  <station code="AKS" name="AKS" netid="KO" insttype="CMG-5T" lat="38.8785" lon="27.8129">
    <comp name="--.HNZ">
      <acc value="0.0309387682" flag="0"/>
      <vel value="0.0213568863" flag="0"/>
      <psa03 value="0.0541213738" flag="0"/>
      <psa10 value="0.0222302880" flag="0"/>
      <psa30 value="0.0068857895" flag="0"/>
    </comp>
    <comp name="--.HNE">
      <acc value="0.0560926648" flag="0"/>
      <vel value="0.0361196105" flag="0"/>
      <psa03 value="0.1595785512" flag="0"/>
      <psa10 value="0.0589098258" flag="0"/>
      <psa30 value="0.0087104870" flag="0"/>
    </comp>
    <comp name="--.HNN">
      <acc value="0.0711970364" flag="0"/>
      <vel value="0.0513961489" flag="0"/>
      <psa03 value="0.2142485979" flag="0"/>
      <psa10 value="0.0525694996" flag="0"/>
      <psa30 value="0.0097091105" flag="0"/>
    </comp>
  </station>
  <station code="AYDB" name="AYDB" netid="KO" insttype="30s," lat="37.9467" lon="27.8908">
    <comp name="--.HHE">
      <acc value="0.2454637166" flag="0"/>
      <vel value="0.1419520747" flag="0"/>
      <psa03 value="0.7801782554" flag="0"/>
      <psa10 value="0.1229314914" flag="0"/>
      <psa30 value="0.0084950150" flag="0"/>
    </comp>
    <comp name="--.HHZ">
      <acc value="0.1291079099" flag="0"/>
      <vel value="0.0572988125" flag="0"/>
      <psa03 value="0.3342346553" flag="0"/>
      <psa10 value="0.0604682182" flag="0"/>
      <psa30 value="0.0095842392" flag="0"/>
    </comp>
    <comp name="--.HHN">
      <acc value="0.1909339056" flag="0"/>
      <vel value="0.1183162732" flag="0"/>
      <psa03 value="0.5105421480" flag="0"/>
      <psa10 value="0.1521312675" flag="0"/>
      <psa30 value="0.0167423469" flag="0"/>
    </comp>
  </station>
  <station code="BABD" name="BABD" netid="KO" insttype="30s," lat="37.802" lon="28.8534">
    <comp name="--.HHZ">
      <acc value="0.0348638553" flag="0"/>
      <vel value="0.0304690415" flag="0"/>
      <psa03 value="0.0626815418" flag="0"/>
      <psa10 value="0.0737571730" flag="0"/>
      <psa30 value="0.0042272429" flag="0"/>
    </comp>
    <comp name="--.HHN">
      <acc value="0.0386534498" flag="0"/>
      <vel value="0.0361565288" flag="0"/>
      <psa03 value="0.1247722056" flag="0"/>
      <psa10 value="0.1080296277" flag="0"/>
      <psa30 value="0.0064434630" flag="0"/>
    </comp>
    <comp name="--.HHE">
      <acc value="0.0614833581" flag="0"/>
      <vel value="0.0645773414" flag="0"/>
      <psa03 value="0.1585355274" flag="0"/>
      <psa10 value="0.1854402563" flag="0"/>
      <psa30 value="0.0069692467" flag="0"/>
    </comp>
  </station>
  <station code="DIDI" name="DIDI" netid="KO" insttype="CMG-5T" lat="37.3767" lon="27.2398">
    <comp name="--.HNE">
      <acc value="4.7621697352" flag="0"/>
      <vel value="2.0677901422" flag="0"/>
      <psa03 value="9.8909225660" flag="0"/>
      <psa10 value="1.0296811546" flag="0"/>
      <psa30 value="0.1238352301" flag="0"/>
    </comp>
    <comp name="--.HNN">
      <acc value="3.2333365263" flag="0"/>
