<?xml version="1.0" encoding="UTF-8" standalone="yes"?>
<!DOCTYPE earthquake SYSTEM "stationlist.dtd">
<stationlist created="" xmlns="ch.ethz.sed.shakemap.usgs.xml">
  <station code="APE" name="APE" netid="GE" insttype="STS-2/N" lat="37.0727" lon="25.523">
    <comp name="--.HHE">
      <acc value="0.1499641324" flag="0"/>
      <vel value="0.0720106660" flag="0"/>
      <psa03 value="0.2755401755" flag="0"/>
      <psa10 value="0.0528677631" flag="0"/>
      <psa30 value="0.0151366451" flag="0"/>
    </comp>
    <comp name="--.HHN">
      <acc value="0.1707153969" flag="0"/>
      <vel value="0.0694036591" flag="0"/>
      <psa03 value="0.2501195285" flag="0"/>
      <psa10 value="0.0592161831" flag="0"/>
      <psa30 value="0.0204791086" flag="0"/>
    </comp>
    <comp name="--.HHZ">
      <acc value="0.1027906414" flag="0"/>
      <vel value="0.0530647794" flag="0"/>
      <psa03 value="0.1602568610" flag="0"/>
      <psa10 value="0.0628080642" flag="0"/>
      <psa30 value="0.0118410885" flag="0"/>
    </comp>
  </station>
  <station code="AKS" name="AKS" netid="KO" insttype="CMG-5T" lat="38.8785" lon="27.8129">
    <comp name="--.HNE">
      <acc value="0.0560926531" flag="0"/>
      <vel value="0.0361195298" flag="0"/>
      <psa03 value="0.1595785512" flag="0"/>
      <psa10 value="0.0589098257" flag="0"/>
      <psa30 value="0.0087104860" flag="0"/>
    </comp>
    <comp name="--.HNZ">
      <acc value="0.0309387747" flag="0"/>
      <vel value="0.0213567305" flag="0"/>
      <psa03 value="0.0541213739" flag="0"/>
      <psa10 value="0.0222302881" flag="0"/>
      <psa30 value="0.0068857784" flag="0"/>
    </comp>
    <comp name="--.HNN">
      <acc value="0.0711970382" flag="0"/>
      <vel value="0.0513959474" flag="0"/>
      <psa03 value="0.2142485980" flag="0"/>
      <psa10 value="0.0525694994" flag="0"/>
      <psa30 value="0.0097091176" flag="0"/>
    </comp>
  </station>
  <station code="AYDB" name="AYDB" netid="KO" insttype="30s," lat="37.9467" lon="27.8908">
    <comp name="--.HHN">
      <acc value="0.1909339057" flag="0"/>
      <vel value="0.1183162446" flag="0"/>
      <psa03 value="0.5105421480" flag="0"/>
      <psa10 value="0.1521312674" flag="0"/>
      <psa30 value="0.0167423480" flag="0"/>
    </comp>
    <comp name="--.HHZ">
      <acc value="0.1291079097" flag="0"/>
      <vel value="0.0572988008" flag="0"/>
      <psa03 value="0.3342346553" flag="0"/>
      <psa10 value="0.0604682182" flag="0"/>
      <psa30 value="0.0095842370" flag="0"/>
    </comp>
    <comp name="--.HHE">
      <acc value="0.2454637165" flag="0"/>
      <vel value="0.1419520846" flag="0"/>
      <psa03 value="0.7801782554" flag="0"/>
      <psa10 value="0.1229314913" flag="0"/>
      <psa30 value="0.0084950376" flag="0"/>
    </comp>
  </station>
  <station code="DIDI" name="DIDI" netid="KO" insttype="CMG-5T" lat="37.3767" lon="27.2398">
    <comp name="--.HNE">
      <acc value="4.7621697192" flag="0"/>
      <vel value="2.0677900832" flag="0"/>
      <psa03 value="9.8909225659" flag="0"/>
      <psa10 value="1.0296811555" flag="0"/>
      <psa30 value="0.1238355774" flag="0"/>
    </comp>
    <comp name="--.HNN">
      <acc value="3.2333365298" flag="0"/>
      <vel value="1.3936043157" flag="0"/>
      <psa03 value="14.9031258125" flag="0"/>
      <psa10 value="1.2421979940" flag="0"/>
      <psa30 value="0.0720438106" flag="0"/>
    </comp>
    <comp name="--.HNZ">
      <acc value="4.5850551339" flag="0"/>
      <vel value="1.4049254549" flag="0"/>
      <psa03 value="4.8053639378" flag="0"/>
      <psa10 value="0.4413004542" flag="0"/>
      <psa30 value="0.0333138002" flag="0"/>
    </comp>
  </station>
  <station code="GMLD" name="GMLD" netid="KO" insttype="CMG-5T" lat="38.0766" lon="26.9157">
    <comp name="--.HNZ">
      <acc value="0.7446882324" flag="0"/>
      <vel value="0.2456250403" flag="0"/>
      <psa03 value="2.1395561085" flag="0"/>
      <psa10 value="0.1238741116" flag="0"/>
      <psa30 value="0.0186374645" flag="0"/>
    </comp>
    <comp name="--.HNE">
      <acc value="1.2105696871" flag="0"/>
      <vel value="0.6461913540" flag="0"/>
      <psa03 value="3.6791931989" flag="0"/>
      <psa10 value="0.4570999874" flag="0"/>
      <psa30 value="0.0347348245" flag="0"/>
    </comp>
    <comp name="--.HNN">
      <acc value="0.9748740197" flag="0"/>
      <vel value="0.4408583054" flag="0"/>
      <psa03 value="2.2738716951" flag="0"/>
      <psa10 value="0.3258199317" flag="0"/>
      <psa30 value="0.0267041595" flag="0"/>
    </comp>
  </station>
  <station code="GOMA" name="GOMA" netid="KO" insttype="CMG-5T" lat="38.7077" lon="27.9175">
    <comp name="--.HNE">
      <acc value="0.0920426765" flag="0"/>
      <vel value="0.0604103340" flag="0"/>
      <psa03 value="0.4995754967" flag="0"/>
      <psa10 value="0.0616827512" flag="0"/>
      <psa30 value="0.0052142226" flag="0"/>
    </comp>
    <comp name="--.HNN">
      <acc value="0.0560872675" flag="0"/>
      <vel value="0.0408369085" flag="0"/>
      <psa03 value="0.2034109612" flag="0"/>
      <psa10 value="0.0447521793" flag="0"/>
      <psa30 value="0.0068094602" flag="0"/>
    </comp>
    <comp name="--.HNZ">
      <acc value="0.0410183524" flag="0"/>
      <vel value="0.0402088775" flag="0"/>
      <psa03 value="0.1333311596" flag="0"/>
      <psa10 value="0.0407173024" flag="0"/>
      <psa30 value="0.0049102701" flag="0"/>
    </comp>
  </station>
  <station code="KRBN" name="KRBN" netid="KO" insttype="CMG-5T" lat="38.5936" lon="26.5537">
    <comp name="--.HNZ">
      <acc value="0.2020013904" flag="0"/>
      <vel value="0.1166058014" flag="0"/>
      <psa03 value="0.4719365477" flag="0"/>
      <psa10 value="0.1769974070" flag="0"/>
      <psa30 value="0.0170783388" flag="0"/>
    </comp>
    <comp name="--.HNE">
      <acc value="0.2888143767" flag="0"/>
      <vel value="0.1743780442" flag="0"/>
      <psa03 value="0.7531563554" flag="0"/>
      <psa10 value="0.1425135878" flag="0"/>
      <psa30 value="0.0229776311" flag="0"/>
    </comp>
    <comp name="--.HNN">
      <acc value="0.2665281307" flag="0"/>
      <vel value="0.1668991032" flag="0"/>
      <psa03 value="0.8878073417" flag="0"/>
      <psa10 value="0.2272535781" flag="0"/>
      <psa30 value="0.0272142532" flag="0"/>
    </comp>
  </station>
  <station code="KUSD" name="KUSD" netid="KO" insttype="CMG-5T" lat="37.8606" lon="27.2868">
    <comp name="--.HNE">
      <acc value="0.4309004055" flag="0"/>
      <vel value="0.2260932565" flag="0"/>
      <psa03 value="0.9275422920" flag="0"/>
      <psa10 value="0.1512883024" flag="0"/>
      <psa30 value="0.0304771318" flag="0"/>
    </comp>
    <comp name="--.HNN">
      <acc value="0.3972828184" flag="0"/>
      <vel value="0.1795312260" flag="0"/>
      <psa03 value="0.7681254109" flag="0"/>
      <psa10 value="0.2498534448" flag="0"/>
      <psa30 value="0.0149027887" flag="0"/>
    </comp>
    <comp name="--.HNZ">
      <acc value="0.2008538793" flag="0"/>
      <vel value="0.0841524193" flag="0"/>
      <psa03 value="0.4538490837" flag="0"/>
      <psa10 value="0.1097903536" flag="0"/>
      <psa30 value="0.0211541041" flag="0"/>
    </comp>
  </station>
  <station code="YKAV" name="YKAV" netid="KO" insttype="CMG-5T" lat="37.1246" lon="27.2801">
    <comp name="--.HNN">
      <acc value="0.4136758243" flag="0"/>
      <vel value="0.3400550137" flag="0"/>
      <psa03 value="0.8469942229" flag="0"/>
      <psa10 value="0.4300905207" flag="0"/>
      <psa30 value="0.0251727642" flag="0"/>
    </comp>
    <comp name="--.HNZ">
      <acc value="0.3314118175" flag="0"/>
      <vel value="0.2000038801" flag="0"/>
      <psa03 value="0.8396097026" flag="0"/>
      <psa10 value="0.1598707804" flag="0"/>
      <psa30 value="0.0146432031" flag="0"/>
    </comp>
    <comp name="--.HNE">
      <acc value="0.5682381738" flag="0"/>
      <vel value="0.3081857598" flag="0"/>
      <psa03 value="1.3659938386" flag="0"/>
      <psa10 value="0.3561937459" flag="0"/>
      <psa30 value="0.0286053004" flag="0"/>
    </comp>
  </station>
  <station code="AYDN" name="AYDN" netid="TU" insttype="T" lat="37.6608" lon="27.8792">
    <comp name="--.HHZ">
      <acc value="0.2692550404" flag="0"/>
      <vel value="0.1152347926" flag="0"/>
      <psa03 value="0.4818209165" flag="0"/>
      <psa10 value="0.1795357530" flag="0"/>
      <psa30 value="0.0200180277" flag="0"/>
    </comp>
    <comp name="--.HHN">
      <acc value="0.5468838181" flag="0"/>
      <vel value="0.2691573719" flag="0"/>
      <psa03 value="1.3541789085" flag="0"/>
      <psa10 value="0.4311458017" flag="0"/>
      <psa30 value="0.0186305895" flag="0"/>
    </comp>
    <comp name="--.HHE">
      <acc value="0.5828377041" flag="0"/>
      <vel value="0.2459078992" flag="0"/>
      <psa03 value="1.6454330005" flag="0"/>
      <psa10 value="0.2639697300" flag="0"/>
      <psa30 value="0.0179309725" flag="0"/>
    </comp>
  </station>
</stationlist>
