<?xml version="1.0" encoding="UTF-8" standalone="yes"?>
<!DOCTYPE earthquake SYSTEM "stationlist.dtd">
<stationlist created="" xmlns="ch.ethz.sed.shakemap.usgs.xml">
  <station code="KSS1" name="KSS1" netid="HI" insttype="CMG-5TD,ACCELEROMETER,GURALP" lat="35.4189" lon="26.9207">
    <comp name="--.HNE">
      <acc value="0.0248096121" flag="0"/>
      <vel value="0.0083039121" flag="0"/>
      <psa03 value="0.0768788219" flag="0"/>
      <psa10 value="0.0042387843" flag="0"/>
      <psa30 value="0.0012115587" flag="0"/>
    </comp>
    <comp name="--.HNN">
      <acc value="0.0463204701" flag="0"/>
      <vel value="0.0113151997" flag="0"/>
      <psa03 value="0.0857966446" flag="0"/>
      <psa10 value="0.0059572907" flag="0"/>
      <psa30 value="0.0007474116" flag="0"/>
    </comp>
    <comp name="--.HNZ">
      <acc value="0.0283039854" flag="0"/>
      <vel value="0.0088868096" flag="0"/>
      <psa03 value="0.0348015900" flag="0"/>
      <psa10 value="0.0053510857" flag="0"/>
      <psa30 value="0.0005808100" flag="0"/>
    </comp>
  </station>
</stationlist>
