<?xml version="1.0" encoding="UTF-8" standalone="yes"?>
<!DOCTYPE earthquake SYSTEM "stationlist.dtd">
<stationlist created="" xmlns="ch.ethz.sed.shakemap.usgs.xml">
  <station code="KARP" name="KARP" netid="GE" source="GFZ" insttype="STS-2/N" lat="35.5471" lon="27.1611">
    <comp name="--.HHE">
      <acc value="0.0866443661" flag="0"/>
      <vel value="0.0288726094" flag="0"/>
      <psa03 value="0.1321649349" flag="0"/>
      <psa10 value="0.0144147471" flag="0"/>
      <psa30 value="0.0007609703" flag="0"/>
    </comp>
    <comp name="--.HHN">
      <acc value="0.0696892268" flag="0"/>
      <vel value="0.0315508876" flag="0"/>
      <psa03 value="0.1420567896" flag="0"/>
      <psa10 value="0.0153383873" flag="0"/>
      <psa30 value="0.0007266662" flag="0"/>
    </comp>
    <comp name="--.HHZ">
      <acc value="0.0499014771" flag="0"/>
      <vel value="0.0156605844" flag="0"/>
      <psa03 value="0.0897333286" flag="0"/>
      <psa10 value="0.0078756493" flag="0"/>
      <psa30 value="0.0004624971" flag="0"/>
    </comp>
  </station>
  <station code="ZKR" name="ZKR" netid="GE" source="GFZ" insttype="STS-2/N" lat="35.1147" lon="26.2169">
    <comp name="--.HHE">
      <acc value="0.1618052641" flag="0"/>
      <vel value="0.0635986997" flag="0"/>
      <psa03 value="0.3653001037" flag="0"/>
      <psa10 value="0.0221471453" flag="0"/>
      <psa30 value="0.0013331023" flag="0"/>
    </comp>
    <comp name="--.HHN">
      <acc value="0.0881727307" flag="0"/>
      <vel value="0.0295617248" flag="0"/>
      <psa03 value="0.1338251298" flag="0"/>
      <psa10 value="0.0071000448" flag="0"/>
      <psa30 value="0.0005840500" flag="0"/>
    </comp>
    <comp name="--.HHZ">
      <acc value="0.0712693171" flag="0"/>
      <vel value="0.0239240915" flag="0"/>
      <psa03 value="0.1306793560" flag="0"/>
      <psa10 value="0.0072941340" flag="0"/>
      <psa30 value="0.0007300786" flag="0"/>
    </comp>
  </station>
  <station code="FRMA" name="FRMA" netid="HC" source="NOA" insttype="60" lat="35.0187" lon="25.8555">
    <comp name="--.HHE">
      <acc value="0.0233667855" flag="0"/>
      <vel value="0.0078583228" flag="0"/>
      <psa03 value="0.0442723934" flag="0"/>
      <psa10 value="0.0082530452" flag="0"/>
      <psa30 value="0.0004349314" flag="0"/>
    </comp>
    <comp name="--.HHN">
      <acc value="0.0243405468" flag="0"/>
      <vel value="0.0081735830" flag="0"/>
      <psa03 value="0.0356995016" flag="0"/>
      <psa10 value="0.0084380281" flag="0"/>
      <psa30 value="0.0005002958" flag="0"/>
    </comp>
    <comp name="--.HHZ">
      <acc value="0.0184768835" flag="0"/>
      <vel value="0.0049918770" flag="0"/>
      <psa03 value="0.0266650111" flag="0"/>
      <psa10 value="0.0063794457" flag="0"/>
      <psa30 value="0.0003843924" flag="0"/>
    </comp>
  </station>
  <station code="KSTL" name="KSTL" netid="HC" source="NOA" insttype="1s-100Hz," lat="35.2092" lon="25.3374">
    <comp name="--.HHE">
      <acc value="0.0045821368" flag="0"/>
      <vel value="0.0034621835" flag="0"/>
      <psa03 value="0.0150316575" flag="0"/>
      <psa10 value="0.0063129316" flag="0"/>
      <psa30 value="0.0002569290" flag="0"/>
    </comp>
    <comp name="--.HHN">
      <acc value="0.0054368518" flag="0"/>
      <vel value="0.0036878816" flag="0"/>
      <psa03 value="0.0117818296" flag="0"/>
      <psa10 value="0.0046585153" flag="0"/>
      <psa30 value="0.0002752290" flag="0"/>
    </comp>
    <comp name="--.HHZ">
      <acc value="0.0026362605" flag="0"/>
      <vel value="0.0017961676" flag="0"/>
      <psa03 value="0.0094401732" flag="0"/>
      <psa10 value="0.0028649127" flag="0"/>
      <psa30 value="0.0002006987" flag="0"/>
    </comp>
  </station>
  <station code="STIA" name="STIA" netid="HC" source="NOA" insttype="120" lat="35.2021" lon="26.0909">
    <comp name="--.HHE">
      <acc value="0.0615152898" flag="0"/>
      <vel value="0.0196634835" flag="0"/>
      <psa03 value="0.0999564358" flag="0"/>
      <psa10 value="0.0138101553" flag="0"/>
      <psa30 value="0.0006707787" flag="0"/>
    </comp>
    <comp name="--.HHN">
      <acc value="0.0541032146" flag="0"/>
      <vel value="0.0155510431" flag="0"/>
      <psa03 value="0.0744629256" flag="0"/>
      <psa10 value="0.0130704474" flag="0"/>
      <psa30 value="0.0008814936" flag="0"/>
    </comp>
    <comp name="--.HHZ">
      <acc value="0.0516953258" flag="0"/>
      <vel value="0.0169525581" flag="0"/>
      <psa03 value="0.0945221107" flag="0"/>
      <psa10 value="0.0069004278" flag="0"/>
      <psa30 value="0.0005365093" flag="0"/>
    </comp>
  </station>
  <station code="KARP" name="KARP" netid="HL" source="NOA" insttype="120" lat="35.5471" lon="27.1611">
    <comp name="--.HHE">
      <acc value="0.0778283351" flag="0"/>
      <vel value="0.0276481526" flag="0"/>
      <psa03 value="0.1292761871" flag="0"/>
      <psa10 value="0.0143073917" flag="0"/>
      <psa30 value="0.0007481658" flag="0"/>
    </comp>
    <comp name="--.HHN">
      <acc value="0.0616636270" flag="0"/>
      <vel value="0.0303738117" flag="0"/>
      <psa03 value="0.1383369207" flag="0"/>
      <psa10 value="0.0152570561" flag="0"/>
      <psa30 value="0.0007195496" flag="0"/>
    </comp>
    <comp name="--.HHZ">
      <acc value="0.0469728872" flag="0"/>
      <vel value="0.0151860389" flag="0"/>
      <psa03 value="0.0872872778" flag="0"/>
      <psa10 value="0.0078182579" flag="0"/>
      <psa30 value="0.0004601428" flag="0"/>
    </comp>
  </station>
  <station code="LAST" name="LAST" netid="HL" source="NOA" insttype="30" lat="35.1615" lon="25.4782">
    <comp name="--.HHE">
      <acc value="0.0031582307" flag="0"/>
      <vel value="0.0030728719" flag="0"/>
      <psa03 value="0.0074906667" flag="0"/>
      <psa10 value="0.0054658493" flag="0"/>
      <psa30 value="0.0002595838" flag="0"/>
    </comp>
    <comp name="--.HHN">
      <acc value="0.0045103450" flag="0"/>
      <vel value="0.0028979689" flag="0"/>
      <psa03 value="0.0086858270" flag="0"/>
      <psa10 value="0.0041904424" flag="0"/>
      <psa30 value="0.0002333932" flag="0"/>
    </comp>
    <comp name="--.HHZ">
      <acc value="0.0029718597" flag="0"/>
      <vel value="0.0013981140" flag="0"/>
      <psa03 value="0.0071592753" flag="0"/>
      <psa10 value="0.0028213980" flag="0"/>
      <psa30 value="0.0001750378" flag="0"/>
    </comp>
  </station>
  <station code="NPS" name="NPS" netid="HL" source="NOA" insttype="120" lat="35.2613" lon="25.6104">
    <comp name="--.HHE">
      <acc value="0.0161931274" flag="0"/>
      <vel value="0.0079701026" flag="0"/>
      <psa03 value="0.0365300912" flag="0"/>
      <psa10 value="0.0088500914" flag="0"/>
      <psa30 value="0.0003602722" flag="0"/>
    </comp>
    <comp name="--.HHN">
      <acc value="0.0093065270" flag="0"/>
      <vel value="0.0052524739" flag="0"/>
      <psa03 value="0.0294733661" flag="0"/>
      <psa10 value="0.0065927768" flag="0"/>
      <psa30 value="0.0002923861" flag="0"/>
    </comp>
    <comp name="--.HHZ">
      <acc value="0.0142175356" flag="0"/>
      <vel value="0.0047194365" flag="0"/>
      <psa03 value="0.0200199322" flag="0"/>
      <psa10 value="0.0038285006" flag="0"/>
      <psa30 value="0.0001961201" flag="0"/>
    </comp>
  </station>
  <station code="ZKR" name="ZKR" netid="HL" source="NOA" insttype="120" lat="35.1147" lon="26.2169">
    <comp name="--.HHE">
      <acc value="0.1575184254" flag="0"/>
      <vel value="0.0617704974" flag="0"/>
      <psa03 value="0.3548263617" flag="0"/>
      <psa10 value="0.0217967574" flag="0"/>
      <psa30 value="0.0013018007" flag="0"/>
    </comp>
  </station>
</stationlist>
