<stationlist xmlns:esm="https://esm-db.eu/esmws/shakemap/1/" created="1783475651">
	<station code="KARP" name="KARP" netid="GE" source="GEOFON" insttype="" lat="35.5471" lon="27.16106" esm:processing="manual (Paolucci et al 2011)" esm:quality="best">
		<comp name="--.HNE" depth="0.0">
			<acc value="0.0776004835313771" flag="0"/>
			<vel value="0.0267974990333292" flag="0"/>
			<psa03 value="0.134495073094525" flag="0"/>
			<psa10 value="0.0130750150400576" flag="0"/>
			<psa30 value="0.00068321349506101" flag="0"/>
		</comp>
		<comp name="--.HNN" depth="0.0">
			<acc value="0.0531094053600161" flag="0"/>
			<vel value="0.0285535648404716" flag="0"/>
			<psa03 value="0.126128280456908" flag="0"/>
			<psa10 value="0.0155595497735702" flag="0"/>
			<psa30 value="0.000727508279613099" flag="0"/>
		</comp>
		<comp name="--.HNZ" depth="0.0">
			<acc value="0.0409773442695454" flag="0"/>
			<vel value="0.0132162187161362" flag="0"/>
			<psa03 value="0.0785225726150669" flag="0"/>
			<psa10 value="0.00684958441119122" flag="0"/>
			<psa30 value="0.000424156118741216" flag="0"/>
		</comp>
	</station>
	<station code="KSS1" name="KSS1" netid="HI" source="ITSAK Strong Motion Network" insttype="" lat="35.4189" lon="26.9207" esm:processing="manual (Paolucci et al 2011)" esm:quality="best">
		<comp name="--.HNE" depth="0.0">
			<acc value="0.0507557860003594" flag="0"/>
			<vel value="0.017198217556279" flag="0"/>
			<psa03 value="0.108634077669164" flag="0"/>
			<psa10 value="0.00505363223753379" flag="0"/>
			<psa30 value="0.000593281659758283" flag="0"/>
		</comp>
		<comp name="--.HNN" depth="0.0">
			<acc value="0.096425247446652" flag="0"/>
			<vel value="0.0352982814411735" flag="0"/>
			<psa03 value="0.136642699012202" flag="0"/>
			<psa10 value="0.0104656495500799" flag="0"/>
			<psa30 value="0.000964641974689939" flag="0"/>
		</comp>
		<comp name="--.HNZ" depth="0.0">
			<acc value="0.0404960992376816" flag="0"/>
			<vel value="0.0178265720256989" flag="0"/>
			<psa03 value="0.102325426535988" flag="0"/>
			<psa10 value="0.00546033889569388" flag="0"/>
			<psa30 value="0.000514982798176308" flag="0"/>
		</comp>
	</station>
	<station code="RGE1" name="RGE1" netid="HI" source="ITSAK Strong Motion Network" insttype="" lat="36.0269" lon="27.9306" esm:processing="manual (Paolucci et al 2011)" esm:quality="good">
		<comp name="--.HNE" depth="0.0">
			<acc value="0.00428179700429816" flag="0"/>
			<vel value="0.0034141214319255" flag="0"/>
			<psa03 value="0.0158634180610748" flag="0"/>
			<psa10 value="0.0030476459540883" flag="0"/>
			<psa30 value="0.000228321036606315" flag="0"/>
		</comp>
		<comp name="--.HNN" depth="0.0">
			<acc value="0.00469637357679679" flag="0"/>
			<vel value="0.00292468685590785" flag="0"/>
			<psa03 value="0.016362081303412" flag="0"/>
			<psa10 value="0.00392588827395588" flag="0"/>
			<psa30 value="0.000254283016877005" flag="0"/>
		</comp>
		<comp name="--.HNZ" depth="0.0">
			<acc value="0.00355003866982511" flag="0"/>
			<vel value="0.0016911460137237" flag="0"/>
			<psa03 value="0.011421375099627" flag="0"/>
			<psa10 value="0.0024373804488692" flag="0"/>
			<psa30 value="0.000176681222493125" flag="0"/>
		</comp>
	</station>
	<station code="SIT2" name="SIT2" netid="HI" source="ITSAK Strong Motion Network" insttype="" lat="35.2059" lon="26.107" esm:processing="manual (Paolucci et al 2011)" esm:quality="best">
		<comp name="--.HNE" depth="0.0">
			<acc value="0.0818175069222292" flag="0"/>
			<vel value="0.0403916154239305" flag="0"/>
			<psa03 value="0.346796843498224" flag="0"/>
			<psa10 value="0.0269312290076701" flag="0"/>
			<psa30 value="0.00165814617727315" flag="0"/>
		</comp>
		<comp name="--.HNN" depth="0.0">
			<acc value="0.101522965253122" flag="0"/>
			<vel value="0.0459555826264921" flag="0"/>
			<psa03 value="0.309392358765349" flag="0"/>
			<psa10 value="0.0267339158764836" flag="0"/>
			<psa30 value="0.00166664719653062" flag="0"/>
		</comp>
		<comp name="--.HNZ" depth="0.0">
			<acc value="0.128539143025455" flag="0"/>
			<vel value="0.040536757671179" flag="0"/>
			<psa03 value="0.196731482500541" flag="0"/>
			<psa10 value="0.010453569154293" flag="0"/>
			<psa30 value="0.000744957740194225" flag="0"/>
		</comp>
	</station>
	<station code="KARP" name="KARP" netid="HL" source="National Observatory of Athens Seismic Network" insttype="" lat="35.5471" lon="27.16106" esm:processing="manual (Paolucci et al 2011)" esm:quality="best">
		<comp name="--.HNE" depth="0.0">
			<acc value="0.076545435763863" flag="0"/>
			<vel value="0.0262895292459212" flag="0"/>
			<psa03 value="0.13176579849081" flag="0"/>
			<psa10 value="0.0128011927355537" flag="0"/>
			<psa30 value="0.00067337020960499" flag="0"/>
		</comp>
		<comp name="--.HNN" depth="0.0">
			<acc value="0.0526375746648408" flag="0"/>
			<vel value="0.027987408696408" flag="0"/>
			<psa03 value="0.123577974679667" flag="0"/>
			<psa10 value="0.0152374058859186" flag="0"/>
			<psa30 value="0.000711848507296704" flag="0"/>
		</comp>
		<comp name="--.HNZ" depth="0.0">
			<acc value="0.0402396202543941" flag="0"/>
			<vel value="0.0130178514658854" flag="0"/>
			<psa03 value="0.0769118531768092" flag="0"/>
			<psa10 value="0.00671267325893931" flag="0"/>
			<psa30 value="0.000400890171299715" flag="0"/>
		</comp>
	</station>
	<station code="NISR" name="NISR" netid="HL" source="National Observatory of Athens Seismic Network" insttype="" lat="36.6106" lon="27.131" esm:processing="manual (Paolucci et al 2011)" esm:quality="good">
		<comp name="00.HNE" depth="0.0">
			<acc value="0.00919913387030958" flag="0"/>
			<vel value="0.00510844658306417" flag="0"/>
			<psa03 value="0.0339065508300878" flag="0"/>
			<psa10 value="0.00443504192476146" flag="0"/>
			<psa30 value="0.000283886306074536" flag="0"/>
		</comp>
		<comp name="00.HNN" depth="0.0">
			<acc value="0.00705379346937583" flag="0"/>
			<vel value="0.00354386843146897" flag="0"/>
			<psa03 value="0.0257257146190049" flag="0"/>
			<psa10 value="0.00207278574938319" flag="0"/>
			<psa30 value="0.000275219507983363" flag="0"/>
		</comp>
		<comp name="00.HNZ" depth="0.0">
			<acc value="0.00285724864982464" flag="0"/>
			<vel value="0.00162696962487018" flag="0"/>
			<psa03 value="0.0114263871504042" flag="0"/>
			<psa10 value="0.00225231881444265" flag="0"/>
			<psa30 value="0.000131442978285556" flag="0"/>
		</comp>
	</station>
	<station code="THRA" name="THRA" netid="HL" source="National Observatory of Athens Seismic Network" insttype="" lat="36.41502" lon="25.43244" esm:processing="automatic (Paolucci et al 2011)" esm:quality="good">
		<comp name="00.HNE" depth="0.0">
			<acc value="0.00739528598818116" flag="0"/>
			<vel value="0.00477654526083458" flag="0"/>
			<psa03 value="0.0207097456169419" flag="0"/>
			<psa10 value="0.0100834720430294" flag="0"/>
			<psa30 value="0.000693985452298955" flag="0"/>
		</comp>
		<comp name="00.HNN" depth="0.0">
			<acc value="0.00640541239906166" flag="0"/>
			<vel value="0.00540617624613334" flag="0"/>
			<psa03 value="0.0215888233827552" flag="0"/>
			<psa10 value="0.00737952276339622" flag="0"/>
			<psa30 value="0.000374224764512379" flag="0"/>
		</comp>
		<comp name="00.HNZ" depth="0.0">
			<acc value="0.00489178010175128" flag="0"/>
			<vel value="0.00224428273921019" flag="0"/>
			<psa03 value="0.0124834050893159" flag="0"/>
			<psa10 value="0.00200348654927478" flag="0"/>
			<psa30 value="0.000199663031383301" flag="0"/>
		</comp>
	</station>
	<station code="ZKR" name="ZKR" netid="HL" source="National Observatory of Athens Seismic Network" insttype="" lat="35.1147" lon="26.21691" esm:processing="manual (Paolucci et al 2011)" esm:quality="best">
		<comp name="00.HNE" depth="0.0">
			<acc value="0.168450176043024" flag="0"/>
			<vel value="0.0665284105309687" flag="0"/>
			<psa03 value="0.378295356957488" flag="0"/>
			<psa10 value="0.0222561158381269" flag="0"/>
			<psa30 value="0.00128902297267241" flag="0"/>
		</comp>
		<comp name="00.HNN" depth="0.0">
			<acc value="0.154473834425603" flag="0"/>
			<vel value="0.0495593036110594" flag="0"/>
			<psa03 value="0.230601332910573" flag="0"/>
			<psa10 value="0.0138481603704213" flag="0"/>
			<psa30 value="0.00120669731249479" flag="0"/>
		</comp>
		<comp name="00.HNZ" depth="0.0">
			<acc value="0.0666628696081041" flag="0"/>
			<vel value="0.022906698496504" flag="0"/>
			<psa03 value="0.125143951911306" flag="0"/>
			<psa10 value="0.00697844196625185" flag="0"/>
			<psa30 value="0.00072124437068654" flag="0"/>
		</comp>
	</station>
	<station code="RDI1" name="RDI1" netid="HI" source="ITSAK Strong Motion Network" insttype="" lat="36.4514" lon="28.224" esm:processing="discarded" esm:quality="bad">
		<comp name="--.HNE" depth="0.0">
			<acc value="0" flag="1"/>
			<vel value="0" flag="1"/>
			<psa03 value="0" flag="1"/>
			<psa10 value="0" flag="1"/>
			<psa30 value="0" flag="1"/>
		</comp>
		<comp name="--.HNN" depth="0.0">
			<acc value="0" flag="1"/>
			<vel value="0" flag="1"/>
			<psa03 value="0" flag="1"/>
			<psa10 value="0" flag="1"/>
			<psa30 value="0" flag="1"/>
		</comp>
		<comp name="--.HNZ" depth="0.0">
			<acc value="0" flag="1"/>
			<vel value="0" flag="1"/>
			<psa03 value="0" flag="1"/>
			<psa10 value="0" flag="1"/>
			<psa30 value="0" flag="1"/>
		</comp>
	</station>
	<station code="AGNA" name="AGNA" netid="HL" source="National Observatory of Athens Seismic Network" insttype="" lat="35.1895" lon="25.71853" esm:processing="automatic (Paolucci et al 2011)" esm:quality="bad">
		<comp name="00.HNE" depth="0.0">
			<acc value="0" flag="1"/>
			<vel value="0" flag="1"/>
			<psa03 value="0" flag="1"/>
			<psa10 value="0" flag="1"/>
			<psa30 value="0" flag="1"/>
		</comp>
		<comp name="00.HNN" depth="0.0">
			<acc value="0" flag="1"/>
			<vel value="0" flag="1"/>
			<psa03 value="0" flag="1"/>
			<psa10 value="0" flag="1"/>
			<psa30 value="0" flag="1"/>
		</comp>
		<comp name="00.HNZ" depth="0.0">
			<acc value="0" flag="1"/>
			<vel value="0" flag="1"/>
			<psa03 value="0" flag="1"/>
			<psa10 value="0" flag="1"/>
			<psa30 value="0" flag="1"/>
		</comp>
	</station>
	<station code="ASTA" name="ASTA" netid="HL" source="National Observatory of Athens Seismic Network" insttype="" lat="36.54552" lon="26.35295" esm:processing="automatic (Paolucci et al 2011)" esm:quality="bad">
		<comp name="00.HNE" depth="0.0">
			<acc value="0" flag="1"/>
			<vel value="0" flag="1"/>
			<psa03 value="0" flag="1"/>
			<psa10 value="0" flag="1"/>
			<psa30 value="0" flag="1"/>
		</comp>
		<comp name="00.HNN" depth="0.0">
			<acc value="0" flag="1"/>
			<vel value="0" flag="1"/>
			<psa03 value="0" flag="1"/>
			<psa10 value="0" flag="1"/>
			<psa30 value="0" flag="1"/>
		</comp>
		<comp name="00.HNZ" depth="0.0">
			<acc value="0" flag="1"/>
			<vel value="0" flag="1"/>
			<psa03 value="0" flag="1"/>
			<psa10 value="0" flag="1"/>
			<psa30 value="0" flag="1"/>
		</comp>
	</station>
	<station code="HERG" name="HERG" netid="HL" source="National Observatory of Athens Seismic Network" insttype="" lat="35.32622" lon="25.06586" esm:processing="automatic (Paolucci et al 2011)" esm:quality="bad">
		<comp name="00.HNE" depth="0.0">
			<acc value="0" flag="1"/>
			<vel value="0" flag="1"/>
			<psa03 value="0" flag="1"/>
			<psa10 value="0" flag="1"/>
			<psa30 value="0" flag="1"/>
		</comp>
		<comp name="00.HNN" depth="0.0">
			<acc value="0" flag="1"/>
			<vel value="0" flag="1"/>
			<psa03 value="0" flag="1"/>
			<psa10 value="0" flag="1"/>
			<psa30 value="0" flag="1"/>
		</comp>
		<comp name="00.HNZ" depth="0.0">
			<acc value="0" flag="1"/>
			<vel value="0" flag="1"/>
			<psa03 value="0" flag="1"/>
			<psa10 value="0" flag="1"/>
			<psa30 value="0" flag="1"/>
		</comp>
	</station>
	<station code="IACM" name="IACM" netid="HL" source="National Observatory of Athens Seismic Network" insttype="" lat="35.3058" lon="25.0709" esm:processing="automatic (Paolucci et al 2011)" esm:quality="bad">
		<comp name="--.HNE" depth="0.0">
			<acc value="0" flag="1"/>
			<vel value="0" flag="1"/>
			<psa03 value="0" flag="1"/>
			<psa10 value="0" flag="1"/>
			<psa30 value="0" flag="1"/>
		</comp>
		<comp name="--.HNN" depth="0.0">
			<acc value="0" flag="1"/>
			<vel value="0" flag="1"/>
			<psa03 value="0" flag="1"/>
			<psa10 value="0" flag="1"/>
			<psa30 value="0" flag="1"/>
		</comp>
		<comp name="--.HNZ" depth="0.0">
			<acc value="0" flag="1"/>
			<vel value="0" flag="1"/>
			<psa03 value="0" flag="1"/>
			<psa10 value="0" flag="1"/>
			<psa30 value="0" flag="1"/>
		</comp>
	</station>
	<station code="KLNA" name="KLNA" netid="HL" source="National Observatory of Athens Seismic Network" insttype="" lat="36.95708" lon="26.97274" esm:processing="discarded" esm:quality="bad">
		<comp name="00.HNE" depth="0.0">
			<acc value="0" flag="1"/>
			<vel value="0" flag="1"/>
			<psa03 value="0" flag="1"/>
			<psa10 value="0" flag="1"/>
			<psa30 value="0" flag="1"/>
		</comp>
		<comp name="00.HNN" depth="0.0">
			<acc value="0" flag="1"/>
			<vel value="0" flag="1"/>
			<psa03 value="0" flag="1"/>
			<psa10 value="0" flag="1"/>
			<psa30 value="0" flag="1"/>
		</comp>
		<comp name="00.HNZ" depth="0.0">
			<acc value="0" flag="1"/>
			<vel value="0" flag="1"/>
			<psa03 value="0" flag="1"/>
			<psa10 value="0" flag="1"/>
			<psa30 value="0" flag="1"/>
		</comp>
	</station>
	<station code="RODB" name="RODB" netid="HL" source="National Observatory of Athens Seismic Network" insttype="" lat="36.4471" lon="28.22116" esm:processing="automatic (Paolucci et al 2011)" esm:quality="bad">
		<comp name="00.HNE" depth="0.0">
			<acc value="0" flag="1"/>
			<vel value="0" flag="1"/>
			<psa03 value="0" flag="1"/>
			<psa10 value="0" flag="1"/>
			<psa30 value="0" flag="1"/>
		</comp>
		<comp name="00.HNN" depth="0.0">
			<acc value="0" flag="1"/>
			<vel value="0" flag="1"/>
			<psa03 value="0" flag="1"/>
			<psa10 value="0" flag="1"/>
			<psa30 value="0" flag="1"/>
		</comp>
		<comp name="00.HNZ" depth="0.0">
			<acc value="0" flag="1"/>
			<vel value="0" flag="1"/>
			<psa03 value="0" flag="1"/>
			<psa10 value="0" flag="1"/>
			<psa30 value="0" flag="1"/>
		</comp>
	</station>
</stationlist>
