<?xml version="1.0" encoding="UTF-8" standalone="yes"?>
<!DOCTYPE earthquake SYSTEM "stationlist.dtd">
<stationlist created="" xmlns="ch.ethz.sed.shakemap.usgs.xml">
  <station code="ORTH" name="ORTH" netid="HL" insttype="30" lat="37.8511" lon="20.6963">
    <comp name="--.HHE">
      <acc value="0.0458923601" flag="0"/>
      <vel value="0.0198554438" flag="0"/>
      <psa03 value="0.1654831788" flag="0"/>
      <psa10 value="0.0097457972" flag="0"/>
      <psa30 value="0.0008083152" flag="0"/>
    </comp>
    <comp name="--.HHN">
      <acc value="0.0447188503" flag="0"/>
      <vel value="0.0210409035" flag="0"/>
      <psa03 value="0.0974794232" flag="0"/>
      <psa10 value="0.0176251518" flag="0"/>
      <psa30 value="0.0010441860" flag="0"/>
    </comp>
    <comp name="--.HHZ">
      <acc value="0.0267382929" flag="0"/>
      <vel value="0.0095771904" flag="0"/>
      <psa03 value="0.0807884935" flag="0"/>
      <psa10 value="0.0090331236" flag="0"/>
      <psa30 value="0.0004233805" flag="0"/>
    </comp>
  </station>
  <station code="VLS" name="VLS" netid="HL" insttype="120P," lat="38.1768" lon="20.5886">
    <comp name="--.HHE">
      <acc value="0.0193592833" flag="0"/>
      <vel value="0.0048412743" flag="0"/>
      <psa03 value="0.0224118003" flag="0"/>
      <psa10 value="0.0051932310" flag="0"/>
      <psa30 value="0.0007605672" flag="0"/>
    </comp>
    <comp name="--.HHN">
      <acc value="0.0154098537" flag="0"/>
      <vel value="0.0069982583" flag="0"/>
      <psa03 value="0.0389725665" flag="0"/>
      <psa10 value="0.0056653503" flag="0"/>
      <psa30 value="0.0006406147" flag="0"/>
    </comp>
    <comp name="--.HHZ">
      <acc value="0.0112484773" flag="0"/>
      <vel value="0.0043810271" flag="0"/>
      <psa03 value="0.0218070788" flag="0"/>
      <psa10 value="0.0050044884" flag="0"/>
      <psa30 value="0.0009457997" flag="0"/>
    </comp>
  </station>
  <station code="AMT" name="AMT" netid="HP" insttype="CMG-3T," lat="37.5324" lon="21.7089">
    <comp name="00.HHE">
      <acc value="0.0001853391" flag="0"/>
      <vel value="0.0000182096" flag="0"/>
      <psa03 value="0.0000548307" flag="0"/>
      <psa10 value="0.0000195018" flag="0"/>
      <psa30 value="0.0000030987" flag="0"/>
    </comp>
    <comp name="00.HHN">
      <acc value="0.0332223068" flag="0"/>
      <vel value="0.0143314891" flag="0"/>
      <psa03 value="0.0668453383" flag="0"/>
      <psa10 value="0.0232994719" flag="0"/>
      <psa30 value="0.0011866816" flag="0"/>
    </comp>
    <comp name="00.HHZ">
      <acc value="0.0195274402" flag="0"/>
      <vel value="0.0099865180" flag="0"/>
      <psa03 value="0.0473304747" flag="0"/>
      <psa10 value="0.0106054429" flag="0"/>
      <psa30 value="0.0008292044" flag="0"/>
    </comp>
  </station>
  <station code="LTHK" name="LTHK" netid="HP" insttype="40," lat="37.7095" lon="20.8367">
    <comp name="--.HHE">
      <acc value="0.1241537270" flag="0"/>
      <vel value="0.0307194225" flag="0"/>
      <psa03 value="0.1677538882" flag="0"/>
      <psa10 value="0.0396198402" flag="0"/>
      <psa30 value="0.0025792966" flag="0"/>
    </comp>
    <comp name="--.HHN">
      <acc value="0.1233180441" flag="0"/>
      <vel value="0.0410334863" flag="0"/>
      <psa03 value="0.2666995930" flag="0"/>
      <psa10 value="0.0410101756" flag="0"/>
      <psa30 value="0.0057926436" flag="0"/>
    </comp>
    <comp name="--.HHZ">
      <acc value="0.0831981014" flag="0"/>
      <vel value="0.0207495917" flag="0"/>
      <psa03 value="0.1361340583" flag="0"/>
      <psa10 value="0.0162309756" flag="0"/>
      <psa30 value="0.0043463656" flag="0"/>
    </comp>
  </station>
  <station code="PYL" name="PYL" netid="HP" insttype="120s" lat="36.8955" lon="21.742">
    <comp name="--.HHE">
      <acc value="0.0264764936" flag="0"/>
      <vel value="0.0071451167" flag="0"/>
      <psa03 value="0.0300925490" flag="0"/>
      <psa10 value="0.0062439220" flag="0"/>
      <psa30 value="0.0005538516" flag="0"/>
    </comp>
    <comp name="--.HHN">
      <acc value="0.0136342915" flag="0"/>
      <vel value="0.0065296973" flag="0"/>
      <psa03 value="0.0221421127" flag="0"/>
      <psa10 value="0.0093023401" flag="0"/>
      <psa30 value="0.0005007510" flag="0"/>
    </comp>
    <comp name="--.HHZ">
      <acc value="0.0086077153" flag="0"/>
      <vel value="0.0029323034" flag="0"/>
      <psa03 value="0.0128562054" flag="0"/>
      <psa10 value="0.0020321765" flag="0"/>
      <psa30 value="0.0003126056" flag="0"/>
    </comp>
  </station>
  <station code="DMLN" name="DMLN" netid="HT" insttype="1s-100Hz," lat="38.2385" lon="20.3734">
    <comp name="--.HHE">
      <acc value="0.0270376709" flag="0"/>
      <vel value="0.0188803740" flag="0"/>
      <psa03 value="0.0632185128" flag="0"/>
      <psa10 value="0.0281367832" flag="0"/>
      <psa30 value="0.0015310540" flag="0"/>
    </comp>
    <comp name="--.HHN">
      <acc value="0.0227505833" flag="0"/>
      <vel value="0.0105534026" flag="0"/>
      <psa03 value="0.0501911231" flag="0"/>
      <psa10 value="0.0156214290" flag="0"/>
      <psa30 value="0.0019170937" flag="0"/>
    </comp>
    <comp name="--.HHZ">
      <acc value="0.0112658895" flag="0"/>
      <vel value="0.0055796761" flag="0"/>
      <psa03 value="0.0287349069" flag="0"/>
      <psa10 value="0.0058498849" flag="0"/>
      <psa30 value="0.0007238315" flag="0"/>
    </comp>
  </station>
  <station code="RTZL" name="RTZL" netid="HT" insttype="Compact," lat="38.076" lon="20.7715">
    <comp name="--.HHE">
      <acc value="0.0179114535" flag="0"/>
      <vel value="0.0072110455" flag="0"/>
      <psa03 value="0.0367618199" flag="0"/>
      <psa10 value="0.0071206047" flag="0"/>
      <psa30 value="0.0009370259" flag="0"/>
    </comp>
    <comp name="--.HHZ">
      <acc value="0.0116721330" flag="0"/>
      <vel value="0.0050474128" flag="0"/>
      <psa03 value="0.0220842438" flag="0"/>
      <psa10 value="0.0049398673" flag="0"/>
      <psa30 value="0.0007285739" flag="0"/>
    </comp>
    <comp name="--.HHN">
      <acc value="0.0183673895" flag="0"/>
      <vel value="0.0091669532" flag="0"/>
      <psa03 value="0.0425814544" flag="0"/>
      <psa10 value="0.0105587654" flag="0"/>
      <psa30 value="0.0009572634" flag="0"/>
    </comp>
  </station>
</stationlist>
