<stationlist created="1778069572">
	<station code="ROD3" name="ROD3" netid="CL" source="Corinth Riff Laboratory (CRLNET)" insttype="" lat="38.30811" lon="21.89204">
		<comp name="00.HNE" depth="0.0">
			<acc value="0.0149718215310371" flag="0"/>
			<vel value="0.00740037868125383" flag="0"/>
			<psa03 value="0.0459949884035834" flag="0"/>
			<psa10 value="0.00575429519317593" flag="0"/>
			<psa30 value="0.00166530493033207" flag="0"/>
		</comp>
		<comp name="00.HNN" depth="0.0">
			<acc value="0.0143115563416663" flag="0"/>
			<vel value="0.00749933788183869" flag="0"/>
			<psa03 value="0.0616100185133602" flag="0"/>
			<psa10 value="0.00721602308339487" flag="0"/>
			<psa30 value="0.00109528921801529" flag="0"/>
		</comp>
		<comp name="00.HNZ" depth="0.0">
			<acc value="0.00715874802813181" flag="0"/>
			<vel value="0.00301436390371917" flag="0"/>
			<psa03 value="0.0115882315141324" flag="0"/>
			<psa10 value="0.00444961244818713" flag="0"/>
			<psa30 value="0.000890369911703608" flag="0"/>
		</comp>
	</station>
	<station code="ARG2" name="ARG2" netid="HI" source="ITSAK Strong Motion Network" insttype="" lat="38.1783" lon="20.4878">
		<comp name="--.HNE" depth="0.0">
			<acc value="0.0233357717918351" flag="0"/>
			<vel value="0.0109678272929375" flag="0"/>
			<psa03 value="0.0493506538999538" flag="0"/>
			<psa10 value="0.0110777229366179" flag="0"/>
			<psa30 value="0.00260310158105105" flag="0"/>
		</comp>
		<comp name="--.HNN" depth="0.0">
			<acc value="0.0184681610390676" flag="0"/>
			<vel value="0.0105782511350456" flag="0"/>
			<psa03 value="0.0424156118741216" flag="0"/>
			<psa10 value="0.0144441265625767" flag="0"/>
			<psa30 value="0.00199326530484401" flag="0"/>
		</comp>
		<comp name="--.HNZ" depth="0.0">
			<acc value="0.0134803034156733" flag="0"/>
			<vel value="0.00555307649161462" flag="0"/>
			<psa03 value="0.0354358276416712" flag="0"/>
			<psa10 value="0.00843614305787514" flag="0"/>
			<psa30 value="0.0017708965379512" flag="0"/>
		</comp>
	</station>
	<station code="MSL1" name="MSL1" netid="HI" source="ITSAK Strong Motion Network" insttype="" lat="38.3727" lon="21.4243">
		<comp name="--.HNE" depth="0.0">
			<acc value="0.0166718770552887" flag="0"/>
			<vel value="0.012268410723317" flag="0"/>
			<psa03 value="0.043623651452815" flag="0"/>
			<psa10 value="0.0304748117718373" flag="0"/>
			<psa30 value="0.00169438736463395" flag="0"/>
		</comp>
		<comp name="--.HNN" depth="0.0">
			<acc value="0.0139497043357469" flag="0"/>
			<vel value="0.0118474061512648" flag="0"/>
			<psa03 value="0.0562409537191676" flag="0"/>
			<psa10 value="0.0272171317079609" flag="0"/>
			<psa30 value="0.0021462836514785" flag="0"/>
		</comp>
		<comp name="--.HNZ" depth="0.0">
			<acc value="0.0121919299117378" flag="0"/>
			<vel value="0.00540955760736988" flag="0"/>
			<psa03 value="0.0166888430686154" flag="0"/>
			<psa10 value="0.0103810867795714" flag="0"/>
			<psa30 value="0.000732429922341108" flag="0"/>
		</comp>
	</station>
	<station code="PYL1" name="PYL1" netid="HI" source="ITSAK Strong Motion Network" insttype="" lat="36.914188" lon="21.695161">
		<comp name="--.HNE" depth="0.0">
			<acc value="0.0132772330133798" flag="0"/>
			<vel value="0.00677419298256293" flag="0"/>
			<psa03 value="0.0243845026069581" flag="0"/>
			<psa10 value="0.00697844196625185" flag="0"/>
			<psa30 value="0.000869788496659203" flag="0"/>
		</comp>
		<comp name="--.HNN" depth="0.0">
			<acc value="0.0139915030762849" flag="0"/>
			<vel value="0.00444624134636275" flag="0"/>
			<psa03 value="0.0294403719548228" flag="0"/>
			<psa10 value="0.00526302576450731" flag="0"/>
			<psa30 value="0.000678739274399182" flag="0"/>
		</comp>
		<comp name="--.HNZ" depth="0.0">
			<acc value="0.00881332407785089" flag="0"/>
			<vel value="0.00299847218874846" flag="0"/>
			<psa03 value="0.0110960672413314" flag="0"/>
			<psa10 value="0.00309258132145494" flag="0"/>
			<psa30 value="0.000753458759451696" flag="0"/>
		</comp>
	</station>
	<station code="ITM" name="ITM" netid="HL" source="National Observatory of Athens Seismic Network" insttype="" lat="37.17872" lon="21.92522">
		<comp name="--.HNE" depth="0.0">
			<acc value="0.0124327594772389" flag="0"/>
			<vel value="0.00532530622242056" flag="0"/>
			<psa03 value="0.0272032616239092" flag="0"/>
			<psa10 value="0.00565362522828482" flag="0"/>
			<psa30 value="0.000828625666570393" flag="0"/>
		</comp>
		<comp name="--.HNN" depth="0.0">
			<acc value="0.0150962025584924" flag="0"/>
			<vel value="0.00508671868503627" flag="0"/>
			<psa03 value="0.0210288371105877" flag="0"/>
			<psa10 value="0.00346304679225423" flag="0"/>
			<psa30 value="0.000838468952026413" flag="0"/>
		</comp>
		<comp name="--.HNZ" depth="0.0">
			<acc value="0.00647077990579793" flag="0"/>
			<vel value="0.00403271154234741" flag="0"/>
			<psa03 value="0.0192391488458569" flag="0"/>
			<psa10 value="0.0057059736100282" flag="0"/>
			<psa30 value="0.000444290111719438" flag="0"/>
		</comp>
	</station>
	<station code="ANX" name="ANX" netid="HP" source="University of Patras, Seismological Laboratory (PSLNET)" insttype="" lat="38.5933" lon="21.9209">
		<comp name="--.HNE" depth="0.0">
			<acc value="0.00494448289658698" flag="0"/>
			<vel value="0.00447811888276762" flag="0"/>
			<psa03 value="0.0145081329675916" flag="0"/>
			<psa10 value="0.00552612420361852" flag="0"/>
			<psa30 value="0.000710720935941274" flag="0"/>
		</comp>
		<comp name="--.HNN" depth="0.0">
			<acc value="0.0057753273227074" flag="0"/>
			<vel value="0.00630056480855962" flag="0"/>
			<psa03 value="0.014512000411315" flag="0"/>
			<psa10 value="0.0079407272842222" flag="0"/>
			<psa30 value="0.000922850717665144" flag="0"/>
		</comp>
		<comp name="--.HNZ" depth="0.0">
			<acc value="0.00259238057653336" flag="0"/>
			<vel value="0.0024419006101371" flag="0"/>
			<psa03 value="0.00962333020674829" flag="0"/>
			<psa10 value="0.00343859388371979" flag="0"/>
			<psa30 value="0.00083648921538679" flag="0"/>
		</comp>
	</station>
	<station code="LTHK" name="LTHK" netid="HP" source="University of Patras, Seismological Laboratory (PSLNET)" insttype="" lat="37.7095" lon="20.8367">
		<comp name="--.HNE" depth="0.0">
			<acc value="0.120425884122597" flag="0"/>
			<vel value="0.0305766615852699" flag="0"/>
			<psa03 value="0.164696062561858" flag="0"/>
			<psa10 value="0.0390720267735382" flag="0"/>
			<psa30 value="0.0043310456006487" flag="0"/>
		</comp>
		<comp name="--.HNN" depth="0.0">
			<acc value="0.116652447002914" flag="0"/>
			<vel value="0.0409976311609582" flag="0"/>
			<psa03 value="0.265500254072825" flag="0"/>
			<psa10 value="0.0409324077247259" flag="0"/>
			<psa30 value="0.00707508513254731" flag="0"/>
		</comp>
		<comp name="--.HNZ" depth="0.0">
			<acc value="0.0819786561141609" flag="0"/>
			<vel value="0.0211685279030978" flag="0"/>
			<psa03 value="0.137671769764422" flag="0"/>
			<psa10 value="0.0167474553592853" flag="0"/>
			<psa30 value="0.00456057312060044" flag="0"/>
		</comp>
	</station>
	<station code="PYL" name="PYL" netid="HP" source="University of Patras, Seismological Laboratory (PSLNET)" insttype="" lat="36.8955" lon="21.742">
		<comp name="--.HNE" depth="0.0">
			<acc value="0.0281530178805106" flag="0"/>
			<vel value="0.00714942517788041" flag="0"/>
			<psa03 value="0.0313195446327902" flag="0"/>
			<psa10 value="0.00593550112997993" flag="0"/>
			<psa30 value="0.000658157859354777" flag="0"/>
		</comp>
		<comp name="--.HNN" depth="0.0">
			<acc value="0.0160348051607064" flag="0"/>
			<vel value="0.00674004331214649" flag="0"/>
			<psa03 value="0.0260399642518342" flag="0"/>
			<psa10 value="0.00941465511661674" flag="0"/>
			<psa30 value="0.000589702283228822" flag="0"/>
		</comp>
		<comp name="--.HNZ" depth="0.0">
			<acc value="0.0104221042238096" flag="0"/>
			<vel value="0.00315576828695489" flag="0"/>
			<psa03 value="0.0144069905310835" flag="0"/>
			<psa10 value="0.00200534570063094" flag="0"/>
			<psa30 value="0.00054003843388254" flag="0"/>
		</comp>
	</station>
	<station code="SERG" name="SERG" netid="HP" source="University of Patras, Seismological Laboratory (PSLNET)" insttype="" lat="38.4133" lon="22.0566">
		<comp name="--.HNE" depth="0.0">
			<acc value="0.00556130333609211" flag="0"/>
			<vel value="0.00243073429282025" flag="0"/>
			<psa03 value="0.0175389449943625" flag="0"/>
			<psa10 value="0.00392612863075335" flag="0"/>
			<psa30 value="0.000415655099483745" flag="0"/>
		</comp>
		<comp name="--.HNN" depth="0.0">
			<acc value="0.00434165739798791" flag="0"/>
			<vel value="0.0031494362924111" flag="0"/>
			<psa03 value="0.0123935912332613" flag="0"/>
			<psa10 value="0.00430867449733957" flag="0"/>
			<psa30 value="0.000681423806796279" flag="0"/>
		</comp>
		<comp name="--.HNZ" depth="0.0">
			<acc value="0.00303067126021787" flag="0"/>
			<vel value="0.00156787383575475" flag="0"/>
			<psa03 value="0.00563751803390224" flag="0"/>
			<psa10 value="0.0022912484009217" flag="0"/>
			<psa30 value="0.000645182619435479" flag="0"/>
		</comp>
	</station>
	<station code="VALY" name="VALY" netid="HP" source="University of Patras, Seismological Laboratory (PSLNET)" insttype="" lat="37.1641" lon="21.9836">
		<comp name="--.HNE" depth="0.0">
			<acc value="0.0145391787067941" flag="0"/>
			<vel value="0.00701774070407496" flag="0"/>
			<psa03 value="0.0277447389944494" flag="0"/>
			<psa10 value="0.00522666499089253" flag="0"/>
			<psa30 value="0.000521267239731008" flag="0"/>
		</comp>
		<comp name="--.HNN" depth="0.0">
			<acc value="0.0141630295199494" flag="0"/>
			<vel value="0.00412373522891575" flag="0"/>
			<psa03 value="0.0172643936813729" flag="0"/>
			<psa10 value="0.00509162088865484" flag="0"/>
			<psa30 value="0.000365204922200475" flag="0"/>
		</comp>
		<comp name="--.HNZ" depth="0.0">
			<acc value="0.00579883323297673" flag="0"/>
			<vel value="0.00348680277471811" flag="0"/>
			<psa03 value="0.013481637884029" flag="0"/>
			<psa10 value="0.00479056922672011" flag="0"/>
			<psa30 value="0.000423527483700728" flag="0"/>
		</comp>
	</station>
</stationlist>
