<?xml version="1.0" encoding="UTF-8" standalone="yes"?>
<!DOCTYPE earthquake SYSTEM "stationlist.dtd">
<stationlist created="" xmlns="ch.ethz.sed.shakemap.usgs.xml">
  <station code="ARMT" name="ARMT" netid="KO" insttype="CMG-3ESP" lat="40.5683" lon="28.866">
    <comp name="--.HHN">
      <acc value="0.0721884093" flag="0"/>
      <vel value="0.0272459292" flag="0"/>
      <psa03 value="0.1631180132" flag="0"/>
      <psa10 value="0.0080589484" flag="0"/>
      <psa30 value="0.0010139287" flag="0"/>
    </comp>
    <comp name="--.HHZ">
      <acc value="0.0426473326" flag="0"/>
      <vel value="0.0098214008" flag="0"/>
      <psa03 value="0.0508934607" flag="0"/>
      <psa10 value="0.0034335973" flag="0"/>
      <psa30 value="0.0004142172" flag="0"/>
    </comp>
    <comp name="--.HHE">
      <acc value="0.0799383029" flag="0"/>
      <vel value="0.0226558306" flag="0"/>
      <psa03 value="0.1898276922" flag="0"/>
      <psa10 value="0.0064484446" flag="0"/>
      <psa30 value="0.0005717088" flag="0"/>
    </comp>
  </station>
  <station code="AVCI" name="AVCI" netid="KO" insttype="CMG-5T" lat="40.9958" lon="28.7225">
    <comp name="--.HNE">
      <acc value="0.0589832481" flag="0"/>
      <vel value="0.0232235552" flag="0"/>
      <psa03 value="0.1201671747" flag="0"/>
      <psa10 value="0.0077242890" flag="0"/>
      <psa30 value="0.0007588038" flag="0"/>
    </comp>
    <comp name="--.HNN">
      <acc value="0.0400466439" flag="0"/>
      <vel value="0.0115824938" flag="0"/>
      <psa03 value="0.0977249866" flag="0"/>
      <psa10 value="0.0080973472" flag="0"/>
      <psa30 value="0.0006934439" flag="0"/>
    </comp>
    <comp name="--.HNZ">
      <acc value="0.0324751881" flag="0"/>
      <vel value="0.0108982465" flag="0"/>
      <psa03 value="0.0601246754" flag="0"/>
      <psa10 value="0.0029434713" flag="0"/>
      <psa30 value="0.0003087041" flag="0"/>
    </comp>
  </station>
  <station code="BALB" name="BALB" netid="KO" insttype="CMG-5T" lat="39.6507" lon="27.8642">
    <comp name="--.HNN">
      <acc value="0.0277288181" flag="0"/>
      <vel value="0.0094108517" flag="0"/>
      <psa03 value="0.0661632159" flag="0"/>
      <psa10 value="0.0048471396" flag="0"/>
      <psa30 value="0.0003865217" flag="0"/>
    </comp>
    <comp name="--.HNE">
      <acc value="0.0323934841" flag="0"/>
      <vel value="0.0110994449" flag="0"/>
      <psa03 value="0.0759255493" flag="0"/>
      <psa10 value="0.0038736401" flag="0"/>
      <psa30 value="0.0004223397" flag="0"/>
    </comp>
    <comp name="--.HNZ">
      <acc value="0.0170793916" flag="0"/>
      <vel value="0.0057868881" flag="0"/>
      <psa03 value="0.0281298675" flag="0"/>
      <psa10 value="0.0045109889" flag="0"/>
      <psa30 value="0.0002855037" flag="0"/>
    </comp>
  </station>
  <station code="BIGA" name="BIGA" netid="KO" insttype="CMG-5T" lat="40.2813" lon="27.1505">
    <comp name="--.HNZ">
      <acc value="0.1161155383" flag="0"/>
      <vel value="0.0243297066" flag="0"/>
      <psa03 value="0.1178888262" flag="0"/>
      <psa10 value="0.0080932307" flag="0"/>
      <psa30 value="0.0012859375" flag="0"/>
    </comp>
    <comp name="--.HNE">
      <acc value="0.1918672120" flag="0"/>
      <vel value="0.0664481628" flag="0"/>
      <psa03 value="0.5353231917" flag="0"/>
      <psa10 value="0.0199688490" flag="0"/>
      <psa30 value="0.0020722737" flag="0"/>
    </comp>
    <comp name="--.HNN">
      <acc value="0.1748946807" flag="0"/>
      <vel value="0.0580681173" flag="0"/>
      <psa03 value="0.4030158309" flag="0"/>
      <psa10 value="0.0288154957" flag="0"/>
      <psa30 value="0.0023654322" flag="0"/>
    </comp>
  </station>
  <station code="BOTS" name="BOTS" netid="KO" insttype="CMG-5T" lat="40.9902" lon="27.981">
    <comp name="--.HNE">
      <acc value="0.0473908536" flag="0"/>
      <vel value="0.0097278218" flag="0"/>
      <psa03 value="0.0612089935" flag="0"/>
      <psa10 value="0.0037585223" flag="0"/>
      <psa30 value="0.0006060194" flag="0"/>
    </comp>
    <comp name="--.HNZ">
      <acc value="0.0303950729" flag="0"/>
      <vel value="0.0068796774" flag="0"/>
      <psa03 value="0.0499568771" flag="0"/>
      <psa10 value="0.0034561774" flag="0"/>
      <psa30 value="0.0003597623" flag="0"/>
    </comp>
    <comp name="--.HNN">
      <acc value="0.0336888145" flag="0"/>
      <vel value="0.0090555865" flag="0"/>
      <psa03 value="0.0468788072" flag="0"/>
      <psa10 value="0.0029239492" flag="0"/>
      <psa30 value="0.0003155123" flag="0"/>
    </comp>
  </station>
  <station code="BUYK" name="BUYK" netid="KO" insttype="ACEBOX" lat="41.0168" lon="28.5828">
    <comp name="--.HNE">
      <acc value="0.0589077830" flag="0"/>
      <vel value="0.0191705607" flag="0"/>
      <psa03 value="0.0827916621" flag="0"/>
      <psa10 value="0.0075514954" flag="0"/>
      <psa30 value="0.0005614937" flag="0"/>
    </comp>
    <comp name="--.HNN">
      <acc value="0.0651826615" flag="0"/>
      <vel value="0.0170202324" flag="0"/>
      <psa03 value="0.1066165211" flag="0"/>
      <psa10 value="0.0087455990" flag="0"/>
      <psa30 value="0.0006557276" flag="0"/>
    </comp>
    <comp name="--.HNZ">
      <acc value="0.0386439693" flag="0"/>
      <vel value="0.0106436507" flag="0"/>
      <psa03 value="0.0318314437" flag="0"/>
      <psa10 value="0.0040401697" flag="0"/>
      <psa30 value="0.0002832454" flag="0"/>
    </comp>
  </station>
  <station code="CANM" name="CANM" netid="KO" insttype="CMG-5T" lat="40.0113" lon="27.0529">
    <comp name="--.HNE">
      <acc value="0.1325242169" flag="0"/>
      <vel value="0.0359311132" flag="0"/>
      <psa03 value="0.1680509508" flag="0"/>
      <psa10 value="0.0091754419" flag="0"/>
      <psa30 value="0.0008757627" flag="0"/>
    </comp>
    <comp name="--.HNN">
      <acc value="0.1719178117" flag="0"/>
      <vel value="0.0472276679" flag="0"/>
      <psa03 value="0.2619190934" flag="0"/>
      <psa10 value="0.0135903599" flag="0"/>
      <psa30 value="0.0009482564" flag="0"/>
    </comp>
    <comp name="--.HNZ">
      <acc value="0.0764089370" flag="0"/>
      <vel value="0.0247571625" flag="0"/>
      <psa03 value="0.1052875189" flag="0"/>
      <psa10 value="0.0084386685" flag="0"/>
      <psa30 value="0.0005431544" flag="0"/>
    </comp>
  </station>
  <station code="CRLU" name="CRLU" netid="KO" insttype="ACEBOX" lat="41.1428" lon="27.8215">
    <comp name="--.HNE">
      <acc value="1.3784684056" flag="0"/>
      <vel value="0.4392284747" flag="0"/>
      <psa03 value="1.9365846311" flag="0"/>
      <psa10 value="0.2642728868" flag="0"/>
      <psa30 value="0.0207324311" flag="0"/>
    </comp>
    <comp name="--.HNN">
      <acc value="0.9186697400" flag="0"/>
      <vel value="0.4107548602" flag="0"/>
      <psa03 value="3.0267891432" flag="0"/>
      <psa10 value="0.1792670438" flag="0"/>
      <psa30 value="0.0158329616" flag="0"/>
    </comp>
    <comp name="--.HNZ">
      <acc value="0.5114803241" flag="0"/>
      <vel value="0.1896997399" flag="0"/>
      <psa03 value="1.0345155297" flag="0"/>
      <psa10 value="0.0699525492" flag="0"/>
      <psa30 value="0.0045605854" flag="0"/>
    </comp>
  </station>
  <station code="CTKS" name="CTKS" netid="KO" insttype="CMG-3ESP" lat="41.2373" lon="28.5072">
    <comp name="--.HHZ">
      <acc value="0.0000162938" flag="0"/>
      <vel value="0.0000020906" flag="0"/>
      <psa03 value="0.0000084260" flag="0"/>
      <psa10 value="0.0000024807" flag="0"/>
      <psa30 value="0.0000005104" flag="0"/>
    </comp>
    <comp name="--.HHE">
      <acc value="0.0354215878" flag="0"/>
      <vel value="0.0083639667" flag="0"/>
      <psa03 value="0.0439415351" flag="0"/>
      <psa10 value="0.0021755433" flag="0"/>
      <psa30 value="0.0001601741" flag="0"/>
    </comp>
    <comp name="--.HHN">
      <acc value="0.0468186665" flag="0"/>
      <vel value="0.0067659475" flag="0"/>
      <psa03 value="0.0441795393" flag="0"/>
      <psa10 value="0.0024271715" flag="0"/>
      <psa30 value="0.0001599989" flag="0"/>
    </comp>
  </station>
  <station code="DOGC" name="DOGC" netid="KO" insttype="CMG-5T" lat="41.3949" lon="26.9852">
    <comp name="--.HNE">
      <acc value="0.0489492588" flag="0"/>
      <vel value="0.0242197336" flag="0"/>
      <psa03 value="0.1874531989" flag="0"/>
      <psa10 value="0.0161945665" flag="0"/>
      <psa30 value="0.0010143793" flag="0"/>
    </comp>
    <comp name="--.HNN">
      <acc value="0.0554467475" flag="0"/>
      <vel value="0.0265847160" flag="0"/>
      <psa03 value="0.1784146434" flag="0"/>
      <psa10 value="0.0173431233" flag="0"/>
      <psa30 value="0.0013322937" flag="0"/>
    </comp>
    <comp name="--.HNZ">
      <acc value="0.0363876355" flag="0"/>
      <vel value="0.0121559262" flag="0"/>
      <psa03 value="0.0769209081" flag="0"/>
      <psa10 value="0.0053834246" flag="0"/>
      <psa30 value="0.0007297681" flag="0"/>
    </comp>
  </station>
  <station code="EDC" name="EDC" netid="KO" insttype="CMG-3T" lat="40.3465" lon="27.8618">
    <comp name="--.HHE">
      <acc value="0.4469197766" flag="0"/>
      <vel value="0.0791695747" flag="0"/>
      <psa03 value="0.2099513671" flag="0"/>
      <psa10 value="0.0191931378" flag="0"/>
      <psa30 value="0.0014124528" flag="0"/>
    </comp>
    <comp name="--.HHN">
      <acc value="0.5236126162" flag="0"/>
      <vel value="0.1820229375" flag="0"/>
      <psa03 value="0.8099276425" flag="0"/>
      <psa10 value="0.0336892493" flag="0"/>
      <psa30 value="0.0031822013" flag="0"/>
    </comp>
    <comp name="--.HHZ">
      <acc value="0.2744403351" flag="0"/>
      <vel value="0.0582162272" flag="0"/>
      <psa03 value="0.1407801793" flag="0"/>
      <psa10 value="0.0105819210" flag="0"/>
      <psa30 value="0.0007939465" flag="0"/>
    </comp>
  </station>
  <station code="ENEZ" name="ENEZ" netid="KO" insttype="CMG-3T" lat="40.7362" lon="26.153">
    <comp name="--.HHN">
      <acc value="0.0228615396" flag="0"/>
      <vel value="0.0100858916" flag="0"/>
      <psa03 value="0.0755699019" flag="0"/>
      <psa10 value="0.0057645242" flag="0"/>
      <psa30 value="0.0006078434" flag="0"/>
    </comp>
    <comp name="--.HHE">
      <acc value="0.0221882134" flag="0"/>
      <vel value="0.0097793866" flag="0"/>
      <psa03 value="0.0525485025" flag="0"/>
      <psa10 value="0.0074142174" flag="0"/>
      <psa30 value="0.0003758847" flag="0"/>
    </comp>
    <comp name="--.HHZ">
      <acc value="0.0125631238" flag="0"/>
      <vel value="0.0054438680" flag="0"/>
      <psa03 value="0.0358673531" flag="0"/>
      <psa10 value="0.0029594271" flag="0"/>
      <psa30 value="0.0001469687" flag="0"/>
    </comp>
  </station>
  <station code="ERIK" name="ERIK" netid="KO" insttype="CMG-3ESP" lat="40.6708" lon="26.5132">
    <comp name="--.HHE">
      <acc value="0.0190851839" flag="0"/>
      <vel value="0.0072871991" flag="0"/>
      <psa03 value="0.0391310136" flag="0"/>
      <psa10 value="0.0036324780" flag="0"/>
      <psa30 value="0.0002675488" flag="0"/>
    </comp>
    <comp name="--.HHN">
      <acc value="0.0197955976" flag="0"/>
      <vel value="0.0093928017" flag="0"/>
      <psa03 value="0.0424727333" flag="0"/>
      <psa10 value="0.0042378047" flag="0"/>
      <psa30 value="0.0004337500" flag="0"/>
    </comp>
    <comp name="--.HHZ">
      <acc value="0.0101771017" flag="0"/>
      <vel value="0.0047898246" flag="0"/>
      <psa03 value="0.0301438849" flag="0"/>
      <psa10 value="0.0030295689" flag="0"/>
      <psa30 value="0.0002264080" flag="0"/>
    </comp>
  </station>
  <station code="GELI" name="GELI" netid="KO" insttype="CMG-3ESP" lat="40.398" lon="26.4742">
    <comp name="--.HHE">
      <acc value="0.0188780211" flag="0"/>
      <vel value="0.0085238651" flag="0"/>
      <psa03 value="0.0536713132" flag="0"/>
      <psa10 value="0.0090970592" flag="0"/>
      <psa30 value="0.0004920923" flag="0"/>
    </comp>
    <comp name="--.HHN">
      <acc value="0.0119118650" flag="0"/>
      <vel value="0.0080864845" flag="0"/>
      <psa03 value="0.0342406954" flag="0"/>
      <psa10 value="0.0127604547" flag="0"/>
      <psa30 value="0.0003565062" flag="0"/>
    </comp>
    <comp name="--.HHZ">
      <acc value="0.0116983520" flag="0"/>
      <vel value="0.0036179388" flag="0"/>
      <psa03 value="0.0229733626" flag="0"/>
      <psa10 value="0.0047919742" flag="0"/>
      <psa30 value="0.0002904771" flag="0"/>
    </comp>
  </station>
  <station code="GONE" name="GONE" netid="KO" insttype="CMG-5T" lat="40.0466" lon="27.686">
    <comp name="--.HNE">
      <acc value="0.0184073209" flag="0"/>
      <vel value="0.0076135396" flag="0"/>
      <psa03 value="0.0455245380" flag="0"/>
      <psa10 value="0.0073647471" flag="0"/>
      <psa30 value="0.0003918918" flag="0"/>
    </comp>
    <comp name="--.HNN">
      <acc value="0.0329035284" flag="0"/>
      <vel value="0.0135673611" flag="0"/>
      <psa03 value="0.0789117591" flag="0"/>
      <psa10 value="0.0089706388" flag="0"/>
      <psa30 value="0.0005319604" flag="0"/>
    </comp>
    <comp name="--.HNZ">
      <acc value="0.0365714278" flag="0"/>
      <vel value="0.0126895956" flag="0"/>
      <psa03 value="0.0507406018" flag="0"/>
      <psa10 value="0.0056575822" flag="0"/>
      <psa30 value="0.0002916379" flag="0"/>
    </comp>
  </station>
  <station code="KCTX" name="KCTX" netid="KO" insttype="CMG-3ESP" lat="40.2626" lon="28.3353">
    <comp name="--.HHN">
      <acc value="0.1476026355" flag="0"/>
      <vel value="0.0410577956" flag="0"/>
      <psa03 value="0.2133880630" flag="0"/>
      <psa10 value="0.0133311158" flag="0"/>
      <psa30 value="0.0010531618" flag="0"/>
    </comp>
    <comp name="--.HHZ">
      <acc value="0.0759815511" flag="0"/>
      <vel value="0.0148527419" flag="0"/>
      <psa03 value="0.1021627589" flag="0"/>
      <psa10 value="0.0040614989" flag="0"/>
      <psa30 value="0.0003256546" flag="0"/>
    </comp>
    <comp name="--.HHE">
      <acc value="0.1032870163" flag="0"/>
      <vel value="0.0299705497" flag="0"/>
      <psa03 value="0.1142456548" flag="0"/>
      <psa10 value="0.0048716483" flag="0"/>
      <psa30 value="0.0004554014" flag="0"/>
    </comp>
  </station>
  <station code="KRBG" name="KRBG" netid="KO" insttype="CMG-3ESP" lat="40.3932" lon="27.2977">
    <comp name="--.HHZ">
      <acc value="0.1827741140" flag="0"/>
      <vel value="0.0556241214" flag="0"/>
      <psa03 value="0.3096552793" flag="0"/>
      <psa10 value="0.0159856349" flag="0"/>
      <psa30 value="0.0015598471" flag="0"/>
    </comp>
    <comp name="--.HHE">
      <acc value="0.1827478379" flag="0"/>
      <vel value="0.0700512593" flag="0"/>
      <psa03 value="0.2760688369" flag="0"/>
      <psa10 value="0.0293314968" flag="0"/>
      <psa30 value="0.0025980523" flag="0"/>
    </comp>
    <comp name="--.HHN">
      <acc value="0.3224520099" flag="0"/>
      <vel value="0.1423792913" flag="0"/>
      <psa03 value="0.5873680622" flag="0"/>
      <psa10 value="0.0417209133" flag="0"/>
      <psa30 value="0.0042763625" flag="0"/>
    </comp>
  </station>
  <station code="KUMB" name="KUMB" netid="KO" insttype="CMG-5T" lat="40.8626" lon="27.4592">
    <comp name="--.HNE">
      <acc value="0.3282646888" flag="0"/>
      <vel value="0.0823678841" flag="0"/>
      <psa03 value="0.4200965707" flag="0"/>
      <psa10 value="0.0473660720" flag="0"/>
      <psa30 value="0.0048078334" flag="0"/>
    </comp>
    <comp name="--.HNZ">
      <acc value="0.0007026880" flag="0"/>
      <vel value="0.0007197970" flag="0"/>
      <psa03 value="0.0008401604" flag="0"/>
      <psa10 value="0.0006862858" flag="0"/>
      <psa30 value="0.0004005486" flag="0"/>
    </comp>
    <comp name="--.HNN">
      <acc value="0.5475874776" flag="0"/>
      <vel value="0.1131896161" flag="0"/>
      <psa03 value="0.3954611909" flag="0"/>
      <psa10 value="0.0355763025" flag="0"/>
      <psa30 value="0.0030545935" flag="0"/>
    </comp>
  </station>
  <station code="LAP" name="LAP" netid="KO" insttype="CMG-3ESP" lat="40.3703" lon="26.7593">
    <comp name="--.HHE">
      <acc value="0.0275993594" flag="0"/>
      <vel value="0.0149238991" flag="0"/>
      <psa03 value="0.0590441657" flag="0"/>
      <psa10 value="0.0174232585" flag="0"/>
      <psa30 value="0.0010035647" flag="0"/>
    </comp>
    <comp name="--.HHZ">
      <acc value="0.0395167898" flag="0"/>
      <vel value="0.0118438095" flag="0"/>
      <psa03 value="0.0716366786" flag="0"/>
      <psa10 value="0.0079247527" flag="0"/>
      <psa30 value="0.0006203504" flag="0"/>
    </comp>
    <comp name="--.HHN">
      <acc value="0.0261391443" flag="0"/>
      <vel value="0.0114387253" flag="0"/>
      <psa03 value="0.0569601781" flag="0"/>
      <psa10 value="0.0089865376" flag="0"/>
      <psa30 value="0.0006924159" flag="0"/>
    </comp>
  </station>
  <station code="LAPK" name="LAPK" netid="KO" insttype="CMG-5T" lat="40.3151" lon="26.6425">
    <comp name="--.HNN">
      <acc value="0.0928571918" flag="0"/>
      <vel value="0.0394898566" flag="0"/>
      <psa03 value="0.3347641974" flag="0"/>
      <psa10 value="0.0294503536" flag="0"/>
      <psa30 value="0.0015299865" flag="0"/>
    </comp>
    <comp name="--.HNE">
      <acc value="0.0869449880" flag="0"/>
      <vel value="0.0393377418" flag="0"/>
      <psa03 value="0.1774636947" flag="0"/>
      <psa10 value="0.0249962583" flag="0"/>
      <psa30 value="0.0013055708" flag="0"/>
    </comp>
    <comp name="--.HNZ">
      <acc value="0.0566428743" flag="0"/>
      <vel value="0.0180117463" flag="0"/>
      <psa03 value="0.0989003725" flag="0"/>
      <psa10 value="0.0073884862" flag="0"/>
      <psa30 value="0.0006653976" flag="0"/>
    </comp>
  </station>
  <station code="MAEG" name="MAEG" netid="KO" insttype="CMG-5T" lat="40.9653" lon="27.9448">
    <comp name="--.HNZ">
      <acc value="0.0266270439" flag="0"/>
      <vel value="0.0081861795" flag="0"/>
      <psa03 value="0.0405284262" flag="0"/>
      <psa10 value="0.0031188060" flag="0"/>
      <psa30 value="0.0003408830" flag="0"/>
    </comp>
    <comp name="--.HNN">
      <acc value="0.0439026082" flag="0"/>
      <vel value="0.0101350209" flag="0"/>
      <psa03 value="0.0703159002" flag="0"/>
      <psa10 value="0.0035770767" flag="0"/>
      <psa30 value="0.0004381715" flag="0"/>
    </comp>
    <comp name="--.HNE">
      <acc value="0.0382830720" flag="0"/>
      <vel value="0.0103211809" flag="0"/>
      <psa03 value="0.0449489452" flag="0"/>
      <psa10 value="0.0031351143" flag="0"/>
      <psa30 value="0.0002904879" flag="0"/>
    </comp>
  </station>
  <station code="MDNY" name="MDNY" netid="KO" insttype="CMG-3ESP" lat="40.3709" lon="28.8846">
    <comp name="--.HHE">
      <acc value="0.2029500444" flag="0"/>
      <vel value="0.0505214942" flag="0"/>
      <psa03 value="0.2933666819" flag="0"/>
      <psa10 value="0.0263766778" flag="0"/>
      <psa30 value="0.0014828797" flag="0"/>
    </comp>
    <comp name="--.HHN">
      <acc value="0.2028173411" flag="0"/>
      <vel value="0.0646758293" flag="0"/>
      <psa03 value="0.2066621159" flag="0"/>
      <psa10 value="0.0152108400" flag="0"/>
      <psa30 value="0.0016013764" flag="0"/>
    </comp>
    <comp name="--.HHZ">
      <acc value="0.1062595980" flag="0"/>
      <vel value="0.0226619204" flag="0"/>
      <psa03 value="0.0739517682" flag="0"/>
      <psa10 value="0.0053050409" flag="0"/>
      <psa30 value="0.0005751652" flag="0"/>
    </comp>
  </station>
  <station code="MRMT" name="MRMT" netid="KO" insttype="CMG-3T" lat="40.609" lon="27.5832">
    <comp name="--.HHE">
      <acc value="1.0513404665" flag="0"/>
      <vel value="0.1905261941" flag="0"/>
      <psa03 value="0.4496677977" flag="0"/>
      <psa10 value="0.0443872998" flag="0"/>
      <psa30 value="0.0025141259" flag="0"/>
    </comp>
    <comp name="--.HHZ">
      <acc value="6.6597401778" flag="0"/>
      <vel value="0.8278342842" flag="0"/>
