<?xml version="1.0" encoding="UTF-8" standalone="yes"?>
<!DOCTYPE earthquake SYSTEM "stationlist.dtd">
<stationlist created="" xmlns="ch.ethz.sed.shakemap.usgs.xml">
  <station code="ARMT" name="ARMT" netid="KO" insttype="CMG-3ESP" lat="40.5683" lon="28.866">
    <comp name="--.HHE">
      <acc value="0.0799383029" flag="0"/>
      <vel value="0.0226558311" flag="0"/>
      <psa03 value="0.1898276922" flag="0"/>
      <psa10 value="0.0064484446" flag="0"/>
      <psa30 value="0.0005717190" flag="0"/>
    </comp>
    <comp name="--.HHN">
      <acc value="0.0721884093" flag="0"/>
      <vel value="0.0272459291" flag="0"/>
      <psa03 value="0.1631180132" flag="0"/>
      <psa10 value="0.0080589484" flag="0"/>
      <psa30 value="0.0010139342" flag="0"/>
    </comp>
    <comp name="--.HHZ">
      <acc value="0.0426473326" flag="0"/>
      <vel value="0.0098214009" flag="0"/>
      <psa03 value="0.0508934607" flag="0"/>
      <psa10 value="0.0034335973" flag="0"/>
      <psa30 value="0.0004142172" flag="0"/>
    </comp>
  </station>
  <station code="AVCI" name="AVCI" netid="KO" insttype="CMG-5T" lat="40.9958" lon="28.7225">
    <comp name="--.HNZ">
      <acc value="0.0324751876" flag="0"/>
      <vel value="0.0108982457" flag="0"/>
      <psa03 value="0.0601246754" flag="0"/>
      <psa10 value="0.0029434713" flag="0"/>
      <psa30 value="0.0003086584" flag="0"/>
    </comp>
    <comp name="--.HNN">
      <acc value="0.0400466452" flag="0"/>
      <vel value="0.0115824949" flag="0"/>
      <psa03 value="0.0977249866" flag="0"/>
      <psa10 value="0.0080973470" flag="0"/>
      <psa30 value="0.0006933713" flag="0"/>
    </comp>
    <comp name="--.HNE">
      <acc value="0.0589832477" flag="0"/>
      <vel value="0.0232235565" flag="0"/>
      <psa03 value="0.1201671747" flag="0"/>
      <psa10 value="0.0077242889" flag="0"/>
      <psa30 value="0.0007586342" flag="0"/>
    </comp>
  </station>
  <station code="BALB" name="BALB" netid="KO" insttype="CMG-5T" lat="39.6507" lon="27.8642">
    <comp name="--.HNN">
      <acc value="0.0277288182" flag="0"/>
      <vel value="0.0094108515" flag="0"/>
      <psa03 value="0.0661632159" flag="0"/>
      <psa10 value="0.0048471396" flag="0"/>
      <psa30 value="0.0003865082" flag="0"/>
    </comp>
    <comp name="--.HNE">
      <acc value="0.0323934838" flag="0"/>
      <vel value="0.0110994441" flag="0"/>
      <psa03 value="0.0759255493" flag="0"/>
      <psa10 value="0.0038736401" flag="0"/>
      <psa30 value="0.0004224038" flag="0"/>
    </comp>
    <comp name="--.HNZ">
      <acc value="0.0170793915" flag="0"/>
      <vel value="0.0057868873" flag="0"/>
      <psa03 value="0.0281298675" flag="0"/>
      <psa10 value="0.0045109967" flag="0"/>
      <psa30 value="0.0002854491" flag="0"/>
    </comp>
  </station>
  <station code="BIGA" name="BIGA" netid="KO" insttype="CMG-5T" lat="40.2813" lon="27.1505">
    <comp name="--.HNZ">
      <acc value="0.1161155387" flag="0"/>
      <vel value="0.0243297029" flag="0"/>
      <psa03 value="0.1178888262" flag="0"/>
      <psa10 value="0.0080932322" flag="0"/>
      <psa30 value="0.0012861413" flag="0"/>
    </comp>
    <comp name="--.HNE">
      <acc value="0.1918672155" flag="0"/>
      <vel value="0.0664481642" flag="0"/>
      <psa03 value="0.5353231917" flag="0"/>
      <psa10 value="0.0199688474" flag="0"/>
      <psa30 value="0.0020703782" flag="0"/>
    </comp>
    <comp name="--.HNN">
      <acc value="0.1748946777" flag="0"/>
      <vel value="0.0580681141" flag="0"/>
      <psa03 value="0.4030158309" flag="0"/>
      <psa10 value="0.0288154957" flag="0"/>
      <psa30 value="0.0023655108" flag="0"/>
    </comp>
  </station>
  <station code="BOTS" name="BOTS" netid="KO" insttype="CMG-5T" lat="40.9902" lon="27.981">
    <comp name="--.HNN">
      <acc value="0.0336888167" flag="0"/>
      <vel value="0.0090555833" flag="0"/>
      <psa03 value="0.0468788072" flag="0"/>
      <psa10 value="0.0029239510" flag="0"/>
      <psa30 value="0.0003154760" flag="0"/>
    </comp>
    <comp name="--.HNZ">
      <acc value="0.0303950656" flag="0"/>
      <vel value="0.0068796775" flag="0"/>
      <psa03 value="0.0499568771" flag="0"/>
      <psa10 value="0.0034561783" flag="0"/>
      <psa30 value="0.0003598086" flag="0"/>
    </comp>
    <comp name="--.HNE">
      <acc value="0.0473908532" flag="0"/>
      <vel value="0.0097278229" flag="0"/>
      <psa03 value="0.0612089935" flag="0"/>
      <psa10 value="0.0037585225" flag="0"/>
      <psa30 value="0.0006059169" flag="0"/>
    </comp>
  </station>
  <station code="BUYK" name="BUYK" netid="KO" insttype="ACEBOX" lat="41.0168" lon="28.5828">
    <comp name="--.HNE">
      <acc value="0.0589077826" flag="0"/>
      <vel value="0.0191705620" flag="0"/>
      <psa03 value="0.0827916621" flag="0"/>
      <psa10 value="0.0075514954" flag="0"/>
      <psa30 value="0.0005614664" flag="0"/>
    </comp>
    <comp name="--.HNN">
      <acc value="0.0651826620" flag="0"/>
      <vel value="0.0170202317" flag="0"/>
      <psa03 value="0.1066165211" flag="0"/>
      <psa10 value="0.0087455992" flag="0"/>
      <psa30 value="0.0006557014" flag="0"/>
    </comp>
    <comp name="--.HNZ">
      <acc value="0.0386439691" flag="0"/>
      <vel value="0.0106436509" flag="0"/>
      <psa03 value="0.0318314437" flag="0"/>
      <psa10 value="0.0040401698" flag="0"/>
      <psa30 value="0.0002829829" flag="0"/>
    </comp>
  </station>
  <station code="CANM" name="CANM" netid="KO" insttype="CMG-5T" lat="40.0113" lon="27.0529">
    <comp name="--.HNE">
      <acc value="0.1325242173" flag="0"/>
      <vel value="0.0359311132" flag="0"/>
      <psa03 value="0.1680509508" flag="0"/>
      <psa10 value="0.0091754419" flag="0"/>
      <psa30 value="0.0008757822" flag="0"/>
    </comp>
    <comp name="--.HNN">
      <acc value="0.1719178121" flag="0"/>
      <vel value="0.0472276687" flag="0"/>
      <psa03 value="0.2619190934" flag="0"/>
      <psa10 value="0.0135903601" flag="0"/>
      <psa30 value="0.0009482506" flag="0"/>
    </comp>
    <comp name="--.HNZ">
      <acc value="0.0764089370" flag="0"/>
      <vel value="0.0247571630" flag="0"/>
      <psa03 value="0.1052875189" flag="0"/>
      <psa10 value="0.0084386684" flag="0"/>
      <psa30 value="0.0005431436" flag="0"/>
    </comp>
  </station>
  <station code="CRLU" name="CRLU" netid="KO" insttype="ACEBOX" lat="41.1428" lon="27.8215">
    <comp name="--.HNE">
      <acc value="1.3784684041" flag="0"/>
      <vel value="0.4392284636" flag="0"/>
      <psa03 value="1.9365846311" flag="0"/>
      <psa10 value="0.2642728863" flag="0"/>
      <psa30 value="0.0207329167" flag="0"/>
    </comp>
    <comp name="--.HNN">
      <acc value="0.9186697362" flag="0"/>
      <vel value="0.4107548560" flag="0"/>
      <psa03 value="3.0267891432" flag="0"/>
      <psa10 value="0.1792670432" flag="0"/>
      <psa30 value="0.0158296154" flag="0"/>
    </comp>
    <comp name="--.HNZ">
      <acc value="0.5114803237" flag="0"/>
      <vel value="0.1896997242" flag="0"/>
      <psa03 value="1.0345155297" flag="0"/>
      <psa10 value="0.0699525526" flag="0"/>
      <psa30 value="0.0045564954" flag="0"/>
    </comp>
  </station>
  <station code="CTKS" name="CTKS" netid="KO" insttype="CMG-3ESP" lat="41.2373" lon="28.5072">
    <comp name="--.HHZ">
      <acc value="0.0000162937" flag="0"/>
      <vel value="0.0000020907" flag="0"/>
      <psa03 value="0.0000084260" flag="0"/>
      <psa10 value="0.0000024805" flag="0"/>
      <psa30 value="0.0000005104" flag="0"/>
    </comp>
    <comp name="--.HHN">
      <acc value="0.0468186664" flag="0"/>
      <vel value="0.0067659472" flag="0"/>
      <psa03 value="0.0441795393" flag="0"/>
      <psa10 value="0.0024271715" flag="0"/>
      <psa30 value="0.0001599932" flag="0"/>
    </comp>
    <comp name="--.HHE">
      <acc value="0.0354215878" flag="0"/>
      <vel value="0.0083639643" flag="0"/>
      <psa03 value="0.0439415351" flag="0"/>
      <psa10 value="0.0021755433" flag="0"/>
      <psa30 value="0.0001601636" flag="0"/>
    </comp>
  </station>
  <station code="DOGC" name="DOGC" netid="KO" insttype="CMG-5T" lat="41.3949" lon="26.9852">
    <comp name="--.HNE">
      <acc value="0.0489492566" flag="0"/>
      <vel value="0.0242197298" flag="0"/>
      <psa03 value="0.1874531989" flag="0"/>
      <psa10 value="0.0161945674" flag="0"/>
      <psa30 value="0.0010141450" flag="0"/>
    </comp>
    <comp name="--.HNZ">
      <acc value="0.0363876407" flag="0"/>
      <vel value="0.0121559281" flag="0"/>
      <psa03 value="0.0769209081" flag="0"/>
      <psa10 value="0.0053834247" flag="0"/>
      <psa30 value="0.0007179681" flag="0"/>
    </comp>
    <comp name="--.HNN">
      <acc value="0.0554467488" flag="0"/>
      <vel value="0.0265847152" flag="0"/>
      <psa03 value="0.1784146434" flag="0"/>
      <psa10 value="0.0173431232" flag="0"/>
      <psa30 value="0.0013326514" flag="0"/>
    </comp>
  </station>
  <station code="EDC" name="EDC" netid="KO" insttype="CMG-3T" lat="40.3465" lon="27.8618">
    <comp name="--.HHE">
      <acc value="0.4469197780" flag="0"/>
      <vel value="0.0791695746" flag="0"/>
      <psa03 value="0.2099513671" flag="0"/>
      <psa10 value="0.0191931373" flag="0"/>
      <psa30 value="0.0014124531" flag="0"/>
    </comp>
    <comp name="--.HHN">
      <acc value="0.5236126172" flag="0"/>
      <vel value="0.1820229387" flag="0"/>
      <psa03 value="0.8099276425" flag="0"/>
      <psa10 value="0.0336892490" flag="0"/>
      <psa30 value="0.0031822184" flag="0"/>
    </comp>
    <comp name="--.HHZ">
      <acc value="0.2744403353" flag="0"/>
      <vel value="0.0582162273" flag="0"/>
      <psa03 value="0.1407801793" flag="0"/>
      <psa10 value="0.0105819208" flag="0"/>
      <psa30 value="0.0007939623" flag="0"/>
    </comp>
  </station>
  <station code="ENEZ" name="ENEZ" netid="KO" insttype="CMG-3T" lat="40.7362" lon="26.153">
    <comp name="--.HHN">
      <acc value="0.0228615396" flag="0"/>
      <vel value="0.0100858915" flag="0"/>
      <psa03 value="0.0755699019" flag="0"/>
      <psa10 value="0.0057645241" flag="0"/>
      <psa30 value="0.0006078451" flag="0"/>
    </comp>
    <comp name="--.HHZ">
      <acc value="0.0125631238" flag="0"/>
      <vel value="0.0054438678" flag="0"/>
      <psa03 value="0.0358673531" flag="0"/>
      <psa10 value="0.0029594271" flag="0"/>
      <psa30 value="0.0001469686" flag="0"/>
    </comp>
    <comp name="--.HHE">
      <acc value="0.0221882134" flag="0"/>
      <vel value="0.0097793868" flag="0"/>
      <psa03 value="0.0525485025" flag="0"/>
      <psa10 value="0.0074142174" flag="0"/>
      <psa30 value="0.0003758682" flag="0"/>
    </comp>
  </station>
  <station code="ERIK" name="ERIK" netid="KO" insttype="CMG-3ESP" lat="40.6708" lon="26.5132">
    <comp name="--.HHE">
      <acc value="0.0190851840" flag="0"/>
      <vel value="0.0072871975" flag="0"/>
      <psa03 value="0.0391310136" flag="0"/>
      <psa10 value="0.0036324781" flag="0"/>
      <psa30 value="0.0002675462" flag="0"/>
    </comp>
    <comp name="--.HHN">
      <acc value="0.0197955976" flag="0"/>
      <vel value="0.0093928017" flag="0"/>
      <psa03 value="0.0424727333" flag="0"/>
      <psa10 value="0.0042378047" flag="0"/>
      <psa30 value="0.0004337385" flag="0"/>
    </comp>
    <comp name="--.HHZ">
      <acc value="0.0101771018" flag="0"/>
      <vel value="0.0047898243" flag="0"/>
      <psa03 value="0.0301438849" flag="0"/>
      <psa10 value="0.0030295689" flag="0"/>
      <psa30 value="0.0002264080" flag="0"/>
    </comp>
  </station>
  <station code="GELI" name="GELI" netid="KO" insttype="CMG-3ESP" lat="40.398" lon="26.4742">
    <comp name="--.HHE">
      <acc value="0.0188780211" flag="0"/>
      <vel value="0.0085238649" flag="0"/>
      <psa03 value="0.0536713132" flag="0"/>
      <psa10 value="0.0090970592" flag="0"/>
      <psa30 value="0.0004921180" flag="0"/>
    </comp>
    <comp name="--.HHZ">
      <acc value="0.0116983520" flag="0"/>
      <vel value="0.0036179387" flag="0"/>
      <psa03 value="0.0229733626" flag="0"/>
      <psa10 value="0.0047919742" flag="0"/>
      <psa30 value="0.0002904738" flag="0"/>
    </comp>
    <comp name="--.HHN">
      <acc value="0.0119118650" flag="0"/>
      <vel value="0.0080864862" flag="0"/>
      <psa03 value="0.0342406954" flag="0"/>
      <psa10 value="0.0127604547" flag="0"/>
      <psa30 value="0.0003565111" flag="0"/>
    </comp>
  </station>
  <station code="GONE" name="GONE" netid="KO" insttype="CMG-5T" lat="40.0466" lon="27.686">
    <comp name="--.HNZ">
      <acc value="0.0365714276" flag="0"/>
      <vel value="0.0126895957" flag="0"/>
      <psa03 value="0.0507406018" flag="0"/>
      <psa10 value="0.0056575820" flag="0"/>
      <psa30 value="0.0002905058" flag="0"/>
    </comp>
    <comp name="--.HNE">
      <acc value="0.0184073202" flag="0"/>
      <vel value="0.0076135398" flag="0"/>
      <psa03 value="0.0455245380" flag="0"/>
      <psa10 value="0.0073647471" flag="0"/>
      <psa30 value="0.0003918909" flag="0"/>
    </comp>
    <comp name="--.HNN">
      <acc value="0.0329035281" flag="0"/>
      <vel value="0.0135673610" flag="0"/>
      <psa03 value="0.0789117591" flag="0"/>
      <psa10 value="0.0089706387" flag="0"/>
      <psa30 value="0.0005319633" flag="0"/>
    </comp>
  </station>
  <station code="KCTX" name="KCTX" netid="KO" insttype="CMG-3ESP" lat="40.2626" lon="28.3353">
    <comp name="--.HHN">
      <acc value="0.1476026365" flag="0"/>
      <vel value="0.0410577942" flag="0"/>
      <psa03 value="0.2133880630" flag="0"/>
      <psa10 value="0.0133311158" flag="0"/>
      <psa30 value="0.0010531782" flag="0"/>
    </comp>
    <comp name="--.HHE">
      <acc value="0.1032870172" flag="0"/>
      <vel value="0.0299705507" flag="0"/>
      <psa03 value="0.1142456548" flag="0"/>
      <psa10 value="0.0048716484" flag="0"/>
      <psa30 value="0.0004554176" flag="0"/>
    </comp>
    <comp name="--.HHZ">
      <acc value="0.0759815508" flag="0"/>
      <vel value="0.0148527418" flag="0"/>
      <psa03 value="0.1021627589" flag="0"/>
      <psa10 value="0.0040614989" flag="0"/>
      <psa30 value="0.0003256557" flag="0"/>
    </comp>
  </station>
  <station code="KRBG" name="KRBG" netid="KO" insttype="CMG-3ESP" lat="40.3932" lon="27.2977">
    <comp name="--.HHN">
      <acc value="0.3224520096" flag="0"/>
      <vel value="0.1423792896" flag="0"/>
      <psa03 value="0.5873680622" flag="0"/>
      <psa10 value="0.0417209135" flag="0"/>
      <psa30 value="0.0042763373" flag="0"/>
    </comp>
    <comp name="--.HHE">
      <acc value="0.1827478374" flag="0"/>
      <vel value="0.0700512592" flag="0"/>
      <psa03 value="0.2760688369" flag="0"/>
      <psa10 value="0.0293314964" flag="0"/>
      <psa30 value="0.0025980612" flag="0"/>
    </comp>
    <comp name="--.HHZ">
      <acc value="0.1827741140" flag="0"/>
      <vel value="0.0556241213" flag="0"/>
      <psa03 value="0.3096552793" flag="0"/>
      <psa10 value="0.0159856347" flag="0"/>
      <psa30 value="0.0015598764" flag="0"/>
    </comp>
  </station>
  <station code="KUMB" name="KUMB" netid="KO" insttype="CMG-5T" lat="40.8626" lon="27.4592">
    <comp name="--.HNE">
      <acc value="0.3282646863" flag="0"/>
      <vel value="0.0823678928" flag="0"/>
      <psa03 value="0.4200965707" flag="0"/>
      <psa10 value="0.0473660657" flag="0"/>
      <psa30 value="0.0048048271" flag="0"/>
    </comp>
    <comp name="--.HNN">
      <acc value="0.5475873788" flag="0"/>
      <vel value="0.1131896307" flag="0"/>
      <psa03 value="0.3954611909" flag="0"/>
      <psa10 value="0.0355763010" flag="0"/>
      <psa30 value="0.0030517897" flag="0"/>
    </comp>
    <comp name="--.HNZ">
      <acc value="0.0007026851" flag="0"/>
      <vel value="0.0007090223" flag="0"/>
      <psa03 value="0.0006322989" flag="0"/>
      <psa10 value="0.0006636670" flag="0"/>
      <psa30 value="0.0003438649" flag="0"/>
    </comp>
  </station>
  <station code="LAP" name="LAP" netid="KO" insttype="CMG-3ESP" lat="40.3703" lon="26.7593">
    <comp name="--.HHN">
      <acc value="0.0261391444" flag="0"/>
      <vel value="0.0114387270" flag="0"/>
      <psa03 value="0.0569601781" flag="0"/>
      <psa10 value="0.0089865375" flag="0"/>
      <psa30 value="0.0006924334" flag="0"/>
    </comp>
    <comp name="--.HHE">
      <acc value="0.0275993595" flag="0"/>
      <vel value="0.0149239022" flag="0"/>
      <psa03 value="0.0590441657" flag="0"/>
      <psa10 value="0.0174232585" flag="0"/>
      <psa30 value="0.0010035548" flag="0"/>
    </comp>
    <comp name="--.HHZ">
      <acc value="0.0395167898" flag="0"/>
      <vel value="0.0118438074" flag="0"/>
      <psa03 value="0.0716366786" flag="0"/>
      <psa10 value="0.0079247527" flag="0"/>
      <psa30 value="0.0006203528" flag="0"/>
    </comp>
  </station>
  <station code="LAPK" name="LAPK" netid="KO" insttype="CMG-5T" lat="40.3151" lon="26.6425">
    <comp name="--.HNE">
      <acc value="0.0869449878" flag="0"/>
      <vel value="0.0393377389" flag="0"/>
      <psa03 value="0.1774636947" flag="0"/>
      <psa10 value="0.0249962586" flag="0"/>
      <psa30 value="0.0013055120" flag="0"/>
    </comp>
    <comp name="--.HNN">
      <acc value="0.0928571907" flag="0"/>
      <vel value="0.0394898530" flag="0"/>
      <psa03 value="0.3347641974" flag="0"/>
      <psa10 value="0.0294503537" flag="0"/>
      <psa30 value="0.0015300990" flag="0"/>
    </comp>
    <comp name="--.HNZ">
      <acc value="0.0566428709" flag="0"/>
      <vel value="0.0180117468" flag="0"/>
      <psa03 value="0.0989003725" flag="0"/>
      <psa10 value="0.0073884862" flag="0"/>
      <psa30 value="0.0006652917" flag="0"/>
    </comp>
  </station>
  <station code="MAEG" name="MAEG" netid="KO" insttype="CMG-5T" lat="40.9653" lon="27.9448">
    <comp name="--.HNN">
      <acc value="0.0439026076" flag="0"/>
      <vel value="0.0101350201" flag="0"/>
      <psa03 value="0.0703159002" flag="0"/>
      <psa10 value="0.0035770773" flag="0"/>
      <psa30 value="0.0004381895" flag="0"/>
    </comp>
    <comp name="--.HNZ">
      <acc value="0.0266270439" flag="0"/>
      <vel value="0.0081861792" flag="0"/>
      <psa03 value="0.0405284262" flag="0"/>
      <psa10 value="0.0031188063" flag="0"/>
      <psa30 value="0.0003420042" flag="0"/>
    </comp>
    <comp name="--.HNE">
      <acc value="0.0382830730" flag="0"/>
      <vel value="0.0103211813" flag="0"/>
      <psa03 value="0.0449489452" flag="0"/>
      <psa10 value="0.0031351142" flag="0"/>
      <psa30 value="0.0002903886" flag="0"/>
    </comp>
  </station>
  <station code="MDNY" name="MDNY" netid="KO" insttype="CMG-3ESP" lat="40.3709" lon="28.8846">
    <comp name="--.HHN">
      <acc value="0.2028173411" flag="0"/>
      <vel value="0.0646758290" flag="0"/>
      <psa03 value="0.2066621159" flag="0"/>
      <psa10 value="0.0152108400" flag="0"/>
      <psa30 value="0.0016013918" flag="0"/>
    </comp>
    <comp name="--.HHZ">
      <acc value="0.1062595980" flag="0"/>
      <vel value="0.0226619204" flag="0"/>
      <psa03 value="0.0739517682" flag="0"/>
      <psa10 value="0.0053050410" flag="0"/>
      <psa30 value="0.0005751907" flag="0"/>
    </comp>
    <comp name="--.HHE">
      <acc value="0.2029500443" flag="0"/>
      <vel value="0.0505214943" flag="0"/>
      <psa03 value="0.2933666819" flag="0"/>
      <psa10 value="0.0263766778" flag="0"/>
      <psa30 value="0.0014828728" flag="0"/>
    </comp>
  </station>
  <station code="MRMT" name="MRMT" netid="KO" insttype="CMG-3T" lat="40.609" lon="27.5832">
    <comp name="--.HHE">
      <acc value="1.0513404675" flag="0"/>
      <vel value="0.1905261939" flag="0"/>
      <psa03 value="0.4496677977" flag="0"/>
      <psa10 value="0.0443872999" flag="0"/>
      <psa30 value="0.0025141747" flag="0"/>
    </comp>
    <comp name="--.HHN">
      <acc value="1.4019786237" flag="0"/>
      <vel value="0.1935242424" flag="0"/>
