<stationlist created="1721469695">
	<station code="JMB" name="JMB" netid="BS" source="National Seismic Network of Bulgaria (BS)" insttype="" lat="42.4911" lon="26.5296">
		<comp name=".HNE" depth="0.0">
			<acc value="0.8002137903525" flag="0"/>
			<vel value="0.554731816338" flag="0"/>
			<psa03 value="2.2975435343157" flag="0"/>
			<psa10 value="0.611180327695698" flag="0"/>
			<psa30 value="0.174545229431497" flag="0"/>
		</comp>
		<comp name=".HNN" depth="0.0">
			<acc value="0.52748510877" flag="0"/>
			<vel value="0.490852539058" flag="0"/>
			<psa03 value="1.70866635742543" flag="0"/>
			<psa10 value="0.49288324109491" flag="0"/>
			<psa30 value="0.207492732041653" flag="0"/>
		</comp>
		<comp name=".HNZ" depth="0.0">
			<acc value="0.40155798963426" flag="0"/>
			<vel value="0.270160912088" flag="0"/>
			<psa03 value="1.76872450264977" flag="0"/>
			<psa10 value="0.44809045379147" flag="0"/>
			<psa30 value="0.0990083988204569" flag="0"/>
		</comp>
	</station>
	<station code="MYT1" name="MYT1" netid="HI" source="ITSAK Strong Motion Network" insttype="" lat="39.085" lon="26.5694">
		<comp name=".HNE" depth="0.0">
			<acc value="0.01773862140039" flag="0"/>
			<vel value="0.00844119319776" flag="0"/>
			<psa03 value="0.045147058479308" flag="0"/>
			<psa10 value="0.00429704262671555" flag="0"/>
			<psa30 value="0.000784767299483738" flag="0"/>
		</comp>
		<comp name=".HNN" depth="0.0">
			<acc value="0.013001940730116" flag="0"/>
			<vel value="0.00726472801433" flag="0"/>
			<psa03 value="0.0470357356784563" flag="0"/>
			<psa10 value="0.00445026465192364" flag="0"/>
			<psa30 value="0.000442813188367363" flag="0"/>
		</comp>
		<comp name=".HNZ" depth="0.0">
			<acc value="0.0062737024006008" flag="0"/>
			<vel value="0.00439107077935" flag="0"/>
			<psa03 value="0.0187315494669739" flag="0"/>
			<psa10 value="0.00443917094827439" flag="0"/>
			<psa30 value="0.000486852147399784" flag="0"/>
		</comp>
	</station>
	<station code="LIA" name="LIA" netid="HL" source="National Observatory of Athens Seismic Network" insttype="" lat="39.89725" lon="25.18055">
		<comp name="00.HNE" depth="0.0">
			<acc value="0.0027530096191578" flag="0"/>
			<vel value="0.00128015560494" flag="0"/>
			<psa03 value="0.006965468589577" flag="0"/>
			<psa10 value="0.00173093197043628" flag="0"/>
			<psa30 value="0.000133321331883831" flag="0"/>
		</comp>
		<comp name="00.HNN" depth="0.0">
			<acc value="0.0043860133032174" flag="0"/>
			<vel value="0.00181634443213" flag="0"/>
			<psa03 value="0.00836666232325551" flag="0"/>
			<psa10 value="0.00118212553657582" flag="0"/>
			<psa30 value="0.000132264504061691" flag="0"/>
		</comp>
		<comp name="00.HNZ" depth="0.0">
			<acc value="0.0024864551186952" flag="0"/>
			<vel value="0.00117338438113" flag="0"/>
			<psa03 value="0.00739065300596985" flag="0"/>
			<psa10 value="0.00113433881625353" flag="0"/>
			<psa30 value="0.000101119511171405" flag="0"/>
		</comp>
	</station>
	<station code="PRK" name="PRK" netid="HL" source="National Observatory of Athens Seismic Network" insttype="" lat="39.24565" lon="26.26499">
		<comp name=".HNE" depth="0.0">
			<acc value="0.011655365516454" flag="0"/>
			<vel value="0.00768517485495" flag="0"/>
			<psa03 value="0.0556447330655554" flag="0"/>
			<psa10 value="0.0131962401236247" flag="0"/>
			<psa30 value="0.00072708899941055" flag="0"/>
		</comp>
		<comp name=".HNN" depth="0.0">
			<acc value="0.012345526845126" flag="0"/>
			<vel value="0.00902357435613" flag="0"/>
			<psa03 value="0.0415936668346521" flag="0"/>
			<psa10 value="0.0109795273398005" flag="0"/>
			<psa30 value="0.000664259837287143" flag="0"/>
		</comp>
		<comp name=".HNZ" depth="0.0">
			<acc value="0.0058126081325106" flag="0"/>
			<vel value="0.0040575773084" flag="0"/>
			<psa03 value="0.0204615846462138" flag="0"/>
			<psa10 value="0.00309151378198926" flag="0"/>
			<psa30 value="0.000986691613477088" flag="0"/>
		</comp>
	</station>
	<station code="AVCI" name="AVCI" netid="KO" source="Bogazici University Kandilli Observatory And Earthquake Research Institute (KOERI)" insttype="" lat="40.9958" lon="28.7225">
		<comp name=".HNE" depth="0.0">
			<acc value="0.059249839502064" flag="0"/>
			<vel value="0.0235084954215" flag="0"/>
			<psa03 value="0.123138532323395" flag="0"/>
			<psa10 value="0.0077260865028033" flag="0"/>
			<psa30 value="0.000827188547180164" flag="0"/>
		</comp>
		<comp name=".HNN" depth="0.0">
			<acc value="0.039738734306352" flag="0"/>
			<vel value="0.0116304287772" flag="0"/>
			<psa03 value="0.100020396693826" flag="0"/>
			<psa10 value="0.0081400014226341" flag="0"/>
			<psa30 value="0.000785076486632373" flag="0"/>
		</comp>
		<comp name=".HNZ" depth="0.0">
			<acc value="0.032255999230752" flag="0"/>
			<vel value="0.0108651176331" flag="0"/>
			<psa03 value="0.0616264991199353" flag="0"/>
			<psa10 value="0.00294675958335884" flag="0"/>
			<psa30 value="0.000378767773797895" flag="0"/>
		</comp>
	</station>
	<station code="BIGA" name="BIGA" netid="KO" source="Bogazici University Kandilli Observatory And Earthquake Research Institute (KOERI)" insttype="" lat="40.28134" lon="27.15048">
		<comp name=".HNE" depth="0.0">
			<acc value="0.18979935062766" flag="0"/>
			<vel value="0.0673036766385" flag="0"/>
			<psa03 value="0.538774149475453" flag="0"/>
			<psa10 value="0.0200488693891915" flag="0"/>
			<psa30 value="0.00204826402077102" flag="0"/>
		</comp>
		<comp name=".HNN" depth="0.0">
			<acc value="0.17342913426102" flag="0"/>
			<vel value="0.0581735601103" flag="0"/>
			<psa03 value="0.405660373008972" flag="0"/>
			<psa10 value="0.0289546724799394" flag="0"/>
			<psa30 value="0.00230605755666064" flag="0"/>
		</comp>
		<comp name=".HNZ" depth="0.0">
			<acc value="0.11185869422694" flag="0"/>
			<vel value="0.0247333288176" flag="0"/>
			<psa03 value="0.116150913178" flag="0"/>
			<psa10 value="0.00817968842671998" flag="0"/>
			<psa30 value="0.00135568074469556" flag="0"/>
		</comp>
	</station>
	<station code="BOTS" name="BOTS" netid="KO" source="Bogazici University Kandilli Observatory And Earthquake Research Institute (KOERI)" insttype="" lat="40.9902" lon="27.981">
		<comp name=".HNE" depth="0.0">
			<acc value="0.04655060242173" flag="0"/>
			<vel value="0.0102033701557" flag="0"/>
			<psa03 value="0.0628393971765465" flag="0"/>
			<psa10 value="0.00376200405805616" flag="0"/>
			<psa30 value="0.000648551869627736" flag="0"/>
		</comp>
		<comp name=".HNN" depth="0.0">
			<acc value="0.031982889159312" flag="0"/>
			<vel value="0.00932749191676" flag="0"/>
			<psa03 value="0.0477156817629184" flag="0"/>
			<psa10 value="0.00294055714122786" flag="0"/>
			<psa30 value="0.000410345464623019" flag="0"/>
		</comp>
		<comp name=".HNZ" depth="0.0">
			<acc value="0.026305211564346" flag="0"/>
			<vel value="0.00709916449326" flag="0"/>
			<psa03 value="0.0500077711025619" flag="0"/>
			<psa10 value="0.00345464846288079" flag="0"/>
			<psa30 value="0.000381872771155511" flag="0"/>
		</comp>
	</station>
	<station code="BUYA" name="BUYA" netid="KO" source="Bogazici University Kandilli Observatory And Earthquake Research Institute (KOERI)" insttype="" lat="40.8694" lon="29.1278">
		<comp name=".HNE" depth="0.0">
			<acc value="0.051036159434214" flag="0"/>
			<vel value="0.0152954201619" flag="0"/>
			<psa03 value="0.0791814224641006" flag="0"/>
			<psa10 value="0.00260326682865035" flag="0"/>
			<psa30 value="0.00043113093009977" flag="0"/>
		</comp>
		<comp name=".HNN" depth="0.0">
			<acc value="0.03963308881554" flag="0"/>
			<vel value="0.0122462936017" flag="0"/>
			<psa03 value="0.0639427358924721" flag="0"/>
			<psa10 value="0.00527322010620673" flag="0"/>
			<psa30 value="0.000682708611509505" flag="0"/>
		</comp>
		<comp name=".HNZ" depth="0.0">
			<acc value="0.046524431429214" flag="0"/>
			<vel value="0.0115702184354" flag="0"/>
			<psa03 value="0.0535128001685759" flag="0"/>
			<psa10 value="0.00217437224461659" flag="0"/>
			<psa30 value="0.000477496058851776" flag="0"/>
		</comp>
	</station>
	<station code="CANM" name="CANM" netid="KO" source="Bogazici University Kandilli Observatory And Earthquake Research Institute (KOERI)" insttype="" lat="40.0113" lon="27.0529">
		<comp name=".HNE" depth="0.0">
			<acc value="0.13208924501538" flag="0"/>
			<vel value="0.0363609299484" flag="0"/>
			<psa03 value="0.170239881723481" flag="0"/>
			<psa10 value="0.00918469312833117" flag="0"/>
			<psa30 value="0.000894938660294696" flag="0"/>
		</comp>
		<comp name=".HNN" depth="0.0">
			<acc value="0.1700420713161" flag="0"/>
			<vel value="0.0473663847678" flag="0"/>
			<psa03 value="0.265958014246423" flag="0"/>
			<psa10 value="0.013627549633295" flag="0"/>
			<psa30 value="0.00093515986641732" flag="0"/>
		</comp>
		<comp name=".HNZ" depth="0.0">
			<acc value="0.075109577384358" flag="0"/>
			<vel value="0.0247880808647" flag="0"/>
			<psa03 value="0.106625969696999" flag="0"/>
			<psa10 value="0.00847267939841877" flag="0"/>
			<psa30 value="0.000547597213127331" flag="0"/>
		</comp>
	</station>
	<station code="EDC" name="EDC" netid="KO" source="Bogazici University Kandilli Observatory And Earthquake Research Institute (KOERI)" insttype="" lat="40.3465" lon="27.8618">
		<comp name=".HNE" depth="0.0">
			<acc value="0.40104251948034" flag="0"/>
			<vel value="0.0756531594554" flag="0"/>
			<psa03 value="0.253713578112758" flag="0"/>
			<psa10 value="0.0170701764403953" flag="0"/>
			<psa30 value="0.00115106052294359" flag="0"/>
		</comp>
		<comp name=".HNN" depth="0.0">
			<acc value="0.52004198859618" flag="0"/>
			<vel value="0.189222215895" flag="0"/>
			<psa03 value="0.811694187423553" flag="0"/>
			<psa10 value="0.0337534172482383" flag="0"/>
			<psa30 value="0.00328058773950328" flag="0"/>
		</comp>
		<comp name=".HNZ" depth="0.0">
			<acc value="0.26331513890736" flag="0"/>
			<vel value="0.0558669133982" flag="0"/>
			<psa03 value="0.15739090554167" flag="0"/>
			<psa10 value="0.0103905376971369" flag="0"/>
			<psa30 value="0.000747292004428196" flag="0"/>
		</comp>
	</station>
	<station code="EZNE" name="EZNE" netid="KO" source="Bogazici University Kandilli Observatory And Earthquake Research Institute (KOERI)" insttype="" lat="39.756" lon="26.3655">
		<comp name=".HNE" depth="0.0">
			<acc value="0.021327046210782" flag="0"/>
			<vel value="0.00849456779813" flag="0"/>
			<psa03 value="0.0450868253225622" flag="0"/>
			<psa10 value="0.00513078988963778" flag="0"/>
			<psa30 value="0.000339573562790442" flag="0"/>
		</comp>
		<comp name=".HNN" depth="0.0">
			<acc value="0.024129712626936" flag="0"/>
			<vel value="0.0106610031885" flag="0"/>
			<psa03 value="0.0738586427725958" flag="0"/>
			<psa10 value="0.00722740002976207" flag="0"/>
			<psa30 value="0.000698948749842358" flag="0"/>
		</comp>
		<comp name=".HNZ" depth="0.0">
			<acc value="0.020281725092874" flag="0"/>
			<vel value="0.00651316777685" flag="0"/>
			<psa03 value="0.0362456042183737" flag="0"/>
			<psa10 value="0.00423778260731275" flag="0"/>
			<psa30 value="0.000303899897501739" flag="0"/>
		</comp>
	</station>
	<station code="GOKC" name="GOKC" netid="KO" source="Bogazici University Kandilli Observatory And Earthquake Research Institute (KOERI)" insttype="" lat="40.1998" lon="25.9183">
		<comp name=".HNE" depth="0.0">
			<acc value="0.023661598577586" flag="0"/>
			<vel value="0.0119033096823" flag="0"/>
			<psa03 value="0.0513549436795869" flag="0"/>
			<psa10 value="0.0125009890666656" flag="0"/>
			<psa30 value="0.00479722695940387" flag="0"/>
		</comp>
		<comp name=".HNN" depth="0.0">
			<acc value="0.020599013914314" flag="0"/>
			<vel value="0.0100615292572" flag="0"/>
			<psa03 value="0.0462891601795325" flag="0"/>
			<psa10 value="0.0105989783803156" flag="0"/>
			<psa30 value="0.00433749567113203" flag="0"/>
		</comp>
		<comp name=".HNZ" depth="0.0">
			<acc value="0.019736253261366" flag="0"/>
			<vel value="0.0151083825734" flag="0"/>
			<psa03 value="0.0385254349334847" flag="0"/>
			<psa10 value="0.0159599866457941" flag="0"/>
			<psa30 value="0.00637333595223451" flag="0"/>
		</comp>
	</station>
	<station code="GOMA" name="GOMA" netid="KO" source="Bogazici University Kandilli Observatory And Earthquake Research Institute (KOERI)" insttype="" lat="38.7077" lon="27.9175">
		<comp name=".HNE" depth="0.0">
			<acc value="0.005542206161142" flag="0"/>
			<vel value="0.00270940415024" flag="0"/>
			<psa03 value="0.0162094592138038" flag="0"/>
			<psa10 value="0.00196822061933289" flag="0"/>
			<psa30 value="0.000312229928492303" flag="0"/>
		</comp>
		<comp name=".HNN" depth="0.0">
			<acc value="0.0034364929917852" flag="0"/>
			<vel value="0.00178412590416" flag="0"/>
			<psa03 value="0.00988081406064495" flag="0"/>
			<psa10 value="0.00168901052146843" flag="0"/>
			<psa30 value="0.000309269159439042" flag="0"/>
		</comp>
		<comp name=".HNZ" depth="0.0">
			<acc value="0.0028981227861534" flag="0"/>
			<vel value="0.00126118018595" flag="0"/>
			<psa03 value="0.0086915855404965" flag="0"/>
			<psa10 value="0.00091972932599122" flag="0"/>
			<psa30 value="0.00028460734342295" flag="0"/>
		</comp>
	</station>
	<station code="GONE" name="GONE" netid="KO" source="Bogazici University Kandilli Observatory And Earthquake Research Institute (KOERI)" insttype="" lat="40.0466" lon="27.686">
		<comp name=".HNE" depth="0.0">
			<acc value="0.018147979947978" flag="0"/>
			<vel value="0.00758702317059" flag="0"/>
			<psa03 value="0.0466016444220883" flag="0"/>
			<psa10 value="0.00736873095475707" flag="0"/>
			<psa30 value="0.00043500449399605" flag="0"/>
		</comp>
		<comp name=".HNN" depth="0.0">
			<acc value="0.032240115601542" flag="0"/>
			<vel value="0.013580848272" flag="0"/>
			<psa03 value="0.0802473316168391" flag="0"/>
			<psa10 value="0.00898200813897363" flag="0"/>
			<psa30 value="0.000617960259752798" flag="0"/>
		</comp>
		<comp name=".HNZ" depth="0.0">
			<acc value="0.036577708007736" flag="0"/>
			<vel value="0.0127349955796" flag="0"/>
			<psa03 value="0.0515332211145844" flag="0"/>
			<psa10 value="0.00565521197377496" flag="0"/>
			<psa30 value="0.000283923522081747" flag="0"/>
		</comp>
	</station>
	<station code="GORD" name="GORD" netid="KO" source="Bogazici University Kandilli Observatory And Earthquake Research Institute (KOERI)" insttype="" lat="38.9088" lon="28.1769">
		<comp name=".HNE" depth="0.0">
			<acc value="0.0028126619991882" flag="0"/>
			<vel value="0.0017475371211" flag="0"/>
			<psa03 value="0.00750071693776288" flag="0"/>
			<psa10 value="0.00287103245743575" flag="0"/>
			<psa30 value="0.000208767514718938" flag="0"/>
		</comp>
		<comp name=".HNN" depth="0.0">
			<acc value="0.0031895640146352" flag="0"/>
			<vel value="0.00247556512168" flag="0"/>
			<psa03 value="0.00888068270269738" flag="0"/>
			<psa10 value="0.00256793058154737" flag="0"/>
			<psa30 value="0.000216021094191332" flag="0"/>
		</comp>
		<comp name=".HNZ" depth="0.0">
			<acc value="0.0028948058312622" flag="0"/>
			<vel value="0.00187004341044" flag="0"/>
			<psa03 value="0.00819233762404997" flag="0"/>
			<psa10 value="0.00146702710522108" flag="0"/>
			<psa30 value="0.000172404923584457" flag="0"/>
		</comp>
	</station>
	<station code="GPNR" name="GPNR" netid="KO" source="Bogazici University Kandilli Observatory And Earthquake Research Institute (KOERI)" insttype="" lat="39.456" lon="26.1331">
		<comp name=".HNE" depth="0.0">
			<acc value="0.032072761494462" flag="0"/>
			<vel value="0.0146672351819" flag="0"/>
			<psa03 value="0.0976093203052894" flag="0"/>
			<psa10 value="0.00721430463102725" flag="0"/>
			<psa30 value="0.00122826813756906" flag="0"/>
		</comp>
		<comp name=".HNN" depth="0.0">
			<acc value="0.030545561816538" flag="0"/>
			<vel value="0.0156888266796" flag="0"/>
			<psa03 value="0.0829361399456385" flag="0"/>
			<psa10 value="0.00747757113365162" flag="0"/>
			<psa30 value="0.000806847824706486" flag="0"/>
		</comp>
		<comp name=".HNZ" depth="0.0">
			<acc value="0.025018457496834" flag="0"/>
			<vel value="0.0062233857546" flag="0"/>
			<psa03 value="0.0473500325405526" flag="0"/>
			<psa10 value="0.00340529214639419" flag="0"/>
			<psa30 value="0.000880856789938642" flag="0"/>
		</comp>
	</station>
	<station code="HYBA" name="HYBA" netid="KO" source="Bogazici University Kandilli Observatory And Earthquake Research Institute (KOERI)" insttype="" lat="40.8748" lon="29.0861">
		<comp name=".HNE" depth="0.0">
			<acc value="0.019819697368734" flag="0"/>
			<vel value="0.00782810334859" flag="0"/>
			<psa03 value="0.0314501980045899" flag="0"/>
			<psa10 value="0.00230365502771632" flag="0"/>
			<psa30 value="0.000358189275156557" flag="0"/>
		</comp>
		<comp name=".HNN" depth="0.0">
			<acc value="0.02535131730861" flag="0"/>
			<vel value="0.00856131598184" flag="0"/>
			<psa03 value="0.0495776019811352" flag="0"/>
			<psa10 value="0.00592742235015666" flag="0"/>
			<psa30 value="0.00074458297080055" flag="0"/>
		</comp>
		<comp name=".HNZ" depth="0.0">
			<acc value="0.020701388239728" flag="0"/>
			<vel value="0.00749815352387" flag="0"/>
			<psa03 value="0.0333219990855866" flag="0"/>
			<psa10 value="0.00174099974675118" flag="0"/>
			<psa30 value="0.000467266370768856" flag="0"/>
		</comp>
	</station>
	<station code="KAVV" name="KAVV" netid="KO" source="Bogazici University Kandilli Observatory And Earthquake Research Institute (KOERI)" insttype="" lat="41.0638" lon="29.06">
		<comp name=".HNE" depth="0.0">
			<acc value="0.063868474752258" flag="0"/>
			<vel value="0.0153226266936" flag="0"/>
			<psa03 value="0.0613328442498044" flag="0"/>
			<psa10 value="0.00267427778278019" flag="0"/>
			<psa30 value="0.000325673892005222" flag="0"/>
		</comp>
		<comp name=".HNN" depth="0.0">
			<acc value="0.054243122353278" flag="0"/>
			<vel value="0.0152993229855" flag="0"/>
			<psa03 value="0.0502011745398251" flag="0"/>
			<psa10 value="0.00424257589357157" flag="0"/>
			<psa30 value="0.000513310723065559" flag="0"/>
		</comp>
		<comp name=".HNZ" depth="0.0">
			<acc value="0.035959375766034" flag="0"/>
			<vel value="0.00729654012697" flag="0"/>
			<psa03 value="0.0312859501448009" flag="0"/>
			<psa10 value="0.00205395153295868" flag="0"/>
			<psa30 value="0.000361725316693833" flag="0"/>
		</comp>
	</station>
	<station code="KCTX" name="KCTX" netid="KO" source="Bogazici University Kandilli Observatory And Earthquake Research Institute (KOERI)" insttype="" lat="40.2626" lon="28.3353">
		<comp name=".HNE" depth="0.0">
			<acc value="0.10647489511752" flag="0"/>
			<vel value="0.0255963548181" flag="0"/>
			<psa03 value="0.104858342183946" flag="0"/>
			<psa10 value="0.00626083912485414" flag="0"/>
			<psa30 value="0.000808318026269526" flag="0"/>
		</comp>
		<comp name=".HNN" depth="0.0">
			<acc value="0.1435591128966" flag="0"/>
			<vel value="0.0445796079379" flag="0"/>
			<psa03 value="0.211096921635158" flag="0"/>
			<psa10 value="0.0136198860006219" flag="0"/>
			<psa30 value="0.000957073297243108" flag="0"/>
		</comp>
		<comp name=".HNZ" depth="0.0">
			<acc value="0.07328075917182" flag="0"/>
			<vel value="0.0150263980224" flag="0"/>
			<psa03 value="0.0994118876329871" flag="0"/>
			<psa10 value="0.00387057539100015" flag="0"/>
			<psa30 value="0.000613335265867996" flag="0"/>
		</comp>
	</station>
	<station code="KRBG" name="KRBG" netid="KO" source="Bogazici University Kandilli Observatory And Earthquake Research Institute (KOERI)" insttype="" lat="40.3932" lon="27.2977">
		<comp name=".HNE" depth="0.0">
			<acc value="0.21346427367666" flag="0"/>
			<vel value="0.0869509289014" flag="0"/>
			<psa03 value="0.387043181377813" flag="0"/>
			<psa10 value="0.0340608101115031" flag="0"/>
			<psa30 value="0.00338794151783387" flag="0"/>
		</comp>
		<comp name=".HNN" depth="0.0">
			<acc value="0.27287879768754" flag="0"/>
			<vel value="0.122936354921" flag="0"/>
			<psa03 value="0.533343914751565" flag="0"/>
			<psa10 value="0.036081083944747" flag="0"/>
			<psa30 value="0.00351099925313695" flag="0"/>
		</comp>
