<?xml version="1.0" encoding="UTF-8" standalone="yes"?>
<!DOCTYPE earthquake SYSTEM "stationlist.dtd">
<stationlist created="" xmlns="ch.ethz.sed.shakemap.usgs.xml">
  <station code="KLV" name="KLV" netid="MN" insttype="" lat="38.0437" lon="22.1504">
    <comp name="--.HHN">
      <acc value="0.0162294937" flag="0"/>
      <vel value="0.0236087118" flag="0"/>
      <psa03 value="0.0452340827" flag="0"/>
      <psa10 value="0.0296572871" flag="0"/>
      <psa30 value="0.0081065319" flag="0"/>
    </comp>
    <comp name="--.HHE">
      <acc value="0.0158260147" flag="0"/>
      <vel value="0.0208141751" flag="0"/>
      <psa03 value="0.0533987203" flag="0"/>
      <psa10 value="0.0316827600" flag="0"/>
      <psa30 value="0.0099682208" flag="0"/>
    </comp>
  </station>
</stationlist>
