<stationlist created="1631873533">
	<station code="MALA" name="MALA" netid="CL" source="Corinth Riff Laboratory (CRLNET)" insttype="" lat="38.39341" lon="21.87263">
		<comp name="01.HNE" depth="0.0">
			<acc value="0.072787404" flag="0"/>
			<vel value="0.104442" flag="0"/>
			<psa03 value="0.208632909461" flag="0"/>
			<psa10 value="0.2356965754" flag="0"/>
			<psa30 value="0.0295311986343" flag="0"/>
		</comp>
		<comp name="01.HNN" depth="0.0">
			<acc value="-0.102580176" flag="0"/>
			<vel value="-0.107024" flag="0"/>
			<psa03 value="0.220131656562" flag="0"/>
			<psa10 value="0.176615386405" flag="0"/>
			<psa30 value="0.0450164763448" flag="0"/>
		</comp>
		<comp name="01.HNZ" depth="0.0">
			<acc value="-0.037602198" flag="0"/>
			<vel value="-0.0392" flag="0"/>
			<psa03 value="0.0758827824246" flag="0"/>
			<psa10 value="0.0460987903229" flag="0"/>
			<psa30 value="0.0110226900225" flag="0"/>
		</comp>
	</station>
	<station code="ROD3" name="ROD3" netid="CL" source="Corinth Riff Laboratory (CRLNET)" insttype="" lat="38.30811" lon="21.89204">
		<comp name="--.HNE" depth="0.0">
			<acc value="-0.118851522" flag="0"/>
			<vel value="0.075896" flag="0"/>
			<psa03 value="0.312345344402" flag="0"/>
			<psa10 value="0.0770447375305" flag="0"/>
			<psa30 value="0.0157040671009" flag="0"/>
		</comp>
		<comp name="--.HNN" depth="0.0">
			<acc value="0.126932982" flag="0"/>
			<vel value="0.092716" flag="0"/>
			<psa03 value="0.396997599324" flag="0"/>
			<psa10 value="0.131539402925" flag="0"/>
			<psa30 value="0.0126736774467" flag="0"/>
		</comp>
		<comp name="--.HNZ" depth="0.0">
			<acc value="-0.041313672" flag="0"/>
			<vel value="0.039008" flag="0"/>
			<psa03 value="0.112392423025" flag="0"/>
			<psa10 value="0.053298706212" flag="0"/>
			<psa30 value="0.0101775097395" flag="0"/>
		</comp>
	</station>
	<station code="AIGS" name="AIGS" netid="HA" source="Hellenic Seismological Network, University of Athens, Seismological Laboratory (HA)" insttype="" lat="38.25001" lon="22.0878">
		<comp name="--.HNE" depth="0.0">
			<acc value="-0.04604739" flag="0"/>
			<vel value="0.064779" flag="0"/>
			<psa03 value="0.131363118631" flag="0"/>
			<psa10 value="0.0730904213095" flag="0"/>
			<psa30 value="0.0226556637432" flag="0"/>
		</comp>
		<comp name="--.HNN" depth="0.0">
			<acc value="-0.034131342" flag="0"/>
			<vel value="0.045995" flag="0"/>
			<psa03 value="0.0909609060549" flag="0"/>
			<psa10 value="0.0465135505783" flag="0"/>
			<psa30 value="0.0105560288074" flag="0"/>
		</comp>
		<comp name="--.HNZ" depth="0.0">
			<acc value="0.029736876" flag="0"/>
			<vel value="-0.036811" flag="0"/>
			<psa03 value="0.0643840353237" flag="0"/>
			<psa10 value="0.0522034169939" flag="0"/>
			<psa30 value="0.0147832724887" flag="0"/>
		</comp>
	</station>
	<station code="XLKS" name="XLKS" netid="HA" source="Hellenic Seismological Network, University of Athens, Seismological Laboratory (HA)" insttype="" lat="38.0772" lon="22.6361">
		<comp name="--.HNE" depth="0.0">
			<acc value="-0.08661279" flag="0"/>
			<vel value="0.094907" flag="0"/>
			<psa03 value="0.157492567296" flag="0"/>
			<psa10 value="0.182740147069" flag="0"/>
			<psa30 value="0.0292622979725" flag="0"/>
		</comp>
		<comp name="--.HNN" depth="0.0">
			<acc value="0.074564754" flag="0"/>
			<vel value="0.100974" flag="0"/>
			<psa03 value="0.15373422194" flag="0"/>
			<psa10 value="0.203228498324" flag="0"/>
			<psa30 value="0.0218400133166" flag="0"/>
		</comp>
		<comp name="--.HNZ" depth="0.0">
			<acc value="0.04245903" flag="0"/>
			<vel value="-0.051553" flag="0"/>
			<psa03 value="0.135658370467" flag="0"/>
			<psa10 value="0.0896405635376" flag="0"/>
			<psa30 value="0.01026207251" flag="0"/>
		</comp>
	</station>
	<station code="PYL1" name="PYL1" netid="HI" source="ITSAK Strong Motion Network" insttype="" lat="36.914188" lon="21.695161">
		<comp name="--.HNE" depth="0.0">
			<acc value="0.0785349" flag="0"/>
			<vel value="-0.064294" flag="0"/>
			<psa03 value="0.235433491225" flag="0"/>
			<psa10 value="0.0875748158581" flag="0"/>
			<psa30 value="0.0102191199916" flag="0"/>
		</comp>
		<comp name="--.HNN" depth="0.0">
			<acc value="-0.05414262" flag="0"/>
			<vel value="0.05452" flag="0"/>
			<psa03 value="0.160848232793" flag="0"/>
			<psa10 value="0.0959183425483" flag="0"/>
			<psa30 value="0.0147166066009" flag="0"/>
		</comp>
		<comp name="--.HNZ" depth="0.0">
			<acc value="0.033659694" flag="0"/>
			<vel value="0.025711" flag="0"/>
			<psa03 value="0.0929743053528" flag="0"/>
			<psa10 value="0.0389753836072" flag="0"/>
			<psa30 value="0.00581067037351" flag="0"/>
		</comp>
	</station>
	<station code="PYL" name="PYL" netid="HP" source="University of Patras, Seismological Laboratory (PSLNET)" insttype="" lat="36.8955" lon="21.742">
		<comp name="--.HNE" depth="0.0">
			<acc value="0.082591746" flag="0"/>
			<vel value="-0.064912" flag="0"/>
			<psa03 value="0.272703749338" flag="0"/>
			<psa10 value="0.0818768958452" flag="0"/>
			<psa30 value="0.00960257238441" flag="0"/>
		</comp>
		<comp name="--.HNN" depth="0.0">
			<acc value="0.070693548" flag="0"/>
			<vel value="0.058724" flag="0"/>
			<psa03 value="0.173286566233" flag="0"/>
			<psa10 value="0.0807534190371" flag="0"/>
			<psa30 value="0.0135389917227" flag="0"/>
		</comp>
		<comp name="--.HNZ" depth="0.0">
			<acc value="-0.037732656" flag="0"/>
			<vel value="0.028602" flag="0"/>
			<psa03 value="0.0958378065763" flag="0"/>
			<psa10 value="0.029596969678" flag="0"/>
			<psa30 value="0.00611268026819" flag="0"/>
		</comp>
	</station>
</stationlist>
