<?xml version="1.0" encoding="UTF-8" standalone="yes"?>
<!DOCTYPE earthquake SYSTEM "stationlist.dtd">
<stationlist created="" xmlns="ch.ethz.sed.shakemap.usgs.xml">
  <station code="THERA" name="THERA" netid="GE" insttype="STS-2/N" lat="36.367" lon="25.4753">
    <comp name="--.HHE">
      <acc value="0.2010602236" flag="0"/>
      <vel value="0.0649478122" flag="0"/>
      <psa03 value="0.1525423404" flag="0"/>
      <psa10 value="0.0242939595" flag="0"/>
      <psa30 value="0.0022541550" flag="0"/>
    </comp>
    <comp name="--.HHN">
      <acc value="0.1020029432" flag="0"/>
      <vel value="0.0254233776" flag="0"/>
      <psa03 value="0.1267983695" flag="0"/>
      <psa10 value="0.0112369403" flag="0"/>
      <psa30 value="0.0011310771" flag="0"/>
    </comp>
    <comp name="--.HHZ">
      <acc value="0.0805050444" flag="0"/>
      <vel value="0.0264826164" flag="0"/>
      <psa03 value="0.1145207249" flag="0"/>
      <psa10 value="0.0176315969" flag="0"/>
      <psa30 value="0.0018128336" flag="0"/>
    </comp>
  </station>
  <station code="ZKR" name="ZKR" netid="GE" insttype="STS-2/N" lat="35.1147" lon="26.2169">
    <comp name="--.HHE">
      <acc value="0.1031010614" flag="0"/>
      <vel value="0.0754318539" flag="0"/>
      <psa03 value="0.2603179333" flag="0"/>
      <psa10 value="0.0497061518" flag="0"/>
      <psa30 value="0.0022543241" flag="0"/>
    </comp>
    <comp name="--.HHN">
      <acc value="0.0363404902" flag="0"/>
      <vel value="0.0151985756" flag="0"/>
      <psa03 value="0.0849586347" flag="0"/>
      <psa10 value="0.0166206811" flag="0"/>
      <psa30 value="0.0008640649" flag="0"/>
    </comp>
    <comp name="--.HHZ">
      <acc value="0.0593758815" flag="0"/>
      <vel value="0.0243477520" flag="0"/>
      <psa03 value="0.0803172069" flag="0"/>
      <psa10 value="0.0181547587" flag="0"/>
      <psa30 value="0.0012096730" flag="0"/>
    </comp>
  </station>
  <station code="IDI" name="IDI" netid="MN" insttype="" lat="35.288" lon="24.89">
    <comp name="--.HHZ">
      <acc value="0.1009437506" flag="0"/>
      <vel value="0.0333737175" flag="0"/>
      <psa03 value="0.1830930787" flag="0"/>
      <psa10 value="0.0226045673" flag="0"/>
      <psa30 value="0.0015500960" flag="0"/>
    </comp>
    <comp name="--.HHE">
      <acc value="0.1711515308" flag="0"/>
      <vel value="0.0466534706" flag="0"/>
      <psa03 value="0.2247230182" flag="0"/>
      <psa10 value="0.0252793091" flag="0"/>
      <psa30 value="0.0015937555" flag="0"/>
    </comp>
    <comp name="--.HHN">
      <acc value="0.1778850101" flag="0"/>
      <vel value="0.0574275077" flag="0"/>
      <psa03 value="0.3194844677" flag="0"/>
      <psa10 value="0.0300511678" flag="0"/>
      <psa30 value="0.0021362416" flag="0"/>
    </comp>
  </station>
</stationlist>
