<?xml version="1.0" encoding="UTF-8" standalone="yes"?>
<!DOCTYPE earthquake SYSTEM "stationlist.dtd">
<stationlist created="" xmlns="ch.ethz.sed.shakemap.usgs.xml">
  <station code="THERA" name="THERA" netid="GE" insttype="STS-2/N" lat="36.367" lon="25.4753">
    <comp name="--.HHE">
      <acc value="0.2010602236" flag="0"/>
      <vel value="0.0649478122" flag="0"/>
      <psa03 value="0.1525423404" flag="0"/>
      <psa10 value="0.0242939595" flag="0"/>
      <psa30 value="0.0022541550" flag="0"/>
    </comp>
    <comp name="--.HHN">
      <acc value="0.1020029432" flag="0"/>
      <vel value="0.0254233776" flag="0"/>
      <psa03 value="0.1267983695" flag="0"/>
      <psa10 value="0.0112369403" flag="0"/>
      <psa30 value="0.0011310771" flag="0"/>
    </comp>
    <comp name="--.HHZ">
      <acc value="0.0805050444" flag="0"/>
      <vel value="0.0264826164" flag="0"/>
      <psa03 value="0.1145207249" flag="0"/>
      <psa10 value="0.0176315969" flag="0"/>
      <psa30 value="0.0018128336" flag="0"/>
    </comp>
  </station>
  <station code="ZKR" name="ZKR" netid="GE" insttype="STS-2/N" lat="35.1147" lon="26.2169">
    <comp name="--.HHE">
      <acc value="0.1031010614" flag="0"/>
      <vel value="0.0754318539" flag="0"/>
      <psa03 value="0.2603179333" flag="0"/>
      <psa10 value="0.0497061518" flag="0"/>
      <psa30 value="0.0022543241" flag="0"/>
    </comp>
    <comp name="--.HHN">
      <acc value="0.0363404902" flag="0"/>
      <vel value="0.0151985756" flag="0"/>
      <psa03 value="0.0849586347" flag="0"/>
      <psa10 value="0.0166206811" flag="0"/>
      <psa30 value="0.0008640649" flag="0"/>
    </comp>
    <comp name="--.HHZ">
      <acc value="0.0593758815" flag="0"/>
      <vel value="0.0243477520" flag="0"/>
      <psa03 value="0.0803172069" flag="0"/>
      <psa10 value="0.0181547587" flag="0"/>
      <psa30 value="0.0012096730" flag="0"/>
    </comp>
  </station>
  <station code="CHAN" name="CHAN" netid="HC" insttype="120" lat="35.5193" lon="24.0428">
    <comp name="--.HHN">
      <acc value="0.0707651480" flag="0"/>
      <vel value="0.0371275236" flag="0"/>
      <psa03 value="0.1738718551" flag="0"/>
      <psa10 value="0.0455767777" flag="0"/>
      <psa30 value="0.0027190408" flag="0"/>
    </comp>
    <comp name="--.HHE">
      <acc value="0.0684485656" flag="0"/>
      <vel value="0.0411501208" flag="0"/>
      <psa03 value="0.2049497173" flag="0"/>
      <psa10 value="0.0590058146" flag="0"/>
      <psa30 value="0.0032995838" flag="0"/>
    </comp>
    <comp name="--.HHZ">
      <acc value="0.0496086612" flag="0"/>
      <vel value="0.0292598180" flag="0"/>
      <psa03 value="0.1357427960" flag="0"/>
      <psa10 value="0.0287955755" flag="0"/>
      <psa30 value="0.0024802921" flag="0"/>
    </comp>
  </station>
  <station code="IPPL" name="IPPL" netid="HC" insttype="60" lat="35.3486" lon="24.4632">
    <comp name="--.HHE">
      <acc value="0.0000000000" flag="0"/>
      <vel value="-100.0000000000" flag="0"/>
      <psa03 value="0.0000000000" flag="0"/>
      <psa10 value="0.0000000000" flag="0"/>
      <psa30 value="0.0000000000" flag="0"/>
    </comp>
    <comp name="--.HHN">
      <acc value="0.0000000000" flag="0"/>
      <vel value="-100.0000000000" flag="0"/>
      <psa03 value="0.0000000000" flag="0"/>
      <psa10 value="0.0000000000" flag="0"/>
      <psa30 value="0.0000000000" flag="0"/>
    </comp>
    <comp name="--.HHZ">
      <acc value="0.0689784190" flag="0"/>
      <vel value="0.0286488763" flag="0"/>
      <psa03 value="0.2466922644" flag="0"/>
      <psa10 value="0.0327132830" flag="0"/>
      <psa30 value="0.0021450347" flag="0"/>
    </comp>
  </station>
  <station code="KNSS" name="KNSS" netid="HC" insttype="60" lat="35.3042" lon="25.1802">
    <comp name="--.HHZ">
      <acc value="0.1353613624" flag="0"/>
      <vel value="0.0511334457" flag="0"/>
      <psa03 value="0.2691397176" flag="0"/>
      <psa10 value="0.0325411382" flag="0"/>
      <psa30 value="0.0019514810" flag="0"/>
    </comp>
    <comp name="--.HHE">
      <acc value="0.1743748705" flag="0"/>
      <vel value="0.0694293421" flag="0"/>
      <psa03 value="0.4788540485" flag="0"/>
      <psa10 value="0.0411350938" flag="0"/>
      <psa30 value="0.0027422082" flag="0"/>
    </comp>
    <comp name="--.HHN">
      <acc value="0.1624221763" flag="0"/>
      <vel value="0.0682793598" flag="0"/>
      <psa03 value="0.5144970218" flag="0"/>
      <psa10 value="0.0346084130" flag="0"/>
      <psa30 value="0.0021530243" flag="0"/>
    </comp>
  </station>
  <station code="PFKS" name="PFKS" netid="HC" insttype="120" lat="35.0429" lon="25.4733">
    <comp name="--.HHE">
      <acc value="0.1883494523" flag="0"/>
      <vel value="0.0537332072" flag="0"/>
      <psa03 value="0.3622542089" flag="0"/>
      <psa10 value="0.0244138472" flag="0"/>
      <psa30 value="0.0017699129" flag="0"/>
    </comp>
    <comp name="--.HHN">
      <acc value="0.2324161005" flag="0"/>
      <vel value="0.0496920494" flag="0"/>
      <psa03 value="0.3624200031" flag="0"/>
      <psa10 value="0.0297053419" flag="0"/>
      <psa30 value="0.0019408619" flag="0"/>
    </comp>
    <comp name="--.HHZ">
      <acc value="0.1386706859" flag="0"/>
      <vel value="0.0413990560" flag="0"/>
      <psa03 value="0.1169234011" flag="0"/>
      <psa10 value="0.0208651406" flag="0"/>
      <psa30 value="0.0015657833" flag="0"/>
    </comp>
  </station>
  <station code="STIA" name="STIA" netid="HC" insttype="120" lat="35.2021" lon="26.0909">
    <comp name="--.HHZ">
      <acc value="0.1341794471" flag="0"/>
      <vel value="0.0327086019" flag="0"/>
      <psa03 value="0.1604829526" flag="0"/>
      <psa10 value="0.0162210435" flag="0"/>
      <psa30 value="0.0014287534" flag="0"/>
    </comp>
    <comp name="--.HHN">
      <acc value="0.0000000000" flag="0"/>
      <vel value="-100.0000000000" flag="0"/>
      <psa03 value="0.0000000000" flag="0"/>
      <psa10 value="0.0000000000" flag="0"/>
      <psa30 value="0.0000000000" flag="0"/>
    </comp>
    <comp name="--.HHE">
      <acc value="0.0993087647" flag="0"/>
      <vel value="0.0366303877" flag="0"/>
      <psa03 value="0.1347376130" flag="0"/>
      <psa10 value="0.0396903864" flag="0"/>
      <psa30 value="0.0029228321" flag="0"/>
    </comp>
  </station>
  <station code="KSS1" name="KSS1" netid="HI" insttype="CMG-5TD,ACCELEROMETER,GURALP" lat="35.4189" lon="26.9207">
    <comp name="--.HNE">
      <acc value="0.0418673913" flag="0"/>
      <vel value="0.0134863807" flag="0"/>
      <psa03 value="0.0687233509" flag="0"/>
      <psa10 value="0.0122119296" flag="0"/>
      <psa30 value="0.0011250209" flag="0"/>
    </comp>
    <comp name="--.HNN">
      <acc value="0.0442422803" flag="0"/>
      <vel value="0.0179104123" flag="0"/>
      <psa03 value="0.0780719804" flag="0"/>
      <psa10 value="0.0204102133" flag="0"/>
      <psa30 value="0.0013947549" flag="0"/>
    </comp>
    <comp name="--.HNZ">
      <acc value="0.0236923528" flag="0"/>
      <vel value="0.0068832373" flag="0"/>
      <psa03 value="0.0170406186" flag="0"/>
      <psa10 value="0.0077101985" flag="0"/>
      <psa30 value="0.0007480218" flag="0"/>
    </comp>
  </station>
  <station code="IACM" name="IACM" netid="HL" insttype="120" lat="35.3058" lon="25.0709">
    <comp name="--.HHZ">
      <acc value="0.4950343790" flag="0"/>
      <vel value="0.1915246044" flag="0"/>
      <psa03 value="0.7146392612" flag="0"/>
      <psa10 value="0.1177922039" flag="0"/>
      <psa30 value="0.0057295051" flag="0"/>
    </comp>
    <comp name="--.HHN">
      <acc value="0.6395076341" flag="0"/>
      <vel value="0.3681682520" flag="0"/>
      <psa03 value="1.9524945378" flag="0"/>
      <psa10 value="0.2372749143" flag="0"/>
      <psa30 value="0.0103856541" flag="0"/>
    </comp>
    <comp name="--.HHE">
      <acc value="0.5986777770" flag="0"/>
      <vel value="0.2484648650" flag="0"/>
      <psa03 value="1.8226103924" flag="0"/>
      <psa10 value="0.2636304465" flag="0"/>
      <psa30 value="0.0169452878" flag="0"/>
    </comp>
  </station>
  <station code="IDI" name="IDI" netid="HL" insttype="120" lat="35.288" lon="24.89">
    <comp name="--.HHE">
      <acc value="0.1605547276" flag="0"/>
      <vel value="0.0455541592" flag="0"/>
      <psa03 value="0.2220358407" flag="0"/>
      <psa10 value="0.0253345537" flag="0"/>
      <psa30 value="0.0016027751" flag="0"/>
    </comp>
    <comp name="--.HHN">
      <acc value="0.1716314443" flag="0"/>
      <vel value="0.0563155404" flag="0"/>
      <psa03 value="0.3157127766" flag="0"/>
      <psa10 value="0.0301622176" flag="0"/>
      <psa30 value="0.0021310836" flag="0"/>
    </comp>
    <comp name="--.HHZ">
      <acc value="0.0987985005" flag="0"/>
      <vel value="0.0331358225" flag="0"/>
      <psa03 value="0.1822039215" flag="0"/>
      <psa10 value="0.0227435257" flag="0"/>
      <psa30 value="0.0015561467" flag="0"/>
    </comp>
  </station>
  <station code="SIVA" name="SIVA" netid="HL" insttype="60" lat="35.0178" lon="24.812">
    <comp name="--.HHZ">
      <acc value="0.1110794295" flag="0"/>
      <vel value="0.0700807482" flag="0"/>
      <psa03 value="0.3513494000" flag="0"/>
      <psa10 value="0.0365097376" flag="0"/>
      <psa30 value="0.0025452957" flag="0"/>
    </comp>
    <comp name="--.HHE">
      <acc value="0.2137023665" flag="0"/>
      <vel value="0.1559995037" flag="0"/>
      <psa03 value="0.6208051269" flag="0"/>
      <psa10 value="0.0949269344" flag="0"/>
      <psa30 value="0.0061014484" flag="0"/>
    </comp>
    <comp name="--.HHN">
      <acc value="0.1647644517" flag="0"/>
      <vel value="0.1279758170" flag="0"/>
      <psa03 value="0.3870417741" flag="0"/>
      <psa10 value="0.0724442839" flag="0"/>
      <psa30 value="0.0044047880" flag="0"/>
    </comp>
  </station>
  <station code="THERA" name="THERA" netid="HL" insttype="120" lat="36.367" lon="25.4753">
    <comp name="--.HHN">
      <acc value="0.0992012969" flag="0"/>
      <vel value="0.0250517819" flag="0"/>
      <psa03 value="0.1232638288" flag="0"/>
      <psa10 value="0.0110984899" flag="0"/>
      <psa30 value="0.0011163757" flag="0"/>
    </comp>
    <comp name="--.HHE">
      <acc value="0.1950952665" flag="0"/>
      <vel value="0.0633994330" flag="0"/>
      <psa03 value="0.1489165309" flag="0"/>
      <psa10 value="0.0238472088" flag="0"/>
      <psa30 value="0.0022270858" flag="0"/>
    </comp>
    <comp name="--.HHZ">
      <acc value="0.0781747731" flag="0"/>
      <vel value="0.0259521292" flag="0"/>
      <psa03 value="0.1109467757" flag="0"/>
      <psa10 value="0.0174998940" flag="0"/>
      <psa30 value="0.0018095922" flag="0"/>
    </comp>
  </station>
  <station code="THRA" name="THRA" netid="HL" insttype="CMG-5" lat="36.415" lon="25.4324">
    <comp name="00.HNE">
      <acc value="0.2148750913" flag="0"/>
      <vel value="0.1092532592" flag="0"/>
      <psa03 value="0.5698708547" flag="0"/>
      <psa10 value="0.1966012444" flag="0"/>
      <psa30 value="0.0102694772" flag="0"/>
    </comp>
    <comp name="00.HNN">
      <acc value="0.2825300543" flag="0"/>
      <vel value="0.1258807606" flag="0"/>
      <psa03 value="0.5805322105" flag="0"/>
      <psa10 value="0.1228025126" flag="0"/>
      <psa30 value="0.0066378306" flag="0"/>
    </comp>
    <comp name="00.HNZ">
      <acc value="0.2319849827" flag="0"/>
      <vel value="0.1041341159" flag="0"/>
      <psa03 value="0.4850576376" flag="0"/>
      <psa10 value="0.0406889972" flag="0"/>
      <psa30 value="0.0047469068" flag="0"/>
    </comp>
  </station>
  <station code="VAM" name="VAM" netid="HL" insttype="CMG3ESPC-120s" lat="35.407" lon="24.1997">
    <comp name="--.HHN">
      <acc value="0.0749032655" flag="0"/>
      <vel value="0.0308069631" flag="0"/>
      <psa03 value="0.2069789843" flag="0"/>
      <psa10 value="0.0235506197" flag="0"/>
      <psa30 value="0.0023370245" flag="0"/>
    </comp>
    <comp name="--.HHE">
      <acc value="0.0666656151" flag="0"/>
      <vel value="0.0221584419" flag="0"/>
      <psa03 value="0.1322745578" flag="0"/>
      <psa10 value="0.0218123110" flag="0"/>
      <psa30 value="0.0015392384" flag="0"/>
    </comp>
    <comp name="--.HHZ">
      <acc value="0.0339804405" flag="0"/>
      <vel value="0.0152609279" flag="0"/>
      <psa03 value="0.0555545331" flag="0"/>
      <psa10 value="0.0138974001" flag="0"/>
      <psa30 value="0.0008459958" flag="0"/>
    </comp>
  </station>
  <station code="ZKR" name="ZKR" netid="HL" insttype="120" lat="35.1147" lon="26.2169">
    <comp name="--.HHZ">
      <acc value="0.0595559955" flag="0"/>
      <vel value="0.0237816357" flag="0"/>
      <psa03 value="0.0780413769" flag="0"/>
      <psa10 value="0.0180178876" flag="0"/>
      <psa30 value="0.0012082448" flag="0"/>
    </comp>
    <comp name="--.HHN">
      <acc value="0.0356670693" flag="0"/>
      <vel value="0.0149764667" flag="0"/>
      <psa03 value="0.0825470716" flag="0"/>
      <psa10 value="0.0165447675" flag="0"/>
      <psa30 value="0.0008561172" flag="0"/>
    </comp>
    <comp name="--.HHE">
      <acc value="0.1001082098" flag="0"/>
      <vel value="0.0739709967" flag="0"/>
      <psa03 value="0.2524895204" flag="0"/>
      <psa10 value="0.0493809970" flag="0"/>
      <psa30 value="0.0022400200" flag="0"/>
    </comp>
  </station>
  <station code="CMBO" name="CMBO" netid="HT" insttype="120P," lat="36.4709" lon="25.4056">
    <comp name="--.HHZ">
      <acc value="0.2389791396" flag="0"/>
      <vel value="0.0867938486" flag="0"/>
      <psa03 value="0.5070531941" flag="0"/>
      <psa10 value="0.0449984920" flag="0"/>
      <psa30 value="0.0053865164" flag="0"/>
    </comp>
    <comp name="--.HHE">
      <acc value="0.2235922807" flag="0"/>
      <vel value="0.1288693096" flag="0"/>
      <psa03 value="0.4112238440" flag="0"/>
      <psa10 value="0.1084748491" flag="0"/>
      <psa30 value="0.0072280886" flag="0"/>
    </comp>
    <comp name="--.HHN">
      <acc value="0.2178344850" flag="0"/>
      <vel value="0.1499604005" flag="0"/>
      <psa03 value="0.4169361589" flag="0"/>
      <psa10 value="0.1146015210" flag="0"/>
      <psa30 value="0.0062274976" flag="0"/>
    </comp>
  </station>
  <station code="IDI" name="IDI" netid="MN" insttype="" lat="35.288" lon="24.89">
    <comp name="--.HHZ">
      <acc value="0.1009437506" flag="0"/>
      <vel value="0.0333737175" flag="0"/>
      <psa03 value="0.1830930787" flag="0"/>
      <psa10 value="0.0226045673" flag="0"/>
      <psa30 value="0.0015500960" flag="0"/>
    </comp>
    <comp name="--.HHE">
      <acc value="0.1711515308" flag="0"/>
      <vel value="0.0466534706" flag="0"/>
      <psa03 value="0.2247230182" flag="0"/>
      <psa10 value="0.0252793091" flag="0"/>
      <psa30 value="0.0015937555" flag="0"/>
    </comp>
    <comp name="--.HHN">
      <acc value="0.1778850101" flag="0"/>
      <vel value="0.0574275077" flag="0"/>
      <psa03 value="0.3194844677" flag="0"/>
      <psa10 value="0.0300511678" flag="0"/>
      <psa30 value="0.0021362416" flag="0"/>
    </comp>
  </station>
</stationlist>
