<stationlist created="1778069394">
	<station code="IMMV" name="IMMV" netid="GE" source="GEOFON" insttype="" lat="35.4606" lon="23.9811">
		<comp name="--.HNE" depth="0.0">
			<acc value="0.00315340697422687" flag="0"/>
			<vel value="0.00240462177892928" flag="0"/>
			<psa03 value="0.00939586338983707" flag="0"/>
			<psa10 value="0.00565362522828482" flag="0"/>
			<psa30 value="0.000374044847328752" flag="0"/>
		</comp>
		<comp name="--.HNN" depth="0.0">
			<acc value="0.00303416172326828" flag="0"/>
			<vel value="0.00272708797142264" flag="0"/>
			<psa03 value="0.00993276986925633" flag="0"/>
			<psa10 value="0.00477175633583868" flag="0"/>
			<psa30 value="0.000395968528571705" flag="0"/>
		</comp>
		<comp name="--.HNZ" depth="0.0">
			<acc value="0.0018408959719941" flag="0"/>
			<vel value="0.00154806511533291" flag="0"/>
			<psa03 value="0.0079193705714341" flag="0"/>
			<psa10 value="0.00276641063520774" flag="0"/>
			<psa30 value="0.000214762591767704" flag="0"/>
		</comp>
	</station>
	<station code="IMMV" name="IMMV" netid="HL" source="National Observatory of Athens Seismic Network" insttype="" lat="35.4606" lon="23.9811">
		<comp name="--.HNE" depth="0.0">
			<acc value="0.00308955896279827" flag="0"/>
			<vel value="0.00242797363067865" flag="0"/>
			<psa03 value="0.00921689456336398" flag="0"/>
			<psa10 value="0.00555295526339371" flag="0"/>
			<psa30 value="0.000397310794770253" flag="0"/>
		</comp>
		<comp name="--.HNN" depth="0.0">
			<acc value="0.00296376276935957" flag="0"/>
			<vel value="0.00283693521548269" flag="0"/>
			<psa03 value="0.00975380104278324" flag="0"/>
			<psa10 value="0.00467511316954322" flag="0"/>
			<psa30 value="0.000431762293866322" flag="0"/>
		</comp>
		<comp name="--.HNZ" depth="0.0">
			<acc value="0.00179674619726015" flag="0"/>
			<vel value="0.00150811034426791" flag="0"/>
			<psa03 value="0.00778514395157929" flag="0"/>
			<psa10 value="0.00271003545486872" flag="0"/>
			<psa30 value="0.000236238850944475" flag="0"/>
		</comp>
	</station>
</stationlist>
