<?xml version="1.0" encoding="UTF-8" standalone="yes"?>
<!DOCTYPE earthquake SYSTEM "stationlist.dtd">
<stationlist created="" xmlns="ch.ethz.sed.shakemap.usgs.xml">
  <station code="SIT2" name="SIT2" netid="HI" insttype="CMG-5TD,ACCELEROMETER,GURALP" lat="35.2059" lon="26.107">
    <comp name="--.HNE">
      <acc value="0.0350109194" flag="0"/>
      <vel value="0.0265650019" flag="0"/>
      <psa03 value="0.0745385997" flag="0"/>
      <psa10 value="0.0221402599" flag="0"/>
      <psa30 value="0.0018009879" flag="0"/>
    </comp>
    <comp name="--.HNN">
      <acc value="0.0247197127" flag="0"/>
      <vel value="0.0192801985" flag="0"/>
      <psa03 value="0.0811383608" flag="0"/>
      <psa10 value="0.0279500654" flag="0"/>
      <psa30 value="0.0012673397" flag="0"/>
    </comp>
    <comp name="--.HNZ">
      <acc value="0.0079333483" flag="0"/>
      <vel value="0.0047905147" flag="0"/>
      <psa03 value="0.0251806720" flag="0"/>
      <psa10 value="0.0056874246" flag="0"/>
      <psa30 value="0.0005142511" flag="0"/>
    </comp>
  </station>
</stationlist>
