<?xml version="1.0" encoding="UTF-8" standalone="yes"?>
<!DOCTYPE earthquake SYSTEM "stationlist.dtd">
<stationlist created="" xmlns="ch.ethz.sed.shakemap.usgs.xml">
  <station code="PSAM" name="PSAM" netid="CL" insttype="CMG40-T" lat="38.3218" lon="22.1842">
    <comp name="00.HHE">
      <acc value="0.0091042742" flag="0"/>
      <vel value="0.0031955707" flag="0"/>
      <psa03 value="0.0162119131" flag="0"/>
      <psa10 value="0.0036167702" flag="0"/>
      <psa30 value="0.0002544550" flag="0"/>
    </comp>
    <comp name="00.HHZ">
      <acc value="0.0072661451" flag="0"/>
      <vel value="0.0017672426" flag="0"/>
      <psa03 value="0.0083055363" flag="0"/>
      <psa10 value="0.0024118458" flag="0"/>
      <psa30 value="0.0001071461" flag="0"/>
    </comp>
    <comp name="00.HHN">
      <acc value="0.0085110632" flag="0"/>
      <vel value="0.0025380332" flag="0"/>
      <psa03 value="0.0098961069" flag="0"/>
      <psa10 value="0.0036846778" flag="0"/>
      <psa30 value="0.0002157839" flag="0"/>
    </comp>
  </station>
  <station code="ROD3" name="ROD3" netid="CL" insttype="CMG40-T" lat="38.3081" lon="21.892">
    <comp name="00.HHE">
      <acc value="0.0291263954" flag="0"/>
      <vel value="0.0104316203" flag="0"/>
      <psa03 value="0.0675474224" flag="0"/>
      <psa10 value="0.0054333980" flag="0"/>
      <psa30 value="0.0003394917" flag="0"/>
    </comp>
    <comp name="00.HHZ">
      <acc value="0.0135805433" flag="0"/>
      <vel value="0.0042731348" flag="0"/>
      <psa03 value="0.0208140651" flag="0"/>
      <psa10 value="0.0036513426" flag="0"/>
      <psa30 value="0.0001535976" flag="0"/>
    </comp>
    <comp name="00.HHN">
      <acc value="0.0263557054" flag="0"/>
      <vel value="0.0101826533" flag="0"/>
      <psa03 value="0.0628237437" flag="0"/>
      <psa10 value="0.0049148298" flag="0"/>
      <psa30 value="0.0003327297" flag="0"/>
    </comp>
  </station>
  <station code="TRIZ" name="TRIZ" netid="CL" insttype="STS-2" lat="38.3654" lon="22.0727">
    <comp name="00.HHZ">
      <acc value="0.0267694743" flag="0"/>
      <vel value="0.0068151559" flag="0"/>
      <psa03 value="0.0242327613" flag="0"/>
      <psa10 value="0.0032824433" flag="0"/>
      <psa30 value="0.0001506744" flag="0"/>
    </comp>
    <comp name="00.HH2">
      <acc value="0.0171900125" flag="0"/>
      <vel value="0.0082488684" flag="0"/>
      <psa03 value="0.0359795011" flag="0"/>
      <psa10 value="0.0046936525" flag="0"/>
      <psa30 value="0.0002604322" flag="0"/>
    </comp>
    <comp name="00.HH3">
      <acc value="0.0170770910" flag="0"/>
      <vel value="0.0100763664" flag="0"/>
      <psa03 value="0.0626600409" flag="0"/>
      <psa10 value="0.0054651382" flag="0"/>
      <psa30 value="0.0003713531" flag="0"/>
    </comp>
  </station>
  <station code="ZIRI" name="ZIRI" netid="CL" insttype="TRILLIUM-40" lat="38.3051" lon="21.9476">
    <comp name="01.HHE">
      <acc value="0.0263684436" flag="0"/>
      <vel value="0.0095789885" flag="0"/>
      <psa03 value="0.0747444328" flag="0"/>
      <psa10 value="0.0036572199" flag="0"/>
      <psa30 value="0.0003202230" flag="0"/>
    </comp>
    <comp name="01.HHN">
      <acc value="0.0245640055" flag="0"/>
      <vel value="0.0080867399" flag="0"/>
      <psa03 value="0.0678989623" flag="0"/>
      <psa10 value="0.0063059453" flag="0"/>
      <psa30 value="0.0003082994" flag="0"/>
    </comp>
    <comp name="01.HHZ">
      <acc value="0.0221440954" flag="0"/>
      <vel value="0.0064148422" flag="0"/>
      <psa03 value="0.0555368376" flag="0"/>
      <psa10 value="0.0023270300" flag="0"/>
      <psa30 value="0.0001399695" flag="0"/>
    </comp>
  </station>
  <station code="THL" name="THL" netid="MN" insttype="" lat="39.5647" lon="22.0144">
    <comp name="--.HHE">
      <acc value="0.0178401454" flag="0"/>
      <vel value="0.0105727950" flag="0"/>
      <psa03 value="0.0313360902" flag="0"/>
      <psa10 value="0.0086654145" flag="0"/>
      <psa30 value="0.0007424210" flag="0"/>
    </comp>
    <comp name="--.HHN">
      <acc value="0.0277654555" flag="0"/>
      <vel value="0.0075292952" flag="0"/>
      <psa03 value="0.0373454789" flag="0"/>
      <psa10 value="0.0024630581" flag="0"/>
      <psa30 value="0.0002909094" flag="0"/>
    </comp>
    <comp name="--.HHZ">
      <acc value="0.0221065083" flag="0"/>
      <vel value="0.0038037428" flag="0"/>
      <psa03 value="0.0183575629" flag="0"/>
      <psa10 value="0.0026570647" flag="0"/>
      <psa30 value="0.0002652060" flag="0"/>
    </comp>
  </station>
</stationlist>
