<?xml version="1.0" encoding="UTF-8" standalone="yes"?>
<!DOCTYPE earthquake SYSTEM "stationlist.dtd">
<stationlist created="" xmlns="ch.ethz.sed.shakemap.usgs.xml">
  <station code="PSAM" name="PSAM" netid="CL" insttype="CMG40-T" lat="38.3218" lon="22.1842">
    <comp name="00.HHZ">
      <acc value="0.0072661450" flag="0"/>
      <vel value="0.0017672432" flag="0"/>
      <psa03 value="0.0083055363" flag="0"/>
      <psa10 value="0.0024118458" flag="0"/>
      <psa30 value="0.0001071145" flag="0"/>
    </comp>
    <comp name="00.HHE">
      <acc value="0.0091042746" flag="0"/>
      <vel value="0.0031955707" flag="0"/>
      <psa03 value="0.0162119131" flag="0"/>
      <psa10 value="0.0036167701" flag="0"/>
      <psa30 value="0.0002544581" flag="0"/>
    </comp>
    <comp name="00.HHN">
      <acc value="0.0085110628" flag="0"/>
      <vel value="0.0025380360" flag="0"/>
      <psa03 value="0.0098961069" flag="0"/>
      <psa10 value="0.0036846778" flag="0"/>
      <psa30 value="0.0002157945" flag="0"/>
    </comp>
  </station>
  <station code="ROD3" name="ROD3" netid="CL" insttype="CMG40-T" lat="38.3081" lon="21.892">
    <comp name="00.HHE">
      <acc value="0.0291263957" flag="0"/>
      <vel value="0.0104316208" flag="0"/>
      <psa03 value="0.0675474224" flag="0"/>
      <psa10 value="0.0054333980" flag="0"/>
      <psa30 value="0.0003394917" flag="0"/>
    </comp>
    <comp name="00.HHZ">
      <acc value="0.0135805430" flag="0"/>
      <vel value="0.0042731340" flag="0"/>
      <psa03 value="0.0208140651" flag="0"/>
      <psa10 value="0.0036513427" flag="0"/>
      <psa30 value="0.0001536195" flag="0"/>
    </comp>
    <comp name="00.HHN">
      <acc value="0.0263557052" flag="0"/>
      <vel value="0.0101826532" flag="0"/>
      <psa03 value="0.0628237437" flag="0"/>
      <psa10 value="0.0049148298" flag="0"/>
      <psa30 value="0.0003327148" flag="0"/>
    </comp>
  </station>
  <station code="TRIZ" name="TRIZ" netid="CL" insttype="STS-2" lat="38.3654" lon="22.0727">
    <comp name="00.HH2">
      <acc value="0.0171900124" flag="0"/>
      <vel value="0.0082488690" flag="0"/>
      <psa03 value="0.0359795011" flag="0"/>
      <psa10 value="0.0046936524" flag="0"/>
      <psa30 value="0.0002603291" flag="0"/>
    </comp>
    <comp name="00.HHZ">
      <acc value="0.0267694743" flag="0"/>
      <vel value="0.0068151557" flag="0"/>
      <psa03 value="0.0242327613" flag="0"/>
      <psa10 value="0.0032824432" flag="0"/>
      <psa30 value="0.0001506442" flag="0"/>
    </comp>
    <comp name="00.HH3">
      <acc value="0.0170770910" flag="0"/>
      <vel value="0.0100763671" flag="0"/>
      <psa03 value="0.0626600409" flag="0"/>
      <psa10 value="0.0054651382" flag="0"/>
      <psa30 value="0.0003713279" flag="0"/>
    </comp>
  </station>
  <station code="ZIRI" name="ZIRI" netid="CL" insttype="TRILLIUM-40" lat="38.3051" lon="21.9476">
    <comp name="01.HHZ">
      <acc value="0.0221440954" flag="0"/>
      <vel value="0.0064148427" flag="0"/>
      <psa03 value="0.0555368376" flag="0"/>
      <psa10 value="0.0023270299" flag="0"/>
      <psa30 value="0.0001400117" flag="0"/>
    </comp>
    <comp name="01.HHE">
      <acc value="0.0263684436" flag="0"/>
      <vel value="0.0095789897" flag="0"/>
      <psa03 value="0.0747444328" flag="0"/>
      <psa10 value="0.0036572199" flag="0"/>
      <psa30 value="0.0003202303" flag="0"/>
    </comp>
    <comp name="01.HHN">
      <acc value="0.0245640053" flag="0"/>
      <vel value="0.0080867403" flag="0"/>
      <psa03 value="0.0678989623" flag="0"/>
      <psa10 value="0.0063059453" flag="0"/>
      <psa30 value="0.0003082948" flag="0"/>
    </comp>
  </station>
  <station code="AMPE" name="AMPE" netid="HA" insttype="1s-100Hz," lat="38.3015" lon="23.2688">
    <comp name="--.HHE">
      <acc value="0.0066204406" flag="0"/>
      <vel value="0.0053276087" flag="0"/>
      <psa03 value="0.0132307881" flag="0"/>
      <psa10 value="0.0050464865" flag="0"/>
      <psa30 value="0.0003616312" flag="0"/>
    </comp>
    <comp name="--.HHN">
      <acc value="0.0074492767" flag="0"/>
      <vel value="0.0044223599" flag="0"/>
      <psa03 value="0.0111798002" flag="0"/>
      <psa10 value="0.0061342779" flag="0"/>
      <psa30 value="0.0005137179" flag="0"/>
    </comp>
    <comp name="--.HHZ">
      <acc value="0.0224337761" flag="0"/>
      <vel value="0.0039970283" flag="0"/>
      <psa03 value="0.0091668566" flag="0"/>
      <psa10 value="0.0020874995" flag="0"/>
      <psa30 value="0.0003693547" flag="0"/>
    </comp>
  </station>
  <station code="ANTK" name="ANTK" netid="HA" insttype="25" lat="38.3605" lon="22.6385">
    <comp name="--.HHN">
      <acc value="0.0004653555" flag="0"/>
      <vel value="0.0001266008" flag="0"/>
      <psa03 value="0.0002364551" flag="0"/>
      <psa10 value="0.0000733513" flag="0"/>
      <psa30 value="0.0000509525" flag="0"/>
    </comp>
    <comp name="--.HHZ">
      <acc value="0.0053800684" flag="0"/>
      <vel value="0.0013720226" flag="0"/>
      <psa03 value="0.0034830489" flag="0"/>
      <psa10 value="0.0014081455" flag="0"/>
      <psa30 value="0.0000816366" flag="0"/>
    </comp>
    <comp name="--.HHE">
      <acc value="0.0067049379" flag="0"/>
      <vel value="0.0030481644" flag="0"/>
      <psa03 value="0.0069806909" flag="0"/>
      <psa10 value="0.0020355632" flag="0"/>
      <psa30 value="0.0001650509" flag="0"/>
    </comp>
  </station>
  <station code="ATAL" name="ATAL" netid="HA" insttype="120s," lat="38.6926" lon="23.0213">
    <comp name="--.HHZ">
      <acc value="0.0264625171" flag="0"/>
      <vel value="0.0040397434" flag="0"/>
      <psa03 value="0.0076496758" flag="0"/>
      <psa10 value="0.0042722661" flag="0"/>
      <psa30 value="0.0005933345" flag="0"/>
    </comp>
    <comp name="--.HHE">
      <acc value="0.0217494144" flag="0"/>
      <vel value="0.0034910069" flag="0"/>
      <psa03 value="0.0073876923" flag="0"/>
      <psa10 value="0.0017927218" flag="0"/>
      <psa30 value="0.0001431974" flag="0"/>
    </comp>
    <comp name="--.HHN">
      <acc value="0.0364908075" flag="0"/>
      <vel value="0.0052802272" flag="0"/>
      <psa03 value="0.0077620490" flag="0"/>
      <psa10 value="0.0028568735" flag="0"/>
      <psa30 value="0.0002779770" flag="0"/>
    </comp>
  </station>
  <station code="AXAR" name="AXAR" netid="HA" insttype="Horizon,120s,1200" lat="38.7664" lon="22.659">
    <comp name="--.HHE">
      <acc value="0.0443945442" flag="0"/>
      <vel value="0.0141054284" flag="0"/>
      <psa03 value="0.0619597689" flag="0"/>
      <psa10 value="0.0162300926" flag="0"/>
      <psa30 value="0.0015950316" flag="0"/>
    </comp>
    <comp name="--.HHZ">
      <acc value="0.0426594229" flag="0"/>
      <vel value="0.0113930858" flag="0"/>
      <psa03 value="0.0329213759" flag="0"/>
      <psa10 value="0.0079401385" flag="0"/>
      <psa30 value="0.0005291720" flag="0"/>
    </comp>
    <comp name="--.HHN">
      <acc value="0.0386831550" flag="0"/>
      <vel value="0.0198397949" flag="0"/>
      <psa03 value="0.0769097226" flag="0"/>
      <psa10 value="0.0124207878" flag="0"/>
      <psa30 value="0.0011415645" flag="0"/>
    </comp>
  </station>
  <station code="DOMV" name="DOMV" netid="HA" insttype="60" lat="38.2569" lon="22.9795">
    <comp name="--.HHZ">
      <acc value="0.0230901163" flag="0"/>
      <vel value="0.0053667246" flag="0"/>
      <psa03 value="0.0247282093" flag="0"/>
      <psa10 value="0.0023886219" flag="0"/>
      <psa30 value="0.0001729947" flag="0"/>
    </comp>
    <comp name="--.HHE">
      <acc value="0.0417428779" flag="0"/>
      <vel value="0.0081777551" flag="0"/>
      <psa03 value="0.0350704644" flag="0"/>
      <psa10 value="0.0029612697" flag="0"/>
      <psa30 value="0.0001986398" flag="0"/>
    </comp>
    <comp name="--.HHN">
      <acc value="0.0400684640" flag="0"/>
      <vel value="0.0088147716" flag="0"/>
      <psa03 value="0.0319119162" flag="0"/>
      <psa10 value="0.0030609426" flag="0"/>
      <psa30 value="0.0002736347" flag="0"/>
    </comp>
  </station>
  <station code="KALE" name="KALE" netid="HA" insttype="40," lat="38.3911" lon="22.1398">
    <comp name="--.HHE">
      <acc value="0.0213660988" flag="0"/>
      <vel value="0.0077494145" flag="0"/>
      <psa03 value="0.0464650225" flag="0"/>
      <psa10 value="0.0034484466" flag="0"/>
      <psa30 value="0.0002436919" flag="0"/>
    </comp>
    <comp name="--.HHN">
      <acc value="0.0357573185" flag="0"/>
      <vel value="0.0095163956" flag="0"/>
      <psa03 value="0.0372812388" flag="0"/>
      <psa10 value="0.0026275514" flag="0"/>
      <psa30 value="0.0002432227" flag="0"/>
    </comp>
    <comp name="--.HHZ">
      <acc value="0.0178088644" flag="0"/>
      <vel value="0.0046021158" flag="0"/>
      <psa03 value="0.0213585243" flag="0"/>
      <psa10 value="0.0037327484" flag="0"/>
      <psa30 value="0.0001415269" flag="0"/>
    </comp>
  </station>
  <station code="MRKA" name="MRKA" netid="HA" insttype="Horizon,120s,1200" lat="38.7047" lon="23.5863">
    <comp name="--.HHN">
      <acc value="0.0354486513" flag="0"/>
      <vel value="0.0082333934" flag="0"/>
      <psa03 value="0.0230864426" flag="0"/>
      <psa10 value="0.0040639982" flag="0"/>
      <psa30 value="0.0003443205" flag="0"/>
    </comp>
    <comp name="--.HHE">
      <acc value="0.0469413763" flag="0"/>
      <vel value="0.0079839874" flag="0"/>
      <psa03 value="0.0291786872" flag="0"/>
      <psa10 value="0.0055855084" flag="0"/>
      <psa30 value="0.0002874298" flag="0"/>
    </comp>
    <comp name="--.HHZ">
      <acc value="0.0549212668" flag="0"/>
      <vel value="0.0095122657" flag="0"/>
      <psa03 value="0.0232678098" flag="0"/>
      <psa10 value="0.0022150566" flag="0"/>
      <psa30 value="0.0002079451" flag="0"/>
    </comp>
  </station>
  <station code="PRDM" name="PRDM" netid="HA" insttype="25" lat="38.2804" lon="22.847">
    <comp name="--.HHN">
      <acc value="0.0169156988" flag="0"/>
      <vel value="0.0045685907" flag="0"/>
      <psa03 value="0.0144951559" flag="0"/>
      <psa10 value="0.0030997791" flag="0"/>
      <psa30 value="0.0001990483" flag="0"/>
    </comp>
    <comp name="--.HHE">
      <acc value="0.0276154310" flag="0"/>
      <vel value="0.0047044405" flag="0"/>
      <psa03 value="0.0165448136" flag="0"/>
      <psa10 value="0.0017320542" flag="0"/>
      <psa30 value="0.0001110245" flag="0"/>
    </comp>
    <comp name="--.HHZ">
      <acc value="0.0122275551" flag="0"/>
      <vel value="0.0023963719" flag="0"/>
      <psa03 value="0.0131285834" flag="0"/>
      <psa10 value="0.0013556110" flag="0"/>
      <psa30 value="0.0000959496" flag="0"/>
    </comp>
  </station>
  <station code="PSAH" name="PSAH" netid="HA" insttype="25" lat="38.5694" lon="23.6473">
    <comp name="--.HHE">
      <acc value="0.0147834927" flag="0"/>
      <vel value="0.0017512394" flag="0"/>
      <psa03 value="0.0032230396" flag="0"/>
      <psa10 value="0.0010831056" flag="0"/>
      <psa30 value="0.0001263649" flag="0"/>
    </comp>
    <comp name="--.HHN">
      <acc value="0.0085843733" flag="0"/>
      <vel value="0.0016018160" flag="0"/>
      <psa03 value="0.0030644583" flag="0"/>
      <psa10 value="0.0025233342" flag="0"/>
      <psa30 value="0.0001886047" flag="0"/>
    </comp>
    <comp name="--.HHZ">
      <acc value="0.0102556330" flag="0"/>
      <vel value="0.0017385166" flag="0"/>
      <psa03 value="0.0048568365" flag="0"/>
      <psa10 value="0.0019388067" flag="0"/>
      <psa30 value="0.0001019498" flag="0"/>
    </comp>
  </station>
  <station code="VOL2" name="VOL2" netid="HI" insttype="CMG-5TD,ACCELEROMETER,GURALP" lat="39.366" lon="22.9506">
    <comp name="--.HNZ">
      <acc value="0.0523841330" flag="0"/>
      <vel value="0.0163960710" flag="0"/>
      <psa03 value="0.0348834933" flag="0"/>
      <psa10 value="0.0033600205" flag="0"/>
      <psa30 value="0.0003062080" flag="0"/>
    </comp>
    <comp name="--.HNE">
      <acc value="0.0804569858" flag="0"/>
      <vel value="0.0260999148" flag="0"/>
      <psa03 value="0.0585125491" flag="0"/>
      <psa10 value="0.0080490609" flag="0"/>
      <psa30 value="0.0006151456" flag="0"/>
    </comp>
    <comp name="--.HNN">
      <acc value="0.0517453974" flag="0"/>
      <vel value="0.0182389623" flag="0"/>
      <psa03 value="0.0777784374" flag="0"/>
      <psa10 value="0.0131525603" flag="0"/>
      <psa30 value="0.0007371664" flag="0"/>
    </comp>
  </station>
  <station code="ELIN" name="ELIN" netid="HL" insttype="LE3D20_SMART24" lat="38.0995" lon="22.4874">
    <comp name="--.HHN">
      <acc value="0.1325660727" flag="0"/>
      <vel value="0.0361527428" flag="0"/>
      <psa03 value="0.1537045005" flag="0"/>
      <psa10 value="0.0144602405" flag="0"/>
      <psa30 value="0.0009515029" flag="0"/>
    </comp>
    <comp name="--.HHZ">
      <acc value="0.0574892767" flag="0"/>
      <vel value="0.0202957080" flag="0"/>
      <psa03 value="0.1262522166" flag="0"/>
      <psa10 value="0.0063319437" flag="0"/>
      <psa30 value="0.0005422425" flag="0"/>
    </comp>
    <comp name="--.HHE">
      <acc value="0.0617783878" flag="0"/>
      <vel value="0.0327060648" flag="0"/>
      <psa03 value="0.1719205446" flag="0"/>
      <psa10 value="0.0133221962" flag="0"/>
      <psa30 value="0.0008953682" flag="0"/>
    </comp>
  </station>
  <station code="EVR" name="EVR" netid="HL" insttype="DR24" lat="38.9166" lon="21.8105">
    <comp name="--.HHZ">
      <acc value="0.0280183927" flag="0"/>
      <vel value="0.0069231949" flag="0"/>
      <psa03 value="0.0181364437" flag="0"/>
      <psa10 value="0.0056301249" flag="0"/>
      <psa30 value="0.0003053103" flag="0"/>
    </comp>
    <comp name="--.HHE">
      <acc value="0.0290578573" flag="0"/>
      <vel value="0.0074137964" flag="0"/>
      <psa03 value="0.0337057849" flag="0"/>
      <psa10 value="0.0041097474" flag="0"/>
      <psa30 value="0.0005114404" flag="0"/>
    </comp>
    <comp name="--.HHN">
      <acc value="0.0250472450" flag="0"/>
      <vel value="0.0089893975" flag="0"/>
      <psa03 value="0.0290820807" flag="0"/>
      <psa10 value="0.0060808110" flag="0"/>
      <psa30 value="0.0004794943" flag="0"/>
    </comp>
  </station>
  <station code="GINA" name="GINA" netid="HL" insttype="CMG-5" lat="39.6689" lon="22.389">
    <comp name="00.HNE">
      <acc value="0.0376929777" flag="0"/>
      <vel value="0.0352120795" flag="0"/>
      <psa03 value="0.0643175595" flag="0"/>
      <psa10 value="0.0296840461" flag="0"/>
      <psa30 value="0.0031272775" flag="0"/>
    </comp>
    <comp name="00.HNN">
      <acc value="0.0518531521" flag="0"/>
      <vel value="0.0209701892" flag="0"/>
      <psa03 value="0.0983361588" flag="0"/>
      <psa10 value="0.0109385850" flag="0"/>
      <psa30 value="0.0014265576" flag="0"/>
    </comp>
    <comp name="00.HNZ">
      <acc value="0.0460956956" flag="0"/>
      <vel value="0.0091342364" flag="0"/>
      <psa03 value="0.0225626982" flag="0"/>
      <psa10 value="0.0116726856" flag="0"/>
      <psa30 value="0.0005893518" flag="0"/>
    </comp>
  </station>
  <station code="LKR" name="LKR" netid="HL" insttype="65535" lat="38.6496" lon="22.9988">
    <comp name="--.HHN">
      <acc value="0.0344152224" flag="0"/>
      <vel value="0.0069262650" flag="0"/>
      <psa03 value="0.0172799731" flag="0"/>
      <psa10 value="0.0018856648" flag="0"/>
      <psa30 value="0.0002417069" flag="0"/>
    </comp>
    <comp name="--.HHZ">
      <acc value="0.0405559843" flag="0"/>
      <vel value="0.0082474953" flag="0"/>
      <psa03 value="0.0207936147" flag="0"/>
      <psa10 value="0.0011984810" flag="0"/>
      <psa30 value="0.0001759093" flag="0"/>
    </comp>
    <comp name="--.HHE">
      <acc value="0.0473495668" flag="0"/>
      <vel value="0.0099124187" flag="0"/>
      <psa03 value="0.0206553977" flag="0"/>
      <psa10 value="0.0020274995" flag="0"/>
      <psa30 value="0.0002197428" flag="0"/>
    </comp>
  </station>
  <station code="NEO" name="NEO" netid="HL" insttype="120" lat="39.3057" lon="23.2219">
    <comp name="--.HHN">
      <acc value="0.0359407285" flag="0"/>
      <vel value="0.0173765364" flag="0"/>
      <psa03 value="0.0512274404" flag="0"/>
      <psa10 value="0.0085557308" flag="0"/>
      <psa30 value="0.0005361252" flag="0"/>
    </comp>
    <comp name="--.HHZ">
      <acc value="0.0982708354" flag="0"/>
      <vel value="0.0266873687" flag="0"/>
      <psa03 value="0.1008961071" flag="0"/>
      <psa10 value="0.0047326418" flag="0"/>
      <psa30 value="0.0005880828" flag="0"/>
    </comp>
    <comp name="--.HHE">
      <acc value="0.0427828520" flag="0"/>
      <vel value="0.0105707539" flag="0"/>
      <psa03 value="0.0429854872" flag="0"/>
      <psa10 value="0.0040601446" flag="0"/>
      <psa30 value="0.0004389419" flag="0"/>
    </comp>
  </station>
  <station code="TETR" name="TETR" netid="HL" insttype="60" lat="39.3445" lon="21.2747">
    <comp name="--.HHZ">
      <acc value="0.0294060433" flag="0"/>
      <vel value="0.0084544742" flag="0"/>
      <psa03 value="0.0562437573" flag="0"/>
      <psa10 value="0.0066200503" flag="0"/>
      <psa30 value="0.0003217641" flag="0"/>
    </comp>
    <comp name="--.HHN">
      <acc value="0.0788669094" flag="0"/>
      <vel value="0.0259278699" flag="0"/>
      <psa03 value="0.1285654050" flag="0"/>
      <psa10 value="0.0078327621" flag="0"/>
      <psa30 value="0.0005479933" flag="0"/>
    </comp>
    <comp name="--.HHE">
      <acc value="0.0882780885" flag="0"/>
      <vel value="0.0285480050" flag="0"/>
      <psa03 value="0.1734544957" flag="0"/>
      <psa10 value="0.0188243379" flag="0"/>
      <psa30 value="0.0008857985" flag="0"/>
    </comp>
  </station>
  <station code="THI2" name="THI2" netid="HL" insttype="LE3D20_SMART24" lat="38.3727" lon="23.211">
    <comp name="--.HHE">
      <acc value="0.0420430342" flag="0"/>
      <vel value="0.0109727795" flag="0"/>
      <psa03 value="0.0230186483" flag="0"/>
      <psa10 value="0.0077328659" flag="0"/>
      <psa30 value="0.0003878286" flag="0"/>
    </comp>
    <comp name="--.HHZ">
      <acc value="0.0661665750" flag="0"/>
      <vel value="0.0120597362" flag="0"/>
      <psa03 value="0.0249198431" flag="0"/>
      <psa10 value="0.0029326493" flag="0"/>
      <psa30 value="0.0002270497" flag="0"/>
    </comp>
    <comp name="--.HHN">
      <acc value="0.0314785186" flag="0"/>
      <vel value="0.0111429384" flag="0"/>
      <psa03 value="0.0210288203" flag="0"/>
      <psa10 value="0.0069575963" flag="0"/>
      <psa30 value="0.0008476523" flag="0"/>
    </comp>
  </station>
  <station code="THL" name="THL" netid="HL" insttype="120" lat="39.5647" lon="22.0144">
    <comp name="--.HHE">
      <acc value="0.0178401453" flag="0"/>
      <vel value="0.0105727949" flag="0"/>
      <psa03 value="0.0313360902" flag="0"/>
      <psa10 value="0.0086654145" flag="0"/>
      <psa30 value="0.0007424243" flag="0"/>
    </comp>
    <comp name="--.HHZ">
      <acc value="0.0221065084" flag="0"/>
      <vel value="0.0038037430" flag="0"/>
      <psa03 value="0.0183575629" flag="0"/>
      <psa10 value="0.0026570647" flag="0"/>
      <psa30 value="0.0002651756" flag="0"/>
    </comp>
    <comp name="--.HHN">
      <acc value="0.0277654554" flag="0"/>
      <vel value="0.0075292950" flag="0"/>
      <psa03 value="0.0373454789" flag="0"/>
      <psa10 value="0.0024630581" flag="0"/>
      <psa30 value="0.0002909381" flag="0"/>
    </comp>
  </station>
  <station code="THVA" name="THVA" netid="HL" insttype="LE3D20_SMART24" lat="38.3298" lon="23.336">
    <comp name="--.HHE">
      <acc value="0.0371877088" flag="0"/>
      <vel value="0.0137254494" flag="0"/>
      <psa03 value="0.0302225475" flag="0"/>
      <psa10 value="0.0181824031" flag="0"/>
      <psa30 value="0.0009702658" flag="0"/>
    </comp>
    <comp name="--.HHN">
      <acc value="0.0375652381" flag="0"/>
