<?xml version="1.0" encoding="UTF-8" standalone="yes"?>
<!DOCTYPE earthquake SYSTEM "stationlist.dtd">
<stationlist created="" xmlns="ch.ethz.sed.shakemap.usgs.xml">
  <station code="PSAM" name="PSAM" netid="CL" insttype="CMG40-T" lat="38.3218" lon="22.1842">
    <comp name="00.HHE">
      <acc value="0.0091042742" flag="0"/>
      <vel value="0.0031955707" flag="0"/>
      <psa03 value="0.0162119131" flag="0"/>
      <psa10 value="0.0036167702" flag="0"/>
      <psa30 value="0.0002544550" flag="0"/>
    </comp>
    <comp name="00.HHZ">
      <acc value="0.0072661451" flag="0"/>
      <vel value="0.0017672426" flag="0"/>
      <psa03 value="0.0083055363" flag="0"/>
      <psa10 value="0.0024118458" flag="0"/>
      <psa30 value="0.0001071461" flag="0"/>
    </comp>
    <comp name="00.HHN">
      <acc value="0.0085110632" flag="0"/>
      <vel value="0.0025380332" flag="0"/>
      <psa03 value="0.0098961069" flag="0"/>
      <psa10 value="0.0036846778" flag="0"/>
      <psa30 value="0.0002157839" flag="0"/>
    </comp>
  </station>
  <station code="ROD3" name="ROD3" netid="CL" insttype="CMG40-T" lat="38.3081" lon="21.892">
    <comp name="00.HHE">
      <acc value="0.0291263954" flag="0"/>
      <vel value="0.0104316203" flag="0"/>
      <psa03 value="0.0675474224" flag="0"/>
      <psa10 value="0.0054333980" flag="0"/>
      <psa30 value="0.0003394917" flag="0"/>
    </comp>
    <comp name="00.HHZ">
      <acc value="0.0135805433" flag="0"/>
      <vel value="0.0042731348" flag="0"/>
      <psa03 value="0.0208140651" flag="0"/>
      <psa10 value="0.0036513426" flag="0"/>
      <psa30 value="0.0001535976" flag="0"/>
    </comp>
    <comp name="00.HHN">
      <acc value="0.0263557054" flag="0"/>
      <vel value="0.0101826533" flag="0"/>
      <psa03 value="0.0628237437" flag="0"/>
      <psa10 value="0.0049148298" flag="0"/>
      <psa30 value="0.0003327297" flag="0"/>
    </comp>
  </station>
  <station code="TRIZ" name="TRIZ" netid="CL" insttype="STS-2" lat="38.3654" lon="22.0727">
    <comp name="00.HHZ">
      <acc value="0.0267694743" flag="0"/>
      <vel value="0.0068151559" flag="0"/>
      <psa03 value="0.0242327613" flag="0"/>
      <psa10 value="0.0032824433" flag="0"/>
      <psa30 value="0.0001506744" flag="0"/>
    </comp>
    <comp name="00.HH2">
      <acc value="0.0171900125" flag="0"/>
      <vel value="0.0082488684" flag="0"/>
      <psa03 value="0.0359795011" flag="0"/>
      <psa10 value="0.0046936525" flag="0"/>
      <psa30 value="0.0002604322" flag="0"/>
    </comp>
    <comp name="00.HH3">
      <acc value="0.0170770910" flag="0"/>
      <vel value="0.0100763664" flag="0"/>
      <psa03 value="0.0626600409" flag="0"/>
      <psa10 value="0.0054651382" flag="0"/>
      <psa30 value="0.0003713531" flag="0"/>
    </comp>
  </station>
  <station code="ZIRI" name="ZIRI" netid="CL" insttype="TRILLIUM-40" lat="38.3051" lon="21.9476">
    <comp name="01.HHE">
      <acc value="0.0263684436" flag="0"/>
      <vel value="0.0095789885" flag="0"/>
      <psa03 value="0.0747444328" flag="0"/>
      <psa10 value="0.0036572199" flag="0"/>
      <psa30 value="0.0003202230" flag="0"/>
    </comp>
    <comp name="01.HHN">
      <acc value="0.0245640055" flag="0"/>
      <vel value="0.0080867399" flag="0"/>
      <psa03 value="0.0678989623" flag="0"/>
      <psa10 value="0.0063059453" flag="0"/>
      <psa30 value="0.0003082994" flag="0"/>
    </comp>
    <comp name="01.HHZ">
      <acc value="0.0221440954" flag="0"/>
      <vel value="0.0064148422" flag="0"/>
      <psa03 value="0.0555368376" flag="0"/>
      <psa10 value="0.0023270300" flag="0"/>
      <psa30 value="0.0001399695" flag="0"/>
    </comp>
  </station>
  <station code="ANTK" name="ANTK" netid="HA" insttype="25" lat="38.3605" lon="22.6385">
    <comp name="--.HHN">
      <acc value="0.0004653555" flag="0"/>
      <vel value="0.0001266291" flag="0"/>
      <psa03 value="0.0002364551" flag="0"/>
      <psa10 value="0.0000733512" flag="0"/>
      <psa30 value="0.0000509964" flag="0"/>
    </comp>
    <comp name="--.HHZ">
      <acc value="0.0053800686" flag="0"/>
      <vel value="0.0013720247" flag="0"/>
      <psa03 value="0.0034830489" flag="0"/>
      <psa10 value="0.0014081455" flag="0"/>
      <psa30 value="0.0000816927" flag="0"/>
    </comp>
    <comp name="--.HHE">
      <acc value="0.0067049378" flag="0"/>
      <vel value="0.0030481867" flag="0"/>
      <psa03 value="0.0069806909" flag="0"/>
      <psa10 value="0.0020355631" flag="0"/>
      <psa30 value="0.0001649947" flag="0"/>
    </comp>
  </station>
  <station code="ATAL" name="ATAL" netid="HA" insttype="120s," lat="38.6926" lon="23.0213">
    <comp name="--.HHZ">
      <acc value="0.0264625172" flag="0"/>
      <vel value="0.0040397436" flag="0"/>
      <psa03 value="0.0076496758" flag="0"/>
      <psa10 value="0.0042722688" flag="0"/>
      <psa30 value="0.0005934735" flag="0"/>
    </comp>
    <comp name="--.HHE">
      <acc value="0.0217494144" flag="0"/>
      <vel value="0.0034910066" flag="0"/>
      <psa03 value="0.0073876923" flag="0"/>
      <psa10 value="0.0017927218" flag="0"/>
      <psa30 value="0.0001431907" flag="0"/>
    </comp>
    <comp name="--.HHN">
      <acc value="0.0364908076" flag="0"/>
      <vel value="0.0052802274" flag="0"/>
      <psa03 value="0.0077620490" flag="0"/>
      <psa10 value="0.0028568736" flag="0"/>
      <psa30 value="0.0002780984" flag="0"/>
    </comp>
  </station>
  <station code="AXAR" name="AXAR" netid="HA" insttype="Horizon,120s,1200" lat="38.7664" lon="22.659">
    <comp name="--.HHE">
      <acc value="0.0443945442" flag="0"/>
      <vel value="0.0141054284" flag="0"/>
      <psa03 value="0.0619597689" flag="0"/>
      <psa10 value="0.0162300926" flag="0"/>
      <psa30 value="0.0015950452" flag="0"/>
    </comp>
    <comp name="--.HHZ">
      <acc value="0.0426594229" flag="0"/>
      <vel value="0.0113930859" flag="0"/>
      <psa03 value="0.0329213759" flag="0"/>
      <psa10 value="0.0079401385" flag="0"/>
      <psa30 value="0.0005291642" flag="0"/>
    </comp>
    <comp name="--.HHN">
      <acc value="0.0386831550" flag="0"/>
      <vel value="0.0198397949" flag="0"/>
      <psa03 value="0.0769097226" flag="0"/>
      <psa10 value="0.0124207878" flag="0"/>
      <psa30 value="0.0011415406" flag="0"/>
    </comp>
  </station>
  <station code="DOMV" name="DOMV" netid="HA" insttype="60" lat="38.2569" lon="22.9795">
    <comp name="--.HHN">
      <acc value="0.0400684644" flag="0"/>
      <vel value="0.0088147707" flag="0"/>
      <psa03 value="0.0319119162" flag="0"/>
      <psa10 value="0.0030609426" flag="0"/>
      <psa30 value="0.0002737176" flag="0"/>
    </comp>
    <comp name="--.HHE">
      <acc value="0.0417428775" flag="0"/>
      <vel value="0.0081777557" flag="0"/>
      <psa03 value="0.0350704644" flag="0"/>
      <psa10 value="0.0029612698" flag="0"/>
      <psa30 value="0.0001986423" flag="0"/>
    </comp>
    <comp name="--.HHZ">
      <acc value="0.0230901167" flag="0"/>
      <vel value="0.0053667261" flag="0"/>
      <psa03 value="0.0247282093" flag="0"/>
      <psa10 value="0.0023886220" flag="0"/>
      <psa30 value="0.0001729769" flag="0"/>
    </comp>
  </station>
  <station code="KALE" name="KALE" netid="HA" insttype="40," lat="38.3911" lon="22.1398">
    <comp name="--.HHE">
      <acc value="0.0213660990" flag="0"/>
      <vel value="0.0077494141" flag="0"/>
      <psa03 value="0.0464650225" flag="0"/>
      <psa10 value="0.0034484467" flag="0"/>
      <psa30 value="0.0002437372" flag="0"/>
    </comp>
    <comp name="--.HHZ">
      <acc value="0.0178088644" flag="0"/>
      <vel value="0.0046021129" flag="0"/>
      <psa03 value="0.0213585243" flag="0"/>
      <psa10 value="0.0037327484" flag="0"/>
      <psa30 value="0.0001414744" flag="0"/>
    </comp>
    <comp name="--.HHN">
      <acc value="0.0357573185" flag="0"/>
      <vel value="0.0095163947" flag="0"/>
      <psa03 value="0.0372812388" flag="0"/>
      <psa10 value="0.0026275514" flag="0"/>
      <psa30 value="0.0002432607" flag="0"/>
    </comp>
  </station>
  <station code="MRKA" name="MRKA" netid="HA" insttype="Horizon,120s,1200" lat="38.7047" lon="23.5863">
    <comp name="--.HHE">
      <acc value="0.0469413767" flag="0"/>
      <vel value="0.0079839876" flag="0"/>
      <psa03 value="0.0291786872" flag="0"/>
      <psa10 value="0.0055855084" flag="0"/>
      <psa30 value="0.0002874677" flag="0"/>
    </comp>
    <comp name="--.HHN">
      <acc value="0.0354486511" flag="0"/>
      <vel value="0.0082333932" flag="0"/>
      <psa03 value="0.0230864426" flag="0"/>
      <psa10 value="0.0040639982" flag="0"/>
      <psa30 value="0.0003442265" flag="0"/>
    </comp>
    <comp name="--.HHZ">
      <acc value="0.0549212671" flag="0"/>
      <vel value="0.0095122649" flag="0"/>
      <psa03 value="0.0232678098" flag="0"/>
      <psa10 value="0.0022150618" flag="0"/>
      <psa30 value="0.0002081005" flag="0"/>
    </comp>
  </station>
  <station code="PRDM" name="PRDM" netid="HA" insttype="25" lat="38.2804" lon="22.847">
    <comp name="--.HHN">
      <acc value="0.0169156989" flag="0"/>
      <vel value="0.0045685906" flag="0"/>
      <psa03 value="0.0144951559" flag="0"/>
      <psa10 value="0.0030997791" flag="0"/>
      <psa30 value="0.0001990030" flag="0"/>
    </comp>
    <comp name="--.HHE">
      <acc value="0.0276154308" flag="0"/>
      <vel value="0.0047044390" flag="0"/>
      <psa03 value="0.0165448136" flag="0"/>
      <psa10 value="0.0017320542" flag="0"/>
      <psa30 value="0.0001110361" flag="0"/>
    </comp>
    <comp name="--.HHZ">
      <acc value="0.0122275552" flag="0"/>
      <vel value="0.0023963705" flag="0"/>
      <psa03 value="0.0131285834" flag="0"/>
      <psa10 value="0.0013556110" flag="0"/>
      <psa30 value="0.0000959756" flag="0"/>
    </comp>
  </station>
  <station code="VOL2" name="VOL2" netid="HI" insttype="CMG-5TD,ACCELEROMETER,GURALP" lat="39.366" lon="22.9506">
    <comp name="--.HNZ">
      <acc value="0.0523841330" flag="0"/>
      <vel value="0.0163960712" flag="0"/>
      <psa03 value="0.0348834933" flag="0"/>
      <psa10 value="0.0033600205" flag="0"/>
      <psa30 value="0.0003061917" flag="0"/>
    </comp>
    <comp name="--.HNE">
      <acc value="0.0804569858" flag="0"/>
      <vel value="0.0260999146" flag="0"/>
      <psa03 value="0.0585125491" flag="0"/>
      <psa10 value="0.0080490609" flag="0"/>
      <psa30 value="0.0006152061" flag="0"/>
    </comp>
    <comp name="--.HNN">
      <acc value="0.0517453975" flag="0"/>
      <vel value="0.0182389621" flag="0"/>
      <psa03 value="0.0777784374" flag="0"/>
      <psa10 value="0.0131525603" flag="0"/>
      <psa30 value="0.0007372362" flag="0"/>
    </comp>
  </station>
  <station code="ELIN" name="ELIN" netid="HL" insttype="LE3D20_SMART24" lat="38.0995" lon="22.4874">
    <comp name="--.HHE">
      <acc value="0.0617783876" flag="0"/>
      <vel value="0.0327060587" flag="0"/>
      <psa03 value="0.1719205447" flag="0"/>
      <psa10 value="0.0133221962" flag="0"/>
      <psa30 value="0.0008953934" flag="0"/>
    </comp>
    <comp name="--.HHN">
      <acc value="0.1325660720" flag="0"/>
      <vel value="0.0361527534" flag="0"/>
      <psa03 value="0.1537045005" flag="0"/>
      <psa10 value="0.0144602404" flag="0"/>
      <psa30 value="0.0009516342" flag="0"/>
    </comp>
    <comp name="--.HHZ">
      <acc value="0.0574892767" flag="0"/>
      <vel value="0.0202956944" flag="0"/>
      <psa03 value="0.1262522166" flag="0"/>
      <psa10 value="0.0063319436" flag="0"/>
      <psa30 value="0.0005422827" flag="0"/>
    </comp>
  </station>
  <station code="EVR" name="EVR" netid="HL" insttype="DR24" lat="38.9166" lon="21.8105">
    <comp name="--.HHN">
      <acc value="0.0250472450" flag="0"/>
      <vel value="0.0089893971" flag="0"/>
      <psa03 value="0.0290820807" flag="0"/>
      <psa10 value="0.0060808110" flag="0"/>
      <psa30 value="0.0004794924" flag="0"/>
    </comp>
    <comp name="--.HHZ">
      <acc value="0.0280183927" flag="0"/>
      <vel value="0.0069231945" flag="0"/>
      <psa03 value="0.0181364437" flag="0"/>
      <psa10 value="0.0056301249" flag="0"/>
      <psa30 value="0.0003053249" flag="0"/>
    </comp>
    <comp name="--.HHE">
      <acc value="0.0290578573" flag="0"/>
      <vel value="0.0074137964" flag="0"/>
      <psa03 value="0.0337057849" flag="0"/>
      <psa10 value="0.0041097474" flag="0"/>
      <psa30 value="0.0005114415" flag="0"/>
    </comp>
  </station>
  <station code="GINA" name="GINA" netid="HL" insttype="CMG-5" lat="39.6689" lon="22.389">
    <comp name="00.HNE">
      <acc value="0.0376929789" flag="0"/>
      <vel value="0.0352120786" flag="0"/>
      <psa03 value="0.0643175595" flag="0"/>
      <psa10 value="0.0296840464" flag="0"/>
      <psa30 value="0.0031274755" flag="0"/>
    </comp>
    <comp name="00.HNN">
      <acc value="0.0518531525" flag="0"/>
      <vel value="0.0209701875" flag="0"/>
      <psa03 value="0.0983361588" flag="0"/>
      <psa10 value="0.0109385851" flag="0"/>
      <psa30 value="0.0014264694" flag="0"/>
    </comp>
    <comp name="00.HNZ">
      <acc value="0.0460956943" flag="0"/>
      <vel value="0.0091342363" flag="0"/>
      <psa03 value="0.0225626982" flag="0"/>
      <psa10 value="0.0116726856" flag="0"/>
      <psa30 value="0.0005893094" flag="0"/>
    </comp>
  </station>
  <station code="LKR" name="LKR" netid="HL" insttype="65535" lat="38.6496" lon="22.9988">
    <comp name="--.HHN">
      <acc value="0.0344152224" flag="0"/>
      <vel value="0.0069262641" flag="0"/>
      <psa03 value="0.0172799731" flag="0"/>
      <psa10 value="0.0018856647" flag="0"/>
      <psa30 value="0.0002416514" flag="0"/>
    </comp>
    <comp name="--.HHE">
      <acc value="0.0473495666" flag="0"/>
      <vel value="0.0099124201" flag="0"/>
      <psa03 value="0.0206553977" flag="0"/>
      <psa10 value="0.0020274995" flag="0"/>
      <psa30 value="0.0002197621" flag="0"/>
    </comp>
    <comp name="--.HHZ">
      <acc value="0.0405559842" flag="0"/>
      <vel value="0.0082474951" flag="0"/>
      <psa03 value="0.0207936147" flag="0"/>
      <psa10 value="0.0011984810" flag="0"/>
      <psa30 value="0.0001759101" flag="0"/>
    </comp>
  </station>
  <station code="NEO" name="NEO" netid="HL" insttype="120" lat="39.3057" lon="23.2219">
    <comp name="--.HHE">
      <acc value="0.0427828517" flag="0"/>
      <vel value="0.0105707541" flag="0"/>
      <psa03 value="0.0429854872" flag="0"/>
      <psa10 value="0.0040601447" flag="0"/>
      <psa30 value="0.0004389177" flag="0"/>
    </comp>
    <comp name="--.HHN">
      <acc value="0.0359407284" flag="0"/>
      <vel value="0.0173765363" flag="0"/>
      <psa03 value="0.0512274404" flag="0"/>
      <psa10 value="0.0085557307" flag="0"/>
      <psa30 value="0.0005361356" flag="0"/>
    </comp>
    <comp name="--.HHZ">
      <acc value="0.0982708356" flag="0"/>
      <vel value="0.0266873686" flag="0"/>
      <psa03 value="0.1008961071" flag="0"/>
      <psa10 value="0.0047326434" flag="0"/>
      <psa30 value="0.0005881399" flag="0"/>
    </comp>
  </station>
  <station code="TETR" name="TETR" netid="HL" insttype="60" lat="39.3445" lon="21.2747">
    <comp name="--.HHN">
      <acc value="0.0788669094" flag="0"/>
      <vel value="0.0259278698" flag="0"/>
      <psa03 value="0.1285654050" flag="0"/>
      <psa10 value="0.0078327621" flag="0"/>
      <psa30 value="0.0005479967" flag="0"/>
    </comp>
    <comp name="--.HHZ">
      <acc value="0.0294060433" flag="0"/>
      <vel value="0.0084544742" flag="0"/>
      <psa03 value="0.0562437573" flag="0"/>
      <psa10 value="0.0066200503" flag="0"/>
      <psa30 value="0.0003217606" flag="0"/>
    </comp>
    <comp name="--.HHE">
      <acc value="0.0882780885" flag="0"/>
      <vel value="0.0285480050" flag="0"/>
      <psa03 value="0.1734544957" flag="0"/>
      <psa10 value="0.0188243379" flag="0"/>
      <psa30 value="0.0008857982" flag="0"/>
    </comp>
  </station>
  <station code="THI2" name="THI2" netid="HL" insttype="LE3D20_SMART24" lat="38.3727" lon="23.211">
    <comp name="--.HHE">
      <acc value="0.0420430346" flag="0"/>
      <vel value="0.0109727990" flag="0"/>
      <psa03 value="0.0230186483" flag="0"/>
      <psa10 value="0.0077328659" flag="0"/>
      <psa30 value="0.0003878660" flag="0"/>
    </comp>
    <comp name="--.HHN">
      <acc value="0.0314785181" flag="0"/>
      <vel value="0.0111429190" flag="0"/>
      <psa03 value="0.0210288203" flag="0"/>
      <psa10 value="0.0069575963" flag="0"/>
      <psa30 value="0.0008474863" flag="0"/>
    </comp>
    <comp name="--.HHZ">
      <acc value="0.0661665754" flag="0"/>
      <vel value="0.0120597354" flag="0"/>
      <psa03 value="0.0249198431" flag="0"/>
      <psa10 value="0.0029326493" flag="0"/>
      <psa30 value="0.0002269595" flag="0"/>
    </comp>
  </station>
  <station code="THL" name="THL" netid="HL" insttype="120" lat="39.5647" lon="22.0144">
    <comp name="--.HHE">
      <acc value="0.0178401454" flag="0"/>
      <vel value="0.0105727950" flag="0"/>
      <psa03 value="0.0313360902" flag="0"/>
      <psa10 value="0.0086654145" flag="0"/>
      <psa30 value="0.0007424210" flag="0"/>
    </comp>
    <comp name="--.HHN">
      <acc value="0.0277654555" flag="0"/>
      <vel value="0.0075292952" flag="0"/>
      <psa03 value="0.0373454789" flag="0"/>
      <psa10 value="0.0024630581" flag="0"/>
      <psa30 value="0.0002909094" flag="0"/>
    </comp>
    <comp name="--.HHZ">
      <acc value="0.0221065083" flag="0"/>
      <vel value="0.0038037428" flag="0"/>
      <psa03 value="0.0183575629" flag="0"/>
      <psa10 value="0.0026570647" flag="0"/>
      <psa30 value="0.0002652060" flag="0"/>
    </comp>
  </station>
  <station code="TRKA" name="TRKA" netid="HL" insttype="CMG-5" lat="39.5538" lon="21.7662">
    <comp name="00.HNZ">
      <acc value="0.0316450683" flag="0"/>
      <vel value="0.0095112264" flag="0"/>
      <psa03 value="0.0580549132" flag="0"/>
      <psa10 value="0.0082085138" flag="0"/>
      <psa30 value="0.0003903206" flag="0"/>
    </comp>
    <comp name="00.HNN">
      <acc value="0.0470243558" flag="0"/>
      <vel value="0.0192013620" flag="0"/>
      <psa03 value="0.0973873955" flag="0"/>
      <psa10 value="0.0259944021" flag="0"/>
      <psa30 value="0.0012319537" flag="0"/>
    </comp>
    <comp name="00.HNE">
      <acc value="0.0375366380" flag="0"/>
      <vel value="0.0188972301" flag="0"/>
      <psa03 value="0.1015605256" flag="0"/>
      <psa10 value="0.0249451518" flag="0"/>
      <psa30 value="0.0009577179" flag="0"/>
    </comp>
  </station>
  <station code="ANX" name="ANX" netid="HP" insttype="120" lat="38.5933" lon="21.9209">
    <comp name="--.HHE">
      <acc value="0.0326313082" flag="0"/>
      <vel value="0.0134170646" flag="0"/>
      <psa03 value="0.0683257653" flag="0"/>
      <psa10 value="0.0103504047" flag="0"/>
      <psa30 value="0.0006421394" flag="0"/>
    </comp>
    <comp name="--.HHN">
      <acc value="0.0216766412" flag="0"/>
      <vel value="0.0089913940" flag="0"/>
      <psa03 value="0.0543758910" flag="0"/>
      <psa10 value="0.0098344718" flag="0"/>
      <psa30 value="0.0003884354" flag="0"/>
    </comp>
    <comp name="--.HHZ">
      <acc value="0.0159486597" flag="0"/>
      <vel value="0.0050460663" flag="0"/>
      <psa03 value="0.0370232765" flag="0"/>
      <psa10 value="0.0056289829" flag="0"/>
      <psa30 value="0.0002384893" flag="0"/>
    </comp>
  </station>
  <station code="DSF" name="DSF" netid="HP" insttype="Compact," lat="38.4112" lon="22.5271">
    <comp name="--.HHE">
      <acc value="0.0387714717" flag="0"/>
      <vel value="0.0081775942" flag="0"/>
      <psa03 value="0.0209615270" flag="0"/>
      <psa10 value="0.0027127142" flag="0"/>
      <psa30 value="0.0003237050" flag="0"/>
    </comp>
    <comp name="--.HHZ">
      <acc value="0.0150192580" flag="0"/>
