<?xml version="1.0" encoding="UTF-8" standalone="yes"?>
<!DOCTYPE earthquake SYSTEM "stationlist.dtd">
<stationlist created="" xmlns="ch.ethz.sed.shakemap.usgs.xml">
  <station code="BCI" name="BCI" netid="AC" insttype="" lat="42.3666" lon="20.0675">
    <comp name="--.HHE">
      <acc value="0.0505968475" flag="0"/>
      <vel value="0.0241496202" flag="0"/>
      <psa03 value="0.1309873526" flag="0"/>
      <psa10 value="0.0319240089" flag="0"/>
      <psa30 value="0.0025083547" flag="0"/>
    </comp>
    <comp name="--.HHZ">
      <acc value="0.0419394957" flag="0"/>
      <vel value="0.0272359831" flag="0"/>
      <psa03 value="0.0943586865" flag="0"/>
      <psa10 value="0.0358499933" flag="0"/>
      <psa30 value="0.0021077308" flag="0"/>
    </comp>
    <comp name="--.HHN">
      <acc value="0.0460196985" flag="0"/>
      <vel value="0.0312135533" flag="0"/>
      <psa03 value="0.0928453475" flag="0"/>
      <psa10 value="0.0936040564" flag="0"/>
      <psa30 value="0.0028718445" flag="0"/>
    </comp>
  </station>
  <station code="VLO" name="VLO" netid="AC" insttype="" lat="40.4686" lon="19.4955">
    <comp name="--.HHE">
      <acc value="0.0271677061" flag="0"/>
      <vel value="0.0125719615" flag="0"/>
      <psa03 value="0.0270465199" flag="0"/>
      <psa10 value="0.0198069908" flag="0"/>
      <psa30 value="0.0023344228" flag="0"/>
    </comp>
    <comp name="--.HHZ">
      <acc value="0.0101456133" flag="0"/>
      <vel value="0.0056507981" flag="0"/>
      <psa03 value="0.0174754253" flag="0"/>
      <psa10 value="0.0064260278" flag="0"/>
      <psa30 value="0.0011265193" flag="0"/>
    </comp>
    <comp name="--.HHN">
      <acc value="0.0353012438" flag="0"/>
      <vel value="0.0084495320" flag="0"/>
      <psa03 value="0.0264336774" flag="0"/>
      <psa10 value="0.0105654638" flag="0"/>
      <psa30 value="0.0014120563" flag="0"/>
    </comp>
  </station>
  <station code="PDG" name="PDG" netid="MN" insttype="" lat="42.4297" lon="19.2608">
    <comp name="--.HHE">
      <acc value="0.0314084539" flag="0"/>
      <vel value="0.0155786377" flag="0"/>
      <psa03 value="0.0883023590" flag="0"/>
      <psa10 value="0.0132835134" flag="0"/>
      <psa30 value="0.0006920321" flag="0"/>
    </comp>
    <comp name="--.HHN">
      <acc value="0.0346651832" flag="0"/>
      <vel value="0.0108376446" flag="0"/>
      <psa03 value="0.0962073614" flag="0"/>
      <psa10 value="0.0065971447" flag="0"/>
      <psa30 value="0.0008654915" flag="0"/>
    </comp>
    <comp name="--.HHZ">
      <acc value="0.0290682419" flag="0"/>
      <vel value="0.0105371032" flag="0"/>
      <psa03 value="0.0675263150" flag="0"/>
      <psa10 value="0.0048708553" flag="0"/>
      <psa30 value="0.0012874158" flag="0"/>
    </comp>
  </station>
</stationlist>
