<stationlist created="1778135895">
	<station code="LMS2" name="LMS2" netid="HI" source="ITSAK Strong Motion Network" insttype="" lat="40.834985" lon="21.141815">
		<comp name="--.HNE" depth="0.0">
			<acc value="0.00292314460240599" flag="0"/>
			<vel value="0.00197096857892813" flag="0"/>
			<psa03 value="0.0058612290669936" flag="0"/>
			<psa10 value="0.00205366728377867" flag="0"/>
			<psa30 value="0.000264426441113986" flag="0"/>
		</comp>
		<comp name="--.HNN" depth="0.0">
			<acc value="0.00532116003883336" flag="0"/>
			<vel value="0.00210457324594741" flag="0"/>
			<psa03 value="0.00867998808394472" flag="0"/>
			<psa10 value="0.00264963347593405" flag="0"/>
			<psa30 value="0.000405811814027725" flag="0"/>
		</comp>
		<comp name="--.HNZ" depth="0.0">
			<acc value="0.0017941644742191" flag="0"/>
			<vel value="0.000909816089176115" flag="0"/>
			<psa03 value="0.00344514990960693" flag="0"/>
			<psa10 value="0.00118387878711947" flag="0"/>
			<psa30 value="0.000219684234495714" flag="0"/>
		</comp>
	</station>
</stationlist>
