<stationlist xmlns:esm="https://esm-db.eu/esmws/shakemap/1/" created="1784352205">
	<station code="ARPRA" name="ARPRA" netid="KO" source="Bogazici University Kandilli Observatory And Earthquake Research Institute (KOERI)" insttype="" lat="39.0929" lon="38.3356" esm:processing="automatic (Paolucci et al 2011)" esm:quality="best">
		<comp name="--.HNE" depth="0.0">
			<acc value="0.378366267631425" flag="0"/>
			<vel value="0.283058581336089" flag="0"/>
			<psa03 value="0.995195176796298" flag="0"/>
			<psa10 value="0.323084022730892" flag="0"/>
			<psa30 value="0.0281030983590101" flag="0"/>
		</comp>
		<comp name="--.HNN" depth="0.0">
			<acc value="0.332945757761264" flag="0"/>
			<vel value="0.231116064416833" flag="0"/>
			<psa03 value="0.891266625373154" flag="0"/>
			<psa10 value="0.238323367753483" flag="0"/>
			<psa30 value="0.0170855451668491" flag="0"/>
		</comp>
		<comp name="--.HNZ" depth="0.0">
			<acc value="0.181280594034198" flag="0"/>
			<vel value="0.134134137158946" flag="0"/>
			<psa03 value="0.657863413555855" flag="0"/>
			<psa10 value="0.222883954968159" flag="0"/>
			<psa30 value="0.0116429596222676" flag="0"/>
		</comp>
	</station>
	<station code="GUMT" name="GUMT" netid="KO" source="Bogazici University Kandilli Observatory And Earthquake Research Institute (KOERI)" insttype="" lat="40.4665" lon="39.478" esm:processing="automatic (Paolucci et al 2011)" esm:quality="good">
		<comp name="--.HNE" depth="0.0">
			<acc value="0.00416573578457018" flag="0"/>
			<vel value="0.00655905302317577" flag="0"/>
			<psa03 value="0.00895165745649903" flag="0"/>
			<psa10 value="0.0087076305877916" flag="0"/>
			<psa30 value="0.00210987289372449" flag="0"/>
		</comp>
		<comp name="--.HNN" depth="0.0">
			<acc value="0.00309079633512306" flag="0"/>
			<vel value="0.00452492488288068" flag="0"/>
			<psa03 value="0.00693810870419285" flag="0"/>
			<psa10 value="0.00702252817677693" flag="0"/>
			<psa30 value="0.00177429628842131" flag="0"/>
		</comp>
		<comp name="--.HNZ" depth="0.0">
			<acc value="0.00410198015172983" flag="0"/>
			<vel value="0.00588926152159226" flag="0"/>
			<psa03 value="0.00880458977127833" flag="0"/>
			<psa10 value="0.013805398602404" flag="0"/>
			<psa30 value="0.00241100305045284" flag="0"/>
		</comp>
	</station>
	<station code="KYHL" name="KYHL" netid="KO" source="Bogazici University Kandilli Observatory And Earthquake Research Institute (KOERI)" insttype="" lat="40.3244" lon="37.8955" esm:processing="automatic (Paolucci et al 2011)" esm:quality="good">
		<comp name="--.HNE" depth="0.0">
			<acc value="0.0403569386227007" flag="0"/>
			<vel value="0.0415984885253045" flag="0"/>
			<psa03 value="0.0717698585675686" flag="0"/>
			<psa10 value="0.0955374888897652" flag="0"/>
			<psa30 value="0.00491445764203321" flag="0"/>
		</comp>
		<comp name="--.HNN" depth="0.0">
			<acc value="0.0237472322747351" flag="0"/>
			<vel value="0.0250832341199241" flag="0"/>
			<psa03 value="0.0529917031485971" flag="0"/>
			<psa10 value="0.0370833865923659" flag="0"/>
			<psa30 value="0.00308145142270044" flag="0"/>
		</comp>
		<comp name="--.HNZ" depth="0.0">
			<acc value="0.0190526031643427" flag="0"/>
			<vel value="0.016045060524059" flag="0"/>
			<psa03 value="0.0460794483706417" flag="0"/>
			<psa10 value="0.0266339887460416" flag="0"/>
			<psa30 value="0.00234143385850196" flag="0"/>
		</comp>
	</station>
	<station code="TUNC" name="TUNC" netid="KO" source="Bogazici University Kandilli Observatory And Earthquake Research Institute (KOERI)" insttype="" lat="39.6942" lon="37.5388" esm:processing="automatic (Paolucci et al 2011)" esm:quality="best">
		<comp name="--.HNE" depth="0.0">
			<acc value="0.166373312641749" flag="0"/>
			<vel value="0.138740877802759" flag="0"/>
			<psa03 value="0.434273726836431" flag="0"/>
			<psa10 value="0.134568544505645" flag="0"/>
			<psa30 value="0.0141800660264488" flag="0"/>
		</comp>
		<comp name="--.HNN" depth="0.0">
			<acc value="0.147715144598106" flag="0"/>
			<vel value="0.110950606525331" flag="0"/>
			<psa03 value="0.413580105985609" flag="0"/>
			<psa10 value="0.111318316792165" flag="0"/>
			<psa30 value="0.0113514344768241" flag="0"/>
		</comp>
		<comp name="--.HNZ" depth="0.0">
			<acc value="0.0613579426756565" flag="0"/>
			<vel value="0.0508542394541782" flag="0"/>
			<psa03 value="0.190354755901699" flag="0"/>
			<psa10 value="0.0662138463423595" flag="0"/>
			<psa30 value="0.010218345248557" flag="0"/>
		</comp>
	</station>
	<station code="RFHY" name="RFHY" netid="KO" source="Bogazici University Kandilli Observatory And Earthquake Research Institute (KOERI)" insttype="" lat="39.927" lon="38.833" esm:processing="automatic (Paolucci et al 2011)" esm:quality="bad">
		<comp name="--.HNE" depth="0.0">
			<acc value="0" flag="1"/>
			<vel value="0" flag="1"/>
			<psa03 value="0" flag="1"/>
			<psa10 value="0" flag="1"/>
			<psa30 value="0" flag="1"/>
		</comp>
		<comp name="--.HNN" depth="0.0">
			<acc value="0" flag="1"/>
			<vel value="0" flag="1"/>
			<psa03 value="0" flag="1"/>
			<psa10 value="0" flag="1"/>
			<psa30 value="0" flag="1"/>
		</comp>
		<comp name="--.HNZ" depth="0.0">
			<acc value="0" flag="1"/>
			<vel value="0" flag="1"/>
			<psa03 value="0" flag="1"/>
			<psa10 value="0" flag="1"/>
			<psa30 value="0" flag="1"/>
		</comp>
	</station>
</stationlist>
