<?xml version="1.0" encoding="UTF-8" standalone="yes"?>
<!DOCTYPE earthquake SYSTEM "stationlist.dtd">
<stationlist created="" xmlns="ch.ethz.sed.shakemap.usgs.xml">
  <station code="ARPRA" name="ARPRA" netid="KO" insttype="CMG-5T" commtype="DIG" lat="39.0929" lon="38.3356">
    <comp name="--.HNN">
      <acc value="0.3342715460" flag="0"/>
      <vel value="0.2305666253" flag="0"/>
      <psa03 value="0.8922578853" flag="0"/>
      <psa10 value="0.2379185365" flag="0"/>
      <psa30 value="0.0169650920" flag="0"/>
    </comp>
    <comp name="--.HNE">
      <acc value="0.3773340426" flag="0"/>
      <vel value="0.2801219720" flag="0"/>
      <psa03 value="1.0037010603" flag="0"/>
      <psa10 value="0.3224468702" flag="0"/>
      <psa30 value="0.0277488269" flag="0"/>
    </comp>
    <comp name="--.HNZ">
      <acc value="0.1820429197" flag="0"/>
      <vel value="0.1326447846" flag="0"/>
      <psa03 value="0.6549810714" flag="0"/>
      <psa10 value="0.2227022388" flag="0"/>
      <psa30 value="0.0117344011" flag="0"/>
    </comp>
  </station>
  <station code="DARE" name="DARE" netid="KO" insttype="CMG-3ESP" commtype="DIG" lat="38.5712" lon="37.4832">
    <comp name="--.HHE">
      <acc value="0.0526296376" flag="0"/>
      <vel value="0.0391070345" flag="0"/>
      <psa03 value="0.1727521955" flag="0"/>
      <psa10 value="0.0464201914" flag="0"/>
      <psa30 value="0.0044757440" flag="0"/>
    </comp>
    <comp name="--.HHN">
      <acc value="0.0635466034" flag="0"/>
      <vel value="0.0500892734" flag="0"/>
      <psa03 value="0.1879910754" flag="0"/>
      <psa10 value="0.0608271556" flag="0"/>
      <psa30 value="0.0072424136" flag="0"/>
    </comp>
    <comp name="--.HHZ">
      <acc value="0.0560178951" flag="0"/>
      <vel value="0.0392171760" flag="0"/>
      <psa03 value="0.2091909740" flag="0"/>
      <psa10 value="0.0438226425" flag="0"/>
      <psa30 value="0.0065130010" flag="0"/>
    </comp>
  </station>
  <station code="DIVR" name="DIVR" netid="KO" insttype="CMG-6T" commtype="DIG" lat="39.3562" lon="38.1237">
    <comp name="--.HHN">
      <acc value="0.0828177447" flag="0"/>
      <vel value="0.0467266234" flag="0"/>
      <psa03 value="0.3039877094" flag="0"/>
      <psa10 value="0.0546928007" flag="0"/>
      <psa30 value="0.0052356780" flag="0"/>
    </comp>
    <comp name="--.HHE">
      <acc value="0.1222986142" flag="0"/>
      <vel value="0.0596416301" flag="0"/>
      <psa03 value="0.2274406606" flag="0"/>
      <psa10 value="0.0619950890" flag="0"/>
      <psa30 value="0.0110511435" flag="0"/>
    </comp>
    <comp name="--.HHZ">
      <acc value="0.1080810776" flag="0"/>
      <vel value="0.0692847931" flag="0"/>
      <psa03 value="0.3159012866" flag="0"/>
      <psa10 value="0.0801755750" flag="0"/>
      <psa30 value="0.0053343113" flag="0"/>
    </comp>
  </station>
  <station code="DYBB" name="DYBB" netid="KO" insttype="CMG-3T" commtype="DIG" lat="37.9532" lon="40.1393">
    <comp name="--.HHN">
      <acc value="0.0247179281" flag="0"/>
      <vel value="0.0496804722" flag="0"/>
      <psa03 value="0.0469200246" flag="0"/>
      <psa10 value="0.0379258573" flag="0"/>
      <psa30 value="0.0252823561" flag="0"/>
    </comp>
    <comp name="--.HHE">
      <acc value="0.0174389512" flag="0"/>
      <vel value="0.0309635492" flag="0"/>
      <psa03 value="0.0195777722" flag="0"/>
      <psa10 value="0.0211943171" flag="0"/>
      <psa30 value="0.0079433534" flag="0"/>
    </comp>
    <comp name="--.HHZ">
      <acc value="0.0196438690" flag="0"/>
      <vel value="0.0308246337" flag="0"/>
      <psa03 value="0.0228533403" flag="0"/>
      <psa10 value="0.0339577474" flag="0"/>
      <psa30 value="0.0138185279" flag="0"/>
    </comp>
  </station>
  <station code="GAZ" name="GAZ" netid="KO" insttype="CMG-3T" commtype="DIG" lat="37.1721" lon="37.2096">
    <comp name="--.HHZ">
      <acc value="0.0241027601" flag="0"/>
      <vel value="0.0308521258" flag="0"/>
      <psa03 value="0.0664644648" flag="0"/>
      <psa10 value="0.0452943630" flag="0"/>
      <psa30 value="0.0122827961" flag="0"/>
    </comp>
    <comp name="--.HHE">
      <acc value="0.0598164519" flag="0"/>
      <vel value="0.0654484627" flag="0"/>
      <psa03 value="0.0774375595" flag="0"/>
      <psa10 value="0.1767690138" flag="0"/>
      <psa30 value="0.0139961436" flag="0"/>
    </comp>
    <comp name="--.HHN">
      <acc value="0.0418416030" flag="0"/>
      <vel value="0.0528421129" flag="0"/>
      <psa03 value="0.1159360488" flag="0"/>
      <psa10 value="0.1012785417" flag="0"/>
      <psa30 value="0.0222173912" flag="0"/>
    </comp>
  </station>
  <station code="KBAN" name="KBAN" netid="KO" insttype="CMG-6T" commtype="DIG" lat="38.797" lon="38.7278">
    <comp name="--.HHN">
      <acc value="0.2767336594" flag="0"/>
      <vel value="0.0542924344" flag="0"/>
      <psa03 value="0.2509736801" flag="0"/>
      <psa10 value="0.0645310799" flag="0"/>
      <psa30 value="0.0047606743" flag="0"/>
    </comp>
    <comp name="--.HHE">
      <acc value="0.3623342104" flag="0"/>
      <vel value="0.1161263847" flag="0"/>
      <psa03 value="0.5454755891" flag="0"/>
      <psa10 value="0.1482170689" flag="0"/>
      <psa30 value="0.0143406752" flag="0"/>
    </comp>
    <comp name="--.HHZ">
      <acc value="0.1840760772" flag="0"/>
      <vel value="0.0622812306" flag="0"/>
      <psa03 value="0.4018635273" flag="0"/>
      <psa10 value="0.0849669248" flag="0"/>
      <psa30 value="0.0058555051" flag="0"/>
    </comp>
  </station>
  <station code="KMAH" name="KMAH" netid="KO" insttype="CMG-3ESP" commtype="DIG" lat="39.6082" lon="39.0275">
    <comp name="--.HHZ">
      <acc value="0.0381723752" flag="0"/>
      <vel value="0.0552200262" flag="0"/>
      <psa03 value="0.0666867765" flag="0"/>
      <psa10 value="0.1526489353" flag="0"/>
      <psa30 value="0.0083896046" flag="0"/>
    </comp>
    <comp name="--.HHE">
      <acc value="0.0007967481" flag="0"/>
      <vel value="0.0000777886" flag="0"/>
      <psa03 value="0.0002023156" flag="0"/>
      <psa10 value="0.0000937411" flag="0"/>
      <psa30 value="0.0000182803" flag="0"/>
    </comp>
    <comp name="--.HHN">
      <acc value="0.0553241056" flag="0"/>
      <vel value="0.0638870772" flag="0"/>
      <psa03 value="0.1150169548" flag="0"/>
      <psa10 value="0.1302840025" flag="0"/>
      <psa30 value="0.0084270198" flag="0"/>
    </comp>
  </station>
  <station code="NURH" name="NURH" netid="KO" insttype="CMG-6T" commtype="DIG" lat="37.9693" lon="37.4363">
    <comp name="--.HHE">
      <acc value="0.1145246353" flag="0"/>
      <vel value="0.0696919687" flag="0"/>
      <psa03 value="0.4108252430" flag="0"/>
      <psa10 value="0.0808592124" flag="0"/>
      <psa30 value="0.0076108681" flag="0"/>
    </comp>
    <comp name="--.HHZ">
      <acc value="0.0878706013" flag="0"/>
      <vel value="0.0796436328" flag="0"/>
      <psa03 value="0.2298325747" flag="0"/>
      <psa10 value="0.0868184696" flag="0"/>
      <psa30 value="0.0092730675" flag="0"/>
    </comp>
    <comp name="--.HHN">
      <acc value="0.2136467874" flag="0"/>
      <vel value="0.1487510140" flag="0"/>
      <psa03 value="0.5906813548" flag="0"/>
      <psa10 value="0.2655226414" flag="0"/>
      <psa30 value="0.0158759258" flag="0"/>
    </comp>
  </station>
  <station code="SINE" name="SINE" netid="KO" insttype="CMG-6T" commtype="DIG" lat="39.1636" lon="39.3871">
    <comp name="--.HHE">
      <acc value="0.0262782841" flag="0"/>
      <vel value="0.0164404645" flag="0"/>
      <psa03 value="0.0686504196" flag="0"/>
      <psa10 value="0.0231559613" flag="0"/>
      <psa30 value="0.0011775615" flag="0"/>
    </comp>
    <comp name="--.HHN">
      <acc value="0.0237765993" flag="0"/>
      <vel value="0.0138363122" flag="0"/>
      <psa03 value="0.0634547343" flag="0"/>
      <psa10 value="0.0205027153" flag="0"/>
      <psa30 value="0.0009648276" flag="0"/>
    </comp>
    <comp name="--.HHZ">
      <acc value="0.0177830932" flag="0"/>
      <vel value="0.0110758404" flag="0"/>
      <psa03 value="0.0537920261" flag="0"/>
      <psa10 value="0.0163271701" flag="0"/>
      <psa30 value="0.0010109594" flag="0"/>
    </comp>
  </station>
  <station code="SVRC" name="SVRC" netid="KO" insttype="CMG-3T" commtype="DIG" lat="38.3775" lon="39.306">
    <comp name="--.HHE">
      <acc value="0.1191731569" flag="0"/>
      <vel value="0.0646257486" flag="0"/>
      <psa03 value="0.2872270140" flag="0"/>
      <psa10 value="0.0470357601" flag="0"/>
      <psa30 value="0.0103711307" flag="0"/>
    </comp>
    <comp name="--.HHN">
      <acc value="0.1408679974" flag="0"/>
      <vel value="0.0683865338" flag="0"/>
      <psa03 value="0.3455157937" flag="0"/>
      <psa10 value="0.0262884515" flag="0"/>
      <psa30 value="0.0122369415" flag="0"/>
    </comp>
    <comp name="--.HHZ">
      <acc value="0.1225173210" flag="0"/>
      <vel value="0.0527368054" flag="0"/>
      <psa03 value="0.1709461453" flag="0"/>
      <psa10 value="0.0463007947" flag="0"/>
      <psa30 value="0.0114785996" flag="0"/>
    </comp>
  </station>
</stationlist>
