<?xml version="1.0" encoding="UTF-8" standalone="yes"?>
<!DOCTYPE earthquake SYSTEM "stationlist.dtd">
<stationlist created="" xmlns="ch.ethz.sed.shakemap.usgs.xml">
  <station code="ARPRA" name="ARPRA" netid="KO" insttype="CMG-5T" commtype="DIG" lat="39.0929" lon="38.3356">
    <comp name="--.HNE">
      <acc value="0.3772119720" flag="0"/>
      <vel value="0.2810932710" flag="0"/>
      <psa03 value="1.0037366086" flag="0"/>
      <psa10 value="0.3227534497" flag="0"/>
      <psa30 value="0.0265420444" flag="0"/>
    </comp>
    <comp name="--.HNN">
      <acc value="0.3341952344" flag="0"/>
      <vel value="0.2307889126" flag="0"/>
      <psa03 value="0.8922781012" flag="0"/>
      <psa10 value="0.2380504450" flag="0"/>
      <psa30 value="0.0160017689" flag="0"/>
    </comp>
    <comp name="--.HNZ">
      <acc value="0.1821681008" flag="0"/>
      <vel value="0.1325791518" flag="0"/>
      <psa03 value="0.6550218648" flag="0"/>
      <psa10 value="0.2228815100" flag="0"/>
      <psa30 value="0.0118224812" flag="0"/>
    </comp>
  </station>
  <station code="DARE" name="DARE" netid="KO" insttype="CMG-3ESP" commtype="DIG" lat="38.5712" lon="37.4832">
    <comp name="--.HHE">
      <acc value="0.0525472324" flag="0"/>
      <vel value="0.0383396085" flag="0"/>
      <psa03 value="0.1728100855" flag="0"/>
      <psa10 value="0.0464364737" flag="0"/>
      <psa30 value="0.0040725967" flag="0"/>
    </comp>
    <comp name="--.HHN">
      <acc value="0.0633900681" flag="0"/>
      <vel value="0.0477207352" flag="0"/>
      <psa03 value="0.1881290369" flag="0"/>
      <psa10 value="0.0611023405" flag="0"/>
      <psa30 value="0.0063092590" flag="0"/>
    </comp>
    <comp name="--.HHZ">
      <acc value="0.0558525657" flag="0"/>
      <vel value="0.0398876797" flag="0"/>
      <psa03 value="0.2089178146" flag="0"/>
      <psa10 value="0.0436137356" flag="0"/>
      <psa30 value="0.0060618382" flag="0"/>
    </comp>
  </station>
  <station code="DIVR" name="DIVR" netid="KO" insttype="CMG-6T" commtype="DIG" lat="39.3562" lon="38.1237">
    <comp name="--.HHN">
      <acc value="0.0827817870" flag="0"/>
      <vel value="0.0457470262" flag="0"/>
      <psa03 value="0.3039761722" flag="0"/>
      <psa10 value="0.0548862133" flag="0"/>
      <psa30 value="0.0050655355" flag="0"/>
    </comp>
    <comp name="--.HHE">
      <acc value="0.1224153769" flag="0"/>
      <vel value="0.0615279685" flag="0"/>
      <psa03 value="0.2275940307" flag="0"/>
      <psa10 value="0.0619317760" flag="0"/>
      <psa30 value="0.0100467453" flag="0"/>
    </comp>
    <comp name="--.HHZ">
      <acc value="0.1080228845" flag="0"/>
      <vel value="0.0686744402" flag="0"/>
      <psa03 value="0.3157866899" flag="0"/>
      <psa10 value="0.0800779298" flag="0"/>
      <psa30 value="0.0048479118" flag="0"/>
    </comp>
  </station>
  <station code="DYBB" name="DYBB" netid="KO" insttype="CMG-3T" commtype="DIG" lat="37.9532" lon="40.1393">
    <comp name="--.HHE">
      <acc value="0.0175419280" flag="0"/>
      <vel value="0.0276531936" flag="0"/>
      <psa03 value="0.0195210969" flag="0"/>
      <psa10 value="0.0210845581" flag="0"/>
      <psa30 value="0.0076830541" flag="0"/>
    </comp>
    <comp name="--.HHZ">
      <acc value="0.0194684450" flag="0"/>
      <vel value="0.0307231709" flag="0"/>
      <psa03 value="0.0226727757" flag="0"/>
      <psa10 value="0.0340161211" flag="0"/>
      <psa30 value="0.0118339719" flag="0"/>
    </comp>
    <comp name="--.HHN">
      <acc value="0.0244018227" flag="0"/>
      <vel value="0.0474111935" flag="0"/>
      <psa03 value="0.0471489671" flag="0"/>
      <psa10 value="0.0377897989" flag="0"/>
      <psa30 value="0.0213143327" flag="0"/>
    </comp>
  </station>
  <station code="KBAN" name="KBAN" netid="KO" insttype="CMG-6T" commtype="DIG" lat="38.797" lon="38.7278">
    <comp name="--.HHZ">
      <acc value="0.1838966212" flag="0"/>
      <vel value="0.0631762795" flag="0"/>
      <psa03 value="0.4021297028" flag="0"/>
      <psa10 value="0.0850647561" flag="0"/>
      <psa30 value="0.0056254590" flag="0"/>
    </comp>
    <comp name="--.HHE">
      <acc value="0.3622758824" flag="0"/>
      <vel value="0.1128513956" flag="0"/>
      <psa03 value="0.5455605321" flag="0"/>
      <psa10 value="0.1488452473" flag="0"/>
      <psa30 value="0.0144223664" flag="0"/>
    </comp>
    <comp name="--.HHN">
      <acc value="0.2766772549" flag="0"/>
      <vel value="0.0535717453" flag="0"/>
      <psa03 value="0.2509920261" flag="0"/>
      <psa10 value="0.0647100448" flag="0"/>
      <psa30 value="0.0044151077" flag="0"/>
    </comp>
  </station>
  <station code="NURH" name="NURH" netid="KO" insttype="CMG-6T" commtype="DIG" lat="37.9693" lon="37.4363">
    <comp name="--.HHN">
      <acc value="0.2134575345" flag="0"/>
      <vel value="0.1472686062" flag="0"/>
      <psa03 value="0.5904653357" flag="0"/>
      <psa10 value="0.2657157751" flag="0"/>
      <psa30 value="0.0154741554" flag="0"/>
    </comp>
    <comp name="--.HHE">
      <acc value="0.1143831585" flag="0"/>
      <vel value="0.0661315504" flag="0"/>
      <psa03 value="0.4105646899" flag="0"/>
      <psa10 value="0.0804203424" flag="0"/>
      <psa30 value="0.0075719576" flag="0"/>
    </comp>
    <comp name="--.HHZ">
      <acc value="0.0882615667" flag="0"/>
      <vel value="0.0807861804" flag="0"/>
      <psa03 value="0.2302901368" flag="0"/>
      <psa10 value="0.0872575758" flag="0"/>
      <psa30 value="0.0090650494" flag="0"/>
    </comp>
  </station>
  <station code="SINE" name="SINE" netid="KO" insttype="CMG-6T" commtype="DIG" lat="39.1636" lon="39.3871">
    <comp name="--.HHE">
      <acc value="0.0262781295" flag="0"/>
      <vel value="0.0164357816" flag="0"/>
      <psa03 value="0.0686572585" flag="0"/>
      <psa10 value="0.0231655877" flag="0"/>
      <psa30 value="0.0011685045" flag="0"/>
    </comp>
    <comp name="--.HHZ">
      <acc value="0.0177772832" flag="0"/>
      <vel value="0.0110972419" flag="0"/>
      <psa03 value="0.0537859690" flag="0"/>
      <psa10 value="0.0163174377" flag="0"/>
      <psa30 value="0.0009463756" flag="0"/>
    </comp>
    <comp name="--.HHN">
      <acc value="0.0237820490" flag="0"/>
      <vel value="0.0138779435" flag="0"/>
      <psa03 value="0.0634519294" flag="0"/>
      <psa10 value="0.0205019275" flag="0"/>
      <psa30 value="0.0009403026" flag="0"/>
    </comp>
  </station>
  <station code="SVRC" name="SVRC" netid="KO" insttype="CMG-3T" commtype="DIG" lat="38.3775" lon="39.306">
    <comp name="--.HHZ">
      <acc value="0.1229165434" flag="0"/>
      <vel value="0.0487238003" flag="0"/>
      <psa03 value="0.1714092738" flag="0"/>
      <psa10 value="0.0471410945" flag="0"/>
      <psa30 value="0.0093181761" flag="0"/>
    </comp>
    <comp name="--.HHE">
      <acc value="0.1188522814" flag="0"/>
      <vel value="0.0697133482" flag="0"/>
      <psa03 value="0.2868593540" flag="0"/>
      <psa10 value="0.0470930627" flag="0"/>
      <psa30 value="0.0093222294" flag="0"/>
    </comp>
    <comp name="--.HHN">
      <acc value="0.1408623962" flag="0"/>
      <vel value="0.0677060159" flag="0"/>
      <psa03 value="0.3453558776" flag="0"/>
      <psa10 value="0.0262676627" flag="0"/>
      <psa30 value="0.0112226906" flag="0"/>
    </comp>
  </station>
</stationlist>
