<?xml version="1.0" encoding="UTF-8" standalone="yes"?>
<!DOCTYPE earthquake SYSTEM "stationlist.dtd">
<stationlist created="" xmlns="ch.ethz.sed.shakemap.usgs.xml">
  <station code="PE01" name="PE01" netid="Z3" source="GFZ" insttype="CMG-3ESP/60" lat="38.017" lon="22.0283">
    <comp name="--.HHE">
      <acc value="0.0274534787" flag="0"/>
      <vel value="0.0324381880" flag="0"/>
      <psa03 value="0.0724580842" flag="0"/>
      <psa10 value="0.0384653737" flag="0"/>
      <psa30 value="0.0121588433" flag="0"/>
    </comp>
    <comp name="--.HHN">
      <acc value="0.0306814663" flag="0"/>
      <vel value="0.0324372222" flag="0"/>
      <psa03 value="0.0907410569" flag="0"/>
      <psa10 value="0.0376364887" flag="0"/>
      <psa30 value="0.0099355722" flag="0"/>
    </comp>
    <comp name="--.HHZ">
      <acc value="0.0241363860" flag="0"/>
      <vel value="0.0277750575" flag="0"/>
      <psa03 value="0.0680091592" flag="0"/>
      <psa10 value="0.0289975827" flag="0"/>
      <psa30 value="0.0135849162" flag="0"/>
    </comp>
  </station>
  <station code="PE02" name="PE02" netid="Z3" source="GFZ" insttype="CMG-3ESP/60" lat="37.8958" lon="22.4907">
    <comp name="--.HHE">
      <acc value="0.0174635332" flag="0"/>
      <vel value="0.0311381251" flag="0"/>
      <psa03 value="0.0344388864" flag="0"/>
      <psa10 value="0.0295110176" flag="0"/>
      <psa30 value="0.0180473366" flag="0"/>
    </comp>
    <comp name="--.HHN">
      <acc value="0.0131415507" flag="0"/>
      <vel value="0.0165684085" flag="0"/>
      <psa03 value="0.0376971530" flag="0"/>
      <psa10 value="0.0193666039" flag="0"/>
      <psa30 value="0.0092921153" flag="0"/>
    </comp>
    <comp name="--.HHZ">
      <acc value="0.0143470381" flag="0"/>
      <vel value="0.0231704747" flag="0"/>
      <psa03 value="0.0288185529" flag="0"/>
      <psa10 value="0.0267809377" flag="0"/>
      <psa30 value="0.0086397352" flag="0"/>
    </comp>
  </station>
  <station code="PE03" name="PE03" netid="Z3" source="GFZ" insttype="CMG-3ESP/60" lat="37.3784" lon="21.7722">
    <comp name="--.HHE">
      <acc value="0.1168180388" flag="0"/>
      <vel value="0.0571675701" flag="0"/>
      <psa03 value="0.3178950927" flag="0"/>
      <psa10 value="0.0599229062" flag="0"/>
      <psa30 value="0.0131188072" flag="0"/>
    </comp>
    <comp name="--.HHN">
      <acc value="0.1506796665" flag="0"/>
      <vel value="0.0539847214" flag="0"/>
      <psa03 value="0.3377200577" flag="0"/>
      <psa10 value="0.0461220166" flag="0"/>
      <psa30 value="0.0107955685" flag="0"/>
    </comp>
    <comp name="--.HHZ">
      <acc value="0.0870941133" flag="0"/>
      <vel value="0.0460571530" flag="0"/>
      <psa03 value="0.2214627101" flag="0"/>
      <psa10 value="0.0555299230" flag="0"/>
      <psa30 value="0.0091102943" flag="0"/>
    </comp>
  </station>
  <station code="PE05" name="PE05" netid="Z3" source="GFZ" insttype="CMG-3ESP/60" lat="37.5128" lon="22.4553">
    <comp name="--.HHE">
      <acc value="0.0183441899" flag="0"/>
      <vel value="0.0184805594" flag="0"/>
      <psa03 value="0.0347690259" flag="0"/>
      <psa10 value="0.0419998238" flag="0"/>
      <psa30 value="0.0073586245" flag="0"/>
    </comp>
    <comp name="--.HHN">
      <acc value="0.0221104420" flag="0"/>
      <vel value="0.0242149789" flag="0"/>
      <psa03 value="0.0400511438" flag="0"/>
      <psa10 value="0.0360100201" flag="0"/>
      <psa30 value="0.0061232252" flag="0"/>
    </comp>
    <comp name="--.HHZ">
      <acc value="0.0121448361" flag="0"/>
      <vel value="0.0143403885" flag="0"/>
      <psa03 value="0.0266324536" flag="0"/>
      <psa10 value="0.0151639996" flag="0"/>
      <psa30 value="0.0062519565" flag="0"/>
    </comp>
  </station>
  <station code="PE06" name="PE06" netid="Z3" source="GFZ" insttype="CMG-3ESP/60" lat="37.1787" lon="21.9252">
    <comp name="--.HHE">
      <acc value="0.0829461159" flag="0"/>
      <vel value="0.0612717909" flag="0"/>
      <psa03 value="0.2158317354" flag="0"/>
      <psa10 value="0.0547509146" flag="0"/>
      <psa30 value="0.0113872367" flag="0"/>
    </comp>
    <comp name="--.HHN">
      <acc value="0.1360297266" flag="0"/>
      <vel value="0.0625824343" flag="0"/>
      <psa03 value="0.5321701550" flag="0"/>
      <psa10 value="0.0635913512" flag="0"/>
      <psa30 value="0.0101926839" flag="0"/>
    </comp>
    <comp name="--.HHZ">
      <acc value="0.0701146750" flag="0"/>
      <vel value="0.0433564023" flag="0"/>
      <psa03 value="0.1657492387" flag="0"/>
      <psa10 value="0.0795877835" flag="0"/>
      <psa30 value="0.0075579988" flag="0"/>
    </comp>
  </station>
  <station code="PE08" name="PE08" netid="Z3" source="GFZ" insttype="CMG-3ESP/60" lat="36.8311" lon="22.442">
    <comp name="--.HHE">
      <acc value="0.0854326013" flag="0"/>
      <vel value="0.0518041943" flag="0"/>
      <psa03 value="0.2645024557" flag="0"/>
      <psa10 value="0.0596197517" flag="0"/>
      <psa30 value="0.0074677727" flag="0"/>
    </comp>
    <comp name="--.HHN">
      <acc value="0.0800298783" flag="0"/>
      <vel value="0.0476588428" flag="0"/>
      <psa03 value="0.3507845583" flag="0"/>
      <psa10 value="0.0741622772" flag="0"/>
      <psa30 value="0.0060744555" flag="0"/>
    </comp>
    <comp name="--.HHZ">
      <acc value="0.0358144104" flag="0"/>
      <vel value="0.0253636161" flag="0"/>
      <psa03 value="0.1605296066" flag="0"/>
      <psa10 value="0.0416566505" flag="0"/>
      <psa30 value="0.0060096127" flag="0"/>
    </comp>
  </station>
  <station code="PE09" name="PE09" netid="Z3" source="GFZ" insttype="CMG-3ESP/60" lat="36.7921" lon="21.8879">
    <comp name="--.HHE">
      <acc value="0.0912329922" flag="0"/>
      <vel value="0.0491885359" flag="0"/>
      <psa03 value="0.2293146689" flag="0"/>
      <psa10 value="0.0403541628" flag="0"/>
      <psa30 value="0.0061708285" flag="0"/>
    </comp>
    <comp name="--.HHN">
      <acc value="0.1022682635" flag="0"/>
      <vel value="0.0428919590" flag="0"/>
      <psa03 value="0.3477481091" flag="0"/>
      <psa10 value="0.0646403827" flag="0"/>
      <psa30 value="0.0051257980" flag="0"/>
    </comp>
    <comp name="--.HHZ">
      <acc value="0.0449696087" flag="0"/>
      <vel value="0.0214618994" flag="0"/>
      <psa03 value="0.1478783446" flag="0"/>
      <psa10 value="0.0307532617" flag="0"/>
      <psa30 value="0.0048511099" flag="0"/>
    </comp>
  </station>
</stationlist>
