<stationlist created="1778723766">
	<station code="LTS" name="LTS" netid="BA" source="UniBAS" insttype="" lat="40.0891" lon="16.0113">
		<comp name="00.HNE" depth="0.0">
			<acc value="0.00919492961963397" flag="0"/>
			<vel value="0.00820007944583143" flag="0"/>
			<psa03 value="0.0223711033091359" flag="0"/>
			<psa10 value="0.00748984538789869" flag="0"/>
			<psa30 value="0.00120356535803151" flag="0"/>
		</comp>
		<comp name="00.HNN" depth="0.0">
			<acc value="0.00890764085640263" flag="0"/>
			<vel value="0.00676072433509543" flag="0"/>
			<psa03 value="0.0216999702098618" flag="0"/>
			<psa10 value="0.00758246175559851" flag="0"/>
			<psa30 value="0.00127425804448838" flag="0"/>
		</comp>
		<comp name="00.HNZ" depth="0.0">
			<acc value="0.00436886521706224" flag="0"/>
			<vel value="0.0039487447719858" flag="0"/>
			<psa03 value="0.0079193705714341" flag="0"/>
			<psa10 value="0.00559322324935015" flag="0"/>
			<psa30 value="0.000550776563470925" flag="0"/>
		</comp>
	</station>
</stationlist>
