<stationlist xmlns:esm="https://esm-db.eu/esmws/shakemap/1/" created="1783994196">
	<station code="ROD3" name="ROD3" netid="CL" source="Corinth Riff Laboratory (CRLNET)" insttype="" lat="38.30811" lon="21.89204" esm:processing="manual (Paolucci et al 2011)" esm:quality="good">
		<comp name="00.HNE" depth="0.0">
			<acc value="0.0688041090528546" flag="0"/>
			<vel value="0.0374041553007377" flag="0"/>
			<psa03 value="0.196328802640976" flag="0"/>
			<psa10 value="0.0477819921359171" flag="0"/>
			<psa30 value="0.00817216403882733" flag="0"/>
		</comp>
		<comp name="00.HNN" depth="0.0">
			<acc value="0.0948362206715006" flag="0"/>
			<vel value="0.0481640393573016" flag="0"/>
			<psa03 value="0.306215662095452" flag="0"/>
			<psa10 value="0.0499765973705434" flag="0"/>
			<psa30 value="0.0109895807895799" flag="0"/>
		</comp>
		<comp name="00.HNZ" depth="0.0">
			<acc value="0.0297021721038965" flag="0"/>
			<vel value="0.0182915305151569" flag="0"/>
			<psa03 value="0.0580753841905167" flag="0"/>
			<psa10 value="0.0337365186343093" flag="0"/>
			<psa30 value="0.00287737130762106" flag="0"/>
		</comp>
	</station>
	<station code="ARG2" name="ARG2" netid="HI" source="ITSAK Strong Motion Network" insttype="" lat="38.1783" lon="20.4878" esm:processing="manual (Paolucci et al 2011)" esm:quality="best">
		<comp name="--.HNE" depth="0.0">
			<acc value="0.469050945577512" flag="0"/>
			<vel value="0.165919557994235" flag="0"/>
			<psa03 value="0.828670408777011" flag="0"/>
			<psa10 value="0.190000464936888" flag="0"/>
			<psa30 value="0.0231276940230509" flag="0"/>
		</comp>
		<comp name="--.HNN" depth="0.0">
			<acc value="0.420269313456181" flag="0"/>
			<vel value="0.174398880091235" flag="0"/>
			<psa03 value="0.543841521445093" flag="0"/>
			<psa10 value="0.197127898451179" flag="0"/>
			<psa30 value="0.0138342902863696" flag="0"/>
		</comp>
		<comp name="--.HNZ" depth="0.0">
			<acc value="0.345209734865893" flag="0"/>
			<vel value="0.102324946491764" flag="0"/>
			<psa03 value="0.395028942232721" flag="0"/>
			<psa10 value="0.0902848513129444" flag="0"/>
			<psa30 value="0.0112839845091281" flag="0"/>
		</comp>
	</station>
	<station code="ART2" name="ART2" netid="HI" source="ITSAK Strong Motion Network" insttype="" lat="39.1474" lon="20.9937" esm:processing="manual (Paolucci et al 2011)" esm:quality="best">
		<comp name="--.HNE" depth="0.0">
			<acc value="0.00871628411260109" flag="0"/>
			<vel value="0.0115691785936382" flag="0"/>
			<psa03 value="0.0238475961275388" flag="0"/>
			<psa10 value="0.0166951069775419" flag="0"/>
			<psa30 value="0.00414626028731524" flag="0"/>
		</comp>
		<comp name="--.HNN" depth="0.0">
			<acc value="0.00861570805880705" flag="0"/>
			<vel value="0.0106062795695738" flag="0"/>
			<psa03 value="0.02666635514449" flag="0"/>
			<psa10 value="0.014315269007516" flag="0"/>
			<psa30 value="0.00287558161935633" flag="0"/>
		</comp>
		<comp name="--.HNZ" depth="0.0">
			<acc value="0.00673061205239068" flag="0"/>
			<vel value="0.00905515585776879" flag="0"/>
			<psa03 value="0.0207156416642598" flag="0"/>
			<psa10 value="0.00949519108852963" flag="0"/>
			<psa30 value="0.00315656267691907" flag="0"/>
		</comp>
	</station>
	<station code="KLV1" name="KLV1" netid="HI" source="ITSAK Strong Motion Network" insttype="" lat="38.03256" lon="22.10797" esm:processing="manual (Paolucci et al 2011)" esm:quality="good">
		<comp name="--.HNE" depth="0.0">
			<acc value="0.0382915337121703" flag="0"/>
			<vel value="0.0422448523768253" flag="0"/>
			<psa03 value="0.121072411109043" flag="0"/>
			<psa10 value="0.0699173040161747" flag="0"/>
			<psa30 value="0.00603259171834158" flag="0"/>
		</comp>
		<comp name="--.HNN" depth="0.0">
			<acc value="0.0261670346349155" flag="0"/>
			<vel value="0.0270747445091066" flag="0"/>
			<psa03 value="0.0782988615819756" flag="0"/>
			<psa10 value="0.0610301595155874" flag="0"/>
			<psa30 value="0.00512969398878486" flag="0"/>
		</comp>
		<comp name="--.HNZ" depth="0.0">
			<acc value="0.0154679054775831" flag="0"/>
			<vel value="0.0167883246291457" flag="0"/>
			<psa03 value="0.0381203600387675" flag="0"/>
			<psa10 value="0.0304385705844765" flag="0"/>
			<psa30 value="0.00337043042455441" flag="0"/>
		</comp>
	</station>
	<station code="KRI1" name="KRI1" netid="HI" source="ITSAK Strong Motion Network" insttype="" lat="37.6621" lon="20.8172" esm:processing="manual (Paolucci et al 2011)" esm:quality="good">
		<comp name="--.HNE" depth="0.0">
			<acc value="1.19178864486825" flag="0"/>
			<vel value="0.500418576936151" flag="0"/>
			<psa03 value="1.11184383446405" flag="0"/>
			<psa10 value="0.482950062770022" flag="0"/>
			<psa30 value="0.0529716406815705" flag="0"/>
		</comp>
		<comp name="--.HNN" depth="0.0">
			<acc value="1.38128254531261" flag="0"/>
			<vel value="0.688825729048725" flag="0"/>
			<psa03 value="1.0801216099717" flag="0"/>
			<psa10 value="0.893860698663965" flag="0"/>
			<psa30 value="0.0891193168305384" flag="0"/>
		</comp>
		<comp name="--.HNZ" depth="0.0">
			<acc value="0.701516891415356" flag="0"/>
			<vel value="0.281316831987846" flag="0"/>
			<psa03 value="0.721020659653449" flag="0"/>
			<psa10 value="0.166435639555177" flag="0"/>
			<psa30 value="0.0490575924466041" flag="0"/>
		</comp>
	</station>
	<station code="KRK1" name="KRK1" netid="HI" source="ITSAK Strong Motion Network" insttype="" lat="39.618861" lon="19.9202" esm:processing="manual (Paolucci et al 2011)" esm:quality="best">
		<comp name="--.HNE" depth="0.0">
			<acc value="0.0207303524875084" flag="0"/>
			<vel value="0.0197442745494856" flag="0"/>
			<psa03 value="0.044115815725616" flag="0"/>
			<psa10 value="0.0174239575233536" flag="0"/>
			<psa30 value="0.00527063193963241" flag="0"/>
		</comp>
		<comp name="--.HNN" depth="0.0">
			<acc value="0.023247375547469" flag="0"/>
			<vel value="0.0182207715247482" flag="0"/>
			<psa03 value="0.0453685975109276" flag="0"/>
			<psa10 value="0.0246883021898962" flag="0"/>
			<psa30 value="0.00357221777640282" flag="0"/>
		</comp>
		<comp name="--.HNZ" depth="0.0">
			<acc value="0.00805509411546942" flag="0"/>
			<vel value="0.00786582350596255" flag="0"/>
			<psa03 value="0.0238028539209206" flag="0"/>
			<psa10 value="0.00568181281845433" flag="0"/>
			<psa30 value="0.00222860931165612" flag="0"/>
		</comp>
	</station>
	<station code="MSL1" name="MSL1" netid="HI" source="ITSAK Strong Motion Network" insttype="" lat="38.3727" lon="21.4243" esm:processing="manual (Paolucci et al 2011)" esm:quality="good">
		<comp name="--.HNE" depth="0.0">
			<acc value="0.13891313124845" flag="0"/>
			<vel value="0.165022176733545" flag="0"/>
			<psa03 value="0.356729613367481" flag="0"/>
			<psa10 value="0.325840488762358" flag="0"/>
			<psa30 value="0.0266108748082833" flag="0"/>
		</comp>
		<comp name="--.HNN" depth="0.0">
			<acc value="0.118516505142849" flag="0"/>
			<vel value="0.178516318967067" flag="0"/>
			<psa03 value="0.334179541231872" flag="0"/>
			<psa10 value="0.289446283054924" flag="0"/>
			<psa30 value="0.0228628201598707" flag="0"/>
		</comp>
		<comp name="--.HNZ" depth="0.0">
			<acc value="0.0540578200963045" flag="0"/>
			<vel value="0.0717394492919318" flag="0"/>
			<psa03 value="0.104115114800718" flag="0"/>
			<psa10 value="0.166242353222586" flag="0"/>
			<psa30 value="0.00928132334089429" flag="0"/>
		</comp>
	</station>
	<station code="PYL1" name="PYL1" netid="HI" source="ITSAK Strong Motion Network" insttype="" lat="36.914188" lon="21.695161" esm:processing="manual (Paolucci et al 2011)" esm:quality="best">
		<comp name="--.HNE" depth="0.0">
			<acc value="0.0339587363248635" flag="0"/>
			<vel value="0.0189236973054811" flag="0"/>
			<psa03 value="0.0781198927555025" flag="0"/>
			<psa10 value="0.030285552237842" flag="0"/>
			<psa30 value="0.00771579353132096" flag="0"/>
		</comp>
		<comp name="--.HNN" depth="0.0">
			<acc value="0.0386669995439176" flag="0"/>
			<vel value="0.02605338658707" flag="0"/>
			<psa03 value="0.0572700244713879" flag="0"/>
			<psa10 value="0.0307083660903846" flag="0"/>
			<psa30 value="0.00879900235354932" flag="0"/>
		</comp>
		<comp name="--.HNZ" depth="0.0">
			<acc value="0.0140011954382258" flag="0"/>
			<vel value="0.0145891625345308" flag="0"/>
			<psa03 value="0.0359279919144722" flag="0"/>
			<psa10 value="0.0176655654390922" flag="0"/>
			<psa30 value="0.00448003714868755" flag="0"/>
		</comp>
	</station>
	<station code="ARTB" name="ARTB" netid="HL" source="National Observatory of Athens Seismic Network" insttype="" lat="39.15702" lon="20.9785" esm:processing="manual (Paolucci et al 2011)" esm:quality="good">
		<comp name="00.HNE" depth="0.0">
			<acc value="0.030239276115297" flag="0"/>
			<vel value="0.0189486918057942" flag="0"/>
			<psa03 value="0.0925718407636201" flag="0"/>
			<psa10 value="0.0174742488332355" flag="0"/>
			<psa30 value="0.00452438388489224" flag="0"/>
		</comp>
		<comp name="00.HNN" depth="0.0">
			<acc value="0.0273092431253204" flag="0"/>
			<vel value="0.0162105618879881" flag="0"/>
			<psa03 value="0.0707352848236555" flag="0"/>
			<psa10 value="0.0130765584453157" flag="0"/>
			<psa30 value="0.00319727201191197" flag="0"/>
		</comp>
		<comp name="00.HNZ" depth="0.0">
			<acc value="0.0157010847711671" flag="0"/>
			<vel value="0.00875355125591851" flag="0"/>
			<psa03 value="0.024707795624362" flag="0"/>
			<psa10 value="0.0122514719123713" flag="0"/>
			<psa30 value="0.00417455154355335" flag="0"/>
		</comp>
	</station>
	<station code="DLFA" name="DLFA" netid="HL" source="National Observatory of Athens Seismic Network" insttype="" lat="38.47836" lon="22.49583" esm:processing="manual (Paolucci et al 2011)" esm:quality="best">
		<comp name="00.HNE" depth="0.0">
			<acc value="0.00679720225277605" flag="0"/>
			<vel value="0.0128071439439539" flag="0"/>
			<psa03 value="0.0122259362103673" flag="0"/>
			<psa10 value="0.0198688537140531" flag="0"/>
			<psa30 value="0.00281511919616581" flag="0"/>
		</comp>
		<comp name="00.HNN" depth="0.0">
			<acc value="0.008481415291639" flag="0"/>
			<vel value="0.0161838054309996" flag="0"/>
			<psa03 value="0.0134612003322257" flag="0"/>
			<psa10 value="0.0223863561112222" flag="0"/>
			<psa30 value="0.00277300223945598" flag="0"/>
		</comp>
		<comp name="00.HNZ" depth="0.0">
			<acc value="0.00621542733744901" flag="0"/>
			<vel value="0.00596525206463835" flag="0"/>
			<psa03 value="0.0153975213122833" flag="0"/>
			<psa10 value="0.0116800212440753" flag="0"/>
			<psa30 value="0.0031758810115289" flag="0"/>
		</comp>
	</station>
	<station code="ITM" name="ITM" netid="HL" source="National Observatory of Athens Seismic Network" insttype="" lat="37.17872" lon="21.92522" esm:processing="manual (Paolucci et al 2011)" esm:quality="best">
		<comp name="--.HNE" depth="0.0">
			<acc value="0.0169369209879429" flag="0"/>
			<vel value="0.022336978723823" flag="0"/>
			<psa03 value="0.0567693909020013" flag="0"/>
			<psa10 value="0.027975377606477" flag="0"/>
			<psa30 value="0.00692797227750524" flag="0"/>
		</comp>
		<comp name="--.HNN" depth="0.0">
			<acc value="0.025375895190498" flag="0"/>
			<vel value="0.0304967363109824" flag="0"/>
			<psa03 value="0.0623474375035924" flag="0"/>
			<psa10 value="0.0405642509327279" flag="0"/>
			<psa30 value="0.0100560869997349" flag="0"/>
		</comp>
		<comp name="--.HNZ" depth="0.0">
			<acc value="0.0158273018831982" flag="0"/>
			<vel value="0.0227609043741735" flag="0"/>
			<psa03 value="0.0414585979911688" flag="0"/>
			<psa10 value="0.0242064698098141" flag="0"/>
			<psa30 value="0.00960336117555659" flag="0"/>
		</comp>
	</station>
	<station code="JAN" name="JAN" netid="HL" source="National Observatory of Athens Seismic Network" insttype="" lat="39.65616" lon="20.84874" esm:processing="manual (Paolucci et al 2011)" esm:quality="good">
		<comp name="00.HNE" depth="0.0">
			<acc value="0.00659873794787803" flag="0"/>
			<vel value="0.00945368269632246" flag="0"/>
			<psa03 value="0.0144970671303774" flag="0"/>
			<psa10 value="0.0132302051861528" flag="0"/>
			<psa30 value="0.00573112632567414" flag="0"/>
		</comp>
		<comp name="00.HNN" depth="0.0">
			<acc value="0.00560021108891411" flag="0"/>
			<vel value="0.00635029440851751" flag="0"/>
			<psa03 value="0.0157447578566851" flag="0"/>
			<psa10 value="0.0100973404617403" flag="0"/>
			<psa30 value="0.00265631471781521" flag="0"/>
		</comp>
		<comp name="00.HNZ" depth="0.0">
			<acc value="0.00374943961864113" flag="0"/>
			<vel value="0.00619321909005922" flag="0"/>
			<psa03 value="0.00798919200516086" flag="0"/>
			<psa10 value="0.0104421036131219" flag="0"/>
			<psa30 value="0.00305312121262893" flag="0"/>
		</comp>
	</station>
	<station code="KIAA" name="KIAA" netid="HL" source="National Observatory of Athens Seismic Network" insttype="" lat="38.0139" lon="22.7495" esm:processing="manual (Paolucci et al 2011)" esm:quality="good">
		<comp name="00.HNE" depth="0.0">
			<acc value="0.0433028230376067" flag="0"/>
			<vel value="0.0771525297036149" flag="0"/>
			<psa03 value="0.0673280903637096" flag="0"/>
			<psa10 value="0.120635981541603" flag="0"/>
			<psa30 value="0.0279133157868435" flag="0"/>
		</comp>
		<comp name="00.HNN" depth="0.0">
			<acc value="0.0427008508582272" flag="0"/>
			<vel value="0.0756231964436983" flag="0"/>
			<psa03 value="0.0774442240497065" flag="0"/>
			<psa10 value="0.120821611338673" flag="0"/>
			<psa30 value="0.0189398196701129" flag="0"/>
		</comp>
		<comp name="00.HNZ" depth="0.0">
			<acc value="0.0199961173537676" flag="0"/>
			<vel value="0.0289624611188665" flag="0"/>
			<psa03 value="0.0319763917165405" flag="0"/>
			<psa10 value="0.0676589670746668" flag="0"/>
			<psa30 value="0.0122947302988698" flag="0"/>
		</comp>
	</station>
	<station code="LXRA" name="LXRA" netid="HL" source="National Observatory of Athens Seismic Network" insttype="" lat="38.20006" lon="20.43718" esm:processing="manual (Paolucci et al 2011)" esm:quality="good">
		<comp name="00.HNE" depth="0.0">
			<acc value="0.573318515972402" flag="0"/>
			<vel value="0.255912844998489" flag="0"/>
			<psa03 value="0.838513694233031" flag="0"/>
			<psa10 value="0.303221961050623" flag="0"/>
			<psa30 value="0.066600116817496" flag="0"/>
		</comp>
		<comp name="00.HNN" depth="0.0">
			<acc value="0.523357693624763" flag="0"/>
			<vel value="0.244328993223584" flag="0"/>
			<psa03 value="1.06540142399429" flag="0"/>
			<psa10 value="0.309725240782589" flag="0"/>
			<psa30 value="0.114497991268555" flag="0"/>
		</comp>
		<comp name="00.HNZ" depth="0.0">
			<acc value="0.417971428867616" flag="0"/>
			<vel value="0.132625327572989" flag="0"/>
			<psa03 value="0.612968230670323" flag="0"/>
			<psa10 value="0.136878937863146" flag="0"/>
			<psa30 value="0.0270229505312376" flag="0"/>
		</comp>
	</station>
	<station code="PATC" name="PATC" netid="HL" source="National Observatory of Athens Seismic Network" insttype="" lat="38.26933" lon="21.76001" esm:processing="manual (Paolucci et al 2011)" esm:quality="good">
		<comp name="00.HNE" depth="0.0">
			<acc value="0.0847945277261632" flag="0"/>
			<vel value="0.0923292525040337" flag="0"/>
			<psa03 value="0.196381196790418" flag="0"/>
			<psa10 value="0.151954621247739" flag="0"/>
			<psa30 value="0.0304899298082004" flag="0"/>
		</comp>
		<comp name="00.HNN" depth="0.0">
			<acc value="0.0656464057823869" flag="0"/>
			<vel value="0.0859311943784008" flag="0"/>
			<psa03 value="0.206872662631747" flag="0"/>
			<psa10 value="0.123727506340232" flag="0"/>
			<psa30 value="0.0185876630081106" flag="0"/>
		</comp>
		<comp name="00.HNZ" depth="0.0">
			<acc value="0.0385061469425191" flag="0"/>
			<vel value="0.0474125646465836" flag="0"/>
			<psa03 value="0.0875676342591986" flag="0"/>
			<psa10 value="0.0695290359572418" flag="0"/>
			<psa30 value="0.0103849396179622" flag="0"/>
		</comp>
	</station>
	<station code="PATG" name="PATG" netid="HL" source="National Observatory of Athens Seismic Network" insttype="" lat="38.23865" lon="21.72657" esm:processing="manual (Paolucci et al 2011)" esm:quality="bad">
		<comp name="00.HNE" depth="0.0">
			<acc value="0.080281811682731" flag="0"/>
			<vel value="0.0970672753895652" flag="0"/>
			<psa03 value="0.187334785009933" flag="0"/>
			<psa10 value="0.160897328658557" flag="0"/>
			<psa30 value="0.0337656934781356" flag="0"/>
		</comp>
		<comp name="00.HNN" depth="0.0">
			<acc value="0.122057862226761" flag="0"/>
			<vel value="0.120489158278355" flag="0"/>
			<psa03 value="0.29747020594142" flag="0"/>
			<psa10 value="0.156758104455085" flag="0"/>
			<psa30 value="0.0439596587783318" flag="0"/>
		</comp>
		<comp name="00.HNZ" depth="0.0">
			<acc value="0.0421546165439381" flag="0"/>
			<vel value="0.0677544642784815" flag="0"/>
			<psa03 value="0.113486194987013" flag="0"/>
			<psa10 value="0.0927757009348328" flag="0"/>
			<psa30 value="0.0338890749849091" flag="0"/>
		</comp>
	</station>
	<station code="PRGA" name="PRGA" netid="HL" source="National Observatory of Athens Seismic Network" insttype="" lat="39.28557" lon="20.40157" esm:processing="manual (Paolucci et al 2011)" esm:quality="good">
		<comp name="00.HNE" depth="0.0">
			<acc value="0.0479364147297305" flag="0"/>
			<vel value="0.0353618722831624" flag="0"/>
			<psa03 value="0.137081580982179" flag="0"/>
			<psa10 value="0.0334627692442557" flag="0"/>
			<psa30 value="0.00465129354203749" flag="0"/>
		</comp>
		<comp name="00.HNN" depth="0.0">
			<acc value="0.057888544672059" flag="0"/>
			<vel value="0.0330567614932774" flag="0"/>
			<psa03 value="0.109458438584214" flag="0"/>
			<psa10 value="0.0391785791386091" flag="0"/>
			<psa30 value="0.00499145565941987" flag="0"/>
		</comp>
		<comp name="00.HNZ" depth="0.0">
			<acc value="0.0139789752546607" flag="0"/>
			<vel value="0.0148031758375106" flag="0"/>
			<psa03 value="0.0317621796093487" flag="0"/>
			<psa10 value="0.0176225617832421" flag="0"/>
			<psa30 value="0.00451235350462839" flag="0"/>
		</comp>
	</station>
	<station code="RIOA" name="RIOA" netid="HL" source="National Observatory of Athens Seismic Network" insttype="" lat="38.29585" lon="21.79118" esm:processing="manual (Paolucci et al 2011)" esm:quality="best">
		<comp name="00.HNE" depth="0.0">
			<acc value="0.0503936902911952" flag="0"/>
			<vel value="0.0457493915343323" flag="0"/>
			<psa03 value="0.110774317421674" flag="0"/>
			<psa10 value="0.0784237326875889" flag="0"/>
			<psa30 value="0.0165038282976493" flag="0"/>
		</comp>
		<comp name="00.HNN" depth="0.0">
			<acc value="0.0505406042156692" flag="0"/>
			<vel value="0.0441848738381517" flag="0"/>
			<psa03 value="0.0955277865801622" flag="0"/>
			<psa10 value="0.0989648409349025" flag="0"/>
			<psa30 value="0.0114308322365292" flag="0"/>
		</comp>
		<comp name="00.HNZ" depth="0.0">
			<acc value="0.0306638215666379" flag="0"/>
			<vel value="0.0301269990725649" flag="0"/>
			<psa03 value="0.0606124996556311" flag="0"/>
			<psa10 value="0.0413822513710308" flag="0"/>
			<psa30 value="0.0100757633032054" flag="0"/>
		</comp>
	</station>
	<station code="SMHA" name="SMHA" netid="HL" source="National Observatory of Athens Seismic Network" insttype="" lat="38.25123" lon="20.6477" esm:processing="manual (Paolucci et al 2011)" esm:quality="good">
		<comp name="00.HNE" depth="0.0">
			<acc value="0.763560632388883" flag="0"/>
			<vel value="0.220644662787849" flag="0"/>
			<psa03 value="1.088031076717" flag="0"/>
			<psa10 value="0.232356827499415" flag="0"/>
			<psa30 value="0.0215440138518675" flag="0"/>
		</comp>
		<comp name="00.HNN" depth="0.0">
			<acc value="0.764470396671212" flag="0"/>
			<vel value="0.24839416641226" flag="0"/>
			<psa03 value="1.70777196484484" flag="0"/>
			<psa10 value="0.17437935177634" flag="0"/>
			<psa30 value="0.0139462688718579" flag="0"/>
		</comp>
		<comp name="00.HNZ" depth="0.0">
			<acc value="0.530110589462461" flag="0"/>
			<vel value="0.126804657324251" flag="0"/>
			<psa03 value="0.723037147662392" flag="0"/>
