<?xml version="1.0" encoding="UTF-8" standalone="yes"?>
<!DOCTYPE earthquake SYSTEM "stationlist.dtd">
<stationlist created="" xmlns="ch.ethz.sed.shakemap.usgs.xml">
  <station code="AGRP" name="AGRP" netid="CL" source="RESIF" insttype="30" lat="38.3959" lon="21.7228">
    <comp name="00.HHE">
      <acc value="0.0445681317" flag="0"/>
      <vel value="0.0258514039" flag="0"/>
      <psa03 value="0.1091047976" flag="0"/>
      <psa10 value="0.0415804769" flag="0"/>
      <psa30 value="0.0077426991" flag="0"/>
    </comp>
    <comp name="00.HHN">
      <acc value="0.0317086304" flag="0"/>
      <vel value="0.0228973080" flag="0"/>
      <psa03 value="0.0993065461" flag="0"/>
      <psa10 value="0.0466980720" flag="0"/>
      <psa30 value="0.0094029082" flag="0"/>
    </comp>
    <comp name="00.HHZ">
      <acc value="0.0219004959" flag="0"/>
      <vel value="0.0137822006" flag="0"/>
      <psa03 value="0.0369908907" flag="0"/>
      <psa10 value="0.0162763416" flag="0"/>
      <psa30 value="0.0033930767" flag="0"/>
    </comp>
  </station>
  <station code="MALA" name="MALA" netid="CL" source="RESIF" insttype="30" lat="38.3935" lon="21.8726">
    <comp name="00.HH2">
      <acc value="0.0164002623" flag="0"/>
      <vel value="0.0296350536" flag="0"/>
      <psa03 value="0.0579416779" flag="0"/>
      <psa10 value="0.0305809997" flag="0"/>
      <psa30 value="0.0073967970" flag="0"/>
    </comp>
    <comp name="00.HH3">
      <acc value="0.0255304921" flag="0"/>
      <vel value="0.0411883451" flag="0"/>
      <psa03 value="0.0476297088" flag="0"/>
      <psa10 value="0.0513768407" flag="0"/>
      <psa30 value="0.0264422699" flag="0"/>
    </comp>
    <comp name="00.HHZ">
      <acc value="0.0134214110" flag="0"/>
      <vel value="0.0149636088" flag="0"/>
      <psa03 value="0.0358704572" flag="0"/>
      <psa10 value="0.0279753856" flag="0"/>
      <psa30 value="0.0100073417" flag="0"/>
    </comp>
  </station>
  <station code="ROD3" name="ROD3" netid="CL" source="RESIF" insttype="30" lat="38.3081" lon="21.892">
    <comp name="00.HHE">
      <acc value="0.0741765757" flag="0"/>
      <vel value="0.0464342081" flag="0"/>
      <psa03 value="0.2513597872" flag="0"/>
      <psa10 value="0.0568888086" flag="0"/>
      <psa30 value="0.0092507783" flag="0"/>
    </comp>
    <comp name="00.HHN">
      <acc value="0.1110832777" flag="0"/>
      <vel value="0.0565194036" flag="0"/>
      <psa03 value="0.3590272994" flag="0"/>
      <psa10 value="0.0627775219" flag="0"/>
      <psa30 value="0.0122556442" flag="0"/>
    </comp>
    <comp name="00.HHZ">
      <acc value="0.0381099107" flag="0"/>
      <vel value="0.0234590215" flag="0"/>
      <psa03 value="0.0794116564" flag="0"/>
      <psa10 value="0.0457540221" flag="0"/>
      <psa30 value="0.0030699046" flag="0"/>
    </comp>
  </station>
  <station code="ARG2" name="ARG2" netid="HI" source="NOA" insttype="CMG-5TD,ACCELEROMETER,GURALP" lat="38.1783" lon="20.4878">
    <comp name="--.HNE">
      <acc value="0.4662752980" flag="0"/>
      <vel value="0.1633255681" flag="0"/>
      <psa03 value="0.8229208110" flag="0"/>
      <psa10 value="0.1894457659" flag="0"/>
      <psa30 value="0.0183417474" flag="0"/>
    </comp>
    <comp name="--.HNN">
      <acc value="0.4238901887" flag="0"/>
      <vel value="0.1785082058" flag="0"/>
      <psa03 value="0.5344010624" flag="0"/>
      <psa10 value="0.1971769712" flag="0"/>
      <psa30 value="0.0130358884" flag="0"/>
    </comp>
    <comp name="--.HNZ">
      <acc value="0.3380131770" flag="0"/>
      <vel value="0.0967504499" flag="0"/>
      <psa03 value="0.3973360189" flag="0"/>
      <psa10 value="0.0909740540" flag="0"/>
      <psa30 value="0.0088312512" flag="0"/>
    </comp>
  </station>
  <station code="KRI1" name="KRI1" netid="HI" source="NOA" insttype="CMG-5TD,ACCELEROMETER,GURALP" lat="37.6621" lon="20.8172">
    <comp name="--.HNE">
      <acc value="1.1976936217" flag="0"/>
      <vel value="0.4878761506" flag="0"/>
      <psa03 value="1.1147473594" flag="0"/>
      <psa10 value="0.4834857003" flag="0"/>
      <psa30 value="0.0523123420" flag="0"/>
    </comp>
    <comp name="--.HNN">
      <acc value="1.3775559648" flag="0"/>
      <vel value="0.7149673489" flag="0"/>
      <psa03 value="1.0856945361" flag="0"/>
      <psa10 value="0.8906891809" flag="0"/>
      <psa30 value="0.0815284214" flag="0"/>
    </comp>
    <comp name="--.HNZ">
      <acc value="0.7111840368" flag="0"/>
      <vel value="0.2832372153" flag="0"/>
      <psa03 value="0.7094314848" flag="0"/>
      <psa10 value="0.1659358202" flag="0"/>
      <psa30 value="0.0417742553" flag="0"/>
    </comp>
  </station>
  <station code="MSL1" name="MSL1" netid="HI" source="NOA" insttype="CMG-5TD,ACCELEROMETER,GURALP" lat="38.3727" lon="21.4243">
    <comp name="--.HNE">
      <acc value="0.1382430980" flag="0"/>
      <vel value="0.1694618426" flag="0"/>
      <psa03 value="0.3529412084" flag="0"/>
      <psa10 value="0.3248972528" flag="0"/>
      <psa30 value="0.0257221860" flag="0"/>
    </comp>
    <comp name="--.HNN">
      <acc value="0.1182999299" flag="0"/>
      <vel value="0.1713459284" flag="0"/>
      <psa03 value="0.3305578947" flag="0"/>
      <psa10 value="0.2891073514" flag="0"/>
      <psa30 value="0.0211410415" flag="0"/>
    </comp>
    <comp name="--.HNZ">
      <acc value="0.0539749000" flag="0"/>
      <vel value="0.0703672659" flag="0"/>
      <psa03 value="0.1052229362" flag="0"/>
      <psa10 value="0.1659882436" flag="0"/>
      <psa30 value="0.0090464541" flag="0"/>
    </comp>
  </station>
  <station code="PYL1" name="PYL1" netid="HI" source="NOA" insttype="CMG-5TD,ACCELEROMETER,GURALP" lat="36.9142" lon="21.6952">
    <comp name="--.HNE">
      <acc value="0.0339863696" flag="0"/>
      <vel value="0.0189049772" flag="0"/>
      <psa03 value="0.0778543798" flag="0"/>
      <psa10 value="0.0304078551" flag="0"/>
      <psa30 value="0.0066292324" flag="0"/>
    </comp>
    <comp name="--.HNN">
      <acc value="0.0382856459" flag="0"/>
      <vel value="0.0253704860" flag="0"/>
      <psa03 value="0.0561649284" flag="0"/>
      <psa10 value="0.0305479322" flag="0"/>
      <psa30 value="0.0075285880" flag="0"/>
    </comp>
    <comp name="--.HNZ">
      <acc value="0.0139718029" flag="0"/>
      <vel value="0.0123411901" flag="0"/>
      <psa03 value="0.0354431165" flag="0"/>
      <psa10 value="0.0175055168" flag="0"/>
      <psa30 value="0.0037099600" flag="0"/>
    </comp>
  </station>
  <station code="ITM" name="ITM" netid="HL" source="NOA" insttype="DR24" lat="37.1787" lon="21.9252">
    <comp name="--.HHE">
      <acc value="0.0173863394" flag="0"/>
      <vel value="0.0211170105" flag="0"/>
      <psa03 value="0.0576367974" flag="0"/>
      <psa10 value="0.0287982526" flag="0"/>
      <psa30 value="0.0063384877" flag="0"/>
    </comp>
    <comp name="--.HHN">
      <acc value="0.0260076003" flag="0"/>
      <vel value="0.0285638650" flag="0"/>
      <psa03 value="0.0652720556" flag="0"/>
      <psa10 value="0.0413682067" flag="0"/>
      <psa30 value="0.0090769504" flag="0"/>
    </comp>
    <comp name="--.HHZ">
      <acc value="0.0168757849" flag="0"/>
      <vel value="0.0236631029" flag="0"/>
      <psa03 value="0.0446745576" flag="0"/>
      <psa10 value="0.0264462446" flag="0"/>
      <psa30 value="0.0090630793" flag="0"/>
    </comp>
  </station>
  <station code="LXRA" name="LXRA" netid="HL" source="NOA" insttype="CMG-5" lat="38.2001" lon="20.4372">
    <comp name="00.HNE">
      <acc value="0.5720927868" flag="0"/>
      <vel value="0.2468337670" flag="0"/>
      <psa03 value="0.8430851546" flag="0"/>
      <psa10 value="0.3034852830" flag="0"/>
      <psa30 value="0.0541174192" flag="0"/>
    </comp>
    <comp name="00.HNN">
      <acc value="0.5237598228" flag="0"/>
      <vel value="0.2371796624" flag="0"/>
      <psa03 value="1.0650288857" flag="0"/>
      <psa10 value="0.3074303519" flag="0"/>
      <psa30 value="0.0899099476" flag="0"/>
    </comp>
    <comp name="00.HNZ">
      <acc value="0.4306712487" flag="0"/>
      <vel value="0.1272702403" flag="0"/>
      <psa03 value="0.6141840517" flag="0"/>
      <psa10 value="0.1359498868" flag="0"/>
      <psa30 value="0.0233550701" flag="0"/>
    </comp>
  </station>
  <station code="PATC" name="PATC" netid="HL" source="NOA" insttype="CMG-5" lat="38.2693" lon="21.76">
    <comp name="00.HNE">
      <acc value="0.0845667426" flag="0"/>
      <vel value="0.0902861330" flag="0"/>
      <psa03 value="0.1974507566" flag="0"/>
      <psa10 value="0.1523393913" flag="0"/>
      <psa30 value="0.0273625999" flag="0"/>
    </comp>
    <comp name="00.HNN">
      <acc value="0.0656039260" flag="0"/>
      <vel value="0.0831597689" flag="0"/>
      <psa03 value="0.2069720262" flag="0"/>
      <psa10 value="0.1238295317" flag="0"/>
      <psa30 value="0.0173271972" flag="0"/>
    </comp>
    <comp name="00.HNZ">
      <acc value="0.0385693729" flag="0"/>
      <vel value="0.0458485858" flag="0"/>
      <psa03 value="0.0874498035" flag="0"/>
      <psa10 value="0.0692980723" flag="0"/>
      <psa30 value="0.0096789496" flag="0"/>
    </comp>
  </station>
  <station code="RLS" name="RLS" netid="HL" source="NOA" insttype="120" lat="38.0559" lon="21.4647">
    <comp name="--.HHE">
      <acc value="0.1011757934" flag="0"/>
      <vel value="0.0582370887" flag="0"/>
      <psa03 value="0.3078462485" flag="0"/>
      <psa10 value="0.0660169367" flag="0"/>
      <psa30 value="0.0096657906" flag="0"/>
    </comp>
    <comp name="--.HHN">
      <acc value="0.0790160758" flag="0"/>
      <vel value="0.0526818449" flag="0"/>
      <psa03 value="0.1680365732" flag="0"/>
      <psa10 value="0.0555864442" flag="0"/>
      <psa30 value="0.0082735586" flag="0"/>
    </comp>
    <comp name="--.HHZ">
      <acc value="0.0274821193" flag="0"/>
      <vel value="0.0155812765" flag="0"/>
      <psa03 value="0.0610349255" flag="0"/>
      <psa10 value="0.0248114822" flag="0"/>
      <psa30 value="0.0048553701" flag="0"/>
    </comp>
  </station>
  <station code="VLS" name="VLS" netid="HL" source="NOA" insttype="120P," lat="38.1768" lon="20.5886">
    <comp name="--.HHE">
      <acc value="0.6925828891" flag="0"/>
      <vel value="0.1468955250" flag="0"/>
      <psa03 value="0.5663899018" flag="0"/>
      <psa10 value="0.0991670193" flag="0"/>
      <psa30 value="0.0079019952" flag="0"/>
    </comp>
    <comp name="--.HHN">
      <acc value="0.4266444991" flag="0"/>
      <vel value="0.1106089000" flag="0"/>
      <psa03 value="0.4649168983" flag="0"/>
      <psa10 value="0.0761599605" flag="0"/>
      <psa30 value="0.0132348730" flag="0"/>
    </comp>
    <comp name="--.HHZ">
      <acc value="0.2316010731" flag="0"/>
      <vel value="0.0886451919" flag="0"/>
      <psa03 value="0.3589524357" flag="0"/>
      <psa10 value="0.0563713941" flag="0"/>
      <psa30 value="0.0129980208" flag="0"/>
    </comp>
  </station>
  <station code="AMT" name="AMT" netid="HP" source="NOA" insttype="CMG-3T," lat="37.5324" lon="21.7089">
    <comp name="00.HHE">
      <acc value="0.0878125314" flag="0"/>
      <vel value="0.0493991800" flag="0"/>
      <psa03 value="0.2102358446" flag="0"/>
      <psa10 value="0.1196230208" flag="0"/>
      <psa30 value="0.0083220269" flag="0"/>
    </comp>
    <comp name="00.HHN">
      <acc value="0.0919782418" flag="0"/>
      <vel value="0.0790909300" flag="0"/>
      <psa03 value="0.2046159052" flag="0"/>
      <psa10 value="0.1243272999" flag="0"/>
      <psa30 value="0.0125810398" flag="0"/>
    </comp>
    <comp name="00.HHZ">
      <acc value="0.0714376435" flag="0"/>
      <vel value="0.0277619408" flag="0"/>
      <psa03 value="0.0912320261" flag="0"/>
      <psa10 value="0.0461787607" flag="0"/>
      <psa30 value="0.0081306310" flag="0"/>
    </comp>
  </station>
  <station code="AXS" name="AXS" netid="HP" source="NOA" insttype="40," lat="38.1962" lon="21.3763">
    <comp name="--.HHE">
      <acc value="0.0342945501" flag="0"/>
      <vel value="0.0213478484" flag="0"/>
      <psa03 value="0.0677935850" flag="0"/>
      <psa10 value="0.0207385540" flag="0"/>
      <psa30 value="0.0050551713" flag="0"/>
    </comp>
    <comp name="--.HHE">
      <acc value="0.0342945501" flag="0"/>
      <vel value="0.0213478484" flag="0"/>
      <psa03 value="0.0677935850" flag="0"/>
      <psa10 value="0.0207385540" flag="0"/>
      <psa30 value="0.0050551713" flag="0"/>
    </comp>
    <comp name="--.HHN">
      <acc value="0.0307301325" flag="0"/>
      <vel value="0.0381502619" flag="0"/>
      <psa03 value="0.0809293456" flag="0"/>
      <psa10 value="0.0561209620" flag="0"/>
      <psa30 value="0.0095105698" flag="0"/>
    </comp>
    <comp name="--.HHN">
      <acc value="0.0307301325" flag="0"/>
      <vel value="0.0381502619" flag="0"/>
      <psa03 value="0.0809293456" flag="0"/>
      <psa10 value="0.0561209620" flag="0"/>
      <psa30 value="0.0095105698" flag="0"/>
    </comp>
    <comp name="--.HHZ">
      <acc value="0.0249420718" flag="0"/>
      <vel value="0.0167195579" flag="0"/>
      <psa03 value="0.0494726309" flag="0"/>
      <psa10 value="0.0209533037" flag="0"/>
      <psa30 value="0.0022710008" flag="0"/>
    </comp>
    <comp name="--.HHZ">
      <acc value="0.0249420718" flag="0"/>
      <vel value="0.0167195579" flag="0"/>
      <psa03 value="0.0494726309" flag="0"/>
      <psa10 value="0.0209533037" flag="0"/>
      <psa30 value="0.0022710008" flag="0"/>
    </comp>
  </station>
  <station code="DRO" name="DRO" netid="HP" source="NOA" insttype="120P," lat="37.952" lon="21.71">
    <comp name="--.HHE">
      <acc value="0.1043136083" flag="0"/>
      <vel value="0.0585427861" flag="0"/>
      <psa03 value="0.2722618658" flag="0"/>
      <psa10 value="0.0897429291" flag="0"/>
      <psa30 value="0.0075268225" flag="0"/>
    </comp>
    <comp name="--.HHN">
      <acc value="0.0880059478" flag="0"/>
      <vel value="0.0545093532" flag="0"/>
      <psa03 value="0.2535341250" flag="0"/>
      <psa10 value="0.0482400473" flag="0"/>
      <psa30 value="0.0078660828" flag="0"/>
    </comp>
    <comp name="--.HHZ">
      <acc value="0.0330702557" flag="0"/>
      <vel value="0.0252294756" flag="0"/>
      <psa03 value="0.1174814766" flag="0"/>
      <psa10 value="0.0456465149" flag="0"/>
      <psa30 value="0.0045595083" flag="0"/>
    </comp>
  </station>
  <station code="FSK" name="FSK" netid="HP" source="NOA" insttype="40," lat="38.4593" lon="20.5623">
    <comp name="--.HHE">
      <acc value="0.2795096307" flag="0"/>
      <vel value="0.0803671891" flag="0"/>
      <psa03 value="0.2472244565" flag="0"/>
      <psa10 value="0.1088172555" flag="0"/>
      <psa30 value="0.0155006395" flag="0"/>
    </comp>
    <comp name="--.HHN">
      <acc value="0.1799357135" flag="0"/>
      <vel value="0.0590187196" flag="0"/>
      <psa03 value="0.1699489123" flag="0"/>
      <psa10 value="0.0857126713" flag="0"/>
      <psa30 value="0.0058399090" flag="0"/>
    </comp>
    <comp name="--.HHZ">
      <acc value="0.0997749831" flag="0"/>
      <vel value="0.0376349975" flag="0"/>
      <psa03 value="0.2193705163" flag="0"/>
      <psa10 value="0.0571773764" flag="0"/>
      <psa30 value="0.0075635552" flag="0"/>
    </comp>
  </station>
  <station code="PVO" name="PVO" netid="HP" source="NOA" insttype="120P," lat="38.616" lon="21.525">
    <comp name="--.HHE">
      <acc value="0.0442156889" flag="0"/>
      <vel value="0.0462268770" flag="0"/>
      <psa03 value="0.1126606047" flag="0"/>
      <psa10 value="0.0365222709" flag="0"/>
      <psa30 value="0.0152493691" flag="0"/>
    </comp>
    <comp name="--.HHN">
      <acc value="0.0399775127" flag="0"/>
      <vel value="0.0353847322" flag="0"/>
      <psa03 value="0.0875856603" flag="0"/>
      <psa10 value="0.0504675022" flag="0"/>
      <psa30 value="0.0069363113" flag="0"/>
    </comp>
    <comp name="--.HHZ">
      <acc value="0.0245477789" flag="0"/>
      <vel value="0.0318971639" flag="0"/>
      <psa03 value="0.0471909650" flag="0"/>
      <psa10 value="0.0338258581" flag="0"/>
      <psa30 value="0.0072076012" flag="0"/>
    </comp>
  </station>
  <station code="PYL" name="PYL" netid="HP" source="NOA" insttype="120s" lat="36.8955" lon="21.742">
    <comp name="--.HHZ">
      <acc value="0.0006843091" flag="0"/>
      <vel value="0.0004789270" flag="0"/>
      <psa03 value="0.0010107890" flag="0"/>
      <psa10 value="0.0009307093" flag="0"/>
      <psa30 value="0.0001574145" flag="0"/>
    </comp>
  </station>
  <station code="DMLN" name="DMLN" netid="HT" source="NOA" insttype="1s-100Hz," lat="38.2385" lon="20.3734">
    <comp name="--.HHE">
      <acc value="0.6835094895" flag="0"/>
      <vel value="0.2347049994" flag="0"/>
      <psa03 value="0.7830408207" flag="0"/>
      <psa10 value="0.2114555140" flag="0"/>
      <psa30 value="0.0229573273" flag="0"/>
    </comp>
    <comp name="--.HHN">
      <acc value="0.5016308055" flag="0"/>
      <vel value="0.2039313353" flag="0"/>
      <psa03 value="1.1323594148" flag="0"/>
      <psa10 value="0.2252626740" flag="0"/>
      <psa30 value="0.0174286819" flag="0"/>
    </comp>
    <comp name="--.HHZ">
      <acc value="0.4838190313" flag="0"/>
      <vel value="0.1415390373" flag="0"/>
      <psa03 value="0.6989358063" flag="0"/>
      <psa10 value="0.1136378757" flag="0"/>
      <psa30 value="0.0119677167" flag="0"/>
    </comp>
  </station>
  <station code="DRAG" name="DRAG" netid="HT" source="NOA" insttype="1s-100Hz," lat="38.6839" lon="20.5746">
    <comp name="--.HHE">
      <acc value="0.0019059304" flag="0"/>
      <vel value="0.0009881226" flag="0"/>
      <psa03 value="0.0059477479" flag="0"/>
      <psa10 value="0.0009951642" flag="0"/>
      <psa30 value="0.0001363566" flag="0"/>
    </comp>
    <comp name="--.HHN">
      <acc value="0.0001407204" flag="0"/>
      <vel value="0.0000347451" flag="0"/>
      <psa03 value="0.0002405905" flag="0"/>
      <psa10 value="0.0000308682" flag="0"/>
      <psa30 value="0.0000071229" flag="0"/>
    </comp>
    <comp name="--.HHZ">
      <acc value="0.0021116745" flag="0"/>
      <vel value="0.0004982671" flag="0"/>
      <psa03 value="0.0033930683" flag="0"/>
      <psa10 value="0.0005402572" flag="0"/>
      <psa30 value="0.0001177499" flag="0"/>
    </comp>
  </station>
  <station code="EVGI" name="EVGI" netid="HT" source="NOA" insttype="30" lat="38.621" lon="20.656">
    <comp name="--.HHE">
      <acc value="0.1663111920" flag="0"/>
      <vel value="0.0520824450" flag="0"/>
      <psa03 value="0.2219495848" flag="0"/>
      <psa10 value="0.0570961596" flag="0"/>
      <psa30 value="0.0052587117" flag="0"/>
    </comp>
    <comp name="--.HHN">
      <acc value="nan" flag="0"/>
      <vel value="-100.0000000000" flag="0"/>
      <psa03 value="0.0000000000" flag="0"/>
      <psa10 value="0.0000000000" flag="0"/>
      <psa30 value="0.0000000000" flag="0"/>
    </comp>
    <comp name="--.HHZ">
      <acc value="0.1121420684" flag="0"/>
      <vel value="0.0474357472" flag="0"/>
      <psa03 value="0.1605544545" flag="0"/>
      <psa10 value="0.0385659489" flag="0"/>
      <psa30 value="0.0065776148" flag="0"/>
    </comp>
  </station>
  <station code="LKD2" name="LKD2" netid="HT" source="NOA" insttype="100" lat="38.7889" lon="20.6578">
    <comp name="--.HHE">
      <acc value="0.0401099802" flag="0"/>
      <vel value="0.0284553426" flag="0"/>
      <psa03 value="0.1485627953" flag="0"/>
      <psa10 value="0.0706704167" flag="0"/>
      <psa30 value="0.0059727085" flag="0"/>
    </comp>
    <comp name="--.HHN">
      <acc value="0.0579709827" flag="0"/>
      <vel value="0.0301847416" flag="0"/>
      <psa03 value="0.1198238172" flag="0"/>
      <psa10 value="0.0651978901" flag="0"/>
      <psa30 value="0.0054586043" flag="0"/>
    </comp>
    <comp name="--.HHZ">
      <acc value="0.0243204069" flag="0"/>
      <vel value="0.0226563661" flag="0"/>
      <psa03 value="0.0666384936" flag="0"/>
