<stationlist created="1774394742">
	<station code="SRN" name="SRN" netid="AC" source="Albanian Seismological Network (AC)" insttype="" lat="39.880001" lon="20.0005">
		<comp name="01.HNE" depth="0.0">
			<acc value="0.0546533886989647" flag="0"/>
			<vel value="0.0579640468395826" flag="0"/>
			<psa03 value="0.105971936787396" flag="0"/>
			<psa10 value="0.0839242745713113" flag="0"/>
			<psa30 value="0.0173251510395623" flag="0"/>
		</comp>
		<comp name="01.HNN" depth="0.0">
			<acc value="0.0517620828627026" flag="0"/>
			<vel value="0.0438946984505048" flag="0"/>
			<psa03 value="0.0976828355917888" flag="0"/>
			<psa10 value="0.052255972951749" flag="0"/>
			<psa30 value="0.0214077781602392" flag="0"/>
		</comp>
		<comp name="01.HNZ" depth="0.0">
			<acc value="0.0470604673977608" flag="0"/>
			<vel value="0.0414270899524004" flag="0"/>
			<psa03 value="0.149358644277169" flag="0"/>
			<psa10 value="0.0750308829277615" flag="0"/>
			<psa30 value="0.00779294957799706" flag="0"/>
		</comp>
	</station>
	<station code="AGR3" name="AGR3" netid="HI" source="ITSAK Strong Motion Network" insttype="" lat="38.5893" lon="21.4162">
		<comp name="--.HNE" depth="0.0">
			<acc value="0.0355626260054028" flag="0"/>
			<vel value="0.0368876677878651" flag="0"/>
			<psa03 value="0.136880661422044" flag="0"/>
			<psa10 value="0.0590287716164214" flag="0"/>
			<psa30 value="0.0122442794567555" flag="0"/>
		</comp>
		<comp name="--.HNN" depth="0.0">
			<acc value="0.0289965284914826" flag="0"/>
			<vel value="0.0200541117687846" flag="0"/>
			<psa03 value="0.0996005876334497" flag="0"/>
			<psa10 value="0.0411735762973603" flag="0"/>
			<psa30 value="0.00729543412003965" flag="0"/>
		</comp>
		<comp name="--.HNZ" depth="0.0">
			<acc value="0.0212313119485034" flag="0"/>
			<vel value="0.021923284417195" flag="0"/>
			<psa03 value="0.0474804213865617" flag="0"/>
			<psa10 value="0.0607334132905663" flag="0"/>
			<psa30 value="0.00304082518974522" flag="0"/>
		</comp>
	</station>
	<station code="AIA1" name="AIA1" netid="HI" source="ITSAK Strong Motion Network" insttype="" lat="40.1641" lon="21.8202">
		<comp name="--.HNE" depth="0.0">
			<acc value="0.00650224593550498" flag="0"/>
			<vel value="0.00529068635401201" flag="0"/>
			<psa03 value="0.0186673681319407" flag="0"/>
			<psa10 value="0.00714842401675846" flag="0"/>
			<psa30 value="0.000848536523880305" flag="0"/>
		</comp>
		<comp name="--.HNN" depth="0.0">
			<acc value="0.00603084527359975" flag="0"/>
			<vel value="0.0033442162159488" flag="0"/>
			<psa03 value="0.0171081385385491" flag="0"/>
			<psa10 value="0.00619590966735751" flag="0"/>
			<psa30 value="0.00100095120393818" flag="0"/>
		</comp>
		<comp name="--.HNZ" depth="0.0">
			<acc value="0.00408226210579825" flag="0"/>
			<vel value="0.00295441571102615" flag="0"/>
			<psa03 value="0.00941314961663142" flag="0"/>
			<psa10 value="0.00404417696937643" flag="0"/>
			<psa30 value="0.000700126848717683" flag="0"/>
		</comp>
	</station>
	<station code="ARG2" name="ARG2" netid="HI" source="ITSAK Strong Motion Network" insttype="" lat="38.1783" lon="20.4878">
		<comp name="--.HNE" depth="0.0">
			<acc value="0.0368888141450208" flag="0"/>
			<vel value="0.0191544553547405" flag="0"/>
			<psa03 value="0.120654576106858" flag="0"/>
			<psa10 value="0.0107087659656893" flag="0"/>
			<psa30 value="0.00174994425855218" flag="0"/>
		</comp>
		<comp name="--.HNN" depth="0.0">
			<acc value="0.0469903370944257" flag="0"/>
			<vel value="0.0224980870454506" flag="0"/>
			<psa03 value="0.0832267998253658" flag="0"/>
			<psa10 value="0.0207598171109997" flag="0"/>
			<psa30 value="0.00121492944144626" flag="0"/>
		</comp>
		<comp name="--.HNZ" depth="0.0">
			<acc value="0.0263395039092984" flag="0"/>
			<vel value="0.0134972666140325" flag="0"/>
			<psa03 value="0.0886204227514141" flag="0"/>
			<psa10 value="0.00786369624378313" flag="0"/>
			<psa30 value="0.000951232285303828" flag="0"/>
		</comp>
	</station>
	<station code="ART2" name="ART2" netid="HI" source="ITSAK Strong Motion Network" insttype="" lat="39.1474" lon="20.9937">
		<comp name="--.HNE" depth="0.0">
			<acc value="0.0576175276711421" flag="0"/>
			<vel value="0.0180185070982747" flag="0"/>
			<psa03 value="0.10967519252658" flag="0"/>
			<psa10 value="0.0161977298951112" flag="0"/>
			<psa30 value="0.00216579555665979" flag="0"/>
		</comp>
		<comp name="--.HNN" depth="0.0">
			<acc value="0.0519358434529259" flag="0"/>
			<vel value="0.0216832392999914" flag="0"/>
			<psa03 value="0.100362252673354" flag="0"/>
			<psa10 value="0.0161537657327012" flag="0"/>
			<psa30 value="0.00249356414472014" flag="0"/>
		</comp>
		<comp name="--.HNZ" depth="0.0">
			<acc value="0.0419794417918999" flag="0"/>
			<vel value="0.0152088457602805" flag="0"/>
			<psa03 value="0.074338945423631" flag="0"/>
			<psa10 value="0.0126336662933891" flag="0"/>
			<psa30 value="0.00160100751722401" flag="0"/>
		</comp>
	</station>
	<station code="AST1" name="AST1" netid="HI" source="ITSAK Strong Motion Network" insttype="" lat="38.5416" lon="21.0895">
		<comp name="--.HNE" depth="0.0">
			<acc value="0.0195440187156913" flag="0"/>
			<vel value="0.016770703333292" flag="0"/>
			<psa03 value="0.0672259013027003" flag="0"/>
			<psa10 value="0.0201582453848252" flag="0"/>
			<psa30 value="0.00317279684888662" flag="0"/>
		</comp>
		<comp name="--.HNN" depth="0.0">
			<acc value="0.0192373048984206" flag="0"/>
			<vel value="0.0143064725729327" flag="0"/>
			<psa03 value="0.0529630033307084" flag="0"/>
			<psa10 value="0.0232619697413315" flag="0"/>
			<psa30 value="0.0013819810286274" flag="0"/>
		</comp>
		<comp name="--.HNZ" depth="0.0">
			<acc value="0.0123554063864254" flag="0"/>
			<vel value="0.0101350697697972" flag="0"/>
			<psa03 value="0.0454676317991298" flag="0"/>
			<psa10 value="0.0162263517911714" flag="0"/>
			<psa30 value="0.00105219428604088" flag="0"/>
		</comp>
	</station>
	<station code="FRS1" name="FRS1" netid="HI" source="ITSAK Strong Motion Network" insttype="" lat="39.2934" lon="22.3844">
		<comp name="--.HNE" depth="0.0">
			<acc value="0.00405547681906467" flag="0"/>
			<vel value="0.00405829166697434" flag="0"/>
			<psa03 value="0.00948197904603499" flag="0"/>
			<psa10 value="0.00817505686989653" flag="0"/>
			<psa30 value="0.000751186741601664" flag="0"/>
		</comp>
		<comp name="--.HNN" depth="0.0">
			<acc value="0.00554473211182259" flag="0"/>
			<vel value="0.0084647866095906" flag="0"/>
			<psa03 value="0.0120272199213766" flag="0"/>
			<psa10 value="0.0125123401311263" flag="0"/>
			<psa30 value="0.00197320613188891" flag="0"/>
		</comp>
		<comp name="--.HNZ" depth="0.0">
			<acc value="0.00462231897706804" flag="0"/>
			<vel value="0.00513343092999839" flag="0"/>
			<psa03 value="0.00889989165747724" flag="0"/>
			<psa10 value="0.00932432050297193" flag="0"/>
			<psa30 value="0.000790209430829979" flag="0"/>
		</comp>
	</station>
	<station code="GRE3" name="GRE3" netid="HI" source="ITSAK Strong Motion Network" insttype="" lat="40.08481" lon="21.43829">
		<comp name="--.HNE" depth="0.0">
			<acc value="0.00835821422633863" flag="0"/>
			<vel value="0.0103145937607325" flag="0"/>
			<psa03 value="0.0246875599088504" flag="0"/>
			<psa10 value="0.0103220750368131" flag="0"/>
			<psa30 value="0.00316484048848346" flag="0"/>
		</comp>
		<comp name="--.HNN" depth="0.0">
			<acc value="0.00947122571408145" flag="0"/>
			<vel value="0.00831575065043189" flag="0"/>
			<psa03 value="0.0251936741656027" flag="0"/>
			<psa10 value="0.0115719362714859" flag="0"/>
			<psa30 value="0.00227339601799561" flag="0"/>
		</comp>
		<comp name="--.HNZ" depth="0.0">
			<acc value="0.00814494787993577" flag="0"/>
			<vel value="0.00646990855758612" flag="0"/>
			<psa03 value="0.0153763805889173" flag="0"/>
			<psa10 value="0.0129963996976969" flag="0"/>
			<psa30 value="0.00223697985560357" flag="0"/>
		</comp>
	</station>
	<station code="JAN2" name="JAN2" netid="HI" source="ITSAK Strong Motion Network" insttype="" lat="39.664" lon="20.85222">
		<comp name="--.HNE" depth="0.0">
			<acc value="0.726613056664695" flag="0"/>
			<vel value="0.286230684519952" flag="0"/>
			<psa03 value="2.79398992145344" flag="0"/>
			<psa10 value="0.114826021660398" flag="0"/>
			<psa30 value="0.0111948216019898" flag="0"/>
		</comp>
		<comp name="--.HNN" depth="0.0">
			<acc value="0.492276617228788" flag="0"/>
			<vel value="0.191491822735021" flag="0"/>
			<psa03 value="0.879739945120491" flag="0"/>
			<psa10 value="0.0567066515373625" flag="0"/>
			<psa30 value="0.00653668552333553" flag="0"/>
		</comp>
		<comp name="--.HNZ" depth="0.0">
			<acc value="0.610103019385644" flag="0"/>
			<vel value="0.120065601488055" flag="0"/>
			<psa03 value="0.288393646330373" flag="0"/>
			<psa10 value="0.0609412858111006" flag="0"/>
			<psa30 value="0.00638991663395025" flag="0"/>
		</comp>
	</station>
	<station code="JAN3" name="JAN3" netid="HI" source="ITSAK Strong Motion Network" insttype="" lat="39.684" lon="20.8379">
		<comp name="--.HNE" depth="0.0">
			<acc value="0.655376105131225" flag="0"/>
			<vel value="0.177170589255767" flag="0"/>
			<psa03 value="1.55876692732557" flag="0"/>
			<psa10 value="0.0629610308592977" flag="0"/>
			<psa30 value="0.00976164082746383" flag="0"/>
		</comp>
		<comp name="--.HNN" depth="0.0">
			<acc value="0.635762567428011" flag="0"/>
			<vel value="0.223583820730416" flag="0"/>
			<psa03 value="1.42874881426368" flag="0"/>
			<psa10 value="0.0731013501056817" flag="0"/>
			<psa30 value="0.00820207251371701" flag="0"/>
		</comp>
		<comp name="--.HNZ" depth="0.0">
			<acc value="0.562565357392123" flag="0"/>
			<vel value="0.13956755701482" flag="0"/>
			<psa03 value="0.874648191150113" flag="0"/>
			<psa10 value="0.0516610972941562" flag="0"/>
			<psa30 value="0.00612725298377251" flag="0"/>
		</comp>
	</station>
	<station code="KAR2" name="KAR2" netid="HI" source="ITSAK Strong Motion Network" insttype="" lat="39.365759" lon="21.91933">
		<comp name="--.HNE" depth="0.0">
			<acc value="0.00144789273984456" flag="0"/>
			<vel value="8.81152944107363e-05" flag="0"/>
			<psa03 value="2.63570418417256e-05" flag="0"/>
			<psa10 value="2.33062100597308e-06" flag="0"/>
			<psa30 value="2.58637611784628e-07" flag="0"/>
		</comp>
		<comp name="--.HNN" depth="0.0">
			<acc value="0.00132661924773163" flag="0"/>
			<vel value="8.67985212715155e-05" flag="0"/>
			<psa03 value="2.66349584050033e-05" flag="0"/>
			<psa10 value="2.35132405286337e-06" flag="0"/>
			<psa30 value="2.60891891165146e-07" flag="0"/>
		</comp>
		<comp name="--.HNZ" depth="0.0">
			<acc value="0.00552640120317286" flag="0"/>
			<vel value="0.000378847807057461" flag="0"/>
			<psa03 value="0.000110067634865105" flag="0"/>
			<psa10 value="9.70663636418939e-06" flag="0"/>
			<psa30 value="1.07657624139503e-06" flag="0"/>
		</comp>
	</station>
	<station code="KAS2" name="KAS2" netid="HI" source="ITSAK Strong Motion Network" insttype="" lat="40.504878" lon="21.280507">
		<comp name="--.HNE" depth="0.0">
			<acc value="0.0031126932792438" flag="0"/>
			<vel value="0.00308129429051928" flag="0"/>
			<psa03 value="0.0078888201216584" flag="0"/>
			<psa10 value="0.00654301906790177" flag="0"/>
			<psa30 value="0.00106969586210107" flag="0"/>
		</comp>
		<comp name="--.HNN" depth="0.0">
			<acc value="0.00280866261113353" flag="0"/>
			<vel value="0.00354308789849278" flag="0"/>
			<psa03 value="0.00884758155156445" flag="0"/>
			<psa10 value="0.0060943398138532" flag="0"/>
			<psa30 value="0.00107527987784804" flag="0"/>
		</comp>
		<comp name="--.HNZ" depth="0.0">
			<acc value="0.00257021509774363" flag="0"/>
			<vel value="0.00275141053144143" flag="0"/>
			<psa03 value="0.00674139059445852" flag="0"/>
			<psa10 value="0.00400468450944478" flag="0"/>
			<psa30 value="0.000800698146489249" flag="0"/>
		</comp>
	</station>
	<station code="KNS1" name="KNS1" netid="HI" source="ITSAK Strong Motion Network" insttype="" lat="40.048" lon="20.7524">
		<comp name="--.HNE" depth="0.0">
			<acc value="0.0524408307509166" flag="0"/>
			<vel value="0.0299248272231791" flag="0"/>
			<psa03 value="0.0963798013554989" flag="0"/>
			<psa10 value="0.0410535945991616" flag="0"/>
			<psa30 value="0.0074658554096137" flag="0"/>
		</comp>
		<comp name="--.HNN" depth="0.0">
			<acc value="0.0694473049398476" flag="0"/>
			<vel value="0.0287383237562813" flag="0"/>
			<psa03 value="0.130667812351284" flag="0"/>
			<psa10 value="0.0162993691282116" flag="0"/>
			<psa30 value="0.00202826165404705" flag="0"/>
		</comp>
		<comp name="--.HNZ" depth="0.0">
			<acc value="0.0379993335939058" flag="0"/>
			<vel value="0.0128753694676291" flag="0"/>
			<psa03 value="0.0621562581720568" flag="0"/>
			<psa10 value="0.0145249943970938" flag="0"/>
			<psa30 value="0.00163161652408716" flag="0"/>
		</comp>
	</station>
	<station code="KOZ2" name="KOZ2" netid="HI" source="ITSAK Strong Motion Network" insttype="" lat="40.295728" lon="21.788123">
		<comp name="--.HNE" depth="0.0">
			<acc value="0.00701926317076303" flag="0"/>
			<vel value="0.003691743605915" flag="0"/>
			<psa03 value="0.024467456786432" flag="0"/>
			<psa10 value="0.00543016800323033" flag="0"/>
			<psa30 value="0.000513392707663948" flag="0"/>
		</comp>
		<comp name="--.HNN" depth="0.0">
			<acc value="0.00652783553062856" flag="0"/>
			<vel value="0.0045251112618199" flag="0"/>
			<psa03 value="0.0180378824211851" flag="0"/>
			<psa10 value="0.00569239756215165" flag="0"/>
			<psa30 value="0.000626805064425985" flag="0"/>
		</comp>
		<comp name="--.HNZ" depth="0.0">
			<acc value="0.00492116373010923" flag="0"/>
			<vel value="0.00225867009960432" flag="0"/>
			<psa03 value="0.0102575226094899" flag="0"/>
			<psa10 value="0.00267775848210768" flag="0"/>
			<psa30 value="0.000586867991707585" flag="0"/>
		</comp>
	</station>
	<station code="KRK1" name="KRK1" netid="HI" source="ITSAK Strong Motion Network" insttype="" lat="39.618861" lon="19.9202">
		<comp name="--.HNE" depth="0.0">
			<acc value="0.118692698552493" flag="0"/>
			<vel value="0.0406369020843939" flag="0"/>
			<psa03 value="0.195601936835017" flag="0"/>
			<psa10 value="0.0281866216003482" flag="0"/>
			<psa30 value="0.00569852291584294" flag="0"/>
		</comp>
		<comp name="--.HNN" depth="0.0">
			<acc value="0.108255850130163" flag="0"/>
			<vel value="0.06391003045744" flag="0"/>
			<psa03 value="0.205550595884854" flag="0"/>
			<psa10 value="0.0609529415832384" flag="0"/>
			<psa30 value="0.00788800254145606" flag="0"/>
		</comp>
		<comp name="--.HNZ" depth="0.0">
			<acc value="0.0462996785585057" flag="0"/>
			<vel value="0.0188780653427782" flag="0"/>
			<psa03 value="0.0936386822698122" flag="0"/>
			<psa10 value="0.0160178173517882" flag="0"/>
			<psa30 value="0.00308002799507201" flag="0"/>
		</comp>
	</station>
	<station code="LAR4" name="LAR4" netid="HI" source="ITSAK Strong Motion Network" insttype="" lat="39.6422" lon="22.4219">
		<comp name="--.HNE" depth="0.0">
			<acc value="0.0333192430561818" flag="0"/>
			<vel value="0.0438301345589983" flag="0"/>
			<psa03 value="0.0527877104684165" flag="0"/>
			<psa10 value="0.0733528717677574" flag="0"/>
			<psa30 value="0.00746999735066363" flag="0"/>
		</comp>
		<comp name="--.HNN" depth="0.0">
			<acc value="0.0306894277251207" flag="0"/>
			<vel value="0.0362990758072293" flag="0"/>
			<psa03 value="0.0705906762858629" flag="0"/>
			<psa10 value="0.0718402690652518" flag="0"/>
			<psa30 value="0.00659120413492598" flag="0"/>
		</comp>
		<comp name="--.HNZ" depth="0.0">
			<acc value="0.0129007204031325" flag="0"/>
			<vel value="0.0124308375774953" flag="0"/>
			<psa03 value="0.0277812492255846" flag="0"/>
			<psa10 value="0.0202317221272988" flag="0"/>
			<psa30 value="0.00315461918637236" flag="0"/>
		</comp>
	</station>
	<station code="LEF2" name="LEF2" netid="HI" source="ITSAK Strong Motion Network" insttype="" lat="38.830093" lon="20.708346">
		<comp name="--.HNE" depth="0.0">
			<acc value="0.0816250517731738" flag="0"/>
			<vel value="0.0584784678033558" flag="0"/>
			<psa03 value="0.380067969304356" flag="0"/>
			<psa10 value="0.105120963747941" flag="0"/>
			<psa30 value="0.0131372294436431" flag="0"/>
		</comp>
		<comp name="--.HNN" depth="0.0">
			<acc value="0.0912010471955717" flag="0"/>
			<vel value="0.0706712821142076" flag="0"/>
			<psa03 value="0.375677970155124" flag="0"/>
			<psa10 value="0.116712726645344" flag="0"/>
			<psa30 value="0.00706054856002406" flag="0"/>
		</comp>
		<comp name="--.HNZ" depth="0.0">
			<acc value="0.0493352298626402" flag="0"/>
			<vel value="0.0443867424000602" flag="0"/>
			<psa03 value="0.155527823788368" flag="0"/>
			<psa10 value="0.0672693687655398" flag="0"/>
			<psa30 value="0.00479477179676668" flag="0"/>
		</comp>
	</station>
	<station code="LMS2" name="LMS2" netid="HI" source="ITSAK Strong Motion Network" insttype="" lat="40.834985" lon="21.141815">
		<comp name="--.HNE" depth="0.0">
			<acc value="0.00600581377350924" flag="0"/>
			<vel value="0.00621026934341167" flag="0"/>
			<psa03 value="0.0144459960388403" flag="0"/>
			<psa10 value="0.00758040857111512" flag="0"/>
			<psa30 value="0.0010447391046717" flag="0"/>
		</comp>
		<comp name="--.HNN" depth="0.0">
			<acc value="0.0101447786951342" flag="0"/>
			<vel value="0.00709822994873354" flag="0"/>
			<psa03 value="0.0147954032999399" flag="0"/>
			<psa10 value="0.00761860813289861" flag="0"/>
			<psa30 value="0.000770347229639962" flag="0"/>
		</comp>
		<comp name="--.HNZ" depth="0.0">
			<acc value="0.00344222027736975" flag="0"/>
			<vel value="0.00351179036352484" flag="0"/>
			<psa03 value="0.00885909989272302" flag="0"/>
			<psa10 value="0.00584014844367243" flag="0"/>
			<psa30 value="0.000586912005039919" flag="0"/>
		</comp>
	</station>
	<station code="LXR2" name="LXR2" netid="HI" source="ITSAK Strong Motion Network" insttype="" lat="38.206718" lon="20.436386">
		<comp name="--.HNE" depth="0.0">
			<acc value="0.0239681343832478" flag="0"/>
			<vel value="0.022525431806776" flag="0"/>
			<psa03 value="0.0779543880539616" flag="0"/>
			<psa10 value="0.0304027109053887" flag="0"/>
			<psa30 value="0.00659791291268292" flag="0"/>
		</comp>
		<comp name="--.HNN" depth="0.0">
			<acc value="0.0364848658871803" flag="0"/>
			<vel value="0.0237512608389799" flag="0"/>
			<psa03 value="0.113842729022087" flag="0"/>
			<psa10 value="0.0401184626512594" flag="0"/>
			<psa30 value="0.00329328045533425" flag="0"/>
		</comp>
		<comp name="--.HNZ" depth="0.0">
			<acc value="0.0220064820822587" flag="0"/>
			<vel value="0.0152080638565353" flag="0"/>
			<psa03 value="0.0600871992320564" flag="0"/>
			<psa10 value="0.023934231775392" flag="0"/>
			<psa30 value="0.00226950034325961" flag="0"/>
		</comp>
	</station>
	<station code="MSL1" name="MSL1" netid="HI" source="ITSAK Strong Motion Network" insttype="" lat="38.3727" lon="21.4243">
		<comp name="--.HNE" depth="0.0">
			<acc value="0.0294242155039286" flag="0"/>
			<vel value="0.030419820457029" flag="0"/>
			<psa03 value="0.112476711446793" flag="0"/>
			<psa10 value="0.0588327911336762" flag="0"/>
			<psa30 value="0.00469216291609858" flag="0"/>
		</comp>
		<comp name="--.HNN" depth="0.0">
			<acc value="0.0362383924646223" flag="0"/>
			<vel value="0.0351196924771053" flag="0"/>
			<psa03 value="0.120730726984814" flag="0"/>
			<psa10 value="0.0871301069419725" flag="0"/>
			<psa30 value="0.00388111502148931" flag="0"/>
		</comp>
		<comp name="--.HNZ" depth="0.0">
			<acc value="0.0139630059620005" flag="0"/>
			<vel value="0.0163705308081331" flag="0"/>
			<psa03 value="0.0532941346415326" flag="0"/>
			<psa10 value="0.0388790467960418" flag="0"/>
			<psa30 value="0.00199945141217659" flag="0"/>
		</comp>
	</station>
	<station code="PRE2" name="PRE2" netid="HI" source="ITSAK Strong Motion Network" insttype="" lat="38.9577" lon="20.7548">
		<comp name="--.HNE" depth="0.0">
			<acc value="0.128039330570382" flag="0"/>
			<vel value="0.137398474257534" flag="0"/>
