<?xml version="1.0" encoding="UTF-8" standalone="yes"?>
<!DOCTYPE earthquake SYSTEM "stationlist.dtd">
<stationlist created="" xmlns="ch.ethz.sed.shakemap.usgs.xml">
  <station code="AIA1" name="AIA1" netid="HI" insttype="unknown" commtype="DIG" lat="40.1641" lon="21.8202">
    <comp name="--.HNN">
      <acc value="0.0060555898" flag="0"/>
      <vel value="0.0033101316" flag="0"/>
      <psa03 value="0.0171679287" flag="0"/>
      <psa10 value="0.0061963162" flag="0"/>
      <psa30 value="0.0008551362" flag="0"/>
    </comp>
    <comp name="--.HNE">
      <acc value="0.0065231120" flag="0"/>
      <vel value="0.0050736267" flag="0"/>
      <psa03 value="0.0188210311" flag="0"/>
      <psa10 value="0.0071632815" flag="0"/>
      <psa30 value="0.0007984591" flag="0"/>
    </comp>
    <comp name="--.HNZ">
      <acc value="0.0042406517" flag="0"/>
      <vel value="0.0028625671" flag="0"/>
      <psa03 value="0.0093377027" flag="0"/>
      <psa10 value="0.0040120348" flag="0"/>
      <psa30 value="0.0006308552" flag="0"/>
    </comp>
  </station>
  <station code="ART2" name="ART2" netid="HI" insttype="CMG-5TD,ACCELEROMETER,GURALP" commtype="DIG" lat="39.1474" lon="20.9937">
    <comp name="--.HNE">
      <acc value="0.0608745397" flag="0"/>
      <vel value="0.0178712260" flag="0"/>
      <psa03 value="0.1084506058" flag="0"/>
      <psa10 value="0.0161917940" flag="0"/>
      <psa30 value="0.0020438947" flag="0"/>
    </comp>
    <comp name="--.HNN">
      <acc value="0.0520019466" flag="0"/>
      <vel value="0.0225752151" flag="0"/>
      <psa03 value="0.1004595087" flag="0"/>
      <psa10 value="0.0159092349" flag="0"/>
      <psa30 value="0.0020300175" flag="0"/>
    </comp>
    <comp name="--.HNZ">
      <acc value="0.0414740209" flag="0"/>
      <vel value="0.0158959665" flag="0"/>
      <psa03 value="0.0730771489" flag="0"/>
      <psa10 value="0.0125439185" flag="0"/>
      <psa30 value="0.0013556387" flag="0"/>
    </comp>
  </station>
  <station code="GRE3" name="GRE3" netid="HI" insttype="unknown" commtype="DIG" lat="40.0848" lon="21.4383">
    <comp name="--.HNE">
      <acc value="0.0083731812" flag="0"/>
      <vel value="0.0105176775" flag="0"/>
      <psa03 value="0.0244668349" flag="0"/>
      <psa10 value="0.0101946765" flag="0"/>
      <psa30 value="0.0029246691" flag="0"/>
    </comp>
    <comp name="--.HNN">
      <acc value="0.0094587526" flag="0"/>
      <vel value="0.0083523819" flag="0"/>
      <psa03 value="0.0250839931" flag="0"/>
      <psa10 value="0.0114658306" flag="0"/>
      <psa30 value="0.0020446691" flag="0"/>
    </comp>
    <comp name="--.HNZ">
      <acc value="0.0088436654" flag="0"/>
      <vel value="0.0061276823" flag="0"/>
      <psa03 value="0.0153949695" flag="0"/>
      <psa10 value="0.0129726712" flag="0"/>
      <psa30 value="0.0020401220" flag="0"/>
    </comp>
  </station>
  <station code="JAN2" name="JAN2" netid="HI" insttype="unknown" commtype="DIG" lat="39.664" lon="20.8522">
    <comp name="--.HNE">
      <acc value="0.7241611387" flag="0"/>
      <vel value="0.2814339512" flag="0"/>
      <psa03 value="2.7659386712" flag="0"/>
      <psa10 value="0.1147630761" flag="0"/>
      <psa30 value="0.0103012716" flag="0"/>
    </comp>
    <comp name="--.HNN">
      <acc value="0.4951320991" flag="0"/>
      <vel value="0.1910838992" flag="0"/>
      <psa03 value="0.8721764722" flag="0"/>
      <psa10 value="0.0565659501" flag="0"/>
      <psa30 value="0.0059846023" flag="0"/>
    </comp>
    <comp name="--.HNZ">
      <acc value="0.6029842963" flag="0"/>
      <vel value="0.1182087201" flag="0"/>
      <psa03 value="0.2829614270" flag="0"/>
      <psa10 value="0.0607125646" flag="0"/>
      <psa30 value="0.0058891044" flag="0"/>
    </comp>
  </station>
  <station code="JAN3" name="JAN3" netid="HI" insttype="unknown" commtype="DIG" lat="39.684" lon="20.8379">
    <comp name="--.HNN">
      <acc value="0.6382979334" flag="0"/>
      <vel value="0.2216128930" flag="0"/>
      <psa03 value="1.3988228249" flag="0"/>
      <psa10 value="0.0727071385" flag="0"/>
      <psa30 value="0.0073547295" flag="0"/>
    </comp>
    <comp name="--.HNE">
      <acc value="0.6524862177" flag="0"/>
      <vel value="0.1761039646" flag="0"/>
      <psa03 value="1.5108914998" flag="0"/>
      <psa10 value="0.0625159815" flag="0"/>
      <psa30 value="0.0088014032" flag="0"/>
    </comp>
    <comp name="--.HNZ">
      <acc value="0.5666904725" flag="0"/>
      <vel value="0.1375174842" flag="0"/>
      <psa03 value="0.8623697735" flag="0"/>
      <psa10 value="0.0516223023" flag="0"/>
      <psa30 value="0.0057995039" flag="0"/>
    </comp>
  </station>
  <station code="KNS1" name="KNS1" netid="HI" insttype="unknown" commtype="DIG" lat="40.048" lon="20.7524">
    <comp name="--.HNZ">
      <acc value="0.0382612824" flag="0"/>
      <vel value="0.0129884400" flag="0"/>
      <psa03 value="0.0621568707" flag="0"/>
      <psa10 value="0.0144980209" flag="0"/>
      <psa30 value="0.0015177767" flag="0"/>
    </comp>
    <comp name="--.HNE">
      <acc value="0.0543939281" flag="0"/>
      <vel value="0.0264132599" flag="0"/>
      <psa03 value="0.0964293196" flag="0"/>
      <psa10 value="0.0405248325" flag="0"/>
      <psa30 value="0.0066011833" flag="0"/>
    </comp>
    <comp name="--.HNN">
      <acc value="0.0703288353" flag="0"/>
      <vel value="0.0280201108" flag="0"/>
      <psa03 value="0.1272995517" flag="0"/>
      <psa10 value="0.0162704590" flag="0"/>
      <psa30 value="0.0019021551" flag="0"/>
    </comp>
  </station>
  <station code="KRK1" name="KRK1" netid="HI" insttype="CMG-5TD,ACCELEROMETER,GURALP" commtype="DIG" lat="39.6189" lon="19.9202">
    <comp name="--.HNE">
      <acc value="0.1182413115" flag="0"/>
      <vel value="0.0403301853" flag="0"/>
      <psa03 value="0.1934017785" flag="0"/>
      <psa10 value="0.0281348040" flag="0"/>
      <psa30 value="0.0051111643" flag="0"/>
    </comp>
    <comp name="--.HNN">
      <acc value="0.1077250981" flag="0"/>
      <vel value="0.0628442471" flag="0"/>
      <psa03 value="0.2073506612" flag="0"/>
      <psa10 value="0.0608979410" flag="0"/>
      <psa30 value="0.0075176853" flag="0"/>
    </comp>
    <comp name="--.HNZ">
      <acc value="0.0465132359" flag="0"/>
      <vel value="0.0189580132" flag="0"/>
      <psa03 value="0.0931855315" flag="0"/>
      <psa10 value="0.0160094858" flag="0"/>
      <psa30 value="0.0026554451" flag="0"/>
    </comp>
  </station>
  <station code="LEF2" name="LEF2" netid="HI" insttype="unknown" commtype="DIG" lat="38.8301" lon="20.7083">
    <comp name="--.HNZ">
      <acc value="0.0494315185" flag="0"/>
      <vel value="0.0441283943" flag="0"/>
      <psa03 value="0.1551873570" flag="0"/>
      <psa10 value="0.0673010248" flag="0"/>
      <psa30 value="0.0047729486" flag="0"/>
    </comp>
    <comp name="--.HNE">
      <acc value="0.0818075301" flag="0"/>
      <vel value="0.0583010218" flag="0"/>
      <psa03 value="0.3785381165" flag="0"/>
      <psa10 value="0.1051786765" flag="0"/>
      <psa30 value="0.0127296102" flag="0"/>
    </comp>
    <comp name="--.HNN">
      <acc value="0.0911306466" flag="0"/>
      <vel value="0.0708305184" flag="0"/>
      <psa03 value="0.3779841181" flag="0"/>
      <psa10 value="0.1168351847" flag="0"/>
      <psa30 value="0.0070223327" flag="0"/>
    </comp>
  </station>
  <station code="PRE2" name="PRE2" netid="HI" insttype="unknown" commtype="DIG" lat="38.9577" lon="20.7548">
    <comp name="--.HNE">
      <acc value="0.1276736926" flag="0"/>
      <vel value="0.1375076312" flag="0"/>
      <psa03 value="0.2950048961" flag="0"/>
      <psa10 value="0.2039880998" flag="0"/>
      <psa30 value="0.0137874720" flag="0"/>
    </comp>
    <comp name="--.HNN">
      <acc value="0.0780050768" flag="0"/>
      <vel value="0.0548897003" flag="0"/>
      <psa03 value="0.2228328477" flag="0"/>
      <psa10 value="0.0825138683" flag="0"/>
      <psa30 value="0.0107446237" flag="0"/>
    </comp>
    <comp name="--.HNZ">
      <acc value="0.0502012484" flag="0"/>
      <vel value="0.0256430443" flag="0"/>
      <psa03 value="0.1448318908" flag="0"/>
      <psa10 value="0.0424923154" flag="0"/>
      <psa30 value="0.0032328257" flag="0"/>
    </comp>
  </station>
  <station code="ARTB" name="ARTB" netid="HL" insttype="CMG-5" commtype="DIG" lat="39.157" lon="20.9785">
    <comp name="00.HNN">
      <acc value="0.1486016221" flag="0"/>
      <vel value="0.0549174102" flag="0"/>
      <psa03 value="0.4910972571" flag="0"/>
      <psa10 value="0.0204447845" flag="0"/>
      <psa30 value="0.0026014219" flag="0"/>
    </comp>
    <comp name="00.HNZ">
      <acc value="0.1278693277" flag="0"/>
      <vel value="0.0427249035" flag="0"/>
      <psa03 value="0.2975669401" flag="0"/>
      <psa10 value="0.0222718903" flag="0"/>
      <psa30 value="0.0020172311" flag="0"/>
    </comp>
    <comp name="00.HNE">
      <acc value="0.2033264321" flag="0"/>
      <vel value="0.0528794073" flag="0"/>
      <psa03 value="0.5132713764" flag="0"/>
      <psa10 value="0.0207322701" flag="0"/>
      <psa30 value="0.0021388583" flag="0"/>
    </comp>
  </station>
  <station code="EVR" name="EVR" netid="HL" insttype="DR24" commtype="DIG" lat="38.9166" lon="21.8105">
    <comp name="--.HHE">
      <acc value="0.0153541623" flag="0"/>
      <vel value="0.0097902692" flag="0"/>
      <psa03 value="0.0594323598" flag="0"/>
      <psa10 value="0.0106632628" flag="0"/>
      <psa30 value="0.0008583570" flag="0"/>
    </comp>
    <comp name="--.HHN">
      <acc value="0.0126919195" flag="0"/>
      <vel value="0.0152443484" flag="0"/>
      <psa03 value="0.0352942060" flag="0"/>
      <psa10 value="0.0201122017" flag="0"/>
      <psa30 value="0.0019443709" flag="0"/>
    </comp>
    <comp name="--.HHZ">
      <acc value="0.0129683794" flag="0"/>
      <vel value="0.0097443711" flag="0"/>
      <psa03 value="0.0290984219" flag="0"/>
      <psa10 value="0.0121846062" flag="0"/>
      <psa30 value="0.0009880401" flag="0"/>
    </comp>
  </station>
  <station code="JAN" name="JAN" netid="HL" insttype="CMG3EPSC60_DR24" commtype="DIG" lat="39.6562" lon="20.8487">
    <comp name="--.HHE">
      <acc value="0.4824367392" flag="0"/>
      <vel value="0.1171809251" flag="0"/>
      <psa03 value="0.7196581530" flag="0"/>
      <psa10 value="0.0793028408" flag="0"/>
      <psa30 value="0.0104051153" flag="0"/>
    </comp>
    <comp name="--.HHZ">
      <acc value="0.2562932476" flag="0"/>
      <vel value="0.0708840991" flag="0"/>
      <psa03 value="0.2691751698" flag="0"/>
      <psa10 value="0.0719631417" flag="0"/>
      <psa30 value="0.0068332368" flag="0"/>
    </comp>
    <comp name="--.HHN">
      <acc value="0.4981785711" flag="0"/>
      <vel value="0.1316233667" flag="0"/>
      <psa03 value="0.7287172532" flag="0"/>
      <psa10 value="0.0428587371" flag="0"/>
      <psa30 value="0.0061052037" flag="0"/>
    </comp>
  </station>
  <station code="KEK" name="KEK" netid="HL" insttype="120" commtype="DIG" lat="39.7127" lon="19.7962">
    <comp name="--.HHN">
      <acc value="0.0262518022" flag="0"/>
      <vel value="0.0375991681" flag="0"/>
      <psa03 value="0.0513882722" flag="0"/>
      <psa10 value="0.0329860613" flag="0"/>
      <psa30 value="0.0112012572" flag="0"/>
    </comp>
    <comp name="--.HHE">
      <acc value="0.0336261451" flag="0"/>
      <vel value="0.0231601965" flag="0"/>
      <psa03 value="0.0609197923" flag="0"/>
      <psa10 value="0.0356508315" flag="0"/>
      <psa30 value="0.0038773467" flag="0"/>
    </comp>
    <comp name="--.HHZ">
      <acc value="0.0203467522" flag="0"/>
      <vel value="0.0163917650" flag="0"/>
      <psa03 value="0.0441965218" flag="0"/>
      <psa10 value="0.0198012795" flag="0"/>
      <psa30 value="0.0019306215" flag="0"/>
    </comp>
  </station>
  <station code="PENT" name="PENT" netid="HL" insttype="Horizon,120s,1200" commtype="DIG" lat="40.1961" lon="21.1381">
    <comp name="--.HHN">
      <acc value="0.0104790158" flag="0"/>
      <vel value="0.0062964774" flag="0"/>
      <psa03 value="0.0236861500" flag="0"/>
      <psa10 value="0.0064351113" flag="0"/>
      <psa30 value="0.0011418962" flag="0"/>
    </comp>
    <comp name="--.HHE">
      <acc value="0.0080654954" flag="0"/>
      <vel value="0.0055578407" flag="0"/>
      <psa03 value="0.0205214278" flag="0"/>
      <psa10 value="0.0102987356" flag="0"/>
      <psa30 value="0.0015765079" flag="0"/>
    </comp>
    <comp name="--.HHZ">
      <acc value="0.0070538266" flag="0"/>
      <vel value="0.0035245118" flag="0"/>
      <psa03 value="0.0176027396" flag="0"/>
      <psa10 value="0.0070215434" flag="0"/>
      <psa30 value="0.0009202766" flag="0"/>
    </comp>
  </station>
  <station code="PRGA" name="PRGA" netid="HL" insttype="CMG-5" commtype="DIG" lat="39.2856" lon="20.4016">
    <comp name="00.HNE">
      <acc value="0.9581684997" flag="0"/>
      <vel value="0.3436017300" flag="0"/>
      <psa03 value="2.2359063713" flag="0"/>
      <psa10 value="0.1310556803" flag="0"/>
      <psa30 value="0.0106871700" flag="0"/>
    </comp>
    <comp name="00.HNN">
      <acc value="0.7473385831" flag="0"/>
      <vel value="0.3997969323" flag="0"/>
      <psa03 value="3.2948820328" flag="0"/>
      <psa10 value="0.2030993383" flag="0"/>
      <psa30 value="0.0166800837" flag="0"/>
    </comp>
    <comp name="00.HNZ">
      <acc value="0.2421600313" flag="0"/>
      <vel value="0.0832596427" flag="0"/>
      <psa03 value="0.3619993633" flag="0"/>
      <psa10 value="0.0790155257" flag="0"/>
      <psa30 value="0.0065138914" flag="0"/>
    </comp>
  </station>
  <station code="TETR" name="TETR" netid="HL" insttype="60" commtype="DIG" lat="39.3445" lon="21.2747">
    <comp name="--.HHN">
      <acc value="0.1843736946" flag="0"/>
      <vel value="0.0680401491" flag="0"/>
      <psa03 value="0.3613260559" flag="0"/>
      <psa10 value="0.0522063572" flag="0"/>
      <psa30 value="0.0059850296" flag="0"/>
    </comp>
    <comp name="--.HHE">
      <acc value="0.2076573682" flag="0"/>
      <vel value="0.0844553036" flag="0"/>
      <psa03 value="0.5113797636" flag="0"/>
      <psa10 value="0.0643733357" flag="0"/>
      <psa30 value="0.0085388264" flag="0"/>
    </comp>
    <comp name="--.HHZ">
      <acc value="0.0824945550" flag="0"/>
      <vel value="0.0405395006" flag="0"/>
      <psa03 value="0.1596066538" flag="0"/>
      <psa10 value="0.0579293184" flag="0"/>
      <psa30 value="0.0030096907" flag="0"/>
    </comp>
  </station>
  <station code="THL" name="THL" netid="HL" insttype="120" commtype="DIG" lat="39.5647" lon="22.0144">
    <comp name="--.HHE">
      <acc value="0.0115653967" flag="0"/>
      <vel value="0.0078135153" flag="0"/>
      <psa03 value="0.0194908079" flag="0"/>
      <psa10 value="0.0055657982" flag="0"/>
      <psa30 value="0.0006191940" flag="0"/>
    </comp>
    <comp name="--.HHN">
      <acc value="0.0056594964" flag="0"/>
      <vel value="0.0051951082" flag="0"/>
      <psa03 value="0.0125484807" flag="0"/>
      <psa10 value="0.0071418677" flag="0"/>
      <psa30 value="0.0019335150" flag="0"/>
    </comp>
    <comp name="--.HHZ">
      <acc value="0.0045456870" flag="0"/>
      <vel value="0.0031381243" flag="0"/>
      <psa03 value="0.0097585972" flag="0"/>
      <psa10 value="0.0053602910" flag="0"/>
      <psa30 value="0.0006923722" flag="0"/>
    </comp>
  </station>
  <station code="AMPL" name="AMPL" netid="HP" insttype="Compact," commtype="DIG" lat="38.9224" lon="21.2135">
    <comp name="--.HHE">
      <acc value="0.0381599627" flag="0"/>
      <vel value="0.0210490824" flag="0"/>
      <psa03 value="0.1038211523" flag="0"/>
      <psa10 value="0.0243179420" flag="0"/>
      <psa30 value="0.0016332703" flag="0"/>
    </comp>
    <comp name="--.HHN">
      <acc value="0.0248160905" flag="0"/>
      <vel value="0.0127668943" flag="0"/>
      <psa03 value="0.0758953685" flag="0"/>
      <psa10 value="0.0205273264" flag="0"/>
      <psa30 value="0.0011771006" flag="0"/>
    </comp>
    <comp name="--.HHZ">
      <acc value="0.0221015804" flag="0"/>
      <vel value="0.0127076627" flag="0"/>
      <psa03 value="0.0497785662" flag="0"/>
      <psa10 value="0.0144209719" flag="0"/>
      <psa30 value="0.0010396940" flag="0"/>
    </comp>
  </station>
  <station code="FSK" name="FSK" netid="HP" insttype="40," commtype="DIG" lat="38.4593" lon="20.5623">
    <comp name="--.HHN">
      <acc value="0.0192186890" flag="0"/>
      <vel value="0.0137191438" flag="0"/>
      <psa03 value="0.0610109175" flag="0"/>
      <psa10 value="0.0166380869" flag="0"/>
      <psa30 value="0.0010682746" flag="0"/>
    </comp>
    <comp name="--.HHE">
      <acc value="0.0343302079" flag="0"/>
      <vel value="0.0256928956" flag="0"/>
      <psa03 value="0.1043396440" flag="0"/>
      <psa10 value="0.0186481307" flag="0"/>
      <psa30 value="0.0027383071" flag="0"/>
    </comp>
    <comp name="--.HHZ">
      <acc value="0.0174344128" flag="0"/>
      <vel value="0.0095149805" flag="0"/>
      <psa03 value="0.0396597268" flag="0"/>
      <psa10 value="0.0083230701" flag="0"/>
      <psa30 value="0.0009369653" flag="0"/>
    </comp>
  </station>
  <station code="KSTR" name="KSTR" netid="HP" insttype="Compact," commtype="DIG" lat="39.2492" lon="20.576">
    <comp name="--.HHZ">
      <acc value="0.1484066409" flag="0"/>
      <vel value="0.0653031546" flag="0"/>
      <psa03 value="0.4074812586" flag="0"/>
      <psa10 value="0.0583724644" flag="0"/>
      <psa30 value="0.0049169429" flag="0"/>
    </comp>
    <comp name="--.HHE">
      <acc value="0.4183451725" flag="0"/>
      <vel value="0.1990375330" flag="0"/>
      <psa03 value="0.7989894782" flag="0"/>
      <psa10 value="0.1325136665" flag="0"/>
      <psa30 value="0.0105253641" flag="0"/>
    </comp>
    <comp name="--.HHN">
      <acc value="0.1780842037" flag="0"/>
      <vel value="0.0912694372" flag="0"/>
      <psa03 value="0.2942707044" flag="0"/>
      <psa10 value="0.0631523337" flag="0"/>
      <psa30 value="0.0057119175" flag="0"/>
    </comp>
  </station>
  <station code="PDO" name="PDO" netid="HP" insttype="120s" commtype="DIG" lat="38.5986" lon="21.1833">
    <comp name="--.HHE">
      <acc value="0.0236549720" flag="0"/>
      <vel value="0.0139246486" flag="0"/>
      <psa03 value="0.0757793615" flag="0"/>
      <psa10 value="0.0145222912" flag="0"/>
      <psa30 value="0.0019291671" flag="0"/>
    </comp>
    <comp name="--.HHN">
      <acc value="0.0218263611" flag="0"/>
      <vel value="0.0116743281" flag="0"/>
      <psa03 value="0.0679589629" flag="0"/>
      <psa10 value="0.0141949908" flag="0"/>
      <psa30 value="0.0017911963" flag="0"/>
    </comp>
    <comp name="--.HHZ">
      <acc value="0.0149495921" flag="0"/>
      <vel value="0.0083992846" flag="0"/>
      <psa03 value="0.0394269037" flag="0"/>
      <psa10 value="0.0073905242" flag="0"/>
      <psa30 value="0.0009269406" flag="0"/>
    </comp>
  </station>
  <station code="PRMD" name="PRMD" netid="HP" insttype="120P," commtype="DIG" lat="39.5299" lon="21.0965">
    <comp name="--.HHN">
      <acc value="0.2308382790" flag="0"/>
      <vel value="0.1476270552" flag="0"/>
      <psa03 value="0.5736567622" flag="0"/>
      <psa10 value="0.1478143459" flag="0"/>
      <psa30 value="0.0125287040" flag="0"/>
    </comp>
    <comp name="--.HHE">
      <acc value="0.1952350078" flag="0"/>
      <vel value="0.1138589701" flag="0"/>
      <psa03 value="0.6839916107" flag="0"/>
      <psa10 value="0.1355534624" flag="0"/>
      <psa30 value="0.0057222516" flag="0"/>
    </comp>
    <comp name="--.HHZ">
      <acc value="0.1823328739" flag="0"/>
      <vel value="0.0773770087" flag="0"/>
      <psa03 value="0.3304153771" flag="0"/>
      <psa10 value="0.0403505848" flag="0"/>
      <psa30 value="0.0034953312" flag="0"/>
    </comp>
  </station>
  <station code="DRAG" name="DRAG" netid="HT" insttype="30" commtype="DIG" lat="38.6839" lon="20.5746">
