<?xml version="1.0" encoding="UTF-8" standalone="yes"?>
<!DOCTYPE earthquake SYSTEM "stationlist.dtd">
<stationlist created="" xmlns="ch.ethz.sed.shakemap.usgs.xml">
  <station code="ART2" name="ART2" netid="HI" insttype="CMG-5TD,ACCELEROMETER,GURALP" commtype="DIG" lat="39.1474" lon="20.9937">
    <comp name="--.HNE">
      <acc value="0.0608745407" flag="0"/>
      <vel value="0.0178712248" flag="0"/>
      <psa03 value="0.1084506058" flag="0"/>
      <psa10 value="0.0161917942" flag="0"/>
      <psa30 value="0.0020439989" flag="0"/>
    </comp>
    <comp name="--.HNZ">
      <acc value="0.0414740188" flag="0"/>
      <vel value="0.0158959681" flag="0"/>
      <psa03 value="0.0730771489" flag="0"/>
      <psa10 value="0.0125439184" flag="0"/>
      <psa30 value="0.0013556506" flag="0"/>
    </comp>
    <comp name="--.HNN">
      <acc value="0.0520019470" flag="0"/>
      <vel value="0.0225752124" flag="0"/>
      <psa03 value="0.1004595087" flag="0"/>
      <psa10 value="0.0159092349" flag="0"/>
      <psa30 value="0.0020299626" flag="0"/>
    </comp>
  </station>
  <station code="GRE3" name="GRE3" netid="HI" insttype="unknown" commtype="DIG" lat="40.0848" lon="21.4383">
    <comp name="--.HNN">
      <acc value="0.0094587519" flag="0"/>
      <vel value="0.0083523761" flag="0"/>
      <psa03 value="0.0250839931" flag="0"/>
      <psa10 value="0.0114658306" flag="0"/>
      <psa30 value="0.0020447239" flag="0"/>
    </comp>
    <comp name="--.HNE">
      <acc value="0.0083731788" flag="0"/>
      <vel value="0.0105176781" flag="0"/>
      <psa03 value="0.0244668349" flag="0"/>
      <psa10 value="0.0101946765" flag="0"/>
      <psa30 value="0.0029246381" flag="0"/>
    </comp>
    <comp name="--.HNZ">
      <acc value="0.0088436644" flag="0"/>
      <vel value="0.0061276826" flag="0"/>
      <psa03 value="0.0153949695" flag="0"/>
      <psa10 value="0.0129726712" flag="0"/>
      <psa30 value="0.0020401310" flag="0"/>
    </comp>
  </station>
  <station code="JAN2" name="JAN2" netid="HI" insttype="unknown" commtype="DIG" lat="39.664" lon="20.8522">
    <comp name="--.HNE">
      <acc value="0.7241611382" flag="0"/>
      <vel value="0.2814339511" flag="0"/>
      <psa03 value="2.7659386712" flag="0"/>
      <psa10 value="0.1147630775" flag="0"/>
      <psa30 value="0.0103015072" flag="0"/>
    </comp>
    <comp name="--.HNZ">
      <acc value="0.6029842962" flag="0"/>
      <vel value="0.1182087197" flag="0"/>
      <psa03 value="0.2829614270" flag="0"/>
      <psa10 value="0.0607125654" flag="0"/>
      <psa30 value="0.0058890856" flag="0"/>
    </comp>
    <comp name="--.HNN">
      <acc value="0.4951320995" flag="0"/>
      <vel value="0.1910838981" flag="0"/>
      <psa03 value="0.8721764722" flag="0"/>
      <psa10 value="0.0565659501" flag="0"/>
      <psa30 value="0.0059846723" flag="0"/>
    </comp>
  </station>
  <station code="JAN3" name="JAN3" netid="HI" insttype="unknown" commtype="DIG" lat="39.684" lon="20.8379">
    <comp name="--.HNN">
      <acc value="0.6382979336" flag="0"/>
      <vel value="0.2216128923" flag="0"/>
      <psa03 value="1.3988228249" flag="0"/>
      <psa10 value="0.0727071392" flag="0"/>
      <psa30 value="0.0073548213" flag="0"/>
    </comp>
    <comp name="--.HNE">
      <acc value="0.6524862173" flag="0"/>
      <vel value="0.1761039641" flag="0"/>
      <psa03 value="1.5108914998" flag="0"/>
      <psa10 value="0.0625159858" flag="0"/>
      <psa30 value="0.0088014989" flag="0"/>
    </comp>
    <comp name="--.HNZ">
      <acc value="0.5666904731" flag="0"/>
      <vel value="0.1375174840" flag="0"/>
      <psa03 value="0.8623697735" flag="0"/>
      <psa10 value="0.0516223001" flag="0"/>
      <psa30 value="0.0057994743" flag="0"/>
    </comp>
  </station>
  <station code="KNS1" name="KNS1" netid="HI" insttype="unknown" commtype="DIG" lat="40.048" lon="20.7524">
    <comp name="--.HNE">
      <acc value="0.0543939266" flag="0"/>
      <vel value="0.0264132628" flag="0"/>
      <psa03 value="0.0964293196" flag="0"/>
      <psa10 value="0.0405248328" flag="0"/>
      <psa30 value="0.0066010132" flag="0"/>
    </comp>
    <comp name="--.HNZ">
      <acc value="0.0382612803" flag="0"/>
      <vel value="0.0129884421" flag="0"/>
      <psa03 value="0.0621568707" flag="0"/>
      <psa10 value="0.0144980192" flag="0"/>
      <psa30 value="0.0015180303" flag="0"/>
    </comp>
    <comp name="--.HNN">
      <acc value="0.0703288354" flag="0"/>
      <vel value="0.0280201100" flag="0"/>
      <psa03 value="0.1272995517" flag="0"/>
      <psa10 value="0.0162704590" flag="0"/>
      <psa30 value="0.0019021762" flag="0"/>
    </comp>
  </station>
  <station code="KRK1" name="KRK1" netid="HI" insttype="CMG-5TD,ACCELEROMETER,GURALP" commtype="DIG" lat="39.6189" lon="19.9202">
    <comp name="--.HNN">
      <acc value="0.1077250953" flag="0"/>
      <vel value="0.0628442467" flag="0"/>
      <psa03 value="0.2073506612" flag="0"/>
      <psa10 value="0.0608979416" flag="0"/>
      <psa30 value="0.0075174916" flag="0"/>
    </comp>
    <comp name="--.HNE">
      <acc value="0.1182413127" flag="0"/>
      <vel value="0.0403301872" flag="0"/>
      <psa03 value="0.1934017785" flag="0"/>
      <psa10 value="0.0281348038" flag="0"/>
      <psa30 value="0.0051113745" flag="0"/>
    </comp>
    <comp name="--.HNZ">
      <acc value="0.0465132357" flag="0"/>
      <vel value="0.0189580101" flag="0"/>
      <psa03 value="0.0931855315" flag="0"/>
      <psa10 value="0.0160094858" flag="0"/>
      <psa30 value="0.0026555253" flag="0"/>
    </comp>
  </station>
  <station code="LEF2" name="LEF2" netid="HI" insttype="unknown" commtype="DIG" lat="38.8301" lon="20.7083">
    <comp name="--.HNN">
      <acc value="0.0911306474" flag="0"/>
      <vel value="0.0708305158" flag="0"/>
      <psa03 value="0.3779841181" flag="0"/>
      <psa10 value="0.1168351847" flag="0"/>
      <psa30 value="0.0070223397" flag="0"/>
    </comp>
    <comp name="--.HNE">
      <acc value="0.0818075315" flag="0"/>
      <vel value="0.0583010220" flag="0"/>
      <psa03 value="0.3785381165" flag="0"/>
      <psa10 value="0.1051786762" flag="0"/>
      <psa30 value="0.0127294107" flag="0"/>
    </comp>
    <comp name="--.HNZ">
      <acc value="0.0494315162" flag="0"/>
      <vel value="0.0441283988" flag="0"/>
      <psa03 value="0.1551873570" flag="0"/>
      <psa10 value="0.0673010248" flag="0"/>
      <psa30 value="0.0047729426" flag="0"/>
    </comp>
  </station>
  <station code="PRE2" name="PRE2" netid="HI" insttype="unknown" commtype="DIG" lat="38.9577" lon="20.7548">
    <comp name="--.HNN">
      <acc value="0.0780050776" flag="0"/>
      <vel value="0.0548897072" flag="0"/>
      <psa03 value="0.2228328477" flag="0"/>
      <psa10 value="0.0825138687" flag="0"/>
      <psa30 value="0.0107447948" flag="0"/>
    </comp>
    <comp name="--.HNE">
      <acc value="0.1276736918" flag="0"/>
      <vel value="0.1375076299" flag="0"/>
      <psa03 value="0.2950048961" flag="0"/>
      <psa10 value="0.2039880991" flag="0"/>
      <psa30 value="0.0137876704" flag="0"/>
    </comp>
    <comp name="--.HNZ">
      <acc value="0.0502012483" flag="0"/>
      <vel value="0.0256430420" flag="0"/>
      <psa03 value="0.1448318908" flag="0"/>
      <psa10 value="0.0424923154" flag="0"/>
      <psa30 value="0.0032330598" flag="0"/>
    </comp>
  </station>
  <station code="ARTB" name="ARTB" netid="HL" insttype="CMG-5" commtype="DIG" lat="39.157" lon="20.9785">
    <comp name="00.HNN">
      <acc value="0.1486016233" flag="0"/>
      <vel value="0.0549174102" flag="0"/>
      <psa03 value="0.4910972571" flag="0"/>
      <psa10 value="0.0204447846" flag="0"/>
      <psa30 value="0.0026014653" flag="0"/>
    </comp>
    <comp name="00.HNZ">
      <acc value="0.1278693272" flag="0"/>
      <vel value="0.0427249055" flag="0"/>
      <psa03 value="0.2975669401" flag="0"/>
      <psa10 value="0.0222718903" flag="0"/>
      <psa30 value="0.0020170370" flag="0"/>
    </comp>
    <comp name="00.HNE">
      <acc value="0.2033264344" flag="0"/>
      <vel value="0.0528794063" flag="0"/>
      <psa03 value="0.5132713764" flag="0"/>
      <psa10 value="0.0207322725" flag="0"/>
      <psa30 value="0.0021386980" flag="0"/>
    </comp>
  </station>
  <station code="EVR" name="EVR" netid="HL" insttype="DR24" commtype="DIG" lat="38.9166" lon="21.8105">
    <comp name="--.HHE">
      <acc value="0.0153541625" flag="0"/>
      <vel value="0.0097902703" flag="0"/>
      <psa03 value="0.0594323598" flag="0"/>
      <psa10 value="0.0106632628" flag="0"/>
      <psa30 value="0.0008584597" flag="0"/>
    </comp>
    <comp name="--.HHN">
      <acc value="0.0126919192" flag="0"/>
      <vel value="0.0152443484" flag="0"/>
      <psa03 value="0.0352942060" flag="0"/>
      <psa10 value="0.0201122017" flag="0"/>
      <psa30 value="0.0019444709" flag="0"/>
    </comp>
    <comp name="--.HHZ">
      <acc value="0.0129683793" flag="0"/>
      <vel value="0.0097443702" flag="0"/>
      <psa03 value="0.0290984219" flag="0"/>
      <psa10 value="0.0121846062" flag="0"/>
      <psa30 value="0.0009880406" flag="0"/>
    </comp>
  </station>
  <station code="JAN" name="JAN" netid="HL" insttype="CMG3EPSC60_DR24" commtype="DIG" lat="39.6562" lon="20.8487">
    <comp name="--.HHE">
      <acc value="0.4824367393" flag="0"/>
      <vel value="0.1171809251" flag="0"/>
      <psa03 value="0.7196581530" flag="0"/>
      <psa10 value="0.0793028410" flag="0"/>
      <psa30 value="0.0104051558" flag="0"/>
    </comp>
    <comp name="--.HHZ">
      <acc value="0.2562932474" flag="0"/>
      <vel value="0.0708840990" flag="0"/>
      <psa03 value="0.2691751698" flag="0"/>
      <psa10 value="0.0719631412" flag="0"/>
      <psa30 value="0.0068332212" flag="0"/>
    </comp>
    <comp name="--.HHN">
      <acc value="0.4981785712" flag="0"/>
      <vel value="0.1316233674" flag="0"/>
      <psa03 value="0.7287172532" flag="0"/>
      <psa10 value="0.0428587367" flag="0"/>
      <psa30 value="0.0061052098" flag="0"/>
    </comp>
  </station>
  <station code="KEK" name="KEK" netid="HL" insttype="120" commtype="DIG" lat="39.7127" lon="19.7962">
    <comp name="--.HHZ">
      <acc value="0.0203467522" flag="0"/>
      <vel value="0.0163917637" flag="0"/>
      <psa03 value="0.0441965218" flag="0"/>
      <psa10 value="0.0198012796" flag="0"/>
      <psa30 value="0.0019306847" flag="0"/>
    </comp>
    <comp name="--.HHN">
      <acc value="0.0262518023" flag="0"/>
      <vel value="0.0375991686" flag="0"/>
      <psa03 value="0.0513882722" flag="0"/>
      <psa10 value="0.0329860613" flag="0"/>
      <psa30 value="0.0112011768" flag="0"/>
    </comp>
    <comp name="--.HHE">
      <acc value="0.0336261450" flag="0"/>
      <vel value="0.0231601978" flag="0"/>
      <psa03 value="0.0609197923" flag="0"/>
      <psa10 value="0.0356508317" flag="0"/>
      <psa30 value="0.0038774490" flag="0"/>
    </comp>
  </station>
  <station code="PENT" name="PENT" netid="HL" insttype="Horizon,120s,1200" commtype="DIG" lat="40.1961" lon="21.1381">
    <comp name="--.HHZ">
      <acc value="0.0070538265" flag="0"/>
      <vel value="0.0035245109" flag="0"/>
      <psa03 value="0.0176027396" flag="0"/>
      <psa10 value="0.0070215434" flag="0"/>
      <psa30 value="0.0009202817" flag="0"/>
    </comp>
    <comp name="--.HHN">
      <acc value="0.0104790158" flag="0"/>
      <vel value="0.0062964776" flag="0"/>
      <psa03 value="0.0236861500" flag="0"/>
      <psa10 value="0.0064351113" flag="0"/>
      <psa30 value="0.0011419259" flag="0"/>
    </comp>
    <comp name="--.HHE">
      <acc value="0.0080654954" flag="0"/>
      <vel value="0.0055578398" flag="0"/>
      <psa03 value="0.0205214278" flag="0"/>
      <psa10 value="0.0102987356" flag="0"/>
      <psa30 value="0.0015765048" flag="0"/>
    </comp>
  </station>
  <station code="PRGA" name="PRGA" netid="HL" insttype="CMG-5" commtype="DIG" lat="39.2856" lon="20.4016">
    <comp name="00.HNE">
      <acc value="0.9581684992" flag="0"/>
      <vel value="0.3436017322" flag="0"/>
      <psa03 value="2.2359063713" flag="0"/>
      <psa10 value="0.1310556799" flag="0"/>
      <psa30 value="0.0106876154" flag="0"/>
    </comp>
    <comp name="00.HNN">
      <acc value="0.7473385841" flag="0"/>
      <vel value="0.3997969326" flag="0"/>
      <psa03 value="3.2948820328" flag="0"/>
      <psa10 value="0.2030993347" flag="0"/>
      <psa30 value="0.0166800640" flag="0"/>
    </comp>
    <comp name="00.HNZ">
      <acc value="0.2421600310" flag="0"/>
      <vel value="0.0832596476" flag="0"/>
      <psa03 value="0.3619993633" flag="0"/>
      <psa10 value="0.0790155241" flag="0"/>
      <psa30 value="0.0065130948" flag="0"/>
    </comp>
  </station>
  <station code="TETR" name="TETR" netid="HL" insttype="60" commtype="DIG" lat="39.3445" lon="21.2747">
    <comp name="--.HHN">
      <acc value="0.1843736947" flag="0"/>
      <vel value="0.0680401495" flag="0"/>
      <psa03 value="0.3613260559" flag="0"/>
      <psa10 value="0.0522063571" flag="0"/>
      <psa30 value="0.0059849464" flag="0"/>
    </comp>
    <comp name="--.HHE">
      <acc value="0.2076573681" flag="0"/>
      <vel value="0.0844553056" flag="0"/>
      <psa03 value="0.5113797636" flag="0"/>
      <psa10 value="0.0643733356" flag="0"/>
      <psa30 value="0.0085386179" flag="0"/>
    </comp>
    <comp name="--.HHZ">
      <acc value="0.0824945548" flag="0"/>
      <vel value="0.0405395010" flag="0"/>
      <psa03 value="0.1596066538" flag="0"/>
      <psa10 value="0.0579293184" flag="0"/>
      <psa30 value="0.0030096858" flag="0"/>
    </comp>
  </station>
  <station code="AMPL" name="AMPL" netid="HP" insttype="Compact," commtype="DIG" lat="38.9224" lon="21.2135">
    <comp name="--.HHE">
      <acc value="0.0381599624" flag="0"/>
      <vel value="0.0210490832" flag="0"/>
      <psa03 value="0.1038211523" flag="0"/>
      <psa10 value="0.0243179419" flag="0"/>
      <psa30 value="0.0016332746" flag="0"/>
    </comp>
    <comp name="--.HHN">
      <acc value="0.0248160906" flag="0"/>
      <vel value="0.0127668933" flag="0"/>
      <psa03 value="0.0758953685" flag="0"/>
      <psa10 value="0.0205273264" flag="0"/>
      <psa30 value="0.0011771158" flag="0"/>
    </comp>
    <comp name="--.HHZ">
      <acc value="0.0221015799" flag="0"/>
      <vel value="0.0127076633" flag="0"/>
      <psa03 value="0.0497785662" flag="0"/>
      <psa10 value="0.0144209719" flag="0"/>
      <psa30 value="0.0010396386" flag="0"/>
    </comp>
  </station>
  <station code="FSK" name="FSK" netid="HP" insttype="40," commtype="DIG" lat="38.4593" lon="20.5623">
    <comp name="--.HHN">
      <acc value="0.0192186889" flag="0"/>
      <vel value="0.0137191433" flag="0"/>
      <psa03 value="0.0610109175" flag="0"/>
      <psa10 value="0.0166380869" flag="0"/>
      <psa30 value="0.0010682882" flag="0"/>
    </comp>
    <comp name="--.HHZ">
      <acc value="0.0174344127" flag="0"/>
      <vel value="0.0095149849" flag="0"/>
      <psa03 value="0.0396597268" flag="0"/>
      <psa10 value="0.0083230701" flag="0"/>
      <psa30 value="0.0009369452" flag="0"/>
    </comp>
    <comp name="--.HHE">
      <acc value="0.0343302084" flag="0"/>
      <vel value="0.0256928928" flag="0"/>
      <psa03 value="0.1043396440" flag="0"/>
      <psa10 value="0.0186481306" flag="0"/>
      <psa30 value="0.0027382164" flag="0"/>
    </comp>
  </station>
  <station code="KSTR" name="KSTR" netid="HP" insttype="Compact," commtype="DIG" lat="39.2492" lon="20.576">
    <comp name="--.HHE">
      <acc value="0.4183451725" flag="0"/>
      <vel value="0.1990375333" flag="0"/>
      <psa03 value="0.7989894782" flag="0"/>
      <psa10 value="0.1325136661" flag="0"/>
      <psa30 value="0.0105253005" flag="0"/>
    </comp>
    <comp name="--.HHZ">
      <acc value="0.1484066410" flag="0"/>
      <vel value="0.0653031562" flag="0"/>
      <psa03 value="0.4074812586" flag="0"/>
      <psa10 value="0.0583724643" flag="0"/>
      <psa30 value="0.0049169750" flag="0"/>
    </comp>
    <comp name="--.HHN">
      <acc value="0.1780842037" flag="0"/>
      <vel value="0.0912694370" flag="0"/>
      <psa03 value="0.2942707044" flag="0"/>
      <psa10 value="0.0631523339" flag="0"/>
      <psa30 value="0.0057119738" flag="0"/>
    </comp>
  </station>
  <station code="PDO" name="PDO" netid="HP" insttype="120s" commtype="DIG" lat="38.5986" lon="21.1833">
    <comp name="--.HHE">
      <acc value="0.0236549720" flag="0"/>
      <vel value="0.0139246488" flag="0"/>
      <psa03 value="0.0757793615" flag="0"/>
      <psa10 value="0.0145222912" flag="0"/>
      <psa30 value="0.0019291519" flag="0"/>
    </comp>
    <comp name="--.HHZ">
      <acc value="0.0149495926" flag="0"/>
      <vel value="0.0083992860" flag="0"/>
      <psa03 value="0.0394269037" flag="0"/>
      <psa10 value="0.0073905242" flag="0"/>
      <psa30 value="0.0009269602" flag="0"/>
    </comp>
    <comp name="--.HHN">
      <acc value="0.0218263604" flag="0"/>
      <vel value="0.0116743285" flag="0"/>
      <psa03 value="0.0679589629" flag="0"/>
      <psa10 value="0.0141949908" flag="0"/>
      <psa30 value="0.0017912321" flag="0"/>
    </comp>
  </station>
  <station code="PRMD" name="PRMD" netid="HP" insttype="120P," commtype="DIG" lat="39.5299" lon="21.0965">
    <comp name="--.HHE">
      <acc value="0.1952350078" flag="0"/>
      <vel value="0.1138589702" flag="0"/>
      <psa03 value="0.6839916107" flag="0"/>
      <psa10 value="0.1355534626" flag="0"/>
      <psa30 value="0.0057222662" flag="0"/>
    </comp>
    <comp name="--.HHN">
      <acc value="0.2308382790" flag="0"/>
      <vel value="0.1476270540" flag="0"/>
      <psa03 value="0.5736567622" flag="0"/>
      <psa10 value="0.1478143461" flag="0"/>
      <psa30 value="0.0125288713" flag="0"/>
    </comp>
    <comp name="--.HHZ">
      <acc value="0.1823328740" flag="0"/>
      <vel value="0.0773770085" flag="0"/>
      <psa03 value="0.3304153771" flag="0"/>
      <psa10 value="0.0403505846" flag="0"/>
      <psa30 value="0.0034952999" flag="0"/>
    </comp>
  </station>
  <station code="DRAG" name="DRAG" netid="HT" insttype="30" commtype="DIG" lat="38.6839" lon="20.5746">
    <comp name="--.HHE">
      <acc value="0.1686596801" flag="0"/>
      <vel value="0.0720757374" flag="0"/>
      <psa03 value="0.3648000887" flag="0"/>
      <psa10 value="0.0619856997" flag="0"/>
      <psa30 value="0.0046089281" flag="0"/>
    </comp>
    <comp name="--.HHZ">
      <acc value="0.0526483621" flag="0"/>
      <vel value="0.0164792008" flag="0"/>
      <psa03 value="0.1111630766" flag="0"/>
      <psa10 value="0.0163824372" flag="0"/>
      <psa30 value="0.0014983637" flag="0"/>
    </comp>
    <comp name="--.HHN">
      <acc value="0.1298260692" flag="0"/>
      <vel value="0.0550648038" flag="0"/>
      <psa03 value="0.2277256409" flag="0"/>
      <psa10 value="0.0428349063" flag="0"/>
      <psa30 value="0.0032830846" flag="0"/>
    </comp>
  </station>
  <station code="EVGI" name="EVGI" netid="HT" insttype="30" commtype="DIG" lat="38.621" lon="20.656">
    <comp name="--.HHZ">
      <acc value="0.0243556177" flag="0"/>
      <vel value="0.0092451955" flag="0"/>
      <psa03 value="0.0496976583" flag="0"/>
      <psa10 value="0.0069269787" flag="0"/>
      <psa30 value="0.0006137087" flag="0"/>
    </comp>
    <comp name="--.HHE">
      <acc value="0.0383253353" flag="0"/>
      <vel value="0.0192485368" flag="0"/>
      <psa03 value="0.0583856186" flag="0"/>
      <psa10 value="0.0157541598" flag="0"/>
      <psa30 value="0.0020317894" flag="0"/>
    </comp>
    <comp name="--.HHN">
      <acc value="0.0402825591" flag="0"/>
      <vel value="0.0146969146" flag="0"/>
      <psa03 value="0.0816979885" flag="0"/>
      <psa10 value="0.0125407940" flag="0"/>
      <psa30 value="0.0013769000" flag="0"/>
    </comp>
  </station>
  <station code="IGT" name="IGT" netid="HT" insttype="Compact," commtype="DIG" lat="39.5315" lon="20.3299">
