<?xml version="1.0" encoding="UTF-8" standalone="yes"?>
<!DOCTYPE earthquake SYSTEM "stationlist.dtd">
<stationlist created="" xmlns="ch.ethz.sed.shakemap.usgs.xml">
  <station code="MALA" name="MALA" netid="CL" source="RESIF" insttype="30" lat="38.3935" lon="21.8726">
    <comp name="00.HH2">
      <acc value="0.0028538159" flag="0"/>
      <vel value="0.0023030802" flag="0"/>
      <psa03 value="0.0074933448" flag="0"/>
      <psa10 value="0.0024554819" flag="0"/>
      <psa30 value="0.0004193423" flag="0"/>
    </comp>
    <comp name="00.HH3">
      <acc value="0.0019567955" flag="0"/>
      <vel value="0.0016703527" flag="0"/>
      <psa03 value="0.0081593436" flag="0"/>
      <psa10 value="0.0021559599" flag="0"/>
      <psa30 value="0.0006402424" flag="0"/>
    </comp>
    <comp name="00.HHZ">
      <acc value="0.0014864823" flag="0"/>
      <vel value="0.0010972847" flag="0"/>
      <psa03 value="0.0042388356" flag="0"/>
      <psa10 value="0.0023978616" flag="0"/>
      <psa30 value="0.0002637646" flag="0"/>
    </comp>
  </station>
  <station code="ROD3" name="ROD3" netid="CL" source="RESIF" insttype="30" lat="38.3081" lon="21.892">
    <comp name="00.HHE">
      <acc value="0.0140312774" flag="0"/>
      <vel value="0.0093063934" flag="0"/>
      <psa03 value="0.0367397603" flag="0"/>
      <psa10 value="0.0104737696" flag="0"/>
      <psa30 value="0.0005405561" flag="0"/>
    </comp>
    <comp name="00.HHN">
      <acc value="0.0125050289" flag="0"/>
      <vel value="0.0065837884" flag="0"/>
      <psa03 value="0.0299997947" flag="0"/>
      <psa10 value="0.0054390239" flag="0"/>
      <psa30 value="0.0004007961" flag="0"/>
    </comp>
    <comp name="00.HHZ">
      <acc value="0.0058277832" flag="0"/>
      <vel value="0.0030578275" flag="0"/>
      <psa03 value="0.0107608693" flag="0"/>
      <psa10 value="0.0079146361" flag="0"/>
      <psa30 value="0.0002949377" flag="0"/>
    </comp>
  </station>
  <station code="ITM" name="ITM" netid="HL" source="NOA" insttype="DR24" lat="37.1787" lon="21.9252">
    <comp name="--.HHE">
      <acc value="0.0071719074" flag="0"/>
      <vel value="0.0034758861" flag="0"/>
      <psa03 value="0.0152817583" flag="0"/>
      <psa10 value="0.0047703128" flag="0"/>
      <psa30 value="0.0004127118" flag="0"/>
    </comp>
    <comp name="--.HHN">
      <acc value="0.0073496913" flag="0"/>
      <vel value="0.0035563819" flag="0"/>
      <psa03 value="0.0192785036" flag="0"/>
      <psa10 value="0.0045627098" flag="0"/>
      <psa30 value="0.0005368808" flag="0"/>
    </comp>
    <comp name="--.HHZ">
      <acc value="0.0062300267" flag="0"/>
      <vel value="0.0036078588" flag="0"/>
      <psa03 value="0.0126301960" flag="0"/>
      <psa10 value="0.0042409545" flag="0"/>
      <psa30 value="0.0004465363" flag="0"/>
    </comp>
  </station>
  <station code="VLS" name="VLS" netid="HL" source="NOA" insttype="120P," lat="38.1768" lon="20.5886">
    <comp name="--.HHE">
      <acc value="0.0754596633" flag="0"/>
      <vel value="0.0095402122" flag="0"/>
      <psa03 value="0.0434385848" flag="0"/>
      <psa10 value="0.0046442933" flag="0"/>
      <psa30 value="0.0004468763" flag="0"/>
    </comp>
    <comp name="--.HHN">
      <acc value="0.0320693038" flag="0"/>
      <vel value="0.0085405801" flag="0"/>
      <psa03 value="0.0391784712" flag="0"/>
      <psa10 value="0.0045793968" flag="0"/>
      <psa30 value="0.0004011625" flag="0"/>
    </comp>
    <comp name="--.HHZ">
      <acc value="0.0215508988" flag="0"/>
      <vel value="0.0061393733" flag="0"/>
      <psa03 value="0.0282193552" flag="0"/>
      <psa10 value="0.0029721587" flag="0"/>
      <psa30 value="0.0002921346" flag="0"/>
    </comp>
  </station>
  <station code="AMT" name="AMT" netid="HP" source="NOA" insttype="CMG-3T," lat="37.5324" lon="21.7089">
    <comp name="00.HHE">
      <acc value="0.0166127833" flag="0"/>
      <vel value="0.0132364308" flag="0"/>
      <psa03 value="0.0375540719" flag="0"/>
      <psa10 value="0.0171625946" flag="0"/>
      <psa30 value="0.0006767924" flag="0"/>
    </comp>
    <comp name="00.HHN">
      <acc value="0.0176928528" flag="0"/>
      <vel value="0.0145469959" flag="0"/>
      <psa03 value="0.0517976465" flag="0"/>
      <psa10 value="0.0201460394" flag="0"/>
      <psa30 value="0.0008815531" flag="0"/>
    </comp>
    <comp name="00.HHZ">
      <acc value="0.0121069645" flag="0"/>
      <vel value="0.0077348904" flag="0"/>
      <psa03 value="0.0391589170" flag="0"/>
      <psa10 value="0.0064850838" flag="0"/>
      <psa30 value="0.0004131338" flag="0"/>
    </comp>
  </station>
  <station code="FSK" name="FSK" netid="HP" source="NOA" insttype="40," lat="38.4593" lon="20.5623">
    <comp name="--.HHE">
      <acc value="0.0196031265" flag="0"/>
      <vel value="0.0082712967" flag="0"/>
      <psa03 value="0.0213423514" flag="0"/>
      <psa10 value="0.0067741480" flag="0"/>
      <psa30 value="0.0009578567" flag="0"/>
    </comp>
    <comp name="--.HHN">
      <acc value="0.0116437203" flag="0"/>
      <vel value="0.0061426759" flag="0"/>
      <psa03 value="0.0189960985" flag="0"/>
      <psa10 value="0.0048796266" flag="0"/>
      <psa30 value="0.0003046633" flag="0"/>
    </comp>
    <comp name="--.HHZ">
      <acc value="0.0072843502" flag="0"/>
      <vel value="0.0038953241" flag="0"/>
      <psa03 value="0.0174968244" flag="0"/>
      <psa10 value="0.0032644439" flag="0"/>
      <psa30 value="0.0002441646" flag="0"/>
    </comp>
  </station>
  <station code="LTHK" name="LTHK" netid="HP" source="NOA" insttype="40," lat="37.7095" lon="20.8367">
    <comp name="--.HHE">
      <acc value="0.5838294466" flag="0"/>
      <vel value="0.1064594043" flag="0"/>
      <psa03 value="0.3732801422" flag="0"/>
      <psa10 value="0.0323174627" flag="0"/>
      <psa30 value="0.0034713836" flag="0"/>
    </comp>
    <comp name="--.HHN">
      <acc value="0.5786760130" flag="0"/>
      <vel value="0.1787335257" flag="0"/>
      <psa03 value="0.6320809687" flag="0"/>
      <psa10 value="0.0420890256" flag="0"/>
      <psa30 value="0.0041676677" flag="0"/>
    </comp>
    <comp name="--.HHZ">
      <acc value="0.2730393999" flag="0"/>
      <vel value="0.0647876224" flag="0"/>
      <psa03 value="0.2957480682" flag="0"/>
      <psa10 value="0.0155186494" flag="0"/>
      <psa30 value="0.0012157599" flag="0"/>
    </comp>
  </station>
  <station code="PVO" name="PVO" netid="HP" source="NOA" insttype="120P," lat="38.616" lon="21.525">
    <comp name="--.HHE">
      <acc value="0.0065956313" flag="0"/>
      <vel value="0.0032638020" flag="0"/>
      <psa03 value="0.0269294720" flag="0"/>
      <psa10 value="0.0039585943" flag="0"/>
      <psa30 value="0.0003784412" flag="0"/>
    </comp>
    <comp name="--.HHN">
      <acc value="0.0096185388" flag="0"/>
      <vel value="0.0055453290" flag="0"/>
      <psa03 value="0.0181139275" flag="0"/>
      <psa10 value="0.0039591178" flag="0"/>
      <psa30 value="0.0003292456" flag="0"/>
    </comp>
    <comp name="--.HHZ">
      <acc value="0.0052980301" flag="0"/>
      <vel value="0.0019909159" flag="0"/>
      <psa03 value="0.0094368737" flag="0"/>
      <psa10 value="0.0018609780" flag="0"/>
      <psa30 value="0.0002425912" flag="0"/>
    </comp>
  </station>
  <station code="PYL" name="PYL" netid="HP" source="NOA" insttype="120s" lat="36.8955" lon="21.742">
    <comp name="--.HHE">
      <acc value="0.0072591150" flag="0"/>
      <vel value="0.0031923471" flag="0"/>
      <psa03 value="0.0140370707" flag="0"/>
      <psa10 value="0.0023981529" flag="0"/>
      <psa30 value="0.0001678644" flag="0"/>
    </comp>
    <comp name="--.HHZ">
      <acc value="0.0002856641" flag="0"/>
      <vel value="0.0001274230" flag="0"/>
      <psa03 value="0.0005379638" flag="0"/>
      <psa10 value="0.0000905864" flag="0"/>
      <psa30 value="0.0000102926" flag="0"/>
    </comp>
  </station>
  <station code="DMLN" name="DMLN" netid="HT" source="NOA" insttype="1s-100Hz," lat="38.2385" lon="20.3734">
    <comp name="--.HHE">
      <acc value="0.0455091677" flag="0"/>
      <vel value="0.0329296042" flag="0"/>
      <psa03 value="0.1046398516" flag="0"/>
      <psa10 value="0.0174680279" flag="0"/>
      <psa30 value="0.0022269416" flag="0"/>
    </comp>
    <comp name="--.HHN">
      <acc value="0.0657487842" flag="0"/>
      <vel value="0.0257410335" flag="0"/>
      <psa03 value="0.1276696512" flag="0"/>
      <psa10 value="0.0230359027" flag="0"/>
      <psa30 value="0.0009905631" flag="0"/>
    </comp>
    <comp name="--.HHZ">
      <acc value="0.0313858153" flag="0"/>
      <vel value="0.0111116321" flag="0"/>
      <psa03 value="0.0459752472" flag="0"/>
      <psa10 value="0.0096477688" flag="0"/>
      <psa30 value="0.0006206768" flag="0"/>
    </comp>
  </station>
  <station code="EVGI" name="EVGI" netid="HT" source="NOA" insttype="30" lat="38.621" lon="20.656">
    <comp name="--.HHE">
      <acc value="0.0210847435" flag="0"/>
      <vel value="0.0047137815" flag="0"/>
      <psa03 value="0.0231097945" flag="0"/>
      <psa10 value="0.0022425319" flag="0"/>
      <psa30 value="0.0003792115" flag="0"/>
    </comp>
    <comp name="--.HHN">
      <acc value="nan" flag="0"/>
      <vel value="-100.0000000000" flag="0"/>
      <psa03 value="0.0000000000" flag="0"/>
      <psa10 value="0.0000000000" flag="0"/>
      <psa30 value="0.0000000000" flag="0"/>
    </comp>
    <comp name="--.HHZ">
      <acc value="0.0124699375" flag="0"/>
      <vel value="0.0039146722" flag="0"/>
      <psa03 value="0.0128951064" flag="0"/>
      <psa10 value="0.0016682963" flag="0"/>
      <psa30 value="0.0001719709" flag="0"/>
    </comp>
  </station>
  <station code="NYDR" name="NYDR" netid="HT" source="NOA" insttype="1s-100Hz," lat="38.7135" lon="20.6983">
    <comp name="--.HHE">
      <acc value="0.0071407826" flag="0"/>
      <vel value="0.0032659489" flag="0"/>
      <psa03 value="0.0103506752" flag="0"/>
      <psa10 value="0.0027976541" flag="0"/>
      <psa30 value="0.0003116602" flag="0"/>
    </comp>
    <comp name="--.HHN">
      <acc value="0.0086637400" flag="0"/>
      <vel value="0.0035765911" flag="0"/>
      <psa03 value="0.0218348375" flag="0"/>
      <psa10 value="0.0035185028" flag="0"/>
      <psa30 value="0.0002463893" flag="0"/>
    </comp>
    <comp name="--.HHZ">
      <acc value="0.0046868504" flag="0"/>
      <vel value="0.0022168270" flag="0"/>
      <psa03 value="0.0091530187" flag="0"/>
      <psa10 value="0.0037225861" flag="0"/>
      <psa30 value="0.0002213162" flag="0"/>
    </comp>
  </station>
  <station code="PSDA" name="PSDA" netid="HT" source="NOA" insttype="30" lat="38.114" lon="20.5841">
    <comp name="--.HHE">
      <acc value="0.0515231647" flag="0"/>
      <vel value="0.0136308648" flag="0"/>
      <psa03 value="0.0659194652" flag="0"/>
      <psa10 value="0.0075150022" flag="0"/>
      <psa30 value="0.0004685354" flag="0"/>
    </comp>
    <comp name="--.HHN">
      <acc value="0.0491898303" flag="0"/>
      <vel value="0.0164322464" flag="0"/>
      <psa03 value="0.0950248069" flag="0"/>
      <psa10 value="0.0082972561" flag="0"/>
      <psa30 value="0.0004990670" flag="0"/>
    </comp>
    <comp name="--.HHZ">
      <acc value="0.0357937348" flag="0"/>
      <vel value="0.0093562928" flag="0"/>
      <psa03 value="0.0342481980" flag="0"/>
      <psa10 value="0.0031097484" flag="0"/>
      <psa30 value="0.0002751712" flag="0"/>
    </comp>
  </station>
</stationlist>
