<stationlist xmlns:esm="https://esm-db.eu/esmws/shakemap/1/" created="1783994112">
	<station code="ARG2" name="ARG2" netid="HI" source="ITSAK Strong Motion Network" insttype="" lat="38.1783" lon="20.4878" esm:processing="manual (Paolucci et al 2011)" esm:quality="good">
		<comp name="--.HNE" depth="0.0">
			<acc value="0.0623322286012075" flag="0"/>
			<vel value="0.02494421218595" flag="0"/>
			<psa03 value="0.141788052773303" flag="0"/>
			<psa10 value="0.0115005367891606" flag="0"/>
			<psa30 value="0.0012245941951421" flag="0"/>
		</comp>
		<comp name="--.HNN" depth="0.0">
			<acc value="0.0414504649135517" flag="0"/>
			<vel value="0.0178714622031257" flag="0"/>
			<psa03 value="0.057627962124334" flag="0"/>
			<psa10 value="0.00792473963622829" flag="0"/>
			<psa30 value="0.000746300006392773" flag="0"/>
		</comp>
		<comp name="--.HNZ" depth="0.0">
			<acc value="0.0337082099483574" flag="0"/>
			<vel value="0.0124390545168301" flag="0"/>
			<psa03 value="0.0604019789346669" flag="0"/>
			<psa10 value="0.00470330075971273" flag="0"/>
			<psa30 value="0.000404469547829177" flag="0"/>
		</comp>
	</station>
	<station code="ART2" name="ART2" netid="HI" source="ITSAK Strong Motion Network" insttype="" lat="39.1474" lon="20.9937" esm:processing="manual (Paolucci et al 2011)" esm:quality="bad">
		<comp name="--.HNE" depth="0.0">
			<acc value="0.00190551356901128" flag="0"/>
			<vel value="0.00154536183963593" flag="0"/>
			<psa03 value="0.00382217605196884" flag="0"/>
			<psa10 value="0.00215184192396836" flag="0"/>
			<psa30 value="0.000143424956928484" flag="0"/>
		</comp>
		<comp name="--.HNN" depth="0.0">
			<acc value="0.00168371161546863" flag="0"/>
			<vel value="0.00112663345873332" flag="0"/>
			<psa03 value="0.00526466907099217" flag="0"/>
			<psa10 value="0.00155050763539674" flag="0"/>
			<psa30 value="6.74667024106327e-05" flag="0"/>
		</comp>
		<comp name="--.HNZ" depth="0.0">
			<acc value="0.0013449931061193" flag="0"/>
			<vel value="0.000885712484385521" flag="0"/>
			<psa03 value="0.00406873698177372" flag="0"/>
			<psa10 value="0.00144494212657564" flag="0"/>
			<psa30 value="9.93837386329708e-05" flag="0"/>
		</comp>
	</station>
	<station code="KLV1" name="KLV1" netid="HI" source="ITSAK Strong Motion Network" insttype="" lat="38.03256" lon="22.10797" esm:processing="manual (Paolucci et al 2011)" esm:quality="bad">
		<comp name="--.HNE" depth="0.0">
			<acc value="0.00522669802480304" flag="0"/>
			<vel value="0.00419797023322291" flag="0"/>
			<psa03 value="0.0159665629147718" flag="0"/>
			<psa10 value="0.00390840133428239" flag="0"/>
			<psa30 value="0.000393700638026771" flag="0"/>
		</comp>
		<comp name="--.HNN" depth="0.0">
			<acc value="0.00479263358036779" flag="0"/>
			<vel value="0.00400663851996861" flag="0"/>
			<psa03 value="0.0171147639774334" flag="0"/>
			<psa10 value="0.00461436052249036" flag="0"/>
			<psa30 value="0.000330750530390995" flag="0"/>
		</comp>
		<comp name="--.HNZ" depth="0.0">
			<acc value="0.00271238688671707" flag="0"/>
			<vel value="0.00251672408439781" flag="0"/>
			<psa03 value="0.00595772019054625" flag="0"/>
			<psa10 value="0.00378185177912095" flag="0"/>
			<psa30 value="0.000290636180303725" flag="0"/>
		</comp>
	</station>
	<station code="KRI1" name="KRI1" netid="HI" source="ITSAK Strong Motion Network" insttype="" lat="37.6621" lon="20.8172" esm:processing="manual (Paolucci et al 2011)" esm:quality="good">
		<comp name="--.HNE" depth="0.0">
			<acc value="0.404381241776735" flag="0"/>
			<vel value="0.184721108453458" flag="0"/>
			<psa03 value="0.746657944045719" flag="0"/>
			<psa10 value="0.0459417451777076" flag="0"/>
			<psa30 value="0.00515474962449109" flag="0"/>
		</comp>
		<comp name="--.HNN" depth="0.0">
			<acc value="0.280671048915746" flag="0"/>
			<vel value="0.0997464580986822" flag="0"/>
			<psa03 value="0.698694298550932" flag="0"/>
			<psa10 value="0.0517443619540313" flag="0"/>
			<psa30 value="0.00337400980108387" flag="0"/>
		</comp>
		<comp name="--.HNZ" depth="0.0">
			<acc value="0.264578510785062" flag="0"/>
			<vel value="0.060267115767309" flag="0"/>
			<psa03 value="0.316730080650746" flag="0"/>
			<psa10 value="0.020238689741709" flag="0"/>
			<psa30 value="0.00160087615280176" flag="0"/>
		</comp>
	</station>
	<station code="PYL1" name="PYL1" netid="HI" source="ITSAK Strong Motion Network" insttype="" lat="36.914188" lon="21.695161" esm:processing="manual (Paolucci et al 2011)" esm:quality="good">
		<comp name="--.HNE" depth="0.0">
			<acc value="0.0100445837201426" flag="0"/>
			<vel value="0.00685581333959965" flag="0"/>
			<psa03 value="0.03029047388057" flag="0"/>
			<psa10 value="0.00393820902654028" flag="0"/>
			<psa30 value="0.000280086213430381" flag="0"/>
		</comp>
		<comp name="--.HNN" depth="0.0">
			<acc value="0.00898366547017189" flag="0"/>
			<vel value="0.00525999271646156" flag="0"/>
			<psa03 value="0.0191944066392386" flag="0"/>
			<psa10 value="0.00310063491864623" flag="0"/>
			<psa30 value="0.000265321285246351" flag="0"/>
		</comp>
		<comp name="--.HNZ" depth="0.0">
			<acc value="0.00673351772939434" flag="0"/>
			<vel value="0.00238201983862732" flag="0"/>
			<psa03 value="0.0165098742421423" flag="0"/>
			<psa10 value="0.00169930900736196" flag="0"/>
			<psa30 value="0.000223263611025176" flag="0"/>
		</comp>
	</station>
	<station code="ITM" name="ITM" netid="HL" source="National Observatory of Athens Seismic Network" insttype="" lat="37.17872" lon="21.92522" esm:processing="manual (Paolucci et al 2011)" esm:quality="good">
		<comp name="--.HNE" depth="0.0">
			<acc value="0.00703131882324659" flag="0"/>
			<vel value="0.0033977980723342" flag="0"/>
			<psa03 value="0.0146819361478813" flag="0"/>
			<psa10 value="0.00467599491796472" flag="0"/>
			<psa30 value="0.000353772315888036" flag="0"/>
		</comp>
		<comp name="--.HNN" depth="0.0">
			<acc value="0.00721793194808234" flag="0"/>
			<vel value="0.00351946439839231" flag="0"/>
			<psa03 value="0.0189121043966005" flag="0"/>
			<psa10 value="0.00443672531752797" flag="0"/>
			<psa30 value="0.000494320715071373" flag="0"/>
		</comp>
		<comp name="--.HNZ" depth="0.0">
			<acc value="0.00573595619184114" flag="0"/>
			<vel value="0.00331956348933177" flag="0"/>
			<psa03 value="0.0120238251652407" flag="0"/>
			<psa10 value="0.0038376018004103" flag="0"/>
			<psa30 value="0.000412126494065953" flag="0"/>
		</comp>
	</station>
	<station code="LXRA" name="LXRA" netid="HL" source="National Observatory of Athens Seismic Network" insttype="" lat="38.20006" lon="20.43718" esm:processing="manual (Paolucci et al 2011)" esm:quality="good">
		<comp name="00.HNE" depth="0.0">
			<acc value="0.0417443523609435" flag="0"/>
			<vel value="0.022464317847253" flag="0"/>
			<psa03 value="0.106978616024288" flag="0"/>
			<psa10 value="0.0191917221068415" flag="0"/>
			<psa30 value="0.00268676950742722" flag="0"/>
		</comp>
		<comp name="00.HNN" depth="0.0">
			<acc value="0.0414484320584551" flag="0"/>
			<vel value="0.0241160010868247" flag="0"/>
			<psa03 value="0.14393567869098" flag="0"/>
			<psa10 value="0.0164977938463553" flag="0"/>
			<psa30 value="0.00149841649964592" flag="0"/>
		</comp>
		<comp name="00.HNZ" depth="0.0">
			<acc value="0.0308603897651086" flag="0"/>
			<vel value="0.0116038752692784" flag="0"/>
			<psa03 value="0.0512745687845394" flag="0"/>
			<psa10 value="0.0114804027961823" flag="0"/>
			<psa30 value="0.000757485558047341" flag="0"/>
		</comp>
	</station>
	<station code="PATC" name="PATC" netid="HL" source="National Observatory of Athens Seismic Network" insttype="" lat="38.26933" lon="21.76001" esm:processing="manual (Paolucci et al 2011)" esm:quality="good">
		<comp name="00.HNE" depth="0.0">
			<acc value="0.0102574830179567" flag="0"/>
			<vel value="0.00715187939473992" flag="0"/>
			<psa03 value="0.0251981770680645" flag="0"/>
			<psa10 value="0.0127751509785551" flag="0"/>
			<psa30 value="0.0016159812174915" flag="0"/>
		</comp>
		<comp name="00.HNN" depth="0.0">
			<acc value="0.00795037967735366" flag="0"/>
			<vel value="0.00654632580873779" flag="0"/>
			<psa03 value="0.0271031079478864" flag="0"/>
			<psa10 value="0.00955074737764113" flag="0"/>
			<psa30 value="0.00102354624241526" flag="0"/>
		</comp>
		<comp name="00.HNZ" depth="0.0">
			<acc value="0.00684716122841336" flag="0"/>
			<vel value="0.00483944631189755" flag="0"/>
			<psa03 value="0.017448662398667" flag="0"/>
			<psa10 value="0.00626577210790133" flag="0"/>
			<psa30 value="0.000487851692780395" flag="0"/>
		</comp>
	</station>
	<station code="ARS1" name="ARS1" netid="HI" source="ITSAK Strong Motion Network" insttype="" lat="37.6349" lon="22.7293" esm:processing="discarded" esm:quality="bad">
		<comp name="--.HNE" depth="0.0">
			<acc value="0" flag="1"/>
			<vel value="0" flag="1"/>
			<psa03 value="0" flag="1"/>
			<psa10 value="0" flag="1"/>
			<psa30 value="0" flag="1"/>
		</comp>
		<comp name="--.HNN" depth="0.0">
			<acc value="0" flag="1"/>
			<vel value="0" flag="1"/>
			<psa03 value="0" flag="1"/>
			<psa10 value="0" flag="1"/>
			<psa30 value="0" flag="1"/>
		</comp>
		<comp name="--.HNZ" depth="0.0">
			<acc value="0" flag="1"/>
			<vel value="0" flag="1"/>
			<psa03 value="0" flag="1"/>
			<psa10 value="0" flag="1"/>
			<psa30 value="0" flag="1"/>
		</comp>
	</station>
	<station code="MSL1" name="MSL1" netid="HI" source="ITSAK Strong Motion Network" insttype="" lat="38.3727" lon="21.4243" esm:processing="discarded" esm:quality="good">
		<comp name="--.HNE" depth="0.0">
			<acc value="0" flag="1"/>
			<vel value="0" flag="1"/>
			<psa03 value="0" flag="1"/>
			<psa10 value="0" flag="1"/>
			<psa30 value="0" flag="1"/>
		</comp>
		<comp name="--.HNN" depth="0.0">
			<acc value="0" flag="1"/>
			<vel value="0" flag="1"/>
			<psa03 value="0" flag="1"/>
			<psa10 value="0" flag="1"/>
			<psa30 value="0" flag="1"/>
		</comp>
		<comp name="--.HNZ" depth="0.0">
			<acc value="0" flag="1"/>
			<vel value="0" flag="1"/>
			<psa03 value="0" flag="1"/>
			<psa10 value="0" flag="1"/>
			<psa30 value="0" flag="1"/>
		</comp>
	</station>
	<station code="DLFA" name="DLFA" netid="HL" source="National Observatory of Athens Seismic Network" insttype="" lat="38.47836" lon="22.49583" esm:processing="automatic (Paolucci et al 2011)" esm:quality="bad">
		<comp name="00.HNE" depth="0.0">
			<acc value="0" flag="1"/>
			<vel value="0" flag="1"/>
			<psa03 value="0" flag="1"/>
			<psa10 value="0" flag="1"/>
			<psa30 value="0" flag="1"/>
		</comp>
		<comp name="00.HNN" depth="0.0">
			<acc value="0" flag="1"/>
			<vel value="0" flag="1"/>
			<psa03 value="0" flag="1"/>
			<psa10 value="0" flag="1"/>
			<psa30 value="0" flag="1"/>
		</comp>
		<comp name="00.HNZ" depth="0.0">
			<acc value="0" flag="1"/>
			<vel value="0" flag="1"/>
			<psa03 value="0" flag="1"/>
			<psa10 value="0" flag="1"/>
			<psa30 value="0" flag="1"/>
		</comp>
	</station>
	<station code="PATG" name="PATG" netid="HL" source="National Observatory of Athens Seismic Network" insttype="" lat="38.23865" lon="21.72657" esm:processing="automatic (Paolucci et al 2011)" esm:quality="bad">
		<comp name="00.HNE" depth="0.0">
			<acc value="0" flag="1"/>
			<vel value="0" flag="1"/>
			<psa03 value="0" flag="1"/>
			<psa10 value="0" flag="1"/>
			<psa30 value="0" flag="1"/>
		</comp>
		<comp name="00.HNN" depth="0.0">
			<acc value="0" flag="1"/>
			<vel value="0" flag="1"/>
			<psa03 value="0" flag="1"/>
			<psa10 value="0" flag="1"/>
			<psa30 value="0" flag="1"/>
		</comp>
		<comp name="00.HNZ" depth="0.0">
			<acc value="0" flag="1"/>
			<vel value="0" flag="1"/>
			<psa03 value="0" flag="1"/>
			<psa10 value="0" flag="1"/>
			<psa30 value="0" flag="1"/>
		</comp>
	</station>
	<station code="RIOA" name="RIOA" netid="HL" source="National Observatory of Athens Seismic Network" insttype="" lat="38.29585" lon="21.79118" esm:processing="automatic (Paolucci et al 2011)" esm:quality="bad">
		<comp name="00.HNE" depth="0.0">
			<acc value="0" flag="1"/>
			<vel value="0" flag="1"/>
			<psa03 value="0" flag="1"/>
			<psa10 value="0" flag="1"/>
			<psa30 value="0" flag="1"/>
		</comp>
		<comp name="00.HNN" depth="0.0">
			<acc value="0" flag="1"/>
			<vel value="0" flag="1"/>
			<psa03 value="0" flag="1"/>
			<psa10 value="0" flag="1"/>
			<psa30 value="0" flag="1"/>
		</comp>
		<comp name="00.HNZ" depth="0.0">
			<acc value="0" flag="1"/>
			<vel value="0" flag="1"/>
			<psa03 value="0" flag="1"/>
			<psa10 value="0" flag="1"/>
			<psa30 value="0" flag="1"/>
		</comp>
	</station>
</stationlist>
