<?xml version="1.0" encoding="UTF-8" standalone="yes"?>
<!DOCTYPE earthquake SYSTEM "stationlist.dtd">
<stationlist created="" xmlns="ch.ethz.sed.shakemap.usgs.xml">
  <station code="KOSP" name="KOSP" netid="HC" insttype="60" lat="36.881" lon="27.281">
    <comp name="--.HHN">
      <acc value="0.3906306749" flag="0"/>
      <vel value="0.1642966177" flag="0"/>
      <psa03 value="1.0618654400" flag="0"/>
      <psa10 value="0.1171950859" flag="0"/>
      <psa30 value="0.0174676545" flag="0"/>
    </comp>
    <comp name="--.HHE">
      <acc value="0.5192928868" flag="0"/>
      <vel value="0.1706158122" flag="0"/>
      <psa03 value="0.9754301441" flag="0"/>
      <psa10 value="0.1098024930" flag="0"/>
      <psa30 value="0.0178383689" flag="0"/>
    </comp>
    <comp name="--.HHZ">
      <acc value="0.4042073603" flag="0"/>
      <vel value="0.1156609699" flag="0"/>
      <psa03 value="0.6757356540" flag="0"/>
      <psa10 value="0.0855589154" flag="0"/>
      <psa30 value="0.0083753224" flag="0"/>
    </comp>
  </station>
  <station code="ARG" name="ARG" netid="HL" insttype="LE3D20_DR24" lat="36.2136" lon="28.1212">
    <comp name="--.HHE">
      <acc value="0.0126212636" flag="0"/>
      <vel value="0.0060753803" flag="0"/>
      <psa03 value="0.0362345876" flag="0"/>
      <psa10 value="0.0059684344" flag="0"/>
      <psa30 value="0.0006596124" flag="0"/>
    </comp>
    <comp name="--.HHZ">
      <acc value="0.0077117463" flag="0"/>
      <vel value="0.0041482734" flag="0"/>
      <psa03 value="0.0143599044" flag="0"/>
      <psa10 value="0.0038527625" flag="0"/>
      <psa30 value="0.0005111795" flag="0"/>
    </comp>
    <comp name="--.HHN">
      <acc value="0.0115910684" flag="0"/>
      <vel value="0.0052601461" flag="0"/>
      <psa03 value="0.0325290431" flag="0"/>
      <psa10 value="0.0048833906" flag="0"/>
      <psa30 value="0.0006629555" flag="0"/>
    </comp>
  </station>
  <station code="KLNA" name="KLNA" netid="HL" insttype="CMG-5" lat="36.9571" lon="26.9727">
    <comp name="00.HNN">
      <acc value="5.4099507722" flag="0"/>
      <vel value="1.4492523834" flag="0"/>
      <psa03 value="6.6422918654" flag="0"/>
      <psa10 value="0.2926829987" flag="0"/>
      <psa30 value="0.0262618634" flag="0"/>
    </comp>
    <comp name="00.HNE">
      <acc value="6.0910180634" flag="0"/>
      <vel value="1.5549402245" flag="0"/>
      <psa03 value="8.3958633547" flag="0"/>
      <psa10 value="0.3282345094" flag="0"/>
      <psa30 value="0.0335621755" flag="0"/>
    </comp>
    <comp name="00.HNZ">
      <acc value="8.1144484443" flag="0"/>
      <vel value="1.4972174013" flag="0"/>
      <psa03 value="2.8417969616" flag="0"/>
      <psa10 value="0.2478259466" flag="0"/>
      <psa30 value="0.0201918267" flag="0"/>
    </comp>
  </station>
  <station code="NISR" name="NISR" netid="HL" insttype="65535" lat="36.6106" lon="27.131">
    <comp name="--.HHZ">
      <acc value="0.0548881483" flag="0"/>
      <vel value="0.0094223941" flag="0"/>
      <psa03 value="0.0374294253" flag="0"/>
      <psa10 value="0.0061494952" flag="0"/>
      <psa30 value="0.0004956834" flag="0"/>
    </comp>
    <comp name="--.HHN">
      <acc value="0.0822936649" flag="0"/>
      <vel value="0.0187124525" flag="0"/>
      <psa03 value="0.0750843827" flag="0"/>
      <psa10 value="0.0088142299" flag="0"/>
      <psa30 value="0.0016704346" flag="0"/>
    </comp>
    <comp name="--.HHE">
      <acc value="0.1068386719" flag="0"/>
      <vel value="0.0309923083" flag="0"/>
      <psa03 value="0.1464340621" flag="0"/>
      <psa10 value="0.0100675647" flag="0"/>
      <psa30 value="0.0014209099" flag="0"/>
    </comp>
  </station>
  <station code="NISR2" name="NISR2" netid="HL" insttype="120" lat="36.5744" lon="27.1767">
    <comp name="--.HHE">
      <acc value="0.0658948833" flag="0"/>
      <vel value="0.0282018064" flag="0"/>
      <psa03 value="0.1757483911" flag="0"/>
      <psa10 value="0.0341380018" flag="0"/>
      <psa30 value="0.0021208660" flag="0"/>
    </comp>
    <comp name="--.HHZ">
      <acc value="0.0555149861" flag="0"/>
      <vel value="0.0143953670" flag="0"/>
      <psa03 value="0.0775535808" flag="0"/>
      <psa10 value="0.0084168982" flag="0"/>
      <psa30 value="0.0013933897" flag="0"/>
    </comp>
    <comp name="--.HHN">
      <acc value="0.0640211038" flag="0"/>
      <vel value="0.0328375865" flag="0"/>
      <psa03 value="0.1790114885" flag="0"/>
      <psa10 value="0.0282133856" flag="0"/>
      <psa30 value="0.0029792134" flag="0"/>
    </comp>
  </station>
  <station code="SMG" name="SMG" netid="HL" insttype="120" lat="37.7043" lon="26.8377">
    <comp name="--.HHN">
      <acc value="0.0887005230" flag="0"/>
      <vel value="0.0399822341" flag="0"/>
      <psa03 value="0.2477516022" flag="0"/>
      <psa10 value="0.0202090824" flag="0"/>
      <psa30 value="0.0012276770" flag="0"/>
    </comp>
    <comp name="--.HHE">
      <acc value="0.1150804779" flag="0"/>
      <vel value="0.0412427674" flag="0"/>
      <psa03 value="0.1968850747" flag="0"/>
      <psa10 value="0.0209806670" flag="0"/>
      <psa30 value="0.0016511348" flag="0"/>
    </comp>
    <comp name="--.HHZ">
      <acc value="0.0683424886" flag="0"/>
      <vel value="0.0235307236" flag="0"/>
      <psa03 value="0.0916298868" flag="0"/>
      <psa10 value="0.0210579637" flag="0"/>
      <psa30 value="0.0011167619" flag="0"/>
    </comp>
  </station>
  <station code="BODA" name="BODA" netid="KO" insttype="ACEBOX" lat="37.0348" lon="27.4304">
    <comp name="--.HNE">
      <acc value="0.2151307909" flag="0"/>
      <vel value="0.0617395340" flag="0"/>
      <psa03 value="0.3795723182" flag="0"/>
      <psa10 value="0.0345893630" flag="0"/>
      <psa30 value="0.0019554759" flag="0"/>
    </comp>
    <comp name="--.HNZ">
      <acc value="0.1250336297" flag="0"/>
      <vel value="0.0333486708" flag="0"/>
      <psa03 value="0.1184938029" flag="0"/>
      <psa10 value="0.0243280415" flag="0"/>
      <psa30 value="0.0020634817" flag="0"/>
    </comp>
    <comp name="--.HNN">
      <acc value="0.3140864706" flag="0"/>
      <vel value="0.1171638401" flag="0"/>
      <psa03 value="0.9722611868" flag="0"/>
      <psa10 value="0.0468736552" flag="0"/>
      <psa30 value="0.0040679692" flag="0"/>
    </comp>
  </station>
  <station code="DAT" name="DAT" netid="KO" insttype="CMG-3T" lat="36.7308" lon="27.5767">
    <comp name="--.HHE">
      <acc value="0.1095001455" flag="0"/>
      <vel value="0.0247254631" flag="0"/>
      <psa03 value="0.2396137371" flag="0"/>
      <psa10 value="0.0106293555" flag="0"/>
      <psa30 value="0.0014709754" flag="0"/>
    </comp>
    <comp name="--.HHZ">
      <acc value="0.0000340436" flag="0"/>
      <vel value="0.0000029628" flag="0"/>
      <psa03 value="0.0000115472" flag="0"/>
      <psa10 value="0.0000034525" flag="0"/>
      <psa30 value="0.0000008131" flag="0"/>
    </comp>
    <comp name="--.HHN">
      <acc value="0.1079787296" flag="0"/>
      <vel value="0.0347085744" flag="0"/>
      <psa03 value="0.2752069551" flag="0"/>
      <psa10 value="0.0114160685" flag="0"/>
      <psa30 value="0.0010635496" flag="0"/>
    </comp>
  </station>
  <station code="MLSB" name="MLSB" netid="KO" insttype="CMG-3ESP" lat="37.2953" lon="27.7767">
    <comp name="--.HHN">
      <acc value="0.0390452618" flag="0"/>
      <vel value="0.0240928475" flag="0"/>
      <psa03 value="0.0901475517" flag="0"/>
      <psa10 value="0.0307099260" flag="0"/>
      <psa30 value="0.0022762669" flag="0"/>
    </comp>
    <comp name="--.HHE">
      <acc value="0.0361330642" flag="0"/>
      <vel value="0.0193337132" flag="0"/>
      <psa03 value="0.0935561269" flag="0"/>
      <psa10 value="0.0139386178" flag="0"/>
      <psa30 value="0.0018631850" flag="0"/>
    </comp>
    <comp name="--.HHZ">
      <acc value="0.0437337034" flag="0"/>
      <vel value="0.0322147789" flag="0"/>
      <psa03 value="0.0864013075" flag="0"/>
      <psa10 value="0.0179371288" flag="0"/>
      <psa30 value="0.0021774856" flag="0"/>
    </comp>
  </station>
  <station code="YER" name="YER" netid="KO" insttype="CMG-3T" lat="37.1336" lon="28.284">
    <comp name="--.HHN">
      <acc value="0.0129769159" flag="0"/>
      <vel value="0.0085428066" flag="0"/>
      <psa03 value="0.0416446632" flag="0"/>
      <psa10 value="0.0062688570" flag="0"/>
      <psa30 value="0.0009279508" flag="0"/>
    </comp>
    <comp name="--.HHZ">
      <acc value="0.0091870524" flag="0"/>
      <vel value="0.0076374909" flag="0"/>
      <psa03 value="0.0183031426" flag="0"/>
      <psa10 value="0.0079999199" flag="0"/>
      <psa30 value="0.0010187698" flag="0"/>
    </comp>
    <comp name="--.HHE">
      <acc value="0.0145107629" flag="0"/>
      <vel value="0.0057772254" flag="0"/>
      <psa03 value="0.0262396110" flag="0"/>
      <psa10 value="0.0059641664" flag="0"/>
      <psa30 value="0.0010755096" flag="0"/>
    </comp>
  </station>
  <station code="YKAV" name="YKAV" netid="KO" insttype="CMG-5T" lat="37.1246" lon="27.2801">
    <comp name="--.HNZ">
      <acc value="0.3597197353" flag="0"/>
      <vel value="0.0866372862" flag="0"/>
      <psa03 value="0.3202414766" flag="0"/>
      <psa10 value="0.0733564764" flag="0"/>
      <psa30 value="0.0042163073" flag="0"/>
    </comp>
    <comp name="--.HNE">
      <acc value="0.5610654017" flag="0"/>
      <vel value="0.1428597146" flag="0"/>
      <psa03 value="0.7832680232" flag="0"/>
      <psa10 value="0.1212564113" flag="0"/>
      <psa30 value="0.0048754226" flag="0"/>
    </comp>
    <comp name="--.HNN">
      <acc value="0.4199695042" flag="0"/>
      <vel value="0.0983238718" flag="0"/>
      <psa03 value="0.7167353369" flag="0"/>
      <psa10 value="0.0542896749" flag="0"/>
      <psa30 value="0.0049316582" flag="0"/>
    </comp>
  </station>
  <station code="AYDN" name="AYDN" netid="TU" insttype="T" lat="37.6608" lon="27.8792">
    <comp name="--.HHZ">
      <acc value="0.0383964833" flag="0"/>
      <vel value="0.0136802710" flag="0"/>
      <psa03 value="0.0723540970" flag="0"/>
      <psa10 value="0.0166572719" flag="0"/>
      <psa30 value="0.0021033697" flag="0"/>
    </comp>
    <comp name="--.HHN">
      <acc value="0.0845294218" flag="0"/>
      <vel value="0.0310206136" flag="0"/>
      <psa03 value="0.1582176761" flag="0"/>
      <psa10 value="0.0222120068" flag="0"/>
      <psa30 value="0.0019439135" flag="0"/>
    </comp>
    <comp name="--.HHE">
      <acc value="0.0827383574" flag="0"/>
      <vel value="0.0374838272" flag="0"/>
      <psa03 value="0.1963506107" flag="0"/>
      <psa10 value="0.0219396252" flag="0"/>
      <psa30 value="0.0019370422" flag="0"/>
    </comp>
  </station>
</stationlist>
