<?xml version="1.0" encoding="UTF-8" standalone="yes"?>
<!DOCTYPE earthquake SYSTEM "stationlist.dtd">
<stationlist created="" xmlns="ch.ethz.sed.shakemap.usgs.xml">
  <station code="BODA" name="BODA" netid="KO" insttype="ACEBOX" lat="37.0348" lon="27.4304">
    <comp name="--.HNE">
      <acc value="0.2151307907" flag="0"/>
      <vel value="0.0617395328" flag="0"/>
      <psa03 value="0.3795723182" flag="0"/>
      <psa10 value="0.0345893980" flag="0"/>
      <psa30 value="0.0019562610" flag="0"/>
    </comp>
    <comp name="--.HNZ">
      <acc value="0.1250336323" flag="0"/>
      <vel value="0.0333486713" flag="0"/>
      <psa03 value="0.1184938029" flag="0"/>
      <psa10 value="0.0243280324" flag="0"/>
      <psa30 value="0.0020625540" flag="0"/>
    </comp>
    <comp name="--.HNN">
      <acc value="0.3140864724" flag="0"/>
      <vel value="0.1171638422" flag="0"/>
      <psa03 value="0.9722611868" flag="0"/>
      <psa10 value="0.0468736324" flag="0"/>
      <psa30 value="0.0040683462" flag="0"/>
    </comp>
  </station>
  <station code="DAT" name="DAT" netid="KO" insttype="CMG-3T" lat="36.7308" lon="27.5767">
    <comp name="--.HHE">
      <acc value="0.1095001454" flag="0"/>
      <vel value="0.0247254637" flag="0"/>
      <psa03 value="0.2396137371" flag="0"/>
      <psa10 value="0.0106293555" flag="0"/>
      <psa30 value="0.0014709821" flag="0"/>
    </comp>
    <comp name="--.HHN">
      <acc value="0.1079787298" flag="0"/>
      <vel value="0.0347085746" flag="0"/>
      <psa03 value="0.2752069551" flag="0"/>
      <psa10 value="0.0114160685" flag="0"/>
      <psa30 value="0.0010636812" flag="0"/>
    </comp>
    <comp name="--.HHZ">
      <acc value="0.0000340440" flag="0"/>
      <vel value="0.0000029628" flag="0"/>
      <psa03 value="0.0000115469" flag="0"/>
      <psa10 value="0.0000034542" flag="0"/>
      <psa30 value="0.0000008130" flag="0"/>
    </comp>
  </station>
  <station code="MLSB" name="MLSB" netid="KO" insttype="CMG-3ESP" lat="37.2953" lon="27.7767">
    <comp name="--.HHN">
      <acc value="0.0390452618" flag="0"/>
      <vel value="0.0240928477" flag="0"/>
      <psa03 value="0.0901475517" flag="0"/>
      <psa10 value="0.0307099261" flag="0"/>
      <psa30 value="0.0022763368" flag="0"/>
    </comp>
    <comp name="--.HHZ">
      <acc value="0.0437337032" flag="0"/>
      <vel value="0.0322147807" flag="0"/>
      <psa03 value="0.0864013075" flag="0"/>
      <psa10 value="0.0179371288" flag="0"/>
      <psa30 value="0.0021774280" flag="0"/>
    </comp>
    <comp name="--.HHE">
      <acc value="0.0361330642" flag="0"/>
      <vel value="0.0193337124" flag="0"/>
      <psa03 value="0.0935561269" flag="0"/>
      <psa10 value="0.0139386177" flag="0"/>
      <psa30 value="0.0018632145" flag="0"/>
    </comp>
  </station>
  <station code="YER" name="YER" netid="KO" insttype="CMG-3T" lat="37.1336" lon="28.284">
    <comp name="--.HHE">
      <acc value="0.0145107631" flag="0"/>
      <vel value="0.0057772249" flag="0"/>
      <psa03 value="0.0262396110" flag="0"/>
      <psa10 value="0.0059641664" flag="0"/>
      <psa30 value="0.0010755100" flag="0"/>
    </comp>
    <comp name="--.HHN">
      <acc value="0.0129769146" flag="0"/>
      <vel value="0.0085428061" flag="0"/>
      <psa03 value="0.0416446632" flag="0"/>
      <psa10 value="0.0062688570" flag="0"/>
      <psa30 value="0.0009279419" flag="0"/>
    </comp>
    <comp name="--.HHZ">
      <acc value="0.0091870526" flag="0"/>
      <vel value="0.0076374914" flag="0"/>
      <psa03 value="0.0183031426" flag="0"/>
      <psa10 value="0.0079999200" flag="0"/>
      <psa30 value="0.0010188021" flag="0"/>
    </comp>
  </station>
  <station code="YKAV" name="YKAV" netid="KO" insttype="CMG-5T" lat="37.1246" lon="27.2801">
    <comp name="--.HNZ">
      <acc value="0.3597197183" flag="0"/>
      <vel value="0.0866372930" flag="0"/>
      <psa03 value="0.3202414766" flag="0"/>
      <psa10 value="0.0733563831" flag="0"/>
      <psa30 value="0.0042219292" flag="0"/>
    </comp>
    <comp name="--.HNN">
      <acc value="0.4199694131" flag="0"/>
      <vel value="0.0983238774" flag="0"/>
      <psa03 value="0.7167353369" flag="0"/>
      <psa10 value="0.0542896853" flag="0"/>
      <psa30 value="0.0049348864" flag="0"/>
    </comp>
    <comp name="--.HNE">
      <acc value="0.5610654775" flag="0"/>
      <vel value="0.1428597070" flag="0"/>
      <psa03 value="0.7832680232" flag="0"/>
      <psa10 value="0.1212564291" flag="0"/>
      <psa30 value="0.0048719414" flag="0"/>
    </comp>
  </station>
</stationlist>
