<stationlist created="1631873491">
	<station code="KRL1" name="KRL1" netid="HI" source="ITSAK Strong Motion Network" insttype="" lat="37.7951" lon="26.7065">
		<comp name="--.HNE" depth="0.0">
			<acc value="0.715390158" flag="0"/>
			<vel value="0.203195" flag="0"/>
			<psa03 value="1.08047954762" flag="0"/>
			<psa10 value="0.102727658973" flag="0"/>
			<psa30 value="0.0122875522036" flag="0"/>
		</comp>
		<comp name="--.HNN" depth="0.0">
			<acc value="0.928064544" flag="0"/>
			<vel value="0.290108" flag="0"/>
			<psa03 value="1.1654897402" flag="0"/>
			<psa10 value="0.106903449117" flag="0"/>
			<psa30 value="0.0142311536591" flag="0"/>
		</comp>
		<comp name="--.HNZ" depth="0.0">
			<acc value="-0.39725481" flag="0"/>
			<vel value="0.097132" flag="0"/>
			<psa03 value="0.418160663054" flag="0"/>
			<psa10 value="0.0570194681143" flag="0"/>
			<psa30 value="0.00771400384306" flag="0"/>
		</comp>
	</station>
	<station code="MYT1" name="MYT1" netid="HI" source="ITSAK Strong Motion Network" insttype="" lat="39.085" lon="26.5694">
		<comp name="--.HNE" depth="0.0">
			<acc value="0.007368786" flag="0"/>
			<vel value="-0.005049" flag="0"/>
			<psa03 value="0.0187469845731" flag="0"/>
			<psa10 value="0.00769521211628" flag="0"/>
			<psa30 value="0.00183666758168" flag="0"/>
		</comp>
		<comp name="--.HNN" depth="0.0">
			<acc value="0.00644997" flag="0"/>
			<vel value="-0.006198" flag="0"/>
			<psa03 value="0.0204919306312" flag="0"/>
			<psa10 value="0.00760662254717" flag="0"/>
			<psa30 value="0.00253330373873" flag="0"/>
		</comp>
		<comp name="--.HNZ" depth="0.0">
			<acc value="-0.005439252" flag="0"/>
			<vel value="0.007946" flag="0"/>
			<psa03 value="0.00957483221631" flag="0"/>
			<psa10 value="0.00891533209076" flag="0"/>
			<psa30 value="0.00132660642623" flag="0"/>
		</comp>
	</station>
	<station code="KLNA" name="KLNA" netid="HL" source="National Observatory of Athens Seismic Network" insttype="" lat="36.95708" lon="26.97274">
		<comp name="--.HNE" depth="0.0">
			<acc value="0.064075074" flag="0"/>
			<vel value="0.024107" flag="0"/>
			<psa03 value="0.190020151508" flag="0"/>
			<psa10 value="0.00846433064804" flag="0"/>
			<psa30 value="0.000901108041292" flag="0"/>
		</comp>
		<comp name="--.HNN" depth="0.0">
			<acc value="-0.064679934" flag="0"/>
			<vel value="0.022578" flag="0"/>
			<psa03 value="0.18787252559" flag="0"/>
			<psa10 value="0.0106226946953" flag="0"/>
			<psa30 value="0.00111900258752" flag="0"/>
		</comp>
		<comp name="--.HNZ" depth="0.0">
			<acc value="0.055124778" flag="0"/>
			<vel value="-0.015476" flag="0"/>
			<psa03 value="0.0766881421437" flag="0"/>
			<psa10 value="0.00877439413991" flag="0"/>
			<psa30 value="0.00110021086074" flag="0"/>
		</comp>
	</station>
	<station code="PRK" name="PRK" netid="HL" source="National Observatory of Athens Seismic Network" insttype="" lat="39.24565" lon="26.26499">
		<comp name="--.HNE" depth="0.0">
			<acc value="0.008199474" flag="0"/>
			<vel value="-0.00703" flag="0"/>
			<psa03 value="0.0183443047135" flag="0"/>
			<psa10 value="0.0176816726335" flag="0"/>
			<psa30 value="0.000708269130767" flag="0"/>
		</comp>
		<comp name="--.HNN" depth="0.0">
			<acc value="-0.009194994" flag="0"/>
			<vel value="0.006853" flag="0"/>
			<psa03 value="0.0322591309718" flag="0"/>
			<psa10 value="0.0102522292245" flag="0"/>
			<psa30 value="0.0012026705139" flag="0"/>
		</comp>
		<comp name="--.HNZ" depth="0.0">
			<acc value="-0.005776566" flag="0"/>
			<vel value="0.002948" flag="0"/>
			<psa03 value="0.0181205936804" flag="0"/>
			<psa10 value="0.00386975345041" flag="0"/>
			<psa30 value="0.000604019789347" flag="0"/>
		</comp>
	</station>
	<station code="GMLD" name="GMLD" netid="KO" source="Bogazici University Kandilli Observatory And Earthquake Research Institute (KOERI)" insttype="" lat="38.0766" lon="26.9157">
		<comp name="--.HNE" depth="0.0">
			<acc value="-0.956008362" flag="0"/>
			<vel value="0.467522" flag="0"/>
			<psa03 value="1.59725203407" flag="0"/>
			<psa10 value="0.259523142691" flag="0"/>
			<psa30 value="0.0232404443837" flag="0"/>
		</comp>
		<comp name="--.HNN" depth="0.0">
			<acc value="0.893877102" flag="0"/>
			<vel value="0.493483" flag="0"/>
			<psa03 value="1.84709251582" flag="0"/>
			<psa10 value="0.456316816858" flag="0"/>
			<psa30 value="0.0401722376343" flag="0"/>
		</comp>
		<comp name="--.HNZ" depth="0.0">
			<acc value="-0.608296584" flag="0"/>
			<vel value="0.247057" flag="0"/>
			<psa03 value="1.03712434941" flag="0"/>
			<psa10 value="0.100875331619" flag="0"/>
			<psa30 value="0.0249160400216" flag="0"/>
		</comp>
	</station>
	<station code="GORD" name="GORD" netid="KO" source="Bogazici University Kandilli Observatory And Earthquake Research Institute (KOERI)" insttype="" lat="38.9088" lon="28.1769">
		<comp name="--.HNE" depth="0.0">
			<acc value="-0.038186658" flag="0"/>
			<vel value="0.034705" flag="0"/>
			<psa03 value="0.0928400787329" flag="0"/>
			<psa10 value="0.0628704064738" flag="0"/>
			<psa30 value="0.00530642570493" flag="0"/>
		</comp>
		<comp name="--.HNN" depth="0.0">
			<acc value="-0.026380566" flag="0"/>
			<vel value="-0.025895" flag="0"/>
			<psa03 value="0.0861734899468" flag="0"/>
			<psa10 value="0.035174085733" flag="0"/>
			<psa30 value="0.00421471586344" flag="0"/>
		</comp>
		<comp name="--.HNZ" depth="0.0">
			<acc value="-0.03039039" flag="0"/>
			<vel value="-0.035451" flag="0"/>
			<psa03 value="0.0581201263971" flag="0"/>
			<psa10 value="0.037384798162" flag="0"/>
			<psa30 value="0.00290376920953" flag="0"/>
		</comp>
	</station>
	<station code="KRBN" name="KRBN" netid="KO" source="Bogazici University Kandilli Observatory And Earthquake Research Institute (KOERI)" insttype="" lat="38.5936" lon="26.5537">
		<comp name="--.HNE" depth="0.0">
			<acc value="-0.220824186" flag="0"/>
			<vel value="-0.068659" flag="0"/>
			<psa03 value="0.364112077459" flag="0"/>
			<psa10 value="0.0872405915746" flag="0"/>
			<psa30 value="0.00951398281531" flag="0"/>
		</comp>
		<comp name="--.HNN" depth="0.0">
			<acc value="-0.200016288" flag="0"/>
			<vel value="-0.160164" flag="0"/>
			<psa03 value="0.273419624644" flag="0"/>
			<psa10 value="0.201440599747" flag="0"/>
			<psa30 value="0.0111913681414" flag="0"/>
		</comp>
		<comp name="--.HNZ" depth="0.0">
			<acc value="-0.089442984" flag="0"/>
			<vel value="-0.040903" flag="0"/>
			<psa03 value="0.111676547719" flag="0"/>
			<psa10 value="0.0569349053438" flag="0"/>
			<psa30 value="0.00457936484738" flag="0"/>
		</comp>
	</station>
	<station code="KUSD" name="KUSD" netid="KO" source="Bogazici University Kandilli Observatory And Earthquake Research Institute (KOERI)" insttype="" lat="37.8606" lon="27.2868">
		<comp name="--.HNE" depth="0.0">
			<acc value="0.39038409" flag="0"/>
			<vel value="-0.178438" flag="0"/>
			<psa03 value="0.734040641779" flag="0"/>
			<psa10 value="0.070267635494" flag="0"/>
			<psa30 value="0.00733458993093" flag="0"/>
		</comp>
		<comp name="--.HNN" depth="0.0">
			<acc value="0.304258554" flag="0"/>
			<vel value="0.089625" flag="0"/>
			<psa03 value="0.574489932979" flag="0"/>
			<psa10 value="0.103363893152" flag="0"/>
			<psa30 value="0.00691803998732" flag="0"/>
		</comp>
		<comp name="--.HNZ" depth="0.0">
			<acc value="0.272927724" flag="0"/>
			<vel value="0.09247" flag="0"/>
			<psa03 value="0.442589907868" flag="0"/>
			<psa10 value="0.0487001022157" flag="0"/>
			<psa30 value="0.00546302342809" flag="0"/>
		</comp>
	</station>
	<station code="NAZL" name="NAZL" netid="KO" source="Bogazici University Kandilli Observatory And Earthquake Research Institute (KOERI)" insttype="" lat="37.9641" lon="28.2922">
		<comp name="--.HNE" depth="0.0">
			<acc value="-0.147507402" flag="0"/>
			<vel value="0.093092" flag="0"/>
			<psa03 value="0.723213027778" flag="0"/>
			<psa10 value="0.0560087416668" flag="0"/>
			<psa30 value="0.00308229061393" flag="0"/>
		</comp>
		<comp name="--.HNN" depth="0.0">
			<acc value="0.119825724" flag="0"/>
			<vel value="0.082201" flag="0"/>
			<psa03 value="0.443797947447" flag="0"/>
			<psa10 value="0.0442021681844" flag="0"/>
			<psa30 value="0.00356103222475" flag="0"/>
		</comp>
		<comp name="--.HNZ" depth="0.0">
			<acc value="-0.049951644" flag="0"/>
			<vel value="-0.02512" flag="0"/>
			<psa03 value="0.132347447177" flag="0"/>
			<psa10 value="0.0191152129335" flag="0"/>
			<psa30 value="0.00186932939251" flag="0"/>
		</comp>
	</station>
	<station code="SOMA" name="SOMA" netid="KO" source="Bogazici University Kandilli Observatory And Earthquake Research Institute (KOERI)" insttype="" lat="39.1564" lon="27.5341">
		<comp name="--.HNE" depth="0.0">
			<acc value="0.05248104" flag="0"/>
			<vel value="0.024603" flag="0"/>
			<psa03 value="0.157850504949" flag="0"/>
			<psa10 value="0.0253366167638" flag="0"/>
			<psa30 value="0.00275254055116" flag="0"/>
		</comp>
		<comp name="--.HNN" depth="0.0">
			<acc value="-0.040633026" flag="0"/>
			<vel value="0.024186" flag="0"/>
			<psa03 value="0.115837572935" flag="0"/>
			<psa10 value="0.0250748748551" flag="0"/>
			<psa30 value="0.00517085681887" flag="0"/>
		</comp>
		<comp name="--.HNZ" depth="0.0">
			<acc value="0.035367174" flag="0"/>
			<vel value="-0.018415" flag="0"/>
			<psa03 value="0.0626838314722" flag="0"/>
			<psa10 value="0.0160347120079" flag="0"/>
			<psa30 value="0.00356640128954" flag="0"/>
		</comp>
	</station>
</stationlist>
