<?xml version="1.0" encoding="UTF-8" standalone="yes"?>
<!DOCTYPE earthquake SYSTEM "stationlist.dtd">
<stationlist created="" xmlns="ch.ethz.sed.shakemap.usgs.xml">
  <station code="KRL1" name="KRL1" netid="HI" insttype="CMG-5TD,ACCELEROMETER,GURALP" lat="37.7951" lon="26.7065">
    <comp name="--.HNE">
      <acc value="0.7222991374" flag="0"/>
      <vel value="0.1982260023" flag="0"/>
      <psa03 value="1.0711489360" flag="0"/>
      <psa10 value="0.1025387864" flag="0"/>
      <psa30 value="0.0105098147" flag="0"/>
    </comp>
    <comp name="--.HNN">
      <acc value="0.9323483807" flag="0"/>
      <vel value="0.2892064927" flag="0"/>
      <psa03 value="1.1436835937" flag="0"/>
      <psa10 value="0.1067277800" flag="0"/>
      <psa30 value="0.0134505803" flag="0"/>
    </comp>
    <comp name="--.HNZ">
      <acc value="0.4011657138" flag="0"/>
      <vel value="0.0959788753" flag="0"/>
      <psa03 value="0.4089585134" flag="0"/>
      <psa10 value="0.0569565404" flag="0"/>
      <psa30 value="0.0069423321" flag="0"/>
    </comp>
  </station>
  <station code="EAG2" name="EAG2" netid="HL" insttype="SMART24" lat="38.5438" lon="26.1079">
    <comp name="--.HHN">
      <acc value="0.1055849874" flag="0"/>
      <vel value="0.0664081221" flag="0"/>
      <psa03 value="0.4970277656" flag="0"/>
      <psa10 value="0.0710333755" flag="0"/>
      <psa30 value="0.0053205490" flag="0"/>
    </comp>
    <comp name="--.HHZ">
      <acc value="0.0550517208" flag="0"/>
      <vel value="0.0310717386" flag="0"/>
      <psa03 value="0.1217233811" flag="0"/>
      <psa10 value="0.0412599812" flag="0"/>
      <psa30 value="0.0024820025" flag="0"/>
    </comp>
    <comp name="--.HHE">
      <acc value="0.2581345398" flag="0"/>
      <vel value="0.1512925687" flag="0"/>
      <psa03 value="0.7834122113" flag="0"/>
      <psa10 value="0.0492336828" flag="0"/>
      <psa30 value="0.0057547242" flag="0"/>
    </comp>
  </station>
  <station code="CHOS" name="CHOS" netid="HT" insttype="100" lat="38.3869" lon="26.0506">
    <comp name="--.HHN">
      <acc value="0.0281499015" flag="0"/>
      <vel value="0.0123367866" flag="0"/>
      <psa03 value="0.0402601765" flag="0"/>
      <psa10 value="0.0223634524" flag="0"/>
      <psa30 value="0.0012227270" flag="0"/>
    </comp>
    <comp name="--.HHE">
      <acc value="0.0332880641" flag="0"/>
      <vel value="0.0151534572" flag="0"/>
      <psa03 value="0.0547063226" flag="0"/>
      <psa10 value="0.0165489911" flag="0"/>
      <psa30 value="0.0007494958" flag="0"/>
    </comp>
    <comp name="--.HHZ">
      <acc value="0.0134947302" flag="0"/>
      <vel value="0.0053107002" flag="0"/>
      <psa03 value="0.0156068723" flag="0"/>
      <psa10 value="0.0088201150" flag="0"/>
      <psa30 value="0.0008158174" flag="0"/>
    </comp>
  </station>
  <station code="GMLD" name="GMLD" netid="KO" insttype="100" lat="38.0764" lon="26.8747">
    <comp name="--.HNE">
      <acc value="0.1545107108" flag="0"/>
      <vel value="0.0734253912" flag="0"/>
      <psa03 value="0.2494284394" flag="0"/>
      <psa10 value="0.0412028358" flag="0"/>
      <psa30 value="0.0034198393" flag="0"/>
    </comp>
    <comp name="--.HNN">
      <acc value="0.1404444499" flag="0"/>
      <vel value="0.0774673611" flag="0"/>
      <psa03 value="0.2989983483" flag="0"/>
      <psa10 value="0.0724087081" flag="0"/>
      <psa30 value="0.0057302592" flag="0"/>
    </comp>
    <comp name="--.HNZ">
      <acc value="0.0994970965" flag="0"/>
      <vel value="0.0375438563" flag="0"/>
      <psa03 value="0.1668570755" flag="0"/>
      <psa10 value="0.0158863047" flag="0"/>
      <psa30 value="0.0033341197" flag="0"/>
    </comp>
  </station>
  <station code="AYDN" name="AYDN" netid="TU" source="ODC" insttype="T" lat="37.6608" lon="27.8792">
    <comp name="--.HHE">
      <acc value="0.1183980606" flag="0"/>
      <vel value="0.0495374413" flag="0"/>
      <psa03 value="0.3082152292" flag="0"/>
      <psa10 value="0.0331945404" flag="0"/>
      <psa30 value="0.0022761791" flag="0"/>
    </comp>
    <comp name="--.HHZ">
      <acc value="0.0288364705" flag="0"/>
      <vel value="0.0195405836" flag="0"/>
      <psa03 value="0.0692568131" flag="0"/>
      <psa10 value="0.0212766928" flag="0"/>
      <psa30 value="0.0026704488" flag="0"/>
    </comp>
    <comp name="--.HHN">
      <acc value="0.0525145777" flag="0"/>
      <vel value="0.0300709312" flag="0"/>
      <psa03 value="0.1510486347" flag="0"/>
      <psa10 value="0.0283844302" flag="0"/>
      <psa30 value="0.0021908496" flag="0"/>
    </comp>
  </station>
</stationlist>
