<stationlist created="1769738407">
	<station code="SILAM" name="SILAM" netid="BS" source="National Seismic Network of Bulgaria (BS)" insttype="" lat="44.1046" lon="27.2665">
		<comp name="--.HNE" depth="0.0">
			<acc value="0.032695872530922" flag="0"/>
			<vel value="0.0086963940877" flag="0"/>
			<psa03 value="0.0647790048326156" flag="0"/>
			<psa10 value="0.00156664190733816" flag="0"/>
			<psa30 value="0.000439562452188362" flag="0"/>
		</comp>
		<comp name="--.HNN" depth="0.0">
			<acc value="0.02904711133872" flag="0"/>
			<vel value="0.00793153438531" flag="0"/>
			<psa03 value="0.0668458448757064" flag="0"/>
			<psa10 value="0.00137655798708494" flag="0"/>
			<psa30 value="0.000142221921504307" flag="0"/>
		</comp>
		<comp name="--.HNZ" depth="0.0">
			<acc value="0.026936685068766" flag="0"/>
			<vel value="0.00474898481652" flag="0"/>
			<psa03 value="0.0109037398973584" flag="0"/>
			<psa10 value="0.000776547008833982" flag="0"/>
			<psa30 value="7.92605110363675e-05" flag="0"/>
		</comp>
	</station>
	<station code="KIS" name="KIS" netid="MD" source="Moldova Digital Seismic Network" insttype="" lat="46.9975" lon="28.8175">
		<comp name="--.HNE" depth="0.0">
			<acc value="0.021568970246526" flag="0"/>
			<vel value="0.00799506697776" flag="0"/>
			<psa03 value="0.0284083975419376" flag="0"/>
			<psa10 value="0.00323082261989263" flag="0"/>
			<psa30 value="0.000192514602105787" flag="0"/>
		</comp>
		<comp name="--.HNN" depth="0.0">
			<acc value="0.015956253786708" flag="0"/>
			<vel value="0.00547052726606" flag="0"/>
			<psa03 value="0.0337817795437717" flag="0"/>
			<psa10 value="0.00198031024833545" flag="0"/>
			<psa30 value="0.000117855645899629" flag="0"/>
		</comp>
		<comp name="--.HNZ" depth="0.0">
			<acc value="0.02308147715646" flag="0"/>
			<vel value="0.00413204917467" flag="0"/>
			<psa03 value="0.0158827865316761" flag="0"/>
			<psa10 value="0.000923473421677381" flag="0"/>
			<psa30 value="8.06374446997214e-05" flag="0"/>
		</comp>
	</station>
	<station code="AMRR" name="AMRR" netid="RO" source="Romanian Seismic Network (NIEP)" insttype="" lat="44.6102" lon="27.3351">
		<comp name="--.HNE" depth="0.0">
			<acc value="0.05338319006598" flag="0"/>
			<vel value="0.00988067790236" flag="0"/>
			<psa03 value="0.0571365923107084" flag="0"/>
			<psa10 value="0.00566824268074203" flag="0"/>
			<psa30 value="0.000404847574373167" flag="0"/>
		</comp>
		<comp name="--.HNN" depth="0.0">
			<acc value="0.045696548655144" flag="0"/>
			<vel value="0.018967359592" flag="0"/>
			<psa03 value="0.0746583676255613" flag="0"/>
			<psa10 value="0.00411452787977854" flag="0"/>
			<psa30 value="0.000462095924088368" flag="0"/>
		</comp>
		<comp name="--.HNZ" depth="0.0">
			<acc value="0.045754511352624" flag="0"/>
			<vel value="0.00809572084885" flag="0"/>
			<psa03 value="0.0216524890586409" flag="0"/>
			<psa10 value="0.00106305374240386" flag="0"/>
			<psa30 value="0.000157969631379526" flag="0"/>
		</comp>
	</station>
	<station code="BAC" name="BAC" netid="RO" source="Romanian Seismic Network (NIEP)" insttype="" lat="46.5669" lon="26.9124">
		<comp name="--.HNE" depth="0.0">
			<acc value="0.047176127793498" flag="0"/>
			<vel value="0.0178676141922" flag="0"/>
			<psa03 value="0.0716144055611816" flag="0"/>
			<psa10 value="0.00434986534471629" flag="0"/>
			<psa30 value="0.000485399030303826" flag="0"/>
		</comp>
		<comp name="--.HNN" depth="0.0">
			<acc value="0.045471907694832" flag="0"/>
			<vel value="0.0176624723528" flag="0"/>
			<psa03 value="0.0631736849464916" flag="0"/>
			<psa10 value="0.00592486889974501" flag="0"/>
			<psa30 value="0.00050617525037449" flag="0"/>
		</comp>
		<comp name="--.HNZ" depth="0.0">
			<acc value="0.029411223830136" flag="0"/>
			<vel value="0.00550887544017" flag="0"/>
			<psa03 value="0.0193663284971187" flag="0"/>
			<psa10 value="0.00249201383368646" flag="0"/>
			<psa30 value="0.000125971652295174" flag="0"/>
		</comp>
	</station>
	<station code="BSTR" name="BSTR" netid="RO" source="Romanian Seismic Network (NIEP)" insttype="" lat="44.4458" lon="26.0984">
		<comp name="--.HNE" depth="0.0">
			<acc value="0.032858807565726" flag="0"/>
			<vel value="0.00672049039629" flag="0"/>
			<psa03 value="0.0197904125801914" flag="0"/>
			<psa10 value="0.00251339095293952" flag="0"/>
			<psa30 value="0.000629500399229199" flag="0"/>
		</comp>
		<comp name="--.HNN" depth="0.0">
			<acc value="0.028901898188856" flag="0"/>
			<vel value="0.00865770513528" flag="0"/>
			<psa03 value="0.0352717141821467" flag="0"/>
			<psa10 value="0.00257852479898878" flag="0"/>
			<psa30 value="0.000681277162518358" flag="0"/>
		</comp>
		<comp name="--.HNZ" depth="0.0">
			<acc value="0.041887718126604" flag="0"/>
			<vel value="0.0053255866206" flag="0"/>
			<psa03 value="0.019818245153166" flag="0"/>
			<psa10 value="0.00119821421955989" flag="0"/>
			<psa30 value="0.000607531443893224" flag="0"/>
		</comp>
	</station>
	<station code="BUC1" name="BUC1" netid="RO" source="Romanian Seismic Network (NIEP)" insttype="" lat="44.3479" lon="26.0281">
		<comp name="--.HNE" depth="0.0">
			<acc value="0.01892347083831" flag="0"/>
			<vel value="0.00468570483683" flag="0"/>
			<psa03 value="0.0188372765229436" flag="0"/>
			<psa10 value="0.00385265084421204" flag="0"/>
			<psa30 value="0.000630032309467209" flag="0"/>
		</comp>
		<comp name="--.HNN" depth="0.0">
			<acc value="0.017832064836936" flag="0"/>
			<vel value="0.00437985151465" flag="0"/>
			<psa03 value="0.0180574527280488" flag="0"/>
			<psa10 value="0.00189058860159202" flag="0"/>
			<psa30 value="0.000454699704957937" flag="0"/>
		</comp>
		<comp name="--.HNZ" depth="0.0">
			<acc value="0.041307754779468" flag="0"/>
			<vel value="0.00565838627187" flag="0"/>
			<psa03 value="0.00837949585570275" flag="0"/>
			<psa10 value="0.00122653293147278" flag="0"/>
			<psa30 value="0.000546344005109862" flag="0"/>
		</comp>
	</station>
	<station code="CFR" name="CFR" netid="RO" source="Romanian Seismic Network (NIEP)" insttype="" lat="45.178" lon="28.1362">
		<comp name="--.HNE" depth="0.0">
			<acc value="0.059065990634712" flag="0"/>
			<vel value="0.00957759012631" flag="0"/>
			<psa03 value="0.0498160917382226" flag="0"/>
			<psa10 value="0.00262926730105481" flag="0"/>
			<psa30 value="0.0001547237392719" flag="0"/>
		</comp>
		<comp name="--.HNN" depth="0.0">
			<acc value="0.066053707491426" flag="0"/>
			<vel value="0.0115716343264" flag="0"/>
			<psa03 value="0.0449347527483242" flag="0"/>
			<psa10 value="0.00223889198748288" flag="0"/>
			<psa30 value="0.000188619096651962" flag="0"/>
		</comp>
		<comp name="--.HNZ" depth="0.0">
			<acc value="0.042973340696562" flag="0"/>
			<vel value="0.0063354303131" flag="0"/>
			<psa03 value="0.0229748188440056" flag="0"/>
			<psa10 value="0.00113574973003267" flag="0"/>
			<psa30 value="0.000119657549120991" flag="0"/>
		</comp>
	</station>
	<station code="CHLR" name="CHLR" netid="RO" source="Romanian Seismic Network (NIEP)" insttype="" lat="45.4245" lon="29.289">
		<comp name="--.HNE" depth="0.0">
			<acc value="0.022484234872746" flag="0"/>
			<vel value="0.00617920618227" flag="0"/>
			<psa03 value="0.0288014339953218" flag="0"/>
			<psa10 value="0.00332051051440083" flag="0"/>
			<psa30 value="0.000373287436793989" flag="0"/>
		</comp>
		<comp name="--.HNN" depth="0.0">
			<acc value="0.019715347213866" flag="0"/>
			<vel value="0.00639337418397" flag="0"/>
			<psa03 value="0.0408470262275403" flag="0"/>
			<psa10 value="0.00518554304803971" flag="0"/>
			<psa30 value="0.000393131668043625" flag="0"/>
		</comp>
		<comp name="--.HNZ" depth="0.0">
			<acc value="0.027823218122826" flag="0"/>
			<vel value="0.00359361928834" flag="0"/>
			<psa03 value="0.0116090229470365" flag="0"/>
			<psa10 value="0.00148272306687622" flag="0"/>
			<psa30 value="0.000130522461576817" flag="0"/>
		</comp>
	</station>
	<station code="CICN" name="CICN" netid="RO" source="Romanian Seismic Network (NIEP)" insttype="" lat="44.197" lon="27.0261">
		<comp name="--.HNE" depth="0.0">
			<acc value="0.085902916525566" flag="0"/>
			<vel value="0.0210165154651" flag="0"/>
			<psa03 value="0.0699349036776857" flag="0"/>
			<psa10 value="0.0045730909135908" flag="0"/>
			<psa30 value="0.000336288944158942" flag="0"/>
		</comp>
		<comp name="--.HNN" depth="0.0">
			<acc value="0.05572990840098" flag="0"/>
			<vel value="0.0153003895526" flag="0"/>
			<psa03 value="0.0641003713350568" flag="0"/>
			<psa10 value="0.00312389436454445" flag="0"/>
			<psa30 value="0.000388930035539198" flag="0"/>
		</comp>
		<comp name="--.HNZ" depth="0.0">
			<acc value="0.034770738525984" flag="0"/>
			<vel value="0.00941251970466" flag="0"/>
			<psa03 value="0.0221429199847561" flag="0"/>
			<psa10 value="0.00231988141513196" flag="0"/>
			<psa30 value="0.00146634963846828" flag="0"/>
		</comp>
	</station>
	<station code="CIOR" name="CIOR" netid="RO" source="Romanian Seismic Network (NIEP)" insttype="" lat="44.4489" lon="25.8799">
		<comp name="--.HNE" depth="0.0">
			<acc value="0.031742732938302" flag="0"/>
			<vel value="0.0101008452481" flag="0"/>
			<psa03 value="0.02751829170178" flag="0"/>
			<psa10 value="0.00340558443138099" flag="0"/>
			<psa30 value="0.00035751717334153" flag="0"/>
		</comp>
		<comp name="--.HNN" depth="0.0">
			<acc value="0.052948267150068" flag="0"/>
			<vel value="0.0115254731925" flag="0"/>
			<psa03 value="0.0540247351236105" flag="0"/>
			<psa10 value="0.0022448869939969" flag="0"/>
			<psa30 value="0.00021610703738464" flag="0"/>
		</comp>
		<comp name="--.HNZ" depth="0.0">
			<acc value="0.0342105311637" flag="0"/>
			<vel value="0.00563498638451" flag="0"/>
			<psa03 value="0.0148976926281695" flag="0"/>
			<psa10 value="0.000700529062861334" flag="0"/>
			<psa30 value="8.54563381461916e-05" flag="0"/>
		</comp>
	</station>
	<station code="CLISU" name="CLISU" netid="RO" source="Romanian Seismic Network (NIEP)" insttype="" lat="44.1901" lon="27.3557">
		<comp name="--.HNE" depth="0.0">
			<acc value="0.022567442879388" flag="0"/>
			<vel value="0.00734406515405" flag="0"/>
			<psa03 value="0.0239893730323887" flag="0"/>
			<psa10 value="0.00280112243561504" flag="0"/>
			<psa30 value="0.00017447556856699" flag="0"/>
		</comp>
		<comp name="--.HNN" depth="0.0">
			<acc value="0.019139383179222" flag="0"/>
			<vel value="0.00557502322848" flag="0"/>
			<psa03 value="0.0258578301418464" flag="0"/>
			<psa10 value="0.00294686998130002" flag="0"/>
			<psa30 value="0.000219166523915087" flag="0"/>
		</comp>
		<comp name="--.HNZ" depth="0.0">
			<acc value="0.035313326188458" flag="0"/>
			<vel value="0.00664282666361" flag="0"/>
			<psa03 value="0.01709759487134" flag="0"/>
			<psa10 value="0.00100150372751838" flag="0"/>
			<psa30 value="8.0783313737482e-05" flag="0"/>
		</comp>
	</station>
	<station code="COPA" name="COPA" netid="RO" source="Romanian Seismic Network (NIEP)" insttype="" lat="44.1343" lon="25.2172">
		<comp name="--.HNE" depth="0.0">
			<acc value="0.028962209793336" flag="0"/>
			<vel value="0.00777258147572" flag="0"/>
			<psa03 value="0.0150729607492397" flag="0"/>
			<psa10 value="0.00197700112287123" flag="0"/>
			<psa30 value="0.00017589864460942" flag="0"/>
		</comp>
		<comp name="--.HNN" depth="0.0">
			<acc value="0.02190272434371" flag="0"/>
			<vel value="0.00372152820772" flag="0"/>
			<psa03 value="0.00839136382936274" flag="0"/>
			<psa10 value="0.00105639599667506" flag="0"/>
			<psa30 value="0.000124135150427889" flag="0"/>
		</comp>
		<comp name="--.HNZ" depth="0.0">
			<acc value="0.034492460667384" flag="0"/>
			<vel value="0.00252924329648" flag="0"/>
			<psa03 value="0.00342091118888975" flag="0"/>
			<psa10 value="0.000613687841307075" flag="0"/>
			<psa30 value="5.42437886974648e-05" flag="0"/>
		</comp>
	</station>
	<station code="CVD1" name="CVD1" netid="RO" source="Romanian Seismic Network (NIEP)" insttype="" lat="44.3207" lon="28.0624">
		<comp name="--.HNE" depth="0.0">
			<acc value="0.040005424969338" flag="0"/>
			<vel value="0.00978940851094" flag="0"/>
			<psa03 value="0.0398392329036653" flag="0"/>
			<psa10 value="0.00259843674305767" flag="0"/>
			<psa30 value="0.00028516060924101" flag="0"/>
		</comp>
		<comp name="--.HNN" depth="0.0">
			<acc value="0.028963127542314" flag="0"/>
			<vel value="0.00473119958632" flag="0"/>
			<psa03 value="0.0210919975017275" flag="0"/>
			<psa10 value="0.00109291216569192" flag="0"/>
			<psa30 value="0.000168209515450716" flag="0"/>
		</comp>
		<comp name="--.HNZ" depth="0.0">
			<acc value="0.01641352427379" flag="0"/>
			<vel value="0.00294522098677" flag="0"/>
			<psa03 value="0.0178105040772521" flag="0"/>
			<psa10 value="0.00108407915867566" flag="0"/>
			<psa30 value="9.10286864537251e-05" flag="0"/>
		</comp>
	</station>
	<station code="CVDA" name="CVDA" netid="RO" source="Romanian Seismic Network (NIEP)" insttype="" lat="44.3336" lon="28.0374">
		<comp name="--.HNE" depth="0.0">
			<acc value="0.032044598958066" flag="0"/>
			<vel value="0.0132675363466" flag="0"/>
			<psa03 value="0.0800894774099197" flag="0"/>
			<psa10 value="0.00536340420544836" flag="0"/>
			<psa30 value="0.000390212959068584" flag="0"/>
		</comp>
		<comp name="--.HNN" depth="0.0">
			<acc value="0.023904755501406" flag="0"/>
			<vel value="0.00935052334059" flag="0"/>
			<psa03 value="0.0586904296197396" flag="0"/>
			<psa10 value="0.00303753645625811" flag="0"/>
			<psa30 value="0.00021456844587737" flag="0"/>
		</comp>
		<comp name="--.HNZ" depth="0.0">
			<acc value="0.027520538338698" flag="0"/>
			<vel value="0.00833167582254" flag="0"/>
			<psa03 value="0.0617108536660307" flag="0"/>
			<psa10 value="0.00211247791004212" flag="0"/>
			<psa30 value="0.000211249619250416" flag="0"/>
		</comp>
	</station>
	<station code="DOPR" name="DOPR" netid="RO" source="Romanian Seismic Network (NIEP)" insttype="" lat="45.9675" lon="25.3886">
		<comp name="--.HNE" depth="0.0">
			<acc value="0.0095565035544462" flag="0"/>
			<vel value="0.00225761844126" flag="0"/>
			<psa03 value="0.0100003597403726" flag="0"/>
			<psa10 value="0.00154861270517802" flag="0"/>
			<psa30 value="0.000149300215927326" flag="0"/>
		</comp>
		<comp name="--.HNN" depth="0.0">
			<acc value="0.0079535415001506" flag="0"/>
			<vel value="0.00160519324589" flag="0"/>
			<psa03 value="0.00770967413954282" flag="0"/>
			<psa10 value="0.00137027362546667" flag="0"/>
			<psa30 value="0.000119681548106849" flag="0"/>
		</comp>
		<comp name="--.HNZ" depth="0.0">
			<acc value="0.0089592984556584" flag="0"/>
			<vel value="0.00143638303429" flag="0"/>
			<psa03 value="0.00282228266550074" flag="0"/>
			<psa10 value="0.000560823226005188" flag="0"/>
			<psa30 value="5.67651992180835e-05" flag="0"/>
		</comp>
	</station>
	<station code="GISR" name="GISR" netid="RO" source="Romanian Seismic Network (NIEP)" insttype="" lat="45.4411" lon="28.0541">
		<comp name="--.HNE" depth="0.0">
			<acc value="0.07217077200558" flag="0"/>
			<vel value="0.0264239726679" flag="0"/>
			<psa03 value="0.118043486468098" flag="0"/>
			<psa10 value="0.02114330251502" flag="0"/>
			<psa30 value="0.0014563187656377" flag="0"/>
		</comp>
		<comp name="--.HNN" depth="0.0">
			<acc value="0.06682136849211" flag="0"/>
			<vel value="0.0263525139282" flag="0"/>
			<psa03 value="0.109011033946015" flag="0"/>
			<psa10 value="0.0174929175699218" flag="0"/>
			<psa30 value="0.00123001002379267" flag="0"/>
		</comp>
		<comp name="--.HNZ" depth="0.0">
			<acc value="0.07011495661233" flag="0"/>
			<vel value="0.0146536446139" flag="0"/>
			<psa03 value="0.0590735070801156" flag="0"/>
			<psa10 value="0.00549534403958837" flag="0"/>
			<psa30 value="0.00102079876874351" flag="0"/>
		</comp>
	</station>
	<station code="GIUM" name="GIUM" netid="RO" source="Romanian Seismic Network (NIEP)" insttype="" lat="45.485" lon="28.2081">
		<comp name="--.HNE" depth="0.0">
			<acc value="0.044969304847746" flag="0"/>
			<vel value="0.0122602252579" flag="0"/>
			<psa03 value="0.0426814550411012" flag="0"/>
			<psa10 value="0.004736670187414" flag="0"/>
			<psa30 value="0.000971586550340415" flag="0"/>
		</comp>
		<comp name="--.HNN" depth="0.0">
			<acc value="0.049458154453788" flag="0"/>
			<vel value="0.0124552087389" flag="0"/>
			<psa03 value="0.0452922660151767" flag="0"/>
			<psa10 value="0.00545577798100233" flag="0"/>
			<psa30 value="0.000714378417813325" flag="0"/>
		</comp>
		<comp name="--.HNZ" depth="0.0">
			<acc value="0.06548923376382" flag="0"/>
			<vel value="0.00984274332894" flag="0"/>
			<psa03 value="0.0586463798265089" flag="0"/>
			<psa10 value="0.00205567360016327" flag="0"/>
			<psa30 value="0.000576872902500419" flag="0"/>
		</comp>
	</station>
	<station code="GRISU" name="GRISU" netid="RO" source="Romanian Seismic Network (NIEP)" insttype="" lat="43.8898" lon="25.9518">
		<comp name="--.HNE" depth="0.0">
			<acc value="0.023485094978808" flag="0"/>
			<vel value="0.00729436250208" flag="0"/>
			<psa03 value="0.0547726700871897" flag="0"/>
			<psa10 value="0.00161108106215133" flag="0"/>
			<psa30 value="0.000146075418966998" flag="0"/>
		</comp>
		<comp name="--.HNN" depth="0.0">
			<acc value="0.014687858558844" flag="0"/>
			<vel value="0.00421490805374" flag="0"/>
			<psa03 value="0.0300195277088648" flag="0"/>
			<psa10 value="0.000911584255169217" flag="0"/>
			<psa30 value="0.000116393153183446" flag="0"/>
		</comp>
		<comp name="--.HNZ" depth="0.0">
			<acc value="0.0090796530527082" flag="0"/>
			<vel value="0.00168756437959" flag="0"/>
			<psa03 value="0.00719516609756527" flag="0"/>
			<psa10 value="0.000287458095422305" flag="0"/>
			<psa30 value="9.07500221601488e-05" flag="0"/>
		</comp>
	</station>
	<station code="HARR" name="HARR" netid="RO" source="Romanian Seismic Network (NIEP)" insttype="" lat="44.6893" lon="27.9303">
		<comp name="--.HNE" depth="0.0">
			<acc value="0.028728925365978" flag="0"/>
			<vel value="0.00944346023486" flag="0"/>
			<psa03 value="0.0356494319123846" flag="0"/>
			<psa10 value="0.00451102383318204" flag="0"/>
			<psa30 value="0.000257892969560231" flag="0"/>
		</comp>
		<comp name="--.HNN" depth="0.0">
			<acc value="0.037151038297218" flag="0"/>
			<vel value="0.0160554891548" flag="0"/>
			<psa03 value="0.0446579271185032" flag="0"/>
			<psa10 value="0.006806870609257" flag="0"/>
			<psa30 value="0.000492030407098618" flag="0"/>
		</comp>
		<comp name="--.HNZ" depth="0.0">
			<acc value="0.032819596290696" flag="0"/>
			<vel value="0.00590129675181" flag="0"/>
			<psa03 value="0.018845099957902" flag="0"/>
			<psa10 value="0.00136096855592488" flag="0"/>
			<psa30 value="0.000116047270895706" flag="0"/>
		</comp>
	</station>
	<station code="HUMR" name="HUMR" netid="RO" source="Romanian Seismic Network (NIEP)" insttype="" lat="44.5281" lon="24.9804">
		<comp name="--.HNE" depth="0.0">
			<acc value="0.027614132849892" flag="0"/>
			<vel value="0.00467099314359" flag="0"/>
			<psa03 value="0.011698728108343" flag="0"/>
			<psa10 value="0.000834304936575153" flag="0"/>
			<psa30 value="0.00010747177442552" flag="0"/>
		</comp>
		<comp name="--.HNN" depth="0.0">
			<acc value="0.025531360386438" flag="0"/>
			<vel value="0.00415742930856" flag="0"/>
			<psa03 value="0.00868851437351101" flag="0"/>
			<psa10 value="0.00106537877924093" flag="0"/>
			<psa30 value="6.89301522216753e-05" flag="0"/>
		</comp>
		<comp name="--.HNZ" depth="0.0">
			<acc value="0.034696071955176" flag="0"/>
			<vel value="0.00450046899273" flag="0"/>
			<psa03 value="0.00472256056782507" flag="0"/>
			<psa10 value="0.00039895459284624" flag="0"/>
			<psa30 value="5.68556544289276e-05" flag="0"/>
		</comp>
	</station>
	<station code="ICOR" name="ICOR" netid="RO" source="Romanian Seismic Network (NIEP)" insttype="" lat="44.1168" lon="27.8009">
		<comp name="--.HNE" depth="0.0">
			<acc value="0.031662622606686" flag="0"/>
			<vel value="0.0118720906464" flag="0"/>
			<psa03 value="0.094021343036035" flag="0"/>
			<psa10 value="0.00545123314870008" flag="0"/>
