<stationlist xmlns:esm="https://esm-db.eu/esmws/shakemap/1/" created="1781834059">
	<station code="AMRR" name="AMRR" netid="RO" source="Romanian Seismic Network (NIEP)" insttype="" lat="44.6102" lon="27.3351" esm:processing="manual (Paolucci et al 2011)" esm:quality="good">
		<comp name="--.HNE" depth="0.0">
			<acc value="0.0537336015222893" flag="0"/>
			<vel value="0.00998086529526915" flag="0"/>
			<psa03 value="0.0573457051215262" flag="0"/>
			<psa10 value="0.00564998131478343" flag="0"/>
			<psa30 value="0.000394657732679577" flag="0"/>
		</comp>
		<comp name="--.HNN" depth="0.0">
			<acc value="0.0459892878730332" flag="0"/>
			<vel value="0.0190209483574489" flag="0"/>
			<psa03 value="0.0748398067282343" flag="0"/>
			<psa10 value="0.00415221506386997" flag="0"/>
			<psa30 value="0.000475657916252544" flag="0"/>
		</comp>
		<comp name="--.HNZ" depth="0.0">
			<acc value="0.0453489379253531" flag="0"/>
			<vel value="0.00810214248335939" flag="0"/>
			<psa03 value="0.0217656189487686" flag="0"/>
			<psa10 value="0.00106066096670859" flag="0"/>
			<psa30 value="0.000129934870568321" flag="0"/>
		</comp>
	</station>
	<station code="BAC" name="BAC" netid="RO" source="Romanian Seismic Network (NIEP)" insttype="" lat="46.5669" lon="26.9124" esm:processing="manual (Paolucci et al 2011)" esm:quality="good">
		<comp name="--.HNE" depth="0.0">
			<acc value="0.047464654988658" flag="0"/>
			<vel value="0.0177771239271312" flag="0"/>
			<psa03 value="0.0718657711713078" flag="0"/>
			<psa10 value="0.00434008938462168" flag="0"/>
			<psa30 value="0.000452687175803723" flag="0"/>
		</comp>
		<comp name="--.HNN" depth="0.0">
			<acc value="0.0458094023095218" flag="0"/>
			<vel value="0.01771196243313" flag="0"/>
			<psa03 value="0.0633633329265019" flag="0"/>
			<psa10 value="0.00590820045178398" flag="0"/>
			<psa30 value="0.000465297594515408" flag="0"/>
		</comp>
		<comp name="--.HNZ" depth="0.0">
			<acc value="0.026535621499128" flag="0"/>
			<vel value="0.00564385785784716" flag="0"/>
			<psa03 value="0.0194064209968159" flag="0"/>
			<psa10 value="0.0024823581159174" flag="0"/>
			<psa30 value="0.000101691176645545" flag="0"/>
		</comp>
	</station>
	<station code="BAPR" name="BAPR" netid="RO" source="Romanian Seismic Network (NIEP)" insttype="" lat="44.4059" lon="26.119" esm:processing="manual (Paolucci et al 2011)" esm:quality="good">
		<comp name="--.HNE" depth="0.0">
			<acc value="0.0449086707369569" flag="0"/>
			<vel value="0.0117882293019153" flag="0"/>
			<psa03 value="0.030922590136503" flag="0"/>
			<psa10 value="0.00249094993508325" flag="0"/>
			<psa30 value="0.000437474709719171" flag="0"/>
		</comp>
		<comp name="--.HNN" depth="0.0">
			<acc value="0.0413884529610433" flag="0"/>
			<vel value="0.0102949715625438" flag="0"/>
			<psa03 value="0.0323956382395438" flag="0"/>
			<psa10 value="0.00216990827702399" flag="0"/>
			<psa30 value="0.000385345188685907" flag="0"/>
		</comp>
		<comp name="--.HNZ" depth="0.0">
			<acc value="0.0301037551568239" flag="0"/>
			<vel value="0.00396514762456783" flag="0"/>
			<psa03 value="0.00949989234207794" flag="0"/>
			<psa10 value="0.000784454407660855" flag="0"/>
			<psa30 value="0.000374618774988643" flag="0"/>
		</comp>
	</station>
	<station code="BUC" name="BUC" netid="RO" source="Romanian Seismic Network (NIEP)" insttype="" lat="44.4107" lon="26.0938" esm:processing="manual (Paolucci et al 2011)" esm:quality="good">
		<comp name="--.HNE" depth="0.0">
			<acc value="0.0225752523339302" flag="0"/>
			<vel value="0.00990984464999582" flag="0"/>
			<psa03 value="0.0381403599449965" flag="0"/>
			<psa10 value="0.00391255239051906" flag="0"/>
			<psa30 value="0.000351397497109614" flag="0"/>
		</comp>
		<comp name="--.HNN" depth="0.0">
			<acc value="0.0377050520830897" flag="0"/>
			<vel value="0.0100221407202872" flag="0"/>
			<psa03 value="0.0703474778834956" flag="0"/>
			<psa10 value="0.00302080191017622" flag="0"/>
			<psa30 value="0.000270955293208395" flag="0"/>
		</comp>
		<comp name="--.HNZ" depth="0.0">
			<acc value="0.0217219646292355" flag="0"/>
			<vel value="0.00428803709850617" flag="0"/>
			<psa03 value="0.015459225920764" flag="0"/>
			<psa10 value="0.000644348114587795" flag="0"/>
			<psa30 value="0.000146657514819766" flag="0"/>
		</comp>
	</station>
	<station code="BUC1" name="BUC1" netid="RO" source="Romanian Seismic Network (NIEP)" insttype="" lat="44.3479" lon="26.0281" esm:processing="manual (Paolucci et al 2011)" esm:quality="good">
		<comp name="--.HNE" depth="0.0">
			<acc value="0.0188301314300313" flag="0"/>
			<vel value="0.00456863914089942" flag="0"/>
			<psa03 value="0.0188767205421771" flag="0"/>
			<psa10 value="0.00382285582356171" flag="0"/>
			<psa30 value="0.000421043282676104" flag="0"/>
		</comp>
		<comp name="--.HNN" depth="0.0">
			<acc value="0.0178902310069476" flag="0"/>
			<vel value="0.00420781537143344" flag="0"/>
			<psa03 value="0.0180869429628718" flag="0"/>
			<psa10 value="0.00191480172902969" flag="0"/>
			<psa30 value="0.000297933851238794" flag="0"/>
		</comp>
		<comp name="--.HNZ" depth="0.0">
			<acc value="0.0419289943774115" flag="0"/>
			<vel value="0.00594115639155851" flag="0"/>
			<psa03 value="0.00845783242530595" flag="0"/>
			<psa10 value="0.00119590594164943" flag="0"/>
			<psa30 value="0.000350556816418644" flag="0"/>
		</comp>
	</station>
	<station code="CHLR" name="CHLR" netid="RO" source="Romanian Seismic Network (NIEP)" insttype="" lat="45.4245" lon="29.289" esm:processing="automatic (Paolucci et al 2011)" esm:quality="best">
		<comp name="--.HNE" depth="0.0">
			<acc value="0.0223386028363652" flag="0"/>
			<vel value="0.0062386185883858" flag="0"/>
			<psa03 value="0.0288014339953218" flag="0"/>
			<psa10 value="0.00332051051440083" flag="0"/>
			<psa30 value="0.000373287436793989" flag="0"/>
		</comp>
		<comp name="--.HNN" depth="0.0">
			<acc value="0.0197035076326544" flag="0"/>
			<vel value="0.00622816250177958" flag="0"/>
			<psa03 value="0.0408470262275403" flag="0"/>
			<psa10 value="0.00518554304803971" flag="0"/>
			<psa30 value="0.000393131668043625" flag="0"/>
		</comp>
		<comp name="--.HNZ" depth="0.0">
			<acc value="0.0244114202578333" flag="0"/>
			<vel value="0.00351044879796382" flag="0"/>
			<psa03 value="0.0116090229470365" flag="0"/>
			<psa10 value="0.00148272306687622" flag="0"/>
			<psa30 value="0.000130522461576817" flag="0"/>
		</comp>
	</station>
	<station code="MFTR" name="MFTR" netid="RO" source="Romanian Seismic Network (NIEP)" insttype="" lat="44.1779" lon="28.4224" esm:processing="automatic (Paolucci et al 2011)" esm:quality="best">
		<comp name="--.HNE" depth="0.0">
			<acc value="0.0213479148767577" flag="0"/>
			<vel value="0.00437700657014586" flag="0"/>
			<psa03 value="0.0283604672834354" flag="0"/>
			<psa10 value="0.00146888980673979" flag="0"/>
			<psa30 value="0.000123100212076653" flag="0"/>
		</comp>
		<comp name="--.HNN" depth="0.0">
			<acc value="0.029013168599668" flag="0"/>
			<vel value="0.00579517853008437" flag="0"/>
			<psa03 value="0.0388039247362582" flag="0"/>
			<psa10 value="0.00179161767025109" flag="0"/>
			<psa30 value="0.000135882777608785" flag="0"/>
		</comp>
		<comp name="--.HNZ" depth="0.0">
			<acc value="0.0250634065409194" flag="0"/>
			<vel value="0.00487004816748576" flag="0"/>
			<psa03 value="0.0175385772092631" flag="0"/>
			<psa10 value="0.000673208854596462" flag="0"/>
			<psa30 value="9.5056173307101e-05" flag="0"/>
		</comp>
	</station>
	<station code="MLR" name="MLR" netid="RO" source="Romanian Seismic Network (NIEP)" insttype="" lat="45.4909" lon="25.945" esm:processing="manual (Paolucci et al 2011)" esm:quality="best">
		<comp name="--.HNE" depth="0.0">
			<acc value="0.00489885499403899" flag="0"/>
			<vel value="0.00273969487463333" flag="0"/>
			<psa03 value="0.0115154594572468" flag="0"/>
			<psa10 value="0.00519328590471349" flag="0"/>
			<psa30 value="0.000231040461546572" flag="0"/>
		</comp>
		<comp name="--.HNN" depth="0.0">
			<acc value="0.0052135690653423" flag="0"/>
			<vel value="0.00316509051193037" flag="0"/>
			<psa03 value="0.0119853668884016" flag="0"/>
			<psa10 value="0.00227462224506214" flag="0"/>
			<psa30 value="0.000176325144217115" flag="0"/>
		</comp>
		<comp name="--.HNZ" depth="0.0">
			<acc value="0.00573189491704261" flag="0"/>
			<vel value="0.00340639789122742" flag="0"/>
			<psa03 value="0.01212324190738" flag="0"/>
			<psa10 value="0.00174985291135343" flag="0"/>
			<psa30 value="0.00012343641924431" flag="0"/>
		</comp>
	</station>
	<station code="ODBI" name="ODBI" netid="RO" source="Romanian Seismic Network (NIEP)" insttype="" lat="45.7633" lon="27.0558" esm:processing="automatic (Paolucci et al 2011)" esm:quality="best">
		<comp name="--.HNE" depth="0.0">
			<acc value="0.152746374052342" flag="0"/>
			<vel value="0.0172531663336581" flag="0"/>
			<psa03 value="0.0346725390730714" flag="0"/>
			<psa10 value="0.00311103476266037" flag="0"/>
			<psa30 value="0.000377228635378893" flag="0"/>
		</comp>
		<comp name="--.HNN" depth="0.0">
			<acc value="0.133961640656195" flag="0"/>
			<vel value="0.016265290449209" flag="0"/>
			<psa03 value="0.0596947096897579" flag="0"/>
			<psa10 value="0.00505199248221997" flag="0"/>
			<psa30 value="0.000524442970940148" flag="0"/>
		</comp>
		<comp name="--.HNZ" depth="0.0">
			<acc value="0.255606323165114" flag="0"/>
			<vel value="0.0383452601858537" flag="0"/>
			<psa03 value="0.104754022773098" flag="0"/>
			<psa10 value="0.00584630307013193" flag="0"/>
			<psa30 value="0.000697393542650449" flag="0"/>
		</comp>
	</station>
	<station code="PANC" name="PANC" netid="RO" source="Romanian Seismic Network (NIEP)" insttype="" lat="45.8723" lon="27.1477" esm:processing="automatic (Paolucci et al 2011)" esm:quality="best">
		<comp name="--.HNE" depth="0.0">
			<acc value="0.0464092560387166" flag="0"/>
			<vel value="0.0105120337409046" flag="0"/>
			<psa03 value="0.0463114012364861" flag="0"/>
			<psa10 value="0.00345918321641219" flag="0"/>
			<psa30 value="0.000286955103117162" flag="0"/>
		</comp>
		<comp name="--.HNN" depth="0.0">
			<acc value="0.05594081122393" flag="0"/>
			<vel value="0.00796726141278558" flag="0"/>
			<psa03 value="0.0295735606657736" flag="0"/>
			<psa10 value="0.00239250638243206" flag="0"/>
			<psa30 value="0.00023172912695915" flag="0"/>
		</comp>
		<comp name="--.HNZ" depth="0.0">
			<acc value="0.0662859982646298" flag="0"/>
			<vel value="0.00940214827590175" flag="0"/>
			<psa03 value="0.0346763231779027" flag="0"/>
			<psa10 value="0.00227240397311205" flag="0"/>
			<psa30 value="0.000174720662927906" flag="0"/>
		</comp>
	</station>
	<station code="PLOR" name="PLOR" netid="RO" source="Romanian Seismic Network (NIEP)" insttype="" lat="45.8512" lon="26.6498" esm:processing="automatic (Paolucci et al 2011)" esm:quality="best">
		<comp name="--.HNE" depth="0.0">
			<acc value="0.0165634458413622" flag="0"/>
			<vel value="0.0058777101370186" flag="0"/>
			<psa03 value="0.022714306794702" flag="0"/>
			<psa10 value="0.00270424273655931" flag="0"/>
			<psa30 value="0.000151632714194009" flag="0"/>
		</comp>
		<comp name="--.HNN" depth="0.0">
			<acc value="0.0129598068626083" flag="0"/>
			<vel value="0.00553272577525333" flag="0"/>
			<psa03 value="0.0278437533661982" flag="0"/>
			<psa10 value="0.00219456194145951" flag="0"/>
			<psa30 value="0.000196873810152827" flag="0"/>
		</comp>
		<comp name="--.HNZ" depth="0.0">
			<acc value="0.0195303618370273" flag="0"/>
			<vel value="0.00332159607398197" flag="0"/>
			<psa03 value="0.0118292758189609" flag="0"/>
			<psa10 value="0.00142756687398666" flag="0"/>
			<psa30 value="9.16699659147313e-05" flag="0"/>
		</comp>
	</station>
	<station code="PLOR4" name="PLOR4" netid="RO" source="Romanian Seismic Network (NIEP)" insttype="" lat="45.8512" lon="26.6498" esm:processing="automatic (Paolucci et al 2011)" esm:quality="best">
		<comp name="--.HNE" depth="0.0">
			<acc value="0.0165634458413622" flag="0"/>
			<vel value="0.0058777101370186" flag="0"/>
			<psa03 value="0.022714306794702" flag="0"/>
			<psa10 value="0.00270424273655931" flag="0"/>
			<psa30 value="0.000151632714194009" flag="0"/>
		</comp>
		<comp name="--.HNN" depth="0.0">
			<acc value="0.0129598068626083" flag="0"/>
			<vel value="0.00553272577525333" flag="0"/>
			<psa03 value="0.0278437533661982" flag="0"/>
			<psa10 value="0.00219456194145951" flag="0"/>
			<psa30 value="0.000196873810152827" flag="0"/>
		</comp>
		<comp name="--.HNZ" depth="0.0">
			<acc value="0.0195303618370273" flag="0"/>
			<vel value="0.00332159607398197" flag="0"/>
			<psa03 value="0.0118292758189609" flag="0"/>
			<psa10 value="0.00142756687398666" flag="0"/>
			<psa30 value="9.16699659147313e-05" flag="0"/>
		</comp>
	</station>
	<station code="PRAR" name="PRAR" netid="RO" source="Romanian Seismic Network (NIEP)" insttype="" lat="47.3552" lon="26.2337" esm:processing="automatic (Paolucci et al 2011)" esm:quality="best">
		<comp name="--.HNE" depth="0.0">
			<acc value="0.00492947586131741" flag="0"/>
			<vel value="0.00253631660256827" flag="0"/>
			<psa03 value="0.0170182875342909" flag="0"/>
			<psa10 value="0.00209741972501419" flag="0"/>
			<psa30 value="0.000130819004658845" flag="0"/>
		</comp>
		<comp name="--.HNN" depth="0.0">
			<acc value="0.00565470421755309" flag="0"/>
			<vel value="0.00260818837412496" flag="0"/>
			<psa03 value="0.015564851407519" flag="0"/>
			<psa10 value="0.00227537135718602" flag="0"/>
			<psa30 value="0.000146609451739944" flag="0"/>
		</comp>
		<comp name="--.HNZ" depth="0.0">
			<acc value="0.00342568054205612" flag="0"/>
			<vel value="0.000939043436662006" flag="0"/>
			<psa03 value="0.00705669142952947" flag="0"/>
			<psa10 value="0.000964482681308333" flag="0"/>
			<psa30 value="6.95264677663491e-05" flag="0"/>
		</comp>
	</station>
</stationlist>
