<stationlist created="1756090956">
	<station code="SILAM" name="SILAM" netid="BS" source="National Seismic Network of Bulgaria (BS)" insttype="" lat="44.1046" lon="27.2665">
		<comp name=".HNE" depth="0.0">
			<acc value="0.032695872530922" flag="0"/>
			<vel value="0.0086963940877" flag="0"/>
			<psa03 value="0.0647790048326156" flag="0"/>
			<psa10 value="0.00156664190733816" flag="0"/>
			<psa30 value="0.000439562452188362" flag="0"/>
		</comp>
		<comp name=".HNN" depth="0.0">
			<acc value="0.02904711133872" flag="0"/>
			<vel value="0.00793153438531" flag="0"/>
			<psa03 value="0.0668458448757064" flag="0"/>
			<psa10 value="0.00137655798708494" flag="0"/>
			<psa30 value="0.000142221921504307" flag="0"/>
		</comp>
		<comp name=".HNZ" depth="0.0">
			<acc value="0.026936685068766" flag="0"/>
			<vel value="0.00474898481652" flag="0"/>
			<psa03 value="0.0109037398973584" flag="0"/>
			<psa10 value="0.000776547008833982" flag="0"/>
			<psa30 value="7.92605110363675e-05" flag="0"/>
		</comp>
	</station>
	<station code="KIS" name="KIS" netid="MD" source="Moldova Digital Seismic Network" insttype="" lat="46.9975" lon="28.8175">
		<comp name=".HNE" depth="0.0">
			<acc value="0.021568970246526" flag="0"/>
			<vel value="0.00799506697776" flag="0"/>
			<psa03 value="0.0284083975419376" flag="0"/>
			<psa10 value="0.00323082261989263" flag="0"/>
			<psa30 value="0.000192514602105787" flag="0"/>
		</comp>
		<comp name=".HNN" depth="0.0">
			<acc value="0.015956253786708" flag="0"/>
			<vel value="0.00547052726606" flag="0"/>
			<psa03 value="0.0337817795437717" flag="0"/>
			<psa10 value="0.00198031024833545" flag="0"/>
			<psa30 value="0.000117855645899629" flag="0"/>
		</comp>
		<comp name=".HNZ" depth="0.0">
			<acc value="0.02308147715646" flag="0"/>
			<vel value="0.00413204917467" flag="0"/>
			<psa03 value="0.0158827865316761" flag="0"/>
			<psa10 value="0.000923473421677381" flag="0"/>
			<psa30 value="8.06374446997214e-05" flag="0"/>
		</comp>
	</station>
	<station code="AMRR" name="AMRR" netid="RO" source="Romanian Seismic Network (NIEP)" insttype="" lat="44.6102" lon="27.3351">
		<comp name=".HNE" depth="0.0">
			<acc value="0.05338319006598" flag="0"/>
			<vel value="0.00988067790236" flag="0"/>
			<psa03 value="0.0571365923107084" flag="0"/>
			<psa10 value="0.00566824268074203" flag="0"/>
			<psa30 value="0.000404847574373167" flag="0"/>
		</comp>
		<comp name=".HNN" depth="0.0">
			<acc value="0.045696548655144" flag="0"/>
			<vel value="0.018967359592" flag="0"/>
			<psa03 value="0.0746583676255613" flag="0"/>
			<psa10 value="0.00411452787977854" flag="0"/>
			<psa30 value="0.000462095924088368" flag="0"/>
		</comp>
		<comp name=".HNZ" depth="0.0">
			<acc value="0.045754511352624" flag="0"/>
			<vel value="0.00809572084885" flag="0"/>
			<psa03 value="0.0216524890586409" flag="0"/>
			<psa10 value="0.00106305374240386" flag="0"/>
			<psa30 value="0.000157969631379526" flag="0"/>
		</comp>
	</station>
	<station code="ARR" name="ARR" netid="RO" source="Romanian Seismic Network (NIEP)" insttype="" lat="45.3657" lon="24.6332">
		<comp name=".HNE" depth="0.0">
			<acc value="0.00088860562665738" flag="0"/>
			<vel value="0.000371071918839" flag="0"/>
			<psa03 value="0.00176221244105172" flag="0"/>
			<psa10 value="0.000281887042773684" flag="0"/>
			<psa30 value="5.69771663847899e-05" flag="0"/>
		</comp>
		<comp name=".HNN" depth="0.0">
			<acc value="0.0007527905105613" flag="0"/>
			<vel value="0.000477620941504" flag="0"/>
			<psa03 value="0.0019256762319645" flag="0"/>
			<psa10 value="0.000296292918967271" flag="0"/>
			<psa30 value="0.000132071470440689" flag="0"/>
		</comp>
		<comp name=".HNZ" depth="0.0">
			<acc value="0.0005113810464369" flag="0"/>
			<vel value="0.000155560955399" flag="0"/>
			<psa03 value="0.000881556608434351" flag="0"/>
			<psa10 value="9.89867526990587e-05" flag="0"/>
			<psa30 value="4.42080001776456e-05" flag="0"/>
		</comp>
	</station>
	<station code="BAC" name="BAC" netid="RO" source="Romanian Seismic Network (NIEP)" insttype="" lat="46.5669" lon="26.9124">
		<comp name=".HNE" depth="0.0">
			<acc value="0.047181157451238" flag="0"/>
			<vel value="0.0177881999592" flag="0"/>
			<psa03 value="0.0716150253937616" flag="0"/>
			<psa10 value="0.00434499424077595" flag="0"/>
			<psa30 value="0.000479913979446264" flag="0"/>
		</comp>
		<comp name=".HNN" depth="0.0">
			<acc value="0.045477758395452" flag="0"/>
			<vel value="0.017707886068" flag="0"/>
			<psa03 value="0.0631748881512275" flag="0"/>
			<psa10 value="0.00592243545727369" flag="0"/>
			<psa30 value="0.000502063155052705" flag="0"/>
		</comp>
		<comp name=".HNZ" depth="0.0">
			<acc value="0.028614264601494" flag="0"/>
			<vel value="0.00556945077571" flag="0"/>
			<psa03 value="0.0193666136722659" flag="0"/>
			<psa10 value="0.00249048982647951" flag="0"/>
			<psa30 value="0.000128206526907239" flag="0"/>
		</comp>
	</station>
	<station code="BAPR" name="BAPR" netid="RO" source="Romanian Seismic Network (NIEP)" insttype="" lat="44.4059" lon="26.119">
		<comp name=".HNE" depth="0.0">
			<acc value="0.048923481428478" flag="0"/>
			<vel value="0.0123879073702" flag="0"/>
			<psa03 value="0.030993930799993" flag="0"/>
			<psa10 value="0.0024730872673961" flag="0"/>
			<psa30 value="0.000826720859950276" flag="0"/>
		</comp>
		<comp name=".HNN" depth="0.0">
			<acc value="0.043529292051624" flag="0"/>
			<vel value="0.0109812604031" flag="0"/>
			<psa03 value="0.032244185498227" flag="0"/>
			<psa10 value="0.00223283861772584" flag="0"/>
			<psa30 value="0.000835353827675245" flag="0"/>
		</comp>
		<comp name=".HNZ" depth="0.0">
			<acc value="0.031511310767478" flag="0"/>
			<vel value="0.00436141785279" flag="0"/>
			<psa03 value="0.00939000810964912" flag="0"/>
			<psa10 value="0.00107822666159883" flag="0"/>
			<psa30 value="0.00089009063080068" flag="0"/>
		</comp>
	</station>
	<station code="BISRR" name="BISRR" netid="RO" source="Romanian Seismic Network (NIEP)" insttype="" lat="45.5481" lon="26.7099">
		<comp name=".HNE" depth="0.0">
			<acc value="0.00015011610630786" flag="0"/>
			<vel value="0.000127728555683" flag="0"/>
			<psa03 value="0.000196412547500235" flag="0"/>
			<psa10 value="0.000104470443603426" flag="0"/>
			<psa30 value="7.82997637978339e-05" flag="0"/>
		</comp>
		<comp name=".HNN" depth="0.0">
			<acc value="0.00020781668140836" flag="0"/>
			<vel value="0.000107361593664" flag="0"/>
			<psa03 value="0.000204215574991888" flag="0"/>
			<psa10 value="0.000129735625598382" flag="0"/>
			<psa30 value="5.04815570459909e-05" flag="0"/>
		</comp>
		<comp name=".HNZ" depth="0.0">
			<acc value="0.00507593172759" flag="0"/>
			<vel value="0.00165786298875" flag="0"/>
			<psa03 value="0.00606870866276903" flag="0"/>
			<psa10 value="0.00182479963402021" flag="0"/>
			<psa30 value="0.000554306042972557" flag="0"/>
		</comp>
	</station>
	<station code="BSTR" name="BSTR" netid="RO" source="Romanian Seismic Network (NIEP)" insttype="" lat="44.4458" lon="26.0984">
		<comp name=".HNE" depth="0.0">
			<acc value="0.032858807565726" flag="0"/>
			<vel value="0.00672049039629" flag="0"/>
			<psa03 value="0.0197904125801914" flag="0"/>
			<psa10 value="0.00251339095293952" flag="0"/>
			<psa30 value="0.000629500399229199" flag="0"/>
		</comp>
		<comp name=".HNN" depth="0.0">
			<acc value="0.028901898188856" flag="0"/>
			<vel value="0.00865770513528" flag="0"/>
			<psa03 value="0.0352717141821467" flag="0"/>
			<psa10 value="0.00257852479898878" flag="0"/>
			<psa30 value="0.000681277162518358" flag="0"/>
		</comp>
		<comp name=".HNZ" depth="0.0">
			<acc value="0.041887718126604" flag="0"/>
			<vel value="0.0053255866206" flag="0"/>
			<psa03 value="0.019818245153166" flag="0"/>
			<psa10 value="0.00119821421955989" flag="0"/>
			<psa30 value="0.000607531443893224" flag="0"/>
		</comp>
	</station>
	<station code="BTMR" name="BTMR" netid="RO" source="Romanian Seismic Network (NIEP)" insttype="" lat="44.437" lon="26.1067">
		<comp name=".HNE" depth="0.0">
			<acc value="0.022793197655322" flag="0"/>
			<vel value="0.00598734713762" flag="0"/>
			<psa03 value="0.0220117550457336" flag="0"/>
			<psa10 value="0.00226602784759934" flag="0"/>
			<psa30 value="0.000661206978799176" flag="0"/>
		</comp>
		<comp name=".HNN" depth="0.0">
			<acc value="0.021002071769004" flag="0"/>
			<vel value="0.00490250204902" flag="0"/>
			<psa03 value="0.0317255365569286" flag="0"/>
			<psa10 value="0.00243926401114555" flag="0"/>
			<psa30 value="0.00066445766289109" flag="0"/>
		</comp>
		<comp name=".HNZ" depth="0.0">
			<acc value="0.026109911312646" flag="0"/>
			<vel value="0.0041539570425" flag="0"/>
			<psa03 value="0.0160067478684991" flag="0"/>
			<psa10 value="0.00136875829070739" flag="0"/>
			<psa30 value="0.000863570280210041" flag="0"/>
		</comp>
	</station>
	<station code="BUC" name="BUC" netid="RO" source="Romanian Seismic Network (NIEP)" insttype="" lat="44.4107" lon="26.0938">
		<comp name=".HNE" depth="0.0">
			<acc value="0.022398926427228" flag="0"/>
			<vel value="0.00988358793871" flag="0"/>
			<psa03 value="0.0380577841622758" flag="0"/>
			<psa10 value="0.00395386583045824" flag="0"/>
			<psa30 value="0.000349067368791797" flag="0"/>
		</comp>
		<comp name=".HNN" depth="0.0">
			<acc value="0.037596752459496" flag="0"/>
			<vel value="0.00996268317185" flag="0"/>
			<psa03 value="0.0701427559882122" flag="0"/>
			<psa10 value="0.00305231923241887" flag="0"/>
			<psa30 value="0.000273939136706749" flag="0"/>
		</comp>
		<comp name=".HNZ" depth="0.0">
			<acc value="0.021830093409954" flag="0"/>
			<vel value="0.00413299843841" flag="0"/>
			<psa03 value="0.0154200449398061" flag="0"/>
			<psa10 value="0.00065796374311734" flag="0"/>
			<psa30 value="0.000265763100292578" flag="0"/>
		</comp>
	</station>
	<station code="BUC1" name="BUC1" netid="RO" source="Romanian Seismic Network (NIEP)" insttype="" lat="44.3479" lon="26.0281">
		<comp name=".HNE" depth="0.0">
			<acc value="0.01892347083831" flag="0"/>
			<vel value="0.00468570483683" flag="0"/>
			<psa03 value="0.0188372765229436" flag="0"/>
			<psa10 value="0.00385265084421204" flag="0"/>
			<psa30 value="0.000630032309467209" flag="0"/>
		</comp>
		<comp name=".HNN" depth="0.0">
			<acc value="0.017832064836936" flag="0"/>
			<vel value="0.00437985151465" flag="0"/>
			<psa03 value="0.0180574527280488" flag="0"/>
			<psa10 value="0.00189058860159202" flag="0"/>
			<psa30 value="0.000454699704957937" flag="0"/>
		</comp>
		<comp name=".HNZ" depth="0.0">
			<acc value="0.041307754779468" flag="0"/>
			<vel value="0.00565838627187" flag="0"/>
			<psa03 value="0.00837949585570275" flag="0"/>
			<psa10 value="0.00122653293147278" flag="0"/>
			<psa30 value="0.000546344005109862" flag="0"/>
		</comp>
	</station>
	<station code="CFR" name="CFR" netid="RO" source="Romanian Seismic Network (NIEP)" insttype="" lat="45.178" lon="28.1362">
		<comp name=".HNE" depth="0.0">
			<acc value="0.059065990634712" flag="0"/>
			<vel value="0.00957759012631" flag="0"/>
			<psa03 value="0.0498160917382226" flag="0"/>
			<psa10 value="0.00262926730105481" flag="0"/>
			<psa30 value="0.0001547237392719" flag="0"/>
		</comp>
		<comp name=".HNN" depth="0.0">
			<acc value="0.066053707491426" flag="0"/>
			<vel value="0.0115716343264" flag="0"/>
			<psa03 value="0.0449347527483242" flag="0"/>
			<psa10 value="0.00223889198748288" flag="0"/>
			<psa30 value="0.000188619096651962" flag="0"/>
		</comp>
		<comp name=".HNZ" depth="0.0">
			<acc value="0.042973340696562" flag="0"/>
			<vel value="0.0063354303131" flag="0"/>
			<psa03 value="0.0229748188440056" flag="0"/>
			<psa10 value="0.00113574973003267" flag="0"/>
			<psa30 value="0.000119657549120991" flag="0"/>
		</comp>
	</station>
	<station code="CHLR" name="CHLR" netid="RO" source="Romanian Seismic Network (NIEP)" insttype="" lat="45.4245" lon="29.289">
		<comp name=".HNE" depth="0.0">
			<acc value="0.022484234872746" flag="0"/>
			<vel value="0.00617920618227" flag="0"/>
			<psa03 value="0.0288014339953218" flag="0"/>
			<psa10 value="0.00332051051440083" flag="0"/>
			<psa30 value="0.000373287436793989" flag="0"/>
		</comp>
		<comp name=".HNN" depth="0.0">
			<acc value="0.019715347213866" flag="0"/>
			<vel value="0.00639337418397" flag="0"/>
			<psa03 value="0.0408470262275403" flag="0"/>
			<psa10 value="0.00518554304803971" flag="0"/>
			<psa30 value="0.000393131668043625" flag="0"/>
		</comp>
		<comp name=".HNZ" depth="0.0">
			<acc value="0.027823218122826" flag="0"/>
			<vel value="0.00359361928834" flag="0"/>
			<psa03 value="0.0116090229470365" flag="0"/>
			<psa10 value="0.00148272306687622" flag="0"/>
			<psa30 value="0.000130522461576817" flag="0"/>
		</comp>
	</station>
	<station code="CICN" name="CICN" netid="RO" source="Romanian Seismic Network (NIEP)" insttype="" lat="44.197" lon="27.0261">
		<comp name=".HNE" depth="0.0">
			<acc value="0.085902916525566" flag="0"/>
			<vel value="0.0210165154651" flag="0"/>
			<psa03 value="0.0699349036776857" flag="0"/>
			<psa10 value="0.0045730909135908" flag="0"/>
			<psa30 value="0.000336288944158942" flag="0"/>
		</comp>
		<comp name=".HNN" depth="0.0">
			<acc value="0.05572990840098" flag="0"/>
			<vel value="0.0153003895526" flag="0"/>
			<psa03 value="0.0641003713350568" flag="0"/>
			<psa10 value="0.00312389436454445" flag="0"/>
			<psa30 value="0.000388930035539198" flag="0"/>
		</comp>
		<comp name=".HNZ" depth="0.0">
			<acc value="0.034770738525984" flag="0"/>
			<vel value="0.00941251970466" flag="0"/>
			<psa03 value="0.0221429199847561" flag="0"/>
			<psa10 value="0.00231988141513196" flag="0"/>
			<psa30 value="0.00146634963846828" flag="0"/>
		</comp>
	</station>
	<station code="CIOR" name="CIOR" netid="RO" source="Romanian Seismic Network (NIEP)" insttype="" lat="44.4489" lon="25.8799">
		<comp name=".HNE" depth="0.0">
			<acc value="0.031742732938302" flag="0"/>
			<vel value="0.0101008452481" flag="0"/>
			<psa03 value="0.02751829170178" flag="0"/>
			<psa10 value="0.00340558443138099" flag="0"/>
			<psa30 value="0.00035751717334153" flag="0"/>
		</comp>
		<comp name=".HNN" depth="0.0">
			<acc value="0.052948267150068" flag="0"/>
			<vel value="0.0115254731925" flag="0"/>
			<psa03 value="0.0540247351236105" flag="0"/>
			<psa10 value="0.0022448869939969" flag="0"/>
			<psa30 value="0.00021610703738464" flag="0"/>
		</comp>
		<comp name=".HNZ" depth="0.0">
			<acc value="0.0342105311637" flag="0"/>
			<vel value="0.00563498638451" flag="0"/>
			<psa03 value="0.0148976926281695" flag="0"/>
			<psa10 value="0.000700529062861334" flag="0"/>
			<psa30 value="8.54563381461916e-05" flag="0"/>
		</comp>
	</station>
	<station code="CLISU" name="CLISU" netid="RO" source="Romanian Seismic Network (NIEP)" insttype="" lat="44.1901" lon="27.3557">
		<comp name=".HNE" depth="0.0">
			<acc value="0.022567442879388" flag="0"/>
			<vel value="0.00734406515405" flag="0"/>
			<psa03 value="0.0239893730323887" flag="0"/>
			<psa10 value="0.00280112243561504" flag="0"/>
			<psa30 value="0.00017447556856699" flag="0"/>
		</comp>
		<comp name=".HNN" depth="0.0">
			<acc value="0.019139383179222" flag="0"/>
			<vel value="0.00557502322848" flag="0"/>
			<psa03 value="0.0258578301418464" flag="0"/>
			<psa10 value="0.00294686998130002" flag="0"/>
			<psa30 value="0.000219166523915087" flag="0"/>
		</comp>
		<comp name=".HNZ" depth="0.0">
			<acc value="0.035313326188458" flag="0"/>
			<vel value="0.00664282666361" flag="0"/>
			<psa03 value="0.01709759487134" flag="0"/>
			<psa10 value="0.00100150372751838" flag="0"/>
			<psa30 value="8.0783313737482e-05" flag="0"/>
		</comp>
	</station>
	<station code="COPA" name="COPA" netid="RO" source="Romanian Seismic Network (NIEP)" insttype="" lat="44.1343" lon="25.2172">
		<comp name=".HNE" depth="0.0">
			<acc value="0.028964375806278" flag="0"/>
			<vel value="0.00761563067321" flag="0"/>
			<psa03 value="0.0150638051948099" flag="0"/>
			<psa10 value="0.00198230420854896" flag="0"/>
			<psa30 value="0.000172569413647636" flag="0"/>
		</comp>
		<comp name=".HNN" depth="0.0">
			<acc value="0.021775277498256" flag="0"/>
			<vel value="0.00362561796577" flag="0"/>
			<psa03 value="0.00838167178106611" flag="0"/>
			<psa10 value="0.00104439883473456" flag="0"/>
			<psa30 value="0.000115960181792742" flag="0"/>
		</comp>
		<comp name=".HNZ" depth="0.0">
			<acc value="0.027776219496126" flag="0"/>
			<vel value="0.00247934300451" flag="0"/>
			<psa03 value="0.00343622860984539" flag="0"/>
			<psa10 value="0.000621892505921481" flag="0"/>
			<psa30 value="5.70384009101507e-05" flag="0"/>
		</comp>
	</station>
	<station code="CVD1" name="CVD1" netid="RO" source="Romanian Seismic Network (NIEP)" insttype="" lat="44.3207" lon="28.0624">
		<comp name=".HNE" depth="0.0">
			<acc value="0.040005424969338" flag="0"/>
			<vel value="0.00978940851094" flag="0"/>
			<psa03 value="0.0398392329036653" flag="0"/>
			<psa10 value="0.00259843674305767" flag="0"/>
			<psa30 value="0.00028516060924101" flag="0"/>
		</comp>
		<comp name=".HNN" depth="0.0">
			<acc value="0.028963127542314" flag="0"/>
			<vel value="0.00473119958632" flag="0"/>
			<psa03 value="0.0210919975017275" flag="0"/>
			<psa10 value="0.00109291216569192" flag="0"/>
			<psa30 value="0.000168209515450716" flag="0"/>
		</comp>
		<comp name=".HNZ" depth="0.0">
			<acc value="0.01641352427379" flag="0"/>
			<vel value="0.00294522098677" flag="0"/>
			<psa03 value="0.0178105040772521" flag="0"/>
			<psa10 value="0.00108407915867566" flag="0"/>
			<psa30 value="9.10286864537251e-05" flag="0"/>
		</comp>
	</station>
	<station code="CVDA" name="CVDA" netid="RO" source="Romanian Seismic Network (NIEP)" insttype="" lat="44.3336" lon="28.0374">
		<comp name=".HNE" depth="0.0">
			<acc value="0.03204777070488" flag="0"/>
			<vel value="0.013297580385" flag="0"/>
			<psa03 value="0.0800903889285776" flag="0"/>
			<psa10 value="0.00536178503569271" flag="0"/>
			<psa30 value="0.000391687588005405" flag="0"/>
		</comp>
		<comp name=".HNN" depth="0.0">
			<acc value="0.023908182388062" flag="0"/>
			<vel value="0.00938517099543" flag="0"/>
			<psa03 value="0.0586936277479264" flag="0"/>
			<psa10 value="0.0030366762430214" flag="0"/>
			<psa30 value="0.000214586611143012" flag="0"/>
		</comp>
		<comp name=".HNZ" depth="0.0">
			<acc value="0.027526165757034" flag="0"/>
			<vel value="0.00833111462918" flag="0"/>
			<psa03 value="0.061708593099598" flag="0"/>
			<psa10 value="0.00211137346187876" flag="0"/>
			<psa30 value="0.000193489562525482" flag="0"/>
		</comp>
	</station>
	<station code="DOPR" name="DOPR" netid="RO" source="Romanian Seismic Network (NIEP)" insttype="" lat="45.9675" lon="25.3886">
		<comp name=".HNE" depth="0.0">
			<acc value="0.0095565035544462" flag="0"/>
			<vel value="0.00225761844126" flag="0"/>
			<psa03 value="0.0100003597403726" flag="0"/>
			<psa10 value="0.00154861270517802" flag="0"/>
			<psa30 value="0.000149300215927326" flag="0"/>
		</comp>
		<comp name=".HNN" depth="0.0">
			<acc value="0.0079535415001506" flag="0"/>
			<vel value="0.00160519324589" flag="0"/>
			<psa03 value="0.00770967413954282" flag="0"/>
			<psa10 value="0.00137027362546667" flag="0"/>
			<psa30 value="0.000119681548106849" flag="0"/>
		</comp>
		<comp name=".HNZ" depth="0.0">
			<acc value="0.0089592984556584" flag="0"/>
			<vel value="0.00143638303429" flag="0"/>
			<psa03 value="0.00282228266550074" flag="0"/>
			<psa10 value="0.000560823226005188" flag="0"/>
			<psa30 value="5.67651992180835e-05" flag="0"/>
		</comp>
	</station>
	<station code="GIRR" name="GIRR" netid="RO" source="Romanian Seismic Network (NIEP)" insttype="" lat="46.9551" lon="26.5009">
		<comp name=".HNE" depth="0.0">
			<acc value="0.041607092116416" flag="0"/>
			<vel value="0.00911131759333" flag="0"/>
			<psa03 value="0.0517175666599009" flag="0"/>
			<psa10 value="0.00279775260300498" flag="0"/>
			<psa30 value="0.000172789037571427" flag="0"/>
		</comp>
		<comp name=".HNN" depth="0.0">
