<stationlist xmlns:esm="https://esm-db.eu/esmws/shakemap/1/" created="1782093240">
	<station code="AMRR" name="AMRR" netid="RO" source="Romanian Seismic Network (NIEP)" insttype="" lat="44.6102" lon="27.3351" esm:processing="manual (Paolucci et al 2011)" esm:quality="good">
		<comp name="--.HNE" depth="0.0">
			<acc value="0.0537336015222893" flag="0"/>
			<vel value="0.00998086529526915" flag="0"/>
			<psa03 value="0.0573457051215262" flag="0"/>
			<psa10 value="0.00564998131478343" flag="0"/>
			<psa30 value="0.000394657732679577" flag="0"/>
		</comp>
		<comp name="--.HNN" depth="0.0">
			<acc value="0.0459892878730332" flag="0"/>
			<vel value="0.0190209483574489" flag="0"/>
			<psa03 value="0.0748398067282343" flag="0"/>
			<psa10 value="0.00415221506386997" flag="0"/>
			<psa30 value="0.000475657916252544" flag="0"/>
		</comp>
		<comp name="--.HNZ" depth="0.0">
			<acc value="0.0453489379253531" flag="0"/>
			<vel value="0.00810214248335939" flag="0"/>
			<psa03 value="0.0217656189487686" flag="0"/>
			<psa10 value="0.00106066096670859" flag="0"/>
			<psa30 value="0.000129934870568321" flag="0"/>
		</comp>
	</station>
	<station code="BAC" name="BAC" netid="RO" source="Romanian Seismic Network (NIEP)" insttype="" lat="46.5669" lon="26.9124" esm:processing="manual (Paolucci et al 2011)" esm:quality="good">
		<comp name="--.HNE" depth="0.0">
			<acc value="0.047464654988658" flag="0"/>
			<vel value="0.0177771239271312" flag="0"/>
			<psa03 value="0.0718657711713078" flag="0"/>
			<psa10 value="0.00434008938462168" flag="0"/>
			<psa30 value="0.000452687175803723" flag="0"/>
		</comp>
		<comp name="--.HNN" depth="0.0">
			<acc value="0.0458094023095218" flag="0"/>
			<vel value="0.01771196243313" flag="0"/>
			<psa03 value="0.0633633329265019" flag="0"/>
			<psa10 value="0.00590820045178398" flag="0"/>
			<psa30 value="0.000465297594515408" flag="0"/>
		</comp>
		<comp name="--.HNZ" depth="0.0">
			<acc value="0.026535621499128" flag="0"/>
			<vel value="0.00564385785784716" flag="0"/>
			<psa03 value="0.0194064209968159" flag="0"/>
			<psa10 value="0.0024823581159174" flag="0"/>
			<psa30 value="0.000101691176645545" flag="0"/>
		</comp>
	</station>
	<station code="BAPR" name="BAPR" netid="RO" source="Romanian Seismic Network (NIEP)" insttype="" lat="44.4059" lon="26.119" esm:processing="manual (Paolucci et al 2011)" esm:quality="good">
		<comp name="--.HNE" depth="0.0">
			<acc value="0.0449086707369569" flag="0"/>
			<vel value="0.0117882293019153" flag="0"/>
			<psa03 value="0.030922590136503" flag="0"/>
			<psa10 value="0.00249094993508325" flag="0"/>
			<psa30 value="0.000437474709719171" flag="0"/>
		</comp>
		<comp name="--.HNN" depth="0.0">
			<acc value="0.0413884529610433" flag="0"/>
			<vel value="0.0102949715625438" flag="0"/>
			<psa03 value="0.0323956382395438" flag="0"/>
			<psa10 value="0.00216990827702399" flag="0"/>
			<psa30 value="0.000385345188685907" flag="0"/>
		</comp>
		<comp name="--.HNZ" depth="0.0">
			<acc value="0.0301037551568239" flag="0"/>
			<vel value="0.00396514762456783" flag="0"/>
			<psa03 value="0.00949989234207794" flag="0"/>
			<psa10 value="0.000784454407660855" flag="0"/>
			<psa30 value="0.000374618774988643" flag="0"/>
		</comp>
	</station>
	<station code="BUC" name="BUC" netid="RO" source="Romanian Seismic Network (NIEP)" insttype="" lat="44.4107" lon="26.0938" esm:processing="manual (Paolucci et al 2011)" esm:quality="good">
		<comp name="--.HNE" depth="0.0">
			<acc value="0.0225752523339302" flag="0"/>
			<vel value="0.00990984464999582" flag="0"/>
			<psa03 value="0.0381403599449965" flag="0"/>
			<psa10 value="0.00391255239051906" flag="0"/>
			<psa30 value="0.000351397497109614" flag="0"/>
		</comp>
		<comp name="--.HNN" depth="0.0">
			<acc value="0.0377050520830897" flag="0"/>
			<vel value="0.0100221407202872" flag="0"/>
			<psa03 value="0.0703474778834956" flag="0"/>
			<psa10 value="0.00302080191017622" flag="0"/>
			<psa30 value="0.000270955293208395" flag="0"/>
		</comp>
		<comp name="--.HNZ" depth="0.0">
			<acc value="0.0217219646292355" flag="0"/>
			<vel value="0.00428803709850617" flag="0"/>
			<psa03 value="0.015459225920764" flag="0"/>
			<psa10 value="0.000644348114587795" flag="0"/>
			<psa30 value="0.000146657514819766" flag="0"/>
		</comp>
	</station>
	<station code="BUC1" name="BUC1" netid="RO" source="Romanian Seismic Network (NIEP)" insttype="" lat="44.3479" lon="26.0281" esm:processing="manual (Paolucci et al 2011)" esm:quality="good">
		<comp name="--.HNE" depth="0.0">
			<acc value="0.0188301314300313" flag="0"/>
			<vel value="0.00456863914089942" flag="0"/>
			<psa03 value="0.0188767205421771" flag="0"/>
			<psa10 value="0.00382285582356171" flag="0"/>
			<psa30 value="0.000421043282676104" flag="0"/>
		</comp>
		<comp name="--.HNN" depth="0.0">
			<acc value="0.0178902310069476" flag="0"/>
			<vel value="0.00420781537143344" flag="0"/>
			<psa03 value="0.0180869429628718" flag="0"/>
			<psa10 value="0.00191480172902969" flag="0"/>
			<psa30 value="0.000297933851238794" flag="0"/>
		</comp>
		<comp name="--.HNZ" depth="0.0">
			<acc value="0.0419289943774115" flag="0"/>
			<vel value="0.00594115639155851" flag="0"/>
			<psa03 value="0.00845783242530595" flag="0"/>
			<psa10 value="0.00119590594164943" flag="0"/>
			<psa30 value="0.000350556816418644" flag="0"/>
		</comp>
	</station>
	<station code="CFR" name="CFR" netid="RO" source="Romanian Seismic Network (NIEP)" insttype="" lat="45.178" lon="28.1362" esm:processing="manual (Paolucci et al 2011)" esm:quality="good">
		<comp name="--.HNE" depth="0.0">
			<acc value="0.0602452132644399" flag="0"/>
			<vel value="0.00976660108432089" flag="0"/>
			<psa03 value="0.0499406624904606" flag="0"/>
			<psa10 value="0.00262255834099424" flag="0"/>
			<psa30 value="0.000146323742709001" flag="0"/>
		</comp>
		<comp name="--.HNN" depth="0.0">
			<acc value="0.0658553106703656" flag="0"/>
			<vel value="0.0117345097113717" flag="0"/>
			<psa03 value="0.0451415060282313" flag="0"/>
			<psa10 value="0.0022529865930547" flag="0"/>
			<psa30 value="0.000169710409148377" flag="0"/>
		</comp>
		<comp name="--.HNZ" depth="0.0">
			<acc value="0.0440537620842349" flag="0"/>
			<vel value="0.00644273582871287" flag="0"/>
			<psa03 value="0.0229723238870485" flag="0"/>
			<psa10 value="0.00113734124171298" flag="0"/>
			<psa30 value="0.000112910891250741" flag="0"/>
		</comp>
	</station>
	<station code="CHLR" name="CHLR" netid="RO" source="Romanian Seismic Network (NIEP)" insttype="" lat="45.4245" lon="29.289" esm:processing="automatic (Paolucci et al 2011)" esm:quality="best">
		<comp name="--.HNE" depth="0.0">
			<acc value="0.0223386028363652" flag="0"/>
			<vel value="0.0062386185883858" flag="0"/>
			<psa03 value="0.0288014339953218" flag="0"/>
			<psa10 value="0.00332051051440083" flag="0"/>
			<psa30 value="0.000373287436793989" flag="0"/>
		</comp>
		<comp name="--.HNN" depth="0.0">
			<acc value="0.0197035076326544" flag="0"/>
			<vel value="0.00622816250177958" flag="0"/>
			<psa03 value="0.0408470262275403" flag="0"/>
			<psa10 value="0.00518554304803971" flag="0"/>
			<psa30 value="0.000393131668043625" flag="0"/>
		</comp>
		<comp name="--.HNZ" depth="0.0">
			<acc value="0.0244114202578333" flag="0"/>
			<vel value="0.00351044879796382" flag="0"/>
			<psa03 value="0.0116090229470365" flag="0"/>
			<psa10 value="0.00148272306687622" flag="0"/>
			<psa30 value="0.000130522461576817" flag="0"/>
		</comp>
	</station>
	<station code="CICN" name="CICN" netid="RO" source="Romanian Seismic Network (NIEP)" insttype="" lat="44.197" lon="27.0261" esm:processing="manual (Paolucci et al 2011)" esm:quality="good">
		<comp name="--.HNE" depth="0.0">
			<acc value="0.083940286282121" flag="0"/>
			<vel value="0.0208390680420595" flag="0"/>
			<psa03 value="0.0700425722683283" flag="0"/>
			<psa10 value="0.00457776372313016" flag="0"/>
			<psa30 value="0.000352762301062844" flag="0"/>
		</comp>
		<comp name="--.HNN" depth="0.0">
			<acc value="0.0540123469381936" flag="0"/>
			<vel value="0.0153179055284285" flag="0"/>
			<psa03 value="0.0643426373839494" flag="0"/>
			<psa10 value="0.00312690815794439" flag="0"/>
			<psa30 value="0.000385319275510954" flag="0"/>
		</comp>
		<comp name="--.HNZ" depth="0.0">
			<acc value="0.0344448180124866" flag="0"/>
			<vel value="0.00908531141379765" flag="0"/>
			<psa03 value="0.0221420813875576" flag="0"/>
			<psa10 value="0.00233672542159113" flag="0"/>
			<psa30 value="0.00214672450162932" flag="0"/>
		</comp>
	</station>
	<station code="CIOR" name="CIOR" netid="RO" source="Romanian Seismic Network (NIEP)" insttype="" lat="44.4489" lon="25.8799" esm:processing="manual (Paolucci et al 2011)" esm:quality="good">
		<comp name="--.HNE" depth="0.0">
			<acc value="0.031489025354994" flag="0"/>
			<vel value="0.0100635141571476" flag="0"/>
			<psa03 value="0.0276222673396482" flag="0"/>
			<psa10 value="0.00337761085951799" flag="0"/>
			<psa30 value="0.00034187434020554" flag="0"/>
		</comp>
		<comp name="--.HNN" depth="0.0">
			<acc value="0.0530168275205762" flag="0"/>
			<vel value="0.0115793136265321" flag="0"/>
			<psa03 value="0.0542378273648775" flag="0"/>
			<psa10 value="0.00224711393839515" flag="0"/>
			<psa30 value="0.000204492830500588" flag="0"/>
		</comp>
		<comp name="--.HNZ" depth="0.0">
			<acc value="0.0344640531619805" flag="0"/>
			<vel value="0.00572530852376171" flag="0"/>
			<psa03 value="0.0149805939533285" flag="0"/>
			<psa10 value="0.000703551470113293" flag="0"/>
			<psa30 value="7.79801853358216e-05" flag="0"/>
		</comp>
	</station>
	<station code="CLISU" name="CLISU" netid="RO" source="Romanian Seismic Network (NIEP)" insttype="" lat="44.1901" lon="27.3557" esm:processing="manual (Paolucci et al 2011)" esm:quality="good">
		<comp name="--.HNE" depth="0.0">
			<acc value="0.0224480303733232" flag="0"/>
			<vel value="0.00736429428173096" flag="0"/>
			<psa03 value="0.0240622710907016" flag="0"/>
			<psa10 value="0.00279959936596827" flag="0"/>
			<psa30 value="0.000179483165920551" flag="0"/>
		</comp>
		<comp name="--.HNN" depth="0.0">
			<acc value="0.0191799907928345" flag="0"/>
			<vel value="0.00560774257932421" flag="0"/>
			<psa03 value="0.0259201389569965" flag="0"/>
			<psa10 value="0.00294499298195678" flag="0"/>
			<psa30 value="0.000190219241716216" flag="0"/>
		</comp>
		<comp name="--.HNZ" depth="0.0">
			<acc value="0.0355449713183755" flag="0"/>
			<vel value="0.00675235641569596" flag="0"/>
			<psa03 value="0.0171975233661053" flag="0"/>
			<psa10 value="0.000997602531584238" flag="0"/>
			<psa30 value="8.09904758986309e-05" flag="0"/>
		</comp>
	</station>
	<station code="COPA" name="COPA" netid="RO" source="Romanian Seismic Network (NIEP)" insttype="" lat="44.1343" lon="25.2172" esm:processing="manual (Paolucci et al 2011)" esm:quality="good">
		<comp name="--.HNE" depth="0.0">
			<acc value="0.0292869362642933" flag="0"/>
			<vel value="0.00759783562880526" flag="0"/>
			<psa03 value="0.0151007920200271" flag="0"/>
			<psa10 value="0.00197924470899834" flag="0"/>
			<psa30 value="0.000176101210111743" flag="0"/>
		</comp>
		<comp name="--.HNN" depth="0.0">
			<acc value="0.0219042308980341" flag="0"/>
			<vel value="0.00366238807920769" flag="0"/>
			<psa03 value="0.00843613827984195" flag="0"/>
			<psa10 value="0.00104945510718789" flag="0"/>
			<psa30 value="0.000103666261912334" flag="0"/>
		</comp>
		<comp name="--.HNZ" depth="0.0">
			<acc value="0.0306486345048341" flag="0"/>
			<vel value="0.0026634668869193" flag="0"/>
			<psa03 value="0.00342578097763524" flag="0"/>
			<psa10 value="0.000625667541153984" flag="0"/>
			<psa30 value="4.51959106739388e-05" flag="0"/>
		</comp>
	</station>
	<station code="CVDA" name="CVDA" netid="RO" source="Romanian Seismic Network (NIEP)" insttype="" lat="44.3336" lon="28.0374" esm:processing="manual (Paolucci et al 2011)" esm:quality="good">
		<comp name="--.HNE" depth="0.0">
			<acc value="0.0322570374296897" flag="0"/>
			<vel value="0.013304258167705" flag="0"/>
			<psa03 value="0.0802527173903338" flag="0"/>
			<psa10 value="0.00536375719759038" flag="0"/>
			<psa30 value="0.000390482299827642" flag="0"/>
		</comp>
		<comp name="--.HNN" depth="0.0">
			<acc value="0.0240463046403321" flag="0"/>
			<vel value="0.00945636536320924" flag="0"/>
			<psa03 value="0.0588402312098781" flag="0"/>
			<psa10 value="0.00303971839767568" flag="0"/>
			<psa30 value="0.000207450331107989" flag="0"/>
		</comp>
		<comp name="--.HNZ" depth="0.0">
			<acc value="0.026947423798643" flag="0"/>
			<vel value="0.00835668363020553" flag="0"/>
			<psa03 value="0.0618683276397388" flag="0"/>
			<psa10 value="0.00210876961751286" flag="0"/>
			<psa30 value="0.000206491061831941" flag="0"/>
		</comp>
	</station>
	<station code="GIUM" name="GIUM" netid="RO" source="Romanian Seismic Network (NIEP)" insttype="" lat="45.485" lon="28.2081" esm:processing="manual (Paolucci et al 2011)" esm:quality="good">
		<comp name="--.HNE" depth="0.0">
			<acc value="0.0456084531807186" flag="0"/>
			<vel value="0.0117426210409747" flag="0"/>
			<psa03 value="0.0427483995800072" flag="0"/>
			<psa10 value="0.00434745815401648" flag="0"/>
			<psa30 value="0.000361616403228659" flag="0"/>
		</comp>
		<comp name="--.HNN" depth="0.0">
			<acc value="0.0494314471645044" flag="0"/>
			<vel value="0.0120938290578855" flag="0"/>
			<psa03 value="0.045429473021298" flag="0"/>
			<psa10 value="0.00537628068345986" flag="0"/>
			<psa30 value="0.000345375822161535" flag="0"/>
		</comp>
		<comp name="--.HNZ" depth="0.0">
			<acc value="0.0663958163488205" flag="0"/>
			<vel value="0.0101111147340256" flag="0"/>
			<psa03 value="0.058894547308053" flag="0"/>
			<psa10 value="0.0019491525983562" flag="0"/>
			<psa30 value="0.000198350678821517" flag="0"/>
		</comp>
	</station>
	<station code="GRISU" name="GRISU" netid="RO" source="Romanian Seismic Network (NIEP)" insttype="" lat="43.8898" lon="25.9518" esm:processing="manual (Paolucci et al 2011)" esm:quality="good">
		<comp name="--.HNE" depth="0.0">
			<acc value="0.0233377290586447" flag="0"/>
			<vel value="0.007346782077573" flag="0"/>
			<psa03 value="0.0549227633635259" flag="0"/>
			<psa10 value="0.00160472884447285" flag="0"/>
			<psa30 value="0.000129041829637909" flag="0"/>
		</comp>
		<comp name="--.HNN" depth="0.0">
			<acc value="0.0145638295688795" flag="0"/>
			<vel value="0.00425464438073176" flag="0"/>
			<psa03 value="0.0301009237259692" flag="0"/>
			<psa10 value="0.00090611463502259" flag="0"/>
			<psa30 value="8.70009652098832e-05" flag="0"/>
		</comp>
		<comp name="--.HNZ" depth="0.0">
			<acc value="0.00874452562134653" flag="0"/>
			<vel value="0.00169892796909678" flag="0"/>
			<psa03 value="0.00721687652015087" flag="0"/>
			<psa10 value="0.00028272182463648" flag="0"/>
			<psa30 value="3.62478797597637e-05" flag="0"/>
		</comp>
	</station>
	<station code="HARR" name="HARR" netid="RO" source="Romanian Seismic Network (NIEP)" insttype="" lat="44.6893" lon="27.9303" esm:processing="manual (Paolucci et al 2011)" esm:quality="good">
		<comp name="--.HNE" depth="0.0">
			<acc value="0.02895853822546" flag="0"/>
			<vel value="0.00952808005182188" flag="0"/>
			<psa03 value="0.035771309777883" flag="0"/>
			<psa10 value="0.00448861422366334" flag="0"/>
			<psa30 value="0.000249871396503713" flag="0"/>
		</comp>
		<comp name="--.HNN" depth="0.0">
			<acc value="0.0368754042719261" flag="0"/>
			<vel value="0.0160539441398247" flag="0"/>
			<psa03 value="0.0447761328657192" flag="0"/>
			<psa10 value="0.00680322724291633" flag="0"/>
			<psa30 value="0.000469855188100282" flag="0"/>
		</comp>
		<comp name="--.HNZ" depth="0.0">
			<acc value="0.0334751135978146" flag="0"/>
			<vel value="0.00591430722564686" flag="0"/>
			<psa03 value="0.018913799821414" flag="0"/>
			<psa10 value="0.00136231641865183" flag="0"/>
			<psa30 value="9.82906518983027e-05" flag="0"/>
		</comp>
	</station>
	<station code="HUMR" name="HUMR" netid="RO" source="Romanian Seismic Network (NIEP)" insttype="" lat="44.5281" lon="24.9804" esm:processing="manual (Paolucci et al 2011)" esm:quality="good">
		<comp name="--.HNE" depth="0.0">
			<acc value="0.0283832648089036" flag="0"/>
			<vel value="0.00464300103256833" flag="0"/>
			<psa03 value="0.0117238157077531" flag="0"/>
			<psa10 value="0.000811789030945496" flag="0"/>
			<psa30 value="9.01110019637215e-05" flag="0"/>
		</comp>
		<comp name="--.HNN" depth="0.0">
			<acc value="0.0256024005781203" flag="0"/>
			<vel value="0.00424164342685744" flag="0"/>
			<psa03 value="0.00871890701188269" flag="0"/>
			<psa10 value="0.00105368245754161" flag="0"/>
			<psa30 value="8.24699293739129e-05" flag="0"/>
		</comp>
		<comp name="--.HNZ" depth="0.0">
			<acc value="0.0400931917028496" flag="0"/>
			<vel value="0.00460410960114387" flag="0"/>
			<psa03 value="0.00469167277946277" flag="0"/>
			<psa10 value="0.000398649973057367" flag="0"/>
			<psa30 value="3.15398693094688e-05" flag="0"/>
		</comp>
	</station>
	<station code="IASR" name="IASR" netid="RO" source="Romanian Seismic Network (NIEP)" insttype="" lat="47.1777" lon="27.5748" esm:processing="manual (Paolucci et al 2011)" esm:quality="good">
		<comp name="--.HNE" depth="0.0">
			<acc value="0.0355087877232347" flag="0"/>
			<vel value="0.012974940597437" flag="0"/>
			<psa03 value="0.062893208033035" flag="0"/>
			<psa10 value="0.00266316649983547" flag="0"/>
			<psa30 value="0.000257388717405996" flag="0"/>
		</comp>
		<comp name="--.HNN" depth="0.0">
			<acc value="0.0308873678869466" flag="0"/>
			<vel value="0.00880946083827561" flag="0"/>
			<psa03 value="0.0416478136507575" flag="0"/>
			<psa10 value="0.00420241963967672" flag="0"/>
			<psa30 value="0.00033377797052745" flag="0"/>
		</comp>
		<comp name="--.HNZ" depth="0.0">
			<acc value="0.0322515712996219" flag="0"/>
			<vel value="0.00685744525544823" flag="0"/>
			<psa03 value="0.0302980357420062" flag="0"/>
			<psa10 value="0.00149234456362829" flag="0"/>
			<psa30 value="0.000106013487717024" flag="0"/>
		</comp>
	</station>
	<station code="INCR" name="INCR" netid="RO" source="Romanian Seismic Network (NIEP)" insttype="" lat="44.441" lon="26.1611" esm:processing="manual (Paolucci et al 2011)" esm:quality="good">
		<comp name="--.HNE" depth="0.0">
			<acc value="0.0141999336435657" flag="0"/>
			<vel value="0.00476563901050918" flag="0"/>
			<psa03 value="0.0132697553582512" flag="0"/>
			<psa10 value="0.00296499446320675" flag="0"/>
			<psa30 value="0.000218993934356718" flag="0"/>
		</comp>
		<comp name="--.HNN" depth="0.0">
			<acc value="0.0184344246502743" flag="0"/>
			<vel value="0.00524445453856775" flag="0"/>
			<psa03 value="0.0214089182357636" flag="0"/>
			<psa10 value="0.00227031461595118" flag="0"/>
			<psa30 value="0.000178580384761563" flag="0"/>
		</comp>
		<comp name="--.HNZ" depth="0.0">
			<acc value="0.0295293013490079" flag="0"/>
			<vel value="0.00488051428116633" flag="0"/>
			<psa03 value="0.0123306671065967" flag="0"/>
			<psa10 value="0.000509355050866085" flag="0"/>
			<psa30 value="7.49342999671143e-05" flag="0"/>
		</comp>
	</station>
	<station code="IZVR" name="IZVR" netid="RO" source="Romanian Seismic Network (NIEP)" insttype="" lat="45.5442" lon="27.7655" esm:processing="manual (Paolucci et al 2011)" esm:quality="good">
		<comp name="--.HNE" depth="0.0">
			<acc value="0.0171921606126198" flag="0"/>
			<vel value="0.00451772578394144" flag="0"/>
			<psa03 value="0.0296178135972941" flag="0"/>
			<psa10 value="0.00145396534150568" flag="0"/>
			<psa30 value="0.000201585229032094" flag="0"/>
		</comp>
		<comp name="--.HNN" depth="0.0">
			<acc value="0.0134460923767279" flag="0"/>
			<vel value="0.00326477603496938" flag="0"/>
			<psa03 value="0.0143283658505843" flag="0"/>
			<psa10 value="0.000960634164642609" flag="0"/>
			<psa30 value="6.22971216702389e-05" flag="0"/>
		</comp>
		<comp name="--.HNZ" depth="0.0">
			<acc value="0.0105633411083739" flag="0"/>
