<stationlist created="1771466525">
	<station code="SILAM" name="SILAM" netid="BS" source="National Seismic Network of Bulgaria (BS)" insttype="" lat="44.1046" lon="27.2665">
		<comp name="--.HNE" depth="0.0">
			<acc value="0.032695872530922" flag="0"/>
			<vel value="0.0086963940877" flag="0"/>
			<psa03 value="0.0647790048326156" flag="0"/>
			<psa10 value="0.00156664190733816" flag="0"/>
			<psa30 value="0.000439562452188362" flag="0"/>
		</comp>
		<comp name="--.HNN" depth="0.0">
			<acc value="0.02904711133872" flag="0"/>
			<vel value="0.00793153438531" flag="0"/>
			<psa03 value="0.0668458448757064" flag="0"/>
			<psa10 value="0.00137655798708494" flag="0"/>
			<psa30 value="0.000142221921504307" flag="0"/>
		</comp>
		<comp name="--.HNZ" depth="0.0">
			<acc value="0.026936685068766" flag="0"/>
			<vel value="0.00474898481652" flag="0"/>
			<psa03 value="0.0109037398973584" flag="0"/>
			<psa10 value="0.000776547008833982" flag="0"/>
			<psa30 value="7.92605110363675e-05" flag="0"/>
		</comp>
	</station>
	<station code="KIS" name="KIS" netid="MD" source="Moldova Digital Seismic Network" insttype="" lat="46.9975" lon="28.8175">
		<comp name="--.HNE" depth="0.0">
			<acc value="0.021568970246526" flag="0"/>
			<vel value="0.00799506697776" flag="0"/>
			<psa03 value="0.0284083975419376" flag="0"/>
			<psa10 value="0.00323082261989263" flag="0"/>
			<psa30 value="0.000192514602105787" flag="0"/>
		</comp>
		<comp name="--.HNN" depth="0.0">
			<acc value="0.015956253786708" flag="0"/>
			<vel value="0.00547052726606" flag="0"/>
			<psa03 value="0.0337817795437717" flag="0"/>
			<psa10 value="0.00198031024833545" flag="0"/>
			<psa30 value="0.000117855645899629" flag="0"/>
		</comp>
		<comp name="--.HNZ" depth="0.0">
			<acc value="0.02308147715646" flag="0"/>
			<vel value="0.00413204917467" flag="0"/>
			<psa03 value="0.0158827865316761" flag="0"/>
			<psa10 value="0.000923473421677381" flag="0"/>
			<psa30 value="8.06374446997214e-05" flag="0"/>
		</comp>
	</station>
	<station code="AMRR" name="AMRR" netid="RO" source="Romanian Seismic Network (NIEP)" insttype="" lat="44.6102" lon="27.3351">
		<comp name="--.HNE" depth="0.0">
			<acc value="0.053383188468252" flag="0"/>
			<vel value="0.00988102257046" flag="0"/>
			<psa03 value="0.0571365923107084" flag="0"/>
			<psa10 value="0.00566824080562299" flag="0"/>
			<psa30 value="0.000404314101533277" flag="0"/>
		</comp>
		<comp name="--.HNN" depth="0.0">
			<acc value="0.045696547740204" flag="0"/>
			<vel value="0.0189674520492" flag="0"/>
			<psa03 value="0.0746583676255613" flag="0"/>
			<psa10 value="0.00411452553585961" flag="0"/>
			<psa30 value="0.00046097048494964" flag="0"/>
		</comp>
		<comp name="--.HNZ" depth="0.0">
			<acc value="0.045754510511328" flag="0"/>
			<vel value="0.0080958034854" flag="0"/>
			<psa03 value="0.0216524851521094" flag="0"/>
			<psa10 value="0.0010630532736241" flag="0"/>
			<psa30 value="0.000159565205828268" flag="0"/>
		</comp>
	</station>
	<station code="BAC" name="BAC" netid="RO" source="Romanian Seismic Network (NIEP)" insttype="" lat="46.5669" lon="26.9124">
		<comp name="--.HNE" depth="0.0">
			<acc value="0.047176127793498" flag="0"/>
			<vel value="0.0178676141922" flag="0"/>
			<psa03 value="0.0716144055611816" flag="0"/>
			<psa10 value="0.00434986534471629" flag="0"/>
			<psa30 value="0.000485399030303826" flag="0"/>
		</comp>
		<comp name="--.HNN" depth="0.0">
			<acc value="0.045471907694832" flag="0"/>
			<vel value="0.0176624723528" flag="0"/>
			<psa03 value="0.0631736849464916" flag="0"/>
			<psa10 value="0.00592486889974501" flag="0"/>
			<psa30 value="0.00050617525037449" flag="0"/>
		</comp>
		<comp name="--.HNZ" depth="0.0">
			<acc value="0.029411223830136" flag="0"/>
			<vel value="0.00550887544017" flag="0"/>
			<psa03 value="0.0193663284971187" flag="0"/>
			<psa10 value="0.00249201383368646" flag="0"/>
			<psa30 value="0.000125971652295174" flag="0"/>
		</comp>
	</station>
	<station code="BUC1" name="BUC1" netid="RO" source="Romanian Seismic Network (NIEP)" insttype="" lat="44.3479" lon="26.0281">
		<comp name="--.HNE" depth="0.0">
			<acc value="0.01890064854333" flag="0"/>
			<vel value="0.00487591580252" flag="0"/>
			<psa03 value="0.0188582974467238" flag="0"/>
			<psa10 value="0.00387248543940333" flag="0"/>
			<psa30 value="0.000655067197071306" flag="0"/>
		</comp>
		<comp name="--.HNN" depth="0.0">
			<acc value="0.017820757022994" flag="0"/>
			<vel value="0.00451620703903" flag="0"/>
			<psa03 value="0.0180669129901494" flag="0"/>
			<psa10 value="0.00188080678171907" flag="0"/>
			<psa30 value="0.000463244698104381" flag="0"/>
		</comp>
		<comp name="--.HNZ" depth="0.0">
			<acc value="0.041046304737558" flag="0"/>
			<vel value="0.00563024957954" flag="0"/>
			<psa03 value="0.00837248041698749" flag="0"/>
			<psa10 value="0.00123560525122219" flag="0"/>
			<psa30 value="0.000592689158581577" flag="0"/>
		</comp>
	</station>
	<station code="CFR" name="CFR" netid="RO" source="Romanian Seismic Network (NIEP)" insttype="" lat="45.178" lon="28.1362">
		<comp name="--.HNE" depth="0.0">
			<acc value="0.059839710015564" flag="0"/>
			<vel value="0.00961912176558" flag="0"/>
			<psa03 value="0.049812502958671" flag="0"/>
			<psa10 value="0.0026300021153578" flag="0"/>
			<psa30 value="0.000154629006433623" flag="0"/>
		</comp>
		<comp name="--.HNN" depth="0.0">
			<acc value="0.067549850333484" flag="0"/>
			<vel value="0.0115834158796" flag="0"/>
			<psa03 value="0.0449337891430265" flag="0"/>
			<psa10 value="0.00223992072750385" flag="0"/>
			<psa30 value="0.000188951254072298" flag="0"/>
		</comp>
		<comp name="--.HNZ" depth="0.0">
			<acc value="0.043963808970612" flag="0"/>
			<vel value="0.00637038541969" flag="0"/>
			<psa03 value="0.0229739750381137" flag="0"/>
			<psa10 value="0.00113778822444807" flag="0"/>
			<psa30 value="0.000120446325332286" flag="0"/>
		</comp>
	</station>
	<station code="CICN" name="CICN" netid="RO" source="Romanian Seismic Network (NIEP)" insttype="" lat="44.197" lon="27.0261">
		<comp name="--.HNE" depth="0.0">
			<acc value="0.08590291544916" flag="0"/>
			<vel value="0.0210166110028" flag="0"/>
			<psa03 value="0.0699349036776857" flag="0"/>
			<psa10 value="0.00457308106919574" flag="0"/>
			<psa30 value="0.000336638680868767" flag="0"/>
		</comp>
		<comp name="--.HNN" depth="0.0">
			<acc value="0.05572990690821" flag="0"/>
			<vel value="0.0153003765985" flag="0"/>
			<psa03 value="0.0641003713350568" flag="0"/>
			<psa10 value="0.0031238978804027" flag="0"/>
			<psa30 value="0.000388425184387314" flag="0"/>
		</comp>
		<comp name="--.HNZ" depth="0.0">
			<acc value="0.034785734929206" flag="0"/>
			<vel value="0.00957593302038" flag="0"/>
			<psa03 value="0.0221323020938973" flag="0"/>
			<psa10 value="0.0023323238018793" flag="0"/>
			<psa30 value="0.0020289727428205" flag="0"/>
		</comp>
	</station>
	<station code="CIOR" name="CIOR" netid="RO" source="Romanian Seismic Network (NIEP)" insttype="" lat="44.4489" lon="25.8799">
		<comp name="--.HNE" depth="0.0">
			<acc value="0.031742732470938" flag="0"/>
			<vel value="0.0101010228533" flag="0"/>
			<psa03 value="0.02751829170178" flag="0"/>
			<psa10 value="0.00340557669649283" flag="0"/>
			<psa30 value="0.000356379624026155" flag="0"/>
		</comp>
		<comp name="--.HNN" depth="0.0">
			<acc value="0.052948268878356" flag="0"/>
			<vel value="0.0115254614633" flag="0"/>
			<psa03 value="0.0540247351236105" flag="0"/>
			<psa10 value="0.0022448797278885" flag="0"/>
			<psa30 value="0.000216147053056318" flag="0"/>
		</comp>
		<comp name="--.HNZ" depth="0.0">
			<acc value="0.03474121869609" flag="0"/>
			<vel value="0.00569410822382" flag="0"/>
			<psa03 value="0.0149107572957242" flag="0"/>
			<psa10 value="0.00070142525504417" flag="0"/>
			<psa30 value="8.49701015083933e-05" flag="0"/>
		</comp>
	</station>
	<station code="CLISU" name="CLISU" netid="RO" source="Romanian Seismic Network (NIEP)" insttype="" lat="44.1901" lon="27.3557">
		<comp name="--.HNE" depth="0.0">
			<acc value="0.022567442319408" flag="0"/>
			<vel value="0.0073441527389" flag="0"/>
			<psa03 value="0.0239893730323887" flag="0"/>
			<psa10 value="0.00280111352877547" flag="0"/>
			<psa30 value="0.00017335371039493" flag="0"/>
		</comp>
		<comp name="--.HNN" depth="0.0">
			<acc value="0.019139383243176" flag="0"/>
			<vel value="0.00557493169873" flag="0"/>
			<psa03 value="0.0258578301418464" flag="0"/>
			<psa10 value="0.00294687818496794" flag="0"/>
			<psa30 value="0.000219192827740686" flag="0"/>
		</comp>
		<comp name="--.HNZ" depth="0.0">
			<acc value="0.035313328389108" flag="0"/>
			<vel value="0.0066425443212" flag="0"/>
			<psa03 value="0.01709759487134" flag="0"/>
			<psa10 value="0.00100150361032244" flag="0"/>
			<psa30 value="9.42157921152214e-05" flag="0"/>
		</comp>
	</station>
	<station code="COPA" name="COPA" netid="RO" source="Romanian Seismic Network (NIEP)" insttype="" lat="44.1343" lon="25.2172">
		<comp name="--.HNE" depth="0.0">
			<acc value="0.028962209793336" flag="0"/>
			<vel value="0.00777258147572" flag="0"/>
			<psa03 value="0.0150729607492397" flag="0"/>
			<psa10 value="0.00197700112287123" flag="0"/>
			<psa30 value="0.00017589864460942" flag="0"/>
		</comp>
		<comp name="--.HNN" depth="0.0">
			<acc value="0.02190272434371" flag="0"/>
			<vel value="0.00372152820772" flag="0"/>
			<psa03 value="0.00839136382936274" flag="0"/>
			<psa10 value="0.00105639599667506" flag="0"/>
			<psa30 value="0.000124135150427889" flag="0"/>
		</comp>
		<comp name="--.HNZ" depth="0.0">
			<acc value="0.034492460667384" flag="0"/>
			<vel value="0.00252924329648" flag="0"/>
			<psa03 value="0.00342091118888975" flag="0"/>
			<psa10 value="0.000613687841307075" flag="0"/>
			<psa30 value="5.42437886974648e-05" flag="0"/>
		</comp>
	</station>
	<station code="CVDA" name="CVDA" netid="RO" source="Romanian Seismic Network (NIEP)" insttype="" lat="44.3336" lon="28.0374">
		<comp name="--.HNE" depth="0.0">
			<acc value="0.032044598958066" flag="0"/>
			<vel value="0.0132675363466" flag="0"/>
			<psa03 value="0.0800894774099197" flag="0"/>
			<psa10 value="0.00536340420544836" flag="0"/>
			<psa30 value="0.000390212959068584" flag="0"/>
		</comp>
		<comp name="--.HNN" depth="0.0">
			<acc value="0.023904755501406" flag="0"/>
			<vel value="0.00935052334059" flag="0"/>
			<psa03 value="0.0586904296197396" flag="0"/>
			<psa10 value="0.00303753645625811" flag="0"/>
			<psa30 value="0.00021456844587737" flag="0"/>
		</comp>
		<comp name="--.HNZ" depth="0.0">
			<acc value="0.027520538338698" flag="0"/>
			<vel value="0.00833167582254" flag="0"/>
			<psa03 value="0.0617108536660307" flag="0"/>
			<psa10 value="0.00211247791004212" flag="0"/>
			<psa30 value="0.000211249619250416" flag="0"/>
		</comp>
	</station>
	<station code="GISR" name="GISR" netid="RO" source="Romanian Seismic Network (NIEP)" insttype="" lat="45.4411" lon="28.0541">
		<comp name="--.HNE" depth="0.0">
			<acc value="0.07217077200558" flag="0"/>
			<vel value="0.0264239726679" flag="0"/>
			<psa03 value="0.118043486468098" flag="0"/>
			<psa10 value="0.02114330251502" flag="0"/>
			<psa30 value="0.0014563187656377" flag="0"/>
		</comp>
		<comp name="--.HNN" depth="0.0">
			<acc value="0.06682136849211" flag="0"/>
			<vel value="0.0263525139282" flag="0"/>
			<psa03 value="0.109011033946015" flag="0"/>
			<psa10 value="0.0174929175699218" flag="0"/>
			<psa30 value="0.00123001002379267" flag="0"/>
		</comp>
		<comp name="--.HNZ" depth="0.0">
			<acc value="0.07011495661233" flag="0"/>
			<vel value="0.0146536446139" flag="0"/>
			<psa03 value="0.0590735070801156" flag="0"/>
			<psa10 value="0.00549534403958837" flag="0"/>
			<psa30 value="0.00102079876874351" flag="0"/>
		</comp>
	</station>
	<station code="GIUM" name="GIUM" netid="RO" source="Romanian Seismic Network (NIEP)" insttype="" lat="45.485" lon="28.2081">
		<comp name="--.HNE" depth="0.0">
			<acc value="0.044969304847746" flag="0"/>
			<vel value="0.0122602252579" flag="0"/>
			<psa03 value="0.0426814550411012" flag="0"/>
			<psa10 value="0.004736670187414" flag="0"/>
			<psa30 value="0.000971586550340415" flag="0"/>
		</comp>
		<comp name="--.HNN" depth="0.0">
			<acc value="0.049458154453788" flag="0"/>
			<vel value="0.0124552087389" flag="0"/>
			<psa03 value="0.0452922660151767" flag="0"/>
			<psa10 value="0.00545577798100233" flag="0"/>
			<psa30 value="0.000714378417813325" flag="0"/>
		</comp>
		<comp name="--.HNZ" depth="0.0">
			<acc value="0.06548923376382" flag="0"/>
			<vel value="0.00984274332894" flag="0"/>
			<psa03 value="0.0586463798265089" flag="0"/>
			<psa10 value="0.00205567360016327" flag="0"/>
			<psa30 value="0.000576872902500419" flag="0"/>
		</comp>
	</station>
	<station code="GRISU" name="GRISU" netid="RO" source="Romanian Seismic Network (NIEP)" insttype="" lat="43.8898" lon="25.9518">
		<comp name="--.HNE" depth="0.0">
			<acc value="0.023482400486934" flag="0"/>
			<vel value="0.00728626075527" flag="0"/>
			<psa03 value="0.0547726857134054" flag="0"/>
			<psa10 value="0.00161086940750447" flag="0"/>
			<psa30 value="0.000144698205337787" flag="0"/>
		</comp>
		<comp name="--.HNN" depth="0.0">
			<acc value="0.014685080742558" flag="0"/>
			<vel value="0.00420360979235" flag="0"/>
			<psa03 value="0.0300210252038987" flag="0"/>
			<psa10 value="0.000912917292697054" flag="0"/>
			<psa30 value="0.000113498599454182" flag="0"/>
		</comp>
		<comp name="--.HNZ" depth="0.0">
			<acc value="0.0090776208556878" flag="0"/>
			<vel value="0.00170020786285" flag="0"/>
			<psa03 value="0.00719650407683403" flag="0"/>
			<psa10 value="0.000288904636561348" flag="0"/>
			<psa30 value="9.71580378054579e-05" flag="0"/>
		</comp>
	</station>
	<station code="HARR" name="HARR" netid="RO" source="Romanian Seismic Network (NIEP)" insttype="" lat="44.6893" lon="27.9303">
		<comp name="--.HNE" depth="0.0">
			<acc value="0.028895164023906" flag="0"/>
			<vel value="0.00945128573335" flag="0"/>
			<psa03 value="0.0356513044322991" flag="0"/>
			<psa10 value="0.00451412153840337" flag="0"/>
			<psa30 value="0.000260437330819893" flag="0"/>
		</comp>
		<comp name="--.HNN" depth="0.0">
			<acc value="0.037651501485102" flag="0"/>
			<vel value="0.0160898385097" flag="0"/>
			<psa03 value="0.0446673235743246" flag="0"/>
			<psa10 value="0.00680783301677904" flag="0"/>
			<psa30 value="0.000495126601791731" flag="0"/>
		</comp>
		<comp name="--.HNZ" depth="0.0">
			<acc value="0.033249386095062" flag="0"/>
			<vel value="0.00597896483594" flag="0"/>
			<psa03 value="0.0188369874413095" flag="0"/>
			<psa10 value="0.00135711623041449" flag="0"/>
			<psa30 value="0.000117851882629499" flag="0"/>
		</comp>
	</station>
	<station code="HUMR" name="HUMR" netid="RO" source="Romanian Seismic Network (NIEP)" insttype="" lat="44.5281" lon="24.9804">
		<comp name="--.HNE" depth="0.0">
			<acc value="0.02760765104712" flag="0"/>
			<vel value="0.00469491906379" flag="0"/>
			<psa03 value="0.0116963073750565" flag="0"/>
			<psa10 value="0.000838239005782941" flag="0"/>
			<psa30 value="0.000111602796783465" flag="0"/>
		</comp>
		<comp name="--.HNN" depth="0.0">
			<acc value="0.02552691383373" flag="0"/>
			<vel value="0.00414952103403" flag="0"/>
			<psa03 value="0.00868981654313099" flag="0"/>
			<psa10 value="0.0010652250190533" flag="0"/>
			<psa30 value="6.7672712151633e-05" flag="0"/>
		</comp>
		<comp name="--.HNZ" depth="0.0">
			<acc value="0.045113500726314" flag="0"/>
			<vel value="0.00487021072534" flag="0"/>
			<psa03 value="0.00473474659642719" flag="0"/>
			<psa10 value="0.000400340309643095" flag="0"/>
			<psa30 value="5.95874825343552e-05" flag="0"/>
		</comp>
	</station>
	<station code="ICOR" name="ICOR" netid="RO" source="Romanian Seismic Network (NIEP)" insttype="" lat="44.1168" lon="27.8009">
		<comp name="--.HNE" depth="0.0">
			<acc value="0.031662622606686" flag="0"/>
			<vel value="0.0118720906464" flag="0"/>
			<psa03 value="0.094021343036035" flag="0"/>
			<psa10 value="0.00545123314870008" flag="0"/>
			<psa30 value="0.0004314834794962" flag="0"/>
		</comp>
		<comp name="--.HNN" depth="0.0">
			<acc value="0.034539348270042" flag="0"/>
			<vel value="0.010654944697" flag="0"/>
			<psa03 value="0.0820140788636659" flag="0"/>
			<psa10 value="0.00307702094691248" flag="0"/>
			<psa30 value="0.000291864126232418" flag="0"/>
		</comp>
		<comp name="--.HNZ" depth="0.0">
			<acc value="0.055135944191328" flag="0"/>
			<vel value="0.0106710243049" flag="0"/>
			<psa03 value="0.0399851305895028" flag="0"/>
			<psa10 value="0.00255753372093193" flag="0"/>
			<psa30 value="0.00121517289507403" flag="0"/>
		</comp>
	</station>
	<station code="INCR" name="INCR" netid="RO" source="Romanian Seismic Network (NIEP)" insttype="" lat="44.441" lon="26.1611">
		<comp name="--.HNE" depth="0.0">
			<acc value="0.014053875060456" flag="0"/>
			<vel value="0.00471507303539" flag="0"/>
			<psa03 value="0.0132497696592966" flag="0"/>
			<psa10 value="0.0029758598704875" flag="0"/>
			<psa30 value="0.000220484189328991" flag="0"/>
		</comp>
		<comp name="--.HNN" depth="0.0">
			<acc value="0.018474014806746" flag="0"/>
			<vel value="0.00528121482941" flag="0"/>
			<psa03 value="0.0213388719288723" flag="0"/>
			<psa10 value="0.0022849785561137" flag="0"/>
			<psa30 value="0.000169363367929549" flag="0"/>
		</comp>
		<comp name="--.HNZ" depth="0.0">
			<acc value="0.030716525424954" flag="0"/>
			<vel value="0.00477120270128" flag="0"/>
			<psa03 value="0.012267817891074" flag="0"/>
			<psa10 value="0.000507811589242315" flag="0"/>
			<psa30 value="8.78021380753786e-05" flag="0"/>
		</comp>
	</station>
	<station code="IZVR" name="IZVR" netid="RO" source="Romanian Seismic Network (NIEP)" insttype="" lat="45.5442" lon="27.7655">
		<comp name="--.HNE" depth="0.0">
			<acc value="0.017271500544318" flag="0"/>
			<vel value="0.00452125196313" flag="0"/>
			<psa03 value="0.0295665497846338" flag="0"/>
			<psa10 value="0.00144762050712916" flag="0"/>
			<psa30 value="0.000221182178275603" flag="0"/>
		</comp>
		<comp name="--.HNN" depth="0.0">
			<acc value="0.013610208702504" flag="0"/>
			<vel value="0.00324129213256" flag="0"/>
			<psa03 value="0.0142924663369891" flag="0"/>
			<psa10 value="0.000957958303785253" flag="0"/>
			<psa30 value="6.425910060021e-05" flag="0"/>
		</comp>
		<comp name="--.HNZ" depth="0.0">
			<acc value="0.010725709331916" flag="0"/>
			<vel value="0.00195592919103" flag="0"/>
			<psa03 value="0.00538965684298304" flag="0"/>
			<psa10 value="0.000764809785988363" flag="0"/>
			<psa30 value="6.07702952650248e-05" flag="0"/>
		</comp>
	</station>
	<station code="LEOM" name="LEOM" netid="RO" source="Romanian Seismic Network (NIEP)" insttype="" lat="46.4733" lon="28.2467">
		<comp name="--.HNE" depth="0.0">
			<acc value="0.074742306021996" flag="0"/>
			<vel value="0.0165595637985" flag="0"/>
			<psa03 value="0.0848008207633728" flag="0"/>
			<psa10 value="0.00684459670219698" flag="0"/>
			<psa30 value="0.000570291216494255" flag="0"/>
		</comp>
		<comp name="--.HNN" depth="0.0">
			<acc value="0.097309593707364" flag="0"/>
			<vel value="0.0159497074209" flag="0"/>
			<psa03 value="0.0370864203350158" flag="0"/>
			<psa10 value="0.00448286415525021" flag="0"/>
			<psa30 value="0.000779796032659832" flag="0"/>
		</comp>
		<comp name="--.HNZ" depth="0.0">
			<acc value="0.062240671929756" flag="0"/>
			<vel value="0.00571424549716" flag="0"/>
			<psa03 value="0.027253305397721" flag="0"/>
			<psa10 value="0.00107019421542891" flag="0"/>
			<psa30 value="0.000682585165833056" flag="0"/>
		</comp>
	</station>
	<station code="MLR" name="MLR" netid="RO" source="Romanian Seismic Network (NIEP)" insttype="" lat="45.4909" lon="25.945">
		<comp name="--.HNE" depth="0.0">
			<acc value="0.0048871883806908" flag="0"/>
			<vel value="0.00273454098897" flag="0"/>
			<psa03 value="0.0115154594572468" flag="0"/>
			<psa10 value="0.00519328590471349" flag="0"/>
