<?xml version="1.0" encoding="UTF-8" standalone="yes"?>
<!DOCTYPE earthquake SYSTEM "stationlist.dtd">
<stationlist created="" xmlns="ch.ethz.sed.shakemap.usgs.xml">
  <station code="KTHR" name="KTHR" netid="HC" insttype="60" lat="36.2447" lon="22.9939">
    <comp name="--.HHE">
      <acc value="0.0097613024" flag="0"/>
      <vel value="0.0056970796" flag="0"/>
      <psa03 value="0.0304996282" flag="0"/>
      <psa10 value="0.0021188241" flag="0"/>
      <psa30 value="0.0002636790" flag="0"/>
    </comp>
    <comp name="--.HHN">
      <acc value="0.0061515989" flag="0"/>
      <vel value="0.0033359048" flag="0"/>
      <psa03 value="0.0262624075" flag="0"/>
      <psa10 value="0.0033731330" flag="0"/>
      <psa30 value="0.0002436493" flag="0"/>
    </comp>
    <comp name="--.HHZ">
      <acc value="0.0049746405" flag="0"/>
      <vel value="0.0020774416" flag="0"/>
      <psa03 value="0.0128318749" flag="0"/>
      <psa10 value="0.0016168542" flag="0"/>
      <psa30 value="0.0001531255" flag="0"/>
    </comp>
  </station>
  <station code="IMMV" name="IMMV" netid="HL" insttype="DC" lat="35.4606" lon="23.9811">
    <comp name="--.HNZ">
      <acc value="0.0009575600" flag="0"/>
      <vel value="0.0004483746" flag="0"/>
      <psa03 value="0.0031081638" flag="0"/>
      <psa10 value="0.0003750721" flag="0"/>
      <psa30 value="0.0000573306" flag="0"/>
    </comp>
    <comp name="--.HNE">
      <acc value="0.0016122006" flag="0"/>
      <vel value="0.0011818690" flag="0"/>
      <psa03 value="0.0053079293" flag="0"/>
      <psa10 value="0.0018079881" flag="0"/>
      <psa30 value="0.0001929391" flag="0"/>
    </comp>
    <comp name="--.HNN">
      <acc value="0.0024802744" flag="0"/>
      <vel value="0.0012557641" flag="0"/>
      <psa03 value="0.0085043542" flag="0"/>
      <psa10 value="0.0012342043" flag="0"/>
      <psa30 value="0.0002327008" flag="0"/>
    </comp>
  </station>
</stationlist>
