<?xml version="1.0" encoding="UTF-8" standalone="yes"?>
<!DOCTYPE earthquake SYSTEM "stationlist.dtd">
<stationlist created="" xmlns="ch.ethz.sed.shakemap.usgs.xml">
  <station code="ZKR" name="ZKR" netid="GE" insttype="STS-2/N" lat="35.1147" lon="26.2169">
    <comp name="--.HHN">
      <acc value="0.0281939052" flag="0"/>
      <vel value="0.0099323204" flag="0"/>
      <psa03 value="0.0869388430" flag="0"/>
      <psa10 value="0.0071086870" flag="0"/>
      <psa30 value="0.0011967537" flag="0"/>
    </comp>
    <comp name="--.HHE">
      <acc value="0.0548061685" flag="0"/>
      <vel value="0.0239773892" flag="0"/>
      <psa03 value="0.1196263384" flag="0"/>
      <psa10 value="0.0199701544" flag="0"/>
      <psa30 value="0.0015590332" flag="0"/>
    </comp>
    <comp name="--.HHZ">
      <acc value="0.0406833846" flag="0"/>
      <vel value="0.0129657849" flag="0"/>
      <psa03 value="0.0573205451" flag="0"/>
      <psa10 value="0.0158944936" flag="0"/>
      <psa30 value="0.0023766483" flag="0"/>
    </comp>
  </station>
  <station code="PFKS" name="PFKS" netid="HC" insttype="120" lat="35.0429" lon="25.4733">
    <comp name="--.HHE">
      <acc value="0.0142990886" flag="0"/>
      <vel value="0.0082529248" flag="0"/>
      <psa03 value="0.0584006605" flag="0"/>
      <psa10 value="0.0058033000" flag="0"/>
      <psa30 value="0.0005176130" flag="0"/>
    </comp>
    <comp name="--.HHN">
      <acc value="0.0126955350" flag="0"/>
      <vel value="0.0080557401" flag="0"/>
      <psa03 value="0.0419697600" flag="0"/>
      <psa10 value="0.0076963548" flag="0"/>
      <psa30 value="0.0005897271" flag="0"/>
    </comp>
    <comp name="--.HHZ">
      <acc value="0.0096305822" flag="0"/>
      <vel value="0.0071956807" flag="0"/>
      <psa03 value="0.0219687157" flag="0"/>
      <psa10 value="0.0042432806" flag="0"/>
      <psa30 value="0.0006774478" flag="0"/>
    </comp>
  </station>
  <station code="SIT2" name="SIT2" netid="HI" insttype="CMG-5TD,ACCELEROMETER,GURALP" lat="35.2059" lon="26.107">
    <comp name="--.HNZ">
      <acc value="0.1071014599" flag="0"/>
      <vel value="0.0397920465" flag="0"/>
      <psa03 value="0.2118300844" flag="0"/>
      <psa10 value="0.0142100983" flag="0"/>
      <psa30 value="0.0014600327" flag="0"/>
    </comp>
    <comp name="--.HNN">
      <acc value="0.0995943976" flag="0"/>
      <vel value="0.0830530162" flag="0"/>
      <psa03 value="0.2839768049" flag="0"/>
      <psa10 value="0.0738192147" flag="0"/>
      <psa30 value="0.0038244938" flag="0"/>
    </comp>
    <comp name="--.HNE">
      <acc value="0.1424136647" flag="0"/>
      <vel value="0.0851829495" flag="0"/>
      <psa03 value="0.2892600552" flag="0"/>
      <psa10 value="0.0629185265" flag="0"/>
      <psa30 value="0.0033910860" flag="0"/>
    </comp>
  </station>
  <station code="NPS" name="NPS" netid="HL" insttype="CMG3ESPC-120s" lat="35.2613" lon="25.6104">
    <comp name="--.HHZ">
      <acc value="0.0088465477" flag="0"/>
      <vel value="0.0038323574" flag="0"/>
      <psa03 value="0.0253246774" flag="0"/>
      <psa10 value="0.0035698844" flag="0"/>
      <psa30 value="0.0005723446" flag="0"/>
    </comp>
    <comp name="--.HHE">
      <acc value="0.0045739129" flag="0"/>
      <vel value="0.0028494236" flag="0"/>
      <psa03 value="0.0176410254" flag="0"/>
      <psa10 value="0.0034170175" flag="0"/>
      <psa30 value="0.0002628924" flag="0"/>
    </comp>
    <comp name="--.HHN">
      <acc value="0.0088341298" flag="0"/>
      <vel value="0.0052076589" flag="0"/>
      <psa03 value="0.0188208602" flag="0"/>
      <psa10 value="0.0070536695" flag="0"/>
      <psa30 value="0.0004964748" flag="0"/>
    </comp>
  </station>
  <station code="ZKR" name="ZKR" netid="HL" insttype="120" lat="35.1147" lon="26.2169">
    <comp name="--.HHE">
      <acc value="0.0530830800" flag="0"/>
      <vel value="0.0234984276" flag="0"/>
      <psa03 value="0.1159101526" flag="0"/>
      <psa10 value="0.0198755751" flag="0"/>
      <psa30 value="0.0015464517" flag="0"/>
    </comp>
    <comp name="--.HHN">
      <acc value="0.0274811563" flag="0"/>
      <vel value="0.0097252053" flag="0"/>
      <psa03 value="0.0844146223" flag="0"/>
      <psa10 value="0.0070515101" flag="0"/>
      <psa30 value="0.0011973360" flag="0"/>
    </comp>
    <comp name="--.HHZ">
      <acc value="0.0406924702" flag="0"/>
      <vel value="0.0126241022" flag="0"/>
      <psa03 value="0.0557587965" flag="0"/>
      <psa10 value="0.0157811942" flag="0"/>
      <psa30 value="0.0023770044" flag="0"/>
    </comp>
  </station>
</stationlist>
