<?xml version="1.0" encoding="UTF-8" standalone="yes"?>
<!DOCTYPE earthquake SYSTEM "stationlist.dtd">
<stationlist created="" xmlns="ch.ethz.sed.shakemap.usgs.xml">
  <station code="ZKR" name="ZKR" netid="GE" insttype="STS-2/N" lat="35.1147" lon="26.2169">
    <comp name="--.HHN">
      <acc value="0.0281939050" flag="0"/>
      <vel value="0.0099323193" flag="0"/>
      <psa03 value="0.0869388430" flag="0"/>
      <psa10 value="0.0071086867" flag="0"/>
      <psa30 value="0.0011967206" flag="0"/>
    </comp>
    <comp name="--.HHZ">
      <acc value="0.0406833833" flag="0"/>
      <vel value="0.0129657828" flag="0"/>
      <psa03 value="0.0573205451" flag="0"/>
      <psa10 value="0.0158944951" flag="0"/>
      <psa30 value="0.0023768650" flag="0"/>
    </comp>
    <comp name="--.HHE">
      <acc value="0.0548061689" flag="0"/>
      <vel value="0.0239773909" flag="0"/>
      <psa03 value="0.1196263384" flag="0"/>
      <psa10 value="0.0199701544" flag="0"/>
      <psa30 value="0.0015587235" flag="0"/>
    </comp>
  </station>
  <station code="PFKS" name="PFKS" netid="HC" insttype="120" lat="35.0429" lon="25.4733">
    <comp name="--.HHE">
      <acc value="0.0142990886" flag="0"/>
      <vel value="0.0082529248" flag="0"/>
      <psa03 value="0.0584006605" flag="0"/>
      <psa10 value="0.0058033000" flag="0"/>
      <psa30 value="0.0005176126" flag="0"/>
    </comp>
    <comp name="--.HHZ">
      <acc value="0.0096305822" flag="0"/>
      <vel value="0.0071956807" flag="0"/>
      <psa03 value="0.0219687157" flag="0"/>
      <psa10 value="0.0042432806" flag="0"/>
      <psa30 value="0.0006774623" flag="0"/>
    </comp>
    <comp name="--.HHN">
      <acc value="0.0126955350" flag="0"/>
      <vel value="0.0080557401" flag="0"/>
      <psa03 value="0.0419697600" flag="0"/>
      <psa10 value="0.0076963548" flag="0"/>
      <psa30 value="0.0005897277" flag="0"/>
    </comp>
  </station>
  <station code="STIA" name="STIA" netid="HC" insttype="120" lat="35.2021" lon="26.0909">
    <comp name="--.HHN">
      <acc value="0.0535908547" flag="0"/>
      <vel value="0.0237999667" flag="0"/>
      <psa03 value="0.0954202353" flag="0"/>
      <psa10 value="0.0237623766" flag="0"/>
      <psa30 value="0.0029941928" flag="0"/>
    </comp>
    <comp name="--.HHE">
      <acc value="0.0440015828" flag="0"/>
      <vel value="0.0174406051" flag="0"/>
      <psa03 value="0.0734739259" flag="0"/>
      <psa10 value="0.0328015986" flag="0"/>
      <psa30 value="0.0022862761" flag="0"/>
    </comp>
    <comp name="--.HHZ">
      <acc value="0.0381752388" flag="0"/>
      <vel value="0.0137823573" flag="0"/>
      <psa03 value="0.0691719993" flag="0"/>
      <psa10 value="0.0109717108" flag="0"/>
      <psa30 value="0.0016477322" flag="0"/>
    </comp>
  </station>
  <station code="SIT2" name="SIT2" netid="HI" insttype="CMG-5TD,ACCELEROMETER,GURALP" lat="35.2059" lon="26.107">
    <comp name="--.HNE">
      <acc value="0.1424136642" flag="0"/>
      <vel value="0.0851829460" flag="0"/>
      <psa03 value="0.2892600552" flag="0"/>
      <psa10 value="0.0629185272" flag="0"/>
      <psa30 value="0.0033916850" flag="0"/>
    </comp>
    <comp name="--.HNN">
      <acc value="0.0995943947" flag="0"/>
      <vel value="0.0830530192" flag="0"/>
      <psa03 value="0.2839768049" flag="0"/>
      <psa10 value="0.0738192145" flag="0"/>
      <psa30 value="0.0038248150" flag="0"/>
    </comp>
    <comp name="--.HNZ">
      <acc value="0.1071014608" flag="0"/>
      <vel value="0.0397920448" flag="0"/>
      <psa03 value="0.2118300844" flag="0"/>
      <psa10 value="0.0142100981" flag="0"/>
      <psa30 value="0.0014598482" flag="0"/>
    </comp>
  </station>
  <station code="NPS" name="NPS" netid="HL" insttype="CMG3ESPC-120s" lat="35.2613" lon="25.6104">
    <comp name="--.HHE">
      <acc value="0.0045739127" flag="0"/>
      <vel value="0.0028494237" flag="0"/>
      <psa03 value="0.0176410254" flag="0"/>
      <psa10 value="0.0034170175" flag="0"/>
      <psa30 value="0.0002628911" flag="0"/>
    </comp>
    <comp name="--.HHN">
      <acc value="0.0088341299" flag="0"/>
      <vel value="0.0052076575" flag="0"/>
      <psa03 value="0.0188208602" flag="0"/>
      <psa10 value="0.0070536695" flag="0"/>
      <psa30 value="0.0004964711" flag="0"/>
    </comp>
    <comp name="--.HHZ">
      <acc value="0.0088465476" flag="0"/>
      <vel value="0.0038323563" flag="0"/>
      <psa03 value="0.0253246774" flag="0"/>
      <psa10 value="0.0035698844" flag="0"/>
      <psa30 value="0.0005723614" flag="0"/>
    </comp>
  </station>
  <station code="ZKR" name="ZKR" netid="HL" insttype="120" lat="35.1147" lon="26.2169">
    <comp name="--.HHZ">
      <acc value="0.0406924692" flag="0"/>
      <vel value="0.0126241014" flag="0"/>
      <psa03 value="0.0557587965" flag="0"/>
      <psa10 value="0.0157811943" flag="0"/>
      <psa30 value="0.0023770046" flag="0"/>
    </comp>
    <comp name="--.HHN">
      <acc value="0.0274811566" flag="0"/>
      <vel value="0.0097252040" flag="0"/>
      <psa03 value="0.0844146223" flag="0"/>
      <psa10 value="0.0070515101" flag="0"/>
      <psa30 value="0.0011973312" flag="0"/>
    </comp>
    <comp name="--.HHE">
      <acc value="0.0530830803" flag="0"/>
      <vel value="0.0234984270" flag="0"/>
      <psa03 value="0.1159101526" flag="0"/>
      <psa10 value="0.0198755751" flag="0"/>
      <psa30 value="0.0015463613" flag="0"/>
    </comp>
  </station>
</stationlist>
