<?xml version="1.0" encoding="UTF-8" standalone="yes"?>
<!DOCTYPE earthquake SYSTEM "stationlist.dtd">
<stationlist created="" xmlns="ch.ethz.sed.shakemap.usgs.xml">
  <station code="ZKR" name="ZKR" netid="GE" insttype="STS-2/N" lat="35.1147" lon="26.2169">
    <comp name="--.HHN">
      <acc value="0.0281939050" flag="0"/>
      <vel value="0.0099323193" flag="0"/>
      <psa03 value="0.0869388430" flag="0"/>
      <psa10 value="0.0071086867" flag="0"/>
      <psa30 value="0.0011967206" flag="0"/>
    </comp>
    <comp name="--.HHZ">
      <acc value="0.0406833833" flag="0"/>
      <vel value="0.0129657828" flag="0"/>
      <psa03 value="0.0573205451" flag="0"/>
      <psa10 value="0.0158944951" flag="0"/>
      <psa30 value="0.0023768650" flag="0"/>
    </comp>
    <comp name="--.HHE">
      <acc value="0.0548061689" flag="0"/>
      <vel value="0.0239773909" flag="0"/>
      <psa03 value="0.1196263384" flag="0"/>
      <psa10 value="0.0199701544" flag="0"/>
      <psa30 value="0.0015587235" flag="0"/>
    </comp>
  </station>
</stationlist>
