<?xml version="1.0" encoding="UTF-8" standalone="yes"?>
<!DOCTYPE earthquake SYSTEM "stationlist.dtd">
<stationlist created="" xmlns="ch.ethz.sed.shakemap.usgs.xml">
  <station code="ZKR" name="ZKR" netid="GE" insttype="STS-2/N" lat="35.1147" lon="26.2169">
    <comp name="--.HHE">
      <acc value="0.0548061686" flag="0"/>
      <vel value="0.0239773892" flag="0"/>
      <psa03 value="0.1196263384" flag="0"/>
      <psa10 value="0.0199701544" flag="0"/>
      <psa30 value="0.0015589653" flag="0"/>
    </comp>
    <comp name="--.HHN">
      <acc value="0.0281939052" flag="0"/>
      <vel value="0.0099323200" flag="0"/>
      <psa03 value="0.0869388430" flag="0"/>
      <psa10 value="0.0071086869" flag="0"/>
      <psa30 value="0.0011967548" flag="0"/>
    </comp>
    <comp name="--.HHZ">
      <acc value="0.0406833842" flag="0"/>
      <vel value="0.0129657849" flag="0"/>
      <psa03 value="0.0573205451" flag="0"/>
      <psa10 value="0.0158944936" flag="0"/>
      <psa30 value="0.0023766350" flag="0"/>
    </comp>
  </station>
  <station code="PFKS" name="PFKS" netid="HC" insttype="120" lat="35.0429" lon="25.4733">
    <comp name="--.HHN">
      <acc value="0.0126955350" flag="0"/>
      <vel value="0.0080557395" flag="0"/>
      <psa03 value="0.0419697600" flag="0"/>
      <psa10 value="0.0076963548" flag="0"/>
      <psa30 value="0.0005897248" flag="0"/>
    </comp>
    <comp name="--.HHZ">
      <acc value="0.0096305822" flag="0"/>
      <vel value="0.0071956803" flag="0"/>
      <psa03 value="0.0219687157" flag="0"/>
      <psa10 value="0.0042432806" flag="0"/>
      <psa30 value="0.0006770489" flag="0"/>
    </comp>
    <comp name="--.HHE">
      <acc value="0.0142990886" flag="0"/>
      <vel value="0.0082529254" flag="0"/>
      <psa03 value="0.0584006605" flag="0"/>
      <psa10 value="0.0058033000" flag="0"/>
      <psa30 value="0.0005176142" flag="0"/>
    </comp>
  </station>
  <station code="STIA" name="STIA" netid="HC" insttype="120" lat="35.2021" lon="26.0909">
    <comp name="--.HHZ">
      <acc value="0.0381752388" flag="0"/>
      <vel value="0.0137823575" flag="0"/>
      <psa03 value="0.0691719993" flag="0"/>
      <psa10 value="0.0109717107" flag="0"/>
      <psa30 value="0.0016477285" flag="0"/>
    </comp>
    <comp name="--.HHE">
      <acc value="0.0440015828" flag="0"/>
      <vel value="0.0174406053" flag="0"/>
      <psa03 value="0.0734739259" flag="0"/>
      <psa10 value="0.0328015985" flag="0"/>
      <psa30 value="0.0022862764" flag="0"/>
    </comp>
    <comp name="--.HHN">
      <acc value="0.0535908546" flag="0"/>
      <vel value="0.0237999670" flag="0"/>
      <psa03 value="0.0954202353" flag="0"/>
      <psa10 value="0.0237623763" flag="0"/>
      <psa30 value="0.0029941943" flag="0"/>
    </comp>
  </station>
  <station code="SIT2" name="SIT2" netid="HI" insttype="CMG-5TD,ACCELEROMETER,GURALP" lat="35.2059" lon="26.107">
    <comp name="--.HNE">
      <acc value="0.1424136645" flag="0"/>
      <vel value="0.0851829476" flag="0"/>
      <psa03 value="0.2892600552" flag="0"/>
      <psa10 value="0.0629185263" flag="0"/>
      <psa30 value="0.0033917109" flag="0"/>
    </comp>
    <comp name="--.HNN">
      <acc value="0.0995943962" flag="0"/>
      <vel value="0.0830530175" flag="0"/>
      <psa03 value="0.2839768049" flag="0"/>
      <psa10 value="0.0738192148" flag="0"/>
      <psa30 value="0.0038246774" flag="0"/>
    </comp>
    <comp name="--.HNZ">
      <acc value="0.1071014603" flag="0"/>
      <vel value="0.0397920454" flag="0"/>
      <psa03 value="0.2118300844" flag="0"/>
      <psa10 value="0.0142100982" flag="0"/>
      <psa30 value="0.0014599284" flag="0"/>
    </comp>
  </station>
  <station code="NPS" name="NPS" netid="HL" insttype="CMG3ESPC-120s" lat="35.2613" lon="25.6104">
    <comp name="--.HHE">
      <acc value="0.0045739128" flag="0"/>
      <vel value="0.0028494237" flag="0"/>
      <psa03 value="0.0176410254" flag="0"/>
      <psa10 value="0.0034170175" flag="0"/>
      <psa30 value="0.0002628922" flag="0"/>
    </comp>
    <comp name="--.HHN">
      <acc value="0.0088341298" flag="0"/>
      <vel value="0.0052076579" flag="0"/>
      <psa03 value="0.0188208602" flag="0"/>
      <psa10 value="0.0070536695" flag="0"/>
      <psa30 value="0.0004964737" flag="0"/>
    </comp>
    <comp name="--.HHZ">
      <acc value="0.0088465477" flag="0"/>
      <vel value="0.0038323579" flag="0"/>
      <psa03 value="0.0253246774" flag="0"/>
      <psa10 value="0.0035698844" flag="0"/>
      <psa30 value="0.0005723465" flag="0"/>
    </comp>
  </station>
  <station code="ZKR" name="ZKR" netid="HL" insttype="120" lat="35.1147" lon="26.2169">
    <comp name="--.HHZ">
      <acc value="0.0406924697" flag="0"/>
      <vel value="0.0126241023" flag="0"/>
      <psa03 value="0.0557587965" flag="0"/>
      <psa10 value="0.0157811942" flag="0"/>
      <psa30 value="0.0023769914" flag="0"/>
    </comp>
    <comp name="--.HHN">
      <acc value="0.0274811564" flag="0"/>
      <vel value="0.0097252049" flag="0"/>
      <psa03 value="0.0844146223" flag="0"/>
      <psa10 value="0.0070515101" flag="0"/>
      <psa30 value="0.0011973372" flag="0"/>
    </comp>
    <comp name="--.HHE">
      <acc value="0.0530830801" flag="0"/>
      <vel value="0.0234984276" flag="0"/>
      <psa03 value="0.1159101526" flag="0"/>
      <psa10 value="0.0198755751" flag="0"/>
      <psa30 value="0.0015463835" flag="0"/>
    </comp>
  </station>
</stationlist>
