<stationlist created="1778138768">
	<station code="KSS1" name="KSS1" netid="HI" source="ITSAK Strong Motion Network" insttype="" lat="35.4189" lon="26.9207">
		<comp name="--.HNE" depth="0.0">
			<acc value="0.0369178904208864" flag="0"/>
			<vel value="0.013522823020443" flag="0"/>
			<psa03 value="0.124536572853373" flag="0"/>
			<psa10 value="0.0117550946548232" flag="0"/>
			<psa30 value="0.00397339405118795" flag="0"/>
		</comp>
		<comp name="--.HNN" depth="0.0">
			<acc value="0.0362719304818498" flag="0"/>
			<vel value="0.0184384325566921" flag="0"/>
			<psa03 value="0.110351414406414" flag="0"/>
			<psa10 value="0.0117349961358869" flag="0"/>
			<psa30 value="0.0038744320787777" flag="0"/>
		</comp>
		<comp name="--.HNZ" depth="0.0">
			<acc value="0.0266284485911214" flag="0"/>
			<vel value="0.00934950510906045" flag="0"/>
			<psa03 value="0.0299379572010733" flag="0"/>
			<psa10 value="0.00816640223407983" flag="0"/>
			<psa30 value="0.00148636231837601" flag="0"/>
		</comp>
	</station>
	<station code="SIT2" name="SIT2" netid="HI" source="ITSAK Strong Motion Network" insttype="" lat="35.2059" lon="26.107">
		<comp name="--.HNE" depth="0.0">
			<acc value="0.142816756750446" flag="0"/>
			<vel value="0.0856322852058444" flag="0"/>
			<psa03 value="0.285370716909529" flag="0"/>
			<psa10 value="0.0630322705787041" flag="0"/>
			<psa30 value="0.00348787438789517" flag="0"/>
		</comp>
		<comp name="--.HNN" depth="0.0">
			<acc value="0.099600233678343" flag="0"/>
			<vel value="0.0835581281408245" flag="0"/>
			<psa03 value="0.286094994055972" flag="0"/>
			<psa10 value="0.0741844593565367" flag="0"/>
			<psa30 value="0.00430309797578772" flag="0"/>
		</comp>
		<comp name="--.HNZ" depth="0.0">
			<acc value="0.10664194056503" flag="0"/>
			<vel value="0.0399702216210683" flag="0"/>
			<psa03 value="0.216631746623552" flag="0"/>
			<psa10 value="0.0142685570968792" flag="0"/>
			<psa30 value="0.00160266179347619" flag="0"/>
		</comp>
	</station>
	<station code="KSTE" name="KSTE" netid="HL" source="National Observatory of Athens Seismic Network" insttype="" lat="35.1801" lon="25.3372">
		<comp name="--.HNE" depth="0.0">
			<acc value="0.00241932969301837" flag="0"/>
			<vel value="0.00276839811536678" flag="0"/>
			<psa03 value="0.00669591753003015" flag="0"/>
			<psa10 value="0.00533619802816276" flag="0"/>
			<psa30 value="0.000554907280718341" flag="0"/>
		</comp>
		<comp name="--.HNN" depth="0.0">
			<acc value="0.00422807125336608" flag="0"/>
			<vel value="0.00449640832825123" flag="0"/>
			<psa03 value="0.0131408874464054" flag="0"/>
			<psa10 value="0.00621947060316379" flag="0"/>
			<psa30 value="0.000783571543184368" flag="0"/>
		</comp>
		<comp name="--.HNZ" depth="0.0">
			<acc value="0.00297038833864319" flag="0"/>
			<vel value="0.00263436344485425" flag="0"/>
			<psa03 value="0.0100640644813501" flag="0"/>
			<psa10 value="0.00365845805801587" flag="0"/>
			<psa30 value="0.00114711817844859" flag="0"/>
		</comp>
	</station>
	<station code="DATC" name="DATC" netid="KO" source="Bogazici University Kandilli Observatory And Earthquake Research Institute (KOERI)" insttype="" lat="36.7584" lon="27.6602">
		<comp name="--.HNE" depth="0.0">
			<acc value="0.0418470271939245" flag="0"/>
			<vel value="0.00549787661844824" flag="0"/>
			<psa03 value="0.00939016176566169" flag="0"/>
			<psa10 value="0.00620601799324629" flag="0"/>
			<psa30 value="0.00113494018421793" flag="0"/>
		</comp>
		<comp name="--.HNN" depth="0.0">
			<acc value="0.0390954109415974" flag="0"/>
			<vel value="0.0041870243603447" flag="0"/>
			<psa03 value="0.00906673213692306" flag="0"/>
			<psa10 value="0.00460077243484011" flag="0"/>
			<psa30 value="0.00057796245384363" flag="0"/>
		</comp>
		<comp name="--.HNZ" depth="0.0">
			<acc value="0.0280310006294141" flag="0"/>
			<vel value="0.00506876980400558" flag="0"/>
			<psa03 value="0.00572681947786688" flag="0"/>
			<psa10 value="0.00674077623084903" flag="0"/>
			<psa30 value="0.000538974975281487" flag="0"/>
		</comp>
	</station>
</stationlist>
