<?xml version="1.0" encoding="UTF-8" standalone="yes"?>
<!DOCTYPE earthquake SYSTEM "stationlist.dtd">
<stationlist created="" xmlns="ch.ethz.sed.shakemap.usgs.xml">
  <station code="ZKR" name="ZKR" netid="GE" insttype="STS-2/N" lat="35.1147" lon="26.2169">
    <comp name="--.HHZ">
      <acc value="0.0406833833" flag="0"/>
      <vel value="0.0129657824" flag="0"/>
      <psa03 value="0.0573205451" flag="0"/>
      <psa10 value="0.0158944950" flag="0"/>
      <psa30 value="0.0023768410" flag="0"/>
    </comp>
    <comp name="--.HHN">
      <acc value="0.0281939050" flag="0"/>
      <vel value="0.0099323193" flag="0"/>
      <psa03 value="0.0869388430" flag="0"/>
      <psa10 value="0.0071086867" flag="0"/>
      <psa30 value="0.0011967235" flag="0"/>
    </comp>
    <comp name="--.HHE">
      <acc value="0.0548061689" flag="0"/>
      <vel value="0.0239773906" flag="0"/>
      <psa03 value="0.1196263384" flag="0"/>
      <psa10 value="0.0199701544" flag="0"/>
      <psa30 value="0.0015587646" flag="0"/>
    </comp>
  </station>
  <station code="PFKS" name="PFKS" netid="HC" insttype="120" lat="35.0429" lon="25.4733">
    <comp name="--.HHN">
      <acc value="0.0126955349" flag="0"/>
      <vel value="0.0080557417" flag="0"/>
      <psa03 value="0.0419697600" flag="0"/>
      <psa10 value="0.0076963548" flag="0"/>
      <psa30 value="0.0005897430" flag="0"/>
    </comp>
    <comp name="--.HHZ">
      <acc value="0.0096305818" flag="0"/>
      <vel value="0.0071956791" flag="0"/>
      <psa03 value="0.0219687157" flag="0"/>
      <psa10 value="0.0042432806" flag="0"/>
      <psa30 value="0.0006771193" flag="0"/>
    </comp>
    <comp name="--.HHE">
      <acc value="0.0142990887" flag="0"/>
      <vel value="0.0082529265" flag="0"/>
      <psa03 value="0.0584006605" flag="0"/>
      <psa10 value="0.0058033000" flag="0"/>
      <psa30 value="0.0005176080" flag="0"/>
    </comp>
  </station>
  <station code="STIA" name="STIA" netid="HC" insttype="120" lat="35.2021" lon="26.0909">
    <comp name="--.HHN">
      <acc value="0.0535908548" flag="0"/>
      <vel value="0.0237999670" flag="0"/>
      <psa03 value="0.0954202353" flag="0"/>
      <psa10 value="0.0237623776" flag="0"/>
      <psa30 value="0.0029941925" flag="0"/>
    </comp>
    <comp name="--.HHE">
      <acc value="0.0440015828" flag="0"/>
      <vel value="0.0174406072" flag="0"/>
      <psa03 value="0.0734739259" flag="0"/>
      <psa10 value="0.0328015989" flag="0"/>
      <psa30 value="0.0022862784" flag="0"/>
    </comp>
    <comp name="--.HHZ">
      <acc value="0.0381752389" flag="0"/>
      <vel value="0.0137823580" flag="0"/>
      <psa03 value="0.0691719993" flag="0"/>
      <psa10 value="0.0109717109" flag="0"/>
      <psa30 value="0.0016477311" flag="0"/>
    </comp>
  </station>
  <station code="SIT2" name="SIT2" netid="HI" insttype="CMG-5TD,ACCELEROMETER,GURALP" lat="35.2059" lon="26.107">
    <comp name="--.HNZ">
      <acc value="0.1071014619" flag="0"/>
      <vel value="0.0397920474" flag="0"/>
      <psa03 value="0.2118300844" flag="0"/>
      <psa10 value="0.0142100980" flag="0"/>
      <psa30 value="0.0014597695" flag="0"/>
    </comp>
    <comp name="--.HNN">
      <acc value="0.0995943925" flag="0"/>
      <vel value="0.0830530182" flag="0"/>
      <psa03 value="0.2839768049" flag="0"/>
      <psa10 value="0.0738192146" flag="0"/>
      <psa30 value="0.0038252215" flag="0"/>
    </comp>
    <comp name="--.HNE">
      <acc value="0.1424136652" flag="0"/>
      <vel value="0.0851829478" flag="0"/>
      <psa03 value="0.2892600552" flag="0"/>
      <psa10 value="0.0629185296" flag="0"/>
      <psa30 value="0.0033921261" flag="0"/>
    </comp>
  </station>
  <station code="NPS" name="NPS" netid="HL" insttype="CMG3ESPC-120s" lat="35.2613" lon="25.6104">
    <comp name="--.HHN">
      <acc value="0.0088341299" flag="0"/>
      <vel value="0.0052076599" flag="0"/>
      <psa03 value="0.0188208602" flag="0"/>
      <psa10 value="0.0070536695" flag="0"/>
      <psa30 value="0.0004964651" flag="0"/>
    </comp>
    <comp name="--.HHE">
      <acc value="0.0045739125" flag="0"/>
      <vel value="0.0028494222" flag="0"/>
      <psa03 value="0.0176410254" flag="0"/>
      <psa10 value="0.0034170175" flag="0"/>
      <psa30 value="0.0002628798" flag="0"/>
    </comp>
    <comp name="--.HHZ">
      <acc value="0.0088465475" flag="0"/>
      <vel value="0.0038323544" flag="0"/>
      <psa03 value="0.0253246774" flag="0"/>
      <psa10 value="0.0035698844" flag="0"/>
      <psa30 value="0.0005723796" flag="0"/>
    </comp>
  </station>
  <station code="ZKR" name="ZKR" netid="HL" insttype="120" lat="35.1147" lon="26.2169">
    <comp name="--.HHN">
      <acc value="0.0274811567" flag="0"/>
      <vel value="0.0097252042" flag="0"/>
      <psa03 value="0.0844146223" flag="0"/>
      <psa10 value="0.0070515101" flag="0"/>
      <psa30 value="0.0011973059" flag="0"/>
    </comp>
    <comp name="--.HHZ">
      <acc value="0.0406924686" flag="0"/>
      <vel value="0.0126240997" flag="0"/>
      <psa03 value="0.0557587965" flag="0"/>
      <psa10 value="0.0157811957" flag="0"/>
      <psa30 value="0.0023771989" flag="0"/>
    </comp>
    <comp name="--.HHE">
      <acc value="0.0530830805" flag="0"/>
      <vel value="0.0234984290" flag="0"/>
      <psa03 value="0.1159101526" flag="0"/>
      <psa10 value="0.0198755751" flag="0"/>
      <psa30 value="0.0015461801" flag="0"/>
    </comp>
  </station>
</stationlist>
