<?xml version="1.0" encoding="UTF-8" standalone="yes"?>
<!DOCTYPE earthquake SYSTEM "stationlist.dtd">
<stationlist created="" xmlns="ch.ethz.sed.shakemap.usgs.xml">
  <station code="GURO" name="GURO" netid="KO" insttype="CMG-3T" lat="38.5509" lon="42.0322">
    <comp name="--.HHE">
      <acc value="0.0309044377" flag="0"/>
      <vel value="0.0130854280" flag="0"/>
      <psa03 value="0.0950985593" flag="0"/>
      <psa10 value="0.0074561000" flag="0"/>
      <psa30 value="0.0004400481" flag="0"/>
    </comp>
    <comp name="--.HHN">
      <acc value="0.0278076767" flag="0"/>
      <vel value="0.0112685320" flag="0"/>
      <psa03 value="0.1039375447" flag="0"/>
      <psa10 value="0.0063765547" flag="0"/>
      <psa30 value="0.0004819828" flag="0"/>
    </comp>
    <comp name="--.HHZ">
      <acc value="0.0264915591" flag="0"/>
      <vel value="0.0101091341" flag="0"/>
      <psa03 value="0.0620482075" flag="0"/>
      <psa10 value="0.0059094827" flag="0"/>
      <psa30 value="0.0004385144" flag="0"/>
    </comp>
  </station>
  <station code="KARO" name="KARO" netid="KO" insttype="CMG-3T" lat="39.3089" lon="41.0493">
    <comp name="--.HHE">
      <acc value="0.1004171427" flag="0"/>
      <vel value="0.0749910685" flag="0"/>
      <psa03 value="0.2183248691" flag="0"/>
      <psa10 value="0.0693644875" flag="0"/>
      <psa30 value="0.0042306995" flag="0"/>
    </comp>
    <comp name="--.HHN">
      <acc value="0.1181840493" flag="0"/>
      <vel value="0.0587104254" flag="0"/>
      <psa03 value="0.2204673094" flag="0"/>
      <psa10 value="0.0608135265" flag="0"/>
      <psa30 value="0.0051339001" flag="0"/>
    </comp>
    <comp name="--.HHZ">
      <acc value="0.0865950169" flag="0"/>
      <vel value="0.0238596465" flag="0"/>
      <psa03 value="0.1523065353" flag="0"/>
      <psa10 value="0.0244928267" flag="0"/>
      <psa30 value="0.0033395717" flag="0"/>
    </comp>
  </station>
  <station code="SVAN" name="SVAN" netid="KO" insttype="CMG-3T" lat="38.1511" lon="41.1984">
    <comp name="--.HHE">
      <acc value="0.0202048074" flag="0"/>
      <vel value="0.0102303951" flag="0"/>
      <psa03 value="0.0578115273" flag="0"/>
      <psa10 value="0.0097177285" flag="0"/>
      <psa30 value="0.0013152450" flag="0"/>
    </comp>
    <comp name="--.HHN">
      <acc value="0.0147602073" flag="0"/>
      <vel value="0.0075909489" flag="0"/>
      <psa03 value="0.0481225392" flag="0"/>
      <psa10 value="0.0050653663" flag="0"/>
      <psa30 value="0.0005146377" flag="0"/>
    </comp>
    <comp name="--.HHZ">
      <acc value="0.0096164623" flag="0"/>
      <vel value="0.0065542584" flag="0"/>
      <psa03 value="0.0320602312" flag="0"/>
      <psa10 value="0.0077344369" flag="0"/>
      <psa30 value="0.0006180654" flag="0"/>
    </comp>
  </station>
  <station code="VRTB" name="VRTB" netid="KO" insttype="CMG-3ESPC" lat="39.1603" lon="41.4558">
    <comp name="--.HHE">
      <acc value="0.0269644951" flag="0"/>
      <vel value="0.0217435660" flag="0"/>
      <psa03 value="0.0423229900" flag="0"/>
      <psa10 value="0.0335844019" flag="0"/>
      <psa30 value="0.0038513627" flag="0"/>
    </comp>
    <comp name="--.HHZ">
      <acc value="0.0642526542" flag="0"/>
      <vel value="0.0584521026" flag="0"/>
      <psa03 value="0.1792199230" flag="0"/>
      <psa10 value="0.1248610661" flag="0"/>
      <psa30 value="0.0076522307" flag="0"/>
    </comp>
    <comp name="--.HHN">
      <acc value="0.0633731045" flag="0"/>
      <vel value="0.0576351359" flag="0"/>
      <psa03 value="0.1933339247" flag="0"/>
      <psa10 value="0.1137978792" flag="0"/>
      <psa30 value="0.0097140738" flag="0"/>
    </comp>
  </station>
</stationlist>
