<?xml version="1.0" encoding="UTF-8" standalone="yes"?>
<!DOCTYPE earthquake SYSTEM "stationlist.dtd">
<stationlist created="" xmlns="ch.ethz.sed.shakemap.usgs.xml">
  <station code="GURO" name="GURO" netid="KO" insttype="CMG-3T" lat="38.5509" lon="42.0322">
    <comp name="--.HHE">
      <acc value="0.0309044378" flag="0"/>
      <vel value="0.0130854279" flag="0"/>
      <psa03 value="0.0950985593" flag="0"/>
      <psa10 value="0.0074561000" flag="0"/>
      <psa30 value="0.0004400664" flag="0"/>
    </comp>
    <comp name="--.HHN">
      <acc value="0.0278076770" flag="0"/>
      <vel value="0.0112685322" flag="0"/>
      <psa03 value="0.1039375447" flag="0"/>
      <psa10 value="0.0063765547" flag="0"/>
      <psa30 value="0.0004820189" flag="0"/>
    </comp>
    <comp name="--.HHZ">
      <acc value="0.0264915590" flag="0"/>
      <vel value="0.0101091342" flag="0"/>
      <psa03 value="0.0620482075" flag="0"/>
      <psa10 value="0.0059094827" flag="0"/>
      <psa30 value="0.0004385204" flag="0"/>
    </comp>
  </station>
  <station code="KARO" name="KARO" netid="KO" insttype="CMG-3T" lat="39.3089" lon="41.0493">
    <comp name="--.HHE">
      <acc value="0.1004171431" flag="0"/>
      <vel value="0.0749910687" flag="0"/>
      <psa03 value="0.2183248691" flag="0"/>
      <psa10 value="0.0693644874" flag="0"/>
      <psa30 value="0.0042306702" flag="0"/>
    </comp>
    <comp name="--.HHZ">
      <acc value="0.0865950150" flag="0"/>
      <vel value="0.0238596461" flag="0"/>
      <psa03 value="0.1523065353" flag="0"/>
      <psa10 value="0.0244928267" flag="0"/>
      <psa30 value="0.0033395649" flag="0"/>
    </comp>
    <comp name="--.HHN">
      <acc value="0.1181840495" flag="0"/>
      <vel value="0.0587104248" flag="0"/>
      <psa03 value="0.2204673094" flag="0"/>
      <psa10 value="0.0608135264" flag="0"/>
      <psa30 value="0.0051340195" flag="0"/>
    </comp>
  </station>
  <station code="SVAN" name="SVAN" netid="KO" insttype="CMG-3T" lat="38.1511" lon="41.1984">
    <comp name="--.HHE">
      <acc value="0.0202048074" flag="0"/>
      <vel value="0.0102303955" flag="0"/>
      <psa03 value="0.0578115273" flag="0"/>
      <psa10 value="0.0097177285" flag="0"/>
      <psa30 value="0.0013152193" flag="0"/>
    </comp>
    <comp name="--.HHN">
      <acc value="0.0147602071" flag="0"/>
      <vel value="0.0075909491" flag="0"/>
      <psa03 value="0.0481225392" flag="0"/>
      <psa10 value="0.0050653663" flag="0"/>
      <psa30 value="0.0005146480" flag="0"/>
    </comp>
    <comp name="--.HHZ">
      <acc value="0.0096164623" flag="0"/>
      <vel value="0.0065542582" flag="0"/>
      <psa03 value="0.0320602312" flag="0"/>
      <psa10 value="0.0077344369" flag="0"/>
      <psa30 value="0.0006180686" flag="0"/>
    </comp>
  </station>
  <station code="VRTB" name="VRTB" netid="KO" insttype="CMG-3ESPC" lat="39.1603" lon="41.4558">
    <comp name="--.HHE">
      <acc value="0.0269644949" flag="0"/>
      <vel value="0.0217435670" flag="0"/>
      <psa03 value="0.0423229900" flag="0"/>
      <psa10 value="0.0335844020" flag="0"/>
      <psa30 value="0.0038513644" flag="0"/>
    </comp>
    <comp name="--.HHN">
      <acc value="0.0633731045" flag="0"/>
      <vel value="0.0576351331" flag="0"/>
      <psa03 value="0.1933339247" flag="0"/>
      <psa10 value="0.1137978791" flag="0"/>
      <psa30 value="0.0097140370" flag="0"/>
    </comp>
    <comp name="--.HHZ">
      <acc value="0.0642526539" flag="0"/>
      <vel value="0.0584521027" flag="0"/>
      <psa03 value="0.1792199231" flag="0"/>
      <psa10 value="0.1248610661" flag="0"/>
      <psa30 value="0.0076523633" flag="0"/>
    </comp>
  </station>
</stationlist>
