<stationlist created="1778069885">
	<station code="MMAA" name="MMAA" netid="EG" source="EUROSEISTEST Strong Motion Network" insttype="" lat="40.630855" lon="22.943725">
		<comp name="--.EN1" depth="0.0">
			<acc value="0.124866740009497" flag="0"/>
			<vel value="0.0904728107467847" flag="0"/>
			<psa03 value="0.368811098591799" flag="0"/>
			<psa10 value="0.163535313411916" flag="0"/>
			<psa30 value="0.00592826146824651" flag="0"/>
		</comp>
		<comp name="--.EN2" depth="0.0">
			<acc value="0.128653278100878" flag="0"/>
			<vel value="0.102095427820003" flag="0"/>
			<psa03 value="0.381907049467816" flag="0"/>
			<psa10 value="0.142747821342509" flag="0"/>
			<psa30 value="0.00676856088394498" flag="0"/>
		</comp>
		<comp name="--.EN3" depth="0.0">
			<acc value="0.0971783759066585" flag="0"/>
			<vel value="0.0425266442941519" flag="0"/>
			<psa03 value="0.189474635098091" flag="0"/>
			<psa10 value="0.0411825318906403" flag="0"/>
			<psa30 value="0.00451118967750859" flag="0"/>
		</comp>
	</station>
	<station code="SHTA" name="SHTA" netid="EG" source="EUROSEISTEST Strong Motion Network" insttype="" lat="40.613764" lon="22.952972">
		<comp name="--.EN1" depth="0.0">
			<acc value="0.091404217423886" flag="0"/>
			<vel value="0.0738393550910377" flag="0"/>
			<psa03 value="0.196751637997071" flag="0"/>
			<psa10 value="0.139993113856891" flag="0"/>
			<psa30 value="0.0098341747991415" flag="0"/>
		</comp>
		<comp name="--.EN2" depth="0.0">
			<acc value="0.102421924066756" flag="0"/>
			<vel value="0.0611115473223387" flag="0"/>
			<psa03 value="0.247798415428849" flag="0"/>
			<psa10 value="0.134857223629307" flag="0"/>
			<psa30 value="0.00743440665961759" flag="0"/>
		</comp>
		<comp name="--.EN3" depth="0.0">
			<acc value="0.0869364281346916" flag="0"/>
			<vel value="0.0295680076428761" flag="0"/>
			<psa03 value="0.0653340572271197" flag="0"/>
			<psa10 value="0.0621986541055157" flag="0"/>
			<psa30 value="0.00441488663123977" flag="0"/>
		</comp>
	</station>
	<station code="STC" name="STC" netid="EG" source="EUROSEISTEST Strong Motion Network" insttype="" lat="40.64865" lon="23.304856">
		<comp name="--.EN1" depth="0.0">
			<acc value="0.185771014024679" flag="0"/>
			<vel value="0.17447002417788" flag="0"/>
			<psa03 value="0.41442945391744" flag="0"/>
			<psa10 value="0.225415642680199" flag="0"/>
			<psa30 value="0.0140642916903155" flag="0"/>
		</comp>
		<comp name="--.EN2" depth="0.0">
			<acc value="0.224807177187952" flag="0"/>
			<vel value="0.149671903371701" flag="0"/>
			<psa03 value="0.42192257529973" flag="0"/>
			<psa10 value="0.1832556197856" flag="0"/>
			<psa30 value="0.00984524886610293" flag="0"/>
		</comp>
		<comp name="--.EN3" depth="0.0">
			<acc value="0.080256680741851" flag="0"/>
			<vel value="0.0711180500100852" flag="0"/>
			<psa03 value="0.313097824527402" flag="0"/>
			<psa10 value="0.118333193993336" flag="0"/>
			<psa30 value="0.00710065205002113" flag="0"/>
		</comp>
	</station>
	<station code="LMN1" name="LMN1" netid="HI" source="ITSAK Strong Motion Network" insttype="" lat="39.875" lon="25.0588">
		<comp name="--.HNE" depth="0.0">
			<acc value="0.312449758411637" flag="0"/>
			<vel value="0.120038340112856" flag="0"/>
			<psa03 value="0.88567198000869" flag="0"/>
			<psa10 value="0.0366035992344081" flag="0"/>
			<psa30 value="0.00382143186726659" flag="0"/>
		</comp>
		<comp name="--.HNN" depth="0.0">
			<acc value="0.314985560736747" flag="0"/>
			<vel value="0.106637919828285" flag="0"/>
			<psa03 value="0.516146095548383" flag="0"/>
			<psa10 value="0.0305634013409414" flag="0"/>
			<psa30 value="0.0032903418747077" flag="0"/>
		</comp>
		<comp name="--.HNZ" depth="0.0">
			<acc value="0.325511378237564" flag="0"/>
			<vel value="0.0716163227838391" flag="0"/>
			<psa03 value="0.199013335038073" flag="0"/>
			<psa10 value="0.0170534920525543" flag="0"/>
			<psa30 value="0.0016957296308325" flag="0"/>
		</comp>
	</station>
	<station code="MYT1" name="MYT1" netid="HI" source="ITSAK Strong Motion Network" insttype="" lat="39.085" lon="26.5694">
		<comp name="--.HNE" depth="0.0">
			<acc value="0.00773063391101476" flag="0"/>
			<vel value="0.00801281991344241" flag="0"/>
			<psa03 value="0.0339593348232683" flag="0"/>
			<psa10 value="0.0181528080691652" flag="0"/>
			<psa30 value="0.00157537309502935" flag="0"/>
		</comp>
		<comp name="--.HNN" depth="0.0">
			<acc value="0.00860214450623169" flag="0"/>
			<vel value="0.0101673254721409" flag="0"/>
			<psa03 value="0.0253240889459418" flag="0"/>
			<psa10 value="0.0177581818067921" flag="0"/>
			<psa30 value="0.00366125476757318" flag="0"/>
		</comp>
		<comp name="--.HNZ" depth="0.0">
			<acc value="0.0068310984851091" flag="0"/>
			<vel value="0.00893113114989299" flag="0"/>
			<psa03 value="0.0334671705504673" flag="0"/>
			<psa10 value="0.0112065804916785" flag="0"/>
			<psa30 value="0.00191362417706348" flag="0"/>
		</comp>
	</station>
	<station code="SFL1" name="SFL1" netid="HI" source="ITSAK Strong Motion Network" insttype="" lat="41.189954" lon="26.304374">
		<comp name="--.HNE" depth="0.0">
			<acc value="0.111889133630316" flag="0"/>
			<vel value="0.0900295408577455" flag="0"/>
			<psa03 value="0.348854985002665" flag="0"/>
			<psa10 value="0.104133011683366" flag="0"/>
			<psa30 value="0.00480039134807438" flag="0"/>
		</comp>
		<comp name="--.HNN" depth="0.0">
			<acc value="0.107065227307277" flag="0"/>
			<vel value="0.0736800465220123" flag="0"/>
			<psa03 value="0.282860230240714" flag="0"/>
			<psa10 value="0.119720749047105" flag="0"/>
			<psa30 value="0.00575832199177157" flag="0"/>
		</comp>
		<comp name="--.HNZ" depth="0.0">
			<acc value="0.0566942419379513" flag="0"/>
			<vel value="0.0453368185438832" flag="0"/>
			<psa03 value="0.149438970105028" flag="0"/>
			<psa10 value="0.0316224493715959" flag="0"/>
			<psa30 value="0.00208588167254383" flag="0"/>
		</comp>
	</station>
	<station code="SKO1" name="SKO1" netid="HI" source="ITSAK Strong Motion Network" insttype="" lat="39.123383" lon="23.728705">
		<comp name="--.HNE" depth="0.0">
			<acc value="0.0339191228530271" flag="0"/>
			<vel value="0.016297445868064" flag="0"/>
			<psa03 value="0.0814755582518729" flag="0"/>
			<psa10 value="0.0149917711715843" flag="0"/>
			<psa30 value="0.00432254458139123" flag="0"/>
		</comp>
		<comp name="--.HNN" depth="0.0">
			<acc value="0.0260368393829402" flag="0"/>
			<vel value="0.0155803241272588" flag="0"/>
			<psa03 value="0.0743615473995677" flag="0"/>
			<psa10 value="0.0143112422089204" flag="0"/>
			<psa30 value="0.00322188629858175" flag="0"/>
		</comp>
		<comp name="--.HNZ" depth="0.0">
			<acc value="0.0224483081949043" flag="0"/>
			<vel value="0.0122572052687459" flag="0"/>
			<psa03 value="0.075569586978261" flag="0"/>
			<psa10 value="0.0144481533611723" flag="0"/>
			<psa30 value="0.0011261613405819" flag="0"/>
		</comp>
	</station>
	<station code="SKY1" name="SKY1" netid="HI" source="ITSAK Strong Motion Network" insttype="" lat="38.904483" lon="24.564572">
		<comp name="--.HNE" depth="0.0">
			<acc value="0.0606217615014154" flag="0"/>
			<vel value="0.0439251230291656" flag="0"/>
			<psa03 value="0.229080097885551" flag="0"/>
			<psa10 value="0.031485538219344" flag="0"/>
			<psa30 value="0.00359100950318249" flag="0"/>
		</comp>
		<comp name="--.HNN" depth="0.0">
			<acc value="0.127527792049651" flag="0"/>
			<vel value="0.0814196584799721" flag="0"/>
			<psa03 value="0.333776861372307" flag="0"/>
			<psa10 value="0.0462598622667635" flag="0"/>
			<psa30 value="0.00450017114166577" flag="0"/>
		</comp>
		<comp name="--.HNZ" depth="0.0">
			<acc value="0.0474953037317022" flag="0"/>
			<vel value="0.0267283316678394" flag="0"/>
			<psa03 value="0.159058544527956" flag="0"/>
			<psa10 value="0.014983717574393" flag="0"/>
			<psa30 value="0.00266305613791953" flag="0"/>
		</comp>
	</station>
	<station code="THS1" name="THS1" netid="HI" source="ITSAK Strong Motion Network" insttype="" lat="40.738476" lon="24.575145">
		<comp name="--.HNE" depth="0.0">
			<acc value="0.375719285721238" flag="0"/>
			<vel value="0.0911796977996116" flag="0"/>
			<psa03 value="0.382008960106804" flag="0"/>
			<psa10 value="0.0632891935277439" flag="0"/>
			<psa30 value="0.00455072983514442" flag="0"/>
		</comp>
		<comp name="--.HNN" depth="0.0">
			<acc value="0.374059366029863" flag="0"/>
			<vel value="0.117655395220488" flag="0"/>
			<psa03 value="0.679813087358021" flag="0"/>
			<psa10 value="0.0736581999115284" flag="0"/>
			<psa30 value="0.00573505604433007" flag="0"/>
		</comp>
		<comp name="--.HNZ" depth="0.0">
			<acc value="0.200829689370758" flag="0"/>
			<vel value="0.0619317387924631" flag="0"/>
			<psa03 value="0.388228126826744" flag="0"/>
			<psa10 value="0.0269151218132876" flag="0"/>
			<psa30 value="0.00238878641134953" flag="0"/>
		</comp>
	</station>
	<station code="EFSA" name="EFSA" netid="HL" source="National Observatory of Athens Seismic Network" insttype="" lat="39.54015" lon="24.98864">
		<comp name="00.HNE" depth="0.0">
			<acc value="0.185175888839423" flag="0"/>
			<vel value="0.104402471581009" flag="0"/>
			<psa03 value="0.72567384914175" flag="0"/>
			<psa10 value="0.102506185050725" flag="0"/>
			<psa30 value="0.0115587016577643" flag="0"/>
		</comp>
		<comp name="00.HNN" depth="0.0">
			<acc value="0.0920852723745819" flag="0"/>
			<vel value="0.046416183419302" flag="0"/>
			<psa03 value="0.429167245882463" flag="0"/>
			<psa10 value="0.035359318468354" flag="0"/>
			<psa30 value="0.0058844950144351" flag="0"/>
		</comp>
		<comp name="00.HNZ" depth="0.0">
			<acc value="0.0734414849246839" flag="0"/>
			<vel value="0.0347986786232208" flag="0"/>
			<psa03 value="0.263934276841185" flag="0"/>
			<psa10 value="0.031904325273291" flag="0"/>
			<psa30 value="0.00327512952445749" flag="0"/>
		</comp>
	</station>
	<station code="KYMI" name="KYMI" netid="HL" source="National Observatory of Athens Seismic Network" insttype="" lat="38.633147" lon="24.100138">
		<comp name="--.HNE" depth="1.0">
			<acc value="0.0264397866509392" flag="0"/>
			<vel value="0.016180401116863" flag="0"/>
			<psa03 value="0.0754801025650245" flag="0"/>
			<psa10 value="0.0121810657518245" flag="0"/>
			<psa30 value="0.00180221608258399" flag="0"/>
		</comp>
		<comp name="--.HNN" depth="1.0">
			<acc value="0.015704727871756" flag="0"/>
			<vel value="0.0114054927108767" flag="0"/>
			<psa03 value="0.0587465172897908" flag="0"/>
			<psa10 value="0.00804151679550198" flag="0"/>
			<psa30 value="0.00178700373233377" flag="0"/>
		</comp>
		<comp name="--.HNZ" depth="1.0">
			<acc value="0.010566380406141" flag="0"/>
			<vel value="0.00690990478611384" flag="0"/>
			<psa03 value="0.0378519067990579" flag="0"/>
			<psa10 value="0.00861734899467914" flag="0"/>
			<psa30 value="0.00202413742741061" flag="0"/>
		</comp>
	</station>
	<station code="LIA" name="LIA" netid="HL" source="National Observatory of Athens Seismic Network" insttype="" lat="39.89725" lon="25.18055">
		<comp name="00.HNE" depth="0.0">
			<acc value="0.125206233098244" flag="0"/>
			<vel value="0.0675771437675028" flag="0"/>
			<psa03 value="0.207603838708781" flag="0"/>
			<psa10 value="0.035359318468354" flag="0"/>
			<psa30 value="0.00278475493992123" flag="0"/>
		</comp>
		<comp name="00.HNN" depth="0.0">
			<acc value="0.210824818608903" flag="0"/>
			<vel value="0.0889555270672413" flag="0"/>
			<psa03 value="0.532879680823617" flag="0"/>
			<psa10 value="0.0430424501888436" flag="0"/>
			<psa30 value="0.00319772550700788" flag="0"/>
		</comp>
		<comp name="00.HNZ" depth="0.0">
			<acc value="0.0782350694520561" flag="0"/>
			<vel value="0.0409903814784509" flag="0"/>
			<psa03 value="0.202950649220481" flag="0"/>
			<psa10 value="0.0256909750402116" flag="0"/>
			<psa30 value="0.00196418287054213" flag="0"/>
		</comp>
	</station>
	<station code="PRK" name="PRK" netid="HL" source="National Observatory of Athens Seismic Network" insttype="" lat="39.24565" lon="26.26499">
		<comp name="--.HNE" depth="0.0">
			<acc value="0.0246341725634937" flag="0"/>
			<vel value="0.0171369405024458" flag="0"/>
			<psa03 value="0.10174377784995" flag="0"/>
			<psa10 value="0.0289406015068967" flag="0"/>
			<psa30 value="0.00157045145230134" flag="0"/>
		</comp>
		<comp name="--.HNN" depth="0.0">
			<acc value="0.016933092957373" flag="0"/>
			<vel value="0.015930934890033" flag="0"/>
			<psa03 value="0.0540933278014906" flag="0"/>
			<psa10 value="0.0242977027261187" flag="0"/>
			<psa30 value="0.00332837275033324" flag="0"/>
		</comp>
		<comp name="--.HNZ" depth="0.0">
			<acc value="0.0227124643298323" flag="0"/>
			<vel value="0.0116849387563403" flag="0"/>
			<psa03 value="0.0512298265779212" flag="0"/>
			<psa10 value="0.0136387668434478" flag="0"/>
			<psa30 value="0.00110155312694185" flag="0"/>
		</comp>
	</station>
	<station code="SMTH" name="SMTH" netid="HL" source="National Observatory of Athens Seismic Network" insttype="" lat="40.47094" lon="25.53045">
		<comp name="00.HNE" depth="0.0">
			<acc value="0.0669824370333469" flag="0"/>
			<vel value="0.0381477201036143" flag="0"/>
			<psa03 value="0.0957930643697198" flag="0"/>
			<psa10 value="0.0155917641623353" flag="0"/>
			<psa30 value="0.00247021722739478" flag="0"/>
		</comp>
		<comp name="00.HNN" depth="0.0">
			<acc value="0.0640466653203961" flag="0"/>
			<vel value="0.0302632815896825" flag="0"/>
			<psa03 value="0.190601800193838" flag="0"/>
			<psa10 value="0.0387297488929084" flag="0"/>
			<psa30 value="0.00336416651562785" flag="0"/>
		</comp>
		<comp name="00.HNZ" depth="0.0">
			<acc value="0.036520143480518" flag="0"/>
			<vel value="0.022308947631384" flag="0"/>
			<psa03 value="0.0604467211412851" flag="0"/>
			<psa10 value="0.0298506579895124" flag="0"/>
			<psa30 value="0.00208051260774964" flag="0"/>
		</comp>
	</station>
	<station code="ENZZ" name="ENZZ" netid="KO" source="Bogazici University Kandilli Observatory And Earthquake Research Institute (KOERI)" insttype="" lat="40.607" lon="26.1406">
		<comp name="--.HNE" depth="0.0">
			<acc value="0.471422911416928" flag="0"/>
			<vel value="0.263310345543623" flag="0"/>
			<psa03 value="1.05162082435586" flag="0"/>
			<psa10 value="0.361232021619477" flag="0"/>
			<psa30 value="0.0484853396239564" flag="0"/>
		</comp>
		<comp name="--.HNN" depth="0.0">
			<acc value="0.625527583013166" flag="0"/>
			<vel value="0.362215065599569" flag="0"/>
			<psa03 value="1.40119168466442" flag="0"/>
			<psa10 value="0.377955316187189" flag="0"/>
			<psa30 value="0.0441381868289251" flag="0"/>
		</comp>
		<comp name="--.HNZ" depth="0.0">
			<acc value="0.185361969210986" flag="0"/>
			<vel value="0.108066580632472" flag="0"/>
			<psa03 value="0.668493309083598" flag="0"/>
			<psa10 value="0.167973876618713" flag="0"/>
			<psa30 value="0.0218149576808708" flag="0"/>
		</comp>
	</station>
</stationlist>
