<?xml version="1.0" encoding="UTF-8" standalone="yes"?>
<!DOCTYPE earthquake SYSTEM "stationlist.dtd">
<stationlist created="" xmlns="ch.ethz.sed.shakemap.usgs.xml">
  <station code="LMN1" name="LMN1" netid="HI" insttype="CMG-5TD,ACCELEROMETER,GURALP" lat="39.875" lon="25.0588">
    <comp name="--.HNE">
      <acc value="0.3156317474" flag="0"/>
      <vel value="0.1202747214" flag="0"/>
      <psa03 value="0.8874159918" flag="0"/>
      <psa10 value="0.0364236746" flag="0"/>
      <psa30 value="0.0037797732" flag="0"/>
    </comp>
    <comp name="--.HNN">
      <acc value="0.3126577090" flag="0"/>
      <vel value="0.1059951123" flag="0"/>
      <psa03 value="0.5217391341" flag="0"/>
      <psa10 value="0.0304251217" flag="0"/>
      <psa30 value="0.0031671829" flag="0"/>
    </comp>
    <comp name="--.HNZ">
      <acc value="0.3250804499" flag="0"/>
      <vel value="0.0672907303" flag="0"/>
      <psa03 value="0.1974693067" flag="0"/>
      <psa10 value="0.0171250170" flag="0"/>
      <psa30 value="0.0015791901" flag="0"/>
    </comp>
  </station>
  <station code="SKO1" name="SKO1" netid="HI" insttype="CMG-5TD,ACCELEROMETER,GURALP" lat="39.1234" lon="23.7287">
    <comp name="--.HNZ">
      <acc value="0.0224164981" flag="0"/>
      <vel value="0.0120170420" flag="0"/>
      <psa03 value="0.0752694249" flag="0"/>
      <psa10 value="0.0144440071" flag="0"/>
      <psa30 value="0.0011039338" flag="0"/>
    </comp>
    <comp name="--.HNN">
      <acc value="0.0259524667" flag="0"/>
      <vel value="0.0154027916" flag="0"/>
      <psa03 value="0.0751738685" flag="0"/>
      <psa10 value="0.0141932458" flag="0"/>
      <psa30 value="0.0028411729" flag="0"/>
    </comp>
    <comp name="--.HNE">
      <acc value="0.0339564085" flag="0"/>
      <vel value="0.0159270194" flag="0"/>
      <psa03 value="0.0817341278" flag="0"/>
      <psa10 value="0.0150481614" flag="0"/>
      <psa30 value="0.0036569229" flag="0"/>
    </comp>
  </station>
  <station code="THS1" name="THS1" netid="HI" insttype="CMG-5TD,ACCELEROMETER,GURALP" lat="40.7385" lon="24.5751">
    <comp name="--.HNN">
      <acc value="0.3725151825" flag="0"/>
      <vel value="0.1168930986" flag="0"/>
      <psa03 value="0.6824029973" flag="0"/>
      <psa10 value="0.0734298405" flag="0"/>
      <psa30 value="0.0055580331" flag="0"/>
    </comp>
    <comp name="--.HNE">
      <acc value="0.3800402160" flag="0"/>
      <vel value="0.0903749744" flag="0"/>
      <psa03 value="0.3793260541" flag="0"/>
      <psa10 value="0.0630605596" flag="0"/>
      <psa30 value="0.0043849588" flag="0"/>
    </comp>
    <comp name="--.HNZ">
      <acc value="0.1998034977" flag="0"/>
      <vel value="0.0610066816" flag="0"/>
      <psa03 value="0.3812631317" flag="0"/>
      <psa10 value="0.0267598347" flag="0"/>
      <psa30 value="0.0022929598" flag="0"/>
    </comp>
  </station>
  <station code="EFSA" name="EFSA" netid="HL" insttype="CMG-5" lat="39.5401" lon="24.9886">
    <comp name="00.HNE">
      <acc value="0.1848034110" flag="0"/>
      <vel value="0.1014394412" flag="0"/>
      <psa03 value="0.7246596457" flag="0"/>
      <psa10 value="0.1020205132" flag="0"/>
      <psa30 value="0.0111050868" flag="0"/>
    </comp>
    <comp name="00.HNN">
      <acc value="0.0917692553" flag="0"/>
      <vel value="0.0461921198" flag="0"/>
      <psa03 value="0.4288966560" flag="0"/>
      <psa10 value="0.0351484345" flag="0"/>
      <psa30 value="0.0051463070" flag="0"/>
    </comp>
    <comp name="00.HNZ">
      <acc value="0.0737048472" flag="0"/>
      <vel value="0.0340048492" flag="0"/>
      <psa03 value="0.2643597104" flag="0"/>
      <psa10 value="0.0318734904" flag="0"/>
      <psa30 value="0.0028999498" flag="0"/>
    </comp>
  </station>
  <station code="KYMI" name="KYMI" netid="HL" insttype="60" lat="38.6331" lon="24.1001">
    <comp name="--.HHN">
      <acc value="0.0157235214" flag="0"/>
      <vel value="0.0108998927" flag="0"/>
      <psa03 value="0.0588321291" flag="0"/>
      <psa10 value="0.0080848362" flag="0"/>
      <psa30 value="0.0015707944" flag="0"/>
    </comp>
    <comp name="--.HHZ">
      <acc value="0.0094764442" flag="0"/>
      <vel value="0.0052262621" flag="0"/>
      <psa03 value="0.0384625935" flag="0"/>
      <psa10 value="0.0086764380" flag="0"/>
      <psa30 value="0.0006444197" flag="0"/>
    </comp>
    <comp name="--.HHE">
      <acc value="0.0268419777" flag="0"/>
      <vel value="0.0164384727" flag="0"/>
      <psa03 value="0.0773642836" flag="0"/>
      <psa10 value="0.0119902306" flag="0"/>
      <psa30 value="0.0015345334" flag="0"/>
    </comp>
  </station>
  <station code="LIA" name="LIA" netid="HL" insttype="P6C" lat="39.8972" lon="25.1806">
    <comp name="--.HHZ">
      <acc value="0.0832315280" flag="0"/>
      <vel value="0.0416329869" flag="0"/>
      <psa03 value="0.2084171361" flag="0"/>
      <psa10 value="0.0256692880" flag="0"/>
      <psa30 value="0.0018466424" flag="0"/>
    </comp>
    <comp name="--.HHN">
      <acc value="0.1693023741" flag="0"/>
      <vel value="0.0782201724" flag="0"/>
      <psa03 value="0.5254376178" flag="0"/>
      <psa10 value="0.0406167659" flag="0"/>
      <psa30 value="0.0028011503" flag="0"/>
    </comp>
    <comp name="--.HHE">
      <acc value="0.1734949850" flag="0"/>
      <vel value="0.0819998556" flag="0"/>
      <psa03 value="0.2714281054" flag="0"/>
      <psa10 value="0.0325344892" flag="0"/>
      <psa30 value="0.0028748875" flag="0"/>
    </comp>
  </station>
  <station code="PLG" name="PLG" netid="HL" insttype="CMG3ESPC-120s" lat="40.3733" lon="23.4444">
    <comp name="--.HHZ">
      <acc value="0.1445069018" flag="0"/>
      <vel value="0.0832537138" flag="0"/>
      <psa03 value="0.2629186557" flag="0"/>
      <psa10 value="0.1085198380" flag="0"/>
      <psa30 value="0.0062164500" flag="0"/>
    </comp>
  </station>
  <station code="SMTH" name="SMTH" netid="HL" insttype="CMG3ESPC60_P6C" lat="40.4709" lon="25.5304">
    <comp name="--.HHE">
      <acc value="0.0693793671" flag="0"/>
      <vel value="0.0390511286" flag="0"/>
      <psa03 value="0.0989608887" flag="0"/>
      <psa10 value="0.0159805938" flag="0"/>
      <psa30 value="0.0023662198" flag="0"/>
    </comp>
    <comp name="--.HHN">
      <acc value="0.0640095374" flag="0"/>
      <vel value="0.0312573724" flag="0"/>
      <psa03 value="0.1878028048" flag="0"/>
      <psa10 value="0.0390414971" flag="0"/>
      <psa30 value="0.0033240123" flag="0"/>
    </comp>
    <comp name="--.HHZ">
      <acc value="0.0363913703" flag="0"/>
      <vel value="0.0219104180" flag="0"/>
      <psa03 value="0.0613875944" flag="0"/>
      <psa10 value="0.0300109317" flag="0"/>
      <psa30 value="0.0019973210" flag="0"/>
    </comp>
  </station>
  <station code="AOS2" name="AOS2" netid="HT" insttype="100" lat="39.1478" lon="23.8436">
    <comp name="--.HHE">
      <acc value="0.0596490096" flag="0"/>
      <vel value="0.0411701874" flag="0"/>
      <psa03 value="0.2029809378" flag="0"/>
      <psa10 value="0.0444919474" flag="0"/>
      <psa30 value="0.0036025074" flag="0"/>
    </comp>
    <comp name="--.HHN">
      <acc value="0.0577057687" flag="0"/>
      <vel value="0.0295283132" flag="0"/>
      <psa03 value="0.1390825834" flag="0"/>
      <psa10 value="0.0232305312" flag="0"/>
      <psa30 value="0.0021335016" flag="0"/>
    </comp>
    <comp name="--.HHZ">
      <acc value="0.0536841742" flag="0"/>
      <vel value="0.0279203823" flag="0"/>
      <psa03 value="0.1159340004" flag="0"/>
      <psa10 value="0.0190671837" flag="0"/>
      <psa30 value="0.0023937786" flag="0"/>
    </comp>
  </station>
  <station code="KAVA" name="KAVA" netid="HT" insttype="Compact," lat="40.9967" lon="24.5137">
    <comp name="--.HHE">
      <acc value="0.1727124583" flag="0"/>
      <vel value="0.0467643459" flag="0"/>
      <psa03 value="0.1651862724" flag="0"/>
      <psa10 value="0.0308517425" flag="0"/>
      <psa30 value="0.0039493594" flag="0"/>
    </comp>
    <comp name="--.HHN">
      <acc value="0.1497483308" flag="0"/>
      <vel value="0.0552094127" flag="0"/>
      <psa03 value="0.2577963486" flag="0"/>
      <psa10 value="0.0358674952" flag="0"/>
      <psa30 value="0.0033499281" flag="0"/>
    </comp>
    <comp name="--.HHZ">
      <acc value="0.0865567391" flag="0"/>
      <vel value="0.0336744344" flag="0"/>
      <psa03 value="0.1667369197" flag="0"/>
      <psa10 value="0.0329117855" flag="0"/>
      <psa30 value="0.0026546460" flag="0"/>
    </comp>
  </station>
  <station code="OUR" name="OUR" netid="HT" insttype="100" lat="40.3325" lon="23.9791">
    <comp name="--.HHE">
      <acc value="0.6646970667" flag="0"/>
      <vel value="0.2039110711" flag="0"/>
      <psa03 value="1.2082374786" flag="0"/>
      <psa10 value="0.0836367600" flag="0"/>
      <psa30 value="0.0094393374" flag="0"/>
    </comp>
    <comp name="--.HHZ">
      <acc value="0.5813217699" flag="0"/>
      <vel value="0.1444288558" flag="0"/>
      <psa03 value="0.3283496694" flag="0"/>
      <psa10 value="0.0503907769" flag="0"/>
      <psa30 value="0.0046188756" flag="0"/>
    </comp>
    <comp name="--.HHN">
      <acc value="0.5111229542" flag="0"/>
      <vel value="0.1704254632" flag="0"/>
      <psa03 value="0.9842940381" flag="0"/>
      <psa10 value="0.1255990009" flag="0"/>
      <psa30 value="0.0141618060" flag="0"/>
    </comp>
  </station>
  <station code="PAIG" name="PAIG" netid="HT" insttype="100" lat="39.9363" lon="23.6768">
    <comp name="--.HHZ">
      <acc value="0.0495785837" flag="0"/>
      <vel value="0.0323782315" flag="0"/>
      <psa03 value="0.0923507445" flag="0"/>
      <psa10 value="0.0251327898" flag="0"/>
      <psa30 value="0.0018923157" flag="0"/>
    </comp>
    <comp name="--.HHN">
      <acc value="0.0746253978" flag="0"/>
      <vel value="0.0321333669" flag="0"/>
      <psa03 value="0.1827784254" flag="0"/>
      <psa10 value="0.0297899478" flag="0"/>
      <psa30 value="0.0029019037" flag="0"/>
    </comp>
    <comp name="--.HHE">
      <acc value="0.0709611412" flag="0"/>
      <vel value="0.0277421402" flag="0"/>
      <psa03 value="0.1227660093" flag="0"/>
      <psa10 value="0.0235693522" flag="0"/>
      <psa30 value="0.0019208445" flag="0"/>
    </comp>
  </station>
  <station code="SOH" name="SOH" netid="HT" insttype="120P," lat="40.8217" lon="23.3539">
    <comp name="--.HHE">
      <acc value="0.0717321763" flag="0"/>
      <vel value="0.0559493117" flag="0"/>
      <psa03 value="0.1862687826" flag="0"/>
      <psa10 value="0.0820245777" flag="0"/>
      <psa30 value="0.0046160914" flag="0"/>
    </comp>
    <comp name="--.HHN">
      <acc value="0.0533054264" flag="0"/>
      <vel value="0.0494850431" flag="0"/>
      <psa03 value="0.1385296844" flag="0"/>
      <psa10 value="0.0489110241" flag="0"/>
      <psa30 value="0.0075578633" flag="0"/>
    </comp>
    <comp name="--.HHZ">
      <acc value="0.0364438112" flag="0"/>
      <vel value="0.0317878967" flag="0"/>
      <psa03 value="0.0774004646" flag="0"/>
      <psa10 value="0.0496335472" flag="0"/>
      <psa30 value="0.0027390486" flag="0"/>
    </comp>
  </station>
  <station code="SRS" name="SRS" netid="HT" insttype="100" lat="41.1087" lon="23.595">
    <comp name="--.HHN">
      <acc value="0.0390952189" flag="0"/>
      <vel value="0.0189352264" flag="0"/>
      <psa03 value="0.0865729605" flag="0"/>
      <psa10 value="0.0178841867" flag="0"/>
      <psa30 value="0.0026612930" flag="0"/>
    </comp>
    <comp name="--.HHZ">
      <acc value="0.0321876579" flag="0"/>
      <vel value="0.0139172799" flag="0"/>
      <psa03 value="0.0502672969" flag="0"/>
      <psa10 value="0.0142866497" flag="0"/>
      <psa30 value="0.0015936901" flag="0"/>
    </comp>
    <comp name="--.HHE">
      <acc value="0.0439354939" flag="0"/>
      <vel value="0.0273362745" flag="0"/>
      <psa03 value="0.0850406442" flag="0"/>
      <psa10 value="0.0231426484" flag="0"/>
      <psa30 value="0.0053011436" flag="0"/>
    </comp>
  </station>
  <station code="THAS" name="THAS" netid="HT" insttype="100" lat="40.6064" lon="24.7194">
    <comp name="--.HHZ">
      <acc value="0.2671299300" flag="0"/>
      <vel value="0.1586537737" flag="0"/>
      <psa03 value="0.7628915450" flag="0"/>
      <psa10 value="0.1301370643" flag="0"/>
      <psa30 value="0.0087962676" flag="0"/>
    </comp>
    <comp name="--.HHE">
      <acc value="0.4890109548" flag="0"/>
      <vel value="0.2917768900" flag="0"/>
      <psa03 value="1.0433660575" flag="0"/>
      <psa10 value="0.2183532032" flag="0"/>
      <psa30 value="0.0169498977" flag="0"/>
    </comp>
    <comp name="--.HHN">
      <acc value="0.3641182864" flag="0"/>
      <vel value="0.1647294088" flag="0"/>
      <psa03 value="0.9323312469" flag="0"/>
      <psa10 value="0.1110888519" flag="0"/>
      <psa30 value="0.0066733563" flag="0"/>
    </comp>
  </station>
  <station code="THE" name="THE" netid="HT" insttype="30s-100Hz," lat="40.6319" lon="22.9628">
    <comp name="--.HHE">
      <acc value="0.0160733589" flag="0"/>
      <vel value="0.0090589391" flag="0"/>
      <psa03 value="0.0377165109" flag="0"/>
      <psa10 value="0.0171347492" flag="0"/>
      <psa30 value="0.0018096522" flag="0"/>
    </comp>
    <comp name="--.HHN">
      <acc value="0.0178071698" flag="0"/>
      <vel value="0.0141744508" flag="0"/>
      <psa03 value="0.0229392652" flag="0"/>
      <psa10 value="0.0219882934" flag="0"/>
      <psa30 value="0.0019920105" flag="0"/>
    </comp>
    <comp name="--.HHZ">
      <acc value="0.0159655999" flag="0"/>
      <vel value="0.0080571316" flag="0"/>
      <psa03 value="0.0282091029" flag="0"/>
      <psa10 value="0.0105707838" flag="0"/>
      <psa30 value="0.0014211551" flag="0"/>
    </comp>
  </station>
  <station code="XOR" name="XOR" netid="HT" insttype="Compact," lat="39.366" lon="23.1918">
    <comp name="--.HHN">
      <acc value="0.0607746459" flag="0"/>
      <vel value="0.0361490738" flag="0"/>
      <psa03 value="0.1149829535" flag="0"/>
      <psa10 value="0.0478451293" flag="0"/>
      <psa30 value="0.0031879129" flag="0"/>
    </comp>
    <comp name="--.HHE">
      <acc value="0.0286506866" flag="0"/>
      <vel value="0.0244224298" flag="0"/>
      <psa03 value="0.0987135305" flag="0"/>
      <psa10 value="0.0311971139" flag="0"/>
      <psa30 value="0.0025261716" flag="0"/>
    </comp>
    <comp name="--.HHZ">
      <acc value="0.0353353980" flag="0"/>
      <vel value="0.0244527307" flag="0"/>
      <psa03 value="0.1116660884" flag="0"/>
      <psa10 value="0.0281698414" flag="0"/>
      <psa30 value="0.0042079111" flag="0"/>
    </comp>
  </station>
</stationlist>
