<?xml version="1.0" encoding="UTF-8" standalone="yes"?>
<!DOCTYPE earthquake SYSTEM "stationlist.dtd">
<stationlist created="" xmlns="ch.ethz.sed.shakemap.usgs.xml">
  <station code="TASB" name="TASB" netid="KO" insttype="CMG-3T" lat="39.9838" lon="44.2384">
    <comp name="--.HHN">
      <acc value="0.0050949622" flag="0"/>
      <vel value="0.0047742255" flag="0"/>
      <psa03 value="0.0113320748" flag="0"/>
      <psa10 value="0.0076827762" flag="0"/>
      <psa30 value="0.0031901530" flag="0"/>
    </comp>
    <comp name="--.HHE">
      <acc value="0.0042849587" flag="0"/>
      <vel value="0.0064810119" flag="0"/>
      <psa03 value="0.0130662268" flag="0"/>
      <psa10 value="0.0097000419" flag="0"/>
      <psa30 value="0.0027138157" flag="0"/>
    </comp>
    <comp name="--.HHZ">
      <acc value="0.0058238818" flag="0"/>
      <vel value="0.0064497343" flag="0"/>
      <psa03 value="0.0083558784" flag="0"/>
      <psa10 value="0.0133774639" flag="0"/>
      <psa30 value="0.0020095348" flag="0"/>
    </comp>
  </station>
</stationlist>
