<?xml version="1.0" encoding="UTF-8" standalone="yes"?>
<!DOCTYPE earthquake SYSTEM "stationlist.dtd">
<stationlist created="" xmlns="ch.ethz.sed.shakemap.usgs.xml">
  <station code="TASB" name="TASB" netid="KO" insttype="CMG-3T" lat="39.9838" lon="44.2384">
    <comp name="--.HHE">
      <acc value="0.0042849588" flag="0"/>
      <vel value="0.0064810116" flag="0"/>
      <psa03 value="0.0130662268" flag="0"/>
      <psa10 value="0.0097000419" flag="0"/>
      <psa30 value="0.0027138158" flag="0"/>
    </comp>
    <comp name="--.HHZ">
      <acc value="0.0058238821" flag="0"/>
      <vel value="0.0064497342" flag="0"/>
      <psa03 value="0.0083558784" flag="0"/>
      <psa10 value="0.0133774646" flag="0"/>
      <psa30 value="0.0021815820" flag="0"/>
    </comp>
    <comp name="--.HHN">
      <acc value="0.0050949621" flag="0"/>
      <vel value="0.0047742252" flag="0"/>
      <psa03 value="0.0113320748" flag="0"/>
      <psa10 value="0.0076827762" flag="0"/>
      <psa30 value="0.0031743983" flag="0"/>
    </comp>
  </station>
</stationlist>
