<?xml version="1.0" encoding="UTF-8" standalone="yes"?>
<!DOCTYPE earthquake SYSTEM "stationlist.dtd">
<stationlist created="" xmlns="ch.ethz.sed.shakemap.usgs.xml">
  <station code="CEYT" name="CEYT" netid="KO" insttype="CMG-3ESP" lat="37.0105" lon="35.7478">
    <comp name="--.HHZ">
      <acc value="0.0310774746" flag="0"/>
      <vel value="0.0196506672" flag="0"/>
      <psa03 value="0.1014652484" flag="0"/>
      <psa10 value="0.0185924662" flag="0"/>
      <psa30 value="0.0020377620" flag="0"/>
    </comp>
    <comp name="--.HHN">
      <acc value="0.0428917058" flag="0"/>
      <vel value="0.0215826653" flag="0"/>
      <psa03 value="0.0926498477" flag="0"/>
      <psa10 value="0.0121628563" flag="0"/>
      <psa30 value="0.0018413969" flag="0"/>
    </comp>
    <comp name="--.HHE">
      <acc value="0.0492721013" flag="0"/>
      <vel value="0.0216975282" flag="0"/>
      <psa03 value="0.1775664429" flag="0"/>
      <psa10 value="0.0202127976" flag="0"/>
      <psa30 value="0.0017264729" flag="0"/>
    </comp>
  </station>
  <station code="CMRD" name="CMRD" netid="KO" insttype="CMG-5T" lat="37.6623" lon="34.9902">
    <comp name="--.HNN">
      <acc value="0.1540345995" flag="0"/>
      <vel value="0.0310580234" flag="0"/>
      <psa03 value="0.1471765050" flag="0"/>
      <psa10 value="0.0171985919" flag="0"/>
      <psa30 value="0.0016188936" flag="0"/>
    </comp>
    <comp name="--.HNE">
      <acc value="0.1642538368" flag="0"/>
      <vel value="0.0298122403" flag="0"/>
      <psa03 value="0.1113698057" flag="0"/>
      <psa10 value="0.0163130068" flag="0"/>
      <psa30 value="0.0031544862" flag="0"/>
    </comp>
    <comp name="--.HNZ">
      <acc value="0.1283833259" flag="0"/>
      <vel value="0.0256366010" flag="0"/>
      <psa03 value="0.0696620143" flag="0"/>
      <psa10 value="0.0410012029" flag="0"/>
      <psa30 value="0.0066473726" flag="0"/>
    </comp>
  </station>
  <station code="MERS" name="MERS" netid="KO" insttype="CMG-3T" lat="36.8678" lon="34.522">
    <comp name="--.HHE">
      <acc value="0.0209262347" flag="0"/>
      <vel value="0.0098716439" flag="0"/>
      <psa03 value="0.0303020501" flag="0"/>
      <psa10 value="0.0111568850" flag="0"/>
      <psa30 value="0.0009806940" flag="0"/>
    </comp>
    <comp name="--.HHZ">
      <acc value="0.0129088234" flag="0"/>
      <vel value="0.0052934525" flag="0"/>
      <psa03 value="0.0180539334" flag="0"/>
      <psa10 value="0.0055419970" flag="0"/>
      <psa30 value="0.0012790416" flag="0"/>
    </comp>
    <comp name="--.HHN">
      <acc value="0.0170815564" flag="0"/>
      <vel value="0.0070484991" flag="0"/>
      <psa03 value="0.0346532316" flag="0"/>
      <psa10 value="0.0094843622" flag="0"/>
      <psa30 value="0.0013949042" flag="0"/>
    </comp>
  </station>
  <station code="SARI" name="SARI" netid="KO" insttype="CMG-3T" lat="38.4072" lon="36.4181">
    <comp name="--.HHZ">
      <acc value="0.0128626028" flag="0"/>
      <vel value="0.0079701438" flag="0"/>
      <psa03 value="0.0244595391" flag="0"/>
      <psa10 value="0.0099345717" flag="0"/>
      <psa30 value="0.0008127922" flag="0"/>
    </comp>
    <comp name="--.HHE">
      <acc value="0.0127998099" flag="0"/>
      <vel value="0.0092514768" flag="0"/>
      <psa03 value="0.0260276915" flag="0"/>
      <psa10 value="0.0151192084" flag="0"/>
      <psa30 value="0.0013661177" flag="0"/>
    </comp>
    <comp name="--.HHN">
      <acc value="0.0137621468" flag="0"/>
      <vel value="0.0078936664" flag="0"/>
      <psa03 value="0.0285653072" flag="0"/>
      <psa10 value="0.0160655982" flag="0"/>
      <psa30 value="0.0008706370" flag="0"/>
    </comp>
  </station>
  <station code="ANDN" name="ANDN" netid="TU" insttype="T" lat="37.58" lon="36.3452">
    <comp name="--.HHN">
      <acc value="0.0566815763" flag="0"/>
      <vel value="0.0414720951" flag="0"/>
      <psa03 value="0.1867506383" flag="0"/>
      <psa10 value="0.0324725138" flag="0"/>
      <psa30 value="0.0041316547" flag="0"/>
    </comp>
    <comp name="--.HHZ">
      <acc value="0.0195254963" flag="0"/>
      <vel value="0.0176733899" flag="0"/>
      <psa03 value="0.0552383331" flag="0"/>
      <psa10 value="0.0239361362" flag="0"/>
      <psa30 value="0.0053879679" flag="0"/>
    </comp>
    <comp name="--.HHE">
      <acc value="0.0403165212" flag="0"/>
      <vel value="0.0264989354" flag="0"/>
      <psa03 value="0.1129649589" flag="0"/>
      <psa10 value="0.0474921175" flag="0"/>
      <psa30 value="0.0069344409" flag="0"/>
    </comp>
  </station>
</stationlist>
