<?xml version="1.0" encoding="UTF-8" standalone="yes"?>
<!DOCTYPE earthquake SYSTEM "stationlist.dtd">
<stationlist created="" xmlns="ch.ethz.sed.shakemap.usgs.xml">
  <station code="ANDN" name="ANDN" netid="TU" insttype="T" lat="37.58" lon="36.3452">
    <comp name="--.HHZ">
      <acc value="0.0195254964" flag="0"/>
      <vel value="0.0176733894" flag="0"/>
      <psa03 value="0.0552383331" flag="0"/>
      <psa10 value="0.0239361362" flag="0"/>
      <psa30 value="0.0053879570" flag="0"/>
    </comp>
    <comp name="--.HHE">
      <acc value="0.0403165213" flag="0"/>
      <vel value="0.0264989350" flag="0"/>
      <psa03 value="0.1129649589" flag="0"/>
      <psa10 value="0.0474921175" flag="0"/>
      <psa30 value="0.0069344446" flag="0"/>
    </comp>
    <comp name="--.HHN">
      <acc value="0.0566815762" flag="0"/>
      <vel value="0.0414720955" flag="0"/>
      <psa03 value="0.1867506383" flag="0"/>
      <psa10 value="0.0324725138" flag="0"/>
      <psa30 value="0.0041316405" flag="0"/>
    </comp>
  </station>
</stationlist>
