<?xml version="1.0" encoding="UTF-8" standalone="yes"?>
<!DOCTYPE earthquake SYSTEM "stationlist.dtd">
<stationlist created="" xmlns="ch.ethz.sed.shakemap.usgs.xml">
  <station code="CEYT" name="CEYT" netid="KO" insttype="CMG-3ESP" lat="37.0105" lon="35.7478">
    <comp name="--.HHE">
      <acc value="0.0492721015" flag="0"/>
      <vel value="0.0216975289" flag="0"/>
      <psa03 value="0.1775664429" flag="0"/>
      <psa10 value="0.0202127976" flag="0"/>
      <psa30 value="0.0017263829" flag="0"/>
    </comp>
    <comp name="--.HHZ">
      <acc value="0.0310774746" flag="0"/>
      <vel value="0.0196506679" flag="0"/>
      <psa03 value="0.1014652483" flag="0"/>
      <psa10 value="0.0185924661" flag="0"/>
      <psa30 value="0.0020377607" flag="0"/>
    </comp>
    <comp name="--.HHN">
      <acc value="0.0428917059" flag="0"/>
      <vel value="0.0215826681" flag="0"/>
      <psa03 value="0.0926498477" flag="0"/>
      <psa10 value="0.0121628563" flag="0"/>
      <psa30 value="0.0018414037" flag="0"/>
    </comp>
  </station>
  <station code="CMRD" name="CMRD" netid="KO" insttype="CMG-5T" lat="37.6623" lon="34.9902">
    <comp name="--.HNE">
      <acc value="0.1642538334" flag="0"/>
      <vel value="0.0298122434" flag="0"/>
      <psa03 value="0.1113698057" flag="0"/>
      <psa10 value="0.0163129957" flag="0"/>
      <psa30 value="0.0031543253" flag="0"/>
    </comp>
    <comp name="--.HNZ">
      <acc value="0.1283833308" flag="0"/>
      <vel value="0.0256365994" flag="0"/>
      <psa03 value="0.0696620143" flag="0"/>
      <psa10 value="0.0410012086" flag="0"/>
      <psa30 value="0.0066465890" flag="0"/>
    </comp>
    <comp name="--.HNN">
      <acc value="0.1540346041" flag="0"/>
      <vel value="0.0310580229" flag="0"/>
      <psa03 value="0.1471765050" flag="0"/>
      <psa10 value="0.0171985866" flag="0"/>
      <psa30 value="0.0016177111" flag="0"/>
    </comp>
  </station>
  <station code="MERS" name="MERS" netid="KO" insttype="CMG-3T" lat="36.8678" lon="34.522">
    <comp name="--.HHE">
      <acc value="0.0209262343" flag="0"/>
      <vel value="0.0098716438" flag="0"/>
      <psa03 value="0.0303020501" flag="0"/>
      <psa10 value="0.0111568850" flag="0"/>
      <psa30 value="0.0009806918" flag="0"/>
    </comp>
    <comp name="--.HHN">
      <acc value="0.0170815563" flag="0"/>
      <vel value="0.0070484997" flag="0"/>
      <psa03 value="0.0346532316" flag="0"/>
      <psa10 value="0.0094843622" flag="0"/>
      <psa30 value="0.0013949028" flag="0"/>
    </comp>
    <comp name="--.HHZ">
      <acc value="0.0129088233" flag="0"/>
      <vel value="0.0052934528" flag="0"/>
      <psa03 value="0.0180539334" flag="0"/>
      <psa10 value="0.0055419970" flag="0"/>
      <psa30 value="0.0012790388" flag="0"/>
    </comp>
  </station>
  <station code="SARI" name="SARI" netid="KO" insttype="CMG-3T" lat="38.4072" lon="36.4181">
    <comp name="--.HHZ">
      <acc value="0.0128626029" flag="0"/>
      <vel value="0.0079701440" flag="0"/>
      <psa03 value="0.0244595391" flag="0"/>
      <psa10 value="0.0099345717" flag="0"/>
      <psa30 value="0.0008127889" flag="0"/>
    </comp>
    <comp name="--.HHN">
      <acc value="0.0137621467" flag="0"/>
      <vel value="0.0078936657" flag="0"/>
      <psa03 value="0.0285653072" flag="0"/>
      <psa10 value="0.0160655982" flag="0"/>
      <psa30 value="0.0008706364" flag="0"/>
    </comp>
    <comp name="--.HHE">
      <acc value="0.0127998091" flag="0"/>
      <vel value="0.0092514742" flag="0"/>
      <psa03 value="0.0260276915" flag="0"/>
      <psa10 value="0.0151192084" flag="0"/>
      <psa30 value="0.0013661158" flag="0"/>
    </comp>
  </station>
  <station code="ANDN" name="ANDN" netid="TU" insttype="T" lat="37.58" lon="36.3452">
    <comp name="--.HHN">
      <acc value="0.0566815765" flag="0"/>
      <vel value="0.0414720948" flag="0"/>
      <psa03 value="0.1867506383" flag="0"/>
      <psa10 value="0.0324725137" flag="0"/>
      <psa30 value="0.0041316808" flag="0"/>
    </comp>
    <comp name="--.HHE">
      <acc value="0.0403165210" flag="0"/>
      <vel value="0.0264989355" flag="0"/>
      <psa03 value="0.1129649589" flag="0"/>
      <psa10 value="0.0474921175" flag="0"/>
      <psa30 value="0.0069344190" flag="0"/>
    </comp>
    <comp name="--.HHZ">
      <acc value="0.0195254958" flag="0"/>
      <vel value="0.0176733902" flag="0"/>
      <psa03 value="0.0552383331" flag="0"/>
      <psa10 value="0.0239361362" flag="0"/>
      <psa30 value="0.0053879927" flag="0"/>
    </comp>
  </station>
</stationlist>
