<stationlist xmlns:esm="https://esm-db.eu/esmws/shakemap/1/" created="1782266092">
	<station code="ARK1" name="ARK1" netid="HI" source="ITSAK Strong Motion Network" insttype="" lat="35.148777" lon="25.264194" esm:processing="automatic (Paolucci et al 2011)" esm:quality="best">
		<comp name="--.HNE" depth="0.0">
			<acc value="0.0289323212916776" flag="0"/>
			<vel value="0.0175555949604694" flag="0"/>
			<psa03 value="0.11268528776395" flag="0"/>
			<psa10 value="0.0307548254812513" flag="0"/>
			<psa30 value="0.00172046376394743" flag="0"/>
		</comp>
		<comp name="--.HNN" depth="0.0">
			<acc value="0.0386031248263158" flag="0"/>
			<vel value="0.0244059116216749" flag="0"/>
			<psa03 value="0.0812654667716767" flag="0"/>
			<psa10 value="0.023553845951698" flag="0"/>
			<psa30 value="0.00267205576058037" flag="0"/>
		</comp>
		<comp name="--.HNZ" depth="0.0">
			<acc value="0.026388550228045" flag="0"/>
			<vel value="0.0126844049574576" flag="0"/>
			<psa03 value="0.0846819274704309" flag="0"/>
			<psa10 value="0.0150600957824345" flag="0"/>
			<psa30 value="0.00145075829311697" flag="0"/>
		</comp>
	</station>
	<station code="GOR1" name="GOR1" netid="HI" source="ITSAK Strong Motion Network" insttype="" lat="35.0582" lon="24.9628" esm:processing="automatic (Paolucci et al 2011)" esm:quality="best">
		<comp name="--.HNE" depth="0.0">
			<acc value="0.0463750061493832" flag="0"/>
			<vel value="0.029714933685297" flag="0"/>
			<psa03 value="0.144290787723211" flag="0"/>
			<psa10 value="0.0565950441439204" flag="0"/>
			<psa30 value="0.00382458335987751" flag="0"/>
		</comp>
		<comp name="--.HNN" depth="0.0">
			<acc value="0.0391828562700543" flag="0"/>
			<vel value="0.0269241794189377" flag="0"/>
			<psa03 value="0.177885763225462" flag="0"/>
			<psa10 value="0.0461211890524237" flag="0"/>
			<psa30 value="0.00294853511764755" flag="0"/>
		</comp>
		<comp name="--.HNZ" depth="0.0">
			<acc value="0.0363464957417938" flag="0"/>
			<vel value="0.0205682632428666" flag="0"/>
			<psa03 value="0.123130323446303" flag="0"/>
			<psa10 value="0.0290130600978428" flag="0"/>
			<psa30 value="0.00220504836529905" flag="0"/>
		</comp>
	</station>
	<station code="HER1" name="HER1" netid="HI" source="ITSAK Strong Motion Network" insttype="" lat="35.317672" lon="25.10217" esm:processing="manual (Paolucci et al 2011)" esm:quality="good">
		<comp name="--.HNE" depth="0.0">
			<acc value="0.0387910731423813" flag="0"/>
			<vel value="0.0604702021831926" flag="0"/>
			<psa03 value="0.0769097303088462" flag="0"/>
			<psa10 value="0.102021420918441" flag="0"/>
			<psa30 value="0.00581358470478843" flag="0"/>
		</comp>
		<comp name="--.HNN" depth="0.0">
			<acc value="0.037079134320285" flag="0"/>
			<vel value="0.0607801196229498" flag="0"/>
			<psa03 value="0.0920042614974574" flag="0"/>
			<psa10 value="0.073719443551339" flag="0"/>
			<psa30 value="0.00763230893634293" flag="0"/>
		</comp>
		<comp name="--.HNZ" depth="0.0">
			<acc value="0.0260516198199349" flag="0"/>
			<vel value="0.0288093037067791" flag="0"/>
			<psa03 value="0.0526319761934518" flag="0"/>
			<psa10 value="0.0588665321188509" flag="0"/>
			<psa30 value="0.00161749538029736" flag="0"/>
		</comp>
	</station>
	<station code="HER3" name="HER3" netid="HI" source="ITSAK Strong Motion Network" insttype="" lat="35.3296" lon="25.1065" esm:processing="manual (Paolucci et al 2011)" esm:quality="good">
		<comp name="--.HNE" depth="0.0">
			<acc value="0.0303415959922934" flag="0"/>
			<vel value="0.0308016925977911" flag="0"/>
			<psa03 value="0.0963923334356877" flag="0"/>
			<psa10 value="0.083569381061358" flag="0"/>
			<psa30 value="0.00325635196733649" flag="0"/>
		</comp>
		<comp name="--.HNN" depth="0.0">
			<acc value="0.0334056930930039" flag="0"/>
			<vel value="0.0329741344223034" flag="0"/>
			<psa03 value="0.11803314203305" flag="0"/>
			<psa10 value="0.0406598072626832" flag="0"/>
			<psa30 value="0.00298329221180113" flag="0"/>
		</comp>
		<comp name="--.HNZ" depth="0.0">
			<acc value="0.0356083057682263" flag="0"/>
			<vel value="0.0182784513518728" flag="0"/>
			<psa03 value="0.0591100615848162" flag="0"/>
			<psa10 value="0.0258754484964728" flag="0"/>
			<psa30 value="0.00104066195958085" flag="0"/>
		</comp>
	</station>
	<station code="KTL1" name="KTL1" netid="HI" source="ITSAK Strong Motion Network" insttype="" lat="35.20778" lon="25.34272" esm:processing="automatic (Paolucci et al 2011)" esm:quality="best">
		<comp name="--.HNE" depth="0.0">
			<acc value="0.0148284556558404" flag="0"/>
			<vel value="0.0109668489091922" flag="0"/>
			<psa03 value="0.0553718139442564" flag="0"/>
			<psa10 value="0.0137098750869399" flag="0"/>
			<psa30 value="0.00105945882978125" flag="0"/>
		</comp>
		<comp name="--.HNN" depth="0.0">
			<acc value="0.0166214274932361" flag="0"/>
			<vel value="0.0122728984105832" flag="0"/>
			<psa03 value="0.0473045972390748" flag="0"/>
			<psa10 value="0.0163412631534852" flag="0"/>
			<psa30 value="0.00110419377241832" flag="0"/>
		</comp>
		<comp name="--.HNZ" depth="0.0">
			<acc value="0.0112737459053897" flag="0"/>
			<vel value="0.00619000734562682" flag="0"/>
			<psa03 value="0.0269826702819821" flag="0"/>
			<psa10 value="0.00767230840902836" flag="0"/>
			<psa30 value="0.000737425361227752" flag="0"/>
		</comp>
	</station>
	<station code="SIT2" name="SIT2" netid="HI" source="ITSAK Strong Motion Network" insttype="" lat="35.2059" lon="26.107" esm:processing="manual (Paolucci et al 2011)" esm:quality="good">
		<comp name="--.HNE" depth="0.0">
			<acc value="0.0457214180066606" flag="0"/>
			<vel value="0.032552543381263" flag="0"/>
			<psa03 value="0.112919855386237" flag="0"/>
			<psa10 value="0.0392311951241402" flag="0"/>
			<psa30 value="0.0016832430690924" flag="0"/>
		</comp>
		<comp name="--.HNN" depth="0.0">
			<acc value="0.036561547300144" flag="0"/>
			<vel value="0.0307299608496075" flag="0"/>
			<psa03 value="0.0868041357646485" flag="0"/>
			<psa10 value="0.0228386379476778" flag="0"/>
			<psa30 value="0.00150851774439714" flag="0"/>
		</comp>
		<comp name="--.HNZ" depth="0.0">
			<acc value="0.0180316609164352" flag="0"/>
			<vel value="0.00904664203591155" flag="0"/>
			<psa03 value="0.0515203192182996" flag="0"/>
			<psa10 value="0.00716796515501297" flag="0"/>
			<psa30 value="0.000529961096905089" flag="0"/>
		</comp>
	</station>
	<station code="IMMV" name="IMMV" netid="HL" source="National Observatory of Athens Seismic Network" insttype="" lat="35.4606" lon="23.9811" esm:processing="automatic (Paolucci et al 2011)" esm:quality="best">
		<comp name="--.HNE" depth="0.0">
			<acc value="0.00479073179940434" flag="0"/>
			<vel value="0.00589481053255663" flag="0"/>
			<psa03 value="0.013548060252918" flag="0"/>
			<psa10 value="0.0101689120780187" flag="0"/>
			<psa30 value="0.000965378118229169" flag="0"/>
		</comp>
		<comp name="--.HNN" depth="0.0">
			<acc value="0.00694013756527287" flag="0"/>
			<vel value="0.00502730484549111" flag="0"/>
			<psa03 value="0.0199242183191807" flag="0"/>
			<psa10 value="0.0065103862811398" flag="0"/>
			<psa30 value="0.000810354567429745" flag="0"/>
		</comp>
		<comp name="--.HNZ" depth="0.0">
			<acc value="0.00427567176837638" flag="0"/>
			<vel value="0.00407279375203999" flag="0"/>
			<psa03 value="0.013214618893231" flag="0"/>
			<psa10 value="0.0058574652158236" flag="0"/>
			<psa30 value="0.000514485488388642" flag="0"/>
		</comp>
	</station>
	<station code="SIVA" name="SIVA" netid="HL" source="National Observatory of Athens Seismic Network" insttype="" lat="35.01777" lon="24.81204" esm:processing="automatic (Paolucci et al 2011)" esm:quality="best">
		<comp name="00.HNE" depth="0.0">
			<acc value="0.0562564257133518" flag="0"/>
			<vel value="0.0338350737837685" flag="0"/>
			<psa03 value="0.168534383325771" flag="0"/>
			<psa10 value="0.0367654030275153" flag="0"/>
			<psa30 value="0.00197346448233669" flag="0"/>
		</comp>
		<comp name="00.HNN" depth="0.0">
			<acc value="0.0435295561269884" flag="0"/>
			<vel value="0.038371127939684" flag="0"/>
			<psa03 value="0.114819637487478" flag="0"/>
			<psa10 value="0.0580832177281168" flag="0"/>
			<psa30 value="0.0019322111245042" flag="0"/>
		</comp>
		<comp name="00.HNZ" depth="0.0">
			<acc value="0.0357898729969133" flag="0"/>
			<vel value="0.0201955217610874" flag="0"/>
			<psa03 value="0.11957359824738" flag="0"/>
			<psa10 value="0.0188884656431491" flag="0"/>
			<psa30 value="0.00138711834811627" flag="0"/>
		</comp>
	</station>
</stationlist>
