<?xml version="1.0" encoding="UTF-8" standalone="yes"?>
<!DOCTYPE earthquake SYSTEM "stationlist.dtd">
<stationlist created="" xmlns="ch.ethz.sed.shakemap.usgs.xml">
  <station code="IDI" name="IDI" netid="MN" insttype="" commtype="DIG" lat="35.288" lon="24.89">
    <comp name="--.HHE">
      <acc value="0.0074665345" flag="0"/>
      <vel value="0.0042614521" flag="0"/>
      <psa03 value="0.0236503554" flag="0"/>
      <psa10 value="0.0064293749" flag="0"/>
      <psa30 value="0.0004083980" flag="0"/>
    </comp>
    <comp name="--.HHZ">
      <acc value="0.0062626246" flag="0"/>
      <vel value="0.0039936155" flag="0"/>
      <psa03 value="0.0253841151" flag="0"/>
      <psa10 value="0.0049728150" flag="0"/>
      <psa30 value="0.0005353456" flag="0"/>
    </comp>
    <comp name="--.HHN">
      <acc value="0.0084429906" flag="0"/>
      <vel value="0.0038744616" flag="0"/>
      <psa03 value="0.0174196298" flag="0"/>
      <psa10 value="0.0036088732" flag="0"/>
      <psa30 value="0.0004376272" flag="0"/>
    </comp>
  </station>
</stationlist>
