<?xml version="1.0" encoding="UTF-8" standalone="yes"?>
<!DOCTYPE earthquake SYSTEM "stationlist.dtd">
<stationlist created="" xmlns="ch.ethz.sed.shakemap.usgs.xml">
  <station code="ACOR" name="ACOR" netid="HA" insttype="Horizon,120s,1200" lat="37.8905" lon="22.8694">
    <comp name="--.HHZ">
      <acc value="0.0250300570" flag="0"/>
      <vel value="0.0096912443" flag="0"/>
      <psa03 value="0.0570890466" flag="0"/>
      <psa10 value="0.0097895590" flag="0"/>
      <psa30 value="0.0007452123" flag="0"/>
    </comp>
    <comp name="--.HHE">
      <acc value="0.0153002922" flag="0"/>
      <vel value="0.0078797048" flag="0"/>
      <psa03 value="0.0405486394" flag="0"/>
      <psa10 value="0.0097320039" flag="0"/>
      <psa30 value="0.0006866010" flag="0"/>
    </comp>
    <comp name="--.HHN">
      <acc value="0.0250271687" flag="0"/>
      <vel value="0.0157180705" flag="0"/>
      <psa03 value="0.0461031380" flag="0"/>
      <psa10 value="0.0237359798" flag="0"/>
      <psa30 value="0.0017993777" flag="0"/>
    </comp>
  </station>
  <station code="AMPE" name="AMPE" netid="HA" insttype="1s-100Hz," lat="38.3015" lon="23.2688">
    <comp name="--.HHZ">
      <acc value="0.0372832833" flag="0"/>
      <vel value="0.0165310720" flag="0"/>
      <psa03 value="0.1052629957" flag="0"/>
      <psa10 value="0.0152254567" flag="0"/>
      <psa30 value="0.0013199504" flag="0"/>
    </comp>
    <comp name="--.HHE">
      <acc value="0.0824222805" flag="0"/>
      <vel value="0.0354508421" flag="0"/>
      <psa03 value="0.1789689476" flag="0"/>
      <psa10 value="0.0364726982" flag="0"/>
      <psa30 value="0.0036558004" flag="0"/>
    </comp>
    <comp name="--.HHN">
      <acc value="0.0540726814" flag="0"/>
      <vel value="0.0252154205" flag="0"/>
      <psa03 value="0.1951121426" flag="0"/>
      <psa10 value="0.0315122537" flag="0"/>
      <psa30 value="0.0038253102" flag="0"/>
    </comp>
  </station>
  <station code="ATAL" name="ATAL" netid="HA" insttype="120s," lat="38.6926" lon="23.0213">
    <comp name="--.HHN">
      <acc value="0.0222035164" flag="0"/>
      <vel value="0.0131044626" flag="0"/>
      <psa03 value="0.0622266304" flag="0"/>
      <psa10 value="0.0061567324" flag="0"/>
      <psa30 value="0.0007968339" flag="0"/>
    </comp>
    <comp name="--.HHZ">
      <acc value="0.0240092895" flag="0"/>
      <vel value="0.0054160131" flag="0"/>
      <psa03 value="0.0236285090" flag="0"/>
      <psa10 value="0.0029408554" flag="0"/>
      <psa30 value="0.0002952581" flag="0"/>
    </comp>
    <comp name="--.HHE">
      <acc value="0.0170795987" flag="0"/>
      <vel value="0.0055518549" flag="0"/>
      <psa03 value="0.0311181111" flag="0"/>
      <psa10 value="0.0059305870" flag="0"/>
      <psa30 value="0.0004081231" flag="0"/>
    </comp>
  </station>
  <station code="ATHU" name="ATHU" netid="HA" insttype="60s," lat="37.9665" lon="23.7845">
    <comp name="--.HHE">
      <acc value="0.1364580817" flag="0"/>
      <vel value="0.0371001504" flag="0"/>
      <psa03 value="0.2021982033" flag="0"/>
      <psa10 value="0.0218934979" flag="0"/>
      <psa30 value="0.0014789865" flag="0"/>
    </comp>
    <comp name="--.HHN">
      <acc value="0.0927686006" flag="0"/>
      <vel value="0.0296344172" flag="0"/>
      <psa03 value="0.1740063704" flag="0"/>
      <psa10 value="0.0170755286" flag="0"/>
      <psa30 value="0.0012397031" flag="0"/>
    </comp>
    <comp name="--.HHZ">
      <acc value="0.0567324735" flag="0"/>
      <vel value="0.0147598893" flag="0"/>
      <psa03 value="0.0774573627" flag="0"/>
      <psa10 value="0.0111249612" flag="0"/>
      <psa30 value="0.0011234779" flag="0"/>
    </comp>
  </station>
  <station code="AXAR" name="AXAR" netid="HA" insttype="Horizon,120s,1200" lat="38.7664" lon="22.659">
    <comp name="--.HHZ">
      <acc value="0.0173615649" flag="0"/>
      <vel value="0.0086109951" flag="0"/>
      <psa03 value="0.0591905778" flag="0"/>
      <psa10 value="0.0117991956" flag="0"/>
      <psa30 value="0.0009876936" flag="0"/>
    </comp>
    <comp name="--.HHE">
      <acc value="0.0417498761" flag="0"/>
      <vel value="0.0221952450" flag="0"/>
      <psa03 value="0.1701054152" flag="0"/>
      <psa10 value="0.0165269760" flag="0"/>
      <psa30 value="0.0017814399" flag="0"/>
    </comp>
    <comp name="--.HHN">
      <acc value="0.0278425610" flag="0"/>
      <vel value="0.0145237052" flag="0"/>
      <psa03 value="0.1131547481" flag="0"/>
      <psa10 value="0.0194786910" flag="0"/>
      <psa30 value="0.0015814634" flag="0"/>
    </comp>
  </station>
  <station code="EPID" name="EPID" netid="HA" insttype="30" lat="37.6144" lon="23.1189">
    <comp name="--.HHE">
      <acc value="0.0795920608" flag="0"/>
      <vel value="0.0276168874" flag="0"/>
      <psa03 value="0.2210905849" flag="0"/>
      <psa10 value="0.0188601935" flag="0"/>
      <psa30 value="0.0012431781" flag="0"/>
    </comp>
    <comp name="--.HHZ">
      <acc value="0.0443235543" flag="0"/>
      <vel value="0.0154443303" flag="0"/>
      <psa03 value="0.0600057041" flag="0"/>
      <psa10 value="0.0092102116" flag="0"/>
      <psa30 value="0.0013865419" flag="0"/>
    </comp>
    <comp name="--.HHN">
      <acc value="0.1025671103" flag="0"/>
      <vel value="0.0356751508" flag="0"/>
      <psa03 value="0.1485395254" flag="0"/>
      <psa10 value="0.0134201065" flag="0"/>
      <psa30 value="0.0011997650" flag="0"/>
    </comp>
  </station>
  <station code="KARY" name="KARY" netid="HA" insttype="60" lat="38.0321" lon="24.437">
    <comp name="--.HHE">
      <acc value="0.1690232277" flag="0"/>
      <vel value="0.0265319085" flag="0"/>
      <psa03 value="0.0995875549" flag="0"/>
      <psa10 value="0.0082103674" flag="0"/>
      <psa30 value="0.0006337896" flag="0"/>
    </comp>
    <comp name="--.HHZ">
      <acc value="0.1557535862" flag="0"/>
      <vel value="0.0232651012" flag="0"/>
      <psa03 value="0.0591998342" flag="0"/>
      <psa10 value="0.0166118658" flag="0"/>
      <psa30 value="0.0007734738" flag="0"/>
    </comp>
    <comp name="--.HHN">
      <acc value="0.2003391177" flag="0"/>
      <vel value="0.0400284136" flag="0"/>
      <psa03 value="0.0936551885" flag="0"/>
      <psa10 value="0.0130168219" flag="0"/>
      <psa30 value="0.0011394529" flag="0"/>
    </comp>
  </station>
  <station code="KIAS" name="KIAS" netid="HA" insttype="DC" lat="37.9875" lon="22.7543">
    <comp name="--.HNN">
      <acc value="0.0696909956" flag="0"/>
      <vel value="0.0329602583" flag="0"/>
      <psa03 value="0.1538480156" flag="0"/>
      <psa10 value="0.0339157316" flag="0"/>
      <psa30 value="0.0027121199" flag="0"/>
    </comp>
    <comp name="--.HNZ">
      <acc value="0.0265062080" flag="0"/>
      <vel value="0.0129455041" flag="0"/>
      <psa03 value="0.0698092291" flag="0"/>
      <psa10 value="0.0141157464" flag="0"/>
      <psa30 value="0.0020001978" flag="0"/>
    </comp>
    <comp name="--.HNE">
      <acc value="0.0692528539" flag="0"/>
      <vel value="0.0314549643" flag="0"/>
      <psa03 value="0.1886384045" flag="0"/>
      <psa10 value="0.0612088770" flag="0"/>
      <psa30 value="0.0030221854" flag="0"/>
    </comp>
  </station>
  <station code="LOUT" name="LOUT" netid="HA" insttype="30" lat="37.9879" lon="22.9743">
    <comp name="--.HHZ">
      <acc value="0.0872273793" flag="0"/>
      <vel value="0.0285354566" flag="0"/>
      <psa03 value="0.1618670462" flag="0"/>
      <psa10 value="0.0196287066" flag="0"/>
      <psa30 value="0.0011707241" flag="0"/>
    </comp>
    <comp name="--.HHN">
      <acc value="0.1461869879" flag="0"/>
      <vel value="0.0702053655" flag="0"/>
      <psa03 value="0.3590445659" flag="0"/>
      <psa10 value="0.0484350839" flag="0"/>
      <psa30 value="0.0023311428" flag="0"/>
    </comp>
    <comp name="--.HHE">
      <acc value="0.1959292012" flag="0"/>
      <vel value="0.0693991156" flag="0"/>
      <psa03 value="0.5182749900" flag="0"/>
      <psa10 value="0.0389546016" flag="0"/>
      <psa30 value="0.0021152647" flag="0"/>
    </comp>
  </station>
  <station code="MDRA" name="MDRA" netid="HA" insttype="60" lat="38.0606" lon="23.4662">
    <comp name="--.HHE">
      <acc value="0.0629847013" flag="0"/>
      <vel value="0.0275988269" flag="0"/>
      <psa03 value="0.0867984864" flag="0"/>
      <psa10 value="0.0180115251" flag="0"/>
      <psa30 value="0.0016447634" flag="0"/>
    </comp>
    <comp name="--.HHN">
      <acc value="0.0876093205" flag="0"/>
      <vel value="0.0401015644" flag="0"/>
      <psa03 value="0.1897539679" flag="0"/>
      <psa10 value="0.0293045889" flag="0"/>
      <psa30 value="0.0023588101" flag="0"/>
    </comp>
    <comp name="--.HHZ">
      <acc value="0.0948458312" flag="0"/>
      <vel value="0.0347317443" flag="0"/>
      <psa03 value="0.1881550403" flag="0"/>
      <psa10 value="0.0193711418" flag="0"/>
      <psa30 value="0.0026948220" flag="0"/>
    </comp>
  </station>
  <station code="MRKA" name="MRKA" netid="HA" insttype="Horizon,120s,1200" lat="38.7047" lon="23.5863">
    <comp name="--.HHE">
      <acc value="0.1859330280" flag="0"/>
      <vel value="0.0539087147" flag="0"/>
      <psa03 value="0.2257251800" flag="0"/>
      <psa10 value="0.0577666752" flag="0"/>
      <psa30 value="0.0021640409" flag="0"/>
    </comp>
    <comp name="--.HHZ">
      <acc value="0.1068150423" flag="0"/>
      <vel value="0.0349192036" flag="0"/>
      <psa03 value="0.1476198343" flag="0"/>
      <psa10 value="0.0413577706" flag="0"/>
      <psa30 value="0.0016737868" flag="0"/>
    </comp>
    <comp name="--.HHN">
      <acc value="0.1363285016" flag="0"/>
      <vel value="0.0520222735" flag="0"/>
      <psa03 value="0.2445454038" flag="0"/>
      <psa10 value="0.0616841001" flag="0"/>
      <psa30 value="0.0031697466" flag="0"/>
    </comp>
  </station>
  <station code="MRTH" name="MRTH" netid="HA" insttype="S100," lat="38.1225" lon="23.9409">
    <comp name="--.HHZ">
      <acc value="1.0203185479" flag="0"/>
      <vel value="0.2927200949" flag="0"/>
      <psa03 value="1.2866924425" flag="0"/>
      <psa10 value="0.0647692629" flag="0"/>
      <psa30 value="0.0050394225" flag="0"/>
    </comp>
    <comp name="--.HHE">
      <acc value="0.5460113222" flag="0"/>
      <vel value="0.1834337633" flag="0"/>
      <psa03 value="1.2385492686" flag="0"/>
      <psa10 value="0.0690262449" flag="0"/>
      <psa30 value="0.0050671441" flag="0"/>
    </comp>
    <comp name="--.HHN">
      <acc value="0.6543789383" flag="0"/>
      <vel value="0.2999937834" flag="0"/>
      <psa03 value="1.3626048242" flag="0"/>
      <psa10 value="0.1189429079" flag="0"/>
      <psa30 value="0.0083593939" flag="0"/>
    </comp>
  </station>
  <station code="PRDM" name="PRDM" netid="HA" insttype="25" lat="38.2804" lon="22.847">
    <comp name="--.HHN">
      <acc value="0.0274888412" flag="0"/>
      <vel value="0.0093405277" flag="0"/>
      <psa03 value="0.0475673692" flag="0"/>
      <psa10 value="0.0044686300" flag="0"/>
      <psa30 value="0.0002355099" flag="0"/>
    </comp>
    <comp name="--.HHE">
      <acc value="0.0283637911" flag="0"/>
      <vel value="0.0096938464" flag="0"/>
      <psa03 value="0.0532744157" flag="0"/>
      <psa10 value="0.0063915607" flag="0"/>
      <psa30 value="0.0004632643" flag="0"/>
    </comp>
    <comp name="--.HHZ">
      <acc value="0.0124319533" flag="0"/>
      <vel value="0.0044315262" flag="0"/>
      <psa03 value="0.0234609646" flag="0"/>
      <psa10 value="0.0049590337" flag="0"/>
      <psa30 value="0.0002462872" flag="0"/>
    </comp>
  </station>
  <station code="PSAH" name="PSAH" netid="HA" insttype="25" lat="38.5694" lon="23.6473">
    <comp name="--.HHE">
      <acc value="0.0810939096" flag="0"/>
      <vel value="0.0271251204" flag="0"/>
      <psa03 value="0.1694790319" flag="0"/>
      <psa10 value="0.0253460425" flag="0"/>
      <psa30 value="0.0018033170" flag="0"/>
    </comp>
    <comp name="--.HHN">
      <acc value="0.1263808480" flag="0"/>
      <vel value="0.0349701400" flag="0"/>
      <psa03 value="0.2079434598" flag="0"/>
      <psa10 value="0.0233738602" flag="0"/>
      <psa30 value="0.0014992105" flag="0"/>
    </comp>
    <comp name="--.HHZ">
      <acc value="0.0709511881" flag="0"/>
      <vel value="0.0277719443" flag="0"/>
      <psa03 value="0.1507982190" flag="0"/>
      <psa10 value="0.0319160562" flag="0"/>
      <psa30 value="0.0018860132" flag="0"/>
    </comp>
  </station>
  <station code="THAL" name="THAL" netid="HA" insttype="30" lat="38.0357" lon="22.6634">
    <comp name="--.HHE">
      <acc value="0.0800948281" flag="0"/>
      <vel value="0.0390221745" flag="0"/>
      <psa03 value="0.2039751303" flag="0"/>
      <psa10 value="0.0269761900" flag="0"/>
      <psa30 value="0.0017214981" flag="0"/>
    </comp>
    <comp name="--.HHZ">
      <acc value="0.0382338089" flag="0"/>
      <vel value="0.0172732706" flag="0"/>
      <psa03 value="0.1204617575" flag="0"/>
      <psa10 value="0.0116529787" flag="0"/>
      <psa30 value="0.0009878061" flag="0"/>
    </comp>
    <comp name="--.HHN">
      <acc value="0.0814382945" flag="0"/>
      <vel value="0.0451661251" flag="0"/>
      <psa03 value="0.3530916290" flag="0"/>
      <psa10 value="0.0351126121" flag="0"/>
      <psa30 value="0.0016656733" flag="0"/>
    </comp>
  </station>
  <station code="THIV" name="THIV" netid="HA" insttype="25" lat="38.299" lon="23.332">
    <comp name="--.HHE">
      <acc value="0.1434623316" flag="0"/>
      <vel value="0.0674355972" flag="0"/>
      <psa03 value="0.4648608581" flag="0"/>
      <psa10 value="0.0259035749" flag="0"/>
      <psa30 value="0.0022466730" flag="0"/>
    </comp>
    <comp name="--.HHN">
      <acc value="0.0921564989" flag="0"/>
      <vel value="0.0398612686" flag="0"/>
      <psa03 value="0.2509601115" flag="0"/>
      <psa10 value="0.0191569880" flag="0"/>
      <psa30 value="0.0013776957" flag="0"/>
    </comp>
    <comp name="--.HHZ">
      <acc value="0.0819927778" flag="0"/>
      <vel value="0.0379280077" flag="0"/>
      <psa03 value="0.2485471578" flag="0"/>
      <psa10 value="0.0118891087" flag="0"/>
      <psa30 value="0.0013682696" flag="0"/>
    </comp>
  </station>
  <station code="VILL" name="VILL" netid="HA" insttype="Horizon,120s,1200" lat="38.1642" lon="23.3122">
    <comp name="--.HHE">
      <acc value="0.0770629061" flag="0"/>
      <vel value="0.0395320089" flag="0"/>
      <psa03 value="0.2451188921" flag="0"/>
      <psa10 value="0.0446055102" flag="0"/>
      <psa30 value="0.0025668222" flag="0"/>
    </comp>
    <comp name="--.HHN">
      <acc value="0.0859775283" flag="0"/>
      <vel value="0.0362192370" flag="0"/>
      <psa03 value="0.1812409518" flag="0"/>
      <psa10 value="0.0185693215" flag="0"/>
      <psa30 value="0.0016202545" flag="0"/>
    </comp>
    <comp name="--.HHZ">
      <acc value="0.0410179031" flag="0"/>
      <vel value="0.0198675335" flag="0"/>
      <psa03 value="0.1318710693" flag="0"/>
      <psa10 value="0.0174694742" flag="0"/>
      <psa30 value="0.0013712816" flag="0"/>
    </comp>
  </station>
  <station code="ATH5" name="ATH5" netid="HI" insttype="CMG-5TD,ACCELEROMETER,GURALP" lat="37.9754" lon="23.7371">
    <comp name="--.HNE">
      <acc value="0.1875560036" flag="0"/>
      <vel value="0.0881436538" flag="0"/>
      <psa03 value="0.4590812408" flag="0"/>
      <psa10 value="0.0246876784" flag="0"/>
      <psa30 value="0.0022381391" flag="0"/>
    </comp>
    <comp name="--.HNZ">
      <acc value="0.1035144142" flag="0"/>
      <vel value="0.0491252532" flag="0"/>
      <psa03 value="0.2352287319" flag="0"/>
      <psa10 value="0.0173900283" flag="0"/>
      <psa30 value="0.0016292265" flag="0"/>
    </comp>
    <comp name="--.HNN">
      <acc value="0.2471013466" flag="0"/>
      <vel value="0.0950324355" flag="0"/>
      <psa03 value="0.5446384170" flag="0"/>
      <psa10 value="0.0306032565" flag="0"/>
      <psa30 value="0.0023821019" flag="0"/>
    </comp>
  </station>
  <station code="SKY1" name="SKY1" netid="HI" insttype="CMG-5TD,ACCELEROMETER,GURALP" lat="38.9045" lon="24.5646">
    <comp name="--.HNN">
      <acc value="0.2773977913" flag="0"/>
      <vel value="0.1006723240" flag="0"/>
      <psa03 value="1.0784415676" flag="0"/>
      <psa10 value="0.0380860023" flag="0"/>
      <psa30 value="0.0029619388" flag="0"/>
    </comp>
    <comp name="--.HNE">
      <acc value="0.3371105212" flag="0"/>
      <vel value="0.0951557302" flag="0"/>
      <psa03 value="0.7407199349" flag="0"/>
      <psa10 value="0.0354421092" flag="0"/>
      <psa30 value="0.0035714802" flag="0"/>
    </comp>
    <comp name="--.HNZ">
      <acc value="0.3205630474" flag="0"/>
      <vel value="0.1129539718" flag="0"/>
      <psa03 value="0.7737490706" flag="0"/>
      <psa10 value="0.0445786804" flag="0"/>
      <psa30 value="0.0024503408" flag="0"/>
    </comp>
  </station>
  <station code="ALNA" name="ALNA" netid="HL" insttype="CMG-5" lat="39.148" lon="23.8667">
    <comp name="00.HNN">
      <acc value="0.1251797108" flag="0"/>
      <vel value="0.0875328271" flag="0"/>
      <psa03 value="0.2588633117" flag="0"/>
      <psa10 value="0.0754797741" flag="0"/>
      <psa30 value="0.0036787972" flag="0"/>
    </comp>
    <comp name="00.HNE">
      <acc value="0.0813632036" flag="0"/>
      <vel value="0.0777624249" flag="0"/>
      <psa03 value="0.1958700252" flag="0"/>
      <psa10 value="0.1093906409" flag="0"/>
      <psa30 value="0.0044446257" flag="0"/>
    </comp>
    <comp name="00.HNZ">
      <acc value="0.0602721825" flag="0"/>
      <vel value="0.0395636352" flag="0"/>
      <psa03 value="0.1164934638" flag="0"/>
      <psa10 value="0.0237937411" flag="0"/>
      <psa30 value="0.0014633286" flag="0"/>
    </comp>
  </station>
  <station code="ATH" name="ATH" netid="HL" insttype="DR24" lat="37.9738" lon="23.7177">
    <comp name="--.HHN">
      <acc value="0.2978770527" flag="0"/>
      <vel value="0.1232029230" flag="0"/>
      <psa03 value="0.7536151493" flag="0"/>
      <psa10 value="0.0470185349" flag="0"/>
      <psa30 value="0.0035481791" flag="0"/>
    </comp>
    <comp name="--.HHE">
      <acc value="0.3145262363" flag="0"/>
      <vel value="0.1104515667" flag="0"/>
      <psa03 value="0.7226736024" flag="0"/>
      <psa10 value="0.0336983078" flag="0"/>
      <psa30 value="0.0024788346" flag="0"/>
    </comp>
    <comp name="--.HHZ">
      <acc value="0.1270259611" flag="0"/>
      <vel value="0.0464012828" flag="0"/>
      <psa03 value="0.2527292540" flag="0"/>
      <psa10 value="0.0185812306" flag="0"/>
      <psa30 value="0.0021834829" flag="0"/>
    </comp>
  </station>
  <station code="ATHP" name="ATHP" netid="HL" insttype="CMG-5" lat="38.0008" lon="23.7735">
    <comp name="00.HNZ">
      <acc value="0.1176262191" flag="0"/>
      <vel value="0.0451455747" flag="0"/>
      <psa03 value="0.1961162880" flag="0"/>
      <psa10 value="0.0195682855" flag="0"/>
      <psa30 value="0.0016427903" flag="0"/>
    </comp>
    <comp name="00.HNN">
      <acc value="0.1363373890" flag="0"/>
      <vel value="0.0533109509" flag="0"/>
      <psa03 value="0.2888864522" flag="0"/>
      <psa10 value="0.0464271682" flag="0"/>
      <psa30 value="0.0016876066" flag="0"/>
    </comp>
    <comp name="00.HNE">
      <acc value="0.1124540248" flag="0"/>
      <vel value="0.0569051306" flag="0"/>
      <psa03 value="0.3572603733" flag="0"/>
      <psa10 value="0.0390956892" flag="0"/>
      <psa30 value="0.0020111077" flag="0"/>
    </comp>
  </station>
  <station code="LKR" name="LKR" netid="HL" insttype="65535" lat="38.6496" lon="22.9988">
    <comp name="--.HHE">
      <acc value="0.0021428817" flag="0"/>
      <vel value="0.0002174227" flag="0"/>
      <psa03 value="0.0006407129" flag="0"/>
      <psa10 value="0.0000733159" flag="0"/>
      <psa30 value="0.0000177680" flag="0"/>
    </comp>
    <comp name="--.HHN">
      <acc value="0.0673539925" flag="0"/>
