<?xml version="1.0" encoding="UTF-8" standalone="yes"?>
<!DOCTYPE earthquake SYSTEM "stationlist.dtd">
<stationlist created="" xmlns="ch.ethz.sed.shakemap.usgs.xml">
  <station code="ACOR" name="ACOR" netid="HA" insttype="Horizon,120s,1200" lat="37.8905" lon="22.8694">
    <comp name="--.HHE">
      <acc value="0.0153002922" flag="0"/>
      <vel value="0.0078797034" flag="0"/>
      <psa03 value="0.0405486394" flag="0"/>
      <psa10 value="0.0097320039" flag="0"/>
      <psa30 value="0.0006865972" flag="0"/>
    </comp>
    <comp name="--.HHZ">
      <acc value="0.0250300569" flag="0"/>
      <vel value="0.0096912444" flag="0"/>
      <psa03 value="0.0570890466" flag="0"/>
      <psa10 value="0.0097895590" flag="0"/>
      <psa30 value="0.0007452685" flag="0"/>
    </comp>
    <comp name="--.HHN">
      <acc value="0.0250271689" flag="0"/>
      <vel value="0.0157180689" flag="0"/>
      <psa03 value="0.0461031380" flag="0"/>
      <psa10 value="0.0237359798" flag="0"/>
      <psa30 value="0.0017995239" flag="0"/>
    </comp>
  </station>
  <station code="AMPE" name="AMPE" netid="HA" insttype="1s-100Hz," lat="38.3015" lon="23.2688">
    <comp name="--.HHZ">
      <acc value="0.0372832836" flag="0"/>
      <vel value="0.0165312517" flag="0"/>
      <psa03 value="0.1052629953" flag="0"/>
      <psa10 value="0.0152254553" flag="0"/>
      <psa30 value="0.0013199929" flag="0"/>
    </comp>
    <comp name="--.HHE">
      <acc value="0.0824222822" flag="0"/>
      <vel value="0.0354514244" flag="0"/>
      <psa03 value="0.1789689458" flag="0"/>
      <psa10 value="0.0364726965" flag="0"/>
      <psa30 value="0.0036558750" flag="0"/>
    </comp>
    <comp name="--.HHN">
      <acc value="0.0540726825" flag="0"/>
      <vel value="0.0252159742" flag="0"/>
      <psa03 value="0.1951121438" flag="0"/>
      <psa10 value="0.0315122527" flag="0"/>
      <psa30 value="0.0038253275" flag="0"/>
    </comp>
  </station>
  <station code="ATAL" name="ATAL" netid="HA" insttype="120s," lat="38.6926" lon="23.0213">
    <comp name="--.HHN">
      <acc value="0.0222035161" flag="0"/>
      <vel value="0.0131044636" flag="0"/>
      <psa03 value="0.0622266304" flag="0"/>
      <psa10 value="0.0061567323" flag="0"/>
      <psa30 value="0.0007968041" flag="0"/>
    </comp>
    <comp name="--.HHZ">
      <acc value="0.0240092901" flag="0"/>
      <vel value="0.0054160126" flag="0"/>
      <psa03 value="0.0236285090" flag="0"/>
      <psa10 value="0.0029408553" flag="0"/>
      <psa30 value="0.0002952602" flag="0"/>
    </comp>
    <comp name="--.HHE">
      <acc value="0.0170795988" flag="0"/>
      <vel value="0.0055518537" flag="0"/>
      <psa03 value="0.0311181111" flag="0"/>
      <psa10 value="0.0059305870" flag="0"/>
      <psa30 value="0.0004081225" flag="0"/>
    </comp>
  </station>
  <station code="ATHU" name="ATHU" netid="HA" insttype="60s," lat="37.9665" lon="23.7845">
    <comp name="--.HHE">
      <acc value="0.1364580803" flag="0"/>
      <vel value="0.0371001502" flag="0"/>
      <psa03 value="0.2021982033" flag="0"/>
      <psa10 value="0.0218934968" flag="0"/>
      <psa30 value="0.0014789865" flag="0"/>
    </comp>
    <comp name="--.HHN">
      <acc value="0.0927686004" flag="0"/>
      <vel value="0.0296344166" flag="0"/>
      <psa03 value="0.1740063704" flag="0"/>
      <psa10 value="0.0170755282" flag="0"/>
      <psa30 value="0.0012398288" flag="0"/>
    </comp>
    <comp name="--.HHZ">
      <acc value="0.0567324731" flag="0"/>
      <vel value="0.0147598894" flag="0"/>
      <psa03 value="0.0774573627" flag="0"/>
      <psa10 value="0.0111249602" flag="0"/>
      <psa30 value="0.0011234398" flag="0"/>
    </comp>
  </station>
  <station code="EPID" name="EPID" netid="HA" insttype="30" lat="37.6144" lon="23.1189">
    <comp name="--.HHE">
      <acc value="0.0795920610" flag="0"/>
      <vel value="0.0276168894" flag="0"/>
      <psa03 value="0.2210905849" flag="0"/>
      <psa10 value="0.0188601933" flag="0"/>
      <psa30 value="0.0012431770" flag="0"/>
    </comp>
    <comp name="--.HHN">
      <acc value="0.1025671102" flag="0"/>
      <vel value="0.0356751469" flag="0"/>
      <psa03 value="0.1485395254" flag="0"/>
      <psa10 value="0.0134201064" flag="0"/>
      <psa30 value="0.0012001063" flag="0"/>
    </comp>
    <comp name="--.HHZ">
      <acc value="0.0443235535" flag="0"/>
      <vel value="0.0154443307" flag="0"/>
      <psa03 value="0.0600057041" flag="0"/>
      <psa10 value="0.0092102116" flag="0"/>
      <psa30 value="0.0013863686" flag="0"/>
    </comp>
  </station>
  <station code="KARY" name="KARY" netid="HA" insttype="60" lat="38.0321" lon="24.437">
    <comp name="--.HHZ">
      <acc value="0.1557535864" flag="0"/>
      <vel value="0.0232651036" flag="0"/>
      <psa03 value="0.0591998342" flag="0"/>
      <psa10 value="0.0166118665" flag="0"/>
      <psa30 value="0.0007737425" flag="0"/>
    </comp>
    <comp name="--.HHN">
      <acc value="0.2003391194" flag="0"/>
      <vel value="0.0400284132" flag="0"/>
      <psa03 value="0.0936551885" flag="0"/>
      <psa10 value="0.0130168229" flag="0"/>
      <psa30 value="0.0011395257" flag="0"/>
    </comp>
    <comp name="--.HHE">
      <acc value="0.1690232288" flag="0"/>
      <vel value="0.0265319071" flag="0"/>
      <psa03 value="0.0995875549" flag="0"/>
      <psa10 value="0.0082103682" flag="0"/>
      <psa30 value="0.0006333952" flag="0"/>
    </comp>
  </station>
  <station code="KIAS" name="KIAS" netid="HA" insttype="DC" lat="37.9875" lon="22.7543">
    <comp name="--.HNE">
      <acc value="0.0692528532" flag="0"/>
      <vel value="0.0314549823" flag="0"/>
      <psa03 value="0.1886384045" flag="0"/>
      <psa10 value="0.0612088772" flag="0"/>
      <psa30 value="0.0030222379" flag="0"/>
    </comp>
    <comp name="--.HNN">
      <acc value="0.0696909961" flag="0"/>
      <vel value="0.0329602413" flag="0"/>
      <psa03 value="0.1538480156" flag="0"/>
      <psa10 value="0.0339157317" flag="0"/>
      <psa30 value="0.0027121336" flag="0"/>
    </comp>
    <comp name="--.HNZ">
      <acc value="0.0265062099" flag="0"/>
      <vel value="0.0129454962" flag="0"/>
      <psa03 value="0.0698092291" flag="0"/>
      <psa10 value="0.0141157697" flag="0"/>
      <psa30 value="0.0019999500" flag="0"/>
    </comp>
  </station>
  <station code="LOUT" name="LOUT" netid="HA" insttype="30" lat="37.9879" lon="22.9743">
    <comp name="--.HHE">
      <acc value="0.1959292009" flag="0"/>
      <vel value="0.0693991075" flag="0"/>
      <psa03 value="0.5182749900" flag="0"/>
      <psa10 value="0.0389546015" flag="0"/>
      <psa30 value="0.0021149496" flag="0"/>
    </comp>
    <comp name="--.HHN">
      <acc value="0.1461869871" flag="0"/>
      <vel value="0.0702053622" flag="0"/>
      <psa03 value="0.3590445659" flag="0"/>
      <psa10 value="0.0484350838" flag="0"/>
      <psa30 value="0.0023311891" flag="0"/>
    </comp>
    <comp name="--.HHZ">
      <acc value="0.0872273785" flag="0"/>
      <vel value="0.0285354535" flag="0"/>
      <psa03 value="0.1618670462" flag="0"/>
      <psa10 value="0.0196287066" flag="0"/>
      <psa30 value="0.0011707048" flag="0"/>
    </comp>
  </station>
  <station code="MDRA" name="MDRA" netid="HA" insttype="60" lat="38.0606" lon="23.4662">
    <comp name="--.HHN">
      <acc value="0.0876093211" flag="0"/>
      <vel value="0.0401015661" flag="0"/>
      <psa03 value="0.1897539679" flag="0"/>
      <psa10 value="0.0293045890" flag="0"/>
      <psa30 value="0.0023582294" flag="0"/>
    </comp>
    <comp name="--.HHZ">
      <acc value="0.0948458314" flag="0"/>
      <vel value="0.0347317420" flag="0"/>
      <psa03 value="0.1881550403" flag="0"/>
      <psa10 value="0.0193711418" flag="0"/>
      <psa30 value="0.0026948304" flag="0"/>
    </comp>
    <comp name="--.HHE">
      <acc value="0.0629847017" flag="0"/>
      <vel value="0.0275988267" flag="0"/>
      <psa03 value="0.0867984864" flag="0"/>
      <psa10 value="0.0180115246" flag="0"/>
      <psa30 value="0.0016448743" flag="0"/>
    </comp>
  </station>
  <station code="MRKA" name="MRKA" netid="HA" insttype="Horizon,120s,1200" lat="38.7047" lon="23.5863">
    <comp name="--.HHN">
      <acc value="0.1363285012" flag="0"/>
      <vel value="0.0520222725" flag="0"/>
      <psa03 value="0.2445454038" flag="0"/>
      <psa10 value="0.0616841001" flag="0"/>
      <psa30 value="0.0031695524" flag="0"/>
    </comp>
    <comp name="--.HHE">
      <acc value="0.1859330279" flag="0"/>
      <vel value="0.0539087146" flag="0"/>
      <psa03 value="0.2257251800" flag="0"/>
      <psa10 value="0.0577666748" flag="0"/>
      <psa30 value="0.0021640450" flag="0"/>
    </comp>
    <comp name="--.HHZ">
      <acc value="0.1068150424" flag="0"/>
      <vel value="0.0349192024" flag="0"/>
      <psa03 value="0.1476198343" flag="0"/>
      <psa10 value="0.0413577714" flag="0"/>
      <psa30 value="0.0016740344" flag="0"/>
    </comp>
  </station>
  <station code="MRTH" name="MRTH" netid="HA" insttype="S100," lat="38.1225" lon="23.9409">
    <comp name="--.HHE">
      <acc value="0.5460113239" flag="0"/>
      <vel value="0.1834337592" flag="0"/>
      <psa03 value="1.2385492686" flag="0"/>
      <psa10 value="0.0690262450" flag="0"/>
      <psa30 value="0.0050676027" flag="0"/>
    </comp>
    <comp name="--.HHZ">
      <acc value="1.0203185491" flag="0"/>
      <vel value="0.2927194635" flag="0"/>
      <psa03 value="1.2866924425" flag="0"/>
      <psa10 value="0.0647692291" flag="0"/>
      <psa30 value="0.0050381386" flag="0"/>
    </comp>
    <comp name="--.HHN">
      <acc value="0.6543789352" flag="0"/>
      <vel value="0.2999937543" flag="0"/>
      <psa03 value="1.3626048245" flag="0"/>
      <psa10 value="0.1189429067" flag="0"/>
      <psa30 value="0.0083590973" flag="0"/>
    </comp>
  </station>
  <station code="PRDM" name="PRDM" netid="HA" insttype="25" lat="38.2804" lon="22.847">
    <comp name="--.HHE">
      <acc value="0.0283637911" flag="0"/>
      <vel value="0.0096938451" flag="0"/>
      <psa03 value="0.0532744157" flag="0"/>
      <psa10 value="0.0063915607" flag="0"/>
      <psa30 value="0.0004632515" flag="0"/>
    </comp>
    <comp name="--.HHN">
      <acc value="0.0274888410" flag="0"/>
      <vel value="0.0093405293" flag="0"/>
      <psa03 value="0.0475673692" flag="0"/>
      <psa10 value="0.0044686300" flag="0"/>
      <psa30 value="0.0002355208" flag="0"/>
    </comp>
    <comp name="--.HHZ">
      <acc value="0.0124319532" flag="0"/>
      <vel value="0.0044315257" flag="0"/>
      <psa03 value="0.0234609646" flag="0"/>
      <psa10 value="0.0049590337" flag="0"/>
      <psa30 value="0.0002463410" flag="0"/>
    </comp>
  </station>
  <station code="PSAH" name="PSAH" netid="HA" insttype="25" lat="38.5694" lon="23.6473">
    <comp name="--.HHE">
      <acc value="0.0810939093" flag="0"/>
      <vel value="0.0271251205" flag="0"/>
      <psa03 value="0.1694790319" flag="0"/>
      <psa10 value="0.0253460441" flag="0"/>
      <psa30 value="0.0018035169" flag="0"/>
    </comp>
    <comp name="--.HHZ">
      <acc value="0.0709511883" flag="0"/>
      <vel value="0.0277719424" flag="0"/>
      <psa03 value="0.1507982190" flag="0"/>
      <psa10 value="0.0319160564" flag="0"/>
      <psa30 value="0.0018863290" flag="0"/>
    </comp>
    <comp name="--.HHN">
      <acc value="0.1263808479" flag="0"/>
      <vel value="0.0349701398" flag="0"/>
      <psa03 value="0.2079434598" flag="0"/>
      <psa10 value="0.0233738601" flag="0"/>
      <psa30 value="0.0014991722" flag="0"/>
    </comp>
  </station>
  <station code="THIV" name="THIV" netid="HA" insttype="25" lat="38.299" lon="23.332">
    <comp name="--.HHE">
      <acc value="0.1434623312" flag="0"/>
      <vel value="0.0674356078" flag="0"/>
      <psa03 value="0.4648608581" flag="0"/>
      <psa10 value="0.0259035746" flag="0"/>
      <psa30 value="0.0022462599" flag="0"/>
    </comp>
    <comp name="--.HHN">
      <acc value="0.0921564992" flag="0"/>
      <vel value="0.0398612742" flag="0"/>
      <psa03 value="0.2509601116" flag="0"/>
      <psa10 value="0.0191569882" flag="0"/>
      <psa30 value="0.0013776872" flag="0"/>
    </comp>
    <comp name="--.HHZ">
      <acc value="0.0819927780" flag="0"/>
      <vel value="0.0379280112" flag="0"/>
      <psa03 value="0.2485471578" flag="0"/>
      <psa10 value="0.0118891099" flag="0"/>
      <psa30 value="0.0013688775" flag="0"/>
    </comp>
  </station>
  <station code="VILL" name="VILL" netid="HA" insttype="Horizon,120s,1200" lat="38.1642" lon="23.3122">
    <comp name="--.HHE">
      <acc value="0.0770629058" flag="0"/>
      <vel value="0.0395320099" flag="0"/>
      <psa03 value="0.2451188921" flag="0"/>
      <psa10 value="0.0446055102" flag="0"/>
      <psa30 value="0.0025671080" flag="0"/>
    </comp>
    <comp name="--.HHN">
      <acc value="0.0859775285" flag="0"/>
      <vel value="0.0362192363" flag="0"/>
      <psa03 value="0.1812409518" flag="0"/>
      <psa10 value="0.0185693218" flag="0"/>
      <psa30 value="0.0016201450" flag="0"/>
    </comp>
    <comp name="--.HHZ">
      <acc value="0.0410179030" flag="0"/>
      <vel value="0.0198675352" flag="0"/>
      <psa03 value="0.1318710693" flag="0"/>
      <psa10 value="0.0174694743" flag="0"/>
      <psa30 value="0.0013711971" flag="0"/>
    </comp>
  </station>
  <station code="ATH5" name="ATH5" netid="HI" insttype="CMG-5TD,ACCELEROMETER,GURALP" lat="37.9754" lon="23.7371">
    <comp name="--.HNE">
      <acc value="0.1875560054" flag="0"/>
      <vel value="0.0881436564" flag="0"/>
      <psa03 value="0.4590812408" flag="0"/>
      <psa10 value="0.0246876885" flag="0"/>
      <psa30 value="0.0022374774" flag="0"/>
    </comp>
    <comp name="--.HNN">
      <acc value="0.2471013452" flag="0"/>
      <vel value="0.0950324390" flag="0"/>
      <psa03 value="0.5446384170" flag="0"/>
      <psa10 value="0.0306032546" flag="0"/>
      <psa30 value="0.0023820916" flag="0"/>
    </comp>
    <comp name="--.HNZ">
      <acc value="0.1035144160" flag="0"/>
      <vel value="0.0491252527" flag="0"/>
      <psa03 value="0.2352287319" flag="0"/>
      <psa10 value="0.0173900271" flag="0"/>
      <psa30 value="0.0016318256" flag="0"/>
    </comp>
  </station>
  <station code="SKY1" name="SKY1" netid="HI" insttype="CMG-5TD,ACCELEROMETER,GURALP" lat="38.9045" lon="24.5646">
    <comp name="--.HNE">
      <acc value="0.3371105205" flag="0"/>
      <vel value="0.0951557309" flag="0"/>
      <psa03 value="0.7407199349" flag="0"/>
      <psa10 value="0.0354421065" flag="0"/>
      <psa30 value="0.0035717243" flag="0"/>
    </comp>
    <comp name="--.HNZ">
      <acc value="0.3205630535" flag="0"/>
      <vel value="0.1129539703" flag="0"/>
      <psa03 value="0.7737490706" flag="0"/>
      <psa10 value="0.0445786813" flag="0"/>
      <psa30 value="0.0024506793" flag="0"/>
    </comp>
    <comp name="--.HNN">
      <acc value="0.2773977885" flag="0"/>
      <vel value="0.1006723265" flag="0"/>
      <psa03 value="1.0784415676" flag="0"/>
      <psa10 value="0.0380860038" flag="0"/>
      <psa30 value="0.0029620898" flag="0"/>
    </comp>
  </station>
  <station code="ALNA" name="ALNA" netid="HL" insttype="CMG-5" lat="39.148" lon="23.8667">
    <comp name="00.HNE">
      <acc value="0.0813632092" flag="0"/>
      <vel value="0.0777624249" flag="0"/>
      <psa03 value="0.1958700252" flag="0"/>
      <psa10 value="0.1093906408" flag="0"/>
      <psa30 value="0.0044448023" flag="0"/>
    </comp>
    <comp name="00.HNN">
      <acc value="0.1251797098" flag="0"/>
      <vel value="0.0875328284" flag="0"/>
      <psa03 value="0.2588633117" flag="0"/>
      <psa10 value="0.0754797756" flag="0"/>
      <psa30 value="0.0036785787" flag="0"/>
    </comp>
    <comp name="00.HNZ">
      <acc value="0.0602721835" flag="0"/>
      <vel value="0.0395636396" flag="0"/>
      <psa03 value="0.1164934638" flag="0"/>
      <psa10 value="0.0237937416" flag="0"/>
      <psa30 value="0.0014631621" flag="0"/>
    </comp>
  </station>
  <station code="ATH" name="ATH" netid="HL" insttype="DR24" lat="37.9738" lon="23.7177">
    <comp name="--.HHN">
      <acc value="0.2978770527" flag="0"/>
      <vel value="0.1232029183" flag="0"/>
      <psa03 value="0.7536151493" flag="0"/>
      <psa10 value="0.0470185291" flag="0"/>
      <psa30 value="0.0035502884" flag="0"/>
    </comp>
    <comp name="--.HHE">
      <acc value="0.3145262361" flag="0"/>
      <vel value="0.1104515674" flag="0"/>
      <psa03 value="0.7226736024" flag="0"/>
      <psa10 value="0.0336983065" flag="0"/>
      <psa30 value="0.0024796638" flag="0"/>
    </comp>
    <comp name="--.HHZ">
      <acc value="0.1270259616" flag="0"/>
      <vel value="0.0464012841" flag="0"/>
      <psa03 value="0.2527292540" flag="0"/>
      <psa10 value="0.0185812327" flag="0"/>
      <psa30 value="0.0021835874" flag="0"/>
    </comp>
  </station>
  <station code="ATHP" name="ATHP" netid="HL" insttype="CMG-5" lat="38.0008" lon="23.7735">
    <comp name="00.HNN">
      <acc value="0.1363373879" flag="0"/>
      <vel value="0.0533109600" flag="0"/>
      <psa03 value="0.2888864522" flag="0"/>
      <psa10 value="0.0464271695" flag="0"/>
      <psa30 value="0.0016886034" flag="0"/>
    </comp>
    <comp name="00.HNE">
      <acc value="0.1124540182" flag="0"/>
      <vel value="0.0569051307" flag="0"/>
      <psa03 value="0.3572603733" flag="0"/>
      <psa10 value="0.0390956861" flag="0"/>
      <psa30 value="0.0020114237" flag="0"/>
    </comp>
    <comp name="00.HNZ">
      <acc value="0.1176262182" flag="0"/>
      <vel value="0.0451455708" flag="0"/>
      <psa03 value="0.1961162880" flag="0"/>
      <psa10 value="0.0195682595" flag="0"/>
      <psa30 value="0.0016352155" flag="0"/>
    </comp>
  </station>
  <station code="LKR" name="LKR" netid="HL" insttype="65535" lat="38.6496" lon="22.9988">
    <comp name="--.HHE">
      <acc value="0.0021428814" flag="0"/>
      <vel value="0.0002174227" flag="0"/>
      <psa03 value="0.0006407129" flag="0"/>
      <psa10 value="0.0000733159" flag="0"/>
      <psa30 value="0.0000177691" flag="0"/>
    </comp>
    <comp name="--.HHN">
      <acc value="0.0673539927" flag="0"/>
      <vel value="0.0139921817" flag="0"/>
      <psa03 value="0.1035450992" flag="0"/>
      <psa10 value="0.0060209149" flag="0"/>
      <psa30 value="0.0005980232" flag="0"/>
    </comp>
    <comp name="--.HHZ">
      <acc value="0.0257577442" flag="0"/>
      <vel value="0.0086661505" flag="0"/>
      <psa03 value="0.0468719180" flag="0"/>
      <psa10 value="0.0055317799" flag="0"/>
      <psa30 value="0.0006024237" flag="0"/>
    </comp>
  </station>
  <station code="NEO" name="NEO" netid="HL" insttype="120" lat="39.3057" lon="23.2219">
    <comp name="--.HHZ">
      <acc value="0.0434440268" flag="0"/>
      <vel value="0.0222904519" flag="0"/>
      <psa03 value="0.1325607514" flag="0"/>
      <psa10 value="0.0201052165" flag="0"/>
      <psa30 value="0.0011915955" flag="0"/>
    </comp>
    <comp name="--.HHE">
      <acc value="0.0592590856" flag="0"/>
      <vel value="0.0269096333" flag="0"/>
      <psa03 value="0.1725320069" flag="0"/>
      <psa10 value="0.0159656166" flag="0"/>
      <psa30 value="0.0014507331" flag="0"/>
    </comp>
    <comp name="--.HHN">
      <acc value="0.0681689033" flag="0"/>
      <vel value="0.0296210968" flag="0"/>
      <psa03 value="0.3001850008" flag="0"/>
      <psa10 value="0.0175487094" flag="0"/>
      <psa30 value="0.0014786980" flag="0"/>
    </comp>
  </station>
  <station code="NOAC" name="NOAC" netid="HL" insttype="CMG-5" lat="37.9738" lon="23.7177">
    <comp name="00.HNE">
      <acc value="0.3246513823" flag="0"/>
      <vel value="0.1101198899" flag="0"/>
      <psa03 value="0.7381272092" flag="0"/>
      <psa10 value="0.0355717558" flag="0"/>
      <psa30 value="0.0024232918" flag="0"/>
    </comp>
    <comp name="00.HNN">
      <acc value="0.2992961208" flag="0"/>
