<stationlist created="1675692202">
	<station code="KOZK" name="KOZK" netid="KO" source="Bogazici University Kandilli Observatory And Earthquake Research Institute (KOERI)" insttype="" lat="39.2101" lon="34.868">
		<comp name=".HNE" depth="0.0">
			<acc value="0.169846884981" flag="0"/>
			<vel value="0.232942005984" flag="0"/>
			<psa03 value="0.269644841814" flag="0"/>
			<psa10 value="0.406676340313" flag="0"/>
			<psa30 value="0.0444190658785" flag="0"/>
		</comp>
		<comp name=".HNN" depth="0.0">
			<acc value="0.152156658003" flag="0"/>
			<vel value="0.242795409021" flag="0"/>
			<psa03 value="0.26366717499" flag="0"/>
			<psa10 value="0.476208046447" flag="0"/>
			<psa30 value="0.045331402983" flag="0"/>
		</comp>
		<comp name=".HNZ" depth="0.0">
			<acc value="0.115224344527" flag="0"/>
			<vel value="0.177911733308" flag="0"/>
			<psa03 value="0.250073920337" flag="0"/>
			<psa10 value="0.573621919637" flag="0"/>
			<psa30 value="0.0518719229269" flag="0"/>
		</comp>
	</station>
	<station code="KRMN" name="KRMN" netid="KO" source="Bogazici University Kandilli Observatory And Earthquake Research Institute (KOERI)" insttype="" lat="37.174" lon="33.2636">
		<comp name=".HNE" depth="0.0">
			<acc value="0.124601108954" flag="0"/>
			<vel value="0.154228221003" flag="0"/>
			<psa03 value="0.208460705332" flag="0"/>
			<psa10 value="0.554229714998" flag="0"/>
			<psa30 value="0.0216227890703" flag="0"/>
		</comp>
		<comp name=".HNN" depth="0.0">
			<acc value="0.0803707" flag="0"/>
			<vel value="0.226626848401" flag="0"/>
			<psa03 value="0.12342952035" flag="0"/>
			<psa10 value="0.19743712424" flag="0"/>
			<psa30 value="0.03362699429" flag="0"/>
		</comp>
		<comp name=".HNZ" depth="0.0">
			<acc value="0.0901034487547" flag="0"/>
			<vel value="0.152244345286" flag="0"/>
			<psa03 value="0.169737056747" flag="0"/>
			<psa10 value="0.11683174453" flag="0"/>
			<psa30 value="0.0448279562989" flag="0"/>
		</comp>
	</station>
	<station code="SLFK" name="SLFK" netid="KO" source="Bogazici University Kandilli Observatory And Earthquake Research Institute (KOERI)" insttype="" lat="36.3925" lon="33.9464">
		<comp name=".HNE" depth="0.0">
			<acc value="0.107757141212" flag="0"/>
			<vel value="0.120504841624" flag="0"/>
			<psa03 value="0.374764534645" flag="0"/>
			<psa10 value="0.173801843519" flag="0"/>
			<psa30 value="0.056828951306" flag="0"/>
		</comp>
		<comp name=".HNN" depth="0.0">
			<acc value="0.18803870252" flag="0"/>
			<vel value="0.141587631271" flag="0"/>
			<psa03 value="0.284778552681" flag="0"/>
			<psa10 value="0.307157227659" flag="0"/>
			<psa30 value="0.0418863214299" flag="0"/>
		</comp>
		<comp name=".HNZ" depth="0.0">
			<acc value="0.099236599136" flag="0"/>
			<vel value="0.16016534876" flag="0"/>
			<psa03 value="0.206492574953" flag="0"/>
			<psa10 value="0.233349278245" flag="0"/>
			<psa30 value="0.0496343046959" flag="0"/>
		</comp>
	</station>
	<station code="TUNC" name="TUNC" netid="KO" source="Bogazici University Kandilli Observatory And Earthquake Research Institute (KOERI)" insttype="" lat="39.6942" lon="37.5388">
		<comp name=".HNE" depth="0.0">
			<acc value="0.167743970579" flag="0"/>
			<vel value="0.217782394461" flag="0"/>
			<psa03 value="0.339255578184" flag="0"/>
			<psa10 value="0.565057132263" flag="0"/>
			<psa30 value="0.0427305106866" flag="0"/>
		</comp>
		<comp name=".HNN" depth="0.0">
			<acc value="0.107761154092" flag="0"/>
			<vel value="0.20399424416" flag="0"/>
			<psa03 value="0.245970794358" flag="0"/>
			<psa10 value="0.199777999312" flag="0"/>
			<psa30 value="0.0325263347101" flag="0"/>
		</comp>
		<comp name=".HNZ" depth="0.0">
			<acc value="0.118562587024" flag="0"/>
			<vel value="0.184582906534" flag="0"/>
			<psa03 value="0.267183595435" flag="0"/>
			<psa10 value="0.316674188111" flag="0"/>
			<psa30 value="0.0539831261171" flag="0"/>
		</comp>
	</station>
</stationlist>
