<?xml version="1.0" encoding="UTF-8" standalone="yes"?>
<!DOCTYPE earthquake SYSTEM "stationlist.dtd">
<stationlist created="" xmlns="ch.ethz.sed.shakemap.usgs.xml">
  <station code="CEYT" name="CEYT" netid="KO" insttype="CMG-3ESP" lat="37.0105" lon="35.7478">
    <comp name="--.HHE">
      <acc value="0.0168573477" flag="0"/>
      <vel value="0.0076015376" flag="0"/>
      <psa03 value="0.0536513105" flag="0"/>
      <psa10 value="0.0059429343" flag="0"/>
      <psa30 value="0.0020261881" flag="0"/>
    </comp>
    <comp name="--.HHZ">
      <acc value="0.0111098955" flag="0"/>
      <vel value="0.0052918115" flag="0"/>
      <psa03 value="0.0370181487" flag="0"/>
      <psa10 value="0.0097054659" flag="0"/>
      <psa30 value="0.0027248591" flag="0"/>
    </comp>
    <comp name="--.HHN">
      <acc value="0.0120096030" flag="0"/>
      <vel value="0.0064737909" flag="0"/>
      <psa03 value="0.0471775268" flag="0"/>
      <psa10 value="0.0083189285" flag="0"/>
      <psa30 value="0.0022243399" flag="0"/>
    </comp>
  </station>
  <station code="GAZ" name="GAZ" netid="KO" insttype="CMG-3T" lat="37.1721" lon="37.2096">
    <comp name="--.HHE">
      <acc value="0.0497023208" flag="0"/>
      <vel value="0.0259442660" flag="0"/>
      <psa03 value="0.1229108696" flag="0"/>
      <psa10 value="0.0288666123" flag="0"/>
      <psa30 value="0.0031454864" flag="0"/>
    </comp>
    <comp name="--.HHZ">
      <acc value="0.0318447490" flag="0"/>
      <vel value="0.0139252613" flag="0"/>
      <psa03 value="0.0780686059" flag="0"/>
      <psa10 value="0.0215134016" flag="0"/>
      <psa30 value="0.0021395214" flag="0"/>
    </comp>
    <comp name="--.HHN">
      <acc value="0.0473956644" flag="0"/>
      <vel value="0.0321785186" flag="0"/>
      <psa03 value="0.0945601782" flag="0"/>
      <psa10 value="0.0408955266" flag="0"/>
      <psa30 value="0.0034412449" flag="0"/>
    </comp>
  </station>
  <station code="KMRS" name="KMRS" netid="KO" insttype="CMG-3T" lat="37.5053" lon="36.9">
    <comp name="--.HHE">
      <acc value="0.0182335796" flag="0"/>
      <vel value="0.0090582396" flag="0"/>
      <psa03 value="0.0286301550" flag="0"/>
      <psa10 value="0.0140107291" flag="0"/>
      <psa30 value="0.0025409584" flag="0"/>
    </comp>
    <comp name="--.HHN">
      <acc value="0.0185403902" flag="0"/>
      <vel value="0.0124999927" flag="0"/>
      <psa03 value="0.0345766895" flag="0"/>
      <psa10 value="0.0212208770" flag="0"/>
      <psa30 value="0.0040130978" flag="0"/>
    </comp>
    <comp name="--.HHZ">
      <acc value="0.0137379570" flag="0"/>
      <vel value="0.0092555389" flag="0"/>
      <psa03 value="0.0174155709" flag="0"/>
      <psa10 value="0.0137178404" flag="0"/>
      <psa30 value="0.0023039142" flag="0"/>
    </comp>
  </station>
  <station code="ANDN" name="ANDN" netid="TU" insttype="T" lat="37.58" lon="36.3452">
    <comp name="--.HHE">
      <acc value="0.0314866393" flag="0"/>
      <vel value="0.0230301926" flag="0"/>
      <psa03 value="0.0818339831" flag="0"/>
      <psa10 value="0.0338958588" flag="0"/>
      <psa30 value="0.0021562031" flag="0"/>
    </comp>
    <comp name="--.HHN">
      <acc value="0.0456054476" flag="0"/>
      <vel value="0.0249867586" flag="0"/>
      <psa03 value="0.0863822854" flag="0"/>
      <psa10 value="0.0296091853" flag="0"/>
      <psa30 value="0.0021407059" flag="0"/>
    </comp>
    <comp name="--.HHZ">
      <acc value="0.0172664398" flag="0"/>
      <vel value="0.0141254600" flag="0"/>
      <psa03 value="0.0413527949" flag="0"/>
      <psa10 value="0.0233910461" flag="0"/>
      <psa30 value="0.0024448361" flag="0"/>
    </comp>
  </station>
</stationlist>
