<?xml version="1.0" encoding="UTF-8" standalone="yes"?>
<!DOCTYPE earthquake SYSTEM "stationlist.dtd">
<stationlist created="" xmlns="ch.ethz.sed.shakemap.usgs.xml">
  <station code="CEYT" name="CEYT" netid="KO" insttype="CMG-3ESP" lat="37.0105" lon="35.7478">
    <comp name="--.HHE">
      <acc value="0.0022379513" flag="0"/>
      <vel value="0.0001860690" flag="0"/>
      <psa03 value="0.0005093211" flag="0"/>
      <psa10 value="0.0001192832" flag="0"/>
      <psa30 value="0.0000523045" flag="0"/>
    </comp>
    <comp name="--.HHZ">
      <acc value="0.0111098954" flag="0"/>
      <vel value="0.0052918117" flag="0"/>
      <psa03 value="0.0370181487" flag="0"/>
      <psa10 value="0.0097054658" flag="0"/>
      <psa30 value="0.0027248317" flag="0"/>
    </comp>
    <comp name="--.HHN">
      <acc value="0.0120096031" flag="0"/>
      <vel value="0.0064737854" flag="0"/>
      <psa03 value="0.0471775269" flag="0"/>
      <psa10 value="0.0083189285" flag="0"/>
      <psa30 value="0.0022243264" flag="0"/>
    </comp>
  </station>
  <station code="GAZ" name="GAZ" netid="KO" insttype="CMG-3T" lat="37.1721" lon="37.2096">
    <comp name="--.HHE">
      <acc value="0.0497023193" flag="0"/>
      <vel value="0.0259442657" flag="0"/>
      <psa03 value="0.1229108696" flag="0"/>
      <psa10 value="0.0288666123" flag="0"/>
      <psa30 value="0.0031454847" flag="0"/>
    </comp>
    <comp name="--.HHN">
      <acc value="0.0473956657" flag="0"/>
      <vel value="0.0321785191" flag="0"/>
      <psa03 value="0.0945601782" flag="0"/>
      <psa10 value="0.0408955266" flag="0"/>
      <psa30 value="0.0034412449" flag="0"/>
    </comp>
    <comp name="--.HHZ">
      <acc value="0.0318447489" flag="0"/>
      <vel value="0.0139252616" flag="0"/>
      <psa03 value="0.0780686059" flag="0"/>
      <psa10 value="0.0215134016" flag="0"/>
      <psa30 value="0.0021395154" flag="0"/>
    </comp>
  </station>
  <station code="KMRS" name="KMRS" netid="KO" insttype="CMG-3T" lat="37.5053" lon="36.9">
    <comp name="--.HHZ">
      <acc value="0.0137379574" flag="0"/>
      <vel value="0.0092555391" flag="0"/>
      <psa03 value="0.0174155709" flag="0"/>
      <psa10 value="0.0137178404" flag="0"/>
      <psa30 value="0.0023039127" flag="0"/>
    </comp>
    <comp name="--.HHN">
      <acc value="0.0185403913" flag="0"/>
      <vel value="0.0124999925" flag="0"/>
      <psa03 value="0.0345766895" flag="0"/>
      <psa10 value="0.0212208770" flag="0"/>
      <psa30 value="0.0040130967" flag="0"/>
    </comp>
    <comp name="--.HHE">
      <acc value="0.0182335800" flag="0"/>
      <vel value="0.0090582395" flag="0"/>
      <psa03 value="0.0286301550" flag="0"/>
      <psa10 value="0.0140107291" flag="0"/>
      <psa30 value="0.0025409679" flag="0"/>
    </comp>
  </station>
  <station code="ANDN" name="ANDN" netid="TU" insttype="T" lat="37.58" lon="36.3452">
    <comp name="--.HHN">
      <acc value="0.0456054462" flag="0"/>
      <vel value="0.0249867585" flag="0"/>
      <psa03 value="0.0863822854" flag="0"/>
      <psa10 value="0.0296091853" flag="0"/>
      <psa30 value="0.0021406695" flag="0"/>
    </comp>
    <comp name="--.HHE">
      <acc value="0.0314866392" flag="0"/>
      <vel value="0.0230301936" flag="0"/>
      <psa03 value="0.0818339831" flag="0"/>
      <psa10 value="0.0338958588" flag="0"/>
      <psa30 value="0.0021564201" flag="0"/>
    </comp>
    <comp name="--.HHZ">
      <acc value="0.0172664405" flag="0"/>
      <vel value="0.0141254606" flag="0"/>
      <psa03 value="0.0413527949" flag="0"/>
      <psa10 value="0.0233910461" flag="0"/>
      <psa30 value="0.0024448379" flag="0"/>
    </comp>
  </station>
</stationlist>
