<stationlist created="1675692177">
	<station code="ARPRA" name="ARPRA" netid="KO" source="Bogazici University Kandilli Observatory And Earthquake Research Institute (KOERI)" insttype="" lat="39.0929" lon="38.3356">
		<comp name=".HNE" depth="0.0">
			<acc value="0.0355562938179" flag="0"/>
			<vel value="0.00658281059348" flag="0"/>
			<psa03 value="0.0178248266406" flag="0"/>
			<psa10 value="0.00883460931199" flag="0"/>
			<psa30 value="0.00120881080695" flag="0"/>
		</comp>
		<comp name=".HNN" depth="0.0">
			<acc value="0.0283635253613" flag="0"/>
			<vel value="0.00746609035485" flag="0"/>
			<psa03 value="0.023489066452" flag="0"/>
			<psa10 value="0.00974679442731" flag="0"/>
			<psa30 value="0.00149295025479" flag="0"/>
		</comp>
		<comp name=".HNZ" depth="0.0">
			<acc value="0.0424553540876" flag="0"/>
			<vel value="0.00522893268797" flag="0"/>
			<psa03 value="0.00860449057818" flag="0"/>
			<psa10 value="0.0079392112463" flag="0"/>
			<psa30 value="0.00111275183935" flag="0"/>
		</comp>
	</station>
	<station code="CMRD" name="CMRD" netid="KO" source="Bogazici University Kandilli Observatory And Earthquake Research Institute (KOERI)" insttype="" lat="37.6623" lon="34.9902">
		<comp name=".HNE" depth="0.0">
			<acc value="0.00210238738842" flag="0"/>
			<vel value="0.00173393570317" flag="0"/>
			<psa03 value="0.00342222735681" flag="0"/>
			<psa10 value="0.00258065400254" flag="0"/>
			<psa30 value="0.000396666120934" flag="0"/>
		</comp>
		<comp name=".HNN" depth="0.0">
			<acc value="0.00233158697885" flag="0"/>
			<vel value="0.00186563081475" flag="0"/>
			<psa03 value="0.00526339001488" flag="0"/>
			<psa10 value="0.0039432966928" flag="0"/>
			<psa30 value="0.000515219182824" flag="0"/>
		</comp>
		<comp name=".HNZ" depth="0.0">
			<acc value="0.00193105403793" flag="0"/>
			<vel value="0.00193850091381" flag="0"/>
			<psa03 value="0.00394752615267" flag="0"/>
			<psa10 value="0.00300132616688" flag="0"/>
			<psa30 value="0.000415802831355" flag="0"/>
		</comp>
	</station>
</stationlist>
