<?xml version="1.0" encoding="UTF-8" standalone="yes"?>
<!DOCTYPE earthquake SYSTEM "stationlist.dtd">
<stationlist created="" xmlns="ch.ethz.sed.shakemap.usgs.xml">
  <station code="ARPRA" name="ARPRA" netid="KO" insttype="CMG-5T" lat="39.0929" lon="38.3356">
    <comp name="--.HNE">
      <acc value="0.0200732053" flag="0"/>
      <vel value="0.0100418185" flag="0"/>
      <psa03 value="0.0625262941" flag="0"/>
      <psa10 value="0.0114166805" flag="0"/>
      <psa30 value="0.0008997960" flag="0"/>
    </comp>
    <comp name="--.HNZ">
      <acc value="0.0086558855" flag="0"/>
      <vel value="0.0052211126" flag="0"/>
      <psa03 value="0.0208524684" flag="0"/>
      <psa10 value="0.0062267409" flag="0"/>
      <psa30 value="0.0006263152" flag="0"/>
    </comp>
    <comp name="--.HNN">
      <acc value="0.0174157261" flag="0"/>
      <vel value="0.0107787078" flag="0"/>
      <psa03 value="0.0516948608" flag="0"/>
      <psa10 value="0.0161538076" flag="0"/>
      <psa30 value="0.0010896178" flag="0"/>
    </comp>
  </station>
  <station code="DARE" name="DARE" netid="KO" insttype="CMG-3ESP" lat="38.5712" lon="37.4832">
    <comp name="--.HHE">
      <acc value="0.1795988252" flag="0"/>
      <vel value="0.0630397917" flag="0"/>
      <psa03 value="0.1446961722" flag="0"/>
      <psa10 value="0.0508759823" flag="0"/>
      <psa30 value="0.0029920396" flag="0"/>
    </comp>
  </station>
  <station code="KMRS" name="KMRS" netid="KO" insttype="CMG-3T" lat="37.5087" lon="36.9">
    <comp name="--.HHE">
      <acc value="0.0077227955" flag="0"/>
      <vel value="0.0055963628" flag="0"/>
      <psa03 value="0.0136047657" flag="0"/>
      <psa10 value="0.0108730377" flag="0"/>
      <psa30 value="0.0006110461" flag="0"/>
    </comp>
    <comp name="--.HHN">
      <acc value="0.0112055660" flag="0"/>
      <vel value="0.0089223951" flag="0"/>
      <psa03 value="0.0239640142" flag="0"/>
      <psa10 value="0.0155453367" flag="0"/>
      <psa30 value="0.0008831678" flag="0"/>
    </comp>
    <comp name="--.HHZ">
      <acc value="0.0049315540" flag="0"/>
      <vel value="0.0032622737" flag="0"/>
      <psa03 value="0.0089868790" flag="0"/>
      <psa10 value="0.0038843604" flag="0"/>
      <psa30 value="0.0002896599" flag="0"/>
    </comp>
  </station>
</stationlist>
