<?xml version="1.0" encoding="UTF-8" standalone="yes"?>
<!DOCTYPE earthquake SYSTEM "stationlist.dtd">
<stationlist created="" xmlns="ch.ethz.sed.shakemap.usgs.xml">
  <station code="IMMV" name="IMMV" netid="GE" insttype="STS-2/N" lat="35.4606" lon="23.9811">
    <comp name="--.HHZ">
      <acc value="0.0329412143" flag="0"/>
      <vel value="0.0140654306" flag="0"/>
      <psa03 value="0.0758002234" flag="0"/>
      <psa10 value="0.0133998935" flag="0"/>
      <psa30 value="0.0017704603" flag="0"/>
    </comp>
    <comp name="--.HHN">
      <acc value="0.0334266253" flag="0"/>
      <vel value="0.0206588647" flag="0"/>
      <psa03 value="0.1236556067" flag="0"/>
      <psa10 value="0.0320446040" flag="0"/>
      <psa30 value="0.0027768267" flag="0"/>
    </comp>
    <comp name="--.HHE">
      <acc value="0.0402012478" flag="0"/>
      <vel value="0.0307207991" flag="0"/>
      <psa03 value="0.1126976474" flag="0"/>
      <psa10 value="0.0371989210" flag="0"/>
      <psa30 value="0.0050301017" flag="0"/>
    </comp>
  </station>
  <station code="CHAN" name="CHAN" netid="HC" insttype="120" lat="35.5193" lon="24.0428">
    <comp name="--.HHE">
      <acc value="0.0557932613" flag="0"/>
      <vel value="0.0516028062" flag="0"/>
      <psa03 value="0.1157287271" flag="0"/>
      <psa10 value="0.0781877005" flag="0"/>
      <psa30 value="0.0076361959" flag="0"/>
    </comp>
    <comp name="--.HHN">
      <acc value="0.0565729100" flag="0"/>
      <vel value="0.0731991809" flag="0"/>
      <psa03 value="0.1253081021" flag="0"/>
      <psa10 value="0.1144146295" flag="0"/>
      <psa30 value="0.0092363778" flag="0"/>
    </comp>
    <comp name="--.HHZ">
      <acc value="0.0295922320" flag="0"/>
      <vel value="0.0239009790" flag="0"/>
      <psa03 value="0.0759544408" flag="0"/>
      <psa10 value="0.0430820493" flag="0"/>
      <psa30 value="0.0045581672" flag="0"/>
    </comp>
  </station>
  <station code="GVDS" name="GVDS" netid="HC" insttype="60" lat="34.8389" lon="24.0585">
    <comp name="--.HHE">
      <acc value="0.2853009187" flag="0"/>
      <vel value="0.0641864491" flag="0"/>
      <psa03 value="0.2277693766" flag="0"/>
      <psa10 value="0.0248586088" flag="0"/>
      <psa30 value="0.0013475861" flag="0"/>
    </comp>
    <comp name="--.HHZ">
      <acc value="0.1978563439" flag="0"/>
      <vel value="0.0505331884" flag="0"/>
      <psa03 value="0.2369094236" flag="0"/>
      <psa10 value="0.0157711463" flag="0"/>
      <psa30 value="0.0015339783" flag="0"/>
    </comp>
    <comp name="--.HHN">
      <acc value="0.3323635939" flag="0"/>
      <vel value="0.0737056045" flag="0"/>
      <psa03 value="0.5257393505" flag="0"/>
      <psa10 value="0.0308628408" flag="0"/>
      <psa30 value="0.0027570432" flag="0"/>
    </comp>
  </station>
  <station code="IMOD" name="IMOD" netid="HC" insttype="120" lat="34.9731" lon="24.7995">
    <comp name="--.HHZ">
      <acc value="0.0128478167" flag="0"/>
      <vel value="0.0087776834" flag="0"/>
      <psa03 value="0.0323372396" flag="0"/>
      <psa10 value="0.0075824701" flag="0"/>
      <psa30 value="0.0012087535" flag="0"/>
    </comp>
    <comp name="--.HHE">
      <acc value="0.0224678395" flag="0"/>
      <vel value="0.0201474428" flag="0"/>
      <psa03 value="0.0734804493" flag="0"/>
      <psa10 value="0.0271870251" flag="0"/>
      <psa30 value="0.0022154470" flag="0"/>
    </comp>
    <comp name="--.HHN">
      <acc value="0.0210472654" flag="0"/>
      <vel value="0.0166640056" flag="0"/>
      <psa03 value="0.0639742441" flag="0"/>
      <psa10 value="0.0215830651" flag="0"/>
      <psa30 value="0.0032884366" flag="0"/>
    </comp>
  </station>
  <station code="IPPL" name="IPPL" netid="HC" insttype="60" lat="35.3486" lon="24.4632">
    <comp name="--.HHE">
      <acc value="0.0000000000" flag="0"/>
      <vel value="-100.0000000000" flag="0"/>
      <psa03 value="0.0000000000" flag="0"/>
      <psa10 value="0.0000000000" flag="0"/>
      <psa30 value="0.0000000000" flag="0"/>
    </comp>
    <comp name="--.HHN">
      <acc value="0.0000000000" flag="0"/>
      <vel value="-100.0000000000" flag="0"/>
      <psa03 value="0.0000000000" flag="0"/>
      <psa10 value="0.0000000000" flag="0"/>
      <psa30 value="0.0000000000" flag="0"/>
    </comp>
    <comp name="--.HHZ">
      <acc value="0.0156065213" flag="0"/>
      <vel value="0.0067869819" flag="0"/>
      <psa03 value="0.0368994244" flag="0"/>
      <psa10 value="0.0080951596" flag="0"/>
      <psa30 value="0.0012305589" flag="0"/>
    </comp>
  </station>
  <station code="KNDR" name="KNDR" netid="HC" insttype="120" lat="35.2348" lon="23.6248">
    <comp name="--.HHE">
      <acc value="0.2097111719" flag="0"/>
      <vel value="0.0633179092" flag="0"/>
      <psa03 value="0.3861027514" flag="0"/>
      <psa10 value="0.0701441707" flag="0"/>
      <psa30 value="0.0075469591" flag="0"/>
    </comp>
    <comp name="--.HHZ">
      <acc value="0.1088253237" flag="0"/>
      <vel value="0.0387706977" flag="0"/>
      <psa03 value="0.2576417725" flag="0"/>
      <psa10 value="0.0392641441" flag="0"/>
      <psa30 value="0.0040139643" flag="0"/>
    </comp>
    <comp name="--.HHN">
      <acc value="0.1221504625" flag="0"/>
      <vel value="0.0633615480" flag="0"/>
      <psa03 value="0.4949462061" flag="0"/>
      <psa10 value="0.1125207577" flag="0"/>
      <psa30 value="0.0075728172" flag="0"/>
    </comp>
  </station>
  <station code="ANKY" name="ANKY" netid="HL" insttype="60" lat="35.867" lon="23.3012">
    <comp name="--.HHE">
      <acc value="0.0173342220" flag="0"/>
      <vel value="0.0122708614" flag="0"/>
      <psa03 value="0.0360335606" flag="0"/>
      <psa10 value="0.0220346607" flag="0"/>
      <psa30 value="0.0028226403" flag="0"/>
    </comp>
    <comp name="--.HHN">
      <acc value="0.0109330407" flag="0"/>
      <vel value="0.0116919682" flag="0"/>
      <psa03 value="0.0301155872" flag="0"/>
      <psa10 value="0.0201638776" flag="0"/>
      <psa30 value="0.0037562726" flag="0"/>
    </comp>
    <comp name="--.HHZ">
      <acc value="0.0082697381" flag="0"/>
      <vel value="0.0064148443" flag="0"/>
      <psa03 value="0.0257999318" flag="0"/>
      <psa10 value="0.0097450117" flag="0"/>
      <psa30 value="0.0025884205" flag="0"/>
    </comp>
  </station>
  <station code="IDI" name="IDI" netid="HL" insttype="120" lat="35.288" lon="24.89">
    <comp name="--.HHN">
      <acc value="0.0048617308" flag="0"/>
      <vel value="0.0042932533" flag="0"/>
      <psa03 value="0.0116109831" flag="0"/>
      <psa10 value="0.0066991324" flag="0"/>
      <psa30 value="0.0007763186" flag="0"/>
    </comp>
    <comp name="--.HHE">
      <acc value="0.0043011469" flag="0"/>
      <vel value="0.0030013772" flag="0"/>
      <psa03 value="0.0093714322" flag="0"/>
      <psa10 value="0.0073290987" flag="0"/>
      <psa30 value="0.0005916420" flag="0"/>
    </comp>
    <comp name="--.HHZ">
      <acc value="0.0049305191" flag="0"/>
      <vel value="0.0025946800" flag="0"/>
      <psa03 value="0.0117120884" flag="0"/>
      <psa10 value="0.0051969018" flag="0"/>
      <psa30 value="0.0007992239" flag="0"/>
    </comp>
  </station>
  <station code="IMMV" name="IMMV" netid="HL" insttype="120" lat="35.4606" lon="23.9811">
    <comp name="--.HHN">
      <acc value="0.0326350659" flag="0"/>
      <vel value="0.0204020686" flag="0"/>
      <psa03 value="0.1202241053" flag="0"/>
      <psa10 value="0.0318334282" flag="0"/>
      <psa30 value="0.0027715314" flag="0"/>
    </comp>
    <comp name="--.HHZ">
      <acc value="0.0321415997" flag="0"/>
      <vel value="0.0138899193" flag="0"/>
      <psa03 value="0.0739283829" flag="0"/>
      <psa10 value="0.0133146862" flag="0"/>
      <psa30 value="0.0017689225" flag="0"/>
    </comp>
    <comp name="--.HHE">
      <acc value="0.0392903518" flag="0"/>
      <vel value="0.0303310615" flag="0"/>
      <psa03 value="0.1098511013" flag="0"/>
      <psa10 value="0.0369265446" flag="0"/>
      <psa30 value="0.0050206095" flag="0"/>
    </comp>
  </station>
  <station code="SIVA" name="SIVA" netid="HL" insttype="60" lat="35.0178" lon="24.812">
    <comp name="--.HHE">
      <acc value="0.0322377965" flag="0"/>
      <vel value="0.0298610209" flag="0"/>
      <psa03 value="0.0649237899" flag="0"/>
      <psa10 value="0.0474911990" flag="0"/>
      <psa30 value="0.0024724119" flag="0"/>
    </comp>
    <comp name="--.HHN">
      <acc value="0.0221578621" flag="0"/>
      <vel value="0.0135300017" flag="0"/>
      <psa03 value="0.0464079068" flag="0"/>
      <psa10 value="0.0221725095" flag="0"/>
      <psa30 value="0.0019706016" flag="0"/>
    </comp>
    <comp name="--.HHZ">
      <acc value="0.0144361727" flag="0"/>
      <vel value="0.0078119985" flag="0"/>
      <psa03 value="0.0328306942" flag="0"/>
      <psa10 value="0.0106535854" flag="0"/>
      <psa30 value="0.0017442945" flag="0"/>
    </comp>
  </station>
  <station code="VAM" name="VAM" netid="HL" insttype="CMG3ESPC-120s" lat="35.407" lon="24.1997">
    <comp name="--.HHN">
      <acc value="0.0350338329" flag="0"/>
      <vel value="0.0221143438" flag="0"/>
      <psa03 value="0.0782530048" flag="0"/>
      <psa10 value="0.0336310741" flag="0"/>
      <psa30 value="0.0036247537" flag="0"/>
    </comp>
    <comp name="--.HHE">
      <acc value="0.0300154346" flag="0"/>
      <vel value="0.0156847973" flag="0"/>
      <psa03 value="0.0596768332" flag="0"/>
      <psa10 value="0.0276938710" flag="0"/>
      <psa30 value="0.0020266694" flag="0"/>
    </comp>
    <comp name="--.HHZ">
      <acc value="0.0203382414" flag="0"/>
      <vel value="0.0127714010" flag="0"/>
      <psa03 value="0.0484470544" flag="0"/>
      <psa10 value="0.0140899539" flag="0"/>
      <psa30 value="0.0011970492" flag="0"/>
    </comp>
  </station>
  <station code="IDI" name="IDI" netid="MN" insttype="" lat="35.288" lon="24.89">
    <comp name="--.HHN">
      <acc value="0.0049903054" flag="0"/>
      <vel value="0.0042558165" flag="0"/>
      <psa03 value="0.0117085836" flag="0"/>
      <psa10 value="0.0066497798" flag="0"/>
      <psa30 value="0.0007672254" flag="0"/>
    </comp>
    <comp name="--.HHZ">
      <acc value="0.0050820883" flag="0"/>
      <vel value="0.0025887330" flag="0"/>
      <psa03 value="0.0119483104" flag="0"/>
      <psa10 value="0.0051524402" flag="0"/>
      <psa30 value="0.0007898817" flag="0"/>
    </comp>
    <comp name="--.HHE">
      <acc value="0.0044200110" flag="0"/>
      <vel value="0.0030066720" flag="0"/>
      <psa03 value="0.0094569088" flag="0"/>
      <psa10 value="0.0072746359" flag="0"/>
      <psa30 value="0.0005845063" flag="0"/>
    </comp>
  </station>
</stationlist>
