<?xml version="1.0" encoding="UTF-8" standalone="yes"?>
<!DOCTYPE earthquake SYSTEM "stationlist.dtd">
<stationlist created="" xmlns="ch.ethz.sed.shakemap.usgs.xml">
  <station code="CHAN" name="CHAN" netid="HC" insttype="120" lat="35.5193" lon="24.0428">
    <comp name="--.HHN">
      <acc value="0.0565729100" flag="0"/>
      <vel value="0.0731991826" flag="0"/>
      <psa03 value="0.1253081021" flag="0"/>
      <psa10 value="0.1144146298" flag="0"/>
      <psa30 value="0.0092366165" flag="0"/>
    </comp>
    <comp name="--.HHZ">
      <acc value="0.0295922311" flag="0"/>
      <vel value="0.0239009779" flag="0"/>
      <psa03 value="0.0759544408" flag="0"/>
      <psa10 value="0.0430820494" flag="0"/>
      <psa30 value="0.0045581523" flag="0"/>
    </comp>
    <comp name="--.HHE">
      <acc value="0.0557932604" flag="0"/>
      <vel value="0.0516028072" flag="0"/>
      <psa03 value="0.1157287271" flag="0"/>
      <psa10 value="0.0781877003" flag="0"/>
      <psa30 value="0.0076362248" flag="0"/>
    </comp>
  </station>
  <station code="GVDS" name="GVDS" netid="HC" insttype="60" lat="34.8389" lon="24.0585">
    <comp name="--.HHN">
      <acc value="0.3323635965" flag="0"/>
      <vel value="0.0737056045" flag="0"/>
      <psa03 value="0.5257393505" flag="0"/>
      <psa10 value="0.0308628416" flag="0"/>
      <psa30 value="0.0027571051" flag="0"/>
    </comp>
    <comp name="--.HHZ">
      <acc value="0.1978563424" flag="0"/>
      <vel value="0.0505331876" flag="0"/>
      <psa03 value="0.2369094236" flag="0"/>
      <psa10 value="0.0157711465" flag="0"/>
      <psa30 value="0.0015341768" flag="0"/>
    </comp>
    <comp name="--.HHE">
      <acc value="0.2853009179" flag="0"/>
      <vel value="0.0641864471" flag="0"/>
      <psa03 value="0.2277693766" flag="0"/>
      <psa10 value="0.0248586086" flag="0"/>
      <psa30 value="0.0013480600" flag="0"/>
    </comp>
  </station>
  <station code="IMOD" name="IMOD" netid="HC" insttype="120" lat="34.9731" lon="24.7995">
    <comp name="--.HHE">
      <acc value="0.0224678383" flag="0"/>
      <vel value="0.0201474424" flag="0"/>
      <psa03 value="0.0734804493" flag="0"/>
      <psa10 value="0.0271870251" flag="0"/>
      <psa30 value="0.0022154523" flag="0"/>
    </comp>
    <comp name="--.HHZ">
      <acc value="0.0128478167" flag="0"/>
      <vel value="0.0087776837" flag="0"/>
      <psa03 value="0.0323372396" flag="0"/>
      <psa10 value="0.0075824701" flag="0"/>
      <psa30 value="0.0011499497" flag="0"/>
    </comp>
    <comp name="--.HHN">
      <acc value="0.0210472655" flag="0"/>
      <vel value="0.0166640058" flag="0"/>
      <psa03 value="0.0639742441" flag="0"/>
      <psa10 value="0.0215830651" flag="0"/>
      <psa30 value="0.0032884356" flag="0"/>
    </comp>
  </station>
  <station code="IPPL" name="IPPL" netid="HC" insttype="60" lat="35.3486" lon="24.4632">
    <comp name="--.HHN">
      <acc value="0.0000000000" flag="0"/>
      <vel value="-100.0000000000" flag="0"/>
      <psa03 value="0.0000000000" flag="0"/>
      <psa10 value="0.0000000000" flag="0"/>
      <psa30 value="0.0000000000" flag="0"/>
    </comp>
    <comp name="--.HHE">
      <acc value="0.0000000000" flag="0"/>
      <vel value="-100.0000000000" flag="0"/>
      <psa03 value="0.0000000000" flag="0"/>
      <psa10 value="0.0000000000" flag="0"/>
      <psa30 value="0.0000000000" flag="0"/>
    </comp>
    <comp name="--.HHZ">
      <acc value="0.0156065218" flag="0"/>
      <vel value="0.0067869820" flag="0"/>
      <psa03 value="0.0368994244" flag="0"/>
      <psa10 value="0.0080951596" flag="0"/>
      <psa30 value="0.0012305911" flag="0"/>
    </comp>
  </station>
  <station code="KNDR" name="KNDR" netid="HC" insttype="120" lat="35.2348" lon="23.6248">
    <comp name="--.HHE">
      <acc value="0.2097111715" flag="0"/>
      <vel value="0.0633179100" flag="0"/>
      <psa03 value="0.3861027514" flag="0"/>
      <psa10 value="0.0701441723" flag="0"/>
      <psa30 value="0.0075469766" flag="0"/>
    </comp>
    <comp name="--.HHZ">
      <acc value="0.1088253243" flag="0"/>
      <vel value="0.0387706972" flag="0"/>
      <psa03 value="0.2576417725" flag="0"/>
      <psa10 value="0.0392641441" flag="0"/>
      <psa30 value="0.0040139133" flag="0"/>
    </comp>
    <comp name="--.HHN">
      <acc value="0.1221504622" flag="0"/>
      <vel value="0.0633615486" flag="0"/>
      <psa03 value="0.4949462061" flag="0"/>
      <psa10 value="0.1125207578" flag="0"/>
      <psa30 value="0.0075734502" flag="0"/>
    </comp>
  </station>
  <station code="ANKY" name="ANKY" netid="HL" insttype="60" lat="35.867" lon="23.3012">
    <comp name="--.HHZ">
      <acc value="0.0082697381" flag="0"/>
      <vel value="0.0064148443" flag="0"/>
      <psa03 value="0.0257999318" flag="0"/>
      <psa10 value="0.0097450117" flag="0"/>
      <psa30 value="0.0025884280" flag="0"/>
    </comp>
    <comp name="--.HHN">
      <acc value="0.0109330413" flag="0"/>
      <vel value="0.0116919698" flag="0"/>
      <psa03 value="0.0301155872" flag="0"/>
      <psa10 value="0.0201638776" flag="0"/>
      <psa30 value="0.0037563164" flag="0"/>
    </comp>
    <comp name="--.HHE">
      <acc value="0.0173342210" flag="0"/>
      <vel value="0.0122708613" flag="0"/>
      <psa03 value="0.0360335606" flag="0"/>
      <psa10 value="0.0220346606" flag="0"/>
      <psa30 value="0.0028226631" flag="0"/>
    </comp>
  </station>
  <station code="IMMV" name="IMMV" netid="HL" insttype="120" lat="35.4606" lon="23.9811">
    <comp name="--.HHE">
      <acc value="0.0392903501" flag="0"/>
      <vel value="0.0303310628" flag="0"/>
      <psa03 value="0.1098511013" flag="0"/>
      <psa10 value="0.0369265444" flag="0"/>
      <psa30 value="0.0050206364" flag="0"/>
    </comp>
    <comp name="--.HHN">
      <acc value="0.0326350654" flag="0"/>
      <vel value="0.0204020685" flag="0"/>
      <psa03 value="0.1202241053" flag="0"/>
      <psa10 value="0.0318334281" flag="0"/>
      <psa30 value="0.0027713975" flag="0"/>
    </comp>
    <comp name="--.HHZ">
      <acc value="0.0321416006" flag="0"/>
      <vel value="0.0138899181" flag="0"/>
      <psa03 value="0.0739283829" flag="0"/>
      <psa10 value="0.0133146863" flag="0"/>
      <psa30 value="0.0017689423" flag="0"/>
    </comp>
  </station>
  <station code="SIVA" name="SIVA" netid="HL" insttype="60" lat="35.0178" lon="24.812">
    <comp name="--.HHN">
      <acc value="0.0221578619" flag="0"/>
      <vel value="0.0135300022" flag="0"/>
      <psa03 value="0.0464079068" flag="0"/>
      <psa10 value="0.0221725095" flag="0"/>
      <psa30 value="0.0016066032" flag="0"/>
    </comp>
    <comp name="--.HHE">
      <acc value="0.0322377968" flag="0"/>
      <vel value="0.0298610207" flag="0"/>
      <psa03 value="0.0649237899" flag="0"/>
      <psa10 value="0.0474911989" flag="0"/>
      <psa30 value="0.0024724118" flag="0"/>
    </comp>
    <comp name="--.HHZ">
      <acc value="0.0144361737" flag="0"/>
      <vel value="0.0078119950" flag="0"/>
      <psa03 value="0.0328306942" flag="0"/>
      <psa10 value="0.0106535854" flag="0"/>
      <psa30 value="0.0017442872" flag="0"/>
    </comp>
  </station>
  <station code="VAM" name="VAM" netid="HL" insttype="CMG3ESPC-120s" lat="35.407" lon="24.1997">
    <comp name="--.HHZ">
      <acc value="0.0203382416" flag="0"/>
      <vel value="0.0127714004" flag="0"/>
      <psa03 value="0.0484470544" flag="0"/>
      <psa10 value="0.0140899539" flag="0"/>
      <psa30 value="0.0011970499" flag="0"/>
    </comp>
    <comp name="--.HHE">
      <acc value="0.0300154322" flag="0"/>
      <vel value="0.0156847974" flag="0"/>
      <psa03 value="0.0596768332" flag="0"/>
      <psa10 value="0.0276938710" flag="0"/>
      <psa30 value="0.0020267685" flag="0"/>
    </comp>
    <comp name="--.HHN">
      <acc value="0.0350338326" flag="0"/>
      <vel value="0.0221143437" flag="0"/>
      <psa03 value="0.0782530048" flag="0"/>
      <psa10 value="0.0336310741" flag="0"/>
      <psa30 value="0.0036246447" flag="0"/>
    </comp>
  </station>
</stationlist>
