<stationlist xmlns:esm="https://esm-db.eu/esmws/shakemap/1/" created="1784080590">
	<station code="ATEI" name="ATEI" netid="HC" source="Seismological Network of Crete (HC)" insttype="" lat="35.5193" lon="24.0432" esm:processing="manual (Paolucci et al 2011)" esm:quality="good">
		<comp name="--.HNE" depth="0.0">
			<acc value="0.0264466623434893" flag="0"/>
			<vel value="0.0276249848435685" flag="0"/>
			<psa03 value="0.0602113272465949" flag="0"/>
			<psa10 value="0.0487705558099689" flag="0"/>
			<psa30 value="0.004549814319536" flag="0"/>
		</comp>
		<comp name="--.HNN" depth="0.0">
			<acc value="0.0279674385383023" flag="0"/>
			<vel value="0.0381523320403952" flag="0"/>
			<psa03 value="0.065436444218284" flag="0"/>
			<psa10 value="0.0525797581509294" flag="0"/>
			<psa30 value="0.00428942165313313" flag="0"/>
		</comp>
		<comp name="--.HNZ" depth="0.0">
			<acc value="0.0155072923172908" flag="0"/>
			<vel value="0.0127689565494203" flag="0"/>
			<psa03 value="0.0406891355597056" flag="0"/>
			<psa10 value="0.0227829636345278" flag="0"/>
			<psa30 value="0.00208006654420012" flag="0"/>
		</comp>
	</station>
	<station code="LENT" name="LENT" netid="HC" source="Seismological Network of Crete (HC)" insttype="" lat="35.5074" lon="24.0402" esm:processing="manual (Paolucci et al 2011)" esm:quality="good">
		<comp name="--.HNE" depth="0.0">
			<acc value="0.0308683130932318" flag="0"/>
			<vel value="0.0280556106937461" flag="0"/>
			<psa03 value="0.0846391069254466" flag="0"/>
			<psa10 value="0.0502423970622285" flag="0"/>
			<psa30 value="0.00319332966741842" flag="0"/>
		</comp>
		<comp name="--.HNN" depth="0.0">
			<acc value="0.0346219754760528" flag="0"/>
			<vel value="0.0362551993128813" flag="0"/>
			<psa03 value="0.0735871872900108" flag="0"/>
			<psa10 value="0.0489605583967078" flag="0"/>
			<psa30 value="0.00258505478885964" flag="0"/>
		</comp>
		<comp name="--.HNZ" depth="0.0">
			<acc value="0.0243183222988122" flag="0"/>
			<vel value="0.0225674230132621" flag="0"/>
			<psa03 value="0.0841579187990948" flag="0"/>
			<psa10 value="0.0260426551980961" flag="0"/>
			<psa30 value="0.0018329391315552" flag="0"/>
		</comp>
	</station>
	<station code="PASK" name="PASK" netid="HC" source="Seismological Network of Crete (HC)" insttype="" lat="35.4996" lon="24.0121" esm:processing="manual (Paolucci et al 2011)" esm:quality="good">
		<comp name="--.HNE" depth="0.0">
			<acc value="0.0581613524173443" flag="0"/>
			<vel value="0.0452619396890312" flag="0"/>
			<psa03 value="0.138610130157526" flag="0"/>
			<psa10 value="0.0688811430376751" flag="0"/>
			<psa30 value="0.00844581532714884" flag="0"/>
		</comp>
		<comp name="--.HNN" depth="0.0">
			<acc value="0.0579050624750685" flag="0"/>
			<vel value="0.0364238466229953" flag="0"/>
			<psa03 value="0.131588144152082" flag="0"/>
			<psa10 value="0.0529288650275467" flag="0"/>
			<psa30 value="0.00648161729200213" flag="0"/>
		</comp>
		<comp name="--.HNZ" depth="0.0">
			<acc value="0.0326704315538874" flag="0"/>
			<vel value="0.0197490660477204" flag="0"/>
			<psa03 value="0.128646240932099" flag="0"/>
			<psa10 value="0.0363661553293147" flag="0"/>
			<psa30 value="0.00353168645689515" flag="0"/>
		</comp>
	</station>
	<station code="POLY" name="POLY" netid="HC" source="Seismological Network of Crete (HC)" insttype="" lat="35.5226" lon="24.0602" esm:processing="manual (Paolucci et al 2011)" esm:quality="good">
		<comp name="--.HNE" depth="0.0">
			<acc value="0.0102897573980334" flag="0"/>
			<vel value="0.00594419353045472" flag="0"/>
			<psa03 value="0.0242837024261075" flag="0"/>
			<psa10 value="0.0119140339337771" flag="0"/>
			<psa30 value="0.000560206121322855" flag="0"/>
		</comp>
		<comp name="--.HNN" depth="0.0">
			<acc value="0.0146422664035551" flag="0"/>
			<vel value="0.00963289255735256" flag="0"/>
			<psa03 value="0.0280292916988477" flag="0"/>
			<psa10 value="0.00759105599520471" flag="0"/>
			<psa30 value="0.000646384173945901" flag="0"/>
		</comp>
		<comp name="--.HNZ" depth="0.0">
			<acc value="0.00891178123051822" flag="0"/>
			<vel value="0.00772044475410342" flag="0"/>
			<psa03 value="0.024070211720896" flag="0"/>
			<psa10 value="0.00786120795394614" flag="0"/>
			<psa30 value="0.000460136002585274" flag="0"/>
		</comp>
	</station>
	<station code="ARK1" name="ARK1" netid="HI" source="ITSAK Strong Motion Network" insttype="" lat="35.148777" lon="25.264194" esm:processing="manual (Paolucci et al 2011)" esm:quality="good">
		<comp name="--.HNE" depth="0.0">
			<acc value="0.00788627851590032" flag="0"/>
			<vel value="0.00757841818827012" flag="0"/>
			<psa03 value="0.021831170166215" flag="0"/>
			<psa10 value="0.0149268532057677" flag="0"/>
			<psa30 value="0.00222774841073232" flag="0"/>
		</comp>
		<comp name="--.HNN" depth="0.0">
			<acc value="0.00804277722980543" flag="0"/>
			<vel value="0.0094563455550448" flag="0"/>
			<psa03 value="0.0180095003326777" flag="0"/>
			<psa10 value="0.0110280433662502" flag="0"/>
			<psa30 value="0.00222943331401556" flag="0"/>
		</comp>
		<comp name="--.HNZ" depth="0.0">
			<acc value="0.00475432902064966" flag="0"/>
			<vel value="0.00462193638271027" flag="0"/>
			<psa03 value="0.0120257784196342" flag="0"/>
			<psa10 value="0.00832530026028379" flag="0"/>
			<psa30 value="0.00086778774709603" flag="0"/>
		</comp>
	</station>
	<station code="CH01" name="CH01" netid="HI" source="ITSAK Strong Motion Network" insttype="" lat="35.517" lon="24.0208" esm:processing="manual (Paolucci et al 2011)" esm:quality="good">
		<comp name="--.HNE" depth="0.0">
			<acc value="0.0286128118354268" flag="0"/>
			<vel value="0.0284158201621657" flag="0"/>
			<psa03 value="0.080471606890689" flag="0"/>
			<psa10 value="0.0578829582119067" flag="0"/>
			<psa30 value="0.00817622746827626" flag="0"/>
		</comp>
		<comp name="--.HNN" depth="0.0">
			<acc value="0.03778363478175" flag="0"/>
			<vel value="0.0398752771365677" flag="0"/>
			<psa03 value="0.0801074265155265" flag="0"/>
			<psa10 value="0.051758056217209" flag="0"/>
			<psa30 value="0.00553348281607964" flag="0"/>
		</comp>
		<comp name="--.HNZ" depth="0.0">
			<acc value="0.0179560824210982" flag="0"/>
			<vel value="0.0185639439969948" flag="0"/>
			<psa03 value="0.0379540038498198" flag="0"/>
			<psa10 value="0.0351499797636522" flag="0"/>
			<psa30 value="0.00339089254665624" flag="0"/>
		</comp>
	</station>
	<station code="CH03" name="CH03" netid="HI" source="ITSAK Strong Motion Network" insttype="" lat="35.53303" lon="24.0705" esm:processing="automatic (Paolucci et al 2011)" esm:quality="best">
		<comp name="--.HNE" depth="0.0">
			<acc value="0.0181267862195532" flag="0"/>
			<vel value="0.024220184410912" flag="0"/>
			<psa03 value="0.0479988307284885" flag="0"/>
			<psa10 value="0.0302470718450696" flag="0"/>
			<psa30 value="0.00364935841875026" flag="0"/>
		</comp>
		<comp name="--.HNN" depth="0.0">
			<acc value="0.0201568358964878" flag="0"/>
			<vel value="0.0237967426704335" flag="0"/>
			<psa03 value="0.0636073542999585" flag="0"/>
			<psa10 value="0.0457116281710853" flag="0"/>
			<psa30 value="0.00410281095775885" flag="0"/>
		</comp>
		<comp name="--.HNZ" depth="0.0">
			<acc value="0.0174532922781399" flag="0"/>
			<vel value="0.0125920771634355" flag="0"/>
			<psa03 value="0.0422447021500104" flag="0"/>
			<psa10 value="0.020461271083774" flag="0"/>
			<psa30 value="0.00219309173990005" flag="0"/>
		</comp>
	</station>
	<station code="GOR1" name="GOR1" netid="HI" source="ITSAK Strong Motion Network" insttype="" lat="35.0582" lon="24.9628" esm:processing="manual (Paolucci et al 2011)" esm:quality="good">
		<comp name="--.HNE" depth="0.0">
			<acc value="0.0103542437148839" flag="0"/>
			<vel value="0.0171496192136768" flag="0"/>
			<psa03 value="0.0286401811256075" flag="0"/>
			<psa10 value="0.0239488277423032" flag="0"/>
			<psa30 value="0.0039897951376803" flag="0"/>
		</comp>
		<comp name="--.HNN" depth="0.0">
			<acc value="0.00881488548619456" flag="0"/>
			<vel value="0.0137361371082714" flag="0"/>
			<psa03 value="0.0307538706263302" flag="0"/>
			<psa10 value="0.0215562161185254" flag="0"/>
			<psa30 value="0.0058366966525082" flag="0"/>
		</comp>
		<comp name="--.HNZ" depth="0.0">
			<acc value="0.00784106991002197" flag="0"/>
			<vel value="0.0101338836600358" flag="0"/>
			<psa03 value="0.0195005939019754" flag="0"/>
			<psa10 value="0.0139271541681127" flag="0"/>
			<psa30 value="0.00212289021439143" flag="0"/>
		</comp>
	</station>
	<station code="HER1" name="HER1" netid="HI" source="ITSAK Strong Motion Network" insttype="" lat="35.317672" lon="25.10217" esm:processing="manual (Paolucci et al 2011)" esm:quality="good">
		<comp name="--.HNE" depth="0.0">
			<acc value="0.016589816323306" flag="0"/>
			<vel value="0.0231502964922915" flag="0"/>
			<psa03 value="0.0312537292603448" flag="0"/>
			<psa10 value="0.0659454860648081" flag="0"/>
			<psa30 value="0.0041443141238048" flag="0"/>
		</comp>
		<comp name="--.HNN" depth="0.0">
			<acc value="0.0186508041583655" flag="0"/>
			<vel value="0.0300721669569516" flag="0"/>
			<psa03 value="0.0304248957083564" flag="0"/>
			<psa10 value="0.0506825749718547" flag="0"/>
			<psa30 value="0.00412116634037775" flag="0"/>
		</comp>
		<comp name="--.HNZ" depth="0.0">
			<acc value="0.0157116945736219" flag="0"/>
			<vel value="0.0158817703800909" flag="0"/>
			<psa03 value="0.028118698663287" flag="0"/>
			<psa10 value="0.0341731375526498" flag="0"/>
			<psa30 value="0.00118269001407576" flag="0"/>
		</comp>
	</station>
	<station code="KIS1" name="KIS1" netid="HI" source="ITSAK Strong Motion Network" insttype="" lat="35.493933" lon="23.658993" esm:processing="manual (Paolucci et al 2011)" esm:quality="good">
		<comp name="--.HNE" depth="0.0">
			<acc value="0.0682084871018239" flag="0"/>
			<vel value="0.0445446716050057" flag="0"/>
			<psa03 value="0.165960504485597" flag="0"/>
			<psa10 value="0.0440471441571282" flag="0"/>
			<psa30 value="0.00553917735998189" flag="0"/>
		</comp>
		<comp name="--.HNN" depth="0.0">
			<acc value="0.0834492748688755" flag="0"/>
			<vel value="0.053406538774995" flag="0"/>
			<psa03 value="0.21580048322292" flag="0"/>
			<psa10 value="0.0629425571355042" flag="0"/>
			<psa30 value="0.00574243832502327" flag="0"/>
		</comp>
		<comp name="--.HNZ" depth="0.0">
			<acc value="0.0374544479114857" flag="0"/>
			<vel value="0.0248349636726239" flag="0"/>
			<psa03 value="0.117819346620153" flag="0"/>
			<psa10 value="0.0394557224979768" flag="0"/>
			<psa30 value="0.00319300277076312" flag="0"/>
		</comp>
	</station>
	<station code="ANKY" name="ANKY" netid="HL" source="National Observatory of Athens Seismic Network" insttype="" lat="35.86704" lon="23.30117" esm:processing="manual (Paolucci et al 2011)" esm:quality="good">
		<comp name="00.HNE" depth="0.0">
			<acc value="0.0178324233597607" flag="0"/>
			<vel value="0.0119448302068105" flag="0"/>
			<psa03 value="0.0384588107283132" flag="0"/>
			<psa10 value="0.025554312847803" flag="0"/>
			<psa30 value="0.00265836422858379" flag="0"/>
		</comp>
		<comp name="00.HNN" depth="0.0">
			<acc value="0.0116178446591446" flag="0"/>
			<vel value="0.0105878856293632" flag="0"/>
			<psa03 value="0.0303768326285763" flag="0"/>
			<psa10 value="0.0164884097762237" flag="0"/>
			<psa30 value="0.00433230282713377" flag="0"/>
		</comp>
		<comp name="00.HNZ" depth="0.0">
			<acc value="0.0124999604466411" flag="0"/>
			<vel value="0.00707442218881519" flag="0"/>
			<psa03 value="0.0249016261730114" flag="0"/>
			<psa10 value="0.00974027274527119" flag="0"/>
			<psa30 value="0.00295117654262921" flag="0"/>
		</comp>
	</station>
	<station code="CHNB" name="CHNB" netid="HL" source="National Observatory of Athens Seismic Network" insttype="" lat="35.48765" lon="24.06605" esm:processing="manual (Paolucci et al 2011)" esm:quality="good">
		<comp name="00.HNE" depth="0.0">
			<acc value="0.114528226745656" flag="0"/>
			<vel value="0.107793903566053" flag="0"/>
			<psa03 value="0.269225314022529" flag="0"/>
			<psa10 value="0.138403038522029" flag="0"/>
			<psa30 value="0.00564253462357475" flag="0"/>
		</comp>
		<comp name="00.HNN" depth="0.0">
			<acc value="0.101928190601561" flag="0"/>
			<vel value="0.0942872584713225" flag="0"/>
			<psa03 value="0.282229758836444" flag="0"/>
			<psa10 value="0.135674792789024" flag="0"/>
			<psa30 value="0.00635122365404513" flag="0"/>
		</comp>
		<comp name="00.HNZ" depth="0.0">
			<acc value="0.072743671241653" flag="0"/>
			<vel value="0.0433867934877801" flag="0"/>
			<psa03 value="0.219320278892042" flag="0"/>
			<psa10 value="0.0386904993056991" flag="0"/>
			<psa30 value="0.00256196909288071" flag="0"/>
		</comp>
	</station>
	<station code="IMMV" name="IMMV" netid="HL" source="National Observatory of Athens Seismic Network" insttype="" lat="35.4606" lon="23.9811" esm:processing="manual (Paolucci et al 2011)" esm:quality="best">
		<comp name="--.HNE" depth="0.0">
			<acc value="0.0379004058169759" flag="0"/>
			<vel value="0.0290777133490452" flag="0"/>
			<psa03 value="0.107033694623801" flag="0"/>
			<psa10 value="0.0361041254711414" flag="0"/>
			<psa30 value="0.0050000499787507" flag="0"/>
		</comp>
		<comp name="--.HNN" depth="0.0">
			<acc value="0.0317797183240725" flag="0"/>
			<vel value="0.0199339909627136" flag="0"/>
			<psa03 value="0.115732979242051" flag="0"/>
			<psa10 value="0.0310449559509665" flag="0"/>
			<psa30 value="0.0027397367024426" flag="0"/>
		</comp>
		<comp name="--.HNZ" depth="0.0">
			<acc value="0.0315805707723197" flag="0"/>
			<vel value="0.0139695117872479" flag="0"/>
			<psa03 value="0.0737033720701709" flag="0"/>
			<psa10 value="0.0134320548077257" flag="0"/>
			<psa30 value="0.00178394484425629" flag="0"/>
		</comp>
	</station>
	<station code="G0LD" name="G0LD" netid="HC" source="Seismological Network of Crete (HC)" insttype="" lat="35.4955" lon="24.0306" esm:processing="automatic (Paolucci et al 2011)" esm:quality="bad">
		<comp name="--.HNE" depth="0.0">
			<acc value="0" flag="1"/>
			<vel value="0" flag="1"/>
			<psa03 value="0" flag="1"/>
			<psa10 value="0" flag="1"/>
			<psa30 value="0" flag="1"/>
		</comp>
		<comp name="--.HNN" depth="0.0">
			<acc value="0" flag="1"/>
			<vel value="0" flag="1"/>
			<psa03 value="0" flag="1"/>
			<psa10 value="0" flag="1"/>
			<psa30 value="0" flag="1"/>
		</comp>
		<comp name="--.HNZ" depth="0.0">
			<acc value="0" flag="1"/>
			<vel value="0" flag="1"/>
			<psa03 value="0" flag="1"/>
			<psa10 value="0" flag="1"/>
			<psa30 value="0" flag="1"/>
		</comp>
	</station>
	<station code="MULT" name="MULT" netid="HC" source="Seismological Network of Crete (HC)" insttype="" lat="35.5091" lon="24.0118" esm:processing="automatic (Paolucci et al 2011)" esm:quality="bad">
		<comp name="--.HNE" depth="0.0">
			<acc value="0" flag="1"/>
			<vel value="0" flag="1"/>
			<psa03 value="0" flag="1"/>
			<psa10 value="0" flag="1"/>
			<psa30 value="0" flag="1"/>
		</comp>
		<comp name="--.HNN" depth="0.0">
			<acc value="0" flag="1"/>
			<vel value="0" flag="1"/>
			<psa03 value="0" flag="1"/>
			<psa10 value="0" flag="1"/>
			<psa30 value="0" flag="1"/>
		</comp>
		<comp name="--.HNZ" depth="0.0">
			<acc value="0" flag="1"/>
			<vel value="0" flag="1"/>
			<psa03 value="0" flag="1"/>
			<psa10 value="0" flag="1"/>
			<psa30 value="0" flag="1"/>
		</comp>
	</station>
	<station code="SOUD" name="SOUD" netid="HC" source="Seismological Network of Crete (HC)" insttype="" lat="35.4878" lon="24.0678" esm:processing="automatic (Paolucci et al 2011)" esm:quality="bad">
		<comp name="--.HNE" depth="0.0">
			<acc value="0" flag="1"/>
			<vel value="0" flag="1"/>
			<psa03 value="0" flag="1"/>
			<psa10 value="0" flag="1"/>
			<psa30 value="0" flag="1"/>
		</comp>
		<comp name="--.HNN" depth="0.0">
			<acc value="0" flag="1"/>
			<vel value="0" flag="1"/>
			<psa03 value="0" flag="1"/>
			<psa10 value="0" flag="1"/>
			<psa30 value="0" flag="1"/>
		</comp>
		<comp name="--.HNZ" depth="0.0">
			<acc value="0" flag="1"/>
			<vel value="0" flag="1"/>
			<psa03 value="0" flag="1"/>
			<psa10 value="0" flag="1"/>
			<psa30 value="0" flag="1"/>
		</comp>
	</station>
	<station code="AGN1" name="AGN1" netid="HI" source="ITSAK Strong Motion Network" insttype="" lat="35.1879" lon="25.7155" esm:processing="automatic (Paolucci et al 2011)" esm:quality="bad">
		<comp name="--.HNE" depth="0.0">
			<acc value="0" flag="1"/>
			<vel value="0" flag="1"/>
			<psa03 value="0" flag="1"/>
			<psa10 value="0" flag="1"/>
			<psa30 value="0" flag="1"/>
		</comp>
		<comp name="--.HNN" depth="0.0">
			<acc value="0" flag="1"/>
			<vel value="0" flag="1"/>
			<psa03 value="0" flag="1"/>
			<psa10 value="0" flag="1"/>
			<psa30 value="0" flag="1"/>
		</comp>
		<comp name="--.HNZ" depth="0.0">
			<acc value="0" flag="1"/>
			<vel value="0" flag="1"/>
			<psa03 value="0" flag="1"/>
			<psa10 value="0" flag="1"/>
			<psa30 value="0" flag="1"/>
		</comp>
	</station>
	<station code="CH02" name="CH02" netid="HI" source="ITSAK Strong Motion Network" insttype="" lat="35.5145" lon="24.0315" esm:processing="automatic (Paolucci et al 2011)" esm:quality="bad">
		<comp name="--.HNE" depth="0.0">
			<acc value="0" flag="1"/>
			<vel value="0" flag="1"/>
			<psa03 value="0" flag="1"/>
			<psa10 value="0" flag="1"/>
			<psa30 value="0" flag="1"/>
		</comp>
		<comp name="--.HNN" depth="0.0">
			<acc value="0" flag="1"/>
			<vel value="0" flag="1"/>
			<psa03 value="0" flag="1"/>
			<psa10 value="0" flag="1"/>
			<psa30 value="0" flag="1"/>
		</comp>
		<comp name="--.HNZ" depth="0.0">
			<acc value="0" flag="1"/>
			<vel value="0" flag="1"/>
			<psa03 value="0" flag="1"/>
			<psa10 value="0" flag="1"/>
			<psa30 value="0" flag="1"/>
		</comp>
	</station>
	<station code="GTH2" name="GTH2" netid="HI" source="ITSAK Strong Motion Network" insttype="" lat="36.7603" lon="22.5659" esm:processing="automatic (Paolucci et al 2011)" esm:quality="bad">
		<comp name="--.HNE" depth="0.0">
			<acc value="0" flag="1"/>
			<vel value="0" flag="1"/>
			<psa03 value="0" flag="1"/>
			<psa10 value="0" flag="1"/>
			<psa30 value="0" flag="1"/>
		</comp>
		<comp name="--.HNN" depth="0.0">
			<acc value="0" flag="1"/>
			<vel value="0" flag="1"/>
			<psa03 value="0" flag="1"/>
			<psa10 value="0" flag="1"/>
			<psa30 value="0" flag="1"/>
		</comp>
		<comp name="--.HNZ" depth="0.0">
			<acc value="0" flag="1"/>
			<vel value="0" flag="1"/>
			<psa03 value="0" flag="1"/>
			<psa10 value="0" flag="1"/>
			<psa30 value="0" flag="1"/>
		</comp>
	</station>
	<station code="HER3" name="HER3" netid="HI" source="ITSAK Strong Motion Network" insttype="" lat="35.3296" lon="25.1065" esm:processing="automatic (Paolucci et al 2011)" esm:quality="bad">
		<comp name="--.HNE" depth="0.0">
			<acc value="0" flag="1"/>
			<vel value="0" flag="1"/>
			<psa03 value="0" flag="1"/>
			<psa10 value="0" flag="1"/>
			<psa30 value="0" flag="1"/>
		</comp>
		<comp name="--.HNN" depth="0.0">
			<acc value="0" flag="1"/>
			<vel value="0" flag="1"/>
			<psa03 value="0" flag="1"/>
			<psa10 value="0" flag="1"/>
			<psa30 value="0" flag="1"/>
		</comp>
		<comp name="--.HNZ" depth="0.0">
			<acc value="0" flag="1"/>
			<vel value="0" flag="1"/>
			<psa03 value="0" flag="1"/>
			<psa10 value="0" flag="1"/>
			<psa30 value="0" flag="1"/>
		</comp>
	</station>
	<station code="KTL1" name="KTL1" netid="HI" source="ITSAK Strong Motion Network" insttype="" lat="35.20778" lon="25.34272" esm:processing="automatic (Paolucci et al 2011)" esm:quality="bad">
		<comp name="--.HNE" depth="0.0">
			<acc value="0" flag="1"/>
			<vel value="0" flag="1"/>
			<psa03 value="0" flag="1"/>
			<psa10 value="0" flag="1"/>
			<psa30 value="0" flag="1"/>
		</comp>
		<comp name="--.HNN" depth="0.0">
			<acc value="0" flag="1"/>
			<vel value="0" flag="1"/>
			<psa03 value="0" flag="1"/>
			<psa10 value="0" flag="1"/>
			<psa30 value="0" flag="1"/>
		</comp>
		<comp name="--.HNZ" depth="0.0">
			<acc value="0" flag="1"/>
			<vel value="0" flag="1"/>
