<?xml version="1.0" encoding="UTF-8" standalone="yes"?>
<!DOCTYPE earthquake SYSTEM "stationlist.dtd">
<stationlist created="" xmlns="ch.ethz.sed.shakemap.usgs.xml">
  <station code="IMMV" name="IMMV" netid="GE" insttype="STS-2/N" lat="35.4606" lon="23.9811">
    <comp name="--.HHE">
      <acc value="0.0402012477" flag="0"/>
      <vel value="0.0307207992" flag="0"/>
      <psa03 value="0.1126976474" flag="0"/>
      <psa10 value="0.0371989210" flag="0"/>
      <psa30 value="0.0050301008" flag="0"/>
    </comp>
    <comp name="--.HHZ">
      <acc value="0.0329412143" flag="0"/>
      <vel value="0.0140654302" flag="0"/>
      <psa03 value="0.0758002234" flag="0"/>
      <psa10 value="0.0133998935" flag="0"/>
      <psa30 value="0.0017704557" flag="0"/>
    </comp>
    <comp name="--.HHN">
      <acc value="0.0334266253" flag="0"/>
      <vel value="0.0206588650" flag="0"/>
      <psa03 value="0.1236556067" flag="0"/>
      <psa10 value="0.0320446040" flag="0"/>
      <psa30 value="0.0027768049" flag="0"/>
    </comp>
  </station>
  <station code="IDI" name="IDI" netid="MN" insttype="" lat="35.288" lon="24.89">
    <comp name="--.HHN">
      <acc value="0.0049903054" flag="0"/>
      <vel value="0.0042558163" flag="0"/>
      <psa03 value="0.0117085836" flag="0"/>
      <psa10 value="0.0066497798" flag="0"/>
      <psa30 value="0.0007672209" flag="0"/>
    </comp>
    <comp name="--.HHZ">
      <acc value="0.0050820883" flag="0"/>
      <vel value="0.0025887331" flag="0"/>
      <psa03 value="0.0119483104" flag="0"/>
      <psa10 value="0.0051524402" flag="0"/>
      <psa30 value="0.0007898780" flag="0"/>
    </comp>
    <comp name="--.HHE">
      <acc value="0.0044200110" flag="0"/>
      <vel value="0.0030066718" flag="0"/>
      <psa03 value="0.0094569088" flag="0"/>
      <psa10 value="0.0072746359" flag="0"/>
      <psa30 value="0.0005845070" flag="0"/>
    </comp>
  </station>
</stationlist>
