<?xml version="1.0" encoding="UTF-8" standalone="yes"?>
<!DOCTYPE earthquake SYSTEM "stationlist.dtd">
<stationlist created="" xmlns="ch.ethz.sed.shakemap.usgs.xml">
  <station code="KARP" name="KARP" netid="GE" insttype="STS-2/N" lat="35.5471" lon="27.1611">
    <comp name="--.HHN">
      <acc value="0.0590090368" flag="0"/>
      <vel value="0.0110454073" flag="0"/>
      <psa03 value="0.0309569354" flag="0"/>
      <psa10 value="0.0091496099" flag="0"/>
      <psa30 value="0.0005186482" flag="0"/>
    </comp>
    <comp name="--.HHZ">
      <acc value="0.0580887611" flag="0"/>
      <vel value="0.0113943394" flag="0"/>
      <psa03 value="0.0255405532" flag="0"/>
      <psa10 value="0.0053429049" flag="0"/>
      <psa30 value="0.0004011180" flag="0"/>
    </comp>
    <comp name="--.HHE">
      <acc value="0.0637308965" flag="0"/>
      <vel value="0.0130188547" flag="0"/>
      <psa03 value="0.0443692923" flag="0"/>
      <psa10 value="0.0134364977" flag="0"/>
      <psa30 value="0.0006190800" flag="0"/>
    </comp>
  </station>
  <station code="STIA" name="STIA" netid="HC" insttype="120" lat="35.2021" lon="26.0909">
    <comp name="--.HHE">
      <acc value="0.0547996773" flag="0"/>
      <vel value="0.0162380971" flag="0"/>
      <psa03 value="0.1048549760" flag="0"/>
      <psa10 value="0.0133511057" flag="0"/>
      <psa30 value="0.0011300807" flag="0"/>
    </comp>
    <comp name="--.HHN">
      <acc value="0.0634848538" flag="0"/>
      <vel value="0.0210873722" flag="0"/>
      <psa03 value="0.0962770440" flag="0"/>
      <psa10 value="0.0120283442" flag="0"/>
      <psa30 value="0.0010442817" flag="0"/>
    </comp>
    <comp name="--.HHZ">
      <acc value="0.0989080650" flag="0"/>
      <vel value="0.0193293176" flag="0"/>
      <psa03 value="0.0856070355" flag="0"/>
      <psa10 value="0.0098165869" flag="0"/>
      <psa30 value="0.0004563592" flag="0"/>
    </comp>
  </station>
  <station code="SIT2" name="SIT2" netid="HI" insttype="CMG-5TD,ACCELEROMETER,GURALP" lat="35.2059" lon="26.107">
    <comp name="--.HNE">
      <acc value="0.1264260428" flag="0"/>
      <vel value="0.0491152965" flag="0"/>
      <psa03 value="0.3261087442" flag="0"/>
      <psa10 value="0.0153954738" flag="0"/>
      <psa30 value="0.0018394156" flag="0"/>
    </comp>
    <comp name="--.HNN">
      <acc value="0.1149846206" flag="0"/>
      <vel value="0.0500557927" flag="0"/>
      <psa03 value="0.4221979576" flag="0"/>
      <psa10 value="0.0232918535" flag="0"/>
      <psa30 value="0.0016725204" flag="0"/>
    </comp>
    <comp name="--.HNZ">
      <acc value="0.1027627566" flag="0"/>
      <vel value="0.0369629208" flag="0"/>
      <psa03 value="0.2121592735" flag="0"/>
      <psa10 value="0.0114267633" flag="0"/>
      <psa30 value="0.0006873646" flag="0"/>
    </comp>
  </station>
  <station code="KARP" name="KARP" netid="HL" insttype="120" lat="35.5471" lon="27.1611">
    <comp name="--.HHE">
      <acc value="0.0567480216" flag="0"/>
      <vel value="0.0124482413" flag="0"/>
      <psa03 value="0.0429303881" flag="0"/>
      <psa10 value="0.0133138396" flag="0"/>
      <psa30 value="0.0006162915" flag="0"/>
    </comp>
    <comp name="--.HHN">
      <acc value="0.0502805089" flag="0"/>
      <vel value="0.0107142263" flag="0"/>
      <psa03 value="0.0302652388" flag="0"/>
      <psa10 value="0.0090796546" flag="0"/>
      <psa30 value="0.0005154682" flag="0"/>
    </comp>
    <comp name="--.HHZ">
      <acc value="0.0531769110" flag="0"/>
      <vel value="0.0108957971" flag="0"/>
      <psa03 value="0.0247479601" flag="0"/>
      <psa10 value="0.0052968821" flag="0"/>
      <psa30 value="0.0003957584" flag="0"/>
    </comp>
  </station>
  <station code="NPS" name="NPS" netid="HL" insttype="CMG3ESPC-120s" lat="35.2613" lon="25.6104">
    <comp name="--.HHN">
      <acc value="0.0970864741" flag="0"/>
      <vel value="0.0233643308" flag="0"/>
      <psa03 value="0.0591568766" flag="0"/>
      <psa10 value="0.0052551332" flag="0"/>
      <psa30 value="0.0004222360" flag="0"/>
    </comp>
    <comp name="--.HHE">
      <acc value="0.0273604729" flag="0"/>
      <vel value="0.0103110944" flag="0"/>
      <psa03 value="0.0870934597" flag="0"/>
      <psa10 value="0.0035884624" flag="0"/>
      <psa30 value="0.0002694633" flag="0"/>
    </comp>
    <comp name="--.HHZ">
      <acc value="0.0924380955" flag="0"/>
      <vel value="0.0227463325" flag="0"/>
      <psa03 value="0.0992225239" flag="0"/>
      <psa10 value="0.0058788711" flag="0"/>
      <psa30 value="0.0006134012" flag="0"/>
    </comp>
  </station>
</stationlist>
