<?xml version="1.0" encoding="UTF-8" standalone="yes"?>
<!DOCTYPE earthquake SYSTEM "stationlist.dtd">
<stationlist created="" xmlns="ch.ethz.sed.shakemap.usgs.xml">
  <station code="FAG" name="FAG" netid="VI" insttype="CMG-3T" lat="63.8748" lon="-16.6536">
    <comp name="--.HHZ">
      <acc value="0.0027744071" flag="0"/>
      <vel value="0.0058676359" flag="0"/>
      <psa03 value="0.0109208331" flag="0"/>
      <psa10 value="0.0075339744" flag="0"/>
      <psa30 value="0.0038611812" flag="0"/>
    </comp>
    <comp name="--.HHE">
      <acc value="0.0033966466" flag="0"/>
      <vel value="0.0035720715" flag="0"/>
      <psa03 value="0.0104386687" flag="0"/>
      <psa10 value="0.0051848739" flag="0"/>
      <psa30 value="0.0014318997" flag="0"/>
    </comp>
    <comp name="--.HHN">
      <acc value="0.0035624785" flag="0"/>
      <vel value="0.0040734394" flag="0"/>
      <psa03 value="0.0117983431" flag="0"/>
      <psa10 value="0.0037322240" flag="0"/>
      <psa30 value="0.0018712775" flag="0"/>
    </comp>
  </station>
  <station code="SKR" name="SKR" netid="VI" insttype="LE-3D/5s" lat="64.5601" lon="-18.3865">
    <comp name="--.HHE">
      <acc value="0.0127897852" flag="0"/>
      <vel value="0.0202161820" flag="0"/>
      <psa03 value="0.0117680725" flag="0"/>
      <psa10 value="0.0141982075" flag="0"/>
      <psa30 value="0.0136667317" flag="0"/>
    </comp>
    <comp name="--.HHZ">
      <acc value="0.0108926803" flag="0"/>
      <vel value="0.0099823628" flag="0"/>
      <psa03 value="0.0224095285" flag="0"/>
      <psa10 value="0.0121255602" flag="0"/>
      <psa30 value="0.0064606533" flag="0"/>
    </comp>
    <comp name="--.HHN">
      <acc value="0.0089916436" flag="0"/>
      <vel value="0.0206689238" flag="0"/>
      <psa03 value="0.0145561773" flag="0"/>
      <psa10 value="0.0146189289" flag="0"/>
      <psa30 value="0.0101482494" flag="0"/>
    </comp>
  </station>
</stationlist>
