<?xml version="1.0" encoding="UTF-8" standalone="yes"?>
<!DOCTYPE earthquake SYSTEM "stationlist.dtd">
<stationlist created="" xmlns="ch.ethz.sed.shakemap.usgs.xml">
  <station code="THERA" name="THERA" netid="GE" insttype="STS-2/N" lat="36.367" lon="25.4753">
    <comp name="--.HHN">
      <acc value="0.0768241124" flag="0"/>
      <vel value="0.0128370468" flag="0"/>
      <psa03 value="0.0583089152" flag="0"/>
      <psa10 value="0.0062350332" flag="0"/>
      <psa30 value="0.0006649590" flag="0"/>
    </comp>
    <comp name="--.HHE">
      <acc value="0.0787634348" flag="0"/>
      <vel value="0.0221763335" flag="0"/>
      <psa03 value="0.1095342233" flag="0"/>
      <psa10 value="0.0100776980" flag="0"/>
      <psa30 value="0.0010806194" flag="0"/>
    </comp>
    <comp name="--.HHZ">
      <acc value="0.0775752928" flag="0"/>
      <vel value="0.0143135476" flag="0"/>
      <psa03 value="0.0639387704" flag="0"/>
      <psa10 value="0.0060663268" flag="0"/>
      <psa30 value="0.0008833681" flag="0"/>
    </comp>
  </station>
</stationlist>
