<?xml version="1.0" encoding="UTF-8" standalone="yes"?>
<!DOCTYPE earthquake SYSTEM "stationlist.dtd">
<stationlist created="" xmlns="ch.ethz.sed.shakemap.usgs.xml">
  <station code="APE" name="APE" netid="GE" insttype="STS-2/N" lat="37.0727" lon="25.523">
    <comp name="--.HHE">
      <acc value="0.2094070034" flag="0"/>
      <vel value="0.0418447154" flag="0"/>
      <psa03 value="0.1283432295" flag="0"/>
      <psa10 value="0.0132304664" flag="0"/>
      <psa30 value="0.0021838328" flag="0"/>
    </comp>
    <comp name="--.HHZ">
      <acc value="0.0885957063" flag="0"/>
      <vel value="0.0204555055" flag="0"/>
      <psa03 value="0.0799316183" flag="0"/>
      <psa10 value="0.0087966698" flag="0"/>
      <psa30 value="0.0034699122" flag="0"/>
    </comp>
    <comp name="--.HHN">
      <acc value="0.2685999996" flag="0"/>
      <vel value="0.0503940150" flag="0"/>
      <psa03 value="0.1362820461" flag="0"/>
      <psa10 value="0.0108891895" flag="0"/>
      <psa30 value="0.0033288968" flag="0"/>
    </comp>
  </station>
  <station code="THERA" name="THERA" netid="GE" insttype="STS-2/N" lat="36.367" lon="25.4753">
    <comp name="--.HHE">
      <acc value="0.2098729915" flag="0"/>
      <vel value="0.0543680981" flag="0"/>
      <psa03 value="0.2653962312" flag="0"/>
      <psa10 value="0.0137287027" flag="0"/>
      <psa30 value="0.0019136215" flag="0"/>
    </comp>
    <comp name="--.HHN">
      <acc value="0.1664028163" flag="0"/>
      <vel value="0.0452153485" flag="0"/>
      <psa03 value="0.1573240100" flag="0"/>
      <psa10 value="0.0170935881" flag="0"/>
      <psa30 value="0.0009838260" flag="0"/>
    </comp>
    <comp name="--.HHZ">
      <acc value="0.1751163461" flag="0"/>
      <vel value="0.0396713893" flag="0"/>
      <psa03 value="0.1775963058" flag="0"/>
      <psa10 value="0.0128781154" flag="0"/>
      <psa30 value="0.0013299608" flag="0"/>
    </comp>
  </station>
</stationlist>
