<?xml version="1.0" encoding="UTF-8" standalone="yes"?>
<!DOCTYPE earthquake SYSTEM "stationlist.dtd">
<stationlist created="" xmlns="ch.ethz.sed.shakemap.usgs.xml">
  <station code="APE" name="APE" netid="GE" insttype="STS-2/N" lat="37.0727" lon="25.523">
    <comp name="--.HHE">
      <acc value="0.2094070034" flag="0"/>
      <vel value="0.0418447154" flag="0"/>
      <psa03 value="0.1283432295" flag="0"/>
      <psa10 value="0.0132304664" flag="0"/>
      <psa30 value="0.0021838328" flag="0"/>
    </comp>
    <comp name="--.HHZ">
      <acc value="0.0885957063" flag="0"/>
      <vel value="0.0204555055" flag="0"/>
      <psa03 value="0.0799316183" flag="0"/>
      <psa10 value="0.0087966698" flag="0"/>
      <psa30 value="0.0034699122" flag="0"/>
    </comp>
    <comp name="--.HHN">
      <acc value="0.2685999996" flag="0"/>
      <vel value="0.0503940150" flag="0"/>
      <psa03 value="0.1362820461" flag="0"/>
      <psa10 value="0.0108891895" flag="0"/>
      <psa30 value="0.0033288968" flag="0"/>
    </comp>
  </station>
  <station code="THERA" name="THERA" netid="GE" insttype="STS-2/N" lat="36.367" lon="25.4753">
    <comp name="--.HHN">
      <acc value="0.1664028163" flag="0"/>
      <vel value="0.0452153485" flag="0"/>
      <psa03 value="0.1573240100" flag="0"/>
      <psa10 value="0.0170935881" flag="0"/>
      <psa30 value="0.0009838260" flag="0"/>
    </comp>
    <comp name="--.HHZ">
      <acc value="0.1751163461" flag="0"/>
      <vel value="0.0396713893" flag="0"/>
      <psa03 value="0.1775963058" flag="0"/>
      <psa10 value="0.0128781154" flag="0"/>
      <psa30 value="0.0013299608" flag="0"/>
    </comp>
    <comp name="--.HHE">
      <acc value="0.2098729915" flag="0"/>
      <vel value="0.0543680981" flag="0"/>
      <psa03 value="0.2653962312" flag="0"/>
      <psa10 value="0.0137287027" flag="0"/>
      <psa30 value="0.0019136215" flag="0"/>
    </comp>
  </station>
  <station code="SNT1" name="SNT1" netid="HA" insttype="30" lat="36.4159" lon="25.4282">
    <comp name="--.HHE">
      <acc value="0.1179346338" flag="0"/>
      <vel value="0.0459485067" flag="0"/>
      <psa03 value="0.1683023990" flag="0"/>
      <psa10 value="0.0159403922" flag="0"/>
      <psa30 value="0.0031625704" flag="0"/>
    </comp>
    <comp name="--.HHZ">
      <acc value="0.1123350538" flag="0"/>
      <vel value="0.0272074123" flag="0"/>
      <psa03 value="0.1839466247" flag="0"/>
      <psa10 value="0.0195013469" flag="0"/>
      <psa30 value="0.0012557048" flag="0"/>
    </comp>
    <comp name="--.HHN">
      <acc value="0.1095094104" flag="0"/>
      <vel value="0.0391026997" flag="0"/>
      <psa03 value="0.1832809672" flag="0"/>
      <psa10 value="0.0338978718" flag="0"/>
      <psa30 value="0.0026494907" flag="0"/>
    </comp>
  </station>
  <station code="NAX1" name="NAX1" netid="HI" insttype="CMG-5TD,ACCELEROMETER,GURALP" lat="37.1014" lon="25.3741">
    <comp name="--.HNN">
      <acc value="0.1201093896" flag="0"/>
      <vel value="0.0264789720" flag="0"/>
      <psa03 value="0.0837175147" flag="0"/>
      <psa10 value="0.0095228420" flag="0"/>
      <psa30 value="0.0028779680" flag="0"/>
    </comp>
    <comp name="--.HNZ">
      <acc value="0.0646444157" flag="0"/>
      <vel value="0.0164771377" flag="0"/>
      <psa03 value="0.0801502415" flag="0"/>
      <psa10 value="0.0083278996" flag="0"/>
      <psa30 value="0.0028455440" flag="0"/>
    </comp>
    <comp name="--.HNE">
      <acc value="0.1632747917" flag="0"/>
      <vel value="0.0410341741" flag="0"/>
      <psa03 value="0.1876517725" flag="0"/>
      <psa10 value="0.0143104657" flag="0"/>
      <psa30 value="0.0013017552" flag="0"/>
    </comp>
  </station>
  <station code="SFR2" name="SFR2" netid="HI" insttype="unknown" lat="36.3998" lon="25.4382">
    <comp name="--.HNZ">
      <acc value="0.3826694003" flag="0"/>
      <vel value="0.1113929619" flag="0"/>
      <psa03 value="0.5850691585" flag="0"/>
      <psa10 value="0.0429615895" flag="0"/>
      <psa30 value="0.0022148328" flag="0"/>
    </comp>
    <comp name="--.HNN">
      <acc value="0.5387744557" flag="0"/>
      <vel value="0.1640391185" flag="0"/>
      <psa03 value="0.6424766835" flag="0"/>
      <psa10 value="0.0665373112" flag="0"/>
      <psa30 value="0.0044934785" flag="0"/>
    </comp>
    <comp name="--.HNE">
      <acc value="0.4591764974" flag="0"/>
      <vel value="0.1660537453" flag="0"/>
      <psa03 value="0.8665814540" flag="0"/>
      <psa10 value="0.0640146915" flag="0"/>
      <psa30 value="0.0045282999" flag="0"/>
    </comp>
  </station>
  <station code="AMGA" name="AMGA" netid="HL" insttype="SMART24" lat="36.8316" lon="25.8938">
    <comp name="--.HHE">
      <acc value="0.7003180448" flag="0"/>
      <vel value="0.0949867114" flag="0"/>
      <psa03 value="0.3054242299" flag="0"/>
      <psa10 value="0.0307583295" flag="0"/>
      <psa30 value="0.0042871933" flag="0"/>
    </comp>
    <comp name="--.HHZ">
      <acc value="0.4793166353" flag="0"/>
      <vel value="0.0914719141" flag="0"/>
      <psa03 value="0.2566425122" flag="0"/>
      <psa10 value="0.0175529930" flag="0"/>
      <psa30 value="0.0048428616" flag="0"/>
    </comp>
    <comp name="--.HHN">
      <acc value="0.5991426861" flag="0"/>
      <vel value="0.1235201154" flag="0"/>
      <psa03 value="0.3139726925" flag="0"/>
      <psa10 value="0.0336786472" flag="0"/>
      <psa30 value="0.0052074324" flag="0"/>
    </comp>
  </station>
  <station code="APE" name="APE" netid="HL" insttype="120" lat="37.0727" lon="25.523">
    <comp name="--.HHE">
      <acc value="0.2043756140" flag="0"/>
      <vel value="0.0398994321" flag="0"/>
      <psa03 value="0.1251045888" flag="0"/>
      <psa10 value="0.0130755714" flag="0"/>
      <psa30 value="0.0021765411" flag="0"/>
    </comp>
    <comp name="--.HHN">
      <acc value="0.2582863658" flag="0"/>
      <vel value="0.0467635419" flag="0"/>
      <psa03 value="0.1316776972" flag="0"/>
      <psa10 value="0.0108082787" flag="0"/>
      <psa30 value="0.0033153491" flag="0"/>
    </comp>
    <comp name="--.HHZ">
      <acc value="0.0801215846" flag="0"/>
      <vel value="0.0197956449" flag="0"/>
      <psa03 value="0.0770420825" flag="0"/>
      <psa10 value="0.0087464047" flag="0"/>
      <psa30 value="0.0034650826" flag="0"/>
    </comp>
  </station>
  <station code="MHLO" name="MHLO" netid="HL" insttype="20" lat="36.6898" lon="24.4017">
    <comp name="--.HHE">
      <acc value="0.1327453448" flag="0"/>
      <vel value="0.0561967423" flag="0"/>
      <psa03 value="0.4172366620" flag="0"/>
      <psa10 value="0.0849527484" flag="0"/>
      <psa30 value="0.0030940553" flag="0"/>
    </comp>
    <comp name="--.HHN">
      <acc value="0.1085352812" flag="0"/>
      <vel value="0.0585369928" flag="0"/>
      <psa03 value="0.4021857775" flag="0"/>
      <psa10 value="0.0794861191" flag="0"/>
      <psa30 value="0.0030500177" flag="0"/>
    </comp>
    <comp name="--.HHZ">
      <acc value="0.0495467748" flag="0"/>
      <vel value="0.0298967900" flag="0"/>
      <psa03 value="0.1242073581" flag="0"/>
      <psa10 value="0.0609115068" flag="0"/>
      <psa30 value="0.0025915057" flag="0"/>
    </comp>
  </station>
  <station code="MILA" name="MILA" netid="HL" insttype="CMG-5" lat="36.7429" lon="24.4282">
    <comp name="00.HNN">
      <acc value="0.1371755935" flag="0"/>
      <vel value="0.0516621206" flag="0"/>
      <psa03 value="0.5316645654" flag="0"/>
      <psa10 value="0.0409044792" flag="0"/>
      <psa30 value="0.0027548017" flag="0"/>
    </comp>
    <comp name="00.HNE">
      <acc value="0.0984156584" flag="0"/>
      <vel value="0.0467127637" flag="0"/>
      <psa03 value="0.2947997978" flag="0"/>
      <psa10 value="0.0361817372" flag="0"/>
      <psa30 value="0.0021505028" flag="0"/>
    </comp>
    <comp name="00.HNZ">
      <acc value="0.0856473934" flag="0"/>
      <vel value="0.0329220770" flag="0"/>
      <psa03 value="0.1719317494" flag="0"/>
      <psa10 value="0.0306577453" flag="0"/>
      <psa30 value="0.0026185799" flag="0"/>
    </comp>
  </station>
  <station code="SANT" name="SANT" netid="HL" insttype="30" lat="36.3705" lon="25.4593">
    <comp name="--.HHE">
      <acc value="0.6130287032" flag="0"/>
      <vel value="0.1484706828" flag="0"/>
      <psa03 value="0.4231541964" flag="0"/>
      <psa10 value="0.0243976674" flag="0"/>
      <psa30 value="0.0026207064" flag="0"/>
    </comp>
    <comp name="--.HHZ">
      <acc value="0.4023740039" flag="0"/>
      <vel value="0.0761300373" flag="0"/>
      <psa03 value="0.3119243260" flag="0"/>
      <psa10 value="0.0144288353" flag="0"/>
      <psa30 value="0.0012604245" flag="0"/>
    </comp>
    <comp name="--.HHN">
      <acc value="0.3028288887" flag="0"/>
      <vel value="0.0538073942" flag="0"/>
      <psa03 value="0.2501818525" flag="0"/>
      <psa10 value="0.0263349813" flag="0"/>
      <psa30 value="0.0020609082" flag="0"/>
    </comp>
  </station>
  <station code="SAP3" name="SAP3" netid="HL" insttype="65535" lat="36.4356" lon="25.3454">
    <comp name="--.HHE">
      <acc value="0.1773930568" flag="0"/>
      <vel value="0.0519312506" flag="0"/>
      <psa03 value="0.1920409501" flag="0"/>
      <psa10 value="0.0491112276" flag="0"/>
      <psa30 value="0.0057729479" flag="0"/>
    </comp>
    <comp name="--.HHN">
      <acc value="0.1450214230" flag="0"/>
      <vel value="0.0505786962" flag="0"/>
      <psa03 value="0.2390442823" flag="0"/>
      <psa10 value="0.0512803781" flag="0"/>
      <psa30 value="0.0033005587" flag="0"/>
    </comp>
    <comp name="--.HHZ">
      <acc value="0.1742406126" flag="0"/>
      <vel value="0.0388384342" flag="0"/>
      <psa03 value="0.2165542708" flag="0"/>
      <psa10 value="0.0198173618" flag="0"/>
      <psa30 value="0.0022862074" flag="0"/>
    </comp>
  </station>
  <station code="THERA" name="THERA" netid="HL" insttype="120" lat="36.367" lon="25.4753">
    <comp name="--.HHE">
      <acc value="0.2062384831" flag="0"/>
      <vel value="0.0527598340" flag="0"/>
      <psa03 value="0.2579422919" flag="0"/>
      <psa10 value="0.0135375438" flag="0"/>
      <psa30 value="0.0018895725" flag="0"/>
    </comp>
    <comp name="--.HHN">
      <acc value="0.3250242524" flag="0"/>
      <vel value="0.0882392174" flag="0"/>
      <psa03 value="0.3037992389" flag="0"/>
      <psa10 value="0.0338795778" flag="0"/>
      <psa30 value="0.0019491556" flag="0"/>
    </comp>
    <comp name="--.HHZ">
      <acc value="0.1698951298" flag="0"/>
      <vel value="0.0384607455" flag="0"/>
      <psa03 value="0.1724717705" flag="0"/>
      <psa10 value="0.0127333403" flag="0"/>
      <psa30 value="0.0013220868" flag="0"/>
    </comp>
  </station>
  <station code="THRA" name="THRA" netid="HL" insttype="CMG-5" lat="36.415" lon="25.4324">
    <comp name="00.HNE">
      <acc value="0.5877167990" flag="0"/>
      <vel value="0.1683737033" flag="0"/>
      <psa03 value="0.8397294684" flag="0"/>
      <psa10 value="0.1038872156" flag="0"/>
      <psa30 value="0.0064019341" flag="0"/>
    </comp>
    <comp name="00.HNN">
      <acc value="0.6143093009" flag="0"/>
      <vel value="0.1486314022" flag="0"/>
      <psa03 value="0.4801419558" flag="0"/>
      <psa10 value="0.1065922752" flag="0"/>
      <psa30 value="0.0051780706" flag="0"/>
    </comp>
    <comp name="00.HNZ">
      <acc value="0.3639869305" flag="0"/>
      <vel value="0.1146303971" flag="0"/>
      <psa03 value="0.5764551948" flag="0"/>
      <psa10 value="0.0427160752" flag="0"/>
      <psa30 value="0.0028904276" flag="0"/>
    </comp>
  </station>
  <station code="TNSA" name="TNSA" netid="HL" insttype="CMG-5" lat="37.5394" lon="25.1631">
    <comp name="00.HNE">
      <acc value="0.0542609161" flag="0"/>
      <vel value="0.0147550491" flag="0"/>
      <psa03 value="0.0897567653" flag="0"/>
      <psa10 value="0.0052502174" flag="0"/>
      <psa30 value="0.0005707432" flag="0"/>
    </comp>
    <comp name="00.HNN">
      <acc value="0.0765374861" flag="0"/>
      <vel value="0.0214783518" flag="0"/>
      <psa03 value="0.1237408716" flag="0"/>
      <psa10 value="0.0072600351" flag="0"/>
      <psa30 value="0.0008339287" flag="0"/>
    </comp>
    <comp name="00.HNZ">
      <acc value="0.0552537925" flag="0"/>
      <vel value="0.0155565638" flag="0"/>
      <psa03 value="0.0916482908" flag="0"/>
      <psa10 value="0.0098319617" flag="0"/>
      <psa30 value="0.0011781097" flag="0"/>
    </comp>
  </station>
  <station code="AKRO" name="AKRO" netid="HT" insttype="Compact," lat="36.3584" lon="25.3967">
    <comp name="--.HHZ">
      <acc value="0.3125383466" flag="0"/>
      <vel value="0.0598672056" flag="0"/>
      <psa03 value="0.3053616386" flag="0"/>
      <psa10 value="0.0212976629" flag="0"/>
      <psa30 value="0.0018986025" flag="0"/>
    </comp>
    <comp name="--.HHN">
      <acc value="0.5083072546" flag="0"/>
      <vel value="0.1148020915" flag="0"/>
      <psa03 value="0.3944709012" flag="0"/>
      <psa10 value="0.0510157028" flag="0"/>
      <psa30 value="0.0028130143" flag="0"/>
    </comp>
    <comp name="--.HHE">
      <acc value="0.4853581757" flag="0"/>
      <vel value="0.1501050750" flag="0"/>
      <psa03 value="0.8458731603" flag="0"/>
      <psa10 value="0.0491463126" flag="0"/>
      <psa30 value="0.0031754769" flag="0"/>
    </comp>
  </station>
  <station code="CMBO" name="CMBO" netid="HT" insttype="120P," lat="36.4709" lon="25.4056">
    <comp name="--.HHN">
      <acc value="0.1741479051" flag="0"/>
      <vel value="0.0741141071" flag="0"/>
      <psa03 value="0.3187437415" flag="0"/>
      <psa10 value="0.0651498911" flag="0"/>
      <psa30 value="0.0023114463" flag="0"/>
    </comp>
    <comp name="--.HHE">
      <acc value="0.2015559579" flag="0"/>
      <vel value="0.0632917501" flag="0"/>
      <psa03 value="0.2965834306" flag="0"/>
      <psa10 value="0.0391242830" flag="0"/>
      <psa30 value="0.0028601063" flag="0"/>
    </comp>
    <comp name="--.HHZ">
      <acc value="0.2110614132" flag="0"/>
      <vel value="0.0524958768" flag="0"/>
      <psa03 value="0.3273364051" flag="0"/>
      <psa10 value="0.0206362149" flag="0"/>
      <psa30 value="0.0024815793" flag="0"/>
    </comp>
  </station>
</stationlist>
