<stationlist created="1739408558">
	<station code="ABEA" name="ABEA" netid="HC" source="Seismological Network of Crete (HC)" insttype="" lat="35.5163" lon="24.0113">
		<comp name=".HNE" depth="0.0">
			<acc value="0.0017732068944564" flag="0"/>
			<vel value="0.00148149592035" flag="0"/>
			<psa03 value="0.00133559938185418" flag="0"/>
			<psa10 value="0.0015446761162735" flag="0"/>
			<psa30 value="0.000821953877491554" flag="0"/>
		</comp>
		<comp name=".HNN" depth="0.0">
			<acc value="0.0017226780835176" flag="0"/>
			<vel value="0.00198646390526" flag="0"/>
			<psa03 value="0.00123728647262206" flag="0"/>
			<psa10 value="0.00147032474554699" flag="0"/>
			<psa30 value="0.000731053584961169" flag="0"/>
		</comp>
		<comp name=".HNZ" depth="0.0">
			<acc value="0.0017272423848828" flag="0"/>
			<vel value="0.00126881807095" flag="0"/>
			<psa03 value="0.00123306573403256" flag="0"/>
			<psa10 value="0.00139206280326705" flag="0"/>
			<psa30 value="0.00079829522689273" flag="0"/>
		</comp>
	</station>
	<station code="ATEI" name="ATEI" netid="HC" source="Seismological Network of Crete (HC)" insttype="" lat="35.5193" lon="24.0432">
		<comp name=".HNE" depth="0.0">
			<acc value="0.0083022594350574" flag="0"/>
			<vel value="0.00506319376615" flag="0"/>
			<psa03 value="0.0270154406820118" flag="0"/>
			<psa10 value="0.00724138939401311" flag="0"/>
			<psa30 value="0.0010863586325949" flag="0"/>
		</comp>
		<comp name=".HNN" depth="0.0">
			<acc value="0.0085712593798386" flag="0"/>
			<vel value="0.00643160166591" flag="0"/>
			<psa03 value="0.0278713150878404" flag="0"/>
			<psa10 value="0.00910526099134854" flag="0"/>
			<psa30 value="0.00113137734402772" flag="0"/>
		</comp>
		<comp name=".HNZ" depth="0.0">
			<acc value="0.0056567158522122" flag="0"/>
			<vel value="0.0048537802395" flag="0"/>
			<psa03 value="0.0149976120077799" flag="0"/>
			<psa10 value="0.00425022499405203" flag="0"/>
			<psa30 value="0.000722108096533667" flag="0"/>
		</comp>
	</station>
	<station code="G0LD" name="G0LD" netid="HC" source="Seismological Network of Crete (HC)" insttype="" lat="35.4955" lon="24.0306">
		<comp name=".HNE" depth="0.0">
			<acc value="0.0020348374450014" flag="0"/>
			<vel value="0.00208540219535" flag="0"/>
			<psa03 value="0.00206141455338971" flag="0"/>
			<psa10 value="0.00169338846773773" flag="0"/>
			<psa30 value="0.00162051224681803" flag="0"/>
		</comp>
		<comp name=".HNN" depth="0.0">
			<acc value="0.0032519458661748" flag="0"/>
			<vel value="0.00251840828158" flag="0"/>
			<psa03 value="0.00140270815690839" flag="0"/>
			<psa10 value="0.00181715287745867" flag="0"/>
			<psa30 value="0.000913459158019214" flag="0"/>
		</comp>
		<comp name=".HNZ" depth="0.0">
			<acc value="0.0039251999090286" flag="0"/>
			<vel value="0.00383205666535" flag="0"/>
			<psa03 value="0.00230473242981444" flag="0"/>
			<psa10 value="0.00204244413002289" flag="0"/>
			<psa30 value="0.001862758190253" flag="0"/>
		</comp>
	</station>
	<station code="PASK" name="PASK" netid="HC" source="Seismological Network of Crete (HC)" insttype="" lat="35.4996" lon="24.0121">
		<comp name=".HNE" depth="0.0">
			<acc value="0.012569998292148" flag="0"/>
			<vel value="0.010045220702" flag="0"/>
			<psa03 value="0.0354629898740205" flag="0"/>
			<psa10 value="0.019886498632928" flag="0"/>
			<psa30 value="0.00113552845235236" flag="0"/>
		</comp>
		<comp name=".HNN" depth="0.0">
			<acc value="0.011055891720702" flag="0"/>
			<vel value="0.00863991678133" flag="0"/>
			<psa03 value="0.0315349327845431" flag="0"/>
			<psa10 value="0.0144244699253507" flag="0"/>
			<psa30 value="0.00130454933665917" flag="0"/>
		</comp>
		<comp name=".HNZ" depth="0.0">
			<acc value="0.0075892908400956" flag="0"/>
			<vel value="0.00527751814864" flag="0"/>
			<psa03 value="0.0314140367549082" flag="0"/>
			<psa10 value="0.010831709422588" flag="0"/>
			<psa30 value="0.00109843151569555" flag="0"/>
		</comp>
	</station>
	<station code="POLY" name="POLY" netid="HC" source="Seismological Network of Crete (HC)" insttype="" lat="35.5226" lon="24.0602">
		<comp name=".HNE" depth="0.0">
			<acc value="0.001239007107" flag="0"/>
			<vel value="0.00188971610157" flag="0"/>
			<psa03 value="0.00116209057329172" flag="0"/>
			<psa10 value="0.00100903598430881" flag="0"/>
			<psa30 value="0.0010623977744706" flag="0"/>
		</comp>
		<comp name=".HNN" depth="0.0">
			<acc value="0.0014519822797392" flag="0"/>
			<vel value="0.00384165569996" flag="0"/>
			<psa03 value="0.00159111972679188" flag="0"/>
			<psa10 value="0.00162510874922717" flag="0"/>
			<psa30 value="0.00193812880818654" flag="0"/>
		</comp>
		<comp name=".HNZ" depth="0.0">
			<acc value="0.0023961381056712" flag="0"/>
			<vel value="0.00144947212653" flag="0"/>
			<psa03 value="0.00137205394522339" flag="0"/>
			<psa10 value="0.0010477318680309" flag="0"/>
			<psa30 value="0.000616798359863278" flag="0"/>
		</comp>
	</station>
	<station code="ARK1" name="ARK1" netid="HI" source="ITSAK Strong Motion Network" insttype="" lat="35.148777" lon="25.264194">
		<comp name=".HNE" depth="0.0">
			<acc value="0.019253782191306" flag="0"/>
			<vel value="0.0174507503181" flag="0"/>
			<psa03 value="0.0607916938181742" flag="0"/>
			<psa10 value="0.0180141214721377" flag="0"/>
			<psa30 value="0.00212663629588462" flag="0"/>
		</comp>
		<comp name=".HNN" depth="0.0">
			<acc value="0.027408936994242" flag="0"/>
			<vel value="0.0117155718508" flag="0"/>
			<psa03 value="0.0698865046377248" flag="0"/>
			<psa10 value="0.0166663609396279" flag="0"/>
			<psa30 value="0.00113620589306475" flag="0"/>
		</comp>
		<comp name=".HNZ" depth="0.0">
			<acc value="0.018676970629176" flag="0"/>
			<vel value="0.00762419972479" flag="0"/>
			<psa03 value="0.0341236251060068" flag="0"/>
			<psa10 value="0.0135502720140019" flag="0"/>
			<psa30 value="0.000954435309989062" flag="0"/>
		</comp>
	</station>
	<station code="CH01" name="CH01" netid="HI" source="ITSAK Strong Motion Network" insttype="" lat="35.517" lon="24.0208">
		<comp name=".HNE" depth="0.0">
			<acc value="0.009907222934781" flag="0"/>
			<vel value="0.00542437057977" flag="0"/>
			<psa03 value="0.0152683825491432" flag="0"/>
			<psa10 value="0.00786889783838301" flag="0"/>
			<psa30 value="0.000686129358952509" flag="0"/>
		</comp>
		<comp name=".HNN" depth="0.0">
			<acc value="0.01135749433689" flag="0"/>
			<vel value="0.00512746419121" flag="0"/>
			<psa03 value="0.0403146315840034" flag="0"/>
			<psa10 value="0.00753637502912122" flag="0"/>
			<psa30 value="0.00087040974370591" flag="0"/>
		</comp>
		<comp name=".HNZ" depth="0.0">
			<acc value="0.0090727188134322" flag="0"/>
			<vel value="0.00272063109539" flag="0"/>
			<psa03 value="0.012094018617274" flag="0"/>
			<psa10 value="0.00593409732356071" flag="0"/>
			<psa30 value="0.000381445867875127" flag="0"/>
		</comp>
	</station>
	<station code="CH02" name="CH02" netid="HI" source="ITSAK Strong Motion Network" insttype="" lat="35.5145" lon="24.0315">
		<comp name=".HNE" depth="0.0">
			<acc value="0.0090992912406876" flag="0"/>
			<vel value="0.0076880656395" flag="0"/>
			<psa03 value="0.0325565186887667" flag="0"/>
			<psa10 value="0.0097972540200062" flag="0"/>
			<psa30 value="0.000970131037254551" flag="0"/>
		</comp>
		<comp name=".HNN" depth="0.0">
			<acc value="0.0107631307851" flag="0"/>
			<vel value="0.00596302448591" flag="0"/>
			<psa03 value="0.0291330419001978" flag="0"/>
			<psa10 value="0.0143220572035035" flag="0"/>
			<psa30 value="0.000787960636026359" flag="0"/>
		</comp>
		<comp name=".HNZ" depth="0.0">
			<acc value="0.006848912057382" flag="0"/>
			<vel value="0.00361010809991" flag="0"/>
			<psa03 value="0.011824442165451" flag="0"/>
			<psa10 value="0.00794518914228572" flag="0"/>
			<psa30 value="0.00037411626774183" flag="0"/>
		</comp>
	</station>
	<station code="CH03" name="CH03" netid="HI" source="ITSAK Strong Motion Network" insttype="" lat="35.53303" lon="24.0705">
		<comp name=".HNE" depth="0.0">
			<acc value="0.0069991923780972" flag="0"/>
			<vel value="0.00459928797098" flag="0"/>
			<psa03 value="0.017664782184305" flag="0"/>
			<psa10 value="0.0100787907954349" flag="0"/>
			<psa30 value="0.000411936767955661" flag="0"/>
		</comp>
		<comp name=".HNN" depth="0.0">
			<acc value="0.0089779483844874" flag="0"/>
			<vel value="0.00427053295475" flag="0"/>
			<psa03 value="0.0352428971689947" flag="0"/>
			<psa10 value="0.00547964174938837" flag="0"/>
			<psa30 value="0.000495478239670398" flag="0"/>
		</comp>
		<comp name=".HNZ" depth="0.0">
			<acc value="0.0075856848699282" flag="0"/>
			<vel value="0.0026523165192" flag="0"/>
			<psa03 value="0.0103775845994556" flag="0"/>
			<psa10 value="0.0032661518352791" flag="0"/>
			<psa30 value="0.000257752439417595" flag="0"/>
		</comp>
	</station>
	<station code="GOR1" name="GOR1" netid="HI" source="ITSAK Strong Motion Network" insttype="" lat="35.0582" lon="24.9628">
		<comp name=".HNE" depth="0.0">
			<acc value="0.0092813860882038" flag="0"/>
			<vel value="0.00670774228007" flag="0"/>
			<psa03 value="0.0356107861231372" flag="0"/>
			<psa10 value="0.00641501793218691" flag="0"/>
			<psa30 value="0.000853887034575676" flag="0"/>
		</comp>
		<comp name=".HNN" depth="0.0">
			<acc value="0.0079145651276118" flag="0"/>
			<vel value="0.0052945060702" flag="0"/>
			<psa03 value="0.0233459918698948" flag="0"/>
			<psa10 value="0.0069547236850521" flag="0"/>
			<psa30 value="0.000937188542476273" flag="0"/>
		</comp>
		<comp name=".HNZ" depth="0.0">
			<acc value="0.0070274052103362" flag="0"/>
			<vel value="0.00412150475419" flag="0"/>
			<psa03 value="0.0187135977569134" flag="0"/>
			<psa10 value="0.00488193137273645" flag="0"/>
			<psa30 value="0.000467587798311409" flag="0"/>
		</comp>
	</station>
	<station code="HER3" name="HER3" netid="HI" source="ITSAK Strong Motion Network" insttype="" lat="35.3296" lon="25.1065">
		<comp name=".HNE" depth="0.0">
			<acc value="0.070091711927292" flag="0"/>
			<vel value="0.0281696742514" flag="0"/>
			<psa03 value="0.141238752207354" flag="0"/>
			<psa10 value="0.0332782345197218" flag="0"/>
			<psa30 value="0.00172328707597871" flag="0"/>
		</comp>
		<comp name=".HNN" depth="0.0">
			<acc value="0.049571168315052" flag="0"/>
			<vel value="0.0219895876053" flag="0"/>
			<psa03 value="0.171557594015137" flag="0"/>
			<psa10 value="0.0384236616290087" flag="0"/>
			<psa30 value="0.0014772960927818" flag="0"/>
		</comp>
		<comp name=".HNZ" depth="0.0">
			<acc value="0.03488985338016" flag="0"/>
			<vel value="0.0164304040046" flag="0"/>
			<psa03 value="0.0913763136490442" flag="0"/>
			<psa10 value="0.0135734176097845" flag="0"/>
			<psa30 value="0.00078868750709194" flag="0"/>
		</comp>
	</station>
	<station code="KRL1" name="KRL1" netid="HI" source="ITSAK Strong Motion Network" insttype="" lat="37.7951" lon="26.7065">
		<comp name=".HNE" depth="0.0">
			<acc value="0.018773285517804" flag="0"/>
			<vel value="0.00871164794506" flag="0"/>
			<psa03 value="0.0440893061168282" flag="0"/>
			<psa10 value="0.00553829891637074" flag="0"/>
			<psa30 value="0.000418610569437389" flag="0"/>
		</comp>
		<comp name=".HNN" depth="0.0">
			<acc value="0.021126708063618" flag="0"/>
			<vel value="0.00821024984858" flag="0"/>
			<psa03 value="0.0437261414339387" flag="0"/>
			<psa10 value="0.00855846258112656" flag="0"/>
			<psa30 value="0.000519144807460848" flag="0"/>
		</comp>
		<comp name=".HNZ" depth="0.0">
			<acc value="0.007946228510925" flag="0"/>
			<vel value="0.00355817809028" flag="0"/>
			<psa03 value="0.0215996912902011" flag="0"/>
			<psa10 value="0.00300157907425969" flag="0"/>
			<psa30 value="0.000379291428279107" flag="0"/>
		</comp>
	</station>
	<station code="KTL1" name="KTL1" netid="HI" source="ITSAK Strong Motion Network" insttype="" lat="35.20778" lon="25.34272">
		<comp name=".HNE" depth="0.0">
			<acc value="0.017392074825816" flag="0"/>
			<vel value="0.0105341840075" flag="0"/>
			<psa03 value="0.0425555404498705" flag="0"/>
			<psa10 value="0.00964215687056949" flag="0"/>
			<psa30 value="0.000994028662019121" flag="0"/>
		</comp>
		<comp name=".HNN" depth="0.0">
			<acc value="0.023885238475932" flag="0"/>
			<vel value="0.0153184276416" flag="0"/>
			<psa03 value="0.0748410516023693" flag="0"/>
			<psa10 value="0.0126831967620353" flag="0"/>
			<psa30 value="0.000842883024361823" flag="0"/>
		</comp>
		<comp name=".HNZ" depth="0.0">
			<acc value="0.01153670949612" flag="0"/>
			<vel value="0.00463648764262" flag="0"/>
			<psa03 value="0.0202584474914764" flag="0"/>
			<psa10 value="0.00662289935956335" flag="0"/>
			<psa30 value="0.00054286939993362" flag="0"/>
		</comp>
	</station>
	<station code="NAX1" name="NAX1" netid="HI" source="ITSAK Strong Motion Network" insttype="" lat="37.101394" lon="25.374103">
		<comp name=".HNE" depth="0.0">
			<acc value="0.16314321892866" flag="0"/>
			<vel value="0.0412761349693" flag="0"/>
			<psa03 value="0.188544052618129" flag="0"/>
			<psa10 value="0.0143950351629322" flag="0"/>
			<psa30 value="0.00141453110157764" flag="0"/>
		</comp>
		<comp name=".HNN" depth="0.0">
			<acc value="0.11483440226436" flag="0"/>
			<vel value="0.0268288674913" flag="0"/>
			<psa03 value="0.0857704527048248" flag="0"/>
			<psa10 value="0.00954294311065325" flag="0"/>
			<psa30 value="0.00312411612402942" flag="0"/>
		</comp>
		<comp name=".HNZ" depth="0.0">
			<acc value="0.061111965201786" flag="0"/>
			<vel value="0.016940120799" flag="0"/>
			<psa03 value="0.0814613078702505" flag="0"/>
			<psa10 value="0.00833269387507562" flag="0"/>
			<psa30 value="0.00314709056263925" flag="0"/>
		</comp>
	</station>
	<station code="RDI1" name="RDI1" netid="HI" source="ITSAK Strong Motion Network" insttype="" lat="36.4514" lon="28.224">
		<comp name=".HNE" depth="0.0">
			<acc value="0.0030018179365974" flag="0"/>
			<vel value="0.0033541674773" flag="0"/>
			<psa03 value="0.00557056693939524" flag="0"/>
			<psa10 value="0.00253365635792485" flag="0"/>
			<psa30 value="0.00154584823819125" flag="0"/>
		</comp>
		<comp name=".HNN" depth="0.0">
			<acc value="0.0021906181311186" flag="0"/>
			<vel value="0.00257156642795" flag="0"/>
			<psa03 value="0.00340409106422281" flag="0"/>
			<psa10 value="0.00292668731616959" flag="0"/>
			<psa30 value="0.00134359411068173" flag="0"/>
		</comp>
		<comp name=".HNZ" depth="0.0">
			<acc value="0.0048877293539292" flag="0"/>
			<vel value="0.002382257067" flag="0"/>
			<psa03 value="0.00388257718866278" flag="0"/>
			<psa10 value="0.00310206674669917" flag="0"/>
			<psa30 value="0.000496714102789823" flag="0"/>
		</comp>
	</station>
	<station code="RKL1" name="RKL1" netid="HI" source="ITSAK Strong Motion Network" insttype="" lat="36.336699" lon="28.171224">
		<comp name=".HNE" depth="0.0">
			<acc value="0.0029414637589698" flag="0"/>
			<vel value="0.00263672331255" flag="0"/>
			<psa03 value="0.00663014819916718" flag="0"/>
			<psa10 value="0.00590636892421475" flag="0"/>
			<psa30 value="0.000370681821476309" flag="0"/>
		</comp>
		<comp name=".HNN" depth="0.0">
			<acc value="0.002564645497671" flag="0"/>
			<vel value="0.00246550141407" flag="0"/>
			<psa03 value="0.00545209229413539" flag="0"/>
			<psa10 value="0.00492689263244223" flag="0"/>
			<psa30 value="0.00037294426301868" flag="0"/>
		</comp>
		<comp name=".HNZ" depth="0.0">
			<acc value="0.0022880733344586" flag="0"/>
			<vel value="0.00152308582914" flag="0"/>
			<psa03 value="0.00439500436361614" flag="0"/>
			<psa10 value="0.00130837952528409" flag="0"/>
			<psa30 value="0.000261730411271787" flag="0"/>
		</comp>
	</station>
	<station code="RPN1" name="RPN1" netid="HI" source="ITSAK Strong Motion Network" insttype="" lat="36.448678" lon="28.218047">
		<comp name=".HNE" depth="0.0">
			<acc value="0.002289048409242" flag="0"/>
			<vel value="0.00310952673094" flag="0"/>
			<psa03 value="0.00497301986785568" flag="0"/>
			<psa10 value="0.00364935011090817" flag="0"/>
			<psa30 value="0.00166094096668645" flag="0"/>
		</comp>
		<comp name=".HNN" depth="0.0">
			<acc value="0.0021683831384604" flag="0"/>
			<vel value="0.00317963882387" flag="0"/>
			<psa03 value="0.00479018483925535" flag="0"/>
			<psa10 value="0.0034526155938386" flag="0"/>
			<psa30 value="0.00129637889957108" flag="0"/>
		</comp>
		<comp name=".HNZ" depth="0.0">
			<acc value="0.0018972787243854" flag="0"/>
			<vel value="0.00165387940869" flag="0"/>
			<psa03 value="0.00277643652946114" flag="0"/>
			<psa10 value="0.00167766332446108" flag="0"/>
			<psa30 value="0.000421018827930882" flag="0"/>
		</comp>
	</station>
	<station code="RTH1" name="RTH1" netid="HI" source="ITSAK Strong Motion Network" insttype="" lat="35.365393" lon="24.471773">
		<comp name=".HNE" depth="0.0">
			<acc value="0.0079794809632338" flag="0"/>
			<vel value="0.00366572255898" flag="0"/>
			<psa03 value="0.0280150980502393" flag="0"/>
			<psa10 value="0.00283970311639436" flag="0"/>
			<psa30 value="0.00052594004928093" flag="0"/>
		</comp>
		<comp name=".HNN" depth="0.0">
			<acc value="0.0082130501080572" flag="0"/>
			<vel value="0.00432394971897" flag="0"/>
			<psa03 value="0.0226481331401508" flag="0"/>
			<psa10 value="0.00459836336899676" flag="0"/>
			<psa30 value="0.000535018306922494" flag="0"/>
		</comp>
		<comp name=".HNZ" depth="0.0">
			<acc value="0.0066516244379574" flag="0"/>
			<vel value="0.00245695559235" flag="0"/>
			<psa03 value="0.0134455143972619" flag="0"/>
			<psa10 value="0.002707585145479" flag="0"/>
			<psa30 value="0.00033967916874465" flag="0"/>
		</comp>
	</station>
	<station code="SFR2" name="SFR2" netid="HI" source="ITSAK Strong Motion Network" insttype="" lat="36.399841" lon="25.438209">
		<comp name=".HNE" depth="0.0">
			<acc value="0.4595209106697" flag="0"/>
			<vel value="0.168025497445" flag="0"/>
			<psa03 value="0.877807400430285" flag="0"/>
			<psa10 value="0.064239828073499" flag="0"/>
			<psa30 value="0.00463841352212438" flag="0"/>
		</comp>
		<comp name=".HNN" depth="0.0">
			<acc value="0.54019488780564" flag="0"/>
			<vel value="0.164836323093" flag="0"/>
			<psa03 value="0.659910882522111" flag="0"/>
			<psa10 value="0.0667075965509324" flag="0"/>
			<psa30 value="0.00459983096623228" flag="0"/>
		</comp>
		<comp name=".HNZ" depth="0.0">
			<acc value="0.37947852138018" flag="0"/>
			<vel value="0.11134337109" flag="0"/>
			<psa03 value="0.600868929618787" flag="0"/>
			<psa10 value="0.0430142507329067" flag="0"/>
			<psa30 value="0.00245661253018912" flag="0"/>
		</comp>
	</station>
	<station code="AMGA" name="AMGA" netid="HL" source="National Observatory of Athens Seismic Network" insttype="" lat="36.831561" lon="25.893836">
		<comp name="00.HNE" depth="0.0">
			<acc value="0.40746688136034" flag="0"/>
			<vel value="0.0609666453677" flag="0"/>
			<psa03 value="0.188610536189104" flag="0"/>
			<psa10 value="0.0190829329006535" flag="0"/>
			<psa30 value="0.00286101015288091" flag="0"/>
		</comp>
		<comp name="00.HNN" depth="0.0">
			<acc value="0.35825986144662" flag="0"/>
			<vel value="0.0735068802353" flag="0"/>
			<psa03 value="0.194601120535992" flag="0"/>
			<psa10 value="0.0204104289657495" flag="0"/>
			<psa30 value="0.00332401019936015" flag="0"/>
		</comp>
		<comp name="00.HNZ" depth="0.0">
			<acc value="0.29955613632996" flag="0"/>
			<vel value="0.0577365453837" flag="0"/>
			<psa03 value="0.157121241844512" flag="0"/>
			<psa10 value="0.0108491349519319" flag="0"/>
			<psa30 value="0.00315620137451796" flag="0"/>
		</comp>
	</station>
	<station code="ANAF" name="ANAF" netid="HL" source="National Observatory of Athens Seismic Network" insttype="" lat="36.35675" lon="25.77262">
		<comp name=".HNE" depth="0.0">
			<acc value="1.6057259845158" flag="0"/>
			<vel value="0.397047644634" flag="0"/>
			<psa03 value="2.14363517197566" flag="0"/>
			<psa10 value="0.12730767350869" flag="0"/>
			<psa30 value="0.010750635510163" flag="0"/>
		</comp>
		<comp name=".HNN" depth="0.0">
			<acc value="1.776086174457" flag="0"/>
