<?xml version="1.0" encoding="UTF-8" standalone="yes"?>
<!DOCTYPE earthquake SYSTEM "stationlist.dtd">
<stationlist created="" xmlns="ch.ethz.sed.shakemap.usgs.xml">
  <station code="ARMU" name="ARMU" netid="KO" insttype="SA10" commtype="DIG" lat="40.5088" lon="28.838">
    <comp name="--.HNE">
      <acc value="0.8197377588" flag="0"/>
      <vel value="0.2341091822" flag="0"/>
      <psa03 value="2.0429729964" flag="0"/>
      <psa10 value="0.0442176431" flag="0"/>
      <psa30 value="0.0047165669" flag="0"/>
    </comp>
    <comp name="--.HNN">
      <acc value="1.3045486735" flag="0"/>
      <vel value="0.4539883729" flag="0"/>
      <psa03 value="2.4653303806" flag="0"/>
      <psa10 value="0.0877403144" flag="0"/>
      <psa30 value="0.0075261063" flag="0"/>
    </comp>
    <comp name="--.HNZ">
      <acc value="0.8957418510" flag="0"/>
      <vel value="0.1059783967" flag="0"/>
      <psa03 value="0.5434126000" flag="0"/>
      <psa10 value="0.0133155627" flag="0"/>
      <psa30 value="0.0013174410" flag="0"/>
    </comp>
  </station>
  <station code="BOTS" name="BOTS" netid="KO" insttype="CMG-6T" commtype="DIG" lat="40.9902" lon="27.981">
    <comp name="--.HHE">
      <acc value="0.0230006162" flag="0"/>
      <vel value="0.0065738755" flag="0"/>
      <psa03 value="0.0402442719" flag="0"/>
      <psa10 value="0.0019666917" flag="0"/>
      <psa30 value="0.0001810068" flag="0"/>
    </comp>
    <comp name="--.HHZ">
      <acc value="0.0181661121" flag="0"/>
      <vel value="0.0037451245" flag="0"/>
      <psa03 value="0.0309586168" flag="0"/>
      <psa10 value="0.0017215362" flag="0"/>
      <psa30 value="0.0001094003" flag="0"/>
    </comp>
    <comp name="--.HHN">
      <acc value="0.0618522902" flag="0"/>
      <vel value="0.0306274673" flag="0"/>
      <psa03 value="0.1407680510" flag="0"/>
      <psa10 value="0.0122965036" flag="0"/>
      <psa30 value="0.0013321121" flag="0"/>
    </comp>
  </station>
  <station code="BRGA" name="BRGA" netid="KO" insttype="CMG-5T" commtype="DIG" lat="40.8846" lon="29.065">
    <comp name="--.HNE">
      <acc value="0.0671016045" flag="0"/>
      <vel value="0.0148275090" flag="0"/>
      <psa03 value="0.0785686357" flag="0"/>
      <psa10 value="0.0071094382" flag="0"/>
      <psa30 value="0.0004758255" flag="0"/>
    </comp>
    <comp name="--.HNN">
      <acc value="0.0654153963" flag="0"/>
      <vel value="0.0208410971" flag="0"/>
      <psa03 value="0.1088836452" flag="0"/>
      <psa10 value="0.0088974359" flag="0"/>
      <psa30 value="0.0004706029" flag="0"/>
    </comp>
    <comp name="--.HNZ">
      <acc value="0.0674642687" flag="0"/>
      <vel value="0.0129572312" flag="0"/>
      <psa03 value="0.0507258475" flag="0"/>
      <psa10 value="0.0042018462" flag="0"/>
      <psa30 value="0.0004125342" flag="0"/>
    </comp>
  </station>
  <station code="BYKA" name="BYKA" netid="KO" insttype="SA10" commtype="DIG" lat="40.8738" lon="29.1251">
    <comp name="--.HNN">
      <acc value="0.1106111531" flag="0"/>
      <vel value="0.0308719202" flag="0"/>
      <psa03 value="0.1444546125" flag="0"/>
      <psa10 value="0.0089758185" flag="0"/>
      <psa30 value="0.0006008806" flag="0"/>
    </comp>
    <comp name="--.HNZ">
      <acc value="0.0823643593" flag="0"/>
      <vel value="0.0175947193" flag="0"/>
      <psa03 value="0.0492652663" flag="0"/>
      <psa10 value="0.0044409797" flag="0"/>
      <psa30 value="0.0004063732" flag="0"/>
    </comp>
    <comp name="--.HNE">
      <acc value="0.1086521403" flag="0"/>
      <vel value="0.0279549734" flag="0"/>
      <psa03 value="0.1372396095" flag="0"/>
      <psa10 value="0.0058028025" flag="0"/>
      <psa30 value="0.0005248316" flag="0"/>
    </comp>
  </station>
  <station code="CADB" name="CADB" netid="KO" insttype="SA10" commtype="DIG" lat="40.9534" lon="29.083">
    <comp name="--.HNE">
      <acc value="0.2684898838" flag="0"/>
      <vel value="0.0451993798" flag="0"/>
      <psa03 value="0.0530648208" flag="0"/>
      <psa10 value="0.0043307064" flag="0"/>
      <psa30 value="0.0005882575" flag="0"/>
    </comp>
    <comp name="--.HNN">
      <acc value="0.3874867864" flag="0"/>
      <vel value="0.0620181340" flag="0"/>
      <psa03 value="0.0770535432" flag="0"/>
      <psa10 value="0.0052052893" flag="0"/>
      <psa30 value="0.0005565250" flag="0"/>
    </comp>
    <comp name="--.HNZ">
      <acc value="0.1008034743" flag="0"/>
      <vel value="0.0086184773" flag="0"/>
      <psa03 value="0.0201035968" flag="0"/>
      <psa10 value="0.0031880287" flag="0"/>
      <psa30 value="0.0002775907" flag="0"/>
    </comp>
  </station>
  <station code="CYAG" name="CYAG" netid="KO" insttype="SA10" commtype="DIG" lat="40.4924" lon="27.9761">
    <comp name="--.HNZ">
      <acc value="0.0810911142" flag="0"/>
      <vel value="0.0132642042" flag="0"/>
      <psa03 value="0.0289392866" flag="0"/>
      <psa10 value="0.0014384487" flag="0"/>
      <psa30 value="0.0001793676" flag="0"/>
    </comp>
    <comp name="--.HNE">
      <acc value="0.1050249391" flag="0"/>
      <vel value="0.0210798030" flag="0"/>
      <psa03 value="0.0587515953" flag="0"/>
      <psa10 value="0.0026474403" flag="0"/>
      <psa30 value="0.0002597845" flag="0"/>
    </comp>
    <comp name="--.HNN">
      <acc value="0.0916386478" flag="0"/>
      <vel value="0.0170653971" flag="0"/>
      <psa03 value="0.0373511465" flag="0"/>
      <psa10 value="0.0022498170" flag="0"/>
      <psa30 value="0.0002730812" flag="0"/>
    </comp>
  </station>
  <station code="DGNL" name="DGNL" netid="KO" insttype="SA10" commtype="DIG" lat="40.5209" lon="27.7484">
    <comp name="--.HNE">
      <acc value="0.0601336627" flag="0"/>
      <vel value="0.0091286416" flag="0"/>
      <psa03 value="0.0270387832" flag="0"/>
      <psa10 value="0.0017179888" flag="0"/>
      <psa30 value="0.0001560980" flag="0"/>
    </comp>
    <comp name="--.HNZ">
      <acc value="0.0256023070" flag="0"/>
      <vel value="0.0050415467" flag="0"/>
      <psa03 value="0.0127339621" flag="0"/>
      <psa10 value="0.0024615937" flag="0"/>
      <psa30 value="0.0001020507" flag="0"/>
    </comp>
    <comp name="--.HNN">
      <acc value="0.0561894378" flag="0"/>
      <vel value="0.0089887720" flag="0"/>
      <psa03 value="0.0224454484" flag="0"/>
      <psa10 value="0.0024176744" flag="0"/>
      <psa30 value="0.0002555711" flag="0"/>
    </comp>
  </station>
  <station code="DST" name="DST" netid="KO" insttype="CMG-5T" commtype="DIG" lat="39.6041" lon="28.6267">
    <comp name="--.HNE">
      <acc value="0.0359544793" flag="0"/>
      <vel value="0.0128429223" flag="0"/>
      <psa03 value="0.0843993012" flag="0"/>
      <psa10 value="0.0102337297" flag="0"/>
      <psa30 value="0.0005245154" flag="0"/>
    </comp>
    <comp name="--.HNZ">
      <acc value="0.0171263699" flag="0"/>
      <vel value="0.0078164074" flag="0"/>
      <psa03 value="0.0630719829" flag="0"/>
      <psa10 value="0.0041739724" flag="0"/>
      <psa30 value="0.0003481370" flag="0"/>
    </comp>
    <comp name="--.HNN">
      <acc value="0.0214758984" flag="0"/>
      <vel value="0.0133260938" flag="0"/>
      <psa03 value="0.0466295605" flag="0"/>
      <psa10 value="0.0088021641" flag="0"/>
      <psa30 value="0.0005119172" flag="0"/>
    </comp>
  </station>
  <station code="EDC" name="EDC" netid="KO" insttype="CMG-3T" commtype="DIG" lat="40.3465" lon="27.8618">
    <comp name="--.HHE">
      <acc value="0.0461739770" flag="0"/>
      <vel value="0.0140873878" flag="0"/>
      <psa03 value="0.0453656785" flag="0"/>
      <psa10 value="0.0067843422" flag="0"/>
      <psa30 value="0.0002545130" flag="0"/>
    </comp>
    <comp name="--.HHZ">
      <acc value="0.0258662403" flag="0"/>
      <vel value="0.0060944347" flag="0"/>
      <psa03 value="0.0146022166" flag="0"/>
      <psa10 value="0.0022461516" flag="0"/>
      <psa30 value="0.0001196759" flag="0"/>
    </comp>
    <comp name="--.HHN">
      <acc value="0.0657121338" flag="0"/>
      <vel value="0.0147860473" flag="0"/>
      <psa03 value="0.0734799573" flag="0"/>
      <psa10 value="0.0071697230" flag="0"/>
      <psa30 value="0.0003768956" flag="0"/>
    </comp>
  </station>
  <station code="ESKY" name="ESKY" netid="KO" insttype="CMG-5T" commtype="DIG" lat="40.5918" lon="28.9071">
    <comp name="--.HNE">
      <acc value="1.3969749405" flag="0"/>
      <vel value="0.3755690566" flag="0"/>
      <psa03 value="0.9786803977" flag="0"/>
      <psa10 value="0.1271924264" flag="0"/>
      <psa30 value="0.0096782265" flag="0"/>
    </comp>
    <comp name="--.HNN">
      <acc value="1.6379003954" flag="0"/>
      <vel value="0.3848762144" flag="0"/>
      <psa03 value="0.7750121732" flag="0"/>
      <psa10 value="0.1029076704" flag="0"/>
      <psa30 value="0.0096618145" flag="0"/>
    </comp>
    <comp name="--.HNZ">
      <acc value="0.5646969986" flag="0"/>
      <vel value="0.1686943859" flag="0"/>
      <psa03 value="1.3100268457" flag="0"/>
      <psa10 value="0.0474099938" flag="0"/>
      <psa30 value="0.0040932560" flag="0"/>
    </comp>
  </station>
  <station code="ESNS" name="ESNS" netid="KO" insttype="SA10" commtype="DIG" lat="40.6183" lon="28.9532">
    <comp name="--.HNE">
      <acc value="0.7586607847" flag="0"/>
      <vel value="0.2792023789" flag="0"/>
      <psa03 value="1.3246989904" flag="0"/>
      <psa10 value="0.1382889804" flag="0"/>
      <psa30 value="0.0090371691" flag="0"/>
    </comp>
    <comp name="--.HNN">
      <acc value="0.6603095584" flag="0"/>
      <vel value="0.3015259382" flag="0"/>
      <psa03 value="1.3752528659" flag="0"/>
      <psa10 value="0.1770512258" flag="0"/>
      <psa30 value="0.0108641173" flag="0"/>
    </comp>
    <comp name="--.HNZ">
      <acc value="0.5510528535" flag="0"/>
      <vel value="0.1809123135" flag="0"/>
      <psa03 value="1.0299825539" flag="0"/>
      <psa10 value="0.0468260937" flag="0"/>
      <psa30 value="0.0036816741" flag="0"/>
    </comp>
  </station>
  <station code="GEMS" name="GEMS" netid="KO" insttype="SA10" commtype="DIG" lat="40.4231" lon="29.1526">
    <comp name="--.HNE">
      <acc value="1.1639541147" flag="0"/>
      <vel value="0.5340450077" flag="0"/>
      <psa03 value="3.1385379701" flag="0"/>
      <psa10 value="0.1524502840" flag="0"/>
      <psa30 value="0.0135063331" flag="0"/>
    </comp>
    <comp name="--.HNZ">
      <acc value="0.4537788822" flag="0"/>
      <vel value="0.0883488509" flag="0"/>
      <psa03 value="0.3632832453" flag="0"/>
      <psa10 value="0.0362090978" flag="0"/>
      <psa30 value="0.0020620266" flag="0"/>
    </comp>
    <comp name="--.HNN">
      <acc value="0.8946056345" flag="0"/>
      <vel value="0.2359057015" flag="0"/>
      <psa03 value="1.2499188438" flag="0"/>
      <psa10 value="0.0423564584" flag="0"/>
      <psa30 value="0.0056778533" flag="0"/>
    </comp>
  </station>
  <station code="GUZE" name="GUZE" netid="KO" insttype="SA10" commtype="DIG" lat="40.9998" lon="28.5074">
    <comp name="--.HNE">
      <acc value="0.2002205031" flag="0"/>
      <vel value="0.0429331122" flag="0"/>
      <psa03 value="0.1918939631" flag="0"/>
      <psa10 value="0.0128213222" flag="0"/>
      <psa30 value="0.0007245159" flag="0"/>
    </comp>
    <comp name="--.HNN">
      <acc value="0.1600952510" flag="0"/>
      <vel value="0.0396132249" flag="0"/>
      <psa03 value="0.1720138335" flag="0"/>
      <psa10 value="0.0138819261" flag="0"/>
      <psa30 value="0.0007249946" flag="0"/>
    </comp>
    <comp name="--.HNZ">
      <acc value="0.0663174727" flag="0"/>
      <vel value="0.0129589842" flag="0"/>
      <psa03 value="0.0447628773" flag="0"/>
      <psa10 value="0.0023409869" flag="0"/>
      <psa30 value="0.0002507931" flag="0"/>
    </comp>
  </station>
  <station code="HPSA" name="HPSA" netid="KO" insttype="SA10" commtype="DIG" lat="41.0109" lon="29.0072">
    <comp name="--.HNE">
      <acc value="0.1925807729" flag="0"/>
      <vel value="0.0895644050" flag="0"/>
      <psa03 value="0.8378799503" flag="0"/>
      <psa10 value="0.0191147791" flag="0"/>
      <psa30 value="0.0037086809" flag="0"/>
    </comp>
    <comp name="--.HNN">
      <acc value="0.2209977678" flag="0"/>
      <vel value="0.1056432826" flag="0"/>
      <psa03 value="1.0104772750" flag="0"/>
      <psa10 value="0.0267655668" flag="0"/>
      <psa30 value="0.0037180510" flag="0"/>
    </comp>
    <comp name="--.HNZ">
      <acc value="0.0570453077" flag="0"/>
      <vel value="0.0187725757" flag="0"/>
      <psa03 value="0.0724742134" flag="0"/>
      <psa10 value="0.0049871135" flag="0"/>
      <psa30 value="0.0006415420" flag="0"/>
    </comp>
  </station>
  <station code="HRTX" name="HRTX" netid="KO" insttype="CMG-3ESP" commtype="DIG" lat="40.8009" lon="29.6729">
    <comp name="--.HHE">
      <acc value="0.0185587106" flag="0"/>
      <vel value="0.0073492101" flag="0"/>
      <psa03 value="0.0470220716" flag="0"/>
      <psa10 value="0.0043406256" flag="0"/>
      <psa30 value="0.0003530807" flag="0"/>
    </comp>
    <comp name="--.HHN">
      <acc value="0.0179038779" flag="0"/>
      <vel value="0.0048679875" flag="0"/>
      <psa03 value="0.0297611292" flag="0"/>
      <psa10 value="0.0043905357" flag="0"/>
      <psa30 value="0.0003917996" flag="0"/>
    </comp>
    <comp name="--.HHZ">
      <acc value="0.0166613038" flag="0"/>
      <vel value="0.0036824050" flag="0"/>
      <psa03 value="0.0204156571" flag="0"/>
      <psa10 value="0.0032902853" flag="0"/>
      <psa30 value="0.0001798315" flag="0"/>
    </comp>
  </station>
  <station code="IMRL" name="IMRL" netid="KO" insttype="SA10" commtype="DIG" lat="40.5554" lon="28.527">
    <comp name="--.HNE">
      <acc value="0.3314008348" flag="0"/>
      <vel value="0.0968553461" flag="0"/>
      <psa03 value="0.3192024192" flag="0"/>
      <psa10 value="0.0197715506" flag="0"/>
      <psa30 value="0.0014165756" flag="0"/>
    </comp>
    <comp name="--.HNN">
      <acc value="0.3949167231" flag="0"/>
      <vel value="0.1209030892" flag="0"/>
      <psa03 value="0.7070025473" flag="0"/>
      <psa10 value="0.0297697746" flag="0"/>
      <psa30 value="0.0025245061" flag="0"/>
    </comp>
    <comp name="--.HNZ">
      <acc value="0.2947567082" flag="0"/>
      <vel value="0.0371809924" flag="0"/>
      <psa03 value="0.1206961025" flag="0"/>
      <psa10 value="0.0059668925" flag="0"/>
      <psa30 value="0.0005332041" flag="0"/>
    </comp>
  </station>
  <station code="ISK" name="ISK" netid="KO" insttype="CMG-3T" commtype="DIG" lat="41.0615" lon="29.0592">
    <comp name="--.HHE">
      <acc value="0.0290962267" flag="0"/>
      <vel value="0.0065558725" flag="0"/>
      <psa03 value="0.0221750285" flag="0"/>
      <psa10 value="0.0016515090" flag="0"/>
      <psa30 value="0.0001624416" flag="0"/>
    </comp>
    <comp name="--.HHZ">
      <acc value="0.0347346206" flag="0"/>
      <vel value="0.0096505174" flag="0"/>
      <psa03 value="0.0305205052" flag="0"/>
      <psa10 value="0.0021849856" flag="0"/>
      <psa30 value="0.0002493751" flag="0"/>
    </comp>
    <comp name="--.HHN">
      <acc value="0.0253155846" flag="0"/>
      <vel value="0.0061623960" flag="0"/>
      <psa03 value="0.0302909915" flag="0"/>
      <psa10 value="0.0020459319" flag="0"/>
      <psa30 value="0.0001160246" flag="0"/>
    </comp>
  </station>
  <station code="IZI" name="IZI" netid="KO" insttype="CMG-5T" commtype="DIG" lat="40.3483" lon="29.4612">
    <comp name="--.HNE">
      <acc value="0.0673832920" flag="0"/>
      <vel value="0.0252242307" flag="0"/>
      <psa03 value="0.0995353569" flag="0"/>
      <psa10 value="0.0156425274" flag="0"/>
      <psa30 value="0.0009027117" flag="0"/>
    </comp>
    <comp name="--.HNN">
      <acc value="0.0732787793" flag="0"/>
      <vel value="0.0399220439" flag="0"/>
      <psa03 value="0.1036614927" flag="0"/>
      <psa10 value="0.0348451339" flag="0"/>
      <psa30 value="0.0028446248" flag="0"/>
    </comp>
    <comp name="--.HNZ">
      <acc value="0.0637291554" flag="0"/>
      <vel value="0.0208561166" flag="0"/>
      <psa03 value="0.0718129936" flag="0"/>
      <psa10 value="0.0177830876" flag="0"/>
      <psa30 value="0.0008085666" flag="0"/>
    </comp>
  </station>
  <station code="KAVV" name="KAVV" netid="KO" insttype="CMG-3ESPC" commtype="DIG" lat="41.0638" lon="29.06">
    <comp name="--.HHE">
      <acc value="0.1100596483" flag="0"/>
      <vel value="0.0316017910" flag="0"/>
      <psa03 value="0.0987114542" flag="0"/>
      <psa10 value="0.0055090141" flag="0"/>
      <psa30 value="0.0004682095" flag="0"/>
    </comp>
    <comp name="--.HHZ">
      <acc value="0.0527103122" flag="0"/>
      <vel value="0.0136113312" flag="0"/>
      <psa03 value="0.0600142236" flag="0"/>
      <psa10 value="0.0033554572" flag="0"/>
      <psa30 value="0.0003695154" flag="0"/>
    </comp>
    <comp name="--.HHN">
      <acc value="0.0805748407" flag="0"/>
      <vel value="0.0181593250" flag="0"/>
      <psa03 value="0.0783274853" flag="0"/>
      <psa10 value="0.0029756438" flag="0"/>
      <psa30 value="0.0002782386" flag="0"/>
    </comp>
  </station>
  <station code="KCTX" name="KCTX" netid="KO" insttype="CMG-3ESP" commtype="DIG" lat="40.2626" lon="28.3353">
    <comp name="--.HHN">
      <acc value="0.0590606333" flag="0"/>
      <vel value="0.0110427629" flag="0"/>
      <psa03 value="0.0460337596" flag="0"/>
      <psa10 value="0.0038712921" flag="0"/>
      <psa30 value="0.0002450180" flag="0"/>
    </comp>
    <comp name="--.HHE">
      <acc value="0.0356861110" flag="0"/>
      <vel value="0.0071069489" flag="0"/>
      <psa03 value="0.0432248097" flag="0"/>
      <psa10 value="0.0018737393" flag="0"/>
      <psa30 value="0.0001742008" flag="0"/>
    </comp>
    <comp name="--.HHZ">
      <acc value="0.0389352771" flag="0"/>
      <vel value="0.0070307023" flag="0"/>
      <psa03 value="0.0202871055" flag="0"/>
      <psa10 value="0.0013571539" flag="0"/>
      <psa30 value="0.0001045320" flag="0"/>
    </comp>
  </station>
  <station code="KLYT" name="KLYT" netid="KO" insttype="CMG-3T" commtype="DIG" lat="41.253" lon="29.042">
    <comp name="--.HHN">
      <acc value="0.1227907288" flag="0"/>
      <vel value="0.0288102804" flag="0"/>
      <psa03 value="0.1182747838" flag="0"/>
      <psa10 value="0.0037480139" flag="0"/>
      <psa30 value="0.0003846096" flag="0"/>
    </comp>
  </station>
  <station code="KRTA" name="KRTA" netid="KO" insttype="SA10" commtype="DIG" lat="40.9003" lon="29.1544">
    <comp name="--.HNE">
      <acc value="0.2240512501" flag="0"/>
      <vel value="0.0828276131" flag="0"/>
      <psa03 value="1.0367961582" flag="0"/>
      <psa10 value="0.0165556107" flag="0"/>
      <psa30 value="0.0015982218" flag="0"/>
    </comp>
    <comp name="--.HNN">
      <acc value="0.3434495702" flag="0"/>
      <vel value="0.0867100073" flag="0"/>
      <psa03 value="0.3616214191" flag="0"/>
      <psa10 value="0.0143490397" flag="0"/>
      <psa30 value="0.0013528902" flag="0"/>
    </comp>
    <comp name="--.HNZ">
      <acc value="0.0966622712" flag="0"/>
      <vel value="0.0155775570" flag="0"/>
      <psa03 value="0.0434621165" flag="0"/>
      <psa10 value="0.0040699225" flag="0"/>
      <psa30 value="0.0004511662" flag="0"/>
    </comp>
  </station>
  <station code="KRTL" name="KRTL" netid="KO" insttype="CMG-5T" commtype="DIG" lat="40.9089" lon="29.1987">
    <comp name="--.HNE">
      <acc value="0.0859567285" flag="0"/>
      <vel value="0.0107033528" flag="0"/>
      <psa03 value="0.0491975768" flag="0"/>
      <psa10 value="0.0050091924" flag="0"/>
      <psa30 value="0.0003476638" flag="0"/>
    </comp>
    <comp name="--.HNN">
      <acc value="0.0766049296" flag="0"/>
      <vel value="0.0223623288" flag="0"/>
      <psa03 value="0.0729102427" flag="0"/>
      <psa10 value="0.0039222023" flag="0"/>
      <psa30 value="0.0004079678" flag="0"/>
    </comp>
    <comp name="--.HNZ">
      <acc value="0.0406531822" flag="0"/>
