<?xml version="1.0" encoding="UTF-8" standalone="yes"?>
<!DOCTYPE earthquake SYSTEM "stationlist.dtd">
<stationlist created="" xmlns="ch.ethz.sed.shakemap.usgs.xml">
  <station code="ARMU" name="ARMU" netid="KO" insttype="SA10" commtype="DIG" lat="40.5088" lon="28.838">
    <comp name="--.HNE">
      <acc value="0.8197377586" flag="0"/>
      <vel value="0.2341091818" flag="0"/>
      <psa03 value="2.0429729964" flag="0"/>
      <psa10 value="0.0442176497" flag="0"/>
      <psa30 value="0.0047169651" flag="0"/>
    </comp>
    <comp name="--.HNN">
      <acc value="1.3045486733" flag="0"/>
      <vel value="0.4539883738" flag="0"/>
      <psa03 value="2.4653303806" flag="0"/>
      <psa10 value="0.0877403215" flag="0"/>
      <psa30 value="0.0075258729" flag="0"/>
    </comp>
    <comp name="--.HNZ">
      <acc value="0.8957418511" flag="0"/>
      <vel value="0.1059783963" flag="0"/>
      <psa03 value="0.5434126000" flag="0"/>
      <psa10 value="0.0133155660" flag="0"/>
      <psa30 value="0.0013179036" flag="0"/>
    </comp>
  </station>
  <station code="BOTS" name="BOTS" netid="KO" insttype="CMG-6T" commtype="DIG" lat="40.9902" lon="27.981">
    <comp name="--.HHN">
      <acc value="0.0618522923" flag="0"/>
      <vel value="0.0306274662" flag="0"/>
      <psa03 value="0.1407680510" flag="0"/>
      <psa10 value="0.0122965036" flag="0"/>
      <psa30 value="0.0013321160" flag="0"/>
    </comp>
    <comp name="--.HHE">
      <acc value="0.0230006165" flag="0"/>
      <vel value="0.0065738754" flag="0"/>
      <psa03 value="0.0402442719" flag="0"/>
      <psa10 value="0.0019666917" flag="0"/>
      <psa30 value="0.0001810041" flag="0"/>
    </comp>
    <comp name="--.HHZ">
      <acc value="0.0181661132" flag="0"/>
      <vel value="0.0037451247" flag="0"/>
      <psa03 value="0.0309586168" flag="0"/>
      <psa10 value="0.0017215362" flag="0"/>
      <psa30 value="0.0001094013" flag="0"/>
    </comp>
  </station>
  <station code="BRGA" name="BRGA" netid="KO" insttype="CMG-5T" commtype="DIG" lat="40.8846" lon="29.065">
    <comp name="--.HNE">
      <acc value="0.0671016042" flag="0"/>
      <vel value="0.0148275065" flag="0"/>
      <psa03 value="0.0785686357" flag="0"/>
      <psa10 value="0.0071094410" flag="0"/>
      <psa30 value="0.0004747451" flag="0"/>
    </comp>
    <comp name="--.HNN">
      <acc value="0.0654153945" flag="0"/>
      <vel value="0.0208410977" flag="0"/>
      <psa03 value="0.1088836452" flag="0"/>
      <psa10 value="0.0088974381" flag="0"/>
      <psa30 value="0.0004709083" flag="0"/>
    </comp>
    <comp name="--.HNZ">
      <acc value="0.0674642607" flag="0"/>
      <vel value="0.0129572290" flag="0"/>
      <psa03 value="0.0507258475" flag="0"/>
      <psa10 value="0.0042018431" flag="0"/>
      <psa30 value="0.0004123818" flag="0"/>
    </comp>
  </station>
  <station code="BYKA" name="BYKA" netid="KO" insttype="SA10" commtype="DIG" lat="40.8738" lon="29.1251">
    <comp name="--.HNE">
      <acc value="0.1086521402" flag="0"/>
      <vel value="0.0279549732" flag="0"/>
      <psa03 value="0.1372396095" flag="0"/>
      <psa10 value="0.0058028077" flag="0"/>
      <psa30 value="0.0005247784" flag="0"/>
    </comp>
    <comp name="--.HNN">
      <acc value="0.1106111530" flag="0"/>
      <vel value="0.0308719200" flag="0"/>
      <psa03 value="0.1444546125" flag="0"/>
      <psa10 value="0.0089758123" flag="0"/>
      <psa30 value="0.0006009901" flag="0"/>
    </comp>
    <comp name="--.HNZ">
      <acc value="0.0823643591" flag="0"/>
      <vel value="0.0175947161" flag="0"/>
      <psa03 value="0.0492652663" flag="0"/>
      <psa10 value="0.0044409836" flag="0"/>
      <psa30 value="0.0004044275" flag="0"/>
    </comp>
  </station>
  <station code="CADB" name="CADB" netid="KO" insttype="SA10" commtype="DIG" lat="40.9534" lon="29.083">
    <comp name="--.HNE">
      <acc value="0.2684898837" flag="0"/>
      <vel value="0.0451993802" flag="0"/>
      <psa03 value="0.0530648208" flag="0"/>
      <psa10 value="0.0043307059" flag="0"/>
      <psa30 value="0.0005879832" flag="0"/>
    </comp>
    <comp name="--.HNZ">
      <acc value="0.1008034744" flag="0"/>
      <vel value="0.0086184784" flag="0"/>
      <psa03 value="0.0201035968" flag="0"/>
      <psa10 value="0.0031880288" flag="0"/>
      <psa30 value="0.0002769281" flag="0"/>
    </comp>
    <comp name="--.HNN">
      <acc value="0.3874867865" flag="0"/>
      <vel value="0.0620181339" flag="0"/>
      <psa03 value="0.0770535432" flag="0"/>
      <psa10 value="0.0052052908" flag="0"/>
      <psa30 value="0.0005568735" flag="0"/>
    </comp>
  </station>
  <station code="CYAG" name="CYAG" netid="KO" insttype="SA10" commtype="DIG" lat="40.4924" lon="27.9761">
    <comp name="--.HNN">
      <acc value="0.0916386476" flag="0"/>
      <vel value="0.0170653967" flag="0"/>
      <psa03 value="0.0373511465" flag="0"/>
      <psa10 value="0.0022498170" flag="0"/>
      <psa30 value="0.0002730615" flag="0"/>
    </comp>
    <comp name="--.HNE">
      <acc value="0.1050249390" flag="0"/>
      <vel value="0.0210798028" flag="0"/>
      <psa03 value="0.0587515953" flag="0"/>
      <psa10 value="0.0026474403" flag="0"/>
      <psa30 value="0.0002597670" flag="0"/>
    </comp>
    <comp name="--.HNZ">
      <acc value="0.0810911144" flag="0"/>
      <vel value="0.0132642035" flag="0"/>
      <psa03 value="0.0289392866" flag="0"/>
      <psa10 value="0.0014384487" flag="0"/>
      <psa30 value="0.0001795665" flag="0"/>
    </comp>
  </station>
  <station code="DGNL" name="DGNL" netid="KO" insttype="SA10" commtype="DIG" lat="40.5209" lon="27.7484">
    <comp name="--.HNE">
      <acc value="0.0601336626" flag="0"/>
      <vel value="0.0091286417" flag="0"/>
      <psa03 value="0.0270387832" flag="0"/>
      <psa10 value="0.0017179888" flag="0"/>
      <psa30 value="0.0001560143" flag="0"/>
    </comp>
    <comp name="--.HNN">
      <acc value="0.0561894377" flag="0"/>
      <vel value="0.0089887723" flag="0"/>
      <psa03 value="0.0224454484" flag="0"/>
      <psa10 value="0.0024176744" flag="0"/>
      <psa30 value="0.0002555139" flag="0"/>
    </comp>
    <comp name="--.HNZ">
      <acc value="0.0256023069" flag="0"/>
      <vel value="0.0050415461" flag="0"/>
      <psa03 value="0.0127339622" flag="0"/>
      <psa10 value="0.0024615937" flag="0"/>
      <psa30 value="0.0001022083" flag="0"/>
    </comp>
  </station>
  <station code="DST" name="DST" netid="KO" insttype="CMG-5T" commtype="DIG" lat="39.6041" lon="28.6267">
    <comp name="--.HNE">
      <acc value="0.0359544788" flag="0"/>
      <vel value="0.0128429191" flag="0"/>
      <psa03 value="0.0843993012" flag="0"/>
      <psa10 value="0.0102337297" flag="0"/>
      <psa30 value="0.0005244467" flag="0"/>
    </comp>
    <comp name="--.HNZ">
      <acc value="0.0171263701" flag="0"/>
      <vel value="0.0078164055" flag="0"/>
      <psa03 value="0.0630719829" flag="0"/>
      <psa10 value="0.0041739728" flag="0"/>
      <psa30 value="0.0003481378" flag="0"/>
    </comp>
    <comp name="--.HNN">
      <acc value="0.0214758994" flag="0"/>
      <vel value="0.0133260921" flag="0"/>
      <psa03 value="0.0466295605" flag="0"/>
      <psa10 value="0.0088021639" flag="0"/>
      <psa30 value="0.0005121240" flag="0"/>
    </comp>
  </station>
  <station code="EDC" name="EDC" netid="KO" insttype="CMG-3T" commtype="DIG" lat="40.3465" lon="27.8618">
    <comp name="--.HHN">
      <acc value="0.0657121342" flag="0"/>
      <vel value="0.0147860468" flag="0"/>
      <psa03 value="0.0734799573" flag="0"/>
      <psa10 value="0.0071697230" flag="0"/>
      <psa30 value="0.0003768956" flag="0"/>
    </comp>
    <comp name="--.HHE">
      <acc value="0.0461739769" flag="0"/>
      <vel value="0.0140873874" flag="0"/>
      <psa03 value="0.0453656785" flag="0"/>
      <psa10 value="0.0067843422" flag="0"/>
      <psa30 value="0.0002545202" flag="0"/>
    </comp>
    <comp name="--.HHZ">
      <acc value="0.0258662403" flag="0"/>
      <vel value="0.0060944347" flag="0"/>
      <psa03 value="0.0146022166" flag="0"/>
      <psa10 value="0.0022461516" flag="0"/>
      <psa30 value="0.0001196755" flag="0"/>
    </comp>
  </station>
  <station code="ESKY" name="ESKY" netid="KO" insttype="CMG-5T" commtype="DIG" lat="40.5918" lon="28.9071">
    <comp name="--.HNE">
      <acc value="1.3969749690" flag="0"/>
      <vel value="0.3755690562" flag="0"/>
      <psa03 value="0.9786803977" flag="0"/>
      <psa10 value="0.1271924267" flag="0"/>
      <psa30 value="0.0096781746" flag="0"/>
    </comp>
    <comp name="--.HNN">
      <acc value="1.6379004172" flag="0"/>
      <vel value="0.3848762140" flag="0"/>
      <psa03 value="0.7750121732" flag="0"/>
      <psa10 value="0.1029076832" flag="0"/>
      <psa30 value="0.0096631569" flag="0"/>
    </comp>
    <comp name="--.HNZ">
      <acc value="0.5646969950" flag="0"/>
      <vel value="0.1686943865" flag="0"/>
      <psa03 value="1.3100268457" flag="0"/>
      <psa10 value="0.0474099906" flag="0"/>
      <psa30 value="0.0040931775" flag="0"/>
    </comp>
  </station>
  <station code="ESNS" name="ESNS" netid="KO" insttype="SA10" commtype="DIG" lat="40.6183" lon="28.9532">
    <comp name="--.HNE">
      <acc value="0.7586607844" flag="0"/>
      <vel value="0.2792023793" flag="0"/>
      <psa03 value="1.3246989904" flag="0"/>
      <psa10 value="0.1382889839" flag="0"/>
      <psa30 value="0.0090369091" flag="0"/>
    </comp>
    <comp name="--.HNN">
      <acc value="0.6603095586" flag="0"/>
      <vel value="0.3015259378" flag="0"/>
      <psa03 value="1.3752528659" flag="0"/>
      <psa10 value="0.1770512249" flag="0"/>
      <psa30 value="0.0108645618" flag="0"/>
    </comp>
    <comp name="--.HNZ">
      <acc value="0.5510528534" flag="0"/>
      <vel value="0.1809123099" flag="0"/>
      <psa03 value="1.0299825539" flag="0"/>
      <psa10 value="0.0468260921" flag="0"/>
      <psa30 value="0.0036801676" flag="0"/>
    </comp>
  </station>
  <station code="GEMS" name="GEMS" netid="KO" insttype="SA10" commtype="DIG" lat="40.4231" lon="29.1526">
    <comp name="--.HNE">
      <acc value="1.1639541149" flag="0"/>
      <vel value="0.5340450084" flag="0"/>
      <psa03 value="3.1385379701" flag="0"/>
      <psa10 value="0.1524502766" flag="0"/>
      <psa30 value="0.0135061260" flag="0"/>
    </comp>
    <comp name="--.HNZ">
      <acc value="0.4537788822" flag="0"/>
      <vel value="0.0883488501" flag="0"/>
      <psa03 value="0.3632832453" flag="0"/>
      <psa10 value="0.0362090917" flag="0"/>
      <psa30 value="0.0020612813" flag="0"/>
    </comp>
    <comp name="--.HNN">
      <acc value="0.8946056343" flag="0"/>
      <vel value="0.2359057009" flag="0"/>
      <psa03 value="1.2499188438" flag="0"/>
      <psa10 value="0.0423564378" flag="0"/>
      <psa30 value="0.0056781042" flag="0"/>
    </comp>
  </station>
  <station code="GUZE" name="GUZE" netid="KO" insttype="SA10" commtype="DIG" lat="40.9998" lon="28.5074">
    <comp name="--.HNN">
      <acc value="0.1600952509" flag="0"/>
      <vel value="0.0396132247" flag="0"/>
      <psa03 value="0.1720138335" flag="0"/>
      <psa10 value="0.0138819261" flag="0"/>
      <psa30 value="0.0007251968" flag="0"/>
    </comp>
    <comp name="--.HNE">
      <acc value="0.2002205032" flag="0"/>
      <vel value="0.0429331121" flag="0"/>
      <psa03 value="0.1918939631" flag="0"/>
      <psa10 value="0.0128213223" flag="0"/>
      <psa30 value="0.0007244649" flag="0"/>
    </comp>
    <comp name="--.HNZ">
      <acc value="0.0663174725" flag="0"/>
      <vel value="0.0129589835" flag="0"/>
      <psa03 value="0.0447628773" flag="0"/>
      <psa10 value="0.0023409869" flag="0"/>
      <psa30 value="0.0002507599" flag="0"/>
    </comp>
  </station>
  <station code="HPSA" name="HPSA" netid="KO" insttype="SA10" commtype="DIG" lat="41.0109" lon="29.0072">
    <comp name="--.HNN">
      <acc value="0.2209977677" flag="0"/>
      <vel value="0.1056432799" flag="0"/>
      <psa03 value="1.0104772750" flag="0"/>
      <psa10 value="0.0267655600" flag="0"/>
      <psa30 value="0.0037160573" flag="0"/>
    </comp>
    <comp name="--.HNE">
      <acc value="0.1925807729" flag="0"/>
      <vel value="0.0895644014" flag="0"/>
      <psa03 value="0.8378799503" flag="0"/>
      <psa10 value="0.0191147943" flag="0"/>
      <psa30 value="0.0037078478" flag="0"/>
    </comp>
    <comp name="--.HNZ">
      <acc value="0.0570453079" flag="0"/>
      <vel value="0.0187725755" flag="0"/>
      <psa03 value="0.0724742134" flag="0"/>
      <psa10 value="0.0049871128" flag="0"/>
      <psa30 value="0.0006414526" flag="0"/>
    </comp>
  </station>
  <station code="HRTX" name="HRTX" netid="KO" insttype="CMG-3ESP" commtype="DIG" lat="40.8009" lon="29.6729">
    <comp name="--.HHE">
      <acc value="0.0185587106" flag="0"/>
      <vel value="0.0073492098" flag="0"/>
      <psa03 value="0.0470220716" flag="0"/>
      <psa10 value="0.0043406256" flag="0"/>
      <psa30 value="0.0003530785" flag="0"/>
    </comp>
    <comp name="--.HHN">
      <acc value="0.0179038779" flag="0"/>
      <vel value="0.0048679875" flag="0"/>
      <psa03 value="0.0297611292" flag="0"/>
      <psa10 value="0.0043905357" flag="0"/>
      <psa30 value="0.0003917947" flag="0"/>
    </comp>
    <comp name="--.HHZ">
      <acc value="0.0166613038" flag="0"/>
      <vel value="0.0036824045" flag="0"/>
      <psa03 value="0.0204156571" flag="0"/>
      <psa10 value="0.0032902853" flag="0"/>
      <psa30 value="0.0001798361" flag="0"/>
    </comp>
  </station>
  <station code="IMRL" name="IMRL" netid="KO" insttype="SA10" commtype="DIG" lat="40.5554" lon="28.527">
    <comp name="--.HNZ">
      <acc value="0.2947567084" flag="0"/>
      <vel value="0.0371809918" flag="0"/>
      <psa03 value="0.1206961025" flag="0"/>
      <psa10 value="0.0059668934" flag="0"/>
      <psa30 value="0.0005321390" flag="0"/>
    </comp>
    <comp name="--.HNN">
      <acc value="0.3949167235" flag="0"/>
      <vel value="0.1209030894" flag="0"/>
      <psa03 value="0.7070025473" flag="0"/>
      <psa10 value="0.0297697748" flag="0"/>
      <psa30 value="0.0025242212" flag="0"/>
    </comp>
    <comp name="--.HNE">
      <acc value="0.3314008349" flag="0"/>
      <vel value="0.0968553448" flag="0"/>
      <psa03 value="0.3192024192" flag="0"/>
      <psa10 value="0.0197715505" flag="0"/>
      <psa30 value="0.0014169828" flag="0"/>
    </comp>
  </station>
  <station code="ISK" name="ISK" netid="KO" insttype="CMG-3T" commtype="DIG" lat="41.0615" lon="29.0592">
    <comp name="--.HHN">
      <acc value="0.0253155846" flag="0"/>
      <vel value="0.0061623960" flag="0"/>
      <psa03 value="0.0302909915" flag="0"/>
      <psa10 value="0.0020459319" flag="0"/>
      <psa30 value="0.0001160255" flag="0"/>
    </comp>
    <comp name="--.HHE">
      <acc value="0.0290962267" flag="0"/>
      <vel value="0.0065558723" flag="0"/>
      <psa03 value="0.0221750285" flag="0"/>
      <psa10 value="0.0016515091" flag="0"/>
      <psa30 value="0.0001624424" flag="0"/>
    </comp>
    <comp name="--.HHZ">
      <acc value="0.0347346206" flag="0"/>
      <vel value="0.0096505173" flag="0"/>
      <psa03 value="0.0305205052" flag="0"/>
      <psa10 value="0.0021849856" flag="0"/>
      <psa30 value="0.0002493648" flag="0"/>
    </comp>
  </station>
  <station code="IZI" name="IZI" netid="KO" insttype="CMG-5T" commtype="DIG" lat="40.3483" lon="29.4612">
    <comp name="--.HNE">
      <acc value="0.0673832927" flag="0"/>
      <vel value="0.0252242306" flag="0"/>
      <psa03 value="0.0995353569" flag="0"/>
      <psa10 value="0.0156425259" flag="0"/>
      <psa30 value="0.0009029140" flag="0"/>
    </comp>
    <comp name="--.HNN">
      <acc value="0.0732787802" flag="0"/>
      <vel value="0.0399220462" flag="0"/>
      <psa03 value="0.1036614927" flag="0"/>
      <psa10 value="0.0348451293" flag="0"/>
      <psa30 value="0.0028447777" flag="0"/>
    </comp>
    <comp name="--.HNZ">
      <acc value="0.0637291541" flag="0"/>
      <vel value="0.0208561183" flag="0"/>
      <psa03 value="0.0718129936" flag="0"/>
      <psa10 value="0.0177830894" flag="0"/>
      <psa30 value="0.0008080079" flag="0"/>
    </comp>
  </station>
  <station code="KAVV" name="KAVV" netid="KO" insttype="CMG-3ESPC" commtype="DIG" lat="41.0638" lon="29.06">
    <comp name="--.HHZ">
      <acc value="0.0527103122" flag="0"/>
      <vel value="0.0136113312" flag="0"/>
      <psa03 value="0.0600142236" flag="0"/>
      <psa10 value="0.0033554572" flag="0"/>
      <psa30 value="0.0003695083" flag="0"/>
    </comp>
    <comp name="--.HHN">
      <acc value="0.0805748408" flag="0"/>
      <vel value="0.0181593251" flag="0"/>
      <psa03 value="0.0783274853" flag="0"/>
      <psa10 value="0.0029756437" flag="0"/>
      <psa30 value="0.0002782481" flag="0"/>
    </comp>
    <comp name="--.HHE">
      <acc value="0.1100596482" flag="0"/>
      <vel value="0.0316017905" flag="0"/>
      <psa03 value="0.0987114542" flag="0"/>
      <psa10 value="0.0055090142" flag="0"/>
      <psa30 value="0.0004682244" flag="0"/>
    </comp>
  </station>
  <station code="KCTX" name="KCTX" netid="KO" insttype="CMG-3ESP" commtype="DIG" lat="40.2626" lon="28.3353">
    <comp name="--.HHE">
      <acc value="0.0356861111" flag="0"/>
      <vel value="0.0071069487" flag="0"/>
      <psa03 value="0.0432248097" flag="0"/>
      <psa10 value="0.0018737393" flag="0"/>
      <psa30 value="0.0001741991" flag="0"/>
    </comp>
    <comp name="--.HHN">
      <acc value="0.0590606332" flag="0"/>
      <vel value="0.0110427635" flag="0"/>
      <psa03 value="0.0460337596" flag="0"/>
      <psa10 value="0.0038712921" flag="0"/>
      <psa30 value="0.0002450117" flag="0"/>
    </comp>
    <comp name="--.HHZ">
      <acc value="0.0389352772" flag="0"/>
      <vel value="0.0070307032" flag="0"/>
      <psa03 value="0.0202871055" flag="0"/>
      <psa10 value="0.0013571539" flag="0"/>
      <psa30 value="0.0001045365" flag="0"/>
    </comp>
  </station>
  <station code="KLYT" name="KLYT" netid="KO" insttype="CMG-3T" commtype="DIG" lat="41.253" lon="29.042">
    <comp name="--.HHN">
      <acc value="0.1227907288" flag="0"/>
      <vel value="0.0288102804" flag="0"/>
      <psa03 value="0.1182747838" flag="0"/>
      <psa10 value="0.0037480139" flag="0"/>
      <psa30 value="0.0003846086" flag="0"/>
    </comp>
    <comp name="--.HHE">
      <acc value="0.0790474406" flag="0"/>
      <vel value="0.0166765162" flag="0"/>
      <psa03 value="0.0678637213" flag="0"/>
      <psa10 value="0.0027923966" flag="0"/>
      <psa30 value="0.0002690282" flag="0"/>
    </comp>
  </station>
  <station code="KRTA" name="KRTA" netid="KO" insttype="SA10" commtype="DIG" lat="40.9003" lon="29.1544">
    <comp name="--.HNE">
      <acc value="0.2240512497" flag="0"/>
      <vel value="0.0828276199" flag="0"/>
      <psa03 value="1.0367961582" flag="0"/>
      <psa10 value="0.0165556137" flag="0"/>
      <psa30 value="0.0015974884" flag="0"/>
    </comp>
    <comp name="--.HNN">
      <acc value="0.3434495705" flag="0"/>
      <vel value="0.0867100092" flag="0"/>
      <psa03 value="0.3616214191" flag="0"/>
      <psa10 value="0.0143490404" flag="0"/>
      <psa30 value="0.0013522961" flag="0"/>
    </comp>
    <comp name="--.HNZ">
      <acc value="0.0966622712" flag="0"/>
      <vel value="0.0155775642" flag="0"/>
      <psa03 value="0.0434621165" flag="0"/>
      <psa10 value="0.0040699316" flag="0"/>
      <psa30 value="0.0004702750" flag="0"/>
    </comp>
  </station>
  <station code="KRTL" name="KRTL" netid="KO" insttype="CMG-5T" commtype="DIG" lat="40.9089" lon="29.1987">
    <comp name="--.HNN">
      <acc value="0.0766049278" flag="0"/>
      <vel value="0.0223623302" flag="0"/>
      <psa03 value="0.0729102427" flag="0"/>
      <psa10 value="0.0039221988" flag="0"/>
      <psa30 value="0.0004076879" flag="0"/>
    </comp>
    <comp name="--.HNE">
      <acc value="0.0859567319" flag="0"/>
