<stationlist created="1751365954">
	<station code="AKS" name="AKS" netid="KO" source="Bogazici University Kandilli Observatory And Earthquake Research Institute (KOERI)" insttype="" lat="38.8785" lon="27.8129">
		<comp name=".HNE" depth="0.0">
			<acc value="0.0055492148540838" flag="0"/>
			<vel value="0.00334643610965" flag="0"/>
			<psa03 value="0.0141446596705444" flag="0"/>
			<psa10 value="0.00346137054880963" flag="0"/>
			<psa30 value="0.000466261877143391" flag="0"/>
		</comp>
		<comp name=".HNN" depth="0.0">
			<acc value="0.0054598535026422" flag="0"/>
			<vel value="0.00299416550885" flag="0"/>
			<psa03 value="0.0172932836159997" flag="0"/>
			<psa10 value="0.00158599084535871" flag="0"/>
			<psa30 value="0.000387113014128901" flag="0"/>
		</comp>
		<comp name=".HNZ" depth="0.0">
			<acc value="0.0021413175945102" flag="0"/>
			<vel value="0.00147558286843" flag="0"/>
			<psa03 value="0.00716067292714393" flag="0"/>
			<psa10 value="0.000826760315688898" flag="0"/>
			<psa30 value="0.000469252179404659" flag="0"/>
		</comp>
	</station>
	<station code="ALT" name="ALT" netid="KO" source="Bogazici University Kandilli Observatory And Earthquake Research Institute (KOERI)" insttype="" lat="39.0541" lon="30.1104">
		<comp name=".HNE" depth="0.0">
			<acc value="0.0016520692954164" flag="0"/>
			<vel value="0.000866912423286" flag="0"/>
			<psa03 value="0.00314110619484972" flag="0"/>
			<psa10 value="0.000869417457921275" flag="0"/>
			<psa30 value="0.000253394624692085" flag="0"/>
		</comp>
		<comp name=".HNN" depth="0.0">
			<acc value="0.0017174198489286" flag="0"/>
			<vel value="0.00101617905692" flag="0"/>
			<psa03 value="0.00379039171984857" flag="0"/>
			<psa10 value="0.000762330110002116" flag="0"/>
			<psa30 value="0.000355028883504682" flag="0"/>
		</comp>
		<comp name=".HNZ" depth="0.0">
			<acc value="0.0019681824321246" flag="0"/>
			<vel value="0.00108005994427" flag="0"/>
			<psa03 value="0.00260683854312659" flag="0"/>
			<psa10 value="0.001164717820903" flag="0"/>
			<psa30 value="0.000596349296878972" flag="0"/>
		</comp>
	</station>
	<station code="ARMU" name="ARMU" netid="KO" source="Bogazici University Kandilli Observatory And Earthquake Research Institute (KOERI)" insttype="" lat="40.5088" lon="28.838">
		<comp name=".HNE" depth="0.0">
			<acc value="0.81085375093866" flag="0"/>
			<vel value="0.23452419656" flag="0"/>
			<psa03 value="2.06797766003798" flag="0"/>
			<psa10 value="0.0447967513149837" flag="0"/>
			<psa30 value="0.00478464945953607" flag="0"/>
		</comp>
		<comp name=".HNN" depth="0.0">
			<acc value="1.3231271460606" flag="0"/>
			<vel value="0.45480814332" flag="0"/>
			<psa03 value="2.49926973102171" flag="0"/>
			<psa10 value="0.0881040164586576" flag="0"/>
			<psa30 value="0.00756140923956992" flag="0"/>
		</comp>
		<comp name=".HNZ" depth="0.0">
			<acc value="0.80726921436684" flag="0"/>
			<vel value="0.10737152227" flag="0"/>
			<psa03 value="0.550348541222852" flag="0"/>
			<psa10 value="0.0133628439728255" flag="0"/>
			<psa30 value="0.00136616862696578" flag="0"/>
		</comp>
	</station>
	<station code="ATAM" name="ATAM" netid="KO" source="Bogazici University Kandilli Observatory And Earthquake Research Institute (KOERI)" insttype="" lat="40.9688" lon="28.875">
		<comp name=".HNE" depth="0.0">
			<acc value="0.068395521651534" flag="0"/>
			<vel value="0.0235913427015" flag="0"/>
			<psa03 value="0.0950339517828051" flag="0"/>
			<psa10 value="0.00729211712945434" flag="0"/>
			<psa30 value="0.000790656595869376" flag="0"/>
		</comp>
		<comp name=".HNN" depth="0.0">
			<acc value="0.07431915553227" flag="0"/>
			<vel value="0.0226785520683" flag="0"/>
			<psa03 value="0.124815487163268" flag="0"/>
			<psa10 value="0.0100292584516396" flag="0"/>
			<psa30 value="0.000953033654636436" flag="0"/>
		</comp>
		<comp name=".HNZ" depth="0.0">
			<acc value="0.03386654511369" flag="0"/>
			<vel value="0.00627070795407" flag="0"/>
			<psa03 value="0.0366833155062772" flag="0"/>
			<psa10 value="0.00351707345760764" flag="0"/>
			<psa30 value="0.000253698941726249" flag="0"/>
		</comp>
	</station>
	<station code="AVCI" name="AVCI" netid="KO" source="Bogazici University Kandilli Observatory And Earthquake Research Institute (KOERI)" insttype="" lat="40.9958" lon="28.7225">
		<comp name=".HNE" depth="0.0">
			<acc value="0.026689676636574" flag="0"/>
			<vel value="0.00952922988798" flag="0"/>
			<psa03 value="0.0544833175855896" flag="0"/>
			<psa10 value="0.00641116689586012" flag="0"/>
			<psa30 value="0.000464800634509248" flag="0"/>
		</comp>
		<comp name=".HNN" depth="0.0">
			<acc value="0.04085037488127" flag="0"/>
			<vel value="0.011998951073" flag="0"/>
			<psa03 value="0.0901356793795408" flag="0"/>
			<psa10 value="0.00584918701117935" flag="0"/>
			<psa30 value="0.000812515075135777" flag="0"/>
		</comp>
		<comp name=".HNZ" depth="0.0">
			<acc value="0.034254825272538" flag="0"/>
			<vel value="0.00821716216716" flag="0"/>
			<psa03 value="0.0523866161893323" flag="0"/>
			<psa10 value="0.00235982507683025" flag="0"/>
			<psa30 value="0.00036748114069689" flag="0"/>
		</comp>
	</station>
	<station code="BALB" name="BALB" netid="KO" source="Bogazici University Kandilli Observatory And Earthquake Research Institute (KOERI)" insttype="" lat="39.6507" lon="27.8642">
		<comp name=".HNE" depth="0.0">
			<acc value="0.012866913462942" flag="0"/>
			<vel value="0.00526600294671" flag="0"/>
			<psa03 value="0.0261490525589173" flag="0"/>
			<psa10 value="0.00367999596917308" flag="0"/>
			<psa30 value="0.000180219477718635" flag="0"/>
		</comp>
		<comp name=".HNN" depth="0.0">
			<acc value="0.010829971624494" flag="0"/>
			<vel value="0.00490459633455" flag="0"/>
			<psa03 value="0.0257717098534705" flag="0"/>
			<psa10 value="0.00395682243256555" flag="0"/>
			<psa30 value="0.00033692901260188" flag="0"/>
		</comp>
		<comp name=".HNZ" depth="0.0">
			<acc value="0.0060924905771622" flag="0"/>
			<vel value="0.00239937577523" flag="0"/>
			<psa03 value="0.0213607366585445" flag="0"/>
			<psa10 value="0.00152525182169838" flag="0"/>
			<psa30 value="0.000138764153381482" flag="0"/>
		</comp>
	</station>
	<station code="BIGA" name="BIGA" netid="KO" source="Bogazici University Kandilli Observatory And Earthquake Research Institute (KOERI)" insttype="" lat="40.28134" lon="27.15048">
		<comp name=".HNE" depth="0.0">
			<acc value="0.020660379051804" flag="0"/>
			<vel value="0.00675843940309" flag="0"/>
			<psa03 value="0.0496182296725092" flag="0"/>
			<psa10 value="0.00195643159618101" flag="0"/>
			<psa30 value="0.000528976135821654" flag="0"/>
		</comp>
		<comp name=".HNN" depth="0.0">
			<acc value="0.0223298062125" flag="0"/>
			<vel value="0.00874361927492" flag="0"/>
			<psa03 value="0.0455086136805973" flag="0"/>
			<psa10 value="0.0028277018526199" flag="0"/>
			<psa30 value="0.000522474923899983" flag="0"/>
		</comp>
		<comp name=".HNZ" depth="0.0">
			<acc value="0.0101326131946104" flag="0"/>
			<vel value="0.00269286405979" flag="0"/>
			<psa03 value="0.0116147394715747" flag="0"/>
			<psa10 value="0.00153877287364989" flag="0"/>
			<psa30 value="0.00048688136808303" flag="0"/>
		</comp>
	</station>
	<station code="BOTS" name="BOTS" netid="KO" source="Bogazici University Kandilli Observatory And Earthquake Research Institute (KOERI)" insttype="" lat="40.9902" lon="27.981">
		<comp name=".HNE" depth="0.0">
			<acc value="0.029916082635498" flag="0"/>
			<vel value="0.00900081485473" flag="0"/>
			<psa03 value="0.0550169883556055" flag="0"/>
			<psa10 value="0.00303426389571572" flag="0"/>
			<psa30 value="0.0003167261378024" flag="0"/>
		</comp>
		<comp name=".HNN" depth="0.0">
			<acc value="0.059604688164066" flag="0"/>
			<vel value="0.0292619022366" flag="0"/>
			<psa03 value="0.136599351119944" flag="0"/>
			<psa10 value="0.012162320069017" flag="0"/>
			<psa30 value="0.00135596503436324" flag="0"/>
		</comp>
		<comp name=".HNZ" depth="0.0">
			<acc value="0.016214401062396" flag="0"/>
			<vel value="0.00353870877403" flag="0"/>
			<psa03 value="0.0289723593807713" flag="0"/>
			<psa10 value="0.00172774765792605" flag="0"/>
			<psa30 value="0.000269835140878711" flag="0"/>
		</comp>
	</station>
	<station code="BRGA" name="BRGA" netid="KO" source="Bogazici University Kandilli Observatory And Earthquake Research Institute (KOERI)" insttype="" lat="40.8846" lon="29.065">
		<comp name=".HNE" depth="0.0">
			<acc value="0.065166004015722" flag="0"/>
			<vel value="0.0150012555418" flag="0"/>
			<psa03 value="0.0800759817241788" flag="0"/>
			<psa10 value="0.00713822990393672" flag="0"/>
			<psa30 value="0.000483378896480651" flag="0"/>
		</comp>
		<comp name=".HNN" depth="0.0">
			<acc value="0.064580698831686" flag="0"/>
			<vel value="0.0209115733934" flag="0"/>
			<psa03 value="0.109994463676614" flag="0"/>
			<psa10 value="0.00892583504275704" flag="0"/>
			<psa30 value="0.000478557222902453" flag="0"/>
		</comp>
		<comp name=".HNZ" depth="0.0">
			<acc value="0.066987573526758" flag="0"/>
			<vel value="0.0133005993354" flag="0"/>
			<psa03 value="0.0515680932163731" flag="0"/>
			<psa10 value="0.00424046497250026" flag="0"/>
			<psa30 value="0.000489420025839747" flag="0"/>
		</comp>
	</station>
	<station code="BUYK" name="BUYK" netid="KO" source="Bogazici University Kandilli Observatory And Earthquake Research Institute (KOERI)" insttype="" lat="41.0168" lon="28.5828">
		<comp name=".HNE" depth="0.0">
			<acc value="0.046787104703472" flag="0"/>
			<vel value="0.0147362998982" flag="0"/>
			<psa03 value="0.0903683718777311" flag="0"/>
			<psa10 value="0.0103021105892623" flag="0"/>
			<psa30 value="0.00118052580820916" flag="0"/>
		</comp>
		<comp name=".HNN" depth="0.0">
			<acc value="0.04852340374818" flag="0"/>
			<vel value="0.0142790582331" flag="0"/>
			<psa03 value="0.105859668933656" flag="0"/>
			<psa10 value="0.00781543242154143" flag="0"/>
			<psa30 value="0.000799412540488798" flag="0"/>
		</comp>
		<comp name=".HNZ" depth="0.0">
			<acc value="0.043377306922044" flag="0"/>
			<vel value="0.00817033392663" flag="0"/>
			<psa03 value="0.0384699182349287" flag="0"/>
			<psa10 value="0.00514145700253902" flag="0"/>
			<psa30 value="0.000336315951156192" flag="0"/>
		</comp>
	</station>
	<station code="BYKA" name="BYKA" netid="KO" source="Bogazici University Kandilli Observatory And Earthquake Research Institute (KOERI)" insttype="" lat="40.8738" lon="29.1251">
		<comp name=".HNE" depth="0.0">
			<acc value="0.10655949425616" flag="0"/>
			<vel value="0.028073009463" flag="0"/>
			<psa03 value="0.138531135341233" flag="0"/>
			<psa10 value="0.00582952492742644" flag="0"/>
			<psa30 value="0.000549528486896866" flag="0"/>
		</comp>
		<comp name=".HNN" depth="0.0">
			<acc value="0.11184500255376" flag="0"/>
			<vel value="0.0310329944076" flag="0"/>
			<psa03 value="0.146919534781468" flag="0"/>
			<psa10 value="0.00901281174203197" flag="0"/>
			<psa30 value="0.000619719126265738" flag="0"/>
		</comp>
		<comp name=".HNZ" depth="0.0">
			<acc value="0.079888488135636" flag="0"/>
			<vel value="0.0179281555366" flag="0"/>
			<psa03 value="0.0499133794330065" flag="0"/>
			<psa10 value="0.004437442552533" flag="0"/>
			<psa30 value="0.00039258595480937" flag="0"/>
		</comp>
	</station>
	<station code="CADB" name="CADB" netid="KO" source="Bogazici University Kandilli Observatory And Earthquake Research Institute (KOERI)" insttype="" lat="40.9534" lon="29.083">
		<comp name=".HNE" depth="0.0">
			<acc value="0.26370891098856" flag="0"/>
			<vel value="0.0454621785352" flag="0"/>
			<psa03 value="0.0552807610374665" flag="0"/>
			<psa10 value="0.00443449345091793" flag="0"/>
			<psa30 value="0.000601538078110373" flag="0"/>
		</comp>
		<comp name=".HNN" depth="0.0">
			<acc value="0.38186697598644" flag="0"/>
			<vel value="0.0624859337955" flag="0"/>
			<psa03 value="0.0798035053404169" flag="0"/>
			<psa10 value="0.00541935556821502" flag="0"/>
			<psa30 value="0.000623007104494681" flag="0"/>
		</comp>
		<comp name=".HNZ" depth="0.0">
			<acc value="0.09176742997404" flag="0"/>
			<vel value="0.00921095576866" flag="0"/>
			<psa03 value="0.02030564983714" flag="0"/>
			<psa10 value="0.00319193441873804" flag="0"/>
			<psa30 value="0.000302217546470767" flag="0"/>
		</comp>
	</station>
	<station code="CANM" name="CANM" netid="KO" source="Bogazici University Kandilli Observatory And Earthquake Research Institute (KOERI)" insttype="" lat="40.0113" lon="27.0529">
		<comp name=".HNE" depth="0.0">
			<acc value="0.013165861880826" flag="0"/>
			<vel value="0.0042043625278" flag="0"/>
			<psa03 value="0.0204441902647655" flag="0"/>
			<psa10 value="0.00180542127998626" flag="0"/>
			<psa30 value="0.000154335249994656" flag="0"/>
		</comp>
		<comp name=".HNN" depth="0.0">
			<acc value="0.01455865808298" flag="0"/>
			<vel value="0.00417489275715" flag="0"/>
			<psa03 value="0.0271542649826074" flag="0"/>
			<psa10 value="0.00318406428800749" flag="0"/>
			<psa30 value="0.000233174977948046" flag="0"/>
		</comp>
		<comp name=".HNZ" depth="0.0">
			<acc value="0.015822330136176" flag="0"/>
			<vel value="0.00386763520847" flag="0"/>
			<psa03 value="0.0148957406759838" flag="0"/>
			<psa10 value="0.00167001598192384" flag="0"/>
			<psa30 value="0.000137839300448008" flag="0"/>
		</comp>
	</station>
	<station code="CRLU" name="CRLU" netid="KO" source="Bogazici University Kandilli Observatory And Earthquake Research Institute (KOERI)" insttype="" lat="41.1428" lon="27.8215">
		<comp name=".HNE" depth="0.0">
			<acc value="0.049263267921942" flag="0"/>
			<vel value="0.0162916103744" flag="0"/>
			<psa03 value="0.091307725772003" flag="0"/>
			<psa10 value="0.0121989543708592" flag="0"/>
			<psa30 value="0.000946711360816999" flag="0"/>
		</comp>
		<comp name=".HNN" depth="0.0">
			<acc value="0.037187816735466" flag="0"/>
			<vel value="0.0195815016312" flag="0"/>
			<psa03 value="0.0729044597710238" flag="0"/>
			<psa10 value="0.00967228074112566" flag="0"/>
			<psa30 value="0.00124401386814749" flag="0"/>
		</comp>
		<comp name=".HNZ" depth="0.0">
			<acc value="0.027518766415812" flag="0"/>
			<vel value="0.00818204436948" flag="0"/>
			<psa03 value="0.0304407795730777" flag="0"/>
			<psa10 value="0.00523054884192322" flag="0"/>
			<psa30 value="0.000451292083383966" flag="0"/>
		</comp>
	</station>
	<station code="CYAG" name="CYAG" netid="KO" source="Bogazici University Kandilli Observatory And Earthquake Research Institute (KOERI)" insttype="" lat="40.4924" lon="27.9761">
		<comp name=".HNE" depth="0.0">
			<acc value="0.10307369473392" flag="0"/>
			<vel value="0.0214655006628" flag="0"/>
			<psa03 value="0.0589673542146237" flag="0"/>
			<psa10 value="0.0026931094209057" flag="0"/>
			<psa30 value="0.000266904191509305" flag="0"/>
		</comp>
		<comp name=".HNN" depth="0.0">
			<acc value="0.092279274242364" flag="0"/>
			<vel value="0.0173505410102" flag="0"/>
			<psa03 value="0.0377137587681011" flag="0"/>
			<psa10 value="0.00227991009535544" flag="0"/>
			<psa30 value="0.000288119086475407" flag="0"/>
		</comp>
		<comp name=".HNZ" depth="0.0">
			<acc value="0.078977715270972" flag="0"/>
			<vel value="0.0134999577674" flag="0"/>
			<psa03 value="0.0295620599038864" flag="0"/>
			<psa10 value="0.00145006168446851" flag="0"/>
			<psa30 value="0.00019082686009305" flag="0"/>
		</comp>
	</station>
	<station code="DEGR" name="DEGR" netid="KO" source="Bogazici University Kandilli Observatory And Earthquake Research Institute (KOERI)" insttype="" lat="40.4518" lon="27.1547">
		<comp name=".HNE" depth="0.0">
			<acc value="0.038794169020188" flag="0"/>
			<vel value="0.0178814876323" flag="0"/>
			<psa03 value="0.263835331962629" flag="0"/>
			<psa10 value="0.00735797524226" flag="0"/>
			<psa30 value="0.000431969657536472" flag="0"/>
		</comp>
		<comp name=".HNN" depth="0.0">
			<acc value="0.048748537042194" flag="0"/>
			<vel value="0.0187152855475" flag="0"/>
			<psa03 value="0.175518939768257" flag="0"/>
			<psa10 value="0.00565331997343476" flag="0"/>
			<psa30 value="0.000404183493923046" flag="0"/>
		</comp>
		<comp name=".HNZ" depth="0.0">
			<acc value="0.0101134697702994" flag="0"/>
			<vel value="0.00292527508911" flag="0"/>
			<psa03 value="0.0127277324727482" flag="0"/>
			<psa10 value="0.00382229375507568" flag="0"/>
			<psa30 value="0.000148022904749378" flag="0"/>
		</comp>
	</station>
	<station code="DGNL" name="DGNL" netid="KO" source="Bogazici University Kandilli Observatory And Earthquake Research Institute (KOERI)" insttype="" lat="40.5209" lon="27.7484">
		<comp name=".HNE" depth="0.0">
			<acc value="0.057683817571296" flag="0"/>
			<vel value="0.00946993368379" flag="0"/>
			<psa03 value="0.0271268178518861" flag="0"/>
			<psa10 value="0.00173584749137854" flag="0"/>
			<psa30 value="0.000158930997148641" flag="0"/>
		</comp>
		<comp name=".HNN" depth="0.0">
			<acc value="0.055371358355022" flag="0"/>
			<vel value="0.00900566950049" flag="0"/>
			<psa03 value="0.0232803312702001" flag="0"/>
			<psa10 value="0.00245334244377219" flag="0"/>
			<psa30 value="0.000281162948581928" flag="0"/>
		</comp>
		<comp name=".HNZ" depth="0.0">
			<acc value="0.024480724682664" flag="0"/>
			<vel value="0.00505192577109" flag="0"/>
			<psa03 value="0.0129712473023173" flag="0"/>
			<psa10 value="0.00246615376120826" flag="0"/>
			<psa30 value="0.000109440505104678" flag="0"/>
		</comp>
	</station>
	<station code="DOGC" name="DOGC" netid="KO" source="Bogazici University Kandilli Observatory And Earthquake Research Institute (KOERI)" insttype="" lat="41.3949" lon="26.9852">
		<comp name=".HNE" depth="0.0">
			<acc value="0.006138174617958" flag="0"/>
			<vel value="0.00397261962368" flag="0"/>
			<psa03 value="0.0140166746296757" flag="0"/>
			<psa10 value="0.0021728686293835" flag="0"/>
			<psa30 value="0.000547942392244761" flag="0"/>
		</comp>
		<comp name=".HNN" depth="0.0">
			<acc value="0.007187719072131" flag="0"/>
			<vel value="0.00525861963875" flag="0"/>
			<psa03 value="0.0226807550928795" flag="0"/>
			<psa10 value="0.00520270230975597" flag="0"/>
			<psa30 value="0.000566668372333889" flag="0"/>
		</comp>
		<comp name=".HNZ" depth="0.0">
			<acc value="0.0044903835466182" flag="0"/>
			<vel value="0.00193672216741" flag="0"/>
			<psa03 value="0.00820809387613412" flag="0"/>
			<psa10 value="0.00108578915476623" flag="0"/>
			<psa30 value="0.000398353680642961" flag="0"/>
		</comp>
	</station>
	<station code="DST" name="DST" netid="KO" source="Bogazici University Kandilli Observatory And Earthquake Research Institute (KOERI)" insttype="" lat="39.6041" lon="28.6267">
		<comp name=".HNE" depth="0.0">
			<acc value="0.035340579768786" flag="0"/>
			<vel value="0.0129007919847" flag="0"/>
			<psa03 value="0.0843225130360792" flag="0"/>
			<psa10 value="0.0102713126115611" flag="0"/>
			<psa30 value="0.00063947210147138" flag="0"/>
		</comp>
		<comp name=".HNN" depth="0.0">
			<acc value="0.020622635545962" flag="0"/>
			<vel value="0.0134453128175" flag="0"/>
			<psa03 value="0.046585997552082" flag="0"/>
			<psa10 value="0.00878880940298354" flag="0"/>
			<psa30 value="0.000555011506373238" flag="0"/>
		</comp>
		<comp name=".HNZ" depth="0.0">
			<acc value="0.016885859024592" flag="0"/>
			<vel value="0.00784100652742" flag="0"/>
			<psa03 value="0.0638040548306953" flag="0"/>
			<psa10 value="0.00417642104239354" flag="0"/>
			<psa30 value="0.000371361527962227" flag="0"/>
		</comp>
	</station>
	<station code="ESKT" name="ESKT" netid="KO" source="Bogazici University Kandilli Observatory And Earthquake Research Institute (KOERI)" insttype="" lat="39.5212" lon="30.8492">
		<comp name=".HNE" depth="0.0">
			<acc value="0.0033443079769854" flag="0"/>
			<vel value="0.00258533379637" flag="0"/>
			<psa03 value="0.0068219890326716" flag="0"/>
			<psa10 value="0.00142907576300512" flag="0"/>
			<psa30 value="0.000310025251193238" flag="0"/>
		</comp>
		<comp name=".HNN" depth="0.0">
			<acc value="0.0029189553094932" flag="0"/>
