<?xml version="1.0" encoding="UTF-8" standalone="yes"?>
<!DOCTYPE earthquake SYSTEM "stationlist.dtd">
<stationlist created="" xmlns="ch.ethz.sed.shakemap.usgs.xml">
  <station code="GVD" name="GVD" netid="GE" insttype="STS-2/N" lat="34.8391" lon="24.0874">
    <comp name="--.HHE">
      <acc value="0.0239046300" flag="0"/>
      <vel value="0.0155543726" flag="0"/>
      <psa03 value="0.0786613067" flag="0"/>
      <psa10 value="0.0225885161" flag="0"/>
      <psa30 value="0.0053631924" flag="0"/>
    </comp>
    <comp name="--.HHN">
      <acc value="0.0202007358" flag="0"/>
      <vel value="0.0183035098" flag="0"/>
      <psa03 value="0.0579009457" flag="0"/>
      <psa10 value="0.0224022253" flag="0"/>
      <psa30 value="0.0047270054" flag="0"/>
    </comp>
    <comp name="--.HHZ">
      <acc value="0.0158815448" flag="0"/>
      <vel value="0.0078889350" flag="0"/>
      <psa03 value="0.0323884392" flag="0"/>
      <psa10 value="0.0135630759" flag="0"/>
      <psa30 value="0.0031976746" flag="0"/>
    </comp>
  </station>
  <station code="ZKR" name="ZKR" netid="GE" insttype="STS-2/N" lat="35.1147" lon="26.2169">
    <comp name="--.HHZ">
      <acc value="0.0792887913" flag="0"/>
      <vel value="0.0423378501" flag="0"/>
      <psa03 value="0.2354482078" flag="0"/>
      <psa10 value="0.0567633737" flag="0"/>
      <psa30 value="0.0100417350" flag="0"/>
    </comp>
    <comp name="--.HHN">
      <acc value="0.1013680444" flag="0"/>
      <vel value="0.0457580485" flag="0"/>
      <psa03 value="0.3310207390" flag="0"/>
      <psa10 value="0.0240311124" flag="0"/>
      <psa30 value="0.0046283082" flag="0"/>
    </comp>
    <comp name="--.HHE">
      <acc value="0.1043845804" flag="0"/>
      <vel value="0.0636161046" flag="0"/>
      <psa03 value="0.2670784999" flag="0"/>
      <psa10 value="0.0624146969" flag="0"/>
      <psa30 value="0.0162529240" flag="0"/>
    </comp>
  </station>
  <station code="SIT2" name="SIT2" netid="HI" insttype="CMG-5TD,ACCELEROMETER,GURALP" lat="35.2059" lon="26.107">
    <comp name="--.HNE">
      <acc value="0.1907579227" flag="0"/>
      <vel value="0.1652766331" flag="0"/>
      <psa03 value="0.9414932344" flag="0"/>
      <psa10 value="0.1441688819" flag="0"/>
      <psa30 value="0.0165415053" flag="0"/>
    </comp>
    <comp name="--.HNN">
      <acc value="0.1710422244" flag="0"/>
      <vel value="0.1254323657" flag="0"/>
      <psa03 value="0.6702427662" flag="0"/>
      <psa10 value="0.1065251884" flag="0"/>
      <psa30 value="0.0099496548" flag="0"/>
    </comp>
    <comp name="--.HNZ">
      <acc value="0.0912150026" flag="0"/>
      <vel value="0.0414928618" flag="0"/>
      <psa03 value="0.2348753126" flag="0"/>
      <psa10 value="0.0350652213" flag="0"/>
      <psa30 value="0.0083564314" flag="0"/>
    </comp>
  </station>
  <station code="GVD" name="GVD" netid="HL" insttype="120" lat="34.8391" lon="24.0874">
    <comp name="--.HHN">
      <acc value="0.0197750205" flag="0"/>
      <vel value="0.0180705507" flag="0"/>
      <psa03 value="0.0562006527" flag="0"/>
      <psa10 value="0.0222495579" flag="0"/>
      <psa30 value="0.0047302637" flag="0"/>
    </comp>
    <comp name="--.HHZ">
      <acc value="0.0159025620" flag="0"/>
      <vel value="0.0078239384" flag="0"/>
      <psa03 value="0.0314862128" flag="0"/>
      <psa10 value="0.0134953932" flag="0"/>
      <psa30 value="0.0031997215" flag="0"/>
    </comp>
    <comp name="--.HHE">
      <acc value="0.0233975353" flag="0"/>
      <vel value="0.0152300636" flag="0"/>
      <psa03 value="0.0764445421" flag="0"/>
      <psa10 value="0.0224454493" flag="0"/>
      <psa30 value="0.0053629365" flag="0"/>
    </comp>
  </station>
  <station code="IACM" name="IACM" netid="HL" insttype="120" lat="35.3058" lon="25.0709">
    <comp name="--.HHE">
      <acc value="0.0650295869" flag="0"/>
      <vel value="0.0801823794" flag="0"/>
      <psa03 value="0.1004354413" flag="0"/>
      <psa10 value="0.1283712594" flag="0"/>
      <psa30 value="0.0143884861" flag="0"/>
    </comp>
    <comp name="--.HHZ">
      <acc value="0.0365735285" flag="0"/>
      <vel value="0.0405440766" flag="0"/>
      <psa03 value="0.0712964261" flag="0"/>
      <psa10 value="0.0861661436" flag="0"/>
      <psa30 value="0.0067214317" flag="0"/>
    </comp>
    <comp name="--.HHN">
      <acc value="0.0431382718" flag="0"/>
      <vel value="0.0395749731" flag="0"/>
      <psa03 value="0.0688251384" flag="0"/>
      <psa10 value="0.0786029353" flag="0"/>
      <psa30 value="0.0102264365" flag="0"/>
    </comp>
  </station>
  <station code="IDI" name="IDI" netid="HL" insttype="120" lat="35.288" lon="24.89">
    <comp name="--.HHE">
      <acc value="0.0081809777" flag="0"/>
      <vel value="0.0137268508" flag="0"/>
      <psa03 value="0.0166925277" flag="0"/>
      <psa10 value="0.0103932733" flag="0"/>
      <psa30 value="0.0031843231" flag="0"/>
    </comp>
    <comp name="--.HHZ">
      <acc value="0.0057456579" flag="0"/>
      <vel value="0.0097220746" flag="0"/>
      <psa03 value="0.0156923867" flag="0"/>
      <psa10 value="0.0108397906" flag="0"/>
      <psa30 value="0.0043897059" flag="0"/>
    </comp>
    <comp name="--.HHN">
      <acc value="0.0069034049" flag="0"/>
      <vel value="0.0087824379" flag="0"/>
      <psa03 value="0.0195802629" flag="0"/>
      <psa10 value="0.0144057454" flag="0"/>
      <psa30 value="0.0028787534" flag="0"/>
    </comp>
  </station>
  <station code="NPS" name="NPS" netid="HL" insttype="CMG3ESPC-120s" lat="35.2613" lon="25.6104">
    <comp name="--.HHN">
      <acc value="0.0244476423" flag="0"/>
      <vel value="0.0197211743" flag="0"/>
      <psa03 value="0.0447733221" flag="0"/>
      <psa10 value="0.0419510219" flag="0"/>
      <psa30 value="0.0097320377" flag="0"/>
    </comp>
    <comp name="--.HHZ">
      <acc value="0.0154462230" flag="0"/>
      <vel value="0.0187444967" flag="0"/>
      <psa03 value="0.0319229278" flag="0"/>
      <psa10 value="0.0283911767" flag="0"/>
      <psa30 value="0.0056527238" flag="0"/>
    </comp>
    <comp name="--.HHE">
      <acc value="0.0101362184" flag="0"/>
      <vel value="0.0087275493" flag="0"/>
      <psa03 value="0.0244438042" flag="0"/>
      <psa10 value="0.0205958421" flag="0"/>
      <psa30 value="0.0024229958" flag="0"/>
    </comp>
  </station>
  <station code="SIVA" name="SIVA" netid="HL" insttype="60" lat="35.0178" lon="24.812">
    <comp name="--.HHN">
      <acc value="0.0355612489" flag="0"/>
      <vel value="0.0339391333" flag="0"/>
      <psa03 value="0.0838627264" flag="0"/>
      <psa10 value="0.0708219403" flag="0"/>
      <psa30 value="0.0066558995" flag="0"/>
    </comp>
    <comp name="--.HHE">
      <acc value="0.0436909929" flag="0"/>
      <vel value="0.0420569750" flag="0"/>
      <psa03 value="0.1160371885" flag="0"/>
      <psa10 value="0.0747978965" flag="0"/>
      <psa30 value="0.0066022567" flag="0"/>
    </comp>
    <comp name="--.HHZ">
      <acc value="0.0328882966" flag="0"/>
      <vel value="0.0244399521" flag="0"/>
      <psa03 value="0.0559391580" flag="0"/>
      <psa10 value="0.0455578758" flag="0"/>
      <psa30 value="0.0069433946" flag="0"/>
    </comp>
  </station>
  <station code="ZKR" name="ZKR" netid="HL" insttype="120" lat="35.1147" lon="26.2169">
    <comp name="--.HHE">
      <acc value="0.1011727505" flag="0"/>
      <vel value="0.0627063668" flag="0"/>
      <psa03 value="0.2603503317" flag="0"/>
      <psa10 value="0.0621372657" flag="0"/>
      <psa30 value="0.0162633563" flag="0"/>
    </comp>
    <comp name="--.HHZ">
      <acc value="0.0776109028" flag="0"/>
      <vel value="0.0420226846" flag="0"/>
      <psa03 value="0.2292144765" flag="0"/>
      <psa10 value="0.0565071730" flag="0"/>
      <psa30 value="0.0100476179" flag="0"/>
    </comp>
    <comp name="--.HHN">
      <acc value="0.0987034403" flag="0"/>
      <vel value="0.0443468953" flag="0"/>
      <psa03 value="0.3213982783" flag="0"/>
      <psa10 value="0.0238070356" flag="0"/>
      <psa30 value="0.0046262081" flag="0"/>
    </comp>
  </station>
  <station code="IDI" name="IDI" netid="MN" insttype="" lat="35.288" lon="24.89">
    <comp name="--.HHE">
      <acc value="0.0082420179" flag="0"/>
      <vel value="0.0136299719" flag="0"/>
      <psa03 value="0.0167108035" flag="0"/>
      <psa10 value="0.0103276736" flag="0"/>
      <psa30 value="0.0031456768" flag="0"/>
    </comp>
    <comp name="--.HHN">
      <acc value="0.0069676544" flag="0"/>
      <vel value="0.0087397669" flag="0"/>
      <psa03 value="0.0197870034" flag="0"/>
      <psa10 value="0.0143031428" flag="0"/>
      <psa30 value="0.0028438352" flag="0"/>
    </comp>
    <comp name="--.HHZ">
      <acc value="0.0058516914" flag="0"/>
      <vel value="0.0096216075" flag="0"/>
      <psa03 value="0.0158114125" flag="0"/>
      <psa10 value="0.0107555022" flag="0"/>
      <psa30 value="0.0043363901" flag="0"/>
    </comp>
  </station>
</stationlist>
