<stationlist created="1778069661">
	<station code="IMMV" name="IMMV" netid="GE" source="GEOFON" insttype="" lat="35.4606" lon="23.9811">
		<comp name="--.HNE" depth="0.0">
			<acc value="0.00726870819287266" flag="0"/>
			<vel value="0.0100490442903688" flag="0"/>
			<psa03 value="0.0178521404406904" flag="0"/>
			<psa10 value="0.0201098321866484" flag="0"/>
			<psa30 value="0.00376595153105993" flag="0"/>
		</comp>
		<comp name="--.HNN" depth="0.0">
			<acc value="0.00762460778595542" flag="0"/>
			<vel value="0.00927473679655667" flag="0"/>
			<psa03 value="0.0141832794979921" flag="0"/>
			<psa10 value="0.020375600893961" flag="0"/>
			<psa30 value="0.00352031681672562" flag="0"/>
		</comp>
		<comp name="--.HNZ" depth="0.0">
			<acc value="0.00441837468101756" flag="0"/>
			<vel value="0.0066472078146057" flag="0"/>
			<psa03 value="0.0126173022663526" flag="0"/>
			<psa10 value="0.013171658206353" flag="0"/>
			<psa30 value="0.00189885924887945" flag="0"/>
		</comp>
	</station>
	<station code="KARP" name="KARP" netid="GE" source="GEOFON" insttype="" lat="35.5471" lon="27.16106">
		<comp name="--.HNE" depth="0.0">
			<acc value="0.00897498639800085" flag="0"/>
			<vel value="0.0126143271795856" flag="0"/>
			<psa03 value="0.0171362651347981" flag="0"/>
			<psa10 value="0.0149474763870322" flag="0"/>
			<psa30 value="0.00405051196515214" flag="0"/>
		</comp>
		<comp name="--.HNN" depth="0.0">
			<acc value="0.0125944481255865" flag="0"/>
			<vel value="0.0131342970285399" flag="0"/>
			<psa03 value="0.0210288371105877" flag="0"/>
			<psa10 value="0.0189984357742506" flag="0"/>
			<psa30 value="0.00483215831477335" flag="0"/>
		</comp>
		<comp name="--.HNZ" depth="0.0">
			<acc value="0.00536335033482438" flag="0"/>
			<vel value="0.00955686213455695" flag="0"/>
			<psa03 value="0.0141385372913739" flag="0"/>
			<psa10 value="0.010703230667223" flag="0"/>
			<psa30 value="0.00616547607199785" flag="0"/>
		</comp>
	</station>
	<station code="SIT2" name="SIT2" netid="HI" source="ITSAK Strong Motion Network" insttype="" lat="35.2059" lon="26.107">
		<comp name="--.HNE" depth="0.0">
			<acc value="0.190953333607808" flag="0"/>
			<vel value="0.166387833618469" flag="0"/>
			<psa03 value="0.927326974370301" flag="0"/>
			<psa10 value="0.144425158431384" flag="0"/>
			<psa30 value="0.0165304556571867" flag="0"/>
		</comp>
		<comp name="--.HNN" depth="0.0">
			<acc value="0.17118967351022" flag="0"/>
			<vel value="0.124671374048866" flag="0"/>
			<psa03 value="0.672027943406442" flag="0"/>
			<psa10 value="0.106742377173343" flag="0"/>
			<psa30 value="0.0100553635153904" flag="0"/>
		</comp>
		<comp name="--.HNZ" depth="0.0">
			<acc value="0.0918168576125949" flag="0"/>
			<vel value="0.0412010966941028" flag="0"/>
			<psa03 value="0.238878641134953" flag="0"/>
			<psa10 value="0.0353069700866106" flag="0"/>
			<psa30 value="0.00838558436439649" flag="0"/>
		</comp>
	</station>
	<station code="IACM" name="IACM" netid="HL" source="National Observatory of Athens Seismic Network" insttype="" lat="35.3058" lon="25.0709">
		<comp name="--.HNE" depth="0.0">
			<acc value="0.0637983045126132" flag="0"/>
			<vel value="0.0854312980343672" flag="0"/>
			<psa03 value="0.119953855943587" flag="0"/>
			<psa10 value="0.156118981553136" flag="0"/>
			<psa30 value="0.0168118841368156" flag="0"/>
		</comp>
		<comp name="--.HNN" depth="0.0">
			<acc value="0.0698070979075681" flag="0"/>
			<vel value="0.0894897382692239" flag="0"/>
			<psa03 value="0.137358574318094" flag="0"/>
			<psa10 value="0.129638753988178" flag="0"/>
			<psa30 value="0.0187635391895046" flag="0"/>
		</comp>
		<comp name="--.HNZ" depth="0.0">
			<acc value="0.0334465068234817" flag="0"/>
			<vel value="0.033373816928852" flag="0"/>
			<psa03 value="0.0635786756045642" flag="0"/>
			<psa10 value="0.0656811118935567" flag="0"/>
			<psa30 value="0.00513864243010851" flag="0"/>
		</comp>
	</station>
	<station code="SIVA" name="SIVA" netid="HL" source="National Observatory of Athens Seismic Network" insttype="" lat="35.01777" lon="24.81204">
		<comp name="00.HNE" depth="0.0">
			<acc value="0.0408930312125686" flag="0"/>
			<vel value="0.0407074497541916" flag="0"/>
			<psa03 value="0.109752632834621" flag="0"/>
			<psa10 value="0.0709240036650858" flag="0"/>
			<psa30 value="0.00702184190667157" flag="0"/>
		</comp>
		<comp name="00.HNN" depth="0.0">
			<acc value="0.0372328405665874" flag="0"/>
			<vel value="0.0388430764709625" flag="0"/>
			<psa03 value="0.092526883286586" flag="0"/>
			<psa10 value="0.0808500622033494" flag="0"/>
			<psa30 value="0.00749431960856052" flag="0"/>
		</comp>
		<comp name="00.HNZ" depth="0.0">
			<acc value="0.032636195337291" flag="0"/>
			<vel value="0.0245313885665069" flag="0"/>
			<psa03 value="0.0545854920742915" flag="0"/>
			<psa10 value="0.0453457789855522" flag="0"/>
			<psa30 value="0.00683929370366902" flag="0"/>
		</comp>
	</station>
</stationlist>
