<stationlist xmlns:esm="https://esm-db.eu/esmws/shakemap/1/" created="1780624471">
	<station code="MMAA" name="MMAA" netid="EG" source="EUROSEISTEST Strong Motion Network" insttype="" lat="40.630855" lon="22.943725" esm:processing="automatic (Paolucci et al 2011)" esm:quality="best">
		<comp name="--.EN1" depth="0.0">
			<acc value="0.275024410317822" flag="0"/>
			<vel value="0.213515637208862" flag="0"/>
			<psa03 value="0.67161274104799" flag="0"/>
			<psa10 value="0.222221391076553" flag="0"/>
			<psa30 value="0.0199993431916681" flag="0"/>
		</comp>
		<comp name="--.EN2" depth="0.0">
			<acc value="0.311640181263441" flag="0"/>
			<vel value="0.169182294795364" flag="0"/>
			<psa03 value="1.10907438740178" flag="0"/>
			<psa10 value="0.22849285653036" flag="0"/>
			<psa30 value="0.0122822536390254" flag="0"/>
		</comp>
		<comp name="--.EN3" depth="0.0">
			<acc value="0.199650660132326" flag="0"/>
			<vel value="0.0988470194482047" flag="0"/>
			<psa03 value="0.40657485025513" flag="0"/>
			<psa10 value="0.0815708886710453" flag="0"/>
			<psa30 value="0.00814716554306634" flag="0"/>
		</comp>
	</station>
	<station code="AIA1" name="AIA1" netid="HI" source="ITSAK Strong Motion Network" insttype="" lat="40.1641" lon="21.8202" esm:processing="manual (Paolucci et al 2011)" esm:quality="good">
		<comp name="--.HNE" depth="0.0">
			<acc value="0.00653686824761881" flag="0"/>
			<vel value="0.00910173709609877" flag="0"/>
			<psa03 value="0.0274991393913592" flag="0"/>
			<psa10 value="0.0137632242460599" flag="0"/>
			<psa30 value="0.00440561018338637" flag="0"/>
		</comp>
		<comp name="--.HNN" depth="0.0">
			<acc value="0.00559593648174395" flag="0"/>
			<vel value="0.0117364387655673" flag="0"/>
			<psa03 value="0.0160251475248762" flag="0"/>
			<psa10 value="0.0165272435987769" flag="0"/>
			<psa30 value="0.00438325911940474" flag="0"/>
		</comp>
		<comp name="--.HNZ" depth="0.0">
			<acc value="0.00500561396048546" flag="0"/>
			<vel value="0.00857714058825846" flag="0"/>
			<psa03 value="0.0160318393744284" flag="0"/>
			<psa10 value="0.0135413614237368" flag="0"/>
			<psa30 value="0.00416752607814952" flag="0"/>
		</comp>
	</station>
	<station code="ALX2" name="ALX2" netid="HI" source="ITSAK Strong Motion Network" insttype="" lat="40.845417" lon="25.873947" esm:processing="manual (Paolucci et al 2011)" esm:quality="good">
		<comp name="--.HNE" depth="0.0">
			<acc value="0.167758351995876" flag="0"/>
			<vel value="0.154510583754759" flag="0"/>
			<psa03 value="0.471526111290743" flag="0"/>
			<psa10 value="0.223116230355263" flag="0"/>
			<psa30 value="0.0249313532464625" flag="0"/>
		</comp>
		<comp name="--.HNN" depth="0.0">
			<acc value="0.129058167856823" flag="0"/>
			<vel value="0.142940790851067" flag="0"/>
			<psa03 value="0.272390669545033" flag="0"/>
			<psa10 value="0.23975065230408" flag="0"/>
			<psa30 value="0.019039757957189" flag="0"/>
		</comp>
		<comp name="--.HNZ" depth="0.0">
			<acc value="0.061460739805288" flag="0"/>
			<vel value="0.0742453465056505" flag="0"/>
			<psa03 value="0.186043199448911" flag="0"/>
			<psa10 value="0.126091497942914" flag="0"/>
			<psa30 value="0.00712785385200267" flag="0"/>
		</comp>
	</station>
	<station code="DRA2" name="DRA2" netid="HI" source="ITSAK Strong Motion Network" insttype="" lat="41.1593" lon="24.1485" esm:processing="automatic (Paolucci et al 2011)" esm:quality="best">
		<comp name="--.HNE" depth="0.0">
			<acc value="0.486305709240942" flag="0"/>
			<vel value="0.262960228532122" flag="0"/>
			<psa03 value="1.35008927012158" flag="0"/>
			<psa10 value="0.175534623307315" flag="0"/>
			<psa30 value="0.019069386586607" flag="0"/>
		</comp>
		<comp name="--.HNN" depth="0.0">
			<acc value="0.411184753703836" flag="0"/>
			<vel value="0.180112597336038" flag="0"/>
			<psa03 value="1.04143340651876" flag="0"/>
			<psa10 value="0.175584216592627" flag="0"/>
			<psa30 value="0.0102500906848697" flag="0"/>
		</comp>
		<comp name="--.HNZ" depth="0.0">
			<acc value="0.272075835291589" flag="0"/>
			<vel value="0.102221572369031" flag="0"/>
			<psa03 value="0.58577888830983" flag="0"/>
			<psa10 value="0.122881960326798" flag="0"/>
			<psa30 value="0.00623825992077062" flag="0"/>
		</comp>
	</station>
	<station code="ITS1" name="ITS1" netid="HI" source="ITSAK Strong Motion Network" insttype="" lat="40.605" lon="23.0123" esm:processing="manual (Paolucci et al 2011)" esm:quality="good">
		<comp name="--.HNE" depth="0.0">
			<acc value="0.149117386784567" flag="0"/>
			<vel value="0.130953900489303" flag="0"/>
			<psa03 value="0.481289633076144" flag="0"/>
			<psa10 value="0.155774549299389" flag="0"/>
			<psa30 value="0.0143195836021368" flag="0"/>
		</comp>
		<comp name="--.HNN" depth="0.0">
			<acc value="0.202655697216732" flag="0"/>
			<vel value="0.157835444543932" flag="0"/>
			<psa03 value="0.675158434266098" flag="0"/>
			<psa10 value="0.145811504296554" flag="0"/>
			<psa30 value="0.0299837129404965" flag="0"/>
		</comp>
		<comp name="--.HNZ" depth="0.0">
			<acc value="0.126815554689778" flag="0"/>
			<vel value="0.073616974862404" flag="0"/>
			<psa03 value="0.288067853914891" flag="0"/>
			<psa10 value="0.0649808846646994" flag="0"/>
			<psa30 value="0.00879401922728166" flag="0"/>
		</comp>
	</station>
	<station code="KLR1" name="KLR1" netid="HI" source="ITSAK Strong Motion Network" insttype="" lat="40.58251" lon="22.949554" esm:processing="manual (Paolucci et al 2011)" esm:quality="good">
		<comp name="--.HNE" depth="0.0">
			<acc value="0.192258829030614" flag="0"/>
			<vel value="0.184697532221221" flag="0"/>
			<psa03 value="0.481441768154346" flag="0"/>
			<psa10 value="0.241227275123095" flag="0"/>
			<psa30 value="0.0453400868915723" flag="0"/>
		</comp>
		<comp name="--.HNN" depth="0.0">
			<acc value="0.27216222273205" flag="0"/>
			<vel value="0.167924350882846" flag="0"/>
			<psa03 value="0.91718650910491" flag="0"/>
			<psa10 value="0.217775621566141" flag="0"/>
			<psa30 value="0.0976200268476844" flag="0"/>
		</comp>
		<comp name="--.HNZ" depth="0.0">
			<acc value="0.125383621707497" flag="0"/>
			<vel value="0.0730603097981671" flag="0"/>
			<psa03 value="0.36220361921217" flag="0"/>
			<psa10 value="0.0991298818681695" flag="0"/>
			<psa30 value="0.0112926314147432" flag="0"/>
		</comp>
	</station>
	<station code="KMT1" name="KMT1" netid="HI" source="ITSAK Strong Motion Network" insttype="" lat="41.1159" lon="25.4066" esm:processing="manual (Paolucci et al 2011)" esm:quality="good">
		<comp name="--.HNE" depth="0.0">
			<acc value="0.204263296433542" flag="0"/>
			<vel value="0.212451222038355" flag="0"/>
			<psa03 value="0.559323177415488" flag="0"/>
			<psa10 value="0.248056747542125" flag="0"/>
			<psa30 value="0.039941162572666" flag="0"/>
		</comp>
		<comp name="--.HNN" depth="0.0">
			<acc value="0.21364282355851" flag="0"/>
			<vel value="0.200946686812926" flag="0"/>
			<psa03 value="0.611927828882144" flag="0"/>
			<psa10 value="0.305806598186309" flag="0"/>
			<psa30 value="0.0312781620247289" flag="0"/>
		</comp>
		<comp name="--.HNZ" depth="0.0">
			<acc value="0.0840827053550542" flag="0"/>
			<vel value="0.0761441741616804" flag="0"/>
			<psa03 value="0.298321720683241" flag="0"/>
			<psa10 value="0.0943392920151027" flag="0"/>
			<psa30 value="0.0273250118145952" flag="0"/>
		</comp>
	</station>
	<station code="LAR4" name="LAR4" netid="HI" source="ITSAK Strong Motion Network" insttype="" lat="39.6422" lon="22.4219" esm:processing="manual (Paolucci et al 2011)" esm:quality="good">
		<comp name="--.HNE" depth="0.0">
			<acc value="0.0774924528223137" flag="0"/>
			<vel value="0.0995908132308118" flag="0"/>
			<psa03 value="0.162833557757389" flag="0"/>
			<psa10 value="0.226249067890375" flag="0"/>
			<psa30 value="0.0425582626093661" flag="0"/>
		</comp>
		<comp name="--.HNN" depth="0.0">
			<acc value="0.0637289364236919" flag="0"/>
			<vel value="0.119788756425317" flag="0"/>
			<psa03 value="0.111656146671737" flag="0"/>
			<psa10 value="0.180294828647557" flag="0"/>
			<psa30 value="0.0471559638511757" flag="0"/>
		</comp>
		<comp name="--.HNZ" depth="0.0">
			<acc value="0.0291427787402784" flag="0"/>
			<vel value="0.0629500873814571" flag="0"/>
			<psa03 value="0.0508941266944514" flag="0"/>
			<psa10 value="0.0830360132283567" flag="0"/>
			<psa30 value="0.0353310471751462" flag="0"/>
		</comp>
	</station>
	<station code="PLA1" name="PLA1" netid="HI" source="ITSAK Strong Motion Network" insttype="" lat="40.555907" lon="22.988593" esm:processing="manual (Paolucci et al 2011)" esm:quality="good">
		<comp name="--.HNE" depth="0.0">
			<acc value="0.405790236119949" flag="0"/>
			<vel value="0.242967477128539" flag="0"/>
			<psa03 value="1.07534498632782" flag="0"/>
			<psa10 value="0.295940654615967" flag="0"/>
			<psa30 value="0.0552713147866804" flag="0"/>
		</comp>
		<comp name="--.HNN" depth="0.0">
			<acc value="0.205885313969892" flag="0"/>
			<vel value="0.13885987559047" flag="0"/>
			<psa03 value="0.662503970970009" flag="0"/>
			<psa10 value="0.257605075071963" flag="0"/>
			<psa30 value="0.0728171771139489" flag="0"/>
		</comp>
		<comp name="--.HNZ" depth="0.0">
			<acc value="0.121115565010523" flag="0"/>
			<vel value="0.103505808136681" flag="0"/>
			<psa03 value="0.279801389635536" flag="0"/>
			<psa10 value="0.120482183853384" flag="0"/>
			<psa30 value="0.02277501706644" flag="0"/>
		</comp>
	</station>
	<station code="PLN1" name="PLN1" netid="HI" source="ITSAK Strong Motion Network" insttype="" lat="39.998" lon="23.575" esm:processing="automatic (Paolucci et al 2011)" esm:quality="best">
		<comp name="--.HNE" depth="0.0">
			<acc value="0.33048646381958" flag="0"/>
			<vel value="0.312554870049205" flag="0"/>
			<psa03 value="0.836215228488289" flag="0"/>
			<psa10 value="0.344938460480137" flag="0"/>
			<psa30 value="0.0767741325761619" flag="0"/>
		</comp>
		<comp name="--.HNN" depth="0.0">
			<acc value="0.289603518016289" flag="0"/>
			<vel value="0.288713565176187" flag="0"/>
			<psa03 value="0.575624465629163" flag="0"/>
			<psa10 value="0.45360466908315" flag="0"/>
			<psa30 value="0.0773582179356171" flag="0"/>
		</comp>
		<comp name="--.HNZ" depth="0.0">
			<acc value="0.227358941361954" flag="0"/>
			<vel value="0.0884009116345912" flag="0"/>
			<psa03 value="0.409306114521317" flag="0"/>
			<psa10 value="0.0862574391320129" flag="0"/>
			<psa30 value="0.0225079810432807" flag="0"/>
		</comp>
	</station>
	<station code="SEIS" name="SEIS" netid="HI" source="ITSAK Strong Motion Network" insttype="" lat="40.631849" lon="22.962768" esm:processing="automatic (Paolucci et al 2011)" esm:quality="best">
		<comp name="--.HNE" depth="0.0">
			<acc value="0.0462398501989566" flag="0"/>
			<vel value="0.0338607368063036" flag="0"/>
			<psa03 value="0.137845975369355" flag="0"/>
			<psa10 value="0.037709235551788" flag="0"/>
			<psa30 value="0.00708992800626818" flag="0"/>
		</comp>
		<comp name="--.HNN" depth="0.0">
			<acc value="0.0663248723518786" flag="0"/>
			<vel value="0.0510243349819865" flag="0"/>
			<psa03 value="0.110498820004525" flag="0"/>
			<psa10 value="0.0588895848959842" flag="0"/>
			<psa30 value="0.0174827981495763" flag="0"/>
		</comp>
		<comp name="--.HNZ" depth="0.0">
			<acc value="0.0539130072990406" flag="0"/>
			<vel value="0.0449134316061152" flag="0"/>
			<psa03 value="0.128912154380893" flag="0"/>
			<psa10 value="0.0391296158950148" flag="0"/>
			<psa30 value="0.0060656330684222" flag="0"/>
		</comp>
	</station>
	<station code="SKY1" name="SKY1" netid="HI" source="ITSAK Strong Motion Network" insttype="" lat="38.904483" lon="24.564572" esm:processing="automatic (Paolucci et al 2011)" esm:quality="best">
		<comp name="--.HNE" depth="0.0">
			<acc value="0.0201675090727944" flag="0"/>
			<vel value="0.0167803199520755" flag="0"/>
			<psa03 value="0.110558751057997" flag="0"/>
			<psa10 value="0.0200737129099636" flag="0"/>
			<psa30 value="0.00326922011145455" flag="0"/>
		</comp>
		<comp name="--.HNN" depth="0.0">
			<acc value="0.0181749229373823" flag="0"/>
			<vel value="0.0139279720749915" flag="0"/>
			<psa03 value="0.0508192571513783" flag="0"/>
			<psa10 value="0.0195009337161531" flag="0"/>
			<psa30 value="0.0026479708317387" flag="0"/>
		</comp>
		<comp name="--.HNZ" depth="0.0">
			<acc value="0.0126674198787763" flag="0"/>
			<vel value="0.00846669277313299" flag="0"/>
			<psa03 value="0.0601774864631424" flag="0"/>
			<psa10 value="0.00631551118412103" flag="0"/>
			<psa30 value="0.00136564161288797" flag="0"/>
		</comp>
	</station>
	<station code="STL1" name="STL1" netid="HI" source="ITSAK Strong Motion Network" insttype="" lat="40.662419" lon="22.935323" esm:processing="manual (Paolucci et al 2011)" esm:quality="good">
		<comp name="--.HNE" depth="0.0">
			<acc value="0.259747576304179" flag="0"/>
			<vel value="0.0939363776099732" flag="0"/>
			<psa03 value="0.796669692123918" flag="0"/>
			<psa10 value="0.0453396447789512" flag="0"/>
			<psa30 value="0.00954062618632854" flag="0"/>
		</comp>
		<comp name="--.HNN" depth="0.0">
			<acc value="0.144321777456367" flag="0"/>
			<vel value="0.0739686133765941" flag="0"/>
			<psa03 value="0.472999458892791" flag="0"/>
			<psa10 value="0.0723001920328912" flag="0"/>
			<psa30 value="0.018655907528982" flag="0"/>
		</comp>
		<comp name="--.HNZ" depth="0.0">
			<acc value="0.0832587413200772" flag="0"/>
			<vel value="0.033776613166544" flag="0"/>
			<psa03 value="0.187760479876978" flag="0"/>
			<psa10 value="0.0353475316004918" flag="0"/>
			<psa30 value="0.00537217129664982" flag="0"/>
		</comp>
	</station>
	<station code="VOL2" name="VOL2" netid="HI" source="ITSAK Strong Motion Network" insttype="" lat="39.366" lon="22.9506" esm:processing="manual (Paolucci et al 2011)" esm:quality="good">
		<comp name="--.HNE" depth="0.0">
			<acc value="0.0584252911239555" flag="0"/>
			<vel value="0.0486665149503877" flag="0"/>
			<psa03 value="0.147638957439689" flag="0"/>
			<psa10 value="0.069179092775383" flag="0"/>
			<psa30 value="0.00462885372217519" flag="0"/>
		</comp>
		<comp name="--.HNN" depth="0.0">
			<acc value="0.0616360476476365" flag="0"/>
			<vel value="0.0555316261057077" flag="0"/>
			<psa03 value="0.164333521705973" flag="0"/>
			<psa10 value="0.0676367806047709" flag="0"/>
			<psa30 value="0.0105404015832086" flag="0"/>
		</comp>
		<comp name="--.HNZ" depth="0.0">
			<acc value="0.0292647449461036" flag="0"/>
			<vel value="0.0182103472641336" flag="0"/>
			<psa03 value="0.0728575556221603" flag="0"/>
			<psa10 value="0.0252197231828889" flag="0"/>
			<psa30 value="0.00408483143336848" flag="0"/>
		</comp>
	</station>
	<station code="VOL3" name="VOL3" netid="HI" source="ITSAK Strong Motion Network" insttype="" lat="39.373969" lon="22.935352" esm:processing="manual (Paolucci et al 2011)" esm:quality="good">
		<comp name="--.HNE" depth="0.0">
			<acc value="0.0591244830991745" flag="0"/>
			<vel value="0.0554813556975457" flag="0"/>
			<psa03 value="0.106082048248406" flag="0"/>
			<psa10 value="0.0620981099450221" flag="0"/>
			<psa30 value="0.00573259850651692" flag="0"/>
		</comp>
		<comp name="--.HNN" depth="0.0">
			<acc value="0.0526945784486128" flag="0"/>
			<vel value="0.0513524287704839" flag="0"/>
			<psa03 value="0.130191312035477" flag="0"/>
			<psa10 value="0.0710430262518281" flag="0"/>
			<psa30 value="0.00983956265606922" flag="0"/>
		</comp>
		<comp name="--.HNZ" depth="0.0">
			<acc value="0.0239827209416626" flag="0"/>
			<vel value="0.0150070113319015" flag="0"/>
			<psa03 value="0.0599467315934314" flag="0"/>
			<psa10 value="0.0170809340280505" flag="0"/>
			<psa30 value="0.00311081586795082" flag="0"/>
		</comp>
	</station>
	<station code="XAN2" name="XAN2" netid="HI" source="ITSAK Strong Motion Network" insttype="" lat="41.142046" lon="24.890781" esm:processing="manual (Paolucci et al 2011)" esm:quality="good">
		<comp name="--.HNE" depth="0.0">
			<acc value="0.346508165553472" flag="0"/>
			<vel value="0.214695056409831" flag="0"/>
			<psa03 value="1.19639850552937" flag="0"/>
			<psa10 value="0.341731458031963" flag="0"/>
			<psa30 value="0.0193782903833008" flag="0"/>
		</comp>
		<comp name="--.HNN" depth="0.0">
			<acc value="0.238934991750823" flag="0"/>
			<vel value="0.277550408317449" flag="0"/>
			<psa03 value="0.374583897678192" flag="0"/>
			<psa10 value="0.307894406493363" flag="0"/>
			<psa30 value="0.0244732795679961" flag="0"/>
		</comp>
		<comp name="--.HNZ" depth="0.0">
			<acc value="0.106168025294303" flag="0"/>
			<vel value="0.114732283396035" flag="0"/>
			<psa03 value="0.299086563016959" flag="0"/>
			<psa10 value="0.190471457799294" flag="0"/>
			<psa30 value="0.0156514551654247" flag="0"/>
		</comp>
	</station>
	<station code="ALNA" name="ALNA" netid="HL" source="National Observatory of Athens Seismic Network" insttype="" lat="39.14804" lon="23.86669" esm:processing="automatic (Paolucci et al 2011)" esm:quality="best">
		<comp name="00.HNE" depth="0.0">
			<acc value="0.0181285619706383" flag="0"/>
			<vel value="0.0310937251282513" flag="0"/>
			<psa03 value="0.0493542434347428" flag="0"/>
			<psa10 value="0.0311504185623514" flag="0"/>
			<psa30 value="0.00549060997596439" flag="0"/>
		</comp>
		<comp name="00.HNN" depth="0.0">
			<acc value="0.0176745319432142" flag="0"/>
			<vel value="0.0196814865755923" flag="0"/>
			<psa03 value="0.0498971127305027" flag="0"/>
			<psa10 value="0.040069896934019" flag="0"/>
			<psa30 value="0.00656264057606373" flag="0"/>
		</comp>
		<comp name="00.HNZ" depth="0.0">
			<acc value="0.0201543058896662" flag="0"/>
			<vel value="0.0170245150186734" flag="0"/>
			<psa03 value="0.0322891858750971" flag="0"/>
			<psa10 value="0.0282616565710468" flag="0"/>
			<psa30 value="0.00288726626722023" flag="0"/>
		</comp>
	</station>
	<station code="EFSA" name="EFSA" netid="HL" source="National Observatory of Athens Seismic Network" insttype="" lat="39.54015" lon="24.98864" esm:processing="automatic (Paolucci et al 2011)" esm:quality="best">
		<comp name="00.HNE" depth="0.0">
			<acc value="0.0348298991661423" flag="0"/>
			<vel value="0.0404832801200072" flag="0"/>
			<psa03 value="0.0760194682083513" flag="0"/>
			<psa10 value="0.0433628325748443" flag="0"/>
			<psa30 value="0.0114177288685022" flag="0"/>
		</comp>
		<comp name="00.HNN" depth="0.0">
			<acc value="0.0366959773589914" flag="0"/>
			<vel value="0.0293253075649026" flag="0"/>
			<psa03 value="0.106607551810438" flag="0"/>
			<psa10 value="0.0487316357317047" flag="0"/>
			<psa30 value="0.00798859753871427" flag="0"/>
		</comp>
		<comp name="00.HNZ" depth="0.0">
			<acc value="0.0389664753422788" flag="0"/>
			<vel value="0.0229189037689645" flag="0"/>
			<psa03 value="0.114029251794972" flag="0"/>
			<psa10 value="0.0350466379177621" flag="0"/>
			<psa30 value="0.00492161019918835" flag="0"/>
		</comp>
	</station>
	<station code="KVLA" name="KVLA" netid="HL" source="National Observatory of Athens Seismic Network" insttype="" lat="40.93704" lon="24.38591" esm:processing="automatic (Paolucci et al 2011)" esm:quality="best">
		<comp name="00.HNE" depth="0.0">
			<acc value="0.814826244974893" flag="0"/>
			<vel value="0.306561730274026" flag="0"/>
			<psa03 value="1.43885931736822" flag="0"/>
			<psa10 value="0.14081654840524" flag="0"/>
			<psa30 value="0.0108643830453905" flag="0"/>
		</comp>
		<comp name="00.HNN" depth="0.0">
			<acc value="0.451460998831034" flag="0"/>
			<vel value="0.198701062520921" flag="0"/>
			<psa03 value="0.915563234904294" flag="0"/>
			<psa10 value="0.0607249527300957" flag="0"/>
			<psa30 value="0.00785675047115978" flag="0"/>
		</comp>
		<comp name="00.HNZ" depth="0.0">
			<acc value="0.370754944427333" flag="0"/>
			<vel value="0.112809595302914" flag="0"/>
			<psa03 value="0.717306851391878" flag="0"/>
			<psa10 value="0.0606662425908371" flag="0"/>
			<psa30 value="0.00805521111820365" flag="0"/>
		</comp>
	</station>
