<stationlist created="1774472140">
	<station code="MMAA" name="MMAA" netid="EG" source="EUROSEISTEST Strong Motion Network" insttype="" lat="40.630855" lon="22.943725">
		<comp name="--.EN1" depth="0.0">
			<acc value="0.275024410317822" flag="0"/>
			<vel value="0.213515637208862" flag="0"/>
			<psa03 value="0.67161274104799" flag="0"/>
			<psa10 value="0.222221391076553" flag="0"/>
			<psa30 value="0.0199993431916681" flag="0"/>
		</comp>
		<comp name="--.EN2" depth="0.0">
			<acc value="0.311640181263441" flag="0"/>
			<vel value="0.169182294795364" flag="0"/>
			<psa03 value="1.10907438740178" flag="0"/>
			<psa10 value="0.22849285653036" flag="0"/>
			<psa30 value="0.0122822536390254" flag="0"/>
		</comp>
		<comp name="--.EN3" depth="0.0">
			<acc value="0.199650660132326" flag="0"/>
			<vel value="0.0988470194482047" flag="0"/>
			<psa03 value="0.40657485025513" flag="0"/>
			<psa10 value="0.0815708886710453" flag="0"/>
			<psa30 value="0.00814716554306634" flag="0"/>
		</comp>
	</station>
	<station code="AIA1" name="AIA1" netid="HI" source="ITSAK Strong Motion Network" insttype="" lat="40.1641" lon="21.8202">
		<comp name="--.HNE" depth="0.0">
			<acc value="0.00663608206347387" flag="0"/>
			<vel value="0.00888633358271671" flag="0"/>
			<psa03 value="0.0276817712814923" flag="0"/>
			<psa10 value="0.013765256880712" flag="0"/>
			<psa30 value="0.00440583228143261" flag="0"/>
		</comp>
		<comp name="--.HNN" depth="0.0">
			<acc value="0.00563649540570858" flag="0"/>
			<vel value="0.0119557481853791" flag="0"/>
			<psa03 value="0.0161435069281058" flag="0"/>
			<psa10 value="0.016528010524582" flag="0"/>
			<psa30 value="0.00438205862321109" flag="0"/>
		</comp>
		<comp name="--.HNZ" depth="0.0">
			<acc value="0.00500975919939098" flag="0"/>
			<vel value="0.00873748959151241" flag="0"/>
			<psa03 value="0.0161227789924818" flag="0"/>
			<psa10 value="0.0135432159215881" flag="0"/>
			<psa30 value="0.00417175719177336" flag="0"/>
		</comp>
	</station>
	<station code="ALX2" name="ALX2" netid="HI" source="ITSAK Strong Motion Network" insttype="" lat="40.845417" lon="25.873947">
		<comp name="--.HNE" depth="0.0">
			<acc value="0.166971102977878" flag="0"/>
			<vel value="0.154124585504269" flag="0"/>
			<psa03 value="0.471064039014056" flag="0"/>
			<psa10 value="0.223117865463581" flag="0"/>
			<psa30 value="0.0249287414067743" flag="0"/>
		</comp>
		<comp name="--.HNN" depth="0.0">
			<acc value="0.128772088589075" flag="0"/>
			<vel value="0.14224134690935" flag="0"/>
			<psa03 value="0.272106671564894" flag="0"/>
			<psa10 value="0.239738351489211" flag="0"/>
			<psa30 value="0.0190552806521581" flag="0"/>
		</comp>
		<comp name="--.HNZ" depth="0.0">
			<acc value="0.0603943909280849" flag="0"/>
			<vel value="0.0743111133838266" flag="0"/>
			<psa03 value="0.185862187457755" flag="0"/>
			<psa10 value="0.126097918368235" flag="0"/>
			<psa30 value="0.00712484198581465" flag="0"/>
		</comp>
	</station>
	<station code="DRA2" name="DRA2" netid="HI" source="ITSAK Strong Motion Network" insttype="" lat="41.1593" lon="24.1485">
		<comp name="--.HNE" depth="0.0">
			<acc value="0.486305709240942" flag="0"/>
			<vel value="0.262960228532122" flag="0"/>
			<psa03 value="1.35008927012158" flag="0"/>
			<psa10 value="0.175534623307315" flag="0"/>
			<psa30 value="0.019069386586607" flag="0"/>
		</comp>
		<comp name="--.HNN" depth="0.0">
			<acc value="0.411184753703836" flag="0"/>
			<vel value="0.180112597336038" flag="0"/>
			<psa03 value="1.04143340651876" flag="0"/>
			<psa10 value="0.175584216592627" flag="0"/>
			<psa30 value="0.0102500906848697" flag="0"/>
		</comp>
		<comp name="--.HNZ" depth="0.0">
			<acc value="0.272075835291589" flag="0"/>
			<vel value="0.102221572369031" flag="0"/>
			<psa03 value="0.58577888830983" flag="0"/>
			<psa10 value="0.122881960326798" flag="0"/>
			<psa30 value="0.00623825992077062" flag="0"/>
		</comp>
	</station>
	<station code="FRS1" name="FRS1" netid="HI" source="ITSAK Strong Motion Network" insttype="" lat="39.2934" lon="22.3844">
		<comp name="--.HNE" depth="0.0">
			<acc value="0.00945608537523172" flag="0"/>
			<vel value="0.0169655678816528" flag="0"/>
			<psa03 value="0.0154136408697281" flag="0"/>
			<psa10 value="0.0216242756271339" flag="0"/>
			<psa30 value="0.0059519172019708" flag="0"/>
		</comp>
		<comp name="--.HNN" depth="0.0">
			<acc value="0.00768472228982145" flag="0"/>
			<vel value="0.0211452059110953" flag="0"/>
			<psa03 value="0.0152393077064282" flag="0"/>
			<psa10 value="0.0195606039190112" flag="0"/>
			<psa30 value="0.00750893993041842" flag="0"/>
		</comp>
		<comp name="--.HNZ" depth="0.0">
			<acc value="0.00505316725188492" flag="0"/>
			<vel value="0.00703927890000401" flag="0"/>
			<psa03 value="0.00927391252827433" flag="0"/>
			<psa10 value="0.0101417284022336" flag="0"/>
			<psa30 value="0.00431116809372809" flag="0"/>
		</comp>
	</station>
	<station code="ITS1" name="ITS1" netid="HI" source="ITSAK Strong Motion Network" insttype="" lat="40.605" lon="23.0123">
		<comp name="--.HNE" depth="0.0">
			<acc value="0.149117386784567" flag="0"/>
			<vel value="0.130953900489303" flag="0"/>
			<psa03 value="0.481289633076144" flag="0"/>
			<psa10 value="0.155774549299389" flag="0"/>
			<psa30 value="0.0143195836021368" flag="0"/>
		</comp>
		<comp name="--.HNN" depth="0.0">
			<acc value="0.202655697216732" flag="0"/>
			<vel value="0.157835444543932" flag="0"/>
			<psa03 value="0.675158434266098" flag="0"/>
			<psa10 value="0.145811504296554" flag="0"/>
			<psa30 value="0.0299837129404965" flag="0"/>
		</comp>
		<comp name="--.HNZ" depth="0.0">
			<acc value="0.126815554689778" flag="0"/>
			<vel value="0.073616974862404" flag="0"/>
			<psa03 value="0.288067853914891" flag="0"/>
			<psa10 value="0.0649808846646994" flag="0"/>
			<psa30 value="0.00879401922728166" flag="0"/>
		</comp>
	</station>
	<station code="KAR2" name="KAR2" netid="HI" source="ITSAK Strong Motion Network" insttype="" lat="39.365759" lon="21.91933">
		<comp name="--.HNE" depth="0.0">
			<acc value="0.0145190434430484" flag="0"/>
			<vel value="0.040403394012381" flag="0"/>
			<psa03 value="0.0258482748213502" flag="0"/>
			<psa10 value="0.0560862704401595" flag="0"/>
			<psa30 value="0.0230558606709505" flag="0"/>
		</comp>
		<comp name="--.HNN" depth="0.0">
			<acc value="0.0185753841310288" flag="0"/>
			<vel value="0.0496260651092165" flag="0"/>
			<psa03 value="0.035298666488418" flag="0"/>
			<psa10 value="0.0622528826979574" flag="0"/>
			<psa30 value="0.0225142681264357" flag="0"/>
		</comp>
		<comp name="--.HNZ" depth="0.0">
			<acc value="0.0120707903932377" flag="0"/>
			<vel value="0.0234966640534257" flag="0"/>
			<psa03 value="0.0134724002929003" flag="0"/>
			<psa10 value="0.0438444394789381" flag="0"/>
			<psa30 value="0.00726442539919741" flag="0"/>
		</comp>
	</station>
	<station code="KLR1" name="KLR1" netid="HI" source="ITSAK Strong Motion Network" insttype="" lat="40.58251" lon="22.949554">
		<comp name="--.HNE" depth="0.0">
			<acc value="0.192258829030614" flag="0"/>
			<vel value="0.184697532221221" flag="0"/>
			<psa03 value="0.481441768154346" flag="0"/>
			<psa10 value="0.241227275123095" flag="0"/>
			<psa30 value="0.0453400868915723" flag="0"/>
		</comp>
		<comp name="--.HNN" depth="0.0">
			<acc value="0.27216222273205" flag="0"/>
			<vel value="0.167924350882846" flag="0"/>
			<psa03 value="0.91718650910491" flag="0"/>
			<psa10 value="0.217775621566141" flag="0"/>
			<psa30 value="0.0976200268476844" flag="0"/>
		</comp>
		<comp name="--.HNZ" depth="0.0">
			<acc value="0.125383621707497" flag="0"/>
			<vel value="0.0730603097981671" flag="0"/>
			<psa03 value="0.36220361921217" flag="0"/>
			<psa10 value="0.0991298818681695" flag="0"/>
			<psa30 value="0.0112926314147432" flag="0"/>
		</comp>
	</station>
	<station code="KMT1" name="KMT1" netid="HI" source="ITSAK Strong Motion Network" insttype="" lat="41.1159" lon="25.4066">
		<comp name="--.HNE" depth="0.0">
			<acc value="0.204164168471609" flag="0"/>
			<vel value="0.212957648311781" flag="0"/>
			<psa03 value="0.559164750253799" flag="0"/>
			<psa10 value="0.248069453383825" flag="0"/>
			<psa30 value="0.039930228515005" flag="0"/>
		</comp>
		<comp name="--.HNN" depth="0.0">
			<acc value="0.21362439456277" flag="0"/>
			<vel value="0.200719891492841" flag="0"/>
			<psa03 value="0.611822905264803" flag="0"/>
			<psa10 value="0.305796607524476" flag="0"/>
			<psa30 value="0.0312894094364814" flag="0"/>
		</comp>
		<comp name="--.HNZ" depth="0.0">
			<acc value="0.0837543818131531" flag="0"/>
			<vel value="0.076277868863554" flag="0"/>
			<psa03 value="0.298223651686652" flag="0"/>
			<psa10 value="0.0943386919753531" flag="0"/>
			<psa30 value="0.027328767063362" flag="0"/>
		</comp>
	</station>
	<station code="KMV1" name="KMV1" netid="HI" source="ITSAK Strong Motion Network" insttype="" lat="38.7794" lon="22.7846">
		<comp name="--.HNE" depth="0.0">
			<acc value="0.00823749007221448" flag="0"/>
			<vel value="0.0131090030363577" flag="0"/>
			<psa03 value="0.0185037192701734" flag="0"/>
			<psa10 value="0.0310792650987837" flag="0"/>
			<psa30 value="0.00356500866432786" flag="0"/>
		</comp>
		<comp name="--.HNN" depth="0.0">
			<acc value="0.0121222538253674" flag="0"/>
			<vel value="0.0175870982934683" flag="0"/>
			<psa03 value="0.0319760870088338" flag="0"/>
			<psa10 value="0.0416615511232976" flag="0"/>
			<psa30 value="0.00283654853241921" flag="0"/>
		</comp>
		<comp name="--.HNZ" depth="0.0">
			<acc value="0.00523566649634283" flag="0"/>
			<vel value="0.00711811732668306" flag="0"/>
			<psa03 value="0.0127892756121595" flag="0"/>
			<psa10 value="0.0114960959349358" flag="0"/>
			<psa30 value="0.00223184347367681" flag="0"/>
		</comp>
	</station>
	<station code="KOZ2" name="KOZ2" netid="HI" source="ITSAK Strong Motion Network" insttype="" lat="40.295728" lon="21.788123">
		<comp name="--.HNE" depth="0.0">
			<acc value="0.01215406639542" flag="0"/>
			<vel value="0.0102210554637238" flag="0"/>
			<psa03 value="0.036110808830529" flag="0"/>
			<psa10 value="0.0126554730504797" flag="0"/>
			<psa30 value="0.00169832354726673" flag="0"/>
		</comp>
		<comp name="--.HNN" depth="0.0">
			<acc value="0.0105932347353389" flag="0"/>
			<vel value="0.0101428342143552" flag="0"/>
			<psa03 value="0.0376080903097454" flag="0"/>
			<psa10 value="0.00982028804588756" flag="0"/>
			<psa30 value="0.00260790026059335" flag="0"/>
		</comp>
		<comp name="--.HNZ" depth="0.0">
			<acc value="0.00899011738720146" flag="0"/>
			<vel value="0.00709067227130367" flag="0"/>
			<psa03 value="0.0294161387789938" flag="0"/>
			<psa10 value="0.0133322588217156" flag="0"/>
			<psa30 value="0.00207080218048149" flag="0"/>
		</comp>
	</station>
	<station code="LAM2" name="LAM2" netid="HI" source="ITSAK Strong Motion Network" insttype="" lat="38.90203" lon="22.431301">
		<comp name="--.HNE" depth="0.0">
			<acc value="0.00978177281727464" flag="0"/>
			<vel value="0.0149559388057942" flag="0"/>
			<psa03 value="0.0150971902189255" flag="0"/>
			<psa10 value="0.0223791781357202" flag="0"/>
			<psa30 value="0.00393239800206843" flag="0"/>
		</comp>
		<comp name="--.HNN" depth="0.0">
			<acc value="0.00818595400119169" flag="0"/>
			<vel value="0.0132648315616629" flag="0"/>
			<psa03 value="0.0113315879016693" flag="0"/>
			<psa10 value="0.0174118109470225" flag="0"/>
			<psa30 value="0.00413199414099973" flag="0"/>
		</comp>
		<comp name="--.HNZ" depth="0.0">
			<acc value="0.0106720169435129" flag="0"/>
			<vel value="0.00764311078161996" flag="0"/>
			<psa03 value="0.014612542227958" flag="0"/>
			<psa10 value="0.0117253589349844" flag="0"/>
			<psa30 value="0.00234473491051379" flag="0"/>
		</comp>
	</station>
	<station code="LAR4" name="LAR4" netid="HI" source="ITSAK Strong Motion Network" insttype="" lat="39.6422" lon="22.4219">
		<comp name="--.HNE" depth="0.0">
			<acc value="0.0774924528223137" flag="0"/>
			<vel value="0.0995908132308118" flag="0"/>
			<psa03 value="0.162833557757389" flag="0"/>
			<psa10 value="0.226249067890375" flag="0"/>
			<psa30 value="0.0425582626093661" flag="0"/>
		</comp>
		<comp name="--.HNN" depth="0.0">
			<acc value="0.0637289364236919" flag="0"/>
			<vel value="0.119788756425317" flag="0"/>
			<psa03 value="0.111656146671737" flag="0"/>
			<psa10 value="0.180294828647557" flag="0"/>
			<psa30 value="0.0471559638511757" flag="0"/>
		</comp>
		<comp name="--.HNZ" depth="0.0">
			<acc value="0.0291427787402784" flag="0"/>
			<vel value="0.0629500873814571" flag="0"/>
			<psa03 value="0.0508941266944514" flag="0"/>
			<psa10 value="0.0830360132283567" flag="0"/>
			<psa30 value="0.0353310471751462" flag="0"/>
		</comp>
	</station>
	<station code="LMN1" name="LMN1" netid="HI" source="ITSAK Strong Motion Network" insttype="" lat="39.875" lon="25.0588">
		<comp name="--.HNE" depth="0.0">
			<acc value="0.212881834422463" flag="0"/>
			<vel value="0.100086479224206" flag="0"/>
			<psa03 value="0.610921595557458" flag="0"/>
			<psa10 value="0.0650780911041489" flag="0"/>
			<psa30 value="0.0118550495055148" flag="0"/>
		</comp>
		<comp name="--.HNN" depth="0.0">
			<acc value="0.240768892193745" flag="0"/>
			<vel value="0.0912908719293456" flag="0"/>
			<psa03 value="0.399090271105161" flag="0"/>
			<psa10 value="0.0499275674563122" flag="0"/>
			<psa30 value="0.00862599392976366" flag="0"/>
		</comp>
		<comp name="--.HNZ" depth="0.0">
			<acc value="0.225420055380163" flag="0"/>
			<vel value="0.0759892744565787" flag="0"/>
			<psa03 value="0.140248926219723" flag="0"/>
			<psa10 value="0.0426895954761906" flag="0"/>
			<psa30 value="0.00678684834539476" flag="0"/>
		</comp>
	</station>
	<station code="PLA1" name="PLA1" netid="HI" source="ITSAK Strong Motion Network" insttype="" lat="40.555907" lon="22.988593">
		<comp name="--.HNE" depth="0.0">
			<acc value="0.40742813785374" flag="0"/>
			<vel value="0.242938260506467" flag="0"/>
			<psa03 value="1.07573751233075" flag="0"/>
			<psa10 value="0.295931233991897" flag="0"/>
			<psa30 value="0.0552474198704261" flag="0"/>
		</comp>
		<comp name="--.HNN" depth="0.0">
			<acc value="0.207625021458076" flag="0"/>
			<vel value="0.138835222031392" flag="0"/>
			<psa03 value="0.6627230688175" flag="0"/>
			<psa10 value="0.257593464302807" flag="0"/>
			<psa30 value="0.0727839949157912" flag="0"/>
		</comp>
		<comp name="--.HNZ" depth="0.0">
			<acc value="0.128960496068179" flag="0"/>
			<vel value="0.103575858526025" flag="0"/>
			<psa03 value="0.279955754028086" flag="0"/>
			<psa10 value="0.120481636317113" flag="0"/>
			<psa30 value="0.0227674232300523" flag="0"/>
		</comp>
	</station>
	<station code="PLN1" name="PLN1" netid="HI" source="ITSAK Strong Motion Network" insttype="" lat="39.998" lon="23.575">
		<comp name="--.HNE" depth="0.0">
			<acc value="0.33048646381958" flag="0"/>
			<vel value="0.312554870049205" flag="0"/>
			<psa03 value="0.836215228488289" flag="0"/>
			<psa10 value="0.344938460480137" flag="0"/>
			<psa30 value="0.0767741325761619" flag="0"/>
		</comp>
		<comp name="--.HNN" depth="0.0">
			<acc value="0.289603518016289" flag="0"/>
			<vel value="0.288713565176187" flag="0"/>
			<psa03 value="0.575624465629163" flag="0"/>
			<psa10 value="0.45360466908315" flag="0"/>
			<psa30 value="0.0773582179356171" flag="0"/>
		</comp>
		<comp name="--.HNZ" depth="0.0">
			<acc value="0.227358941361954" flag="0"/>
			<vel value="0.0884009116345912" flag="0"/>
			<psa03 value="0.409306114521317" flag="0"/>
			<psa10 value="0.0862574391320129" flag="0"/>
			<psa30 value="0.0225079810432807" flag="0"/>
		</comp>
	</station>
	<station code="PTO1" name="PTO1" netid="HI" source="ITSAK Strong Motion Network" insttype="" lat="40.510132" lon="21.681568">
		<comp name="--.HNE" depth="0.0">
			<acc value="0.0256410327535266" flag="0"/>
			<vel value="0.0459249632799412" flag="0"/>
			<psa03 value="0.0504869695139531" flag="0"/>
			<psa10 value="0.110932251217216" flag="0"/>
			<psa30 value="0.0136610916469431" flag="0"/>
		</comp>
		<comp name="--.HNN" depth="0.0">
			<acc value="0.0288201984245788" flag="0"/>
			<vel value="0.0499542649332531" flag="0"/>
			<psa03 value="0.0530035372658827" flag="0"/>
			<psa10 value="0.101423781327751" flag="0"/>
			<psa30 value="0.0131489652210808" flag="0"/>
		</comp>
		<comp name="--.HNZ" depth="0.0">
			<acc value="0.013392446948324" flag="0"/>
			<vel value="0.0203545695690331" flag="0"/>
			<psa03 value="0.0315744093579941" flag="0"/>
			<psa10 value="0.0448651070931584" flag="0"/>
			<psa30 value="0.00797745846747213" flag="0"/>
		</comp>
	</station>
	<station code="SEIS" name="SEIS" netid="HI" source="ITSAK Strong Motion Network" insttype="" lat="40.631849" lon="22.962768">
		<comp name="--.HNE" depth="0.0">
			<acc value="0.0462398501989566" flag="0"/>
			<vel value="0.0338607368063036" flag="0"/>
			<psa03 value="0.137845975369355" flag="0"/>
			<psa10 value="0.037709235551788" flag="0"/>
			<psa30 value="0.00708992800626818" flag="0"/>
		</comp>
		<comp name="--.HNN" depth="0.0">
			<acc value="0.0663248723518786" flag="0"/>
			<vel value="0.0510243349819865" flag="0"/>
			<psa03 value="0.110498820004525" flag="0"/>
			<psa10 value="0.0588895848959842" flag="0"/>
			<psa30 value="0.0174827981495763" flag="0"/>
		</comp>
		<comp name="--.HNZ" depth="0.0">
			<acc value="0.0539130072990406" flag="0"/>
			<vel value="0.0449134316061152" flag="0"/>
			<psa03 value="0.128912154380893" flag="0"/>
			<psa10 value="0.0391296158950148" flag="0"/>
			<psa30 value="0.0060656330684222" flag="0"/>
		</comp>
	</station>
	<station code="SIA1" name="SIA1" netid="HI" source="ITSAK Strong Motion Network" insttype="" lat="40.257308" lon="21.553432">
		<comp name="--.HNE" depth="0.0">
			<acc value="0.0076407040437315" flag="0"/>
			<vel value="0.0090443938926357" flag="0"/>
			<psa03 value="0.0184223532029875" flag="0"/>
			<psa10 value="0.0171354888920425" flag="0"/>
			<psa30 value="0.0024912248230849" flag="0"/>
		</comp>
		<comp name="--.HNN" depth="0.0">
			<acc value="0.0102264978445559" flag="0"/>
			<vel value="0.0132073053775168" flag="0"/>
			<psa03 value="0.0331727496151919" flag="0"/>
			<psa10 value="0.0124891476572387" flag="0"/>
			<psa30 value="0.0031708458863116" flag="0"/>
		</comp>
		<comp name="--.HNZ" depth="0.0">
			<acc value="0.00628156821095372" flag="0"/>
			<vel value="0.00783113784558454" flag="0"/>
			<psa03 value="0.019986304463333" flag="0"/>
			<psa10 value="0.0145710361971371" flag="0"/>
			<psa30 value="0.00329330587368476" flag="0"/>
		</comp>
	</station>
	<station code="SKY1" name="SKY1" netid="HI" source="ITSAK Strong Motion Network" insttype="" lat="38.904483" lon="24.564572">
		<comp name="--.HNE" depth="0.0">
			<acc value="0.0201675090727944" flag="0"/>
			<vel value="0.0167803199520755" flag="0"/>
			<psa03 value="0.110558751057997" flag="0"/>
			<psa10 value="0.0200737129099636" flag="0"/>
			<psa30 value="0.00326922011145455" flag="0"/>
		</comp>
		<comp name="--.HNN" depth="0.0">
			<acc value="0.0181749229373823" flag="0"/>
			<vel value="0.0139279720749915" flag="0"/>
			<psa03 value="0.0508192571513783" flag="0"/>
			<psa10 value="0.0195009337161531" flag="0"/>
			<psa30 value="0.0026479708317387" flag="0"/>
		</comp>
		<comp name="--.HNZ" depth="0.0">
			<acc value="0.0126674198787763" flag="0"/>
			<vel value="0.00846669277313299" flag="0"/>
			<psa03 value="0.0601774864631424" flag="0"/>
			<psa10 value="0.00631551118412103" flag="0"/>
			<psa30 value="0.00136564161288797" flag="0"/>
		</comp>
	</station>
	<station code="STL1" name="STL1" netid="HI" source="ITSAK Strong Motion Network" insttype="" lat="40.662419" lon="22.935323">
		<comp name="--.HNE" depth="0.0">
			<acc value="0.258494711771673" flag="0"/>
			<vel value="0.0935112759412239" flag="0"/>
			<psa03 value="0.796420758966651" flag="0"/>
			<psa10 value="0.0452903252617752" flag="0"/>
			<psa30 value="0.00957179658454778" flag="0"/>
		</comp>
		<comp name="--.HNN" depth="0.0">
