<?xml version="1.0" encoding="UTF-8" standalone="yes"?>
<!DOCTYPE earthquake SYSTEM "stationlist.dtd">
<stationlist created="" xmlns="ch.ethz.sed.shakemap.usgs.xml">
  <station code="MMB" name="MMB" netid="BS" insttype="STS-2" commtype="DIG" lat="41.5469" lon="23.7495">
    <comp name="--.HHN">
      <acc value="0.1675397820" flag="0"/>
      <vel value="0.1324796814" flag="0"/>
      <psa03 value="0.3235588948" flag="0"/>
      <psa10 value="0.1499626101" flag="0"/>
      <psa30 value="0.0166273219" flag="0"/>
    </comp>
    <comp name="--.HHE">
      <acc value="0.2095176843" flag="0"/>
      <vel value="0.1960298142" flag="0"/>
      <psa03 value="0.4990626626" flag="0"/>
      <psa10 value="0.2208164383" flag="0"/>
      <psa30 value="0.0191197208" flag="0"/>
    </comp>
    <comp name="--.HHZ">
      <acc value="0.1155588709" flag="0"/>
      <vel value="0.1047195480" flag="0"/>
      <psa03 value="0.2726662178" flag="0"/>
      <psa10 value="0.2194338400" flag="0"/>
      <psa30 value="0.0071581072" flag="0"/>
    </comp>
  </station>
  <station code="RZN" name="RZN" netid="BS" insttype="CMG40T" commtype="DIG" lat="41.6942" lon="24.7388">
    <comp name="--.HHE">
      <acc value="0.0707504620" flag="0"/>
      <vel value="0.0422385937" flag="0"/>
      <psa03 value="0.2501500855" flag="0"/>
      <psa10 value="0.0427136995" flag="0"/>
      <psa30 value="0.0048625720" flag="0"/>
    </comp>
    <comp name="--.HHZ">
      <acc value="0.0811143849" flag="0"/>
      <vel value="0.0420219340" flag="0"/>
      <psa03 value="0.2247372344" flag="0"/>
      <psa10 value="0.0402142179" flag="0"/>
      <psa30 value="0.0063136082" flag="0"/>
    </comp>
    <comp name="--.HHN">
      <acc value="0.0726101219" flag="0"/>
      <vel value="0.0373835073" flag="0"/>
      <psa03 value="0.2278745113" flag="0"/>
      <psa10 value="0.0393137919" flag="0"/>
      <psa30 value="0.0077547444" flag="0"/>
    </comp>
  </station>
  <station code="ALX2" name="ALX2" netid="HI" insttype="unknown" commtype="DIG" lat="40.8454" lon="25.8739">
    <comp name="--.HNN">
      <acc value="0.1286556282" flag="0"/>
      <vel value="0.1453595416" flag="0"/>
      <psa03 value="0.2686499693" flag="0"/>
      <psa10 value="0.2395329884" flag="0"/>
      <psa30 value="0.0192179918" flag="0"/>
    </comp>
    <comp name="--.HNE">
      <acc value="0.1675453737" flag="0"/>
      <vel value="0.1543865220" flag="0"/>
      <psa03 value="0.4739607549" flag="0"/>
      <psa10 value="0.2230087391" flag="0"/>
      <psa30 value="0.0249139226" flag="0"/>
    </comp>
    <comp name="--.HNZ">
      <acc value="0.0627345519" flag="0"/>
      <vel value="0.0747614531" flag="0"/>
      <psa03 value="0.1855158406" flag="0"/>
      <psa10 value="0.1259843995" flag="0"/>
      <psa30 value="0.0070246719" flag="0"/>
    </comp>
  </station>
  <station code="DRA2" name="DRA2" netid="HI" insttype="CMG-5TD,ACCELEROMETER,GURALP" commtype="DIG" lat="41.1593" lon="24.1485">
    <comp name="--.HNE">
      <acc value="0.4872309377" flag="0"/>
      <vel value="0.2636326387" flag="0"/>
      <psa03 value="1.3056471492" flag="0"/>
      <psa10 value="0.1752606537" flag="0"/>
      <psa30 value="0.0185353805" flag="0"/>
    </comp>
    <comp name="--.HNN">
      <acc value="0.4085813611" flag="0"/>
      <vel value="0.1783263103" flag="0"/>
      <psa03 value="1.0014345370" flag="0"/>
      <psa10 value="0.1748704781" flag="0"/>
      <psa30 value="0.0101744257" flag="0"/>
    </comp>
    <comp name="--.HNZ">
      <acc value="0.2737079617" flag="0"/>
      <vel value="0.1022987968" flag="0"/>
      <psa03 value="0.5760033359" flag="0"/>
      <psa10 value="0.1222601708" flag="0"/>
      <psa30 value="0.0059315298" flag="0"/>
    </comp>
  </station>
  <station code="ITS1" name="ITS1" netid="HI" insttype="unknown" commtype="DIG" lat="40.605" lon="23.0123">
    <comp name="--.HNE">
      <acc value="0.1499179880" flag="0"/>
      <vel value="0.1320427015" flag="0"/>
      <psa03 value="0.4709827294" flag="0"/>
      <psa10 value="0.1558934111" flag="0"/>
      <psa30 value="0.0141545914" flag="0"/>
    </comp>
    <comp name="--.HNZ">
      <acc value="0.1292321350" flag="0"/>
      <vel value="0.0733635947" flag="0"/>
      <psa03 value="0.2853321241" flag="0"/>
      <psa10 value="0.0648627132" flag="0"/>
      <psa30 value="0.0086910285" flag="0"/>
    </comp>
    <comp name="--.HNN">
      <acc value="0.2028781141" flag="0"/>
      <vel value="0.1581252420" flag="0"/>
      <psa03 value="0.6762109789" flag="0"/>
      <psa10 value="0.1454497048" flag="0"/>
      <psa30 value="0.0299272535" flag="0"/>
    </comp>
  </station>
  <station code="KLR1" name="KLR1" netid="HI" insttype="unknown" commtype="DIG" lat="40.5825" lon="22.9496">
    <comp name="--.HNE">
      <acc value="0.1922616502" flag="0"/>
      <vel value="0.1835528280" flag="0"/>
      <psa03 value="0.4783159609" flag="0"/>
      <psa10 value="0.2405274488" flag="0"/>
      <psa30 value="0.0452082492" flag="0"/>
    </comp>
    <comp name="--.HNN">
      <acc value="0.2725504071" flag="0"/>
      <vel value="0.1673961146" flag="0"/>
      <psa03 value="0.9172830645" flag="0"/>
      <psa10 value="0.2177869364" flag="0"/>
      <psa30 value="0.0974104458" flag="0"/>
    </comp>
    <comp name="--.HNZ">
      <acc value="0.1262628566" flag="0"/>
      <vel value="0.0732279141" flag="0"/>
      <psa03 value="0.3624373681" flag="0"/>
      <psa10 value="0.0988612434" flag="0"/>
      <psa30 value="0.0112369765" flag="0"/>
    </comp>
  </station>
  <station code="KMT1" name="KMT1" netid="HI" insttype="unknown" commtype="DIG" lat="41.1159" lon="25.4066">
    <comp name="--.HNN">
      <acc value="0.2133658248" flag="0"/>
      <vel value="0.1979717659" flag="0"/>
      <psa03 value="0.6138685864" flag="0"/>
      <psa10 value="0.3053494360" flag="0"/>
      <psa30 value="0.0307844160" flag="0"/>
    </comp>
    <comp name="--.HNZ">
      <acc value="0.0856847656" flag="0"/>
      <vel value="0.0758883285" flag="0"/>
      <psa03 value="0.2959516467" flag="0"/>
      <psa10 value="0.0943352816" flag="0"/>
      <psa30 value="0.0271088939" flag="0"/>
    </comp>
    <comp name="--.HNE">
      <acc value="0.2047936697" flag="0"/>
      <vel value="0.2190658655" flag="0"/>
      <psa03 value="0.5555032375" flag="0"/>
      <psa10 value="0.2482964709" flag="0"/>
      <psa30 value="0.0397399512" flag="0"/>
    </comp>
  </station>
  <station code="LMN1" name="LMN1" netid="HI" insttype="CMG-5TD,ACCELEROMETER,GURALP" commtype="DIG" lat="39.875" lon="25.0588">
    <comp name="--.HNE">
      <acc value="0.2142136305" flag="0"/>
      <vel value="0.0998503713" flag="0"/>
      <psa03 value="0.6068539768" flag="0"/>
      <psa10 value="0.0648673087" flag="0"/>
      <psa30 value="0.0117586097" flag="0"/>
    </comp>
    <comp name="--.HNN">
      <acc value="0.2413318260" flag="0"/>
      <vel value="0.0912676540" flag="0"/>
      <psa03 value="0.3970751551" flag="0"/>
      <psa10 value="0.0497984182" flag="0"/>
      <psa30 value="0.0087414021" flag="0"/>
    </comp>
    <comp name="--.HNZ">
      <acc value="0.2243308902" flag="0"/>
      <vel value="0.0744867711" flag="0"/>
      <psa03 value="0.1377254229" flag="0"/>
      <psa10 value="0.0425231337" flag="0"/>
      <psa30 value="0.0068839821" flag="0"/>
    </comp>
  </station>
  <station code="PLA1" name="PLA1" netid="HI" insttype="unknown" commtype="DIG" lat="40.5559" lon="22.9886">
    <comp name="--.HNE">
      <acc value="0.4072226292" flag="0"/>
      <vel value="0.2416430445" flag="0"/>
      <psa03 value="1.0664123695" flag="0"/>
      <psa10 value="0.2949915069" flag="0"/>
      <psa30 value="0.0551232050" flag="0"/>
    </comp>
    <comp name="--.HNZ">
      <acc value="0.1376704155" flag="0"/>
      <vel value="0.1027997204" flag="0"/>
      <psa03 value="0.2797922301" flag="0"/>
      <psa10 value="0.1204419377" flag="0"/>
      <psa30 value="0.0227032661" flag="0"/>
    </comp>
    <comp name="--.HNN">
      <acc value="0.2083816959" flag="0"/>
      <vel value="0.1393353110" flag="0"/>
      <psa03 value="0.6674768013" flag="0"/>
      <psa10 value="0.2573861434" flag="0"/>
      <psa30 value="0.0725476526" flag="0"/>
    </comp>
  </station>
  <station code="PLN1" name="PLN1" netid="HI" insttype="CMG-5TD,ACCELEROMETER,GURALP" commtype="DIG" lat="39.998" lon="23.575">
    <comp name="--.HNN">
      <acc value="0.2882169455" flag="0"/>
      <vel value="0.2674575018" flag="0"/>
      <psa03 value="0.5673264553" flag="0"/>
      <psa10 value="0.4534687589" flag="0"/>
      <psa30 value="0.0766142026" flag="0"/>
    </comp>
    <comp name="--.HNE">
      <acc value="0.3294760209" flag="0"/>
      <vel value="0.3049172334" flag="0"/>
      <psa03 value="0.8411753272" flag="0"/>
      <psa10 value="0.3433566992" flag="0"/>
      <psa30 value="0.0763187905" flag="0"/>
    </comp>
    <comp name="--.HNZ">
      <acc value="0.2313190809" flag="0"/>
      <vel value="0.0876347796" flag="0"/>
      <psa03 value="0.4136500807" flag="0"/>
      <psa10 value="0.0860947192" flag="0"/>
      <psa30 value="0.0224842202" flag="0"/>
    </comp>
  </station>
  <station code="SEIS" name="SEIS" netid="HI" insttype="unknown" commtype="DIG" lat="40.6318" lon="22.9628">
    <comp name="--.HNE">
      <acc value="0.0471625979" flag="0"/>
      <vel value="0.0319250533" flag="0"/>
      <psa03 value="0.1387539375" flag="0"/>
      <psa10 value="0.0377015255" flag="0"/>
      <psa30 value="0.0071295596" flag="0"/>
    </comp>
    <comp name="--.HNN">
      <acc value="0.0669126077" flag="0"/>
      <vel value="0.0486827092" flag="0"/>
      <psa03 value="0.1100055018" flag="0"/>
      <psa10 value="0.0588824132" flag="0"/>
      <psa30 value="0.0174099288" flag="0"/>
    </comp>
    <comp name="--.HNZ">
      <acc value="0.0538891611" flag="0"/>
      <vel value="0.0437868655" flag="0"/>
      <psa03 value="0.1280715750" flag="0"/>
      <psa10 value="0.0389614749" flag="0"/>
      <psa30 value="0.0059182243" flag="0"/>
    </comp>
  </station>
  <station code="SKY1" name="SKY1" netid="HI" insttype="CMG-5TD,ACCELEROMETER,GURALP" commtype="DIG" lat="38.9045" lon="24.5646">
    <comp name="--.HNE">
      <acc value="0.0202113985" flag="0"/>
      <vel value="0.0124971210" flag="0"/>
      <psa03 value="0.1100520682" flag="0"/>
      <psa10 value="0.0204361297" flag="0"/>
      <psa30 value="0.0030977610" flag="0"/>
    </comp>
    <comp name="--.HNN">
      <acc value="0.0183342640" flag="0"/>
      <vel value="0.0142483529" flag="0"/>
      <psa03 value="0.0507895995" flag="0"/>
      <psa10 value="0.0195291299" flag="0"/>
      <psa30 value="0.0024940707" flag="0"/>
    </comp>
    <comp name="--.HNZ">
      <acc value="0.0126152194" flag="0"/>
      <vel value="0.0084659888" flag="0"/>
      <psa03 value="0.0596807174" flag="0"/>
      <psa10 value="0.0063110131" flag="0"/>
      <psa30 value="0.0013425669" flag="0"/>
    </comp>
  </station>
  <station code="STL1" name="STL1" netid="HI" insttype="unknown" commtype="DIG" lat="40.6624" lon="22.9353">
    <comp name="--.HNE">
      <acc value="0.2604359143" flag="0"/>
      <vel value="0.0939119192" flag="0"/>
      <psa03 value="0.7807628798" flag="0"/>
      <psa10 value="0.0453167217" flag="0"/>
      <psa30 value="0.0095079122" flag="0"/>
    </comp>
    <comp name="--.HNN">
      <acc value="0.1451750849" flag="0"/>
      <vel value="0.0758576360" flag="0"/>
      <psa03 value="0.4635911322" flag="0"/>
      <psa10 value="0.0723484397" flag="0"/>
      <psa30 value="0.0186612871" flag="0"/>
    </comp>
    <comp name="--.HNZ">
      <acc value="0.0830959380" flag="0"/>
      <vel value="0.0331593454" flag="0"/>
      <psa03 value="0.1847125283" flag="0"/>
      <psa10 value="0.0352953927" flag="0"/>
      <psa30 value="0.0053624011" flag="0"/>
    </comp>
  </station>
  <station code="VOL3" name="VOL3" netid="HI" insttype="unknown" commtype="DIG" lat="39.374" lon="22.9354">
    <comp name="--.HNE">
      <acc value="0.0589307350" flag="0"/>
      <vel value="0.0540734591" flag="0"/>
      <psa03 value="0.1046289434" flag="0"/>
      <psa10 value="0.0618101665" flag="0"/>
      <psa30 value="0.0056561611" flag="0"/>
    </comp>
    <comp name="--.HNZ">
      <acc value="0.0238349937" flag="0"/>
      <vel value="0.0145816525" flag="0"/>
      <psa03 value="0.0595958287" flag="0"/>
      <psa10 value="0.0170379057" flag="0"/>
      <psa30 value="0.0031616711" flag="0"/>
    </comp>
    <comp name="--.HNN">
      <acc value="0.0529490409" flag="0"/>
      <vel value="0.0498451588" flag="0"/>
      <psa03 value="0.1278536255" flag="0"/>
      <psa10 value="0.0708799062" flag="0"/>
      <psa30 value="0.0096098253" flag="0"/>
    </comp>
  </station>
  <station code="XAN2" name="XAN2" netid="HI" insttype="unknown" commtype="DIG" lat="41.142" lon="24.8908">
    <comp name="--.HNE">
      <acc value="0.3473597011" flag="0"/>
      <vel value="0.2120181767" flag="0"/>
      <psa03 value="1.1693076771" flag="0"/>
      <psa10 value="0.3413282452" flag="0"/>
      <psa30 value="0.0190820153" flag="0"/>
    </comp>
    <comp name="--.HNZ">
      <acc value="0.1061828753" flag="0"/>
      <vel value="0.1145741660" flag="0"/>
      <psa03 value="0.3027224856" flag="0"/>
      <psa10 value="0.1900752645" flag="0"/>
      <psa30 value="0.0157122135" flag="0"/>
    </comp>
    <comp name="--.HNN">
      <acc value="0.2394715530" flag="0"/>
      <vel value="0.2766517648" flag="0"/>
      <psa03 value="0.3752774343" flag="0"/>
      <psa10 value="0.3074467088" flag="0"/>
      <psa30 value="0.0244721310" flag="0"/>
    </comp>
  </station>
  <station code="AGXA" name="AGXA" netid="HL" insttype="CMG-5" commtype="DIG" lat="39.2765" lon="22.82">
    <comp name="00.HNN">
      <acc value="0.0629716637" flag="0"/>
      <vel value="0.0746180386" flag="0"/>
      <psa03 value="0.1617860589" flag="0"/>
      <psa10 value="0.1320294402" flag="0"/>
      <psa30 value="0.0100196749" flag="0"/>
    </comp>
    <comp name="00.HNZ">
      <acc value="0.0223845829" flag="0"/>
      <vel value="0.0274553542" flag="0"/>
      <psa03 value="0.0758925908" flag="0"/>
      <psa10 value="0.0553323544" flag="0"/>
      <psa30 value="0.0046904340" flag="0"/>
    </comp>
    <comp name="00.HNE">
      <acc value="0.0432401940" flag="0"/>
      <vel value="0.0447774008" flag="0"/>
      <psa03 value="0.1431893113" flag="0"/>
      <psa10 value="0.0916187262" flag="0"/>
      <psa30 value="0.0102415234" flag="0"/>
    </comp>
  </station>
  <station code="ALXA" name="ALXA" netid="HL" insttype="CMG-5" commtype="DIG" lat="40.8555" lon="25.9019">
    <comp name="00.HNN">
      <acc value="0.0964455233" flag="0"/>
      <vel value="0.1131534271" flag="0"/>
      <psa03 value="0.2785149369" flag="0"/>
      <psa10 value="0.2257458583" flag="0"/>
      <psa30 value="0.0216846563" flag="0"/>
    </comp>
    <comp name="00.HNE">
      <acc value="0.1534604011" flag="0"/>
      <vel value="0.1758883878" flag="0"/>
      <psa03 value="0.3582972858" flag="0"/>
      <psa10 value="0.3120068655" flag="0"/>
      <psa30 value="0.0234911011" flag="0"/>
    </comp>
    <comp name="00.HNZ">
      <acc value="0.0532816983" flag="0"/>
      <vel value="0.0517637767" flag="0"/>
      <psa03 value="0.1285789000" flag="0"/>
      <psa10 value="0.0964059137" flag="0"/>
      <psa30 value="0.0070237856" flag="0"/>
    </comp>
  </station>
  <station code="EFSA" name="EFSA" netid="HL" insttype="CMG-5" commtype="DIG" lat="39.5401" lon="24.9886">
    <comp name="00.HNN">
      <acc value="0.0368767538" flag="0"/>
      <vel value="0.0308386440" flag="0"/>
      <psa03 value="0.1058391113" flag="0"/>
      <psa10 value="0.0483704747" flag="0"/>
      <psa30 value="0.0078290942" flag="0"/>
    </comp>
    <comp name="00.HNZ">
      <acc value="0.0391388776" flag="0"/>
      <vel value="0.0220237405" flag="0"/>
      <psa03 value="0.1136883998" flag="0"/>
      <psa10 value="0.0348203737" flag="0"/>
      <psa30 value="0.0048556852" flag="0"/>
    </comp>
    <comp name="00.HNE">
      <acc value="0.0342731859" flag="0"/>
      <vel value="0.0364966691" flag="0"/>
      <psa03 value="0.0753476399" flag="0"/>
      <psa10 value="0.0433006663" flag="0"/>
      <psa30 value="0.0113485777" flag="0"/>
    </comp>
  </station>
  <station code="GINA" name="GINA" netid="HL" insttype="CMG-5" commtype="DIG" lat="39.6689" lon="22.389">
    <comp name="00.HNE">
      <acc value="0.0419925790" flag="0"/>
      <vel value="0.0823619791" flag="0"/>
      <psa03 value="0.0744304715" flag="0"/>
      <psa10 value="0.0647225024" flag="0"/>
      <psa30 value="0.0210594941" flag="0"/>
    </comp>
    <comp name="00.HNN">
      <acc value="0.0636357917" flag="0"/>
      <vel value="0.1439746625" flag="0"/>
      <psa03 value="0.1085113752" flag="0"/>
      <psa10 value="0.1229555111" flag="0"/>
      <psa30 value="0.0444272375" flag="0"/>
    </comp>
    <comp name="00.HNZ">
      <acc value="0.0241370899" flag="0"/>
      <vel value="0.0313930746" flag="0"/>
      <psa03 value="0.0350770680" flag="0"/>
      <psa10 value="0.0783818191" flag="0"/>
      <psa30 value="0.0107253441" flag="0"/>
    </comp>
  </station>
  <station code="KOMA" name="KOMA" netid="HL" insttype="CMG-5" commtype="DIG" lat="41.1128" lon="25.3965">
    <comp name="00.HNN">
      <acc value="0.1573087582" flag="0"/>
      <vel value="0.1989485190" flag="0"/>
      <psa03 value="0.6398238666" flag="0"/>
      <psa10 value="0.4357462339" flag="0"/>
      <psa30 value="0.0287895692" flag="0"/>
    </comp>
    <comp name="00.HNZ">
      <acc value="0.1116144307" flag="0"/>
      <vel value="0.0885648400" flag="0"/>
      <psa03 value="0.2663799442" flag="0"/>
      <psa10 value="0.2101943504" flag="0"/>
      <psa30 value="0.0200316717" flag="0"/>
    </comp>
    <comp name="00.HNE">
      <acc value="0.1990695056" flag="0"/>
      <vel value="0.2070490965" flag="0"/>
      <psa03 value="0.5622453787" flag="0"/>
      <psa10 value="0.3509217000" flag="0"/>
      <psa30 value="0.0349213742" flag="0"/>
    </comp>
  </station>
  <station code="KVLA" name="KVLA" netid="HL" insttype="CMG-5" commtype="DIG" lat="40.937" lon="24.3859">
    <comp name="00.HNE">
      <acc value="0.8144219687" flag="0"/>
      <vel value="0.3060983027" flag="0"/>
      <psa03 value="1.4393755145" flag="0"/>
      <psa10 value="0.1407432693" flag="0"/>
      <psa30 value="0.0108371669" flag="0"/>
    </comp>
    <comp name="00.HNN">
      <acc value="0.4530891658" flag="0"/>
      <vel value="0.1972572669" flag="0"/>
      <psa03 value="0.9108854158" flag="0"/>
      <psa10 value="0.0605154895" flag="0"/>
      <psa30 value="0.0077080344" flag="0"/>
    </comp>
    <comp name="00.HNZ">
      <acc value="0.3680168597" flag="0"/>
      <vel value="0.1119868002" flag="0"/>
      <psa03 value="0.7159415442" flag="0"/>
      <psa10 value="0.0607176116" flag="0"/>
      <psa30 value="0.0077939149" flag="0"/>
    </comp>
  </station>
  <station code="LARA" name="LARA" netid="HL" insttype="CMG-5" commtype="DIG" lat="39.637" lon="22.4297">
    <comp name="00.HNN">
      <acc value="0.1049927851" flag="0"/>
      <vel value="0.1116841133" flag="0"/>
      <psa03 value="0.1770272164" flag="0"/>
      <psa10 value="0.2790910197" flag="0"/>
      <psa30 value="0.0508501716" flag="0"/>
    </comp>
    <comp name="00.HNZ">
      <acc value="0.0231494436" flag="0"/>
      <vel value="0.0656872846" flag="0"/>
      <psa03 value="0.0492655087" flag="0"/>
      <psa10 value="0.1406034863" flag="0"/>
      <psa30 value="0.0326834144" flag="0"/>
    </comp>
    <comp name="00.HNE">
      <acc value="0.0758178017" flag="0"/>
      <vel value="0.1256831872" flag="0"/>
      <psa03 value="0.1516258744" flag="0"/>
      <psa10 value="0.2535837276" flag="0"/>
      <psa30 value="0.0488097973" flag="0"/>
    </comp>
  </station>
