<?xml version="1.0" encoding="UTF-8" standalone="yes"?>
<!DOCTYPE earthquake SYSTEM "stationlist.dtd">
<stationlist created="" xmlns="ch.ethz.sed.shakemap.usgs.xml">
  <station code="MMB" name="MMB" netid="BS" insttype="STS-2" commtype="DIG" lat="41.5469" lon="23.7495">
    <comp name="--.HHE">
      <acc value="0.2095451833" flag="0"/>
      <vel value="0.1937185007" flag="0"/>
      <psa03 value="0.4991775748" flag="0"/>
      <psa10 value="0.2206571738" flag="0"/>
      <psa30 value="0.0182935691" flag="0"/>
    </comp>
    <comp name="--.HHZ">
      <acc value="0.1155982571" flag="0"/>
      <vel value="0.1044590151" flag="0"/>
      <psa03 value="0.2726591127" flag="0"/>
      <psa10 value="0.2192771383" flag="0"/>
      <psa30 value="0.0070211414" flag="0"/>
    </comp>
    <comp name="--.HHN">
      <acc value="0.1675715099" flag="0"/>
      <vel value="0.1320698189" flag="0"/>
      <psa03 value="0.3235909632" flag="0"/>
      <psa10 value="0.1498547630" flag="0"/>
      <psa30 value="0.0157609555" flag="0"/>
    </comp>
  </station>
  <station code="DRA2" name="DRA2" netid="HI" insttype="CMG-5TD,ACCELEROMETER,GURALP" commtype="DIG" lat="41.1593" lon="24.1485">
    <comp name="--.HNZ">
      <acc value="0.2737315965" flag="0"/>
      <vel value="0.1021242600" flag="0"/>
      <psa03 value="0.5760371728" flag="0"/>
      <psa10 value="0.1222301794" flag="0"/>
      <psa30 value="0.0055487097" flag="0"/>
    </comp>
    <comp name="--.HNE">
      <acc value="0.4873159206" flag="0"/>
      <vel value="0.2657587208" flag="0"/>
      <psa03 value="1.3055849944" flag="0"/>
      <psa10 value="0.1752218509" flag="0"/>
      <psa30 value="0.0178846977" flag="0"/>
    </comp>
    <comp name="--.HNN">
      <acc value="0.4084755592" flag="0"/>
      <vel value="0.1787598098" flag="0"/>
      <psa03 value="1.0013446351" flag="0"/>
      <psa10 value="0.1749874900" flag="0"/>
      <psa30 value="0.0098961961" flag="0"/>
    </comp>
  </station>
  <station code="ITS1" name="ITS1" netid="HI" insttype="unknown" commtype="DIG" lat="40.605" lon="23.0123">
    <comp name="--.HNN">
      <acc value="0.2026196898" flag="0"/>
      <vel value="0.1639672420" flag="0"/>
      <psa03 value="0.6754262108" flag="0"/>
      <psa10 value="0.1458943523" flag="0"/>
      <psa30 value="0.0258014383" flag="0"/>
    </comp>
    <comp name="--.HNZ">
      <acc value="0.1290901369" flag="0"/>
      <vel value="0.0699884125" flag="0"/>
      <psa03 value="0.2853276173" flag="0"/>
      <psa10 value="0.0654360331" flag="0"/>
      <psa30 value="0.0072050927" flag="0"/>
    </comp>
    <comp name="--.HNE">
      <acc value="0.1501027931" flag="0"/>
      <vel value="0.1336597746" flag="0"/>
      <psa03 value="0.4715986542" flag="0"/>
      <psa10 value="0.1564459563" flag="0"/>
      <psa30 value="0.0119570030" flag="0"/>
    </comp>
  </station>
  <station code="KLR1" name="KLR1" netid="HI" insttype="unknown" commtype="DIG" lat="40.5825" lon="22.9496">
    <comp name="--.HNZ">
      <acc value="0.1265860862" flag="0"/>
      <vel value="0.0731835956" flag="0"/>
      <psa03 value="0.3624992830" flag="0"/>
      <psa10 value="0.0982258981" flag="0"/>
      <psa30 value="0.0095239470" flag="0"/>
    </comp>
    <comp name="--.HNE">
      <acc value="0.1923050126" flag="0"/>
      <vel value="0.1904317838" flag="0"/>
      <psa03 value="0.4790306477" flag="0"/>
      <psa10 value="0.2399436598" flag="0"/>
      <psa30 value="0.0398170889" flag="0"/>
    </comp>
    <comp name="--.HNN">
      <acc value="0.2722510000" flag="0"/>
      <vel value="0.1543511866" flag="0"/>
      <psa03 value="0.9192717484" flag="0"/>
      <psa10 value="0.2194663115" flag="0"/>
      <psa30 value="0.0831127239" flag="0"/>
    </comp>
  </station>
  <station code="KMT1" name="KMT1" netid="HI" insttype="unknown" commtype="DIG" lat="41.1159" lon="25.4066">
    <comp name="--.HNE">
      <acc value="0.2045057569" flag="0"/>
      <vel value="0.2360893243" flag="0"/>
      <psa03 value="0.5574586281" flag="0"/>
      <psa10 value="0.2488153523" flag="0"/>
      <psa30 value="0.0386673590" flag="0"/>
    </comp>
    <comp name="--.HNZ">
      <acc value="0.0853897431" flag="0"/>
      <vel value="0.0731085958" flag="0"/>
      <psa03 value="0.2964165862" flag="0"/>
      <psa10 value="0.0940866900" flag="0"/>
      <psa30 value="0.0241416937" flag="0"/>
    </comp>
    <comp name="--.HNN">
      <acc value="0.2126143108" flag="0"/>
      <vel value="0.1976025504" flag="0"/>
      <psa03 value="0.6138545548" flag="0"/>
      <psa10 value="0.3056616327" flag="0"/>
      <psa30 value="0.0277406605" flag="0"/>
    </comp>
  </station>
  <station code="LMN1" name="LMN1" netid="HI" insttype="CMG-5TD,ACCELEROMETER,GURALP" commtype="DIG" lat="39.875" lon="25.0588">
    <comp name="--.HNE">
      <acc value="0.2145991345" flag="0"/>
      <vel value="0.0973527450" flag="0"/>
      <psa03 value="0.6067798273" flag="0"/>
      <psa10 value="0.0644438146" flag="0"/>
      <psa30 value="0.0104177099" flag="0"/>
    </comp>
    <comp name="--.HNN">
      <acc value="0.2414331333" flag="0"/>
      <vel value="0.0927221257" flag="0"/>
      <psa03 value="0.3970339112" flag="0"/>
      <psa10 value="0.0498518799" flag="0"/>
      <psa30 value="0.0084668531" flag="0"/>
    </comp>
    <comp name="--.HNZ">
      <acc value="0.2242845900" flag="0"/>
      <vel value="0.0735736917" flag="0"/>
      <psa03 value="0.1377132051" flag="0"/>
      <psa10 value="0.0425654238" flag="0"/>
      <psa30 value="0.0061063730" flag="0"/>
    </comp>
  </station>
  <station code="PLA1" name="PLA1" netid="HI" insttype="unknown" commtype="DIG" lat="40.5559" lon="22.9886">
    <comp name="--.HNE">
      <acc value="0.4072202480" flag="0"/>
      <vel value="0.2300768987" flag="0"/>
      <psa03 value="1.0647258730" flag="0"/>
      <psa10 value="0.2925767078" flag="0"/>
      <psa30 value="0.0466008668" flag="0"/>
    </comp>
    <comp name="--.HNN">
      <acc value="0.2083463791" flag="0"/>
      <vel value="0.1313491204" flag="0"/>
      <psa03 value="0.6675261926" flag="0"/>
      <psa10 value="0.2546321800" flag="0"/>
      <psa30 value="0.0602305086" flag="0"/>
    </comp>
    <comp name="--.HNZ">
      <acc value="0.1375306635" flag="0"/>
      <vel value="0.1000951323" flag="0"/>
      <psa03 value="0.2800824818" flag="0"/>
      <psa10 value="0.1206332777" flag="0"/>
      <psa30 value="0.0203679585" flag="0"/>
    </comp>
  </station>
  <station code="PLN1" name="PLN1" netid="HI" insttype="CMG-5TD,ACCELEROMETER,GURALP" commtype="DIG" lat="39.998" lon="23.575">
    <comp name="--.HNE">
      <acc value="0.3274269619" flag="0"/>
      <vel value="0.2908687962" flag="0"/>
      <psa03 value="0.8426099889" flag="0"/>
      <psa10 value="0.3418856732" flag="0"/>
      <psa30 value="0.0669070033" flag="0"/>
    </comp>
    <comp name="--.HNN">
      <acc value="0.2883340868" flag="0"/>
      <vel value="0.2356871526" flag="0"/>
      <psa03 value="0.5701541745" flag="0"/>
      <psa10 value="0.4522532167" flag="0"/>
      <psa30 value="0.0668772015" flag="0"/>
    </comp>
    <comp name="--.HNZ">
      <acc value="0.2309937231" flag="0"/>
      <vel value="0.0853380627" flag="0"/>
      <psa03 value="0.4140200793" flag="0"/>
      <psa10 value="0.0852494101" flag="0"/>
      <psa30 value="0.0205780924" flag="0"/>
    </comp>
  </station>
  <station code="SEIS" name="SEIS" netid="HI" insttype="unknown" commtype="DIG" lat="40.6318" lon="22.9628">
    <comp name="--.HNE">
      <acc value="0.0473554419" flag="0"/>
      <vel value="0.0281884560" flag="0"/>
      <psa03 value="0.1381033174" flag="0"/>
      <psa10 value="0.0372218060" flag="0"/>
      <psa30 value="0.0058679505" flag="0"/>
    </comp>
    <comp name="--.HNN">
      <acc value="0.0664226820" flag="0"/>
      <vel value="0.0433574826" flag="0"/>
      <psa03 value="0.1095259622" flag="0"/>
      <psa10 value="0.0594963925" flag="0"/>
      <psa30 value="0.0156284743" flag="0"/>
    </comp>
    <comp name="--.HNZ">
      <acc value="0.0537707661" flag="0"/>
      <vel value="0.0410136656" flag="0"/>
      <psa03 value="0.1284435943" flag="0"/>
      <psa10 value="0.0385797402" flag="0"/>
      <psa30 value="0.0047409853" flag="0"/>
    </comp>
  </station>
  <station code="STL1" name="STL1" netid="HI" insttype="unknown" commtype="DIG" lat="40.6624" lon="22.9353">
    <comp name="--.HNE">
      <acc value="0.2607263188" flag="0"/>
      <vel value="0.0936953598" flag="0"/>
      <psa03 value="0.7812093236" flag="0"/>
      <psa10 value="0.0456786427" flag="0"/>
      <psa30 value="0.0082812646" flag="0"/>
    </comp>
    <comp name="--.HNN">
      <acc value="0.1457235773" flag="0"/>
      <vel value="0.0810478204" flag="0"/>
      <psa03 value="0.4642708332" flag="0"/>
      <psa10 value="0.0715266402" flag="0"/>
      <psa30 value="0.0161676713" flag="0"/>
    </comp>
    <comp name="--.HNZ">
      <acc value="0.0833958622" flag="0"/>
      <vel value="0.0309105905" flag="0"/>
      <psa03 value="0.1846469145" flag="0"/>
      <psa10 value="0.0353812811" flag="0"/>
      <psa30 value="0.0046654856" flag="0"/>
    </comp>
  </station>
  <station code="VOL3" name="VOL3" netid="HI" insttype="unknown" commtype="DIG" lat="39.374" lon="22.9354">
    <comp name="--.HNN">
      <acc value="0.0526947653" flag="0"/>
      <vel value="0.0483929362" flag="0"/>
      <psa03 value="0.1276087312" flag="0"/>
      <psa10 value="0.0711023612" flag="0"/>
      <psa30 value="0.0085918422" flag="0"/>
    </comp>
    <comp name="--.HNE">
      <acc value="0.0590563019" flag="0"/>
      <vel value="0.0534531051" flag="0"/>
      <psa03 value="0.1047497526" flag="0"/>
      <psa10 value="0.0618492271" flag="0"/>
      <psa30 value="0.0050596217" flag="0"/>
    </comp>
    <comp name="--.HNZ">
      <acc value="0.0238720815" flag="0"/>
      <vel value="0.0143676670" flag="0"/>
      <psa03 value="0.0595711888" flag="0"/>
      <psa10 value="0.0170433586" flag="0"/>
      <psa30 value="0.0029486770" flag="0"/>
    </comp>
  </station>
  <station code="XAN2" name="XAN2" netid="HI" insttype="unknown" commtype="DIG" lat="41.142" lon="24.8908">
    <comp name="--.HNE">
      <acc value="0.3474695978" flag="0"/>
      <vel value="0.2091075710" flag="0"/>
      <psa03 value="1.1696774909" flag="0"/>
      <psa10 value="0.3409347233" flag="0"/>
      <psa30 value="0.0177862008" flag="0"/>
    </comp>
    <comp name="--.HNN">
      <acc value="0.2393172133" flag="0"/>
      <vel value="0.2762584601" flag="0"/>
      <psa03 value="0.3751009740" flag="0"/>
      <psa10 value="0.3073942746" flag="0"/>
      <psa30 value="0.0236492243" flag="0"/>
    </comp>
    <comp name="--.HNZ">
      <acc value="0.1067374959" flag="0"/>
      <vel value="0.1156891377" flag="0"/>
      <psa03 value="0.3029680997" flag="0"/>
      <psa10 value="0.1899427412" flag="0"/>
      <psa30 value="0.0155156605" flag="0"/>
    </comp>
  </station>
  <station code="EFSA" name="EFSA" netid="HL" insttype="CMG-5" commtype="DIG" lat="39.5401" lon="24.9886">
    <comp name="00.HNE">
      <acc value="0.0342079034" flag="0"/>
      <vel value="0.0351854991" flag="0"/>
      <psa03 value="0.0756109141" flag="0"/>
      <psa10 value="0.0432277933" flag="0"/>
      <psa30 value="0.0101717587" flag="0"/>
    </comp>
    <comp name="00.HNZ">
      <acc value="0.0390628635" flag="0"/>
      <vel value="0.0221049454" flag="0"/>
      <psa03 value="0.1136194748" flag="0"/>
      <psa10 value="0.0346920496" flag="0"/>
      <psa30 value="0.0042674648" flag="0"/>
    </comp>
    <comp name="00.HNN">
      <acc value="0.0369517876" flag="0"/>
      <vel value="0.0300424882" flag="0"/>
      <psa03 value="0.1056068086" flag="0"/>
      <psa10 value="0.0481139268" flag="0"/>
      <psa30 value="0.0072243143" flag="0"/>
    </comp>
  </station>
  <station code="KOMA" name="KOMA" netid="HL" insttype="CMG-5" commtype="DIG" lat="41.1128" lon="25.3965">
    <comp name="00.HNE">
      <acc value="0.1974943331" flag="0"/>
      <vel value="0.1911403783" flag="0"/>
      <psa03 value="0.5631419231" flag="0"/>
      <psa10 value="0.3509694842" flag="0"/>
      <psa30 value="0.0302443336" flag="0"/>
    </comp>
    <comp name="00.HNZ">
      <acc value="0.1111881336" flag="0"/>
      <vel value="0.0889283349" flag="0"/>
      <psa03 value="0.2666616612" flag="0"/>
      <psa10 value="0.2101140244" flag="0"/>
      <psa30 value="0.0181950527" flag="0"/>
    </comp>
    <comp name="00.HNN">
      <acc value="0.1579909711" flag="0"/>
      <vel value="0.1954309329" flag="0"/>
      <psa03 value="0.6400917873" flag="0"/>
      <psa10 value="0.4360275297" flag="0"/>
      <psa30 value="0.0268276139" flag="0"/>
    </comp>
  </station>
  <station code="KVLA" name="KVLA" netid="HL" insttype="CMG-5" commtype="DIG" lat="40.937" lon="24.3859">
    <comp name="00.HNE">
      <acc value="0.8143953850" flag="0"/>
      <vel value="0.3057837259" flag="0"/>
      <psa03 value="1.4393653402" flag="0"/>
      <psa10 value="0.1407876787" flag="0"/>
      <psa30 value="0.0105188285" flag="0"/>
    </comp>
    <comp name="00.HNZ">
      <acc value="0.3680192512" flag="0"/>
      <vel value="0.1108635484" flag="0"/>
      <psa03 value="0.7159455711" flag="0"/>
      <psa10 value="0.0606370324" flag="0"/>
      <psa30 value="0.0067112044" flag="0"/>
    </comp>
    <comp name="00.HNN">
      <acc value="0.4532701943" flag="0"/>
      <vel value="0.1967323421" flag="0"/>
      <psa03 value="0.9110902925" flag="0"/>
      <psa10 value="0.0607240537" flag="0"/>
      <psa30 value="0.0064715703" flag="0"/>
    </comp>
  </station>
  <station code="LIA" name="LIA" netid="HL" insttype="GMG5TD" commtype="DIG" lat="39.8972" lon="25.1806">
    <comp name="00.HNN">
      <acc value="0.1464428593" flag="0"/>
      <vel value="0.0540327417" flag="0"/>
      <psa03 value="0.2112135922" flag="0"/>
      <psa10 value="0.0617040413" flag="0"/>
      <psa30 value="0.0065458247" flag="0"/>
    </comp>
    <comp name="00.HNZ">
      <acc value="0.0894285983" flag="0"/>
      <vel value="0.0398737712" flag="0"/>
      <psa03 value="0.1281396005" flag="0"/>
      <psa10 value="0.0515440190" flag="0"/>
      <psa30 value="0.0084691527" flag="0"/>
    </comp>
    <comp name="00.HNE">
      <acc value="0.0924774392" flag="0"/>
      <vel value="0.0619938251" flag="0"/>
      <psa03 value="0.2375456394" flag="0"/>
      <psa10 value="0.0633383614" flag="0"/>
      <psa30 value="0.0049547138" flag="0"/>
    </comp>
  </station>
  <station code="NEO" name="NEO" netid="HL" insttype="120" commtype="DIG" lat="39.3057" lon="23.2219">
    <comp name="--.HHN">
      <acc value="0.0391950406" flag="0"/>
      <vel value="0.0364453647" flag="0"/>
      <psa03 value="0.1206329966" flag="0"/>
      <psa10 value="0.0398924873" flag="0"/>
      <psa30 value="0.0114298253" flag="0"/>
    </comp>
    <comp name="--.HHZ">
      <acc value="0.0274636388" flag="0"/>
      <vel value="0.0240172298" flag="0"/>
      <psa03 value="0.0590139434" flag="0"/>
      <psa10 value="0.0384919365" flag="0"/>
      <psa30 value="0.0036187905" flag="0"/>
    </comp>
    <comp name="--.HHE">
      <acc value="0.0294492089" flag="0"/>
      <vel value="0.0292159628" flag="0"/>
      <psa03 value="0.1226374774" flag="0"/>
      <psa10 value="0.0336106530" flag="0"/>
      <psa30 value="0.0053406957" flag="0"/>
    </comp>
  </station>
  <station code="NGRA" name="NGRA" netid="HL" insttype="CMG-5" commtype="DIG" lat="40.9075" lon="23.4993">
    <comp name="00.HNZ">
      <acc value="0.2188503933" flag="0"/>
      <vel value="0.1979186324" flag="0"/>
      <psa03 value="0.6708402083" flag="0"/>
      <psa10 value="0.4453743448" flag="0"/>
      <psa30 value="0.0170460148" flag="0"/>
    </comp>
    <comp name="00.HNN">
      <acc value="0.3875624754" flag="0"/>
      <vel value="0.3207345589" flag="0"/>
      <psa03 value="1.1860174947" flag="0"/>
      <psa10 value="0.5578017724" flag="0"/>
      <psa30 value="0.0300464694" flag="0"/>
    </comp>
    <comp name="00.HNE">
      <acc value="0.4861508189" flag="0"/>
      <vel value="0.4164101165" flag="0"/>
      <psa03 value="1.3993214024" flag="0"/>
      <psa10 value="0.8594538402" flag="0"/>
      <psa30 value="0.0490132073" flag="0"/>
    </comp>
  </station>
  <station code="PLG" name="PLG" netid="HL" insttype="120" commtype="DIG" lat="40.3733" lon="23.4444">
    <comp name="--.HHN">
      <acc value="0.4779586087" flag="0"/>
      <vel value="0.1533332257" flag="0"/>
      <psa03 value="0.6720521460" flag="0"/>
      <psa10 value="0.2739091043" flag="0"/>
      <psa30 value="0.0298832872" flag="0"/>
    </comp>
    <comp name="--.HHZ">
      <acc value="0.4727449823" flag="0"/>
      <vel value="0.2277935072" flag="0"/>
      <psa03 value="1.4479574162" flag="0"/>
      <psa10 value="0.1255039583" flag="0"/>
      <psa30 value="0.0206417220" flag="0"/>
    </comp>
  </station>
  <station code="PRAS" name="PRAS" netid="HL" insttype="120" commtype="DIG" lat="41.3524" lon="24.55">
    <comp name="--.HHE">
      <acc value="0.2247574366" flag="0"/>
      <vel value="0.1032273772" flag="0"/>
      <psa03 value="0.4358989478" flag="0"/>
      <psa10 value="0.0917375858" flag="0"/>
      <psa30 value="0.0087458896" flag="0"/>
    </comp>
    <comp name="--.HHN">
      <acc value="0.2680832883" flag="0"/>
      <vel value="0.1589059925" flag="0"/>
      <psa03 value="0.5824161472" flag="0"/>
      <psa10 value="0.0990269750" flag="0"/>
      <psa30 value="0.0065634743" flag="0"/>
    </comp>
    <comp name="--.HHZ">
      <acc value="0.1261874181" flag="0"/>
      <vel value="0.0644475061" flag="0"/>
      <psa03 value="0.3190667884" flag="0"/>
      <psa10 value="0.1269950265" flag="0"/>
      <psa30 value="0.0114905159" flag="0"/>
    </comp>
  </station>
  <station code="XANC" name="XANC" netid="HL" insttype="CMG-5" commtype="DIG" lat="40.9798" lon="24.9529">
    <comp name="00.HNE">
      <acc value="0.6328123902" flag="0"/>
      <vel value="0.3315976721" flag="0"/>
      <psa03 value="1.1832872495" flag="0"/>
      <psa10 value="0.3221381517" flag="0"/>
      <psa30 value="0.0350421744" flag="0"/>
    </comp>
    <comp name="00.HNN">
      <acc value="0.8949838060" flag="0"/>
      <vel value="0.4401798918" flag="0"/>
      <psa03 value="1.5149330946" flag="0"/>
      <psa10 value="0.1931645974" flag="0"/>
      <psa30 value="0.0268812938" flag="0"/>
    </comp>
    <comp name="00.HNZ">
      <acc value="0.4523912988" flag="0"/>
      <vel value="0.2142065690" flag="0"/>
      <psa03 value="0.7450748979" flag="0"/>
      <psa10 value="0.2203774620" flag="0"/>
      <psa30 value="0.0137286992" flag="0"/>
    </comp>
  </station>
  <station code="AOS2" name="AOS2" netid="HT" insttype="100" commtype="DIG" lat="39.1478" lon="23.8436">
    <comp name="--.HHN">
      <acc value="0.0208098381" flag="0"/>
      <vel value="0.0124612396" flag="0"/>
      <psa03 value="0.0636741614" flag="0"/>
      <psa10 value="0.0219129710" flag="0"/>
      <psa30 value="0.0051333090" flag="0"/>
    </comp>
    <comp name="--.HHZ">
      <acc value="0.0151380206" flag="0"/>
      <vel value="0.0137193017" flag="0"/>
      <psa03 value="0.0389357435" flag="0"/>
      <psa10 value="0.0169740038" flag="0"/>
      <psa30 value="0.0023552234" flag="0"/>
    </comp>
    <comp name="--.HHE">
      <acc value="0.0157778358" flag="0"/>
      <vel value="0.0177713629" flag="0"/>
      <psa03 value="0.0462802252" flag="0"/>
      <psa10 value="0.0193362418" flag="0"/>
      <psa30 value="0.0037129009" flag="0"/>
    </comp>
  </station>
  <station code="HMT1" name="HMT1" netid="HT" insttype="Compact," commtype="DIG" lat="40.2581" lon="24.2476">
    <comp name="--.HHZ">
      <acc value="7.5690815259" flag="0"/>
      <vel value="0.9539659938" flag="0"/>
      <psa03 value="1.9590359474" flag="0"/>
      <psa10 value="0.2178674302" flag="0"/>
      <psa30 value="0.0359913663" flag="0"/>
