<?xml version="1.0" encoding="UTF-8" standalone="yes"?>
<!DOCTYPE earthquake SYSTEM "stationlist.dtd">
<stationlist created="" xmlns="ch.ethz.sed.shakemap.usgs.xml">
  <station code="BISRR" name="BISRR" netid="RO" insttype="CMG40T.1to100/Basalt" lat="45.5481" lon="26.7099">
    <comp name="--.HHZ">
      <acc value="0.0422660463" flag="0"/>
      <vel value="0.0057998776" flag="0"/>
      <psa03 value="0.0203484291" flag="0"/>
      <psa10 value="0.0017326525" flag="0"/>
      <psa30 value="0.0001240908" flag="0"/>
    </comp>
    <comp name="--.HHE">
      <acc value="0.0460908328" flag="0"/>
      <vel value="0.0078485767" flag="0"/>
      <psa03 value="0.0329280730" flag="0"/>
      <psa10 value="0.0037316464" flag="0"/>
      <psa30 value="0.0003821706" flag="0"/>
    </comp>
    <comp name="--.HHN">
      <acc value="0.0004406791" flag="0"/>
      <vel value="0.0001067696" flag="0"/>
      <psa03 value="0.0003204836" flag="0"/>
      <psa10 value="0.0000259384" flag="0"/>
      <psa30 value="0.0000037084" flag="0"/>
    </comp>
  </station>
  <station code="MLR" name="MLR" netid="RO" insttype="330HR" lat="45.4909" lon="25.945">
    <comp name="--.HHE">
      <acc value="0.0481713145" flag="0"/>
      <vel value="0.0213460175" flag="0"/>
      <psa03 value="0.0889174760" flag="0"/>
      <psa10 value="0.0103919531" flag="0"/>
      <psa30 value="0.0012812070" flag="0"/>
    </comp>
    <comp name="--.HHZ">
      <acc value="0.0059163263" flag="0"/>
      <vel value="0.0013951000" flag="0"/>
      <psa03 value="0.0067832830" flag="0"/>
      <psa10 value="0.0008004496" flag="0"/>
      <psa30 value="0.0000537309" flag="0"/>
    </comp>
    <comp name="--.HHN">
      <acc value="0.0413622007" flag="0"/>
      <vel value="0.0176449890" flag="0"/>
      <psa03 value="0.0990793690" flag="0"/>
      <psa10 value="0.0088775596" flag="0"/>
      <psa30 value="0.0007213174" flag="0"/>
    </comp>
  </station>
  <station code="PLOR" name="PLOR" netid="RO" insttype="330" lat="45.8512" lon="26.6498">
    <comp name="--.HHZ">
      <acc value="0.0083248893" flag="0"/>
      <vel value="0.0015491791" flag="0"/>
      <psa03 value="0.0053628463" flag="0"/>
      <psa10 value="0.0003823373" flag="0"/>
      <psa30 value="0.0000228411" flag="0"/>
    </comp>
    <comp name="--.HHN">
      <acc value="0.0075903668" flag="0"/>
      <vel value="0.0025383893" flag="0"/>
      <psa03 value="0.0122552105" flag="0"/>
      <psa10 value="0.0007785905" flag="0"/>
      <psa30 value="0.0000773940" flag="0"/>
    </comp>
    <comp name="--.HHE">
      <acc value="0.0067262339" flag="0"/>
      <vel value="0.0024658735" flag="0"/>
      <psa03 value="0.0151905184" flag="0"/>
      <psa10 value="0.0008969149" flag="0"/>
      <psa30 value="0.0000585293" flag="0"/>
    </comp>
  </station>
  <station code="PLOR4" name="PLOR4" netid="RO" insttype="330" lat="45.8512" lon="26.6498">
    <comp name="--.HHE">
      <acc value="0.0067262339" flag="0"/>
      <vel value="0.0024658735" flag="0"/>
      <psa03 value="0.0151905184" flag="0"/>
      <psa10 value="0.0008969149" flag="0"/>
      <psa30 value="0.0000585293" flag="0"/>
    </comp>
    <comp name="--.HHZ">
      <acc value="0.0083248893" flag="0"/>
      <vel value="0.0015491791" flag="0"/>
      <psa03 value="0.0053628463" flag="0"/>
      <psa10 value="0.0003823373" flag="0"/>
      <psa30 value="0.0000228411" flag="0"/>
    </comp>
    <comp name="--.HHN">
      <acc value="0.0075903668" flag="0"/>
      <vel value="0.0025383893" flag="0"/>
      <psa03 value="0.0122552105" flag="0"/>
      <psa10 value="0.0007785905" flag="0"/>
      <psa30 value="0.0000773940" flag="0"/>
    </comp>
  </station>
  <station code="SULR" name="SULR" netid="RO" insttype="330" lat="44.6777" lon="26.2526">
    <comp name="--.HHE">
      <acc value="0.0291451642" flag="0"/>
      <vel value="0.0123363873" flag="0"/>
      <psa03 value="0.0464495479" flag="0"/>
      <psa10 value="0.0044032937" flag="0"/>
      <psa30 value="0.0003371196" flag="0"/>
    </comp>
    <comp name="--.HHN">
      <acc value="0.0257366331" flag="0"/>
      <vel value="0.0081267967" flag="0"/>
      <psa03 value="0.0413649499" flag="0"/>
      <psa10 value="0.0040324138" flag="0"/>
      <psa30 value="0.0002667955" flag="0"/>
    </comp>
    <comp name="--.HHZ">
      <acc value="0.0279717363" flag="0"/>
      <vel value="0.0050950921" flag="0"/>
      <psa03 value="0.0159640483" flag="0"/>
      <psa10 value="0.0007822467" flag="0"/>
      <psa30 value="0.0000776434" flag="0"/>
    </comp>
  </station>
  <station code="TESR" name="TESR" netid="RO" insttype="330" lat="46.5118" lon="26.6489">
    <comp name="--.HHN">
      <acc value="0.0130318625" flag="0"/>
      <vel value="0.0035334771" flag="0"/>
      <psa03 value="0.0159086398" flag="0"/>
      <psa10 value="0.0007811784" flag="0"/>
      <psa30 value="0.0001051664" flag="0"/>
    </comp>
    <comp name="--.HHE">
      <acc value="0.0127118875" flag="0"/>
      <vel value="0.0031364179" flag="0"/>
      <psa03 value="0.0122443021" flag="0"/>
      <psa10 value="0.0010524535" flag="0"/>
      <psa30 value="0.0000790738" flag="0"/>
    </comp>
    <comp name="--.HHZ">
      <acc value="0.0061603155" flag="0"/>
      <vel value="0.0010741842" flag="0"/>
      <psa03 value="0.0032208267" flag="0"/>
      <psa10 value="0.0003386231" flag="0"/>
      <psa30 value="0.0000236716" flag="0"/>
    </comp>
  </station>
  <station code="VOIR" name="VOIR" netid="RO" insttype="330" lat="45.4371" lon="25.0495">
    <comp name="--.HHE">
      <acc value="0.0032363892" flag="0"/>
      <vel value="0.0008528910" flag="0"/>
      <psa03 value="0.0051810032" flag="0"/>
      <psa10 value="0.0003053445" flag="0"/>
      <psa30 value="0.0000255022" flag="0"/>
    </comp>
    <comp name="--.HHZ">
      <acc value="0.0015951304" flag="0"/>
      <vel value="0.0004036778" flag="0"/>
      <psa03 value="0.0024514957" flag="0"/>
      <psa10 value="0.0001643274" flag="0"/>
      <psa30 value="0.0000120081" flag="0"/>
    </comp>
    <comp name="--.HHN">
      <acc value="0.0027421560" flag="0"/>
      <vel value="0.0005265879" flag="0"/>
      <psa03 value="0.0021815728" flag="0"/>
      <psa10 value="0.0003091230" flag="0"/>
      <psa30 value="0.0000190249" flag="0"/>
    </comp>
  </station>
  <station code="VRI" name="VRI" netid="RO" insttype="Linear" lat="45.8657" lon="26.7277">
    <comp name="--.HHE">
      <acc value="0.0337609655" flag="0"/>
      <vel value="0.0097378088" flag="0"/>
      <psa03 value="0.0939551419" flag="0"/>
      <psa10 value="0.0029626165" flag="0"/>
      <psa30 value="0.0002441679" flag="0"/>
    </comp>
    <comp name="--.HHZ">
      <acc value="0.0328586454" flag="0"/>
      <vel value="0.0052932860" flag="0"/>
      <psa03 value="0.0096076220" flag="0"/>
      <psa10 value="0.0008041920" flag="0"/>
      <psa30 value="0.0001015575" flag="0"/>
    </comp>
    <comp name="--.HHN">
      <acc value="0.0124734587" flag="0"/>
      <vel value="0.0040512920" flag="0"/>
      <psa03 value="0.0304067162" flag="0"/>
      <psa10 value="0.0015648154" flag="0"/>
      <psa30 value="0.0001249543" flag="0"/>
    </comp>
  </station>
</stationlist>
