<?xml version="1.0" encoding="UTF-8" standalone="yes"?>
<!DOCTYPE earthquake SYSTEM "stationlist.dtd">
<stationlist created="" xmlns="ch.ethz.sed.shakemap.usgs.xml">
  <station code="AMGA" name="AMGA" netid="HL" insttype="LE3D20_SMART24" commtype="DIG" lat="36.8316" lon="25.8938">
    <comp name="--.HHZ">
      <acc value="0.0087882837" flag="0"/>
      <vel value="0.0009647180" flag="0"/>
      <psa03 value="0.0020569529" flag="0"/>
      <psa10 value="0.0001391798" flag="0"/>
      <psa30 value="0.0000222965" flag="0"/>
    </comp>
    <comp name="--.HHN">
      <acc value="0.0110676332" flag="0"/>
      <vel value="0.0011660306" flag="0"/>
      <psa03 value="0.0027405314" flag="0"/>
      <psa10 value="0.0002307649" flag="0"/>
      <psa30 value="0.0000154498" flag="0"/>
    </comp>
    <comp name="--.HHE">
      <acc value="0.0089985253" flag="0"/>
      <vel value="0.0015523220" flag="0"/>
      <psa03 value="0.0025693456" flag="0"/>
      <psa10 value="0.0002395611" flag="0"/>
      <psa30 value="0.0000220585" flag="0"/>
    </comp>
  </station>
  <station code="ANYD" name="ANYD" netid="HT" insttype="120" commtype="DIG" lat="36.63" lon="25.6779">
    <comp name="--.HHZ">
      <acc value="0.0041914754" flag="0"/>
      <vel value="0.0004442251" flag="0"/>
      <psa03 value="0.0007055713" flag="0"/>
      <psa10 value="0.0000473211" flag="0"/>
      <psa30 value="0.0000065054" flag="0"/>
    </comp>
    <comp name="--.HHE">
      <acc value="0.0034549610" flag="0"/>
      <vel value="0.0004702603" flag="0"/>
      <psa03 value="0.0017757296" flag="0"/>
      <psa10 value="0.0000752486" flag="0"/>
      <psa30 value="0.0000140900" flag="0"/>
    </comp>
    <comp name="--.HHN">
      <acc value="0.0042282481" flag="0"/>
      <vel value="0.0006980679" flag="0"/>
      <psa03 value="0.0017376489" flag="0"/>
      <psa10 value="0.0001094724" flag="0"/>
      <psa30 value="0.0000101795" flag="0"/>
    </comp>
  </station>
</stationlist>
