<?xml version="1.0" encoding="UTF-8" standalone="yes"?>
<!DOCTYPE earthquake SYSTEM "stationlist.dtd">
<stationlist created="" xmlns="ch.ethz.sed.shakemap.usgs.xml">
  <station code="ANDN" name="ANDN" netid="TU" source="ODC" insttype="T" lat="37.58" lon="36.3452">
    <comp name="--.HHE">
      <acc value="0.9280065724" flag="0"/>
      <vel value="0.1776281630" flag="0"/>
      <psa03 value="1.0081374179" flag="0"/>
      <psa10 value="0.2035284695" flag="0"/>
      <psa30 value="0.0147527816" flag="0"/>
    </comp>
    <comp name="--.HHN">
      <acc value="1.3568577836" flag="0"/>
      <vel value="0.3135294606" flag="0"/>
      <psa03 value="1.1031514585" flag="0"/>
      <psa10 value="0.1777152222" flag="0"/>
      <psa30 value="0.0111992496" flag="0"/>
    </comp>
    <comp name="--.HHZ">
      <acc value="0.3934897638" flag="0"/>
      <vel value="0.1148790346" flag="0"/>
      <psa03 value="0.3739490371" flag="0"/>
      <psa10 value="0.2014221959" flag="0"/>
      <psa30 value="0.0080353826" flag="0"/>
    </comp>
  </station>
</stationlist>
