<stationlist created="1778136684">
	<station code="NIG" name="NIG" netid="KO" source="Bogazici University Kandilli Observatory And Earthquake Research Institute (KOERI)" insttype="" lat="38.108" lon="34.6142">
		<comp name="--.HNE" depth="0.0">
			<acc value="0.0168316215498147" flag="0"/>
			<vel value="0.01116302004626" flag="0"/>
			<psa03 value="0.0618742134462168" flag="0"/>
			<psa10 value="0.017947052029134" flag="0"/>
			<psa30 value="0.000785324367633665" flag="0"/>
		</comp>
		<comp name="--.HNN" depth="0.0">
			<acc value="0.0251509767188856" flag="0"/>
			<vel value="0.0174142910775706" flag="0"/>
			<psa03 value="0.0988259425671632" flag="0"/>
			<psa10 value="0.0237955232116289" flag="0"/>
			<psa30 value="0.00135555334042106" flag="0"/>
		</comp>
		<comp name="--.HNZ" depth="0.0">
			<acc value="0.0102600480740866" flag="0"/>
			<vel value="0.00778313870441711" flag="0"/>
			<psa03 value="0.0274505528393841" flag="0"/>
			<psa10 value="0.0102687549421115" flag="0"/>
			<psa30 value="0.000900857906581012" flag="0"/>
		</comp>
	</station>
</stationlist>
