<stationlist created="1778205304">
	<station code="BOURR" name="BOURR" netid="CH" source="Switzerland Seismological Network" insttype="" lat="47.39364" lon="7.2301">
		<comp name="--.HGE" depth="0.0">
			<acc value="0.00579773607523909" flag="0"/>
			<vel value="0.00172066577370646" flag="0"/>
			<psa03 value="0.0123935912332613" flag="0"/>
			<psa10 value="0.000914083281211292" flag="0"/>
			<psa30 value="6.80081540597731e-05" flag="0"/>
		</comp>
		<comp name="--.HGN" depth="0.0">
			<acc value="0.00383060563011934" flag="0"/>
			<vel value="0.00141279663790465" flag="0"/>
			<psa03 value="0.00621916671993977" flag="0"/>
			<psa10 value="0.000793279323341958" flag="0"/>
			<psa30 value="5.36906479419261e-05" flag="0"/>
		</comp>
		<comp name="--.HGZ" depth="0.0">
			<acc value="0.00414180147435166" flag="0"/>
			<vel value="0.00122312627227199" flag="0"/>
			<psa03 value="0.00697978423245039" flag="0"/>
			<psa10 value="0.00103488723908063" flag="0"/>
			<psa30 value="4.69793169491853e-05" flag="0"/>
		</comp>
	</station>
	<station code="DIX" name="DIX" netid="CH" source="Switzerland Seismological Network" insttype="" lat="46.081053" lon="7.408391">
		<comp name="--.HGE" depth="0.0">
			<acc value="0.000868211621632066" flag="0"/>
			<vel value="0.000409561637549683" flag="0"/>
			<psa03 value="0.00223711033091359" flag="0"/>
			<psa10 value="0.000221473922760445" flag="0"/>
			<psa30 value="1.83443047134914e-05" flag="0"/>
		</comp>
		<comp name="--.HGN" depth="0.0">
			<acc value="0.00111333688240388" flag="0"/>
			<vel value="0.00040644904252614" flag="0"/>
			<psa03 value="0.00304247005004248" flag="0"/>
			<psa10 value="0.000237581117143023" flag="0"/>
			<psa30 value="1.78968826473087e-05" flag="0"/>
		</comp>
		<comp name="--.HGZ" depth="0.0">
			<acc value="0.000854054038281098" flag="0"/>
			<vel value="0.00038060578195718" flag="0"/>
			<psa03 value="0.00268453239709631" flag="0"/>
			<psa10 value="0.000193286332590934" flag="0"/>
			<psa30 value="1.25278178531161e-05" flag="0"/>
		</comp>
	</station>
	<station code="GIMEL" name="GIMEL" netid="CH" source="Switzerland Seismological Network" insttype="" lat="46.53364" lon="6.26545">
		<comp name="--.HGE" depth="0.0">
			<acc value="0.0194241481102636" flag="0"/>
			<vel value="0.00463232170507573" flag="0"/>
			<psa03 value="0.0297535674011507" flag="0"/>
			<psa10 value="0.000873815295254847" flag="0"/>
			<psa30 value="0.000102907075222025" flag="0"/>
		</comp>
		<comp name="--.HGN" depth="0.0">
			<acc value="0.0138126448479997" flag="0"/>
			<vel value="0.0026721920862089" flag="0"/>
			<psa03 value="0.0116777159273689" flag="0"/>
			<psa10 value="0.00070468975423778" flag="0"/>
			<psa30 value="5.27958038095607e-05" flag="0"/>
		</comp>
		<comp name="--.HGZ" depth="0.0">
			<acc value="0.00880234177614743" flag="0"/>
			<vel value="0.00293576108904297" flag="0"/>
			<psa03 value="0.0143622483244652" flag="0"/>
			<psa10 value="0.00055972500479458" flag="0"/>
			<psa30 value="8.00885498467064e-05" flag="0"/>
		</comp>
	</station>
	<station code="HAMIK" name="HAMIK" netid="CH" source="Switzerland Seismological Network" insttype="" lat="47.24508" lon="8.27061">
		<comp name="SF.HGE" depth="1.0">
			<acc value="0.00676743521574917" flag="0"/>
			<vel value="0.00181422645322379" flag="0"/>
			<psa03 value="0.00626390892655805" flag="0"/>
			<psa10 value="0.0013771651197104" flag="0"/>
			<psa30 value="7.51669071186965e-05" flag="0"/>
		</comp>
		<comp name="SF.HGN" depth="1.0">
			<acc value="0.0093093596265714" flag="0"/>
			<vel value="0.00277193824401477" flag="0"/>
			<psa03 value="0.00814308160452546" flag="0"/>
			<psa10 value="0.00162279983404472" flag="0"/>
			<psa30 value="9.88802766263806e-05" flag="0"/>
		</comp>
		<comp name="SF.HGZ" depth="1.0">
			<acc value="0.00373598560727981" flag="0"/>
			<vel value="0.00115793563579567" flag="0"/>
			<psa03 value="0.00384782976917137" flag="0"/>
			<psa10 value="0.00055972500479458" flag="0"/>
			<psa30 value="4.96638493462816e-05" flag="0"/>
		</comp>
	</station>
	<station code="MTI01" name="MTI01" netid="CH" source="Switzerland Seismological Network" insttype="" lat="47.37911" lon="7.16541">
		<comp name="--.HGE" depth="0.0">
			<acc value="0.00728808044398758" flag="0"/>
			<vel value="0.0015221805856413" flag="0"/>
			<psa03 value="0.00648761995964941" flag="0"/>
			<psa10 value="0.000555698206198935" flag="0"/>
			<psa30 value="5.68226024052051e-05" flag="0"/>
		</comp>
		<comp name="--.HGN" depth="0.0">
			<acc value="0.00651566275731244" flag="0"/>
			<vel value="0.00141778588175825" flag="0"/>
			<psa03 value="0.00456370507506372" flag="0"/>
			<psa10 value="0.000720796948620358" flag="0"/>
			<psa30 value="5.23483817433779e-05" flag="0"/>
		</comp>
		<comp name="--.HGZ" depth="0.0">
			<acc value="0.0085005374479263" flag="0"/>
			<vel value="0.00152434897240181" flag="0"/>
			<psa03 value="0.00917215235674571" flag="0"/>
			<psa10 value="0.000922136878402581" flag="0"/>
			<psa30 value="3.98205638902619e-05" flag="0"/>
		</comp>
	</station>
	<station code="MTI03" name="MTI03" netid="CH" source="Switzerland Seismological Network" insttype="" lat="47.371595" lon="7.166948">
		<comp name="00.HGE" depth="0.0">
			<acc value="0.0321594999208575" flag="0"/>
			<vel value="0.00596606125722062" flag="0"/>
			<psa03 value="0.0299772784342421" flag="0"/>
			<psa10 value="0.0030160721481377" flag="0"/>
			<psa30 value="0.000156597723163951" flag="0"/>
		</comp>
		<comp name="00.HGN" depth="0.0">
			<acc value="0.0293223311764456" flag="0"/>
			<vel value="0.00559155407683382" flag="0"/>
			<psa03 value="0.0208946104907329" flag="0"/>
			<psa10 value="0.00271406225346436" flag="0"/>
			<psa30 value="0.000158834833494865" flag="0"/>
		</comp>
		<comp name="00.HGZ" depth="0.0">
			<acc value="0.0172363357309635" flag="0"/>
			<vel value="0.00367154078296577" flag="0"/>
			<psa03 value="0.0152570924568307" flag="0"/>
			<psa10 value="0.00165904102140552" flag="0"/>
			<psa30 value="0.00011364520481041" flag="0"/>
		</comp>
	</station>
	<station code="SARK" name="SARK" netid="CH" source="Switzerland Seismological Network" insttype="" lat="46.8914" lon="8.24316">
		<comp name="--.HGE" depth="1.0">
			<acc value="0.00552847517622707" flag="0"/>
			<vel value="0.00141316997365574" flag="0"/>
			<psa03 value="0.00456370507506372" flag="0"/>
			<psa10 value="0.000342277880629779" flag="0"/>
			<psa30 value="3.71360314931655e-05" flag="0"/>
		</comp>
		<comp name="--.HGN" depth="1.0">
			<acc value="0.0121545110232359" flag="0"/>
			<vel value="0.0031452683194254" flag="0"/>
			<psa03 value="0.010693387381767" flag="0"/>
			<psa10 value="0.000664421768281335" flag="0"/>
			<psa30 value="7.02452643906866e-05" flag="0"/>
		</comp>
		<comp name="--.HGZ" depth="1.0">
			<acc value="0.00362905331449939" flag="0"/>
			<vel value="0.000786036749048477" flag="0"/>
			<psa03 value="0.00599545568684842" flag="0"/>
			<psa10 value="0.000487242630072979" flag="0"/>
			<psa30 value="2.81875901695112e-05" flag="0"/>
		</comp>
	</station>
	<station code="SAUR" name="SAUR" netid="CH" source="Switzerland Seismological Network" insttype="" lat="47.5339" lon="7.7228">
		<comp name="--.HGE" depth="0.0">
			<acc value="0.0120729185914279" flag="0"/>
			<vel value="0.00317107173306621" flag="0"/>
			<psa03 value="0.0221473922760445" flag="0"/>
			<psa10 value="0.00153823706353618" flag="0"/>
			<psa30 value="7.51669071186965e-05" flag="0"/>
		</comp>
		<comp name="--.HGN" depth="0.0">
			<acc value="0.0123559055012721" flag="0"/>
			<vel value="0.00439562969119373" flag="0"/>
			<psa03 value="0.0214762591767704" flag="0"/>
			<psa10 value="0.000889922489637425" flag="0"/>
			<psa30 value="0.00010380191935439" flag="0"/>
		</comp>
		<comp name="--.HGZ" depth="0.0">
			<acc value="0.011662927181548" flag="0"/>
			<vel value="0.00279495548739372" flag="0"/>
			<psa03 value="0.0106039029685304" flag="0"/>
			<psa10 value="0.000599992990751024" flag="0"/>
			<psa30 value="3.89257197578964e-05" flag="0"/>
		</comp>
	</station>
	<station code="SBAF" name="SBAF" netid="CH" source="Switzerland Seismological Network" insttype="" lat="47.58375" lon="7.59202">
		<comp name="--.HGE" depth="0.0">
			<acc value="0.0111372436042367" flag="0"/>
			<vel value="0.00308284364936143" flag="0"/>
			<psa03 value="0.0124830756464978" flag="0"/>
			<psa10 value="0.00257312430261681" flag="0"/>
			<psa30 value="0.000114987471008958" flag="0"/>
		</comp>
		<comp name="--.HGN" depth="0.0">
			<acc value="0.011987876978897" flag="0"/>
			<vel value="0.00295084824446373" flag="0"/>
			<psa03 value="0.0110065828280949" flag="0"/>
			<psa10 value="0.00212614965850027" flag="0"/>
			<psa30 value="0.000109170984148583" flag="0"/>
		</comp>
		<comp name="--.HGZ" depth="0.0">
			<acc value="0.00831908508932416" flag="0"/>
			<vel value="0.00143256701343692" flag="0"/>
			<psa03 value="0.00639813554641286" flag="0"/>
			<psa10 value="0.000761064934576803" flag="0"/>
			<psa30 value="7.20349526554175e-05" flag="0"/>
		</comp>
	</station>
	<station code="SBIK" name="SBIK" netid="CH" source="Switzerland Seismological Network" insttype="" lat="47.13443" lon="7.24705">
		<comp name="--.HGE" depth="1.0">
			<acc value="0.037222528000857" flag="0"/>
			<vel value="0.00990962043924863" flag="0"/>
			<psa03 value="0.0491716850734807" flag="0"/>
			<psa10 value="0.00434491568470037" flag="0"/>
			<psa30 value="0.000221921344826628" flag="0"/>
		</comp>
		<comp name="--.HGN" depth="1.0">
			<acc value="0.0681350814411899" flag="0"/>
			<vel value="0.0185744840605851" flag="0"/>
			<psa03 value="0.054988171933856" flag="0"/>
			<psa10 value="0.00449390723273922" flag="0"/>
			<psa30 value="0.000340935614431231" flag="0"/>
		</comp>
		<comp name="--.HGZ" depth="1.0">
			<acc value="0.0159292754714002" flag="0"/>
			<vel value="0.00322851440748639" flag="0"/>
			<psa03 value="0.0168678118950885" flag="0"/>
			<psa10 value="0.00139729911268863" flag="0"/>
			<psa30 value="9.57483221631015e-05" flag="0"/>
		</comp>
	</station>
	<station code="SCOU" name="SCOU" netid="CH" source="Switzerland Seismological Network" insttype="" lat="46.854" lon="7.1037">
		<comp name="--.HGE" depth="0.0">
			<acc value="0.01292296321878" flag="0"/>
			<vel value="0.00396068221475878" flag="0"/>
			<psa03 value="0.0175389449943625" flag="0"/>
			<psa10 value="0.00139327231409298" flag="0"/>
			<psa30 value="8.81421470379953e-05" flag="0"/>
		</comp>
		<comp name="--.HGN" depth="0.0">
			<acc value="0.0199133677041796" flag="0"/>
			<vel value="0.00712806422219603" flag="0"/>
			<psa03 value="0.0285007856158391" flag="0"/>
			<psa10 value="0.00176373778489227" flag="0"/>
			<psa30 value="0.000168678118950884" flag="0"/>
		</comp>
		<comp name="--.HGZ" depth="0.0">
			<acc value="0.00650517715734426" flag="0"/>
			<vel value="0.0020909441260151" flag="0"/>
			<psa03 value="0.00706926864568694" flag="0"/>
			<psa10 value="0.000583885796368446" flag="0"/>
			<psa30 value="5.32432258757434e-05" flag="0"/>
		</comp>
	</station>
	<station code="SDES" name="SDES" netid="CH" source="Switzerland Seismological Network" insttype="" lat="47.368527" lon="7.339875">
		<comp name="--.HGE" depth="1.0">
			<acc value="0.00852964187721497" flag="0"/>
			<vel value="0.00238551451717758" flag="0"/>
			<psa03 value="0.00626390892655805" flag="0"/>
			<psa10 value="0.00125233436324543" flag="0"/>
			<psa30 value="8.59050367070817e-05" flag="0"/>
		</comp>
		<comp name="--.HGN" depth="1.0">
			<acc value="0.00585081063101255" flag="0"/>
			<vel value="0.00226543334661571" flag="0"/>
			<psa03 value="0.00644287775303113" flag="0"/>
			<psa10 value="0.00143354030004943" flag="0"/>
			<psa30 value="0.000112750360678045" flag="0"/>
		</comp>
		<comp name="--.HGZ" depth="1.0">
			<acc value="0.00735168674416003" flag="0"/>
			<vel value="0.00211624789798717" flag="0"/>
			<psa03 value="0.0108276140016218" flag="0"/>
			<psa10 value="0.00102280684329369" flag="0"/>
			<psa30 value="6.21916671993977e-05" flag="0"/>
		</comp>
	</station>
	<station code="SEMOS" name="SEMOS" netid="CH" source="Switzerland Seismological Network" insttype="" lat="46.06771" lon="6.93499">
		<comp name="--.HGE" depth="0.0">
			<acc value="0.00295743748361552" flag="0"/>
			<vel value="0.000734372387278166" flag="0"/>
			<psa03 value="0.00286350122356939" flag="0"/>
			<psa10 value="0.000398653060968801" flag="0"/>
			<psa30 value="4.07154080226273e-05" flag="0"/>
		</comp>
		<comp name="--.HGN" depth="0.0">
			<acc value="0.00507731718793963" flag="0"/>
			<vel value="0.000999287466587158" flag="0"/>
			<psa03 value="0.00322143887651557" flag="0"/>
			<psa10 value="0.000330197484842846" flag="0"/>
			<psa30 value="2.77401681033285e-05" flag="0"/>
		</comp>
		<comp name="--.HGZ" depth="0.0">
			<acc value="0.00242884751203765" flag="0"/>
			<vel value="0.000564388266037976" flag="0"/>
			<psa03 value="0.00281875901695112" flag="0"/>
			<psa10 value="0.000285902700290757" flag="0"/>
			<psa30 value="2.32659474415013e-05" flag="0"/>
		</comp>
	</station>
	<station code="SENIN" name="SENIN" netid="CH" source="Switzerland Seismological Network" insttype="" lat="46.36335" lon="7.29938">
		<comp name="--.HGE" depth="0.0">
			<acc value="0.00257987182813845" flag="0"/>
			<vel value="0.000888579538198831" flag="0"/>
			<psa03 value="0.00519009596771952" flag="0"/>
			<psa10 value="0.000680528962663913" flag="0"/>
			<psa30 value="2.90824343018766e-05" flag="0"/>
		</comp>
		<comp name="--.HGN" depth="0.0">
			<acc value="0.00279550449422165" flag="0"/>
			<vel value="0.00112749688055734" flag="0"/>
			<psa03 value="0.00626390892655805" flag="0"/>
			<psa10 value="0.00044294784552089" flag="0"/>
			<psa30 value="4.29525183535409e-05" flag="0"/>
		</comp>
		<comp name="--.HGZ" depth="0.0">
			<acc value="0.00173219602371414" flag="0"/>
			<vel value="0.000706575633749557" flag="0"/>
			<psa03 value="0.00384782976917137" flag="0"/>
			<psa10 value="0.000547644609007646" flag="0"/>
			<psa30 value="3.31092328975211e-05" flag="0"/>
		</comp>
	</station>
	<station code="SKAF" name="SKAF" netid="CH" source="Switzerland Seismological Network" insttype="" lat="47.5384" lon="7.7199">
		<comp name="--.HGE" depth="0.0">
			<acc value="0.00519899537920672" flag="0"/>
			<vel value="0.00119936508912902" flag="0"/>
			<psa03 value="0.00639813554641286" flag="0"/>
			<psa10 value="0.00118790558571512" flag="0"/>
			<psa30 value="5.50329141404743e-05" flag="0"/>
		</comp>
		<comp name="--.HGN" depth="0.0">
			<acc value="0.00489048856847188" flag="0"/>
			<vel value="0.00148966850297447" flag="0"/>
			<psa03 value="0.00720349526554175" flag="0"/>
			<psa10 value="0.000507376623051202" flag="0"/>
			<psa30 value="5.14535376110125e-05" flag="0"/>
		</comp>
		<comp name="--.HGZ" depth="0.0">
			<acc value="0.00287173258737887" flag="0"/>
			<vel value="0.000644647427258918" flag="0"/>
			<psa03 value="0.00429525183535409" flag="0"/>
			<psa10 value="0.000285902700290757" flag="0"/>
			<psa30 value="2.77401681033285e-05" flag="0"/>
		</comp>
	</station>
	<station code="SLCF" name="SLCF" netid="CH" source="Switzerland Seismological Network" insttype="" lat="47.08296" lon="6.79236">
		<comp name="--.HGE" depth="1.0">
			<acc value="0.0343140278333682" flag="0"/>
			<vel value="0.0104961101877298" flag="0"/>
			<psa03 value="0.0634444489847094" flag="0"/>
			<psa10 value="0.00239594516440845" flag="0"/>
			<psa30 value="0.000175836872009808" flag="0"/>
		</comp>
		<comp name="--.HGN" depth="1.0">
			<acc value="0.0458456432687528" flag="0"/>
			<vel value="0.0123339001683225" flag="0"/>
			<psa03 value="0.057627962124334" flag="0"/>
			<psa10 value="0.00294761657201174" flag="0"/>
			<psa30 value="0.000261294486650707" flag="0"/>
		</comp>
		<comp name="--.HGZ" depth="1.0">
			<acc value="0.0310977107274409" flag="0"/>
			<vel value="0.0100953301899389" flag="0"/>
			<psa03 value="0.0460844728168199" flag="0"/>
			<psa10 value="0.00174763059050969" flag="0"/>
			<psa30 value="0.000156597723163951" flag="0"/>
		</comp>
	</station>
	<station code="SLUB" name="SLUB" netid="CH" source="Switzerland Seismological Network" insttype="" lat="47.057919" lon="8.30548">
		<comp name="--.HGE" depth="1.0">
			<acc value="0.0044441817892689" flag="0"/>
			<vel value="0.000902441889534374" flag="0"/>
			<psa03 value="0.00304247005004248" flag="0"/>
			<psa10 value="0.000314090290460268" flag="0"/>
			<psa30 value="4.20576742211754e-05" flag="0"/>
		</comp>
		<comp name="--.HGN" depth="1.0">
			<acc value="0.0033998871033716" flag="0"/>
			<vel value="0.000872321619613549" flag="0"/>
			<psa03 value="0.00322143887651557" flag="0"/>
			<psa10 value="0.000249661512929956" flag="0"/>
			<psa30 value="4.33999404197236e-05" flag="0"/>
		</comp>
		<comp name="--.HGZ" depth="1.0">
			<acc value="0.0061692588679639" flag="0"/>
			<vel value="0.00117332744801141" flag="0"/>
			<psa03 value="0.00263979019047803" flag="0"/>
			<psa10 value="0.000724823747216002" flag="0"/>
			<psa30 value="3.40040770298865e-05" flag="0"/>
		</comp>
	</station>
	<station code="SMOE" name="SMOE" netid="CH" source="Switzerland Seismological Network" insttype="" lat="46.6718" lon="6.80111">
		<comp name="--.HGE" depth="1.0">
			<acc value="0.0260615167463759" flag="0"/>
			<vel value="0.0060574190915822" flag="0"/>
			<psa03 value="0.0248319246731408" flag="0"/>
			<psa10 value="0.00154226386213183" flag="0"/>
			<psa30 value="0.000136911152251912" flag="0"/>
		</comp>
		<comp name="--.HGN" depth="1.0">
			<acc value="0.0222163277327869" flag="0"/>
			<vel value="0.00421954955446132" flag="0"/>
			<psa03 value="0.0195076020855665" flag="0"/>
			<psa10 value="0.00127649515481929" flag="0"/>
			<psa30 value="8.76947249718126e-05" flag="0"/>
		</comp>
		<comp name="--.HGZ" depth="1.0">
			<acc value="0.0108100355909402" flag="0"/>
			<vel value="0.00177606222085514" flag="0"/>
			<psa03 value="0.0052348381743378" flag="0"/>
			<psa10 value="0.000700662955642136" flag="0"/>
			<psa30 value="5.23483817433779e-05" flag="0"/>
		</comp>
	</station>
	<station code="SNES2" name="SNES2" netid="CH" source="Switzerland Seismological Network" insttype="" lat="47.00001" lon="6.95307">
		<comp name="--.HGE" depth="1.0">
			<acc value="0.0124949703792615" flag="0"/>
			<vel value="0.00296202745507202" flag="0"/>
			<psa03 value="0.014988639217121" flag="0"/>
			<psa10 value="0.000849654503680981" flag="0"/>
			<psa30 value="7.47194850525138e-05" flag="0"/>
		</comp>
		<comp name="--.HGN" depth="1.0">
			<acc value="0.016941119026975" flag="0"/>
			<vel value="0.003242592574112" flag="0"/>
			<psa03 value="0.0115882315141324" flag="0"/>
			<psa10 value="0.0020738012767569" flag="0"/>
			<psa30 value="0.000114987471008958" flag="0"/>
		</comp>
		<comp name="--.HGZ" depth="1.0">
			<acc value="0.00620382562738014" flag="0"/>
			<vel value="0.00194884866478939" flag="0"/>
			<psa03 value="0.0111408094479497" flag="0"/>
			<psa10 value="0.000700662955642136" flag="0"/>
			<psa30 value="4.7426739015368e-05" flag="0"/>
		</comp>
	</station>
	<station code="SOLB" name="SOLB" netid="CH" source="Switzerland Seismological Network" insttype="" lat="47.206835" lon="7.517052">
		<comp name="--.HGE" depth="0.0">
			<acc value="0.0191676563725692" flag="0"/>
			<vel value="0.00469621966483925" flag="0"/>
			<psa03 value="0.0213420325569156" flag="0"/>
			<psa10 value="0.00335432323017183" flag="0"/>
			<psa30 value="0.00020089250771604" flag="0"/>
		</comp>
		<comp name="--.HGN" depth="0.0">
			<acc value="0.0135564308836101" flag="0"/>
			<vel value="0.0058303787303894" flag="0"/>
			<psa03 value="0.0238475961275388" flag="0"/>
			<psa10 value="0.00631402019797051" flag="0"/>
			<psa30 value="0.000246529558466677" flag="0"/>
		</comp>
		<comp name="--.HGZ" depth="0.0">
			<acc value="0.014116638572315" flag="0"/>
			<vel value="0.00244595689594124" flag="0"/>
			<psa03 value="0.0117672003406055" flag="0"/>
			<psa10 value="0.00172749659753147" flag="0"/>
