<?xml version="1.0" encoding="UTF-8" standalone="yes"?>
<!DOCTYPE earthquake SYSTEM "stationlist.dtd">
<stationlist created="" xmlns="ch.ethz.sed.shakemap.usgs.xml">
  <station code="GIMEL" name="GIMEL" netid="CH" source="SED" insttype="Trillium 240s_g2" lat="46.5336" lon="6.26545">
    <comp name="--.HHE">
      <acc value="0.0192224449" flag="0"/>
      <vel value="0.0045092657" flag="0"/>
      <psa03 value="0.0293243904" flag="0"/>
      <psa10 value="0.0008487356" flag="0"/>
      <psa30 value="0.0001116386" flag="0"/>
    </comp>
    <comp name="--.HHN">
      <acc value="0.0136696562" flag="0"/>
      <vel value="0.0026207599" flag="0"/>
      <psa03 value="0.0114700945" flag="0"/>
      <psa10 value="0.0007013003" flag="0"/>
      <psa30 value="0.0000659484" flag="0"/>
    </comp>
    <comp name="--.HHZ">
      <acc value="0.0092338279" flag="0"/>
      <vel value="0.0029307536" flag="0"/>
      <psa03 value="0.0142888944" flag="0"/>
      <psa10 value="0.0005468363" flag="0"/>
      <psa30 value="0.0000820498" flag="0"/>
    </comp>
  </station>
  <station code="SLCF" name="SLCF" netid="CH" source="SED" insttype="EpiSensor ES-T" lat="47.083" lon="6.79236">
    <comp name="--.HGE">
      <acc value="0.0351337787" flag="0"/>
      <vel value="0.0104702336" flag="0"/>
      <psa03 value="0.0637126851" flag="0"/>
      <psa10 value="0.0023947691" flag="0"/>
      <psa30 value="0.0001787858" flag="0"/>
    </comp>
    <comp name="--.HGN">
      <acc value="0.0461291137" flag="0"/>
      <vel value="0.0122933229" flag="0"/>
      <psa03 value="0.0575614505" flag="0"/>
      <psa10 value="0.0029496251" flag="0"/>
      <psa30 value="0.0002583595" flag="0"/>
    </comp>
    <comp name="--.HGZ">
      <acc value="0.0329560090" flag="0"/>
      <vel value="0.0100942711" flag="0"/>
      <psa03 value="0.0460933472" flag="0"/>
      <psa10 value="0.0017463961" flag="0"/>
      <psa30 value="0.0001527036" flag="0"/>
    </comp>
  </station>
  <station code="TORNY" name="TORNY" netid="CH" source="SED" insttype="STS2_gen3" lat="46.7737" lon="6.95862">
    <comp name="--.HHE">
      <acc value="0.0191392413" flag="0"/>
      <vel value="0.0051287635" flag="0"/>
      <psa03 value="0.0184598155" flag="0"/>
      <psa10 value="0.0009642458" flag="0"/>
      <psa30 value="0.0000958258" flag="0"/>
    </comp>
    <comp name="--.HHN">
      <acc value="0.0231902697" flag="0"/>
      <vel value="0.0068555478" flag="0"/>
      <psa03 value="0.0274331792" flag="0"/>
      <psa10 value="0.0013891203" flag="0"/>
      <psa30 value="0.0001611400" flag="0"/>
    </comp>
    <comp name="--.HHZ">
      <acc value="0.0068437951" flag="0"/>
      <vel value="0.0015423329" flag="0"/>
      <psa03 value="0.0074342419" flag="0"/>
      <psa10 value="0.0005965589" flag="0"/>
      <psa30 value="0.0000466008" flag="0"/>
    </comp>
  </station>
  <station code="BOUC" name="BOUC" netid="FR" source="RESIF" insttype="generation" lat="47.2469" lon="6.25606">
    <comp name="00.HHE">
      <acc value="0.0283535173" flag="0"/>
      <vel value="0.0039468481" flag="0"/>
      <psa03 value="0.0140952478" flag="0"/>
      <psa10 value="0.0007082174" flag="0"/>
      <psa30 value="0.0000925679" flag="0"/>
    </comp>
    <comp name="00.HHN">
      <acc value="0.0235535808" flag="0"/>
      <vel value="0.0042149554" flag="0"/>
      <psa03 value="0.0111719244" flag="0"/>
      <psa10 value="0.0009063833" flag="0"/>
      <psa30 value="0.0000778452" flag="0"/>
    </comp>
    <comp name="00.HHZ">
      <acc value="0.0171447680" flag="0"/>
      <vel value="0.0019613542" flag="0"/>
      <psa03 value="0.0170015535" flag="0"/>
      <psa10 value="0.0009403638" flag="0"/>
      <psa30 value="0.0000544120" flag="0"/>
    </comp>
  </station>
  <station code="CHMF" name="CHMF" netid="FR" source="RESIF" insttype="generation" lat="47.2484" lon="6.6517">
    <comp name="00.HHE">
      <acc value="0.0118605741" flag="0"/>
      <vel value="0.0041770901" flag="0"/>
      <psa03 value="0.0253628355" flag="0"/>
      <psa10 value="0.0017230025" flag="0"/>
      <psa30 value="0.0000976179" flag="0"/>
    </comp>
    <comp name="00.HHN">
      <acc value="0.0210519896" flag="0"/>
      <vel value="0.0042342886" flag="0"/>
      <psa03 value="0.0189788740" flag="0"/>
      <psa10 value="0.0017355019" flag="0"/>
      <psa30 value="0.0001688628" flag="0"/>
    </comp>
    <comp name="00.HHZ">
      <acc value="0.0186830165" flag="0"/>
      <vel value="0.0043593693" flag="0"/>
      <psa03 value="0.0147076680" flag="0"/>
      <psa10 value="0.0014975480" flag="0"/>
      <psa30 value="0.0000767629" flag="0"/>
    </comp>
  </station>
  <station code="OG02" name="OG02" netid="FR" source="RESIF" insttype="EST" lat="46.1542" lon="6.2202">
    <comp name="00.HNE">
      <acc value="0.0017198035" flag="0"/>
      <vel value="0.0006151393" flag="0"/>
      <psa03 value="0.0031095350" flag="0"/>
      <psa10 value="0.0002129513" flag="0"/>
      <psa30 value="0.0000439804" flag="0"/>
    </comp>
    <comp name="00.HNN">
      <acc value="0.0013054268" flag="0"/>
      <vel value="0.0003454687" flag="0"/>
      <psa03 value="0.0020864231" flag="0"/>
      <psa10 value="0.0001550947" flag="0"/>
      <psa30 value="0.0000130901" flag="0"/>
    </comp>
    <comp name="00.HNZ">
      <acc value="0.0012780682" flag="0"/>
      <vel value="0.0002971650" flag="0"/>
      <psa03 value="0.0015147625" flag="0"/>
      <psa10 value="0.0001660882" flag="0"/>
      <psa30 value="0.0000146807" flag="0"/>
    </comp>
  </station>
  <station code="OGRV" name="OGRV" netid="FR" source="RESIF" insttype="generation" lat="46.3459" lon="4.7522">
    <comp name="00.HHE">
      <acc value="0.0139597198" flag="0"/>
      <vel value="0.0045026617" flag="0"/>
      <psa03 value="0.0244809955" flag="0"/>
      <psa10 value="0.0018087056" flag="0"/>
      <psa30 value="0.0001276995" flag="0"/>
    </comp>
    <comp name="00.HHN">
      <acc value="0.0179802005" flag="0"/>
      <vel value="0.0030082682" flag="0"/>
      <psa03 value="0.0155076049" flag="0"/>
      <psa10 value="0.0013302711" flag="0"/>
      <psa30 value="0.0001125749" flag="0"/>
    </comp>
    <comp name="00.HHZ">
      <acc value="0.0167736344" flag="0"/>
      <vel value="0.0030303319" flag="0"/>
      <psa03 value="0.0198863737" flag="0"/>
      <psa10 value="0.0017041239" flag="0"/>
      <psa30 value="0.0000928939" flag="0"/>
    </comp>
  </station>
  <station code="PLYF" name="PLYF" netid="FR" source="RESIF" insttype="generation" lat="46.9572" lon="4.7432">
    <comp name="00.HHE">
      <acc value="0.0110175085" flag="0"/>
      <vel value="0.0023940435" flag="0"/>
      <psa03 value="0.0092340062" flag="0"/>
      <psa10 value="0.0008294741" flag="0"/>
      <psa30 value="0.0000388345" flag="0"/>
    </comp>
    <comp name="00.HHN">
      <acc value="0.0162871953" flag="0"/>
      <vel value="0.0023931781" flag="0"/>
      <psa03 value="0.0079162311" flag="0"/>
      <psa10 value="0.0010802230" flag="0"/>
      <psa30 value="0.0001062493" flag="0"/>
    </comp>
    <comp name="00.HHZ">
      <acc value="0.0113067664" flag="0"/>
      <vel value="0.0015999268" flag="0"/>
      <psa03 value="0.0063443673" flag="0"/>
      <psa10 value="0.0007217910" flag="0"/>
      <psa30 value="0.0000414229" flag="0"/>
    </comp>
  </station>
  <station code="RIVEL" name="RIVEL" netid="FR" source="RESIF" insttype="generation" lat="46.7591" lon="5.92249">
    <comp name="00.HHE">
      <acc value="0.0388776165" flag="0"/>
      <vel value="0.0110202330" flag="0"/>
      <psa03 value="0.0415442116" flag="0"/>
      <psa10 value="0.0025698151" flag="0"/>
      <psa30 value="0.0002393306" flag="0"/>
    </comp>
    <comp name="00.HHN">
      <acc value="0.0232315096" flag="0"/>
      <vel value="0.0074077267" flag="0"/>
      <psa03 value="0.0413825531" flag="0"/>
      <psa10 value="0.0028335571" flag="0"/>
      <psa30 value="0.0002288395" flag="0"/>
    </comp>
    <comp name="00.HHZ">
      <acc value="0.0204599311" flag="0"/>
      <vel value="0.0043956715" flag="0"/>
      <psa03 value="0.0400912844" flag="0"/>
      <psa10 value="0.0014358989" flag="0"/>
      <psa30 value="0.0001330746" flag="0"/>
    </comp>
  </station>
  <station code="RONF" name="RONF" netid="FR" source="RESIF" insttype="generation" lat="47.7107" lon="6.6472">
    <comp name="00.HHE">
      <acc value="0.0236637275" flag="0"/>
      <vel value="0.0053854343" flag="0"/>
      <psa03 value="0.0185637976" flag="0"/>
      <psa10 value="0.0013065839" flag="0"/>
      <psa30 value="0.0000824868" flag="0"/>
    </comp>
    <comp name="00.HHN">
      <acc value="0.0287657236" flag="0"/>
      <vel value="0.0052720689" flag="0"/>
      <psa03 value="0.0181496677" flag="0"/>
      <psa10 value="0.0011413318" flag="0"/>
      <psa30 value="0.0001032623" flag="0"/>
    </comp>
    <comp name="00.HHZ">
      <acc value="0.0116166910" flag="0"/>
      <vel value="0.0018782747" flag="0"/>
      <psa03 value="0.0095856807" flag="0"/>
      <psa10 value="0.0004161236" flag="0"/>
      <psa30 value="0.0000698723" flag="0"/>
    </comp>
  </station>
  <station code="STFL" name="STFL" netid="RA" source="RESIF" insttype="EST" lat="47.1121" lon="6.56289">
    <comp name="00.HNE">
      <acc value="0.0635341349" flag="0"/>
      <vel value="0.0107803276" flag="0"/>
      <psa03 value="0.0677282790" flag="0"/>
      <psa10 value="0.0026574752" flag="0"/>
      <psa30 value="0.0003018412" flag="0"/>
    </comp>
    <comp name="00.HNN">
      <acc value="0.0716583905" flag="0"/>
      <vel value="0.0152308458" flag="0"/>
      <psa03 value="0.0751897247" flag="0"/>
      <psa10 value="0.0048864307" flag="0"/>
      <psa30 value="0.0003875747" flag="0"/>
    </comp>
    <comp name="00.HNZ">
      <acc value="0.0303139174" flag="0"/>
      <vel value="0.0055124325" flag="0"/>
      <psa03 value="0.0335198847" flag="0"/>
      <psa10 value="0.0016059440" flag="0"/>
      <psa30 value="0.0001069350" flag="0"/>
    </comp>
  </station>
</stationlist>
