<?xml version="1.0" encoding="UTF-8" standalone="yes"?>
<!DOCTYPE earthquake SYSTEM "stationlist.dtd">
<stationlist created="" xmlns="ch.ethz.sed.shakemap.usgs.xml">
  <station code="AKDM" name="AKDM" netid="KO" insttype="30s," lat="38.3285" lon="42.98">
    <comp name="--.HHE">
      <acc value="0.0282137740" flag="0"/>
      <vel value="0.0469848853" flag="0"/>
      <psa03 value="0.0668122860" flag="0"/>
      <psa10 value="0.0791730103" flag="0"/>
      <psa30 value="0.0261248982" flag="0"/>
    </comp>
    <comp name="--.HHZ">
      <acc value="0.0196794736" flag="0"/>
      <vel value="0.0330583065" flag="0"/>
      <psa03 value="0.0613134623" flag="0"/>
      <psa10 value="0.0247801511" flag="0"/>
      <psa30 value="0.0201950819" flag="0"/>
    </comp>
    <comp name="--.HHN">
      <acc value="0.0301893914" flag="0"/>
      <vel value="0.0478632945" flag="0"/>
      <psa03 value="0.0584636687" flag="0"/>
      <psa10 value="0.0737233009" flag="0"/>
      <psa30 value="0.0356194440" flag="0"/>
    </comp>
  </station>
  <station code="ERCV" name="ERCV" netid="KO" insttype="CMG-5T" lat="39.0198" lon="43.3381">
    <comp name="--.HNN">
      <acc value="2.6645929175" flag="0"/>
      <vel value="1.6503136334" flag="0"/>
      <psa03 value="4.4309649755" flag="0"/>
      <psa10 value="2.2613157982" flag="0"/>
      <psa30 value="0.9085037915" flag="0"/>
    </comp>
    <comp name="--.HNE">
      <acc value="2.8780534451" flag="0"/>
      <vel value="1.7411761075" flag="0"/>
      <psa03 value="7.6403923566" flag="0"/>
      <psa10 value="1.6418016148" flag="0"/>
      <psa30 value="0.4322914306" flag="0"/>
    </comp>
    <comp name="--.HNZ">
      <acc value="1.2818624613" flag="0"/>
      <vel value="0.8771845791" flag="0"/>
      <psa03 value="2.2140430843" flag="0"/>
      <psa10 value="0.9174466294" flag="0"/>
      <psa30 value="0.1406367214" flag="0"/>
    </comp>
  </station>
  <station code="GURO" name="GURO" netid="KO" insttype="120s," lat="38.5509" lon="42.0322">
    <comp name="--.HHE">
      <acc value="0.0471672882" flag="0"/>
      <vel value="0.0259587554" flag="0"/>
      <psa03 value="0.1978470255" flag="0"/>
      <psa10 value="0.0282912607" flag="0"/>
      <psa30 value="0.0069965240" flag="0"/>
    </comp>
    <comp name="--.HHN">
      <acc value="0.0636851051" flag="0"/>
      <vel value="0.0306512648" flag="0"/>
      <psa03 value="0.1969652039" flag="0"/>
      <psa10 value="0.0408277625" flag="0"/>
      <psa30 value="0.0063696184" flag="0"/>
    </comp>
    <comp name="--.HHZ">
      <acc value="0.0501473458" flag="0"/>
      <vel value="0.0307349474" flag="0"/>
      <psa03 value="0.2811383557" flag="0"/>
      <psa10 value="0.0282478566" flag="0"/>
      <psa30 value="0.0068479676" flag="0"/>
    </comp>
  </station>
  <station code="TASB" name="TASB" netid="KO" insttype="120s," lat="39.9839" lon="44.2384">
    <comp name="--.HHE">
      <acc value="0.0257531257" flag="0"/>
      <vel value="0.0917970990" flag="0"/>
      <psa03 value="0.0331860232" flag="0"/>
      <psa10 value="0.0657797245" flag="0"/>
      <psa30 value="0.0383185105" flag="0"/>
    </comp>
    <comp name="--.HHN">
      <acc value="0.0221462839" flag="0"/>
      <vel value="0.0615428316" flag="0"/>
      <psa03 value="0.0342352810" flag="0"/>
      <psa10 value="0.0400273054" flag="0"/>
      <psa30 value="0.0343802791" flag="0"/>
    </comp>
    <comp name="--.HHZ">
      <acc value="0.0100932487" flag="0"/>
      <vel value="0.0286276573" flag="0"/>
      <psa03 value="0.0190658282" flag="0"/>
      <psa10 value="0.0232825786" flag="0"/>
      <psa30 value="0.0197820809" flag="0"/>
    </comp>
  </station>
  <station code="VANB" name="VANB" netid="KO" insttype="360s," lat="38.509" lon="43.4058">
    <comp name="--.HHZ">
      <acc value="0.1341126678" flag="0"/>
      <vel value="0.2770883022" flag="0"/>
      <psa03 value="0.2552865893" flag="0"/>
      <psa10 value="0.3187894848" flag="0"/>
      <psa30 value="0.1339561583" flag="0"/>
    </comp>
    <comp name="--.HHE">
      <acc value="0.0001292449" flag="0"/>
      <vel value="0.0001443194" flag="0"/>
      <psa03 value="0.0002339667" flag="0"/>
      <psa10 value="0.0001656277" flag="0"/>
      <psa30 value="0.0000707344" flag="0"/>
    </comp>
    <comp name="--.HHN">
      <acc value="0.1925454595" flag="0"/>
      <vel value="0.2335321480" flag="0"/>
      <psa03 value="0.4300652277" flag="0"/>
      <psa10 value="0.4570318406" flag="0"/>
      <psa30 value="0.0757337400" flag="0"/>
    </comp>
  </station>
</stationlist>
