<stationlist created="1641587239">
	<station code="MYT1" name="MYT1" netid="HI" source="ITSAK Strong Motion Network" insttype="" lat="39.085" lon="26.5694">
		<comp name=".HNE" depth="0.0">
			<acc value="0.011304354" flag="0"/>
			<vel value="0.007583" flag="0"/>
			<psa03 value="0.0299325362276" flag="0"/>
			<psa10 value="0.0079489004278" flag="0"/>
			<psa30 value="0.00133152806896" flag="0"/>
		</comp>
		<comp name=".HNN" depth="0.0">
			<acc value="0.009946836" flag="0"/>
			<vel value="0.007497" flag="0"/>
			<psa03 value="0.0335119127571" flag="0"/>
			<psa10 value="0.00883076932025" flag="0"/>
			<psa30 value="0.00141474857327" flag="0"/>
		</comp>
		<comp name=".HNZ" depth="0.0">
			<acc value="0.007635618" flag="0"/>
			<vel value="0.00479" flag="0"/>
			<psa03 value="0.0171362651348" flag="0"/>
			<psa10 value="0.00908848443037" flag="0"/>
			<psa30 value="0.000645630041502" flag="0"/>
		</comp>
	</station>
	<station code="SKY1" name="SKY1" netid="HI" source="ITSAK Strong Motion Network" insttype="" lat="38.904483" lon="24.564572">
		<comp name=".HNE" depth="0.0">
			<acc value="0.001470534" flag="0"/>
			<vel value="0.003829" flag="0"/>
			<psa03 value="0.00259504798386" flag="0"/>
			<psa10 value="0.00107112842644" flag="0"/>
			<psa30 value="0.000541380700081" flag="0"/>
		</comp>
		<comp name=".HNN" depth="0.0">
			<acc value="0.001389342" flag="0"/>
			<vel value="0.00327" flag="0"/>
			<psa03 value="0.0019686570912" flag="0"/>
			<psa10 value="0.000914083281211" flag="0"/>
			<psa30 value="0.000502454980323" flag="0"/>
		</comp>
		<comp name=".HNZ" depth="0.0">
			<acc value="0.00188853" flag="0"/>
			<vel value="0.003449" flag="0"/>
			<psa03 value="0.00116329737208" flag="0"/>
			<psa10 value="0.000451001442712" flag="0"/>
			<psa30 value="0.000526615771897" flag="0"/>
		</comp>
	</station>
	<station code="ASTA" name="ASTA" netid="HL" source="National Observatory of Athens Seismic Network" insttype="" lat="36.54543" lon="26.3528">
		<comp name="00.HNE" depth="0.0">
			<acc value="0.005564304" flag="0"/>
			<vel value="0.004193" flag="0"/>
			<psa03 value="0.0154360612833" flag="0"/>
			<psa10 value="0.00322546567511" flag="0"/>
			<psa30 value="0.000698873267377" flag="0"/>
		</comp>
		<comp name="00.HNN" depth="0.0">
			<acc value="0.005405796" flag="0"/>
			<vel value="0.003735" flag="0"/>
			<psa03 value="0.0131542087458" flag="0"/>
			<psa10 value="0.0024039987616" flag="0"/>
			<psa30 value="0.000608046587942" flag="0"/>
		</comp>
		<comp name="00.HNZ" depth="0.0">
			<acc value="0.003256248" flag="0"/>
			<vel value="0.003481" flag="0"/>
			<psa03 value="0.0110065828281" flag="0"/>
			<psa10 value="0.00235970397705" flag="0"/>
			<psa30 value="0.000600440412817" flag="0"/>
		</comp>
	</station>
	<station code="ATHP" name="ATHP" netid="HL" source="National Observatory of Athens Seismic Network" insttype="" lat="38.000799" lon="23.773487">
		<comp name="00.HNE" depth="0.0">
			<acc value="0.002612526" flag="0"/>
			<vel value="0.004078" flag="0"/>
			<psa03 value="0.00165546164488" flag="0"/>
			<psa10 value="0.00074898453879" flag="0"/>
			<psa30 value="0.000769118531768" flag="0"/>
		</comp>
		<comp name="00.HNN" depth="0.0">
			<acc value="0.002669544" flag="0"/>
			<vel value="0.003075" flag="0"/>
			<psa03 value="0.00143175061178" flag="0"/>
			<psa10 value="0.000664421768281" flag="0"/>
			<psa30 value="0.000687240293657" flag="0"/>
		</comp>
		<comp name="00.HNZ" depth="0.0">
			<acc value="0.003765738" flag="0"/>
			<vel value="0.004279" flag="0"/>
			<psa03 value="0.0014764928184" flag="0"/>
			<psa10 value="0.000559725004795" flag="0"/>
			<psa30 value="0.000508271467184" flag="0"/>
		</comp>
	</station>
	<station code="EFSA" name="EFSA" netid="HL" source="National Observatory of Athens Seismic Network" insttype="" lat="39.54015" lon="24.98864">
		<comp name="00.HNE" depth="0.0">
			<acc value="0.001266432" flag="0"/>
			<vel value="0.005726" flag="0"/>
			<psa03 value="0.00263979019048" flag="0"/>
			<psa10 value="0.00131676314078" flag="0"/>
			<psa30 value="0.00109976343868" flag="0"/>
		</comp>
		<comp name="00.HNN" depth="0.0">
			<acc value="0.001098744" flag="0"/>
			<vel value="0.007912" flag="0"/>
			<psa03 value="0.00250556357062" flag="0"/>
			<psa10 value="0.00163085343124" flag="0"/>
			<psa30 value="0.00127560031069" flag="0"/>
		</comp>
		<comp name="00.HNZ" depth="0.0">
			<acc value="0.00076602" flag="0"/>
			<vel value="0.003137" flag="0"/>
			<psa03 value="0.00210288371106" flag="0"/>
			<psa10 value="0.00128454875201" flag="0"/>
			<psa30 value="0.000560619848927" flag="0"/>
		</comp>
	</station>
	<station code="KLNA" name="KLNA" netid="HL" source="National Observatory of Athens Seismic Network" insttype="" lat="36.95708" lon="26.97274">
		<comp name="00.HNE" depth="0.0">
			<acc value="0.09544803" flag="0"/>
			<vel value="0.032715" flag="0"/>
			<psa03 value="0.191586128739" flag="0"/>
			<psa10 value="0.00593952792858" flag="0"/>
			<psa30 value="0.00120893442283" flag="0"/>
		</comp>
		<comp name="00.HNN" depth="0.0">
			<acc value="0.065264598" flag="0"/>
			<vel value="0.025305" flag="0"/>
			<psa03 value="0.159505966594" flag="0"/>
			<psa10 value="0.00599590310891" flag="0"/>
			<psa30 value="0.000811623628055" flag="0"/>
		</comp>
		<comp name="00.HNZ" depth="0.0">
			<acc value="0.077656578" flag="0"/>
			<vel value="0.017969" flag="0"/>
			<psa03 value="0.0771355642099" flag="0"/>
			<psa10 value="0.00403082539424" flag="0"/>
			<psa30 value="0.000772250486231" flag="0"/>
		</comp>
	</station>
	<station code="KYMI" name="KYMI" netid="HL" source="National Observatory of Athens Seismic Network" insttype="" lat="38.633147" lon="24.100138">
		<comp name=".HNE" depth="1.0">
			<acc value="0.000755718" flag="0"/>
			<vel value="0.003624" flag="0"/>
			<psa03 value="0.000626390892656" flag="0"/>
			<psa10 value="0.000535564213221" flag="0"/>
			<psa30 value="0.000587017750832" flag="0"/>
		</comp>
		<comp name=".HNN" depth="1.0">
			<acc value="0.000626484" flag="0"/>
			<vel value="0.00482" flag="0"/>
			<psa03 value="0.000671133099274" flag="0"/>
			<psa10 value="0.000652341372494" flag="0"/>
			<psa30 value="0.000586122906699" flag="0"/>
		</comp>
		<comp name=".HNZ" depth="1.0">
			<acc value="0.00057324" flag="0"/>
			<vel value="0.004433" flag="0"/>
			<psa03 value="0.000626390892656" flag="0"/>
			<psa10 value="0.00056375180339" flag="0"/>
			<psa30 value="0.000698873267377" flag="0"/>
		</comp>
	</station>
	<station code="PRK" name="PRK" netid="HL" source="National Observatory of Athens Seismic Network" insttype="" lat="39.24565" lon="26.26499">
		<comp name=".HNE" depth="0.0">
			<acc value="0.009857586" flag="0"/>
			<vel value="0.007999" flag="0"/>
			<psa03 value="0.0298430518144" flag="0"/>
			<psa10 value="0.0116455015386" flag="0"/>
			<psa30 value="0.000727508279613" flag="0"/>
		</comp>
		<comp name=".HNN" depth="0.0">
			<acc value="0.012022536" flag="0"/>
			<vel value="0.007339" flag="0"/>
			<psa03 value="0.0465766370896" flag="0"/>
			<psa10 value="0.00660394969686" flag="0"/>
			<psa30 value="0.000999093473786" flag="0"/>
		</comp>
		<comp name=".HNZ" depth="0.0">
			<acc value="0.006273102" flag="0"/>
			<vel value="0.005155" flag="0"/>
			<psa03 value="0.0236238850944" flag="0"/>
			<psa10 value="0.00374089589535" flag="0"/>
			<psa30 value="0.000532879680824" flag="0"/>
		</comp>
	</station>
	<station code="THRA" name="THRA" netid="HL" source="National Observatory of Athens Seismic Network" insttype="" lat="36.41502" lon="25.43244">
		<comp name="00.HNE" depth="0.0">
			<acc value="0.018890298" flag="0"/>
			<vel value="0.010308" flag="0"/>
			<psa03 value="0.0410733456756" flag="0"/>
			<psa10 value="0.00587107235245" flag="0"/>
			<psa30 value="0.00182100780936" flag="0"/>
		</comp>
		<comp name="00.HNN" depth="0.0">
			<acc value="0.014096094" flag="0"/>
			<vel value="0.0082" flag="0"/>
			<psa03 value="0.0301115050541" flag="0"/>
			<psa10 value="0.0094267355124" flag="0"/>
			<psa30 value="0.00184516860094" flag="0"/>
		</comp>
		<comp name="00.HNZ" depth="0.0">
			<acc value="0.018252492" flag="0"/>
			<vel value="0.006641" flag="0"/>
			<psa03 value="0.0253688311526" flag="0"/>
			<psa10 value="0.00382948546446" flag="0"/>
			<psa30 value="0.000804912297063" flag="0"/>
		</comp>
	</station>
	<station code="AKS" name="AKS" netid="KO" source="Bogazici University Kandilli Observatory And Earthquake Research Institute (KOERI)" insttype="" lat="38.8785" lon="27.8129">
		<comp name=".HNE" depth="0.0">
			<acc value="0.009029754" flag="0"/>
			<vel value="0.006627" flag="0"/>
			<psa03 value="0.0312748024262" flag="0"/>
			<psa10 value="0.00301204534954" flag="0"/>
			<psa30 value="0.000905134839888" flag="0"/>
		</comp>
		<comp name=".HNN" depth="0.0">
			<acc value="0.014763378" flag="0"/>
			<vel value="0.009211" flag="0"/>
			<psa03 value="0.0238475961275" flag="0"/>
			<psa10 value="0.00399458420688" flag="0"/>
			<psa30 value="0.00118164167679" flag="0"/>
		</comp>
		<comp name=".HNZ" depth="0.0">
			<acc value="0.004837758" flag="0"/>
			<vel value="0.003558" flag="0"/>
			<psa03 value="0.00961957442293" flag="0"/>
			<psa10 value="0.00160669263966" flag="0"/>
			<psa30 value="0.000848312237482" flag="0"/>
		</comp>
	</station>
	<station code="DATC" name="DATC" netid="KO" source="Bogazici University Kandilli Observatory And Earthquake Research Institute (KOERI)" insttype="" lat="36.7584" lon="27.6602">
		<comp name=".HNE" depth="0.0">
			<acc value="0.11808948" flag="0"/>
			<vel value="0.040344" flag="0"/>
			<psa03 value="0.138611356103" flag="0"/>
			<psa10 value="0.0487081558129" flag="0"/>
			<psa30 value="0.0051771207278" flag="0"/>
		</comp>
		<comp name=".HNN" depth="0.0">
			<acc value="0.1263015" flag="0"/>
			<vel value="0.058798" flag="0"/>
			<psa03 value="0.152078760296" flag="0"/>
			<psa10 value="0.0495578103166" flag="0"/>
			<psa30 value="0.00853547075657" flag="0"/>
		</comp>
		<comp name=".HNZ" depth="0.0">
			<acc value="0.293969814" flag="0"/>
			<vel value="0.060827" flag="0"/>
			<psa03 value="0.0855918412608" flag="0"/>
			<psa10 value="0.0335311519059" flag="0"/>
			<psa30 value="0.00455565147787" flag="0"/>
		</comp>
	</station>
	<station code="DIDI" name="DIDI" netid="KO" source="Bogazici University Kandilli Observatory And Earthquake Research Institute (KOERI)" insttype="" lat="37.3767" lon="27.2398">
		<comp name=".HNE" depth="0.0">
			<acc value="0.145945272" flag="0"/>
			<vel value="0.038267" flag="0"/>
			<psa03 value="0.152481440155" flag="0"/>
			<psa10 value="0.0302613914463" flag="0"/>
			<psa30 value="0.00270242927974" flag="0"/>
		</comp>
		<comp name=".HNN" depth="0.0">
			<acc value="0.15302703" flag="0"/>
			<vel value="0.043544" flag="0"/>
			<psa03 value="0.199281788278" flag="0"/>
			<psa10 value="0.0252641343891" flag="0"/>
			<psa30 value="0.00391583792323" flag="0"/>
		</comp>
		<comp name=".HNZ" depth="0.0">
			<acc value="0.277478046" flag="0"/>
			<vel value="0.051402" flag="0"/>
			<psa03 value="0.114092626877" flag="0"/>
			<psa10 value="0.0145770109162" flag="0"/>
			<psa30 value="0.00168588634538" flag="0"/>
		</comp>
	</station>
	<station code="EZNE" name="EZNE" netid="KO" source="Bogazici University Kandilli Observatory And Earthquake Research Institute (KOERI)" insttype="" lat="39.756" lon="26.3655">
		<comp name=".HNE" depth="0.0">
			<acc value="0.014233794" flag="0"/>
			<vel value="0.018016" flag="0"/>
			<psa03 value="0.0630865113318" flag="0"/>
			<psa10 value="0.00703481714659" flag="0"/>
			<psa30 value="0.00242950181937" flag="0"/>
		</comp>
		<comp name=".HNN" depth="0.0">
			<acc value="0.021318612" flag="0"/>
			<vel value="0.018791" flag="0"/>
			<psa03 value="0.0719454682422" flag="0"/>
			<psa10 value="0.00680126282804" flag="0"/>
			<psa30 value="0.00282368065968" flag="0"/>
		</comp>
		<comp name=".HNZ" depth="0.0">
			<acc value="0.010648698" flag="0"/>
			<vel value="0.009248" flag="0"/>
			<psa03 value="0.0284560434092" flag="0"/>
			<psa10 value="0.00436504967768" flag="0"/>
			<psa30 value="0.00206753736783" flag="0"/>
		</comp>
	</station>
	<station code="FOCM" name="FOCM" netid="KO" source="Bogazici University Kandilli Observatory And Earthquake Research Institute (KOERI)" insttype="" lat="38.7131" lon="26.7309">
		<comp name=".HNE" depth="0.0">
			<acc value="0.024253968" flag="0"/>
			<vel value="0.015034" flag="0"/>
			<psa03 value="0.0634444489847" flag="0"/>
			<psa10 value="0.00966028983095" flag="0"/>
			<psa30 value="0.00116195510588" flag="0"/>
		</comp>
		<comp name=".HNN" depth="0.0">
			<acc value="0.030930582" flag="0"/>
			<vel value="0.014486" flag="0"/>
			<psa03 value="0.0929743053528" flag="0"/>
			<psa10 value="0.0114280544144" flag="0"/>
			<psa30 value="0.000996856363455" flag="0"/>
		</comp>
		<comp name=".HNZ" depth="0.0">
			<acc value="0.024113004" flag="0"/>
			<vel value="0.011195" flag="0"/>
			<psa03 value="0.0737798987135" flag="0"/>
			<psa10 value="0.00554087486761" flag="0"/>
			<psa30 value="0.000645182619435" flag="0"/>
		</comp>
	</station>
	<station code="GOMA" name="GOMA" netid="KO" source="Bogazici University Kandilli Observatory And Earthquake Research Institute (KOERI)" insttype="" lat="38.7077" lon="27.9175">
		<comp name=".HNE" depth="0.0">
			<acc value="0.027097014" flag="0"/>
			<vel value="0.016094" flag="0"/>
			<psa03 value="0.0815203004585" flag="0"/>
			<psa10 value="0.00746165779773" flag="0"/>
			<psa30 value="0.000615205341001" flag="0"/>
		</comp>
		<comp name=".HNN" depth="0.0">
			<acc value="0.01047438" flag="0"/>
			<vel value="0.007866" flag="0"/>
			<psa03 value="0.032348615385" flag="0"/>
			<psa10 value="0.00580664357492" flag="0"/>
			<psa30 value="0.00075838040218" flag="0"/>
		</comp>
		<comp name=".HNZ" depth="0.0">
			<acc value="0.009970398" flag="0"/>
			<vel value="0.004995" flag="0"/>
			<psa03 value="0.0418787053947" flag="0"/>
			<psa10 value="0.003515395174" flag="0"/>
			<psa30 value="0.000688135137789" flag="0"/>
		</comp>
	</station>
	<station code="GORD" name="GORD" netid="KO" source="Bogazici University Kandilli Observatory And Earthquake Research Institute (KOERI)" insttype="" lat="38.9088" lon="28.1769">
		<comp name=".HNE" depth="0.0">
			<acc value="0.024233262" flag="0"/>
			<vel value="0.023032" flag="0"/>
			<psa03 value="0.0627733158854" flag="0"/>
			<psa10 value="0.0337083310441" flag="0"/>
			<psa30 value="0.00334492736678" flag="0"/>
		</comp>
		<comp name=".HNN" depth="0.0">
			<acc value="0.01769649" flag="0"/>
			<vel value="0.016827" flag="0"/>
			<psa03 value="0.0633102223649" flag="0"/>
			<psa10 value="0.023850728082" flag="0"/>
			<psa30 value="0.00322233372065" flag="0"/>
		</comp>
		<comp name=".HNZ" depth="0.0">
			<acc value="0.019763928" flag="0"/>
			<vel value="0.018899" flag="0"/>
			<psa03 value="0.0502454980323" flag="0"/>
			<psa10 value="0.0190548109546" flag="0"/>
			<psa30 value="0.00230109168638" flag="0"/>
		</comp>
	</station>
	<station code="KUSD" name="KUSD" netid="KO" source="Bogazici University Kandilli Observatory And Earthquake Research Institute (KOERI)" insttype="" lat="37.8606" lon="27.2868">
		<comp name=".HNE" depth="0.0">
			<acc value="0.36606372" flag="0"/>
			<vel value="0.150164" flag="0"/>
			<psa03 value="0.401650788812" flag="0"/>
			<psa10 value="0.0741534961388" flag="0"/>
			<psa30 value="0.0107815295288" flag="0"/>
		</comp>
		<comp name=".HNN" depth="0.0">
			<acc value="0.255538254" flag="0"/>
			<vel value="0.085585" flag="0"/>
			<psa03 value="0.593550112998" flag="0"/>
			<psa10 value="0.072268954396" flag="0"/>
			<psa30 value="0.00764957506553" flag="0"/>
		</comp>
		<comp name=".HNZ" depth="0.0">
			<acc value="0.210459558" flag="0"/>
			<vel value="0.067538" flag="0"/>
			<psa03 value="0.358564043839" flag="0"/>
			<psa10 value="0.0448746435499" flag="0"/>
			<psa30 value="0.00510284866481" flag="0"/>
		</comp>
	</station>
	<station code="NAZL" name="NAZL" netid="KO" source="Bogazici University Kandilli Observatory And Earthquake Research Institute (KOERI)" insttype="" lat="37.9641" lon="28.2922">
		<comp name=".HNE" depth="0.0">
			<acc value="0.10372431" flag="0"/>
			<vel value="0.048889" flag="0"/>
			<psa03 value="0.337087784662" flag="0"/>
			<psa10 value="0.0343163776321" flag="0"/>
			<psa30 value="0.00281160026389" flag="0"/>
		</comp>
		<comp name=".HNN" depth="0.0">
			<acc value="0.087245088" flag="0"/>
			<vel value="0.046042" flag="0"/>
			<psa03 value="0.216283826793" flag="0"/>
			<psa10 value="0.0209917010791" flag="0"/>
			<psa30 value="0.00248632442178" flag="0"/>
		</comp>
		<comp name=".HNZ" depth="0.0">
			<acc value="0.033915408" flag="0"/>
			<vel value="0.025016" flag="0"/>
			<psa03 value="0.105233669966" flag="0"/>
			<psa10 value="0.0139689643283" flag="0"/>
			<psa30 value="0.00253464600493" flag="0"/>
		</comp>
	</station>
	<station code="SOMA" name="SOMA" netid="KO" source="Bogazici University Kandilli Observatory And Earthquake Research Institute (KOERI)" insttype="" lat="39.1564" lon="27.5341">
		<comp name=".HNE" depth="0.0">
			<acc value="0.057702216" flag="0"/>
			<vel value="0.037317" flag="0"/>
			<psa03 value="0.187559330144" flag="0"/>
			<psa10 value="0.0125313972296" flag="0"/>
			<psa30 value="0.00268945403982" flag="0"/>
		</comp>
		<comp name=".HNN" depth="0.0">
			<acc value="0.054059082" flag="0"/>
			<vel value="0.034686" flag="0"/>
			<psa03 value="0.138432387277" flag="0"/>
			<psa10 value="0.0180924060902" flag="0"/>
			<psa30 value="0.00440218570917" flag="0"/>
		</comp>
		<comp name=".HNZ" depth="0.0">
			<acc value="0.048199692" flag="0"/>
			<vel value="0.024587" flag="0"/>
			<psa03 value="0.177716044688" flag="0"/>
			<psa10 value="0.00782809646993" flag="0"/>
			<psa30 value="0.00348944469416" flag="0"/>
		</comp>
	</station>
	<station code="YKAV" name="YKAV" netid="KO" source="Bogazici University Kandilli Observatory And Earthquake Research Institute (KOERI)" insttype="" lat="37.1246" lon="27.2801">
		<comp name=".HNE" depth="0.0">
			<acc value="0.022136754" flag="0"/>
			<vel value="0.014092" flag="0"/>
			<psa03 value="0.0438026202793" flag="0"/>
			<psa10 value="0.0115327511779" flag="0"/>
			<psa30 value="0.00103175528462" flag="0"/>
		</comp>
		<comp name=".HNN" depth="0.0">
			<acc value="0.016887222" flag="0"/>
			<vel value="0.009908" flag="0"/>
			<psa03 value="0.038209844452" flag="0"/>
			<psa10 value="0.00995827292703" flag="0"/>
			<psa30 value="0.000688135137789" flag="0"/>
		</comp>
		<comp name=".HNZ" depth="0.0">
			<acc value="0.010928382" flag="0"/>
			<vel value="0.006765" flag="0"/>
			<psa03 value="0.0217894546231" flag="0"/>
			<psa10 value="0.00414357575492" flag="0"/>
			<psa30 value="0.000672475365473" flag="0"/>
		</comp>
	</station>
</stationlist>
