<?xml version="1.0" encoding="UTF-8" standalone="yes"?>
<!DOCTYPE earthquake SYSTEM "stationlist.dtd">
<stationlist created="" xmlns="ch.ethz.sed.shakemap.usgs.xml">
  <station code="BH02A" name="BH02A" netid="Y5" insttype="STS2_gen3" lat="43.8746" lon="18.4241">
    <comp name="--.HHZ">
      <acc value="0.0091912663" flag="0"/>
      <vel value="0.0067447755" flag="0"/>
      <psa03 value="0.0342786678" flag="0"/>
      <psa10 value="0.0048791654" flag="0"/>
      <psa30 value="0.0004290223" flag="0"/>
    </comp>
    <comp name="--.HH2">
      <acc value="0.0079055483" flag="0"/>
      <vel value="0.0052334190" flag="0"/>
      <psa03 value="0.0186758603" flag="0"/>
      <psa10 value="0.0048051976" flag="0"/>
      <psa30 value="0.0004775062" flag="0"/>
    </comp>
    <comp name="--.HH1">
      <acc value="0.0103003009" flag="0"/>
      <vel value="0.0078837816" flag="0"/>
      <psa03 value="0.0233585278" flag="0"/>
      <psa10 value="0.0047338636" flag="0"/>
      <psa30 value="0.0004208699" flag="0"/>
    </comp>
  </station>
  <station code="BH04A" name="BH04A" netid="Y5" insttype="STS2_gen2" lat="43.3483" lon="17.7935">
    <comp name="--.HH2">
      <acc value="1.0803475910" flag="0"/>
      <vel value="0.2096579553" flag="0"/>
      <psa03 value="0.7934685217" flag="0"/>
      <psa10 value="0.0553723982" flag="0"/>
      <psa30 value="0.0041564776" flag="0"/>
    </comp>
    <comp name="--.HH1">
      <acc value="1.0835050906" flag="0"/>
      <vel value="0.2603771850" flag="0"/>
      <psa03 value="1.1247878580" flag="0"/>
      <psa10 value="0.0736036081" flag="0"/>
      <psa30 value="0.0066526985" flag="0"/>
    </comp>
    <comp name="--.HHZ">
      <acc value="0.4954600795" flag="0"/>
      <vel value="0.1106345966" flag="0"/>
      <psa03 value="0.4645594206" flag="0"/>
      <psa10 value="0.0731134651" flag="0"/>
      <psa30 value="0.0033198626" flag="0"/>
    </comp>
  </station>
  <station code="BH05A" name="BH05A" netid="Y5" insttype="STS2_gen2" lat="43.1695" lon="18.5854">
    <comp name="--.HH2">
      <acc value="0.0197490224" flag="0"/>
      <vel value="0.0060492886" flag="0"/>
      <psa03 value="0.0272960068" flag="0"/>
      <psa10 value="0.0037729079" flag="0"/>
      <psa30 value="0.0002241255" flag="0"/>
    </comp>
    <comp name="--.HHZ">
      <acc value="0.0158275254" flag="0"/>
      <vel value="0.0062544047" flag="0"/>
      <psa03 value="0.0256219976" flag="0"/>
      <psa10 value="0.0034571095" flag="0"/>
      <psa30 value="0.0002618836" flag="0"/>
    </comp>
    <comp name="--.HH1">
      <acc value="0.0222583567" flag="0"/>
      <vel value="0.0063026966" flag="0"/>
      <psa03 value="0.0431225096" flag="0"/>
      <psa10 value="0.0054909155" flag="0"/>
      <psa30 value="0.0004193142" flag="0"/>
    </comp>
  </station>
  <station code="BH06A" name="BH06A" netid="Y5" insttype="STS2_gen3" lat="43.5022" lon="18.4463">
    <comp name="--.HHZ">
      <acc value="0.0157063703" flag="0"/>
      <vel value="0.0094641116" flag="0"/>
      <psa03 value="0.0544767531" flag="0"/>
      <psa10 value="0.0071506300" flag="0"/>
      <psa30 value="0.0006240067" flag="0"/>
    </comp>
    <comp name="--.HH2">
      <acc value="0.0272816044" flag="0"/>
      <vel value="0.0155710486" flag="0"/>
      <psa03 value="0.0930985609" flag="0"/>
      <psa10 value="0.0069207736" flag="0"/>
      <psa30 value="0.0006687922" flag="0"/>
    </comp>
    <comp name="--.HH1">
      <acc value="0.0402232505" flag="0"/>
      <vel value="0.0155535681" flag="0"/>
      <psa03 value="0.1216558659" flag="0"/>
      <psa10 value="0.0097613690" flag="0"/>
      <psa30 value="0.0004887831" flag="0"/>
    </comp>
  </station>
  <station code="BH07A" name="BH07A" netid="Y5" insttype="STS2_gen3" lat="43.7511" lon="18.0361">
    <comp name="--.HHZ">
      <acc value="0.0585977523" flag="0"/>
      <vel value="0.0174868540" flag="0"/>
      <psa03 value="0.0529141832" flag="0"/>
      <psa10 value="0.0066416311" flag="0"/>
      <psa30 value="0.0005305205" flag="0"/>
    </comp>
    <comp name="--.HH1">
      <acc value="0.0910602934" flag="0"/>
      <vel value="0.0331468457" flag="0"/>
      <psa03 value="0.1076672239" flag="0"/>
      <psa10 value="0.0116975460" flag="0"/>
      <psa30 value="0.0007550486" flag="0"/>
    </comp>
    <comp name="--.HH2">
      <acc value="0.0922830737" flag="0"/>
      <vel value="0.0299017087" flag="0"/>
      <psa03 value="0.1175832760" flag="0"/>
      <psa10 value="0.0149242206" flag="0"/>
      <psa30 value="0.0010774626" flag="0"/>
    </comp>
  </station>
  <station code="BH12A" name="BH12A" netid="Y5" insttype="STS2_gen3" lat="44.3931" lon="17.1573">
    <comp name="--.HH2">
      <acc value="0.0107316900" flag="0"/>
      <vel value="0.0036661044" flag="0"/>
      <psa03 value="0.0170473471" flag="0"/>
      <psa10 value="0.0040367816" flag="0"/>
      <psa30 value="0.0002288218" flag="0"/>
    </comp>
    <comp name="--.HH1">
      <acc value="0.0106944429" flag="0"/>
      <vel value="0.0059487942" flag="0"/>
      <psa03 value="0.0250878449" flag="0"/>
      <psa10 value="0.0043690654" flag="0"/>
      <psa30 value="0.0003272223" flag="0"/>
    </comp>
    <comp name="--.HHZ">
      <acc value="0.0057863222" flag="0"/>
      <vel value="0.0025167571" flag="0"/>
      <psa03 value="0.0114552909" flag="0"/>
      <psa10 value="0.0047278401" flag="0"/>
      <psa30 value="0.0002357946" flag="0"/>
    </comp>
  </station>
</stationlist>
