<?xml version="1.0" encoding="UTF-8" standalone="yes"?>
<!DOCTYPE earthquake SYSTEM "stationlist.dtd">
<stationlist created="" xmlns="ch.ethz.sed.shakemap.usgs.xml">
  <station code="BH01A" name="BH01A" netid="Y5" insttype="STS2_gen3" lat="43.6265" lon="18.9627">
    <comp name="--.HHZ">
      <acc value="0.0104124812" flag="0"/>
      <vel value="0.0036010728" flag="0"/>
      <psa03 value="0.0248113083" flag="0"/>
      <psa10 value="0.0022112607" flag="0"/>
      <psa30 value="0.0002005051" flag="0"/>
    </comp>
    <comp name="--.HH2">
      <acc value="0.0183919231" flag="0"/>
      <vel value="0.0035768047" flag="0"/>
      <psa03 value="0.0286378460" flag="0"/>
      <psa10 value="0.0027689043" flag="0"/>
      <psa30 value="0.0001743706" flag="0"/>
    </comp>
    <comp name="--.HH1">
      <acc value="0.0192628094" flag="0"/>
      <vel value="0.0034086840" flag="0"/>
      <psa03 value="0.0244243989" flag="0"/>
      <psa10 value="0.0037005878" flag="0"/>
      <psa30 value="0.0002118263" flag="0"/>
    </comp>
  </station>
  <station code="BH02A" name="BH02A" netid="Y5" insttype="STS2_gen3" lat="43.8746" lon="18.4241">
    <comp name="--.HH1">
      <acc value="0.0103002986" flag="0"/>
      <vel value="0.0078837813" flag="0"/>
      <psa03 value="0.0233585278" flag="0"/>
      <psa10 value="0.0047338636" flag="0"/>
      <psa30 value="0.0004208532" flag="0"/>
    </comp>
    <comp name="--.HHZ">
      <acc value="0.0091912676" flag="0"/>
      <vel value="0.0067447751" flag="0"/>
      <psa03 value="0.0342786678" flag="0"/>
      <psa10 value="0.0048791655" flag="0"/>
      <psa30 value="0.0004290520" flag="0"/>
    </comp>
    <comp name="--.HH2">
      <acc value="0.0079055471" flag="0"/>
      <vel value="0.0052334191" flag="0"/>
      <psa03 value="0.0186758603" flag="0"/>
      <psa10 value="0.0048051976" flag="0"/>
      <psa30 value="0.0004775051" flag="0"/>
    </comp>
  </station>
  <station code="BH03A" name="BH03A" netid="Y5" insttype="STS2_gen3" lat="43.8212" lon="17.6885">
    <comp name="--.HH2">
      <acc value="0.1361100259" flag="0"/>
      <vel value="0.0496393821" flag="0"/>
      <psa03 value="0.2175774374" flag="0"/>
      <psa10 value="0.0283431274" flag="0"/>
      <psa30 value="0.0014194409" flag="0"/>
    </comp>
    <comp name="--.HHZ">
      <acc value="0.0556948537" flag="0"/>
      <vel value="0.0165978639" flag="0"/>
      <psa03 value="0.0805378080" flag="0"/>
      <psa10 value="0.0119302006" flag="0"/>
      <psa30 value="0.0008489030" flag="0"/>
    </comp>
    <comp name="--.HH1">
      <acc value="0.1218484103" flag="0"/>
      <vel value="0.0377883232" flag="0"/>
      <psa03 value="0.3080926075" flag="0"/>
      <psa10 value="0.0143577842" flag="0"/>
      <psa30 value="0.0012395104" flag="0"/>
    </comp>
  </station>
  <station code="BH04A" name="BH04A" netid="Y5" insttype="STS2_gen2" lat="43.3483" lon="17.7935">
    <comp name="--.HHZ">
      <acc value="0.4954600789" flag="0"/>
      <vel value="0.1106345966" flag="0"/>
      <psa03 value="0.4645594206" flag="0"/>
      <psa10 value="0.0731134631" flag="0"/>
      <psa30 value="0.0033197927" flag="0"/>
    </comp>
    <comp name="--.HH2">
      <acc value="1.0803475903" flag="0"/>
      <vel value="0.2096579558" flag="0"/>
      <psa03 value="0.7934685217" flag="0"/>
      <psa10 value="0.0553723981" flag="0"/>
      <psa30 value="0.0041564966" flag="0"/>
    </comp>
    <comp name="--.HH1">
      <acc value="1.0835050902" flag="0"/>
      <vel value="0.2603771851" flag="0"/>
      <psa03 value="1.1247878580" flag="0"/>
      <psa10 value="0.0736036039" flag="0"/>
      <psa30 value="0.0066526901" flag="0"/>
    </comp>
  </station>
  <station code="BH05A" name="BH05A" netid="Y5" insttype="STS2_gen2" lat="43.1695" lon="18.5854">
    <comp name="--.HHZ">
      <acc value="0.0158275271" flag="0"/>
      <vel value="0.0062544045" flag="0"/>
      <psa03 value="0.0256219976" flag="0"/>
      <psa10 value="0.0034571095" flag="0"/>
      <psa30 value="0.0002618865" flag="0"/>
    </comp>
    <comp name="--.HH1">
      <acc value="0.0222583567" flag="0"/>
      <vel value="0.0063026969" flag="0"/>
      <psa03 value="0.0431225096" flag="0"/>
      <psa10 value="0.0054909155" flag="0"/>
      <psa30 value="0.0004193047" flag="0"/>
    </comp>
    <comp name="--.HH2">
      <acc value="0.0197490230" flag="0"/>
      <vel value="0.0060492884" flag="0"/>
      <psa03 value="0.0272960068" flag="0"/>
      <psa10 value="0.0037729079" flag="0"/>
      <psa30 value="0.0002241247" flag="0"/>
    </comp>
  </station>
  <station code="BH06A" name="BH06A" netid="Y5" insttype="STS2_gen3" lat="43.5022" lon="18.4463">
    <comp name="--.HH1">
      <acc value="0.0402232493" flag="0"/>
      <vel value="0.0155535670" flag="0"/>
      <psa03 value="0.1216558659" flag="0"/>
      <psa10 value="0.0097613690" flag="0"/>
      <psa30 value="0.0004887725" flag="0"/>
    </comp>
    <comp name="--.HH2">
      <acc value="0.0272816052" flag="0"/>
      <vel value="0.0155710484" flag="0"/>
      <psa03 value="0.0930985609" flag="0"/>
      <psa10 value="0.0069207735" flag="0"/>
      <psa30 value="0.0006687921" flag="0"/>
    </comp>
    <comp name="--.HHZ">
      <acc value="0.0157063713" flag="0"/>
      <vel value="0.0094641117" flag="0"/>
      <psa03 value="0.0544767531" flag="0"/>
      <psa10 value="0.0071506300" flag="0"/>
      <psa30 value="0.0006240044" flag="0"/>
    </comp>
  </station>
  <station code="BH07A" name="BH07A" netid="Y5" insttype="STS2_gen3" lat="43.7511" lon="18.0361">
    <comp name="--.HH1">
      <acc value="0.0910602960" flag="0"/>
      <vel value="0.0331468459" flag="0"/>
      <psa03 value="0.1076672239" flag="0"/>
      <psa10 value="0.0116975459" flag="0"/>
      <psa30 value="0.0007550415" flag="0"/>
    </comp>
    <comp name="--.HH2">
      <acc value="0.0922830743" flag="0"/>
      <vel value="0.0299017089" flag="0"/>
      <psa03 value="0.1175832760" flag="0"/>
      <psa10 value="0.0149242207" flag="0"/>
      <psa30 value="0.0010774136" flag="0"/>
    </comp>
    <comp name="--.HHZ">
      <acc value="0.0585977474" flag="0"/>
      <vel value="0.0174868545" flag="0"/>
      <psa03 value="0.0529141832" flag="0"/>
      <psa10 value="0.0066416310" flag="0"/>
      <psa30 value="0.0005305532" flag="0"/>
    </comp>
  </station>
  <station code="BH08A" name="BH08A" netid="Y5" insttype="STS2_gen2" lat="44.2357" lon="18.0082">
    <comp name="--.HHZ">
      <acc value="0.0068388670" flag="0"/>
      <vel value="0.0041863143" flag="0"/>
      <psa03 value="0.0172760156" flag="0"/>
      <psa10 value="0.0062738821" flag="0"/>
      <psa30 value="0.0003457248" flag="0"/>
    </comp>
    <comp name="--.HH1">
      <acc value="0.0114602338" flag="0"/>
      <vel value="0.0052704483" flag="0"/>
      <psa03 value="0.0235278653" flag="0"/>
      <psa10 value="0.0045698353" flag="0"/>
      <psa30 value="0.0002682697" flag="0"/>
    </comp>
    <comp name="--.HH2">
      <acc value="0.0141346139" flag="0"/>
      <vel value="0.0088145325" flag="0"/>
      <psa03 value="0.0255466705" flag="0"/>
      <psa10 value="0.0082572276" flag="0"/>
      <psa30 value="0.0003357260" flag="0"/>
    </comp>
  </station>
  <station code="BH10A" name="BH10A" netid="Y5" insttype="STS2_gen3" lat="44.0685" lon="17.1657">
    <comp name="--.HH2">
      <acc value="0.0265425543" flag="0"/>
      <vel value="0.0122197178" flag="0"/>
      <psa03 value="0.0385268737" flag="0"/>
      <psa10 value="0.0093386170" flag="0"/>
      <psa30 value="0.0004866143" flag="0"/>
    </comp>
    <comp name="--.HHZ">
      <acc value="0.0075526776" flag="0"/>
      <vel value="0.0045848911" flag="0"/>
      <psa03 value="0.0199633143" flag="0"/>
      <psa10 value="0.0058333862" flag="0"/>
      <psa30 value="0.0002926134" flag="0"/>
    </comp>
    <comp name="--.HH1">
      <acc value="0.0182232708" flag="0"/>
      <vel value="0.0104709140" flag="0"/>
      <psa03 value="0.0260815507" flag="0"/>
      <psa10 value="0.0060961698" flag="0"/>
      <psa30 value="0.0003713454" flag="0"/>
    </comp>
  </station>
  <station code="BH12A" name="BH12A" netid="Y5" insttype="STS2_gen3" lat="44.3931" lon="17.1573">
    <comp name="--.HH1">
      <acc value="0.0106944454" flag="0"/>
      <vel value="0.0059487951" flag="0"/>
      <psa03 value="0.0250878449" flag="0"/>
      <psa10 value="0.0043690654" flag="0"/>
      <psa30 value="0.0003272241" flag="0"/>
    </comp>
    <comp name="--.HH2">
      <acc value="0.0107316928" flag="0"/>
      <vel value="0.0036661046" flag="0"/>
      <psa03 value="0.0170473471" flag="0"/>
      <psa10 value="0.0040367816" flag="0"/>
      <psa30 value="0.0002288348" flag="0"/>
    </comp>
    <comp name="--.HHZ">
      <acc value="0.0057863224" flag="0"/>
      <vel value="0.0025167569" flag="0"/>
      <psa03 value="0.0114552909" flag="0"/>
      <psa10 value="0.0047278401" flag="0"/>
      <psa30 value="0.0002357999" flag="0"/>
    </comp>
  </station>
  <station code="BH14A" name="BH14A" netid="Y5" insttype="STS2_gen3" lat="44.5136" lon="17.6572">
    <comp name="--.HH2">
      <acc value="0.0077638092" flag="0"/>
      <vel value="0.0050915850" flag="0"/>
      <psa03 value="0.0273452104" flag="0"/>
      <psa10 value="0.0049457866" flag="0"/>
      <psa30 value="0.0003269576" flag="0"/>
    </comp>
    <comp name="--.HHZ">
      <acc value="0.0054107359" flag="0"/>
      <vel value="0.0038218542" flag="0"/>
      <psa03 value="0.0126110293" flag="0"/>
      <psa10 value="0.0045822976" flag="0"/>
      <psa30 value="0.0003043931" flag="0"/>
    </comp>
    <comp name="--.HH1">
      <acc value="0.0109638643" flag="0"/>
      <vel value="0.0076067531" flag="0"/>
      <psa03 value="0.0250698501" flag="0"/>
      <psa10 value="0.0079181279" flag="0"/>
      <psa30 value="0.0003961161" flag="0"/>
    </comp>
  </station>
</stationlist>
