<?xml version="1.0" encoding="UTF-8" standalone="yes"?>
<!DOCTYPE earthquake SYSTEM "stationlist.dtd">
<stationlist created="" xmlns="ch.ethz.sed.shakemap.usgs.xml">
  <station code="GOD" name="GOD" netid="VI" insttype="CMG-3ESP" lat="63.6598" lon="-19.3224">
    <comp name="--.HHN">
      <acc value="0.0073846372" flag="0"/>
      <vel value="0.0183644008" flag="0"/>
      <psa03 value="0.0114563736" flag="0"/>
      <psa10 value="0.0171480287" flag="0"/>
      <psa30 value="0.0073744130" flag="0"/>
    </comp>
    <comp name="--.HHE">
      <acc value="0.0074240931" flag="0"/>
      <vel value="0.0237253552" flag="0"/>
      <psa03 value="0.0082678019" flag="0"/>
      <psa10 value="0.0169464588" flag="0"/>
      <psa30 value="0.0110052036" flag="0"/>
    </comp>
    <comp name="--.HHZ">
      <acc value="0.0050637168" flag="0"/>
      <vel value="0.0125772406" flag="0"/>
      <psa03 value="0.0088168293" flag="0"/>
      <psa10 value="0.0124033733" flag="0"/>
      <psa30 value="0.0047602395" flag="0"/>
    </comp>
  </station>
  <station code="SKR" name="SKR" netid="VI" insttype="LE-3D/5s" lat="64.5601" lon="-18.3865">
    <comp name="--.HHE">
      <acc value="0.1330154170" flag="0"/>
      <vel value="0.4219650694" flag="0"/>
      <psa03 value="0.1566195516" flag="0"/>
      <psa10 value="0.2544132446" flag="0"/>
      <psa30 value="0.1924976628" flag="0"/>
    </comp>
    <comp name="--.HHZ">
      <acc value="0.1064986470" flag="0"/>
      <vel value="0.2911035880" flag="0"/>
      <psa03 value="0.2703312711" flag="0"/>
      <psa10 value="0.2247098469" flag="0"/>
      <psa30 value="0.1770812387" flag="0"/>
    </comp>
    <comp name="--.HHN">
      <acc value="0.1181005642" flag="0"/>
      <vel value="0.3583026182" flag="0"/>
      <psa03 value="0.1451407251" flag="0"/>
      <psa10 value="0.1712636563" flag="0"/>
      <psa30 value="0.1720239700" flag="0"/>
    </comp>
  </station>
</stationlist>
