<?xml version="1.0" encoding="UTF-8" standalone="yes"?>
<!DOCTYPE earthquake SYSTEM "stationlist.dtd">
<stationlist created="" xmlns="ch.ethz.sed.shakemap.usgs.xml">
  <station code="SKR" name="SKR" netid="VI" insttype="LE-3D/5s" lat="64.5601" lon="-18.3865">
    <comp name="--.HHE">
      <acc value="0.1330155565" flag="0"/>
      <vel value="0.4220534100" flag="0"/>
      <psa03 value="0.1566195502" flag="0"/>
      <psa10 value="0.2544132730" flag="0"/>
      <psa30 value="0.1925017389" flag="0"/>
    </comp>
    <comp name="--.HHZ">
      <acc value="0.1064984978" flag="0"/>
      <vel value="0.2909573096" flag="0"/>
      <psa03 value="0.2703312583" flag="0"/>
      <psa10 value="0.2247098083" flag="0"/>
      <psa30 value="0.1770867524" flag="0"/>
    </comp>
    <comp name="--.HHN">
      <acc value="0.1181004165" flag="0"/>
      <vel value="0.3581528108" flag="0"/>
      <psa03 value="0.1451407688" flag="0"/>
      <psa10 value="0.1712637021" flag="0"/>
      <psa30 value="0.1720205211" flag="0"/>
    </comp>
  </station>
</stationlist>
