<?xml version="1.0" encoding="UTF-8" standalone="yes"?>
<!DOCTYPE earthquake SYSTEM "stationlist.dtd">
<stationlist created="" xmlns="ch.ethz.sed.shakemap.usgs.xml">
  <station code="SKR" name="SKR" netid="VI" insttype="LE-3D/5s" lat="64.5601" lon="-18.3865">
    <comp name="--.HHN">
      <acc value="0.1181005574" flag="0"/>
      <vel value="0.3583005490" flag="0"/>
      <psa03 value="0.1451407226" flag="0"/>
      <psa10 value="0.1712636539" flag="0"/>
      <psa30 value="0.1720241754" flag="0"/>
    </comp>
    <comp name="--.HHE">
      <acc value="0.1330154140" flag="0"/>
      <vel value="0.4219624243" flag="0"/>
      <psa03 value="0.1566195541" flag="0"/>
      <psa10 value="0.2544132480" flag="0"/>
      <psa30 value="0.1924975402" flag="0"/>
    </comp>
    <comp name="--.HHZ">
      <acc value="0.1064986452" flag="0"/>
      <vel value="0.2911038106" flag="0"/>
      <psa03 value="0.2703312708" flag="0"/>
      <psa10 value="0.2247098474" flag="0"/>
      <psa30 value="0.1770813533" flag="0"/>
    </comp>
  </station>
</stationlist>
