<?xml version="1.0" encoding="UTF-8" standalone="yes"?>
<!DOCTYPE earthquake SYSTEM "stationlist.dtd">
<stationlist created="" xmlns="ch.ethz.sed.shakemap.usgs.xml">
  <station code="SOKA" name="SOKA" netid="OE" source="ODC" insttype="STS-2" lat="46.678" lon="15.0327">
    <comp name="--.HHE">
      <acc value="0.0044873020" flag="0"/>
      <vel value="0.0016831592" flag="0"/>
      <psa03 value="0.0081685845" flag="0"/>
      <psa10 value="0.0015340475" flag="0"/>
      <psa30 value="0.0002752204" flag="0"/>
    </comp>
    <comp name="--.HHN">
      <acc value="0.0037450311" flag="0"/>
      <vel value="0.0018082886" flag="0"/>
      <psa03 value="0.0113883558" flag="0"/>
      <psa10 value="0.0017301609" flag="0"/>
      <psa30 value="0.0001537208" flag="0"/>
    </comp>
    <comp name="--.HHZ">
      <acc value="0.0085481063" flag="0"/>
      <vel value="0.0035609113" flag="0"/>
      <psa03 value="0.0144711870" flag="0"/>
      <psa10 value="0.0025659532" flag="0"/>
      <psa30 value="0.0003838959" flag="0"/>
    </comp>
  </station>
  <station code="BOJS" name="BOJS" netid="SL" source="ODC" insttype="STS-2" lat="45.5043" lon="15.2518">
    <comp name="--.HHE">
      <acc value="0.0933148860" flag="0"/>
      <vel value="0.0280927345" flag="0"/>
      <psa03 value="0.1313837586" flag="0"/>
      <psa10 value="0.0123615677" flag="0"/>
      <psa30 value="0.0011618830" flag="0"/>
    </comp>
    <comp name="--.HHN">
      <acc value="0.0767698274" flag="0"/>
      <vel value="0.0236246030" flag="0"/>
      <psa03 value="0.0881914532" flag="0"/>
      <psa10 value="0.0103455598" flag="0"/>
      <psa30 value="0.0012465153" flag="0"/>
    </comp>
    <comp name="--.HHZ">
      <acc value="0.0888589770" flag="0"/>
      <vel value="0.0189312549" flag="0"/>
      <psa03 value="0.0745475575" flag="0"/>
      <psa10 value="0.0116870643" flag="0"/>
      <psa30 value="0.0015667807" flag="0"/>
    </comp>
  </station>
  <station code="CEY" name="CEY" netid="SL" source="ODC" insttype="CMG3ESP_120SEC/QUANTERRA" lat="45.7381" lon="14.4221">
    <comp name="--.HHE">
      <acc value="0.0049872626" flag="0"/>
      <vel value="0.0012421988" flag="0"/>
      <psa03 value="0.0063729392" flag="0"/>
      <psa10 value="0.0006364068" flag="0"/>
      <psa30 value="0.0000932319" flag="0"/>
    </comp>
    <comp name="--.HHN">
      <acc value="0.0034121660" flag="0"/>
      <vel value="0.0009887130" flag="0"/>
      <psa03 value="0.0063348750" flag="0"/>
      <psa10 value="0.0008956190" flag="0"/>
      <psa30 value="0.0000510685" flag="0"/>
    </comp>
    <comp name="--.HHZ">
      <acc value="0.0020519939" flag="0"/>
      <vel value="0.0008536498" flag="0"/>
      <psa03 value="0.0072199317" flag="0"/>
      <psa10 value="0.0006989532" flag="0"/>
      <psa30 value="0.0001110047" flag="0"/>
    </comp>
  </station>
  <station code="CRES" name="CRES" netid="SL" source="ODC" insttype="STS-2" lat="45.826" lon="15.4569">
    <comp name="--.HHE">
      <acc value="1.2356284588" flag="0"/>
      <vel value="0.2303297120" flag="0"/>
      <psa03 value="0.7839540794" flag="0"/>
      <psa10 value="0.0498047270" flag="0"/>
      <psa30 value="0.0060351250" flag="0"/>
    </comp>
    <comp name="--.HHN">
      <acc value="0.9136404411" flag="0"/>
      <vel value="0.1680461778" flag="0"/>
      <psa03 value="0.7049491245" flag="0"/>
      <psa10 value="0.0354618704" flag="0"/>
      <psa30 value="0.0037547195" flag="0"/>
    </comp>
    <comp name="--.HHZ">
      <acc value="0.6088869028" flag="0"/>
      <vel value="0.1168741724" flag="0"/>
      <psa03 value="0.3493874693" flag="0"/>
      <psa10 value="0.0179176520" flag="0"/>
      <psa30 value="0.0039897531" flag="0"/>
    </comp>
  </station>
  <station code="DOBS" name="DOBS" netid="SL" source="ODC" insttype="CMG40T_30SEC/QUANTERRA" lat="46.1495" lon="15.4695">
    <comp name="--.HHE">
      <acc value="0.6527003132" flag="0"/>
      <vel value="0.1799426099" flag="0"/>
      <psa03 value="0.5547351733" flag="0"/>
      <psa10 value="0.0408755624" flag="0"/>
      <psa30 value="0.0032814392" flag="0"/>
    </comp>
    <comp name="--.HHN">
      <acc value="0.7833359217" flag="0"/>
      <vel value="0.1540631311" flag="0"/>
      <psa03 value="0.2962120334" flag="0"/>
      <psa10 value="0.0308578424" flag="0"/>
      <psa30 value="0.0054782921" flag="0"/>
    </comp>
    <comp name="--.HHZ">
      <acc value="0.3558604325" flag="0"/>
      <vel value="0.0789186241" flag="0"/>
      <psa03 value="0.1670982682" flag="0"/>
      <psa10 value="0.0165361310" flag="0"/>
      <psa30 value="0.0040625485" flag="0"/>
    </comp>
  </station>
  <station code="GBAS" name="GBAS" netid="SL" source="ODC" insttype="CMG3ESP_60SEC/QUANTERRA" lat="45.9348" lon="14.4434">
    <comp name="--.HHE">
      <acc value="0.0065394970" flag="0"/>
      <vel value="0.0020156250" flag="0"/>
      <psa03 value="0.0090522715" flag="0"/>
      <psa10 value="0.0016837764" flag="0"/>
      <psa30 value="0.0001513862" flag="0"/>
    </comp>
    <comp name="--.HHN">
      <acc value="0.0087185659" flag="0"/>
      <vel value="0.0025728436" flag="0"/>
      <psa03 value="0.0147628015" flag="0"/>
      <psa10 value="0.0011422277" flag="0"/>
      <psa30 value="0.0001878053" flag="0"/>
    </comp>
    <comp name="--.HHZ">
      <acc value="0.0056497353" flag="0"/>
      <vel value="0.0014971908" flag="0"/>
      <psa03 value="0.0094764900" flag="0"/>
      <psa10 value="0.0013795749" flag="0"/>
      <psa30 value="0.0003344984" flag="0"/>
    </comp>
  </station>
  <station code="GBRS" name="GBRS" netid="SL" source="ODC" insttype="CMG40T_30SEC/QUANTERRA" lat="45.5311" lon="14.8101">
    <comp name="--.HHE">
      <acc value="0.0582415611" flag="0"/>
      <vel value="0.0096029806" flag="0"/>
      <psa03 value="0.0350329434" flag="0"/>
      <psa10 value="0.0046416697" flag="0"/>
      <psa30 value="0.0004303176" flag="0"/>
    </comp>
    <comp name="--.HHN">
      <acc value="0.0599922391" flag="0"/>
      <vel value="0.0122278880" flag="0"/>
      <psa03 value="0.0386825159" flag="0"/>
      <psa10 value="0.0067763949" flag="0"/>
      <psa30 value="0.0013034146" flag="0"/>
    </comp>
    <comp name="--.HHZ">
      <acc value="0.0300549341" flag="0"/>
      <vel value="0.0093009905" flag="0"/>
      <psa03 value="0.0475658757" flag="0"/>
      <psa10 value="0.0050100833" flag="0"/>
      <psa30 value="0.0014207235" flag="0"/>
    </comp>
  </station>
  <station code="GCIS" name="GCIS" netid="SL" source="ODC" insttype="CMG3ESP_120SEC/QUANTERRA" lat="45.8672" lon="15.6275">
    <comp name="--.HHE">
      <acc value="0.8383360174" flag="0"/>
      <vel value="0.1320725073" flag="0"/>
      <psa03 value="0.4982869065" flag="0"/>
      <psa10 value="0.0324835327" flag="0"/>
      <psa30 value="0.0038944552" flag="0"/>
    </comp>
    <comp name="--.HHN">
      <acc value="0.9758947783" flag="0"/>
      <vel value="0.1545216456" flag="0"/>
      <psa03 value="0.4587690945" flag="0"/>
      <psa10 value="0.0298089498" flag="0"/>
      <psa30 value="0.0042758752" flag="0"/>
    </comp>
    <comp name="--.HHZ">
      <acc value="0.5544996307" flag="0"/>
      <vel value="0.0924408753" flag="0"/>
      <psa03 value="0.2740188131" flag="0"/>
      <psa10 value="0.0198893275" flag="0"/>
      <psa30 value="0.0022481897" flag="0"/>
    </comp>
  </station>
  <station code="GOLS" name="GOLS" netid="SL" source="ODC" insttype="CMG40TB_30SEC/QUANTERRA" lat="46.0108" lon="15.6245">
    <comp name="--.HH1">
      <acc value="0.4790889933" flag="0"/>
      <vel value="0.1017801611" flag="0"/>
      <psa03 value="0.6366136779" flag="0"/>
      <psa10 value="0.0617194348" flag="0"/>
      <psa30 value="0.0057288678" flag="0"/>
    </comp>
    <comp name="--.HH2">
      <acc value="0.6330299067" flag="0"/>
      <vel value="0.1337823490" flag="0"/>
      <psa03 value="0.5303135812" flag="0"/>
      <psa10 value="0.0330962967" flag="0"/>
      <psa30 value="0.0063357422" flag="0"/>
    </comp>
    <comp name="--.HHZ">
      <acc value="0.5906494579" flag="0"/>
      <vel value="0.1223318666" flag="0"/>
      <psa03 value="0.3674752483" flag="0"/>
      <psa10 value="0.0319826875" flag="0"/>
      <psa30 value="0.0030803537" flag="0"/>
    </comp>
  </station>
  <station code="GROS" name="GROS" netid="SL" source="ODC" insttype="CMG40T_30SEC/QUANTERRA" lat="46.461" lon="15.5018">
    <comp name="--.HHE">
      <acc value="0.1100005094" flag="0"/>
      <vel value="0.0174638203" flag="0"/>
      <psa03 value="0.0530308169" flag="0"/>
      <psa10 value="0.0048175317" flag="0"/>
      <psa30 value="0.0004133545" flag="0"/>
    </comp>
    <comp name="--.HHN">
      <acc value="0.1606571003" flag="0"/>
      <vel value="0.0246657861" flag="0"/>
      <psa03 value="0.0581814471" flag="0"/>
      <psa10 value="0.0048500690" flag="0"/>
      <psa30 value="0.0009356634" flag="0"/>
    </comp>
    <comp name="--.HHZ">
      <acc value="0.0926419175" flag="0"/>
      <vel value="0.0151809322" flag="0"/>
      <psa03 value="0.0442796757" flag="0"/>
      <psa10 value="0.0057888517" flag="0"/>
      <psa30 value="0.0018813364" flag="0"/>
    </comp>
  </station>
  <station code="KOGS" name="KOGS" netid="SL" source="ODC" insttype="CMG3ESP_120SEC/QUANTERRA" lat="46.4481" lon="16.2504">
    <comp name="--.HHE">
      <acc value="0.2494927838" flag="0"/>
      <vel value="0.0745686595" flag="0"/>
      <psa03 value="0.2898358702" flag="0"/>
      <psa10 value="0.0241415653" flag="0"/>
      <psa30 value="0.0017964066" flag="0"/>
    </comp>
    <comp name="--.HHN">
      <acc value="0.1707527878" flag="0"/>
      <vel value="0.0690984882" flag="0"/>
      <psa03 value="0.2360203388" flag="0"/>
      <psa10 value="0.0289954259" flag="0"/>
      <psa30 value="0.0024108867" flag="0"/>
    </comp>
    <comp name="--.HHZ">
      <acc value="0.0831973850" flag="0"/>
      <vel value="0.0381158796" flag="0"/>
      <psa03 value="0.1382302927" flag="0"/>
      <psa10 value="0.0154683838" flag="0"/>
      <psa30 value="0.0023536621" flag="0"/>
    </comp>
  </station>
  <station code="LJU" name="LJU" netid="SL" source="ODC" insttype="STS-2" lat="46.0438" lon="14.5278">
    <comp name="--.HHE">
      <acc value="0.0471839540" flag="0"/>
      <vel value="0.0166651038" flag="0"/>
      <psa03 value="0.0971117937" flag="0"/>
      <psa10 value="0.0078780584" flag="0"/>
      <psa30 value="0.0020903260" flag="0"/>
    </comp>
    <comp name="--.HHN">
      <acc value="0.0605582375" flag="0"/>
      <vel value="0.0183783633" flag="0"/>
      <psa03 value="0.1323506821" flag="0"/>
      <psa10 value="0.0063702207" flag="0"/>
      <psa30 value="0.0006515784" flag="0"/>
    </comp>
    <comp name="--.HHZ">
      <acc value="0.0368398622" flag="0"/>
      <vel value="0.0075266551" flag="0"/>
      <psa03 value="0.0264528188" flag="0"/>
      <psa10 value="0.0050740649" flag="0"/>
      <psa30 value="0.0016817136" flag="0"/>
    </comp>
  </station>
  <station code="PDKS" name="PDKS" netid="SL" source="ODC" insttype="CMG40TB_30SEC/QUANTERRA" lat="46.0612" lon="14.9977">
    <comp name="--.HH1">
      <acc value="0.0238555466" flag="0"/>
      <vel value="0.0063564420" flag="0"/>
      <psa03 value="0.0338643359" flag="0"/>
      <psa10 value="0.0037888469" flag="0"/>
      <psa30 value="0.0007451314" flag="0"/>
    </comp>
    <comp name="--.HH2">
      <acc value="0.0218363304" flag="0"/>
      <vel value="0.0059228405" flag="0"/>
      <psa03 value="0.0361262713" flag="0"/>
      <psa10 value="0.0034469040" flag="0"/>
      <psa30 value="0.0006454384" flag="0"/>
    </comp>
    <comp name="--.HHZ">
      <acc value="0.0190134390" flag="0"/>
      <vel value="0.0044645389" flag="0"/>
      <psa03 value="0.0229871307" flag="0"/>
      <psa10 value="0.0032203946" flag="0"/>
      <psa30 value="0.0007355442" flag="0"/>
    </comp>
  </station>
  <station code="PERS" name="PERS" netid="SL" source="ODC" insttype="CMG3ESP_120SEC/QUANTERRA" lat="46.6365" lon="15.1139">
    <comp name="--.HHE">
      <acc value="0.0239462767" flag="0"/>
      <vel value="0.0128815167" flag="0"/>
      <psa03 value="0.0856821088" flag="0"/>
      <psa10 value="0.0041010032" flag="0"/>
      <psa30 value="0.0003213090" flag="0"/>
    </comp>
    <comp name="--.HHN">
      <acc value="0.0381023570" flag="0"/>
      <vel value="0.0161575739" flag="0"/>
      <psa03 value="0.1448752452" flag="0"/>
      <psa10 value="0.0046561017" flag="0"/>
      <psa30 value="0.0004398143" flag="0"/>
    </comp>
    <comp name="--.HHZ">
      <acc value="0.0192403925" flag="0"/>
      <vel value="0.0054986468" flag="0"/>
      <psa03 value="0.0452470500" flag="0"/>
      <psa10 value="0.0021639367" flag="0"/>
      <psa30 value="0.0002732698" flag="0"/>
    </comp>
  </station>
  <station code="VISS" name="VISS" netid="SL" source="ODC" insttype="CMG3ESP_120SEC/QUANTERRA" lat="45.8033" lon="14.8393">
    <comp name="--.HHE">
      <acc value="0.0458143303" flag="0"/>
      <vel value="0.0114331892" flag="0"/>
      <psa03 value="0.0707244341" flag="0"/>
      <psa10 value="0.0032300140" flag="0"/>
      <psa30 value="0.0006939972" flag="0"/>
    </comp>
    <comp name="--.HHN">
      <acc value="0.0461162844" flag="0"/>
      <vel value="0.0135014735" flag="0"/>
      <psa03 value="0.0688902720" flag="0"/>
      <psa10 value="0.0040123897" flag="0"/>
      <psa30 value="0.0005091419" flag="0"/>
    </comp>
    <comp name="--.HHZ">
      <acc value="0.0239165629" flag="0"/>
      <vel value="0.0065331986" flag="0"/>
      <psa03 value="0.0377792331" flag="0"/>
      <psa10 value="0.0029282225" flag="0"/>
      <psa30 value="0.0010287216" flag="0"/>
    </comp>
  </station>
  <station code="VNDS" name="VNDS" netid="SL" source="ODC" insttype="CMG3TBH_120SEC/QUANTERRA" lat="46.1016" lon="14.7014">
    <comp name="--.HH1">
      <acc value="0.0337291111" flag="0"/>
      <vel value="0.0105825205" flag="0"/>
      <psa03 value="0.0627821108" flag="0"/>
      <psa10 value="0.0073280247" flag="0"/>
      <psa30 value="0.0008649541" flag="0"/>
    </comp>
    <comp name="--.HH2">
      <acc value="0.0409532420" flag="0"/>
      <vel value="0.0130497266" flag="0"/>
      <psa03 value="0.1115167226" flag="0"/>
      <psa10 value="0.0145452265" flag="0"/>
      <psa30 value="0.0015188678" flag="0"/>
    </comp>
    <comp name="--.HHZ">
      <acc value="0.0402836646" flag="0"/>
      <vel value="0.0095786088" flag="0"/>
      <psa03 value="0.0643542066" flag="0"/>
      <psa10 value="0.0043786500" flag="0"/>
      <psa30 value="0.0010704705" flag="0"/>
    </comp>
  </station>
  <station code="ZALS" name="ZALS" netid="SL" source="ODC" insttype="CMG40T_30SEC/QUANTERRA" lat="46.4342" lon="15.0246">
    <comp name="--.HHE">
      <acc value="0.0465894866" flag="0"/>
      <vel value="0.0132437659" flag="0"/>
      <psa03 value="0.0590607898" flag="0"/>
      <psa10 value="0.0029956309" flag="0"/>
      <psa30 value="0.0004264148" flag="0"/>
    </comp>
    <comp name="--.HHN">
      <acc value="0.0324230826" flag="0"/>
      <vel value="0.0147681424" flag="0"/>
      <psa03 value="0.0632443852" flag="0"/>
      <psa10 value="0.0049912168" flag="0"/>
      <psa30 value="0.0005541836" flag="0"/>
    </comp>
    <comp name="--.HHZ">
      <acc value="0.0235326954" flag="0"/>
      <vel value="0.0063375041" flag="0"/>
      <psa03 value="0.0306831675" flag="0"/>
      <psa10 value="0.0024412617" flag="0"/>
      <psa30 value="0.0005594704" flag="0"/>
    </comp>
  </station>
</stationlist>
