<stationlist xmlns:esm="https://esm-db.eu/esmws/shakemap/1/" created="1784685208">
	<station code="BLY" name="BLY" netid="MN" source="Mediterranean Very Broadband Seismographic Network (MedNet)" insttype="" lat="44.7488" lon="17.1839" esm:processing="manual (Paolucci et al 2011)" esm:quality="best">
		<comp name="--.HLE" depth="1.0">
			<acc value="0.00290365940367527" flag="0"/>
			<vel value="0.00175669264038981" flag="0"/>
			<psa03 value="0.012348849026643" flag="0"/>
			<psa10 value="0.00177984497927485" flag="0"/>
			<psa30 value="0.000117672003406055" flag="0"/>
		</comp>
		<comp name="--.HLN" depth="1.0">
			<acc value="0.00264356667264015" flag="0"/>
			<vel value="0.00139028803710888" flag="0"/>
			<psa03 value="0.00899318353027262" flag="0"/>
			<psa10 value="0.00157045145230134" flag="0"/>
			<psa30 value="8.232566017762e-05" flag="0"/>
		</comp>
		<comp name="--.HLZ" depth="1.0">
			<acc value="0.00241132331665178" flag="0"/>
			<vel value="0.0015099980323993" flag="0"/>
			<psa03 value="0.00657710437288595" flag="0"/>
			<psa10 value="0.000978512058741603" flag="0"/>
			<psa30 value="8.27730822438027e-05" flag="0"/>
		</comp>
	</station>
	<station code="SABO" name="SABO" netid="OX" source="North-East Italy Seismic Network" insttype="" lat="45.9875" lon="13.6337" esm:processing="manual (Paolucci et al 2011)" esm:quality="good">
		<comp name="--.HNE" depth="0.0">
			<acc value="0.023152359389331" flag="0"/>
			<vel value="0.0105226583932558" flag="0"/>
			<psa03 value="0.0828625666570393" flag="0"/>
			<psa10 value="0.00756232776262029" flag="0"/>
			<psa30 value="0.000818782381114373" flag="0"/>
		</comp>
		<comp name="--.HNN" depth="0.0">
			<acc value="0.0207223857575349" flag="0"/>
			<vel value="0.0104976675616477" flag="0"/>
			<psa03 value="0.0526168349830876" flag="0"/>
			<psa10 value="0.00800527560814118" flag="0"/>
			<psa30 value="0.000799095810202333" flag="0"/>
		</comp>
		<comp name="--.HNZ" depth="0.0">
			<acc value="0.0106502031552597" flag="0"/>
			<vel value="0.00464464465693893" flag="0"/>
			<psa03 value="0.0220131656561897" flag="0"/>
			<psa10 value="0.00364022593046259" flag="0"/>
			<psa30 value="0.000150781236303576" flag="0"/>
		</comp>
	</station>
	<station code="BOJS" name="BOJS" netid="SL" source="Seismic Network of the Republic of Slovenia (SNRS)" insttype="" lat="45.5043" lon="15.2518" esm:processing="manual (Paolucci et al 2011)" esm:quality="best">
		<comp name="--.HNE" depth="0.0">
			<acc value="0.0290320418266252" flag="0"/>
			<vel value="0.00891361660405107" flag="0"/>
			<psa03 value="0.0411831005741087" flag="0"/>
			<psa10 value="0.00386491696928294" flag="0"/>
			<psa30 value="0.000403848341512195" flag="0"/>
		</comp>
		<comp name="--.HNN" depth="0.0">
			<acc value="0.0236051627875522" flag="0"/>
			<vel value="0.0076983451694603" flag="0"/>
			<psa03 value="0.028645111139685" flag="0"/>
			<psa10 value="0.00344564903858718" flag="0"/>
			<psa30 value="0.00043999909569724" flag="0"/>
		</comp>
		<comp name="--.HNZ" depth="0.0">
			<acc value="0.0279736254051283" flag="0"/>
			<vel value="0.00597663252016848" flag="0"/>
			<psa03 value="0.0235745017992286" flag="0"/>
			<psa10 value="0.00363764933579246" flag="0"/>
			<psa30 value="0.000554806076097504" flag="0"/>
		</comp>
	</station>
	<station code="CRES" name="CRES" netid="SL" source="Seismic Network of the Republic of Slovenia (SNRS)" insttype="" lat="45.826" lon="15.4569" esm:processing="manual (Paolucci et al 2011)" esm:quality="best">
		<comp name="--.HNE" depth="0.0">
			<acc value="0.371221786977753" flag="0"/>
			<vel value="0.0735721422901694" flag="0"/>
			<psa03 value="0.26119417783238" flag="0"/>
			<psa10 value="0.0150923160418831" flag="0"/>
			<psa30 value="0.00184995234192978" flag="0"/>
		</comp>
		<comp name="--.HNN" depth="0.0">
			<acc value="0.319078700650893" flag="0"/>
			<vel value="0.0570577080114608" flag="0"/>
			<psa03 value="0.220014054018082" flag="0"/>
			<psa10 value="0.0120667365495774" flag="0"/>
			<psa30 value="0.00124145036499422" flag="0"/>
		</comp>
		<comp name="--.HNZ" depth="0.0">
			<acc value="0.193759472815886" flag="0"/>
			<vel value="0.0369674250458686" flag="0"/>
			<psa03 value="0.107761847026985" flag="0"/>
			<psa10 value="0.00535966989558345" flag="0"/>
			<psa30 value="0.0012727025394655" flag="0"/>
		</comp>
	</station>
	<station code="KOGS" name="KOGS" netid="SL" source="Seismic Network of the Republic of Slovenia (SNRS)" insttype="" lat="46.4481" lon="16.2504" esm:processing="manual (Paolucci et al 2011)" esm:quality="best">
		<comp name="--.HNE" depth="0.0">
			<acc value="0.103991617247362" flag="0"/>
			<vel value="0.0315801785116996" flag="0"/>
			<psa03 value="0.122745381279135" flag="0"/>
			<psa10 value="0.0100205991280211" flag="0"/>
			<psa30 value="0.00082940244384043" flag="0"/>
		</comp>
		<comp name="--.HNN" depth="0.0">
			<acc value="0.0716834650849029" flag="0"/>
			<vel value="0.0296409877302145" flag="0"/>
			<psa03 value="0.098414998677519" flag="0"/>
			<psa10 value="0.0125924388747585" flag="0"/>
			<psa30 value="0.0010948271102549" flag="0"/>
		</comp>
		<comp name="--.HNZ" depth="0.0">
			<acc value="0.0353949338133063" flag="0"/>
			<vel value="0.0162440405101845" flag="0"/>
			<psa03 value="0.059706720902013" flag="0"/>
			<psa10 value="0.00660754068587264" flag="0"/>
			<psa30 value="0.00105858648032383" flag="0"/>
		</comp>
	</station>
	<station code="LJU" name="LJU" netid="SL" source="Seismic Network of the Republic of Slovenia (SNRS)" insttype="" lat="46.0438" lon="14.5278" esm:processing="manual (Paolucci et al 2011)" esm:quality="good">
		<comp name="--.HNE" depth="0.0">
			<acc value="0.0150525518363471" flag="0"/>
			<vel value="0.00523895703836192" flag="0"/>
			<psa03 value="0.0310640344023248" flag="0"/>
			<psa10 value="0.00253580384393458" flag="0"/>
			<psa30 value="0.00076142361766113" flag="0"/>
		</comp>
		<comp name="--.HNN" depth="0.0">
			<acc value="0.0190122082703524" flag="0"/>
			<vel value="0.00595019751597935" flag="0"/>
			<psa03 value="0.0414430526905155" flag="0"/>
			<psa10 value="0.00198106756412855" flag="0"/>
			<psa30 value="0.000237092034308686" flag="0"/>
		</comp>
		<comp name="--.HNZ" depth="0.0">
			<acc value="0.0115534829379356" flag="0"/>
			<vel value="0.00237925337296895" flag="0"/>
			<psa03 value="0.00821703652584271" flag="0"/>
			<psa10 value="0.00159045633648924" flag="0"/>
			<psa30 value="0.000607047922278947" flag="0"/>
		</comp>
	</station>
	<station code="VNDS" name="VNDS" netid="SL" source="Seismic Network of the Republic of Slovenia (SNRS)" insttype="" lat="46.1016" lon="14.7014" esm:processing="manual (Paolucci et al 2011)" esm:quality="best">
		<comp name="--.HNE" depth="0.0">
			<acc value="0.0197399212433733" flag="0"/>
			<vel value="0.00524977687397417" flag="0"/>
			<psa03 value="0.0318007212250479" flag="0"/>
			<psa10 value="0.00332538630614681" flag="0"/>
			<psa30 value="0.000426081897709618" flag="0"/>
		</comp>
		<comp name="--.HNN" depth="0.0">
			<acc value="0.0182853397562975" flag="0"/>
			<vel value="0.00572146371730627" flag="0"/>
			<psa03 value="0.0342647933118826" flag="0"/>
			<psa10 value="0.0039008436461206" flag="0"/>
			<psa30 value="0.00035165194104882" flag="0"/>
		</comp>
		<comp name="--.HNZ" depth="0.0">
			<acc value="0.0143024726497459" flag="0"/>
			<vel value="0.00300479426448381" flag="0"/>
			<psa03 value="0.0215557691097525" flag="0"/>
			<psa10 value="0.00147651066314618" flag="0"/>
			<psa30 value="0.000326460402441197" flag="0"/>
		</comp>
	</station>
</stationlist>
