<?xml version="1.0" encoding="UTF-8" standalone="yes"?>
<!DOCTYPE earthquake SYSTEM "stationlist.dtd">
<stationlist created="" xmlns="ch.ethz.sed.shakemap.usgs.xml">
  <station code="ARPRA" name="ARPRA" netid="KO" insttype="CMG-5T" lat="39.0929" lon="38.3356">
    <comp name="--.HNE">
      <acc value="0.1428395616" flag="0"/>
      <vel value="0.0652831310" flag="0"/>
      <psa03 value="0.2714225698" flag="0"/>
      <psa10 value="0.0251042411" flag="0"/>
      <psa30 value="0.0041075126" flag="0"/>
    </comp>
    <comp name="--.HNZ">
      <acc value="0.0622548059" flag="0"/>
      <vel value="0.0243836508" flag="0"/>
      <psa03 value="0.1170997440" flag="0"/>
      <psa10 value="0.0214482050" flag="0"/>
      <psa30 value="0.0015869164" flag="0"/>
    </comp>
    <comp name="--.HNN">
      <acc value="0.1082403533" flag="0"/>
      <vel value="0.0571228616" flag="0"/>
      <psa03 value="0.2759240821" flag="0"/>
      <psa10 value="0.0553588818" flag="0"/>
      <psa30 value="0.0030326278" flag="0"/>
    </comp>
  </station>
  <station code="DARE" name="DARE" netid="KO" insttype="CMG-3ESP" lat="38.5712" lon="37.4832">
    <comp name="--.HHN">
      <acc value="0.3034598074" flag="0"/>
      <vel value="0.1219022972" flag="0"/>
      <psa03 value="0.5831785927" flag="0"/>
      <psa10 value="0.0817650962" flag="0"/>
      <psa30 value="0.0030435380" flag="0"/>
    </comp>
    <comp name="--.HHE">
      <acc value="0.3551002163" flag="0"/>
      <vel value="0.2042794705" flag="0"/>
      <psa03 value="0.6058498377" flag="0"/>
      <psa10 value="0.1496478774" flag="0"/>
      <psa30 value="0.0119925481" flag="0"/>
    </comp>
  </station>
  <station code="SARI" name="SARI" netid="KO" insttype="CMG-3T" lat="38.4072" lon="36.4181">
    <comp name="--.HHZ">
      <acc value="0.0324169572" flag="0"/>
      <vel value="0.0280314250" flag="0"/>
      <psa03 value="0.1014805501" flag="0"/>
      <psa10 value="0.0355892424" flag="0"/>
      <psa30 value="0.0012427010" flag="0"/>
    </comp>
    <comp name="--.HHN">
      <acc value="0.0539555169" flag="0"/>
      <vel value="0.0273030603" flag="0"/>
      <psa03 value="0.1369379870" flag="0"/>
      <psa10 value="0.0320720908" flag="0"/>
      <psa30 value="0.0013602247" flag="0"/>
    </comp>
  </station>
</stationlist>
