<?xml version="1.0" encoding="UTF-8" standalone="yes"?>
<!DOCTYPE earthquake SYSTEM "stationlist.dtd">
<stationlist created="" xmlns="ch.ethz.sed.shakemap.usgs.xml">
  <station code="ARPRA" name="ARPRA" netid="KO" insttype="CMG-5T" lat="39.0929" lon="38.3356">
    <comp name="--.HNN">
      <acc value="0.1082403645" flag="0"/>
      <vel value="0.0571228630" flag="0"/>
      <psa03 value="0.2759240821" flag="0"/>
      <psa10 value="0.0553588794" flag="0"/>
      <psa30 value="0.0030327464" flag="0"/>
    </comp>
    <comp name="--.HNZ">
      <acc value="0.0622548043" flag="0"/>
      <vel value="0.0243836627" flag="0"/>
      <psa03 value="0.1170997440" flag="0"/>
      <psa10 value="0.0214482043" flag="0"/>
      <psa30 value="0.0015866451" flag="0"/>
    </comp>
    <comp name="--.HNE">
      <acc value="0.1428395623" flag="0"/>
      <vel value="0.0652831412" flag="0"/>
      <psa03 value="0.2714225698" flag="0"/>
      <psa10 value="0.0251042425" flag="0"/>
      <psa30 value="0.0041075235" flag="0"/>
    </comp>
  </station>
  <station code="DARE" name="DARE" netid="KO" insttype="CMG-3ESP" lat="38.5712" lon="37.4832">
    <comp name="--.HHN">
      <acc value="0.3034598078" flag="0"/>
      <vel value="0.1219022973" flag="0"/>
      <psa03 value="0.5831785927" flag="0"/>
      <psa10 value="0.0817650963" flag="0"/>
      <psa30 value="0.0030434834" flag="0"/>
    </comp>
    <comp name="--.HHZ">
      <acc value="0.2190421661" flag="0"/>
      <vel value="0.0779549700" flag="0"/>
      <psa03 value="0.4395830144" flag="0"/>
      <psa10 value="0.0854585890" flag="0"/>
      <psa30 value="0.0040860839" flag="0"/>
    </comp>
    <comp name="--.HHE">
      <acc value="0.3551002162" flag="0"/>
      <vel value="0.2042794702" flag="0"/>
      <psa03 value="0.6058498377" flag="0"/>
      <psa10 value="0.1496478772" flag="0"/>
      <psa30 value="0.0119924249" flag="0"/>
    </comp>
  </station>
  <station code="SARI" name="SARI" netid="KO" insttype="CMG-3T" lat="38.4072" lon="36.4181">
    <comp name="--.HHN">
      <acc value="0.0539555168" flag="0"/>
      <vel value="0.0273030601" flag="0"/>
      <psa03 value="0.1369379870" flag="0"/>
      <psa10 value="0.0320720908" flag="0"/>
      <psa30 value="0.0013602065" flag="0"/>
    </comp>
    <comp name="--.HHZ">
      <acc value="0.0324169573" flag="0"/>
      <vel value="0.0280314244" flag="0"/>
      <psa03 value="0.1014805501" flag="0"/>
      <psa10 value="0.0355892424" flag="0"/>
      <psa30 value="0.0012426624" flag="0"/>
    </comp>
  </station>
</stationlist>
