<?xml version="1.0" encoding="UTF-8" standalone="yes"?>
<!DOCTYPE earthquake SYSTEM "stationlist.dtd">
<stationlist created="" xmlns="ch.ethz.sed.shakemap.usgs.xml">
  <station code="MSDA" name="MSDA" netid="ML" insttype="" lat="35.9012" lon="14.484">
    <comp name="--.HHE">
      <acc value="0.0237580738" flag="0"/>
      <vel value="0.0186295275" flag="0"/>
      <psa03 value="0.0569807122" flag="0"/>
      <psa10 value="0.0151131334" flag="0"/>
      <psa30 value="0.0012193570" flag="0"/>
    </comp>
    <comp name="--.HHN">
      <acc value="0.0125589719" flag="0"/>
      <vel value="0.0132078769" flag="0"/>
      <psa03 value="0.0281835573" flag="0"/>
      <psa10 value="0.0218605894" flag="0"/>
      <psa30 value="0.0010761712" flag="0"/>
    </comp>
    <comp name="--.HHZ">
      <acc value="0.0136386768" flag="0"/>
      <vel value="0.0083588098" flag="0"/>
      <psa03 value="0.0453748478" flag="0"/>
      <psa10 value="0.0092489425" flag="0"/>
      <psa30 value="0.0015624097" flag="0"/>
    </comp>
  </station>
  <station code="XLND" name="XLND" netid="ML" insttype="" lat="36.0323" lon="14.2201">
    <comp name="--.HHE">
      <acc value="0.0068590913" flag="0"/>
      <vel value="0.0054751786" flag="0"/>
      <psa03 value="0.0239608472" flag="0"/>
      <psa10 value="0.0091240979" flag="0"/>
      <psa30 value="0.0008569015" flag="0"/>
    </comp>
    <comp name="--.HHZ">
      <acc value="0.0052128175" flag="0"/>
      <vel value="0.0047853972" flag="0"/>
      <psa03 value="0.0177791054" flag="0"/>
      <psa10 value="0.0072424972" flag="0"/>
      <psa30 value="0.0018933675" flag="0"/>
    </comp>
    <comp name="--.HHN">
      <acc value="0.0071439975" flag="0"/>
      <vel value="0.0050655248" flag="0"/>
      <psa03 value="0.0170683924" flag="0"/>
      <psa10 value="0.0098010317" flag="0"/>
      <psa30 value="0.0017045012" flag="0"/>
    </comp>
  </station>
  <station code="WDD" name="WDD" netid="MN" insttype="" lat="35.8373" lon="14.5242">
    <comp name="--.HHE">
      <acc value="0.0201565541" flag="0"/>
      <vel value="0.0184451779" flag="0"/>
      <psa03 value="0.0465440234" flag="0"/>
      <psa10 value="0.0179093238" flag="0"/>
      <psa30 value="0.0017023735" flag="0"/>
    </comp>
    <comp name="--.HHN">
      <acc value="0.0183674818" flag="0"/>
      <vel value="0.0161454247" flag="0"/>
      <psa03 value="0.0422617697" flag="0"/>
      <psa10 value="0.0374338805" flag="0"/>
      <psa30 value="0.0019209269" flag="0"/>
    </comp>
    <comp name="--.HHZ">
      <acc value="0.0193284976" flag="0"/>
      <vel value="0.0079058277" flag="0"/>
      <psa03 value="0.0379749909" flag="0"/>
      <psa10 value="0.0117862174" flag="0"/>
      <psa30 value="0.0016824186" flag="0"/>
    </comp>
  </station>
</stationlist>
