<stationlist created="1778136259">
	<station code="MALA" name="MALA" netid="CL" source="Corinth Riff Laboratory (CRLNET)" insttype="" lat="38.39341" lon="21.87263">
		<comp name="01.HNE" depth="0.0">
			<acc value="0.0350444461191501" flag="0"/>
			<vel value="0.0309418726883856" flag="0"/>
			<psa03 value="0.0943165715513169" flag="0"/>
			<psa10 value="0.0530450179004244" flag="0"/>
			<psa30 value="0.00427780237477296" flag="0"/>
		</comp>
		<comp name="01.HNN" depth="0.0">
			<acc value="0.031530996457226" flag="0"/>
			<vel value="0.0200227384220933" flag="0"/>
			<psa03 value="0.142548670285814" flag="0"/>
			<psa10 value="0.0264359327804059" flag="0"/>
			<psa30 value="0.00324023060329524" flag="0"/>
		</comp>
		<comp name="01.HNZ" depth="0.0">
			<acc value="0.0102879240847703" flag="0"/>
			<vel value="0.00637802038929767" flag="0"/>
			<psa03 value="0.0426840651138313" flag="0"/>
			<psa10 value="0.00820258873932776" flag="0"/>
			<psa30 value="0.00157089887436752" flag="0"/>
		</comp>
	</station>
	<station code="KLV1" name="KLV1" netid="HI" source="ITSAK Strong Motion Network" insttype="" lat="38.03256" lon="22.10797">
		<comp name="--.HNE" depth="0.0">
			<acc value="0.0114163260106153" flag="0"/>
			<vel value="0.00904101338180988" flag="0"/>
			<psa03 value="0.0428630339403043" flag="0"/>
			<psa10 value="0.0143112422089204" flag="0"/>
			<psa30 value="0.00145859593575566" flag="0"/>
		</comp>
		<comp name="--.HNN" depth="0.0">
			<acc value="0.0108573971462353" flag="0"/>
			<vel value="0.0098668832644911" flag="0"/>
			<psa03 value="0.0336013971703221" flag="0"/>
			<psa10 value="0.0179112001534265" flag="0"/>
			<psa30 value="0.00174852543464206" flag="0"/>
		</comp>
		<comp name="--.HNZ" depth="0.0">
			<acc value="0.00714542535436658" flag="0"/>
			<vel value="0.00515876424714602" flag="0"/>
			<psa03 value="0.0159282255561047" flag="0"/>
			<psa10 value="0.00673280725191753" flag="0"/>
			<psa30 value="0.000959272909895746" flag="0"/>
		</comp>
	</station>
	<station code="KRK1" name="KRK1" netid="HI" source="ITSAK Strong Motion Network" insttype="" lat="39.618861" lon="19.9202">
		<comp name="--.HNE" depth="0.0">
			<acc value="0.0128131629069425" flag="0"/>
			<vel value="0.00750222034606213" flag="0"/>
			<psa03 value="0.0362411873608001" flag="0"/>
			<psa10 value="0.00800124880954554" flag="0"/>
			<psa30 value="0.000604019789346669" flag="0"/>
		</comp>
		<comp name="--.HNN" depth="0.0">
			<acc value="0.0139236309886646" flag="0"/>
			<vel value="0.00938848066988378" flag="0"/>
			<psa03 value="0.0234449162679744" flag="0"/>
			<psa10 value="0.0137958119886779" flag="0"/>
			<psa30 value="0.000519457018838135" flag="0"/>
		</comp>
		<comp name="--.HNZ" depth="0.0">
			<acc value="0.00625234437993379" flag="0"/>
			<vel value="0.00296866378474559" flag="0"/>
			<psa03 value="0.0183890469201097" flag="0"/>
			<psa10 value="0.00242815955317361" flag="0"/>
			<psa30 value="0.000402232437498263" flag="0"/>
		</comp>
	</station>
	<station code="MSL1" name="MSL1" netid="HI" source="ITSAK Strong Motion Network" insttype="" lat="38.3727" lon="21.4243">
		<comp name="--.HNE" depth="0.0">
			<acc value="0.0490462750242906" flag="0"/>
			<vel value="0.0334642356999432" flag="0"/>
			<psa03 value="0.229840715398062" flag="0"/>
			<psa10 value="0.0513698696846363" flag="0"/>
			<psa30 value="0.00354537245243185" flag="0"/>
		</comp>
		<comp name="--.HNN" depth="0.0">
			<acc value="0.0632981218152502" flag="0"/>
			<vel value="0.0441403996209633" flag="0"/>
			<psa03 value="0.169349252050159" flag="0"/>
			<psa10 value="0.0816393147280957" flag="0"/>
			<psa30 value="0.00501515393984208" flag="0"/>
		</comp>
		<comp name="--.HNZ" depth="0.0">
			<acc value="0.0258190755314221" flag="0"/>
			<vel value="0.0204560258484699" flag="0"/>
			<psa03 value="0.0802227764665613" flag="0"/>
			<psa10 value="0.0277768567127555" flag="0"/>
			<psa30 value="0.0015248144015507" flag="0"/>
		</comp>
	</station>
	<station code="VAS2" name="VAS2" netid="HI" source="ITSAK Strong Motion Network" insttype="" lat="38.630558" lon="20.608081">
		<comp name="--.HNE" depth="0.0">
			<acc value="0.103979726521895" flag="0"/>
			<vel value="0.0552013126039205" flag="0"/>
			<psa03 value="0.324738935635416" flag="0"/>
			<psa10 value="0.11206177811819" flag="0"/>
			<psa30 value="0.00340398707951811" flag="0"/>
		</comp>
		<comp name="--.HNN" depth="0.0">
			<acc value="0.128601035710068" flag="0"/>
			<vel value="0.0866239170386545" flag="0"/>
			<psa03 value="0.408899026284386" flag="0"/>
			<psa10 value="0.12293413432643" flag="0"/>
			<psa30 value="0.0067077516162113" flag="0"/>
		</comp>
		<comp name="--.HNZ" depth="0.0">
			<acc value="0.0787048677172798" flag="0"/>
			<vel value="0.0584315390289327" flag="0"/>
			<psa03 value="0.212167543783845" flag="0"/>
			<psa10 value="0.0740689333682842" flag="0"/>
			<psa30 value="0.00258386243220519" flag="0"/>
		</comp>
	</station>
	<station code="PATC" name="PATC" netid="HL" source="National Observatory of Athens Seismic Network" insttype="" lat="38.26933" lon="21.76001">
		<comp name="00.HNE" depth="0.0">
			<acc value="0.0359292101690236" flag="0"/>
			<vel value="0.0300453328356271" flag="0"/>
			<psa03 value="0.143130318971851" flag="0"/>
			<psa10 value="0.0391847771342162" flag="0"/>
			<psa30 value="0.00645003650609005" flag="0"/>
		</comp>
		<comp name="00.HNN" depth="0.0">
			<acc value="0.0400820847691292" flag="0"/>
			<vel value="0.0289615896248114" flag="0"/>
			<psa03 value="0.116777159273689" flag="0"/>
			<psa10 value="0.0347150306930509" flag="0"/>
			<psa30 value="0.00662676822223223" flag="0"/>
		</comp>
		<comp name="00.HNZ" depth="0.0">
			<acc value="0.0180359790222476" flag="0"/>
			<vel value="0.0128618460346966" flag="0"/>
			<psa03 value="0.0706926864568694" flag="0"/>
			<psa10 value="0.024112469990719" flag="0"/>
			<psa30 value="0.00208990847113947" flag="0"/>
		</comp>
	</station>
	<station code="PATG" name="PATG" netid="HL" source="National Observatory of Athens Seismic Network" insttype="" lat="38.23865" lon="21.72657">
		<comp name="00.HNE" depth="0.0">
			<acc value="0.0464349995854215" flag="0"/>
			<vel value="0.0409403755848839" flag="0"/>
			<psa03 value="0.188409432069542" flag="0"/>
			<psa10 value="0.0403002003452097" flag="0"/>
			<psa30 value="0.00774890276421848" flag="0"/>
		</comp>
		<comp name="00.HNN" depth="0.0">
			<acc value="0.0914575666669151" flag="0"/>
			<vel value="0.0534547763137231" flag="0"/>
			<psa03 value="0.446795675290062" flag="0"/>
			<psa10 value="0.0523322745489954" flag="0"/>
			<psa30 value="0.00851667902978803" flag="0"/>
		</comp>
		<comp name="00.HNZ" depth="0.0">
			<acc value="0.0235275340880423" flag="0"/>
			<vel value="0.0212716943785188" flag="0"/>
			<psa03 value="0.0708716552833425" flag="0"/>
			<psa10 value="0.0269312290076701" flag="0"/>
			<psa30 value="0.00682587104168354" flag="0"/>
		</comp>
	</station>
	<station code="RIOA" name="RIOA" netid="HL" source="National Observatory of Athens Seismic Network" insttype="" lat="38.29585" lon="21.79118">
		<comp name="00.HNE" depth="0.0">
			<acc value="0.021136011340294" flag="0"/>
			<vel value="0.021842148505749" flag="0"/>
			<psa03 value="0.080670198532744" flag="0"/>
			<psa10 value="0.0293634153594394" flag="0"/>
			<psa30 value="0.00410241292482934" flag="0"/>
		</comp>
		<comp name="00.HNN" depth="0.0">
			<acc value="0.0258238568177272" flag="0"/>
			<vel value="0.019133538893218" flag="0"/>
			<psa03 value="0.0523931239499962" flag="0"/>
			<psa10 value="0.0317593605238478" flag="0"/>
			<psa30 value="0.00243845026069581" flag="0"/>
		</comp>
		<comp name="00.HNZ" depth="0.0">
			<acc value="0.0170697258827561" flag="0"/>
			<vel value="0.0102384339608392" flag="0"/>
			<psa03 value="0.0360174763277088" flag="0"/>
			<psa10 value="0.00935827993627772" flag="0"/>
			<psa30 value="0.00125278178531161" flag="0"/>
		</comp>
	</station>
	<station code="ANX" name="ANX" netid="HP" source="University of Patras, Seismological Laboratory (PSLNET)" insttype="" lat="38.5933" lon="21.9209">
		<comp name="--.HNE" depth="0.0">
			<acc value="0.0153920926268883" flag="0"/>
			<vel value="0.0153975207320304" flag="0"/>
			<psa03 value="0.0394626262373157" flag="0"/>
			<psa10 value="0.017226644392167" flag="0"/>
			<psa30 value="0.00215433724866978" flag="0"/>
		</comp>
		<comp name="--.HNN" depth="0.0">
			<acc value="0.019979727635668" flag="0"/>
			<vel value="0.0152845725205314" flag="0"/>
			<psa03 value="0.0557487894463666" flag="0"/>
			<psa10 value="0.0152414326845143" flag="0"/>
			<psa30 value="0.0020738012767569" flag="0"/>
		</comp>
		<comp name="--.HNZ" depth="0.0">
			<acc value="0.0130581992307146" flag="0"/>
			<vel value="0.00949458463525575" flag="0"/>
			<psa03 value="0.0350778899887251" flag="0"/>
			<psa10 value="0.0126803887776844" flag="0"/>
			<psa30 value="0.00249750997343193" flag="0"/>
		</comp>
	</station>
	<station code="LTK" name="LTK" netid="HP" source="University of Patras, Seismological Laboratory (PSLNET)" insttype="" lat="38.0228" lon="22.9673">
		<comp name="--.HNE" depth="0.0">
			<acc value="0.00199314483380482" flag="0"/>
			<vel value="0.00227921466680787" flag="0"/>
			<psa03 value="0.00536906479419261" flag="0"/>
			<psa10 value="0.00459457719763033" flag="0"/>
			<psa30 value="0.000605809477611399" flag="0"/>
		</comp>
		<comp name="--.HNN" depth="0.0">
			<acc value="0.00205843415090993" flag="0"/>
			<vel value="0.00171432400329993" flag="0"/>
			<psa03 value="0.00532432258757434" flag="0"/>
			<psa10 value="0.00275030344082516" flag="0"/>
			<psa30 value="0.00054988171933856" flag="0"/>
		</comp>
		<comp name="--.HNZ" depth="0.0">
			<acc value="0.00247282368555596" flag="0"/>
			<vel value="0.00196647879525346" flag="0"/>
			<psa03 value="0.00621916671993977" flag="0"/>
			<psa10 value="0.0015583710565144" flag="0"/>
			<psa30 value="0.000668895988943163" flag="0"/>
		</comp>
	</station>
	<station code="PDO" name="PDO" netid="HP" source="University of Patras, Seismological Laboratory (PSLNET)" insttype="" lat="38.5986" lon="21.1833">
		<comp name="--.HNE" depth="0.0">
			<acc value="0.0548421410654937" flag="0"/>
			<vel value="0.0342366037712168" flag="0"/>
			<psa03 value="0.168678118950885" flag="0"/>
			<psa10 value="0.0320170756339691" flag="0"/>
			<psa30 value="0.00153018346634489" flag="0"/>
		</comp>
		<comp name="--.HNN" depth="0.0">
			<acc value="0.0631514542046326" flag="0"/>
			<vel value="0.0381557537319964" flag="0"/>
			<psa03 value="0.24724543377257" flag="0"/>
			<psa10 value="0.0358868290843834" flag="0"/>
			<psa30 value="0.00174002441538459" flag="0"/>
		</comp>
		<comp name="--.HNZ" depth="0.0">
			<acc value="0.0353319772180939" flag="0"/>
			<vel value="0.0162159592309447" flag="0"/>
			<psa03 value="0.10201223108966" flag="0"/>
			<psa10 value="0.0155998177595266" flag="0"/>
			<psa30 value="0.00158834833494865" flag="0"/>
		</comp>
	</station>
	<station code="PVO" name="PVO" netid="HP" source="University of Patras, Seismological Laboratory (PSLNET)" insttype="" lat="38.616" lon="21.525">
		<comp name="--.HNE" depth="0.0">
			<acc value="0.0182133512401236" flag="0"/>
			<vel value="0.0126612596652472" flag="0"/>
			<psa03 value="0.0517219908507221" flag="0"/>
			<psa10 value="0.0127246835622365" flag="0"/>
			<psa30 value="0.00275656734975172" flag="0"/>
		</comp>
		<comp name="--.HNN" depth="0.0">
			<acc value="0.0210451985274911" flag="0"/>
			<vel value="0.0135910673178325" flag="0"/>
			<psa03 value="0.0622811516126343" flag="0"/>
			<psa10 value="0.0116817427259646" flag="0"/>
			<psa30 value="0.0020711167443598" flag="0"/>
		</comp>
		<comp name="--.HNZ" depth="0.0">
			<acc value="0.0119877942918063" flag="0"/>
			<vel value="0.00870028916185529" flag="0"/>
			<psa03 value="0.0291719187151132" flag="0"/>
			<psa10 value="0.00905627004160439" flag="0"/>
			<psa30 value="0.00161608850305198" flag="0"/>
		</comp>
	</station>
	<station code="SERG" name="SERG" netid="HP" source="University of Patras, Seismological Laboratory (PSLNET)" insttype="" lat="38.4133" lon="22.0566">
		<comp name="--.HNE" depth="0.0">
			<acc value="0.0143279697479343" flag="0"/>
			<vel value="0.00830447814765558" flag="0"/>
			<psa03 value="0.0429972605601592" flag="0"/>
			<psa10 value="0.00930593155453434" flag="0"/>
			<psa30 value="0.000831310198967489" flag="0"/>
		</comp>
		<comp name="--.HNN" depth="0.0">
			<acc value="0.0156655839604172" flag="0"/>
			<vel value="0.00654556313820217" flag="0"/>
			<psa03 value="0.0348094367490154" flag="0"/>
			<psa10 value="0.00594758152576686" flag="0"/>
			<psa30 value="0.000899318353027262" flag="0"/>
		</comp>
		<comp name="--.HNZ" depth="0.0">
			<acc value="0.00832077680956345" flag="0"/>
			<vel value="0.00436738535853769" flag="0"/>
			<psa03 value="0.0155702879031586" flag="0"/>
			<psa10 value="0.00408720057457912" flag="0"/>
			<psa30 value="0.000867551386328289" flag="0"/>
		</comp>
	</station>
</stationlist>
