<?xml version="1.0" encoding="UTF-8" standalone="yes"?>
<!DOCTYPE earthquake SYSTEM "stationlist.dtd">
<stationlist created="" xmlns="ch.ethz.sed.shakemap.usgs.xml">
  <station code="ROD3" name="ROD3" netid="CL" insttype="CMG40-T" lat="38.3081" lon="21.892">
    <comp name="00.HHZ">
      <acc value="0.0128537459" flag="0"/>
      <vel value="0.0067381300" flag="0"/>
      <psa03 value="0.0279927581" flag="0"/>
      <psa10 value="0.0074346708" flag="0"/>
      <psa30 value="0.0008896290" flag="0"/>
    </comp>
    <comp name="00.HHN">
      <acc value="0.0436164537" flag="0"/>
      <vel value="0.0211487192" flag="0"/>
      <psa03 value="0.1719484724" flag="0"/>
      <psa10 value="0.0177409276" flag="0"/>
      <psa30 value="0.0015174220" flag="0"/>
    </comp>
    <comp name="00.HHE">
      <acc value="0.0512219575" flag="0"/>
      <vel value="0.0315234302" flag="0"/>
      <psa03 value="0.2224339236" flag="0"/>
      <psa10 value="0.0142039801" flag="0"/>
      <psa30 value="0.0016068722" flag="0"/>
    </comp>
  </station>
  <station code="KALE" name="KALE" netid="HA" insttype="40," lat="38.3911" lon="22.1398">
    <comp name="--.HHN">
      <acc value="0.0090508433" flag="0"/>
      <vel value="0.0057721455" flag="0"/>
      <psa03 value="0.0260989437" flag="0"/>
      <psa10 value="0.0078026764" flag="0"/>
      <psa30 value="0.0009252307" flag="0"/>
    </comp>
    <comp name="--.HHZ">
      <acc value="0.0047052914" flag="0"/>
      <vel value="0.0023337024" flag="0"/>
      <psa03 value="0.0120936112" flag="0"/>
      <psa10 value="0.0026536377" flag="0"/>
      <psa30 value="0.0005227070" flag="0"/>
    </comp>
    <comp name="--.HHE">
      <acc value="0.0064302320" flag="0"/>
      <vel value="0.0027315703" flag="0"/>
      <psa03 value="0.0125308826" flag="0"/>
      <psa10 value="0.0044892204" flag="0"/>
      <psa30 value="0.0002290283" flag="0"/>
    </comp>
  </station>
  <station code="LAKA" name="LAKA" netid="HA" insttype="120s" lat="38.2401" lon="21.9785">
    <comp name="--.HHZ">
      <acc value="0.0057321251" flag="0"/>
      <vel value="0.0041150349" flag="0"/>
      <psa03 value="0.0167800474" flag="0"/>
      <psa10 value="0.0048384598" flag="0"/>
      <psa30 value="0.0008814463" flag="0"/>
    </comp>
    <comp name="--.HHN">
      <acc value="0.0072460164" flag="0"/>
      <vel value="0.0055938495" flag="0"/>
      <psa03 value="0.0296339748" flag="0"/>
      <psa10 value="0.0076344948" flag="0"/>
      <psa30 value="0.0012456694" flag="0"/>
    </comp>
    <comp name="--.HHE">
      <acc value="0.0061945118" flag="0"/>
      <vel value="0.0045408292" flag="0"/>
      <psa03 value="0.0225477339" flag="0"/>
      <psa10 value="0.0071909602" flag="0"/>
      <psa30 value="0.0010224765" flag="0"/>
    </comp>
  </station>
  <station code="MSL1" name="MSL1" netid="HI" insttype="CMG-5TD,ACCELEROMETER,GURALP" lat="38.3727" lon="21.4243">
    <comp name="--.HNN">
      <acc value="0.0631197277" flag="0"/>
      <vel value="0.0442626426" flag="0"/>
      <psa03 value="0.1688519912" flag="0"/>
      <psa10 value="0.0816324934" flag="0"/>
      <psa30 value="0.0048277540" flag="0"/>
    </comp>
    <comp name="--.HNZ">
      <acc value="0.0254465956" flag="0"/>
      <vel value="0.0201127803" flag="0"/>
      <psa03 value="0.0804119497" flag="0"/>
      <psa10 value="0.0277298625" flag="0"/>
      <psa30 value="0.0014512500" flag="0"/>
    </comp>
    <comp name="--.HNE">
      <acc value="0.0491212556" flag="0"/>
      <vel value="0.0327896849" flag="0"/>
      <psa03 value="0.2319949258" flag="0"/>
      <psa10 value="0.0513137017" flag="0"/>
      <psa30 value="0.0033189123" flag="0"/>
    </comp>
  </station>
  <station code="ITM" name="ITM" netid="HL" insttype="DR24" lat="37.1787" lon="21.9252">
    <comp name="--.HHE">
      <acc value="0.0084967218" flag="0"/>
      <vel value="0.0045465913" flag="0"/>
      <psa03 value="0.0183667419" flag="0"/>
      <psa10 value="0.0051128247" flag="0"/>
      <psa30 value="0.0009786837" flag="0"/>
    </comp>
    <comp name="--.HHZ">
      <acc value="0.0044046289" flag="0"/>
      <vel value="0.0025689921" flag="0"/>
      <psa03 value="0.0097511113" flag="0"/>
      <psa10 value="0.0032663942" flag="0"/>
      <psa30 value="0.0004727312" flag="0"/>
    </comp>
    <comp name="--.HHN">
      <acc value="0.0092479813" flag="0"/>
      <vel value="0.0057096583" flag="0"/>
      <psa03 value="0.0212454354" flag="0"/>
      <psa10 value="0.0046998027" flag="0"/>
      <psa30 value="0.0006920003" flag="0"/>
    </comp>
  </station>
  <station code="KLV" name="KLV" netid="HL" insttype="120" lat="38.0435" lon="22.1504">
    <comp name="--.HHZ">
      <acc value="0.0065420541" flag="0"/>
      <vel value="0.0042754198" flag="0"/>
      <psa03 value="0.0174188021" flag="0"/>
      <psa10 value="0.0087798436" flag="0"/>
      <psa30 value="0.0008749542" flag="0"/>
    </comp>
    <comp name="--.HHE">
      <acc value="0.0034484211" flag="0"/>
      <vel value="0.0031983756" flag="0"/>
      <psa03 value="0.0086418420" flag="0"/>
      <psa10 value="0.0057443362" flag="0"/>
      <psa30 value="0.0008784870" flag="0"/>
    </comp>
    <comp name="--.HHN">
      <acc value="0.0043195749" flag="0"/>
      <vel value="0.0042221256" flag="0"/>
      <psa03 value="0.0135699615" flag="0"/>
      <psa10 value="0.0088732416" flag="0"/>
      <psa30 value="0.0011261528" flag="0"/>
    </comp>
  </station>
  <station code="RLS" name="RLS" netid="HL" insttype="CMG3ESPC-120s" lat="38.0559" lon="21.4647">
    <comp name="--.HHZ">
      <acc value="0.0123834444" flag="0"/>
      <vel value="0.0078890253" flag="0"/>
      <psa03 value="0.0361191233" flag="0"/>
      <psa10 value="0.0088292779" flag="0"/>
      <psa30 value="0.0018982473" flag="0"/>
    </comp>
    <comp name="--.HHE">
      <acc value="0.0269745316" flag="0"/>
      <vel value="0.0171198629" flag="0"/>
      <psa03 value="0.0871387652" flag="0"/>
      <psa10 value="0.0181249785" flag="0"/>
      <psa30 value="0.0012783320" flag="0"/>
    </comp>
    <comp name="--.HHN">
      <acc value="0.0221171046" flag="0"/>
      <vel value="0.0107133360" flag="0"/>
      <psa03 value="0.0889170154" flag="0"/>
      <psa10 value="0.0130353021" flag="0"/>
      <psa30 value="0.0010520154" flag="0"/>
    </comp>
  </station>
  <station code="VLS" name="VLS" netid="HL" insttype="120P," lat="38.1768" lon="20.5886">
    <comp name="--.HHN">
      <acc value="0.9828862432" flag="0"/>
      <vel value="0.1738743900" flag="0"/>
      <psa03 value="0.2840505964" flag="0"/>
      <psa10 value="0.0353642039" flag="0"/>
      <psa30 value="0.0023732806" flag="0"/>
    </comp>
    <comp name="--.HHE">
      <acc value="2.3005557181" flag="0"/>
      <vel value="0.2308506256" flag="0"/>
      <psa03 value="0.4108366698" flag="0"/>
      <psa10 value="0.0262127255" flag="0"/>
      <psa30 value="0.0030388827" flag="0"/>
    </comp>
    <comp name="--.HHZ">
      <acc value="0.7503669939" flag="0"/>
      <vel value="0.0807701684" flag="0"/>
      <psa03 value="0.2368566002" flag="0"/>
      <psa10 value="0.0182752654" flag="0"/>
      <psa30 value="0.0014099847" flag="0"/>
    </comp>
  </station>
  <station code="AMPL" name="AMPL" netid="HP" insttype="Compact," lat="38.9224" lon="21.2135">
    <comp name="--.HHE">
      <acc value="0.0128500087" flag="0"/>
      <vel value="0.0135926378" flag="0"/>
      <psa03 value="0.0356222702" flag="0"/>
      <psa10 value="0.0241975241" flag="0"/>
      <psa30 value="0.0013132120" flag="0"/>
    </comp>
    <comp name="--.HHZ">
      <acc value="0.0119865010" flag="0"/>
      <vel value="0.0083905783" flag="0"/>
      <psa03 value="0.0340952224" flag="0"/>
      <psa10 value="0.0254016899" flag="0"/>
      <psa30 value="0.0015614644" flag="0"/>
    </comp>
    <comp name="--.HHN">
      <acc value="0.0145145022" flag="0"/>
      <vel value="0.0085806144" flag="0"/>
      <psa03 value="0.0483365003" flag="0"/>
      <psa10 value="0.0164499918" flag="0"/>
      <psa30 value="0.0007913471" flag="0"/>
    </comp>
  </station>
  <station code="AMT" name="AMT" netid="HP" insttype="CMG-3T," lat="37.5324" lon="21.7089">
    <comp name="00.HHE">
      <acc value="0.0172394837" flag="0"/>
      <vel value="0.0126505785" flag="0"/>
      <psa03 value="0.0524985902" flag="0"/>
      <psa10 value="0.0206936893" flag="0"/>
      <psa30 value="0.0008272240" flag="0"/>
    </comp>
    <comp name="00.HHN">
      <acc value="0.0146009154" flag="0"/>
      <vel value="0.0105090179" flag="0"/>
      <psa03 value="0.0453826631" flag="0"/>
      <psa10 value="0.0138258811" flag="0"/>
      <psa30 value="0.0011126695" flag="0"/>
    </comp>
    <comp name="00.HHZ">
      <acc value="0.0107938611" flag="0"/>
      <vel value="0.0070977522" flag="0"/>
      <psa03 value="0.0361867901" flag="0"/>
      <psa10 value="0.0075065194" flag="0"/>
      <psa30 value="0.0004644161" flag="0"/>
    </comp>
  </station>
  <station code="ANX" name="ANX" netid="HP" insttype="120" lat="38.5933" lon="21.9209">
    <comp name="--.HHE">
      <acc value="0.0130167579" flag="0"/>
      <vel value="0.0128326452" flag="0"/>
      <psa03 value="0.0326293355" flag="0"/>
      <psa10 value="0.0139510764" flag="0"/>
      <psa30 value="0.0015662213" flag="0"/>
    </comp>
    <comp name="--.HHN">
      <acc value="0.0154369314" flag="0"/>
      <vel value="0.0114002839" flag="0"/>
      <psa03 value="0.0431665703" flag="0"/>
      <psa10 value="0.0118113782" flag="0"/>
      <psa30 value="0.0015026755" flag="0"/>
    </comp>
    <comp name="--.HHZ">
      <acc value="0.0104751125" flag="0"/>
      <vel value="0.0075419878" flag="0"/>
      <psa03 value="0.0279490187" flag="0"/>
      <psa10 value="0.0103408262" flag="0"/>
      <psa30 value="0.0018693960" flag="0"/>
    </comp>
  </station>
  <station code="AXS" name="AXS" netid="HP" insttype="40," lat="38.1962" lon="21.3763">
    <comp name="--.HHE">
      <acc value="0.0128463393" flag="0"/>
      <vel value="0.0071103891" flag="0"/>
      <psa03 value="0.0336924599" flag="0"/>
      <psa10 value="0.0080336045" flag="0"/>
      <psa30 value="0.0009877227" flag="0"/>
    </comp>
    <comp name="--.HHN">
      <acc value="0.0165761762" flag="0"/>
      <vel value="0.0111414816" flag="0"/>
      <psa03 value="0.0406692186" flag="0"/>
      <psa10 value="0.0090095726" flag="0"/>
      <psa30 value="0.0008295597" flag="0"/>
    </comp>
    <comp name="--.HHZ">
      <acc value="0.0118604259" flag="0"/>
      <vel value="0.0059795713" flag="0"/>
      <psa03 value="0.0340981407" flag="0"/>
      <psa10 value="0.0091324581" flag="0"/>
      <psa30 value="0.0011166835" flag="0"/>
    </comp>
  </station>
  <station code="DRO" name="DRO" netid="HP" insttype="120P," lat="37.952" lon="21.71">
    <comp name="--.HHE">
      <acc value="0.0377593538" flag="0"/>
      <vel value="0.0201634197" flag="0"/>
      <psa03 value="0.1092651332" flag="0"/>
      <psa10 value="0.0180939510" flag="0"/>
      <psa30 value="0.0015483165" flag="0"/>
    </comp>
    <comp name="--.HHN">
      <acc value="0.0311724965" flag="0"/>
      <vel value="0.0171381772" flag="0"/>
      <psa03 value="0.0803807633" flag="0"/>
      <psa10 value="0.0157450578" flag="0"/>
      <psa30 value="0.0009161287" flag="0"/>
    </comp>
    <comp name="--.HHZ">
      <acc value="0.0132138083" flag="0"/>
      <vel value="0.0077924005" flag="0"/>
      <psa03 value="0.0416645482" flag="0"/>
      <psa10 value="0.0104566503" flag="0"/>
      <psa30 value="0.0008981283" flag="0"/>
    </comp>
  </station>
  <station code="EFP" name="EFP" netid="HP" insttype="40," lat="38.4269" lon="21.9058">
    <comp name="--.HHN">
      <acc value="0.0129413768" flag="0"/>
      <vel value="0.0079500506" flag="0"/>
      <psa03 value="0.0567542510" flag="0"/>
      <psa10 value="0.0082789007" flag="0"/>
      <psa30 value="0.0006970701" flag="0"/>
    </comp>
    <comp name="--.HHZ">
      <acc value="0.0081841252" flag="0"/>
      <vel value="0.0045266041" flag="0"/>
      <psa03 value="0.0413129008" flag="0"/>
      <psa10 value="0.0065904080" flag="0"/>
      <psa30 value="0.0007319357" flag="0"/>
    </comp>
    <comp name="--.HHE">
      <acc value="0.0096120554" flag="0"/>
      <vel value="0.0070048559" flag="0"/>
      <psa03 value="0.0344025940" flag="0"/>
      <psa10 value="0.0069551196" flag="0"/>
      <psa30 value="0.0009605564" flag="0"/>
    </comp>
  </station>
  <station code="FSK" name="FSK" netid="HP" insttype="40," lat="38.4593" lon="20.5623">
    <comp name="--.HHE">
      <acc value="0.2578553503" flag="0"/>
      <vel value="0.0582610859" flag="0"/>
      <psa03 value="0.2505932858" flag="0"/>
      <psa10 value="0.0272537269" flag="0"/>
      <psa30 value="0.0020785950" flag="0"/>
    </comp>
    <comp name="--.HHN">
      <acc value="0.1448428539" flag="0"/>
      <vel value="0.0377955528" flag="0"/>
      <psa03 value="0.1102242006" flag="0"/>
      <psa10 value="0.0276194872" flag="0"/>
      <psa30 value="0.0020612173" flag="0"/>
    </comp>
    <comp name="--.HHZ">
      <acc value="0.1692073472" flag="0"/>
      <vel value="0.0320251595" flag="0"/>
      <psa03 value="0.0989534518" flag="0"/>
      <psa10 value="0.0126857915" flag="0"/>
      <psa30 value="0.0014795079" flag="0"/>
    </comp>
  </station>
  <station code="GUR" name="GUR" netid="HP" insttype="40," lat="37.9363" lon="22.3423">
    <comp name="--.HHE">
      <acc value="0.0084309736" flag="0"/>
      <vel value="0.0055863172" flag="0"/>
      <psa03 value="0.0283656799" flag="0"/>
      <psa10 value="0.0080818596" flag="0"/>
      <psa30 value="0.0009238165" flag="0"/>
    </comp>
    <comp name="--.HHN">
      <acc value="0.0121794523" flag="0"/>
      <vel value="0.0113838651" flag="0"/>
      <psa03 value="0.0380203366" flag="0"/>
      <psa10 value="0.0116445028" flag="0"/>
      <psa30 value="0.0005993555" flag="0"/>
    </comp>
    <comp name="--.HHZ">
      <acc value="0.0065185905" flag="0"/>
      <vel value="0.0035811357" flag="0"/>
      <psa03 value="0.0120204694" flag="0"/>
      <psa10 value="0.0018917207" flag="0"/>
      <psa30 value="0.0002149902" flag="0"/>
    </comp>
  </station>
  <station code="LTHK" name="LTHK" netid="HP" insttype="40," lat="37.7095" lon="20.8367">
    <comp name="--.HHZ">
      <acc value="0.2972660062" flag="0"/>
      <vel value="0.0805113468" flag="0"/>
      <psa03 value="0.5663767334" flag="0"/>
      <psa10 value="0.0203323947" flag="0"/>
      <psa30 value="0.0025561618" flag="0"/>
    </comp>
    <comp name="--.HHE">
      <acc value="0.7641547202" flag="0"/>
      <vel value="0.1933382441" flag="0"/>
      <psa03 value="0.5646778976" flag="0"/>
      <psa10 value="0.0502266484" flag="0"/>
      <psa30 value="0.0062263375" flag="0"/>
    </comp>
    <comp name="--.HHN">
      <acc value="0.6608556618" flag="0"/>
      <vel value="0.2460646565" flag="0"/>
      <psa03 value="0.8284010479" flag="0"/>
      <psa10 value="0.0643108587" flag="0"/>
      <psa30 value="0.0062676299" flag="0"/>
    </comp>
  </station>
  <station code="PLEV" name="PLEV" netid="HP" insttype="Compact," lat="38.4124" lon="21.4073">
    <comp name="--.HHN">
      <acc value="0.0131161081" flag="0"/>
      <vel value="0.0078672231" flag="0"/>
      <psa03 value="0.0396254920" flag="0"/>
      <psa10 value="0.0075526913" flag="0"/>
      <psa30 value="0.0009334119" flag="0"/>
    </comp>
    <comp name="--.HHZ">
      <acc value="0.0089160503" flag="0"/>
      <vel value="0.0054035288" flag="0"/>
      <psa03 value="0.0230247553" flag="0"/>
      <psa10 value="0.0116588708" flag="0"/>
      <psa30 value="0.0010497923" flag="0"/>
    </comp>
    <comp name="--.HHE">
      <acc value="0.0134142289" flag="0"/>
      <vel value="0.0076912852" flag="0"/>
      <psa03 value="0.0305547871" flag="0"/>
      <psa10 value="0.0104685765" flag="0"/>
      <psa30 value="0.0009779270" flag="0"/>
    </comp>
  </station>
  <station code="PVO" name="PVO" netid="HP" insttype="120P," lat="38.616" lon="21.525">
    <comp name="--.HHE">
      <acc value="0.0190264547" flag="0"/>
      <vel value="0.0126615778" flag="0"/>
      <psa03 value="0.0520344359" flag="0"/>
      <psa10 value="0.0129504779" flag="0"/>
      <psa30 value="0.0024534509" flag="0"/>
    </comp>
    <comp name="--.HHN">
      <acc value="0.0215622648" flag="0"/>
      <vel value="0.0134070016" flag="0"/>
      <psa03 value="0.0620049622" flag="0"/>
      <psa10 value="0.0113993130" flag="0"/>
      <psa30 value="0.0018448890" flag="0"/>
    </comp>
    <comp name="--.HHZ">
      <acc value="0.0120137458" flag="0"/>
      <vel value="0.0086293386" flag="0"/>
      <psa03 value="0.0300991792" flag="0"/>
      <psa10 value="0.0095351276" flag="0"/>
      <psa30 value="0.0016920138" flag="0"/>
    </comp>
  </station>
  <station code="SERG" name="SERG" netid="HP" insttype="DC_100" lat="38.4133" lon="22.0566">
    <comp name="--.HNZ">
      <acc value="0.0083208761" flag="0"/>
      <vel value="0.0045225483" flag="0"/>
      <psa03 value="0.0155338064" flag="0"/>
      <psa10 value="0.0040604326" flag="0"/>
      <psa30 value="0.0008024721" flag="0"/>
    </comp>
    <comp name="--.HNN">
      <acc value="0.0157881856" flag="0"/>
      <vel value="0.0066334088" flag="0"/>
      <psa03 value="0.0347254075" flag="0"/>
      <psa10 value="0.0059406763" flag="0"/>
      <psa30 value="0.0008130780" flag="0"/>
    </comp>
    <comp name="--.HNE">
      <acc value="0.0143833471" flag="0"/>
      <vel value="0.0082358528" flag="0"/>
      <psa03 value="0.0431442738" flag="0"/>
      <psa10 value="0.0092882871" flag="0"/>
      <psa30 value="0.0007648302" flag="0"/>
    </comp>
  </station>
  <station code="UPR" name="UPR" netid="HP" insttype="120" lat="38.2836" lon="21.7864">
    <comp name="--.HHZ">
      <acc value="0.0224506927" flag="0"/>
      <vel value="0.0192001804" flag="0"/>
      <psa03 value="0.0543494459" flag="0"/>
      <psa10 value="0.0414968372" flag="0"/>
      <psa30 value="0.0019214120" flag="0"/>
    </comp>
    <comp name="--.HHN">
      <acc value="0.0224749391" flag="0"/>
      <vel value="0.0244107652" flag="0"/>
      <psa03 value="0.0750402013" flag="0"/>
      <psa10 value="0.0423020870" flag="0"/>
      <psa30 value="0.0032249397" flag="0"/>
    </comp>
    <comp name="--.HHE">
      <acc value="0.0242039573" flag="0"/>
      <vel value="0.0281016303" flag="0"/>
      <psa03 value="0.0734197392" flag="0"/>
      <psa10 value="0.0504502566" flag="0"/>
      <psa30 value="0.0047838420" flag="0"/>
    </comp>
  </station>
  <station code="DMLN" name="DMLN" netid="HT" insttype="1s-100Hz," lat="38.2385" lon="20.3734">
    <comp name="--.HHZ">
      <acc value="1.2212274135" flag="0"/>
      <vel value="0.1799019027" flag="0"/>
      <psa03 value="0.3147887159" flag="0"/>
      <psa10 value="0.0326769652" flag="0"/>
      <psa30 value="0.0027808330" flag="0"/>
    </comp>
    <comp name="--.HHE">
      <acc value="1.5618216576" flag="0"/>
      <vel value="0.2164862356" flag="0"/>
      <psa03 value="0.5908332611" flag="0"/>
      <psa10 value="0.0857299792" flag="0"/>
      <psa30 value="0.0035103466" flag="0"/>
    </comp>
    <comp name="--.HHN">
      <acc value="1.4764426306" flag="0"/>
      <vel value="0.2891953840" flag="0"/>
      <psa03 value="0.5527202780" flag="0"/>
      <psa10 value="0.0522709632" flag="0"/>
      <psa30 value="0.0047283257" flag="0"/>
    </comp>
  </station>
  <station code="DRAG" name="DRAG" netid="HT" insttype="1s-100Hz," lat="38.6839" lon="20.5746">
    <comp name="--.HHN">
      <acc value="0.1892008305" flag="0"/>
      <vel value="0.0417828422" flag="0"/>
      <psa03 value="0.2352248663" flag="0"/>
      <psa10 value="0.0400049461" flag="0"/>
      <psa30 value="0.0019129086" flag="0"/>
    </comp>
    <comp name="--.HHE">
      <acc value="0.1808790307" flag="0"/>
      <vel value="0.0590319467" flag="0"/>
