<?xml version="1.0" encoding="UTF-8" standalone="yes"?>
<!DOCTYPE earthquake SYSTEM "stationlist.dtd">
<stationlist created="" xmlns="ch.ethz.sed.shakemap.usgs.xml">
  <station code="BNN" name="BNN" netid="KO" insttype="CMG-3T" lat="38.8521" lon="35.8472">
    <comp name="--.HHE">
      <acc value="0.0530225859" flag="0"/>
      <vel value="0.0272593387" flag="0"/>
      <psa03 value="0.1279320459" flag="0"/>
      <psa10 value="0.0296079099" flag="0"/>
      <psa30 value="0.0022501291" flag="0"/>
    </comp>
    <comp name="--.HHN">
      <acc value="0.0483792920" flag="0"/>
      <vel value="0.0247749110" flag="0"/>
      <psa03 value="0.1300504341" flag="0"/>
      <psa10 value="0.0352072422" flag="0"/>
      <psa30 value="0.0026508125" flag="0"/>
    </comp>
    <comp name="--.HHZ">
      <acc value="0.0346534324" flag="0"/>
      <vel value="0.0159645672" flag="0"/>
      <psa03 value="0.1087004952" flag="0"/>
      <psa10 value="0.0185673138" flag="0"/>
      <psa30 value="0.0014036189" flag="0"/>
    </comp>
  </station>
  <station code="CEYT" name="CEYT" netid="KO" insttype="CMG-3ESP" lat="37.0105" lon="35.7478">
    <comp name="--.HHE">
      <acc value="0.0171114115" flag="0"/>
      <vel value="0.0207800228" flag="0"/>
      <psa03 value="0.0513304417" flag="0"/>
      <psa10 value="0.0163704025" flag="0"/>
      <psa30 value="0.0045615576" flag="0"/>
    </comp>
    <comp name="--.HHN">
      <acc value="0.0134065256" flag="0"/>
      <vel value="0.0119639773" flag="0"/>
      <psa03 value="0.0430999724" flag="0"/>
      <psa10 value="0.0239995622" flag="0"/>
      <psa30 value="0.0034666978" flag="0"/>
    </comp>
    <comp name="--.HHZ">
      <acc value="0.0093600374" flag="0"/>
      <vel value="0.0091124046" flag="0"/>
      <psa03 value="0.0224880882" flag="0"/>
      <psa10 value="0.0163498745" flag="0"/>
      <psa30 value="0.0029646511" flag="0"/>
    </comp>
  </station>
  <station code="DARE" name="DARE" netid="KO" insttype="CMG-3ESP" lat="38.5712" lon="37.4832">
    <comp name="--.HHZ">
      <acc value="0.0308536608" flag="0"/>
      <vel value="0.0130023989" flag="0"/>
      <psa03 value="0.0682656737" flag="0"/>
      <psa10 value="0.0198738055" flag="0"/>
      <psa30 value="0.0013740589" flag="0"/>
    </comp>
  </station>
  <station code="GAZ" name="GAZ" netid="KO" insttype="CMG-3T" lat="37.1721" lon="37.2096">
    <comp name="--.HHN">
      <acc value="0.0372423591" flag="0"/>
      <vel value="0.0361395944" flag="0"/>
      <psa03 value="0.1259838415" flag="0"/>
      <psa10 value="0.0428239015" flag="0"/>
      <psa30 value="0.0037935678" flag="0"/>
    </comp>
    <comp name="--.HHE">
      <acc value="0.0568320662" flag="0"/>
      <vel value="0.0262673081" flag="0"/>
      <psa03 value="0.1186265514" flag="0"/>
      <psa10 value="0.0272607304" flag="0"/>
      <psa30 value="0.0033653555" flag="0"/>
    </comp>
    <comp name="--.HHZ">
      <acc value="0.0327057300" flag="0"/>
      <vel value="0.0162450232" flag="0"/>
      <psa03 value="0.1052903545" flag="0"/>
      <psa10 value="0.0225354471" flag="0"/>
      <psa30 value="0.0024632313" flag="0"/>
    </comp>
  </station>
  <station code="KMRS" name="KMRS" netid="KO" insttype="CMG-3T" lat="37.5087" lon="36.9">
    <comp name="--.HHE">
      <acc value="0.0455611908" flag="0"/>
      <vel value="0.0237336578" flag="0"/>
      <psa03 value="0.1621435424" flag="0"/>
      <psa10 value="0.0273682024" flag="0"/>
      <psa30 value="0.0042937162" flag="0"/>
    </comp>
    <comp name="--.HHZ">
      <acc value="0.0696855296" flag="0"/>
      <vel value="0.0387780630" flag="0"/>
      <psa03 value="0.1950735965" flag="0"/>
      <psa10 value="0.0198133088" flag="0"/>
      <psa30 value="0.0046718173" flag="0"/>
    </comp>
    <comp name="--.HHN">
      <acc value="0.0647612770" flag="0"/>
      <vel value="0.0353308888" flag="0"/>
      <psa03 value="0.1434575221" flag="0"/>
      <psa10 value="0.0340002931" flag="0"/>
      <psa30 value="0.0062353824" flag="0"/>
    </comp>
  </station>
  <station code="SARI" name="SARI" netid="KO" insttype="CMG-3T" lat="38.4072" lon="36.4181">
    <comp name="--.HHE">
      <acc value="1.5085154313" flag="0"/>
      <vel value="0.2824093777" flag="0"/>
      <psa03 value="2.2610149738" flag="0"/>
      <psa10 value="0.1452716120" flag="0"/>
      <psa30 value="0.0095237714" flag="0"/>
    </comp>
    <comp name="--.HHN">
      <acc value="0.9501112729" flag="0"/>
      <vel value="0.2745510258" flag="0"/>
      <psa03 value="2.1555858363" flag="0"/>
      <psa10 value="0.0890177878" flag="0"/>
      <psa30 value="0.0081692847" flag="0"/>
    </comp>
    <comp name="--.HHZ">
      <acc value="0.6275448332" flag="0"/>
      <vel value="0.2006222157" flag="0"/>
      <psa03 value="1.1979386746" flag="0"/>
      <psa10 value="0.0890087951" flag="0"/>
      <psa30 value="0.0055366974" flag="0"/>
    </comp>
  </station>
  <station code="ANDN" name="ANDN" netid="TU" insttype="T" lat="37.58" lon="36.3452">
    <comp name="--.HHZ">
      <acc value="0.4146496709" flag="0"/>
      <vel value="0.1679813967" flag="0"/>
      <psa03 value="1.1220702180" flag="0"/>
      <psa10 value="0.1616175977" flag="0"/>
      <psa30 value="0.0152058622" flag="0"/>
    </comp>
    <comp name="--.HHN">
      <acc value="0.6871636754" flag="0"/>
      <vel value="0.2373329541" flag="0"/>
      <psa03 value="1.9142675929" flag="0"/>
      <psa10 value="0.2005388804" flag="0"/>
      <psa30 value="0.0294885205" flag="0"/>
    </comp>
    <comp name="--.HHE">
      <acc value="0.7180585757" flag="0"/>
      <vel value="0.3203785074" flag="0"/>
      <psa03 value="2.0331001962" flag="0"/>
      <psa10 value="0.2123852971" flag="0"/>
      <psa30 value="0.0347363064" flag="0"/>
    </comp>
  </station>
</stationlist>
