<?xml version="1.0" encoding="UTF-8" standalone="yes"?>
<!DOCTYPE earthquake SYSTEM "stationlist.dtd">
<stationlist created="" xmlns="ch.ethz.sed.shakemap.usgs.xml">
  <station code="PE03" name="PE03" netid="Z3" source="GFZ" insttype="CMG-3ESP/60" lat="37.3784" lon="21.7722">
    <comp name="--.HHE">
      <acc value="0.0084564420" flag="0"/>
      <vel value="0.0108015302" flag="0"/>
      <psa03 value="0.0203239099" flag="0"/>
      <psa10 value="0.0142545309" flag="0"/>
      <psa30 value="0.0012491110" flag="0"/>
    </comp>
    <comp name="--.HHN">
      <acc value="0.0077659281" flag="0"/>
      <vel value="0.0108363280" flag="0"/>
      <psa03 value="0.0161853300" flag="0"/>
      <psa10 value="0.0133860561" flag="0"/>
      <psa30 value="0.0027256756" flag="0"/>
    </comp>
    <comp name="--.HHZ">
      <acc value="0.0050024725" flag="0"/>
      <vel value="0.0087785043" flag="0"/>
      <psa03 value="0.0119011896" flag="0"/>
      <psa10 value="0.0097370932" flag="0"/>
      <psa30 value="0.0028224848" flag="0"/>
    </comp>
  </station>
  <station code="PE06" name="PE06" netid="Z3" source="GFZ" insttype="CMG-3ESP/60" lat="37.1787" lon="21.9252">
    <comp name="--.HHE">
      <acc value="0.0051341963" flag="0"/>
      <vel value="0.0067568620" flag="0"/>
      <psa03 value="0.0113713664" flag="0"/>
      <psa10 value="0.0100381731" flag="0"/>
      <psa30 value="0.0030315810" flag="0"/>
    </comp>
    <comp name="--.HHN">
      <acc value="0.0047726413" flag="0"/>
      <vel value="0.0086031271" flag="0"/>
      <psa03 value="0.0124056928" flag="0"/>
      <psa10 value="0.0096036910" flag="0"/>
      <psa30 value="0.0029219400" flag="0"/>
    </comp>
    <comp name="--.HHZ">
      <acc value="0.0051697910" flag="0"/>
      <vel value="0.0083463329" flag="0"/>
      <psa03 value="0.0090682763" flag="0"/>
      <psa10 value="0.0093626777" flag="0"/>
      <psa30 value="0.0022373288" flag="0"/>
    </comp>
  </station>
</stationlist>
