<?xml version="1.0" encoding="UTF-8" standalone="yes"?>
<!DOCTYPE earthquake SYSTEM "stationlist.dtd">
<stationlist created="" xmlns="ch.ethz.sed.shakemap.usgs.xml">
  <station code="CEYT" name="CEYT" netid="KO" insttype="CMG-3ESP" lat="37.0105" lon="35.7478">
    <comp name="--.HHE">
      <acc value="0.0202224094" flag="0"/>
      <vel value="0.0125852946" flag="0"/>
      <psa03 value="0.0597497186" flag="0"/>
      <psa10 value="0.0097643882" flag="0"/>
      <psa30 value="0.0013332294" flag="0"/>
    </comp>
    <comp name="--.HHN">
      <acc value="0.0208229060" flag="0"/>
      <vel value="0.0160073781" flag="0"/>
      <psa03 value="0.0501400187" flag="0"/>
      <psa10 value="0.0131396462" flag="0"/>
      <psa30 value="0.0014763589" flag="0"/>
    </comp>
    <comp name="--.HHZ">
      <acc value="0.0118658882" flag="0"/>
      <vel value="0.0076363429" flag="0"/>
      <psa03 value="0.0412980691" flag="0"/>
      <psa10 value="0.0110701102" flag="0"/>
      <psa30 value="0.0009637952" flag="0"/>
    </comp>
  </station>
</stationlist>
