<?xml version="1.0" encoding="UTF-8" standalone="yes"?>
<!DOCTYPE earthquake SYSTEM "stationlist.dtd">
<stationlist created="" xmlns="ch.ethz.sed.shakemap.usgs.xml">
  <station code="ANDN" name="ANDN" netid="TU" insttype="T" lat="37.58" lon="36.3452">
    <comp name="--.HHZ">
      <acc value="0.0384244116" flag="0"/>
      <vel value="0.0187613223" flag="0"/>
      <psa03 value="0.0519123307" flag="0"/>
      <psa10 value="0.0202665354" flag="0"/>
      <psa30 value="0.0014966158" flag="0"/>
    </comp>
    <comp name="--.HHE">
      <acc value="0.0617229451" flag="0"/>
      <vel value="0.0280294886" flag="0"/>
      <psa03 value="0.0873835747" flag="0"/>
      <psa10 value="0.0213604862" flag="0"/>
      <psa30 value="0.0018234579" flag="0"/>
    </comp>
    <comp name="--.HHN">
      <acc value="0.0999468912" flag="0"/>
      <vel value="0.0350940009" flag="0"/>
      <psa03 value="0.2373506874" flag="0"/>
      <psa10 value="0.0221430803" flag="0"/>
      <psa30 value="0.0015847898" flag="0"/>
    </comp>
  </station>
</stationlist>
