<?xml version="1.0" encoding="UTF-8" standalone="yes"?>
<!DOCTYPE earthquake SYSTEM "stationlist.dtd">
<stationlist created="" xmlns="ch.ethz.sed.shakemap.usgs.xml">
  <station code="CEYT" name="CEYT" netid="KO" insttype="CMG-3ESP" lat="37.0105" lon="35.7478">
    <comp name="--.HHE">
      <acc value="0.0202224094" flag="0"/>
      <vel value="0.0125852946" flag="0"/>
      <psa03 value="0.0597497186" flag="0"/>
      <psa10 value="0.0097643882" flag="0"/>
      <psa30 value="0.0013332294" flag="0"/>
    </comp>
    <comp name="--.HHN">
      <acc value="0.0208229060" flag="0"/>
      <vel value="0.0160073781" flag="0"/>
      <psa03 value="0.0501400187" flag="0"/>
      <psa10 value="0.0131396462" flag="0"/>
      <psa30 value="0.0014763589" flag="0"/>
    </comp>
    <comp name="--.HHZ">
      <acc value="0.0118658882" flag="0"/>
      <vel value="0.0076363429" flag="0"/>
      <psa03 value="0.0412980691" flag="0"/>
      <psa10 value="0.0110701102" flag="0"/>
      <psa30 value="0.0009637952" flag="0"/>
    </comp>
  </station>
  <station code="ANDN" name="ANDN" netid="TU" insttype="T" lat="37.58" lon="36.3452">
    <comp name="--.HHN">
      <acc value="0.0999468911" flag="0"/>
      <vel value="0.0350940341" flag="0"/>
      <psa03 value="0.2373506874" flag="0"/>
      <psa10 value="0.0221428023" flag="0"/>
      <psa30 value="0.0015846293" flag="0"/>
    </comp>
    <comp name="--.HHE">
      <acc value="0.0617229462" flag="0"/>
      <vel value="0.0280294920" flag="0"/>
      <psa03 value="0.0873835747" flag="0"/>
      <psa10 value="0.0213604476" flag="0"/>
      <psa30 value="0.0018240647" flag="0"/>
    </comp>
    <comp name="--.HHZ">
      <acc value="0.0384244116" flag="0"/>
      <vel value="0.0187613215" flag="0"/>
      <psa03 value="0.0519123307" flag="0"/>
      <psa10 value="0.0202664251" flag="0"/>
      <psa30 value="0.0014928353" flag="0"/>
    </comp>
  </station>
</stationlist>
