<stationlist created="1778069938">
	<station code="BNALP" name="BNALP" netid="CH" source="Switzerland Seismological Network" insttype="" lat="46.87034" lon="8.4249">
		<comp name="--.HGE" depth="0.0">
			<acc value="0.0145225598113934" flag="0"/>
			<vel value="0.00444220729219235" flag="0"/>
			<psa03 value="0.0360174763277088" flag="0"/>
			<psa10 value="0.00190467573573983" flag="0"/>
			<psa30 value="0.000124830756464978" flag="0"/>
		</comp>
		<comp name="--.HGN" depth="0.0">
			<acc value="0.015993349948274" flag="0"/>
			<vel value="0.00337965335578681" flag="0"/>
			<psa03 value="0.0271137772106727" flag="0"/>
			<psa10 value="0.00284291980852499" flag="0"/>
			<psa30 value="0.000143622483244652" flag="0"/>
		</comp>
		<comp name="--.HGZ" depth="0.0">
			<acc value="0.0091840999004594" flag="0"/>
			<vel value="0.00312340918284156" flag="0"/>
			<psa03 value="0.0211183215238243" flag="0"/>
			<psa10 value="0.00156642465370569" flag="0"/>
			<psa30 value="7.56143291848793e-05" flag="0"/>
		</comp>
	</station>
	<station code="DAVOX" name="DAVOX" netid="CH" source="Switzerland Seismological Network" insttype="" lat="46.7805" lon="9.87952">
		<comp name="--.HGE" depth="0.0">
			<acc value="0.00522797762396277" flag="0"/>
			<vel value="0.00249220453737882" flag="0"/>
			<psa03 value="0.0105591607619121" flag="0"/>
			<psa10 value="0.00100669964891111" flag="0"/>
			<psa30 value="7.42720629863311e-05" flag="0"/>
		</comp>
		<comp name="--.HGN" depth="0.0">
			<acc value="0.00612680950013312" flag="0"/>
			<vel value="0.00255993983148633" flag="0"/>
			<psa03 value="0.0144517327377018" flag="0"/>
			<psa10 value="0.00171138940314889" flag="0"/>
			<psa30 value="9.3511211832188e-05" flag="0"/>
		</comp>
		<comp name="--.HGZ" depth="0.0">
			<acc value="0.00460480683849623" flag="0"/>
			<vel value="0.00147171019307331" flag="0"/>
			<psa03 value="0.00666658878612249" flag="0"/>
			<psa10 value="0.000797306121937603" flag="0"/>
			<psa30 value="6.35339333979459e-05" flag="0"/>
		</comp>
	</station>
	<station code="FUSIO" name="FUSIO" netid="CH" source="Switzerland Seismological Network" insttype="" lat="46.45481" lon="8.6629">
		<comp name="--.HGE" depth="0.0">
			<acc value="0.0296894348313691" flag="0"/>
			<vel value="0.00748028885631055" flag="0"/>
			<psa03 value="0.0264873863180169" flag="0"/>
			<psa10 value="0.00119998598150205" flag="0"/>
			<psa30 value="0.00013333177572245" flag="0"/>
		</comp>
		<comp name="--.HGN" depth="0.0">
			<acc value="0.0218186396091752" flag="0"/>
			<vel value="0.005047063863412" flag="0"/>
			<psa03 value="0.0134674041920998" flag="0"/>
			<psa10 value="0.000990592454528537" flag="0"/>
			<psa30 value="0.000112302938611862" flag="0"/>
		</comp>
		<comp name="--.HGZ" depth="0.0">
			<acc value="0.0301984938217535" flag="0"/>
			<vel value="0.00640989365235309" flag="0"/>
			<psa03 value="0.0148544125972662" flag="0"/>
			<psa10 value="0.00163085343123601" flag="0"/>
			<psa30 value="0.000127067866795892" flag="0"/>
		</comp>
	</station>
	<station code="HAMIK" name="HAMIK" netid="CH" source="Switzerland Seismological Network" insttype="" lat="47.24508" lon="8.27061">
		<comp name="SF.HGE" depth="1.0">
			<acc value="0.0224976543233767" flag="0"/>
			<vel value="0.00647729379457867" flag="0"/>
			<psa03 value="0.0170467807215615" flag="0"/>
			<psa10 value="0.00171944300034018" flag="0"/>
			<psa30 value="0.000148991548038845" flag="0"/>
		</comp>
		<comp name="SF.HGN" depth="1.0">
			<acc value="0.0276908291276511" flag="0"/>
			<vel value="0.00730419837733793" flag="0"/>
			<psa03 value="0.0238923383341571" flag="0"/>
			<psa10 value="0.0022550072135609" flag="0"/>
			<psa30 value="0.000151228658369759" flag="0"/>
		</comp>
		<comp name="SF.HGZ" depth="1.0">
			<acc value="0.011607692472766" flag="0"/>
			<vel value="0.00301114284694279" flag="0"/>
			<psa03 value="0.00796411277805237" flag="0"/>
			<psa10 value="0.000769118531768091" flag="0"/>
			<psa30 value="9.21689456336398e-05" flag="0"/>
		</comp>
	</station>
	<station code="LKBD2" name="LKBD2" netid="CH" source="Switzerland Seismological Network" insttype="" lat="46.37455" lon="7.64433">
		<comp name="--.HGE" depth="0.0">
			<acc value="0.00596299326446902" flag="0"/>
			<vel value="0.00328174875829316" flag="0"/>
			<psa03 value="0.0114092626876593" flag="0"/>
			<psa10 value="0.00117582518992818" flag="0"/>
			<psa30 value="0.000104696763486756" flag="0"/>
		</comp>
		<comp name="--.HGN" depth="0.0">
			<acc value="0.00601880120802056" flag="0"/>
			<vel value="0.00279201732348807" flag="0"/>
			<psa03 value="0.00738246409201484" flag="0"/>
			<psa10 value="0.00125233436324543" flag="0"/>
			<psa30 value="7.65091733172447e-05" flag="0"/>
		</comp>
		<comp name="--.HGZ" depth="0.0">
			<acc value="0.00416326382324167" flag="0"/>
			<vel value="0.00107589370774478" flag="0"/>
			<psa03 value="0.00474267390153681" flag="0"/>
			<psa10 value="0.000414760255351379" flag="0"/>
			<psa30 value="4.96638493462816e-05" flag="0"/>
		</comp>
	</station>
	<station code="MUGIO" name="MUGIO" netid="CH" source="Switzerland Seismological Network" insttype="" lat="45.92184" lon="9.04171">
		<comp name="--.HGE" depth="0.0">
			<acc value="0.208445409711814" flag="0"/>
			<vel value="0.0447020704947618" flag="0"/>
			<psa03 value="0.0837574107894047" flag="0"/>
			<psa10 value="0.00908848443036954" flag="0"/>
			<psa30 value="0.000780304083422659" flag="0"/>
		</comp>
		<comp name="--.HGN" depth="0.0">
			<acc value="0.161121559289496" flag="0"/>
			<vel value="0.0322238238629004" flag="0"/>
			<psa03 value="0.0765986577304812" flag="0"/>
			<psa10 value="0.00612476066397522" flag="0"/>
			<psa30 value="0.000619679561663064" flag="0"/>
		</comp>
		<comp name="--.HGZ" depth="0.0">
			<acc value="0.149403985170827" flag="0"/>
			<vel value="0.041498024991298" flag="0"/>
			<psa03 value="0.109842117247857" flag="0"/>
			<psa10 value="0.00505363223753379" flag="0"/>
			<psa30 value="0.000573595088846244" flag="0"/>
		</comp>
	</station>
	<station code="NALPS" name="NALPS" netid="CH" source="Switzerland Seismological Network" insttype="" lat="46.595121" lon="8.74828">
		<comp name="--.HGE" depth="0.0">
			<acc value="0.0298729127354064" flag="0"/>
			<vel value="0.00433151890107941" flag="0"/>
			<psa03 value="0.0122146224067882" flag="0"/>
			<psa10 value="0.000636234178111824" flag="0"/>
			<psa30 value="0.000164203898289057" flag="0"/>
		</comp>
		<comp name="--.HGN" depth="0.0">
			<acc value="0.0386473391674371" flag="0"/>
			<vel value="0.00629105756225578" flag="0"/>
			<psa03 value="0.0191496644326203" flag="0"/>
			<psa10 value="0.000958378065763381" flag="0"/>
			<psa30 value="0.000112302938611862" flag="0"/>
		</comp>
		<comp name="--.HGZ" depth="0.0">
			<acc value="0.0225731720914066" flag="0"/>
			<vel value="0.00359860238684659" flag="0"/>
			<psa03 value="0.0101117386957294" flag="0"/>
			<psa10 value="0.000982538857337248" flag="0"/>
			<psa30 value="9.53009000969188e-05" flag="0"/>
		</comp>
	</station>
	<station code="PANIX" name="PANIX" netid="CH" source="Switzerland Seismological Network" insttype="" lat="46.825743" lon="9.111708">
		<comp name="--.HGE" depth="0.0">
			<acc value="0.0111371452017594" flag="0"/>
			<vel value="0.0031721774191386" flag="0"/>
			<psa03 value="0.0138700840516642" flag="0"/>
			<psa10 value="0.000696636157046491" flag="0"/>
			<psa30 value="7.87462836481583e-05" flag="0"/>
		</comp>
		<comp name="--.HGN" depth="0.0">
			<acc value="0.0161546260762608" flag="0"/>
			<vel value="0.0047008994341946" flag="0"/>
			<psa03 value="0.008232566017762" flag="0"/>
			<psa10 value="0.000599992990751024" flag="0"/>
			<psa30 value="6.26390892655804e-05" flag="0"/>
		</comp>
		<comp name="--.HGZ" depth="0.0">
			<acc value="0.00883186938283266" flag="0"/>
			<vel value="0.00247049548118627" flag="0"/>
			<psa03 value="0.00814308160452546" flag="0"/>
			<psa10 value="0.000732877344407291" flag="0"/>
			<psa30 value="6.80081540597731e-05" flag="0"/>
		</comp>
	</station>
	<station code="SALTS" name="SALTS" netid="CH" source="Switzerland Seismological Network" insttype="" lat="46.88204" lon="8.63821">
		<comp name="--.HGE" depth="1.0">
			<acc value="0.0426105095548361" flag="0"/>
			<vel value="0.0113320317400728" flag="0"/>
			<psa03 value="0.0451896286844545" flag="0"/>
			<psa10 value="0.00404693258862268" flag="0"/>
			<psa30 value="0.000281875901695112" flag="0"/>
		</comp>
		<comp name="--.HGN" depth="1.0">
			<acc value="0.0403036213094908" flag="0"/>
			<vel value="0.00994714564423629" flag="0"/>
			<psa03 value="0.0417444787748475" flag="0"/>
			<psa10 value="0.00272211585065565" flag="0"/>
			<psa30 value="0.000246082136400495" flag="0"/>
		</comp>
		<comp name="--.HGZ" depth="1.0">
			<acc value="0.0179845552169107" flag="0"/>
			<vel value="0.00306307512313227" flag="0"/>
			<psa03 value="0.0189706956061472" flag="0"/>
			<psa10 value="0.000946297669976447" flag="0"/>
			<psa30 value="6.39813554641286e-05" flag="0"/>
		</comp>
	</station>
	<station code="SBGN" name="SBGN" netid="CH" source="Switzerland Seismological Network" insttype="" lat="46.628162" lon="9.748359">
		<comp name="--.HGE" depth="0.0">
			<acc value="0.0398139947934388" flag="0"/>
			<vel value="0.0108179023445868" flag="0"/>
			<psa03 value="0.0386572665181868" flag="0"/>
			<psa10 value="0.0023274895882825" flag="0"/>
			<psa30 value="0.000221026500694262" flag="0"/>
		</comp>
		<comp name="--.HGN" depth="0.0">
			<acc value="0.0378988661443875" flag="0"/>
			<vel value="0.0117252109114091" flag="0"/>
			<psa03 value="0.053511679115453" flag="0"/>
			<psa10 value="0.0035959311459105" flag="0"/>
			<psa30 value="0.000315879978724999" flag="0"/>
		</comp>
		<comp name="--.HGZ" depth="0.0">
			<acc value="0.0211262671820641" flag="0"/>
			<vel value="0.00636919103887038" flag="0"/>
			<psa03 value="0.0296193407812959" flag="0"/>
			<psa10 value="0.00164696062561858" flag="0"/>
			<psa30 value="0.000164203898289057" flag="0"/>
		</comp>
	</station>
	<station code="SBRS" name="SBRS" netid="CH" source="Switzerland Seismological Network" insttype="" lat="46.31693" lon="7.98139">
		<comp name="--.HGE" depth="0.0">
			<acc value="0.0565046027173507" flag="0"/>
			<vel value="0.0084606298210712" flag="0"/>
			<psa03 value="0.0529300304294155" flag="0"/>
			<psa10 value="0.00202950649220481" flag="0"/>
			<psa30 value="0.000167783274818519" flag="0"/>
		</comp>
		<comp name="--.HGN" depth="0.0">
			<acc value="0.0505937897986432" flag="0"/>
			<vel value="0.00785240063793592" flag="0"/>
			<psa03 value="0.0268453239709631" flag="0"/>
			<psa10 value="0.00190064893714418" flag="0"/>
			<psa30 value="0.000131094665391536" flag="0"/>
		</comp>
		<comp name="--.HGZ" depth="0.0">
			<acc value="0.0334168692704347" flag="0"/>
			<vel value="0.00410334929025035" flag="0"/>
			<psa03 value="0.0127067866795892" flag="0"/>
			<psa10 value="0.000821466913511469" flag="0"/>
			<psa30 value="8.50101925747163e-05" flag="0"/>
		</comp>
	</station>
	<station code="SBUA2" name="SBUA2" netid="CH" source="Switzerland Seismological Network" insttype="" lat="47.15909" lon="9.47102">
		<comp name="--.HGE" depth="1.0">
			<acc value="0.0388852113407125" flag="0"/>
			<vel value="0.00886953972875312" flag="0"/>
			<psa03 value="0.0601782679015755" flag="0"/>
			<psa10 value="0.00225903401215654" flag="0"/>
			<psa30 value="0.000249214090863774" flag="0"/>
		</comp>
		<comp name="--.HGN" depth="1.0">
			<acc value="0.0445911969835932" flag="0"/>
			<vel value="0.0101399503039303" flag="0"/>
			<psa03 value="0.0567778601985869" flag="0"/>
			<psa10 value="0.00221473922760445" flag="0"/>
			<psa30 value="0.000163756476222875" flag="0"/>
		</comp>
		<comp name="--.HGZ" depth="1.0">
			<acc value="0.0187982556910758" flag="0"/>
			<vel value="0.00377189961936081" flag="0"/>
			<psa03 value="0.0203129618046954" flag="0"/>
			<psa10 value="0.0010509944334632" flag="0"/>
			<psa30 value="9.44060559645534e-05" flag="0"/>
		</comp>
	</station>
	<station code="SBUB" name="SBUB" netid="CH" source="Switzerland Seismological Network" insttype="" lat="47.145928" lon="9.434239">
		<comp name="--.HGE" depth="1.0">
			<acc value="0.00676786884056133" flag="0"/>
			<vel value="0.00283063623941694" flag="0"/>
			<psa03 value="0.0136463730185729" flag="0"/>
			<psa10 value="0.00132481673796703" flag="0"/>
			<psa30 value="0.000157492567296317" flag="0"/>
		</comp>
		<comp name="--.HGN" depth="1.0">
			<acc value="0.0076631419368566" flag="0"/>
			<vel value="0.00339175136925601" flag="0"/>
			<psa03 value="0.0123935912332613" flag="0"/>
			<psa10 value="0.00122817357167156" flag="0"/>
			<psa30 value="7.82988615819756e-05" flag="0"/>
		</comp>
		<comp name="--.HGZ" depth="1.0">
			<acc value="0.00795799659858255" flag="0"/>
			<vel value="0.00190352385679443" flag="0"/>
			<psa03 value="0.0104249341420573" flag="0"/>
			<psa10 value="0.00122011997448027" flag="0"/>
			<psa30 value="8.59050367070817e-05" flag="0"/>
		</comp>
	</station>
	<station code="SBUS" name="SBUS" netid="CH" source="Switzerland Seismological Network" insttype="" lat="46.978918" lon="8.420467">
		<comp name="SF.HGE" depth="0.0">
			<acc value="0.0388341692266741" flag="0"/>
			<vel value="0.0114972290622807" flag="0"/>
			<psa03 value="0.0340488192365048" flag="0"/>
			<psa10 value="0.0123703252858198" flag="0"/>
			<psa30 value="0.000565094069588772" flag="0"/>
		</comp>
		<comp name="SF.HGN" depth="0.0">
			<acc value="0.0408431939177549" flag="0"/>
			<vel value="0.0119372270258835" flag="0"/>
			<psa03 value="0.042639322907213" flag="0"/>
			<psa10 value="0.00731669304828598" flag="0"/>
			<psa30 value="0.000475609656352229" flag="0"/>
		</comp>
		<comp name="SF.HGZ" depth="0.0">
			<acc value="0.0159288369689318" flag="0"/>
			<vel value="0.0066599924935134" flag="0"/>
			<psa03 value="0.038523039898332" flag="0"/>
			<psa10 value="0.00416773654649201" flag="0"/>
			<psa30 value="0.000233106896481196" flag="0"/>
		</comp>
	</station>
	<station code="SCAS2" name="SCAS2" netid="CH" source="Switzerland Seismological Network" insttype="" lat="46.155187" lon="8.614781">
		<comp name="--.HGE" depth="1.0">
			<acc value="0.676276153433471" flag="0"/>
			<vel value="0.0837740063112711" flag="0"/>
			<psa03 value="0.0583885796368446" flag="0"/>
			<psa10 value="0.00717978189603407" flag="0"/>
			<psa30 value="0.000602230101081938" flag="0"/>
		</comp>
		<comp name="--.HGN" depth="1.0">
			<acc value="0.493861453831068" flag="0"/>
			<vel value="0.0619146801715602" flag="0"/>
			<psa03 value="0.073421961060584" flag="0"/>
			<psa10 value="0.00554892846479806" flag="0"/>
			<psa30 value="0.000462186994366747" flag="0"/>
		</comp>
		<comp name="--.HGZ" depth="1.0">
			<acc value="0.223567108770125" flag="0"/>
			<vel value="0.0195734783929966" flag="0"/>
			<psa03 value="0.0318564511122095" flag="0"/>
			<psa10 value="0.00258923149699939" flag="0"/>
			<psa30 value="0.000245187292268129" flag="0"/>
		</comp>
	</station>
	<station code="SCHK" name="SCHK" netid="CH" source="Switzerland Seismological Network" insttype="" lat="46.788912" lon="9.536332">
		<comp name="--.HGE" depth="0.0">
			<acc value="0.0485560560807664" flag="0"/>
			<vel value="0.00765015038385808" flag="0"/>
			<psa03 value="0.0281875901695112" flag="0"/>
			<psa10 value="0.00145770109162329" flag="0"/>
			<psa30 value="0.000177626560274539" flag="0"/>
		</comp>
		<comp name="--.HGN" depth="0.0">
			<acc value="0.0460175001898885" flag="0"/>
			<vel value="0.00887946125649764" flag="0"/>
			<psa03 value="0.0354805698482895" flag="0"/>
			<psa10 value="0.00157447825089698" flag="0"/>
			<psa30 value="0.00012841013299444" flag="0"/>
		</comp>
		<comp name="--.HGZ" depth="0.0">
			<acc value="0.023935113591981" flag="0"/>
			<vel value="0.00356202898605156" flag="0"/>
			<psa03 value="0.014809670390648" flag="0"/>
			<psa10 value="0.000986565655932892" flag="0"/>
			<psa30 value="7.65091733172447e-05" flag="0"/>
		</comp>
	</station>
	<station code="SEFS" name="SEFS" netid="CH" source="Switzerland Seismological Network" insttype="" lat="46.81869" lon="8.6485">
		<comp name="--.HGE" depth="1.0">
			<acc value="0.0390850001749301" flag="0"/>
			<vel value="0.0104237329786701" flag="0"/>
			<psa03 value="0.0568673446118234" flag="0"/>
			<psa10 value="0.00601201030329718" flag="0"/>
			<psa30 value="0.000403574703696811" flag="0"/>
		</comp>
		<comp name="--.HGN" depth="1.0">
			<acc value="0.0345162549495452" flag="0"/>
			<vel value="0.0099229144809856" flag="0"/>
			<psa03 value="0.0512745687845394" flag="0"/>
			<psa10 value="0.00621737703167504" flag="0"/>
			<psa30 value="0.000430867449733957" flag="0"/>
		</comp>
		<comp name="--.HGZ" depth="1.0">
			<acc value="0.0215719617578493" flag="0"/>
			<vel value="0.00624211471916523" flag="0"/>
			<psa03 value="0.0319011933188278" flag="0"/>
			<psa10 value="0.00575026839458029" flag="0"/>
			<psa30 value="0.000277401681033285" flag="0"/>
		</comp>
	</station>
	<station code="SENGL" name="SENGL" netid="CH" source="Switzerland Seismological Network" insttype="" lat="46.82157" lon="8.41049">
		<comp name="--.HGE" depth="1.0">
			<acc value="0.0521878979228727" flag="0"/>
			<vel value="0.0131495095176782" flag="0"/>
			<psa03 value="0.0938244072785159" flag="0"/>
			<psa10 value="0.00454222881588695" flag="0"/>
			<psa30 value="0.000328407796578115" flag="0"/>
		</comp>
		<comp name="--.HGN" depth="1.0">
			<acc value="0.0643376833714329" flag="0"/>
			<vel value="0.0116488077511978" flag="0"/>
			<psa03 value="0.0659500125553326" flag="0"/>
			<psa10 value="0.00324157286949379" flag="0"/>
			<psa30 value="0.000351673744019616" flag="0"/>
		</comp>
		<comp name="--.HGZ" depth="1.0">
			<acc value="0.0239996232877541" flag="0"/>
			<vel value="0.00596891032948193" flag="0"/>
			<psa03 value="0.0443842689653256" flag="0"/>
			<psa10 value="0.00222681962339139" flag="0"/>
			<psa30 value="0.000174047183745077" flag="0"/>
		</comp>
	</station>
	<station code="SGWS" name="SGWS" netid="CH" source="Switzerland Seismological Network" insttype="" lat="46.6242" lon="8.0257">
		<comp name="--.HGE" depth="1.0">
			<acc value="0.0153135473018021" flag="0"/>
			<vel value="0.00664552444907192" flag="0"/>
			<psa03 value="0.0238028539209206" flag="0"/>
			<psa10 value="0.00267782106610356" flag="0"/>
			<psa30 value="0.00019104922226002" flag="0"/>
		</comp>
		<comp name="--.HGN" depth="1.0">
			<acc value="0.0150359176858089" flag="0"/>
			<vel value="0.00353729034115224" flag="0"/>
			<psa03 value="0.0206261572510233" flag="0"/>
			<psa10 value="0.00201742609641787" flag="0"/>
			<psa30 value="0.00011364520481041" flag="0"/>
		</comp>
		<comp name="--.HGZ" depth="1.0">
			<acc value="0.0150598687505153" flag="0"/>
			<vel value="0.00252431979380553" flag="0"/>
			<psa03 value="0.0146307015641749" flag="0"/>
			<psa10 value="0.000934217274189514" flag="0"/>
			<psa30 value="7.02452643906866e-05" flag="0"/>
		</comp>
	</station>
	<station code="SINS" name="SINS" netid="CH" source="Switzerland Seismological Network" insttype="" lat="46.68692" lon="7.86414">
		<comp name="--.HGE" depth="1.0">
			<acc value="0.0194304886569453" flag="0"/>
			<vel value="0.00723433119369833" flag="0"/>
			<psa03 value="0.0318564511122095" flag="0"/>
			<psa10 value="0.00602409069908411" flag="0"/>
			<psa30 value="0.000486795208006797" flag="0"/>
		</comp>
		<comp name="--.HGN" depth="1.0">
			<acc value="0.0198910450191229" flag="0"/>
			<vel value="0.0111973958119868" flag="0"/>
			<psa03 value="0.0573595088846244" flag="0"/>
			<psa10 value="0.00748984538789869" flag="0"/>
			<psa30 value="0.000363306717740367" flag="0"/>
		</comp>
		<comp name="--.HGZ" depth="1.0">
			<acc value="0.0090423651615792" flag="0"/>
			<vel value="0.00344904520136998" flag="0"/>
			<psa03 value="0.0206261572510233" flag="0"/>
			<psa10 value="0.00707508513254731" flag="0"/>
			<psa30 value="0.000195523442921848" flag="0"/>
		</comp>
	</station>
