<?xml version="1.0" encoding="UTF-8" standalone="yes"?>
<!DOCTYPE earthquake SYSTEM "stationlist.dtd">
<stationlist created="" xmlns="ch.ethz.sed.shakemap.usgs.xml">
  <station code="MUGIO" name="MUGIO" netid="CH" insttype="STS2_gen2" lat="45.9218" lon="9.04171">
    <comp name="--.HHE">
      <acc value="0.2232410440" flag="0"/>
      <vel value="0.0443224384" flag="0"/>
      <psa03 value="0.0810704487" flag="0"/>
      <psa10 value="0.0087376591" flag="0"/>
      <psa30 value="0.0007552655" flag="0"/>
    </comp>
    <comp name="--.HHN">
      <acc value="0.1502752614" flag="0"/>
      <vel value="0.0307308214" flag="0"/>
      <psa03 value="0.0732838969" flag="0"/>
      <psa10 value="0.0055991452" flag="0"/>
      <psa30 value="0.0005750354" flag="0"/>
    </comp>
    <comp name="--.HHZ">
      <acc value="0.1496416414" flag="0"/>
      <vel value="0.0402619446" flag="0"/>
      <psa03 value="0.1084294251" flag="0"/>
      <psa10 value="0.0050335298" flag="0"/>
      <psa30 value="0.0006072471" flag="0"/>
    </comp>
  </station>
  <station code="SCAS2" name="SCAS2" netid="CH" insttype="EpiSensor ES-T" lat="46.1552" lon="8.61478">
    <comp name="--.HGZ">
      <acc value="0.2411314779" flag="0"/>
      <vel value="0.0195600330" flag="0"/>
      <psa03 value="0.0321267345" flag="0"/>
      <psa10 value="0.0026225080" flag="0"/>
      <psa30 value="0.0002311336" flag="0"/>
    </comp>
    <comp name="--.HGN">
      <acc value="0.5051410787" flag="0"/>
      <vel value="0.0616608437" flag="0"/>
      <psa03 value="0.0733931745" flag="0"/>
      <psa10 value="0.0056460282" flag="0"/>
      <psa30 value="0.0004617541" flag="0"/>
    </comp>
    <comp name="--.HGE">
      <acc value="0.6702684147" flag="0"/>
      <vel value="0.0823221364" flag="0"/>
      <psa03 value="0.0585060145" flag="0"/>
      <psa10 value="0.0071938031" flag="0"/>
      <psa30 value="0.0006046700" flag="0"/>
    </comp>
  </station>
  <station code="SLOP" name="SLOP" netid="CH" insttype="EpiSensor ES-T" lat="46.1638" lon="8.79055">
    <comp name="--.HGN">
      <acc value="0.1908215065" flag="0"/>
      <vel value="0.0267102980" flag="0"/>
      <psa03 value="0.1450359791" flag="0"/>
      <psa10 value="0.0070691360" flag="0"/>
      <psa30 value="0.0005189288" flag="0"/>
    </comp>
    <comp name="--.HGE">
      <acc value="0.1437247340" flag="0"/>
      <vel value="0.0213797265" flag="0"/>
      <psa03 value="0.1166509786" flag="0"/>
      <psa10 value="0.0089195963" flag="0"/>
      <psa30 value="0.0006270827" flag="0"/>
    </comp>
    <comp name="--.HGZ">
      <acc value="0.1361068304" flag="0"/>
      <vel value="0.0179372426" flag="0"/>
      <psa03 value="0.0489446308" flag="0"/>
      <psa10 value="0.0058430250" flag="0"/>
      <psa30 value="0.0002982975" flag="0"/>
    </comp>
  </station>
  <station code="VDR" name="VDR" netid="CH" insttype="STS2.5" lat="46.2061" lon="9.16648">
    <comp name="--.HHN">
      <acc value="0.0518478354" flag="0"/>
      <vel value="0.0123274867" flag="0"/>
      <psa03 value="0.0329871978" flag="0"/>
      <psa10 value="0.0043751764" flag="0"/>
      <psa30 value="0.0002751806" flag="0"/>
    </comp>
    <comp name="--.HHZ">
      <acc value="0.0522093091" flag="0"/>
      <vel value="0.0115611481" flag="0"/>
      <psa03 value="0.0363817068" flag="0"/>
      <psa10 value="0.0081951271" flag="0"/>
      <psa30 value="0.0002795337" flag="0"/>
    </comp>
    <comp name="--.HHE">
      <acc value="0.0707098895" flag="0"/>
      <vel value="0.0144639683" flag="0"/>
      <psa03 value="0.0373445897" flag="0"/>
      <psa10 value="0.0057020606" flag="0"/>
      <psa30 value="0.0002986085" flag="0"/>
    </comp>
  </station>
  <station code="GORR" name="GORR" netid="GU" insttype="" lat="44.6071" lon="9.2926">
    <comp name="--.HHZ">
      <acc value="0.0210462983" flag="0"/>
      <vel value="0.0071906495" flag="0"/>
      <psa03 value="0.0409069829" flag="0"/>
      <psa10 value="0.0042483105" flag="0"/>
      <psa30 value="0.0002675751" flag="0"/>
    </comp>
    <comp name="--.HHE">
      <acc value="0.0306199234" flag="0"/>
      <vel value="0.0205767255" flag="0"/>
      <psa03 value="0.1106489595" flag="0"/>
      <psa10 value="0.0079092923" flag="0"/>
      <psa30 value="0.0006099528" flag="0"/>
    </comp>
    <comp name="--.HHN">
      <acc value="0.0303330707" flag="0"/>
      <vel value="0.0141089737" flag="0"/>
      <psa03 value="0.0853503415" flag="0"/>
      <psa10 value="0.0083591311" flag="0"/>
      <psa30 value="0.0005990110" flag="0"/>
    </comp>
  </station>
  <station code="ROTM" name="ROTM" netid="GU" insttype="" lat="44.8493" lon="8.3527">
    <comp name="--.HHE">
      <acc value="0.0356871433" flag="0"/>
      <vel value="0.0080252626" flag="0"/>
      <psa03 value="0.0438978092" flag="0"/>
      <psa10 value="0.0047910982" flag="0"/>
      <psa30 value="0.0002751059" flag="0"/>
    </comp>
    <comp name="--.HHN">
      <acc value="0.0227723050" flag="0"/>
      <vel value="0.0066233463" flag="0"/>
      <psa03 value="0.0433388738" flag="0"/>
      <psa10 value="0.0034617313" flag="0"/>
      <psa30 value="0.0002568568" flag="0"/>
    </comp>
    <comp name="--.HHZ">
      <acc value="0.0212259541" flag="0"/>
      <vel value="0.0067744274" flag="0"/>
      <psa03 value="0.0538199551" flag="0"/>
      <psa10 value="0.0032184920" flag="0"/>
      <psa30 value="0.0002034022" flag="0"/>
    </comp>
  </station>
  <station code="BOB" name="BOB" netid="IV" insttype="" lat="44.7679" lon="9.44782">
    <comp name="--.HHE">
      <acc value="0.0434335252" flag="0"/>
      <vel value="0.0130018833" flag="0"/>
      <psa03 value="0.0922428616" flag="0"/>
      <psa10 value="0.0058988438" flag="0"/>
      <psa30 value="0.0004699997" flag="0"/>
    </comp>
    <comp name="--.HHN">
      <acc value="0.0388075327" flag="0"/>
      <vel value="0.0151492426" flag="0"/>
      <psa03 value="0.0474427499" flag="0"/>
      <psa10 value="0.0091874094" flag="0"/>
      <psa30 value="0.0004491746" flag="0"/>
    </comp>
    <comp name="--.HHZ">
      <acc value="0.0246390720" flag="0"/>
      <vel value="0.0060113102" flag="0"/>
      <psa03 value="0.0408360585" flag="0"/>
      <psa10 value="0.0026602968" flag="0"/>
      <psa30 value="0.0001451099" flag="0"/>
    </comp>
  </station>
  <station code="CAPR" name="CAPR" netid="IV" insttype="" lat="45.6372" lon="9.9345">
    <comp name="--.HNE">
      <acc value="0.0613913327" flag="0"/>
      <vel value="0.0125756911" flag="0"/>
      <psa03 value="0.0328230037" flag="0"/>
      <psa10 value="0.0032684016" flag="0"/>
      <psa30 value="0.0002041188" flag="0"/>
    </comp>
    <comp name="--.HNN">
      <acc value="0.0555636740" flag="0"/>
      <vel value="0.0126221074" flag="0"/>
      <psa03 value="0.0286857543" flag="0"/>
      <psa10 value="0.0050057896" flag="0"/>
      <psa30 value="0.0003172587" flag="0"/>
    </comp>
    <comp name="--.HNZ">
      <acc value="0.0788351120" flag="0"/>
      <vel value="0.0087717704" flag="0"/>
      <psa03 value="0.0203931600" flag="0"/>
      <psa10 value="0.0021649554" flag="0"/>
      <psa30 value="0.0001805094" flag="0"/>
    </comp>
  </station>
  <station code="CNCS" name="CNCS" netid="IV" insttype="" lat="45.606" lon="10.217">
    <comp name="--.HNE">
      <acc value="0.0219333844" flag="0"/>
      <vel value="0.0054556769" flag="0"/>
      <psa03 value="0.0304496211" flag="0"/>
      <psa10 value="0.0018159003" flag="0"/>
      <psa30 value="0.0003001366" flag="0"/>
    </comp>
    <comp name="--.HNN">
      <acc value="0.0534427477" flag="0"/>
      <vel value="0.0183388513" flag="0"/>
      <psa03 value="0.0763386466" flag="0"/>
      <psa10 value="0.0047314329" flag="0"/>
      <psa30 value="0.0005106684" flag="0"/>
    </comp>
    <comp name="--.HNZ">
      <acc value="0.0623060411" flag="0"/>
      <vel value="0.0115910301" flag="0"/>
      <psa03 value="0.0616693213" flag="0"/>
      <psa10 value="0.0028007019" flag="0"/>
      <psa30 value="0.0004343063" flag="0"/>
    </comp>
  </station>
  <station code="CTL8" name="CTL8" netid="IV" insttype="" lat="45.2763" lon="9.7622">
    <comp name="--.HNE">
      <acc value="0.1745086843" flag="0"/>
      <vel value="0.6675171423" flag="0"/>
      <psa03 value="0.4391476945" flag="0"/>
      <psa10 value="0.3380401436" flag="0"/>
      <psa30 value="0.2084367625" flag="0"/>
    </comp>
    <comp name="--.HNN">
      <acc value="0.0763707711" flag="0"/>
      <vel value="0.0251044955" flag="0"/>
      <psa03 value="0.0764437229" flag="0"/>
      <psa10 value="0.0123848076" flag="0"/>
      <psa30 value="0.0009153343" flag="0"/>
    </comp>
    <comp name="--.HNZ">
      <acc value="0.0307736626" flag="0"/>
      <vel value="0.0055503489" flag="0"/>
      <psa03 value="0.0161098564" flag="0"/>
      <psa10 value="0.0017467561" flag="0"/>
      <psa30 value="0.0001465721" flag="0"/>
    </comp>
  </station>
  <station code="MDI" name="MDI" netid="IV" insttype="" lat="45.7697" lon="9.716">
    <comp name="--.HHE">
      <acc value="0.3534865870" flag="0"/>
      <vel value="0.0573184265" flag="0"/>
      <psa03 value="0.1614968147" flag="0"/>
      <psa10 value="0.0069953212" flag="0"/>
      <psa30 value="0.0004817557" flag="0"/>
    </comp>
    <comp name="--.HHN">
      <acc value="0.1943295627" flag="0"/>
      <vel value="0.0282990911" flag="0"/>
      <psa03 value="0.0772009770" flag="0"/>
      <psa10 value="0.0052350825" flag="0"/>
      <psa30 value="0.0004434247" flag="0"/>
    </comp>
    <comp name="--.HHZ">
      <acc value="0.1073605870" flag="0"/>
      <vel value="0.0223944254" flag="0"/>
      <psa03 value="0.0418077393" flag="0"/>
      <psa10 value="0.0026187758" flag="0"/>
      <psa30 value="0.0002268781" flag="0"/>
    </comp>
  </station>
  <station code="MERA" name="MERA" netid="IV" insttype="" lat="45.7054" lon="9.4291">
    <comp name="--.HNE">
      <acc value="0.4646114751" flag="0"/>
      <vel value="0.0742468805" flag="0"/>
      <psa03 value="0.2583536092" flag="0"/>
      <psa10 value="0.0180163154" flag="0"/>
      <psa30 value="0.0016997517" flag="0"/>
    </comp>
    <comp name="--.HNN">
      <acc value="0.3256075166" flag="0"/>
      <vel value="0.0544718767" flag="0"/>
      <psa03 value="0.2210275656" flag="0"/>
      <psa10 value="0.0081562485" flag="0"/>
      <psa30 value="0.0007021850" flag="0"/>
    </comp>
    <comp name="--.HNZ">
      <acc value="0.2188667965" flag="0"/>
      <vel value="0.0270177203" flag="0"/>
      <psa03 value="0.0861044092" flag="0"/>
      <psa10 value="0.0040151392" flag="0"/>
      <psa30 value="0.0003291481" flag="0"/>
    </comp>
  </station>
  <station code="MILN" name="MILN" netid="IV" insttype="" lat="45.4803" lon="9.2321">
    <comp name="--.HHN">
      <acc value="0.4518936480" flag="0"/>
      <vel value="0.0688770828" flag="0"/>
      <psa03 value="0.2099770283" flag="0"/>
      <psa10 value="0.0145675943" flag="0"/>
      <psa30 value="0.0013888307" flag="0"/>
    </comp>
    <comp name="--.HHE">
      <acc value="1.0070354390" flag="0"/>
      <vel value="0.2496314320" flag="0"/>
      <psa03 value="0.6243703192" flag="0"/>
      <psa10 value="0.0306652008" flag="0"/>
      <psa30 value="0.0040701117" flag="0"/>
    </comp>
    <comp name="--.HHZ">
      <acc value="0.1020723353" flag="0"/>
      <vel value="0.0130581228" flag="0"/>
      <psa03 value="0.0272474935" flag="0"/>
      <psa10 value="0.0010285186" flag="0"/>
      <psa30 value="0.0001095476" flag="0"/>
    </comp>
  </station>
  <station code="ORZI" name="ORZI" netid="IV" insttype="" lat="45.4056" lon="9.9307">
    <comp name="--.HHE">
      <acc value="0.0673345233" flag="0"/>
      <vel value="0.0262747316" flag="0"/>
      <psa03 value="0.1020123630" flag="0"/>
      <psa10 value="0.0129228452" flag="0"/>
      <psa30 value="0.0012536475" flag="0"/>
    </comp>
    <comp name="--.HHN">
      <acc value="0.0598412006" flag="0"/>
      <vel value="0.0254958236" flag="0"/>
      <psa03 value="0.1221930143" flag="0"/>
      <psa10 value="0.0113569363" flag="0"/>
      <psa30 value="0.0012001124" flag="0"/>
    </comp>
    <comp name="--.HHZ">
      <acc value="0.0510424410" flag="0"/>
      <vel value="0.0118356272" flag="0"/>
      <psa03 value="0.0542647002" flag="0"/>
      <psa10 value="0.0043004208" flag="0"/>
      <psa30 value="0.0003006708" flag="0"/>
    </comp>
  </station>
  <station code="SARZ" name="SARZ" netid="IV" insttype="" lat="44.8673" lon="8.9136">
    <comp name="--.HNE">
      <acc value="0.0090101716" flag="0"/>
      <vel value="0.0041459053" flag="0"/>
      <psa03 value="0.0273077201" flag="0"/>
      <psa10 value="0.0034540736" flag="0"/>
      <psa30 value="0.0002266032" flag="0"/>
    </comp>
    <comp name="--.HNN">
      <acc value="0.0162354415" flag="0"/>
      <vel value="0.0051466275" flag="0"/>
      <psa03 value="0.0481715413" flag="0"/>
      <psa10 value="0.0037864530" flag="0"/>
      <psa30 value="0.0002272770" flag="0"/>
    </comp>
    <comp name="--.HNZ">
      <acc value="0.0084595607" flag="0"/>
      <vel value="0.0032197042" flag="0"/>
      <psa03 value="0.0206344654" flag="0"/>
      <psa10 value="0.0018360360" flag="0"/>
      <psa30 value="0.0001438472" flag="0"/>
    </comp>
  </station>
  <station code="VARE" name="VARE" netid="IV" insttype="" lat="45.8677" lon="8.77">
    <comp name="--.HHE">
      <acc value="0.0807429654" flag="0"/>
      <vel value="0.0187177467" flag="0"/>
      <psa03 value="0.0873464173" flag="0"/>
      <psa10 value="0.0057347987" flag="0"/>
      <psa30 value="0.0006036537" flag="0"/>
    </comp>
    <comp name="--.HHN">
      <acc value="0.1699920483" flag="0"/>
      <vel value="0.0247171289" flag="0"/>
      <psa03 value="0.0627015809" flag="0"/>
      <psa10 value="0.0035164789" flag="0"/>
      <psa30 value="0.0002820767" flag="0"/>
    </comp>
    <comp name="--.HHZ">
      <acc value="0.1213482733" flag="0"/>
      <vel value="0.0204941085" flag="0"/>
      <psa03 value="0.0353760888" flag="0"/>
      <psa10 value="0.0025523659" flag="0"/>
      <psa30 value="0.0002073787" flag="0"/>
    </comp>
  </station>
  <station code="ZONE" name="ZONE" netid="IV" insttype="" lat="45.7636" lon="10.1171">
    <comp name="--.HHE">
      <acc value="0.0462153045" flag="0"/>
      <vel value="0.0084702131" flag="0"/>
      <psa03 value="0.0223627412" flag="0"/>
      <psa10 value="0.0011522521" flag="0"/>
      <psa30 value="0.0001309697" flag="0"/>
    </comp>
    <comp name="--.HHN">
      <acc value="0.0338269594" flag="0"/>
      <vel value="0.0057680896" flag="0"/>
      <psa03 value="0.0318801250" flag="0"/>
      <psa10 value="0.0016795338" flag="0"/>
      <psa30 value="0.0001332941" flag="0"/>
    </comp>
    <comp name="--.HHZ">
      <acc value="0.0440280415" flag="0"/>
      <vel value="0.0040527793" flag="0"/>
      <psa03 value="0.0106458698" flag="0"/>
      <psa10 value="0.0008519179" flag="0"/>
      <psa30 value="0.0000655831" flag="0"/>
    </comp>
  </station>
</stationlist>
