<?xml version="1.0" encoding="UTF-8" standalone="yes"?>
<!DOCTYPE earthquake SYSTEM "stationlist.dtd">
<stationlist created="" xmlns="ch.ethz.sed.shakemap.usgs.xml">
  <station code="KARP" name="KARP" netid="GE" insttype="STS-2/N" lat="35.5471" lon="27.1611">
    <comp name="--.HHE">
      <acc value="0.0191261244" flag="0"/>
      <vel value="0.0120773045" flag="0"/>
      <psa03 value="0.0259722021" flag="0"/>
      <psa10 value="0.0108659265" flag="0"/>
      <psa30 value="0.0009844875" flag="0"/>
    </comp>
    <comp name="--.HHZ">
      <acc value="0.0137633357" flag="0"/>
      <vel value="0.0055573446" flag="0"/>
      <psa03 value="0.0284961935" flag="0"/>
      <psa10 value="0.0059372421" flag="0"/>
      <psa30 value="0.0009052646" flag="0"/>
    </comp>
    <comp name="--.HHN">
      <acc value="0.0244617732" flag="0"/>
      <vel value="0.0105398298" flag="0"/>
      <psa03 value="0.0268207065" flag="0"/>
      <psa10 value="0.0236574100" flag="0"/>
      <psa30 value="0.0007617862" flag="0"/>
    </comp>
  </station>
  <station code="ARG" name="ARG" netid="HL" insttype="LE3D20_DR24" lat="36.2136" lon="28.1212">
    <comp name="--.HHZ">
      <acc value="0.0134840685" flag="0"/>
      <vel value="0.0098700896" flag="0"/>
      <psa03 value="0.0243793418" flag="0"/>
      <psa10 value="0.0113033763" flag="0"/>
      <psa30 value="0.0016239433" flag="0"/>
    </comp>
    <comp name="--.HHE">
      <acc value="0.0269731570" flag="0"/>
      <vel value="0.0214822825" flag="0"/>
      <psa03 value="0.0598007051" flag="0"/>
      <psa10 value="0.0210742939" flag="0"/>
      <psa30 value="0.0030876312" flag="0"/>
    </comp>
    <comp name="--.HHN">
      <acc value="0.0002682496" flag="0"/>
      <vel value="0.0000475210" flag="0"/>
      <psa03 value="0.0001890296" flag="0"/>
      <psa10 value="0.0000732852" flag="0"/>
      <psa30 value="0.0000177514" flag="0"/>
    </comp>
  </station>
  <station code="KARP" name="KARP" netid="HL" insttype="120" lat="35.5471" lon="27.1611">
    <comp name="--.HHZ">
      <acc value="0.0131090065" flag="0"/>
      <vel value="0.0054520779" flag="0"/>
      <psa03 value="0.0277730369" flag="0"/>
      <psa10 value="0.0059080327" flag="0"/>
      <psa30 value="0.0009038599" flag="0"/>
    </comp>
    <comp name="--.HHN">
      <acc value="0.0217923227" flag="0"/>
      <vel value="0.0104362787" flag="0"/>
      <psa03 value="0.0262184389" flag="0"/>
      <psa10 value="0.0235251280" flag="0"/>
      <psa30 value="0.0007577831" flag="0"/>
    </comp>
    <comp name="--.HHE">
      <acc value="0.0182606626" flag="0"/>
      <vel value="0.0118598164" flag="0"/>
      <psa03 value="0.0251086354" flag="0"/>
      <psa10 value="0.0108173246" flag="0"/>
      <psa30 value="0.0009810097" flag="0"/>
    </comp>
  </station>
  <station code="NISR" name="NISR" netid="HL" insttype="65535" lat="36.6106" lon="27.131">
    <comp name="--.HHN">
      <acc value="6.6603136630" flag="0"/>
      <vel value="1.8282788413" flag="0"/>
      <psa03 value="5.4697768250" flag="0"/>
      <psa10 value="0.3303222420" flag="0"/>
      <psa30 value="0.1944648574" flag="0"/>
    </comp>
    <comp name="--.HHZ">
      <acc value="2.3085576290" flag="0"/>
      <vel value="0.4699320932" flag="0"/>
      <psa03 value="1.7711749142" flag="0"/>
      <psa10 value="0.2245204354" flag="0"/>
      <psa30 value="0.0133986521" flag="0"/>
    </comp>
    <comp name="--.HHE">
      <acc value="5.8745867566" flag="0"/>
      <vel value="1.9560107186" flag="0"/>
      <psa03 value="9.0477325230" flag="0"/>
      <psa10 value="0.4107772489" flag="0"/>
      <psa30 value="0.0359611404" flag="0"/>
    </comp>
  </station>
</stationlist>
