<stationlist created="1778138344">
	<station code="KRL1" name="KRL1" netid="HI" source="ITSAK Strong Motion Network" insttype="" lat="37.7951" lon="26.7065">
		<comp name="--.HNE" depth="0.0">
			<acc value="0.0124632046206917" flag="0"/>
			<vel value="0.0100519757395555" flag="0"/>
			<psa03 value="0.0315423317121564" flag="0"/>
			<psa10 value="0.019530131275351" flag="0"/>
			<psa30 value="0.00204225883129184" flag="0"/>
		</comp>
		<comp name="--.HNN" depth="0.0">
			<acc value="0.00943129370077025" flag="0"/>
			<vel value="0.0118437937459136" flag="0"/>
			<psa03 value="0.0210271208081324" flag="0"/>
			<psa10 value="0.0144251252812652" flag="0"/>
			<psa30 value="0.00171106241198901" flag="0"/>
		</comp>
		<comp name="--.HNZ" depth="0.0">
			<acc value="0.00380215656516953" flag="0"/>
			<vel value="0.00491021576591404" flag="0"/>
			<psa03 value="0.0150816618465178" flag="0"/>
			<psa10 value="0.00481813730294571" flag="0"/>
			<psa30 value="0.000861959340161385" flag="0"/>
		</comp>
	</station>
	<station code="KSS1" name="KSS1" netid="HI" source="ITSAK Strong Motion Network" insttype="" lat="35.4189" lon="26.9207">
		<comp name="--.HNE" depth="0.0">
			<acc value="0.00643724888197971" flag="0"/>
			<vel value="0.00272822829393281" flag="0"/>
			<psa03 value="0.0204966663973207" flag="0"/>
			<psa10 value="0.00238141666341679" flag="0"/>
			<psa30 value="0.000730841904270758" flag="0"/>
		</comp>
		<comp name="--.HNN" depth="0.0">
			<acc value="0.00677493269697872" flag="0"/>
			<vel value="0.00284726790130602" flag="0"/>
			<psa03 value="0.020708838004726" flag="0"/>
			<psa10 value="0.00308317768289017" flag="0"/>
			<psa30 value="0.000291596556423999" flag="0"/>
		</comp>
		<comp name="--.HNZ" depth="0.0">
			<acc value="0.0037378302543509" flag="0"/>
			<vel value="0.00166011033066045" flag="0"/>
			<psa03 value="0.00495177627307497" flag="0"/>
			<psa10 value="0.00289098823253085" flag="0"/>
			<psa30 value="0.000240911349819727" flag="0"/>
		</comp>
	</station>
	<station code="RDI1" name="RDI1" netid="HI" source="ITSAK Strong Motion Network" insttype="" lat="36.4514" lon="28.224">
		<comp name="--.HNE" depth="0.0">
			<acc value="0.0161389021089853" flag="0"/>
			<vel value="0.0201101765910527" flag="0"/>
			<psa03 value="0.0436693798612455" flag="0"/>
			<psa10 value="0.0358005578612562" flag="0"/>
			<psa30 value="0.00683683040645027" flag="0"/>
		</comp>
		<comp name="--.HNN" depth="0.0">
			<acc value="0.0131352844867831" flag="0"/>
			<vel value="0.0176856000835874" flag="0"/>
			<psa03 value="0.0327034815493194" flag="0"/>
			<psa10 value="0.0268225231105089" flag="0"/>
			<psa30 value="0.00461474237069172" flag="0"/>
		</comp>
		<comp name="--.HNZ" depth="0.0">
			<acc value="0.00992614271786353" flag="0"/>
			<vel value="0.0102363106123249" flag="0"/>
			<psa03 value="0.028389669738796" flag="0"/>
			<psa10 value="0.0223751747454964" flag="0"/>
			<psa30 value="0.00222925476051853" flag="0"/>
		</comp>
	</station>
	<station code="AGNA" name="AGNA" netid="HL" source="National Observatory of Athens Seismic Network" insttype="" lat="35.1895" lon="25.71853">
		<comp name="00.HNE" depth="0.0">
			<acc value="0.0030930167938718" flag="0"/>
			<vel value="0.00158833260893892" flag="0"/>
			<psa03 value="0.00551383075902293" flag="0"/>
			<psa10 value="0.00197540375142872" flag="0"/>
			<psa30 value="0.000346006020159166" flag="0"/>
		</comp>
		<comp name="00.HNN" depth="0.0">
			<acc value="0.00436139949619667" flag="0"/>
			<vel value="0.00263369637727522" flag="0"/>
			<psa03 value="0.0061509458814295" flag="0"/>
			<psa10 value="0.00324873333763961" flag="0"/>
			<psa30 value="0.000688461648873975" flag="0"/>
		</comp>
		<comp name="00.HNZ" depth="0.0">
			<acc value="0.0108015954662784" flag="0"/>
			<vel value="0.00141760161846412" flag="0"/>
			<psa03 value="0.00462861912330083" flag="0"/>
			<psa10 value="0.00111294423490513" flag="0"/>
			<psa30 value="0.000219831672144233" flag="0"/>
		</comp>
	</station>
	<station code="KARP" name="KARP" netid="HL" source="National Observatory of Athens Seismic Network" insttype="" lat="35.5471" lon="27.16106">
		<comp name="--.HNE" depth="0.0">
			<acc value="0.0160604479289417" flag="0"/>
			<vel value="0.0100582171478382" flag="0"/>
			<psa03 value="0.0212479570520336" flag="0"/>
			<psa10 value="0.0106057185142872" flag="0"/>
			<psa30 value="0.000905880010104097" flag="0"/>
		</comp>
		<comp name="--.HNN" depth="0.0">
			<acc value="0.0190054228130943" flag="0"/>
			<vel value="0.00891420275907144" flag="0"/>
			<psa03 value="0.0243215278485043" flag="0"/>
			<psa10 value="0.0192059766766923" flag="0"/>
			<psa30 value="0.00071620088229471" flag="0"/>
		</comp>
		<comp name="--.HNZ" depth="0.0">
			<acc value="0.0111977577034651" flag="0"/>
			<vel value="0.0044218732208325" flag="0"/>
			<psa03 value="0.0230466048494574" flag="0"/>
			<psa10 value="0.00465868892779063" flag="0"/>
			<psa30 value="0.000843311125638055" flag="0"/>
		</comp>
	</station>
	<station code="KLNA" name="KLNA" netid="HL" source="National Observatory of Athens Seismic Network" insttype="" lat="36.95708" lon="26.97274">
		<comp name="00.HNE" depth="0.0">
			<acc value="0.0540591887350852" flag="0"/>
			<vel value="0.0213274799313318" flag="0"/>
			<psa03 value="0.117800397448409" flag="0"/>
			<psa10 value="0.0060196433030664" flag="0"/>
			<psa30 value="0.00135979007941872" flag="0"/>
		</comp>
		<comp name="00.HNN" depth="0.0">
			<acc value="0.053726449273773" flag="0"/>
			<vel value="0.0187437332102497" flag="0"/>
			<psa03 value="0.110412918480751" flag="0"/>
			<psa10 value="0.0101339766387015" flag="0"/>
			<psa30 value="0.000686010496913788" flag="0"/>
		</comp>
		<comp name="00.HNZ" depth="0.0">
			<acc value="0.0539598279323128" flag="0"/>
			<vel value="0.013660262651305" flag="0"/>
			<psa03 value="0.0657459126358692" flag="0"/>
			<psa10 value="0.00505623776343104" flag="0"/>
			<psa30 value="0.00102420555692677" flag="0"/>
		</comp>
	</station>
	<station code="NISR" name="NISR" netid="HL" source="National Observatory of Athens Seismic Network" insttype="" lat="36.6106" lon="27.131">
		<comp name="--.HNE" depth="0.0">
			<acc value="4.89007778654397" flag="0"/>
			<vel value="1.70954970712643" flag="0"/>
			<psa03 value="8.535423429917" flag="0"/>
			<psa10 value="0.374196068652934" flag="0"/>
			<psa30 value="0.0415016459470204" flag="0"/>
		</comp>
		<comp name="--.HNN" depth="0.0">
			<acc value="7.01009127770487" flag="0"/>
			<vel value="1.74213501590863" flag="0"/>
			<psa03 value="5.6475907918453" flag="0"/>
			<psa10 value="0.232845499871711" flag="0"/>
			<psa30 value="0.0385882629497154" flag="0"/>
		</comp>
		<comp name="--.HNZ" depth="0.0">
			<acc value="1.90231243008967" flag="0"/>
			<vel value="0.411880941831941" flag="0"/>
			<psa03 value="1.64116855269671" flag="0"/>
			<psa10 value="0.229002170270057" flag="0"/>
			<psa30 value="0.0131466559014332" flag="0"/>
		</comp>
	</station>
	<station code="RODB" name="RODB" netid="HL" source="National Observatory of Athens Seismic Network" insttype="" lat="36.4471" lon="28.22116">
		<comp name="00.HNE" depth="0.0">
			<acc value="0.0132410461385503" flag="0"/>
			<vel value="0.0117904538625953" flag="0"/>
			<psa03 value="0.0318182354061257" flag="0"/>
			<psa10 value="0.0225052202353773" flag="0"/>
			<psa30 value="0.00438653350298174" flag="0"/>
		</comp>
		<comp name="00.HNN" depth="0.0">
			<acc value="0.0218295768527651" flag="0"/>
			<vel value="0.015730332697711" flag="0"/>
			<psa03 value="0.0372128792331316" flag="0"/>
			<psa10 value="0.0205551754294878" flag="0"/>
			<psa30 value="0.00595981355839532" flag="0"/>
		</comp>
		<comp name="00.HNZ" depth="0.0">
			<acc value="0.0107153147932974" flag="0"/>
			<vel value="0.00746884914864418" flag="0"/>
			<psa03 value="0.0253026944084949" flag="0"/>
			<psa10 value="0.0130740804686667" flag="0"/>
			<psa30 value="0.00226681933232083" flag="0"/>
		</comp>
	</station>
	<station code="SMG" name="SMG" netid="HL" source="National Observatory of Athens Seismic Network" insttype="" lat="37.70425" lon="26.83772">
		<comp name="00.HNE" depth="0.0">
			<acc value="0.00863927718989542" flag="0"/>
			<vel value="0.00573479309729893" flag="0"/>
			<psa03 value="0.036687612665965" flag="0"/>
			<psa10 value="0.00727812401500549" flag="0"/>
			<psa30 value="0.00177757463059398" flag="0"/>
		</comp>
		<comp name="00.HNN" depth="0.0">
			<acc value="0.0104500681421548" flag="0"/>
			<vel value="0.00443815915673375" flag="0"/>
			<psa03 value="0.0335603351866614" flag="0"/>
			<psa10 value="0.0047376100934271" flag="0"/>
			<psa30 value="0.000772240011275441" flag="0"/>
		</comp>
		<comp name="00.HNZ" depth="0.0">
			<acc value="0.004678556050054" flag="0"/>
			<vel value="0.00259524458495042" flag="0"/>
			<psa03 value="0.0128983140854352" flag="0"/>
			<psa10 value="0.00539066476134702" flag="0"/>
			<psa30 value="0.000590152896814767" flag="0"/>
		</comp>
	</station>
	<station code="THRA" name="THRA" netid="HL" source="National Observatory of Athens Seismic Network" insttype="" lat="36.41502" lon="25.43244">
		<comp name="00.HNE" depth="0.0">
			<acc value="0.014295809034259" flag="0"/>
			<vel value="0.0109300237013005" flag="0"/>
			<psa03 value="0.029977241053426" flag="0"/>
			<psa10 value="0.0191801955938189" flag="0"/>
			<psa30 value="0.00285796036751588" flag="0"/>
		</comp>
		<comp name="00.HNN" depth="0.0">
			<acc value="0.0158988861198996" flag="0"/>
			<vel value="0.013776374513401" flag="0"/>
			<psa03 value="0.0319813113132522" flag="0"/>
			<psa10 value="0.0214543837476126" flag="0"/>
			<psa30 value="0.00371603241891045" flag="0"/>
		</comp>
		<comp name="00.HNZ" depth="0.0">
			<acc value="0.052169040517318" flag="0"/>
			<vel value="0.00649645989910824" flag="0"/>
			<psa03 value="0.0285393463208008" flag="0"/>
			<psa10 value="0.00423112310362059" flag="0"/>
			<psa30 value="0.000678675792272785" flag="0"/>
		</comp>
	</station>
	<station code="CAME" name="CAME" netid="KO" source="Bogazici University Kandilli Observatory And Earthquake Research Institute (KOERI)" insttype="" lat="36.9435" lon="29.3023">
		<comp name="--.HNE" depth="0.0">
			<acc value="0.00556106074756533" flag="0"/>
			<vel value="0.00458999389505889" flag="0"/>
			<psa03 value="0.0227157131378253" flag="0"/>
			<psa10 value="0.00410773336719378" flag="0"/>
			<psa30 value="0.00101619669304287" flag="0"/>
		</comp>
		<comp name="--.HNN" depth="0.0">
			<acc value="0.00390975401824898" flag="0"/>
			<vel value="0.0030735628592106" flag="0"/>
			<psa03 value="0.0192858101423602" flag="0"/>
			<psa10 value="0.00395983716352801" flag="0"/>
			<psa30 value="0.000724460231516363" flag="0"/>
		</comp>
		<comp name="--.HNZ" depth="0.0">
			<acc value="0.00274257886242978" flag="0"/>
			<vel value="0.00198632740927097" flag="0"/>
			<psa03 value="0.00639668742100356" flag="0"/>
			<psa10 value="0.00312514343166398" flag="0"/>
			<psa30 value="0.000658060884970875" flag="0"/>
		</comp>
	</station>
</stationlist>
