<?xml version="1.0" encoding="UTF-8" standalone="yes"?>
<!DOCTYPE earthquake SYSTEM "stationlist.dtd">
<stationlist created="" xmlns="ch.ethz.sed.shakemap.usgs.xml">
  <station code="CAYL" name="CAYL" netid="KO" insttype="CMG-6T" lat="40.3745" lon="36.159">
    <comp name="--.HHE">
      <acc value="0.0485594160" flag="0"/>
      <vel value="0.0226558073" flag="0"/>
      <psa03 value="0.1759475888" flag="0"/>
      <psa10 value="0.0093262209" flag="0"/>
      <psa30 value="0.0006898989" flag="0"/>
    </comp>
    <comp name="--.HHN">
      <acc value="0.0554326207" flag="0"/>
      <vel value="0.0210378314" flag="0"/>
      <psa03 value="0.2103213326" flag="0"/>
      <psa10 value="0.0112898923" flag="0"/>
      <psa30 value="0.0005859212" flag="0"/>
    </comp>
    <comp name="--.HHZ">
      <acc value="0.0444486075" flag="0"/>
      <vel value="0.0120641391" flag="0"/>
      <psa03 value="0.0664562592" flag="0"/>
      <psa10 value="0.0086246772" flag="0"/>
      <psa30 value="0.0003960233" flag="0"/>
    </comp>
  </station>
  <station code="CORM" name="CORM" netid="KO" insttype="CMG-3ESP" lat="40.1785" lon="34.6302">
    <comp name="--.HHN">
      <acc value="0.0041014335" flag="0"/>
      <vel value="0.0035116414" flag="0"/>
      <psa03 value="0.0093152148" flag="0"/>
      <psa10 value="0.0070360654" flag="0"/>
      <psa30 value="0.0007020295" flag="0"/>
    </comp>
    <comp name="--.HHZ">
      <acc value="0.0028629934" flag="0"/>
      <vel value="0.0019047216" flag="0"/>
      <psa03 value="0.0065204284" flag="0"/>
      <psa10 value="0.0025743175" flag="0"/>
      <psa30 value="0.0003064787" flag="0"/>
    </comp>
    <comp name="--.HHE">
      <acc value="0.0037750481" flag="0"/>
      <vel value="0.0032343502" flag="0"/>
      <psa03 value="0.0095023933" flag="0"/>
      <psa10 value="0.0045763936" flag="0"/>
      <psa30 value="0.0003463104" flag="0"/>
    </comp>
  </station>
  <station code="ERBG" name="ERBG" netid="KO" insttype="CMG-5T" lat="40.712" lon="36.6768">
    <comp name="--.HNZ">
      <acc value="0.0105844595" flag="0"/>
      <vel value="0.0051603443" flag="0"/>
      <psa03 value="0.0176673390" flag="0"/>
      <psa10 value="0.0050717745" flag="0"/>
      <psa30 value="0.0009160187" flag="0"/>
    </comp>
    <comp name="--.HNN">
      <acc value="0.0141754496" flag="0"/>
      <vel value="0.0091908950" flag="0"/>
      <psa03 value="0.0244269395" flag="0"/>
      <psa10 value="0.0129349917" flag="0"/>
      <psa30 value="0.0008103886" flag="0"/>
    </comp>
    <comp name="--.HNE">
      <acc value="0.0107687821" flag="0"/>
      <vel value="0.0074255774" flag="0"/>
      <psa03 value="0.0203175346" flag="0"/>
      <psa10 value="0.0099854015" flag="0"/>
      <psa30 value="0.0009482902" flag="0"/>
    </comp>
  </station>
  <station code="KVT" name="KVT" netid="KO" insttype="CMG-3T" lat="41.0807" lon="36.0463">
    <comp name="--.HHE">
      <acc value="0.0042214649" flag="0"/>
      <vel value="0.0060633750" flag="0"/>
      <psa03 value="0.0100179958" flag="0"/>
      <psa10 value="0.0081690465" flag="0"/>
      <psa30 value="0.0008669856" flag="0"/>
    </comp>
    <comp name="--.HHN">
      <acc value="0.0050375150" flag="0"/>
      <vel value="0.0051488383" flag="0"/>
      <psa03 value="0.0156662997" flag="0"/>
      <psa10 value="0.0075507120" flag="0"/>
      <psa30 value="0.0004007189" flag="0"/>
    </comp>
    <comp name="--.HHZ">
      <acc value="0.0025796192" flag="0"/>
      <vel value="0.0024965837" flag="0"/>
      <psa03 value="0.0071931191" flag="0"/>
      <psa10 value="0.0044646177" flag="0"/>
      <psa30 value="0.0002411158" flag="0"/>
    </comp>
  </station>
  <station code="RSDY" name="RSDY" netid="KO" insttype="CMG-3T" lat="40.3971" lon="37.3273">
    <comp name="--.HHE">
      <acc value="0.0287912790" flag="0"/>
      <vel value="0.0225553560" flag="0"/>
      <psa03 value="0.0692170647" flag="0"/>
      <psa10 value="0.0224166641" flag="0"/>
      <psa30 value="0.0012453711" flag="0"/>
    </comp>
    <comp name="--.HHN">
      <acc value="0.0152415830" flag="0"/>
      <vel value="0.0136138472" flag="0"/>
      <psa03 value="0.0391797526" flag="0"/>
      <psa10 value="0.0222697287" flag="0"/>
      <psa30 value="0.0010619435" flag="0"/>
    </comp>
    <comp name="--.HHZ">
      <acc value="0.0126907604" flag="0"/>
      <vel value="0.0071213813" flag="0"/>
      <psa03 value="0.0327714706" flag="0"/>
      <psa10 value="0.0081167675" flag="0"/>
      <psa30 value="0.0006370093" flag="0"/>
    </comp>
  </station>
  <station code="TOKT" name="TOKT" netid="KO" insttype="CMG-3T" lat="40.3173" lon="36.5443">
    <comp name="--.HHZ">
      <acc value="0.0000433092" flag="0"/>
      <vel value="0.0000054914" flag="0"/>
      <psa03 value="0.0000115607" flag="0"/>
      <psa10 value="0.0000052591" flag="0"/>
      <psa30 value="0.0000007381" flag="0"/>
    </comp>
    <comp name="--.HHE">
      <acc value="0.0258899098" flag="0"/>
      <vel value="0.0103030376" flag="0"/>
      <psa03 value="0.0351797355" flag="0"/>
      <psa10 value="0.0113684444" flag="0"/>
      <psa30 value="0.0007703005" flag="0"/>
    </comp>
    <comp name="--.HHN">
      <acc value="0.0221042025" flag="0"/>
      <vel value="0.0099219223" flag="0"/>
      <psa03 value="0.0414412288" flag="0"/>
      <psa10 value="0.0102642799" flag="0"/>
      <psa30 value="0.0010413345" flag="0"/>
    </comp>
  </station>
</stationlist>
