<?xml version="1.0" encoding="UTF-8" standalone="yes"?>
<!DOCTYPE earthquake SYSTEM "stationlist.dtd">
<stationlist created="" xmlns="ch.ethz.sed.shakemap.usgs.xml">
  <station code="KTHA" name="KTHA" netid="GE" insttype="STS-2/N" lat="36.2566" lon="23.0621">
    <comp name="--.HHE">
      <acc value="0.0184678996" flag="0"/>
      <vel value="0.0051500275" flag="0"/>
      <psa03 value="0.0352644113" flag="0"/>
      <psa10 value="0.0015326825" flag="0"/>
      <psa30 value="0.0001512323" flag="0"/>
    </comp>
    <comp name="--.HHZ">
      <acc value="0.0084873039" flag="0"/>
      <vel value="0.0019603484" flag="0"/>
      <psa03 value="0.0059509983" flag="0"/>
      <psa10 value="0.0003902962" flag="0"/>
      <psa30 value="0.0000356422" flag="0"/>
    </comp>
    <comp name="--.HHN">
      <acc value="0.0103239085" flag="0"/>
      <vel value="0.0030420101" flag="0"/>
      <psa03 value="0.0182340962" flag="0"/>
      <psa10 value="0.0015609589" flag="0"/>
      <psa30 value="0.0000971459" flag="0"/>
    </comp>
  </station>
</stationlist>
