<?xml version="1.0" encoding="UTF-8" standalone="yes"?>
<!DOCTYPE earthquake SYSTEM "stationlist.dtd">
<stationlist created="" xmlns="ch.ethz.sed.shakemap.usgs.xml">
  <station code="KTHA" name="KTHA" netid="GE" insttype="STS-2/N" lat="36.2566" lon="23.0621">
    <comp name="--.HHE">
      <acc value="0.0184678996" flag="0"/>
      <vel value="0.0051500275" flag="0"/>
      <psa03 value="0.0352644113" flag="0"/>
      <psa10 value="0.0015326825" flag="0"/>
      <psa30 value="0.0001512323" flag="0"/>
    </comp>
    <comp name="--.HHZ">
      <acc value="0.0084873039" flag="0"/>
      <vel value="0.0019603484" flag="0"/>
      <psa03 value="0.0059509983" flag="0"/>
      <psa10 value="0.0003902962" flag="0"/>
      <psa30 value="0.0000356422" flag="0"/>
    </comp>
    <comp name="--.HHN">
      <acc value="0.0103239085" flag="0"/>
      <vel value="0.0030420101" flag="0"/>
      <psa03 value="0.0182340962" flag="0"/>
      <psa10 value="0.0015609589" flag="0"/>
      <psa30 value="0.0000971459" flag="0"/>
    </comp>
  </station>
  <station code="ATHU" name="ATHU" netid="HA" insttype="60s," lat="37.9665" lon="23.7845">
    <comp name="--.HHE">
      <acc value="0.0029384537" flag="0"/>
      <vel value="0.0008299943" flag="0"/>
      <psa03 value="0.0036247181" flag="0"/>
      <psa10 value="0.0004313284" flag="0"/>
      <psa30 value="0.0000421713" flag="0"/>
    </comp>
    <comp name="--.HHZ">
      <acc value="0.0068765652" flag="0"/>
      <vel value="0.0021895172" flag="0"/>
      <psa03 value="0.0083151904" flag="0"/>
      <psa10 value="0.0005409502" flag="0"/>
      <psa30 value="0.0000672743" flag="0"/>
    </comp>
    <comp name="--.HHN">
      <acc value="0.0042430259" flag="0"/>
      <vel value="0.0012958195" flag="0"/>
      <psa03 value="0.0066318827" flag="0"/>
      <psa10 value="0.0005368588" flag="0"/>
      <psa30 value="0.0000298769" flag="0"/>
    </comp>
  </station>
  <station code="EPID" name="EPID" netid="HA" insttype="30" lat="37.6144" lon="23.1189">
    <comp name="--.HHZ">
      <acc value="0.0040599847" flag="0"/>
      <vel value="0.0009375272" flag="0"/>
      <psa03 value="0.0045657351" flag="0"/>
      <psa10 value="0.0004254244" flag="0"/>
      <psa30 value="0.0000336847" flag="0"/>
    </comp>
    <comp name="--.HHE">
      <acc value="0.0074299222" flag="0"/>
      <vel value="0.0030640705" flag="0"/>
      <psa03 value="0.0110579560" flag="0"/>
      <psa10 value="0.0014994822" flag="0"/>
      <psa30 value="0.0001516175" flag="0"/>
    </comp>
    <comp name="--.HHN">
      <acc value="0.0053737539" flag="0"/>
      <vel value="0.0018326844" flag="0"/>
      <psa03 value="0.0129359365" flag="0"/>
      <psa10 value="0.0008625078" flag="0"/>
      <psa30 value="0.0001081882" flag="0"/>
    </comp>
  </station>
  <station code="KARY" name="KARY" netid="HA" insttype="60" lat="38.0321" lon="24.437">
    <comp name="--.HHN">
      <acc value="0.0064144691" flag="0"/>
      <vel value="0.0012851431" flag="0"/>
      <psa03 value="0.0018628210" flag="0"/>
      <psa10 value="0.0003840743" flag="0"/>
      <psa30 value="0.0000317347" flag="0"/>
    </comp>
    <comp name="--.HHE">
      <acc value="0.0030638134" flag="0"/>
      <vel value="0.0007345745" flag="0"/>
      <psa03 value="0.0023278361" flag="0"/>
      <psa10 value="0.0002697795" flag="0"/>
      <psa30 value="0.0000298918" flag="0"/>
    </comp>
    <comp name="--.HHZ">
      <acc value="0.0063133922" flag="0"/>
      <vel value="0.0018155427" flag="0"/>
      <psa03 value="0.0060068789" flag="0"/>
      <psa10 value="0.0004159955" flag="0"/>
      <psa30 value="0.0000469443" flag="0"/>
    </comp>
  </station>
  <station code="MRTH" name="MRTH" netid="HA" insttype="S100," lat="38.1225" lon="23.9409">
    <comp name="--.HHZ">
      <acc value="0.0056185226" flag="0"/>
      <vel value="0.0019033363" flag="0"/>
      <psa03 value="0.0072493254" flag="0"/>
      <psa10 value="0.0005735979" flag="0"/>
      <psa30 value="0.0000487720" flag="0"/>
    </comp>
    <comp name="--.HHE">
      <acc value="0.0054767076" flag="0"/>
      <vel value="0.0013970186" flag="0"/>
      <psa03 value="0.0050976602" flag="0"/>
      <psa10 value="0.0005603037" flag="0"/>
      <psa30 value="0.0000286191" flag="0"/>
    </comp>
    <comp name="--.HHN">
      <acc value="0.0032750127" flag="0"/>
      <vel value="0.0008555342" flag="0"/>
      <psa03 value="0.0052596869" flag="0"/>
      <psa10 value="0.0009074657" flag="0"/>
      <psa30 value="0.0000313520" flag="0"/>
    </comp>
  </station>
  <station code="SERI" name="SERI" netid="HA" insttype="30" lat="37.1609" lon="24.4853">
    <comp name="--.HHZ">
      <acc value="0.0022634356" flag="0"/>
      <vel value="0.0006952101" flag="0"/>
      <psa03 value="0.0028716671" flag="0"/>
      <psa10 value="0.0004164028" flag="0"/>
      <psa30 value="0.0000465666" flag="0"/>
    </comp>
    <comp name="--.HHE">
      <acc value="0.0023280514" flag="0"/>
      <vel value="0.0013939345" flag="0"/>
      <psa03 value="0.0069316198" flag="0"/>
      <psa10 value="0.0018354573" flag="0"/>
      <psa30 value="0.0001433939" flag="0"/>
    </comp>
    <comp name="--.HHN">
      <acc value="0.0040139397" flag="0"/>
      <vel value="0.0021665869" flag="0"/>
      <psa03 value="0.0086696080" flag="0"/>
      <psa10 value="0.0011289533" flag="0"/>
      <psa30 value="0.0001094789" flag="0"/>
    </comp>
  </station>
  <station code="KTHR" name="KTHR" netid="HC" insttype="120s" lat="36.2447" lon="22.9939">
    <comp name="--.HHN">
      <acc value="0.0236727270" flag="0"/>
      <vel value="0.0082188433" flag="0"/>
      <psa03 value="0.0556379978" flag="0"/>
      <psa10 value="0.0017089174" flag="0"/>
      <psa30 value="0.0001668989" flag="0"/>
    </comp>
    <comp name="--.HHZ">
      <acc value="0.0141201022" flag="0"/>
      <vel value="0.0032235311" flag="0"/>
      <psa03 value="0.0216798963" flag="0"/>
      <psa10 value="0.0007880707" flag="0"/>
      <psa30 value="0.0000618660" flag="0"/>
    </comp>
    <comp name="--.HHE">
      <acc value="0.0262360497" flag="0"/>
      <vel value="0.0087578039" flag="0"/>
      <psa03 value="0.0457726706" flag="0"/>
      <psa10 value="0.0025460879" flag="0"/>
      <psa30 value="0.0001896790" flag="0"/>
    </comp>
  </station>
  <station code="ATH" name="ATH" netid="HL" insttype="DR24" lat="37.9738" lon="23.7177">
    <comp name="--.HHZ">
      <acc value="0.0101952008" flag="0"/>
      <vel value="0.0038010686" flag="0"/>
      <psa03 value="0.0147210216" flag="0"/>
      <psa10 value="0.0009158832" flag="0"/>
      <psa30 value="0.0001109427" flag="0"/>
    </comp>
    <comp name="--.HHE">
      <acc value="0.0067952877" flag="0"/>
      <vel value="0.0019628958" flag="0"/>
      <psa03 value="0.0077853998" flag="0"/>
      <psa10 value="0.0008669025" flag="0"/>
      <psa30 value="0.0001098791" flag="0"/>
    </comp>
    <comp name="--.HHN">
      <acc value="0.0072069776" flag="0"/>
      <vel value="0.0018311807" flag="0"/>
      <psa03 value="0.0066257761" flag="0"/>
      <psa10 value="0.0009557859" flag="0"/>
      <psa30 value="0.0000587129" flag="0"/>
    </comp>
  </station>
  <station code="KTHA" name="KTHA" netid="HL" insttype="120" lat="36.2566" lon="23.0621">
    <comp name="--.HHE">
      <acc value="0.0175091079" flag="0"/>
      <vel value="0.0049985845" flag="0"/>
      <psa03 value="0.0345136849" flag="0"/>
      <psa10 value="0.0014907928" flag="0"/>
      <psa30 value="0.0001489558" flag="0"/>
    </comp>
    <comp name="--.HHN">
      <acc value="0.0100066892" flag="0"/>
      <vel value="0.0029355721" flag="0"/>
      <psa03 value="0.0175964108" flag="0"/>
      <psa10 value="0.0015472978" flag="0"/>
      <psa30 value="0.0000958906" flag="0"/>
    </comp>
    <comp name="--.HHZ">
      <acc value="0.0080253777" flag="0"/>
      <vel value="0.0018468661" flag="0"/>
      <psa03 value="0.0057086188" flag="0"/>
      <psa10 value="0.0003795774" flag="0"/>
      <psa30 value="0.0000351610" flag="0"/>
    </comp>
  </station>
  <station code="MHLO" name="MHLO" netid="HL" insttype="20" lat="36.6898" lon="24.4017">
    <comp name="--.HHZ">
      <acc value="0.0108635554" flag="0"/>
      <vel value="0.0034647594" flag="0"/>
      <psa03 value="0.0112093728" flag="0"/>
      <psa10 value="0.0013665018" flag="0"/>
      <psa30 value="0.0000652479" flag="0"/>
    </comp>
    <comp name="--.HHE">
      <acc value="0.0075190548" flag="0"/>
      <vel value="0.0029774810" flag="0"/>
      <psa03 value="0.0194270022" flag="0"/>
      <psa10 value="0.0027842139" flag="0"/>
      <psa30 value="0.0001449462" flag="0"/>
    </comp>
    <comp name="--.HHN">
      <acc value="0.0085424274" flag="0"/>
      <vel value="0.0034563305" flag="0"/>
      <psa03 value="0.0197601259" flag="0"/>
      <psa10 value="0.0024772361" flag="0"/>
      <psa30 value="0.0000992780" flag="0"/>
    </comp>
  </station>
  <station code="PTL" name="PTL" netid="HL" insttype="120" lat="38.0473" lon="23.8638">
    <comp name="--.HHE">
      <acc value="0.0027432378" flag="0"/>
      <vel value="0.0009347390" flag="0"/>
      <psa03 value="0.0044323564" flag="0"/>
      <psa10 value="0.0005027845" flag="0"/>
      <psa30 value="0.0000354872" flag="0"/>
    </comp>
    <comp name="--.HHZ">
      <acc value="0.0095259162" flag="0"/>
      <vel value="0.0025653934" flag="0"/>
      <psa03 value="0.0077676144" flag="0"/>
      <psa10 value="0.0006219668" flag="0"/>
      <psa30 value="0.0000747098" flag="0"/>
    </comp>
    <comp name="--.HHN">
      <acc value="0.0001757469" flag="0"/>
      <vel value="0.0000683008" flag="0"/>
      <psa03 value="0.0002003890" flag="0"/>
      <psa10 value="0.0001231283" flag="0"/>
      <psa30 value="0.0000221445" flag="0"/>
    </comp>
  </station>
  <station code="VLI" name="VLI" netid="HL" insttype="60" lat="36.718" lon="22.9469">
    <comp name="--.HHE">
      <acc value="0.0140100115" flag="0"/>
      <vel value="0.0054596783" flag="0"/>
      <psa03 value="0.0429717061" flag="0"/>
      <psa10 value="0.0012311887" flag="0"/>
      <psa30 value="0.0001116885" flag="0"/>
    </comp>
    <comp name="--.HHN">
      <acc value="0.0157896168" flag="0"/>
      <vel value="0.0042589043" flag="0"/>
      <psa03 value="0.0281727995" flag="0"/>
      <psa10 value="0.0018664162" flag="0"/>
      <psa30 value="0.0001724482" flag="0"/>
    </comp>
    <comp name="--.HHZ">
      <acc value="0.0112818080" flag="0"/>
      <vel value="0.0026997481" flag="0"/>
      <psa03 value="0.0130105118" flag="0"/>
      <psa10 value="0.0007191676" flag="0"/>
      <psa30 value="0.0000776940" flag="0"/>
    </comp>
  </station>
  <station code="VLY" name="VLY" netid="HL" insttype="120P," lat="37.8524" lon="23.7942">
    <comp name="--.HHE">
      <acc value="0.0031451772" flag="0"/>
      <vel value="0.0019058664" flag="0"/>
      <psa03 value="0.0067536717" flag="0"/>
      <psa10 value="0.0012661568" flag="0"/>
      <psa30 value="0.0000938059" flag="0"/>
    </comp>
    <comp name="--.HHN">
      <acc value="0.0025779419" flag="0"/>
      <vel value="0.0009522846" flag="0"/>
      <psa03 value="0.0034583762" flag="0"/>
      <psa10 value="0.0006190931" flag="0"/>
      <psa30 value="0.0000343134" flag="0"/>
    </comp>
    <comp name="--.HHZ">
      <acc value="0.0039235464" flag="0"/>
      <vel value="0.0010645956" flag="0"/>
      <psa03 value="0.0043430644" flag="0"/>
      <psa10 value="0.0005234325" flag="0"/>
      <psa30 value="0.0000415031" flag="0"/>
    </comp>
  </station>
  <station code="KRND" name="KRND" netid="HT" insttype="100" lat="37.383" lon="23.1502">
    <comp name="--.HHZ">
      <acc value="0.0082496408" flag="0"/>
      <vel value="0.0013565360" flag="0"/>
      <psa03 value="0.0064009262" flag="0"/>
      <psa10 value="0.0007470147" flag="0"/>
      <psa30 value="0.0000441507" flag="0"/>
    </comp>
    <comp name="--.HHE">
      <acc value="0.0061191441" flag="0"/>
      <vel value="0.0027724320" flag="0"/>
      <psa03 value="0.0120673791" flag="0"/>
      <psa10 value="0.0015090388" flag="0"/>
      <psa30 value="0.0001409085" flag="0"/>
    </comp>
    <comp name="--.HHN">
      <acc value="0.0097047658" flag="0"/>
      <vel value="0.0031159004" flag="0"/>
      <psa03 value="0.0204113777" flag="0"/>
      <psa10 value="0.0010349929" flag="0"/>
      <psa30 value="0.0001033803" flag="0"/>
    </comp>
  </station>
</stationlist>
