<?xml version="1.0" encoding="UTF-8" standalone="yes"?>
<!DOCTYPE earthquake SYSTEM "stationlist.dtd">
<stationlist created="" xmlns="ch.ethz.sed.shakemap.usgs.xml">
  <station code="KBN" name="KBN" netid="AC" insttype="" lat="40.6236" lon="20.7874">
    <comp name="--.HHE">
      <acc value="0.0564955085" flag="0"/>
      <vel value="0.0182112730" flag="0"/>
      <psa03 value="0.0783890563" flag="0"/>
      <psa10 value="0.0192849152" flag="0"/>
      <psa30 value="0.0008222818" flag="0"/>
    </comp>
    <comp name="--.HHN">
      <acc value="0.0390848966" flag="0"/>
      <vel value="0.0189792430" flag="0"/>
      <psa03 value="0.0788734072" flag="0"/>
      <psa10 value="0.0153562678" flag="0"/>
      <psa30 value="0.0008530778" flag="0"/>
    </comp>
    <comp name="--.HHZ">
      <acc value="0.0432306340" flag="0"/>
      <vel value="0.0149633554" flag="0"/>
      <psa03 value="0.0714719298" flag="0"/>
      <psa10 value="0.0104390404" flag="0"/>
      <psa30 value="0.0006050042" flag="0"/>
    </comp>
  </station>
  <station code="PHP" name="PHP" netid="AC" insttype="" lat="41.6847" lon="20.4408">
    <comp name="--.HHZ">
      <acc value="0.0056578504" flag="0"/>
      <vel value="0.0064407118" flag="0"/>
      <psa03 value="0.0101068362" flag="0"/>
      <psa10 value="0.0067927860" flag="0"/>
      <psa30 value="0.0010127500" flag="0"/>
    </comp>
    <comp name="--.HHE">
      <acc value="0.0911197847" flag="0"/>
      <vel value="0.0158484131" flag="0"/>
      <psa03 value="0.0340522688" flag="0"/>
      <psa10 value="0.0160013603" flag="0"/>
      <psa30 value="0.0022145316" flag="0"/>
    </comp>
    <comp name="--.HHN">
      <acc value="0.0098230203" flag="0"/>
      <vel value="0.0084929705" flag="0"/>
      <psa03 value="0.0205574822" flag="0"/>
      <psa10 value="0.0121876146" flag="0"/>
      <psa30 value="0.0012113531" flag="0"/>
    </comp>
  </station>
  <station code="LMS2" name="LMS2" netid="HI" insttype="CMG-5TD,ACCELEROMETER,GURALP" lat="40.835" lon="21.1418">
    <comp name="--.HNE">
      <acc value="0.7463218473" flag="0"/>
      <vel value="0.1925515838" flag="0"/>
      <psa03 value="0.8912359313" flag="0"/>
      <psa10 value="0.0721703272" flag="0"/>
      <psa30 value="0.0060005424" flag="0"/>
    </comp>
    <comp name="--.HNZ">
      <acc value="0.4865480928" flag="0"/>
      <vel value="0.1656778029" flag="0"/>
      <psa03 value="0.9336496453" flag="0"/>
      <psa10 value="0.0831537951" flag="0"/>
      <psa30 value="0.0078132233" flag="0"/>
    </comp>
    <comp name="--.HNN">
      <acc value="1.1303204587" flag="0"/>
      <vel value="0.2826357416" flag="0"/>
      <psa03 value="1.0110975525" flag="0"/>
      <psa10 value="0.0826296615" flag="0"/>
      <psa30 value="0.0062444175" flag="0"/>
    </comp>
  </station>
  <station code="KZN" name="KZN" netid="HL" insttype="120" lat="40.3033" lon="21.7821">
    <comp name="--.HHE">
      <acc value="0.0534449871" flag="0"/>
      <vel value="0.0245128761" flag="0"/>
      <psa03 value="0.1178757827" flag="0"/>
      <psa10 value="0.0114196015" flag="0"/>
      <psa30 value="0.0009949612" flag="0"/>
    </comp>
    <comp name="--.HHN">
      <acc value="0.0592409777" flag="0"/>
      <vel value="0.0205162509" flag="0"/>
      <psa03 value="0.1219598476" flag="0"/>
      <psa10 value="0.0075509382" flag="0"/>
      <psa30 value="0.0008879150" flag="0"/>
    </comp>
    <comp name="--.HHZ">
      <acc value="0.0214709872" flag="0"/>
      <vel value="0.0089222396" flag="0"/>
      <psa03 value="0.0521570264" flag="0"/>
      <psa10 value="0.0060925489" flag="0"/>
      <psa30 value="0.0006004592" flag="0"/>
    </comp>
  </station>
  <station code="PENT" name="PENT" netid="HL" insttype="30s-100Hz," lat="40.1959" lon="21.1384">
    <comp name="--.HHZ">
      <acc value="0.0115696720" flag="0"/>
      <vel value="0.0079876818" flag="0"/>
      <psa03 value="0.0223771126" flag="0"/>
      <psa10 value="0.0137673163" flag="0"/>
      <psa30 value="0.0017073865" flag="0"/>
    </comp>
    <comp name="--.HHE">
      <acc value="0.0183370676" flag="0"/>
      <vel value="0.0082017295" flag="0"/>
      <psa03 value="0.0525476448" flag="0"/>
      <psa10 value="0.0060734179" flag="0"/>
      <psa30 value="0.0009610941" flag="0"/>
    </comp>
    <comp name="--.HHN">
      <acc value="0.0166757086" flag="0"/>
      <vel value="0.0081077651" flag="0"/>
      <psa03 value="0.0321658167" flag="0"/>
      <psa10 value="0.0091185598" flag="0"/>
      <psa30 value="0.0008737145" flag="0"/>
    </comp>
  </station>
  <station code="GRG" name="GRG" netid="HT" insttype="100" lat="40.957" lon="22.401">
    <comp name="--.HHZ">
      <acc value="0.0353019097" flag="0"/>
      <vel value="0.0209947854" flag="0"/>
      <psa03 value="0.0747837923" flag="0"/>
      <psa10 value="0.0238028984" flag="0"/>
      <psa30 value="0.0026183440" flag="0"/>
    </comp>
    <comp name="--.HHN">
      <acc value="0.0914655029" flag="0"/>
      <vel value="0.0502222926" flag="0"/>
      <psa03 value="0.1772740957" flag="0"/>
      <psa10 value="0.0739469015" flag="0"/>
      <psa30 value="0.0051801045" flag="0"/>
    </comp>
    <comp name="--.HHE">
      <acc value="0.0895535630" flag="0"/>
      <vel value="0.0412126443" flag="0"/>
      <psa03 value="0.1660442075" flag="0"/>
      <psa10 value="0.0374632880" flag="0"/>
      <psa30 value="0.0025799224" flag="0"/>
    </comp>
  </station>
  <station code="KPRO" name="KPRO" netid="HT" insttype="100" lat="39.9549" lon="21.3632">
    <comp name="--.HHE">
      <acc value="0.0215080521" flag="0"/>
      <vel value="0.0074902167" flag="0"/>
      <psa03 value="0.0400791911" flag="0"/>
      <psa10 value="0.0088504605" flag="0"/>
      <psa30 value="0.0012108394" flag="0"/>
    </comp>
    <comp name="--.HHN">
      <acc value="0.0142277972" flag="0"/>
      <vel value="0.0103931702" flag="0"/>
      <psa03 value="0.0328461243" flag="0"/>
      <psa10 value="0.0079861319" flag="0"/>
      <psa30 value="0.0013112706" flag="0"/>
    </comp>
    <comp name="--.HHZ">
      <acc value="0.0072601515" flag="0"/>
      <vel value="0.0033575390" flag="0"/>
      <psa03 value="0.0138039629" flag="0"/>
      <psa10 value="0.0086929553" flag="0"/>
      <psa30 value="0.0014910735" flag="0"/>
    </comp>
  </station>
  <station code="LIT" name="LIT" netid="HT" insttype="100" lat="40.1033" lon="22.4892">
    <comp name="--.HHN">
      <acc value="0.0108296952" flag="0"/>
      <vel value="0.0051401478" flag="0"/>
      <psa03 value="0.0373883457" flag="0"/>
      <psa10 value="0.0054302420" flag="0"/>
      <psa30 value="0.0004182041" flag="0"/>
    </comp>
    <comp name="--.HHE">
      <acc value="0.0134183962" flag="0"/>
      <vel value="0.0065381748" flag="0"/>
      <psa03 value="0.0412962916" flag="0"/>
      <psa10 value="0.0055186422" flag="0"/>
      <psa30 value="0.0006129173" flag="0"/>
    </comp>
    <comp name="--.HHZ">
      <acc value="0.0053271038" flag="0"/>
      <vel value="0.0034045590" flag="0"/>
      <psa03 value="0.0189477676" flag="0"/>
      <psa10 value="0.0051565616" flag="0"/>
      <psa30 value="0.0009303436" flag="0"/>
    </comp>
  </station>
  <station code="NEST" name="NEST" netid="HT" insttype="120P," lat="40.4147" lon="21.0489">
    <comp name="--.HHZ">
      <acc value="0.0843856151" flag="0"/>
      <vel value="0.0168524601" flag="0"/>
      <psa03 value="0.1086188334" flag="0"/>
      <psa10 value="0.0144948916" flag="0"/>
      <psa30 value="0.0016640484" flag="0"/>
    </comp>
    <comp name="--.HHE">
      <acc value="0.0917749630" flag="0"/>
      <vel value="0.0301023959" flag="0"/>
      <psa03 value="0.1086751639" flag="0"/>
      <psa10 value="0.0204027998" flag="0"/>
      <psa30 value="0.0017442146" flag="0"/>
    </comp>
    <comp name="--.HHN">
      <acc value="0.0699439707" flag="0"/>
      <vel value="0.0230788396" flag="0"/>
      <psa03 value="0.0994425734" flag="0"/>
      <psa10 value="0.0138225164" flag="0"/>
      <psa30 value="0.0012514698" flag="0"/>
    </comp>
  </station>
</stationlist>
