<stationlist created="1775820682">
	<station code="E02" name="E02" netid="EG" source="EUROSEISTEST Strong Motion Network" insttype="" lat="40.674206" lon="23.315498">
		<comp name="--.EN1" depth="0.0">
			<acc value="0.012163852149819" flag="0"/>
			<vel value="0.0115731389150514" flag="0"/>
			<psa03 value="0.0631078576689678" flag="0"/>
			<psa10 value="0.025279218999214" flag="0"/>
			<psa30 value="0.0011949456176151" flag="0"/>
		</comp>
		<comp name="--.EN2" depth="0.0">
			<acc value="0.0125839249689637" flag="0"/>
			<vel value="0.0150318124496783" flag="0"/>
			<psa03 value="0.0371446168985513" flag="0"/>
			<psa10 value="0.0370584136880255" flag="0"/>
			<psa30 value="0.0015272250253311" flag="0"/>
		</comp>
		<comp name="--.EN3" depth="0.0">
			<acc value="0.00561670284620728" flag="0"/>
			<vel value="0.00575484994635808" flag="0"/>
			<psa03 value="0.013316671226597" flag="0"/>
			<psa10 value="0.00830809412045532" flag="0"/>
			<psa30 value="0.000512391026722404" flag="0"/>
		</comp>
	</station>
	<station code="E03" name="E03" netid="EG" source="EUROSEISTEST Strong Motion Network" insttype="" lat="40.676239" lon="23.324046">
		<comp name="--.EN1" depth="0.0">
			<acc value="0.0110926802141079" flag="0"/>
			<vel value="0.00996800307898256" flag="0"/>
			<psa03 value="0.0357040370922378" flag="0"/>
			<psa10 value="0.0172570644458403" flag="0"/>
			<psa30 value="0.00105841803166528" flag="0"/>
		</comp>
		<comp name="--.EN2" depth="0.0">
			<acc value="0.00876807925930435" flag="0"/>
			<vel value="0.00825476990569856" flag="0"/>
			<psa03 value="0.0254144387901868" flag="0"/>
			<psa10 value="0.0133039547591983" flag="0"/>
			<psa30 value="0.00110237511027438" flag="0"/>
		</comp>
		<comp name="--.EN3" depth="0.0">
			<acc value="0.00401753927544704" flag="0"/>
			<vel value="0.0044820605913433" flag="0"/>
			<psa03 value="0.0099649693751081" flag="0"/>
			<psa10 value="0.00824594687852664" flag="0"/>
			<psa30 value="0.00042842728745523" flag="0"/>
		</comp>
	</station>
	<station code="STC" name="STC" netid="EG" source="EUROSEISTEST Strong Motion Network" insttype="" lat="40.64865" lon="23.304856">
		<comp name="--.EN1" depth="0.0">
			<acc value="0.0081718380053906" flag="0"/>
			<vel value="0.00525966640718705" flag="0"/>
			<psa03 value="0.0295737403651509" flag="0"/>
			<psa10 value="0.00618055802537317" flag="0"/>
			<psa30 value="0.000889873220566465" flag="0"/>
		</comp>
		<comp name="--.EN2" depth="0.0">
			<acc value="0.00764684535771036" flag="0"/>
			<vel value="0.00539055230711457" flag="0"/>
			<psa03 value="0.0369472809093767" flag="0"/>
			<psa10 value="0.00715250194316738" flag="0"/>
			<psa30 value="0.000511587588081503" flag="0"/>
		</comp>
		<comp name="--.EN3" depth="0.0">
			<acc value="0.0044071966726794" flag="0"/>
			<vel value="0.00261109260298115" flag="0"/>
			<psa03 value="0.0139210068338202" flag="0"/>
			<psa10 value="0.00384954845119313" flag="0"/>
			<psa30 value="0.000522665926133978" flag="0"/>
		</comp>
	</station>
	<station code="TST" name="TST" netid="EG" source="EUROSEISTEST Strong Motion Network" insttype="" lat="40.6638" lon="23.2906">
		<comp name="00.EN1" depth="0.0">
			<acc value="0.00914926798305478" flag="0"/>
			<vel value="0.00700704770656851" flag="0"/>
			<psa03 value="0.0312519973747779" flag="0"/>
			<psa10 value="0.00814463766729127" flag="0"/>
			<psa30 value="0.0011309760674493" flag="0"/>
		</comp>
		<comp name="00.EN2" depth="0.0">
			<acc value="0.00411398435323031" flag="0"/>
			<vel value="0.00321118698578953" flag="0"/>
			<psa03 value="0.00752903977753806" flag="0"/>
			<psa10 value="0.00438932217731659" flag="0"/>
			<psa30 value="0.000503941560737396" flag="0"/>
		</comp>
		<comp name="00.EN3" depth="0.0">
			<acc value="0.00903433612728366" flag="0"/>
			<vel value="0.00744631600924138" flag="0"/>
			<psa03 value="0.0280161371815899" flag="0"/>
			<psa10 value="0.0144479267917386" flag="0"/>
			<psa30 value="0.00109966899350752" flag="0"/>
		</comp>
	</station>
	<station code="W01" name="W01" netid="EG" source="EUROSEISTEST Strong Motion Network" insttype="" lat="40.664956" lon="23.273878">
		<comp name="--.EN1" depth="0.0">
			<acc value="0.00364968413831436" flag="0"/>
			<vel value="0.00403268745242369" flag="0"/>
			<psa03 value="0.0143499935853906" flag="0"/>
			<psa10 value="0.00798731193272159" flag="0"/>
			<psa30 value="0.000568065860741906" flag="0"/>
		</comp>
		<comp name="--.EN2" depth="0.0">
			<acc value="0.00999774782552655" flag="0"/>
			<vel value="0.00704260298732824" flag="0"/>
			<psa03 value="0.0370533139751943" flag="0"/>
			<psa10 value="0.0141926173787618" flag="0"/>
			<psa30 value="0.00131736799833158" flag="0"/>
		</comp>
		<comp name="--.EN3" depth="0.0">
			<acc value="0.0133510685971106" flag="0"/>
			<vel value="0.00880937532375974" flag="0"/>
			<psa03 value="0.0270661445617585" flag="0"/>
			<psa10 value="0.0158083322244071" flag="0"/>
			<psa30 value="0.000843805220872638" flag="0"/>
		</comp>
	</station>
	<station code="LMS2" name="LMS2" netid="HI" source="ITSAK Strong Motion Network" insttype="" lat="40.834985" lon="21.141815">
		<comp name="--.HNE" depth="0.0">
			<acc value="0.750616312288843" flag="0"/>
			<vel value="0.19396672889473" flag="0"/>
			<psa03 value="0.921206275394894" flag="0"/>
			<psa10 value="0.0724304756637353" flag="0"/>
			<psa30 value="0.0063603713433767" flag="0"/>
		</comp>
		<comp name="--.HNN" depth="0.0">
			<acc value="1.13452925296446" flag="0"/>
			<vel value="0.287473482393941" flag="0"/>
			<psa03 value="1.03023741483713" flag="0"/>
			<psa10 value="0.0827700906124876" flag="0"/>
			<psa30 value="0.00601680733396863" flag="0"/>
		</comp>
		<comp name="--.HNZ" depth="0.0">
			<acc value="0.468560075022382" flag="0"/>
			<vel value="0.170339293816934" flag="0"/>
			<psa03 value="0.943046555540568" flag="0"/>
			<psa10 value="0.083145025450001" flag="0"/>
			<psa30 value="0.00775983738448681" flag="0"/>
		</comp>
	</station>
</stationlist>
