<stationlist created="1675762327">
	<station code="CMRD" name="CMRD" netid="KO" source="Bogazici University Kandilli Observatory And Earthquake Research Institute (KOERI)" insttype="" lat="37.6623" lon="34.9902">
		<comp name=".HNE" depth="0.0">
			<acc value="0.0049106156541" flag="0"/>
			<vel value="0.00399563308004" flag="0"/>
			<psa03 value="0.0139131990249" flag="0"/>
			<psa10 value="0.00304187197784" flag="0"/>
			<psa30 value="0.000441995477948" flag="0"/>
		</comp>
		<comp name=".HNN" depth="0.0">
			<acc value="0.00627910045217" flag="0"/>
			<vel value="0.00425341086093" flag="0"/>
			<psa03 value="0.0180622694534" flag="0"/>
			<psa10 value="0.00494782980068" flag="0"/>
			<psa30 value="0.000522462631417" flag="0"/>
		</comp>
		<comp name=".HNZ" depth="0.0">
			<acc value="0.00354952154603" flag="0"/>
			<vel value="0.00228668713396" flag="0"/>
			<psa03 value="0.00989921501919" flag="0"/>
			<psa10 value="0.0032220904008" flag="0"/>
			<psa30 value="0.000331450160071" flag="0"/>
		</comp>
	</station>
	<station code="KRTS" name="KRTS" netid="KO" source="Bogazici University Kandilli Observatory And Earthquake Research Institute (KOERI)" insttype="" lat="36.573" lon="35.375">
		<comp name=".HNE" depth="0.0">
			<acc value="0.0740527270797" flag="0"/>
			<vel value="0.0383132538159" flag="0"/>
			<psa03 value="0.240260728594" flag="0"/>
			<psa10 value="0.0368994481574" flag="0"/>
			<psa30 value="0.00282851779209" flag="0"/>
		</comp>
		<comp name=".HNN" depth="0.0">
			<acc value="0.0643986987758" flag="0"/>
			<vel value="0.0404683875006" flag="0"/>
			<psa03 value="0.179233352496" flag="0"/>
			<psa10 value="0.0286089033245" flag="0"/>
			<psa30 value="0.00271066519327" flag="0"/>
		</comp>
		<comp name=".HNZ" depth="0.0">
			<acc value="0.0344843495598" flag="0"/>
			<vel value="0.0217811843459" flag="0"/>
			<psa03 value="0.144169696368" flag="0"/>
			<psa10 value="0.0182279212603" flag="0"/>
			<psa30 value="0.00204519985945" flag="0"/>
		</comp>
	</station>
	<station code="SLFK" name="SLFK" netid="KO" source="Bogazici University Kandilli Observatory And Earthquake Research Institute (KOERI)" insttype="" lat="36.3925" lon="33.9464">
		<comp name=".HNE" depth="0.0">
			<acc value="0.0410594729555" flag="0"/>
			<vel value="0.00957342608867" flag="0"/>
			<psa03 value="0.050814387037" flag="0"/>
			<psa10 value="0.00528477274651" flag="0"/>
			<psa30 value="0.000494438274943" flag="0"/>
		</comp>
		<comp name=".HNN" depth="0.0">
			<acc value="0.0286046428425" flag="0"/>
			<vel value="0.00938834889732" flag="0"/>
			<psa03 value="0.0500492217655" flag="0"/>
			<psa10 value="0.00587713995669" flag="0"/>
			<psa30 value="0.000445762758762" flag="0"/>
		</comp>
		<comp name=".HNZ" depth="0.0">
			<acc value="0.0136537779585" flag="0"/>
			<vel value="0.0056021070957" flag="0"/>
			<psa03 value="0.0342729344762" flag="0"/>
			<psa10 value="0.00452204065675" flag="0"/>
			<psa30 value="0.000516286961894" flag="0"/>
		</comp>
	</station>
</stationlist>
