<?xml version="1.0" encoding="UTF-8" standalone="yes"?>
<!DOCTYPE earthquake SYSTEM "stationlist.dtd">
<stationlist created="" xmlns="ch.ethz.sed.shakemap.usgs.xml">
  <station code="TAHT" name="TAHT" netid="KO" insttype="CMG-3ESPC" lat="36.3755" lon="36.1855">
    <comp name="--.HHN">
      <acc value="0.0324770145" flag="0"/>
      <vel value="0.0130130377" flag="0"/>
      <psa03 value="0.0940793086" flag="0"/>
      <psa10 value="0.0134401993" flag="0"/>
      <psa30 value="0.0004807433" flag="0"/>
    </comp>
    <comp name="--.HHE">
      <acc value="0.0368837176" flag="0"/>
      <vel value="0.0142029342" flag="0"/>
      <psa03 value="0.1362742859" flag="0"/>
      <psa10 value="0.0097919712" flag="0"/>
      <psa30 value="0.0004889962" flag="0"/>
    </comp>
    <comp name="--.HHZ">
      <acc value="0.0155812230" flag="0"/>
      <vel value="0.0062499210" flag="0"/>
      <psa03 value="0.0320289707" flag="0"/>
      <psa10 value="0.0034822421" flag="0"/>
      <psa30 value="0.0002930998" flag="0"/>
    </comp>
  </station>
</stationlist>
