<?xml version="1.0" encoding="UTF-8" standalone="yes"?>
<!DOCTYPE earthquake SYSTEM "stationlist.dtd">
<stationlist created="" xmlns="ch.ethz.sed.shakemap.usgs.xml">
  <station code="PARA" name="PARA" netid="CQ" insttype="Trillium120P" lat="34.994" lon="34.04">
    <comp name="--.HHE">
      <acc value="0.0012619475" flag="0"/>
      <vel value="0.0010476962" flag="0"/>
      <psa03 value="0.0038253110" flag="0"/>
      <psa10 value="0.0016965723" flag="0"/>
      <psa30 value="0.0002088631" flag="0"/>
    </comp>
    <comp name="--.HHZ">
      <acc value="0.0010720269" flag="0"/>
      <vel value="0.0009475129" flag="0"/>
      <psa03 value="0.0031688204" flag="0"/>
      <psa10 value="0.0013106331" flag="0"/>
      <psa30 value="0.0002093543" flag="0"/>
    </comp>
    <comp name="--.HHN">
      <acc value="0.0012961432" flag="0"/>
      <vel value="0.0011813603" flag="0"/>
      <psa03 value="0.0052308750" flag="0"/>
      <psa10 value="0.0024101437" flag="0"/>
      <psa30 value="0.0002485715" flag="0"/>
    </comp>
  </station>
</stationlist>
