<?xml version="1.0" encoding="UTF-8" standalone="yes"?>
<!DOCTYPE earthquake SYSTEM "stationlist.dtd">
<stationlist created="" xmlns="ch.ethz.sed.shakemap.usgs.xml">
  <station code="KLV" name="KLV" netid="MN" insttype="" lat="38.0437" lon="22.1504">
    <comp name="--.HHE">
      <acc value="0.0052010555" flag="0"/>
      <vel value="0.0035675086" flag="0"/>
      <psa03 value="0.0186397070" flag="0"/>
      <psa10 value="0.0052858950" flag="0"/>
      <psa30 value="0.0006333696" flag="0"/>
    </comp>
    <comp name="--.HHZ">
      <acc value="0.0071662238" flag="0"/>
      <vel value="0.0038139465" flag="0"/>
      <psa03 value="0.0202655104" flag="0"/>
      <psa10 value="0.0062750897" flag="0"/>
      <psa30 value="0.0006664352" flag="0"/>
    </comp>
    <comp name="--.HHN">
      <acc value="0.0068869138" flag="0"/>
      <vel value="0.0040676202" flag="0"/>
      <psa03 value="0.0184481393" flag="0"/>
      <psa10 value="0.0056208327" flag="0"/>
      <psa30 value="0.0010386621" flag="0"/>
    </comp>
  </station>
</stationlist>
