<stationlist created="1778138783">
	<station code="AGRP" name="AGRP" netid="CL" source="Corinth Riff Laboratory (CRLNET)" insttype="" lat="38.3959" lon="21.72277">
		<comp name="00.HNE" depth="0.0">
			<acc value="0.0112731010222574" flag="0"/>
			<vel value="0.00580770632294989" flag="0"/>
			<psa03 value="0.0217661046580254" flag="0"/>
			<psa10 value="0.00668238158121598" flag="0"/>
			<psa30 value="0.00107869541661043" flag="0"/>
		</comp>
		<comp name="00.HNN" depth="0.0">
			<acc value="0.0124016027805176" flag="0"/>
			<vel value="0.00560944044157253" flag="0"/>
			<psa03 value="0.0319920255646855" flag="0"/>
			<psa10 value="0.0111179705734698" flag="0"/>
			<psa30 value="0.00138687249849461" flag="0"/>
		</comp>
		<comp name="00.HNZ" depth="0.0">
			<acc value="0.00944227249315105" flag="0"/>
			<vel value="0.00443196453598046" flag="0"/>
			<psa03 value="0.0150821319297063" flag="0"/>
			<psa10 value="0.00544070807644822" flag="0"/>
			<psa30 value="0.00134054234601991" flag="0"/>
		</comp>
	</station>
	<station code="ROD3" name="ROD3" netid="CL" source="Corinth Riff Laboratory (CRLNET)" insttype="" lat="38.30811" lon="21.89204">
		<comp name="00.HNE" depth="0.0">
			<acc value="0.0340632108979355" flag="0"/>
			<vel value="0.0167355559839873" flag="0"/>
			<psa03 value="0.142155219168996" flag="0"/>
			<psa10 value="0.0124759908481633" flag="0"/>
			<psa30 value="0.00245930583360679" flag="0"/>
		</comp>
		<comp name="00.HNN" depth="0.0">
			<acc value="0.0422840690898169" flag="0"/>
			<vel value="0.0160739818083306" flag="0"/>
			<psa03 value="0.0952295376563175" flag="0"/>
			<psa10 value="0.0172876327208156" flag="0"/>
			<psa30 value="0.00266767901230784" flag="0"/>
		</comp>
		<comp name="00.HNZ" depth="0.0">
			<acc value="0.0241397499698063" flag="0"/>
			<vel value="0.00738832458353326" flag="0"/>
			<psa03 value="0.0385393837742002" flag="0"/>
			<psa10 value="0.00714644107289796" flag="0"/>
			<psa30 value="0.00105928475575032" flag="0"/>
		</comp>
	</station>
	<station code="AIGS" name="AIGS" netid="HA" source="Hellenic Seismological Network, University of Athens, Seismological Laboratory (HA)" insttype="" lat="38.25001" lon="22.0878">
		<comp name="--.HNE" depth="0.0">
			<acc value="0.0189566313371998" flag="0"/>
			<vel value="0.0141857957404891" flag="0"/>
			<psa03 value="0.06348758074079" flag="0"/>
			<psa10 value="0.00837455789835996" flag="0"/>
			<psa30 value="0.00685940981891426" flag="0"/>
		</comp>
		<comp name="--.HNN" depth="0.0">
			<acc value="0.0180562183674494" flag="0"/>
			<vel value="0.0100301554476857" flag="0"/>
			<psa03 value="0.0490909707859775" flag="0"/>
			<psa10 value="0.00821932949022846" flag="0"/>
			<psa30 value="0.0029421705293562" flag="0"/>
		</comp>
		<comp name="--.HNZ" depth="0.0">
			<acc value="0.0196962032035091" flag="0"/>
			<vel value="0.0081353896830699" flag="0"/>
			<psa03 value="0.0441457994425432" flag="0"/>
			<psa10 value="0.00999935490817391" flag="0"/>
			<psa30 value="0.00345712985122063" flag="0"/>
		</comp>
	</station>
	<station code="CORS" name="CORS" netid="HA" source="Hellenic Seismological Network, University of Athens, Seismological Laboratory (HA)" insttype="" lat="38.2562" lon="22.0748">
		<comp name="00.HNE" depth="0.0">
			<acc value="0.0149941099467001" flag="0"/>
			<vel value="0.0126380240640356" flag="0"/>
			<psa03 value="0.0451229683419423" flag="0"/>
			<psa10 value="0.0182376362789084" flag="0"/>
			<psa30 value="0.00242811543406486" flag="0"/>
		</comp>
		<comp name="00.HNN" depth="0.0">
			<acc value="0.0126481889965341" flag="0"/>
			<vel value="0.0109570836867691" flag="0"/>
			<psa03 value="0.0295629844443162" flag="0"/>
			<psa10 value="0.0162079061942418" flag="0"/>
			<psa30 value="0.00382724895312668" flag="0"/>
		</comp>
		<comp name="00.HNZ" depth="0.0">
			<acc value="0.00940485940729771" flag="0"/>
			<vel value="0.00627233579597395" flag="0"/>
			<psa03 value="0.0198473981260621" flag="0"/>
			<psa10 value="0.00716981777772566" flag="0"/>
			<psa30 value="0.0014572790375829" flag="0"/>
		</comp>
	</station>
	<station code="DRES" name="DRES" netid="HA" source="Hellenic Seismological Network, University of Athens, Seismological Laboratory (HA)" insttype="" lat="38.319719" lon="21.853176">
		<comp name="--.HNE" depth="0.0">
			<acc value="0.0201711445794095" flag="0"/>
			<vel value="0.0107221363154017" flag="0"/>
			<psa03 value="0.0534688285059761" flag="0"/>
			<psa10 value="0.0119438221571143" flag="0"/>
			<psa30 value="0.00257726531451353" flag="0"/>
		</comp>
		<comp name="--.HNN" depth="0.0">
			<acc value="0.0121159425394402" flag="0"/>
			<vel value="0.00761176403156371" flag="0"/>
			<psa03 value="0.0362438124330417" flag="0"/>
			<psa10 value="0.00849113343341189" flag="0"/>
			<psa30 value="0.00184158782948924" flag="0"/>
		</comp>
		<comp name="--.HNZ" depth="0.0">
			<acc value="0.0113949475213567" flag="0"/>
			<vel value="0.00385586795781765" flag="0"/>
			<psa03 value="0.0185533905293841" flag="0"/>
			<psa10 value="0.00651905591794683" flag="0"/>
			<psa30 value="0.00110126378665308" flag="0"/>
		</comp>
	</station>
	<station code="KIAS" name="KIAS" netid="HA" source="Hellenic Seismological Network, University of Athens, Seismological Laboratory (HA)" insttype="" lat="37.9875" lon="22.7543">
		<comp name="--.HNE" depth="0.0">
			<acc value="0.0106927335793086" flag="0"/>
			<vel value="0.0100498812215296" flag="0"/>
			<psa03 value="0.0290756578904809" flag="0"/>
			<psa10 value="0.0176349563543252" flag="0"/>
			<psa30 value="0.00614933319646611" flag="0"/>
		</comp>
		<comp name="--.HNN" depth="0.0">
			<acc value="0.0104648222714571" flag="0"/>
			<vel value="0.0107063436541248" flag="0"/>
			<psa03 value="0.0207374883401831" flag="0"/>
			<psa10 value="0.0101091331179625" flag="0"/>
			<psa30 value="0.00439978021384599" flag="0"/>
		</comp>
		<comp name="--.HNZ" depth="0.0">
			<acc value="0.00756700488888986" flag="0"/>
			<vel value="0.00548798969964746" flag="0"/>
			<psa03 value="0.0196582579922827" flag="0"/>
			<psa10 value="0.00963230028010559" flag="0"/>
			<psa30 value="0.00245533036191937" flag="0"/>
		</comp>
	</station>
	<station code="LTRS" name="LTRS" netid="HA" source="Hellenic Seismological Network, University of Athens, Seismological Laboratory (HA)" insttype="" lat="37.97528" lon="22.9765">
		<comp name="--.HNE" depth="0.0">
			<acc value="0.00935618751587129" flag="0"/>
			<vel value="0.00812475663040343" flag="0"/>
			<psa03 value="0.0365925620984694" flag="0"/>
			<psa10 value="0.0137995125874736" flag="0"/>
			<psa30 value="0.00286894838708433" flag="0"/>
		</comp>
		<comp name="--.HNN" depth="0.0">
			<acc value="0.00723960091732427" flag="0"/>
			<vel value="0.00716916818141293" flag="0"/>
			<psa03 value="0.0314612169637387" flag="0"/>
			<psa10 value="0.00987200772207285" flag="0"/>
			<psa30 value="0.00252845291426294" flag="0"/>
		</comp>
		<comp name="--.HNZ" depth="0.0">
			<acc value="0.0145661234369304" flag="0"/>
			<vel value="0.00545613979709252" flag="0"/>
			<psa03 value="0.0201346385084887" flag="0"/>
			<psa10 value="0.0101349563911351" flag="0"/>
			<psa30 value="0.00173556966047299" flag="0"/>
		</comp>
	</station>
	<station code="ARG2" name="ARG2" netid="HI" source="ITSAK Strong Motion Network" insttype="" lat="38.1783" lon="20.4878">
		<comp name="--.HNE" depth="0.0">
			<acc value="0.140150073898959" flag="0"/>
			<vel value="0.0420055882947635" flag="0"/>
			<psa03 value="0.164550629838464" flag="0"/>
			<psa10 value="0.0220362722948838" flag="0"/>
			<psa30 value="0.00213688176626192" flag="0"/>
		</comp>
		<comp name="--.HNN" depth="0.0">
			<acc value="0.112322537618028" flag="0"/>
			<vel value="0.035185069407981" flag="0"/>
			<psa03 value="0.168264188343559" flag="0"/>
			<psa10 value="0.0313445595482205" flag="0"/>
			<psa30 value="0.00290694215398453" flag="0"/>
		</comp>
		<comp name="--.HNZ" depth="0.0">
			<acc value="0.0769999284860268" flag="0"/>
			<vel value="0.0272797711451145" flag="0"/>
			<psa03 value="0.149352518871569" flag="0"/>
			<psa10 value="0.014829139545214" flag="0"/>
			<psa30 value="0.00139124601738878" flag="0"/>
		</comp>
	</station>
	<station code="ART2" name="ART2" netid="HI" source="ITSAK Strong Motion Network" insttype="" lat="39.1474" lon="20.9937">
		<comp name="--.HNE" depth="0.0">
			<acc value="0.00427867891289983" flag="0"/>
			<vel value="0.00296750029151502" flag="0"/>
			<psa03 value="0.0101528659369275" flag="0"/>
			<psa10 value="0.00390245109635812" flag="0"/>
			<psa30 value="0.000768998286112425" flag="0"/>
		</comp>
		<comp name="--.HNN" depth="0.0">
			<acc value="0.00311459642821819" flag="0"/>
			<vel value="0.00210812609729159" flag="0"/>
			<psa03 value="0.00745483824750851" flag="0"/>
			<psa10 value="0.00343383481845582" flag="0"/>
			<psa30 value="0.00040003392215898" flag="0"/>
		</comp>
		<comp name="--.HNZ" depth="0.0">
			<acc value="0.00319942086226635" flag="0"/>
			<vel value="0.00219834801350928" flag="0"/>
			<psa03 value="0.00792660322354023" flag="0"/>
			<psa10 value="0.00350324886991889" flag="0"/>
			<psa30 value="0.000579297646460384" flag="0"/>
		</comp>
	</station>
	<station code="KLV1" name="KLV1" netid="HI" source="ITSAK Strong Motion Network" insttype="" lat="38.03256" lon="22.10797">
		<comp name="--.HNE" depth="0.0">
			<acc value="0.0216022424573374" flag="0"/>
			<vel value="0.00968605798991841" flag="0"/>
			<psa03 value="0.0807054140457335" flag="0"/>
			<psa10 value="0.00691075483485345" flag="0"/>
			<psa30 value="0.00188547198660123" flag="0"/>
		</comp>
		<comp name="--.HNN" depth="0.0">
			<acc value="0.0165630736020102" flag="0"/>
			<vel value="0.00912513908607221" flag="0"/>
			<psa03 value="0.0604809909436224" flag="0"/>
			<psa10 value="0.0100171573375309" flag="0"/>
			<psa30 value="0.00161742495896493" flag="0"/>
		</comp>
		<comp name="--.HNZ" depth="0.0">
			<acc value="0.0100178269584996" flag="0"/>
			<vel value="0.00597026403589458" flag="0"/>
			<psa03 value="0.0213409762349381" flag="0"/>
			<psa10 value="0.00669139014674105" flag="0"/>
			<psa30 value="0.00122539867664777" flag="0"/>
		</comp>
	</station>
	<station code="MSL1" name="MSL1" netid="HI" source="ITSAK Strong Motion Network" insttype="" lat="38.3727" lon="21.4243">
		<comp name="--.HNE" depth="0.0">
			<acc value="0.0342791682612741" flag="0"/>
			<vel value="0.026170796281995" flag="0"/>
			<psa03 value="0.11458228843098" flag="0"/>
			<psa10 value="0.059788009412025" flag="0"/>
			<psa30 value="0.00369770703827566" flag="0"/>
		</comp>
		<comp name="--.HNN" depth="0.0">
			<acc value="0.0384879603057772" flag="0"/>
			<vel value="0.0274184137566041" flag="0"/>
			<psa03 value="0.109643430005654" flag="0"/>
			<psa10 value="0.0601901673030563" flag="0"/>
			<psa30 value="0.00490965565726247" flag="0"/>
		</comp>
		<comp name="--.HNZ" depth="0.0">
			<acc value="0.0204303009845725" flag="0"/>
			<vel value="0.0115925563801966" flag="0"/>
			<psa03 value="0.0479246695657726" flag="0"/>
			<psa10 value="0.0222939706161542" flag="0"/>
			<psa30 value="0.00107408448615865" flag="0"/>
		</comp>
	</station>
	<station code="VAS2" name="VAS2" netid="HI" source="ITSAK Strong Motion Network" insttype="" lat="38.630558" lon="20.608081">
		<comp name="--.HNE" depth="0.0">
			<acc value="0.0649871404105811" flag="0"/>
			<vel value="0.0296905853799882" flag="0"/>
			<psa03 value="0.135755680647475" flag="0"/>
			<psa10 value="0.0599037983325079" flag="0"/>
			<psa30 value="0.00336815916568283" flag="0"/>
		</comp>
		<comp name="--.HNN" depth="0.0">
			<acc value="0.0534423111289056" flag="0"/>
			<vel value="0.03751154157006" flag="0"/>
			<psa03 value="0.165920397662041" flag="0"/>
			<psa10 value="0.0952062819489801" flag="0"/>
			<psa30 value="0.00405753629186647" flag="0"/>
		</comp>
		<comp name="--.HNZ" depth="0.0">
			<acc value="0.0304142549162253" flag="0"/>
			<vel value="0.0258117856945988" flag="0"/>
			<psa03 value="0.0838915990732421" flag="0"/>
			<psa10 value="0.0285223100880723" flag="0"/>
			<psa30 value="0.00161849232134141" flag="0"/>
		</comp>
	</station>
	<station code="ANX" name="ANX" netid="HP" source="University of Patras, Seismological Laboratory (PSLNET)" insttype="" lat="38.5933" lon="21.9209">
		<comp name="--.HNE" depth="0.0">
			<acc value="0.0133623456403383" flag="0"/>
			<vel value="0.0115328024837645" flag="0"/>
			<psa03 value="0.0503915152737175" flag="0"/>
			<psa10 value="0.0109512551544045" flag="0"/>
			<psa30 value="0.00130468288717059" flag="0"/>
		</comp>
		<comp name="--.HNN" depth="0.0">
			<acc value="0.0115801275942938" flag="0"/>
			<vel value="0.00857744106936056" flag="0"/>
			<psa03 value="0.0351294755928469" flag="0"/>
			<psa10 value="0.0112675848597102" flag="0"/>
			<psa30 value="0.0012963630651923" flag="0"/>
		</comp>
		<comp name="--.HNZ" depth="0.0">
			<acc value="0.00638880077727015" flag="0"/>
			<vel value="0.00494943052651998" flag="0"/>
			<psa03 value="0.0281324183221392" flag="0"/>
			<psa10 value="0.00661136547053295" flag="0"/>
			<psa30 value="0.00117261351322398" flag="0"/>
		</comp>
	</station>
	<station code="DSF" name="DSF" netid="HP" source="University of Patras, Seismological Laboratory (PSLNET)" insttype="" lat="38.4112" lon="22.5271">
		<comp name="--.HNE" depth="1.0">
			<acc value="0.00824808714422209" flag="0"/>
			<vel value="0.00275589926027707" flag="0"/>
			<psa03 value="0.0157295068463944" flag="0"/>
			<psa10 value="0.00223403096233755" flag="0"/>
			<psa30 value="0.000293435975151616" flag="0"/>
		</comp>
		<comp name="--.HNN" depth="1.0">
			<acc value="0.0157308390770709" flag="0"/>
			<vel value="0.00407827627129538" flag="0"/>
			<psa03 value="0.0245692083186264" flag="0"/>
			<psa10 value="0.00263185005027586" flag="0"/>
			<psa30 value="0.000734944259366285" flag="0"/>
		</comp>
		<comp name="--.HNZ" depth="1.0">
			<acc value="0.00777948287781451" flag="0"/>
			<vel value="0.00205143777725162" flag="0"/>
			<psa03 value="0.0168868426287852" flag="0"/>
			<psa10 value="0.00185869930158079" flag="0"/>
			<psa30 value="0.00035663802656046" flag="0"/>
		</comp>
	</station>
	<station code="FSK" name="FSK" netid="HP" source="University of Patras, Seismological Laboratory (PSLNET)" insttype="" lat="38.4593" lon="20.5623">
		<comp name="--.HNE" depth="0.0">
			<acc value="0.0416223092669442" flag="0"/>
			<vel value="0.0147740831606547" flag="0"/>
			<psa03 value="0.0523106319893005" flag="0"/>
			<psa10 value="0.0200788282488298" flag="0"/>
			<psa30 value="0.00169944622580369" flag="0"/>
		</comp>
		<comp name="--.HNN" depth="0.0">
			<acc value="0.0220754077116443" flag="0"/>
			<vel value="0.0120303382372445" flag="0"/>
			<psa03 value="0.0219149100885517" flag="0"/>
			<psa10 value="0.0139848498651687" flag="0"/>
			<psa30 value="0.00125282851457331" flag="0"/>
		</comp>
		<comp name="--.HNZ" depth="0.0">
			<acc value="0.0161372469434656" flag="0"/>
			<vel value="0.00565458084038412" flag="0"/>
			<psa03 value="0.0278105818978757" flag="0"/>
			<psa10 value="0.00683256449885377" flag="0"/>
			<psa30 value="0.00071546984428452" flag="0"/>
		</comp>
	</station>
	<station code="GUR" name="GUR" netid="HP" source="University of Patras, Seismological Laboratory (PSLNET)" insttype="" lat="37.9363" lon="22.3423">
		<comp name="--.HNE" depth="0.0">
			<acc value="0.016663651704176" flag="0"/>
			<vel value="0.00880847109923312" flag="0"/>
			<psa03 value="0.0524112115686704" flag="0"/>
			<psa10 value="0.0077896785279745" flag="0"/>
			<psa30 value="0.000639675448277046" flag="0"/>
		</comp>
		<comp name="--.HNN" depth="0.0">
			<acc value="0.0149995840755995" flag="0"/>
			<vel value="0.00896844676214592" flag="0"/>
			<psa03 value="0.0521342244698184" flag="0"/>
			<psa10 value="0.00865165906747212" flag="0"/>
			<psa30 value="0.00066058766694239" flag="0"/>
		</comp>
		<comp name="--.HNZ" depth="0.0">
			<acc value="0.0091643424153897" flag="0"/>
			<vel value="0.00479957771091532" flag="0"/>
			<psa03 value="0.0245660284204727" flag="0"/>
			<psa10 value="0.00546129459646207" flag="0"/>
			<psa30 value="0.000454781324948507" flag="0"/>
		</comp>
	</station>
	<station code="LTHK" name="LTHK" netid="HP" source="University of Patras, Seismological Laboratory (PSLNET)" insttype="" lat="37.7095" lon="20.8367">
		<comp name="--.HNE" depth="0.0">
			<acc value="2.28489009883333" flag="0"/>
			<vel value="0.332523096063965" flag="0"/>
			<psa03 value="0.901530805324089" flag="0"/>
			<psa10 value="0.148876492336776" flag="0"/>
			<psa30 value="0.0107246054524621" flag="0"/>
		</comp>
		<comp name="--.HNN" depth="0.0">
			<acc value="1.57286369726862" flag="0"/>
			<vel value="0.451590521828416" flag="0"/>
			<psa03 value="1.10260204197231" flag="0"/>
			<psa10 value="0.274222125869935" flag="0"/>
			<psa30 value="0.0225660948930361" flag="0"/>
		</comp>
		<comp name="--.HNZ" depth="0.0">
			<acc value="1.74010366263165" flag="0"/>
			<vel value="0.241949092464469" flag="0"/>
			<psa03 value="0.487073599568883" flag="0"/>
			<psa10 value="0.0757414950022087" flag="0"/>
			<psa30 value="0.00508507061097974" flag="0"/>
		</comp>
	</station>
	<station code="LTK" name="LTK" netid="HP" source="University of Patras, Seismological Laboratory (PSLNET)" insttype="" lat="38.0228" lon="22.9673">
		<comp name="--.HNE" depth="0.0">
			<acc value="0.00335569115745798" flag="0"/>
			<vel value="0.00248656015646633" flag="0"/>
			<psa03 value="0.0127628741236028" flag="0"/>
			<psa10 value="0.00302332278029464" flag="0"/>
			<psa30 value="0.000781582869781137" flag="0"/>
		</comp>
		<comp name="--.HNN" depth="0.0">
			<acc value="0.00379516979169622" flag="0"/>
			<vel value="0.00326474888490667" flag="0"/>
			<psa03 value="0.0135628815472718" flag="0"/>
			<psa10 value="0.00402625218819684" flag="0"/>
			<psa30 value="0.00181117414806367" flag="0"/>
		</comp>
		<comp name="--.HNZ" depth="0.0">
			<acc value="0.00512506160096293" flag="0"/>
			<vel value="0.00213951639742836" flag="0"/>
			<psa03 value="0.0140944206653669" flag="0"/>
			<psa10 value="0.00240339851022946" flag="0"/>
			<psa30 value="0.000847539687013128" flag="0"/>
		</comp>
	</station>
	<station code="PDO" name="PDO" netid="HP" source="University of Patras, Seismological Laboratory (PSLNET)" insttype="" lat="38.5986" lon="21.1833">
		<comp name="--.HNE" depth="0.0">
			<acc value="0.0337726847248688" flag="0"/>
			<vel value="0.0150338212571754" flag="0"/>
			<psa03 value="0.139574496125172" flag="0"/>
			<psa10 value="0.0165202700117973" flag="0"/>
			<psa30 value="0.0010154665405078" flag="0"/>
		</comp>
		<comp name="--.HNN" depth="0.0">
			<acc value="0.0598002583541513" flag="0"/>
			<vel value="0.020102407751303" flag="0"/>
			<psa03 value="0.205323309995157" flag="0"/>
			<psa10 value="0.0138750969695676" flag="0"/>
			<psa30 value="0.00117282467304351" flag="0"/>
		</comp>
		<comp name="--.HNZ" depth="0.0">
			<acc value="0.0371610688475521" flag="0"/>
			<vel value="0.016241405314761" flag="0"/>
			<psa03 value="0.0738292814525139" flag="0"/>
			<psa10 value="0.00760728519529695" flag="0"/>
			<psa30 value="0.000751809126579891" flag="0"/>
		</comp>
	</station>
	<station code="PVO" name="PVO" netid="HP" source="University of Patras, Seismological Laboratory (PSLNET)" insttype="" lat="38.616" lon="21.525">
		<comp name="--.HNE" depth="0.0">
			<acc value="0.0200025047025705" flag="0"/>
			<vel value="0.00858639566135004" flag="0"/>
			<psa03 value="0.0493253508957727" flag="0"/>
			<psa10 value="0.0084446856689644" flag="0"/>
			<psa30 value="0.00099698021171297" flag="0"/>
		</comp>
		<comp name="--.HNN" depth="0.0">
			<acc value="0.0208945468886286" flag="0"/>
			<vel value="0.0102432644519995" flag="0"/>
			<psa03 value="0.0634026011527795" flag="0"/>
			<psa10 value="0.00720360095322431" flag="0"/>
			<psa30 value="0.00074850552231873" flag="0"/>
		</comp>
		<comp name="--.HNZ" depth="0.0">
			<acc value="0.0232666378198689" flag="0"/>
