<?xml version="1.0" encoding="UTF-8" standalone="yes"?>
<!DOCTYPE earthquake SYSTEM "stationlist.dtd">
<stationlist created="" xmlns="ch.ethz.sed.shakemap.usgs.xml">
  <station code="KLV" name="KLV" netid="MN" insttype="" lat="38.0437" lon="22.1504">
    <comp name="--.HHN">
      <acc value="0.0068869148" flag="0"/>
      <vel value="0.0040676201" flag="0"/>
      <psa03 value="0.0184481393" flag="0"/>
      <psa10 value="0.0056208327" flag="0"/>
      <psa30 value="0.0010386629" flag="0"/>
    </comp>
    <comp name="--.HHE">
      <acc value="0.0052010548" flag="0"/>
      <vel value="0.0035675090" flag="0"/>
      <psa03 value="0.0186397070" flag="0"/>
      <psa10 value="0.0052858950" flag="0"/>
      <psa30 value="0.0006333793" flag="0"/>
    </comp>
    <comp name="--.HHZ">
      <acc value="0.0071662243" flag="0"/>
      <vel value="0.0038139465" flag="0"/>
      <psa03 value="0.0202655104" flag="0"/>
      <psa10 value="0.0062750897" flag="0"/>
      <psa30 value="0.0006664344" flag="0"/>
    </comp>
  </station>
</stationlist>
