<stationlist xmlns:esm="https://esm-db.eu/esmws/shakemap/1/" created="1784080459">
	<station code="AGRP" name="AGRP" netid="CL" source="Corinth Riff Laboratory (CRLNET)" insttype="" lat="38.3959" lon="21.72277" esm:processing="automatic (Paolucci et al 2011)" esm:quality="good">
		<comp name="00.HNE" depth="0.0">
			<acc value="0.0112731010222574" flag="0"/>
			<vel value="0.00580770632294989" flag="0"/>
			<psa03 value="0.0217661046580254" flag="0"/>
			<psa10 value="0.00668238158121598" flag="0"/>
			<psa30 value="0.00107869541661043" flag="0"/>
		</comp>
		<comp name="00.HNN" depth="0.0">
			<acc value="0.0124016027805176" flag="0"/>
			<vel value="0.00560944044157253" flag="0"/>
			<psa03 value="0.0319920255646855" flag="0"/>
			<psa10 value="0.0111179705734698" flag="0"/>
			<psa30 value="0.00138687249849461" flag="0"/>
		</comp>
		<comp name="00.HNZ" depth="0.0">
			<acc value="0.00944227249315105" flag="0"/>
			<vel value="0.00443196453598046" flag="0"/>
			<psa03 value="0.0150821319297063" flag="0"/>
			<psa10 value="0.00544070807644822" flag="0"/>
			<psa30 value="0.00134054234601991" flag="0"/>
		</comp>
	</station>
	<station code="ROD3" name="ROD3" netid="CL" source="Corinth Riff Laboratory (CRLNET)" insttype="" lat="38.30811" lon="21.89204" esm:processing="automatic (Paolucci et al 2011)" esm:quality="good">
		<comp name="00.HNE" depth="0.0">
			<acc value="0.0340632108979355" flag="0"/>
			<vel value="0.0167355559839873" flag="0"/>
			<psa03 value="0.142155219168996" flag="0"/>
			<psa10 value="0.0124759908481633" flag="0"/>
			<psa30 value="0.00245930583360679" flag="0"/>
		</comp>
		<comp name="00.HNN" depth="0.0">
			<acc value="0.0422840690898169" flag="0"/>
			<vel value="0.0160739818083306" flag="0"/>
			<psa03 value="0.0952295376563175" flag="0"/>
			<psa10 value="0.0172876327208156" flag="0"/>
			<psa30 value="0.00266767901230784" flag="0"/>
		</comp>
		<comp name="00.HNZ" depth="0.0">
			<acc value="0.0241397499698063" flag="0"/>
			<vel value="0.00738832458353326" flag="0"/>
			<psa03 value="0.0385393837742002" flag="0"/>
			<psa10 value="0.00714644107289796" flag="0"/>
			<psa30 value="0.00105928475575032" flag="0"/>
		</comp>
	</station>
	<station code="AIGS" name="AIGS" netid="HA" source="Hellenic Seismological Network, University of Athens, Seismological Laboratory (HA)" insttype="" lat="38.25001" lon="22.0878" esm:processing="manual (Paolucci et al 2011)" esm:quality="good">
		<comp name="--.HNE" depth="0.0">
			<acc value="0.0189920604806424" flag="0"/>
			<vel value="0.0130424606572612" flag="0"/>
			<psa03 value="0.0637431132934207" flag="0"/>
			<psa10 value="0.00827386091517962" flag="0"/>
			<psa30 value="0.00585626669892773" flag="0"/>
		</comp>
		<comp name="--.HNN" depth="0.0">
			<acc value="0.0180762332721724" flag="0"/>
			<vel value="0.00953552336098823" flag="0"/>
			<psa03 value="0.049189852336306" flag="0"/>
			<psa10 value="0.00813505203227237" flag="0"/>
			<psa30 value="0.00262080486546009" flag="0"/>
		</comp>
		<comp name="--.HNZ" depth="0.0">
			<acc value="0.0197470359882042" flag="0"/>
			<vel value="0.00752625504592528" flag="0"/>
			<psa03 value="0.0442365658720539" flag="0"/>
			<psa10 value="0.00997709343347493" flag="0"/>
			<psa30 value="0.00290373110793513" flag="0"/>
		</comp>
	</station>
	<station code="CORS" name="CORS" netid="HA" source="Hellenic Seismological Network, University of Athens, Seismological Laboratory (HA)" insttype="" lat="38.2562" lon="22.0748" esm:processing="manual (Paolucci et al 2011)" esm:quality="good">
		<comp name="00.HNE" depth="0.0">
			<acc value="0.0149941099467001" flag="0"/>
			<vel value="0.0126380240640356" flag="0"/>
			<psa03 value="0.0452237927293214" flag="0"/>
			<psa10 value="0.018248590754578" flag="0"/>
			<psa30 value="0.00244955581271746" flag="0"/>
		</comp>
		<comp name="00.HNN" depth="0.0">
			<acc value="0.0126481889965341" flag="0"/>
			<vel value="0.0109570836867691" flag="0"/>
			<psa03 value="0.0296156572044437" flag="0"/>
			<psa10 value="0.0162104244860656" flag="0"/>
			<psa30 value="0.00387469876311035" flag="0"/>
		</comp>
		<comp name="00.HNZ" depth="0.0">
			<acc value="0.00940485940729771" flag="0"/>
			<vel value="0.00627233579597395" flag="0"/>
			<psa03 value="0.0198944298875099" flag="0"/>
			<psa10 value="0.00717461575183237" flag="0"/>
			<psa30 value="0.00148524307756469" flag="0"/>
		</comp>
	</station>
	<station code="DRES" name="DRES" netid="HA" source="Hellenic Seismological Network, University of Athens, Seismological Laboratory (HA)" insttype="" lat="38.319719" lon="21.853176" esm:processing="manual (Paolucci et al 2011)" esm:quality="good">
		<comp name="--.HNE" depth="0.0">
			<acc value="0.0201711445794095" flag="0"/>
			<vel value="0.0107221363154017" flag="0"/>
			<psa03 value="0.0535267542181046" flag="0"/>
			<psa10 value="0.0119156081005579" flag="0"/>
			<psa30 value="0.00235442784428975" flag="0"/>
		</comp>
		<comp name="--.HNN" depth="0.0">
			<acc value="0.0121159425394402" flag="0"/>
			<vel value="0.00761176403156371" flag="0"/>
			<psa03 value="0.0362869272683445" flag="0"/>
			<psa10 value="0.00850982748430677" flag="0"/>
			<psa30 value="0.00164771488219105" flag="0"/>
		</comp>
		<comp name="--.HNZ" depth="0.0">
			<acc value="0.0113949475213567" flag="0"/>
			<vel value="0.00385586795781765" flag="0"/>
			<psa03 value="0.018607086794848" flag="0"/>
			<psa10 value="0.00651086865684483" flag="0"/>
			<psa30 value="0.000997851206911924" flag="0"/>
		</comp>
	</station>
	<station code="AGR3" name="AGR3" netid="HI" source="ITSAK Strong Motion Network" insttype="" lat="38.5893" lon="21.4162" esm:processing="manual (Paolucci et al 2011)" esm:quality="good">
		<comp name="--.HNE" depth="0.0">
			<acc value="0.0277807990120249" flag="0"/>
			<vel value="0.018968756137123" flag="0"/>
			<psa03 value="0.0811345101797785" flag="0"/>
			<psa10 value="0.0246471258761275" flag="0"/>
			<psa30 value="0.00332741021626341" flag="0"/>
		</comp>
		<comp name="--.HNN" depth="0.0">
			<acc value="0.02983846536402" flag="0"/>
			<vel value="0.0236680748484032" flag="0"/>
			<psa03 value="0.0797902805061598" flag="0"/>
			<psa10 value="0.0374504871609769" flag="0"/>
			<psa30 value="0.00304584468892908" flag="0"/>
		</comp>
		<comp name="--.HNZ" depth="0.0">
			<acc value="0.0181445458387686" flag="0"/>
			<vel value="0.0107109150762755" flag="0"/>
			<psa03 value="0.0346997934826871" flag="0"/>
			<psa10 value="0.0252086411987618" flag="0"/>
			<psa30 value="0.0022983314198436" flag="0"/>
		</comp>
	</station>
	<station code="AKR1" name="AKR1" netid="HI" source="ITSAK Strong Motion Network" insttype="" lat="38.153583" lon="22.31326" esm:processing="manual (Paolucci et al 2011)" esm:quality="good">
		<comp name="--.HNE" depth="0.0">
			<acc value="0.0130941583171505" flag="0"/>
			<vel value="0.0073738794077247" flag="0"/>
			<psa03 value="0.0442892776972869" flag="0"/>
			<psa10 value="0.0102992463370237" flag="0"/>
			<psa30 value="0.00144750891119469" flag="0"/>
		</comp>
		<comp name="--.HNN" depth="0.0">
			<acc value="0.0164130055949514" flag="0"/>
			<vel value="0.00897524696472013" flag="0"/>
			<psa03 value="0.0532047172597366" flag="0"/>
			<psa10 value="0.00956808852640713" flag="0"/>
			<psa30 value="0.00225516522696184" flag="0"/>
		</comp>
		<comp name="--.HNZ" depth="0.0">
			<acc value="0.00915539630597223" flag="0"/>
			<vel value="0.00510979271062886" flag="0"/>
			<psa03 value="0.0191717544096395" flag="0"/>
			<psa10 value="0.00822981612242827" flag="0"/>
			<psa30 value="0.000881598818261714" flag="0"/>
		</comp>
	</station>
	<station code="AOL1" name="AOL1" netid="HI" source="ITSAK Strong Motion Network" insttype="" lat="37.642378" lon="21.624555" esm:processing="manual (Paolucci et al 2011)" esm:quality="good">
		<comp name="--.HNE" depth="0.0">
			<acc value="0.205433463913469" flag="0"/>
			<vel value="0.0692423014473209" flag="0"/>
			<psa03 value="0.527349142625937" flag="0"/>
			<psa10 value="0.0224119290553079" flag="0"/>
			<psa30 value="0.00238391917294554" flag="0"/>
		</comp>
		<comp name="--.HNN" depth="0.0">
			<acc value="0.276135042476753" flag="0"/>
			<vel value="0.0710095235027071" flag="0"/>
			<psa03 value="0.32398594164526" flag="0"/>
			<psa10 value="0.0338084558942797" flag="0"/>
			<psa30 value="0.0028332841495032" flag="0"/>
		</comp>
		<comp name="--.HNZ" depth="0.0">
			<acc value="0.141278485388925" flag="0"/>
			<vel value="0.0396681850866413" flag="0"/>
			<psa03 value="0.254536361784769" flag="0"/>
			<psa10 value="0.0152027758592893" flag="0"/>
			<psa30 value="0.00109734977737057" flag="0"/>
		</comp>
	</station>
	<station code="ARG2" name="ARG2" netid="HI" source="ITSAK Strong Motion Network" insttype="" lat="38.1783" lon="20.4878" esm:processing="manual (Paolucci et al 2011)" esm:quality="good">
		<comp name="--.HNE" depth="0.0">
			<acc value="0.140150073898959" flag="0"/>
			<vel value="0.0420055882947635" flag="0"/>
			<psa03 value="0.164550629838464" flag="0"/>
			<psa10 value="0.0220362722948838" flag="0"/>
			<psa30 value="0.00213688176626192" flag="0"/>
		</comp>
		<comp name="--.HNN" depth="0.0">
			<acc value="0.112322537618028" flag="0"/>
			<vel value="0.035185069407981" flag="0"/>
			<psa03 value="0.168264188343559" flag="0"/>
			<psa10 value="0.0313445595482205" flag="0"/>
			<psa30 value="0.00290694215398453" flag="0"/>
		</comp>
		<comp name="--.HNZ" depth="0.0">
			<acc value="0.0769999284860268" flag="0"/>
			<vel value="0.0272797711451145" flag="0"/>
			<psa03 value="0.149352518871569" flag="0"/>
			<psa10 value="0.014829139545214" flag="0"/>
			<psa30 value="0.00139124601738878" flag="0"/>
		</comp>
	</station>
	<station code="ART2" name="ART2" netid="HI" source="ITSAK Strong Motion Network" insttype="" lat="39.1474" lon="20.9937" esm:processing="manual (Paolucci et al 2011)" esm:quality="bad">
		<comp name="--.HNE" depth="0.0">
			<acc value="0.00427867891289983" flag="0"/>
			<vel value="0.00296750029151502" flag="0"/>
			<psa03 value="0.0101528659369275" flag="0"/>
			<psa10 value="0.00390245109635812" flag="0"/>
			<psa30 value="0.000768998286112425" flag="0"/>
		</comp>
		<comp name="--.HNN" depth="0.0">
			<acc value="0.00311459642821819" flag="0"/>
			<vel value="0.00210812609729159" flag="0"/>
			<psa03 value="0.00745483824750851" flag="0"/>
			<psa10 value="0.00343383481845582" flag="0"/>
			<psa30 value="0.00040003392215898" flag="0"/>
		</comp>
		<comp name="--.HNZ" depth="0.0">
			<acc value="0.00319942086226635" flag="0"/>
			<vel value="0.00219834801350928" flag="0"/>
			<psa03 value="0.00792660322354023" flag="0"/>
			<psa10 value="0.00350324886991889" flag="0"/>
			<psa30 value="0.000579297646460384" flag="0"/>
		</comp>
	</station>
	<station code="AST1" name="AST1" netid="HI" source="ITSAK Strong Motion Network" insttype="" lat="38.5416" lon="21.0895" esm:processing="manual (Paolucci et al 2011)" esm:quality="good">
		<comp name="--.HNE" depth="0.0">
			<acc value="0.0299655222629859" flag="0"/>
			<vel value="0.0129654284899139" flag="0"/>
			<psa03 value="0.0602155254413713" flag="0"/>
			<psa10 value="0.0139331536280475" flag="0"/>
			<psa30 value="0.0010214063089885" flag="0"/>
		</comp>
		<comp name="--.HNN" depth="0.0">
			<acc value="0.0242980221751379" flag="0"/>
			<vel value="0.00819369460504015" flag="0"/>
			<psa03 value="0.0466913639070428" flag="0"/>
			<psa10 value="0.0113171106405384" flag="0"/>
			<psa30 value="0.000594300515325798" flag="0"/>
		</comp>
		<comp name="--.HNZ" depth="0.0">
			<acc value="0.0159640096113203" flag="0"/>
			<vel value="0.00738534844937807" flag="0"/>
			<psa03 value="0.0378502495807753" flag="0"/>
			<psa10 value="0.0122202529692853" flag="0"/>
			<psa30 value="0.000631478394844523" flag="0"/>
		</comp>
	</station>
	<station code="IGM2" name="IGM2" netid="HI" source="ITSAK Strong Motion Network" insttype="" lat="39.486153" lon="20.259241" esm:processing="manual (Paolucci et al 2011)" esm:quality="good">
		<comp name="--.HNE" depth="0.0">
			<acc value="0.0119625825912001" flag="0"/>
			<vel value="0.0125618827412637" flag="0"/>
			<psa03 value="0.0242027751900753" flag="0"/>
			<psa10 value="0.0282887296145031" flag="0"/>
			<psa30 value="0.000839677759947338" flag="0"/>
		</comp>
		<comp name="--.HNN" depth="0.0">
			<acc value="0.0128771832099177" flag="0"/>
			<vel value="0.015346042622206" flag="0"/>
			<psa03 value="0.0207127510243524" flag="0"/>
			<psa10 value="0.024668639176278" flag="0"/>
			<psa30 value="0.00117163709437407" flag="0"/>
		</comp>
		<comp name="--.HNZ" depth="0.0">
			<acc value="0.00514012096095443" flag="0"/>
			<vel value="0.00306866545582402" flag="0"/>
			<psa03 value="0.0155464452402825" flag="0"/>
			<psa10 value="0.00389697620242304" flag="0"/>
			<psa30 value="0.000364336036516017" flag="0"/>
		</comp>
	</station>
	<station code="ITE1" name="ITE1" netid="HI" source="ITSAK Strong Motion Network" insttype="" lat="38.4338" lon="22.4272" esm:processing="manual (Paolucci et al 2011)" esm:quality="good">
		<comp name="--.HNE" depth="0.0">
			<acc value="0.0212308312412027" flag="0"/>
			<vel value="0.0118741043447793" flag="0"/>
			<psa03 value="0.0561465163061525" flag="0"/>
			<psa10 value="0.0076518437720966" flag="0"/>
			<psa30 value="0.000867095878346454" flag="0"/>
		</comp>
		<comp name="--.HNN" depth="0.0">
			<acc value="0.0261842506658574" flag="0"/>
			<vel value="0.0152817938831535" flag="0"/>
			<psa03 value="0.0874324273858849" flag="0"/>
			<psa10 value="0.0105623234520915" flag="0"/>
			<psa30 value="0.00130888587393214" flag="0"/>
		</comp>
		<comp name="--.HNZ" depth="0.0">
			<acc value="0.0124886253043839" flag="0"/>
			<vel value="0.00414681197052097" flag="0"/>
			<psa03 value="0.0344789194758682" flag="0"/>
			<psa10 value="0.0028932590079599" flag="0"/>
			<psa30 value="0.000541465661109339" flag="0"/>
		</comp>
	</station>
	<station code="KAC1" name="KAC1" netid="HI" source="ITSAK Strong Motion Network" insttype="" lat="38.143412" lon="21.549694" esm:processing="manual (Paolucci et al 2011)" esm:quality="good">
		<comp name="--.HNE" depth="0.0">
			<acc value="0.0436281411789318" flag="0"/>
			<vel value="0.0331643224135101" flag="0"/>
			<psa03 value="0.178629875019217" flag="0"/>
			<psa10 value="0.040734939739841" flag="0"/>
			<psa30 value="0.00517398691790736" flag="0"/>
		</comp>
		<comp name="--.HNN" depth="0.0">
			<acc value="0.0562843605880731" flag="0"/>
			<vel value="0.0272701165143989" flag="0"/>
			<psa03 value="0.225940029918126" flag="0"/>
			<psa10 value="0.0279685446538208" flag="0"/>
			<psa30 value="0.00543056016462576" flag="0"/>
		</comp>
		<comp name="--.HNZ" depth="0.0">
			<acc value="0.0298768315761856" flag="0"/>
			<vel value="0.0154389448506481" flag="0"/>
			<psa03 value="0.0676332459956204" flag="0"/>
			<psa10 value="0.0183383604513799" flag="0"/>
			<psa30 value="0.00354687871330758" flag="0"/>
		</comp>
	</station>
	<station code="KLV1" name="KLV1" netid="HI" source="ITSAK Strong Motion Network" insttype="" lat="38.03256" lon="22.10797" esm:processing="manual (Paolucci et al 2011)" esm:quality="good">
		<comp name="--.HNE" depth="0.0">
			<acc value="0.0216022424573374" flag="0"/>
			<vel value="0.00968605798991841" flag="0"/>
			<psa03 value="0.0807054140457335" flag="0"/>
			<psa10 value="0.00691075483485345" flag="0"/>
			<psa30 value="0.00188547198660123" flag="0"/>
		</comp>
		<comp name="--.HNN" depth="0.0">
			<acc value="0.0165630736020102" flag="0"/>
			<vel value="0.00912513908607221" flag="0"/>
			<psa03 value="0.0604809909436224" flag="0"/>
			<psa10 value="0.0100171573375309" flag="0"/>
			<psa30 value="0.00161742495896493" flag="0"/>
		</comp>
		<comp name="--.HNZ" depth="0.0">
			<acc value="0.0100178269584996" flag="0"/>
			<vel value="0.00597026403589458" flag="0"/>
			<psa03 value="0.0213409762349381" flag="0"/>
			<psa10 value="0.00669139014674105" flag="0"/>
			<psa30 value="0.00122539867664777" flag="0"/>
		</comp>
	</station>
	<station code="KOR2" name="KOR2" netid="HI" source="ITSAK Strong Motion Network" insttype="" lat="37.9401" lon="22.9495" esm:processing="manual (Paolucci et al 2011)" esm:quality="good">
		<comp name="--.HNE" depth="0.0">
			<acc value="0.00960704109467634" flag="0"/>
			<vel value="0.00830409964515714" flag="0"/>
			<psa03 value="0.0376257138730533" flag="0"/>
			<psa10 value="0.0112142703903766" flag="0"/>
			<psa30 value="0.00451287895608278" flag="0"/>
		</comp>
		<comp name="--.HNN" depth="0.0">
			<acc value="0.00980179972389864" flag="0"/>
			<vel value="0.00855111441061889" flag="0"/>
			<psa03 value="0.0311973401081736" flag="0"/>
			<psa10 value="0.00992791548817741" flag="0"/>
			<psa30 value="0.00279450095530692" flag="0"/>
		</comp>
		<comp name="--.HNZ" depth="0.0">
			<acc value="0.00622602642699186" flag="0"/>
			<vel value="0.00521037709281047" flag="0"/>
			<psa03 value="0.0176757008763519" flag="0"/>
			<psa10 value="0.00749839626320221" flag="0"/>
			<psa30 value="0.0011064801738812" flag="0"/>
		</comp>
	</station>
	<station code="KYP2" name="KYP2" netid="HI" source="ITSAK Strong Motion Network" insttype="" lat="37.2497" lon="21.667" esm:processing="manual (Paolucci et al 2011)" esm:quality="good">
		<comp name="--.HNE" depth="0.0">
			<acc value="0.0532681765906503" flag="0"/>
			<vel value="0.0151303189560443" flag="0"/>
			<psa03 value="0.0963505910871287" flag="0"/>
			<psa10 value="0.010740887781102" flag="0"/>
			<psa30 value="0.000977294428459573" flag="0"/>
		</comp>
		<comp name="--.HNN" depth="0.0">
			<acc value="0.0668806121469588" flag="0"/>
			<vel value="0.0129195510236046" flag="0"/>
			<psa03 value="0.0654345586767095" flag="0"/>
			<psa10 value="0.00652424860570077" flag="0"/>
			<psa30 value="0.00116363614768395" flag="0"/>
		</comp>
		<comp name="--.HNZ" depth="0.0">
			<acc value="0.0288166608421727" flag="0"/>
			<vel value="0.0086561998253" flag="0"/>
			<psa03 value="0.0431599216329903" flag="0"/>
			<psa10 value="0.00563930529504952" flag="0"/>
			<psa30 value="0.000842054740327289" flag="0"/>
		</comp>
	</station>
	<station code="LEF2" name="LEF2" netid="HI" source="ITSAK Strong Motion Network" insttype="" lat="38.830093" lon="20.708346" esm:processing="manual (Paolucci et al 2011)" esm:quality="good">
		<comp name="--.HNE" depth="0.0">
			<acc value="0.0338078041836278" flag="0"/>
			<vel value="0.0279590113615228" flag="0"/>
			<psa03 value="0.0812230056255008" flag="0"/>
			<psa10 value="0.0357839367601919" flag="0"/>
			<psa30 value="0.00495193012440126" flag="0"/>
		</comp>
		<comp name="--.HNN" depth="0.0">
			<acc value="0.0396790148066637" flag="0"/>
			<vel value="0.0313012901074278" flag="0"/>
			<psa03 value="0.106668180826813" flag="0"/>
			<psa10 value="0.0393882067753916" flag="0"/>
			<psa30 value="0.004877643953307" flag="0"/>
		</comp>
		<comp name="--.HNZ" depth="0.0">
			<acc value="0.0228515970296759" flag="0"/>
			<vel value="0.0217786948666142" flag="0"/>
			<psa03 value="0.0565535484783696" flag="0"/>
			<psa10 value="0.0243809613690351" flag="0"/>
			<psa30 value="0.00274437284289882" flag="0"/>
		</comp>
	</station>
	<station code="LXR1" name="LXR1" netid="HI" source="ITSAK Strong Motion Network" insttype="" lat="38.201" lon="20.4374" esm:processing="manual (Paolucci et al 2011)" esm:quality="good">
		<comp name="--.HNE" depth="0.0">
			<acc value="0.177402596362537" flag="0"/>
			<vel value="0.0613414841264021" flag="0"/>
			<psa03 value="0.330692865112691" flag="0"/>
			<psa10 value="0.0709940030042785" flag="0"/>
			<psa30 value="0.00418349255251675" flag="0"/>
		</comp>
		<comp name="--.HNN" depth="0.0">
			<acc value="0.148172457529065" flag="0"/>
			<vel value="0.0580565074130624" flag="0"/>
			<psa03 value="0.331928488633351" flag="0"/>
			<psa10 value="0.0640120754858459" flag="0"/>
			<psa30 value="0.00572280744124023" flag="0"/>
		</comp>
		<comp name="--.HNZ" depth="0.0">
			<acc value="0.131947011343384" flag="0"/>
