<?xml version="1.0" encoding="UTF-8" standalone="yes"?>
<!DOCTYPE earthquake SYSTEM "stationlist.dtd">
<stationlist created="" xmlns="ch.ethz.sed.shakemap.usgs.xml">
  <station code="IMMV" name="IMMV" netid="GE" insttype="STS-2/N" lat="35.4606" lon="23.9811">
    <comp name="--.HHE">
      <acc value="0.0173920709" flag="0"/>
      <vel value="0.0076630004" flag="0"/>
      <psa03 value="0.0459546992" flag="0"/>
      <psa10 value="0.0074266198" flag="0"/>
      <psa30 value="0.0002807470" flag="0"/>
    </comp>
    <comp name="--.HHN">
      <acc value="0.0251437297" flag="0"/>
      <vel value="0.0100834397" flag="0"/>
      <psa03 value="0.0512285507" flag="0"/>
      <psa10 value="0.0050184352" flag="0"/>
      <psa30 value="0.0004819297" flag="0"/>
    </comp>
    <comp name="--.HHZ">
      <acc value="0.0170154281" flag="0"/>
      <vel value="0.0054575837" flag="0"/>
      <psa03 value="0.0415330926" flag="0"/>
      <psa10 value="0.0032678880" flag="0"/>
      <psa30 value="0.0002577925" flag="0"/>
    </comp>
  </station>
  <station code="IMOD" name="IMOD" netid="HC" insttype="120" lat="34.9731" lon="24.7995">
    <comp name="--.HHE">
      <acc value="0.0485293398" flag="0"/>
      <vel value="0.0185987212" flag="0"/>
      <psa03 value="0.1937868827" flag="0"/>
      <psa10 value="0.0131639764" flag="0"/>
      <psa30 value="0.0008227221" flag="0"/>
    </comp>
    <comp name="--.HHN">
      <acc value="0.0731195733" flag="0"/>
      <vel value="0.0320840430" flag="0"/>
      <psa03 value="0.1636828612" flag="0"/>
      <psa10 value="0.0216296901" flag="0"/>
      <psa30 value="0.0011704260" flag="0"/>
    </comp>
    <comp name="--.HHZ">
      <acc value="0.0480635575" flag="0"/>
      <vel value="0.0159294815" flag="0"/>
      <psa03 value="0.0948488205" flag="0"/>
      <psa10 value="0.0088371799" flag="0"/>
      <psa30 value="0.0004140996" flag="0"/>
    </comp>
  </station>
  <station code="KNSS" name="KNSS" netid="HC" insttype="60" lat="35.3042" lon="25.1802">
    <comp name="--.HHZ">
      <acc value="0.2616152820" flag="0"/>
      <vel value="0.0605104871" flag="0"/>
      <psa03 value="0.3208411993" flag="0"/>
      <psa10 value="0.0321648306" flag="0"/>
      <psa30 value="0.0021344277" flag="0"/>
    </comp>
    <comp name="--.HHN">
      <acc value="0.2617745841" flag="0"/>
      <vel value="0.1083615501" flag="0"/>
      <psa03 value="0.8270448944" flag="0"/>
      <psa10 value="0.0776941551" flag="0"/>
      <psa30 value="0.0057984963" flag="0"/>
    </comp>
    <comp name="--.HHE">
      <acc value="0.2955171421" flag="0"/>
      <vel value="0.1081573779" flag="0"/>
      <psa03 value="0.7308248296" flag="0"/>
      <psa10 value="0.0467507235" flag="0"/>
      <psa30 value="0.0032747832" flag="0"/>
    </comp>
  </station>
  <station code="PFKS" name="PFKS" netid="HC" insttype="120" lat="35.0429" lon="25.4733">
    <comp name="--.HHE">
      <acc value="0.4211278600" flag="0"/>
      <vel value="0.0767851537" flag="0"/>
      <psa03 value="0.1793432889" flag="0"/>
      <psa10 value="0.0230103452" flag="0"/>
      <psa30 value="0.0013700849" flag="0"/>
    </comp>
    <comp name="--.HHZ">
      <acc value="0.2009705613" flag="0"/>
      <vel value="0.0327916327" flag="0"/>
      <psa03 value="0.1209067162" flag="0"/>
      <psa10 value="0.0109294588" flag="0"/>
      <psa30 value="0.0006956100" flag="0"/>
    </comp>
    <comp name="--.HHN">
      <acc value="0.3696423152" flag="0"/>
      <vel value="0.0877645048" flag="0"/>
      <psa03 value="0.3003601531" flag="0"/>
      <psa10 value="0.0366806303" flag="0"/>
      <psa30 value="0.0023836010" flag="0"/>
    </comp>
  </station>
  <station code="CH01" name="CH01" netid="HI" insttype="CMG-5TD,ACCELEROMETER,GURALP" lat="35.517" lon="24.0208">
    <comp name="--.HNN">
      <acc value="0.0242791126" flag="0"/>
      <vel value="0.0065512205" flag="0"/>
      <psa03 value="0.0395336284" flag="0"/>
      <psa10 value="0.0074968866" flag="0"/>
      <psa30 value="0.0008230403" flag="0"/>
    </comp>
    <comp name="--.HNZ">
      <acc value="0.0155725325" flag="0"/>
      <vel value="0.0042145289" flag="0"/>
      <psa03 value="0.0154668630" flag="0"/>
      <psa10 value="0.0061295878" flag="0"/>
      <psa30 value="0.0003787053" flag="0"/>
    </comp>
    <comp name="--.HNE">
      <acc value="0.0195724926" flag="0"/>
      <vel value="0.0075059571" flag="0"/>
      <psa03 value="0.0396901652" flag="0"/>
      <psa10 value="0.0084652872" flag="0"/>
      <psa30 value="0.0006902550" flag="0"/>
    </comp>
  </station>
  <station code="SIT2" name="SIT2" netid="HI" insttype="CMG-5TD,ACCELEROMETER,GURALP" lat="35.2059" lon="26.107">
    <comp name="--.HNE">
      <acc value="0.0187461396" flag="0"/>
      <vel value="0.0144779105" flag="0"/>
      <psa03 value="0.0639189559" flag="0"/>
      <psa10 value="0.0089473767" flag="0"/>
      <psa30 value="0.0006274462" flag="0"/>
    </comp>
    <comp name="--.HNN">
      <acc value="0.0167648613" flag="0"/>
      <vel value="0.0128146471" flag="0"/>
      <psa03 value="0.0478485063" flag="0"/>
      <psa10 value="0.0090767416" flag="0"/>
      <psa30 value="0.0004999557" flag="0"/>
    </comp>
    <comp name="--.HNZ">
      <acc value="0.0175579026" flag="0"/>
      <vel value="0.0047884161" flag="0"/>
      <psa03 value="0.0187543883" flag="0"/>
      <psa10 value="0.0017825379" flag="0"/>
      <psa30 value="0.0002473684" flag="0"/>
    </comp>
  </station>
  <station code="CRE1" name="CRE1" netid="HL" insttype="LE3D20_SMART24" lat="35.2267" lon="25.2497">
    <comp name="--.HHE">
      <acc value="2.7411690836" flag="0"/>
      <vel value="0.6401551697" flag="0"/>
      <psa03 value="4.1403215682" flag="0"/>
      <psa10 value="0.1244929004" flag="0"/>
      <psa30 value="0.0136620978" flag="0"/>
    </comp>
    <comp name="--.HHZ">
      <acc value="2.0809695421" flag="0"/>
      <vel value="0.4067662527" flag="0"/>
      <psa03 value="1.4879507707" flag="0"/>
      <psa10 value="0.1140677768" flag="0"/>
      <psa30 value="0.0128658059" flag="0"/>
    </comp>
    <comp name="--.HHN">
      <acc value="2.5462402550" flag="0"/>
      <vel value="0.6662612073" flag="0"/>
      <psa03 value="3.4212613976" flag="0"/>
      <psa10 value="0.2194381605" flag="0"/>
      <psa30 value="0.0238041068" flag="0"/>
    </comp>
  </station>
  <station code="CRE3" name="CRE3" netid="HL" insttype="LE3D20_SMART24" lat="35.0769" lon="25.2462">
    <comp name="--.HHE">
      <acc value="2.8705381820" flag="0"/>
      <vel value="1.0677589980" flag="0"/>
      <psa03 value="4.2087415013" flag="0"/>
      <psa10 value="0.3455580380" flag="0"/>
      <psa30 value="0.1601713168" flag="0"/>
    </comp>
    <comp name="--.HHZ">
      <acc value="2.9078391096" flag="0"/>
      <vel value="0.6092423056" flag="0"/>
      <psa03 value="2.3940608153" flag="0"/>
      <psa10 value="0.1523120428" flag="0"/>
      <psa30 value="0.0294864615" flag="0"/>
    </comp>
    <comp name="--.HHN">
      <acc value="2.8629062498" flag="0"/>
      <vel value="1.1455948012" flag="0"/>
      <psa03 value="5.8490298613" flag="0"/>
      <psa10 value="0.3625810480" flag="0"/>
      <psa30 value="0.0818184996" flag="0"/>
    </comp>
  </station>
  <station code="IACM" name="IACM" netid="HL" insttype="120" lat="35.3058" lon="25.0709">
    <comp name="--.HHE">
      <acc value="0.6880453902" flag="0"/>
      <vel value="0.2234107742" flag="0"/>
      <psa03 value="1.5246798409" flag="0"/>
      <psa10 value="0.1951971809" flag="0"/>
      <psa30 value="0.0110652548" flag="0"/>
    </comp>
    <comp name="--.HHN">
      <acc value="0.6291555226" flag="0"/>
      <vel value="0.2306673558" flag="0"/>
      <psa03 value="1.3121598662" flag="0"/>
      <psa10 value="0.1749085870" flag="0"/>
      <psa30 value="0.0124385483" flag="0"/>
    </comp>
    <comp name="--.HHZ">
      <acc value="0.5182250234" flag="0"/>
      <vel value="0.1271438317" flag="0"/>
      <psa03 value="0.9229789881" flag="0"/>
      <psa10 value="0.0744894709" flag="0"/>
      <psa30 value="0.0033701702" flag="0"/>
    </comp>
  </station>
  <station code="IDI" name="IDI" netid="HL" insttype="120" lat="35.288" lon="24.89">
    <comp name="--.HHN">
      <acc value="0.2424292468" flag="0"/>
      <vel value="0.0436000866" flag="0"/>
      <psa03 value="0.2097748915" flag="0"/>
      <psa10 value="0.0107194728" flag="0"/>
      <psa30 value="0.0011304621" flag="0"/>
    </comp>
    <comp name="--.HHZ">
      <acc value="0.1303199863" flag="0"/>
      <vel value="0.0250177821" flag="0"/>
      <psa03 value="0.0994116427" flag="0"/>
      <psa10 value="0.0069603802" flag="0"/>
      <psa30 value="0.0006324655" flag="0"/>
    </comp>
    <comp name="--.HHE">
      <acc value="0.1503229509" flag="0"/>
      <vel value="0.0317505165" flag="0"/>
      <psa03 value="0.1056605568" flag="0"/>
      <psa10 value="0.0110245205" flag="0"/>
      <psa30 value="0.0009832274" flag="0"/>
    </comp>
  </station>
  <station code="IMMV" name="IMMV" netid="HL" insttype="120" lat="35.4606" lon="23.9811">
    <comp name="--.HHE">
      <acc value="0.0167920159" flag="0"/>
      <vel value="0.0074893989" flag="0"/>
      <psa03 value="0.0447763063" flag="0"/>
      <psa10 value="0.0073659895" flag="0"/>
      <psa30 value="0.0002785326" flag="0"/>
    </comp>
    <comp name="--.HHN">
      <acc value="0.0246243338" flag="0"/>
      <vel value="0.0098288007" flag="0"/>
      <psa03 value="0.0498662453" flag="0"/>
      <psa10 value="0.0049809757" flag="0"/>
      <psa30 value="0.0004790947" flag="0"/>
    </comp>
    <comp name="--.HHZ">
      <acc value="0.0166296483" flag="0"/>
      <vel value="0.0053283974" flag="0"/>
      <psa03 value="0.0403663736" flag="0"/>
      <psa10 value="0.0032241977" flag="0"/>
      <psa30 value="0.0002566596" flag="0"/>
    </comp>
  </station>
  <station code="NPS" name="NPS" netid="HL" insttype="CMG3ESPC-120s" lat="35.2613" lon="25.6104">
    <comp name="--.HHZ">
      <acc value="0.0469626537" flag="0"/>
      <vel value="0.0097601103" flag="0"/>
      <psa03 value="0.0224265377" flag="0"/>
      <psa10 value="0.0064693140" flag="0"/>
      <psa30 value="0.0003880079" flag="0"/>
    </comp>
    <comp name="--.HHN">
      <acc value="0.0455753075" flag="0"/>
      <vel value="0.0098917515" flag="0"/>
      <psa03 value="0.0261122490" flag="0"/>
      <psa10 value="0.0066088288" flag="0"/>
      <psa30 value="0.0005528731" flag="0"/>
    </comp>
    <comp name="--.HHE">
      <acc value="0.0150584450" flag="0"/>
      <vel value="0.0039149278" flag="0"/>
      <psa03 value="0.0166611091" flag="0"/>
      <psa10 value="0.0034726374" flag="0"/>
      <psa30 value="0.0001602994" flag="0"/>
    </comp>
  </station>
  <station code="SIVA" name="SIVA" netid="HL" insttype="60" lat="35.0178" lon="24.812">
    <comp name="--.HHZ">
      <acc value="0.0777930078" flag="0"/>
      <vel value="0.0210440042" flag="0"/>
      <psa03 value="0.1134639495" flag="0"/>
      <psa10 value="0.0094056275" flag="0"/>
      <psa30 value="0.0007099949" flag="0"/>
    </comp>
    <comp name="--.HHE">
      <acc value="0.1933513016" flag="0"/>
      <vel value="0.0474200664" flag="0"/>
      <psa03 value="0.3193618649" flag="0"/>
      <psa10 value="0.0237847558" flag="0"/>
      <psa30 value="0.0016258520" flag="0"/>
    </comp>
    <comp name="--.HHN">
      <acc value="0.0958678415" flag="0"/>
      <vel value="0.0297960555" flag="0"/>
      <psa03 value="0.1202192061" flag="0"/>
      <psa10 value="0.0125809279" flag="0"/>
      <psa30 value="0.0008467550" flag="0"/>
    </comp>
  </station>
  <station code="VAM" name="VAM" netid="HL" insttype="CMG3ESPC-120s" lat="35.407" lon="24.1997">
    <comp name="--.HHN">
      <acc value="0.0811967316" flag="0"/>
      <vel value="0.0180236514" flag="0"/>
      <psa03 value="0.1003914072" flag="0"/>
      <psa10 value="0.0062684115" flag="0"/>
      <psa30 value="0.0008292051" flag="0"/>
    </comp>
    <comp name="--.HHE">
      <acc value="0.0453431091" flag="0"/>
      <vel value="0.0118084445" flag="0"/>
      <psa03 value="0.0543324624" flag="0"/>
      <psa10 value="0.0047764365" flag="0"/>
      <psa30 value="0.0004984794" flag="0"/>
    </comp>
    <comp name="--.HHZ">
      <acc value="0.0405219529" flag="0"/>
      <vel value="0.0113306129" flag="0"/>
      <psa03 value="0.0597096202" flag="0"/>
      <psa10 value="0.0038914040" flag="0"/>
      <psa30 value="0.0002386690" flag="0"/>
    </comp>
  </station>
  <station code="IDI" name="IDI" netid="MN" insttype="" lat="35.288" lon="24.89">
    <comp name="--.HHN">
      <acc value="0.2515990536" flag="0"/>
      <vel value="0.0443764484" flag="0"/>
      <psa03 value="0.2140901494" flag="0"/>
      <psa10 value="0.0107485161" flag="0"/>
      <psa30 value="0.0011296562" flag="0"/>
    </comp>
    <comp name="--.HHE">
      <acc value="0.1545693610" flag="0"/>
      <vel value="0.0340516734" flag="0"/>
      <psa03 value="0.1083092336" flag="0"/>
      <psa10 value="0.0110031384" flag="0"/>
      <psa30 value="0.0009838117" flag="0"/>
    </comp>
    <comp name="--.HHZ">
      <acc value="0.1453487951" flag="0"/>
      <vel value="0.0252896688" flag="0"/>
      <psa03 value="0.1010323699" flag="0"/>
      <psa10 value="0.0069181949" flag="0"/>
      <psa30 value="0.0006340049" flag="0"/>
    </comp>
  </station>
</stationlist>
