<?xml version="1.0" encoding="UTF-8" standalone="yes"?>
<!DOCTYPE earthquake SYSTEM "stationlist.dtd">
<stationlist created="" xmlns="ch.ethz.sed.shakemap.usgs.xml">
  <station code="SMG" name="SMG" netid="HL" insttype="120" lat="37.7043" lon="26.8377">
    <comp name="--.HHE">
      <acc value="0.0318586904" flag="0"/>
      <vel value="0.0121918817" flag="0"/>
      <psa03 value="0.0816309114" flag="0"/>
      <psa10 value="0.0043075633" flag="0"/>
      <psa30 value="0.0003954618" flag="0"/>
    </comp>
    <comp name="--.HHZ">
      <acc value="0.0285909608" flag="0"/>
      <vel value="0.0066517166" flag="0"/>
      <psa03 value="0.0263785381" flag="0"/>
      <psa10 value="0.0020423732" flag="0"/>
      <psa30 value="0.0002035784" flag="0"/>
    </comp>
    <comp name="--.HHN">
      <acc value="0.0281069903" flag="0"/>
      <vel value="0.0106120667" flag="0"/>
      <psa03 value="0.0659166586" flag="0"/>
      <psa10 value="0.0068812081" flag="0"/>
      <psa30 value="0.0003563298" flag="0"/>
    </comp>
  </station>
  <station code="CHOS" name="CHOS" netid="HT" insttype="100" lat="38.3869" lon="26.0506">
    <comp name="--.HHZ">
      <acc value="0.0071797663" flag="0"/>
      <vel value="0.0030110386" flag="0"/>
      <psa03 value="0.0178698974" flag="0"/>
      <psa10 value="0.0014925995" flag="0"/>
      <psa30 value="0.0001199379" flag="0"/>
    </comp>
    <comp name="--.HHN">
      <acc value="0.0157951930" flag="0"/>
      <vel value="0.0039592615" flag="0"/>
      <psa03 value="0.0218735101" flag="0"/>
      <psa10 value="0.0029640467" flag="0"/>
      <psa30 value="0.0002616203" flag="0"/>
    </comp>
    <comp name="--.HHE">
      <acc value="0.0277699674" flag="0"/>
      <vel value="0.0068901476" flag="0"/>
      <psa03 value="0.0344058765" flag="0"/>
      <psa10 value="0.0032466973" flag="0"/>
      <psa30 value="0.0002396698" flag="0"/>
    </comp>
  </station>
  <station code="AYDB" name="AYDB" netid="KO" insttype="CMG-3ESPC" lat="37.9467" lon="27.8908">
    <comp name="--.HHZ">
      <acc value="0.0253479424" flag="0"/>
      <vel value="0.0093001366" flag="0"/>
      <psa03 value="0.0553258871" flag="0"/>
      <psa10 value="0.0035177908" flag="0"/>
      <psa30 value="0.0003033046" flag="0"/>
    </comp>
    <comp name="--.HHN">
      <acc value="0.0301824503" flag="0"/>
      <vel value="0.0095362294" flag="0"/>
      <psa03 value="0.0415488111" flag="0"/>
      <psa10 value="0.0036184402" flag="0"/>
      <psa30 value="0.0003224153" flag="0"/>
    </comp>
  </station>
  <station code="BLCB" name="BLCB" netid="KO" insttype="CMG-3T" lat="38.3853" lon="27.042">
    <comp name="--.HHE">
      <acc value="0.0063101463" flag="0"/>
      <vel value="0.0058605088" flag="0"/>
      <psa03 value="0.0160796030" flag="0"/>
      <psa10 value="0.0030927155" flag="0"/>
      <psa30 value="0.0019061174" flag="0"/>
    </comp>
    <comp name="--.HHN">
      <acc value="0.0002507097" flag="0"/>
      <vel value="0.0000200320" flag="0"/>
      <psa03 value="0.0000342189" flag="0"/>
      <psa10 value="0.0000050486" flag="0"/>
      <psa30 value="0.0000007159" flag="0"/>
    </comp>
    <comp name="--.HHZ">
      <acc value="0.6423935685" flag="0"/>
      <vel value="0.0506106289" flag="0"/>
      <psa03 value="0.0906281482" flag="0"/>
      <psa10 value="0.0135496014" flag="0"/>
      <psa30 value="0.0009685628" flag="0"/>
    </comp>
  </station>
  <station code="DKL" name="DKL" netid="KO" insttype="CMG-3ESPC" lat="39.0713" lon="26.9053">
    <comp name="--.HHN">
      <acc value="0.0184574802" flag="0"/>
      <vel value="0.0071676455" flag="0"/>
      <psa03 value="0.0347954967" flag="0"/>
      <psa10 value="0.0056192584" flag="0"/>
      <psa30 value="0.0003956678" flag="0"/>
    </comp>
    <comp name="--.HHE">
      <acc value="0.0215311504" flag="0"/>
      <vel value="0.0094705087" flag="0"/>
      <psa03 value="0.0341668412" flag="0"/>
      <psa10 value="0.0064460192" flag="0"/>
      <psa30 value="0.0005983072" flag="0"/>
    </comp>
    <comp name="--.HHZ">
      <acc value="0.0130471575" flag="0"/>
      <vel value="0.0045040627" flag="0"/>
      <psa03 value="0.0195938636" flag="0"/>
      <psa10 value="0.0035360047" flag="0"/>
      <psa30 value="0.0002627905" flag="0"/>
    </comp>
  </station>
  <station code="FOCM" name="FOCM" netid="KO" insttype="CMG-5T" lat="38.7131" lon="26.7309">
    <comp name="--.HNZ">
      <acc value="0.0328921414" flag="0"/>
      <vel value="0.0067488398" flag="0"/>
      <psa03 value="0.0342754293" flag="0"/>
      <psa10 value="0.0024342998" flag="0"/>
      <psa30 value="0.0002080169" flag="0"/>
    </comp>
    <comp name="--.HNE">
      <acc value="0.0344050650" flag="0"/>
      <vel value="0.0087236062" flag="0"/>
      <psa03 value="0.0357610070" flag="0"/>
      <psa10 value="0.0043684394" flag="0"/>
      <psa30 value="0.0003204985" flag="0"/>
    </comp>
    <comp name="--.HNN">
      <acc value="0.0661078424" flag="0"/>
      <vel value="0.0144405342" flag="0"/>
      <psa03 value="0.0320293409" flag="0"/>
      <psa10 value="0.0035089011" flag="0"/>
      <psa30 value="0.0004332206" flag="0"/>
    </comp>
  </station>
  <station code="GORD" name="GORD" netid="KO" insttype="CMG-5T" lat="38.9088" lon="28.1769">
    <comp name="--.HNE">
      <acc value="0.0138440883" flag="0"/>
      <vel value="0.0080325126" flag="0"/>
      <psa03 value="0.0346361023" flag="0"/>
      <psa10 value="0.0073970445" flag="0"/>
      <psa30 value="0.0003764339" flag="0"/>
    </comp>
    <comp name="--.HNZ">
      <acc value="0.0158038237" flag="0"/>
      <vel value="0.0105076635" flag="0"/>
      <psa03 value="0.0451976566" flag="0"/>
      <psa10 value="0.0056852700" flag="0"/>
      <psa30 value="0.0003420540" flag="0"/>
    </comp>
    <comp name="--.HNN">
      <acc value="0.0157031996" flag="0"/>
      <vel value="0.0066125117" flag="0"/>
      <psa03 value="0.0412378871" flag="0"/>
      <psa10 value="0.0077437958" flag="0"/>
      <psa30 value="0.0003841520" flag="0"/>
    </comp>
  </station>
  <station code="NAZL" name="NAZL" netid="KO" insttype="CMG-5T" lat="37.9641" lon="28.2922">
    <comp name="--.HNE">
      <acc value="0.0217893934" flag="0"/>
      <vel value="0.0079489830" flag="0"/>
      <psa03 value="0.0537390226" flag="0"/>
      <psa10 value="0.0052354667" flag="0"/>
      <psa30 value="0.0002927983" flag="0"/>
    </comp>
    <comp name="--.HNN">
      <acc value="0.0253606849" flag="0"/>
      <vel value="0.0093802546" flag="0"/>
      <psa03 value="0.0581910959" flag="0"/>
      <psa10 value="0.0041151556" flag="0"/>
      <psa30 value="0.0002565576" flag="0"/>
    </comp>
    <comp name="--.HNZ">
      <acc value="0.0219093764" flag="0"/>
      <vel value="0.0062915173" flag="0"/>
      <psa03 value="0.0249189721" flag="0"/>
      <psa10 value="0.0026176066" flag="0"/>
      <psa30 value="0.0001813650" flag="0"/>
    </comp>
  </station>
  <station code="ODEM" name="ODEM" netid="KO" insttype="CMG-5T" lat="38.2762" lon="28.0747">
    <comp name="--.HNN">
      <acc value="0.0574498109" flag="0"/>
      <vel value="0.0110690411" flag="0"/>
      <psa03 value="0.0519946504" flag="0"/>
      <psa10 value="0.0043592703" flag="0"/>
      <psa30 value="0.0007128001" flag="0"/>
    </comp>
    <comp name="--.HNE">
      <acc value="0.0458912647" flag="0"/>
      <vel value="0.0089333368" flag="0"/>
      <psa03 value="0.0366163896" flag="0"/>
      <psa10 value="0.0032168789" flag="0"/>
      <psa30 value="0.0002223417" flag="0"/>
    </comp>
    <comp name="--.HNZ">
      <acc value="0.0315195456" flag="0"/>
      <vel value="0.0056919031" flag="0"/>
      <psa03 value="0.0255165690" flag="0"/>
      <psa10 value="0.0031272393" flag="0"/>
      <psa30 value="0.0005208557" flag="0"/>
    </comp>
  </station>
  <station code="SOMA" name="SOMA" netid="KO" insttype="CMG-5T" lat="39.1564" lon="27.5341">
    <comp name="--.HNE">
      <acc value="0.0244608865" flag="0"/>
      <vel value="0.0066965141" flag="0"/>
      <psa03 value="0.0352466756" flag="0"/>
      <psa10 value="0.0034664664" flag="0"/>
      <psa30 value="0.0002909087" flag="0"/>
    </comp>
    <comp name="--.HNN">
      <acc value="0.0338719030" flag="0"/>
      <vel value="0.0117889124" flag="0"/>
      <psa03 value="0.0579297905" flag="0"/>
      <psa10 value="0.0050446870" flag="0"/>
      <psa30 value="0.0004201853" flag="0"/>
    </comp>
    <comp name="--.HNZ">
      <acc value="0.0239672793" flag="0"/>
      <vel value="0.0056606541" flag="0"/>
      <psa03 value="0.0310271994" flag="0"/>
      <psa10 value="0.0017600346" flag="0"/>
      <psa30 value="0.0002097608" flag="0"/>
    </comp>
  </station>
  <station code="AYDN" name="AYDN" netid="TU" insttype="T" lat="37.6608" lon="27.8792">
    <comp name="--.HHN">
      <acc value="0.0412221690" flag="0"/>
      <vel value="0.0165588700" flag="0"/>
      <psa03 value="0.1389693179" flag="0"/>
      <psa10 value="0.0131760877" flag="0"/>
      <psa30 value="0.0012375324" flag="0"/>
    </comp>
    <comp name="--.HHZ">
      <acc value="0.0234962205" flag="0"/>
      <vel value="0.0072218155" flag="0"/>
      <psa03 value="0.0534277938" flag="0"/>
      <psa10 value="0.0056300218" flag="0"/>
      <psa30 value="0.0002459745" flag="0"/>
    </comp>
    <comp name="--.HHE">
      <acc value="0.0649754964" flag="0"/>
      <vel value="0.0235859795" flag="0"/>
      <psa03 value="0.1143992524" flag="0"/>
      <psa10 value="0.0077458101" flag="0"/>
      <psa30 value="0.0004964555" flag="0"/>
    </comp>
  </station>
</stationlist>
