<?xml version="1.0" encoding="UTF-8" standalone="yes"?>
<!DOCTYPE earthquake SYSTEM "stationlist.dtd">
<stationlist created="" xmlns="ch.ethz.sed.shakemap.usgs.xml">
  <station code="ERCV" name="ERCV" netid="KO" insttype="CMG-5T" lat="39.0198" lon="43.3381">
    <comp name="--.HNE">
      <acc value="0.3750797271" flag="0"/>
      <vel value="0.1728413547" flag="0"/>
      <psa03 value="0.9110620400" flag="0"/>
      <psa10 value="0.1557710049" flag="0"/>
      <psa30 value="0.0166180365" flag="0"/>
    </comp>
    <comp name="--.HNN">
      <acc value="0.4072363433" flag="0"/>
      <vel value="0.1768475016" flag="0"/>
      <psa03 value="0.8406730956" flag="0"/>
      <psa10 value="0.1458136787" flag="0"/>
      <psa30 value="0.0212440534" flag="0"/>
    </comp>
    <comp name="--.HNZ">
      <acc value="0.2476699225" flag="0"/>
      <vel value="0.0785528425" flag="0"/>
      <psa03 value="0.5320391506" flag="0"/>
      <psa10 value="0.1339798071" flag="0"/>
      <psa30 value="0.0058186044" flag="0"/>
    </comp>
  </station>
  <station code="VANB" name="VANB" netid="KO" insttype="360s," lat="38.509" lon="43.4058">
    <comp name="--.HHN">
      <acc value="0.0434748568" flag="0"/>
      <vel value="0.0481308279" flag="0"/>
      <psa03 value="0.1357399130" flag="0"/>
      <psa10 value="0.0991067280" flag="0"/>
      <psa30 value="0.0064971983" flag="0"/>
    </comp>
    <comp name="--.HHE">
      <acc value="0.0000767733" flag="0"/>
      <vel value="0.0000279545" flag="0"/>
      <psa03 value="0.0000773789" flag="0"/>
      <psa10 value="0.0000624401" flag="0"/>
      <psa30 value="0.0000042710" flag="0"/>
    </comp>
    <comp name="--.HHZ">
      <acc value="0.0271178040" flag="0"/>
      <vel value="0.0363451062" flag="0"/>
      <psa03 value="0.0753818277" flag="0"/>
      <psa10 value="0.0414465798" flag="0"/>
      <psa30 value="0.0065035580" flag="0"/>
    </comp>
  </station>
</stationlist>
