<?xml version="1.0" encoding="UTF-8" standalone="yes"?>
<!DOCTYPE earthquake SYSTEM "stationlist.dtd">
<stationlist created="" xmlns="ch.ethz.sed.shakemap.usgs.xml">
  <station code="KARO" name="KARO" netid="KO" insttype="CMG-3T" lat="39.3089" lon="41.0493">
    <comp name="--.HHN">
      <acc value="0.8396125371" flag="0"/>
      <vel value="0.3485689079" flag="0"/>
      <psa03 value="2.1258004578" flag="0"/>
      <psa10 value="0.3233813756" flag="0"/>
      <psa30 value="0.0195416332" flag="0"/>
    </comp>
    <comp name="--.HHZ">
      <acc value="0.5169035739" flag="0"/>
      <vel value="0.1910005662" flag="0"/>
      <psa03 value="0.7867833141" flag="0"/>
      <psa10 value="0.1961271621" flag="0"/>
      <psa30 value="0.0094783620" flag="0"/>
    </comp>
    <comp name="--.HHE">
      <acc value="0.9665426139" flag="0"/>
      <vel value="0.6233050579" flag="0"/>
      <psa03 value="2.0759844819" flag="0"/>
      <psa10 value="0.7638332072" flag="0"/>
      <psa30 value="0.0401928272" flag="0"/>
    </comp>
  </station>
  <station code="KOPR" name="KOPR" netid="KO" insttype="CMG-3T" lat="39.9917" lon="41.8535">
    <comp name="--.HHZ">
      <acc value="0.0044660445" flag="0"/>
      <vel value="0.0034446507" flag="0"/>
      <psa03 value="0.0152769527" flag="0"/>
      <psa10 value="0.0050592581" flag="0"/>
      <psa30 value="0.0011676863" flag="0"/>
    </comp>
    <comp name="--.HHE">
      <acc value="0.0074110904" flag="0"/>
      <vel value="0.0087123916" flag="0"/>
      <psa03 value="0.0188940713" flag="0"/>
      <psa10 value="0.0150516377" flag="0"/>
      <psa30 value="0.0012717977" flag="0"/>
    </comp>
    <comp name="--.HHN">
      <acc value="0.0069695749" flag="0"/>
      <vel value="0.0054508275" flag="0"/>
      <psa03 value="0.0245580609" flag="0"/>
      <psa10 value="0.0075899830" flag="0"/>
      <psa30 value="0.0007771571" flag="0"/>
    </comp>
  </station>
  <station code="YEDI" name="YEDI" netid="KO" insttype="CMG-3T" lat="39.4377" lon="40.5443">
    <comp name="--.HHE">
      <acc value="0.2505469662" flag="0"/>
      <vel value="0.0930369744" flag="0"/>
      <psa03 value="0.3249695836" flag="0"/>
      <psa10 value="0.0466884252" flag="0"/>
      <psa30 value="0.0026222440" flag="0"/>
    </comp>
    <comp name="--.HHZ">
      <acc value="0.0000664994" flag="0"/>
      <vel value="0.0000097501" flag="0"/>
      <psa03 value="0.0000198618" flag="0"/>
      <psa10 value="0.0000044869" flag="0"/>
      <psa30 value="0.0000010132" flag="0"/>
    </comp>
  </station>
</stationlist>
