<?xml version="1.0" encoding="UTF-8" standalone="yes"?>
<!DOCTYPE earthquake SYSTEM "stationlist.dtd">
<stationlist created="" xmlns="ch.ethz.sed.shakemap.usgs.xml">
  <station code="AKS" name="AKS" netid="KO" source="KOERI" insttype="100" lat="38.8785" lon="27.8129">
    <comp name="--.HNE">
      <acc value="0.0860749364" flag="0"/>
      <vel value="0.0889101252" flag="0"/>
      <psa03 value="0.1919191173" flag="0"/>
      <psa10 value="0.1296548504" flag="0"/>
      <psa30 value="0.0389988126" flag="0"/>
    </comp>
    <comp name="--.HNN">
      <acc value="0.1092630078" flag="0"/>
      <vel value="0.1191399702" flag="0"/>
      <psa03 value="0.2805988963" flag="0"/>
      <psa10 value="0.1830902811" flag="0"/>
      <psa30 value="0.0232909507" flag="0"/>
    </comp>
    <comp name="--.HNZ">
      <acc value="0.0466366670" flag="0"/>
      <vel value="0.0480206444" flag="0"/>
      <psa03 value="0.2071904082" flag="0"/>
      <psa10 value="0.0718523261" flag="0"/>
      <psa30 value="0.0280895106" flag="0"/>
    </comp>
  </station>
  <station code="APMY" name="APMY" netid="KO" source="KOERI" insttype="30s," lat="37.4718" lon="29.3018">
    <comp name="--.HHE">
      <acc value="0.0179830598" flag="0"/>
      <vel value="0.0186015113" flag="0"/>
      <psa03 value="0.0398019411" flag="0"/>
      <psa10 value="0.0203646528" flag="0"/>
      <psa30 value="0.0069357804" flag="0"/>
    </comp>
    <comp name="--.HHN">
      <acc value="0.0169460038" flag="0"/>
      <vel value="0.0222041201" flag="0"/>
      <psa03 value="0.0547232344" flag="0"/>
      <psa10 value="0.0276074104" flag="0"/>
      <psa30 value="0.0047483560" flag="0"/>
    </comp>
    <comp name="--.HHZ">
      <acc value="0.0148800747" flag="0"/>
      <vel value="0.0243689878" flag="0"/>
      <psa03 value="0.0504039628" flag="0"/>
      <psa10 value="0.0309196754" flag="0"/>
      <psa30 value="0.0030358617" flag="0"/>
    </comp>
  </station>
  <station code="BASM" name="BASM" netid="KO" source="KOERI" insttype="100" lat="37.9194" lon="30.035">
    <comp name="--.HNE">
      <acc value="0.0734477831" flag="0"/>
      <vel value="0.0482154239" flag="0"/>
      <psa03 value="0.1943018522" flag="0"/>
      <psa10 value="0.0817682450" flag="0"/>
      <psa30 value="0.0079275456" flag="0"/>
    </comp>
    <comp name="--.HNN">
      <acc value="0.0565114340" flag="0"/>
      <vel value="0.0517768615" flag="0"/>
      <psa03 value="0.1945609664" flag="0"/>
      <psa10 value="0.0805856187" flag="0"/>
      <psa30 value="0.0129119276" flag="0"/>
    </comp>
    <comp name="--.HNZ">
      <acc value="0.0467041721" flag="0"/>
      <vel value="0.0394303131" flag="0"/>
      <psa03 value="0.1342791901" flag="0"/>
      <psa10 value="0.0290649226" flag="0"/>
      <psa30 value="0.0080093903" flag="0"/>
    </comp>
  </station>
  <station code="CAVI" name="CAVI" netid="KO" source="KOERI" insttype="120s," lat="40.2018" lon="29.8377">
    <comp name="--.HHN">
      <acc value="222264971753371040130420438679131071264720260577752581574670500988122235886755353526499155589153247289500401401856.0000000000" flag="0"/>
      <vel value="2683639408478271588289075267773867254994613578227250383091755853940233742990788451739386060724389869016421017069201731215584971097019492684654573552556424197840527356596943060992.0000000000" flag="0"/>
    </comp>
    <comp name="--.HHZ">
      <acc value="0.0250278065" flag="0"/>
      <vel value="0.0358999294" flag="0"/>
      <psa03 value="0.0645715984" flag="0"/>
      <psa10 value="0.0330998050" flag="0"/>
      <psa30 value="0.0147695289" flag="0"/>
    </comp>
    <comp name="--.HHE">
      <acc value="0.0717329096" flag="0"/>
      <vel value="0.0385226829" flag="0"/>
      <psa03 value="0.1581890388" flag="0"/>
      <psa10 value="0.0664282360" flag="0"/>
      <psa30 value="0.0144058031" flag="0"/>
    </comp>
  </station>
  <station code="DST" name="DST" netid="KO" source="KOERI" insttype="100" lat="39.6041" lon="28.6267">
    <comp name="--.HNE">
      <acc value="0.1512140481" flag="0"/>
      <vel value="0.1125591296" flag="0"/>
      <psa03 value="0.3817287361" flag="0"/>
      <psa10 value="0.1496233366" flag="0"/>
      <psa30 value="0.0212744341" flag="0"/>
    </comp>
    <comp name="--.HNN">
      <acc value="0.1434021202" flag="0"/>
      <vel value="0.0924262762" flag="0"/>
      <psa03 value="0.4704855973" flag="0"/>
      <psa10 value="0.1070323843" flag="0"/>
      <psa30 value="0.0488596987" flag="0"/>
    </comp>
    <comp name="--.HNZ">
      <acc value="0.1030540845" flag="0"/>
      <vel value="0.0780338676" flag="0"/>
      <psa03 value="0.2021598142" flag="0"/>
      <psa10 value="0.0585319578" flag="0"/>
      <psa30 value="0.0386892405" flag="0"/>
    </comp>
  </station>
  <station code="GOMA" name="GOMA" netid="KO" source="KOERI" insttype="100" lat="38.7077" lon="27.9175">
    <comp name="--.HNE">
      <acc value="0.1399283892" flag="0"/>
      <vel value="0.1086637743" flag="0"/>
      <psa03 value="0.5856953661" flag="0"/>
      <psa10 value="0.1503268438" flag="0"/>
      <psa30 value="0.0147291725" flag="0"/>
    </comp>
    <comp name="--.HNN">
      <acc value="0.2123929394" flag="0"/>
      <vel value="0.1542476684" flag="0"/>
      <psa03 value="0.3298688586" flag="0"/>
      <psa10 value="0.1758599637" flag="0"/>
      <psa30 value="0.0127202544" flag="0"/>
    </comp>
    <comp name="--.HNZ">
      <acc value="0.0848936081" flag="0"/>
      <vel value="0.0616479660" flag="0"/>
      <psa03 value="0.1872206579" flag="0"/>
      <psa10 value="0.0606236630" flag="0"/>
      <psa30 value="0.0107705925" flag="0"/>
    </comp>
  </station>
  <station code="KCTX" name="KCTX" netid="KO" source="KOERI" insttype="30s," lat="40.2627" lon="28.3353">
    <comp name="--.HHE">
      <acc value="0.0358953890" flag="0"/>
      <vel value="0.0315704362" flag="0"/>
      <psa03 value="0.0653795499" flag="0"/>
      <psa10 value="0.0342843250" flag="0"/>
      <psa30 value="0.0077025880" flag="0"/>
    </comp>
    <comp name="--.HHN">
      <acc value="0.0379466921" flag="0"/>
      <vel value="0.0209838708" flag="0"/>
      <psa03 value="0.0964061429" flag="0"/>
      <psa10 value="0.0326131941" flag="0"/>
      <psa30 value="0.0017329538" flag="0"/>
    </comp>
    <comp name="--.HHZ">
      <acc value="0.0454108780" flag="0"/>
      <vel value="0.0243256318" flag="0"/>
      <psa03 value="0.0985568888" flag="0"/>
      <psa10 value="0.0247045028" flag="0"/>
      <psa30 value="0.0119954342" flag="0"/>
    </comp>
  </station>
  <station code="KHL" name="KHL" netid="KO" source="KOERI" insttype="100" lat="38.3232" lon="29.5286">
    <comp name="--.HNE">
      <acc value="0.2238561455" flag="0"/>
      <vel value="0.0776416714" flag="0"/>
      <psa03 value="0.3547766017" flag="0"/>
      <psa10 value="0.0249294173" flag="0"/>
      <psa30 value="0.0127921201" flag="0"/>
    </comp>
    <comp name="--.HNN">
      <acc value="0.2215595929" flag="0"/>
      <vel value="0.0734150460" flag="0"/>
      <psa03 value="0.5105521102" flag="0"/>
      <psa10 value="0.0341885154" flag="0"/>
      <psa30 value="0.0120078575" flag="0"/>
    </comp>
    <comp name="--.HNZ">
      <acc value="0.1378693553" flag="0"/>
      <vel value="0.0538582329" flag="0"/>
      <psa03 value="0.2139736908" flag="0"/>
      <psa10 value="0.0183201571" flag="0"/>
      <psa30 value="0.0123611163" flag="0"/>
    </comp>
  </station>
  <station code="ORLT" name="ORLT" netid="KO" source="KOERI" insttype="100" lat="40.0452" lon="28.8914">
    <comp name="--.HNE">
      <acc value="0.0934328873" flag="0"/>
      <vel value="0.0642949963" flag="0"/>
      <psa03 value="0.2403856964" flag="0"/>
      <psa10 value="0.1082321804" flag="0"/>
      <psa30 value="0.0114349783" flag="0"/>
    </comp>
    <comp name="--.HNN">
      <acc value="0.1541831536" flag="0"/>
      <vel value="0.0836826893" flag="0"/>
      <psa03 value="0.4660212028" flag="0"/>
      <psa10 value="0.1896347001" flag="0"/>
      <psa30 value="0.0274849064" flag="0"/>
    </comp>
    <comp name="--.HNZ">
      <acc value="0.0762891511" flag="0"/>
      <vel value="0.0656271146" flag="0"/>
      <psa03 value="0.1932656478" flag="0"/>
      <psa10 value="0.0944749151" flag="0"/>
      <psa30 value="0.0190044268" flag="0"/>
    </comp>
  </station>
  <station code="SMAA" name="SMAA" netid="KO" source="KOERI" insttype="100" lat="39.1005" lon="28.9805">
    <comp name="--.HNE">
      <acc value="0.5839312209" flag="0"/>
      <vel value="0.4127283830" flag="0"/>
      <psa03 value="1.4940878634" flag="0"/>
      <psa10 value="0.6000777486" flag="0"/>
      <psa30 value="0.0954412007" flag="0"/>
    </comp>
    <comp name="--.HNN">
      <acc value="0.8138922172" flag="0"/>
      <vel value="0.6302485510" flag="0"/>
      <psa03 value="1.8513721508" flag="0"/>
      <psa10 value="0.9619253410" flag="0"/>
      <psa30 value="0.3039587604" flag="0"/>
    </comp>
    <comp name="--.HNZ">
      <acc value="0.4505449946" flag="0"/>
      <vel value="0.1872478806" flag="0"/>
      <psa03 value="0.4980626726" flag="0"/>
      <psa10 value="0.4388241668" flag="0"/>
      <psa30 value="0.0623330758" flag="0"/>
    </comp>
  </station>
  <station code="TVSB" name="TVSB" netid="KO" source="KOERI" insttype="120" lat="39.4497" lon="29.4615">
    <comp name="--.HHE">
      <acc value="0.0000000000" flag="0"/>
      <vel value="683041896120460126467019501865811358830925042896256205755254135823255168946904491433414312800194602882943104556592957636372070400.0000000000" flag="0"/>
    </comp>
    <comp name="--.HHN">
      <acc value="0.1542307676" flag="0"/>
      <vel value="0.0615755037" flag="0"/>
      <psa03 value="0.1683248544" flag="0"/>
      <psa10 value="0.0217254215" flag="0"/>
      <psa30 value="0.0137470119" flag="0"/>
    </comp>
    <comp name="--.HHZ">
      <acc value="0.0491909004" flag="0"/>
      <vel value="0.0281585448" flag="0"/>
      <psa03 value="0.0574894683" flag="0"/>
      <psa10 value="0.0126779919" flag="0"/>
      <psa30 value="0.0172448171" flag="0"/>
    </comp>
  </station>
</stationlist>
