<stationlist created="1778118910">
	<station code="KRL1" name="KRL1" netid="HI" source="ITSAK Strong Motion Network" insttype="" lat="37.7951" lon="26.7065">
		<comp name="--.HNE" depth="0.0">
			<acc value="0.0116954076853959" flag="0"/>
			<vel value="0.0236211979933639" flag="0"/>
			<psa03 value="0.041801930631065" flag="0"/>
			<psa10 value="0.0231148174932044" flag="0"/>
			<psa30 value="0.0070951158499535" flag="0"/>
		</comp>
		<comp name="--.HNN" depth="0.0">
			<acc value="0.0140274319426302" flag="0"/>
			<vel value="0.0179886952980506" flag="0"/>
			<psa03 value="0.0247299767812548" flag="0"/>
			<psa10 value="0.0378114710743899" flag="0"/>
			<psa30 value="0.00657215120609668" flag="0"/>
		</comp>
		<comp name="--.HNZ" depth="0.0">
			<acc value="0.00778487351124837" flag="0"/>
			<vel value="0.0109107101301982" flag="0"/>
			<psa03 value="0.0162456126504224" flag="0"/>
			<psa10 value="0.0180968950805006" flag="0"/>
			<psa30 value="0.00299224551324627" flag="0"/>
		</comp>
	</station>
	<station code="MYT1" name="MYT1" netid="HI" source="ITSAK Strong Motion Network" insttype="" lat="39.085" lon="26.5694">
		<comp name="--.HNE" depth="0.0">
			<acc value="0.0412092152240107" flag="0"/>
			<vel value="0.0509692470058477" flag="0"/>
			<psa03 value="0.0682082424198364" flag="0"/>
			<psa10 value="0.085674395508194" flag="0"/>
			<psa30 value="0.00936904315313455" flag="0"/>
		</comp>
		<comp name="--.HNN" depth="0.0">
			<acc value="0.0297290892252999" flag="0"/>
			<vel value="0.0363191144750144" flag="0"/>
			<psa03 value="0.0695220117418953" flag="0"/>
			<psa10 value="0.0652209530678902" flag="0"/>
			<psa30 value="0.00894250573044491" flag="0"/>
		</comp>
		<comp name="--.HNZ" depth="0.0">
			<acc value="0.0191284625959375" flag="0"/>
			<vel value="0.0169385211847022" flag="0"/>
			<psa03 value="0.0404079684962611" flag="0"/>
			<psa10 value="0.0362808259266465" flag="0"/>
			<psa30 value="0.00757096237244241" flag="0"/>
		</comp>
	</station>
	<station code="RGE1" name="RGE1" netid="HI" source="ITSAK Strong Motion Network" insttype="" lat="36.0269" lon="27.9306">
		<comp name="--.HNE" depth="0.0">
			<acc value="0.00464073816202861" flag="0"/>
			<vel value="0.0077428981306056" flag="0"/>
			<psa03 value="0.00878923263415169" flag="0"/>
			<psa10 value="0.0102311690147352" flag="0"/>
			<psa30 value="0.00197082493247947" flag="0"/>
		</comp>
		<comp name="--.HNN" depth="0.0">
			<acc value="0.0044838450273993" flag="0"/>
			<vel value="0.00821709909658555" flag="0"/>
			<psa03 value="0.00834750415305771" flag="0"/>
			<psa10 value="0.0156379265608877" flag="0"/>
			<psa30 value="0.00219791268426187" flag="0"/>
		</comp>
		<comp name="--.HNZ" depth="0.0">
			<acc value="0.00498574119961515" flag="0"/>
			<vel value="0.00623043455426022" flag="0"/>
			<psa03 value="0.0109011381625283" flag="0"/>
			<psa10 value="0.00805410010710462" flag="0"/>
			<psa30 value="0.00220757207414904" flag="0"/>
		</comp>
	</station>
	<station code="IKRA" name="IKRA" netid="HL" source="National Observatory of Athens Seismic Network" insttype="" lat="37.61117" lon="26.29283">
		<comp name="00.HNE" depth="0.0">
			<acc value="0.00845488085327419" flag="0"/>
			<vel value="0.00927103722673161" flag="0"/>
			<psa03 value="0.0196340155009027" flag="0"/>
			<psa10 value="0.0140584391150938" flag="0"/>
			<psa30 value="0.00160521133737419" flag="0"/>
		</comp>
		<comp name="00.HNN" depth="0.0">
			<acc value="0.0104919176428945" flag="0"/>
			<vel value="0.0116778328086499" flag="0"/>
			<psa03 value="0.0200714715635552" flag="0"/>
			<psa10 value="0.0187237584821107" flag="0"/>
			<psa30 value="0.00184202910872338" flag="0"/>
		</comp>
		<comp name="00.HNZ" depth="0.0">
			<acc value="0.0079203791484515" flag="0"/>
			<vel value="0.00751183185996773" flag="0"/>
			<psa03 value="0.0190686004407909" flag="0"/>
			<psa10 value="0.0122244194952895" flag="0"/>
			<psa30 value="0.00116389022701498" flag="0"/>
		</comp>
	</station>
	<station code="KLNA" name="KLNA" netid="HL" source="National Observatory of Athens Seismic Network" insttype="" lat="36.95708" lon="26.97274">
		<comp name="00.HNE" depth="0.0">
			<acc value="0.0078831700649995" flag="0"/>
			<vel value="0.00809055261034902" flag="0"/>
			<psa03 value="0.0243368648020416" flag="0"/>
			<psa10 value="0.0121927242706338" flag="0"/>
			<psa30 value="0.00113675676288888" flag="0"/>
		</comp>
		<comp name="00.HNN" depth="0.0">
			<acc value="0.0078099496931692" flag="0"/>
			<vel value="0.012896425362966" flag="0"/>
			<psa03 value="0.0195565233882853" flag="0"/>
			<psa10 value="0.0195159272094068" flag="0"/>
			<psa30 value="0.00202297276201873" flag="0"/>
		</comp>
		<comp name="00.HNZ" depth="0.0">
			<acc value="0.0060193218414791" flag="0"/>
			<vel value="0.00722121584851288" flag="0"/>
			<psa03 value="0.0130989354485336" flag="0"/>
			<psa10 value="0.010818727000077" flag="0"/>
			<psa30 value="0.00179335630105233" flag="0"/>
		</comp>
	</station>
	<station code="PRK" name="PRK" netid="HL" source="National Observatory of Athens Seismic Network" insttype="" lat="39.24565" lon="26.26499">
		<comp name="--.HNE" depth="0.0">
			<acc value="0.0307025454066685" flag="0"/>
			<vel value="0.0358588915818124" flag="0"/>
			<psa03 value="0.061744245133215" flag="0"/>
			<psa10 value="0.0556584101889977" flag="0"/>
			<psa30 value="0.00367512485162484" flag="0"/>
		</comp>
		<comp name="--.HNN" depth="0.0">
			<acc value="0.0234429468440703" flag="0"/>
			<vel value="0.0237238588744089" flag="0"/>
			<psa03 value="0.0363754139806549" flag="0"/>
			<psa10 value="0.03995792246458" flag="0"/>
			<psa30 value="0.00275433023942081" flag="0"/>
		</comp>
		<comp name="--.HNZ" depth="0.0">
			<acc value="0.0148138920874854" flag="0"/>
			<vel value="0.012832664474687" flag="0"/>
			<psa03 value="0.0380756178321493" flag="0"/>
			<psa10 value="0.02405609481038" flag="0"/>
			<psa30 value="0.00315298330038961" flag="0"/>
		</comp>
	</station>
	<station code="PSRA" name="PSRA" netid="HL" source="National Observatory of Athens Seismic Network" insttype="" lat="38.53978" lon="25.56202">
		<comp name="00.HNE" depth="0.0">
			<acc value="0.00513377403011007" flag="0"/>
			<vel value="0.00429942104342622" flag="0"/>
			<psa03 value="0.0135121463987181" flag="0"/>
			<psa10 value="0.00418787053947024" flag="0"/>
			<psa30 value="0.000858602945004635" flag="0"/>
		</comp>
		<comp name="00.HNN" depth="0.0">
			<acc value="0.0051999822538428" flag="0"/>
			<vel value="0.00494023298247624" flag="0"/>
			<psa03 value="0.0171810073414164" flag="0"/>
			<psa10 value="0.00562946443671095" flag="0"/>
			<psa30 value="0.00132481673796703" flag="0"/>
		</comp>
		<comp name="00.HNZ" depth="0.0">
			<acc value="0.00227597604126301" flag="0"/>
			<vel value="0.0032758690214178" flag="0"/>
			<psa03 value="0.00608494010008496" flag="0"/>
			<psa10 value="0.00345499319506294" flag="0"/>
			<psa30 value="0.00106352225131632" flag="0"/>
		</comp>
	</station>
	<station code="AKS" name="AKS" netid="KO" source="Bogazici University Kandilli Observatory And Earthquake Research Institute (KOERI)" insttype="" lat="38.8785" lon="27.8129">
		<comp name="--.HNE" depth="0.0">
			<acc value="0.0864974663708198" flag="0"/>
			<vel value="0.0887855722118823" flag="0"/>
			<psa03 value="0.192257261838714" flag="0"/>
			<psa10 value="0.129884388702512" flag="0"/>
			<psa30 value="0.0391360081290023" flag="0"/>
		</comp>
		<comp name="--.HNN" depth="0.0">
			<acc value="0.10860235853946" flag="0"/>
			<vel value="0.122167232854292" flag="0"/>
			<psa03 value="0.278699205025215" flag="0"/>
			<psa10 value="0.182969674588893" flag="0"/>
			<psa30 value="0.0232757907269573" flag="0"/>
		</comp>
		<comp name="--.HNZ" depth="0.0">
			<acc value="0.0466756142659113" flag="0"/>
			<vel value="0.0479344106683148" flag="0"/>
			<psa03 value="0.204964048518303" flag="0"/>
			<psa10 value="0.0718944621266361" flag="0"/>
			<psa30 value="0.0281316624112384" flag="0"/>
		</comp>
	</station>
	<station code="BASM" name="BASM" netid="KO" source="Bogazici University Kandilli Observatory And Earthquake Research Institute (KOERI)" insttype="" lat="37.9194" lon="30.035">
		<comp name="--.HNE" depth="0.0">
			<acc value="0.0731487293589136" flag="0"/>
			<vel value="0.0489670373440404" flag="0"/>
			<psa03 value="0.191496644326203" flag="0"/>
			<psa10 value="0.0815748859505654" flag="0"/>
			<psa30 value="0.00801153951706774" flag="0"/>
		</comp>
		<comp name="--.HNN" depth="0.0">
			<acc value="0.0568092842530025" flag="0"/>
			<vel value="0.0507343525456349" flag="0"/>
			<psa03 value="0.193689012450498" flag="0"/>
			<psa10 value="0.0807292582454801" flag="0"/>
			<psa30 value="0.012985530626821" flag="0"/>
		</comp>
		<comp name="--.HNZ" depth="0.0">
			<acc value="0.04670990264305" flag="0"/>
			<vel value="0.0397174658979112" flag="0"/>
			<psa03 value="0.13592682370631" flag="0"/>
			<psa10 value="0.0291781826240397" flag="0"/>
			<psa30 value="0.00806836211947294" flag="0"/>
		</comp>
	</station>
	<station code="CAME" name="CAME" netid="KO" source="Bogazici University Kandilli Observatory And Earthquake Research Institute (KOERI)" insttype="" lat="36.9435" lon="29.3023">
		<comp name="--.HNE" depth="0.0">
			<acc value="0.00807959566758817" flag="0"/>
			<vel value="0.00790469620121116" flag="0"/>
			<psa03 value="0.0260399642518342" flag="0"/>
			<psa10 value="0.0106549090840752" flag="0"/>
			<psa30 value="0.00354313534210094" flag="0"/>
		</comp>
		<comp name="--.HNN" depth="0.0">
			<acc value="0.00696721241184173" flag="0"/>
			<vel value="0.0110828457109909" flag="0"/>
			<psa03 value="0.0224158455157542" flag="0"/>
			<psa10 value="0.0102200148357456" flag="0"/>
			<psa30 value="0.00489569224817129" flag="0"/>
		</comp>
		<comp name="--.HNZ" depth="0.0">
			<acc value="0.00622290122626774" flag="0"/>
			<vel value="0.00652456471397838" flag="0"/>
			<psa03 value="0.0165098742421423" flag="0"/>
			<psa10 value="0.0101797468497892" flag="0"/>
			<psa30 value="0.0055945655155487" flag="0"/>
		</comp>
	</station>
	<station code="DST" name="DST" netid="KO" source="Bogazici University Kandilli Observatory And Earthquake Research Institute (KOERI)" insttype="" lat="39.6041" lon="28.6267">
		<comp name="--.HNE" depth="0.0">
			<acc value="0.148021239159515" flag="0"/>
			<vel value="0.11297616815535" flag="0"/>
			<psa03 value="0.385409367809793" flag="0"/>
			<psa10 value="0.149869390132695" flag="0"/>
			<psa30 value="0.021301317148893" flag="0"/>
		</comp>
		<comp name="--.HNN" depth="0.0">
			<acc value="0.14321136078042" flag="0"/>
			<vel value="0.094378234348084" flag="0"/>
			<psa03 value="0.477175633583868" flag="0"/>
			<psa10 value="0.107112842644143" flag="0"/>
			<psa30 value="0.0488772813539324" flag="0"/>
		</comp>
		<comp name="--.HNZ" depth="0.0">
			<acc value="0.101608843143934" flag="0"/>
			<vel value="0.0784155741336509" flag="0"/>
			<psa03 value="0.203084875840335" flag="0"/>
			<psa10 value="0.0587348843160701" flag="0"/>
			<psa30 value="0.0387261695163789" flag="0"/>
		</comp>
	</station>
	<station code="GOMA" name="GOMA" netid="KO" source="Bogazici University Kandilli Observatory And Earthquake Research Institute (KOERI)" insttype="" lat="38.7077" lon="27.9175">
		<comp name="--.HNE" depth="0.0">
			<acc value="0.140440581032333" flag="0"/>
			<vel value="0.10773797359997" flag="0"/>
			<psa03 value="0.583035694442699" flag="0"/>
			<psa10 value="0.150815687802672" flag="0"/>
			<psa30 value="0.0147434519248529" flag="0"/>
		</comp>
		<comp name="--.HNN" depth="0.0">
			<acc value="0.213022110145056" flag="0"/>
			<vel value="0.15279723391194" flag="0"/>
			<psa03 value="0.327602436858986" flag="0"/>
			<psa10 value="0.176059688198767" flag="0"/>
			<psa30 value="0.0126141703118894" flag="0"/>
		</comp>
		<comp name="--.HNZ" depth="0.0">
			<acc value="0.0848858915441014" flag="0"/>
			<vel value="0.0617126569777252" flag="0"/>
			<psa03 value="0.187201392490849" flag="0"/>
			<psa10 value="0.0607563372110836" flag="0"/>
			<psa30 value="0.0107882408597977" flag="0"/>
		</comp>
	</station>
	<station code="GONE" name="GONE" netid="KO" source="Bogazici University Kandilli Observatory And Earthquake Research Institute (KOERI)" insttype="" lat="40.0466" lon="27.686">
		<comp name="--.HNE" depth="0.0">
			<acc value="0.0573112102862129" flag="0"/>
			<vel value="0.0600457180757378" flag="0"/>
			<psa03 value="0.199818694757202" flag="0"/>
			<psa10 value="0.151979432596813" flag="0"/>
			<psa30 value="0.0121340864348753" flag="0"/>
		</comp>
		<comp name="--.HNN" depth="0.0">
			<acc value="0.102198262483305" flag="0"/>
			<vel value="0.0899454465871261" flag="0"/>
			<psa03 value="0.245589972127694" flag="0"/>
			<psa10 value="0.163967212016047" flag="0"/>
			<psa30 value="0.0107184430174732" flag="0"/>
		</comp>
		<comp name="--.HNZ" depth="0.0">
			<acc value="0.108025310577574" flag="0"/>
			<vel value="0.0612495462085975" flag="0"/>
			<psa03 value="0.154315870626419" flag="0"/>
			<psa10 value="0.0496383462885092" flag="0"/>
			<psa30 value="0.00962718059805353" flag="0"/>
		</comp>
	</station>
	<station code="GPA" name="GPA" netid="KO" source="Bogazici University Kandilli Observatory And Earthquake Research Institute (KOERI)" insttype="" lat="40.2911" lon="30.3171">
		<comp name="--.HNE" depth="0.0">
			<acc value="0.0225598389541396" flag="0"/>
			<vel value="0.0208250606336511" flag="0"/>
			<psa03 value="0.0699320689443588" flag="0"/>
			<psa10 value="0.0220708831027273" flag="0"/>
			<psa30 value="0.00622453578473397" flag="0"/>
		</comp>
		<comp name="--.HNN" depth="0.0">
			<acc value="0.0281957411434081" flag="0"/>
			<vel value="0.0276989272748086" flag="0"/>
			<psa03 value="0.050871888924975" flag="0"/>
			<psa10 value="0.0199850014301834" flag="0"/>
			<psa30 value="0.00985268131940962" flag="0"/>
		</comp>
		<comp name="--.HNZ" depth="0.0">
			<acc value="0.00913670894358329" flag="0"/>
			<vel value="0.0129454693081635" flag="0"/>
			<psa03 value="0.0242950181937216" flag="0"/>
			<psa10 value="0.00971263821269443" flag="0"/>
			<psa30 value="0.00655473326957681" flag="0"/>
		</comp>
	</station>
	<station code="KAVV" name="KAVV" netid="KO" source="Bogazici University Kandilli Observatory And Earthquake Research Institute (KOERI)" insttype="" lat="41.0638" lon="29.06">
		<comp name="--.HNE" depth="0.0">
			<acc value="0.0951868783366222" flag="0"/>
			<vel value="0.0350624766171044" flag="0"/>
			<psa03 value="0.212838676883119" flag="0"/>
			<psa10 value="0.060015406269485" flag="0"/>
			<psa30 value="0.00615742247480656" flag="0"/>
		</comp>
		<comp name="--.HNN" depth="0.0">
			<acc value="0.0933339111975055" flag="0"/>
			<vel value="0.0331975455151474" flag="0"/>
			<psa03 value="0.181340163423855" flag="0"/>
			<psa10 value="0.0576798630840112" flag="0"/>
			<psa30 value="0.00490240357916403" flag="0"/>
		</comp>
		<comp name="--.HNZ" depth="0.0">
			<acc value="0.0740120960726907" flag="0"/>
			<vel value="0.0325450814717349" flag="0"/>
			<psa03 value="0.142235474839486" flag="0"/>
			<psa10 value="0.049380631178388" flag="0"/>
			<psa30 value="0.00571715916168276" flag="0"/>
		</comp>
	</station>
	<station code="KHL" name="KHL" netid="KO" source="Bogazici University Kandilli Observatory And Earthquake Research Institute (KOERI)" insttype="" lat="38.3231" lon="29.5286">
		<comp name="--.HNE" depth="0.0">
			<acc value="0.222332320902428" flag="0"/>
			<vel value="0.077486199156881" flag="0"/>
			<psa03 value="0.351673744019616" flag="0"/>
			<psa10 value="0.0252480271946908" flag="0"/>
			<psa30 value="0.012836091656716" flag="0"/>
		</comp>
		<comp name="--.HNN" depth="0.0">
			<acc value="0.222120589201124" flag="0"/>
			<vel value="0.0749268407158832" flag="0"/>
			<psa03 value="0.507645076290911" flag="0"/>
			<psa10 value="0.0344009404025906" flag="0"/>
			<psa30 value="0.0120781586766025" flag="0"/>
		</comp>
		<comp name="--.HNZ" depth="0.0">
			<acc value="0.140402823566821" flag="0"/>
			<vel value="0.0553411056337818" flag="0"/>
			<psa03 value="0.216775991065527" flag="0"/>
			<psa10 value="0.0183179068115866" flag="0"/>
			<psa30 value="0.0123300572998633" flag="0"/>
		</comp>
	</station>
	<station code="KIYI" name="KIYI" netid="KO" source="Bogazici University Kandilli Observatory And Earthquake Research Institute (KOERI)" insttype="" lat="41.4844" lon="28.2998">
		<comp name="--.HNE" depth="0.0">
			<acc value="0.0317459687226729" flag="0"/>
			<vel value="0.0213683070956712" flag="0"/>
			<psa03 value="0.0974037838079776" flag="0"/>
			<psa10 value="0.0331324988449626" flag="0"/>
			<psa30 value="0.00776232542620396" flag="0"/>
		</comp>
		<comp name="--.HNN" depth="0.0">
			<acc value="0.0322329750874951" flag="0"/>
			<vel value="0.0214638480065098" flag="0"/>
			<psa03 value="0.109036757528728" flag="0"/>
			<psa10 value="0.048780638187637" flag="0"/>
			<psa30 value="0.00379995560808982" flag="0"/>
		</comp>
		<comp name="--.HNZ" depth="0.0">
			<acc value="0.020057232433277" flag="0"/>
			<vel value="0.0292440814925904" flag="0"/>
			<psa03 value="0.0502902402389375" flag="0"/>
			<psa10 value="0.0286708060009885" flag="0"/>
			<psa30 value="0.0115546748591687" flag="0"/>
		</comp>
	</station>
	<station code="OSMT" name="OSMT" netid="KO" source="Bogazici University Kandilli Observatory And Earthquake Research Institute (KOERI)" insttype="" lat="40.6009" lon="29.7">
		<comp name="--.HNE" depth="0.0">
			<acc value="0.018218439602548" flag="0"/>
			<vel value="0.0155675375926055" flag="0"/>
			<psa03 value="0.0603124945214303" flag="0"/>
			<psa10 value="0.0253768847497514" flag="0"/>
			<psa30 value="0.00533103391856708" flag="0"/>
		</comp>
		<comp name="--.HNN" depth="0.0">
			<acc value="0.0316565946564056" flag="0"/>
			<vel value="0.0293545921445904" flag="0"/>
			<psa03 value="0.0789699946812497" flag="0"/>
			<psa10 value="0.0434370764512168" flag="0"/>
			<psa30 value="0.0054988171933856" flag="0"/>
		</comp>
		<comp name="--.HNZ" depth="0.0">
			<acc value="0.0198592209875571" flag="0"/>
			<vel value="0.0211286500840643" flag="0"/>
			<psa03 value="0.0422366430476485" flag="0"/>
			<psa10 value="0.0246359538081528" flag="0"/>
			<psa30 value="0.00510955999580663" flag="0"/>
		</comp>
	</station>
	<station code="SMAA" name="SMAA" netid="KO" source="Bogazici University Kandilli Observatory And Earthquake Research Institute (KOERI)" insttype="" lat="39.1005" lon="28.9805">
		<comp name="--.HNE" depth="0.0">
			<acc value="0.580584592717917" flag="0"/>
			<vel value="0.414895872274787" flag="0"/>
			<psa03 value="1.52441172169114" flag="0"/>
			<psa10 value="0.599642659273203" flag="0"/>
			<psa30 value="0.0954664462614064" flag="0"/>
		</comp>
		<comp name="--.HNN" depth="0.0">
			<acc value="0.821884241607918" flag="0"/>
			<vel value="0.636003593667925" flag="0"/>
			<psa03 value="1.82762965594316" flag="0"/>
			<psa10 value="0.963089420120285" flag="0"/>
			<psa30 value="0.303855063274272" flag="0"/>
		</comp>
		<comp name="--.HNZ" depth="0.0">
			<acc value="0.401704831792079" flag="0"/>
			<vel value="0.184526848989365" flag="0"/>
			<psa03 value="0.504915801687197" flag="0"/>
			<psa10 value="0.438848564550524" flag="0"/>
			<psa30 value="0.0623357371047086" flag="0"/>
		</comp>
	</station>
	<station code="UKOP" name="UKOP" netid="KO" source="Bogazici University Kandilli Observatory And Earthquake Research Institute (KOERI)" insttype="" lat="41.1288" lon="26.6323">
		<comp name="--.HNE" depth="0.0">
			<acc value="0.0416514058812158" flag="0"/>
			<vel value="0.0701349898100538" flag="0"/>
			<psa03 value="0.066844856687698" flag="0"/>
			<psa10 value="0.111183936024339" flag="0"/>
			<psa30 value="0.0110459559699189" flag="0"/>
		</comp>
		<comp name="--.HNN" depth="0.0">
			<acc value="0.0306304564714156" flag="0"/>
			<vel value="0.0371676189794555" flag="0"/>
			<psa03 value="0.0455923085440189" flag="0"/>
			<psa10 value="0.0668770710764632" flag="0"/>
