<stationlist xmlns:esm="https://esm-db.eu/esmws/shakemap/1/" created="1780538074">
	<station code="KRL1" name="KRL1" netid="HI" source="ITSAK Strong Motion Network" insttype="" lat="37.7951" lon="26.7065" esm:processing="manual (Paolucci et al 2011)" esm:quality="good">
		<comp name="--.HNE" depth="0.0">
			<acc value="0.0550623452531973" flag="0"/>
			<vel value="0.0299415857278191" flag="0"/>
			<psa03 value="0.179743052928628" flag="0"/>
			<psa10 value="0.0376537993794323" flag="0"/>
			<psa30 value="0.00390909437498614" flag="0"/>
		</comp>
		<comp name="--.HNN" depth="0.0">
			<acc value="0.0420552026307028" flag="0"/>
			<vel value="0.0303914339848282" flag="0"/>
			<psa03 value="0.103381556853971" flag="0"/>
			<psa10 value="0.0557224588395593" flag="0"/>
			<psa30 value="0.00296317650423275" flag="0"/>
		</comp>
		<comp name="--.HNZ" depth="0.0">
			<acc value="0.0494155688814256" flag="0"/>
			<vel value="0.0258518517365959" flag="0"/>
			<psa03 value="0.113250273108205" flag="0"/>
			<psa10 value="0.0167565694154975" flag="0"/>
			<psa30 value="0.00234860725036883" flag="0"/>
		</comp>
	</station>
	<station code="NAX1" name="NAX1" netid="HI" source="ITSAK Strong Motion Network" insttype="" lat="37.101394" lon="25.374103" esm:processing="manual (Paolucci et al 2011)" esm:quality="good">
		<comp name="--.HNE" depth="0.0">
			<acc value="0.00502804915946013" flag="0"/>
			<vel value="0.00258239501863641" flag="0"/>
			<psa03 value="0.014085068483346" flag="0"/>
			<psa10 value="0.00266173531127455" flag="0"/>
			<psa30 value="0.000428078931045163" flag="0"/>
		</comp>
		<comp name="--.HNN" depth="0.0">
			<acc value="0.010272382066046" flag="0"/>
			<vel value="0.00442569101520779" flag="0"/>
			<psa03 value="0.0239756950429609" flag="0"/>
			<psa10 value="0.00474906288337807" flag="0"/>
			<psa30 value="0.000821448062733925" flag="0"/>
		</comp>
		<comp name="--.HNZ" depth="0.0">
			<acc value="0.00635278129722116" flag="0"/>
			<vel value="0.00347174115206448" flag="0"/>
			<psa03 value="0.018195355092569" flag="0"/>
			<psa10 value="0.00395940776008131" flag="0"/>
			<psa30 value="0.000447011018536344" flag="0"/>
		</comp>
	</station>
	<station code="RDI1" name="RDI1" netid="HI" source="ITSAK Strong Motion Network" insttype="" lat="36.4514" lon="28.224" esm:processing="manual (Paolucci et al 2011)" esm:quality="good">
		<comp name="--.HNE" depth="0.0">
			<acc value="0.0412881953634488" flag="0"/>
			<vel value="0.048614693436464" flag="0"/>
			<psa03 value="0.157850504949263" flag="0"/>
			<psa10 value="0.0439122386855028" flag="0"/>
			<psa30 value="0.00809610228757627" flag="0"/>
		</comp>
		<comp name="--.HNN" depth="0.0">
			<acc value="0.043715779335873" flag="0"/>
			<vel value="0.0485978263265761" flag="0"/>
			<psa03 value="0.106128514098541" flag="0"/>
			<psa10 value="0.0521792562023609" flag="0"/>
			<psa30 value="0.0137457007172654" flag="0"/>
		</comp>
		<comp name="--.HNZ" depth="0.0">
			<acc value="0.0300773997620447" flag="0"/>
			<vel value="0.0195039226196809" flag="0"/>
			<psa03 value="0.0774935018628467" flag="0"/>
			<psa10 value="0.0371552706420114" flag="0"/>
			<psa30 value="0.00755114221096572" flag="0"/>
		</comp>
	</station>
	<station code="RGE1" name="RGE1" netid="HI" source="ITSAK Strong Motion Network" insttype="" lat="36.0269" lon="27.9306" esm:processing="manual (Paolucci et al 2011)" esm:quality="good">
		<comp name="--.HNE" depth="0.0">
			<acc value="0.0350486058181752" flag="0"/>
			<vel value="0.0301994243936884" flag="0"/>
			<psa03 value="0.122817357167156" flag="0"/>
			<psa10 value="0.0350331477821068" flag="0"/>
			<psa30 value="0.0025579119523666" flag="0"/>
		</comp>
		<comp name="--.HNN" depth="0.0">
			<acc value="0.0368386844474009" flag="0"/>
			<vel value="0.0299570882737937" flag="0"/>
			<psa03 value="0.125099209704688" flag="0"/>
			<psa10 value="0.0469766324167882" flag="0"/>
			<psa30 value="0.0028684228662974" flag="0"/>
		</comp>
		<comp name="--.HNZ" depth="0.0">
			<acc value="0.0181370805448458" flag="0"/>
			<vel value="0.0111186335396824" flag="0"/>
			<psa03 value="0.0584780640500812" flag="0"/>
			<psa10 value="0.0114441616088215" flag="0"/>
			<psa30 value="0.00319593581874315" flag="0"/>
		</comp>
	</station>
	<station code="RKT1" name="RKT1" netid="HI" source="ITSAK Strong Motion Network" insttype="" lat="35.954336" lon="27.767327" esm:processing="manual (Paolucci et al 2011)" esm:quality="good">
		<comp name="--.HNE" depth="0.0">
			<acc value="0.0388218399303338" flag="0"/>
			<vel value="0.0167293613717409" flag="0"/>
			<psa03 value="0.091458881618717" flag="0"/>
			<psa10 value="0.0133796769629347" flag="0"/>
			<psa30 value="0.00389117943820753" flag="0"/>
		</comp>
		<comp name="--.HNN" depth="0.0">
			<acc value="0.0371338361196733" flag="0"/>
			<vel value="0.0172586698426926" flag="0"/>
			<psa03 value="0.149627193317225" flag="0"/>
			<psa10 value="0.0121897100084641" flag="0"/>
			<psa30 value="0.00370322448711445" flag="0"/>
		</comp>
		<comp name="--.HNZ" depth="0.0">
			<acc value="0.0257750587122664" flag="0"/>
			<vel value="0.00933626880773221" flag="0"/>
			<psa03 value="0.0243344115145024" flag="0"/>
			<psa10 value="0.00817464809281705" flag="0"/>
			<psa30 value="0.00285081135226103" flag="0"/>
		</comp>
	</station>
	<station code="RLN1" name="RLN1" netid="HI" source="ITSAK Strong Motion Network" insttype="" lat="36.089085" lon="28.086909" esm:processing="manual (Paolucci et al 2011)" esm:quality="good">
		<comp name="--.HNE" depth="0.0">
			<acc value="0.0234225651250679" flag="0"/>
			<vel value="0.0144837112679208" flag="0"/>
			<psa03 value="0.0554186243368818" flag="0"/>
			<psa10 value="0.0185280930202314" flag="0"/>
			<psa30 value="0.00456698379026251" flag="0"/>
		</comp>
		<comp name="--.HNN" depth="0.0">
			<acc value="0.0237863358912582" flag="0"/>
			<vel value="0.0176920427185833" flag="0"/>
			<psa03 value="0.0492899631348218" flag="0"/>
			<psa10 value="0.0314175487584159" flag="0"/>
			<psa30 value="0.00260537342653633" flag="0"/>
		</comp>
		<comp name="--.HNZ" depth="0.0">
			<acc value="0.0139883398822841" flag="0"/>
			<vel value="0.0104151989559417" flag="0"/>
			<psa03 value="0.0376599947898291" flag="0"/>
			<psa10 value="0.00830868384702796" flag="0"/>
			<psa30 value="0.00304319263824373" flag="0"/>
		</comp>
	</station>
	<station code="RPN1" name="RPN1" netid="HI" source="ITSAK Strong Motion Network" insttype="" lat="36.448678" lon="28.218047" esm:processing="manual (Paolucci et al 2011)" esm:quality="good">
		<comp name="--.HNE" depth="0.0">
			<acc value="0.0621018905051233" flag="0"/>
			<vel value="0.0593938784111665" flag="0"/>
			<psa03 value="0.173959992745768" flag="0"/>
			<psa10 value="0.0501152748910085" flag="0"/>
			<psa30 value="0.00747681863587363" flag="0"/>
		</comp>
		<comp name="--.HNN" depth="0.0">
			<acc value="0.0838570709955147" flag="0"/>
			<vel value="0.0577524722386353" flag="0"/>
			<psa03 value="0.136130507561365" flag="0"/>
			<psa10 value="0.0531067730630809" flag="0"/>
			<psa30 value="0.0117747191840253" flag="0"/>
		</comp>
		<comp name="--.HNZ" depth="0.0">
			<acc value="0.0353529139211052" flag="0"/>
			<vel value="0.0247426986836969" flag="0"/>
			<psa03 value="0.110596753575477" flag="0"/>
			<psa10 value="0.033801630442127" flag="0"/>
			<psa30 value="0.00616377415312074" flag="0"/>
		</comp>
	</station>
	<station code="RSO1" name="RSO1" netid="HI" source="ITSAK Strong Motion Network" insttype="" lat="36.3632" lon="28.0016" esm:processing="manual (Paolucci et al 2011)" esm:quality="good">
		<comp name="--.HNE" depth="0.0">
			<acc value="0.0815435557451371" flag="0"/>
			<vel value="0.0576028588630364" flag="0"/>
			<psa03 value="0.208415681516049" flag="0"/>
			<psa10 value="0.0464764313354815" flag="0"/>
			<psa30 value="0.00787803604789144" flag="0"/>
		</comp>
		<comp name="--.HNN" depth="0.0">
			<acc value="0.0741132782903516" flag="0"/>
			<vel value="0.049732270181466" flag="0"/>
			<psa03 value="0.230783079913086" flag="0"/>
			<psa10 value="0.0472485324833932" flag="0"/>
			<psa30 value="0.00767677521534902" flag="0"/>
		</comp>
		<comp name="--.HNZ" depth="0.0">
			<acc value="0.0495047706939934" flag="0"/>
			<vel value="0.0215716345304611" flag="0"/>
			<psa03 value="0.119155039269902" flag="0"/>
			<psa10 value="0.0226214423095327" flag="0"/>
			<psa30 value="0.00396613940393737" flag="0"/>
		</comp>
	</station>
	<station code="SFIR" name="SFIR" netid="HI" source="ITSAK Strong Motion Network" insttype="" lat="36.421468" lon="25.428495" esm:processing="manual (Paolucci et al 2011)" esm:quality="good">
		<comp name="--.HNE" depth="0.0">
			<acc value="0.0137915877959929" flag="0"/>
			<vel value="0.0118882891387387" flag="0"/>
			<psa03 value="0.0515165585525073" flag="0"/>
			<psa10 value="0.0232163310929951" flag="0"/>
			<psa30 value="0.00210074645580943" flag="0"/>
		</comp>
		<comp name="--.HNN" depth="0.0">
			<acc value="0.0139007066683415" flag="0"/>
			<vel value="0.01078919263196" flag="0"/>
			<psa03 value="0.0456501803504087" flag="0"/>
			<psa10 value="0.0235448772325644" flag="0"/>
			<psa30 value="0.00175597361630087" flag="0"/>
		</comp>
		<comp name="--.HNZ" depth="0.0">
			<acc value="0.00862129422064383" flag="0"/>
			<vel value="0.00542259973234283" flag="0"/>
			<psa03 value="0.0283690121203251" flag="0"/>
			<psa10 value="0.00538421667793055" flag="0"/>
			<psa30 value="0.000549252114423657" flag="0"/>
		</comp>
	</station>
	<station code="IKRA" name="IKRA" netid="HL" source="National Observatory of Athens Seismic Network" insttype="" lat="37.61117" lon="26.29283" esm:processing="automatic (Paolucci et al 2011)" esm:quality="best">
		<comp name="00.HNE" depth="0.0">
			<acc value="0.0397042355670737" flag="0"/>
			<vel value="0.0277446201254404" flag="0"/>
			<psa03 value="0.13901403596297" flag="0"/>
			<psa10 value="0.0220185347209839" flag="0"/>
			<psa30 value="0.0025655181274917" flag="0"/>
		</comp>
		<comp name="00.HNN" depth="0.0">
			<acc value="0.0470631363206651" flag="0"/>
			<vel value="0.0345029462077107" flag="0"/>
			<psa03 value="0.121967255241409" flag="0"/>
			<psa10 value="0.0373042621900503" flag="0"/>
			<psa30 value="0.00243889768276199" flag="0"/>
		</comp>
		<comp name="00.HNZ" depth="0.0">
			<acc value="0.0274978848248472" flag="0"/>
			<vel value="0.0174259205235071" flag="0"/>
			<psa03 value="0.0803122608797978" flag="0"/>
			<psa10 value="0.0210037814748815" flag="0"/>
			<psa30 value="0.00141161661880647" flag="0"/>
		</comp>
	</station>
	<station code="KLNA" name="KLNA" netid="HL" source="National Observatory of Athens Seismic Network" insttype="" lat="36.95708" lon="26.97274" esm:processing="manual (Paolucci et al 2011)" esm:quality="best">
		<comp name="00.HNE" depth="0.0">
			<acc value="0.654768536981057" flag="0"/>
			<vel value="0.247511656485265" flag="0"/>
			<psa03 value="1.60203945017384" flag="0"/>
			<psa10 value="0.0539993691675922" flag="0"/>
			<psa30 value="0.00631178308763959" flag="0"/>
		</comp>
		<comp name="00.HNN" depth="0.0">
			<acc value="0.574956533546488" flag="0"/>
			<vel value="0.242389058494493" flag="0"/>
			<psa03 value="1.13381225791362" flag="0"/>
			<psa10 value="0.0613321694102607" flag="0"/>
			<psa30 value="0.00685942769664724" flag="0"/>
		</comp>
		<comp name="00.HNZ" depth="0.0">
			<acc value="1.06373755595782" flag="0"/>
			<vel value="0.241526969398384" flag="0"/>
			<psa03 value="0.774040174496101" flag="0"/>
			<psa10 value="0.041645151076155" flag="0"/>
			<psa30 value="0.00390823174810604" flag="0"/>
		</comp>
	</station>
	<station code="NISR" name="NISR" netid="HL" source="National Observatory of Athens Seismic Network" insttype="" lat="36.6106" lon="27.131" esm:processing="manual (Paolucci et al 2011)" esm:quality="good">
		<comp name="00.HNE" depth="0.0">
			<acc value="0.351885705797925" flag="0"/>
			<vel value="0.165734798276423" flag="0"/>
			<psa03 value="0.865090564964284" flag="0"/>
			<psa10 value="0.0806366418777803" flag="0"/>
			<psa30 value="0.00963523419524482" flag="0"/>
		</comp>
		<comp name="00.HNN" depth="0.0">
			<acc value="0.111411837215311" flag="0"/>
			<vel value="0.045535001676947" flag="0"/>
			<psa03 value="0.274269726570006" flag="0"/>
			<psa10 value="0.0323714339103858" flag="0"/>
			<psa30 value="0.00800080138747935" flag="0"/>
		</comp>
		<comp name="00.HNZ" depth="0.0">
			<acc value="0.108927555685287" flag="0"/>
			<vel value="0.0306353490053773" flag="0"/>
			<psa03 value="0.178208208960576" flag="0"/>
			<psa10 value="0.0461873798920419" flag="0"/>
			<psa30 value="0.00302457316739517" flag="0"/>
		</comp>
	</station>
	<station code="CAME" name="CAME" netid="KO" source="Bogazici University Kandilli Observatory And Earthquake Research Institute (KOERI)" insttype="" lat="36.9435" lon="29.3023" esm:processing="manual (Paolucci et al 2011)" esm:quality="good">
		<comp name="--.HNE" depth="0.0">
			<acc value="0.0811364096349284" flag="0"/>
			<vel value="0.0361916138139747" flag="0"/>
			<psa03 value="0.246842753913005" flag="0"/>
			<psa10 value="0.0344975835688861" flag="0"/>
			<psa30 value="0.00336998300248823" flag="0"/>
		</comp>
		<comp name="--.HNN" depth="0.0">
			<acc value="0.0874730432447357" flag="0"/>
			<vel value="0.0498892518724568" flag="0"/>
			<psa03 value="0.302367832326281" flag="0"/>
			<psa10 value="0.0261983516632628" flag="0"/>
			<psa30 value="0.00402545632944591" flag="0"/>
		</comp>
		<comp name="--.HNZ" depth="0.0">
			<acc value="0.0441131755363988" flag="0"/>
			<vel value="0.0211236067857144" flag="0"/>
			<psa03 value="0.104562536866901" flag="0"/>
			<psa10 value="0.0204480832686826" flag="0"/>
			<psa30 value="0.00223979486331068" flag="0"/>
		</comp>
	</station>
	<station code="GOMA" name="GOMA" netid="KO" source="Bogazici University Kandilli Observatory And Earthquake Research Institute (KOERI)" insttype="" lat="38.7077" lon="27.9175" esm:processing="manual (Paolucci et al 2011)" esm:quality="good">
		<comp name="--.HNE" depth="0.0">
			<acc value="0.0440402426117749" flag="0"/>
			<vel value="0.0305742946032249" flag="0"/>
			<psa03 value="0.163532765189783" flag="0"/>
			<psa10 value="0.0387579364830779" flag="0"/>
			<psa30 value="0.0023145143483632" flag="0"/>
		</comp>
		<comp name="--.HNN" depth="0.0">
			<acc value="0.0266321014944228" flag="0"/>
			<vel value="0.0215003362122991" flag="0"/>
			<psa03 value="0.0588360017030274" flag="0"/>
			<psa10 value="0.021644042451589" flag="0"/>
			<psa30 value="0.00288766201514326" flag="0"/>
		</comp>
		<comp name="--.HNZ" depth="0.0">
			<acc value="0.0224180776363464" flag="0"/>
			<vel value="0.0168830127030844" flag="0"/>
			<psa03 value="0.0685450605391923" flag="0"/>
			<psa10 value="0.0172628855795278" flag="0"/>
			<psa30 value="0.00208856620494093" flag="0"/>
		</comp>
	</station>
</stationlist>
