<?xml version="1.0" encoding="UTF-8" standalone="yes"?>
<!DOCTYPE earthquake SYSTEM "stationlist.dtd">
<stationlist created="" xmlns="ch.ethz.sed.shakemap.usgs.xml">
  <station code="KOSK" name="KOSK" netid="HC" source="NOA" insttype="120" lat="36.7516" lon="26.9785">
    <comp name="--.HHE">
      <acc value="0.8776439620" flag="0"/>
      <vel value="0.2856682140" flag="0"/>
      <psa03 value="1.8006107641" flag="0"/>
      <psa10 value="0.1682347570" flag="0"/>
      <psa30 value="0.0117099932" flag="0"/>
    </comp>
    <comp name="--.HHN">
      <acc value="0.8033408248" flag="0"/>
      <vel value="0.2886301596" flag="0"/>
      <psa03 value="2.2611862427" flag="0"/>
      <psa10 value="0.1204022832" flag="0"/>
      <psa30 value="0.0092969371" flag="0"/>
    </comp>
    <comp name="--.HHZ">
      <acc value="0.6909226732" flag="0"/>
      <vel value="0.1812633252" flag="0"/>
      <psa03 value="1.3550354040" flag="0"/>
      <psa10 value="0.0807485783" flag="0"/>
      <psa30 value="0.0057136585" flag="0"/>
    </comp>
  </station>
</stationlist>
