<?xml version="1.0" encoding="UTF-8" standalone="yes"?>
<!DOCTYPE earthquake SYSTEM "stationlist.dtd">
<stationlist created="" xmlns="ch.ethz.sed.shakemap.usgs.xml">
  <station code="BNN" name="BNN" netid="KO" insttype="CMG-3T" lat="38.8521" lon="35.8472">
    <comp name="--.HHE">
      <acc value="0.0093031077" flag="0"/>
      <vel value="0.0047613714" flag="0"/>
      <psa03 value="0.0195528751" flag="0"/>
      <psa10 value="0.0038961466" flag="0"/>
      <psa30 value="0.0003049916" flag="0"/>
    </comp>
    <comp name="--.HHZ">
      <acc value="0.0048865316" flag="0"/>
      <vel value="0.0018186790" flag="0"/>
      <psa03 value="0.0130455440" flag="0"/>
      <psa10 value="0.0022305188" flag="0"/>
      <psa30 value="0.0001460073" flag="0"/>
    </comp>
  </station>
  <station code="DARE" name="DARE" netid="KO" insttype="CMG-3ESP" lat="38.5712" lon="37.4832">
    <comp name="--.HHN">
      <acc value="0.0190877598" flag="0"/>
      <vel value="0.0057249670" flag="0"/>
      <psa03 value="0.0223320333" flag="0"/>
      <psa10 value="0.0033882714" flag="0"/>
      <psa30 value="0.0002135237" flag="0"/>
    </comp>
  </station>
  <station code="GAZ" name="GAZ" netid="KO" insttype="CMG-3T" lat="37.1721" lon="37.2096">
    <comp name="--.HHE">
      <acc value="0.0093316579" flag="0"/>
      <vel value="0.0034213918" flag="0"/>
      <psa03 value="0.0143003718" flag="0"/>
      <psa10 value="0.0045086596" flag="0"/>
      <psa30 value="0.0002184191" flag="0"/>
    </comp>
    <comp name="--.HHZ">
      <acc value="0.0077066362" flag="0"/>
      <vel value="0.0026009561" flag="0"/>
      <psa03 value="0.0069720400" flag="0"/>
      <psa10 value="0.0016667709" flag="0"/>
      <psa30 value="0.0001659608" flag="0"/>
    </comp>
  </station>
  <station code="KMRS" name="KMRS" netid="KO" insttype="CMG-3T" lat="37.5053" lon="36.9">
    <comp name="--.HHE">
      <acc value="0.0071922209" flag="0"/>
      <vel value="0.0039703464" flag="0"/>
      <psa03 value="0.0150517845" flag="0"/>
      <psa10 value="0.0031032212" flag="0"/>
      <psa30 value="0.0007522074" flag="0"/>
    </comp>
  </station>
  <station code="SARI" name="SARI" netid="KO" insttype="CMG-3T" lat="38.4072" lon="36.4181">
    <comp name="--.HHZ">
      <acc value="0.1039325506" flag="0"/>
      <vel value="0.0208888860" flag="0"/>
      <psa03 value="0.0664205311" flag="0"/>
      <psa10 value="0.0100785562" flag="0"/>
      <psa30 value="0.0006656191" flag="0"/>
    </comp>
  </station>
  <station code="ANDN" name="ANDN" netid="TU" insttype="T" lat="37.58" lon="36.3452">
    <comp name="--.HHN">
      <acc value="0.0547646406" flag="0"/>
      <vel value="0.0195357357" flag="0"/>
      <psa03 value="0.1306302161" flag="0"/>
      <psa10 value="0.0311242270" flag="0"/>
      <psa30 value="0.0010707227" flag="0"/>
    </comp>
    <comp name="--.HHZ">
      <acc value="0.0253359924" flag="0"/>
      <vel value="0.0176694602" flag="0"/>
      <psa03 value="0.1143875527" flag="0"/>
      <psa10 value="0.0275050449" flag="0"/>
      <psa30 value="0.0020024820" flag="0"/>
    </comp>
    <comp name="--.HHE">
      <acc value="0.0501986654" flag="0"/>
      <vel value="0.0193960792" flag="0"/>
      <psa03 value="0.1301354031" flag="0"/>
      <psa10 value="0.0140955511" flag="0"/>
      <psa30 value="0.0012738569" flag="0"/>
    </comp>
  </station>
</stationlist>
