<?xml version="1.0" encoding="UTF-8" standalone="yes"?>
<!DOCTYPE earthquake SYSTEM "stationlist.dtd">
<stationlist created="" xmlns="ch.ethz.sed.shakemap.usgs.xml">
  <station code="KRL1" name="KRL1" netid="HI" insttype="CMG-5TD,ACCELEROMETER,GURALP" lat="37.7951" lon="26.7065">
    <comp name="--.HNE">
      <acc value="0.2136061139" flag="0"/>
      <vel value="0.0958355787" flag="0"/>
      <psa03 value="0.4541755838" flag="0"/>
      <psa10 value="0.0440524165" flag="0"/>
      <psa30 value="0.0043282353" flag="0"/>
    </comp>
    <comp name="--.HNN">
      <acc value="0.1264061166" flag="0"/>
      <vel value="0.0560511814" flag="0"/>
      <psa03 value="0.3419505505" flag="0"/>
      <psa10 value="0.0269190662" flag="0"/>
      <psa30 value="0.0013661166" flag="0"/>
    </comp>
    <comp name="--.HNZ">
      <acc value="0.0956290852" flag="0"/>
      <vel value="0.0310579473" flag="0"/>
      <psa03 value="0.1325973949" flag="0"/>
      <psa10 value="0.0243639343" flag="0"/>
      <psa30 value="0.0018340314" flag="0"/>
    </comp>
  </station>
</stationlist>
