<stationlist xmlns:esm="https://esm-db.eu/esmws/shakemap/1/" created="1780710977">
	<station code="KRL1" name="KRL1" netid="HI" source="ITSAK Strong Motion Network" insttype="" lat="37.7951" lon="26.7065" esm:processing="manual (Paolucci et al 2011)" esm:quality="good">
		<comp name="--.HNE" depth="0.0">
			<acc value="0.2120520452963" flag="0"/>
			<vel value="0.0960737697020703" flag="0"/>
			<psa03 value="0.456549476332845" flag="0"/>
			<psa10 value="0.0442827041563021" flag="0"/>
			<psa30 value="0.00451583091398217" flag="0"/>
		</comp>
		<comp name="--.HNN" depth="0.0">
			<acc value="0.125962914698885" flag="0"/>
			<vel value="0.0567367440664123" flag="0"/>
			<psa03 value="0.345991483779095" flag="0"/>
			<psa10 value="0.0269151218132876" flag="0"/>
			<psa30 value="0.00140043106715191" flag="0"/>
		</comp>
		<comp name="--.HNZ" depth="0.0">
			<acc value="0.096698674200372" flag="0"/>
			<vel value="0.0317643360589398" flag="0"/>
			<psa03 value="0.133958166615106" flag="0"/>
			<psa10 value="0.0244668282671357" flag="0"/>
			<psa30 value="0.00196865709120396" flag="0"/>
		</comp>
	</station>
	<station code="MYT1" name="MYT1" netid="HI" source="ITSAK Strong Motion Network" insttype="" lat="39.085" lon="26.5694" esm:processing="manual (Paolucci et al 2011)" esm:quality="good">
		<comp name="--.HNE" depth="0.0">
			<acc value="0.0110172957375958" flag="0"/>
			<vel value="0.00781184932935993" flag="0"/>
			<psa03 value="0.0303094531650243" flag="0"/>
			<psa10 value="0.00971330939658506" flag="0"/>
			<psa30 value="0.000616317755110918" flag="0"/>
		</comp>
		<comp name="--.HNN" depth="0.0">
			<acc value="0.00910360051142489" flag="0"/>
			<vel value="0.00742704222288072" flag="0"/>
			<psa03 value="0.0283141465065782" flag="0"/>
			<psa10 value="0.00814541678138412" flag="0"/>
			<psa30 value="0.00049306438184724" flag="0"/>
		</comp>
		<comp name="--.HNZ" depth="0.0">
			<acc value="0.0100755931598052" flag="0"/>
			<vel value="0.00500253970867297" flag="0"/>
			<psa03 value="0.0251164841563269" flag="0"/>
			<psa10 value="0.00817374709563126" flag="0"/>
			<psa30 value="0.000693695224736437" flag="0"/>
		</comp>
	</station>
	<station code="NAX1" name="NAX1" netid="HI" source="ITSAK Strong Motion Network" insttype="" lat="37.101394" lon="25.374103" esm:processing="manual (Paolucci et al 2011)" esm:quality="good">
		<comp name="--.HNE" depth="0.0">
			<acc value="0.0108067044103184" flag="0"/>
			<vel value="0.00385429153744468" flag="0"/>
			<psa03 value="0.020114309036765" flag="0"/>
			<psa10 value="0.00213371298863776" flag="0"/>
			<psa30 value="0.000185091323891914" flag="0"/>
		</comp>
		<comp name="--.HNN" depth="0.0">
			<acc value="0.00773750800117864" flag="0"/>
			<vel value="0.00229859052595115" flag="0"/>
			<psa03 value="0.0134003707817312" flag="0"/>
			<psa10 value="0.00117372533166858" flag="0"/>
			<psa30 value="0.00012059314495402" flag="0"/>
		</comp>
		<comp name="--.HNZ" depth="0.0">
			<acc value="0.00792387343233193" flag="0"/>
			<vel value="0.00306672838793776" flag="0"/>
			<psa03 value="0.0206070877746919" flag="0"/>
			<psa10 value="0.00137797300269804" flag="0"/>
			<psa30 value="0.000100686025423847" flag="0"/>
		</comp>
	</station>
	<station code="PLM1" name="PLM1" netid="HI" source="ITSAK Strong Motion Network" insttype="" lat="38.9751" lon="26.3688" esm:processing="manual (Paolucci et al 2011)" esm:quality="good">
		<comp name="--.HNE" depth="0.0">
			<acc value="0.0214955262047863" flag="0"/>
			<vel value="0.011797884048572" flag="0"/>
			<psa03 value="0.0581076983081684" flag="0"/>
			<psa10 value="0.00652554853556475" flag="0"/>
			<psa30 value="0.00106914811748234" flag="0"/>
		</comp>
		<comp name="--.HNN" depth="0.0">
			<acc value="0.0256246775477399" flag="0"/>
			<vel value="0.0112362527341387" flag="0"/>
			<psa03 value="0.0465756062386654" flag="0"/>
			<psa10 value="0.0176049749931926" flag="0"/>
			<psa30 value="0.000920573795996042" flag="0"/>
		</comp>
		<comp name="--.HNZ" depth="0.0">
			<acc value="0.0143812922986233" flag="0"/>
			<vel value="0.00859070145105876" flag="0"/>
			<psa03 value="0.0236151008428673" flag="0"/>
			<psa10 value="0.0127082165444774" flag="0"/>
			<psa30 value="0.000962051231172562" flag="0"/>
		</comp>
	</station>
	<station code="SGR1" name="SGR1" netid="HI" source="ITSAK Strong Motion Network" insttype="" lat="39.211392" lon="25.855221" esm:processing="manual (Paolucci et al 2011)" esm:quality="good">
		<comp name="--.HNE" depth="0.0">
			<acc value="0.00589386373179575" flag="0"/>
			<vel value="0.00340323986066068" flag="0"/>
			<psa03 value="0.0119911784713074" flag="0"/>
			<psa10 value="0.00343702299840561" flag="0"/>
			<psa30 value="0.000322053756355801" flag="0"/>
		</comp>
		<comp name="--.HNN" depth="0.0">
			<acc value="0.00514516415051872" flag="0"/>
			<vel value="0.00351578517041341" flag="0"/>
			<psa03 value="0.0134057396269583" flag="0"/>
			<psa10 value="0.00405433264213991" flag="0"/>
			<psa30 value="0.0003237545721515" flag="0"/>
		</comp>
		<comp name="--.HNZ" depth="0.0">
			<acc value="0.00358230623618446" flag="0"/>
			<vel value="0.00166667090795062" flag="0"/>
			<psa03 value="0.00932420362022902" flag="0"/>
			<psa10 value="0.00175661074184065" flag="0"/>
			<psa30 value="0.000272733093270591" flag="0"/>
		</comp>
	</station>
	<station code="PRK" name="PRK" netid="HL" source="National Observatory of Athens Seismic Network" insttype="" lat="39.24565" lon="26.26499" esm:processing="manual (Paolucci et al 2011)" esm:quality="good">
		<comp name="--.HNE" depth="0.0">
			<acc value="0.0255676651825478" flag="0"/>
			<vel value="0.0268812262703403" flag="0"/>
			<psa03 value="0.0466856604043537" flag="0"/>
			<psa10 value="0.0392233121019484" flag="0"/>
			<psa30 value="0.00184563268077332" flag="0"/>
		</comp>
		<comp name="--.HNN" depth="0.0">
			<acc value="0.0198912859490324" flag="0"/>
			<vel value="0.0175288175987843" flag="0"/>
			<psa03 value="0.0646776647860671" flag="0"/>
			<psa10 value="0.021823096923057" flag="0"/>
			<psa30 value="0.00141382678408751" flag="0"/>
		</comp>
		<comp name="--.HNZ" depth="0.0">
			<acc value="0.0156129912829688" flag="0"/>
			<vel value="0.0136719661997705" flag="0"/>
			<psa03 value="0.0414099827914511" flag="0"/>
			<psa10 value="0.00840888861010647" flag="0"/>
			<psa30 value="0.00133287506726411" flag="0"/>
		</comp>
	</station>
</stationlist>
