<stationlist created="1631873505">
	<station code="KRL1" name="KRL1" netid="HI" source="ITSAK Strong Motion Network" insttype="" lat="37.7951" lon="26.7065">
		<comp name="--.HNE" depth="0.0">
			<acc value="-0.211304526" flag="0"/>
			<vel value="-0.095682" flag="0"/>
			<psa03 value="0.456549476333" flag="0"/>
			<psa10 value="0.0442827041563" flag="0"/>
			<psa30 value="0.00451583091398" flag="0"/>
		</comp>
		<comp name="--.HNN" depth="0.0">
			<acc value="0.125719794" flag="0"/>
			<vel value="-0.056439" flag="0"/>
			<psa03 value="0.345991483779" flag="0"/>
			<psa10 value="0.0269151218133" flag="0"/>
			<psa30 value="0.00140043106715" flag="0"/>
		</comp>
		<comp name="--.HNZ" depth="0.0">
			<acc value="0.095071956" flag="0"/>
			<vel value="-0.031508" flag="0"/>
			<psa03 value="0.133958166615" flag="0"/>
			<psa10 value="0.0244668282671" flag="0"/>
			<psa30 value="0.0019686570912" flag="0"/>
		</comp>
	</station>
</stationlist>
