<stationlist created="1778135784">
	<station code="KRL1" name="KRL1" netid="HI" source="ITSAK Strong Motion Network" insttype="" lat="37.7951" lon="26.7065">
		<comp name="--.HNE" depth="0.0">
			<acc value="0.2120520452963" flag="0"/>
			<vel value="0.0960737697020703" flag="0"/>
			<psa03 value="0.456549476332845" flag="0"/>
			<psa10 value="0.0442827041563021" flag="0"/>
			<psa30 value="0.00451583091398217" flag="0"/>
		</comp>
		<comp name="--.HNN" depth="0.0">
			<acc value="0.125962914698885" flag="0"/>
			<vel value="0.0567367440664123" flag="0"/>
			<psa03 value="0.345991483779095" flag="0"/>
			<psa10 value="0.0269151218132876" flag="0"/>
			<psa30 value="0.00140043106715191" flag="0"/>
		</comp>
		<comp name="--.HNZ" depth="0.0">
			<acc value="0.096698674200372" flag="0"/>
			<vel value="0.0317643360589398" flag="0"/>
			<psa03 value="0.133958166615106" flag="0"/>
			<psa10 value="0.0244668282671357" flag="0"/>
			<psa30 value="0.00196865709120396" flag="0"/>
		</comp>
	</station>
	<station code="MYT1" name="MYT1" netid="HI" source="ITSAK Strong Motion Network" insttype="" lat="39.085" lon="26.5694">
		<comp name="--.HNE" depth="0.0">
			<acc value="0.0110172957375958" flag="0"/>
			<vel value="0.00781184932935993" flag="0"/>
			<psa03 value="0.0303094531650243" flag="0"/>
			<psa10 value="0.00971330939658506" flag="0"/>
			<psa30 value="0.000616317755110918" flag="0"/>
		</comp>
		<comp name="--.HNN" depth="0.0">
			<acc value="0.00910360051142489" flag="0"/>
			<vel value="0.00742704222288072" flag="0"/>
			<psa03 value="0.0283141465065782" flag="0"/>
			<psa10 value="0.00814541678138412" flag="0"/>
			<psa30 value="0.00049306438184724" flag="0"/>
		</comp>
		<comp name="--.HNZ" depth="0.0">
			<acc value="0.0100755931598052" flag="0"/>
			<vel value="0.00500253970867297" flag="0"/>
			<psa03 value="0.0251164841563269" flag="0"/>
			<psa10 value="0.00817374709563126" flag="0"/>
			<psa30 value="0.000693695224736437" flag="0"/>
		</comp>
	</station>
	<station code="NAX1" name="NAX1" netid="HI" source="ITSAK Strong Motion Network" insttype="" lat="37.101394" lon="25.374103">
		<comp name="--.HNE" depth="0.0">
			<acc value="0.0108067044103184" flag="0"/>
			<vel value="0.00385429153744468" flag="0"/>
			<psa03 value="0.020114309036765" flag="0"/>
			<psa10 value="0.00213371298863776" flag="0"/>
			<psa30 value="0.000185091323891914" flag="0"/>
		</comp>
		<comp name="--.HNN" depth="0.0">
			<acc value="0.00773750800117864" flag="0"/>
			<vel value="0.00229859052595115" flag="0"/>
			<psa03 value="0.0134003707817312" flag="0"/>
			<psa10 value="0.00117372533166858" flag="0"/>
			<psa30 value="0.00012059314495402" flag="0"/>
		</comp>
		<comp name="--.HNZ" depth="0.0">
			<acc value="0.00792387343233193" flag="0"/>
			<vel value="0.00306672838793776" flag="0"/>
			<psa03 value="0.0206070877746919" flag="0"/>
			<psa10 value="0.00137797300269804" flag="0"/>
			<psa30 value="0.000100686025423847" flag="0"/>
		</comp>
	</station>
	<station code="PRK" name="PRK" netid="HL" source="National Observatory of Athens Seismic Network" insttype="" lat="39.24565" lon="26.26499">
		<comp name="--.HNE" depth="0.0">
			<acc value="0.0255676651825478" flag="0"/>
			<vel value="0.0268812262703403" flag="0"/>
			<psa03 value="0.0466856604043537" flag="0"/>
			<psa10 value="0.0392233121019484" flag="0"/>
			<psa30 value="0.00184563268077332" flag="0"/>
		</comp>
		<comp name="--.HNN" depth="0.0">
			<acc value="0.0198912859490324" flag="0"/>
			<vel value="0.0175288175987843" flag="0"/>
			<psa03 value="0.0646776647860671" flag="0"/>
			<psa10 value="0.021823096923057" flag="0"/>
			<psa30 value="0.00141382678408751" flag="0"/>
		</comp>
		<comp name="--.HNZ" depth="0.0">
			<acc value="0.0156129912829688" flag="0"/>
			<vel value="0.0136719661997705" flag="0"/>
			<psa03 value="0.0414099827914511" flag="0"/>
			<psa10 value="0.00840888861010647" flag="0"/>
			<psa30 value="0.00133287506726411" flag="0"/>
		</comp>
	</station>
	<station code="AKS" name="AKS" netid="KO" source="Bogazici University Kandilli Observatory And Earthquake Research Institute (KOERI)" insttype="" lat="38.8785" lon="27.8129">
		<comp name="--.HNE" depth="0.0">
			<acc value="0.00861313744167407" flag="0"/>
			<vel value="0.00573718949778589" flag="0"/>
			<psa03 value="0.0242502759871033" flag="0"/>
			<psa10 value="0.00695025437608233" flag="0"/>
			<psa30 value="0.000578516731574254" flag="0"/>
		</comp>
		<comp name="--.HNN" depth="0.0">
			<acc value="0.0107166096243631" flag="0"/>
			<vel value="0.00477423457530974" flag="0"/>
			<psa03 value="0.0208051260774964" flag="0"/>
			<psa10 value="0.0036684135206321" flag="0"/>
			<psa30 value="0.000731982500274926" flag="0"/>
		</comp>
		<comp name="--.HNZ" depth="0.0">
			<acc value="0.00556433266694127" flag="0"/>
			<vel value="0.00237433259123411" flag="0"/>
			<psa03 value="0.0103354497288208" flag="0"/>
			<psa10 value="0.00255299030963859" flag="0"/>
			<psa30 value="0.000437131358660515" flag="0"/>
		</comp>
	</station>
	<station code="DATC" name="DATC" netid="KO" source="Bogazici University Kandilli Observatory And Earthquake Research Institute (KOERI)" insttype="" lat="36.7584" lon="27.6602">
		<comp name="--.HNE" depth="0.0">
			<acc value="0.163143113954321" flag="0"/>
			<vel value="0.0327867215704491" flag="0"/>
			<psa03 value="0.103488723908063" flag="0"/>
			<psa10 value="0.0550141224136946" flag="0"/>
			<psa30 value="0.00379727107569272" flag="0"/>
		</comp>
		<comp name="--.HNN" depth="0.0">
			<acc value="0.178620179782258" flag="0"/>
			<vel value="0.0400616337746684" flag="0"/>
			<psa03 value="0.0978959480807786" flag="0"/>
			<psa10 value="0.0824044064612682" flag="0"/>
			<psa30 value="0.00479412743914782" flag="0"/>
		</comp>
		<comp name="--.HNZ" depth="0.0">
			<acc value="0.21509113148543" flag="0"/>
			<vel value="0.0340460388913696" flag="0"/>
			<psa03 value="0.0766433999370995" flag="0"/>
			<psa10 value="0.0458008072268601" flag="0"/>
			<psa30 value="0.00251943365467488" flag="0"/>
		</comp>
	</station>
	<station code="EZNE" name="EZNE" netid="KO" source="Bogazici University Kandilli Observatory And Earthquake Research Institute (KOERI)" insttype="" lat="39.756" lon="26.3655">
		<comp name="--.HNE" depth="0.0">
			<acc value="0.0237416691798694" flag="0"/>
			<vel value="0.012643975346278" flag="0"/>
			<psa03 value="0.0833547309298403" flag="0"/>
			<psa10 value="0.0191434005236938" flag="0"/>
			<psa30 value="0.00242860697523979" flag="0"/>
		</comp>
		<comp name="--.HNN" depth="0.0">
			<acc value="0.0386532613151334" flag="0"/>
			<vel value="0.0227924214986445" flag="0"/>
			<psa03 value="0.10147532461024" flag="0"/>
			<psa10 value="0.0185111931441776" flag="0"/>
			<psa30 value="0.00269571794875087" flag="0"/>
		</comp>
		<comp name="--.HNZ" depth="0.0">
			<acc value="0.022963550434141" flag="0"/>
			<vel value="0.00748538594239451" flag="0"/>
			<psa03 value="0.0497533337595182" flag="0"/>
			<psa10 value="0.0065757621066874" flag="0"/>
			<psa30 value="0.00163935445049348" flag="0"/>
		</comp>
	</station>
	<station code="GOMA" name="GOMA" netid="KO" source="Bogazici University Kandilli Observatory And Earthquake Research Institute (KOERI)" insttype="" lat="38.7077" lon="27.9175">
		<comp name="--.HNE" depth="0.0">
			<acc value="0.0175079177238853" flag="0"/>
			<vel value="0.00855311286224054" flag="0"/>
			<psa03 value="0.0506034356852654" flag="0"/>
			<psa10 value="0.00486839950213415" flag="0"/>
			<psa30 value="0.000421919008410303" flag="0"/>
		</comp>
		<comp name="--.HNN" depth="0.0">
			<acc value="0.0217938998584614" flag="0"/>
			<vel value="0.0105050562793686" flag="0"/>
			<psa03 value="0.0567331179919686" flag="0"/>
			<psa10 value="0.00775158729661558" flag="0"/>
			<psa30 value="0.000442053001388525" flag="0"/>
		</comp>
		<comp name="--.HNZ" depth="0.0">
			<acc value="0.0151754257367362" flag="0"/>
			<vel value="0.0044924392045554" flag="0"/>
			<psa03 value="0.0202682195980771" flag="0"/>
			<psa10 value="0.00417981694227895" flag="0"/>
			<psa30 value="0.000336908815835586" flag="0"/>
		</comp>
	</station>
	<station code="GORD" name="GORD" netid="KO" source="Bogazici University Kandilli Observatory And Earthquake Research Institute (KOERI)" insttype="" lat="38.9088" lon="28.1769">
		<comp name="--.HNE" depth="0.0">
			<acc value="0.0181154262125735" flag="0"/>
			<vel value="0.0151726865795337" flag="0"/>
			<psa03 value="0.0655920749023864" flag="0"/>
			<psa10 value="0.0377874780215276" flag="0"/>
			<psa30 value="0.00259773251625686" flag="0"/>
		</comp>
		<comp name="--.HNN" depth="0.0">
			<acc value="0.018191988753474" flag="0"/>
			<vel value="0.0198524234124672" flag="0"/>
			<psa03 value="0.0477846766683142" flag="0"/>
			<psa10 value="0.0318721108845259" flag="0"/>
			<psa30 value="0.00303620614111592" flag="0"/>
		</comp>
		<comp name="--.HNZ" depth="0.0">
			<acc value="0.0153681336140023" flag="0"/>
			<vel value="0.0173691366072454" flag="0"/>
			<psa03 value="0.044294784552089" flag="0"/>
			<psa10 value="0.0369176895248684" flag="0"/>
			<psa30 value="0.0023583617108491" flag="0"/>
		</comp>
	</station>
	<station code="KRBN" name="KRBN" netid="KO" source="Bogazici University Kandilli Observatory And Earthquake Research Institute (KOERI)" insttype="" lat="38.5936" lon="26.5537">
		<comp name="--.HNE" depth="0.0">
			<acc value="0.295693581769432" flag="0"/>
			<vel value="0.0991372488036747" flag="0"/>
			<psa03 value="0.944642208331572" flag="0"/>
			<psa10 value="0.204577475853121" flag="0"/>
			<psa30 value="0.00848043784242723" flag="0"/>
		</comp>
		<comp name="--.HNN" depth="0.0">
			<acc value="0.327400136681858" flag="0"/>
			<vel value="0.126938275735658" flag="0"/>
			<psa03 value="1.35304907034316" flag="0"/>
			<psa10 value="0.22322558014955" flag="0"/>
			<psa30 value="0.0120284948272562" flag="0"/>
		</comp>
		<comp name="--.HNZ" depth="0.0">
			<acc value="0.099087950583584" flag="0"/>
			<vel value="0.0510093949938407" flag="0"/>
			<psa03 value="0.497175399942236" flag="0"/>
			<psa10 value="0.131998457965225" flag="0"/>
			<psa30 value="0.00699007493997259" flag="0"/>
		</comp>
	</station>
	<station code="KUSD" name="KUSD" netid="KO" source="Bogazici University Kandilli Observatory And Earthquake Research Institute (KOERI)" insttype="" lat="37.8606" lon="27.2868">
		<comp name="--.HNE" depth="0.0">
			<acc value="0.0856456040433123" flag="0"/>
			<vel value="0.054977281040212" flag="0"/>
			<psa03 value="0.456281023093135" flag="0"/>
			<psa10 value="0.0444035081141714" flag="0"/>
			<psa30 value="0.00334537478884818" flag="0"/>
		</comp>
		<comp name="--.HNN" depth="0.0">
			<acc value="0.105603785215886" flag="0"/>
			<vel value="0.0561984243083755" flag="0"/>
			<psa03 value="0.546212858395862" flag="0"/>
			<psa10 value="0.068713291236077" flag="0"/>
			<psa30 value="0.00442410939041471" flag="0"/>
		</comp>
		<comp name="--.HNZ" depth="0.0">
			<acc value="0.0289523626632667" flag="0"/>
			<vel value="0.0182224352463048" flag="0"/>
			<psa03 value="0.230019684224535" flag="0"/>
			<psa10 value="0.0261460032815195" flag="0"/>
			<psa30 value="0.00218386710503784" flag="0"/>
		</comp>
	</station>
	<station code="NAZL" name="NAZL" netid="KO" source="Bogazici University Kandilli Observatory And Earthquake Research Institute (KOERI)" insttype="" lat="37.9641" lon="28.2922">
		<comp name="--.HNE" depth="0.0">
			<acc value="0.0550836192361716" flag="0"/>
			<vel value="0.0298593343133178" flag="0"/>
			<psa03 value="0.232614732208395" flag="0"/>
			<psa10 value="0.0353230772809932" flag="0"/>
			<psa30 value="0.00169528220876632" flag="0"/>
		</comp>
		<comp name="--.HNN" depth="0.0">
			<acc value="0.0557128223222016" flag="0"/>
			<vel value="0.0246176200038099" flag="0"/>
			<psa03 value="0.141788052773303" flag="0"/>
			<psa10 value="0.0196548039453406" flag="0"/>
			<psa30 value="0.00178342435580431" flag="0"/>
		</comp>
		<comp name="--.HNZ" depth="0.0">
			<acc value="0.0271984094989158" flag="0"/>
			<vel value="0.00989493620241967" flag="0"/>
			<psa03 value="0.053019514842652" flag="0"/>
			<psa10 value="0.0110938301310005" flag="0"/>
			<psa30 value="0.00102459653155842" flag="0"/>
		</comp>
	</station>
	<station code="SOMA" name="SOMA" netid="KO" source="Bogazici University Kandilli Observatory And Earthquake Research Institute (KOERI)" insttype="" lat="39.1564" lon="27.5341">
		<comp name="--.HNE" depth="0.0">
			<acc value="0.0562548942454505" flag="0"/>
			<vel value="0.0216744065845593" flag="0"/>
			<psa03 value="0.129662914779752" flag="0"/>
			<psa10 value="0.0361767585832698" flag="0"/>
			<psa30 value="0.00169930900736196" flag="0"/>
		</comp>
		<comp name="--.HNN" depth="0.0">
			<acc value="0.0556102527728653" flag="0"/>
			<vel value="0.0225874931389124" flag="0"/>
			<psa03 value="0.08957389764978" flag="0"/>
			<psa10 value="0.024893668918274" flag="0"/>
			<psa30 value="0.0020970672241984" flag="0"/>
		</comp>
		<comp name="--.HNZ" depth="0.0">
			<acc value="0.0361278320681115" flag="0"/>
			<vel value="0.0165369473058226" flag="0"/>
			<psa03 value="0.0621916671993977" flag="0"/>
			<psa10 value="0.0140615806959904" flag="0"/>
			<psa30 value="0.00273195913611167" flag="0"/>
		</comp>
	</station>
	<station code="YKAV" name="YKAV" netid="KO" source="Bogazici University Kandilli Observatory And Earthquake Research Institute (KOERI)" insttype="" lat="37.1246" lon="27.2801">
		<comp name="--.HNE" depth="0.0">
			<acc value="0.0175947342645777" flag="0"/>
			<vel value="0.0154042605436531" flag="0"/>
			<psa03 value="0.0425050962873582" flag="0"/>
			<psa10 value="0.0178226105843224" flag="0"/>
			<psa30 value="0.000944060559645534" flag="0"/>
		</comp>
		<comp name="--.HNN" depth="0.0">
			<acc value="0.0132776093536613" flag="0"/>
			<vel value="0.00734651395926194" flag="0"/>
			<psa03 value="0.0258162532187428" flag="0"/>
			<psa10 value="0.00718380869462971" flag="0"/>
			<psa30 value="0.000818782381114373" flag="0"/>
		</comp>
		<comp name="--.HNZ" depth="0.0">
			<acc value="0.0121170950791784" flag="0"/>
			<vel value="0.00597505561301454" flag="0"/>
			<psa03 value="0.0242502759871033" flag="0"/>
			<psa10 value="0.00556503565918064" flag="0"/>
			<psa30 value="0.000510061155448298" flag="0"/>
		</comp>
	</station>
</stationlist>
