<stationlist created="1642764503">
	<station code="KRL1" name="KRL1" netid="HI" source="ITSAK Strong Motion Network" insttype="" lat="37.7951" lon="26.7065">
		<comp name=".HNE" depth="0.0">
			<acc value="0.211304526" flag="0"/>
			<vel value="0.095682" flag="0"/>
			<psa03 value="0.456549476333" flag="0"/>
			<psa10 value="0.0442827041563" flag="0"/>
			<psa30 value="0.00451583091398" flag="0"/>
		</comp>
		<comp name=".HNN" depth="0.0">
			<acc value="0.125719794" flag="0"/>
			<vel value="0.056439" flag="0"/>
			<psa03 value="0.345991483779" flag="0"/>
			<psa10 value="0.0269151218133" flag="0"/>
			<psa30 value="0.00140043106715" flag="0"/>
		</comp>
		<comp name=".HNZ" depth="0.0">
			<acc value="0.095071956" flag="0"/>
			<vel value="0.031508" flag="0"/>
			<psa03 value="0.133958166615" flag="0"/>
			<psa10 value="0.0244668282671" flag="0"/>
			<psa30 value="0.0019686570912" flag="0"/>
		</comp>
	</station>
	<station code="MYT1" name="MYT1" netid="HI" source="ITSAK Strong Motion Network" insttype="" lat="39.085" lon="26.5694">
		<comp name=".HNE" depth="0.0">
			<acc value="0.019997508" flag="0"/>
			<vel value="0.016097" flag="0"/>
			<psa03 value="0.0619232139597" flag="0"/>
			<psa10 value="0.0208467363297" flag="0"/>
			<psa30 value="0.00123667459093" flag="0"/>
		</comp>
		<comp name=".HNN" depth="0.0">
			<acc value="0.020999352" flag="0"/>
			<vel value="0.011954" flag="0"/>
			<psa03 value="0.0574042510912" flag="0"/>
			<psa10 value="0.0133568909418" flag="0"/>
			<psa30 value="0.00137537543145" flag="0"/>
		</comp>
		<comp name=".HNZ" depth="0.0">
			<acc value="0.016514718" flag="0"/>
			<vel value="0.01191" flag="0"/>
			<psa03 value="0.0349436633689" flag="0"/>
			<psa10 value="0.0188252834346" flag="0"/>
			<psa30 value="0.00157671536123" flag="0"/>
		</comp>
	</station>
	<station code="NAX1" name="NAX1" netid="HI" source="ITSAK Strong Motion Network" insttype="" lat="37.101394" lon="25.374103">
		<comp name=".HNE" depth="0.0">
			<acc value="0.014830698" flag="0"/>
			<vel value="0.005051" flag="0"/>
			<psa03 value="0.0202234773915" flag="0"/>
			<psa10 value="0.00214628365148" flag="0"/>
			<psa30 value="0.000625496048523" flag="0"/>
		</comp>
		<comp name=".HNN" depth="0.0">
			<acc value="0.012116376" flag="0"/>
			<vel value="0.003082" flag="0"/>
			<psa03 value="0.0133779197789" flag="0"/>
			<psa10 value="0.00145770109162" flag="0"/>
			<psa30 value="0.000731087656143" flag="0"/>
		</comp>
		<comp name=".HNZ" depth="0.0">
			<acc value="0.008562186" flag="0"/>
			<vel value="0.003045" flag="0"/>
			<psa03 value="0.020626157251" flag="0"/>
			<psa10 value="0.00161071943826" flag="0"/>
			<psa30 value="0.000437578780727" flag="0"/>
		</comp>
	</station>
	<station code="SKY1" name="SKY1" netid="HI" source="ITSAK Strong Motion Network" insttype="" lat="38.904483" lon="24.564572">
		<comp name=".HNE" depth="0.0">
			<acc value="0.001233384" flag="0"/>
			<vel value="0.000993" flag="0"/>
			<psa03 value="0.00201339929782" flag="0"/>
			<psa10 value="0.00123220037027" flag="0"/>
			<psa30 value="0.000421024164278" flag="0"/>
		</comp>
		<comp name=".HNN" depth="0.0">
			<acc value="0.001394136" flag="0"/>
			<vel value="0.000939" flag="0"/>
			<psa03 value="0.0021923681243" flag="0"/>
			<psa10 value="0.00117985198852" flag="0"/>
			<psa30 value="0.000265321285246" flag="0"/>
		</comp>
		<comp name=".HNZ" depth="0.0">
			<acc value="0.001899138" flag="0"/>
			<vel value="0.000712" flag="0"/>
			<psa03 value="0.00120803957869" flag="0"/>
			<psa10 value="0.000708716552833" flag="0"/>
			<psa30 value="0.000341383036497" flag="0"/>
		</comp>
	</station>
	<station code="ASTA" name="ASTA" netid="HL" source="National Observatory of Athens Seismic Network" insttype="" lat="36.54543" lon="26.3528">
		<comp name="00.HNE" depth="0.0">
			<acc value="0.004396914" flag="0"/>
			<vel value="0.00171" flag="0"/>
			<psa03 value="0.0088142147038" flag="0"/>
			<psa10 value="0.00177581818068" flag="0"/>
			<psa30 value="0.000253240889459" flag="0"/>
		</comp>
		<comp name="00.HNN" depth="0.0">
			<acc value="0.00401217" flag="0"/>
			<vel value="0.001577" flag="0"/>
			<psa03 value="0.00939586338984" flag="0"/>
			<psa10 value="0.00207380127676" flag="0"/>
			<psa30 value="0.000637129022244" flag="0"/>
		</comp>
		<comp name="00.HNZ" depth="0.0">
			<acc value="0.003437808" flag="0"/>
			<vel value="0.001434" flag="0"/>
			<psa03 value="0.0103801919354" flag="0"/>
			<psa10 value="0.00201742609642" flag="0"/>
			<psa30 value="0.000440263313124" flag="0"/>
		</comp>
	</station>
	<station code="KYMI" name="KYMI" netid="HL" source="National Observatory of Athens Seismic Network" insttype="" lat="38.633147" lon="24.100138">
		<comp name=".HNE" depth="1.0">
			<acc value="0.000458388" flag="0"/>
			<vel value="0.001104" flag="0"/>
			<psa03 value="0.000671133099274" flag="0"/>
			<psa10 value="0.000547644609008" flag="0"/>
			<psa30 value="0.000516325064375" flag="0"/>
		</comp>
		<comp name=".HNN" depth="1.0">
			<acc value="0.000415956" flag="0"/>
			<vel value="0.000868" flag="0"/>
			<psa03 value="0.000760617512511" flag="0"/>
			<psa10 value="0.000527510616029" flag="0"/>
			<psa30 value="0.000336461393769" flag="0"/>
		</comp>
		<comp name=".HNZ" depth="1.0">
			<acc value="0.000317934" flag="0"/>
			<vel value="0.000813" flag="0"/>
			<psa03 value="0.000492164272801" flag="0"/>
			<psa10 value="0.000483215831477" flag="0"/>
			<psa30 value="0.000451448864778" flag="0"/>
		</comp>
	</station>
	<station code="PRK" name="PRK" netid="HL" source="National Observatory of Athens Seismic Network" insttype="" lat="39.24565" lon="26.26499">
		<comp name=".HNE" depth="0.0">
			<acc value="0.025564158" flag="0"/>
			<vel value="0.026863" flag="0"/>
			<psa03 value="0.0467108637095" flag="0"/>
			<psa10 value="0.0392210183216" flag="0"/>
			<psa30 value="0.00184427375681" flag="0"/>
		</comp>
		<comp name=".HNN" depth="0.0">
			<acc value="0.019903974" flag="0"/>
			<vel value="0.017523" flag="0"/>
			<psa03 value="0.06469723077" flag="0"/>
			<psa10 value="0.0218212215898" flag="0"/>
			<psa30 value="0.00141295888501" flag="0"/>
		</comp>
		<comp name=".HNZ" depth="0.0">
			<acc value="0.015644148" flag="0"/>
			<vel value="0.013662" flag="0"/>
			<psa03 value="0.0414312833285" flag="0"/>
			<psa10 value="0.00840795546771" flag="0"/>
			<psa30 value="0.0013297383807" flag="0"/>
		</comp>
	</station>
	<station code="THRA" name="THRA" netid="HL" source="National Observatory of Athens Seismic Network" insttype="" lat="36.41502" lon="25.43244">
		<comp name="00.HNE" depth="0.0">
			<acc value="0.015729114" flag="0"/>
			<vel value="0.008298" flag="0"/>
			<psa03 value="0.0339145926167" flag="0"/>
			<psa10 value="0.0121407977659" flag="0"/>
			<psa30 value="0.0018760407235" flag="0"/>
		</comp>
		<comp name="00.HNN" depth="0.0">
			<acc value="0.010328724" flag="0"/>
			<vel value="0.008631" flag="0"/>
			<psa03 value="0.0294851141614" flag="0"/>
			<psa10 value="0.0115891263583" flag="0"/>
			<psa30 value="0.00174002441538" flag="0"/>
		</comp>
		<comp name="00.HNZ" depth="0.0">
			<acc value="0.017627436" flag="0"/>
			<vel value="0.005015" flag="0"/>
			<psa03 value="0.0169572963083" flag="0"/>
			<psa10 value="0.00382948546446" flag="0"/>
			<psa30 value="0.00090021319716" flag="0"/>
		</comp>
	</station>
	<station code="AKS" name="AKS" netid="KO" source="Bogazici University Kandilli Observatory And Earthquake Research Institute (KOERI)" insttype="" lat="38.8785" lon="27.8129">
		<comp name=".HNE" depth="0.0">
			<acc value="0.00856596" flag="0"/>
			<vel value="0.005825" flag="0"/>
			<psa03 value="0.0242502759871" flag="0"/>
			<psa10 value="0.00695025437608" flag="0"/>
			<psa30 value="0.000578516731574" flag="0"/>
		</comp>
		<comp name=".HNN" depth="0.0">
			<acc value="0.010706022" flag="0"/>
			<vel value="0.004908" flag="0"/>
			<psa03 value="0.0208051260775" flag="0"/>
			<psa10 value="0.00366841352063" flag="0"/>
			<psa30 value="0.000731982500275" flag="0"/>
		</comp>
		<comp name=".HNZ" depth="0.0">
			<acc value="0.005520138" flag="0"/>
			<vel value="0.002449" flag="0"/>
			<psa03 value="0.0103354497288" flag="0"/>
			<psa10 value="0.00255299030964" flag="0"/>
			<psa30 value="0.000437131358661" flag="0"/>
		</comp>
	</station>
	<station code="DATC" name="DATC" netid="KO" source="Bogazici University Kandilli Observatory And Earthquake Research Institute (KOERI)" insttype="" lat="36.7584" lon="27.6602">
		<comp name=".HNE" depth="0.0">
			<acc value="0.150748044" flag="0"/>
			<vel value="0.032685" flag="0"/>
			<psa03 value="0.103488723908" flag="0"/>
			<psa10 value="0.0550141224137" flag="0"/>
			<psa30 value="0.00379727107569" flag="0"/>
		</comp>
		<comp name=".HNN" depth="0.0">
			<acc value="0.1686366" flag="0"/>
			<vel value="0.039875" flag="0"/>
			<psa03 value="0.0978959480808" flag="0"/>
			<psa10 value="0.0824044064613" flag="0"/>
			<psa30 value="0.00479412743915" flag="0"/>
		</comp>
		<comp name=".HNZ" depth="0.0">
			<acc value="0.209910696" flag="0"/>
			<vel value="0.033628" flag="0"/>
			<psa03 value="0.0766433999371" flag="0"/>
			<psa10 value="0.0458008072269" flag="0"/>
			<psa30 value="0.00251943365467" flag="0"/>
		</comp>
	</station>
	<station code="EZNE" name="EZNE" netid="KO" source="Bogazici University Kandilli Observatory And Earthquake Research Institute (KOERI)" insttype="" lat="39.756" lon="26.3655">
		<comp name=".HNE" depth="0.0">
			<acc value="0.02369766" flag="0"/>
			<vel value="0.012418" flag="0"/>
			<psa03 value="0.0833547309298" flag="0"/>
			<psa10 value="0.0191434005237" flag="0"/>
			<psa30 value="0.00242860697524" flag="0"/>
		</comp>
		<comp name=".HNN" depth="0.0">
			<acc value="0.03858762" flag="0"/>
			<vel value="0.023018" flag="0"/>
			<psa03 value="0.10147532461" flag="0"/>
			<psa10 value="0.0185111931442" flag="0"/>
			<psa30 value="0.00269571794875" flag="0"/>
		</comp>
		<comp name=".HNZ" depth="0.0">
			<acc value="0.012438594" flag="0"/>
			<vel value="0.007902" flag="0"/>
			<psa03 value="0.0497533337595" flag="0"/>
			<psa10 value="0.00657576210669" flag="0"/>
			<psa30 value="0.00163935445049" flag="0"/>
		</comp>
	</station>
	<station code="GOMA" name="GOMA" netid="KO" source="Bogazici University Kandilli Observatory And Earthquake Research Institute (KOERI)" insttype="" lat="38.7077" lon="27.9175">
		<comp name=".HNE" depth="0.0">
			<acc value="0.01751085" flag="0"/>
			<vel value="0.008839" flag="0"/>
			<psa03 value="0.0506034356853" flag="0"/>
			<psa10 value="0.00486839950213" flag="0"/>
			<psa30 value="0.00042191900841" flag="0"/>
		</comp>
		<comp name=".HNN" depth="0.0">
			<acc value="0.02173773" flag="0"/>
			<vel value="0.010566" flag="0"/>
			<psa03 value="0.056733117992" flag="0"/>
			<psa10 value="0.00775158729662" flag="0"/>
			<psa30 value="0.000442053001389" flag="0"/>
		</comp>
		<comp name=".HNZ" depth="0.0">
			<acc value="0.015524808" flag="0"/>
			<vel value="0.004456" flag="0"/>
			<psa03 value="0.0202682195981" flag="0"/>
			<psa10 value="0.00417981694228" flag="0"/>
			<psa30 value="0.000336908815836" flag="0"/>
		</comp>
	</station>
	<station code="GORD" name="GORD" netid="KO" source="Bogazici University Kandilli Observatory And Earthquake Research Institute (KOERI)" insttype="" lat="38.9088" lon="28.1769">
		<comp name=".HNE" depth="0.0">
			<acc value="0.019146522" flag="0"/>
			<vel value="0.015174" flag="0"/>
			<psa03 value="0.0655920749024" flag="0"/>
			<psa10 value="0.0377874780215" flag="0"/>
			<psa30 value="0.00259773251626" flag="0"/>
		</comp>
		<comp name=".HNN" depth="0.0">
			<acc value="0.018559716" flag="0"/>
			<vel value="0.019662" flag="0"/>
			<psa03 value="0.0477846766683" flag="0"/>
			<psa10 value="0.0318721108845" flag="0"/>
			<psa30 value="0.00303620614112" flag="0"/>
		</comp>
		<comp name=".HNZ" depth="0.0">
			<acc value="0.0152031" flag="0"/>
			<vel value="0.016929" flag="0"/>
			<psa03 value="0.0442947845521" flag="0"/>
			<psa10 value="0.0369176895249" flag="0"/>
			<psa30 value="0.00235836171085" flag="0"/>
		</comp>
	</station>
	<station code="KRBN" name="KRBN" netid="KO" source="Bogazici University Kandilli Observatory And Earthquake Research Institute (KOERI)" insttype="" lat="38.5936" lon="26.5537">
		<comp name=".HNE" depth="0.0">
			<acc value="0.430967748" flag="0"/>
			<vel value="0.144244" flag="0"/>
			<psa03 value="0.944642208332" flag="0"/>
			<psa10 value="0.204577475853" flag="0"/>
			<psa30 value="0.00848043784243" flag="0"/>
		</comp>
		<comp name=".HNN" depth="0.0">
			<acc value="0.497453388" flag="0"/>
			<vel value="0.275239" flag="0"/>
			<psa03 value="1.35304907034" flag="0"/>
			<psa10 value="0.22322558015" flag="0"/>
			<psa30 value="0.0120284948273" flag="0"/>
		</comp>
		<comp name=".HNZ" depth="0.0">
			<acc value="0.213695712" flag="0"/>
			<vel value="0.09558" flag="0"/>
			<psa03 value="0.497175399942" flag="0"/>
			<psa10 value="0.131998457965" flag="0"/>
			<psa30 value="0.00699007493997" flag="0"/>
		</comp>
	</station>
	<station code="KUSD" name="KUSD" netid="KO" source="Bogazici University Kandilli Observatory And Earthquake Research Institute (KOERI)" insttype="" lat="37.8606" lon="27.2868">
		<comp name=".HNE" depth="0.0">
			<acc value="0.172246584" flag="0"/>
			<vel value="0.084022" flag="0"/>
			<psa03 value="0.456281023093" flag="0"/>
			<psa10 value="0.0444035081142" flag="0"/>
			<psa30 value="0.00334537478885" flag="0"/>
		</comp>
		<comp name=".HNN" depth="0.0">
			<acc value="0.169522572" flag="0"/>
			<vel value="0.083879" flag="0"/>
			<psa03 value="0.546212858396" flag="0"/>
			<psa10 value="0.0687132912361" flag="0"/>
			<psa30 value="0.00442410939041" flag="0"/>
		</comp>
		<comp name=".HNZ" depth="0.0">
			<acc value="0.088985616" flag="0"/>
			<vel value="0.035811" flag="0"/>
			<psa03 value="0.230019684225" flag="0"/>
			<psa10 value="0.0261460032815" flag="0"/>
			<psa30 value="0.00218386710504" flag="0"/>
		</comp>
	</station>
	<station code="NAZL" name="NAZL" netid="KO" source="Bogazici University Kandilli Observatory And Earthquake Research Institute (KOERI)" insttype="" lat="37.9641" lon="28.2922">
		<comp name=".HNE" depth="0.0">
			<acc value="0.055069188" flag="0"/>
			<vel value="0.03013" flag="0"/>
			<psa03 value="0.232614732208" flag="0"/>
			<psa10 value="0.035323077281" flag="0"/>
			<psa30 value="0.00169528220877" flag="0"/>
		</comp>
		<comp name=".HNN" depth="0.0">
			<acc value="0.05580777" flag="0"/>
			<vel value="0.024327" flag="0"/>
			<psa03 value="0.141788052773" flag="0"/>
			<psa10 value="0.0196548039453" flag="0"/>
			<psa30 value="0.0017834243558" flag="0"/>
		</comp>
		<comp name=".HNZ" depth="0.0">
			<acc value="0.027372312" flag="0"/>
			<vel value="0.009996" flag="0"/>
			<psa03 value="0.0530195148427" flag="0"/>
			<psa10 value="0.011093830131" flag="0"/>
			<psa30 value="0.00102459653156" flag="0"/>
		</comp>
	</station>
	<station code="SOMA" name="SOMA" netid="KO" source="Bogazici University Kandilli Observatory And Earthquake Research Institute (KOERI)" insttype="" lat="39.1564" lon="27.5341">
		<comp name=".HNE" depth="0.0">
			<acc value="0.05664774" flag="0"/>
			<vel value="0.021835" flag="0"/>
			<psa03 value="0.12966291478" flag="0"/>
			<psa10 value="0.0361767585833" flag="0"/>
			<psa30 value="0.00169930900736" flag="0"/>
		</comp>
		<comp name=".HNN" depth="0.0">
			<acc value="0.05672832" flag="0"/>
			<vel value="0.022616" flag="0"/>
			<psa03 value="0.0895738976498" flag="0"/>
			<psa10 value="0.0248936689183" flag="0"/>
			<psa30 value="0.0020970672242" flag="0"/>
		</comp>
		<comp name=".HNZ" depth="0.0">
			<acc value="0.037177572" flag="0"/>
			<vel value="0.016743" flag="0"/>
			<psa03 value="0.0621916671994" flag="0"/>
			<psa10 value="0.014061580696" flag="0"/>
			<psa30 value="0.00273195913611" flag="0"/>
		</comp>
	</station>
	<station code="YKAV" name="YKAV" netid="KO" source="Bogazici University Kandilli Observatory And Earthquake Research Institute (KOERI)" insttype="" lat="37.1246" lon="27.2801">
		<comp name=".HNE" depth="0.0">
			<acc value="0.01788111" flag="0"/>
			<vel value="0.01542" flag="0"/>
			<psa03 value="0.0425050962874" flag="0"/>
			<psa10 value="0.0178226105843" flag="0"/>
			<psa30 value="0.000944060559646" flag="0"/>
		</comp>
		<comp name=".HNN" depth="0.0">
			<acc value="0.013506942" flag="0"/>
			<vel value="0.007372" flag="0"/>
			<psa03 value="0.0258162532187" flag="0"/>
			<psa10 value="0.00718380869463" flag="0"/>
			<psa30 value="0.000818782381114" flag="0"/>
		</comp>
		<comp name=".HNZ" depth="0.0">
			<acc value="0.012121782" flag="0"/>
			<vel value="0.006064" flag="0"/>
			<psa03 value="0.0242502759871" flag="0"/>
			<psa10 value="0.00556503565918" flag="0"/>
			<psa30 value="0.000510061155448" flag="0"/>
		</comp>
	</station>
</stationlist>
