<?xml version="1.0" encoding="UTF-8" standalone="yes"?>
<!DOCTYPE earthquake SYSTEM "stationlist.dtd">
<stationlist created="" xmlns="ch.ethz.sed.shakemap.usgs.xml">
  <station code="CEYT" name="CEYT" netid="KO" insttype="CMG-3ESP" lat="37.0105" lon="35.7478">
    <comp name="--.HHE">
      <acc value="0.0792928332" flag="0"/>
      <vel value="0.0289426787" flag="0"/>
      <psa03 value="0.1695155069" flag="0"/>
      <psa10 value="0.0256627074" flag="0"/>
      <psa30 value="0.0016128773" flag="0"/>
    </comp>
    <comp name="--.HHN">
      <acc value="0.0481861697" flag="0"/>
      <vel value="0.0222083065" flag="0"/>
      <psa03 value="0.1389721755" flag="0"/>
      <psa10 value="0.0251913221" flag="0"/>
      <psa30 value="0.0020065431" flag="0"/>
    </comp>
    <comp name="--.HHZ">
      <acc value="0.0441247229" flag="0"/>
      <vel value="0.0159610654" flag="0"/>
      <psa03 value="0.1043079145" flag="0"/>
      <psa10 value="0.0153084090" flag="0"/>
      <psa30 value="0.0010073534" flag="0"/>
    </comp>
  </station>
  <station code="GAZ" name="GAZ" netid="KO" insttype="CMG-3T" lat="37.1721" lon="37.2096">
    <comp name="--.HHE">
      <acc value="0.1185253424" flag="0"/>
      <vel value="0.0833531058" flag="0"/>
      <psa03 value="0.1780119777" flag="0"/>
      <psa10 value="0.0623822328" flag="0"/>
      <psa30 value="0.0037194051" flag="0"/>
    </comp>
    <comp name="--.HHN">
      <acc value="0.0749122465" flag="0"/>
      <vel value="0.0361646894" flag="0"/>
      <psa03 value="0.1463504426" flag="0"/>
      <psa10 value="0.0364247801" flag="0"/>
      <psa30 value="0.0023783662" flag="0"/>
    </comp>
    <comp name="--.HHZ">
      <acc value="0.0575884312" flag="0"/>
      <vel value="0.0497456858" flag="0"/>
      <psa03 value="0.1355136918" flag="0"/>
      <psa10 value="0.0481329149" flag="0"/>
      <psa30 value="0.0029944282" flag="0"/>
    </comp>
  </station>
  <station code="KRTS" name="KRTS" netid="KO" insttype="CMG-5T" lat="36.573" lon="35.375">
    <comp name="--.HNE">
      <acc value="0.0366008087" flag="0"/>
      <vel value="0.0326476241" flag="0"/>
      <psa03 value="0.0639357323" flag="0"/>
      <psa10 value="0.0611400300" flag="0"/>
      <psa30 value="0.0038890661" flag="0"/>
    </comp>
    <comp name="--.HNN">
      <acc value="0.0527024645" flag="0"/>
      <vel value="0.0298536711" flag="0"/>
      <psa03 value="0.1499022277" flag="0"/>
      <psa10 value="0.0208307977" flag="0"/>
      <psa30 value="0.0023772959" flag="0"/>
    </comp>
    <comp name="--.HNZ">
      <acc value="0.0308368130" flag="0"/>
      <vel value="0.0136083046" flag="0"/>
      <psa03 value="0.0645885702" flag="0"/>
      <psa10 value="0.0091648808" flag="0"/>
      <psa30 value="0.0023035838" flag="0"/>
    </comp>
  </station>
  <station code="ANDN" name="ANDN" netid="TU" insttype="T" lat="37.58" lon="36.3452">
    <comp name="--.HHN">
      <acc value="0.1730020121" flag="0"/>
      <vel value="0.0592310509" flag="0"/>
      <psa03 value="0.3562494733" flag="0"/>
      <psa10 value="0.0393303731" flag="0"/>
      <psa30 value="0.0024558052" flag="0"/>
    </comp>
    <comp name="--.HHE">
      <acc value="0.1002560773" flag="0"/>
      <vel value="0.0459221747" flag="0"/>
      <psa03 value="0.2566036841" flag="0"/>
      <psa10 value="0.0561236204" flag="0"/>
      <psa30 value="0.0031339789" flag="0"/>
    </comp>
    <comp name="--.HHZ">
      <acc value="0.0518294474" flag="0"/>
      <vel value="0.0311726928" flag="0"/>
      <psa03 value="0.1456129695" flag="0"/>
      <psa10 value="0.0228206335" flag="0"/>
      <psa30 value="0.0020757626" flag="0"/>
    </comp>
  </station>
</stationlist>
