<?xml version="1.0" encoding="UTF-8" standalone="yes"?>
<!DOCTYPE earthquake SYSTEM "stationlist.dtd">
<stationlist created="" xmlns="ch.ethz.sed.shakemap.usgs.xml">
  <station code="CEYT" name="CEYT" netid="KO" insttype="CMG-3ESP" lat="37.0105" lon="35.7478">
    <comp name="--.HHE">
      <acc value="0.0792928335" flag="0"/>
      <vel value="0.0289426886" flag="0"/>
      <psa03 value="0.1695155069" flag="0"/>
      <psa10 value="0.0256627139" flag="0"/>
      <psa30 value="0.0016121811" flag="0"/>
    </comp>
    <comp name="--.HHN">
      <acc value="0.0481861697" flag="0"/>
      <vel value="0.0222082981" flag="0"/>
      <psa03 value="0.1389721755" flag="0"/>
      <psa10 value="0.0251913134" flag="0"/>
      <psa30 value="0.0020058573" flag="0"/>
    </comp>
    <comp name="--.HHZ">
      <acc value="0.0441247228" flag="0"/>
      <vel value="0.0159610784" flag="0"/>
      <psa03 value="0.1043079145" flag="0"/>
      <psa10 value="0.0153084091" flag="0"/>
      <psa30 value="0.0010049368" flag="0"/>
    </comp>
  </station>
  <station code="GAZ" name="GAZ" netid="KO" insttype="CMG-3T" lat="37.1721" lon="37.2096">
    <comp name="--.HHN">
      <acc value="0.0749122460" flag="0"/>
      <vel value="0.0361646896" flag="0"/>
      <psa03 value="0.1463504426" flag="0"/>
      <psa10 value="0.0364247789" flag="0"/>
      <psa30 value="0.0023790260" flag="0"/>
    </comp>
    <comp name="--.HHE">
      <acc value="0.1185253418" flag="0"/>
      <vel value="0.0833531131" flag="0"/>
      <psa03 value="0.1780119777" flag="0"/>
      <psa10 value="0.0623824763" flag="0"/>
      <psa30 value="0.0037241158" flag="0"/>
    </comp>
    <comp name="--.HHZ">
      <acc value="0.0575884323" flag="0"/>
      <vel value="0.0497456613" flag="0"/>
      <psa03 value="0.1355136918" flag="0"/>
      <psa10 value="0.0481329241" flag="0"/>
      <psa30 value="0.0029962221" flag="0"/>
    </comp>
  </station>
  <station code="KMRS" name="KMRS" netid="KO" insttype="CMG-3T" lat="37.5053" lon="36.9">
    <comp name="--.HHE">
      <acc value="0.1345617763" flag="0"/>
      <vel value="0.0178764193" flag="0"/>
      <psa03 value="0.0876447949" flag="0"/>
      <psa10 value="0.0142742304" flag="0"/>
      <psa30 value="0.0010373773" flag="0"/>
    </comp>
    <comp name="--.HHN">
      <acc value="0.1315270651" flag="0"/>
      <vel value="0.0217604369" flag="0"/>
      <psa03 value="0.0761003624" flag="0"/>
      <psa10 value="0.0312141806" flag="0"/>
      <psa30 value="0.0012664954" flag="0"/>
    </comp>
    <comp name="--.HHZ">
      <acc value="0.0666555709" flag="0"/>
      <vel value="0.0152895471" flag="0"/>
      <psa03 value="0.0662570249" flag="0"/>
      <psa10 value="0.0190619635" flag="0"/>
      <psa30 value="0.0015818945" flag="0"/>
    </comp>
  </station>
</stationlist>
