<stationlist created="1778723795">
	<station code="0904" name="0904" netid="TK" source="Turkish National Strong Motion Network (TNSMN)" insttype="" lat="37.85716" lon="28.05025">
		<comp name="00.HNE" depth="None">
			<acc value="0.183104686740221" flag="0"/>
			<vel value="0.0945981521451566" flag="0"/>
			<psa03 value="0.62495914204402" flag="0"/>
			<psa10 value="0.15283311389909" flag="0"/>
			<psa30 value="0.00864106236418682" flag="0"/>
		</comp>
		<comp name="00.HNN" depth="None">
			<acc value="0.315840113917785" flag="0"/>
			<vel value="0.253070601070844" flag="0"/>
			<psa03 value="1.02553611789741" flag="0"/>
			<psa10 value="0.133134015169197" flag="0"/>
			<psa30 value="0.0132553261327292" flag="0"/>
		</comp>
		<comp name="00.HNZ" depth="None">
			<acc value="0.0766921622054699" flag="0"/>
			<vel value="0.0577236892036316" flag="0"/>
			<psa03 value="0.365275374831571" flag="0"/>
			<psa10 value="0.0929747527748349" flag="0"/>
			<psa30 value="0.00405185423135069" flag="0"/>
		</comp>
	</station>
	<station code="0908" name="0908" netid="TK" source="Turkish National Strong Motion Network (TNSMN)" insttype="" lat="37.91333" lon="28.34308">
		<comp name="00.HNE" depth="None">
			<acc value="0.243940690585553" flag="0"/>
			<vel value="0.224767676893057" flag="0"/>
			<psa03 value="0.72540539590204" flag="0"/>
			<psa10 value="0.318692921255089" flag="0"/>
			<psa30 value="0.0167389543400278" flag="0"/>
		</comp>
		<comp name="00.HNN" depth="None">
			<acc value="0.386564131201051" flag="0"/>
			<vel value="0.257580618819852" flag="0"/>
			<psa03 value="1.12951700607827" flag="0"/>
			<psa10 value="0.270701535592199" flag="0"/>
			<psa30 value="0.0186221538165909" flag="0"/>
		</comp>
		<comp name="00.HNZ" depth="None">
			<acc value="0.0724355509558295" flag="0"/>
			<vel value="0.0707585922428986" flag="0"/>
			<psa03 value="0.254269960211638" flag="0"/>
			<psa10 value="0.156118981553136" flag="0"/>
			<psa30 value="0.00667195785091668" flag="0"/>
		</comp>
	</station>
	<station code="0909" name="0909" netid="TK" source="Turkish National Strong Motion Network (TNSMN)" insttype="" lat="37.88405" lon="28.15056">
		<comp name="00.HNE" depth="None">
			<acc value="0.333347517601444" flag="0"/>
			<vel value="0.255501667109875" flag="0"/>
			<psa03 value="1.05672143591034" flag="0"/>
			<psa10 value="0.299698512279434" flag="0"/>
			<psa30 value="0.0175331285075021" flag="0"/>
		</comp>
		<comp name="00.HNN" depth="None">
			<acc value="0.39565468519617" flag="0"/>
			<vel value="0.240158794857918" flag="0"/>
			<psa03 value="1.06947296479655" flag="0"/>
			<psa10 value="0.284593990747172" flag="0"/>
			<psa30 value="0.0234019637496209" flag="0"/>
		</comp>
		<comp name="00.HNZ" depth="None">
			<acc value="0.144304919300869" flag="0"/>
			<vel value="0.122521409085257" flag="0"/>
			<psa03 value="0.53435617364202" flag="0"/>
			<psa10 value="0.170188615846317" flag="0"/>
			<psa30 value="0.00652028177048074" flag="0"/>
		</comp>
	</station>
	<station code="1001" name="1001" netid="TK" source="Turkish National Strong Motion Network (TNSMN)" insttype="" lat="39.65003" lon="27.85686">
		<comp name="00.HNE" depth="None">
			<acc value="0.0863623297632031" flag="0"/>
			<vel value="0.0672893437485878" flag="0"/>
			<psa03 value="0.387691220347325" flag="0"/>
			<psa10 value="0.0510759133871543" flag="0"/>
			<psa30 value="0.00545854920742915" flag="0"/>
		</comp>
		<comp name="00.HNN" depth="None">
			<acc value="0.0683150940062277" flag="0"/>
			<vel value="0.0411698102235581" flag="0"/>
			<psa03 value="0.245545229921075" flag="0"/>
			<psa10 value="0.0535765553150495" flag="0"/>
			<psa30 value="0.00435565381428875" flag="0"/>
		</comp>
		<comp name="00.HNZ" depth="None">
			<acc value="0.038772660092263" flag="0"/>
			<vel value="0.0273118818275866" flag="0"/>
			<psa03 value="0.164159156082439" flag="0"/>
			<psa10 value="0.0186561578936208" flag="0"/>
			<psa30 value="0.00375431855733918" flag="0"/>
		</comp>
	</station>
	<station code="3502" name="3502" netid="TK" source="Turkish National Strong Motion Network (TNSMN)" insttype="" lat="38.45514" lon="27.22673">
		<comp name="00.HNE" depth="None">
			<acc value="0.320198459242231" flag="0"/>
			<vel value="0.209507201130974" flag="0"/>
			<psa03 value="0.846701518044175" flag="0"/>
			<psa10 value="0.216496799696229" flag="0"/>
			<psa30 value="0.0107300759911939" flag="0"/>
		</comp>
		<comp name="00.HNN" depth="None">
			<acc value="0.162006839027576" flag="0"/>
			<vel value="0.110448150495139" flag="0"/>
			<psa03 value="0.558024800943085" flag="0"/>
			<psa10 value="0.125116659165269" flag="0"/>
			<psa30 value="0.00730416523043286" flag="0"/>
		</comp>
		<comp name="00.HNZ" depth="None">
			<acc value="0.112237047513303" flag="0"/>
			<vel value="0.0691985251781454" flag="0"/>
			<psa03 value="0.27391178891706" flag="0"/>
			<psa10 value="0.0518973803006658" flag="0"/>
			<psa30 value="0.00346707359084988" flag="0"/>
		</comp>
	</station>
</stationlist>
