<?xml version="1.0" encoding="UTF-8" standalone="yes"?>
<!DOCTYPE earthquake SYSTEM "stationlist.dtd">
<stationlist created="" xmlns="ch.ethz.sed.shakemap.usgs.xml">
  <station code="SAMO" name="SAMO" netid="Z3" source="GFZ" insttype="CMG-3ESP/60" lat="37.7043" lon="26.8377">
    <comp name="--.HHE">
      <acc value="0.0147479019" flag="0"/>
      <vel value="0.0088767117" flag="0"/>
      <psa03 value="0.0419427322" flag="0"/>
      <psa10 value="0.0063775645" flag="0"/>
      <psa30 value="0.0004337592" flag="0"/>
    </comp>
    <comp name="--.HHN">
      <acc value="0.0209811705" flag="0"/>
      <vel value="0.0124705663" flag="0"/>
      <psa03 value="0.0595529732" flag="0"/>
      <psa10 value="0.0089074499" flag="0"/>
      <psa30 value="0.0007243880" flag="0"/>
    </comp>
    <comp name="--.HHZ">
      <acc value="0.0084985531" flag="0"/>
      <vel value="0.0048226563" flag="0"/>
      <psa03 value="0.0363069324" flag="0"/>
      <psa10 value="0.0028403313" flag="0"/>
      <psa30 value="0.0002536289" flag="0"/>
    </comp>
  </station>
  <station code="TUR1" name="TUR1" netid="Z3" source="GFZ" insttype="CMG-3ESP/60" lat="38.0865" lon="26.8676">
    <comp name="--.HHE">
      <acc value="0.0236109082" flag="0"/>
      <vel value="0.0119111527" flag="0"/>
      <psa03 value="0.0762874175" flag="0"/>
      <psa10 value="0.0139610179" flag="0"/>
      <psa30 value="0.0006654772" flag="0"/>
    </comp>
    <comp name="--.HHN">
      <acc value="0.0246353628" flag="0"/>
      <vel value="0.0088929261" flag="0"/>
      <psa03 value="0.0725896155" flag="0"/>
      <psa10 value="0.0128200385" flag="0"/>
      <psa30 value="0.0007883536" flag="0"/>
    </comp>
    <comp name="--.HHZ">
      <acc value="0.0233948181" flag="0"/>
      <vel value="0.0159337830" flag="0"/>
      <psa03 value="0.0557876084" flag="0"/>
      <psa10 value="0.0089595321" flag="0"/>
      <psa30 value="0.0007059270" flag="0"/>
    </comp>
  </station>
  <station code="TUR2" name="TUR2" netid="Z3" source="GFZ" insttype="CMG-3ESP/60" lat="37.642" lon="27.2418">
    <comp name="--.HHE">
      <acc value="0.0121894545" flag="0"/>
      <vel value="0.0073799480" flag="0"/>
      <psa03 value="0.0347169690" flag="0"/>
      <psa10 value="0.0105141014" flag="0"/>
      <psa30 value="0.0010798918" flag="0"/>
    </comp>
    <comp name="--.HHN">
      <acc value="0.0176637903" flag="0"/>
      <vel value="0.0150543508" flag="0"/>
      <psa03 value="0.0464958794" flag="0"/>
      <psa10 value="0.0127910592" flag="0"/>
      <psa30 value="0.0009092231" flag="0"/>
    </comp>
    <comp name="--.HHZ">
      <acc value="0.0093392220" flag="0"/>
      <vel value="0.0076626476" flag="0"/>
      <psa03 value="0.0284567608" flag="0"/>
      <psa10 value="0.0089889505" flag="0"/>
      <psa30 value="0.0008152814" flag="0"/>
    </comp>
  </station>
  <station code="TUR3" name="TUR3" netid="Z3" source="GFZ" insttype="CMG-3ESP/60" lat="37.4663" lon="27.538">
    <comp name="--.HHE">
      <acc value="0.0622583670" flag="0"/>
      <vel value="0.0580848070" flag="0"/>
      <psa03 value="0.2098927059" flag="0"/>
      <psa10 value="0.0641824722" flag="0"/>
      <psa30 value="0.0028876472" flag="0"/>
    </comp>
    <comp name="--.HHN">
      <acc value="0.0779306750" flag="0"/>
      <vel value="0.0417335805" flag="0"/>
      <psa03 value="0.2318836983" flag="0"/>
      <psa10 value="0.0381901620" flag="0"/>
      <psa30 value="0.0017055492" flag="0"/>
    </comp>
    <comp name="--.HHZ">
      <acc value="0.0271451864" flag="0"/>
      <vel value="0.0185747660" flag="0"/>
      <psa03 value="0.1335450521" flag="0"/>
      <psa10 value="0.0163573393" flag="0"/>
      <psa30 value="0.0009760697" flag="0"/>
    </comp>
  </station>
</stationlist>
