<stationlist created="1663862440">
	<station code="ACT" name="ACT" netid="IT" source="Italian Strong Motion Network (RAN)" insttype="" lat="42.771301" lon="13.4125">
		<comp name="00.HNE" depth="0.0">
			<acc value="3.1854056124" flag="0"/>
			<vel value="0.596057030124" flag="0"/>
			<psa03 value="1.73257344115" flag="0"/>
			<psa10 value="0.0992318136208" flag="0"/>
			<psa30 value="0.0109561574583" flag="0"/>
		</comp>
		<comp name="00.HNN" depth="0.0">
			<acc value="2.90564053501" flag="0"/>
			<vel value="0.529221324704" flag="0"/>
			<psa03 value="1.42155817125" flag="0"/>
			<psa10 value="0.0810583872205" flag="0"/>
			<psa30 value="0.00940216118038" flag="0"/>
		</comp>
		<comp name="00.HNZ" depth="0.0">
			<acc value="1.82562214607" flag="0"/>
			<vel value="0.231844518063" flag="0"/>
			<psa03 value="0.594833863155" flag="0"/>
			<psa10 value="0.0419296826358" flag="0"/>
			<psa30 value="0.00440631689687" flag="0"/>
		</comp>
	</station>
	<station code="AMT" name="AMT" netid="IT" source="Italian Strong Motion Network (RAN)" insttype="" lat="42.63246" lon="13.286176">
		<comp name="00.HNE" depth="0.0">
			<acc value="0.171322677847" flag="0"/>
			<vel value="0.0705011007222" flag="0"/>
			<psa03 value="0.405659414612" flag="0"/>
			<psa10 value="0.0371349225064" flag="0"/>
			<psa30 value="0.00291309922853" flag="0"/>
		</comp>
		<comp name="00.HNN" depth="0.0">
			<acc value="0.290404121698" flag="0"/>
			<vel value="0.0816463984767" flag="0"/>
			<psa03 value="0.602368903984" flag="0"/>
			<psa10 value="0.0283328944152" flag="0"/>
			<psa30 value="0.00299229384978" flag="0"/>
		</comp>
		<comp name="00.HNZ" depth="0.0">
			<acc value="0.139834024404" flag="0"/>
			<vel value="0.0337728215367" flag="0"/>
			<psa03 value="0.236113787213" flag="0"/>
			<psa10 value="0.0140461082983" flag="0"/>
			<psa30 value="0.00125765070902" flag="0"/>
		</comp>
	</station>
	<station code="ANB" name="ANB" netid="IT" source="Italian Strong Motion Network (RAN)" insttype="" lat="43.59229" lon="13.507411">
		<comp name="00.HGE" depth="0.0">
			<acc value="0.0651031564876" flag="0"/>
			<vel value="0.0322285149521" flag="0"/>
			<psa03 value="0.143139096846" flag="0"/>
			<psa10 value="0.0428312086074" flag="0"/>
			<psa30 value="0.00207048965978" flag="0"/>
		</comp>
		<comp name="00.HGN" depth="0.0">
			<acc value="0.111985231617" flag="0"/>
			<vel value="0.0289550574295" flag="0"/>
			<psa03 value="0.162451594954" flag="0"/>
			<psa10 value="0.0377725247444" flag="0"/>
			<psa30 value="0.00168343287333" flag="0"/>
		</comp>
		<comp name="00.HGZ" depth="0.0">
			<acc value="0.117495779605" flag="0"/>
			<vel value="0.0151679370412" flag="0"/>
			<psa03 value="0.0817785007576" flag="0"/>
			<psa10 value="0.0202816173076" flag="0"/>
			<psa30 value="0.000798919382823" flag="0"/>
		</comp>
	</station>
	<station code="ANT" name="ANT" netid="IT" source="Italian Strong Motion Network (RAN)" insttype="" lat="42.41811" lon="13.078598">
		<comp name="00.HNE" depth="0.0">
			<acc value="0.0380526010649" flag="0"/>
			<vel value="0.0252898539537" flag="0"/>
			<psa03 value="0.152862043027" flag="0"/>
			<psa10 value="0.0204759308049" flag="0"/>
			<psa30 value="0.00103610165748" flag="0"/>
		</comp>
		<comp name="00.HNN" depth="0.0">
			<acc value="0.029698384732" flag="0"/>
			<vel value="0.0180190972012" flag="0"/>
			<psa03 value="0.115059080433" flag="0"/>
			<psa10 value="0.0242493857778" flag="0"/>
			<psa30 value="0.00106814555107" flag="0"/>
		</comp>
		<comp name="00.HNZ" depth="0.0">
			<acc value="0.0207013163172" flag="0"/>
			<vel value="0.00759332296845" flag="0"/>
			<psa03 value="0.0476864871205" flag="0"/>
			<psa10 value="0.00862661772107" flag="0"/>
			<psa30 value="0.000462249528012" flag="0"/>
		</comp>
	</station>
	<station code="APNO" name="APNO" netid="IT" source="Italian Strong Motion Network (RAN)" insttype="" lat="43.3638000488" lon="13.3451004028">
		<comp name="00.HNE" depth="0.0">
			<acc value="0.0949515404605" flag="0"/>
			<vel value="0.0220925630596" flag="0"/>
			<psa03 value="0.104785733207" flag="0"/>
			<psa10 value="0.0249542599722" flag="0"/>
			<psa30 value="0.00140622628059" flag="0"/>
		</comp>
		<comp name="00.HNN" depth="0.0">
			<acc value="0.0847642581656" flag="0"/>
			<vel value="0.0262829112769" flag="0"/>
			<psa03 value="0.180107139547" flag="0"/>
			<psa10 value="0.0244057186341" flag="0"/>
			<psa30 value="0.00152395501704" flag="0"/>
		</comp>
		<comp name="00.HNZ" depth="0.0">
			<acc value="0.0701484018592" flag="0"/>
			<vel value="0.0143509950938" flag="0"/>
			<psa03 value="0.0708398750859" flag="0"/>
			<psa10 value="0.0101783730172" flag="0"/>
			<psa30 value="0.00145172533635" flag="0"/>
		</comp>
	</station>
	<station code="AQF" name="AQF" netid="IT" source="Italian Strong Motion Network (RAN)" insttype="" lat="42.380539" lon="13.35474">
		<comp name="00.HNE" depth="0.0">
			<acc value="0.0872443338017" flag="0"/>
			<vel value="0.020906781029" flag="0"/>
			<psa03 value="0.14205042056" flag="0"/>
			<psa10 value="0.0101199366462" flag="0"/>
			<psa30 value="0.000979201429789" flag="0"/>
		</comp>
		<comp name="00.HNN" depth="0.0">
			<acc value="0.0596742248655" flag="0"/>
			<vel value="0.02372395115" flag="0"/>
			<psa03 value="0.156785636279" flag="0"/>
			<psa10 value="0.00991693101052" flag="0"/>
			<psa30 value="0.00124818310267" flag="0"/>
		</comp>
		<comp name="00.HNZ" depth="0.0">
			<acc value="0.0475512818361" flag="0"/>
			<vel value="0.01285062327" flag="0"/>
			<psa03 value="0.0697815028903" flag="0"/>
			<psa10 value="0.00919609763383" flag="0"/>
			<psa30 value="0.000661144214226" flag="0"/>
		</comp>
	</station>
	<station code="AQG" name="AQG" netid="IT" source="Italian Strong Motion Network (RAN)" insttype="" lat="42.373474" lon="13.337026">
		<comp name="00.HNE" depth="0.0">
			<acc value="0.0726036855055" flag="0"/>
			<vel value="0.0300879240518" flag="0"/>
			<psa03 value="0.0899351348445" flag="0"/>
			<psa10 value="0.0208321331516" flag="0"/>
			<psa30 value="0.00181990389303" flag="0"/>
		</comp>
		<comp name="00.HNN" depth="0.0">
			<acc value="0.0639387392324" flag="0"/>
			<vel value="0.033240010604" flag="0"/>
			<psa03 value="0.178305395191" flag="0"/>
			<psa10 value="0.0188169146532" flag="0"/>
			<psa30 value="0.00113710855703" flag="0"/>
		</comp>
		<comp name="00.HNZ" depth="0.0">
			<acc value="0.0295754955855" flag="0"/>
			<vel value="0.00944082042538" flag="0"/>
			<psa03 value="0.0578748703844" flag="0"/>
			<psa10 value="0.0111044940557" flag="0"/>
			<psa30 value="0.000592844481371" flag="0"/>
		</comp>
	</station>
	<station code="AQK" name="AQK" netid="IT" source="Italian Strong Motion Network (RAN)" insttype="" lat="42.344967" lon="13.400949">
		<comp name="00.HNE" depth="0.0">
			<acc value="0.0409201703145" flag="0"/>
			<vel value="0.0230554241896" flag="0"/>
			<psa03 value="0.0847697666228" flag="0"/>
			<psa10 value="0.038499682915" flag="0"/>
			<psa30 value="0.00186760788652" flag="0"/>
		</comp>
		<comp name="00.HNN" depth="0.0">
			<acc value="0.0441986152133" flag="0"/>
			<vel value="0.0194891730577" flag="0"/>
			<psa03 value="0.0774435417127" flag="0"/>
			<psa10 value="0.0313493936185" flag="0"/>
			<psa30 value="0.0019232076114" flag="0"/>
		</comp>
		<comp name="00.HNZ" depth="0.0">
			<acc value="0.0479666086135" flag="0"/>
			<vel value="0.0210747735777" flag="0"/>
			<psa03 value="0.0809258609411" flag="0"/>
			<psa10 value="0.0497332783356" flag="0"/>
			<psa30 value="0.00109640606902" flag="0"/>
		</comp>
	</station>
	<station code="AQV" name="AQV" netid="IT" source="Italian Strong Motion Network (RAN)" insttype="" lat="42.377222" lon="13.343888">
		<comp name="00.HNE" depth="0.0">
			<acc value="0.121835939888" flag="0"/>
			<vel value="0.0372761518686" flag="0"/>
			<psa03 value="0.206023523047" flag="0"/>
			<psa10 value="0.0215173729204" flag="0"/>
			<psa30 value="0.00169771329851" flag="0"/>
		</comp>
		<comp name="00.HNN" depth="0.0">
			<acc value="0.125338928833" flag="0"/>
			<vel value="0.0284762023688" flag="0"/>
			<psa03 value="0.240300002029" flag="0"/>
			<psa10 value="0.0144892114016" flag="0"/>
			<psa30 value="0.000996743112671" flag="0"/>
		</comp>
		<comp name="00.HNZ" depth="0.0">
			<acc value="0.0498930234524" flag="0"/>
			<vel value="0.0149104406033" flag="0"/>
			<psa03 value="0.069492994195" flag="0"/>
			<psa10 value="0.0112330947624" flag="0"/>
			<psa30 value="0.000551905467281" flag="0"/>
		</comp>
	</station>
	<station code="ASP" name="ASP" netid="IT" source="Italian Strong Motion Network (RAN)" insttype="" lat="42.848" lon="13.6479">
		<comp name="00.HGE" depth="0.0">
			<acc value="3.74779170893" flag="0"/>
			<vel value="0.936218455853" flag="0"/>
			<psa03 value="3.61216028789" flag="0"/>
			<psa10 value="0.209228310349" flag="0"/>
			<psa30 value="0.0245940625693" flag="0"/>
		</comp>
		<comp name="00.HGN" depth="0.0">
			<acc value="2.74597593035" flag="0"/>
			<vel value="0.625310053662" flag="0"/>
			<psa03 value="2.14148736303" flag="0"/>
			<psa10 value="0.0948653993669" flag="0"/>
			<psa30 value="0.00750003017353" flag="0"/>
		</comp>
		<comp name="00.HGZ" depth="0.0">
			<acc value="1.79423271814" flag="0"/>
			<vel value="0.214199902557" flag="0"/>
			<psa03 value="0.443765272271" flag="0"/>
			<psa10 value="0.0482776869099" flag="0"/>
			<psa30 value="0.00341944714659" flag="0"/>
		</comp>
	</station>
	<station code="ATRI" name="ATRI" netid="IT" source="Italian Strong Motion Network (RAN)" insttype="" lat="42.5745010376" lon="13.9942998886">
		<comp name="00.HNE" depth="0.0">
			<acc value="0.214337367021" flag="0"/>
			<vel value="0.0705582833805" flag="0"/>
			<psa03 value="0.243008139763" flag="0"/>
			<psa10 value="0.0692345439486" flag="0"/>
			<psa30 value="0.00580509205886" flag="0"/>
		</comp>
		<comp name="00.HNN" depth="0.0">
			<acc value="0.189714413034" flag="0"/>
			<vel value="0.0747881830411" flag="0"/>
			<psa03 value="0.400888265213" flag="0"/>
			<psa10 value="0.0795760415223" flag="0"/>
			<psa30 value="0.00792913943324" flag="0"/>
		</comp>
		<comp name="00.HNZ" depth="0.0">
			<acc value="0.0995362784444" flag="0"/>
			<vel value="0.0456217101222" flag="0"/>
			<psa03 value="0.141062125924" flag="0"/>
			<psa10 value="0.055363207541" flag="0"/>
			<psa30 value="0.00298217630455" flag="0"/>
		</comp>
	</station>
	<station code="AVZ" name="AVZ" netid="IT" source="Italian Strong Motion Network (RAN)" insttype="" lat="42.027458" lon="13.425929">
		<comp name="00.HNE" depth="0.0">
			<acc value="0.0327257735459" flag="0"/>
			<vel value="0.0214976611141" flag="0"/>
			<psa03 value="0.0951998481893" flag="0"/>
			<psa10 value="0.0383247000733" flag="0"/>
			<psa30 value="0.00261379148419" flag="0"/>
		</comp>
		<comp name="00.HNN" depth="0.0">
			<acc value="0.0315739541982" flag="0"/>
			<vel value="0.0308205896535" flag="0"/>
			<psa03 value="0.0872410501245" flag="0"/>
			<psa10 value="0.0393304717007" flag="0"/>
			<psa30 value="0.00291476933916" flag="0"/>
		</comp>
		<comp name="00.HNZ" depth="0.0">
			<acc value="0.0209921464016" flag="0"/>
			<vel value="0.0144746593003" flag="0"/>
			<psa03 value="0.0615858870543" flag="0"/>
			<psa10 value="0.020172181308" flag="0"/>
			<psa30 value="0.00113838947522" flag="0"/>
		</comp>
	</station>
	<station code="BOR" name="BOR" netid="IT" source="Italian Strong Motion Network (RAN)" insttype="" lat="42.5075" lon="13.1406">
		<comp name="00.HNE" depth="0.0">
			<acc value="0.486135194148" flag="0"/>
			<vel value="0.159463234539" flag="0"/>
			<psa03 value="0.781117328522" flag="0"/>
			<psa10 value="0.0303299823375" flag="0"/>
			<psa30 value="0.00273072964744" flag="0"/>
		</comp>
		<comp name="00.HNN" depth="0.0">
			<acc value="0.51563202682" flag="0"/>
			<vel value="0.198917539606" flag="0"/>
			<psa03 value="1.82871264324" flag="0"/>
			<psa10 value="0.037508634763" flag="0"/>
			<psa30 value="0.00315738582798" flag="0"/>
		</comp>
		<comp name="00.HNZ" depth="0.0">
			<acc value="0.154143915165" flag="0"/>
			<vel value="0.0368744091774" flag="0"/>
			<psa03 value="0.172605121742" flag="0"/>
			<psa10 value="0.012869021572" flag="0"/>
			<psa30 value="0.000749636378481" flag="0"/>
		</comp>
	</station>
	<station code="BRS" name="BRS" netid="IT" source="Italian Strong Motion Network (RAN)" insttype="" lat="42.324272" lon="13.59007">
		<comp name="00.HGE" depth="0.0">
			<acc value="0.106727661089" flag="0"/>
			<vel value="0.022810299373" flag="0"/>
			<psa03 value="0.12307064241" flag="0"/>
			<psa10 value="0.00704949340058" flag="0"/>
			<psa30 value="0.000559292467047" flag="0"/>
		</comp>
		<comp name="00.HGN" depth="0.0">
			<acc value="0.0862877120715" flag="0"/>
			<vel value="0.021740307066" flag="0"/>
			<psa03 value="0.139012063033" flag="0"/>
			<psa10 value="0.00828009757832" flag="0"/>
			<psa30 value="0.000626326491055" flag="0"/>
		</comp>
		<comp name="00.HGZ" depth="0.0">
			<acc value="0.0914095995854" flag="0"/>
			<vel value="0.0205084385108" flag="0"/>
			<psa03 value="0.031146279434" flag="0"/>
			<psa10 value="0.00521910964665" flag="0"/>
			<psa30 value="0.000287123395516" flag="0"/>
		</comp>
	</station>
	<station code="BTT2" name="BTT2" netid="IT" source="Italian Strong Motion Network (RAN)" insttype="" lat="41.998333" lon="13.543056">
		<comp name="00.HGE" depth="0.0">
			<acc value="0.0507589744672" flag="0"/>
			<vel value="0.0444215895535" flag="0"/>
			<psa03 value="0.147371366797" flag="0"/>
			<psa10 value="0.0789057521189" flag="0"/>
			<psa30 value="0.00773224055632" flag="0"/>
		</comp>
		<comp name="00.HGN" depth="0.0">
			<acc value="0.056683603379" flag="0"/>
			<vel value="0.0467742027663" flag="0"/>
			<psa03 value="0.105516562871" flag="0"/>
			<psa10 value="0.100880422833" flag="0"/>
			<psa30 value="0.00721929074258" flag="0"/>
		</comp>
		<comp name="00.HGZ" depth="0.0">
			<acc value="0.0189582580995" flag="0"/>
			<vel value="0.0135674374915" flag="0"/>
			<psa03 value="0.0548693431578" flag="0"/>
			<psa10 value="0.0297446210602" flag="0"/>
			<psa30 value="0.00205409086511" flag="0"/>
		</comp>
	</station>
	<station code="BZZ" name="BZZ" netid="IT" source="Italian Strong Motion Network (RAN)" insttype="" lat="42.337025" lon="13.468575">
		<comp name="00.HGE" depth="0.0">
			<acc value="0.024661220649" flag="0"/>
			<vel value="0.00977999616849" flag="0"/>
			<psa03 value="0.0636048176737" flag="0"/>
			<psa10 value="0.0109339430701" flag="0"/>
			<psa30 value="0.000858061790297" flag="0"/>
		</comp>
		<comp name="00.HGN" depth="0.0">
			<acc value="0.0305150860314" flag="0"/>
			<vel value="0.0119722924041" flag="0"/>
			<psa03 value="0.0555360748258" flag="0"/>
			<psa10 value="0.0234067405817" flag="0"/>
			<psa30 value="0.00110780401158" flag="0"/>
		</comp>
		<comp name="00.HGZ" depth="0.0">
			<acc value="0.020756314528" flag="0"/>
			<vel value="0.010632391371" flag="0"/>
			<psa03 value="0.0295576090882" flag="0"/>
			<psa10 value="0.0165324770705" flag="0"/>
			<psa30 value="0.000971496961074" flag="0"/>
		</comp>
	</station>
	<station code="CDM" name="CDM" netid="IT" source="Italian Strong Motion Network (RAN)" insttype="" lat="42.00328" lon="14.199365">
		<comp name="00.HGE" depth="0.0">
			<acc value="0.0138909465113" flag="0"/>
			<vel value="0.00579234084742" flag="0"/>
			<psa03 value="0.0280165642932" flag="0"/>
			<psa10 value="0.00865911081109" flag="0"/>
			<psa30 value="0.00159359681797" flag="0"/>
		</comp>
		<comp name="00.HGN" depth="0.0">
			<acc value="0.0112506938085" flag="0"/>
			<vel value="0.00799782167007" flag="0"/>
			<psa03 value="0.0246009135439" flag="0"/>
			<psa10 value="0.0118166662336" flag="0"/>
			<psa30 value="0.000938596239893" flag="0"/>
		</comp>
		<comp name="00.HGZ" depth="0.0">
			<acc value="0.0139275186621" flag="0"/>
			<vel value="0.00635609076479" flag="0"/>
			<psa03 value="0.0192038489837" flag="0"/>
			<psa10 value="0.00990752820011" flag="0"/>
			<psa30 value="0.000820155477109" flag="0"/>
		</comp>
	</station>
	<station code="CLF" name="CLF" netid="IT" source="Italian Strong Motion Network (RAN)" insttype="" lat="43.036714" lon="12.920428">
		<comp name="00.HGE" depth="0.0">
			<acc value="0.06894870308" flag="0"/>
			<vel value="0.0260778417277" flag="0"/>
			<psa03 value="0.11239594568" flag="0"/>
			<psa10 value="0.066853361207" flag="0"/>
			<psa30 value="0.00164993398753" flag="0"/>
		</comp>
		<comp name="00.HGN" depth="0.0">
			<acc value="0.0916467231062" flag="0"/>
			<vel value="0.0367556690355" flag="0"/>
			<psa03 value="0.14229768694" flag="0"/>
			<psa10 value="0.0528620393508" flag="0"/>
			<psa30 value="0.00235810933817" flag="0"/>
		</comp>
		<comp name="00.HGZ" depth="0.0">
			<acc value="0.0664767325356" flag="0"/>
			<vel value="0.0315127771437" flag="0"/>
			<psa03 value="0.156484720511" flag="0"/>
			<psa10 value="0.0205258934897" flag="0"/>
			<psa30 value="0.00109898228135" flag="0"/>
		</comp>
	</station>
	<station code="CLN" name="CLN" netid="IT" source="Italian Strong Motion Network (RAN)" insttype="" lat="42.085224" lon="13.520722">
		<comp name="00.HGE" depth="0.0">
			<acc value="0.0103756942789" flag="0"/>
			<vel value="0.00598969038071" flag="0"/>
			<psa03 value="0.0245957725784" flag="0"/>
			<psa10 value="0.00440748978705" flag="0"/>
			<psa30 value="0.000389886661411" flag="0"/>
		</comp>
		<comp name="00.HGN" depth="0.0">
			<acc value="0.0132568718696" flag="0"/>
			<vel value="0.00699040456784" flag="0"/>
			<psa03 value="0.0410104719508" flag="0"/>
			<psa10 value="0.00648647375957" flag="0"/>
			<psa30 value="0.000372588041504" flag="0"/>
		</comp>
		<comp name="00.HGZ" depth="0.0">
			<acc value="0.00971147563295" flag="0"/>
			<vel value="0.00565213223662" flag="0"/>
			<psa03 value="0.030494525321" flag="0"/>
			<psa10 value="0.00461022259211" flag="0"/>
			<psa30 value="0.000476417862427" flag="0"/>
		</comp>
	</station>
	<station code="CMNZ" name="CMNZ" netid="IT" source="Italian Strong Motion Network (RAN)" insttype="" lat="42.950802" lon="13.4079">
		<comp name="00.HNE" depth="0.0">
			<acc value="1.56249105746" flag="0"/>
			<vel value="0.430479984936" flag="0"/>
			<psa03 value="1.64818435079" flag="0"/>
			<psa10 value="0.0788268393914" flag="0"/>
			<psa30 value="0.00898936800151" flag="0"/>
		</comp>
		<comp name="00.HNN" depth="0.0">
			<acc value="1.62405855373" flag="0"/>
			<vel value="0.351503961342" flag="0"/>
			<psa03 value="0.979418715018" flag="0"/>
			<psa10 value="0.0944815014359" flag="0"/>
			<psa30 value="0.00618205494745" flag="0"/>
		</comp>
		<comp name="00.HNZ" depth="0.0">
			<acc value="1.03977553649" flag="0"/>
			<vel value="0.153122735353" flag="0"/>
			<psa03 value="0.432583156511" flag="0"/>
			<psa10 value="0.0223003497887" flag="0"/>
			<psa30 value="0.00206933812516" flag="0"/>
		</comp>
	</station>
	<station code="CNMT" name="CNMT" netid="IT" source="Italian Strong Motion Network (RAN)" insttype="" lat="42.455898" lon="13.2303">
		<comp name="00.HNE" depth="0.0">
			<acc value="0.168509791611" flag="0"/>
			<vel value="0.085221167082" flag="0"/>
			<psa03 value="0.736791392146" flag="0"/>
			<psa10 value="0.0825401028766" flag="0"/>
			<psa30 value="0.00352666195738" flag="0"/>
		</comp>
		<comp name="00.HNN" depth="0.0">
			<acc value="0.158784475823" flag="0"/>
			<vel value="0.0819109408253" flag="0"/>
			<psa03 value="0.631276485635" flag="0"/>
			<psa10 value="0.0716446861089" flag="0"/>
			<psa30 value="0.00468095509029" flag="0"/>
		</comp>
		<comp name="00.HNZ" depth="0.0">
			<acc value="0.138768177245" flag="0"/>
			<vel value="0.058594625362" flag="0"/>
			<psa03 value="0.447393054261" flag="0"/>
			<psa10 value="0.0293526282176" flag="0"/>
			<psa30 value="0.0015498914227" flag="0"/>
		</comp>
	</station>
	<station code="CPS" name="CPS" netid="IT" source="Italian Strong Motion Network (RAN)" insttype="" lat="42.271618" lon="13.758301">
		<comp name="00.HNE" depth="0.0">
