<stationlist created="1663855227">
	<station code="APEC" name="APEC" netid="IV" source="Italian National Seismic Network (INSN)" insttype="" lat="43.55846" lon="12.41991">
		<comp name=".HHE" depth="0.0">
			<acc value="0.0126742233634" flag="0"/>
			<vel value="0.00855333196825" flag="0"/>
			<psa03 value="0.0398495278565" flag="0"/>
			<psa10 value="0.0129138004759" flag="0"/>
			<psa30 value="0.000757311053558" flag="0"/>
		</comp>
		<comp name=".HHN" depth="0.0">
			<acc value="0.011294850699" flag="0"/>
			<vel value="0.0101229933777" flag="0"/>
			<psa03 value="0.0434274211244" flag="0"/>
			<psa10 value="0.0146132639945" flag="0"/>
			<psa30 value="0.000667837626381" flag="0"/>
		</comp>
		<comp name=".HHZ" depth="0.0">
			<acc value="0.0106421326112" flag="0"/>
			<vel value="0.0080580410867" flag="0"/>
			<psa03 value="0.0330715475986" flag="0"/>
			<psa10 value="0.0101992431498" flag="0"/>
			<psa30 value="0.00076167045693" flag="0"/>
		</comp>
		<comp name=".HNE" depth="0.0">
			<acc value="0.0135130112504" flag="0"/>
			<vel value="0.00791988796585" flag="0"/>
			<psa03 value="0.0397005856981" flag="0"/>
			<psa10 value="0.0107372369142" flag="0"/>
			<psa30 value="0.000875220270716" flag="0"/>
		</comp>
		<comp name=".HNN" depth="0.0">
			<acc value="0.0132590946844" flag="0"/>
			<vel value="0.0120330858141" flag="0"/>
			<psa03 value="0.0416714115682" flag="0"/>
			<psa10 value="0.0157688327328" flag="0"/>
			<psa30 value="0.000744847207056" flag="0"/>
		</comp>
		<comp name=".HNZ" depth="0.0">
			<acc value="0.0104586331273" flag="0"/>
			<vel value="0.00822544330459" flag="0"/>
			<psa03 value="0.0313044123054" flag="0"/>
			<psa10 value="0.0102457312294" flag="0"/>
			<psa30 value="0.00144687241069" flag="0"/>
		</comp>
	</station>
	<station code="ASCOL" name="ASCOL" netid="IV" source="Italian National Seismic Network (INSN)" insttype="" lat="42.851223" lon="13.58969">
		<comp name=".EHE" depth="0.0">
			<acc value="2.34867915078" flag="0"/>
			<vel value="0.493171854349" flag="0"/>
			<psa03 value="0.529857475459" flag="0"/>
			<psa10 value="0.110201432804" flag="0"/>
			<psa30 value="0.0102535375799" flag="0"/>
		</comp>
		<comp name=".EHN" depth="0.0">
			<acc value="2.16173623201" flag="0"/>
			<vel value="0.297219158604" flag="0"/>
			<psa03 value="0.44908029103" flag="0"/>
			<psa10 value="0.0335554528841" flag="0"/>
			<psa30 value="0.00287362640531" flag="0"/>
		</comp>
		<comp name=".EHZ" depth="0.0">
			<acc value="0.79870331628" flag="0"/>
			<vel value="0.112398511469" flag="0"/>
			<psa03 value="0.536566669908" flag="0"/>
			<psa10 value="0.0417364923379" flag="0"/>
			<psa30 value="0.00157217008605" flag="0"/>
		</comp>
		<comp name=".HNE" depth="0.0">
			<acc value="2.53815876739" flag="0"/>
			<vel value="0.336254441874" flag="0"/>
			<psa03 value="0.43758848809" flag="0"/>
			<psa10 value="0.0348793430853" flag="0"/>
			<psa30 value="0.0038489970605" flag="0"/>
		</comp>
		<comp name=".HNN" depth="0.0">
			<acc value="1.46998995065" flag="0"/>
			<vel value="0.160687260825" flag="0"/>
			<psa03 value="0.234309417682" flag="0"/>
			<psa10 value="0.0172297045084" flag="0"/>
			<psa30 value="0.00164123768227" flag="0"/>
		</comp>
		<comp name=".HNZ" depth="0.0">
			<acc value="0.390132462192" flag="0"/>
			<vel value="0.0604023341256" flag="0"/>
			<psa03 value="0.264340427923" flag="0"/>
			<psa10 value="0.0232905822618" flag="0"/>
			<psa30 value="0.000938182462485" flag="0"/>
		</comp>
	</station>
	<station code="ATBU" name="ATBU" netid="IV" source="Italian National Seismic Network (INSN)" insttype="" lat="43.47571" lon="12.54828">
		<comp name=".EHE" depth="1.0">
			<acc value="0.0358876480997" flag="0"/>
			<vel value="0.0259894696411" flag="0"/>
			<psa03 value="0.123584197263" flag="0"/>
			<psa10 value="0.0312475481217" flag="0"/>
			<psa30 value="0.0017498825878" flag="0"/>
		</comp>
		<comp name=".EHN" depth="1.0">
			<acc value="0.026585120877" flag="0"/>
			<vel value="0.0211542447202" flag="0"/>
			<psa03 value="0.115413208059" flag="0"/>
			<psa10 value="0.0302765150455" flag="0"/>
			<psa30 value="0.00105079117226" flag="0"/>
		</comp>
		<comp name=".EHZ" depth="1.0">
			<acc value="0.0135852065929" flag="0"/>
			<vel value="0.0156908737245" flag="0"/>
			<psa03 value="0.0528288642363" flag="0"/>
			<psa10 value="0.0243963842657" flag="0"/>
			<psa30 value="0.000938404352183" flag="0"/>
		</comp>
		<comp name=".HNE" depth="1.0">
			<acc value="0.0358748701451" flag="0"/>
			<vel value="0.0261234400073" flag="0"/>
			<psa03 value="0.12320499506" flag="0"/>
			<psa10 value="0.0305390905649" flag="0"/>
			<psa30 value="0.00175248901046" flag="0"/>
		</comp>
		<comp name=".HNN" depth="1.0">
			<acc value="0.0265228218435" flag="0"/>
			<vel value="0.0212641026508" flag="0"/>
			<psa03 value="0.11466816912" flag="0"/>
			<psa10 value="0.0305917796803" flag="0"/>
			<psa30 value="0.00108142976442" flag="0"/>
		</comp>
		<comp name=".HNZ" depth="1.0">
			<acc value="0.0136956988683" flag="0"/>
			<vel value="0.0157375457945" flag="0"/>
			<psa03 value="0.0522538417691" flag="0"/>
			<psa10 value="0.0246427249596" flag="0"/>
			<psa30 value="0.000945400857335" flag="0"/>
		</comp>
	</station>
	<station code="ATCC" name="ATCC" netid="IV" source="Italian National Seismic Network (INSN)" insttype="" lat="43.18514" lon="12.63994">
		<comp name=".EHE" depth="1.0">
			<acc value="0.0250728117337" flag="0"/>
			<vel value="0.0190570870636" flag="0"/>
			<psa03 value="0.0826493396965" flag="0"/>
			<psa10 value="0.0146909888309" flag="0"/>
			<psa30 value="0.0013366600055" flag="0"/>
		</comp>
		<comp name=".EHN" depth="1.0">
			<acc value="0.0307897848077" flag="0"/>
			<vel value="0.0153836555412" flag="0"/>
			<psa03 value="0.0732975066416" flag="0"/>
			<psa10 value="0.0135494328959" flag="0"/>
			<psa30 value="0.000855422500875" flag="0"/>
		</comp>
		<comp name=".EHZ" depth="1.0">
			<acc value="0.0146262818989" flag="0"/>
			<vel value="0.00760455285898" flag="0"/>
			<psa03 value="0.0439391555451" flag="0"/>
			<psa10 value="0.00823993335515" flag="0"/>
			<psa30 value="0.000851099818685" flag="0"/>
		</comp>
		<comp name=".HNE" depth="1.0">
			<acc value="0.0232816276722" flag="0"/>
			<vel value="0.0197079121558" flag="0"/>
			<psa03 value="0.0929049253288" flag="0"/>
			<psa10 value="0.0159613423606" flag="0"/>
			<psa30 value="0.00138289338073" flag="0"/>
		</comp>
		<comp name=".HNN" depth="1.0">
			<acc value="0.0328821086076" flag="0"/>
			<vel value="0.0158860744813" flag="0"/>
			<psa03 value="0.0713608210543" flag="0"/>
			<psa10 value="0.0123117562184" flag="0"/>
			<psa30 value="0.00100568630928" flag="0"/>
		</comp>
		<comp name=".HNZ" depth="1.0">
			<acc value="0.0144153914195" flag="0"/>
			<vel value="0.00747773975533" flag="0"/>
			<psa03 value="0.0437811971645" flag="0"/>
			<psa10 value="0.00851397525907" flag="0"/>
			<psa30 value="0.000747252991425" flag="0"/>
		</comp>
	</station>
	<station code="ATFO" name="ATFO" netid="IV" source="Italian National Seismic Network (INSN)" insttype="" lat="43.3666" lon="12.5715">
		<comp name=".HHE" depth="1.0">
			<acc value="0.0213107979823" flag="0"/>
			<vel value="0.0156504470589" flag="0"/>
			<psa03 value="0.0680278606788" flag="0"/>
			<psa10 value="0.0155287755802" flag="0"/>
			<psa30 value="0.000778350780671" flag="0"/>
		</comp>
		<comp name=".HHN" depth="1.0">
			<acc value="0.0185074655255" flag="0"/>
			<vel value="0.0137175299204" flag="0"/>
			<psa03 value="0.0424722042001" flag="0"/>
			<psa10 value="0.0114446715908" flag="0"/>
			<psa30 value="0.000716518507501" flag="0"/>
		</comp>
		<comp name=".HHZ" depth="1.0">
			<acc value="0.00921089581569" flag="0"/>
			<vel value="0.00506859303532" flag="0"/>
			<psa03 value="0.0266091715812" flag="0"/>
			<psa10 value="0.00573940223847" flag="0"/>
			<psa30 value="0.000308506791228" flag="0"/>
		</comp>
		<comp name=".HNE" depth="1.0">
			<acc value="0.0216191960585" flag="0"/>
			<vel value="0.0151493901408" flag="0"/>
			<psa03 value="0.0658538416605" flag="0"/>
			<psa10 value="0.0149768815199" flag="0"/>
			<psa30 value="0.000795498895815" flag="0"/>
		</comp>
		<comp name=".HNN" depth="1.0">
			<acc value="0.0182020351637" flag="0"/>
			<vel value="0.0132504991726" flag="0"/>
			<psa03 value="0.0406325224344" flag="0"/>
			<psa10 value="0.0113716917563" flag="0"/>
			<psa30 value="0.000690039722161" flag="0"/>
		</comp>
		<comp name=".HNZ" depth="1.0">
			<acc value="0.00968639583521" flag="0"/>
			<vel value="0.00505913317798" flag="0"/>
			<psa03 value="0.02563636495" flag="0"/>
			<psa10 value="0.00562272122767" flag="0"/>
			<psa30 value="0.000306878011454" flag="0"/>
		</comp>
	</station>
	<station code="ATLO" name="ATLO" netid="IV" source="Italian National Seismic Network (INSN)" insttype="" lat="43.31516" lon="12.40726">
		<comp name=".EHE" depth="1.0">
			<acc value="0.00780439500569" flag="0"/>
			<vel value="0.00491786097323" flag="0"/>
			<psa03 value="0.0201361724643" flag="0"/>
			<psa10 value="0.0065286110822" flag="0"/>
			<psa30 value="0.000829687879419" flag="0"/>
		</comp>
		<comp name=".EHN" depth="1.0">
			<acc value="0.0070574581172" flag="0"/>
			<vel value="0.00592478589209" flag="0"/>
			<psa03 value="0.0162220134309" flag="0"/>
			<psa10 value="0.00614873341718" flag="0"/>
			<psa30 value="0.000681202886764" flag="0"/>
		</comp>
		<comp name=".EHZ" depth="1.0">
			<acc value="0.00723427990611" flag="0"/>
			<vel value="0.00574597196941" flag="0"/>
			<psa03 value="0.017528264026" flag="0"/>
			<psa10 value="0.00440903629576" flag="0"/>
			<psa30 value="0.000714691511471" flag="0"/>
		</comp>
		<comp name=".HNE" depth="1.0">
			<acc value="0.00788453666389" flag="0"/>
			<vel value="0.00502171984696" flag="0"/>
			<psa03 value="0.0202184070786" flag="0"/>
			<psa10 value="0.00650915385575" flag="0"/>
			<psa30 value="0.000845462466072" flag="0"/>
		</comp>
		<comp name=".HNN" depth="1.0">
			<acc value="0.00719988930794" flag="0"/>
			<vel value="0.00605027452568" flag="0"/>
			<psa03 value="0.0164013938035" flag="0"/>
			<psa10 value="0.00625894431184" flag="0"/>
			<psa30 value="0.000655924076752" flag="0"/>
		</comp>
		<comp name=".HNZ" depth="1.0">
			<acc value="0.00186352207583" flag="0"/>
			<vel value="0.00145636457994" flag="0"/>
			<psa03 value="0.00446014702535" flag="0"/>
			<psa10 value="0.001163206002" flag="0"/>
			<psa30 value="0.000185045617739" flag="0"/>
		</comp>
	</station>
	<station code="ATPC" name="ATPC" netid="IV" source="Italian National Seismic Network (INSN)" insttype="" lat="43.4807" lon="12.457">
		<comp name=".HHE" depth="1.0">
			<acc value="0.0213999839767" flag="0"/>
			<vel value="0.0158265149364" flag="0"/>
			<psa03 value="0.0696022670585" flag="0"/>
			<psa10 value="0.0116119017315" flag="0"/>
			<psa30 value="0.00135458338033" flag="0"/>
		</comp>
		<comp name=".HHN" depth="1.0">
			<acc value="0.0157666991096" flag="0"/>
			<vel value="0.0152441727711" flag="0"/>
			<psa03 value="0.0655524935728" flag="0"/>
			<psa10 value="0.0230382374202" flag="0"/>
			<psa30 value="0.00124288712684" flag="0"/>
		</comp>
		<comp name=".HHZ" depth="1.0">
			<acc value="0.0111560399926" flag="0"/>
			<vel value="0.00795312003863" flag="0"/>
			<psa03 value="0.0344981108514" flag="0"/>
			<psa10 value="0.00880790473046" flag="0"/>
			<psa30 value="0.000754460395965" flag="0"/>
		</comp>
		<comp name=".HNE" depth="1.0">
			<acc value="0.0205674786171" flag="0"/>
			<vel value="0.015356581132" flag="0"/>
			<psa03 value="0.0667964718136" flag="0"/>
			<psa10 value="0.0112033112269" flag="0"/>
			<psa30 value="0.00134651513752" flag="0"/>
		</comp>
		<comp name=".HNN" depth="1.0">
			<acc value="0.015217352853" flag="0"/>
			<vel value="0.0149407612184" flag="0"/>
			<psa03 value="0.0637959501267" flag="0"/>
			<psa10 value="0.0226589447939" flag="0"/>
			<psa30 value="0.00121166016237" flag="0"/>
		</comp>
		<comp name=".HNZ" depth="1.0">
			<acc value="0.0108320013634" flag="0"/>
			<vel value="0.0077237879611" flag="0"/>
			<psa03 value="0.033506691008" flag="0"/>
			<psa10 value="0.00862846284331" flag="0"/>
			<psa30 value="0.000780827350979" flag="0"/>
		</comp>
	</station>
	<station code="ATVO" name="ATVO" netid="IV" source="Italian National Seismic Network (INSN)" insttype="" lat="43.38211" lon="12.40663">
		<comp name=".HHE" depth="1.0">
			<acc value="0.0106139251969" flag="0"/>
			<vel value="0.00648461540554" flag="0"/>
			<psa03 value="0.038218776598" flag="0"/>
			<psa10 value="0.00761596280143" flag="0"/>
			<psa30 value="0.00113010246791" flag="0"/>
		</comp>
		<comp name=".HHN" depth="1.0">
			<acc value="0.00827754011968" flag="0"/>
			<vel value="0.00618286804655" flag="0"/>
			<psa03 value="0.0296401301798" flag="0"/>
			<psa10 value="0.00945488540228" flag="0"/>
			<psa30 value="0.000790623051979" flag="0"/>
		</comp>
		<comp name=".HHZ" depth="1.0">
			<acc value="0.00646740029063" flag="0"/>
			<vel value="0.00462484770627" flag="0"/>
			<psa03 value="0.0122319261905" flag="0"/>
			<psa10 value="0.00587228291619" flag="0"/>
			<psa30 value="0.000799444938468" flag="0"/>
		</comp>
		<comp name=".HNE" depth="1.0">
			<acc value="0.0104871022953" flag="0"/>
			<vel value="0.00613944800822" flag="0"/>
			<psa03 value="0.0357845450297" flag="0"/>
			<psa10 value="0.00749700960884" flag="0"/>
			<psa30 value="0.00110411678815" flag="0"/>
		</comp>
		<comp name=".HNN" depth="1.0">
			<acc value="0.0101324301012" flag="0"/>
			<vel value="0.00613818808149" flag="0"/>
			<psa03 value="0.0294589957847" flag="0"/>
			<psa10 value="0.00935819180927" flag="0"/>
			<psa30 value="0.000884317852553" flag="0"/>
		</comp>
		<comp name=".HNZ" depth="1.0">
			<acc value="0.0068617076224" flag="0"/>
			<vel value="0.00450308429722" flag="0"/>
			<psa03 value="0.0117717459662" flag="0"/>
			<psa10 value="0.00571585911637" flag="0"/>
			<psa30 value="0.00076041625926" flag="0"/>
		</comp>
	</station>
	<station code="BARO" name="BARO" netid="IV" source="Italian National Seismic Network (INSN)" insttype="" lat="42.24795" lon="12.05123">
		<comp name=".EHE" depth="0.0">
			<acc value="0.00403653059641" flag="0"/>
			<vel value="0.00285596996425" flag="0"/>
			<psa03 value="0.00876194111268" flag="0"/>
			<psa10 value="0.00303181451471" flag="0"/>
			<psa30 value="0.000442224816057" flag="0"/>
		</comp>
		<comp name=".EHN" depth="0.0">
			<acc value="0.00353574923744" flag="0"/>
			<vel value="0.002664672705" flag="0"/>
			<psa03 value="0.00934702544458" flag="0"/>
			<psa10 value="0.00321636541217" flag="0"/>
			<psa30 value="0.000660224986665" flag="0"/>
		</comp>
		<comp name=".EHZ" depth="0.0">
			<acc value="0.00178534794253" flag="0"/>
			<vel value="0.00147674415499" flag="0"/>
			<psa03 value="0.00803791202952" flag="0"/>
			<psa10 value="0.00207359627183" flag="0"/>
			<psa30 value="0.00025360713877" flag="0"/>
		</comp>
		<comp name=".HNE" depth="0.0">
			<acc value="0.00426337817102" flag="0"/>
			<vel value="0.00297855403336" flag="0"/>
			<psa03 value="0.00926502717404" flag="0"/>
			<psa10 value="0.00325870782652" flag="0"/>
			<psa30 value="0.000490676046545" flag="0"/>
		</comp>
		<comp name=".HNN" depth="0.0">
			<acc value="0.00366845919801" flag="0"/>
			<vel value="0.00268209800788" flag="0"/>
			<psa03 value="0.00965138545068" flag="0"/>
			<psa10 value="0.00330247228821" flag="0"/>
			<psa30 value="0.000718294614744" flag="0"/>
		</comp>
		<comp name=".HNZ" depth="0.0">
			<acc value="0.00184004365878" flag="0"/>
			<vel value="0.00157097291704" flag="0"/>
			<psa03 value="0.00833888248814" flag="0"/>
			<psa10 value="0.00211771630394" flag="0"/>
			<psa30 value="0.000320726090279" flag="0"/>
		</comp>
	</station>
	<station code="BSSO" name="BSSO" netid="IV" source="Italian National Seismic Network (INSN)" insttype="" lat="41.5461" lon="14.5938">
		<comp name=".HHE" depth="0.0">
			<acc value="0.00223887156312" flag="0"/>
			<vel value="0.00190954650117" flag="0"/>
			<psa03 value="0.00595568229516" flag="0"/>
			<psa10 value="0.00331256069089" flag="0"/>
			<psa30 value="0.00068232613826" flag="0"/>
		</comp>
		<comp name=".HHN" depth="0.0">
			<acc value="0.00190887645167" flag="0"/>
			<vel value="0.00171662859836" flag="0"/>
			<psa03 value="0.00644805736049" flag="0"/>
			<psa10 value="0.00468267223532" flag="0"/>
			<psa30 value="0.000560177421505" flag="0"/>
		</comp>
		<comp name=".HHZ" depth="0.0">
			<acc value="0.00119318997599" flag="0"/>
			<vel value="0.00111906680228" flag="0"/>
			<psa03 value="0.00395743273341" flag="0"/>
			<psa10 value="0.00142387498879" flag="0"/>
			<psa30 value="0.000229920986345" flag="0"/>
		</comp>
		<comp name=".HNE" depth="0.0">
			<acc value="0.00217690553958" flag="0"/>
			<vel value="0.00185099093931" flag="0"/>
			<psa03 value="0.00568321502677" flag="0"/>
			<psa10 value="0.00320094767207" flag="0"/>
			<psa30 value="0.00068824220725" flag="0"/>
		</comp>
		<comp name=".HNN" depth="0.0">
			<acc value="0.00190495217887" flag="0"/>
			<vel value="0.00175287748311" flag="0"/>
			<psa03 value="0.00628020053767" flag="0"/>
			<psa10 value="0.0045708613909" flag="0"/>
			<psa30 value="0.00054153493653" flag="0"/>
		</comp>
		<comp name=".HNZ" depth="0.0">
			<acc value="0.0012868886927" flag="0"/>
			<vel value="0.00111539720566" flag="0"/>
			<psa03 value="0.00382118640307" flag="0"/>
			<psa10 value="0.00137476829821" flag="0"/>
			<psa30 value="0.000200963677441" flag="0"/>
		</comp>
	</station>
	<station code="CADA" name="CADA" netid="IV" source="Italian National Seismic Network (INSN)" insttype="" lat="43.1942" lon="13.7614">
		<comp name=".HNE" depth="0.0">
			<acc value="0.144252042813" flag="0"/>
			<vel value="0.0526196137516" flag="0"/>
			<psa03 value="0.337354368905" flag="0"/>
			<psa10 value="0.0582910414952" flag="0"/>
			<psa30 value="0.0030235955067" flag="0"/>
		</comp>
		<comp name=".HNN" depth="0.0">
			<acc value="0.138604335502" flag="0"/>
			<vel value="0.0489386400155" flag="0"/>
			<psa03 value="0.221273116591" flag="0"/>
			<psa10 value="0.042534443948" flag="0"/>
			<psa30 value="0.00301248414562" flag="0"/>
		</comp>
		<comp name=".HNZ" depth="0.0">
			<acc value="0.107839563844" flag="0"/>
			<vel value="0.0287843123796" flag="0"/>
			<psa03 value="0.168321223372" flag="0"/>
			<psa10 value="0.0222732148662" flag="0"/>
			<psa30 value="0.00191364635301" flag="0"/>
		</comp>
	</station>
	<station code="CAFI" name="CAFI" netid="IV" source="Italian National Seismic Network (INSN)" insttype="" lat="43.3292" lon="11.9663">
		<comp name=".HHE" depth="0.0">
			<acc value="0.00323242632969" flag="0"/>
			<vel value="0.00261088974047" flag="0"/>
			<psa03 value="0.0080405378545" flag="0"/>
			<psa10 value="0.00641316577827" flag="0"/>
			<psa30 value="0.000415522552371" flag="0"/>
		</comp>
		<comp name=".HHN" depth="0.0">
			<acc value="0.00243613300899" flag="0"/>
			<vel value="0.00219439813566" flag="0"/>
			<psa03 value="0.00825672795729" flag="0"/>
			<psa10 value="0.00569519571627" flag="0"/>
			<psa30 value="0.000356482287077" flag="0"/>
		</comp>
		<comp name=".HHZ" depth="0.0">
			<acc value="0.00252866431459" flag="0"/>
			<vel value="0.00247018060888" flag="0"/>
			<psa03 value="0.00695229519085" flag="0"/>
			<psa10 value="0.00299644099951" flag="0"/>
			<psa30 value="0.000211090025345" flag="0"/>
		</comp>
		<comp name=".HNE" depth="0.0">
			<acc value="0.00307735229033" flag="0"/>
			<vel value="0.0025959220721" flag="0"/>
			<psa03 value="0.00760067994004" flag="0"/>
			<psa10 value="0.0062853146525" flag="0"/>
			<psa30 value="0.000413510934737" flag="0"/>
		</comp>
		<comp name=".HNN" depth="0.0">
			<acc value="0.00231331386597" flag="0"/>
			<vel value="0.00211689786704" flag="0"/>
			<psa03 value="0.00779350586486" flag="0"/>
			<psa10 value="0.00535022770759" flag="0"/>
			<psa30 value="0.000331573110925" flag="0"/>
		</comp>
		<comp name=".HNZ" depth="0.0">
			<acc value="0.00231332287677" flag="0"/>
