<?xml version="1.0" encoding="UTF-8" standalone="yes"?>
<!DOCTYPE earthquake SYSTEM "stationlist.dtd">
<stationlist created="" xmlns="ch.ethz.sed.shakemap.usgs.xml">
  <station code="ASCOL" name="ASCOL" netid="IV" insttype="" lat="42.8512" lon="13.5897">
    <comp name="--.HNE">
      <acc value="1.2270620225" flag="0"/>
      <vel value="0.0829039504" flag="0"/>
      <psa03 value="0.0959724035" flag="0"/>
      <psa10 value="0.0065142674" flag="0"/>
      <psa30 value="0.0007110454" flag="0"/>
    </comp>
    <comp name="--.HNN">
      <acc value="1.5252995040" flag="0"/>
      <vel value="0.1707030774" flag="0"/>
      <psa03 value="0.1413740567" flag="0"/>
      <psa10 value="0.0149669149" flag="0"/>
      <psa30 value="0.0018400468" flag="0"/>
    </comp>
    <comp name="--.HNZ">
      <acc value="0.3469652211" flag="0"/>
      <vel value="0.0194154556" flag="0"/>
      <psa03 value="0.0301838158" flag="0"/>
      <psa10 value="0.0037294428" flag="0"/>
      <psa30 value="0.0002221949" flag="0"/>
    </comp>
  </station>
  <station code="FEMA" name="FEMA" netid="IV" insttype="" lat="42.9621" lon="13.0498">
    <comp name="--.HNE">
      <acc value="0.1387570592" flag="0"/>
      <vel value="0.0217075383" flag="0"/>
      <psa03 value="0.0648030109" flag="0"/>
      <psa10 value="0.0030061786" flag="0"/>
      <psa30 value="0.0002731520" flag="0"/>
    </comp>
    <comp name="--.HNN">
      <acc value="0.1254646293" flag="0"/>
      <vel value="0.0184291977" flag="0"/>
      <psa03 value="0.0594589033" flag="0"/>
      <psa10 value="0.0048371686" flag="0"/>
      <psa30 value="0.0004128428" flag="0"/>
    </comp>
    <comp name="--.HNZ">
      <acc value="0.0627269945" flag="0"/>
      <vel value="0.0095944759" flag="0"/>
      <psa03 value="0.0193994178" flag="0"/>
      <psa10 value="0.0022743234" flag="0"/>
      <psa30 value="0.0001701789" flag="0"/>
    </comp>
  </station>
  <station code="MTRA" name="MTRA" netid="IV" insttype="" lat="42.7567" lon="13.3965">
    <comp name="--.HNE">
      <acc value="0.5664044219" flag="0"/>
      <vel value="0.0895504895" flag="0"/>
      <psa03 value="0.1275234950" flag="0"/>
      <psa10 value="0.0164480318" flag="0"/>
      <psa30 value="0.0012314793" flag="0"/>
    </comp>
    <comp name="--.HNN">
      <acc value="0.3871797984" flag="0"/>
      <vel value="0.0674011175" flag="0"/>
      <psa03 value="0.2015847351" flag="0"/>
      <psa10 value="0.0158626938" flag="0"/>
      <psa30 value="0.0012272340" flag="0"/>
    </comp>
    <comp name="--.HNZ">
      <acc value="0.6544590911" flag="0"/>
      <vel value="0.0464775011" flag="0"/>
      <psa03 value="0.1119418308" flag="0"/>
      <psa10 value="0.0042275450" flag="0"/>
      <psa30 value="0.0004002120" flag="0"/>
    </comp>
  </station>
  <station code="NRCA" name="NRCA" netid="IV" insttype="" lat="42.8336" lon="13.1143">
    <comp name="--.HNE">
      <acc value="0.0007346778" flag="0"/>
      <vel value="-100.0000000000" flag="0"/>
      <psa03 value="0.0087095792" flag="0"/>
      <psa10 value="0.0021067857" flag="0"/>
      <psa30 value="0.0001142295" flag="0"/>
    </comp>
    <comp name="--.HNN">
      <acc value="0.5799117124" flag="0"/>
      <vel value="0.0852346047" flag="0"/>
      <psa03 value="0.0935985778" flag="0"/>
      <psa10 value="0.0114889506" flag="0"/>
      <psa30 value="0.0007905248" flag="0"/>
    </comp>
    <comp name="--.HNZ">
      <acc value="0.2777806746" flag="0"/>
      <vel value="0.0289910806" flag="0"/>
      <psa03 value="0.0276460703" flag="0"/>
      <psa10 value="0.0018723384" flag="0"/>
      <psa30 value="0.0002161034" flag="0"/>
    </comp>
  </station>
  <station code="TERO" name="TERO" netid="IV" insttype="" lat="42.6228" lon="13.6039">
    <comp name="--.HHN">
      <acc value="1.0580327138" flag="0"/>
      <vel value="0.0923774385" flag="0"/>
      <psa03 value="0.1338637295" flag="0"/>
      <psa10 value="0.0070506977" flag="0"/>
      <psa30 value="0.0010003229" flag="0"/>
    </comp>
    <comp name="--.HHE">
      <acc value="1.2132638598" flag="0"/>
      <vel value="0.1151538873" flag="0"/>
      <psa03 value="0.2437382040" flag="0"/>
      <psa10 value="0.0144624395" flag="0"/>
      <psa30 value="0.0013540267" flag="0"/>
    </comp>
    <comp name="--.HHZ">
      <acc value="1.4848475847" flag="0"/>
      <vel value="0.1046514767" flag="0"/>
      <psa03 value="0.1828398088" flag="0"/>
      <psa10 value="0.0121214234" flag="0"/>
      <psa30 value="0.0012433142" flag="0"/>
    </comp>
  </station>
</stationlist>
