<?xml version="1.0" encoding="UTF-8" standalone="yes"?>
<!DOCTYPE earthquake SYSTEM "stationlist.dtd">
<stationlist created="" xmlns="ch.ethz.sed.shakemap.usgs.xml">
  <station code="AOI" name="AOI" netid="IV" insttype="" lat="43.5502" lon="13.602">
    <comp name="--.HHE">
      <acc value="0.0228406982" flag="0"/>
      <vel value="0.0106120371" flag="0"/>
      <psa03 value="0.0558722328" flag="0"/>
      <psa10 value="0.0050872967" flag="0"/>
      <psa30 value="0.0005580733" flag="0"/>
    </comp>
    <comp name="--.HHZ">
      <acc value="0.0161577097" flag="0"/>
      <vel value="0.0064016026" flag="0"/>
      <psa03 value="0.0498112518" flag="0"/>
      <psa10 value="0.0044307222" flag="0"/>
      <psa30 value="0.0002592396" flag="0"/>
    </comp>
    <comp name="--.HHN">
      <acc value="0.0281058617" flag="0"/>
      <vel value="0.0101078469" flag="0"/>
      <psa03 value="0.0467341345" flag="0"/>
      <psa10 value="0.0087593852" flag="0"/>
      <psa30 value="0.0004298328" flag="0"/>
    </comp>
  </station>
  <station code="APEC" name="APEC" netid="IV" insttype="" lat="43.5585" lon="12.4199">
    <comp name="--.HHE">
      <acc value="0.0126291270" flag="0"/>
      <vel value="0.0084674201" flag="0"/>
      <psa03 value="0.0390192378" flag="0"/>
      <psa10 value="0.0128920346" flag="0"/>
      <psa30 value="0.0007757593" flag="0"/>
    </comp>
    <comp name="--.HHN">
      <acc value="0.0113332957" flag="0"/>
      <vel value="0.0101685908" flag="0"/>
      <psa03 value="0.0435819664" flag="0"/>
      <psa10 value="0.0145854910" flag="0"/>
      <psa30 value="0.0006399718" flag="0"/>
    </comp>
    <comp name="--.HHZ">
      <acc value="0.0107226324" flag="0"/>
      <vel value="0.0079674268" flag="0"/>
      <psa03 value="0.0329720678" flag="0"/>
      <psa10 value="0.0101998326" flag="0"/>
      <psa30 value="0.0006898663" flag="0"/>
    </comp>
  </station>
  <station code="ARVD" name="ARVD" netid="IV" insttype="" lat="43.4981" lon="12.9415">
    <comp name="--.HHE">
      <acc value="0.0155037589" flag="0"/>
      <vel value="0.0054348822" flag="0"/>
      <psa03 value="0.0263815623" flag="0"/>
      <psa10 value="0.0039306623" flag="0"/>
      <psa30 value="0.0003754437" flag="0"/>
    </comp>
    <comp name="--.HHZ">
      <acc value="0.0123590835" flag="0"/>
      <vel value="0.0057548477" flag="0"/>
      <psa03 value="0.0244414446" flag="0"/>
      <psa10 value="0.0030284976" flag="0"/>
      <psa30 value="0.0002925002" flag="0"/>
    </comp>
    <comp name="--.HHN">
      <acc value="0.0113430016" flag="0"/>
      <vel value="0.0076471750" flag="0"/>
      <psa03 value="0.0281823796" flag="0"/>
      <psa10 value="0.0046897507" flag="0"/>
      <psa30 value="0.0003714864" flag="0"/>
    </comp>
  </station>
  <station code="ASCOL" name="ASCOL" netid="IV" insttype="" lat="42.8512" lon="13.5897">
    <comp name="--.HNZ">
      <acc value="0.4452799724" flag="0"/>
      <vel value="0.0593275003" flag="0"/>
      <psa03 value="0.2631194732" flag="0"/>
      <psa10 value="0.0233192352" flag="0"/>
      <psa30 value="0.0009386162" flag="0"/>
    </comp>
    <comp name="--.HNN">
      <acc value="1.8464748532" flag="0"/>
      <vel value="0.1604713791" flag="0"/>
      <psa03 value="0.2351668151" flag="0"/>
      <psa10 value="0.0172401070" flag="0"/>
      <psa30 value="0.0016053574" flag="0"/>
    </comp>
    <comp name="--.HNE">
      <acc value="2.5652408181" flag="0"/>
      <vel value="0.3317343916" flag="0"/>
      <psa03 value="0.4340189893" flag="0"/>
      <psa10 value="0.0347494204" flag="0"/>
      <psa30 value="0.0037760662" flag="0"/>
    </comp>
  </station>
  <station code="ASSB" name="ASSB" netid="IV" insttype="" lat="43.0426" lon="12.6587">
    <comp name="--.HHE">
      <acc value="0.0279565726" flag="0"/>
      <vel value="0.0088294363" flag="0"/>
      <psa03 value="0.0526567695" flag="0"/>
      <psa10 value="0.0094448371" flag="0"/>
      <psa30 value="0.0006664897" flag="0"/>
    </comp>
    <comp name="--.HHN">
      <acc value="0.0298267604" flag="0"/>
      <vel value="0.0096634431" flag="0"/>
      <psa03 value="0.0660829552" flag="0"/>
      <psa10 value="0.0052635510" flag="0"/>
      <psa30 value="0.0005888992" flag="0"/>
    </comp>
    <comp name="--.HHZ">
      <acc value="0.0239487448" flag="0"/>
      <vel value="0.0062257857" flag="0"/>
      <psa03 value="0.0307404592" flag="0"/>
      <psa10 value="0.0049719157" flag="0"/>
      <psa30 value="0.0003816994" flag="0"/>
    </comp>
  </station>
  <station code="ATBU" name="ATBU" netid="IV" insttype="" lat="43.4757" lon="12.5483">
    <comp name="--.HNN">
      <acc value="0.0267850067" flag="0"/>
      <vel value="0.0211403912" flag="0"/>
      <psa03 value="0.1149279330" flag="0"/>
      <psa10 value="0.0305941145" flag="0"/>
      <psa30 value="0.0010623605" flag="0"/>
    </comp>
    <comp name="--.HNE">
      <acc value="0.0363375139" flag="0"/>
      <vel value="0.0262155819" flag="0"/>
      <psa03 value="0.1232964436" flag="0"/>
      <psa10 value="0.0305117077" flag="0"/>
      <psa30 value="0.0017115302" flag="0"/>
    </comp>
    <comp name="--.HNZ">
      <acc value="0.0137323663" flag="0"/>
      <vel value="0.0158007031" flag="0"/>
      <psa03 value="0.0522404646" flag="0"/>
      <psa10 value="0.0246195978" flag="0"/>
      <psa30 value="0.0009481050" flag="0"/>
    </comp>
  </station>
  <station code="ATFO" name="ATFO" netid="IV" insttype="" lat="43.3666" lon="12.5715">
    <comp name="--.HHN">
      <acc value="0.0185026029" flag="0"/>
      <vel value="0.0137555015" flag="0"/>
      <psa03 value="0.0423829739" flag="0"/>
      <psa10 value="0.0114085310" flag="0"/>
      <psa30 value="0.0007162633" flag="0"/>
    </comp>
    <comp name="--.HHZ">
      <acc value="0.0091683074" flag="0"/>
      <vel value="0.0051617836" flag="0"/>
      <psa03 value="0.0263919653" flag="0"/>
      <psa10 value="0.0057106576" flag="0"/>
      <psa30 value="0.0002822668" flag="0"/>
    </comp>
    <comp name="--.HHE">
      <acc value="0.0213328759" flag="0"/>
      <vel value="0.0155271640" flag="0"/>
      <psa03 value="0.0670031877" flag="0"/>
      <psa10 value="0.0155395555" flag="0"/>
      <psa30 value="0.0007997244" flag="0"/>
    </comp>
  </station>
  <station code="ATMI" name="ATMI" netid="IV" insttype="" lat="43.3342" lon="12.268">
    <comp name="--.HHE">
      <acc value="0.0161682795" flag="0"/>
      <vel value="0.0100450544" flag="0"/>
      <psa03 value="0.0734290789" flag="0"/>
      <psa10 value="0.0111131327" flag="0"/>
      <psa30 value="0.0010400100" flag="0"/>
    </comp>
    <comp name="--.HHZ">
      <acc value="0.0092155263" flag="0"/>
      <vel value="0.0059651082" flag="0"/>
      <psa03 value="0.0313931029" flag="0"/>
      <psa10 value="0.0045830240" flag="0"/>
      <psa30 value="0.0004556378" flag="0"/>
    </comp>
    <comp name="--.HHN">
      <acc value="0.0139322674" flag="0"/>
      <vel value="0.0098117295" flag="0"/>
      <psa03 value="0.0590518609" flag="0"/>
      <psa10 value="0.0155396483" flag="0"/>
      <psa30 value="0.0007984988" flag="0"/>
    </comp>
  </station>
  <station code="ATPC" name="ATPC" netid="IV" insttype="" lat="43.4807" lon="12.457">
    <comp name="--.HHE">
      <acc value="0.0214043967" flag="0"/>
      <vel value="0.0157903556" flag="0"/>
      <psa03 value="0.0693889911" flag="0"/>
      <psa10 value="0.0116287429" flag="0"/>
      <psa30 value="0.0012229009" flag="0"/>
    </comp>
    <comp name="--.HHN">
      <acc value="0.0157872719" flag="0"/>
      <vel value="0.0152193119" flag="0"/>
      <psa03 value="0.0659292834" flag="0"/>
      <psa10 value="0.0230412652" flag="0"/>
      <psa30 value="0.0011110495" flag="0"/>
    </comp>
    <comp name="--.HHZ">
      <acc value="0.0111860573" flag="0"/>
      <vel value="0.0081593383" flag="0"/>
      <psa03 value="0.0343716068" flag="0"/>
      <psa10 value="0.0087576207" flag="0"/>
      <psa30 value="0.0007255457" flag="0"/>
    </comp>
  </station>
  <station code="ATVO" name="ATVO" netid="IV" insttype="" lat="43.3821" lon="12.4066">
    <comp name="--.HHN">
      <acc value="0.0082648887" flag="0"/>
      <vel value="0.0060558709" flag="0"/>
      <psa03 value="0.0299756683" flag="0"/>
      <psa10 value="0.0094237828" flag="0"/>
      <psa30 value="0.0007383487" flag="0"/>
    </comp>
    <comp name="--.HHE">
      <acc value="0.0106216161" flag="0"/>
      <vel value="0.0062476149" flag="0"/>
      <psa03 value="0.0381047450" flag="0"/>
      <psa10 value="0.0076002943" flag="0"/>
      <psa30 value="0.0010812737" flag="0"/>
    </comp>
    <comp name="--.HHZ">
      <acc value="0.0064479154" flag="0"/>
      <vel value="0.0045152971" flag="0"/>
      <psa03 value="0.0122407740" flag="0"/>
      <psa10 value="0.0058267472" flag="0"/>
      <psa30 value="0.0006814232" flag="0"/>
    </comp>
  </station>
  <station code="CADA" name="CADA" netid="IV" insttype="" lat="43.1942" lon="13.7614">
    <comp name="--.HNE">
      <acc value="0.1461036274" flag="0"/>
      <vel value="0.0522485153" flag="0"/>
      <psa03 value="0.3374184824" flag="0"/>
      <psa10 value="0.0582823675" flag="0"/>
      <psa30 value="0.0035901165" flag="0"/>
    </comp>
    <comp name="--.HNN">
      <acc value="0.1427060151" flag="0"/>
      <vel value="0.0493923001" flag="0"/>
      <psa03 value="0.2195499725" flag="0"/>
      <psa10 value="0.0427394779" flag="0"/>
      <psa30 value="0.0032765771" flag="0"/>
    </comp>
    <comp name="--.HNZ">
      <acc value="0.1064038578" flag="0"/>
      <vel value="0.0372562049" flag="0"/>
      <psa03 value="0.1688391263" flag="0"/>
      <psa10 value="0.0232318638" flag="0"/>
      <psa30 value="0.0159205562" flag="0"/>
    </comp>
  </station>
  <station code="CAMP" name="CAMP" netid="IV" insttype="" lat="42.5358" lon="13.409">
    <comp name="--.HHE">
      <acc value="0.1114557813" flag="0"/>
      <vel value="0.0614739434" flag="0"/>
      <psa03 value="0.2309880206" flag="0"/>
      <psa10 value="0.0298068444" flag="0"/>
      <psa30 value="0.0026887254" flag="0"/>
    </comp>
    <comp name="--.HHN">
      <acc value="0.0551111888" flag="0"/>
      <vel value="0.0195560475" flag="0"/>
      <psa03 value="0.1357724335" flag="0"/>
      <psa10 value="0.0183464816" flag="0"/>
      <psa30 value="0.0009036904" flag="0"/>
    </comp>
    <comp name="--.HHZ">
      <acc value="0.1060127559" flag="0"/>
      <vel value="0.0340603912" flag="0"/>
      <psa03 value="0.2332122945" flag="0"/>
      <psa10 value="0.0159734593" flag="0"/>
      <psa30 value="0.0008686194" flag="0"/>
    </comp>
  </station>
  <station code="CERT" name="CERT" netid="IV" insttype="" lat="41.949" lon="12.9818">
    <comp name="--.HHE">
      <acc value="0.0052925712" flag="0"/>
      <vel value="0.0034202552" flag="0"/>
      <psa03 value="0.0174141469" flag="0"/>
      <psa10 value="0.0023191091" flag="0"/>
      <psa30 value="0.0002975137" flag="0"/>
    </comp>
    <comp name="--.HHN">
      <acc value="0.0094681774" flag="0"/>
      <vel value="0.0070275139" flag="0"/>
      <psa03 value="0.0330705606" flag="0"/>
      <psa10 value="0.0072215288" flag="0"/>
      <psa30 value="0.0006675583" flag="0"/>
    </comp>
    <comp name="--.HHZ">
      <acc value="0.0074488914" flag="0"/>
      <vel value="0.0047640838" flag="0"/>
      <psa03 value="0.0241411671" flag="0"/>
      <psa10 value="0.0033419402" flag="0"/>
      <psa30 value="0.0004130121" flag="0"/>
    </comp>
  </station>
  <station code="CESI" name="CESI" netid="IV" insttype="" lat="43.0049" lon="12.9046">
    <comp name="--.HHE">
      <acc value="0.0668117664" flag="0"/>
      <vel value="0.0236549926" flag="0"/>
      <psa03 value="0.0986008331" flag="0"/>
      <psa10 value="0.0124426426" flag="0"/>
      <psa30 value="0.0008663784" flag="0"/>
    </comp>
    <comp name="--.HHN">
      <acc value="0.1221880123" flag="0"/>
      <vel value="0.0323206970" flag="0"/>
      <psa03 value="0.1699153996" flag="0"/>
      <psa10 value="0.0117400210" flag="0"/>
      <psa30 value="0.0008032029" flag="0"/>
    </comp>
    <comp name="--.HHZ">
      <acc value="0.0410715169" flag="0"/>
      <vel value="0.0102902398" flag="0"/>
      <psa03 value="0.0562820455" flag="0"/>
      <psa10 value="0.0053841807" flag="0"/>
      <psa30 value="0.0004700952" flag="0"/>
    </comp>
  </station>
  <station code="CESX" name="CESX" netid="IV" insttype="" lat="42.6085" lon="12.5868">
    <comp name="--.HHE">
      <acc value="0.0124401588" flag="0"/>
      <vel value="0.0067981883" flag="0"/>
      <psa03 value="0.0357574509" flag="0"/>
      <psa10 value="0.0071096376" flag="0"/>
      <psa30 value="0.0005597016" flag="0"/>
    </comp>
    <comp name="--.HHN">
      <acc value="0.0152073177" flag="0"/>
      <vel value="0.0085980630" flag="0"/>
      <psa03 value="0.0499795060" flag="0"/>
      <psa10 value="0.0044182934" flag="0"/>
      <psa30 value="0.0004086478" flag="0"/>
    </comp>
    <comp name="--.HHZ">
      <acc value="0.0089773187" flag="0"/>
      <vel value="0.0040937122" flag="0"/>
      <psa03 value="0.0350937116" flag="0"/>
      <psa10 value="0.0032691737" flag="0"/>
      <psa30 value="0.0002519528" flag="0"/>
    </comp>
  </station>
  <station code="CING" name="CING" netid="IV" insttype="" lat="43.3756" lon="13.1954">
    <comp name="--.HHE">
      <acc value="0.0334563708" flag="0"/>
      <vel value="0.0116204939" flag="0"/>
      <psa03 value="0.0647770726" flag="0"/>
      <psa10 value="0.0056260444" flag="0"/>
      <psa30 value="0.0003605135" flag="0"/>
    </comp>
    <comp name="--.HHN">
      <acc value="0.0353545687" flag="0"/>
      <vel value="0.0106500929" flag="0"/>
      <psa03 value="0.0981154224" flag="0"/>
      <psa10 value="0.0094417838" flag="0"/>
      <psa30 value="0.0006181789" flag="0"/>
    </comp>
    <comp name="--.HHZ">
      <acc value="0.0342740509" flag="0"/>
      <vel value="0.0122436849" flag="0"/>
      <psa03 value="0.0996090898" flag="0"/>
      <psa10 value="0.0055876160" flag="0"/>
      <psa30 value="0.0003871362" flag="0"/>
    </comp>
  </station>
  <station code="CRTC" name="CRTC" netid="IV" insttype="" lat="43.7685" lon="12.883">
    <comp name="--.HHE">
      <acc value="0.0182393031" flag="0"/>
      <vel value="0.0123898051" flag="0"/>
      <psa03 value="0.0795594792" flag="0"/>
      <psa10 value="0.0183629083" flag="0"/>
      <psa30 value="0.0010956848" flag="0"/>
    </comp>
    <comp name="--.HHN">
      <acc value="0.0210823449" flag="0"/>
      <vel value="0.0122503047" flag="0"/>
      <psa03 value="0.0673288307" flag="0"/>
      <psa10 value="0.0134596503" flag="0"/>
      <psa30 value="0.0011284132" flag="0"/>
    </comp>
    <comp name="--.HHZ">
      <acc value="0.0128294122" flag="0"/>
      <vel value="0.0069291359" flag="0"/>
      <psa03 value="0.0491608137" flag="0"/>
      <psa10 value="0.0076849169" flag="0"/>
      <psa30 value="0.0008005036" flag="0"/>
    </comp>
  </station>
  <station code="FAGN" name="FAGN" netid="IV" insttype="" lat="42.2657" lon="13.5838">
    <comp name="--.HHE">
      <acc value="0.0392392452" flag="0"/>
      <vel value="0.0258100824" flag="0"/>
      <psa03 value="0.1175052302" flag="0"/>
      <psa10 value="0.0204450420" flag="0"/>
      <psa30 value="0.0010762060" flag="0"/>
    </comp>
    <comp name="--.HHN">
      <acc value="0.0382743812" flag="0"/>
      <vel value="0.0253284249" flag="0"/>
      <psa03 value="0.1246151237" flag="0"/>
      <psa10 value="0.0165901063" flag="0"/>
      <psa30 value="0.0008552863" flag="0"/>
    </comp>
    <comp name="--.HHZ">
      <acc value="0.0353128758" flag="0"/>
      <vel value="0.0160164125" flag="0"/>
      <psa03 value="0.1511692642" flag="0"/>
      <psa10 value="0.0055341519" flag="0"/>
      <psa30 value="0.0005746651" flag="0"/>
    </comp>
  </station>
  <station code="FDMO" name="FDMO" netid="IV" insttype="" lat="43.0365" lon="13.0873">
    <comp name="--.HHE">
      <acc value="0.1282811459" flag="0"/>
      <vel value="0.0329376165" flag="0"/>
      <psa03 value="0.1095230748" flag="0"/>
      <psa10 value="0.0089865489" flag="0"/>
      <psa30 value="0.0006876109" flag="0"/>
    </comp>
    <comp name="--.HHN">
      <acc value="0.1182047706" flag="0"/>
      <vel value="0.0373811424" flag="0"/>
      <psa03 value="0.2409265712" flag="0"/>
      <psa10 value="0.0129922254" flag="0"/>
      <psa30 value="0.0015106700" flag="0"/>
    </comp>
    <comp name="--.HHZ">
      <acc value="0.0959124541" flag="0"/>
      <vel value="0.0152322464" flag="0"/>
      <psa03 value="0.0960506655" flag="0"/>
      <psa10 value="0.0103653864" flag="0"/>
      <psa30 value="0.0005886632" flag="0"/>
    </comp>
  </station>
  <station code="FEMA" name="FEMA" netid="IV" insttype="" lat="42.9621" lon="13.0498">
    <comp name="--.HNZ">
      <acc value="0.1167371462" flag="0"/>
      <vel value="0.0248679585" flag="0"/>
      <psa03 value="0.0805611590" flag="0"/>
      <psa10 value="0.0103376659" flag="0"/>
      <psa30 value="0.0006957356" flag="0"/>
    </comp>
    <comp name="--.HNN">
      <acc value="0.1834849281" flag="0"/>
      <vel value="0.0318077042" flag="0"/>
      <psa03 value="0.2007680246" flag="0"/>
      <psa10 value="0.0146521792" flag="0"/>
      <psa30 value="0.0008785288" flag="0"/>
    </comp>
    <comp name="--.HNE">
      <acc value="0.1709243617" flag="0"/>
      <vel value="0.0424101259" flag="0"/>
      <psa03 value="0.2127395526" flag="0"/>
      <psa10 value="0.0189924876" flag="0"/>
      <psa30 value="0.0010772712" flag="0"/>
    </comp>
  </station>
  <station code="FIAM" name="FIAM" netid="IV" insttype="" lat="42.268" lon="13.1172">
    <comp name="--.HHE">
      <acc value="0.0142682295" flag="0"/>
      <vel value="0.0139109877" flag="0"/>
      <psa03 value="0.0335440125" flag="0"/>
      <psa10 value="0.0168928010" flag="0"/>
      <psa30 value="0.0007824794" flag="0"/>
    </comp>
    <comp name="--.HHZ">
      <acc value="0.0119126871" flag="0"/>
      <vel value="0.0074956406" flag="0"/>
      <psa03 value="0.0352068966" flag="0"/>
      <psa10 value="0.0094086700" flag="0"/>
      <psa30 value="0.0006502246" flag="0"/>
    </comp>
    <comp name="--.HHN">
      <acc value="0.0193927917" flag="0"/>
      <vel value="0.0123842018" flag="0"/>
      <psa03 value="0.0444861263" flag="0"/>
      <psa10 value="0.0206052958" flag="0"/>
      <psa30 value="0.0008437941" flag="0"/>
    </comp>
  </station>
  <station code="FOSV" name="FOSV" netid="IV" insttype="" lat="43.2948" lon="12.7612">
    <comp name="--.HNN">
      <acc value="0.0307479301" flag="0"/>
      <vel value="0.0217621695" flag="0"/>
      <psa03 value="0.1044532406" flag="0"/>
      <psa10 value="0.0202740688" flag="0"/>
      <psa30 value="0.0010768337" flag="0"/>
    </comp>
    <comp name="--.HNZ">
      <acc value="0.0157694877" flag="0"/>
      <vel value="0.0092513367" flag="0"/>
      <psa03 value="0.0439949394" flag="0"/>
      <psa10 value="0.0061968608" flag="0"/>
      <psa30 value="0.0004626360" flag="0"/>
    </comp>
    <comp name="--.HNE">
      <acc value="0.0366062167" flag="0"/>
      <vel value="0.0153373838" flag="0"/>
      <psa03 value="0.0960419006" flag="0"/>
      <psa10 value="0.0097700579" flag="0"/>
      <psa30 value="0.0008078569" flag="0"/>
    </comp>
  </station>
  <station code="GAG1" name="GAG1" netid="IV" insttype="" lat="43.2381" lon="13.0674">
    <comp name="--.HNE">
      <acc value="0.0679730793" flag="0"/>
      <vel value="0.0276358635" flag="0"/>
      <psa03 value="0.2755956085" flag="0"/>
      <psa10 value="0.0124827019" flag="0"/>
      <psa30 value="0.0012111290" flag="0"/>
    </comp>
    <comp name="--.HNN">
      <acc value="0.0767226543" flag="0"/>
      <vel value="0.0333006679" flag="0"/>
      <psa03 value="0.1875818779" flag="0"/>
      <psa10 value="0.0155035959" flag="0"/>
      <psa30 value="0.0012134188" flag="0"/>
    </comp>
