<?xml version="1.0" encoding="UTF-8" standalone="yes"?>
<!DOCTYPE earthquake SYSTEM "stationlist.dtd">
<stationlist created="" xmlns="ch.ethz.sed.shakemap.usgs.xml">
  <station code="AMT" name="AMT" netid="HP" source="NOA" insttype="CMG-3T," lat="37.5324" lon="21.7089">
    <comp name="00.HHE">
      <acc value="0.0134044816" flag="0"/>
      <vel value="0.0149948758" flag="0"/>
      <psa03 value="0.0447649463" flag="0"/>
      <psa10 value="0.0282284712" flag="0"/>
      <psa30 value="0.0015701489" flag="0"/>
    </comp>
    <comp name="00.HHN">
      <acc value="0.0193906514" flag="0"/>
      <vel value="0.0180655444" flag="0"/>
      <psa03 value="0.0646744467" flag="0"/>
      <psa10 value="0.0227505263" flag="0"/>
      <psa30 value="0.0021550367" flag="0"/>
    </comp>
    <comp name="00.HHZ">
      <acc value="0.0140656014" flag="0"/>
      <vel value="0.0086752622" flag="0"/>
      <psa03 value="0.0384451884" flag="0"/>
      <psa10 value="0.0114908859" flag="0"/>
      <psa30 value="0.0006651394" flag="0"/>
    </comp>
  </station>
  <station code="DRO" name="DRO" netid="HP" source="NOA" insttype="120P," lat="37.952" lon="21.71">
    <comp name="--.HHE">
      <acc value="0.0204388519" flag="0"/>
      <vel value="0.0089501934" flag="0"/>
      <psa03 value="0.0593248930" flag="0"/>
      <psa10 value="0.0115451010" flag="0"/>
      <psa30 value="0.0008753787" flag="0"/>
    </comp>
    <comp name="--.HHN">
      <acc value="0.0234747521" flag="0"/>
      <vel value="0.0105122530" flag="0"/>
      <psa03 value="0.0627377126" flag="0"/>
      <psa10 value="0.0089564470" flag="0"/>
      <psa30 value="0.0007893669" flag="0"/>
    </comp>
    <comp name="--.HHZ">
      <acc value="0.0091627136" flag="0"/>
      <vel value="0.0047362853" flag="0"/>
      <psa03 value="0.0208712484" flag="0"/>
      <psa10 value="0.0054301137" flag="0"/>
      <psa30 value="0.0006862692" flag="0"/>
    </comp>
  </station>
  <station code="LTHK" name="LTHK" netid="HP" source="NOA" insttype="40," lat="37.7095" lon="20.8367">
    <comp name="--.HHE">
      <acc value="0.4569041214" flag="0"/>
      <vel value="0.0970592658" flag="0"/>
      <psa03 value="0.4987559403" flag="0"/>
      <psa10 value="0.0340229825" flag="0"/>
      <psa30 value="0.0033043343" flag="0"/>
    </comp>
    <comp name="--.HHZ">
      <acc value="0.1863748127" flag="0"/>
      <vel value="0.0531614177" flag="0"/>
      <psa03 value="0.1502953028" flag="0"/>
      <psa10 value="0.0159935428" flag="0"/>
      <psa30 value="0.0060389712" flag="0"/>
    </comp>
  </station>
</stationlist>
