<?xml version="1.0" encoding="UTF-8" standalone="yes"?>
<!DOCTYPE earthquake SYSTEM "stationlist.dtd">
<stationlist created="" xmlns="ch.ethz.sed.shakemap.usgs.xml">
  <station code="ARPRA" name="ARPRA" netid="KO" insttype="CMG-5T" lat="39.0929" lon="38.3356">
    <comp name="--.HNE">
      <acc value="0.2957391152" flag="0"/>
      <vel value="0.1874684222" flag="0"/>
      <psa03 value="0.8313865075" flag="0"/>
      <psa10 value="0.3132946499" flag="0"/>
      <psa30 value="0.0369377183" flag="0"/>
    </comp>
    <comp name="--.HNN">
      <acc value="0.2781392084" flag="0"/>
      <vel value="0.1638998556" flag="0"/>
      <psa03 value="0.7460137696" flag="0"/>
      <psa10 value="0.1997535003" flag="0"/>
      <psa30 value="0.0148961953" flag="0"/>
    </comp>
    <comp name="--.HNZ">
      <acc value="0.1332220720" flag="0"/>
      <vel value="0.0875433504" flag="0"/>
      <psa03 value="0.3197518879" flag="0"/>
      <psa10 value="0.1820439429" flag="0"/>
      <psa30 value="0.0132254375" flag="0"/>
    </comp>
  </station>
  <station code="KHMN" name="KHMN" netid="KO" insttype="CMG-5T" lat="37.3916" lon="37.1574">
    <comp name="--.HNE">
      <acc value="0.3362128867" flag="0"/>
      <vel value="0.1797653724" flag="0"/>
      <psa03 value="1.1843905208" flag="0"/>
      <psa10 value="0.0646886167" flag="0"/>
      <psa30 value="0.0199625431" flag="0"/>
    </comp>
    <comp name="--.HNN">
      <acc value="0.3746564710" flag="0"/>
      <vel value="0.1444740262" flag="0"/>
      <psa03 value="0.8341228838" flag="0"/>
      <psa10 value="0.1032848839" flag="0"/>
      <psa30 value="0.0488088936" flag="0"/>
    </comp>
    <comp name="--.HNZ">
      <acc value="0.2140819877" flag="0"/>
      <vel value="0.1068190191" flag="0"/>
      <psa03 value="0.4321844710" flag="0"/>
      <psa10 value="0.0684253881" flag="0"/>
      <psa30 value="0.0202077094" flag="0"/>
    </comp>
  </station>
  <station code="KMRS" name="KMRS" netid="KO" insttype="CMG-3T" lat="37.5087" lon="36.9">
    <comp name="--.HHE">
      <acc value="0.2108472334" flag="0"/>
      <vel value="0.1241953776" flag="0"/>
      <psa03 value="0.7080870613" flag="0"/>
      <psa10 value="0.0958255634" flag="0"/>
      <psa30 value="0.0206291441" flag="0"/>
    </comp>
    <comp name="--.HHN">
      <acc value="0.4178775003" flag="0"/>
      <vel value="0.2647466528" flag="0"/>
      <psa03 value="1.1301316464" flag="0"/>
      <psa10 value="0.1138200325" flag="0"/>
      <psa30 value="0.0414507839" flag="0"/>
    </comp>
    <comp name="--.HHZ">
      <acc value="0.1458895781" flag="0"/>
      <vel value="0.1399770449" flag="0"/>
      <psa03 value="0.6683520416" flag="0"/>
      <psa10 value="0.0968203278" flag="0"/>
      <psa30 value="0.0318767379" flag="0"/>
    </comp>
  </station>
  <station code="SARI" name="SARI" netid="KO" insttype="CMG-3T" lat="38.4072" lon="36.4181">
    <comp name="--.HHE">
      <acc value="0.0826822072" flag="0"/>
      <vel value="0.0576864456" flag="0"/>
      <psa03 value="0.2569140728" flag="0"/>
      <psa10 value="0.0588833090" flag="0"/>
      <psa30 value="0.0072841249" flag="0"/>
    </comp>
  </station>
  <station code="SINE" name="SINE" netid="KO" insttype="CMG-6T" lat="39.1636" lon="39.3871">
    <comp name="--.HHE">
      <acc value="0.0598950074" flag="0"/>
      <vel value="0.0588301329" flag="0"/>
      <psa03 value="0.1737282272" flag="0"/>
      <psa10 value="0.1004978018" flag="0"/>
      <psa30 value="0.0031964224" flag="0"/>
    </comp>
    <comp name="--.HHN">
      <acc value="0.0589274848" flag="0"/>
      <vel value="0.0412588932" flag="0"/>
      <psa03 value="0.1267633422" flag="0"/>
      <psa10 value="0.0890134610" flag="0"/>
      <psa30 value="0.0025432135" flag="0"/>
    </comp>
    <comp name="--.HHZ">
      <acc value="0.0358491405" flag="0"/>
      <vel value="0.0269483044" flag="0"/>
      <psa03 value="0.1001139627" flag="0"/>
      <psa10 value="0.0481309032" flag="0"/>
      <psa30 value="0.0018997474" flag="0"/>
    </comp>
  </station>
  <station code="TUNC" name="TUNC" netid="KO" insttype="CMG-5T" lat="39.6942" lon="37.5388">
    <comp name="--.HNZ">
      <acc value="0.0486086228" flag="0"/>
      <vel value="0.0390912722" flag="0"/>
      <psa03 value="0.1608774573" flag="0"/>
      <psa10 value="0.0711072995" flag="0"/>
      <psa30 value="0.0159003871" flag="0"/>
    </comp>
    <comp name="--.HNN">
      <acc value="0.1384246346" flag="0"/>
      <vel value="0.0789518487" flag="0"/>
      <psa03 value="0.4541537082" flag="0"/>
      <psa10 value="0.0652274452" flag="0"/>
      <psa30 value="0.0122766094" flag="0"/>
    </comp>
    <comp name="--.HNE">
      <acc value="0.1070802213" flag="0"/>
      <vel value="0.0868558134" flag="0"/>
      <psa03 value="0.2924509075" flag="0"/>
      <psa10 value="0.1104450441" flag="0"/>
      <psa30 value="0.0156639912" flag="0"/>
    </comp>
  </station>
</stationlist>
