<stationlist created="1778138553">
	<station code="ALAN" name="ALAN" netid="KO" source="Bogazici University Kandilli Observatory And Earthquake Research Institute (KOERI)" insttype="" lat="36.557" lon="32.0327">
		<comp name="--.HNE" depth="0.0">
			<acc value="0.0143736054086492" flag="0"/>
			<vel value="0.00565122587217631" flag="0"/>
			<psa03 value="0.0264796187281332" flag="0"/>
			<psa10 value="0.00532692975796692" flag="0"/>
			<psa30 value="0.000529090674662557" flag="0"/>
		</comp>
		<comp name="--.HNN" depth="0.0">
			<acc value="0.0148263180070525" flag="0"/>
			<vel value="0.00422479157483929" flag="0"/>
			<psa03 value="0.0212039606479331" flag="0"/>
			<psa10 value="0.00545614128634201" flag="0"/>
			<psa30 value="0.000739658634171125" flag="0"/>
		</comp>
		<comp name="--.HNZ" depth="0.0">
			<acc value="0.00899831451759305" flag="0"/>
			<vel value="0.0026652277492231" flag="0"/>
			<psa03 value="0.00941596490731101" flag="0"/>
			<psa10 value="0.00287312837753062" flag="0"/>
			<psa30 value="0.000886397261133112" flag="0"/>
		</comp>
	</station>
	<station code="ALT" name="ALT" netid="KO" source="Bogazici University Kandilli Observatory And Earthquake Research Institute (KOERI)" insttype="" lat="39.0541" lon="30.1104">
		<comp name="--.HNE" depth="0.0">
			<acc value="0.00138476764492631" flag="0"/>
			<vel value="0.00069724143945882" flag="0"/>
			<psa03 value="0.00236233552959387" flag="0"/>
			<psa10 value="0.000694833490246577" flag="0"/>
			<psa30 value="0.000255415383557175" flag="0"/>
		</comp>
		<comp name="--.HNN" depth="0.0">
			<acc value="0.00163304963654506" flag="0"/>
			<vel value="0.000837296846758814" flag="0"/>
			<psa03 value="0.00404130970912023" flag="0"/>
			<psa10 value="0.000985792530478806" flag="0"/>
			<psa30 value="0.000360743741252534" flag="0"/>
		</comp>
		<comp name="--.HNZ" depth="0.0">
			<acc value="0.00154419987649775" flag="0"/>
			<vel value="0.000993708659336416" flag="0"/>
			<psa03 value="0.00296659137888977" flag="0"/>
			<psa10 value="0.00106934267463988" flag="0"/>
			<psa30 value="0.000520033043388533" flag="0"/>
		</comp>
	</station>
	<station code="BASM" name="BASM" netid="KO" source="Bogazici University Kandilli Observatory And Earthquake Research Institute (KOERI)" insttype="" lat="37.9194" lon="30.035">
		<comp name="--.HNE" depth="0.0">
			<acc value="0.00448346354867657" flag="0"/>
			<vel value="0.00350022583976044" flag="0"/>
			<psa03 value="0.0114551533789368" flag="0"/>
			<psa10 value="0.00630562834192547" flag="0"/>
			<psa30 value="0.000461120859492708" flag="0"/>
		</comp>
		<comp name="--.HNN" depth="0.0">
			<acc value="0.00355544184985741" flag="0"/>
			<vel value="0.00297596231875899" flag="0"/>
			<psa03 value="0.0119143452564811" flag="0"/>
			<psa10 value="0.00489863122904106" flag="0"/>
			<psa30 value="0.000249805272331512" flag="0"/>
		</comp>
		<comp name="--.HNZ" depth="0.0">
			<acc value="0.00281381473105969" flag="0"/>
			<vel value="0.00222480368292614" flag="0"/>
			<psa03 value="0.00654065203609028" flag="0"/>
			<psa10 value="0.00338216459868263" flag="0"/>
			<psa30 value="0.000198998469130308" flag="0"/>
		</comp>
	</station>
	<station code="BOZY" name="BOZY" netid="KO" source="Bogazici University Kandilli Observatory And Earthquake Research Institute (KOERI)" insttype="" lat="36.1069" lon="32.9763">
		<comp name="--.HNE" depth="0.0">
			<acc value="0.0116647788680581" flag="0"/>
			<vel value="0.00302374978622025" flag="0"/>
			<psa03 value="0.0196844237881295" flag="0"/>
			<psa10 value="0.00236057981432734" flag="0"/>
			<psa30 value="0.000315501160820231" flag="0"/>
		</comp>
		<comp name="--.HNN" depth="0.0">
			<acc value="0.00976554089969891" flag="0"/>
			<vel value="0.0033831576388627" flag="0"/>
			<psa03 value="0.0151482131302145" flag="0"/>
			<psa10 value="0.00257849573456321" flag="0"/>
			<psa30 value="0.000272598605194871" flag="0"/>
		</comp>
		<comp name="--.HNZ" depth="0.0">
			<acc value="0.00794140988727571" flag="0"/>
			<vel value="0.001971767836776" flag="0"/>
			<psa03 value="0.00642293264921092" flag="0"/>
			<psa10 value="0.00212598044514686" flag="0"/>
			<psa30 value="0.000215821263245263" flag="0"/>
		</comp>
	</station>
	<station code="KEMT" name="KEMT" netid="KO" source="Bogazici University Kandilli Observatory And Earthquake Research Institute (KOERI)" insttype="" lat="36.6037" lon="30.5558">
		<comp name="--.HNE" depth="0.0">
			<acc value="0.00291139340839274" flag="0"/>
			<vel value="0.001305276898138" flag="0"/>
			<psa03 value="0.00500408377462478" flag="0"/>
			<psa10 value="0.00102704678681007" flag="0"/>
			<psa30 value="0.000911791964242938" flag="0"/>
		</comp>
		<comp name="--.HNN" depth="0.0">
			<acc value="0.00276675940057864" flag="0"/>
			<vel value="0.00169362102890286" flag="0"/>
			<psa03 value="0.00568402041866019" flag="0"/>
			<psa10 value="0.00121325810677096" flag="0"/>
			<psa30 value="0.000725051572773734" flag="0"/>
		</comp>
		<comp name="--.HNZ" depth="0.0">
			<acc value="0.00663366030134482" flag="0"/>
			<vel value="0.000856335358718077" flag="0"/>
			<psa03 value="0.00182224359881057" flag="0"/>
			<psa10 value="0.000559738994025785" flag="0"/>
			<psa30 value="0.000329040365017842" flag="0"/>
		</comp>
	</station>
	<station code="KRMN" name="KRMN" netid="KO" source="Bogazici University Kandilli Observatory And Earthquake Research Institute (KOERI)" insttype="" lat="37.174" lon="33.2636">
		<comp name="--.HNE" depth="0.0">
			<acc value="0.0132921371603911" flag="0"/>
			<vel value="0.00786787384779142" flag="0"/>
			<psa03 value="0.032068009764941" flag="0"/>
			<psa10 value="0.00827643733586067" flag="0"/>
			<psa30 value="0.000607315179565085" flag="0"/>
		</comp>
		<comp name="--.HNN" depth="0.0">
			<acc value="0.0111378987437407" flag="0"/>
			<vel value="0.00453010523828992" flag="0"/>
			<psa03 value="0.0295647215385197" flag="0"/>
			<psa10 value="0.00757422112996126" flag="0"/>
			<psa30 value="0.000416709089307271" flag="0"/>
		</comp>
		<comp name="--.HNZ" depth="0.0">
			<acc value="0.0143696299553247" flag="0"/>
			<vel value="0.00671357169948605" flag="0"/>
			<psa03 value="0.0387526895713086" flag="0"/>
			<psa10 value="0.00387641616854678" flag="0"/>
			<psa30 value="0.000254708539857183" flag="0"/>
		</comp>
	</station>
	<station code="MNVG" name="MNVG" netid="KO" source="Bogazici University Kandilli Observatory And Earthquake Research Institute (KOERI)" insttype="" lat="36.7935" lon="31.4161">
		<comp name="--.HNE" depth="0.0">
			<acc value="0.0165324528766928" flag="0"/>
			<vel value="0.00661242177165107" flag="0"/>
			<psa03 value="0.0437220578301006" flag="0"/>
			<psa10 value="0.00677782493512523" flag="0"/>
			<psa30 value="0.000638001639477378" flag="0"/>
		</comp>
		<comp name="--.HNN" depth="0.0">
			<acc value="0.0138299802865859" flag="0"/>
			<vel value="0.00645126295090524" flag="0"/>
			<psa03 value="0.0408396611562653" flag="0"/>
			<psa10 value="0.00732496227405892" flag="0"/>
			<psa30 value="0.00271929993194109" flag="0"/>
		</comp>
		<comp name="--.HNZ" depth="0.0">
			<acc value="0.00762251829288104" flag="0"/>
			<vel value="0.00472637693625069" flag="0"/>
			<psa03 value="0.0238254298803153" flag="0"/>
			<psa10 value="0.0037124602291467" flag="0"/>
			<psa30 value="0.000576382557517326" flag="0"/>
		</comp>
	</station>
	<station code="SEYD" name="SEYD" netid="KO" source="Bogazici University Kandilli Observatory And Earthquake Research Institute (KOERI)" insttype="" lat="37.4056" lon="31.8379">
		<comp name="--.HNE" depth="0.0">
			<acc value="0.0384193871545829" flag="0"/>
			<vel value="0.00806630350315376" flag="0"/>
			<psa03 value="0.036610612773414" flag="0"/>
			<psa10 value="0.00480376728852405" flag="0"/>
			<psa30 value="0.000541218821842431" flag="0"/>
		</comp>
		<comp name="--.HNN" depth="0.0">
			<acc value="0.0425343376913095" flag="0"/>
			<vel value="0.00860177036465643" flag="0"/>
			<psa03 value="0.032612319260248" flag="0"/>
			<psa10 value="0.00337010169019878" flag="0"/>
			<psa30 value="0.00040623180669667" flag="0"/>
		</comp>
		<comp name="--.HNZ" depth="0.0">
			<acc value="0.0273324062104746" flag="0"/>
			<vel value="0.00421867179001566" flag="0"/>
			<psa03 value="0.0255788038452061" flag="0"/>
			<psa10 value="0.00675161210490628" flag="0"/>
			<psa30 value="0.000288453223193873" flag="0"/>
		</comp>
	</station>
</stationlist>
