<?xml version="1.0" encoding="UTF-8" standalone="yes"?>
<!DOCTYPE earthquake SYSTEM "stationlist.dtd">
<stationlist created="" xmlns="ch.ethz.sed.shakemap.usgs.xml">
  <station code="CHBY" name="CHBY" netid="KO" insttype="30s," lat="38.5823" lon="32.8902">
    <comp name="--.HHN">
      <acc value="0.0090599346" flag="0"/>
      <vel value="0.0033926066" flag="0"/>
      <psa03 value="0.0125143375" flag="0"/>
      <psa10 value="0.0029745306" flag="0"/>
      <psa30 value="0.0001385214" flag="0"/>
    </comp>
    <comp name="--.HHE">
      <acc value="0.0087996892" flag="0"/>
      <vel value="0.0028750606" flag="0"/>
      <psa03 value="0.0120432470" flag="0"/>
      <psa10 value="0.0023289742" flag="0"/>
      <psa30 value="0.0001209975" flag="0"/>
    </comp>
    <comp name="--.HHZ">
      <acc value="0.0067959900" flag="0"/>
      <vel value="0.0021409466" flag="0"/>
      <psa03 value="0.0152761120" flag="0"/>
      <psa10 value="0.0015490730" flag="0"/>
      <psa30 value="0.0000936025" flag="0"/>
    </comp>
  </station>
  <station code="SDAG" name="SDAG" netid="KO" insttype="30s," lat="38.4396" lon="30.9175">
    <comp name="--.HHZ">
      <acc value="0.0090317186" flag="0"/>
      <vel value="0.0038005931" flag="0"/>
      <psa03 value="0.0245472343" flag="0"/>
      <psa10 value="0.0040511730" flag="0"/>
      <psa30 value="0.0003462557" flag="0"/>
    </comp>
    <comp name="--.HHE">
      <acc value="0.0128656859" flag="0"/>
      <vel value="0.0122229786" flag="0"/>
      <psa03 value="0.0415536609" flag="0"/>
      <psa10 value="0.0072441178" flag="0"/>
      <psa30 value="0.0011546583" flag="0"/>
    </comp>
    <comp name="--.HHN">
      <acc value="0.0136675251" flag="0"/>
      <vel value="0.0084273884" flag="0"/>
      <psa03 value="0.0458704674" flag="0"/>
      <psa10 value="0.0043136687" flag="0"/>
      <psa30 value="0.0005443914" flag="0"/>
    </comp>
  </station>
</stationlist>
