<?xml version="1.0" encoding="UTF-8" standalone="yes"?>
<!DOCTYPE earthquake SYSTEM "stationlist.dtd">
<stationlist created="" xmlns="ch.ethz.sed.shakemap.usgs.xml">
  <station code="ARMT" name="ARMT" netid="KO" insttype="CMG-3ESP" commtype="DIG" lat="40.5683" lon="28.866">
    <comp name="--.HHN">
      <acc value="0.0398542284" flag="0"/>
      <vel value="0.0073610125" flag="0"/>
      <psa03 value="0.0435568280" flag="0"/>
      <psa10 value="0.0042024632" flag="0"/>
      <psa30 value="0.0003462023" flag="0"/>
    </comp>
  </station>
  <station code="AVCI" name="AVCI" netid="KO" insttype="CMG-5T" commtype="DIG" lat="40.9958" lon="28.7225">
    <comp name="--.HNZ">
      <acc value="0.2261076082" flag="0"/>
      <vel value="0.0453067213" flag="0"/>
      <psa03 value="0.1149838154" flag="0"/>
      <psa10 value="0.0101562231" flag="0"/>
      <psa30 value="0.0011620591" flag="0"/>
    </comp>
    <comp name="--.HNN">
      <acc value="0.1275465932" flag="0"/>
      <vel value="0.0275679874" flag="0"/>
      <psa03 value="0.1316199115" flag="0"/>
      <psa10 value="0.0212942702" flag="0"/>
      <psa30 value="0.0030090224" flag="0"/>
    </comp>
    <comp name="--.HNE">
      <acc value="0.0915468013" flag="0"/>
      <vel value="0.0353166648" flag="0"/>
      <psa03 value="0.0938186389" flag="0"/>
      <psa10 value="0.0395219272" flag="0"/>
      <psa30 value="0.0033705334" flag="0"/>
    </comp>
  </station>
  <station code="BGKT" name="BGKT" netid="KO" insttype="CMG-3ESP" commtype="DIG" lat="41.181" lon="28.773">
    <comp name="--.HHZ">
      <acc value="0.1391718904" flag="0"/>
      <vel value="0.0200194614" flag="0"/>
      <psa03 value="0.0341623296" flag="0"/>
      <psa10 value="0.0043880887" flag="0"/>
      <psa30 value="0.0003938341" flag="0"/>
    </comp>
    <comp name="--.HHN">
      <acc value="0.1983534931" flag="0"/>
      <vel value="0.0100296288" flag="0"/>
      <psa03 value="0.0366121470" flag="0"/>
      <psa10 value="0.0035491101" flag="0"/>
      <psa30 value="0.0003377308" flag="0"/>
    </comp>
    <comp name="--.HHE">
      <acc value="0.2289542501" flag="0"/>
      <vel value="0.0134709099" flag="0"/>
      <psa03 value="0.0360757404" flag="0"/>
      <psa10 value="0.0028474236" flag="0"/>
      <psa30 value="0.0002468594" flag="0"/>
    </comp>
  </station>
  <station code="BIGA" name="BIGA" netid="KO" insttype="CMG-5T" commtype="DIG" lat="40.2813" lon="27.1505">
    <comp name="--.HNE">
      <acc value="0.0765414665" flag="0"/>
      <vel value="0.0286761469" flag="0"/>
      <psa03 value="0.1921494746" flag="0"/>
      <psa10 value="0.0086906028" flag="0"/>
      <psa30 value="0.0007899707" flag="0"/>
    </comp>
    <comp name="--.HNN">
      <acc value="0.0806935103" flag="0"/>
      <vel value="0.0267899592" flag="0"/>
      <psa03 value="0.1669500505" flag="0"/>
      <psa10 value="0.0078637306" flag="0"/>
      <psa30 value="0.0005501295" flag="0"/>
    </comp>
    <comp name="--.HNZ">
      <acc value="0.0537557365" flag="0"/>
      <vel value="0.0096949918" flag="0"/>
      <psa03 value="0.0477597390" flag="0"/>
      <psa10 value="0.0031082784" flag="0"/>
      <psa30 value="0.0005164690" flag="0"/>
    </comp>
  </station>
  <station code="BOTS" name="BOTS" netid="KO" insttype="CMG-5T" commtype="DIG" lat="40.9902" lon="27.981">
    <comp name="--.HNZ">
      <acc value="0.5312768578" flag="0"/>
      <vel value="0.0489073235" flag="0"/>
      <psa03 value="0.1208584902" flag="0"/>
      <psa10 value="0.0088642965" flag="0"/>
      <psa30 value="0.0009612520" flag="0"/>
    </comp>
    <comp name="--.HNN">
      <acc value="0.1089333623" flag="0"/>
      <vel value="0.0362858810" flag="0"/>
      <psa03 value="0.1297179427" flag="0"/>
      <psa10 value="0.0175916017" flag="0"/>
      <psa30 value="0.0012556147" flag="0"/>
    </comp>
    <comp name="--.HNE">
      <acc value="0.1778001076" flag="0"/>
      <vel value="0.0346999032" flag="0"/>
      <psa03 value="0.1515059902" flag="0"/>
      <psa10 value="0.0077248088" flag="0"/>
      <psa30 value="0.0005985903" flag="0"/>
    </comp>
  </station>
  <station code="BRGA" name="BRGA" netid="KO" insttype="CMG-5T" commtype="DIG" lat="40.8846" lon="29.065">
    <comp name="--.HNE">
      <acc value="0.0706908714" flag="0"/>
      <vel value="0.0139106654" flag="0"/>
      <psa03 value="0.0605767787" flag="0"/>
      <psa10 value="0.0056965613" flag="0"/>
      <psa30 value="0.0004855521" flag="0"/>
    </comp>
    <comp name="--.HNZ">
      <acc value="0.0570137263" flag="0"/>
      <vel value="0.0105181697" flag="0"/>
      <psa03 value="0.0310600045" flag="0"/>
      <psa10 value="0.0046248834" flag="0"/>
      <psa30 value="0.0004267961" flag="0"/>
    </comp>
    <comp name="--.HNN">
      <acc value="0.0959408495" flag="0"/>
      <vel value="0.0209585468" flag="0"/>
      <psa03 value="0.0567642384" flag="0"/>
      <psa10 value="0.0080610403" flag="0"/>
      <psa30 value="0.0009660077" flag="0"/>
    </comp>
  </station>
  <station code="BUYK" name="BUYK" netid="KO" insttype="ACEBOX" commtype="DIG" lat="41.0168" lon="28.5828">
    <comp name="--.HNE">
      <acc value="0.0696379115" flag="0"/>
      <vel value="0.0258439520" flag="0"/>
      <psa03 value="0.0881100425" flag="0"/>
      <psa10 value="0.0277470596" flag="0"/>
      <psa30 value="0.0021603403" flag="0"/>
    </comp>
    <comp name="--.HNZ">
      <acc value="0.4018486436" flag="0"/>
      <vel value="0.0715390243" flag="0"/>
      <psa03 value="0.1648815488" flag="0"/>
      <psa10 value="0.0244032598" flag="0"/>
      <psa30 value="0.0015750641" flag="0"/>
    </comp>
  </station>
  <station code="CRLU" name="CRLU" netid="KO" insttype="ACEBOX" commtype="DIG" lat="41.1428" lon="27.8215">
    <comp name="--.HNE">
      <acc value="0.4667890129" flag="0"/>
      <vel value="0.1755824665" flag="0"/>
      <psa03 value="0.7200783643" flag="0"/>
      <psa10 value="0.1405642421" flag="0"/>
      <psa30 value="0.0108953419" flag="0"/>
    </comp>
    <comp name="--.HNN">
      <acc value="0.5849713848" flag="0"/>
      <vel value="0.2366219663" flag="0"/>
      <psa03 value="1.0159235358" flag="0"/>
      <psa10 value="0.1152599724" flag="0"/>
      <psa30 value="0.0114482342" flag="0"/>
    </comp>
    <comp name="--.HNZ">
      <acc value="2.1729448567" flag="0"/>
      <vel value="0.4465197151" flag="0"/>
      <psa03 value="1.9357111040" flag="0"/>
      <psa10 value="0.0988264032" flag="0"/>
      <psa30 value="0.0115490130" flag="0"/>
    </comp>
  </station>
  <station code="CTKS" name="CTKS" netid="KO" insttype="CMG-3ESP" commtype="DIG" lat="41.2373" lon="28.5072">
    <comp name="--.HHE">
      <acc value="0.1663687347" flag="0"/>
      <vel value="0.0270404935" flag="0"/>
      <psa03 value="0.0721999613" flag="0"/>
      <psa10 value="0.0093141740" flag="0"/>
      <psa30 value="0.0010242297" flag="0"/>
    </comp>
    <comp name="--.HHZ">
      <acc value="0.0000139591" flag="0"/>
      <vel value="0.0000020472" flag="0"/>
      <psa03 value="0.0000058839" flag="0"/>
      <psa10 value="0.0000016796" flag="0"/>
      <psa30 value="0.0000005791" flag="0"/>
    </comp>
  </station>
  <station code="CTYL" name="CTYL" netid="KO" insttype="CMG-3T" commtype="DIG" lat="41.476" lon="28.2897">
    <comp name="--.HHN">
      <acc value="0.1203724927" flag="0"/>
      <vel value="0.0259339549" flag="0"/>
      <psa03 value="0.1899590917" flag="0"/>
      <psa10 value="0.0074169307" flag="0"/>
      <psa30 value="0.0006775760" flag="0"/>
    </comp>
  </station>
  <station code="EDC" name="EDC" netid="KO" insttype="CMG-3T" commtype="DIG" lat="40.3465" lon="27.8618">
    <comp name="--.HHZ">
      <acc value="0.0347427697" flag="0"/>
      <vel value="0.0069763923" flag="0"/>
      <psa03 value="0.0276782206" flag="0"/>
      <psa10 value="0.0024058367" flag="0"/>
      <psa30 value="0.0002468933" flag="0"/>
    </comp>
    <comp name="--.HHN">
      <acc value="0.0987000150" flag="0"/>
      <vel value="0.0247939791" flag="0"/>
      <psa03 value="0.1455953359" flag="0"/>
      <psa10 value="0.0059745716" flag="0"/>
      <psa30 value="0.0004251063" flag="0"/>
    </comp>
  </station>
  <station code="ESKY" name="ESKY" netid="KO" insttype="CMG-5T" commtype="DIG" lat="40.5918" lon="28.9071">
    <comp name="--.HNE">
      <acc value="0.0292982351" flag="0"/>
      <vel value="0.0158390373" flag="0"/>
      <psa03 value="0.0571177003" flag="0"/>
      <psa10 value="0.0154095053" flag="0"/>
      <psa30 value="0.0008421229" flag="0"/>
    </comp>
    <comp name="--.HNN">
      <acc value="0.0414870817" flag="0"/>
      <vel value="0.0154247774" flag="0"/>
      <psa03 value="0.0600832307" flag="0"/>
      <psa10 value="0.0151370023" flag="0"/>
      <psa30 value="0.0007888103" flag="0"/>
    </comp>
    <comp name="--.HNZ">
      <acc value="0.0874556003" flag="0"/>
      <vel value="0.0160614522" flag="0"/>
      <psa03 value="0.0416990303" flag="0"/>
      <psa10 value="0.0076879279" flag="0"/>
      <psa30 value="0.0004380202" flag="0"/>
    </comp>
  </station>
  <station code="GAZK" name="GAZK" netid="KO" insttype="CMG-6T" commtype="DIG" lat="40.7479" lon="27.3275">
    <comp name="--.HHE">
      <acc value="0.0974150074" flag="0"/>
      <vel value="0.0386889446" flag="0"/>
      <psa03 value="0.2286987671" flag="0"/>
      <psa10 value="0.0134308380" flag="0"/>
      <psa30 value="0.0009123997" flag="0"/>
    </comp>
    <comp name="--.HHN">
      <acc value="0.1209871300" flag="0"/>
      <vel value="0.0382707622" flag="0"/>
      <psa03 value="0.1771404723" flag="0"/>
      <psa10 value="0.0121829684" flag="0"/>
      <psa30 value="0.0010622919" flag="0"/>
    </comp>
    <comp name="--.HHZ">
      <acc value="0.0519096846" flag="0"/>
      <vel value="0.0206883545" flag="0"/>
      <psa03 value="0.1532738591" flag="0"/>
      <psa10 value="0.0069351738" flag="0"/>
      <psa30 value="0.0005015908" flag="0"/>
    </comp>
  </station>
  <station code="GEML" name="GEML" netid="KO" insttype="CMG-3T" commtype="DIG" lat="40.4646" lon="29.2116">
    <comp name="--.HHE">
      <acc value="0.0679094610" flag="0"/>
      <vel value="0.0158333489" flag="0"/>
      <psa03 value="0.0393554218" flag="0"/>
      <psa10 value="0.0044817261" flag="0"/>
      <psa30 value="0.0002580989" flag="0"/>
    </comp>
    <comp name="--.HHN">
      <acc value="0.0779310528" flag="0"/>
      <vel value="0.0153541409" flag="0"/>
      <psa03 value="0.0548195394" flag="0"/>
      <psa10 value="0.0051777083" flag="0"/>
      <psa30 value="0.0002914099" flag="0"/>
    </comp>
    <comp name="--.HHZ">
      <acc value="0.0512392807" flag="0"/>
      <vel value="0.0094842090" flag="0"/>
      <psa03 value="0.0188186372" flag="0"/>
      <psa10 value="0.0030974651" flag="0"/>
      <psa30 value="0.0002108463" flag="0"/>
    </comp>
  </station>
  <station code="GONE" name="GONE" netid="KO" insttype="CMG-5T" commtype="DIG" lat="40.0466" lon="27.686">
    <comp name="--.HNZ">
      <acc value="0.0168110094" flag="0"/>
      <vel value="0.0055067272" flag="0"/>
      <psa03 value="0.0312317565" flag="0"/>
      <psa10 value="0.0049531285" flag="0"/>
      <psa30 value="0.0002851022" flag="0"/>
    </comp>
    <comp name="--.HNN">
      <acc value="0.0619101549" flag="0"/>
      <vel value="0.0204753484" flag="0"/>
      <psa03 value="0.1444517298" flag="0"/>
      <psa10 value="0.0091828471" flag="0"/>
      <psa30 value="0.0007875061" flag="0"/>
    </comp>
    <comp name="--.HNE">
      <acc value="0.0285433806" flag="0"/>
      <vel value="0.0150363240" flag="0"/>
      <psa03 value="0.0786118924" flag="0"/>
      <psa10 value="0.0105267417" flag="0"/>
      <psa30 value="0.0008755091" flag="0"/>
    </comp>
  </station>
  <station code="HRTX" name="HRTX" netid="KO" insttype="CMG-3ESP" commtype="DIG" lat="40.8009" lon="29.6729">
    <comp name="--.HHZ">
      <acc value="0.0118187713" flag="0"/>
      <vel value="0.0064929455" flag="0"/>
      <psa03 value="0.0206527587" flag="0"/>
      <psa10 value="0.0079435863" flag="0"/>
      <psa30 value="0.0004439364" flag="0"/>
    </comp>
  </station>
  <station code="ISK" name="ISK" netid="KO" insttype="CMG-3T" commtype="DIG" lat="41.0615" lon="29.0592">
    <comp name="--.HHE">
      <acc value="0.0614805592" flag="0"/>
      <vel value="0.0094257952" flag="0"/>
      <psa03 value="0.0195563619" flag="0"/>
      <psa10 value="0.0016595079" flag="0"/>
      <psa30 value="0.0001637919" flag="0"/>
    </comp>
    <comp name="--.HHN">
      <acc value="0.0562547255" flag="0"/>
      <vel value="0.0085015241" flag="0"/>
      <psa03 value="0.0270692165" flag="0"/>
      <psa10 value="0.0045831434" flag="0"/>
      <psa30 value="0.0003172605" flag="0"/>
    </comp>
    <comp name="--.HHZ">
      <acc value="0.0409184176" flag="0"/>
      <vel value="0.0045205376" flag="0"/>
      <psa03 value="0.0192733953" flag="0"/>
      <psa10 value="0.0024142091" flag="0"/>
      <psa30 value="0.0001034460" flag="0"/>
    </comp>
  </station>
  <station code="IZI" name="IZI" netid="KO" insttype="CMG-5T" commtype="DIG" lat="40.3483" lon="29.4612">
    <comp name="--.HNE">
      <acc value="0.0143971306" flag="0"/>
      <vel value="0.0057164675" flag="0"/>
      <psa03 value="0.0219955150" flag="0"/>
      <psa10 value="0.0024425952" flag="0"/>
      <psa30 value="0.0003252153" flag="0"/>
    </comp>
    <comp name="--.HNN">
      <acc value="0.0108737786" flag="0"/>
      <vel value="0.0036408502" flag="0"/>
      <psa03 value="0.0225316497" flag="0"/>
      <psa10 value="0.0043222351" flag="0"/>
      <psa30 value="0.0002597953" flag="0"/>
    </comp>
    <comp name="--.HNZ">
      <acc value="0.0096226488" flag="0"/>
      <vel value="0.0025044848" flag="0"/>
      <psa03 value="0.0147663117" flag="0"/>
      <psa10 value="0.0035471285" flag="0"/>
      <psa30 value="0.0003364641" flag="0"/>
    </comp>
  </station>
  <station code="KAVV" name="KAVV" netid="KO" insttype="CMG-3ESPC" commtype="DIG" lat="41.0638" lon="29.06">
    <comp name="--.HHN">
      <acc value="0.0724179742" flag="0"/>
      <vel value="0.0149994428" flag="0"/>
      <psa03 value="0.0519573166" flag="0"/>
      <psa10 value="0.0054903718" flag="0"/>
      <psa30 value="0.0003491683" flag="0"/>
    </comp>
    <comp name="--.HHE">
      <acc value="0.0776519419" flag="0"/>
      <vel value="0.0140324463" flag="0"/>
      <psa03 value="0.0563924986" flag="0"/>
      <psa10 value="0.0024190542" flag="0"/>
      <psa30 value="0.0002474669" flag="0"/>
    </comp>
    <comp name="--.HHZ">
      <acc value="0.0631851658" flag="0"/>
      <vel value="0.0090155882" flag="0"/>
      <psa03 value="0.0406459932" flag="0"/>
      <psa10 value="0.0030492087" flag="0"/>
      <psa30 value="0.0001303487" flag="0"/>
    </comp>
  </station>
  <station code="KCTX" name="KCTX" netid="KO" insttype="CMG-3ESP" commtype="DIG" lat="40.2626" lon="28.3353">
    <comp name="--.HHE">
      <acc value="0.0441031602" flag="0"/>
      <vel value="0.0308712602" flag="0"/>
      <psa03 value="0.0536766431" flag="0"/>
      <psa10 value="0.0233022996" flag="0"/>
      <psa30 value="0.0015439806" flag="0"/>
    </comp>
    <comp name="--.HHN">
      <acc value="0.0337898057" flag="0"/>
      <vel value="0.0136152627" flag="0"/>
      <psa03 value="0.0357667521" flag="0"/>
      <psa10 value="0.0070213920" flag="0"/>
      <psa30 value="0.0005190992" flag="0"/>
    </comp>
    <comp name="--.HHZ">
      <acc value="0.0265886114" flag="0"/>
      <vel value="0.0084624133" flag="0"/>
      <psa03 value="0.0371523952" flag="0"/>
      <psa10 value="0.0040963748" flag="0"/>
      <psa30 value="0.0002292987" flag="0"/>
    </comp>
  </station>
  <station code="KLYT" name="KLYT" netid="KO" insttype="CMG-3T" commtype="DIG" lat="41.253" lon="29.042">
    <comp name="--.HHZ">
      <acc value="0.0497530621" flag="0"/>
      <vel value="0.0105993753" flag="0"/>
      <psa03 value="0.0223231967" flag="0"/>
      <psa10 value="0.0034829427" flag="0"/>
      <psa30 value="0.0002074547" flag="0"/>
    </comp>
  </station>
  <station code="KOUK" name="KOUK" netid="KO" insttype="CMG-5T" commtype="DIG" lat="40.6572" lon="29.1918">
    <comp name="--.HNE">
      <acc value="0.0325388210" flag="0"/>
      <vel value="0.0178292577" flag="0"/>
      <psa03 value="0.0608565383" flag="0"/>
      <psa10 value="0.0248741561" flag="0"/>
      <psa30 value="0.0010391638" flag="0"/>
    </comp>
    <comp name="--.HNN">
      <acc value="0.0303094750" flag="0"/>
      <vel value="0.0220560579" flag="0"/>
      <psa03 value="0.0645245955" flag="0"/>
      <psa10 value="0.0409624337" flag="0"/>
      <psa30 value="0.0020450407" flag="0"/>
    </comp>
    <comp name="--.HNZ">
      <acc value="0.0201520585" flag="0"/>
      <vel value="0.0067229049" flag="0"/>
      <psa03 value="0.0464332742" flag="0"/>
      <psa10 value="0.0082713860" flag="0"/>
      <psa30 value="0.0008676229" flag="0"/>
    </comp>
  </station>
  <station code="KRBG" name="KRBG" netid="KO" insttype="CMG-5T" commtype="DIG" lat="40.3932" lon="27.2977">
    <comp name="--.HNE">
      <acc value="0.0771974331" flag="0"/>
      <vel value="0.0297430159" flag="0"/>
      <psa03 value="0.1166692442" flag="0"/>
      <psa10 value="0.0143634813" flag="0"/>
      <psa30 value="0.0010462264" flag="0"/>
    </comp>
    <comp name="--.HNN">
      <acc value="0.0613264541" flag="0"/>
      <vel value="0.0162310575" flag="0"/>
      <psa03 value="0.1162928355" flag="0"/>
      <psa10 value="0.0050186439" flag="0"/>
      <psa30 value="0.0005488646" flag="0"/>
    </comp>
    <comp name="--.HNZ">
      <acc value="0.0457466623" flag="0"/>
      <vel value="0.0122396139" flag="0"/>
      <psa03 value="0.0559354033" flag="0"/>
      <psa10 value="0.0044622667" flag="0"/>
      <psa30 value="0.0002926888" flag="0"/>
    </comp>
  </station>
  <station code="KRTL" name="KRTL" netid="KO" insttype="CMG-5T" commtype="DIG" lat="40.9089" lon="29.1987">
    <comp name="--.HNE">
      <acc value="0.1196316482" flag="0"/>
      <vel value="0.0148935662" flag="0"/>
      <psa03 value="0.0282678968" flag="0"/>
      <psa10 value="0.0029969584" flag="0"/>
      <psa30 value="0.0002772698" flag="0"/>
    </comp>
    <comp name="--.HNZ">
      <acc value="0.0283681078" flag="0"/>
      <vel value="0.0059914157" flag="0"/>
      <psa03 value="0.0224669900" flag="0"/>
      <psa10 value="0.0019509391" flag="0"/>
      <psa30 value="0.0006377106" flag="0"/>
    </comp>
    <comp name="--.HNN">
      <acc value="0.0848721702" flag="0"/>
      <vel value="0.0128846005" flag="0"/>
      <psa03 value="0.0359467455" flag="0"/>
      <psa10 value="0.0070530983" flag="0"/>
      <psa30 value="0.0005318040" flag="0"/>
    </comp>
  </station>
  <station code="KUMB" name="KUMB" netid="KO" insttype="CMG-5T" commtype="DIG" lat="40.8626" lon="27.4592">
    <comp name="--.HNZ">
      <acc value="0.0006219558" flag="0"/>
      <vel value="0.0007227603" flag="0"/>
      <psa03 value="0.0008172729" flag="0"/>
      <psa10 value="0.0006009188" flag="0"/>
      <psa30 value="0.0002477735" flag="0"/>
    </comp>
    <comp name="--.HNE">
      <acc value="0.0855409699" flag="0"/>
      <vel value="0.0259783555" flag="0"/>
      <psa03 value="0.1460287600" flag="0"/>
      <psa10 value="0.0119214834" flag="0"/>
      <psa30 value="0.0010975890" flag="0"/>
    </comp>
    <comp name="--.HNN">
      <acc value="0.0751385797" flag="0"/>
      <vel value="0.0237820124" flag="0"/>
      <psa03 value="0.0955113208" flag="0"/>
      <psa10 value="0.0089522215" flag="0"/>
      <psa30 value="0.0006215175" flag="0"/>
    </comp>
  </station>
  <station code="MAEG" name="MAEG" netid="KO" insttype="CMG-5T" commtype="DIG" lat="40.9653" lon="27.9448">
    <comp name="--.HNE">
      <acc value="0.2092621983" flag="0"/>
      <vel value="0.0368321109" flag="0"/>
      <psa03 value="0.1625994761" flag="0"/>
