<?xml version="1.0" encoding="UTF-8" standalone="yes"?>
<!DOCTYPE earthquake SYSTEM "stationlist.dtd">
<stationlist created="" xmlns="ch.ethz.sed.shakemap.usgs.xml">
  <station code="ARMT" name="ARMT" netid="KO" insttype="CMG-3ESP" commtype="DIG" lat="40.5683" lon="28.866">
    <comp name="--.HHN">
      <acc value="0.0398542286" flag="0"/>
      <vel value="0.0073610104" flag="0"/>
      <psa03 value="0.0435568280" flag="0"/>
      <psa10 value="0.0042024635" flag="0"/>
      <psa30 value="0.0003462129" flag="0"/>
    </comp>
  </station>
  <station code="AVCI" name="AVCI" netid="KO" insttype="CMG-5T" commtype="DIG" lat="40.9958" lon="28.7225">
    <comp name="--.HNN">
      <acc value="0.1275466319" flag="0"/>
      <vel value="0.0275679974" flag="0"/>
      <psa03 value="0.1316199115" flag="0"/>
      <psa10 value="0.0212942677" flag="0"/>
      <psa30 value="0.0030089812" flag="0"/>
    </comp>
    <comp name="--.HNE">
      <acc value="0.0915467700" flag="0"/>
      <vel value="0.0353166528" flag="0"/>
      <psa03 value="0.0938186389" flag="0"/>
      <psa10 value="0.0395219325" flag="0"/>
      <psa30 value="0.0033718143" flag="0"/>
    </comp>
    <comp name="--.HNZ">
      <acc value="0.2261075653" flag="0"/>
      <vel value="0.0453067223" flag="0"/>
      <psa03 value="0.1149838154" flag="0"/>
      <psa10 value="0.0101562230" flag="0"/>
      <psa30 value="0.0011642129" flag="0"/>
    </comp>
  </station>
  <station code="BGKT" name="BGKT" netid="KO" insttype="CMG-3ESP" commtype="DIG" lat="41.181" lon="28.773">
    <comp name="--.HHE">
      <acc value="0.2289542501" flag="0"/>
      <vel value="0.0134709081" flag="0"/>
      <psa03 value="0.0360757404" flag="0"/>
      <psa10 value="0.0028474222" flag="0"/>
      <psa30 value="0.0002468931" flag="0"/>
    </comp>
    <comp name="--.HHN">
      <acc value="0.1983534930" flag="0"/>
      <vel value="0.0100296190" flag="0"/>
      <psa03 value="0.0366121470" flag="0"/>
      <psa10 value="0.0035491012" flag="0"/>
      <psa30 value="0.0003377149" flag="0"/>
    </comp>
    <comp name="--.HHZ">
      <acc value="0.1391718903" flag="0"/>
      <vel value="0.0200194620" flag="0"/>
      <psa03 value="0.0341623296" flag="0"/>
      <psa10 value="0.0043880836" flag="0"/>
      <psa30 value="0.0003939711" flag="0"/>
    </comp>
  </station>
  <station code="BOTS" name="BOTS" netid="KO" insttype="CMG-5T" commtype="DIG" lat="40.9902" lon="27.981">
    <comp name="--.HNE">
      <acc value="0.1778001178" flag="0"/>
      <vel value="0.0346998909" flag="0"/>
      <psa03 value="0.1515059902" flag="0"/>
      <psa10 value="0.0077248236" flag="0"/>
      <psa30 value="0.0005965841" flag="0"/>
    </comp>
    <comp name="--.HNZ">
      <acc value="0.5312768967" flag="0"/>
      <vel value="0.0489073147" flag="0"/>
      <psa03 value="0.1208584902" flag="0"/>
      <psa10 value="0.0088642071" flag="0"/>
      <psa30 value="0.0009646142" flag="0"/>
    </comp>
    <comp name="--.HNN">
      <acc value="0.1089333064" flag="0"/>
      <vel value="0.0362858803" flag="0"/>
      <psa03 value="0.1297179427" flag="0"/>
      <psa10 value="0.0175915731" flag="0"/>
      <psa30 value="0.0012569019" flag="0"/>
    </comp>
  </station>
  <station code="BRGA" name="BRGA" netid="KO" insttype="CMG-5T" commtype="DIG" lat="40.8846" lon="29.065">
    <comp name="--.HNZ">
      <acc value="0.0570138085" flag="0"/>
      <vel value="0.0105181675" flag="0"/>
      <psa03 value="0.0310600045" flag="0"/>
      <psa10 value="0.0046248832" flag="0"/>
      <psa30 value="0.0004274503" flag="0"/>
    </comp>
    <comp name="--.HNE">
      <acc value="0.0706908644" flag="0"/>
      <vel value="0.0139106714" flag="0"/>
      <psa03 value="0.0605767787" flag="0"/>
      <psa10 value="0.0056965653" flag="0"/>
      <psa30 value="0.0004859016" flag="0"/>
    </comp>
    <comp name="--.HNN">
      <acc value="0.0959408737" flag="0"/>
      <vel value="0.0209585654" flag="0"/>
      <psa03 value="0.0567642384" flag="0"/>
      <psa10 value="0.0080610426" flag="0"/>
      <psa30 value="0.0009695077" flag="0"/>
    </comp>
  </station>
  <station code="BUYA" name="BUYA" netid="KO" insttype="CMG-5T" commtype="DIG" lat="40.8694" lon="29.1278">
    <comp name="--.HNE">
      <acc value="0.0729610328" flag="0"/>
      <vel value="0.0179509276" flag="0"/>
      <psa03 value="0.0519029618" flag="0"/>
      <psa10 value="0.0062005767" flag="0"/>
      <psa30 value="0.0006925950" flag="0"/>
    </comp>
  </station>
  <station code="BUYK" name="BUYK" netid="KO" insttype="ACEBOX" commtype="DIG" lat="41.0168" lon="28.5828">
    <comp name="--.HNN">
      <acc value="0.0882086463" flag="0"/>
      <vel value="0.0317273848" flag="0"/>
      <psa03 value="0.1073556830" flag="0"/>
      <psa10 value="0.0369302567" flag="0"/>
      <psa30 value="0.0035212971" flag="0"/>
    </comp>
    <comp name="--.HNE">
      <acc value="0.0696379096" flag="0"/>
      <vel value="0.0258439512" flag="0"/>
      <psa03 value="0.0881100425" flag="0"/>
      <psa10 value="0.0277470596" flag="0"/>
      <psa30 value="0.0021599246" flag="0"/>
    </comp>
    <comp name="--.HNZ">
      <acc value="0.4018486391" flag="0"/>
      <vel value="0.0715390325" flag="0"/>
      <psa03 value="0.1648815488" flag="0"/>
      <psa10 value="0.0244032688" flag="0"/>
      <psa30 value="0.0015760723" flag="0"/>
    </comp>
  </station>
  <station code="CRLU" name="CRLU" netid="KO" insttype="ACEBOX" commtype="DIG" lat="41.1428" lon="27.8215">
    <comp name="--.HNE">
      <acc value="0.4667889942" flag="0"/>
      <vel value="0.1755824758" flag="0"/>
      <psa03 value="0.7200783643" flag="0"/>
      <psa10 value="0.1405642413" flag="0"/>
      <psa30 value="0.0108935756" flag="0"/>
    </comp>
    <comp name="--.HNZ">
      <acc value="2.1729448499" flag="0"/>
      <vel value="0.4465197491" flag="0"/>
      <psa03 value="1.9357111039" flag="0"/>
      <psa10 value="0.0988269613" flag="0"/>
      <psa30 value="0.0115567826" flag="0"/>
    </comp>
    <comp name="--.HNN">
      <acc value="0.5849715207" flag="0"/>
      <vel value="0.2366220306" flag="0"/>
      <psa03 value="1.0159235360" flag="0"/>
      <psa10 value="0.1152599694" flag="0"/>
      <psa30 value="0.0114452632" flag="0"/>
    </comp>
  </station>
  <station code="CTKS" name="CTKS" netid="KO" insttype="CMG-3ESP" commtype="DIG" lat="41.2373" lon="28.5072">
    <comp name="--.HHE">
      <acc value="0.1663687349" flag="0"/>
      <vel value="0.0270404936" flag="0"/>
      <psa03 value="0.0721999613" flag="0"/>
      <psa10 value="0.0093141741" flag="0"/>
      <psa30 value="0.0010243521" flag="0"/>
    </comp>
    <comp name="--.HHZ">
      <acc value="0.0000139595" flag="0"/>
      <vel value="0.0000020473" flag="0"/>
      <psa03 value="0.0000058839" flag="0"/>
      <psa10 value="0.0000018042" flag="0"/>
      <psa30 value="0.0000005785" flag="0"/>
    </comp>
  </station>
  <station code="CTYL" name="CTYL" netid="KO" insttype="CMG-3T" commtype="DIG" lat="41.476" lon="28.2897">
    <comp name="--.HHE">
      <acc value="0.1263124114" flag="0"/>
      <vel value="0.0352899222" flag="0"/>
      <psa03 value="0.1738604062" flag="0"/>
      <psa10 value="0.0178426686" flag="0"/>
      <psa30 value="0.0011743305" flag="0"/>
    </comp>
    <comp name="--.HHN">
      <acc value="0.1203724927" flag="0"/>
      <vel value="0.0259339551" flag="0"/>
      <psa03 value="0.1899590917" flag="0"/>
      <psa10 value="0.0074169307" flag="0"/>
      <psa30 value="0.0006775650" flag="0"/>
    </comp>
  </station>
  <station code="EDC" name="EDC" netid="KO" insttype="CMG-3T" commtype="DIG" lat="40.3465" lon="27.8618">
    <comp name="--.HHN">
      <acc value="0.0987000165" flag="0"/>
      <vel value="0.0247939793" flag="0"/>
      <psa03 value="0.1455953359" flag="0"/>
      <psa10 value="0.0059745716" flag="0"/>
      <psa30 value="0.0004251236" flag="0"/>
    </comp>
    <comp name="--.HHZ">
      <acc value="0.0347427695" flag="0"/>
      <vel value="0.0069763928" flag="0"/>
      <psa03 value="0.0276782206" flag="0"/>
      <psa10 value="0.0024058367" flag="0"/>
      <psa30 value="0.0002468896" flag="0"/>
    </comp>
  </station>
  <station code="ESKY" name="ESKY" netid="KO" insttype="CMG-5T" commtype="DIG" lat="40.5918" lon="28.9071">
    <comp name="--.HNE">
      <acc value="0.0292979494" flag="0"/>
      <vel value="0.0158390366" flag="0"/>
      <psa03 value="0.0571177003" flag="0"/>
      <psa10 value="0.0154095102" flag="0"/>
      <psa30 value="0.0008403641" flag="0"/>
    </comp>
    <comp name="--.HNN">
      <acc value="0.0414871825" flag="0"/>
      <vel value="0.0154247822" flag="0"/>
      <psa03 value="0.0600832306" flag="0"/>
      <psa10 value="0.0151370047" flag="0"/>
      <psa30 value="0.0007890332" flag="0"/>
    </comp>
    <comp name="--.HNZ">
      <acc value="0.0874556522" flag="0"/>
      <vel value="0.0160614538" flag="0"/>
      <psa03 value="0.0416990304" flag="0"/>
      <psa10 value="0.0076879280" flag="0"/>
      <psa30 value="0.0004330199" flag="0"/>
    </comp>
  </station>
  <station code="GAZK" name="GAZK" netid="KO" insttype="CMG-6T" commtype="DIG" lat="40.7479" lon="27.3275">
    <comp name="--.HHE">
      <acc value="0.0974151755" flag="0"/>
      <vel value="0.0386889395" flag="0"/>
      <psa03 value="0.2286987671" flag="0"/>
      <psa10 value="0.0134308386" flag="0"/>
      <psa30 value="0.0009124853" flag="0"/>
    </comp>
    <comp name="--.HHN">
      <acc value="0.1209872308" flag="0"/>
      <vel value="0.0382707618" flag="0"/>
      <psa03 value="0.1771404723" flag="0"/>
      <psa10 value="0.0121829680" flag="0"/>
      <psa30 value="0.0010624581" flag="0"/>
    </comp>
    <comp name="--.HHZ">
      <acc value="0.0519098652" flag="0"/>
      <vel value="0.0206883566" flag="0"/>
      <psa03 value="0.1532738591" flag="0"/>
      <psa10 value="0.0069351743" flag="0"/>
      <psa30 value="0.0005016745" flag="0"/>
    </comp>
  </station>
  <station code="GEML" name="GEML" netid="KO" insttype="CMG-3T" commtype="DIG" lat="40.4646" lon="29.2116">
    <comp name="--.HHZ">
      <acc value="0.0512392803" flag="0"/>
      <vel value="0.0094842092" flag="0"/>
      <psa03 value="0.0188186372" flag="0"/>
      <psa10 value="0.0030974652" flag="0"/>
      <psa30 value="0.0002108579" flag="0"/>
    </comp>
    <comp name="--.HHN">
      <acc value="0.0779310534" flag="0"/>
      <vel value="0.0153541413" flag="0"/>
      <psa03 value="0.0548195394" flag="0"/>
      <psa10 value="0.0051777085" flag="0"/>
      <psa30 value="0.0002914037" flag="0"/>
    </comp>
    <comp name="--.HHE">
      <acc value="0.0679094617" flag="0"/>
      <vel value="0.0158333469" flag="0"/>
      <psa03 value="0.0393554218" flag="0"/>
      <psa10 value="0.0044817259" flag="0"/>
      <psa30 value="0.0002580710" flag="0"/>
    </comp>
  </station>
  <station code="ISK" name="ISK" netid="KO" insttype="CMG-3T" commtype="DIG" lat="41.0615" lon="29.0592">
    <comp name="--.HHE">
      <acc value="0.0614805593" flag="0"/>
      <vel value="0.0094257954" flag="0"/>
      <psa03 value="0.0195563619" flag="0"/>
      <psa10 value="0.0016595081" flag="0"/>
      <psa30 value="0.0001637987" flag="0"/>
    </comp>
    <comp name="--.HHN">
      <acc value="0.0562547262" flag="0"/>
      <vel value="0.0085015237" flag="0"/>
      <psa03 value="0.0270692165" flag="0"/>
      <psa10 value="0.0045831440" flag="0"/>
      <psa30 value="0.0003172661" flag="0"/>
    </comp>
    <comp name="--.HHZ">
      <acc value="0.0409184178" flag="0"/>
      <vel value="0.0045205379" flag="0"/>
      <psa03 value="0.0192733953" flag="0"/>
      <psa10 value="0.0024142086" flag="0"/>
      <psa30 value="0.0001035599" flag="0"/>
    </comp>
  </station>
  <station code="KAVV" name="KAVV" netid="KO" insttype="CMG-3ESPC" commtype="DIG" lat="41.0638" lon="29.06">
    <comp name="--.HHN">
      <acc value="0.0724179738" flag="0"/>
      <vel value="0.0149994428" flag="0"/>
      <psa03 value="0.0519573166" flag="0"/>
      <psa10 value="0.0054903727" flag="0"/>
      <psa30 value="0.0003491686" flag="0"/>
    </comp>
    <comp name="--.HHE">
      <acc value="0.0776519427" flag="0"/>
      <vel value="0.0140324461" flag="0"/>
      <psa03 value="0.0563924986" flag="0"/>
      <psa10 value="0.0024190541" flag="0"/>
      <psa30 value="0.0002474935" flag="0"/>
    </comp>
    <comp name="--.HHZ">
      <acc value="0.0631851655" flag="0"/>
      <vel value="0.0090155884" flag="0"/>
      <psa03 value="0.0406459932" flag="0"/>
      <psa10 value="0.0030492083" flag="0"/>
      <psa30 value="0.0001304054" flag="0"/>
    </comp>
  </station>
  <station code="KCTX" name="KCTX" netid="KO" insttype="CMG-3ESP" commtype="DIG" lat="40.2626" lon="28.3353">
    <comp name="--.HHE">
      <acc value="0.0441031594" flag="0"/>
      <vel value="0.0308712593" flag="0"/>
      <psa03 value="0.0536766431" flag="0"/>
      <psa10 value="0.0233022996" flag="0"/>
      <psa30 value="0.0015439753" flag="0"/>
    </comp>
    <comp name="--.HHN">
      <acc value="0.0337898064" flag="0"/>
      <vel value="0.0136152623" flag="0"/>
      <psa03 value="0.0357667521" flag="0"/>
      <psa10 value="0.0070213921" flag="0"/>
      <psa30 value="0.0005191002" flag="0"/>
    </comp>
    <comp name="--.HHZ">
      <acc value="0.0265886117" flag="0"/>
      <vel value="0.0084624133" flag="0"/>
      <psa03 value="0.0371523952" flag="0"/>
      <psa10 value="0.0040963748" flag="0"/>
      <psa30 value="0.0002293091" flag="0"/>
    </comp>
  </station>
  <station code="KLYT" name="KLYT" netid="KO" insttype="CMG-3T" commtype="DIG" lat="41.253" lon="29.042">
    <comp name="--.HHZ">
      <acc value="0.0497530616" flag="0"/>
      <vel value="0.0105993761" flag="0"/>
      <psa03 value="0.0223231967" flag="0"/>
      <psa10 value="0.0034829420" flag="0"/>
      <psa30 value="0.0002071296" flag="0"/>
    </comp>
  </station>
  <station code="KOUK" name="KOUK" netid="KO" insttype="CMG-5T" commtype="DIG" lat="40.6572" lon="29.1918">
    <comp name="--.HNN">
      <acc value="0.0303094738" flag="0"/>
      <vel value="0.0220560692" flag="0"/>
      <psa03 value="0.0645245955" flag="0"/>
      <psa10 value="0.0409624337" flag="0"/>
      <psa30 value="0.0020468553" flag="0"/>
    </comp>
    <comp name="--.HNE">
      <acc value="0.0325387996" flag="0"/>
      <vel value="0.0178292623" flag="0"/>
      <psa03 value="0.0608565383" flag="0"/>
      <psa10 value="0.0248741562" flag="0"/>
      <psa30 value="0.0010408561" flag="0"/>
    </comp>
    <comp name="--.HNZ">
      <acc value="0.0201519768" flag="0"/>
      <vel value="0.0067229164" flag="0"/>
      <psa03 value="0.0464332742" flag="0"/>
      <psa10 value="0.0082713859" flag="0"/>
      <psa30 value="0.0008682295" flag="0"/>
    </comp>
  </station>
  <station code="KRTL" name="KRTL" netid="KO" insttype="CMG-5T" commtype="DIG" lat="40.9089" lon="29.1987">
    <comp name="--.HNE">
      <acc value="0.1196316503" flag="0"/>
      <vel value="0.0148935563" flag="0"/>
      <psa03 value="0.0282678968" flag="0"/>
      <psa10 value="0.0029969524" flag="0"/>
      <psa30 value="0.0002776871" flag="0"/>
    </comp>
    <comp name="--.HNN">
      <acc value="0.0848721923" flag="0"/>
      <vel value="0.0128846033" flag="0"/>
      <psa03 value="0.0359467454" flag="0"/>
      <psa10 value="0.0070530946" flag="0"/>
      <psa30 value="0.0005319769" flag="0"/>
    </comp>
    <comp name="--.HNZ">
      <acc value="0.0283679602" flag="0"/>
      <vel value="0.0059914303" flag="0"/>
      <psa03 value="0.0224669899" flag="0"/>
      <psa10 value="0.0019509383" flag="0"/>
      <psa30 value="0.0006036090" flag="0"/>
    </comp>
  </station>
  <station code="KUMB" name="KUMB" netid="KO" insttype="CMG-5T" commtype="DIG" lat="40.8626" lon="27.4592">
    <comp name="--.HNE">
      <acc value="0.0855413707" flag="0"/>
      <vel value="0.0259783599" flag="0"/>
      <psa03 value="0.1460287600" flag="0"/>
      <psa10 value="0.0119214817" flag="0"/>
      <psa30 value="0.0011007186" flag="0"/>
    </comp>
    <comp name="--.HNN">
      <acc value="0.0751366716" flag="0"/>
      <vel value="0.0237820254" flag="0"/>
      <psa03 value="0.0955113209" flag="0"/>
      <psa10 value="0.0089522243" flag="0"/>
      <psa30 value="0.0006215027" flag="0"/>
    </comp>
    <comp name="--.HNZ">
      <acc value="0.0006222158" flag="0"/>
      <vel value="0.0005046362" flag="0"/>
      <psa03 value="0.0008172729" flag="0"/>
      <psa10 value="0.0006009898" flag="0"/>
      <psa30 value="0.0002535856" flag="0"/>
    </comp>
  </station>
  <station code="MAEG" name="MAEG" netid="KO" insttype="CMG-5T" commtype="DIG" lat="40.9653" lon="27.9448">
    <comp name="--.HNE">
      <acc value="0.2092621810" flag="0"/>
      <vel value="0.0368321116" flag="0"/>
      <psa03 value="0.1625994761" flag="0"/>
      <psa10 value="0.0070123963" flag="0"/>
      <psa30 value="0.0008055322" flag="0"/>
    </comp>
    <comp name="--.HNN">
      <acc value="0.1977476247" flag="0"/>
      <vel value="0.0491368521" flag="0"/>
      <psa03 value="0.1696429322" flag="0"/>
      <psa10 value="0.0143169912" flag="0"/>
      <psa30 value="0.0018990838" flag="0"/>
    </comp>
    <comp name="--.HNZ">
      <acc value="0.3079148528" flag="0"/>
      <vel value="0.0359235790" flag="0"/>
      <psa03 value="0.0947579388" flag="0"/>
      <psa10 value="0.0074805576" flag="0"/>
      <psa30 value="0.0009506428" flag="0"/>
    </comp>
  </station>
  <station code="MDNY" name="MDNY" netid="KO" insttype="CMG-5T" commtype="DIG" lat="40.3709" lon="28.8846">
    <comp name="--.HNZ">
      <acc value="0.0305795392" flag="0"/>
      <vel value="0.0069473568" flag="0"/>
      <psa03 value="0.0166298174" flag="0"/>
      <psa10 value="0.0021123329" flag="0"/>
      <psa30 value="0.0001714764" flag="0"/>
    </comp>
    <comp name="--.HNN">
      <acc value="0.0417085363" flag="0"/>
      <vel value="0.0096372537" flag="0"/>
      <psa03 value="0.0498215837" flag="0"/>
      <psa10 value="0.0053755480" flag="0"/>
      <psa30 value="0.0002859345" flag="0"/>
    </comp>
    <comp name="--.HNE">
      <acc value="0.0390146897" flag="0"/>
      <vel value="0.0105658280" flag="0"/>
      <psa03 value="0.0379785905" flag="0"/>
      <psa10 value="0.0041626981" flag="0"/>
      <psa30 value="0.0002832847" flag="0"/>
    </comp>
  </station>
  <station code="MRMT" name="MRMT" netid="KO" insttype="CMG-3T" commtype="DIG" lat="40.609" lon="27.5832">
    <comp name="--.HHE">
      <acc value="0.0809428908" flag="0"/>
      <vel value="0.0129632859" flag="0"/>
      <psa03 value="0.0427564367" flag="0"/>
      <psa10 value="0.0024931201" flag="0"/>
      <psa30 value="0.0003513910" flag="0"/>
    </comp>
    <comp name="--.HHN">
      <acc value="0.0000327269" flag="0"/>
      <vel value="0.0000036648" flag="0"/>
      <psa03 value="0.0000103839" flag="0"/>
      <psa10 value="0.0000035762" flag="0"/>
      <psa30 value="0.0000011074" flag="0"/>
    </comp>
    <comp name="--.HHZ">
      <acc value="0.0000270439" flag="0"/>
      <vel value="0.0000027867" flag="0"/>
      <psa03 value="0.0000097938" flag="0"/>
      <psa10 value="0.0000030305" flag="0"/>
      <psa30 value="0.0000004966" flag="0"/>
    </comp>
  </station>
  <station code="SILV" name="SILV" netid="KO" insttype="ACEBOX" commtype="DIG" lat="41.0723" lon="28.239">
    <comp name="--.HNE">
      <acc value="0.8422582405" flag="0"/>
      <vel value="0.2943918857" flag="0"/>
      <psa03 value="1.3516529109" flag="0"/>
      <psa10 value="0.0758399089" flag="0"/>
      <psa30 value="0.0098171877" flag="0"/>
    </comp>
    <comp name="--.HNZ">
      <acc value="0.1813804243" flag="0"/>
      <vel value="0.0411556412" flag="0"/>
      <psa03 value="0.1667569386" flag="0"/>
      <psa10 value="0.0230864328" flag="0"/>
      <psa30 value="0.0009431488" flag="0"/>
    </comp>
    <comp name="--.HNN">
