<?xml version="1.0" encoding="UTF-8" standalone="yes"?>
<!DOCTYPE earthquake SYSTEM "stationlist.dtd">
<stationlist created="" xmlns="ch.ethz.sed.shakemap.usgs.xml">
  <station code="ANTB" name="ANTB" netid="KO" insttype="CMG-3T" lat="36.8998" lon="30.6538">
    <comp name="--.HHE">
      <acc value="0.0246007874" flag="0"/>
      <vel value="0.0338001834" flag="0"/>
      <psa03 value="0.0460612564" flag="0"/>
      <psa10 value="0.0325272377" flag="0"/>
      <psa30 value="0.0133215619" flag="0"/>
    </comp>
    <comp name="--.HHN">
      <acc value="0.0179781081" flag="0"/>
      <vel value="0.0287185142" flag="0"/>
      <psa03 value="0.0347800315" flag="0"/>
      <psa10 value="0.0203765838" flag="0"/>
      <psa30 value="0.0124662639" flag="0"/>
    </comp>
    <comp name="--.HHZ">
      <acc value="0.0154862111" flag="0"/>
      <vel value="0.0206624463" flag="0"/>
      <psa03 value="0.0298707197" flag="0"/>
      <psa10 value="0.0276791735" flag="0"/>
      <psa30 value="0.0053610907" flag="0"/>
    </comp>
  </station>
  <station code="BCK" name="BCK" netid="KO" insttype="CMG-3T" lat="37.4602" lon="30.5885">
    <comp name="--.HHN">
      <acc value="0.0494717929" flag="0"/>
      <vel value="0.0296331614" flag="0"/>
      <psa03 value="0.1204967278" flag="0"/>
      <psa10 value="0.0293040796" flag="0"/>
      <psa30 value="0.0047435547" flag="0"/>
    </comp>
    <comp name="--.HHE">
      <acc value="0.0418234455" flag="0"/>
      <vel value="0.0262013109" flag="0"/>
      <psa03 value="0.1209773841" flag="0"/>
      <psa10 value="0.0267143469" flag="0"/>
      <psa30 value="0.0070589981" flag="0"/>
    </comp>
    <comp name="--.HHZ">
      <acc value="0.0357181742" flag="0"/>
      <vel value="0.0289808668" flag="0"/>
      <psa03 value="0.0702875779" flag="0"/>
      <psa10 value="0.0310131725" flag="0"/>
      <psa30 value="0.0063998743" flag="0"/>
    </comp>
  </station>
</stationlist>
