<?xml version="1.0" encoding="UTF-8" standalone="yes"?>
<!DOCTYPE earthquake SYSTEM "stationlist.dtd">
<stationlist created="" xmlns="ch.ethz.sed.shakemap.usgs.xml">
  <station code="ANTB" name="ANTB" netid="KO" insttype="CMG-3T" lat="36.8998" lon="30.6538">
    <comp name="--.HHE">
      <acc value="0.0246007870" flag="0"/>
      <vel value="0.0338001790" flag="0"/>
      <psa03 value="0.0460612564" flag="0"/>
      <psa10 value="0.0325272347" flag="0"/>
      <psa30 value="0.0133240848" flag="0"/>
    </comp>
    <comp name="--.HHN">
      <acc value="0.0179781083" flag="0"/>
      <vel value="0.0287185124" flag="0"/>
      <psa03 value="0.0347800315" flag="0"/>
      <psa10 value="0.0203765839" flag="0"/>
      <psa30 value="0.0124681847" flag="0"/>
    </comp>
    <comp name="--.HHZ">
      <acc value="0.0154862108" flag="0"/>
      <vel value="0.0206624406" flag="0"/>
      <psa03 value="0.0298707197" flag="0"/>
      <psa10 value="0.0276791735" flag="0"/>
      <psa30 value="0.0053591333" flag="0"/>
    </comp>
  </station>
  <station code="BCK" name="BCK" netid="KO" insttype="CMG-3T" lat="37.4602" lon="30.5885">
    <comp name="--.HHE">
      <acc value="0.0418234448" flag="0"/>
      <vel value="0.0262013133" flag="0"/>
      <psa03 value="0.1209773841" flag="0"/>
      <psa10 value="0.0267143280" flag="0"/>
      <psa30 value="0.0070588227" flag="0"/>
    </comp>
    <comp name="--.HHZ">
      <acc value="0.0357181738" flag="0"/>
      <vel value="0.0289808642" flag="0"/>
      <psa03 value="0.0702875779" flag="0"/>
      <psa10 value="0.0310131683" flag="0"/>
      <psa30 value="0.0063986919" flag="0"/>
    </comp>
    <comp name="--.HHN">
      <acc value="0.0494717927" flag="0"/>
      <vel value="0.0296331626" flag="0"/>
      <psa03 value="0.1204967278" flag="0"/>
      <psa10 value="0.0293040795" flag="0"/>
      <psa30 value="0.0047428041" flag="0"/>
    </comp>
  </station>
</stationlist>
