<?xml version="1.0" encoding="UTF-8" standalone="yes"?>
<!DOCTYPE earthquake SYSTEM "stationlist.dtd">
<stationlist created="" xmlns="ch.ethz.sed.shakemap.usgs.xml">
  <station code="ANTB" name="ANTB" netid="KO" insttype="CMG-3T" lat="36.8998" lon="30.6538">
    <comp name="--.HHE">
      <acc value="0.0246007877" flag="0"/>
      <vel value="0.0338001780" flag="0"/>
      <psa03 value="0.0460612564" flag="0"/>
      <psa10 value="0.0325272336" flag="0"/>
      <psa30 value="0.0133225704" flag="0"/>
    </comp>
    <comp name="--.HHN">
      <acc value="0.0179781082" flag="0"/>
      <vel value="0.0287185179" flag="0"/>
      <psa03 value="0.0347800315" flag="0"/>
      <psa10 value="0.0203765838" flag="0"/>
      <psa30 value="0.0124664275" flag="0"/>
    </comp>
    <comp name="--.HHZ">
      <acc value="0.0154862112" flag="0"/>
      <vel value="0.0206624423" flag="0"/>
      <psa03 value="0.0298707197" flag="0"/>
      <psa10 value="0.0276791735" flag="0"/>
      <psa30 value="0.0053605989" flag="0"/>
    </comp>
  </station>
  <station code="BCK" name="BCK" netid="KO" insttype="CMG-3T" lat="37.4602" lon="30.5885">
    <comp name="--.HHE">
      <acc value="0.0418234454" flag="0"/>
      <vel value="0.0262013119" flag="0"/>
      <psa03 value="0.1209773841" flag="0"/>
      <psa10 value="0.0267143254" flag="0"/>
      <psa30 value="0.0070588878" flag="0"/>
    </comp>
    <comp name="--.HHN">
      <acc value="0.0494717933" flag="0"/>
      <vel value="0.0296331609" flag="0"/>
      <psa03 value="0.1204967278" flag="0"/>
      <psa10 value="0.0293040795" flag="0"/>
      <psa30 value="0.0047431346" flag="0"/>
    </comp>
    <comp name="--.HHZ">
      <acc value="0.0357181740" flag="0"/>
      <vel value="0.0289808686" flag="0"/>
      <psa03 value="0.0702875779" flag="0"/>
      <psa10 value="0.0310131674" flag="0"/>
      <psa30 value="0.0063994847" flag="0"/>
    </comp>
  </station>
</stationlist>
