<?xml version="1.0" encoding="UTF-8" standalone="yes"?>
<!DOCTYPE earthquake SYSTEM "stationlist.dtd">
<stationlist created="" xmlns="ch.ethz.sed.shakemap.usgs.xml">
  <station code="ANTK" name="ANTK" netid="HA" insttype="25" commtype="DIG" lat="38.3605" lon="22.6385">
    <comp name="--.HHN">
      <acc value="0.0185974989" flag="0"/>
      <vel value="0.0090202097" flag="0"/>
      <psa03 value="0.0422184406" flag="0"/>
      <psa10 value="0.0091120033" flag="0"/>
      <psa30 value="0.0008836386" flag="0"/>
    </comp>
    <comp name="--.HHE">
      <acc value="0.0152846645" flag="0"/>
      <vel value="0.0084877423" flag="0"/>
      <psa03 value="0.0212371138" flag="0"/>
      <psa10 value="0.0064050168" flag="0"/>
      <psa30 value="0.0005465764" flag="0"/>
    </comp>
    <comp name="--.HHZ">
      <acc value="0.0153935630" flag="0"/>
      <vel value="0.0071415633" flag="0"/>
      <psa03 value="0.0221396202" flag="0"/>
      <psa10 value="0.0092926742" flag="0"/>
      <psa30 value="0.0006458730" flag="0"/>
    </comp>
  </station>
  <station code="AXAR" name="AXAR" netid="HA" insttype="Horizon,120s,1200" commtype="DIG" lat="38.7664" lon="22.659">
    <comp name="--.HHZ">
      <acc value="0.1385599822" flag="0"/>
      <vel value="0.0474536889" flag="0"/>
      <psa03 value="0.3293034663" flag="0"/>
      <psa10 value="0.0156399476" flag="0"/>
      <psa30 value="0.0011152552" flag="0"/>
    </comp>
    <comp name="--.HHN">
      <acc value="0.2820683179" flag="0"/>
      <vel value="0.0818508361" flag="0"/>
      <psa03 value="0.4914011594" flag="0"/>
      <psa10 value="0.0474866755" flag="0"/>
      <psa30 value="0.0036811059" flag="0"/>
    </comp>
    <comp name="--.HHE">
      <acc value="0.2779108377" flag="0"/>
      <vel value="0.0770447280" flag="0"/>
      <psa03 value="0.4196845721" flag="0"/>
      <psa10 value="0.0411464150" flag="0"/>
      <psa30 value="0.0033668288" flag="0"/>
    </comp>
  </station>
  <station code="DOMV" name="DOMV" netid="HA" insttype="60" commtype="DIG" lat="38.2569" lon="22.9795">
    <comp name="--.HHN">
      <acc value="0.0623434261" flag="0"/>
      <vel value="0.0192709891" flag="0"/>
      <psa03 value="0.1130262363" flag="0"/>
      <psa10 value="0.0143064189" flag="0"/>
      <psa30 value="0.0010287526" flag="0"/>
    </comp>
    <comp name="--.HHE">
      <acc value="0.0501984423" flag="0"/>
      <vel value="0.0171842603" flag="0"/>
      <psa03 value="0.0800091610" flag="0"/>
      <psa10 value="0.0071107195" flag="0"/>
      <psa30 value="0.0008860669" flag="0"/>
    </comp>
    <comp name="--.HHZ">
      <acc value="0.0413070764" flag="0"/>
      <vel value="0.0123841808" flag="0"/>
      <psa03 value="0.0642088060" flag="0"/>
      <psa10 value="0.0070579511" flag="0"/>
      <psa30 value="0.0008982999" flag="0"/>
    </comp>
  </station>
  <station code="KALE" name="KALE" netid="HA" insttype="40," commtype="DIG" lat="38.3911" lon="22.1398">
    <comp name="--.HHN">
      <acc value="0.1971973672" flag="0"/>
      <vel value="0.0667179370" flag="0"/>
      <psa03 value="0.3621039112" flag="0"/>
      <psa10 value="0.0348932942" flag="0"/>
      <psa30 value="0.0022397868" flag="0"/>
    </comp>
    <comp name="--.HHE">
      <acc value="0.2291162753" flag="0"/>
      <vel value="0.0591807126" flag="0"/>
      <psa03 value="0.3911906667" flag="0"/>
      <psa10 value="0.0274280414" flag="0"/>
      <psa30 value="0.0023282870" flag="0"/>
    </comp>
    <comp name="--.HHZ">
      <acc value="0.0984825334" flag="0"/>
      <vel value="0.0325979704" flag="0"/>
      <psa03 value="0.1552884181" flag="0"/>
      <psa10 value="0.0232346039" flag="0"/>
      <psa30 value="0.0020126964" flag="0"/>
    </comp>
  </station>
  <station code="LAKA" name="LAKA" netid="HA" insttype="120s," commtype="DIG" lat="38.2401" lon="21.9785">
    <comp name="--.HHE">
      <acc value="0.0118578892" flag="0"/>
      <vel value="0.0062209836" flag="0"/>
      <psa03 value="0.0462176336" flag="0"/>
      <psa10 value="0.0105136594" flag="0"/>
      <psa30 value="0.0005975187" flag="0"/>
    </comp>
    <comp name="--.HHZ">
      <acc value="0.0110181291" flag="0"/>
      <vel value="0.0058593149" flag="0"/>
      <psa03 value="0.0266582502" flag="0"/>
      <psa10 value="0.0084878599" flag="0"/>
      <psa30 value="0.0008230207" flag="0"/>
    </comp>
    <comp name="--.HHN">
      <acc value="0.0146474251" flag="0"/>
      <vel value="0.0087112380" flag="0"/>
      <psa03 value="0.0367121693" flag="0"/>
      <psa10 value="0.0104825331" flag="0"/>
      <psa30 value="0.0009834261" flag="0"/>
    </comp>
  </station>
  <station code="PRDM" name="PRDM" netid="HA" insttype="25" commtype="DIG" lat="38.2804" lon="22.847">
    <comp name="--.HHE">
      <acc value="0.0175281421" flag="0"/>
      <vel value="0.0066851585" flag="0"/>
      <psa03 value="0.0260450326" flag="0"/>
      <psa10 value="0.0062154957" flag="0"/>
      <psa30 value="0.0003946767" flag="0"/>
    </comp>
    <comp name="--.HHZ">
      <acc value="0.0099491578" flag="0"/>
      <vel value="0.0043117411" flag="0"/>
      <psa03 value="0.0205728847" flag="0"/>
      <psa10 value="0.0064392496" flag="0"/>
      <psa30 value="0.0004645158" flag="0"/>
    </comp>
    <comp name="--.HHN">
      <acc value="0.0238297891" flag="0"/>
      <vel value="0.0063392432" flag="0"/>
      <psa03 value="0.0342636966" flag="0"/>
      <psa10 value="0.0039284820" flag="0"/>
      <psa30 value="0.0003695792" flag="0"/>
    </comp>
  </station>
  <station code="AGR3" name="AGR3" netid="HI" insttype="unknown" commtype="DIG" lat="38.5893" lon="21.4162">
    <comp name="--.HNN">
      <acc value="0.1400630984" flag="0"/>
      <vel value="0.0414325680" flag="0"/>
      <psa03 value="0.1605888336" flag="0"/>
      <psa10 value="0.0813553493" flag="0"/>
      <psa30 value="0.0053129222" flag="0"/>
    </comp>
    <comp name="--.HNE">
      <acc value="0.1356486692" flag="0"/>
      <vel value="0.0449797991" flag="0"/>
      <psa03 value="0.3338644716" flag="0"/>
      <psa10 value="0.0523105807" flag="0"/>
      <psa30 value="0.0061017631" flag="0"/>
    </comp>
    <comp name="--.HNZ">
      <acc value="0.0606137388" flag="0"/>
      <vel value="0.0272812777" flag="0"/>
      <psa03 value="0.1033533754" flag="0"/>
      <psa10 value="0.0329671438" flag="0"/>
      <psa30 value="0.0026254304" flag="0"/>
    </comp>
  </station>
  <station code="AKR1" name="AKR1" netid="HI" insttype="unknown" commtype="DIG" lat="38.1536" lon="22.3133">
    <comp name="--.HNN">
      <acc value="0.0524451782" flag="0"/>
      <vel value="0.0212731890" flag="0"/>
      <psa03 value="0.1635792347" flag="0"/>
      <psa10 value="0.0169208246" flag="0"/>
      <psa30 value="0.0014560162" flag="0"/>
    </comp>
    <comp name="--.HNE">
      <acc value="0.0492626133" flag="0"/>
      <vel value="0.0232205761" flag="0"/>
      <psa03 value="0.1479596330" flag="0"/>
      <psa10 value="0.0164335648" flag="0"/>
      <psa30 value="0.0011373865" flag="0"/>
    </comp>
    <comp name="--.HNZ">
      <acc value="0.0250130273" flag="0"/>
      <vel value="0.0105664490" flag="0"/>
      <psa03 value="0.0788041085" flag="0"/>
      <psa10 value="0.0115081719" flag="0"/>
      <psa30 value="0.0013331314" flag="0"/>
    </comp>
  </station>
  <station code="AST1" name="AST1" netid="HI" insttype="unknown" commtype="DIG" lat="38.5416" lon="21.0895">
    <comp name="--.HNN">
      <acc value="0.0226067871" flag="0"/>
      <vel value="0.0190245966" flag="0"/>
      <psa03 value="0.0617470763" flag="0"/>
      <psa10 value="0.0302559117" flag="0"/>
      <psa30 value="0.0015213844" flag="0"/>
    </comp>
    <comp name="--.HNE">
      <acc value="0.0228824804" flag="0"/>
      <vel value="0.0138746968" flag="0"/>
      <psa03 value="0.0610297863" flag="0"/>
      <psa10 value="0.0188006764" flag="0"/>
      <psa30 value="0.0008655447" flag="0"/>
    </comp>
    <comp name="--.HNZ">
      <acc value="0.0223749033" flag="0"/>
      <vel value="0.0147317005" flag="0"/>
      <psa03 value="0.0505829021" flag="0"/>
      <psa10 value="0.0174251008" flag="0"/>
      <psa30 value="0.0009118336" flag="0"/>
    </comp>
  </station>
  <station code="FRS1" name="FRS1" netid="HI" insttype="unknown" commtype="DIG" lat="39.2934" lon="22.3844">
    <comp name="--.HNE">
      <acc value="0.0721185038" flag="0"/>
      <vel value="0.0344593145" flag="0"/>
      <psa03 value="0.2598158244" flag="0"/>
      <psa10 value="0.0250651765" flag="0"/>
      <psa30 value="0.0035177918" flag="0"/>
    </comp>
    <comp name="--.HNN">
      <acc value="0.0990312421" flag="0"/>
      <vel value="0.0412844608" flag="0"/>
      <psa03 value="0.1777530222" flag="0"/>
      <psa10 value="0.0464751709" flag="0"/>
      <psa30 value="0.0028649443" flag="0"/>
    </comp>
    <comp name="--.HNZ">
      <acc value="0.0847457263" flag="0"/>
      <vel value="0.0230111700" flag="0"/>
      <psa03 value="0.1172987355" flag="0"/>
      <psa10 value="0.0140443769" flag="0"/>
      <psa30 value="0.0017928749" flag="0"/>
    </comp>
  </station>
  <station code="KAC1" name="KAC1" netid="HI" insttype="unknown" commtype="DIG" lat="38.1434" lon="21.5497">
    <comp name="--.HNE">
      <acc value="0.0398925080" flag="0"/>
      <vel value="0.0299670327" flag="0"/>
      <psa03 value="0.2301596730" flag="0"/>
      <psa10 value="0.0489817638" flag="0"/>
      <psa30 value="0.0024768451" flag="0"/>
    </comp>
    <comp name="--.HNN">
      <acc value="0.0545396894" flag="0"/>
      <vel value="0.0504657824" flag="0"/>
      <psa03 value="0.2096682608" flag="0"/>
      <psa10 value="0.0638437398" flag="0"/>
      <psa30 value="0.0033575483" flag="0"/>
    </comp>
    <comp name="--.HNZ">
      <acc value="0.0236095549" flag="0"/>
      <vel value="0.0125815479" flag="0"/>
      <psa03 value="0.0798667064" flag="0"/>
      <psa10 value="0.0200263918" flag="0"/>
      <psa30 value="0.0020880257" flag="0"/>
    </comp>
  </station>
  <station code="KAR2" name="KAR2" netid="HI" insttype="unknown" commtype="DIG" lat="39.3658" lon="21.9193">
    <comp name="--.HNE">
      <acc value="0.2155143436" flag="0"/>
      <vel value="0.1064953809" flag="0"/>
      <psa03 value="0.8209913080" flag="0"/>
      <psa10 value="0.0949352644" flag="0"/>
      <psa30 value="0.0190839601" flag="0"/>
    </comp>
    <comp name="--.HNN">
      <acc value="0.2223206436" flag="0"/>
      <vel value="0.0942231176" flag="0"/>
      <psa03 value="0.5701490582" flag="0"/>
      <psa10 value="0.0891118675" flag="0"/>
      <psa30 value="0.0115762645" flag="0"/>
    </comp>
    <comp name="--.HNZ">
      <acc value="0.1640260944" flag="0"/>
      <vel value="0.0397567823" flag="0"/>
      <psa03 value="0.2217270338" flag="0"/>
      <psa10 value="0.0379731965" flag="0"/>
      <psa30 value="0.0055774690" flag="0"/>
    </comp>
  </station>
  <station code="KLV1" name="KLV1" netid="HI" insttype="CMG-5TD,ACCELEROMETER,GURALP" commtype="DIG" lat="38.0326" lon="22.108">
    <comp name="--.HNE">
      <acc value="0.0777864332" flag="0"/>
      <vel value="0.0345020034" flag="0"/>
      <psa03 value="0.1956201735" flag="0"/>
      <psa10 value="0.0389131576" flag="0"/>
      <psa30 value="0.0017655112" flag="0"/>
    </comp>
    <comp name="--.HNN">
      <acc value="0.0801052287" flag="0"/>
      <vel value="0.0545627213" flag="0"/>
      <psa03 value="0.2788202515" flag="0"/>
      <psa10 value="0.0382600778" flag="0"/>
      <psa30 value="0.0025256160" flag="0"/>
    </comp>
    <comp name="--.HNZ">
      <acc value="0.0313216352" flag="0"/>
      <vel value="0.0184997097" flag="0"/>
      <psa03 value="0.0834775864" flag="0"/>
      <psa10 value="0.0262913172" flag="0"/>
      <psa30 value="0.0014693325" flag="0"/>
    </comp>
  </station>
  <station code="KMV1" name="KMV1" netid="HI" insttype="unknown" commtype="DIG" lat="38.7794" lon="22.7846">
    <comp name="--.HNN">
      <acc value="0.0989463500" flag="0"/>
      <vel value="0.0390799793" flag="0"/>
      <psa03 value="0.2147823331" flag="0"/>
      <psa10 value="0.0414152156" flag="0"/>
      <psa30 value="0.0019966168" flag="0"/>
    </comp>
    <comp name="--.HNZ">
      <acc value="0.0889111042" flag="0"/>
      <vel value="0.0229819155" flag="0"/>
      <psa03 value="0.0801026654" flag="0"/>
      <psa10 value="0.0147740092" flag="0"/>
      <psa30 value="0.0006609857" flag="0"/>
    </comp>
    <comp name="--.HNE">
      <acc value="0.1177923688" flag="0"/>
      <vel value="0.0354338234" flag="0"/>
      <psa03 value="0.3094278616" flag="0"/>
      <psa10 value="0.0312904699" flag="0"/>
      <psa30 value="0.0017983968" flag="0"/>
    </comp>
  </station>
  <station code="LAM2" name="LAM2" netid="HI" insttype="CMG-5TD,ACCELEROMETER,GURALP" commtype="DIG" lat="38.902" lon="22.4313">
    <comp name="--.HNE">
      <acc value="0.4964015088" flag="0"/>
      <vel value="0.0996712541" flag="0"/>
      <psa03 value="0.6107103406" flag="0"/>
      <psa10 value="0.0273690321" flag="0"/>
      <psa30 value="0.0030295876" flag="0"/>
    </comp>
    <comp name="--.HNN">
      <acc value="0.5444383844" flag="0"/>
      <vel value="0.1772237623" flag="0"/>
      <psa03 value="0.6975920008" flag="0"/>
      <psa10 value="0.0348743925" flag="0"/>
      <psa30 value="0.0036966276" flag="0"/>
    </comp>
    <comp name="--.HNZ">
      <acc value="0.1752052407" flag="0"/>
      <vel value="0.0415599642" flag="0"/>
      <psa03 value="0.2523191375" flag="0"/>
      <psa10 value="0.0210506457" flag="0"/>
      <psa30 value="0.0026450481" flag="0"/>
    </comp>
  </station>
  <station code="LAR4" name="LAR4" netid="HI" insttype="unknown" commtype="DIG" lat="39.6422" lon="22.4219">
    <comp name="--.HNN">
      <acc value="0.0762465877" flag="0"/>
      <vel value="0.0718567838" flag="0"/>
      <psa03 value="0.1782242042" flag="0"/>
      <psa10 value="0.1016274483" flag="0"/>
      <psa30 value="0.0052670609" flag="0"/>
    </comp>
    <comp name="--.HNE">
      <acc value="0.0850674787" flag="0"/>
      <vel value="0.0633618598" flag="0"/>
      <psa03 value="0.2915468445" flag="0"/>
      <psa10 value="0.1458878620" flag="0"/>
      <psa30 value="0.0052785355" flag="0"/>
    </comp>
    <comp name="--.HNZ">
      <acc value="0.0351995454" flag="0"/>
      <vel value="0.0242908646" flag="0"/>
      <psa03 value="0.0720293118" flag="0"/>
      <psa10 value="0.0560726076" flag="0"/>
      <psa30 value="0.0026537800" flag="0"/>
    </comp>
  </station>
  <station code="LEF2" name="LEF2" netid="HI" insttype="unknown" commtype="DIG" lat="38.8301" lon="20.7083">
    <comp name="--.HNE">
      <acc value="0.0360342720" flag="0"/>
      <vel value="0.0266416036" flag="0"/>
      <psa03 value="0.1103466735" flag="0"/>
      <psa10 value="0.0572854090" flag="0"/>
      <psa30 value="0.0032552530" flag="0"/>
    </comp>
    <comp name="--.HNZ">
      <acc value="0.0203274414" flag="0"/>
      <vel value="0.0179843900" flag="0"/>
      <psa03 value="0.0740256784" flag="0"/>
      <psa10 value="0.0280963156" flag="0"/>
      <psa30 value="0.0014933925" flag="0"/>
    </comp>
    <comp name="--.HNN">
      <acc value="0.0406586234" flag="0"/>
      <vel value="0.0272738168" flag="0"/>
      <psa03 value="0.1044958396" flag="0"/>
      <psa10 value="0.0362626707" flag="0"/>
      <psa30 value="0.0028161872" flag="0"/>
    </comp>
  </station>
  <station code="MSL1" name="MSL1" netid="HI" insttype="CMG-5TD,ACCELEROMETER,GURALP" commtype="DIG" lat="38.3727" lon="21.4243">
    <comp name="--.HNE">
      <acc value="0.0461361875" flag="0"/>
      <vel value="0.0356706313" flag="0"/>
      <psa03 value="0.1529871042" flag="0"/>
      <psa10 value="0.0772504127" flag="0"/>
      <psa30 value="0.0044009157" flag="0"/>
    </comp>
    <comp name="--.HNN">
      <acc value="0.0709363231" flag="0"/>
      <vel value="0.0692709552" flag="0"/>
      <psa03 value="0.1382862719" flag="0"/>
      <psa10 value="0.0911398873" flag="0"/>
      <psa30 value="0.0052489648" flag="0"/>
    </comp>
    <comp name="--.HNZ">
      <acc value="0.0277066751" flag="0"/>
      <vel value="0.0239814474" flag="0"/>
      <psa03 value="0.0705103847" flag="0"/>
      <psa10 value="0.0428577998" flag="0"/>
      <psa30 value="0.0024780466" flag="0"/>
    </comp>
  </station>
  <station code="VAS2" name="VAS2" netid="HI" insttype="CMG-5TD,ACCELEROMETER,GURALP" commtype="DIG" lat="38.6306" lon="20.6081">
    <comp name="--.HNE">
      <acc value="0.0592060942" flag="0"/>
      <vel value="0.0577407452" flag="0"/>
      <psa03 value="0.1259790445" flag="0"/>
      <psa10 value="0.1954779712" flag="0"/>
      <psa30 value="0.0051284052" flag="0"/>
    </comp>
    <comp name="--.HNN">
      <acc value="0.0553152500" flag="0"/>
      <vel value="0.0526744373" flag="0"/>
      <psa03 value="0.1209275264" flag="0"/>
      <psa10 value="0.1345559346" flag="0"/>
      <psa30 value="0.0070986288" flag="0"/>
    </comp>
    <comp name="--.HNZ">
      <acc value="0.0293850188" flag="0"/>
      <vel value="0.0295226133" flag="0"/>
      <psa03 value="0.0662622177" flag="0"/>
      <psa10 value="0.0606589172" flag="0"/>
      <psa30 value="0.0022767896" flag="0"/>
    </comp>
  </station>
  <station code="VOL3" name="VOL3" netid="HI" insttype="unknown" commtype="DIG" lat="39.374" lon="22.9354">
    <comp name="--.HNE">
      <acc value="0.0648702968" flag="0"/>
      <vel value="0.0398027611" flag="0"/>
      <psa03 value="0.1936599348" flag="0"/>
      <psa10 value="0.0281170836" flag="0"/>
      <psa30 value="0.0023357081" flag="0"/>
    </comp>
    <comp name="--.HNZ">
      <acc value="0.0338037231" flag="0"/>
      <vel value="0.0161853680" flag="0"/>
      <psa03 value="0.1087549585" flag="0"/>
      <psa10 value="0.0106584525" flag="0"/>
      <psa30 value="0.0013517810" flag="0"/>
    </comp>
    <comp name="--.HNN">
      <acc value="0.0528996352" flag="0"/>
      <vel value="0.0369026555" flag="0"/>
      <psa03 value="0.1732623953" flag="0"/>
      <psa10 value="0.0215234349" flag="0"/>
      <psa30 value="0.0019646448" flag="0"/>
    </comp>
  </station>
  <station code="EVR" name="EVR" netid="HL" insttype="DR24" commtype="DIG" lat="38.9166" lon="21.8105">
    <comp name="--.HHN">
      <acc value="0.8485389317" flag="0"/>
      <vel value="0.2359927671" flag="0"/>
      <psa03 value="0.7557043764" flag="0"/>
      <psa10 value="0.1583854007" flag="0"/>
      <psa30 value="0.0145639431" flag="0"/>
    </comp>
    <comp name="--.HHZ">
      <acc value="0.4445713644" flag="0"/>
      <vel value="0.1047954627" flag="0"/>
      <psa03 value="0.3843321174" flag="0"/>
      <psa10 value="0.1068877488" flag="0"/>
      <psa30 value="0.0083239092" flag="0"/>
    </comp>
    <comp name="--.HHE">
      <acc value="0.6998817722" flag="0"/>
      <vel value="0.1369556682" flag="0"/>
      <psa03 value="0.4489941533" flag="0"/>
      <psa10 value="0.0914309084" flag="0"/>
      <psa30 value="0.0053057868" flag="0"/>
    </comp>
  </station>
  <station code="GINA" name="GINA" netid="HL" insttype="CMG-5" commtype="DIG" lat="39.6689" lon="22.389">
    <comp name="00.HNE">
      <acc value="0.0607069099" flag="0"/>
      <vel value="0.0486503096" flag="0"/>
      <psa03 value="0.1504491147" flag="0"/>
      <psa10 value="0.0465711172" flag="0"/>
      <psa30 value="0.0027461657" flag="0"/>
    </comp>
    <comp name="00.HNZ">
      <acc value="0.0404569433" flag="0"/>
      <vel value="0.0209982095" flag="0"/>
      <psa03 value="0.0502492514" flag="0"/>
      <psa10 value="0.0322534060" flag="0"/>
      <psa30 value="0.0015896752" flag="0"/>
    </comp>
    <comp name="00.HNN">
      <acc value="0.0563711722" flag="0"/>
      <vel value="0.0331176199" flag="0"/>
      <psa03 value="0.1259983462" flag="0"/>
      <psa10 value="0.0335099496" flag="0"/>
      <psa30 value="0.0035557051" flag="0"/>
    </comp>
  </station>
