<?xml version="1.0" encoding="UTF-8" standalone="yes"?>
<!DOCTYPE earthquake SYSTEM "stationlist.dtd">
<stationlist created="" xmlns="ch.ethz.sed.shakemap.usgs.xml">
  <station code="KLV" name="KLV" netid="MN" insttype="" commtype="DIG" lat="38.0437" lon="22.1504">
    <comp name="--.HHN">
      <acc value="0.0171580324" flag="0"/>
      <vel value="0.0142659298" flag="0"/>
      <psa03 value="0.0429930136" flag="0"/>
      <psa10 value="0.0100441208" flag="0"/>
      <psa30 value="0.0009588382" flag="0"/>
    </comp>
    <comp name="--.HHE">
      <acc value="0.0176624880" flag="0"/>
      <vel value="0.0110810543" flag="0"/>
      <psa03 value="0.0538645786" flag="0"/>
      <psa10 value="0.0216993461" flag="0"/>
      <psa30 value="0.0008575239" flag="0"/>
    </comp>
    <comp name="--.HHZ">
      <acc value="0.0170267661" flag="0"/>
      <vel value="0.0108630474" flag="0"/>
      <psa03 value="0.0282853756" flag="0"/>
      <psa10 value="0.0186669779" flag="0"/>
      <psa30 value="0.0011681625" flag="0"/>
    </comp>
  </station>
  <station code="THL" name="THL" netid="MN" insttype="" commtype="DIG" lat="39.5647" lon="22.0144">
    <comp name="--.HHE">
      <acc value="0.0295279251" flag="0"/>
      <vel value="0.0151537006" flag="0"/>
      <psa03 value="0.0661872035" flag="0"/>
      <psa10 value="0.0157969522" flag="0"/>
      <psa30 value="0.0013772319" flag="0"/>
    </comp>
    <comp name="--.HHZ">
      <acc value="0.0165417786" flag="0"/>
      <vel value="0.0066054467" flag="0"/>
      <psa03 value="0.0290891584" flag="0"/>
      <psa10 value="0.0062365352" flag="0"/>
      <psa30 value="0.0008096952" flag="0"/>
    </comp>
    <comp name="--.HHN">
      <acc value="0.0247838791" flag="0"/>
      <vel value="0.0094921300" flag="0"/>
      <psa03 value="0.0405713343" flag="0"/>
      <psa10 value="0.0097911859" flag="0"/>
      <psa30 value="0.0011082510" flag="0"/>
    </comp>
  </station>
</stationlist>
