<?xml version="1.0" encoding="UTF-8" standalone="yes"?>
<!DOCTYPE earthquake SYSTEM "stationlist.dtd">
<stationlist created="" xmlns="ch.ethz.sed.shakemap.usgs.xml">
  <station code="SKR" name="SKR" netid="VI" insttype="LE-3D/5s" commtype="DIG" lat="64.5601" lon="-18.3865">
    <comp name="--.HHZ">
      <acc value="0.0139720196" flag="0"/>
      <vel value="0.0338074417" flag="0"/>
      <psa03 value="0.0258922304" flag="0"/>
      <psa10 value="0.0380388096" flag="0"/>
      <psa30 value="0.0213560021" flag="0"/>
    </comp>
    <comp name="--.HHE">
      <acc value="0.0180272627" flag="0"/>
      <vel value="0.0529742465" flag="0"/>
      <psa03 value="0.0249262320" flag="0"/>
      <psa10 value="0.0536965752" flag="0"/>
      <psa30 value="0.0187943329" flag="0"/>
    </comp>
    <comp name="--.HHN">
      <acc value="0.0190505929" flag="0"/>
      <vel value="0.0538509977" flag="0"/>
      <psa03 value="0.0235235205" flag="0"/>
      <psa10 value="0.0465338206" flag="0"/>
      <psa30 value="0.0294920431" flag="0"/>
    </comp>
  </station>
</stationlist>
