<stationlist created="1778205368">
	<station code="HER1" name="HER1" netid="HI" source="ITSAK Strong Motion Network" insttype="" lat="35.317672" lon="25.10217">
		<comp name="--.HNE" depth="0.0">
			<acc value="0.0114081891211732" flag="0"/>
			<vel value="0.00468402587878227" flag="0"/>
			<psa03 value="0.019029639526476" flag="0"/>
			<psa10 value="0.00576924249650142" flag="0"/>
			<psa30 value="0.000274975455357741" flag="0"/>
		</comp>
		<comp name="--.HNN" depth="0.0">
			<acc value="0.0108060732708826" flag="0"/>
			<vel value="0.00518301660217484" flag="0"/>
			<psa03 value="0.0245000266523592" flag="0"/>
			<psa10 value="0.00506822777646662" flag="0"/>
			<psa30 value="0.000294821327341028" flag="0"/>
		</comp>
		<comp name="--.HNZ" depth="0.0">
			<acc value="0.00946464217103006" flag="0"/>
			<vel value="0.00435986595559573" flag="0"/>
			<psa03 value="0.015831040916266" flag="0"/>
			<psa10 value="0.00457383580667497" flag="0"/>
			<psa30 value="0.000187108384595532" flag="0"/>
		</comp>
	</station>
	<station code="HER3" name="HER3" netid="HI" source="ITSAK Strong Motion Network" insttype="" lat="35.3296" lon="25.1065">
		<comp name="--.HNE" depth="0.0">
			<acc value="0.0204523997804784" flag="0"/>
			<vel value="0.00744339021630918" flag="0"/>
			<psa03 value="0.0339050064569597" flag="0"/>
			<psa10 value="0.0050927708085635" flag="0"/>
			<psa30 value="0.000431116189539981" flag="0"/>
		</comp>
		<comp name="--.HNN" depth="0.0">
			<acc value="0.019045738606358" flag="0"/>
			<vel value="0.00818161261817347" flag="0"/>
			<psa03 value="0.04019919945801" flag="0"/>
			<psa10 value="0.0068325799686462" flag="0"/>
			<psa30 value="0.000528278433354916" flag="0"/>
		</comp>
		<comp name="--.HNZ" depth="0.0">
			<acc value="0.014966508623845" flag="0"/>
			<vel value="0.00393513328072405" flag="0"/>
			<psa03 value="0.0188821050134756" flag="0"/>
			<psa10 value="0.0028312252110257" flag="0"/>
			<psa30 value="0.000237844323727694" flag="0"/>
		</comp>
	</station>
	<station code="KRL1" name="KRL1" netid="HI" source="ITSAK Strong Motion Network" insttype="" lat="37.7951" lon="26.7065">
		<comp name="--.HNE" depth="0.0">
			<acc value="0.00421222144176599" flag="0"/>
			<vel value="0.00126114352290029" flag="0"/>
			<psa03 value="0.0109915836072116" flag="0"/>
			<psa10 value="0.00109072166902003" flag="0"/>
			<psa30 value="0.000167898596416273" flag="0"/>
		</comp>
		<comp name="--.HNN" depth="0.0">
			<acc value="0.00426742694827429" flag="0"/>
			<vel value="0.00106547595916814" flag="0"/>
			<psa03 value="0.00708580729059969" flag="0"/>
			<psa10 value="0.00144217924823607" flag="0"/>
			<psa30 value="0.000287660436300573" flag="0"/>
		</comp>
		<comp name="--.HNZ" depth="0.0">
			<acc value="0.00531398020649701" flag="0"/>
			<vel value="0.00275002252189923" flag="0"/>
			<psa03 value="0.0116579910347122" flag="0"/>
			<psa10 value="0.00144329752544057" flag="0"/>
			<psa30 value="0.000111188081810359" flag="0"/>
		</comp>
	</station>
	<station code="NAX1" name="NAX1" netid="HI" source="ITSAK Strong Motion Network" insttype="" lat="37.101394" lon="25.374103">
		<comp name="--.HNE" depth="0.0">
			<acc value="0.00199964909760245" flag="0"/>
			<vel value="0.00159843085833056" flag="0"/>
			<psa03 value="0.004302988502391" flag="0"/>
			<psa10 value="0.00121414996272795" flag="0"/>
			<psa30 value="0.000236209007062245" flag="0"/>
		</comp>
		<comp name="--.HNN" depth="0.0">
			<acc value="0.00194631568693958" flag="0"/>
			<vel value="0.0012645494692469" flag="0"/>
			<psa03 value="0.00275501811840947" flag="0"/>
			<psa10 value="0.00164337386545413" flag="0"/>
			<psa30 value="0.000168685836066995" flag="0"/>
		</comp>
		<comp name="--.HNZ" depth="0.0">
			<acc value="0.00251609706757399" flag="0"/>
			<vel value="0.00159951222028472" flag="0"/>
			<psa03 value="0.00587214486014406" flag="0"/>
			<psa10 value="0.000899586155669203" flag="0"/>
			<psa30 value="0.000188073826155264" flag="0"/>
		</comp>
	</station>
	<station code="RKL1" name="RKL1" netid="HI" source="ITSAK Strong Motion Network" insttype="" lat="36.336699" lon="28.171224">
		<comp name="--.HNE" depth="0.0">
			<acc value="0.0238668460007045" flag="0"/>
			<vel value="0.010408533221008" flag="0"/>
			<psa03 value="0.052195478527837" flag="0"/>
			<psa10 value="0.00741453883304226" flag="0"/>
			<psa30 value="0.000487354159821519" flag="0"/>
		</comp>
		<comp name="--.HNN" depth="0.0">
			<acc value="0.0223702886431496" flag="0"/>
			<vel value="0.00775841804226016" flag="0"/>
			<psa03 value="0.0381404276578008" flag="0"/>
			<psa10 value="0.00469271774452703" flag="0"/>
			<psa30 value="0.000388443414761368" flag="0"/>
		</comp>
		<comp name="--.HNZ" depth="0.0">
			<acc value="0.0211103686484194" flag="0"/>
			<vel value="0.00624881974197539" flag="0"/>
			<psa03 value="0.043559130370278" flag="0"/>
			<psa10 value="0.00319910630009147" flag="0"/>
			<psa30 value="0.000154784954264603" flag="0"/>
		</comp>
	</station>
	<station code="RPN1" name="RPN1" netid="HI" source="ITSAK Strong Motion Network" insttype="" lat="36.448678" lon="28.218047">
		<comp name="--.HNE" depth="0.0">
			<acc value="0.0193980776452633" flag="0"/>
			<vel value="0.00714944412073201" flag="0"/>
			<psa03 value="0.0285633557238076" flag="0"/>
			<psa10 value="0.00451403622024571" flag="0"/>
			<psa30 value="0.000447798987403603" flag="0"/>
		</comp>
		<comp name="--.HNN" depth="0.0">
			<acc value="0.0203881845310304" flag="0"/>
			<vel value="0.00852479791275295" flag="0"/>
			<psa03 value="0.0319189504112961" flag="0"/>
			<psa10 value="0.0049283271024898" flag="0"/>
			<psa30 value="0.000848731276363415" flag="0"/>
		</comp>
		<comp name="--.HNZ" depth="0.0">
			<acc value="0.016347250637867" flag="0"/>
			<vel value="0.00387020491818415" flag="0"/>
			<psa03 value="0.0140362631668784" flag="0"/>
			<psa10 value="0.00256235888432708" flag="0"/>
			<psa30 value="0.000374290992858148" flag="0"/>
		</comp>
	</station>
	<station code="AGNA" name="AGNA" netid="HL" source="National Observatory of Athens Seismic Network" insttype="" lat="35.1895" lon="25.71853">
		<comp name="00.HNE" depth="0.0">
			<acc value="0.00408620565040402" flag="0"/>
			<vel value="0.00221487399247611" flag="0"/>
			<psa03 value="0.00785667085652329" flag="0"/>
			<psa10 value="0.00155290134865568" flag="0"/>
			<psa30 value="0.000289819615793793" flag="0"/>
		</comp>
		<comp name="00.HNN" depth="0.0">
			<acc value="0.00453317504903411" flag="0"/>
			<vel value="0.0017955067176757" flag="0"/>
			<psa03 value="0.0090748804631643" flag="0"/>
			<psa10 value="0.0020393072815971" flag="0"/>
			<psa30 value="0.00032355153786793" flag="0"/>
		</comp>
		<comp name="00.HNZ" depth="0.0">
			<acc value="0.00607169351172334" flag="0"/>
			<vel value="0.00124392155688946" flag="0"/>
			<psa03 value="0.00682113350722979" flag="0"/>
			<psa10 value="0.000619209437554261" flag="0"/>
			<psa30 value="0.000229413582940489" flag="0"/>
		</comp>
	</station>
	<station code="HERG" name="HERG" netid="HL" source="National Observatory of Athens Seismic Network" insttype="" lat="35.32622" lon="25.06586">
		<comp name="00.HNE" depth="0.0">
			<acc value="0.00950152397133635" flag="0"/>
			<vel value="0.00426676497657321" flag="0"/>
			<psa03 value="0.015788427416237" flag="0"/>
			<psa10 value="0.00415154095671256" flag="0"/>
			<psa30 value="0.000433683286680794" flag="0"/>
		</comp>
		<comp name="00.HNN" depth="0.0">
			<acc value="0.010821183456186" flag="0"/>
			<vel value="0.00461275924367211" flag="0"/>
			<psa03 value="0.0314214773520123" flag="0"/>
			<psa10 value="0.00558116941259523" flag="0"/>
			<psa30 value="0.00046260543700861" flag="0"/>
		</comp>
		<comp name="00.HNZ" depth="0.0">
			<acc value="0.0121507482506873" flag="0"/>
			<vel value="0.00417206155839" flag="0"/>
			<psa03 value="0.0119856051854388" flag="0"/>
			<psa10 value="0.0033513335719017" flag="0"/>
			<psa30 value="0.000247142361552073" flag="0"/>
		</comp>
	</station>
	<station code="IACM" name="IACM" netid="HL" source="National Observatory of Athens Seismic Network" insttype="" lat="35.3058" lon="25.0709">
		<comp name="--.HNE" depth="0.0">
			<acc value="0.0188678358434502" flag="0"/>
			<vel value="0.00629952699881024" flag="0"/>
			<psa03 value="0.0480375780870191" flag="0"/>
			<psa10 value="0.00823799260159789" flag="0"/>
			<psa30 value="0.000413519398839282" flag="0"/>
		</comp>
		<comp name="--.HNN" depth="0.0">
			<acc value="0.0200211005894247" flag="0"/>
			<vel value="0.0069190721105461" flag="0"/>
			<psa03 value="0.0536553096093424" flag="0"/>
			<psa10 value="0.00688086254214227" flag="0"/>
			<psa30 value="0.000520053565578318" flag="0"/>
		</comp>
		<comp name="--.HNZ" depth="0.0">
			<acc value="0.0220802372749021" flag="0"/>
			<vel value="0.00529602167120449" flag="0"/>
			<psa03 value="0.0242051607647532" flag="0"/>
			<psa10 value="0.00219667450328211" flag="0"/>
			<psa30 value="0.000235188626967335" flag="0"/>
		</comp>
	</station>
	<station code="RODB" name="RODB" netid="HL" source="National Observatory of Athens Seismic Network" insttype="" lat="36.4471" lon="28.22116">
		<comp name="00.HNE" depth="0.0">
			<acc value="0.00657477668680292" flag="0"/>
			<vel value="0.00345820935836765" flag="0"/>
			<psa03 value="0.0256948297605346" flag="0"/>
			<psa10 value="0.00373599116295425" flag="0"/>
			<psa30 value="0.000426886794780102" flag="0"/>
		</comp>
		<comp name="00.HNN" depth="0.0">
			<acc value="0.00979923898378" flag="0"/>
			<vel value="0.00414576343697563" flag="0"/>
			<psa03 value="0.027693688737632" flag="0"/>
			<psa10 value="0.00327858344006245" flag="0"/>
			<psa30 value="0.000335183350085282" flag="0"/>
		</comp>
		<comp name="00.HNZ" depth="0.0">
			<acc value="0.00936935918286275" flag="0"/>
			<vel value="0.00298526255845462" flag="0"/>
			<psa03 value="0.0210734546066945" flag="0"/>
			<psa10 value="0.00228092055291745" flag="0"/>
			<psa30 value="0.00021356246777788" flag="0"/>
		</comp>
	</station>
	<station code="SMG" name="SMG" netid="HL" source="National Observatory of Athens Seismic Network" insttype="" lat="37.70425" lon="26.83772">
		<comp name="00.HNE" depth="0.0">
			<acc value="0.00168047975639576" flag="0"/>
			<vel value="0.0010175850030695" flag="0"/>
			<psa03 value="0.00404686313690607" flag="0"/>
			<psa10 value="0.000747605111108671" flag="0"/>
			<psa30 value="0.000125181066068782" flag="0"/>
		</comp>
		<comp name="00.HNN" depth="0.0">
			<acc value="0.00157306238770045" flag="0"/>
			<vel value="0.000845309886841906" flag="0"/>
			<psa03 value="0.00478573467464359" flag="0"/>
			<psa10 value="0.000865012205157553" flag="0"/>
			<psa30 value="0.000146149746807409" flag="0"/>
		</comp>
		<comp name="00.HNZ" depth="0.0">
			<acc value="0.00246696758125369" flag="0"/>
			<vel value="0.00141240927011628" flag="0"/>
			<psa03 value="0.00625206130380125" flag="0"/>
			<psa10 value="0.00104588803495082" flag="0"/>
			<psa30 value="0.000122015439695062" flag="0"/>
		</comp>
	</station>
	<station code="THRA" name="THRA" netid="HL" source="National Observatory of Athens Seismic Network" insttype="" lat="36.41502" lon="25.43244">
		<comp name="00.HNE" depth="0.0">
			<acc value="0.00863090463498583" flag="0"/>
			<vel value="0.00477174430037973" flag="0"/>
			<psa03 value="0.0175199145146226" flag="0"/>
			<psa10 value="0.00644129826689243" flag="0"/>
			<psa30 value="0.000740172314031503" flag="0"/>
		</comp>
		<comp name="00.HNN" depth="0.0">
			<acc value="0.00571477496861602" flag="0"/>
			<vel value="0.00521339871311876" flag="0"/>
			<psa03 value="0.0144559146646418" flag="0"/>
			<psa10 value="0.00677291492236427" flag="0"/>
			<psa30 value="0.00101639483117113" flag="0"/>
		</comp>
		<comp name="00.HNZ" depth="0.0">
			<acc value="0.00779318300905222" flag="0"/>
			<vel value="0.00381340254324281" flag="0"/>
			<psa03 value="0.0202109886183845" flag="0"/>
			<psa10 value="0.00292457405117936" flag="0"/>
			<psa30 value="0.000204990311373016" flag="0"/>
		</comp>
	</station>
	<station code="TNSA" name="TNSA" netid="HL" source="National Observatory of Athens Seismic Network" insttype="" lat="37.53942" lon="25.1631">
		<comp name="00.HNE" depth="0.0">
			<acc value="0.000600738110116111" flag="0"/>
			<vel value="0.000279700114734538" flag="0"/>
			<psa03 value="0.00116501085138221" flag="0"/>
			<psa10 value="0.000297402640918425" flag="0"/>
			<psa30 value="0.000113761820016319" flag="0"/>
		</comp>
		<comp name="00.HNN" depth="0.0">
			<acc value="0.00072242176234454" flag="0"/>
			<vel value="0.000518700694374457" flag="0"/>
			<psa03 value="0.00143412234731694" flag="0"/>
			<psa10 value="0.000672137279702753" flag="0"/>
			<psa30 value="0.00013194213895649" flag="0"/>
		</comp>
		<comp name="00.HNZ" depth="0.0">
			<acc value="0.00215829940923568" flag="0"/>
			<vel value="0.000893155386788729" flag="0"/>
			<psa03 value="0.00253564453650835" flag="0"/>
			<psa10 value="0.000392006437252485" flag="0"/>
			<psa30 value="0.000158371585090079" flag="0"/>
		</comp>
	</station>
	<station code="BODM" name="BODM" netid="KO" source="Bogazici University Kandilli Observatory And Earthquake Research Institute (KOERI)" insttype="" lat="37.031" lon="27.4246">
		<comp name="--.HNE" depth="0.0">
			<acc value="0.0083821493724616" flag="0"/>
			<vel value="0.00556260563000188" flag="0"/>
			<psa03 value="0.0203778408173686" flag="0"/>
			<psa10 value="0.00328250338724059" flag="0"/>
			<psa30 value="0.000272252853123508" flag="0"/>
		</comp>
		<comp name="--.HNN" depth="0.0">
			<acc value="0.00689905297315114" flag="0"/>
			<vel value="0.00461845588245527" flag="0"/>
			<psa03 value="0.0156176595932868" flag="0"/>
			<psa10 value="0.00410621967314554" flag="0"/>
			<psa30 value="0.000420559162063662" flag="0"/>
		</comp>
		<comp name="--.HNZ" depth="0.0">
			<acc value="0.00319810400958947" flag="0"/>
			<vel value="0.00146479234001179" flag="0"/>
			<psa03 value="0.00757840763128183" flag="0"/>
			<psa10 value="0.00116515109179177" flag="0"/>
			<psa30 value="0.000144669388324546" flag="0"/>
		</comp>
	</station>
	<station code="CESE" name="CESE" netid="KO" source="Bogazici University Kandilli Observatory And Earthquake Research Institute (KOERI)" insttype="" lat="38.3306" lon="26.2997">
		<comp name="--.HNE" depth="0.0">
			<acc value="0.0148958949589682" flag="0"/>
			<vel value="0.00149271530593659" flag="0"/>
			<psa03 value="0.000837576888353735" flag="0"/>
			<psa10 value="0.00067758726964552" flag="0"/>
			<psa30 value="0.000371659959189983" flag="0"/>
		</comp>
		<comp name="--.HNN" depth="0.0">
			<acc value="0.0126183492801064" flag="0"/>
			<vel value="0.00130856282182429" flag="0"/>
			<psa03 value="0.00116415508180008" flag="0"/>
			<psa10 value="0.000621783807313469" flag="0"/>
			<psa30 value="0.000523176741226927" flag="0"/>
		</comp>
		<comp name="--.HNZ" depth="0.0">
			<acc value="0.00245906739409568" flag="0"/>
			<vel value="0.000650119242282356" flag="0"/>
			<psa03 value="0.0008737220236778" flag="0"/>
			<psa10 value="0.000517035501066431" flag="0"/>
			<psa30 value="0.00039739077831372" flag="0"/>
		</comp>
	</station>
	<station code="DATC" name="DATC" netid="KO" source="Bogazici University Kandilli Observatory And Earthquake Research Institute (KOERI)" insttype="" lat="36.7584" lon="27.6602">
		<comp name="--.HNE" depth="0.0">
			<acc value="0.142006271062566" flag="0"/>
			<vel value="0.0121296708284486" flag="0"/>
			<psa03 value="0.019129247687509" flag="0"/>
			<psa10 value="0.007294284304298" flag="0"/>
			<psa30 value="0.00125623207337596" flag="0"/>
		</comp>
		<comp name="--.HNN" depth="0.0">
			<acc value="0.151873941146" flag="0"/>
			<vel value="0.0130192289756831" flag="0"/>
			<psa03 value="0.0201573639722666" flag="0"/>
			<psa10 value="0.0100892174236556" flag="0"/>
			<psa30 value="0.000988404122755298" flag="0"/>
		</comp>
		<comp name="--.HNZ" depth="0.0">
			<acc value="0.128565596822892" flag="0"/>
			<vel value="0.0206208888899596" flag="0"/>
			<psa03 value="0.0193293078155084" flag="0"/>
			<psa10 value="0.00915981304265018" flag="0"/>
			<psa30 value="0.000678037885434124" flag="0"/>
		</comp>
	</station>
	<station code="FETI" name="FETI" netid="KO" source="Bogazici University Kandilli Observatory And Earthquake Research Institute (KOERI)" insttype="" lat="36.6903" lon="29.096">
		<comp name="--.HNE" depth="0.0">
			<acc value="0.020350351859742" flag="0"/>
			<vel value="0.00352702030056553" flag="0"/>
			<psa03 value="0.00778284044475334" flag="0"/>
			<psa10 value="0.00140344410409747" flag="0"/>
			<psa30 value="0.000335060295058597" flag="0"/>
		</comp>
		<comp name="--.HNN" depth="0.0">
			<acc value="0.00322029387771844" flag="0"/>
			<vel value="0.00228411264117912" flag="0"/>
			<psa03 value="0.00366042640455678" flag="0"/>
			<psa10 value="0.00191321584272411" flag="0"/>
			<psa30 value="0.00128873912264165" flag="0"/>
		</comp>
		<comp name="--.HNZ" depth="0.0">
			<acc value="0.0281807935017233" flag="0"/>
			<vel value="0.0023399106410841" flag="0"/>
			<psa03 value="0.00859095061873068" flag="0"/>
			<psa10 value="0.00200805763334015" flag="0"/>
			<psa30 value="0.000483148516635086" flag="0"/>
		</comp>
	</station>
	<station code="GMLD" name="GMLD" netid="KO" source="Bogazici University Kandilli Observatory And Earthquake Research Institute (KOERI)" insttype="" lat="38.0766" lon="26.9157">
		<comp name="--.HNE" depth="0.0">
			<acc value="0.00430303460017163" flag="0"/>
			<vel value="0.00108523666832103" flag="0"/>
			<psa03 value="0.00424524672155158" flag="0"/>
			<psa10 value="0.000804004745744563" flag="0"/>
			<psa30 value="0.000382882759936915" flag="0"/>
		</comp>
		<comp name="--.HNN" depth="0.0">
			<acc value="0.00178396217406393" flag="0"/>
			<vel value="0.00114602177922079" flag="0"/>
			<psa03 value="0.00296561084518574" flag="0"/>
			<psa10 value="0.00166333057811277" flag="0"/>
			<psa30 value="0.000276908942816853" flag="0"/>
		</comp>
		<comp name="--.HNZ" depth="0.0">
			<acc value="0.00409211640796984" flag="0"/>
			<vel value="0.00130153917336307" flag="0"/>
			<psa03 value="0.00331224415950263" flag="0"/>
			<psa10 value="0.000749841841311587" flag="0"/>
			<psa30 value="0.000556958874956986" flag="0"/>
		</comp>
	</station>
	<station code="KUSD" name="KUSD" netid="KO" source="Bogazici University Kandilli Observatory And Earthquake Research Institute (KOERI)" insttype="" lat="37.8606" lon="27.2868">
		<comp name="--.HNE" depth="0.0">
			<acc value="0.00100378605114969" flag="0"/>
			<vel value="0.000619609568800505" flag="0"/>
			<psa03 value="0.00287602255362805" flag="0"/>
			<psa10 value="0.000638252730330657" flag="0"/>
			<psa30 value="0.000300026489865826" flag="0"/>
		</comp>
		<comp name="--.HNN" depth="0.0">
			<acc value="0.00194798015186101" flag="0"/>
			<vel value="0.00109997255981748" flag="0"/>
			<psa03 value="0.00566689493523389" flag="0"/>
			<psa10 value="0.00145771805104128" flag="0"/>
			<psa30 value="0.000254270385831722" flag="0"/>
		</comp>
		<comp name="--.HNZ" depth="0.0">
			<acc value="0.00341771735472029" flag="0"/>
			<vel value="0.00172225899065797" flag="0"/>
			<psa03 value="0.00704008355849031" flag="0"/>
			<psa10 value="0.000847746881725968" flag="0"/>
			<psa30 value="0.000266966799823539" flag="0"/>
		</comp>
	</station>
	<station code="NAZL" name="NAZL" netid="KO" source="Bogazici University Kandilli Observatory And Earthquake Research Institute (KOERI)" insttype="" lat="37.9641" lon="28.2922">
		<comp name="--.HNE" depth="0.0">
			<acc value="0.00087018806832795" flag="0"/>
			<vel value="0.000699971305610849" flag="0"/>
			<psa03 value="0.00278698182438951" flag="0"/>
			<psa10 value="0.00157236080181335" flag="0"/>
			<psa30 value="0.000118841492457475" flag="0"/>
		</comp>
		<comp name="--.HNN" depth="0.0">
			<acc value="0.000581832624116095" flag="0"/>
			<vel value="0.000514553578979718" flag="0"/>
			<psa03 value="0.00175018316109717" flag="0"/>
