<?xml version="1.0" encoding="UTF-8" standalone="yes"?>
<!DOCTYPE earthquake SYSTEM "stationlist.dtd">
<stationlist created="" xmlns="ch.ethz.sed.shakemap.usgs.xml">
  <station code="ARG" name="ARG" netid="HL" insttype="LE3D20_DR24" lat="36.2136" lon="28.1212">
    <comp name="--.HHZ">
      <acc value="0.0325367189" flag="0"/>
      <vel value="0.0049058420" flag="0"/>
      <psa03 value="0.0116840106" flag="0"/>
      <psa10 value="0.0018107370" flag="0"/>
      <psa30 value="0.0002134746" flag="0"/>
    </comp>
    <comp name="--.HHN">
      <acc value="0.0394988344" flag="0"/>
      <vel value="0.0063773477" flag="0"/>
      <psa03 value="0.0301260363" flag="0"/>
      <psa10 value="0.0023064555" flag="0"/>
      <psa30 value="0.0002755774" flag="0"/>
    </comp>
    <comp name="--.HHE">
      <acc value="0.0553237225" flag="0"/>
      <vel value="0.0071527937" flag="0"/>
      <psa03 value="0.0296878637" flag="0"/>
      <psa10 value="0.0050602803" flag="0"/>
      <psa30 value="0.0003018482" flag="0"/>
    </comp>
  </station>
  <station code="BODT" name="BODT" netid="KO" insttype="CMG-3ESP" lat="37.0622" lon="27.3103">
    <comp name="--.HHN">
      <acc value="0.0038085970" flag="0"/>
      <vel value="0.0046733098" flag="0"/>
      <psa03 value="0.0099985384" flag="0"/>
      <psa10 value="0.0066324141" flag="0"/>
      <psa30 value="0.0004290719" flag="0"/>
    </comp>
    <comp name="--.HHZ">
      <acc value="0.0043659298" flag="0"/>
      <vel value="0.0017929437" flag="0"/>
      <psa03 value="0.0045504434" flag="0"/>
      <psa10 value="0.0010032085" flag="0"/>
      <psa30 value="0.0001241366" flag="0"/>
    </comp>
    <comp name="--.HHE">
      <acc value="0.0034048583" flag="0"/>
      <vel value="0.0024201554" flag="0"/>
      <psa03 value="0.0082878330" flag="0"/>
      <psa10 value="0.0016627993" flag="0"/>
      <psa30 value="0.0002463193" flag="0"/>
    </comp>
  </station>
</stationlist>
