<?xml version="1.0" encoding="UTF-8" standalone="yes"?>
<!DOCTYPE earthquake SYSTEM "stationlist.dtd">
<stationlist created="" xmlns="ch.ethz.sed.shakemap.usgs.xml">
  <station code="ARG" name="ARG" netid="HL" insttype="LE3D20_DR24" lat="36.2136" lon="28.1212">
    <comp name="--.HHN">
      <acc value="0.0394988345" flag="0"/>
      <vel value="0.0063773580" flag="0"/>
      <psa03 value="0.0301260363" flag="0"/>
      <psa10 value="0.0023064555" flag="0"/>
      <psa30 value="0.0002756343" flag="0"/>
    </comp>
    <comp name="--.HHZ">
      <acc value="0.0325367189" flag="0"/>
      <vel value="0.0049058439" flag="0"/>
      <psa03 value="0.0116840106" flag="0"/>
      <psa10 value="0.0018107370" flag="0"/>
      <psa30 value="0.0002134938" flag="0"/>
    </comp>
    <comp name="--.HHE">
      <acc value="0.0553237224" flag="0"/>
      <vel value="0.0071527954" flag="0"/>
      <psa03 value="0.0296878637" flag="0"/>
      <psa10 value="0.0050602803" flag="0"/>
      <psa30 value="0.0003019790" flag="0"/>
    </comp>
  </station>
  <station code="BODT" name="BODT" netid="KO" insttype="CMG-3ESP" lat="37.0622" lon="27.3103">
    <comp name="--.HHE">
      <acc value="0.0034048583" flag="0"/>
      <vel value="0.0024201563" flag="0"/>
      <psa03 value="0.0082878330" flag="0"/>
      <psa10 value="0.0016627993" flag="0"/>
      <psa30 value="0.0002463476" flag="0"/>
    </comp>
    <comp name="--.HHN">
      <acc value="0.0038085970" flag="0"/>
      <vel value="0.0046733108" flag="0"/>
      <psa03 value="0.0099985384" flag="0"/>
      <psa10 value="0.0066324140" flag="0"/>
      <psa30 value="0.0004290432" flag="0"/>
    </comp>
    <comp name="--.HHZ">
      <acc value="0.0043659297" flag="0"/>
      <vel value="0.0017929463" flag="0"/>
      <psa03 value="0.0045504434" flag="0"/>
      <psa10 value="0.0010032023" flag="0"/>
      <psa30 value="0.0001240747" flag="0"/>
    </comp>
  </station>
</stationlist>
