<?xml version="1.0" encoding="UTF-8" standalone="yes"?>
<!DOCTYPE earthquake SYSTEM "stationlist.dtd">
<stationlist created="" xmlns="ch.ethz.sed.shakemap.usgs.xml">
  <station code="VOL2" name="VOL2" netid="HI" insttype="CMG-5TD,ACCELEROMETER,GURALP" lat="39.366" lon="22.9506">
    <comp name="--.HNZ">
      <acc value="0.0084814527" flag="0"/>
      <vel value="0.0071331716" flag="0"/>
      <psa03 value="0.0190150437" flag="0"/>
      <psa10 value="0.0079326312" flag="0"/>
      <psa30 value="0.0011928127" flag="0"/>
    </comp>
    <comp name="--.HNN">
      <acc value="0.0153649270" flag="0"/>
      <vel value="0.0090663894" flag="0"/>
      <psa03 value="0.0569304289" flag="0"/>
      <psa10 value="0.0127346538" flag="0"/>
      <psa30 value="0.0010616331" flag="0"/>
    </comp>
    <comp name="--.HNE">
      <acc value="0.0182936083" flag="0"/>
      <vel value="0.0112413839" flag="0"/>
      <psa03 value="0.0778042942" flag="0"/>
      <psa10 value="0.0131039087" flag="0"/>
      <psa30 value="0.0017054465" flag="0"/>
    </comp>
  </station>
  <station code="EVR" name="EVR" netid="HL" insttype="DR24" lat="38.9166" lon="21.8105">
    <comp name="--.HHZ">
      <acc value="0.0080441460" flag="0"/>
      <vel value="0.0071184843" flag="0"/>
      <psa03 value="0.0211516473" flag="0"/>
      <psa10 value="0.0152426668" flag="0"/>
      <psa30 value="0.0010953522" flag="0"/>
    </comp>
    <comp name="--.HHN">
      <acc value="0.0111605518" flag="0"/>
      <vel value="0.0119289554" flag="0"/>
      <psa03 value="0.0251628615" flag="0"/>
      <psa10 value="0.0143910619" flag="0"/>
      <psa30 value="0.0020043521" flag="0"/>
    </comp>
    <comp name="--.HHE">
      <acc value="0.0107039875" flag="0"/>
      <vel value="0.0060976056" flag="0"/>
      <psa03 value="0.0261975366" flag="0"/>
      <psa10 value="0.0067302455" flag="0"/>
      <psa30 value="0.0015625641" flag="0"/>
    </comp>
  </station>
  <station code="JAN" name="JAN" netid="HL" insttype="CMG3EPSC60_DR24" lat="39.6562" lon="20.8487">
    <comp name="--.HHZ">
      <acc value="0.0026481167" flag="0"/>
      <vel value="0.0025323489" flag="0"/>
      <psa03 value="0.0075005887" flag="0"/>
      <psa10 value="0.0038943252" flag="0"/>
      <psa30 value="0.0013737909" flag="0"/>
    </comp>
    <comp name="--.HHE">
      <acc value="0.0051312455" flag="0"/>
      <vel value="0.0042535596" flag="0"/>
      <psa03 value="0.0154331034" flag="0"/>
      <psa10 value="0.0052215540" flag="0"/>
      <psa30 value="0.0020784660" flag="0"/>
    </comp>
    <comp name="--.HHN">
      <acc value="0.0050146387" flag="0"/>
      <vel value="0.0039227997" flag="0"/>
      <psa03 value="0.0197615114" flag="0"/>
      <psa10 value="0.0063483751" flag="0"/>
      <psa30 value="0.0010800496" flag="0"/>
    </comp>
  </station>
  <station code="KZN" name="KZN" netid="HL" insttype="120" lat="40.3033" lon="21.7821">
    <comp name="--.HHN">
      <acc value="0.0138299646" flag="0"/>
      <vel value="0.0087335251" flag="0"/>
      <psa03 value="0.0554163459" flag="0"/>
      <psa10 value="0.0075580956" flag="0"/>
      <psa30 value="0.0021534876" flag="0"/>
    </comp>
    <comp name="--.HHE">
      <acc value="0.0309415744" flag="0"/>
      <vel value="0.0161748675" flag="0"/>
      <psa03 value="0.1284479475" flag="0"/>
      <psa10 value="0.0097508345" flag="0"/>
      <psa30 value="0.0012891764" flag="0"/>
    </comp>
    <comp name="--.HHZ">
      <acc value="0.0093758541" flag="0"/>
      <vel value="0.0053937398" flag="0"/>
      <psa03 value="0.0343579103" flag="0"/>
      <psa10 value="0.0046817189" flag="0"/>
      <psa30 value="0.0019795281" flag="0"/>
    </comp>
  </station>
  <station code="NEO" name="NEO" netid="HL" insttype="120" lat="39.3057" lon="23.2219">
    <comp name="--.HHN">
      <acc value="0.0178668883" flag="0"/>
      <vel value="0.0136493214" flag="0"/>
      <psa03 value="0.0465784796" flag="0"/>
      <psa10 value="0.0123494149" flag="0"/>
      <psa30 value="0.0009917501" flag="0"/>
    </comp>
    <comp name="--.HHE">
      <acc value="0.0174788401" flag="0"/>
      <vel value="0.0115649430" flag="0"/>
      <psa03 value="0.0376703870" flag="0"/>
      <psa10 value="0.0120321967" flag="0"/>
      <psa30 value="0.0009655388" flag="0"/>
    </comp>
    <comp name="--.HHZ">
      <acc value="0.0109018048" flag="0"/>
      <vel value="0.0082327655" flag="0"/>
      <psa03 value="0.0216198935" flag="0"/>
      <psa10 value="0.0081832123" flag="0"/>
      <psa30 value="0.0018887477" flag="0"/>
    </comp>
  </station>
  <station code="PENT" name="PENT" netid="HL" insttype="30" lat="40.1959" lon="21.1384">
    <comp name="--.HHE">
      <acc value="0.0051871907" flag="0"/>
      <vel value="0.0040946297" flag="0"/>
      <psa03 value="0.0201191807" flag="0"/>
      <psa10 value="0.0048182381" flag="0"/>
      <psa30 value="0.0021832500" flag="0"/>
    </comp>
    <comp name="--.HHZ">
      <acc value="0.0044817772" flag="0"/>
      <vel value="0.0037511398" flag="0"/>
      <psa03 value="0.0155875169" flag="0"/>
      <psa10 value="0.0039602468" flag="0"/>
      <psa30 value="0.0028034189" flag="0"/>
    </comp>
    <comp name="--.HHN">
      <acc value="0.0002126229" flag="0"/>
      <vel value="0.0002504008" flag="0"/>
      <psa03 value="0.0005167953" flag="0"/>
      <psa10 value="0.0003274954" flag="0"/>
      <psa30 value="0.0001315711" flag="0"/>
    </comp>
  </station>
  <station code="TETR" name="TETR" netid="HL" insttype="60" lat="39.3445" lon="21.2747">
    <comp name="--.HHZ">
      <acc value="0.0128372942" flag="0"/>
      <vel value="0.0092462506" flag="0"/>
      <psa03 value="0.0376133329" flag="0"/>
      <psa10 value="0.0146798633" flag="0"/>
      <psa30 value="0.0020632093" flag="0"/>
    </comp>
    <comp name="--.HHE">
      <acc value="0.0344383636" flag="0"/>
      <vel value="0.0204127193" flag="0"/>
      <psa03 value="0.1487782469" flag="0"/>
      <psa10 value="0.0208125317" flag="0"/>
      <psa30 value="0.0030866538" flag="0"/>
    </comp>
    <comp name="--.HHN">
      <acc value="0.0315868944" flag="0"/>
      <vel value="0.0172191209" flag="0"/>
      <psa03 value="0.0769684769" flag="0"/>
      <psa10 value="0.0194801852" flag="0"/>
      <psa30 value="0.0027495337" flag="0"/>
    </comp>
  </station>
  <station code="THL" name="THL" netid="HL" insttype="120" lat="39.5647" lon="22.0144">
    <comp name="--.HHZ">
      <acc value="0.0453747612" flag="0"/>
      <vel value="0.0398357189" flag="0"/>
      <psa03 value="0.0853346133" flag="0"/>
      <psa10 value="0.0346333742" flag="0"/>
      <psa30 value="0.0069703361" flag="0"/>
    </comp>
    <comp name="--.HHN">
      <acc value="0.0454515480" flag="0"/>
      <vel value="0.0463091670" flag="0"/>
      <psa03 value="0.1369861704" flag="0"/>
      <psa10 value="0.0495102135" flag="0"/>
      <psa30 value="0.0117556098" flag="0"/>
    </comp>
    <comp name="--.HHE">
      <acc value="0.0517710037" flag="0"/>
      <vel value="0.0398789190" flag="0"/>
      <psa03 value="0.1127100549" flag="0"/>
      <psa10 value="0.0442552419" flag="0"/>
      <psa30 value="0.0064550897" flag="0"/>
    </comp>
  </station>
  <station code="PRMD" name="PRMD" netid="HP" insttype="120P," lat="39.5299" lon="21.0965">
    <comp name="--.HHN">
      <acc value="0.0173746368" flag="0"/>
      <vel value="0.0124281549" flag="0"/>
      <psa03 value="0.0885101730" flag="0"/>
      <psa10 value="0.0148780268" flag="0"/>
      <psa30 value="0.0024240378" flag="0"/>
    </comp>
    <comp name="--.HHE">
      <acc value="0.0161324610" flag="0"/>
      <vel value="0.0123877461" flag="0"/>
      <psa03 value="0.0350193987" flag="0"/>
      <psa10 value="0.0144045752" flag="0"/>
      <psa30 value="0.0022839526" flag="0"/>
    </comp>
    <comp name="--.HHZ">
      <acc value="0.0106717077" flag="0"/>
      <vel value="0.0094331896" flag="0"/>
      <psa03 value="0.0284750435" flag="0"/>
      <psa10 value="0.0116887921" flag="0"/>
      <psa30 value="0.0014060455" flag="0"/>
    </comp>
  </station>
  <station code="AGG" name="AGG" netid="HT" insttype="120P," lat="39.0211" lon="22.336">
    <comp name="--.HHN">
      <acc value="0.0152725819" flag="0"/>
      <vel value="0.0121209969" flag="0"/>
      <psa03 value="0.0622428055" flag="0"/>
      <psa10 value="0.0109237269" flag="0"/>
      <psa30 value="0.0011100099" flag="0"/>
    </comp>
    <comp name="--.HHE">
      <acc value="0.0320980696" flag="0"/>
      <vel value="0.0169802558" flag="0"/>
      <psa03 value="0.1035879035" flag="0"/>
      <psa10 value="0.0167475507" flag="0"/>
      <psa30 value="0.0011052918" flag="0"/>
    </comp>
    <comp name="--.HHZ">
      <acc value="0.0116170985" flag="0"/>
      <vel value="0.0070128080" flag="0"/>
      <psa03 value="0.0255746571" flag="0"/>
      <psa10 value="0.0085463524" flag="0"/>
      <psa30 value="0.0016174418" flag="0"/>
    </comp>
  </station>
  <station code="LIT" name="LIT" netid="HT" insttype="100" lat="40.1033" lon="22.4892">
    <comp name="--.HHE">
      <acc value="0.0487428878" flag="0"/>
      <vel value="0.0359241281" flag="0"/>
      <psa03 value="0.1227292637" flag="0"/>
      <psa10 value="0.0270842235" flag="0"/>
      <psa30 value="0.0058905618" flag="0"/>
    </comp>
    <comp name="--.HHZ">
      <acc value="0.0277045614" flag="0"/>
      <vel value="0.0233046048" flag="0"/>
      <psa03 value="0.0521375905" flag="0"/>
      <psa10 value="0.0316798246" flag="0"/>
      <psa30 value="0.0060012677" flag="0"/>
    </comp>
    <comp name="--.HHN">
      <acc value="0.0698642126" flag="0"/>
      <vel value="0.0338436612" flag="0"/>
      <psa03 value="0.1631761813" flag="0"/>
      <psa10 value="0.0364902896" flag="0"/>
      <psa30 value="0.0050462985" flag="0"/>
    </comp>
  </station>
  <station code="THE" name="THE" netid="HT" insttype="30s-100Hz," lat="40.6319" lon="22.9628">
    <comp name="--.HHE">
      <acc value="0.0029798465" flag="0"/>
      <vel value="0.0035858838" flag="0"/>
      <psa03 value="0.0081750649" flag="0"/>
      <psa10 value="0.0037482382" flag="0"/>
      <psa30 value="0.0005947321" flag="0"/>
    </comp>
    <comp name="--.HHN">
      <acc value="0.0028971481" flag="0"/>
      <vel value="0.0036303805" flag="0"/>
      <psa03 value="0.0062298887" flag="0"/>
      <psa10 value="0.0030889798" flag="0"/>
      <psa30 value="0.0005283289" flag="0"/>
    </comp>
    <comp name="--.HHZ">
      <acc value="0.0018536109" flag="0"/>
      <vel value="0.0026759121" flag="0"/>
      <psa03 value="0.0041180960" flag="0"/>
      <psa10 value="0.0036470133" flag="0"/>
      <psa30 value="0.0007448804" flag="0"/>
    </comp>
  </station>
  <station code="TYRN" name="TYRN" netid="HT" insttype="120P," lat="39.711" lon="22.2325">
    <comp name="--.HHZ">
      <acc value="0.1267456240" flag="0"/>
      <vel value="0.0722156169" flag="0"/>
      <psa03 value="0.3025717162" flag="0"/>
      <psa10 value="0.1049024947" flag="0"/>
      <psa30 value="0.0112837789" flag="0"/>
    </comp>
    <comp name="--.HHE">
      <acc value="0.1093961799" flag="0"/>
      <vel value="0.1038965116" flag="0"/>
      <psa03 value="0.3212407381" flag="0"/>
      <psa10 value="0.1103395317" flag="0"/>
      <psa30 value="0.0097621172" flag="0"/>
    </comp>
    <comp name="--.HHN">
      <acc value="0.0818682630" flag="0"/>
      <vel value="0.0565657101" flag="0"/>
      <psa03 value="0.1549971106" flag="0"/>
      <psa10 value="0.0649282892" flag="0"/>
      <psa30 value="0.0052009910" flag="0"/>
    </comp>
  </station>
  <station code="XOR" name="XOR" netid="HT" insttype="Compact," lat="39.366" lon="23.1918">
    <comp name="--.HHN">
      <acc value="0.0373749514" flag="0"/>
      <vel value="0.0252324646" flag="0"/>
      <psa03 value="0.0919834958" flag="0"/>
      <psa10 value="0.0285784881" flag="0"/>
      <psa30 value="0.0027744043" flag="0"/>
    </comp>
    <comp name="--.HHE">
      <acc value="0.0194140763" flag="0"/>
      <vel value="0.0148609586" flag="0"/>
      <psa03 value="0.0655863615" flag="0"/>
      <psa10 value="0.0203299849" flag="0"/>
      <psa30 value="0.0026538151" flag="0"/>
    </comp>
    <comp name="--.HHZ">
      <acc value="0.0125679473" flag="0"/>
      <vel value="0.0139228593" flag="0"/>
      <psa03 value="0.0478160936" flag="0"/>
      <psa10 value="0.0180369272" flag="0"/>
      <psa30 value="0.0026990626" flag="0"/>
    </comp>
  </station>
  <station code="THL" name="THL" netid="MN" insttype="" lat="39.5647" lon="22.0144">
    <comp name="--.HHN">
      <acc value="0.0454515480" flag="0"/>
      <vel value="0.0463091670" flag="0"/>
      <psa03 value="0.1369861704" flag="0"/>
      <psa10 value="0.0495102135" flag="0"/>
      <psa30 value="0.0117556098" flag="0"/>
    </comp>
    <comp name="--.HHE">
      <acc value="0.0517710037" flag="0"/>
      <vel value="0.0398789190" flag="0"/>
      <psa03 value="0.1127100549" flag="0"/>
      <psa10 value="0.0442552419" flag="0"/>
      <psa30 value="0.0064550897" flag="0"/>
    </comp>
    <comp name="--.HHZ">
      <acc value="0.0453747612" flag="0"/>
      <vel value="0.0398357189" flag="0"/>
      <psa03 value="0.0853346133" flag="0"/>
      <psa10 value="0.0346333742" flag="0"/>
      <psa30 value="0.0069703361" flag="0"/>
    </comp>
  </station>
</stationlist>
