<stationlist created="1778136359">
	<station code="MALA" name="MALA" netid="CL" source="Corinth Riff Laboratory (CRLNET)" insttype="" lat="38.39341" lon="21.87263">
		<comp name="01.HNE" depth="0.0">
			<acc value="0.0103870200732648" flag="0"/>
			<vel value="0.0184163919059273" flag="0"/>
			<psa03 value="0.0201339929782223" flag="0"/>
			<psa10 value="0.0320694240157125" flag="0"/>
			<psa30 value="0.00443082072140745" flag="0"/>
		</comp>
		<comp name="01.HNN" depth="0.0">
			<acc value="0.00824622450887174" flag="0"/>
			<vel value="0.0111069731478164" flag="0"/>
			<psa03 value="0.0155702879031586" flag="0"/>
			<psa10 value="0.0177380478138138" flag="0"/>
			<psa30 value="0.00287379193109159" flag="0"/>
		</comp>
		<comp name="01.HNZ" depth="0.0">
			<acc value="0.00559562137986413" flag="0"/>
			<vel value="0.00890831333262309" flag="0"/>
			<psa03 value="0.00970905883616497" flag="0"/>
			<psa10 value="0.00780393567835896" flag="0"/>
			<psa30 value="0.00228990613472315" flag="0"/>
		</comp>
	</station>
	<station code="ROD3" name="ROD3" netid="CL" source="Corinth Riff Laboratory (CRLNET)" insttype="" lat="38.30811" lon="21.89204">
		<comp name="00.HNE" depth="0.0">
			<acc value="0.00568130648847102" flag="0"/>
			<vel value="0.00445870218159818" flag="0"/>
			<psa03 value="0.0241160493672485" flag="0"/>
			<psa10 value="0.00503349824455557" flag="0"/>
			<psa30 value="0.000610731120339409" flag="0"/>
		</comp>
		<comp name="00.HNN" depth="0.0">
			<acc value="0.00461083299941317" flag="0"/>
			<vel value="0.00495988118062141" flag="0"/>
			<psa03 value="0.0214762591767704" flag="0"/>
			<psa10 value="0.00618918944150553" flag="0"/>
			<psa30 value="0.000790594790944862" flag="0"/>
		</comp>
		<comp name="00.HNZ" depth="0.0">
			<acc value="0.00180584436933022" flag="0"/>
			<vel value="0.00174637296144536" flag="0"/>
			<psa03 value="0.00550329141404743" flag="0"/>
			<psa10 value="0.00378116388131015" flag="0"/>
			<psa30 value="0.000441158157256159" flag="0"/>
		</comp>
	</station>
	<station code="STC" name="STC" netid="EG" source="EUROSEISTEST Strong Motion Network" insttype="" lat="40.64865" lon="23.304856">
		<comp name="--.EN1" depth="0.0">
			<acc value="0.016871790456264" flag="0"/>
			<vel value="0.0115950316613605" flag="0"/>
			<psa03 value="0.0380536614933012" flag="0"/>
			<psa10 value="0.0182465187423362" flag="0"/>
			<psa30 value="0.00113876991708442" flag="0"/>
		</comp>
		<comp name="--.EN2" depth="0.0">
			<acc value="0.0133601221833148" flag="0"/>
			<vel value="0.00975045411334915" flag="0"/>
			<psa03 value="0.0280800216219446" flag="0"/>
			<psa10 value="0.00810934782950116" flag="0"/>
			<psa30 value="0.00115426833961236" flag="0"/>
		</comp>
		<comp name="--.EN3" depth="0.0">
			<acc value="0.00764007160105014" flag="0"/>
			<vel value="0.00676467680150276" flag="0"/>
			<psa03 value="0.0169529941464138" flag="0"/>
			<psa10 value="0.00759843320265417" flag="0"/>
			<psa30 value="0.00130479945739268" flag="0"/>
		</comp>
	</station>
	<station code="TST" name="TST" netid="EG" source="EUROSEISTEST Strong Motion Network" insttype="" lat="40.6638" lon="23.2906">
		<comp name="00.EN1" depth="0.0">
			<acc value="0.0100340315684362" flag="0"/>
			<vel value="0.0103384626897003" flag="0"/>
			<psa03 value="0.0269077616738117" flag="0"/>
			<psa10 value="0.00894560166469811" flag="0"/>
			<psa30 value="0.0014549463830572" flag="0"/>
		</comp>
		<comp name="00.EN2" depth="0.0">
			<acc value="0.0041694204966386" flag="0"/>
			<vel value="0.00449402712439019" flag="0"/>
			<psa03 value="0.0092422040475141" flag="0"/>
			<psa10 value="0.00715258538616574" flag="0"/>
			<psa30 value="0.000705636536622452" flag="0"/>
		</comp>
		<comp name="00.EN3" depth="0.0">
			<acc value="0.0108147785117733" flag="0"/>
			<vel value="0.00893905704347111" flag="0"/>
			<psa03 value="0.0221247937840271" flag="0"/>
			<psa10 value="0.0133338404889928" flag="0"/>
			<psa30 value="0.00127005611414895" flag="0"/>
		</comp>
	</station>
	<station code="KRK1" name="KRK1" netid="HI" source="ITSAK Strong Motion Network" insttype="" lat="39.618861" lon="19.9202">
		<comp name="--.HNE" depth="0.0">
			<acc value="0.0068264176451134" flag="0"/>
			<vel value="0.00503852381963427" flag="0"/>
			<psa03 value="0.0201339929782223" flag="0"/>
			<psa10 value="0.00869788496659203" flag="0"/>
			<psa30 value="0.00100490996064638" flag="0"/>
		</comp>
		<comp name="--.HNN" depth="0.0">
			<acc value="0.00746208785269626" flag="0"/>
			<vel value="0.0063411050925472" flag="0"/>
			<psa03 value="0.0144069905310835" flag="0"/>
			<psa10 value="0.00565362522828482" flag="0"/>
			<psa30 value="0.00070468975423778" flag="0"/>
		</comp>
		<comp name="--.HNZ" depth="0.0">
			<acc value="0.00302234167958757" flag="0"/>
			<vel value="0.0025019096863622" flag="0"/>
			<psa03 value="0.00836679263761682" flag="0"/>
			<psa10 value="0.0035596899585497" flag="0"/>
			<psa30 value="0.000481426143212604" flag="0"/>
		</comp>
	</station>
	<station code="LAM2" name="LAM2" netid="HI" source="ITSAK Strong Motion Network" insttype="" lat="38.90203" lon="22.431301">
		<comp name="--.HNE" depth="0.0">
			<acc value="0.0182538578184403" flag="0"/>
			<vel value="0.0106563938235864" flag="0"/>
			<psa03 value="0.0718559838289444" flag="0"/>
			<psa10 value="0.00800124880954554" flag="0"/>
			<psa30 value="0.00200713538889567" flag="0"/>
		</comp>
		<comp name="--.HNN" depth="0.0">
			<acc value="0.0156861686385648" flag="0"/>
			<vel value="0.0115911210413322" flag="0"/>
			<psa03 value="0.0597308458353928" flag="0"/>
			<psa10 value="0.0077717212895938" flag="0"/>
			<psa30 value="0.00240892040432775" flag="0"/>
		</comp>
		<comp name="--.HNZ" depth="0.0">
			<acc value="0.00758023534635568" flag="0"/>
			<vel value="0.00636979451861625" flag="0"/>
			<psa03 value="0.0248319246731408" flag="0"/>
			<psa10 value="0.00634623458673567" flag="0"/>
			<psa30 value="0.00199639725930729" flag="0"/>
		</comp>
	</station>
	<station code="LMS2" name="LMS2" netid="HI" source="ITSAK Strong Motion Network" insttype="" lat="40.834985" lon="21.141815">
		<comp name="--.HNE" depth="0.0">
			<acc value="0.00455550503662183" flag="0"/>
			<vel value="0.00308780803024326" flag="0"/>
			<psa03 value="0.0133779197788633" flag="0"/>
			<psa10 value="0.00533953493782455" flag="0"/>
			<psa30 value="0.000656368171090046" flag="0"/>
		</comp>
		<comp name="--.HNN" depth="0.0">
			<acc value="0.0070499697832243" flag="0"/>
			<vel value="0.00368241347946368" flag="0"/>
			<psa03 value="0.0187022423664376" flag="0"/>
			<psa10 value="0.00450598762852615" flag="0"/>
			<psa30 value="0.000663974346215153" flag="0"/>
		</comp>
		<comp name="--.HNZ" depth="0.0">
			<acc value="0.00235419821200191" flag="0"/>
			<vel value="0.00193075939776259" flag="0"/>
			<psa03 value="0.012348849026643" flag="0"/>
			<psa10 value="0.00242815955317361" flag="0"/>
			<psa30 value="0.00122772614960538" flag="0"/>
		</comp>
	</station>
	<station code="MSL1" name="MSL1" netid="HI" source="ITSAK Strong Motion Network" insttype="" lat="38.3727" lon="21.4243">
		<comp name="--.HNE" depth="0.0">
			<acc value="0.0119601976992615" flag="0"/>
			<vel value="0.017475943815175" flag="0"/>
			<psa03 value="0.0220131656561897" flag="0"/>
			<psa10 value="0.0243218635176925" flag="0"/>
			<psa30 value="0.00330108000429609" flag="0"/>
		</comp>
		<comp name="--.HNN" depth="0.0">
			<acc value="0.0119864854919483" flag="0"/>
			<vel value="0.02019505214698" flag="0"/>
			<psa03 value="0.0224158455157542" flag="0"/>
			<psa10 value="0.0231983867095077" flag="0"/>
			<psa30 value="0.00428003948510387" flag="0"/>
		</comp>
		<comp name="--.HNZ" depth="0.0">
			<acc value="0.00922776021743622" flag="0"/>
			<vel value="0.00531305839639949" flag="0"/>
			<psa03 value="0.0110513250347131" flag="0"/>
			<psa10 value="0.00958378065763381" flag="0"/>
			<psa30 value="0.00141206404087266" flag="0"/>
		</comp>
	</station>
	<station code="SKO1" name="SKO1" netid="HI" source="ITSAK Strong Motion Network" insttype="" lat="39.123383" lon="23.728705">
		<comp name="--.HNE" depth="0.0">
			<acc value="0.00320125905491996" flag="0"/>
			<vel value="0.0026883528684638" flag="0"/>
			<psa03 value="0.00912741015012744" flag="0"/>
			<psa10 value="0.00264157987874276" flag="0"/>
			<psa30 value="0.000297088251945324" flag="0"/>
		</comp>
		<comp name="--.HNN" depth="0.0">
			<acc value="0.00204464632413699" flag="0"/>
			<vel value="0.0018843483375482" flag="0"/>
			<psa03 value="0.00850101925747163" flag="0"/>
			<psa10 value="0.00252882951806472" flag="0"/>
			<psa30 value="0.000398653060968801" flag="0"/>
		</comp>
		<comp name="--.HNZ" depth="0.0">
			<acc value="0.00199060099906862" flag="0"/>
			<vel value="0.00196232092677577" flag="0"/>
			<psa03 value="0.00496638493462817" flag="0"/>
			<psa10 value="0.0027623838366121" flag="0"/>
			<psa30 value="0.000326170686247201" flag="0"/>
		</comp>
	</station>
	<station code="VAS2" name="VAS2" netid="HI" source="ITSAK Strong Motion Network" insttype="" lat="38.630558" lon="20.608081">
		<comp name="--.HNE" depth="0.0">
			<acc value="0.0148815908525889" flag="0"/>
			<vel value="0.0162198258107971" flag="0"/>
			<psa03 value="0.0376281957659665" flag="0"/>
			<psa10 value="0.0410008633008519" flag="0"/>
			<psa30 value="0.00263710565808094" flag="0"/>
		</comp>
		<comp name="--.HNN" depth="0.0">
			<acc value="0.0182985516549838" flag="0"/>
			<vel value="0.0261297856001862" flag="0"/>
			<psa03 value="0.0415655099483745" flag="0"/>
			<psa10 value="0.0405498618581397" flag="0"/>
			<psa30 value="0.00574803128424937" flag="0"/>
		</comp>
		<comp name="--.HNZ" depth="0.0">
			<acc value="0.00749102685074237" flag="0"/>
			<vel value="0.00764673543084097" flag="0"/>
			<psa03 value="0.0182548203002549" flag="0"/>
			<psa10 value="0.0174360379191405" flag="0"/>
			<psa30 value="0.00126038796043672" flag="0"/>
		</comp>
	</station>
	<station code="VOL2" name="VOL2" netid="HI" source="ITSAK Strong Motion Network" insttype="" lat="39.366" lon="22.9506">
		<comp name="--.HNE" depth="0.0">
			<acc value="0.0182822208036405" flag="0"/>
			<vel value="0.0113643773378259" flag="0"/>
			<psa03 value="0.0767328843503361" flag="0"/>
			<psa10 value="0.0131193098246096" flag="0"/>
			<psa30 value="0.00194539114376246" flag="0"/>
		</comp>
		<comp name="--.HNN" depth="0.0">
			<acc value="0.0153871797023285" flag="0"/>
			<vel value="0.00925851622387787" flag="0"/>
			<psa03 value="0.0562409537191676" flag="0"/>
			<psa10 value="0.0127770319439799" flag="0"/>
			<psa30 value="0.00114719017769249" flag="0"/>
		</comp>
		<comp name="--.HNZ" depth="0.0">
			<acc value="0.0084180571777895" flag="0"/>
			<vel value="0.00730081681597058" flag="0"/>
			<psa03 value="0.0194628598789482" flag="0"/>
			<psa10 value="0.00791265924044136" flag="0"/>
			<psa30 value="0.00131407860837864" flag="0"/>
		</comp>
	</station>
	<station code="DLFA" name="DLFA" netid="HL" source="National Observatory of Athens Seismic Network" insttype="" lat="38.47836" lon="22.49583">
		<comp name="00.HNE" depth="0.0">
			<acc value="0.00591265117363195" flag="0"/>
			<vel value="0.00579519329827339" flag="0"/>
			<psa03 value="0.0157939989362499" flag="0"/>
			<psa10 value="0.00634623458673567" flag="0"/>
			<psa30 value="0.000954798689233919" flag="0"/>
		</comp>
		<comp name="00.HNN" depth="0.0">
			<acc value="0.00469177580150907" flag="0"/>
			<vel value="0.00468668209721995" flag="0"/>
			<psa03 value="0.0104249341420573" flag="0"/>
			<psa10 value="0.00790863244184572" flag="0"/>
			<psa30 value="0.000846075127151519" flag="0"/>
		</comp>
		<comp name="00.HNZ" depth="0.0">
			<acc value="0.00255117704645753" flag="0"/>
			<vel value="0.00270950858945169" flag="0"/>
			<psa03 value="0.00939586338983707" flag="0"/>
			<psa10 value="0.00469524716252144" flag="0"/>
			<psa30 value="0.000625048626457256" flag="0"/>
		</comp>
	</station>
	<station code="JAN" name="JAN" netid="HL" source="National Observatory of Athens Seismic Network" insttype="" lat="39.65616" lon="20.84874">
		<comp name="00.HNE" depth="0.0">
			<acc value="0.00510385179476882" flag="0"/>
			<vel value="0.00440455463201828" flag="0"/>
			<psa03 value="0.0155702879031586" flag="0"/>
			<psa10 value="0.00527913295888988" flag="0"/>
			<psa30 value="0.00245008323441656" flag="0"/>
		</comp>
		<comp name="00.HNN" depth="0.0">
			<acc value="0.00484190504123657" flag="0"/>
			<vel value="0.00442847195479771" flag="0"/>
			<psa03 value="0.019597086498803" flag="0"/>
			<psa10 value="0.00626569861482278" flag="0"/>
			<psa30 value="0.00128365390787822" flag="0"/>
		</comp>
		<comp name="00.HNZ" depth="0.0">
			<acc value="0.00252897086790018" flag="0"/>
			<vel value="0.002716560513697" flag="0"/>
			<psa03 value="0.00742720629863311" flag="0"/>
			<psa10 value="0.00376102988833192" flag="0"/>
			<psa30 value="0.00152168244708742" flag="0"/>
		</comp>
	</station>
	<station code="PATC" name="PATC" netid="HL" source="National Observatory of Athens Seismic Network" insttype="" lat="38.26933" lon="21.76001">
		<comp name="00.HNE" depth="0.0">
			<acc value="0.00386865591856754" flag="0"/>
			<vel value="0.00752534443521502" flag="0"/>
			<psa03 value="0.00984328545601979" flag="0"/>
			<psa10 value="0.0106508822854796" flag="0"/>
			<psa30 value="0.0021073579317206" flag="0"/>
		</comp>
		<comp name="00.HNN" depth="0.0">
			<acc value="0.00515711612397125" flag="0"/>
			<vel value="0.00914845762742665" flag="0"/>
			<psa03 value="0.00921689456336398" flag="0"/>
			<psa10 value="0.00910459162475212" flag="0"/>
			<psa30 value="0.00330734391322265" flag="0"/>
		</comp>
		<comp name="00.HNZ" depth="0.0">
			<acc value="0.00462343282088288" flag="0"/>
			<vel value="0.00441159832595829" flag="0"/>
			<psa03 value="0.00662184657950422" flag="0"/>
			<psa10 value="0.00817842794775389" flag="0"/>
			<psa30 value="0.000855470990541356" flag="0"/>
		</comp>
	</station>
	<station code="PATG" name="PATG" netid="HL" source="National Observatory of Athens Seismic Network" insttype="" lat="38.23865" lon="21.72657">
		<comp name="00.HNE" depth="0.0">
			<acc value="0.00665238105259151" flag="0"/>
			<vel value="0.0104500341141584" flag="0"/>
			<psa03 value="0.0177626560274539" flag="0"/>
			<psa10 value="0.00861734899467914" flag="0"/>
			<psa30 value="0.00255343773170477" flag="0"/>
		</comp>
		<comp name="00.HNN" depth="0.0">
			<acc value="0.00714875990048604" flag="0"/>
			<vel value="0.006996660221565" flag="0"/>
			<psa03 value="0.01449647494432" flag="0"/>
			<psa10 value="0.00975693299724652" flag="0"/>
			<psa30 value="0.00268542724122867" flag="0"/>
		</comp>
		<comp name="00.HNZ" depth="0.0">
			<acc value="0.00824462443140827" flag="0"/>
			<vel value="0.0041934160829345" flag="0"/>
			<psa03 value="0.0114987471008958" flag="0"/>
			<psa10 value="0.00578248278334544" flag="0"/>
			<psa30 value="0.00104786247899992" flag="0"/>
		</comp>
	</station>
	<station code="PLG" name="PLG" netid="HL" source="National Observatory of Athens Seismic Network" insttype="" lat="40.37328" lon="23.44443">
		<comp name="--.HNE" depth="0.0">
			<acc value="0.0" flag="1"/>
			<vel value="0.0" flag="1"/>
			<psa03 value="0.0" flag="1"/>
			<psa10 value="0.0" flag="1"/>
			<psa30 value="0.0" flag="1"/>
		</comp>
		<comp name="--.HNN" depth="0.0">
			<acc value="0.0" flag="1"/>
			<vel value="0.0" flag="1"/>
			<psa03 value="0.0" flag="1"/>
			<psa10 value="0.0" flag="1"/>
			<psa30 value="0.0" flag="1"/>
		</comp>
		<comp name="--.HNZ" depth="0.0">
			<acc value="0.0" flag="1"/>
			<vel value="0.0" flag="1"/>
			<psa03 value="0.0" flag="1"/>
			<psa10 value="0.0" flag="1"/>
			<psa30 value="0.0" flag="1"/>
		</comp>
	</station>
	<station code="RIOA" name="RIOA" netid="HL" source="National Observatory of Athens Seismic Network" insttype="" lat="38.29585" lon="21.79118">
		<comp name="00.HNE" depth="0.0">
			<acc value="0.00563684163795495" flag="0"/>
			<vel value="0.00648231178096735" flag="0"/>
			<psa03 value="0.00885895691041781" flag="0"/>
			<psa10 value="0.0104173279669322" flag="0"/>
			<psa30 value="0.0015637401213086" flag="0"/>
		</comp>
		<comp name="00.HNN" depth="0.0">
			<acc value="0.00616334792601358" flag="0"/>
			<vel value="0.00562032612590068" flag="0"/>
			<psa03 value="0.00778514395157929" flag="0"/>
			<psa10 value="0.00815426715618003" flag="0"/>
			<psa30 value="0.00166127813173643" flag="0"/>
		</comp>
		<comp name="00.HNZ" depth="0.0">
			<acc value="0.00928362367980813" flag="0"/>
			<vel value="0.00354066944813869" flag="0"/>
			<psa03 value="0.00662184657950422" flag="0"/>
			<psa10 value="0.00419592413666152" flag="0"/>
			<psa30 value="0.000748984538789869" flag="0"/>
		</comp>
	</station>
	<station code="ANX" name="ANX" netid="HP" source="University of Patras, Seismological Laboratory (PSLNET)" insttype="" lat="38.5933" lon="21.9209">
		<comp name="--.HNE" depth="0.0">
			<acc value="0.0157412287503112" flag="0"/>
			<vel value="0.0133843158642087" flag="0"/>
			<psa03 value="0.0388506569986886" flag="0"/>
			<psa10 value="0.0117407987078047" flag="0"/>
			<psa30 value="0.00162499681473258" flag="0"/>
		</comp>
		<comp name="--.HNN" depth="0.0">
			<acc value="0.026834700591525" flag="0"/>
			<vel value="0.014131250191518" flag="0"/>
			<psa03 value="0.106422206198662" flag="0"/>
			<psa10 value="0.0103370450909888" flag="0"/>
			<psa30 value="0.00100576027251599" flag="0"/>
		</comp>
		<comp name="--.HNZ" depth="0.0">
			<acc value="0.00852913199936762" flag="0"/>
			<vel value="0.00751892094090617" flag="0"/>
			<psa03 value="0.0306140801158808" flag="0"/>
			<psa10 value="0.00845273838992431" flag="0"/>
			<psa30 value="0.000960886987379786" flag="0"/>
		</comp>
	</station>
	<station code="LTK" name="LTK" netid="HP" source="University of Patras, Seismological Laboratory (PSLNET)" insttype="" lat="38.0228" lon="22.9673">
		<comp name="--.HNE" depth="0.0">
			<acc value="0.0010013978982515" flag="0"/>
			<vel value="0.000938675474011845" flag="0"/>
			<psa03 value="0.00300652859484905" flag="0"/>
			<psa10 value="0.00128703604107031" flag="0"/>
			<psa30 value="0.000310475333091883" flag="0"/>
		</comp>
		<comp name="--.HNN" depth="0.0">
			<acc value="0.00134938341363702" flag="0"/>
			<vel value="0.00194929531185439" flag="0"/>
			<psa03 value="0.00415433737894347" flag="0"/>
			<psa10 value="0.00165693534977356" flag="0"/>
			<psa30 value="0.000375407394939138" flag="0"/>
		</comp>
		<comp name="--.HNZ" depth="0.0">
			<acc value="0.00113178094642751" flag="0"/>
			<vel value="0.000936357103429252" flag="0"/>
			<psa03 value="0.00316200569131917" flag="0"/>
			<psa10 value="0.000956539713715921" flag="0"/>
			<psa30 value="0.000175201228617188" flag="0"/>
		</comp>
	</station>
	<station code="PDO" name="PDO" netid="HP" source="University of Patras, Seismological Laboratory (PSLNET)" insttype="" lat="38.5986" lon="21.1833">
		<comp name="--.HNE" depth="0.0">
			<acc value="0.00973039441685286" flag="0"/>
			<vel value="0.00859348609151412" flag="0"/>
			<psa03 value="0.0325397128879593" flag="0"/>
			<psa10 value="0.00795558576852134" flag="0"/>
			<psa30 value="0.00134541266865394" flag="0"/>
		</comp>
		<comp name="--.HNN" depth="0.0">
			<acc value="0.011185897648056" flag="0"/>
			<vel value="0.0102223014447025" flag="0"/>
			<psa03 value="0.0354283391410998" flag="0"/>
			<psa10 value="0.0059082960831375" flag="0"/>
			<psa30 value="0.000852219892883804" flag="0"/>
		</comp>
		<comp name="--.HNZ" depth="0.0">
			<acc value="0.00536031907999325" flag="0"/>
			<vel value="0.00657252050857533" flag="0"/>
			<psa03 value="0.012633748382145" flag="0"/>
			<psa10 value="0.0034856234054422" flag="0"/>
			<psa30 value="0.000801452571466555" flag="0"/>
		</comp>
	</station>
	<station code="PVO" name="PVO" netid="HP" source="University of Patras, Seismological Laboratory (PSLNET)" insttype="" lat="38.616" lon="21.525">
		<comp name="--.HNE" depth="0.0">
