<?xml version="1.0" encoding="UTF-8" standalone="yes"?>
<!DOCTYPE earthquake SYSTEM "stationlist.dtd">
<stationlist created="" xmlns="ch.ethz.sed.shakemap.usgs.xml">
  <station code="BERNI" name="BERNI" netid="CH" insttype="Trillium 240s_g2" lat="46.4136" lon="10.0231">
    <comp name="--.HHE">
      <acc value="0.0479910650" flag="0"/>
      <vel value="0.0165755681" flag="0"/>
      <psa03 value="0.0856163190" flag="0"/>
      <psa10 value="0.0066692305" flag="0"/>
      <psa30 value="0.0005384534" flag="0"/>
    </comp>
    <comp name="--.HHZ">
      <acc value="0.0531574919" flag="0"/>
      <vel value="0.0212965927" flag="0"/>
      <psa03 value="0.0985213095" flag="0"/>
      <psa10 value="0.0111075246" flag="0"/>
      <psa30 value="0.0005425109" flag="0"/>
    </comp>
    <comp name="--.HHN">
      <acc value="0.0346396739" flag="0"/>
      <vel value="0.0142989030" flag="0"/>
      <psa03 value="0.0585206889" flag="0"/>
      <psa10 value="0.0060650418" flag="0"/>
      <psa30 value="0.0004534298" flag="0"/>
    </comp>
  </station>
  <station code="DAVOX" name="DAVOX" netid="CH" insttype="STS2.5" lat="46.7805" lon="9.87952">
    <comp name="--.HHN">
      <acc value="0.0130794101" flag="0"/>
      <vel value="0.0049247105" flag="0"/>
      <psa03 value="0.0401976282" flag="0"/>
      <psa10 value="0.0050086059" flag="0"/>
      <psa30 value="0.0002014144" flag="0"/>
    </comp>
    <comp name="--.HHZ">
      <acc value="0.0099843966" flag="0"/>
      <vel value="0.0056830367" flag="0"/>
      <psa03 value="0.0307535008" flag="0"/>
      <psa10 value="0.0035784638" flag="0"/>
      <psa30 value="0.0001788943" flag="0"/>
    </comp>
    <comp name="--.HHE">
      <acc value="0.0097766983" flag="0"/>
      <vel value="0.0049787417" flag="0"/>
      <psa03 value="0.0321238321" flag="0"/>
      <psa10 value="0.0053910462" flag="0"/>
      <psa30 value="0.0003002055" flag="0"/>
    </comp>
  </station>
  <station code="FUORN" name="FUORN" netid="CH" insttype="Trillium 240s_g2" lat="46.6203" lon="10.2635">
    <comp name="--.HHE">
      <acc value="0.0101970457" flag="0"/>
      <vel value="0.0047746361" flag="0"/>
      <psa03 value="0.0288252234" flag="0"/>
      <psa10 value="0.0041249663" flag="0"/>
      <psa30 value="0.0002536669" flag="0"/>
    </comp>
    <comp name="--.HHZ">
      <acc value="0.0084529120" flag="0"/>
      <vel value="0.0036531139" flag="0"/>
      <psa03 value="0.0224415882" flag="0"/>
      <psa10 value="0.0041350027" flag="0"/>
      <psa30 value="0.0002621307" flag="0"/>
    </comp>
    <comp name="--.HHN">
      <acc value="0.0084902922" flag="0"/>
      <vel value="0.0050989194" flag="0"/>
      <psa03 value="0.0238655200" flag="0"/>
      <psa10 value="0.0043198053" flag="0"/>
      <psa30 value="0.0002626569" flag="0"/>
    </comp>
  </station>
  <station code="FUSIO" name="FUSIO" netid="CH" insttype="STS2.5" lat="46.4548" lon="8.6629">
    <comp name="--.HHN">
      <acc value="0.1531889098" flag="0"/>
      <vel value="0.0398426222" flag="0"/>
      <psa03 value="0.1583927866" flag="0"/>
      <psa10 value="0.0111602144" flag="0"/>
      <psa30 value="0.0006504021" flag="0"/>
    </comp>
    <comp name="--.HHZ">
      <acc value="0.1115850064" flag="0"/>
      <vel value="0.0345995236" flag="0"/>
      <psa03 value="0.1778878728" flag="0"/>
      <psa10 value="0.0138889923" flag="0"/>
      <psa30 value="0.0011762051" flag="0"/>
    </comp>
    <comp name="--.HHE">
      <acc value="0.2186156592" flag="0"/>
      <vel value="0.0557357257" flag="0"/>
      <psa03 value="0.3493768405" flag="0"/>
      <psa10 value="0.0268395910" flag="0"/>
      <psa30 value="0.0017970723" flag="0"/>
    </comp>
  </station>
  <station code="MUGIO" name="MUGIO" netid="CH" insttype="STS2_gen2" lat="45.9218" lon="9.04171">
    <comp name="--.HHN">
      <acc value="0.5251757220" flag="0"/>
      <vel value="0.0854868437" flag="0"/>
      <psa03 value="0.2442450812" flag="0"/>
      <psa10 value="0.0132017601" flag="0"/>
      <psa30 value="0.0010620714" flag="0"/>
    </comp>
    <comp name="--.HHE">
      <acc value="0.3615447412" flag="0"/>
      <vel value="0.0712589877" flag="0"/>
      <psa03 value="0.3042049331" flag="0"/>
      <psa10 value="0.0109946781" flag="0"/>
      <psa30 value="0.0008761767" flag="0"/>
    </comp>
    <comp name="--.HHZ">
      <acc value="0.5587211932" flag="0"/>
      <vel value="0.0878201034" flag="0"/>
      <psa03 value="0.2105736885" flag="0"/>
      <psa10 value="0.0086354314" flag="0"/>
      <psa30 value="0.0008764927" flag="0"/>
    </comp>
  </station>
  <station code="SBGN" name="SBGN" netid="CH" insttype="EpiSensor ES-T" lat="46.6282" lon="9.74836">
    <comp name="--.HGE">
      <acc value="0.0812969448" flag="0"/>
      <vel value="0.0284341128" flag="0"/>
      <psa03 value="0.2355586869" flag="0"/>
      <psa10 value="0.0134451066" flag="0"/>
      <psa30 value="0.0009218040" flag="0"/>
    </comp>
    <comp name="--.HGZ">
      <acc value="0.0952102039" flag="0"/>
      <vel value="0.0318017356" flag="0"/>
      <psa03 value="0.1258755373" flag="0"/>
      <psa10 value="0.0081219829" flag="0"/>
      <psa30 value="0.0005719182" flag="0"/>
    </comp>
    <comp name="--.HGN">
      <acc value="0.0908028956" flag="0"/>
      <vel value="0.0348557102" flag="0"/>
      <psa03 value="0.1504201706" flag="0"/>
      <psa10 value="0.0113398307" flag="0"/>
      <psa30 value="0.0009828280" flag="0"/>
    </comp>
  </station>
  <station code="SCAS2" name="SCAS2" netid="CH" insttype="EpiSensor ES-T" lat="46.1552" lon="8.61478">
    <comp name="--.HGN">
      <acc value="1.1870314272" flag="0"/>
      <vel value="0.2178878140" flag="0"/>
      <psa03 value="0.4800749525" flag="0"/>
      <psa10 value="0.0296947482" flag="0"/>
      <psa30 value="0.0025028247" flag="0"/>
    </comp>
    <comp name="--.HGE">
      <acc value="1.7282031896" flag="0"/>
      <vel value="0.2501505245" flag="0"/>
      <psa03 value="0.3724008252" flag="0"/>
      <psa10 value="0.0424040530" flag="0"/>
      <psa30 value="0.0038454576" flag="0"/>
    </comp>
    <comp name="--.HGZ">
      <acc value="0.4084424188" flag="0"/>
      <vel value="0.0598626302" flag="0"/>
      <psa03 value="0.2058833669" flag="0"/>
      <psa10 value="0.0129747804" flag="0"/>
      <psa30 value="0.0012829660" flag="0"/>
    </comp>
  </station>
  <station code="SCEL" name="SCEL" netid="CH" insttype="EpiSensor ES-T" lat="46.5074" lon="9.85542">
    <comp name="--.HGE">
      <acc value="0.0782913463" flag="0"/>
      <vel value="0.0245529651" flag="0"/>
      <psa03 value="0.1526720224" flag="0"/>
      <psa10 value="0.0106003685" flag="0"/>
      <psa30 value="0.0004758708" flag="0"/>
    </comp>
    <comp name="--.HGN">
      <acc value="0.1206149634" flag="0"/>
      <vel value="0.0410191452" flag="0"/>
      <psa03 value="0.1308148711" flag="0"/>
      <psa10 value="0.0092340681" flag="0"/>
      <psa30 value="0.0007230982" flag="0"/>
    </comp>
    <comp name="--.HGZ">
      <acc value="0.0806831362" flag="0"/>
      <vel value="0.0168117894" flag="0"/>
      <psa03 value="0.0584824270" flag="0"/>
      <psa10 value="0.0050233309" flag="0"/>
      <psa30 value="0.0003937034" flag="0"/>
    </comp>
  </station>
  <station code="SCHK" name="SCHK" netid="CH" insttype="EpiSensor ES-T" lat="46.7889" lon="9.53633">
    <comp name="--.HGZ">
      <acc value="0.0536532102" flag="0"/>
      <vel value="0.0161394904" flag="0"/>
      <psa03 value="0.1313257137" flag="0"/>
      <psa10 value="0.0066701290" flag="0"/>
      <psa30 value="0.0004129888" flag="0"/>
    </comp>
    <comp name="--.HGE">
      <acc value="0.1464822938" flag="0"/>
      <vel value="0.0503416476" flag="0"/>
      <psa03 value="0.4149578159" flag="0"/>
      <psa10 value="0.0170275259" flag="0"/>
      <psa30 value="0.0010451315" flag="0"/>
    </comp>
    <comp name="--.HGN">
      <acc value="0.0926294805" flag="0"/>
      <vel value="0.0432569503" flag="0"/>
      <psa03 value="0.2494766399" flag="0"/>
      <psa10 value="0.0105031883" flag="0"/>
      <psa30 value="0.0009413989" flag="0"/>
    </comp>
  </station>
  <station code="SIZS" name="SIZS" netid="CH" insttype="EpiSensor ES-T" lat="46.7724" lon="9.20525">
    <comp name="--.HGN">
      <acc value="0.2214900277" flag="0"/>
      <vel value="0.0729615170" flag="0"/>
      <psa03 value="0.5194386934" flag="0"/>
      <psa10 value="0.0206191520" flag="0"/>
      <psa30 value="0.0014667402" flag="0"/>
    </comp>
    <comp name="--.HGZ">
      <acc value="0.1112903378" flag="0"/>
      <vel value="0.0249670920" flag="0"/>
      <psa03 value="0.1075912639" flag="0"/>
      <psa10 value="0.0099393684" flag="0"/>
      <psa30 value="0.0005304814" flag="0"/>
    </comp>
    <comp name="--.HGE">
      <acc value="0.3832597879" flag="0"/>
      <vel value="0.1265403442" flag="0"/>
      <psa03 value="0.7183883484" flag="0"/>
      <psa10 value="0.0316412404" flag="0"/>
      <psa30 value="0.0022582650" flag="0"/>
    </comp>
  </station>
  <station code="SLOP" name="SLOP" netid="CH" insttype="EpiSensor ES-T" lat="46.1638" lon="8.79055">
    <comp name="--.HGE">
      <acc value="0.4057969640" flag="0"/>
      <vel value="0.1076531125" flag="0"/>
      <psa03 value="0.4795599273" flag="0"/>
      <psa10 value="0.0387249344" flag="0"/>
      <psa30 value="0.0041801937" flag="0"/>
    </comp>
    <comp name="--.HGZ">
      <acc value="0.4144204168" flag="0"/>
      <vel value="0.0808116670" flag="0"/>
      <psa03 value="0.3087987045" flag="0"/>
      <psa10 value="0.0385119034" flag="0"/>
      <psa30 value="0.0027277025" flag="0"/>
    </comp>
    <comp name="--.HGN">
      <acc value="0.5197431655" flag="0"/>
      <vel value="0.1447841384" flag="0"/>
      <psa03 value="0.7057354059" flag="0"/>
      <psa10 value="0.0477305765" flag="0"/>
      <psa30 value="0.0024654736" flag="0"/>
    </comp>
  </station>
  <station code="SLUX" name="SLUX" netid="CH" insttype="EpiSensor ES-T" lat="46.6931" lon="9.14976">
    <comp name="--.HGZ">
      <acc value="0.0935073836" flag="0"/>
      <vel value="0.0347093146" flag="0"/>
      <psa03 value="0.1768871072" flag="0"/>
      <psa10 value="0.0138621625" flag="0"/>
      <psa30 value="0.0009170856" flag="0"/>
    </comp>
    <comp name="--.HGN">
      <acc value="0.1214609455" flag="0"/>
      <vel value="0.0567312597" flag="0"/>
      <psa03 value="0.2714065231" flag="0"/>
      <psa10 value="0.0158231858" flag="0"/>
      <psa30 value="0.0013953070" flag="0"/>
    </comp>
    <comp name="--.HGE">
      <acc value="0.2960378052" flag="0"/>
      <vel value="0.1091952356" flag="0"/>
      <psa03 value="0.6547715321" flag="0"/>
      <psa10 value="0.0236146194" flag="0"/>
      <psa30 value="0.0021853295" flag="0"/>
    </comp>
  </station>
  <station code="STSP" name="STSP" netid="CH" insttype="EpiSensor ES-T" lat="46.6264" lon="10.3332">
    <comp name="--.HGZ">
      <acc value="0.0317708629" flag="0"/>
      <vel value="0.0156857299" flag="0"/>
      <psa03 value="0.0778644258" flag="0"/>
      <psa10 value="0.0053043272" flag="0"/>
      <psa30 value="0.0004136390" flag="0"/>
    </comp>
    <comp name="--.HGN">
      <acc value="0.0410743833" flag="0"/>
      <vel value="0.0171075539" flag="0"/>
      <psa03 value="0.1002487952" flag="0"/>
      <psa10 value="0.0064165166" flag="0"/>
      <psa30 value="0.0005538096" flag="0"/>
    </comp>
    <comp name="--.HGE">
      <acc value="0.0447564446" flag="0"/>
      <vel value="0.0196131655" flag="0"/>
      <psa03 value="0.0909169815" flag="0"/>
      <psa10 value="0.0106127784" flag="0"/>
      <psa30 value="0.0006599067" flag="0"/>
    </comp>
  </station>
  <station code="SUSI" name="SUSI" netid="CH" insttype="EpiSensor ES-T" lat="46.0104" lon="8.95869">
    <comp name="--.HGN">
      <acc value="0.8575841364" flag="0"/>
      <vel value="0.2347294274" flag="0"/>
      <psa03 value="0.9368766521" flag="0"/>
      <psa10 value="0.0429758423" flag="0"/>
      <psa30 value="0.0031851239" flag="0"/>
    </comp>
    <comp name="--.HGE">
      <acc value="0.8369122606" flag="0"/>
      <vel value="0.1744660623" flag="0"/>
      <psa03 value="0.8190041202" flag="0"/>
      <psa10 value="0.0515201341" flag="0"/>
      <psa30 value="0.0034393040" flag="0"/>
    </comp>
    <comp name="--.HGZ">
      <acc value="0.7664081505" flag="0"/>
      <vel value="0.1635920051" flag="0"/>
      <psa03 value="0.6484034927" flag="0"/>
      <psa10 value="0.0349393893" flag="0"/>
      <psa30 value="0.0021817638" flag="0"/>
    </comp>
  </station>
  <station code="SVAM" name="SVAM" netid="CH" insttype="EpiSensor ES-T" lat="46.6934" lon="9.5261">
    <comp name="--.HGE">
      <acc value="0.1169534046" flag="0"/>
      <vel value="0.0653822331" flag="0"/>
      <psa03 value="0.3637305627" flag="0"/>
      <psa10 value="0.0302664813" flag="0"/>
      <psa30 value="0.0023253795" flag="0"/>
    </comp>
    <comp name="--.HGZ">
      <acc value="0.0379513756" flag="0"/>
      <vel value="0.0149906809" flag="0"/>
      <psa03 value="0.0762548327" flag="0"/>
      <psa10 value="0.0075118708" flag="0"/>
      <psa30 value="0.0005053103" flag="0"/>
    </comp>
    <comp name="--.HGN">
      <acc value="0.1021123242" flag="0"/>
      <vel value="0.0465747232" flag="0"/>
      <psa03 value="0.2604660754" flag="0"/>
      <psa10 value="0.0145172055" flag="0"/>
      <psa30 value="0.0013911994" flag="0"/>
    </comp>
  </station>
  <station code="VDL" name="VDL" netid="CH" insttype="STS2_gen2" lat="46.4831" lon="9.44933">
    <comp name="--.HHE">
      <acc value="0.0453729407" flag="0"/>
      <vel value="0.0155774790" flag="0"/>
      <psa03 value="0.1188545553" flag="0"/>
      <psa10 value="0.0068004807" flag="0"/>
      <psa30 value="0.0005834630" flag="0"/>
    </comp>
    <comp name="--.HHZ">
      <acc value="0.0386683022" flag="0"/>
      <vel value="0.0114820638" flag="0"/>
      <psa03 value="0.0869509198" flag="0"/>
      <psa10 value="0.0052625150" flag="0"/>
      <psa30 value="0.0002920728" flag="0"/>
    </comp>
    <comp name="--.HHN">
      <acc value="0.0618917800" flag="0"/>
      <vel value="0.0199027458" flag="0"/>
      <psa03 value="0.1578112095" flag="0"/>
      <psa10 value="0.0066363875" flag="0"/>
      <psa30 value="0.0005653059" flag="0"/>
    </comp>
  </station>
  <station code="VDR" name="VDR" netid="CH" insttype="STS2.5" lat="46.2061" lon="9.16648">
    <comp name="--.HHZ">
      <acc value="0.0918724192" flag="0"/>
      <vel value="0.0279398606" flag="0"/>
      <psa03 value="0.2216441306" flag="0"/>
      <psa10 value="0.0094820437" flag="0"/>
      <psa30 value="0.0007417587" flag="0"/>
    </comp>
    <comp name="--.HHN">
      <acc value="0.1031110849" flag="0"/>
      <vel value="0.0378572371" flag="0"/>
      <psa03 value="0.2672486201" flag="0"/>
      <psa10 value="0.0122786422" flag="0"/>
      <psa30 value="0.0010926040" flag="0"/>
    </comp>
    <comp name="--.HHE">
      <acc value="0.1354391413" flag="0"/>
      <vel value="0.0414090023" flag="0"/>
      <psa03 value="0.2517476699" flag="0"/>
      <psa10 value="0.0122961550" flag="0"/>
      <psa30 value="0.0014791033" flag="0"/>
    </comp>
  </station>
  <station code="VMV" name="VMV" netid="CH" insttype="STS2_gen3" lat="46.4231" lon="9.02207">
    <comp name="--.HHE">
      <acc value="0.1576634917" flag="0"/>
      <vel value="0.0649714500" flag="0"/>
      <psa03 value="0.3632072047" flag="0"/>
      <psa10 value="0.0210009292" flag="0"/>
      <psa30 value="0.0013155451" flag="0"/>
    </comp>
    <comp name="--.HHZ">
      <acc value="0.1362975178" flag="0"/>
      <vel value="0.0434268909" flag="0"/>
      <psa03 value="0.3320171380" flag="0"/>
      <psa10 value="0.0167115817" flag="0"/>
      <psa30 value="0.0009315545" flag="0"/>
    </comp>
    <comp name="--.HHN">
      <acc value="0.1458035121" flag="0"/>
      <vel value="0.0513450434" flag="0"/>
      <psa03 value="0.2811888370" flag="0"/>
      <psa10 value="0.0225204256" flag="0"/>
      <psa30 value="0.0012145179" flag="0"/>
    </comp>
  </station>
  <station code="GORR" name="GORR" netid="GU" insttype="" lat="44.6071" lon="9.2926">
    <comp name="--.HHE">
      <acc value="0.0506173763" flag="0"/>
      <vel value="0.0218999052" flag="0"/>
      <psa03 value="0.0771272456" flag="0"/>
      <psa10 value="0.0099030557" flag="0"/>
      <psa30 value="0.0009663562" flag="0"/>
    </comp>
    <comp name="--.HHN">
      <acc value="0.0383994609" flag="0"/>
      <vel value="0.0233312295" flag="0"/>
      <psa03 value="0.0910039369" flag="0"/>
      <psa10 value="0.0073751699" flag="0"/>
      <psa30 value="0.0008439018" flag="0"/>
    </comp>
    <comp name="--.HHZ">
      <acc value="0.0256432453" flag="0"/>
      <vel value="0.0091434719" flag="0"/>
      <psa03 value="0.0439305317" flag="0"/>
      <psa10 value="0.0087387351" flag="0"/>
      <psa30 value="0.0004447038" flag="0"/>
    </comp>
  </station>
  <station code="BAG8" name="BAG8" netid="IV" insttype="" lat="45.8228" lon="10.4664">
    <comp name="--.HNE">
      <acc value="0.3017874510" flag="0"/>
      <vel value="0.0834350391" flag="0"/>
      <psa03 value="0.3507487360" flag="0"/>
      <psa10 value="0.0127601718" flag="0"/>
      <psa30 value="0.0011221136" flag="0"/>
    </comp>
    <comp name="--.HNN">
      <acc value="0.2850825318" flag="0"/>
      <vel value="0.1009052623" flag="0"/>
      <psa03 value="0.6701031262" flag="0"/>
      <psa10 value="0.0205364187" flag="0"/>
      <psa30 value="0.0023086887" flag="0"/>
    </comp>
    <comp name="--.HNZ">
      <acc value="0.2240706956" flag="0"/>
      <vel value="0.0770101760" flag="0"/>
      <psa03 value="0.5812789428" flag="0"/>
      <psa10 value="0.0162690137" flag="0"/>
      <psa30 value="0.0016405198" flag="0"/>
    </comp>
  </station>
  <station code="BOB" name="BOB" netid="IV" insttype="" lat="44.7679" lon="9.44782">
    <comp name="--.HHE">
      <acc value="0.0938076861" flag="0"/>
      <vel value="0.0335971922" flag="0"/>
      <psa03 value="0.1328043444" flag="0"/>
      <psa10 value="0.0091708047" flag="0"/>
      <psa30 value="0.0010475396" flag="0"/>
    </comp>
    <comp name="--.HHN">
      <acc value="0.1029651459" flag="0"/>
      <vel value="0.0253514232" flag="0"/>
      <psa03 value="0.1130794395" flag="0"/>
      <psa10 value="0.0164636590" flag="0"/>
      <psa30 value="0.0011093755" flag="0"/>
    </comp>
    <comp name="--.HHZ">
      <acc value="0.0421446973" flag="0"/>
      <vel value="0.0142231868" flag="0"/>
      <psa03 value="0.0958651597" flag="0"/>
      <psa10 value="0.0070381100" flag="0"/>
      <psa30 value="0.0006136071" flag="0"/>
    </comp>
  </station>
  <station code="BORM" name="BORM" netid="IV" insttype="" lat="46.4694" lon="10.3764">
    <comp name="--.HNE">
      <acc value="0.0203683335" flag="0"/>
      <vel value="0.0090343453" flag="0"/>
      <psa03 value="0.0398394787" flag="0"/>
      <psa10 value="0.0055376706" flag="0"/>
      <psa30 value="0.0003591598" flag="0"/>
    </comp>
    <comp name="--.HNN">
      <acc value="0.0188946589" flag="0"/>
      <vel value="0.0060171109" flag="0"/>
      <psa03 value="0.0357996235" flag="0"/>
      <psa10 value="0.0043606415" flag="0"/>
      <psa30 value="0.0002650537" flag="0"/>
    </comp>
    <comp name="--.HNZ">
      <acc value="0.0056014349" flag="0"/>
      <vel value="0.0028733832" flag="0"/>
      <psa03 value="0.0156309690" flag="0"/>
      <psa10 value="0.0014482220" flag="0"/>
      <psa30 value="0.0000946339" flag="0"/>
    </comp>
  </station>
  <station code="BRMO" name="BRMO" netid="IV" insttype="" lat="46.4762" lon="10.3722">
    <comp name="--.HHE">
      <acc value="0.0106975901" flag="0"/>
      <vel value="0.0063253793" flag="0"/>
      <psa03 value="0.0351133239" flag="0"/>
      <psa10 value="0.0047997414" flag="0"/>
      <psa30 value="0.0002801270" flag="0"/>
    </comp>
    <comp name="--.HHN">
