<stationlist created="1778070042">
	<station code="LIENZ" name="LIENZ" netid="CH" source="Switzerland Seismological Network" insttype="" lat="47.294601" lon="9.4927">
		<comp name="--.HGE" depth="0.0">
			<acc value="0.00346221229164256" flag="0"/>
			<vel value="0.00190307104286324" flag="0"/>
			<psa03 value="0.00658206102925414" flag="0"/>
			<psa10 value="0.00307488775872413" flag="0"/>
			<psa30 value="0.000228790208311926" flag="0"/>
		</comp>
		<comp name="--.HGN" depth="0.0">
			<acc value="0.00304831069572356" flag="0"/>
			<vel value="0.00194082727906139" flag="0"/>
			<psa03 value="0.00830012992099372" flag="0"/>
			<psa10 value="0.00266729106994278" flag="0"/>
			<psa30 value="0.000138300112224436" flag="0"/>
		</comp>
		<comp name="--.HGZ" depth="0.0">
			<acc value="0.00341382033089693" flag="0"/>
			<vel value="0.00154744615721419" flag="0"/>
			<psa03 value="0.00906492407442108" flag="0"/>
			<psa10 value="0.00252819529302958" flag="0"/>
			<psa30 value="0.000128659903295361" flag="0"/>
		</comp>
	</station>
	<station code="MFERR" name="MFERR" netid="CH" source="Switzerland Seismological Network" insttype="" lat="45.95101" lon="7.11229">
		<comp name="--.HGE" depth="0.0">
			<acc value="0.0250967285113025" flag="0"/>
			<vel value="0.00690369762062509" flag="0"/>
			<psa03 value="0.0376587473113386" flag="0"/>
			<psa10 value="0.00199886952467227" flag="0"/>
			<psa30 value="0.000139938033228588" flag="0"/>
		</comp>
		<comp name="--.HGN" depth="0.0">
			<acc value="0.0168828067390251" flag="0"/>
			<vel value="0.00553376566908917" flag="0"/>
			<psa03 value="0.0230929699000703" flag="0"/>
			<psa10 value="0.00116258404673894" flag="0"/>
			<psa30 value="9.83527849206448e-05" flag="0"/>
		</comp>
		<comp name="--.HGZ" depth="0.0">
			<acc value="0.0175707290754298" flag="0"/>
			<vel value="0.00358457384403473" flag="0"/>
			<psa03 value="0.0208473471802781" flag="0"/>
			<psa10 value="0.00117651961833652" flag="0"/>
			<psa30 value="8.22692780608967e-05" flag="0"/>
		</comp>
	</station>
	<station code="SCEL" name="SCEL" netid="CH" source="Switzerland Seismological Network" insttype="" lat="46.5074" lon="9.85542">
		<comp name="--.HGE" depth="1.0">
			<acc value="0.0779730275576125" flag="0"/>
			<vel value="0.0246020307232957" flag="0"/>
			<psa03 value="0.152920838588365" flag="0"/>
			<psa10 value="0.0105537747607699" flag="0"/>
			<psa30 value="0.000473280050399408" flag="0"/>
		</comp>
		<comp name="--.HGN" depth="1.0">
			<acc value="0.120646990506014" flag="0"/>
			<vel value="0.0411470640201837" flag="0"/>
			<psa03 value="0.130945862020717" flag="0"/>
			<psa10 value="0.00919936410020342" flag="0"/>
			<psa30 value="0.000715110757996223" flag="0"/>
		</comp>
		<comp name="--.HGZ" depth="1.0">
			<acc value="0.0794274202773127" flag="0"/>
			<vel value="0.0168205820873231" flag="0"/>
			<psa03 value="0.0584250214124662" flag="0"/>
			<psa10 value="0.00503042433469385" flag="0"/>
			<psa30 value="0.000374564448472976" flag="0"/>
		</comp>
	</station>
	<station code="SCME" name="SCME" netid="CH" source="Switzerland Seismological Network" insttype="" lat="46.278053" lon="6.939356">
		<comp name="SF.HGE" depth="0.0">
			<acc value="0.0426800301523487" flag="0"/>
			<vel value="0.0195471521204071" flag="0"/>
			<psa03 value="0.105580306677316" flag="0"/>
			<psa10 value="0.0130154125196895" flag="0"/>
			<psa30 value="0.000581260380645389" flag="0"/>
		</comp>
		<comp name="SF.HGN" depth="0.0">
			<acc value="0.038782502455864" flag="0"/>
			<vel value="0.0158297227137191" flag="0"/>
			<psa03 value="0.185961152346943" flag="0"/>
			<psa10 value="0.012902610672123" flag="0"/>
			<psa30 value="0.000831431588676905" flag="0"/>
		</comp>
		<comp name="SF.HGZ" depth="0.0">
			<acc value="0.0183271519821385" flag="0"/>
			<vel value="0.0055873624148148" flag="0"/>
			<psa03 value="0.025179537812472" flag="0"/>
			<psa10 value="0.00446478795778942" flag="0"/>
			<psa30 value="0.000212279440075305" flag="0"/>
		</comp>
	</station>
	<station code="SENGL" name="SENGL" netid="CH" source="Switzerland Seismological Network" insttype="" lat="46.82157" lon="8.41049">
		<comp name="--.HGE" depth="1.0">
			<acc value="0.0912045079161344" flag="0"/>
			<vel value="0.0231626413469864" flag="0"/>
			<psa03 value="0.0771512931863302" flag="0"/>
			<psa10 value="0.00798199689312176" flag="0"/>
			<psa30 value="0.0005213194827717" flag="0"/>
		</comp>
		<comp name="--.HGN" depth="1.0">
			<acc value="0.093185781250087" flag="0"/>
			<vel value="0.0248853743748073" flag="0"/>
			<psa03 value="0.116919870367581" flag="0"/>
			<psa10 value="0.00570384800817538" flag="0"/>
			<psa30 value="0.000424624848062286" flag="0"/>
		</comp>
		<comp name="--.HGZ" depth="1.0">
			<acc value="0.0311342643450015" flag="0"/>
			<vel value="0.0106436578283298" flag="0"/>
			<psa03 value="0.0299330350000073" flag="0"/>
			<psa10 value="0.00457306559940331" flag="0"/>
			<psa30 value="0.000290796946162089" flag="0"/>
		</comp>
	</station>
	<station code="SIMPL" name="SIMPL" netid="CH" source="Switzerland Seismological Network" insttype="" lat="46.23962" lon="8.01958">
		<comp name="--.HGE" depth="0.0">
			<acc value="0.0554327933693923" flag="0"/>
			<vel value="0.0158250403342841" flag="0"/>
			<psa03 value="0.0799511765812848" flag="0"/>
			<psa10 value="0.00290719305602123" flag="0"/>
			<psa30 value="0.000286263052064046" flag="0"/>
		</comp>
		<comp name="--.HGN" depth="0.0">
			<acc value="0.0627440990114239" flag="0"/>
			<vel value="0.0164508447780339" flag="0"/>
			<psa03 value="0.0390727237928675" flag="0"/>
			<psa10 value="0.00265599227457938" flag="0"/>
			<psa30 value="0.000243032584090907" flag="0"/>
		</comp>
		<comp name="--.HGZ" depth="0.0">
			<acc value="0.0460692527686885" flag="0"/>
			<vel value="0.0120458749618788" flag="0"/>
			<psa03 value="0.0430337127514532" flag="0"/>
			<psa10 value="0.00227844187309276" flag="0"/>
			<psa30 value="0.000216206549185432" flag="0"/>
		</comp>
	</station>
	<station code="SINS" name="SINS" netid="CH" source="Switzerland Seismological Network" insttype="" lat="46.68692" lon="7.86414">
		<comp name="--.HGE" depth="1.0">
			<acc value="0.0529903784717223" flag="0"/>
			<vel value="0.026659594657035" flag="0"/>
			<psa03 value="0.154992402902887" flag="0"/>
			<psa10 value="0.0124438052785111" flag="0"/>
			<psa30 value="0.000824638378246961" flag="0"/>
		</comp>
		<comp name="--.HGN" depth="1.0">
			<acc value="0.0641321829620863" flag="0"/>
			<vel value="0.0226964495977087" flag="0"/>
			<psa03 value="0.146239604322775" flag="0"/>
			<psa10 value="0.0145471039867531" flag="0"/>
			<psa30 value="0.000813678850148805" flag="0"/>
		</comp>
		<comp name="--.HGZ" depth="1.0">
			<acc value="0.0340413276857388" flag="0"/>
			<vel value="0.0124459560759459" flag="0"/>
			<psa03 value="0.0903979363363795" flag="0"/>
			<psa10 value="0.010712204943511" flag="0"/>
			<psa30 value="0.000440971555951513" flag="0"/>
		</comp>
	</station>
	<station code="SLENK" name="SLENK" netid="CH" source="Switzerland Seismological Network" insttype="" lat="46.45529" lon="7.44487">
		<comp name="--.HGE" depth="0.0">
			<acc value="0.0838822440120901" flag="0"/>
			<vel value="0.0275184522215955" flag="0"/>
			<psa03 value="0.136446976442747" flag="0"/>
			<psa10 value="0.00976760455585421" flag="0"/>
			<psa30 value="0.000720685033511667" flag="0"/>
		</comp>
		<comp name="--.HGN" depth="0.0">
			<acc value="0.0904768358623329" flag="0"/>
			<vel value="0.0288013439046052" flag="0"/>
			<psa03 value="0.267882787586752" flag="0"/>
			<psa10 value="0.00733366847581426" flag="0"/>
			<psa30 value="0.000599395123650427" flag="0"/>
		</comp>
		<comp name="--.HGZ" depth="0.0">
			<acc value="0.055425673411518" flag="0"/>
			<vel value="0.0170536420175405" flag="0"/>
			<psa03 value="0.115949774853468" flag="0"/>
			<psa10 value="0.00567268578757494" flag="0"/>
			<psa30 value="0.000446329983837753" flag="0"/>
		</comp>
	</station>
	<station code="SNTZ" name="SNTZ" netid="CH" source="Switzerland Seismological Network" insttype="" lat="46.32389" lon="7.98827">
		<comp name="--.HGE" depth="1.0">
			<acc value="0.239990002453228" flag="0"/>
			<vel value="0.0705143673912177" flag="0"/>
			<psa03 value="0.416653892942244" flag="0"/>
			<psa10 value="0.0181460570872397" flag="0"/>
			<psa30 value="0.00174426606989977" flag="0"/>
		</comp>
		<comp name="--.HGN" depth="1.0">
			<acc value="0.279416688149814" flag="0"/>
			<vel value="0.0768769206008055" flag="0"/>
			<psa03 value="0.36745346698886" flag="0"/>
			<psa10 value="0.0174134666817085" flag="0"/>
			<psa30 value="0.00181740935278417" flag="0"/>
		</comp>
		<comp name="--.HGZ" depth="1.0">
			<acc value="0.171070905877215" flag="0"/>
			<vel value="0.0503156723764629" flag="0"/>
			<psa03 value="0.180666947465245" flag="0"/>
			<psa10 value="0.00692599771960154" flag="0"/>
			<psa30 value="0.00070912041324743" flag="0"/>
		</comp>
	</station>
	<station code="VMV" name="VMV" netid="CH" source="Switzerland Seismological Network" insttype="" lat="46.42309" lon="9.02207">
		<comp name="--.HGE" depth="0.0">
			<acc value="0.160658509033911" flag="0"/>
			<vel value="0.0663273991529351" flag="0"/>
			<psa03 value="0.365325492687694" flag="0"/>
			<psa10 value="0.0215114606537002" flag="0"/>
			<psa30 value="0.0013830689131929" flag="0"/>
		</comp>
		<comp name="--.HGN" depth="0.0">
			<acc value="0.146057949618422" flag="0"/>
			<vel value="0.0519759157820002" flag="0"/>
			<psa03 value="0.285656048311349" flag="0"/>
			<psa10 value="0.0226173207864922" flag="0"/>
			<psa30 value="0.00122466779489974" flag="0"/>
		</comp>
		<comp name="--.HGZ" depth="0.0">
			<acc value="0.13846710329743" flag="0"/>
			<vel value="0.044021380917161" flag="0"/>
			<psa03 value="0.333396023350199" flag="0"/>
			<psa10 value="0.0168436801861458" flag="0"/>
			<psa30 value="0.000930157139177944" flag="0"/>
		</comp>
	</station>
	<station code="SATI" name="SATI" netid="GU" source="Regional Seismic Network of North Western Italy (RSNI)" insttype="" lat="45.8754" lon="7.8685">
		<comp name="--.HNE" depth="0.0">
			<acc value="0.257451282175598" flag="0"/>
			<vel value="0.0420072047010323" flag="0"/>
			<psa03 value="0.0865500355984623" flag="0"/>
			<psa10 value="0.00597119431233325" flag="0"/>
			<psa30 value="0.000573810251697318" flag="0"/>
		</comp>
		<comp name="--.HNN" depth="0.0">
			<acc value="0.139642582152051" flag="0"/>
			<vel value="0.0303078619812493" flag="0"/>
			<psa03 value="0.127556814596201" flag="0"/>
			<psa10 value="0.00409801881737926" flag="0"/>
			<psa30 value="0.000466631537048657" flag="0"/>
		</comp>
		<comp name="--.HNZ" depth="0.0">
			<acc value="0.102402618817066" flag="0"/>
			<vel value="0.0239522194523927" flag="0"/>
			<psa03 value="0.14595291866474" flag="0"/>
			<psa10 value="0.00480787240420477" flag="0"/>
			<psa30 value="0.000558359540661218" flag="0"/>
		</comp>
	</station>
	<station code="APR" name="APR" netid="IT" source="Italian Strong Motion Network (RAN)" insttype="" lat="46.1562" lon="10.1577">
		<comp name="--.HGE" depth="0.0">
			<acc value="0.048613832511588" flag="0"/>
			<vel value="0.013857743307" flag="0"/>
			<psa03 value="0.089579923813833" flag="0"/>
			<psa10 value="0.00913653993845112" flag="0"/>
			<psa30 value="0.000785243476860527" flag="0"/>
		</comp>
		<comp name="--.HGN" depth="0.0">
			<acc value="0.06432850788843" flag="0"/>
			<vel value="0.0189246005263" flag="0"/>
			<psa03 value="0.0737743351042525" flag="0"/>
			<psa10 value="0.00576360868576965" flag="0"/>
			<psa30 value="0.000556640468448493" flag="0"/>
		</comp>
		<comp name="--.HGZ" depth="0.0">
			<acc value="0.081365320319334" flag="0"/>
			<vel value="0.02606130891" flag="0"/>
			<psa03 value="0.0982888965734901" flag="0"/>
			<psa10 value="0.00578433349619481" flag="0"/>
			<psa30 value="0.000470265527781267" flag="0"/>
		</comp>
	</station>
	<station code="BGMO" name="BGMO" netid="IT" source="Italian Strong Motion Network (RAN)" insttype="" lat="45.6925" lon="9.6903">
		<comp name="--.HNE" depth="0.0">
			<acc value="0.1774120077588" flag="0"/>
			<vel value="0.0569920809955" flag="0"/>
			<psa03 value="0.357707529701638" flag="0"/>
			<psa10 value="0.0274942076063347" flag="0"/>
			<psa30 value="0.00224200748032594" flag="0"/>
		</comp>
		<comp name="--.HNN" depth="0.0">
			<acc value="0.1677590681532" flag="0"/>
			<vel value="0.0487728441006" flag="0"/>
			<psa03 value="0.21414893631598" flag="0"/>
			<psa10 value="0.0251783710685093" flag="0"/>
			<psa30 value="0.00124061624723968" flag="0"/>
		</comp>
		<comp name="--.HNZ" depth="0.0">
			<acc value="0.21129713350512" flag="0"/>
			<vel value="0.0691263425285" flag="0"/>
			<psa03 value="0.184079506863859" flag="0"/>
			<psa10 value="0.0239907480193325" flag="0"/>
			<psa30 value="0.00150000770148221" flag="0"/>
		</comp>
	</station>
	<station code="BOZL" name="BOZL" netid="IT" source="Italian Strong Motion Network (RAN)" insttype="" lat="45.0995" lon="10.4798">
		<comp name="--.HNE" depth="0.0">
			<acc value="0.15521918140488" flag="0"/>
			<vel value="0.0511778982293" flag="0"/>
			<psa03 value="0.211693315310015" flag="0"/>
			<psa10 value="0.026110097790841" flag="0"/>
			<psa30 value="0.00144843230569746" flag="0"/>
		</comp>
		<comp name="--.HNN" depth="0.0">
			<acc value="0.15017491428852" flag="0"/>
			<vel value="0.0557711162525" flag="0"/>
			<psa03 value="0.351226100338573" flag="0"/>
			<psa10 value="0.0180395781585323" flag="0"/>
			<psa30 value="0.00211523199874074" flag="0"/>
		</comp>
		<comp name="--.HNZ" depth="0.0">
			<acc value="0.10319650124268" flag="0"/>
			<vel value="0.0195904087395" flag="0"/>
			<psa03 value="0.106706985480756" flag="0"/>
			<psa10 value="0.00534364602158321" flag="0"/>
			<psa30 value="0.000703383106097407" flag="0"/>
		</comp>
	</station>
	<station code="BRSA" name="BRSA" netid="IT" source="Italian Strong Motion Network (RAN)" insttype="" lat="45.5527" lon="10.2255">
		<comp name="--.HGE" depth="0.0">
			<acc value="0.13638293648214" flag="0"/>
			<vel value="0.0525332038967" flag="0"/>
			<psa03 value="0.454678161862853" flag="0"/>
			<psa10 value="0.0251380783993245" flag="0"/>
			<psa30 value="0.00148217912459175" flag="0"/>
		</comp>
		<comp name="--.HGN" depth="0.0">
			<acc value="0.18121777920942" flag="0"/>
			<vel value="0.0529001746157" flag="0"/>
			<psa03 value="0.261564514865306" flag="0"/>
			<psa10 value="0.0227864401148436" flag="0"/>
			<psa30 value="0.00147608767939987" flag="0"/>
		</comp>
		<comp name="--.HGZ" depth="0.0">
			<acc value="0.10354696846092" flag="0"/>
			<vel value="0.0271155452865" flag="0"/>
			<psa03 value="0.126697601427453" flag="0"/>
			<psa10 value="0.00751403479917848" flag="0"/>
			<psa30 value="0.00084680135685099" flag="0"/>
		</comp>
	</station>
	<station code="DSG" name="DSG" netid="IT" source="Italian Strong Motion Network (RAN)" insttype="" lat="45.4591" lon="10.5575">
		<comp name="--.HGE" depth="0.0">
			<acc value="0.29160713644002" flag="0"/>
			<vel value="0.052034303308" flag="0"/>
			<psa03 value="0.249825570551207" flag="0"/>
			<psa10 value="0.0209025890689527" flag="0"/>
			<psa30 value="0.00156539494973492" flag="0"/>
		</comp>
		<comp name="--.HGN" depth="0.0">
			<acc value="0.21338414084568" flag="0"/>
			<vel value="0.0575520586391" flag="0"/>
			<psa03 value="0.268089009581201" flag="0"/>
			<psa10 value="0.0229849070122966" flag="0"/>
			<psa30 value="0.00158504406388991" flag="0"/>
		</comp>
		<comp name="--.HGZ" depth="0.0">
			<acc value="0.081132064869054" flag="0"/>
			<vel value="0.0165900510399" flag="0"/>
			<psa03 value="0.113399460074542" flag="0"/>
			<psa10 value="0.0112390567198412" flag="0"/>
			<psa30 value="0.000754743018855857" flag="0"/>
		</comp>
	</station>
	<station code="GRA" name="GRA" netid="IT" source="Italian Strong Motion Network (RAN)" insttype="" lat="46.149" lon="9.3061">
		<comp name="--.HNE" depth="0.0">
			<acc value="0.2409843761103" flag="0"/>
			<vel value="0.0570182478169" flag="0"/>
			<psa03 value="0.160667122575123" flag="0"/>
			<psa10 value="0.0179450550218058" flag="0"/>
			<psa30 value="0.0015726891829382" flag="0"/>
		</comp>
		<comp name="--.HNN" depth="0.0">
			<acc value="0.12028696009194" flag="0"/>
			<vel value="0.0208240156201" flag="0"/>
			<psa03 value="0.114625864234222" flag="0"/>
			<psa10 value="0.00817993500555751" flag="0"/>
			<psa30 value="0.000586192686555317" flag="0"/>
		</comp>
		<comp name="--.HNZ" depth="0.0">
			<acc value="0.12541100444178" flag="0"/>
			<vel value="0.0253290349393" flag="0"/>
			<psa03 value="0.0597552032805977" flag="0"/>
			<psa10 value="0.0104911849895009" flag="0"/>
			<psa30 value="0.000633606400398464" flag="0"/>
		</comp>
	</station>
	<station code="LEC" name="LEC" netid="IT" source="Italian Strong Motion Network (RAN)" insttype="" lat="45.8612" lon="9.4122">
		<comp name="--.HNE" depth="0.0">
			<acc value="0.60206927456544" flag="0"/>
			<vel value="0.100289317373" flag="0"/>
			<psa03 value="0.275857774223903" flag="0"/>
			<psa10 value="0.0328625982358661" flag="0"/>
			<psa30 value="0.00203782145400273" flag="0"/>
		</comp>
		<comp name="--.HNN" depth="0.0">
			<acc value="0.4024945599603" flag="0"/>
			<vel value="0.0754462905703" flag="0"/>
			<psa03 value="0.361768132029897" flag="0"/>
			<psa10 value="0.0167804453721572" flag="0"/>
			<psa30 value="0.00156086642057555" flag="0"/>
		</comp>
		<comp name="--.HNZ" depth="0.0">
			<acc value="0.18811271532624" flag="0"/>
			<vel value="0.0276078550085" flag="0"/>
			<psa03 value="0.112561081619445" flag="0"/>
			<psa10 value="0.0128155149024672" flag="0"/>
			<psa30 value="0.000779426633190003" flag="0"/>
		</comp>
	</station>
	<station code="LUI" name="LUI" netid="IT" source="Italian Strong Motion Network (RAN)" insttype="" lat="45.9991" lon="8.7842">
		<comp name="--.HNE" depth="0.0">
			<acc value="0.8109505343088" flag="0"/>
			<vel value="0.114163673815" flag="0"/>
			<psa03 value="0.220359535237576" flag="0"/>
			<psa10 value="0.010972794706305" flag="0"/>
			<psa30 value="0.00131747185937776" flag="0"/>
		</comp>
		<comp name="--.HNN" depth="0.0">
			<acc value="0.48997500438516" flag="0"/>
			<vel value="0.086006091611" flag="0"/>
			<psa03 value="0.373926604135598" flag="0"/>
			<psa10 value="0.0120813034520614" flag="0"/>
			<psa30 value="0.00120435217825357" flag="0"/>
		</comp>
		<comp name="--.HNZ" depth="0.0">
			<acc value="0.17617338392598" flag="0"/>
			<vel value="0.0344518446479" flag="0"/>
			<psa03 value="0.120535557805737" flag="0"/>
			<psa10 value="0.00824989870280352" flag="0"/>
			<psa30 value="0.00070024623162449" flag="0"/>
		</comp>
	</station>
	<station code="MLBT" name="MLBT" netid="IT" source="Italian Strong Motion Network (RAN)" insttype="" lat="45.6323" lon="10.0993">
		<comp name="--.HNE" depth="0.0">
			<acc value="0.19987045053282" flag="0"/>
			<vel value="0.0697812954091" flag="0"/>
			<psa03 value="0.319318986649087" flag="0"/>
			<psa10 value="0.0356951046254792" flag="0"/>
			<psa30 value="0.00197735765690881" flag="0"/>
		</comp>
		<comp name="--.HNN" depth="0.0">
			<acc value="0.27045513616968" flag="0"/>
			<vel value="0.0879914403764" flag="0"/>
			<psa03 value="0.620239296144258" flag="0"/>
			<psa10 value="0.0220805964811461" flag="0"/>
			<psa30 value="0.00224544729152834" flag="0"/>
		</comp>
		<comp name="--.HNZ" depth="0.0">
			<acc value="0.14345719255962" flag="0"/>
			<vel value="0.0505344146831" flag="0"/>
			<psa03 value="0.193605533749652" flag="0"/>
			<psa10 value="0.0293864929609559" flag="0"/>
			<psa30 value="0.00126217069594598" flag="0"/>
		</comp>
	</station>
	<station code="PTV" name="PTV" netid="IT" source="Italian Strong Motion Network (RAN)" insttype="" lat="45.2741" lon="10.0879">
		<comp name="--.HGE" depth="0.0">
			<acc value="0.24344469850794" flag="0"/>
			<vel value="0.0948819484187" flag="0"/>
			<psa03 value="0.359474938450357" flag="0"/>
