<?xml version="1.0" encoding="UTF-8" standalone="yes"?>
<!DOCTYPE earthquake SYSTEM "stationlist.dtd">
<stationlist created="" xmlns="ch.ethz.sed.shakemap.usgs.xml">
  <station code="CARD" name="CARD" netid="GU" insttype="" lat="44.0261" lon="10.4821">
    <comp name="--.HHZ">
      <acc value="0.0088764946" flag="0"/>
      <vel value="0.0075158325" flag="0"/>
      <psa03 value="0.0230179724" flag="0"/>
      <psa10 value="0.0102509514" flag="0"/>
      <psa30 value="0.0024284826" flag="0"/>
    </comp>
    <comp name="--.HHE">
      <acc value="0.0216684711" flag="0"/>
      <vel value="0.0099884488" flag="0"/>
      <psa03 value="0.0561136748" flag="0"/>
      <psa10 value="0.0178987917" flag="0"/>
      <psa30 value="0.0018557289" flag="0"/>
    </comp>
    <comp name="--.HHN">
      <acc value="0.0223682949" flag="0"/>
      <vel value="0.0144298260" flag="0"/>
      <psa03 value="0.0575513189" flag="0"/>
      <psa10 value="0.0276957704" flag="0"/>
      <psa30 value="0.0026616976" flag="0"/>
    </comp>
  </station>
  <station code="EQUI" name="EQUI" netid="GU" insttype="" lat="44.166" lon="10.153">
    <comp name="--.HHE">
      <acc value="0.0040616942" flag="0"/>
      <vel value="0.0049643220" flag="0"/>
      <psa03 value="0.0110253811" flag="0"/>
      <psa10 value="0.0071813297" flag="0"/>
      <psa30 value="0.0021494184" flag="0"/>
    </comp>
    <comp name="--.HHN">
      <acc value="0.0074255481" flag="0"/>
      <vel value="0.0098031672" flag="0"/>
      <psa03 value="0.0177379054" flag="0"/>
      <psa10 value="0.0223695702" flag="0"/>
      <psa30 value="0.0027739940" flag="0"/>
    </comp>
    <comp name="--.HHZ">
      <acc value="0.0073008610" flag="0"/>
      <vel value="0.0081374995" flag="0"/>
      <psa03 value="0.0189952007" flag="0"/>
      <psa10 value="0.0156692397" flag="0"/>
      <psa30 value="0.0028192465" flag="0"/>
    </comp>
  </station>
  <station code="GRAM" name="GRAM" netid="GU" insttype="" lat="44.4904" lon="10.065">
    <comp name="--.HHN">
      <acc value="0.0210848639" flag="0"/>
      <vel value="0.0207663008" flag="0"/>
      <psa03 value="0.0671788186" flag="0"/>
      <psa10 value="0.0355357340" flag="0"/>
      <psa30 value="0.0060295738" flag="0"/>
    </comp>
    <comp name="--.HHE">
      <acc value="0.0220557701" flag="0"/>
      <vel value="0.0217052929" flag="0"/>
      <psa03 value="0.0696770001" flag="0"/>
      <psa10 value="0.0318730622" flag="0"/>
      <psa30 value="0.0034643875" flag="0"/>
    </comp>
    <comp name="--.HHZ">
      <acc value="0.0112160737" flag="0"/>
      <vel value="0.0090623011" flag="0"/>
      <psa03 value="0.0261189820" flag="0"/>
      <psa10 value="0.0203118034" flag="0"/>
      <psa30 value="0.0028960132" flag="0"/>
    </comp>
  </station>
  <station code="GSCL" name="GSCL" netid="GU" insttype="" lat="44.3506" lon="10.588">
    <comp name="--.HHE">
      <acc value="0.0173679159" flag="0"/>
      <vel value="0.0198024412" flag="0"/>
      <psa03 value="0.0431289107" flag="0"/>
      <psa10 value="0.0325360273" flag="0"/>
      <psa30 value="0.0062283208" flag="0"/>
    </comp>
    <comp name="--.HHN">
      <acc value="0.0215956244" flag="0"/>
      <vel value="0.0188919015" flag="0"/>
      <psa03 value="0.0504121917" flag="0"/>
      <psa10 value="0.0279569960" flag="0"/>
      <psa30 value="0.0040483521" flag="0"/>
    </comp>
    <comp name="--.HHZ">
      <acc value="0.0083030429" flag="0"/>
      <vel value="0.0118338662" flag="0"/>
      <psa03 value="0.0219865604" flag="0"/>
      <psa10 value="0.0205935809" flag="0"/>
      <psa30 value="0.0027827044" flag="0"/>
    </comp>
  </station>
  <station code="MAIM" name="MAIM" netid="GU" insttype="" lat="43.9142" lon="10.4915">
    <comp name="--.HHE">
      <acc value="0.0138817532" flag="0"/>
      <vel value="0.0096656955" flag="0"/>
      <psa03 value="0.0247872933" flag="0"/>
      <psa10 value="0.0190863098" flag="0"/>
      <psa30 value="0.0027775669" flag="0"/>
    </comp>
    <comp name="--.HHN">
      <acc value="0.0140382111" flag="0"/>
      <vel value="0.0116466240" flag="0"/>
      <psa03 value="0.0267914302" flag="0"/>
      <psa10 value="0.0134481753" flag="0"/>
      <psa30 value="0.0030857912" flag="0"/>
    </comp>
    <comp name="--.HHZ">
      <acc value="0.0089472322" flag="0"/>
      <vel value="0.0103692271" flag="0"/>
      <psa03 value="0.0257742017" flag="0"/>
      <psa10 value="0.0160519785" flag="0"/>
      <psa30 value="0.0042857951" flag="0"/>
    </comp>
  </station>
  <station code="POPM" name="POPM" netid="GU" insttype="" lat="44.045" lon="10.757">
    <comp name="--.HHE">
      <acc value="0.0438134750" flag="0"/>
      <vel value="0.0248207738" flag="0"/>
      <psa03 value="0.1271674855" flag="0"/>
      <psa10 value="0.0303669860" flag="0"/>
      <psa30 value="0.0028820145" flag="0"/>
    </comp>
    <comp name="--.HHN">
      <acc value="0.0620633342" flag="0"/>
      <vel value="0.0241265124" flag="0"/>
      <psa03 value="0.1286903659" flag="0"/>
      <psa10 value="0.0280230422" flag="0"/>
      <psa30 value="0.0046153990" flag="0"/>
    </comp>
    <comp name="--.HHZ">
      <acc value="0.0220011900" flag="0"/>
      <vel value="0.0183043188" flag="0"/>
      <psa03 value="0.0904868144" flag="0"/>
      <psa10 value="0.0339408139" flag="0"/>
      <psa30 value="0.0050384630" flag="0"/>
    </comp>
  </station>
  <station code="APEC" name="APEC" netid="IV" insttype="" lat="43.5585" lon="12.4199">
    <comp name="--.HHZ">
      <acc value="0.0649093774" flag="0"/>
      <vel value="0.0710649311" flag="0"/>
      <psa03 value="0.1604833913" flag="0"/>
      <psa10 value="0.0891948721" flag="0"/>
      <psa30 value="0.0258731243" flag="0"/>
    </comp>
    <comp name="--.HHN">
      <acc value="0.0773247219" flag="0"/>
      <vel value="0.0734496223" flag="0"/>
      <psa03 value="0.3020213440" flag="0"/>
      <psa10 value="0.1285136878" flag="0"/>
      <psa30 value="0.0333792397" flag="0"/>
    </comp>
    <comp name="--.HHE">
      <acc value="0.0799105630" flag="0"/>
      <vel value="0.0823294081" flag="0"/>
      <psa03 value="0.2079588696" flag="0"/>
      <psa10 value="0.1679275216" flag="0"/>
      <psa30 value="0.0308667466" flag="0"/>
    </comp>
  </station>
  <station code="ARCI" name="ARCI" netid="IV" insttype="" lat="42.8519" lon="11.4754">
    <comp name="--.HHE">
      <acc value="0.0071689876" flag="0"/>
      <vel value="0.0120100588" flag="0"/>
      <psa03 value="0.0170162314" flag="0"/>
      <psa10 value="0.0178825378" flag="0"/>
      <psa30 value="0.0097075151" flag="0"/>
    </comp>
    <comp name="--.HHN">
      <acc value="0.0088943554" flag="0"/>
      <vel value="0.0171190386" flag="0"/>
      <psa03 value="0.0279481761" flag="0"/>
      <psa10 value="0.0298314197" flag="0"/>
      <psa30 value="0.0062833871" flag="0"/>
    </comp>
    <comp name="--.HHZ">
      <acc value="0.0067379177" flag="0"/>
      <vel value="0.0073401182" flag="0"/>
      <psa03 value="0.0205256310" flag="0"/>
      <psa10 value="0.0084166011" flag="0"/>
      <psa30 value="0.0031923580" flag="0"/>
    </comp>
  </station>
  <station code="ARVD" name="ARVD" netid="IV" insttype="" lat="43.4981" lon="12.9415">
    <comp name="--.HHE">
      <acc value="0.0254653475" flag="0"/>
      <vel value="0.0303701058" flag="0"/>
      <psa03 value="0.0650915678" flag="0"/>
      <psa10 value="0.0327107786" flag="0"/>
      <psa30 value="0.0070796884" flag="0"/>
    </comp>
    <comp name="--.HHN">
      <acc value="0.0278899658" flag="0"/>
      <vel value="0.0302809492" flag="0"/>
      <psa03 value="0.0663483417" flag="0"/>
      <psa10 value="0.0354283207" flag="0"/>
      <psa30 value="0.0103398733" flag="0"/>
    </comp>
    <comp name="--.HHZ">
      <acc value="0.0224585673" flag="0"/>
      <vel value="0.0233704892" flag="0"/>
      <psa03 value="0.0688670193" flag="0"/>
      <psa10 value="0.0309023610" flag="0"/>
      <psa30 value="0.0148549544" flag="0"/>
    </comp>
  </station>
  <station code="ATCC" name="ATCC" netid="IV" insttype="" lat="43.1851" lon="12.6399">
    <comp name="--.HNE">
      <acc value="0.0486933932" flag="0"/>
      <vel value="0.0717225697" flag="0"/>
      <psa03 value="0.1649719319" flag="0"/>
      <psa10 value="0.1291588717" flag="0"/>
      <psa30 value="0.0184235346" flag="0"/>
    </comp>
    <comp name="--.HNN">
      <acc value="0.0443628348" flag="0"/>
      <vel value="0.0419581419" flag="0"/>
      <psa03 value="0.1242300050" flag="0"/>
      <psa10 value="0.0542932493" flag="0"/>
      <psa30 value="0.0108028345" flag="0"/>
    </comp>
    <comp name="--.HNZ">
      <acc value="0.0247168425" flag="0"/>
      <vel value="0.0379617486" flag="0"/>
      <psa03 value="0.0659781479" flag="0"/>
      <psa10 value="0.0560320370" flag="0"/>
      <psa30 value="0.0235959903" flag="0"/>
    </comp>
  </station>
  <station code="ATFO" name="ATFO" netid="IV" insttype="" lat="43.3666" lon="12.5715">
    <comp name="--.HHE">
      <acc value="0.0482789204" flag="0"/>
      <vel value="0.0595921759" flag="0"/>
      <psa03 value="0.0964500194" flag="0"/>
      <psa10 value="0.0888394389" flag="0"/>
      <psa30 value="0.0218407406" flag="0"/>
    </comp>
    <comp name="--.HHN">
      <acc value="0.0383022724" flag="0"/>
      <vel value="0.0434570590" flag="0"/>
      <psa03 value="0.1063032258" flag="0"/>
      <psa10 value="0.0689256396" flag="0"/>
      <psa30 value="0.0118299210" flag="0"/>
    </comp>
    <comp name="--.HHZ">
      <acc value="0.0221093652" flag="0"/>
      <vel value="0.0394176301" flag="0"/>
      <psa03 value="0.0633086427" flag="0"/>
      <psa10 value="0.0280275812" flag="0"/>
      <psa30 value="0.0149487875" flag="0"/>
    </comp>
  </station>
  <station code="ATMI" name="ATMI" netid="IV" insttype="" lat="43.3342" lon="12.268">
    <comp name="--.HHE">
      <acc value="0.1181864010" flag="0"/>
      <vel value="0.0771255999" flag="0"/>
      <psa03 value="0.4519421860" flag="0"/>
      <psa10 value="0.1018087777" flag="0"/>
      <psa30 value="0.0286097187" flag="0"/>
    </comp>
    <comp name="--.HHN">
      <acc value="0.1277568524" flag="0"/>
      <vel value="0.0966251532" flag="0"/>
      <psa03 value="0.3934214113" flag="0"/>
      <psa10 value="0.1241981360" flag="0"/>
      <psa30 value="0.0326757746" flag="0"/>
    </comp>
    <comp name="--.HHZ">
      <acc value="0.0586518252" flag="0"/>
      <vel value="0.0403404523" flag="0"/>
      <psa03 value="0.2641362407" flag="0"/>
      <psa10 value="0.0530495903" flag="0"/>
      <psa30 value="0.0189903447" flag="0"/>
    </comp>
  </station>
  <station code="ATPC" name="ATPC" netid="IV" insttype="" lat="43.4807" lon="12.457">
    <comp name="--.HHE">
      <acc value="0.0914533323" flag="0"/>
      <vel value="0.0825414560" flag="0"/>
      <psa03 value="0.2001810817" flag="0"/>
      <psa10 value="0.1360057025" flag="0"/>
      <psa30 value="0.0290018881" flag="0"/>
    </comp>
    <comp name="--.HHN">
      <acc value="0.0782873566" flag="0"/>
      <vel value="0.0764727057" flag="0"/>
      <psa03 value="0.1435480634" flag="0"/>
      <psa10 value="0.1003140680" flag="0"/>
      <psa30 value="0.0234303297" flag="0"/>
    </comp>
    <comp name="--.HHZ">
      <acc value="0.0347396990" flag="0"/>
      <vel value="0.0453073673" flag="0"/>
      <psa03 value="0.1087725023" flag="0"/>
      <psa10 value="0.0588360528" flag="0"/>
      <psa30 value="0.0226400429" flag="0"/>
    </comp>
  </station>
  <station code="ATVO" name="ATVO" netid="IV" insttype="" lat="43.3821" lon="12.4066">
    <comp name="--.HHE">
      <acc value="0.0507051045" flag="0"/>
      <vel value="0.0659550164" flag="0"/>
      <psa03 value="0.1441226954" flag="0"/>
      <psa10 value="0.0857420243" flag="0"/>
      <psa30 value="0.0178824252" flag="0"/>
    </comp>
    <comp name="--.HHN">
      <acc value="0.0669544567" flag="0"/>
      <vel value="0.0727433658" flag="0"/>
      <psa03 value="0.1702820535" flag="0"/>
      <psa10 value="0.1102009254" flag="0"/>
      <psa30 value="0.0161947025" flag="0"/>
    </comp>
    <comp name="--.HHZ">
      <acc value="0.0342339773" flag="0"/>
      <vel value="0.0577595075" flag="0"/>
      <psa03 value="0.0819661134" flag="0"/>
      <psa10 value="0.0589385915" flag="0"/>
      <psa30 value="0.0161504253" flag="0"/>
    </comp>
  </station>
  <station code="BOSL" name="BOSL" netid="IV" insttype="" lat="43.931" lon="11.3743">
    <comp name="--.HHE">
      <acc value="0.1258741394" flag="0"/>
      <vel value="0.0414432394" flag="0"/>
      <psa03 value="0.1332055435" flag="0"/>
      <psa10 value="0.0371623178" flag="0"/>
      <psa30 value="0.0054867003" flag="0"/>
    </comp>
    <comp name="--.HHN">
      <acc value="0.1668131462" flag="0"/>
      <vel value="0.0659263102" flag="0"/>
      <psa03 value="0.2312856438" flag="0"/>
      <psa10 value="0.0555184716" flag="0"/>
      <psa30 value="0.0056734082" flag="0"/>
    </comp>
    <comp name="--.HHZ">
      <acc value="0.0954567745" flag="0"/>
      <vel value="0.0327666675" flag="0"/>
      <psa03 value="0.1193185675" flag="0"/>
      <psa10 value="0.0370659109" flag="0"/>
      <psa30 value="0.0036578845" flag="0"/>
    </comp>
  </station>
  <station code="BOZZ" name="BOZZ" netid="IV" insttype="" lat="45.1071" lon="10.482">
    <comp name="--.HHE">
      <acc value="0.0483891422" flag="0"/>
      <vel value="0.0368696946" flag="0"/>
      <psa03 value="0.1546201806" flag="0"/>
      <psa10 value="0.0427435954" flag="0"/>
      <psa30 value="0.0066008164" flag="0"/>
    </comp>
    <comp name="--.HHN">
      <acc value="0.0384413181" flag="0"/>
      <vel value="0.0278977767" flag="0"/>
      <psa03 value="0.0953894618" flag="0"/>
      <psa10 value="0.0646637605" flag="0"/>
      <psa30 value="0.0101734462" flag="0"/>
    </comp>
    <comp name="--.HHZ">
      <acc value="0.0187836667" flag="0"/>
      <vel value="0.0090725771" flag="0"/>
      <psa03 value="0.0431205020" flag="0"/>
      <psa10 value="0.0069339418" flag="0"/>
      <psa30 value="0.0015604235" flag="0"/>
    </comp>
  </station>
  <station code="CAFI" name="CAFI" netid="IV" insttype="" lat="43.3292" lon="11.9663">
    <comp name="--.HHE">
      <acc value="0.0611188717" flag="0"/>
      <vel value="0.0731568401" flag="0"/>
      <psa03 value="0.1082555159" flag="0"/>
      <psa10 value="0.0793239677" flag="0"/>
      <psa30 value="0.0167262998" flag="0"/>
    </comp>
    <comp name="--.HHZ">
      <acc value="0.0374644829" flag="0"/>
      <vel value="0.0427882524" flag="0"/>
      <psa03 value="0.0956693745" flag="0"/>
      <psa10 value="0.0574566197" flag="0"/>
      <psa30 value="0.0292782399" flag="0"/>
    </comp>
    <comp name="--.HHN">
      <acc value="0.0418647821" flag="0"/>
      <vel value="0.0489023203" flag="0"/>
      <psa03 value="0.0830069076" flag="0"/>
      <psa10 value="0.0428696676" flag="0"/>
      <psa30 value="0.0224115627" flag="0"/>
    </comp>
  </station>
  <station code="CAVE" name="CAVE" netid="IV" insttype="" lat="44.8658" lon="11.0031">
    <comp name="--.HHE">
      <acc value="0.0611707713" flag="0"/>
      <vel value="0.0592952945" flag="0"/>
      <psa03 value="0.1451229497" flag="0"/>
      <psa10 value="0.1077920986" flag="0"/>
      <psa30 value="0.0104275988" flag="0"/>
    </comp>
    <comp name="--.HHN">
      <acc value="0.0570315271" flag="0"/>
      <vel value="0.0540145588" flag="0"/>
      <psa03 value="0.1606487636" flag="0"/>
      <psa10 value="0.1090178754" flag="0"/>
      <psa30 value="0.0091075293" flag="0"/>
    </comp>
    <comp name="--.HHZ">
      <acc value="0.0132048167" flag="0"/>
      <vel value="0.0156710696" flag="0"/>
      <psa03 value="0.0375571562" flag="0"/>
      <psa10 value="0.0349562015" flag="0"/>
      <psa30 value="0.0030462300" flag="0"/>
    </comp>
  </station>
  <station code="CRE" name="CRE" netid="IV" insttype="" lat="43.6189" lon="11.9517">
    <comp name="--.HHE">
      <acc value="0.2768980879" flag="0"/>
      <vel value="0.1159237292" flag="0"/>
      <psa03 value="0.6314676460" flag="0"/>
      <psa10 value="0.0635630684" flag="0"/>
      <psa30 value="0.0415573984" flag="0"/>
    </comp>
    <comp name="--.HHN">
      <acc value="0.5016385803" flag="0"/>
      <vel value="0.2226438483" flag="0"/>
      <psa03 value="1.5072486298" flag="0"/>
      <psa10 value="0.0844245053" flag="0"/>
      <psa30 value="0.0444668369" flag="0"/>
    </comp>
    <comp name="--.HHZ">
      <acc value="0.1797073033" flag="0"/>
      <vel value="0.0828765078" flag="0"/>
      <psa03 value="0.3322887575" flag="0"/>
      <psa10 value="0.0658380694" flag="0"/>
      <psa30 value="0.0502022994" flag="0"/>
    </comp>
  </station>
  <station code="CRMI" name="CRMI" netid="IV" insttype="" lat="43.7956" lon="10.9795">
    <comp name="--.HHE">
      <acc value="0.0236700745" flag="0"/>
      <vel value="0.0214658861" flag="0"/>
      <psa03 value="0.0888860041" flag="0"/>
      <psa10 value="0.0250436779" flag="0"/>
      <psa30 value="0.0056362225" flag="0"/>
    </comp>
    <comp name="--.HHN">
      <acc value="0.0392618934" flag="0"/>
      <vel value="0.0414465539" flag="0"/>
      <psa03 value="0.0969839954" flag="0"/>
      <psa10 value="0.0336001891" flag="0"/>
      <psa30 value="0.0086030536" flag="0"/>
    </comp>
    <comp name="--.HHZ">
      <acc value="0.0293797842" flag="0"/>
      <vel value="0.0167332027" flag="0"/>
      <psa03 value="0.0590625251" flag="0"/>
      <psa10 value="0.0147763874" flag="0"/>
      <psa30 value="0.0065422673" flag="0"/>
    </comp>
  </station>
  <station code="CRTC" name="CRTC" netid="IV" insttype="" lat="43.7685" lon="12.883">
    <comp name="--.HHE">
      <acc value="0.2033294895" flag="0"/>
      <vel value="0.1779425279" flag="0"/>
      <psa03 value="0.5158879243" flag="0"/>
      <psa10 value="0.3305549175" flag="0"/>
      <psa30 value="0.0240252640" flag="0"/>
    </comp>
    <comp name="--.HHN">
      <acc value="0.1811498981" flag="0"/>
      <vel value="0.1753065042" flag="0"/>
      <psa03 value="0.4455761288" flag="0"/>
      <psa10 value="0.2590584084" flag="0"/>
      <psa30 value="0.0279791268" flag="0"/>
    </comp>
    <comp name="--.HHZ">
      <acc value="0.0794193962" flag="0"/>
      <vel value="0.0626057724" flag="0"/>
      <psa03 value="0.1939404476" flag="0"/>
      <psa10 value="0.0967045958" flag="0"/>
      <psa30 value="0.0158732756" flag="0"/>
    </comp>
  </station>
  <station code="CSNT" name="CSNT" netid="IV" insttype="" lat="43.4731" lon="11.2902">
    <comp name="--.HHE">
      <acc value="0.0611843188" flag="0"/>
      <vel value="0.0443788054" flag="0"/>
      <psa03 value="0.1146176688" flag="0"/>
      <psa10 value="0.0619916749" flag="0"/>
      <psa30 value="0.0097491901" flag="0"/>
    </comp>
    <comp name="--.HHN">
      <acc value="0.0702893166" flag="0"/>
      <vel value="0.0580897293" flag="0"/>
      <psa03 value="0.1502666482" flag="0"/>
      <psa10 value="0.1003981685" flag="0"/>
      <psa30 value="0.0158364169" flag="0"/>
    </comp>
    <comp name="--.HHZ">
      <acc value="0.0419705191" flag="0"/>
      <vel value="0.0345627218" flag="0"/>
      <psa03 value="0.0887433761" flag="0"/>
      <psa10 value="0.0583372943" flag="0"/>
      <psa30 value="0.0143319091" flag="0"/>
    </comp>
  </station>
  <station code="FAEN" name="FAEN" netid="IV" insttype="" lat="44.2895" lon="11.877">
    <comp name="--.HNN">
      <acc value="1.4182504349" flag="0"/>
      <vel value="1.1243909948" flag="0"/>
      <psa03 value="2.9077248515" flag="0"/>
      <psa10 value="1.5949019668" flag="0"/>
      <psa30 value="0.4336619035" flag="0"/>
    </comp>
    <comp name="--.HNE">
      <acc value="2.0139652142" flag="0"/>
      <vel value="1.0051295239" flag="0"/>
      <psa03 value="3.2268235089" flag="0"/>
      <psa10 value="1.6322988650" flag="0"/>
      <psa30 value="0.3117137382" flag="0"/>
    </comp>
