<?xml version="1.0" encoding="UTF-8" standalone="yes"?>
<!DOCTYPE earthquake SYSTEM "stationlist.dtd">
<stationlist created="" xmlns="ch.ethz.sed.shakemap.usgs.xml">
  <station code="CARD" name="CARD" netid="GU" insttype="" lat="44.0261" lon="10.4821">
    <comp name="--.HHE">
      <acc value="0.0220455296" flag="0"/>
      <vel value="0.0121216159" flag="0"/>
      <psa03 value="0.0564278777" flag="0"/>
      <psa10 value="0.0179317812" flag="0"/>
      <psa30 value="0.0026129229" flag="0"/>
    </comp>
    <comp name="--.HHZ">
      <acc value="0.0088749574" flag="0"/>
      <vel value="0.0082754227" flag="0"/>
      <psa03 value="0.0229523058" flag="0"/>
      <psa10 value="0.0101213248" flag="0"/>
      <psa30 value="0.0029877562" flag="0"/>
    </comp>
    <comp name="--.HHN">
      <acc value="0.0223207324" flag="0"/>
      <vel value="0.0150776083" flag="0"/>
      <psa03 value="0.0576734298" flag="0"/>
      <psa10 value="0.0276256000" flag="0"/>
      <psa30 value="0.0031975044" flag="0"/>
    </comp>
  </station>
  <station code="EQUI" name="EQUI" netid="GU" insttype="" lat="44.166" lon="10.153">
    <comp name="--.HHE">
      <acc value="0.0039020047" flag="0"/>
      <vel value="0.0055444219" flag="0"/>
      <psa03 value="0.0109388155" flag="0"/>
      <psa10 value="0.0071982963" flag="0"/>
      <psa30 value="0.0024205091" flag="0"/>
    </comp>
    <comp name="--.HHN">
      <acc value="0.0072400729" flag="0"/>
      <vel value="0.0108710867" flag="0"/>
      <psa03 value="0.0175507733" flag="0"/>
      <psa10 value="0.0224474268" flag="0"/>
      <psa30 value="0.0032970937" flag="0"/>
    </comp>
    <comp name="--.HHZ">
      <acc value="0.0072202177" flag="0"/>
      <vel value="0.0095077146" flag="0"/>
      <psa03 value="0.0188744018" flag="0"/>
      <psa10 value="0.0155481651" flag="0"/>
      <psa30 value="0.0035522479" flag="0"/>
    </comp>
  </station>
  <station code="GRAM" name="GRAM" netid="GU" insttype="" lat="44.4904" lon="10.065">
    <comp name="--.HHE">
      <acc value="0.0220161928" flag="0"/>
      <vel value="0.0205430919" flag="0"/>
      <psa03 value="0.0695994717" flag="0"/>
      <psa10 value="0.0318898409" flag="0"/>
      <psa30 value="0.0040310149" flag="0"/>
    </comp>
    <comp name="--.HHZ">
      <acc value="0.0111845405" flag="0"/>
      <vel value="0.0095744686" flag="0"/>
      <psa03 value="0.0261187096" flag="0"/>
      <psa10 value="0.0204288103" flag="0"/>
      <psa30 value="0.0032994821" flag="0"/>
    </comp>
    <comp name="--.HHN">
      <acc value="0.0210083819" flag="0"/>
      <vel value="0.0234639829" flag="0"/>
      <psa03 value="0.0672110148" flag="0"/>
      <psa10 value="0.0357310068" flag="0"/>
      <psa30 value="0.0064499390" flag="0"/>
    </comp>
  </station>
  <station code="GSCL" name="GSCL" netid="GU" insttype="" lat="44.3506" lon="10.588">
    <comp name="--.HHE">
      <acc value="0.0172146911" flag="0"/>
      <vel value="0.0211909126" flag="0"/>
      <psa03 value="0.0434557205" flag="0"/>
      <psa10 value="0.0321334219" flag="0"/>
      <psa30 value="0.0068983787" flag="0"/>
    </comp>
    <comp name="--.HHN">
      <acc value="0.0215645200" flag="0"/>
      <vel value="0.0195010224" flag="0"/>
      <psa03 value="0.0503721324" flag="0"/>
      <psa10 value="0.0279132746" flag="0"/>
      <psa30 value="0.0045677673" flag="0"/>
    </comp>
    <comp name="--.HHZ">
      <acc value="0.0084152335" flag="0"/>
      <vel value="0.0133660645" flag="0"/>
      <psa03 value="0.0220990233" flag="0"/>
      <psa10 value="0.0206201291" flag="0"/>
      <psa30 value="0.0036045617" flag="0"/>
    </comp>
  </station>
  <station code="MAIM" name="MAIM" netid="GU" insttype="" lat="43.9142" lon="10.4915">
    <comp name="--.HHE">
      <acc value="0.0140887837" flag="0"/>
      <vel value="0.0112183905" flag="0"/>
      <psa03 value="0.0251169087" flag="0"/>
      <psa10 value="0.0191477318" flag="0"/>
      <psa30 value="0.0032550163" flag="0"/>
    </comp>
    <comp name="--.HHN">
      <acc value="0.0141457834" flag="0"/>
      <vel value="0.0125658377" flag="0"/>
      <psa03 value="0.0267105764" flag="0"/>
      <psa10 value="0.0135600713" flag="0"/>
      <psa30 value="0.0039355375" flag="0"/>
    </comp>
    <comp name="--.HHZ">
      <acc value="0.0092134560" flag="0"/>
      <vel value="0.0117892359" flag="0"/>
      <psa03 value="0.0257901875" flag="0"/>
      <psa10 value="0.0159887428" flag="0"/>
      <psa30 value="0.0047360873" flag="0"/>
    </comp>
  </station>
  <station code="POPM" name="POPM" netid="GU" insttype="" lat="44.045" lon="10.757">
    <comp name="--.HHE">
      <acc value="0.0438674157" flag="0"/>
      <vel value="0.0257284216" flag="0"/>
      <psa03 value="0.1268795941" flag="0"/>
      <psa10 value="0.0303691793" flag="0"/>
      <psa30 value="0.0032725127" flag="0"/>
    </comp>
    <comp name="--.HHZ">
      <acc value="0.0221443270" flag="0"/>
      <vel value="0.0172343477" flag="0"/>
      <psa03 value="0.0904149417" flag="0"/>
      <psa10 value="0.0337841204" flag="0"/>
      <psa30 value="0.0059026556" flag="0"/>
    </comp>
    <comp name="--.HHN">
      <acc value="0.0618695258" flag="0"/>
      <vel value="0.0253554195" flag="0"/>
      <psa03 value="0.1288387001" flag="0"/>
      <psa10 value="0.0277882729" flag="0"/>
      <psa30 value="0.0053611715" flag="0"/>
    </comp>
  </station>
  <station code="AOI" name="AOI" netid="IV" insttype="" lat="43.5502" lon="13.602">
    <comp name="--.HHE">
      <acc value="0.0200650316" flag="0"/>
      <vel value="0.0256506121" flag="0"/>
      <psa03 value="0.0387040520" flag="0"/>
      <psa10 value="0.0364319699" flag="0"/>
      <psa30 value="0.0139653932" flag="0"/>
    </comp>
    <comp name="--.HHN">
      <acc value="0.0242941788" flag="0"/>
      <vel value="0.0237395554" flag="0"/>
      <psa03 value="0.0557849997" flag="0"/>
      <psa10 value="0.0359128662" flag="0"/>
      <psa30 value="0.0081867385" flag="0"/>
    </comp>
    <comp name="--.HHZ">
      <acc value="0.0221654303" flag="0"/>
      <vel value="0.0262851238" flag="0"/>
      <psa03 value="0.0354630988" flag="0"/>
      <psa10 value="0.0283919657" flag="0"/>
      <psa30 value="0.0099010765" flag="0"/>
    </comp>
  </station>
  <station code="APEC" name="APEC" netid="IV" insttype="" lat="43.5585" lon="12.4199">
    <comp name="--.HHN">
      <acc value="0.0772240620" flag="0"/>
      <vel value="0.0738369362" flag="0"/>
      <psa03 value="0.3018948289" flag="0"/>
      <psa10 value="0.1284013048" flag="0"/>
      <psa30 value="0.0400404121" flag="0"/>
    </comp>
    <comp name="--.HHE">
      <acc value="0.0803140452" flag="0"/>
      <vel value="0.0828083238" flag="0"/>
      <psa03 value="0.2086633609" flag="0"/>
      <psa10 value="0.1685407286" flag="0"/>
      <psa30 value="0.0363813972" flag="0"/>
    </comp>
    <comp name="--.HHZ">
      <acc value="0.0659630946" flag="0"/>
      <vel value="0.0777392206" flag="0"/>
      <psa03 value="0.1609776766" flag="0"/>
      <psa10 value="0.0896535573" flag="0"/>
      <psa30 value="0.0309553154" flag="0"/>
    </comp>
  </station>
  <station code="ARCI" name="ARCI" netid="IV" insttype="" lat="42.8519" lon="11.4754">
    <comp name="--.HHE">
      <acc value="0.0071885499" flag="0"/>
      <vel value="0.0169911400" flag="0"/>
      <psa03 value="0.0173781451" flag="0"/>
      <psa10 value="0.0175998173" flag="0"/>
      <psa30 value="0.0116653784" flag="0"/>
    </comp>
    <comp name="--.HHZ">
      <acc value="0.0067488326" flag="0"/>
      <vel value="0.0076977631" flag="0"/>
      <psa03 value="0.0204449447" flag="0"/>
      <psa10 value="0.0083457081" flag="0"/>
      <psa30 value="0.0036175921" flag="0"/>
    </comp>
    <comp name="--.HHN">
      <acc value="0.0090832500" flag="0"/>
      <vel value="0.0220551858" flag="0"/>
      <psa03 value="0.0276343465" flag="0"/>
      <psa10 value="0.0295192018" flag="0"/>
      <psa30 value="0.0073835727" flag="0"/>
    </comp>
  </station>
  <station code="ARVD" name="ARVD" netid="IV" insttype="" lat="43.4981" lon="12.9415">
    <comp name="--.HHN">
      <acc value="0.0282807002" flag="0"/>
      <vel value="0.0339409305" flag="0"/>
      <psa03 value="0.0663196259" flag="0"/>
      <psa10 value="0.0353487702" flag="0"/>
      <psa30 value="0.0126677188" flag="0"/>
    </comp>
    <comp name="--.HHZ">
      <acc value="0.0224299935" flag="0"/>
      <vel value="0.0260581762" flag="0"/>
      <psa03 value="0.0690143146" flag="0"/>
      <psa10 value="0.0309847036" flag="0"/>
      <psa30 value="0.0180662369" flag="0"/>
    </comp>
    <comp name="--.HHE">
      <acc value="0.0256814251" flag="0"/>
      <vel value="0.0312250553" flag="0"/>
      <psa03 value="0.0648385477" flag="0"/>
      <psa10 value="0.0328170626" flag="0"/>
      <psa30 value="0.0093966662" flag="0"/>
    </comp>
  </station>
  <station code="ASSB" name="ASSB" netid="IV" insttype="" lat="43.0426" lon="12.6587">
    <comp name="--.HHZ">
      <acc value="0.0140450761" flag="0"/>
      <vel value="0.0266775073" flag="0"/>
      <psa03 value="0.0333722945" flag="0"/>
      <psa10 value="0.0241850447" flag="0"/>
      <psa30 value="0.0101379806" flag="0"/>
    </comp>
    <comp name="--.HHN">
      <acc value="0.0214026609" flag="0"/>
      <vel value="0.0342607492" flag="0"/>
      <psa03 value="0.0458579198" flag="0"/>
      <psa10 value="0.0490730493" flag="0"/>
      <psa30 value="0.0178474950" flag="0"/>
    </comp>
    <comp name="--.HHE">
      <acc value="0.0209640843" flag="0"/>
      <vel value="0.0367082551" flag="0"/>
      <psa03 value="0.0563811407" flag="0"/>
      <psa10 value="0.0227180898" flag="0"/>
      <psa30 value="0.0227953401" flag="0"/>
    </comp>
  </station>
  <station code="ATCC" name="ATCC" netid="IV" insttype="" lat="43.1851" lon="12.6399">
    <comp name="--.HNE">
      <acc value="0.0484971561" flag="0"/>
      <vel value="0.0743978836" flag="0"/>
      <psa03 value="0.1647883088" flag="0"/>
      <psa10 value="0.1296260489" flag="0"/>
      <psa30 value="0.0202408137" flag="0"/>
    </comp>
    <comp name="--.HNZ">
      <acc value="0.0252280828" flag="0"/>
      <vel value="0.0441953219" flag="0"/>
      <psa03 value="0.0660367822" flag="0"/>
      <psa10 value="0.0563472994" flag="0"/>
      <psa30 value="0.0272374898" flag="0"/>
    </comp>
    <comp name="--.HNN">
      <acc value="0.0445483926" flag="0"/>
      <vel value="0.0513718207" flag="0"/>
      <psa03 value="0.1243796318" flag="0"/>
      <psa10 value="0.0541885925" flag="0"/>
      <psa30 value="0.0131454744" flag="0"/>
    </comp>
  </station>
  <station code="ATFO" name="ATFO" netid="IV" insttype="" lat="43.3666" lon="12.5715">
    <comp name="--.HHE">
      <acc value="0.0487219684" flag="0"/>
      <vel value="0.0639785233" flag="0"/>
      <psa03 value="0.0966305178" flag="0"/>
      <psa10 value="0.0894636115" flag="0"/>
      <psa30 value="0.0240175563" flag="0"/>
    </comp>
    <comp name="--.HHZ">
      <acc value="0.0231586178" flag="0"/>
      <vel value="0.0475776817" flag="0"/>
      <psa03 value="0.0630280305" flag="0"/>
      <psa10 value="0.0278210414" flag="0"/>
      <psa30 value="0.0164900574" flag="0"/>
    </comp>
    <comp name="--.HHN">
      <acc value="0.0385018818" flag="0"/>
      <vel value="0.0468526556" flag="0"/>
      <psa03 value="0.1062930438" flag="0"/>
      <psa10 value="0.0694382483" flag="0"/>
      <psa30 value="0.0131785509" flag="0"/>
    </comp>
  </station>
  <station code="ATMI" name="ATMI" netid="IV" insttype="" lat="43.3342" lon="12.268">
    <comp name="--.HHZ">
      <acc value="0.0591053051" flag="0"/>
      <vel value="0.0443138661" flag="0"/>
      <psa03 value="0.2641725251" flag="0"/>
      <psa10 value="0.0533093095" flag="0"/>
      <psa30 value="0.0213781120" flag="0"/>
    </comp>
    <comp name="--.HHE">
      <acc value="0.1180412622" flag="0"/>
      <vel value="0.0796996215" flag="0"/>
      <psa03 value="0.4517343236" flag="0"/>
      <psa10 value="0.1012360145" flag="0"/>
      <psa30 value="0.0338343439" flag="0"/>
    </comp>
    <comp name="--.HHN">
      <acc value="0.1280528525" flag="0"/>
      <vel value="0.1088764065" flag="0"/>
      <psa03 value="0.3937586216" flag="0"/>
      <psa10 value="0.1272873324" flag="0"/>
      <psa30 value="0.0361519337" flag="0"/>
    </comp>
  </station>
  <station code="ATPC" name="ATPC" netid="IV" insttype="" lat="43.4807" lon="12.457">
    <comp name="--.HHE">
      <acc value="0.0914918304" flag="0"/>
      <vel value="0.0908681999" flag="0"/>
      <psa03 value="0.2007353655" flag="0"/>
      <psa10 value="0.1366053132" flag="0"/>
      <psa30 value="0.0343734439" flag="0"/>
    </comp>
    <comp name="--.HHN">
      <acc value="0.0788437954" flag="0"/>
      <vel value="0.0805466602" flag="0"/>
      <psa03 value="0.1439711115" flag="0"/>
      <psa10 value="0.1015085418" flag="0"/>
      <psa30 value="0.0252945702" flag="0"/>
    </comp>
    <comp name="--.HHZ">
      <acc value="0.0355515068" flag="0"/>
      <vel value="0.0488797174" flag="0"/>
      <psa03 value="0.1093082497" flag="0"/>
      <psa10 value="0.0585231405" flag="0"/>
      <psa30 value="0.0263148819" flag="0"/>
    </comp>
  </station>
  <station code="ATPI" name="ATPI" netid="IV" insttype="" lat="43.4507" lon="12.4022">
    <comp name="--.HNN">
      <acc value="0.0532215021" flag="0"/>
      <vel value="0.0584941056" flag="0"/>
      <psa03 value="0.1375853742" flag="0"/>
      <psa10 value="0.0963987155" flag="0"/>
      <psa30 value="0.0245050116" flag="0"/>
    </comp>
    <comp name="--.HNE">
      <acc value="0.0436774900" flag="0"/>
      <vel value="0.0526423462" flag="0"/>
      <psa03 value="0.1057500034" flag="0"/>
      <psa10 value="0.0647596851" flag="0"/>
      <psa30 value="0.0263190416" flag="0"/>
    </comp>
    <comp name="--.HNZ">
      <acc value="0.0282797823" flag="0"/>
      <vel value="0.0364023374" flag="0"/>
      <psa03 value="0.0613658144" flag="0"/>
      <psa10 value="0.0562202997" flag="0"/>
      <psa30 value="0.0169702813" flag="0"/>
    </comp>
  </station>
  <station code="ATVO" name="ATVO" netid="IV" insttype="" lat="43.3821" lon="12.4066">
    <comp name="--.HHE">
      <acc value="0.0509493515" flag="0"/>
      <vel value="0.0758965522" flag="0"/>
      <psa03 value="0.1438593947" flag="0"/>
      <psa10 value="0.0857383465" flag="0"/>
      <psa30 value="0.0215619764" flag="0"/>
    </comp>
    <comp name="--.HHN">
      <acc value="0.0673048264" flag="0"/>
      <vel value="0.0759637932" flag="0"/>
      <psa03 value="0.1697319252" flag="0"/>
      <psa10 value="0.1102723987" flag="0"/>
      <psa30 value="0.0191534926" flag="0"/>
    </comp>
    <comp name="--.HHZ">
      <acc value="0.0340222320" flag="0"/>
      <vel value="0.0580780960" flag="0"/>
      <psa03 value="0.0813651868" flag="0"/>
      <psa10 value="0.0594699974" flag="0"/>
      <psa30 value="0.0194430392" flag="0"/>
    </comp>
  </station>
  <station code="BOSL" name="BOSL" netid="IV" insttype="" lat="43.931" lon="11.3743">
    <comp name="--.HHE">
      <acc value="0.1258542371" flag="0"/>
      <vel value="0.0426876755" flag="0"/>
      <psa03 value="0.1332306941" flag="0"/>
      <psa10 value="0.0372066804" flag="0"/>
      <psa30 value="0.0068518018" flag="0"/>
    </comp>
    <comp name="--.HHN">
      <acc value="0.1669522620" flag="0"/>
      <vel value="0.0634546022" flag="0"/>
      <psa03 value="0.2314510369" flag="0"/>
      <psa10 value="0.0555139912" flag="0"/>
      <psa30 value="0.0074791265" flag="0"/>
    </comp>
    <comp name="--.HHZ">
      <acc value="0.0963480999" flag="0"/>
      <vel value="0.0311551143" flag="0"/>
      <psa03 value="0.1196791760" flag="0"/>
      <psa10 value="0.0370927244" flag="0"/>
      <psa30 value="0.0055554752" flag="0"/>
    </comp>
  </station>
  <station code="BOZZ" name="BOZZ" netid="IV" insttype="" lat="45.1071" lon="10.482">
    <comp name="--.HHE">
      <acc value="0.0484861953" flag="0"/>
      <vel value="0.0389467050" flag="0"/>
      <psa03 value="0.1546029604" flag="0"/>
      <psa10 value="0.0432134551" flag="0"/>
      <psa30 value="0.0102711484" flag="0"/>
    </comp>
    <comp name="--.HHN">
      <acc value="0.0393998997" flag="0"/>
      <vel value="0.0330552252" flag="0"/>
      <psa03 value="0.0963816407" flag="0"/>
      <psa10 value="0.0650888983" flag="0"/>
      <psa30 value="0.0129449103" flag="0"/>
    </comp>
    <comp name="--.HHZ">
      <acc value="0.0187805314" flag="0"/>
      <vel value="0.0098895705" flag="0"/>
      <psa03 value="0.0431147482" flag="0"/>
      <psa10 value="0.0157864094" flag="0"/>
      <psa30 value="0.0034516498" flag="0"/>
    </comp>
  </station>
  <station code="CAFI" name="CAFI" netid="IV" insttype="" lat="43.3292" lon="11.9663">
    <comp name="--.HHE">
      <acc value="0.0608531608" flag="0"/>
      <vel value="0.0813150411" flag="0"/>
      <psa03 value="0.1074283585" flag="0"/>
      <psa10 value="0.0797766478" flag="0"/>
      <psa30 value="0.0209167033" flag="0"/>
    </comp>
    <comp name="--.HHN">
      <acc value="0.0412392076" flag="0"/>
      <vel value="0.0510390684" flag="0"/>
      <psa03 value="0.0820991254" flag="0"/>
      <psa10 value="0.0438226565" flag="0"/>
      <psa30 value="0.0261858705" flag="0"/>
    </comp>
    <comp name="--.HHZ">
      <acc value="0.0376007118" flag="0"/>
      <vel value="0.0487135673" flag="0"/>
      <psa03 value="0.0960513500" flag="0"/>
      <psa10 value="0.0578951346" flag="0"/>
      <psa30 value="0.0349869121" flag="0"/>
    </comp>
  </station>
  <station code="CASP" name="CASP" netid="IV" insttype="" lat="42.7908" lon="10.8652">
    <comp name="--.HHN">
      <acc value="0.0044293671" flag="0"/>
      <vel value="0.0039649400" flag="0"/>
      <psa03 value="0.0136727204" flag="0"/>
      <psa10 value="0.0057422451" flag="0"/>
      <psa30 value="0.0007686995" flag="0"/>
    </comp>
    <comp name="--.HHZ">
      <acc value="0.0048804939" flag="0"/>
      <vel value="0.0037225460" flag="0"/>
      <psa03 value="0.0176827647" flag="0"/>
      <psa10 value="0.0048169833" flag="0"/>
      <psa30 value="0.0008789449" flag="0"/>
    </comp>
    <comp name="--.HHE">
      <acc value="0.0033569259" flag="0"/>
      <vel value="0.0028678670" flag="0"/>
      <psa03 value="0.0116133472" flag="0"/>
      <psa10 value="0.0052129780" flag="0"/>
      <psa30 value="0.0011669643" flag="0"/>
    </comp>
  </station>
  <station code="CAVE" name="CAVE" netid="IV" insttype="" lat="44.8658" lon="11.0031">
    <comp name="--.HHE">
      <acc value="0.0612365533" flag="0"/>
      <vel value="0.0611792609" flag="0"/>
      <psa03 value="0.1451942500" flag="0"/>
      <psa10 value="0.1081567533" flag="0"/>
      <psa30 value="0.0115793847" flag="0"/>
    </comp>
    <comp name="--.HHN">
      <acc value="0.0558659950" flag="0"/>
      <vel value="0.0604249275" flag="0"/>
      <psa03 value="0.1616596437" flag="0"/>
      <psa10 value="0.1091319137" flag="0"/>
      <psa30 value="0.0114957612" flag="0"/>
    </comp>
    <comp name="--.HHZ">
      <acc value="0.0132113494" flag="0"/>
      <vel value="0.0164309243" flag="0"/>
      <psa03 value="0.0375366116" flag="0"/>
      <psa10 value="0.0351340723" flag="0"/>
      <psa30 value="0.0068060077" flag="0"/>
    </comp>
  </station>
  <station code="CDCA" name="CDCA" netid="IV" insttype="" lat="43.4584" lon="12.2336">
    <comp name="--.HNE">
      <acc value="0.1674265965" flag="0"/>
      <vel value="0.1410602714" flag="0"/>
      <psa03 value="0.2420085457" flag="0"/>
      <psa10 value="0.1367957535" flag="0"/>
      <psa30 value="0.0487403696" flag="0"/>
    </comp>
    <comp name="--.HNN">
      <acc value="0.2241925681" flag="0"/>
      <vel value="0.2660128018" flag="0"/>
      <psa03 value="0.4254689808" flag="0"/>
      <psa10 value="0.3284018585" flag="0"/>
      <psa30 value="0.1411734925" flag="0"/>
    </comp>
