<stationlist xmlns:esm="https://esm-db.eu/esmws/shakemap/1/" created="1784339681">
	<station code="0REN" name="0REN" netid="IT" source="Italian Strong Motion Network (RAN)" insttype="" lat="43.5462" lon="12.264" esm:processing="manual (Paolucci et al 2011)" esm:quality="good">
		<comp name="--.HNE" depth="0.0">
			<acc value="0.065954042859354" flag="0"/>
			<vel value="0.0394023461086" flag="0"/>
			<psa03 value="0.10179247241845" flag="0"/>
			<psa10 value="0.0547187761003705" flag="0"/>
			<psa30 value="0.0311630177303202" flag="0"/>
		</comp>
		<comp name="--.HNN" depth="0.0">
			<acc value="0.11310104902698" flag="0"/>
			<vel value="0.0616296004825" flag="0"/>
			<psa03 value="0.177047936890072" flag="0"/>
			<psa10 value="0.0653374882878427" flag="0"/>
			<psa30 value="0.0215134801624837" flag="0"/>
		</comp>
		<comp name="--.HNZ" depth="0.0">
			<acc value="0.054491796980664" flag="0"/>
			<vel value="0.0519619908838" flag="0"/>
			<psa03 value="0.100311520146103" flag="0"/>
			<psa10 value="0.0459613347128852" flag="0"/>
			<psa30 value="0.0387677481730641" flag="0"/>
		</comp>
	</station>
	<station code="ALF" name="ALF" netid="IT" source="Italian Strong Motion Network (RAN)" insttype="" lat="44.5022" lon="12.0334" esm:processing="manual (Paolucci et al 2011)" esm:quality="good">
		<comp name="--.HGE" depth="0.0">
			<acc value="0.20165954495052" flag="0"/>
			<vel value="0.244594568087" flag="0"/>
			<psa03 value="0.512682379359027" flag="0"/>
			<psa10 value="0.399565839275727" flag="0"/>
			<psa30 value="0.139905401379375" flag="0"/>
		</comp>
		<comp name="--.HGN" depth="0.0">
			<acc value="0.31165835875488" flag="0"/>
			<vel value="0.691430848237" flag="0"/>
			<psa03 value="0.444650330902331" flag="0"/>
			<psa10 value="0.620332433977454" flag="0"/>
			<psa30 value="0.367577416866578" flag="0"/>
		</comp>
		<comp name="--.HGZ" depth="0.0">
			<acc value="0.14782497981906" flag="0"/>
			<vel value="0.332776758931" flag="0"/>
			<psa03 value="0.303178771605731" flag="0"/>
			<psa10 value="0.191153177959905" flag="0"/>
			<psa30 value="0.328830290059456" flag="0"/>
		</comp>
	</station>
	<station code="ARG" name="ARG" netid="IT" source="Italian Strong Motion Network (RAN)" insttype="" lat="44.6306" lon="11.8251" esm:processing="manual (Paolucci et al 2011)" esm:quality="bad">
		<comp name="--.HNE" depth="0.0">
			<acc value="0.11534609375076" flag="0"/>
			<vel value="0.142666486467" flag="0"/>
			<psa03 value="0.321742855551714" flag="0"/>
			<psa10 value="0.241067934567516" flag="0"/>
			<psa30 value="0.0810246741536511" flag="0"/>
		</comp>
		<comp name="--.HNN" depth="0.0">
			<acc value="0.14399151072744" flag="0"/>
			<vel value="0.283358555595" flag="0"/>
			<psa03 value="0.36375338854329" flag="0"/>
			<psa10 value="0.374975100260037" flag="0"/>
			<psa30 value="0.14239576635395" flag="0"/>
		</comp>
		<comp name="--.HNZ" depth="0.0">
			<acc value="0.066286028551836" flag="0"/>
			<vel value="0.0587735830716" flag="0"/>
			<psa03 value="0.173198608974644" flag="0"/>
			<psa10 value="0.0938891346943024" flag="0"/>
			<psa30 value="0.0540170616987118" flag="0"/>
		</comp>
	</station>
	<station code="ARO" name="ARO" netid="IT" source="Italian Strong Motion Network (RAN)" insttype="" lat="43.4662" lon="11.8828" esm:processing="manual (Paolucci et al 2011)" esm:quality="good">
		<comp name="--.HNE" depth="0.0">
			<acc value="0.13385963965884" flag="0"/>
			<vel value="0.0941034791875" flag="0"/>
			<psa03 value="0.374709322653455" flag="0"/>
			<psa10 value="0.0761427265817795" flag="0"/>
			<psa30 value="0.0322875188896703" flag="0"/>
		</comp>
		<comp name="--.HNN" depth="0.0">
			<acc value="0.12746714443728" flag="0"/>
			<vel value="0.0785817414438" flag="0"/>
			<psa03 value="0.321494839122026" flag="0"/>
			<psa10 value="0.0961600376304881" flag="0"/>
			<psa30 value="0.0389094775619142" flag="0"/>
		</comp>
		<comp name="--.HNZ" depth="0.0">
			<acc value="0.057483066276702" flag="0"/>
			<vel value="0.0674925845363" flag="0"/>
			<psa03 value="0.134357421353162" flag="0"/>
			<psa10 value="0.108120652462501" flag="0"/>
			<psa30 value="0.0471567772384716" flag="0"/>
		</comp>
	</station>
	<station code="BBN" name="BBN" netid="IT" source="Italian Strong Motion Network (RAN)" insttype="" lat="43.7476" lon="11.8214" esm:processing="manual (Paolucci et al 2011)" esm:quality="good">
		<comp name="--.HNE" depth="0.0">
			<acc value="0.20922590419368" flag="0"/>
			<vel value="0.310214255533" flag="0"/>
			<psa03 value="0.471759585092464" flag="0"/>
			<psa10 value="0.320391404358006" flag="0"/>
			<psa30 value="0.124749410702973" flag="0"/>
		</comp>
		<comp name="--.HNN" depth="0.0">
			<acc value="0.15633657938316" flag="0"/>
			<vel value="0.168238606108" flag="0"/>
			<psa03 value="0.264936134051812" flag="0"/>
			<psa10 value="0.208081169356169" flag="0"/>
			<psa30 value="0.0979878178786765" flag="0"/>
		</comp>
		<comp name="--.HNZ" depth="0.0">
			<acc value="0.1944802947018" flag="0"/>
			<vel value="0.278979473667" flag="0"/>
			<psa03 value="0.388817673929235" flag="0"/>
			<psa10 value="0.30482454312985" flag="0"/>
			<psa30 value="0.0928351098706033" flag="0"/>
		</comp>
	</station>
	<station code="BDT" name="BDT" netid="IT" source="Italian Strong Motion Network (RAN)" insttype="" lat="43.7068" lon="12.188" esm:processing="manual (Paolucci et al 2011)" esm:quality="good">
		<comp name="--.HNE" depth="0.0">
			<acc value="0.36877177944174" flag="0"/>
			<vel value="0.351653843722" flag="0"/>
			<psa03 value="0.790615541064871" flag="0"/>
			<psa10 value="0.415666495866493" flag="0"/>
			<psa30 value="0.0933031008723341" flag="0"/>
		</comp>
		<comp name="--.HNN" depth="0.0">
			<acc value="0.58364467302762" flag="0"/>
			<vel value="0.31637448967" flag="0"/>
			<psa03 value="0.884396503593647" flag="0"/>
			<psa10 value="0.519848097386249" flag="0"/>
			<psa30 value="0.0560278449031584" flag="0"/>
		</comp>
		<comp name="--.HNZ" depth="0.0">
			<acc value="0.22831716497946" flag="0"/>
			<vel value="0.191750174825" flag="0"/>
			<psa03 value="0.493633034098975" flag="0"/>
			<psa10 value="0.190373756327158" flag="0"/>
			<psa30 value="0.0483101069739707" flag="0"/>
		</comp>
	</station>
	<station code="BGR" name="BGR" netid="IT" source="Italian Strong Motion Network (RAN)" insttype="" lat="43.8895" lon="11.9912" esm:processing="manual (Paolucci et al 2011)" esm:quality="good">
		<comp name="--.HGE" depth="0.0">
			<acc value="1.4651692591224" flag="0"/>
			<vel value="0.479845615376" flag="0"/>
			<psa03 value="2.38246749344591" flag="0"/>
			<psa10 value="0.720101823213448" flag="0"/>
			<psa30 value="0.153245791781452" flag="0"/>
		</comp>
		<comp name="--.HGN" depth="0.0">
			<acc value="1.2472445345166" flag="0"/>
			<vel value="0.624997743987" flag="0"/>
			<psa03 value="2.34699714371089" flag="0"/>
			<psa10 value="0.641154773355874" flag="0"/>
			<psa30 value="0.206965457112355" flag="0"/>
		</comp>
		<comp name="--.HGZ" depth="0.0">
			<acc value="0.6865864673826" flag="0"/>
			<vel value="0.362260814801" flag="0"/>
			<psa03 value="1.26859012120341" flag="0"/>
			<psa10 value="0.656831951892192" flag="0"/>
			<psa30 value="0.179755267904499" flag="0"/>
		</comp>
	</station>
	<station code="BRB" name="BRB" netid="IT" source="Italian Strong Motion Network (RAN)" insttype="" lat="43.9542" lon="11.2128" esm:processing="manual (Paolucci et al 2011)" esm:quality="good">
		<comp name="--.HNE" depth="0.0">
			<acc value="0.18851109615198" flag="0"/>
			<vel value="0.0988209853477" flag="0"/>
			<psa03 value="0.365287656847821" flag="0"/>
			<psa10 value="0.181228925526985" flag="0"/>
			<psa30 value="0.0132296947356954" flag="0"/>
		</comp>
		<comp name="--.HNN" depth="0.0">
			<acc value="0.23321542409994" flag="0"/>
			<vel value="0.121673172454" flag="0"/>
			<psa03 value="0.6414371170615" flag="0"/>
			<psa10 value="0.132317450381639" flag="0"/>
			<psa30 value="0.0143806326463399" flag="0"/>
		</comp>
		<comp name="--.HNZ" depth="0.0">
			<acc value="0.094175422569834" flag="0"/>
			<vel value="0.080745252017" flag="0"/>
			<psa03 value="0.255060417334393" flag="0"/>
			<psa10 value="0.14281439575296" flag="0"/>
			<psa30 value="0.0171962725020116" flag="0"/>
		</comp>
	</station>
	<station code="BRH" name="BRH" netid="IT" source="Italian Strong Motion Network (RAN)" insttype="" lat="44.2076" lon="11.7639" esm:processing="manual (Paolucci et al 2011)" esm:quality="good">
		<comp name="--.HGE" depth="0.0">
			<acc value="5.0388044997096" flag="0"/>
			<vel value="1.97799379746" flag="0"/>
			<psa03 value="8.4722119091284" flag="0"/>
			<psa10 value="1.14699830300694" flag="0"/>
			<psa30 value="0.154897207846297" flag="0"/>
		</comp>
		<comp name="--.HGN" depth="0.0">
			<acc value="4.4238213013848" flag="0"/>
			<vel value="1.82148808811" flag="0"/>
			<psa03 value="7.59870204337034" flag="0"/>
			<psa10 value="1.27652072323469" flag="0"/>
			<psa30 value="0.275686476209384" flag="0"/>
		</comp>
		<comp name="--.HGZ" depth="0.0">
			<acc value="2.0895790591242" flag="0"/>
			<vel value="1.48994308955" flag="0"/>
			<psa03 value="3.58339638242488" flag="0"/>
			<psa10 value="1.17411121910552" flag="0"/>
			<psa30 value="0.463073503012597" flag="0"/>
		</comp>
	</station>
	<station code="BSZ" name="BSZ" netid="IT" source="Italian Strong Motion Network (RAN)" insttype="" lat="44.031" lon="11.467" esm:processing="manual (Paolucci et al 2011)" esm:quality="good">
		<comp name="--.HNE" depth="0.0">
			<acc value="1.5871466741934" flag="0"/>
			<vel value="0.337666922691" flag="0"/>
			<psa03 value="0.806020811589311" flag="0"/>
			<psa10 value="0.204713416258995" flag="0"/>
			<psa30 value="0.0267540823266665" flag="0"/>
		</comp>
		<comp name="--.HNN" depth="0.0">
			<acc value="1.1479554101508" flag="0"/>
			<vel value="0.310351531826" flag="0"/>
			<psa03 value="1.38652468378828" flag="0"/>
			<psa10 value="0.297898704327331" flag="0"/>
			<psa30 value="0.0300544742947498" flag="0"/>
		</comp>
		<comp name="--.HNZ" depth="0.0">
			<acc value="0.92303799868902" flag="0"/>
			<vel value="0.218288009732" flag="0"/>
			<psa03 value="0.905969849390145" flag="0"/>
			<psa10 value="0.197479082020119" flag="0"/>
			<psa30 value="0.0346133429640763" flag="0"/>
		</comp>
	</station>
	<station code="CDCT" name="CDCT" netid="IT" source="Italian Strong Motion Network (RAN)" insttype="" lat="43.366" lon="12.2363" esm:processing="manual (Paolucci et al 2011)" esm:quality="good">
		<comp name="--.HNE" depth="0.0">
			<acc value="0.13544846119938" flag="0"/>
			<vel value="0.15824585781" flag="0"/>
			<psa03 value="0.437076912533703" flag="0"/>
			<psa10 value="0.226032303530997" flag="0"/>
			<psa30 value="0.0806692772768396" flag="0"/>
		</comp>
		<comp name="--.HNN" depth="0.0">
			<acc value="0.13620755710074" flag="0"/>
			<vel value="0.24213531739" flag="0"/>
			<psa03 value="0.445905997417254" flag="0"/>
			<psa10 value="0.331457667443802" flag="0"/>
			<psa30 value="0.103323531343471" flag="0"/>
		</comp>
		<comp name="--.HNZ" depth="0.0">
			<acc value="0.066541002882516" flag="0"/>
			<vel value="0.0747243823491" flag="0"/>
			<psa03 value="0.16521031937299" flag="0"/>
			<psa10 value="0.145436989486926" flag="0"/>
			<psa30 value="0.0269284288762655" flag="0"/>
		</comp>
	</station>
	<station code="CES" name="CES" netid="IT" source="Italian Strong Motion Network (RAN)" insttype="" lat="44.2103" lon="12.3867" esm:processing="manual (Paolucci et al 2011)" esm:quality="good">
		<comp name="--.HNE" depth="0.0">
			<acc value="0.68448432238014" flag="0"/>
			<vel value="0.414324130239" flag="0"/>
			<psa03 value="2.74254734696822" flag="0"/>
			<psa10 value="0.739369219581212" flag="0"/>
			<psa30 value="0.107037630717863" flag="0"/>
		</comp>
		<comp name="--.HNN" depth="0.0">
			<acc value="0.52177704393918" flag="0"/>
			<vel value="0.473616219183" flag="0"/>
			<psa03 value="1.69751128512397" flag="0"/>
			<psa10 value="0.660232017130278" flag="0"/>
			<psa30 value="0.101664214755262" flag="0"/>
		</comp>
		<comp name="--.HNZ" depth="0.0">
			<acc value="0.1345778363601" flag="0"/>
			<vel value="0.304999615858" flag="0"/>
			<psa03 value="0.27647733610014" flag="0"/>
			<psa10 value="0.370784782672106" flag="0"/>
			<psa30 value="0.0793256282667053" flag="0"/>
		</comp>
	</station>
	<station code="CLL" name="CLL" netid="IT" source="Italian Strong Motion Network (RAN)" insttype="" lat="43.4787" lon="11.2691" esm:processing="manual (Paolucci et al 2011)" esm:quality="good">
		<comp name="--.HNE" depth="0.0">
			<acc value="0.039616052193324" flag="0"/>
			<vel value="0.0380307423272" flag="0"/>
			<psa03 value="0.11194521790448" flag="0"/>
			<psa10 value="0.0544646667669177" flag="0"/>
			<psa30 value="0.0144062460097588" flag="0"/>
		</comp>
		<comp name="--.HNN" depth="0.0">
			<acc value="0.042205794796962" flag="0"/>
			<vel value="0.0498712873595" flag="0"/>
			<psa03 value="0.0939142942776534" flag="0"/>
			<psa10 value="0.0705387153436919" flag="0"/>
			<psa30 value="0.0194422129512016" flag="0"/>
		</comp>
		<comp name="--.HNZ" depth="0.0">
			<acc value="0.025001061229554" flag="0"/>
			<vel value="0.0458893108543" flag="0"/>
			<psa03 value="0.0652710113842166" flag="0"/>
			<psa10 value="0.0559186643369741" flag="0"/>
			<psa30 value="0.0149866644596537" flag="0"/>
		</comp>
	</station>
	<station code="CNT" name="CNT" netid="IT" source="Italian Strong Motion Network (RAN)" insttype="" lat="44.7234" lon="11.2866" esm:processing="manual (Paolucci et al 2011)" esm:quality="good">
		<comp name="--.HNE" depth="0.0">
			<acc value="0.14932671368208" flag="0"/>
			<vel value="0.0870739036054" flag="0"/>
			<psa03 value="0.549962557320367" flag="0"/>
			<psa10 value="0.159639120308362" flag="0"/>
			<psa30 value="0.035580530368851" flag="0"/>
		</comp>
		<comp name="--.HNN" depth="0.0">
			<acc value="0.1530352888635" flag="0"/>
			<vel value="0.136175384082" flag="0"/>
			<psa03 value="0.426262112772987" flag="0"/>
			<psa10 value="0.163257915035632" flag="0"/>
			<psa30 value="0.0314503901006455" flag="0"/>
		</comp>
		<comp name="--.HNZ" depth="0.0">
			<acc value="0.063132363550482" flag="0"/>
			<vel value="0.0309954083988" flag="0"/>
			<psa03 value="0.224643194009258" flag="0"/>
			<psa10 value="0.0438923151503344" flag="0"/>
			<psa30 value="0.0137793619817901" flag="0"/>
		</comp>
	</station>
	<station code="CPC" name="CPC" netid="IT" source="Italian Strong Motion Network (RAN)" insttype="" lat="44.9214" lon="11.8756" esm:processing="manual (Paolucci et al 2011)" esm:quality="good">
		<comp name="--.HGE" depth="0.0">
			<acc value="0.1836930423753" flag="0"/>
			<vel value="0.12788929393" flag="0"/>
			<psa03 value="0.491353549761966" flag="0"/>
			<psa10 value="0.147188205496221" flag="0"/>
			<psa30 value="0.0738482187485102" flag="0"/>
		</comp>
		<comp name="--.HGN" depth="0.0">
			<acc value="0.16606609461054" flag="0"/>
			<vel value="0.143104514972" flag="0"/>
			<psa03 value="0.571258509739986" flag="0"/>
			<psa10 value="0.131613273733354" flag="0"/>
			<psa30 value="0.0791499899650826" flag="0"/>
		</comp>
		<comp name="--.HGZ" depth="0.0">
			<acc value="0.052119853863798" flag="0"/>
			<vel value="0.0781500390243" flag="0"/>
			<psa03 value="0.139863411098103" flag="0"/>
			<psa10 value="0.0596495689911953" flag="0"/>
			<psa30 value="0.098378143735807" flag="0"/>
		</comp>
	</station>
	<station code="CRO" name="CRO" netid="IT" source="Italian Strong Motion Network (RAN)" insttype="" lat="43.2678" lon="11.9805" esm:processing="manual (Paolucci et al 2011)" esm:quality="good">
		<comp name="--.HNE" depth="0.0">
			<acc value="0.035671959023124" flag="0"/>
			<vel value="0.0492319343236" flag="0"/>
			<psa03 value="0.0675414222044064" flag="0"/>
			<psa10 value="0.0348006253706454" flag="0"/>
			<psa30 value="0.014223755587334" flag="0"/>
		</comp>
		<comp name="--.HNN" depth="0.0">
			<acc value="0.034702689420192" flag="0"/>
			<vel value="0.0403944325119" flag="0"/>
			<psa03 value="0.0771482929873746" flag="0"/>
			<psa10 value="0.0322137677540078" flag="0"/>
			<psa30 value="0.0238475381156886" flag="0"/>
		</comp>
		<comp name="--.HNZ" depth="0.0">
			<acc value="0.023664834444048" flag="0"/>
			<vel value="0.0375011835683" flag="0"/>
			<psa03 value="0.0490935126211602" flag="0"/>
			<psa10 value="0.033495662673276" flag="0"/>
			<psa30 value="0.0342179367703671" flag="0"/>
		</comp>
	</station>
	<station code="CRP" name="CRP" netid="IT" source="Italian Strong Motion Network (RAN)" insttype="" lat="44.7823" lon="10.8703" esm:processing="manual (Paolucci et al 2011)" esm:quality="good">
		<comp name="--.HNE" depth="0.0">
			<acc value="0.069650994354558" flag="0"/>
			<vel value="0.07810118376" flag="0"/>
			<psa03 value="0.143225321308098" flag="0"/>
			<psa10 value="0.0950344380652226" flag="0"/>
			<psa30 value="0.0275970881716427" flag="0"/>
		</comp>
		<comp name="--.HNN" depth="0.0">
			<acc value="0.047304490514802" flag="0"/>
			<vel value="0.0712452834649" flag="0"/>
			<psa03 value="0.100196814630637" flag="0"/>
			<psa10 value="0.086578827922283" flag="0"/>
			<psa30 value="0.021496574042535" flag="0"/>
		</comp>
		<comp name="--.HNZ" depth="0.0">
			<acc value="0.020139507651186" flag="0"/>
			<vel value="0.0250178793572" flag="0"/>
			<psa03 value="0.0443787888352964" flag="0"/>
			<psa10 value="0.0210198987151199" flag="0"/>
			<psa30 value="0.0162192961154418" flag="0"/>
		</comp>
	</station>
	<station code="CSN" name="CSN" netid="IT" source="Italian Strong Motion Network (RAN)" insttype="" lat="44.137" lon="12.2414" esm:processing="manual (Paolucci et al 2011)" esm:quality="good">
		<comp name="--.HNE" depth="0.0">
			<acc value="1.791299441001" flag="0"/>
			<vel value="0.884996887953" flag="0"/>
			<psa03 value="7.99614037172902" flag="0"/>
			<psa10 value="1.58789755041973" flag="0"/>
			<psa30 value="0.0830532885394992" flag="0"/>
		</comp>
		<comp name="--.HNN" depth="0.0">
			<acc value="1.4205733298262" flag="0"/>
			<vel value="0.670748296203" flag="0"/>
			<psa03 value="3.75584680641649" flag="0"/>
			<psa10 value="0.929242977784893" flag="0"/>
			<psa30 value="0.101364481565983" flag="0"/>
		</comp>
		<comp name="--.HNZ" depth="0.0">
			<acc value="0.89471696156052" flag="0"/>
			<vel value="0.374468559894" flag="0"/>
			<psa03 value="2.44246513466119" flag="0"/>
			<psa10 value="0.743957003501156" flag="0"/>
			<psa30 value="0.0701999237337889" flag="0"/>
		</comp>
	</station>
	<station code="CSP" name="CSP" netid="IT" source="Italian Strong Motion Network (RAN)" insttype="" lat="44.3784" lon="11.5801" esm:processing="manual (Paolucci et al 2011)" esm:quality="good">
		<comp name="--.HGE" depth="0.0">
			<acc value="0.52675807152372" flag="0"/>
			<vel value="0.364952954215" flag="0"/>
			<psa03 value="1.3320161562019" flag="0"/>
			<psa10 value="0.700680156619714" flag="0"/>
			<psa30 value="0.139155045005605" flag="0"/>
		</comp>
		<comp name="--.HGN" depth="0.0">
			<acc value="0.63201153555306" flag="0"/>
			<vel value="0.417155412695" flag="0"/>
			<psa03 value="2.0250326484737" flag="0"/>
			<psa10 value="0.742724881878963" flag="0"/>
			<psa30 value="0.0880376587293441" flag="0"/>
		</comp>
		<comp name="--.HGZ" depth="0.0">
			<acc value="0.22759030890864" flag="0"/>
			<vel value="0.245182518555" flag="0"/>
			<psa03 value="0.714267316704074" flag="0"/>
			<psa10 value="0.463847407613285" flag="0"/>
			<psa30 value="0.0465836792735718" flag="0"/>
		</comp>
	</station>
	<station code="CTS" name="CTS" netid="IT" source="Italian Strong Motion Network (RAN)" insttype="" lat="43.4919" lon="12.2233" esm:processing="manual (Paolucci et al 2011)" esm:quality="good">
		<comp name="--.HGE" depth="0.0">
			<acc value="0.20148196848912" flag="0"/>
			<vel value="0.255533317787" flag="0"/>
			<psa03 value="0.485960234145931" flag="0"/>
			<psa10 value="0.366408362755982" flag="0"/>
			<psa30 value="0.104628177769868" flag="0"/>
