<?xml version="1.0" encoding="UTF-8" standalone="yes"?>
<!DOCTYPE earthquake SYSTEM "stationlist.dtd">
<stationlist created="" xmlns="ch.ethz.sed.shakemap.usgs.xml">
  <station code="AIGS" name="AIGS" netid="HA" insttype="DC" lat="38.25" lon="22.0878">
    <comp name="--.HNE">
      <acc value="0.3660652913" flag="0"/>
      <vel value="0.0886351252" flag="0"/>
      <psa03 value="0.5169553414" flag="0"/>
      <psa10 value="0.0235903303" flag="0"/>
      <psa30 value="0.0025770716" flag="0"/>
    </comp>
    <comp name="--.HNN">
      <acc value="0.3017106406" flag="0"/>
      <vel value="0.0618869144" flag="0"/>
      <psa03 value="0.2209267400" flag="0"/>
      <psa10 value="0.0101102888" flag="0"/>
      <psa30 value="0.0009822133" flag="0"/>
    </comp>
    <comp name="--.HNZ">
      <acc value="0.2708993800" flag="0"/>
      <vel value="0.0472796840" flag="0"/>
      <psa03 value="0.1237109030" flag="0"/>
      <psa10 value="0.0088205555" flag="0"/>
      <psa30 value="0.0010305271" flag="0"/>
    </comp>
  </station>
  <station code="AXAR" name="AXAR" netid="HA" insttype="Horizon,120s,1200" lat="38.7664" lon="22.659">
    <comp name="--.HHZ">
      <acc value="0.0146349464" flag="0"/>
      <vel value="0.0047581305" flag="0"/>
      <psa03 value="0.0263925109" flag="0"/>
      <psa10 value="0.0037766120" flag="0"/>
      <psa30 value="0.0003059766" flag="0"/>
    </comp>
    <comp name="--.HHN">
      <acc value="0.0296018015" flag="0"/>
      <vel value="0.0124115389" flag="0"/>
      <psa03 value="0.1159999257" flag="0"/>
      <psa10 value="0.0092210920" flag="0"/>
      <psa30 value="0.0005631399" flag="0"/>
    </comp>
    <comp name="--.HHE">
      <acc value="0.0449123212" flag="0"/>
      <vel value="0.0146128634" flag="0"/>
      <psa03 value="0.0932739267" flag="0"/>
      <psa10 value="0.0074349178" flag="0"/>
      <psa30 value="0.0004847131" flag="0"/>
    </comp>
  </station>
  <station code="DOMV" name="DOMV" netid="HA" insttype="60" lat="38.2569" lon="22.9795">
    <comp name="--.HHE">
      <acc value="0.0133608434" flag="0"/>
      <vel value="0.0050607718" flag="0"/>
      <psa03 value="0.0286892316" flag="0"/>
      <psa10 value="0.0030813771" flag="0"/>
      <psa30 value="0.0001432416" flag="0"/>
    </comp>
    <comp name="--.HHN">
      <acc value="0.0142390556" flag="0"/>
      <vel value="0.0051085409" flag="0"/>
      <psa03 value="0.0267114152" flag="0"/>
      <psa10 value="0.0051178602" flag="0"/>
      <psa30 value="0.0002249686" flag="0"/>
    </comp>
    <comp name="--.HHZ">
      <acc value="0.0069555465" flag="0"/>
      <vel value="0.0021910065" flag="0"/>
      <psa03 value="0.0162792593" flag="0"/>
      <psa10 value="0.0013999313" flag="0"/>
      <psa30 value="0.0000741156" flag="0"/>
    </comp>
  </station>
  <station code="DRES" name="DRES" netid="HA" insttype="DC" lat="38.3197" lon="21.8532">
    <comp name="--.HNE">
      <acc value="1.0132451980" flag="0"/>
      <vel value="0.2642865346" flag="0"/>
      <psa03 value="0.8177744824" flag="0"/>
      <psa10 value="0.0408741772" flag="0"/>
      <psa30 value="0.0054848407" flag="0"/>
    </comp>
    <comp name="--.HNN">
      <acc value="0.8252695089" flag="0"/>
      <vel value="0.1972831334" flag="0"/>
      <psa03 value="0.6722950315" flag="0"/>
      <psa10 value="0.0447493501" flag="0"/>
      <psa30 value="0.0037973480" flag="0"/>
    </comp>
    <comp name="--.HNZ">
      <acc value="0.8490276851" flag="0"/>
      <vel value="0.1293022365" flag="0"/>
      <psa03 value="0.4609614569" flag="0"/>
      <psa10 value="0.0166697807" flag="0"/>
      <psa30 value="0.0019949933" flag="0"/>
    </comp>
  </station>
  <station code="KALE" name="KALE" netid="HA" insttype="40," lat="38.3911" lon="22.1398">
    <comp name="--.HHZ">
      <acc value="0.0796371087" flag="0"/>
      <vel value="0.0154448253" flag="0"/>
      <psa03 value="0.0601401814" flag="0"/>
      <psa10 value="0.0063463803" flag="0"/>
      <psa30 value="0.0005973493" flag="0"/>
    </comp>
    <comp name="--.HHN">
      <acc value="0.0997068949" flag="0"/>
      <vel value="0.0325177364" flag="0"/>
      <psa03 value="0.1832326060" flag="0"/>
      <psa10 value="0.0115221688" flag="0"/>
      <psa30 value="0.0006631183" flag="0"/>
    </comp>
    <comp name="--.HHE">
      <acc value="0.0985360951" flag="0"/>
      <vel value="0.0298188903" flag="0"/>
      <psa03 value="0.1787488142" flag="0"/>
      <psa10 value="0.0111240901" flag="0"/>
      <psa30 value="0.0007170083" flag="0"/>
    </comp>
  </station>
  <station code="LAKA" name="LAKA" netid="HA" insttype="120s," lat="38.2401" lon="21.9785">
    <comp name="--.HHN">
      <acc value="0.1669799798" flag="0"/>
      <vel value="0.0285331541" flag="0"/>
      <psa03 value="0.1285566689" flag="0"/>
      <psa10 value="0.0062695352" flag="0"/>
      <psa30 value="0.0008009343" flag="0"/>
    </comp>
    <comp name="--.HHZ">
      <acc value="0.1245079568" flag="0"/>
      <vel value="0.0161869034" flag="0"/>
      <psa03 value="0.0652572197" flag="0"/>
      <psa10 value="0.0046934060" flag="0"/>
      <psa30 value="0.0003934613" flag="0"/>
    </comp>
    <comp name="--.HHE">
      <acc value="0.1707633593" flag="0"/>
      <vel value="0.0254679190" flag="0"/>
      <psa03 value="0.0732211861" flag="0"/>
      <psa10 value="0.0044492245" flag="0"/>
      <psa30 value="0.0003947007" flag="0"/>
    </comp>
  </station>
  <station code="THAL" name="THAL" netid="HA" insttype="30" lat="38.0357" lon="22.6634">
    <comp name="--.HHN">
      <acc value="0.0471028736" flag="0"/>
      <vel value="0.0129438011" flag="0"/>
      <psa03 value="0.0986104131" flag="0"/>
      <psa10 value="0.0062023510" flag="0"/>
      <psa30 value="0.0004311374" flag="0"/>
    </comp>
    <comp name="--.HHE">
      <acc value="0.0424210549" flag="0"/>
      <vel value="0.0156306906" flag="0"/>
      <psa03 value="0.0743085814" flag="0"/>
      <psa10 value="0.0064465733" flag="0"/>
      <psa30 value="0.0004313961" flag="0"/>
    </comp>
    <comp name="--.HHZ">
      <acc value="0.0312105913" flag="0"/>
      <vel value="0.0104053036" flag="0"/>
      <psa03 value="0.0418238404" flag="0"/>
      <psa10 value="0.0036848909" flag="0"/>
      <psa30 value="0.0002320589" flag="0"/>
    </comp>
  </station>
  <station code="KLV1" name="KLV1" netid="HI" insttype="CMG-5TD,ACCELEROMETER,GURALP" lat="38.0326" lon="22.108">
    <comp name="--.HNE">
      <acc value="0.1253407925" flag="0"/>
      <vel value="0.0374957530" flag="0"/>
      <psa03 value="0.1998119557" flag="0"/>
      <psa10 value="0.0102944095" flag="0"/>
      <psa30 value="0.0007698709" flag="0"/>
    </comp>
    <comp name="--.HNN">
      <acc value="0.1295496791" flag="0"/>
      <vel value="0.0378382123" flag="0"/>
      <psa03 value="0.1792177616" flag="0"/>
      <psa10 value="0.0075029819" flag="0"/>
      <psa30 value="0.0007936916" flag="0"/>
    </comp>
    <comp name="--.HNZ">
      <acc value="0.0833405423" flag="0"/>
      <vel value="0.0193216008" flag="0"/>
      <psa03 value="0.1021141724" flag="0"/>
      <psa10 value="0.0055282483" flag="0"/>
      <psa30 value="0.0004773029" flag="0"/>
    </comp>
  </station>
  <station code="MSL1" name="MSL1" netid="HI" insttype="CMG-5TD,ACCELEROMETER,GURALP" lat="38.3727" lon="21.4243">
    <comp name="--.HNE">
      <acc value="0.0704092159" flag="0"/>
      <vel value="0.0409765953" flag="0"/>
      <psa03 value="0.3539540186" flag="0"/>
      <psa10 value="0.0322161292" flag="0"/>
      <psa30 value="0.0024291592" flag="0"/>
    </comp>
    <comp name="--.HNN">
      <acc value="0.0781994578" flag="0"/>
      <vel value="0.0471037465" flag="0"/>
      <psa03 value="0.2935067322" flag="0"/>
      <psa10 value="0.0477567949" flag="0"/>
      <psa30 value="0.0027456654" flag="0"/>
    </comp>
    <comp name="--.HNZ">
      <acc value="0.0449108235" flag="0"/>
      <vel value="0.0202560457" flag="0"/>
      <psa03 value="0.1024692603" flag="0"/>
      <psa10 value="0.0185041564" flag="0"/>
      <psa30 value="0.0010284133" flag="0"/>
    </comp>
  </station>
  <station code="EVR" name="EVR" netid="HL" insttype="DR24" lat="38.9166" lon="21.8105">
    <comp name="--.HHE">
      <acc value="0.0178581869" flag="0"/>
      <vel value="0.0052167510" flag="0"/>
      <psa03 value="0.0288688838" flag="0"/>
      <psa10 value="0.0077082383" flag="0"/>
      <psa30 value="0.0006475275" flag="0"/>
    </comp>
    <comp name="--.HHN">
      <acc value="0.0130580902" flag="0"/>
      <vel value="0.0056565988" flag="0"/>
      <psa03 value="0.0252060831" flag="0"/>
      <psa10 value="0.0068438332" flag="0"/>
      <psa30 value="0.0009443390" flag="0"/>
    </comp>
    <comp name="--.HHZ">
      <acc value="0.0082018203" flag="0"/>
      <vel value="0.0037381525" flag="0"/>
      <psa03 value="0.0208868217" flag="0"/>
      <psa10 value="0.0055221508" flag="0"/>
      <psa30 value="0.0010720992" flag="0"/>
    </comp>
  </station>
  <station code="KLV" name="KLV" netid="HL" insttype="120" lat="38.0435" lon="22.1504">
    <comp name="--.HHE">
      <acc value="0.0462572582" flag="0"/>
      <vel value="0.0112107486" flag="0"/>
      <psa03 value="0.0561703624" flag="0"/>
      <psa10 value="0.0028129963" flag="0"/>
      <psa30 value="0.0003230331" flag="0"/>
    </comp>
    <comp name="--.HHN">
      <acc value="0.0426017110" flag="0"/>
      <vel value="0.0082180452" flag="0"/>
      <psa03 value="0.0394767165" flag="0"/>
      <psa10 value="0.0042948045" flag="0"/>
      <psa30 value="0.0002632202" flag="0"/>
    </comp>
    <comp name="--.HHZ">
      <acc value="0.0412227144" flag="0"/>
      <vel value="0.0090636565" flag="0"/>
      <psa03 value="0.0419033171" flag="0"/>
      <psa10 value="0.0046216895" flag="0"/>
      <psa30 value="0.0004230323" flag="0"/>
    </comp>
  </station>
  <station code="LKR" name="LKR" netid="HL" insttype="65535" lat="38.6496" lon="22.9988">
    <comp name="--.HHE">
      <acc value="0.0282068775" flag="0"/>
      <vel value="0.0065255732" flag="0"/>
      <psa03 value="0.0240514157" flag="0"/>
      <psa10 value="0.0015503854" flag="0"/>
      <psa30 value="0.0002559920" flag="0"/>
    </comp>
    <comp name="--.HHN">
      <acc value="0.0143039651" flag="0"/>
      <vel value="0.0047267003" flag="0"/>
      <psa03 value="0.0247260616" flag="0"/>
      <psa10 value="0.0022407443" flag="0"/>
      <psa30 value="0.0002188208" flag="0"/>
    </comp>
    <comp name="--.HHZ">
      <acc value="0.0087276744" flag="0"/>
      <vel value="0.0021864533" flag="0"/>
      <psa03 value="0.0095147872" flag="0"/>
      <psa10 value="0.0010583086" flag="0"/>
      <psa30 value="0.0002645698" flag="0"/>
    </comp>
  </station>
  <station code="PATC" name="PATC" netid="HL" insttype="CMG-5" lat="38.2693" lon="21.76">
    <comp name="00.HNE">
      <acc value="2.2165926246" flag="0"/>
      <vel value="0.4286263738" flag="0"/>
      <psa03 value="1.4679822730" flag="0"/>
      <psa10 value="0.1992991835" flag="0"/>
      <psa30 value="0.0180551501" flag="0"/>
    </comp>
    <comp name="00.HNN">
      <acc value="3.0227861582" flag="0"/>
      <vel value="0.9235868367" flag="0"/>
      <psa03 value="3.5600576758" flag="0"/>
      <psa10 value="0.2942875343" flag="0"/>
      <psa30 value="0.0345349356" flag="0"/>
    </comp>
    <comp name="00.HNZ">
      <acc value="1.8843738061" flag="0"/>
      <vel value="0.3446519934" flag="0"/>
      <psa03 value="1.0806723110" flag="0"/>
      <psa10 value="0.0773055088" flag="0"/>
      <psa30 value="0.0092406626" flag="0"/>
    </comp>
  </station>
  <station code="PATG" name="PATG" netid="HL" insttype="CMG-5" lat="38.2386" lon="21.7266">
    <comp name="00.HNN">
      <acc value="2.8082182768" flag="0"/>
      <vel value="1.1431031365" flag="0"/>
      <psa03 value="4.6149139695" flag="0"/>
      <psa10 value="0.3019468509" flag="0"/>
      <psa30 value="0.0417407163" flag="0"/>
    </comp>
    <comp name="00.HNE">
      <acc value="0.9529138891" flag="0"/>
      <vel value="0.3677294326" flag="0"/>
      <psa03 value="2.3187205858" flag="0"/>
      <psa10 value="0.1263296484" flag="0"/>
      <psa30 value="0.0105457348" flag="0"/>
    </comp>
    <comp name="00.HNZ">
      <acc value="0.7614502467" flag="0"/>
      <vel value="0.1632944525" flag="0"/>
      <psa03 value="1.3573226499" flag="0"/>
      <psa10 value="0.0705108295" flag="0"/>
      <psa30 value="0.0071311244" flag="0"/>
    </comp>
  </station>
  <station code="RIOA" name="RIOA" netid="HL" insttype="CMG-5" lat="38.2959" lon="21.7912">
    <comp name="00.HNE">
      <acc value="9.5690209388" flag="0"/>
      <vel value="2.0351611652" flag="0"/>
      <psa03 value="6.3286629347" flag="0"/>
      <psa10 value="0.3242176747" flag="0"/>
      <psa30 value="0.0240238156" flag="0"/>
    </comp>
    <comp name="00.HNZ">
      <acc value="7.6224206462" flag="0"/>
      <vel value="1.1837967165" flag="0"/>
      <psa03 value="1.8406948685" flag="0"/>
      <psa10 value="0.0984307505" flag="0"/>
      <psa30 value="0.0100230463" flag="0"/>
    </comp>
    <comp name="00.HNN">
      <acc value="12.1055199673" flag="0"/>
      <vel value="2.4756393779" flag="0"/>
      <psa03 value="4.6643704661" flag="0"/>
      <psa10 value="0.2688560647" flag="0"/>
      <psa30 value="0.0275244917" flag="0"/>
    </comp>
  </station>
  <station code="RLS" name="RLS" netid="HL" insttype="CMG3ESPC-120s" lat="38.0559" lon="21.4647">
    <comp name="--.HHE">
      <acc value="0.0289761007" flag="0"/>
      <vel value="0.0113773590" flag="0"/>
      <psa03 value="0.0492763335" flag="0"/>
      <psa10 value="0.0066709153" flag="0"/>
      <psa30 value="0.0006030960" flag="0"/>
    </comp>
    <comp name="--.HHN">
      <acc value="0.0392089744" flag="0"/>
      <vel value="0.0138157969" flag="0"/>
      <psa03 value="0.1002925079" flag="0"/>
      <psa10 value="0.0122355644" flag="0"/>
      <psa30 value="0.0008135298" flag="0"/>
    </comp>
    <comp name="--.HHZ">
      <acc value="0.0376588858" flag="0"/>
      <vel value="0.0070690339" flag="0"/>
      <psa03 value="0.0547702614" flag="0"/>
      <psa10 value="0.0066611066" flag="0"/>
      <psa30 value="0.0004363748" flag="0"/>
    </comp>
  </station>
  <station code="AMT" name="AMT" netid="HP" insttype="CMG-3T," lat="37.5324" lon="21.7089">
    <comp name="00.HHN">
      <acc value="0.0202190160" flag="0"/>
      <vel value="0.0105912673" flag="0"/>
      <psa03 value="0.0645214769" flag="0"/>
      <psa10 value="0.0099892891" flag="0"/>
      <psa30 value="0.0004630419" flag="0"/>
    </comp>
    <comp name="00.HHZ">
      <acc value="0.0122746890" flag="0"/>
      <vel value="0.0064587806" flag="0"/>
      <psa03 value="0.0361369012" flag="0"/>
      <psa10 value="0.0039609207" flag="0"/>
      <psa30 value="0.0003225052" flag="0"/>
    </comp>
    <comp name="00.HHE">
      <acc value="0.0200327624" flag="0"/>
      <vel value="0.0108693441" flag="0"/>
      <psa03 value="0.0571185993" flag="0"/>
      <psa10 value="0.0086653120" flag="0"/>
      <psa30 value="0.0005960601" flag="0"/>
    </comp>
  </station>
  <station code="ANX" name="ANX" netid="HP" insttype="120" lat="38.5933" lon="21.9209">
    <comp name="--.HHZ">
      <acc value="0.0649338704" flag="0"/>
      <vel value="0.0189679884" flag="0"/>
      <psa03 value="0.1740177068" flag="0"/>
      <psa10 value="0.0176984883" flag="0"/>
      <psa30 value="0.0016965303" flag="0"/>
    </comp>
    <comp name="--.HHE">
      <acc value="0.1045906565" flag="0"/>
      <vel value="0.0398703039" flag="0"/>
      <psa03 value="0.2144402657" flag="0"/>
      <psa10 value="0.0134315990" flag="0"/>
      <psa30 value="0.0012333497" flag="0"/>
    </comp>
    <comp name="--.HHN">
      <acc value="0.0804308902" flag="0"/>
      <vel value="0.0276382311" flag="0"/>
      <psa03 value="0.1451904006" flag="0"/>
      <psa10 value="0.0323080266" flag="0"/>
      <psa30 value="0.0013440892" flag="0"/>
    </comp>
  </station>
  <station code="AXS" name="AXS" netid="HP" insttype="Compact," lat="38.1962" lon="21.3763">
    <comp name="--.HHE">
      <acc value="0.0212996383" flag="0"/>
      <vel value="0.0072745826" flag="0"/>
      <psa03 value="0.0298434191" flag="0"/>
      <psa10 value="0.0030410484" flag="0"/>
      <psa30 value="0.0004739552" flag="0"/>
    </comp>
    <comp name="--.HHZ">
      <acc value="0.0271602740" flag="0"/>
      <vel value="0.0056127254" flag="0"/>
      <psa03 value="0.0355725085" flag="0"/>
      <psa10 value="0.0038401164" flag="0"/>
      <psa30 value="0.0005749444" flag="0"/>
    </comp>
    <comp name="--.HHN">
      <acc value="0.0314978405" flag="0"/>
      <vel value="0.0083011377" flag="0"/>
      <psa03 value="0.0397258688" flag="0"/>
      <psa10 value="0.0073374049" flag="0"/>
      <psa30 value="0.0004956371" flag="0"/>
    </comp>
  </station>
  <station code="DRO" name="DRO" netid="HP" insttype="120P," lat="37.952" lon="21.71">
    <comp name="--.HHE">
      <acc value="0.1044268093" flag="0"/>
      <vel value="0.0319212956" flag="0"/>
      <psa03 value="0.1700834348" flag="0"/>
      <psa10 value="0.0137009835" flag="0"/>
      <psa30 value="0.0010173317" flag="0"/>
    </comp>
    <comp name="--.HHN">
      <acc value="0.1090975321" flag="0"/>
      <vel value="0.0298607398" flag="0"/>
      <psa03 value="0.1974181617" flag="0"/>
      <psa10 value="0.0158009230" flag="0"/>
      <psa30 value="0.0013591506" flag="0"/>
    </comp>
    <comp name="--.HHZ">
      <acc value="0.0625868913" flag="0"/>
      <vel value="0.0264292870" flag="0"/>
      <psa03 value="0.0938006048" flag="0"/>
      <psa10 value="0.0118624558" flag="0"/>
      <psa30 value="0.0008797052" flag="0"/>
    </comp>
  </station>
  <station code="DSF" name="DSF" netid="HP" insttype="120P," lat="38.4112" lon="22.5271">
    <comp name="--.HHN">
      <acc value="0.0849274745" flag="0"/>
      <vel value="0.0170071362" flag="0"/>
      <psa03 value="0.0716300596" flag="0"/>
      <psa10 value="0.0038566583" flag="0"/>
      <psa30 value="0.0002479168" flag="0"/>
    </comp>
    <comp name="--.HHZ">
      <acc value="0.0431003605" flag="0"/>
      <vel value="0.0075811269" flag="0"/>
      <psa03 value="0.0221980359" flag="0"/>
      <psa10 value="0.0017841848" flag="0"/>
      <psa30 value="0.0001643150" flag="0"/>
    </comp>
    <comp name="--.HHE">
      <acc value="0.0473739007" flag="0"/>
      <vel value="0.0097910622" flag="0"/>
      <psa03 value="0.0498816681" flag="0"/>
      <psa10 value="0.0033477377" flag="0"/>
      <psa30 value="0.0001703585" flag="0"/>
    </comp>
  </station>
  <station code="EFP" name="EFP" netid="HP" insttype="40," lat="38.4269" lon="21.9058">
    <comp name="--.HHZ">
      <acc value="0.1996542017" flag="0"/>
      <vel value="0.0567970826" flag="0"/>
      <psa03 value="0.3278780347" flag="0"/>
      <psa10 value="0.0262854077" flag="0"/>
      <psa30 value="0.0022497771" flag="0"/>
    </comp>
    <comp name="--.HHE">
      <acc value="0.4741524035" flag="0"/>
      <vel value="0.1838274119" flag="0"/>
      <psa03 value="0.8533031282" flag="0"/>
      <psa10 value="0.0508216191" flag="0"/>
      <psa30 value="0.0061663167" flag="0"/>
    </comp>
    <comp name="--.HHN">
      <acc value="0.1787866311" flag="0"/>
      <vel value="0.0766142845" flag="0"/>
      <psa03 value="0.4889249814" flag="0"/>
      <psa10 value="0.0213266060" flag="0"/>
      <psa30 value="0.0015381286" flag="0"/>
    </comp>
  </station>
  <station code="FSK" name="FSK" netid="HP" insttype="DC" lat="38.4593" lon="20.5623">
    <comp name="--.HNE">
      <acc value="0.0160831204" flag="0"/>
      <vel value="0.0039774932" flag="0"/>
      <psa03 value="0.0113082265" flag="0"/>
      <psa10 value="0.0016529234" flag="0"/>
      <psa30 value="0.0002778340" flag="0"/>
    </comp>
    <comp name="--.HNN">
      <acc value="0.0119998485" flag="0"/>
      <vel value="0.0023254236" flag="0"/>
