<?xml version="1.0" encoding="UTF-8" standalone="yes"?>
<!DOCTYPE earthquake SYSTEM "stationlist.dtd">
<stationlist created="" xmlns="ch.ethz.sed.shakemap.usgs.xml">
  <station code="ADVT" name="ADVT" netid="KO" insttype="CMG-3ESP" commtype="DIG" lat="40.4332" lon="29.7383">
    <comp name="--.HHE">
      <acc value="0.0304332967" flag="0"/>
      <vel value="0.0246505514" flag="0"/>
      <psa03 value="0.0567681309" flag="0"/>
      <psa10 value="0.0295340009" flag="0"/>
      <psa30 value="0.0032664722" flag="0"/>
    </comp>
    <comp name="--.HHN">
      <acc value="0.0275662186" flag="0"/>
      <vel value="0.0255846299" flag="0"/>
      <psa03 value="0.0737982325" flag="0"/>
      <psa10 value="0.0234077159" flag="0"/>
      <psa30 value="0.0058817657" flag="0"/>
    </comp>
    <comp name="--.HHZ">
      <acc value="0.0200940443" flag="0"/>
      <vel value="0.0157454272" flag="0"/>
      <psa03 value="0.0733407560" flag="0"/>
      <psa10 value="0.0163726000" flag="0"/>
      <psa30 value="0.0046465868" flag="0"/>
    </comp>
  </station>
  <station code="AKS" name="AKS" netid="KO" insttype="CMG-5T" commtype="DIG" lat="38.8785" lon="27.8129">
    <comp name="--.HNN">
      <acc value="0.1642148842" flag="0"/>
      <vel value="0.0779068448" flag="0"/>
      <psa03 value="0.3398463771" flag="0"/>
      <psa10 value="0.0563854627" flag="0"/>
      <psa30 value="0.0079587076" flag="0"/>
    </comp>
    <comp name="--.HNE">
      <acc value="0.1191179871" flag="0"/>
      <vel value="0.0667433262" flag="0"/>
      <psa03 value="0.3110822838" flag="0"/>
      <psa10 value="0.0921877152" flag="0"/>
      <psa30 value="0.0075886076" flag="0"/>
    </comp>
    <comp name="--.HNZ">
      <acc value="0.0588028389" flag="0"/>
      <vel value="0.0311117842" flag="0"/>
      <psa03 value="0.0954845984" flag="0"/>
      <psa10 value="0.0310949972" flag="0"/>
      <psa30 value="0.0049219209" flag="0"/>
    </comp>
  </station>
  <station code="ALT" name="ALT" netid="KO" insttype="CMG-5T" commtype="DIG" lat="39.0541" lon="30.1104">
    <comp name="--.HNE">
      <acc value="0.1598234901" flag="0"/>
      <vel value="0.0609290147" flag="0"/>
      <psa03 value="0.2406809124" flag="0"/>
      <psa10 value="0.0334874499" flag="0"/>
      <psa30 value="0.0054818079" flag="0"/>
    </comp>
    <comp name="--.HNN">
      <acc value="0.2571316011" flag="0"/>
      <vel value="0.0927457302" flag="0"/>
      <psa03 value="0.3928428636" flag="0"/>
      <psa10 value="0.0433399500" flag="0"/>
      <psa30 value="0.0075264377" flag="0"/>
    </comp>
    <comp name="--.HNZ">
      <acc value="0.1129066490" flag="0"/>
      <vel value="0.0708578065" flag="0"/>
      <psa03 value="0.2961737893" flag="0"/>
      <psa10 value="0.0581706449" flag="0"/>
      <psa30 value="0.0056194868" flag="0"/>
    </comp>
  </station>
  <station code="ARMT" name="ARMT" netid="KO" insttype="CMG-3ESP" commtype="DIG" lat="40.5683" lon="28.866">
    <comp name="--.HHE">
      <acc value="0.0730159658" flag="0"/>
      <vel value="0.0323113153" flag="0"/>
      <psa03 value="0.1755368764" flag="0"/>
      <psa10 value="0.0387054981" flag="0"/>
      <psa30 value="0.0045877710" flag="0"/>
    </comp>
    <comp name="--.HHZ">
      <acc value="0.0584730666" flag="0"/>
      <vel value="0.0318262089" flag="0"/>
      <psa03 value="0.1224668043" flag="0"/>
      <psa10 value="0.0132848463" flag="0"/>
      <psa30 value="0.0026379985" flag="0"/>
    </comp>
    <comp name="--.HHN">
      <acc value="0.1271108392" flag="0"/>
      <vel value="0.0698432714" flag="0"/>
      <psa03 value="0.2855042208" flag="0"/>
      <psa10 value="0.0262624149" flag="0"/>
      <psa30 value="0.0029241468" flag="0"/>
    </comp>
  </station>
  <station code="BALB" name="BALB" netid="KO" insttype="CMG-5T" commtype="DIG" lat="39.6507" lon="27.8642">
    <comp name="--.HNN">
      <acc value="0.2327968653" flag="0"/>
      <vel value="0.0803474561" flag="0"/>
      <psa03 value="0.3897948416" flag="0"/>
      <psa10 value="0.0837805540" flag="0"/>
      <psa30 value="0.0064879869" flag="0"/>
    </comp>
    <comp name="--.HNE">
      <acc value="0.2765299338" flag="0"/>
      <vel value="0.0832153256" flag="0"/>
      <psa03 value="0.2750785383" flag="0"/>
      <psa10 value="0.0618231101" flag="0"/>
      <psa30 value="0.0037211304" flag="0"/>
    </comp>
    <comp name="--.HNZ">
      <acc value="0.0996820092" flag="0"/>
      <vel value="0.0263004514" flag="0"/>
      <psa03 value="0.1197380076" flag="0"/>
      <psa10 value="0.0307200443" flag="0"/>
      <psa30 value="0.0019805082" flag="0"/>
    </comp>
  </station>
  <station code="DST" name="DST" netid="KO" insttype="CMG-5T" commtype="DIG" lat="39.6041" lon="28.6267">
    <comp name="--.HNN">
      <acc value="0.1987294846" flag="0"/>
      <vel value="0.0632484487" flag="0"/>
      <psa03 value="0.2340655726" flag="0"/>
      <psa10 value="0.0768152317" flag="0"/>
      <psa30 value="0.0067940606" flag="0"/>
    </comp>
    <comp name="--.HNZ">
      <acc value="0.1884711304" flag="0"/>
      <vel value="0.0425848533" flag="0"/>
      <psa03 value="0.1741263382" flag="0"/>
      <psa10 value="0.0343023365" flag="0"/>
      <psa30 value="0.0040327342" flag="0"/>
    </comp>
    <comp name="--.HNE">
      <acc value="0.2640224734" flag="0"/>
      <vel value="0.0914345848" flag="0"/>
      <psa03 value="0.3117503797" flag="0"/>
      <psa10 value="0.0956911559" flag="0"/>
      <psa30 value="0.0042047483" flag="0"/>
    </comp>
  </station>
  <station code="GEML" name="GEML" netid="KO" insttype="CMG-3T" commtype="DIG" lat="40.4646" lon="29.2116">
    <comp name="--.HHE">
      <acc value="0.1344241240" flag="0"/>
      <vel value="0.0410219670" flag="0"/>
      <psa03 value="0.1528337521" flag="0"/>
      <psa10 value="0.0425359604" flag="0"/>
      <psa30 value="0.0036948297" flag="0"/>
    </comp>
    <comp name="--.HHN">
      <acc value="0.1084914581" flag="0"/>
      <vel value="0.0390413947" flag="0"/>
      <psa03 value="0.1744474455" flag="0"/>
      <psa10 value="0.0283748432" flag="0"/>
      <psa30 value="0.0029244852" flag="0"/>
    </comp>
    <comp name="--.HHZ">
      <acc value="0.0773472333" flag="0"/>
      <vel value="0.0228414401" flag="0"/>
      <psa03 value="0.0629437177" flag="0"/>
      <psa10 value="0.0170973009" flag="0"/>
      <psa30 value="0.0024629246" flag="0"/>
    </comp>
  </station>
  <station code="GOMA" name="GOMA" netid="KO" insttype="CMG-5T" commtype="DIG" lat="38.7077" lon="27.9175">
    <comp name="--.HNZ">
      <acc value="0.1096036720" flag="0"/>
      <vel value="0.0665264536" flag="0"/>
      <psa03 value="0.2852489721" flag="0"/>
      <psa10 value="0.0626433234" flag="0"/>
      <psa30 value="0.0069845761" flag="0"/>
    </comp>
  </station>
  <station code="GONE" name="GONE" netid="KO" insttype="CMG-5T" commtype="DIG" lat="40.0466" lon="27.686">
    <comp name="--.HNN">
      <acc value="0.1864498538" flag="0"/>
      <vel value="0.1366493753" flag="0"/>
      <psa03 value="0.2380036036" flag="0"/>
      <psa10 value="0.2313212840" flag="0"/>
      <psa30 value="0.0136337724" flag="0"/>
    </comp>
    <comp name="--.HNE">
      <acc value="0.1311814130" flag="0"/>
      <vel value="0.0894576716" flag="0"/>
      <psa03 value="0.2381768131" flag="0"/>
      <psa10 value="0.0627704940" flag="0"/>
      <psa30 value="0.0052533524" flag="0"/>
    </comp>
    <comp name="--.HNZ">
      <acc value="0.0885316567" flag="0"/>
      <vel value="0.0312385198" flag="0"/>
      <psa03 value="0.1281872042" flag="0"/>
      <psa10 value="0.0330733137" flag="0"/>
      <psa30 value="0.0035612796" flag="0"/>
    </comp>
  </station>
  <station code="GORD" name="GORD" netid="KO" insttype="CMG-5T" commtype="DIG" lat="38.9088" lon="28.1769">
    <comp name="--.HNE">
      <acc value="0.1253980429" flag="0"/>
      <vel value="0.1027629813" flag="0"/>
      <psa03 value="0.2954758269" flag="0"/>
      <psa10 value="0.2084955487" flag="0"/>
      <psa30 value="0.0097971430" flag="0"/>
    </comp>
    <comp name="--.HNZ">
      <acc value="0.1088928521" flag="0"/>
      <vel value="0.0768331375" flag="0"/>
      <psa03 value="0.1984350417" flag="0"/>
      <psa10 value="0.0527293169" flag="0"/>
      <psa30 value="0.0042324791" flag="0"/>
    </comp>
    <comp name="--.HNN">
      <acc value="0.1309120522" flag="0"/>
      <vel value="0.1150460990" flag="0"/>
      <psa03 value="0.3056509631" flag="0"/>
      <psa10 value="0.1331420670" flag="0"/>
      <psa30 value="0.0164912728" flag="0"/>
    </comp>
  </station>
  <station code="IZI" name="IZI" netid="KO" insttype="CMG-5T" commtype="DIG" lat="40.3483" lon="29.4612">
    <comp name="--.HNZ">
      <acc value="0.0577159172" flag="0"/>
      <vel value="0.0535058536" flag="0"/>
      <psa03 value="0.1694707462" flag="0"/>
      <psa10 value="0.0481565186" flag="0"/>
      <psa30 value="0.0062435888" flag="0"/>
    </comp>
    <comp name="--.HNE">
      <acc value="0.1246803155" flag="0"/>
      <vel value="0.0594306015" flag="0"/>
      <psa03 value="0.4250926641" flag="0"/>
      <psa10 value="0.0401014345" flag="0"/>
      <psa30 value="0.0058536074" flag="0"/>
    </comp>
    <comp name="--.HNN">
      <acc value="0.1233048274" flag="0"/>
      <vel value="0.0688699520" flag="0"/>
      <psa03 value="0.3652032509" flag="0"/>
      <psa10 value="0.0817796403" flag="0"/>
      <psa30 value="0.0061545693" flag="0"/>
    </comp>
  </station>
  <station code="MDNY" name="MDNY" netid="KO" insttype="CMG-3ESP" commtype="DIG" lat="40.3709" lon="28.8846">
    <comp name="--.HHE">
      <acc value="0.2419757815" flag="0"/>
      <vel value="0.0880211953" flag="0"/>
      <psa03 value="0.6271523902" flag="0"/>
      <psa10 value="0.0866631738" flag="0"/>
      <psa30 value="0.0112623194" flag="0"/>
    </comp>
    <comp name="--.HHZ">
      <acc value="0.1721317409" flag="0"/>
      <vel value="0.0480349566" flag="0"/>
      <psa03 value="0.1252579423" flag="0"/>
      <psa10 value="0.0456832452" flag="0"/>
      <psa30 value="0.0038200281" flag="0"/>
    </comp>
    <comp name="--.HHN">
      <acc value="0.2839531165" flag="0"/>
      <vel value="0.1277846497" flag="0"/>
      <psa03 value="0.6708379479" flag="0"/>
      <psa10 value="0.0546842093" flag="0"/>
      <psa30 value="0.0053330389" flag="0"/>
    </comp>
  </station>
  <station code="ODEM" name="ODEM" netid="KO" insttype="CMG-5T" commtype="DIG" lat="38.2762" lon="28.0747">
    <comp name="--.HNN">
      <acc value="0.0296802931" flag="0"/>
      <vel value="0.0266974478" flag="0"/>
      <psa03 value="0.0666800806" flag="0"/>
      <psa10 value="0.0390066742" flag="0"/>
      <psa30 value="0.0057885574" flag="0"/>
    </comp>
    <comp name="--.HNZ">
      <acc value="0.0216572030" flag="0"/>
      <vel value="0.0167542111" flag="0"/>
      <psa03 value="0.0409045586" flag="0"/>
      <psa10 value="0.0171428591" flag="0"/>
      <psa30 value="0.0038270716" flag="0"/>
    </comp>
    <comp name="--.HNE">
      <acc value="0.0277771614" flag="0"/>
      <vel value="0.0293622688" flag="0"/>
      <psa03 value="0.0621534380" flag="0"/>
      <psa10 value="0.0339483027" flag="0"/>
      <psa30 value="0.0115919042" flag="0"/>
    </comp>
  </station>
  <station code="ORLT" name="ORLT" netid="KO" insttype="CMG-5T" commtype="DIG" lat="40.0452" lon="28.8914">
    <comp name="--.HNN">
      <acc value="0.1467579752" flag="0"/>
      <vel value="0.0797379120" flag="0"/>
      <psa03 value="0.3718304610" flag="0"/>
      <psa10 value="0.0657978826" flag="0"/>
      <psa30 value="0.0065249436" flag="0"/>
    </comp>
    <comp name="--.HNE">
      <acc value="0.1828260747" flag="0"/>
      <vel value="0.0952391948" flag="0"/>
      <psa03 value="0.6176590262" flag="0"/>
      <psa10 value="0.0639183190" flag="0"/>
      <psa30 value="0.0055139187" flag="0"/>
    </comp>
    <comp name="--.HNZ">
      <acc value="0.0673791949" flag="0"/>
      <vel value="0.0272451527" flag="0"/>
      <psa03 value="0.1038087416" flag="0"/>
      <psa10 value="0.0277559491" flag="0"/>
      <psa30 value="0.0052758663" flag="0"/>
    </comp>
  </station>
  <station code="SHAP" name="SHAP" netid="KO" insttype="CMG-5T" commtype="DIG" lat="39.0231" lon="29.222">
    <comp name="--.HNE">
      <acc value="2.0006485971" flag="0"/>
      <vel value="0.5620220828" flag="0"/>
      <psa03 value="3.1623639391" flag="0"/>
      <psa10 value="0.1756870369" flag="0"/>
      <psa30 value="0.0291655458" flag="0"/>
    </comp>
    <comp name="--.HNN">
      <acc value="3.3213717744" flag="0"/>
      <vel value="0.7917204481" flag="0"/>
      <psa03 value="3.7363235622" flag="0"/>
      <psa10 value="0.3106529958" flag="0"/>
      <psa30 value="0.0345791072" flag="0"/>
    </comp>
    <comp name="--.HNZ">
      <acc value="0.8721550810" flag="0"/>
      <vel value="0.2038085904" flag="0"/>
      <psa03 value="1.1371483142" flag="0"/>
      <psa10 value="0.1521149599" flag="0"/>
      <psa30 value="0.0186713847" flag="0"/>
    </comp>
  </station>
  <station code="SMAA" name="SMAA" netid="KO" insttype="CMG-5T" commtype="DIG" lat="39.1005" lon="28.9805">
    <comp name="--.HNE">
      <acc value="2.9152795254" flag="0"/>
      <vel value="1.9620305191" flag="0"/>
      <psa03 value="6.1844462454" flag="0"/>
      <psa10 value="2.4383409530" flag="0"/>
      <psa30 value="0.2083621615" flag="0"/>
    </comp>
    <comp name="--.HNN">
      <acc value="3.2429132361" flag="0"/>
      <vel value="1.5424380914" flag="0"/>
      <psa03 value="10.4064608977" flag="0"/>
      <psa10 value="1.8675871061" flag="0"/>
      <psa30 value="0.1933520856" flag="0"/>
    </comp>
    <comp name="--.HNZ">
      <acc value="3.8149667682" flag="0"/>
      <vel value="0.7035803535" flag="0"/>
      <psa03 value="2.4932204221" flag="0"/>
      <psa10 value="1.3411376476" flag="0"/>
      <psa30 value="0.0512724215" flag="0"/>
    </comp>
  </station>
  <station code="SOMA" name="SOMA" netid="KO" insttype="CMG-5T" commtype="DIG" lat="39.1564" lon="27.5341">
    <comp name="--.HNE">
      <acc value="0.1278527997" flag="0"/>
      <vel value="0.0675458126" flag="0"/>
      <psa03 value="0.3076079690" flag="0"/>
      <psa10 value="0.0634363440" flag="0"/>
      <psa30 value="0.0059028715" flag="0"/>
    </comp>
    <comp name="--.HNN">
      <acc value="0.0960584137" flag="0"/>
      <vel value="0.0567821107" flag="0"/>
      <psa03 value="0.1872299147" flag="0"/>
      <psa10 value="0.0903111205" flag="0"/>
      <psa30 value="0.0045180734" flag="0"/>
    </comp>
    <comp name="--.HNZ">
      <acc value="0.0847414176" flag="0"/>
      <vel value="0.0484784478" flag="0"/>
      <psa03 value="0.1797110593" flag="0"/>
      <psa10 value="0.0563777389" flag="0"/>
      <psa30 value="0.0045272849" flag="0"/>
    </comp>
  </station>
  <station code="SUSR" name="SUSR" netid="KO" insttype="CMG-5T" commtype="DIG" lat="39.9627" lon="28.0835">
    <comp name="--.HNN">
      <acc value="0.1866919310" flag="0"/>
      <vel value="0.0767397729" flag="0"/>
      <psa03 value="0.2438418142" flag="0"/>
      <psa10 value="0.0715593711" flag="0"/>
      <psa30 value="0.0077030969" flag="0"/>
    </comp>
    <comp name="--.HNE">
      <acc value="0.1960949569" flag="0"/>
      <vel value="0.0602837698" flag="0"/>
      <psa03 value="0.3543613793" flag="0"/>
      <psa10 value="0.0402758750" flag="0"/>
      <psa30 value="0.0030100940" flag="0"/>
    </comp>
    <comp name="--.HNZ">
      <acc value="0.1271621960" flag="0"/>
      <vel value="0.0371015995" flag="0"/>
      <psa03 value="0.1546412562" flag="0"/>
      <psa10 value="0.0208269898" flag="0"/>
      <psa30 value="0.0021602869" flag="0"/>
    </comp>
  </station>
  <station code="TVSB" name="TVSB" netid="KO" insttype="CMG-3T" commtype="DIG" lat="39.4497" lon="29.4615">
    <comp name="--.HHN">
      <acc value="1.0404079177" flag="0"/>
      <vel value="0.3778296754" flag="0"/>
      <psa03 value="1.0817293473" flag="0"/>
      <psa10 value="0.2032075646" flag="0"/>
      <psa30 value="0.0223411255" flag="0"/>
    </comp>
    <comp name="--.HHE">
      <acc value="0.9106794347" flag="0"/>
      <vel value="0.2523573513" flag="0"/>
      <psa03 value="1.3759583059" flag="0"/>
      <psa10 value="0.2132422683" flag="0"/>
      <psa30 value="0.0194049803" flag="0"/>
    </comp>
    <comp name="--.HHZ">
      <acc value="0.2432488292" flag="0"/>
      <vel value="0.1683415759" flag="0"/>
      <psa03 value="0.5207378691" flag="0"/>
      <psa10 value="0.2990675445" flag="0"/>
      <psa30 value="0.0250352282" flag="0"/>
    </comp>
  </station>
  <station code="YLV" name="YLV" netid="KO" insttype="CMG-3ESPC" commtype="DIG" lat="40.5658" lon="29.3708">
    <comp name="--.HHN">
      <acc value="0.0639148483" flag="0"/>
      <vel value="0.0359052948" flag="0"/>
      <psa03 value="0.1292289077" flag="0"/>
      <psa10 value="0.0385951082" flag="0"/>
      <psa30 value="0.0029963771" flag="0"/>
    </comp>
    <comp name="--.HHZ">
      <acc value="0.0481606382" flag="0"/>
      <vel value="0.0231603768" flag="0"/>
      <psa03 value="0.0686063214" flag="0"/>
      <psa10 value="0.0234138226" flag="0"/>
      <psa30 value="0.0031380184" flag="0"/>
    </comp>
    <comp name="--.HHE">
      <acc value="0.0759513536" flag="0"/>
      <vel value="0.0384180555" flag="0"/>
      <psa03 value="0.1019604230" flag="0"/>
      <psa10 value="0.0507495930" flag="0"/>
      <psa30 value="0.0033294694" flag="0"/>
    </comp>
  </station>
  <station code="BORA" name="BORA" netid="TU" insttype="T" commtype="DIG" lat="39.8801" lon="30.4534">
    <comp name="--.HHN">
      <acc value="0.0560269477" flag="0"/>
      <vel value="0.0410329540" flag="0"/>
      <psa03 value="0.1335905179" flag="0"/>
      <psa10 value="0.0480645767" flag="0"/>
      <psa30 value="0.0094102134" flag="0"/>
    </comp>
    <comp name="--.HHZ">
      <acc value="0.0438658834" flag="0"/>
      <vel value="0.0267614897" flag="0"/>
      <psa03 value="0.0774840974" flag="0"/>
      <psa10 value="0.0227388013" flag="0"/>
      <psa30 value="0.0043543342" flag="0"/>
    </comp>
    <comp name="--.HHE">
      <acc value="0.0604288980" flag="0"/>
      <vel value="0.0402278586" flag="0"/>
      <psa03 value="0.2373604258" flag="0"/>
      <psa10 value="0.0316794431" flag="0"/>
      <psa30 value="0.0084251086" flag="0"/>
    </comp>
  </station>
</stationlist>
