<?xml version="1.0" encoding="UTF-8" standalone="yes"?>
<!DOCTYPE earthquake SYSTEM "stationlist.dtd">
<stationlist created="" xmlns="ch.ethz.sed.shakemap.usgs.xml">
  <station code="KBN" name="KBN" netid="AC" source="INGV" insttype="" lat="40.6236" lon="20.7874">
    <comp name="--.HHE">
      <acc value="0.2213127487" flag="0"/>
      <vel value="0.1215292409" flag="0"/>
      <psa03 value="0.4599754419" flag="0"/>
      <psa10 value="0.1331121568" flag="0"/>
      <psa30 value="0.0173026258" flag="0"/>
    </comp>
    <comp name="--.HHN">
      <acc value="0.2320473166" flag="0"/>
      <vel value="0.1641900901" flag="0"/>
      <psa03 value="0.4812668549" flag="0"/>
      <psa10 value="0.1666585751" flag="0"/>
      <psa30 value="0.0225294375" flag="0"/>
    </comp>
    <comp name="--.HHZ">
      <acc value="0.1290866106" flag="0"/>
      <vel value="0.0563010804" flag="0"/>
      <psa03 value="0.2025874856" flag="0"/>
      <psa10 value="0.0800186053" flag="0"/>
      <psa30 value="0.0135422046" flag="0"/>
    </comp>
  </station>
  <station code="SRN" name="SRN" netid="AC" source="INGV" insttype="" lat="39.88" lon="20.0005">
    <comp name="--.HHE">
      <acc value="0.0203490436" flag="0"/>
      <vel value="0.0284732416" flag="0"/>
      <psa03 value="0.0481016116" flag="0"/>
      <psa10 value="0.0468722714" flag="0"/>
      <psa30 value="0.0034797995" flag="0"/>
    </comp>
    <comp name="--.HHN">
      <acc value="0.0158372026" flag="0"/>
      <vel value="0.0187433229" flag="0"/>
      <psa03 value="0.0280279410" flag="0"/>
      <psa10 value="0.0244545688" flag="0"/>
      <psa30 value="0.0062002453" flag="0"/>
    </comp>
    <comp name="--.HHZ">
      <acc value="0.0118157226" flag="0"/>
      <vel value="0.0152408028" flag="0"/>
      <psa03 value="0.0296728644" flag="0"/>
      <psa10 value="0.0158792056" flag="0"/>
      <psa30 value="0.0052839598" flag="0"/>
    </comp>
  </station>
  <station code="VLO" name="VLO" netid="AC" source="INGV" insttype="" lat="40.4686" lon="19.4955">
    <comp name="--.HHE">
      <acc value="0.0549255478" flag="0"/>
      <vel value="0.0447131877" flag="0"/>
      <psa03 value="0.1220964765" flag="0"/>
      <psa10 value="0.0662577976" flag="0"/>
      <psa30 value="0.0102162654" flag="0"/>
    </comp>
    <comp name="--.HHN">
      <acc value="0.0584029142" flag="0"/>
      <vel value="0.0419144271" flag="0"/>
      <psa03 value="0.1285623838" flag="0"/>
      <psa10 value="0.0544052764" flag="0"/>
      <psa30 value="0.0135354987" flag="0"/>
    </comp>
    <comp name="--.HHZ">
      <acc value="0.0267091872" flag="0"/>
      <vel value="0.0240700971" flag="0"/>
      <psa03 value="0.0704665608" flag="0"/>
      <psa10 value="0.0321953972" flag="0"/>
      <psa30 value="0.0091561372" flag="0"/>
    </comp>
  </station>
  <station code="JAN" name="JAN" netid="HL" source="NOA" insttype="CMG3EPSC60_DR24" lat="39.6562" lon="20.8487">
    <comp name="--.HHE">
      <acc value="0.0317092395" flag="0"/>
      <vel value="0.0364282151" flag="0"/>
      <psa03 value="0.0785322816" flag="0"/>
      <psa10 value="0.0714071773" flag="0"/>
      <psa30 value="0.0066548534" flag="0"/>
    </comp>
    <comp name="--.HHN">
      <acc value="0.0270599454" flag="0"/>
      <vel value="0.0322936189" flag="0"/>
      <psa03 value="0.0896759312" flag="0"/>
      <psa10 value="0.0467652718" flag="0"/>
      <psa30 value="0.0051616067" flag="0"/>
    </comp>
    <comp name="--.HHZ">
      <acc value="0.0215598077" flag="0"/>
      <vel value="0.0286826213" flag="0"/>
      <psa03 value="0.0374719721" flag="0"/>
      <psa10 value="0.0412214687" flag="0"/>
      <psa30 value="0.0051789701" flag="0"/>
    </comp>
  </station>
  <station code="KZN" name="KZN" netid="HL" source="NOA" insttype="120" lat="40.3033" lon="21.7821">
    <comp name="--.HHE">
      <acc value="0.0844933417" flag="0"/>
      <vel value="0.0532620326" flag="0"/>
      <psa03 value="0.2554851577" flag="0"/>
      <psa10 value="0.0576938397" flag="0"/>
      <psa30 value="0.0103719040" flag="0"/>
    </comp>
    <comp name="--.HHN">
      <acc value="0.0639927832" flag="0"/>
      <vel value="0.0338523638" flag="0"/>
      <psa03 value="0.1811243790" flag="0"/>
      <psa10 value="0.0443810939" flag="0"/>
      <psa30 value="0.0066837424" flag="0"/>
    </comp>
    <comp name="--.HHZ">
      <acc value="0.0499599098" flag="0"/>
      <vel value="0.0470314165" flag="0"/>
      <psa03 value="0.1077500494" flag="0"/>
      <psa10 value="0.0472453963" flag="0"/>
      <psa30 value="0.0122893374" flag="0"/>
    </comp>
  </station>
  <station code="PENT" name="PENT" netid="HL" source="NOA" insttype="30" lat="40.1959" lon="21.1384">
    <comp name="--.HHE">
      <acc value="0.0681151154" flag="0"/>
      <vel value="0.0639722676" flag="0"/>
      <psa03 value="0.2091625419" flag="0"/>
      <psa10 value="0.1217760212" flag="0"/>
      <psa30 value="0.0117656349" flag="0"/>
    </comp>
    <comp name="--.HHN">
      <acc value="0.0227677689" flag="0"/>
      <vel value="0.0128459097" flag="0"/>
      <psa03 value="0.0706107252" flag="0"/>
      <psa10 value="0.0212191013" flag="0"/>
      <psa30 value="0.0036226391" flag="0"/>
    </comp>
    <comp name="--.HHZ">
      <acc value="0.0655791372" flag="0"/>
      <vel value="0.0730258385" flag="0"/>
      <psa03 value="0.1948302868" flag="0"/>
      <psa10 value="0.0773704170" flag="0"/>
      <psa30 value="0.0168795237" flag="0"/>
    </comp>
  </station>
  <station code="FNA" name="FNA" netid="HT" source="GFZ" insttype="CMG-3ESP/90" lat="40.7818" lon="21.3835">
    <comp name="--.HHE">
      <acc value="0.2783000187" flag="0"/>
      <vel value="0.1191082935" flag="0"/>
      <psa03 value="0.9480028178" flag="0"/>
      <psa10 value="0.0495925314" flag="0"/>
      <psa30 value="0.0057635195" flag="0"/>
    </comp>
    <comp name="--.HHN">
      <acc value="0.2447642973" flag="0"/>
      <vel value="0.1133104974" flag="0"/>
      <psa03 value="0.3665155746" flag="0"/>
      <psa10 value="0.0398958211" flag="0"/>
      <psa30 value="0.0131466767" flag="0"/>
    </comp>
    <comp name="--.HHZ">
      <acc value="0.1276513360" flag="0"/>
      <vel value="0.0462372932" flag="0"/>
      <psa03 value="0.1820870622" flag="0"/>
      <psa10 value="0.0413522266" flag="0"/>
      <psa30 value="0.0113938209" flag="0"/>
    </comp>
  </station>
  <station code="GRG" name="GRG" netid="HT" source="GFZ" insttype="CMG-3ESP/90" lat="40.9558" lon="22.4029">
    <comp name="--.HHN">
      <acc value="514477004092452665044072099946908927312888471025446210101311905583759353492368368754118135545962709043276014528671675153790131057117560574920068956638931409166419197914581802533694860836316931848006750746318676553205098217472.0000000000" flag="0"/>
      <vel value="0.0000000000" flag="0"/>
    </comp>
    <comp name="--.HHE">
      <acc value="0.1134674984" flag="0"/>
      <vel value="0.0297904822" flag="0"/>
      <psa03 value="0.0865501653" flag="0"/>
      <psa10 value="0.0322183022" flag="0"/>
      <psa30 value="0.0154628395" flag="0"/>
    </comp>
    <comp name="--.HHZ">
      <acc value="0.0645244707" flag="0"/>
      <vel value="0.0252813226" flag="0"/>
      <psa03 value="0.0398517559" flag="0"/>
      <psa10 value="0.0312489369" flag="0"/>
      <psa30 value="0.0148514795" flag="0"/>
    </comp>
  </station>
  <station code="TIR" name="TIR" netid="MN" source="INGV" insttype="" lat="41.3472" lon="19.8631">
    <comp name="--.HHE">
      <acc value="0.0707747983" flag="0"/>
      <vel value="0.0445281852" flag="0"/>
      <psa03 value="0.1197610126" flag="0"/>
      <psa10 value="0.0435466590" flag="0"/>
      <psa30 value="0.0192461233" flag="0"/>
    </comp>
    <comp name="--.HHN">
      <acc value="0.0612857655" flag="0"/>
      <vel value="0.0555567501" flag="0"/>
      <psa03 value="0.1408700397" flag="0"/>
      <psa10 value="0.0563470902" flag="0"/>
      <psa30 value="0.0128405926" flag="0"/>
    </comp>
    <comp name="--.HHZ">
      <acc value="0.0431746290" flag="0"/>
      <vel value="0.0352832922" flag="0"/>
      <psa03 value="0.0972660106" flag="0"/>
      <psa10 value="0.0402191308" flag="0"/>
      <psa30 value="0.0125766684" flag="0"/>
    </comp>
  </station>
</stationlist>
