<stationlist created="1778118913">
	<station code="PHP" name="PHP" netid="AC" source="Albanian Seismological Network (AC)" insttype="" lat="41.6847" lon="20.4408">
		<comp name="--.HNE" depth="0.0">
			<acc value="4.08468767585002" flag="0"/>
			<vel value="2.11473324087476" flag="0"/>
			<psa03 value="11.4430287111391" flag="0"/>
			<psa10 value="1.43914361619966" flag="0"/>
			<psa30 value="0.446569503037848" flag="0"/>
		</comp>
		<comp name="--.HNN" depth="0.0">
			<acc value="4.2214983268869" flag="0"/>
			<vel value="2.01897451916628" flag="0"/>
			<psa03 value="6.5934367828478" flag="0"/>
			<psa10 value="1.16857717250446" flag="0"/>
			<psa30 value="0.508745808581805" flag="0"/>
		</comp>
		<comp name="--.HNZ" depth="0.0">
			<acc value="3.46362591692987" flag="0"/>
			<vel value="1.40993391553574" flag="0"/>
			<psa03 value="9.96258997270346" flag="0"/>
			<psa10 value="1.50032270901565" flag="0"/>
			<psa30 value="0.505303873900856" flag="0"/>
		</comp>
	</station>
	<station code="MMAA" name="MMAA" netid="EG" source="EUROSEISTEST Strong Motion Network" insttype="" lat="40.630855" lon="22.943725">
		<comp name="--.EN1" depth="0.0">
			<acc value="0.0382658322726013" flag="0"/>
			<vel value="0.0233640060509853" flag="0"/>
			<psa03 value="0.117060338006249" flag="0"/>
			<psa10 value="0.0478900799828758" flag="0"/>
			<psa30 value="0.00646677047511919" flag="0"/>
		</comp>
		<comp name="--.EN2" depth="0.0">
			<acc value="0.047068595632671" flag="0"/>
			<vel value="0.0283261177719465" flag="0"/>
			<psa03 value="0.210617848232245" flag="0"/>
			<psa10 value="0.0664384337203177" flag="0"/>
			<psa30 value="0.00601418341012523" flag="0"/>
		</comp>
		<comp name="--.EN3" depth="0.0">
			<acc value="0.0774552523412851" flag="0"/>
			<vel value="0.0131503714365784" flag="0"/>
			<psa03 value="0.0521763366346782" flag="0"/>
			<psa10 value="0.0141959279105573" flag="0"/>
			<psa30 value="0.00558507956743944" flag="0"/>
		</comp>
	</station>
	<station code="SHTA" name="SHTA" netid="EG" source="EUROSEISTEST Strong Motion Network" insttype="" lat="40.613764" lon="22.952972">
		<comp name="--.EN1" depth="0.0">
			<acc value="0.0275510050119299" flag="0"/>
			<vel value="0.0317031320658056" flag="0"/>
			<psa03 value="0.0641582084996589" flag="0"/>
			<psa10 value="0.0711554361986217" flag="0"/>
			<psa30 value="0.00939780089149805" flag="0"/>
		</comp>
		<comp name="--.EN2" depth="0.0">
			<acc value="0.0253293768647563" flag="0"/>
			<vel value="0.0275405765341782" flag="0"/>
			<psa03 value="0.0720164217761499" flag="0"/>
			<psa10 value="0.0278121030403425" flag="0"/>
			<psa30 value="0.0131773321002483" flag="0"/>
		</comp>
		<comp name="--.EN3" depth="0.0">
			<acc value="0.125160691591982" flag="0"/>
			<vel value="0.0244546255937281" flag="0"/>
			<psa03 value="0.0301840620459781" flag="0"/>
			<psa10 value="0.0428094159136169" flag="0"/>
			<psa30 value="0.00573142759562221" flag="0"/>
		</comp>
	</station>
	<station code="STC" name="STC" netid="EG" source="EUROSEISTEST Strong Motion Network" insttype="" lat="40.64865" lon="23.304856">
		<comp name="--.EN1" depth="0.0">
			<acc value="0.0135228432870606" flag="0"/>
			<vel value="0.0231217315778787" flag="0"/>
			<psa03 value="0.0370042299944654" flag="0"/>
			<psa10 value="0.0311360194834914" flag="0"/>
			<psa30 value="0.0183406849803864" flag="0"/>
		</comp>
		<comp name="--.EN2" depth="0.0">
			<acc value="0.0117264995259927" flag="0"/>
			<vel value="0.0207709308145343" flag="0"/>
			<psa03 value="0.0396171062096939" flag="0"/>
			<psa10 value="0.0237630929382985" flag="0"/>
			<psa30 value="0.0198285218755719" flag="0"/>
		</comp>
		<comp name="--.EN3" depth="0.0">
			<acc value="0.00707885145625702" flag="0"/>
			<vel value="0.019275370976584" flag="0"/>
			<psa03 value="0.0237643372915514" flag="0"/>
			<psa10 value="0.0159894110950177" flag="0"/>
			<psa30 value="0.0112865801805499" flag="0"/>
		</comp>
	</station>
	<station code="ARG2" name="ARG2" netid="HI" source="ITSAK Strong Motion Network" insttype="" lat="38.1783" lon="20.4878">
		<comp name="--.HNE" depth="0.0">
			<acc value="0.00713510592690625" flag="0"/>
			<vel value="0.00811986886402605" flag="0"/>
			<psa03 value="0.0183380533476846" flag="0"/>
			<psa10 value="0.0104919687914316" flag="0"/>
			<psa30 value="0.00211199928458655" flag="0"/>
		</comp>
		<comp name="--.HNN" depth="0.0">
			<acc value="0.00710382971339286" flag="0"/>
			<vel value="0.00647252563354004" flag="0"/>
			<psa03 value="0.0146832187849302" flag="0"/>
			<psa10 value="0.01065706785346" flag="0"/>
			<psa30 value="0.00183350354394505" flag="0"/>
		</comp>
		<comp name="--.HNZ" depth="0.0">
			<acc value="0.0122230450914619" flag="0"/>
			<vel value="0.00439325579986052" flag="0"/>
			<psa03 value="0.0165810997185718" flag="0"/>
			<psa10 value="0.00792512156289406" flag="0"/>
			<psa30 value="0.00152577128319099" flag="0"/>
		</comp>
	</station>
	<station code="ART2" name="ART2" netid="HI" source="ITSAK Strong Motion Network" insttype="" lat="39.1474" lon="20.9937">
		<comp name="--.HNE" depth="0.0">
			<acc value="0.00624585858003505" flag="0"/>
			<vel value="0.0129365717140335" flag="0"/>
			<psa03 value="0.01236193219859" flag="0"/>
			<psa10 value="0.0184620398945174" flag="0"/>
			<psa30 value="0.00345769093005301" flag="0"/>
		</comp>
		<comp name="--.HNN" depth="0.0">
			<acc value="0.00546722624085502" flag="0"/>
			<vel value="0.00962123936684633" flag="0"/>
			<psa03 value="0.00989981922591553" flag="0"/>
			<psa10 value="0.0174221166297318" flag="0"/>
			<psa30 value="0.00431094641237798" flag="0"/>
		</comp>
		<comp name="--.HNZ" depth="0.0">
			<acc value="0.00557805920436649" flag="0"/>
			<vel value="0.0112856346489129" flag="0"/>
			<psa03 value="0.0119405058436638" flag="0"/>
			<psa10 value="0.0142298179681227" flag="0"/>
			<psa30 value="0.00366370645257412" flag="0"/>
		</comp>
	</station>
	<station code="LMS2" name="LMS2" netid="HI" source="ITSAK Strong Motion Network" insttype="" lat="40.834985" lon="21.141815">
		<comp name="--.HNE" depth="0.0">
			<acc value="2.04855628967587" flag="0"/>
			<vel value="0.730138164831781" flag="0"/>
			<psa03 value="2.93647576256379" flag="0"/>
			<psa10 value="0.157600843436333" flag="0"/>
			<psa30 value="0.0408697686354603" flag="0"/>
		</comp>
		<comp name="--.HNN" depth="0.0">
			<acc value="2.28583826198966" flag="0"/>
			<vel value="0.579751762384766" flag="0"/>
			<psa03 value="3.02027791555982" flag="0"/>
			<psa10 value="0.0952901619673305" flag="0"/>
			<psa30 value="0.0255160330123342" flag="0"/>
		</comp>
		<comp name="--.HNZ" depth="0.0">
			<acc value="0.720209669347922" flag="0"/>
			<vel value="0.25020599100064" flag="0"/>
			<psa03 value="1.5451273633554" flag="0"/>
			<psa10 value="0.1066900287916" flag="0"/>
			<psa30 value="0.0398612792982845" flag="0"/>
		</comp>
	</station>
	<station code="MSL1" name="MSL1" netid="HI" source="ITSAK Strong Motion Network" insttype="" lat="38.3727" lon="21.4243">
		<comp name="--.HNE" depth="0.0">
			<acc value="0.0267187251036664" flag="0"/>
			<vel value="0.0440685337956367" flag="0"/>
			<psa03 value="0.0422245159169523" flag="0"/>
			<psa10 value="0.0757732746075668" flag="0"/>
			<psa30 value="0.00883542030323309" flag="0"/>
		</comp>
		<comp name="--.HNN" depth="0.0">
			<acc value="0.0270287779042052" flag="0"/>
			<vel value="0.035855325287599" flag="0"/>
			<psa03 value="0.042304810298561" flag="0"/>
			<psa10 value="0.0827008160231869" flag="0"/>
			<psa30 value="0.00762283164185202" flag="0"/>
		</comp>
		<comp name="--.HNZ" depth="0.0">
			<acc value="0.0159743797491568" flag="0"/>
			<vel value="0.0215105428752669" flag="0"/>
			<psa03 value="0.0155649256311844" flag="0"/>
			<psa10 value="0.0428401004464063" flag="0"/>
			<psa30 value="0.00237947325342519" flag="0"/>
		</comp>
	</station>
	<station code="SKO1" name="SKO1" netid="HI" source="ITSAK Strong Motion Network" insttype="" lat="39.123383" lon="23.728705">
		<comp name="--.HNE" depth="0.0">
			<acc value="0.00192514094443306" flag="0"/>
			<vel value="0.000176660408840778" flag="0"/>
			<psa03 value="0.000175839305554981" flag="0"/>
			<psa10 value="0.00012319043126936" flag="0"/>
			<psa30 value="8.38908373040651e-05" flag="0"/>
		</comp>
		<comp name="--.HNN" depth="0.0">
			<acc value="0.00122189132042984" flag="0"/>
			<vel value="0.000178861070863488" flag="0"/>
			<psa03 value="0.000229641250203426" flag="0"/>
			<psa10 value="0.00012911806515675" flag="0"/>
			<psa30 value="9.66696395660662e-05" flag="0"/>
		</comp>
		<comp name="--.HNZ" depth="0.0">
			<acc value="0.00498036478480508" flag="0"/>
			<vel value="0.00037123918407643" flag="0"/>
			<psa03 value="0.000346806543567456" flag="0"/>
			<psa10 value="0.000230761531936005" flag="0"/>
			<psa30 value="0.000156424112329918" flag="0"/>
		</comp>
	</station>
	<station code="AGXA" name="AGXA" netid="HL" source="National Observatory of Athens Seismic Network" insttype="" lat="39.27649" lon="22.81999">
		<comp name="00.HNE" depth="0.0">
			<acc value="0.0144648945172304" flag="0"/>
			<vel value="0.0171015978255861" flag="0"/>
			<psa03 value="0.0264353189184944" flag="0"/>
			<psa10 value="0.0276870847584843" flag="0"/>
			<psa30 value="0.0047907031939157" flag="0"/>
		</comp>
		<comp name="00.HNN" depth="0.0">
			<acc value="0.0131706357712503" flag="0"/>
			<vel value="0.0161596445458295" flag="0"/>
			<psa03 value="0.0274816746927246" flag="0"/>
			<psa10 value="0.0274242242202583" flag="0"/>
			<psa30 value="0.00347544460614957" flag="0"/>
		</comp>
		<comp name="00.HNZ" depth="0.0">
			<acc value="0.0497557870215617" flag="0"/>
			<vel value="0.0153062486592658" flag="0"/>
			<psa03 value="0.0151797308430915" flag="0"/>
			<psa10 value="0.019931336603215" flag="0"/>
			<psa30 value="0.0075147411480677" flag="0"/>
		</comp>
	</station>
	<station code="ARTB" name="ARTB" netid="HL" source="National Observatory of Athens Seismic Network" insttype="" lat="39.15702" lon="20.9785">
		<comp name="00.HNE" depth="0.0">
			<acc value="0.0207593649206569" flag="0"/>
			<vel value="0.0171914867299268" flag="0"/>
			<psa03 value="0.0551814002886007" flag="0"/>
			<psa10 value="0.0235803245807671" flag="0"/>
			<psa30 value="0.0037678608522895" flag="0"/>
		</comp>
		<comp name="00.HNN" depth="0.0">
			<acc value="0.0131143289860365" flag="0"/>
			<vel value="0.0176452509994732" flag="0"/>
			<psa03 value="0.0502140347667703" flag="0"/>
			<psa10 value="0.0275982976267888" flag="0"/>
			<psa30 value="0.00501602103678182" flag="0"/>
		</comp>
		<comp name="00.HNZ" depth="0.0">
			<acc value="0.0123427826809475" flag="0"/>
			<vel value="0.0100326192724402" flag="0"/>
			<psa03 value="0.0132427236195966" flag="0"/>
			<psa10 value="0.0174777759418834" flag="0"/>
			<psa30 value="0.00395479906936265" flag="0"/>
		</comp>
	</station>
	<station code="DLFA" name="DLFA" netid="HL" source="National Observatory of Athens Seismic Network" insttype="" lat="38.47836" lon="22.49583">
		<comp name="00.HNE" depth="0.0">
			<acc value="0.00314165173800979" flag="0"/>
			<vel value="0.00604443335354229" flag="0"/>
			<psa03 value="0.007516268098149" flag="0"/>
			<psa10 value="0.0117566181932665" flag="0"/>
			<psa30 value="0.00266046957638687" flag="0"/>
		</comp>
		<comp name="00.HNN" depth="0.0">
			<acc value="0.00421164905864071" flag="0"/>
			<vel value="0.00502101451831524" flag="0"/>
			<psa03 value="0.00774171337133853" flag="0"/>
			<psa10 value="0.0096068445313107" flag="0"/>
			<psa30 value="0.00241790288253342" flag="0"/>
		</comp>
		<comp name="00.HNZ" depth="0.0">
			<acc value="0.00204462969495117" flag="0"/>
			<vel value="0.00403457791004361" flag="0"/>
			<psa03 value="0.00487318838471287" flag="0"/>
			<psa10 value="0.00475267952918132" flag="0"/>
			<psa30 value="0.00216906389817348" flag="0"/>
		</comp>
	</station>
	<station code="GINA" name="GINA" netid="HL" source="National Observatory of Athens Seismic Network" insttype="" lat="39.66886" lon="22.389">
		<comp name="00.HNE" depth="0.0">
			<acc value="0.025597227805889" flag="0"/>
			<vel value="0.0377557274758998" flag="0"/>
			<psa03 value="0.0591928379017269" flag="0"/>
			<psa10 value="0.0615862122842214" flag="0"/>
			<psa30 value="0.012255899393172" flag="0"/>
		</comp>
		<comp name="00.HNN" depth="0.0">
			<acc value="0.0321266965582753" flag="0"/>
			<vel value="0.0483428456351652" flag="0"/>
			<psa03 value="0.0579086799156211" flag="0"/>
			<psa10 value="0.0762033005948119" flag="0"/>
			<psa30 value="0.0191838125000933" flag="0"/>
		</comp>
		<comp name="00.HNZ" depth="0.0">
			<acc value="0.0165410878704249" flag="0"/>
			<vel value="0.0243820591381021" flag="0"/>
			<psa03 value="0.0232609367562341" flag="0"/>
			<psa10 value="0.0575604255956818" flag="0"/>
			<psa30 value="0.00530781578340819" flag="0"/>
		</comp>
	</station>
	<station code="JAN" name="JAN" netid="HL" source="National Observatory of Athens Seismic Network" insttype="" lat="39.65616" lon="20.84874">
		<comp name="00.HNE" depth="0.0">
			<acc value="0.0321806809651292" flag="0"/>
			<vel value="0.03663246107107" flag="0"/>
			<psa03 value="0.0803122608797978" flag="0"/>
			<psa10 value="0.0714152730937545" flag="0"/>
			<psa30 value="0.006875982313096" flag="0"/>
		</comp>
		<comp name="00.HNN" depth="0.0">
			<acc value="0.02670155893093" flag="0"/>
			<vel value="0.0335630540874905" flag="0"/>
			<psa03 value="0.0882763736578502" flag="0"/>
			<psa10 value="0.0464088538148024" flag="0"/>
			<psa30 value="0.00515519704655727" flag="0"/>
		</comp>
		<comp name="00.HNZ" depth="0.0">
			<acc value="0.0212648204958091" flag="0"/>
			<vel value="0.030024352942639" flag="0"/>
			<psa03 value="0.0357042808813809" flag="0"/>
			<psa10 value="0.0405257010665658" flag="0"/>
			<psa30 value="0.00499188799240058" flag="0"/>
		</comp>
	</station>
	<station code="KASA" name="KASA" netid="HL" source="National Observatory of Athens Seismic Network" insttype="" lat="39.74628" lon="19.93542">
		<comp name="00.HNE" depth="0.0">
			<acc value="0.01601038905459" flag="0"/>
			<vel value="0.0178067044176461" flag="0"/>
			<psa03 value="0.0327960374511932" flag="0"/>
			<psa10 value="0.0240037464286366" flag="0"/>
			<psa30 value="0.0044657196425697" flag="0"/>
		</comp>
		<comp name="00.HNN" depth="0.0">
			<acc value="0.0148444709162686" flag="0"/>
			<vel value="0.0164477236965119" flag="0"/>
			<psa03 value="0.03029047388057" flag="0"/>
			<psa10 value="0.0172065103991888" flag="0"/>
			<psa30 value="0.00513774758597615" flag="0"/>
		</comp>
		<comp name="00.HNZ" depth="0.0">
			<acc value="0.0117505446478337" flag="0"/>
			<vel value="0.0149292188667854" flag="0"/>
			<psa03 value="0.0274717148636189" flag="0"/>
			<psa10 value="0.0266171387172099" flag="0"/>
			<psa30 value="0.00476951922550777" flag="0"/>
		</comp>
	</station>
	<station code="NASA" name="NASA" netid="HL" source="National Observatory of Athens Seismic Network" insttype="" lat="40.63111" lon="22.06706">
		<comp name="00.HNE" depth="0.0">
			<acc value="0.113384404052857" flag="0"/>
			<vel value="0.0891419919293633" flag="0"/>
			<psa03 value="0.233358688034567" flag="0"/>
			<psa10 value="0.099327399952966" flag="0"/>
			<psa30 value="0.0116317655473928" flag="0"/>
		</comp>
		<comp name="00.HNN" depth="0.0">
			<acc value="0.089887030903677" flag="0"/>
			<vel value="0.075126264888956" flag="0"/>
			<psa03 value="0.206536161173569" flag="0"/>
			<psa10 value="0.074415264646125" flag="0"/>
			<psa30 value="0.0127376571406092" flag="0"/>
		</comp>
		<comp name="00.HNZ" depth="0.0">
			<acc value="0.0560388811814101" flag="0"/>
			<vel value="0.0421047102804127" flag="0"/>
			<psa03 value="0.128718651979068" flag="0"/>
			<psa10 value="0.0793648275304264" flag="0"/>
			<psa30 value="0.0155299804516676" flag="0"/>
		</comp>
	</station>
	<station code="NVR" name="NVR" netid="HL" source="National Observatory of Athens Seismic Network" insttype="" lat="41.34846" lon="23.86517">
		<comp name="00.HNE" depth="0.0">
			<acc value="0.0351317560820596" flag="0"/>
			<vel value="0.0235619786038862" flag="0"/>
			<psa03 value="0.100463321868471" flag="0"/>
			<psa10 value="0.0317102969015433" flag="0"/>
			<psa30 value="0.00358366615029352" flag="0"/>
		</comp>
		<comp name="00.HNN" depth="0.0">
			<acc value="0.0307947580791223" flag="0"/>
			<vel value="0.0272010856027204" flag="0"/>
			<psa03 value="0.130508322619396" flag="0"/>
			<psa10 value="0.0201772328926681" flag="0"/>
			<psa30 value="0.00500539241602598" flag="0"/>
		</comp>
		<comp name="00.HNZ" depth="0.0">
			<acc value="0.0182794543939838" flag="0"/>
			<vel value="0.0178970029571924" flag="0"/>
			<psa03 value="0.0468883457063384" flag="0"/>
			<psa10 value="0.0180521171141837" flag="0"/>
			<psa30 value="0.00564655030623761" flag="0"/>
		</comp>
	</station>
	<station code="PATG" name="PATG" netid="HL" source="National Observatory of Athens Seismic Network" insttype="" lat="38.23865" lon="21.72657">
		<comp name="00.HNE" depth="0.0">
			<acc value="0.00995001879171425" flag="0"/>
			<vel value="0.0239625551257554" flag="0"/>
			<psa03 value="0.0144054894492459" flag="0"/>
			<psa10 value="0.0328851447294664" flag="0"/>
			<psa30 value="0.0116772102245518" flag="0"/>
		</comp>
		<comp name="00.HNN" depth="0.0">
			<acc value="0.0115223765727478" flag="0"/>
			<vel value="0.0331498216923661" flag="0"/>
			<psa03 value="0.0178085247794351" flag="0"/>
			<psa10 value="0.0336024847496928" flag="0"/>
			<psa30 value="0.0143160050317588" flag="0"/>
		</comp>
		<comp name="00.HNZ" depth="0.0">
			<acc value="0.0208357194617332" flag="0"/>
			<vel value="0.0126164644929744" flag="0"/>
			<psa03 value="0.0119184757384292" flag="0"/>
			<psa10 value="0.0170681981843782" flag="0"/>
			<psa30 value="0.00747950298035406" flag="0"/>
		</comp>
	</station>
	<station code="SMHA" name="SMHA" netid="HL" source="National Observatory of Athens Seismic Network" insttype="" lat="38.25123" lon="20.6477">
		<comp name="00.HNE" depth="0.0">
			<acc value="0.0125670482269727" flag="0"/>
			<vel value="0.0125641098085717" flag="0"/>
			<psa03 value="0.0355950142450164" flag="0"/>
			<psa10 value="0.0177251367033288" flag="0"/>
			<psa30 value="0.00256099277820122" flag="0"/>
		</comp>
		<comp name="00.HNN" depth="0.0">
			<acc value="0.0110605218364064" flag="0"/>
			<vel value="0.0136050453964191" flag="0"/>
			<psa03 value="0.041397159025288" flag="0"/>
			<psa10 value="0.0172666425803223" flag="0"/>
			<psa30 value="0.00332198110661255" flag="0"/>
		</comp>
		<comp name="00.HNZ" depth="0.0">
			<acc value="0.00780937116987502" flag="0"/>
			<vel value="0.00554035529662783" flag="0"/>
			<psa03 value="0.0121556880671736" flag="0"/>
			<psa10 value="0.00911258335143129" flag="0"/>
			<psa30 value="0.00150082692241748" flag="0"/>
		</comp>
	</station>
	<station code="SOFA" name="SOFA" netid="HL" source="National Observatory of Athens Seismic Network" insttype="" lat="39.33773" lon="22.09691">
		<comp name="00.HNE" depth="0.0">
			<acc value="0.0333769916117685" flag="0"/>
			<vel value="0.044385625752188" flag="0"/>
			<psa03 value="0.085986295128273" flag="0"/>
			<psa10 value="0.0565393117018725" flag="0"/>
			<psa30 value="0.00942906129570316" flag="0"/>
		</comp>
		<comp name="00.HNN" depth="0.0">
			<acc value="0.0458053435918584" flag="0"/>
			<vel value="0.0458577611094288" flag="0"/>
			<psa03 value="0.0873279985929029" flag="0"/>
			<psa10 value="0.0461147198738922" flag="0"/>
			<psa30 value="0.0106860112291448" flag="0"/>
		</comp>
		<comp name="00.HNZ" depth="0.0">
			<acc value="0.0226002929566004" flag="0"/>
			<vel value="0.0179994134179376" flag="0"/>
			<psa03 value="0.0239540373582526" flag="0"/>
			<psa10 value="0.0277717728686561" flag="0"/>
			<psa30 value="0.0049076413571698" flag="0"/>
		</comp>
	</station>
