<stationlist created="1775820603">
	<station code="BLY" name="BLY" netid="MN" source="Mediterranean Very Broadband Seismographic Network (MedNet)" insttype="" lat="44.7488" lon="17.1839">
		<comp name="--.HNE" depth="1.0">
			<acc value="0.0361589541451078" flag="0"/>
			<vel value="0.0168629614783107" flag="0"/>
			<psa03 value="0.0952418093026666" flag="0"/>
			<psa10 value="0.0118492896447926" flag="0"/>
			<psa30 value="0.00055401925314169" flag="0"/>
		</comp>
		<comp name="--.HNN" depth="1.0">
			<acc value="0.034394277721814" flag="0"/>
			<vel value="0.0137629419235912" flag="0"/>
			<psa03 value="0.0906876742800093" flag="0"/>
			<psa10 value="0.00734789738714606" flag="0"/>
			<psa30 value="0.00049008527824262" flag="0"/>
		</comp>
		<comp name="--.HNZ" depth="1.0">
			<acc value="0.0283853365804381" flag="0"/>
			<vel value="0.0108121851302498" flag="0"/>
			<psa03 value="0.0683299171465041" flag="0"/>
			<psa10 value="0.00456998477029355" flag="0"/>
			<psa30 value="0.000326546371678049" flag="0"/>
		</comp>
	</station>
</stationlist>
