<?xml version="1.0" encoding="UTF-8" standalone="yes"?>
<!DOCTYPE earthquake SYSTEM "stationlist.dtd">
<stationlist created="" xmlns="ch.ethz.sed.shakemap.usgs.xml">
  <station code="BLY" name="BLY" netid="MN" insttype="" lat="44.7488" lon="17.1839">
    <comp name="--.HHZ">
      <acc value="0.0292788282" flag="0"/>
      <vel value="0.0109552386" flag="0"/>
      <psa03 value="0.0697822142" flag="0"/>
      <psa10 value="0.0045369387" flag="0"/>
      <psa30 value="0.0003461517" flag="0"/>
    </comp>
    <comp name="--.HHN">
      <acc value="0.0336173551" flag="0"/>
      <vel value="0.0134242885" flag="0"/>
      <psa03 value="0.0869427166" flag="0"/>
      <psa10 value="0.0073405939" flag="0"/>
      <psa30 value="0.0004760616" flag="0"/>
    </comp>
    <comp name="--.HHE">
      <acc value="0.0379967266" flag="0"/>
      <vel value="0.0170232842" flag="0"/>
      <psa03 value="0.0979363282" flag="0"/>
      <psa10 value="0.0119546293" flag="0"/>
      <psa30 value="0.0005558096" flag="0"/>
    </comp>
  </station>
</stationlist>
