<stationlist created="1631706334">
	<station code="BLY" name="BLY" netid="MN" source="Mediterranean Very Broadband Seismographic Network (MedNet)" insttype="" lat="44.7488" lon="17.1839">
		<comp name="--.HNE" depth="1.0">
			<acc value="0.036100266033" flag="0"/>
			<vel value="0.0168049679487" flag="0"/>
			<psa03 value="0.0952418093027" flag="0"/>
			<psa10 value="0.0118492896448" flag="0"/>
			<psa30 value="0.000554019253142" flag="0"/>
		</comp>
			<acc value="0.036100266033" flag="0"/>
			<vel value="0.0168049679487" flag="0"/>
			<psa03 value="0.0952460595841" flag="0"/>
			<psa10 value="0.011859988166" flag="0"/>
			<psa30 value="0.000552377686059" flag="0"/>
		</comp>
			<acc value="0.0360988261883" flag="0"/>
			<vel value="0.0168150565821" flag="0"/>
			<psa03 value="0.0952418093027" flag="0"/>
			<psa10 value="0.0118492896448" flag="0"/>
			<psa30 value="0.000554019253142" flag="0"/>
		</comp>
			<acc value="0.0360988261883" flag="0"/>
			<vel value="0.0168150565821" flag="0"/>
			<psa03 value="0.0952460595841" flag="0"/>
			<psa10 value="0.011859988166" flag="0"/>
			<psa30 value="0.000552377686059" flag="0"/>
		</comp>
		<comp name="--.HNN" depth="1.0">
			<acc value="0.0342282346123" flag="0"/>
			<vel value="0.0137123175593" flag="0"/>
			<psa03 value="0.09068767428" flag="0"/>
			<psa10 value="0.00734789738715" flag="0"/>
			<psa30 value="0.000490085278243" flag="0"/>
		</comp>
			<acc value="0.0342282346123" flag="0"/>
			<vel value="0.0137123175593" flag="0"/>
			<psa03 value="0.0906842990564" flag="0"/>
			<psa10 value="0.00734985314169" flag="0"/>
			<psa30 value="0.000489775570228" flag="0"/>
		</comp>
			<acc value="0.0342313796236" flag="0"/>
			<vel value="0.0137171247488" flag="0"/>
			<psa03 value="0.09068767428" flag="0"/>
			<psa10 value="0.00734789738715" flag="0"/>
			<psa30 value="0.000490085278243" flag="0"/>
		</comp>
			<acc value="0.0342313796236" flag="0"/>
			<vel value="0.0137171247488" flag="0"/>
			<psa03 value="0.0906842990564" flag="0"/>
			<psa10 value="0.00734985314169" flag="0"/>
			<psa30 value="0.000489775570228" flag="0"/>
		</comp>
		<comp name="--.HNZ" depth="1.0">
			<acc value="0.0281741258752" flag="0"/>
			<vel value="0.010770298489" flag="0"/>
			<psa03 value="0.0683299171465" flag="0"/>
			<psa10 value="0.00456998477029" flag="0"/>
			<psa30 value="0.000326546371678" flag="0"/>
		</comp>
			<acc value="0.0281741258752" flag="0"/>
			<vel value="0.010770298489" flag="0"/>
			<psa03 value="0.0683271773816" flag="0"/>
			<psa10 value="0.00457457132414" flag="0"/>
			<psa30 value="0.000323586904794" flag="0"/>
		</comp>
			<acc value="0.0281720395341" flag="0"/>
			<vel value="0.0107657873739" flag="0"/>
			<psa03 value="0.0683299171465" flag="0"/>
			<psa10 value="0.00456998477029" flag="0"/>
			<psa30 value="0.000326546371678" flag="0"/>
		</comp>
			<acc value="0.0281720395341" flag="0"/>
			<vel value="0.0107657873739" flag="0"/>
			<psa03 value="0.0683271773816" flag="0"/>
			<psa10 value="0.00457457132414" flag="0"/>
			<psa30 value="0.000323586904794" flag="0"/>
		</comp>
	</station>
</stationlist>
