<stationlist created="1778136481">
	<station code="LPEL" name="LPEL" netid="IV" source="Italian National Seismic Network (INSN)" insttype="" lat="42.0468" lon="14.1832">
		<comp name="--.HNE" depth="0.0">
			<acc value="0.00432037969999576" flag="0"/>
			<vel value="0.0026627468025337" flag="0"/>
			<psa03 value="0.0219236812429532" flag="0"/>
			<psa10 value="0.0027261426492513" flag="0"/>
			<psa30 value="0.000172257495480346" flag="0"/>
		</comp>
		<comp name="--.HNN" depth="0.0">
			<acc value="0.0039119227195466" flag="0"/>
			<vel value="0.0017280462687556" flag="0"/>
			<psa03 value="0.00724823747216002" flag="0"/>
			<psa10 value="0.00240802556019539" flag="0"/>
			<psa30 value="0.000205366728377867" flag="0"/>
		</comp>
		<comp name="--.HNZ" depth="0.0">
			<acc value="0.00232311382283985" flag="0"/>
			<vel value="0.00171265831354897" flag="0"/>
			<psa03 value="0.0076061751251062" flag="0"/>
			<psa10 value="0.0024362131503649" flag="0"/>
			<psa30 value="0.000237581117143023" flag="0"/>
		</comp>
	</station>
	<station code="TREM" name="TREM" netid="IV" source="Italian National Seismic Network (INSN)" insttype="" lat="42.123" lon="15.51">
		<comp name="--.HNE" depth="0.0">
			<acc value="0.0208897090050366" flag="0"/>
			<vel value="0.0119246933855208" flag="0"/>
			<psa03 value="0.0544065232478185" flag="0"/>
			<psa10 value="0.00779185528257203" flag="0"/>
			<psa30 value="0.000735114454738205" flag="0"/>
		</comp>
		<comp name="--.HNN" depth="0.0">
			<acc value="0.0305258254687148" flag="0"/>
			<vel value="0.0150553823144971" flag="0"/>
			<psa03 value="0.10044625385802" flag="0"/>
			<psa10 value="0.0108763830068357" flag="0"/>
			<psa30 value="0.000824598867974748" flag="0"/>
		</comp>
		<comp name="--.HNZ" depth="0.0">
			<acc value="0.0206684495081026" flag="0"/>
			<vel value="0.00926927244567642" flag="0"/>
			<psa03 value="0.062236409406016" flag="0"/>
			<psa10 value="0.00266574067031663" flag="0"/>
			<psa30 value="0.000391494307909878" flag="0"/>
		</comp>
	</station>
	<station code="TRIV" name="TRIV" netid="IV" source="Italian National Seismic Network (INSN)" insttype="" lat="41.7666" lon="14.5502">
		<comp name="--.HNE" depth="0.0">
			<acc value="0.00322506496642972" flag="0"/>
			<vel value="0.00279676495302238" flag="0"/>
			<psa03 value="0.0119014269604603" flag="0"/>
			<psa10 value="0.00361606513888872" flag="0"/>
			<psa30 value="0.00105994287478686" flag="0"/>
		</comp>
		<comp name="--.HNN" depth="0.0">
			<acc value="0.00271278353052873" flag="0"/>
			<vel value="0.00266418788800538" flag="0"/>
			<psa03 value="0.00975380104278324" flag="0"/>
			<psa10 value="0.00332613564000232" flag="0"/>
			<psa30 value="0.000738693831267666" flag="0"/>
		</comp>
		<comp name="--.HNZ" depth="0.0">
			<acc value="0.00195013789264625" flag="0"/>
			<vel value="0.00204614279567819" flag="0"/>
			<psa03 value="0.00527958038095607" flag="0"/>
			<psa10 value="0.0030160721481377" flag="0"/>
			<psa30 value="0.000533327102889799" flag="0"/>
		</comp>
	</station>
	<station code="AND3" name="AND3" netid="IX" source="Irpinia Seismic Network (ISNet)" insttype="" lat="40.9298" lon="15.3331">
		<comp name="01.HNE" depth="0.0">
			<acc value="0.00328893239167834" flag="0"/>
			<vel value="0.00175617184667393" flag="0"/>
			<psa03 value="0.00630865113317632" flag="0"/>
			<psa10 value="0.00246842753913005" flag="0"/>
			<psa30 value="0.000372702581130204" flag="0"/>
		</comp>
		<comp name="01.HNN" depth="0.0">
			<acc value="0.00440141229116545" flag="0"/>
			<vel value="0.00181897967689113" flag="0"/>
			<psa03 value="0.0122146224067882" flag="0"/>
			<psa10 value="0.00191272933293112" flag="0"/>
			<psa30 value="0.000408048924358638" flag="0"/>
		</comp>
		<comp name="01.HNZ" depth="0.0">
			<acc value="0.00241788683666263" flag="0"/>
			<vel value="0.00102724131098733" flag="0"/>
			<psa03 value="0.00505586934786471" flag="0"/>
			<psa10 value="0.00152212986915361" flag="0"/>
			<psa30 value="0.000324828420048653" flag="0"/>
		</comp>
	</station>
	<station code="BSC3" name="BSC3" netid="IX" source="Irpinia Seismic Network (ISNet)" insttype="" lat="41.012" lon="15.3852">
		<comp name="01.HNE" depth="0.0">
			<acc value="0.0170238178611943" flag="0"/>
			<vel value="0.00197828763910002" flag="0"/>
			<psa03 value="0.0055480336206657" flag="0"/>
			<psa10 value="0.00235165037985636" flag="0"/>
			<psa30 value="0.000953009000969188" flag="0"/>
		</comp>
		<comp name="01.HNN" depth="0.0">
			<acc value="0.0173491639132026" flag="0"/>
			<vel value="0.00212705016791713" flag="0"/>
			<psa03 value="0.00899318353027262" flag="0"/>
			<psa10 value="0.00741736301317709" flag="0"/>
			<psa30 value="0.00209572495799985" flag="0"/>
		</comp>
		<comp name="01.HNZ" depth="0.0">
			<acc value="0.00282129562357969" flag="0"/>
			<vel value="0.00117511065381499" flag="0"/>
			<psa03 value="0.00286350122356939" flag="0"/>
			<psa10 value="0.000982538857337248" flag="0"/>
			<psa30 value="0.000374044847328752" flag="0"/>
		</comp>
	</station>
	<station code="CLT3" name="CLT3" netid="IX" source="Irpinia Seismic Network (ISNet)" insttype="" lat="40.903" lon="15.4043">
		<comp name="01.HNE" depth="0.0">
			<acc value="0.00194518496875738" flag="0"/>
			<vel value="0.000164754267673832" flag="0"/>
			<psa03 value="0.0161966787958144" flag="0"/>
			<psa10 value="0.00154226386213183" flag="0"/>
			<psa30 value="0.000310958335996989" flag="0"/>
		</comp>
		<comp name="01.HNN" depth="0.0">
			<acc value="0.00240145904870419" flag="0"/>
			<vel value="0.00020979781446535" flag="0"/>
			<psa03 value="0.0194628598789482" flag="0"/>
			<psa10 value="0.0022912484009217" flag="0"/>
			<psa30 value="0.00039686337270407" flag="0"/>
		</comp>
		<comp name="01.HNZ" depth="0.0">
			<acc value="0.00106039641489799" flag="0"/>
			<vel value="9.57125473791567e-05" flag="0"/>
			<psa03 value="0.00684555761259558" flag="0"/>
			<psa10 value="0.00221473922760445" flag="0"/>
			<psa30 value="0.000399995327167349" flag="0"/>
		</comp>
	</station>
	<station code="CMP3" name="CMP3" netid="IX" source="Irpinia Seismic Network (ISNet)" insttype="" lat="40.6519" lon="15.0802">
		<comp name="01.HNE" depth="0.0">
			<acc value="0.0025652536041414" flag="0"/>
			<vel value="0.00119634416267253" flag="0"/>
			<psa03 value="0.00711401085230521" flag="0"/>
			<psa10 value="0.00138924551549734" flag="0"/>
			<psa30 value="0.000285455278224574" flag="0"/>
		</comp>
		<comp name="01.HNN" depth="0.0">
			<acc value="0.00410960020424292" flag="0"/>
			<vel value="0.00289665970921041" flag="0"/>
			<psa03 value="0.0127962710928257" flag="0"/>
			<psa10 value="0.00164696062561858" flag="0"/>
			<psa30 value="0.000455923085440189" flag="0"/>
		</comp>
		<comp name="01.HNZ" depth="0.0">
			<acc value="0.00081831734054426" flag="0"/>
			<vel value="0.000492298565907944" flag="0"/>
			<psa03 value="0.0023713369507684" flag="0"/>
			<psa10 value="0.000744957740194225" flag="0"/>
			<psa30 value="0.000334671705504673" flag="0"/>
		</comp>
	</station>
	<station code="COL3" name="COL3" netid="IX" source="Irpinia Seismic Network (ISNet)" insttype="" lat="40.6871" lon="15.3304">
		<comp name="01.HNE" depth="0.0">
			<acc value="0.00364643265216823" flag="0"/>
			<vel value="0.00197539605909573" flag="0"/>
			<psa03 value="0.00930637897660052" flag="0"/>
			<psa10 value="0.000982538857337248" flag="0"/>
			<psa30 value="0.000248319246731408" flag="0"/>
		</comp>
		<comp name="01.HNN" depth="0.0">
			<acc value="0.00452254109422797" flag="0"/>
			<vel value="0.00311105045011701" flag="0"/>
			<psa03 value="0.0115882315141324" flag="0"/>
			<psa10 value="0.00183622015961387" flag="0"/>
			<psa30 value="0.000398205638902619" flag="0"/>
		</comp>
		<comp name="01.HNZ" depth="0.0">
			<acc value="0.0013689300317684" flag="0"/>
			<vel value="0.000705977113587387" flag="0"/>
			<psa03 value="0.00331092328975211" flag="0"/>
			<psa10 value="0.000535564213220713" flag="0"/>
			<psa30 value="0.000289482076820218" flag="0"/>
		</comp>
	</station>
	<station code="LGS3" name="LGS3" netid="IX" source="Irpinia Seismic Network (ISNet)" insttype="" lat="40.9865" lon="14.9906">
		<comp name="01.HNE" depth="0.0">
			<acc value="0.00204024779158297" flag="0"/>
			<vel value="0.00107059199459137" flag="0"/>
			<psa03 value="0.00657710437288595" flag="0"/>
			<psa10 value="0.000994619253124181" flag="0"/>
			<psa30 value="0.000377176801792031" flag="0"/>
		</comp>
		<comp name="01.HNN" depth="0.0">
			<acc value="0.0029387929148871" flag="0"/>
			<vel value="0.00137251859161298" flag="0"/>
			<psa03 value="0.00930637897660052" flag="0"/>
			<psa10 value="0.000825493712107114" flag="0"/>
			<psa30 value="0.00034898921162252" flag="0"/>
		</comp>
		<comp name="01.HNZ" depth="0.0">
			<acc value="0.00455730364987782" flag="0"/>
			<vel value="0.000658458101017605" flag="0"/>
			<psa03 value="0.00187917267796741" flag="0"/>
			<psa10 value="0.000660394969685691" flag="0"/>
			<psa30 value="0.000311853180129354" flag="0"/>
		</comp>
	</station>
	<station code="LIO3" name="LIO3" netid="IX" source="Irpinia Seismic Network (ISNet)" insttype="" lat="40.8969" lon="15.1804">
		<comp name="01.HNE" depth="0.0">
			<acc value="0.00212515594246511" flag="0"/>
			<vel value="0.00131867084096415" flag="0"/>
			<psa03 value="0.00532432258757434" flag="0"/>
			<psa10 value="0.00122011997448027" flag="0"/>
			<psa30 value="0.000482320987344969" flag="0"/>
		</comp>
		<comp name="01.HNN" depth="0.0">
			<acc value="0.00143019487549025" flag="0"/>
			<vel value="0.00124190987860115" flag="0"/>
			<psa03 value="0.00438473624859063" flag="0"/>
			<psa10 value="0.00184427375680516" flag="0"/>
			<psa30 value="0.000291271765084949" flag="0"/>
		</comp>
		<comp name="01.HNZ" depth="0.0">
			<acc value="0.000829541449790867" flag="0"/>
			<vel value="0.000763623858161121" flag="0"/>
			<psa03 value="0.00214762591767704" flag="0"/>
			<psa10 value="0.00140535270987992" flag="0"/>
			<psa30 value="0.000197313131186578" flag="0"/>
		</comp>
	</station>
	<station code="PGN3" name="PGN3" netid="IX" source="Irpinia Seismic Network (ISNet)" insttype="" lat="40.5722" lon="15.7967">
		<comp name="01.HNE" depth="0.0">
			<acc value="0.00165232689107674" flag="0"/>
			<vel value="0.000989421439310624" flag="0"/>
			<psa03 value="0.00697978423245039" flag="0"/>
			<psa10 value="0.000660394969685691" flag="0"/>
			<psa30 value="0.000204471884245502" flag="0"/>
		</comp>
		<comp name="01.HNN" depth="0.0">
			<acc value="0.00148497464605477" flag="0"/>
			<vel value="0.000725953436055179" flag="0"/>
			<psa03 value="0.00532432258757434" flag="0"/>
			<psa10 value="0.000680528962663913" flag="0"/>
			<psa30 value="0.000200445085649857" flag="0"/>
		</comp>
		<comp name="01.HNZ" depth="0.0">
			<acc value="0.000779534104325874" flag="0"/>
			<vel value="0.000512972764885917" flag="0"/>
			<psa03 value="0.00451896286844545" flag="0"/>
			<psa10 value="0.000523483817433779" flag="0"/>
			<psa30 value="0.000265321285246351" flag="0"/>
		</comp>
	</station>
	<station code="PST3" name="PST3" netid="IX" source="Irpinia Seismic Network (ISNet)" insttype="" lat="40.5609" lon="15.2433">
		<comp name="01.HNE" depth="0.0">
			<acc value="0.00488195696191736" flag="0"/>
			<vel value="0.00116919811827439" flag="0"/>
			<psa03 value="0.00787462836481583" flag="0"/>
			<psa10 value="0.000757038135981158" flag="0"/>
			<psa30 value="0.000267110973511082" flag="0"/>
		</comp>
		<comp name="01.HNN" depth="0.0">
			<acc value="0.0048941701452342" flag="0"/>
			<vel value="0.00106234732222032" flag="0"/>
			<psa03 value="0.00460844728168199" flag="0"/>
			<psa10 value="0.000604019789346669" flag="0"/>
			<psa30 value="0.000188364689862924" flag="0"/>
		</comp>
		<comp name="01.HNZ" depth="0.0">
			<acc value="0.000679560784461585" flag="0"/>
			<vel value="0.000529526509247748" flag="0"/>
			<psa03 value="0.00125278178531161" flag="0"/>
			<psa10 value="0.000374492269394935" flag="0"/>
			<psa30 value="0.000231317208216465" flag="0"/>
		</comp>
	</station>
	<station code="SCL3" name="SCL3" netid="IX" source="Irpinia Seismic Network (ISNet)" insttype="" lat="40.6951" lon="15.5114">
		<comp name="01.HNE" depth="0.0">
			<acc value="0.0157446396488434" flag="0"/>
			<vel value="0.00176674423766007" flag="0"/>
			<psa03 value="0.00684555761259558" flag="0"/>
			<psa10 value="0.00107112842644143" flag="0"/>
			<psa30 value="0.00026174190871689" flag="0"/>
		</comp>
		<comp name="01.HNN" depth="0.0">
			<acc value="0.0196044355821633" flag="0"/>
			<vel value="0.00279137153297964" flag="0"/>
			<psa03 value="0.0138700840516642" flag="0"/>
			<psa10 value="0.00179997897225307" flag="0"/>
			<psa30 value="0.000348541789556337" flag="0"/>
		</comp>
		<comp name="01.HNZ" depth="0.0">
			<acc value="0.0059508831174815" flag="0"/>
			<vel value="0.000863535547096045" flag="0"/>
			<psa03 value="0.00313195446327902" flag="0"/>
			<psa10 value="0.000555698206198935" flag="0"/>
			<psa30 value="0.000274717148636188" flag="0"/>
		</comp>
	</station>
	<station code="SFL3" name="SFL3" netid="IX" source="Irpinia Seismic Network (ISNet)" insttype="" lat="40.7889" lon="15.5782">
		<comp name="01.HNE" depth="0.0">
			<acc value="0.0095905662404072" flag="0"/>
			<vel value="0.00151238753492333" flag="0"/>
			<psa03 value="0.00706926864568694" flag="0"/>
			<psa10 value="0.000612073386537958" flag="0"/>
			<psa30 value="0.00022729040962082" flag="0"/>
		</comp>
		<comp name="01.HNN" depth="0.0">
			<acc value="0.00673177786939315" flag="0"/>
			<vel value="0.00101256855822541" flag="0"/>
			<psa03 value="0.00429525183535409" flag="0"/>
			<psa10 value="0.000757038135981158" flag="0"/>
			<psa30 value="0.000251003779128504" flag="0"/>
		</comp>
		<comp name="01.HNZ" depth="0.0">
			<acc value="0.00118069172135819" flag="0"/>
			<vel value="0.000515024995065185" flag="0"/>
			<psa03 value="0.00375834535593483" flag="0"/>
			<psa10 value="0.000418787053947024" flag="0"/>
			<psa30 value="0.000193286332590934" flag="0"/>
		</comp>
		<comp name="02.HNE" depth="0.0">
			<acc value="0.00858059761155231" flag="0"/>
			<vel value="0.00150831428203473" flag="0"/>
			<psa03 value="0.00684555761259558" flag="0"/>
			<psa10 value="0.000567778601985869" flag="0"/>
			<psa30 value="0.000184785313333462" flag="0"/>
		</comp>
		<comp name="02.HNN" depth="0.0">
			<acc value="0.00638812670082959" flag="0"/>
			<vel value="0.000880558807251203" flag="0"/>
			<psa03 value="0.0044294784552089" flag="0"/>
			<psa10 value="0.000757038135981158" flag="0"/>
			<psa30 value="0.000197760553252761" flag="0"/>
		</comp>
		<comp name="02.HNZ" depth="0.0">
			<acc value="0.00237461158790179" flag="0"/>
			<vel value="0.000552692533056054" flag="0"/>
			<psa03 value="0.0038030875625531" flag="0"/>
			<psa10 value="0.000354358276416712" flag="0"/>
			<psa30 value="7.9193705714341e-05" flag="0"/>
		</comp>
	</station>
	<station code="SRN3" name="SRN3" netid="IX" source="Irpinia Seismic Network (ISNet)" insttype="" lat="40.4861" lon="15.458">
		<comp name="01.HNE" depth="0.0">
			<acc value="0.00179268003631764" flag="0"/>
			<vel value="0.0012623123404227" flag="0"/>
			<psa03 value="0.00483215831477335" flag="0"/>
			<psa10 value="0.000897976086828714" flag="0"/>
			<psa30 value="0.000312300602195537" flag="0"/>
		</comp>
		<comp name="01.HNN" depth="0.0">
			<acc value="0.00220413240224712" flag="0"/>
			<vel value="0.00118009783579713" flag="0"/>
			<psa03 value="0.00787462836481583" flag="0"/>
			<psa10 value="0.00081341331632018" flag="0"/>
			<psa30 value="0.000223711033091359" flag="0"/>
		</comp>
		<comp name="01.HNZ" depth="0.0">
			<acc value="0.000720428124245018" flag="0"/>
			<vel value="0.000536421841710429" flag="0"/>
			<psa03 value="0.00228185253753186" flag="0"/>
			<psa10 value="0.000362411873608001" flag="0"/>
			<psa30 value="0.000271585194172909" flag="0"/>
		</comp>
	</station>
	<station code="SSB3" name="SSB3" netid="IX" source="Irpinia Seismic Network (ISNet)" insttype="" lat="41.0785" lon="15.2292">
		<comp name="01.HNE" depth="0.0">
			<acc value="0.00361644277130123" flag="0"/>
			<vel value="0.00231106720163142" flag="0"/>
			<psa03 value="0.0110513250347131" flag="0"/>
			<psa10 value="0.00208990847113947" flag="0"/>
			<psa30 value="0.0004841106756097" flag="0"/>
		</comp>
		<comp name="01.HNN" depth="0.0">
			<acc value="0.00315520177093628" flag="0"/>
			<vel value="0.00246377700109424" flag="0"/>
			<psa03 value="0.00957483221631016" flag="0"/>
			<psa10 value="0.00231138239389992" flag="0"/>
			<psa30 value="0.000449659176513631" flag="0"/>
		</comp>
		<comp name="01.HNZ" depth="0.0">
			<acc value="0.0017809597511236" flag="0"/>
			<vel value="0.00111974110103289" flag="0"/>
			<psa03 value="0.00568226024052051" flag="0"/>
			<psa10 value="0.00096643166295467" flag="0"/>
			<psa30 value="0.000275164570702371" flag="0"/>
		</comp>
	</station>
	<station code="VDP3" name="VDP3" netid="IX" source="Irpinia Seismic Network (ISNet)" insttype="" lat="40.6052" lon="15.5721">
		<comp name="01.HNE" depth="0.0">
			<acc value="0.0127500111639384" flag="0"/>
			<vel value="0.00163934371541875" flag="0"/>
			<psa03 value="0.00219236812429532" flag="0"/>
			<psa10 value="0.00153018346634489" flag="0"/>
			<psa30 value="0.000277849103099468" flag="0"/>
		</comp>
		<comp name="01.HNN" depth="0.0">
			<acc value="0.00540848780964993" flag="0"/>
			<vel value="0.000638266170351741" flag="0"/>
			<psa03 value="0.00120803957869334" flag="0"/>
			<psa10 value="0.000640260976707469" flag="0"/>
			<psa30 value="0.000155255456965403" flag="0"/>
		</comp>
		<comp name="01.HNZ" depth="0.0">
			<acc value="0.00233333826950461" flag="0"/>
			<vel value="0.000496519193627553" flag="0"/>
			<psa03 value="0.00129752399192988" flag="0"/>
			<psa10 value="0.000555698206198935" flag="0"/>
			<psa30 value="0.00022057907862808" flag="0"/>
		</comp>
	</station>
	<station code="VDS3" name="VDS3" netid="IX" source="Irpinia Seismic Network (ISNet)" insttype="" lat="40.7408" lon="15.427">
		<comp name="01.HNE" depth="0.0">
			<acc value="0.00339348709908002" flag="0"/>
			<vel value="0.00279436402739983" flag="0"/>
			<psa03 value="0.0119461691670786" flag="0"/>
			<psa10 value="0.00302412574532899" flag="0"/>
			<psa30 value="0.000261294486650707" flag="0"/>
		</comp>
		<comp name="01.HNN" depth="0.0">
			<acc value="0.0031799055809541" flag="0"/>
			<vel value="0.00205228743607461" flag="0"/>
			<psa03 value="0.0103354497288208" flag="0"/>
			<psa10 value="0.00162682663264036" flag="0"/>
			<psa30 value="0.000276506836900919" flag="0"/>
		</comp>
		<comp name="01.HNZ" depth="0.0">
			<acc value="0.00130522931387489" flag="0"/>
			<vel value="0.00068036378442215" flag="0"/>
			<psa03 value="0.00308721225666075" flag="0"/>
			<psa10 value="0.00110334281520658" flag="0"/>
			<psa30 value="0.000309168647732258" flag="0"/>
		</comp>
		<comp name="02.HNE" depth="0.0">
			<acc value="0.00325303032561989" flag="0"/>
			<vel value="0.00289135198051851" flag="0"/>
			<psa03 value="0.0113197782744228" flag="0"/>
			<psa10 value="0.00281473221835548" flag="0"/>
			<psa30 value="0.000272480038305275" flag="0"/>
		</comp>
		<comp name="02.HNN" depth="0.0">
			<acc value="0.00362342752324086" flag="0"/>
			<vel value="0.00263343448604261" flag="0"/>
			<psa03 value="0.0121698802001699" flag="0"/>
			<psa10 value="0.00195299731888756" flag="0"/>
			<psa30 value="0.000253688311525601" flag="0"/>
		</comp>
		<comp name="02.HNZ" depth="0.0">
			<acc value="0.00130020857139568" flag="0"/>
			<vel value="0.000626324413184056" flag="0"/>
			<psa03 value="0.00322143887651557" flag="0"/>
			<psa10 value="0.00104696763486756" flag="0"/>
			<psa30 value="0.000111408094479497" flag="0"/>
		</comp>
	</station>
</stationlist>
