<?xml version="1.0" encoding="UTF-8" standalone="yes"?>
<!DOCTYPE earthquake SYSTEM "stationlist.dtd">
<stationlist created="" xmlns="ch.ethz.sed.shakemap.usgs.xml">
  <station code="APRC" name="APRC" netid="IV" insttype="" lat="41.7574" lon="15.5431">
    <comp name="--.HHZ">
      <acc value="0.0207453783" flag="0"/>
      <vel value="0.0091345429" flag="0"/>
      <psa03 value="0.0741281895" flag="0"/>
      <psa10 value="0.0063776927" flag="0"/>
      <psa30 value="0.0007662177" flag="0"/>
    </comp>
    <comp name="--.HHE">
      <acc value="0.0463982060" flag="0"/>
      <vel value="0.0261574804" flag="0"/>
      <psa03 value="0.1498444671" flag="0"/>
      <psa10 value="0.0111207578" flag="0"/>
      <psa30 value="0.0006994564" flag="0"/>
    </comp>
    <comp name="--.HHN">
      <acc value="0.0350840952" flag="0"/>
      <vel value="0.0203697356" flag="0"/>
      <psa03 value="0.1897784385" flag="0"/>
      <psa10 value="0.0103625391" flag="0"/>
      <psa30 value="0.0013145193" flag="0"/>
    </comp>
  </station>
  <station code="MELA" name="MELA" netid="IV" insttype="" lat="41.7059" lon="15.127">
    <comp name="--.HHE">
      <acc value="0.0183226323" flag="0"/>
      <vel value="0.0094513032" flag="0"/>
      <psa03 value="0.0494695164" flag="0"/>
      <psa10 value="0.0084092656" flag="0"/>
      <psa30 value="0.0006542829" flag="0"/>
    </comp>
    <comp name="--.HHN">
      <acc value="0.0152295010" flag="0"/>
      <vel value="0.0086841412" flag="0"/>
      <psa03 value="0.0687833997" flag="0"/>
      <psa10 value="0.0065714480" flag="0"/>
      <psa30 value="0.0014458815" flag="0"/>
    </comp>
    <comp name="--.HHZ">
      <acc value="0.0061562708" flag="0"/>
      <vel value="0.0036259525" flag="0"/>
      <psa03 value="0.0196307064" flag="0"/>
      <psa10 value="0.0041178226" flag="0"/>
      <psa30 value="0.0011543260" flag="0"/>
    </comp>
  </station>
  <station code="MSAG" name="MSAG" netid="IV" insttype="" lat="41.712" lon="15.9096">
    <comp name="--.HHE">
      <acc value="0.0073919458" flag="0"/>
      <vel value="0.0029609038" flag="0"/>
      <psa03 value="0.0185691354" flag="0"/>
      <psa10 value="0.0016768668" flag="0"/>
      <psa30 value="0.0001987738" flag="0"/>
    </comp>
    <comp name="--.HHN">
      <acc value="0.0166856063" flag="0"/>
      <vel value="0.0073032807" flag="0"/>
      <psa03 value="0.0581747942" flag="0"/>
      <psa10 value="0.0039030356" flag="0"/>
      <psa30 value="0.0004127676" flag="0"/>
    </comp>
    <comp name="--.HHZ">
      <acc value="0.0040661751" flag="0"/>
      <vel value="0.0020485665" flag="0"/>
      <psa03 value="0.0121353115" flag="0"/>
      <psa10 value="0.0011451819" flag="0"/>
      <psa30 value="0.0002365008" flag="0"/>
    </comp>
  </station>
  <station code="SGRT" name="SGRT" netid="IV" insttype="" lat="41.7546" lon="15.7437">
    <comp name="--.HHE">
      <acc value="0.0287275721" flag="0"/>
      <vel value="0.0134301772" flag="0"/>
      <psa03 value="0.0533551737" flag="0"/>
      <psa10 value="0.0089755841" flag="0"/>
      <psa30 value="0.0005008576" flag="0"/>
    </comp>
    <comp name="--.HHZ">
      <acc value="0.0139328389" flag="0"/>
      <vel value="0.0097950279" flag="0"/>
      <psa03 value="0.0476250278" flag="0"/>
      <psa10 value="0.0039412547" flag="0"/>
      <psa30 value="0.0004783332" flag="0"/>
    </comp>
    <comp name="--.HHN">
      <acc value="0.0251888868" flag="0"/>
      <vel value="0.0147546401" flag="0"/>
      <psa03 value="0.0885018542" flag="0"/>
      <psa10 value="0.0089411471" flag="0"/>
      <psa30 value="0.0010383294" flag="0"/>
    </comp>
  </station>
  <station code="TREM" name="TREM" netid="IV" insttype="" lat="42.123" lon="15.51">
    <comp name="--.HHE">
      <acc value="0.0200153937" flag="0"/>
      <vel value="0.0111782508" flag="0"/>
      <psa03 value="0.0466670709" flag="0"/>
      <psa10 value="0.0076892645" flag="0"/>
      <psa30 value="0.0006990422" flag="0"/>
    </comp>
    <comp name="--.HHN">
      <acc value="0.0310310645" flag="0"/>
      <vel value="0.0147539369" flag="0"/>
      <psa03 value="0.1059787205" flag="0"/>
      <psa10 value="0.0111054132" flag="0"/>
      <psa30 value="0.0006557244" flag="0"/>
    </comp>
    <comp name="--.HHZ">
      <acc value="0.0204464777" flag="0"/>
      <vel value="0.0088886837" flag="0"/>
      <psa03 value="0.0613318468" flag="0"/>
      <psa10 value="0.0027390693" flag="0"/>
      <psa30 value="0.0003922182" flag="0"/>
    </comp>
  </station>
</stationlist>
