<?xml version="1.0" encoding="UTF-8" standalone="yes"?>
<!DOCTYPE earthquake SYSTEM "stationlist.dtd">
<stationlist created="" xmlns="ch.ethz.sed.shakemap.usgs.xml">
  <station code="SMFF" name="SMFF" netid="RA" insttype="" lat="46.6" lon="-0.13">
    <comp name="00.HNE">
      <acc value="1.0267959883" flag="0"/>
      <vel value="0.1336667991" flag="0"/>
      <psa03 value="0.1240870972" flag="0"/>
      <psa10 value="0.0076327541" flag="0"/>
      <psa30 value="0.0009376891" flag="0"/>
    </comp>
    <comp name="00.HNZ">
      <acc value="0.3062887792" flag="0"/>
      <vel value="0.0282601343" flag="0"/>
      <psa03 value="0.0888401701" flag="0"/>
      <psa10 value="0.0055496574" flag="0"/>
      <psa30 value="0.0008229360" flag="0"/>
    </comp>
    <comp name="00.HNN">
      <acc value="0.4305966914" flag="0"/>
      <vel value="0.0474346684" flag="0"/>
      <psa03 value="0.0836480139" flag="0"/>
      <psa10 value="0.0054207951" flag="0"/>
      <psa30 value="0.0006215773" flag="0"/>
    </comp>
  </station>
</stationlist>
