<stationlist xmlns:esm="https://esm-db.eu/esmws/shakemap/1/" created="1782352438">
	<station code="BOUF" name="BOUF" netid="FR" source="RESIF and other broad-band and accelerometric permanent networks in metropolitan France (RESIF)" insttype="" lat="47.160519" lon="-1.638081" esm:processing="manual (Paolucci et al 2011)" esm:quality="best">
		<comp name="00.HNE" depth="0.0">
			<acc value="0.0859555871910147" flag="0"/>
			<vel value="0.0169679481187995" flag="0"/>
			<psa03 value="0.0539625851731498" flag="0"/>
			<psa10 value="0.00689275129843643" flag="0"/>
			<psa30 value="0.000370266976286826" flag="0"/>
		</comp>
		<comp name="00.HNN" depth="0.0">
			<acc value="0.125623101946972" flag="0"/>
			<vel value="0.0189888049960234" flag="0"/>
			<psa03 value="0.0865711411630881" flag="0"/>
			<psa10 value="0.00386119836356611" flag="0"/>
			<psa30 value="0.000300784847394895" flag="0"/>
		</comp>
		<comp name="00.HNZ" depth="0.0">
			<acc value="0.0899991025508709" flag="0"/>
			<vel value="0.0196641416879503" flag="0"/>
			<psa03 value="0.0470604196053058" flag="0"/>
			<psa10 value="0.00582195411338712" flag="0"/>
			<psa30 value="0.000274443050296878" flag="0"/>
		</comp>
	</station>
	<station code="CHIF" name="CHIF" netid="FR" source="RESIF and other broad-band and accelerometric permanent networks in metropolitan France (RESIF)" insttype="" lat="46.13346" lon="-0.40767" esm:processing="manual (Paolucci et al 2011)" esm:quality="good">
		<comp name="00.HNE" depth="0.0">
			<acc value="1.60562761645939" flag="0"/>
			<vel value="0.191088704433847" flag="0"/>
			<psa03 value="0.301299001246603" flag="0"/>
			<psa10 value="0.0589344978711208" flag="0"/>
			<psa30 value="0.00420524732699878" flag="0"/>
		</comp>
		<comp name="00.HNN" depth="0.0">
			<acc value="1.51030985536626" flag="0"/>
			<vel value="0.270914170798595" flag="0"/>
			<psa03 value="0.399352996843005" flag="0"/>
			<psa10 value="0.0476594884570989" flag="0"/>
			<psa30 value="0.00425515229962216" flag="0"/>
		</comp>
		<comp name="00.HNZ" depth="0.0">
			<acc value="0.495778004120617" flag="0"/>
			<vel value="0.0835445537434096" flag="0"/>
			<psa03 value="0.0979139029819875" flag="0"/>
			<psa10 value="0.0589355404402836" flag="0"/>
			<psa30 value="0.00200897683485553" flag="0"/>
		</comp>
	</station>
	<station code="UBVA" name="UBVA" netid="RA" source="Reseau Accelerometrique Permanent (French Accelerometrique Network) (RAP)" insttype="" lat="47.64474" lon="-2.745401" esm:processing="manual (Paolucci et al 2011)" esm:quality="good">
		<comp name="00.HNE" depth="0.0">
			<acc value="0.0502212036436195" flag="0"/>
			<vel value="0.0119417637585895" flag="0"/>
			<psa03 value="0.0507755198789671" flag="0"/>
			<psa10 value="0.00324748731759857" flag="0"/>
			<psa30 value="0.000276236372220726" flag="0"/>
		</comp>
		<comp name="00.HNN" depth="0.0">
			<acc value="0.0411796801304912" flag="0"/>
			<vel value="0.0103498192097664" flag="0"/>
			<psa03 value="0.0377790417386056" flag="0"/>
			<psa10 value="0.00460692846766224" flag="0"/>
			<psa30 value="0.000288737304512757" flag="0"/>
		</comp>
		<comp name="00.HNZ" depth="0.0">
			<acc value="0.0182878760241129" flag="0"/>
			<vel value="0.00793515261433176" flag="0"/>
			<psa03 value="0.0458335570814056" flag="0"/>
			<psa10 value="0.00480233985019298" flag="0"/>
			<psa30 value="0.000345097782909437" flag="0"/>
		</comp>
	</station>
	<station code="UNIO" name="UNIO" netid="RA" source="Reseau Accelerometrique Permanent (French Accelerometrique Network) (RAP)" insttype="" lat="45.8986" lon="-1.2028" esm:processing="manual (Paolucci et al 2011)" esm:quality="good">
		<comp name="00.HNE" depth="0.0">
			<acc value="0.148347315865873" flag="0"/>
			<vel value="0.062171857709954" flag="0"/>
			<psa03 value="0.819816642163901" flag="0"/>
			<psa10 value="0.0196208891626277" flag="0"/>
			<psa30 value="0.00153015209423264" flag="0"/>
		</comp>
		<comp name="00.HNN" depth="0.0">
			<acc value="0.163206335930748" flag="0"/>
			<vel value="0.0738310951928947" flag="0"/>
			<psa03 value="0.828824405550694" flag="0"/>
			<psa10 value="0.0179546087797001" flag="0"/>
			<psa30 value="0.00161992949988084" flag="0"/>
		</comp>
		<comp name="00.HNZ" depth="0.0">
			<acc value="0.124291468706026" flag="0"/>
			<vel value="0.0134419059881598" flag="0"/>
			<psa03 value="0.0804893841099345" flag="0"/>
			<psa10 value="0.00828085231582754" flag="0"/>
			<psa30 value="0.00145008856125252" flag="0"/>
		</comp>
	</station>
</stationlist>
