<?xml version="1.0" encoding="UTF-8" standalone="yes"?>
<!DOCTYPE earthquake SYSTEM "stationlist.dtd">
<stationlist created="" xmlns="ch.ethz.sed.shakemap.usgs.xml">
  <station code="THERA" name="THERA" netid="GE" insttype="STS-2/N" lat="36.367" lon="25.4753">
    <comp name="--.HHN">
      <acc value="0.1868783667" flag="0"/>
      <vel value="0.0547457351" flag="0"/>
      <psa03 value="0.2932391785" flag="0"/>
      <psa10 value="0.0172201045" flag="0"/>
      <psa30 value="0.0018266658" flag="0"/>
    </comp>
    <comp name="--.HHE">
      <acc value="0.2592459668" flag="0"/>
      <vel value="0.0754059895" flag="0"/>
      <psa03 value="0.2913422278" flag="0"/>
      <psa10 value="0.0269695559" flag="0"/>
      <psa30 value="0.0040437063" flag="0"/>
    </comp>
    <comp name="--.HHZ">
      <acc value="0.2311470557" flag="0"/>
      <vel value="0.0536366972" flag="0"/>
      <psa03 value="0.1917186667" flag="0"/>
      <psa10 value="0.0318802622" flag="0"/>
      <psa30 value="0.0028741394" flag="0"/>
    </comp>
  </station>
</stationlist>
