<stationlist xmlns:esm="https://esm-db.eu/esmws/shakemap/1/" created="1780970086">
	<station code="RGE1" name="RGE1" netid="HI" source="ITSAK Strong Motion Network" insttype="" lat="36.0269" lon="27.9306" esm:processing="manual (Paolucci et al 2011)" esm:quality="good">
		<comp name="--.HNE" depth="0.0">
			<acc value="0.0306521176564569" flag="0"/>
			<vel value="0.0112894591282747" flag="0"/>
			<psa03 value="0.0674550310647559" flag="0"/>
			<psa10 value="0.00746093643792263" flag="0"/>
			<psa30 value="0.000480044769360032" flag="0"/>
		</comp>
		<comp name="--.HNN" depth="0.0">
			<acc value="0.0545387055897074" flag="0"/>
			<vel value="0.0209495965082266" flag="0"/>
			<psa03 value="0.099772307342371" flag="0"/>
			<psa10 value="0.00825678603405255" flag="0"/>
			<psa30 value="0.00053089230442635" flag="0"/>
		</comp>
		<comp name="--.HNZ" depth="0.0">
			<acc value="0.0236848223238196" flag="0"/>
			<vel value="0.00704852579645154" flag="0"/>
			<psa03 value="0.038031391788891" flag="0"/>
			<psa10 value="0.00511542277790384" flag="0"/>
			<psa30 value="0.000467476957637519" flag="0"/>
		</comp>
	</station>
	<station code="RKL1" name="RKL1" netid="HI" source="ITSAK Strong Motion Network" insttype="" lat="36.336699" lon="28.171224" esm:processing="manual (Paolucci et al 2011)" esm:quality="good">
		<comp name="--.HNE" depth="0.0">
			<acc value="0.040146290746421" flag="0"/>
			<vel value="0.021253658543499" flag="0"/>
			<psa03 value="0.100340803335774" flag="0"/>
			<psa10 value="0.0245009374418612" flag="0"/>
			<psa30 value="0.000939297640525517" flag="0"/>
		</comp>
		<comp name="--.HNN" depth="0.0">
			<acc value="0.0309630910006966" flag="0"/>
			<vel value="0.0135821597660379" flag="0"/>
			<psa03 value="0.0935520306962374" flag="0"/>
			<psa10 value="0.0126138574811525" flag="0"/>
			<psa30 value="0.000576894049732879" flag="0"/>
		</comp>
		<comp name="--.HNZ" depth="0.0">
			<acc value="0.0236643875115157" flag="0"/>
			<vel value="0.0117946579472627" flag="0"/>
			<psa03 value="0.069575817389775" flag="0"/>
			<psa10 value="0.00944697331561882" flag="0"/>
			<psa30 value="0.000581884224057437" flag="0"/>
		</comp>
	</station>
	<station code="RKT1" name="RKT1" netid="HI" source="ITSAK Strong Motion Network" insttype="" lat="35.954336" lon="27.767327" esm:processing="automatic (Paolucci et al 2011)" esm:quality="best">
		<comp name="--.HNE" depth="0.0">
			<acc value="0.0534679747346066" flag="0"/>
			<vel value="0.0218868726820092" flag="0"/>
			<psa03 value="0.150567484773586" flag="0"/>
			<psa10 value="0.0103424426360666" flag="0"/>
			<psa30 value="0.000801571693940813" flag="0"/>
		</comp>
		<comp name="--.HNN" depth="0.0">
			<acc value="0.0560824329831598" flag="0"/>
			<vel value="0.0198748424617209" flag="0"/>
			<psa03 value="0.126459585660252" flag="0"/>
			<psa10 value="0.0111735492553012" flag="0"/>
			<psa30 value="0.000631126236099068" flag="0"/>
		</comp>
		<comp name="--.HNZ" depth="0.0">
			<acc value="0.0473396828526736" flag="0"/>
			<vel value="0.00952779398802075" flag="0"/>
			<psa03 value="0.042213093285259" flag="0"/>
			<psa10 value="0.00595412130631523" flag="0"/>
			<psa30 value="0.000493207828848122" flag="0"/>
		</comp>
	</station>
	<station code="RLN1" name="RLN1" netid="HI" source="ITSAK Strong Motion Network" insttype="" lat="36.089085" lon="28.086909" esm:processing="manual (Paolucci et al 2011)" esm:quality="good">
		<comp name="--.HNE" depth="0.0">
			<acc value="0.0174826494034208" flag="0"/>
			<vel value="0.00703482244884778" flag="0"/>
			<psa03 value="0.0469774766106053" flag="0"/>
			<psa10 value="0.00387687721471375" flag="0"/>
			<psa30 value="0.00045915848991319" flag="0"/>
		</comp>
		<comp name="--.HNN" depth="0.0">
			<acc value="0.0146481457316918" flag="0"/>
			<vel value="0.00681111350076952" flag="0"/>
			<psa03 value="0.0297685501453507" flag="0"/>
			<psa10 value="0.00701531035488165" flag="0"/>
			<psa30 value="0.00046551443179648" flag="0"/>
		</comp>
		<comp name="--.HNZ" depth="0.0">
			<acc value="0.0124385235637174" flag="0"/>
			<vel value="0.00542048712268239" flag="0"/>
			<psa03 value="0.0277223546991112" flag="0"/>
			<psa10 value="0.0027623591646127" flag="0"/>
			<psa30 value="0.000380069031874746" flag="0"/>
		</comp>
	</station>
	<station code="RSO1" name="RSO1" netid="HI" source="ITSAK Strong Motion Network" insttype="" lat="36.3632" lon="28.0016" esm:processing="manual (Paolucci et al 2011)" esm:quality="good">
		<comp name="--.HNE" depth="0.0">
			<acc value="0.034572048567709" flag="0"/>
			<vel value="0.0138273912089496" flag="0"/>
			<psa03 value="0.126335754540381" flag="0"/>
			<psa10 value="0.0126807347239416" flag="0"/>
			<psa30 value="0.0012442821150835" flag="0"/>
		</comp>
		<comp name="--.HNN" depth="0.0">
			<acc value="0.0304476342677863" flag="0"/>
			<vel value="0.0115783253401991" flag="0"/>
			<psa03 value="0.0724781138193364" flag="0"/>
			<psa10 value="0.00578902599456107" flag="0"/>
			<psa30 value="0.00113728315192732" flag="0"/>
		</comp>
		<comp name="--.HNZ" depth="0.0">
			<acc value="0.0236351551154524" flag="0"/>
			<vel value="0.00667092465211636" flag="0"/>
			<psa03 value="0.0501476501607112" flag="0"/>
			<psa10 value="0.00439961098388551" flag="0"/>
			<psa30 value="0.000551622531868846" flag="0"/>
		</comp>
	</station>
</stationlist>
