<?xml version="1.0" encoding="UTF-8" standalone="yes"?>
<!DOCTYPE earthquake SYSTEM "stationlist.dtd">
<stationlist created="" xmlns="ch.ethz.sed.shakemap.usgs.xml">
  <station code="KARP" name="KARP" netid="GE" source="GFZ" insttype="STS-2/N" lat="35.5471" lon="27.1611">
    <comp name="--.HHE">
      <acc value="1.6225045447" flag="0"/>
      <vel value="0.3220996819" flag="0"/>
      <psa03 value="0.7445998497" flag="0"/>
      <psa10 value="0.1137473557" flag="0"/>
      <psa30 value="0.0078418682" flag="0"/>
    </comp>
    <comp name="--.HHN">
      <acc value="2.8512252257" flag="0"/>
      <vel value="0.4521455341" flag="0"/>
      <psa03 value="0.8128013586" flag="0"/>
      <psa10 value="0.0897391549" flag="0"/>
      <psa30 value="0.0059637713" flag="0"/>
    </comp>
    <comp name="--.HHZ">
      <acc value="1.5696595862" flag="0"/>
      <vel value="0.1614916759" flag="0"/>
      <psa03 value="0.3415907235" flag="0"/>
      <psa10 value="0.0576103878" flag="0"/>
      <psa30 value="0.0034970772" flag="0"/>
    </comp>
  </station>
  <station code="ARG" name="ARG" netid="HL" source="NOA" insttype="LE3D20_DR24" lat="36.2136" lon="28.1212">
    <comp name="--.HHE">
      <acc value="0.0385860640" flag="0"/>
      <vel value="0.0126538163" flag="0"/>
      <psa03 value="0.0768338605" flag="0"/>
      <psa10 value="0.0065941169" flag="0"/>
      <psa30 value="0.0006733968" flag="0"/>
    </comp>
    <comp name="--.HHN">
      <acc value="0.0282622881" flag="0"/>
      <vel value="0.0091943512" flag="0"/>
      <psa03 value="0.0466223936" flag="0"/>
      <psa10 value="0.0057771167" flag="0"/>
      <psa30 value="0.0006216546" flag="0"/>
    </comp>
    <comp name="--.HHZ">
      <acc value="0.0175982316" flag="0"/>
      <vel value="0.0055502689" flag="0"/>
      <psa03 value="0.0311643820" flag="0"/>
      <psa10 value="0.0046157354" flag="0"/>
      <psa30 value="0.0003879809" flag="0"/>
    </comp>
  </station>
  <station code="KARP" name="KARP" netid="HL" source="NOA" insttype="120" lat="35.5471" lon="27.1611">
    <comp name="--.HHE">
      <acc value="1.5346671680" flag="0"/>
      <vel value="0.3079558622" flag="0"/>
      <psa03 value="0.7226173828" flag="0"/>
      <psa10 value="0.1124823395" flag="0"/>
      <psa30 value="0.0077742723" flag="0"/>
    </comp>
    <comp name="--.HHN">
      <acc value="2.7342418319" flag="0"/>
      <vel value="0.4284208406" flag="0"/>
      <psa03 value="0.7918850901" flag="0"/>
      <psa10 value="0.0874729935" flag="0"/>
      <psa30 value="0.0057669431" flag="0"/>
    </comp>
    <comp name="--.HHZ">
      <acc value="1.2639331605" flag="0"/>
      <vel value="0.1516110608" flag="0"/>
      <psa03 value="0.3345317999" flag="0"/>
      <psa10 value="0.0569071267" flag="0"/>
      <psa30 value="0.0034511306" flag="0"/>
    </comp>
  </station>
</stationlist>
