<?xml version="1.0" encoding="UTF-8" standalone="yes"?>
<!DOCTYPE earthquake SYSTEM "stationlist.dtd">
<stationlist created="" xmlns="ch.ethz.sed.shakemap.usgs.xml">
  <station code="GVD" name="GVD" netid="GE" insttype="STS-2/N" lat="34.8391" lon="24.0874">
    <comp name="--.HHE">
      <acc value="0.4593388459" flag="0"/>
      <vel value="0.1799748102" flag="0"/>
      <psa03 value="1.4731236334" flag="0"/>
      <psa10 value="0.0804581426" flag="0"/>
      <psa30 value="0.0158152575" flag="0"/>
    </comp>
    <comp name="--.HHN">
      <acc value="0.4530407232" flag="0"/>
      <vel value="0.1899002704" flag="0"/>
      <psa03 value="1.7834848602" flag="0"/>
      <psa10 value="0.1263171910" flag="0"/>
      <psa30 value="0.0189718308" flag="0"/>
    </comp>
    <comp name="--.HHZ">
      <acc value="0.3424755569" flag="0"/>
      <vel value="0.0936988477" flag="0"/>
      <psa03 value="0.9753330685" flag="0"/>
      <psa10 value="0.0853382480" flag="0"/>
      <psa30 value="0.0135626238" flag="0"/>
    </comp>
  </station>
  <station code="IMMV" name="IMMV" netid="GE" insttype="STS-2/N" lat="35.4606" lon="23.9811">
    <comp name="--.HHE">
      <acc value="1.1535033995" flag="0"/>
      <vel value="0.4129437324" flag="0"/>
      <psa03 value="2.4096152095" flag="0"/>
      <psa10 value="0.4550644032" flag="0"/>
      <psa30 value="0.0493682937" flag="0"/>
    </comp>
    <comp name="--.HHN">
      <acc value="1.5372593451" flag="0"/>
      <vel value="0.6100433697" flag="0"/>
      <psa03 value="2.7803575538" flag="0"/>
      <psa10 value="0.4540014397" flag="0"/>
      <psa30 value="0.0427373294" flag="0"/>
    </comp>
    <comp name="--.HHZ">
      <acc value="0.9785244907" flag="0"/>
      <vel value="0.4149757231" flag="0"/>
      <psa03 value="2.0207337334" flag="0"/>
      <psa10 value="0.3040012435" flag="0"/>
      <psa30 value="0.0314045805" flag="0"/>
    </comp>
  </station>
  <station code="IDI" name="IDI" netid="MN" insttype="" lat="35.288" lon="24.89">
    <comp name="--.HHE">
      <acc value="0.0750228776" flag="0"/>
      <vel value="0.0295106072" flag="0"/>
      <psa03 value="0.1870697012" flag="0"/>
      <psa10 value="0.0308046624" flag="0"/>
      <psa30 value="0.0049945504" flag="0"/>
    </comp>
    <comp name="--.HHN">
      <acc value="0.0992029133" flag="0"/>
      <vel value="0.0407829733" flag="0"/>
      <psa03 value="0.2104991548" flag="0"/>
      <psa10 value="0.0461136198" flag="0"/>
      <psa30 value="0.0043246023" flag="0"/>
    </comp>
    <comp name="--.HHZ">
      <acc value="0.0840869403" flag="0"/>
      <vel value="0.0308118270" flag="0"/>
      <psa03 value="0.1599331039" flag="0"/>
      <psa10 value="0.0299571890" flag="0"/>
      <psa30 value="0.0045362143" flag="0"/>
    </comp>
  </station>
</stationlist>
