<?xml version="1.0" encoding="UTF-8" standalone="yes"?>
<!DOCTYPE earthquake SYSTEM "stationlist.dtd">
<stationlist created="" xmlns="ch.ethz.sed.shakemap.usgs.xml">
  <station code="GVD" name="GVD" netid="GE" insttype="STS-2/N" lat="34.8391" lon="24.0874">
    <comp name="--.HHE">
      <acc value="0.4593388459" flag="0"/>
      <vel value="0.1799748102" flag="0"/>
      <psa03 value="1.4731236334" flag="0"/>
      <psa10 value="0.0804581426" flag="0"/>
      <psa30 value="0.0158152575" flag="0"/>
    </comp>
    <comp name="--.HHN">
      <acc value="0.4530407232" flag="0"/>
      <vel value="0.1899002704" flag="0"/>
      <psa03 value="1.7834848602" flag="0"/>
      <psa10 value="0.1263171910" flag="0"/>
      <psa30 value="0.0189718308" flag="0"/>
    </comp>
    <comp name="--.HHZ">
      <acc value="0.3424755569" flag="0"/>
      <vel value="0.0936988477" flag="0"/>
      <psa03 value="0.9753330685" flag="0"/>
      <psa10 value="0.0853382480" flag="0"/>
      <psa30 value="0.0135626238" flag="0"/>
    </comp>
  </station>
  <station code="IMMV" name="IMMV" netid="GE" insttype="STS-2/N" lat="35.4606" lon="23.9811">
    <comp name="--.HHE">
      <acc value="1.1535033995" flag="0"/>
      <vel value="0.4129437324" flag="0"/>
      <psa03 value="2.4096152095" flag="0"/>
      <psa10 value="0.4550644032" flag="0"/>
      <psa30 value="0.0493682937" flag="0"/>
    </comp>
    <comp name="--.HHN">
      <acc value="1.5372593451" flag="0"/>
      <vel value="0.6100433697" flag="0"/>
      <psa03 value="2.7803575538" flag="0"/>
      <psa10 value="0.4540014397" flag="0"/>
      <psa30 value="0.0427373294" flag="0"/>
    </comp>
    <comp name="--.HHZ">
      <acc value="0.9785244907" flag="0"/>
      <vel value="0.4149757231" flag="0"/>
      <psa03 value="2.0207337334" flag="0"/>
      <psa10 value="0.3040012435" flag="0"/>
      <psa30 value="0.0314045805" flag="0"/>
    </comp>
  </station>
  <station code="KTHA" name="KTHA" netid="GE" insttype="STS-2/N" lat="36.2566" lon="23.0621">
    <comp name="--.HHE">
      <acc value="0.0567034095" flag="0"/>
      <vel value="0.0497650668" flag="0"/>
      <psa03 value="0.1374337512" flag="0"/>
      <psa10 value="0.0729596825" flag="0"/>
      <psa30 value="0.0054092961" flag="0"/>
    </comp>
    <comp name="--.HHN">
      <acc value="0.0365797167" flag="0"/>
      <vel value="0.0227668434" flag="0"/>
      <psa03 value="0.0862298337" flag="0"/>
      <psa10 value="0.0334078704" flag="0"/>
      <psa30 value="0.0034423295" flag="0"/>
    </comp>
    <comp name="--.HHZ">
      <acc value="0.0344972395" flag="0"/>
      <vel value="0.0333625295" flag="0"/>
      <psa03 value="0.0659136999" flag="0"/>
      <psa10 value="0.0298952562" flag="0"/>
      <psa30 value="0.0036117522" flag="0"/>
    </comp>
  </station>
  <station code="ABEA" name="ABEA" netid="HC" insttype="DC" lat="35.5163" lon="24.0113">
    <comp name="--.HNZ">
      <acc value="0.6268926267" flag="0"/>
      <vel value="0.3343760360" flag="0"/>
      <psa03 value="1.1968445854" flag="0"/>
      <psa10 value="0.4711945042" flag="0"/>
      <psa30 value="0.0326938617" flag="0"/>
    </comp>
    <comp name="--.HNE">
      <acc value="0.9047932609" flag="0"/>
      <vel value="0.6225275851" flag="0"/>
      <psa03 value="1.8251065130" flag="0"/>
      <psa10 value="0.8659589856" flag="0"/>
      <psa30 value="0.0718546842" flag="0"/>
    </comp>
    <comp name="--.HNN">
      <acc value="1.7539249331" flag="0"/>
      <vel value="0.9520526695" flag="0"/>
      <psa03 value="3.2265910453" flag="0"/>
      <psa10 value="0.9401953989" flag="0"/>
      <psa30 value="0.0460836969" flag="0"/>
    </comp>
  </station>
  <station code="ATEI" name="ATEI" netid="HC" insttype="DC" lat="35.5193" lon="24.0432">
    <comp name="--.HNE">
      <acc value="0.5532368757" flag="0"/>
      <vel value="0.3083518232" flag="0"/>
      <psa03 value="1.1932044943" flag="0"/>
      <psa10 value="0.3192131553" flag="0"/>
      <psa30 value="0.0452376672" flag="0"/>
    </comp>
    <comp name="--.HNN">
      <acc value="0.7669460048" flag="0"/>
      <vel value="0.6090069554" flag="0"/>
      <psa03 value="1.7126276726" flag="0"/>
      <psa10 value="0.5022253316" flag="0"/>
      <psa30 value="0.0342102806" flag="0"/>
    </comp>
    <comp name="--.HNZ">
      <acc value="0.5327455021" flag="0"/>
      <vel value="0.3549367833" flag="0"/>
      <psa03 value="1.1985470226" flag="0"/>
      <psa10 value="0.2269772674" flag="0"/>
      <psa30 value="0.0219486215" flag="0"/>
    </comp>
  </station>
  <station code="CHAN" name="CHAN" netid="HC" insttype="120" lat="35.5193" lon="24.0428">
    <comp name="--.HHE">
      <acc value="1.1117854547" flag="0"/>
      <vel value="0.6091990009" flag="0"/>
      <psa03 value="2.4363578304" flag="0"/>
      <psa10 value="0.5461472689" flag="0"/>
      <psa30 value="0.0819184337" flag="0"/>
    </comp>
    <comp name="--.HHZ">
      <acc value="1.0448602692" flag="0"/>
      <vel value="0.6729779549" flag="0"/>
      <psa03 value="2.2365572562" flag="0"/>
      <psa10 value="0.4329463565" flag="0"/>
      <psa30 value="0.0418262590" flag="0"/>
    </comp>
    <comp name="--.HHN">
      <acc value="1.4100847680" flag="0"/>
      <vel value="1.1053343739" flag="0"/>
      <psa03 value="3.1557688714" flag="0"/>
      <psa10 value="0.9588620708" flag="0"/>
      <psa30 value="0.0626367507" flag="0"/>
    </comp>
  </station>
  <station code="DEYA" name="DEYA" netid="HC" insttype="DC" lat="35.4825" lon="24.014">
    <comp name="--.HNE">
      <acc value="0.2221615501" flag="0"/>
      <vel value="0.1082114874" flag="0"/>
      <psa03 value="1.1470239576" flag="0"/>
      <psa10 value="0.1385602542" flag="0"/>
      <psa30 value="0.0076313159" flag="0"/>
    </comp>
    <comp name="--.HNN">
      <acc value="0.2033984867" flag="0"/>
      <vel value="0.1246458153" flag="0"/>
      <psa03 value="0.5701540103" flag="0"/>
      <psa10 value="0.1099954980" flag="0"/>
      <psa30 value="0.0072960595" flag="0"/>
    </comp>
    <comp name="--.HNZ">
      <acc value="0.1381123228" flag="0"/>
      <vel value="0.0839473337" flag="0"/>
      <psa03 value="0.2430565038" flag="0"/>
      <psa10 value="0.0794673015" flag="0"/>
      <psa30 value="0.0048606765" flag="0"/>
    </comp>
  </station>
  <station code="GVDS" name="GVDS" netid="HC" insttype="60" lat="34.8389" lon="24.0585">
    <comp name="--.HHN">
      <acc value="0.6874527089" flag="0"/>
      <vel value="0.1695016855" flag="0"/>
      <psa03 value="0.7330583829" flag="0"/>
      <psa10 value="0.1283262818" flag="0"/>
      <psa30 value="0.0154184419" flag="0"/>
    </comp>
    <comp name="--.HHE">
      <acc value="0.4859327750" flag="0"/>
      <vel value="0.1205354741" flag="0"/>
      <psa03 value="0.6175953374" flag="0"/>
      <psa10 value="0.0879377782" flag="0"/>
      <psa30 value="0.0118959411" flag="0"/>
    </comp>
    <comp name="--.HHZ">
      <acc value="0.3495603003" flag="0"/>
      <vel value="0.1058317074" flag="0"/>
      <psa03 value="0.3359472758" flag="0"/>
      <psa10 value="0.0734357229" flag="0"/>
      <psa30 value="0.0087354308" flag="0"/>
    </comp>
  </station>
  <station code="IMOD" name="IMOD" netid="HC" insttype="120" lat="34.9731" lon="24.7995">
    <comp name="--.HHN">
      <acc value="0.1948445184" flag="0"/>
      <vel value="0.1061011983" flag="0"/>
      <psa03 value="0.7353375547" flag="0"/>
      <psa10 value="0.1190350620" flag="0"/>
      <psa30 value="0.0057141548" flag="0"/>
    </comp>
    <comp name="--.HHE">
      <acc value="0.1512238051" flag="0"/>
      <vel value="0.0854297036" flag="0"/>
      <psa03 value="0.3808890780" flag="0"/>
      <psa10 value="0.1085235150" flag="0"/>
      <psa30 value="0.0080395013" flag="0"/>
    </comp>
    <comp name="--.HHZ">
      <acc value="0.1250157275" flag="0"/>
      <vel value="0.0573880250" flag="0"/>
      <psa03 value="0.2466471509" flag="0"/>
      <psa10 value="0.0420686532" flag="0"/>
      <psa30 value="0.0037929944" flag="0"/>
    </comp>
  </station>
  <station code="IPPL" name="IPPL" netid="HC" insttype="60" lat="35.3486" lon="24.4632">
    <comp name="--.HHN">
      <acc value="0.0000000000" flag="0"/>
      <vel value="-100.0000000000" flag="0"/>
      <psa03 value="0.0000000000" flag="0"/>
      <psa10 value="0.0000000000" flag="0"/>
      <psa30 value="0.0000000000" flag="0"/>
    </comp>
    <comp name="--.HHE">
      <acc value="0.0000000000" flag="0"/>
      <vel value="-100.0000000000" flag="0"/>
      <psa03 value="0.0000000000" flag="0"/>
      <psa10 value="0.0000000000" flag="0"/>
      <psa30 value="0.0000000000" flag="0"/>
    </comp>
    <comp name="--.HHZ">
      <acc value="0.4578802951" flag="0"/>
      <vel value="0.1928987853" flag="0"/>
      <psa03 value="1.2821221335" flag="0"/>
      <psa10 value="0.1066093296" flag="0"/>
      <psa30 value="0.0107860927" flag="0"/>
    </comp>
  </station>
  <station code="KNDR" name="KNDR" netid="HC" insttype="120" lat="35.2348" lon="23.6248">
    <comp name="--.HHE">
      <acc value="1.2940359110" flag="0"/>
      <vel value="0.3944382858" flag="0"/>
      <psa03 value="2.9580525442" flag="0"/>
      <psa10 value="0.2187194606" flag="0"/>
      <psa30 value="0.0202119936" flag="0"/>
    </comp>
    <comp name="--.HHN">
      <acc value="1.8152067712" flag="0"/>
      <vel value="0.5654041250" flag="0"/>
      <psa03 value="2.5932467682" flag="0"/>
      <psa10 value="0.2283306537" flag="0"/>
      <psa30 value="0.0201138833" flag="0"/>
    </comp>
    <comp name="--.HHZ">
      <acc value="1.1876019899" flag="0"/>
      <vel value="0.2855700452" flag="0"/>
      <psa03 value="1.5295620524" flag="0"/>
      <psa10 value="0.1005395246" flag="0"/>
      <psa30 value="0.0188441735" flag="0"/>
    </comp>
  </station>
  <station code="KNSS" name="KNSS" netid="HC" insttype="60" lat="35.3042" lon="25.1802">
    <comp name="--.HHZ">
      <acc value="0.0909183043" flag="0"/>
      <vel value="0.0455514334" flag="0"/>
      <psa03 value="0.2384306286" flag="0"/>
      <psa10 value="0.0300720482" flag="0"/>
      <psa30 value="0.0058039594" flag="0"/>
    </comp>
    <comp name="--.HHE">
      <acc value="0.0856121821" flag="0"/>
      <vel value="0.0451704213" flag="0"/>
      <psa03 value="0.2983268518" flag="0"/>
      <psa10 value="0.0590442578" flag="0"/>
      <psa30 value="0.0067366692" flag="0"/>
    </comp>
    <comp name="--.HHN">
      <acc value="0.0924377182" flag="0"/>
      <vel value="0.0553085541" flag="0"/>
      <psa03 value="0.2843852560" flag="0"/>
      <psa10 value="0.0477693603" flag="0"/>
      <psa30 value="0.0092288251" flag="0"/>
    </comp>
  </station>
  <station code="KTHR" name="KTHR" netid="HC" insttype="120s" lat="36.2447" lon="22.9939">
    <comp name="--.HHE">
      <acc value="0.1112224832" flag="0"/>
      <vel value="0.0690132680" flag="0"/>
      <psa03 value="0.3572107068" flag="0"/>
      <psa10 value="0.0758471570" flag="0"/>
      <psa30 value="0.0049369345" flag="0"/>
    </comp>
    <comp name="--.HHZ">
      <acc value="0.0860140806" flag="0"/>
      <vel value="0.0344337974" flag="0"/>
      <psa03 value="0.2393682654" flag="0"/>
      <psa10 value="0.0451813853" flag="0"/>
      <psa30 value="0.0041698645" flag="0"/>
    </comp>
    <comp name="--.HHN">
      <acc value="0.0832323887" flag="0"/>
      <vel value="0.0657021588" flag="0"/>
      <psa03 value="0.4114293317" flag="0"/>
      <psa10 value="0.0668505163" flag="0"/>
      <psa30 value="0.0042376991" flag="0"/>
    </comp>
  </station>
  <station code="LENT" name="LENT" netid="HC" insttype="DC" lat="35.5074" lon="24.0402">
    <comp name="--.HNE">
      <acc value="1.5880730269" flag="0"/>
      <vel value="0.6135759564" flag="0"/>
      <psa03 value="2.0273853875" flag="0"/>
      <psa10 value="0.6324764884" flag="0"/>
      <psa30 value="0.0571973622" flag="0"/>
    </comp>
    <comp name="--.HNN">
      <acc value="1.9396808600" flag="0"/>
      <vel value="1.0495694349" flag="0"/>
      <psa03 value="3.3747320912" flag="0"/>
      <psa10 value="1.0006407573" flag="0"/>
      <psa30 value="0.0570117411" flag="0"/>
    </comp>
    <comp name="--.HNZ">
      <acc value="1.1606187020" flag="0"/>
      <vel value="0.4584599686" flag="0"/>
      <psa03 value="2.0087965243" flag="0"/>
      <psa10 value="0.3096171748" flag="0"/>
      <psa30 value="0.0266540404" flag="0"/>
    </comp>
  </station>
  <station code="MULT" name="MULT" netid="HC" insttype="DC" lat="35.5091" lon="24.0118">
    <comp name="--.HNE">
      <acc value="0.1439319480" flag="0"/>
      <vel value="0.0713500020" flag="0"/>
      <psa03 value="0.2444564135" flag="0"/>
      <psa10 value="0.0565519086" flag="0"/>
      <psa30 value="0.0067832857" flag="0"/>
    </comp>
    <comp name="--.HNN">
      <acc value="0.1950249077" flag="0"/>
      <vel value="0.1160224597" flag="0"/>
      <psa03 value="0.4437642722" flag="0"/>
      <psa10 value="0.0985134068" flag="0"/>
      <psa30 value="0.0053639663" flag="0"/>
    </comp>
    <comp name="--.HNZ">
      <acc value="0.1148859986" flag="0"/>
      <vel value="0.0270416753" flag="0"/>
      <psa03 value="0.1640547707" flag="0"/>
      <psa10 value="0.0541900806" flag="0"/>
      <psa30 value="0.0032302245" flag="0"/>
    </comp>
  </station>
  <station code="PASK" name="PASK" netid="HC" insttype="DC" lat="35.4996" lon="24.0121">
    <comp name="--.HNZ">
      <acc value="1.0253082140" flag="0"/>
      <vel value="0.4610758656" flag="0"/>
      <psa03 value="2.4483911920" flag="0"/>
      <psa10 value="0.3610806996" flag="0"/>
      <psa30 value="0.0359025048" flag="0"/>
    </comp>
    <comp name="--.HNE">
      <acc value="1.6005427359" flag="0"/>
      <vel value="0.8587656062" flag="0"/>
      <psa03 value="3.4529647039" flag="0"/>
      <psa10 value="0.4761892178" flag="0"/>
      <psa30 value="0.0737164694" flag="0"/>
    </comp>
    <comp name="--.HNN">
      <acc value="1.6888492871" flag="0"/>
      <vel value="1.1598371346" flag="0"/>
      <psa03 value="3.1316095441" flag="0"/>
      <psa10 value="1.0979793563" flag="0"/>
      <psa30 value="0.0618854734" flag="0"/>
    </comp>
  </station>
  <station code="PFKS" name="PFKS" netid="HC" insttype="120" lat="35.0429" lon="25.4733">
    <comp name="--.HHN">
      <acc value="0.0478695257" flag="0"/>
      <vel value="0.0231640906" flag="0"/>
      <psa03 value="0.1518747421" flag="0"/>
      <psa10 value="0.0295100914" flag="0"/>
      <psa30 value="0.0030782912" flag="0"/>
    </comp>
    <comp name="--.HHE">
      <acc value="0.0384234857" flag="0"/>
      <vel value="0.0219114568" flag="0"/>
      <psa03 value="0.1343128613" flag="0"/>
      <psa10 value="0.0313904640" flag="0"/>
      <psa30 value="0.0029904125" flag="0"/>
    </comp>
    <comp name="--.HHZ">
      <acc value="0.0245875613" flag="0"/>
      <vel value="0.0130733607" flag="0"/>
      <psa03 value="0.0540487599" flag="0"/>
      <psa10 value="0.0180062749" flag="0"/>
      <psa30 value="0.0019233788" flag="0"/>
    </comp>
  </station>
  <station code="POLY" name="POLY" netid="HC" insttype="DC" lat="35.5226" lon="24.0602">
    <comp name="--.HNE">
      <acc value="0.6088684598" flag="0"/>
      <vel value="0.5781244446" flag="0"/>
      <psa03 value="1.1971825922" flag="0"/>
      <psa10 value="0.6502006556" flag="0"/>
      <psa30 value="0.0309047911" flag="0"/>
    </comp>
    <comp name="--.HNN">
      <acc value="0.8989454580" flag="0"/>
      <vel value="0.8602820896" flag="0"/>
      <psa03 value="1.9727005338" flag="0"/>
      <psa10 value="0.6261410773" flag="0"/>
      <psa30 value="0.0345964587" flag="0"/>
    </comp>
    <comp name="--.HNZ">
      <acc value="0.5051894389" flag="0"/>
      <vel value="0.3271067389" flag="0"/>
      <psa03 value="0.9755571467" flag="0"/>
      <psa10 value="0.3831341362" flag="0"/>
      <psa30 value="0.0197424586" flag="0"/>
    </comp>
  </station>
  <station code="RODP" name="RODP" netid="HC" insttype="120" lat="35.5604" lon="23.7577">
    <comp name="--.HHE">
      <acc value="0.5921770972" flag="0"/>
      <vel value="0.3202526108" flag="0"/>
      <psa03 value="1.2619144243" flag="0"/>
      <psa10 value="0.2700723168" flag="0"/>
      <psa30 value="0.0331617116" flag="0"/>
    </comp>
    <comp name="--.HHN">
      <acc value="0.4665623307" flag="0"/>
      <vel value="0.2088223939" flag="0"/>
      <psa03 value="0.9696692405" flag="0"/>
      <psa10 value="0.2140053834" flag="0"/>
      <psa30 value="0.0214466290" flag="0"/>
    </comp>
    <comp name="--.HHZ">
      <acc value="0.2857023199" flag="0"/>
      <vel value="0.1830926042" flag="0"/>
      <psa03 value="0.4723370609" flag="0"/>
      <psa10 value="0.1488758558" flag="0"/>
      <psa30 value="0.0302616598" flag="0"/>
    </comp>
  </station>
  <station code="SOUD" name="SOUD" netid="HC" insttype="DC" lat="35.4878" lon="24.0678">
    <comp name="--.HNE">
      <acc value="2.2739222932" flag="0"/>
      <vel value="0.9838981687" flag="0"/>
      <psa03 value="4.0115754631" flag="0"/>
      <psa10 value="1.4018604572" flag="0"/>
      <psa30 value="0.0662841580" flag="0"/>
    </comp>
    <comp name="--.HNZ">
      <acc value="0.0114499234" flag="0"/>
      <vel value="0.0056202920" flag="0"/>
      <psa03 value="0.0073719727" flag="0"/>
      <psa10 value="0.0043917087" flag="0"/>
      <psa30 value="0.0033939579" flag="0"/>
    </comp>
    <comp name="--.HNN">
      <acc value="2.1916158168" flag="0"/>
      <vel value="1.1237321479" flag="0"/>
      <psa03 value="3.9685233274" flag="0"/>
      <psa10 value="0.9597465120" flag="0"/>
      <psa30 value="0.0607253077" flag="0"/>
    </comp>
  </station>
  <station code="TEFL" name="TEFL" netid="HC" insttype="GEOtiny," lat="35.0933" lon="25.1634">
    <comp name="--.HHE">
      <acc value="0.2305963931" flag="0"/>
      <vel value="0.0797594933" flag="0"/>
      <psa03 value="0.5070691928" flag="0"/>
      <psa10 value="0.1441575232" flag="0"/>
      <psa30 value="0.0056201668" flag="0"/>
    </comp>
    <comp name="--.HHN">
      <acc value="0.1781910020" flag="0"/>
      <vel value="0.0959717679" flag="0"/>
      <psa03 value="0.3734160277" flag="0"/>
      <psa10 value="0.0805874525" flag="0"/>
      <psa30 value="0.0048159036" flag="0"/>
    </comp>
    <comp name="--.HHZ">
      <acc value="0.0962599872" flag="0"/>
      <vel value="0.0438053878" flag="0"/>
      <psa03 value="0.2547274188" flag="0"/>
      <psa10 value="0.0443719766" flag="0"/>
      <psa30 value="0.0056071869" flag="0"/>
    </comp>
  </station>
  <station code="CH01" name="CH01" netid="HI" insttype="CMG-5TD,ACCELEROMETER,GURALP" lat="35.517" lon="24.0208">
    <comp name="--.HNE">
      <acc value="1.0388140474" flag="0"/>
      <vel value="0.3737821047" flag="0"/>
      <psa03 value="1.6171821626" flag="0"/>
      <psa10 value="0.6341663959" flag="0"/>
      <psa30 value="0.0601707447" flag="0"/>
    </comp>
    <comp name="--.HNN">
      <acc value="1.0885385234" flag="0"/>
      <vel value="0.6528590820" flag="0"/>
      <psa03 value="2.7528365657" flag="0"/>
      <psa10 value="0.5482959376" flag="0"/>
      <psa30 value="0.0356820210" flag="0"/>
    </comp>
    <comp name="--.HNZ">
      <acc value="0.5019971396" flag="0"/>
      <vel value="0.2715793752" flag="0"/>
      <psa03 value="1.0505552394" flag="0"/>
      <psa10 value="0.3361250900" flag="0"/>
      <psa30 value="0.0306377522" flag="0"/>
    </comp>
  </station>
  <station code="ANKY" name="ANKY" netid="HL" insttype="60" lat="35.867" lon="23.3012">
    <comp name="--.HHE">
      <acc value="0.0630419036" flag="0"/>
      <vel value="0.0526724611" flag="0"/>
      <psa03 value="0.1739870349" flag="0"/>
      <psa10 value="0.0897946530" flag="0"/>
      <psa30 value="0.0100858032" flag="0"/>
    </comp>
    <comp name="--.HHN">
      <acc value="0.0762401027" flag="0"/>
      <vel value="0.0587237754" flag="0"/>
      <psa03 value="0.2178551056" flag="0"/>
