<?xml version="1.0" encoding="UTF-8" standalone="yes"?>
<!DOCTYPE earthquake SYSTEM "stationlist.dtd">
<stationlist created="" xmlns="ch.ethz.sed.shakemap.usgs.xml">
  <station code="BH09A" name="BH09A" netid="Y5" insttype="STS2_gen3" lat="44.7856" lon="16.6156">
    <comp name="--.HHZ">
      <acc value="0.0548811316" flag="0"/>
      <vel value="0.0167580437" flag="0"/>
      <psa03 value="0.0930877448" flag="0"/>
      <psa10 value="0.0091984069" flag="0"/>
      <psa30 value="0.0010938870" flag="0"/>
    </comp>
    <comp name="--.HH2">
      <acc value="0.1117025677" flag="0"/>
      <vel value="0.0229907028" flag="0"/>
      <psa03 value="0.1199499826" flag="0"/>
      <psa10 value="0.0167725678" flag="0"/>
      <psa30 value="0.0011725727" flag="0"/>
    </comp>
    <comp name="--.HH1">
      <acc value="0.1114033178" flag="0"/>
      <vel value="0.0227997032" flag="0"/>
      <psa03 value="0.0741786438" flag="0"/>
      <psa10 value="0.0123229375" flag="0"/>
      <psa30 value="0.0011966569" flag="0"/>
    </comp>
  </station>
  <station code="BH13A" name="BH13A" netid="Y5" insttype="STS2_gen2" lat="44.8908" lon="16.3202">
    <comp name="--.HH2">
      <acc value="0.0917941561" flag="0"/>
      <vel value="0.0155283050" flag="0"/>
      <psa03 value="0.0531155399" flag="0"/>
      <psa10 value="0.0041801415" flag="0"/>
      <psa30 value="0.0006006010" flag="0"/>
    </comp>
    <comp name="--.HHZ">
      <acc value="0.0718440749" flag="0"/>
      <vel value="0.0143150815" flag="0"/>
      <psa03 value="0.0581210702" flag="0"/>
      <psa10 value="0.0038549178" flag="0"/>
      <psa30 value="0.0008106881" flag="0"/>
    </comp>
    <comp name="--.HH1">
      <acc value="0.0781510232" flag="0"/>
      <vel value="0.0145184695" flag="0"/>
      <psa03 value="0.0611912347" flag="0"/>
      <psa10 value="0.0138801426" flag="0"/>
      <psa30 value="0.0007134144" flag="0"/>
    </comp>
  </station>
</stationlist>
