<stationlist xmlns:esm="https://esm-db.eu/esmws/shakemap/1/" created="1783734836">
	<station code="BLY" name="BLY" netid="MN" source="Mediterranean Very Broadband Seismographic Network (MedNet)" insttype="" lat="44.7488" lon="17.1839" esm:processing="automatic (Paolucci et al 2011)" esm:quality="best">
		<comp name="--.HNE" depth="1.0">
			<acc value="0.0112040994721874" flag="0"/>
			<vel value="0.00596625394743932" flag="0"/>
			<psa03 value="0.0410331244930971" flag="0"/>
			<psa10 value="0.00467092973867" flag="0"/>
			<psa30 value="0.000488141659905887" flag="0"/>
		</comp>
		<comp name="--.HNN" depth="1.0">
			<acc value="0.0094018757551455" flag="0"/>
			<vel value="0.00398027194968054" flag="0"/>
			<psa03 value="0.0278295258611766" flag="0"/>
			<psa10 value="0.00421044985912994" flag="0"/>
			<psa30 value="0.000533397626643107" flag="0"/>
		</comp>
		<comp name="--.HNZ" depth="1.0">
			<acc value="0.00733165724252106" flag="0"/>
			<vel value="0.00337271318009991" flag="0"/>
			<psa03 value="0.016102191691177" flag="0"/>
			<psa10 value="0.00218035060940288" flag="0"/>
			<psa30 value="0.000455711334473194" flag="0"/>
		</comp>
	</station>
	<station code="DST2" name="DST2" netid="NI" source="North-East Italy Broadband Network (NI)" insttype="" lat="45.6589" lon="13.8013" esm:processing="automatic (Paolucci et al 2011)" esm:quality="best">
		<comp name="--.HNE" depth="0.0">
			<acc value="0.0126377363096523" flag="0"/>
			<vel value="0.00376705835763044" flag="0"/>
			<psa03 value="0.0256478448771772" flag="0"/>
			<psa10 value="0.00209225117949762" flag="0"/>
			<psa30 value="0.000229905750960897" flag="0"/>
		</comp>
		<comp name="--.HNN" depth="0.0">
			<acc value="0.0139250038792763" flag="0"/>
			<vel value="0.00532959078704041" flag="0"/>
			<psa03 value="0.0266766578226553" flag="0"/>
			<psa10 value="0.00328252237287115" flag="0"/>
			<psa30 value="0.000288513253212052" flag="0"/>
		</comp>
		<comp name="--.HNZ" depth="0.0">
			<acc value="0.00716226832799477" flag="0"/>
			<vel value="0.00312878233990872" flag="0"/>
			<psa03 value="0.0172678613589835" flag="0"/>
			<psa10 value="0.00375750000968551" flag="0"/>
			<psa30 value="0.000314225269006909" flag="0"/>
		</comp>
	</station>
	<station code="DRE" name="DRE" netid="OX" source="North-East Italy Seismic Network" insttype="" lat="46.1733" lon="13.645" esm:processing="automatic (Paolucci et al 2011)" esm:quality="best">
		<comp name="--.HNE" depth="0.0">
			<acc value="0.0122523036283654" flag="0"/>
			<vel value="0.00535396969218566" flag="0"/>
			<psa03 value="0.0169079989781869" flag="0"/>
			<psa10 value="0.00844164609263447" flag="0"/>
			<psa30 value="0.000497293151564398" flag="0"/>
		</comp>
		<comp name="--.HNN" depth="0.0">
			<acc value="0.010451710658966" flag="0"/>
			<vel value="0.00365576995160652" flag="0"/>
			<psa03 value="0.0149722131898188" flag="0"/>
			<psa10 value="0.00390254110232142" flag="0"/>
			<psa30 value="0.000340825650943141" flag="0"/>
		</comp>
		<comp name="--.HNZ" depth="0.0">
			<acc value="0.00404682870621635" flag="0"/>
			<vel value="0.00198776162599795" flag="0"/>
			<psa03 value="0.00809874027783252" flag="0"/>
			<psa10 value="0.00286338781038916" flag="0"/>
			<psa30 value="0.000347454892181226" flag="0"/>
		</comp>
	</station>
	<station code="SABO" name="SABO" netid="OX" source="North-East Italy Seismic Network" insttype="" lat="45.9875" lon="13.6337" esm:processing="automatic (Paolucci et al 2011)" esm:quality="good">
		<comp name="--.HNE" depth="0.0">
			<acc value="0.0285593851362077" flag="0"/>
			<vel value="0.0146602807493806" flag="0"/>
			<psa03 value="0.0833587304401641" flag="0"/>
			<psa10 value="0.0233669110681788" flag="0"/>
			<psa30 value="0.00218534039307489" flag="0"/>
		</comp>
		<comp name="--.HNN" depth="0.0">
			<acc value="0.0250008596174481" flag="0"/>
			<vel value="0.0179648887323524" flag="0"/>
			<psa03 value="0.0820249806275843" flag="0"/>
			<psa10 value="0.0209948826829465" flag="0"/>
			<psa30 value="0.00339431464835249" flag="0"/>
		</comp>
		<comp name="--.HNZ" depth="0.0">
			<acc value="0.0141796560298212" flag="0"/>
			<vel value="0.00710390391689063" flag="0"/>
			<psa03 value="0.036850558356134" flag="0"/>
			<psa10 value="0.0102222162341492" flag="0"/>
			<psa30 value="0.00322458882151588" flag="0"/>
		</comp>
	</station>
	<station code="BOJS" name="BOJS" netid="SL" source="Seismic Network of the Republic of Slovenia (SNRS)" insttype="" lat="45.5043" lon="15.2518" esm:processing="manual (Paolucci et al 2011)" esm:quality="best">
		<comp name="--.HNE" depth="0.0">
			<acc value="0.0265540747281561" flag="0"/>
			<vel value="0.00651336343565768" flag="0"/>
			<psa03 value="0.0429122333498414" flag="0"/>
			<psa10 value="0.00729676040582802" flag="0"/>
			<psa30 value="0.000595475020215505" flag="0"/>
		</comp>
		<comp name="--.HNN" depth="0.0">
			<acc value="0.0304382779741377" flag="0"/>
			<vel value="0.00871620486618651" flag="0"/>
			<psa03 value="0.0433962549972294" flag="0"/>
			<psa10 value="0.00666966589513253" flag="0"/>
			<psa30 value="0.000597884138138778" flag="0"/>
		</comp>
		<comp name="--.HNZ" depth="0.0">
			<acc value="0.0209574269484912" flag="0"/>
			<vel value="0.00483640561134348" flag="0"/>
			<psa03 value="0.0235651365954806" flag="0"/>
			<psa10 value="0.00517221278998146" flag="0"/>
			<psa30 value="0.00065973214151848" flag="0"/>
		</comp>
	</station>
	<station code="CADS" name="CADS" netid="SL" source="Seismic Network of the Republic of Slovenia (SNRS)" insttype="" lat="46.2281" lon="13.7368" esm:processing="manual (Paolucci et al 2011)" esm:quality="best">
		<comp name="--.HNE" depth="0.0">
			<acc value="0.00445554479356513" flag="0"/>
			<vel value="0.00242502953505796" flag="0"/>
			<psa03 value="0.011978306524842" flag="0"/>
			<psa10 value="0.00327247545731389" flag="0"/>
			<psa30 value="0.000237210505698537" flag="0"/>
		</comp>
		<comp name="--.HNN" depth="0.0">
			<acc value="0.00501150369643566" flag="0"/>
			<vel value="0.00263151782782895" flag="0"/>
			<psa03 value="0.0178221116169971" flag="0"/>
			<psa10 value="0.00194800220964823" flag="0"/>
			<psa30 value="0.000176996933511408" flag="0"/>
		</comp>
		<comp name="--.HNZ" depth="0.0">
			<acc value="0.00295928747208434" flag="0"/>
			<vel value="0.00160944265163397" flag="0"/>
			<psa03 value="0.00974003129697775" flag="0"/>
			<psa10 value="0.00182926899259208" flag="0"/>
			<psa30 value="0.000274568371098625" flag="0"/>
		</comp>
	</station>
	<station code="CEY" name="CEY" netid="SL" source="Seismic Network of the Republic of Slovenia (SNRS)" insttype="" lat="45.7381" lon="14.4221" esm:processing="manual (Paolucci et al 2011)" esm:quality="best">
		<comp name="--.HNE" depth="0.0">
			<acc value="0.00870750454537291" flag="0"/>
			<vel value="0.00242509326036685" flag="0"/>
			<psa03 value="0.0117103655979842" flag="0"/>
			<psa10 value="0.00190169039171728" flag="0"/>
			<psa30 value="0.000194548864469949" flag="0"/>
		</comp>
		<comp name="--.HNN" depth="0.0">
			<acc value="0.011095385755812" flag="0"/>
			<vel value="0.00290900155253305" flag="0"/>
			<psa03 value="0.0172187422196497" flag="0"/>
			<psa10 value="0.00320806095579533" flag="0"/>
			<psa30 value="0.000235708453070005" flag="0"/>
		</comp>
		<comp name="--.HNZ" depth="0.0">
			<acc value="0.00638181077419934" flag="0"/>
			<vel value="0.0022796453857155" flag="0"/>
			<psa03 value="0.0237882321036374" flag="0"/>
			<psa10 value="0.00209732971905089" flag="0"/>
			<psa30 value="0.000267408990574996" flag="0"/>
		</comp>
	</station>
	<station code="CRES" name="CRES" netid="SL" source="Seismic Network of the Republic of Slovenia (SNRS)" insttype="" lat="45.826" lon="15.4569" esm:processing="manual (Paolucci et al 2011)" esm:quality="best">
		<comp name="--.HNE" depth="0.0">
			<acc value="0.0132021431780347" flag="0"/>
			<vel value="0.00573779465731552" flag="0"/>
			<psa03 value="0.0259976102349004" flag="0"/>
			<psa10 value="0.00422473268031518" flag="0"/>
			<psa30 value="0.000445848962389142" flag="0"/>
		</comp>
		<comp name="--.HNN" depth="0.0">
			<acc value="0.01211748263198" flag="0"/>
			<vel value="0.00569000129529017" flag="0"/>
			<psa03 value="0.0239052450635121" flag="0"/>
			<psa10 value="0.00347545132534311" flag="0"/>
			<psa30 value="0.000510328285911514" flag="0"/>
		</comp>
		<comp name="--.HNZ" depth="0.0">
			<acc value="0.00789987474858118" flag="0"/>
			<vel value="0.00417352682034481" flag="0"/>
			<psa03 value="0.0219134308239088" flag="0"/>
			<psa10 value="0.00343515373395266" flag="0"/>
			<psa30 value="0.000676579247136448" flag="0"/>
		</comp>
	</station>
	<station code="CRNS" name="CRNS" netid="SL" source="Seismic Network of the Republic of Slovenia (SNRS)" insttype="" lat="46.0807" lon="14.2613" esm:processing="manual (Paolucci et al 2011)" esm:quality="good">
		<comp name="--.HNE" depth="0.0">
			<acc value="0.0125378693139271" flag="0"/>
			<vel value="0.00420324343844747" flag="0"/>
			<psa03 value="0.0266192529781929" flag="0"/>
			<psa10 value="0.00355610276185611" flag="0"/>
			<psa30 value="0.000291078162708175" flag="0"/>
		</comp>
		<comp name="--.HNN" depth="0.0">
			<acc value="0.0104655375980102" flag="0"/>
			<vel value="0.00374212234106264" flag="0"/>
			<psa03 value="0.0163155638989637" flag="0"/>
			<psa10 value="0.00351017768829304" flag="0"/>
			<psa30 value="0.000278049617339119" flag="0"/>
		</comp>
		<comp name="--.HNZ" depth="0.0">
			<acc value="0.00345085075587034" flag="0"/>
			<vel value="0.00184902531020641" flag="0"/>
			<psa03 value="0.00917857938998585" flag="0"/>
			<psa10 value="0.00160272316473105" flag="0"/>
			<psa30 value="0.000384952167858732" flag="0"/>
		</comp>
	</station>
	<station code="DOBS" name="DOBS" netid="SL" source="Seismic Network of the Republic of Slovenia (SNRS)" insttype="" lat="46.1495" lon="15.4695" esm:processing="manual (Paolucci et al 2011)" esm:quality="best">
		<comp name="--.HNE" depth="0.0">
			<acc value="0.00839962944441161" flag="0"/>
			<vel value="0.00361556717543965" flag="0"/>
			<psa03 value="0.00920791922423375" flag="0"/>
			<psa10 value="0.00312379756125653" flag="0"/>
			<psa30 value="0.000498758613227553" flag="0"/>
		</comp>
		<comp name="--.HNN" depth="0.0">
			<acc value="0.00823303378123677" flag="0"/>
			<vel value="0.00299119710716816" flag="0"/>
			<psa03 value="0.00865207315739079" flag="0"/>
			<psa10 value="0.00256996063790295" flag="0"/>
			<psa30 value="0.000544604462791754" flag="0"/>
		</comp>
		<comp name="--.HNZ" depth="0.0">
			<acc value="0.00480565157327599" flag="0"/>
			<vel value="0.00190630344764962" flag="0"/>
			<psa03 value="0.00394418836645566" flag="0"/>
			<psa10 value="0.0026181152341585" flag="0"/>
			<psa30 value="0.000713827600073602" flag="0"/>
		</comp>
	</station>
	<station code="GBAS" name="GBAS" netid="SL" source="Seismic Network of the Republic of Slovenia (SNRS)" insttype="" lat="45.9348" lon="14.4434" esm:processing="manual (Paolucci et al 2011)" esm:quality="best">
		<comp name="--.HNE" depth="0.0">
			<acc value="0.00480358469638297" flag="0"/>
			<vel value="0.00147351324415721" flag="0"/>
			<psa03 value="0.00691416766508246" flag="0"/>
			<psa10 value="0.0011929106651024" flag="0"/>
			<psa30 value="0.000373939745631293" flag="0"/>
		</comp>
		<comp name="--.HNN" depth="0.0">
			<acc value="0.00521365752418077" flag="0"/>
			<vel value="0.00119016815873151" flag="0"/>
			<psa03 value="0.00652206682054463" flag="0"/>
			<psa10 value="0.000874932842819547" flag="0"/>
			<psa30 value="0.000399526805231776" flag="0"/>
		</comp>
		<comp name="--.HNZ" depth="0.0">
			<acc value="0.00425687077219778" flag="0"/>
			<vel value="0.0014124674936503" flag="0"/>
			<psa03 value="0.00481754472464239" flag="0"/>
			<psa10 value="0.00161916472265585" flag="0"/>
			<psa30 value="0.000893716079301986" flag="0"/>
		</comp>
	</station>
	<station code="GBRS" name="GBRS" netid="SL" source="Seismic Network of the Republic of Slovenia (SNRS)" insttype="" lat="45.5311" lon="14.8101" esm:processing="manual (Paolucci et al 2011)" esm:quality="best">
		<comp name="--.HNE" depth="0.0">
			<acc value="0.0271217026028549" flag="0"/>
			<vel value="0.00387853739902679" flag="0"/>
			<psa03 value="0.0134894990818611" flag="0"/>
			<psa10 value="0.00475072236829156" flag="0"/>
			<psa30 value="0.000743622646767504" flag="0"/>
		</comp>
		<comp name="--.HNN" depth="0.0">
			<acc value="0.0235634637924126" flag="0"/>
			<vel value="0.00577862812226389" flag="0"/>
			<psa03 value="0.0128611605825193" flag="0"/>
			<psa10 value="0.00592711201708237" flag="0"/>
			<psa30 value="0.000696818608729686" flag="0"/>
		</comp>
		<comp name="--.HNZ" depth="0.0">
			<acc value="0.0130343137780222" flag="0"/>
			<vel value="0.00335663322265245" flag="0"/>
			<psa03 value="0.017989402647138" flag="0"/>
			<psa10 value="0.00380352001140905" flag="0"/>
			<psa30 value="0.000746489659609701" flag="0"/>
		</comp>
	</station>
	<station code="GCIS" name="GCIS" netid="SL" source="Seismic Network of the Republic of Slovenia (SNRS)" insttype="" lat="45.8672" lon="15.6275" esm:processing="manual (Paolucci et al 2011)" esm:quality="best">
		<comp name="--.HNE" depth="0.0">
			<acc value="0.0110623399906242" flag="0"/>
			<vel value="0.00418755683111104" flag="0"/>
			<psa03 value="0.0180997719377285" flag="0"/>
			<psa10 value="0.00437932823400287" flag="0"/>
			<psa30 value="0.000593319981620252" flag="0"/>
		</comp>
		<comp name="--.HNN" depth="0.0">
			<acc value="0.0102832498932647" flag="0"/>
			<vel value="0.00287432110068241" flag="0"/>
			<psa03 value="0.0131993900198096" flag="0"/>
			<psa10 value="0.00204247249127861" flag="0"/>
			<psa30 value="0.000825962007596058" flag="0"/>
		</comp>
		<comp name="--.HNZ" depth="0.0">
			<acc value="0.006286463239978" flag="0"/>
			<vel value="0.00338204644218669" flag="0"/>
			<psa03 value="0.00806646730657922" flag="0"/>
			<psa10 value="0.0028501705285596" flag="0"/>
			<psa30 value="0.000913509473852704" flag="0"/>
		</comp>
	</station>
	<station code="GORS" name="GORS" netid="SL" source="Seismic Network of the Republic of Slovenia (SNRS)" insttype="" lat="46.3174" lon="13.9999" esm:processing="manual (Paolucci et al 2011)" esm:quality="best">
		<comp name="--.HNE" depth="0.0">
			<acc value="0.00341875872169088" flag="0"/>
			<vel value="0.00169013691672669" flag="0"/>
			<psa03 value="0.00508683339700842" flag="0"/>
			<psa10 value="0.00140593426905648" flag="0"/>
			<psa30 value="0.000115037724851412" flag="0"/>
		</comp>
		<comp name="--.HNN" depth="0.0">
			<acc value="0.00271902611039951" flag="0"/>
			<vel value="0.00145666328405322" flag="0"/>
			<psa03 value="0.00465125864387694" flag="0"/>
			<psa10 value="0.000978120283947932" flag="0"/>
			<psa30 value="8.47777450159465e-05" flag="0"/>
		</comp>
		<comp name="--.HNZ" depth="0.0">
			<acc value="0.00207025587990497" flag="0"/>
			<vel value="0.00116258203096198" flag="0"/>
			<psa03 value="0.00400374048857582" flag="0"/>
			<psa10 value="0.00160201331301967" flag="0"/>
			<psa30 value="9.36887194385949e-05" flag="0"/>
		</comp>
	</station>
	<station code="GROS" name="GROS" netid="SL" source="Seismic Network of the Republic of Slovenia (SNRS)" insttype="" lat="46.461" lon="15.5018" esm:processing="manual (Paolucci et al 2011)" esm:quality="best">
		<comp name="--.HNE" depth="0.0">
			<acc value="0.0029515765196837" flag="0"/>
			<vel value="0.00120990060230346" flag="0"/>
			<psa03 value="0.00485603002149171" flag="0"/>
			<psa10 value="0.00102333286890694" flag="0"/>
			<psa30 value="0.000100738815379402" flag="0"/>
		</comp>
		<comp name="--.HNN" depth="0.0">
			<acc value="0.00223402658435794" flag="0"/>
			<vel value="0.000911878172174822" flag="0"/>
			<psa03 value="0.00572662805893976" flag="0"/>
			<psa10 value="0.000642329719161445" flag="0"/>
			<psa30 value="0.000128252623711008" flag="0"/>
		</comp>
		<comp name="--.HNZ" depth="0.0">
			<acc value="0.00237756697555583" flag="0"/>
			<vel value="0.00122999704185535" flag="0"/>
			<psa03 value="0.00635970320017538" flag="0"/>
			<psa10 value="0.00102091126317384" flag="0"/>
			<psa30 value="0.00012206562531102" flag="0"/>
		</comp>
	</station>
	<station code="KNDS" name="KNDS" netid="SL" source="Seismic Network of the Republic of Slovenia (SNRS)" insttype="" lat="45.5278" lon="14.3807" esm:processing="manual (Paolucci et al 2011)" esm:quality="best">
		<comp name="--.HNE" depth="0.0">
			<acc value="0.0119469165566253" flag="0"/>
			<vel value="0.00351897039099587" flag="0"/>
			<psa03 value="0.0194701765223774" flag="0"/>
			<psa10 value="0.00379195377645084" flag="0"/>
			<psa30 value="0.000552197153269021" flag="0"/>
		</comp>
		<comp name="--.HNN" depth="0.0">
			<acc value="0.00975979894900217" flag="0"/>
			<vel value="0.00360210134014965" flag="0"/>
			<psa03 value="0.0184224730025943" flag="0"/>
			<psa10 value="0.00391454564756224" flag="0"/>
			<psa30 value="0.000261690695099071" flag="0"/>
		</comp>
		<comp name="--.HNZ" depth="0.0">
			<acc value="0.00510939291065436" flag="0"/>
			<vel value="0.001801351938834" flag="0"/>
			<psa03 value="0.00758161357280024" flag="0"/>
			<psa10 value="0.00175175674841172" flag="0"/>
			<psa30 value="0.000326519364680351" flag="0"/>
		</comp>
	</station>
	<station code="KOGS" name="KOGS" netid="SL" source="Seismic Network of the Republic of Slovenia (SNRS)" insttype="" lat="46.4481" lon="16.2504" esm:processing="manual (Paolucci et al 2011)" esm:quality="best">
		<comp name="--.HNE" depth="0.0">
			<acc value="0.00496828731824608" flag="0"/>
			<vel value="0.00351255750940684" flag="0"/>
			<psa03 value="0.0104179303711252" flag="0"/>
			<psa10 value="0.00393458064665801" flag="0"/>
			<psa30 value="0.000393216517414364" flag="0"/>
		</comp>
		<comp name="--.HNN" depth="0.0">
			<acc value="0.00611123391942918" flag="0"/>
			<vel value="0.00312146457142322" flag="0"/>
			<psa03 value="0.0113271618272269" flag="0"/>
			<psa10 value="0.00425194167027933" flag="0"/>
			<psa30 value="0.000539416931639709" flag="0"/>
		</comp>
		<comp name="--.HNZ" depth="0.0">
			<acc value="0.00334080121002254" flag="0"/>
			<vel value="0.00185276097846564" flag="0"/>
			<psa03 value="0.00741750374303194" flag="0"/>
			<psa10 value="0.00189872289044737" flag="0"/>
			<psa30 value="0.000538698186112314" flag="0"/>
		</comp>
	</station>
	<station code="LJU" name="LJU" netid="SL" source="Seismic Network of the Republic of Slovenia (SNRS)" insttype="" lat="46.0438" lon="14.5278" esm:processing="manual (Paolucci et al 2011)" esm:quality="best">
		<comp name="--.HNE" depth="0.0">
			<acc value="0.00667023890279957" flag="0"/>
			<vel value="0.00236952200377531" flag="0"/>
			<psa03 value="0.0134727115114408" flag="0"/>
			<psa10 value="0.00334122852749331" flag="0"/>
			<psa30 value="0.000839032717216671" flag="0"/>
		</comp>
		<comp name="--.HNN" depth="0.0">
			<acc value="0.00711630448115128" flag="0"/>
			<vel value="0.0026646484718811" flag="0"/>
			<psa03 value="0.0123131425081591" flag="0"/>
			<psa10 value="0.00320292288104762" flag="0"/>
			<psa30 value="0.00040083301155315" flag="0"/>
		</comp>
		<comp name="--.HNZ" depth="0.0">
			<acc value="0.00434182724602497" flag="0"/>
			<vel value="0.00224103773063464" flag="0"/>
			<psa03 value="0.00543683900503458" flag="0"/>
			<psa10 value="0.00260219941418857" flag="0"/>
			<psa30 value="0.000680330485224181" flag="0"/>
		</comp>
	</station>
	<station code="MOZS" name="MOZS" netid="SL" source="Seismic Network of the Republic of Slovenia (SNRS)" insttype="" lat="46.2941" lon="14.4433" esm:processing="manual (Paolucci et al 2011)" esm:quality="good">
		<comp name="--.HNE" depth="0.0">
			<acc value="0.00580393831812806" flag="0"/>
			<vel value="0.00248463221579113" flag="0"/>
			<psa03 value="0.0124446733568667" flag="0"/>
			<psa10 value="0.00379576262251883" flag="0"/>
			<psa30 value="0.000310878615016002" flag="0"/>
		</comp>
