<stationlist created="1775808305">
	<station code="BCK" name="BCK" netid="KO" source="Bogazici University Kandilli Observatory And Earthquake Research Institute (KOERI)" insttype="" lat="37.4602" lon="30.5885">
		<comp name="--.HNE" depth="0.0">
			<acc value="0.0182320292532131" flag="0"/>
			<vel value="0.00654839367971991" flag="0"/>
			<psa03 value="0.0316671785243294" flag="0"/>
			<psa10 value="0.00546224575322384" flag="0"/>
			<psa30 value="0.00027510663592281" flag="0"/>
		</comp>
		<comp name="--.HNN" depth="0.0">
			<acc value="0.0150178086439034" flag="0"/>
			<vel value="0.00534238499264805" flag="0"/>
			<psa03 value="0.0315709221478169" flag="0"/>
			<psa10 value="0.00354510843978564" flag="0"/>
			<psa30 value="0.000314631363617042" flag="0"/>
		</comp>
		<comp name="--.HNZ" depth="0.0">
			<acc value="0.0084128463966735" flag="0"/>
			<vel value="0.00360038363117003" flag="0"/>
			<psa03 value="0.0237522245099706" flag="0"/>
			<psa10 value="0.00324191022939223" flag="0"/>
			<psa30 value="0.000279108906261911" flag="0"/>
		</comp>
	</station>
	<station code="BOZY" name="BOZY" netid="KO" source="Bogazici University Kandilli Observatory And Earthquake Research Institute (KOERI)" insttype="" lat="36.1069" lon="32.9763">
		<comp name="--.HNE" depth="0.0">
			<acc value="0.062916427283258" flag="0"/>
			<vel value="0.0178857161964672" flag="0"/>
			<psa03 value="0.0895182218095289" flag="0"/>
			<psa10 value="0.00374618504137367" flag="0"/>
			<psa30 value="0.000445770571779318" flag="0"/>
		</comp>
		<comp name="--.HNN" depth="0.0">
			<acc value="0.0677703510115954" flag="0"/>
			<vel value="0.0198623143904373" flag="0"/>
			<psa03 value="0.0813202829029764" flag="0"/>
			<psa10 value="0.00516414881826488" flag="0"/>
			<psa30 value="0.000335515194985044" flag="0"/>
		</comp>
		<comp name="--.HNZ" depth="0.0">
			<acc value="0.0298213407606295" flag="0"/>
			<vel value="0.00766587690830906" flag="0"/>
			<psa03 value="0.0332354022031184" flag="0"/>
			<psa10 value="0.00468320664570629" flag="0"/>
			<psa30 value="0.000181981482463428" flag="0"/>
		</comp>
	</station>
	<station code="DEMR" name="DEMR" netid="KO" source="Bogazici University Kandilli Observatory And Earthquake Research Institute (KOERI)" insttype="" lat="36.2365" lon="29.9056">
		<comp name="--.HNE" depth="0.0">
			<acc value="0.00926021494297423" flag="0"/>
			<vel value="0.0025448887609609" flag="0"/>
			<psa03 value="0.0102223379870147" flag="0"/>
			<psa10 value="0.00132438124938305" flag="0"/>
			<psa30 value="0.000322554075957852" flag="0"/>
		</comp>
		<comp name="--.HNN" depth="0.0">
			<acc value="0.00658241457118227" flag="0"/>
			<vel value="0.00188376561293685" flag="0"/>
			<psa03 value="0.00894032467450785" flag="0"/>
			<psa10 value="0.00138111793759769" flag="0"/>
			<psa30 value="0.000282961765661604" flag="0"/>
		</comp>
		<comp name="--.HNZ" depth="0.0">
			<acc value="0.00545568244428787" flag="0"/>
			<vel value="0.00154673457604844" flag="0"/>
			<psa03 value="0.00718604765497318" flag="0"/>
			<psa10 value="0.000972933045789375" flag="0"/>
			<psa30 value="0.000228992122729296" flag="0"/>
		</comp>
	</station>
	<station code="KEMT" name="KEMT" netid="KO" source="Bogazici University Kandilli Observatory And Earthquake Research Institute (KOERI)" insttype="" lat="36.6037" lon="30.5558">
		<comp name="--.HNE" depth="0.0">
			<acc value="0.0915852305491566" flag="0"/>
			<vel value="0.0266720735912974" flag="0"/>
			<psa03 value="0.116493748389109" flag="0"/>
			<psa10 value="0.00496468857375258" flag="0"/>
			<psa30 value="0.000401578191125985" flag="0"/>
		</comp>
		<comp name="--.HNN" depth="0.0">
			<acc value="0.0815808426279315" flag="0"/>
			<vel value="0.0206371527935067" flag="0"/>
			<psa03 value="0.12036780710982" flag="0"/>
			<psa10 value="0.0062355272918307" flag="0"/>
			<psa30 value="0.000409443634047977" flag="0"/>
		</comp>
		<comp name="--.HNZ" depth="0.0">
			<acc value="0.0573887810639097" flag="0"/>
			<vel value="0.00877434845696685" flag="0"/>
			<psa03 value="0.0270472787286413" flag="0"/>
			<psa10 value="0.00118611416017947" flag="0"/>
			<psa30 value="0.000112088909715165" flag="0"/>
		</comp>
	</station>
	<station code="MNVG" name="MNVG" netid="KO" source="Bogazici University Kandilli Observatory And Earthquake Research Institute (KOERI)" insttype="" lat="36.7935" lon="31.4161">
		<comp name="--.HNE" depth="0.0">
			<acc value="0.185503430173749" flag="0"/>
			<vel value="0.0534066559585895" flag="0"/>
			<psa03 value="0.307799973570978" flag="0"/>
			<psa10 value="0.0140380171372403" flag="0"/>
			<psa30 value="0.000939902576432886" flag="0"/>
		</comp>
		<comp name="--.HNN" depth="0.0">
			<acc value="0.201375015945025" flag="0"/>
			<vel value="0.053655957488366" flag="0"/>
			<psa03 value="0.38547957779686" flag="0"/>
			<psa10 value="0.0221433587638441" flag="0"/>
			<psa30 value="0.00203923300584527" flag="0"/>
		</comp>
		<comp name="--.HNZ" depth="0.0">
			<acc value="0.11593917282647" flag="0"/>
			<vel value="0.0344754532934931" flag="0"/>
			<psa03 value="0.363187392715669" flag="0"/>
			<psa10 value="0.0113379076432378" flag="0"/>
			<psa30 value="0.000812196564453007" flag="0"/>
		</comp>
	</station>
	<station code="SEYD" name="SEYD" netid="KO" source="Bogazici University Kandilli Observatory And Earthquake Research Institute (KOERI)" insttype="" lat="37.4056" lon="31.8379">
		<comp name="--.HNE" depth="0.0">
			<acc value="0.0217569331116372" flag="0"/>
			<vel value="0.00755904005795832" flag="0"/>
			<psa03 value="0.0316975399106223" flag="0"/>
			<psa10 value="0.00272235807723698" flag="0"/>
			<psa30 value="0.000154142815371691" flag="0"/>
		</comp>
		<comp name="--.HNN" depth="0.0">
			<acc value="0.0461933880463119" flag="0"/>
			<vel value="0.0144593765312226" flag="0"/>
			<psa03 value="0.0828146214789065" flag="0"/>
			<psa10 value="0.00313048987959087" flag="0"/>
			<psa30 value="0.000378959140641566" flag="0"/>
		</comp>
		<comp name="--.HNZ" depth="0.0">
			<acc value="0.066880070175918" flag="0"/>
			<vel value="0.0207246757488134" flag="0"/>
			<psa03 value="0.100115996776776" flag="0"/>
			<psa10 value="0.00402750992776672" flag="0"/>
			<psa30 value="0.000525492675894127" flag="0"/>
		</comp>
	</station>
</stationlist>
