<?xml version="1.0" encoding="UTF-8" standalone="yes"?>
<!DOCTYPE earthquake SYSTEM "stationlist.dtd">
<stationlist created="" xmlns="ch.ethz.sed.shakemap.usgs.xml">
  <station code="HDMB" name="HDMB" netid="KO" insttype="CMG-3T" commtype="DIG" lat="36.9638" lon="32.4857">
    <comp name="--.HHE">
      <acc value="0.0346699959" flag="0"/>
      <vel value="0.0173418358" flag="0"/>
      <psa03 value="0.0668626652" flag="0"/>
      <psa10 value="0.0184385726" flag="0"/>
      <psa30 value="0.0009477063" flag="0"/>
    </comp>
    <comp name="--.HHN">
      <acc value="0.0355397601" flag="0"/>
      <vel value="0.0128424613" flag="0"/>
      <psa03 value="0.0475985822" flag="0"/>
      <psa10 value="0.0102615089" flag="0"/>
      <psa30 value="0.0007190933" flag="0"/>
    </comp>
    <comp name="--.HHZ">
      <acc value="0.0216443735" flag="0"/>
      <vel value="0.0080081216" flag="0"/>
      <psa03 value="0.0493122040" flag="0"/>
      <psa10 value="0.0049524138" flag="0"/>
      <psa30 value="0.0003030513" flag="0"/>
    </comp>
  </station>
  <station code="LMOS" name="LMOS" netid="KO" insttype="CMG-6T" commtype="DIG" lat="36.6021" lon="32.6962">
    <comp name="--.HHE">
      <acc value="0.0284253147" flag="0"/>
      <vel value="0.0135740913" flag="0"/>
      <psa03 value="0.0981803106" flag="0"/>
      <psa10 value="0.0057119939" flag="0"/>
      <psa30 value="0.0004434416" flag="0"/>
    </comp>
    <comp name="--.HHN">
      <acc value="0.0397579419" flag="0"/>
      <vel value="0.0187226685" flag="0"/>
      <psa03 value="0.1104950774" flag="0"/>
      <psa10 value="0.0082373115" flag="0"/>
      <psa30 value="0.0009004054" flag="0"/>
    </comp>
    <comp name="--.HHZ">
      <acc value="0.0317391807" flag="0"/>
      <vel value="0.0091643264" flag="0"/>
      <psa03 value="0.0418662073" flag="0"/>
      <psa10 value="0.0044600330" flag="0"/>
      <psa30 value="0.0002383280" flag="0"/>
    </comp>
  </station>
  <station code="SEYD" name="SEYD" netid="KO" insttype="CMG-5T" commtype="DIG" lat="37.4056" lon="31.8379">
    <comp name="--.HNZ">
      <acc value="0.0678622607" flag="0"/>
      <vel value="0.0205703949" flag="0"/>
      <psa03 value="0.0979548902" flag="0"/>
      <psa10 value="0.0039948238" flag="0"/>
      <psa30 value="0.0005139264" flag="0"/>
    </comp>
    <comp name="--.HNE">
      <acc value="0.0219594616" flag="0"/>
      <vel value="0.0074978680" flag="0"/>
      <psa03 value="0.0312511598" flag="0"/>
      <psa10 value="0.0027131130" flag="0"/>
      <psa30 value="0.0001509987" flag="0"/>
    </comp>
    <comp name="--.HNN">
      <acc value="0.0466622943" flag="0"/>
      <vel value="0.0142938809" flag="0"/>
      <psa03 value="0.0816796052" flag="0"/>
      <psa10 value="0.0031183783" flag="0"/>
      <psa30 value="0.0003674520" flag="0"/>
    </comp>
  </station>
  <station code="SUTC" name="SUTC" netid="KO" insttype="CMG-3T" commtype="DIG" lat="37.4765" lon="30.9997">
    <comp name="--.HHN">
      <acc value="0.0195417918" flag="0"/>
      <vel value="0.0107980464" flag="0"/>
      <psa03 value="0.0533922976" flag="0"/>
      <psa10 value="0.0094559877" flag="0"/>
      <psa30 value="0.0006667638" flag="0"/>
    </comp>
    <comp name="--.HHE">
      <acc value="0.0267898011" flag="0"/>
      <vel value="0.0094285729" flag="0"/>
      <psa03 value="0.0710443609" flag="0"/>
      <psa10 value="0.0090230996" flag="0"/>
      <psa30 value="0.0005779949" flag="0"/>
    </comp>
    <comp name="--.HHZ">
      <acc value="0.0208728246" flag="0"/>
      <vel value="0.0082519806" flag="0"/>
      <psa03 value="0.0562265339" flag="0"/>
      <psa10 value="0.0083959962" flag="0"/>
      <psa30 value="0.0003871050" flag="0"/>
    </comp>
  </station>
</stationlist>
