<?xml version="1.0" encoding="UTF-8" standalone="yes"?>
<!DOCTYPE earthquake SYSTEM "stationlist.dtd">
<stationlist created="" xmlns="ch.ethz.sed.shakemap.usgs.xml">
  <station code="ALAN" name="ALAN" netid="KO" insttype="CMG-5T" commtype="DIG" lat="36.557" lon="32.0327">
    <comp name="--.HNN">
      <acc value="0.2353539412" flag="0"/>
      <vel value="0.0639142628" flag="0"/>
      <psa03 value="0.4690482551" flag="0"/>
      <psa10 value="0.0176061324" flag="0"/>
      <psa30 value="0.0020443382" flag="0"/>
    </comp>
    <comp name="--.HNZ">
      <acc value="0.1523780148" flag="0"/>
      <vel value="0.0336434926" flag="0"/>
      <psa03 value="0.1511551105" flag="0"/>
      <psa10 value="0.0078653758" flag="0"/>
      <psa30 value="0.0008111141" flag="0"/>
    </comp>
  </station>
  <station code="ANTB" name="ANTB" netid="KO" insttype="CMG-3T" commtype="DIG" lat="36.8998" lon="30.6538">
    <comp name="--.HHZ">
      <acc value="0.0241314629" flag="0"/>
      <vel value="0.0062698030" flag="0"/>
      <psa03 value="0.0305774242" flag="0"/>
      <psa10 value="0.0046708786" flag="0"/>
      <psa30 value="0.0002975267" flag="0"/>
    </comp>
    <comp name="--.HHE">
      <acc value="0.0266272560" flag="0"/>
      <vel value="0.0089575221" flag="0"/>
      <psa03 value="0.0341238576" flag="0"/>
      <psa10 value="0.0062420633" flag="0"/>
      <psa30 value="0.0003875985" flag="0"/>
    </comp>
    <comp name="--.HHN">
      <acc value="0.0224316815" flag="0"/>
      <vel value="0.0080708005" flag="0"/>
      <psa03 value="0.0225907812" flag="0"/>
      <psa10 value="0.0045726854" flag="0"/>
      <psa30 value="0.0002366392" flag="0"/>
    </comp>
  </station>
  <station code="HDMB" name="HDMB" netid="KO" insttype="CMG-3T" commtype="DIG" lat="36.9638" lon="32.4857">
    <comp name="--.HHN">
      <acc value="0.0355397607" flag="0"/>
      <vel value="0.0128424615" flag="0"/>
      <psa03 value="0.0475985822" flag="0"/>
      <psa10 value="0.0102615089" flag="0"/>
      <psa30 value="0.0007191853" flag="0"/>
    </comp>
    <comp name="--.HHE">
      <acc value="0.0346699962" flag="0"/>
      <vel value="0.0173418355" flag="0"/>
      <psa03 value="0.0668626652" flag="0"/>
      <psa10 value="0.0184385726" flag="0"/>
      <psa30 value="0.0009475748" flag="0"/>
    </comp>
    <comp name="--.HHZ">
      <acc value="0.0216443730" flag="0"/>
      <vel value="0.0080081215" flag="0"/>
      <psa03 value="0.0493122040" flag="0"/>
      <psa10 value="0.0049524139" flag="0"/>
      <psa30 value="0.0003031184" flag="0"/>
    </comp>
  </station>
  <station code="KEMT" name="KEMT" netid="KO" insttype="CMG-5T" commtype="DIG" lat="36.6037" lon="30.5558">
    <comp name="--.HNN">
      <acc value="0.0816040749" flag="0"/>
      <vel value="0.0202945611" flag="0"/>
      <psa03 value="0.1170710899" flag="0"/>
      <psa10 value="0.0064776660" flag="0"/>
      <psa30 value="0.0007183532" flag="0"/>
    </comp>
    <comp name="--.HNE">
      <acc value="0.0905160135" flag="0"/>
      <vel value="0.0255943425" flag="0"/>
      <psa03 value="0.1159193976" flag="0"/>
      <psa10 value="0.0050164627" flag="0"/>
      <psa30 value="0.0006149259" flag="0"/>
    </comp>
    <comp name="--.HNZ">
      <acc value="0.0587660390" flag="0"/>
      <vel value="0.0082767736" flag="0"/>
      <psa03 value="0.0262772871" flag="0"/>
      <psa10 value="0.0013368694" flag="0"/>
      <psa30 value="0.0003681009" flag="0"/>
    </comp>
  </station>
  <station code="LMOS" name="LMOS" netid="KO" insttype="CMG-6T" commtype="DIG" lat="36.6021" lon="32.6962">
    <comp name="--.HHZ">
      <acc value="0.0317391799" flag="0"/>
      <vel value="0.0091643265" flag="0"/>
      <psa03 value="0.0418662073" flag="0"/>
      <psa10 value="0.0044600330" flag="0"/>
      <psa30 value="0.0002383704" flag="0"/>
    </comp>
    <comp name="--.HHN">
      <acc value="0.0397579409" flag="0"/>
      <vel value="0.0187226683" flag="0"/>
      <psa03 value="0.1104950774" flag="0"/>
      <psa10 value="0.0082373115" flag="0"/>
      <psa30 value="0.0009004975" flag="0"/>
    </comp>
    <comp name="--.HHE">
      <acc value="0.0284253150" flag="0"/>
      <vel value="0.0135740915" flag="0"/>
      <psa03 value="0.0981803106" flag="0"/>
      <psa10 value="0.0057119939" flag="0"/>
      <psa30 value="0.0004434314" flag="0"/>
    </comp>
  </station>
  <station code="SEYD" name="SEYD" netid="KO" insttype="CMG-5T" commtype="DIG" lat="37.4056" lon="31.8379">
    <comp name="--.HNZ">
      <acc value="0.0678622631" flag="0"/>
      <vel value="0.0205703965" flag="0"/>
      <psa03 value="0.0979548902" flag="0"/>
      <psa10 value="0.0039948302" flag="0"/>
      <psa30 value="0.0005140099" flag="0"/>
    </comp>
    <comp name="--.HNE">
      <acc value="0.0219594598" flag="0"/>
      <vel value="0.0074978672" flag="0"/>
      <psa03 value="0.0312511598" flag="0"/>
      <psa10 value="0.0027131134" flag="0"/>
      <psa30 value="0.0001503798" flag="0"/>
    </comp>
    <comp name="--.HNN">
      <acc value="0.0466622875" flag="0"/>
      <vel value="0.0142938802" flag="0"/>
      <psa03 value="0.0816796052" flag="0"/>
      <psa10 value="0.0031183782" flag="0"/>
      <psa30 value="0.0003682594" flag="0"/>
    </comp>
  </station>
  <station code="SUTC" name="SUTC" netid="KO" insttype="CMG-3T" commtype="DIG" lat="37.4765" lon="30.9997">
    <comp name="--.HHE">
      <acc value="0.0267898011" flag="0"/>
      <vel value="0.0094285728" flag="0"/>
      <psa03 value="0.0710443609" flag="0"/>
      <psa10 value="0.0090230996" flag="0"/>
      <psa30 value="0.0005779908" flag="0"/>
    </comp>
    <comp name="--.HHN">
      <acc value="0.0195417920" flag="0"/>
      <vel value="0.0107980459" flag="0"/>
      <psa03 value="0.0533922976" flag="0"/>
      <psa10 value="0.0094559877" flag="0"/>
      <psa30 value="0.0006667504" flag="0"/>
    </comp>
    <comp name="--.HHZ">
      <acc value="0.0208728245" flag="0"/>
      <vel value="0.0082519805" flag="0"/>
      <psa03 value="0.0562265339" flag="0"/>
      <psa10 value="0.0083959962" flag="0"/>
      <psa30 value="0.0003871756" flag="0"/>
    </comp>
  </station>
</stationlist>
