<?xml version="1.0" encoding="UTF-8" standalone="yes"?>
<!DOCTYPE earthquake SYSTEM "stationlist.dtd">
<stationlist created="" xmlns="ch.ethz.sed.shakemap.usgs.xml">
  <station code="BNN" name="BNN" netid="KO" insttype="CMG-3T" lat="38.8521" lon="35.8472">
    <comp name="--.HHE">
      <acc value="0.0069197778" flag="0"/>
      <vel value="0.0034841790" flag="0"/>
      <psa03 value="0.0154049134" flag="0"/>
      <psa10 value="0.0049409269" flag="0"/>
      <psa30 value="0.0002273081" flag="0"/>
    </comp>
    <comp name="--.HHZ">
      <acc value="0.0027683975" flag="0"/>
      <vel value="0.0019707493" flag="0"/>
      <psa03 value="0.0064745608" flag="0"/>
      <psa10 value="0.0038777946" flag="0"/>
      <psa30 value="0.0002360609" flag="0"/>
    </comp>
    <comp name="--.HHN">
      <acc value="0.0048747242" flag="0"/>
      <vel value="0.0032384864" flag="0"/>
      <psa03 value="0.0123198018" flag="0"/>
      <psa10 value="0.0038802441" flag="0"/>
      <psa30 value="0.0002623093" flag="0"/>
    </comp>
  </station>
  <station code="CEYT" name="CEYT" netid="KO" insttype="CMG-3ESP" lat="37.0105" lon="35.7478">
    <comp name="--.HHE">
      <acc value="0.0019974094" flag="0"/>
      <vel value="0.0024086663" flag="0"/>
      <psa03 value="0.0052175071" flag="0"/>
      <psa10 value="0.0036572381" flag="0"/>
      <psa30 value="0.0003486744" flag="0"/>
    </comp>
    <comp name="--.HHN">
      <acc value="0.0016353898" flag="0"/>
      <vel value="0.0016310928" flag="0"/>
      <psa03 value="0.0029657206" flag="0"/>
      <psa10 value="0.0019407920" flag="0"/>
      <psa30 value="0.0002439260" flag="0"/>
    </comp>
    <comp name="--.HHZ">
      <acc value="0.0011965489" flag="0"/>
      <vel value="0.0014717375" flag="0"/>
      <psa03 value="0.0024310717" flag="0"/>
      <psa10 value="0.0022190427" flag="0"/>
      <psa30 value="0.0002331268" flag="0"/>
    </comp>
  </station>
  <station code="DARE" name="DARE" netid="KO" insttype="CMG-3ESP" lat="38.5712" lon="37.4832">
    <comp name="--.HHE">
      <acc value="0.0067557537" flag="0"/>
      <vel value="0.0030298907" flag="0"/>
      <psa03 value="0.0122846549" flag="0"/>
      <psa10 value="0.0030987134" flag="0"/>
      <psa30 value="0.0001680742" flag="0"/>
    </comp>
    <comp name="--.HHN">
      <acc value="0.0058388095" flag="0"/>
      <vel value="0.0025831246" flag="0"/>
      <psa03 value="0.0126947414" flag="0"/>
      <psa10 value="0.0031729774" flag="0"/>
      <psa30 value="0.0001354259" flag="0"/>
    </comp>
    <comp name="--.HHZ">
      <acc value="0.0047503863" flag="0"/>
      <vel value="0.0025767879" flag="0"/>
      <psa03 value="0.0133836183" flag="0"/>
      <psa10 value="0.0027712454" flag="0"/>
      <psa30 value="0.0001595582" flag="0"/>
    </comp>
  </station>
  <station code="GAZ" name="GAZ" netid="KO" insttype="CMG-3T" lat="37.1721" lon="37.2096">
    <comp name="--.HHE">
      <acc value="0.0145168708" flag="0"/>
      <vel value="0.0085352216" flag="0"/>
      <psa03 value="0.0276850942" flag="0"/>
      <psa10 value="0.0041603023" flag="0"/>
      <psa30 value="0.0006593493" flag="0"/>
    </comp>
    <comp name="--.HHN">
      <acc value="0.0165449561" flag="0"/>
      <vel value="0.0115205943" flag="0"/>
      <psa03 value="0.0545172652" flag="0"/>
      <psa10 value="0.0094756425" flag="0"/>
      <psa30 value="0.0004518986" flag="0"/>
    </comp>
  </station>
  <station code="SARI" name="SARI" netid="KO" insttype="CMG-3T" lat="38.4072" lon="36.4181">
    <comp name="--.HHE">
      <acc value="0.0842731678" flag="0"/>
      <vel value="0.0208972628" flag="0"/>
      <psa03 value="0.0958165665" flag="0"/>
      <psa10 value="0.0128155072" flag="0"/>
      <psa30 value="0.0009261768" flag="0"/>
    </comp>
    <comp name="--.HHN">
      <acc value="0.0934182851" flag="0"/>
      <vel value="0.0228149921" flag="0"/>
      <psa03 value="0.1465089042" flag="0"/>
      <psa10 value="0.0092246967" flag="0"/>
      <psa30 value="0.0007853716" flag="0"/>
    </comp>
    <comp name="--.HHZ">
      <acc value="0.0418952204" flag="0"/>
      <vel value="0.0118545870" flag="0"/>
      <psa03 value="0.0734833988" flag="0"/>
      <psa10 value="0.0082699047" flag="0"/>
      <psa30 value="0.0003899580" flag="0"/>
    </comp>
  </station>
  <station code="ANDN" name="ANDN" netid="TU" insttype="T" lat="37.58" lon="36.3452">
    <comp name="--.HHZ">
      <acc value="0.0581451074" flag="0"/>
      <vel value="0.0278499115" flag="0"/>
      <psa03 value="0.0818136652" flag="0"/>
      <psa10 value="0.0421781252" flag="0"/>
      <psa30 value="0.0018217389" flag="0"/>
    </comp>
    <comp name="--.HHE">
      <acc value="0.0878414192" flag="0"/>
      <vel value="0.0336190757" flag="0"/>
      <psa03 value="0.1417433411" flag="0"/>
      <psa10 value="0.0329940166" flag="0"/>
      <psa30 value="0.0028305821" flag="0"/>
    </comp>
    <comp name="--.HHN">
      <acc value="0.1296600668" flag="0"/>
      <vel value="0.0298725703" flag="0"/>
      <psa03 value="0.1544026898" flag="0"/>
      <psa10 value="0.0394067821" flag="0"/>
      <psa30 value="0.0024460917" flag="0"/>
    </comp>
  </station>
</stationlist>
