<stationlist created="1763997395">
	<station code="KTHA" name="KTHA" netid="GE" source="GEOFON" insttype="" lat="36.2566" lon="23.0621">
		<comp name="--.HNE" depth="0.0">
			<acc value="0.144149358" flag="0"/>
			<vel value="1.454325" flag="0"/>
			<psa03 value="0.193107363764461" flag="0"/>
			<psa10 value="0.300838096282002" flag="0"/>
			<psa30 value="0.152556159640123" flag="0"/>
		</comp>
		<comp name="--.HNN" depth="0.0">
			<acc value="0.08506341" flag="0"/>
			<vel value="0.949405" flag="0"/>
			<psa03 value="0.181608616663565" flag="0"/>
			<psa10 value="0.233159692285005" flag="0"/>
			<psa30 value="0.098734417032805" flag="0"/>
		</comp>
		<comp name="--.HNZ" depth="0.0">
			<acc value="0.077511126" flag="0"/>
			<vel value="0.94664" flag="0"/>
			<psa03 value="0.0963299708491391" flag="0"/>
			<psa10 value="0.136528606385325" flag="0"/>
			<psa30 value="0.124079087393791" flag="0"/>
		</comp>
	</station>
	<station code="LTRS" name="LTRS" netid="HA" source="Hellenic Seismological Network, University of Athens, Seismological Laboratory (HA)" insttype="" lat="37.97528" lon="22.9765">
		<comp name="--.HNE" depth="0.0">
			<acc value="0.963075228" flag="0"/>
			<vel value="2.410424" flag="0"/>
			<psa03 value="1.24759168934389" flag="0"/>
			<psa10 value="3.47039972648988" flag="0"/>
			<psa30 value="0.427399033876908" flag="0"/>
		</comp>
		<comp name="--.HNN" depth="0.0">
			<acc value="0.506676534" flag="0"/>
			<vel value="1.43626" flag="0"/>
			<psa03 value="0.833905246951349" flag="0"/>
			<psa10 value="1.71317730172536" flag="0"/>
			<psa30 value="0.51258909012223" flag="0"/>
		</comp>
		<comp name="--.HNZ" depth="0.0">
			<acc value="0.418659714" flag="0"/>
			<vel value="1.464975" flag="0"/>
			<psa03 value="0.688269364408875" flag="0"/>
			<psa10 value="1.01218012179979" flag="0"/>
			<psa30 value="0.235846461792433" flag="0"/>
		</comp>
	</station>
	<station code="XLKS" name="XLKS" netid="HA" source="Hellenic Seismological Network, University of Athens, Seismological Laboratory (HA)" insttype="" lat="38.0772" lon="22.6361">
		<comp name="--.HNE" depth="0.0">
			<acc value="0.596361462" flag="0"/>
			<vel value="1.552348" flag="0"/>
			<psa03 value="0.712877578048924" flag="0"/>
			<psa10 value="1.46704729116378" flag="0"/>
			<psa30 value="0.619017377005113" flag="0"/>
		</comp>
		<comp name="--.HNN" depth="0.0">
			<acc value="0.546054552" flag="0"/>
			<vel value="1.687742" flag="0"/>
			<psa03 value="0.688090395582401" flag="0"/>
			<psa10 value="1.74559705721889" flag="0"/>
			<psa30 value="1.00707548344671" flag="0"/>
		</comp>
		<comp name="--.HNZ" depth="0.0">
			<acc value="0.190871886" flag="0"/>
			<vel value="1.241418" flag="0"/>
			<psa03 value="0.363530428773458" flag="0"/>
			<psa10 value="0.544467464915683" flag="0"/>
			<psa30 value="0.262705655847447" flag="0"/>
		</comp>
	</station>
	<station code="ABEA" name="ABEA" netid="HC" source="Seismological Network of Crete (HC)" insttype="" lat="35.5163" lon="24.0113">
		<comp name="--.HNE" depth="0.0">
			<acc value="0.769455054" flag="0"/>
			<vel value="1.940225" flag="0"/>
			<psa03 value="1.24454921929385" flag="0"/>
			<psa10 value="1.8297249334791" flag="0"/>
			<psa30 value="1.10941433264468" flag="0"/>
		</comp>
		<comp name="--.HNN" depth="0.0">
			<acc value="0.767690454" flag="0"/>
			<vel value="1.614977" flag="0"/>
			<psa03 value="1.44897636133273" flag="0"/>
			<psa10 value="2.26327423107775" flag="0"/>
			<psa30 value="0.662788677739768" flag="0"/>
		</comp>
		<comp name="--.HNZ" depth="0.0">
			<acc value="0.3936945" flag="0"/>
			<vel value="1.786241" flag="0"/>
			<psa03 value="0.658560539214342" flag="0"/>
			<psa10 value="1.60986173015691" flag="0"/>
			<psa30 value="0.229293070789054" flag="0"/>
		</comp>
	</station>
	<station code="ATEI" name="ATEI" netid="HC" source="Seismological Network of Crete (HC)" insttype="" lat="35.5193" lon="24.0432">
		<comp name="--.HNE" depth="0.0">
			<acc value="0.78284592" flag="0"/>
			<vel value="1.799124" flag="0"/>
			<psa03 value="1.70687044028045" flag="0"/>
			<psa10 value="1.34161251490946" flag="0"/>
			<psa30 value="0.77227285733468" flag="0"/>
		</comp>
		<comp name="--.HNN" depth="0.0">
			<acc value="0.678530418" flag="0"/>
			<vel value="1.511001" flag="0"/>
			<psa03 value="1.34938020940046" flag="0"/>
			<psa10 value="1.50582133484125" flag="0"/>
			<psa30 value="0.584525609923088" flag="0"/>
		</comp>
		<comp name="--.HNZ" depth="0.0">
			<acc value="0.405266196" flag="0"/>
			<vel value="1.38253" flag="0"/>
			<psa03 value="0.640439945533942" flag="0"/>
			<psa10 value="0.674235076458921" flag="0"/>
			<psa30 value="0.21633483290827" flag="0"/>
		</comp>
	</station>
	<station code="DEYA" name="DEYA" netid="HC" source="Seismological Network of Crete (HC)" insttype="" lat="35.4825" lon="24.014">
		<comp name="--.HNE" depth="0.0">
			<acc value="0.788133498" flag="0"/>
			<vel value="2.313428" flag="0"/>
			<psa03 value="1.13309638260773" flag="0"/>
			<psa10 value="3.74841392833177" flag="0"/>
			<psa30 value="0.719047528341583" flag="0"/>
		</comp>
		<comp name="--.HNN" depth="0.0">
			<acc value="0.764395854" flag="0"/>
			<vel value="1.434072" flag="0"/>
			<psa03 value="1.02101715502896" flag="0"/>
			<psa10 value="1.51470445254324" flag="0"/>
			<psa30 value="0.254074436768716" flag="0"/>
		</comp>
		<comp name="--.HNZ" depth="0.0">
			<acc value="0.270883644" flag="0"/>
			<vel value="0.75304" flag="0"/>
			<psa03 value="0.475654398558847" flag="0"/>
			<psa10 value="0.67222973075829" flag="0"/>
			<psa30 value="0.116076496318047" flag="0"/>
		</comp>
	</station>
	<station code="LENT" name="LENT" netid="HC" source="Seismological Network of Crete (HC)" insttype="" lat="35.5074" lon="24.0402">
		<comp name="--.HNE" depth="0.0">
			<acc value="0.657831864" flag="0"/>
			<vel value="2.042728" flag="0"/>
			<psa03 value="1.15998644878531" flag="0"/>
			<psa10 value="2.04542442705339" flag="0"/>
			<psa30 value="0.823363983072084" flag="0"/>
		</comp>
		<comp name="--.HNN" depth="0.0">
			<acc value="0.78641439" flag="0"/>
			<vel value="1.421878" flag="0"/>
			<psa03 value="1.13788379871589" flag="0"/>
			<psa10 value="2.74018409595431" flag="0"/>
			<psa30 value="0.586512163896939" flag="0"/>
		</comp>
		<comp name="--.HNZ" depth="0.0">
			<acc value="0.463407522" flag="0"/>
			<vel value="1.55335" flag="0"/>
			<psa03 value="0.858200265145071" flag="0"/>
			<psa10 value="1.34826478618946" flag="0"/>
			<psa30 value="0.252916955883502" flag="0"/>
		</comp>
	</station>
	<station code="MULT" name="MULT" netid="HC" source="Seismological Network of Crete (HC)" insttype="" lat="35.5091" lon="24.0118">
		<comp name="--.HNE" depth="0.0">
			<acc value="0.456449082" flag="0"/>
			<vel value="1.187517" flag="0"/>
			<psa03 value="0.659455383346708" flag="0"/>
			<psa10 value="0.978717425469981" flag="0"/>
			<psa30 value="0.623433432798337" flag="0"/>
		</comp>
		<comp name="--.HNN" depth="0.0">
			<acc value="0.321677604" flag="0"/>
			<vel value="0.868449" flag="0"/>
			<psa03 value="0.623572133638853" flag="0"/>
			<psa10 value="0.772662114532259" flag="0"/>
			<psa30 value="0.253651622916174" flag="0"/>
		</comp>
		<comp name="--.HNZ" depth="0.0">
			<acc value="0.218007252" flag="0"/>
			<vel value="0.837565" flag="0"/>
			<psa03 value="0.315745752105144" flag="0"/>
			<psa10 value="0.659992289826127" flag="0"/>
			<psa30 value="0.160956061510637" flag="0"/>
		</comp>
	</station>
	<station code="NERO" name="NERO" netid="HC" source="Seismological Network of Crete (HC)" insttype="" lat="35.474" lon="24.0423">
		<comp name="--.HNE" depth="0.0">
			<acc value="0.627566526" flag="0"/>
			<vel value="2.414561" flag="0"/>
			<psa03 value="0.996632652422003" flag="0"/>
			<psa10 value="1.51549773186658" flag="0"/>
			<psa30 value="0.450849319209677" flag="0"/>
		</comp>
		<comp name="--.HNN" depth="0.0">
			<acc value="0.573695634" flag="0"/>
			<vel value="1.445175" flag="0"/>
			<psa03 value="0.947953131621324" flag="0"/>
			<psa10 value="1.62302533476607" flag="0"/>
			<psa30 value="0.264654178945673" flag="0"/>
		</comp>
		<comp name="--.HNZ" depth="0.0">
			<acc value="0.433917996" flag="0"/>
			<vel value="1.570188" flag="0"/>
			<psa03 value="0.58120126397135" flag="0"/>
			<psa10 value="0.839853275899182" flag="0"/>
			<psa30 value="0.194833070673728" flag="0"/>
		</comp>
	</station>
	<station code="POLY" name="POLY" netid="HC" source="Seismological Network of Crete (HC)" insttype="" lat="35.5226" lon="24.0602">
		<comp name="--.HNE" depth="0.0">
			<acc value="0.477827262" flag="0"/>
			<vel value="1.660212" flag="0"/>
			<psa03 value="0.86133221960835" flag="0"/>
			<psa10 value="1.30529481837534" flag="0"/>
			<psa30 value="0.572838945554395" flag="0"/>
		</comp>
		<comp name="--.HNN" depth="0.0">
			<acc value="0.522691962" flag="0"/>
			<vel value="1.722967" flag="0"/>
			<psa03 value="0.995603581669783" flag="0"/>
			<psa10 value="1.09899387272329" flag="0"/>
			<psa30 value="0.659880434309581" flag="0"/>
		</comp>
		<comp name="--.HNZ" depth="0.0">
			<acc value="0.337715064" flag="0"/>
			<vel value="1.572708" flag="0"/>
			<psa03 value="0.693414718169976" flag="0"/>
			<psa10 value="0.577801303690428" flag="0"/>
			<psa30 value="0.199479996253101" flag="0"/>
		</comp>
	</station>
	<station code="ARS1" name="ARS1" netid="HI" source="ITSAK Strong Motion Network" insttype="" lat="37.6349" lon="22.7293">
		<comp name="--.HNE" depth="0.0">
			<acc value="0.216405852" flag="0"/>
			<vel value="1.717692" flag="0"/>
			<psa03 value="0.47713089137725" flag="0"/>
			<psa10 value="0.609472074645171" flag="0"/>
			<psa30 value="0.287918784120976" flag="0"/>
		</comp>
		<comp name="--.HNN" depth="0.0">
			<acc value="0.404325552" flag="0"/>
			<vel value="0.834256" flag="0"/>
			<psa03 value="0.715338399412929" flag="0"/>
			<psa10 value="0.968678616571039" flag="0"/>
			<psa30 value="0.289976925625416" flag="0"/>
		</comp>
		<comp name="--.HNZ" depth="0.0">
			<acc value="0.123144906" flag="0"/>
			<vel value="1.247082" flag="0"/>
			<psa03 value="0.43699713204066" flag="0"/>
			<psa10 value="0.197526551512148" flag="0"/>
			<psa30 value="0.215901728348206" flag="0"/>
		</comp>
	</station>
	<station code="ATH5" name="ATH5" netid="HI" source="ITSAK Strong Motion Network" insttype="" lat="37.975421" lon="23.737098">
		<comp name="--.HNE" depth="0.0">
			<acc value="0.395570076" flag="0"/>
			<vel value="1.303761" flag="0"/>
			<psa03 value="1.21850925504201" flag="0"/>
			<psa10 value="0.482378257369441" flag="0"/>
			<psa30 value="0.215362584758455" flag="0"/>
		</comp>
		<comp name="--.HNN" depth="0.0">
			<acc value="0.374090712" flag="0"/>
			<vel value="1.338889" flag="0"/>
			<psa03 value="0.979764840526915" flag="0"/>
			<psa10 value="0.588681713495859" flag="0"/>
			<psa30 value="0.230251896276884" flag="0"/>
		</comp>
		<comp name="--.HNZ" depth="0.0">
			<acc value="0.24097194" flag="0"/>
			<vel value="1.359924" flag="0"/>
			<psa03 value="0.590641869567805" flag="0"/>
			<psa10 value="0.575659046837545" flag="0"/>
			<psa30 value="0.270122571438558" flag="0"/>
		</comp>
	</station>
	<station code="CH01" name="CH01" netid="HI" source="ITSAK Strong Motion Network" insttype="" lat="35.517" lon="24.0208">
		<comp name="--.HNE" depth="0.0">
			<acc value="0.498702378" flag="0"/>
			<vel value="1.303709" flag="0"/>
			<psa03 value="1.01502169934211" flag="0"/>
			<psa10 value="1.05013672536233" flag="0"/>
			<psa30 value="0.621062095847568" flag="0"/>
		</comp>
		<comp name="--.HNN" depth="0.0">
			<acc value="0.625576302" flag="0"/>
			<vel value="0.953397" flag="0"/>
			<psa03 value="1.28481720525029" flag="0"/>
			<psa10 value="1.20701274505145" flag="0"/>
			<psa30 value="0.370423413125069" flag="0"/>
		</comp>
		<comp name="--.HNZ" depth="0.0">
			<acc value="0.218589468" flag="0"/>
			<vel value="1.131355" flag="0"/>
			<psa03 value="0.398876772001893" flag="0"/>
			<psa10 value="0.793400127299828" flag="0"/>
			<psa30 value="0.176156778787129" flag="0"/>
		</comp>
	</station>
	<station code="KLV1" name="KLV1" netid="HI" source="ITSAK Strong Motion Network" insttype="" lat="38.03256" lon="22.10797">
		<comp name="--.HNE" depth="0.0">
			<acc value="0.078149442" flag="0"/>
			<vel value="0.671706" flag="0"/>
			<psa03 value="0.216597022239054" flag="0"/>
			<psa10 value="0.293207312943256" flag="0"/>
			<psa30 value="0.121736385455259" flag="0"/>
		</comp>
		<comp name="--.HNN" depth="0.0">
			<acc value="0.09272565" flag="0"/>
			<vel value="0.460447" flag="0"/>
			<psa03 value="0.241071009259248" flag="0"/>
			<psa10 value="0.19538832145786" flag="0"/>
			<psa30 value="0.142455159073982" flag="0"/>
		</comp>
		<comp name="--.HNZ" depth="0.0">
			<acc value="0.057953748" flag="0"/>
			<vel value="0.788204" flag="0"/>
			<psa03 value="0.0786120570283035" flag="0"/>
			<psa10 value="0.231029515827909" flag="0"/>
			<psa30 value="0.0910812625907496" flag="0"/>
		</comp>
	</station>
	<station code="LMN1" name="LMN1" netid="HI" source="ITSAK Strong Motion Network" insttype="" lat="39.875" lon="25.0588">
		<comp name="--.HNE" depth="0.0">
			<acc value="0.296138028" flag="0"/>
			<vel value="0.623612" flag="0"/>
			<psa03 value="0.968802999905438" flag="0"/>
			<psa10 value="0.277849103099468" flag="0"/>
			<psa30 value="0.199921154410357" flag="0"/>
		</comp>
		<comp name="--.HNN" depth="0.0">
			<acc value="0.228267432" flag="0"/>
			<vel value="0.676713" flag="0"/>
			<psa03 value="0.622990484952816" flag="0"/>
			<psa10 value="0.336410835075925" flag="0"/>
			<psa30 value="0.147409463612823" flag="0"/>
		</comp>
		<comp name="--.HNZ" depth="0.0">
			<acc value="0.094336536" flag="0"/>
			<vel value="0.384201" flag="0"/>
			<psa03 value="0.202995391427099" flag="0"/>
			<psa10 value="0.184161606973204" flag="0"/>
			<psa30 value="0.142807280240067" flag="0"/>
		</comp>
	</station>
	<station code="MYT1" name="MYT1" netid="HI" source="ITSAK Strong Motion Network" insttype="" lat="39.085" lon="26.5694">
		<comp name="--.HNE" depth="0.0">
			<acc value="1.890937404" flag="0"/>
			<vel value="2.185993" flag="0"/>
			<psa03 value="4.26339538424188" flag="0"/>
			<psa10 value="2.81500604065998" flag="0"/>
			<psa30 value="0.656430810179312" flag="0"/>
		</comp>
		<comp name="--.HNN" depth="0.0">
			<acc value="1.681273344" flag="0"/>
			<vel value="1.745139" flag="0"/>
			<psa03 value="4.04178723486158" flag="0"/>
			<psa10 value="3.40595886856378" flag="0"/>
			<psa30 value="0.477578313443433" flag="0"/>
		</comp>
		<comp name="--.HNZ" depth="0.0">
			<acc value="1.137693516" flag="0"/>
			<vel value="2.03476" flag="0"/>
			<psa03 value="2.93683370021674" flag="0"/>
			<psa10 value="2.6804706995795" flag="0"/>
			<psa30 value="0.480025712145452" flag="0"/>
		</comp>
	</station>
	<station code="NAX1" name="NAX1" netid="HI" source="ITSAK Strong Motion Network" insttype="" lat="37.101394" lon="25.374103">
		<comp name="--.HNE" depth="0.0">
			<acc value="3.092157744" flag="0"/>
			<vel value="3.120585" flag="0"/>
			<psa03 value="8.11659421820744" flag="0"/>
			<psa10 value="2.16357472464819" flag="0"/>
			<psa30 value="0.488356711017774" flag="0"/>
		</comp>
		<comp name="--.HNN" depth="0.0">
			<acc value="2.179358724" flag="0"/>
			<vel value="2.388241" flag="0"/>
			<psa03 value="4.05225691121025" flag="0"/>
			<psa10 value="1.38508985934663" flag="0"/>
			<psa30 value="0.568874786048016" flag="0"/>
		</comp>
		<comp name="--.HNZ" depth="0.0">
			<acc value="1.334778222" flag="0"/>
			<vel value="2.561998" flag="0"/>
			<psa03 value="3.39951285885629" flag="0"/>
			<psa10 value="1.50236231484759" flag="0"/>
			<psa30 value="0.496553483270242" flag="0"/>
		</comp>
	</station>
	<station code="NPS1" name="NPS1" netid="HI" source="ITSAK Strong Motion Network" insttype="" lat="36.51263" lon="23.06248">
		<comp name="--.HNE" depth="0.0">
			<acc value="0.209802576" flag="0"/>
			<vel value="1.39337" flag="0"/>
			<psa03 value="0.364156819666114" flag="0"/>
			<psa10 value="0.316067448570729" flag="0"/>
			<psa30 value="0.22975660004962" flag="0"/>
		</comp>
		<comp name="--.HNN" depth="0.0">
			<acc value="0.287034732" flag="0"/>
			<vel value="1.251607" flag="0"/>
			<psa03 value="0.402903570597537" flag="0"/>
			<psa10 value="0.761648820373171" flag="0"/>
			<psa30 value="0.369611342074947" flag="0"/>
		</comp>
		<comp name="--.HNZ" depth="0.0">
			<acc value="0.092679342" flag="0"/>
			<vel value="0.92761" flag="0"/>
			<psa03 value="0.162011530164762" flag="0"/>
			<psa10 value="0.223640340404902" flag="0"/>
			<psa30 value="0.145227833618116" flag="0"/>
		</comp>
	</station>
	<station code="SFL1" name="SFL1" netid="HI" source="ITSAK Strong Motion Network" insttype="" lat="41.189954" lon="26.304374">
		<comp name="--.HNE" depth="0.0">
			<acc value="0.498215226" flag="0"/>
			<vel value="0.741596" flag="0"/>
			<psa03 value="1.05922699948097" flag="0"/>
			<psa10 value="1.19531086833251" flag="0"/>
			<psa30 value="0.193423243743186" flag="0"/>
		</comp>
		<comp name="--.HNN" depth="0.0">
			<acc value="0.58257147" flag="0"/>
			<vel value="0.627627" flag="0"/>
			<psa03 value="1.03488723908063" flag="0"/>
			<psa10 value="0.864726810824478" flag="0"/>
			<psa30 value="0.14282920392131" flag="0"/>
		</comp>
		<comp name="--.HNZ" depth="0.0">
			<acc value="0.209694864" flag="0"/>
			<vel value="0.333363" flag="0"/>
			<psa03 value="0.587062493038344" flag="0"/>
			<psa10 value="0.246387725671697" flag="0"/>
			<psa30 value="0.158663470843517" flag="0"/>
		</comp>
	</station>
	<station code="SIT2" name="SIT2" netid="HI" source="ITSAK Strong Motion Network" insttype="" lat="35.2059" lon="26.107">
		<comp name="--.HNE" depth="0.0">
			<acc value="0.383294274" flag="0"/>
			<vel value="0.933037" flag="0"/>
			<psa03 value="0.89860247772137" flag="0"/>
			<psa10 value="0.403573808852679" flag="0"/>
			<psa30 value="0.180871265098496" flag="0"/>
		</comp>
		<comp name="--.HNN" depth="0.0">
			<acc value="0.400297572" flag="0"/>
			<vel value="0.604776" flag="0"/>
			<psa03 value="0.900123712746391" flag="0"/>
			<psa10 value="0.387655874004096" flag="0"/>
			<psa30 value="0.109210804712473" flag="0"/>
		</comp>
		<comp name="--.HNZ" depth="0.0">
			<acc value="0.142447386" flag="0"/>
			<vel value="0.671246" flag="0"/>
			<psa03 value="0.447690519422427" flag="0"/>
			<psa10 value="0.141203719554869" flag="0"/>
			<psa30 value="0.125714415045689" flag="0"/>
		</comp>
	</station>
	<station code="SKY1" name="SKY1" netid="HI" source="ITSAK Strong Motion Network" insttype="" lat="38.904483" lon="24.564572">
		<comp name="--.HNE" depth="0.0">
			<acc value="0.217416774" flag="0"/>
			<vel value="0.845291" flag="0"/>
			<psa03 value="0.597129489527455" flag="0"/>
			<psa10 value="0.347649629956369" flag="0"/>
			<psa30 value="0.196114040049209" flag="0"/>
		</comp>
		<comp name="--.HNN" depth="0.0">
			<acc value="0.233286852" flag="0"/>
			<vel value="1.438582" flag="0"/>
			<psa03 value="0.605988446437873" flag="0"/>
			<psa10 value="0.491736537305719" flag="0"/>
			<psa30 value="0.217378221166609" flag="0"/>
		</comp>
		<comp name="--.HNZ" depth="0.0">
			<acc value="0.152072922" flag="0"/>
			<vel value="0.715107" flag="0"/>
			<psa03 value="0.342009427390069" flag="0"/>
			<psa10 value="0.216122307426834" flag="0"/>
			<psa30 value="0.174403779131825" flag="0"/>
		</comp>
	</station>
	<station code="ANKY" name="ANKY" netid="HL" source="National Observatory of Athens Seismic Network" insttype="" lat="35.86704" lon="23.30117">
		<comp name="00.HNE" depth="0.0">
			<acc value="0.144138852" flag="0"/>
			<vel value="1.325734" flag="0"/>
			<psa03 value="0.279996729017145" flag="0"/>
			<psa10 value="0.306262193990335" flag="0"/>
			<psa30 value="0.26525461935849" flag="0"/>
		</comp>
		<comp name="00.HNN" depth="0.0">
			<acc value="0.172912236" flag="0"/>
			<vel value="1.357534" flag="0"/>
			<psa03 value="0.309481843178586" flag="0"/>
