<?xml version="1.0" encoding="UTF-8" standalone="yes"?>
<!DOCTYPE earthquake SYSTEM "stationlist.dtd">
<stationlist created="" xmlns="ch.ethz.sed.shakemap.usgs.xml">
  <station code="KARP" name="KARP" netid="GE" insttype="STS-2/N" lat="35.5471" lon="27.1611">
    <comp name="--.HHZ">
      <acc value="0.1015360976" flag="0"/>
      <vel value="0.2863424850" flag="0"/>
      <psa03 value="0.1533851425" flag="0"/>
      <psa10 value="0.1346601895" flag="0"/>
      <psa30 value="0.1022150993" flag="0"/>
    </comp>
    <comp name="--.HHE">
      <acc value="0.1187624389" flag="0"/>
      <vel value="0.7353801864" flag="0"/>
      <psa03 value="0.1753047895" flag="0"/>
      <psa10 value="0.3211160346" flag="0"/>
      <psa30 value="0.1433698080" flag="0"/>
    </comp>
    <comp name="--.HHN">
      <acc value="0.0901093937" flag="0"/>
      <vel value="0.3662215929" flag="0"/>
      <psa03 value="0.1880637615" flag="0"/>
      <psa10 value="0.2516838608" flag="0"/>
      <psa30 value="0.1382101449" flag="0"/>
    </comp>
  </station>
  <station code="ATHU" name="ATHU" netid="HA" insttype="60" lat="37.9665" lon="23.7845">
    <comp name="--.HHZ">
      <acc value="0.1572835343" flag="0"/>
      <vel value="1.4162327793" flag="0"/>
      <psa03 value="0.3621270728" flag="0"/>
      <psa10 value="0.2922090316" flag="0"/>
      <psa30 value="0.2603710724" flag="0"/>
    </comp>
    <comp name="--.HHE">
      <acc value="0.1248528154" flag="0"/>
      <vel value="1.0096294874" flag="0"/>
      <psa03 value="0.3191846565" flag="0"/>
      <psa10 value="0.1784014406" flag="0"/>
      <psa30 value="0.1903664175" flag="0"/>
    </comp>
    <comp name="--.HHN">
      <acc value="0.2096272764" flag="0"/>
      <vel value="1.0297885668" flag="0"/>
      <psa03 value="0.5759972625" flag="0"/>
      <psa10 value="0.3114659976" flag="0"/>
      <psa30 value="0.1372205475" flag="0"/>
    </comp>
  </station>
  <station code="KARY" name="KARY" netid="HA" insttype="60" lat="38.0321" lon="24.437">
    <comp name="--.HHE">
      <acc value="0.3014671330" flag="0"/>
      <vel value="1.1343125489" flag="0"/>
      <psa03 value="0.9534418386" flag="0"/>
      <psa10 value="0.3655800667" flag="0"/>
      <psa30 value="0.2438884904" flag="0"/>
    </comp>
    <comp name="--.HHZ">
      <acc value="0.4080650295" flag="0"/>
      <vel value="1.7285393640" flag="0"/>
      <psa03 value="1.0536997012" flag="0"/>
      <psa10 value="0.6171507485" flag="0"/>
      <psa30 value="0.3362751767" flag="0"/>
    </comp>
    <comp name="--.HHN">
      <acc value="1.4203110541" flag="0"/>
      <vel value="1.2862569657" flag="0"/>
      <psa03 value="1.0911040550" flag="0"/>
      <psa10 value="1.2942610984" flag="0"/>
      <psa30 value="0.4509675046" flag="0"/>
    </comp>
  </station>
  <station code="STFN" name="STFN" netid="HA" insttype="1s-100Hz," lat="38.1766" lon="23.544">
    <comp name="--.HHN">
      <acc value="0.2168729690" flag="0"/>
      <vel value="0.8286292865" flag="0"/>
      <psa03 value="0.5705188812" flag="0"/>
      <psa10 value="0.6508152503" flag="0"/>
      <psa30 value="0.2295170693" flag="0"/>
    </comp>
    <comp name="--.HHZ">
      <acc value="0.1662348032" flag="0"/>
      <vel value="1.2496079471" flag="0"/>
      <psa03 value="0.3295346337" flag="0"/>
      <psa10 value="0.3179816957" flag="0"/>
      <psa30 value="0.1839735349" flag="0"/>
    </comp>
    <comp name="--.HHE">
      <acc value="0.2099462376" flag="0"/>
      <vel value="1.1710343789" flag="0"/>
      <psa03 value="0.5422062138" flag="0"/>
      <psa10 value="0.4903326602" flag="0"/>
      <psa30 value="0.2933393196" flag="0"/>
    </comp>
  </station>
  <station code="ATH5" name="ATH5" netid="HI" insttype="CMG-5TD,ACCELEROMETER,GURALP" lat="37.9754" lon="23.7371">
    <comp name="--.HNE">
      <acc value="0.3956529411" flag="0"/>
      <vel value="1.3083984957" flag="0"/>
      <psa03 value="1.2264996082" flag="0"/>
      <psa10 value="0.4819237432" flag="0"/>
      <psa30 value="0.2154820101" flag="0"/>
    </comp>
    <comp name="--.HNN">
      <acc value="0.3740157433" flag="0"/>
      <vel value="1.3389632286" flag="0"/>
      <psa03 value="0.9918217626" flag="0"/>
      <psa10 value="0.5892544273" flag="0"/>
      <psa30 value="0.2301619398" flag="0"/>
    </comp>
    <comp name="--.HNZ">
      <acc value="0.2411517674" flag="0"/>
      <vel value="1.3663679297" flag="0"/>
      <psa03 value="0.5960448203" flag="0"/>
      <psa10 value="0.5749655658" flag="0"/>
      <psa30 value="0.2703155123" flag="0"/>
    </comp>
  </station>
  <station code="MYT1" name="MYT1" netid="HI" insttype="CMG-5TD,ACCELEROMETER,GURALP" lat="39.085" lon="26.5694">
    <comp name="--.HNE">
      <acc value="1.8914704960" flag="0"/>
      <vel value="2.1672514879" flag="0"/>
      <psa03 value="4.2396898479" flag="0"/>
      <psa10 value="2.8107420438" flag="0"/>
      <psa30 value="0.6566537647" flag="0"/>
    </comp>
    <comp name="--.HNZ">
      <acc value="1.1378850544" flag="0"/>
      <vel value="1.9853469803" flag="0"/>
      <psa03 value="2.9050159487" flag="0"/>
      <psa10 value="2.6798407228" flag="0"/>
      <psa30 value="0.4791094525" flag="0"/>
    </comp>
    <comp name="--.HNN">
      <acc value="1.6816365493" flag="0"/>
      <vel value="1.7465738114" flag="0"/>
      <psa03 value="4.0655299789" flag="0"/>
      <psa10 value="3.3967967873" flag="0"/>
      <psa30 value="0.4775535716" flag="0"/>
    </comp>
  </station>
  <station code="NAX1" name="NAX1" netid="HI" insttype="CMG-5TD,ACCELEROMETER,GURALP" lat="37.1014" lon="25.3741">
    <comp name="--.HNN">
      <acc value="2.1913731915" flag="0"/>
      <vel value="2.3421777454" flag="0"/>
      <psa03 value="4.0429408712" flag="0"/>
      <psa10 value="1.3836336015" flag="0"/>
      <psa30 value="0.5674295155" flag="0"/>
    </comp>
    <comp name="--.HNE">
      <acc value="3.0779855955" flag="0"/>
      <vel value="3.0992360598" flag="0"/>
      <psa03 value="8.1490859402" flag="0"/>
      <psa10 value="2.1581681103" flag="0"/>
      <psa30 value="0.4898769475" flag="0"/>
    </comp>
    <comp name="--.HNZ">
      <acc value="1.3326724205" flag="0"/>
      <vel value="2.5563250847" flag="0"/>
      <psa03 value="3.4905818989" flag="0"/>
      <psa10 value="1.5010275575" flag="0"/>
      <psa30 value="0.4973282979" flag="0"/>
    </comp>
  </station>
  <station code="SKY1" name="SKY1" netid="HI" insttype="CMG-5TD,ACCELEROMETER,GURALP" lat="38.9045" lon="24.5646">
    <comp name="--.HNN">
      <acc value="0.2326900962" flag="0"/>
      <vel value="1.4279007673" flag="0"/>
      <psa03 value="0.5991956208" flag="0"/>
      <psa10 value="0.4917303542" flag="0"/>
      <psa30 value="0.2173890946" flag="0"/>
    </comp>
    <comp name="--.HNE">
      <acc value="0.2169762897" flag="0"/>
      <vel value="0.8180922497" flag="0"/>
      <psa03 value="0.5963829553" flag="0"/>
      <psa10 value="0.3482510601" flag="0"/>
      <psa30 value="0.1952972399" flag="0"/>
    </comp>
    <comp name="--.HNZ">
      <acc value="0.1520152861" flag="0"/>
      <vel value="0.7134108038" flag="0"/>
      <psa03 value="0.3435026310" flag="0"/>
      <psa10 value="0.2161700784" flag="0"/>
      <psa30 value="0.1745987013" flag="0"/>
    </comp>
  </station>
  <station code="ARG" name="ARG" netid="HL" insttype="LE3D20_DR24" lat="36.2136" lon="28.1212">
    <comp name="--.HHE">
      <acc value="0.2210379304" flag="0"/>
      <vel value="1.2418515917" flag="0"/>
      <psa03 value="0.4642847026" flag="0"/>
      <psa10 value="0.6396736051" flag="0"/>
      <psa30 value="0.3935948669" flag="0"/>
    </comp>
    <comp name="--.HHZ">
      <acc value="0.1930148895" flag="0"/>
      <vel value="0.7109553804" flag="0"/>
      <psa03 value="0.2369217642" flag="0"/>
      <psa10 value="0.4460173587" flag="0"/>
      <psa30 value="0.2765435983" flag="0"/>
    </comp>
    <comp name="--.HHN">
      <acc value="0.2855314102" flag="0"/>
      <vel value="0.9332255617" flag="0"/>
      <psa03 value="0.3392412512" flag="0"/>
      <psa10 value="0.7154557855" flag="0"/>
      <psa30 value="0.1702113001" flag="0"/>
    </comp>
  </station>
  <station code="ASTA" name="ASTA" netid="HL" insttype="CMG-5" lat="36.5455" lon="26.3529">
    <comp name="00.HNE">
      <acc value="0.4795178204" flag="0"/>
      <vel value="1.4872545199" flag="0"/>
      <psa03 value="1.4643598631" flag="0"/>
      <psa10 value="0.6590976421" flag="0"/>
      <psa30 value="0.3776464834" flag="0"/>
    </comp>
    <comp name="00.HNN">
      <acc value="0.4559837934" flag="0"/>
      <vel value="1.9748225753" flag="0"/>
      <psa03 value="0.8991568725" flag="0"/>
      <psa10 value="0.7250480957" flag="0"/>
      <psa30 value="0.2691403171" flag="0"/>
    </comp>
    <comp name="00.HNZ">
      <acc value="0.3856033540" flag="0"/>
      <vel value="1.9113780831" flag="0"/>
      <psa03 value="0.8204069063" flag="0"/>
      <psa10 value="0.8862028817" flag="0"/>
      <psa30 value="0.3719199573" flag="0"/>
    </comp>
  </station>
  <station code="ATH" name="ATH" netid="HL" insttype="DR24" lat="37.9738" lon="23.7177">
    <comp name="--.HHZ">
      <acc value="0.5340492084" flag="0"/>
      <vel value="1.4086997536" flag="0"/>
      <psa03 value="0.7513876099" flag="0"/>
      <psa10 value="0.5828469320" flag="0"/>
      <psa30 value="0.2785361905" flag="0"/>
    </comp>
    <comp name="--.HHE">
      <acc value="0.3556561274" flag="0"/>
      <vel value="1.1054769429" flag="0"/>
      <psa03 value="1.0048776810" flag="0"/>
      <psa10 value="0.5928449988" flag="0"/>
      <psa30 value="0.1868978765" flag="0"/>
    </comp>
    <comp name="--.HHN">
      <acc value="0.7052782479" flag="0"/>
      <vel value="1.5460221137" flag="0"/>
      <psa03 value="1.2713404761" flag="0"/>
      <psa10 value="0.7682032932" flag="0"/>
      <psa30 value="0.2373692280" flag="0"/>
    </comp>
  </station>
  <station code="DION" name="DION" netid="HL" insttype="30" lat="38.0779" lon="23.9331">
    <comp name="--.HHZ">
      <acc value="0.1725719769" flag="0"/>
      <vel value="1.2076979530" flag="0"/>
      <psa03 value="0.4335337635" flag="0"/>
      <psa10 value="0.3958580200" flag="0"/>
      <psa30 value="0.2160853171" flag="0"/>
    </comp>
    <comp name="--.HHE">
      <acc value="0.3357905259" flag="0"/>
      <vel value="1.3415279655" flag="0"/>
      <psa03 value="0.9784687247" flag="0"/>
      <psa10 value="0.6174881958" flag="0"/>
      <psa30 value="0.2287301852" flag="0"/>
    </comp>
    <comp name="--.HHN">
      <acc value="0.2165758155" flag="0"/>
      <vel value="1.1443946017" flag="0"/>
      <psa03 value="0.7057853097" flag="0"/>
      <psa10 value="0.4849387941" flag="0"/>
      <psa30 value="0.3606988414" flag="0"/>
    </comp>
  </station>
  <station code="EFSA" name="EFSA" netid="HL" insttype="CMG-5" lat="39.5401" lon="24.9886">
    <comp name="00.HNE">
      <acc value="0.2303511736" flag="0"/>
      <vel value="1.2636858746" flag="0"/>
      <psa03 value="0.5058135311" flag="0"/>
      <psa10 value="0.5685842794" flag="0"/>
      <psa30 value="0.3756423291" flag="0"/>
    </comp>
    <comp name="00.HNN">
      <acc value="0.2425549685" flag="0"/>
      <vel value="0.7334267092" flag="0"/>
      <psa03 value="0.4978230873" flag="0"/>
      <psa10 value="0.7186185607" flag="0"/>
      <psa30 value="0.1816467868" flag="0"/>
    </comp>
    <comp name="00.HNZ">
      <acc value="0.2337997737" flag="0"/>
      <vel value="0.5147293328" flag="0"/>
      <psa03 value="0.4107749568" flag="0"/>
      <psa10 value="0.4707659826" flag="0"/>
      <psa30 value="0.0955303598" flag="0"/>
    </comp>
  </station>
  <station code="KARP" name="KARP" netid="HL" insttype="120" lat="35.5471" lon="27.1611">
    <comp name="--.HHE">
      <acc value="0.1182687415" flag="0"/>
      <vel value="0.7341408103" flag="0"/>
      <psa03 value="0.1723815684" flag="0"/>
      <psa10 value="0.3196698525" flag="0"/>
      <psa30 value="0.1432232647" flag="0"/>
    </comp>
    <comp name="--.HHN">
      <acc value="0.0883890367" flag="0"/>
      <vel value="0.3658661212" flag="0"/>
      <psa03 value="0.1845338416" flag="0"/>
      <psa10 value="0.2501509007" flag="0"/>
      <psa30 value="0.1380625358" flag="0"/>
    </comp>
    <comp name="--.HHZ">
      <acc value="0.0957151932" flag="0"/>
      <vel value="0.2859749577" flag="0"/>
      <psa03 value="0.1511086581" flag="0"/>
      <psa10 value="0.1338997217" flag="0"/>
      <psa30 value="0.1020980878" flag="0"/>
    </comp>
  </station>
  <station code="KLNA" name="KLNA" netid="HL" insttype="CMG-5" lat="36.9571" lon="26.9727">
    <comp name="00.HNE">
      <acc value="2.5765663509" flag="0"/>
      <vel value="1.8017750774" flag="0"/>
      <psa03 value="8.3941393506" flag="0"/>
      <psa10 value="1.5880203660" flag="0"/>
      <psa30 value="0.4147146736" flag="0"/>
    </comp>
    <comp name="00.HNN">
      <acc value="2.4536447981" flag="0"/>
      <vel value="1.7307146122" flag="0"/>
      <psa03 value="7.6901580652" flag="0"/>
      <psa10 value="1.8972860497" flag="0"/>
      <psa30 value="0.3499579627" flag="0"/>
    </comp>
    <comp name="00.HNZ">
      <acc value="1.7947557212" flag="0"/>
      <vel value="2.1148778273" flag="0"/>
      <psa03 value="4.5789284810" flag="0"/>
      <psa10 value="0.8738675440" flag="0"/>
      <psa30 value="0.6886198725" flag="0"/>
    </comp>
  </station>
  <station code="KYMI" name="KYMI" netid="HL" insttype="DC_100" lat="38.6331" lon="24.1001">
    <comp name="--.HNE">
      <acc value="0.1238132729" flag="0"/>
      <vel value="1.1920277904" flag="0"/>
      <psa03 value="0.2177266906" flag="0"/>
      <psa10 value="0.2406487014" flag="0"/>
      <psa30 value="0.1689243133" flag="0"/>
    </comp>
    <comp name="--.HNZ">
      <acc value="0.1139114818" flag="0"/>
      <vel value="1.1943273044" flag="0"/>
      <psa03 value="0.1438286463" flag="0"/>
      <psa10 value="0.1720537240" flag="0"/>
      <psa30 value="0.1962994963" flag="0"/>
    </comp>
    <comp name="--.HNN">
      <acc value="0.1423779493" flag="0"/>
      <vel value="1.1488769174" flag="0"/>
      <psa03 value="0.1772141748" flag="0"/>
      <psa10 value="0.2128943642" flag="0"/>
      <psa30 value="0.1736372009" flag="0"/>
    </comp>
  </station>
  <station code="LIA" name="LIA" netid="HL" insttype="P6C" lat="39.8972" lon="25.1806">
    <comp name="--.HHE">
      <acc value="0.1689919955" flag="0"/>
      <vel value="0.6115224647" flag="0"/>
      <psa03 value="0.4167341892" flag="0"/>
      <psa10 value="0.3800515950" flag="0"/>
      <psa30 value="0.1034075049" flag="0"/>
    </comp>
    <comp name="--.HHN">
      <acc value="0.2012013378" flag="0"/>
      <vel value="0.5600155118" flag="0"/>
      <psa03 value="0.3582212693" flag="0"/>
      <psa10 value="0.3129172964" flag="0"/>
      <psa30 value="0.1849629678" flag="0"/>
    </comp>
    <comp name="--.HHZ">
      <acc value="0.0999533853" flag="0"/>
      <vel value="0.3681550558" flag="0"/>
      <psa03 value="0.1952618274" flag="0"/>
      <psa10 value="0.2565139895" flag="0"/>
      <psa30 value="0.1945593011" flag="0"/>
    </comp>
  </station>
  <station code="NOAC" name="NOAC" netid="HL" insttype="CMG-5" lat="37.9738" lon="23.7177">
    <comp name="00.HNZ">
      <acc value="0.2484287025" flag="0"/>
      <vel value="1.3997854205" flag="0"/>
      <psa03 value="0.7726518135" flag="0"/>
      <psa10 value="0.5810935969" flag="0"/>
      <psa30 value="0.2796954118" flag="0"/>
    </comp>
    <comp name="00.HNN">
      <acc value="0.4160979728" flag="0"/>
      <vel value="1.5731474557" flag="0"/>
      <psa03 value="1.2985525974" flag="0"/>
      <psa10 value="0.7595366529" flag="0"/>
      <psa30 value="0.2411257436" flag="0"/>
    </comp>
    <comp name="00.HNE">
      <acc value="0.3714253903" flag="0"/>
      <vel value="1.1309479596" flag="0"/>
      <psa03 value="1.0616040741" flag="0"/>
      <psa10 value="0.5954146338" flag="0"/>
      <psa30 value="0.1943177826" flag="0"/>
    </comp>
  </station>
  <station code="PRK" name="PRK" netid="HL" insttype="CMG5T" lat="39.2456" lon="26.265">
    <comp name="--.HNE">
      <acc value="2.3224881785" flag="0"/>
      <vel value="2.6641982072" flag="0"/>
      <psa03 value="5.6129063368" flag="0"/>
      <psa10 value="5.5988426859" flag="0"/>
      <psa30 value="0.4330459019" flag="0"/>
    </comp>
    <comp name="--.HNZ">
      <acc value="1.5338940977" flag="0"/>
      <vel value="1.6372929848" flag="0"/>
      <psa03 value="3.8239565804" flag="0"/>
      <psa10 value="2.0965166201" flag="0"/>
      <psa30 value="0.2720469262" flag="0"/>
    </comp>
    <comp name="--.HNN">
      <acc value="2.8410327238" flag="0"/>
      <vel value="3.0458902466" flag="0"/>
      <psa03 value="5.4665781521" flag="0"/>
      <psa10 value="4.9705749517" flag="0"/>
      <psa30 value="0.3222579130" flag="0"/>
    </comp>
  </station>
  <station code="THRA" name="THRA" netid="HL" insttype="CMG-5" lat="36.415" lon="25.4324">
    <comp name="00.HNN">
      <acc value="3.9682495414" flag="0"/>
      <vel value="6.3162534051" flag="0"/>
      <psa03 value="7.9636478344" flag="0"/>
      <psa10 value="7.6842073442" flag="0"/>
      <psa30 value="2.8244149837" flag="0"/>
    </comp>
    <comp name="00.HNE">
      <acc value="3.3035157671" flag="0"/>
      <vel value="5.1174452637" flag="0"/>
      <psa03 value="7.5556545429" flag="0"/>
      <psa10 value="8.3100190620" flag="0"/>
      <psa30 value="2.4088093714" flag="0"/>
    </comp>
    <comp name="00.HNZ">
      <acc value="2.5554425681" flag="0"/>
      <vel value="3.5840598958" flag="0"/>
      <psa03 value="5.7622238876" flag="0"/>
      <psa10 value="1.7707699623" flag="0"/>
      <psa30 value="0.5427720496" flag="0"/>
    </comp>
  </station>
  <station code="TNSA" name="TNSA" netid="HL" insttype="CMG-5" lat="37.5394" lon="25.1631">
    <comp name="00.HNN">
      <acc value="1.9985163086" flag="0"/>
      <vel value="3.2251207114" flag="0"/>
      <psa03 value="7.2372033892" flag="0"/>
      <psa10 value="1.1922811138" flag="0"/>
      <psa30 value="0.7227008076" flag="0"/>
    </comp>
    <comp name="00.HNE">
      <acc value="2.5632526004" flag="0"/>
      <vel value="2.4224742738" flag="0"/>
      <psa03 value="9.4946017710" flag="0"/>
      <psa10 value="2.6120959726" flag="0"/>
      <psa30 value="0.6445269470" flag="0"/>
    </comp>
    <comp name="00.HNZ">
      <acc value="1.5678997981" flag="0"/>
      <vel value="3.5878202867" flag="0"/>
      <psa03 value="3.5902284008" flag="0"/>
      <psa10 value="1.0708238447" flag="0"/>
      <psa30 value="0.4253932341" flag="0"/>
    </comp>
  </station>
  <station code="VLY" name="VLY" netid="HL" insttype="120P," lat="37.8524" lon="23.7942">
    <comp name="--.HHE">
      <acc value="0.4857282479" flag="0"/>
      <vel value="1.1340386151" flag="0"/>
      <psa03 value="1.1033797163" flag="0"/>
      <psa10 value="0.7318826972" flag="0"/>
      <psa30 value="0.1617889224" flag="0"/>
    </comp>
    <comp name="--.HHZ">
      <acc value="0.4086345391" flag="0"/>
      <vel value="1.6362484902" flag="0"/>
      <psa03 value="1.0626591269" flag="0"/>
      <psa10 value="0.3705648144" flag="0"/>
      <psa30 value="0.2224370374" flag="0"/>
    </comp>
    <comp name="--.HHN">
      <acc value="0.5150078685" flag="0"/>
      <vel value="1.4812996268" flag="0"/>
      <psa03 value="1.3739252306" flag="0"/>
      <psa10 value="0.9328660825" flag="0"/>
      <psa30 value="0.3557451596" flag="0"/>
    </comp>
  </station>
  <station code="AOS2" name="AOS2" netid="HT" insttype="100" lat="39.1478" lon="23.8436">
    <comp name="--.HHE">
      <acc value="0.0836205732" flag="0"/>
      <vel value="0.5300657275" flag="0"/>
      <psa03 value="0.1171811507" flag="0"/>
      <psa10 value="0.2054328105" flag="0"/>
      <psa30 value="0.1087315779" flag="0"/>
    </comp>
    <comp name="--.HHZ">
      <acc value="0.0586211895" flag="0"/>
