<stationlist created="1631873521">
	<station code="KTHA" name="KTHA" netid="GE" source="GEOFON" insttype="" lat="36.2566" lon="23.0621">
		<comp name="--.HNE" depth="0.0">
			<acc value="-0.144149358" flag="0"/>
			<vel value="-1.454325" flag="0"/>
			<psa03 value="0.193107363764" flag="0"/>
			<psa10 value="0.300838096282" flag="0"/>
			<psa30 value="0.15255615964" flag="0"/>
		</comp>
		<comp name="--.HNN" depth="0.0">
			<acc value="-0.08506341" flag="0"/>
			<vel value="0.949405" flag="0"/>
			<psa03 value="0.181608616664" flag="0"/>
			<psa10 value="0.233159692285" flag="0"/>
			<psa30 value="0.0987344170328" flag="0"/>
		</comp>
		<comp name="--.HNZ" depth="0.0">
			<acc value="0.077511126" flag="0"/>
			<vel value="-0.94664" flag="0"/>
			<psa03 value="0.0963299708491" flag="0"/>
			<psa10 value="0.136528606385" flag="0"/>
			<psa30 value="0.124079087394" flag="0"/>
		</comp>
	</station>
	<station code="LTRS" name="LTRS" netid="HA" source="Hellenic Seismological Network, University of Athens, Seismological Laboratory (HA)" insttype="" lat="37.97528" lon="22.9765">
		<comp name="--.HNE" depth="0.0">
			<acc value="-0.963075228" flag="0"/>
			<vel value="-2.410424" flag="0"/>
			<psa03 value="1.24759168934" flag="0"/>
			<psa10 value="3.47039972649" flag="0"/>
			<psa30 value="0.427399033877" flag="0"/>
		</comp>
		<comp name="--.HNN" depth="0.0">
			<acc value="-0.506676534" flag="0"/>
			<vel value="1.43626" flag="0"/>
			<psa03 value="0.833905246951" flag="0"/>
			<psa10 value="1.71317730173" flag="0"/>
			<psa30 value="0.512589090122" flag="0"/>
		</comp>
		<comp name="--.HNZ" depth="0.0">
			<acc value="-0.418659714" flag="0"/>
			<vel value="-1.464975" flag="0"/>
			<psa03 value="0.688269364409" flag="0"/>
			<psa10 value="1.0121801218" flag="0"/>
			<psa30 value="0.235846461792" flag="0"/>
		</comp>
	</station>
	<station code="XLKS" name="XLKS" netid="HA" source="Hellenic Seismological Network, University of Athens, Seismological Laboratory (HA)" insttype="" lat="38.0772" lon="22.6361">
		<comp name="--.HNE" depth="0.0">
			<acc value="-0.596361462" flag="0"/>
			<vel value="-1.552348" flag="0"/>
			<psa03 value="0.712877578049" flag="0"/>
			<psa10 value="1.46704729116" flag="0"/>
			<psa30 value="0.619017377005" flag="0"/>
		</comp>
		<comp name="--.HNN" depth="0.0">
			<acc value="0.546054552" flag="0"/>
			<vel value="1.687742" flag="0"/>
			<psa03 value="0.688090395582" flag="0"/>
			<psa10 value="1.74559705722" flag="0"/>
			<psa30 value="1.00707548345" flag="0"/>
		</comp>
		<comp name="--.HNZ" depth="0.0">
			<acc value="-0.190871886" flag="0"/>
			<vel value="1.241418" flag="0"/>
			<psa03 value="0.363530428773" flag="0"/>
			<psa10 value="0.544467464916" flag="0"/>
			<psa30 value="0.262705655847" flag="0"/>
		</comp>
	</station>
	<station code="ABEA" name="ABEA" netid="HC" source="Seismological Network of Crete (HC)" insttype="" lat="35.5163" lon="24.0113">
		<comp name="--.HNE" depth="0.0">
			<acc value="0.769455054" flag="0"/>
			<vel value="1.940225" flag="0"/>
			<psa03 value="1.24454921929" flag="0"/>
			<psa10 value="1.82972493348" flag="0"/>
			<psa30 value="1.10941433264" flag="0"/>
		</comp>
		<comp name="--.HNN" depth="0.0">
			<acc value="-0.767690454" flag="0"/>
			<vel value="1.614977" flag="0"/>
			<psa03 value="1.44897636133" flag="0"/>
			<psa10 value="2.26327423108" flag="0"/>
			<psa30 value="0.66278867774" flag="0"/>
		</comp>
		<comp name="--.HNZ" depth="0.0">
			<acc value="0.3936945" flag="0"/>
			<vel value="1.786241" flag="0"/>
			<psa03 value="0.658560539214" flag="0"/>
			<psa10 value="1.60986173016" flag="0"/>
			<psa30 value="0.229293070789" flag="0"/>
		</comp>
	</station>
	<station code="ATEI" name="ATEI" netid="HC" source="Seismological Network of Crete (HC)" insttype="" lat="35.5193" lon="24.0432">
		<comp name="--.HNE" depth="0.0">
			<acc value="-0.78284592" flag="0"/>
			<vel value="1.799124" flag="0"/>
			<psa03 value="1.70687044028" flag="0"/>
			<psa10 value="1.34161251491" flag="0"/>
			<psa30 value="0.772272857335" flag="0"/>
		</comp>
		<comp name="--.HNN" depth="0.0">
			<acc value="-0.678530418" flag="0"/>
			<vel value="1.511001" flag="0"/>
			<psa03 value="1.3493802094" flag="0"/>
			<psa10 value="1.50582133484" flag="0"/>
			<psa30 value="0.584525609923" flag="0"/>
		</comp>
		<comp name="--.HNZ" depth="0.0">
			<acc value="0.405266196" flag="0"/>
			<vel value="-1.38253" flag="0"/>
			<psa03 value="0.640439945534" flag="0"/>
			<psa10 value="0.674235076459" flag="0"/>
			<psa30 value="0.216334832908" flag="0"/>
		</comp>
	</station>
	<station code="DEYA" name="DEYA" netid="HC" source="Seismological Network of Crete (HC)" insttype="" lat="35.4825" lon="24.014">
		<comp name="--.HNE" depth="0.0">
			<acc value="0.788133498" flag="0"/>
			<vel value="2.313428" flag="0"/>
			<psa03 value="1.13309638261" flag="0"/>
			<psa10 value="3.74841392833" flag="0"/>
			<psa30 value="0.719047528342" flag="0"/>
		</comp>
		<comp name="--.HNN" depth="0.0">
			<acc value="-0.764395854" flag="0"/>
			<vel value="-1.434072" flag="0"/>
			<psa03 value="1.02101715503" flag="0"/>
			<psa10 value="1.51470445254" flag="0"/>
			<psa30 value="0.254074436769" flag="0"/>
		</comp>
		<comp name="--.HNZ" depth="0.0">
			<acc value="0.270883644" flag="0"/>
			<vel value="0.75304" flag="0"/>
			<psa03 value="0.475654398559" flag="0"/>
			<psa10 value="0.672229730758" flag="0"/>
			<psa30 value="0.116076496318" flag="0"/>
		</comp>
	</station>
	<station code="LENT" name="LENT" netid="HC" source="Seismological Network of Crete (HC)" insttype="" lat="35.5074" lon="24.0402">
		<comp name="--.HNE" depth="0.0">
			<acc value="0.657831864" flag="0"/>
			<vel value="2.042728" flag="0"/>
			<psa03 value="1.15998644879" flag="0"/>
			<psa10 value="2.04542442705" flag="0"/>
			<psa30 value="0.823363983072" flag="0"/>
		</comp>
		<comp name="--.HNN" depth="0.0">
			<acc value="-0.78641439" flag="0"/>
			<vel value="1.421878" flag="0"/>
			<psa03 value="1.13788379872" flag="0"/>
			<psa10 value="2.74018409595" flag="0"/>
			<psa30 value="0.586512163897" flag="0"/>
		</comp>
		<comp name="--.HNZ" depth="0.0">
			<acc value="-0.463407522" flag="0"/>
			<vel value="1.55335" flag="0"/>
			<psa03 value="0.858200265145" flag="0"/>
			<psa10 value="1.34826478619" flag="0"/>
			<psa30 value="0.252916955884" flag="0"/>
		</comp>
	</station>
	<station code="MULT" name="MULT" netid="HC" source="Seismological Network of Crete (HC)" insttype="" lat="35.5091" lon="24.0118">
		<comp name="--.HNE" depth="0.0">
			<acc value="-0.456449082" flag="0"/>
			<vel value="-1.187517" flag="0"/>
			<psa03 value="0.659455383347" flag="0"/>
			<psa10 value="0.97871742547" flag="0"/>
			<psa30 value="0.623433432798" flag="0"/>
		</comp>
		<comp name="--.HNN" depth="0.0">
			<acc value="-0.321677604" flag="0"/>
			<vel value="0.868449" flag="0"/>
			<psa03 value="0.623572133639" flag="0"/>
			<psa10 value="0.772662114532" flag="0"/>
			<psa30 value="0.253651622916" flag="0"/>
		</comp>
		<comp name="--.HNZ" depth="0.0">
			<acc value="-0.218007252" flag="0"/>
			<vel value="0.837565" flag="0"/>
			<psa03 value="0.315745752105" flag="0"/>
			<psa10 value="0.659992289826" flag="0"/>
			<psa30 value="0.160956061511" flag="0"/>
		</comp>
	</station>
	<station code="NERO" name="NERO" netid="HC" source="Seismological Network of Crete (HC)" insttype="" lat="35.474" lon="24.0423">
		<comp name="--.HNE" depth="0.0">
			<acc value="0.627566526" flag="0"/>
			<vel value="2.414561" flag="0"/>
			<psa03 value="0.996632652422" flag="0"/>
			<psa10 value="1.51549773187" flag="0"/>
			<psa30 value="0.45084931921" flag="0"/>
		</comp>
		<comp name="--.HNN" depth="0.0">
			<acc value="0.573695634" flag="0"/>
			<vel value="1.445175" flag="0"/>
			<psa03 value="0.947953131621" flag="0"/>
			<psa10 value="1.62302533477" flag="0"/>
			<psa30 value="0.264654178946" flag="0"/>
		</comp>
		<comp name="--.HNZ" depth="0.0">
			<acc value="-0.433917996" flag="0"/>
			<vel value="1.570188" flag="0"/>
			<psa03 value="0.581201263971" flag="0"/>
			<psa10 value="0.839853275899" flag="0"/>
			<psa30 value="0.194833070674" flag="0"/>
		</comp>
	</station>
	<station code="POLY" name="POLY" netid="HC" source="Seismological Network of Crete (HC)" insttype="" lat="35.5226" lon="24.0602">
		<comp name="--.HNE" depth="0.0">
			<acc value="-0.477827262" flag="0"/>
			<vel value="-1.660212" flag="0"/>
			<psa03 value="0.861332219608" flag="0"/>
			<psa10 value="1.30529481838" flag="0"/>
			<psa30 value="0.572838945554" flag="0"/>
		</comp>
		<comp name="--.HNN" depth="0.0">
			<acc value="0.522691962" flag="0"/>
			<vel value="1.722967" flag="0"/>
			<psa03 value="0.99560358167" flag="0"/>
			<psa10 value="1.09899387272" flag="0"/>
			<psa30 value="0.65988043431" flag="0"/>
		</comp>
		<comp name="--.HNZ" depth="0.0">
			<acc value="0.337715064" flag="0"/>
			<vel value="1.572708" flag="0"/>
			<psa03 value="0.69341471817" flag="0"/>
			<psa10 value="0.57780130369" flag="0"/>
			<psa30 value="0.199479996253" flag="0"/>
		</comp>
	</station>
	<station code="ARS1" name="ARS1" netid="HI" source="ITSAK Strong Motion Network" insttype="" lat="37.6349" lon="22.7293">
		<comp name="--.HNE" depth="0.0">
			<acc value="0.216405852" flag="0"/>
			<vel value="-1.717692" flag="0"/>
			<psa03 value="0.477130891377" flag="0"/>
			<psa10 value="0.609472074645" flag="0"/>
			<psa30 value="0.287918784121" flag="0"/>
		</comp>
		<comp name="--.HNN" depth="0.0">
			<acc value="0.404325552" flag="0"/>
			<vel value="-0.834256" flag="0"/>
			<psa03 value="0.715338399413" flag="0"/>
			<psa10 value="0.968678616571" flag="0"/>
			<psa30 value="0.289976925625" flag="0"/>
		</comp>
		<comp name="--.HNZ" depth="0.0">
			<acc value="-0.123144906" flag="0"/>
			<vel value="-1.247082" flag="0"/>
			<psa03 value="0.436997132041" flag="0"/>
			<psa10 value="0.197526551512" flag="0"/>
			<psa30 value="0.215901728348" flag="0"/>
		</comp>
	</station>
	<station code="ATH5" name="ATH5" netid="HI" source="ITSAK Strong Motion Network" insttype="" lat="37.975421" lon="23.737098">
		<comp name="--.HNE" depth="0.0">
			<acc value="0.395570076" flag="0"/>
			<vel value="-1.303761" flag="0"/>
			<psa03 value="1.21850925504" flag="0"/>
			<psa10 value="0.482378257369" flag="0"/>
			<psa30 value="0.215362584758" flag="0"/>
		</comp>
		<comp name="--.HNN" depth="0.0">
			<acc value="-0.374090712" flag="0"/>
			<vel value="-1.338889" flag="0"/>
			<psa03 value="0.979764840527" flag="0"/>
			<psa10 value="0.588681713496" flag="0"/>
			<psa30 value="0.230251896277" flag="0"/>
		</comp>
		<comp name="--.HNZ" depth="0.0">
			<acc value="-0.24097194" flag="0"/>
			<vel value="1.359924" flag="0"/>
			<psa03 value="0.590641869568" flag="0"/>
			<psa10 value="0.575659046838" flag="0"/>
			<psa30 value="0.270122571439" flag="0"/>
		</comp>
	</station>
	<station code="CH01" name="CH01" netid="HI" source="ITSAK Strong Motion Network" insttype="" lat="35.517" lon="24.0208">
		<comp name="--.HNE" depth="0.0">
			<acc value="0.498702378" flag="0"/>
			<vel value="1.303709" flag="0"/>
			<psa03 value="1.01502169934" flag="0"/>
			<psa10 value="1.05013672536" flag="0"/>
			<psa30 value="0.621062095848" flag="0"/>
		</comp>
		<comp name="--.HNN" depth="0.0">
			<acc value="-0.625576302" flag="0"/>
			<vel value="0.953397" flag="0"/>
			<psa03 value="1.28481720525" flag="0"/>
			<psa10 value="1.20701274505" flag="0"/>
			<psa30 value="0.370423413125" flag="0"/>
		</comp>
		<comp name="--.HNZ" depth="0.0">
			<acc value="0.218589468" flag="0"/>
			<vel value="-1.131355" flag="0"/>
			<psa03 value="0.398876772002" flag="0"/>
			<psa10 value="0.7934001273" flag="0"/>
			<psa30 value="0.176156778787" flag="0"/>
		</comp>
	</station>
	<station code="KLV1" name="KLV1" netid="HI" source="ITSAK Strong Motion Network" insttype="" lat="38.03256" lon="22.10797">
		<comp name="--.HNE" depth="0.0">
			<acc value="-0.078149442" flag="0"/>
			<vel value="-0.671706" flag="0"/>
			<psa03 value="0.216597022239" flag="0"/>
			<psa10 value="0.293207312943" flag="0"/>
			<psa30 value="0.121736385455" flag="0"/>
		</comp>
		<comp name="--.HNN" depth="0.0">
			<acc value="-0.09272565" flag="0"/>
			<vel value="0.460447" flag="0"/>
			<psa03 value="0.241071009259" flag="0"/>
			<psa10 value="0.195388321458" flag="0"/>
			<psa30 value="0.142455159074" flag="0"/>
		</comp>
		<comp name="--.HNZ" depth="0.0">
			<acc value="-0.057953748" flag="0"/>
			<vel value="-0.788204" flag="0"/>
			<psa03 value="0.0786120570283" flag="0"/>
			<psa10 value="0.231029515828" flag="0"/>
			<psa30 value="0.0910812625907" flag="0"/>
		</comp>
	</station>
	<station code="LMN1" name="LMN1" netid="HI" source="ITSAK Strong Motion Network" insttype="" lat="39.875" lon="25.0588">
		<comp name="--.HNE" depth="0.0">
			<acc value="0.296138028" flag="0"/>
			<vel value="-0.623612" flag="0"/>
			<psa03 value="0.968802999905" flag="0"/>
			<psa10 value="0.277849103099" flag="0"/>
			<psa30 value="0.19992115441" flag="0"/>
		</comp>
		<comp name="--.HNN" depth="0.0">
			<acc value="-0.228267432" flag="0"/>
			<vel value="-0.676713" flag="0"/>
			<psa03 value="0.622990484953" flag="0"/>
			<psa10 value="0.336410835076" flag="0"/>
			<psa30 value="0.147409463613" flag="0"/>
		</comp>
		<comp name="--.HNZ" depth="0.0">
			<acc value="0.094336536" flag="0"/>
			<vel value="0.384201" flag="0"/>
			<psa03 value="0.202995391427" flag="0"/>
			<psa10 value="0.184161606973" flag="0"/>
			<psa30 value="0.14280728024" flag="0"/>
		</comp>
	</station>
	<station code="MYT1" name="MYT1" netid="HI" source="ITSAK Strong Motion Network" insttype="" lat="39.085" lon="26.5694">
		<comp name="--.HNE" depth="0.0">
			<acc value="-1.890937404" flag="0"/>
			<vel value="-2.185993" flag="0"/>
			<psa03 value="4.26339538424" flag="0"/>
			<psa10 value="2.81500604066" flag="0"/>
			<psa30 value="0.656430810179" flag="0"/>
		</comp>
		<comp name="--.HNN" depth="0.0">
			<acc value="1.681273344" flag="0"/>
			<vel value="-1.745139" flag="0"/>
			<psa03 value="4.04178723486" flag="0"/>
			<psa10 value="3.40595886856" flag="0"/>
			<psa30 value="0.477578313443" flag="0"/>
		</comp>
		<comp name="--.HNZ" depth="0.0">
			<acc value="-1.137693516" flag="0"/>
			<vel value="2.03476" flag="0"/>
			<psa03 value="2.93683370022" flag="0"/>
			<psa10 value="2.68047069958" flag="0"/>
			<psa30 value="0.480025712145" flag="0"/>
		</comp>
	</station>
	<station code="NAX1" name="NAX1" netid="HI" source="ITSAK Strong Motion Network" insttype="" lat="37.101394" lon="25.374103">
		<comp name="--.HNE" depth="0.0">
			<acc value="-3.092157744" flag="0"/>
			<vel value="3.120585" flag="0"/>
			<psa03 value="8.11659421821" flag="0"/>
			<psa10 value="2.16357472465" flag="0"/>
			<psa30 value="0.488356711018" flag="0"/>
		</comp>
		<comp name="--.HNN" depth="0.0">
			<acc value="-2.179358724" flag="0"/>
			<vel value="2.388241" flag="0"/>
			<psa03 value="4.05225691121" flag="0"/>
			<psa10 value="1.38508985935" flag="0"/>
			<psa30 value="0.568874786048" flag="0"/>
		</comp>
		<comp name="--.HNZ" depth="0.0">
			<acc value="1.334778222" flag="0"/>
			<vel value="-2.561998" flag="0"/>
			<psa03 value="3.39951285886" flag="0"/>
			<psa10 value="1.50236231485" flag="0"/>
			<psa30 value="0.49655348327" flag="0"/>
		</comp>
	</station>
	<station code="NPS1" name="NPS1" netid="HI" source="ITSAK Strong Motion Network" insttype="" lat="36.51263" lon="23.06248">
		<comp name="--.HNE" depth="0.0">
			<acc value="0.209802576" flag="0"/>
			<vel value="-1.39337" flag="0"/>
			<psa03 value="0.364156819666" flag="0"/>
			<psa10 value="0.316067448571" flag="0"/>
			<psa30 value="0.22975660005" flag="0"/>
		</comp>
		<comp name="--.HNN" depth="0.0">
			<acc value="0.287034732" flag="0"/>
			<vel value="1.251607" flag="0"/>
			<psa03 value="0.402903570598" flag="0"/>
			<psa10 value="0.761648820373" flag="0"/>
			<psa30 value="0.369611342075" flag="0"/>
		</comp>
		<comp name="--.HNZ" depth="0.0">
			<acc value="0.092679342" flag="0"/>
			<vel value="-0.92761" flag="0"/>
			<psa03 value="0.162011530165" flag="0"/>
			<psa10 value="0.223640340405" flag="0"/>
			<psa30 value="0.145227833618" flag="0"/>
		</comp>
	</station>
	<station code="SFL1" name="SFL1" netid="HI" source="ITSAK Strong Motion Network" insttype="" lat="41.19001" lon="26.30427">
		<comp name="--.HNE" depth="0.0">
			<acc value="-0.498215226" flag="0"/>
			<vel value="-0.741596" flag="0"/>
			<psa03 value="1.05922699948" flag="0"/>
			<psa10 value="1.19531086833" flag="0"/>
			<psa30 value="0.193423243743" flag="0"/>
		</comp>
		<comp name="--.HNN" depth="0.0">
			<acc value="0.58257147" flag="0"/>
			<vel value="-0.627627" flag="0"/>
			<psa03 value="1.03488723908" flag="0"/>
			<psa10 value="0.864726810824" flag="0"/>
			<psa30 value="0.142829203921" flag="0"/>
		</comp>
		<comp name="--.HNZ" depth="0.0">
			<acc value="0.209694864" flag="0"/>
			<vel value="-0.333363" flag="0"/>
			<psa03 value="0.587062493038" flag="0"/>
			<psa10 value="0.246387725672" flag="0"/>
			<psa30 value="0.158663470844" flag="0"/>
		</comp>
	</station>
	<station code="SIT2" name="SIT2" netid="HI" source="ITSAK Strong Motion Network" insttype="" lat="35.2059" lon="26.107">
		<comp name="--.HNE" depth="0.0">
			<acc value="-0.383294274" flag="0"/>
			<vel value="-0.933037" flag="0"/>
			<psa03 value="0.898602477721" flag="0"/>
			<psa10 value="0.403573808853" flag="0"/>
			<psa30 value="0.180871265098" flag="0"/>
		</comp>
		<comp name="--.HNN" depth="0.0">
			<acc value="0.400297572" flag="0"/>
			<vel value="0.604776" flag="0"/>
			<psa03 value="0.900123712746" flag="0"/>
			<psa10 value="0.387655874004" flag="0"/>
			<psa30 value="0.109210804712" flag="0"/>
		</comp>
		<comp name="--.HNZ" depth="0.0">
			<acc value="0.142447386" flag="0"/>
			<vel value="0.671246" flag="0"/>
			<psa03 value="0.447690519422" flag="0"/>
			<psa10 value="0.141203719555" flag="0"/>
			<psa30 value="0.125714415046" flag="0"/>
		</comp>
	</station>
	<station code="SKY1" name="SKY1" netid="HI" source="ITSAK Strong Motion Network" insttype="" lat="38.904483" lon="24.564572">
		<comp name="--.HNE" depth="0.0">
			<acc value="0.217416774" flag="0"/>
			<vel value="0.845291" flag="0"/>
			<psa03 value="0.597129489527" flag="0"/>
			<psa10 value="0.347649629956" flag="0"/>
			<psa30 value="0.196114040049" flag="0"/>
		</comp>
		<comp name="--.HNN" depth="0.0">
			<acc value="-0.233286852" flag="0"/>
			<vel value="1.438582" flag="0"/>
			<psa03 value="0.605988446438" flag="0"/>
			<psa10 value="0.491736537306" flag="0"/>
			<psa30 value="0.217378221167" flag="0"/>
		</comp>
		<comp name="--.HNZ" depth="0.0">
			<acc value="0.152072922" flag="0"/>
			<vel value="-0.715107" flag="0"/>
			<psa03 value="0.34200942739" flag="0"/>
			<psa10 value="0.216122307427" flag="0"/>
			<psa30 value="0.174403779132" flag="0"/>
		</comp>
	</station>
	<station code="ANKY" name="ANKY" netid="HL" source="National Observatory of Athens Seismic Network" insttype="" lat="35.86704" lon="23.30117">
		<comp name="--.HNE" depth="0.0">
			<acc value="0.144138852" flag="0"/>
			<vel value="-1.325734" flag="0"/>
			<psa03 value="0.279996729017" flag="0"/>
			<psa10 value="0.30626219399" flag="0"/>
			<psa30 value="0.265254619358" flag="0"/>
		</comp>
		<comp name="--.HNN" depth="0.0">
			<acc value="0.172912236" flag="0"/>
			<vel value="-1.357534" flag="0"/>
			<psa03 value="0.309481843179" flag="0"/>
			<psa10 value="0.53252800708" flag="0"/>
			<psa30 value="0.245937171651" flag="0"/>
		</comp>
		<comp name="--.HNZ" depth="0.0">
			<acc value="0.106876416" flag="0"/>
			<vel value="1.426427" flag="0"/>
			<psa03 value="0.186932939251" flag="0"/>
			<psa10 value="0.170542974123" flag="0"/>
			<psa30 value="0.182727171829" flag="0"/>
		</comp>
	</station>
	<station code="ASTA" name="ASTA" netid="HL" source="National Observatory of Athens Seismic Network" insttype="" lat="36.54543" lon="26.3528">
		<comp name="--.HNE" depth="0.0">
