<stationlist created="1713771084">
	<station code="ERBG" name="ERBG" netid="KO" source="Bogazici University Kandilli Observatory And Earthquake Research Institute (KOERI)" insttype="" lat="40.712" lon="36.6768">
		<comp name=".HNE" depth="0.0">
			<acc value="0.062489990441016" flag="0"/>
			<vel value="0.0162558441433" flag="0"/>
			<psa03 value="0.0778073158111214" flag="0"/>
			<psa10 value="0.015472112138982" flag="0"/>
			<psa30 value="0.000946788032561124" flag="0"/>
		</comp>
		<comp name=".HNN" depth="0.0">
			<acc value="0.060801878918892" flag="0"/>
			<vel value="0.0191319872537" flag="0"/>
			<psa03 value="0.128867088895555" flag="0"/>
			<psa10 value="0.0197886490258942" flag="0"/>
			<psa30 value="0.00101404832155896" flag="0"/>
		</comp>
		<comp name=".HNZ" depth="0.0">
			<acc value="0.070318632137886" flag="0"/>
			<vel value="0.0320468557609" flag="0"/>
			<psa03 value="0.136831283150955" flag="0"/>
			<psa10 value="0.0132391523413483" flag="0"/>
			<psa30 value="0.00101242342225056" flag="0"/>
		</comp>
	</station>
	<station code="KOZK" name="KOZK" netid="KO" source="Bogazici University Kandilli Observatory And Earthquake Research Institute (KOERI)" insttype="" lat="39.2101" lon="34.868">
		<comp name=".HNE" depth="0.0">
			<acc value="0.01118238696858" flag="0"/>
			<vel value="0.00764996842007" flag="0"/>
			<psa03 value="0.0297501452802786" flag="0"/>
			<psa10 value="0.00836641048364722" flag="0"/>
			<psa30 value="0.000652762148540773" flag="0"/>
		</comp>
		<comp name=".HNN" depth="0.0">
			<acc value="0.011940697220448" flag="0"/>
			<vel value="0.00676233229438" flag="0"/>
			<psa03 value="0.0376983462887795" flag="0"/>
			<psa10 value="0.011976193364034" flag="0"/>
			<psa30 value="0.000577485390991727" flag="0"/>
		</comp>
		<comp name=".HNZ" depth="0.0">
			<acc value="0.0101635972712754" flag="0"/>
			<vel value="0.00515966055597" flag="0"/>
			<psa03 value="0.028163941243725" flag="0"/>
			<psa10 value="0.00325377437470751" flag="0"/>
			<psa30 value="0.000304224528381813" flag="0"/>
		</comp>
	</station>
	<station code="KYHL" name="KYHL" netid="KO" source="Bogazici University Kandilli Observatory And Earthquake Research Institute (KOERI)" insttype="" lat="40.3244" lon="37.8955">
		<comp name=".HNE" depth="0.0">
			<acc value="0.01078805341614" flag="0"/>
			<vel value="0.00759663404244" flag="0"/>
			<psa03 value="0.0252277753829547" flag="0"/>
			<psa10 value="0.00978841374687751" flag="0"/>
			<psa30 value="0.000759800853912301" flag="0"/>
		</comp>
		<comp name=".HNN" depth="0.0">
			<acc value="0.01071371214261" flag="0"/>
			<vel value="0.00814293611973" flag="0"/>
			<psa03 value="0.0239810104992539" flag="0"/>
			<psa10 value="0.0081169439576877" flag="0"/>
			<psa30 value="0.000971075370643224" flag="0"/>
		</comp>
		<comp name=".HNZ" depth="0.0">
			<acc value="0.0062276066908344" flag="0"/>
			<vel value="0.0037445976786" flag="0"/>
			<psa03 value="0.0214404424594844" flag="0"/>
			<psa10 value="0.00706973396016155" flag="0"/>
			<psa30 value="0.000497011257891099" flag="0"/>
		</comp>
	</station>
	<station code="TUNC" name="TUNC" netid="KO" source="Bogazici University Kandilli Observatory And Earthquake Research Institute (KOERI)" insttype="" lat="39.6942" lon="37.5388">
		<comp name=".HNE" depth="0.0">
			<acc value="0.032816998284396" flag="0"/>
			<vel value="0.0257284409078" flag="0"/>
			<psa03 value="0.100453446214266" flag="0"/>
			<psa10 value="0.0159640650409682" flag="0"/>
			<psa30 value="0.00121723146894478" flag="0"/>
		</comp>
		<comp name=".HNN" depth="0.0">
			<acc value="0.021555555149406" flag="0"/>
			<vel value="0.0138803988153" flag="0"/>
			<psa03 value="0.0664337290333102" flag="0"/>
			<psa10 value="0.0140736435598211" flag="0"/>
			<psa30 value="0.000743325752100629" flag="0"/>
		</comp>
		<comp name=".HNZ" depth="0.0">
			<acc value="0.01355702842068" flag="0"/>
			<vel value="0.00847405530068" flag="0"/>
			<psa03 value="0.054082806678763" flag="0"/>
			<psa10 value="0.00877740771016718" flag="0"/>
			<psa30 value="0.000840615634577034" flag="0"/>
		</comp>
	</station>
</stationlist>
