<?xml version="1.0" encoding="UTF-8" standalone="yes"?>
<!DOCTYPE earthquake SYSTEM "stationlist.dtd">
<stationlist created="" xmlns="ch.ethz.sed.shakemap.usgs.xml">
  <station code="CAYL" name="CAYL" netid="KO" insttype="CMG-6T" lat="40.3745" lon="36.159">
    <comp name="--.HHN">
      <acc value="0.7865469891" flag="0"/>
      <vel value="0.1990215716" flag="0"/>
      <psa03 value="0.8462503727" flag="0"/>
      <psa10 value="0.1114663128" flag="0"/>
      <psa30 value="0.0067126750" flag="0"/>
    </comp>
    <comp name="--.HHE">
      <acc value="1.0742235696" flag="0"/>
      <vel value="0.2547447191" flag="0"/>
      <psa03 value="1.2060586341" flag="0"/>
      <psa10 value="0.1041821597" flag="0"/>
      <psa30 value="0.0060549566" flag="0"/>
    </comp>
    <comp name="--.HHZ">
      <acc value="0.6569397846" flag="0"/>
      <vel value="0.1594037507" flag="0"/>
      <psa03 value="0.7292541477" flag="0"/>
      <psa10 value="0.0464581996" flag="0"/>
      <psa30 value="0.0038994464" flag="0"/>
    </comp>
  </station>
  <station code="ERBG" name="ERBG" netid="KO" insttype="CMG-5T" lat="40.712" lon="36.6768">
    <comp name="--.HNN">
      <acc value="0.0626832779" flag="0"/>
      <vel value="0.0187669229" flag="0"/>
      <psa03 value="0.1289323426" flag="0"/>
      <psa10 value="0.0198173655" flag="0"/>
      <psa30 value="0.0009958435" flag="0"/>
    </comp>
    <comp name="--.HNZ">
      <acc value="0.0724533229" flag="0"/>
      <vel value="0.0321462139" flag="0"/>
      <psa03 value="0.1357175270" flag="0"/>
      <psa10 value="0.0132637499" flag="0"/>
      <psa30 value="0.0010251089" flag="0"/>
    </comp>
    <comp name="--.HNE">
      <acc value="0.0739731615" flag="0"/>
      <vel value="0.0160592219" flag="0"/>
      <psa03 value="0.0781444343" flag="0"/>
      <psa10 value="0.0155043969" flag="0"/>
      <psa30 value="0.0008936055" flag="0"/>
    </comp>
  </station>
  <station code="KVT" name="KVT" netid="KO" insttype="CMG-3T" lat="41.0807" lon="36.0463">
    <comp name="--.HHE">
      <acc value="0.0958804190" flag="0"/>
      <vel value="0.0499611698" flag="0"/>
      <psa03 value="0.3180625407" flag="0"/>
      <psa10 value="0.0180138834" flag="0"/>
      <psa30 value="0.0019167917" flag="0"/>
    </comp>
    <comp name="--.HHN">
      <acc value="0.1275778979" flag="0"/>
      <vel value="0.0578569513" flag="0"/>
      <psa03 value="0.3088009367" flag="0"/>
      <psa10 value="0.0159520293" flag="0"/>
      <psa30 value="0.0013103238" flag="0"/>
    </comp>
    <comp name="--.HHZ">
      <acc value="0.0462667887" flag="0"/>
      <vel value="0.0182982069" flag="0"/>
      <psa03 value="0.1188930410" flag="0"/>
      <psa10 value="0.0104714917" flag="0"/>
      <psa30 value="0.0007735572" flag="0"/>
    </comp>
  </station>
  <station code="RSDY" name="RSDY" netid="KO" insttype="CMG-3T" lat="40.3971" lon="37.3273">
    <comp name="--.HHE">
      <acc value="0.0156698117" flag="0"/>
      <vel value="0.0157994144" flag="0"/>
      <psa03 value="0.0687867881" flag="0"/>
      <psa10 value="0.0209711646" flag="0"/>
      <psa30 value="0.0013637072" flag="0"/>
    </comp>
    <comp name="--.HHN">
      <acc value="0.0156435366" flag="0"/>
      <vel value="0.0114169321" flag="0"/>
      <psa03 value="0.0522617446" flag="0"/>
      <psa10 value="0.0218646617" flag="0"/>
      <psa30 value="0.0013439981" flag="0"/>
    </comp>
    <comp name="--.HHZ">
      <acc value="0.0124562221" flag="0"/>
      <vel value="0.0080276115" flag="0"/>
      <psa03 value="0.0329930598" flag="0"/>
      <psa10 value="0.0116530111" flag="0"/>
      <psa30 value="0.0006516439" flag="0"/>
    </comp>
  </station>
  <station code="TOKT" name="TOKT" netid="KO" insttype="CMG-3T" lat="40.3173" lon="36.5443">
    <comp name="--.HHZ">
      <acc value="0.0000509071" flag="0"/>
      <vel value="0.0000057909" flag="0"/>
      <psa03 value="0.0000162236" flag="0"/>
      <psa10 value="0.0000047902" flag="0"/>
      <psa30 value="0.0000005288" flag="0"/>
    </comp>
    <comp name="--.HHN">
      <acc value="0.0832492701" flag="0"/>
      <vel value="0.0449901072" flag="0"/>
      <psa03 value="0.0944289169" flag="0"/>
      <psa10 value="0.0471645781" flag="0"/>
      <psa30 value="0.0039197358" flag="0"/>
    </comp>
    <comp name="--.HHE">
      <acc value="0.0716533817" flag="0"/>
      <vel value="0.0264291661" flag="0"/>
      <psa03 value="0.0854820536" flag="0"/>
      <psa10 value="0.0206662952" flag="0"/>
      <psa30 value="0.0014758905" flag="0"/>
    </comp>
  </station>
  <station code="YOZ" name="YOZ" netid="KO" insttype="CMG-3T" lat="39.6376" lon="35.3152">
    <comp name="--.HHZ">
      <acc value="0.0210032300" flag="0"/>
      <vel value="0.0098352415" flag="0"/>
      <psa03 value="0.0491675969" flag="0"/>
      <psa10 value="0.0025021306" flag="0"/>
      <psa30 value="0.0005603399" flag="0"/>
    </comp>
    <comp name="--.HHE">
      <acc value="0.0232683154" flag="0"/>
      <vel value="0.0110563499" flag="0"/>
      <psa03 value="0.0786363308" flag="0"/>
      <psa10 value="0.0072347681" flag="0"/>
      <psa30 value="0.0004756021" flag="0"/>
    </comp>
    <comp name="--.HHN">
      <acc value="0.0257959151" flag="0"/>
      <vel value="0.0112712560" flag="0"/>
      <psa03 value="0.0867617543" flag="0"/>
      <psa10 value="0.0099338278" flag="0"/>
      <psa30 value="0.0005706226" flag="0"/>
    </comp>
  </station>
</stationlist>
