<?xml version="1.0" encoding="UTF-8" standalone="yes"?>
<!DOCTYPE earthquake SYSTEM "stationlist.dtd">
<stationlist created="" xmlns="ch.ethz.sed.shakemap.usgs.xml">
  <station code="CAYL" name="CAYL" netid="KO" insttype="CMG-6T" lat="40.3745" lon="36.159">
    <comp name="--.HHE">
      <acc value="1.0742235630" flag="0"/>
      <vel value="0.2547447190" flag="0"/>
      <psa03 value="1.2060586341" flag="0"/>
      <psa10 value="0.1041821584" flag="0"/>
      <psa30 value="0.0060549098" flag="0"/>
    </comp>
    <comp name="--.HHZ">
      <acc value="0.6569397839" flag="0"/>
      <vel value="0.1594037505" flag="0"/>
      <psa03 value="0.7292541477" flag="0"/>
      <psa10 value="0.0464581958" flag="0"/>
      <psa30 value="0.0038994085" flag="0"/>
    </comp>
    <comp name="--.HHN">
      <acc value="0.7865469869" flag="0"/>
      <vel value="0.1990215718" flag="0"/>
      <psa03 value="0.8462503727" flag="0"/>
      <psa10 value="0.1114663107" flag="0"/>
      <psa30 value="0.0067126987" flag="0"/>
    </comp>
  </station>
  <station code="CORM" name="CORM" netid="KO" insttype="CMG-3ESP" lat="40.1785" lon="34.6302">
    <comp name="--.HHN">
      <acc value="0.0067945364" flag="0"/>
      <vel value="0.0067480591" flag="0"/>
      <psa03 value="0.0231636684" flag="0"/>
      <psa10 value="0.0082133413" flag="0"/>
      <psa30 value="0.0006062332" flag="0"/>
    </comp>
    <comp name="--.HHE">
      <acc value="0.0052749800" flag="0"/>
      <vel value="0.0036258192" flag="0"/>
      <psa03 value="0.0158225321" flag="0"/>
      <psa10 value="0.0054616902" flag="0"/>
      <psa30 value="0.0003304860" flag="0"/>
    </comp>
    <comp name="--.HHZ">
      <acc value="0.0032688133" flag="0"/>
      <vel value="0.0019281140" flag="0"/>
      <psa03 value="0.0110830580" flag="0"/>
      <psa10 value="0.0017528557" flag="0"/>
      <psa30 value="0.0003533880" flag="0"/>
    </comp>
  </station>
  <station code="KVT" name="KVT" netid="KO" insttype="CMG-3T" lat="41.0807" lon="36.0463">
    <comp name="--.HHE">
      <acc value="0.0958804187" flag="0"/>
      <vel value="0.0499611693" flag="0"/>
      <psa03 value="0.3180625407" flag="0"/>
      <psa10 value="0.0180138852" flag="0"/>
      <psa30 value="0.0019172583" flag="0"/>
    </comp>
    <comp name="--.HHN">
      <acc value="0.1275778978" flag="0"/>
      <vel value="0.0578569527" flag="0"/>
      <psa03 value="0.3088009367" flag="0"/>
      <psa10 value="0.0159520282" flag="0"/>
      <psa30 value="0.0013105580" flag="0"/>
    </comp>
    <comp name="--.HHZ">
      <acc value="0.0462667885" flag="0"/>
      <vel value="0.0182982061" flag="0"/>
      <psa03 value="0.1188930410" flag="0"/>
      <psa10 value="0.0104714919" flag="0"/>
      <psa30 value="0.0007734453" flag="0"/>
    </comp>
  </station>
  <station code="KYHL" name="KYHL" netid="KO" insttype="CMG-5T" lat="40.3244" lon="37.8955">
    <comp name="--.HNN">
      <acc value="0.0107784225" flag="0"/>
      <vel value="0.0079619911" flag="0"/>
      <psa03 value="0.0236734270" flag="0"/>
      <psa10 value="0.0081027469" flag="0"/>
      <psa30 value="0.0008908630" flag="0"/>
    </comp>
    <comp name="--.HNE">
      <acc value="0.0107851537" flag="0"/>
      <vel value="0.0076471194" flag="0"/>
      <psa03 value="0.0253600244" flag="0"/>
      <psa10 value="0.0097874475" flag="0"/>
      <psa30 value="0.0007799065" flag="0"/>
    </comp>
    <comp name="--.HNZ">
      <acc value="0.0062415053" flag="0"/>
      <vel value="0.0037734960" flag="0"/>
      <psa03 value="0.0214967869" flag="0"/>
      <psa10 value="0.0070619854" flag="0"/>
      <psa30 value="0.0004456033" flag="0"/>
    </comp>
  </station>
  <station code="RSDY" name="RSDY" netid="KO" insttype="CMG-3T" lat="40.3971" lon="37.3273">
    <comp name="--.HHN">
      <acc value="0.0156435372" flag="0"/>
      <vel value="0.0114169312" flag="0"/>
      <psa03 value="0.0522617446" flag="0"/>
      <psa10 value="0.0218646618" flag="0"/>
      <psa30 value="0.0013439880" flag="0"/>
    </comp>
    <comp name="--.HHZ">
      <acc value="0.0124562222" flag="0"/>
      <vel value="0.0080276114" flag="0"/>
      <psa03 value="0.0329930598" flag="0"/>
      <psa10 value="0.0116530111" flag="0"/>
      <psa30 value="0.0006516020" flag="0"/>
    </comp>
  </station>
  <station code="TOKT" name="TOKT" netid="KO" insttype="CMG-3T" lat="40.3173" lon="36.5443">
    <comp name="--.HHE">
      <acc value="0.0716533826" flag="0"/>
      <vel value="0.0264291662" flag="0"/>
      <psa03 value="0.0854820536" flag="0"/>
      <psa10 value="0.0206662976" flag="0"/>
      <psa30 value="0.0014758825" flag="0"/>
    </comp>
    <comp name="--.HHN">
      <acc value="0.0832492689" flag="0"/>
      <vel value="0.0449901077" flag="0"/>
      <psa03 value="0.0944289169" flag="0"/>
      <psa10 value="0.0471645795" flag="0"/>
      <psa30 value="0.0039194884" flag="0"/>
    </comp>
    <comp name="--.HHZ">
      <acc value="0.0000509079" flag="0"/>
      <vel value="0.0000057910" flag="0"/>
      <psa03 value="0.0000162236" flag="0"/>
      <psa10 value="0.0000047902" flag="0"/>
      <psa30 value="0.0000005444" flag="0"/>
    </comp>
  </station>
  <station code="TUNC" name="TUNC" netid="KO" insttype="CMG-5T" lat="39.6942" lon="37.5388">
    <comp name="--.HNE">
      <acc value="0.0328278260" flag="0"/>
      <vel value="0.0256499051" flag="0"/>
      <psa03 value="0.1017881859" flag="0"/>
      <psa10 value="0.0159521129" flag="0"/>
      <psa30 value="0.0011910903" flag="0"/>
    </comp>
    <comp name="--.HNN">
      <acc value="0.0215792140" flag="0"/>
      <vel value="0.0136407706" flag="0"/>
      <psa03 value="0.0677050119" flag="0"/>
      <psa10 value="0.0140587709" flag="0"/>
      <psa30 value="0.0007177213" flag="0"/>
    </comp>
    <comp name="--.HNZ">
      <acc value="0.0136172127" flag="0"/>
      <vel value="0.0082204119" flag="0"/>
      <psa03 value="0.0546077143" flag="0"/>
      <psa10 value="0.0087684780" flag="0"/>
      <psa30 value="0.0007453368" flag="0"/>
    </comp>
  </station>
  <station code="YOZ" name="YOZ" netid="KO" insttype="CMG-3T" lat="39.6376" lon="35.3152">
    <comp name="--.HHE">
      <acc value="0.0232683154" flag="0"/>
      <vel value="0.0110563499" flag="0"/>
      <psa03 value="0.0786363308" flag="0"/>
      <psa10 value="0.0072347681" flag="0"/>
      <psa30 value="0.0004756042" flag="0"/>
    </comp>
    <comp name="--.HHN">
      <acc value="0.0257959151" flag="0"/>
      <vel value="0.0112712560" flag="0"/>
      <psa03 value="0.0867617543" flag="0"/>
      <psa10 value="0.0099338278" flag="0"/>
      <psa30 value="0.0005706238" flag="0"/>
    </comp>
    <comp name="--.HHZ">
      <acc value="0.0210032300" flag="0"/>
      <vel value="0.0098352414" flag="0"/>
      <psa03 value="0.0491675969" flag="0"/>
      <psa10 value="0.0025021306" flag="0"/>
      <psa30 value="0.0005603391" flag="0"/>
    </comp>
  </station>
</stationlist>
