<?xml version="1.0" encoding="UTF-8" standalone="yes"?>
<!DOCTYPE earthquake SYSTEM "stationlist.dtd">
<stationlist created="" xmlns="ch.ethz.sed.shakemap.usgs.xml">
  <station code="ENAUX" name="ENAUX" netid="FR" insttype="TRILLIUM-120PH" lat="44.1095" lon="6.7775">
    <comp name="00.HHE">
      <acc value="0.0456779411" flag="0"/>
      <vel value="0.0327209039" flag="0"/>
      <psa03 value="0.0622589060" flag="0"/>
      <psa10 value="0.0221296162" flag="0"/>
      <psa30 value="0.0014393163" flag="0"/>
    </comp>
    <comp name="00.HHN">
      <acc value="0.0348377813" flag="0"/>
      <vel value="0.0167711215" flag="0"/>
      <psa03 value="0.0729350007" flag="0"/>
      <psa10 value="0.0136093793" flag="0"/>
      <psa30 value="0.0017047911" flag="0"/>
    </comp>
    <comp name="00.HHZ">
      <acc value="0.0247747912" flag="0"/>
      <vel value="0.0105485473" flag="0"/>
      <psa03 value="0.0482234766" flag="0"/>
      <psa10 value="0.0114838975" flag="0"/>
      <psa30 value="0.0012472411" flag="0"/>
    </comp>
  </station>
  <station code="GRN" name="GRN" netid="FR" insttype="TRILLIUM-120QA" lat="45.2413" lon="5.7439">
    <comp name="00.HHE">
      <acc value="0.0216861078" flag="0"/>
      <vel value="0.0099539284" flag="0"/>
      <psa03 value="0.0346302557" flag="0"/>
      <psa10 value="0.0061978316" flag="0"/>
      <psa30 value="0.0006141922" flag="0"/>
    </comp>
    <comp name="00.HHN">
      <acc value="0.0142080737" flag="0"/>
      <vel value="0.0052966387" flag="0"/>
      <psa03 value="0.0173119878" flag="0"/>
      <psa10 value="0.0067301900" flag="0"/>
      <psa30 value="0.0003691348" flag="0"/>
    </comp>
    <comp name="00.HHZ">
      <acc value="0.0087446662" flag="0"/>
      <vel value="0.0037417388" flag="0"/>
      <psa03 value="0.0233510479" flag="0"/>
      <psa10 value="0.0036352258" flag="0"/>
      <psa30 value="0.0001948512" flag="0"/>
    </comp>
  </station>
  <station code="NIMR" name="NIMR" netid="FR" insttype="CMG40-T" lat="43.6802" lon="7.20276">
    <comp name="00.HHN">
      <acc value="0.0388571903" flag="0"/>
      <vel value="0.0195323002" flag="0"/>
      <psa03 value="0.1632689834" flag="0"/>
      <psa10 value="0.0124896897" flag="0"/>
      <psa30 value="0.0007621296" flag="0"/>
    </comp>
    <comp name="00.HHE">
      <acc value="0.0371146360" flag="0"/>
      <vel value="0.0206079191" flag="0"/>
      <psa03 value="0.1303017335" flag="0"/>
      <psa10 value="0.0074147032" flag="0"/>
      <psa30 value="0.0006122547" flag="0"/>
    </comp>
    <comp name="00.HHZ">
      <acc value="0.0285424250" flag="0"/>
      <vel value="0.0115151070" flag="0"/>
      <psa03 value="0.0868870581" flag="0"/>
      <psa10 value="0.0058062750" flag="0"/>
      <psa30 value="0.0005692833" flag="0"/>
    </comp>
  </station>
  <station code="OGAG" name="OGAG" netid="FR" insttype="TRILLIUM-240" lat="44.7878" lon="6.53974">
    <comp name="00.HHZ">
      <acc value="0.0249471618" flag="0"/>
      <vel value="0.0132887762" flag="0"/>
      <psa03 value="0.0594387032" flag="0"/>
      <psa10 value="0.0188853337" flag="0"/>
      <psa30 value="0.0014889278" flag="0"/>
    </comp>
    <comp name="00.HHE">
      <acc value="0.0356213967" flag="0"/>
      <vel value="0.0174299122" flag="0"/>
      <psa03 value="0.0724714014" flag="0"/>
      <psa10 value="0.0237525778" flag="0"/>
      <psa30 value="0.0018865422" flag="0"/>
    </comp>
    <comp name="00.HHN">
      <acc value="0.0314220938" flag="0"/>
      <vel value="0.0132612479" flag="0"/>
      <psa03 value="0.0497625177" flag="0"/>
      <psa10 value="0.0178657864" flag="0"/>
      <psa30 value="0.0008261815" flag="0"/>
    </comp>
  </station>
  <station code="OGCY" name="OGCY" netid="FR" insttype="TRILLIUM-120PH" lat="45.4724" lon="6.71235">
    <comp name="00.HHE">
      <acc value="0.0064318015" flag="0"/>
      <vel value="0.0033839493" flag="0"/>
      <psa03 value="0.0234168289" flag="0"/>
      <psa10 value="0.0042489126" flag="0"/>
      <psa30 value="0.0003835066" flag="0"/>
    </comp>
    <comp name="00.HHN">
      <acc value="0.0048098563" flag="0"/>
      <vel value="0.0030917889" flag="0"/>
      <psa03 value="0.0164742123" flag="0"/>
      <psa10 value="0.0052763134" flag="0"/>
      <psa30 value="0.0007384785" flag="0"/>
    </comp>
    <comp name="00.HHZ">
      <acc value="0.0050595238" flag="0"/>
      <vel value="0.0027673416" flag="0"/>
      <psa03 value="0.0108135942" flag="0"/>
      <psa10 value="0.0033286774" flag="0"/>
      <psa30 value="0.0003872517" flag="0"/>
    </comp>
  </station>
  <station code="OGDI" name="OGDI" netid="FR" insttype="TRILLIUM-120PA" lat="44.1093" lon="6.2253">
    <comp name="00.HHE">
      <acc value="0.0165260272" flag="0"/>
      <vel value="0.0097717970" flag="0"/>
      <psa03 value="0.0547547557" flag="0"/>
      <psa10 value="0.0073800006" flag="0"/>
      <psa30 value="0.0005576162" flag="0"/>
    </comp>
    <comp name="00.HHN">
      <acc value="0.0188947439" flag="0"/>
      <vel value="0.0108158795" flag="0"/>
      <psa03 value="0.0453314770" flag="0"/>
      <psa10 value="0.0088711427" flag="0"/>
      <psa30 value="0.0012404047" flag="0"/>
    </comp>
    <comp name="00.HHZ">
      <acc value="0.0123902072" flag="0"/>
      <vel value="0.0075529769" flag="0"/>
      <psa03 value="0.0610536690" flag="0"/>
      <psa10 value="0.0046220563" flag="0"/>
      <psa30 value="0.0008699925" flag="0"/>
    </comp>
  </station>
  <station code="OGJA" name="OGJA" netid="FR" insttype="TRILLIUM-120QA" lat="44.9103" lon="6.70974">
    <comp name="00.HHZ">
      <acc value="0.0413654967" flag="0"/>
      <vel value="0.0166080612" flag="0"/>
      <psa03 value="0.0781593511" flag="0"/>
      <psa10 value="0.0069138547" flag="0"/>
      <psa30 value="0.0014453203" flag="0"/>
    </comp>
    <comp name="00.HHE">
      <acc value="0.0362435001" flag="0"/>
      <vel value="0.0195634984" flag="0"/>
      <psa03 value="0.0488577444" flag="0"/>
      <psa10 value="0.0231716888" flag="0"/>
      <psa30 value="0.0026086718" flag="0"/>
    </comp>
    <comp name="00.HHN">
      <acc value="0.0488202583" flag="0"/>
      <vel value="0.0119655572" flag="0"/>
      <psa03 value="0.0735800038" flag="0"/>
      <psa10 value="0.0217140945" flag="0"/>
      <psa30 value="0.0018620034" flag="0"/>
    </comp>
  </station>
  <station code="OGLC" name="OGLC" netid="FR" insttype="TRILLIUM-120PH" lat="44.3703" lon="6.07404">
    <comp name="00.HHE">
      <acc value="0.0325368884" flag="0"/>
      <vel value="0.0095851954" flag="0"/>
      <psa03 value="0.0409894739" flag="0"/>
      <psa10 value="0.0090664105" flag="0"/>
      <psa30 value="0.0005103708" flag="0"/>
    </comp>
    <comp name="00.HHZ">
      <acc value="0.0312928298" flag="0"/>
      <vel value="0.0055301020" flag="0"/>
      <psa03 value="0.0291905115" flag="0"/>
      <psa10 value="0.0064389906" flag="0"/>
      <psa30 value="0.0006693289" flag="0"/>
    </comp>
    <comp name="00.HHN">
      <acc value="0.0243962248" flag="0"/>
      <vel value="0.0071906413" flag="0"/>
      <psa03 value="0.0403318341" flag="0"/>
      <psa10 value="0.0097726106" flag="0"/>
      <psa30 value="0.0008074564" flag="0"/>
    </comp>
  </station>
  <station code="OGMO" name="OGMO" netid="FR" insttype="TRILLIUM-Compact" lat="45.2086" lon="6.68308">
    <comp name="00.HHE">
      <acc value="0.0251665741" flag="0"/>
      <vel value="0.0095076992" flag="0"/>
      <psa03 value="0.0609038346" flag="0"/>
      <psa10 value="0.0058630638" flag="0"/>
      <psa30 value="0.0002838126" flag="0"/>
    </comp>
    <comp name="00.HHN">
      <acc value="0.0225732654" flag="0"/>
      <vel value="0.0096370523" flag="0"/>
      <psa03 value="0.0403410300" flag="0"/>
      <psa10 value="0.0044069232" flag="0"/>
      <psa30 value="0.0005090871" flag="0"/>
    </comp>
    <comp name="00.HHZ">
      <acc value="0.0424791530" flag="0"/>
      <vel value="0.0179249755" flag="0"/>
      <psa03 value="0.1018512799" flag="0"/>
      <psa10 value="0.0038077888" flag="0"/>
      <psa30 value="0.0005543773" flag="0"/>
    </comp>
  </station>
  <station code="OGS1" name="OGS1" netid="FR" insttype="TRILLIUM-Compact" lat="45.0608" lon="5.80467">
    <comp name="00.HHZ">
      <acc value="0.0221072790" flag="0"/>
      <vel value="0.0048470335" flag="0"/>
      <psa03 value="0.0228426003" flag="0"/>
      <psa10 value="0.0028820136" flag="0"/>
      <psa30 value="0.0002611023" flag="0"/>
    </comp>
    <comp name="00.HHE">
      <acc value="0.0465380340" flag="0"/>
      <vel value="0.0125405545" flag="0"/>
      <psa03 value="0.0556096249" flag="0"/>
      <psa10 value="0.0051796858" flag="0"/>
      <psa30 value="0.0005369889" flag="0"/>
    </comp>
    <comp name="00.HHN">
      <acc value="0.0369713783" flag="0"/>
      <vel value="0.0099647077" flag="0"/>
      <psa03 value="0.0451094983" flag="0"/>
      <psa10 value="0.0063433005" flag="0"/>
      <psa30 value="0.0006549671" flag="0"/>
    </comp>
  </station>
  <station code="OGS3" name="OGS3" netid="FR" insttype="TRILLIUM-Compact" lat="45.0695" lon="5.80607">
    <comp name="00.HHZ">
      <acc value="0.0097053422" flag="0"/>
      <vel value="0.0023101739" flag="0"/>
      <psa03 value="0.0105101553" flag="0"/>
      <psa10 value="0.0041804075" flag="0"/>
      <psa30 value="0.0001939021" flag="0"/>
    </comp>
    <comp name="00.HHE">
      <acc value="0.0123925980" flag="0"/>
      <vel value="0.0033942070" flag="0"/>
      <psa03 value="0.0113986785" flag="0"/>
      <psa10 value="0.0043239687" flag="0"/>
      <psa30 value="0.0004655631" flag="0"/>
    </comp>
    <comp name="00.HHN">
      <acc value="0.0132155365" flag="0"/>
      <vel value="0.0040626367" flag="0"/>
      <psa03 value="0.0128922971" flag="0"/>
      <psa10 value="0.0053153908" flag="0"/>
      <psa30 value="0.0008625277" flag="0"/>
    </comp>
  </station>
  <station code="OGSA" name="OGSA" netid="FR" insttype="TRILLIUM-120PH" lat="45.0368" lon="6.40093">
    <comp name="00.HHZ">
      <acc value="0.0165976962" flag="0"/>
      <vel value="0.0044882790" flag="0"/>
      <psa03 value="0.0178316538" flag="0"/>
      <psa10 value="0.0033315369" flag="0"/>
      <psa30 value="0.0008033707" flag="0"/>
    </comp>
    <comp name="00.HHN">
      <acc value="0.0225595982" flag="0"/>
      <vel value="0.0051942965" flag="0"/>
      <psa03 value="0.0221798227" flag="0"/>
      <psa10 value="0.0049713023" flag="0"/>
      <psa30 value="0.0004709188" flag="0"/>
    </comp>
    <comp name="00.HHE">
      <acc value="0.0235125075" flag="0"/>
      <vel value="0.0052762917" flag="0"/>
      <psa03 value="0.0175240771" flag="0"/>
      <psa10 value="0.0040427868" flag="0"/>
      <psa30 value="0.0007085165" flag="0"/>
    </comp>
  </station>
  <station code="OGVG" name="OGVG" netid="FR" insttype="TRILLIUM-120QA" lat="44.8152" lon="6.11233">
    <comp name="00.HHE">
      <acc value="0.0198246106" flag="0"/>
      <vel value="0.0057755399" flag="0"/>
      <psa03 value="0.0165681117" flag="0"/>
      <psa10 value="0.0055501164" flag="0"/>
      <psa30 value="0.0005620182" flag="0"/>
    </comp>
    <comp name="00.HHN">
      <acc value="0.0245950417" flag="0"/>
      <vel value="0.0061205396" flag="0"/>
      <psa03 value="0.0366441070" flag="0"/>
      <psa10 value="0.0039280511" flag="0"/>
      <psa30 value="0.0003576161" flag="0"/>
    </comp>
    <comp name="00.HHZ">
      <acc value="0.0176508122" flag="0"/>
      <vel value="0.0105001615" flag="0"/>
      <psa03 value="0.0457456868" flag="0"/>
      <psa10 value="0.0076604078" flag="0"/>
      <psa30 value="0.0005881610" flag="0"/>
    </comp>
  </station>
  <station code="SURF" name="SURF" netid="FR" insttype="" lat="44.4809" lon="6.8117">
    <comp name="00.HNZ">
      <acc value="6.3673363162" flag="0"/>
      <vel value="1.8733997238" flag="0"/>
      <psa03 value="12.2609651194" flag="0"/>
      <psa10 value="0.5270170695" flag="0"/>
      <psa30 value="0.0350388366" flag="0"/>
    </comp>
    <comp name="00.HNN">
      <acc value="7.8314563404" flag="0"/>
      <vel value="3.4678979608" flag="0"/>
      <psa03 value="19.2535076321" flag="0"/>
      <psa10 value="1.1430152816" flag="0"/>
      <psa30 value="0.1145412940" flag="0"/>
    </comp>
    <comp name="00.HNE">
      <acc value="5.7974030962" flag="0"/>
      <vel value="2.3614618882" flag="0"/>
      <psa03 value="15.9478425090" flag="0"/>
      <psa10 value="0.9518540477" flag="0"/>
      <psa30 value="0.1050765804" flag="0"/>
    </comp>
  </station>
  <station code="CANO" name="CANO" netid="GU" insttype="" lat="44.2075" lon="8.2372">
    <comp name="--.HHE">
      <acc value="0.0275007287" flag="0"/>
      <vel value="0.0159048553" flag="0"/>
      <psa03 value="0.1057692479" flag="0"/>
      <psa10 value="0.0183451823" flag="0"/>
      <psa30 value="0.0007521890" flag="0"/>
    </comp>
    <comp name="--.HHN">
      <acc value="0.0203526611" flag="0"/>
      <vel value="0.0101915603" flag="0"/>
      <psa03 value="0.0872712725" flag="0"/>
      <psa10 value="0.0070082334" flag="0"/>
      <psa30 value="0.0004506318" flag="0"/>
    </comp>
    <comp name="--.HHZ">
      <acc value="0.0143917554" flag="0"/>
      <vel value="0.0100129756" flag="0"/>
      <psa03 value="0.0406462836" flag="0"/>
      <psa10 value="0.0126181953" flag="0"/>
      <psa30 value="0.0006512178" flag="0"/>
    </comp>
  </station>
  <station code="ENR" name="ENR" netid="GU" insttype="" lat="44.2294" lon="7.4182">
    <comp name="--.HHE">
      <acc value="0.2543995290" flag="0"/>
      <vel value="0.0343137909" flag="0"/>
      <psa03 value="0.1383651644" flag="0"/>
      <psa10 value="0.0133907516" flag="0"/>
      <psa30 value="0.0012772286" flag="0"/>
    </comp>
    <comp name="--.HHN">
      <acc value="0.2085736417" flag="0"/>
      <vel value="0.0443729087" flag="0"/>
      <psa03 value="0.1357539975" flag="0"/>
      <psa10 value="0.0395068299" flag="0"/>
      <psa30 value="0.0021104611" flag="0"/>
    </comp>
    <comp name="--.HHZ">
      <acc value="0.1109566221" flag="0"/>
      <vel value="0.0286337005" flag="0"/>
      <psa03 value="0.0936612226" flag="0"/>
      <psa10 value="0.0217253430" flag="0"/>
      <psa30 value="0.0016315925" flag="0"/>
    </comp>
  </station>
  <station code="GBOS" name="GBOS" netid="GU" insttype="" lat="44.2416" lon="7.8399">
    <comp name="--.HHE">
      <acc value="0.0654962360" flag="0"/>
      <vel value="0.0337118283" flag="0"/>
      <psa03 value="0.2142634310" flag="0"/>
      <psa10 value="0.0144984666" flag="0"/>
      <psa30 value="0.0010944397" flag="0"/>
    </comp>
    <comp name="--.HHN">
      <acc value="0.0291140328" flag="0"/>
      <vel value="0.0158239148" flag="0"/>
      <psa03 value="0.0884358733" flag="0"/>
      <psa10 value="0.0125760736" flag="0"/>
      <psa30 value="0.0005986513" flag="0"/>
    </comp>
    <comp name="--.HHZ">
      <acc value="0.0495544445" flag="0"/>
      <vel value="0.0257806994" flag="0"/>
      <psa03 value="0.1695317398" flag="0"/>
      <psa10 value="0.0096400278" flag="0"/>
      <psa30 value="0.0009126104" flag="0"/>
    </comp>
  </station>
  <station code="PZZ" name="PZZ" netid="GU" insttype="" lat="44.5068" lon="7.116">
    <comp name="--.HHE">
      <acc value="0.3828979606" flag="0"/>
      <vel value="0.1895144701" flag="0"/>
      <psa03 value="1.4367580588" flag="0"/>
      <psa10 value="0.0594892439" flag="0"/>
      <psa30 value="0.0040686357" flag="0"/>
    </comp>
    <comp name="--.HHN">
      <acc value="0.2768154336" flag="0"/>
      <vel value="0.0974023614" flag="0"/>
      <psa03 value="0.7564859037" flag="0"/>
      <psa10 value="0.0539959848" flag="0"/>
      <psa30 value="0.0031298296" flag="0"/>
    </comp>
    <comp name="--.HHZ">
      <acc value="0.2921632107" flag="0"/>
      <vel value="0.0783301055" flag="0"/>
      <psa03 value="0.4869195791" flag="0"/>
      <psa10 value="0.0360024190" flag="0"/>
      <psa30 value="0.0038059156" flag="0"/>
    </comp>
  </station>
  <station code="RORO" name="RORO" netid="GU" insttype="" lat="44.1125" lon="8.0667">
    <comp name="--.HHE">
      <acc value="0.0180823400" flag="0"/>
      <vel value="0.0085855644" flag="0"/>
      <psa03 value="0.0281257030" flag="0"/>
      <psa10 value="0.0103098144" flag="0"/>
      <psa30 value="0.0005852865" flag="0"/>
    </comp>
    <comp name="--.HHN">
      <acc value="0.0267616306" flag="0"/>
      <vel value="0.0133195055" flag="0"/>
      <psa03 value="0.0933468445" flag="0"/>
      <psa10 value="0.0149920328" flag="0"/>
      <psa30 value="0.0005913297" flag="0"/>
    </comp>
    <comp name="--.HHZ">
      <acc value="0.0188642845" flag="0"/>
      <vel value="0.0077937630" flag="0"/>
      <psa03 value="0.0376718744" flag="0"/>
      <psa10 value="0.0078791590" flag="0"/>
      <psa30 value="0.0007177604" flag="0"/>
    </comp>
  </station>
  <station code="ROTM" name="ROTM" netid="GU" insttype="" lat="44.8493" lon="8.3527">
    <comp name="--.HHE">
      <acc value="0.0199470572" flag="0"/>
      <vel value="0.0121044171" flag="0"/>
      <psa03 value="0.0629192280" flag="0"/>
      <psa10 value="0.0189804107" flag="0"/>
      <psa30 value="0.0014135342" flag="0"/>
    </comp>
    <comp name="--.HHN">
      <acc value="0.0188178691" flag="0"/>
      <vel value="0.0150283743" flag="0"/>
      <psa03 value="0.0727545251" flag="0"/>
      <psa10 value="0.0148409616" flag="0"/>
      <psa30 value="0.0015111376" flag="0"/>
    </comp>
    <comp name="--.HHZ">
      <acc value="0.0092293841" flag="0"/>
      <vel value="0.0036253884" flag="0"/>
      <psa03 value="0.0199370274" flag="0"/>
      <psa10 value="0.0046899974" flag="0"/>
      <psa30 value="0.0006973957" flag="0"/>
    </comp>
  </station>
  <station code="RSP" name="RSP" netid="GU" insttype="" lat="45.1482" lon="7.2649">
    <comp name="--.HHN">
      <acc value="0.0182545935" flag="0"/>
      <vel value="0.0054470460" flag="0"/>
      <psa03 value="0.0253965528" flag="0"/>
      <psa10 value="0.0025028385" flag="0"/>
      <psa30 value="0.0001864412" flag="0"/>
    </comp>
    <comp name="--.HHE">
      <acc value="0.0146942429" flag="0"/>
      <vel value="0.0047692651" flag="0"/>
      <psa03 value="0.0188466229" flag="0"/>
      <psa10 value="0.0019729962" flag="0"/>
      <psa30 value="0.0002409857" flag="0"/>
    </comp>
    <comp name="--.HHZ">
      <acc value="0.0105647793" flag="0"/>
      <vel value="0.0037222852" flag="0"/>
      <psa03 value="0.0170688576" flag="0"/>
      <psa10 value="0.0024153662" flag="0"/>
      <psa30 value="0.0002204782" flag="0"/>
    </comp>
  </station>
  <station code="STV" name="STV" netid="GU" insttype="" lat="44.2455" lon="7.326">
    <comp name="--.HHE">
      <acc value="0.0456057483" flag="0"/>
      <vel value="0.0165869886" flag="0"/>
      <psa03 value="0.0679539545" flag="0"/>
      <psa10 value="0.0099341733" flag="0"/>
      <psa30 value="0.0009651725" flag="0"/>
    </comp>
    <comp name="--.HHN">
      <acc value="0.0538991415" flag="0"/>
      <vel value="0.0182604256" flag="0"/>
      <psa03 value="0.0533455400" flag="0"/>
      <psa10 value="0.0185002599" flag="0"/>
      <psa30 value="0.0012885552" flag="0"/>
    </comp>
    <comp name="--.HHZ">
      <acc value="0.0450653405" flag="0"/>
      <vel value="0.0142905587" flag="0"/>
      <psa03 value="0.0614149284" flag="0"/>
      <psa10 value="0.0118001661" flag="0"/>
      <psa30 value="0.0007932766" flag="0"/>
    </comp>
  </station>
  <station code="MONC" name="MONC" netid="IV" insttype="" lat="45.0739" lon="7.9271">
    <comp name="--.HHE">
      <acc value="0.0187235789" flag="0"/>
      <vel value="0.0090833862" flag="0"/>
      <psa03 value="0.0475474355" flag="0"/>
      <psa10 value="0.0069649337" flag="0"/>
      <psa30 value="0.0007233215" flag="0"/>
    </comp>
    <comp name="--.HHZ">
      <acc value="0.0150001791" flag="0"/>
