<stationlist created="1675764133">
	<station code="ARPRA" name="ARPRA" netid="KO" source="Bogazici University Kandilli Observatory And Earthquake Research Institute (KOERI)" insttype="" lat="39.0929" lon="38.3356">
		<comp name=".HNE" depth="0.0">
			<acc value="0.0269771547355" flag="0"/>
			<vel value="0.0146867498068" flag="0"/>
			<psa03 value="0.0696633544388" flag="0"/>
			<psa10 value="0.0202521216037" flag="0"/>
			<psa30 value="0.00201987088987" flag="0"/>
		</comp>
		<comp name=".HNN" depth="0.0">
			<acc value="0.022571696264" flag="0"/>
			<vel value="0.0181949201805" flag="0"/>
			<psa03 value="0.081764369613" flag="0"/>
			<psa10 value="0.0250353947221" flag="0"/>
			<psa30 value="0.00200943561525" flag="0"/>
		</comp>
		<comp name=".HNZ" depth="0.0">
			<acc value="0.0107072617927" flag="0"/>
			<vel value="0.00616449015493" flag="0"/>
			<psa03 value="0.0272949019033" flag="0"/>
			<psa10 value="0.0112171983969" flag="0"/>
			<psa30 value="0.00120765020923" flag="0"/>
		</comp>
	</station>
</stationlist>
