<stationlist created="1675762347">
	<station code="ARPRA" name="ARPRA" netid="KO" source="Bogazici University Kandilli Observatory And Earthquake Research Institute (KOERI)" insttype="" lat="39.0929" lon="38.3356">
		<comp name=".HNE" depth="0.0">
			<acc value="0.0269771547355" flag="0"/>
			<vel value="0.0146867498068" flag="0"/>
			<psa03 value="0.0696633544388" flag="0"/>
			<psa10 value="0.0202521216037" flag="0"/>
			<psa30 value="0.00201987088987" flag="0"/>
		</comp>
		<comp name=".HNN" depth="0.0">
			<acc value="0.022571696264" flag="0"/>
			<vel value="0.0181949201805" flag="0"/>
			<psa03 value="0.081764369613" flag="0"/>
			<psa10 value="0.0250353947221" flag="0"/>
			<psa30 value="0.00200943561525" flag="0"/>
		</comp>
		<comp name=".HNZ" depth="0.0">
			<acc value="0.0107072617927" flag="0"/>
			<vel value="0.00616449015493" flag="0"/>
			<psa03 value="0.0272949019033" flag="0"/>
			<psa10 value="0.0112171983969" flag="0"/>
			<psa30 value="0.00120765020923" flag="0"/>
		</comp>
	</station>
	<station code="RFHY" name="RFHY" netid="KO" source="Bogazici University Kandilli Observatory And Earthquake Research Institute (KOERI)" insttype="" lat="39.927" lon="38.833">
		<comp name=".HNE" depth="0.0">
			<acc value="0.00129270151557" flag="0"/>
			<vel value="0.0031145900331" flag="0"/>
			<psa03 value="0.00161838357716" flag="0"/>
			<psa10 value="0.000943326768111" flag="0"/>
			<psa30 value="0.00102061563161" flag="0"/>
		</comp>
		<comp name=".HNN" depth="0.0">
			<acc value="0.00574894236609" flag="0"/>
			<vel value="0.00416310283485" flag="0"/>
			<psa03 value="0.00630215772138" flag="0"/>
			<psa10 value="0.00743970346886" flag="0"/>
			<psa30 value="0.001103860417" flag="0"/>
		</comp>
		<comp name=".HNZ" depth="0.0">
			<acc value="0.00381284107476" flag="0"/>
			<vel value="0.0020460468547" flag="0"/>
			<psa03 value="0.00598683995815" flag="0"/>
			<psa10 value="0.00376548053836" flag="0"/>
			<psa30 value="0.000691732178027" flag="0"/>
		</comp>
	</station>
	<station code="TUNC" name="TUNC" netid="KO" source="Bogazici University Kandilli Observatory And Earthquake Research Institute (KOERI)" insttype="" lat="39.6942" lon="37.5388">
		<comp name=".HNE" depth="0.0">
			<acc value="0.0123772240754" flag="0"/>
			<vel value="0.0123334741457" flag="0"/>
			<psa03 value="0.0221147592651" flag="0"/>
			<psa10 value="0.0117704781739" flag="0"/>
			<psa30 value="0.00175984387269" flag="0"/>
		</comp>
		<comp name=".HNN" depth="0.0">
			<acc value="0.0108849894826" flag="0"/>
			<vel value="0.00953774034754" flag="0"/>
			<psa03 value="0.018945929554" flag="0"/>
			<psa10 value="0.0111594417582" flag="0"/>
			<psa30 value="0.00127161111299" flag="0"/>
		</comp>
		<comp name=".HNZ" depth="0.0">
			<acc value="0.00617440036542" flag="0"/>
			<vel value="0.0062913709935" flag="0"/>
			<psa03 value="0.0118942384558" flag="0"/>
			<psa10 value="0.00690479709641" flag="0"/>
			<psa30 value="0.000909329926146" flag="0"/>
		</comp>
	</station>
</stationlist>
