<?xml version="1.0" encoding="UTF-8" standalone="yes"?>
<!DOCTYPE earthquake SYSTEM "stationlist.dtd">
<stationlist created="" xmlns="ch.ethz.sed.shakemap.usgs.xml">
  <station code="KMRS" name="KMRS" netid="KO" insttype="CMG-3T" lat="37.5087" lon="36.9">
    <comp name="--.HHE">
      <acc value="0.0177492323" flag="0"/>
      <vel value="0.0090799806" flag="0"/>
      <psa03 value="0.0501636282" flag="0"/>
      <psa10 value="0.0083149973" flag="0"/>
      <psa30 value="0.0010451104" flag="0"/>
    </comp>
    <comp name="--.HHN">
      <acc value="0.0194283321" flag="0"/>
      <vel value="0.0114500441" flag="0"/>
      <psa03 value="0.0524178198" flag="0"/>
      <psa10 value="0.0111527024" flag="0"/>
      <psa30 value="0.0010046644" flag="0"/>
    </comp>
    <comp name="--.HHZ">
      <acc value="0.0118621396" flag="0"/>
      <vel value="0.0047138868" flag="0"/>
      <psa03 value="0.0295549691" flag="0"/>
      <psa10 value="0.0046680349" flag="0"/>
      <psa30 value="0.0005175385" flag="0"/>
    </comp>
  </station>
  <station code="SARI" name="SARI" netid="KO" insttype="CMG-3T" lat="38.4072" lon="36.4181">
    <comp name="--.HHE">
      <acc value="0.0535490605" flag="0"/>
      <vel value="0.0222651954" flag="0"/>
      <psa03 value="0.1024257116" flag="0"/>
      <psa10 value="0.0087617004" flag="0"/>
      <psa30 value="0.0007642966" flag="0"/>
    </comp>
    <comp name="--.HHN">
      <acc value="0.0581207770" flag="0"/>
      <vel value="0.0192972630" flag="0"/>
      <psa03 value="0.0834203514" flag="0"/>
      <psa10 value="0.0066191035" flag="0"/>
      <psa30 value="0.0006020928" flag="0"/>
    </comp>
    <comp name="--.HHZ">
      <acc value="0.0300492483" flag="0"/>
      <vel value="0.0110818419" flag="0"/>
      <psa03 value="0.0497199704" flag="0"/>
      <psa10 value="0.0072433452" flag="0"/>
      <psa30 value="0.0006625566" flag="0"/>
    </comp>
  </station>
  <station code="ANDN" name="ANDN" netid="TU" insttype="T" lat="37.58" lon="36.3452">
    <comp name="--.HHZ">
      <acc value="0.0820924681" flag="0"/>
      <vel value="0.0275393087" flag="0"/>
      <psa03 value="0.1733362649" flag="0"/>
      <psa10 value="0.0403733232" flag="0"/>
      <psa30 value="0.0021497149" flag="0"/>
    </comp>
    <comp name="--.HHN">
      <acc value="0.3187633898" flag="0"/>
      <vel value="0.0866954826" flag="0"/>
      <psa03 value="0.3620309021" flag="0"/>
      <psa10 value="0.0449789326" flag="0"/>
      <psa30 value="0.0024001256" flag="0"/>
    </comp>
    <comp name="--.HHE">
      <acc value="0.1768884330" flag="0"/>
      <vel value="0.0672216392" flag="0"/>
      <psa03 value="0.2456919979" flag="0"/>
      <psa10 value="0.0455791424" flag="0"/>
      <psa30 value="0.0026669807" flag="0"/>
    </comp>
  </station>
</stationlist>
