<?xml version="1.0" encoding="UTF-8" standalone="yes"?>
<!DOCTYPE earthquake SYSTEM "stationlist.dtd">
<stationlist created="" xmlns="ch.ethz.sed.shakemap.usgs.xml">
  <station code="KOSP" name="KOSP" netid="HC" insttype="60" lat="36.881" lon="27.281">
    <comp name="--.HHZ">
      <acc value="0.0323663197" flag="0"/>
      <vel value="0.0106187411" flag="0"/>
      <psa03 value="0.0542984307" flag="0"/>
      <psa10 value="0.0159339681" flag="0"/>
      <psa30 value="0.0006907596" flag="0"/>
    </comp>
    <comp name="--.HHN">
      <acc value="0.0319077574" flag="0"/>
      <vel value="0.0143836532" flag="0"/>
      <psa03 value="0.0704398311" flag="0"/>
      <psa10 value="0.0131568278" flag="0"/>
      <psa30 value="0.0012041048" flag="0"/>
    </comp>
    <comp name="--.HHE">
      <acc value="0.0623912529" flag="0"/>
      <vel value="0.0301427611" flag="0"/>
      <psa03 value="0.1130315126" flag="0"/>
      <psa10 value="0.0362464487" flag="0"/>
      <psa30 value="0.0023918092" flag="0"/>
    </comp>
  </station>
  <station code="KLNA" name="KLNA" netid="HL" insttype="CMG-5" lat="36.9571" lon="26.9727">
    <comp name="00.HNN">
      <acc value="0.0399350588" flag="0"/>
      <vel value="0.0168798352" flag="0"/>
      <psa03 value="0.0667161659" flag="0"/>
      <psa10 value="0.0043575895" flag="0"/>
      <psa30 value="0.0003928770" flag="0"/>
    </comp>
    <comp name="00.HNZ">
      <acc value="0.0294495751" flag="0"/>
      <vel value="0.0086049418" flag="0"/>
      <psa03 value="0.0361125917" flag="0"/>
      <psa10 value="0.0018272372" flag="0"/>
      <psa30 value="0.0002201561" flag="0"/>
    </comp>
    <comp name="00.HNE">
      <acc value="0.0424590272" flag="0"/>
      <vel value="0.0164876392" flag="0"/>
      <psa03 value="0.0915013308" flag="0"/>
      <psa10 value="0.0049805957" flag="0"/>
      <psa30 value="0.0003973665" flag="0"/>
    </comp>
  </station>
  <station code="BODT" name="BODT" netid="KO" insttype="CMG-3ESP" lat="37.0622" lon="27.3103">
    <comp name="--.HHN">
      <acc value="0.1043406439" flag="0"/>
      <vel value="0.0620758032" flag="0"/>
      <psa03 value="0.2118410266" flag="0"/>
      <psa10 value="0.0348337085" flag="0"/>
      <psa30 value="0.0023566987" flag="0"/>
    </comp>
    <comp name="--.HHE">
      <acc value="0.1188522589" flag="0"/>
      <vel value="0.0609556942" flag="0"/>
      <psa03 value="0.2318790453" flag="0"/>
      <psa10 value="0.0357649678" flag="0"/>
      <psa30 value="0.0024592611" flag="0"/>
    </comp>
    <comp name="--.HHZ">
      <acc value="0.0701919621" flag="0"/>
      <vel value="0.0190608173" flag="0"/>
      <psa03 value="0.0725398852" flag="0"/>
      <psa10 value="0.0071805102" flag="0"/>
      <psa30 value="0.0004471212" flag="0"/>
    </comp>
  </station>
  <station code="DALY" name="DALY" netid="KO" insttype="CMG-3T" lat="36.8162" lon="28.6532">
    <comp name="--.HHN">
      <acc value="0.0343868502" flag="0"/>
      <vel value="0.0113987729" flag="0"/>
      <psa03 value="0.0594242009" flag="0"/>
      <psa10 value="0.0072501479" flag="0"/>
      <psa30 value="0.0006618070" flag="0"/>
    </comp>
    <comp name="--.HHE">
      <acc value="0.0238735122" flag="0"/>
      <vel value="0.0099994407" flag="0"/>
      <psa03 value="0.0399488402" flag="0"/>
      <psa10 value="0.0075722273" flag="0"/>
      <psa30 value="0.0007855354" flag="0"/>
    </comp>
    <comp name="--.HHZ">
      <acc value="0.0179460238" flag="0"/>
      <vel value="0.0069178883" flag="0"/>
      <psa03 value="0.0324592761" flag="0"/>
      <psa10 value="0.0045748648" flag="0"/>
      <psa30 value="0.0004616008" flag="0"/>
    </comp>
  </station>
  <station code="FETY" name="FETY" netid="KO" insttype="CMG-3ESP" lat="36.6353" lon="29.0835">
    <comp name="--.HHN">
      <acc value="0.0177311380" flag="0"/>
      <vel value="0.0070365875" flag="0"/>
      <psa03 value="0.0625086548" flag="0"/>
      <psa10 value="0.0076272621" flag="0"/>
      <psa30 value="0.0003835088" flag="0"/>
    </comp>
    <comp name="--.HHE">
      <acc value="0.0191468465" flag="0"/>
      <vel value="0.0077588081" flag="0"/>
      <psa03 value="0.0365108933" flag="0"/>
      <psa10 value="0.0061652254" flag="0"/>
      <psa30 value="0.0005389449" flag="0"/>
    </comp>
    <comp name="--.HHZ">
      <acc value="0.0111619609" flag="0"/>
      <vel value="0.0046040530" flag="0"/>
      <psa03 value="0.0326496574" flag="0"/>
      <psa10 value="0.0053218608" flag="0"/>
      <psa30 value="0.0002614915" flag="0"/>
    </comp>
  </station>
  <station code="MLSB" name="MLSB" netid="KO" insttype="CMG-3ESP" lat="37.2953" lon="27.7767">
    <comp name="--.HHE">
      <acc value="0.0253924628" flag="0"/>
      <vel value="0.0164585226" flag="0"/>
      <psa03 value="0.0753699190" flag="0"/>
      <psa10 value="0.0155705504" flag="0"/>
      <psa30 value="0.0006915861" flag="0"/>
    </comp>
    <comp name="--.HHN">
      <acc value="0.0145703792" flag="0"/>
      <vel value="0.0091311939" flag="0"/>
      <psa03 value="0.0493142076" flag="0"/>
      <psa10 value="0.0086568659" flag="0"/>
      <psa30 value="0.0007008981" flag="0"/>
    </comp>
    <comp name="--.HHZ">
      <acc value="0.0125719761" flag="0"/>
      <vel value="0.0066357277" flag="0"/>
      <psa03 value="0.0386015254" flag="0"/>
      <psa10 value="0.0077361074" flag="0"/>
      <psa30 value="0.0003212388" flag="0"/>
    </comp>
  </station>
  <station code="YER" name="YER" netid="KO" insttype="CMG-3T" lat="37.1336" lon="28.284">
    <comp name="--.HHE">
      <acc value="0.0270722440" flag="0"/>
      <vel value="0.0086495143" flag="0"/>
      <psa03 value="0.0314280600" flag="0"/>
      <psa10 value="0.0052101678" flag="0"/>
      <psa30 value="0.0002851252" flag="0"/>
    </comp>
    <comp name="--.HHN">
      <acc value="0.0222619114" flag="0"/>
      <vel value="0.0073043196" flag="0"/>
      <psa03 value="0.0494594394" flag="0"/>
      <psa10 value="0.0051158944" flag="0"/>
      <psa30 value="0.0005770979" flag="0"/>
    </comp>
    <comp name="--.HHZ">
      <acc value="0.0159341276" flag="0"/>
      <vel value="0.0052917660" flag="0"/>
      <psa03 value="0.0333120857" flag="0"/>
      <psa10 value="0.0039003384" flag="0"/>
      <psa30 value="0.0002864782" flag="0"/>
    </comp>
  </station>
</stationlist>
