<?xml version="1.0" encoding="UTF-8" standalone="yes"?>
<!DOCTYPE earthquake SYSTEM "stationlist.dtd">
<stationlist created="" xmlns="ch.ethz.sed.shakemap.usgs.xml">
  <station code="BALB" name="BALB" netid="KO" insttype="CMG-5T" lat="39.6507" lon="27.8642">
    <comp name="--.HNE">
      <acc value="0.0523531439" flag="0"/>
      <vel value="0.0189225669" flag="0"/>
      <psa03 value="0.0835146459" flag="0"/>
      <psa10 value="0.0088742326" flag="0"/>
      <psa30 value="0.0022642626" flag="0"/>
    </comp>
    <comp name="--.HNZ">
      <acc value="0.0454819469" flag="0"/>
      <vel value="0.0123727328" flag="0"/>
      <psa03 value="0.0439588560" flag="0"/>
      <psa10 value="0.0053800494" flag="0"/>
      <psa30 value="0.0019940473" flag="0"/>
    </comp>
    <comp name="--.HNN">
      <acc value="0.0781472355" flag="0"/>
      <vel value="0.0271696781" flag="0"/>
      <psa03 value="0.1068921425" flag="0"/>
      <psa10 value="0.0158335584" flag="0"/>
      <psa30 value="0.0013763013" flag="0"/>
    </comp>
  </station>
  <station code="BIGA" name="BIGA" netid="KO" insttype="CMG-5T" lat="40.2813" lon="27.1505">
    <comp name="--.HNE">
      <acc value="0.8381918210" flag="0"/>
      <vel value="0.3804430353" flag="0"/>
      <psa03 value="1.6700730087" flag="0"/>
      <psa10 value="0.1545732034" flag="0"/>
      <psa30 value="0.0256760394" flag="0"/>
    </comp>
    <comp name="--.HNN">
      <acc value="1.0870782856" flag="0"/>
      <vel value="0.2830159182" flag="0"/>
      <psa03 value="1.7165116528" flag="0"/>
      <psa10 value="0.3084683748" flag="0"/>
      <psa30 value="0.0175153908" flag="0"/>
    </comp>
    <comp name="--.HNZ">
      <acc value="0.8035783061" flag="0"/>
      <vel value="0.2201135664" flag="0"/>
      <psa03 value="0.8821407684" flag="0"/>
      <psa10 value="0.0573054774" flag="0"/>
      <psa30 value="0.0124716045" flag="0"/>
    </comp>
  </station>
  <station code="BMYO" name="BMYO" netid="KO" insttype="CMG-5T" lat="39.8098" lon="26.6009">
    <comp name="--.HNE">
      <acc value="0.1067137733" flag="0"/>
      <vel value="0.0532913079" flag="0"/>
      <psa03 value="0.2973994436" flag="0"/>
      <psa10 value="0.0627557187" flag="0"/>
      <psa30 value="0.0136662547" flag="0"/>
    </comp>
    <comp name="--.HNN">
      <acc value="0.0750137793" flag="0"/>
      <vel value="0.0440187438" flag="0"/>
      <psa03 value="0.1757040780" flag="0"/>
      <psa10 value="0.0347526165" flag="0"/>
      <psa30 value="0.0253884932" flag="0"/>
    </comp>
    <comp name="--.HNZ">
      <acc value="0.0548124243" flag="0"/>
      <vel value="0.0347876730" flag="0"/>
      <psa03 value="0.1060743677" flag="0"/>
      <psa10 value="0.0279353724" flag="0"/>
      <psa30 value="0.0122683402" flag="0"/>
    </comp>
  </station>
  <station code="CANM" name="CANM" netid="KO" insttype="CMG-5T" lat="40.0113" lon="27.0529">
    <comp name="--.HNE">
      <acc value="0.4949278829" flag="0"/>
      <vel value="0.2436059861" flag="0"/>
      <psa03 value="1.4630938882" flag="0"/>
      <psa10 value="0.1077884214" flag="0"/>
      <psa30 value="0.0138589808" flag="0"/>
    </comp>
    <comp name="--.HNZ">
      <acc value="0.5053816544" flag="0"/>
      <vel value="0.1622190118" flag="0"/>
      <psa03 value="0.6014688105" flag="0"/>
      <psa10 value="0.0562905026" flag="0"/>
      <psa30 value="0.0055799413" flag="0"/>
    </comp>
    <comp name="--.HNN">
      <acc value="0.4686569804" flag="0"/>
      <vel value="0.1604878068" flag="0"/>
      <psa03 value="0.8460878432" flag="0"/>
      <psa10 value="0.1304906632" flag="0"/>
      <psa30 value="0.0077147878" flag="0"/>
    </comp>
  </station>
  <station code="CRLU" name="CRLU" netid="KO" insttype="ACEBOX" lat="41.1428" lon="27.8215">
    <comp name="--.HNN">
      <acc value="0.5512591414" flag="0"/>
      <vel value="0.3172359657" flag="0"/>
      <psa03 value="1.7095021602" flag="0"/>
      <psa10 value="0.4179307770" flag="0"/>
      <psa30 value="0.0235449100" flag="0"/>
    </comp>
    <comp name="--.HNZ">
      <acc value="1.2541250324" flag="0"/>
      <vel value="0.4259676513" flag="0"/>
      <psa03 value="2.0874854159" flag="0"/>
      <psa10 value="0.1730461665" flag="0"/>
      <psa30 value="0.0162797734" flag="0"/>
    </comp>
    <comp name="--.HNE">
      <acc value="0.9224175631" flag="0"/>
      <vel value="0.5041995209" flag="0"/>
      <psa03 value="1.8479912010" flag="0"/>
      <psa10 value="0.4362953641" flag="0"/>
      <psa30 value="0.0297297125" flag="0"/>
    </comp>
  </station>
  <station code="DOGC" name="DOGC" netid="KO" insttype="CMG-5T" lat="41.3949" lon="26.9852">
    <comp name="--.HNE">
      <acc value="0.1136602112" flag="0"/>
      <vel value="0.0732753501" flag="0"/>
      <psa03 value="0.3602359145" flag="0"/>
      <psa10 value="0.0726445412" flag="0"/>
      <psa30 value="0.0041833790" flag="0"/>
    </comp>
    <comp name="--.HNZ">
      <acc value="0.0286632948" flag="0"/>
      <vel value="0.0137375833" flag="0"/>
      <psa03 value="0.0840672907" flag="0"/>
      <psa10 value="0.0140393494" flag="0"/>
      <psa30 value="0.0019438754" flag="0"/>
    </comp>
  </station>
  <station code="EDC" name="EDC" netid="KO" insttype="CMG-3T" lat="40.3465" lon="27.8618">
    <comp name="--.HHE">
      <acc value="0.0520171156" flag="0"/>
      <vel value="0.0151066870" flag="0"/>
      <psa03 value="0.1055999317" flag="0"/>
      <psa10 value="0.0108806980" flag="0"/>
      <psa30 value="0.0009807718" flag="0"/>
    </comp>
    <comp name="--.HHZ">
      <acc value="0.0362546152" flag="0"/>
      <vel value="0.0103906735" flag="0"/>
      <psa03 value="0.0454373883" flag="0"/>
      <psa10 value="0.0113672553" flag="0"/>
      <psa30 value="0.0007582807" flag="0"/>
    </comp>
    <comp name="--.HHN">
      <acc value="0.0562016697" flag="0"/>
      <vel value="0.0221360594" flag="0"/>
      <psa03 value="0.1423671879" flag="0"/>
      <psa10 value="0.0162637421" flag="0"/>
      <psa30 value="0.0011849443" flag="0"/>
    </comp>
  </station>
  <station code="ENEZ" name="ENEZ" netid="KO" insttype="CMG-3T" lat="40.7362" lon="26.153">
    <comp name="--.HHN">
      <acc value="0.0831336356" flag="0"/>
      <vel value="0.0329761202" flag="0"/>
      <psa03 value="0.2542853925" flag="0"/>
      <psa10 value="0.0136222070" flag="0"/>
      <psa30 value="0.0018471806" flag="0"/>
    </comp>
    <comp name="--.HHE">
      <acc value="0.0520348670" flag="0"/>
      <vel value="0.0239931670" flag="0"/>
      <psa03 value="0.1238576995" flag="0"/>
      <psa10 value="0.0242781398" flag="0"/>
      <psa30 value="0.0010784158" flag="0"/>
    </comp>
    <comp name="--.HHZ">
      <acc value="0.0508625990" flag="0"/>
      <vel value="0.0160133519" flag="0"/>
      <psa03 value="0.0783460248" flag="0"/>
      <psa10 value="0.0104827928" flag="0"/>
      <psa30 value="0.0013364457" flag="0"/>
    </comp>
  </station>
  <station code="ERIK" name="ERIK" netid="KO" insttype="CMG-3ESP" lat="40.6708" lon="26.5132">
    <comp name="--.HHE">
      <acc value="0.0828754969" flag="0"/>
      <vel value="0.0360738330" flag="0"/>
      <psa03 value="0.1842200528" flag="0"/>
      <psa10 value="0.0350350197" flag="0"/>
      <psa30 value="0.0024938033" flag="0"/>
    </comp>
    <comp name="--.HHN">
      <acc value="0.0968677382" flag="0"/>
      <vel value="0.0569770632" flag="0"/>
      <psa03 value="0.2492980081" flag="0"/>
      <psa10 value="0.0320978632" flag="0"/>
      <psa30 value="0.0032197768" flag="0"/>
    </comp>
    <comp name="--.HHZ">
      <acc value="0.0502071696" flag="0"/>
      <vel value="0.0187835211" flag="0"/>
      <psa03 value="0.1346307314" flag="0"/>
      <psa10 value="0.0240263144" flag="0"/>
      <psa30 value="0.0021430197" flag="0"/>
    </comp>
  </station>
  <station code="EZN" name="EZN" netid="KO" insttype="CMG-3ESP" lat="39.8255" lon="26.3246">
    <comp name="--.HHE">
      <acc value="0.1332008832" flag="0"/>
      <vel value="0.0244117994" flag="0"/>
      <psa03 value="0.1318223342" flag="0"/>
      <psa10 value="0.0201798494" flag="0"/>
      <psa30 value="0.0015991470" flag="0"/>
    </comp>
    <comp name="--.HHN">
      <acc value="0.1552978827" flag="0"/>
      <vel value="0.0237443306" flag="0"/>
      <psa03 value="0.1075661998" flag="0"/>
      <psa10 value="0.0136895071" flag="0"/>
      <psa30 value="0.0059781723" flag="0"/>
    </comp>
    <comp name="--.HHZ">
      <acc value="0.1120241238" flag="0"/>
      <vel value="0.0197238921" flag="0"/>
      <psa03 value="0.0980113887" flag="0"/>
      <psa10 value="0.0162721225" flag="0"/>
      <psa30 value="0.0040530897" flag="0"/>
    </comp>
  </station>
  <station code="EZNE" name="EZNE" netid="KO" insttype="CMG-5T" lat="39.756" lon="26.3655">
    <comp name="--.HNE">
      <acc value="0.0889141815" flag="0"/>
      <vel value="0.0292193659" flag="0"/>
      <psa03 value="0.1938863322" flag="0"/>
      <psa10 value="0.0228365068" flag="0"/>
      <psa30 value="0.0020102290" flag="0"/>
    </comp>
    <comp name="--.HNZ">
      <acc value="0.0733584411" flag="0"/>
      <vel value="0.0240490996" flag="0"/>
      <psa03 value="0.1589144444" flag="0"/>
      <psa10 value="0.0153031474" flag="0"/>
      <psa30 value="0.0024715368" flag="0"/>
    </comp>
    <comp name="--.HNN">
      <acc value="0.1128118580" flag="0"/>
      <vel value="0.0339829307" flag="0"/>
      <psa03 value="0.1886595099" flag="0"/>
      <psa10 value="0.0304776381" flag="0"/>
      <psa30 value="0.0059841962" flag="0"/>
    </comp>
  </station>
  <station code="GADA" name="GADA" netid="KO" insttype="CMG-3T" lat="40.1908" lon="25.8987">
    <comp name="--.HHE">
      <acc value="0.0590761775" flag="0"/>
      <vel value="0.0164689780" flag="0"/>
      <psa03 value="0.0702926594" flag="0"/>
      <psa10 value="0.0126632399" flag="0"/>
      <psa30 value="0.0009473026" flag="0"/>
    </comp>
    <comp name="--.HHZ">
      <acc value="0.0371106585" flag="0"/>
      <vel value="0.0228709127" flag="0"/>
      <psa03 value="0.0819289342" flag="0"/>
      <psa10 value="0.0105091217" flag="0"/>
      <psa30 value="0.0012476840" flag="0"/>
    </comp>
    <comp name="--.HHN">
      <acc value="0.0485000822" flag="0"/>
      <vel value="0.0310638601" flag="0"/>
      <psa03 value="0.0922795182" flag="0"/>
      <psa10 value="0.0156643827" flag="0"/>
      <psa30 value="0.0018225469" flag="0"/>
    </comp>
  </station>
  <station code="GAZK" name="GAZK" netid="KO" insttype="CMG-6T" lat="40.7479" lon="27.3275">
    <comp name="--.HHE">
      <acc value="0.1581927535" flag="0"/>
      <vel value="0.0563552761" flag="0"/>
      <psa03 value="0.3085566641" flag="0"/>
      <psa10 value="0.0429950308" flag="0"/>
      <psa30 value="0.0052270415" flag="0"/>
    </comp>
    <comp name="--.HHN">
      <acc value="0.2033474034" flag="0"/>
      <vel value="0.0778361032" flag="0"/>
      <psa03 value="0.2903022198" flag="0"/>
      <psa10 value="0.0644736548" flag="0"/>
      <psa30 value="0.0077198608" flag="0"/>
    </comp>
    <comp name="--.HHZ">
      <acc value="0.0930850882" flag="0"/>
      <vel value="0.0367923318" flag="0"/>
      <psa03 value="0.1741032940" flag="0"/>
      <psa10 value="0.0527898793" flag="0"/>
      <psa30 value="0.0040184068" flag="0"/>
    </comp>
  </station>
  <station code="GELI" name="GELI" netid="KO" insttype="CMG-3ESP" lat="40.398" lon="26.4742">
    <comp name="--.HHE">
      <acc value="0.0954913804" flag="0"/>
      <vel value="0.0688262126" flag="0"/>
      <psa03 value="0.3078583392" flag="0"/>
      <psa10 value="0.0636031448" flag="0"/>
      <psa30 value="0.0060034714" flag="0"/>
    </comp>
    <comp name="--.HHN">
      <acc value="0.0896133334" flag="0"/>
      <vel value="0.0532193326" flag="0"/>
      <psa03 value="0.2171597694" flag="0"/>
      <psa10 value="0.0570830386" flag="0"/>
      <psa30 value="0.0057636266" flag="0"/>
    </comp>
  </station>
  <station code="GONE" name="GONE" netid="KO" insttype="CMG-5T" lat="40.0466" lon="27.686">
    <comp name="--.HNZ">
      <acc value="0.0236515956" flag="0"/>
      <vel value="0.0100386534" flag="0"/>
      <psa03 value="0.0249142833" flag="0"/>
      <psa10 value="0.0116790940" flag="0"/>
      <psa30 value="0.0029383893" flag="0"/>
    </comp>
  </station>
  <station code="KCTX" name="KCTX" netid="KO" insttype="CMG-3ESP" lat="40.2626" lon="28.3353">
    <comp name="--.HHN">
      <acc value="0.0318496597" flag="0"/>
      <vel value="0.0217126946" flag="0"/>
      <psa03 value="0.0738251899" flag="0"/>
      <psa10 value="0.0363721262" flag="0"/>
      <psa30 value="0.0028992710" flag="0"/>
    </comp>
    <comp name="--.HHZ">
      <acc value="0.0195136343" flag="0"/>
      <vel value="0.0100624665" flag="0"/>
      <psa03 value="0.0311912094" flag="0"/>
      <psa10 value="0.0075958533" flag="0"/>
      <psa30 value="0.0008100584" flag="0"/>
    </comp>
    <comp name="--.HHE">
      <acc value="0.0272188514" flag="0"/>
      <vel value="0.0103476584" flag="0"/>
      <psa03 value="0.0585587577" flag="0"/>
      <psa10 value="0.0103044306" flag="0"/>
      <psa30 value="0.0008256854" flag="0"/>
    </comp>
  </station>
  <station code="KRBG" name="KRBG" netid="KO" insttype="CMG-3ESP" lat="40.3932" lon="27.2977">
    <comp name="--.HHN">
      <acc value="0.1989841912" flag="0"/>
      <vel value="0.0572975485" flag="0"/>
      <psa03 value="0.1694694201" flag="0"/>
      <psa10 value="0.0723411092" flag="0"/>
      <psa30 value="0.0094297698" flag="0"/>
    </comp>
    <comp name="--.HHE">
      <acc value="0.2988583619" flag="0"/>
      <vel value="0.0646970214" flag="0"/>
      <psa03 value="0.1531413233" flag="0"/>
      <psa10 value="0.0616269183" flag="0"/>
      <psa30 value="0.0072229880" flag="0"/>
    </comp>
    <comp name="--.HHZ">
      <acc value="0.1574970583" flag="0"/>
      <vel value="0.0357254156" flag="0"/>
      <psa03 value="0.1005651248" flag="0"/>
      <psa10 value="0.0329928670" flag="0"/>
      <psa30 value="0.0080059889" flag="0"/>
    </comp>
  </station>
  <station code="LAP" name="LAP" netid="KO" insttype="CMG-3ESP" lat="40.3703" lon="26.7593">
    <comp name="--.HHE">
      <acc value="0.3770519326" flag="0"/>
      <vel value="0.1633795468" flag="0"/>
      <psa03 value="0.8638520573" flag="0"/>
      <psa10 value="0.2114780901" flag="0"/>
      <psa30 value="0.0262605545" flag="0"/>
    </comp>
    <comp name="--.HHN">
      <acc value="0.4577321181" flag="0"/>
      <vel value="0.2763862790" flag="0"/>
      <psa03 value="1.2549561937" flag="0"/>
      <psa10 value="0.1787300182" flag="0"/>
      <psa30 value="0.0232673314" flag="0"/>
    </comp>
    <comp name="--.HHZ">
      <acc value="0.2238965631" flag="0"/>
      <vel value="0.0792752764" flag="0"/>
      <psa03 value="0.3439810187" flag="0"/>
      <psa10 value="0.0645373140" flag="0"/>
      <psa30 value="0.0150414462" flag="0"/>
    </comp>
  </station>
  <station code="LAPK" name="LAPK" netid="KO" insttype="CMG-5T" lat="40.3151" lon="26.6425">
    <comp name="--.HNN">
      <acc value="1.3171054926" flag="0"/>
      <vel value="0.4709697215" flag="0"/>
      <psa03 value="1.6013634032" flag="0"/>
      <psa10 value="0.5099240207" flag="0"/>
      <psa30 value="0.0535909646" flag="0"/>
    </comp>
    <comp name="--.HNZ">
      <acc value="0.3518952889" flag="0"/>
      <vel value="0.1019980853" flag="0"/>
      <psa03 value="0.7119625339" flag="0"/>
      <psa10 value="0.1350076748" flag="0"/>
      <psa30 value="0.0097001112" flag="0"/>
    </comp>
    <comp name="--.HNE">
      <acc value="1.1649041943" flag="0"/>
      <vel value="0.3494134886" flag="0"/>
      <psa03 value="1.9843202404" flag="0"/>
      <psa10 value="0.4174924124" flag="0"/>
      <psa30 value="0.0285156069" flag="0"/>
    </comp>
  </station>
  <station code="MRMT" name="MRMT" netid="KO" insttype="CMG-3T" lat="40.609" lon="27.5832">
    <comp name="--.HHE">
      <acc value="0.0925795059" flag="0"/>
      <vel value="0.0271007977" flag="0"/>
      <psa03 value="0.1548981130" flag="0"/>
      <psa10 value="0.0143667549" flag="0"/>
      <psa30 value="0.0027473009" flag="0"/>
    </comp>
    <comp name="--.HHN">
      <acc value="0.0804614166" flag="0"/>
      <vel value="0.0265349761" flag="0"/>
      <psa03 value="0.1668586422" flag="0"/>
      <psa10 value="0.0164718717" flag="0"/>
      <psa30 value="0.0020841544" flag="0"/>
    </comp>
    <comp name="--.HHZ">
      <acc value="0.0680646136" flag="0"/>
      <vel value="0.0175918720" flag="0"/>
      <psa03 value="0.0839514549" flag="0"/>
      <psa10 value="0.0124139361" flag="0"/>
      <psa30 value="0.0024819455" flag="0"/>
    </comp>
  </station>
  <station code="RKY" name="RKY" netid="KO" insttype="CMG-3ESP" lat="40.6874" lon="27.1776">
    <comp name="--.HHN">
      <acc value="0.2072742898" flag="0"/>
      <vel value="0.0522800656" flag="0"/>
      <psa03 value="0.1892740030" flag="0"/>
      <psa10 value="0.0412768014" flag="0"/>
      <psa30 value="0.0060745379" flag="0"/>
    </comp>
    <comp name="--.HHZ">
      <acc value="0.1147645638" flag="0"/>
      <vel value="0.0267080549" flag="0"/>
      <psa03 value="0.1025870371" flag="0"/>
      <psa10 value="0.0207613357" flag="0"/>
      <psa30 value="0.0034603271" flag="0"/>
    </comp>
    <comp name="--.HHE">
      <acc value="0.1518421901" flag="0"/>
      <vel value="0.0690597640" flag="0"/>
      <psa03 value="0.4294409981" flag="0"/>
      <psa10 value="0.0187923288" flag="0"/>
      <psa30 value="0.0054843935" flag="0"/>
    </comp>
  </station>
  <station code="SLVT" name="SLVT" netid="KO" insttype="CMG-3ESP" lat="41.2288" lon="28.2098">
    <comp name="--.HHN">
      <acc value="0.0511850024" flag="0"/>
      <vel value="0.0482840531" flag="0"/>
      <psa03 value="0.1475820645" flag="0"/>
      <psa10 value="0.0371852803" flag="0"/>
      <psa30 value="0.0037706138" flag="0"/>
    </comp>
    <comp name="--.HHE">
      <acc value="0.0571455161" flag="0"/>
      <vel value="0.0258707188" flag="0"/>
      <psa03 value="0.1436991946" flag="0"/>
      <psa10 value="0.0238032812" flag="0"/>
      <psa30 value="0.0028845420" flag="0"/>
    </comp>
    <comp name="--.HHZ">
      <acc value="0.0331582313" flag="0"/>
      <vel value="0.0126306821" flag="0"/>
      <psa03 value="0.0748491653" flag="0"/>
      <psa10 value="0.0177305070" flag="0"/>
      <psa30 value="0.0025426631" flag="0"/>
    </comp>
  </station>
  <station code="SOMA" name="SOMA" netid="KO" insttype="CMG-5T" lat="39.1564" lon="27.5341">
    <comp name="--.HNE">
      <acc value="0.0308040225" flag="0"/>
      <vel value="0.0182473532" flag="0"/>
      <psa03 value="0.0586408437" flag="0"/>
      <psa10 value="0.0369907256" flag="0"/>
      <psa30 value="0.0029277377" flag="0"/>
    </comp>
    <comp name="--.HNZ">
      <acc value="0.0222404519" flag="0"/>
      <vel value="0.0154002571" flag="0"/>
      <psa03 value="0.0546266470" flag="0"/>
      <psa10 value="0.0269099664" flag="0"/>
      <psa30 value="0.0016085873" flag="0"/>
    </comp>
    <comp name="--.HNN">
      <acc value="0.0394219293" flag="0"/>
      <vel value="0.0278371757" flag="0"/>
      <psa03 value="0.1178745294" flag="0"/>
      <psa10 value="0.0486755885" flag="0"/>
      <psa30 value="0.0033204435" flag="0"/>
    </comp>
  </station>
  <station code="SUSR" name="SUSR" netid="KO" insttype="CMG-5T" lat="39.9627" lon="28.0835">
    <comp name="--.HNE">
      <acc value="0.0402268003" flag="0"/>
      <vel value="0.0153213238" flag="0"/>
      <psa03 value="0.0789534719" flag="0"/>
      <psa10 value="0.0057411066" flag="0"/>
      <psa30 value="0.0013262734" flag="0"/>
    </comp>
    <comp name="--.HNZ">
      <acc value="0.0479053353" flag="0"/>
      <vel value="0.0109969610" flag="0"/>
      <psa03 value="0.0490784689" flag="0"/>
      <psa10 value="0.0033109185" flag="0"/>
      <psa30 value="0.0014708296" flag="0"/>
    </comp>
