<stationlist created="1709114471">
	<station code="MYT1" name="MYT1" netid="HI" source="ITSAK Strong Motion Network" insttype="" lat="39.085" lon="26.5694">
		<comp name=".HNE" depth="0.0">
			<acc value="0.032137546985916" flag="0"/>
			<vel value="0.0354728709938" flag="0"/>
			<psa03 value="0.104596637347279" flag="0"/>
			<psa10 value="0.0296358151023068" flag="0"/>
			<psa30 value="0.00291730450710824" flag="0"/>
		</comp>
		<comp name=".HNN" depth="0.0">
			<acc value="0.03574494076395" flag="0"/>
			<vel value="0.0257812444737" flag="0"/>
			<psa03 value="0.0986858291185404" flag="0"/>
			<psa10 value="0.0412900065101319" flag="0"/>
			<psa30 value="0.0025888402479593" flag="0"/>
		</comp>
		<comp name=".HNZ" depth="0.0">
			<acc value="0.023069394649866" flag="0"/>
			<vel value="0.0134482747247" flag="0"/>
			<psa03 value="0.0720976094460423" flag="0"/>
			<psa10 value="0.0125271554875878" flag="0"/>
			<psa30 value="0.00215873946422648" flag="0"/>
		</comp>
	</station>
	<station code="EFSA" name="EFSA" netid="HL" source="National Observatory of Athens Seismic Network" insttype="" lat="39.54015" lon="24.98864">
		<comp name="00.HNE" depth="0.0">
			<acc value="0.026556082105872" flag="0"/>
			<vel value="0.0184674464279" flag="0"/>
			<psa03 value="0.053963413353184" flag="0"/>
			<psa10 value="0.0188177190815566" flag="0"/>
			<psa30 value="0.00199513383449195" flag="0"/>
		</comp>
		<comp name="00.HNN" depth="0.0">
			<acc value="0.024392953826892" flag="0"/>
			<vel value="0.0160666907578" flag="0"/>
			<psa03 value="0.0976706472841563" flag="0"/>
			<psa10 value="0.0139917906374811" flag="0"/>
			<psa30 value="0.00198119936973378" flag="0"/>
		</comp>
		<comp name="00.HNZ" depth="0.0">
			<acc value="0.012153294781986" flag="0"/>
			<vel value="0.00849114140769" flag="0"/>
			<psa03 value="0.0452447524512249" flag="0"/>
			<psa10 value="0.0113286604681713" flag="0"/>
			<psa30 value="0.00078902117502841" flag="0"/>
		</comp>
	</station>
	<station code="LIA" name="LIA" netid="HL" source="National Observatory of Athens Seismic Network" insttype="" lat="39.89725" lon="25.18055">
		<comp name="00.HNE" depth="0.0">
			<acc value="0.042595233692946" flag="0"/>
			<vel value="0.0277483878053" flag="0"/>
			<psa03 value="0.100534784936085" flag="0"/>
			<psa10 value="0.0263941697342103" flag="0"/>
			<psa30 value="0.00181888986752874" flag="0"/>
		</comp>
		<comp name="00.HNN" depth="0.0">
			<acc value="0.046942621016748" flag="0"/>
			<vel value="0.0265302765762" flag="0"/>
			<psa03 value="0.10567337534264" flag="0"/>
			<psa10 value="0.0244121671862756" flag="0"/>
			<psa30 value="0.00133573723603792" flag="0"/>
		</comp>
		<comp name="00.HNZ" depth="0.0">
			<acc value="0.02053463989749" flag="0"/>
			<vel value="0.0116022056769" flag="0"/>
			<psa03 value="0.0646828578385998" flag="0"/>
			<psa10 value="0.0160326889619597" flag="0"/>
			<psa30 value="0.00084173425034581" flag="0"/>
		</comp>
	</station>
	<station code="PRK" name="PRK" netid="HL" source="National Observatory of Athens Seismic Network" insttype="" lat="39.24565" lon="26.26499">
		<comp name=".HNE" depth="0.0">
			<acc value="0.091817545224204" flag="0"/>
			<vel value="0.0546374077098" flag="0"/>
			<psa03 value="0.24838526680489" flag="0"/>
			<psa10 value="0.0725575565819671" flag="0"/>
			<psa30 value="0.00397302652684163" flag="0"/>
		</comp>
		<comp name=".HNN" depth="0.0">
			<acc value="0.07109378985603" flag="0"/>
			<vel value="0.064306715136" flag="0"/>
			<psa03 value="0.212828077982329" flag="0"/>
			<psa10 value="0.0726664262942884" flag="0"/>
			<psa30 value="0.0052558381734855" flag="0"/>
		</comp>
		<comp name=".HNZ" depth="0.0">
			<acc value="0.051967797044742" flag="0"/>
			<vel value="0.0314492760788" flag="0"/>
			<psa03 value="0.13867161339723" flag="0"/>
			<psa10 value="0.0278392979668736" flag="0"/>
			<psa30 value="0.00139470780921583" flag="0"/>
		</comp>
	</station>
	<station code="AKS" name="AKS" netid="KO" source="Bogazici University Kandilli Observatory And Earthquake Research Institute (KOERI)" insttype="" lat="38.8785" lon="27.8129">
		<comp name=".HNE" depth="0.0">
			<acc value="0.013724595533952" flag="0"/>
			<vel value="0.00837710223427" flag="0"/>
			<psa03 value="0.0484120664369967" flag="0"/>
			<psa10 value="0.0117363040350373" flag="0"/>
			<psa30 value="0.0012143847178611" flag="0"/>
		</comp>
		<comp name=".HNN" depth="0.0">
			<acc value="0.018072722157528" flag="0"/>
			<vel value="0.00952580987844" flag="0"/>
			<psa03 value="0.0442373367564506" flag="0"/>
			<psa10 value="0.00825176070115863" flag="0"/>
			<psa30 value="0.00136293820463269" flag="0"/>
		</comp>
		<comp name=".HNZ" depth="0.0">
			<acc value="0.0084685269973272" flag="0"/>
			<vel value="0.00519155436074" flag="0"/>
			<psa03 value="0.0145426612966178" flag="0"/>
			<psa10 value="0.00423620984685386" flag="0"/>
			<psa30 value="0.00105309444983863" flag="0"/>
		</comp>
	</station>
	<station code="AVCI" name="AVCI" netid="KO" source="Bogazici University Kandilli Observatory And Earthquake Research Institute (KOERI)" insttype="" lat="40.9958" lon="28.7225">
		<comp name=".HNE" depth="0.0">
			<acc value="0.030400532565534" flag="0"/>
			<vel value="0.0211190253637" flag="0"/>
			<psa03 value="0.109118770249832" flag="0"/>
			<psa10 value="0.0251362220263667" flag="0"/>
			<psa30 value="0.00401708111190895" flag="0"/>
		</comp>
		<comp name=".HNN" depth="0.0">
			<acc value="0.030875817316272" flag="0"/>
			<vel value="0.0315343372218" flag="0"/>
			<psa03 value="0.0680272929328329" flag="0"/>
			<psa10 value="0.0403266764445008" flag="0"/>
			<psa30 value="0.00529394861475871" flag="0"/>
		</comp>
		<comp name=".HNZ" depth="0.0">
			<acc value="0.021524960508792" flag="0"/>
			<vel value="0.0133880353125" flag="0"/>
			<psa03 value="0.0746307407952839" flag="0"/>
			<psa10 value="0.0139319957388235" flag="0"/>
			<psa30 value="0.00337583904943679" flag="0"/>
		</comp>
	</station>
	<station code="BIGA" name="BIGA" netid="KO" source="Bogazici University Kandilli Observatory And Earthquake Research Institute (KOERI)" insttype="" lat="40.28134" lon="27.15048">
		<comp name=".HNE" depth="0.0">
			<acc value="0.81771470303922" flag="0"/>
			<vel value="0.377755503557" flag="0"/>
			<psa03 value="1.69356369028314" flag="0"/>
			<psa10 value="0.154138960949806" flag="0"/>
			<psa30 value="0.0287171423697441" flag="0"/>
		</comp>
		<comp name=".HNN" depth="0.0">
			<acc value="1.0665357397758" flag="0"/>
			<vel value="0.276765494216" flag="0"/>
			<psa03 value="1.70909638591405" flag="0"/>
			<psa10 value="0.30910963699622" flag="0"/>
			<psa30 value="0.0196927095453826" flag="0"/>
		</comp>
		<comp name=".HNZ" depth="0.0">
			<acc value="0.78953468158596" flag="0"/>
			<vel value="0.222630063451" flag="0"/>
			<psa03 value="0.892764557939119" flag="0"/>
			<psa10 value="0.0570894956487318" flag="0"/>
			<psa30 value="0.0137403260625142" flag="0"/>
		</comp>
	</station>
	<station code="BOTS" name="BOTS" netid="KO" source="Bogazici University Kandilli Observatory And Earthquake Research Institute (KOERI)" insttype="" lat="40.9902" lon="27.981">
		<comp name=".HNE" depth="0.0">
			<acc value="0.11457489613488" flag="0"/>
			<vel value="0.0578002885152" flag="0"/>
			<psa03 value="0.394769859899199" flag="0"/>
			<psa10 value="0.0351961265706631" flag="0"/>
			<psa30 value="0.00207345923149995" flag="0"/>
		</comp>
		<comp name=".HNN" depth="0.0">
			<acc value="0.056041584239736" flag="0"/>
			<vel value="0.0212500158933" flag="0"/>
			<psa03 value="0.141266097768882" flag="0"/>
			<psa10 value="0.0156641651740611" flag="0"/>
			<psa30 value="0.00164026813887997" flag="0"/>
		</comp>
		<comp name=".HNZ" depth="0.0">
			<acc value="0.024938973877698" flag="0"/>
			<vel value="0.0136243612387" flag="0"/>
			<psa03 value="0.109429342907114" flag="0"/>
			<psa10 value="0.0076522211408555" flag="0"/>
			<psa30 value="0.00101261385152928" flag="0"/>
		</comp>
	</station>
	<station code="BRGA" name="BRGA" netid="KO" source="Bogazici University Kandilli Observatory And Earthquake Research Institute (KOERI)" insttype="" lat="40.8846" lon="29.065">
		<comp name=".HNE" depth="0.0">
			<acc value="0.023041339949808" flag="0"/>
			<vel value="0.00999728578972" flag="0"/>
			<psa03 value="0.0458495373068017" flag="0"/>
			<psa10 value="0.00825166131956795" flag="0"/>
			<psa30 value="0.000833282440455298" flag="0"/>
		</comp>
		<comp name=".HNN" depth="0.0">
			<acc value="0.021084221763612" flag="0"/>
			<vel value="0.00896235534537" flag="0"/>
			<psa03 value="0.0347432546950993" flag="0"/>
			<psa10 value="0.00554717341052247" flag="0"/>
			<psa30 value="0.000643130833427262" flag="0"/>
		</comp>
		<comp name=".HNZ" depth="0.0">
			<acc value="0.012828265979958" flag="0"/>
			<vel value="0.00527080542393" flag="0"/>
			<psa03 value="0.0376494367987638" flag="0"/>
			<psa10 value="0.00553229898767127" flag="0"/>
			<psa30 value="0.000578994865984109" flag="0"/>
		</comp>
	</station>
	<station code="CANM" name="CANM" netid="KO" source="Bogazici University Kandilli Observatory And Earthquake Research Institute (KOERI)" insttype="" lat="40.0113" lon="27.0529">
		<comp name=".HNE" depth="0.0">
			<acc value="0.49219005268986" flag="0"/>
			<vel value="0.241378625498" flag="0"/>
			<psa03 value="1.4687958005136" flag="0"/>
			<psa10 value="0.108001199549519" flag="0"/>
			<psa30 value="0.0162726263149771" flag="0"/>
		</comp>
		<comp name=".HNN" depth="0.0">
			<acc value="0.4613838568461" flag="0"/>
			<vel value="0.162153286766" flag="0"/>
			<psa03 value="0.859830542887282" flag="0"/>
			<psa10 value="0.130984282065801" flag="0"/>
			<psa30 value="0.00838353703484628" flag="0"/>
		</comp>
		<comp name=".HNZ" depth="0.0">
			<acc value="0.4983638895516" flag="0"/>
			<vel value="0.161963243748" flag="0"/>
			<psa03 value="0.604079308955598" flag="0"/>
			<psa10 value="0.056415470998271" flag="0"/>
			<psa30 value="0.00653031801820155" flag="0"/>
		</comp>
	</station>
	<station code="CTYL" name="CTYL" netid="KO" source="Bogazici University Kandilli Observatory And Earthquake Research Institute (KOERI)" insttype="" lat="41.476" lon="28.2897">
		<comp name=".HNE" depth="0.0">
			<acc value="0.032609812683942" flag="0"/>
			<vel value="0.0168231602479" flag="0"/>
			<psa03 value="0.0953127723367482" flag="0"/>
			<psa10 value="0.00928090668953799" flag="0"/>
			<psa30 value="0.00101022786013673" flag="0"/>
		</comp>
		<comp name=".HNN" depth="0.0">
			<acc value="0.03238114366713" flag="0"/>
			<vel value="0.0162031862638" flag="0"/>
			<psa03 value="0.0694703937390915" flag="0"/>
			<psa10 value="0.014295579511976" flag="0"/>
			<psa30 value="0.000913681881108589" flag="0"/>
		</comp>
		<comp name=".HNZ" depth="0.0">
			<acc value="0.024015663837258" flag="0"/>
			<vel value="0.0140844631577" flag="0"/>
			<psa03 value="0.0628094576931964" flag="0"/>
			<psa10 value="0.00808545499672982" flag="0"/>
			<psa30 value="0.000726194981854658" flag="0"/>
		</comp>
	</station>
	<station code="DST" name="DST" netid="KO" source="Bogazici University Kandilli Observatory And Earthquake Research Institute (KOERI)" insttype="" lat="39.6041" lon="28.6267">
		<comp name=".HNE" depth="0.0">
			<acc value="0.021615825444702" flag="0"/>
			<vel value="0.00938981676079" flag="0"/>
			<psa03 value="0.0487823774263792" flag="0"/>
			<psa10 value="0.0145687129182189" flag="0"/>
			<psa30 value="0.000979086838863585" flag="0"/>
		</comp>
		<comp name=".HNN" depth="0.0">
			<acc value="0.026485832217276" flag="0"/>
			<vel value="0.0163474849407" flag="0"/>
			<psa03 value="0.0422122963574858" flag="0"/>
			<psa10 value="0.0180041326854194" flag="0"/>
			<psa30 value="0.000934866826171776" flag="0"/>
		</comp>
		<comp name=".HNZ" depth="0.0">
			<acc value="0.019458225228306" flag="0"/>
			<vel value="0.0113845293392" flag="0"/>
			<psa03 value="0.0437530598838115" flag="0"/>
			<psa10 value="0.0141392991591671" flag="0"/>
			<psa30 value="0.00132468973336124" flag="0"/>
		</comp>
	</station>
	<station code="EDC" name="EDC" netid="KO" source="Bogazici University Kandilli Observatory And Earthquake Research Institute (KOERI)" insttype="" lat="40.3465" lon="27.8618">
		<comp name=".HNE" depth="0.0">
			<acc value="0.05057923197201" flag="0"/>
			<vel value="0.0154147176559" flag="0"/>
			<psa03 value="0.102940902663087" flag="0"/>
			<psa10 value="0.0111826604838555" flag="0"/>
			<psa30 value="0.00138814799966104" flag="0"/>
		</comp>
		<comp name=".HNN" depth="0.0">
			<acc value="0.056839415582658" flag="0"/>
			<vel value="0.0220532388281" flag="0"/>
			<psa03 value="0.143560343501679" flag="0"/>
			<psa10 value="0.0157997554062678" flag="0"/>
			<psa30 value="0.00132908523287559" flag="0"/>
		</comp>
		<comp name=".HNZ" depth="0.0">
			<acc value="0.037102080393114" flag="0"/>
			<vel value="0.0101409558643" flag="0"/>
			<psa03 value="0.0453333364445552" flag="0"/>
			<psa10 value="0.0111358283189591" flag="0"/>
			<psa30 value="0.000847895752267367" flag="0"/>
		</comp>
	</station>
	<station code="ENZZ" name="ENZZ" netid="KO" source="Bogazici University Kandilli Observatory And Earthquake Research Institute (KOERI)" insttype="" lat="40.607" lon="26.1406">
		<comp name=".HNE" depth="0.0">
			<acc value="0.2119104601008" flag="0"/>
			<vel value="0.135697661991" flag="0"/>
			<psa03 value="0.364294382715001" flag="0"/>
			<psa10 value="0.109931984954334" flag="0"/>
			<psa30 value="0.00699375580198315" flag="0"/>
		</comp>
		<comp name=".HNN" depth="0.0">
			<acc value="0.15377496164436" flag="0"/>
			<vel value="0.0966414252068" flag="0"/>
			<psa03 value="0.236532669128582" flag="0"/>
			<psa10 value="0.100024563636333" flag="0"/>
			<psa30 value="0.00530975674534195" flag="0"/>
		</comp>
		<comp name=".HNZ" depth="0.0">
			<acc value="0.058373851263798" flag="0"/>
			<vel value="0.0271217831235" flag="0"/>
			<psa03 value="0.12612515725581" flag="0"/>
			<psa10 value="0.0229547250128893" flag="0"/>
			<psa30 value="0.00373047420894104" flag="0"/>
		</comp>
	</station>
	<station code="EZNE" name="EZNE" netid="KO" source="Bogazici University Kandilli Observatory And Earthquake Research Institute (KOERI)" insttype="" lat="39.756" lon="26.3655">
		<comp name=".HNE" depth="0.0">
			<acc value="0.086061757632168" flag="0"/>
			<vel value="0.0295142159646" flag="0"/>
			<psa03 value="0.19183279131425" flag="0"/>
			<psa10 value="0.022845544030164" flag="0"/>
			<psa30 value="0.00269278338368187" flag="0"/>
		</comp>
		<comp name=".HNN" depth="0.0">
			<acc value="0.11164914974868" flag="0"/>
			<vel value="0.0355690540568" flag="0"/>
			<psa03 value="0.189410568353916" flag="0"/>
			<psa10 value="0.0305524920776744" flag="0"/>
			<psa30 value="0.00711981415274245" flag="0"/>
		</comp>
		<comp name=".HNZ" depth="0.0">
			<acc value="0.071827624973502" flag="0"/>
			<vel value="0.023750410434" flag="0"/>
			<psa03 value="0.159892039979695" flag="0"/>
			<psa10 value="0.0153493074413045" flag="0"/>
			<psa30 value="0.00282424292556699" flag="0"/>
		</comp>
	</station>
	<station code="FOCM" name="FOCM" netid="KO" source="Bogazici University Kandilli Observatory And Earthquake Research Institute (KOERI)" insttype="" lat="38.7131" lon="26.7309">
		<comp name=".HNE" depth="0.0">
			<acc value="0.012157341420132" flag="0"/>
			<vel value="0.00791938050991" flag="0"/>
			<psa03 value="0.0386824323129641" flag="0"/>
			<psa10 value="0.00571218762315286" flag="0"/>
			<psa30 value="0.000760900614263766" flag="0"/>
		</comp>
		<comp name=".HNN" depth="0.0">
			<acc value="0.014027802493452" flag="0"/>
			<vel value="0.00969220955044" flag="0"/>
			<psa03 value="0.0336637404742735" flag="0"/>
			<psa10 value="0.0107241091695976" flag="0"/>
			<psa30 value="0.00118696727659164" flag="0"/>
		</comp>
		<comp name=".HNZ" depth="0.0">
			<acc value="0.0068014215058572" flag="0"/>
			<vel value="0.0049183812754" flag="0"/>
			<psa03 value="0.0197855099116936" flag="0"/>
			<psa10 value="0.00366648335527736" flag="0"/>
			<psa30 value="0.000990672606366234" flag="0"/>
		</comp>
	</station>
	<station code="GOKC" name="GOKC" netid="KO" source="Bogazici University Kandilli Observatory And Earthquake Research Institute (KOERI)" insttype="" lat="40.1998" lon="25.9183">
		<comp name=".HNE" depth="0.0">
			<acc value="0.09226962761868" flag="0"/>
			<vel value="0.045559664624" flag="0"/>
			<psa03 value="0.161767080858503" flag="0"/>
			<psa10 value="0.0494490695081382" flag="0"/>
			<psa30 value="0.0102857097111026" flag="0"/>
		</comp>
		<comp name=".HNN" depth="0.0">
			<acc value="0.097629304904466" flag="0"/>
			<vel value="0.0495095338253" flag="0"/>
			<psa03 value="0.178756987606448" flag="0"/>
			<psa10 value="0.0472400719231231" flag="0"/>
			<psa30 value="0.00990861889738877" flag="0"/>
		</comp>
		<comp name=".HNZ" depth="0.0">
			<acc value="0.065407734159258" flag="0"/>
			<vel value="0.0357064145473" flag="0"/>
			<psa03 value="0.145374817868352" flag="0"/>
			<psa10 value="0.0221239456028127" flag="0"/>
			<psa30 value="0.0116555137872313" flag="0"/>
		</comp>
	</station>
	<station code="GOMA" name="GOMA" netid="KO" source="Bogazici University Kandilli Observatory And Earthquake Research Institute (KOERI)" insttype="" lat="38.7077" lon="27.9175">
		<comp name=".HNE" depth="0.0">
			<acc value="0.011240496548202" flag="0"/>
			<vel value="0.00723470630796" flag="0"/>
			<psa03 value="0.0304727009585544" flag="0"/>
			<psa10 value="0.00782618579015984" flag="0"/>
			<psa30 value="0.00135355185366864" flag="0"/>
		</comp>
		<comp name=".HNN" depth="0.0">
			<acc value="0.010412813624874" flag="0"/>
			<vel value="0.00704300949087" flag="0"/>
			<psa03 value="0.0466505695377827" flag="0"/>
			<psa10 value="0.00687709916781153" flag="0"/>
			<psa30 value="0.000860165106714853" flag="0"/>
		</comp>
		<comp name=".HNZ" depth="0.0">
			<acc value="0.0076415377565478" flag="0"/>
			<vel value="0.00389058003951" flag="0"/>
			<psa03 value="0.0204949149792129" flag="0"/>
			<psa10 value="0.00684578974996424" flag="0"/>
			<psa30 value="0.00110942391055516" flag="0"/>
		</comp>
	</station>
	<station code="GONE" name="GONE" netid="KO" source="Bogazici University Kandilli Observatory And Earthquake Research Institute (KOERI)" insttype="" lat="40.0466" lon="27.686">
		<comp name=".HNE" depth="0.0">
			<acc value="0.02879685996861" flag="0"/>
			<vel value="0.0132867369233" flag="0"/>
			<psa03 value="0.0439871535163717" flag="0"/>
			<psa10 value="0.0171783261047928" flag="0"/>
			<psa30 value="0.00584141404836511" flag="0"/>
		</comp>
		<comp name=".HNN" depth="0.0">
			<acc value="0.038408617845942" flag="0"/>
			<vel value="0.0169215943838" flag="0"/>
			<psa03 value="0.0647880106379224" flag="0"/>
			<psa10 value="0.0260987814161823" flag="0"/>
			<psa30 value="0.00690450822311632" flag="0"/>
		</comp>
		<comp name=".HNZ" depth="0.0">
			<acc value="0.023645515816122" flag="0"/>
			<vel value="0.0108661577844" flag="0"/>
			<psa03 value="0.0254842585195487" flag="0"/>
			<psa10 value="0.0116888605796445" flag="0"/>
			<psa30 value="0.00335375987846668" flag="0"/>
		</comp>
	</station>
	<station code="GORD" name="GORD" netid="KO" source="Bogazici University Kandilli Observatory And Earthquake Research Institute (KOERI)" insttype="" lat="38.9088" lon="28.1769">
		<comp name=".HNE" depth="0.0">
			<acc value="0.0054868461038628" flag="0"/>
			<vel value="0.00735778378586" flag="0"/>
			<psa03 value="0.0158246303353647" flag="0"/>
			<psa10 value="0.00969209142848484" flag="0"/>
			<psa30 value="0.000999156397543089" flag="0"/>
		</comp>
		<comp name=".HNN" depth="0.0">
			<acc value="0.007183305663201" flag="0"/>
			<vel value="0.00986185346106" flag="0"/>
			<psa03 value="0.0208369402408699" flag="0"/>
			<psa10 value="0.0226702836700233" flag="0"/>
			<psa30 value="0.000808389333074088" flag="0"/>
		</comp>
		<comp name=".HNZ" depth="0.0">
			<acc value="0.0046490015665926" flag="0"/>
