<?xml version="1.0" encoding="UTF-8" standalone="yes"?>
<!DOCTYPE earthquake SYSTEM "stationlist.dtd">
<stationlist created="" xmlns="ch.ethz.sed.shakemap.usgs.xml">
  <station code="IMOD" name="IMOD" netid="HC" insttype="120" lat="34.9731" lon="24.7995">
    <comp name="--.HHE">
      <acc value="0.0671271787" flag="0"/>
      <vel value="0.0289297216" flag="0"/>
      <psa03 value="0.2260424929" flag="0"/>
      <psa10 value="0.0160497885" flag="0"/>
      <psa30 value="0.0008832199" flag="0"/>
    </comp>
    <comp name="--.HHN">
      <acc value="0.0514474052" flag="0"/>
      <vel value="0.0324745737" flag="0"/>
      <psa03 value="0.2037545034" flag="0"/>
      <psa10 value="0.0233724112" flag="0"/>
      <psa30 value="0.0015344429" flag="0"/>
    </comp>
    <comp name="--.HHZ">
      <acc value="0.0474593676" flag="0"/>
      <vel value="0.0143545407" flag="0"/>
      <psa03 value="0.0778027644" flag="0"/>
      <psa10 value="0.0107209967" flag="0"/>
      <psa30 value="0.0005201808" flag="0"/>
    </comp>
  </station>
  <station code="KNSS" name="KNSS" netid="HC" insttype="60" lat="35.3042" lon="25.1802">
    <comp name="--.HHN">
      <acc value="0.0873274202" flag="0"/>
      <vel value="0.0391727069" flag="0"/>
      <psa03 value="0.2903723312" flag="0"/>
      <psa10 value="0.0227863849" flag="0"/>
      <psa30 value="0.0019575941" flag="0"/>
    </comp>
    <comp name="--.HHE">
      <acc value="0.1084621820" flag="0"/>
      <vel value="0.0457613344" flag="0"/>
      <psa03 value="0.2864683943" flag="0"/>
      <psa10 value="0.0229163581" flag="0"/>
      <psa30 value="0.0025668096" flag="0"/>
    </comp>
    <comp name="--.HHZ">
      <acc value="0.1204111764" flag="0"/>
      <vel value="0.0220332359" flag="0"/>
      <psa03 value="0.1260490745" flag="0"/>
      <psa10 value="0.0132909967" flag="0"/>
      <psa30 value="0.0007918714" flag="0"/>
    </comp>
  </station>
  <station code="PFKS" name="PFKS" netid="HC" insttype="120" lat="35.0429" lon="25.4733">
    <comp name="--.HHZ">
      <acc value="0.0824368857" flag="0"/>
      <vel value="0.0199751746" flag="0"/>
      <psa03 value="0.0413377777" flag="0"/>
      <psa10 value="0.0068461074" flag="0"/>
      <psa30 value="0.0006316640" flag="0"/>
    </comp>
    <comp name="--.HHE">
      <acc value="0.1226981892" flag="0"/>
      <vel value="0.0297537793" flag="0"/>
      <psa03 value="0.1540407757" flag="0"/>
      <psa10 value="0.0126526795" flag="0"/>
      <psa30 value="0.0009915793" flag="0"/>
    </comp>
    <comp name="--.HHN">
      <acc value="0.1727265970" flag="0"/>
      <vel value="0.0488560989" flag="0"/>
      <psa03 value="0.2742964535" flag="0"/>
      <psa10 value="0.0132328043" flag="0"/>
      <psa30 value="0.0009640936" flag="0"/>
    </comp>
  </station>
  <station code="STIA" name="STIA" netid="HC" insttype="120" lat="35.2021" lon="26.0909">
    <comp name="--.HHE">
      <acc value="0.0078240905" flag="0"/>
      <vel value="0.0041041698" flag="0"/>
      <psa03 value="0.0166108304" flag="0"/>
      <psa10 value="0.0038470125" flag="0"/>
      <psa30 value="0.0002622392" flag="0"/>
    </comp>
    <comp name="--.HHN">
      <acc value="0.0076283270" flag="0"/>
      <vel value="0.0030678461" flag="0"/>
      <psa03 value="0.0159471876" flag="0"/>
      <psa10 value="0.0029746788" flag="0"/>
      <psa30 value="0.0002353156" flag="0"/>
    </comp>
    <comp name="--.HHZ">
      <acc value="0.0073871052" flag="0"/>
      <vel value="0.0030838324" flag="0"/>
      <psa03 value="0.0120582750" flag="0"/>
      <psa10 value="0.0020878803" flag="0"/>
      <psa30 value="0.0002809282" flag="0"/>
    </comp>
  </station>
  <station code="IDI" name="IDI" netid="HL" insttype="120" lat="35.288" lon="24.89">
    <comp name="--.HHZ">
      <acc value="0.0565297658" flag="0"/>
      <vel value="0.0121532348" flag="0"/>
      <psa03 value="0.0670559001" flag="0"/>
      <psa10 value="0.0043571905" flag="0"/>
      <psa30 value="0.0005835242" flag="0"/>
    </comp>
    <comp name="--.HHN">
      <acc value="0.0638018750" flag="0"/>
      <vel value="0.0109065891" flag="0"/>
      <psa03 value="0.0581031045" flag="0"/>
      <psa10 value="0.0027566620" flag="0"/>
      <psa30 value="0.0003061834" flag="0"/>
    </comp>
    <comp name="--.HHE">
      <acc value="0.0543737171" flag="0"/>
      <vel value="0.0103836041" flag="0"/>
      <psa03 value="0.0581697742" flag="0"/>
      <psa10 value="0.0054111623" flag="0"/>
      <psa30 value="0.0005474173" flag="0"/>
    </comp>
  </station>
  <station code="NPS" name="NPS" netid="HL" insttype="CMG3ESPC-120s" lat="35.2613" lon="25.6104">
    <comp name="--.HHE">
      <acc value="0.0105276116" flag="0"/>
      <vel value="0.0028224414" flag="0"/>
      <psa03 value="0.0102322364" flag="0"/>
      <psa10 value="0.0024981205" flag="0"/>
      <psa30 value="0.0001932969" flag="0"/>
    </comp>
    <comp name="--.HHN">
      <acc value="0.0186057641" flag="0"/>
      <vel value="0.0059432335" flag="0"/>
      <psa03 value="0.0178411218" flag="0"/>
      <psa10 value="0.0056232205" flag="0"/>
      <psa30 value="0.0004556586" flag="0"/>
    </comp>
    <comp name="--.HHZ">
      <acc value="0.0168239276" flag="0"/>
      <vel value="0.0047587935" flag="0"/>
      <psa03 value="0.0175909559" flag="0"/>
      <psa10 value="0.0061600669" flag="0"/>
      <psa30 value="0.0003599455" flag="0"/>
    </comp>
  </station>
  <station code="SIVA" name="SIVA" netid="HL" insttype="60" lat="35.0178" lon="24.812">
    <comp name="--.HHZ">
      <acc value="0.0819543169" flag="0"/>
      <vel value="0.0317827113" flag="0"/>
      <psa03 value="0.1718170363" flag="0"/>
      <psa10 value="0.0103654795" flag="0"/>
      <psa30 value="0.0008391789" flag="0"/>
    </comp>
    <comp name="--.HHN">
      <acc value="0.1479427374" flag="0"/>
      <vel value="0.0702752757" flag="0"/>
      <psa03 value="0.3340350988" flag="0"/>
      <psa10 value="0.0240345287" flag="0"/>
      <psa30 value="0.0015716267" flag="0"/>
    </comp>
    <comp name="--.HHE">
      <acc value="0.2246955255" flag="0"/>
      <vel value="0.0746758990" flag="0"/>
      <psa03 value="0.3289447893" flag="0"/>
      <psa10 value="0.0183193761" flag="0"/>
      <psa30 value="0.0014470167" flag="0"/>
    </comp>
  </station>
  <station code="VAM" name="VAM" netid="HL" insttype="CMG3ESPC-120s" lat="35.407" lon="24.1997">
    <comp name="--.HHZ">
      <acc value="0.0137803863" flag="0"/>
      <vel value="0.0038280884" flag="0"/>
      <psa03 value="0.0290944211" flag="0"/>
      <psa10 value="0.0023135472" flag="0"/>
      <psa30 value="0.0001727022" flag="0"/>
    </comp>
    <comp name="--.HHE">
      <acc value="0.0193631072" flag="0"/>
      <vel value="0.0063414600" flag="0"/>
      <psa03 value="0.0408051555" flag="0"/>
      <psa10 value="0.0032242755" flag="0"/>
      <psa30 value="0.0002170865" flag="0"/>
    </comp>
    <comp name="--.HHN">
      <acc value="0.0327126776" flag="0"/>
      <vel value="0.0088115571" flag="0"/>
      <psa03 value="0.0380483388" flag="0"/>
      <psa10 value="0.0047725706" flag="0"/>
      <psa30 value="0.0002938037" flag="0"/>
    </comp>
  </station>
  <station code="IDI" name="IDI" netid="MN" insttype="" lat="35.288" lon="24.89">
    <comp name="--.HHN">
      <acc value="0.0773670664" flag="0"/>
      <vel value="0.0116231273" flag="0"/>
      <psa03 value="0.0592218269" flag="0"/>
      <psa10 value="0.0027850848" flag="0"/>
      <psa30 value="0.0003078844" flag="0"/>
    </comp>
    <comp name="--.HHZ">
      <acc value="0.0616507894" flag="0"/>
      <vel value="0.0122113952" flag="0"/>
      <psa03 value="0.0685231686" flag="0"/>
      <psa10 value="0.0043242338" flag="0"/>
      <psa30 value="0.0005815154" flag="0"/>
    </comp>
    <comp name="--.HHE">
      <acc value="0.0679979812" flag="0"/>
      <vel value="0.0112159431" flag="0"/>
      <psa03 value="0.0586444621" flag="0"/>
      <psa10 value="0.0054009175" flag="0"/>
      <psa30 value="0.0005444284" flag="0"/>
    </comp>
  </station>
</stationlist>
