<?xml version="1.0" encoding="UTF-8" standalone="yes"?>
<!DOCTYPE earthquake SYSTEM "stationlist.dtd">
<stationlist created="" xmlns="ch.ethz.sed.shakemap.usgs.xml">
  <station code="APE" name="APE" netid="GE" insttype="STS-2/N" lat="37.0727" lon="25.523">
    <comp name="--.HHE">
      <acc value="0.1669632423" flag="0"/>
      <vel value="0.0329191512" flag="0"/>
      <psa03 value="0.1153896940" flag="0"/>
      <psa10 value="0.0150418888" flag="0"/>
      <psa30 value="0.0022790092" flag="0"/>
    </comp>
    <comp name="--.HHZ">
      <acc value="0.0720860588" flag="0"/>
      <vel value="0.0151222015" flag="0"/>
      <psa03 value="0.0761104396" flag="0"/>
      <psa10 value="0.0155235061" flag="0"/>
      <psa30 value="0.0015970473" flag="0"/>
    </comp>
    <comp name="--.HHN">
      <acc value="0.1445507207" flag="0"/>
      <vel value="0.0326893302" flag="0"/>
      <psa03 value="0.1089418691" flag="0"/>
      <psa10 value="0.0101455450" flag="0"/>
      <psa30 value="0.0014090586" flag="0"/>
    </comp>
  </station>
  <station code="THERA" name="THERA" netid="GE" insttype="STS-2/N" lat="36.367" lon="25.4753">
    <comp name="--.HHZ">
      <acc value="0.1263357652" flag="0"/>
      <vel value="0.0310132030" flag="0"/>
      <psa03 value="0.1842424745" flag="0"/>
      <psa10 value="0.0197536273" flag="0"/>
      <psa30 value="0.0027882327" flag="0"/>
    </comp>
    <comp name="--.HHN">
      <acc value="0.0926155054" flag="0"/>
      <vel value="0.0233669806" flag="0"/>
      <psa03 value="0.1102428643" flag="0"/>
      <psa10 value="0.0199953910" flag="0"/>
      <psa30 value="0.0010236857" flag="0"/>
    </comp>
    <comp name="--.HHE">
      <acc value="0.2047887512" flag="0"/>
      <vel value="0.0374660936" flag="0"/>
      <psa03 value="0.1515345503" flag="0"/>
      <psa10 value="0.0204468043" flag="0"/>
      <psa30 value="0.0032091530" flag="0"/>
    </comp>
  </station>
  <station code="SERI" name="SERI" netid="HA" insttype="30" lat="37.1609" lon="24.4853">
    <comp name="--.HHE">
      <acc value="0.0480777998" flag="0"/>
      <vel value="0.0122160190" flag="0"/>
      <psa03 value="0.0408911214" flag="0"/>
      <psa10 value="0.0081653868" flag="0"/>
      <psa30 value="0.0007656990" flag="0"/>
    </comp>
    <comp name="--.HHZ">
      <acc value="0.0338290563" flag="0"/>
      <vel value="0.0147386211" flag="0"/>
      <psa03 value="0.0337862810" flag="0"/>
      <psa10 value="0.0115982259" flag="0"/>
      <psa30 value="0.0009045769" flag="0"/>
    </comp>
    <comp name="--.HHN">
      <acc value="0.0695282854" flag="0"/>
      <vel value="0.0197305970" flag="0"/>
      <psa03 value="0.0463569024" flag="0"/>
      <psa10 value="0.0141491619" flag="0"/>
      <psa30 value="0.0010766011" flag="0"/>
    </comp>
  </station>
  <station code="SNT1" name="SNT1" netid="HA" insttype="30" lat="36.4159" lon="25.4282">
    <comp name="--.HHE">
      <acc value="0.1653209728" flag="0"/>
      <vel value="0.0551740805" flag="0"/>
      <psa03 value="0.2311746199" flag="0"/>
      <psa10 value="0.0868349971" flag="0"/>
      <psa30 value="0.0081300613" flag="0"/>
    </comp>
    <comp name="--.HHZ">
      <acc value="0.1172399343" flag="0"/>
      <vel value="0.0402190386" flag="0"/>
      <psa03 value="0.2552463159" flag="0"/>
      <psa10 value="0.0237311713" flag="0"/>
      <psa30 value="0.0038621806" flag="0"/>
    </comp>
    <comp name="--.HHN">
      <acc value="0.1681737860" flag="0"/>
      <vel value="0.0836814373" flag="0"/>
      <psa03 value="0.3136137552" flag="0"/>
      <psa10 value="0.0958991558" flag="0"/>
      <psa30 value="0.0100419152" flag="0"/>
    </comp>
  </station>
  <station code="HER1" name="HER1" netid="HI" insttype="unknown" lat="35.3177" lon="25.1022">
    <comp name="--.HNN">
      <acc value="0.0313896286" flag="0"/>
      <vel value="0.0220746588" flag="0"/>
      <psa03 value="0.0852231277" flag="0"/>
      <psa10 value="0.0336775074" flag="0"/>
      <psa30 value="0.0018027525" flag="0"/>
    </comp>
    <comp name="--.HNZ">
      <acc value="0.0265154524" flag="0"/>
      <vel value="0.0149470821" flag="0"/>
      <psa03 value="0.0577368748" flag="0"/>
      <psa10 value="0.0191643445" flag="0"/>
      <psa30 value="0.0009169132" flag="0"/>
    </comp>
  </station>
  <station code="NAX1" name="NAX1" netid="HI" insttype="CMG-5TD,ACCELEROMETER,GURALP" lat="37.1014" lon="25.3741">
    <comp name="--.HNE">
      <acc value="0.2349764484" flag="0"/>
      <vel value="0.0572796214" flag="0"/>
      <psa03 value="0.2573638222" flag="0"/>
      <psa10 value="0.0204620054" flag="0"/>
      <psa30 value="0.0014277932" flag="0"/>
    </comp>
    <comp name="--.HNN">
      <acc value="0.1421506284" flag="0"/>
      <vel value="0.0457150462" flag="0"/>
      <psa03 value="0.1278500937" flag="0"/>
      <psa10 value="0.0105109147" flag="0"/>
      <psa30 value="0.0015050125" flag="0"/>
    </comp>
    <comp name="--.HNZ">
      <acc value="0.0815725824" flag="0"/>
      <vel value="0.0183916248" flag="0"/>
      <psa03 value="0.1124989875" flag="0"/>
      <psa10 value="0.0176419972" flag="0"/>
      <psa30 value="0.0010016782" flag="0"/>
    </comp>
  </station>
  <station code="SFR2" name="SFR2" netid="HI" insttype="unknown" lat="36.3998" lon="25.4382">
    <comp name="--.HNE">
      <acc value="0.3531425482" flag="0"/>
      <vel value="0.1200509500" flag="0"/>
      <psa03 value="0.5755618763" flag="0"/>
      <psa10 value="0.1019289584" flag="0"/>
      <psa30 value="0.0086159274" flag="0"/>
    </comp>
    <comp name="--.HNZ">
      <acc value="0.4473005210" flag="0"/>
      <vel value="0.1338420433" flag="0"/>
      <psa03 value="0.6454790028" flag="0"/>
      <psa10 value="0.0716566937" flag="0"/>
      <psa30 value="0.0053911244" flag="0"/>
    </comp>
    <comp name="--.HNN">
      <acc value="0.3786325556" flag="0"/>
      <vel value="0.1348869858" flag="0"/>
      <psa03 value="0.8083971507" flag="0"/>
      <psa10 value="0.2236935584" flag="0"/>
      <psa30 value="0.0111460633" flag="0"/>
    </comp>
  </station>
  <station code="AMGA" name="AMGA" netid="HL" insttype="SMART24" lat="36.8316" lon="25.8938">
    <comp name="--.HHN">
      <acc value="0.4542933724" flag="0"/>
      <vel value="0.0883943809" flag="0"/>
      <psa03 value="0.2225259571" flag="0"/>
      <psa10 value="0.0480151939" flag="0"/>
      <psa30 value="0.0057972803" flag="0"/>
    </comp>
    <comp name="--.HHZ">
      <acc value="0.3966647428" flag="0"/>
      <vel value="0.0944015783" flag="0"/>
      <psa03 value="0.2467771243" flag="0"/>
      <psa10 value="0.0541172100" flag="0"/>
      <psa30 value="0.0073941365" flag="0"/>
    </comp>
    <comp name="--.HHE">
      <acc value="0.3983740808" flag="0"/>
      <vel value="0.0880145123" flag="0"/>
      <psa03 value="0.2778023056" flag="0"/>
      <psa10 value="0.0439944978" flag="0"/>
      <psa30 value="0.0037972386" flag="0"/>
    </comp>
  </station>
  <station code="APE" name="APE" netid="HL" insttype="120" lat="37.0727" lon="25.523">
    <comp name="--.HHE">
      <acc value="0.1394908389" flag="0"/>
      <vel value="0.0312550959" flag="0"/>
      <psa03 value="0.1115524448" flag="0"/>
      <psa10 value="0.0149007575" flag="0"/>
      <psa30 value="0.0022720570" flag="0"/>
    </comp>
    <comp name="--.HHN">
      <acc value="0.1192628812" flag="0"/>
      <vel value="0.0308450048" flag="0"/>
      <psa03 value="0.1068496118" flag="0"/>
      <psa10 value="0.0100581560" flag="0"/>
      <psa30 value="0.0013997459" flag="0"/>
    </comp>
    <comp name="--.HHZ">
      <acc value="0.0681613103" flag="0"/>
      <vel value="0.0146605497" flag="0"/>
      <psa03 value="0.0737431596" flag="0"/>
      <psa10 value="0.0153914138" flag="0"/>
      <psa30 value="0.0015928496" flag="0"/>
    </comp>
  </station>
  <station code="MHLO" name="MHLO" netid="HL" insttype="20" lat="36.6898" lon="24.4017">
    <comp name="--.HHZ">
      <acc value="0.0393969754" flag="0"/>
      <vel value="0.0253602639" flag="0"/>
      <psa03 value="0.1258941946" flag="0"/>
      <psa10 value="0.0457453652" flag="0"/>
      <psa30 value="0.0030324465" flag="0"/>
    </comp>
    <comp name="--.HHN">
      <acc value="0.0962635957" flag="0"/>
      <vel value="0.0573953574" flag="0"/>
      <psa03 value="0.2739964665" flag="0"/>
      <psa10 value="0.0792530477" flag="0"/>
      <psa30 value="0.0035224830" flag="0"/>
    </comp>
    <comp name="--.HHE">
      <acc value="0.1624702095" flag="0"/>
      <vel value="0.0657547358" flag="0"/>
      <psa03 value="0.4582161072" flag="0"/>
      <psa10 value="0.0773585969" flag="0"/>
      <psa30 value="0.0043413370" flag="0"/>
    </comp>
  </station>
  <station code="MILA" name="MILA" netid="HL" insttype="CMG-5" lat="36.7429" lon="24.4282">
    <comp name="00.HNE">
      <acc value="0.1265578718" flag="0"/>
      <vel value="0.0631414604" flag="0"/>
      <psa03 value="0.3464003319" flag="0"/>
      <psa10 value="0.0469290301" flag="0"/>
      <psa30 value="0.0040245062" flag="0"/>
    </comp>
    <comp name="00.HNZ">
      <acc value="0.1245749585" flag="0"/>
      <vel value="0.0497878324" flag="0"/>
      <psa03 value="0.1856307689" flag="0"/>
      <psa10 value="0.0504543531" flag="0"/>
      <psa30 value="0.0034768350" flag="0"/>
    </comp>
    <comp name="00.HNN">
      <acc value="0.1916278320" flag="0"/>
      <vel value="0.0747630375" flag="0"/>
      <psa03 value="0.2722287688" flag="0"/>
      <psa10 value="0.0696450945" flag="0"/>
      <psa30 value="0.0036464504" flag="0"/>
    </comp>
  </station>
  <station code="NISR" name="NISR" netid="HL" insttype="65535" lat="36.6106" lon="27.131">
    <comp name="--.HHN">
      <acc value="0.0329767190" flag="0"/>
      <vel value="0.0156216278" flag="0"/>
      <psa03 value="0.1102830114" flag="0"/>
      <psa10 value="0.0114879288" flag="0"/>
      <psa30 value="0.0033495418" flag="0"/>
    </comp>
    <comp name="--.HHZ">
      <acc value="0.0159623127" flag="0"/>
      <vel value="0.0074377458" flag="0"/>
      <psa03 value="0.0410760226" flag="0"/>
      <psa10 value="0.0104709832" flag="0"/>
      <psa30 value="0.0008254605" flag="0"/>
    </comp>
    <comp name="--.HHE">
      <acc value="0.0000000000" flag="0"/>
      <vel value="-100.0000000000" flag="0"/>
      <psa03 value="0.0000000000" flag="0"/>
      <psa10 value="0.0000000000" flag="0"/>
      <psa30 value="0.0000000000" flag="0"/>
    </comp>
  </station>
  <station code="NISR2" name="NISR2" netid="HL" insttype="120" lat="36.5744" lon="27.1767">
    <comp name="--.HHN">
      <acc value="0.0439315988" flag="0"/>
      <vel value="0.0300766862" flag="0"/>
      <psa03 value="0.1605696821" flag="0"/>
      <psa10 value="0.0334721417" flag="0"/>
      <psa30 value="0.0032509606" flag="0"/>
    </comp>
    <comp name="--.HHE">
      <acc value="0.0377464589" flag="0"/>
      <vel value="0.0311099172" flag="0"/>
      <psa03 value="0.1678149933" flag="0"/>
      <psa10 value="0.0449046624" flag="0"/>
      <psa30 value="0.0034222082" flag="0"/>
    </comp>
    <comp name="--.HHZ">
      <acc value="0.0176736468" flag="0"/>
      <vel value="0.0078992422" flag="0"/>
      <psa03 value="0.0541537661" flag="0"/>
      <psa10 value="0.0064499252" flag="0"/>
      <psa30 value="0.0007702528" flag="0"/>
    </comp>
  </station>
  <station code="SANT" name="SANT" netid="HL" insttype="30" lat="36.3705" lon="25.4593">
    <comp name="--.HHE">
      <acc value="0.7356713902" flag="0"/>
      <vel value="0.1052715031" flag="0"/>
      <psa03 value="0.3148884653" flag="0"/>
      <psa10 value="0.0388120880" flag="0"/>
      <psa30 value="0.0042248999" flag="0"/>
    </comp>
    <comp name="--.HHZ">
      <acc value="0.4867653629" flag="0"/>
      <vel value="0.0673074876" flag="0"/>
      <psa03 value="0.2144870240" flag="0"/>
      <psa10 value="0.0213751558" flag="0"/>
      <psa30 value="0.0021871117" flag="0"/>
    </comp>
    <comp name="--.HHN">
      <acc value="0.8124492393" flag="0"/>
      <vel value="0.0648799831" flag="0"/>
      <psa03 value="0.2011314418" flag="0"/>
      <psa10 value="0.0226459985" flag="0"/>
      <psa30 value="0.0026782843" flag="0"/>
    </comp>
  </station>
  <station code="SAP3" name="SAP3" netid="HL" insttype="65535" lat="36.4356" lon="25.3454">
    <comp name="--.HHE">
      <acc value="0.2974909283" flag="0"/>
      <vel value="0.1206793642" flag="0"/>
      <psa03 value="0.5953283448" flag="0"/>
      <psa10 value="0.0877896645" flag="0"/>
      <psa30 value="0.0106338720" flag="0"/>
    </comp>
    <comp name="--.HHN">
      <acc value="0.2853845737" flag="0"/>
      <vel value="0.0897930867" flag="0"/>
      <psa03 value="0.6133119955" flag="0"/>
      <psa10 value="0.0655193603" flag="0"/>
      <psa30 value="0.0073639459" flag="0"/>
    </comp>
    <comp name="--.HHZ">
      <acc value="0.2689103285" flag="0"/>
      <vel value="0.0695087369" flag="0"/>
      <psa03 value="0.3992224434" flag="0"/>
      <psa10 value="0.0312061697" flag="0"/>
      <psa30 value="0.0041534119" flag="0"/>
    </comp>
  </station>
  <station code="THERA" name="THERA" netid="HL" insttype="120" lat="36.367" lon="25.4753">
    <comp name="--.HHZ">
      <acc value="0.1266927620" flag="0"/>
      <vel value="0.0307536920" flag="0"/>
      <psa03 value="0.1789500025" flag="0"/>
      <psa10 value="0.0195295056" flag="0"/>
      <psa30 value="0.0027869430" flag="0"/>
    </comp>
    <comp name="--.HHE">
      <acc value="0.2178700546" flag="0"/>
      <vel value="0.0369391804" flag="0"/>
      <psa03 value="0.1471910023" flag="0"/>
      <psa10 value="0.0202330642" flag="0"/>
      <psa30 value="0.0031897792" flag="0"/>
    </comp>
    <comp name="--.HHN">
      <acc value="0.1859500763" flag="0"/>
      <vel value="0.0458379141" flag="0"/>
      <psa03 value="0.2136902507" flag="0"/>
      <psa10 value="0.0397624782" flag="0"/>
      <psa30 value="0.0020408282" flag="0"/>
    </comp>
  </station>
  <station code="THRA" name="THRA" netid="HL" insttype="CMG-5" lat="36.415" lon="25.4324">
    <comp name="00.HNE">
      <acc value="0.6170152483" flag="0"/>
      <vel value="0.1608239604" flag="0"/>
      <psa03 value="1.2419100790" flag="0"/>
      <psa10 value="0.1895259983" flag="0"/>
      <psa30 value="0.0181153919" flag="0"/>
    </comp>
    <comp name="00.HNN">
      <acc value="0.4711743221" flag="0"/>
      <vel value="0.2603062842" flag="0"/>
      <psa03 value="0.7536925695" flag="0"/>
      <psa10 value="0.2985779889" flag="0"/>
      <psa30 value="0.0153161585" flag="0"/>
    </comp>
    <comp name="00.HNZ">
      <acc value="0.4423216381" flag="0"/>
      <vel value="0.1518169811" flag="0"/>
      <psa03 value="0.8070402093" flag="0"/>
      <psa10 value="0.0872617116" flag="0"/>
      <psa30 value="0.0068287497" flag="0"/>
    </comp>
  </station>
  <station code="TNSA" name="TNSA" netid="HL" insttype="CMG-5" lat="37.5394" lon="25.1631">
    <comp name="00.HNE">
      <acc value="0.0712051584" flag="0"/>
      <vel value="0.0306670782" flag="0"/>
      <psa03 value="0.1140814101" flag="0"/>
      <psa10 value="0.0087949812" flag="0"/>
      <psa30 value="0.0008673893" flag="0"/>
    </comp>
    <comp name="00.HNZ">
      <acc value="0.0700440709" flag="0"/>
      <vel value="0.0389035825" flag="0"/>
      <psa03 value="0.1443445828" flag="0"/>
      <psa10 value="0.0236404413" flag="0"/>
      <psa30 value="0.0021554037" flag="0"/>
    </comp>
    <comp name="00.HNN">
      <acc value="0.1077142636" flag="0"/>
      <vel value="0.0386398920" flag="0"/>
      <psa03 value="0.1494224111" flag="0"/>
      <psa10 value="0.0198983693" flag="0"/>
      <psa30 value="0.0020417997" flag="0"/>
    </comp>
  </station>
  <station code="CMBO" name="CMBO" netid="HT" insttype="120P," lat="36.4709" lon="25.4056">
    <comp name="--.HHN">
      <acc value="0.4876326126" flag="0"/>
      <vel value="0.2164384304" flag="0"/>
      <psa03 value="0.8058191079" flag="0"/>
      <psa10 value="0.1459975910" flag="0"/>
      <psa30 value="0.0091161477" flag="0"/>
    </comp>
    <comp name="--.HHE">
      <acc value="0.3185529217" flag="0"/>
      <vel value="0.1493174245" flag="0"/>
      <psa03 value="0.8178823842" flag="0"/>
      <psa10 value="0.0979317738" flag="0"/>
      <psa30 value="0.0078807201" flag="0"/>
    </comp>
    <comp name="--.HHZ">
      <acc value="0.3704276880" flag="0"/>
      <vel value="0.1221788891" flag="0"/>
      <psa03 value="0.6987210113" flag="0"/>
      <psa10 value="0.0465705007" flag="0"/>
      <psa30 value="0.0052926303" flag="0"/>
    </comp>
  </station>
</stationlist>
