<?xml version="1.0" encoding="UTF-8" standalone="yes"?>
<!DOCTYPE earthquake SYSTEM "stationlist.dtd">
<stationlist created="" xmlns="ch.ethz.sed.shakemap.usgs.xml">
  <station code="APE" name="APE" netid="GE" insttype="STS-2/N" lat="37.0727" lon="25.523">
    <comp name="--.HHN">
      <acc value="0.1445507211" flag="0"/>
      <vel value="0.0326893272" flag="0"/>
      <psa03 value="0.1089418691" flag="0"/>
      <psa10 value="0.0101455427" flag="0"/>
      <psa30 value="0.0014092719" flag="0"/>
    </comp>
    <comp name="--.HHE">
      <acc value="0.1669632425" flag="0"/>
      <vel value="0.0329191563" flag="0"/>
      <psa03 value="0.1153896940" flag="0"/>
      <psa10 value="0.0150418948" flag="0"/>
      <psa30 value="0.0022793847" flag="0"/>
    </comp>
    <comp name="--.HHZ">
      <acc value="0.0720860573" flag="0"/>
      <vel value="0.0151222091" flag="0"/>
      <psa03 value="0.0761104396" flag="0"/>
      <psa10 value="0.0155235048" flag="0"/>
      <psa30 value="0.0015973952" flag="0"/>
    </comp>
  </station>
  <station code="THERA" name="THERA" netid="GE" insttype="STS-2/N" lat="36.367" lon="25.4753">
    <comp name="--.HHZ">
      <acc value="0.1263357658" flag="0"/>
      <vel value="0.0310132091" flag="0"/>
      <psa03 value="0.1842424745" flag="0"/>
      <psa10 value="0.0197536339" flag="0"/>
      <psa30 value="0.0027882758" flag="0"/>
    </comp>
    <comp name="--.HHN">
      <acc value="0.0926155051" flag="0"/>
      <vel value="0.0233669831" flag="0"/>
      <psa03 value="0.1102428643" flag="0"/>
      <psa10 value="0.0199953911" flag="0"/>
      <psa30 value="0.0010235507" flag="0"/>
    </comp>
    <comp name="--.HHE">
      <acc value="0.2047887507" flag="0"/>
      <vel value="0.0374660977" flag="0"/>
      <psa03 value="0.1515345503" flag="0"/>
      <psa10 value="0.0204468131" flag="0"/>
      <psa30 value="0.0032087755" flag="0"/>
    </comp>
  </station>
  <station code="SERI" name="SERI" netid="HA" insttype="30" lat="37.1609" lon="24.4853">
    <comp name="--.HHE">
      <acc value="0.0480777979" flag="0"/>
      <vel value="0.0122160185" flag="0"/>
      <psa03 value="0.0408911214" flag="0"/>
      <psa10 value="0.0081653868" flag="0"/>
      <psa30 value="0.0007656990" flag="0"/>
    </comp>
    <comp name="--.HHN">
      <acc value="0.0695282842" flag="0"/>
      <vel value="0.0197305971" flag="0"/>
      <psa03 value="0.0463569024" flag="0"/>
      <psa10 value="0.0141491619" flag="0"/>
      <psa30 value="0.0010766011" flag="0"/>
    </comp>
    <comp name="--.HHZ">
      <acc value="0.0338290579" flag="0"/>
      <vel value="0.0147386207" flag="0"/>
      <psa03 value="0.0337862810" flag="0"/>
      <psa10 value="0.0115982259" flag="0"/>
      <psa30 value="0.0009045769" flag="0"/>
    </comp>
  </station>
  <station code="SNT1" name="SNT1" netid="HA" insttype="30" lat="36.4159" lon="25.4282">
    <comp name="--.HHN">
      <acc value="0.1681737845" flag="0"/>
      <vel value="0.0836814363" flag="0"/>
      <psa03 value="0.3136137552" flag="0"/>
      <psa10 value="0.0958991558" flag="0"/>
      <psa30 value="0.0100419152" flag="0"/>
    </comp>
    <comp name="--.HHZ">
      <acc value="0.1172399344" flag="0"/>
      <vel value="0.0402190392" flag="0"/>
      <psa03 value="0.2552463159" flag="0"/>
      <psa10 value="0.0237311713" flag="0"/>
      <psa30 value="0.0038621806" flag="0"/>
    </comp>
    <comp name="--.HHE">
      <acc value="0.1653209719" flag="0"/>
      <vel value="0.0551740811" flag="0"/>
      <psa03 value="0.2311746199" flag="0"/>
      <psa10 value="0.0868349971" flag="0"/>
      <psa30 value="0.0081300613" flag="0"/>
    </comp>
  </station>
  <station code="NAX1" name="NAX1" netid="HI" insttype="CMG-5TD,ACCELEROMETER,GURALP" lat="37.1014" lon="25.3741">
    <comp name="--.HNN">
      <acc value="0.1421506405" flag="0"/>
      <vel value="0.0457150465" flag="0"/>
      <psa03 value="0.1278500937" flag="0"/>
      <psa10 value="0.0105109147" flag="0"/>
      <psa30 value="0.0015050125" flag="0"/>
    </comp>
    <comp name="--.HNZ">
      <acc value="0.0815725896" flag="0"/>
      <vel value="0.0183916248" flag="0"/>
      <psa03 value="0.1124989875" flag="0"/>
      <psa10 value="0.0176419972" flag="0"/>
      <psa30 value="0.0010016782" flag="0"/>
    </comp>
    <comp name="--.HNE">
      <acc value="0.2349764572" flag="0"/>
      <vel value="0.0572796217" flag="0"/>
      <psa03 value="0.2573638222" flag="0"/>
      <psa10 value="0.0204620054" flag="0"/>
      <psa30 value="0.0014277932" flag="0"/>
    </comp>
  </station>
  <station code="SFR2" name="SFR2" netid="HI" insttype="unknown" lat="36.3998" lon="25.4382">
    <comp name="--.HNE">
      <acc value="0.3531425520" flag="0"/>
      <vel value="0.1200509503" flag="0"/>
      <psa03 value="0.5755618763" flag="0"/>
      <psa10 value="0.1019289584" flag="0"/>
      <psa30 value="0.0086159274" flag="0"/>
    </comp>
    <comp name="--.HNN">
      <acc value="0.3786325573" flag="0"/>
      <vel value="0.1348869857" flag="0"/>
      <psa03 value="0.8083971507" flag="0"/>
      <psa10 value="0.2236935584" flag="0"/>
      <psa30 value="0.0111460633" flag="0"/>
    </comp>
    <comp name="--.HNZ">
      <acc value="0.4473005206" flag="0"/>
      <vel value="0.1338420435" flag="0"/>
      <psa03 value="0.6454790028" flag="0"/>
      <psa10 value="0.0716566937" flag="0"/>
      <psa30 value="0.0053911244" flag="0"/>
    </comp>
  </station>
  <station code="AMGA" name="AMGA" netid="HL" insttype="SMART24" lat="36.8316" lon="25.8938">
    <comp name="--.HHE">
      <acc value="0.3983740822" flag="0"/>
      <vel value="0.0880145065" flag="0"/>
      <psa03 value="0.2778023056" flag="0"/>
      <psa10 value="0.0439944977" flag="0"/>
      <psa30 value="0.0037972387" flag="0"/>
    </comp>
    <comp name="--.HHN">
      <acc value="0.4542933730" flag="0"/>
      <vel value="0.0883943745" flag="0"/>
      <psa03 value="0.2225259571" flag="0"/>
      <psa10 value="0.0480151939" flag="0"/>
      <psa30 value="0.0057972803" flag="0"/>
    </comp>
    <comp name="--.HHZ">
      <acc value="0.3966647429" flag="0"/>
      <vel value="0.0944015782" flag="0"/>
      <psa03 value="0.2467771243" flag="0"/>
      <psa10 value="0.0541172100" flag="0"/>
      <psa30 value="0.0073941365" flag="0"/>
    </comp>
  </station>
  <station code="APE" name="APE" netid="HL" insttype="120" lat="37.0727" lon="25.523">
    <comp name="--.HHE">
      <acc value="0.1394908388" flag="0"/>
      <vel value="0.0312550959" flag="0"/>
      <psa03 value="0.1115524448" flag="0"/>
      <psa10 value="0.0149007575" flag="0"/>
      <psa30 value="0.0022720570" flag="0"/>
    </comp>
    <comp name="--.HHN">
      <acc value="0.1192628816" flag="0"/>
      <vel value="0.0308450048" flag="0"/>
      <psa03 value="0.1068496118" flag="0"/>
      <psa10 value="0.0100581560" flag="0"/>
      <psa30 value="0.0013997459" flag="0"/>
    </comp>
    <comp name="--.HHZ">
      <acc value="0.0681613114" flag="0"/>
      <vel value="0.0146605497" flag="0"/>
      <psa03 value="0.0737431596" flag="0"/>
      <psa10 value="0.0153914138" flag="0"/>
      <psa30 value="0.0015928496" flag="0"/>
    </comp>
  </station>
  <station code="MHLO" name="MHLO" netid="HL" insttype="20" lat="36.6898" lon="24.4017">
    <comp name="--.HHE">
      <acc value="0.1624702090" flag="0"/>
      <vel value="0.0657547331" flag="0"/>
      <psa03 value="0.4582161072" flag="0"/>
      <psa10 value="0.0773585969" flag="0"/>
      <psa30 value="0.0043413370" flag="0"/>
    </comp>
    <comp name="--.HHZ">
      <acc value="0.0393969744" flag="0"/>
      <vel value="0.0253602615" flag="0"/>
      <psa03 value="0.1258941946" flag="0"/>
      <psa10 value="0.0457453652" flag="0"/>
      <psa30 value="0.0030324465" flag="0"/>
    </comp>
    <comp name="--.HHN">
      <acc value="0.0962635958" flag="0"/>
      <vel value="0.0573953551" flag="0"/>
      <psa03 value="0.2739964665" flag="0"/>
      <psa10 value="0.0792530477" flag="0"/>
      <psa30 value="0.0035224830" flag="0"/>
    </comp>
  </station>
  <station code="MILA" name="MILA" netid="HL" insttype="CMG-5" lat="36.7429" lon="24.4282">
    <comp name="00.HNE">
      <acc value="0.1265578720" flag="0"/>
      <vel value="0.0631414601" flag="0"/>
      <psa03 value="0.3464003319" flag="0"/>
      <psa10 value="0.0469290301" flag="0"/>
      <psa30 value="0.0040245062" flag="0"/>
    </comp>
    <comp name="00.HNZ">
      <acc value="0.1245749591" flag="0"/>
      <vel value="0.0497878334" flag="0"/>
      <psa03 value="0.1856307689" flag="0"/>
      <psa10 value="0.0504543531" flag="0"/>
      <psa30 value="0.0034768350" flag="0"/>
    </comp>
    <comp name="00.HNN">
      <acc value="0.1916278335" flag="0"/>
      <vel value="0.0747630376" flag="0"/>
      <psa03 value="0.2722287688" flag="0"/>
      <psa10 value="0.0696450945" flag="0"/>
      <psa30 value="0.0036464504" flag="0"/>
    </comp>
  </station>
  <station code="SANT" name="SANT" netid="HL" insttype="30" lat="36.3705" lon="25.4593">
    <comp name="--.HHE">
      <acc value="0.7356713902" flag="0"/>
      <vel value="0.1052715036" flag="0"/>
      <psa03 value="0.3148884654" flag="0"/>
      <psa10 value="0.0388120880" flag="0"/>
      <psa30 value="0.0042248999" flag="0"/>
    </comp>
    <comp name="--.HHZ">
      <acc value="0.4867653612" flag="0"/>
      <vel value="0.0673074868" flag="0"/>
      <psa03 value="0.2144870240" flag="0"/>
      <psa10 value="0.0213751558" flag="0"/>
      <psa30 value="0.0021871117" flag="0"/>
    </comp>
    <comp name="--.HHN">
      <acc value="0.8124492416" flag="0"/>
      <vel value="0.0648799841" flag="0"/>
      <psa03 value="0.2011314418" flag="0"/>
      <psa10 value="0.0226459985" flag="0"/>
      <psa30 value="0.0026782843" flag="0"/>
    </comp>
  </station>
  <station code="SAP3" name="SAP3" netid="HL" insttype="65535" lat="36.4356" lon="25.3454">
    <comp name="--.HHE">
      <acc value="0.2974909288" flag="0"/>
      <vel value="0.1206793643" flag="0"/>
      <psa03 value="0.5953283448" flag="0"/>
      <psa10 value="0.0877896644" flag="0"/>
      <psa30 value="0.0106338935" flag="0"/>
    </comp>
    <comp name="--.HHN">
      <acc value="0.2853845732" flag="0"/>
      <vel value="0.0897930865" flag="0"/>
      <psa03 value="0.6133119955" flag="0"/>
      <psa10 value="0.0655193603" flag="0"/>
      <psa30 value="0.0073639459" flag="0"/>
    </comp>
    <comp name="--.HHZ">
      <acc value="0.2689103293" flag="0"/>
      <vel value="0.0695087368" flag="0"/>
      <psa03 value="0.3992224434" flag="0"/>
      <psa10 value="0.0312061697" flag="0"/>
      <psa30 value="0.0041534119" flag="0"/>
    </comp>
  </station>
  <station code="THERA" name="THERA" netid="HL" insttype="120" lat="36.367" lon="25.4753">
    <comp name="--.HHE">
      <acc value="0.2178700542" flag="0"/>
      <vel value="0.0369391804" flag="0"/>
      <psa03 value="0.1471910023" flag="0"/>
      <psa10 value="0.0202330642" flag="0"/>
      <psa30 value="0.0031897792" flag="0"/>
    </comp>
    <comp name="--.HHZ">
      <acc value="0.1266927617" flag="0"/>
      <vel value="0.0307536920" flag="0"/>
      <psa03 value="0.1789500025" flag="0"/>
      <psa10 value="0.0195295056" flag="0"/>
      <psa30 value="0.0027869430" flag="0"/>
    </comp>
    <comp name="--.HHN">
      <acc value="0.1859500759" flag="0"/>
      <vel value="0.0458379141" flag="0"/>
      <psa03 value="0.2136902507" flag="0"/>
      <psa10 value="0.0397624782" flag="0"/>
      <psa30 value="0.0020408282" flag="0"/>
    </comp>
  </station>
  <station code="THRA" name="THRA" netid="HL" insttype="CMG-5" lat="36.415" lon="25.4324">
    <comp name="00.HNN">
      <acc value="0.4711743207" flag="0"/>
      <vel value="0.2603062844" flag="0"/>
      <psa03 value="0.7536925695" flag="0"/>
      <psa10 value="0.2985779889" flag="0"/>
      <psa30 value="0.0153161585" flag="0"/>
    </comp>
    <comp name="00.HNE">
      <acc value="0.6170152472" flag="0"/>
      <vel value="0.1608239603" flag="0"/>
      <psa03 value="1.2419100790" flag="0"/>
      <psa10 value="0.1895259983" flag="0"/>
      <psa30 value="0.0181153919" flag="0"/>
    </comp>
    <comp name="00.HNZ">
      <acc value="0.4423216387" flag="0"/>
      <vel value="0.1518169811" flag="0"/>
      <psa03 value="0.8070402093" flag="0"/>
      <psa10 value="0.0872617116" flag="0"/>
      <psa30 value="0.0068287497" flag="0"/>
    </comp>
  </station>
  <station code="TNSA" name="TNSA" netid="HL" insttype="CMG-5" lat="37.5394" lon="25.1631">
    <comp name="00.HNN">
      <acc value="0.1077142622" flag="0"/>
      <vel value="0.0386398919" flag="0"/>
      <psa03 value="0.1494224111" flag="0"/>
      <psa10 value="0.0198983693" flag="0"/>
      <psa30 value="0.0020417997" flag="0"/>
    </comp>
    <comp name="00.HNZ">
      <acc value="0.0700440688" flag="0"/>
      <vel value="0.0389035831" flag="0"/>
      <psa03 value="0.1443445828" flag="0"/>
      <psa10 value="0.0236404413" flag="0"/>
      <psa30 value="0.0021554037" flag="0"/>
    </comp>
    <comp name="00.HNE">
      <acc value="0.0712051593" flag="0"/>
      <vel value="0.0306670782" flag="0"/>
      <psa03 value="0.1140814101" flag="0"/>
      <psa10 value="0.0087949812" flag="0"/>
      <psa30 value="0.0008673893" flag="0"/>
    </comp>
  </station>
  <station code="CMBO" name="CMBO" netid="HT" insttype="120P," lat="36.4709" lon="25.4056">
    <comp name="--.HHZ">
      <acc value="0.3704276880" flag="0"/>
      <vel value="0.1221788893" flag="0"/>
      <psa03 value="0.6987210113" flag="0"/>
      <psa10 value="0.0465705007" flag="0"/>
      <psa30 value="0.0052926303" flag="0"/>
    </comp>
    <comp name="--.HHE">
      <acc value="0.3185529220" flag="0"/>
      <vel value="0.1493174244" flag="0"/>
      <psa03 value="0.8178823842" flag="0"/>
      <psa10 value="0.0979317738" flag="0"/>
      <psa30 value="0.0078807201" flag="0"/>
    </comp>
    <comp name="--.HHN">
      <acc value="0.4876326124" flag="0"/>
      <vel value="0.2164384301" flag="0"/>
      <psa03 value="0.8058191079" flag="0"/>
      <psa10 value="0.1459975910" flag="0"/>
      <psa30 value="0.0091161477" flag="0"/>
    </comp>
  </station>
</stationlist>
