<?xml version="1.0" encoding="UTF-8" standalone="yes"?>
<!DOCTYPE earthquake SYSTEM "stationlist.dtd">
<stationlist created="" xmlns="ch.ethz.sed.shakemap.usgs.xml">
  <station code="APE" name="APE" netid="GE" insttype="STS-2/N" lat="37.0727" lon="25.523">
    <comp name="--.HHE">
      <acc value="0.1669632423" flag="0"/>
      <vel value="0.0329191512" flag="0"/>
      <psa03 value="0.1153896940" flag="0"/>
      <psa10 value="0.0150418888" flag="0"/>
      <psa30 value="0.0022790092" flag="0"/>
    </comp>
    <comp name="--.HHZ">
      <acc value="0.0720860588" flag="0"/>
      <vel value="0.0151222015" flag="0"/>
      <psa03 value="0.0761104396" flag="0"/>
      <psa10 value="0.0155235061" flag="0"/>
      <psa30 value="0.0015970473" flag="0"/>
    </comp>
    <comp name="--.HHN">
      <acc value="0.1445507207" flag="0"/>
      <vel value="0.0326893302" flag="0"/>
      <psa03 value="0.1089418691" flag="0"/>
      <psa10 value="0.0101455450" flag="0"/>
      <psa30 value="0.0014090586" flag="0"/>
    </comp>
  </station>
  <station code="THERA" name="THERA" netid="GE" insttype="STS-2/N" lat="36.367" lon="25.4753">
    <comp name="--.HHZ">
      <acc value="0.1263357652" flag="0"/>
      <vel value="0.0310132030" flag="0"/>
      <psa03 value="0.1842424745" flag="0"/>
      <psa10 value="0.0197536273" flag="0"/>
      <psa30 value="0.0027882327" flag="0"/>
    </comp>
    <comp name="--.HHN">
      <acc value="0.0926155054" flag="0"/>
      <vel value="0.0233669806" flag="0"/>
      <psa03 value="0.1102428643" flag="0"/>
      <psa10 value="0.0199953910" flag="0"/>
      <psa30 value="0.0010236857" flag="0"/>
    </comp>
    <comp name="--.HHE">
      <acc value="0.2047887512" flag="0"/>
      <vel value="0.0374660936" flag="0"/>
      <psa03 value="0.1515345503" flag="0"/>
      <psa10 value="0.0204468043" flag="0"/>
      <psa30 value="0.0032091530" flag="0"/>
    </comp>
  </station>
</stationlist>
