<?xml version="1.0" encoding="UTF-8" standalone="yes"?>
<!DOCTYPE earthquake SYSTEM "stationlist.dtd">
<stationlist created="" xmlns="ch.ethz.sed.shakemap.usgs.xml">
  <station code="PYL" name="PYL" netid="HP" insttype="DC_100" lat="36.8955" lon="21.742">
    <comp name="--.HNE">
      <acc value="0.0199791575" flag="0"/>
      <vel value="0.0044276424" flag="0"/>
      <psa03 value="0.0160763691" flag="0"/>
      <psa10 value="0.0009168700" flag="0"/>
      <psa30 value="0.0001622790" flag="0"/>
    </comp>
    <comp name="--.HNZ">
      <acc value="0.0127296744" flag="0"/>
      <vel value="0.0018363165" flag="0"/>
      <psa03 value="0.0047750684" flag="0"/>
      <psa10 value="0.0006681686" flag="0"/>
      <psa30 value="0.0000997861" flag="0"/>
    </comp>
    <comp name="--.HNN">
      <acc value="0.0160382801" flag="0"/>
      <vel value="0.0025627750" flag="0"/>
      <psa03 value="0.0161628200" flag="0"/>
      <psa10 value="0.0014727199" flag="0"/>
      <psa30 value="0.0000953000" flag="0"/>
    </comp>
  </station>
</stationlist>
