<stationlist xmlns:esm="https://esm-db.eu/esmws/shakemap/1/" created="1783475708">
	<station code="ROD3" name="ROD3" netid="CL" source="Corinth Riff Laboratory (CRLNET)" insttype="" lat="38.30811" lon="21.89204" esm:processing="manual (Paolucci et al 2011)" esm:quality="good">
		<comp name="00.HNE" depth="0.0">
			<acc value="0.0134847488409522" flag="0"/>
			<vel value="0.00648321287316614" flag="0"/>
			<psa03 value="0.053511679115453" flag="0"/>
			<psa10 value="0.00330197484842846" flag="0"/>
			<psa30 value="0.000272032616239092" flag="0"/>
		</comp>
		<comp name="00.HNN" depth="0.0">
			<acc value="0.0166881690281259" flag="0"/>
			<vel value="0.00678158093422936" flag="0"/>
			<psa03 value="0.0527063193963241" flag="0"/>
			<psa10 value="0.00482813151617771" flag="0"/>
			<psa30 value="0.000314090290460268" flag="0"/>
		</comp>
		<comp name="00.HNZ" depth="0.0">
			<acc value="0.00789640965708053" flag="0"/>
			<vel value="0.00281596657003058" flag="0"/>
			<psa03 value="0.0167783274818519" flag="0"/>
			<psa10 value="0.00245634714334312" flag="0"/>
			<psa30 value="0.000191944066392386" flag="0"/>
		</comp>
	</station>
	<station code="TRIZ" name="TRIZ" netid="CL" source="Corinth Riff Laboratory (CRLNET)" insttype="" lat="38.36543" lon="22.07272" esm:processing="manual (Paolucci et al 2011)" esm:quality="good">
		<comp name="00.HNE" depth="0.0">
			<acc value="0.00566427295792574" flag="0"/>
			<vel value="0.00300892297894542" flag="0"/>
			<psa03 value="0.0198655397385127" flag="0"/>
			<psa10 value="0.0021100424641177" flag="0"/>
			<psa30 value="0.000172257495480346" flag="0"/>
		</comp>
		<comp name="00.HNN" depth="0.0">
			<acc value="0.00269357928231089" flag="0"/>
			<vel value="0.00135305037644811" flag="0"/>
			<psa03 value="0.00988802766263806" flag="0"/>
			<psa10 value="0.00128052195341494" flag="0"/>
			<psa30 value="0.000197313131186578" flag="0"/>
		</comp>
		<comp name="00.HNZ" depth="0.0">
			<acc value="0.00465940424363227" flag="0"/>
			<vel value="0.00125989266407594" flag="0"/>
			<psa03 value="0.00720349526554175" flag="0"/>
			<psa10 value="0.000861734899467914" flag="0"/>
			<psa30 value="0.000105144185552939" flag="0"/>
		</comp>
	</station>
	<station code="ARG2" name="ARG2" netid="HI" source="ITSAK Strong Motion Network" insttype="" lat="38.1783" lon="20.4878" esm:processing="manual (Paolucci et al 2011)" esm:quality="best">
		<comp name="--.HNE" depth="0.0">
			<acc value="0.0812814368833532" flag="0"/>
			<vel value="0.0283303097904198" flag="0"/>
			<psa03 value="0.199550241517492" flag="0"/>
			<psa10 value="0.00801735600392812" flag="0"/>
			<psa30 value="0.000848312237482432" flag="0"/>
		</comp>
		<comp name="--.HNN" depth="0.0">
			<acc value="0.0564380954807728" flag="0"/>
			<vel value="0.0178592163263449" flag="0"/>
			<psa03 value="0.0989250188329989" flag="0"/>
			<psa10 value="0.0092656635685779" flag="0"/>
			<psa30 value="0.000708269130767242" flag="0"/>
		</comp>
		<comp name="--.HNZ" depth="0.0">
			<acc value="0.0499275395810812" flag="0"/>
			<vel value="0.0151323624697534" flag="0"/>
			<psa03 value="0.0868446230460655" flag="0"/>
			<psa10 value="0.00417176334508766" flag="0"/>
			<psa30 value="0.000376281957659665" flag="0"/>
		</comp>
	</station>
	<station code="ART2" name="ART2" netid="HI" source="ITSAK Strong Motion Network" insttype="" lat="39.1474" lon="20.9937" esm:processing="manual (Paolucci et al 2011)" esm:quality="bad">
		<comp name="--.HNE" depth="0.0">
			<acc value="0.00186869349760506" flag="0"/>
			<vel value="0.00121300896350498" flag="0"/>
			<psa03 value="0.00536564418457797" flag="0"/>
			<psa10 value="0.00161078655045363" flag="0"/>
			<psa30 value="0.00015301399059276" flag="0"/>
		</comp>
		<comp name="--.HNN" depth="0.0">
			<acc value="0.00186735557412146" flag="0"/>
			<vel value="0.00156057324573693" flag="0"/>
			<psa03 value="0.00357847501213664" flag="0"/>
			<psa10 value="0.0015073787236287" flag="0"/>
			<psa30 value="0.000117406840127016" flag="0"/>
		</comp>
		<comp name="--.HNZ" depth="0.0">
			<acc value="0.00116153022242552" flag="0"/>
			<vel value="0.000900455871306856" flag="0"/>
			<psa03 value="0.00296943727054277" flag="0"/>
			<psa10 value="0.00154796543573957" flag="0"/>
			<psa30 value="0.000137703666462939" flag="0"/>
		</comp>
	</station>
	<station code="KLV1" name="KLV1" netid="HI" source="ITSAK Strong Motion Network" insttype="" lat="38.03256" lon="22.10797" esm:processing="manual (Paolucci et al 2011)" esm:quality="best">
		<comp name="--.HNE" depth="0.0">
			<acc value="0.00470125732344228" flag="0"/>
			<vel value="0.0031957233855276" flag="0"/>
			<psa03 value="0.0176526147115935" flag="0"/>
			<psa10 value="0.00437373942625701" flag="0"/>
			<psa30 value="0.000168574344306379" flag="0"/>
		</comp>
		<comp name="--.HNN" depth="0.0">
			<acc value="0.00508682421736121" flag="0"/>
			<vel value="0.00263201612560911" flag="0"/>
			<psa03 value="0.018521185270982" flag="0"/>
			<psa10 value="0.00254055283040707" flag="0"/>
			<psa30 value="0.000149682923571441" flag="0"/>
		</comp>
		<comp name="--.HNZ" depth="0.0">
			<acc value="0.0035924538842287" flag="0"/>
			<vel value="0.00147653181363488" flag="0"/>
			<psa03 value="0.00601519274781939" flag="0"/>
			<psa10 value="0.0022304797114576" flag="0"/>
			<psa30 value="0.000111393095391632" flag="0"/>
		</comp>
	</station>
	<station code="KRK1" name="KRK1" netid="HI" source="ITSAK Strong Motion Network" insttype="" lat="39.618861" lon="19.9202" esm:processing="manual (Paolucci et al 2011)" esm:quality="good">
		<comp name="--.HNE" depth="0.0">
			<acc value="0.00497979784573843" flag="0"/>
			<vel value="0.002211007203456" flag="0"/>
			<psa03 value="0.0105380346816423" flag="0"/>
			<psa10 value="0.00173504400064965" flag="0"/>
			<psa30 value="0.00017680856165787" flag="0"/>
		</comp>
		<comp name="--.HNN" depth="0.0">
			<acc value="0.0060220921840385" flag="0"/>
			<vel value="0.00288339213102478" flag="0"/>
			<psa03 value="0.010884577820677" flag="0"/>
			<psa10 value="0.0020342463213351" flag="0"/>
			<psa30 value="0.000142945511105314" flag="0"/>
		</comp>
		<comp name="--.HNZ" depth="0.0">
			<acc value="0.00241775802546302" flag="0"/>
			<vel value="0.00106569744285357" flag="0"/>
			<psa03 value="0.00791789496437716" flag="0"/>
			<psa10 value="0.000722393245632471" flag="0"/>
			<psa30 value="8.70428755385377e-05" flag="0"/>
		</comp>
	</station>
	<station code="MSL1" name="MSL1" netid="HI" source="ITSAK Strong Motion Network" insttype="" lat="38.3727" lon="21.4243" esm:processing="manual (Paolucci et al 2011)" esm:quality="good">
		<comp name="--.HNE" depth="0.0">
			<acc value="0.0161271760456828" flag="0"/>
			<vel value="0.012240487393196" flag="0"/>
			<psa03 value="0.0675478028354593" flag="0"/>
			<psa10 value="0.0253354314730109" flag="0"/>
			<psa30 value="0.00105790518519114" flag="0"/>
		</comp>
		<comp name="--.HNN" depth="0.0">
			<acc value="0.0169643681857901" flag="0"/>
			<vel value="0.00949757146742057" flag="0"/>
			<psa03 value="0.0658996780301524" flag="0"/>
			<psa10 value="0.0150640419813681" flag="0"/>
			<psa30 value="0.000771548246703542" flag="0"/>
		</comp>
		<comp name="--.HNZ" depth="0.0">
			<acc value="0.0135176923211983" flag="0"/>
			<vel value="0.00491434547562191" flag="0"/>
			<psa03 value="0.0442217211386519" flag="0"/>
			<psa10 value="0.00990884266221542" flag="0"/>
			<psa30 value="0.000297961248887276" flag="0"/>
		</comp>
	</station>
	<station code="PYL1" name="PYL1" netid="HI" source="ITSAK Strong Motion Network" insttype="" lat="36.914188" lon="21.695161" esm:processing="manual (Paolucci et al 2011)" esm:quality="best">
		<comp name="--.HNE" depth="0.0">
			<acc value="0.00259619375874567" flag="0"/>
			<vel value="0.00118586861674161" flag="0"/>
			<psa03 value="0.0122679988926284" flag="0"/>
			<psa10 value="0.00193393748886677" flag="0"/>
			<psa30 value="9.11968746786227e-05" flag="0"/>
		</comp>
		<comp name="--.HNN" depth="0.0">
			<acc value="0.00176883529058632" flag="0"/>
			<vel value="0.00107448996435081" flag="0"/>
			<psa03 value="0.00519096399306005" flag="0"/>
			<psa10 value="0.000888586091029391" flag="0"/>
			<psa30 value="0.000105744811064265" flag="0"/>
		</comp>
		<comp name="--.HNZ" depth="0.0">
			<acc value="0.00144068845063587" flag="0"/>
			<vel value="0.000611920671521299" flag="0"/>
			<psa03 value="0.00406892058768697" flag="0"/>
			<psa10 value="0.000840575293362403" flag="0"/>
			<psa30 value="7.09424339629782e-05" flag="0"/>
		</comp>
	</station>
	<station code="VAS2" name="VAS2" netid="HI" source="ITSAK Strong Motion Network" insttype="" lat="38.630558" lon="20.608081" esm:processing="manual (Paolucci et al 2011)" esm:quality="best">
		<comp name="--.HNE" depth="0.0">
			<acc value="0.0363675435610945" flag="0"/>
			<vel value="0.0269709572956328" flag="0"/>
			<psa03 value="0.102459653155842" flag="0"/>
			<psa10 value="0.0336157146764399" flag="0"/>
			<psa30 value="0.00126665186936327" flag="0"/>
		</comp>
		<comp name="--.HNN" depth="0.0">
			<acc value="0.0527199292877689" flag="0"/>
			<vel value="0.0267599222026492" flag="0"/>
			<psa03 value="0.173733988298749" flag="0"/>
			<psa10 value="0.0273580696588084" flag="0"/>
			<psa30 value="0.00148544125972662" flag="0"/>
		</comp>
		<comp name="--.HNZ" depth="0.0">
			<acc value="0.0243473310312456" flag="0"/>
			<vel value="0.0147396044195556" flag="0"/>
			<psa03 value="0.0678291852333" flag="0"/>
			<psa10 value="0.0143192958061117" flag="0"/>
			<psa30 value="0.000804017452930343" flag="0"/>
		</comp>
	</station>
	<station code="ARIA" name="ARIA" netid="HL" source="National Observatory of Athens Seismic Network" insttype="" lat="38.33358" lon="21.76206" esm:processing="manual (Paolucci et al 2011)" esm:quality="good">
		<comp name="00.HNE" depth="0.0">
			<acc value="0.00714669027122619" flag="0"/>
			<vel value="0.00510685175249547" flag="0"/>
			<psa03 value="0.028779049699969" flag="0"/>
			<psa10 value="0.00899885519249241" flag="0"/>
			<psa30 value="0.000465593395360762" flag="0"/>
		</comp>
		<comp name="00.HNN" depth="0.0">
			<acc value="0.00925232986254926" flag="0"/>
			<vel value="0.00470452458798715" flag="0"/>
			<psa03 value="0.0292727282370826" flag="0"/>
			<psa10 value="0.00548194487069369" flag="0"/>
			<psa30 value="0.000542717306524705" flag="0"/>
		</comp>
		<comp name="00.HNZ" depth="0.0">
			<acc value="0.0240601590719723" flag="0"/>
			<vel value="0.0035897978384292" flag="0"/>
			<psa03 value="0.0114761456549943" flag="0"/>
			<psa10 value="0.00340150720815881" flag="0"/>
			<psa30 value="0.000241905321915367" flag="0"/>
		</comp>
	</station>
	<station code="ITM" name="ITM" netid="HL" source="National Observatory of Athens Seismic Network" insttype="" lat="37.17872" lon="21.92522" esm:processing="manual (Paolucci et al 2011)" esm:quality="bad">
		<comp name="00.HNE" depth="0.0">
			<acc value="0.00274265329527431" flag="0"/>
			<vel value="0.00208455331345311" flag="0"/>
			<psa03 value="0.00671133099274076" flag="0"/>
			<psa10 value="0.0021825248388393" flag="0"/>
			<psa30 value="0.000145412171509383" flag="0"/>
		</comp>
		<comp name="00.HNN" depth="0.0">
			<acc value="0.00375639116720729" flag="0"/>
			<vel value="0.00193013881878472" flag="0"/>
			<psa03 value="0.00841153484423509" flag="0"/>
			<psa10 value="0.00177581818067921" flag="0"/>
			<psa30 value="0.000175836872009808" flag="0"/>
		</comp>
		<comp name="00.HNZ" depth="0.0">
			<acc value="0.00199807574982961" flag="0"/>
			<vel value="0.00150629204039855" flag="0"/>
			<psa03 value="0.00474267390153681" flag="0"/>
			<psa10 value="0.00168722861157503" flag="0"/>
			<psa30 value="0.000146754437707931" flag="0"/>
		</comp>
	</station>
	<station code="LXRA" name="LXRA" netid="HL" source="National Observatory of Athens Seismic Network" insttype="" lat="38.20006" lon="20.43718" esm:processing="manual (Paolucci et al 2011)" esm:quality="bad">
		<comp name="00.HNE" depth="0.0">
			<acc value="0.0571522766729089" flag="0"/>
			<vel value="0.0249565636074751" flag="0"/>
			<psa03 value="0.127962710928257" flag="0"/>
			<psa10 value="0.0117018767189428" flag="0"/>
			<psa30 value="0.00123041068200247" flag="0"/>
		</comp>
		<comp name="00.HNN" depth="0.0">
			<acc value="0.0571114083549948" flag="0"/>
			<vel value="0.0259599411728441" flag="0"/>
			<psa03 value="0.142682896905669" flag="0"/>
			<psa10 value="0.0176494582447097" flag="0"/>
			<psa30 value="0.00117761487819291" flag="0"/>
		</comp>
		<comp name="00.HNZ" depth="0.0">
			<acc value="0.0340641065158936" flag="0"/>
			<vel value="0.0129161257886244" flag="0"/>
			<psa03 value="0.0766881421437178" flag="0"/>
			<psa10 value="0.00965223623375976" flag="0"/>
			<psa30 value="0.000591491971493552" flag="0"/>
		</comp>
	</station>
	<station code="PATC" name="PATC" netid="HL" source="National Observatory of Athens Seismic Network" insttype="" lat="38.26933" lon="21.76001" esm:processing="manual (Paolucci et al 2011)" esm:quality="good">
		<comp name="00.HNE" depth="0.0">
			<acc value="0.0117191599292575" flag="0"/>
			<vel value="0.00712734517846746" flag="0"/>
			<psa03 value="0.0438200330704667" flag="0"/>
			<psa10 value="0.0136351795137248" flag="0"/>
			<psa30 value="0.0011232174284755" flag="0"/>
		</comp>
		<comp name="00.HNN" depth="0.0">
			<acc value="0.0102007902806169" flag="0"/>
			<vel value="0.00524492192544117" flag="0"/>
			<psa03 value="0.0315388835670848" flag="0"/>
			<psa10 value="0.0100690814022264" flag="0"/>
			<psa30 value="0.000555535238983157" flag="0"/>
		</comp>
		<comp name="00.HNZ" depth="0.0">
			<acc value="0.00733890445536872" flag="0"/>
			<vel value="0.00377399037066871" flag="0"/>
			<psa03 value="0.0194282583809355" flag="0"/>
			<psa10 value="0.00416996592727755" flag="0"/>
			<psa30 value="0.000403284580207554" flag="0"/>
		</comp>
	</station>
	<station code="PATG" name="PATG" netid="HL" source="National Observatory of Athens Seismic Network" insttype="" lat="38.23865" lon="21.72657" esm:processing="manual (Paolucci et al 2011)" esm:quality="good">
		<comp name="00.HNE" depth="0.0">
			<acc value="0.0114973737491437" flag="0"/>
			<vel value="0.00885079573998916" flag="0"/>
			<psa03 value="0.0430543365134943" flag="0"/>
			<psa10 value="0.0129456728997955" flag="0"/>
			<psa30 value="0.000932546464126547" flag="0"/>
		</comp>
		<comp name="00.HNN" depth="0.0">
			<acc value="0.0182723747642999" flag="0"/>
			<vel value="0.0110827717004143" flag="0"/>
			<psa03 value="0.0528800447101069" flag="0"/>
			<psa10 value="0.0111450679935574" flag="0"/>
			<psa30 value="0.000665767541332195" flag="0"/>
		</comp>
		<comp name="00.HNZ" depth="0.0">
			<acc value="0.0113209798888028" flag="0"/>
			<vel value="0.00566417043021577" flag="0"/>
			<psa03 value="0.0343042125898944" flag="0"/>
			<psa10 value="0.00518982536295995" flag="0"/>
			<psa30 value="0.000559772811368197" flag="0"/>
		</comp>
	</station>
	<station code="ARS1" name="ARS1" netid="HI" source="ITSAK Strong Motion Network" insttype="" lat="37.6349" lon="22.7293" esm:processing="discarded" esm:quality="good">
		<comp name="--.HNE" depth="0.0">
			<acc value="0" flag="1"/>
			<vel value="0" flag="1"/>
			<psa03 value="0" flag="1"/>
			<psa10 value="0" flag="1"/>
			<psa30 value="0" flag="1"/>
		</comp>
		<comp name="--.HNN" depth="0.0">
			<acc value="0" flag="1"/>
			<vel value="0" flag="1"/>
			<psa03 value="0" flag="1"/>
			<psa10 value="0" flag="1"/>
			<psa30 value="0" flag="1"/>
		</comp>
		<comp name="--.HNZ" depth="0.0">
			<acc value="0" flag="1"/>
			<vel value="0" flag="1"/>
			<psa03 value="0" flag="1"/>
			<psa10 value="0" flag="1"/>
			<psa30 value="0" flag="1"/>
		</comp>
	</station>
	<station code="DLFA" name="DLFA" netid="HL" source="National Observatory of Athens Seismic Network" insttype="" lat="38.47836" lon="22.49583" esm:processing="discarded" esm:quality="bad">
		<comp name="00.HNE" depth="0.0">
			<acc value="0" flag="1"/>
			<vel value="0" flag="1"/>
			<psa03 value="0" flag="1"/>
			<psa10 value="0" flag="1"/>
			<psa30 value="0" flag="1"/>
		</comp>
		<comp name="00.HNN" depth="0.0">
			<acc value="0" flag="1"/>
			<vel value="0" flag="1"/>
			<psa03 value="0" flag="1"/>
			<psa10 value="0" flag="1"/>
			<psa30 value="0" flag="1"/>
		</comp>
		<comp name="00.HNZ" depth="0.0">
			<acc value="0" flag="1"/>
			<vel value="0" flag="1"/>
			<psa03 value="0" flag="1"/>
			<psa10 value="0" flag="1"/>
			<psa30 value="0" flag="1"/>
		</comp>
	</station>
	<station code="RIOA" name="RIOA" netid="HL" source="National Observatory of Athens Seismic Network" insttype="" lat="38.29585" lon="21.79118" esm:processing="automatic (Paolucci et al 2011)" esm:quality="bad">
		<comp name="00.HNE" depth="0.0">
			<acc value="0" flag="1"/>
			<vel value="0" flag="1"/>
			<psa03 value="0" flag="1"/>
			<psa10 value="0" flag="1"/>
			<psa30 value="0" flag="1"/>
		</comp>
		<comp name="00.HNN" depth="0.0">
			<acc value="0" flag="1"/>
			<vel value="0" flag="1"/>
			<psa03 value="0" flag="1"/>
			<psa10 value="0" flag="1"/>
			<psa30 value="0" flag="1"/>
		</comp>
		<comp name="00.HNZ" depth="0.0">
			<acc value="0" flag="1"/>
			<vel value="0" flag="1"/>
			<psa03 value="0" flag="1"/>
			<psa10 value="0" flag="1"/>
			<psa30 value="0" flag="1"/>
		</comp>
	</station>
	<station code="FSK" name="FSK" netid="HP" source="University of Patras, Seismological Laboratory (PSLNET)" insttype="" lat="38.4593" lon="20.5623" esm:processing="discarded" esm:quality="good">
		<comp name="--.HNE" depth="0.0">
			<acc value="0" flag="1"/>
			<vel value="0" flag="1"/>
			<psa03 value="0" flag="1"/>
			<psa10 value="0" flag="1"/>
			<psa30 value="0" flag="1"/>
		</comp>
		<comp name="--.HNN" depth="0.0">
			<acc value="0" flag="1"/>
			<vel value="0" flag="1"/>
			<psa03 value="0" flag="1"/>
			<psa10 value="0" flag="1"/>
			<psa30 value="0" flag="1"/>
		</comp>
		<comp name="--.HNZ" depth="0.0">
			<acc value="0" flag="1"/>
			<vel value="0" flag="1"/>
			<psa03 value="0" flag="1"/>
			<psa10 value="0" flag="1"/>
			<psa30 value="0" flag="1"/>
		</comp>
	</station>
</stationlist>
