<?xml version="1.0" encoding="UTF-8" standalone="yes"?>
<!DOCTYPE earthquake SYSTEM "stationlist.dtd">
<stationlist created="" xmlns="ch.ethz.sed.shakemap.usgs.xml">
  <station code="KEF3" name="KEF3" netid="HL" source="NOA" insttype="SMART24" lat="38.2031" lon="20.3482">
    <comp name="--.HHE">
      <acc value="0.1102038924" flag="0"/>
      <vel value="0.0312941443" flag="0"/>
      <psa03 value="0.2144444793" flag="0"/>
      <psa10 value="0.0191309645" flag="0"/>
      <psa30 value="0.0011665754" flag="0"/>
    </comp>
    <comp name="--.HHN">
      <acc value="0.1460577086" flag="0"/>
      <vel value="0.0504003296" flag="0"/>
      <psa03 value="0.3050255866" flag="0"/>
      <psa10 value="0.0206040846" flag="0"/>
      <psa30 value="0.0014481844" flag="0"/>
    </comp>
    <comp name="--.HHZ">
      <acc value="0.0945876972" flag="0"/>
      <vel value="0.0288302657" flag="0"/>
      <psa03 value="0.1804868858" flag="0"/>
      <psa10 value="0.0122585250" flag="0"/>
      <psa30 value="0.0008937439" flag="0"/>
    </comp>
  </station>
  <station code="KEF4" name="KEF4" netid="HL" source="NOA" insttype="SMART24" lat="38.258" lon="20.4244">
    <comp name="--.HHE">
      <acc value="0.2745791816" flag="0"/>
      <vel value="0.1086008848" flag="0"/>
      <psa03 value="0.4816011630" flag="0"/>
      <psa10 value="0.0326927396" flag="0"/>
      <psa30 value="0.0030510719" flag="0"/>
    </comp>
    <comp name="--.HHN">
      <acc value="0.1949034943" flag="0"/>
      <vel value="0.0748118363" flag="0"/>
      <psa03 value="0.4453352340" flag="0"/>
      <psa10 value="0.0327094488" flag="0"/>
      <psa30 value="0.0029825634" flag="0"/>
    </comp>
    <comp name="--.HHZ">
      <acc value="0.0819638014" flag="0"/>
      <vel value="0.0263164330" flag="0"/>
      <psa03 value="0.1779154623" flag="0"/>
      <psa10 value="0.0240543482" flag="0"/>
      <psa30 value="0.0009216726" flag="0"/>
    </comp>
  </station>
  <station code="RLS" name="RLS" netid="HL" source="NOA" insttype="120" lat="38.0559" lon="21.4647">
    <comp name="--.HHE">
      <acc value="0.0074086697" flag="0"/>
      <vel value="0.0036068856" flag="0"/>
      <psa03 value="0.0216669372" flag="0"/>
      <psa10 value="0.0031001881" flag="0"/>
      <psa30 value="0.0001861230" flag="0"/>
    </comp>
    <comp name="--.HHN">
      <acc value="0.0081112946" flag="0"/>
      <vel value="0.0031778721" flag="0"/>
      <psa03 value="0.0160017913" flag="0"/>
      <psa10 value="0.0040658138" flag="0"/>
      <psa30 value="0.0002503158" flag="0"/>
    </comp>
    <comp name="--.HHZ">
      <acc value="0.0046452057" flag="0"/>
      <vel value="0.0017375142" flag="0"/>
      <psa03 value="0.0092131653" flag="0"/>
      <psa10 value="0.0018791898" flag="0"/>
      <psa30 value="0.0001251419" flag="0"/>
    </comp>
  </station>
  <station code="VLS" name="VLS" netid="HL" source="NOA" insttype="120P," lat="38.1768" lon="20.5886">
    <comp name="--.HHE">
      <acc value="0.0592279246" flag="0"/>
      <vel value="0.0152216307" flag="0"/>
      <psa03 value="0.0976734392" flag="0"/>
      <psa10 value="0.0049356477" flag="0"/>
      <psa30 value="0.0002636068" flag="0"/>
    </comp>
    <comp name="--.HHN">
      <acc value="0.0570628606" flag="0"/>
      <vel value="0.0201015373" flag="0"/>
      <psa03 value="0.0697621571" flag="0"/>
      <psa10 value="0.0081436759" flag="0"/>
      <psa30 value="0.0004658919" flag="0"/>
    </comp>
    <comp name="--.HHZ">
      <acc value="0.0222395196" flag="0"/>
      <vel value="0.0082048509" flag="0"/>
      <psa03 value="0.0460364497" flag="0"/>
      <psa10 value="0.0032236251" flag="0"/>
      <psa30 value="0.0003284105" flag="0"/>
    </comp>
  </station>
  <station code="FSK" name="FSK" netid="HP" source="NOA" insttype="DC_100" lat="38.4593" lon="20.5623">
    <comp name="--.HNE">
      <acc value="0.0357181476" flag="0"/>
      <vel value="0.0113984114" flag="0"/>
      <psa03 value="0.0465973351" flag="0"/>
      <psa10 value="0.0063257159" flag="0"/>
      <psa30 value="0.0005327282" flag="0"/>
    </comp>
    <comp name="--.HNN">
      <acc value="0.0131641784" flag="0"/>
      <vel value="0.0056146818" flag="0"/>
      <psa03 value="0.0278180228" flag="0"/>
      <psa10 value="0.0091756255" flag="0"/>
      <psa30 value="0.0003357862" flag="0"/>
    </comp>
    <comp name="--.HNZ">
      <acc value="0.0127868747" flag="0"/>
      <vel value="0.0045960597" flag="0"/>
      <psa03 value="0.0173424088" flag="0"/>
      <psa10 value="0.0034174485" flag="0"/>
      <psa30 value="0.0003134583" flag="0"/>
    </comp>
  </station>
</stationlist>
