<stationlist xmlns:esm="https://esm-db.eu/esmws/shakemap/1/" created="1781229309">
	<station code="ARK1" name="ARK1" netid="HI" source="ITSAK Strong Motion Network" insttype="" lat="35.148777" lon="25.264194" esm:processing="automatic (Paolucci et al 2011)" esm:quality="best">
		<comp name="--.HNE" depth="0.0">
			<acc value="0.0509771249418704" flag="0"/>
			<vel value="0.0580090334564908" flag="0"/>
			<psa03 value="0.133934685015597" flag="0"/>
			<psa10 value="0.110964113327792" flag="0"/>
			<psa30 value="0.00662583142883601" flag="0"/>
		</comp>
		<comp name="--.HNN" depth="0.0">
			<acc value="0.051495929992415" flag="0"/>
			<vel value="0.0496380280741431" flag="0"/>
			<psa03 value="0.137236362068847" flag="0"/>
			<psa10 value="0.091378950907139" flag="0"/>
			<psa30 value="0.00826937530551074" flag="0"/>
		</comp>
		<comp name="--.HNZ" depth="0.0">
			<acc value="0.0317450738099862" flag="0"/>
			<vel value="0.0321042777455548" flag="0"/>
			<psa03 value="0.111387014259541" flag="0"/>
			<psa10 value="0.0496097901552626" flag="0"/>
			<psa30 value="0.00458712470782393" flag="0"/>
		</comp>
	</station>
	<station code="GOR1" name="GOR1" netid="HI" source="ITSAK Strong Motion Network" insttype="" lat="35.0582" lon="24.9628" esm:processing="automatic (Paolucci et al 2011)" esm:quality="best">
		<comp name="--.HNE" depth="0.0">
			<acc value="0.0302370121433017" flag="0"/>
			<vel value="0.0345064020900464" flag="0"/>
			<psa03 value="0.0792096326660865" flag="0"/>
			<psa10 value="0.0587695731959277" flag="0"/>
			<psa30 value="0.00540542558293025" flag="0"/>
		</comp>
		<comp name="--.HNN" depth="0.0">
			<acc value="0.0358539448191803" flag="0"/>
			<vel value="0.035759707801815" flag="0"/>
			<psa03 value="0.114229421305376" flag="0"/>
			<psa10 value="0.0952279733860458" flag="0"/>
			<psa30 value="0.00843685640032471" flag="0"/>
		</comp>
		<comp name="--.HNZ" depth="0.0">
			<acc value="0.0280289343837402" flag="0"/>
			<vel value="0.0234002174747926" flag="0"/>
			<psa03 value="0.0727975099779291" flag="0"/>
			<psa10 value="0.0352126089125155" flag="0"/>
			<psa30 value="0.00401877497412088" flag="0"/>
		</comp>
	</station>
	<station code="HER1" name="HER1" netid="HI" source="ITSAK Strong Motion Network" insttype="" lat="35.317672" lon="25.10217" esm:processing="manual (Paolucci et al 2011)" esm:quality="good">
		<comp name="--.HNE" depth="0.0">
			<acc value="0.0917221015110105" flag="0"/>
			<vel value="0.113731916756529" flag="0"/>
			<psa03 value="0.170717455026891" flag="0"/>
			<psa10 value="0.280700185009652" flag="0"/>
			<psa30 value="0.0146912015533356" flag="0"/>
		</comp>
		<comp name="--.HNN" depth="0.0">
			<acc value="0.122084244342822" flag="0"/>
			<vel value="0.14476427776759" flag="0"/>
			<psa03 value="0.206088756535356" flag="0"/>
			<psa10 value="0.296422726550867" flag="0"/>
			<psa30 value="0.0179538160188651" flag="0"/>
		</comp>
		<comp name="--.HNZ" depth="0.0">
			<acc value="0.0755327184242678" flag="0"/>
			<vel value="0.0767390621651896" flag="0"/>
			<psa03 value="0.152505467322085" flag="0"/>
			<psa10 value="0.179213377006693" flag="0"/>
			<psa30 value="0.00525357594028949" flag="0"/>
		</comp>
	</station>
	<station code="HER3" name="HER3" netid="HI" source="ITSAK Strong Motion Network" insttype="" lat="35.3296" lon="25.1065" esm:processing="manual (Paolucci et al 2011)" esm:quality="good">
		<comp name="--.HNE" depth="0.0">
			<acc value="0.113622124810793" flag="0"/>
			<vel value="0.115776817941058" flag="0"/>
			<psa03 value="0.197698888247757" flag="0"/>
			<psa10 value="0.322448400624047" flag="0"/>
			<psa30 value="0.0113850775388452" flag="0"/>
		</comp>
		<comp name="--.HNN" depth="0.0">
			<acc value="0.103131747086988" flag="0"/>
			<vel value="0.110985201670757" flag="0"/>
			<psa03 value="0.333164612187137" flag="0"/>
			<psa10 value="0.193472076575561" flag="0"/>
			<psa30 value="0.0117127300775512" flag="0"/>
		</comp>
		<comp name="--.HNZ" depth="0.0">
			<acc value="0.0667858589939389" flag="0"/>
			<vel value="0.0588670013217993" flag="0"/>
			<psa03 value="0.129610669404085" flag="0"/>
			<psa10 value="0.128736998194322" flag="0"/>
			<psa30 value="0.00395738215714608" flag="0"/>
		</comp>
	</station>
	<station code="KTL1" name="KTL1" netid="HI" source="ITSAK Strong Motion Network" insttype="" lat="35.20778" lon="25.34272" esm:processing="manual (Paolucci et al 2011)" esm:quality="good">
		<comp name="--.HNE" depth="0.0">
			<acc value="0.0739748021156549" flag="0"/>
			<vel value="0.0661606416814983" flag="0"/>
			<psa03 value="0.292695993839781" flag="0"/>
			<psa10 value="0.107643725868551" flag="0"/>
			<psa30 value="0.00481209919462175" flag="0"/>
		</comp>
		<comp name="--.HNN" depth="0.0">
			<acc value="0.0571308276121706" flag="0"/>
			<vel value="0.0497940940485235" flag="0"/>
			<psa03 value="0.260717458752107" flag="0"/>
			<psa10 value="0.109184875462148" flag="0"/>
			<psa30 value="0.00441074260671756" flag="0"/>
		</comp>
		<comp name="--.HNZ" depth="0.0">
			<acc value="0.0239717102896334" flag="0"/>
			<vel value="0.0225258204512919" flag="0"/>
			<psa03 value="0.0792013404501048" flag="0"/>
			<psa10 value="0.0364556925107136" flag="0"/>
			<psa30 value="0.00446823516531741" flag="0"/>
		</comp>
	</station>
	<station code="AGNA" name="AGNA" netid="HL" source="National Observatory of Athens Seismic Network" insttype="" lat="35.1895" lon="25.71853" esm:processing="manual (Paolucci et al 2011)" esm:quality="good">
		<comp name="00.HNE" depth="0.0">
			<acc value="0.0432547285974794" flag="0"/>
			<vel value="0.052241159355837" flag="0"/>
			<psa03 value="0.150982793535965" flag="0"/>
			<psa10 value="0.069996804444883" flag="0"/>
			<psa30 value="0.00756577619553405" flag="0"/>
		</comp>
		<comp name="00.HNN" depth="0.0">
			<acc value="0.0900893478340922" flag="0"/>
			<vel value="0.0775763023806589" flag="0"/>
			<psa03 value="0.22218130175396" flag="0"/>
			<psa10 value="0.148818543498043" flag="0"/>
			<psa30 value="0.00707614209304083" flag="0"/>
		</comp>
		<comp name="00.HNZ" depth="0.0">
			<acc value="0.0310092832825769" flag="0"/>
			<vel value="0.0222300154682615" flag="0"/>
			<psa03 value="0.12562432199482" flag="0"/>
			<psa10 value="0.0387856281075246" flag="0"/>
			<psa30 value="0.00478248223263932" flag="0"/>
		</comp>
	</station>
	<station code="SIVA" name="SIVA" netid="HL" source="National Observatory of Athens Seismic Network" insttype="" lat="35.01777" lon="24.81204" esm:processing="manual (Paolucci et al 2011)" esm:quality="best">
		<comp name="00.HNE" depth="0.0">
			<acc value="0.0409155826484872" flag="0"/>
			<vel value="0.0384083411130867" flag="0"/>
			<psa03 value="0.176095936324749" flag="0"/>
			<psa10 value="0.0722344426771911" flag="0"/>
			<psa30 value="0.00540074193930108" flag="0"/>
		</comp>
		<comp name="00.HNN" depth="0.0">
			<acc value="0.0485647470694161" flag="0"/>
			<vel value="0.0474589658119492" flag="0"/>
			<psa03 value="0.0881280776359142" flag="0"/>
			<psa10 value="0.0647162971372164" flag="0"/>
			<psa30 value="0.00435600773079852" flag="0"/>
		</comp>
		<comp name="00.HNZ" depth="0.0">
			<acc value="0.0204013442841974" flag="0"/>
			<vel value="0.0174864879406697" flag="0"/>
			<psa03 value="0.059526865237578" flag="0"/>
			<psa10 value="0.0254535680489673" flag="0"/>
			<psa30 value="0.00255873408690989" flag="0"/>
		</comp>
	</station>
	<station code="THRA" name="THRA" netid="HL" source="National Observatory of Athens Seismic Network" insttype="" lat="36.41502" lon="25.43244" esm:processing="manual (Paolucci et al 2011)" esm:quality="good">
		<comp name="00.HNE" depth="0.0">
			<acc value="0.0315432968125257" flag="0"/>
			<vel value="0.03260794421181" flag="0"/>
			<psa03 value="0.0836835540414771" flag="0"/>
			<psa10 value="0.0547343546324726" flag="0"/>
			<psa30 value="0.00468052256165153" flag="0"/>
		</comp>
		<comp name="00.HNN" depth="0.0">
			<acc value="0.0350598656077289" flag="0"/>
			<vel value="0.0288575853353916" flag="0"/>
			<psa03 value="0.0660564227887351" flag="0"/>
			<psa10 value="0.0538859921826909" flag="0"/>
			<psa30 value="0.00377577387648765" flag="0"/>
		</comp>
		<comp name="00.HNZ" depth="0.0">
			<acc value="0.021124504716392" flag="0"/>
			<vel value="0.0174921979689947" flag="0"/>
			<psa03 value="0.057247281934834" flag="0"/>
			<psa10 value="0.0196472571593696" flag="0"/>
			<psa30 value="0.00151317544878123" flag="0"/>
		</comp>
	</station>
</stationlist>
