<?xml version="1.0" encoding="UTF-8" standalone="yes"?>
<!DOCTYPE earthquake SYSTEM "stationlist.dtd">
<stationlist created="" xmlns="ch.ethz.sed.shakemap.usgs.xml">
  <station code="ZKR" name="ZKR" netid="GE" insttype="STS-2/N" lat="35.1147" lon="26.2169">
    <comp name="--.HHE">
      <acc value="0.1265280133" flag="0"/>
      <vel value="0.0999228421" flag="0"/>
      <psa03 value="0.3388264997" flag="0"/>
      <psa10 value="0.1343775041" flag="0"/>
      <psa30 value="0.0064817653" flag="0"/>
    </comp>
    <comp name="--.HHN">
      <acc value="0.0605560570" flag="0"/>
      <vel value="0.0536161863" flag="0"/>
      <psa03 value="0.2076918976" flag="0"/>
      <psa10 value="0.0508239782" flag="0"/>
      <psa30 value="0.0040624372" flag="0"/>
    </comp>
    <comp name="--.HHZ">
      <acc value="0.0869804799" flag="0"/>
      <vel value="0.0574013185" flag="0"/>
      <psa03 value="0.2379852934" flag="0"/>
      <psa10 value="0.1051938040" flag="0"/>
      <psa30 value="0.0061780803" flag="0"/>
    </comp>
  </station>
  <station code="IDI" name="IDI" netid="MN" insttype="" lat="35.288" lon="24.89">
    <comp name="--.HHE">
      <acc value="0.0122553939" flag="0"/>
      <vel value="0.0097674079" flag="0"/>
      <psa03 value="0.0370253003" flag="0"/>
      <psa10 value="0.0140884340" flag="0"/>
      <psa30 value="0.0015025034" flag="0"/>
    </comp>
    <comp name="--.HHN">
      <acc value="0.0166368069" flag="0"/>
      <vel value="0.0115445829" flag="0"/>
      <psa03 value="0.0394773726" flag="0"/>
      <psa10 value="0.0168131728" flag="0"/>
      <psa30 value="0.0020277948" flag="0"/>
    </comp>
    <comp name="--.HHZ">
      <acc value="0.0116866065" flag="0"/>
      <vel value="0.0106992472" flag="0"/>
      <psa03 value="0.0274641930" flag="0"/>
      <psa10 value="0.0198862194" flag="0"/>
      <psa30 value="0.0012981716" flag="0"/>
    </comp>
  </station>
</stationlist>
