<?xml version="1.0" encoding="UTF-8" standalone="yes"?>
<!DOCTYPE earthquake SYSTEM "stationlist.dtd">
<stationlist created="" xmlns="ch.ethz.sed.shakemap.usgs.xml">
  <station code="ZKR" name="ZKR" netid="GE" insttype="STS-2/N" lat="35.1147" lon="26.2169">
    <comp name="--.HHE">
      <acc value="0.1265280133" flag="0"/>
      <vel value="0.0999228421" flag="0"/>
      <psa03 value="0.3388264997" flag="0"/>
      <psa10 value="0.1343775041" flag="0"/>
      <psa30 value="0.0064817653" flag="0"/>
    </comp>
    <comp name="--.HHN">
      <acc value="0.0605560570" flag="0"/>
      <vel value="0.0536161863" flag="0"/>
      <psa03 value="0.2076918976" flag="0"/>
      <psa10 value="0.0508239782" flag="0"/>
      <psa30 value="0.0040624372" flag="0"/>
    </comp>
    <comp name="--.HHZ">
      <acc value="0.0869804799" flag="0"/>
      <vel value="0.0574013185" flag="0"/>
      <psa03 value="0.2379852934" flag="0"/>
      <psa10 value="0.1051938040" flag="0"/>
      <psa30 value="0.0061780803" flag="0"/>
    </comp>
  </station>
  <station code="KNSS" name="KNSS" netid="HC" insttype="60" lat="35.3042" lon="25.1802">
    <comp name="--.HHN">
      <acc value="0.0341475988" flag="0"/>
      <vel value="0.0280183571" flag="0"/>
      <psa03 value="0.0893025205" flag="0"/>
      <psa10 value="0.0464187833" flag="0"/>
      <psa30 value="0.0038276238" flag="0"/>
    </comp>
    <comp name="--.HHE">
      <acc value="0.0312333770" flag="0"/>
      <vel value="0.0250662694" flag="0"/>
      <psa03 value="0.0762385321" flag="0"/>
      <psa10 value="0.0469493798" flag="0"/>
      <psa30 value="0.0035638989" flag="0"/>
    </comp>
    <comp name="--.HHZ">
      <acc value="0.0217366677" flag="0"/>
      <vel value="0.0119297480" flag="0"/>
      <psa03 value="0.0823303231" flag="0"/>
      <psa10 value="0.0237715233" flag="0"/>
      <psa30 value="0.0019827293" flag="0"/>
    </comp>
  </station>
  <station code="PFKS" name="PFKS" netid="HC" insttype="120" lat="35.0429" lon="25.4733">
    <comp name="--.HHZ">
      <acc value="0.0657892796" flag="0"/>
      <vel value="0.0436276404" flag="0"/>
      <psa03 value="0.2240387075" flag="0"/>
      <psa10 value="0.0472023643" flag="0"/>
      <psa30 value="0.0035478661" flag="0"/>
    </comp>
    <comp name="--.HHE">
      <acc value="0.1309849933" flag="0"/>
      <vel value="0.0788199734" flag="0"/>
      <psa03 value="0.4116237135" flag="0"/>
      <psa10 value="0.0923786224" flag="0"/>
      <psa30 value="0.0046265391" flag="0"/>
    </comp>
    <comp name="--.HHN">
      <acc value="0.1107960555" flag="0"/>
      <vel value="0.0729972046" flag="0"/>
      <psa03 value="0.2435370466" flag="0"/>
      <psa10 value="0.0519999735" flag="0"/>
      <psa30 value="0.0041812132" flag="0"/>
    </comp>
  </station>
  <station code="STIA" name="STIA" netid="HC" insttype="120" lat="35.2021" lon="26.0909">
    <comp name="--.HHN">
      <acc value="0.0000000000" flag="0"/>
      <vel value="-100.0000000000" flag="0"/>
      <psa03 value="0.0000000000" flag="0"/>
      <psa10 value="0.0000000000" flag="0"/>
      <psa30 value="0.0000000000" flag="0"/>
    </comp>
    <comp name="--.HHZ">
      <acc value="0.0958964391" flag="0"/>
      <vel value="0.0635797250" flag="0"/>
      <psa03 value="0.2817154503" flag="0"/>
      <psa10 value="0.0876560848" flag="0"/>
      <psa30 value="0.0046141340" flag="0"/>
    </comp>
    <comp name="--.HHE">
      <acc value="0.1255273665" flag="0"/>
      <vel value="0.0847494953" flag="0"/>
      <psa03 value="0.4415847572" flag="0"/>
      <psa10 value="0.0857564140" flag="0"/>
      <psa30 value="0.0054134482" flag="0"/>
    </comp>
  </station>
  <station code="IACM" name="IACM" netid="HL" insttype="120" lat="35.3058" lon="25.0709">
    <comp name="--.HHN">
      <acc value="0.1133451512" flag="0"/>
      <vel value="0.1072502559" flag="0"/>
      <psa03 value="0.2619245763" flag="0"/>
      <psa10 value="0.1832347794" flag="0"/>
      <psa30 value="0.0087509578" flag="0"/>
    </comp>
    <comp name="--.HHE">
      <acc value="0.1052536551" flag="0"/>
      <vel value="0.1180987293" flag="0"/>
      <psa03 value="0.2386235086" flag="0"/>
      <psa10 value="0.3221376120" flag="0"/>
      <psa30 value="0.0132931070" flag="0"/>
    </comp>
    <comp name="--.HHZ">
      <acc value="0.0688385004" flag="0"/>
      <vel value="0.0476250056" flag="0"/>
      <psa03 value="0.1502977262" flag="0"/>
      <psa10 value="0.0570216463" flag="0"/>
      <psa30 value="0.0031914028" flag="0"/>
    </comp>
  </station>
  <station code="IDI" name="IDI" netid="HL" insttype="120" lat="35.288" lon="24.89">
    <comp name="--.HHE">
      <acc value="0.0120400363" flag="0"/>
      <vel value="0.0098062111" flag="0"/>
      <psa03 value="0.0367388860" flag="0"/>
      <psa10 value="0.0141951820" flag="0"/>
      <psa30 value="0.0015170257" flag="0"/>
    </comp>
    <comp name="--.HHN">
      <acc value="0.0166131287" flag="0"/>
      <vel value="0.0115136577" flag="0"/>
      <psa03 value="0.0391729991" flag="0"/>
      <psa10 value="0.0169252399" flag="0"/>
      <psa30 value="0.0020503558" flag="0"/>
    </comp>
    <comp name="--.HHZ">
      <acc value="0.0114667700" flag="0"/>
      <vel value="0.0106758494" flag="0"/>
      <psa03 value="0.0272458266" flag="0"/>
      <psa10 value="0.0200343621" flag="0"/>
      <psa30 value="0.0013123223" flag="0"/>
    </comp>
  </station>
  <station code="SIVA" name="SIVA" netid="HL" insttype="60" lat="35.0178" lon="24.812">
    <comp name="--.HHN">
      <acc value="0.0434725701" flag="0"/>
      <vel value="0.0416462884" flag="0"/>
      <psa03 value="0.0848467997" flag="0"/>
      <psa10 value="0.0552280582" flag="0"/>
      <psa30 value="0.0035173127" flag="0"/>
    </comp>
    <comp name="--.HHE">
      <acc value="0.0441600142" flag="0"/>
      <vel value="0.0403535399" flag="0"/>
      <psa03 value="0.1919050420" flag="0"/>
      <psa10 value="0.0768559833" flag="0"/>
      <psa30 value="0.0053494999" flag="0"/>
    </comp>
    <comp name="--.HHZ">
      <acc value="0.0211405441" flag="0"/>
      <vel value="0.0175355408" flag="0"/>
      <psa03 value="0.0621799856" flag="0"/>
      <psa10 value="0.0259407060" flag="0"/>
      <psa30 value="0.0022282017" flag="0"/>
    </comp>
  </station>
  <station code="ZKR" name="ZKR" netid="HL" insttype="120" lat="35.1147" lon="26.2169">
    <comp name="--.HHE">
      <acc value="0.1241746150" flag="0"/>
      <vel value="0.0986094246" flag="0"/>
      <psa03 value="0.3299712618" flag="0"/>
      <psa10 value="0.1333542743" flag="0"/>
      <psa30 value="0.0064199525" flag="0"/>
    </comp>
    <comp name="--.HHZ">
      <acc value="0.0840556636" flag="0"/>
      <vel value="0.0560962423" flag="0"/>
      <psa03 value="0.2310450807" flag="0"/>
      <psa10 value="0.1044744356" flag="0"/>
      <psa30 value="0.0061568400" flag="0"/>
    </comp>
    <comp name="--.HHN">
      <acc value="0.0591723333" flag="0"/>
      <vel value="0.0527803863" flag="0"/>
      <psa03 value="0.2024041531" flag="0"/>
      <psa10 value="0.0502720213" flag="0"/>
      <psa30 value="0.0040387966" flag="0"/>
    </comp>
  </station>
  <station code="IDI" name="IDI" netid="MN" insttype="" lat="35.288" lon="24.89">
    <comp name="--.HHE">
      <acc value="0.0122553939" flag="0"/>
      <vel value="0.0097674079" flag="0"/>
      <psa03 value="0.0370253003" flag="0"/>
      <psa10 value="0.0140884340" flag="0"/>
      <psa30 value="0.0015025034" flag="0"/>
    </comp>
    <comp name="--.HHN">
      <acc value="0.0166368069" flag="0"/>
      <vel value="0.0115445829" flag="0"/>
      <psa03 value="0.0394773726" flag="0"/>
      <psa10 value="0.0168131728" flag="0"/>
      <psa30 value="0.0020277948" flag="0"/>
    </comp>
    <comp name="--.HHZ">
      <acc value="0.0116866065" flag="0"/>
      <vel value="0.0106992472" flag="0"/>
      <psa03 value="0.0274641930" flag="0"/>
      <psa10 value="0.0198862194" flag="0"/>
      <psa30 value="0.0012981716" flag="0"/>
    </comp>
  </station>
</stationlist>
