<?xml version="1.0" encoding="UTF-8" standalone="yes"?>
<!DOCTYPE earthquake SYSTEM "stationlist.dtd">
<stationlist created="" xmlns="ch.ethz.sed.shakemap.usgs.xml">
  <station code="KOSP" name="KOSP" netid="HC" insttype="60" lat="36.881" lon="27.281">
    <comp name="--.HHE">
      <acc value="0.0197728192" flag="0"/>
      <vel value="0.0099076762" flag="0"/>
      <psa03 value="0.0489033075" flag="0"/>
      <psa10 value="0.0111792217" flag="0"/>
      <psa30 value="0.0012202582" flag="0"/>
    </comp>
    <comp name="--.HHZ">
      <acc value="0.0122416099" flag="0"/>
      <vel value="0.0065424876" flag="0"/>
      <psa03 value="0.0204548689" flag="0"/>
      <psa10 value="0.0100945886" flag="0"/>
      <psa30 value="0.0010639851" flag="0"/>
    </comp>
    <comp name="--.HHN">
      <acc value="0.0222877499" flag="0"/>
      <vel value="0.0139962954" flag="0"/>
      <psa03 value="0.0452979637" flag="0"/>
      <psa10 value="0.0119949125" flag="0"/>
      <psa30 value="0.0013959262" flag="0"/>
    </comp>
  </station>
  <station code="KSS1" name="KSS1" netid="HI" insttype="CMG-5TD,ACCELEROMETER,GURALP" lat="35.4189" lon="26.9207">
    <comp name="--.HNN">
      <acc value="0.0146182002" flag="0"/>
      <vel value="0.0065527034" flag="0"/>
      <psa03 value="0.0478486959" flag="0"/>
      <psa10 value="0.0044351054" flag="0"/>
      <psa30 value="0.0003092009" flag="0"/>
    </comp>
    <comp name="--.HNE">
      <acc value="0.0117252863" flag="0"/>
      <vel value="0.0060779127" flag="0"/>
      <psa03 value="0.0454306498" flag="0"/>
      <psa10 value="0.0040179525" flag="0"/>
      <psa30 value="0.0005162464" flag="0"/>
    </comp>
    <comp name="--.HNZ">
      <acc value="0.0098869936" flag="0"/>
      <vel value="0.0031782046" flag="0"/>
      <psa03 value="0.0140949406" flag="0"/>
      <psa10 value="0.0055057861" flag="0"/>
      <psa30 value="0.0002836190" flag="0"/>
    </comp>
  </station>
  <station code="RDI1" name="RDI1" netid="HI" insttype="CMG-5TD,ACCELEROMETER,GURALP" lat="36.4514" lon="28.224">
    <comp name="--.HNE">
      <acc value="0.0136923529" flag="0"/>
      <vel value="0.0107667283" flag="0"/>
      <psa03 value="0.0354961589" flag="0"/>
      <psa10 value="0.0153017109" flag="0"/>
      <psa30 value="0.0016742597" flag="0"/>
    </comp>
    <comp name="--.HNZ">
      <acc value="0.0091322537" flag="0"/>
      <vel value="0.0077165993" flag="0"/>
      <psa03 value="0.0235996053" flag="0"/>
      <psa10 value="0.0095028463" flag="0"/>
      <psa30 value="0.0007848233" flag="0"/>
    </comp>
    <comp name="--.HNN">
      <acc value="0.0173302028" flag="0"/>
      <vel value="0.0191519863" flag="0"/>
      <psa03 value="0.0359055490" flag="0"/>
      <psa10 value="0.0223738485" flag="0"/>
      <psa30 value="0.0031587557" flag="0"/>
    </comp>
  </station>
  <station code="ARG" name="ARG" netid="HL" insttype="LE3D20_DR24" lat="36.2136" lon="28.1212">
    <comp name="--.HHE">
      <acc value="0.0743175852" flag="0"/>
      <vel value="0.0311494834" flag="0"/>
      <psa03 value="0.1845358217" flag="0"/>
      <psa10 value="0.0242192705" flag="0"/>
      <psa30 value="0.0012992966" flag="0"/>
    </comp>
    <comp name="--.HHN">
      <acc value="0.0554026870" flag="0"/>
      <vel value="0.0332464988" flag="0"/>
      <psa03 value="0.0969483809" flag="0"/>
      <psa10 value="0.0481819532" flag="0"/>
      <psa30 value="0.0026510394" flag="0"/>
    </comp>
    <comp name="--.HHZ">
      <acc value="0.0267408028" flag="0"/>
      <vel value="0.0150714224" flag="0"/>
      <psa03 value="0.0380687731" flag="0"/>
      <psa10 value="0.0235632783" flag="0"/>
      <psa30 value="0.0009266608" flag="0"/>
    </comp>
  </station>
  <station code="KLNA" name="KLNA" netid="HL" insttype="CMG-5" lat="36.9571" lon="26.9727">
    <comp name="00.HNE">
      <acc value="0.0338845141" flag="0"/>
      <vel value="0.0137764780" flag="0"/>
      <psa03 value="0.0832426946" flag="0"/>
      <psa10 value="0.0070287271" flag="0"/>
      <psa30 value="0.0012143684" flag="0"/>
    </comp>
    <comp name="00.HNN">
      <acc value="0.0306786299" flag="0"/>
      <vel value="0.0118156539" flag="0"/>
      <psa03 value="0.0607138054" flag="0"/>
      <psa10 value="0.0080329805" flag="0"/>
      <psa30 value="0.0005441478" flag="0"/>
    </comp>
    <comp name="00.HNZ">
      <acc value="0.0357573991" flag="0"/>
      <vel value="0.0095646972" flag="0"/>
      <psa03 value="0.0378878789" flag="0"/>
      <psa10 value="0.0042277066" flag="0"/>
      <psa30 value="0.0003846182" flag="0"/>
    </comp>
  </station>
  <station code="NISR" name="NISR" netid="HL" insttype="65535" lat="36.6106" lon="27.131">
    <comp name="--.HHE">
      <acc value="0.4323333689" flag="0"/>
      <vel value="0.1050457751" flag="0"/>
      <psa03 value="0.4088244056" flag="0"/>
      <psa10 value="0.0439142280" flag="0"/>
      <psa30 value="0.0061388217" flag="0"/>
    </comp>
    <comp name="--.HHN">
      <acc value="0.2793167231" flag="0"/>
      <vel value="0.0754256098" flag="0"/>
      <psa03 value="0.2804307544" flag="0"/>
      <psa10 value="0.0299941397" flag="0"/>
      <psa30 value="0.0060926377" flag="0"/>
    </comp>
    <comp name="--.HHZ">
      <acc value="0.2057174985" flag="0"/>
      <vel value="0.0467974174" flag="0"/>
      <psa03 value="0.1875866694" flag="0"/>
      <psa10 value="0.0335507627" flag="0"/>
      <psa30 value="0.0023270126" flag="0"/>
    </comp>
  </station>
  <station code="NISR2" name="NISR2" netid="HL" insttype="120" lat="36.5744" lon="27.1767">
    <comp name="--.HHN">
      <acc value="0.3925066599" flag="0"/>
      <vel value="0.1818300376" flag="0"/>
      <psa03 value="1.0078098141" flag="0"/>
      <psa10 value="0.1957511209" flag="0"/>
      <psa30 value="0.0094891522" flag="0"/>
    </comp>
    <comp name="--.HHZ">
      <acc value="0.4006649812" flag="0"/>
      <vel value="0.0998534461" flag="0"/>
      <psa03 value="0.3901641312" flag="0"/>
      <psa10 value="0.0522512176" flag="0"/>
      <psa30 value="0.0030920871" flag="0"/>
    </comp>
    <comp name="--.HHE">
      <acc value="0.2757199107" flag="0"/>
      <vel value="0.1780272139" flag="0"/>
      <psa03 value="1.0708660569" flag="0"/>
      <psa10 value="0.1926708312" flag="0"/>
      <psa30 value="0.0085302404" flag="0"/>
    </comp>
  </station>
  <station code="BODT" name="BODT" netid="KO" insttype="CMG-3ESP" lat="37.0622" lon="27.3103">
    <comp name="--.HHE">
      <acc value="0.0142080592" flag="0"/>
      <vel value="0.0103447345" flag="0"/>
      <psa03 value="0.0426120319" flag="0"/>
      <psa10 value="0.0096083795" flag="0"/>
      <psa30 value="0.0011428314" flag="0"/>
    </comp>
    <comp name="--.HHN">
      <acc value="0.0190743620" flag="0"/>
      <vel value="0.0072840144" flag="0"/>
      <psa03 value="0.0227831686" flag="0"/>
      <psa10 value="0.0081310323" flag="0"/>
      <psa30 value="0.0005354895" flag="0"/>
    </comp>
    <comp name="--.HHZ">
      <acc value="0.0119922605" flag="0"/>
      <vel value="0.0077639243" flag="0"/>
      <psa03 value="0.0205041948" flag="0"/>
      <psa10 value="0.0038806216" flag="0"/>
      <psa30 value="0.0007093134" flag="0"/>
    </comp>
  </station>
  <station code="DAT" name="DAT" netid="KO" insttype="CMG-3T" lat="36.7308" lon="27.5767">
    <comp name="--.HHZ">
      <acc value="0.0000269066" flag="0"/>
      <vel value="0.0000031141" flag="0"/>
      <psa03 value="0.0000109316" flag="0"/>
      <psa10 value="0.0000029867" flag="0"/>
      <psa30 value="0.0000007179" flag="0"/>
    </comp>
    <comp name="--.HHN">
      <acc value="0.0498571396" flag="0"/>
      <vel value="0.0160587461" flag="0"/>
      <psa03 value="0.0822815725" flag="0"/>
      <psa10 value="0.0080802342" flag="0"/>
      <psa30 value="0.0005293916" flag="0"/>
    </comp>
    <comp name="--.HHE">
      <acc value="0.0499148013" flag="0"/>
      <vel value="0.0140642790" flag="0"/>
      <psa03 value="0.0554548232" flag="0"/>
      <psa10 value="0.0050870032" flag="0"/>
      <psa30 value="0.0006158100" flag="0"/>
    </comp>
  </station>
  <station code="MLSB" name="MLSB" netid="KO" insttype="CMG-3ESP" lat="37.2953" lon="27.7767">
    <comp name="--.HHN">
      <acc value="0.0021042547" flag="0"/>
      <vel value="0.0019576164" flag="0"/>
      <psa03 value="0.0041621400" flag="0"/>
      <psa10 value="0.0032406646" flag="0"/>
      <psa30 value="0.0002758027" flag="0"/>
    </comp>
    <comp name="--.HHE">
      <acc value="0.0026099961" flag="0"/>
      <vel value="0.0031688342" flag="0"/>
      <psa03 value="0.0053037309" flag="0"/>
      <psa10 value="0.0057517356" flag="0"/>
      <psa30 value="0.0003424772" flag="0"/>
    </comp>
    <comp name="--.HHZ">
      <acc value="0.0019396041" flag="0"/>
      <vel value="0.0026754670" flag="0"/>
      <psa03 value="0.0031293356" flag="0"/>
      <psa10 value="0.0031077478" flag="0"/>
      <psa30 value="0.0003727195" flag="0"/>
    </comp>
  </station>
</stationlist>
