<?xml version="1.0" encoding="UTF-8" standalone="yes"?>
<!DOCTYPE earthquake SYSTEM "stationlist.dtd">
<stationlist created="" xmlns="ch.ethz.sed.shakemap.usgs.xml">
  <station code="KOSP" name="KOSP" netid="HC" insttype="60" lat="36.881" lon="27.281">
    <comp name="--.HHZ">
      <acc value="0.0122416099" flag="0"/>
      <vel value="0.0065424865" flag="0"/>
      <psa03 value="0.0204548689" flag="0"/>
      <psa10 value="0.0100945900" flag="0"/>
      <psa30 value="0.0010640108" flag="0"/>
    </comp>
    <comp name="--.HHE">
      <acc value="0.0197728192" flag="0"/>
      <vel value="0.0099076767" flag="0"/>
      <psa03 value="0.0489033075" flag="0"/>
      <psa10 value="0.0111792218" flag="0"/>
      <psa30 value="0.0012202542" flag="0"/>
    </comp>
    <comp name="--.HHN">
      <acc value="0.0222877498" flag="0"/>
      <vel value="0.0139962949" flag="0"/>
      <psa03 value="0.0452979637" flag="0"/>
      <psa10 value="0.0119949132" flag="0"/>
      <psa30 value="0.0013959104" flag="0"/>
    </comp>
  </station>
  <station code="KSS1" name="KSS1" netid="HI" insttype="CMG-5TD,ACCELEROMETER,GURALP" lat="35.4189" lon="26.9207">
    <comp name="--.HNZ">
      <acc value="0.0098869948" flag="0"/>
      <vel value="0.0031782028" flag="0"/>
      <psa03 value="0.0140949406" flag="0"/>
      <psa10 value="0.0055057859" flag="0"/>
      <psa30 value="0.0002836577" flag="0"/>
    </comp>
    <comp name="--.HNN">
      <acc value="0.0146181995" flag="0"/>
      <vel value="0.0065527031" flag="0"/>
      <psa03 value="0.0478486959" flag="0"/>
      <psa10 value="0.0044351054" flag="0"/>
      <psa30 value="0.0003091874" flag="0"/>
    </comp>
    <comp name="--.HNE">
      <acc value="0.0117252866" flag="0"/>
      <vel value="0.0060779139" flag="0"/>
      <psa03 value="0.0454306498" flag="0"/>
      <psa10 value="0.0040179527" flag="0"/>
      <psa30 value="0.0005162256" flag="0"/>
    </comp>
  </station>
  <station code="RDI1" name="RDI1" netid="HI" insttype="CMG-5TD,ACCELEROMETER,GURALP" lat="36.4514" lon="28.224">
    <comp name="--.HNE">
      <acc value="0.0136923521" flag="0"/>
      <vel value="0.0107667279" flag="0"/>
      <psa03 value="0.0354961589" flag="0"/>
      <psa10 value="0.0153017109" flag="0"/>
      <psa30 value="0.0016742592" flag="0"/>
    </comp>
    <comp name="--.HNZ">
      <acc value="0.0091322574" flag="0"/>
      <vel value="0.0077165976" flag="0"/>
      <psa03 value="0.0235996053" flag="0"/>
      <psa10 value="0.0095028463" flag="0"/>
      <psa30 value="0.0007848179" flag="0"/>
    </comp>
    <comp name="--.HNN">
      <acc value="0.0173302035" flag="0"/>
      <vel value="0.0191519819" flag="0"/>
      <psa03 value="0.0359055490" flag="0"/>
      <psa10 value="0.0223738492" flag="0"/>
      <psa30 value="0.0031586649" flag="0"/>
    </comp>
  </station>
  <station code="ARG" name="ARG" netid="HL" insttype="LE3D20_DR24" lat="36.2136" lon="28.1212">
    <comp name="--.HHZ">
      <acc value="0.0267408029" flag="0"/>
      <vel value="0.0150714246" flag="0"/>
      <psa03 value="0.0380687731" flag="0"/>
      <psa10 value="0.0235632784" flag="0"/>
      <psa30 value="0.0009267073" flag="0"/>
    </comp>
    <comp name="--.HHE">
      <acc value="0.0743175848" flag="0"/>
      <vel value="0.0311494832" flag="0"/>
      <psa03 value="0.1845358217" flag="0"/>
      <psa10 value="0.0242192705" flag="0"/>
      <psa30 value="0.0012992941" flag="0"/>
    </comp>
    <comp name="--.HHN">
      <acc value="0.0554026871" flag="0"/>
      <vel value="0.0332464996" flag="0"/>
      <psa03 value="0.0969483810" flag="0"/>
      <psa10 value="0.0481819534" flag="0"/>
      <psa30 value="0.0026510137" flag="0"/>
    </comp>
  </station>
  <station code="KLNA" name="KLNA" netid="HL" insttype="CMG-5" lat="36.9571" lon="26.9727">
    <comp name="00.HNZ">
      <acc value="0.0357573977" flag="0"/>
      <vel value="0.0095646989" flag="0"/>
      <psa03 value="0.0378878789" flag="0"/>
      <psa10 value="0.0042277063" flag="0"/>
      <psa30 value="0.0003845899" flag="0"/>
    </comp>
    <comp name="00.HNE">
      <acc value="0.0338845135" flag="0"/>
      <vel value="0.0137764787" flag="0"/>
      <psa03 value="0.0832426946" flag="0"/>
      <psa10 value="0.0070287290" flag="0"/>
      <psa30 value="0.0012147224" flag="0"/>
    </comp>
    <comp name="00.HNN">
      <acc value="0.0306786298" flag="0"/>
      <vel value="0.0118156529" flag="0"/>
      <psa03 value="0.0607138054" flag="0"/>
      <psa10 value="0.0080329801" flag="0"/>
      <psa30 value="0.0005441662" flag="0"/>
    </comp>
  </station>
  <station code="NISR" name="NISR" netid="HL" insttype="65535" lat="36.6106" lon="27.131">
    <comp name="--.HHZ">
      <acc value="0.2057174989" flag="0"/>
      <vel value="0.0467974171" flag="0"/>
      <psa03 value="0.1875866694" flag="0"/>
      <psa10 value="0.0335507626" flag="0"/>
      <psa30 value="0.0023270195" flag="0"/>
    </comp>
    <comp name="--.HHN">
      <acc value="0.2793167228" flag="0"/>
      <vel value="0.0754256058" flag="0"/>
      <psa03 value="0.2804307544" flag="0"/>
      <psa10 value="0.0299941547" flag="0"/>
      <psa30 value="0.0060928573" flag="0"/>
    </comp>
    <comp name="--.HHE">
      <acc value="0.4323333692" flag="0"/>
      <vel value="0.1050457741" flag="0"/>
      <psa03 value="0.4088244056" flag="0"/>
      <psa10 value="0.0439142346" flag="0"/>
      <psa30 value="0.0061384216" flag="0"/>
    </comp>
  </station>
  <station code="NISR2" name="NISR2" netid="HL" insttype="120" lat="36.5744" lon="27.1767">
    <comp name="--.HHN">
      <acc value="0.3925066600" flag="0"/>
      <vel value="0.1818300348" flag="0"/>
      <psa03 value="1.0078098141" flag="0"/>
      <psa10 value="0.1957510831" flag="0"/>
      <psa30 value="0.0094889231" flag="0"/>
    </comp>
    <comp name="--.HHZ">
      <acc value="0.4006649813" flag="0"/>
      <vel value="0.0998534456" flag="0"/>
      <psa03 value="0.3901641312" flag="0"/>
      <psa10 value="0.0522512186" flag="0"/>
      <psa30 value="0.0030921748" flag="0"/>
    </comp>
    <comp name="--.HHE">
      <acc value="0.2757199108" flag="0"/>
      <vel value="0.1780272128" flag="0"/>
      <psa03 value="1.0708660569" flag="0"/>
      <psa10 value="0.1926708243" flag="0"/>
      <psa30 value="0.0085303492" flag="0"/>
    </comp>
  </station>
  <station code="BODT" name="BODT" netid="KO" insttype="CMG-3ESP" lat="37.0622" lon="27.3103">
    <comp name="--.HHE">
      <acc value="0.0142080592" flag="0"/>
      <vel value="0.0103447344" flag="0"/>
      <psa03 value="0.0426120319" flag="0"/>
      <psa10 value="0.0096083795" flag="0"/>
      <psa30 value="0.0011428162" flag="0"/>
    </comp>
    <comp name="--.HHN">
      <acc value="0.0190743621" flag="0"/>
      <vel value="0.0072840142" flag="0"/>
      <psa03 value="0.0227831686" flag="0"/>
      <psa10 value="0.0081310319" flag="0"/>
      <psa30 value="0.0005355430" flag="0"/>
    </comp>
    <comp name="--.HHZ">
      <acc value="0.0119922604" flag="0"/>
      <vel value="0.0077639247" flag="0"/>
      <psa03 value="0.0205041948" flag="0"/>
      <psa10 value="0.0038806220" flag="0"/>
      <psa30 value="0.0007092751" flag="0"/>
    </comp>
  </station>
  <station code="DAT" name="DAT" netid="KO" insttype="CMG-3T" lat="36.7308" lon="27.5767">
    <comp name="--.HHE">
      <acc value="0.0499148012" flag="0"/>
      <vel value="0.0140642788" flag="0"/>
      <psa03 value="0.0554548232" flag="0"/>
      <psa10 value="0.0050870032" flag="0"/>
      <psa30 value="0.0006157860" flag="0"/>
    </comp>
    <comp name="--.HHN">
      <acc value="0.0498571398" flag="0"/>
      <vel value="0.0160587462" flag="0"/>
      <psa03 value="0.0822815725" flag="0"/>
      <psa10 value="0.0080802341" flag="0"/>
      <psa30 value="0.0005294036" flag="0"/>
    </comp>
    <comp name="--.HHZ">
      <acc value="0.0000269073" flag="0"/>
      <vel value="0.0000031140" flag="0"/>
      <psa03 value="0.0000109316" flag="0"/>
      <psa10 value="0.0000029867" flag="0"/>
      <psa30 value="0.0000007179" flag="0"/>
    </comp>
  </station>
  <station code="MLSB" name="MLSB" netid="KO" insttype="CMG-3ESP" lat="37.2953" lon="27.7767">
    <comp name="--.HHZ">
      <acc value="0.0019396041" flag="0"/>
      <vel value="0.0026754665" flag="0"/>
      <psa03 value="0.0031293356" flag="0"/>
      <psa10 value="0.0031077478" flag="0"/>
      <psa30 value="0.0003727186" flag="0"/>
    </comp>
    <comp name="--.HHE">
      <acc value="0.0026099962" flag="0"/>
      <vel value="0.0031688348" flag="0"/>
      <psa03 value="0.0053037309" flag="0"/>
      <psa10 value="0.0057517356" flag="0"/>
      <psa30 value="0.0003424755" flag="0"/>
    </comp>
    <comp name="--.HHN">
      <acc value="0.0021042546" flag="0"/>
      <vel value="0.0019576153" flag="0"/>
      <psa03 value="0.0041621400" flag="0"/>
      <psa10 value="0.0032406647" flag="0"/>
      <psa30 value="0.0002758092" flag="0"/>
    </comp>
  </station>
</stationlist>
