<?xml version="1.0" encoding="UTF-8" standalone="yes"?>
<!DOCTYPE earthquake SYSTEM "stationlist.dtd">
<stationlist created="" xmlns="ch.ethz.sed.shakemap.usgs.xml">
  <station code="BODT" name="BODT" netid="KO" insttype="CMG-3ESP" lat="37.0622" lon="27.3103">
    <comp name="--.HHE">
      <acc value="0.0142080592" flag="0"/>
      <vel value="0.0103447345" flag="0"/>
      <psa03 value="0.0426120319" flag="0"/>
      <psa10 value="0.0096083795" flag="0"/>
      <psa30 value="0.0011428314" flag="0"/>
    </comp>
    <comp name="--.HHN">
      <acc value="0.0190743620" flag="0"/>
      <vel value="0.0072840144" flag="0"/>
      <psa03 value="0.0227831686" flag="0"/>
      <psa10 value="0.0081310323" flag="0"/>
      <psa30 value="0.0005354895" flag="0"/>
    </comp>
    <comp name="--.HHZ">
      <acc value="0.0119922605" flag="0"/>
      <vel value="0.0077639243" flag="0"/>
      <psa03 value="0.0205041948" flag="0"/>
      <psa10 value="0.0038806216" flag="0"/>
      <psa30 value="0.0007093134" flag="0"/>
    </comp>
  </station>
  <station code="DAT" name="DAT" netid="KO" insttype="CMG-3T" lat="36.7308" lon="27.5767">
    <comp name="--.HHZ">
      <acc value="0.0000269066" flag="0"/>
      <vel value="0.0000031141" flag="0"/>
      <psa03 value="0.0000109316" flag="0"/>
      <psa10 value="0.0000029867" flag="0"/>
      <psa30 value="0.0000007179" flag="0"/>
    </comp>
    <comp name="--.HHN">
      <acc value="0.0498571396" flag="0"/>
      <vel value="0.0160587461" flag="0"/>
      <psa03 value="0.0822815725" flag="0"/>
      <psa10 value="0.0080802342" flag="0"/>
      <psa30 value="0.0005293916" flag="0"/>
    </comp>
    <comp name="--.HHE">
      <acc value="0.0499148013" flag="0"/>
      <vel value="0.0140642790" flag="0"/>
      <psa03 value="0.0554548232" flag="0"/>
      <psa10 value="0.0050870032" flag="0"/>
      <psa30 value="0.0006158100" flag="0"/>
    </comp>
  </station>
  <station code="MLSB" name="MLSB" netid="KO" insttype="CMG-3ESP" lat="37.2953" lon="27.7767">
    <comp name="--.HHN">
      <acc value="0.0021042547" flag="0"/>
      <vel value="0.0019576164" flag="0"/>
      <psa03 value="0.0041621400" flag="0"/>
      <psa10 value="0.0032406646" flag="0"/>
      <psa30 value="0.0002758027" flag="0"/>
    </comp>
    <comp name="--.HHE">
      <acc value="0.0026099961" flag="0"/>
      <vel value="0.0031688342" flag="0"/>
      <psa03 value="0.0053037309" flag="0"/>
      <psa10 value="0.0057517356" flag="0"/>
      <psa30 value="0.0003424772" flag="0"/>
    </comp>
    <comp name="--.HHZ">
      <acc value="0.0019396041" flag="0"/>
      <vel value="0.0026754670" flag="0"/>
      <psa03 value="0.0031293356" flag="0"/>
      <psa10 value="0.0031077478" flag="0"/>
      <psa30 value="0.0003727195" flag="0"/>
    </comp>
  </station>
</stationlist>
