<?xml version="1.0" encoding="UTF-8" standalone="yes"?>
<!DOCTYPE earthquake SYSTEM "stationlist.dtd">
<stationlist created="" xmlns="ch.ethz.sed.shakemap.usgs.xml">
  <station code="BSSO" name="BSSO" netid="IV" insttype="" lat="41.5461" lon="14.5938">
    <comp name="--.HHE">
      <acc value="0.0005650412" flag="0"/>
      <vel value="0.0007471439" flag="0"/>
      <psa03 value="0.0015993991" flag="0"/>
      <psa10 value="0.0012055284" flag="0"/>
      <psa30 value="0.0002889429" flag="0"/>
    </comp>
    <comp name="--.HHN">
      <acc value="0.0004848716" flag="0"/>
      <vel value="0.0010507368" flag="0"/>
      <psa03 value="0.0012195613" flag="0"/>
      <psa10 value="0.0014123407" flag="0"/>
      <psa30 value="0.0003712145" flag="0"/>
    </comp>
    <comp name="--.HHZ">
      <acc value="0.0004312149" flag="0"/>
      <vel value="0.0006740892" flag="0"/>
      <psa03 value="0.0010379689" flag="0"/>
      <psa10 value="0.0011315501" flag="0"/>
      <psa30 value="0.0002580815" flag="0"/>
    </comp>
  </station>
  <station code="CAAM" name="CAAM" netid="IV" insttype="" lat="40.8201" lon="14.142">
    <comp name="--.HNZ">
      <acc value="5.3265064519" flag="0"/>
      <vel value="1.5765339506" flag="0"/>
      <psa03 value="5.6071208290" flag="0"/>
      <psa10 value="1.2991054284" flag="0"/>
      <psa30 value="0.1295274175" flag="0"/>
    </comp>
    <comp name="--.HNE">
      <acc value="2.7678678089" flag="0"/>
      <vel value="1.3266053491" flag="0"/>
      <psa03 value="4.8009437935" flag="0"/>
      <psa10 value="1.1003992801" flag="0"/>
      <psa30 value="0.1699518934" flag="0"/>
    </comp>
    <comp name="--.HNN">
      <acc value="6.8992200444" flag="0"/>
      <vel value="1.3522974329" flag="0"/>
      <psa03 value="2.3321276631" flag="0"/>
      <psa10 value="1.2826344599" flag="0"/>
      <psa30 value="0.1642369779" flag="0"/>
    </comp>
  </station>
  <station code="CAFE" name="CAFE" netid="IV" insttype="" lat="41.028" lon="15.2366">
    <comp name="--.HHE">
      <acc value="0.0019128162" flag="0"/>
      <vel value="0.0039253572" flag="0"/>
      <psa03 value="0.0053634823" flag="0"/>
      <psa10 value="0.0032633109" flag="0"/>
      <psa30 value="0.0008672749" flag="0"/>
    </comp>
    <comp name="--.HHZ">
      <acc value="0.0018118215" flag="0"/>
      <vel value="0.0017402700" flag="0"/>
      <psa03 value="0.0046684650" flag="0"/>
      <psa10 value="0.0031860785" flag="0"/>
      <psa30 value="0.0003962772" flag="0"/>
    </comp>
    <comp name="--.HHN">
      <acc value="0.0014736894" flag="0"/>
      <vel value="0.0021642518" flag="0"/>
      <psa03 value="0.0031591030" flag="0"/>
      <psa10 value="0.0043697408" flag="0"/>
      <psa30 value="0.0007584523" flag="0"/>
    </comp>
  </station>
  <station code="CBAC" name="CBAC" netid="IV" insttype="" lat="40.8109" lon="14.0806">
    <comp name="--.HNN">
      <acc value="2.7252460797" flag="0"/>
      <vel value="0.8828978128" flag="0"/>
      <psa03 value="5.5549145579" flag="0"/>
      <psa10 value="1.7367130735" flag="0"/>
      <psa30 value="0.1099533278" flag="0"/>
    </comp>
    <comp name="--.HNE">
      <acc value="2.1157727898" flag="0"/>
      <vel value="1.0033297054" flag="0"/>
      <psa03 value="2.8472285682" flag="0"/>
      <psa10 value="1.4764492225" flag="0"/>
      <psa30 value="0.0694811853" flag="0"/>
    </comp>
    <comp name="--.HNZ">
      <acc value="1.6329087704" flag="0"/>
      <vel value="0.5607969247" flag="0"/>
      <psa03 value="3.6817109484" flag="0"/>
      <psa10 value="0.5584251062" flag="0"/>
      <psa30 value="0.0339433646" flag="0"/>
    </comp>
  </station>
  <station code="CDRU" name="CDRU" netid="IV" insttype="" lat="40.4896" lon="15.3046">
    <comp name="--.HHE">
      <acc value="0.0015809170" flag="0"/>
      <vel value="0.0009884070" flag="0"/>
      <psa03 value="0.0034999407" flag="0"/>
      <psa10 value="0.0016248002" flag="0"/>
      <psa30 value="0.0002058469" flag="0"/>
    </comp>
    <comp name="--.HHN">
      <acc value="0.0007569549" flag="0"/>
      <vel value="0.0007403990" flag="0"/>
      <psa03 value="0.0022051441" flag="0"/>
      <psa10 value="0.0011023647" flag="0"/>
      <psa30 value="0.0003289341" flag="0"/>
    </comp>
    <comp name="--.HHZ">
      <acc value="0.0008700073" flag="0"/>
      <vel value="0.0006624912" flag="0"/>
      <psa03 value="0.0021790510" flag="0"/>
      <psa10 value="0.0009029207" flag="0"/>
      <psa30 value="0.0002795915" flag="0"/>
    </comp>
  </station>
  <station code="CERA" name="CERA" netid="IV" insttype="" lat="41.5978" lon="14.0183">
    <comp name="--.HHE">
      <acc value="0.0035293452" flag="0"/>
      <vel value="0.0037936502" flag="0"/>
      <psa03 value="0.0055610895" flag="0"/>
      <psa10 value="0.0066872980" flag="0"/>
      <psa30 value="0.0006270255" flag="0"/>
    </comp>
    <comp name="--.HHZ">
      <acc value="0.0022704694" flag="0"/>
      <vel value="0.0022948226" flag="0"/>
      <psa03 value="0.0042055453" flag="0"/>
      <psa10 value="0.0045647179" flag="0"/>
      <psa30 value="0.0004910051" flag="0"/>
    </comp>
    <comp name="--.HHN">
      <acc value="0.0032728120" flag="0"/>
      <vel value="0.0039828384" flag="0"/>
      <psa03 value="0.0090237159" flag="0"/>
      <psa10 value="0.0063274956" flag="0"/>
      <psa30 value="0.0004321115" flag="0"/>
    </comp>
  </station>
  <station code="CFMN" name="CFMN" netid="IV" insttype="" lat="40.8329" lon="14.0904">
    <comp name="--.HNE">
      <acc value="11.5378173330" flag="0"/>
      <vel value="3.7837668620" flag="0"/>
      <psa03 value="13.0612170550" flag="0"/>
      <psa10 value="1.0281044942" flag="0"/>
      <psa30 value="0.1038714666" flag="0"/>
    </comp>
    <comp name="--.HNN">
      <acc value="10.6945806090" flag="0"/>
      <vel value="2.8547554927" flag="0"/>
      <psa03 value="9.8397077917" flag="0"/>
      <psa10 value="0.9620185859" flag="0"/>
      <psa30 value="0.0888782266" flag="0"/>
    </comp>
    <comp name="--.HNZ">
      <acc value="7.4821837860" flag="0"/>
      <vel value="1.1204508478" flag="0"/>
      <psa03 value="5.5620964613" flag="0"/>
      <psa10 value="0.7796504926" flag="0"/>
      <psa30 value="0.0414197952" flag="0"/>
    </comp>
  </station>
  <station code="CIGN" name="CIGN" netid="IV" insttype="" lat="41.6542" lon="14.905">
    <comp name="--.HHE">
      <acc value="0.0006591870" flag="0"/>
      <vel value="0.0009733240" flag="0"/>
      <psa03 value="0.0012496303" flag="0"/>
      <psa10 value="0.0021490233" flag="0"/>
      <psa30 value="0.0006550048" flag="0"/>
    </comp>
    <comp name="--.HHZ">
      <acc value="0.0005760609" flag="0"/>
      <vel value="0.0009382805" flag="0"/>
      <psa03 value="0.0009008407" flag="0"/>
      <psa10 value="0.0014807648" flag="0"/>
      <psa30 value="0.0004192783" flag="0"/>
    </comp>
    <comp name="--.HHN">
      <acc value="0.0005496413" flag="0"/>
      <vel value="0.0010413988" flag="0"/>
      <psa03 value="0.0009184674" flag="0"/>
      <psa10 value="0.0012394002" flag="0"/>
      <psa30 value="0.0003204948" flag="0"/>
    </comp>
  </station>
  <station code="CMIS" name="CMIS" netid="IV" insttype="" lat="40.7782" lon="14.089">
    <comp name="--.HNE">
      <acc value="1.7393181579" flag="0"/>
      <vel value="1.1745330858" flag="0"/>
      <psa03 value="6.7684117572" flag="0"/>
      <psa10 value="0.7424585676" flag="0"/>
      <psa30 value="0.0819631556" flag="0"/>
    </comp>
    <comp name="--.HNN">
      <acc value="1.2202694757" flag="0"/>
      <vel value="0.8011650797" flag="0"/>
      <psa03 value="3.3397190053" flag="0"/>
      <psa10 value="0.8824271401" flag="0"/>
      <psa30 value="0.1038487754" flag="0"/>
    </comp>
    <comp name="--.HNZ">
      <acc value="1.4873986171" flag="0"/>
      <vel value="0.4790073533" flag="0"/>
      <psa03 value="4.7751271046" flag="0"/>
      <psa10 value="0.4022636993" flag="0"/>
      <psa30 value="0.0271539999" flag="0"/>
    </comp>
  </station>
  <station code="CMPR" name="CMPR" netid="IV" insttype="" lat="40.3181" lon="15.303">
    <comp name="--.HHE">
      <acc value="0.0013999251" flag="0"/>
      <vel value="0.0008408581" flag="0"/>
      <psa03 value="0.0037304313" flag="0"/>
      <psa10 value="0.0015798060" flag="0"/>
      <psa30 value="0.0001895877" flag="0"/>
    </comp>
    <comp name="--.HHN">
      <acc value="0.0010605166" flag="0"/>
      <vel value="0.0007304455" flag="0"/>
      <psa03 value="0.0041483299" flag="0"/>
      <psa10 value="0.0013455886" flag="0"/>
      <psa30 value="0.0001947796" flag="0"/>
    </comp>
    <comp name="--.HHZ">
      <acc value="0.0007037916" flag="0"/>
      <vel value="0.0006473632" flag="0"/>
      <psa03 value="0.0022004955" flag="0"/>
      <psa10 value="0.0015984895" flag="0"/>
      <psa30 value="0.0001572443" flag="0"/>
    </comp>
  </station>
  <station code="CMSN" name="CMSN" netid="IV" insttype="" lat="40.8382" lon="14.1818">
    <comp name="--.HHE">
      <acc value="0.5465520417" flag="0"/>
      <vel value="0.5145026989" flag="0"/>
      <psa03 value="1.1663197078" flag="0"/>
      <psa10 value="0.5398004553" flag="0"/>
      <psa30 value="0.0428402055" flag="0"/>
    </comp>
    <comp name="--.HHN">
      <acc value="0.4808084458" flag="0"/>
      <vel value="0.3435620914" flag="0"/>
      <psa03 value="0.9909380270" flag="0"/>
      <psa10 value="0.6092645665" flag="0"/>
      <psa30 value="0.0387569284" flag="0"/>
    </comp>
    <comp name="--.HHZ">
      <acc value="0.5369536066" flag="0"/>
      <vel value="0.3589896939" flag="0"/>
      <psa03 value="1.0930492344" flag="0"/>
      <psa10 value="0.4571092517" flag="0"/>
      <psa30 value="0.0330356364" flag="0"/>
    </comp>
  </station>
  <station code="CNIS" name="CNIS" netid="IV" insttype="" lat="40.7982" lon="14.1632">
    <comp name="--.HHE">
      <acc value="0.5442308916" flag="0"/>
      <vel value="0.3307630274" flag="0"/>
      <psa03 value="1.1833859899" flag="0"/>
      <psa10 value="0.5629289520" flag="0"/>
      <psa30 value="0.0853060947" flag="0"/>
    </comp>
    <comp name="--.HHZ">
      <acc value="0.5757574961" flag="0"/>
      <vel value="0.3665168155" flag="0"/>
      <psa03 value="0.7722791807" flag="0"/>
      <psa10 value="0.8199945326" flag="0"/>
      <psa30 value="0.0310376791" flag="0"/>
    </comp>
    <comp name="--.HHN">
      <acc value="0.4287918756" flag="0"/>
      <vel value="0.3483787959" flag="0"/>
      <psa03 value="1.0705424263" flag="0"/>
      <psa10 value="0.4772201619" flag="0"/>
      <psa30 value="0.0402839955" flag="0"/>
    </comp>
  </station>
  <station code="COLB" name="COLB" netid="IV" insttype="" lat="40.819" lon="14.1446">
    <comp name="--.HNE">
      <acc value="6.4879844560" flag="0"/>
      <vel value="2.3840632108" flag="0"/>
      <psa03 value="8.6465154923" flag="0"/>
      <psa10 value="1.1665745311" flag="0"/>
      <psa30 value="0.1202400396" flag="0"/>
    </comp>
    <comp name="--.HNN">
      <acc value="11.6081827871" flag="0"/>
      <vel value="2.5116738587" flag="0"/>
      <psa03 value="10.3211841981" flag="0"/>
      <psa10 value="1.4403461630" flag="0"/>
      <psa30 value="0.1287689049" flag="0"/>
    </comp>
    <comp name="--.HNZ">
      <acc value="7.0405202184" flag="0"/>
      <vel value="1.7042607860" flag="0"/>
      <psa03 value="3.7143773062" flag="0"/>
      <psa10 value="1.0122394253" flag="0"/>
      <psa30 value="0.0948722326" flag="0"/>
    </comp>
  </station>
  <station code="CQUE" name="CQUE" netid="IV" insttype="" lat="40.8854" lon="14.1554">
    <comp name="--.HHE">
      <acc value="0.7441364015" flag="0"/>
      <vel value="0.3316195057" flag="0"/>
      <psa03 value="1.8304207054" flag="0"/>
      <psa10 value="0.2293009483" flag="0"/>
      <psa30 value="0.0266728154" flag="0"/>
    </comp>
    <comp name="--.HHN">
      <acc value="0.6607782424" flag="0"/>
      <vel value="0.3212837513" flag="0"/>
      <psa03 value="2.0654179223" flag="0"/>
      <psa10 value="0.3472650077" flag="0"/>
      <psa30 value="0.0520343679" flag="0"/>
    </comp>
    <comp name="--.HHZ">
      <acc value="0.4319645999" flag="0"/>
      <vel value="0.1907347474" flag="0"/>
      <psa03 value="1.1699558487" flag="0"/>
      <psa10 value="0.3240997265" flag="0"/>
      <psa30 value="0.0237185056" flag="0"/>
    </comp>
  </station>
  <station code="CRTO" name="CRTO" netid="IV" insttype="" lat="40.8212" lon="14.4223">
    <comp name="--.HHE">
      <acc value="0.1019531285" flag="0"/>
      <vel value="0.0694068581" flag="0"/>
      <psa03 value="0.3498833982" flag="0"/>
      <psa10 value="0.1395815508" flag="0"/>
      <psa30 value="0.0066819433" flag="0"/>
    </comp>
    <comp name="--.HHN">
      <acc value="0.0646357560" flag="0"/>
      <vel value="0.0514766125" flag="0"/>
      <psa03 value="0.2089073510" flag="0"/>
      <psa10 value="0.0805419891" flag="0"/>
      <psa30 value="0.0067705886" flag="0"/>
    </comp>
    <comp name="--.HHZ">
      <acc value="0.0329708668" flag="0"/>
      <vel value="0.0165809162" flag="0"/>
      <psa03 value="0.0991059800" flag="0"/>
      <psa10 value="0.0166943878" flag="0"/>
      <psa30 value="0.0019763555" flag="0"/>
    </comp>
  </station>
  <station code="CSOB" name="CSOB" netid="IV" insttype="" lat="40.8265" lon="14.144">
    <comp name="--.HNE">
      <acc value="8.8559128403" flag="0"/>
      <vel value="2.2670007076" flag="0"/>
      <psa03 value="7.9803330224" flag="0"/>
      <psa10 value="1.6771275910" flag="0"/>
      <psa30 value="0.1492940952" flag="0"/>
    </comp>
    <comp name="--.HNZ">
      <acc value="5.2335350684" flag="0"/>
      <vel value="2.3070562267" flag="0"/>
      <psa03 value="8.4576288858" flag="0"/>
      <psa10 value="1.4499865545" flag="0"/>
      <psa30 value="0.1512473944" flag="0"/>
    </comp>
    <comp name="--.HNN">
      <acc value="6.1529772081" flag="0"/>
      <vel value="1.4887473497" flag="0"/>
      <psa03 value="7.1056203640" flag="0"/>
      <psa10 value="1.1446381108" flag="0"/>
      <psa30 value="0.0597164289" flag="0"/>
    </comp>
  </station>
  <station code="CSTH" name="CSTH" netid="IV" insttype="" lat="40.8294" lon="14.1493">
    <comp name="--.HNE">
      <acc value="15.2289321353" flag="0"/>
      <vel value="3.8660767941" flag="0"/>
      <psa03 value="11.4973333220" flag="0"/>
      <psa10 value="1.3759509907" flag="0"/>
      <psa30 value="0.1212803425" flag="0"/>
    </comp>
    <comp name="--.HNN">
      <acc value="21.0653652577" flag="0"/>
      <vel value="2.2638699170" flag="0"/>
      <psa03 value="8.3997286676" flag="0"/>
      <psa10 value="0.9993807083" flag="0"/>
      <psa30 value="0.0545240779" flag="0"/>
    </comp>
    <comp name="--.HNZ">
      <acc value="10.9633163486" flag="0"/>
      <vel value="1.5386365098" flag="0"/>
      <psa03 value="7.8763292997" flag="0"/>
      <psa10 value="0.6002720790" flag="0"/>
      <psa30 value="0.0709706228" flag="0"/>
    </comp>
  </station>
  <station code="GATE" name="GATE" netid="IV" insttype="" lat="41.5131" lon="14.9102">
    <comp name="--.HHE">
      <acc value="0.0010133435" flag="0"/>
      <vel value="0.0012364146" flag="0"/>
      <psa03 value="0.0016494569" flag="0"/>
      <psa10 value="0.0022496255" flag="0"/>
      <psa30 value="0.0003973538" flag="0"/>
    </comp>
    <comp name="--.HHN">
      <acc value="0.0010054645" flag="0"/>
      <vel value="0.0013629435" flag="0"/>
      <psa03 value="0.0020321033" flag="0"/>
      <psa10 value="0.0027826602" flag="0"/>
      <psa30 value="0.0003563428" flag="0"/>
    </comp>
    <comp name="--.HHZ">
      <acc value="0.0006548107" flag="0"/>
      <vel value="0.0007548878" flag="0"/>
      <psa03 value="0.0018207268" flag="0"/>
      <psa10 value="0.0011925784" flag="0"/>
      <psa30 value="0.0002592279" flag="0"/>
    </comp>
  </station>
  <station code="GIUL" name="GIUL" netid="IV" insttype="" lat="41.5583" lon="13.2546">
    <comp name="--.HHE">
      <acc value="0.0015213056" flag="0"/>
      <vel value="0.0013392260" flag="0"/>
      <psa03 value="0.0042898231" flag="0"/>
      <psa10 value="0.0026955284" flag="0"/>
      <psa30 value="0.0001771757" flag="0"/>
    </comp>
    <comp name="--.HHN">
      <acc value="0.0019803743" flag="0"/>
      <vel value="0.0015226565" flag="0"/>
      <psa03 value="0.0045246919" flag="0"/>
      <psa10 value="0.0027910512" flag="0"/>
      <psa30 value="0.0002675260" flag="0"/>
    </comp>
    <comp name="--.HHZ">
      <acc value="0.0012840712" flag="0"/>
      <vel value="0.0011781447" flag="0"/>
      <psa03 value="0.0028748566" flag="0"/>
      <psa10 value="0.0019343135" flag="0"/>
      <psa30 value="0.0002369898" flag="0"/>
    </comp>
  </station>
  <station code="IFOR" name="IFOR" netid="IV" insttype="" lat="40.7115" lon="13.8552">
    <comp name="--.HHE">
      <acc value="0.1047115999" flag="0"/>
      <vel value="0.0703033877" flag="0"/>
      <psa03 value="0.2926957786" flag="0"/>
      <psa10 value="0.1041702884" flag="0"/>
      <psa30 value="0.0064569837" flag="0"/>
    </comp>
    <comp name="--.HHN">
      <acc value="0.1643177322" flag="0"/>
      <vel value="0.1158165648" flag="0"/>
      <psa03 value="0.3058285495" flag="0"/>
      <psa10 value="0.2915870783" flag="0"/>
      <psa30 value="0.0083970177" flag="0"/>
    </comp>
    <comp name="--.HHZ">
      <acc value="0.1022750635" flag="0"/>
      <vel value="0.0434946084" flag="0"/>
      <psa03 value="0.1974810444" flag="0"/>
      <psa10 value="0.0503070161" flag="0"/>
      <psa30 value="0.0022062567" flag="0"/>
    </comp>
  </station>
  <station code="IMTC" name="IMTC" netid="IV" insttype="" lat="40.7209" lon="13.8758">
    <comp name="--.HHE">
      <acc value="0.0388430986" flag="0"/>
      <vel value="0.0182600916" flag="0"/>
      <psa03 value="0.0969756417" flag="0"/>
      <psa10 value="0.0291826988" flag="0"/>
      <psa30 value="0.0035949970" flag="0"/>
    </comp>
    <comp name="--.HHN">
      <acc value="0.0436310309" flag="0"/>
      <vel value="0.0252917398" flag="0"/>
      <psa03 value="0.0774755729" flag="0"/>
      <psa10 value="0.0279273316" flag="0"/>
      <psa30 value="0.0038998138" flag="0"/>
    </comp>
    <comp name="--.HHZ">
      <acc value="0.0358814784" flag="0"/>
      <vel value="0.0173889020" flag="0"/>
      <psa03 value="0.0789250937" flag="0"/>
      <psa10 value="0.0319902403" flag="0"/>
      <psa30 value="0.0025957465" flag="0"/>
    </comp>
  </station>
  <station code="IOCA" name="IOCA" netid="IV" insttype="" lat="40.7468" lon="13.9014">
    <comp name="--.HHE">
      <acc value="0.0975312572" flag="0"/>
      <vel value="0.0657858031" flag="0"/>
      <psa03 value="0.3507779640" flag="0"/>
      <psa10 value="0.0864306936" flag="0"/>
      <psa30 value="0.0079476136" flag="0"/>
    </comp>
    <comp name="--.HHZ">
      <acc value="0.0722003581" flag="0"/>
      <vel value="0.0345477549" flag="0"/>
      <psa03 value="0.2721583751" flag="0"/>
      <psa10 value="0.0285176811" flag="0"/>
      <psa30 value="0.0033848978" flag="0"/>
    </comp>
    <comp name="--.HHN">
      <acc value="0.0910380006" flag="0"/>
      <vel value="0.0566311811" flag="0"/>
      <psa03 value="0.3060470103" flag="0"/>
      <psa10 value="0.0720483553" flag="0"/>
      <psa30 value="0.0053373470" flag="0"/>
    </comp>
  </station>
  <station code="MCRV" name="MCRV" netid="IV" insttype="" lat="40.7826" lon="15.1684">
    <comp name="--.HHE">
      <acc value="0.0010118676" flag="0"/>
      <vel value="0.0007827766" flag="0"/>
      <psa03 value="0.0029921203" flag="0"/>
      <psa10 value="0.0013576202" flag="0"/>
      <psa30 value="0.0001283000" flag="0"/>
    </comp>
    <comp name="--.HHN">
      <acc value="0.0011557424" flag="0"/>
      <vel value="0.0008725740" flag="0"/>
      <psa03 value="0.0040615515" flag="0"/>
      <psa10 value="0.0012118692" flag="0"/>
      <psa30 value="0.0001833069" flag="0"/>
    </comp>
