<?xml version="1.0" encoding="UTF-8" standalone="yes"?>
<!DOCTYPE earthquake SYSTEM "stationlist.dtd">
<stationlist created="" xmlns="ch.ethz.sed.shakemap.usgs.xml">
  <station code="ANTB" name="ANTB" netid="KO" insttype="CMG-3T" commtype="DIG" lat="36.8998" lon="30.6538">
    <comp name="--.HHE">
      <acc value="0.2296603301" flag="0"/>
      <vel value="0.1564369089" flag="0"/>
      <psa03 value="0.6881820878" flag="0"/>
      <psa10 value="0.1107368397" flag="0"/>
      <psa30 value="0.0171683716" flag="0"/>
    </comp>
    <comp name="--.HHN">
      <acc value="0.2887317201" flag="0"/>
      <vel value="0.2301969509" flag="0"/>
      <psa03 value="0.6159357794" flag="0"/>
      <psa10 value="0.3210125551" flag="0"/>
      <psa30 value="0.0235364897" flag="0"/>
    </comp>
    <comp name="--.HHZ">
      <acc value="0.3209659161" flag="0"/>
      <vel value="0.1843049755" flag="0"/>
      <psa03 value="0.6049509972" flag="0"/>
      <psa10 value="0.1645114939" flag="0"/>
      <psa30 value="0.0196716798" flag="0"/>
    </comp>
  </station>
  <station code="ELL" name="ELL" netid="KO" insttype="CMG-3T" commtype="DIG" lat="36.7483" lon="29.9085">
    <comp name="--.HHE">
      <acc value="0.0634694194" flag="0"/>
      <vel value="0.0313788772" flag="0"/>
      <psa03 value="0.1221342786" flag="0"/>
      <psa10 value="0.0328299617" flag="0"/>
      <psa30 value="0.0047117764" flag="0"/>
    </comp>
    <comp name="--.HHN">
      <acc value="0.0529975988" flag="0"/>
      <vel value="0.0287793278" flag="0"/>
      <psa03 value="0.1058957402" flag="0"/>
      <psa10 value="0.0371492897" flag="0"/>
      <psa30 value="0.0031095158" flag="0"/>
    </comp>
    <comp name="--.HHZ">
      <acc value="0.0347617494" flag="0"/>
      <vel value="0.0192700423" flag="0"/>
      <psa03 value="0.1057080414" flag="0"/>
      <psa10 value="0.0445955953" flag="0"/>
      <psa30 value="0.0032607302" flag="0"/>
    </comp>
  </station>
  <station code="FETY" name="FETY" netid="KO" insttype="CMG-3ESP" commtype="DIG" lat="36.6353" lon="29.0835">
    <comp name="--.HHZ">
      <acc value="0.0035136972" flag="0"/>
      <vel value="0.0034069376" flag="0"/>
      <psa03 value="0.0080173823" flag="0"/>
      <psa10 value="0.0061783910" flag="0"/>
      <psa30 value="0.0005686016" flag="0"/>
    </comp>
    <comp name="--.HHE">
      <acc value="0.0081047152" flag="0"/>
      <vel value="0.0082788600" flag="0"/>
      <psa03 value="0.0139832660" flag="0"/>
      <psa10 value="0.0116993730" flag="0"/>
      <psa30 value="0.0013623680" flag="0"/>
    </comp>
    <comp name="--.HHN">
      <acc value="0.0072234807" flag="0"/>
      <vel value="0.0101850973" flag="0"/>
      <psa03 value="0.0163944730" flag="0"/>
      <psa10 value="0.0104724390" flag="0"/>
      <psa30 value="0.0019801102" flag="0"/>
    </comp>
  </station>
  <station code="KEMT" name="KEMT" netid="KO" insttype="CMG-5T" commtype="DIG" lat="36.6037" lon="30.5558">
    <comp name="--.HNE">
      <acc value="2.6172122505" flag="0"/>
      <vel value="0.6515397889" flag="0"/>
      <psa03 value="4.5698904777" flag="0"/>
      <psa10 value="0.1937431222" flag="0"/>
      <psa30 value="0.0184727445" flag="0"/>
    </comp>
    <comp name="--.HNN">
      <acc value="2.1551972721" flag="0"/>
      <vel value="0.7802905372" flag="0"/>
      <psa03 value="4.2185774909" flag="0"/>
      <psa10 value="0.3129410238" flag="0"/>
      <psa30 value="0.0190335145" flag="0"/>
    </comp>
    <comp name="--.HNZ">
      <acc value="1.3295343923" flag="0"/>
      <vel value="0.2180843895" flag="0"/>
      <psa03 value="1.1505164289" flag="0"/>
      <psa10 value="0.0830069537" flag="0"/>
      <psa30 value="0.0065282210" flag="0"/>
    </comp>
  </station>
</stationlist>
