<?xml version="1.0" encoding="UTF-8" standalone="yes"?>
<!DOCTYPE earthquake SYSTEM "stationlist.dtd">
<stationlist created="" xmlns="ch.ethz.sed.shakemap.usgs.xml">
  <station code="GVD" name="GVD" netid="GE" insttype="STS-2/N" lat="34.8391" lon="24.0874">
    <comp name="--.HHE">
      <acc value="0.0431814936" flag="0"/>
      <vel value="0.0218477996" flag="0"/>
      <psa03 value="0.1276071835" flag="0"/>
      <psa10 value="0.0164700220" flag="0"/>
      <psa30 value="0.0011676559" flag="0"/>
    </comp>
    <comp name="--.HHN">
      <acc value="0.0398223433" flag="0"/>
      <vel value="0.0171084442" flag="0"/>
      <psa03 value="0.1041661493" flag="0"/>
      <psa10 value="0.0177458345" flag="0"/>
      <psa30 value="0.0011033165" flag="0"/>
    </comp>
    <comp name="--.HHZ">
      <acc value="0.0292526421" flag="0"/>
      <vel value="0.0099170235" flag="0"/>
      <psa03 value="0.0476225710" flag="0"/>
      <psa10 value="0.0097527405" flag="0"/>
      <psa30 value="0.0006510074" flag="0"/>
    </comp>
  </station>
  <station code="IMMV" name="IMMV" netid="GE" insttype="STS-2/N" lat="35.4606" lon="23.9811">
    <comp name="--.HHE">
      <acc value="0.0150642402" flag="0"/>
      <vel value="0.0118582942" flag="0"/>
      <psa03 value="0.0485781715" flag="0"/>
      <psa10 value="0.0177597436" flag="0"/>
      <psa30 value="0.0009468566" flag="0"/>
    </comp>
    <comp name="--.HHZ">
      <acc value="0.0138010035" flag="0"/>
      <vel value="0.0069836086" flag="0"/>
      <psa03 value="0.0353076139" flag="0"/>
      <psa10 value="0.0073583416" flag="0"/>
      <psa30 value="0.0008366283" flag="0"/>
    </comp>
    <comp name="--.HHN">
      <acc value="0.0143209196" flag="0"/>
      <vel value="0.0115015985" flag="0"/>
      <psa03 value="0.0596791930" flag="0"/>
      <psa10 value="0.0126329068" flag="0"/>
      <psa30 value="0.0012351880" flag="0"/>
    </comp>
  </station>
  <station code="CH01" name="CH01" netid="HI" insttype="CMG-5TD,ACCELEROMETER,GURALP" lat="35.517" lon="24.0208">
    <comp name="--.HNE">
      <acc value="0.0113019117" flag="0"/>
      <vel value="0.0116430452" flag="0"/>
      <psa03 value="0.0313030122" flag="0"/>
      <psa10 value="0.0177915946" flag="0"/>
      <psa30 value="0.0013735695" flag="0"/>
    </comp>
    <comp name="--.HNN">
      <acc value="0.0117690305" flag="0"/>
      <vel value="0.0102410098" flag="0"/>
      <psa03 value="0.0386275783" flag="0"/>
      <psa10 value="0.0163002633" flag="0"/>
      <psa30 value="0.0013093816" flag="0"/>
    </comp>
    <comp name="--.HNZ">
      <acc value="0.0096509160" flag="0"/>
      <vel value="0.0074142351" flag="0"/>
      <psa03 value="0.0181736522" flag="0"/>
      <psa10 value="0.0134799943" flag="0"/>
      <psa30 value="0.0008142871" flag="0"/>
    </comp>
  </station>
  <station code="GVD" name="GVD" netid="HL" insttype="120" lat="34.8391" lon="24.0874">
    <comp name="--.HHE">
      <acc value="0.0427876106" flag="0"/>
      <vel value="0.0212866391" flag="0"/>
      <psa03 value="0.1239065351" flag="0"/>
      <psa10 value="0.0163847104" flag="0"/>
      <psa30 value="0.0011606625" flag="0"/>
    </comp>
    <comp name="--.HHN">
      <acc value="0.0388944358" flag="0"/>
      <vel value="0.0166540444" flag="0"/>
      <psa03 value="0.1012952579" flag="0"/>
      <psa10 value="0.0175719552" flag="0"/>
      <psa30 value="0.0011005629" flag="0"/>
    </comp>
    <comp name="--.HHZ">
      <acc value="0.0288877561" flag="0"/>
      <vel value="0.0097491041" flag="0"/>
      <psa03 value="0.0462784806" flag="0"/>
      <psa10 value="0.0096895680" flag="0"/>
      <psa30 value="0.0006494083" flag="0"/>
    </comp>
  </station>
  <station code="IACM" name="IACM" netid="HL" insttype="120" lat="35.3058" lon="25.0709">
    <comp name="--.HHZ">
      <acc value="0.0992743318" flag="0"/>
      <vel value="0.0510908343" flag="0"/>
      <psa03 value="0.2144359918" flag="0"/>
      <psa10 value="0.0424661274" flag="0"/>
      <psa30 value="0.0027663717" flag="0"/>
    </comp>
    <comp name="--.HHE">
      <acc value="0.1762195270" flag="0"/>
      <vel value="0.0946796739" flag="0"/>
      <psa03 value="0.6093998069" flag="0"/>
      <psa10 value="0.1186584335" flag="0"/>
      <psa30 value="0.0061148662" flag="0"/>
    </comp>
    <comp name="--.HHN">
      <acc value="0.1920960942" flag="0"/>
      <vel value="0.1100488050" flag="0"/>
      <psa03 value="0.5327345700" flag="0"/>
      <psa10 value="0.1303476425" flag="0"/>
      <psa30 value="0.0060048838" flag="0"/>
    </comp>
  </station>
  <station code="IDI" name="IDI" netid="HL" insttype="120" lat="35.288" lon="24.89">
    <comp name="--.HHN">
      <acc value="0.0553223515" flag="0"/>
      <vel value="0.0224809437" flag="0"/>
      <psa03 value="0.1017426767" flag="0"/>
      <psa10 value="0.0131190524" flag="0"/>
      <psa30 value="0.0016581776" flag="0"/>
    </comp>
    <comp name="--.HHZ">
      <acc value="0.0272125775" flag="0"/>
      <vel value="0.0164187693" flag="0"/>
      <psa03 value="0.0883023834" flag="0"/>
      <psa10 value="0.0092268428" flag="0"/>
      <psa30 value="0.0013986538" flag="0"/>
    </comp>
    <comp name="--.HHE">
      <acc value="0.0407588316" flag="0"/>
      <vel value="0.0183157624" flag="0"/>
      <psa03 value="0.1224686162" flag="0"/>
      <psa10 value="0.0169652675" flag="0"/>
      <psa30 value="0.0008235520" flag="0"/>
    </comp>
  </station>
  <station code="IMMV" name="IMMV" netid="HL" insttype="120" lat="35.4606" lon="23.9811">
    <comp name="--.HHE">
      <acc value="0.0146574406" flag="0"/>
      <vel value="0.0117222892" flag="0"/>
      <psa03 value="0.0472143206" flag="0"/>
      <psa10 value="0.0176618724" flag="0"/>
      <psa30 value="0.0009470072" flag="0"/>
    </comp>
    <comp name="--.HHZ">
      <acc value="0.0134488094" flag="0"/>
      <vel value="0.0068429480" flag="0"/>
      <psa03 value="0.0342427944" flag="0"/>
      <psa10 value="0.0072882576" flag="0"/>
      <psa30 value="0.0008342471" flag="0"/>
    </comp>
    <comp name="--.HHN">
      <acc value="0.0139045161" flag="0"/>
      <vel value="0.0113416623" flag="0"/>
      <psa03 value="0.0580147239" flag="0"/>
      <psa10 value="0.0125510947" flag="0"/>
      <psa30 value="0.0012284898" flag="0"/>
    </comp>
  </station>
  <station code="NPS" name="NPS" netid="HL" insttype="CMG3ESPC-120s" lat="35.2613" lon="25.6104">
    <comp name="--.HHN">
      <acc value="0.0172513932" flag="0"/>
      <vel value="0.0105960100" flag="0"/>
      <psa03 value="0.0487723463" flag="0"/>
      <psa10 value="0.0128766008" flag="0"/>
      <psa30 value="0.0006273867" flag="0"/>
    </comp>
    <comp name="--.HHZ">
      <acc value="0.0112597301" flag="0"/>
      <vel value="0.0086120328" flag="0"/>
      <psa03 value="0.0386702911" flag="0"/>
      <psa10 value="0.0131206761" flag="0"/>
      <psa30 value="0.0009627552" flag="0"/>
    </comp>
    <comp name="--.HHE">
      <acc value="0.0064311203" flag="0"/>
      <vel value="0.0051681216" flag="0"/>
      <psa03 value="0.0181240139" flag="0"/>
      <psa10 value="0.0071003748" flag="0"/>
      <psa30 value="0.0004359517" flag="0"/>
    </comp>
  </station>
  <station code="VAM" name="VAM" netid="HL" insttype="CMG3ESPC-120s" lat="35.407" lon="24.1997">
    <comp name="--.HHN">
      <acc value="0.0232852879" flag="0"/>
      <vel value="0.0138714995" flag="0"/>
      <psa03 value="0.0652734553" flag="0"/>
      <psa10 value="0.0174023770" flag="0"/>
      <psa30 value="0.0011353223" flag="0"/>
    </comp>
    <comp name="--.HHZ">
      <acc value="0.0143776207" flag="0"/>
      <vel value="0.0068977173" flag="0"/>
      <psa03 value="0.0251558198" flag="0"/>
      <psa10 value="0.0104646909" flag="0"/>
      <psa30 value="0.0006693689" flag="0"/>
    </comp>
    <comp name="--.HHE">
      <acc value="0.0202752861" flag="0"/>
      <vel value="0.0107942587" flag="0"/>
      <psa03 value="0.0483206234" flag="0"/>
      <psa10 value="0.0098241288" flag="0"/>
      <psa30 value="0.0006551997" flag="0"/>
    </comp>
  </station>
  <station code="IDI" name="IDI" netid="MN" insttype="" lat="35.288" lon="24.89">
    <comp name="--.HHZ">
      <acc value="0.0280584805" flag="0"/>
      <vel value="0.0164951640" flag="0"/>
      <psa03 value="0.0891975805" flag="0"/>
      <psa10 value="0.0091673875" flag="0"/>
      <psa30 value="0.0013876243" flag="0"/>
    </comp>
    <comp name="--.HHN">
      <acc value="0.0556228792" flag="0"/>
      <vel value="0.0227045355" flag="0"/>
      <psa03 value="0.1020415132" flag="0"/>
      <psa10 value="0.0131655035" flag="0"/>
      <psa30 value="0.0016517878" flag="0"/>
    </comp>
    <comp name="--.HHE">
      <acc value="0.0424047695" flag="0"/>
      <vel value="0.0183746739" flag="0"/>
      <psa03 value="0.1235281759" flag="0"/>
      <psa10 value="0.0168866650" flag="0"/>
      <psa30 value="0.0008178775" flag="0"/>
    </comp>
  </station>
</stationlist>
