<stationlist created="1778069383">
	<station code="IMMV" name="IMMV" netid="GE" source="GEOFON" insttype="" lat="35.4606" lon="23.9811">
		<comp name="--.HNE" depth="0.0">
			<acc value="0.014838200641422" flag="0"/>
			<vel value="0.0117276747080467" flag="0"/>
			<psa03 value="0.0465318948830026" flag="0"/>
			<psa10 value="0.0176937530292617" flag="0"/>
			<psa30 value="0.00101520066816859" flag="0"/>
		</comp>
		<comp name="--.HNN" depth="0.0">
			<acc value="0.013922789402601" flag="0"/>
			<vel value="0.0116925887691936" flag="0"/>
			<psa03 value="0.0585228062566995" flag="0"/>
			<psa10 value="0.0127085763678539" flag="0"/>
			<psa30 value="0.00131049923184918" flag="0"/>
		</comp>
		<comp name="--.HNZ" depth="0.0">
			<acc value="0.0141236464059201" flag="0"/>
			<vel value="0.00690919180283024" flag="0"/>
			<psa03 value="0.0347646945423972" flag="0"/>
			<psa10 value="0.00740528261739016" flag="0"/>
			<psa30 value="0.000935112118321879" flag="0"/>
		</comp>
	</station>
	<station code="KTHA" name="KTHA" netid="GE" source="GEOFON" insttype="" lat="36.2566" lon="23.0621">
		<comp name="--.HNE" depth="0.0">
			<acc value="0.00305815605796711" flag="0"/>
			<vel value="0.00329917485360688" flag="0"/>
			<psa03 value="0.00541380700081088" flag="0"/>
			<psa10 value="0.00483618511336899" flag="0"/>
			<psa30 value="0.00244560901375473" flag="0"/>
		</comp>
		<comp name="--.HNN" depth="0.0">
			<acc value="0.00184711391799036" flag="0"/>
			<vel value="0.00124702915216821" flag="0"/>
			<psa03 value="0.00344514990960693" flag="0"/>
			<psa10 value="0.00274224984363388" flag="0"/>
			<psa30 value="0.000546749764875281" flag="0"/>
		</comp>
		<comp name="--.HNZ" depth="0.0">
			<acc value="0.0019459151234835" flag="0"/>
			<vel value="0.00299543280547673" flag="0"/>
			<psa03 value="0.00344514990960693" flag="0"/>
			<psa10 value="0.00388183384620126" flag="0"/>
			<psa30 value="0.00184830055540081" flag="0"/>
		</comp>
	</station>
	<station code="CH01" name="CH01" netid="HI" source="ITSAK Strong Motion Network" insttype="" lat="35.517" lon="24.0208">
		<comp name="--.HNE" depth="0.0">
			<acc value="0.0112613130285469" flag="0"/>
			<vel value="0.0116795483331673" flag="0"/>
			<psa03 value="0.031274802426172" flag="0"/>
			<psa10 value="0.0178024765913441" flag="0"/>
			<psa30 value="0.00145591140335856" flag="0"/>
		</comp>
		<comp name="--.HNN" depth="0.0">
			<acc value="0.0117566991931334" flag="0"/>
			<vel value="0.0104268014239865" flag="0"/>
			<psa03 value="0.0384782976917137" flag="0"/>
			<psa10 value="0.0163407487011252" flag="0"/>
			<psa30 value="0.0013901403596297" flag="0"/>
		</comp>
		<comp name="--.HNZ" depth="0.0">
			<acc value="0.00980604832174283" flag="0"/>
			<vel value="0.00747314227277011" flag="0"/>
			<psa03 value="0.0184785313333462" flag="0"/>
			<psa10 value="0.0135380968785567" flag="0"/>
			<psa30 value="0.000892159599968339" flag="0"/>
		</comp>
	</station>
	<station code="SIT2" name="SIT2" netid="HI" source="ITSAK Strong Motion Network" insttype="" lat="35.2059" lon="26.107">
		<comp name="--.HNE" depth="0.0">
			<acc value="0.0278152609948494" flag="0"/>
			<vel value="0.0214007872802615" flag="0"/>
			<psa03 value="0.0623706360258708" flag="0"/>
			<psa10 value="0.0235648253817114" flag="0"/>
			<psa30 value="0.00142369701459341" flag="0"/>
		</comp>
		<comp name="--.HNN" depth="0.0">
			<acc value="0.0414297366445479" flag="0"/>
			<vel value="0.0309382175180155" flag="0"/>
			<psa03 value="0.116777159273689" flag="0"/>
			<psa10 value="0.0232426814940598" flag="0"/>
			<psa30 value="0.00146575468881458" flag="0"/>
		</comp>
		<comp name="--.HNZ" depth="0.0">
			<acc value="0.0118239345240791" flag="0"/>
			<vel value="0.00619277647056373" flag="0"/>
			<psa03 value="0.0431762293866323" flag="0"/>
			<psa10 value="0.00672878045332189" flag="0"/>
			<psa30 value="0.000438473624859063" flag="0"/>
		</comp>
	</station>
	<station code="IACM" name="IACM" netid="HL" source="National Observatory of Athens Seismic Network" insttype="" lat="35.3058" lon="25.0709">
		<comp name="--.HNE" depth="0.0">
			<acc value="0.178465637986252" flag="0"/>
			<vel value="0.0995046787012265" flag="0"/>
			<psa03 value="0.607375454843039" flag="0"/>
			<psa10 value="0.124351567432096" flag="0"/>
			<psa30 value="0.00609478338554098" flag="0"/>
		</comp>
		<comp name="--.HNN" depth="0.0">
			<acc value="0.195467420886838" flag="0"/>
			<vel value="0.111813028912072" flag="0"/>
			<psa03 value="0.533013907443471" flag="0"/>
			<psa10 value="0.129123323767935" flag="0"/>
			<psa30 value="0.00602185358875319" flag="0"/>
		</comp>
		<comp name="--.HNZ" depth="0.0">
			<acc value="0.101311558764932" flag="0"/>
			<vel value="0.0510830766069843" flag="0"/>
			<psa03 value="0.216552280032435" flag="0"/>
			<psa10 value="0.0423659480247753" flag="0"/>
			<psa30 value="0.00288542490481234" flag="0"/>
		</comp>
	</station>
	<station code="IMMV" name="IMMV" netid="HL" source="National Observatory of Athens Seismic Network" insttype="" lat="35.4606" lon="23.9811">
		<comp name="--.HNE" depth="0.0">
			<acc value="0.0145371341187088" flag="0"/>
			<vel value="0.0114897244089365" flag="0"/>
			<psa03 value="0.0455923085440189" flag="0"/>
			<psa10 value="0.0173353679542494" flag="0"/>
			<psa30 value="0.000994619253124181" flag="0"/>
		</comp>
		<comp name="--.HNN" depth="0.0">
			<acc value="0.0136402454774887" flag="0"/>
			<vel value="0.0114553443927985" flag="0"/>
			<psa03 value="0.0573595088846244" flag="0"/>
			<psa10 value="0.0124508612577327" flag="0"/>
			<psa30 value="0.0012841013299444" flag="0"/>
		</comp>
		<comp name="--.HNZ" depth="0.0">
			<acc value="0.0138370803975056" flag="0"/>
			<vel value="0.00676897621217022" flag="0"/>
			<psa03 value="0.0340488192365048" flag="0"/>
			<psa10 value="0.00725629106935131" flag="0"/>
			<psa30 value="0.000915872969476023" flag="0"/>
		</comp>
	</station>
</stationlist>
