<stationlist created="1680084042">
	<station code="AGNN" name="AGNN" netid="IT" source="Italian Strong Motion Network (RAN)" insttype="" lat="41.807999" lon="14.3706">
		<comp name="00.HNE" depth="0.0">
			<acc value="0.272767926259" flag="0"/>
			<vel value="0.159418835792" flag="0"/>
			<psa03 value="0.76519652385" flag="0"/>
			<psa10 value="0.206905496474" flag="0"/>
			<psa30 value="0.022804824041" flag="0"/>
		</comp>
		<comp name="00.HNN" depth="0.0">
			<acc value="0.315943010182" flag="0"/>
			<vel value="0.165034845081" flag="0"/>
			<psa03 value="0.827451147911" flag="0"/>
			<psa10 value="0.209171741601" flag="0"/>
			<psa30 value="0.0193335307515" flag="0"/>
		</comp>
		<comp name="00.HNZ" depth="0.0">
			<acc value="0.207040391108" flag="0"/>
			<vel value="0.105174728711" flag="0"/>
			<psa03 value="0.37342882116" flag="0"/>
			<psa10 value="0.180508892828" flag="0"/>
			<psa30 value="0.014591123257" flag="0"/>
		</comp>
	</station>
	<station code="ALFD" name="ALFD" netid="IT" source="Italian Strong Motion Network (RAN)" insttype="" lat="41.7415008545" lon="14.0441999435">
		<comp name="00.HNE" depth="0.0">
			<acc value="0.208176848819" flag="0"/>
			<vel value="0.109217654272" flag="0"/>
			<psa03 value="0.398780500584" flag="0"/>
			<psa10 value="0.164047282327" flag="0"/>
			<psa30 value="0.0170509412079" flag="0"/>
		</comp>
		<comp name="00.HNN" depth="0.0">
			<acc value="0.157900175686" flag="0"/>
			<vel value="0.0820246748711" flag="0"/>
			<psa03 value="0.336376595799" flag="0"/>
			<psa10 value="0.0825924263429" flag="0"/>
			<psa30 value="0.0171917138667" flag="0"/>
		</comp>
		<comp name="00.HNZ" depth="0.0">
			<acc value="0.116781028948" flag="0"/>
			<vel value="0.0659591521927" flag="0"/>
			<psa03 value="0.359463146002" flag="0"/>
			<psa10 value="0.0640444026274" flag="0"/>
			<psa30 value="0.00534593872552" flag="0"/>
		</comp>
	</station>
	<station code="ARI" name="ARI" netid="IT" source="Italian Strong Motion Network (RAN)" insttype="" lat="41.15463" lon="15.09039">
		<comp name="00.HGE" depth="0.0">
			<acc value="0.196873039855" flag="0"/>
			<vel value="0.0771232894687" flag="0"/>
			<psa03 value="0.549250635158" flag="0"/>
			<psa10 value="0.0929724389679" flag="0"/>
			<psa30 value="0.0243433959639" flag="0"/>
		</comp>
		<comp name="00.HGN" depth="0.0">
			<acc value="0.165001233993" flag="0"/>
			<vel value="0.0711419548034" flag="0"/>
			<psa03 value="0.562416215646" flag="0"/>
			<psa10 value="0.0713985348026" flag="0"/>
			<psa30 value="0.0131972325852" flag="0"/>
		</comp>
		<comp name="00.HGZ" depth="0.0">
			<acc value="0.114763470245" flag="0"/>
			<vel value="0.0443604512314" flag="0"/>
			<psa03 value="0.227210509914" flag="0"/>
			<psa10 value="0.0462044333168" flag="0"/>
			<psa30 value="0.0197495116415" flag="0"/>
		</comp>
	</station>
	<station code="ARL" name="ARL" netid="IT" source="Italian Strong Motion Network (RAN)" insttype="" lat="41.057068" lon="14.542928">
		<comp name="00.HNE" depth="0.0">
			<acc value="0.0938367822987" flag="0"/>
			<vel value="0.079295050742" flag="0"/>
			<psa03 value="0.291886961079" flag="0"/>
			<psa10 value="0.112288243545" flag="0"/>
			<psa30 value="0.00796136656812" flag="0"/>
		</comp>
		<comp name="00.HNN" depth="0.0">
			<acc value="0.122400724508" flag="0"/>
			<vel value="0.0700083175835" flag="0"/>
			<psa03 value="0.426069641689" flag="0"/>
			<psa10 value="0.0760498479294" flag="0"/>
			<psa30 value="0.00429711049582" flag="0"/>
		</comp>
		<comp name="00.HNZ" depth="0.0">
			<acc value="0.0564157943366" flag="0"/>
			<vel value="0.0263337176671" flag="0"/>
			<psa03 value="0.188033997996" flag="0"/>
			<psa10 value="0.0234554900611" flag="0"/>
			<psa30 value="0.00308436307391" flag="0"/>
		</comp>
	</station>
	<station code="ARR" name="ARR" netid="IT" source="Italian Strong Motion Network (RAN)" insttype="" lat="41.141762" lon="15.082042">
		<comp name="00.HNE" depth="0.0">
			<acc value="0.142988714686" flag="0"/>
			<vel value="0.0920544454328" flag="0"/>
			<psa03 value="0.465142480073" flag="0"/>
			<psa10 value="0.134134280738" flag="0"/>
			<psa30 value="0.024697996121" flag="0"/>
		</comp>
		<comp name="00.HNN" depth="0.0">
			<acc value="0.155354173949" flag="0"/>
			<vel value="0.0942389618813" flag="0"/>
			<psa03 value="0.463641255624" flag="0"/>
			<psa10 value="0.149303240607" flag="0"/>
			<psa30 value="0.0265446951224" flag="0"/>
		</comp>
		<comp name="00.HNZ" depth="0.0">
			<acc value="0.0975674226117" flag="0"/>
			<vel value="0.0788616455733" flag="0"/>
			<psa03 value="0.223256602154" flag="0"/>
			<psa10 value="0.0870036335639" flag="0"/>
			<psa30 value="0.0223694168641" flag="0"/>
		</comp>
	</station>
	<station code="ASR" name="ASR" netid="IT" source="Italian Strong Motion Network (RAN)" insttype="" lat="41.199345" lon="15.562856">
		<comp name="00.HNE" depth="0.0">
			<acc value="0.377631939134" flag="0"/>
			<vel value="0.162930992847" flag="0"/>
			<psa03 value="0.54311306191" flag="0"/>
			<psa10 value="0.107068902789" flag="0"/>
			<psa30 value="0.00860779022384" flag="0"/>
		</comp>
		<comp name="00.HNN" depth="0.0">
			<acc value="0.25488332634" flag="0"/>
			<vel value="0.104519012672" flag="0"/>
			<psa03 value="0.481669616583" flag="0"/>
			<psa10 value="0.0632779568542" flag="0"/>
			<psa30 value="0.00978186716735" flag="0"/>
		</comp>
		<comp name="00.HNZ" depth="0.0">
			<acc value="0.173332298812" flag="0"/>
			<vel value="0.127230408445" flag="0"/>
			<psa03 value="0.373863099929" flag="0"/>
			<psa10 value="0.0960112952773" flag="0"/>
			<psa30 value="0.00605368852714" flag="0"/>
		</comp>
	</station>
	<station code="ATI" name="ATI" netid="IT" source="Italian Strong Motion Network (RAN)" insttype="" lat="41.621971" lon="13.794765">
		<comp name="00.HNE" depth="0.0">
			<acc value="0.109372523828" flag="0"/>
			<vel value="0.087611709848" flag="0"/>
			<psa03 value="0.280191415473" flag="0"/>
			<psa10 value="0.0794933710455" flag="0"/>
			<psa30 value="0.00591840081503" flag="0"/>
		</comp>
		<comp name="00.HNN" depth="0.0">
			<acc value="0.102771412457" flag="0"/>
			<vel value="0.0640199217381" flag="0"/>
			<psa03 value="0.24971616747" flag="0"/>
			<psa10 value="0.0917524606502" flag="0"/>
			<psa30 value="0.0103968904096" flag="0"/>
		</comp>
		<comp name="00.HNZ" depth="0.0">
			<acc value="0.0435596589835" flag="0"/>
			<vel value="0.0369339366909" flag="0"/>
			<psa03 value="0.189061149373" flag="0"/>
			<psa10 value="0.0484479969422" flag="0"/>
			<psa30 value="0.00674702404055" flag="0"/>
		</comp>
	</station>
	<station code="ATN" name="ATN" netid="IT" source="Italian Strong Motion Network (RAN)" insttype="" lat="41.620319" lon="13.801154">
		<comp name="00.HGE" depth="0.0">
			<acc value="0.109112492498" flag="0"/>
			<vel value="0.0659290022194" flag="0"/>
			<psa03 value="0.21547341989" flag="0"/>
			<psa10 value="0.0925579690113" flag="0"/>
			<psa30 value="0.00552902210393" flag="0"/>
		</comp>
		<comp name="00.HGN" depth="0.0">
			<acc value="0.0847247261251" flag="0"/>
			<vel value="0.0697642536477" flag="0"/>
			<psa03 value="0.337108352607" flag="0"/>
			<psa10 value="0.0783692490782" flag="0"/>
			<psa30 value="0.00991809535849" flag="0"/>
		</comp>
		<comp name="00.HGZ" depth="0.0">
			<acc value="0.0575300536521" flag="0"/>
			<vel value="0.0418802465157" flag="0"/>
			<psa03 value="0.149630401863" flag="0"/>
			<psa10 value="0.0717191510416" flag="0"/>
			<psa30 value="0.00576184961092" flag="0"/>
		</comp>
	</station>
	<station code="AVHO" name="AVHO" netid="IT" source="Italian Strong Motion Network (RAN)" insttype="" lat="40.9221000671" lon="14.798500061">
		<comp name="00.HNE" depth="0.0">
			<acc value="0.0766448048017" flag="0"/>
			<vel value="0.072855992395" flag="0"/>
			<psa03 value="0.157879750426" flag="0"/>
			<psa10 value="0.0912213054637" flag="0"/>
			<psa30 value="0.0113193840203" flag="0"/>
		</comp>
		<comp name="00.HNN" depth="0.0">
			<acc value="0.0862307726311" flag="0"/>
			<vel value="0.0809702488585" flag="0"/>
			<psa03 value="0.24958713809" flag="0"/>
			<psa10 value="0.0906178829899" flag="0"/>
			<psa30 value="0.0108110228439" flag="0"/>
		</comp>
		<comp name="00.HNZ" depth="0.0">
			<acc value="0.0428085293626" flag="0"/>
			<vel value="0.0394487498661" flag="0"/>
			<psa03 value="0.116748494431" flag="0"/>
			<psa10 value="0.0723735393917" flag="0"/>
			<psa30 value="0.00602685716636" flag="0"/>
		</comp>
	</station>
	<station code="AVL" name="AVL" netid="IT" source="Italian Strong Motion Network (RAN)" insttype="" lat="40.922832" lon="14.787044">
		<comp name="00.HNE" depth="0.0">
			<acc value="0.0827503520401" flag="0"/>
			<vel value="0.0613533925601" flag="0"/>
			<psa03 value="0.12967681962" flag="0"/>
			<psa10 value="0.062801832813" flag="0"/>
			<psa30 value="0.00809961989342" flag="0"/>
		</comp>
		<comp name="00.HNN" depth="0.0">
			<acc value="0.0855347223026" flag="0"/>
			<vel value="0.0437140303544" flag="0"/>
			<psa03 value="0.230971467393" flag="0"/>
			<psa10 value="0.0825419479988" flag="0"/>
			<psa30 value="0.0128526880942" flag="0"/>
		</comp>
		<comp name="00.HNZ" depth="0.0">
			<acc value="0.0338635788751" flag="0"/>
			<vel value="0.02535071273" flag="0"/>
			<psa03 value="0.0935921687719" flag="0"/>
			<psa10 value="0.03813958031" flag="0"/>
			<psa30 value="0.0053113214323" flag="0"/>
		</comp>
	</station>
	<station code="BGI" name="BGI" netid="IT" source="Italian Strong Motion Network (RAN)" insttype="" lat="40.83113" lon="15.068183">
		<comp name="00.HGE" depth="0.0">
			<acc value="0.0385013633992" flag="0"/>
			<vel value="0.0388328057449" flag="0"/>
			<psa03 value="0.0657222912792" flag="0"/>
			<psa10 value="0.0734588687897" flag="0"/>
			<psa30 value="0.00503798624188" flag="0"/>
		</comp>
		<comp name="00.HGN" depth="0.0">
			<acc value="0.037054402345" flag="0"/>
			<vel value="0.0373298534768" flag="0"/>
			<psa03 value="0.0620203689616" flag="0"/>
			<psa10 value="0.0628129860521" flag="0"/>
			<psa30 value="0.00410265719757" flag="0"/>
		</comp>
		<comp name="00.HGZ" depth="0.0">
			<acc value="0.0364263204039" flag="0"/>
			<vel value="0.0343561494572" flag="0"/>
			<psa03 value="0.0548943135623" flag="0"/>
			<psa10 value="0.0524785726979" flag="0"/>
			<psa30 value="0.00515669160552" flag="0"/>
		</comp>
	</station>
	<station code="BNE" name="BNE" netid="IT" source="Italian Strong Motion Network (RAN)" insttype="" lat="41.127556" lon="14.784882">
		<comp name="00.HGE" depth="0.0">
			<acc value="0.0772715937692" flag="0"/>
			<vel value="0.0748053244162" flag="0"/>
			<psa03 value="0.225305196197" flag="0"/>
			<psa10 value="0.0758126222142" flag="0"/>
			<psa30 value="0.0174710457044" flag="0"/>
		</comp>
		<comp name="00.HGN" depth="0.0">
			<acc value="0.0820954357034" flag="0"/>
			<vel value="0.0738552982405" flag="0"/>
			<psa03 value="0.224634880958" flag="0"/>
			<psa10 value="0.0949876499655" flag="0"/>
			<psa30 value="0.0168062866674" flag="0"/>
		</comp>
		<comp name="00.HGZ" depth="0.0">
			<acc value="0.0422492222895" flag="0"/>
			<vel value="0.0669537772498" flag="0"/>
			<psa03 value="0.146050581384" flag="0"/>
			<psa10 value="0.0988612215708" flag="0"/>
			<psa30 value="0.0170994144189" flag="0"/>
		</comp>
	</station>
	<station code="BNPI" name="BNPI" netid="IT" source="Italian Strong Motion Network (RAN)" insttype="" lat="41.1172981262" lon="14.7651996613">
		<comp name="00.HNE" depth="0.0">
			<acc value="0.00290136821971" flag="0"/>
			<vel value="0.00151515433358" flag="0"/>
			<psa03 value="0.0102407135533" flag="0"/>
			<psa10 value="0.00169377556369" flag="0"/>
			<psa30 value="0.00016502533316" flag="0"/>
		</comp>
		<comp name="00.HNN" depth="0.0">
			<acc value="0.00261490171868" flag="0"/>
			<vel value="0.00160026522393" flag="0"/>
			<psa03 value="0.00816068123006" flag="0"/>
			<psa10 value="0.00151626540608" flag="0"/>
			<psa30 value="0.000280984499261" flag="0"/>
		</comp>
		<comp name="00.HNZ" depth="0.0">
			<acc value="0.00110829023647" flag="0"/>
			<vel value="0.000644647815853" flag="0"/>
			<psa03 value="0.00391214067054" flag="0"/>
			<psa10 value="0.00103410369961" flag="0"/>
			<psa30 value="0.000151188114429" flag="0"/>
		</comp>
	</station>
	<station code="BOI" name="BOI" netid="IT" source="Italian Strong Motion Network (RAN)" insttype="" lat="41.481264" lon="14.47253">
		<comp name="00.HGE" depth="0.0">
			<acc value="0.542129650673" flag="0"/>
			<vel value="0.334522822786" flag="0"/>
			<psa03 value="1.1678530312" flag="0"/>
			<psa10 value="0.458261097548" flag="0"/>
			<psa30 value="0.0276547969946" flag="0"/>
		</comp>
		<comp name="00.HGN" depth="0.0">
			<acc value="0.465753349411" flag="0"/>
			<vel value="0.268726657036" flag="0"/>
			<psa03 value="1.1036333603" flag="0"/>
			<psa10 value="0.365272517511" flag="0"/>
			<psa30 value="0.0390706715736" flag="0"/>
		</comp>
		<comp name="00.HGZ" depth="0.0">
			<acc value="0.521286814487" flag="0"/>
			<vel value="0.162919805547" flag="0"/>
			<psa03 value="0.956915807642" flag="0"/>
			<psa10 value="0.180593978465" flag="0"/>
			<psa30 value="0.0162258098803" flag="0"/>
		</comp>
	</station>
	<station code="BOJ" name="BOJ" netid="IT" source="Italian Strong Motion Network (RAN)" insttype="" lat="41.484451" lon="14.472103">
		<comp name="00.HNE" depth="0.0">
			<acc value="2.48720016608" flag="0"/>
			<vel value="0.988201518126" flag="0"/>
			<psa03 value="3.47558657389" flag="0"/>
			<psa10 value="2.24612231458" flag="0"/>
			<psa30 value="0.164128086014" flag="0"/>
		</comp>
		<comp name="00.HNN" depth="0.0">
			<acc value="1.89318911049" flag="0"/>
			<vel value="1.08616948363" flag="0"/>
			<psa03 value="3.33534028326" flag="0"/>
			<psa10 value="1.62460246194" flag="0"/>
			<psa30 value="0.103198369719" flag="0"/>
		</comp>
		<comp name="00.HNZ" depth="0.0">
			<acc value="1.2485375043" flag="0"/>
			<vel value="0.510481630646" flag="0"/>
			<psa03 value="2.05152140322" flag="0"/>
			<psa10 value="0.694251270739" flag="0"/>
			<psa30 value="0.0493901351873" flag="0"/>
		</comp>
	</station>
	<station code="BRLL" name="BRLL" netid="IT" source="Italian Strong Motion Network (RAN)" insttype="" lat="41.521900177" lon="14.5839004517">
		<comp name="00.HNE" depth="0.0">
			<acc value="7.15010806231" flag="0"/>
			<vel value="4.08465782584" flag="0"/>
			<psa03 value="19.8472961193" flag="0"/>
			<psa10 value="2.30475219852" flag="0"/>
			<psa30 value="0.134376061755" flag="0"/>
		</comp>
		<comp name="00.HNN" depth="0.0">
			<acc value="3.33341217391" flag="0"/>
			<vel value="1.55042882912" flag="0"/>
			<psa03 value="8.05358417708" flag="0"/>
			<psa10 value="0.834842684231" flag="0"/>
			<psa30 value="0.0531614450181" flag="0"/>
		</comp>
		<comp name="00.HNZ" depth="0.0">
			<acc value="1.74261226287" flag="0"/>
			<vel value="0.897400599772" flag="0"/>
			<psa03 value="5.97856138367" flag="0"/>
			<psa10 value="0.534911255245" flag="0"/>
			<psa30 value="0.049094425598" flag="0"/>
		</comp>
	</station>
	<station code="BSA" name="BSA" netid="IT" source="Italian Strong Motion Network (RAN)" insttype="" lat="41.009247" lon="15.358271">
		<comp name="00.HNE" depth="0.0">
			<acc value="0.0408986626797" flag="0"/>
			<vel value="0.0507210323733" flag="0"/>
			<psa03 value="0.118232134382" flag="0"/>
			<psa10 value="0.0690997600199" flag="0"/>
			<psa30 value="0.0102691494474" flag="0"/>
		</comp>
		<comp name="00.HNN" depth="0.0">
			<acc value="0.0506677448114" flag="0"/>
			<vel value="0.066163144638" flag="0"/>
			<psa03 value="0.133379398231" flag="0"/>
			<psa10 value="0.113735156896" flag="0"/>
			<psa30 value="0.011269076521" flag="0"/>
		</comp>
		<comp name="00.HNZ" depth="0.0">
			<acc value="0.0287484739843" flag="0"/>
			<vel value="0.0255087715679" flag="0"/>
			<psa03 value="0.0950440774538" flag="0"/>
			<psa10 value="0.03558542861" flag="0"/>
			<psa30 value="0.0065954669173" flag="0"/>
		</comp>
	</station>
	<station code="BSS" name="BSS" netid="IT" source="Italian Strong Motion Network (RAN)" insttype="" lat="42.191732" lon="13.845266">
		<comp name="00.HGE" depth="0.0">
			<acc value="0.19141806133" flag="0"/>
			<vel value="0.0687306178317" flag="0"/>
			<psa03 value="0.463754388119" flag="0"/>
			<psa10 value="0.0475270934368" flag="0"/>
			<psa30 value="0.00552921670013" flag="0"/>
		</comp>
		<comp name="00.HGN" depth="0.0">
			<acc value="0.18340716726" flag="0"/>
			<vel value="0.063729734696" flag="0"/>
			<psa03 value="0.369269212273" flag="0"/>
			<psa10 value="0.069352519264" flag="0"/>
			<psa30 value="0.00381990096636" flag="0"/>
		</comp>
		<comp name="00.HGZ" depth="0.0">
			<acc value="0.0877496395111" flag="0"/>
			<vel value="0.0301476153849" flag="0"/>
			<psa03 value="0.191764620132" flag="0"/>
			<psa10 value="0.0292123933027" flag="0"/>
			<psa30 value="0.00300739214164" flag="0"/>
		</comp>
	</station>
	<station code="BVN" name="BVN" netid="IT" source="Italian Strong Motion Network (RAN)" insttype="" lat="41.249095" lon="15.34229">
		<comp name="00.HGE" depth="0.0">
			<acc value="0.222715570032" flag="0"/>
			<vel value="0.11117061817" flag="0"/>
			<psa03 value="0.512763468063" flag="0"/>
			<psa10 value="0.0671147235211" flag="0"/>
			<psa30 value="0.00699825026639" flag="0"/>
		</comp>
		<comp name="00.HGN" depth="0.0">
			<acc value="0.221505272632" flag="0"/>
			<vel value="0.125524087046" flag="0"/>
			<psa03 value="0.468164013567" flag="0"/>
			<psa10 value="0.0631359874493" flag="0"/>
			<psa30 value="0.0107083585429" flag="0"/>
		</comp>
		<comp name="00.HGZ" depth="0.0">
			<acc value="0.130609334678" flag="0"/>
			<vel value="0.0763489953258" flag="0"/>
			<psa03 value="0.376484231899" flag="0"/>
			<psa10 value="0.0445483761113" flag="0"/>
			<psa30 value="0.00597237772406" flag="0"/>
		</comp>
	</station>
	<station code="CAN" name="CAN" netid="IT" source="Italian Strong Motion Network (RAN)" insttype="" lat="41.203197" lon="15.475419">
		<comp name="00.HNE" depth="0.0">
			<acc value="0.17161680549" flag="0"/>
			<vel value="0.0866160819392" flag="0"/>
			<psa03 value="0.389905329315" flag="0"/>
			<psa10 value="0.0695059419274" flag="0"/>
			<psa30 value="0.00663924856762" flag="0"/>
		</comp>
		<comp name="00.HNN" depth="0.0">
			<acc value="0.183185807278" flag="0"/>
			<vel value="0.081773837373" flag="0"/>
			<psa03 value="0.561674124821" flag="0"/>
			<psa10 value="0.0689955331154" flag="0"/>
			<psa30 value="0.00762721943251" flag="0"/>
		</comp>
		<comp name="00.HNZ" depth="0.0">
			<acc value="0.0852862028471" flag="0"/>
			<vel value="0.0324081552965" flag="0"/>
			<psa03 value="0.21033070421" flag="0"/>
			<psa10 value="0.0469514415524" flag="0"/>
			<psa30 value="0.00637141374154" flag="0"/>
		</comp>
	</station>
	<station code="CBAG" name="CBAG" netid="IT" source="Italian Strong Motion Network (RAN)" insttype="" lat="41.595199585" lon="14.6696996689">
		<comp name="00.HNE" depth="0.0">
			<acc value="7.48982493904" flag="0"/>
			<vel value="3.98472796682" flag="0"/>
			<psa03 value="13.5922844221" flag="0"/>
			<psa10 value="3.34396728142" flag="0"/>
			<psa30 value="0.30145066296" flag="0"/>
		</comp>
		<comp name="00.HNN" depth="0.0">
			<acc value="10.7956929724" flag="0"/>
			<vel value="3.81461684405" flag="0"/>
			<psa03 value="20.1530643749" flag="0"/>
			<psa10 value="1.41546220742" flag="0"/>
			<psa30 value="0.104629111165" flag="0"/>
		</comp>
		<comp name="00.HNZ" depth="0.0">
			<acc value="3.31081142968" flag="0"/>
			<vel value="1.2819864359" flag="0"/>
			<psa03 value="9.82296538991" flag="0"/>
			<psa10 value="0.785931644115" flag="0"/>
			<psa30 value="0.0897032690682" flag="0"/>
		</comp>
	</station>
	<station code="CBHG" name="CBHG" netid="IT" source="Italian Strong Motion Network (RAN)" insttype="" lat="41.5479011536" lon="14.6147003174">
		<comp name="00.HNE" depth="0.0">
			<acc value="0.0476615625942" flag="0"/>
			<vel value="0.0395806863856" flag="0"/>
