<?xml version="1.0" encoding="UTF-8" standalone="yes"?>
<!DOCTYPE earthquake SYSTEM "stationlist.dtd">
<stationlist created="" xmlns="ch.ethz.sed.shakemap.usgs.xml">
  <station code="ACER" name="ACER" netid="IV" insttype="" lat="40.7867" lon="15.9427">
    <comp name="--.HHN">
      <acc value="0.0314281927" flag="0"/>
      <vel value="0.0280758553" flag="0"/>
      <psa03 value="0.0840945005" flag="0"/>
      <psa10 value="0.0401126056" flag="0"/>
      <psa30 value="0.0044575663" flag="0"/>
    </comp>
    <comp name="--.HHE">
      <acc value="0.0336573825" flag="0"/>
      <vel value="0.0284317460" flag="0"/>
      <psa03 value="0.1294798600" flag="0"/>
      <psa10 value="0.0343127239" flag="0"/>
      <psa30 value="0.0040511731" flag="0"/>
    </comp>
    <comp name="--.HHZ">
      <acc value="0.0213147348" flag="0"/>
      <vel value="0.0117814813" flag="0"/>
      <psa03 value="0.0773710424" flag="0"/>
      <psa10 value="0.0105331392" flag="0"/>
      <psa30 value="0.0054057646" flag="0"/>
    </comp>
  </station>
  <station code="APRC" name="APRC" netid="IV" insttype="" lat="41.7574" lon="15.5431">
    <comp name="--.HHE">
      <acc value="0.1711623580" flag="0"/>
      <vel value="0.0706373064" flag="0"/>
      <psa03 value="0.4842375004" flag="0"/>
      <psa10 value="0.0295235884" flag="0"/>
      <psa30 value="0.0033460927" flag="0"/>
    </comp>
    <comp name="--.HHN">
      <acc value="0.2634136970" flag="0"/>
      <vel value="0.0836616435" flag="0"/>
      <psa03 value="0.4828796648" flag="0"/>
      <psa10 value="0.0416355495" flag="0"/>
      <psa30 value="0.0031523531" flag="0"/>
    </comp>
    <comp name="--.HHZ">
      <acc value="0.1295634092" flag="0"/>
      <vel value="0.0359901566" flag="0"/>
      <psa03 value="0.1983452076" flag="0"/>
      <psa10 value="0.0181785454" flag="0"/>
      <psa30 value="0.0016038511" flag="0"/>
    </comp>
  </station>
  <station code="CAAM" name="CAAM" netid="IV" insttype="" lat="40.8201" lon="14.142">
    <comp name="--.HHE">
      <acc value="0.0217725306" flag="0"/>
      <vel value="0.0310308155" flag="0"/>
      <psa03 value="0.0717127640" flag="0"/>
      <psa10 value="0.0475018856" flag="0"/>
      <psa30 value="0.0111876602" flag="0"/>
    </comp>
    <comp name="--.HHN">
      <acc value="0.0233306869" flag="0"/>
      <vel value="0.0359648212" flag="0"/>
      <psa03 value="0.0740337711" flag="0"/>
      <psa10 value="0.0375265819" flag="0"/>
      <psa30 value="0.0121526808" flag="0"/>
    </comp>
    <comp name="--.HHZ">
      <acc value="0.0219059936" flag="0"/>
      <vel value="0.0245624585" flag="0"/>
      <psa03 value="0.0740019972" flag="0"/>
      <psa10 value="0.0376792739" flag="0"/>
      <psa30 value="0.0071190302" flag="0"/>
    </comp>
  </station>
  <station code="CAFE" name="CAFE" netid="IV" insttype="" lat="41.028" lon="15.2366">
    <comp name="--.HHE">
      <acc value="0.0719769751" flag="0"/>
      <vel value="0.0506591480" flag="0"/>
      <psa03 value="0.2290286416" flag="0"/>
      <psa10 value="0.0465868137" flag="0"/>
      <psa30 value="0.0123486116" flag="0"/>
    </comp>
    <comp name="--.HHN">
      <acc value="0.0518461591" flag="0"/>
      <vel value="0.0452518876" flag="0"/>
      <psa03 value="0.1421401241" flag="0"/>
      <psa10 value="0.0394541470" flag="0"/>
      <psa30 value="0.0154187811" flag="0"/>
    </comp>
  </station>
  <station code="CBAC" name="CBAC" netid="IV" insttype="" lat="40.8109" lon="14.0806">
    <comp name="--.HHE">
      <acc value="0.0443859613" flag="0"/>
      <vel value="0.0419174996" flag="0"/>
      <psa03 value="0.1477491741" flag="0"/>
      <psa10 value="0.0567519715" flag="0"/>
      <psa30 value="0.0144723207" flag="0"/>
    </comp>
    <comp name="--.HHN">
      <acc value="0.0478718420" flag="0"/>
      <vel value="0.0435716056" flag="0"/>
      <psa03 value="0.1104747611" flag="0"/>
      <psa10 value="0.1054837969" flag="0"/>
      <psa30 value="0.0167977835" flag="0"/>
    </comp>
    <comp name="--.HHZ">
      <acc value="0.0616896542" flag="0"/>
      <vel value="0.0261343177" flag="0"/>
      <psa03 value="0.1331052651" flag="0"/>
      <psa10 value="0.0259626911" flag="0"/>
      <psa30 value="0.0049876573" flag="0"/>
    </comp>
  </station>
  <station code="CDRU" name="CDRU" netid="IV" insttype="" lat="40.4896" lon="15.3046">
    <comp name="--.HNN">
      <acc value="0.0134553860" flag="0"/>
      <vel value="0.0079879443" flag="0"/>
      <psa03 value="0.0458884583" flag="0"/>
      <psa10 value="0.0112455000" flag="0"/>
      <psa30 value="0.0023827743" flag="0"/>
    </comp>
    <comp name="--.HNE">
      <acc value="0.0179746942" flag="0"/>
      <vel value="0.0125270255" flag="0"/>
      <psa03 value="0.0605126641" flag="0"/>
      <psa10 value="0.0154376889" flag="0"/>
      <psa30 value="0.0020576578" flag="0"/>
    </comp>
    <comp name="--.HNZ">
      <acc value="0.0085752504" flag="0"/>
      <vel value="0.0058215694" flag="0"/>
      <psa03 value="0.0318500115" flag="0"/>
      <psa10 value="0.0069368513" flag="0"/>
      <psa30 value="0.0008572356" flag="0"/>
    </comp>
  </station>
  <station code="CERA" name="CERA" netid="IV" insttype="" lat="41.5978" lon="14.0183">
    <comp name="--.HHE">
      <acc value="0.1776181727" flag="0"/>
      <vel value="0.1569618256" flag="0"/>
      <psa03 value="0.4956102157" flag="0"/>
      <psa10 value="0.2350488121" flag="0"/>
      <psa30 value="0.0138410941" flag="0"/>
    </comp>
    <comp name="--.HHZ">
      <acc value="0.0931330985" flag="0"/>
      <vel value="0.0931533015" flag="0"/>
      <psa03 value="0.2227210417" flag="0"/>
      <psa10 value="0.2033037190" flag="0"/>
      <psa30 value="0.0086146485" flag="0"/>
    </comp>
  </station>
  <station code="CERT" name="CERT" netid="IV" insttype="" lat="41.949" lon="12.9818">
    <comp name="--.HNE">
      <acc value="0.0256245908" flag="0"/>
      <vel value="0.0219434764" flag="0"/>
      <psa03 value="0.0697328200" flag="0"/>
      <psa10 value="0.0366121090" flag="0"/>
      <psa30 value="0.0032773646" flag="0"/>
    </comp>
    <comp name="--.HNZ">
      <acc value="0.0079566864" flag="0"/>
      <vel value="0.0076344365" flag="0"/>
      <psa03 value="0.0194564502" flag="0"/>
      <psa10 value="0.0141657302" flag="0"/>
      <psa30 value="0.0024362317" flag="0"/>
    </comp>
    <comp name="--.HNN">
      <acc value="0.0179367190" flag="0"/>
      <vel value="0.0144702812" flag="0"/>
      <psa03 value="0.0561266804" flag="0"/>
      <psa10 value="0.0226174703" flag="0"/>
      <psa30 value="0.0026734933" flag="0"/>
    </comp>
  </station>
  <station code="CFMN" name="CFMN" netid="IV" insttype="" lat="40.8329" lon="14.0904">
    <comp name="--.HHE">
      <acc value="0.0539405061" flag="0"/>
      <vel value="0.0350722174" flag="0"/>
      <psa03 value="0.1535214670" flag="0"/>
      <psa10 value="0.0398089129" flag="0"/>
      <psa30 value="0.0075829325" flag="0"/>
    </comp>
    <comp name="--.HHN">
      <acc value="0.0568940643" flag="0"/>
      <vel value="0.0288596503" flag="0"/>
      <psa03 value="0.1380039964" flag="0"/>
      <psa10 value="0.0449732364" flag="0"/>
      <psa30 value="0.0094133493" flag="0"/>
    </comp>
    <comp name="--.HHZ">
      <acc value="0.0610408375" flag="0"/>
      <vel value="0.0327326562" flag="0"/>
      <psa03 value="0.1307982671" flag="0"/>
      <psa10 value="0.0367510965" flag="0"/>
      <psa30 value="0.0046277640" flag="0"/>
    </comp>
  </station>
  <station code="CMIS" name="CMIS" netid="IV" insttype="" lat="40.7782" lon="14.089">
    <comp name="--.HHE">
      <acc value="0.0618101838" flag="0"/>
      <vel value="0.0469903929" flag="0"/>
      <psa03 value="0.2055591905" flag="0"/>
      <psa10 value="0.0596730352" flag="0"/>
      <psa30 value="0.0171455521" flag="0"/>
    </comp>
    <comp name="--.HHN">
      <acc value="0.0647586024" flag="0"/>
      <vel value="0.0490043948" flag="0"/>
      <psa03 value="0.1533424372" flag="0"/>
      <psa10 value="0.0594694065" flag="0"/>
      <psa30 value="0.0144918896" flag="0"/>
    </comp>
    <comp name="--.HHZ">
      <acc value="0.0268337636" flag="0"/>
      <vel value="0.0192136598" flag="0"/>
      <psa03 value="0.0968773608" flag="0"/>
      <psa10 value="0.0410087182" flag="0"/>
      <psa30 value="0.0038602443" flag="0"/>
    </comp>
  </station>
  <station code="CNIS" name="CNIS" netid="IV" insttype="" lat="40.7982" lon="14.1632">
    <comp name="--.HNZ">
      <acc value="0.1875784766" flag="0"/>
      <vel value="0.2549657751" flag="0"/>
      <psa03 value="0.4662733834" flag="0"/>
      <psa10 value="0.5231372351" flag="0"/>
      <psa30 value="0.0399364910" flag="0"/>
    </comp>
    <comp name="--.HNN">
      <acc value="0.1341115326" flag="0"/>
      <vel value="0.1889472403" flag="0"/>
      <psa03 value="0.6043455937" flag="0"/>
      <psa10 value="0.3012728111" flag="0"/>
      <psa30 value="0.1320667075" flag="0"/>
    </comp>
    <comp name="--.HNE">
      <acc value="0.1813790725" flag="0"/>
      <vel value="0.3093086253" flag="0"/>
      <psa03 value="0.8573501752" flag="0"/>
      <psa10 value="0.4920083978" flag="0"/>
      <psa30 value="0.1739818231" flag="0"/>
    </comp>
  </station>
  <station code="COLB" name="COLB" netid="IV" insttype="" lat="40.819" lon="14.1446">
    <comp name="--.HHE">
      <acc value="24103.0877541653" flag="0"/>
      <vel value="23712.0904249059" flag="0"/>
      <psa03 value="42515.8377824382" flag="0"/>
      <psa10 value="30819.5355568521" flag="0"/>
      <psa30 value="10655.7937417552" flag="0"/>
    </comp>
    <comp name="--.HHZ">
      <acc value="20669.2828267058" flag="0"/>
      <vel value="20098.3175135694" flag="0"/>
      <psa03 value="86398.7805276807" flag="0"/>
      <psa10 value="33458.9893191282" flag="0"/>
      <psa30 value="5975.4533662564" flag="0"/>
    </comp>
    <comp name="--.HHN">
      <acc value="19192.2034097948" flag="0"/>
      <vel value="29838.6321084766" flag="0"/>
      <psa03 value="53195.0676217891" flag="0"/>
      <psa10 value="31528.2846710032" flag="0"/>
      <psa30 value="8430.7515949294" flag="0"/>
    </comp>
  </station>
  <station code="CSOB" name="CSOB" netid="IV" insttype="" lat="40.8265" lon="14.144">
    <comp name="--.HHN">
      <acc value="0.0699984545" flag="0"/>
      <vel value="0.0408651731" flag="0"/>
      <psa03 value="0.1471581968" flag="0"/>
      <psa10 value="0.0569525945" flag="0"/>
      <psa30 value="0.0112208838" flag="0"/>
    </comp>
    <comp name="--.HHE">
      <acc value="0.0644728990" flag="0"/>
      <vel value="0.0409628461" flag="0"/>
      <psa03 value="0.2108279795" flag="0"/>
      <psa10 value="0.0431556388" flag="0"/>
      <psa30 value="0.0081097359" flag="0"/>
    </comp>
    <comp name="--.HHZ">
      <acc value="0.0590619778" flag="0"/>
      <vel value="0.0363187897" flag="0"/>
      <psa03 value="0.2377087316" flag="0"/>
      <psa10 value="0.0390546640" flag="0"/>
      <psa30 value="0.0065815541" flag="0"/>
    </comp>
  </station>
  <station code="CSTH" name="CSTH" netid="IV" insttype="" lat="40.8294" lon="14.1493">
    <comp name="--.HHE">
      <acc value="0.0761368771" flag="0"/>
      <vel value="0.0452840986" flag="0"/>
      <psa03 value="0.1862254852" flag="0"/>
      <psa10 value="0.0499488537" flag="0"/>
      <psa30 value="0.0069286266" flag="0"/>
    </comp>
    <comp name="--.HHN">
      <acc value="0.0474043415" flag="0"/>
      <vel value="0.0331728027" flag="0"/>
      <psa03 value="0.1371835943" flag="0"/>
      <psa10 value="0.0597545726" flag="0"/>
      <psa30 value="0.0102533291" flag="0"/>
    </comp>
    <comp name="--.HHZ">
      <acc value="0.0326709168" flag="0"/>
      <vel value="0.0253924846" flag="0"/>
      <psa03 value="0.0941052337" flag="0"/>
      <psa10 value="0.0360622478" flag="0"/>
      <psa30 value="0.0058525546" flag="0"/>
    </comp>
  </station>
  <station code="FAGN" name="FAGN" netid="IV" insttype="" lat="42.2657" lon="13.5838">
    <comp name="--.HHZ">
      <acc value="0.0719211796" flag="0"/>
      <vel value="0.0487906209" flag="0"/>
      <psa03 value="0.3020420922" flag="0"/>
      <psa10 value="0.0385225989" flag="0"/>
      <psa30 value="0.0035917896" flag="0"/>
    </comp>
    <comp name="--.HHE">
      <acc value="0.0872231048" flag="0"/>
      <vel value="0.0655318658" flag="0"/>
      <psa03 value="0.2271463571" flag="0"/>
      <psa10 value="0.0691363945" flag="0"/>
      <psa30 value="0.0041906290" flag="0"/>
    </comp>
    <comp name="--.HHN">
      <acc value="0.0959300324" flag="0"/>
      <vel value="0.0794810665" flag="0"/>
      <psa03 value="0.2873402252" flag="0"/>
      <psa10 value="0.0746383812" flag="0"/>
      <psa30 value="0.0055597806" flag="0"/>
    </comp>
  </station>
  <station code="GATE" name="GATE" netid="IV" insttype="" lat="41.5131" lon="14.9102">
    <comp name="--.HHE">
      <acc value="0.2135172073" flag="0"/>
      <vel value="0.1769508233" flag="0"/>
      <psa03 value="0.8470349023" flag="0"/>
      <psa10 value="0.3327129608" flag="0"/>
      <psa30 value="0.0358387951" flag="0"/>
    </comp>
    <comp name="--.HHN">
      <acc value="0.2694540820" flag="0"/>
      <vel value="0.2155195190" flag="0"/>
      <psa03 value="0.6119703565" flag="0"/>
      <psa10 value="0.2516604368" flag="0"/>
      <psa30 value="0.0387588331" flag="0"/>
    </comp>
    <comp name="--.HHZ">
      <acc value="0.2155325690" flag="0"/>
      <vel value="0.1462255708" flag="0"/>
      <psa03 value="0.7655471088" flag="0"/>
      <psa10 value="0.2370948070" flag="0"/>
      <psa30 value="0.0357657219" flag="0"/>
    </comp>
  </station>
  <station code="GIGS" name="GIGS" netid="IV" insttype="" lat="42.4532" lon="13.5728">
    <comp name="--.HHE">
      <acc value="0.0081604036" flag="0"/>
      <vel value="0.0074706045" flag="0"/>
      <psa03 value="0.0185705227" flag="0"/>
      <psa10 value="0.0091983751" flag="0"/>
      <psa30 value="0.0014830954" flag="0"/>
    </comp>
    <comp name="--.HHN">
      <acc value="0.0104269824" flag="0"/>
      <vel value="0.0080058194" flag="0"/>
      <psa03 value="0.0219371732" flag="0"/>
      <psa10 value="0.0171294264" flag="0"/>
      <psa30 value="0.0011977584" flag="0"/>
    </comp>
    <comp name="--.HHZ">
      <acc value="0.0095489340" flag="0"/>
      <vel value="0.0071068822" flag="0"/>
      <psa03 value="0.0226949463" flag="0"/>
      <psa10 value="0.0058920487" flag="0"/>
      <psa30 value="0.0018521796" flag="0"/>
    </comp>
  </station>
  <station code="GIUL" name="GIUL" netid="IV" insttype="" lat="41.5583" lon="13.2546">
    <comp name="--.HHE">
      <acc value="0.0234409393" flag="0"/>
      <vel value="0.0213808345" flag="0"/>
      <psa03 value="0.0543512337" flag="0"/>
      <psa10 value="0.0306033747" flag="0"/>
      <psa30 value="0.0035992134" flag="0"/>
    </comp>
    <comp name="--.HHN">
      <acc value="0.0273083090" flag="0"/>
      <vel value="0.0303338474" flag="0"/>
      <psa03 value="0.0853752706" flag="0"/>
      <psa10 value="0.0420100556" flag="0"/>
      <psa30 value="0.0120786365" flag="0"/>
    </comp>
    <comp name="--.HHZ">
      <acc value="0.0194263685" flag="0"/>
      <vel value="0.0153289703" flag="0"/>
      <psa03 value="0.0378999873" flag="0"/>
      <psa10 value="0.0256328715" flag="0"/>
      <psa30 value="0.0023300242" flag="0"/>
    </comp>
  </station>
  <station code="GUAR" name="GUAR" netid="IV" insttype="" lat="41.7945" lon="13.3123">
    <comp name="--.HHE">
      <acc value="0.0527189739" flag="0"/>
      <vel value="0.0336978907" flag="0"/>
      <psa03 value="0.1541502570" flag="0"/>
      <psa10 value="0.0584233139" flag="0"/>
      <psa30 value="0.0055973332" flag="0"/>
    </comp>
    <comp name="--.HHN">
      <acc value="0.0783214172" flag="0"/>
      <vel value="0.0526350960" flag="0"/>
      <psa03 value="0.2431886300" flag="0"/>
      <psa10 value="0.0391060481" flag="0"/>
      <psa30 value="0.0077145904" flag="0"/>
    </comp>
  </station>
  <station code="IBCM" name="IBCM" netid="IV" insttype="" lat="40.7109" lon="13.9161">
    <comp name="--.HNN">
      <acc value="0.0789044642" flag="0"/>
      <vel value="0.0641773838" flag="0"/>
      <psa03 value="0.1739234836" flag="0"/>
      <psa10 value="0.0799258987" flag="0"/>
      <psa30 value="0.0043953779" flag="0"/>
    </comp>
  </station>
  <station code="INTR" name="INTR" netid="IV" insttype="" lat="42.0115" lon="13.9046">
    <comp name="--.HHE">
      <acc value="0.1919064575" flag="0"/>
      <vel value="0.0755474898" flag="0"/>
      <psa03 value="0.4820523087" flag="0"/>
      <psa10 value="0.1057066207" flag="0"/>
      <psa30 value="0.0090997504" flag="0"/>
    </comp>
    <comp name="--.HHN">
      <acc value="0.4088164070" flag="0"/>
      <vel value="0.1067778521" flag="0"/>
      <psa03 value="0.5517783374" flag="0"/>
      <psa10 value="0.1827419881" flag="0"/>
      <psa30 value="0.0072297687" flag="0"/>
    </comp>
    <comp name="--.HHZ">
      <acc value="0.1364376417" flag="0"/>
      <vel value="0.0367842201" flag="0"/>
      <psa03 value="0.2673579243" flag="0"/>
      <psa10 value="0.0404535293" flag="0"/>
      <psa30 value="0.0038611745" flag="0"/>
    </comp>
  </station>
  <station code="IOCA" name="IOCA" netid="IV" insttype="" lat="40.7468" lon="13.9014">
    <comp name="--.HHE">
      <acc value="0.0850979511" flag="0"/>
      <vel value="0.0536086143" flag="0"/>
      <psa03 value="0.3105026580" flag="0"/>
      <psa10 value="0.0556599881" flag="0"/>
      <psa30 value="0.0072582963" flag="0"/>
    </comp>
    <comp name="--.HHZ">
      <acc value="0.0842501726" flag="0"/>
      <vel value="0.0333584397" flag="0"/>
      <psa03 value="0.2038844845" flag="0"/>
      <psa10 value="0.0178993380" flag="0"/>
      <psa30 value="0.0030668221" flag="0"/>
    </comp>
    <comp name="--.HHN">
      <acc value="0.0967970292" flag="0"/>
      <vel value="0.0715603110" flag="0"/>
      <psa03 value="0.3002504606" flag="0"/>
      <psa10 value="0.0464514296" flag="0"/>
      <psa30 value="0.0072766859" flag="0"/>
    </comp>
  </station>
  <station code="LNSS" name="LNSS" netid="IV" insttype="" lat="42.6029" lon="13.0403">
    <comp name="--.HHN">
      <acc value="0.0147389098" flag="0"/>
      <vel value="0.0159679452" flag="0"/>
      <psa03 value="0.0498536775" flag="0"/>
      <psa10 value="0.0257923000" flag="0"/>
      <psa30 value="0.0022697036" flag="0"/>
    </comp>
    <comp name="--.HHZ">
      <acc value="0.0069897041" flag="0"/>
      <vel value="0.0084096260" flag="0"/>
      <psa03 value="0.0186713702" flag="0"/>
      <psa10 value="0.0136491909" flag="0"/>
      <psa30 value="0.0021324936" flag="0"/>
    </comp>
  </station>
  <station code="LPEL" name="LPEL" netid="IV" insttype="" lat="42.0468" lon="14.1832">
    <comp name="--.HHN">
      <acc value="0.5782873165" flag="0"/>
      <vel value="0.1551787452" flag="0"/>
      <psa03 value="0.7010277036" flag="0"/>
      <psa10 value="0.0539958279" flag="0"/>
      <psa30 value="0.0039387912" flag="0"/>
    </comp>
    <comp name="--.HHE">
      <acc value="0.7503145647" flag="0"/>
      <vel value="0.1173067833" flag="0"/>
      <psa03 value="0.5935981603" flag="0"/>
      <psa10 value="0.0647639253" flag="0"/>
      <psa30 value="0.0043082485" flag="0"/>
    </comp>
    <comp name="--.HHZ">
      <acc value="0.3227353617" flag="0"/>
      <vel value="0.0510188474" flag="0"/>
      <psa03 value="0.2418727439" flag="0"/>
      <psa10 value="0.0531812514" flag="0"/>
      <psa30 value="0.0039069019" flag="0"/>
    </comp>
  </station>
  <station code="MA9" name="MA9" netid="IV" insttype="" lat="41.7702" lon="12.6593">
    <comp name="--.HHN">
      <acc value="0.0120732834" flag="0"/>
      <vel value="0.0124837882" flag="0"/>
      <psa03 value="0.0232035838" flag="0"/>
      <psa10 value="0.0138605826" flag="0"/>
      <psa30 value="0.0023822862" flag="0"/>
    </comp>
