<?xml version="1.0" encoding="UTF-8" standalone="yes"?>
<!DOCTYPE earthquake SYSTEM "stationlist.dtd">
<stationlist created="" xmlns="ch.ethz.sed.shakemap.usgs.xml">
  <station code="ACER" name="ACER" netid="IV" insttype="" lat="40.7867" lon="15.9427">
    <comp name="--.HHE">
      <acc value="0.0337191382" flag="0"/>
      <vel value="0.0279991370" flag="0"/>
      <psa03 value="0.1294305772" flag="0"/>
      <psa10 value="0.0341548410" flag="0"/>
      <psa30 value="0.0034128993" flag="0"/>
    </comp>
    <comp name="--.HHN">
      <acc value="0.0314584342" flag="0"/>
      <vel value="0.0279332033" flag="0"/>
      <psa03 value="0.0840864065" flag="0"/>
      <psa10 value="0.0399643068" flag="0"/>
      <psa30 value="0.0039495213" flag="0"/>
    </comp>
    <comp name="--.HHZ">
      <acc value="0.0213102095" flag="0"/>
      <vel value="0.0117831015" flag="0"/>
      <psa03 value="0.0773779469" flag="0"/>
      <psa10 value="0.0102202667" flag="0"/>
      <psa30 value="0.0044511473" flag="0"/>
    </comp>
  </station>
  <station code="APRC" name="APRC" netid="IV" insttype="" lat="41.7574" lon="15.5431">
    <comp name="--.HHZ">
      <acc value="0.1296199508" flag="0"/>
      <vel value="0.0361117952" flag="0"/>
      <psa03 value="0.1983783431" flag="0"/>
      <psa10 value="0.0181178364" flag="0"/>
      <psa30 value="0.0013686480" flag="0"/>
    </comp>
    <comp name="--.HHN">
      <acc value="0.2634963880" flag="0"/>
      <vel value="0.0835346131" flag="0"/>
      <psa03 value="0.4829499045" flag="0"/>
      <psa10 value="0.0416902203" flag="0"/>
      <psa30 value="0.0027634258" flag="0"/>
    </comp>
    <comp name="--.HHE">
      <acc value="0.1712035695" flag="0"/>
      <vel value="0.0703836242" flag="0"/>
      <psa03 value="0.4842592825" flag="0"/>
      <psa10 value="0.0295235583" flag="0"/>
      <psa30 value="0.0032679284" flag="0"/>
    </comp>
  </station>
  <station code="CAAM" name="CAAM" netid="IV" insttype="" lat="40.8201" lon="14.142">
    <comp name="--.HHE">
      <acc value="0.0211084602" flag="0"/>
      <vel value="0.0274812335" flag="0"/>
      <psa03 value="0.0710327303" flag="0"/>
      <psa10 value="0.0472031546" flag="0"/>
      <psa30 value="0.0097951556" flag="0"/>
    </comp>
    <comp name="--.HHN">
      <acc value="0.0233196516" flag="0"/>
      <vel value="0.0339301382" flag="0"/>
      <psa03 value="0.0741988036" flag="0"/>
      <psa10 value="0.0373073982" flag="0"/>
      <psa30 value="0.0107754167" flag="0"/>
    </comp>
    <comp name="--.HHZ">
      <acc value="0.0217688647" flag="0"/>
      <vel value="0.0241472832" flag="0"/>
      <psa03 value="0.0738926347" flag="0"/>
      <psa10 value="0.0376380820" flag="0"/>
      <psa30 value="0.0064161850" flag="0"/>
    </comp>
  </station>
  <station code="CAFE" name="CAFE" netid="IV" insttype="" lat="41.028" lon="15.2366">
    <comp name="--.HHE">
      <acc value="0.0718120227" flag="0"/>
      <vel value="0.0499862604" flag="0"/>
      <psa03 value="0.2290083496" flag="0"/>
      <psa10 value="0.0464467012" flag="0"/>
      <psa30 value="0.0075049368" flag="0"/>
    </comp>
    <comp name="--.HHN">
      <acc value="0.0518709885" flag="0"/>
      <vel value="0.0449198682" flag="0"/>
      <psa03 value="0.1422591041" flag="0"/>
      <psa10 value="0.0392664614" flag="0"/>
      <psa30 value="0.0105333592" flag="0"/>
    </comp>
    <comp name="--.HHZ">
      <acc value="0.0269863453" flag="0"/>
      <vel value="0.0161628481" flag="0"/>
      <psa03 value="0.1027219760" flag="0"/>
      <psa10 value="0.0195122450" flag="0"/>
      <psa30 value="0.0070276601" flag="0"/>
    </comp>
  </station>
  <station code="CAMP" name="CAMP" netid="IV" insttype="" lat="42.5358" lon="13.409">
    <comp name="--.HHE">
      <acc value="0.0085772830" flag="0"/>
      <vel value="0.0111516777" flag="0"/>
      <psa03 value="0.0220616469" flag="0"/>
      <psa10 value="0.0176653736" flag="0"/>
      <psa30 value="0.0021907616" flag="0"/>
    </comp>
    <comp name="--.HHN">
      <acc value="0.0123471464" flag="0"/>
      <vel value="0.0098919265" flag="0"/>
      <psa03 value="0.0343049032" flag="0"/>
      <psa10 value="0.0158516946" flag="0"/>
      <psa30 value="0.0021695431" flag="0"/>
    </comp>
    <comp name="--.HHZ">
      <acc value="0.0081421550" flag="0"/>
      <vel value="0.0085897360" flag="0"/>
      <psa03 value="0.0219552912" flag="0"/>
      <psa10 value="0.0139916621" flag="0"/>
      <psa30 value="0.0018647724" flag="0"/>
    </comp>
  </station>
  <station code="CBAC" name="CBAC" netid="IV" insttype="" lat="40.8109" lon="14.0806">
    <comp name="--.HHE">
      <acc value="0.0440419116" flag="0"/>
      <vel value="0.0394004172" flag="0"/>
      <psa03 value="0.1473831346" flag="0"/>
      <psa10 value="0.0574699603" flag="0"/>
      <psa30 value="0.0130156456" flag="0"/>
    </comp>
    <comp name="--.HHN">
      <acc value="0.0481436291" flag="0"/>
      <vel value="0.0413320643" flag="0"/>
      <psa03 value="0.1101260072" flag="0"/>
      <psa10 value="0.1056498993" flag="0"/>
      <psa30 value="0.0150366670" flag="0"/>
    </comp>
    <comp name="--.HHZ">
      <acc value="0.0616046344" flag="0"/>
      <vel value="0.0257284944" flag="0"/>
      <psa03 value="0.1329251088" flag="0"/>
      <psa10 value="0.0244693971" flag="0"/>
      <psa30 value="0.0042508725" flag="0"/>
    </comp>
  </station>
  <station code="CDRU" name="CDRU" netid="IV" insttype="" lat="40.4896" lon="15.3046">
    <comp name="--.HHE">
      <acc value="0.0195943057" flag="0"/>
      <vel value="0.0118011394" flag="0"/>
      <psa03 value="0.0621720148" flag="0"/>
      <psa10 value="0.0157957773" flag="0"/>
      <psa30 value="0.0017013520" flag="0"/>
    </comp>
    <comp name="--.HHN">
      <acc value="0.0134417102" flag="0"/>
      <vel value="0.0077952975" flag="0"/>
      <psa03 value="0.0468994278" flag="0"/>
      <psa10 value="0.0110419974" flag="0"/>
      <psa30 value="0.0021172615" flag="0"/>
    </comp>
    <comp name="--.HHZ">
      <acc value="0.0088342714" flag="0"/>
      <vel value="0.0059600018" flag="0"/>
      <psa03 value="0.0330213682" flag="0"/>
      <psa10 value="0.0070752685" flag="0"/>
      <psa30 value="0.0007527570" flag="0"/>
    </comp>
  </station>
  <station code="CERA" name="CERA" netid="IV" insttype="" lat="41.5978" lon="14.0183">
    <comp name="--.HHE">
      <acc value="0.1775564160" flag="0"/>
      <vel value="0.1569374255" flag="0"/>
      <psa03 value="0.4957098235" flag="0"/>
      <psa10 value="0.2351332713" flag="0"/>
      <psa30 value="0.0135494869" flag="0"/>
    </comp>
    <comp name="--.HHN">
      <acc value="0.3939619526" flag="0"/>
      <vel value="0.3909619562" flag="0"/>
      <psa03 value="0.5120234629" flag="0"/>
      <psa10 value="0.6273522817" flag="0"/>
      <psa30 value="0.0303885067" flag="0"/>
    </comp>
    <comp name="--.HHZ">
      <acc value="0.0930919775" flag="0"/>
      <vel value="0.0935000663" flag="0"/>
      <psa03 value="0.2227753367" flag="0"/>
      <psa10 value="0.2033594718" flag="0"/>
      <psa30 value="0.0078720400" flag="0"/>
    </comp>
  </station>
  <station code="CERT" name="CERT" netid="IV" insttype="" lat="41.949" lon="12.9818">
    <comp name="--.HHE">
      <acc value="0.2732263715" flag="0"/>
      <vel value="0.0344329551" flag="0"/>
      <psa03 value="0.0796298016" flag="0"/>
      <psa10 value="0.0130160157" flag="0"/>
      <psa30 value="0.0016769940" flag="0"/>
    </comp>
    <comp name="--.HHN">
      <acc value="0.0187378089" flag="0"/>
      <vel value="0.0144298639" flag="0"/>
      <psa03 value="0.0577133235" flag="0"/>
      <psa10 value="0.0219976009" flag="0"/>
      <psa30 value="0.0021876409" flag="0"/>
    </comp>
    <comp name="--.HHZ">
      <acc value="0.2033604522" flag="0"/>
      <vel value="0.0234202792" flag="0"/>
      <psa03 value="0.0634026843" flag="0"/>
      <psa10 value="0.0163575404" flag="0"/>
      <psa30 value="0.0018261140" flag="0"/>
    </comp>
  </station>
  <station code="CFMN" name="CFMN" netid="IV" insttype="" lat="40.8329" lon="14.0904">
    <comp name="--.HHE">
      <acc value="0.0542659988" flag="0"/>
      <vel value="0.0342608940" flag="0"/>
      <psa03 value="0.1536433958" flag="0"/>
      <psa10 value="0.0398147118" flag="0"/>
      <psa30 value="0.0067346807" flag="0"/>
    </comp>
    <comp name="--.HHN">
      <acc value="0.0570060853" flag="0"/>
      <vel value="0.0278340237" flag="0"/>
      <psa03 value="0.1381389133" flag="0"/>
      <psa10 value="0.0449878959" flag="0"/>
      <psa30 value="0.0078902509" flag="0"/>
    </comp>
    <comp name="--.HHZ">
      <acc value="0.0609382592" flag="0"/>
      <vel value="0.0327594274" flag="0"/>
      <psa03 value="0.1309009577" flag="0"/>
      <psa10 value="0.0367394831" flag="0"/>
      <psa30 value="0.0039543331" flag="0"/>
    </comp>
  </station>
  <station code="CMIS" name="CMIS" netid="IV" insttype="" lat="40.7782" lon="14.089">
    <comp name="--.HHE">
      <acc value="0.0619700052" flag="0"/>
      <vel value="0.0475339749" flag="0"/>
      <psa03 value="0.2057116257" flag="0"/>
      <psa10 value="0.0598724111" flag="0"/>
      <psa30 value="0.0137253395" flag="0"/>
    </comp>
    <comp name="--.HHZ">
      <acc value="0.0267798469" flag="0"/>
      <vel value="0.0190438694" flag="0"/>
      <psa03 value="0.0968787407" flag="0"/>
      <psa10 value="0.0409962283" flag="0"/>
      <psa30 value="0.0035345066" flag="0"/>
    </comp>
    <comp name="--.HHN">
      <acc value="0.0645972138" flag="0"/>
      <vel value="0.0482246203" flag="0"/>
      <psa03 value="0.1533933830" flag="0"/>
      <psa10 value="0.0592882605" flag="0"/>
      <psa30 value="0.0133375883" flag="0"/>
    </comp>
  </station>
  <station code="CMSN" name="CMSN" netid="IV" insttype="" lat="40.8382" lon="14.1818">
    <comp name="--.HHE">
      <acc value="0.0852065545" flag="0"/>
      <vel value="0.0712111989" flag="0"/>
      <psa03 value="0.2976556380" flag="0"/>
      <psa10 value="0.0955439552" flag="0"/>
      <psa30 value="0.0146646430" flag="0"/>
    </comp>
    <comp name="--.HHN">
      <acc value="0.0848577263" flag="0"/>
      <vel value="0.0897100817" flag="0"/>
      <psa03 value="0.2394787204" flag="0"/>
      <psa10 value="0.0876788731" flag="0"/>
      <psa30 value="0.0089102124" flag="0"/>
    </comp>
    <comp name="--.HHZ">
      <acc value="0.0704177802" flag="0"/>
      <vel value="0.0532680104" flag="0"/>
      <psa03 value="0.1860689555" flag="0"/>
      <psa10 value="0.0591302478" flag="0"/>
      <psa30 value="0.0071949663" flag="0"/>
    </comp>
  </station>
  <station code="CNIS" name="CNIS" netid="IV" insttype="" lat="40.7982" lon="14.1632">
    <comp name="--.HHE">
      <acc value="0.0190957457" flag="0"/>
      <vel value="0.0298502455" flag="0"/>
      <psa03 value="0.0835363396" flag="0"/>
      <psa10 value="0.0495634227" flag="0"/>
      <psa30 value="0.0149316575" flag="0"/>
    </comp>
    <comp name="--.HHN">
      <acc value="0.0142188102" flag="0"/>
      <vel value="0.0202282888" flag="0"/>
      <psa03 value="0.0616846413" flag="0"/>
      <psa10 value="0.0301075219" flag="0"/>
      <psa30 value="0.0090174047" flag="0"/>
    </comp>
    <comp name="--.HHZ">
      <acc value="0.0185511548" flag="0"/>
      <vel value="0.0258781273" flag="0"/>
      <psa03 value="0.0484342108" flag="0"/>
      <psa10 value="0.0515523838" flag="0"/>
      <psa30 value="0.0035501682" flag="0"/>
    </comp>
  </station>
  <station code="COLB" name="COLB" netid="IV" insttype="" lat="40.819" lon="14.1446">
    <comp name="--.HHE">
      <acc value="24165.0229859409" flag="0"/>
      <vel value="22179.3331343847" flag="0"/>
      <psa03 value="42794.4812867774" flag="0"/>
      <psa10 value="30675.9088076592" flag="0"/>
      <psa30 value="9511.1976604206" flag="0"/>
    </comp>
    <comp name="--.HHN">
      <acc value="19313.9726781273" flag="0"/>
      <vel value="28166.9153195648" flag="0"/>
      <psa03 value="53082.8166803236" flag="0"/>
      <psa10 value="31456.5078885361" flag="0"/>
      <psa30 value="7439.9865851068" flag="0"/>
    </comp>
    <comp name="--.HHZ">
      <acc value="20686.6947090143" flag="0"/>
      <vel value="20127.2123955635" flag="0"/>
      <psa03 value="86489.7561109994" flag="0"/>
      <psa10 value="33573.4224150968" flag="0"/>
      <psa30 value="5418.9826810742" flag="0"/>
    </comp>
  </station>
  <station code="CRTO" name="CRTO" netid="IV" insttype="" lat="40.8212" lon="14.4223">
    <comp name="--.HHE">
      <acc value="0.1970406648" flag="0"/>
      <vel value="0.1876444763" flag="0"/>
      <psa03 value="0.7188193813" flag="0"/>
      <psa10 value="0.2705558964" flag="0"/>
      <psa30 value="0.0191599514" flag="0"/>
    </comp>
    <comp name="--.HHN">
      <acc value="0.1504273001" flag="0"/>
      <vel value="0.1135420928" flag="0"/>
      <psa03 value="0.4541817532" flag="0"/>
      <psa10 value="0.2012196747" flag="0"/>
      <psa30 value="0.0096861715" flag="0"/>
    </comp>
    <comp name="--.HHZ">
      <acc value="0.0650812393" flag="0"/>
      <vel value="0.0423724721" flag="0"/>
      <psa03 value="0.2215946166" flag="0"/>
      <psa10 value="0.0805733333" flag="0"/>
      <psa30 value="0.0055510499" flag="0"/>
    </comp>
  </station>
  <station code="CSFT" name="CSFT" netid="IV" insttype="" lat="40.8292" lon="14.1396">
    <comp name="--.HHE">
      <acc value="0.2348979399" flag="0"/>
      <vel value="0.0730744698" flag="0"/>
      <psa03 value="0.6709558963" flag="0"/>
      <psa10 value="0.0350739077" flag="0"/>
      <psa30 value="0.0064744108" flag="0"/>
    </comp>
    <comp name="--.HHN">
      <acc value="0.2625726445" flag="0"/>
      <vel value="0.0772198153" flag="0"/>
      <psa03 value="0.6580789646" flag="0"/>
      <psa10 value="0.0476829156" flag="0"/>
      <psa30 value="0.0090557699" flag="0"/>
    </comp>
    <comp name="--.HHZ">
      <acc value="0.1815435752" flag="0"/>
      <vel value="0.0450014710" flag="0"/>
      <psa03 value="0.1257130600" flag="0"/>
      <psa10 value="0.0226341176" flag="0"/>
      <psa30 value="0.0053948758" flag="0"/>
    </comp>
  </station>
  <station code="CSOB" name="CSOB" netid="IV" insttype="" lat="40.8265" lon="14.144">
    <comp name="--.HHZ">
      <acc value="0.0589716285" flag="0"/>
      <vel value="0.0353897926" flag="0"/>
      <psa03 value="0.2376479598" flag="0"/>
      <psa10 value="0.0388839811" flag="0"/>
      <psa30 value="0.0060561499" flag="0"/>
    </comp>
    <comp name="--.HHE">
      <acc value="0.0646667781" flag="0"/>
      <vel value="0.0422924506" flag="0"/>
      <psa03 value="0.2105325657" flag="0"/>
      <psa10 value="0.0430203916" flag="0"/>
      <psa30 value="0.0073993327" flag="0"/>
    </comp>
    <comp name="--.HHN">
      <acc value="0.0701535997" flag="0"/>
      <vel value="0.0412741331" flag="0"/>
      <psa03 value="0.1469641733" flag="0"/>
      <psa10 value="0.0567285187" flag="0"/>
      <psa30 value="0.0103593811" flag="0"/>
    </comp>
  </station>
  <station code="CSTH" name="CSTH" netid="IV" insttype="" lat="40.8294" lon="14.1493">
    <comp name="--.HHE">
      <acc value="0.0763566297" flag="0"/>
      <vel value="0.0422583456" flag="0"/>
      <psa03 value="0.1861573594" flag="0"/>
      <psa10 value="0.0495465266" flag="0"/>
      <psa30 value="0.0062335422" flag="0"/>
    </comp>
    <comp name="--.HHN">
      <acc value="0.0475368669" flag="0"/>
      <vel value="0.0315935419" flag="0"/>
      <psa03 value="0.1369598717" flag="0"/>
      <psa10 value="0.0598966968" flag="0"/>
      <psa30 value="0.0088648590" flag="0"/>
    </comp>
    <comp name="--.HHZ">
      <acc value="0.0327036857" flag="0"/>
      <vel value="0.0246235546" flag="0"/>
      <psa03 value="0.0941244934" flag="0"/>
      <psa10 value="0.0360779194" flag="0"/>
      <psa30 value="0.0054127593" flag="0"/>
    </comp>
  </station>
  <station code="FAGN" name="FAGN" netid="IV" insttype="" lat="42.2657" lon="13.5838">
    <comp name="--.HHE">
      <acc value="0.0872875313" flag="0"/>
      <vel value="0.0655845053" flag="0"/>
      <psa03 value="0.2271043198" flag="0"/>
      <psa10 value="0.0692053492" flag="0"/>
      <psa30 value="0.0040932930" flag="0"/>
    </comp>
    <comp name="--.HHN">
      <acc value="0.0958893326" flag="0"/>
      <vel value="0.0795562483" flag="0"/>
      <psa03 value="0.2873271363" flag="0"/>
      <psa10 value="0.0746152532" flag="0"/>
      <psa30 value="0.0053417708" flag="0"/>
    </comp>
    <comp name="--.HHZ">
      <acc value="0.0719711888" flag="0"/>
      <vel value="0.0486420513" flag="0"/>
      <psa03 value="0.3020276220" flag="0"/>
      <psa10 value="0.0384882093" flag="0"/>
      <psa30 value="0.0034029671" flag="0"/>
    </comp>
  </station>
  <station code="GATE" name="GATE" netid="IV" insttype="" lat="41.5131" lon="14.9102">
    <comp name="--.HHN">
      <acc value="0.2690269748" flag="0"/>
      <vel value="0.2139182645" flag="0"/>
      <psa03 value="0.6124285420" flag="0"/>
      <psa10 value="0.2516864379" flag="0"/>
      <psa30 value="0.0342026259" flag="0"/>
    </comp>
    <comp name="--.HHZ">
      <acc value="0.2158334635" flag="0"/>
      <vel value="0.1443534974" flag="0"/>
      <psa03 value="0.7654667660" flag="0"/>
      <psa10 value="0.2363280700" flag="0"/>
      <psa30 value="0.0307481534" flag="0"/>
    </comp>
    <comp name="--.HHE">
      <acc value="0.2125648085" flag="0"/>
      <vel value="0.1750066268" flag="0"/>
      <psa03 value="0.8459284523" flag="0"/>
      <psa10 value="0.3321799587" flag="0"/>
      <psa30 value="0.0326935520" flag="0"/>
    </comp>
  </station>
  <station code="GIGS" name="GIGS" netid="IV" insttype="" lat="42.4532" lon="13.5728">
    <comp name="--.HHE">
      <acc value="0.0081969589" flag="0"/>
      <vel value="0.0072463287" flag="0"/>
      <psa03 value="0.0185759601" flag="0"/>
      <psa10 value="0.0091573546" flag="0"/>
      <psa30 value="0.0013524490" flag="0"/>
    </comp>
    <comp name="--.HHZ">
      <acc value="0.0095926058" flag="0"/>
      <vel value="0.0067391161" flag="0"/>
      <psa03 value="0.0226660410" flag="0"/>
      <psa10 value="0.0059177099" flag="0"/>
      <psa30 value="0.0015086906" flag="0"/>
    </comp>
    <comp name="--.HHN">
      <acc value="0.0104066614" flag="0"/>
      <vel value="0.0079064906" flag="0"/>
      <psa03 value="0.0219148407" flag="0"/>
      <psa10 value="0.0171215532" flag="0"/>
      <psa30 value="0.0010730496" flag="0"/>
    </comp>
  </station>
  <station code="GIUL" name="GIUL" netid="IV" insttype="" lat="41.5583" lon="13.2546">
    <comp name="--.HHE">
      <acc value="0.0233809171" flag="0"/>
      <vel value="0.0209831782" flag="0"/>
      <psa03 value="0.0544278867" flag="0"/>
      <psa10 value="0.0307115628" flag="0"/>
      <psa30 value="0.0030737201" flag="0"/>
    </comp>
    <comp name="--.HHN">
      <acc value="0.0274448285" flag="0"/>
      <vel value="0.0293402360" flag="0"/>
      <psa03 value="0.0851549748" flag="0"/>
      <psa10 value="0.0421482594" flag="0"/>
      <psa30 value="0.0103734095" flag="0"/>
    </comp>
    <comp name="--.HHZ">
      <acc value="0.0193400675" flag="0"/>
      <vel value="0.0146535257" flag="0"/>
      <psa03 value="0.0378942436" flag="0"/>
      <psa10 value="0.0255895238" flag="0"/>
      <psa30 value="0.0019160599" flag="0"/>
    </comp>
  </station>
  <station code="GUAR" name="GUAR" netid="IV" insttype="" lat="41.7945" lon="13.3123">
    <comp name="--.HHE">
      <acc value="0.0526687144" flag="0"/>
      <vel value="0.0342030560" flag="0"/>
      <psa03 value="0.1542019157" flag="0"/>
      <psa10 value="0.0584149279" flag="0"/>
      <psa30 value="0.0051064993" flag="0"/>
    </comp>
    <comp name="--.HHN">
      <acc value="0.0785281689" flag="0"/>
      <vel value="0.0510226358" flag="0"/>
      <psa03 value="0.2432421976" flag="0"/>
      <psa10 value="0.0390492449" flag="0"/>
