<?xml version="1.0" encoding="UTF-8" standalone="yes"?>
<!DOCTYPE earthquake SYSTEM "stationlist.dtd">
<stationlist created="" xmlns="ch.ethz.sed.shakemap.usgs.xml">
  <station code="IMMV" name="IMMV" netid="GE" insttype="STS-2/N" lat="35.4606" lon="23.9811">
    <comp name="--.HHE">
      <acc value="0.0570461166" flag="0"/>
      <vel value="0.0976450001" flag="0"/>
      <psa03 value="0.1835155529" flag="0"/>
      <psa10 value="0.1177686718" flag="0"/>
      <psa30 value="0.0183051102" flag="0"/>
    </comp>
    <comp name="--.HHN">
      <acc value="0.0724053785" flag="0"/>
      <vel value="0.0994543015" flag="0"/>
      <psa03 value="0.3080438374" flag="0"/>
      <psa10 value="0.1701477481" flag="0"/>
      <psa30 value="0.0288713960" flag="0"/>
    </comp>
    <comp name="--.HHZ">
      <acc value="0.0501090260" flag="0"/>
      <vel value="0.0542125162" flag="0"/>
      <psa03 value="0.1100340539" flag="0"/>
      <psa10 value="0.0950309188" flag="0"/>
      <psa30 value="0.0154986545" flag="0"/>
    </comp>
  </station>
  <station code="KTHA" name="KTHA" netid="GE" insttype="STS-2/N" lat="36.2566" lon="23.0621">
    <comp name="--.HHN">
      <acc value="0.0535460332" flag="0"/>
      <vel value="0.0755958179" flag="0"/>
      <psa03 value="0.1367631045" flag="0"/>
      <psa10 value="0.1008531901" flag="0"/>
      <psa30 value="0.0369182261" flag="0"/>
    </comp>
    <comp name="--.HHZ">
      <acc value="0.0376428853" flag="0"/>
      <vel value="0.0858353691" flag="0"/>
      <psa03 value="0.0962476248" flag="0"/>
      <psa10 value="0.0716257930" flag="0"/>
      <psa30 value="0.0248942472" flag="0"/>
    </comp>
    <comp name="--.HHE">
      <acc value="0.0850037546" flag="0"/>
      <vel value="0.1042120030" flag="0"/>
      <psa03 value="0.1868326159" flag="0"/>
      <psa10 value="0.2127500815" flag="0"/>
      <psa30 value="0.0608592730" flag="0"/>
    </comp>
  </station>
  <station code="ABEA" name="ABEA" netid="HC" insttype="DC" lat="35.5163" lon="24.0113">
    <comp name="--.HNE">
      <acc value="0.1183947312" flag="0"/>
      <vel value="0.1402290563" flag="0"/>
      <psa03 value="0.2383679954" flag="0"/>
      <psa10 value="0.2431306297" flag="0"/>
      <psa30 value="0.0459510055" flag="0"/>
    </comp>
    <comp name="--.HNZ">
      <acc value="0.0604252262" flag="0"/>
      <vel value="0.0606306127" flag="0"/>
      <psa03 value="0.1041034494" flag="0"/>
      <psa10 value="0.1834293611" flag="0"/>
      <psa30 value="0.0184216989" flag="0"/>
    </comp>
    <comp name="--.HNN">
      <acc value="0.0904617311" flag="0"/>
      <vel value="0.1717610520" flag="0"/>
      <psa03 value="0.1943090004" flag="0"/>
      <psa10 value="0.2567507916" flag="0"/>
      <psa30 value="0.0451778367" flag="0"/>
    </comp>
  </station>
  <station code="ATEI" name="ATEI" netid="HC" insttype="DC" lat="35.5193" lon="24.0432">
    <comp name="--.HNE">
      <acc value="0.0650559665" flag="0"/>
      <vel value="0.1064527636" flag="0"/>
      <psa03 value="0.2001896395" flag="0"/>
      <psa10 value="0.1378253613" flag="0"/>
      <psa30 value="0.0274796880" flag="0"/>
    </comp>
    <comp name="--.HNN">
      <acc value="0.0652173177" flag="0"/>
      <vel value="0.1094588929" flag="0"/>
      <psa03 value="0.1663098423" flag="0"/>
      <psa10 value="0.1988342682" flag="0"/>
      <psa30 value="0.0282647424" flag="0"/>
    </comp>
    <comp name="--.HNZ">
      <acc value="0.0496291202" flag="0"/>
      <vel value="0.0614196712" flag="0"/>
      <psa03 value="0.1266792336" flag="0"/>
      <psa10 value="0.1169751291" flag="0"/>
      <psa30 value="0.0133964055" flag="0"/>
    </comp>
  </station>
  <station code="CHAN" name="CHAN" netid="HC" insttype="120" lat="35.5193" lon="24.0428">
    <comp name="--.HHN">
      <acc value="0.1275894045" flag="0"/>
      <vel value="0.2064843497" flag="0"/>
      <psa03 value="0.3175605912" flag="0"/>
      <psa10 value="0.3829698200" flag="0"/>
      <psa30 value="0.0530888093" flag="0"/>
    </comp>
    <comp name="--.HHE">
      <acc value="0.1298753731" flag="0"/>
      <vel value="0.1934205428" flag="0"/>
      <psa03 value="0.3507920229" flag="0"/>
      <psa10 value="0.2868103586" flag="0"/>
      <psa30 value="0.0541376539" flag="0"/>
    </comp>
    <comp name="--.HHZ">
      <acc value="0.0935475495" flag="0"/>
      <vel value="0.1171102120" flag="0"/>
      <psa03 value="0.2403565605" flag="0"/>
      <psa10 value="0.2217863149" flag="0"/>
      <psa30 value="0.0250921916" flag="0"/>
    </comp>
  </station>
  <station code="DEYA" name="DEYA" netid="HC" insttype="DC" lat="35.4825" lon="24.014">
    <comp name="--.HNE">
      <acc value="0.0191150325" flag="0"/>
      <vel value="0.0301063046" flag="0"/>
      <psa03 value="0.0275895312" flag="0"/>
      <psa10 value="0.0532952159" flag="0"/>
      <psa30 value="0.0043545642" flag="0"/>
    </comp>
    <comp name="--.HNN">
      <acc value="0.0128987703" flag="0"/>
      <vel value="0.0175599290" flag="0"/>
      <psa03 value="0.0422192057" flag="0"/>
      <psa10 value="0.0369019464" flag="0"/>
      <psa30 value="0.0042064082" flag="0"/>
    </comp>
    <comp name="--.HNZ">
      <acc value="0.0081087000" flag="0"/>
      <vel value="0.0100337827" flag="0"/>
      <psa03 value="0.0135036827" flag="0"/>
      <psa10 value="0.0245901681" flag="0"/>
      <psa30 value="0.0016883937" flag="0"/>
    </comp>
  </station>
  <station code="KTHR" name="KTHR" netid="HC" insttype="120s" lat="36.2447" lon="22.9939">
    <comp name="--.HHE">
      <acc value="0.2117443888" flag="0"/>
      <vel value="0.1753065479" flag="0"/>
      <psa03 value="0.6705946044" flag="0"/>
      <psa10 value="0.1855415603" flag="0"/>
      <psa30 value="0.0430540284" flag="0"/>
    </comp>
    <comp name="--.HHN">
      <acc value="0.2714397140" flag="0"/>
      <vel value="0.1450105309" flag="0"/>
      <psa03 value="0.9166370977" flag="0"/>
      <psa10 value="0.1672884686" flag="0"/>
      <psa30 value="0.0303799899" flag="0"/>
    </comp>
    <comp name="--.HHZ">
      <acc value="0.1033533612" flag="0"/>
      <vel value="0.0662724101" flag="0"/>
      <psa03 value="0.3868503265" flag="0"/>
      <psa10 value="0.0816526970" flag="0"/>
      <psa30 value="0.0212986848" flag="0"/>
    </comp>
  </station>
  <station code="KTRS" name="KTRS" netid="HC" insttype="60" lat="36.9261" lon="22.136">
    <comp name="--.HHZ">
      <acc value="0.0106945675" flag="0"/>
      <vel value="0.0195351917" flag="0"/>
      <psa03 value="0.0351878247" flag="0"/>
      <psa10 value="0.0218589288" flag="0"/>
      <psa30 value="0.0112416297" flag="0"/>
    </comp>
    <comp name="--.HHE">
      <acc value="0.0249511819" flag="0"/>
      <vel value="0.0367681658" flag="0"/>
      <psa03 value="0.0627789644" flag="0"/>
      <psa10 value="0.0340127184" flag="0"/>
      <psa30 value="0.0117065211" flag="0"/>
    </comp>
    <comp name="--.HHN">
      <acc value="0.0198407710" flag="0"/>
      <vel value="0.0297448791" flag="0"/>
      <psa03 value="0.0332875491" flag="0"/>
      <psa10 value="0.0380082270" flag="0"/>
      <psa30 value="0.0101603186" flag="0"/>
    </comp>
  </station>
  <station code="POLY" name="POLY" netid="HC" insttype="DC" lat="35.5226" lon="24.0602">
    <comp name="--.HNN">
      <acc value="0.0756312198" flag="0"/>
      <vel value="0.0891649546" flag="0"/>
      <psa03 value="0.1501617380" flag="0"/>
      <psa10 value="0.1396833504" flag="0"/>
      <psa30 value="0.0416549294" flag="0"/>
    </comp>
    <comp name="--.HNE">
      <acc value="0.0833085084" flag="0"/>
      <vel value="0.1112231843" flag="0"/>
      <psa03 value="0.1418864457" flag="0"/>
      <psa10 value="0.1828623588" flag="0"/>
      <psa30 value="0.0306041746" flag="0"/>
    </comp>
    <comp name="--.HNZ">
      <acc value="0.0460173798" flag="0"/>
      <vel value="0.0598493929" flag="0"/>
      <psa03 value="0.1635621502" flag="0"/>
      <psa10 value="0.1012845604" flag="0"/>
      <psa30 value="0.0129672918" flag="0"/>
    </comp>
  </station>
  <station code="RODP" name="RODP" netid="HC" insttype="120" lat="35.5604" lon="23.7577">
    <comp name="--.HHN">
      <acc value="0.0738732567" flag="0"/>
      <vel value="0.0870693443" flag="0"/>
      <psa03 value="0.1875112354" flag="0"/>
      <psa10 value="0.2116918541" flag="0"/>
      <psa30 value="0.0290621577" flag="0"/>
    </comp>
    <comp name="--.HHZ">
      <acc value="0.0417666146" flag="0"/>
      <vel value="0.0502628291" flag="0"/>
      <psa03 value="0.1060266423" flag="0"/>
      <psa10 value="0.0875002704" flag="0"/>
      <psa30 value="0.0119167964" flag="0"/>
    </comp>
    <comp name="--.HHE">
      <acc value="0.1032375529" flag="0"/>
      <vel value="0.1012556873" flag="0"/>
      <psa03 value="0.2804967644" flag="0"/>
      <psa10 value="0.1999096984" flag="0"/>
      <psa30 value="0.0351058875" flag="0"/>
    </comp>
  </station>
  <station code="CH01" name="CH01" netid="HI" insttype="CMG-5TD,ACCELEROMETER,GURALP" lat="35.517" lon="24.0208">
    <comp name="--.HNN">
      <acc value="0.0684149935" flag="0"/>
      <vel value="0.1145461354" flag="0"/>
      <psa03 value="0.1524812790" flag="0"/>
      <psa10 value="0.2059947421" flag="0"/>
      <psa30 value="0.0404963744" flag="0"/>
    </comp>
    <comp name="--.HNE">
      <acc value="0.0753143904" flag="0"/>
      <vel value="0.1190085559" flag="0"/>
      <psa03 value="0.1452285611" flag="0"/>
      <psa10 value="0.2526466549" flag="0"/>
      <psa30 value="0.0350470373" flag="0"/>
    </comp>
    <comp name="--.HNZ">
      <acc value="0.0479725405" flag="0"/>
      <vel value="0.0766918182" flag="0"/>
      <psa03 value="0.1010605646" flag="0"/>
      <psa10 value="0.1807564177" flag="0"/>
      <psa30 value="0.0162410640" flag="0"/>
    </comp>
  </station>
  <station code="NPS1" name="NPS1" netid="HI" insttype="CMG-5TD,ACCELEROMETER,GURALP" lat="36.5126" lon="23.0625">
    <comp name="--.HNN">
      <acc value="0.0918580551" flag="0"/>
      <vel value="0.0963443607" flag="0"/>
      <psa03 value="0.2559155014" flag="0"/>
      <psa10 value="0.1577412112" flag="0"/>
      <psa30 value="0.0131409655" flag="0"/>
    </comp>
    <comp name="--.HNE">
      <acc value="0.1274335413" flag="0"/>
      <vel value="0.1262338801" flag="0"/>
      <psa03 value="0.3068644309" flag="0"/>
      <psa10 value="0.1822379814" flag="0"/>
      <psa30 value="0.0183506515" flag="0"/>
    </comp>
    <comp name="--.HNZ">
      <acc value="0.0525414874" flag="0"/>
      <vel value="0.0503976535" flag="0"/>
      <psa03 value="0.1570801329" flag="0"/>
      <psa10 value="0.0509383724" flag="0"/>
      <psa30 value="0.0115753792" flag="0"/>
    </comp>
  </station>
  <station code="ANKY" name="ANKY" netid="HL" insttype="60" lat="35.867" lon="23.3012">
    <comp name="--.HHE">
      <acc value="0.2175529459" flag="0"/>
      <vel value="0.3184180479" flag="0"/>
      <psa03 value="0.3936778073" flag="0"/>
      <psa10 value="0.7508619165" flag="0"/>
      <psa30 value="0.0381261343" flag="0"/>
    </comp>
    <comp name="--.HHZ">
      <acc value="0.0697095528" flag="0"/>
      <vel value="0.0841897339" flag="0"/>
      <psa03 value="0.1878717548" flag="0"/>
      <psa10 value="0.1333198926" flag="0"/>
      <psa30 value="0.0134508990" flag="0"/>
    </comp>
    <comp name="--.HHN">
      <acc value="0.1275588379" flag="0"/>
      <vel value="0.1724583109" flag="0"/>
      <psa03 value="0.2544082292" flag="0"/>
      <psa10 value="0.4124484520" flag="0"/>
      <psa30 value="0.0315240322" flag="0"/>
    </comp>
  </station>
  <station code="IMMV" name="IMMV" netid="HL" insttype="120" lat="35.4606" lon="23.9811">
    <comp name="--.HHN">
      <acc value="0.0713508247" flag="0"/>
      <vel value="0.0989107779" flag="0"/>
      <psa03 value="0.2998521824" flag="0"/>
      <psa10 value="0.1692101491" flag="0"/>
      <psa30 value="0.0288793746" flag="0"/>
    </comp>
    <comp name="--.HHE">
      <acc value="0.0563000017" flag="0"/>
      <vel value="0.0970585579" flag="0"/>
      <psa03 value="0.1786659072" flag="0"/>
      <psa10 value="0.1171274948" flag="0"/>
      <psa30 value="0.0182823461" flag="0"/>
    </comp>
    <comp name="--.HHZ">
      <acc value="0.0490412301" flag="0"/>
      <vel value="0.0537670640" flag="0"/>
      <psa03 value="0.1072554319" flag="0"/>
      <psa10 value="0.0945268901" flag="0"/>
      <psa30 value="0.0154975916" flag="0"/>
    </comp>
  </station>
  <station code="KTHA" name="KTHA" netid="HL" insttype="120" lat="36.2566" lon="23.0621">
    <comp name="--.HHN">
      <acc value="0.0528471808" flag="0"/>
      <vel value="0.0754205611" flag="0"/>
      <psa03 value="0.1326651929" flag="0"/>
      <psa10 value="0.1001845253" flag="0"/>
      <psa30 value="0.0368692619" flag="0"/>
    </comp>
    <comp name="--.HHE">
      <acc value="0.0830826688" flag="0"/>
      <vel value="0.1037368118" flag="0"/>
      <psa03 value="0.1830243663" flag="0"/>
      <psa10 value="0.2116781072" flag="0"/>
      <psa30 value="0.0607847770" flag="0"/>
    </comp>
    <comp name="--.HHZ">
      <acc value="0.0366525563" flag="0"/>
      <vel value="0.0852937899" flag="0"/>
      <psa03 value="0.0943357549" flag="0"/>
      <psa10 value="0.0712863483" flag="0"/>
      <psa30 value="0.0248497599" flag="0"/>
    </comp>
  </station>
  <station code="VLI" name="VLI" netid="HL" insttype="60" lat="36.718" lon="22.9469">
    <comp name="--.HHE">
      <acc value="0.0663517711" flag="0"/>
      <vel value="0.1178648731" flag="0"/>
      <psa03 value="0.1223051355" flag="0"/>
      <psa10 value="0.1461429884" flag="0"/>
      <psa30 value="0.0300101098" flag="0"/>
    </comp>
    <comp name="--.HHN">
      <acc value="0.0468801717" flag="0"/>
      <vel value="0.0692227598" flag="0"/>
      <psa03 value="0.1125256826" flag="0"/>
      <psa10 value="0.0890130489" flag="0"/>
      <psa30 value="0.0170796090" flag="0"/>
    </comp>
    <comp name="--.HHZ">
      <acc value="0.0362286761" flag="0"/>
      <vel value="0.0613758648" flag="0"/>
      <psa03 value="0.0822493616" flag="0"/>
      <psa10 value="0.0645049998" flag="0"/>
      <psa30 value="0.0242655341" flag="0"/>
    </comp>
  </station>
  <station code="PYL" name="PYL" netid="HP" insttype="120s" lat="36.8955" lon="21.742">
    <comp name="--.HHE">
      <acc value="0.0241877083" flag="0"/>
      <vel value="0.0314974745" flag="0"/>
      <psa03 value="0.0519173053" flag="0"/>
      <psa10 value="0.0339035864" flag="0"/>
      <psa30 value="0.0160884690" flag="0"/>
    </comp>
    <comp name="--.HHN">
      <acc value="0.0159555347" flag="0"/>
      <vel value="0.0241133239" flag="0"/>
      <psa03 value="0.0347764277" flag="0"/>
      <psa10 value="0.0310519996" flag="0"/>
      <psa30 value="0.0079102346" flag="0"/>
    </comp>
    <comp name="--.HHZ">
      <acc value="0.0105379205" flag="0"/>
      <vel value="0.0162855573" flag="0"/>
      <psa03 value="0.0214134744" flag="0"/>
      <psa10 value="0.0220325159" flag="0"/>
      <psa30 value="0.0093777861" flag="0"/>
    </comp>
  </station>
</stationlist>
