<stationlist xmlns:esm="https://esm-db.eu/esmws/shakemap/1/" created="1784080520">
	<station code="KTHA" name="KTHA" netid="GE" source="GEOFON" insttype="" lat="36.2566" lon="23.0621" esm:processing="automatic (Paolucci et al 2011)" esm:quality="best">
		<comp name="--.HNE" depth="0.0">
			<acc value="0.081948057211409" flag="0"/>
			<vel value="0.107421020691285" flag="0"/>
			<psa03 value="0.182437023057529" flag="0"/>
			<psa10 value="0.212942541398118" flag="0"/>
			<psa30 value="0.0615403300782587" flag="0"/>
		</comp>
		<comp name="--.HNN" depth="0.0">
			<acc value="0.0505571265999441" flag="0"/>
			<vel value="0.0764002435104117" flag="0"/>
			<psa03 value="0.131058869506803" flag="0"/>
			<psa10 value="0.103915918919491" flag="0"/>
			<psa30 value="0.0346340276677128" flag="0"/>
		</comp>
		<comp name="--.HNZ" depth="0.0">
			<acc value="0.0364973191759219" flag="0"/>
			<vel value="0.0899099272985207" flag="0"/>
			<psa03 value="0.0913365297634727" flag="0"/>
			<psa10 value="0.0710261201317363" flag="0"/>
			<psa30 value="0.0246046316027457" flag="0"/>
		</comp>
	</station>
	<station code="ABEA" name="ABEA" netid="HC" source="Seismological Network of Crete (HC)" insttype="" lat="35.5163" lon="24.0113" esm:processing="automatic (Paolucci et al 2011)" esm:quality="best">
		<comp name="--.HNE" depth="0.0">
			<acc value="0.118155830014544" flag="0"/>
			<vel value="0.140423445626384" flag="0"/>
			<psa03 value="0.238908847371786" flag="0"/>
			<psa10 value="0.243154377784373" flag="0"/>
			<psa30 value="0.0465178815813847" flag="0"/>
		</comp>
		<comp name="--.HNN" depth="0.0">
			<acc value="0.0901794308182814" flag="0"/>
			<vel value="0.174351774603229" flag="0"/>
			<psa03 value="0.193765731862076" flag="0"/>
			<psa10 value="0.257044457933937" flag="0"/>
			<psa30 value="0.0454651885122843" flag="0"/>
		</comp>
		<comp name="--.HNZ" depth="0.0">
			<acc value="0.0601407319001473" flag="0"/>
			<vel value="0.0632779398877656" flag="0"/>
			<psa03 value="0.104049986550823" flag="0"/>
			<psa10 value="0.183390673732031" flag="0"/>
			<psa30 value="0.0188995036660149" flag="0"/>
		</comp>
	</station>
	<station code="ATEI" name="ATEI" netid="HC" source="Seismological Network of Crete (HC)" insttype="" lat="35.5193" lon="24.0432" esm:processing="automatic (Paolucci et al 2011)" esm:quality="best">
		<comp name="--.HNE" depth="0.0">
			<acc value="0.0646399583088103" flag="0"/>
			<vel value="0.109703637831599" flag="0"/>
			<psa03 value="0.200945707500365" flag="0"/>
			<psa10 value="0.137971894960755" flag="0"/>
			<psa30 value="0.0282124056000594" flag="0"/>
		</comp>
		<comp name="--.HNN" depth="0.0">
			<acc value="0.0645002661544264" flag="0"/>
			<vel value="0.105986455343243" flag="0"/>
			<psa03 value="0.166780631731614" flag="0"/>
			<psa10 value="0.199006843226574" flag="0"/>
			<psa30 value="0.0282609921520132" flag="0"/>
		</comp>
		<comp name="--.HNZ" depth="0.0">
			<acc value="0.049422467156634" flag="0"/>
			<vel value="0.0614905330638599" flag="0"/>
			<psa03 value="0.126532350897095" flag="0"/>
			<psa10 value="0.117184642907471" flag="0"/>
			<psa30 value="0.0136880392654205" flag="0"/>
		</comp>
	</station>
	<station code="DEYA" name="DEYA" netid="HC" source="Seismological Network of Crete (HC)" insttype="" lat="35.4825" lon="24.014" esm:processing="automatic (Paolucci et al 2011)" esm:quality="best">
		<comp name="--.HNE" depth="0.0">
			<acc value="0.187612001946045" flag="0"/>
			<vel value="0.29709013832015" flag="0"/>
			<psa03 value="0.271685602004398" flag="0"/>
			<psa10 value="0.523614066863855" flag="0"/>
			<psa30 value="0.0430291871391322" flag="0"/>
		</comp>
		<comp name="--.HNN" depth="0.0">
			<acc value="0.127112817179738" flag="0"/>
			<vel value="0.169175310133693" flag="0"/>
			<psa03 value="0.414988824306243" flag="0"/>
			<psa10 value="0.362181502747163" flag="0"/>
			<psa30 value="0.0412203539794879" flag="0"/>
		</comp>
		<comp name="--.HNZ" depth="0.0">
			<acc value="0.0795016193627199" flag="0"/>
			<vel value="0.0973899896550273" flag="0"/>
			<psa03 value="0.132964964526186" flag="0"/>
			<psa10 value="0.24125337685228" flag="0"/>
			<psa30 value="0.016600153012005" flag="0"/>
		</comp>
	</station>
	<station code="G0LD" name="G0LD" netid="HC" source="Seismological Network of Crete (HC)" insttype="" lat="35.4955" lon="24.0306" esm:processing="automatic (Paolucci et al 2011)" esm:quality="best">
		<comp name="--.HNE" depth="0.0">
			<acc value="0.207364763709794" flag="0"/>
			<vel value="0.358037231078348" flag="0"/>
			<psa03 value="0.293694726667527" flag="0"/>
			<psa10 value="0.512086463215057" flag="0"/>
			<psa30 value="0.0782734452314676" flag="0"/>
		</comp>
		<comp name="--.HNN" depth="0.0">
			<acc value="0.17506195984509" flag="0"/>
			<vel value="0.279599041557942" flag="0"/>
			<psa03 value="0.377731356182062" flag="0"/>
			<psa10 value="0.667131874213233" flag="0"/>
			<psa30 value="0.057325884225086" flag="0"/>
		</comp>
		<comp name="--.HNZ" depth="0.0">
			<acc value="0.150148601451218" flag="0"/>
			<vel value="0.187005511643199" flag="0"/>
			<psa03 value="0.240635211735117" flag="0"/>
			<psa10 value="0.339009527717431" flag="0"/>
			<psa30 value="0.0236518201503412" flag="0"/>
		</comp>
	</station>
	<station code="LENT" name="LENT" netid="HC" source="Seismological Network of Crete (HC)" insttype="" lat="35.5074" lon="24.0402" esm:processing="manual (Paolucci et al 2011)" esm:quality="good">
		<comp name="--.HNE" depth="0.0">
			<acc value="0.0826178398490462" flag="0"/>
			<vel value="0.114332941866307" flag="0"/>
			<psa03 value="0.163575929852564" flag="0"/>
			<psa10 value="0.267415604971422" flag="0"/>
			<psa30 value="0.0323414157934062" flag="0"/>
		</comp>
		<comp name="--.HNN" depth="0.0">
			<acc value="0.0858564184795391" flag="0"/>
			<vel value="0.125673349956845" flag="0"/>
			<psa03 value="0.1670195017223" flag="0"/>
			<psa10 value="0.219631829530809" flag="0"/>
			<psa30 value="0.0290275662671386" flag="0"/>
		</comp>
		<comp name="--.HNZ" depth="0.0">
			<acc value="0.0591396088659367" flag="0"/>
			<vel value="0.0814935947226805" flag="0"/>
			<psa03 value="0.130655582374441" flag="0"/>
			<psa10 value="0.17645457424955" flag="0"/>
			<psa30 value="0.0158099623324132" flag="0"/>
		</comp>
	</station>
	<station code="NERO" name="NERO" netid="HC" source="Seismological Network of Crete (HC)" insttype="" lat="35.474" lon="24.0423" esm:processing="automatic (Paolucci et al 2011)" esm:quality="best">
		<comp name="--.HNE" depth="0.0">
			<acc value="0.0485017625548625" flag="0"/>
			<vel value="0.0858321305426766" flag="0"/>
			<psa03 value="0.0829313271266952" flag="0"/>
			<psa10 value="0.175073357750556" flag="0"/>
			<psa30 value="0.0247576567399049" flag="0"/>
		</comp>
		<comp name="--.HNN" depth="0.0">
			<acc value="0.0544376011986855" flag="0"/>
			<vel value="0.0879256954132938" flag="0"/>
			<psa03 value="0.11425176653561" flag="0"/>
			<psa10 value="0.183559809936414" flag="0"/>
			<psa30 value="0.0235698397195534" flag="0"/>
		</comp>
		<comp name="--.HNZ" depth="0.0">
			<acc value="0.0495155778679246" flag="0"/>
			<vel value="0.0560205516238709" flag="0"/>
			<psa03 value="0.0862441194997576" flag="0"/>
			<psa10 value="0.128910259671896" flag="0"/>
			<psa30 value="0.0133230134176068" flag="0"/>
		</comp>
	</station>
	<station code="PASK" name="PASK" netid="HC" source="Seismological Network of Crete (HC)" insttype="" lat="35.4996" lon="24.0121" esm:processing="manual (Paolucci et al 2011)" esm:quality="good">
		<comp name="--.HNE" depth="0.0">
			<acc value="0.186384600810456" flag="0"/>
			<vel value="0.183738356310109" flag="0"/>
			<psa03 value="0.343800191742086" flag="0"/>
			<psa10 value="0.334567433450494" flag="0"/>
			<psa30 value="0.0445645688506414" flag="0"/>
		</comp>
		<comp name="--.HNN" depth="0.0">
			<acc value="0.197720783078665" flag="0"/>
			<vel value="0.18020768462386" flag="0"/>
			<psa03 value="0.461049125575191" flag="0"/>
			<psa10 value="0.316400599986935" flag="0"/>
			<psa30 value="0.0377968238540831" flag="0"/>
		</comp>
		<comp name="--.HNZ" depth="0.0">
			<acc value="0.102161970727577" flag="0"/>
			<vel value="0.101071569681982" flag="0"/>
			<psa03 value="0.246975715095698" flag="0"/>
			<psa10 value="0.136727577530987" flag="0"/>
			<psa30 value="0.0198816453947667" flag="0"/>
		</comp>
	</station>
	<station code="POLY" name="POLY" netid="HC" source="Seismological Network of Crete (HC)" insttype="" lat="35.5226" lon="24.0602" esm:processing="automatic (Paolucci et al 2011)" esm:quality="best">
		<comp name="--.HNE" depth="0.0">
			<acc value="0.0833492299484069" flag="0"/>
			<vel value="0.109457394450697" flag="0"/>
			<psa03 value="0.141999750536445" flag="0"/>
			<psa10 value="0.1828376920996" flag="0"/>
			<psa30 value="0.030747096844277" flag="0"/>
		</comp>
		<comp name="--.HNN" depth="0.0">
			<acc value="0.0750663461699563" flag="0"/>
			<vel value="0.092626507275253" flag="0"/>
			<psa03 value="0.151021514850952" flag="0"/>
			<psa10 value="0.140181076308321" flag="0"/>
			<psa30 value="0.041692998623185" flag="0"/>
		</comp>
		<comp name="--.HNZ" depth="0.0">
			<acc value="0.0459168281268675" flag="0"/>
			<vel value="0.0605015961624565" flag="0"/>
			<psa03 value="0.163013434256721" flag="0"/>
			<psa10 value="0.101359494568895" flag="0"/>
			<psa30 value="0.0130480768710415" flag="0"/>
		</comp>
	</station>
	<station code="CH01" name="CH01" netid="HI" source="ITSAK Strong Motion Network" insttype="" lat="35.517" lon="24.0208" esm:processing="manual (Paolucci et al 2011)" esm:quality="good">
		<comp name="--.HNE" depth="0.0">
			<acc value="0.0751307866820203" flag="0"/>
			<vel value="0.118990608725748" flag="0"/>
			<psa03 value="0.146934275341257" flag="0"/>
			<psa10 value="0.253412837356636" flag="0"/>
			<psa30 value="0.0358294001885689" flag="0"/>
		</comp>
		<comp name="--.HNN" depth="0.0">
			<acc value="0.0682973642491286" flag="0"/>
			<vel value="0.114994353538044" flag="0"/>
			<psa03 value="0.152114847695401" flag="0"/>
			<psa10 value="0.205482187186636" flag="0"/>
			<psa30 value="0.0405697508802437" flag="0"/>
		</comp>
		<comp name="--.HNZ" depth="0.0">
			<acc value="0.0479677475959464" flag="0"/>
			<vel value="0.0786443366738526" flag="0"/>
			<psa03 value="0.10179502467096" flag="0"/>
			<psa10 value="0.180834024366749" flag="0"/>
			<psa30 value="0.0166951259701612" flag="0"/>
		</comp>
	</station>
	<station code="NPS1" name="NPS1" netid="HI" source="ITSAK Strong Motion Network" insttype="" lat="36.51263" lon="23.06248" esm:processing="manual (Paolucci et al 2011)" esm:quality="good">
		<comp name="--.HNE" depth="0.0">
			<acc value="0.127217337579323" flag="0"/>
			<vel value="0.107639028592034" flag="0"/>
			<psa03 value="0.303277382304746" flag="0"/>
			<psa10 value="0.182408183646876" flag="0"/>
			<psa30 value="0.0183706052957725" flag="0"/>
		</comp>
		<comp name="--.HNN" depth="0.0">
			<acc value="0.0924637342212481" flag="0"/>
			<vel value="0.107180075990377" flag="0"/>
			<psa03 value="0.256085422735895" flag="0"/>
			<psa10 value="0.158797954585245" flag="0"/>
			<psa30 value="0.0135441147311183" flag="0"/>
		</comp>
		<comp name="--.HNZ" depth="0.0">
			<acc value="0.0520352539076549" flag="0"/>
			<vel value="0.0493075378162337" flag="0"/>
			<psa03 value="0.155817957591463" flag="0"/>
			<psa10 value="0.0509999847485316" flag="0"/>
			<psa30 value="0.0115143769376335" flag="0"/>
		</comp>
	</station>
	<station code="ANKY" name="ANKY" netid="HL" source="National Observatory of Athens Seismic Network" insttype="" lat="35.86704" lon="23.30117" esm:processing="manual (Paolucci et al 2011)" esm:quality="good">
		<comp name="00.HNE" depth="0.0">
			<acc value="0.208469233892001" flag="0"/>
			<vel value="0.304235317593089" flag="0"/>
			<psa03 value="0.399409708933054" flag="0"/>
			<psa10 value="0.682362803186897" flag="0"/>
			<psa30 value="0.0374589681394754" flag="0"/>
		</comp>
		<comp name="00.HNN" depth="0.0">
			<acc value="0.137887171720423" flag="0"/>
			<vel value="0.181331098252329" flag="0"/>
			<psa03 value="0.25864038365607" flag="0"/>
			<psa10 value="0.499825640994965" flag="0"/>
			<psa30 value="0.0300268924676155" flag="0"/>
		</comp>
		<comp name="00.HNZ" depth="0.0">
			<acc value="0.0675708312345396" flag="0"/>
			<vel value="0.0801452400662707" flag="0"/>
			<psa03 value="0.173696787809844" flag="0"/>
			<psa10 value="0.131816852219669" flag="0"/>
			<psa30 value="0.0128461759961345" flag="0"/>
		</comp>
	</station>
	<station code="IMMV" name="IMMV" netid="HL" source="National Observatory of Athens Seismic Network" insttype="" lat="35.4606" lon="23.9811" esm:processing="manual (Paolucci et al 2011)" esm:quality="good">
		<comp name="--.HNE" depth="0.0">
			<acc value="0.0541241580532394" flag="0"/>
			<vel value="0.0939486130605843" flag="0"/>
			<psa03 value="0.173344733238058" flag="0"/>
			<psa10 value="0.113796645969474" flag="0"/>
			<psa30 value="0.0179946020540514" flag="0"/>
		</comp>
		<comp name="--.HNN" depth="0.0">
			<acc value="0.068954033778119" flag="0"/>
			<vel value="0.0990820473101218" flag="0"/>
			<psa03 value="0.290734093039977" flag="0"/>
			<psa10 value="0.164408941285468" flag="0"/>
			<psa30 value="0.02815351169863" flag="0"/>
		</comp>
		<comp name="--.HNZ" depth="0.0">
			<acc value="0.0486265912641409" flag="0"/>
			<vel value="0.0541803895160894" flag="0"/>
			<psa03 value="0.105406076385195" flag="0"/>
			<psa10 value="0.0944702431899615" flag="0"/>
			<psa30 value="0.0154210849045251" flag="0"/>
		</comp>
	</station>
	<station code="KTHA" name="KTHA" netid="HL" source="National Observatory of Athens Seismic Network" insttype="" lat="36.2566" lon="23.0621" esm:processing="manual (Paolucci et al 2011)" esm:quality="best">
		<comp name="--.HNE" depth="0.0">
			<acc value="0.644424132892766" flag="0"/>
			<vel value="0.658551309389048" flag="0"/>
			<psa03 value="1.90970234174275" flag="0"/>
			<psa10 value="1.34280543427016" flag="0"/>
			<psa30 value="0.132028132882539" flag="0"/>
		</comp>
		<comp name="--.HNN" depth="0.0">
			<acc value="0.3940057807836" flag="0"/>
			<vel value="0.43914234360074" flag="0"/>
			<psa03 value="1.35853416288703" flag="0"/>
			<psa10 value="0.692110748941484" flag="0"/>
			<psa30 value="0.0695487139274936" flag="0"/>
		</comp>
		<comp name="--.HNZ" depth="0.0">
			<acc value="0.387739196049714" flag="0"/>
			<vel value="0.26634517686529" flag="0"/>
			<psa03 value="0.8694866825609" flag="0"/>
			<psa10 value="0.409714731588248" flag="0"/>
			<psa30 value="0.061325815867482" flag="0"/>
		</comp>
	</station>
	<station code="MNVA" name="MNVA" netid="HL" source="National Observatory of Athens Seismic Network" insttype="" lat="36.68709" lon="23.03734" esm:processing="manual (Paolucci et al 2011)" esm:quality="best">
		<comp name="00.HNE" depth="0.0">
			<acc value="0.019937961727711" flag="0"/>
			<vel value="0.0481857286243347" flag="0"/>
			<psa03 value="0.0449160223411861" flag="0"/>
			<psa10 value="0.0573465151753012" flag="0"/>
			<psa30 value="0.0197612674203135" flag="0"/>
		</comp>
		<comp name="00.HNN" depth="0.0">
			<acc value="0.0167206602251974" flag="0"/>
			<vel value="0.0342427691713567" flag="0"/>
			<psa03 value="0.0405551318909364" flag="0"/>
			<psa10 value="0.0310403300195445" flag="0"/>
			<psa30 value="0.00932407684099115" flag="0"/>
		</comp>
		<comp name="00.HNZ" depth="0.0">
			<acc value="0.0180718758742271" flag="0"/>
			<vel value="0.034754341853931" flag="0"/>
			<psa03 value="0.0607394820258866" flag="0"/>
			<psa10 value="0.0526631036722311" flag="0"/>
			<psa30 value="0.013512073441897" flag="0"/>
		</comp>
	</station>
	<station code="DSF" name="DSF" netid="HP" source="University of Patras, Seismological Laboratory (PSLNET)" insttype="" lat="38.4112" lon="22.5271" esm:processing="manual (Paolucci et al 2011)" esm:quality="best">
		<comp name="--.HNE" depth="1.0">
			<acc value="0.00327612789401526" flag="0"/>
			<vel value="0.00688327067717006" flag="0"/>
			<psa03 value="0.00970410443784647" flag="0"/>
			<psa10 value="0.00742488717482182" flag="0"/>
			<psa30 value="0.00487325907950221" flag="0"/>
		</comp>
		<comp name="--.HNN" depth="1.0">
			<acc value="0.00570178021051804" flag="0"/>
			<vel value="0.00704036532008174" flag="0"/>
			<psa03 value="0.00849235880106108" flag="0"/>
			<psa10 value="0.00875572939909579" flag="0"/>
			<psa30 value="0.0031406082582193" flag="0"/>
		</comp>
		<comp name="--.HNZ" depth="1.0">
			<acc value="0.00291241536888893" flag="0"/>
			<vel value="0.00877029067881931" flag="0"/>
			<psa03 value="0.00519107825843658" flag="0"/>
			<psa10 value="0.00474684976799727" flag="0"/>
			<psa30 value="0.00383628913532938" flag="0"/>
		</comp>
	</station>
	<station code="GUR" name="GUR" netid="HP" source="University of Patras, Seismological Laboratory (PSLNET)" insttype="" lat="37.9363" lon="22.3423" esm:processing="manual (Paolucci et al 2011)" esm:quality="best">
		<comp name="--.HNE" depth="0.0">
			<acc value="0.0107042063249743" flag="0"/>
			<vel value="0.0159327305799791" flag="0"/>
			<psa03 value="0.0278736199280288" flag="0"/>
			<psa10 value="0.0224123922110092" flag="0"/>
			<psa30 value="0.00681809749884923" flag="0"/>
		</comp>
		<comp name="--.HNN" depth="0.0">
			<acc value="0.0123636122448113" flag="0"/>
			<vel value="0.0154921859912942" flag="0"/>
			<psa03 value="0.0354189609156695" flag="0"/>
			<psa10 value="0.0200009374639615" flag="0"/>
			<psa30 value="0.00458846437991408" flag="0"/>
		</comp>
		<comp name="--.HNZ" depth="0.0">
			<acc value="0.00692485189548373" flag="0"/>
			<vel value="0.0119146288140953" flag="0"/>
			<psa03 value="0.0198389210020065" flag="0"/>
			<psa10 value="0.0156836055244044" flag="0"/>
			<psa30 value="0.00366371020282113" flag="0"/>
		</comp>
	</station>
	<station code="LTHK" name="LTHK" netid="HP" source="University of Patras, Seismological Laboratory (PSLNET)" insttype="" lat="37.7095" lon="20.8367" esm:processing="manual (Paolucci et al 2011)" esm:quality="best">
		<comp name="--.HNE" depth="0.0">
			<acc value="0.00621802571423957" flag="0"/>
			<vel value="0.0131365002781398" flag="0"/>
			<psa03 value="0.0112564878745556" flag="0"/>
			<psa10 value="0.00839909858656962" flag="0"/>
			<psa30 value="0.00473409902748217" flag="0"/>
		</comp>
		<comp name="--.HNN" depth="0.0">
			<acc value="0.0060529039030377" flag="0"/>
			<vel value="0.0131393192407872" flag="0"/>
			<psa03 value="0.0123045026128954" flag="0"/>
			<psa10 value="0.0105345341111676" flag="0"/>
			<psa30 value="0.00696505015039371" flag="0"/>
		</comp>
		<comp name="--.HNZ" depth="0.0">
			<acc value="0.00563791070244144" flag="0"/>
			<vel value="0.00710064004997048" flag="0"/>
			<psa03 value="0.00794532191148636" flag="0"/>
			<psa10 value="0.00678597375619738" flag="0"/>
			<psa30 value="0.00369594983853967" flag="0"/>
		</comp>
	</station>
	<station code="LTK" name="LTK" netid="HP" source="University of Patras, Seismological Laboratory (PSLNET)" insttype="" lat="38.0228" lon="22.9673" esm:processing="manual (Paolucci et al 2011)" esm:quality="best">
		<comp name="--.HNE" depth="0.0">
			<acc value="0.00796537760683304" flag="0"/>
			<vel value="0.0142188269449563" flag="0"/>
			<psa03 value="0.0123868752571774" flag="0"/>
			<psa10 value="0.0151520443735734" flag="0"/>
			<psa30 value="0.00582544007350006" flag="0"/>
		</comp>
		<comp name="--.HNN" depth="0.0">
			<acc value="0.00523568638571704" flag="0"/>
			<vel value="0.0127458099706814" flag="0"/>
			<psa03 value="0.0120438863900437" flag="0"/>
			<psa10 value="0.0151287515805439" flag="0"/>
			<psa30 value="0.00804678556003613" flag="0"/>
		</comp>
		<comp name="--.HNZ" depth="0.0">
			<acc value="0.00467118175253052" flag="0"/>
			<vel value="0.0140255753491932" flag="0"/>
			<psa03 value="0.0101504692937847" flag="0"/>
			<psa10 value="0.00994561103543094" flag="0"/>
