<?xml version="1.0" encoding="UTF-8" standalone="yes"?>
<!DOCTYPE earthquake SYSTEM "stationlist.dtd">
<stationlist created="" xmlns="ch.ethz.sed.shakemap.usgs.xml">
  <station code="GVD" name="GVD" netid="GE" insttype="STS-2/N" lat="34.8391" lon="24.0874">
    <comp name="--.HHE">
      <acc value="0.3202692346" flag="0"/>
      <vel value="0.0522701582" flag="0"/>
      <psa03 value="0.1985609234" flag="0"/>
      <psa10 value="0.0896874811" flag="0"/>
      <psa30 value="0.0185420479" flag="0"/>
    </comp>
    <comp name="--.HHN">
      <acc value="0.0424393918" flag="0"/>
      <vel value="0.0639128677" flag="0"/>
      <psa03 value="0.0898984966" flag="0"/>
      <psa10 value="0.0846191338" flag="0"/>
      <psa30 value="0.0348114420" flag="0"/>
    </comp>
    <comp name="--.HHZ">
      <acc value="0.0178920848" flag="0"/>
      <vel value="0.0322948975" flag="0"/>
      <psa03 value="0.0586580619" flag="0"/>
      <psa10 value="0.0467260010" flag="0"/>
      <psa30 value="0.0121420239" flag="0"/>
    </comp>
  </station>
  <station code="IMMV" name="IMMV" netid="GE" insttype="STS-2/N" lat="35.4606" lon="23.9811">
    <comp name="--.HHZ">
      <acc value="0.0501090255" flag="0"/>
      <vel value="0.0542125148" flag="0"/>
      <psa03 value="0.1100340539" flag="0"/>
      <psa10 value="0.0950309188" flag="0"/>
      <psa30 value="0.0154986539" flag="0"/>
    </comp>
    <comp name="--.HHN">
      <acc value="0.0724053786" flag="0"/>
      <vel value="0.0994543102" flag="0"/>
      <psa03 value="0.3080438374" flag="0"/>
      <psa10 value="0.1701477481" flag="0"/>
      <psa30 value="0.0288713952" flag="0"/>
    </comp>
    <comp name="--.HHE">
      <acc value="0.0570461170" flag="0"/>
      <vel value="0.0976450028" flag="0"/>
      <psa03 value="0.1835155529" flag="0"/>
      <psa10 value="0.1177686718" flag="0"/>
      <psa30 value="0.0183050845" flag="0"/>
    </comp>
  </station>
  <station code="KTHA" name="KTHA" netid="GE" insttype="STS-2/N" lat="36.2566" lon="23.0621">
    <comp name="--.HHE">
      <acc value="0.0850037542" flag="0"/>
      <vel value="0.1042119960" flag="0"/>
      <psa03 value="0.1868326159" flag="0"/>
      <psa10 value="0.2127500815" flag="0"/>
      <psa30 value="0.0608592724" flag="0"/>
    </comp>
    <comp name="--.HHN">
      <acc value="0.0535460332" flag="0"/>
      <vel value="0.0755958178" flag="0"/>
      <psa03 value="0.1367631045" flag="0"/>
      <psa10 value="0.1008531901" flag="0"/>
      <psa30 value="0.0369182267" flag="0"/>
    </comp>
    <comp name="--.HHZ">
      <acc value="0.0376428853" flag="0"/>
      <vel value="0.0858353621" flag="0"/>
      <psa03 value="0.0962476248" flag="0"/>
      <psa10 value="0.0716257930" flag="0"/>
      <psa30 value="0.0248942477" flag="0"/>
    </comp>
  </station>
</stationlist>
