<?xml version="1.0" encoding="UTF-8" standalone="yes"?>
<!DOCTYPE earthquake SYSTEM "stationlist.dtd">
<stationlist created="" xmlns="ch.ethz.sed.shakemap.usgs.xml">
  <station code="ARG" name="ARG" netid="HL" insttype="LE3D20_DR24" lat="36.2136" lon="28.1212">
    <comp name="--.HHE">
      <acc value="0.0093161503" flag="0"/>
      <vel value="0.0030798480" flag="0"/>
      <psa03 value="0.0285732144" flag="0"/>
      <psa10 value="0.0050083772" flag="0"/>
      <psa30 value="0.0003684990" flag="0"/>
    </comp>
    <comp name="--.HHN">
      <acc value="0.0074656373" flag="0"/>
      <vel value="0.0028952234" flag="0"/>
      <psa03 value="0.0257390631" flag="0"/>
      <psa10 value="0.0033182010" flag="0"/>
      <psa30 value="0.0004500299" flag="0"/>
    </comp>
    <comp name="--.HHZ">
      <acc value="0.0064555635" flag="0"/>
      <vel value="0.0024023651" flag="0"/>
      <psa03 value="0.0094706985" flag="0"/>
      <psa10 value="0.0022305854" flag="0"/>
      <psa30 value="0.0001424383" flag="0"/>
    </comp>
  </station>
  <station code="CAME" name="CAME" netid="KO" insttype="CMG-5T" lat="36.9435" lon="29.3023">
    <comp name="--.HNN">
      <acc value="0.0163740587" flag="0"/>
      <vel value="0.0067703422" flag="0"/>
      <psa03 value="0.0545688414" flag="0"/>
      <psa10 value="0.0036094917" flag="0"/>
      <psa30 value="0.0002835175" flag="0"/>
    </comp>
    <comp name="--.HNE">
      <acc value="0.0204454893" flag="0"/>
      <vel value="0.0102327078" flag="0"/>
      <psa03 value="0.0444968490" flag="0"/>
      <psa10 value="0.0067456391" flag="0"/>
      <psa30 value="0.0003732181" flag="0"/>
    </comp>
    <comp name="--.HNZ">
      <acc value="0.0109970085" flag="0"/>
      <vel value="0.0035962913" flag="0"/>
      <psa03 value="0.0210969677" flag="0"/>
      <psa10 value="0.0036749175" flag="0"/>
      <psa30 value="0.0002686356" flag="0"/>
    </comp>
  </station>
  <station code="FETI" name="FETI" netid="KO" insttype="CMG-5T" lat="36.6903" lon="29.096">
    <comp name="--.HNE">
      <acc value="0.0504604363" flag="0"/>
      <vel value="0.0112273817" flag="0"/>
      <psa03 value="0.0795841657" flag="0"/>
      <psa10 value="0.0095442655" flag="0"/>
      <psa30 value="0.0006274464" flag="0"/>
    </comp>
    <comp name="--.HNZ">
      <acc value="0.0333493766" flag="0"/>
      <vel value="0.0070802895" flag="0"/>
      <psa03 value="0.0549757823" flag="0"/>
      <psa10 value="0.0056690012" flag="0"/>
      <psa30 value="0.0004276292" flag="0"/>
    </comp>
    <comp name="--.HNN">
      <acc value="0.0039185373" flag="0"/>
      <vel value="0.0172324060" flag="0"/>
      <psa03 value="0.0046075201" flag="0"/>
      <psa10 value="0.0035445802" flag="0"/>
      <psa30 value="0.0052622933" flag="0"/>
    </comp>
  </station>
</stationlist>
