<?xml version="1.0" encoding="UTF-8" standalone="yes"?>
<!DOCTYPE earthquake SYSTEM "stationlist.dtd">
<stationlist created="" xmlns="ch.ethz.sed.shakemap.usgs.xml">
  <station code="ARG" name="ARG" netid="HL" insttype="LE3D20_DR24" lat="36.2136" lon="28.1212">
    <comp name="--.HHE">
      <acc value="0.0093161503" flag="0"/>
      <vel value="0.0030798471" flag="0"/>
      <psa03 value="0.0285732144" flag="0"/>
      <psa10 value="0.0050083772" flag="0"/>
      <psa30 value="0.0003684993" flag="0"/>
    </comp>
    <comp name="--.HHZ">
      <acc value="0.0064555635" flag="0"/>
      <vel value="0.0024023575" flag="0"/>
      <psa03 value="0.0094706985" flag="0"/>
      <psa10 value="0.0022305854" flag="0"/>
      <psa30 value="0.0001424380" flag="0"/>
    </comp>
    <comp name="--.HHN">
      <acc value="0.0074656373" flag="0"/>
      <vel value="0.0028952234" flag="0"/>
      <psa03 value="0.0257390631" flag="0"/>
      <psa10 value="0.0033182010" flag="0"/>
      <psa30 value="0.0004500291" flag="0"/>
    </comp>
  </station>
  <station code="CAME" name="CAME" netid="KO" insttype="CMG-5T" lat="36.9435" lon="29.3023">
    <comp name="--.HNE">
      <acc value="0.0204454892" flag="0"/>
      <vel value="0.0102327085" flag="0"/>
      <psa03 value="0.0444968490" flag="0"/>
      <psa10 value="0.0067456391" flag="0"/>
      <psa30 value="0.0003731834" flag="0"/>
    </comp>
    <comp name="--.HNN">
      <acc value="0.0163740587" flag="0"/>
      <vel value="0.0067703426" flag="0"/>
      <psa03 value="0.0545688414" flag="0"/>
      <psa10 value="0.0036094918" flag="0"/>
      <psa30 value="0.0002835653" flag="0"/>
    </comp>
    <comp name="--.HNZ">
      <acc value="0.0109970080" flag="0"/>
      <vel value="0.0035962919" flag="0"/>
      <psa03 value="0.0210969677" flag="0"/>
      <psa10 value="0.0036749175" flag="0"/>
      <psa30 value="0.0002685998" flag="0"/>
    </comp>
  </station>
  <station code="FETI" name="FETI" netid="KO" insttype="CMG-5T" lat="36.6903" lon="29.096">
    <comp name="--.HNE">
      <acc value="0.0504604389" flag="0"/>
      <vel value="0.0112273838" flag="0"/>
      <psa03 value="0.0795841657" flag="0"/>
      <psa10 value="0.0095442639" flag="0"/>
      <psa30 value="0.0006267141" flag="0"/>
    </comp>
    <comp name="--.HNN">
      <acc value="0.0040688088" flag="0"/>
      <vel value="0.0175493674" flag="0"/>
      <psa03 value="0.0047633637" flag="0"/>
      <psa10 value="0.0035654791" flag="0"/>
      <psa30 value="0.0054739607" flag="0"/>
    </comp>
    <comp name="--.HNZ">
      <acc value="0.0333493522" flag="0"/>
      <vel value="0.0070802836" flag="0"/>
      <psa03 value="0.0549757823" flag="0"/>
      <psa10 value="0.0056690016" flag="0"/>
      <psa30 value="0.0004274393" flag="0"/>
    </comp>
  </station>
</stationlist>
