<stationlist created="1775820710">
	<station code="E02" name="E02" netid="EG" source="EUROSEISTEST Strong Motion Network" insttype="" lat="40.674206" lon="23.315498">
		<comp name="--.EN1" depth="0.0">
			<acc value="0.0444426859556068" flag="0"/>
			<vel value="0.0470897801448249" flag="0"/>
			<psa03 value="0.133147882893992" flag="0"/>
			<psa10 value="0.11823889024602" flag="0"/>
			<psa30 value="0.0049722348027988" flag="0"/>
		</comp>
		<comp name="--.EN2" depth="0.0">
			<acc value="0.0391542204096391" flag="0"/>
			<vel value="0.0390727986650995" flag="0"/>
			<psa03 value="0.137812275220099" flag="0"/>
			<psa10 value="0.109581456733577" flag="0"/>
			<psa30 value="0.00533514967746575" flag="0"/>
		</comp>
		<comp name="--.EN3" depth="0.0">
			<acc value="0.0205184855802316" flag="0"/>
			<vel value="0.0180949318481107" flag="0"/>
			<psa03 value="0.0488568146494048" flag="0"/>
			<psa10 value="0.0319473238534018" flag="0"/>
			<psa30 value="0.00292128331234956" flag="0"/>
		</comp>
	</station>
	<station code="E03" name="E03" netid="EG" source="EUROSEISTEST Strong Motion Network" insttype="" lat="40.676239" lon="23.324046">
		<comp name="--.EN1" depth="0.0">
			<acc value="0.0232574666271594" flag="0"/>
			<vel value="0.0262584760950764" flag="0"/>
			<psa03 value="0.0751648490939693" flag="0"/>
			<psa10 value="0.0621529910804376" flag="0"/>
			<psa30 value="0.0029535708679065" flag="0"/>
		</comp>
		<comp name="--.EN2" depth="0.0">
			<acc value="0.0274798645838638" flag="0"/>
			<vel value="0.0326518448281947" flag="0"/>
			<psa03 value="0.0894571240121655" flag="0"/>
			<psa10 value="0.0436688040939226" flag="0"/>
			<psa30 value="0.00398678202140868" flag="0"/>
		</comp>
		<comp name="--.EN3" depth="0.0">
			<acc value="0.0122989691458929" flag="0"/>
			<vel value="0.013469612453024" flag="0"/>
			<psa03 value="0.0364249103673938" flag="0"/>
			<psa10 value="0.0342388081530039" flag="0"/>
			<psa30 value="0.00195826451708207" flag="0"/>
		</comp>
	</station>
	<station code="PRR" name="PRR" netid="EG" source="EUROSEISTEST Strong Motion Network" insttype="" lat="40.682635" lon="23.300668">
		<comp name="--.EN1" depth="0.0">
			<acc value="0.0076033395300925" flag="0"/>
			<vel value="0.0076995690498191" flag="0"/>
			<psa03 value="0.0245592336995369" flag="0"/>
			<psa10 value="0.0150755833709149" flag="0"/>
			<psa30 value="0.00190408301115634" flag="0"/>
		</comp>
		<comp name="--.EN2" depth="0.0">
			<acc value="0.0132679677074241" flag="0"/>
			<vel value="0.0103612010596779" flag="0"/>
			<psa03 value="0.0404981515537744" flag="0"/>
			<psa10 value="0.0138917705741252" flag="0"/>
			<psa30 value="0.00266293786489854" flag="0"/>
		</comp>
		<comp name="--.EN3" depth="0.0">
			<acc value="0.00626713935981541" flag="0"/>
			<vel value="0.00482499366739078" flag="0"/>
			<psa03 value="0.0273801315076543" flag="0"/>
			<psa10 value="0.00600189853384118" flag="0"/>
			<psa30 value="0.00142636240617608" flag="0"/>
		</comp>
	</station>
	<station code="W01" name="W01" netid="EG" source="EUROSEISTEST Strong Motion Network" insttype="" lat="40.664956" lon="23.273878">
		<comp name="--.EN1" depth="0.0">
			<acc value="0.00982331359079674" flag="0"/>
			<vel value="0.00715924800734059" flag="0"/>
			<psa03 value="0.0298978555861934" flag="0"/>
			<psa10 value="0.0130377143095712" flag="0"/>
			<psa30 value="0.00132982226086502" flag="0"/>
		</comp>
		<comp name="--.EN2" depth="0.0">
			<acc value="0.0209983500580095" flag="0"/>
			<vel value="0.0180079474478415" flag="0"/>
			<psa03 value="0.0591327193355887" flag="0"/>
			<psa10 value="0.0438557202260322" flag="0"/>
			<psa30 value="0.00396102989879198" flag="0"/>
		</comp>
		<comp name="--.EN3" depth="0.0">
			<acc value="0.0367967801493157" flag="0"/>
			<vel value="0.0275454174700961" flag="0"/>
			<psa03 value="0.0991379215672992" flag="0"/>
			<psa10 value="0.054544974586865" flag="0"/>
			<psa30 value="0.00539821385518817" flag="0"/>
		</comp>
	</station>
	<station code="DRA2" name="DRA2" netid="HI" source="ITSAK Strong Motion Network" insttype="" lat="41.1593" lon="24.1485">
		<comp name="--.HNE" depth="0.0">
			<acc value="0.0418700441426212" flag="0"/>
			<vel value="0.0154258265147894" flag="0"/>
			<psa03 value="0.110979956043967" flag="0"/>
			<psa10 value="0.008660122440628" flag="0"/>
			<psa30 value="0.000950273055092179" flag="0"/>
		</comp>
		<comp name="--.HNN" depth="0.0">
			<acc value="0.0305843891718778" flag="0"/>
			<vel value="0.0133267547139884" flag="0"/>
			<psa03 value="0.113286296327642" flag="0"/>
			<psa10 value="0.00712628817534864" flag="0"/>
			<psa30 value="0.000849079476514904" flag="0"/>
		</comp>
		<comp name="--.HNZ" depth="0.0">
			<acc value="0.0157934430932126" flag="0"/>
			<vel value="0.0071606953580697" flag="0"/>
			<psa03 value="0.0375377601298827" flag="0"/>
			<psa10 value="0.00473154828559816" flag="0"/>
			<psa30 value="0.00122472144428642" flag="0"/>
		</comp>
	</station>
	<station code="MYT1" name="MYT1" netid="HI" source="ITSAK Strong Motion Network" insttype="" lat="39.085" lon="26.5694">
		<comp name="--.HNE" depth="0.0">
			<acc value="0.0034724630084976" flag="0"/>
			<vel value="0.00249368608072004" flag="0"/>
			<psa03 value="0.00846090033688787" flag="0"/>
			<psa10 value="0.00497737285152667" flag="0"/>
			<psa30 value="0.000389815224387043" flag="0"/>
		</comp>
		<comp name="--.HNN" depth="0.0">
			<acc value="0.00292854624016041" flag="0"/>
			<vel value="0.00309634018508048" flag="0"/>
			<psa03 value="0.00828676249903405" flag="0"/>
			<psa10 value="0.00666050872600119" flag="0"/>
			<psa30 value="0.000936563605244487" flag="0"/>
		</comp>
		<comp name="--.HNZ" depth="0.0">
			<acc value="0.00252554082372438" flag="0"/>
			<vel value="0.00209982190606863" flag="0"/>
			<psa03 value="0.00628158279069214" flag="0"/>
			<psa10 value="0.0038937174709245" flag="0"/>
			<psa30 value="0.000671772105773269" flag="0"/>
		</comp>
	</station>
	<station code="SFL1" name="SFL1" netid="HI" source="ITSAK Strong Motion Network" insttype="" lat="41.189954" lon="26.304374">
		<comp name="--.HNE" depth="0.0">
			<acc value="0.0240550665578256" flag="0"/>
			<vel value="0.0143739115652301" flag="0"/>
			<psa03 value="0.0821652815881105" flag="0"/>
			<psa10 value="0.0178280735223555" flag="0"/>
			<psa30 value="0.000706151883264252" flag="0"/>
		</comp>
		<comp name="--.HNN" depth="0.0">
			<acc value="0.0300217330265386" flag="0"/>
			<vel value="0.016937074227999" flag="0"/>
			<psa03 value="0.0824900062245841" flag="0"/>
			<psa10 value="0.0275557529334025" flag="0"/>
			<psa30 value="0.00156253996893978" flag="0"/>
		</comp>
		<comp name="--.HNZ" depth="0.0">
			<acc value="0.0152820885653143" flag="0"/>
			<vel value="0.0070850975989427" flag="0"/>
			<psa03 value="0.0375619622539938" flag="0"/>
			<psa10 value="0.00619195878063002" flag="0"/>
			<psa30 value="0.000374528742982712" flag="0"/>
		</comp>
	</station>
	<station code="SKO1" name="SKO1" netid="HI" source="ITSAK Strong Motion Network" insttype="" lat="39.123383" lon="23.728705">
		<comp name="--.HNE" depth="0.0">
			<acc value="0.00788934227924852" flag="0"/>
			<vel value="0.0039688915823884" flag="0"/>
			<psa03 value="0.0225706175884784" flag="0"/>
			<psa10 value="0.00356884727799337" flag="0"/>
			<psa30 value="0.000702546019393215" flag="0"/>
		</comp>
		<comp name="--.HNN" depth="0.0">
			<acc value="0.00906568271860176" flag="0"/>
			<vel value="0.00457022043383988" flag="0"/>
			<psa03 value="0.037001081348385" flag="0"/>
			<psa10 value="0.00397567540023248" flag="0"/>
			<psa30 value="0.000782578508650985" flag="0"/>
		</comp>
		<comp name="--.HNZ" depth="0.0">
			<acc value="0.00613036452493738" flag="0"/>
			<vel value="0.0029175640837319" flag="0"/>
			<psa03 value="0.0126206928297858" flag="0"/>
			<psa10 value="0.00368868927943472" flag="0"/>
			<psa30 value="0.00041080809943721" flag="0"/>
		</comp>
	</station>
	<station code="SKY1" name="SKY1" netid="HI" source="ITSAK Strong Motion Network" insttype="" lat="38.904483" lon="24.564572">
		<comp name="--.HNE" depth="0.0">
			<acc value="0.0310029116848251" flag="0"/>
			<vel value="0.0154045835830517" flag="0"/>
			<psa03 value="0.0577326995079279" flag="0"/>
			<psa10 value="0.0054846867710822" flag="0"/>
			<psa30 value="0.00116388720598092" flag="0"/>
		</comp>
		<comp name="--.HNN" depth="0.0">
			<acc value="0.0274448665728248" flag="0"/>
			<vel value="0.0162559791602594" flag="0"/>
			<psa03 value="0.0467504771979327" flag="0"/>
			<psa10 value="0.00974110342529855" flag="0"/>
			<psa30 value="0.00118454659539853" flag="0"/>
		</comp>
		<comp name="--.HNZ" depth="0.0">
			<acc value="0.0113459699766041" flag="0"/>
			<vel value="0.00581798884801835" flag="0"/>
			<psa03 value="0.0258098087314784" flag="0"/>
			<psa10 value="0.00356197354139185" flag="0"/>
			<psa30 value="0.000989387521235702" flag="0"/>
		</comp>
	</station>
	<station code="EFSA" name="EFSA" netid="HL" source="National Observatory of Athens Seismic Network" insttype="" lat="39.54015" lon="24.98864">
		<comp name="00.HNE" depth="0.0">
			<acc value="0.0289976030766532" flag="0"/>
			<vel value="0.0226139472185602" flag="0"/>
			<psa03 value="0.081356879077235" flag="0"/>
			<psa10 value="0.0164404140967452" flag="0"/>
			<psa30 value="0.00218356110854097" flag="0"/>
		</comp>
		<comp name="00.HNN" depth="0.0">
			<acc value="0.0279289567131373" flag="0"/>
			<vel value="0.0132509177539605" flag="0"/>
			<psa03 value="0.0527198049282687" flag="0"/>
			<psa10 value="0.0116850522023764" flag="0"/>
			<psa30 value="0.00103415892461804" flag="0"/>
		</comp>
		<comp name="00.HNZ" depth="0.0">
			<acc value="0.0170924463360268" flag="0"/>
			<vel value="0.00750310180628179" flag="0"/>
			<psa03 value="0.0396340396231045" flag="0"/>
			<psa10 value="0.00683776046807278" flag="0"/>
			<psa30 value="0.000949714476422985" flag="0"/>
		</comp>
	</station>
	<station code="KVLA" name="KVLA" netid="HL" source="National Observatory of Athens Seismic Network" insttype="" lat="40.93704" lon="24.38591">
		<comp name="00.HNE" depth="0.0">
			<acc value="0.0777680247592407" flag="0"/>
			<vel value="0.0367439131876623" flag="0"/>
			<psa03 value="0.280119285694583" flag="0"/>
			<psa10 value="0.0156228318109533" flag="0"/>
			<psa30 value="0.00140880780577177" flag="0"/>
		</comp>
		<comp name="00.HNN" depth="0.0">
			<acc value="0.0453656812941822" flag="0"/>
			<vel value="0.0218204377043585" flag="0"/>
			<psa03 value="0.17246173724379" flag="0"/>
			<psa10 value="0.0116289737999529" flag="0"/>
			<psa30 value="0.00137758750841355" flag="0"/>
		</comp>
		<comp name="00.HNZ" depth="0.0">
			<acc value="0.0314087887205922" flag="0"/>
			<vel value="0.0145364014100767" flag="0"/>
			<psa03 value="0.123559122685582" flag="0"/>
			<psa10 value="0.00651391526490039" flag="0"/>
			<psa30 value="0.00102386365927436" flag="0"/>
		</comp>
	</station>
	<station code="LIA" name="LIA" netid="HL" source="National Observatory of Athens Seismic Network" insttype="" lat="39.89725" lon="25.18055">
		<comp name="00.HNE" depth="0.0">
			<acc value="0.0480665157596451" flag="0"/>
			<vel value="0.0102046247434246" flag="0"/>
			<psa03 value="0.0463230999280074" flag="0"/>
			<psa10 value="0.00660731520222491" flag="0"/>
			<psa30 value="0.000727202288167623" flag="0"/>
		</comp>
		<comp name="00.HNN" depth="0.0">
			<acc value="0.0570327428592419" flag="0"/>
			<vel value="0.0169871494364188" flag="0"/>
			<psa03 value="0.0773556348479359" flag="0"/>
			<psa10 value="0.0103827559316425" flag="0"/>
			<psa30 value="0.000730752627523999" flag="0"/>
		</comp>
		<comp name="00.HNZ" depth="0.0">
			<acc value="0.0412296924273034" flag="0"/>
			<vel value="0.0102033019357992" flag="0"/>
			<psa03 value="0.0334420461005761" flag="0"/>
			<psa10 value="0.00457027728970849" flag="0"/>
			<psa30 value="0.00047714061864169" flag="0"/>
		</comp>
	</station>
	<station code="PLG" name="PLG" netid="HL" source="National Observatory of Athens Seismic Network" insttype="" lat="40.37328" lon="23.44443">
		<comp name="--.HNE" depth="0.0">
			<acc value="0.018130204397919" flag="0"/>
			<vel value="0.00871165003962828" flag="0"/>
			<psa03 value="0.0479254039894077" flag="0"/>
			<psa10 value="0.00562385942806908" flag="0"/>
			<psa30 value="0.00120496242701266" flag="0"/>
		</comp>
		<comp name="--.HNN" depth="0.0">
			<acc value="0.01647445286476" flag="0"/>
			<vel value="0.00691501950050874" flag="0"/>
			<psa03 value="0.0538015849242359" flag="0"/>
			<psa10 value="0.00547613479829022" flag="0"/>
			<psa30 value="0.00105349926832198" flag="0"/>
		</comp>
		<comp name="--.HNZ" depth="0.0">
			<acc value="0.0135228909161636" flag="0"/>
			<vel value="0.00478491960914543" flag="0"/>
			<psa03 value="0.0337470272416125" flag="0"/>
			<psa10 value="0.00664103978003227" flag="0"/>
			<psa30 value="0.00124542125304392" flag="0"/>
		</comp>
	</station>
	<station code="PRK" name="PRK" netid="HL" source="National Observatory of Athens Seismic Network" insttype="" lat="39.24565" lon="26.26499">
		<comp name="--.HNE" depth="0.0">
			<acc value="0.00651563934294658" flag="0"/>
			<vel value="0.00449565236110758" flag="0"/>
			<psa03 value="0.0250642827815463" flag="0"/>
			<psa10 value="0.00602500287688422" flag="0"/>
			<psa30 value="0.000604917520733895" flag="0"/>
		</comp>
		<comp name="--.HNN" depth="0.0">
			<acc value="0.00769945386178517" flag="0"/>
			<vel value="0.00580222112985079" flag="0"/>
			<psa03 value="0.0251103092681054" flag="0"/>
			<psa10 value="0.00755964578944162" flag="0"/>
			<psa30 value="0.001016527235772" flag="0"/>
		</comp>
		<comp name="--.HNZ" depth="0.0">
			<acc value="0.00799040268257053" flag="0"/>
			<vel value="0.00387367640007417" flag="0"/>
			<psa03 value="0.0348771593989832" flag="0"/>
			<psa10 value="0.00371526752448817" flag="0"/>
			<psa30 value="0.000467275329697753" flag="0"/>
		</comp>
	</station>
	<station code="ENZZ" name="ENZZ" netid="KO" source="Bogazici University Kandilli Observatory And Earthquake Research Institute (KOERI)" insttype="" lat="40.607" lon="26.1406">
		<comp name="--.HNE" depth="0.0">
			<acc value="0.0242167057434314" flag="0"/>
			<vel value="0.0107924014820031" flag="0"/>
			<psa03 value="0.0594067114448202" flag="0"/>
			<psa10 value="0.0164838363482555" flag="0"/>
			<psa30 value="0.00119673438194432" flag="0"/>
		</comp>
		<comp name="--.HNN" depth="0.0">
			<acc value="0.034128646285509" flag="0"/>
			<vel value="0.0177318077976366" flag="0"/>
			<psa03 value="0.0933535487979793" flag="0"/>
			<psa10 value="0.0162806103855265" flag="0"/>
			<psa30 value="0.00233464465874909" flag="0"/>
		</comp>
		<comp name="--.HNZ" depth="0.0">
			<acc value="0.0102153448379175" flag="0"/>
			<vel value="0.00390538819152918" flag="0"/>
			<psa03 value="0.0240547575721317" flag="0"/>
			<psa10 value="0.00501207624420803" flag="0"/>
			<psa30 value="0.00124946589598144" flag="0"/>
		</comp>
	</station>
	<station code="EZNE" name="EZNE" netid="KO" source="Bogazici University Kandilli Observatory And Earthquake Research Institute (KOERI)" insttype="" lat="39.756" lon="26.3655">
		<comp name="--.HNE" depth="0.0">
			<acc value="0.00742200644084105" flag="0"/>
			<vel value="0.00382141130589648" flag="0"/>
			<psa03 value="0.0257906850688002" flag="0"/>
			<psa10 value="0.00211970299804512" flag="0"/>
			<psa30 value="0.000406217951612443" flag="0"/>
		</comp>
		<comp name="--.HNN" depth="0.0">
			<acc value="0.0108715224559139" flag="0"/>
			<vel value="0.00385574427370852" flag="0"/>
			<psa03 value="0.0330493117505531" flag="0"/>
			<psa10 value="0.00340664176704776" flag="0"/>
			<psa30 value="0.000886786974450643" flag="0"/>
		</comp>
		<comp name="--.HNZ" depth="0.0">
			<acc value="0.00503562822864172" flag="0"/>
			<vel value="0.00205650134065463" flag="0"/>
			<psa03 value="0.0167411858443392" flag="0"/>
			<psa10 value="0.00189370505803993" flag="0"/>
			<psa30 value="0.000466432982227278" flag="0"/>
		</comp>
	</station>
	<station code="GPNR" name="GPNR" netid="KO" source="Bogazici University Kandilli Observatory And Earthquake Research Institute (KOERI)" insttype="" lat="39.456" lon="26.1331">
		<comp name="--.HNE" depth="0.0">
			<acc value="0.0221907939679993" flag="0"/>
			<vel value="0.00504200962435663" flag="0"/>
			<psa03 value="0.0267341460059652" flag="0"/>
			<psa10 value="0.00506060539650136" flag="0"/>
			<psa30 value="0.000801839628358742" flag="0"/>
		</comp>
		<comp name="--.HNN" depth="0.0">
			<acc value="0.016255866020973" flag="0"/>
			<vel value="0.00555029774555978" flag="0"/>
			<psa03 value="0.0517572463717454" flag="0"/>
			<psa10 value="0.0045057772356283" flag="0"/>
			<psa30 value="0.000894060060424463" flag="0"/>
		</comp>
		<comp name="--.HNZ" depth="0.0">
			<acc value="0.0176806465493268" flag="0"/>
			<vel value="0.00281778327346841" flag="0"/>
			<psa03 value="0.0201880378792517" flag="0"/>
			<psa10 value="0.00247099275364454" flag="0"/>
			<psa30 value="0.000479202057284346" flag="0"/>
		</comp>
	</station>
</stationlist>
