<?xml version="1.0" encoding="UTF-8" standalone="yes"?>
<!DOCTYPE earthquake SYSTEM "stationlist.dtd">
<stationlist created="" xmlns="ch.ethz.sed.shakemap.usgs.xml">
  <station code="SKY1" name="SKY1" netid="HI" insttype="CMG-5TD,ACCELEROMETER,GURALP" lat="38.9045" lon="24.5646">
    <comp name="--.HNZ">
      <acc value="0.0113686115" flag="0"/>
      <vel value="0.0057767349" flag="0"/>
      <psa03 value="0.0258401607" flag="0"/>
      <psa10 value="0.0035549780" flag="0"/>
      <psa30 value="0.0009510169" flag="0"/>
    </comp>
    <comp name="--.HNN">
      <acc value="0.0275095378" flag="0"/>
      <vel value="0.0162203627" flag="0"/>
      <psa03 value="0.0456116241" flag="0"/>
      <psa10 value="0.0097226817" flag="0"/>
      <psa30 value="0.0011642828" flag="0"/>
    </comp>
    <comp name="--.HNE">
      <acc value="0.0310436664" flag="0"/>
      <vel value="0.0152369354" flag="0"/>
      <psa03 value="0.0572368769" flag="0"/>
      <psa10 value="0.0054906721" flag="0"/>
      <psa30 value="0.0011283038" flag="0"/>
    </comp>
  </station>
  <station code="EFSA" name="EFSA" netid="HL" insttype="CMG-5" lat="39.5401" lon="24.9886">
    <comp name="00.HNE">
      <acc value="0.0288440256" flag="0"/>
      <vel value="0.0229699001" flag="0"/>
      <psa03 value="0.0811831733" flag="0"/>
      <psa10 value="0.0163498844" flag="0"/>
      <psa30 value="0.0019331678" flag="0"/>
    </comp>
    <comp name="00.HNN">
      <acc value="0.0279438629" flag="0"/>
      <vel value="0.0132536291" flag="0"/>
      <psa03 value="0.0525472228" flag="0"/>
      <psa10 value="0.0116384802" flag="0"/>
      <psa30 value="0.0009736963" flag="0"/>
    </comp>
    <comp name="00.HNZ">
      <acc value="0.0172000293" flag="0"/>
      <vel value="0.0076507812" flag="0"/>
      <psa03 value="0.0395299448" flag="0"/>
      <psa10 value="0.0067897111" flag="0"/>
      <psa30 value="0.0008473492" flag="0"/>
    </comp>
  </station>
  <station code="KVLA" name="KVLA" netid="HL" insttype="CMG-5" lat="40.937" lon="24.3859">
    <comp name="00.HNE">
      <acc value="0.0777050307" flag="0"/>
      <vel value="0.0369289566" flag="0"/>
      <psa03 value="0.2784941557" flag="0"/>
      <psa10 value="0.0156646300" flag="0"/>
      <psa30 value="0.0012727932" flag="0"/>
    </comp>
    <comp name="00.HNZ">
      <acc value="0.0312687250" flag="0"/>
      <vel value="0.0143546904" flag="0"/>
      <psa03 value="0.1235664545" flag="0"/>
      <psa10 value="0.0064932826" flag="0"/>
      <psa30 value="0.0009677060" flag="0"/>
    </comp>
    <comp name="00.HNN">
      <acc value="0.0452638424" flag="0"/>
      <vel value="0.0214678895" flag="0"/>
      <psa03 value="0.1717694925" flag="0"/>
      <psa10 value="0.0115773163" flag="0"/>
      <psa30 value="0.0012644898" flag="0"/>
    </comp>
  </station>
  <station code="LIA" name="LIA" netid="HL" insttype="P6C" lat="39.8972" lon="25.1806">
    <comp name="--.HHE">
      <acc value="0.0513338382" flag="0"/>
      <vel value="0.0105937102" flag="0"/>
      <psa03 value="0.0503321058" flag="0"/>
      <psa10 value="0.0053908078" flag="0"/>
      <psa30 value="0.0005820357" flag="0"/>
    </comp>
    <comp name="--.HHN">
      <acc value="0.0534120310" flag="0"/>
      <vel value="0.0179714888" flag="0"/>
      <psa03 value="0.0791865157" flag="0"/>
      <psa10 value="0.0100971826" flag="0"/>
      <psa30 value="0.0006684889" flag="0"/>
    </comp>
    <comp name="--.HHZ">
      <acc value="0.0415673223" flag="0"/>
      <vel value="0.0100559203" flag="0"/>
      <psa03 value="0.0327213223" flag="0"/>
      <psa10 value="0.0048139324" flag="0"/>
      <psa30 value="0.0004722358" flag="0"/>
    </comp>
  </station>
  <station code="NEO" name="NEO" netid="HL" insttype="120" lat="39.3057" lon="23.2219">
    <comp name="--.HHN">
      <acc value="0.0080567560" flag="0"/>
      <vel value="0.0048454551" flag="0"/>
      <psa03 value="0.0215502603" flag="0"/>
      <psa10 value="0.0056497643" flag="0"/>
      <psa30 value="0.0006892086" flag="0"/>
    </comp>
    <comp name="--.HHE">
      <acc value="0.0093041485" flag="0"/>
      <vel value="0.0052907384" flag="0"/>
      <psa03 value="0.0229788106" flag="0"/>
      <psa10 value="0.0044967337" flag="0"/>
      <psa30 value="0.0006933001" flag="0"/>
    </comp>
    <comp name="--.HHZ">
      <acc value="0.0097283302" flag="0"/>
      <vel value="0.0055687289" flag="0"/>
      <psa03 value="0.0205063360" flag="0"/>
      <psa10 value="0.0038503783" flag="0"/>
      <psa30 value="0.0006707382" flag="0"/>
    </comp>
  </station>
  <station code="PLG" name="PLG" netid="HL" insttype="120" lat="40.3733" lon="23.4444">
    <comp name="--.HHE">
      <acc value="0.0191505147" flag="0"/>
      <vel value="0.0090304341" flag="0"/>
      <psa03 value="0.0495067822" flag="0"/>
      <psa10 value="0.0058637136" flag="0"/>
      <psa30 value="0.0010423264" flag="0"/>
    </comp>
    <comp name="--.HHN">
      <acc value="0.0174348720" flag="0"/>
      <vel value="0.0066818396" flag="0"/>
      <psa03 value="0.0564896597" flag="0"/>
      <psa10 value="0.0056811532" flag="0"/>
      <psa30 value="0.0008926527" flag="0"/>
    </comp>
    <comp name="--.HHZ">
      <acc value="0.0136929720" flag="0"/>
      <vel value="0.0044832069" flag="0"/>
      <psa03 value="0.0364530858" flag="0"/>
      <psa10 value="0.0068577896" flag="0"/>
      <psa30 value="0.0010739150" flag="0"/>
    </comp>
  </station>
  <station code="SMTH" name="SMTH" netid="HL" insttype="CMG3ESPC60_P6C" lat="40.4709" lon="25.5304">
    <comp name="--.HHE">
      <acc value="0.0133953174" flag="0"/>
      <vel value="0.0054498699" flag="0"/>
      <psa03 value="0.0262967434" flag="0"/>
      <psa10 value="0.0046204764" flag="0"/>
      <psa30 value="0.0004628474" flag="0"/>
    </comp>
    <comp name="--.HHN">
      <acc value="0.0149577389" flag="0"/>
      <vel value="0.0064508672" flag="0"/>
      <psa03 value="0.0492874921" flag="0"/>
      <psa10 value="0.0046422715" flag="0"/>
      <psa30 value="0.0005427670" flag="0"/>
    </comp>
    <comp name="--.HHZ">
      <acc value="0.0125922548" flag="0"/>
      <vel value="0.0044245789" flag="0"/>
      <psa03 value="0.0260069048" flag="0"/>
      <psa10 value="0.0027403137" flag="0"/>
      <psa30 value="0.0005694921" flag="0"/>
    </comp>
  </station>
  <station code="AOS2" name="AOS2" netid="HT" insttype="100" lat="39.1478" lon="23.8436">
    <comp name="--.HHE">
      <acc value="0.0161206775" flag="0"/>
      <vel value="0.0073123438" flag="0"/>
      <psa03 value="0.0383860349" flag="0"/>
      <psa10 value="0.0099721068" flag="0"/>
      <psa30 value="0.0010472218" flag="0"/>
    </comp>
    <comp name="--.HHN">
      <acc value="0.0184870616" flag="0"/>
      <vel value="0.0080091212" flag="0"/>
      <psa03 value="0.0580038786" flag="0"/>
      <psa10 value="0.0065048413" flag="0"/>
      <psa30 value="0.0006974251" flag="0"/>
    </comp>
    <comp name="--.HHZ">
      <acc value="0.0120923192" flag="0"/>
      <vel value="0.0058619994" flag="0"/>
      <psa03 value="0.0193005522" flag="0"/>
      <psa10 value="0.0054068883" flag="0"/>
      <psa30 value="0.0007178073" flag="0"/>
    </comp>
  </station>
  <station code="KAVA" name="KAVA" netid="HT" insttype="Compact," lat="40.9967" lon="24.5137">
    <comp name="--.HHN">
      <acc value="0.0960689860" flag="0"/>
      <vel value="0.0342825443" flag="0"/>
      <psa03 value="0.2105141427" flag="0"/>
      <psa10 value="0.0112775252" flag="0"/>
      <psa30 value="0.0009189396" flag="0"/>
    </comp>
    <comp name="--.HHE">
      <acc value="0.0790757790" flag="0"/>
      <vel value="0.0271649970" flag="0"/>
      <psa03 value="0.1551138778" flag="0"/>
      <psa10 value="0.0088174478" flag="0"/>
      <psa30 value="0.0016830138" flag="0"/>
    </comp>
    <comp name="--.HHZ">
      <acc value="0.0563239632" flag="0"/>
      <vel value="0.0201326239" flag="0"/>
      <psa03 value="0.1260689979" flag="0"/>
      <psa10 value="0.0078151662" flag="0"/>
      <psa30 value="0.0014708432" flag="0"/>
    </comp>
  </station>
  <station code="OUR" name="OUR" netid="HT" insttype="100" lat="40.3325" lon="23.9791">
    <comp name="--.HHN">
      <acc value="0.1066364240" flag="0"/>
      <vel value="0.0334497335" flag="0"/>
      <psa03 value="0.1384519150" flag="0"/>
      <psa10 value="0.0194481961" flag="0"/>
      <psa30 value="0.0026718717" flag="0"/>
    </comp>
    <comp name="--.HHE">
      <acc value="0.0910451226" flag="0"/>
      <vel value="0.0347938869" flag="0"/>
      <psa03 value="0.1387195932" flag="0"/>
      <psa10 value="0.0161936363" flag="0"/>
      <psa30 value="0.0024706694" flag="0"/>
    </comp>
    <comp name="--.HHZ">
      <acc value="0.0561802557" flag="0"/>
      <vel value="0.0124690042" flag="0"/>
      <psa03 value="0.0534569216" flag="0"/>
      <psa10 value="0.0085114660" flag="0"/>
      <psa30 value="0.0025207271" flag="0"/>
    </comp>
  </station>
  <station code="PAIG" name="PAIG" netid="HT" insttype="100" lat="39.9363" lon="23.6768">
    <comp name="--.HHE">
      <acc value="0.0410690165" flag="0"/>
      <vel value="0.0126473044" flag="0"/>
      <psa03 value="0.0685448828" flag="0"/>
      <psa10 value="0.0158615026" flag="0"/>
      <psa30 value="0.0018452902" flag="0"/>
    </comp>
    <comp name="--.HHZ">
      <acc value="0.0113456909" flag="0"/>
      <vel value="0.0038330631" flag="0"/>
      <psa03 value="0.0139055971" flag="0"/>
      <psa10 value="0.0037651172" flag="0"/>
      <psa30 value="0.0006028078" flag="0"/>
    </comp>
    <comp name="--.HHN">
      <acc value="0.0430748749" flag="0"/>
      <vel value="0.0120588671" flag="0"/>
      <psa03 value="0.0680343737" flag="0"/>
      <psa10 value="0.0106870119" flag="0"/>
      <psa30 value="0.0024346387" flag="0"/>
    </comp>
  </station>
  <station code="SOH" name="SOH" netid="HT" insttype="120P," lat="40.8217" lon="23.3539">
    <comp name="--.HHZ">
      <acc value="0.0142025124" flag="0"/>
      <vel value="0.0062550606" flag="0"/>
      <psa03 value="0.0310427615" flag="0"/>
      <psa10 value="0.0055034225" flag="0"/>
      <psa30 value="0.0008440512" flag="0"/>
    </comp>
    <comp name="--.HHE">
      <acc value="0.0151974110" flag="0"/>
      <vel value="0.0079011200" flag="0"/>
      <psa03 value="0.0519518706" flag="0"/>
      <psa10 value="0.0090596111" flag="0"/>
      <psa30 value="0.0007277945" flag="0"/>
    </comp>
    <comp name="--.HHN">
      <acc value="0.0113697513" flag="0"/>
      <vel value="0.0076234891" flag="0"/>
      <psa03 value="0.0483584837" flag="0"/>
      <psa10 value="0.0095277122" flag="0"/>
      <psa30 value="0.0016177176" flag="0"/>
    </comp>
  </station>
  <station code="THAS" name="THAS" netid="HT" insttype="100" lat="40.6064" lon="24.7194">
    <comp name="--.HHE">
      <acc value="0.2126804835" flag="0"/>
      <vel value="0.0902586031" flag="0"/>
      <psa03 value="0.6656109962" flag="0"/>
      <psa10 value="0.0475624917" flag="0"/>
      <psa30 value="0.0033376266" flag="0"/>
    </comp>
    <comp name="--.HHZ">
      <acc value="0.0905934587" flag="0"/>
      <vel value="0.0426177256" flag="0"/>
      <psa03 value="0.2634029647" flag="0"/>
      <psa10 value="0.0263005124" flag="0"/>
      <psa30 value="0.0019392694" flag="0"/>
    </comp>
    <comp name="--.HHN">
      <acc value="0.1664460662" flag="0"/>
      <vel value="0.0537158389" flag="0"/>
      <psa03 value="0.2915118001" flag="0"/>
      <psa10 value="0.0220029466" flag="0"/>
      <psa30 value="0.0012930709" flag="0"/>
    </comp>
  </station>
  <station code="XOR" name="XOR" netid="HT" insttype="Compact," lat="39.366" lon="23.1918">
    <comp name="--.HHE">
      <acc value="0.0146173454" flag="0"/>
      <vel value="0.0081796498" flag="0"/>
      <psa03 value="0.0284023497" flag="0"/>
      <psa10 value="0.0128302794" flag="0"/>
      <psa30 value="0.0012504479" flag="0"/>
    </comp>
    <comp name="--.HHZ">
      <acc value="0.0114487060" flag="0"/>
      <vel value="0.0065191467" flag="0"/>
      <psa03 value="0.0293113305" flag="0"/>
      <psa10 value="0.0079760461" flag="0"/>
      <psa30 value="0.0012068190" flag="0"/>
    </comp>
    <comp name="--.HHN">
      <acc value="0.0136523426" flag="0"/>
      <vel value="0.0118972822" flag="0"/>
      <psa03 value="0.0356723941" flag="0"/>
      <psa10 value="0.0112830170" flag="0"/>
      <psa30 value="0.0021326791" flag="0"/>
    </comp>
  </station>
</stationlist>
