<?xml version="1.0" encoding="UTF-8" standalone="yes"?>
<!DOCTYPE earthquake SYSTEM "stationlist.dtd">
<stationlist created="" xmlns="ch.ethz.sed.shakemap.usgs.xml">
  <station code="MYT1" name="MYT1" netid="HI" insttype="CMG-5TD,ACCELEROMETER,GURALP" lat="39.085" lon="26.5694">
    <comp name="--.HNN">
      <acc value="0.0879724539" flag="0"/>
      <vel value="0.0370125393" flag="0"/>
      <psa03 value="0.2045742435" flag="0"/>
      <psa10 value="0.0439652688" flag="0"/>
      <psa30 value="0.0027415453" flag="0"/>
    </comp>
    <comp name="--.HNE">
      <acc value="0.1023839406" flag="0"/>
      <vel value="0.0465080217" flag="0"/>
      <psa03 value="0.2289676478" flag="0"/>
      <psa10 value="0.0622843871" flag="0"/>
      <psa30 value="0.0028382359" flag="0"/>
    </comp>
    <comp name="--.HNZ">
      <acc value="0.0919661849" flag="0"/>
      <vel value="0.0294271963" flag="0"/>
      <psa03 value="0.1507640920" flag="0"/>
      <psa10 value="0.0319087503" flag="0"/>
      <psa30 value="0.0021082332" flag="0"/>
    </comp>
  </station>
  <station code="EFSA" name="EFSA" netid="HL" insttype="CMG-5" lat="39.5401" lon="24.9886">
    <comp name="00.HNZ">
      <acc value="0.0246969874" flag="0"/>
      <vel value="0.0186411595" flag="0"/>
      <psa03 value="0.0816103660" flag="0"/>
      <psa10 value="0.0176829584" flag="0"/>
      <psa30 value="0.0009626779" flag="0"/>
    </comp>
    <comp name="00.HNE">
      <acc value="0.0520939548" flag="0"/>
      <vel value="0.0258960359" flag="0"/>
      <psa03 value="0.1277662177" flag="0"/>
      <psa10 value="0.0132129980" flag="0"/>
      <psa30 value="0.0018357184" flag="0"/>
    </comp>
    <comp name="00.HNN">
      <acc value="0.0369259464" flag="0"/>
      <vel value="0.0173884702" flag="0"/>
      <psa03 value="0.1008281836" flag="0"/>
      <psa10 value="0.0123847947" flag="0"/>
      <psa30 value="0.0013788217" flag="0"/>
    </comp>
  </station>
  <station code="LIA" name="LIA" netid="HL" insttype="P6C" lat="39.8972" lon="25.1806">
    <comp name="--.HHN">
      <acc value="0.0720526040" flag="0"/>
      <vel value="0.0294725227" flag="0"/>
      <psa03 value="0.2561677933" flag="0"/>
      <psa10 value="0.0299846975" flag="0"/>
      <psa30 value="0.0020166209" flag="0"/>
    </comp>
    <comp name="--.HHE">
      <acc value="0.0603441744" flag="0"/>
      <vel value="0.0388437427" flag="0"/>
      <psa03 value="0.1264403647" flag="0"/>
      <psa10 value="0.0220168152" flag="0"/>
      <psa30 value="0.0012633004" flag="0"/>
    </comp>
    <comp name="--.HHZ">
      <acc value="0.0393298088" flag="0"/>
      <vel value="0.0166427891" flag="0"/>
      <psa03 value="0.0855521702" flag="0"/>
      <psa10 value="0.0163487418" flag="0"/>
      <psa30 value="0.0006871793" flag="0"/>
    </comp>
  </station>
  <station code="PRK" name="PRK" netid="HL" insttype="120" lat="39.2456" lon="26.265">
    <comp name="--.HHE">
      <acc value="0.5205921365" flag="0"/>
      <vel value="0.2834327400" flag="0"/>
      <psa03 value="1.2945961445" flag="0"/>
      <psa10 value="0.2346730890" flag="0"/>
      <psa30 value="0.0126812992" flag="0"/>
    </comp>
    <comp name="--.HHZ">
      <acc value="0.3262580205" flag="0"/>
      <vel value="0.1602643282" flag="0"/>
      <psa03 value="0.9879868886" flag="0"/>
      <psa10 value="0.1135187043" flag="0"/>
      <psa30 value="0.0090151700" flag="0"/>
    </comp>
    <comp name="--.HHN">
      <acc value="0.5266331027" flag="0"/>
      <vel value="0.2793490840" flag="0"/>
      <psa03 value="1.3632964817" flag="0"/>
      <psa10 value="0.2238605548" flag="0"/>
      <psa30 value="0.0103550660" flag="0"/>
    </comp>
  </station>
  <station code="CHOS" name="CHOS" netid="HT" insttype="100" lat="38.3869" lon="26.0506">
    <comp name="--.HHE">
      <acc value="0.0941996764" flag="0"/>
      <vel value="0.0395819892" flag="0"/>
      <psa03 value="0.1926169063" flag="0"/>
      <psa10 value="0.0190772188" flag="0"/>
      <psa30 value="0.0017969077" flag="0"/>
    </comp>
    <comp name="--.HHN">
      <acc value="0.0742354937" flag="0"/>
      <vel value="0.0392099470" flag="0"/>
      <psa03 value="0.1589575483" flag="0"/>
      <psa10 value="0.0376166864" flag="0"/>
      <psa30 value="0.0033290658" flag="0"/>
    </comp>
    <comp name="--.HHZ">
      <acc value="0.0321711066" flag="0"/>
      <vel value="0.0199593916" flag="0"/>
      <psa03 value="0.0809611519" flag="0"/>
      <psa10 value="0.0187381486" flag="0"/>
      <psa30 value="0.0022347072" flag="0"/>
    </comp>
  </station>
  <station code="SIGR" name="SIGR" netid="HT" insttype="100" lat="39.2114" lon="25.8553">
    <comp name="--.HHE">
      <acc value="0.5813840844" flag="0"/>
      <vel value="0.1966197479" flag="0"/>
      <psa03 value="0.8802249045" flag="0"/>
      <psa10 value="0.0978427842" flag="0"/>
      <psa30 value="0.0084786105" flag="0"/>
    </comp>
    <comp name="--.HHN">
      <acc value="0.3900371899" flag="0"/>
      <vel value="0.2033735382" flag="0"/>
      <psa03 value="1.3372904072" flag="0"/>
      <psa10 value="0.0885721637" flag="0"/>
      <psa30 value="0.0096464689" flag="0"/>
    </comp>
  </station>
  <station code="BIGA" name="BIGA" netid="KO" insttype="CMG-5T" lat="40.2813" lon="27.1505">
    <comp name="--.HNE">
      <acc value="0.1428442414" flag="0"/>
      <vel value="0.0637251023" flag="0"/>
      <psa03 value="0.3006242490" flag="0"/>
      <psa10 value="0.0282821876" flag="0"/>
      <psa30 value="0.0018850886" flag="0"/>
    </comp>
    <comp name="--.HNN">
      <acc value="0.1634293268" flag="0"/>
      <vel value="0.0717346319" flag="0"/>
      <psa03 value="0.4339786005" flag="0"/>
      <psa10 value="0.0591203497" flag="0"/>
      <psa30 value="0.0034761216" flag="0"/>
    </comp>
    <comp name="--.HNZ">
      <acc value="0.0854359444" flag="0"/>
      <vel value="0.0295174425" flag="0"/>
      <psa03 value="0.1653503943" flag="0"/>
      <psa10 value="0.0230326184" flag="0"/>
      <psa30 value="0.0011615385" flag="0"/>
    </comp>
  </station>
  <station code="CANM" name="CANM" netid="KO" insttype="CMG-5T" lat="40.0113" lon="27.0529">
    <comp name="--.HNE">
      <acc value="0.2296551896" flag="0"/>
      <vel value="0.0752471560" flag="0"/>
      <psa03 value="0.2675363155" flag="0"/>
      <psa10 value="0.0313633939" flag="0"/>
      <psa30 value="0.0022268863" flag="0"/>
    </comp>
    <comp name="--.HNN">
      <acc value="0.2173877188" flag="0"/>
      <vel value="0.0904051957" flag="0"/>
      <psa03 value="0.3799934104" flag="0"/>
      <psa10 value="0.0657763221" flag="0"/>
      <psa30 value="0.0037152513" flag="0"/>
    </comp>
    <comp name="--.HNZ">
      <acc value="0.1395174289" flag="0"/>
      <vel value="0.0548674064" flag="0"/>
      <psa03 value="0.2984607635" flag="0"/>
      <psa10 value="0.0195512007" flag="0"/>
      <psa30 value="0.0019852703" flag="0"/>
    </comp>
  </station>
  <station code="ENEZ" name="ENEZ" netid="KO" insttype="120s," lat="40.7362" lon="26.153">
    <comp name="--.HHZ">
      <acc value="0.0221398203" flag="0"/>
      <vel value="0.0155212215" flag="0"/>
      <psa03 value="0.0499233713" flag="0"/>
      <psa10 value="0.0170854117" flag="0"/>
      <psa30 value="0.0015931838" flag="0"/>
    </comp>
    <comp name="--.HHN">
      <acc value="0.0508424078" flag="0"/>
      <vel value="0.0253290495" flag="0"/>
      <psa03 value="0.1565403941" flag="0"/>
      <psa10 value="0.0277704211" flag="0"/>
      <psa30 value="0.0027568467" flag="0"/>
    </comp>
    <comp name="--.HHE">
      <acc value="0.0406879187" flag="0"/>
      <vel value="0.0232944784" flag="0"/>
      <psa03 value="0.1209610231" flag="0"/>
      <psa10 value="0.0289047027" flag="0"/>
      <psa30 value="0.0034673778" flag="0"/>
    </comp>
  </station>
  <station code="ERIK" name="ERIK" netid="KO" insttype="120s," lat="40.6708" lon="26.5132">
    <comp name="--.HHE">
      <acc value="0.0662660986" flag="0"/>
      <vel value="0.0373415936" flag="0"/>
      <psa03 value="0.1666040883" flag="0"/>
      <psa10 value="0.0300604691" flag="0"/>
      <psa30 value="0.0018002232" flag="0"/>
    </comp>
    <comp name="--.HHN">
      <acc value="0.0589205696" flag="0"/>
      <vel value="0.0440987816" flag="0"/>
      <psa03 value="0.1647327745" flag="0"/>
      <psa10 value="0.0417198840" flag="0"/>
      <psa30 value="0.0024430747" flag="0"/>
    </comp>
    <comp name="--.HHZ">
      <acc value="0.0296386985" flag="0"/>
      <vel value="0.0164447397" flag="0"/>
      <psa03 value="0.0793767565" flag="0"/>
      <psa10 value="0.0266197202" flag="0"/>
      <psa30 value="0.0012308300" flag="0"/>
    </comp>
  </station>
  <station code="EZN" name="EZN" netid="KO" insttype="120s," lat="39.8255" lon="26.3247">
    <comp name="--.HHZ">
      <acc value="0.2773102849" flag="0"/>
      <vel value="0.1033595405" flag="0"/>
      <psa03 value="0.3218653026" flag="0"/>
      <psa10 value="0.0313774047" flag="0"/>
      <psa30 value="0.0026696613" flag="0"/>
    </comp>
    <comp name="--.HHE">
      <acc value="0.3639600404" flag="0"/>
      <vel value="0.1101720013" flag="0"/>
      <psa03 value="0.4409037805" flag="0"/>
      <psa10 value="0.0458348271" flag="0"/>
      <psa30 value="0.0032989568" flag="0"/>
    </comp>
  </station>
  <station code="EZNE" name="EZNE" netid="KO" insttype="CMG-5T" lat="39.756" lon="26.3655">
    <comp name="--.HNE">
      <acc value="0.4778314222" flag="0"/>
      <vel value="0.2029690597" flag="0"/>
      <psa03 value="0.8472141618" flag="0"/>
      <psa10 value="0.0747130092" flag="0"/>
      <psa30 value="0.0054721702" flag="0"/>
    </comp>
    <comp name="--.HNN">
      <acc value="0.7137917646" flag="0"/>
      <vel value="0.2061516570" flag="0"/>
      <psa03 value="1.2301670146" flag="0"/>
      <psa10 value="0.0604529216" flag="0"/>
      <psa30 value="0.0051622622" flag="0"/>
    </comp>
    <comp name="--.HNZ">
      <acc value="0.2954964942" flag="0"/>
      <vel value="0.0782823716" flag="0"/>
      <psa03 value="0.4588818262" flag="0"/>
      <psa10 value="0.0320295226" flag="0"/>
      <psa30 value="0.0029466531" flag="0"/>
    </comp>
  </station>
  <station code="GELI" name="GELI" netid="KO" insttype="30s," lat="40.398" lon="26.4742">
    <comp name="--.HHZ">
      <acc value="0.0674428995" flag="0"/>
      <vel value="0.0343352141" flag="0"/>
      <psa03 value="0.2467282719" flag="0"/>
      <psa10 value="0.0302176245" flag="0"/>
      <psa30 value="0.0012369185" flag="0"/>
    </comp>
    <comp name="--.HHE">
      <acc value="0.1609555224" flag="0"/>
      <vel value="0.0906910761" flag="0"/>
      <psa03 value="0.6466590035" flag="0"/>
      <psa10 value="0.0428549619" flag="0"/>
      <psa30 value="0.0024026557" flag="0"/>
    </comp>
    <comp name="--.HHN">
      <acc value="0.1879592458" flag="0"/>
      <vel value="0.1126576416" flag="0"/>
      <psa03 value="0.3836920947" flag="0"/>
      <psa10 value="0.1001022984" flag="0"/>
      <psa30 value="0.0073706417" flag="0"/>
    </comp>
  </station>
  <station code="GPNR" name="GPNR" netid="KO" insttype="CMG-5T" lat="39.456" lon="26.1331">
    <comp name="--.HNN">
      <acc value="5.3397988692" flag="0"/>
      <vel value="1.3464500387" flag="0"/>
      <psa03 value="9.0787207297" flag="0"/>
      <psa10 value="0.3549040247" flag="0"/>
      <psa30 value="0.0373382459" flag="0"/>
    </comp>
    <comp name="--.HNZ">
      <acc value="2.1223054779" flag="0"/>
      <vel value="0.4290513591" flag="0"/>
      <psa03 value="2.5164593798" flag="0"/>
      <psa10 value="0.1090597874" flag="0"/>
      <psa30 value="0.0090742322" flag="0"/>
    </comp>
    <comp name="--.HNE">
      <acc value="2.1584977519" flag="0"/>
      <vel value="0.5778456913" flag="0"/>
      <psa03 value="3.8249515257" flag="0"/>
      <psa10 value="0.1760210695" flag="0"/>
      <psa30 value="0.0166558933" flag="0"/>
    </comp>
  </station>
  <station code="LAP" name="LAP" netid="KO" insttype="30s," lat="40.3703" lon="26.7593">
    <comp name="--.HHZ">
      <acc value="0.0379442183" flag="0"/>
      <vel value="0.0229961622" flag="0"/>
      <psa03 value="0.1027998014" flag="0"/>
      <psa10 value="0.0204654489" flag="0"/>
      <psa30 value="0.0020892975" flag="0"/>
    </comp>
    <comp name="--.HHN">
      <acc value="0.1419275122" flag="0"/>
      <vel value="0.0707812621" flag="0"/>
      <psa03 value="0.2440353155" flag="0"/>
      <psa10 value="0.0493155421" flag="0"/>
      <psa30 value="0.0061327055" flag="0"/>
    </comp>
  </station>
  <station code="LAPK" name="LAPK" netid="KO" insttype="CMG-5T" lat="40.3151" lon="26.6425">
    <comp name="--.HNE">
      <acc value="0.2112971630" flag="0"/>
      <vel value="0.1263154636" flag="0"/>
      <psa03 value="0.6488185614" flag="0"/>
      <psa10 value="0.1269625725" flag="0"/>
      <psa30 value="0.0048788858" flag="0"/>
    </comp>
    <comp name="--.HNZ">
      <acc value="0.1086721216" flag="0"/>
      <vel value="0.0557993316" flag="0"/>
      <psa03 value="0.2309951331" flag="0"/>
      <psa10 value="0.0472645779" flag="0"/>
      <psa30 value="0.0023847491" flag="0"/>
    </comp>
    <comp name="--.HNN">
      <acc value="0.2128626273" flag="0"/>
      <vel value="0.1189053720" flag="0"/>
      <psa03 value="0.5351012304" flag="0"/>
      <psa10 value="0.0899929926" flag="0"/>
      <psa30 value="0.0055192952" flag="0"/>
    </comp>
  </station>
  <station code="SOMA" name="SOMA" netid="KO" insttype="CMG-5T" lat="39.1564" lon="27.5341">
    <comp name="--.HNN">
      <acc value="0.0654150499" flag="0"/>
      <vel value="0.0279106718" flag="0"/>
      <psa03 value="0.1541088730" flag="0"/>
      <psa10 value="0.0220043647" flag="0"/>
      <psa30 value="0.0015862703" flag="0"/>
    </comp>
    <comp name="--.HNE">
      <acc value="0.0565930133" flag="0"/>
      <vel value="0.0272875132" flag="0"/>
      <psa03 value="0.1632032435" flag="0"/>
      <psa10 value="0.0142205453" flag="0"/>
      <psa30 value="0.0012045705" flag="0"/>
    </comp>
    <comp name="--.HNZ">
      <acc value="0.0428991174" flag="0"/>
      <vel value="0.0192035813" flag="0"/>
      <psa03 value="0.1178163527" flag="0"/>
      <psa10 value="0.0139206956" flag="0"/>
      <psa30 value="0.0011438864" flag="0"/>
    </comp>
  </station>
  <station code="YAYO" name="YAYO" netid="KO" insttype="CMG-6T" lat="39.6113" lon="27.0726">
    <comp name="--.HHN">
      <acc value="0.3226493338" flag="0"/>
      <vel value="0.1626174811" flag="0"/>
      <psa03 value="1.0224581325" flag="0"/>
      <psa10 value="0.0637925839" flag="0"/>
      <psa30 value="0.0052457383" flag="0"/>
    </comp>
    <comp name="--.HHE">
      <acc value="0.3637641717" flag="0"/>
      <vel value="0.2303718268" flag="0"/>
      <psa03 value="0.7540322135" flag="0"/>
      <psa10 value="0.1066066593" flag="0"/>
      <psa30 value="0.0075604222" flag="0"/>
    </comp>
    <comp name="--.HHZ">
      <acc value="0.1233457401" flag="0"/>
      <vel value="0.0545475518" flag="0"/>
      <psa03 value="0.5015080372" flag="0"/>
      <psa10 value="0.0214502247" flag="0"/>
      <psa30 value="0.0016610911" flag="0"/>
    </comp>
  </station>
</stationlist>
