<?xml version="1.0" encoding="UTF-8" standalone="yes"?>
<!DOCTYPE earthquake SYSTEM "stationlist.dtd">
<stationlist created="" xmlns="ch.ethz.sed.shakemap.usgs.xml">
  <station code="MYT1" name="MYT1" netid="HI" insttype="CMG-5TD,ACCELEROMETER,GURALP" lat="39.085" lon="26.5694">
    <comp name="--.HNE">
      <acc value="0.1023839406" flag="0"/>
      <vel value="0.0465080214" flag="0"/>
      <psa03 value="0.2289676478" flag="0"/>
      <psa10 value="0.0622843870" flag="0"/>
      <psa30 value="0.0028382255" flag="0"/>
    </comp>
    <comp name="--.HNN">
      <acc value="0.0879724539" flag="0"/>
      <vel value="0.0370125394" flag="0"/>
      <psa03 value="0.2045742435" flag="0"/>
      <psa10 value="0.0439652689" flag="0"/>
      <psa30 value="0.0027415264" flag="0"/>
    </comp>
    <comp name="--.HNZ">
      <acc value="0.0919661849" flag="0"/>
      <vel value="0.0294271964" flag="0"/>
      <psa03 value="0.1507640920" flag="0"/>
      <psa10 value="0.0319087503" flag="0"/>
      <psa30 value="0.0021082279" flag="0"/>
    </comp>
  </station>
  <station code="EFSA" name="EFSA" netid="HL" insttype="CMG-5" lat="39.5401" lon="24.9886">
    <comp name="00.HNE">
      <acc value="0.0520939551" flag="0"/>
      <vel value="0.0258960357" flag="0"/>
      <psa03 value="0.1277662177" flag="0"/>
      <psa10 value="0.0132129980" flag="0"/>
      <psa30 value="0.0018356896" flag="0"/>
    </comp>
    <comp name="00.HNZ">
      <acc value="0.0246969868" flag="0"/>
      <vel value="0.0186411562" flag="0"/>
      <psa03 value="0.0816103660" flag="0"/>
      <psa10 value="0.0176829580" flag="0"/>
      <psa30 value="0.0009624137" flag="0"/>
    </comp>
    <comp name="00.HNN">
      <acc value="0.0369259459" flag="0"/>
      <vel value="0.0173884744" flag="0"/>
      <psa03 value="0.1008281836" flag="0"/>
      <psa10 value="0.0123847947" flag="0"/>
      <psa30 value="0.0013787310" flag="0"/>
    </comp>
  </station>
  <station code="LIA" name="LIA" netid="HL" insttype="P6C" lat="39.8972" lon="25.1806">
    <comp name="--.HHE">
      <acc value="0.0603441742" flag="0"/>
      <vel value="0.0388437461" flag="0"/>
      <psa03 value="0.1264403647" flag="0"/>
      <psa10 value="0.0220168159" flag="0"/>
      <psa30 value="0.0012631990" flag="0"/>
    </comp>
    <comp name="--.HHN">
      <acc value="0.0720526041" flag="0"/>
      <vel value="0.0294725194" flag="0"/>
      <psa03 value="0.2561677933" flag="0"/>
      <psa10 value="0.0299846972" flag="0"/>
      <psa30 value="0.0020165735" flag="0"/>
    </comp>
    <comp name="--.HHZ">
      <acc value="0.0393298089" flag="0"/>
      <vel value="0.0166427914" flag="0"/>
      <psa03 value="0.0855521702" flag="0"/>
      <psa10 value="0.0163487418" flag="0"/>
      <psa30 value="0.0006872062" flag="0"/>
    </comp>
  </station>
  <station code="PRK" name="PRK" netid="HL" insttype="120" lat="39.2456" lon="26.265">
    <comp name="--.HHE">
      <acc value="0.5205921364" flag="0"/>
      <vel value="0.2834327443" flag="0"/>
      <psa03 value="1.2945961445" flag="0"/>
      <psa10 value="0.2346730893" flag="0"/>
      <psa30 value="0.0126813910" flag="0"/>
    </comp>
    <comp name="--.HHN">
      <acc value="0.5266331026" flag="0"/>
      <vel value="0.2793490833" flag="0"/>
      <psa03 value="1.3632964817" flag="0"/>
      <psa10 value="0.2238605546" flag="0"/>
      <psa30 value="0.0103550941" flag="0"/>
    </comp>
    <comp name="--.HHZ">
      <acc value="0.3262580205" flag="0"/>
      <vel value="0.1602643279" flag="0"/>
      <psa03 value="0.9879868886" flag="0"/>
      <psa10 value="0.1135187043" flag="0"/>
      <psa30 value="0.0090151654" flag="0"/>
    </comp>
  </station>
  <station code="CHOS" name="CHOS" netid="HT" insttype="100" lat="38.3869" lon="26.0506">
    <comp name="--.HHZ">
      <acc value="0.0321711066" flag="0"/>
      <vel value="0.0199593888" flag="0"/>
      <psa03 value="0.0809611519" flag="0"/>
      <psa10 value="0.0187381486" flag="0"/>
      <psa30 value="0.0022346781" flag="0"/>
    </comp>
    <comp name="--.HHE">
      <acc value="0.0941996764" flag="0"/>
      <vel value="0.0395819892" flag="0"/>
      <psa03 value="0.1926169063" flag="0"/>
      <psa10 value="0.0190772188" flag="0"/>
      <psa30 value="0.0017969128" flag="0"/>
    </comp>
    <comp name="--.HHN">
      <acc value="0.0742354937" flag="0"/>
      <vel value="0.0392099470" flag="0"/>
      <psa03 value="0.1589575483" flag="0"/>
      <psa10 value="0.0376166864" flag="0"/>
      <psa30 value="0.0033290642" flag="0"/>
    </comp>
  </station>
  <station code="SIGR" name="SIGR" netid="HT" insttype="100" lat="39.2114" lon="25.8553">
    <comp name="--.HHN">
      <acc value="0.3900371899" flag="0"/>
      <vel value="0.2033735389" flag="0"/>
      <psa03 value="1.3372904072" flag="0"/>
      <psa10 value="0.0885721636" flag="0"/>
      <psa30 value="0.0096466502" flag="0"/>
    </comp>
    <comp name="--.HHE">
      <acc value="0.5813840844" flag="0"/>
      <vel value="0.1966197485" flag="0"/>
      <psa03 value="0.8802249045" flag="0"/>
      <psa10 value="0.0978427825" flag="0"/>
      <psa30 value="0.0084785645" flag="0"/>
    </comp>
  </station>
  <station code="BIGA" name="BIGA" netid="KO" insttype="CMG-5T" lat="40.2813" lon="27.1505">
    <comp name="--.HNE">
      <acc value="0.1428442409" flag="0"/>
      <vel value="0.0637251024" flag="0"/>
      <psa03 value="0.3006242490" flag="0"/>
      <psa10 value="0.0282821876" flag="0"/>
      <psa30 value="0.0018852338" flag="0"/>
    </comp>
    <comp name="--.HNN">
      <acc value="0.1634293237" flag="0"/>
      <vel value="0.0717346302" flag="0"/>
      <psa03 value="0.4339786005" flag="0"/>
      <psa10 value="0.0591203496" flag="0"/>
      <psa30 value="0.0034761418" flag="0"/>
    </comp>
    <comp name="--.HNZ">
      <acc value="0.0854359449" flag="0"/>
      <vel value="0.0295174425" flag="0"/>
      <psa03 value="0.1653503943" flag="0"/>
      <psa10 value="0.0230326184" flag="0"/>
      <psa30 value="0.0011618229" flag="0"/>
    </comp>
  </station>
  <station code="CANM" name="CANM" netid="KO" insttype="CMG-5T" lat="40.0113" lon="27.0529">
    <comp name="--.HNZ">
      <acc value="0.1395174289" flag="0"/>
      <vel value="0.0548674054" flag="0"/>
      <psa03 value="0.2984607635" flag="0"/>
      <psa10 value="0.0195512007" flag="0"/>
      <psa30 value="0.0019853505" flag="0"/>
    </comp>
    <comp name="--.HNE">
      <acc value="0.2296551899" flag="0"/>
      <vel value="0.0752471572" flag="0"/>
      <psa03 value="0.2675363155" flag="0"/>
      <psa10 value="0.0313633939" flag="0"/>
      <psa30 value="0.0022269918" flag="0"/>
    </comp>
    <comp name="--.HNN">
      <acc value="0.2173877188" flag="0"/>
      <vel value="0.0904051968" flag="0"/>
      <psa03 value="0.3799934104" flag="0"/>
      <psa10 value="0.0657763221" flag="0"/>
      <psa30 value="0.0037152980" flag="0"/>
    </comp>
  </station>
  <station code="ENEZ" name="ENEZ" netid="KO" insttype="120s," lat="40.7362" lon="26.153">
    <comp name="--.HHE">
      <acc value="0.0406879187" flag="0"/>
      <vel value="0.0232944708" flag="0"/>
      <psa03 value="0.1209610231" flag="0"/>
      <psa10 value="0.0289047027" flag="0"/>
      <psa30 value="0.0034672675" flag="0"/>
    </comp>
    <comp name="--.HHN">
      <acc value="0.0508424078" flag="0"/>
      <vel value="0.0253290506" flag="0"/>
      <psa03 value="0.1565403941" flag="0"/>
      <psa10 value="0.0277704211" flag="0"/>
      <psa30 value="0.0027568368" flag="0"/>
    </comp>
    <comp name="--.HHZ">
      <acc value="0.0221398203" flag="0"/>
      <vel value="0.0155212207" flag="0"/>
      <psa03 value="0.0499233713" flag="0"/>
      <psa10 value="0.0170854117" flag="0"/>
      <psa30 value="0.0015931792" flag="0"/>
    </comp>
  </station>
  <station code="ERIK" name="ERIK" netid="KO" insttype="120s," lat="40.6708" lon="26.5132">
    <comp name="--.HHN">
      <acc value="0.0589205696" flag="0"/>
      <vel value="0.0440987815" flag="0"/>
      <psa03 value="0.1647327745" flag="0"/>
      <psa10 value="0.0417198840" flag="0"/>
      <psa30 value="0.0024430789" flag="0"/>
    </comp>
    <comp name="--.HHE">
      <acc value="0.0662660987" flag="0"/>
      <vel value="0.0373415933" flag="0"/>
      <psa03 value="0.1666040883" flag="0"/>
      <psa10 value="0.0300604691" flag="0"/>
      <psa30 value="0.0018002173" flag="0"/>
    </comp>
    <comp name="--.HHZ">
      <acc value="0.0296386985" flag="0"/>
      <vel value="0.0164447418" flag="0"/>
      <psa03 value="0.0793767565" flag="0"/>
      <psa10 value="0.0266197202" flag="0"/>
      <psa30 value="0.0012308269" flag="0"/>
    </comp>
  </station>
  <station code="EZN" name="EZN" netid="KO" insttype="120s," lat="39.8255" lon="26.3247">
    <comp name="--.HHZ">
      <acc value="0.2773102849" flag="0"/>
      <vel value="0.1033595391" flag="0"/>
      <psa03 value="0.3218653026" flag="0"/>
      <psa10 value="0.0313774044" flag="0"/>
      <psa30 value="0.0026697020" flag="0"/>
    </comp>
    <comp name="--.HHE">
      <acc value="0.3639600404" flag="0"/>
      <vel value="0.1101719969" flag="0"/>
      <psa03 value="0.4409037805" flag="0"/>
      <psa10 value="0.0458348268" flag="0"/>
      <psa30 value="0.0032990955" flag="0"/>
    </comp>
  </station>
  <station code="EZNE" name="EZNE" netid="KO" insttype="CMG-5T" lat="39.756" lon="26.3655">
    <comp name="--.HNN">
      <acc value="0.7137917665" flag="0"/>
      <vel value="0.2061516592" flag="0"/>
      <psa03 value="1.2301670146" flag="0"/>
      <psa10 value="0.0604529197" flag="0"/>
      <psa30 value="0.0051619929" flag="0"/>
    </comp>
    <comp name="--.HNZ">
      <acc value="0.2954964957" flag="0"/>
      <vel value="0.0782823734" flag="0"/>
      <psa03 value="0.4588818262" flag="0"/>
      <psa10 value="0.0320295776" flag="0"/>
      <psa30 value="0.0029460713" flag="0"/>
    </comp>
    <comp name="--.HNE">
      <acc value="0.4778314207" flag="0"/>
      <vel value="0.2029690630" flag="0"/>
      <psa03 value="0.8472141618" flag="0"/>
      <psa10 value="0.0747130072" flag="0"/>
      <psa30 value="0.0054734003" flag="0"/>
    </comp>
  </station>
  <station code="GELI" name="GELI" netid="KO" insttype="30s," lat="40.398" lon="26.4742">
    <comp name="--.HHN">
      <acc value="0.1879592458" flag="0"/>
      <vel value="0.1126576426" flag="0"/>
      <psa03 value="0.3836920947" flag="0"/>
      <psa10 value="0.1001022983" flag="0"/>
      <psa30 value="0.0073708331" flag="0"/>
    </comp>
    <comp name="--.HHE">
      <acc value="0.1609555225" flag="0"/>
      <vel value="0.0906910793" flag="0"/>
      <psa03 value="0.6466590035" flag="0"/>
      <psa10 value="0.0428549618" flag="0"/>
      <psa30 value="0.0024027007" flag="0"/>
    </comp>
    <comp name="--.HHZ">
      <acc value="0.0674428995" flag="0"/>
      <vel value="0.0343352166" flag="0"/>
      <psa03 value="0.2467282719" flag="0"/>
      <psa10 value="0.0302176245" flag="0"/>
      <psa30 value="0.0012368952" flag="0"/>
    </comp>
  </station>
  <station code="GPNR" name="GPNR" netid="KO" insttype="CMG-5T" lat="39.456" lon="26.1331">
    <comp name="--.HNZ">
      <acc value="2.1223054876" flag="0"/>
      <vel value="0.4290513584" flag="0"/>
      <psa03 value="2.5164593798" flag="0"/>
      <psa10 value="0.1090597484" flag="0"/>
      <psa30 value="0.0090761614" flag="0"/>
    </comp>
    <comp name="--.HNN">
      <acc value="5.3397988874" flag="0"/>
      <vel value="1.3464500329" flag="0"/>
      <psa03 value="9.0787207297" flag="0"/>
      <psa10 value="0.3549040808" flag="0"/>
      <psa30 value="0.0373385083" flag="0"/>
    </comp>
    <comp name="--.HNE">
      <acc value="2.1584977544" flag="0"/>
      <vel value="0.5778456965" flag="0"/>
      <psa03 value="3.8249515257" flag="0"/>
      <psa10 value="0.1760210512" flag="0"/>
      <psa30 value="0.0166561255" flag="0"/>
    </comp>
  </station>
  <station code="LAP" name="LAP" netid="KO" insttype="30s," lat="40.3703" lon="26.7593">
    <comp name="--.HHN">
      <acc value="0.1419275126" flag="0"/>
      <vel value="0.0707812321" flag="0"/>
      <psa03 value="0.2440353155" flag="0"/>
      <psa10 value="0.0493155419" flag="0"/>
      <psa30 value="0.0061327556" flag="0"/>
    </comp>
    <comp name="--.HHZ">
      <acc value="0.0379442185" flag="0"/>
      <vel value="0.0229961644" flag="0"/>
      <psa03 value="0.1027998014" flag="0"/>
      <psa10 value="0.0204654490" flag="0"/>
      <psa30 value="0.0020892866" flag="0"/>
    </comp>
  </station>
  <station code="LAPK" name="LAPK" netid="KO" insttype="CMG-5T" lat="40.3151" lon="26.6425">
    <comp name="--.HNZ">
      <acc value="0.1086721233" flag="0"/>
      <vel value="0.0557993335" flag="0"/>
      <psa03 value="0.2309951331" flag="0"/>
      <psa10 value="0.0472645779" flag="0"/>
      <psa30 value="0.0023847674" flag="0"/>
    </comp>
    <comp name="--.HNN">
      <acc value="0.2128626252" flag="0"/>
      <vel value="0.1189053699" flag="0"/>
      <psa03 value="0.5351012304" flag="0"/>
      <psa10 value="0.0899929933" flag="0"/>
      <psa30 value="0.0055193308" flag="0"/>
    </comp>
    <comp name="--.HNE">
      <acc value="0.2112971645" flag="0"/>
      <vel value="0.1263154587" flag="0"/>
      <psa03 value="0.6488185614" flag="0"/>
      <psa10 value="0.1269625726" flag="0"/>
      <psa30 value="0.0048790298" flag="0"/>
    </comp>
  </station>
  <station code="YAYO" name="YAYO" netid="KO" insttype="CMG-6T" lat="39.6113" lon="27.0726">
    <comp name="--.HHE">
      <acc value="0.3637641717" flag="0"/>
      <vel value="0.2303718264" flag="0"/>
      <psa03 value="0.7540322135" flag="0"/>
      <psa10 value="0.1066066593" flag="0"/>
      <psa30 value="0.0075604196" flag="0"/>
    </comp>
    <comp name="--.HHZ">
      <acc value="0.1233457400" flag="0"/>
      <vel value="0.0545475471" flag="0"/>
      <psa03 value="0.5015080373" flag="0"/>
      <psa10 value="0.0214502247" flag="0"/>
      <psa30 value="0.0016610961" flag="0"/>
    </comp>
    <comp name="--.HHN">
      <acc value="0.3226493338" flag="0"/>
      <vel value="0.1626174810" flag="0"/>
      <psa03 value="1.0224581325" flag="0"/>
      <psa10 value="0.0637925839" flag="0"/>
      <psa30 value="0.0052457384" flag="0"/>
    </comp>
  </station>
</stationlist>
