<?xml version="1.0" encoding="UTF-8" standalone="yes"?>
<!DOCTYPE earthquake SYSTEM "stationlist.dtd">
<stationlist created="" xmlns="ch.ethz.sed.shakemap.usgs.xml">
  <station code="THERA" name="THERA" netid="GE" insttype="STS-2/N" lat="36.367" lon="25.4753">
    <comp name="--.HHE">
      <acc value="0.1800786312" flag="0"/>
      <vel value="0.0363001125" flag="0"/>
      <psa03 value="0.1061214720" flag="0"/>
      <psa10 value="0.0175324833" flag="0"/>
      <psa30 value="0.0028028055" flag="0"/>
    </comp>
    <comp name="--.HHN">
      <acc value="0.1293107234" flag="0"/>
      <vel value="0.0259992023" flag="0"/>
      <psa03 value="0.1290891422" flag="0"/>
      <psa10 value="0.0111633598" flag="0"/>
      <psa30 value="0.0019405266" flag="0"/>
    </comp>
    <comp name="--.HHZ">
      <acc value="0.1227883568" flag="0"/>
      <vel value="0.0299655839" flag="0"/>
      <psa03 value="0.0872718891" flag="0"/>
      <psa10 value="0.0125400273" flag="0"/>
      <psa30 value="0.0023241120" flag="0"/>
    </comp>
  </station>
  <station code="SNT1" name="SNT1" netid="HA" insttype="30" lat="36.4159" lon="25.4282">
    <comp name="--.HHN">
      <acc value="0.1371841478" flag="0"/>
      <vel value="0.0642778455" flag="0"/>
      <psa03 value="0.1520818974" flag="0"/>
      <psa10 value="0.0465153425" flag="0"/>
      <psa30 value="0.0069441533" flag="0"/>
    </comp>
    <comp name="--.HHE">
      <acc value="0.1486861574" flag="0"/>
      <vel value="0.0504940478" flag="0"/>
      <psa03 value="0.1660718322" flag="0"/>
      <psa10 value="0.0351302554" flag="0"/>
      <psa30 value="0.0061889927" flag="0"/>
    </comp>
    <comp name="--.HHZ">
      <acc value="0.1495263550" flag="0"/>
      <vel value="0.0338065044" flag="0"/>
      <psa03 value="0.1861051260" flag="0"/>
      <psa10 value="0.0211969165" flag="0"/>
      <psa30 value="0.0029935999" flag="0"/>
    </comp>
  </station>
  <station code="SFR2" name="SFR2" netid="HI" insttype="unknown" lat="36.3998" lon="25.4382">
    <comp name="--.HNZ">
      <acc value="0.5420532364" flag="0"/>
      <vel value="0.1149472985" flag="0"/>
      <psa03 value="0.3275596035" flag="0"/>
      <psa10 value="0.0427032661" flag="0"/>
      <psa30 value="0.0049051749" flag="0"/>
    </comp>
    <comp name="--.HNN">
      <acc value="0.4487999364" flag="0"/>
      <vel value="0.1663808278" flag="0"/>
      <psa03 value="0.7519889966" flag="0"/>
      <psa10 value="0.0874314342" flag="0"/>
      <psa30 value="0.0063126623" flag="0"/>
    </comp>
    <comp name="--.HNE">
      <acc value="0.3179854261" flag="0"/>
      <vel value="0.1439265543" flag="0"/>
      <psa03 value="0.7583884212" flag="0"/>
      <psa10 value="0.0633027312" flag="0"/>
      <psa30 value="0.0081246228" flag="0"/>
    </comp>
  </station>
  <station code="MHLO" name="MHLO" netid="HL" insttype="20" lat="36.6898" lon="24.4017">
    <comp name="--.HHN">
      <acc value="0.0839268980" flag="0"/>
      <vel value="0.0367870933" flag="0"/>
      <psa03 value="0.1874418419" flag="0"/>
      <psa10 value="0.0188660985" flag="0"/>
      <psa30 value="0.0021654515" flag="0"/>
    </comp>
    <comp name="--.HHZ">
      <acc value="0.0443938484" flag="0"/>
      <vel value="0.0241271949" flag="0"/>
      <psa03 value="0.1213590600" flag="0"/>
      <psa10 value="0.0118142467" flag="0"/>
      <psa30 value="0.0014016241" flag="0"/>
    </comp>
    <comp name="--.HHE">
      <acc value="0.0730465302" flag="0"/>
      <vel value="0.0538215755" flag="0"/>
      <psa03 value="0.2000971331" flag="0"/>
      <psa10 value="0.0240964559" flag="0"/>
      <psa30 value="0.0025440423" flag="0"/>
    </comp>
  </station>
  <station code="MILA" name="MILA" netid="HL" insttype="CMG-5" lat="36.7429" lon="24.4282">
    <comp name="00.HNN">
      <acc value="0.1903238075" flag="0"/>
      <vel value="0.1035500819" flag="0"/>
      <psa03 value="0.3667688319" flag="0"/>
      <psa10 value="0.0442288384" flag="0"/>
      <psa30 value="0.0035077698" flag="0"/>
    </comp>
    <comp name="00.HNZ">
      <acc value="0.0750736610" flag="0"/>
      <vel value="0.0284742143" flag="0"/>
      <psa03 value="0.1618849876" flag="0"/>
      <psa10 value="0.0229577820" flag="0"/>
      <psa30 value="0.0020084421" flag="0"/>
    </comp>
    <comp name="00.HNE">
      <acc value="0.1032543681" flag="0"/>
      <vel value="0.0534448981" flag="0"/>
      <psa03 value="0.2439932646" flag="0"/>
      <psa10 value="0.0278183589" flag="0"/>
      <psa30 value="0.0024687887" flag="0"/>
    </comp>
  </station>
  <station code="SANT" name="SANT" netid="HL" insttype="30" lat="36.3705" lon="25.4593">
    <comp name="--.HHE">
      <acc value="0.4978275024" flag="0"/>
      <vel value="0.1234546001" flag="0"/>
      <psa03 value="0.3405990566" flag="0"/>
      <psa10 value="0.0286838003" flag="0"/>
      <psa30 value="0.0033716642" flag="0"/>
    </comp>
    <comp name="--.HHN">
      <acc value="0.3501722592" flag="0"/>
      <vel value="0.0585408461" flag="0"/>
      <psa03 value="0.0904547653" flag="0"/>
      <psa10 value="0.0201599467" flag="0"/>
      <psa30 value="0.0034227015" flag="0"/>
    </comp>
    <comp name="--.HHZ">
      <acc value="0.4448932824" flag="0"/>
      <vel value="0.0751165613" flag="0"/>
      <psa03 value="0.1622925942" flag="0"/>
      <psa10 value="0.0174759267" flag="0"/>
      <psa30 value="0.0022228887" flag="0"/>
    </comp>
  </station>
  <station code="SAP3" name="SAP3" netid="HL" insttype="65535" lat="36.4356" lon="25.3454">
    <comp name="--.HHE">
      <acc value="0.3030240235" flag="0"/>
      <vel value="0.1046832132" flag="0"/>
      <psa03 value="0.4549737733" flag="0"/>
      <psa10 value="0.0472604484" flag="0"/>
      <psa30 value="0.0084284153" flag="0"/>
    </comp>
    <comp name="--.HHN">
      <acc value="0.2633498269" flag="0"/>
      <vel value="0.0947067385" flag="0"/>
      <psa03 value="0.4633426968" flag="0"/>
      <psa10 value="0.0477603571" flag="0"/>
      <psa30 value="0.0061034049" flag="0"/>
    </comp>
    <comp name="--.HHZ">
      <acc value="0.2594857534" flag="0"/>
      <vel value="0.0621224384" flag="0"/>
      <psa03 value="0.3365720629" flag="0"/>
      <psa10 value="0.0179570365" flag="0"/>
      <psa30 value="0.0027249075" flag="0"/>
    </comp>
  </station>
  <station code="THERA" name="THERA" netid="HL" insttype="120" lat="36.367" lon="25.4753">
    <comp name="--.HHN">
      <acc value="0.2561383339" flag="0"/>
      <vel value="0.0502254979" flag="0"/>
      <psa03 value="0.2503684278" flag="0"/>
      <psa10 value="0.0221849851" flag="0"/>
      <psa30 value="0.0038770528" flag="0"/>
    </comp>
    <comp name="--.HHE">
      <acc value="0.1758742143" flag="0"/>
      <vel value="0.0356490492" flag="0"/>
      <psa03 value="0.1031396064" flag="0"/>
      <psa10 value="0.0173615307" flag="0"/>
      <psa30 value="0.0027991437" flag="0"/>
    </comp>
    <comp name="--.HHZ">
      <acc value="0.1283377699" flag="0"/>
      <vel value="0.0292810918" flag="0"/>
      <psa03 value="0.0852020972" flag="0"/>
      <psa10 value="0.0123892630" flag="0"/>
      <psa30 value="0.0023238185" flag="0"/>
    </comp>
  </station>
  <station code="THRA" name="THRA" netid="HL" insttype="CMG-5" lat="36.415" lon="25.4324">
    <comp name="00.HNN">
      <acc value="0.3493670240" flag="0"/>
      <vel value="0.1481354741" flag="0"/>
      <psa03 value="0.7156268091" flag="0"/>
      <psa10 value="0.1762969932" flag="0"/>
      <psa30 value="0.0121755514" flag="0"/>
    </comp>
    <comp name="00.HNZ">
      <acc value="0.3231163579" flag="0"/>
      <vel value="0.1286227455" flag="0"/>
      <psa03 value="0.4226540779" flag="0"/>
      <psa10 value="0.0558783501" flag="0"/>
      <psa30 value="0.0049856311" flag="0"/>
    </comp>
    <comp name="00.HNE">
      <acc value="0.4571033355" flag="0"/>
      <vel value="0.1220471418" flag="0"/>
      <psa03 value="0.8614538000" flag="0"/>
      <psa10 value="0.0853925206" flag="0"/>
      <psa30 value="0.0112803193" flag="0"/>
    </comp>
  </station>
  <station code="TNSA" name="TNSA" netid="HL" insttype="CMG-5" lat="37.5394" lon="25.1631">
    <comp name="00.HNZ">
      <acc value="0.0481290789" flag="0"/>
      <vel value="0.0249219314" flag="0"/>
      <psa03 value="0.1343253189" flag="0"/>
      <psa10 value="0.0144853088" flag="0"/>
      <psa30 value="0.0015916801" flag="0"/>
    </comp>
    <comp name="00.HNN">
      <acc value="0.0962601830" flag="0"/>
      <vel value="0.0266994698" flag="0"/>
      <psa03 value="0.1327410617" flag="0"/>
      <psa10 value="0.0121965294" flag="0"/>
      <psa30 value="0.0010415622" flag="0"/>
    </comp>
    <comp name="00.HNE">
      <acc value="0.0736751182" flag="0"/>
      <vel value="0.0174814882" flag="0"/>
      <psa03 value="0.1008297325" flag="0"/>
      <psa10 value="0.0077072140" flag="0"/>
      <psa30 value="0.0008051660" flag="0"/>
    </comp>
  </station>
  <station code="AKRO" name="AKRO" netid="HT" insttype="Compact," lat="36.3584" lon="25.3967">
    <comp name="--.HHE">
      <acc value="0.7290087879" flag="0"/>
      <vel value="0.2640784183" flag="0"/>
      <psa03 value="0.7916859126" flag="0"/>
      <psa10 value="0.1127463475" flag="0"/>
      <psa30 value="0.0102881764" flag="0"/>
    </comp>
    <comp name="--.HHN">
      <acc value="0.7058599069" flag="0"/>
      <vel value="0.1310445489" flag="0"/>
      <psa03 value="0.4828502444" flag="0"/>
      <psa10 value="0.0451556679" flag="0"/>
      <psa30 value="0.0047852236" flag="0"/>
    </comp>
    <comp name="--.HHZ">
      <acc value="0.5855434156" flag="0"/>
      <vel value="0.1184530096" flag="0"/>
      <psa03 value="0.3551519080" flag="0"/>
      <psa10 value="0.0552428484" flag="0"/>
      <psa30 value="0.0056023966" flag="0"/>
    </comp>
  </station>
  <station code="CMBO" name="CMBO" netid="HT" insttype="120P," lat="36.4709" lon="25.4056">
    <comp name="--.HHN">
      <acc value="0.5032745908" flag="0"/>
      <vel value="0.1668948302" flag="0"/>
      <psa03 value="0.3903959598" flag="0"/>
      <psa10 value="0.1090111178" flag="0"/>
      <psa30 value="0.0079115059" flag="0"/>
    </comp>
    <comp name="--.HHE">
      <acc value="0.3221597337" flag="0"/>
      <vel value="0.0733180130" flag="0"/>
      <psa03 value="0.2900999067" flag="0"/>
      <psa10 value="0.0516715782" flag="0"/>
      <psa30 value="0.0057724641" flag="0"/>
    </comp>
    <comp name="--.HHZ">
      <acc value="0.3471122609" flag="0"/>
      <vel value="0.0928730461" flag="0"/>
      <psa03 value="0.5381196901" flag="0"/>
      <psa10 value="0.0282999854" flag="0"/>
      <psa30 value="0.0056788742" flag="0"/>
    </comp>
  </station>
</stationlist>
