<?xml version="1.0" encoding="UTF-8" standalone="yes"?>
<!DOCTYPE earthquake SYSTEM "stationlist.dtd">
<stationlist created="" xmlns="ch.ethz.sed.shakemap.usgs.xml">
  <station code="THERA" name="THERA" netid="GE" insttype="STS-2/N" lat="36.367" lon="25.4753">
    <comp name="--.HHE">
      <acc value="0.1800786312" flag="0"/>
      <vel value="0.0363001125" flag="0"/>
      <psa03 value="0.1061214720" flag="0"/>
      <psa10 value="0.0175324833" flag="0"/>
      <psa30 value="0.0028028055" flag="0"/>
    </comp>
    <comp name="--.HHN">
      <acc value="0.1293107234" flag="0"/>
      <vel value="0.0259992023" flag="0"/>
      <psa03 value="0.1290891422" flag="0"/>
      <psa10 value="0.0111633598" flag="0"/>
      <psa30 value="0.0019405266" flag="0"/>
    </comp>
    <comp name="--.HHZ">
      <acc value="0.1227883568" flag="0"/>
      <vel value="0.0299655839" flag="0"/>
      <psa03 value="0.0872718891" flag="0"/>
      <psa10 value="0.0125400273" flag="0"/>
      <psa30 value="0.0023241120" flag="0"/>
    </comp>
  </station>
</stationlist>
