<?xml version="1.0" encoding="UTF-8" standalone="yes"?>
<!DOCTYPE earthquake SYSTEM "stationlist.dtd">
<stationlist created="" xmlns="ch.ethz.sed.shakemap.usgs.xml">
  <station code="KARP" name="KARP" netid="GE" insttype="STS-2/N" lat="35.5471" lon="27.1611">
    <comp name="--.HHZ">
      <acc value="0.0196301528" flag="0"/>
      <vel value="0.0060951763" flag="0"/>
      <psa03 value="0.0234277544" flag="0"/>
      <psa10 value="0.0060691232" flag="0"/>
      <psa30 value="0.0005308102" flag="0"/>
    </comp>
    <comp name="--.HHN">
      <acc value="0.0250870725" flag="0"/>
      <vel value="0.0084083485" flag="0"/>
      <psa03 value="0.0197922376" flag="0"/>
      <psa10 value="0.0107890691" flag="0"/>
      <psa30 value="0.0005248464" flag="0"/>
    </comp>
    <comp name="--.HHE">
      <acc value="0.0244231741" flag="0"/>
      <vel value="0.0082663263" flag="0"/>
      <psa03 value="0.0410777408" flag="0"/>
      <psa10 value="0.0115391074" flag="0"/>
      <psa30 value="0.0005320539" flag="0"/>
    </comp>
  </station>
  <station code="ARG" name="ARG" netid="HL" insttype="LE3D20_DR24" lat="36.2136" lon="28.1212">
    <comp name="--.HHE">
      <acc value="0.0593086126" flag="0"/>
      <vel value="0.0319148941" flag="0"/>
      <psa03 value="0.0946038835" flag="0"/>
      <psa10 value="0.0183976973" flag="0"/>
      <psa30 value="0.0023196541" flag="0"/>
    </comp>
    <comp name="--.HHN">
      <acc value="0.0438766939" flag="0"/>
      <vel value="0.0245940710" flag="0"/>
      <psa03 value="0.1030007594" flag="0"/>
      <psa10 value="0.0115447322" flag="0"/>
      <psa30 value="0.0009806410" flag="0"/>
    </comp>
    <comp name="--.HHZ">
      <acc value="0.0191641415" flag="0"/>
      <vel value="0.0109764348" flag="0"/>
      <psa03 value="0.0280614627" flag="0"/>
      <psa10 value="0.0111702856" flag="0"/>
      <psa30 value="0.0009993717" flag="0"/>
    </comp>
  </station>
  <station code="KARP" name="KARP" netid="HL" insttype="120" lat="35.5471" lon="27.1611">
    <comp name="--.HHN">
      <acc value="0.0227901801" flag="0"/>
      <vel value="0.0081724827" flag="0"/>
      <psa03 value="0.0192768526" flag="0"/>
      <psa10 value="0.0107184896" flag="0"/>
      <psa30 value="0.0005203061" flag="0"/>
    </comp>
    <comp name="--.HHZ">
      <acc value="0.0174820730" flag="0"/>
      <vel value="0.0058986593" flag="0"/>
      <psa03 value="0.0229726455" flag="0"/>
      <psa10 value="0.0060367370" flag="0"/>
      <psa30 value="0.0005288994" flag="0"/>
    </comp>
    <comp name="--.HHE">
      <acc value="0.0224974963" flag="0"/>
      <vel value="0.0081055611" flag="0"/>
      <psa03 value="0.0402337559" flag="0"/>
      <psa10 value="0.0114612734" flag="0"/>
      <psa30 value="0.0005294994" flag="0"/>
    </comp>
  </station>
  <station code="KLNA" name="KLNA" netid="HL" insttype="CMG-5" lat="36.9571" lon="26.9727">
    <comp name="00.HNE">
      <acc value="0.0439623881" flag="0"/>
      <vel value="0.0174874348" flag="0"/>
      <psa03 value="0.1189439550" flag="0"/>
      <psa10 value="0.0066686985" flag="0"/>
      <psa30 value="0.0006183678" flag="0"/>
    </comp>
    <comp name="00.HNN">
      <acc value="0.0478668722" flag="0"/>
      <vel value="0.0139033723" flag="0"/>
      <psa03 value="0.1241387595" flag="0"/>
      <psa10 value="0.0053783821" flag="0"/>
      <psa30 value="0.0003318724" flag="0"/>
    </comp>
    <comp name="00.HNZ">
      <acc value="0.0689919836" flag="0"/>
      <vel value="0.0134588889" flag="0"/>
      <psa03 value="0.0486462160" flag="0"/>
      <psa10 value="0.0027735847" flag="0"/>
      <psa30 value="0.0002456693" flag="0"/>
    </comp>
  </station>
  <station code="NISR" name="NISR" netid="HL" insttype="65535" lat="36.6106" lon="27.131">
    <comp name="--.HHE">
      <acc value="1.3292579835" flag="0"/>
      <vel value="0.4595225441" flag="0"/>
      <psa03 value="3.4028549869" flag="0"/>
      <psa10 value="0.1350276152" flag="0"/>
      <psa30 value="0.0122357029" flag="0"/>
    </comp>
    <comp name="--.HHN">
      <acc value="1.1078278612" flag="0"/>
      <vel value="0.2119658445" flag="0"/>
      <psa03 value="0.8867982293" flag="0"/>
      <psa10 value="0.0795601472" flag="0"/>
      <psa30 value="0.0461177034" flag="0"/>
    </comp>
    <comp name="--.HHZ">
      <acc value="0.4262115709" flag="0"/>
      <vel value="0.1072920905" flag="0"/>
      <psa03 value="0.6443179744" flag="0"/>
      <psa10 value="0.0645760140" flag="0"/>
      <psa30 value="0.0037342418" flag="0"/>
    </comp>
  </station>
</stationlist>
