<stationlist created="1778069309">
	<station code="SHAB" name="SHAB" netid="BS" source="National Seismic Network of Bulgaria (BS)" insttype="" lat="43.5389" lon="28.6057">
		<comp name="--.HNE" depth="0.0">
			<acc value="0.0242973852094855" flag="0"/>
			<vel value="0.0042693778722107" flag="0"/>
			<psa03 value="0.0177626560274539" flag="0"/>
			<psa10 value="0.0023637307756433" flag="0"/>
			<psa30 value="0.000353016010218164" flag="0"/>
		</comp>
		<comp name="--.HNN" depth="0.0">
			<acc value="0.021628874207493" flag="0"/>
			<vel value="0.00501403014366533" flag="0"/>
			<psa03 value="0.0187917267796741" flag="0"/>
			<psa10 value="0.00168320181297938" flag="0"/>
			<psa30 value="0.000201339929782223" flag="0"/>
		</comp>
		<comp name="--.HNZ" depth="0.0">
			<acc value="0.00951258134811799" flag="0"/>
			<vel value="0.00280616647257077" flag="0"/>
			<psa03 value="0.0130647243325354" flag="0"/>
			<psa10 value="0.00245232034474747" flag="0"/>
			<psa30 value="0.000175389449943625" flag="0"/>
		</comp>
	</station>
	<station code="CTISU" name="CTISU" netid="RO" source="Romanian Seismic Network (NIEP)" insttype="" lat="44.184" lon="28.6491">
		<comp name="--.HNE" depth="0.0">
			<acc value="0.0225596170671329" flag="0"/>
			<vel value="0.0101985450111485" flag="0"/>
			<psa03 value="0.0501112714124644" flag="0"/>
			<psa10 value="0.0030885545228593" flag="0"/>
			<psa30 value="0.000295745985746776" flag="0"/>
		</comp>
		<comp name="--.HNN" depth="0.0">
			<acc value="0.0227828003011154" flag="0"/>
			<vel value="0.00934684130238832" flag="0"/>
			<psa03 value="0.0521246707102866" flag="0"/>
			<psa10 value="0.00436504967767859" flag="0"/>
			<psa30 value="0.000286797544423122" flag="0"/>
		</comp>
		<comp name="--.HNZ" depth="0.0">
			<acc value="0.0169098903827234" flag="0"/>
			<vel value="0.00451326865979697" flag="0"/>
			<psa03 value="0.0178968826473087" flag="0"/>
			<psa10 value="0.00150602267477103" flag="0"/>
			<psa30 value="0.000140490528781373" flag="0"/>
		</comp>
	</station>
</stationlist>
