<?xml version="1.0" encoding="UTF-8" standalone="yes"?>
<!DOCTYPE earthquake SYSTEM "stationlist.dtd">
<stationlist created="" xmlns="ch.ethz.sed.shakemap.usgs.xml">
  <station code="ATHR" name="ATHR" netid="HA" insttype="GEOtiny," lat="38.3172" lon="20.4165">
    <comp name="--.HHN">
      <acc value="0.0777585903" flag="0"/>
      <vel value="0.0699024730" flag="0"/>
      <psa03 value="0.2311970992" flag="0"/>
      <psa10 value="0.0853827433" flag="0"/>
      <psa30 value="0.0075461098" flag="0"/>
    </comp>
    <comp name="--.HHE">
      <acc value="0.1214707318" flag="0"/>
      <vel value="0.0999797952" flag="0"/>
      <psa03 value="0.2886668601" flag="0"/>
      <psa10 value="0.1336118265" flag="0"/>
      <psa30 value="0.0075516351" flag="0"/>
    </comp>
    <comp name="--.HHZ">
      <acc value="0.0712170661" flag="0"/>
      <vel value="0.0408228504" flag="0"/>
      <psa03 value="0.1297201018" flag="0"/>
      <psa10 value="0.0678258057" flag="0"/>
      <psa30 value="0.0034269024" flag="0"/>
    </comp>
  </station>
  <station code="HAVD" name="HAVD" netid="HA" insttype="GEOtiny," lat="38.2036" lon="20.3848">
    <comp name="--.HHN">
      <acc value="0.4395762876" flag="0"/>
      <vel value="0.3502294090" flag="0"/>
      <psa03 value="0.6888646414" flag="0"/>
      <psa10 value="0.4532802565" flag="0"/>
      <psa30 value="0.0234852312" flag="0"/>
    </comp>
    <comp name="--.HHE">
      <acc value="0.4058577762" flag="0"/>
      <vel value="0.1117770661" flag="0"/>
      <psa03 value="0.2895075877" flag="0"/>
      <psa10 value="0.1398919826" flag="0"/>
      <psa30 value="0.0068939546" flag="0"/>
    </comp>
    <comp name="--.HHZ">
      <acc value="0.3126992781" flag="0"/>
      <vel value="0.1107267255" flag="0"/>
      <psa03 value="0.2885074822" flag="0"/>
      <psa10 value="0.0806102751" flag="0"/>
      <psa30 value="0.0070468947" flag="0"/>
    </comp>
  </station>
  <station code="ARG2" name="ARG2" netid="HI" insttype="CMG-5TD,ACCELEROMETER,GURALP" lat="38.1783" lon="20.4878">
    <comp name="--.HNZ">
      <acc value="0.6184123867" flag="0"/>
      <vel value="0.1289106269" flag="0"/>
      <psa03 value="0.5020936009" flag="0"/>
      <psa10 value="0.0498065764" flag="0"/>
      <psa30 value="0.0041525383" flag="0"/>
    </comp>
    <comp name="--.HNE">
      <acc value="0.7096835165" flag="0"/>
      <vel value="0.2498265132" flag="0"/>
      <psa03 value="0.7472204918" flag="0"/>
      <psa10 value="0.1079746338" flag="0"/>
      <psa30 value="0.0099809065" flag="0"/>
    </comp>
    <comp name="--.HNN">
      <acc value="0.6766392642" flag="0"/>
      <vel value="0.2440202327" flag="0"/>
      <psa03 value="0.8617546975" flag="0"/>
      <psa10 value="0.1541257754" flag="0"/>
      <psa30 value="0.0129395466" flag="0"/>
    </comp>
  </station>
  <station code="KRI1" name="KRI1" netid="HI" insttype="CMG-5TD,ACCELEROMETER,GURALP" lat="37.6621" lon="20.8172">
    <comp name="--.HNZ">
      <acc value="0.0942034092" flag="0"/>
      <vel value="0.0340021354" flag="0"/>
      <psa03 value="0.1405344681" flag="0"/>
      <psa10 value="0.0199756246" flag="0"/>
      <psa30 value="0.0014233999" flag="0"/>
    </comp>
    <comp name="--.HNN">
      <acc value="0.1518795204" flag="0"/>
      <vel value="0.0742549235" flag="0"/>
      <psa03 value="0.3077991771" flag="0"/>
      <psa10 value="0.0487195874" flag="0"/>
      <psa30 value="0.0027891919" flag="0"/>
    </comp>
    <comp name="--.HNE">
      <acc value="0.1320154002" flag="0"/>
      <vel value="0.0561805858" flag="0"/>
      <psa03 value="0.2170438507" flag="0"/>
      <psa10 value="0.0320260202" flag="0"/>
      <psa30 value="0.0026473409" flag="0"/>
    </comp>
  </station>
  <station code="MSL1" name="MSL1" netid="HI" insttype="CMG-5TD,ACCELEROMETER,GURALP" lat="38.3727" lon="21.4243">
    <comp name="--.HNZ">
      <acc value="0.0266898894" flag="0"/>
      <vel value="0.0198060731" flag="0"/>
      <psa03 value="0.0577933249" flag="0"/>
      <psa10 value="0.0501974029" flag="0"/>
      <psa30 value="0.0016125162" flag="0"/>
    </comp>
    <comp name="--.HNN">
      <acc value="0.0609854268" flag="0"/>
      <vel value="0.0462419833" flag="0"/>
      <psa03 value="0.1653827415" flag="0"/>
      <psa10 value="0.0810603888" flag="0"/>
      <psa30 value="0.0059851832" flag="0"/>
    </comp>
    <comp name="--.HNE">
      <acc value="0.0580903182" flag="0"/>
      <vel value="0.0426698019" flag="0"/>
      <psa03 value="0.1602271436" flag="0"/>
      <psa10 value="0.0836750929" flag="0"/>
      <psa30 value="0.0059397754" flag="0"/>
    </comp>
  </station>
  <station code="ORTH" name="ORTH" netid="HL" insttype="30" lat="37.8511" lon="20.6963">
    <comp name="--.HHN">
      <acc value="0.2543140412" flag="0"/>
      <vel value="0.1070731133" flag="0"/>
      <psa03 value="0.5270399861" flag="0"/>
      <psa10 value="0.0526411837" flag="0"/>
      <psa30 value="0.0058951004" flag="0"/>
    </comp>
    <comp name="--.HHZ">
      <acc value="0.0776241114" flag="0"/>
      <vel value="0.0248921981" flag="0"/>
      <psa03 value="0.0852420279" flag="0"/>
      <psa10 value="0.0197975702" flag="0"/>
      <psa30 value="0.0015428390" flag="0"/>
    </comp>
    <comp name="--.HHE">
      <acc value="0.2577934073" flag="0"/>
      <vel value="0.0691628330" flag="0"/>
      <psa03 value="0.2715651436" flag="0"/>
      <psa10 value="0.0507457027" flag="0"/>
      <psa30 value="0.0024342509" flag="0"/>
    </comp>
  </station>
  <station code="RLS" name="RLS" netid="HL" insttype="CMG3ESPC-120s" lat="38.0559" lon="21.4647">
    <comp name="--.HHE">
      <acc value="0.0111285187" flag="0"/>
      <vel value="0.0068092936" flag="0"/>
      <psa03 value="0.0299887755" flag="0"/>
      <psa10 value="0.0091228170" flag="0"/>
      <psa30 value="0.0005368921" flag="0"/>
    </comp>
    <comp name="--.HHN">
      <acc value="0.0156154332" flag="0"/>
      <vel value="0.0084165732" flag="0"/>
      <psa03 value="0.0469020196" flag="0"/>
      <psa10 value="0.0069075184" flag="0"/>
      <psa30 value="0.0005907078" flag="0"/>
    </comp>
    <comp name="--.HHZ">
      <acc value="0.0094042432" flag="0"/>
      <vel value="0.0035172846" flag="0"/>
      <psa03 value="0.0153941585" flag="0"/>
      <psa10 value="0.0064061576" flag="0"/>
      <psa30 value="0.0007965516" flag="0"/>
    </comp>
  </station>
  <station code="VLS" name="VLS" netid="HL" insttype="120P," lat="38.1768" lon="20.5886">
    <comp name="--.HHE">
      <acc value="1.0243879034" flag="0"/>
      <vel value="0.2160233283" flag="0"/>
      <psa03 value="0.7857102011" flag="0"/>
      <psa10 value="0.0464777913" flag="0"/>
      <psa30 value="0.0048234843" flag="0"/>
    </comp>
    <comp name="--.HHZ">
      <acc value="0.3365290388" flag="0"/>
      <vel value="0.0850510124" flag="0"/>
      <psa03 value="0.2706250058" flag="0"/>
      <psa10 value="0.0327659284" flag="0"/>
      <psa30 value="0.0025827262" flag="0"/>
    </comp>
    <comp name="--.HHN">
      <acc value="0.7107090840" flag="0"/>
      <vel value="0.2236561789" flag="0"/>
      <psa03 value="0.7752529539" flag="0"/>
      <psa10 value="0.1010076757" flag="0"/>
      <psa30 value="0.0085311041" flag="0"/>
    </comp>
  </station>
  <station code="AXS" name="AXS" netid="HP" insttype="Compact," lat="38.1962" lon="21.3763">
    <comp name="--.HHE">
      <acc value="0.0101038673" flag="0"/>
      <vel value="0.0041730847" flag="0"/>
      <psa03 value="0.0256322463" flag="0"/>
      <psa10 value="0.0038071995" flag="0"/>
      <psa30 value="0.0007047440" flag="0"/>
    </comp>
    <comp name="--.HHN">
      <acc value="0.0118688476" flag="0"/>
      <vel value="0.0090641316" flag="0"/>
      <psa03 value="0.0395026248" flag="0"/>
      <psa10 value="0.0133487592" flag="0"/>
      <psa30 value="0.0008830902" flag="0"/>
    </comp>
    <comp name="--.HHZ">
      <acc value="0.0081969034" flag="0"/>
      <vel value="0.0065965780" flag="0"/>
      <psa03 value="0.0224805763" flag="0"/>
      <psa10 value="0.0082436521" flag="0"/>
      <psa30 value="0.0005972348" flag="0"/>
    </comp>
  </station>
  <station code="FSK" name="FSK" netid="HP" insttype="40," lat="38.4593" lon="20.5623">
    <comp name="--.HHE">
      <acc value="0.0702616027" flag="0"/>
      <vel value="0.0425870600" flag="0"/>
      <psa03 value="0.1015273855" flag="0"/>
      <psa10 value="0.0306709383" flag="0"/>
      <psa30 value="0.0083588752" flag="0"/>
    </comp>
    <comp name="--.HHN">
      <acc value="0.0397373814" flag="0"/>
      <vel value="0.0246913911" flag="0"/>
      <psa03 value="0.0573615759" flag="0"/>
      <psa10 value="0.0544164605" flag="0"/>
      <psa30 value="0.0032113867" flag="0"/>
    </comp>
    <comp name="--.HHZ">
      <acc value="0.0382936734" flag="0"/>
      <vel value="0.0193059536" flag="0"/>
      <psa03 value="0.0686054973" flag="0"/>
      <psa10 value="0.0207434115" flag="0"/>
      <psa30 value="0.0020466703" flag="0"/>
    </comp>
  </station>
  <station code="LTHK" name="LTHK" netid="HP" insttype="40," lat="37.7095" lon="20.8367">
    <comp name="--.HHE">
      <acc value="0.2599402603" flag="0"/>
      <vel value="0.0674596367" flag="0"/>
      <psa03 value="0.2122248575" flag="0"/>
      <psa10 value="0.0305579571" flag="0"/>
      <psa30 value="0.0018123319" flag="0"/>
    </comp>
    <comp name="--.HHN">
      <acc value="0.2450036669" flag="0"/>
      <vel value="0.0735119591" flag="0"/>
      <psa03 value="0.4911326030" flag="0"/>
      <psa10 value="0.0397193376" flag="0"/>
      <psa30 value="0.0028272567" flag="0"/>
    </comp>
    <comp name="--.HHZ">
      <acc value="0.1069955508" flag="0"/>
      <vel value="0.0326902125" flag="0"/>
      <psa03 value="0.1149080378" flag="0"/>
      <psa10 value="0.0174678419" flag="0"/>
      <psa30 value="0.0014650275" flag="0"/>
    </comp>
  </station>
  <station code="PDO" name="PDO" netid="HP" insttype="120s" lat="38.5986" lon="21.1833">
    <comp name="--.HHZ">
      <acc value="0.0340831908" flag="0"/>
      <vel value="0.0159085696" flag="0"/>
      <psa03 value="0.1588194284" flag="0"/>
      <psa10 value="0.0130555618" flag="0"/>
      <psa30 value="0.0012209568" flag="0"/>
    </comp>
    <comp name="--.HHN">
      <acc value="0.0564132971" flag="0"/>
      <vel value="0.0423708357" flag="0"/>
      <psa03 value="0.2028908100" flag="0"/>
      <psa10 value="0.0329131355" flag="0"/>
      <psa30 value="0.0037277941" flag="0"/>
    </comp>
    <comp name="--.HHE">
      <acc value="0.0664927634" flag="0"/>
      <vel value="0.0319648897" flag="0"/>
      <psa03 value="0.2580784702" flag="0"/>
      <psa10 value="0.0267570687" flag="0"/>
      <psa30 value="0.0033784041" flag="0"/>
    </comp>
  </station>
  <station code="DMLN" name="DMLN" netid="HT" insttype="1s-100Hz," lat="38.2385" lon="20.3734">
    <comp name="--.HHE">
      <acc value="0.7502360650" flag="0"/>
      <vel value="0.4120159210" flag="0"/>
      <psa03 value="0.8263648846" flag="0"/>
      <psa10 value="0.3909075560" flag="0"/>
      <psa30 value="0.0261894086" flag="0"/>
    </comp>
    <comp name="--.HHN">
      <acc value="0.6527453905" flag="0"/>
      <vel value="0.4097384952" flag="0"/>
      <psa03 value="0.8547378544" flag="0"/>
      <psa10 value="0.3874724644" flag="0"/>
      <psa30 value="0.0191974289" flag="0"/>
    </comp>
    <comp name="--.HHZ">
      <acc value="0.5238975394" flag="0"/>
      <vel value="0.1475576618" flag="0"/>
      <psa03 value="0.3402327409" flag="0"/>
      <psa10 value="0.1091393126" flag="0"/>
      <psa30 value="0.0084272961" flag="0"/>
    </comp>
  </station>
  <station code="DRAG" name="DRAG" netid="HT" insttype="30s-100Hz," lat="38.6839" lon="20.5746">
    <comp name="--.HHE">
      <acc value="0.3131790749" flag="0"/>
      <vel value="0.0956696271" flag="0"/>
      <psa03 value="0.4449222543" flag="0"/>
      <psa10 value="0.0410594198" flag="0"/>
      <psa30 value="0.0034434737" flag="0"/>
    </comp>
    <comp name="--.HHN">
      <acc value="0.1984845665" flag="0"/>
      <vel value="0.0781750960" flag="0"/>
      <psa03 value="0.3302223236" flag="0"/>
      <psa10 value="0.0435285288" flag="0"/>
      <psa30 value="0.0031705522" flag="0"/>
    </comp>
    <comp name="--.HHZ">
      <acc value="0.0815314771" flag="0"/>
      <vel value="0.0205083310" flag="0"/>
      <psa03 value="0.0782033120" flag="0"/>
      <psa10 value="0.0160700197" flag="0"/>
      <psa30 value="0.0015992403" flag="0"/>
    </comp>
  </station>
  <station code="EVGI" name="EVGI" netid="HT" insttype="30" lat="38.621" lon="20.656">
    <comp name="--.HHZ">
      <acc value="0.0928726129" flag="0"/>
      <vel value="0.0228275638" flag="0"/>
      <psa03 value="0.1268916215" flag="0"/>
      <psa10 value="0.0114566516" flag="0"/>
      <psa30 value="0.0012580581" flag="0"/>
    </comp>
    <comp name="--.HHN">
      <acc value="0.1251259275" flag="0"/>
      <vel value="0.0366212223" flag="0"/>
      <psa03 value="0.1284591352" flag="0"/>
      <psa10 value="0.0143223364" flag="0"/>
      <psa30 value="0.0020183001" flag="0"/>
    </comp>
    <comp name="--.HHE">
      <acc value="0.1736056830" flag="0"/>
      <vel value="0.0652071994" flag="0"/>
      <psa03 value="0.2233763714" flag="0"/>
      <psa10 value="0.0165809322" flag="0"/>
      <psa30 value="0.0024810058" flag="0"/>
    </comp>
  </station>
  <station code="LKD2" name="LKD2" netid="HT" insttype="100" lat="38.7889" lon="20.6578">
    <comp name="--.HHE">
      <acc value="0.0918817178" flag="0"/>
      <vel value="0.0510038559" flag="0"/>
      <psa03 value="0.1921016574" flag="0"/>
      <psa10 value="0.0452099066" flag="0"/>
      <psa30 value="0.0027798282" flag="0"/>
    </comp>
    <comp name="--.HHN">
      <acc value="0.0647251491" flag="0"/>
      <vel value="0.0303859917" flag="0"/>
      <psa03 value="0.1427427949" flag="0"/>
      <psa10 value="0.0420257602" flag="0"/>
      <psa30 value="0.0026730770" flag="0"/>
    </comp>
    <comp name="--.HHZ">
      <acc value="0.0514260520" flag="0"/>
      <vel value="0.0286276937" flag="0"/>
      <psa03 value="0.0820729861" flag="0"/>
      <psa10 value="0.0203884079" flag="0"/>
      <psa30 value="0.0011563859" flag="0"/>
    </comp>
  </station>
  <station code="NYDR" name="NYDR" netid="HT" insttype="1s-100Hz," lat="38.7135" lon="20.6983">
    <comp name="--.HHN">
      <acc value="0.0731886105" flag="0"/>
      <vel value="0.0331069972" flag="0"/>
      <psa03 value="0.1499220538" flag="0"/>
      <psa10 value="0.0331428797" flag="0"/>
      <psa30 value="0.0021928541" flag="0"/>
    </comp>
    <comp name="--.HHE">
      <acc value="0.1059406616" flag="0"/>
      <vel value="0.0642181292" flag="0"/>
      <psa03 value="0.2080145073" flag="0"/>
      <psa10 value="0.0775842966" flag="0"/>
      <psa30 value="0.0044231246" flag="0"/>
    </comp>
    <comp name="--.HHZ">
      <acc value="0.0497455982" flag="0"/>
      <vel value="0.0274513882" flag="0"/>
      <psa03 value="0.1309561548" flag="0"/>
      <psa10 value="0.0226180499" flag="0"/>
      <psa30 value="0.0015605913" flag="0"/>
    </comp>
  </station>
  <station code="PSDA" name="PSDA" netid="HT" insttype="30" lat="38.114" lon="20.5841">
    <comp name="--.HHE">
      <acc value="0.4740569961" flag="0"/>
      <vel value="0.1371652370" flag="0"/>
      <psa03 value="0.6446797135" flag="0"/>
      <psa10 value="0.0592755738" flag="0"/>
      <psa30 value="0.0045527756" flag="0"/>
    </comp>
    <comp name="--.HHZ">
      <acc value="0.2931482108" flag="0"/>
      <vel value="0.0727262104" flag="0"/>
      <psa03 value="0.3586053258" flag="0"/>
      <psa10 value="0.0364245992" flag="0"/>
      <psa30 value="0.0028775919" flag="0"/>
    </comp>
    <comp name="--.HHN">
      <acc value="0.3797273381" flag="0"/>
      <vel value="0.1064023966" flag="0"/>
      <psa03 value="0.4549425162" flag="0"/>
      <psa10 value="0.0844018795" flag="0"/>
      <psa30 value="0.0067734242" flag="0"/>
    </comp>
  </station>
  <station code="RTZL" name="RTZL" netid="HT" insttype="Compact," lat="38.076" lon="20.7715">
    <comp name="--.HHZ">
      <acc value="0.0887578076" flag="0"/>
      <vel value="0.0219108152" flag="0"/>
      <psa03 value="0.0779501928" flag="0"/>
      <psa10 value="0.0151010346" flag="0"/>
      <psa30 value="0.0011468869" flag="0"/>
    </comp>
    <comp name="--.HHN">
      <acc value="0.1343536438" flag="0"/>
      <vel value="0.0344182871" flag="0"/>
      <psa03 value="0.1296190840" flag="0"/>
      <psa10 value="0.0271438802" flag="0"/>
      <psa30 value="0.0018789780" flag="0"/>
    </comp>
    <comp name="--.HHE">
      <acc value="0.1890422742" flag="0"/>
      <vel value="0.0491535445" flag="0"/>
      <psa03 value="0.1824315826" flag="0"/>
      <psa10 value="0.0288444339" flag="0"/>
      <psa30 value="0.0015291725" flag="0"/>
    </comp>
  </station>
  <station code="TSLK" name="TSLK" netid="HT" insttype="1s-100Hz," lat="38.8249" lon="20.6554">
    <comp name="--.HHN">
      <acc value="0.0763929024" flag="0"/>
      <vel value="0.0699398923" flag="0"/>
      <psa03 value="0.1943857561" flag="0"/>
      <psa10 value="0.1181703346" flag="0"/>
      <psa30 value="0.0053983838" flag="0"/>
    </comp>
    <comp name="--.HHZ">
      <acc value="0.0490255493" flag="0"/>
      <vel value="0.0274368597" flag="0"/>
      <psa03 value="0.1260097640" flag="0"/>
      <psa10 value="0.0193291988" flag="0"/>
      <psa30 value="0.0017059090" flag="0"/>
    </comp>
    <comp name="--.HHE">
      <acc value="0.0832287028" flag="0"/>
      <vel value="0.0686958485" flag="0"/>
      <psa03 value="0.2272008190" flag="0"/>
      <psa10 value="0.1310442976" flag="0"/>
      <psa30 value="0.0053040763" flag="0"/>
    </comp>
  </station>
</stationlist>
