<?xml version="1.0" encoding="UTF-8" standalone="yes"?>
<!DOCTYPE earthquake SYSTEM "stationlist.dtd">
<stationlist created="" xmlns="ch.ethz.sed.shakemap.usgs.xml">
  <station code="AGRP" name="AGRP" netid="CL" insttype="CMG40-T" lat="38.3959" lon="21.7228">
    <comp name="00.HHE">
      <acc value="0.0106360124" flag="0"/>
      <vel value="0.0056429877" flag="0"/>
      <psa03 value="0.0287736384" flag="0"/>
      <psa10 value="0.0065710648" flag="0"/>
      <psa30 value="0.0009654419" flag="0"/>
    </comp>
    <comp name="00.HHN">
      <acc value="0.0104327963" flag="0"/>
      <vel value="0.0087762098" flag="0"/>
      <psa03 value="0.0286829591" flag="0"/>
      <psa10 value="0.0094220762" flag="0"/>
      <psa30 value="0.0015534438" flag="0"/>
    </comp>
    <comp name="00.HHZ">
      <acc value="0.0079886669" flag="0"/>
      <vel value="0.0050927033" flag="0"/>
      <psa03 value="0.0199972130" flag="0"/>
      <psa10 value="0.0061868567" flag="0"/>
      <psa30 value="0.0005123597" flag="0"/>
    </comp>
  </station>
</stationlist>
