<?xml version="1.0" encoding="UTF-8" standalone="yes"?>
<!DOCTYPE earthquake SYSTEM "stationlist.dtd">
<stationlist created="" xmlns="ch.ethz.sed.shakemap.usgs.xml">
  <station code="AGRP" name="AGRP" netid="CL" insttype="CMG40-T" lat="38.3959" lon="21.7228">
    <comp name="00.HHE">
      <acc value="0.0106360124" flag="0"/>
      <vel value="0.0056429877" flag="0"/>
      <psa03 value="0.0287736384" flag="0"/>
      <psa10 value="0.0065710648" flag="0"/>
      <psa30 value="0.0009654419" flag="0"/>
    </comp>
    <comp name="00.HHN">
      <acc value="0.0104327963" flag="0"/>
      <vel value="0.0087762098" flag="0"/>
      <psa03 value="0.0286829591" flag="0"/>
      <psa10 value="0.0094220762" flag="0"/>
      <psa30 value="0.0015534438" flag="0"/>
    </comp>
    <comp name="00.HHZ">
      <acc value="0.0079886669" flag="0"/>
      <vel value="0.0050927033" flag="0"/>
      <psa03 value="0.0199972130" flag="0"/>
      <psa10 value="0.0061868567" flag="0"/>
      <psa30 value="0.0005123597" flag="0"/>
    </comp>
  </station>
  <station code="ATHR" name="ATHR" netid="HA" insttype="GEOtiny," lat="38.3172" lon="20.4165">
    <comp name="--.HHZ">
      <acc value="0.0712170640" flag="0"/>
      <vel value="0.0408228321" flag="0"/>
      <psa03 value="0.1297201019" flag="0"/>
      <psa10 value="0.0678258054" flag="0"/>
      <psa30 value="0.0034268552" flag="0"/>
    </comp>
    <comp name="--.HHN">
      <acc value="0.0777585921" flag="0"/>
      <vel value="0.0699025518" flag="0"/>
      <psa03 value="0.2311970999" flag="0"/>
      <psa10 value="0.0853827424" flag="0"/>
      <psa30 value="0.0075460996" flag="0"/>
    </comp>
    <comp name="--.HHE">
      <acc value="0.1214707363" flag="0"/>
      <vel value="0.0999802540" flag="0"/>
      <psa03 value="0.2886668604" flag="0"/>
      <psa10 value="0.1336118266" flag="0"/>
      <psa30 value="0.0075520553" flag="0"/>
    </comp>
  </station>
  <station code="HAVD" name="HAVD" netid="HA" insttype="GEOtiny," lat="38.2036" lon="20.3848">
    <comp name="--.HHE">
      <acc value="0.4058577722" flag="0"/>
      <vel value="0.1117752560" flag="0"/>
      <psa03 value="0.2895075872" flag="0"/>
      <psa10 value="0.1398919827" flag="0"/>
      <psa30 value="0.0068938810" flag="0"/>
    </comp>
    <comp name="--.HHN">
      <acc value="0.4395762806" flag="0"/>
      <vel value="0.3502254912" flag="0"/>
      <psa03 value="0.6888646413" flag="0"/>
      <psa10 value="0.4532802472" flag="0"/>
      <psa30 value="0.0234854371" flag="0"/>
    </comp>
    <comp name="--.HHZ">
      <acc value="0.3126992791" flag="0"/>
      <vel value="0.1107263252" flag="0"/>
      <psa03 value="0.2885074824" flag="0"/>
      <psa10 value="0.0806102743" flag="0"/>
      <psa30 value="0.0070470040" flag="0"/>
    </comp>
  </station>
  <station code="KRI1" name="KRI1" netid="HI" insttype="CMG-5TD,ACCELEROMETER,GURALP" lat="37.6621" lon="20.8172">
    <comp name="--.HNE">
      <acc value="0.1320153975" flag="0"/>
      <vel value="0.0561805849" flag="0"/>
      <psa03 value="0.2170438507" flag="0"/>
      <psa10 value="0.0320260187" flag="0"/>
      <psa30 value="0.0026474934" flag="0"/>
    </comp>
    <comp name="--.HNN">
      <acc value="0.1518795204" flag="0"/>
      <vel value="0.0742549227" flag="0"/>
      <psa03 value="0.3077991771" flag="0"/>
      <psa10 value="0.0487195874" flag="0"/>
      <psa30 value="0.0027893580" flag="0"/>
    </comp>
    <comp name="--.HNZ">
      <acc value="0.0942033943" flag="0"/>
      <vel value="0.0340021348" flag="0"/>
      <psa03 value="0.1405344681" flag="0"/>
      <psa10 value="0.0199756245" flag="0"/>
      <psa30 value="0.0014236151" flag="0"/>
    </comp>
  </station>
  <station code="MSL1" name="MSL1" netid="HI" insttype="CMG-5TD,ACCELEROMETER,GURALP" lat="38.3727" lon="21.4243">
    <comp name="--.HNN">
      <acc value="0.0609854344" flag="0"/>
      <vel value="0.0462419863" flag="0"/>
      <psa03 value="0.1653827415" flag="0"/>
      <psa10 value="0.0810603888" flag="0"/>
      <psa30 value="0.0059852970" flag="0"/>
    </comp>
    <comp name="--.HNE">
      <acc value="0.0580903136" flag="0"/>
      <vel value="0.0426697963" flag="0"/>
      <psa03 value="0.1602271436" flag="0"/>
      <psa10 value="0.0836750929" flag="0"/>
      <psa30 value="0.0059398284" flag="0"/>
    </comp>
    <comp name="--.HNZ">
      <acc value="0.0266898777" flag="0"/>
      <vel value="0.0198060715" flag="0"/>
      <psa03 value="0.0577933249" flag="0"/>
      <psa10 value="0.0501974029" flag="0"/>
      <psa30 value="0.0016125250" flag="0"/>
    </comp>
  </station>
  <station code="ORTH" name="ORTH" netid="HL" insttype="30" lat="37.8511" lon="20.6963">
    <comp name="--.HHE">
      <acc value="0.2577934059" flag="0"/>
      <vel value="0.0691628360" flag="0"/>
      <psa03 value="0.2715651436" flag="0"/>
      <psa10 value="0.0507457026" flag="0"/>
      <psa30 value="0.0024342975" flag="0"/>
    </comp>
    <comp name="--.HHZ">
      <acc value="0.0776241119" flag="0"/>
      <vel value="0.0248921935" flag="0"/>
      <psa03 value="0.0852420279" flag="0"/>
      <psa10 value="0.0197975709" flag="0"/>
      <psa30 value="0.0015428654" flag="0"/>
    </comp>
    <comp name="--.HHN">
      <acc value="0.2543140429" flag="0"/>
      <vel value="0.1070731157" flag="0"/>
      <psa03 value="0.5270399861" flag="0"/>
      <psa10 value="0.0526411853" flag="0"/>
      <psa30 value="0.0058947161" flag="0"/>
    </comp>
  </station>
  <station code="PATC" name="PATC" netid="HL" insttype="CMG-5" lat="38.2693" lon="21.76">
    <comp name="00.HNZ">
      <acc value="0.0173288040" flag="0"/>
      <vel value="0.0102364564" flag="0"/>
      <psa03 value="0.0321946760" flag="0"/>
      <psa10 value="0.0166579747" flag="0"/>
      <psa30 value="0.0014815991" flag="0"/>
    </comp>
    <comp name="00.HNN">
      <acc value="0.0189905789" flag="0"/>
      <vel value="0.0230145593" flag="0"/>
      <psa03 value="0.0441409883" flag="0"/>
      <psa10 value="0.0413001097" flag="0"/>
      <psa30 value="0.0037827384" flag="0"/>
    </comp>
    <comp name="00.HNE">
      <acc value="0.0239209365" flag="0"/>
      <vel value="0.0253130882" flag="0"/>
      <psa03 value="0.0846720048" flag="0"/>
      <psa10 value="0.0432466236" flag="0"/>
      <psa30 value="0.0030634125" flag="0"/>
    </comp>
  </station>
  <station code="RLS" name="RLS" netid="HL" insttype="CMG3ESPC-120s" lat="38.0559" lon="21.4647">
    <comp name="--.HHZ">
      <acc value="0.0094042425" flag="0"/>
      <vel value="0.0035172846" flag="0"/>
      <psa03 value="0.0153941585" flag="0"/>
      <psa10 value="0.0064061576" flag="0"/>
      <psa30 value="0.0007965542" flag="0"/>
    </comp>
    <comp name="--.HHN">
      <acc value="0.0156154331" flag="0"/>
      <vel value="0.0084165720" flag="0"/>
      <psa03 value="0.0469020196" flag="0"/>
      <psa10 value="0.0069075184" flag="0"/>
      <psa30 value="0.0005907050" flag="0"/>
    </comp>
    <comp name="--.HHE">
      <acc value="0.0111285159" flag="0"/>
      <vel value="0.0068092943" flag="0"/>
      <psa03 value="0.0299887755" flag="0"/>
      <psa10 value="0.0091228170" flag="0"/>
      <psa30 value="0.0005369269" flag="0"/>
    </comp>
  </station>
  <station code="VLS" name="VLS" netid="HL" insttype="120P," lat="38.1768" lon="20.5886">
    <comp name="--.HHE">
      <acc value="1.0243879023" flag="0"/>
      <vel value="0.2160233281" flag="0"/>
      <psa03 value="0.7857102011" flag="0"/>
      <psa10 value="0.0464777912" flag="0"/>
      <psa30 value="0.0048234786" flag="0"/>
    </comp>
    <comp name="--.HHZ">
      <acc value="0.3365290385" flag="0"/>
      <vel value="0.0850510132" flag="0"/>
      <psa03 value="0.2706250058" flag="0"/>
      <psa10 value="0.0327659286" flag="0"/>
      <psa30 value="0.0025827874" flag="0"/>
    </comp>
    <comp name="--.HHN">
      <acc value="0.7107090828" flag="0"/>
      <vel value="0.2236561781" flag="0"/>
      <psa03 value="0.7752529539" flag="0"/>
      <psa10 value="0.1010076752" flag="0"/>
      <psa30 value="0.0085309592" flag="0"/>
    </comp>
  </station>
  <station code="AMPL" name="AMPL" netid="HP" insttype="Compact," lat="38.9224" lon="21.2135">
    <comp name="--.HHZ">
      <acc value="0.0098410527" flag="0"/>
      <vel value="0.0074469218" flag="0"/>
      <psa03 value="0.0273207438" flag="0"/>
      <psa10 value="0.0085707209" flag="0"/>
      <psa30 value="0.0006239339" flag="0"/>
    </comp>
    <comp name="--.HHN">
      <acc value="0.0198669493" flag="0"/>
      <vel value="0.0104329981" flag="0"/>
      <psa03 value="0.0472222061" flag="0"/>
      <psa10 value="0.0113458133" flag="0"/>
      <psa30 value="0.0019943791" flag="0"/>
    </comp>
    <comp name="--.HHE">
      <acc value="0.0218985665" flag="0"/>
      <vel value="0.0149836233" flag="0"/>
      <psa03 value="0.0438590639" flag="0"/>
      <psa10 value="0.0232473672" flag="0"/>
      <psa30 value="0.0018321613" flag="0"/>
    </comp>
  </station>
  <station code="AXS" name="AXS" netid="HP" insttype="Compact," lat="38.1962" lon="21.3763">
    <comp name="--.HHE">
      <acc value="0.0101038671" flag="0"/>
      <vel value="0.0041730845" flag="0"/>
      <psa03 value="0.0256322463" flag="0"/>
      <psa10 value="0.0038071995" flag="0"/>
      <psa30 value="0.0007047366" flag="0"/>
    </comp>
    <comp name="--.HHN">
      <acc value="0.0118688496" flag="0"/>
      <vel value="0.0090641311" flag="0"/>
      <psa03 value="0.0395026248" flag="0"/>
      <psa10 value="0.0133487592" flag="0"/>
      <psa30 value="0.0008831073" flag="0"/>
    </comp>
    <comp name="--.HHZ">
      <acc value="0.0081969050" flag="0"/>
      <vel value="0.0065965780" flag="0"/>
      <psa03 value="0.0224805763" flag="0"/>
      <psa10 value="0.0082436521" flag="0"/>
      <psa30 value="0.0005972676" flag="0"/>
    </comp>
  </station>
  <station code="DRO" name="DRO" netid="HP" insttype="120P," lat="37.952" lon="21.71">
    <comp name="--.HHE">
      <acc value="0.0246188092" flag="0"/>
      <vel value="0.0162124772" flag="0"/>
      <psa03 value="0.0710787795" flag="0"/>
      <psa10 value="0.0248705856" flag="0"/>
      <psa30 value="0.0015038108" flag="0"/>
    </comp>
    <comp name="--.HHN">
      <acc value="0.0179404400" flag="0"/>
      <vel value="0.0119239084" flag="0"/>
      <psa03 value="0.0820590785" flag="0"/>
      <psa10 value="0.0127851275" flag="0"/>
      <psa30 value="0.0014387576" flag="0"/>
    </comp>
    <comp name="--.HHZ">
      <acc value="0.0085660380" flag="0"/>
      <vel value="0.0063006118" flag="0"/>
      <psa03 value="0.0281856191" flag="0"/>
      <psa10 value="0.0057878616" flag="0"/>
      <psa30 value="0.0009670957" flag="0"/>
    </comp>
  </station>
  <station code="FSK" name="FSK" netid="HP" insttype="40," lat="38.4593" lon="20.5623">
    <comp name="--.HHN">
      <acc value="0.0397373816" flag="0"/>
      <vel value="0.0246913867" flag="0"/>
      <psa03 value="0.0573615759" flag="0"/>
      <psa10 value="0.0544164603" flag="0"/>
      <psa30 value="0.0032112712" flag="0"/>
    </comp>
    <comp name="--.HHZ">
      <acc value="0.0382936738" flag="0"/>
      <vel value="0.0193059487" flag="0"/>
      <psa03 value="0.0686054972" flag="0"/>
      <psa10 value="0.0207434122" flag="0"/>
      <psa30 value="0.0020466161" flag="0"/>
    </comp>
    <comp name="--.HHE">
      <acc value="0.0702616034" flag="0"/>
      <vel value="0.0425870572" flag="0"/>
      <psa03 value="0.1015273855" flag="0"/>
      <psa10 value="0.0306709384" flag="0"/>
      <psa30 value="0.0083591317" flag="0"/>
    </comp>
  </station>
  <station code="KSTR" name="KSTR" netid="HP" insttype="Compact," lat="39.2492" lon="20.576">
    <comp name="--.HHZ">
      <acc value="0.0109813576" flag="0"/>
      <vel value="0.0070133971" flag="0"/>
      <psa03 value="0.0436214294" flag="0"/>
      <psa10 value="0.0062562516" flag="0"/>
      <psa30 value="0.0005647120" flag="0"/>
    </comp>
    <comp name="--.HHE">
      <acc value="0.0262489691" flag="0"/>
      <vel value="0.0145771688" flag="0"/>
      <psa03 value="0.0735837780" flag="0"/>
      <psa10 value="0.0108973633" flag="0"/>
      <psa30 value="0.0009867076" flag="0"/>
    </comp>
    <comp name="--.HHN">
      <acc value="0.0198984760" flag="0"/>
      <vel value="0.0103622266" flag="0"/>
      <psa03 value="0.0509279287" flag="0"/>
      <psa10 value="0.0145788182" flag="0"/>
      <psa30 value="0.0006244383" flag="0"/>
    </comp>
  </station>
  <station code="LTHK" name="LTHK" netid="HP" insttype="40," lat="37.7095" lon="20.8367">
    <comp name="--.HHE">
      <acc value="0.2599402605" flag="0"/>
      <vel value="0.0674596298" flag="0"/>
      <psa03 value="0.2122248575" flag="0"/>
      <psa10 value="0.0305579568" flag="0"/>
      <psa30 value="0.0018122137" flag="0"/>
    </comp>
    <comp name="--.HHZ">
      <acc value="0.1069955497" flag="0"/>
      <vel value="0.0326902119" flag="0"/>
      <psa03 value="0.1149080378" flag="0"/>
      <psa10 value="0.0174678419" flag="0"/>
      <psa30 value="0.0014650560" flag="0"/>
    </comp>
    <comp name="--.HHN">
      <acc value="0.2450036683" flag="0"/>
      <vel value="0.0735119601" flag="0"/>
      <psa03 value="0.4911326030" flag="0"/>
      <psa10 value="0.0397193375" flag="0"/>
      <psa30 value="0.0028271316" flag="0"/>
    </comp>
  </station>
  <station code="PDO" name="PDO" netid="HP" insttype="120s" lat="38.5986" lon="21.1833">
    <comp name="--.HHN">
      <acc value="0.0564133003" flag="0"/>
      <vel value="0.0423708349" flag="0"/>
      <psa03 value="0.2028908100" flag="0"/>
      <psa10 value="0.0329131355" flag="0"/>
      <psa30 value="0.0037277839" flag="0"/>
    </comp>
    <comp name="--.HHE">
      <acc value="0.0664927667" flag="0"/>
      <vel value="0.0319648892" flag="0"/>
      <psa03 value="0.2580784702" flag="0"/>
      <psa10 value="0.0267570687" flag="0"/>
      <psa30 value="0.0033784209" flag="0"/>
    </comp>
    <comp name="--.HHZ">
      <acc value="0.0340831912" flag="0"/>
      <vel value="0.0159085702" flag="0"/>
      <psa03 value="0.1588194284" flag="0"/>
      <psa10 value="0.0130555618" flag="0"/>
      <psa30 value="0.0012209530" flag="0"/>
    </comp>
  </station>
  <station code="PVO" name="PVO" netid="HP" insttype="120P," lat="38.616" lon="21.525">
    <comp name="--.HHN">
      <acc value="0.0397372636" flag="0"/>
      <vel value="0.0201023795" flag="0"/>
      <psa03 value="0.1192925946" flag="0"/>
      <psa10 value="0.0224728673" flag="0"/>
      <psa30 value="0.0033882947" flag="0"/>
    </comp>
    <comp name="--.HHZ">
      <acc value="0.0227238343" flag="0"/>
      <vel value="0.0154986766" flag="0"/>
      <psa03 value="0.0639417566" flag="0"/>
      <psa10 value="0.0184776683" flag="0"/>
      <psa30 value="0.0017954951" flag="0"/>
    </comp>
    <comp name="--.HHE">
      <acc value="0.0411859366" flag="0"/>
      <vel value="0.0210821055" flag="0"/>
      <psa03 value="0.1143183344" flag="0"/>
      <psa10 value="0.0277231575" flag="0"/>
      <psa30 value="0.0037264194" flag="0"/>
    </comp>
  </station>
  <station code="DMLN" name="DMLN" netid="HT" insttype="1s-100Hz," lat="38.2385" lon="20.3734">
    <comp name="--.HHE">
      <acc value="0.7502360649" flag="0"/>
      <vel value="0.4120158381" flag="0"/>
      <psa03 value="0.8263648843" flag="0"/>
      <psa10 value="0.3909075565" flag="0"/>
      <psa30 value="0.0261899517" flag="0"/>
    </comp>
    <comp name="--.HHN">
      <acc value="0.6527453821" flag="0"/>
      <vel value="0.4097364795" flag="0"/>
      <psa03 value="0.8547378621" flag="0"/>
      <psa10 value="0.3874724531" flag="0"/>
      <psa30 value="0.0191995639" flag="0"/>
    </comp>
    <comp name="--.HHZ">
      <acc value="0.5238975385" flag="0"/>
      <vel value="0.1475572337" flag="0"/>
      <psa03 value="0.3402327397" flag="0"/>
      <psa10 value="0.1091393139" flag="0"/>
      <psa30 value="0.0084274668" flag="0"/>
    </comp>
  </station>
  <station code="DRAG" name="DRAG" netid="HT" insttype="30s-100Hz," lat="38.6839" lon="20.5746">
    <comp name="--.HHZ">
      <acc value="0.0815314761" flag="0"/>
      <vel value="0.0205083324" flag="0"/>
      <psa03 value="0.0782033120" flag="0"/>
      <psa10 value="0.0160700197" flag="0"/>
      <psa30 value="0.0015992443" flag="0"/>
    </comp>
    <comp name="--.HHN">
      <acc value="0.1984845659" flag="0"/>
      <vel value="0.0781750929" flag="0"/>
      <psa03 value="0.3302223236" flag="0"/>
      <psa10 value="0.0435285288" flag="0"/>
      <psa30 value="0.0031704002" flag="0"/>
    </comp>
    <comp name="--.HHE">
      <acc value="0.3131790748" flag="0"/>
      <vel value="0.0956696353" flag="0"/>
      <psa03 value="0.4449222543" flag="0"/>
      <psa10 value="0.0410594194" flag="0"/>
      <psa30 value="0.0034434395" flag="0"/>
    </comp>
  </station>
  <station code="EVGI" name="EVGI" netid="HT" insttype="30" lat="38.621" lon="20.656">
    <comp name="--.HHN">
      <acc value="0.1251259267" flag="0"/>
      <vel value="0.0366212222" flag="0"/>
      <psa03 value="0.1284591352" flag="0"/>
      <psa10 value="0.0143223364" flag="0"/>
      <psa30 value="0.0020182973" flag="0"/>
    </comp>
    <comp name="--.HHE">
      <acc value="0.1736056809" flag="0"/>
      <vel value="0.0652071977" flag="0"/>
      <psa03 value="0.2233763714" flag="0"/>
      <psa10 value="0.0165809322" flag="0"/>
      <psa30 value="0.0024810103" flag="0"/>
    </comp>
    <comp name="--.HHZ">
      <acc value="0.0928726139" flag="0"/>
      <vel value="0.0228275641" flag="0"/>
      <psa03 value="0.1268916215" flag="0"/>
      <psa10 value="0.0114566516" flag="0"/>
      <psa30 value="0.0012580678" flag="0"/>
    </comp>
  </station>
  <station code="LKD2" name="LKD2" netid="HT" insttype="100" lat="38.7889" lon="20.6578">
    <comp name="--.HHZ">
      <acc value="0.0514260528" flag="0"/>
      <vel value="0.0286276943" flag="0"/>
      <psa03 value="0.0820729861" flag="0"/>
      <psa10 value="0.0203884079" flag="0"/>
      <psa30 value="0.0011563844" flag="0"/>
    </comp>
    <comp name="--.HHE">
      <acc value="0.0918817191" flag="0"/>
      <vel value="0.0510038549" flag="0"/>
      <psa03 value="0.1921016574" flag="0"/>
      <psa10 value="0.0452099065" flag="0"/>
      <psa30 value="0.0027799128" flag="0"/>
    </comp>
    <comp name="--.HHN">
      <acc value="0.0647251477" flag="0"/>
      <vel value="0.0303859923" flag="0"/>
      <psa03 value="0.1427427949" flag="0"/>
      <psa10 value="0.0420257602" flag="0"/>
      <psa30 value="0.0026731207" flag="0"/>
    </comp>
  </station>
  <station code="NYDR" name="NYDR" netid="HT" insttype="1s-100Hz," lat="38.7135" lon="20.6983">
    <comp name="--.HHE">
      <acc value="0.1059406616" flag="0"/>
      <vel value="0.0642181624" flag="0"/>
      <psa03 value="0.2080145074" flag="0"/>
      <psa10 value="0.0775842967" flag="0"/>
      <psa30 value="0.0044233344" flag="0"/>
    </comp>
    <comp name="--.HHZ">
      <acc value="0.0497455976" flag="0"/>
      <vel value="0.0274512887" flag="0"/>
      <psa03 value="0.1309561545" flag="0"/>
      <psa10 value="0.0226180497" flag="0"/>
      <psa30 value="0.0015605870" flag="0"/>
    </comp>
    <comp name="--.HHN">
      <acc value="0.0731886126" flag="0"/>
      <vel value="0.0331062225" flag="0"/>
      <psa03 value="0.1499220557" flag="0"/>
      <psa10 value="0.0331428816" flag="0"/>
      <psa30 value="0.0021928808" flag="0"/>
    </comp>
  </station>
  <station code="PSDA" name="PSDA" netid="HT" insttype="30" lat="38.114" lon="20.5841">
    <comp name="--.HHE">
      <acc value="0.4740569982" flag="0"/>
      <vel value="0.1371652449" flag="0"/>
      <psa03 value="0.6446797135" flag="0"/>
      <psa10 value="0.0592755736" flag="0"/>
      <psa30 value="0.0045526120" flag="0"/>
    </comp>
    <comp name="--.HHN">
      <acc value="0.3797273373" flag="0"/>
