<stationlist created="1778069622">
	<station code="IMMV" name="IMMV" netid="GE" source="GEOFON" insttype="" lat="35.4606" lon="23.9811">
		<comp name="--.HNE" depth="0.0">
			<acc value="0.000864334167250773" flag="0"/>
			<vel value="0.000800517942164842" flag="0"/>
			<psa03 value="0.00228185253753186" flag="0"/>
			<psa10 value="0.0020738012767569" flag="0"/>
			<psa30 value="0.000160177099693413" flag="0"/>
		</comp>
		<comp name="--.HNN" depth="0.0">
			<acc value="0.000773482690183681" flag="0"/>
			<vel value="0.000710475308738272" flag="0"/>
			<psa03 value="0.00228185253753186" flag="0"/>
			<psa10 value="0.00133689713375396" flag="0"/>
			<psa30 value="0.000201339929782223" flag="0"/>
		</comp>
		<comp name="--.HNZ" depth="0.0">
			<acc value="0.000570989843948653" flag="0"/>
			<vel value="0.000667037543572862" flag="0"/>
			<psa03 value="0.00214762591767704" flag="0"/>
			<psa10 value="0.00102683364188934" flag="0"/>
			<psa30 value="0.000127515288862074" flag="0"/>
		</comp>
	</station>
</stationlist>
