<?xml version="1.0" encoding="UTF-8" standalone="yes"?>
<!DOCTYPE earthquake SYSTEM "stationlist.dtd">
<stationlist created="" xmlns="ch.ethz.sed.shakemap.usgs.xml">
  <station code="ZKR" name="ZKR" netid="GE" insttype="STS-2/N" lat="35.1147" lon="26.2169">
    <comp name="--.HHE">
      <acc value="0.0094924116" flag="0"/>
      <vel value="0.0055731093" flag="0"/>
      <psa03 value="0.0231451024" flag="0"/>
      <psa10 value="0.0061796445" flag="0"/>
      <psa30 value="0.0005215586" flag="0"/>
    </comp>
    <comp name="--.HHN">
      <acc value="0.0039691324" flag="0"/>
      <vel value="0.0016503754" flag="0"/>
      <psa03 value="0.0085407940" flag="0"/>
      <psa10 value="0.0020114646" flag="0"/>
      <psa30 value="0.0001426688" flag="0"/>
    </comp>
    <comp name="--.HHZ">
      <acc value="0.0040858812" flag="0"/>
      <vel value="0.0025789198" flag="0"/>
      <psa03 value="0.0143731119" flag="0"/>
      <psa10 value="0.0027311839" flag="0"/>
      <psa30 value="0.0002101193" flag="0"/>
    </comp>
  </station>
  <station code="SIVA" name="SIVA" netid="HL" insttype="60" lat="35.0178" lon="24.812">
    <comp name="--.HHE">
      <acc value="0.0056561726" flag="0"/>
      <vel value="0.0038400153" flag="0"/>
      <psa03 value="0.0261498039" flag="0"/>
      <psa10 value="0.0068038965" flag="0"/>
      <psa30 value="0.0003736830" flag="0"/>
    </comp>
    <comp name="--.HHN">
      <acc value="0.0041869344" flag="0"/>
      <vel value="0.0030842859" flag="0"/>
      <psa03 value="0.0103641868" flag="0"/>
      <psa10 value="0.0053321959" flag="0"/>
      <psa30 value="0.0003188722" flag="0"/>
    </comp>
    <comp name="--.HHZ">
      <acc value="0.0040718753" flag="0"/>
      <vel value="0.0019534568" flag="0"/>
      <psa03 value="0.0097906086" flag="0"/>
      <psa10 value="0.0027243346" flag="0"/>
      <psa30 value="0.0002460932" flag="0"/>
    </comp>
  </station>
  <station code="ZKR" name="ZKR" netid="HL" insttype="120" lat="35.1147" lon="26.2169">
    <comp name="--.HHE">
      <acc value="0.0093100312" flag="0"/>
      <vel value="0.0054977321" flag="0"/>
      <psa03 value="0.0225658893" flag="0"/>
      <psa10 value="0.0061208764" flag="0"/>
      <psa30 value="0.0005205131" flag="0"/>
    </comp>
    <comp name="--.HHN">
      <acc value="0.0038582361" flag="0"/>
      <vel value="0.0016086071" flag="0"/>
      <psa03 value="0.0082850068" flag="0"/>
      <psa10 value="0.0019991433" flag="0"/>
      <psa30 value="0.0001421183" flag="0"/>
    </comp>
    <comp name="--.HHZ">
      <acc value="0.0039957999" flag="0"/>
      <vel value="0.0025318839" flag="0"/>
      <psa03 value="0.0139869259" flag="0"/>
      <psa10 value="0.0027041562" flag="0"/>
      <psa30 value="0.0002096435" flag="0"/>
    </comp>
  </station>
</stationlist>
