<?xml version="1.0" encoding="UTF-8" standalone="yes"?>
<!DOCTYPE earthquake SYSTEM "stationlist.dtd">
<stationlist created="" xmlns="ch.ethz.sed.shakemap.usgs.xml">
  <station code="BIR" name="BIR" netid="RO" insttype="MBB2/Quanterra" lat="46.2334" lon="27.6436">
    <comp name="--.HHE">
      <acc value="0.0311678072" flag="0"/>
      <vel value="0.0050054766" flag="0"/>
      <psa03 value="0.0134136324" flag="0"/>
      <psa10 value="0.0016373576" flag="0"/>
      <psa30 value="0.0001516020" flag="0"/>
    </comp>
    <comp name="--.HHZ">
      <acc value="0.0341733232" flag="0"/>
      <vel value="0.0073957306" flag="0"/>
      <psa03 value="0.0197416955" flag="0"/>
      <psa10 value="0.0010061652" flag="0"/>
      <psa30 value="0.0001125715" flag="0"/>
    </comp>
    <comp name="--.HHN">
      <acc value="0.0140802073" flag="0"/>
      <vel value="0.0042066968" flag="0"/>
      <psa03 value="0.0171404051" flag="0"/>
      <psa10 value="0.0005760813" flag="0"/>
      <psa30 value="0.0000796569" flag="0"/>
    </comp>
  </station>
  <station code="BISRR" name="BISRR" netid="RO" insttype="CMG40T.1to100/Basalt" lat="45.5481" lon="26.7099">
    <comp name="--.HHZ">
      <acc value="0.0078193580" flag="0"/>
      <vel value="0.0021901619" flag="0"/>
      <psa03 value="0.0145902464" flag="0"/>
      <psa10 value="0.0012895909" flag="0"/>
      <psa30 value="0.0000768838" flag="0"/>
    </comp>
    <comp name="--.HHN">
      <acc value="0.0104419481" flag="0"/>
      <vel value="0.0047562819" flag="0"/>
      <psa03 value="0.0168125851" flag="0"/>
      <psa10 value="0.0034651981" flag="0"/>
      <psa30 value="0.0001435561" flag="0"/>
    </comp>
  </station>
  <station code="GIRR" name="GIRR" netid="RO" insttype="200" lat="46.9551" lon="26.5009">
    <comp name="--.HNN">
      <acc value="0.0350119681" flag="0"/>
      <vel value="0.0063784835" flag="0"/>
      <psa03 value="0.0137856157" flag="0"/>
      <psa10 value="0.0010743211" flag="0"/>
      <psa30 value="0.0000929461" flag="0"/>
    </comp>
    <comp name="--.HNZ">
      <acc value="0.0105219355" flag="0"/>
      <vel value="0.0010542895" flag="0"/>
      <psa03 value="0.0033543993" flag="0"/>
      <psa10 value="0.0002993154" flag="0"/>
      <psa30 value="0.0002045709" flag="0"/>
    </comp>
    <comp name="--.HNE">
      <acc value="0.0213509637" flag="0"/>
      <vel value="0.0041122461" flag="0"/>
      <psa03 value="0.0085815538" flag="0"/>
      <psa10 value="0.0006023749" flag="0"/>
      <psa30 value="0.0000575368" flag="0"/>
    </comp>
  </station>
  <station code="GRER" name="GRER" netid="RO" insttype="MBB2/Quanterra" lat="45.3801" lon="26.9747">
    <comp name="--.HHZ">
      <acc value="0.0134506219" flag="0"/>
      <vel value="0.0025942671" flag="0"/>
      <psa03 value="0.0065001725" flag="0"/>
      <psa10 value="0.0003928180" flag="0"/>
      <psa30 value="0.0000802628" flag="0"/>
    </comp>
    <comp name="--.HHE">
      <acc value="0.0147515001" flag="0"/>
      <vel value="0.0042460088" flag="0"/>
      <psa03 value="0.0136831380" flag="0"/>
      <psa10 value="0.0011453423" flag="0"/>
      <psa30 value="0.0000956322" flag="0"/>
    </comp>
    <comp name="--.HHN">
      <acc value="0.0117334964" flag="0"/>
      <vel value="0.0030380031" flag="0"/>
      <psa03 value="0.0088500650" flag="0"/>
      <psa10 value="0.0010155721" flag="0"/>
      <psa30 value="0.0000910543" flag="0"/>
    </comp>
  </station>
  <station code="NEGRR" name="NEGRR" netid="RO" insttype="200" lat="45.5373" lon="27.8771">
    <comp name="--.HGZ">
      <acc value="0.0086414102" flag="0"/>
      <vel value="0.0012611850" flag="0"/>
      <psa03 value="0.0023786874" flag="0"/>
      <psa10 value="0.0003336675" flag="0"/>
      <psa30 value="0.0000379849" flag="0"/>
    </comp>
    <comp name="--.HGE">
      <acc value="0.0089764412" flag="0"/>
      <vel value="0.0026792181" flag="0"/>
      <psa03 value="0.0251561927" flag="0"/>
      <psa10 value="0.0007088680" flag="0"/>
      <psa30 value="0.0000858430" flag="0"/>
    </comp>
    <comp name="--.HGN">
      <acc value="0.0064193928" flag="0"/>
      <vel value="0.0013883433" flag="0"/>
      <psa03 value="0.0083441007" flag="0"/>
      <psa10 value="0.0004765190" flag="0"/>
      <psa30 value="0.0000703025" flag="0"/>
    </comp>
  </station>
  <station code="NGRR" name="NGRR" netid="RO" insttype="2.5V" lat="46.8375" lon="27.4422">
    <comp name="--.HNZ">
      <acc value="0.0358560424" flag="0"/>
      <vel value="0.0038063244" flag="0"/>
      <psa03 value="0.0109895201" flag="0"/>
      <psa10 value="0.0004209302" flag="0"/>
      <psa30 value="0.0001292284" flag="0"/>
    </comp>
    <comp name="--.HNN">
      <acc value="0.0599718652" flag="0"/>
      <vel value="0.0109610929" flag="0"/>
      <psa03 value="0.0368794910" flag="0"/>
      <psa10 value="0.0013375322" flag="0"/>
      <psa30 value="0.0001900439" flag="0"/>
    </comp>
    <comp name="--.HNE">
      <acc value="0.0665167055" flag="0"/>
      <vel value="0.0133053577" flag="0"/>
      <psa03 value="0.0404821761" flag="0"/>
      <psa10 value="0.0021795748" flag="0"/>
      <psa30 value="0.0001893618" flag="0"/>
    </comp>
  </station>
  <station code="ODBI" name="ODBI" netid="RO" insttype="PBB.1to100/Quanterra" lat="45.7633" lon="27.0558">
    <comp name="--.HHE">
      <acc value="0.1695661758" flag="0"/>
      <vel value="0.0257507324" flag="0"/>
      <psa03 value="0.0741231889" flag="0"/>
      <psa10 value="0.0046654784" flag="0"/>
      <psa30 value="0.0005260933" flag="0"/>
    </comp>
    <comp name="--.HHN">
      <acc value="0.1181474546" flag="0"/>
      <vel value="0.0200156061" flag="0"/>
      <psa03 value="0.0743126949" flag="0"/>
      <psa10 value="0.0041603145" flag="0"/>
      <psa30 value="0.0005116175" flag="0"/>
    </comp>
    <comp name="--.HHZ">
      <acc value="0.0002929240" flag="0"/>
      <vel value="0.0000304766" flag="0"/>
      <psa03 value="0.0000704259" flag="0"/>
      <psa10 value="0.0000114902" flag="0"/>
      <psa30 value="0.0000026703" flag="0"/>
    </comp>
  </station>
  <station code="PANC" name="PANC" netid="RO" insttype="Seismometer/Basalt" lat="45.8723" lon="27.1477">
    <comp name="--.HHE">
      <acc value="0.0315378499" flag="0"/>
      <vel value="0.0074112403" flag="0"/>
      <psa03 value="0.0329830239" flag="0"/>
      <psa10 value="0.0016137220" flag="0"/>
      <psa30 value="0.0001354843" flag="0"/>
    </comp>
    <comp name="--.HHZ">
      <acc value="0.0367044670" flag="0"/>
      <vel value="0.0075196329" flag="0"/>
      <psa03 value="0.0150003830" flag="0"/>
      <psa10 value="0.0008017117" flag="0"/>
      <psa30 value="0.0001116416" flag="0"/>
    </comp>
    <comp name="--.HHN">
      <acc value="0.0575292481" flag="0"/>
      <vel value="0.0087862944" flag="0"/>
      <psa03 value="0.0238933965" flag="0"/>
      <psa10 value="0.0066872434" flag="0"/>
      <psa30 value="0.0034123379" flag="0"/>
    </comp>
  </station>
  <station code="PLOR" name="PLOR" netid="RO" insttype="330" lat="45.8512" lon="26.6498">
    <comp name="--.HHE">
      <acc value="0.0051982917" flag="0"/>
      <vel value="0.0015746962" flag="0"/>
      <psa03 value="0.0110253504" flag="0"/>
      <psa10 value="0.0004630130" flag="0"/>
      <psa30 value="0.0000392318" flag="0"/>
    </comp>
    <comp name="--.HHN">
      <acc value="0.0046225057" flag="0"/>
      <vel value="0.0017634708" flag="0"/>
      <psa03 value="0.0138842543" flag="0"/>
      <psa10 value="0.0005576146" flag="0"/>
      <psa30 value="0.0000447907" flag="0"/>
    </comp>
    <comp name="--.HHZ">
      <acc value="0.0026909247" flag="0"/>
      <vel value="0.0005789262" flag="0"/>
      <psa03 value="0.0030708508" flag="0"/>
      <psa10 value="0.0002221035" flag="0"/>
      <psa30 value="0.0000180458" flag="0"/>
    </comp>
  </station>
  <station code="PLOR4" name="PLOR4" netid="RO" insttype="330" lat="45.8512" lon="26.6498">
    <comp name="--.HHZ">
      <acc value="0.0026909247" flag="0"/>
      <vel value="0.0005789262" flag="0"/>
      <psa03 value="0.0030708508" flag="0"/>
      <psa10 value="0.0002221035" flag="0"/>
      <psa30 value="0.0000180458" flag="0"/>
    </comp>
    <comp name="--.HHE">
      <acc value="0.0051982917" flag="0"/>
      <vel value="0.0015746962" flag="0"/>
      <psa03 value="0.0110253504" flag="0"/>
      <psa10 value="0.0004630130" flag="0"/>
      <psa30 value="0.0000392318" flag="0"/>
    </comp>
    <comp name="--.HHN">
      <acc value="0.0046225057" flag="0"/>
      <vel value="0.0017634708" flag="0"/>
      <psa03 value="0.0138842543" flag="0"/>
      <psa10 value="0.0005576146" flag="0"/>
      <psa30 value="0.0000447907" flag="0"/>
    </comp>
  </station>
  <station code="SCHL" name="SCHL" netid="RO" insttype="200" lat="45.5007" lon="27.8302">
    <comp name="--.HNZ">
      <acc value="0.0308253114" flag="0"/>
      <vel value="0.0037943299" flag="0"/>
      <psa03 value="0.0075954417" flag="0"/>
      <psa10 value="0.0004656350" flag="0"/>
      <psa30 value="0.0000915313" flag="0"/>
    </comp>
    <comp name="--.HNN">
      <acc value="0.0172896948" flag="0"/>
      <vel value="0.0047453900" flag="0"/>
      <psa03 value="0.0248811097" flag="0"/>
      <psa10 value="0.0008062026" flag="0"/>
      <psa30 value="0.0001220847" flag="0"/>
    </comp>
    <comp name="--.HNE">
      <acc value="0.0246420468" flag="0"/>
      <vel value="0.0057546161" flag="0"/>
      <psa03 value="0.0264402603" flag="0"/>
      <psa10 value="0.0009824287" flag="0"/>
      <psa30 value="0.0001355336" flag="0"/>
    </comp>
  </station>
  <station code="SCHLR" name="SCHLR" netid="RO" insttype="CMG40T.1to100/Quanterra" lat="45.4702" lon="27.8314">
    <comp name="--.HHN">
      <acc value="0.0210539799" flag="0"/>
      <vel value="0.0035723002" flag="0"/>
      <psa03 value="0.0092725845" flag="0"/>
      <psa10 value="0.0005479215" flag="0"/>
      <psa30 value="0.0000907111" flag="0"/>
    </comp>
    <comp name="--.HHZ">
      <acc value="0.0242969946" flag="0"/>
      <vel value="0.0028531719" flag="0"/>
      <psa03 value="0.0047787652" flag="0"/>
      <psa10 value="0.0002230735" flag="0"/>
      <psa30 value="0.0000297118" flag="0"/>
    </comp>
    <comp name="--.HHE">
      <acc value="0.0197706507" flag="0"/>
      <vel value="0.0032532886" flag="0"/>
      <psa03 value="0.0084391809" flag="0"/>
      <psa10 value="0.0005887018" flag="0"/>
      <psa30 value="0.0000658018" flag="0"/>
    </comp>
  </station>
  <station code="TATR" name="TATR" netid="RO" insttype="MBB2/Basalt" lat="45.5977" lon="28.0498">
    <comp name="--.HHE">
      <acc value="0.0576016696" flag="0"/>
      <vel value="0.0112908203" flag="0"/>
      <psa03 value="0.0396483493" flag="0"/>
      <psa10 value="0.0021858951" flag="0"/>
      <psa30 value="0.0002109357" flag="0"/>
    </comp>
    <comp name="--.HHN">
      <acc value="0.0748411587" flag="0"/>
      <vel value="0.0138844218" flag="0"/>
      <psa03 value="0.0279266858" flag="0"/>
      <psa10 value="0.0028806227" flag="0"/>
      <psa30 value="0.0002809981" flag="0"/>
    </comp>
    <comp name="--.HHZ">
      <acc value="0.0417180817" flag="0"/>
      <vel value="0.0074476058" flag="0"/>
      <psa03 value="0.0166696927" flag="0"/>
      <psa10 value="0.0012510548" flag="0"/>
      <psa30 value="0.0000897999" flag="0"/>
    </comp>
  </station>
  <station code="TESR" name="TESR" netid="RO" insttype="330" lat="46.5118" lon="26.6489">
    <comp name="--.HHE">
      <acc value="0.0140546994" flag="0"/>
      <vel value="0.0038040248" flag="0"/>
      <psa03 value="0.0112099998" flag="0"/>
      <psa10 value="0.0006383562" flag="0"/>
      <psa30 value="0.0000579395" flag="0"/>
    </comp>
    <comp name="--.HHZ">
      <acc value="0.0068353619" flag="0"/>
      <vel value="0.0015273776" flag="0"/>
      <psa03 value="0.0048693685" flag="0"/>
      <psa10 value="0.0002796828" flag="0"/>
      <psa30 value="0.0000314810" flag="0"/>
    </comp>
    <comp name="--.HHN">
      <acc value="0.0158276987" flag="0"/>
      <vel value="0.0048631552" flag="0"/>
      <psa03 value="0.0136063006" flag="0"/>
      <psa10 value="0.0010916901" flag="0"/>
      <psa30 value="0.0001310231" flag="0"/>
    </comp>
  </station>
  <station code="TUDR" name="TUDR" netid="RO" insttype="CMG40T.1to100/Quanterra" lat="45.5939" lon="27.6687">
    <comp name="--.HHN">
      <acc value="0.0322037768" flag="0"/>
      <vel value="0.0083707000" flag="0"/>
      <psa03 value="0.0309666927" flag="0"/>
      <psa10 value="0.0013045070" flag="0"/>
      <psa30 value="0.0001370833" flag="0"/>
    </comp>
    <comp name="--.HHE">
      <acc value="0.0473312182" flag="0"/>
      <vel value="0.0097790005" flag="0"/>
      <psa03 value="0.0369161947" flag="0"/>
      <psa10 value="0.0012845228" flag="0"/>
      <psa30 value="0.0001441247" flag="0"/>
    </comp>
    <comp name="--.HHZ">
      <acc value="0.0582179075" flag="0"/>
      <vel value="0.0080557604" flag="0"/>
      <psa03 value="0.0079273777" flag="0"/>
      <psa10 value="0.0005868081" flag="0"/>
      <psa30 value="0.0001088286" flag="0"/>
    </comp>
  </station>
  <station code="VARL" name="VARL" netid="RO" insttype="MBB2/Quanterra" lat="45.8996" lon="27.8487">
    <comp name="--.HHN">
      <acc value="0.0266220253" flag="0"/>
      <vel value="0.0068015999" flag="0"/>
      <psa03 value="0.0312822538" flag="0"/>
      <psa10 value="0.0015753470" flag="0"/>
      <psa30 value="0.0001636206" flag="0"/>
    </comp>
    <comp name="--.HHE">
      <acc value="0.0354427096" flag="0"/>
      <vel value="0.0070208617" flag="0"/>
      <psa03 value="0.0341927817" flag="0"/>
      <psa10 value="0.0017858638" flag="0"/>
      <psa30 value="0.0001427379" flag="0"/>
    </comp>
    <comp name="--.HHZ">
      <acc value="0.0262034821" flag="0"/>
      <vel value="0.0046923762" flag="0"/>
      <psa03 value="0.0091623410" flag="0"/>
      <psa10 value="0.0009384229" flag="0"/>
      <psa30 value="0.0000646110" flag="0"/>
    </comp>
  </station>
  <station code="VLDR" name="VLDR" netid="RO" insttype="MBB2/Basalt" lat="45.8443" lon="28.0808">
    <comp name="--.HHN">
      <acc value="0.0532147451" flag="0"/>
      <vel value="0.0093026015" flag="0"/>
      <psa03 value="0.0231267910" flag="0"/>
      <psa10 value="0.0012250538" flag="0"/>
      <psa30 value="0.0001844901" flag="0"/>
    </comp>
    <comp name="--.HHE">
      <acc value="0.0649080810" flag="0"/>
      <vel value="0.0118499481" flag="0"/>
      <psa03 value="0.0286124234" flag="0"/>
      <psa10 value="0.0015110067" flag="0"/>
      <psa30 value="0.0001884635" flag="0"/>
    </comp>
    <comp name="--.HHZ">
      <acc value="0.0432967104" flag="0"/>
      <vel value="0.0078441730" flag="0"/>
      <psa03 value="0.0126761329" flag="0"/>
      <psa10 value="0.0009154619" flag="0"/>
      <psa30 value="0.0000946654" flag="0"/>
    </comp>
  </station>
  <station code="VRI" name="VRI" netid="RO" insttype="Linear" lat="45.8657" lon="26.7277">
    <comp name="--.HHN">
      <acc value="0.0099599865" flag="0"/>
      <vel value="0.0034277808" flag="0"/>
      <psa03 value="0.0251978046" flag="0"/>
      <psa10 value="0.0010169208" flag="0"/>
      <psa30 value="0.0000977578" flag="0"/>
    </comp>
    <comp name="--.HHE">
      <acc value="0.0185281923" flag="0"/>
      <vel value="0.0070537839" flag="0"/>
      <psa03 value="0.0426834203" flag="0"/>
      <psa10 value="0.0013738029" flag="0"/>
      <psa30 value="0.0001379961" flag="0"/>
    </comp>
    <comp name="--.HHZ">
      <acc value="0.0121404605" flag="0"/>
      <vel value="0.0016777490" flag="0"/>
      <psa03 value="0.0075987018" flag="0"/>
      <psa10 value="0.0004127357" flag="0"/>
      <psa30 value="0.0000316173" flag="0"/>
    </comp>
  </station>
</stationlist>
