<?xml version="1.0" encoding="UTF-8" standalone="yes"?>
<!DOCTYPE earthquake SYSTEM "stationlist.dtd">
<stationlist created="" xmlns="ch.ethz.sed.shakemap.usgs.xml">
  <station code="APE" name="APE" netid="GE" insttype="STS-2/N" lat="37.0727" lon="25.523">
    <comp name="--.HHE">
      <acc value="0.0545171619" flag="0"/>
      <vel value="0.0109310099" flag="0"/>
      <psa03 value="0.0370368731" flag="0"/>
      <psa10 value="0.0032030857" flag="0"/>
      <psa30 value="0.0008915151" flag="0"/>
    </comp>
    <comp name="--.HHN">
      <acc value="0.0606105097" flag="0"/>
      <vel value="0.0098407039" flag="0"/>
      <psa03 value="0.0356109264" flag="0"/>
      <psa10 value="0.0031761411" flag="0"/>
      <psa30 value="0.0012310844" flag="0"/>
    </comp>
    <comp name="--.HHZ">
      <acc value="0.0288490783" flag="0"/>
      <vel value="0.0060778415" flag="0"/>
      <psa03 value="0.0172562808" flag="0"/>
      <psa10 value="0.0033768402" flag="0"/>
      <psa30 value="0.0012977635" flag="0"/>
    </comp>
  </station>
  <station code="THERA" name="THERA" netid="GE" insttype="STS-2/N" lat="36.367" lon="25.4753">
    <comp name="--.HHE">
      <acc value="0.0868884917" flag="0"/>
      <vel value="0.0196969721" flag="0"/>
      <psa03 value="0.1249020566" flag="0"/>
      <psa10 value="0.0073866420" flag="0"/>
      <psa30 value="0.0017412094" flag="0"/>
    </comp>
    <comp name="--.HHZ">
      <acc value="0.0910201248" flag="0"/>
      <vel value="0.0262403389" flag="0"/>
      <psa03 value="0.0742605862" flag="0"/>
      <psa10 value="0.0122112762" flag="0"/>
      <psa30 value="0.0011528376" flag="0"/>
    </comp>
    <comp name="--.HHN">
      <acc value="0.0639571949" flag="0"/>
      <vel value="0.0137715745" flag="0"/>
      <psa03 value="0.0727164489" flag="0"/>
      <psa10 value="0.0066551780" flag="0"/>
      <psa30 value="0.0008145456" flag="0"/>
    </comp>
  </station>
  <station code="SERI" name="SERI" netid="HA" insttype="30" lat="37.1609" lon="24.4853">
    <comp name="--.HHN">
      <acc value="0.0321362169" flag="0"/>
      <vel value="0.0087464393" flag="0"/>
      <psa03 value="0.0312695061" flag="0"/>
      <psa10 value="0.0051562544" flag="0"/>
      <psa30 value="0.0003973033" flag="0"/>
    </comp>
    <comp name="--.HHZ">
      <acc value="0.0159397245" flag="0"/>
      <vel value="0.0071329305" flag="0"/>
      <psa03 value="0.0146093369" flag="0"/>
      <psa10 value="0.0029193453" flag="0"/>
      <psa30 value="0.0006283167" flag="0"/>
    </comp>
    <comp name="--.HHE">
      <acc value="0.0183299367" flag="0"/>
      <vel value="0.0058513230" flag="0"/>
      <psa03 value="0.0201269171" flag="0"/>
      <psa10 value="0.0020022022" flag="0"/>
      <psa30 value="0.0003605364" flag="0"/>
    </comp>
  </station>
  <station code="SNT5" name="SNT5" netid="HA" insttype="1s-100Hz," lat="36.4037" lon="25.3953">
    <comp name="--.HHN">
      <acc value="0.3283022348" flag="0"/>
      <vel value="0.0733351230" flag="0"/>
      <psa03 value="0.3658323712" flag="0"/>
      <psa10 value="0.0158090598" flag="0"/>
      <psa30 value="0.0033206302" flag="0"/>
    </comp>
    <comp name="--.HHE">
      <acc value="0.5105546782" flag="0"/>
      <vel value="0.1472274750" flag="0"/>
      <psa03 value="0.5088253240" flag="0"/>
      <psa10 value="0.0282288818" flag="0"/>
      <psa30 value="0.0042219629" flag="0"/>
    </comp>
    <comp name="--.HHZ">
      <acc value="0.1602175907" flag="0"/>
      <vel value="0.0289974102" flag="0"/>
      <psa03 value="0.0571264281" flag="0"/>
      <psa10 value="0.0121140558" flag="0"/>
      <psa30 value="0.0011234215" flag="0"/>
    </comp>
  </station>
  <station code="NAX1" name="NAX1" netid="HI" insttype="CMG-5TD,ACCELEROMETER,GURALP" lat="37.1014" lon="25.3741">
    <comp name="--.HNZ">
      <acc value="0.0353194016" flag="0"/>
      <vel value="0.0087430038" flag="0"/>
      <psa03 value="0.0351740885" flag="0"/>
      <psa10 value="0.0051406931" flag="0"/>
      <psa30 value="0.0010712583" flag="0"/>
    </comp>
    <comp name="--.HNE">
      <acc value="0.0527334160" flag="0"/>
      <vel value="0.0132694510" flag="0"/>
      <psa03 value="0.0725715259" flag="0"/>
      <psa10 value="0.0054099576" flag="0"/>
      <psa30 value="0.0004710086" flag="0"/>
    </comp>
    <comp name="--.HNN">
      <acc value="0.0595594854" flag="0"/>
      <vel value="0.0083209862" flag="0"/>
      <psa03 value="0.0392014646" flag="0"/>
      <psa10 value="0.0039755749" flag="0"/>
      <psa30 value="0.0009514338" flag="0"/>
    </comp>
  </station>
  <station code="SFR2" name="SFR2" netid="HI" insttype="unknown" lat="36.3998" lon="25.4382">
    <comp name="--.HNZ">
      <acc value="0.2453567199" flag="0"/>
      <vel value="0.0557201658" flag="0"/>
      <psa03 value="0.2570829299" flag="0"/>
      <psa10 value="0.0306031300" flag="0"/>
      <psa30 value="0.0025037296" flag="0"/>
    </comp>
    <comp name="--.HNN">
      <acc value="0.2368836621" flag="0"/>
      <vel value="0.0792610483" flag="0"/>
      <psa03 value="0.3380686692" flag="0"/>
      <psa10 value="0.0588669321" flag="0"/>
      <psa30 value="0.0026246745" flag="0"/>
    </comp>
  </station>
  <station code="AMGA" name="AMGA" netid="HL" insttype="SMART24" lat="36.8316" lon="25.8938">
    <comp name="--.HHE">
      <acc value="0.2047661873" flag="0"/>
      <vel value="0.0387920462" flag="0"/>
      <psa03 value="0.0839979950" flag="0"/>
      <psa10 value="0.0075923035" flag="0"/>
      <psa30 value="0.0027620160" flag="0"/>
    </comp>
    <comp name="--.HHN">
      <acc value="0.1960813704" flag="0"/>
      <vel value="0.0393453408" flag="0"/>
      <psa03 value="0.1273001442" flag="0"/>
      <psa10 value="0.0113392596" flag="0"/>
      <psa30 value="0.0024675479" flag="0"/>
    </comp>
    <comp name="--.HHZ">
      <acc value="0.1359250251" flag="0"/>
      <vel value="0.0325500239" flag="0"/>
      <psa03 value="0.0924697837" flag="0"/>
      <psa10 value="0.0100832946" flag="0"/>
      <psa30 value="0.0019744088" flag="0"/>
    </comp>
  </station>
  <station code="APE" name="APE" netid="HL" insttype="120" lat="37.0727" lon="25.523">
    <comp name="--.HHE">
      <acc value="0.0474138239" flag="0"/>
      <vel value="0.0101922450" flag="0"/>
      <psa03 value="0.0356247907" flag="0"/>
      <psa10 value="0.0031714699" flag="0"/>
      <psa30 value="0.0008894376" flag="0"/>
    </comp>
    <comp name="--.HHN">
      <acc value="0.0576073815" flag="0"/>
      <vel value="0.0093860494" flag="0"/>
      <psa03 value="0.0347559583" flag="0"/>
      <psa10 value="0.0031351168" flag="0"/>
      <psa30 value="0.0012290014" flag="0"/>
    </comp>
    <comp name="--.HHZ">
      <acc value="0.0252845698" flag="0"/>
      <vel value="0.0058233487" flag="0"/>
      <psa03 value="0.0168711649" flag="0"/>
      <psa10 value="0.0033440068" flag="0"/>
      <psa30 value="0.0012953770" flag="0"/>
    </comp>
  </station>
  <station code="MHLO" name="MHLO" netid="HL" insttype="20" lat="36.6898" lon="24.4017">
    <comp name="--.HHE">
      <acc value="0.0430856211" flag="0"/>
      <vel value="0.0288305164" flag="0"/>
      <psa03 value="0.0932901546" flag="0"/>
      <psa10 value="0.0207149461" flag="0"/>
      <psa30 value="0.0015129623" flag="0"/>
    </comp>
    <comp name="--.HHN">
      <acc value="0.0430300597" flag="0"/>
      <vel value="0.0212741566" flag="0"/>
      <psa03 value="0.0872763548" flag="0"/>
      <psa10 value="0.0253910200" flag="0"/>
      <psa30 value="0.0012587906" flag="0"/>
    </comp>
    <comp name="--.HHZ">
      <acc value="0.0192098025" flag="0"/>
      <vel value="0.0134673327" flag="0"/>
      <psa03 value="0.0329503259" flag="0"/>
      <psa10 value="0.0104866626" flag="0"/>
      <psa30 value="0.0007889849" flag="0"/>
    </comp>
  </station>
  <station code="MILA" name="MILA" netid="HL" insttype="CMG-5" lat="36.7429" lon="24.4282">
    <comp name="00.HNN">
      <acc value="0.0798538978" flag="0"/>
      <vel value="0.0398122467" flag="0"/>
      <psa03 value="0.1294735133" flag="0"/>
      <psa10 value="0.0260645300" flag="0"/>
      <psa30 value="0.0019368709" flag="0"/>
    </comp>
    <comp name="00.HNZ">
      <acc value="0.0352622010" flag="0"/>
      <vel value="0.0171976441" flag="0"/>
      <psa03 value="0.0441287318" flag="0"/>
      <psa10 value="0.0141417945" flag="0"/>
      <psa30 value="0.0010640595" flag="0"/>
    </comp>
    <comp name="00.HNE">
      <acc value="0.0494773832" flag="0"/>
      <vel value="0.0289526975" flag="0"/>
      <psa03 value="0.0639386494" flag="0"/>
      <psa10 value="0.0202177830" flag="0"/>
      <psa30 value="0.0015562746" flag="0"/>
    </comp>
  </station>
  <station code="SAP3" name="SAP3" netid="HL" insttype="65535" lat="36.4356" lon="25.3454">
    <comp name="--.HHE">
      <acc value="0.2549381883" flag="0"/>
      <vel value="0.0774175146" flag="0"/>
      <psa03 value="0.2079732590" flag="0"/>
      <psa10 value="0.0236356934" flag="0"/>
      <psa30 value="0.0038419402" flag="0"/>
    </comp>
    <comp name="--.HHZ">
      <acc value="0.1559020628" flag="0"/>
      <vel value="0.0462612805" flag="0"/>
      <psa03 value="0.1489272040" flag="0"/>
      <psa10 value="0.0104589464" flag="0"/>
      <psa30 value="0.0009603750" flag="0"/>
    </comp>
    <comp name="--.HHN">
      <acc value="0.2205910316" flag="0"/>
      <vel value="0.0664690885" flag="0"/>
      <psa03 value="0.2607659667" flag="0"/>
      <psa10 value="0.0183245642" flag="0"/>
      <psa30 value="0.0024565941" flag="0"/>
    </comp>
  </station>
  <station code="THERA" name="THERA" netid="HL" insttype="120" lat="36.367" lon="25.4753">
    <comp name="--.HHE">
      <acc value="0.0874632854" flag="0"/>
      <vel value="0.0192558122" flag="0"/>
      <psa03 value="0.1207845106" flag="0"/>
      <psa10 value="0.0073195223" flag="0"/>
      <psa30 value="0.0017416410" flag="0"/>
    </comp>
    <comp name="--.HHN">
      <acc value="0.1248088893" flag="0"/>
      <vel value="0.0269265264" flag="0"/>
      <psa03 value="0.1403552862" flag="0"/>
      <psa10 value="0.0132185620" flag="0"/>
      <psa30 value="0.0016228022" flag="0"/>
    </comp>
    <comp name="--.HHZ">
      <acc value="0.0910863667" flag="0"/>
      <vel value="0.0254091248" flag="0"/>
      <psa03 value="0.0718944032" flag="0"/>
      <psa10 value="0.0121220482" flag="0"/>
      <psa30 value="0.0011532308" flag="0"/>
    </comp>
  </station>
  <station code="THRA" name="THRA" netid="HL" insttype="CMG-5" lat="36.415" lon="25.4324">
    <comp name="00.HNE">
      <acc value="0.2731207351" flag="0"/>
      <vel value="0.0850571854" flag="0"/>
      <psa03 value="0.4489446661" flag="0"/>
      <psa10 value="0.0514959735" flag="0"/>
      <psa30 value="0.0064023092" flag="0"/>
    </comp>
    <comp name="00.HNN">
      <acc value="0.3339752264" flag="0"/>
      <vel value="0.0917663438" flag="0"/>
      <psa03 value="0.4480556671" flag="0"/>
      <psa10 value="0.1092646537" flag="0"/>
      <psa30 value="0.0065705300" flag="0"/>
    </comp>
    <comp name="00.HNZ">
      <acc value="0.2731973454" flag="0"/>
      <vel value="0.0758328398" flag="0"/>
      <psa03 value="0.3605461912" flag="0"/>
      <psa10 value="0.0304448454" flag="0"/>
      <psa30 value="0.0024258125" flag="0"/>
    </comp>
  </station>
  <station code="TNSA" name="TNSA" netid="HL" insttype="CMG-5" lat="37.5394" lon="25.1631">
    <comp name="00.HNE">
      <acc value="0.0188960520" flag="0"/>
      <vel value="0.0060857914" flag="0"/>
      <psa03 value="0.0260734579" flag="0"/>
      <psa10 value="0.0026829354" flag="0"/>
      <psa30 value="0.0003009965" flag="0"/>
    </comp>
    <comp name="00.HNN">
      <acc value="0.0249414250" flag="0"/>
      <vel value="0.0087101327" flag="0"/>
      <psa03 value="0.0650879855" flag="0"/>
      <psa10 value="0.0049631291" flag="0"/>
      <psa30 value="0.0006042258" flag="0"/>
    </comp>
    <comp name="00.HNZ">
      <acc value="0.0196663758" flag="0"/>
      <vel value="0.0099744444" flag="0"/>
      <psa03 value="0.0369477563" flag="0"/>
      <psa10 value="0.0051770382" flag="0"/>
      <psa30 value="0.0006895376" flag="0"/>
    </comp>
  </station>
  <station code="AKRO" name="AKRO" netid="HT" insttype="Compact," lat="36.3584" lon="25.3967">
    <comp name="--.HHN">
      <acc value="0.3536211363" flag="0"/>
      <vel value="0.0741488792" flag="0"/>
      <psa03 value="0.1917906234" flag="0"/>
      <psa10 value="0.0313117287" flag="0"/>
      <psa30 value="0.0018584876" flag="0"/>
    </comp>
    <comp name="--.HHE">
      <acc value="0.3538154911" flag="0"/>
      <vel value="0.0812393189" flag="0"/>
      <psa03 value="0.3819367434" flag="0"/>
      <psa10 value="0.0387348210" flag="0"/>
      <psa30 value="0.0026128001" flag="0"/>
    </comp>
    <comp name="--.HHZ">
      <acc value="0.2114985179" flag="0"/>
      <vel value="0.0474196781" flag="0"/>
      <psa03 value="0.1527098652" flag="0"/>
      <psa10 value="0.0134866084" flag="0"/>
      <psa30 value="0.0017024249" flag="0"/>
    </comp>
  </station>
  <station code="CMBO" name="CMBO" netid="HT" insttype="120P," lat="36.4709" lon="25.4056">
    <comp name="--.HHE">
      <acc value="0.2043287706" flag="0"/>
      <vel value="0.0499480297" flag="0"/>
      <psa03 value="0.1793933112" flag="0"/>
      <psa10 value="0.0225013549" flag="0"/>
      <psa30 value="0.0033915171" flag="0"/>
    </comp>
    <comp name="--.HHN">
      <acc value="0.2238239393" flag="0"/>
      <vel value="0.0679690837" flag="0"/>
      <psa03 value="0.2204075660" flag="0"/>
      <psa10 value="0.0387969697" flag="0"/>
      <psa30 value="0.0030572219" flag="0"/>
    </comp>
    <comp name="--.HHZ">
      <acc value="0.1370028187" flag="0"/>
      <vel value="0.0394768340" flag="0"/>
      <psa03 value="0.1980950989" flag="0"/>
      <psa10 value="0.0113318049" flag="0"/>
      <psa30 value="0.0030431612" flag="0"/>
    </comp>
  </station>
</stationlist>
