<?xml version="1.0" encoding="UTF-8" standalone="yes"?>
<!DOCTYPE earthquake SYSTEM "stationlist.dtd">
<stationlist created="" xmlns="ch.ethz.sed.shakemap.usgs.xml">
  <station code="APE" name="APE" netid="GE" insttype="STS-2/N" lat="37.0727" lon="25.523">
    <comp name="--.HHE">
      <acc value="0.0545171619" flag="0"/>
      <vel value="0.0109310099" flag="0"/>
      <psa03 value="0.0370368731" flag="0"/>
      <psa10 value="0.0032030857" flag="0"/>
      <psa30 value="0.0008915151" flag="0"/>
    </comp>
    <comp name="--.HHN">
      <acc value="0.0606105097" flag="0"/>
      <vel value="0.0098407039" flag="0"/>
      <psa03 value="0.0356109264" flag="0"/>
      <psa10 value="0.0031761411" flag="0"/>
      <psa30 value="0.0012310844" flag="0"/>
    </comp>
    <comp name="--.HHZ">
      <acc value="0.0288490783" flag="0"/>
      <vel value="0.0060778415" flag="0"/>
      <psa03 value="0.0172562808" flag="0"/>
      <psa10 value="0.0033768402" flag="0"/>
      <psa30 value="0.0012977635" flag="0"/>
    </comp>
  </station>
  <station code="THERA" name="THERA" netid="GE" insttype="STS-2/N" lat="36.367" lon="25.4753">
    <comp name="--.HHE">
      <acc value="0.0868884917" flag="0"/>
      <vel value="0.0196969721" flag="0"/>
      <psa03 value="0.1249020566" flag="0"/>
      <psa10 value="0.0073866420" flag="0"/>
      <psa30 value="0.0017412094" flag="0"/>
    </comp>
    <comp name="--.HHZ">
      <acc value="0.0910201248" flag="0"/>
      <vel value="0.0262403389" flag="0"/>
      <psa03 value="0.0742605862" flag="0"/>
      <psa10 value="0.0122112762" flag="0"/>
      <psa30 value="0.0011528376" flag="0"/>
    </comp>
    <comp name="--.HHN">
      <acc value="0.0639571949" flag="0"/>
      <vel value="0.0137715745" flag="0"/>
      <psa03 value="0.0727164489" flag="0"/>
      <psa10 value="0.0066551780" flag="0"/>
      <psa30 value="0.0008145456" flag="0"/>
    </comp>
  </station>
</stationlist>
