<?xml version="1.0" encoding="UTF-8" standalone="yes"?>
<!DOCTYPE earthquake SYSTEM "stationlist.dtd">
<stationlist created="" xmlns="ch.ethz.sed.shakemap.usgs.xml">
  <station code="ARPRA" name="ARPRA" netid="KO" insttype="CMG-5T" lat="39.0929" lon="38.3356">
    <comp name="--.HNN">
      <acc value="0.0863398902" flag="0"/>
      <vel value="0.0461730839" flag="0"/>
      <psa03 value="0.2507467943" flag="0"/>
      <psa10 value="0.0676763201" flag="0"/>
      <psa30 value="0.0048134680" flag="0"/>
    </comp>
    <comp name="--.HNZ">
      <acc value="0.0390319296" flag="0"/>
      <vel value="0.0307835716" flag="0"/>
      <psa03 value="0.0913032237" flag="0"/>
      <psa10 value="0.0449262557" flag="0"/>
      <psa30 value="0.0025349959" flag="0"/>
    </comp>
    <comp name="--.HNE">
      <acc value="0.1029188841" flag="0"/>
      <vel value="0.0651573257" flag="0"/>
      <psa03 value="0.3221480965" flag="0"/>
      <psa10 value="0.0733324899" flag="0"/>
      <psa30 value="0.0074665105" flag="0"/>
    </comp>
  </station>
  <station code="DARE" name="DARE" netid="KO" insttype="CMG-3ESP" lat="38.5712" lon="37.4832">
    <comp name="--.HHN">
      <acc value="0.0278094338" flag="0"/>
      <vel value="0.0233079175" flag="0"/>
      <psa03 value="0.0599708335" flag="0"/>
      <psa10 value="0.0263983319" flag="0"/>
      <psa30 value="0.0021955343" flag="0"/>
    </comp>
    <comp name="--.HHE">
      <acc value="0.0216274283" flag="0"/>
      <vel value="0.0197547837" flag="0"/>
      <psa03 value="0.0577037538" flag="0"/>
      <psa10 value="0.0331796283" flag="0"/>
      <psa30 value="0.0017504435" flag="0"/>
    </comp>
  </station>
  <station code="DYBB" name="DYBB" netid="KO" insttype="CMG-3T" lat="37.9532" lon="40.1393">
    <comp name="--.HHE">
      <acc value="0.0427636382" flag="0"/>
      <vel value="0.0331329113" flag="0"/>
      <psa03 value="0.0839278177" flag="0"/>
      <psa10 value="0.0699970466" flag="0"/>
      <psa30 value="0.0049904436" flag="0"/>
    </comp>
    <comp name="--.HHN">
      <acc value="0.0507501819" flag="0"/>
      <vel value="0.0275630900" flag="0"/>
      <psa03 value="0.1126887272" flag="0"/>
      <psa10 value="0.0371717191" flag="0"/>
      <psa30 value="0.0064866656" flag="0"/>
    </comp>
    <comp name="--.HHZ">
      <acc value="0.0313439137" flag="0"/>
      <vel value="0.0250132643" flag="0"/>
      <psa03 value="0.0434828483" flag="0"/>
      <psa10 value="0.0303617168" flag="0"/>
      <psa30 value="0.0030397510" flag="0"/>
    </comp>
  </station>
  <station code="SVRC" name="SVRC" netid="KO" insttype="CMG-3T" lat="38.3775" lon="39.306">
    <comp name="--.HHE">
      <acc value="0.1228885700" flag="0"/>
      <vel value="0.0493915447" flag="0"/>
      <psa03 value="0.1696867549" flag="0"/>
      <psa10 value="0.0553353013" flag="0"/>
      <psa30 value="0.0096903062" flag="0"/>
    </comp>
    <comp name="--.HHN">
      <acc value="0.0811162806" flag="0"/>
      <vel value="0.0329998717" flag="0"/>
      <psa03 value="0.1724025823" flag="0"/>
      <psa10 value="0.0326207714" flag="0"/>
      <psa30 value="0.0063778310" flag="0"/>
    </comp>
    <comp name="--.HHZ">
      <acc value="0.0853213546" flag="0"/>
      <vel value="0.0316862004" flag="0"/>
      <psa03 value="0.1366997133" flag="0"/>
      <psa10 value="0.0198289799" flag="0"/>
      <psa30 value="0.0073826542" flag="0"/>
    </comp>
  </station>
  <station code="URFA" name="URFA" netid="KO" insttype="CMG-3ESP" lat="37.4409" lon="38.8213">
    <comp name="--.HHE">
      <acc value="0.1630928604" flag="0"/>
      <vel value="0.0701432155" flag="0"/>
      <psa03 value="0.2229938988" flag="0"/>
      <psa10 value="0.0511240110" flag="0"/>
      <psa30 value="0.0058816026" flag="0"/>
    </comp>
    <comp name="--.HHN">
      <acc value="0.1297897232" flag="0"/>
      <vel value="0.0403327624" flag="0"/>
      <psa03 value="0.1302017645" flag="0"/>
      <psa10 value="0.0407574530" flag="0"/>
      <psa30 value="0.0047299070" flag="0"/>
    </comp>
  </station>
</stationlist>
