<?xml version="1.0" encoding="UTF-8" standalone="yes"?>
<!DOCTYPE earthquake SYSTEM "stationlist.dtd">
<stationlist created="" xmlns="ch.ethz.sed.shakemap.usgs.xml">
  <station code="FOO" name="FOO" netid="NS" insttype="" lat="61.5973" lon="5.04267">
    <comp name="00.HHE">
      <acc value="0.1504253488" flag="0"/>
      <vel value="0.0158217252" flag="0"/>
      <psa03 value="0.0565443546" flag="0"/>
      <psa10 value="0.0064466181" flag="0"/>
      <psa30 value="0.0004194759" flag="0"/>
    </comp>
    <comp name="00.HHN">
      <acc value="0.1447098930" flag="0"/>
      <vel value="0.0248238710" flag="0"/>
      <psa03 value="0.0518017474" flag="0"/>
      <psa10 value="0.0067299679" flag="0"/>
      <psa30 value="0.0004753072" flag="0"/>
    </comp>
    <comp name="00.HHZ">
      <acc value="0.0745377738" flag="0"/>
      <vel value="0.0129241420" flag="0"/>
      <psa03 value="0.0485915886" flag="0"/>
      <psa10 value="0.0047318161" flag="0"/>
      <psa30 value="0.0003582214" flag="0"/>
    </comp>
  </station>
</stationlist>
