<?xml version="1.0" encoding="UTF-8" standalone="yes"?>
<!DOCTYPE earthquake SYSTEM "stationlist.dtd">
<stationlist created="" xmlns="ch.ethz.sed.shakemap.usgs.xml">
  <station code="CHVC" name="CHVC" netid="CZ" insttype="" lat="50.5881" lon="16.0547">
    <comp name="--.HHE">
      <acc value="0.0144048006" flag="0"/>
      <vel value="0.0053247976" flag="0"/>
      <psa03 value="0.0243250040" flag="0"/>
      <psa10 value="0.0047766713" flag="0"/>
      <psa30 value="0.0016873511" flag="0"/>
    </comp>
    <comp name="--.HHN">
      <acc value="0.0136052678" flag="0"/>
      <vel value="0.0063844436" flag="0"/>
      <psa03 value="0.0263488485" flag="0"/>
      <psa10 value="0.0036345736" flag="0"/>
      <psa30 value="0.0014926802" flag="0"/>
    </comp>
    <comp name="--.HHZ">
      <acc value="0.0068881106" flag="0"/>
      <vel value="0.0072883875" flag="0"/>
      <psa03 value="0.0109217778" flag="0"/>
      <psa10 value="0.0035827905" flag="0"/>
      <psa30 value="0.0023741501" flag="0"/>
    </comp>
  </station>
  <station code="UPC" name="UPC" netid="CZ" insttype="" lat="50.5074" lon="16.0121">
    <comp name="--.HHE">
      <acc value="0.0120809015" flag="0"/>
      <vel value="0.0056347706" flag="0"/>
      <psa03 value="0.0375201007" flag="0"/>
      <psa10 value="0.0032784860" flag="0"/>
      <psa30 value="0.0002282977" flag="0"/>
    </comp>
    <comp name="--.HHZ">
      <acc value="0.0050069775" flag="0"/>
      <vel value="0.0026301787" flag="0"/>
      <psa03 value="0.0108926907" flag="0"/>
      <psa10 value="0.0015037166" flag="0"/>
      <psa30 value="0.0001430266" flag="0"/>
    </comp>
    <comp name="--.HHN">
      <acc value="0.0100083491" flag="0"/>
      <vel value="0.0044768602" flag="0"/>
      <psa03 value="0.0238005574" flag="0"/>
      <psa10 value="0.0036035363" flag="0"/>
      <psa30 value="0.0002278903" flag="0"/>
    </comp>
  </station>
</stationlist>
