<stationlist created="1778136638">
	<station code="DPC" name="DPC" netid="CZ" source="Czech Regional Seismic Network (CZ)" insttype="" lat="50.3502" lon="16.3222">
		<comp name="--.HNE" depth="0.0">
			<acc value="0.000646261059501568" flag="0"/>
			<vel value="0.000212207598797981" flag="0"/>
			<psa03 value="0.000902997237754426" flag="0"/>
			<psa10 value="0.000154085461311981" flag="0"/>
			<psa30 value="4.60730456026641e-05" flag="0"/>
		</comp>
		<comp name="--.HNN" depth="0.0">
			<acc value="0.00118568007765285" flag="0"/>
			<vel value="0.000314826283385949" flag="0"/>
			<psa03 value="0.00130473877628949" flag="0"/>
			<psa10 value="0.000207371627977669" flag="0"/>
			<psa30 value="4.60693116315201e-05" flag="0"/>
		</comp>
		<comp name="--.HNZ" depth="0.0">
			<acc value="0.000642747173990094" flag="0"/>
			<vel value="0.00020924071432633" flag="0"/>
			<psa03 value="0.000898277524054462" flag="0"/>
			<psa10 value="0.000155207605960964" flag="0"/>
			<psa30 value="4.40917392207084e-05" flag="0"/>
		</comp>
	</station>
</stationlist>
