<stationlist created="1778069461">
	<station code="IMMV" name="IMMV" netid="GE" source="GEOFON" insttype="" lat="35.4606" lon="23.9811">
		<comp name="--.HNE" depth="0.0">
			<acc value="0.000497357040726744" flag="0"/>
			<vel value="0.00073710279882757" flag="0"/>
			<psa03 value="0.00147649281840297" flag="0"/>
			<psa10 value="0.00131273634218009" flag="0"/>
			<psa30 value="0.00017449460581126" flag="0"/>
		</comp>
		<comp name="--.HNN" depth="0.0">
			<acc value="0.000491681064495832" flag="0"/>
			<vel value="0.000413422514678114" flag="0"/>
			<psa03 value="0.00170020385149433" flag="0"/>
			<psa10 value="0.000591939393559735" flag="0"/>
			<psa30 value="0.000175389449943625" flag="0"/>
		</comp>
		<comp name="--.HNZ" depth="0.0">
			<acc value="0.000392137815537257" flag="0"/>
			<vel value="0.000378174473300411" flag="0"/>
			<psa03 value="0.00134226619854815" flag="0"/>
			<psa10 value="0.000463081838499113" flag="0"/>
			<psa30 value="6.57710437288595e-05" flag="0"/>
		</comp>
	</station>
	<station code="KARP" name="KARP" netid="GE" source="GEOFON" insttype="" lat="35.5471" lon="27.16106">
		<comp name="--.HNE" depth="0.0">
			<acc value="0.00316894034703903" flag="0"/>
			<vel value="0.000506412894071554" flag="0"/>
			<psa03 value="0.00129752399192988" flag="0"/>
			<psa10 value="0.00077717212895938" flag="0"/>
			<psa30 value="0.000191944066392386" flag="0"/>
		</comp>
		<comp name="--.HNN" depth="0.0">
			<acc value="0.00468005807631431" flag="0"/>
			<vel value="0.000576665474797644" flag="0"/>
			<psa03 value="0.000850101925747163" flag="0"/>
			<psa10 value="0.000785225726150669" flag="0"/>
			<psa30 value="0.000238475961275388" flag="0"/>
		</comp>
		<comp name="--.HNZ" depth="0.0">
			<acc value="0.000870665769559441" flag="0"/>
			<vel value="0.000248634480127389" flag="0"/>
			<psa03 value="0.00076061751251062" flag="0"/>
			<psa10 value="0.000362411873608001" flag="0"/>
			<psa30 value="0.000134226619854815" flag="0"/>
		</comp>
	</station>
	<station code="SIT2" name="SIT2" netid="HI" source="ITSAK Strong Motion Network" insttype="" lat="35.2059" lon="26.107">
		<comp name="--.HNE" depth="0.0">
			<acc value="0.017147682746959" flag="0"/>
			<vel value="0.0112351514500596" flag="0"/>
			<psa03 value="0.061252080860414" flag="0"/>
			<psa10 value="0.00491269428668624" flag="0"/>
			<psa30 value="0.00054003843388254" flag="0"/>
		</comp>
		<comp name="--.HNN" depth="0.0">
			<acc value="0.0160954561652462" flag="0"/>
			<vel value="0.0099571541451601" flag="0"/>
			<psa03 value="0.0425945807005947" flag="0"/>
			<psa10 value="0.00578248278334544" flag="0"/>
			<psa30 value="0.000796411277805237" flag="0"/>
		</comp>
		<comp name="--.HNZ" depth="0.0">
			<acc value="0.00860030993826845" flag="0"/>
			<vel value="0.00341628660312689" flag="0"/>
			<psa03 value="0.0238923383341571" flag="0"/>
			<psa10 value="0.00123622716886285" flag="0"/>
			<psa30 value="0.000523931239499962" flag="0"/>
		</comp>
	</station>
</stationlist>
