<?xml version="1.0" encoding="UTF-8" standalone="yes"?>
<!DOCTYPE earthquake SYSTEM "stationlist.dtd">
<stationlist created="" xmlns="ch.ethz.sed.shakemap.usgs.xml">
  <station code="AGRB" name="AGRB" netid="KO" insttype="CMG-3T" lat="39.5755" lon="42.992">
    <comp name="--.HHE">
      <acc value="0.0927721120" flag="0"/>
      <vel value="0.0353480242" flag="0"/>
      <psa03 value="0.1012395435" flag="0"/>
      <psa10 value="0.0303447578" flag="0"/>
      <psa30 value="0.0029235818" flag="0"/>
    </comp>
    <comp name="--.HHN">
      <acc value="0.0636341504" flag="0"/>
      <vel value="0.0251652613" flag="0"/>
      <psa03 value="0.1430261904" flag="0"/>
      <psa10 value="0.0518774517" flag="0"/>
      <psa30 value="0.0024656739" flag="0"/>
    </comp>
    <comp name="--.HHZ">
      <acc value="0.0404226922" flag="0"/>
      <vel value="0.0235832286" flag="0"/>
      <psa03 value="0.0470296333" flag="0"/>
      <psa10 value="0.0364884554" flag="0"/>
      <psa30 value="0.0027637616" flag="0"/>
    </comp>
  </station>
  <station code="AKDM" name="AKDM" netid="KO" insttype="CMG-3ESP" lat="38.3285" lon="42.98">
    <comp name="--.HHZ">
      <acc value="0.0143491473" flag="0"/>
      <vel value="0.0161626066" flag="0"/>
      <psa03 value="0.0385014449" flag="0"/>
      <psa10 value="0.0187454300" flag="0"/>
      <psa30 value="0.0053210604" flag="0"/>
    </comp>
    <comp name="--.HHN">
      <acc value="0.0191804820" flag="0"/>
      <vel value="0.0235028959" flag="0"/>
      <psa03 value="0.0502261807" flag="0"/>
      <psa10 value="0.0212269611" flag="0"/>
      <psa30 value="0.0053564634" flag="0"/>
    </comp>
    <comp name="--.HHE">
      <acc value="0.0181362243" flag="0"/>
      <vel value="0.0269377592" flag="0"/>
      <psa03 value="0.0495400887" flag="0"/>
      <psa10 value="0.0466156316" flag="0"/>
      <psa30 value="0.0045624335" flag="0"/>
    </comp>
  </station>
  <station code="CLDR" name="CLDR" netid="KO" insttype="CMG-3ESP" lat="39.144" lon="43.9172">
    <comp name="--.HHE">
      <acc value="0.2634063406" flag="0"/>
      <vel value="0.1292730533" flag="0"/>
      <psa03 value="0.6392935108" flag="0"/>
      <psa10 value="0.1443198353" flag="0"/>
      <psa30 value="0.0186424918" flag="0"/>
    </comp>
    <comp name="--.HHN">
      <acc value="0.2419120649" flag="0"/>
      <vel value="0.1636981000" flag="0"/>
      <psa03 value="0.5180792421" flag="0"/>
      <psa10 value="0.3760242152" flag="0"/>
      <psa30 value="0.0321898691" flag="0"/>
    </comp>
    <comp name="--.HHZ">
      <acc value="0.1717948356" flag="0"/>
      <vel value="0.0566593414" flag="0"/>
      <psa03 value="0.2069216993" flag="0"/>
      <psa10 value="0.1043411295" flag="0"/>
      <psa30 value="0.0071867462" flag="0"/>
    </comp>
  </station>
  <station code="GURO" name="GURO" netid="KO" insttype="CMG-3T" lat="38.5509" lon="42.0322">
    <comp name="--.HHE">
      <acc value="0.0321640444" flag="0"/>
      <vel value="0.0153853872" flag="0"/>
      <psa03 value="0.0876660220" flag="0"/>
      <psa10 value="0.0094148392" flag="0"/>
      <psa30 value="0.0009548066" flag="0"/>
    </comp>
    <comp name="--.HHN">
      <acc value="0.0129073386" flag="0"/>
      <vel value="0.0103020471" flag="0"/>
      <psa03 value="0.0569107338" flag="0"/>
      <psa10 value="0.0085359394" flag="0"/>
      <psa30 value="0.0007013476" flag="0"/>
    </comp>
    <comp name="--.HHZ">
      <acc value="0.0300431238" flag="0"/>
      <vel value="0.0135729523" flag="0"/>
      <psa03 value="0.1518145198" flag="0"/>
      <psa10 value="0.0081872942" flag="0"/>
      <psa30 value="0.0005089101" flag="0"/>
    </comp>
  </station>
  <station code="MLAZ" name="MLAZ" netid="KO" insttype="CMG-3T" lat="39.141" lon="42.5496">
    <comp name="--.HHZ">
      <acc value="0.0446042831" flag="0"/>
      <vel value="0.0477305968" flag="0"/>
      <psa03 value="0.0874746880" flag="0"/>
      <psa10 value="0.0660328228" flag="0"/>
      <psa30 value="0.0096274851" flag="0"/>
    </comp>
  </station>
  <station code="TASB" name="TASB" netid="KO" insttype="CMG-3T" lat="39.9838" lon="44.2384">
    <comp name="--.HHZ">
      <acc value="0.0049013693" flag="0"/>
      <vel value="0.0051390901" flag="0"/>
      <psa03 value="0.0109747306" flag="0"/>
      <psa10 value="0.0117681213" flag="0"/>
      <psa30 value="0.0027505791" flag="0"/>
    </comp>
    <comp name="--.HHE">
      <acc value="0.0085705483" flag="0"/>
      <vel value="0.0161722680" flag="0"/>
      <psa03 value="0.0156704385" flag="0"/>
      <psa10 value="0.0256503142" flag="0"/>
      <psa30 value="0.0055479022" flag="0"/>
    </comp>
    <comp name="--.HHN">
      <acc value="0.0068202300" flag="0"/>
      <vel value="0.0091654414" flag="0"/>
      <psa03 value="0.0147650331" flag="0"/>
      <psa10 value="0.0164195241" flag="0"/>
      <psa30 value="0.0030221047" flag="0"/>
    </comp>
  </station>
</stationlist>
