<?xml version="1.0" encoding="UTF-8" standalone="yes"?>
<!DOCTYPE earthquake SYSTEM "stationlist.dtd">
<stationlist created="" xmlns="ch.ethz.sed.shakemap.usgs.xml">
  <station code="APE" name="APE" netid="GE" insttype="STS-2/N" lat="37.0727" lon="25.523">
    <comp name="--.HHN">
      <acc value="0.1696163271" flag="0"/>
      <vel value="0.0436505295" flag="0"/>
      <psa03 value="0.1467677246" flag="0"/>
      <psa10 value="0.0098598289" flag="0"/>
      <psa30 value="0.0006117524" flag="0"/>
    </comp>
    <comp name="--.HHE">
      <acc value="0.1347441042" flag="0"/>
      <vel value="0.0275243142" flag="0"/>
      <psa03 value="0.1456115456" flag="0"/>
      <psa10 value="0.0056154290" flag="0"/>
      <psa30 value="0.0008175682" flag="0"/>
    </comp>
    <comp name="--.HHZ">
      <acc value="0.0574714600" flag="0"/>
      <vel value="0.0118175433" flag="0"/>
      <psa03 value="0.0931770065" flag="0"/>
      <psa10 value="0.0051643887" flag="0"/>
      <psa30 value="0.0003978952" flag="0"/>
    </comp>
  </station>
  <station code="THERA" name="THERA" netid="GE" insttype="STS-2/N" lat="36.367" lon="25.4753">
    <comp name="--.HHE">
      <acc value="0.1379137604" flag="0"/>
      <vel value="0.0338497472" flag="0"/>
      <psa03 value="0.2152982754" flag="0"/>
      <psa10 value="0.0128211531" flag="0"/>
      <psa30 value="0.0014326828" flag="0"/>
    </comp>
    <comp name="--.HHZ">
      <acc value="0.1326163803" flag="0"/>
      <vel value="0.0298274054" flag="0"/>
      <psa03 value="0.1753957289" flag="0"/>
      <psa10 value="0.0076222635" flag="0"/>
      <psa30 value="0.0007953085" flag="0"/>
    </comp>
    <comp name="--.HHN">
      <acc value="0.1113112469" flag="0"/>
      <vel value="0.0267191577" flag="0"/>
      <psa03 value="0.1370531339" flag="0"/>
      <psa10 value="0.0056948868" flag="0"/>
      <psa30 value="0.0006334431" flag="0"/>
    </comp>
  </station>
  <station code="SNT1" name="SNT1" netid="HA" insttype="30" lat="36.4159" lon="25.4282">
    <comp name="--.HHE">
      <acc value="0.0882398266" flag="0"/>
      <vel value="0.0192579657" flag="0"/>
      <psa03 value="0.0901664608" flag="0"/>
      <psa10 value="0.0110089351" flag="0"/>
      <psa30 value="0.0012508741" flag="0"/>
    </comp>
    <comp name="--.HHN">
      <acc value="0.0837292082" flag="0"/>
      <vel value="0.0228902961" flag="0"/>
      <psa03 value="0.0994380159" flag="0"/>
      <psa10 value="0.0193980429" flag="0"/>
      <psa30 value="0.0008432697" flag="0"/>
    </comp>
    <comp name="--.HHZ">
      <acc value="0.0734618086" flag="0"/>
      <vel value="0.0229647175" flag="0"/>
      <psa03 value="0.1165602758" flag="0"/>
      <psa10 value="0.0083500000" flag="0"/>
      <psa30 value="0.0005498686" flag="0"/>
    </comp>
  </station>
  <station code="NAX1" name="NAX1" netid="HI" insttype="CMG-5TD,ACCELEROMETER,GURALP" lat="37.1014" lon="25.3741">
    <comp name="--.HNN">
      <acc value="0.0616869021" flag="0"/>
      <vel value="0.0169083691" flag="0"/>
      <psa03 value="0.0600067010" flag="0"/>
      <psa10 value="0.0079044538" flag="0"/>
      <psa30 value="0.0006909377" flag="0"/>
    </comp>
    <comp name="--.HNE">
      <acc value="0.0735668133" flag="0"/>
      <vel value="0.0145292389" flag="0"/>
      <psa03 value="0.0872276083" flag="0"/>
      <psa10 value="0.0061244334" flag="0"/>
      <psa30 value="0.0004336634" flag="0"/>
    </comp>
    <comp name="--.HNZ">
      <acc value="0.0324509440" flag="0"/>
      <vel value="0.0117130374" flag="0"/>
      <psa03 value="0.0389516076" flag="0"/>
      <psa10 value="0.0088797642" flag="0"/>
      <psa30 value="0.0004446179" flag="0"/>
    </comp>
  </station>
  <station code="SFR2" name="SFR2" netid="HI" insttype="unknown" lat="36.3998" lon="25.4382">
    <comp name="--.HNE">
      <acc value="0.2132167172" flag="0"/>
      <vel value="0.0574923176" flag="0"/>
      <psa03 value="0.3877055164" flag="0"/>
      <psa10 value="0.0236551362" flag="0"/>
      <psa30 value="0.0018439825" flag="0"/>
    </comp>
    <comp name="--.HNN">
      <acc value="0.1869704884" flag="0"/>
      <vel value="0.0563427730" flag="0"/>
      <psa03 value="0.4919064642" flag="0"/>
      <psa10 value="0.0249953939" flag="0"/>
      <psa30 value="0.0016744628" flag="0"/>
    </comp>
    <comp name="--.HNZ">
      <acc value="0.2451412143" flag="0"/>
      <vel value="0.0713549325" flag="0"/>
      <psa03 value="0.3204831478" flag="0"/>
      <psa10 value="0.0264446823" flag="0"/>
      <psa30 value="0.0016853934" flag="0"/>
    </comp>
  </station>
  <station code="AMGA" name="AMGA" netid="HL" insttype="SMART24" lat="36.8316" lon="25.8938">
    <comp name="--.HHE">
      <acc value="0.4524947584" flag="0"/>
      <vel value="0.1515874912" flag="0"/>
      <psa03 value="0.5558040231" flag="0"/>
      <psa10 value="0.0537595257" flag="0"/>
      <psa30 value="0.0059953496" flag="0"/>
    </comp>
    <comp name="--.HHN">
      <acc value="0.5032574823" flag="0"/>
      <vel value="0.1149074656" flag="0"/>
      <psa03 value="0.3602504817" flag="0"/>
      <psa10 value="0.0501698826" flag="0"/>
      <psa30 value="0.0045645092" flag="0"/>
    </comp>
    <comp name="--.HHZ">
      <acc value="0.2962321299" flag="0"/>
      <vel value="0.0559397422" flag="0"/>
      <psa03 value="0.1593697477" flag="0"/>
      <psa10 value="0.0204067087" flag="0"/>
      <psa30 value="0.0020093141" flag="0"/>
    </comp>
  </station>
  <station code="APE" name="APE" netid="HL" insttype="120" lat="37.0727" lon="25.523">
    <comp name="--.HHN">
      <acc value="0.1583251721" flag="0"/>
      <vel value="0.0421875392" flag="0"/>
      <psa03 value="0.1422421159" flag="0"/>
      <psa10 value="0.0096532059" flag="0"/>
      <psa30 value="0.0005925170" flag="0"/>
    </comp>
    <comp name="--.HHE">
      <acc value="0.1279888103" flag="0"/>
      <vel value="0.0266161640" flag="0"/>
      <psa03 value="0.1413733194" flag="0"/>
      <psa10 value="0.0055135825" flag="0"/>
      <psa30 value="0.0008050828" flag="0"/>
    </comp>
    <comp name="--.HHZ">
      <acc value="0.0544962928" flag="0"/>
      <vel value="0.0115032376" flag="0"/>
      <psa03 value="0.0903459874" flag="0"/>
      <psa10 value="0.0051076762" flag="0"/>
      <psa30 value="0.0003947882" flag="0"/>
    </comp>
  </station>
  <station code="SANT" name="SANT" netid="HL" insttype="30" lat="36.3705" lon="25.4593">
    <comp name="--.HHE">
      <acc value="0.3709513811" flag="0"/>
      <vel value="0.0750136994" flag="0"/>
      <psa03 value="0.4339445261" flag="0"/>
      <psa10 value="0.0162847328" flag="0"/>
      <psa30 value="0.0018839672" flag="0"/>
    </comp>
    <comp name="--.HHN">
      <acc value="0.2923053360" flag="0"/>
      <vel value="0.0607926719" flag="0"/>
      <psa03 value="0.2232454175" flag="0"/>
      <psa10 value="0.0092818407" flag="0"/>
      <psa30 value="0.0012736198" flag="0"/>
    </comp>
    <comp name="--.HHZ">
      <acc value="0.2414075516" flag="0"/>
      <vel value="0.0378512266" flag="0"/>
      <psa03 value="0.1938257573" flag="0"/>
      <psa10 value="0.0108783180" flag="0"/>
      <psa30 value="0.0007037886" flag="0"/>
    </comp>
  </station>
  <station code="SAP3" name="SAP3" netid="HL" insttype="65535" lat="36.4356" lon="25.3454">
    <comp name="--.HHE">
      <acc value="0.0911186890" flag="0"/>
      <vel value="0.0246236898" flag="0"/>
      <psa03 value="0.1281690904" flag="0"/>
      <psa10 value="0.0105389425" flag="0"/>
      <psa30 value="0.0011341632" flag="0"/>
    </comp>
    <comp name="--.HHN">
      <acc value="0.0995831476" flag="0"/>
      <vel value="0.0268634447" flag="0"/>
      <psa03 value="0.1433226014" flag="0"/>
      <psa10 value="0.0110755664" flag="0"/>
      <psa30 value="0.0008449161" flag="0"/>
    </comp>
    <comp name="--.HHZ">
      <acc value="0.1018571902" flag="0"/>
      <vel value="0.0229925332" flag="0"/>
      <psa03 value="0.1196226138" flag="0"/>
      <psa10 value="0.0068566676" flag="0"/>
      <psa30 value="0.0007605860" flag="0"/>
    </comp>
  </station>
  <station code="THERA" name="THERA" netid="HL" insttype="120" lat="36.367" lon="25.4753">
    <comp name="--.HHN">
      <acc value="0.2168946162" flag="0"/>
      <vel value="0.0523120958" flag="0"/>
      <psa03 value="0.2664845147" flag="0"/>
      <psa10 value="0.0112224544" flag="0"/>
      <psa30 value="0.0012346783" flag="0"/>
    </comp>
    <comp name="--.HHE">
      <acc value="0.1394212945" flag="0"/>
      <vel value="0.0332207420" flag="0"/>
      <psa03 value="0.2098788623" flag="0"/>
      <psa10 value="0.0126042824" flag="0"/>
      <psa30 value="0.0014134921" flag="0"/>
    </comp>
    <comp name="--.HHZ">
      <acc value="0.1326136327" flag="0"/>
      <vel value="0.0293440643" flag="0"/>
      <psa03 value="0.1700438736" flag="0"/>
      <psa10 value="0.0075319800" flag="0"/>
      <psa30 value="0.0007756445" flag="0"/>
    </comp>
  </station>
  <station code="THRA" name="THRA" netid="HL" insttype="CMG-5" lat="36.415" lon="25.4324">
    <comp name="00.HNE">
      <acc value="0.2635441741" flag="0"/>
      <vel value="0.1022592351" flag="0"/>
      <psa03 value="0.6676058824" flag="0"/>
      <psa10 value="0.0289960174" flag="0"/>
      <psa30 value="0.0024512151" flag="0"/>
    </comp>
    <comp name="00.HNN">
      <acc value="0.2310739623" flag="0"/>
      <vel value="0.0624749426" flag="0"/>
      <psa03 value="0.4866935720" flag="0"/>
      <psa10 value="0.0343428333" flag="0"/>
      <psa30 value="0.0021883671" flag="0"/>
    </comp>
    <comp name="00.HNZ">
      <acc value="0.2337800874" flag="0"/>
      <vel value="0.0655791122" flag="0"/>
      <psa03 value="0.3006852750" flag="0"/>
      <psa10 value="0.0162501544" flag="0"/>
      <psa30 value="0.0013551663" flag="0"/>
    </comp>
  </station>
  <station code="TNSA" name="TNSA" netid="HL" insttype="CMG-5" lat="37.5394" lon="25.1631">
    <comp name="00.HNZ">
      <acc value="0.0240472384" flag="0"/>
      <vel value="0.0079727766" flag="0"/>
      <psa03 value="0.0425250989" flag="0"/>
      <psa10 value="0.0101265507" flag="0"/>
      <psa30 value="0.0009539457" flag="0"/>
    </comp>
    <comp name="00.HNE">
      <acc value="0.0262104561" flag="0"/>
      <vel value="0.0091167069" flag="0"/>
      <psa03 value="0.0338524780" flag="0"/>
      <psa10 value="0.0053334253" flag="0"/>
      <psa30 value="0.0002531997" flag="0"/>
    </comp>
    <comp name="00.HNN">
      <acc value="0.0351994312" flag="0"/>
      <vel value="0.0140684133" flag="0"/>
      <psa03 value="0.0543701647" flag="0"/>
      <psa10 value="0.0048245551" flag="0"/>
      <psa30 value="0.0003639183" flag="0"/>
    </comp>
  </station>
  <station code="AKRO" name="AKRO" netid="HT" insttype="Compact," lat="36.3584" lon="25.3967">
    <comp name="--.HHE">
      <acc value="0.5184352832" flag="0"/>
      <vel value="0.1586935676" flag="0"/>
      <psa03 value="0.9819903577" flag="0"/>
      <psa10 value="0.0319264938" flag="0"/>
      <psa30 value="0.0040342168" flag="0"/>
    </comp>
    <comp name="--.HHN">
      <acc value="0.5736181186" flag="0"/>
      <vel value="0.1190924867" flag="0"/>
      <psa03 value="0.5364007761" flag="0"/>
      <psa10 value="0.0197543132" flag="0"/>
      <psa30 value="0.0020860826" flag="0"/>
    </comp>
    <comp name="--.HHZ">
      <acc value="0.3800378383" flag="0"/>
      <vel value="0.0708604821" flag="0"/>
      <psa03 value="0.4072550733" flag="0"/>
      <psa10 value="0.0145393080" flag="0"/>
      <psa30 value="0.0012218395" flag="0"/>
    </comp>
  </station>
  <station code="CMBO" name="CMBO" netid="HT" insttype="120P," lat="36.4709" lon="25.4056">
    <comp name="--.HHE">
      <acc value="0.0911971655" flag="0"/>
      <vel value="0.0276700620" flag="0"/>
      <psa03 value="0.1419841918" flag="0"/>
      <psa10 value="0.0139954709" flag="0"/>
      <psa30 value="0.0011337740" flag="0"/>
    </comp>
    <comp name="--.HHZ">
      <acc value="0.1144716691" flag="0"/>
      <vel value="0.0290171685" flag="0"/>
      <psa03 value="0.1373995812" flag="0"/>
      <psa10 value="0.0056093752" flag="0"/>
      <psa30 value="0.0007718524" flag="0"/>
    </comp>
  </station>
</stationlist>
