<?xml version="1.0" encoding="UTF-8" standalone="yes"?>
<!DOCTYPE earthquake SYSTEM "stationlist.dtd">
<stationlist created="" xmlns="ch.ethz.sed.shakemap.usgs.xml">
  <station code="AKMS" name="AKMS" netid="CQ" insttype="Trillium120P" lat="35.018" lon="32.335">
    <comp name="--.HHE">
      <acc value="0.0641136271" flag="0"/>
      <vel value="0.0316147566" flag="0"/>
      <psa03 value="0.1734986160" flag="0"/>
      <psa10 value="0.0426530055" flag="0"/>
      <psa30 value="0.0066169989" flag="0"/>
    </comp>
    <comp name="--.HHN">
      <acc value="0.0536428328" flag="0"/>
      <vel value="0.0317600287" flag="0"/>
      <psa03 value="0.1464183602" flag="0"/>
      <psa10 value="0.0524296821" flag="0"/>
      <psa30 value="0.0058434524" flag="0"/>
    </comp>
    <comp name="--.HHZ">
      <acc value="0.0398785404" flag="0"/>
      <vel value="0.0206273958" flag="0"/>
      <psa03 value="0.0875714362" flag="0"/>
      <psa10 value="0.0186650774" flag="0"/>
      <psa30 value="0.0031473234" flag="0"/>
    </comp>
  </station>
  <station code="ALEF" name="ALEF" netid="CQ" insttype="" lat="35.156" lon="32.599">
    <comp name="--.HHN">
      <acc value="0.1055067085" flag="0"/>
      <vel value="0.0623327265" flag="0"/>
      <psa03 value="0.3794087261" flag="0"/>
      <psa10 value="0.0870277827" flag="0"/>
      <psa30 value="0.0048464899" flag="0"/>
    </comp>
    <comp name="--.HHE">
      <acc value="0.1780255670" flag="0"/>
      <vel value="0.0995487682" flag="0"/>
      <psa03 value="0.6624514461" flag="0"/>
      <psa10 value="0.1435382400" flag="0"/>
      <psa30 value="0.0057189928" flag="0"/>
    </comp>
    <comp name="--.HHZ">
      <acc value="0.0564286339" flag="0"/>
      <vel value="0.0321592468" flag="0"/>
      <psa03 value="0.1575796738" flag="0"/>
      <psa10 value="0.0263753391" flag="0"/>
      <psa30 value="0.0022597768" flag="0"/>
    </comp>
  </station>
  <station code="ASGA" name="ASGA" netid="CQ" insttype="" lat="34.786" lon="33.248">
    <comp name="--.HHZ">
      <acc value="0.1839586304" flag="0"/>
      <vel value="0.0730460040" flag="0"/>
      <psa03 value="0.2132251845" flag="0"/>
      <psa10 value="0.0619807579" flag="0"/>
      <psa30 value="0.0046520480" flag="0"/>
    </comp>
    <comp name="--.HHE">
      <acc value="0.1412594782" flag="0"/>
      <vel value="0.0624262702" flag="0"/>
      <psa03 value="0.1987457552" flag="0"/>
      <psa10 value="0.0639205912" flag="0"/>
      <psa30 value="0.0073958709" flag="0"/>
    </comp>
    <comp name="--.HHN">
      <acc value="0.1040092419" flag="0"/>
      <vel value="0.0541657987" flag="0"/>
      <psa03 value="0.2275382885" flag="0"/>
      <psa10 value="0.0857831782" flag="0"/>
      <psa30 value="0.0064883987" flag="0"/>
    </comp>
  </station>
  <station code="ATHA" name="ATHA" netid="CQ" insttype="" lat="35.141" lon="33.396">
    <comp name="--.HHN">
      <acc value="0.3716493422" flag="0"/>
      <vel value="0.2817499820" flag="0"/>
      <psa03 value="1.0763423007" flag="0"/>
      <psa10 value="0.3105071282" flag="0"/>
      <psa30 value="0.0253790889" flag="0"/>
    </comp>
    <comp name="--.HHE">
      <acc value="0.4806092089" flag="0"/>
      <vel value="0.3274857518" flag="0"/>
      <psa03 value="1.1950541599" flag="0"/>
      <psa10 value="0.3487005352" flag="0"/>
      <psa30 value="0.0211276257" flag="0"/>
    </comp>
    <comp name="--.HHZ">
      <acc value="0.4052604147" flag="0"/>
      <vel value="0.2124337069" flag="0"/>
      <psa03 value="0.7547059513" flag="0"/>
      <psa10 value="0.1986340912" flag="0"/>
      <psa30 value="0.0120796857" flag="0"/>
    </comp>
  </station>
  <station code="MVOU" name="MVOU" netid="CQ" insttype="Trillium120P" lat="35.016" lon="33.632">
    <comp name="--.HHE">
      <acc value="0.9516990042" flag="0"/>
      <vel value="0.4682570298" flag="0"/>
      <psa03 value="3.6704619026" flag="0"/>
      <psa10 value="0.4305659675" flag="0"/>
      <psa30 value="0.0247999233" flag="0"/>
    </comp>
    <comp name="--.HHZ">
      <acc value="0.4026743594" flag="0"/>
      <vel value="0.1752084218" flag="0"/>
      <psa03 value="0.8847297969" flag="0"/>
      <psa10 value="0.1927004863" flag="0"/>
      <psa30 value="0.0079245009" flag="0"/>
    </comp>
    <comp name="--.HHN">
      <acc value="0.8673275641" flag="0"/>
      <vel value="0.3356019705" flag="0"/>
      <psa03 value="1.6050595304" flag="0"/>
      <psa10 value="0.2201320432" flag="0"/>
      <psa30 value="0.0155289964" flag="0"/>
    </comp>
  </station>
  <station code="NATA" name="NATA" netid="CQ" insttype="Trillium120P" lat="34.7789" lon="32.5699">
    <comp name="--.HHE">
      <acc value="0.1035245726" flag="0"/>
      <vel value="0.0726682642" flag="0"/>
      <psa03 value="0.2825945708" flag="0"/>
      <psa10 value="0.1091113720" flag="0"/>
      <psa30 value="0.0096796234" flag="0"/>
    </comp>
    <comp name="--.HHN">
      <acc value="0.0781046724" flag="0"/>
      <vel value="0.0495004171" flag="0"/>
      <psa03 value="0.1540361348" flag="0"/>
      <psa10 value="0.0819503443" flag="0"/>
      <psa30 value="0.0070447651" flag="0"/>
    </comp>
    <comp name="--.HHZ">
      <acc value="0.0597583323" flag="0"/>
      <vel value="0.0400825638" flag="0"/>
      <psa03 value="0.1137993694" flag="0"/>
      <psa10 value="0.0544420281" flag="0"/>
      <psa30 value="0.0050542949" flag="0"/>
    </comp>
  </station>
  <station code="PARA" name="PARA" netid="CQ" insttype="Trillium120P" lat="34.994" lon="34.04">
    <comp name="--.HHE">
      <acc value="0.6401470542" flag="0"/>
      <vel value="0.2182630973" flag="0"/>
      <psa03 value="1.3457218453" flag="0"/>
      <psa10 value="0.1290074713" flag="0"/>
      <psa30 value="0.0086193073" flag="0"/>
    </comp>
    <comp name="--.HHN">
      <acc value="0.6962109133" flag="0"/>
      <vel value="0.2466959197" flag="0"/>
      <psa03 value="1.1834648500" flag="0"/>
      <psa10 value="0.1088462287" flag="0"/>
      <psa30 value="0.0072389297" flag="0"/>
    </comp>
    <comp name="--.HHZ">
      <acc value="0.4089411419" flag="0"/>
      <vel value="0.1329280207" flag="0"/>
      <psa03 value="0.5831819239" flag="0"/>
      <psa10 value="0.0632079368" flag="0"/>
      <psa30 value="0.0056919085" flag="0"/>
    </comp>
  </station>
  <station code="XYLS" name="XYLS" netid="CQ" insttype="120QA" lat="35.014" lon="33.0493">
    <comp name="--.HHZ">
      <acc value="0.1413384888" flag="0"/>
      <vel value="0.0811315413" flag="0"/>
      <psa03 value="0.3985444684" flag="0"/>
      <psa10 value="0.0578261126" flag="0"/>
      <psa30 value="0.0040694464" flag="0"/>
    </comp>
  </station>
  <station code="BOZY" name="BOZY" netid="KO" insttype="100" lat="36.1069" lon="32.9763">
    <comp name="--.HNE">
      <acc value="0.0225945256" flag="0"/>
      <vel value="0.0130571266" flag="0"/>
      <psa03 value="0.0619399634" flag="0"/>
      <psa10 value="0.0079099520" flag="0"/>
      <psa30 value="0.0007833452" flag="0"/>
    </comp>
    <comp name="--.HNZ">
      <acc value="0.0085251337" flag="0"/>
      <vel value="0.0034644465" flag="0"/>
      <psa03 value="0.0226197338" flag="0"/>
      <psa10 value="0.0034849765" flag="0"/>
      <psa30 value="0.0002080254" flag="0"/>
    </comp>
    <comp name="--.HNN">
      <acc value="0.0248885216" flag="0"/>
      <vel value="0.0074327234" flag="0"/>
      <psa03 value="0.0455520237" flag="0"/>
      <psa10 value="0.0040989645" flag="0"/>
      <psa30 value="0.0002319388" flag="0"/>
    </comp>
  </station>
  <station code="EREN" name="EREN" netid="KO" insttype="120s," lat="35.5292" lon="34.1742">
    <comp name="--.HHE">
      <acc value="0.2386139365" flag="0"/>
      <vel value="0.1046301795" flag="0"/>
      <psa03 value="0.5369577256" flag="0"/>
      <psa10 value="0.0830820955" flag="0"/>
      <psa30 value="0.0050152420" flag="0"/>
    </comp>
    <comp name="--.HHN">
      <acc value="0.1866988003" flag="0"/>
      <vel value="0.0725451109" flag="0"/>
      <psa03 value="0.4058203121" flag="0"/>
      <psa10 value="0.0649133476" flag="0"/>
      <psa30 value="0.0051897059" flag="0"/>
    </comp>
    <comp name="--.HHZ">
      <acc value="0.1806160118" flag="0"/>
      <vel value="0.0805695024" flag="0"/>
      <psa03 value="0.6602336769" flag="0"/>
      <psa10 value="0.0559187428" flag="0"/>
      <psa30 value="0.0052226865" flag="0"/>
    </comp>
  </station>
</stationlist>
