<stationlist created="1778136086">
	<station code="BOZY" name="BOZY" netid="KO" source="Bogazici University Kandilli Observatory And Earthquake Research Institute (KOERI)" insttype="" lat="36.1069" lon="32.9763">
		<comp name="--.HNE" depth="0.0">
			<acc value="0.142730754587943" flag="0"/>
			<vel value="0.0824838799649118" flag="0"/>
			<psa03 value="0.394492035753302" flag="0"/>
			<psa10 value="0.049855793412674" flag="0"/>
			<psa30 value="0.00487555825519307" flag="0"/>
		</comp>
		<comp name="--.HNN" depth="0.0">
			<acc value="0.156898412834074" flag="0"/>
			<vel value="0.046757227535133" flag="0"/>
			<psa03 value="0.288900428134181" flag="0"/>
			<psa10 value="0.0258802345742069" flag="0"/>
			<psa30 value="0.00154181644006564" flag="0"/>
		</comp>
		<comp name="--.HNZ" depth="0.0">
			<acc value="0.0519939325087483" flag="0"/>
			<vel value="0.02182948085524" flag="0"/>
			<psa03 value="0.141385372913739" flag="0"/>
			<psa10 value="0.0219017575617102" flag="0"/>
			<psa30 value="0.00134316104268052" flag="0"/>
		</comp>
	</station>
	<station code="KRMN" name="KRMN" netid="KO" source="Bogazici University Kandilli Observatory And Earthquake Research Institute (KOERI)" insttype="" lat="37.174" lon="33.2636">
		<comp name="--.HNE" depth="0.0">
			<acc value="0.268852441932716" flag="0"/>
			<vel value="0.219236117494254" flag="0"/>
			<psa03 value="0.641111078633216" flag="0"/>
			<psa10 value="0.228246997998319" flag="0"/>
			<psa30 value="0.0137864161252881" flag="0"/>
		</comp>
		<comp name="--.HNN" depth="0.0">
			<acc value="0.238317614669412" flag="0"/>
			<vel value="0.143608234738042" flag="0"/>
			<psa03 value="0.397534505803345" flag="0"/>
			<psa10 value="0.1744570223577" flag="0"/>
			<psa30 value="0.00888445996819022" flag="0"/>
		</comp>
		<comp name="--.HNZ" depth="0.0">
			<acc value="0.186886876761233" flag="0"/>
			<vel value="0.0935907550984363" flag="0"/>
			<psa03 value="0.470598529210982" flag="0"/>
			<psa10 value="0.0729454565600993" flag="0"/>
			<psa30 value="0.00414312833285196" flag="0"/>
		</comp>
	</station>
</stationlist>
