<stationlist created="1778069409">
	<station code="SIT2" name="SIT2" netid="HI" source="ITSAK Strong Motion Network" insttype="" lat="35.2059" lon="26.107">
		<comp name="--.HNE" depth="0.0">
			<acc value="0.00870991658206096" flag="0"/>
			<vel value="0.00665320710839903" flag="0"/>
			<psa03 value="0.0215210013833887" flag="0"/>
			<psa10 value="0.00489658709230366" flag="0"/>
			<psa30 value="0.000509166311315932" flag="0"/>
		</comp>
		<comp name="--.HNN" depth="0.0">
			<acc value="0.0103935856375097" flag="0"/>
			<vel value="0.00682388005558289" flag="0"/>
			<psa03 value="0.0278743947231833" flag="0"/>
			<psa10 value="0.00683347721680864" flag="0"/>
			<psa30 value="0.000409391190557186" flag="0"/>
		</comp>
		<comp name="--.HNZ" depth="0.0">
			<acc value="0.0035039595225171" flag="0"/>
			<vel value="0.00197214387345716" flag="0"/>
			<psa03 value="0.0127067866795892" flag="0"/>
			<psa10 value="0.00171541620174454" flag="0"/>
			<psa30 value="0.000359279919144722" flag="0"/>
		</comp>
	</station>
</stationlist>
