<?xml version="1.0" encoding="UTF-8" standalone="yes"?>
<!DOCTYPE earthquake SYSTEM "stationlist.dtd">
<stationlist created="" xmlns="ch.ethz.sed.shakemap.usgs.xml">
  <station code="ACOR" name="ACOR" netid="HA" insttype="30" lat="37.8902" lon="22.8692">
    <comp name="--.HHE">
      <acc value="0.2968636467" flag="0"/>
      <vel value="0.1696276946" flag="0"/>
      <psa03 value="0.7100018451" flag="0"/>
      <psa10 value="0.2105436883" flag="0"/>
      <psa30 value="0.0737472527" flag="0"/>
    </comp>
    <comp name="--.HHZ">
      <acc value="0.2869926742" flag="0"/>
      <vel value="0.1877576044" flag="0"/>
      <psa03 value="0.7969891592" flag="0"/>
      <psa10 value="0.2446166607" flag="0"/>
      <psa30 value="0.0408730603" flag="0"/>
    </comp>
    <comp name="--.HHN">
      <acc value="0.4160925142" flag="0"/>
      <vel value="0.2293029520" flag="0"/>
      <psa03 value="0.5934165379" flag="0"/>
      <psa10 value="0.3722403570" flag="0"/>
      <psa30 value="0.0658627422" flag="0"/>
    </comp>
  </station>
  <station code="AIGS" name="AIGS" netid="HA" insttype="DC" lat="38.25" lon="22.0878">
    <comp name="--.HNN">
      <acc value="0.7214232969" flag="0"/>
      <vel value="0.2598785937" flag="0"/>
      <psa03 value="2.1059384619" flag="0"/>
      <psa10 value="0.3140069630" flag="0"/>
      <psa30 value="0.0295139545" flag="0"/>
    </comp>
    <comp name="--.HNE">
      <acc value="0.8166236339" flag="0"/>
      <vel value="0.3023882473" flag="0"/>
      <psa03 value="1.8944288943" flag="0"/>
      <psa10 value="0.2846022737" flag="0"/>
      <psa30 value="0.0573580334" flag="0"/>
    </comp>
    <comp name="--.HNZ">
      <acc value="0.4890236177" flag="0"/>
      <vel value="0.1725001085" flag="0"/>
      <psa03 value="0.7275421045" flag="0"/>
      <psa10 value="0.2174680399" flag="0"/>
      <psa30 value="0.0492969824" flag="0"/>
    </comp>
  </station>
  <station code="AMPE" name="AMPE" netid="HA" insttype="1s-100Hz," lat="38.3015" lon="23.2688">
    <comp name="--.HHE">
      <acc value="0.2669192690" flag="0"/>
      <vel value="0.1989076033" flag="0"/>
      <psa03 value="0.7595251031" flag="0"/>
      <psa10 value="0.2676582381" flag="0"/>
      <psa30 value="0.0227631194" flag="0"/>
    </comp>
    <comp name="--.HHZ">
      <acc value="0.1327040415" flag="0"/>
      <vel value="0.1029113522" flag="0"/>
      <psa03 value="0.4083802533" flag="0"/>
      <psa10 value="0.1857823521" flag="0"/>
      <psa30 value="0.0140483652" flag="0"/>
    </comp>
    <comp name="--.HHN">
      <acc value="0.2766107597" flag="0"/>
      <vel value="0.1670506962" flag="0"/>
      <psa03 value="0.6032773346" flag="0"/>
      <psa10 value="0.2308535182" flag="0"/>
      <psa30 value="0.0485196340" flag="0"/>
    </comp>
  </station>
  <station code="ATAL" name="ATAL" netid="HA" insttype="120" lat="38.6926" lon="23.0213">
    <comp name="--.HHZ">
      <acc value="0.0416739119" flag="0"/>
      <vel value="0.0686191978" flag="0"/>
      <psa03 value="0.0757725664" flag="0"/>
      <psa10 value="0.0252885772" flag="0"/>
      <psa30 value="0.0194295562" flag="0"/>
    </comp>
    <comp name="--.HHN">
      <acc value="0.1644669306" flag="0"/>
      <vel value="0.1076042525" flag="0"/>
      <psa03 value="0.2591872509" flag="0"/>
      <psa10 value="0.0928667177" flag="0"/>
      <psa30 value="0.0278248542" flag="0"/>
    </comp>
    <comp name="--.HHE">
      <acc value="0.1466945968" flag="0"/>
      <vel value="0.0820426278" flag="0"/>
      <psa03 value="0.2894996550" flag="0"/>
      <psa10 value="0.1026970223" flag="0"/>
      <psa30 value="0.0302453585" flag="0"/>
    </comp>
  </station>
  <station code="ATHU" name="ATHU" netid="HA" insttype="60" lat="37.9665" lon="23.7845">
    <comp name="--.HHZ">
      <acc value="0.0439401853" flag="0"/>
      <vel value="0.0447512879" flag="0"/>
      <psa03 value="0.0785344455" flag="0"/>
      <psa10 value="0.0467842272" flag="0"/>
      <psa30 value="0.0177470089" flag="0"/>
    </comp>
    <comp name="--.HHN">
      <acc value="0.0504900242" flag="0"/>
      <vel value="0.0448168056" flag="0"/>
      <psa03 value="0.1230467368" flag="0"/>
      <psa10 value="0.0428266081" flag="0"/>
      <psa30 value="0.0105136573" flag="0"/>
    </comp>
    <comp name="--.HHE">
      <acc value="0.0386537563" flag="0"/>
      <vel value="0.0559038596" flag="0"/>
      <psa03 value="0.0988897497" flag="0"/>
      <psa10 value="0.0696298921" flag="0"/>
      <psa30 value="0.0098196018" flag="0"/>
    </comp>
  </station>
  <station code="AXAR" name="AXAR" netid="HA" insttype="Horizon,120s,1200" lat="38.7664" lon="22.659">
    <comp name="--.HHZ">
      <acc value="0.5141992126" flag="0"/>
      <vel value="0.2863615897" flag="0"/>
      <psa03 value="1.6139389479" flag="0"/>
      <psa10 value="0.2452659316" flag="0"/>
      <psa30 value="0.0307473284" flag="0"/>
    </comp>
    <comp name="--.HHN">
      <acc value="0.7848558762" flag="0"/>
      <vel value="0.4766191678" flag="0"/>
      <psa03 value="2.1973945418" flag="0"/>
      <psa10 value="0.5986608275" flag="0"/>
      <psa30 value="0.0753349740" flag="0"/>
    </comp>
    <comp name="--.HHE">
      <acc value="0.9834405815" flag="0"/>
      <vel value="0.4819734357" flag="0"/>
      <psa03 value="3.3616398543" flag="0"/>
      <psa10 value="0.4972188452" flag="0"/>
      <psa30 value="0.0941391140" flag="0"/>
    </comp>
  </station>
  <station code="DOMV" name="DOMV" netid="HA" insttype="60" lat="38.2569" lon="22.9795">
    <comp name="--.HHE">
      <acc value="0.6313927400" flag="0"/>
      <vel value="0.2124623934" flag="0"/>
      <psa03 value="1.5899251335" flag="0"/>
      <psa10 value="0.1070611506" flag="0"/>
      <psa30 value="0.0091813226" flag="0"/>
    </comp>
    <comp name="--.HHN">
      <acc value="0.5364232993" flag="0"/>
      <vel value="0.1796277541" flag="0"/>
      <psa03 value="1.3126414183" flag="0"/>
      <psa10 value="0.1054507913" flag="0"/>
      <psa30 value="0.0112725658" flag="0"/>
    </comp>
    <comp name="--.HHZ">
      <acc value="0.5457678517" flag="0"/>
      <vel value="0.1261914153" flag="0"/>
      <psa03 value="0.7878932790" flag="0"/>
      <psa10 value="0.0565085148" flag="0"/>
      <psa30 value="0.0108888561" flag="0"/>
    </comp>
  </station>
  <station code="DRES" name="DRES" netid="HA" insttype="DC" lat="38.3197" lon="21.8532">
    <comp name="--.HNZ">
      <acc value="0.1399008532" flag="0"/>
      <vel value="0.0806680610" flag="0"/>
      <psa03 value="0.2160267638" flag="0"/>
      <psa10 value="0.1150897082" flag="0"/>
      <psa30 value="0.0116171005" flag="0"/>
    </comp>
    <comp name="--.HNE">
      <acc value="0.2167631638" flag="0"/>
      <vel value="0.1536406967" flag="0"/>
      <psa03 value="0.5967299318" flag="0"/>
      <psa10 value="0.2725958635" flag="0"/>
      <psa30 value="0.0218897453" flag="0"/>
    </comp>
    <comp name="--.HNN">
      <acc value="0.1977280526" flag="0"/>
      <vel value="0.1124951621" flag="0"/>
      <psa03 value="0.4407587565" flag="0"/>
      <psa10 value="0.2415448725" flag="0"/>
      <psa30 value="0.0192749636" flag="0"/>
    </comp>
  </station>
  <station code="EPID" name="EPID" netid="HA" insttype="30" lat="37.6144" lon="23.1189">
    <comp name="--.HHE">
      <acc value="0.2087472485" flag="0"/>
      <vel value="0.1026116784" flag="0"/>
      <psa03 value="0.4295812248" flag="0"/>
      <psa10 value="0.1314974857" flag="0"/>
      <psa30 value="0.0127468446" flag="0"/>
    </comp>
    <comp name="--.HHN">
      <acc value="0.1948121992" flag="0"/>
      <vel value="0.1049314852" flag="0"/>
      <psa03 value="0.4186593437" flag="0"/>
      <psa10 value="0.1230910816" flag="0"/>
      <psa30 value="0.0211036745" flag="0"/>
    </comp>
    <comp name="--.HHZ">
      <acc value="0.1432410260" flag="0"/>
      <vel value="0.0772197076" flag="0"/>
      <psa03 value="0.3443909588" flag="0"/>
      <psa10 value="0.1106379861" flag="0"/>
      <psa30 value="0.0191412856" flag="0"/>
    </comp>
  </station>
  <station code="KALE" name="KALE" netid="HA" insttype="40," lat="38.3911" lon="22.1398">
    <comp name="--.HHZ">
      <acc value="0.3972917480" flag="0"/>
      <vel value="0.2598510848" flag="0"/>
      <psa03 value="0.7602139995" flag="0"/>
      <psa10 value="0.1739894573" flag="0"/>
      <psa30 value="0.0489996198" flag="0"/>
    </comp>
    <comp name="--.HHN">
      <acc value="0.8241015573" flag="0"/>
      <vel value="0.3231869479" flag="0"/>
      <psa03 value="1.1183314995" flag="0"/>
      <psa10 value="0.4185137509" flag="0"/>
      <psa30 value="0.0486349650" flag="0"/>
    </comp>
    <comp name="--.HHE">
      <acc value="0.4760594640" flag="0"/>
      <vel value="0.3110090976" flag="0"/>
      <psa03 value="1.5103007329" flag="0"/>
      <psa10 value="0.2093689053" flag="0"/>
      <psa30 value="0.0416595282" flag="0"/>
    </comp>
  </station>
  <station code="KARY" name="KARY" netid="HA" insttype="60" lat="38.0321" lon="24.437">
    <comp name="--.HHN">
      <acc value="0.0538712137" flag="0"/>
      <vel value="0.0289231643" flag="0"/>
      <psa03 value="0.1046995460" flag="0"/>
      <psa10 value="0.0457453614" flag="0"/>
      <psa30 value="0.0025420263" flag="0"/>
    </comp>
    <comp name="--.HHE">
      <acc value="0.0306824193" flag="0"/>
      <vel value="0.0168362033" flag="0"/>
      <psa03 value="0.0884331397" flag="0"/>
      <psa10 value="0.0207726815" flag="0"/>
      <psa30 value="0.0051245337" flag="0"/>
    </comp>
    <comp name="--.HHZ">
      <acc value="0.0524160272" flag="0"/>
      <vel value="0.0373298836" flag="0"/>
      <psa03 value="0.1210656012" flag="0"/>
      <psa10 value="0.0469439107" flag="0"/>
      <psa30 value="0.0078630091" flag="0"/>
    </comp>
  </station>
  <station code="KIAS" name="KIAS" netid="HA" insttype="DC" lat="37.9875" lon="22.7543">
    <comp name="--.HNN">
      <acc value="2.6267384205" flag="0"/>
      <vel value="1.1408699098" flag="0"/>
      <psa03 value="3.3123636878" flag="0"/>
      <psa10 value="1.3617746829" flag="0"/>
      <psa30 value="0.1367892029" flag="0"/>
    </comp>
    <comp name="--.HNE">
      <acc value="2.0334225269" flag="0"/>
      <vel value="1.2431277508" flag="0"/>
      <psa03 value="2.8977819155" flag="0"/>
      <psa10 value="1.7702104722" flag="0"/>
      <psa30 value="0.2321093755" flag="0"/>
    </comp>
    <comp name="--.HNZ">
      <acc value="1.1415340126" flag="0"/>
      <vel value="0.4529022287" flag="0"/>
      <psa03 value="1.4350180956" flag="0"/>
      <psa10 value="0.7234191599" flag="0"/>
      <psa30 value="0.1030375023" flag="0"/>
    </comp>
  </station>
  <station code="LAKA" name="LAKA" netid="HA" insttype="60" lat="38.2401" lon="21.9785">
    <comp name="--.HHE">
      <acc value="0.1572578542" flag="0"/>
      <vel value="0.0809239806" flag="0"/>
      <psa03 value="0.3043978433" flag="0"/>
      <psa10 value="0.1021632711" flag="0"/>
      <psa30 value="0.0142530337" flag="0"/>
    </comp>
    <comp name="--.HHZ">
      <acc value="0.1126908853" flag="0"/>
      <vel value="0.0817608079" flag="0"/>
      <psa03 value="0.2070184715" flag="0"/>
      <psa10 value="0.0865960657" flag="0"/>
      <psa30 value="0.0209362712" flag="0"/>
    </comp>
    <comp name="--.HHN">
      <acc value="0.0023067826" flag="0"/>
      <vel value="0.0002757000" flag="0"/>
      <psa03 value="0.0011046152" flag="0"/>
      <psa10 value="0.0002068833" flag="0"/>
      <psa30 value="0.0000205921" flag="0"/>
    </comp>
  </station>
  <station code="LOUT" name="LOUT" netid="HA" insttype="30" lat="37.9879" lon="22.9743">
    <comp name="--.HHN">
      <acc value="0.5325858450" flag="0"/>
      <vel value="0.2612484221" flag="0"/>
      <psa03 value="1.0889047774" flag="0"/>
      <psa10 value="0.4439708913" flag="0"/>
      <psa30 value="0.0342636701" flag="0"/>
    </comp>
    <comp name="--.HHZ">
      <acc value="0.2982860330" flag="0"/>
      <vel value="0.1285519658" flag="0"/>
      <psa03 value="0.4399604853" flag="0"/>
      <psa10 value="0.1682580895" flag="0"/>
      <psa30 value="0.0268895836" flag="0"/>
    </comp>
    <comp name="--.HHE">
      <acc value="0.5460196330" flag="0"/>
      <vel value="0.2697653078" flag="0"/>
      <psa03 value="1.1568432382" flag="0"/>
      <psa10 value="0.6124079566" flag="0"/>
      <psa30 value="0.0347334925" flag="0"/>
    </comp>
  </station>
  <station code="LTRS" name="LTRS" netid="HA" insttype="DC" lat="37.9753" lon="22.9765">
    <comp name="--.HNN">
      <acc value="0.5123929473" flag="0"/>
      <vel value="0.3599250426" flag="0"/>
      <psa03 value="1.5485405710" flag="0"/>
      <psa10 value="0.6843473747" flag="0"/>
      <psa30 value="0.0709461855" flag="0"/>
    </comp>
    <comp name="--.HNE">
      <acc value="0.4634055992" flag="0"/>
      <vel value="0.5066719802" flag="0"/>
      <psa03 value="1.4956206163" flag="0"/>
      <psa10 value="0.7652438066" flag="0"/>
      <psa30 value="0.0784288964" flag="0"/>
    </comp>
    <comp name="--.HNZ">
      <acc value="0.2967061771" flag="0"/>
      <vel value="0.2503875460" flag="0"/>
      <psa03 value="0.6381573494" flag="0"/>
      <psa10 value="0.5329810619" flag="0"/>
      <psa30 value="0.0471074047" flag="0"/>
    </comp>
  </station>
  <station code="MDRA" name="MDRA" netid="HA" insttype="60" lat="38.0606" lon="23.4662">
    <comp name="--.HHZ">
      <acc value="0.0684135593" flag="0"/>
      <vel value="0.0441800667" flag="0"/>
      <psa03 value="0.1576624134" flag="0"/>
      <psa10 value="0.0582614068" flag="0"/>
      <psa30 value="0.0078468631" flag="0"/>
    </comp>
    <comp name="--.HHN">
      <acc value="0.0712745483" flag="0"/>
      <vel value="0.0377805055" flag="0"/>
      <psa03 value="0.2346572720" flag="0"/>
      <psa10 value="0.0466895569" flag="0"/>
      <psa30 value="0.0067131325" flag="0"/>
    </comp>
    <comp name="--.HHE">
      <acc value="0.0610429615" flag="0"/>
      <vel value="0.0402151072" flag="0"/>
      <psa03 value="0.1881286720" flag="0"/>
      <psa10 value="0.0308136501" flag="0"/>
      <psa30 value="0.0057744538" flag="0"/>
    </comp>
  </station>
  <station code="MRKA" name="MRKA" netid="HA" insttype="Horizon,120s,1200" lat="38.7047" lon="23.5863">
    <comp name="--.HHN">
      <acc value="0.0683573898" flag="0"/>
      <vel value="0.1109190926" flag="0"/>
      <psa03 value="0.1550836270" flag="0"/>
      <psa10 value="0.1842113376" flag="0"/>
      <psa30 value="0.0155273012" flag="0"/>
    </comp>
    <comp name="--.HHZ">
      <acc value="0.0511310218" flag="0"/>
      <vel value="0.0496477654" flag="0"/>
      <psa03 value="0.1063265519" flag="0"/>
      <psa10 value="0.0514244522" flag="0"/>
      <psa30 value="0.0099272402" flag="0"/>
    </comp>
    <comp name="--.HHE">
      <acc value="0.0676320968" flag="0"/>
      <vel value="0.0757661564" flag="0"/>
      <psa03 value="0.1727184274" flag="0"/>
      <psa10 value="0.1447303567" flag="0"/>
      <psa30 value="0.0142065368" flag="0"/>
    </comp>
  </station>
  <station code="MRTH" name="MRTH" netid="HA" insttype="S100," lat="38.1225" lon="23.9409">
    <comp name="--.HHE">
      <acc value="0.1870865478" flag="0"/>
      <vel value="0.1010075088" flag="0"/>
      <psa03 value="0.4612617235" flag="0"/>
      <psa10 value="0.1838526200" flag="0"/>
      <psa30 value="0.0111777638" flag="0"/>
    </comp>
    <comp name="--.HHN">
      <acc value="0.1960008681" flag="0"/>
      <vel value="0.1375813357" flag="0"/>
      <psa03 value="0.3673597015" flag="0"/>
      <psa10 value="0.1804515332" flag="0"/>
      <psa30 value="0.0257647684" flag="0"/>
    </comp>
    <comp name="--.HHZ">
      <acc value="0.1367528332" flag="0"/>
      <vel value="0.1019305031" flag="0"/>
      <psa03 value="0.4464769809" flag="0"/>
      <psa10 value="0.0898243692" flag="0"/>
      <psa30 value="0.0208238651" flag="0"/>
    </comp>
  </station>
  <station code="STFN" name="STFN" netid="HA" insttype="1s-100Hz," lat="38.1766" lon="23.544">
    <comp name="--.HHN">
      <acc value="0.1796035700" flag="0"/>
      <vel value="0.1195959220" flag="0"/>
      <psa03 value="0.4324983252" flag="0"/>
      <psa10 value="0.1268453155" flag="0"/>
      <psa30 value="0.0164498196" flag="0"/>
    </comp>
    <comp name="--.HHE">
      <acc value="0.1465873645" flag="0"/>
      <vel value="0.1028107985" flag="0"/>
      <psa03 value="0.3577818656" flag="0"/>
      <psa10 value="0.1962499485" flag="0"/>
      <psa30 value="0.0172524794" flag="0"/>
    </comp>
    <comp name="--.HHZ">
      <acc value="0.1133319055" flag="0"/>
      <vel value="0.0876307155" flag="0"/>
      <psa03 value="0.3170488453" flag="0"/>
      <psa10 value="0.1618327469" flag="0"/>
      <psa30 value="0.0147861245" flag="0"/>
    </comp>
  </station>
  <station code="THAL" name="THAL" netid="HA" insttype="30" lat="38.0357" lon="22.6634">
    <comp name="--.HHZ">
      <acc value="1.7275650118" flag="0"/>
      <vel value="0.6633622236" flag="0"/>
      <psa03 value="3.3071843999" flag="0"/>
      <psa10 value="1.0744657170" flag="0"/>
      <psa30 value="0.0834633755" flag="0"/>
    </comp>
    <comp name="--.HHN">
      <acc value="3.5899014524" flag="0"/>
      <vel value="1.3151698648" flag="0"/>
      <psa03 value="7.7117123954" flag="0"/>
      <psa10 value="1.5500656655" flag="0"/>
      <psa30 value="0.1186553288" flag="0"/>
    </comp>
    <comp name="--.HHE">
      <acc value="3.8036539121" flag="0"/>
      <vel value="1.7402522745" flag="0"/>
      <psa03 value="6.9373878968" flag="0"/>
      <psa10 value="1.5786352967" flag="0"/>
      <psa30 value="0.1029456495" flag="0"/>
    </comp>
  </station>
  <station code="THIV" name="THIV" netid="HA" insttype="25" lat="38.299" lon="23.332">
    <comp name="--.HHN">
      <acc value="0.1165401506" flag="0"/>
      <vel value="0.0530970827" flag="0"/>
      <psa03 value="0.1983361661" flag="0"/>
      <psa10 value="0.0637988257" flag="0"/>
      <psa30 value="0.0150301359" flag="0"/>
    </comp>
    <comp name="--.HHZ">
      <acc value="0.0492960270" flag="0"/>
      <vel value="0.0299828440" flag="0"/>
      <psa03 value="0.0942579100" flag="0"/>
      <psa10 value="0.0362894249" flag="0"/>
      <psa30 value="0.0091797250" flag="0"/>
    </comp>
    <comp name="--.HHE">
      <acc value="0.0769543641" flag="0"/>
      <vel value="0.0589355301" flag="0"/>
      <psa03 value="0.1917764426" flag="0"/>
      <psa10 value="0.0644791311" flag="0"/>
      <psa30 value="0.0130855693" flag="0"/>
    </comp>
  </station>
  <station code="VILL" name="VILL" netid="HA" insttype="30" lat="38.1642" lon="23.3122">
    <comp name="--.HHN">
      <acc value="0.5631133271" flag="0"/>
      <vel value="0.3581304338" flag="0"/>
      <psa03 value="2.1399733612" flag="0"/>
      <psa10 value="0.4140982818" flag="0"/>
      <psa30 value="0.0405252531" flag="0"/>
    </comp>
    <comp name="--.HHZ">
      <acc value="0.2536084499" flag="0"/>
      <vel value="0.1704177943" flag="0"/>
      <psa03 value="0.8773532934" flag="0"/>
      <psa10 value="0.2714234394" flag="0"/>
      <psa30 value="0.0323646471" flag="0"/>
    </comp>
    <comp name="--.HHE">
      <acc value="0.4030018747" flag="0"/>
      <vel value="0.3459894816" flag="0"/>
      <psa03 value="1.6209691526" flag="0"/>
      <psa10 value="0.5900267475" flag="0"/>
      <psa30 value="0.0604190654" flag="0"/>
    </comp>
  </station>
  <station code="KTRS" name="KTRS" netid="HC" insttype="60" lat="36.9261" lon="22.136">
    <comp name="--.HHE">
      <acc value="0.0293895260" flag="0"/>
      <vel value="0.0309712771" flag="0"/>
      <psa03 value="0.0891961755" flag="0"/>
      <psa10 value="0.0347265449" flag="0"/>
      <psa30 value="0.0104046985" flag="0"/>
    </comp>
    <comp name="--.HHN">
      <acc value="0.0324586001" flag="0"/>
      <vel value="0.0394412592" flag="0"/>
      <psa03 value="0.0884533457" flag="0"/>
