<?xml version="1.0" encoding="UTF-8" standalone="yes"?>
<!DOCTYPE earthquake SYSTEM "stationlist.dtd">
<stationlist created="" xmlns="ch.ethz.sed.shakemap.usgs.xml">
  <station code="ACOR" name="ACOR" netid="HA" insttype="30" lat="37.8902" lon="22.8692">
    <comp name="--.HHE">
      <acc value="0.2968636467" flag="0"/>
      <vel value="0.1696276988" flag="0"/>
      <psa03 value="0.7100018451" flag="0"/>
      <psa10 value="0.2105436883" flag="0"/>
      <psa30 value="0.0737472532" flag="0"/>
    </comp>
    <comp name="--.HHZ">
      <acc value="0.2869926742" flag="0"/>
      <vel value="0.1877576164" flag="0"/>
      <psa03 value="0.7969891591" flag="0"/>
      <psa10 value="0.2446166608" flag="0"/>
      <psa30 value="0.0408730628" flag="0"/>
    </comp>
    <comp name="--.HHN">
      <acc value="0.4160925143" flag="0"/>
      <vel value="0.2293029508" flag="0"/>
      <psa03 value="0.5934165379" flag="0"/>
      <psa10 value="0.3722403569" flag="0"/>
      <psa30 value="0.0658627424" flag="0"/>
    </comp>
  </station>
  <station code="AIGS" name="AIGS" netid="HA" insttype="DC" lat="38.25" lon="22.0878">
    <comp name="--.HNE">
      <acc value="0.8166236329" flag="0"/>
      <vel value="0.3023882399" flag="0"/>
      <psa03 value="1.8944288943" flag="0"/>
      <psa10 value="0.2846023061" flag="0"/>
      <psa30 value="0.0573565076" flag="0"/>
    </comp>
    <comp name="--.HNN">
      <acc value="0.7214232957" flag="0"/>
      <vel value="0.2598785927" flag="0"/>
      <psa03 value="2.1059384619" flag="0"/>
      <psa10 value="0.3140069635" flag="0"/>
      <psa30 value="0.0295139262" flag="0"/>
    </comp>
    <comp name="--.HNZ">
      <acc value="0.4890236188" flag="0"/>
      <vel value="0.1725001126" flag="0"/>
      <psa03 value="0.7275421045" flag="0"/>
      <psa10 value="0.2174680399" flag="0"/>
      <psa30 value="0.0492970169" flag="0"/>
    </comp>
  </station>
  <station code="AMPE" name="AMPE" netid="HA" insttype="1s-100Hz," lat="38.3015" lon="23.2688">
    <comp name="--.HHN">
      <acc value="0.2766107576" flag="0"/>
      <vel value="0.1670512424" flag="0"/>
      <psa03 value="0.6032773365" flag="0"/>
      <psa10 value="0.2308535164" flag="0"/>
      <psa30 value="0.0485196348" flag="0"/>
    </comp>
    <comp name="--.HHE">
      <acc value="0.2669192689" flag="0"/>
      <vel value="0.1989077631" flag="0"/>
      <psa03 value="0.7595251029" flag="0"/>
      <psa10 value="0.2676582379" flag="0"/>
      <psa30 value="0.0227631191" flag="0"/>
    </comp>
    <comp name="--.HHZ">
      <acc value="0.1327040408" flag="0"/>
      <vel value="0.1029116501" flag="0"/>
      <psa03 value="0.4083802538" flag="0"/>
      <psa10 value="0.1857823516" flag="0"/>
      <psa30 value="0.0140483644" flag="0"/>
    </comp>
  </station>
  <station code="ATAL" name="ATAL" netid="HA" insttype="120" lat="38.6926" lon="23.0213">
    <comp name="--.HHE">
      <acc value="0.1466945968" flag="0"/>
      <vel value="0.0820426278" flag="0"/>
      <psa03 value="0.2894996550" flag="0"/>
      <psa10 value="0.1026970223" flag="0"/>
      <psa30 value="0.0302453584" flag="0"/>
    </comp>
    <comp name="--.HHZ">
      <acc value="0.0416739096" flag="0"/>
      <vel value="0.0686191968" flag="0"/>
      <psa03 value="0.0757725664" flag="0"/>
      <psa10 value="0.0252885772" flag="0"/>
      <psa30 value="0.0194295567" flag="0"/>
    </comp>
    <comp name="--.HHN">
      <acc value="0.1644669306" flag="0"/>
      <vel value="0.1076042529" flag="0"/>
      <psa03 value="0.2591872509" flag="0"/>
      <psa10 value="0.0928667177" flag="0"/>
      <psa30 value="0.0278248515" flag="0"/>
    </comp>
  </station>
  <station code="ATHU" name="ATHU" netid="HA" insttype="60" lat="37.9665" lon="23.7845">
    <comp name="--.HHE">
      <acc value="0.0386537564" flag="0"/>
      <vel value="0.0559038596" flag="0"/>
      <psa03 value="0.0988897497" flag="0"/>
      <psa10 value="0.0696298921" flag="0"/>
      <psa30 value="0.0098196039" flag="0"/>
    </comp>
    <comp name="--.HHZ">
      <acc value="0.0439401853" flag="0"/>
      <vel value="0.0447512894" flag="0"/>
      <psa03 value="0.0785344455" flag="0"/>
      <psa10 value="0.0467842272" flag="0"/>
      <psa30 value="0.0177470092" flag="0"/>
    </comp>
    <comp name="--.HHN">
      <acc value="0.0504900242" flag="0"/>
      <vel value="0.0448168055" flag="0"/>
      <psa03 value="0.1230467368" flag="0"/>
      <psa10 value="0.0428266081" flag="0"/>
      <psa30 value="0.0105136583" flag="0"/>
    </comp>
  </station>
  <station code="AXAR" name="AXAR" netid="HA" insttype="Horizon,120s,1200" lat="38.7664" lon="22.659">
    <comp name="--.HHZ">
      <acc value="0.5141992126" flag="0"/>
      <vel value="0.2863615902" flag="0"/>
      <psa03 value="1.6139389479" flag="0"/>
      <psa10 value="0.2452659316" flag="0"/>
      <psa30 value="0.0307473387" flag="0"/>
    </comp>
    <comp name="--.HHE">
      <acc value="0.9834405815" flag="0"/>
      <vel value="0.4819734372" flag="0"/>
      <psa03 value="3.3616398543" flag="0"/>
      <psa10 value="0.4972188452" flag="0"/>
      <psa30 value="0.0941391196" flag="0"/>
    </comp>
    <comp name="--.HHN">
      <acc value="0.7848558762" flag="0"/>
      <vel value="0.4766191670" flag="0"/>
      <psa03 value="2.1973945418" flag="0"/>
      <psa10 value="0.5986608275" flag="0"/>
      <psa30 value="0.0753349730" flag="0"/>
    </comp>
  </station>
  <station code="DOMV" name="DOMV" netid="HA" insttype="60" lat="38.2569" lon="22.9795">
    <comp name="--.HHE">
      <acc value="0.6313927400" flag="0"/>
      <vel value="0.2124623930" flag="0"/>
      <psa03 value="1.5899251335" flag="0"/>
      <psa10 value="0.1070611506" flag="0"/>
      <psa30 value="0.0091813236" flag="0"/>
    </comp>
    <comp name="--.HHZ">
      <acc value="0.5457678517" flag="0"/>
      <vel value="0.1261914154" flag="0"/>
      <psa03 value="0.7878932790" flag="0"/>
      <psa10 value="0.0565085148" flag="0"/>
      <psa30 value="0.0108888561" flag="0"/>
    </comp>
    <comp name="--.HHN">
      <acc value="0.5364232993" flag="0"/>
      <vel value="0.1796277542" flag="0"/>
      <psa03 value="1.3126414183" flag="0"/>
      <psa10 value="0.1054507913" flag="0"/>
      <psa30 value="0.0112725661" flag="0"/>
    </comp>
  </station>
  <station code="DRES" name="DRES" netid="HA" insttype="DC" lat="38.3197" lon="21.8532">
    <comp name="--.HNN">
      <acc value="0.1977280537" flag="0"/>
      <vel value="0.1124951646" flag="0"/>
      <psa03 value="0.4407587565" flag="0"/>
      <psa10 value="0.2415448726" flag="0"/>
      <psa30 value="0.0192749716" flag="0"/>
    </comp>
    <comp name="--.HNE">
      <acc value="0.2167631649" flag="0"/>
      <vel value="0.1536406954" flag="0"/>
      <psa03 value="0.5967299318" flag="0"/>
      <psa10 value="0.2725958634" flag="0"/>
      <psa30 value="0.0218896470" flag="0"/>
    </comp>
    <comp name="--.HNZ">
      <acc value="0.1399008516" flag="0"/>
      <vel value="0.0806680629" flag="0"/>
      <psa03 value="0.2160267638" flag="0"/>
      <psa10 value="0.1150897081" flag="0"/>
      <psa30 value="0.0116165466" flag="0"/>
    </comp>
  </station>
  <station code="EPID" name="EPID" netid="HA" insttype="30" lat="37.6144" lon="23.1189">
    <comp name="--.HHZ">
      <acc value="0.1432410260" flag="0"/>
      <vel value="0.0772196979" flag="0"/>
      <psa03 value="0.3443909587" flag="0"/>
      <psa10 value="0.1106379861" flag="0"/>
      <psa30 value="0.0191412861" flag="0"/>
    </comp>
    <comp name="--.HHN">
      <acc value="0.1948121991" flag="0"/>
      <vel value="0.1049314953" flag="0"/>
      <psa03 value="0.4186593437" flag="0"/>
      <psa10 value="0.1230910816" flag="0"/>
      <psa30 value="0.0211036739" flag="0"/>
    </comp>
    <comp name="--.HHE">
      <acc value="0.2087472485" flag="0"/>
      <vel value="0.1026116771" flag="0"/>
      <psa03 value="0.4295812248" flag="0"/>
      <psa10 value="0.1314974857" flag="0"/>
      <psa30 value="0.0127468446" flag="0"/>
    </comp>
  </station>
  <station code="KALE" name="KALE" netid="HA" insttype="40," lat="38.3911" lon="22.1398">
    <comp name="--.HHN">
      <acc value="0.8241015572" flag="0"/>
      <vel value="0.3231869446" flag="0"/>
      <psa03 value="1.1183314995" flag="0"/>
      <psa10 value="0.4185137510" flag="0"/>
      <psa30 value="0.0486349635" flag="0"/>
    </comp>
    <comp name="--.HHZ">
      <acc value="0.3972917480" flag="0"/>
      <vel value="0.2598510867" flag="0"/>
      <psa03 value="0.7602139995" flag="0"/>
      <psa10 value="0.1739894573" flag="0"/>
      <psa30 value="0.0489996204" flag="0"/>
    </comp>
    <comp name="--.HHE">
      <acc value="0.4760594640" flag="0"/>
      <vel value="0.3110090959" flag="0"/>
      <psa03 value="1.5103007329" flag="0"/>
      <psa10 value="0.2093689054" flag="0"/>
      <psa30 value="0.0416595275" flag="0"/>
    </comp>
  </station>
  <station code="KARY" name="KARY" netid="HA" insttype="60" lat="38.0321" lon="24.437">
    <comp name="--.HHN">
      <acc value="0.0538712137" flag="0"/>
      <vel value="0.0289231650" flag="0"/>
      <psa03 value="0.1046995460" flag="0"/>
      <psa10 value="0.0457453614" flag="0"/>
      <psa30 value="0.0025420270" flag="0"/>
    </comp>
    <comp name="--.HHE">
      <acc value="0.0306824193" flag="0"/>
      <vel value="0.0168362036" flag="0"/>
      <psa03 value="0.0884331397" flag="0"/>
      <psa10 value="0.0207726815" flag="0"/>
      <psa30 value="0.0051245344" flag="0"/>
    </comp>
    <comp name="--.HHZ">
      <acc value="0.0524160273" flag="0"/>
      <vel value="0.0373298826" flag="0"/>
      <psa03 value="0.1210656012" flag="0"/>
      <psa10 value="0.0469439107" flag="0"/>
      <psa30 value="0.0078630123" flag="0"/>
    </comp>
  </station>
  <station code="KIAS" name="KIAS" netid="HA" insttype="DC" lat="37.9875" lon="22.7543">
    <comp name="--.HNE">
      <acc value="2.0334225264" flag="0"/>
      <vel value="1.2431277513" flag="0"/>
      <psa03 value="2.8977819155" flag="0"/>
      <psa10 value="1.7702104720" flag="0"/>
      <psa30 value="0.2321093378" flag="0"/>
    </comp>
    <comp name="--.HNN">
      <acc value="2.6267384210" flag="0"/>
      <vel value="1.1408699115" flag="0"/>
      <psa03 value="3.3123636878" flag="0"/>
      <psa10 value="1.3617746828" flag="0"/>
      <psa30 value="0.1367892315" flag="0"/>
    </comp>
    <comp name="--.HNZ">
      <acc value="1.1415340125" flag="0"/>
      <vel value="0.4529022234" flag="0"/>
      <psa03 value="1.4350180957" flag="0"/>
      <psa10 value="0.7234191601" flag="0"/>
      <psa30 value="0.1030372178" flag="0"/>
    </comp>
  </station>
  <station code="LAKA" name="LAKA" netid="HA" insttype="60" lat="38.2401" lon="21.9785">
    <comp name="--.HHZ">
      <acc value="0.1126908852" flag="0"/>
      <vel value="0.0817608066" flag="0"/>
      <psa03 value="0.2070184715" flag="0"/>
      <psa10 value="0.0865960657" flag="0"/>
      <psa30 value="0.0209362635" flag="0"/>
    </comp>
    <comp name="--.HHN">
      <acc value="0.0023067826" flag="0"/>
      <vel value="0.0002757003" flag="0"/>
      <psa03 value="0.0011046152" flag="0"/>
      <psa10 value="0.0002068833" flag="0"/>
      <psa30 value="0.0000205921" flag="0"/>
    </comp>
    <comp name="--.HHE">
      <acc value="0.1572578542" flag="0"/>
      <vel value="0.0809239823" flag="0"/>
      <psa03 value="0.3043978433" flag="0"/>
      <psa10 value="0.1021632711" flag="0"/>
      <psa30 value="0.0142530330" flag="0"/>
    </comp>
  </station>
  <station code="LOUT" name="LOUT" netid="HA" insttype="30" lat="37.9879" lon="22.9743">
    <comp name="--.HHE">
      <acc value="0.5460196330" flag="0"/>
      <vel value="0.2697653056" flag="0"/>
      <psa03 value="1.1568432382" flag="0"/>
      <psa10 value="0.6124079566" flag="0"/>
      <psa30 value="0.0347334918" flag="0"/>
    </comp>
    <comp name="--.HHN">
      <acc value="0.5325858450" flag="0"/>
      <vel value="0.2612484226" flag="0"/>
      <psa03 value="1.0889047774" flag="0"/>
      <psa10 value="0.4439708913" flag="0"/>
      <psa30 value="0.0342636703" flag="0"/>
    </comp>
    <comp name="--.HHZ">
      <acc value="0.2982860330" flag="0"/>
      <vel value="0.1285519645" flag="0"/>
      <psa03 value="0.4399604853" flag="0"/>
      <psa10 value="0.1682580895" flag="0"/>
      <psa30 value="0.0268895835" flag="0"/>
    </comp>
  </station>
  <station code="LTRS" name="LTRS" netid="HA" insttype="DC" lat="37.9753" lon="22.9765">
    <comp name="--.HNE">
      <acc value="0.4634055992" flag="0"/>
      <vel value="0.5066719803" flag="0"/>
      <psa03 value="1.4956206163" flag="0"/>
      <psa10 value="0.7652438067" flag="0"/>
      <psa30 value="0.0784288935" flag="0"/>
    </comp>
    <comp name="--.HNZ">
      <acc value="0.2967061771" flag="0"/>
      <vel value="0.2503875459" flag="0"/>
      <psa03 value="0.6381573494" flag="0"/>
      <psa10 value="0.5329810619" flag="0"/>
      <psa30 value="0.0471074027" flag="0"/>
    </comp>
    <comp name="--.HNN">
      <acc value="0.5123929472" flag="0"/>
      <vel value="0.3599250437" flag="0"/>
      <psa03 value="1.5485405710" flag="0"/>
      <psa10 value="0.6843473747" flag="0"/>
      <psa30 value="0.0709461534" flag="0"/>
    </comp>
  </station>
  <station code="MDRA" name="MDRA" netid="HA" insttype="60" lat="38.0606" lon="23.4662">
    <comp name="--.HHE">
      <acc value="0.0610429615" flag="0"/>
      <vel value="0.0402151069" flag="0"/>
      <psa03 value="0.1881286720" flag="0"/>
      <psa10 value="0.0308136501" flag="0"/>
      <psa30 value="0.0057744531" flag="0"/>
    </comp>
    <comp name="--.HHN">
      <acc value="0.0712745483" flag="0"/>
      <vel value="0.0377805059" flag="0"/>
      <psa03 value="0.2346572720" flag="0"/>
      <psa10 value="0.0466895569" flag="0"/>
      <psa30 value="0.0067131318" flag="0"/>
    </comp>
    <comp name="--.HHZ">
      <acc value="0.0684135593" flag="0"/>
      <vel value="0.0441800671" flag="0"/>
      <psa03 value="0.1576624134" flag="0"/>
      <psa10 value="0.0582614068" flag="0"/>
      <psa30 value="0.0078468631" flag="0"/>
    </comp>
  </station>
  <station code="MRKA" name="MRKA" netid="HA" insttype="Horizon,120s,1200" lat="38.7047" lon="23.5863">
    <comp name="--.HHZ">
      <acc value="0.0511310218" flag="0"/>
      <vel value="0.0496477653" flag="0"/>
      <psa03 value="0.1063265519" flag="0"/>
      <psa10 value="0.0514244522" flag="0"/>
      <psa30 value="0.0099272401" flag="0"/>
    </comp>
    <comp name="--.HHN">
      <acc value="0.0683573898" flag="0"/>
      <vel value="0.1109190926" flag="0"/>
      <psa03 value="0.1550836270" flag="0"/>
      <psa10 value="0.1842113376" flag="0"/>
      <psa30 value="0.0155273017" flag="0"/>
    </comp>
    <comp name="--.HHE">
      <acc value="0.0676320968" flag="0"/>
      <vel value="0.0757661564" flag="0"/>
      <psa03 value="0.1727184274" flag="0"/>
      <psa10 value="0.1447303567" flag="0"/>
      <psa30 value="0.0142065377" flag="0"/>
    </comp>
  </station>
  <station code="MRTH" name="MRTH" netid="HA" insttype="S100," lat="38.1225" lon="23.9409">
    <comp name="--.HHE">
      <acc value="0.1870865577" flag="0"/>
      <vel value="0.1010079226" flag="0"/>
      <psa03 value="0.4612617235" flag="0"/>
      <psa10 value="0.1838526201" flag="0"/>
      <psa30 value="0.0111777636" flag="0"/>
    </comp>
    <comp name="--.HHN">
      <acc value="0.1960008607" flag="0"/>
      <vel value="0.1375816940" flag="0"/>
      <psa03 value="0.3673597009" flag="0"/>
      <psa10 value="0.1804515339" flag="0"/>
      <psa30 value="0.0257647671" flag="0"/>
    </comp>
    <comp name="--.HHZ">
      <acc value="0.1367528333" flag="0"/>
      <vel value="0.1019303226" flag="0"/>
      <psa03 value="0.4464769805" flag="0"/>
      <psa10 value="0.0898243688" flag="0"/>
      <psa30 value="0.0208238700" flag="0"/>
    </comp>
  </station>
  <station code="STFN" name="STFN" netid="HA" insttype="1s-100Hz," lat="38.1766" lon="23.544">
    <comp name="--.HHE">
      <acc value="0.1465873664" flag="0"/>
      <vel value="0.1028111931" flag="0"/>
      <psa03 value="0.3577818637" flag="0"/>
      <psa10 value="0.1962499504" flag="0"/>
      <psa30 value="0.0172524751" flag="0"/>
    </comp>
    <comp name="--.HHN">
      <acc value="0.1796035704" flag="0"/>
      <vel value="0.1195956376" flag="0"/>
      <psa03 value="0.4324983256" flag="0"/>
      <psa10 value="0.1268453159" flag="0"/>
      <psa30 value="0.0164498173" flag="0"/>
    </comp>
    <comp name="--.HHZ">
      <acc value="0.1133319055" flag="0"/>
      <vel value="0.0876307236" flag="0"/>
      <psa03 value="0.3170488453" flag="0"/>
      <psa10 value="0.1618327469" flag="0"/>
      <psa30 value="0.0147861242" flag="0"/>
    </comp>
  </station>
  <station code="THAL" name="THAL" netid="HA" insttype="30" lat="38.0357" lon="22.6634">
    <comp name="--.HHZ">
      <acc value="1.7275650117" flag="0"/>
      <vel value="0.6633622270" flag="0"/>
      <psa03 value="3.3071843999" flag="0"/>
      <psa10 value="1.0744657170" flag="0"/>
      <psa30 value="0.0834633877" flag="0"/>
    </comp>
    <comp name="--.HHN">
      <acc value="3.5899014525" flag="0"/>
      <vel value="1.3151698842" flag="0"/>
      <psa03 value="7.7117123954" flag="0"/>
      <psa10 value="1.5500656655" flag="0"/>
      <psa30 value="0.1186553358" flag="0"/>
    </comp>
    <comp name="--.HHE">
      <acc value="3.8036539121" flag="0"/>
      <vel value="1.7402522882" flag="0"/>
      <psa03 value="6.9373878967" flag="0"/>
      <psa10 value="1.5786352968" flag="0"/>
      <psa30 value="0.1029456452" flag="0"/>
    </comp>
  </station>
  <station code="THIV" name="THIV" netid="HA" insttype="25" lat="38.299" lon="23.332">
    <comp name="--.HHE">
      <acc value="0.0769543641" flag="0"/>
      <vel value="0.0589355316" flag="0"/>
      <psa03 value="0.1917764426" flag="0"/>
      <psa10 value="0.0644791311" flag="0"/>
      <psa30 value="0.0130855696" flag="0"/>
    </comp>
    <comp name="--.HHZ">
      <acc value="0.0492960270" flag="0"/>
      <vel value="0.0299828369" flag="0"/>
      <psa03 value="0.0942579100" flag="0"/>
      <psa10 value="0.0362894249" flag="0"/>
      <psa30 value="0.0091797255" flag="0"/>
    </comp>
    <comp name="--.HHN">
      <acc value="0.1165401505" flag="0"/>
      <vel value="0.0530970811" flag="0"/>
      <psa03 value="0.1983361661" flag="0"/>
      <psa10 value="0.0637988257" flag="0"/>
      <psa30 value="0.0150301359" flag="0"/>
    </comp>
  </station>
  <station code="VILL" name="VILL" netid="HA" insttype="30" lat="38.1642" lon="23.3122">
    <comp name="--.HHE">
      <acc value="0.4030018747" flag="0"/>
      <vel value="0.3459894817" flag="0"/>
      <psa03 value="1.6209691526" flag="0"/>
      <psa10 value="0.5900267476" flag="0"/>
      <psa30 value="0.0604190623" flag="0"/>
    </comp>
    <comp name="--.HHZ">
      <acc value="0.2536084499" flag="0"/>
      <vel value="0.1704177904" flag="0"/>
      <psa03 value="0.8773532934" flag="0"/>
      <psa10 value="0.2714234394" flag="0"/>
      <psa30 value="0.0323646492" flag="0"/>
    </comp>
    <comp name="--.HHN">
      <acc value="0.5631133271" flag="0"/>
      <vel value="0.3581304377" flag="0"/>
      <psa03 value="2.1399733612" flag="0"/>
      <psa10 value="0.4140982818" flag="0"/>
      <psa30 value="0.0405252541" flag="0"/>
    </comp>
  </station>
  <station code="KTRS" name="KTRS" netid="HC" insttype="60" lat="36.9261" lon="22.136">
    <comp name="--.HHE">
      <acc value="0.0293895260" flag="0"/>
      <vel value="0.0309712771" flag="0"/>
      <psa03 value="0.0891961755" flag="0"/>
      <psa10 value="0.0347265449" flag="0"/>
      <psa30 value="0.0104046985" flag="0"/>
    </comp>
    <comp name="--.HHN">
      <acc value="0.0324586001" flag="0"/>
      <vel value="0.0394412592" flag="0"/>
      <psa03 value="0.0884533457" flag="0"/>
