<stationlist created="1778118948">
	<station code="AGRP" name="AGRP" netid="CL" source="Corinth Riff Laboratory (CRLNET)" insttype="" lat="38.3959" lon="21.72277">
		<comp name="00.HNE" depth="0.0">
			<acc value="0.113846894625325" flag="0"/>
			<vel value="0.0939329720326055" flag="0"/>
			<psa03 value="0.304298387441571" flag="0"/>
			<psa10 value="0.102932971304244" flag="0"/>
			<psa30 value="0.0107883888444671" flag="0"/>
		</comp>
		<comp name="00.HNN" depth="0.0">
			<acc value="0.104416985763034" flag="0"/>
			<vel value="0.0992249485842714" flag="0"/>
			<psa03 value="0.274668132915736" flag="0"/>
			<psa10 value="0.101458898654078" flag="0"/>
			<psa30 value="0.0179773142421859" flag="0"/>
		</comp>
		<comp name="00.HNZ" depth="0.0">
			<acc value="0.0729931340370588" flag="0"/>
			<vel value="0.0633788715242521" flag="0"/>
			<psa03 value="0.13876673428198" flag="0"/>
			<psa10 value="0.0836386556505536" flag="0"/>
			<psa30 value="0.0107892564019384" flag="0"/>
		</comp>
	</station>
	<station code="ROD3" name="ROD3" netid="CL" source="Corinth Riff Laboratory (CRLNET)" insttype="" lat="38.30811" lon="21.89204">
		<comp name="00.HNE" depth="0.0">
			<acc value="0.337032836979473" flag="0"/>
			<vel value="0.157128151830667" flag="0"/>
			<psa03 value="1.13247118732527" flag="0"/>
			<psa10 value="0.19185175923745" flag="0"/>
			<psa30 value="0.0171129836511622" flag="0"/>
		</comp>
		<comp name="00.HNN" depth="0.0">
			<acc value="0.391550818284273" flag="0"/>
			<vel value="0.168777777720118" flag="0"/>
			<psa03 value="1.28207843140184" flag="0"/>
			<psa10 value="0.190576584763443" flag="0"/>
			<psa30 value="0.0214755209811884" flag="0"/>
		</comp>
		<comp name="00.HNZ" depth="0.0">
			<acc value="0.212921585228632" flag="0"/>
			<vel value="0.0957559761184305" flag="0"/>
			<psa03 value="0.381323594150088" flag="0"/>
			<psa10 value="0.170909126891029" flag="0"/>
			<psa30 value="0.0138058587370367" flag="0"/>
		</comp>
	</station>
	<station code="KTHA" name="KTHA" netid="GE" source="GEOFON" insttype="" lat="36.2566" lon="23.0621">
		<comp name="--.HNE" depth="0.0">
			<acc value="0.0388878835018619" flag="0"/>
			<vel value="0.0439548273128714" flag="0"/>
			<psa03 value="0.125015583752318" flag="0"/>
			<psa10 value="0.0932888699296793" flag="0"/>
			<psa30 value="0.00623799531989048" flag="0"/>
		</comp>
		<comp name="--.HNN" depth="0.0">
			<acc value="0.0303857204288875" flag="0"/>
			<vel value="0.0352254368280782" flag="0"/>
			<psa03 value="0.0850478944224183" flag="0"/>
			<psa10 value="0.0409095625579169" flag="0"/>
			<psa30 value="0.00556849430208698" flag="0"/>
		</comp>
		<comp name="--.HNZ" depth="0.0">
			<acc value="0.0288504932652692" flag="0"/>
			<vel value="0.0174850294371241" flag="0"/>
			<psa03 value="0.0769303358405327" flag="0"/>
			<psa10 value="0.0233942860066204" flag="0"/>
			<psa30 value="0.00316144484687331" flag="0"/>
		</comp>
	</station>
	<station code="AIGS" name="AIGS" netid="HA" source="Hellenic Seismological Network, University of Athens, Seismological Laboratory (HA)" insttype="" lat="38.25001" lon="22.0878">
		<comp name="--.HNE" depth="0.0">
			<acc value="0.824983210673815" flag="0"/>
			<vel value="0.309457469899336" flag="0"/>
			<psa03 value="1.89627328546508" flag="0"/>
			<psa10 value="0.285937811976816" flag="0"/>
			<psa30 value="0.0586936681675885" flag="0"/>
		</comp>
		<comp name="--.HNN" depth="0.0">
			<acc value="0.718091692280717" flag="0"/>
			<vel value="0.255588977334372" flag="0"/>
			<psa03 value="2.12939522865193" flag="0"/>
			<psa10 value="0.314607381194937" flag="0"/>
			<psa30 value="0.0359149058529393" flag="0"/>
		</comp>
		<comp name="--.HNZ" depth="0.0">
			<acc value="0.485002632661014" flag="0"/>
			<vel value="0.177418185519131" flag="0"/>
			<psa03 value="0.744798422574424" flag="0"/>
			<psa10 value="0.217716097623131" flag="0"/>
			<psa30 value="0.0492782277742395" flag="0"/>
		</comp>
	</station>
	<station code="DRES" name="DRES" netid="HA" source="Hellenic Seismological Network, University of Athens, Seismological Laboratory (HA)" insttype="" lat="38.319719" lon="21.853176">
		<comp name="--.HNE" depth="0.0">
			<acc value="0.214909268662897" flag="0"/>
			<vel value="0.151847430864829" flag="0"/>
			<psa03 value="0.610202672933429" flag="0"/>
			<psa10 value="0.272978963516588" flag="0"/>
			<psa30 value="0.0222852846240822" flag="0"/>
		</comp>
		<comp name="--.HNN" depth="0.0">
			<acc value="0.195764532179097" flag="0"/>
			<vel value="0.123395674707828" flag="0"/>
			<psa03 value="0.438301868681216" flag="0"/>
			<psa10 value="0.241590824206254" flag="0"/>
			<psa30 value="0.0192686647878013" flag="0"/>
		</comp>
		<comp name="--.HNZ" depth="0.0">
			<acc value="0.130947511007093" flag="0"/>
			<vel value="0.0855817545066154" flag="0"/>
			<psa03 value="0.215170337312162" flag="0"/>
			<psa10 value="0.115064559962527" flag="0"/>
			<psa30 value="0.0114496209811961" flag="0"/>
		</comp>
	</station>
	<station code="KIAS" name="KIAS" netid="HA" source="Hellenic Seismological Network, University of Athens, Seismological Laboratory (HA)" insttype="" lat="37.9875" lon="22.7543">
		<comp name="--.HNE" depth="0.0">
			<acc value="2.02084955442778" flag="0"/>
			<vel value="1.23911756735408" flag="0"/>
			<psa03 value="2.89744260802071" flag="0"/>
			<psa10 value="1.77211767409725" flag="0"/>
			<psa30 value="0.231702042456318" flag="0"/>
		</comp>
		<comp name="--.HNN" depth="0.0">
			<acc value="2.57374384967452" flag="0"/>
			<vel value="1.13672413861704" flag="0"/>
			<psa03 value="3.31256644126787" flag="0"/>
			<psa10 value="1.36371357933074" flag="0"/>
			<psa30 value="0.139351017987794" flag="0"/>
		</comp>
		<comp name="--.HNZ" depth="0.0">
			<acc value="1.05067502153719" flag="0"/>
			<vel value="0.454100541813631" flag="0"/>
			<psa03 value="1.4465273253344" flag="0"/>
			<psa10 value="0.724454751570985" flag="0"/>
			<psa30 value="0.103157060315515" flag="0"/>
		</comp>
	</station>
	<station code="LTRS" name="LTRS" netid="HA" source="Hellenic Seismological Network, University of Athens, Seismological Laboratory (HA)" insttype="" lat="37.97528" lon="22.9765">
		<comp name="--.HNE" depth="0.0">
			<acc value="0.463622025777285" flag="0"/>
			<vel value="0.509229781563165" flag="0"/>
			<psa03 value="1.50186665796234" flag="0"/>
			<psa10 value="0.765547273751394" flag="0"/>
			<psa30 value="0.0780625779293173" flag="0"/>
		</comp>
		<comp name="--.HNN" depth="0.0">
			<acc value="0.513089845149305" flag="0"/>
			<vel value="0.359701651154425" flag="0"/>
			<psa03 value="1.55904527909884" flag="0"/>
			<psa10 value="0.685954701131602" flag="0"/>
			<psa30 value="0.0708286987202934" flag="0"/>
		</comp>
		<comp name="--.HNZ" depth="0.0">
			<acc value="0.292960444760449" flag="0"/>
			<vel value="0.245567094059067" flag="0"/>
			<psa03 value="0.662035814955458" flag="0"/>
			<psa10 value="0.534286193838062" flag="0"/>
			<psa30 value="0.047003263735653" flag="0"/>
		</comp>
	</station>
	<station code="ARG2" name="ARG2" netid="HI" source="ITSAK Strong Motion Network" insttype="" lat="38.1783" lon="20.4878">
		<comp name="--.HNE" depth="0.0">
			<acc value="0.0447538565173593" flag="0"/>
			<vel value="0.045320423698989" flag="0"/>
			<psa03 value="0.109695995987987" flag="0"/>
			<psa10 value="0.0554324971307136" flag="0"/>
			<psa30 value="0.00671837672613567" flag="0"/>
		</comp>
		<comp name="--.HNN" depth="0.0">
			<acc value="0.0519737338879335" flag="0"/>
			<vel value="0.037780720774976" flag="0"/>
			<psa03 value="0.0857736612507871" flag="0"/>
			<psa10 value="0.0590300429507813" flag="0"/>
			<psa30 value="0.0121302860719342" flag="0"/>
		</comp>
		<comp name="--.HNZ" depth="0.0">
			<acc value="0.0307649044498459" flag="0"/>
			<vel value="0.0209283668517488" flag="0"/>
			<psa03 value="0.0836202946426796" flag="0"/>
			<psa10 value="0.035700703746418" flag="0"/>
			<psa30 value="0.00464394263842689" flag="0"/>
		</comp>
	</station>
	<station code="ARS1" name="ARS1" netid="HI" source="ITSAK Strong Motion Network" insttype="" lat="37.6349" lon="22.7293">
		<comp name="--.HNE" depth="0.0">
			<acc value="0.318729437267697" flag="0"/>
			<vel value="0.25725627719297" flag="0"/>
			<psa03 value="0.955659724432389" flag="0"/>
			<psa10 value="0.268854230273359" flag="0"/>
			<psa30 value="0.020965832216826" flag="0"/>
		</comp>
		<comp name="--.HNN" depth="0.0">
			<acc value="0.454861234425088" flag="0"/>
			<vel value="0.264509130801644" flag="0"/>
			<psa03 value="1.28594093727697" flag="0"/>
			<psa10 value="0.323032179296622" flag="0"/>
			<psa30 value="0.0469006602720966" flag="0"/>
		</comp>
		<comp name="--.HNZ" depth="0.0">
			<acc value="0.306675781024613" flag="0"/>
			<vel value="0.157804107015353" flag="0"/>
			<psa03 value="0.692263234042446" flag="0"/>
			<psa10 value="0.092538505221778" flag="0"/>
			<psa30 value="0.0401514731713978" flag="0"/>
		</comp>
	</station>
	<station code="ART2" name="ART2" netid="HI" source="ITSAK Strong Motion Network" insttype="" lat="39.1474" lon="20.9937">
		<comp name="--.HNE" depth="0.0">
			<acc value="0.00790667932805286" flag="0"/>
			<vel value="0.0147399300678707" flag="0"/>
			<psa03 value="0.0209698006046946" flag="0"/>
			<psa10 value="0.01564417728747" flag="0"/>
			<psa30 value="0.00432608699869698" flag="0"/>
		</comp>
		<comp name="--.HNN" depth="0.0">
			<acc value="0.0108738913193228" flag="0"/>
			<vel value="0.0255389362859374" flag="0"/>
			<psa03 value="0.0192048907193564" flag="0"/>
			<psa10 value="0.0190994546201264" flag="0"/>
			<psa30 value="0.0131869260691538" flag="0"/>
		</comp>
		<comp name="--.HNZ" depth="0.0">
			<acc value="0.0067375062893771" flag="0"/>
			<vel value="0.0168234597569568" flag="0"/>
			<psa03 value="0.0187199341141659" flag="0"/>
			<psa10 value="0.013936558853637" flag="0"/>
			<psa30 value="0.00513056945837846" flag="0"/>
		</comp>
	</station>
	<station code="ATH5" name="ATH5" netid="HI" source="ITSAK Strong Motion Network" insttype="" lat="37.975421" lon="23.737098">
		<comp name="--.HNE" depth="0.0">
			<acc value="0.10044536262358" flag="0"/>
			<vel value="0.112970740111237" flag="0"/>
			<psa03 value="0.315989328575514" flag="0"/>
			<psa10 value="0.192892393174362" flag="0"/>
			<psa30 value="0.015075370335945" flag="0"/>
		</comp>
		<comp name="--.HNN" depth="0.0">
			<acc value="0.114830744829295" flag="0"/>
			<vel value="0.110221242678942" flag="0"/>
			<psa03 value="0.295061775561345" flag="0"/>
			<psa10 value="0.142973706306222" flag="0"/>
			<psa30 value="0.0249151671741961" flag="0"/>
		</comp>
		<comp name="--.HNZ" depth="0.0">
			<acc value="0.041378790227163" flag="0"/>
			<vel value="0.0493236985627324" flag="0"/>
			<psa03 value="0.101784867748005" flag="0"/>
			<psa10 value="0.0840513854917724" flag="0"/>
			<psa30 value="0.0168529197565784" flag="0"/>
		</comp>
	</station>
	<station code="KLV1" name="KLV1" netid="HI" source="ITSAK Strong Motion Network" insttype="" lat="38.03256" lon="22.10797">
		<comp name="--.HNE" depth="0.0">
			<acc value="1.68286916750941" flag="0"/>
			<vel value="0.652016942964104" flag="0"/>
			<psa03 value="4.34778368599665" flag="0"/>
			<psa10 value="0.387181558878169" flag="0"/>
			<psa30 value="0.024527259810602" flag="0"/>
		</comp>
		<comp name="--.HNN" depth="0.0">
			<acc value="1.84159629535376" flag="0"/>
			<vel value="0.729242043393586" flag="0"/>
			<psa03 value="5.60901623648614" flag="0"/>
			<psa10 value="0.284894102836231" flag="0"/>
			<psa30 value="0.0341913683436983" flag="0"/>
		</comp>
		<comp name="--.HNZ" depth="0.0">
			<acc value="0.941603357201565" flag="0"/>
			<vel value="0.263358914553026" flag="0"/>
			<psa03 value="1.42578278444623" flag="0"/>
			<psa10 value="0.291834492602721" flag="0"/>
			<psa30 value="0.0311365393095798" flag="0"/>
		</comp>
	</station>
	<station code="KRI1" name="KRI1" netid="HI" source="ITSAK Strong Motion Network" insttype="" lat="37.6621" lon="20.8172">
		<comp name="--.HNE" depth="0.0">
			<acc value="0.115349591425851" flag="0"/>
			<vel value="0.125249221663145" flag="0"/>
			<psa03 value="0.249762149683155" flag="0"/>
			<psa10 value="0.30657653919124" flag="0"/>
			<psa30 value="0.0134974408058588" flag="0"/>
		</comp>
		<comp name="--.HNN" depth="0.0">
			<acc value="0.104983707632452" flag="0"/>
			<vel value="0.139500440458033" flag="0"/>
			<psa03 value="0.179006837491226" flag="0"/>
			<psa10 value="0.34527253261097" flag="0"/>
			<psa30 value="0.0233797804623726" flag="0"/>
		</comp>
		<comp name="--.HNZ" depth="0.0">
			<acc value="0.0459463021999601" flag="0"/>
			<vel value="0.0491381088420013" flag="0"/>
			<psa03 value="0.132082499817435" flag="0"/>
			<psa10 value="0.116734193067308" flag="0"/>
			<psa30 value="0.00734690502975018" flag="0"/>
		</comp>
	</station>
	<station code="KRK1" name="KRK1" netid="HI" source="ITSAK Strong Motion Network" insttype="" lat="39.618861" lon="19.9202">
		<comp name="--.HNE" depth="0.0">
			<acc value="0.0156214357028149" flag="0"/>
			<vel value="0.00915253734718891" flag="0"/>
			<psa03 value="0.0280832197504894" flag="0"/>
			<psa10 value="0.0144944383103943" flag="0"/>
			<psa30 value="0.0032253149112841" flag="0"/>
		</comp>
		<comp name="--.HNN" depth="0.0">
			<acc value="0.0119212574716676" flag="0"/>
			<vel value="0.0114781319788759" flag="0"/>
			<psa03 value="0.0275769648594346" flag="0"/>
			<psa10 value="0.0151050603236325" flag="0"/>
			<psa30 value="0.00462720444627035" flag="0"/>
		</comp>
		<comp name="--.HNZ" depth="0.0">
			<acc value="0.00677167108983336" flag="0"/>
			<vel value="0.00715193631164017" flag="0"/>
			<psa03 value="0.0196924490593429" flag="0"/>
			<psa10 value="0.00651487485974389" flag="0"/>
			<psa30 value="0.00315622012576199" flag="0"/>
		</comp>
	</station>
	<station code="LAM2" name="LAM2" netid="HI" source="ITSAK Strong Motion Network" insttype="" lat="38.90203" lon="22.431301">
		<comp name="--.HNE" depth="0.0">
			<acc value="0.134593223338442" flag="0"/>
			<vel value="0.0992028169789098" flag="0"/>
			<psa03 value="0.25549494611943" flag="0"/>
			<psa10 value="0.136874467261816" flag="0"/>
			<psa30 value="0.0312175080066835" flag="0"/>
		</comp>
		<comp name="--.HNN" depth="0.0">
			<acc value="0.138640724419544" flag="0"/>
			<vel value="0.109241787735212" flag="0"/>
			<psa03 value="0.403120329743609" flag="0"/>
			<psa10 value="0.112850083264071" flag="0"/>
			<psa30 value="0.0299177019009216" flag="0"/>
		</comp>
		<comp name="--.HNZ" depth="0.0">
			<acc value="0.0966847604195835" flag="0"/>
			<vel value="0.0782619289197015" flag="0"/>
			<psa03 value="0.221807068629636" flag="0"/>
			<psa10 value="0.0823300289603637" flag="0"/>
			<psa30 value="0.0150163397587969" flag="0"/>
		</comp>
	</station>
	<station code="LMS2" name="LMS2" netid="HI" source="ITSAK Strong Motion Network" insttype="" lat="40.834985" lon="21.141815">
		<comp name="--.HNE" depth="0.0">
			<acc value="0.00299717541264847" flag="0"/>
			<vel value="0.00573153006943111" flag="0"/>
			<psa03 value="0.00619405681023982" flag="0"/>
			<psa10 value="0.00568357979051756" flag="0"/>
			<psa30 value="0.00269574045457511" flag="0"/>
		</comp>
		<comp name="--.HNN" depth="0.0">
			<acc value="0.00286042568732648" flag="0"/>
			<vel value="0.00706786767105021" flag="0"/>
			<psa03 value="0.00766132523353022" flag="0"/>
			<psa10 value="0.00602576323974172" flag="0"/>
			<psa30 value="0.00305629496454188" flag="0"/>
		</comp>
		<comp name="--.HNZ" depth="0.0">
			<acc value="0.00189015532599089" flag="0"/>
			<vel value="0.00860597769725925" flag="0"/>
			<psa03 value="0.00539042512306373" flag="0"/>
			<psa10 value="0.00431529461709001" flag="0"/>
			<psa30 value="0.00446533705666526" flag="0"/>
		</comp>
	</station>
	<station code="MSL1" name="MSL1" netid="HI" source="ITSAK Strong Motion Network" insttype="" lat="38.3727" lon="21.4243">
		<comp name="--.HNE" depth="0.0">
			<acc value="0.144461192493213" flag="0"/>
			<vel value="0.194671273631312" flag="0"/>
			<psa03 value="0.228404734859406" flag="0"/>
			<psa10 value="0.292785015570317" flag="0"/>
			<psa30 value="0.0369880402761252" flag="0"/>
		</comp>
		<comp name="--.HNN" depth="0.0">
			<acc value="0.140479513704006" flag="0"/>
			<vel value="0.152420300902025" flag="0"/>
			<psa03 value="0.399905658453805" flag="0"/>
			<psa10 value="0.331283385898455" flag="0"/>
			<psa30 value="0.0303525640417516" flag="0"/>
		</comp>
		<comp name="--.HNZ" depth="0.0">
			<acc value="0.0580387052026379" flag="0"/>
			<vel value="0.0819447738006651" flag="0"/>
			<psa03 value="0.18036965693781" flag="0"/>
			<psa10 value="0.152420432105632" flag="0"/>
			<psa30 value="0.00912666042980306" flag="0"/>
		</comp>
	</station>
	<station code="NAX1" name="NAX1" netid="HI" source="ITSAK Strong Motion Network" insttype="" lat="37.101394" lon="25.374103">
		<comp name="--.HNE" depth="0.0">
			<acc value="0.00284590232144966" flag="0"/>
			<vel value="0.00666191982911864" flag="0"/>
			<psa03 value="0.00864276329585979" flag="0"/>
			<psa10 value="0.00651370243832628" flag="0"/>
			<psa30 value="0.00231253298562624" flag="0"/>
		</comp>
		<comp name="--.HNN" depth="0.0">
			<acc value="0.00419181080704355" flag="0"/>
			<vel value="0.0079721068864811" flag="0"/>
			<psa03 value="0.0119958753970483" flag="0"/>
			<psa10 value="0.00695124814233871" flag="0"/>
			<psa30 value="0.00270671243141607" flag="0"/>
		</comp>
		<comp name="--.HNZ" depth="0.0">
			<acc value="0.00298396464657265" flag="0"/>
			<vel value="0.00700934472041845" flag="0"/>
			<psa03 value="0.00669860651020526" flag="0"/>
			<psa10 value="0.00526234157305052" flag="0"/>
			<psa30 value="0.00364541357409207" flag="0"/>
		</comp>
	</station>
	<station code="NPS1" name="NPS1" netid="HI" source="ITSAK Strong Motion Network" insttype="" lat="36.51263" lon="23.06248">
		<comp name="--.HNE" depth="0.0">
			<acc value="0.0745983351927691" flag="0"/>
			<vel value="0.0569663421499269" flag="0"/>
			<psa03 value="0.279599772112647" flag="0"/>
			<psa10 value="0.0650018710550393" flag="0"/>
			<psa30 value="0.00570825564390589" flag="0"/>
		</comp>
		<comp name="--.HNN" depth="0.0">
			<acc value="0.16172366402706" flag="0"/>
			<vel value="0.124055152799944" flag="0"/>
			<psa03 value="0.28375367228834" flag="0"/>
			<psa10 value="0.130521216390066" flag="0"/>
			<psa30 value="0.00785395945294123" flag="0"/>
		</comp>
		<comp name="--.HNZ" depth="0.0">
			<acc value="0.0527984082808616" flag="0"/>
			<vel value="0.0322850439693542" flag="0"/>
			<psa03 value="0.207136846799629" flag="0"/>
			<psa10 value="0.0348765153979876" flag="0"/>
			<psa30 value="0.00569929296686487" flag="0"/>
		</comp>
	</station>
	<station code="SKY1" name="SKY1" netid="HI" source="ITSAK Strong Motion Network" insttype="" lat="38.904483" lon="24.564572">
		<comp name="--.HNE" depth="0.0">
			<acc value="0.0288364390308755" flag="0"/>
			<vel value="0.0274377967704017" flag="0"/>
			<psa03 value="0.095357421127903" flag="0"/>
			<psa10 value="0.0479511827806032" flag="0"/>
			<psa30 value="0.0048561291947403" flag="0"/>
		</comp>
		<comp name="--.HNN" depth="0.0">
			<acc value="0.0341691305697094" flag="0"/>
			<vel value="0.0274062220525493" flag="0"/>
			<psa03 value="0.0925474954006006" flag="0"/>
			<psa10 value="0.0368645483454068" flag="0"/>
			<psa30 value="0.00912033001042306" flag="0"/>
		</comp>
		<comp name="--.HNZ" depth="0.0">
			<acc value="0.0157627900743655" flag="0"/>
			<vel value="0.0201379495249376" flag="0"/>
			<psa03 value="0.0488428658083313" flag="0"/>
			<psa10 value="0.0360606525912561" flag="0"/>
			<psa30 value="0.00478036500905104" flag="0"/>
		</comp>
	</station>
	<station code="VAS2" name="VAS2" netid="HI" source="ITSAK Strong Motion Network" insttype="" lat="38.630558" lon="20.608081">
		<comp name="--.HNE" depth="0.0">
			<acc value="0.0924834443206932" flag="0"/>
			<vel value="0.127533845808807" flag="0"/>
