<?xml version="1.0" encoding="UTF-8" standalone="yes"?>
<!DOCTYPE earthquake SYSTEM "stationlist.dtd">
<stationlist created="" xmlns="ch.ethz.sed.shakemap.usgs.xml">
  <station code="KLV" name="KLV" netid="MN" insttype="" lat="38.0437" lon="22.1504">
    <comp name="--.HHN">
      <acc value="0.5696181442" flag="0"/>
      <vel value="0.1918189800" flag="0"/>
      <psa03 value="1.2096757953" flag="0"/>
      <psa10 value="0.1994755174" flag="0"/>
      <psa30 value="0.0379876953" flag="0"/>
    </comp>
    <comp name="--.HHE">
      <acc value="0.6088448609" flag="0"/>
      <vel value="0.2875847571" flag="0"/>
      <psa03 value="1.3451481280" flag="0"/>
      <psa10 value="0.2455080943" flag="0"/>
      <psa30 value="0.0222396267" flag="0"/>
    </comp>
    <comp name="--.HHZ">
      <acc value="0.4189568864" flag="0"/>
      <vel value="0.2587501550" flag="0"/>
      <psa03 value="0.8728089354" flag="0"/>
      <psa10 value="0.3019417412" flag="0"/>
      <psa30 value="0.0495327296" flag="0"/>
    </comp>
  </station>
  <station code="THL" name="THL" netid="MN" insttype="" lat="39.5647" lon="22.0144">
    <comp name="--.HHE">
      <acc value="0.0178240493" flag="0"/>
      <vel value="0.0206022014" flag="0"/>
      <psa03 value="0.0303650810" flag="0"/>
      <psa10 value="0.0351445024" flag="0"/>
      <psa30 value="0.0128542085" flag="0"/>
    </comp>
    <comp name="--.HHN">
      <acc value="0.0160211468" flag="0"/>
      <vel value="0.0179616807" flag="0"/>
      <psa03 value="0.0318043196" flag="0"/>
      <psa10 value="0.0242241061" flag="0"/>
      <psa30 value="0.0115077632" flag="0"/>
    </comp>
  </station>
</stationlist>
