<?xml version="1.0" encoding="UTF-8" standalone="yes"?>
<!DOCTYPE earthquake SYSTEM "stationlist.dtd">
<stationlist created="" xmlns="ch.ethz.sed.shakemap.usgs.xml">
  <station code="BLY" name="BLY" netid="MN" source="INGV" insttype="" lat="44.7488" lon="17.1839">
    <comp name="--.HHE">
      <acc value="0.1444278249" flag="0"/>
      <vel value="0.0754065344" flag="0"/>
      <psa03 value="0.5024204587" flag="0"/>
      <psa10 value="0.0466903203" flag="0"/>
      <psa30 value="0.0190603902" flag="0"/>
    </comp>
    <comp name="--.HHN">
      <acc value="0.1004386105" flag="0"/>
      <vel value="0.0548440015" flag="0"/>
      <psa03 value="0.3337826848" flag="0"/>
      <psa10 value="0.0546550058" flag="0"/>
      <psa30 value="0.0144776965" flag="0"/>
    </comp>
    <comp name="--.HHZ">
      <acc value="0.1456549082" flag="0"/>
      <vel value="0.0677724077" flag="0"/>
      <psa03 value="0.4172884310" flag="0"/>
      <psa10 value="0.0201124361" flag="0"/>
      <psa30 value="0.0203852559" flag="0"/>
    </comp>
  </station>
</stationlist>
