<stationlist created="1779760469">
	<station code="BLY" name="BLY" netid="MN" source="Mediterranean Very Broadband Seismographic Network (MedNet)" insttype="" lat="44.7488" lon="17.1839">
		<comp name="--.HNE" depth="1.0">
			<acc value="0.143134703239757" flag="0"/>
			<vel value="0.0840027818911598" flag="0"/>
			<psa03 value="0.494893547404704" flag="0"/>
			<psa10 value="0.0465538185642456" flag="0"/>
			<psa30 value="0.0207755962211283" flag="0"/>
		</comp>
		<comp name="--.HNN" depth="1.0">
			<acc value="0.0982693629464054" flag="0"/>
			<vel value="0.0644605821632387" flag="0"/>
			<psa03 value="0.333150470479652" flag="0"/>
			<psa10 value="0.0532181702400372" flag="0"/>
			<psa30 value="0.0192127509439521" flag="0"/>
		</comp>
		<comp name="--.HNZ" depth="1.0">
			<acc value="0.143713943795268" flag="0"/>
			<vel value="0.0717401286898031" flag="0"/>
			<psa03 value="0.421158390897792" flag="0"/>
			<psa10 value="0.0202306361445178" flag="0"/>
			<psa30 value="0.023470866747813" flag="0"/>
		</comp>
	</station>
	<station code="SKDS" name="SKDS" netid="SL" source="Seismic Network of the Republic of Slovenia (SNRS)" insttype="" lat="45.5464" lon="14.0143">
		<comp name="--.HNE" depth="0.0">
			<acc value="0.00236930454666833" flag="0"/>
			<vel value="0.00214570954461761" flag="0"/>
			<psa03 value="0.00723668121753154" flag="0"/>
			<psa10 value="0.00234573914370598" flag="0"/>
			<psa30 value="0.00146858947434521" flag="0"/>
		</comp>
		<comp name="--.HNN" depth="0.0">
			<acc value="0.00225503790313832" flag="0"/>
			<vel value="0.00347627617909379" flag="0"/>
			<psa03 value="0.00693348404887379" flag="0"/>
			<psa10 value="0.00288807546145038" flag="0"/>
			<psa30 value="0.00177116462263049" flag="0"/>
		</comp>
		<comp name="--.HNZ" depth="0.0">
			<acc value="0.00231407767077382" flag="0"/>
			<vel value="0.00221957481546769" flag="0"/>
			<psa03 value="0.00535243432510982" flag="0"/>
			<psa10 value="0.00208151984359907" flag="0"/>
			<psa30 value="0.00160053519426827" flag="0"/>
		</comp>
	</station>
</stationlist>
