<stationlist xmlns:esm="https://esm-db.eu/esmws/shakemap/1/" created="1784685227">
	<station code="BLY" name="BLY" netid="MN" source="Mediterranean Very Broadband Seismographic Network (MedNet)" insttype="" lat="44.7488" lon="17.1839" esm:processing="manual (Paolucci et al 2011)" esm:quality="best">
		<comp name="--.HNE" depth="1.0">
			<acc value="0.143134703239757" flag="0"/>
			<vel value="0.0840027818911598" flag="0"/>
			<psa03 value="0.494893547404704" flag="0"/>
			<psa10 value="0.0465538185642456" flag="0"/>
			<psa30 value="0.0207755962211283" flag="0"/>
		</comp>
		<comp name="--.HNN" depth="1.0">
			<acc value="0.0982693629464054" flag="0"/>
			<vel value="0.0644605821632387" flag="0"/>
			<psa03 value="0.333150470479652" flag="0"/>
			<psa10 value="0.0532181702400372" flag="0"/>
			<psa30 value="0.0192127509439521" flag="0"/>
		</comp>
		<comp name="--.HNZ" depth="1.0">
			<acc value="0.143713943795268" flag="0"/>
			<vel value="0.0717401286898031" flag="0"/>
			<psa03 value="0.421158390897792" flag="0"/>
			<psa10 value="0.0202306361445178" flag="0"/>
			<psa30 value="0.023470866747813" flag="0"/>
		</comp>
	</station>
	<station code="BOJS" name="BOJS" netid="SL" source="Seismic Network of the Republic of Slovenia (SNRS)" insttype="" lat="45.5043" lon="15.2518" esm:processing="manual (Paolucci et al 2011)" esm:quality="best">
		<comp name="--.HNE" depth="0.0">
			<acc value="0.00719281938144346" flag="0"/>
			<vel value="0.00636855324027872" flag="0"/>
			<psa03 value="0.0235446690937762" flag="0"/>
			<psa10 value="0.00433693448812527" flag="0"/>
			<psa30 value="0.00451124051421071" flag="0"/>
		</comp>
		<comp name="--.HNN" depth="0.0">
			<acc value="0.00774153077305887" flag="0"/>
			<vel value="0.00592541226971594" flag="0"/>
			<psa03 value="0.0164365732173091" flag="0"/>
			<psa10 value="0.00425296736321533" flag="0"/>
			<psa30 value="0.00322078502786797" flag="0"/>
		</comp>
		<comp name="--.HNZ" depth="0.0">
			<acc value="0.00529794489282945" flag="0"/>
			<vel value="0.00663799915047343" flag="0"/>
			<psa03 value="0.0132330146431092" flag="0"/>
			<psa10 value="0.00336352773908037" flag="0"/>
			<psa30 value="0.00414011092869708" flag="0"/>
		</comp>
	</station>
	<station code="CEY" name="CEY" netid="SL" source="Seismic Network of the Republic of Slovenia (SNRS)" insttype="" lat="45.7381" lon="14.4221" esm:processing="manual (Paolucci et al 2011)" esm:quality="best">
		<comp name="--.HNE" depth="0.0">
			<acc value="0.00455169247715326" flag="0"/>
			<vel value="0.00350857142681478" flag="0"/>
			<psa03 value="0.0166410763479712" flag="0"/>
			<psa10 value="0.00277192417324758" flag="0"/>
			<psa30 value="0.0022092517687539" flag="0"/>
		</comp>
		<comp name="--.HNN" depth="0.0">
			<acc value="0.0028568991108558" flag="0"/>
			<vel value="0.00323947055945694" flag="0"/>
			<psa03 value="0.0117688343150149" flag="0"/>
			<psa10 value="0.0033541082869629" flag="0"/>
			<psa30 value="0.00161829084965996" flag="0"/>
		</comp>
		<comp name="--.HNZ" depth="0.0">
			<acc value="0.0030984952636681" flag="0"/>
			<vel value="0.00373204075519557" flag="0"/>
			<psa03 value="0.00971061398364419" flag="0"/>
			<psa10 value="0.00236941375890805" flag="0"/>
			<psa30 value="0.00248164981378752" flag="0"/>
		</comp>
	</station>
	<station code="CRES" name="CRES" netid="SL" source="Seismic Network of the Republic of Slovenia (SNRS)" insttype="" lat="45.826" lon="15.4569" esm:processing="manual (Paolucci et al 2011)" esm:quality="good">
		<comp name="--.HNE" depth="0.0">
			<acc value="0.0079695087708031" flag="0"/>
			<vel value="0.00683454881073324" flag="0"/>
			<psa03 value="0.0233577035832287" flag="0"/>
			<psa10 value="0.00431783494162405" flag="0"/>
			<psa30 value="0.00158115443122116" flag="0"/>
		</comp>
		<comp name="--.HNN" depth="0.0">
			<acc value="0.00707491765378258" flag="0"/>
			<vel value="0.00507684583742622" flag="0"/>
			<psa03 value="0.0273551142253988" flag="0"/>
			<psa10 value="0.0048252285539607" flag="0"/>
			<psa30 value="0.00284292958013231" flag="0"/>
		</comp>
		<comp name="--.HNZ" depth="0.0">
			<acc value="0.00397622305011899" flag="0"/>
			<vel value="0.00438303951122215" flag="0"/>
			<psa03 value="0.00977922464855569" flag="0"/>
			<psa10 value="0.00296343459424809" flag="0"/>
			<psa30 value="0.00136294372583285" flag="0"/>
		</comp>
	</station>
	<station code="KOGS" name="KOGS" netid="SL" source="Seismic Network of the Republic of Slovenia (SNRS)" insttype="" lat="46.4481" lon="16.2504" esm:processing="manual (Paolucci et al 2011)" esm:quality="best">
		<comp name="--.HNE" depth="0.0">
			<acc value="0.00620949164112955" flag="0"/>
			<vel value="0.00762325268638033" flag="0"/>
			<psa03 value="0.0218826214912795" flag="0"/>
			<psa10 value="0.00854349158938851" flag="0"/>
			<psa30 value="0.00198901822102888" flag="0"/>
		</comp>
		<comp name="--.HNN" depth="0.0">
			<acc value="0.00788952300209193" flag="0"/>
			<vel value="0.00667098319552914" flag="0"/>
			<psa03 value="0.0223842041978388" flag="0"/>
			<psa10 value="0.00431262350264179" flag="0"/>
			<psa30 value="0.00215919491106608" flag="0"/>
		</comp>
		<comp name="--.HNZ" depth="0.0">
			<acc value="0.00439635864547663" flag="0"/>
			<vel value="0.00541715362228688" flag="0"/>
			<psa03 value="0.0157199619432458" flag="0"/>
			<psa10 value="0.00351026581913303" flag="0"/>
			<psa30 value="0.00163970883099611" flag="0"/>
		</comp>
	</station>
	<station code="LJU" name="LJU" netid="SL" source="Seismic Network of the Republic of Slovenia (SNRS)" insttype="" lat="46.0438" lon="14.5278" esm:processing="manual (Paolucci et al 2011)" esm:quality="good">
		<comp name="--.HNE" depth="0.0">
			<acc value="0.00313853951150549" flag="0"/>
			<vel value="0.00572633540175705" flag="0"/>
			<psa03 value="0.0066806827968232" flag="0"/>
			<psa10 value="0.00440843250576804" flag="0"/>
			<psa30 value="0.00409308948042357" flag="0"/>
		</comp>
		<comp name="--.HNN" depth="0.0">
			<acc value="0.00389179926088544" flag="0"/>
			<vel value="0.00408389851588621" flag="0"/>
			<psa03 value="0.00978133416330068" flag="0"/>
			<psa10 value="0.00402943989936787" flag="0"/>
			<psa30 value="0.00228042169174535" flag="0"/>
		</comp>
		<comp name="--.HNZ" depth="0.0">
			<acc value="0.00188265680670266" flag="0"/>
			<vel value="0.00444987677326286" flag="0"/>
			<psa03 value="0.00500821686093382" flag="0"/>
			<psa10 value="0.00214375849785446" flag="0"/>
			<psa30 value="0.00289295414401416" flag="0"/>
		</comp>
	</station>
	<station code="MOZS" name="MOZS" netid="SL" source="Seismic Network of the Republic of Slovenia (SNRS)" insttype="" lat="46.2941" lon="14.4433" esm:processing="manual (Paolucci et al 2011)" esm:quality="best">
		<comp name="--.HNE" depth="0.0">
			<acc value="0.00247685320192657" flag="0"/>
			<vel value="0.00455448571181829" flag="0"/>
			<psa03 value="0.00770880103481906" flag="0"/>
			<psa10 value="0.00284140713552782" flag="0"/>
			<psa30 value="0.0016596013987811" flag="0"/>
		</comp>
		<comp name="--.HNN" depth="0.0">
			<acc value="0.00243789961379939" flag="0"/>
			<vel value="0.00387789292804023" flag="0"/>
			<psa03 value="0.00512045183501253" flag="0"/>
			<psa10 value="0.00279308307492097" flag="0"/>
			<psa30 value="0.00367229868843207" flag="0"/>
		</comp>
		<comp name="--.HNZ" depth="0.0">
			<acc value="0.00117500718658736" flag="0"/>
			<vel value="0.00276885278906447" flag="0"/>
			<psa03 value="0.00404240288049758" flag="0"/>
			<psa10 value="0.00214186227848923" flag="0"/>
			<psa30 value="0.00260372540069604" flag="0"/>
		</comp>
	</station>
	<station code="PERS" name="PERS" netid="SL" source="Seismic Network of the Republic of Slovenia (SNRS)" insttype="" lat="46.6365" lon="15.1139" esm:processing="manual (Paolucci et al 2011)" esm:quality="good">
		<comp name="--.HNE" depth="0.0">
			<acc value="0.0134100813877182" flag="0"/>
			<vel value="0.00791570092718059" flag="0"/>
			<psa03 value="0.0405047848057062" flag="0"/>
			<psa10 value="0.00295712878589423" flag="0"/>
			<psa30 value="0.0007613518941598" flag="0"/>
		</comp>
		<comp name="--.HNN" depth="0.0">
			<acc value="0.0287925606059433" flag="0"/>
			<vel value="0.0178618517730284" flag="0"/>
			<psa03 value="0.0894950119386555" flag="0"/>
			<psa10 value="0.00587136504286892" flag="0"/>
			<psa30 value="0.000886748326057999" flag="0"/>
		</comp>
		<comp name="--.HNZ" depth="0.0">
			<acc value="0.00476074675146862" flag="0"/>
			<vel value="0.00293482706560452" flag="0"/>
			<psa03 value="0.022195397419483" flag="0"/>
			<psa10 value="0.000992633921188184" flag="0"/>
			<psa30 value="0.00105953893925478" flag="0"/>
		</comp>
	</station>
	<station code="SKDS" name="SKDS" netid="SL" source="Seismic Network of the Republic of Slovenia (SNRS)" insttype="" lat="45.5464" lon="14.0143" esm:processing="manual (Paolucci et al 2011)" esm:quality="best">
		<comp name="--.HNE" depth="0.0">
			<acc value="0.00236930449402516" flag="0"/>
			<vel value="0.00214567090263165" flag="0"/>
			<psa03 value="0.00723668121753154" flag="0"/>
			<psa10 value="0.00234573914370598" flag="0"/>
			<psa30 value="0.00146858947434521" flag="0"/>
		</comp>
		<comp name="--.HNN" depth="0.0">
			<acc value="0.00225503793226205" flag="0"/>
			<vel value="0.00347629266032027" flag="0"/>
			<psa03 value="0.00693348404887379" flag="0"/>
			<psa10 value="0.00288807546145038" flag="0"/>
			<psa30 value="0.00177116462263049" flag="0"/>
		</comp>
		<comp name="--.HNZ" depth="0.0">
			<acc value="0.00231407771166031" flag="0"/>
			<vel value="0.00221960641287649" flag="0"/>
			<psa03 value="0.00535243432510982" flag="0"/>
			<psa10 value="0.00208151984359907" flag="0"/>
			<psa30 value="0.00160053519426827" flag="0"/>
		</comp>
	</station>
	<station code="VISS" name="VISS" netid="SL" source="Seismic Network of the Republic of Slovenia (SNRS)" insttype="" lat="45.8033" lon="14.8393" esm:processing="manual (Paolucci et al 2011)" esm:quality="best">
		<comp name="--.HNE" depth="0.0">
			<acc value="0.00266756848229541" flag="0"/>
			<vel value="0.00438606739372846" flag="0"/>
			<psa03 value="0.00868179387623626" flag="0"/>
			<psa10 value="0.00252367788439927" flag="0"/>
			<psa30 value="0.00242469499914391" flag="0"/>
		</comp>
		<comp name="--.HNN" depth="0.0">
			<acc value="0.00282252395097668" flag="0"/>
			<vel value="0.00542479604233121" flag="0"/>
			<psa03 value="0.00704893114980265" flag="0"/>
			<psa10 value="0.00335994039206124" flag="0"/>
			<psa30 value="0.00307111927991335" flag="0"/>
		</comp>
		<comp name="--.HNZ" depth="0.0">
			<acc value="0.00322809077926334" flag="0"/>
			<vel value="0.00500409947945834" flag="0"/>
			<psa03 value="0.00800245785793406" flag="0"/>
			<psa10 value="0.00298517712833426" flag="0"/>
			<psa30 value="0.0031037914442839" flag="0"/>
		</comp>
	</station>
	<station code="VNDS" name="VNDS" netid="SL" source="Seismic Network of the Republic of Slovenia (SNRS)" insttype="" lat="46.1016" lon="14.7014" esm:processing="manual (Paolucci et al 2011)" esm:quality="best">
		<comp name="--.HNE" depth="0.0">
			<acc value="0.00305910701345429" flag="0"/>
			<vel value="0.00416001386290457" flag="0"/>
			<psa03 value="0.00643223599990055" flag="0"/>
			<psa10 value="0.00391991272185489" flag="0"/>
			<psa30 value="0.00161083629333219" flag="0"/>
		</comp>
		<comp name="--.HNN" depth="0.0">
			<acc value="0.00299340718450461" flag="0"/>
			<vel value="0.00222566865382435" flag="0"/>
			<psa03 value="0.00834193151827301" flag="0"/>
			<psa10 value="0.00296110170533064" flag="0"/>
			<psa30 value="0.00129603648105625" flag="0"/>
		</comp>
		<comp name="--.HNZ" depth="0.0">
			<acc value="0.00189687169795753" flag="0"/>
			<vel value="0.00234343921737579" flag="0"/>
			<psa03 value="0.00453865938786819" flag="0"/>
			<psa10 value="0.00221267986043148" flag="0"/>
			<psa30 value="0.00102061990272628" flag="0"/>
		</comp>
	</station>
	<station code="BANR" name="BANR" netid="RO" source="Romanian Seismic Network (NIEP)" insttype="" lat="45.3828" lon="21.137" esm:processing="discarded" esm:quality="bad">
		<comp name="--.HNE" depth="0.0">
			<acc value="0" flag="1"/>
			<vel value="0" flag="1"/>
			<psa03 value="0" flag="1"/>
			<psa10 value="0" flag="1"/>
			<psa30 value="0" flag="1"/>
		</comp>
		<comp name="--.HNN" depth="0.0">
			<acc value="0" flag="1"/>
			<vel value="0" flag="1"/>
			<psa03 value="0" flag="1"/>
			<psa10 value="0" flag="1"/>
			<psa30 value="0" flag="1"/>
		</comp>
		<comp name="--.HNZ" depth="0.0">
			<acc value="0" flag="1"/>
			<vel value="0" flag="1"/>
			<psa03 value="0" flag="1"/>
			<psa10 value="0" flag="1"/>
			<psa30 value="0" flag="1"/>
		</comp>
	</station>
	<station code="MDVR" name="MDVR" netid="RO" source="Romanian Seismic Network (NIEP)" insttype="" lat="44.7815" lon="21.7128" esm:processing="discarded" esm:quality="bad">
		<comp name="--.HNE" depth="0.0">
			<acc value="0" flag="1"/>
			<vel value="0" flag="1"/>
			<psa03 value="0" flag="1"/>
			<psa10 value="0" flag="1"/>
			<psa30 value="0" flag="1"/>
		</comp>
		<comp name="--.HNN" depth="0.0">
			<acc value="0" flag="1"/>
			<vel value="0" flag="1"/>
			<psa03 value="0" flag="1"/>
			<psa10 value="0" flag="1"/>
			<psa30 value="0" flag="1"/>
		</comp>
		<comp name="--.HNZ" depth="0.0">
			<acc value="0" flag="1"/>
			<vel value="0" flag="1"/>
			<psa03 value="0" flag="1"/>
			<psa10 value="0" flag="1"/>
			<psa30 value="0" flag="1"/>
		</comp>
	</station>
	<station code="CRNS" name="CRNS" netid="SL" source="Seismic Network of the Republic of Slovenia (SNRS)" insttype="" lat="46.0807" lon="14.2613" esm:processing="discarded" esm:quality="good">
		<comp name="--.HNE" depth="0.0">
			<acc value="0" flag="1"/>
			<vel value="0" flag="1"/>
			<psa03 value="0" flag="1"/>
			<psa10 value="0" flag="1"/>
			<psa30 value="0" flag="1"/>
		</comp>
		<comp name="--.HNN" depth="0.0">
			<acc value="0" flag="1"/>
			<vel value="0" flag="1"/>
			<psa03 value="0" flag="1"/>
			<psa10 value="0" flag="1"/>
			<psa30 value="0" flag="1"/>
		</comp>
		<comp name="--.HNZ" depth="0.0">
			<acc value="0" flag="1"/>
			<vel value="0" flag="1"/>
			<psa03 value="0" flag="1"/>
			<psa10 value="0" flag="1"/>
			<psa30 value="0" flag="1"/>
		</comp>
	</station>
	<station code="GBAS" name="GBAS" netid="SL" source="Seismic Network of the Republic of Slovenia (SNRS)" insttype="" lat="45.9348" lon="14.4434" esm:processing="discarded" esm:quality="bad">
		<comp name="--.HNE" depth="0.0">
			<acc value="0" flag="1"/>
			<vel value="0" flag="1"/>
			<psa03 value="0" flag="1"/>
			<psa10 value="0" flag="1"/>
			<psa30 value="0" flag="1"/>
		</comp>
		<comp name="--.HNN" depth="0.0">
			<acc value="0" flag="1"/>
			<vel value="0" flag="1"/>
			<psa03 value="0" flag="1"/>
			<psa10 value="0" flag="1"/>
			<psa30 value="0" flag="1"/>
		</comp>
		<comp name="--.HNZ" depth="0.0">
			<acc value="0" flag="1"/>
			<vel value="0" flag="1"/>
			<psa03 value="0" flag="1"/>
			<psa10 value="0" flag="1"/>
			<psa30 value="0" flag="1"/>
		</comp>
	</station>
</stationlist>
