<?xml version="1.0" encoding="UTF-8" standalone="yes"?>
<!DOCTYPE earthquake SYSTEM "stationlist.dtd">
<stationlist created="" xmlns="ch.ethz.sed.shakemap.usgs.xml">
  <station code="ATHR" name="ATHR" netid="HA" insttype="GEOtiny," lat="38.3172" lon="20.4165">
    <comp name="--.HHN">
      <acc value="0.0108918798" flag="0"/>
      <vel value="0.0055763257" flag="0"/>
      <psa03 value="0.0367562462" flag="0"/>
      <psa10 value="0.0066939914" flag="0"/>
      <psa30 value="0.0004177292" flag="0"/>
    </comp>
    <comp name="--.HHZ">
      <acc value="0.0106214682" flag="0"/>
      <vel value="0.0043925145" flag="0"/>
      <psa03 value="0.0275635252" flag="0"/>
      <psa10 value="0.0056157897" flag="0"/>
      <psa30 value="0.0003791237" flag="0"/>
    </comp>
    <comp name="--.HHE">
      <acc value="0.0152037306" flag="0"/>
      <vel value="0.0081303706" flag="0"/>
      <psa03 value="0.0498837123" flag="0"/>
      <psa10 value="0.0078900284" flag="0"/>
      <psa30 value="0.0004824531" flag="0"/>
    </comp>
  </station>
  <station code="HAVD" name="HAVD" netid="HA" insttype="GEOtiny," lat="38.2036" lon="20.3848">
    <comp name="--.HHN">
      <acc value="0.0297063398" flag="0"/>
      <vel value="0.0129773468" flag="0"/>
      <psa03 value="0.0623065187" flag="0"/>
      <psa10 value="0.0140249901" flag="0"/>
      <psa30 value="0.0006707923" flag="0"/>
    </comp>
    <comp name="--.HHZ">
      <acc value="0.0238504785" flag="0"/>
      <vel value="0.0087369402" flag="0"/>
      <psa03 value="0.0478565908" flag="0"/>
      <psa10 value="0.0031870128" flag="0"/>
      <psa30 value="0.0003361608" flag="0"/>
    </comp>
    <comp name="--.HHE">
      <acc value="0.0316022480" flag="0"/>
      <vel value="0.0103185451" flag="0"/>
      <psa03 value="0.0711341611" flag="0"/>
      <psa10 value="0.0077157546" flag="0"/>
      <psa30 value="0.0007384922" flag="0"/>
    </comp>
  </station>
  <station code="KALE" name="KALE" netid="HA" insttype="40," lat="38.3911" lon="22.1398">
    <comp name="--.HHZ">
      <acc value="0.0039577238" flag="0"/>
      <vel value="0.0020793992" flag="0"/>
      <psa03 value="0.0062797548" flag="0"/>
      <psa10 value="0.0021230775" flag="0"/>
      <psa30 value="0.0002128861" flag="0"/>
    </comp>
    <comp name="--.HHN">
      <acc value="0.0041913288" flag="0"/>
      <vel value="0.0020510343" flag="0"/>
      <psa03 value="0.0107986694" flag="0"/>
      <psa10 value="0.0031703144" flag="0"/>
      <psa30 value="0.0002087955" flag="0"/>
    </comp>
    <comp name="--.HHE">
      <acc value="0.0046876623" flag="0"/>
      <vel value="0.0027337745" flag="0"/>
      <psa03 value="0.0103557384" flag="0"/>
      <psa10 value="0.0036433230" flag="0"/>
      <psa30 value="0.0005986605" flag="0"/>
    </comp>
  </station>
  <station code="LAKA" name="LAKA" netid="HA" insttype="120s," lat="38.2401" lon="21.9785">
    <comp name="--.HHE">
      <acc value="0.0009485025" flag="0"/>
      <vel value="0.0013204303" flag="0"/>
      <psa03 value="0.0019843996" flag="0"/>
      <psa10 value="0.0018233458" flag="0"/>
      <psa30 value="0.0002988716" flag="0"/>
    </comp>
    <comp name="--.HHN">
      <acc value="0.0012248177" flag="0"/>
      <vel value="0.0010600371" flag="0"/>
      <psa03 value="0.0029505785" flag="0"/>
      <psa10 value="0.0016295178" flag="0"/>
      <psa30 value="0.0003256508" flag="0"/>
    </comp>
    <comp name="--.HHZ">
      <acc value="0.0010973794" flag="0"/>
      <vel value="0.0006379598" flag="0"/>
      <psa03 value="0.0027333326" flag="0"/>
      <psa10 value="0.0012652025" flag="0"/>
      <psa30 value="0.0000994331" flag="0"/>
    </comp>
  </station>
  <station code="KRI1" name="KRI1" netid="HI" insttype="CMG-5TD,ACCELEROMETER,GURALP" lat="37.6621" lon="20.8172">
    <comp name="--.HNZ">
      <acc value="0.1652015598" flag="0"/>
      <vel value="0.0425132019" flag="0"/>
      <psa03 value="0.2732328573" flag="0"/>
      <psa10 value="0.0109293200" flag="0"/>
      <psa30 value="0.0011153876" flag="0"/>
    </comp>
    <comp name="--.HNN">
      <acc value="0.1621866469" flag="0"/>
      <vel value="0.0549265884" flag="0"/>
      <psa03 value="0.3283310681" flag="0"/>
      <psa10 value="0.0370509758" flag="0"/>
      <psa30 value="0.0021416912" flag="0"/>
    </comp>
    <comp name="--.HNE">
      <acc value="0.3186045188" flag="0"/>
      <vel value="0.1138846638" flag="0"/>
      <psa03 value="0.5861336832" flag="0"/>
      <psa10 value="0.0466744348" flag="0"/>
      <psa30 value="0.0025690073" flag="0"/>
    </comp>
  </station>
  <station code="MSL1" name="MSL1" netid="HI" insttype="CMG-5TD,ACCELEROMETER,GURALP" lat="38.3727" lon="21.4243">
    <comp name="--.HNE">
      <acc value="0.0158330847" flag="0"/>
      <vel value="0.0103896411" flag="0"/>
      <psa03 value="0.0441941970" flag="0"/>
      <psa10 value="0.0182670249" flag="0"/>
      <psa30 value="0.0014094667" flag="0"/>
    </comp>
    <comp name="--.HNN">
      <acc value="0.0234332672" flag="0"/>
      <vel value="0.0146489921" flag="0"/>
      <psa03 value="0.0676695016" flag="0"/>
      <psa10 value="0.0320938911" flag="0"/>
      <psa30 value="0.0016722384" flag="0"/>
    </comp>
    <comp name="--.HNZ">
      <acc value="0.0091348587" flag="0"/>
      <vel value="0.0061028993" flag="0"/>
      <psa03 value="0.0238273764" flag="0"/>
      <psa10 value="0.0145566144" flag="0"/>
      <psa30 value="0.0004750607" flag="0"/>
    </comp>
  </station>
  <station code="KLV" name="KLV" netid="HL" insttype="120" lat="38.0435" lon="22.1504">
    <comp name="--.HHE">
      <acc value="0.0026525851" flag="0"/>
      <vel value="0.0020311429" flag="0"/>
      <psa03 value="0.0068938902" flag="0"/>
      <psa10 value="0.0030659449" flag="0"/>
      <psa30 value="0.0002005051" flag="0"/>
    </comp>
    <comp name="--.HHN">
      <acc value="0.0025803193" flag="0"/>
      <vel value="0.0015995440" flag="0"/>
      <psa03 value="0.0083936256" flag="0"/>
      <psa10 value="0.0023738273" flag="0"/>
      <psa30 value="0.0002328021" flag="0"/>
    </comp>
    <comp name="--.HHZ">
      <acc value="0.0023945707" flag="0"/>
      <vel value="0.0017340636" flag="0"/>
      <psa03 value="0.0076173995" flag="0"/>
      <psa10 value="0.0019278918" flag="0"/>
      <psa30 value="0.0002188789" flag="0"/>
    </comp>
  </station>
  <station code="ORTH" name="ORTH" netid="HL" insttype="30" lat="37.8511" lon="20.6963">
    <comp name="--.HHE">
      <acc value="0.3346850425" flag="0"/>
      <vel value="0.0645877690" flag="0"/>
      <psa03 value="0.3647647246" flag="0"/>
      <psa10 value="0.0175000775" flag="0"/>
      <psa30 value="0.0012246969" flag="0"/>
    </comp>
    <comp name="--.HHN">
      <acc value="0.2890520313" flag="0"/>
      <vel value="0.0678220368" flag="0"/>
      <psa03 value="0.2856547410" flag="0"/>
      <psa10 value="0.0226706325" flag="0"/>
      <psa30 value="0.0014668003" flag="0"/>
    </comp>
    <comp name="--.HHZ">
      <acc value="0.1288414015" flag="0"/>
      <vel value="0.0220852713" flag="0"/>
      <psa03 value="0.0995438462" flag="0"/>
      <psa10 value="0.0087507667" flag="0"/>
      <psa30 value="0.0005522043" flag="0"/>
    </comp>
  </station>
  <station code="PATC" name="PATC" netid="HL" insttype="CMG-5" lat="38.2693" lon="21.76">
    <comp name="00.HNE">
      <acc value="0.0159148440" flag="0"/>
      <vel value="0.0106122566" flag="0"/>
      <psa03 value="0.0414639697" flag="0"/>
      <psa10 value="0.0183458781" flag="0"/>
      <psa30 value="0.0015279698" flag="0"/>
    </comp>
    <comp name="00.HNN">
      <acc value="0.0128276643" flag="0"/>
      <vel value="0.0103530309" flag="0"/>
      <psa03 value="0.0313579281" flag="0"/>
      <psa10 value="0.0126340795" flag="0"/>
      <psa30 value="0.0016632545" flag="0"/>
    </comp>
    <comp name="00.HNZ">
      <acc value="0.0113553223" flag="0"/>
      <vel value="0.0054274071" flag="0"/>
      <psa03 value="0.0256807493" flag="0"/>
      <psa10 value="0.0108616862" flag="0"/>
      <psa30 value="0.0006417340" flag="0"/>
    </comp>
  </station>
  <station code="RLS" name="RLS" netid="HL" insttype="CMG3ESPC-120s" lat="38.0559" lon="21.4647">
    <comp name="--.HHN">
      <acc value="0.0432762150" flag="0"/>
      <vel value="0.0116638947" flag="0"/>
      <psa03 value="0.0716991319" flag="0"/>
      <psa10 value="0.0086757416" flag="0"/>
      <psa30 value="0.0008818226" flag="0"/>
    </comp>
    <comp name="--.HHE">
      <acc value="0.0345733486" flag="0"/>
      <vel value="0.0110788590" flag="0"/>
      <psa03 value="0.0466280683" flag="0"/>
      <psa10 value="0.0073475246" flag="0"/>
      <psa30 value="0.0005163836" flag="0"/>
    </comp>
    <comp name="--.HHZ">
      <acc value="0.0249809941" flag="0"/>
      <vel value="0.0068756778" flag="0"/>
      <psa03 value="0.0427627285" flag="0"/>
      <psa10 value="0.0049533500" flag="0"/>
      <psa30 value="0.0004675338" flag="0"/>
    </comp>
  </station>
  <station code="VLS" name="VLS" netid="HL" insttype="120P," lat="38.1768" lon="20.5886">
    <comp name="--.HHZ">
      <acc value="0.0353449385" flag="0"/>
      <vel value="0.0070779961" flag="0"/>
      <psa03 value="0.0350176746" flag="0"/>
      <psa10 value="0.0077237863" flag="0"/>
      <psa30 value="0.0003696313" flag="0"/>
    </comp>
    <comp name="--.HHE">
      <acc value="0.0893358878" flag="0"/>
      <vel value="0.0118452908" flag="0"/>
      <psa03 value="0.0724371243" flag="0"/>
      <psa10 value="0.0059410520" flag="0"/>
      <psa30 value="0.0004828199" flag="0"/>
    </comp>
    <comp name="--.HHN">
      <acc value="0.0795127654" flag="0"/>
      <vel value="0.0132749197" flag="0"/>
      <psa03 value="0.0869725490" flag="0"/>
      <psa10 value="0.0120495558" flag="0"/>
      <psa30 value="0.0004609952" flag="0"/>
    </comp>
  </station>
  <station code="AMT" name="AMT" netid="HP" insttype="CMG-3T," lat="37.5324" lon="21.7089">
    <comp name="00.HHN">
      <acc value="0.0134495062" flag="0"/>
      <vel value="0.0075905642" flag="0"/>
      <psa03 value="0.0360573795" flag="0"/>
      <psa10 value="0.0108456895" flag="0"/>
      <psa30 value="0.0003850825" flag="0"/>
    </comp>
    <comp name="00.HHE">
      <acc value="0.0143597641" flag="0"/>
      <vel value="0.0097259620" flag="0"/>
      <psa03 value="0.0516817060" flag="0"/>
      <psa10 value="0.0130315213" flag="0"/>
      <psa30 value="0.0005903862" flag="0"/>
    </comp>
    <comp name="00.HHZ">
      <acc value="0.0111100004" flag="0"/>
      <vel value="0.0051220717" flag="0"/>
      <psa03 value="0.0231352476" flag="0"/>
      <psa10 value="0.0043431030" flag="0"/>
      <psa30 value="0.0002767966" flag="0"/>
    </comp>
  </station>
  <station code="ANX" name="ANX" netid="HP" insttype="120" lat="38.5933" lon="21.9209">
    <comp name="--.HHZ">
      <acc value="0.0026482232" flag="0"/>
      <vel value="0.0019494192" flag="0"/>
      <psa03 value="0.0064902657" flag="0"/>
      <psa10 value="0.0022349537" flag="0"/>
      <psa30 value="0.0002389292" flag="0"/>
    </comp>
    <comp name="--.HHE">
      <acc value="0.0049293284" flag="0"/>
      <vel value="0.0029320602" flag="0"/>
      <psa03 value="0.0135381353" flag="0"/>
      <psa10 value="0.0027729970" flag="0"/>
      <psa30 value="0.0002322941" flag="0"/>
    </comp>
    <comp name="--.HHN">
      <acc value="0.0045652201" flag="0"/>
      <vel value="0.0032173349" flag="0"/>
      <psa03 value="0.0128145147" flag="0"/>
      <psa10 value="0.0041187379" flag="0"/>
      <psa30 value="0.0002521438" flag="0"/>
    </comp>
  </station>
  <station code="AXS" name="AXS" netid="HP" insttype="Compact," lat="38.1962" lon="21.3763">
    <comp name="--.HHE">
      <acc value="0.0099918083" flag="0"/>
      <vel value="0.0047808439" flag="0"/>
      <psa03 value="0.0254661950" flag="0"/>
      <psa10 value="0.0031692653" flag="0"/>
      <psa30 value="0.0002804485" flag="0"/>
    </comp>
    <comp name="--.HHN">
      <acc value="0.0097905782" flag="0"/>
      <vel value="0.0046725405" flag="0"/>
      <psa03 value="0.0236827316" flag="0"/>
      <psa10 value="0.0040780826" flag="0"/>
      <psa30 value="0.0003570217" flag="0"/>
    </comp>
    <comp name="--.HHZ">
      <acc value="0.0091167704" flag="0"/>
      <vel value="0.0034003350" flag="0"/>
      <psa03 value="0.0123170048" flag="0"/>
      <psa10 value="0.0044720417" flag="0"/>
      <psa30 value="0.0005219577" flag="0"/>
    </comp>
  </station>
  <station code="DRO" name="DRO" netid="HP" insttype="120P," lat="37.952" lon="21.71">
    <comp name="--.HHE">
      <acc value="0.0284435700" flag="0"/>
      <vel value="0.0109292026" flag="0"/>
      <psa03 value="0.1114823382" flag="0"/>
      <psa10 value="0.0088698927" flag="0"/>
      <psa30 value="0.0005274171" flag="0"/>
    </comp>
    <comp name="--.HHN">
      <acc value="0.0316911613" flag="0"/>
      <vel value="0.0102964731" flag="0"/>
      <psa03 value="0.0607363925" flag="0"/>
      <psa10 value="0.0087353791" flag="0"/>
      <psa30 value="0.0005269996" flag="0"/>
    </comp>
    <comp name="--.HHZ">
      <acc value="0.0113404725" flag="0"/>
      <vel value="0.0044133352" flag="0"/>
      <psa03 value="0.0263587560" flag="0"/>
      <psa10 value="0.0042904699" flag="0"/>
      <psa30 value="0.0003691862" flag="0"/>
    </comp>
  </station>
  <station code="EFP" name="EFP" netid="HP" insttype="40," lat="38.4269" lon="21.9058">
    <comp name="--.HHZ">
      <acc value="0.0027544118" flag="0"/>
      <vel value="0.0011930666" flag="0"/>
      <psa03 value="0.0085617891" flag="0"/>
      <psa10 value="0.0017628058" flag="0"/>
      <psa30 value="0.0001631194" flag="0"/>
    </comp>
    <comp name="--.HHN">
      <acc value="0.0043948596" flag="0"/>
      <vel value="0.0020969314" flag="0"/>
      <psa03 value="0.0086858606" flag="0"/>
      <psa10 value="0.0019765966" flag="0"/>
      <psa30 value="0.0002922925" flag="0"/>
    </comp>
    <comp name="--.HHE">
      <acc value="0.0045612633" flag="0"/>
      <vel value="0.0017489673" flag="0"/>
      <psa03 value="0.0083669771" flag="0"/>
      <psa10 value="0.0021293443" flag="0"/>
      <psa30 value="0.0002446249" flag="0"/>
    </comp>
  </station>
  <station code="FSK" name="FSK" netid="HP" insttype="40," lat="38.4593" lon="20.5623">
    <comp name="--.HHN">
      <acc value="0.0136050015" flag="0"/>
      <vel value="0.0070157152" flag="0"/>
      <psa03 value="0.0273050124" flag="0"/>
      <psa10 value="0.0042808644" flag="0"/>
      <psa30 value="0.0005003123" flag="0"/>
    </comp>
    <comp name="--.HHE">
      <acc value="0.0266896428" flag="0"/>
      <vel value="0.0129799242" flag="0"/>
      <psa03 value="0.0420783547" flag="0"/>
      <psa10 value="0.0069868593" flag="0"/>
      <psa30 value="0.0004596689" flag="0"/>
    </comp>
    <comp name="--.HHZ">
      <acc value="0.0089366942" flag="0"/>
      <vel value="0.0041639299" flag="0"/>
      <psa03 value="0.0260198054" flag="0"/>
      <psa10 value="0.0048049958" flag="0"/>
      <psa30 value="0.0004850226" flag="0"/>
    </comp>
  </station>
  <station code="LTHK" name="LTHK" netid="HP" insttype="40," lat="37.7095" lon="20.8367">
    <comp name="--.HHN">
      <acc value="0.6259540873" flag="0"/>
      <vel value="0.1767883294" flag="0"/>
      <psa03 value="1.0072808034" flag="0"/>
      <psa10 value="0.0517637330" flag="0"/>
      <psa30 value="0.0032420949" flag="0"/>
    </comp>
    <comp name="--.HHE">
      <acc value="0.8122043986" flag="0"/>
      <vel value="0.2208450905" flag="0"/>
      <psa03 value="0.8248268877" flag="0"/>
      <psa10 value="0.0403035799" flag="0"/>
      <psa30 value="0.0036993480" flag="0"/>
    </comp>
    <comp name="--.HHZ">
      <acc value="0.2878514975" flag="0"/>
      <vel value="0.0893105900" flag="0"/>
      <psa03 value="0.6038862766" flag="0"/>
      <psa10 value="0.0200984839" flag="0"/>
      <psa30 value="0.0015904317" flag="0"/>
    </comp>
  </station>
  <station code="PDO" name="PDO" netid="HP" insttype="120s" lat="38.5986" lon="21.1833">
    <comp name="--.HHE">
      <acc value="0.0184861073" flag="0"/>
      <vel value="0.0087558209" flag="0"/>
      <psa03 value="0.0483825863" flag="0"/>
      <psa10 value="0.0083336354" flag="0"/>
      <psa30 value="0.0006465083" flag="0"/>
    </comp>
    <comp name="--.HHZ">
      <acc value="0.0153534534" flag="0"/>
      <vel value="0.0056410577" flag="0"/>
      <psa03 value="0.0310572670" flag="0"/>
      <psa10 value="0.0027787509" flag="0"/>
      <psa30 value="0.0003891153" flag="0"/>
    </comp>
    <comp name="--.HHN">
      <acc value="0.0263666636" flag="0"/>
      <vel value="0.0133042478" flag="0"/>
      <psa03 value="0.0887715068" flag="0"/>
      <psa10 value="0.0070020498" flag="0"/>
      <psa30 value="0.0006074324" flag="0"/>
    </comp>
  </station>
  <station code="PVO" name="PVO" netid="HP" insttype="120P," lat="38.616" lon="21.525">
    <comp name="--.HHE">
      <acc value="0.0074816298" flag="0"/>
      <vel value="0.0051560614" flag="0"/>
      <psa03 value="0.0240148010" flag="0"/>
      <psa10 value="0.0027601377" flag="0"/>
      <psa30 value="0.0004598851" flag="0"/>
    </comp>
    <comp name="--.HHN">
      <acc value="0.0078176880" flag="0"/>
      <vel value="0.0036994710" flag="0"/>
      <psa03 value="0.0193426537" flag="0"/>
      <psa10 value="0.0035644383" flag="0"/>
      <psa30 value="0.0003207280" flag="0"/>
    </comp>
    <comp name="--.HHZ">
      <acc value="0.0063675522" flag="0"/>
      <vel value="0.0025264447" flag="0"/>
      <psa03 value="0.0143990551" flag="0"/>
      <psa10 value="0.0028826550" flag="0"/>
      <psa30 value="0.0003355602" flag="0"/>
    </comp>
  </station>
  <station code="SERG" name="SERG" netid="HP" insttype="2000" lat="38.4133" lon="22.0566">
    <comp name="00.HHE">
      <acc value="0.0047001433" flag="0"/>
      <vel value="0.0021301944" flag="0"/>
      <psa03 value="0.0141806845" flag="0"/>
      <psa10 value="0.0023626869" flag="0"/>
      <psa30 value="0.0002830191" flag="0"/>
    </comp>
    <comp name="00.HHN">
      <acc value="0.0053885488" flag="0"/>
      <vel value="0.0028754841" flag="0"/>
      <psa03 value="0.0171292306" flag="0"/>
      <psa10 value="0.0022777118" flag="0"/>
      <psa30 value="0.0002717671" flag="0"/>
    </comp>
    <comp name="00.HHZ">
      <acc value="0.0046933101" flag="0"/>
      <vel value="0.0014178563" flag="0"/>
      <psa03 value="0.0065049530" flag="0"/>
      <psa10 value="0.0020470957" flag="0"/>
      <psa30 value="0.0002013076" flag="0"/>
    </comp>
  </station>
  <station code="UPR" name="UPR" netid="HP" insttype="120" lat="38.2836" lon="21.7864">
    <comp name="--.HHZ">
      <acc value="0.0006822295" flag="0"/>
      <vel value="0.0005538258" flag="0"/>
      <psa03 value="0.0017003767" flag="0"/>
      <psa10 value="0.0006248588" flag="0"/>
      <psa30 value="0.0000366004" flag="0"/>
    </comp>
    <comp name="--.HHE">
      <acc value="0.0006206718" flag="0"/>
      <vel value="0.0005067178" flag="0"/>
      <psa03 value="0.0021247306" flag="0"/>
      <psa10 value="0.0012157105" flag="0"/>
      <psa30 value="0.0000938839" flag="0"/>
    </comp>
    <comp name="--.HHN">
      <acc value="0.0007857707" flag="0"/>
      <vel value="0.0006074989" flag="0"/>
      <psa03 value="0.0019965918" flag="0"/>
      <psa10 value="0.0009253861" flag="0"/>
      <psa30 value="0.0000948378" flag="0"/>
    </comp>
  </station>
  <station code="VVK" name="VVK" netid="HP" insttype="40," lat="38.4222" lon="21.8115">
    <comp name="--.HHN">
      <acc value="0.0050519184" flag="0"/>
      <vel value="0.0026043538" flag="0"/>
      <psa03 value="0.0127015725" flag="0"/>
      <psa10 value="0.0038566857" flag="0"/>
      <psa30 value="0.0005172149" flag="0"/>
    </comp>
    <comp name="--.HHE">
      <acc value="0.0060852411" flag="0"/>
      <vel value="0.0028690436" flag="0"/>
