<?xml version="1.0" encoding="UTF-8" standalone="yes"?>
<!DOCTYPE earthquake SYSTEM "stationlist.dtd">
<stationlist created="" xmlns="ch.ethz.sed.shakemap.usgs.xml">
  <station code="ROD3" name="ROD3" netid="CL" insttype="CMG40-T" lat="38.3081" lon="21.892">
    <comp name="00.HHE">
      <acc value="0.0603222956" flag="0"/>
      <vel value="0.0332911483" flag="0"/>
      <psa03 value="0.2282539095" flag="0"/>
      <psa10 value="0.0152012704" flag="0"/>
      <psa30 value="0.0014427333" flag="0"/>
    </comp>
    <comp name="00.HHN">
      <acc value="0.0607203449" flag="0"/>
      <vel value="0.0320232786" flag="0"/>
      <psa03 value="0.2478968128" flag="0"/>
      <psa10 value="0.0240862284" flag="0"/>
      <psa30 value="0.0011444202" flag="0"/>
    </comp>
    <comp name="00.HHZ">
      <acc value="0.0230358410" flag="0"/>
      <vel value="0.0098224694" flag="0"/>
      <psa03 value="0.0529901452" flag="0"/>
      <psa10 value="0.0099773086" flag="0"/>
      <psa30 value="0.0006332033" flag="0"/>
    </comp>
  </station>
  <station code="ZIRI" name="ZIRI" netid="CL" insttype="TRILLIUM-40" lat="38.3051" lon="21.9476">
    <comp name="01.HHZ">
      <acc value="0.0278821141" flag="0"/>
      <vel value="0.0112612025" flag="0"/>
      <psa03 value="0.0870912436" flag="0"/>
      <psa10 value="0.0070453451" flag="0"/>
      <psa30 value="0.0005622532" flag="0"/>
    </comp>
    <comp name="01.HHN">
      <acc value="0.0345845392" flag="0"/>
      <vel value="0.0175321178" flag="0"/>
      <psa03 value="0.1273653408" flag="0"/>
      <psa10 value="0.0140457912" flag="0"/>
      <psa30 value="0.0007760530" flag="0"/>
    </comp>
    <comp name="01.HHE">
      <acc value="0.0346120271" flag="0"/>
      <vel value="0.0217649027" flag="0"/>
      <psa03 value="0.1100054690" flag="0"/>
      <psa10 value="0.0111514710" flag="0"/>
      <psa30 value="0.0010648075" flag="0"/>
    </comp>
  </station>
  <station code="ATHR" name="ATHR" netid="HA" insttype="GEOtiny," lat="38.3172" lon="20.4165">
    <comp name="--.HHE">
      <acc value="0.0572155755" flag="0"/>
      <vel value="0.0313789869" flag="0"/>
      <psa03 value="0.1555590018" flag="0"/>
      <psa10 value="0.0262704545" flag="0"/>
      <psa30 value="0.0016554128" flag="0"/>
    </comp>
    <comp name="--.HHZ">
      <acc value="0.0485909318" flag="0"/>
      <vel value="0.0186844389" flag="0"/>
      <psa03 value="0.1350996213" flag="0"/>
      <psa10 value="0.0229267744" flag="0"/>
      <psa30 value="0.0011626836" flag="0"/>
    </comp>
    <comp name="--.HHN">
      <acc value="0.0633047047" flag="0"/>
      <vel value="0.0395320225" flag="0"/>
      <psa03 value="0.1807430946" flag="0"/>
      <psa10 value="0.0369107167" flag="0"/>
      <psa30 value="0.0024056760" flag="0"/>
    </comp>
  </station>
  <station code="DRES" name="DRES" netid="HA" insttype="DC" lat="38.3197" lon="21.8532">
    <comp name="--.HNN">
      <acc value="0.0158413414" flag="0"/>
      <vel value="0.0092458129" flag="0"/>
      <psa03 value="0.0489070717" flag="0"/>
      <psa10 value="0.0124763783" flag="0"/>
      <psa30 value="0.0008580963" flag="0"/>
    </comp>
    <comp name="--.HNE">
      <acc value="0.0181479867" flag="0"/>
      <vel value="0.0117398875" flag="0"/>
      <psa03 value="0.0431435981" flag="0"/>
      <psa10 value="0.0170405816" flag="0"/>
      <psa30 value="0.0011214899" flag="0"/>
    </comp>
    <comp name="--.HNZ">
      <acc value="0.0103531021" flag="0"/>
      <vel value="0.0042448797" flag="0"/>
      <psa03 value="0.0275865181" flag="0"/>
      <psa10 value="0.0043744160" flag="0"/>
      <psa30 value="0.0006785252" flag="0"/>
    </comp>
  </station>
  <station code="HAVD" name="HAVD" netid="HA" insttype="GEOtiny," lat="38.2036" lon="20.3848">
    <comp name="--.HHE">
      <acc value="0.1477884498" flag="0"/>
      <vel value="0.0526242605" flag="0"/>
      <psa03 value="0.3342993748" flag="0"/>
      <psa10 value="0.0421606858" flag="0"/>
      <psa30 value="0.0028921712" flag="0"/>
    </comp>
    <comp name="--.HHZ">
      <acc value="0.1315722383" flag="0"/>
      <vel value="0.0447234806" flag="0"/>
      <psa03 value="0.1900429891" flag="0"/>
      <psa10 value="0.0324404052" flag="0"/>
      <psa30 value="0.0015057107" flag="0"/>
    </comp>
    <comp name="--.HHN">
      <acc value="0.1944536677" flag="0"/>
      <vel value="0.0706836092" flag="0"/>
      <psa03 value="0.3450323593" flag="0"/>
      <psa10 value="0.0520377618" flag="0"/>
      <psa30 value="0.0039977705" flag="0"/>
    </comp>
  </station>
  <station code="LAKA" name="LAKA" netid="HA" insttype="120s," lat="38.2401" lon="21.9785">
    <comp name="--.HHE">
      <acc value="0.0050380581" flag="0"/>
      <vel value="0.0055667543" flag="0"/>
      <psa03 value="0.0130989764" flag="0"/>
      <psa10 value="0.0082693147" flag="0"/>
      <psa30 value="0.0009057624" flag="0"/>
    </comp>
    <comp name="--.HHZ">
      <acc value="0.0061464321" flag="0"/>
      <vel value="0.0018892336" flag="0"/>
      <psa03 value="0.0132365518" flag="0"/>
      <psa10 value="0.0029012241" flag="0"/>
      <psa30 value="0.0001444855" flag="0"/>
    </comp>
    <comp name="--.HHN">
      <acc value="0.0049747936" flag="0"/>
      <vel value="0.0023553079" flag="0"/>
      <psa03 value="0.0161589996" flag="0"/>
      <psa10 value="0.0025211873" flag="0"/>
      <psa30 value="0.0001972136" flag="0"/>
    </comp>
  </station>
  <station code="ARG2" name="ARG2" netid="HI" insttype="CMG-5TD,ACCELEROMETER,GURALP" lat="38.1783" lon="20.4878">
    <comp name="--.HNN">
      <acc value="0.5355827843" flag="0"/>
      <vel value="0.2021491325" flag="0"/>
      <psa03 value="1.0166785176" flag="0"/>
      <psa10 value="0.0655934940" flag="0"/>
      <psa30 value="0.0039797880" flag="0"/>
    </comp>
    <comp name="--.HNE">
      <acc value="0.4192013853" flag="0"/>
      <vel value="0.1248792682" flag="0"/>
      <psa03 value="0.7173371587" flag="0"/>
      <psa10 value="0.0551460449" flag="0"/>
      <psa30 value="0.0031028727" flag="0"/>
    </comp>
    <comp name="--.HNZ">
      <acc value="0.3068899510" flag="0"/>
      <vel value="0.0765844106" flag="0"/>
      <psa03 value="0.4901985009" flag="0"/>
      <psa10 value="0.0342954858" flag="0"/>
      <psa30 value="0.0024216154" flag="0"/>
    </comp>
  </station>
  <station code="MSL1" name="MSL1" netid="HI" insttype="CMG-5TD,ACCELEROMETER,GURALP" lat="38.3727" lon="21.4243">
    <comp name="--.HNN">
      <acc value="0.0608172860" flag="0"/>
      <vel value="0.0443815136" flag="0"/>
      <psa03 value="0.2262483292" flag="0"/>
      <psa10 value="0.0706104465" flag="0"/>
      <psa30 value="0.0030210549" flag="0"/>
    </comp>
    <comp name="--.HNZ">
      <acc value="0.0312549516" flag="0"/>
      <vel value="0.0202906419" flag="0"/>
      <psa03 value="0.0701668687" flag="0"/>
      <psa10 value="0.0297420890" flag="0"/>
      <psa30 value="0.0010427489" flag="0"/>
    </comp>
    <comp name="--.HNE">
      <acc value="0.0574329726" flag="0"/>
      <vel value="0.0369796359" flag="0"/>
      <psa03 value="0.1593385306" flag="0"/>
      <psa10 value="0.0813444986" flag="0"/>
      <psa30 value="0.0037477099" flag="0"/>
    </comp>
  </station>
  <station code="VAS2" name="VAS2" netid="HI" insttype="CMG-5TD,ACCELEROMETER,GURALP" lat="38.6306" lon="20.6081">
    <comp name="--.HNE">
      <acc value="0.1326328800" flag="0"/>
      <vel value="0.0837464901" flag="0"/>
      <psa03 value="0.3772781313" flag="0"/>
      <psa10 value="0.1551090490" flag="0"/>
      <psa30 value="0.0054974775" flag="0"/>
    </comp>
    <comp name="--.HNN">
      <acc value="0.1515765151" flag="0"/>
      <vel value="0.0827137464" flag="0"/>
      <psa03 value="0.5713358262" flag="0"/>
      <psa10 value="0.1546001257" flag="0"/>
      <psa30 value="0.0065559612" flag="0"/>
    </comp>
    <comp name="--.HNZ">
      <acc value="0.0801544213" flag="0"/>
      <vel value="0.0454925313" flag="0"/>
      <psa03 value="0.2090208777" flag="0"/>
      <psa10 value="0.0761685672" flag="0"/>
      <psa30 value="0.0034141930" flag="0"/>
    </comp>
  </station>
  <station code="LXRA" name="LXRA" netid="HL" insttype="CMG-5" lat="38.2001" lon="20.4372">
    <comp name="00.HNN">
      <acc value="0.5974115135" flag="0"/>
      <vel value="0.1598893204" flag="0"/>
      <psa03 value="0.7526600091" flag="0"/>
      <psa10 value="0.1354970794" flag="0"/>
      <psa30 value="0.0078420381" flag="0"/>
    </comp>
    <comp name="00.HNE">
      <acc value="0.3805287568" flag="0"/>
      <vel value="0.1274701800" flag="0"/>
      <psa03 value="0.6458734914" flag="0"/>
      <psa10 value="0.1154107009" flag="0"/>
      <psa30 value="0.0055273593" flag="0"/>
    </comp>
    <comp name="00.HNZ">
      <acc value="0.3313331329" flag="0"/>
      <vel value="0.0875541791" flag="0"/>
      <psa03 value="0.4824357300" flag="0"/>
      <psa10 value="0.0533930621" flag="0"/>
      <psa30 value="0.0026232080" flag="0"/>
    </comp>
  </station>
  <station code="ORTH" name="ORTH" netid="HL" insttype="30" lat="37.8511" lon="20.6963">
    <comp name="--.HHE">
      <acc value="1.0740828131" flag="0"/>
      <vel value="0.2888009232" flag="0"/>
      <psa03 value="1.2768047253" flag="0"/>
      <psa10 value="0.1248786874" flag="0"/>
      <psa30 value="0.0133039319" flag="0"/>
    </comp>
    <comp name="--.HHN">
      <acc value="0.8321916790" flag="0"/>
      <vel value="0.2117701336" flag="0"/>
      <psa03 value="1.1792090891" flag="0"/>
      <psa10 value="0.1041532485" flag="0"/>
      <psa30 value="0.0068337407" flag="0"/>
    </comp>
    <comp name="--.HHZ">
      <acc value="0.4582020088" flag="0"/>
      <vel value="0.1074499661" flag="0"/>
      <psa03 value="0.4496641283" flag="0"/>
      <psa10 value="0.0685520295" flag="0"/>
      <psa30 value="0.0040729065" flag="0"/>
    </comp>
  </station>
  <station code="PATC" name="PATC" netid="HL" insttype="CMG-5" lat="38.2693" lon="21.76">
    <comp name="00.HNZ">
      <acc value="0.0252654509" flag="0"/>
      <vel value="0.0151350624" flag="0"/>
      <psa03 value="0.0728556287" flag="0"/>
      <psa10 value="0.0155946931" flag="0"/>
      <psa30 value="0.0007325414" flag="0"/>
    </comp>
    <comp name="00.HNE">
      <acc value="0.0347490913" flag="0"/>
      <vel value="0.0226022455" flag="0"/>
      <psa03 value="0.1197163368" flag="0"/>
      <psa10 value="0.0377428466" flag="0"/>
      <psa30 value="0.0030642939" flag="0"/>
    </comp>
    <comp name="00.HNN">
      <acc value="0.0414014874" flag="0"/>
      <vel value="0.0271151521" flag="0"/>
      <psa03 value="0.0751935251" flag="0"/>
      <psa10 value="0.0208688656" flag="0"/>
      <psa30 value="0.0025293350" flag="0"/>
    </comp>
  </station>
  <station code="PATG" name="PATG" netid="HL" insttype="CMG-5" lat="38.2386" lon="21.7266">
    <comp name="00.HNZ">
      <acc value="0.0314818437" flag="0"/>
      <vel value="0.0141390312" flag="0"/>
      <psa03 value="0.1072737527" flag="0"/>
      <psa10 value="0.0201034942" flag="0"/>
      <psa30 value="0.0028123975" flag="0"/>
    </comp>
    <comp name="00.HNN">
      <acc value="0.0496867209" flag="0"/>
      <vel value="0.0255352934" flag="0"/>
      <psa03 value="0.1248915856" flag="0"/>
      <psa10 value="0.0374962160" flag="0"/>
      <psa30 value="0.0027567126" flag="0"/>
    </comp>
    <comp name="00.HNE">
      <acc value="0.0463170312" flag="0"/>
      <vel value="0.0404397825" flag="0"/>
      <psa03 value="0.0978024718" flag="0"/>
      <psa10 value="0.0354811699" flag="0"/>
      <psa30 value="0.0029209704" flag="0"/>
    </comp>
  </station>
  <station code="RLS" name="RLS" netid="HL" insttype="CMG3ESPC-120s" lat="38.0559" lon="21.4647">
    <comp name="--.HHE">
      <acc value="0.0162039846" flag="0"/>
      <vel value="0.0108746424" flag="0"/>
      <psa03 value="0.0371533309" flag="0"/>
      <psa10 value="0.0096925265" flag="0"/>
      <psa30 value="0.0007267442" flag="0"/>
    </comp>
    <comp name="--.HHN">
      <acc value="0.0176319856" flag="0"/>
      <vel value="0.0120743090" flag="0"/>
      <psa03 value="0.0654442856" flag="0"/>
      <psa10 value="0.0154601063" flag="0"/>
      <psa30 value="0.0008115500" flag="0"/>
    </comp>
    <comp name="--.HHZ">
      <acc value="0.0108620204" flag="0"/>
      <vel value="0.0048406690" flag="0"/>
      <psa03 value="0.0249595764" flag="0"/>
      <psa10 value="0.0058258538" flag="0"/>
      <psa30 value="0.0004025762" flag="0"/>
    </comp>
  </station>
  <station code="VLS" name="VLS" netid="HL" insttype="120P," lat="38.1768" lon="20.5886">
    <comp name="--.HHE">
      <acc value="0.3909991530" flag="0"/>
      <vel value="0.0752472123" flag="0"/>
      <psa03 value="0.2686739721" flag="0"/>
      <psa10 value="0.0350574342" flag="0"/>
      <psa30 value="0.0016739966" flag="0"/>
    </comp>
    <comp name="--.HHZ">
      <acc value="0.2024775555" flag="0"/>
      <vel value="0.0540323080" flag="0"/>
      <psa03 value="0.2388692952" flag="0"/>
      <psa10 value="0.0253352390" flag="0"/>
      <psa30 value="0.0022692017" flag="0"/>
    </comp>
    <comp name="--.HHN">
      <acc value="0.5096687410" flag="0"/>
      <vel value="0.1499549243" flag="0"/>
      <psa03 value="0.4689970488" flag="0"/>
      <psa10 value="0.0544992911" flag="0"/>
      <psa30 value="0.0028851643" flag="0"/>
    </comp>
  </station>
  <station code="DRO" name="DRO" netid="HP" insttype="120P," lat="37.952" lon="21.71">
    <comp name="--.HHN">
      <acc value="0.0334447747" flag="0"/>
      <vel value="0.0220662181" flag="0"/>
      <psa03 value="0.1440675925" flag="0"/>
      <psa10 value="0.0237147280" flag="0"/>
      <psa30 value="0.0013374053" flag="0"/>
    </comp>
    <comp name="--.HHE">
      <acc value="0.0323217763" flag="0"/>
      <vel value="0.0217914160" flag="0"/>
      <psa03 value="0.0695311484" flag="0"/>
      <psa10 value="0.0195887175" flag="0"/>
      <psa30 value="0.0011184249" flag="0"/>
    </comp>
    <comp name="--.HHZ">
      <acc value="0.0150354164" flag="0"/>
      <vel value="0.0084092000" flag="0"/>
      <psa03 value="0.0458204873" flag="0"/>
      <psa10 value="0.0128199292" flag="0"/>
      <psa30 value="0.0005773869" flag="0"/>
    </comp>
  </station>
  <station code="PVO" name="PVO" netid="HP" insttype="120P," lat="38.616" lon="21.525">
    <comp name="--.HHE">
      <acc value="0.0288466358" flag="0"/>
      <vel value="0.0144441643" flag="0"/>
      <psa03 value="0.0609861001" flag="0"/>
      <psa10 value="0.0161111602" flag="0"/>
      <psa30 value="0.0011310207" flag="0"/>
    </comp>
    <comp name="--.HHZ">
      <acc value="0.0143781633" flag="0"/>
      <vel value="0.0080374662" flag="0"/>
      <psa03 value="0.0290384986" flag="0"/>
      <psa10 value="0.0094158070" flag="0"/>
      <psa30 value="0.0008944672" flag="0"/>
    </comp>
    <comp name="--.HHN">
      <acc value="0.0246117481" flag="0"/>
      <vel value="0.0112075015" flag="0"/>
      <psa03 value="0.0625544803" flag="0"/>
      <psa10 value="0.0117343673" flag="0"/>
      <psa30 value="0.0009386995" flag="0"/>
    </comp>
  </station>
  <station code="UPR" name="UPR" netid="HP" insttype="Horizon" lat="38.2836" lon="21.7864">
    <comp name="--.HHE">
      <acc value="0.0226601444" flag="0"/>
      <vel value="0.0197409567" flag="0"/>
      <psa03 value="0.0525653600" flag="0"/>
      <psa10 value="0.0340718935" flag="0"/>
      <psa30 value="0.0018611872" flag="0"/>
    </comp>
    <comp name="--.HHN">
      <acc value="0.0334343520" flag="0"/>
      <vel value="0.0280252287" flag="0"/>
      <psa03 value="0.0647958321" flag="0"/>
      <psa10 value="0.0555290671" flag="0"/>
      <psa30 value="0.0026633251" flag="0"/>
    </comp>
    <comp name="--.HHZ">
      <acc value="0.0189127189" flag="0"/>
      <vel value="0.0169601719" flag="0"/>
      <psa03 value="0.0613755885" flag="0"/>
      <psa10 value="0.0400864168" flag="0"/>
      <psa30 value="0.0013383012" flag="0"/>
    </comp>
  </station>
  <station code="DMLN" name="DMLN" netid="HT" insttype="1s-100Hz," lat="38.2385" lon="20.3734">
    <comp name="--.HHE">
      <acc value="0.3430232834" flag="0"/>
      <vel value="0.1513345482" flag="0"/>
      <psa03 value="0.6438337767" flag="0"/>
      <psa10 value="0.0776657565" flag="0"/>
      <psa30 value="0.0047008005" flag="0"/>
    </comp>
    <comp name="--.HHZ">
      <acc value="0.1710788013" flag="0"/>
      <vel value="0.0627374876" flag="0"/>
      <psa03 value="0.2698395549" flag="0"/>
      <psa10 value="0.0306542150" flag="0"/>
      <psa30 value="0.0015311359" flag="0"/>
    </comp>
    <comp name="--.HHN">
      <acc value="0.2631702703" flag="0"/>
      <vel value="0.0757561587" flag="0"/>
      <psa03 value="0.4872901610" flag="0"/>
      <psa10 value="0.0771905446" flag="0"/>
      <psa30 value="0.0043506419" flag="0"/>
    </comp>
  </station>
  <station code="EVGI" name="EVGI" netid="HT" insttype="30" lat="38.621" lon="20.656">
    <comp name="--.HHN">
      <acc value="0.0886612542" flag="0"/>
      <vel value="0.0318074183" flag="0"/>
      <psa03 value="0.1690393530" flag="0"/>
      <psa10 value="0.0137711117" flag="0"/>
      <psa30 value="0.0009385704" flag="0"/>
    </comp>
    <comp name="--.HHE">
      <acc value="0.1004056998" flag="0"/>
      <vel value="0.0353887465" flag="0"/>
      <psa03 value="0.1656244553" flag="0"/>
      <psa10 value="0.0128239711" flag="0"/>
      <psa30 value="0.0009789447" flag="0"/>
    </comp>
    <comp name="--.HHZ">
      <acc value="0.0642503921" flag="0"/>
      <vel value="0.0256363355" flag="0"/>
      <psa03 value="0.1575676762" flag="0"/>
      <psa10 value="0.0188069632" flag="0"/>
      <psa30 value="0.0009282617" flag="0"/>
    </comp>
  </station>
  <station code="LKD2" name="LKD2" netid="HT" insttype="100" lat="38.7889" lon="20.6578">
    <comp name="--.HHZ">
      <acc value="0.0213077086" flag="0"/>
      <vel value="0.0094829271" flag="0"/>
      <psa03 value="0.0486742193" flag="0"/>
      <psa10 value="0.0097022762" flag="0"/>
      <psa30 value="0.0006952607" flag="0"/>
    </comp>
    <comp name="--.HHE">
      <acc value="0.0381123066" flag="0"/>
      <vel value="0.0171658315" flag="0"/>
      <psa03 value="0.0743235176" flag="0"/>
      <psa10 value="0.0113688805" flag="0"/>
      <psa30 value="0.0012885484" flag="0"/>
    </comp>
    <comp name="--.HHN">
      <acc value="0.0388816743" flag="0"/>
      <vel value="0.0168928115" flag="0"/>
      <psa03 value="0.0826379458" flag="0"/>
      <psa10 value="0.0142121151" flag="0"/>
      <psa30 value="0.0011563164" flag="0"/>
    </comp>
  </station>
  <station code="NYDR" name="NYDR" netid="HT" insttype="1s-100Hz," lat="38.7135" lon="20.6983">
    <comp name="--.HHN">
      <acc value="0.0440095501" flag="0"/>
      <vel value="0.0185763958" flag="0"/>
      <psa03 value="0.1144482284" flag="0"/>
      <psa10 value="0.0174109427" flag="0"/>
      <psa30 value="0.0008262784" flag="0"/>
    </comp>
    <comp name="--.HHZ">
      <acc value="0.0292878180" flag="0"/>
      <vel value="0.0154030811" flag="0"/>
      <psa03 value="0.0908905149" flag="0"/>
      <psa10 value="0.0077568648" flag="0"/>
      <psa30 value="0.0006950509" flag="0"/>
    </comp>
    <comp name="--.HHE">
      <acc value="0.0435753834" flag="0"/>
      <vel value="0.0213640127" flag="0"/>
      <psa03 value="0.0921022024" flag="0"/>
      <psa10 value="0.0201635675" flag="0"/>
      <psa30 value="0.0011157958" flag="0"/>
    </comp>
  </station>
  <station code="RTZL" name="RTZL" netid="HT" insttype="Compact," lat="38.076" lon="20.7715">
    <comp name="--.HHE">
      <acc value="0.3282222809" flag="0"/>
      <vel value="0.0535788684" flag="0"/>
      <psa03 value="0.3305219198" flag="0"/>
      <psa10 value="0.0273212561" flag="0"/>
      <psa30 value="0.0017467096" flag="0"/>
    </comp>
    <comp name="--.HHN">
      <acc value="0.2152564081" flag="0"/>
