<?xml version="1.0" encoding="UTF-8" standalone="yes"?>
<!DOCTYPE earthquake SYSTEM "stationlist.dtd">
<stationlist created="" xmlns="ch.ethz.sed.shakemap.usgs.xml">
  <station code="ROD3" name="ROD3" netid="CL" insttype="CMG40-T" lat="38.3081" lon="21.892">
    <comp name="00.HHE">
      <acc value="0.0603222961" flag="0"/>
      <vel value="0.0332911497" flag="0"/>
      <psa03 value="0.2282539095" flag="0"/>
      <psa10 value="0.0152012704" flag="0"/>
      <psa30 value="0.0014427789" flag="0"/>
    </comp>
    <comp name="00.HHN">
      <acc value="0.0607203453" flag="0"/>
      <vel value="0.0320232794" flag="0"/>
      <psa03 value="0.2478968128" flag="0"/>
      <psa10 value="0.0240862284" flag="0"/>
      <psa30 value="0.0011444000" flag="0"/>
    </comp>
    <comp name="00.HHZ">
      <acc value="0.0230358411" flag="0"/>
      <vel value="0.0098224692" flag="0"/>
      <psa03 value="0.0529901452" flag="0"/>
      <psa10 value="0.0099773086" flag="0"/>
      <psa30 value="0.0006332045" flag="0"/>
    </comp>
  </station>
  <station code="ZIRI" name="ZIRI" netid="CL" insttype="TRILLIUM-40" lat="38.3051" lon="21.9476">
    <comp name="01.HHE">
      <acc value="0.0346120270" flag="0"/>
      <vel value="0.0217649038" flag="0"/>
      <psa03 value="0.1100054690" flag="0"/>
      <psa10 value="0.0111514710" flag="0"/>
      <psa30 value="0.0010648128" flag="0"/>
    </comp>
    <comp name="01.HHN">
      <acc value="0.0345845394" flag="0"/>
      <vel value="0.0175321177" flag="0"/>
      <psa03 value="0.1273653408" flag="0"/>
      <psa10 value="0.0140457912" flag="0"/>
      <psa30 value="0.0007760491" flag="0"/>
    </comp>
    <comp name="01.HHZ">
      <acc value="0.0278821139" flag="0"/>
      <vel value="0.0112612006" flag="0"/>
      <psa03 value="0.0870912436" flag="0"/>
      <psa10 value="0.0070453451" flag="0"/>
      <psa30 value="0.0005622386" flag="0"/>
    </comp>
  </station>
</stationlist>
