<stationlist created="1737777733">
	<station code="PHP" name="PHP" netid="AC" source="Albanian Seismological Network (AC)" insttype="" lat="41.6847" lon="20.4408">
		<comp name="01.HNE" depth="0.0">
			<acc value="0.042301732910952" flag="0"/>
			<vel value="0.0128532496126" flag="0"/>
			<psa03 value="0.0760982546774174" flag="0"/>
			<psa10 value="0.0187157704529588" flag="0"/>
			<psa30 value="0.000741584803436534" flag="0"/>
		</comp>
		<comp name="01.HNN" depth="0.0">
			<acc value="0.043905994471278" flag="0"/>
			<vel value="0.0156198026352" flag="0"/>
			<psa03 value="0.0611293880637604" flag="0"/>
			<psa10 value="0.0248824314639551" flag="0"/>
			<psa30 value="0.00108185656352015" flag="0"/>
		</comp>
		<comp name="01.HNZ" depth="0.0">
			<acc value="0.027161306575842" flag="0"/>
			<vel value="0.00731158645991" flag="0"/>
			<psa03 value="0.0301063251254377" flag="0"/>
			<psa10 value="0.0114644644645116" flag="0"/>
			<psa30 value="0.000640506336650964" flag="0"/>
		</comp>
	</station>
	<station code="LMS2" name="LMS2" netid="HI" source="ITSAK Strong Motion Network" insttype="" lat="40.834985" lon="21.141815">
		<comp name=".HNE" depth="0.0">
			<acc value="0.003224821506801" flag="0"/>
			<vel value="0.00181652565634" flag="0"/>
			<psa03 value="0.00669952193543948" flag="0"/>
			<psa10 value="0.00193567842450999" flag="0"/>
			<psa30 value="0.000181105682258418" flag="0"/>
		</comp>
		<comp name=".HNN" depth="0.0">
			<acc value="0.0038331071994858" flag="0"/>
			<vel value="0.00241538504411" flag="0"/>
			<psa03 value="0.00688801554200666" flag="0"/>
			<psa10 value="0.00267502595734053" flag="0"/>
			<psa30 value="0.000454407914796224" flag="0"/>
		</comp>
		<comp name=".HNZ" depth="0.0">
			<acc value="0.0034163030243304" flag="0"/>
			<vel value="0.000825354327559" flag="0"/>
			<psa03 value="0.00481057160646181" flag="0"/>
			<psa10 value="0.0010776131443956" flag="0"/>
			<psa30 value="0.000146566493164838" flag="0"/>
		</comp>
	</station>
	<station code="MESG" name="MESG" netid="IV" source="Italian National Seismic Network (INSN)" insttype="" lat="40.589408" lon="17.850423">
		<comp name=".HNE" depth="0.0">
			<acc value="0.0054194201813916" flag="0"/>
			<vel value="0.00243727142727" flag="0"/>
			<psa03 value="0.0157984397982858" flag="0"/>
			<psa10 value="0.00223141211697846" flag="0"/>
			<psa30 value="0.000203558224316839" flag="0"/>
		</comp>
		<comp name=".HNN" depth="0.0">
			<acc value="0.006588250749546" flag="0"/>
			<vel value="0.00282035100663" flag="0"/>
			<psa03 value="0.0160708380516405" flag="0"/>
			<psa10 value="0.00335624428783834" flag="0"/>
			<psa30 value="0.000278392452550151" flag="0"/>
		</comp>
		<comp name=".HNZ" depth="0.0">
			<acc value="0.0026873004174684" flag="0"/>
			<vel value="0.00112440434998" flag="0"/>
			<psa03 value="0.0059482670903754" flag="0"/>
			<psa10 value="0.00109126311113908" flag="0"/>
			<psa30 value="0.000292214331723792" flag="0"/>
		</comp>
	</station>
</stationlist>
