<?xml version="1.0" encoding="UTF-8" standalone="yes"?>
<!DOCTYPE earthquake SYSTEM "stationlist.dtd">
<stationlist created="" xmlns="ch.ethz.sed.shakemap.usgs.xml">
  <station code="BCA" name="BCA" netid="KO" insttype="CMG-3ESP" lat="41.445" lon="41.6223">
    <comp name="--.HHE">
      <acc value="0.5703572628" flag="0"/>
      <vel value="0.1198861759" flag="0"/>
      <psa03 value="0.2935766627" flag="0"/>
      <psa10 value="0.0474573237" flag="0"/>
      <psa30 value="0.0031624029" flag="0"/>
    </comp>
    <comp name="--.HHZ">
      <acc value="0.1103485420" flag="0"/>
      <vel value="0.0269420078" flag="0"/>
      <psa03 value="0.0926581071" flag="0"/>
      <psa10 value="0.0233400151" flag="0"/>
      <psa30 value="0.0012358797" flag="0"/>
    </comp>
  </station>
  <station code="HOPA" name="HOPA" netid="KO" insttype="CMG-5T" lat="41.3867" lon="41.4458">
    <comp name="--.HNE">
      <acc value="0.4541603716" flag="0"/>
      <vel value="0.1101506513" flag="0"/>
      <psa03 value="0.4949912072" flag="0"/>
      <psa10 value="0.0312303504" flag="0"/>
      <psa30 value="0.0028495631" flag="0"/>
    </comp>
    <comp name="--.HNZ">
      <acc value="0.1800310662" flag="0"/>
      <vel value="0.0477978094" flag="0"/>
      <psa03 value="0.2328156320" flag="0"/>
      <psa10 value="0.0141531215" flag="0"/>
      <psa30 value="0.0015651079" flag="0"/>
    </comp>
    <comp name="--.HNN">
      <acc value="0.3565924659" flag="0"/>
      <vel value="0.0971497684" flag="0"/>
      <psa03 value="0.6686772119" flag="0"/>
      <psa10 value="0.0278577658" flag="0"/>
      <psa30 value="0.0030235360" flag="0"/>
    </comp>
  </station>
</stationlist>
