<?xml version="1.0" encoding="UTF-8" standalone="yes"?>
<!DOCTYPE earthquake SYSTEM "stationlist.dtd">
<stationlist created="" xmlns="ch.ethz.sed.shakemap.usgs.xml">
  <station code="APE" name="APE" netid="GE" insttype="STS-2/N" commtype="DIG" lat="37.0727" lon="25.523">
    <comp name="--.HHN">
      <acc value="0.1260846092" flag="0"/>
      <vel value="0.0305230171" flag="0"/>
      <psa03 value="0.1374154497" flag="0"/>
      <psa10 value="0.0196816907" flag="0"/>
      <psa30 value="0.0029846289" flag="0"/>
    </comp>
    <comp name="--.HHE">
      <acc value="0.1401645910" flag="0"/>
      <vel value="0.0492877482" flag="0"/>
      <psa03 value="0.1602804521" flag="0"/>
      <psa10 value="0.0149874807" flag="0"/>
      <psa30 value="0.0017428054" flag="0"/>
    </comp>
    <comp name="--.HHZ">
      <acc value="0.0540970047" flag="0"/>
      <vel value="0.0157985216" flag="0"/>
      <psa03 value="0.0770263787" flag="0"/>
      <psa10 value="0.0120142390" flag="0"/>
      <psa30 value="0.0023959862" flag="0"/>
    </comp>
  </station>
  <station code="AMGA" name="AMGA" netid="HL" insttype="LE3D20_SMART24" commtype="DIG" lat="36.8316" lon="25.8938">
    <comp name="--.HHE">
      <acc value="0.6599454179" flag="0"/>
      <vel value="0.1369003162" flag="0"/>
      <psa03 value="0.7513205942" flag="0"/>
      <psa10 value="0.0856512920" flag="0"/>
      <psa30 value="0.0079374145" flag="0"/>
    </comp>
    <comp name="--.HHZ">
      <acc value="0.3204555896" flag="0"/>
      <vel value="0.0598414463" flag="0"/>
      <psa03 value="0.1865013018" flag="0"/>
      <psa10 value="0.0393798733" flag="0"/>
      <psa30 value="0.0139137040" flag="0"/>
    </comp>
    <comp name="--.HHN">
      <acc value="0.4562178950" flag="0"/>
      <vel value="0.1210603471" flag="0"/>
      <psa03 value="0.3177319445" flag="0"/>
      <psa10 value="0.0615291625" flag="0"/>
      <psa30 value="0.0064162917" flag="0"/>
    </comp>
  </station>
  <station code="ASTA" name="ASTA" netid="HL" insttype="LE3D20_SMART24" commtype="DIG" lat="36.5475" lon="26.3471">
    <comp name="--.HHE">
      <acc value="0.0401856520" flag="0"/>
      <vel value="0.0110379876" flag="0"/>
      <psa03 value="0.0526540185" flag="0"/>
      <psa10 value="0.0079335195" flag="0"/>
      <psa30 value="0.0018043308" flag="0"/>
    </comp>
    <comp name="--.HHN">
      <acc value="0.0396464544" flag="0"/>
      <vel value="0.0119351464" flag="0"/>
      <psa03 value="0.0568287767" flag="0"/>
      <psa10 value="0.0157507527" flag="0"/>
      <psa30 value="0.0010054940" flag="0"/>
    </comp>
    <comp name="--.HHZ">
      <acc value="0.0263138572" flag="0"/>
      <vel value="0.0069250709" flag="0"/>
      <psa03 value="0.0286792276" flag="0"/>
      <psa10 value="0.0053069700" flag="0"/>
      <psa30 value="0.0012278956" flag="0"/>
    </comp>
  </station>
  <station code="MHLO" name="MHLO" netid="HL" insttype="20" commtype="DIG" lat="36.6898" lon="24.4017">
    <comp name="--.HHN">
      <acc value="0.0512242920" flag="0"/>
      <vel value="0.0277987237" flag="0"/>
      <psa03 value="0.1556320556" flag="0"/>
      <psa10 value="0.0292112207" flag="0"/>
      <psa30 value="0.0013103921" flag="0"/>
    </comp>
    <comp name="--.HHE">
      <acc value="0.0650950233" flag="0"/>
      <vel value="0.0332848406" flag="0"/>
      <psa03 value="0.1306713401" flag="0"/>
      <psa10 value="0.0499791662" flag="0"/>
      <psa30 value="0.0026968634" flag="0"/>
    </comp>
    <comp name="--.HHZ">
      <acc value="0.0238359430" flag="0"/>
      <vel value="0.0177833516" flag="0"/>
      <psa03 value="0.0864352061" flag="0"/>
      <psa10 value="0.0205706273" flag="0"/>
      <psa30 value="0.0013537631" flag="0"/>
    </comp>
  </station>
  <station code="THERA" name="THERA" netid="HL" insttype="120" commtype="DIG" lat="36.367" lon="25.4753">
    <comp name="--.HHZ">
      <acc value="0.0527077146" flag="0"/>
      <vel value="0.0101404434" flag="0"/>
      <psa03 value="0.0683619991" flag="0"/>
      <psa10 value="0.0058176169" flag="0"/>
      <psa30 value="0.0015964114" flag="0"/>
    </comp>
    <comp name="--.HHN">
      <acc value="0.0694665077" flag="0"/>
      <vel value="0.0221178787" flag="0"/>
      <psa03 value="0.1031175201" flag="0"/>
      <psa10 value="0.0192076918" flag="0"/>
      <psa30 value="0.0018586097" flag="0"/>
    </comp>
    <comp name="--.HHE">
      <acc value="0.0465977918" flag="0"/>
      <vel value="0.0167881087" flag="0"/>
      <psa03 value="0.0519437208" flag="0"/>
      <psa10 value="0.0116886441" flag="0"/>
      <psa30 value="0.0020439517" flag="0"/>
    </comp>
  </station>
  <station code="ANYD" name="ANYD" netid="HT" insttype="120" commtype="DIG" lat="36.63" lon="25.6779">
    <comp name="--.HHE">
      <acc value="1.7194595362" flag="0"/>
      <vel value="0.5701808876" flag="0"/>
      <psa03 value="3.5152815794" flag="0"/>
      <psa10 value="0.1579801564" flag="0"/>
      <psa30 value="0.0179045598" flag="0"/>
    </comp>
    <comp name="--.HHN">
      <acc value="0.8841443062" flag="0"/>
      <vel value="0.3160880133" flag="0"/>
      <psa03 value="1.6616681690" flag="0"/>
      <psa10 value="0.1050268089" flag="0"/>
      <psa30 value="0.0174407199" flag="0"/>
    </comp>
    <comp name="--.HHZ">
      <acc value="0.4942793593" flag="0"/>
      <vel value="0.1838754788" flag="0"/>
      <psa03 value="0.5702058593" flag="0"/>
      <psa10 value="0.1140470469" flag="0"/>
      <psa30 value="0.0095577456" flag="0"/>
    </comp>
  </station>
</stationlist>
