<?xml version="1.0" encoding="UTF-8" standalone="yes"?>
<!DOCTYPE earthquake SYSTEM "stationlist.dtd">
<stationlist created="" xmlns="ch.ethz.sed.shakemap.usgs.xml">
  <station code="THERA" name="THERA" netid="GE" insttype="STS-2/N" commtype="DIG" lat="36.367" lon="25.4753">
    <comp name="--.HHE">
      <acc value="0.0465499492" flag="0"/>
      <vel value="0.0171733975" flag="0"/>
      <psa03 value="0.0534350563" flag="0"/>
      <psa10 value="0.0118149840" flag="0"/>
      <psa30 value="0.0020442526" flag="0"/>
    </comp>
    <comp name="--.HHZ">
      <acc value="0.0536827938" flag="0"/>
      <vel value="0.0103879148" flag="0"/>
      <psa03 value="0.0702566100" flag="0"/>
      <psa10 value="0.0058448105" flag="0"/>
      <psa30 value="0.0015978699" flag="0"/>
    </comp>
    <comp name="--.HHN">
      <acc value="0.0352943922" flag="0"/>
      <vel value="0.0112380222" flag="0"/>
      <psa03 value="0.0531825256" flag="0"/>
      <psa10 value="0.0096724369" flag="0"/>
      <psa30 value="0.0009308941" flag="0"/>
    </comp>
  </station>
  <station code="SERI" name="SERI" netid="HA" insttype="30" commtype="DIG" lat="37.1609" lon="24.4853">
    <comp name="--.HHE">
      <acc value="0.0159394254" flag="0"/>
      <vel value="0.0067343553" flag="0"/>
      <psa03 value="0.0275821394" flag="0"/>
      <psa10 value="0.0044145035" flag="0"/>
      <psa30 value="0.0006914984" flag="0"/>
    </comp>
    <comp name="--.HHN">
      <acc value="0.0185292331" flag="0"/>
      <vel value="0.0065848401" flag="0"/>
      <psa03 value="0.0304755561" flag="0"/>
      <psa10 value="0.0040174543" flag="0"/>
      <psa30 value="0.0005208856" flag="0"/>
    </comp>
    <comp name="--.HHZ">
      <acc value="0.0127255849" flag="0"/>
      <vel value="0.0082497235" flag="0"/>
      <psa03 value="0.0313790755" flag="0"/>
      <psa10 value="0.0071539689" flag="0"/>
      <psa30 value="0.0009717581" flag="0"/>
    </comp>
  </station>
  <station code="THNO" name="THNO" netid="HC" insttype="60" commtype="DIG" lat="37.6541" lon="25.0221">
    <comp name="--.HHE">
      <acc value="0.0000000000" flag="0"/>
      <vel value="-100.0000000000" flag="0"/>
      <psa03 value="0.0000000000" flag="0"/>
      <psa10 value="0.0000000000" flag="0"/>
      <psa30 value="0.0000000000" flag="0"/>
    </comp>
    <comp name="--.HHN">
      <acc value="0.0446038538" flag="0"/>
      <vel value="0.0140089114" flag="0"/>
      <psa03 value="0.0899218514" flag="0"/>
      <psa10 value="0.0093106628" flag="0"/>
      <psa30 value="0.0007757900" flag="0"/>
    </comp>
    <comp name="--.HHZ">
      <acc value="0.0359668650" flag="0"/>
      <vel value="0.0289771607" flag="0"/>
      <psa03 value="0.0758134130" flag="0"/>
      <psa10 value="0.0172471721" flag="0"/>
      <psa30 value="0.0018583293" flag="0"/>
    </comp>
  </station>
  <station code="AMGA" name="AMGA" netid="HL" insttype="LE3D20_SMART24" commtype="DIG" lat="36.8316" lon="25.8938">
    <comp name="--.HHZ">
      <acc value="0.3204555872" flag="0"/>
      <vel value="0.0598408585" flag="0"/>
      <psa03 value="0.1865013003" flag="0"/>
      <psa10 value="0.0393798915" flag="0"/>
      <psa30 value="0.0139107854" flag="0"/>
    </comp>
    <comp name="--.HHE">
      <acc value="0.6599454189" flag="0"/>
      <vel value="0.1369005628" flag="0"/>
      <psa03 value="0.7513205949" flag="0"/>
      <psa10 value="0.0856512597" flag="0"/>
      <psa30 value="0.0079385509" flag="0"/>
    </comp>
    <comp name="--.HHN">
      <acc value="0.4562178945" flag="0"/>
      <vel value="0.1210597749" flag="0"/>
      <psa03 value="0.3177319460" flag="0"/>
      <psa10 value="0.0615292007" flag="0"/>
      <psa30 value="0.0064183413" flag="0"/>
    </comp>
  </station>
  <station code="THERA" name="THERA" netid="HL" insttype="120" commtype="DIG" lat="36.367" lon="25.4753">
    <comp name="--.HHE">
      <acc value="0.0465977919" flag="0"/>
      <vel value="0.0167881001" flag="0"/>
      <psa03 value="0.0519437207" flag="0"/>
      <psa10 value="0.0116886420" flag="0"/>
      <psa30 value="0.0020442543" flag="0"/>
    </comp>
    <comp name="--.HHN">
      <acc value="0.0694665067" flag="0"/>
      <vel value="0.0221178840" flag="0"/>
      <psa03 value="0.1031175201" flag="0"/>
      <psa10 value="0.0192076917" flag="0"/>
      <psa30 value="0.0018586901" flag="0"/>
    </comp>
    <comp name="--.HHZ">
      <acc value="0.0527077141" flag="0"/>
      <vel value="0.0101404579" flag="0"/>
      <psa03 value="0.0683619991" flag="0"/>
      <psa10 value="0.0058176172" flag="0"/>
      <psa30 value="0.0015969597" flag="0"/>
    </comp>
  </station>
  <station code="ANYD" name="ANYD" netid="HT" insttype="120" commtype="DIG" lat="36.63" lon="25.6779">
    <comp name="--.HHZ">
      <acc value="0.5426144485" flag="0"/>
      <vel value="0.1838757015" flag="0"/>
      <psa03 value="0.5702058591" flag="0"/>
      <psa10 value="0.1140470662" flag="0"/>
      <psa30 value="0.0095516730" flag="0"/>
    </comp>
    <comp name="--.HHN">
      <acc value="0.8841443066" flag="0"/>
      <vel value="0.3160884096" flag="0"/>
      <psa03 value="1.6616681687" flag="0"/>
      <psa10 value="0.1050267847" flag="0"/>
      <psa30 value="0.0174196028" flag="0"/>
    </comp>
    <comp name="--.HHE">
      <acc value="1.7194595361" flag="0"/>
      <vel value="0.5701807621" flag="0"/>
      <psa03 value="3.5152815796" flag="0"/>
      <psa10 value="0.1579801542" flag="0"/>
      <psa30 value="0.0179133005" flag="0"/>
    </comp>
  </station>
</stationlist>
