<stationlist xmlns:esm="https://esm-db.eu/esmws/shakemap/1/" created="1784598805">
	<station code="CGAU" name="CGAU" netid="2I" source="INGV temporary seismic network of Osservatorio Vesuviano (Mobile_Seismic_Network_OV)" insttype="" lat="40.852368" lon="14.112998" esm:processing="manual (Paolucci et al 2011)" esm:quality="good">
		<comp name="--.HNE" depth="0.0">
			<acc value="6.69260199203559" flag="0"/>
			<vel value="3.00183448983522" flag="0"/>
			<psa03 value="7.70452572035045" flag="0"/>
			<psa10 value="3.8325069247748" flag="0"/>
			<psa30 value="0.253319287826258" flag="0"/>
		</comp>
		<comp name="--.HNN" depth="0.0">
			<acc value="8.26339326962339" flag="0"/>
			<vel value="2.58650912725931" flag="0"/>
			<psa03 value="6.66331874549835" flag="0"/>
			<psa10 value="1.87565801313812" flag="0"/>
			<psa30 value="0.158733982013949" flag="0"/>
		</comp>
		<comp name="--.HNZ" depth="0.0">
			<acc value="4.71737201878938" flag="0"/>
			<vel value="1.65531542530933" flag="0"/>
			<psa03 value="4.65552807255333" flag="0"/>
			<psa10 value="1.55129836590336" flag="0"/>
			<psa30 value="0.171963991770499" flag="0"/>
		</comp>
	</station>
	<station code="ARL" name="ARL" netid="IT" source="Italian Strong Motion Network (RAN)" insttype="" lat="41.057" lon="14.5429" esm:processing="automatic (Paolucci et al 2011)" esm:quality="good">
		<comp name="--.HNE" depth="0.0">
			<acc value="0.0100142882164073" flag="0"/>
			<vel value="0.00754533931363981" flag="0"/>
			<psa03 value="0.0233854397956167" flag="0"/>
			<psa10 value="0.00648873375301608" flag="0"/>
			<psa30 value="0.00185267252212881" flag="0"/>
		</comp>
		<comp name="--.HNN" depth="0.0">
			<acc value="0.00872698580801523" flag="0"/>
			<vel value="0.0149375741327801" flag="0"/>
			<psa03 value="0.0140645944707749" flag="0"/>
			<psa10 value="0.0061406150668616" flag="0"/>
			<psa30 value="0.00194531865948073" flag="0"/>
		</comp>
		<comp name="--.HNZ" depth="0.0">
			<acc value="0.00543149461629512" flag="0"/>
			<vel value="0.00515708874294285" flag="0"/>
			<psa03 value="0.0152637546384175" flag="0"/>
			<psa10 value="0.00561953023504885" flag="0"/>
			<psa30 value="0.00179782659718879" flag="0"/>
		</comp>
	</station>
	<station code="ATI" name="ATI" netid="IT" source="Italian Strong Motion Network (RAN)" insttype="" lat="41.6219" lon="13.7948" esm:processing="automatic (Paolucci et al 2011)" esm:quality="good">
		<comp name="--.HNE" depth="0.0">
			<acc value="0.00166474353427223" flag="0"/>
			<vel value="0.00250883878355344" flag="0"/>
			<psa03 value="0.00379518826155484" flag="0"/>
			<psa10 value="0.00438445529239533" flag="0"/>
			<psa30 value="0.000748510626822194" flag="0"/>
		</comp>
		<comp name="--.HNN" depth="0.0">
			<acc value="0.00224685553235177" flag="0"/>
			<vel value="0.00355210425068736" flag="0"/>
			<psa03 value="0.00595371992555906" flag="0"/>
			<psa10 value="0.0040549172121148" flag="0"/>
			<psa30 value="0.000989539718816629" flag="0"/>
		</comp>
		<comp name="--.HNZ" depth="0.0">
			<acc value="0.00109449231404199" flag="0"/>
			<vel value="0.00261142100272763" flag="0"/>
			<psa03 value="0.00246605936042359" flag="0"/>
			<psa10 value="0.00232782092546196" flag="0"/>
			<psa30 value="0.00104329515485045" flag="0"/>
		</comp>
	</station>
	<station code="AVZA" name="AVZA" netid="IT" source="Italian Strong Motion Network (RAN)" insttype="" lat="40.9291" lon="14.7667" esm:processing="automatic (Paolucci et al 2011)" esm:quality="good">
		<comp name="--.HNE" depth="0.0">
			<acc value="0.0225312861091814" flag="0"/>
			<vel value="0.0146303284146618" flag="0"/>
			<psa03 value="0.0819802693321716" flag="0"/>
			<psa10 value="0.0198355946357966" flag="0"/>
			<psa30 value="0.00308930277614741" flag="0"/>
		</comp>
		<comp name="--.HNN" depth="0.0">
			<acc value="0.0260034931318806" flag="0"/>
			<vel value="0.0136892033421184" flag="0"/>
			<psa03 value="0.0765781197996108" flag="0"/>
			<psa10 value="0.0183918427443193" flag="0"/>
			<psa30 value="0.00194568972572871" flag="0"/>
		</comp>
		<comp name="--.HNZ" depth="0.0">
			<acc value="0.00905664922373336" flag="0"/>
			<vel value="0.00790100578713375" flag="0"/>
			<psa03 value="0.0255189326915504" flag="0"/>
			<psa10 value="0.0137918902075392" flag="0"/>
			<psa30 value="0.00200622956952958" flag="0"/>
		</comp>
	</station>
	<station code="BAIP" name="BAIP" netid="IT" source="Italian Strong Motion Network (RAN)" insttype="" lat="40.8183" lon="14.0705" esm:processing="automatic (Paolucci et al 2011)" esm:quality="best">
		<comp name="--.HNE" depth="0.0">
			<acc value="1.39445210081818" flag="0"/>
			<vel value="0.461970631854615" flag="0"/>
			<psa03 value="1.57479398903975" flag="0"/>
			<psa10 value="0.868812074536029" flag="0"/>
			<psa30 value="0.0874055901913857" flag="0"/>
		</comp>
		<comp name="--.HNN" depth="0.0">
			<acc value="1.23241515182848" flag="0"/>
			<vel value="0.649061453250038" flag="0"/>
			<psa03 value="2.18737056923182" flag="0"/>
			<psa10 value="0.549832383696982" flag="0"/>
			<psa30 value="0.0694962904548392" flag="0"/>
		</comp>
		<comp name="--.HNZ" depth="0.0">
			<acc value="2.45828059286616" flag="0"/>
			<vel value="0.720145152534492" flag="0"/>
			<psa03 value="2.91573081952379" flag="0"/>
			<psa10 value="0.764648714224616" flag="0"/>
			<psa30 value="0.0733404184427857" flag="0"/>
		</comp>
	</station>
	<station code="BAN" name="BAN" netid="IT" source="Italian Strong Motion Network (RAN)" insttype="" lat="40.8138" lon="14.1652" esm:processing="automatic (Paolucci et al 2011)" esm:quality="best">
		<comp name="--.HNE" depth="0.0">
			<acc value="11.8163692224898" flag="0"/>
			<vel value="5.80161302987349" flag="0"/>
			<psa03 value="16.2677269904086" flag="0"/>
			<psa10 value="2.75228008504814" flag="0"/>
			<psa30 value="0.212497036885812" flag="0"/>
		</comp>
		<comp name="--.HNN" depth="0.0">
			<acc value="16.0171282896369" flag="0"/>
			<vel value="7.41063081281796" flag="0"/>
			<psa03 value="19.7286149239157" flag="0"/>
			<psa10 value="6.85662637784695" flag="0"/>
			<psa30 value="0.591895050142201" flag="0"/>
		</comp>
		<comp name="--.HNZ" depth="0.0">
			<acc value="17.5919366578394" flag="0"/>
			<vel value="4.7788713049438" flag="0"/>
			<psa03 value="20.822447384948" flag="0"/>
			<psa10 value="2.08091505040949" flag="0"/>
			<psa30 value="0.206609460196085" flag="0"/>
		</comp>
	</station>
	<station code="BCLI" name="BCLI" netid="IT" source="Italian Strong Motion Network (RAN)" insttype="" lat="40.7968" lon="14.0777" esm:processing="automatic (Paolucci et al 2011)" esm:quality="best">
		<comp name="--.HNE" depth="0.0">
			<acc value="2.54246700792915" flag="0"/>
			<vel value="1.46039638338232" flag="0"/>
			<psa03 value="5.81870279383671" flag="0"/>
			<psa10 value="1.5427403589774" flag="0"/>
			<psa30 value="0.163314858807888" flag="0"/>
		</comp>
		<comp name="--.HNN" depth="0.0">
			<acc value="2.04960349419504" flag="0"/>
			<vel value="1.46662088372234" flag="0"/>
			<psa03 value="3.35573030066335" flag="0"/>
			<psa10 value="2.04565047430439" flag="0"/>
			<psa30 value="0.162832706867688" flag="0"/>
		</comp>
		<comp name="--.HNZ" depth="0.0">
			<acc value="2.8750004050898" flag="0"/>
			<vel value="0.896315641680993" flag="0"/>
			<psa03 value="4.65579809044069" flag="0"/>
			<psa10 value="0.782747413174598" flag="0"/>
			<psa30 value="0.062006667637418" flag="0"/>
		</comp>
	</station>
	<station code="BGI" name="BGI" netid="IT" source="Italian Strong Motion Network (RAN)" insttype="" lat="40.8311" lon="15.0681" esm:processing="automatic (Paolucci et al 2011)" esm:quality="good">
		<comp name="--.HGE" depth="0.0">
			<acc value="0.00485160605810534" flag="0"/>
			<vel value="0.00787366548834369" flag="0"/>
			<psa03 value="0.0089602563334241" flag="0"/>
			<psa10 value="0.0129164181493119" flag="0"/>
			<psa30 value="0.000919164119278545" flag="0"/>
		</comp>
		<comp name="--.HGN" depth="0.0">
			<acc value="0.00459507681407113" flag="0"/>
			<vel value="0.00625168766952783" flag="0"/>
			<psa03 value="0.0108658760609621" flag="0"/>
			<psa10 value="0.0124106783965353" flag="0"/>
			<psa30 value="0.0014341944875128" flag="0"/>
		</comp>
		<comp name="--.HGZ" depth="0.0">
			<acc value="0.00581291102391273" flag="0"/>
			<vel value="0.00447294272861792" flag="0"/>
			<psa03 value="0.0166121681829472" flag="0"/>
			<psa10 value="0.00784133866895352" flag="0"/>
			<psa30 value="0.00129433772268851" flag="0"/>
		</comp>
	</station>
	<station code="BNE" name="BNE" netid="IT" source="Italian Strong Motion Network (RAN)" insttype="" lat="41.1276" lon="14.7849" esm:processing="automatic (Paolucci et al 2011)" esm:quality="best">
		<comp name="--.HGE" depth="0.0">
			<acc value="0.00519510640318752" flag="0"/>
			<vel value="0.0100429870346765" flag="0"/>
			<psa03 value="0.0139534582022925" flag="0"/>
			<psa10 value="0.0197015738825794" flag="0"/>
			<psa30 value="0.00357294669018311" flag="0"/>
		</comp>
		<comp name="--.HGN" depth="0.0">
			<acc value="0.00539280135325046" flag="0"/>
			<vel value="0.0138076882587783" flag="0"/>
			<psa03 value="0.0106491527197293" flag="0"/>
			<psa10 value="0.0216287234217784" flag="0"/>
			<psa30 value="0.00370341449970185" flag="0"/>
		</comp>
		<comp name="--.HGZ" depth="0.0">
			<acc value="0.00528128606568496" flag="0"/>
			<vel value="0.0116786891784996" flag="0"/>
			<psa03 value="0.0101270667018013" flag="0"/>
			<psa10 value="0.013942483308593" flag="0"/>
			<psa30 value="0.00282477150224876" flag="0"/>
		</comp>
	</station>
	<station code="BNPI" name="BNPI" netid="IT" source="Italian Strong Motion Network (RAN)" insttype="" lat="41.1173" lon="14.7652" esm:processing="automatic (Paolucci et al 2011)" esm:quality="best">
		<comp name="--.HNE" depth="0.0">
			<acc value="0.0124207117487499" flag="0"/>
			<vel value="0.0140129065829605" flag="0"/>
			<psa03 value="0.0331833596930575" flag="0"/>
			<psa10 value="0.0135410210886912" flag="0"/>
			<psa30 value="0.00370050722377576" flag="0"/>
		</comp>
		<comp name="--.HNN" depth="0.0">
			<acc value="0.0112956930687481" flag="0"/>
			<vel value="0.0191413343193364" flag="0"/>
			<psa03 value="0.0316575789300701" flag="0"/>
			<psa10 value="0.0166453182956461" flag="0"/>
			<psa30 value="0.00356597414495287" flag="0"/>
		</comp>
		<comp name="--.HNZ" depth="0.0">
			<acc value="0.00474011017037936" flag="0"/>
			<vel value="0.00725630355604507" flag="0"/>
			<psa03 value="0.0125358616893141" flag="0"/>
			<psa10 value="0.0116687695612161" flag="0"/>
			<psa30 value="0.00245103736919664" flag="0"/>
		</comp>
	</station>
	<station code="CER" name="CER" netid="IT" source="Italian Strong Motion Network (RAN)" insttype="" lat="41.2595" lon="15.9101" esm:processing="automatic (Paolucci et al 2011)" esm:quality="good">
		<comp name="--.HNE" depth="0.0">
			<acc value="0.00176847739529163" flag="0"/>
			<vel value="0.00315794595006963" flag="0"/>
			<psa03 value="0.00563477822431997" flag="0"/>
			<psa10 value="0.00403817891578482" flag="0"/>
			<psa30 value="0.00173428822141656" flag="0"/>
		</comp>
		<comp name="--.HNN" depth="0.0">
			<acc value="0.00202755202679501" flag="0"/>
			<vel value="0.00350048769751115" flag="0"/>
			<psa03 value="0.005020274300305" flag="0"/>
			<psa10 value="0.00368847574966631" flag="0"/>
			<psa30 value="0.00171155619469802" flag="0"/>
		</comp>
		<comp name="--.HNZ" depth="0.0">
			<acc value="0.00195461379028819" flag="0"/>
			<vel value="0.00174444810000383" flag="0"/>
			<psa03 value="0.0060359955582076" flag="0"/>
			<psa10 value="0.00266785806062835" flag="0"/>
			<psa30 value="0.000658077813175444" flag="0"/>
		</comp>
	</station>
	<station code="CNC" name="CNC" netid="IT" source="Italian Strong Motion Network (RAN)" insttype="" lat="41.0777" lon="14.025" esm:processing="manual (Paolucci et al 2011)" esm:quality="good">
		<comp name="--.HGE" depth="0.0">
			<acc value="0.0493661718522459" flag="0"/>
			<vel value="0.130243386863686" flag="0"/>
			<psa03 value="0.0859028885614443" flag="0"/>
			<psa10 value="0.150685747191224" flag="0"/>
			<psa30 value="0.0239343305319341" flag="0"/>
		</comp>
		<comp name="--.HGN" depth="0.0">
			<acc value="0.0512933753437228" flag="0"/>
			<vel value="0.084612432314055" flag="0"/>
			<psa03 value="0.100633895668369" flag="0"/>
			<psa10 value="0.122471135611677" flag="0"/>
			<psa30 value="0.0278409959960149" flag="0"/>
		</comp>
		<comp name="--.HGZ" depth="0.0">
			<acc value="0.0282576160809686" flag="0"/>
			<vel value="0.0474900424819389" flag="0"/>
			<psa03 value="0.0615009230926573" flag="0"/>
			<psa10 value="0.0459769957503251" flag="0"/>
			<psa30 value="0.0244072335261033" flag="0"/>
		</comp>
	</station>
	<station code="EBO" name="EBO" netid="IT" source="Italian Strong Motion Network (RAN)" insttype="" lat="40.5241" lon="15.0028" esm:processing="automatic (Paolucci et al 2011)" esm:quality="good">
		<comp name="--.HGE" depth="0.0">
			<acc value="0.0129933932803599" flag="0"/>
			<vel value="0.0203623625165267" flag="0"/>
			<psa03 value="0.0262355296417481" flag="0"/>
			<psa10 value="0.022986168970884" flag="0"/>
			<psa30 value="0.00468664546726134" flag="0"/>
		</comp>
		<comp name="--.HGN" depth="0.0">
			<acc value="0.0142284828142745" flag="0"/>
			<vel value="0.0179586064756685" flag="0"/>
			<psa03 value="0.0297724696758336" flag="0"/>
			<psa10 value="0.03209605870637" flag="0"/>
			<psa30 value="0.00441284357923001" flag="0"/>
		</comp>
		<comp name="--.HGZ" depth="0.0">
			<acc value="0.0078896945675366" flag="0"/>
			<vel value="0.00866381345352254" flag="0"/>
			<psa03 value="0.0206367759392926" flag="0"/>
			<psa10 value="0.0206056368973172" flag="0"/>
			<psa30 value="0.00205647435633345" flag="0"/>
		</comp>
	</station>
	<station code="ITR" name="ITR" netid="IT" source="Italian Strong Motion Network (RAN)" insttype="" lat="41.279" lon="13.5193" esm:processing="automatic (Paolucci et al 2011)" esm:quality="best">
		<comp name="--.HGE" depth="0.0">
			<acc value="0.00897565237139968" flag="0"/>
			<vel value="0.00366509632516457" flag="0"/>
			<psa03 value="0.0152632428857664" flag="0"/>
			<psa10 value="0.00533279514650645" flag="0"/>
			<psa30 value="0.000630700114120578" flag="0"/>
		</comp>
		<comp name="--.HGN" depth="0.0">
			<acc value="0.0102700299420159" flag="0"/>
			<vel value="0.00320046708900999" flag="0"/>
			<psa03 value="0.0158528952285902" flag="0"/>
			<psa10 value="0.00480322865907564" flag="0"/>
			<psa30 value="0.000662805678456649" flag="0"/>
		</comp>
		<comp name="--.HGZ" depth="0.0">
			<acc value="0.00442850926088572" flag="0"/>
			<vel value="0.00227818016083983" flag="0"/>
			<psa03 value="0.0059719685302729" flag="0"/>
			<psa10 value="0.00317645058051175" flag="0"/>
			<psa30 value="0.000488427512175604" flag="0"/>
		</comp>
	</station>
	<station code="LARN" name="LARN" netid="IT" source="Italian Strong Motion Network (RAN)" insttype="" lat="41.7281" lon="12.8337" esm:processing="automatic (Paolucci et al 2011)" esm:quality="good">
		<comp name="--.HNE" depth="0.0">
			<acc value="0.00691413760454469" flag="0"/>
			<vel value="0.0111008612542715" flag="0"/>
			<psa03 value="0.0141708957835485" flag="0"/>
			<psa10 value="0.0320192011149318" flag="0"/>
			<psa30 value="0.00107709885251285" flag="0"/>
		</comp>
		<comp name="--.HNN" depth="0.0">
			<acc value="0.00686223816620207" flag="0"/>
			<vel value="0.00790946298321976" flag="0"/>
			<psa03 value="0.0148146897338215" flag="0"/>
			<psa10 value="0.0165758636946196" flag="0"/>
			<psa30 value="0.00143860405045804" flag="0"/>
		</comp>
		<comp name="--.HNZ" depth="0.0">
			<acc value="0.00391864164288127" flag="0"/>
			<vel value="0.00380315173912635" flag="0"/>
			<psa03 value="0.0183737861835775" flag="0"/>
			<psa10 value="0.00825813518592724" flag="0"/>
			<psa30 value="0.00068040814661711" flag="0"/>
		</comp>
	</station>
	<station code="MPCD" name="MPCD" netid="IT" source="Italian Strong Motion Network (RAN)" insttype="" lat="40.7944" lon="14.0552" esm:processing="automatic (Paolucci et al 2011)" esm:quality="best">
		<comp name="--.HNE" depth="0.0">
			<acc value="3.20305233029567" flag="0"/>
			<vel value="0.947004399510802" flag="0"/>
			<psa03 value="4.2150238913132" flag="0"/>
			<psa10 value="0.74835943513982" flag="0"/>
			<psa30 value="0.0587548255521724" flag="0"/>
		</comp>
		<comp name="--.HNN" depth="0.0">
			<acc value="3.07709685306108" flag="0"/>
			<vel value="0.628714225062983" flag="0"/>
			<psa03 value="3.44198468125941" flag="0"/>
			<psa10 value="1.2671232606973" flag="0"/>
			<psa30 value="0.0923274229053146" flag="0"/>
		</comp>
		<comp name="--.HNZ" depth="0.0">
			<acc value="2.92357479024727" flag="0"/>
			<vel value="1.03106612058128" flag="0"/>
			<psa03 value="4.19077161805246" flag="0"/>
			<psa10 value="0.463166812528225" flag="0"/>
			<psa30 value="0.0514326938302143" flag="0"/>
		</comp>
	</station>
	<station code="MRL" name="MRL" netid="IT" source="Italian Strong Motion Network (RAN)" insttype="" lat="40.7582" lon="15.4785" esm:processing="automatic (Paolucci et al 2011)" esm:quality="good">
		<comp name="--.HNE" depth="0.0">
			<acc value="0.00215259198183221" flag="0"/>
			<vel value="0.00279793289358103" flag="0"/>
			<psa03 value="0.00732072389432142" flag="0"/>
			<psa10 value="0.00649252337906021" flag="0"/>
			<psa30 value="0.000783032184539303" flag="0"/>
		</comp>
		<comp name="--.HNN" depth="0.0">
			<acc value="0.00295059529183081" flag="0"/>
			<vel value="0.00415871321216601" flag="0"/>
			<psa03 value="0.00886887527987778" flag="0"/>
			<psa10 value="0.00477772040677911" flag="0"/>
			<psa30 value="0.000667083253491669" flag="0"/>
		</comp>
		<comp name="--.HNZ" depth="0.0">
			<acc value="0.00263231050576681" flag="0"/>
			<vel value="0.00239572464279921" flag="0"/>
			<psa03 value="0.00658061236556491" flag="0"/>
			<psa10 value="0.00212737999098376" flag="0"/>
			<psa30 value="0.000452034736749505" flag="0"/>
		</comp>
	</station>
	<station code="MRT" name="MRT" netid="IT" source="Italian Strong Motion Network (RAN)" insttype="" lat="40.7901" lon="14.7529" esm:processing="automatic (Paolucci et al 2011)" esm:quality="good">
		<comp name="--.HGE" depth="0.0">
			<acc value="0.0379009270435707" flag="0"/>
			<vel value="0.0192512459307167" flag="0"/>
			<psa03 value="0.127666613536592" flag="0"/>
			<psa10 value="0.0190335983824808" flag="0"/>
			<psa30 value="0.00190849809529906" flag="0"/>
		</comp>
		<comp name="--.HGN" depth="0.0">
			<acc value="0.037411671083112" flag="0"/>
			<vel value="0.0207081537949802" flag="0"/>
			<psa03 value="0.115808713425571" flag="0"/>
			<psa10 value="0.017900605202243" flag="0"/>
			<psa30 value="0.00120001147403747" flag="0"/>
		</comp>
		<comp name="--.HGZ" depth="0.0">
			<acc value="0.0349135510360819" flag="0"/>
			<vel value="0.0119539103864719" flag="0"/>
			<psa03 value="0.0661385167688116" flag="0"/>
			<psa10 value="0.00438515190104223" flag="0"/>
			<psa30 value="0.0014136745865034" flag="0"/>
		</comp>
	</station>
	<station code="NAAG" name="NAAG" netid="IT" source="Italian Strong Motion Network (RAN)" insttype="" lat="40.8334" lon="14.1657" esm:processing="manual (Paolucci et al 2011)" esm:quality="good">
		<comp name="--.HNE" depth="0.0">
			<acc value="5.86793594634849" flag="0"/>
			<vel value="1.91247346492674" flag="0"/>
			<psa03 value="10.4894222060751" flag="0"/>
			<psa10 value="1.93768232194418" flag="0"/>
			<psa30 value="0.136216943704002" flag="0"/>
		</comp>
		<comp name="--.HNN" depth="0.0">
			<acc value="6.93358828595815" flag="0"/>
			<vel value="2.81864428345759" flag="0"/>
			<psa03 value="7.82488769374048" flag="0"/>
			<psa10 value="2.68308470119356" flag="0"/>
			<psa30 value="0.179064475476031" flag="0"/>
		</comp>
		<comp name="--.HNZ" depth="0.0">
			<acc value="5.2300168905437" flag="0"/>
			<vel value="1.00960792889036" flag="0"/>
			<psa03 value="2.99786626059367" flag="0"/>
