<?xml version="1.0" encoding="UTF-8" standalone="yes"?>
<!DOCTYPE earthquake SYSTEM "stationlist.dtd">
<stationlist created="" xmlns="ch.ethz.sed.shakemap.usgs.xml">
  <station code="CGAU" name="CGAU" netid="2I" insttype="" commtype="DIG" lat="40.8524" lon="14.113">
    <comp name="--.HNE">
      <acc value="7.1595806966" flag="0"/>
      <vel value="2.9925269263" flag="0"/>
      <psa03 value="7.6265559459" flag="0"/>
      <psa10 value="3.8197665614" flag="0"/>
      <psa30 value="0.2635501107" flag="0"/>
    </comp>
    <comp name="--.HNN">
      <acc value="8.4241033732" flag="0"/>
      <vel value="2.6413197481" flag="0"/>
      <psa03 value="6.5813550914" flag="0"/>
      <psa10 value="1.8709163875" flag="0"/>
      <psa30 value="0.1570710901" flag="0"/>
    </comp>
    <comp name="--.HNZ">
      <acc value="4.9369730121" flag="0"/>
      <vel value="1.6589534556" flag="0"/>
      <psa03 value="4.5986241500" flag="0"/>
      <psa10 value="1.5498541246" flag="0"/>
      <psa30 value="0.1534481170" flag="0"/>
    </comp>
  </station>
  <station code="CLAC" name="CLAC" netid="2I" insttype="" commtype="DIG" lat="40.8836" lon="14.0706">
    <comp name="--.HHE">
      <acc value="0.5358840555" flag="0"/>
      <vel value="0.5044593290" flag="0"/>
      <psa03 value="1.7223739736" flag="0"/>
      <psa10 value="0.6598916774" flag="0"/>
      <psa30 value="0.0548372397" flag="0"/>
    </comp>
    <comp name="--.HHN">
      <acc value="0.5603047063" flag="0"/>
      <vel value="0.5496660299" flag="0"/>
      <psa03 value="1.0717415567" flag="0"/>
      <psa10 value="0.8226145265" flag="0"/>
      <psa30 value="0.0614673407" flag="0"/>
    </comp>
    <comp name="--.HHZ">
      <acc value="0.3908255470" flag="0"/>
      <vel value="0.2289113636" flag="0"/>
      <psa03 value="0.7372690564" flag="0"/>
      <psa10 value="0.4560243383" flag="0"/>
      <psa30 value="0.0315636057" flag="0"/>
    </comp>
  </station>
  <station code="CREM" name="CREM" netid="2I" insttype="" commtype="DIG" lat="40.8235" lon="14.1282">
    <comp name="--.HNE">
      <acc value="6.3971726586" flag="0"/>
      <vel value="1.9274061178" flag="0"/>
      <psa03 value="9.1591629252" flag="0"/>
      <psa10 value="1.3542796177" flag="0"/>
      <psa30 value="0.0715324482" flag="0"/>
    </comp>
    <comp name="--.HNN">
      <acc value="6.0187990124" flag="0"/>
      <vel value="2.6208972838" flag="0"/>
      <psa03 value="6.3391705803" flag="0"/>
      <psa10 value="2.0436297184" flag="0"/>
      <psa30 value="0.1498730963" flag="0"/>
    </comp>
    <comp name="--.HNZ">
      <acc value="4.3696611463" flag="0"/>
      <vel value="1.1896039008" flag="0"/>
      <psa03 value="5.1196042882" flag="0"/>
      <psa10 value="0.9315156524" flag="0"/>
      <psa30 value="0.0668371243" flag="0"/>
    </comp>
  </station>
  <station code="CSOC" name="CSOC" netid="2I" insttype="" commtype="DIG" lat="40.8416" lon="14.2125">
    <comp name="--.HNE">
      <acc value="2.8247051373" flag="0"/>
      <vel value="0.9779296766" flag="0"/>
      <psa03 value="4.1764229352" flag="0"/>
      <psa10 value="0.6148980708" flag="0"/>
      <psa30 value="0.0701025512" flag="0"/>
    </comp>
    <comp name="--.HNN">
      <acc value="2.6106559168" flag="0"/>
      <vel value="1.0951462018" flag="0"/>
      <psa03 value="7.0734659863" flag="0"/>
      <psa10 value="0.5960943161" flag="0"/>
      <psa30 value="0.0555435637" flag="0"/>
    </comp>
    <comp name="--.HNZ">
      <acc value="2.3585082450" flag="0"/>
      <vel value="0.4741032100" flag="0"/>
      <psa03 value="2.3486131654" flag="0"/>
      <psa10 value="0.5337308863" flag="0"/>
      <psa30 value="0.0520027630" flag="0"/>
    </comp>
  </station>
  <station code="VCDC" name="VCDC" netid="2I" insttype="" commtype="DIG" lat="40.9163" lon="14.4096">
    <comp name="--.HNN">
      <acc value="0.0335665526" flag="0"/>
      <vel value="0.0711211025" flag="0"/>
      <psa03 value="0.0454387829" flag="0"/>
      <psa10 value="0.0826033453" flag="0"/>
      <psa30 value="0.0157672517" flag="0"/>
    </comp>
    <comp name="--.HNE">
      <acc value="0.0335661973" flag="0"/>
      <vel value="0.0646576732" flag="0"/>
      <psa03 value="0.0433674685" flag="0"/>
      <psa10 value="0.1029026091" flag="0"/>
      <psa30 value="0.0235053345" flag="0"/>
    </comp>
    <comp name="--.HNZ">
      <acc value="0.0175063345" flag="0"/>
      <vel value="0.0415918953" flag="0"/>
      <psa03 value="0.0497853267" flag="0"/>
      <psa10 value="0.0659969373" flag="0"/>
      <psa30 value="0.0157837850" flag="0"/>
    </comp>
  </station>
  <station code="VSVT" name="VSVT" netid="2I" insttype="" commtype="DIG" lat="40.8229" lon="14.3692">
    <comp name="--.HNE">
      <acc value="0.2220033799" flag="0"/>
      <vel value="0.1003315602" flag="0"/>
      <psa03 value="0.5926425237" flag="0"/>
      <psa10 value="0.1693051427" flag="0"/>
      <psa30 value="0.0226856119" flag="0"/>
    </comp>
    <comp name="--.HNN">
      <acc value="0.2210583926" flag="0"/>
      <vel value="0.1034702679" flag="0"/>
      <psa03 value="0.4264683467" flag="0"/>
      <psa10 value="0.1709658591" flag="0"/>
      <psa30 value="0.0146312318" flag="0"/>
    </comp>
    <comp name="--.HNZ">
      <acc value="0.1613427834" flag="0"/>
      <vel value="0.0693403160" flag="0"/>
      <psa03 value="0.3590724172" flag="0"/>
      <psa10 value="0.0884577982" flag="0"/>
      <psa30 value="0.0145272162" flag="0"/>
    </comp>
  </station>
  <station code="CAMPI" name="CAMPI" netid="GX" insttype="Trillium Compact" commtype="DIG" lat="40.7071" lon="15.2738">
    <comp name="--.HHZ">
      <acc value="0.0037567046" flag="0"/>
      <vel value="0.0026332747" flag="0"/>
      <psa03 value="0.0109351081" flag="0"/>
      <psa10 value="0.0061081507" flag="0"/>
      <psa30 value="0.0006264602" flag="0"/>
    </comp>
    <comp name="--.HHE">
      <acc value="0.0047955087" flag="0"/>
      <vel value="0.0045202968" flag="0"/>
      <psa03 value="0.0137157410" flag="0"/>
      <psa10 value="0.0085591290" flag="0"/>
      <psa30 value="0.0010362622" flag="0"/>
    </comp>
    <comp name="--.HHN">
      <acc value="0.0066206579" flag="0"/>
      <vel value="0.0056787192" flag="0"/>
      <psa03 value="0.0186922646" flag="0"/>
      <psa10 value="0.0141708296" flag="0"/>
      <psa30 value="0.0010095739" flag="0"/>
    </comp>
  </station>
  <station code="BSSO" name="BSSO" netid="IV" insttype="" commtype="DIG" lat="41.5461" lon="14.5938">
    <comp name="--.HHZ">
      <acc value="0.0011843292" flag="0"/>
      <vel value="0.0021249154" flag="0"/>
      <psa03 value="0.0041577012" flag="0"/>
      <psa10 value="0.0032302129" flag="0"/>
      <psa30 value="0.0007208855" flag="0"/>
    </comp>
    <comp name="--.HHN">
      <acc value="0.0014720254" flag="0"/>
      <vel value="0.0029398595" flag="0"/>
      <psa03 value="0.0038213847" flag="0"/>
      <psa10 value="0.0042644656" flag="0"/>
      <psa30 value="0.0010465046" flag="0"/>
    </comp>
    <comp name="--.HHE">
      <acc value="0.0020547116" flag="0"/>
      <vel value="0.0033076701" flag="0"/>
      <psa03 value="0.0056424095" flag="0"/>
      <psa10 value="0.0062001172" flag="0"/>
      <psa30 value="0.0010658707" flag="0"/>
    </comp>
  </station>
  <station code="CAFE" name="CAFE" netid="IV" insttype="" commtype="DIG" lat="41.028" lon="15.2366">
    <comp name="--.HHE">
      <acc value="0.0036368031" flag="0"/>
      <vel value="0.0059062103" flag="0"/>
      <psa03 value="0.0079895343" flag="0"/>
      <psa10 value="0.0075931450" flag="0"/>
      <psa30 value="0.0014524761" flag="0"/>
    </comp>
    <comp name="--.HHN">
      <acc value="0.0048174422" flag="0"/>
      <vel value="0.0049555841" flag="0"/>
      <psa03 value="0.0066372234" flag="0"/>
      <psa10 value="0.0088952234" flag="0"/>
      <psa30 value="0.0009027991" flag="0"/>
    </comp>
    <comp name="--.HHZ">
      <acc value="0.0032906662" flag="0"/>
      <vel value="0.0037961564" flag="0"/>
      <psa03 value="0.0064754761" flag="0"/>
      <psa10 value="0.0035734562" flag="0"/>
      <psa30 value="0.0008355191" flag="0"/>
    </comp>
  </station>
  <station code="CAWE" name="CAWE" netid="IV" insttype="" commtype="DIG" lat="40.8405" lon="14.1393">
    <comp name="--.HNN">
      <acc value="32.1044859674" flag="0"/>
      <vel value="4.5774016362" flag="0"/>
      <psa03 value="10.7998495981" flag="0"/>
      <psa10 value="1.8151976138" flag="0"/>
      <psa30 value="0.2138443046" flag="0"/>
    </comp>
    <comp name="--.HNZ">
      <acc value="16.2420781531" flag="0"/>
      <vel value="2.4306152226" flag="0"/>
      <psa03 value="12.1321768947" flag="0"/>
      <psa10 value="0.6554270163" flag="0"/>
      <psa30 value="0.0745573101" flag="0"/>
    </comp>
    <comp name="--.HNE">
      <acc value="20.0223601842" flag="0"/>
      <vel value="3.2725704985" flag="0"/>
      <psa03 value="15.1840160080" flag="0"/>
      <psa10 value="2.3704240539" flag="0"/>
      <psa30 value="0.1151633498" flag="0"/>
    </comp>
  </station>
  <station code="CBAC" name="CBAC" netid="IV" insttype="" commtype="DIG" lat="40.8109" lon="14.0806">
    <comp name="--.HNN">
      <acc value="1.1356788570" flag="0"/>
      <vel value="0.7889223271" flag="0"/>
      <psa03 value="2.0076078373" flag="0"/>
      <psa10 value="1.9302506303" flag="0"/>
      <psa30 value="0.1055139095" flag="0"/>
    </comp>
    <comp name="--.HNE">
      <acc value="1.1711807889" flag="0"/>
      <vel value="1.0035232980" flag="0"/>
      <psa03 value="1.4825825102" flag="0"/>
      <psa10 value="1.6423981357" flag="0"/>
      <psa30 value="0.1200858532" flag="0"/>
    </comp>
    <comp name="--.HNZ">
      <acc value="1.5377544900" flag="0"/>
      <vel value="0.5375412345" flag="0"/>
      <psa03 value="1.4712938173" flag="0"/>
      <psa10 value="0.9205608989" flag="0"/>
      <psa30 value="0.0994465306" flag="0"/>
    </comp>
  </station>
  <station code="CDRU" name="CDRU" netid="IV" insttype="" commtype="DIG" lat="40.4896" lon="15.3046">
    <comp name="--.HHZ">
      <acc value="0.0019775803" flag="0"/>
      <vel value="0.0009896135" flag="0"/>
      <psa03 value="0.0053668828" flag="0"/>
      <psa10 value="0.0014199332" flag="0"/>
      <psa30 value="0.0003585242" flag="0"/>
    </comp>
    <comp name="--.HHE">
      <acc value="0.0042012136" flag="0"/>
      <vel value="0.0018744778" flag="0"/>
      <psa03 value="0.0073863242" flag="0"/>
      <psa10 value="0.0021141716" flag="0"/>
      <psa30 value="0.0003226727" flag="0"/>
    </comp>
    <comp name="--.HHN">
      <acc value="0.0021290587" flag="0"/>
      <vel value="0.0009863696" flag="0"/>
      <psa03 value="0.0061474260" flag="0"/>
      <psa10 value="0.0014882184" flag="0"/>
      <psa30 value="0.0003041625" flag="0"/>
    </comp>
  </station>
  <station code="CERA" name="CERA" netid="IV" insttype="" commtype="DIG" lat="41.5978" lon="14.0183">
    <comp name="--.HHE">
      <acc value="0.0031479993" flag="0"/>
      <vel value="0.0051745449" flag="0"/>
      <psa03 value="0.0088601075" flag="0"/>
      <psa10 value="0.0094104299" flag="0"/>
      <psa30 value="0.0010208430" flag="0"/>
    </comp>
    <comp name="--.HHN">
      <acc value="0.0023053729" flag="0"/>
      <vel value="0.0016978168" flag="0"/>
      <psa03 value="0.0070438692" flag="0"/>
      <psa10 value="0.0024052830" flag="0"/>
      <psa30 value="0.0002100459" flag="0"/>
    </comp>
    <comp name="--.HHZ">
      <acc value="0.0021406855" flag="0"/>
      <vel value="0.0031603826" flag="0"/>
      <psa03 value="0.0043524813" flag="0"/>
      <psa10 value="0.0066229622" flag="0"/>
      <psa30 value="0.0007496034" flag="0"/>
    </comp>
  </station>
  <station code="CFMN" name="CFMN" netid="IV" insttype="" commtype="DIG" lat="40.8329" lon="14.0904">
    <comp name="--.HNE">
      <acc value="1.9334517706" flag="0"/>
      <vel value="1.6052192469" flag="0"/>
      <psa03 value="3.2441785857" flag="0"/>
      <psa10 value="1.4346211204" flag="0"/>
      <psa30 value="0.1750005078" flag="0"/>
    </comp>
    <comp name="--.HNN">
      <acc value="2.5213126823" flag="0"/>
      <vel value="0.7652321644" flag="0"/>
      <psa03 value="2.6345774299" flag="0"/>
      <psa10 value="0.7002377832" flag="0"/>
      <psa30 value="0.1170067025" flag="0"/>
    </comp>
    <comp name="--.HNZ">
      <acc value="1.9234708415" flag="0"/>
      <vel value="0.5940273038" flag="0"/>
      <psa03 value="2.0671922105" flag="0"/>
      <psa10 value="0.9295054852" flag="0"/>
      <psa30 value="0.1127525672" flag="0"/>
    </comp>
  </station>
  <station code="CMIS" name="CMIS" netid="IV" insttype="" commtype="DIG" lat="40.7782" lon="14.089">
    <comp name="--.HNE">
      <acc value="1.3127830432" flag="0"/>
      <vel value="0.8540765693" flag="0"/>
      <psa03 value="3.4418071649" flag="0"/>
      <psa10 value="0.7780120909" flag="0"/>
      <psa30 value="0.0894961563" flag="0"/>
    </comp>
    <comp name="--.HNN">
      <acc value="1.2354201000" flag="0"/>
      <vel value="0.8403106822" flag="0"/>
      <psa03 value="2.5623630854" flag="0"/>
      <psa10 value="0.6964579592" flag="0"/>
      <psa30 value="0.0815573730" flag="0"/>
    </comp>
    <comp name="--.HNZ">
      <acc value="1.6156772403" flag="0"/>
      <vel value="0.4731135212" flag="0"/>
      <psa03 value="2.8537724725" flag="0"/>
      <psa10 value="0.5480708140" flag="0"/>
      <psa30 value="0.0297305238" flag="0"/>
    </comp>
  </station>
  <station code="CMPR" name="CMPR" netid="IV" insttype="" commtype="DIG" lat="40.3181" lon="15.303">
    <comp name="--.HHN">
      <acc value="0.0018611607" flag="0"/>
      <vel value="0.0010406596" flag="0"/>
      <psa03 value="0.0050599685" flag="0"/>
      <psa10 value="0.0022933682" flag="0"/>
      <psa30 value="0.0003490773" flag="0"/>
    </comp>
    <comp name="--.HHE">
      <acc value="0.0033543055" flag="0"/>
      <vel value="0.0023340572" flag="0"/>
      <psa03 value="0.0078630321" flag="0"/>
      <psa10 value="0.0022727331" flag="0"/>
      <psa30 value="0.0002543939" flag="0"/>
    </comp>
    <comp name="--.HHZ">
      <acc value="0.0013919937" flag="0"/>
      <vel value="0.0011089720" flag="0"/>
      <psa03 value="0.0034401572" flag="0"/>
      <psa10 value="0.0026621112" flag="0"/>
      <psa30 value="0.0003134880" flag="0"/>
    </comp>
  </station>
  <station code="CMSN" name="CMSN" netid="IV" insttype="" commtype="DIG" lat="40.8382" lon="14.1818">
    <comp name="--.HHE">
      <acc value="4.2118387499" flag="0"/>
      <vel value="1.3123385837" flag="0"/>
      <psa03 value="6.2935828521" flag="0"/>
      <psa10 value="1.3286222792" flag="0"/>
      <psa30 value="0.0935124561" flag="0"/>
    </comp>
    <comp name="--.HHN">
      <acc value="4.6062904913" flag="0"/>
      <vel value="1.3668528340" flag="0"/>
      <psa03 value="4.3554701092" flag="0"/>
      <psa10 value="1.1691353754" flag="0"/>
      <psa30 value="0.1055967349" flag="0"/>
    </comp>
    <comp name="--.HHZ">
      <acc value="3.4679400740" flag="0"/>
      <vel value="1.0117991134" flag="0"/>
      <psa03 value="3.9138371784" flag="0"/>
      <psa10 value="0.5159069891" flag="0"/>
      <psa30 value="0.0794411796" flag="0"/>
    </comp>
  </station>
  <station code="CNIS" name="CNIS" netid="IV" insttype="" commtype="DIG" lat="40.7982" lon="14.1632">
    <comp name="--.HNE">
      <acc value="6.3304739051" flag="0"/>
      <vel value="2.8443658998" flag="0"/>
      <psa03 value="9.5349860156" flag="0"/>
      <psa10 value="2.0983807746" flag="0"/>
      <psa30 value="0.1104945811" flag="0"/>
    </comp>
    <comp name="--.HNZ">
      <acc value="15.7993957965" flag="0"/>
      <vel value="1.8492545818" flag="0"/>
      <psa03 value="5.2717617517" flag="0"/>
      <psa10 value="1.9624924053" flag="0"/>
      <psa30 value="0.2070900102" flag="0"/>
    </comp>
    <comp name="--.HNN">
      <acc value="5.0674849743" flag="0"/>
      <vel value="1.4993278251" flag="0"/>
      <psa03 value="5.1601855752" flag="0"/>
      <psa10 value="1.9241033874" flag="0"/>
      <psa30 value="0.1480122436" flag="0"/>
    </comp>
  </station>
  <station code="CPOZ" name="CPOZ" netid="IV" insttype="" commtype="DIG" lat="40.8211" lon="14.1191">
    <comp name="--.HNE">
      <acc value="5.2443799371" flag="0"/>
      <vel value="2.5650726595" flag="0"/>
      <psa03 value="8.9773204946" flag="0"/>
      <psa10 value="3.3888325465" flag="0"/>
      <psa30 value="0.1950515749" flag="0"/>
    </comp>
    <comp name="--.HNN">
      <acc value="5.7530919200" flag="0"/>
      <vel value="1.7453173346" flag="0"/>
      <psa03 value="7.7764131887" flag="0"/>
      <psa10 value="1.1141491296" flag="0"/>
      <psa30 value="0.1731078695" flag="0"/>
    </comp>
    <comp name="--.HNZ">
      <acc value="4.4946239446" flag="0"/>
      <vel value="0.9488039369" flag="0"/>
      <psa03 value="2.6383863680" flag="0"/>
      <psa10 value="0.9864556589" flag="0"/>
      <psa30 value="0.0928241316" flag="0"/>
    </comp>
  </station>
  <station code="CQUE" name="CQUE" netid="IV" insttype="" commtype="DIG" lat="40.8854" lon="14.1554">
    <comp name="--.HHE">
      <acc value="0.4791473201" flag="0"/>
      <vel value="0.2774095747" flag="0"/>
      <psa03 value="1.7177054456" flag="0"/>
      <psa10 value="0.4408352380" flag="0"/>
      <psa30 value="0.0361287999" flag="0"/>
    </comp>
    <comp name="--.HHN">
      <acc value="0.5213065721" flag="0"/>
      <vel value="0.3247859388" flag="0"/>
      <psa03 value="1.6606044551" flag="0"/>
      <psa10 value="0.3606614574" flag="0"/>
      <psa30 value="0.0570467297" flag="0"/>
    </comp>
    <comp name="--.HHZ">
      <acc value="0.3254706254" flag="0"/>
      <vel value="0.2757278414" flag="0"/>
      <psa03 value="0.6378321245" flag="0"/>
      <psa10 value="0.2859076487" flag="0"/>
      <psa30 value="0.0322019359" flag="0"/>
    </comp>
  </station>
  <station code="CRTO" name="CRTO" netid="IV" insttype="" commtype="DIG" lat="40.8212" lon="14.4223">
    <comp name="--.HHE">
      <acc value="0.2982408656" flag="0"/>
      <vel value="0.1802160186" flag="0"/>
      <psa03 value="0.8998360555" flag="0"/>
      <psa10 value="0.3506688035" flag="0"/>
      <psa30 value="0.0166021086" flag="0"/>
    </comp>
    <comp name="--.HHN">
      <acc value="178.2475200159" flag="0"/>
      <vel value="9.9527951809" flag="0"/>
      <psa03 value="34.4896572599" flag="0"/>
      <psa10 value="11.7154025388" flag="0"/>
      <psa30 value="0.9889608914" flag="0"/>
    </comp>
    <comp name="--.HHZ">
      <acc value="0.0014964417" flag="0"/>
      <vel value="0.0000759276" flag="0"/>
      <psa03 value="0.0001347563" flag="0"/>
      <psa10 value="0.0000308961" flag="0"/>
      <psa30 value="0.0000058015" flag="0"/>
    </comp>
  </station>
  <station code="CSTH" name="CSTH" netid="IV" insttype="" commtype="DIG" lat="40.8294" lon="14.1493">
    <comp name="--.HNE">
      <acc value="37.0688734332" flag="0"/>
      <vel value="4.1400759355" flag="0"/>
      <psa03 value="12.4658773940" flag="0"/>
      <psa10 value="1.9664886253" flag="0"/>
      <psa30 value="0.1183289639" flag="0"/>
    </comp>
    <comp name="--.HNN">
      <acc value="47.0505072913" flag="0"/>
      <vel value="4.9851508746" flag="0"/>
      <psa03 value="12.3954660416" flag="0"/>
      <psa10 value="1.2649399332" flag="0"/>
      <psa30 value="0.1538681722" flag="0"/>
    </comp>
    <comp name="--.HNZ">
      <acc value="20.8865605656" flag="0"/>
      <vel value="2.6238938788" flag="0"/>
      <psa03 value="7.0495540995" flag="0"/>
      <psa10 value="0.7978385402" flag="0"/>
      <psa30 value="0.0718829587" flag="0"/>
    </comp>
  </station>
  <station code="CUMA" name="CUMA" netid="IV" insttype="" commtype="DIG" lat="40.8479" lon="14.0534">
    <comp name="--.HHN">
      <acc value="0.2169491477" flag="0"/>
      <vel value="0.2242884995" flag="0"/>
