<stationlist created="1741860124">
	<station code="ARL" name="ARL" netid="IT" source="Italian Strong Motion Network (RAN)" insttype="" lat="41.057" lon="14.5429">
		<comp name=".HNE" depth="0.0">
			<acc value="0.010137880817616" flag="0"/>
			<vel value="0.00503497740648" flag="0"/>
			<psa03 value="0.0233448876300878" flag="0"/>
			<psa10 value="0.00636563091055969" flag="0"/>
			<psa30 value="0.00180727868167426" flag="0"/>
		</comp>
		<comp name=".HNN" depth="0.0">
			<acc value="0.0085577103767616" flag="0"/>
			<vel value="0.00530979814932" flag="0"/>
			<psa03 value="0.0141401736962839" flag="0"/>
			<psa10 value="0.00608030404029364" flag="0"/>
			<psa30 value="0.00168183797601269" flag="0"/>
		</comp>
		<comp name=".HNZ" depth="0.0">
			<acc value="0.0054529424394594" flag="0"/>
			<vel value="0.00535811230792" flag="0"/>
			<psa03 value="0.0152031269242253" flag="0"/>
			<psa10 value="0.00559966985688511" flag="0"/>
			<psa30 value="0.00170396892124598" flag="0"/>
		</comp>
	</station>
	<station code="AVL" name="AVL" netid="IT" source="Italian Strong Motion Network (RAN)" insttype="" lat="40.9228" lon="14.787">
		<comp name=".HNE" depth="0.0">
			<acc value="0.0086304938056176" flag="0"/>
			<vel value="0.00721669074696" flag="0"/>
			<psa03 value="0.0251658025275615" flag="0"/>
			<psa10 value="0.00714274145281572" flag="0"/>
			<psa30 value="0.00485784389166633" flag="0"/>
		</comp>
		<comp name=".HNN" depth="0.0">
			<acc value="0.008205513867321" flag="0"/>
			<vel value="0.00685970922103" flag="0"/>
			<psa03 value="0.0287232986108904" flag="0"/>
			<psa10 value="0.0102389404670415" flag="0"/>
			<psa30 value="0.00219414055937905" flag="0"/>
		</comp>
		<comp name=".HNZ" depth="0.0">
			<acc value="0.0065904528763734" flag="0"/>
			<vel value="0.00646254048226" flag="0"/>
			<psa03 value="0.0147819219381224" flag="0"/>
			<psa10 value="0.00638786566475475" flag="0"/>
			<psa30 value="0.00227861823894428" flag="0"/>
		</comp>
	</station>
	<station code="AVZA" name="AVZA" netid="IT" source="Italian Strong Motion Network (RAN)" insttype="" lat="40.9291" lon="14.7667">
		<comp name=".HNE" depth="0.0">
			<acc value="0.022723877090766" flag="0"/>
			<vel value="0.0137203182061" flag="0"/>
			<psa03 value="0.0820626549982023" flag="0"/>
			<psa10 value="0.0197841281013798" flag="0"/>
			<psa30 value="0.00290270395655648" flag="0"/>
		</comp>
		<comp name=".HNN" depth="0.0">
			<acc value="0.026493700670676" flag="0"/>
			<vel value="0.0139044061724" flag="0"/>
			<psa03 value="0.0767233533789049" flag="0"/>
			<psa10 value="0.0183849872901929" flag="0"/>
			<psa30 value="0.00244450756162885" flag="0"/>
		</comp>
		<comp name=".HNZ" depth="0.0">
			<acc value="0.010360958048976" flag="0"/>
			<vel value="0.00745619095919" flag="0"/>
			<psa03 value="0.0255096325962775" flag="0"/>
			<psa10 value="0.0137954791952771" flag="0"/>
			<psa30 value="0.00188141400944365" flag="0"/>
		</comp>
	</station>
	<station code="BAIP" name="BAIP" netid="IT" source="Italian Strong Motion Network (RAN)" insttype="" lat="40.8183" lon="14.0705">
		<comp name=".HNE" depth="0.0">
			<acc value="1.3928997361524" flag="0"/>
			<vel value="0.477651151301" flag="0"/>
			<psa03 value="1.57559504210542" flag="0"/>
			<psa10 value="0.866055251910708" flag="0"/>
			<psa30 value="0.0850357865370196" flag="0"/>
		</comp>
		<comp name=".HNN" depth="0.0">
			<acc value="1.2222800262954" flag="0"/>
			<vel value="0.648619624836" flag="0"/>
			<psa03 value="2.18675636187552" flag="0"/>
			<psa10 value="0.549729956911929" flag="0"/>
			<psa30 value="0.0682000779205849" flag="0"/>
		</comp>
		<comp name=".HNZ" depth="0.0">
			<acc value="2.4497458420776" flag="0"/>
			<vel value="0.723286262882" flag="0"/>
			<psa03 value="2.91574382038303" flag="0"/>
			<psa10 value="0.764939793508513" flag="0"/>
			<psa30 value="0.0717824085654242" flag="0"/>
		</comp>
	</station>
	<station code="BAN" name="BAN" netid="IT" source="Italian Strong Motion Network (RAN)" insttype="" lat="40.8138" lon="14.1652">
		<comp name=".HNE" depth="0.0">
			<acc value="11.85533011983" flag="0"/>
			<vel value="5.8334525704" flag="0"/>
			<psa03 value="16.2696031146796" flag="0"/>
			<psa10 value="2.75831168461071" flag="0"/>
			<psa30 value="0.189025068649801" flag="0"/>
		</comp>
		<comp name=".HNN" depth="0.0">
			<acc value="16.015700460564" flag="0"/>
			<vel value="7.40179580141" flag="0"/>
			<psa03 value="19.7274855157665" flag="0"/>
			<psa10 value="6.84328437401111" flag="0"/>
			<psa30 value="0.57588737638044" flag="0"/>
		</comp>
		<comp name=".HNZ" depth="0.0">
			<acc value="17.607070965702" flag="0"/>
			<vel value="4.80541595703" flag="0"/>
			<psa03 value="20.8275597236095" flag="0"/>
			<psa10 value="2.07634562770706" flag="0"/>
			<psa30 value="0.19017259800116" flag="0"/>
		</comp>
	</station>
	<station code="BCLI" name="BCLI" netid="IT" source="Italian Strong Motion Network (RAN)" insttype="" lat="40.7968" lon="14.0777">
		<comp name=".HNE" depth="0.0">
			<acc value="2.5368858009624" flag="0"/>
			<vel value="1.46631275042" flag="0"/>
			<psa03 value="5.81436850673314" flag="0"/>
			<psa10 value="1.54385463279374" flag="0"/>
			<psa30 value="0.156479099305893" flag="0"/>
		</comp>
		<comp name=".HNN" depth="0.0">
			<acc value="2.0335563411888" flag="0"/>
			<vel value="1.46043408628" flag="0"/>
			<psa03 value="3.35706338897502" flag="0"/>
			<psa10 value="2.04198111122795" flag="0"/>
			<psa30 value="0.153146278522511" flag="0"/>
		</comp>
		<comp name=".HNZ" depth="0.0">
			<acc value="2.8713049203678" flag="0"/>
			<vel value="0.892666526406" flag="0"/>
			<psa03 value="4.65706484101413" flag="0"/>
			<psa10 value="0.780965595137241" flag="0"/>
			<psa30 value="0.0599684659498431" flag="0"/>
		</comp>
	</station>
	<station code="CNC" name="CNC" netid="IT" source="Italian Strong Motion Network (RAN)" insttype="" lat="41.0777" lon="14.025">
		<comp name=".HGE" depth="0.0">
			<acc value="0.049132182049212" flag="0"/>
			<vel value="0.124180328806" flag="0"/>
			<psa03 value="0.0857084694320589" flag="0"/>
			<psa10 value="0.150006427189651" flag="0"/>
			<psa30 value="0.030225805644629" flag="0"/>
		</comp>
		<comp name=".HGN" depth="0.0">
			<acc value="0.051080617394628" flag="0"/>
			<vel value="0.082859315721" flag="0"/>
			<psa03 value="0.100311124286298" flag="0"/>
			<psa10 value="0.122763392472348" flag="0"/>
			<psa30 value="0.027284249114261" flag="0"/>
		</comp>
		<comp name=".HGZ" depth="0.0">
			<acc value="0.02839223483649" flag="0"/>
			<vel value="0.0460012197755" flag="0"/>
			<psa03 value="0.0613799984152703" flag="0"/>
			<psa10 value="0.0458088983646866" flag="0"/>
			<psa30 value="0.0234259451872273" flag="0"/>
		</comp>
	</station>
	<station code="MPCD" name="MPCD" netid="IT" source="Italian Strong Motion Network (RAN)" insttype="" lat="40.7944" lon="14.0552">
		<comp name=".HNE" depth="0.0">
			<acc value="3.0967556624844" flag="0"/>
			<vel value="0.951283102156" flag="0"/>
			<psa03 value="4.21431717783028" flag="0"/>
			<psa10 value="0.748144860925344" flag="0"/>
			<psa30 value="0.0578068094175513" flag="0"/>
		</comp>
		<comp name=".HNN" depth="0.0">
			<acc value="3.0045809977572" flag="0"/>
			<vel value="0.623354700365" flag="0"/>
			<psa03 value="3.44321709623569" flag="0"/>
			<psa10 value="1.26628440512766" flag="0"/>
			<psa30 value="0.0896136231293225" flag="0"/>
		</comp>
		<comp name=".HNZ" depth="0.0">
			<acc value="2.9089511915682" flag="0"/>
			<vel value="1.03021680551" flag="0"/>
			<psa03 value="4.19118731225765" flag="0"/>
			<psa10 value="0.462809128835302" flag="0"/>
			<psa30 value="0.0504398113900486" flag="0"/>
		</comp>
	</station>
	<station code="MRT" name="MRT" netid="IT" source="Italian Strong Motion Network (RAN)" insttype="" lat="40.7901" lon="14.7529">
		<comp name=".HGE" depth="0.0">
			<acc value="0.039948474619002" flag="0"/>
			<vel value="0.019495684297" flag="0"/>
			<psa03 value="0.128575840434896" flag="0"/>
			<psa10 value="0.0190000580355808" flag="0"/>
			<psa30 value="0.00183247472578943" flag="0"/>
		</comp>
		<comp name=".HGN" depth="0.0">
			<acc value="0.039773937855828" flag="0"/>
			<vel value="0.0209766130406" flag="0"/>
			<psa03 value="0.116561054931153" flag="0"/>
			<psa10 value="0.0178969862124836" flag="0"/>
			<psa30 value="0.00115663891331925" flag="0"/>
		</comp>
		<comp name=".HGZ" depth="0.0">
			<acc value="0.04176272941077" flag="0"/>
			<vel value="0.012940228379" flag="0"/>
			<psa03 value="0.0665797907927567" flag="0"/>
			<psa10 value="0.00435753132130833" flag="0"/>
			<psa30 value="0.0013562912018012" flag="0"/>
		</comp>
	</station>
	<station code="NAAG" name="NAAG" netid="IT" source="Italian Strong Motion Network (RAN)" insttype="" lat="40.8334" lon="14.1657">
		<comp name=".HNE" depth="0.0">
			<acc value="5.8725154163244" flag="0"/>
			<vel value="1.89477502104" flag="0"/>
			<psa03 value="10.4885668160915" flag="0"/>
			<psa10 value="1.93642367856619" flag="0"/>
			<psa30 value="0.134914030725897" flag="0"/>
		</comp>
		<comp name=".HNN" depth="0.0">
			<acc value="6.9351008603916" flag="0"/>
			<vel value="2.80672354985" flag="0"/>
			<psa03 value="7.82616244487552" flag="0"/>
			<psa10 value="2.68311638329352" flag="0"/>
			<psa30 value="0.179110251841954" flag="0"/>
		</comp>
		<comp name=".HNZ" depth="0.0">
			<acc value="5.2355495295324" flag="0"/>
			<vel value="1.0007165919" flag="0"/>
			<psa03 value="2.99904067172505" flag="0"/>
			<psa10 value="0.569217747883519" flag="0"/>
			<psa30 value="0.0637071736210957" flag="0"/>
		</comp>
	</station>
	<station code="NACO" name="NACO" netid="IT" source="Italian Strong Motion Network (RAN)" insttype="" lat="40.8049" lon="14.1744">
		<comp name=".HNE" depth="0.0">
			<acc value="19.22463275697" flag="0"/>
			<vel value="7.03838213646" flag="0"/>
			<psa03 value="33.2249049868857" flag="0"/>
			<psa10 value="6.83073442262238" flag="0"/>
			<psa30 value="0.564775440268564" flag="0"/>
		</comp>
		<comp name=".HNN" depth="0.0">
			<acc value="7.3089437854848" flag="0"/>
			<vel value="3.41524957117" flag="0"/>
			<psa03 value="10.7939810482653" flag="0"/>
			<psa10 value="3.22484307002757" flag="0"/>
			<psa30 value="0.150921611149592" flag="0"/>
		</comp>
		<comp name=".HNZ" depth="0.0">
			<acc value="7.5590774787354" flag="0"/>
			<vel value="2.23081282496" flag="0"/>
			<psa03 value="8.24084658232418" flag="0"/>
			<psa10 value="2.66841012907506" flag="0"/>
			<psa30 value="0.19212090039995" flag="0"/>
		</comp>
	</station>
	<station code="NAD" name="NAD" netid="IT" source="Italian Strong Motion Network (RAN)" insttype="" lat="40.8717" lon="14.28">
		<comp name=".HNE" depth="0.0">
			<acc value="1.0213866953958" flag="0"/>
			<vel value="0.500477125597" flag="0"/>
			<psa03 value="2.82636656624809" flag="0"/>
			<psa10 value="0.484001182702691" flag="0"/>
			<psa30 value="0.0429933380976601" flag="0"/>
		</comp>
		<comp name=".HNN" depth="0.0">
			<acc value="1.2033367324104" flag="0"/>
			<vel value="0.38961811247" flag="0"/>
			<psa03 value="2.78729364452304" flag="0"/>
			<psa10 value="0.331768908061915" flag="0"/>
			<psa30 value="0.0384560841934985" flag="0"/>
		</comp>
		<comp name=".HNZ" depth="0.0">
			<acc value="0.78891597627222" flag="0"/>
			<vel value="0.253667589215" flag="0"/>
			<psa03 value="1.56718181810418" flag="0"/>
			<psa10 value="0.257029216924066" flag="0"/>
			<psa30 value="0.0426483219087066" flag="0"/>
		</comp>
	</station>
	<station code="NAFG" name="NAFG" netid="IT" source="Italian Strong Motion Network (RAN)" insttype="" lat="40.8202" lon="14.1786">
		<comp name=".HNE" depth="0.0">
			<acc value="18.053991852036" flag="0"/>
			<vel value="6.79061489206" flag="0"/>
			<psa03 value="14.5432954219615" flag="0"/>
			<psa10 value="4.13684636577395" flag="0"/>
			<psa30 value="0.314288100044268" flag="0"/>
		</comp>
		<comp name=".HNN" depth="0.0">
			<acc value="18.122076578982" flag="0"/>
			<vel value="4.5641749137" flag="0"/>
			<psa03 value="13.2239680229988" flag="0"/>
			<psa10 value="2.96346143477706" flag="0"/>
			<psa30 value="0.187179479721783" flag="0"/>
		</comp>
		<comp name=".HNZ" depth="0.0">
			<acc value="5.874407489223" flag="0"/>
			<vel value="1.73635276314" flag="0"/>
			<psa03 value="5.29777028460977" flag="0"/>
			<psa10 value="1.06963181785802" flag="0"/>
			<psa30 value="0.0741747337121672" flag="0"/>
		</comp>
	</station>
	<station code="NAP" name="NAP" netid="IT" source="Italian Strong Motion Network (RAN)" insttype="" lat="40.7992" lon="14.1796">
		<comp name=".HGE" depth="0.0">
			<acc value="16.60625534184" flag="0"/>
			<vel value="6.17351622379" flag="0"/>
			<psa03 value="18.8979092270576" flag="0"/>
			<psa10 value="4.24848976161199" flag="0"/>
			<psa30 value="0.391881320214219" flag="0"/>
		</comp>
		<comp name=".HGN" depth="0.0">
			<acc value="12.996957184026" flag="0"/>
			<vel value="3.41285020675" flag="0"/>
			<psa03 value="11.4898598134886" flag="0"/>
			<psa10 value="2.11604833781751" flag="0"/>
			<psa30 value="0.177496944968151" flag="0"/>
		</comp>
		<comp name=".HGZ" depth="0.0">
			<acc value="5.4058665935064" flag="0"/>
			<vel value="2.36251256539" flag="0"/>
			<psa03 value="9.55751047150772" flag="0"/>
			<psa10 value="2.92243839720102" flag="0"/>
			<psa30 value="0.152742758457997" flag="0"/>
		</comp>
	</station>
	<station code="PGMG" name="PGMG" netid="IT" source="Italian Strong Motion Network (RAN)" insttype="" lat="41.188" lon="14.1738">
		<comp name=".HNE" depth="0.0">
			<acc value="0.025932120258444" flag="0"/>
			<vel value="0.016920819135" flag="0"/>
			<psa03 value="0.0727208799013263" flag="0"/>
			<psa10 value="0.0291022972593679" flag="0"/>
			<psa30 value="0.00180898608644834" flag="0"/>
		</comp>
		<comp name=".HNN" depth="0.0">
			<acc value="0.026984066294304" flag="0"/>
			<vel value="0.0183523646635" flag="0"/>
			<psa03 value="0.0926037803793088" flag="0"/>
			<psa10 value="0.0269486027126799" flag="0"/>
			<psa30 value="0.00167115299735149" flag="0"/>
		</comp>
		<comp name=".HNZ" depth="0.0">
			<acc value="0.023376975818778" flag="0"/>
			<vel value="0.0125389232567" flag="0"/>
			<psa03 value="0.0658907920247884" flag="0"/>
			<psa10 value="0.00672483204960908" flag="0"/>
			<psa30 value="0.00111843794519308" flag="0"/>
		</comp>
	</station>
	<station code="POZB" name="POZB" netid="IT" source="Italian Strong Motion Network (RAN)" insttype="" lat="40.8401" lon="14.1012">
		<comp name=".HNE" depth="0.0">
			<acc value="3.0971952713766" flag="0"/>
			<vel value="1.98612031323" flag="0"/>
			<psa03 value="6.00859470659937" flag="0"/>
			<psa10 value="2.09448842958037" flag="0"/>
			<psa30 value="0.148281262906126" flag="0"/>
		</comp>
		<comp name=".HNN" depth="0.0">
			<acc value="2.1014430992826" flag="0"/>
			<vel value="0.878491791347" flag="0"/>
			<psa03 value="5.19280166429891" flag="0"/>
			<psa10 value="1.72473253506749" flag="0"/>
			<psa30 value="0.11009938021024" flag="0"/>
		</comp>
		<comp name=".HNZ" depth="0.0">
			<acc value="2.698129655499" flag="0"/>
			<vel value="0.941507698644" flag="0"/>
			<psa03 value="2.90354667905166" flag="0"/>
			<psa10 value="0.596487154347238" flag="0"/>
			<psa30 value="0.0679563351071915" flag="0"/>
		</comp>
	</station>
	<station code="POZL" name="POZL" netid="IT" source="Italian Strong Motion Network (RAN)" insttype="" lat="40.8321" lon="14.0843">
		<comp name=".HNE" depth="0.0">
			<acc value="1.7168296435338" flag="0"/>
			<vel value="1.74237871851" flag="0"/>
			<psa03 value="1.99647442330069" flag="0"/>
			<psa10 value="3.01259412957538" flag="0"/>
			<psa30 value="0.207077131176882" flag="0"/>
		</comp>
		<comp name=".HNN" depth="0.0">
			<acc value="1.154902783773" flag="0"/>
			<vel value="0.890505985097" flag="0"/>
			<psa03 value="1.70385987235436" flag="0"/>
			<psa10 value="1.22690511644295" flag="0"/>
			<psa30 value="0.150150986766065" flag="0"/>
		</comp>
		<comp name=".HNZ" depth="0.0">
			<acc value="3.2465643595368" flag="0"/>
			<vel value="0.786634751187" flag="0"/>
			<psa03 value="1.55333973446814" flag="0"/>
			<psa10 value="1.00391744460404" flag="0"/>
			<psa30 value="0.0931387833207867" flag="0"/>
		</comp>
	</station>
	<station code="POZM" name="POZM" netid="IT" source="Italian Strong Motion Network (RAN)" insttype="" lat="40.8239" lon="14.1435">
		<comp name=".HNE" depth="0.0">
			<acc value="35.872846268214" flag="0"/>
			<vel value="7.54730264794" flag="0"/>
			<psa03 value="15.736846488839" flag="0"/>
			<psa10 value="1.97117366058247" flag="0"/>
			<psa30 value="0.216106062632716" flag="0"/>
		</comp>
		<comp name=".HNN" depth="0.0">
			<acc value="30.5586370722" flag="0"/>
			<vel value="4.61519513293" flag="0"/>
			<psa03 value="16.7320084134312" flag="0"/>
			<psa10 value="1.9826590214308" flag="0"/>
			<psa30 value="0.223241922015017" flag="0"/>
		</comp>
		<comp name=".HNZ" depth="0.0">
			<acc value="19.0312485054" flag="0"/>
			<vel value="5.23337654707" flag="0"/>
			<psa03 value="15.4028803652482" flag="0"/>
			<psa10 value="1.75680357961595" flag="0"/>
			<psa30 value="0.141197940337371" flag="0"/>
		</comp>
	</station>
	<station code="POZS" name="POZS" netid="IT" source="Italian Strong Motion Network (RAN)" insttype="" lat="40.8288" lon="14.13">
		<comp name=".HNE" depth="0.0">
			<acc value="24.393274833438" flag="0"/>
			<vel value="4.3086206055" flag="0"/>
			<psa03 value="16.2562822322657" flag="0"/>
			<psa10 value="1.06443451356198" flag="0"/>
			<psa30 value="0.0983075257245404" flag="0"/>
		</comp>
		<comp name=".HNN" depth="0.0">
			<acc value="18.75197801187" flag="0"/>
			<vel value="6.42283058323" flag="0"/>
			<psa03 value="20.6940802145794" flag="0"/>
			<psa10 value="2.74075524158408" flag="0"/>
			<psa30 value="0.198762673718478" flag="0"/>
		</comp>
		<comp name=".HNZ" depth="0.0">
			<acc value="11.86724983218" flag="0"/>
			<vel value="2.01721291612" flag="0"/>
			<psa03 value="9.76325743454875" flag="0"/>
			<psa10 value="0.854260870591888" flag="0"/>
			<psa30 value="0.0689734491525602" flag="0"/>
		</comp>
	</station>
	<station code="POZT" name="POZT" netid="IT" source="Italian Strong Motion Network (RAN)" insttype="" lat="40.8208" lon="14.121">
		<comp name=".HNE" depth="0.0">
			<acc value="6.8809715962614" flag="0"/>
			<vel value="3.94334929886" flag="0"/>
			<psa03 value="16.7766313694962" flag="0"/>
			<psa10 value="3.9603905164341" flag="0"/>
			<psa30 value="0.260492883041613" flag="0"/>
		</comp>
		<comp name=".HNN" depth="0.0">
			<acc value="8.0206516872114" flag="0"/>
			<vel value="1.90544317545" flag="0"/>
			<psa03 value="5.32802928910406" flag="0"/>
			<psa10 value="1.30557740809554" flag="0"/>
			<psa30 value="0.213667607763573" flag="0"/>
		</comp>
		<comp name=".HNZ" depth="0.0">
			<acc value="6.107236688796" flag="0"/>
			<vel value="1.44652747226" flag="0"/>
			<psa03 value="6.06913205021666" flag="0"/>
			<psa10 value="1.66105511674756" flag="0"/>
			<psa30 value="0.117701477145405" flag="0"/>
		</comp>
	</station>
	<station code="POZU" name="POZU" netid="IT" source="Italian Strong Motion Network (RAN)" insttype="" lat="40.8558" lon="14.1208">
		<comp name=".HNE" depth="0.0">
			<acc value="2.8071410413734" flag="0"/>
			<vel value="1.53515189575" flag="0"/>
			<psa03 value="6.99428133682808" flag="0"/>
			<psa10 value="1.83971059179761" flag="0"/>
			<psa30 value="0.0948976198349724" flag="0"/>
		</comp>
		<comp name=".HNN" depth="0.0">
			<acc value="2.7987065624946" flag="0"/>
			<vel value="1.56487320776" flag="0"/>
			<psa03 value="5.77498589781607" flag="0"/>
			<psa10 value="1.2507802180523" flag="0"/>
			<psa30 value="0.104201416165681" flag="0"/>
		</comp>
		<comp name=".HNZ" depth="0.0">
			<acc value="2.1354895705812" flag="0"/>
			<vel value="0.830294868882" flag="0"/>
			<psa03 value="4.28544222284698" flag="0"/>
			<psa10 value="1.76914483716215" flag="0"/>
			<psa30 value="0.0621182350281656" flag="0"/>
		</comp>
	</station>
