<?xml version="1.0" encoding="UTF-8" standalone="yes"?>
<!DOCTYPE earthquake SYSTEM "stationlist.dtd">
<stationlist created="" xmlns="ch.ethz.sed.shakemap.usgs.xml">
  <station code="KRTS" name="KRTS" netid="KO" insttype="CMG-5T" lat="36.573" lon="35.375">
    <comp name="--.HNN">
      <acc value="0.0309081595" flag="0"/>
      <vel value="0.0149782216" flag="0"/>
      <psa03 value="0.0769569533" flag="0"/>
      <psa10 value="0.0202299925" flag="0"/>
      <psa30 value="0.0017301597" flag="0"/>
    </comp>
    <comp name="--.HNE">
      <acc value="0.0341454328" flag="0"/>
      <vel value="0.0128707934" flag="0"/>
      <psa03 value="0.0550189369" flag="0"/>
      <psa10 value="0.0106019394" flag="0"/>
      <psa30 value="0.0007965638" flag="0"/>
    </comp>
    <comp name="--.HNZ">
      <acc value="0.0415706518" flag="0"/>
      <vel value="0.0097184400" flag="0"/>
      <psa03 value="0.0620723371" flag="0"/>
      <psa10 value="0.0079821110" flag="0"/>
      <psa30 value="0.0010775736" flag="0"/>
    </comp>
  </station>
  <station code="TAHT" name="TAHT" netid="KO" insttype="CMG-3ESPC" lat="36.3755" lon="36.1855">
    <comp name="--.HHZ">
      <acc value="0.4020067780" flag="0"/>
      <vel value="0.0767393242" flag="0"/>
      <psa03 value="0.3304095604" flag="0"/>
      <psa10 value="0.0168600074" flag="0"/>
      <psa30 value="0.0012070037" flag="0"/>
    </comp>
  </station>
</stationlist>
