<?xml version="1.0" encoding="UTF-8" standalone="yes"?>
<!DOCTYPE earthquake SYSTEM "stationlist.dtd">
<stationlist created="" xmlns="ch.ethz.sed.shakemap.usgs.xml">
  <station code="APRC" name="APRC" netid="IV" insttype="" lat="41.7574" lon="15.5431">
    <comp name="--.HHZ">
      <acc value="0.3243475484" flag="0"/>
      <vel value="0.0480442241" flag="0"/>
      <psa03 value="0.1498653495" flag="0"/>
      <psa10 value="0.0107698630" flag="0"/>
      <psa30 value="0.0013641864" flag="0"/>
    </comp>
    <comp name="--.HHE">
      <acc value="0.4812787738" flag="0"/>
      <vel value="0.0669055474" flag="0"/>
      <psa03 value="0.1484783941" flag="0"/>
      <psa10 value="0.0182600657" flag="0"/>
      <psa30 value="0.0015248473" flag="0"/>
    </comp>
    <comp name="--.HHN">
      <acc value="0.3974866149" flag="0"/>
      <vel value="0.0827247652" flag="0"/>
      <psa03 value="0.3153721360" flag="0"/>
      <psa10 value="0.0180712676" flag="0"/>
      <psa30 value="0.0011247596" flag="0"/>
    </comp>
  </station>
  <station code="BIOG" name="BIOG" netid="IV" insttype="" lat="41.1999" lon="15.1326">
    <comp name="--.HHE">
      <acc value="0.0076437565" flag="0"/>
      <vel value="0.0065476121" flag="0"/>
      <psa03 value="0.0184085509" flag="0"/>
      <psa10 value="0.0129280965" flag="0"/>
      <psa30 value="0.0010197227" flag="0"/>
    </comp>
    <comp name="--.HHN">
      <acc value="0.0076911005" flag="0"/>
      <vel value="0.0063097976" flag="0"/>
      <psa03 value="0.0166510655" flag="0"/>
      <psa10 value="0.0180235414" flag="0"/>
      <psa30 value="0.0013699062" flag="0"/>
    </comp>
    <comp name="--.HHZ">
      <acc value="0.0086267749" flag="0"/>
      <vel value="0.0040296094" flag="0"/>
      <psa03 value="0.0142784955" flag="0"/>
      <psa10 value="0.0079574837" flag="0"/>
      <psa30 value="0.0007170858" flag="0"/>
    </comp>
  </station>
  <station code="BSSO" name="BSSO" netid="IV" insttype="" lat="41.5461" lon="14.5938">
    <comp name="--.HHE">
      <acc value="0.0052208142" flag="0"/>
      <vel value="0.0018411273" flag="0"/>
      <psa03 value="0.0120984021" flag="0"/>
      <psa10 value="0.0019975320" flag="0"/>
      <psa30 value="0.0003414017" flag="0"/>
    </comp>
    <comp name="--.HHN">
      <acc value="0.0049861551" flag="0"/>
      <vel value="0.0020835664" flag="0"/>
      <psa03 value="0.0095464009" flag="0"/>
      <psa10 value="0.0017919754" flag="0"/>
      <psa30 value="0.0002514810" flag="0"/>
    </comp>
    <comp name="--.HHZ">
      <acc value="0.0048351248" flag="0"/>
      <vel value="0.0014716772" flag="0"/>
      <psa03 value="0.0078920075" flag="0"/>
      <psa10 value="0.0013681147" flag="0"/>
      <psa30 value="0.0001469118" flag="0"/>
    </comp>
  </station>
  <station code="CAFE" name="CAFE" netid="IV" insttype="" lat="41.028" lon="15.2366">
    <comp name="--.HHE">
      <acc value="0.0167955248" flag="0"/>
      <vel value="0.0060396655" flag="0"/>
      <psa03 value="0.0328296201" flag="0"/>
      <psa10 value="0.0050687758" flag="0"/>
      <psa30 value="0.0004035218" flag="0"/>
    </comp>
    <comp name="--.HHN">
      <acc value="0.0105644842" flag="0"/>
      <vel value="0.0047622108" flag="0"/>
      <psa03 value="0.0153560830" flag="0"/>
      <psa10 value="0.0031231543" flag="0"/>
      <psa30 value="0.0003120302" flag="0"/>
    </comp>
    <comp name="--.HHZ">
      <acc value="0.0074272314" flag="0"/>
      <vel value="0.0025272818" flag="0"/>
      <psa03 value="0.0127347345" flag="0"/>
      <psa10 value="0.0020596220" flag="0"/>
      <psa30 value="0.0001886847" flag="0"/>
    </comp>
  </station>
  <station code="CAPA" name="CAPA" netid="IV" insttype="" lat="41.1583" lon="15.8169">
    <comp name="--.HHE">
      <acc value="0.0328098789" flag="0"/>
      <vel value="0.0082959275" flag="0"/>
      <psa03 value="0.0226007983" flag="0"/>
      <psa10 value="0.0111811079" flag="0"/>
      <psa30 value="0.0007295195" flag="0"/>
    </comp>
    <comp name="--.HHN">
      <acc value="0.0480326934" flag="0"/>
      <vel value="0.0098733955" flag="0"/>
      <psa03 value="0.0186034332" flag="0"/>
      <psa10 value="0.0126751902" flag="0"/>
      <psa30 value="0.0008021536" flag="0"/>
    </comp>
    <comp name="--.HHZ">
      <acc value="0.0292816709" flag="0"/>
      <vel value="0.0056866317" flag="0"/>
      <psa03 value="0.0219302040" flag="0"/>
      <psa10 value="0.0071721421" flag="0"/>
      <psa30 value="0.0003426394" flag="0"/>
    </comp>
  </station>
  <station code="CERA" name="CERA" netid="IV" insttype="" lat="41.5978" lon="14.0183">
    <comp name="--.HHE">
      <acc value="0.0029355305" flag="0"/>
      <vel value="0.0022891295" flag="0"/>
      <psa03 value="0.0088903672" flag="0"/>
      <psa10 value="0.0029983649" flag="0"/>
      <psa30 value="0.0001510648" flag="0"/>
    </comp>
    <comp name="--.HHN">
      <acc value="0.0032013326" flag="0"/>
      <vel value="0.0027409480" flag="0"/>
      <psa03 value="0.0071022189" flag="0"/>
      <psa10 value="0.0027027707" flag="0"/>
      <psa30 value="0.0001782177" flag="0"/>
    </comp>
    <comp name="--.HHZ">
      <acc value="0.0017473115" flag="0"/>
      <vel value="0.0013372336" flag="0"/>
      <psa03 value="0.0041437980" flag="0"/>
      <psa10 value="0.0024823086" flag="0"/>
      <psa30 value="0.0000834168" flag="0"/>
    </comp>
  </station>
  <station code="CIGN" name="CIGN" netid="IV" insttype="" lat="41.6542" lon="14.905">
    <comp name="--.HHE">
      <acc value="0.0087769146" flag="0"/>
      <vel value="0.0032820276" flag="0"/>
      <psa03 value="0.0105871194" flag="0"/>
      <psa10 value="0.0039506369" flag="0"/>
      <psa30 value="0.0003988200" flag="0"/>
    </comp>
    <comp name="--.HHN">
      <acc value="0.0089237370" flag="0"/>
      <vel value="0.0039363534" flag="0"/>
      <psa03 value="0.0150442306" flag="0"/>
      <psa10 value="0.0031658935" flag="0"/>
      <psa30 value="0.0003256286" flag="0"/>
    </comp>
    <comp name="--.HHZ">
      <acc value="0.0101877994" flag="0"/>
      <vel value="0.0040530647" flag="0"/>
      <psa03 value="0.0122352751" flag="0"/>
      <psa10 value="0.0034970255" flag="0"/>
      <psa30 value="0.0002981350" flag="0"/>
    </comp>
  </station>
  <station code="GATE" name="GATE" netid="IV" insttype="" lat="41.5131" lon="14.9102">
    <comp name="--.HHE">
      <acc value="0.0115711425" flag="0"/>
      <vel value="0.0059481273" flag="0"/>
      <psa03 value="0.0355441757" flag="0"/>
      <psa10 value="0.0045803942" flag="0"/>
      <psa30 value="0.0004181551" flag="0"/>
    </comp>
    <comp name="--.HHN">
      <acc value="0.0139104741" flag="0"/>
      <vel value="0.0058530258" flag="0"/>
      <psa03 value="0.0251459819" flag="0"/>
      <psa10 value="0.0063591738" flag="0"/>
      <psa30 value="0.0004929796" flag="0"/>
    </comp>
    <comp name="--.HHZ">
      <acc value="0.0149839942" flag="0"/>
      <vel value="0.0035680341" flag="0"/>
      <psa03 value="0.0155688328" flag="0"/>
      <psa10 value="0.0027873769" flag="0"/>
      <psa30 value="0.0002485832" flag="0"/>
    </comp>
  </station>
  <station code="INTR" name="INTR" netid="IV" insttype="" lat="42.0115" lon="13.9046">
    <comp name="--.HHE">
      <acc value="0.0085196299" flag="0"/>
      <vel value="0.0029895059" flag="0"/>
      <psa03 value="0.0138730023" flag="0"/>
      <psa10 value="0.0036200336" flag="0"/>
      <psa30 value="0.0001625647" flag="0"/>
    </comp>
    <comp name="--.HHN">
      <acc value="0.0125118565" flag="0"/>
      <vel value="0.0047576405" flag="0"/>
      <psa03 value="0.0159252413" flag="0"/>
      <psa10 value="0.0055143864" flag="0"/>
      <psa30 value="0.0002227886" flag="0"/>
    </comp>
    <comp name="--.HHZ">
      <acc value="0.0123492237" flag="0"/>
      <vel value="0.0031062954" flag="0"/>
      <psa03 value="0.0138197110" flag="0"/>
      <psa10 value="0.0018383418" flag="0"/>
      <psa30 value="0.0001066525" flag="0"/>
    </comp>
  </station>
  <station code="LPEL" name="LPEL" netid="IV" insttype="" lat="42.0468" lon="14.1832">
    <comp name="--.HHE">
      <acc value="0.0410203273" flag="0"/>
      <vel value="0.0078744661" flag="0"/>
      <psa03 value="0.0306035627" flag="0"/>
      <psa10 value="0.0035834495" flag="0"/>
      <psa30 value="0.0002371083" flag="0"/>
    </comp>
    <comp name="--.HHN">
      <acc value="0.0431845388" flag="0"/>
      <vel value="0.0084288199" flag="0"/>
      <psa03 value="0.0438776241" flag="0"/>
      <psa10 value="0.0038762791" flag="0"/>
      <psa30 value="0.0002063928" flag="0"/>
    </comp>
    <comp name="--.HHZ">
      <acc value="0.0294875862" flag="0"/>
      <vel value="0.0057905589" flag="0"/>
      <psa03 value="0.0130345961" flag="0"/>
      <psa10 value="0.0022064292" flag="0"/>
      <psa30 value="0.0002495964" flag="0"/>
    </comp>
  </station>
  <station code="MCRV" name="MCRV" netid="IV" insttype="" lat="40.7826" lon="15.1684">
    <comp name="--.HHE">
      <acc value="0.0100224578" flag="0"/>
      <vel value="0.0030363724" flag="0"/>
      <psa03 value="0.0144623910" flag="0"/>
      <psa10 value="0.0020717728" flag="0"/>
      <psa30 value="0.0001282223" flag="0"/>
    </comp>
    <comp name="--.HHN">
      <acc value="0.0142886144" flag="0"/>
      <vel value="0.0036687914" flag="0"/>
      <psa03 value="0.0161230127" flag="0"/>
      <psa10 value="0.0015005541" flag="0"/>
      <psa30 value="0.0001092211" flag="0"/>
    </comp>
    <comp name="--.HHZ">
      <acc value="0.0070687682" flag="0"/>
      <vel value="0.0016002458" flag="0"/>
      <psa03 value="0.0094345810" flag="0"/>
      <psa10 value="0.0005835329" flag="0"/>
      <psa30 value="0.0000577054" flag="0"/>
    </comp>
  </station>
  <station code="MELA" name="MELA" netid="IV" insttype="" lat="41.7059" lon="15.127">
    <comp name="--.HHE">
      <acc value="0.1995076277" flag="0"/>
      <vel value="0.0577006944" flag="0"/>
      <psa03 value="0.1517769645" flag="0"/>
      <psa10 value="0.0397662947" flag="0"/>
      <psa30 value="0.0026688880" flag="0"/>
    </comp>
    <comp name="--.HHN">
      <acc value="0.2549769294" flag="0"/>
      <vel value="0.0759662871" flag="0"/>
      <psa03 value="0.1875038521" flag="0"/>
      <psa10 value="0.0305140018" flag="0"/>
      <psa30 value="0.0025763853" flag="0"/>
    </comp>
    <comp name="--.HHZ">
      <acc value="0.2520039984" flag="0"/>
      <vel value="0.0201409638" flag="0"/>
      <psa03 value="0.0689837835" flag="0"/>
      <psa10 value="0.0063935181" flag="0"/>
      <psa30 value="0.0009322229" flag="0"/>
    </comp>
  </station>
  <station code="MIDA" name="MIDA" netid="IV" insttype="" lat="41.6419" lon="14.254">
    <comp name="--.HHE">
      <acc value="0.0123766560" flag="0"/>
      <vel value="0.0031881339" flag="0"/>
      <psa03 value="0.0199984232" flag="0"/>
      <psa10 value="0.0014998245" flag="0"/>
      <psa30 value="0.0001715465" flag="0"/>
    </comp>
    <comp name="--.HHN">
      <acc value="0.0135718281" flag="0"/>
      <vel value="0.0035957281" flag="0"/>
      <psa03 value="0.0184082182" flag="0"/>
      <psa10 value="0.0020625809" flag="0"/>
      <psa30 value="0.0003222654" flag="0"/>
    </comp>
    <comp name="--.HHZ">
      <acc value="0.0093529334" flag="0"/>
      <vel value="0.0024560422" flag="0"/>
      <psa03 value="0.0143713288" flag="0"/>
      <psa10 value="0.0011714641" flag="0"/>
      <psa30 value="0.0001821745" flag="0"/>
    </comp>
  </station>
  <station code="MOCO" name="MOCO" netid="IV" insttype="" lat="41.37" lon="15.158">
    <comp name="--.HHE">
      <acc value="0.0117656631" flag="0"/>
      <vel value="0.0064169505" flag="0"/>
      <psa03 value="0.0215898860" flag="0"/>
      <psa10 value="0.0055610513" flag="0"/>
      <psa30 value="0.0004510032" flag="0"/>
    </comp>
    <comp name="--.HHN">
      <acc value="0.0096901528" flag="0"/>
      <vel value="0.0035278961" flag="0"/>
      <psa03 value="0.0240056803" flag="0"/>
      <psa10 value="0.0036294111" flag="0"/>
      <psa30 value="0.0004695515" flag="0"/>
    </comp>
    <comp name="--.HHZ">
      <acc value="0.0084295210" flag="0"/>
      <vel value="0.0026116530" flag="0"/>
      <psa03 value="0.0090299806" flag="0"/>
      <psa10 value="0.0022050878" flag="0"/>
      <psa30 value="0.0003250496" flag="0"/>
    </comp>
  </station>
  <station code="MRB1" name="MRB1" netid="IV" insttype="" lat="41.1227" lon="14.9681">
    <comp name="--.HHE">
      <acc value="0.0101280363" flag="0"/>
      <vel value="0.0067556194" flag="0"/>
      <psa03 value="0.0198700199" flag="0"/>
      <psa10 value="0.0109719689" flag="0"/>
      <psa30 value="0.0004670724" flag="0"/>
    </comp>
    <comp name="--.HHN">
      <acc value="0.0087690900" flag="0"/>
      <vel value="0.0071980248" flag="0"/>
      <psa03 value="0.0236767896" flag="0"/>
      <psa10 value="0.0079714691" flag="0"/>
      <psa30 value="0.0004774702" flag="0"/>
    </comp>
    <comp name="--.HHZ">
      <acc value="0.0064010522" flag="0"/>
      <vel value="0.0020915559" flag="0"/>
      <psa03 value="0.0122115188" flag="0"/>
      <psa10 value="0.0028123496" flag="0"/>
      <psa30 value="0.0001233609" flag="0"/>
    </comp>
  </station>
  <station code="MRLC" name="MRLC" netid="IV" insttype="" lat="40.7564" lon="15.4889">
    <comp name="--.HHE">
      <acc value="0.0072957027" flag="0"/>
      <vel value="0.0030502413" flag="0"/>
      <psa03 value="0.0141766283" flag="0"/>
      <psa10 value="0.0024974164" flag="0"/>
      <psa30 value="0.0001279069" flag="0"/>
    </comp>
    <comp name="--.HHN">
      <acc value="0.0068409581" flag="0"/>
      <vel value="0.0030838384" flag="0"/>
      <psa03 value="0.0111505431" flag="0"/>
      <psa10 value="0.0020150094" flag="0"/>
      <psa30 value="0.0001445553" flag="0"/>
    </comp>
    <comp name="--.HHZ">
      <acc value="0.0030256237" flag="0"/>
      <vel value="0.0010735981" flag="0"/>
      <psa03 value="0.0048193032" flag="0"/>
      <psa10 value="0.0009875077" flag="0"/>
      <psa30 value="0.0000678300" flag="0"/>
    </comp>
  </station>
  <station code="MRVN" name="MRVN" netid="IV" insttype="" lat="41.0609" lon="16.1958">
    <comp name="--.HHE">
      <acc value="0.0511516801" flag="0"/>
      <vel value="0.0082981356" flag="0"/>
      <psa03 value="0.0205700195" flag="0"/>
      <psa10 value="0.0029255112" flag="0"/>
      <psa30 value="0.0002356739" flag="0"/>
    </comp>
    <comp name="--.HHN">
      <acc value="0.0685378230" flag="0"/>
      <vel value="0.0117658891" flag="0"/>
      <psa03 value="0.0273961912" flag="0"/>
      <psa10 value="0.0032705810" flag="0"/>
      <psa30 value="0.0002057322" flag="0"/>
    </comp>
    <comp name="--.HHZ">
      <acc value="0.0278562404" flag="0"/>
      <vel value="0.0044785895" flag="0"/>
      <psa03 value="0.0146739320" flag="0"/>
      <psa10 value="0.0015184050" flag="0"/>
      <psa30 value="0.0001384409" flag="0"/>
    </comp>
  </station>
  <station code="MSAG" name="MSAG" netid="IV" insttype="" lat="41.712" lon="15.9096">
    <comp name="--.HHE">
      <acc value="0.0529263109" flag="0"/>
      <vel value="0.0120024441" flag="0"/>
      <psa03 value="0.0491452380" flag="0"/>
      <psa10 value="0.0053759092" flag="0"/>
      <psa30 value="0.0003450766" flag="0"/>
    </comp>
    <comp name="--.HHN">
      <acc value="0.0773369689" flag="0"/>
      <vel value="0.0220894180" flag="0"/>
      <psa03 value="0.1674924305" flag="0"/>
      <psa10 value="0.0079812880" flag="0"/>
      <psa30 value="0.0005067479" flag="0"/>
    </comp>
    <comp name="--.HHZ">
      <acc value="0.0389142880" flag="0"/>
      <vel value="0.0059377992" flag="0"/>
      <psa03 value="0.0253040372" flag="0"/>
      <psa10 value="0.0034502201" flag="0"/>
      <psa30 value="0.0003286338" flag="0"/>
    </comp>
  </station>
  <station code="PALZ" name="PALZ" netid="IV" insttype="" lat="40.9441" lon="15.9602">
    <comp name="--.HHE">
      <acc value="0.0184439863" flag="0"/>
      <vel value="0.0051969631" flag="0"/>
      <psa03 value="0.0276397366" flag="0"/>
      <psa10 value="0.0070273488" flag="0"/>
      <psa30 value="0.0003550744" flag="0"/>
    </comp>
    <comp name="--.HHN">
      <acc value="0.0233048394" flag="0"/>
      <vel value="0.0068454377" flag="0"/>
      <psa03 value="0.0304203707" flag="0"/>
      <psa10 value="0.0082138556" flag="0"/>
      <psa30 value="0.0004839787" flag="0"/>
    </comp>
    <comp name="--.HHZ">
      <acc value="0.0223608123" flag="0"/>
      <vel value="0.0063502621" flag="0"/>
      <psa03 value="0.0256179628" flag="0"/>
      <psa10 value="0.0044309287" flag="0"/>
      <psa30 value="0.0002531175" flag="0"/>
    </comp>
  </station>
  <station code="PAOL" name="PAOL" netid="IV" insttype="" lat="41.0312" lon="14.5675">
    <comp name="--.HHE">
      <acc value="0.0032660085" flag="0"/>
      <vel value="0.0017231018" flag="0"/>
      <psa03 value="0.0108323698" flag="0"/>
      <psa10 value="0.0014727180" flag="0"/>
      <psa30 value="0.0001321637" flag="0"/>
    </comp>
    <comp name="--.HHZ">
      <acc value="0.0018146620" flag="0"/>
      <vel value="0.0008770429" flag="0"/>
      <psa03 value="0.0047023326" flag="0"/>
      <psa10 value="0.0006248569" flag="0"/>
      <psa30 value="0.0000626654" flag="0"/>
    </comp>
    <comp name="--.HHN">
      <acc value="0.0048333867" flag="0"/>
      <vel value="0.0019534034" flag="0"/>
      <psa03 value="0.0114643848" flag="0"/>
      <psa10 value="0.0017565906" flag="0"/>
      <psa30 value="0.0000934903" flag="0"/>
    </comp>
  </station>
  <station code="PIGN" name="PIGN" netid="IV" insttype="" lat="41.2" lon="14.1799">
    <comp name="--.HHE">
      <acc value="0.0025509784" flag="0"/>
      <vel value="0.0010345948" flag="0"/>
      <psa03 value="0.0041849660" flag="0"/>
      <psa10 value="0.0011139440" flag="0"/>
      <psa30 value="0.0001236236" flag="0"/>
    </comp>
    <comp name="--.HHN">
      <acc value="0.0018388326" flag="0"/>
      <vel value="0.0009335287" flag="0"/>
      <psa03 value="0.0029317287" flag="0"/>
      <psa10 value="0.0008448977" flag="0"/>
      <psa30 value="0.0001111334" flag="0"/>
    </comp>
    <comp name="--.HHZ">
      <acc value="0.0012559827" flag="0"/>
      <vel value="0.0005572292" flag="0"/>
      <psa03 value="0.0022410629" flag="0"/>
      <psa10 value="0.0004134245" flag="0"/>
      <psa30 value="0.0001083700" flag="0"/>
    </comp>
  </station>
  <station code="PSB1" name="PSB1" netid="IV" insttype="" lat="41.2234" lon="14.8108">
    <comp name="--.HHE">
      <acc value="0.0052784225" flag="0"/>
      <vel value="0.0023337333" flag="0"/>
      <psa03 value="0.0134540320" flag="0"/>
      <psa10 value="0.0031930039" flag="0"/>
      <psa30 value="0.0002426159" flag="0"/>
    </comp>
    <comp name="--.HHN">
      <acc value="0.0054550925" flag="0"/>
      <vel value="0.0034958732" flag="0"/>
      <psa03 value="0.0209133561" flag="0"/>
      <psa10 value="0.0019288240" flag="0"/>
      <psa30 value="0.0001955032" flag="0"/>
    </comp>
    <comp name="--.HHZ">
      <acc value="0.0051910806" flag="0"/>
      <vel value="0.0020641194" flag="0"/>
      <psa03 value="0.0067944395" flag="0"/>
      <psa10 value="0.0014741420" flag="0"/>
      <psa30 value="0.0000961757" flag="0"/>
    </comp>
  </station>
  <station code="PTRJ" name="PTRJ" netid="IV" insttype="" lat="41.3641" lon="14.529">
    <comp name="--.HHE">
      <acc value="0.0001860189" flag="0"/>
      <vel value="0.0000146671" flag="0"/>
      <psa03 value="0.0000735670" flag="0"/>
      <psa10 value="0.0000110107" flag="0"/>
      <psa30 value="0.0000021910" flag="0"/>
    </comp>
    <comp name="--.HHN">
      <acc value="0.0065101846" flag="0"/>
      <vel value="0.0028527886" flag="0"/>
      <psa03 value="0.0218410367" flag="0"/>
      <psa10 value="0.0025525872" flag="0"/>
      <psa30 value="0.0001396785" flag="0"/>
    </comp>
