<stationlist created="1778069336">
	<station code="ARI" name="ARI" netid="IT" source="Italian Strong Motion Network (RAN)" insttype="" lat="41.1546" lon="15.0903">
		<comp name="--.HGE" depth="0.0">
			<acc value="0.02132871" flag="0"/>
			<vel value="0.007736" flag="0"/>
			<psa03 value="0.0346752101291606" flag="0"/>
			<psa10 value="0.00713548711148198" flag="0"/>
			<psa30 value="0.00071945468242181" flag="0"/>
		</comp>
		<comp name="--.HGN" depth="0.0">
			<acc value="0.019668456" flag="0"/>
			<vel value="0.007925" flag="0"/>
			<psa03 value="0.0374939691461117" flag="0"/>
			<psa10 value="0.00657978890528304" flag="0"/>
			<psa30 value="0.000399995327167349" flag="0"/>
		</comp>
		<comp name="--.HGZ" depth="0.0">
			<acc value="0.018801762" flag="0"/>
			<vel value="0.005551" flag="0"/>
			<psa03 value="0.0269795505908179" flag="0"/>
			<psa10 value="0.00321338527932428" flag="0"/>
			<psa30 value="0.000301115050540969" flag="0"/>
		</comp>
	</station>
	<station code="ARR" name="ARR" netid="IT" source="Italian Strong Motion Network (RAN)" insttype="" lat="41.1418" lon="15.0819">
		<comp name="--.HNE" depth="0.0">
			<acc value="0.017141712" flag="0"/>
			<vel value="0.011571" flag="0"/>
			<psa03 value="0.043131487180014" flag="0"/>
			<psa10 value="0.0120159670094031" flag="0"/>
			<psa30 value="0.000996856363455095" flag="0"/>
		</comp>
		<comp name="--.HNN" depth="0.0">
			<acc value="0.01883226" flag="0"/>
			<vel value="0.005675" flag="0"/>
			<psa03 value="0.0249661512929956" flag="0"/>
			<psa10 value="0.00838379467613176" flag="0"/>
			<psa30 value="0.000548539453140012" flag="0"/>
		</comp>
		<comp name="--.HNZ" depth="0.0">
			<acc value="0.010614732" flag="0"/>
			<vel value="0.004417" flag="0"/>
			<psa03 value="0.0152570924568307" flag="0"/>
			<psa10 value="0.00684958441119122" flag="0"/>
			<psa30 value="0.000450106598579814" flag="0"/>
		</comp>
	</station>
	<station code="ASR" name="ASR" netid="IT" source="Italian Strong Motion Network (RAN)" insttype="" lat="41.199" lon="15.563">
		<comp name="--.HNE" depth="0.0">
			<acc value="0.214007934" flag="0"/>
			<vel value="0.034624" flag="0"/>
			<psa03 value="0.0672475365472625" flag="0"/>
			<psa10 value="0.00688582559855202" flag="0"/>
			<psa30 value="0.00112571391851572" flag="0"/>
		</comp>
		<comp name="--.HNN" depth="0.0">
			<acc value="0.202444806" flag="0"/>
			<vel value="0.027511" flag="0"/>
			<psa03 value="0.0607151743809948" flag="0"/>
			<psa10 value="0.00680126282804349" flag="0"/>
			<psa30 value="0.00103667692734536" flag="0"/>
		</comp>
		<comp name="--.HNZ" depth="0.0">
			<acc value="0.105988098" flag="0"/>
			<vel value="0.01916" flag="0"/>
			<psa03 value="0.0685898027458106" flag="0"/>
			<psa10 value="0.0101998808427674" flag="0"/>
			<psa30 value="0.000621916671993977" flag="0"/>
		</comp>
	</station>
	<station code="BVN" name="BVN" netid="IT" source="Italian Strong Motion Network (RAN)" insttype="" lat="41.249" lon="15.3422">
		<comp name="--.HGE" depth="0.0">
			<acc value="0.03189948" flag="0"/>
			<vel value="0.011475" flag="0"/>
			<psa03 value="0.0387914931380416" flag="0"/>
			<psa10 value="0.0117340911077079" flag="0"/>
			<psa30 value="0.000564199225456407" flag="0"/>
		</comp>
		<comp name="--.HGN" depth="0.0">
			<acc value="0.041360796" flag="0"/>
			<vel value="0.010537" flag="0"/>
			<psa03 value="0.060088783488339" flag="0"/>
			<psa10 value="0.00561738404092402" flag="0"/>
			<psa30 value="0.000514087954043942" flag="0"/>
		</comp>
		<comp name="--.HGZ" depth="0.0">
			<acc value="0.033064116" flag="0"/>
			<vel value="0.006631" flag="0"/>
			<psa03 value="0.0371807736997838" flag="0"/>
			<psa10 value="0.00494088187685575" flag="0"/>
			<psa30 value="0.000378519067990579" flag="0"/>
		</comp>
	</station>
	<station code="CAN" name="CAN" netid="IT" source="Italian Strong Motion Network (RAN)" insttype="" lat="41.2032" lon="15.4754">
		<comp name="--.HNE" depth="0.0">
			<acc value="0.194537562" flag="0"/>
			<vel value="0.044819" flag="0"/>
			<psa03 value="0.106799647197815" flag="0"/>
			<psa10 value="0.0181528080691652" flag="0"/>
			<psa30 value="0.00143085576765233" flag="0"/>
		</comp>
		<comp name="--.HNN" depth="0.0">
			<acc value="0.180194628" flag="0"/>
			<vel value="0.040057" flag="0"/>
			<psa03 value="0.154852777105839" flag="0"/>
			<psa10 value="0.0115730191638822" flag="0"/>
			<psa30 value="0.000826388556239479" flag="0"/>
		</comp>
		<comp name="--.HNZ" depth="0.0">
			<acc value="0.055757994" flag="0"/>
			<vel value="0.010662" flag="0"/>
			<psa03 value="0.0565541491654955" flag="0"/>
			<psa10 value="0.0120803957869334" flag="0"/>
			<psa30 value="0.000437578780726698" flag="0"/>
		</comp>
	</station>
	<station code="CDM" name="CDM" netid="IT" source="Italian Strong Motion Network (RAN)" insttype="" lat="42.0033" lon="14.1994">
		<comp name="--.HGE" depth="0.0">
			<acc value="0.00531369" flag="0"/>
			<vel value="0.0032" flag="0"/>
			<psa03 value="0.012841013299444" flag="0"/>
			<psa10 value="0.00424424571980926" flag="0"/>
			<psa30 value="0.00074585258432659" flag="0"/>
		</comp>
		<comp name="--.HGN" depth="0.0">
			<acc value="0.007547898" flag="0"/>
			<vel value="0.005381" flag="0"/>
			<psa03 value="0.0126173022663526" flag="0"/>
			<psa10 value="0.00822272273230598" flag="0"/>
			<psa30 value="0.000638918710508921" flag="0"/>
		</comp>
		<comp name="--.HGZ" depth="0.0">
			<acc value="0.007931826" flag="0"/>
			<vel value="0.003894" flag="0"/>
			<psa03 value="0.00863524587732645" flag="0"/>
			<psa10 value="0.00622543062886633" flag="0"/>
			<psa30 value="0.000461292150234382" flag="0"/>
		</comp>
	</station>
	<station code="CER" name="CER" netid="IT" source="Italian Strong Motion Network (RAN)" insttype="" lat="41.2595" lon="15.9101">
		<comp name="--.HGE" depth="0.0">
			<acc value="0.139722864" flag="0"/>
			<vel value="0.029269" flag="0"/>
			<psa03 value="0.0893501866166887" flag="0"/>
			<psa10 value="0.0193165528633065" flag="0"/>
			<psa30 value="0.00127873226515021" flag="0"/>
		</comp>
		<comp name="--.HGN" depth="0.0">
			<acc value="0.14015463" flag="0"/>
			<vel value="0.028748" flag="0"/>
			<psa03 value="0.066352692414897" flag="0"/>
			<psa10 value="0.0134938020940046" flag="0"/>
			<psa30 value="0.000767776265569543" flag="0"/>
		</comp>
		<comp name="--.HGZ" depth="0.0">
			<acc value="0.088746018" flag="0"/>
			<vel value="0.014214" flag="0"/>
			<psa03 value="0.0445632377917987" flag="0"/>
			<psa10 value="0.00717172829884278" flag="0"/>
			<psa30 value="0.000446527222050352" flag="0"/>
		</comp>
	</station>
	<station code="CMR" name="CMR" netid="IT" source="Italian Strong Motion Network (RAN)" insttype="" lat="41.8334" lon="14.712">
		<comp name="--.HNE" depth="0.0">
			<acc value="0.02565351" flag="0"/>
			<vel value="0.00605" flag="0"/>
			<psa03 value="0.025189862326087" flag="0"/>
			<psa10 value="0.00519457018838135" flag="0"/>
			<psa30 value="0.000443395267587073" flag="0"/>
		</comp>
		<comp name="--.HNN" depth="0.0">
			<acc value="0.02732682" flag="0"/>
			<vel value="0.007639" flag="0"/>
			<psa03 value="0.0272032616239092" flag="0"/>
			<psa10 value="0.00524289177152908" flag="0"/>
			<psa30 value="0.000353463432284347" flag="0"/>
		</comp>
		<comp name="--.HNZ" depth="0.0">
			<acc value="0.020360628" flag="0"/>
			<vel value="0.004277" flag="0"/>
			<psa03 value="0.0130199821259171" flag="0"/>
			<psa10 value="0.00272211585065565" flag="0"/>
			<psa30 value="0.000204919306311685" flag="0"/>
		</comp>
	</station>
	<station code="CNM" name="CNM" netid="IT" source="Italian Strong Motion Network (RAN)" insttype="" lat="41.6182" lon="15.1045">
		<comp name="--.HNE" depth="0.0">
			<acc value="0.034310658" flag="0"/>
			<vel value="0.010763" flag="0"/>
			<psa03 value="0.0279638791364198" flag="0"/>
			<psa10 value="0.00972874540707701" flag="0"/>
			<psa30 value="0.00136195276946019" flag="0"/>
		</comp>
		<comp name="--.HNN" depth="0.0">
			<acc value="0.034383384" flag="0"/>
			<vel value="0.009991" flag="0"/>
			<psa03 value="0.061744245133215" flag="0"/>
			<psa10 value="0.010397193973954" flag="0"/>
			<psa30 value="0.00125770342803962" flag="0"/>
		</comp>
		<comp name="--.HNZ" depth="0.0">
			<acc value="0.031877244" flag="0"/>
			<vel value="0.009175" flag="0"/>
			<psa03 value="0.0349884055754885" flag="0"/>
			<psa10 value="0.0101354520652371" flag="0"/>
			<psa30 value="0.000702900065973049" flag="0"/>
		</comp>
	</station>
	<station code="FOGG" name="FOGG" netid="IT" source="Italian Strong Motion Network (RAN)" insttype="" lat="41.4589" lon="15.5562">
		<comp name="--.HNE" depth="0.0">
			<acc value="0.167524392" flag="0"/>
			<vel value="0.031608" flag="0"/>
			<psa03 value="0.0826388556239479" flag="0"/>
			<psa10 value="0.0170333580595761" flag="0"/>
			<psa30 value="0.00133108064689358" flag="0"/>
		</comp>
		<comp name="--.HNN" depth="0.0">
			<acc value="0.121830942" flag="0"/>
			<vel value="0.023346" flag="0"/>
			<psa03 value="0.0551671407603291" flag="0"/>
			<psa10 value="0.0118267074754078" flag="0"/>
			<psa30 value="0.000939138916917524" flag="0"/>
		</comp>
		<comp name="--.HNZ" depth="0.0">
			<acc value="0.10561386" flag="0"/>
			<vel value="0.016509" flag="0"/>
			<psa03 value="0.0405811814027725" flag="0"/>
			<psa10 value="0.0100508892947286" flag="0"/>
			<psa30 value="0.000851444191945711" flag="0"/>
		</comp>
	</station>
	<station code="GLNS" name="GLNS" netid="IT" source="Italian Strong Motion Network (RAN)" insttype="" lat="41.912" lon="14.9182">
		<comp name="--.HNE" depth="0.0">
			<acc value="0.081590004" flag="0"/>
			<vel value="0.025242" flag="0"/>
			<psa03 value="0.124472818812032" flag="0"/>
			<psa10 value="0.0210561298566249" flag="0"/>
			<psa30 value="0.00159013802321338" flag="0"/>
		</comp>
		<comp name="--.HNN" depth="0.0">
			<acc value="0.103866294" flag="0"/>
			<vel value="0.0255" flag="0"/>
			<psa03 value="0.128589101820913" flag="0"/>
			<psa10 value="0.0193044724675195" flag="0"/>
			<psa30 value="0.00126217764870145" flag="0"/>
		</comp>
		<comp name="--.HNZ" depth="0.0">
			<acc value="0.228625146" flag="0"/>
			<vel value="0.035641" flag="0"/>
			<psa03 value="0.0714980461759983" flag="0"/>
			<psa10 value="0.0112790628664001" flag="0"/>
			<psa30 value="0.000841153484423509" flag="0"/>
		</comp>
	</station>
	<station code="GNL" name="GNL" netid="IT" source="Italian Strong Motion Network (RAN)" insttype="" lat="40.8433" lon="16.0331">
		<comp name="--.HGE" depth="0.0">
			<acc value="0.07870473" flag="0"/>
			<vel value="0.014544" flag="0"/>
			<psa03 value="0.109170984148583" flag="0"/>
			<psa10 value="0.00914888640930421" flag="0"/>
			<psa30 value="0.000861734899467914" flag="0"/>
		</comp>
		<comp name="--.HGN" depth="0.0">
			<acc value="0.076879338" flag="0"/>
			<vel value="0.021002" flag="0"/>
			<psa03 value="0.131273634218009" flag="0"/>
			<psa10 value="0.0136911152251912" flag="0"/>
			<psa30 value="0.00072616601341455" flag="0"/>
		</comp>
		<comp name="--.HGZ" depth="0.0">
			<acc value="0.044325834" flag="0"/>
			<vel value="0.006752" flag="0"/>
			<psa03 value="0.0343172724762144" flag="0"/>
			<psa10 value="0.00593147433138429" flag="0"/>
			<psa30 value="0.000343620146828327" flag="0"/>
		</comp>
	</station>
	<station code="GRD" name="GRD" netid="IT" source="Italian Strong Motion Network (RAN)" insttype="" lat="42.1785" lon="14.1798">
		<comp name="--.HNE" depth="0.0">
			<acc value="0.042965358" flag="0"/>
			<vel value="0.009963" flag="0"/>
			<psa03 value="0.0203129618046954" flag="0"/>
			<psa10 value="0.00355566315995406" flag="0"/>
			<psa30 value="0.000265768707312534" flag="0"/>
		</comp>
		<comp name="--.HNN" depth="0.0">
			<acc value="0.031428852" flag="0"/>
			<vel value="0.00592" flag="0"/>
			<psa03 value="0.0201339929782223" flag="0"/>
			<psa10 value="0.00265768707312534" flag="0"/>
			<psa30 value="0.000277401681033285" flag="0"/>
		</comp>
		<comp name="--.HNZ" depth="0.0">
			<acc value="0.014963706" flag="0"/>
			<vel value="0.00301" flag="0"/>
			<psa03 value="0.0119014269604603" flag="0"/>
			<psa10 value="0.00270600865627308" flag="0"/>
			<psa30 value="0.000207603838708781" flag="0"/>
		</comp>
	</station>
	<station code="GRO" name="GRO" netid="IT" source="Italian Strong Motion Network (RAN)" insttype="" lat="40.6002" lon="16.3856">
		<comp name="--.HGE" depth="0.0">
			<acc value="0.049632996" flag="0"/>
			<vel value="0.010892" flag="0"/>
			<psa03 value="0.0481426143212604" flag="0"/>
			<psa10 value="0.00694220077889105" flag="0"/>
			<psa30 value="0.000601782679015755" flag="0"/>
		</comp>
		<comp name="--.HGN" depth="0.0">
			<acc value="0.02868291" flag="0"/>
			<vel value="0.010239" flag="0"/>
			<psa03 value="0.0377176801792031" flag="0"/>
			<psa10 value="0.0169004737059198" flag="0"/>
			<psa30 value="0.000631759957449997" flag="0"/>
		</comp>
		<comp name="--.HGZ" depth="0.0">
			<acc value="0.029253192" flag="0"/>
			<vel value="0.006586" flag="0"/>
			<psa03 value="0.0369570626666925" flag="0"/>
			<psa10 value="0.00422411172683104" flag="0"/>
			<psa30 value="0.000649656840097306" flag="0"/>
		</comp>
	</station>
	<station code="GSS" name="GSS" netid="IT" source="Italian Strong Motion Network (RAN)" insttype="" lat="40.6316" lon="16.2791">
		<comp name="--.HGE" depth="0.0">
			<acc value="0.062093418" flag="0"/>
			<vel value="0.013" flag="0"/>
			<psa03 value="0.0528852882227972" flag="0"/>
			<psa10 value="0.00671670005753496" flag="0"/>
			<psa30 value="0.000615205341001236" flag="0"/>
		</comp>
		<comp name="--.HGN" depth="0.0">
			<acc value="0.093977904" flag="0"/>
			<vel value="0.014878" flag="0"/>
			<psa03 value="0.0510061155448298" flag="0"/>
			<psa10 value="0.00761064934576803" flag="0"/>
			<psa30 value="0.000748984538789869" flag="0"/>
		</comp>
		<comp name="--.HGZ" depth="0.0">
			<acc value="0.046530258" flag="0"/>
			<vel value="0.009207" flag="0"/>
			<psa03 value="0.0335119127570855" flag="0"/>
			<psa10 value="0.00423216532402233" flag="0"/>
			<psa30 value="0.000388809775512781" flag="0"/>
		</comp>
	</station>
	<station code="LDP" name="LDP" netid="IT" source="Italian Strong Motion Network (RAN)" insttype="" lat="42.0392" lon="14.1826">
		<comp name="--.HNE" depth="0.0">
			<acc value="0.05502747" flag="0"/>
			<vel value="0.009515" flag="0"/>
			<psa03 value="0.0315879978724999" flag="0"/>
			<psa10 value="0.00521470418135957" flag="0"/>
			<psa30 value="0.000389257197578964" flag="0"/>
		</comp>
		<comp name="--.HNN" depth="0.0">
			<acc value="0.07446663" flag="0"/>
			<vel value="0.020523" flag="0"/>
			<psa03 value="0.0772250486231371" flag="0"/>
			<psa10 value="0.00882271572305701" flag="0"/>
			<psa30 value="0.000547197186941463" flag="0"/>
		</comp>
		<comp name="--.HNZ" depth="0.0">
			<acc value="0.039381792" flag="0"/>
			<vel value="0.011854" flag="0"/>
			<psa03 value="0.0307378959467527" flag="0"/>
			<psa10 value="0.00405498618581397" flag="0"/>
			<psa30 value="0.000342277880629779" flag="0"/>
		</comp>
	</station>
	<station code="LRNO" name="LRNO" netid="IT" source="Italian Strong Motion Network (RAN)" insttype="" lat="41.8066" lon="14.9201">
		<comp name="--.HNE" depth="0.0">
			<acc value="0.060367578" flag="0"/>
			<vel value="0.019075" flag="0"/>
			<psa03 value="0.0493506538999538" flag="0"/>
			<psa10 value="0.00837574107894047" flag="0"/>
			<psa30 value="0.000831310198967489" flag="0"/>
		</comp>
		<comp name="--.HNN" depth="0.0">
			<acc value="0.049086174" flag="0"/>
			<vel value="0.009797" flag="0"/>
			<psa03 value="0.0236238850944475" flag="0"/>
			<psa10 value="0.00867775097361381" flag="0"/>
			<psa30 value="0.000719007260355627" flag="0"/>
		</comp>
		<comp name="--.HNZ" depth="0.0">
			<acc value="0.068870808" flag="0"/>
			<vel value="0.009006" flag="0"/>
			<psa03 value="0.0323038731783922" flag="0"/>
			<psa10 value="0.00572208080441077" flag="0"/>
			<psa30 value="0.000462186994366747" flag="0"/>
		</comp>
	</station>
	<station code="LSN" name="LSN" netid="IT" source="Italian Strong Motion Network (RAN)" insttype="" lat="41.8526" lon="15.3601">
		<comp name="--.HGE" depth="0.0">
			<acc value="2.491139778" flag="0"/>
			<vel value="0.471485" flag="0"/>
			<psa03 value="2.66475634177103" flag="0"/>
			<psa10 value="0.170913439593533" flag="0"/>
			<psa30 value="0.0131962664199931" flag="0"/>
		</comp>
		<comp name="--.HGN" depth="0.0">
			<acc value="4.061701098" flag="0"/>
			<vel value="0.668114" flag="0"/>
			<psa03 value="1.1675478817038" flag="0"/>
			<psa10 value="0.1021598803715" flag="0"/>
			<psa30 value="0.00688090395582401" flag="0"/>
		</comp>
		<comp name="--.HGZ" depth="0.0">
			<acc value="0.467466204" flag="0"/>
			<vel value="0.09474" flag="0"/>
			<psa03 value="0.40102439791957" flag="0"/>
			<psa10 value="0.0353512648711627" flag="0"/>
			<psa30 value="0.00243934510482818" flag="0"/>
		</comp>
	</station>
	<station code="MCLF" name="MCLF" netid="IT" source="Italian Strong Motion Network (RAN)" insttype="" lat="41.9016" lon="14.8374">
		<comp name="--.HNE" depth="0.0">
			<acc value="0.046382358" flag="0"/>
			<vel value="0.013647" flag="0"/>
			<psa03 value="0.0392836574108426" flag="0"/>
			<psa10 value="0.00474759554426481" flag="0"/>
			<psa30 value="0.000742273207797128" flag="0"/>
		</comp>
		<comp name="--.HNN" depth="0.0">
			<acc value="0.037843122" flag="0"/>
			<vel value="0.011614" flag="0"/>
			<psa03 value="0.0459055039903468" flag="0"/>
			<psa10 value="0.00622945742746198" flag="0"/>
			<psa30 value="0.000505586934786471" flag="0"/>
		</comp>
		<comp name="--.HNZ" depth="0.0">
			<acc value="0.030989334" flag="0"/>
			<vel value="0.007293" flag="0"/>
			<psa03 value="0.0382993288652406" flag="0"/>
			<psa10 value="0.00600395670610589" flag="0"/>
			<psa30 value="0.000373597425262569" flag="0"/>
		</comp>
	</station>
	<station code="MLF" name="MLF" netid="IT" source="Italian Strong Motion Network (RAN)" insttype="" lat="40.9971" lon="15.6459">
		<comp name="--.HNE" depth="0.0">
			<acc value="0.055055214" flag="0"/>
			<vel value="0.012855" flag="0"/>
			<psa03 value="0.0386125243115685" flag="0"/>
			<psa10 value="0.00551671407603291" flag="0"/>
			<psa30 value="0.000368675782534559" flag="0"/>
		</comp>
		<comp name="--.HNN" depth="0.0">
			<acc value="0.073574946" flag="0"/>
			<vel value="0.012825" flag="0"/>
			<psa03 value="0.0257715110121245" flag="0"/>
			<psa10 value="0.007191862291821" flag="0"/>
			<psa30 value="0.000490374584536258" flag="0"/>
		</comp>
		<comp name="--.HNZ" depth="0.0">
			<acc value="0.037430736" flag="0"/>
			<vel value="0.006704" flag="0"/>
			<psa03 value="0.0244739870201947" flag="0"/>
			<psa10 value="0.00297177736358561" flag="0"/>
			<psa30 value="0.000300220206408603" flag="0"/>
		</comp>
	</station>
	<station code="MND" name="MND" netid="IT" source="Italian Strong Motion Network (RAN)" insttype="" lat="41.6396" lon="15.8907">
		<comp name="--.HGE" depth="0.0">
			<acc value="0.12638871" flag="0"/>
			<vel value="0.019329" flag="0"/>
			<psa03 value="0.0435341670395784" flag="0"/>
			<psa10 value="0.00585496515806704" flag="0"/>
			<psa30 value="0.000448764332381266" flag="0"/>
		</comp>
		<comp name="--.HGN" depth="0.0">
			<acc value="0.103359456" flag="0"/>
			<vel value="0.026013" flag="0"/>
			<psa03 value="0.113242524950846" flag="0"/>
			<psa10 value="0.0152655934760881" flag="0"/>
			<psa30 value="0.0011002108607433" flag="0"/>
		</comp>
		<comp name="--.HGZ" depth="0.0">
			<acc value="0.077888322" flag="0"/>
			<vel value="0.01186" flag="0"/>
			<psa03 value="0.0700215533575953" flag="0"/>
			<psa10 value="0.00767910492189398" flag="0"/>
			<psa30 value="0.000815650426651094" flag="0"/>
		</comp>
	</station>
	<station code="MNG" name="MNG" netid="IT" source="Italian Strong Motion Network (RAN)" insttype="" lat="41.7032" lon="15.959">
		<comp name="--.HNE" depth="0.0">
			<acc value="0.272058378" flag="0"/>
			<vel value="0.042368" flag="0"/>
