<?xml version="1.0" encoding="UTF-8" standalone="yes"?>
<!DOCTYPE earthquake SYSTEM "stationlist.dtd">
<stationlist created="" xmlns="ch.ethz.sed.shakemap.usgs.xml">
  <station code="APE" name="APE" netid="GE" insttype="STS-2/N" lat="37.0727" lon="25.523">
    <comp name="--.HHN">
      <acc value="0.2878378134" flag="0"/>
      <vel value="0.0411337060" flag="0"/>
      <psa03 value="0.1301206496" flag="0"/>
      <psa10 value="0.0098803102" flag="0"/>
      <psa30 value="0.0027762487" flag="0"/>
    </comp>
    <comp name="--.HHZ">
      <acc value="0.1196729519" flag="0"/>
      <vel value="0.0213230119" flag="0"/>
      <psa03 value="0.0851976855" flag="0"/>
      <psa10 value="0.0128351530" flag="0"/>
      <psa30 value="0.0023761851" flag="0"/>
    </comp>
    <comp name="--.HHE">
      <acc value="0.2599305863" flag="0"/>
      <vel value="0.0393298573" flag="0"/>
      <psa03 value="0.2713289733" flag="0"/>
      <psa10 value="0.0091964539" flag="0"/>
      <psa30 value="0.0031342288" flag="0"/>
    </comp>
  </station>
  <station code="THERA" name="THERA" netid="GE" insttype="STS-2/N" lat="36.367" lon="25.4753">
    <comp name="--.HHE">
      <acc value="0.2384753235" flag="0"/>
      <vel value="0.0618692299" flag="0"/>
      <psa03 value="0.4489181077" flag="0"/>
      <psa10 value="0.0206858251" flag="0"/>
      <psa30 value="0.0035168838" flag="0"/>
    </comp>
    <comp name="--.HHN">
      <acc value="0.1710113369" flag="0"/>
      <vel value="0.0518478785" flag="0"/>
      <psa03 value="0.3195203645" flag="0"/>
      <psa10 value="0.0126101192" flag="0"/>
      <psa30 value="0.0012988183" flag="0"/>
    </comp>
    <comp name="--.HHZ">
      <acc value="0.2114890520" flag="0"/>
      <vel value="0.0535691820" flag="0"/>
      <psa03 value="0.2480326697" flag="0"/>
      <psa10 value="0.0133725624" flag="0"/>
      <psa30 value="0.0033261643" flag="0"/>
    </comp>
  </station>
  <station code="SERI" name="SERI" netid="HA" insttype="30" lat="37.1609" lon="24.4853">
    <comp name="--.HHZ">
      <acc value="0.0630476185" flag="0"/>
      <vel value="0.0210284213" flag="0"/>
      <psa03 value="0.0598806898" flag="0"/>
      <psa10 value="0.0098895478" flag="0"/>
      <psa30 value="0.0016754318" flag="0"/>
    </comp>
    <comp name="--.HHN">
      <acc value="0.0777942919" flag="0"/>
      <vel value="0.0229540510" flag="0"/>
      <psa03 value="0.1007953377" flag="0"/>
      <psa10 value="0.0125098031" flag="0"/>
      <psa30 value="0.0017171335" flag="0"/>
    </comp>
    <comp name="--.HHE">
      <acc value="0.0657474689" flag="0"/>
      <vel value="0.0155076679" flag="0"/>
      <psa03 value="0.0536351535" flag="0"/>
      <psa10 value="0.0072180706" flag="0"/>
      <psa30 value="0.0010869460" flag="0"/>
    </comp>
  </station>
  <station code="SNT1" name="SNT1" netid="HA" insttype="30" lat="36.4159" lon="25.4282">
    <comp name="--.HHE">
      <acc value="0.2788350141" flag="0"/>
      <vel value="0.0802592535" flag="0"/>
      <psa03 value="0.5906424727" flag="0"/>
      <psa10 value="0.0610457727" flag="0"/>
      <psa30 value="0.0104622136" flag="0"/>
    </comp>
    <comp name="--.HHN">
      <acc value="0.3355641854" flag="0"/>
      <vel value="0.1318076126" flag="0"/>
      <psa03 value="0.6200075992" flag="0"/>
      <psa10 value="0.0708715080" flag="0"/>
      <psa30 value="0.0139349509" flag="0"/>
    </comp>
    <comp name="--.HHZ">
      <acc value="0.1957329503" flag="0"/>
      <vel value="0.0658226177" flag="0"/>
      <psa03 value="0.3766326857" flag="0"/>
      <psa10 value="0.0276202793" flag="0"/>
      <psa30 value="0.0050385132" flag="0"/>
    </comp>
  </station>
  <station code="HER1" name="HER1" netid="HI" insttype="unknown" lat="35.3177" lon="25.1022">
    <comp name="--.HNE">
      <acc value="0.0422579735" flag="0"/>
      <vel value="0.0232761291" flag="0"/>
      <psa03 value="0.1244214480" flag="0"/>
      <psa10 value="0.0266917405" flag="0"/>
      <psa30 value="0.0030436656" flag="0"/>
    </comp>
    <comp name="--.HNZ">
      <acc value="0.0291261543" flag="0"/>
      <vel value="0.0169538823" flag="0"/>
      <psa03 value="0.1029090010" flag="0"/>
      <psa10 value="0.0139823753" flag="0"/>
      <psa30 value="0.0010883117" flag="0"/>
    </comp>
  </station>
  <station code="NAX1" name="NAX1" netid="HI" insttype="CMG-5TD,ACCELEROMETER,GURALP" lat="37.1014" lon="25.3741">
    <comp name="--.HNE">
      <acc value="0.2642076041" flag="0"/>
      <vel value="0.0474556843" flag="0"/>
      <psa03 value="0.3102730577" flag="0"/>
      <psa10 value="0.0209328170" flag="0"/>
      <psa30 value="0.0017388326" flag="0"/>
    </comp>
    <comp name="--.HNN">
      <acc value="0.2210317502" flag="0"/>
      <vel value="0.0485990074" flag="0"/>
      <psa03 value="0.1616847578" flag="0"/>
      <psa10 value="0.0101182150" flag="0"/>
      <psa30 value="0.0018299391" flag="0"/>
    </comp>
    <comp name="--.HNZ">
      <acc value="0.1875294608" flag="0"/>
      <vel value="0.0334381971" flag="0"/>
      <psa03 value="0.1398373101" flag="0"/>
      <psa10 value="0.0161455308" flag="0"/>
      <psa30 value="0.0021472010" flag="0"/>
    </comp>
  </station>
  <station code="SFR2" name="SFR2" netid="HI" insttype="unknown" lat="36.3998" lon="25.4382">
    <comp name="--.HNN">
      <acc value="0.8314890727" flag="0"/>
      <vel value="0.2540062326" flag="0"/>
      <psa03 value="1.5660443183" flag="0"/>
      <psa10 value="0.1555958278" flag="0"/>
      <psa30 value="0.0099330766" flag="0"/>
    </comp>
    <comp name="--.HNZ">
      <acc value="0.6301379678" flag="0"/>
      <vel value="0.2082649526" flag="0"/>
      <psa03 value="1.2855874639" flag="0"/>
      <psa10 value="0.0612998825" flag="0"/>
      <psa30 value="0.0069622458" flag="0"/>
    </comp>
    <comp name="--.HNE">
      <acc value="0.6994119137" flag="0"/>
      <vel value="0.2024856793" flag="0"/>
      <psa03 value="1.5319134145" flag="0"/>
      <psa10 value="0.0959498522" flag="0"/>
      <psa30 value="0.0121656746" flag="0"/>
    </comp>
  </station>
  <station code="AMGA" name="AMGA" netid="HL" insttype="SMART24" lat="36.8316" lon="25.8938">
    <comp name="--.HHE">
      <acc value="0.4099084427" flag="0"/>
      <vel value="0.0777058723" flag="0"/>
      <psa03 value="0.3346362261" flag="0"/>
      <psa10 value="0.0513078560" flag="0"/>
      <psa30 value="0.0076076666" flag="0"/>
    </comp>
    <comp name="--.HHN">
      <acc value="0.4704835385" flag="0"/>
      <vel value="0.0857085228" flag="0"/>
      <psa03 value="0.2778222969" flag="0"/>
      <psa10 value="0.0448181064" flag="0"/>
      <psa30 value="0.0082973445" flag="0"/>
    </comp>
    <comp name="--.HHZ">
      <acc value="0.3433295509" flag="0"/>
      <vel value="0.0751527452" flag="0"/>
      <psa03 value="0.2398544403" flag="0"/>
      <psa10 value="0.0401278968" flag="0"/>
      <psa30 value="0.0093256961" flag="0"/>
    </comp>
  </station>
  <station code="APE" name="APE" netid="HL" insttype="120" lat="37.0727" lon="25.523">
    <comp name="--.HHE">
      <acc value="0.2400389722" flag="0"/>
      <vel value="0.0373487984" flag="0"/>
      <psa03 value="0.2643524537" flag="0"/>
      <psa10 value="0.0091135746" flag="0"/>
      <psa30 value="0.0031261520" flag="0"/>
    </comp>
    <comp name="--.HHN">
      <acc value="0.2373683406" flag="0"/>
      <vel value="0.0392925275" flag="0"/>
      <psa03 value="0.1273249169" flag="0"/>
      <psa10 value="0.0096876076" flag="0"/>
      <psa30 value="0.0027691829" flag="0"/>
    </comp>
    <comp name="--.HHZ">
      <acc value="0.1026309686" flag="0"/>
      <vel value="0.0196987778" flag="0"/>
      <psa03 value="0.0831245928" flag="0"/>
      <psa10 value="0.0126848399" flag="0"/>
      <psa30 value="0.0023672657" flag="0"/>
    </comp>
  </station>
  <station code="MHLO" name="MHLO" netid="HL" insttype="20" lat="36.6898" lon="24.4017">
    <comp name="--.HHZ">
      <acc value="0.0456955663" flag="0"/>
      <vel value="0.0280646083" flag="0"/>
      <psa03 value="0.1255098969" flag="0"/>
      <psa10 value="0.0339553497" flag="0"/>
      <psa30 value="0.0033999286" flag="0"/>
    </comp>
    <comp name="--.HHN">
      <acc value="0.1150414053" flag="0"/>
      <vel value="0.0540367881" flag="0"/>
      <psa03 value="0.3244349239" flag="0"/>
      <psa10 value="0.0556981789" flag="0"/>
      <psa30 value="0.0045126435" flag="0"/>
    </comp>
    <comp name="--.HHE">
      <acc value="0.1257265278" flag="0"/>
      <vel value="0.0640431721" flag="0"/>
      <psa03 value="0.3419891043" flag="0"/>
      <psa10 value="0.0708168210" flag="0"/>
      <psa30 value="0.0046083917" flag="0"/>
    </comp>
  </station>
  <station code="MILA" name="MILA" netid="HL" insttype="CMG-5" lat="36.7429" lon="24.4282">
    <comp name="00.HNE">
      <acc value="0.1441999514" flag="0"/>
      <vel value="0.0681363267" flag="0"/>
      <psa03 value="0.3284808240" flag="0"/>
      <psa10 value="0.0516365032" flag="0"/>
      <psa30 value="0.0047952975" flag="0"/>
    </comp>
    <comp name="00.HNN">
      <acc value="0.2214858927" flag="0"/>
      <vel value="0.1059178844" flag="0"/>
      <psa03 value="0.3964591867" flag="0"/>
      <psa10 value="0.0667739908" flag="0"/>
      <psa30 value="0.0056285605" flag="0"/>
    </comp>
    <comp name="00.HNZ">
      <acc value="0.1304167255" flag="0"/>
      <vel value="0.0432275170" flag="0"/>
      <psa03 value="0.1730023479" flag="0"/>
      <psa10 value="0.0530458166" flag="0"/>
      <psa30 value="0.0031522997" flag="0"/>
    </comp>
  </station>
  <station code="NISR" name="NISR" netid="HL" insttype="65535" lat="36.6106" lon="27.131">
    <comp name="--.HHE">
      <acc value="0.0000000000" flag="0"/>
      <vel value="-100.0000000000" flag="0"/>
      <psa03 value="0.0000000000" flag="0"/>
      <psa10 value="0.0000000000" flag="0"/>
      <psa30 value="0.0000000000" flag="0"/>
    </comp>
    <comp name="--.HHN">
      <acc value="0.0275770400" flag="0"/>
      <vel value="0.0128544704" flag="0"/>
      <psa03 value="0.1022259834" flag="0"/>
      <psa10 value="0.0092798034" flag="0"/>
      <psa30 value="0.0036418592" flag="0"/>
    </comp>
    <comp name="--.HHZ">
      <acc value="0.0170981943" flag="0"/>
      <vel value="0.0086258451" flag="0"/>
      <psa03 value="0.0428372219" flag="0"/>
      <psa10 value="0.0053916506" flag="0"/>
      <psa30 value="0.0008574196" flag="0"/>
    </comp>
  </station>
  <station code="NISR2" name="NISR2" netid="HL" insttype="120" lat="36.5744" lon="27.1767">
    <comp name="--.HHN">
      <acc value="0.0467451027" flag="0"/>
      <vel value="0.0289784652" flag="0"/>
      <psa03 value="0.1686440125" flag="0"/>
      <psa10 value="0.0348964711" flag="0"/>
      <psa30 value="0.0031498243" flag="0"/>
    </comp>
    <comp name="--.HHZ">
      <acc value="0.0188066216" flag="0"/>
      <vel value="0.0079000669" flag="0"/>
      <psa03 value="0.0510349798" flag="0"/>
      <psa10 value="0.0063423605" flag="0"/>
      <psa30 value="0.0007563507" flag="0"/>
    </comp>
    <comp name="--.HHE">
      <acc value="0.0342236181" flag="0"/>
      <vel value="0.0241471074" flag="0"/>
      <psa03 value="0.1620319537" flag="0"/>
      <psa10 value="0.0327993060" flag="0"/>
      <psa30 value="0.0026709509" flag="0"/>
    </comp>
  </station>
  <station code="SANT" name="SANT" netid="HL" insttype="30" lat="36.3705" lon="25.4593">
    <comp name="--.HHE">
      <acc value="0.8548730355" flag="0"/>
      <vel value="0.1716983561" flag="0"/>
      <psa03 value="0.8102639547" flag="0"/>
      <psa10 value="0.0403733319" flag="0"/>
      <psa30 value="0.0056113329" flag="0"/>
    </comp>
    <comp name="--.HHN">
      <acc value="0.5188955397" flag="0"/>
      <vel value="0.0844485400" flag="0"/>
      <psa03 value="0.2934404253" flag="0"/>
      <psa10 value="0.0224530490" flag="0"/>
      <psa30 value="0.0027326862" flag="0"/>
    </comp>
    <comp name="--.HHZ">
      <acc value="0.4917216791" flag="0"/>
      <vel value="0.1059110736" flag="0"/>
      <psa03 value="0.5335734948" flag="0"/>
      <psa10 value="0.0189295101" flag="0"/>
      <psa30 value="0.0026616033" flag="0"/>
    </comp>
  </station>
  <station code="SAP3" name="SAP3" netid="HL" insttype="65535" lat="36.4356" lon="25.3454">
    <comp name="--.HHE">
      <acc value="0.4492446480" flag="0"/>
      <vel value="0.1388497753" flag="0"/>
      <psa03 value="0.7584280716" flag="0"/>
      <psa10 value="0.0715032618" flag="0"/>
      <psa30 value="0.0141829984" flag="0"/>
    </comp>
    <comp name="--.HHN">
      <acc value="0.4968482389" flag="0"/>
      <vel value="0.1367955094" flag="0"/>
      <psa03 value="0.7487712378" flag="0"/>
      <psa10 value="0.0605736924" flag="0"/>
      <psa30 value="0.0106035476" flag="0"/>
    </comp>
    <comp name="--.HHZ">
      <acc value="0.5692093989" flag="0"/>
      <vel value="0.1530968209" flag="0"/>
      <psa03 value="0.8030652812" flag="0"/>
      <psa10 value="0.0378994326" flag="0"/>
      <psa30 value="0.0044946746" flag="0"/>
    </comp>
  </station>
  <station code="THERA" name="THERA" netid="HL" insttype="120" lat="36.367" lon="25.4753">
    <comp name="--.HHN">
      <acc value="0.3332740123" flag="0"/>
      <vel value="0.1000465163" flag="0"/>
      <psa03 value="0.6202763306" flag="0"/>
      <psa10 value="0.0250331814" flag="0"/>
      <psa30 value="0.0025878664" flag="0"/>
    </comp>
    <comp name="--.HHZ">
      <acc value="0.2038997975" flag="0"/>
      <vel value="0.0521637038" flag="0"/>
      <psa03 value="0.2421600388" flag="0"/>
      <psa10 value="0.0131966403" flag="0"/>
      <psa30 value="0.0033249445" flag="0"/>
    </comp>
    <comp name="--.HHE">
      <acc value="0.2368708398" flag="0"/>
      <vel value="0.0595347272" flag="0"/>
      <psa03 value="0.4353816047" flag="0"/>
      <psa10 value="0.0204336365" flag="0"/>
      <psa30 value="0.0035177504" flag="0"/>
    </comp>
  </station>
  <station code="THRA" name="THRA" netid="HL" insttype="CMG-5" lat="36.415" lon="25.4324">
    <comp name="00.HNN">
      <acc value="0.7812442888" flag="0"/>
      <vel value="0.3500953458" flag="0"/>
      <psa03 value="2.1510555689" flag="0"/>
      <psa10 value="0.2261122352" flag="0"/>
      <psa30 value="0.0225745051" flag="0"/>
    </comp>
    <comp name="00.HNZ">
      <acc value="0.7311900215" flag="0"/>
      <vel value="0.2379868777" flag="0"/>
      <psa03 value="1.0918005994" flag="0"/>
      <psa10 value="0.0748698307" flag="0"/>
      <psa30 value="0.0077228186" flag="0"/>
    </comp>
    <comp name="00.HNE">
      <acc value="1.0733190686" flag="0"/>
      <vel value="0.3034282662" flag="0"/>
      <psa03 value="2.5421398658" flag="0"/>
      <psa10 value="0.1742746367" flag="0"/>
      <psa30 value="0.0199956922" flag="0"/>
    </comp>
  </station>
  <station code="TNSA" name="TNSA" netid="HL" insttype="CMG-5" lat="37.5394" lon="25.1631">
    <comp name="00.HNE">
      <acc value="0.0997810472" flag="0"/>
      <vel value="0.0222008788" flag="0"/>
      <psa03 value="0.0924336340" flag="0"/>
      <psa10 value="0.0057590199" flag="0"/>
      <psa30 value="0.0011293945" flag="0"/>
    </comp>
    <comp name="00.HNZ">
      <acc value="0.1348958236" flag="0"/>
      <vel value="0.0466922548" flag="0"/>
      <psa03 value="0.2052856804" flag="0"/>
      <psa10 value="0.0167416709" flag="0"/>
      <psa30 value="0.0027002556" flag="0"/>
    </comp>
    <comp name="00.HNN">
      <acc value="0.1663821093" flag="0"/>
      <vel value="0.0470544893" flag="0"/>
      <psa03 value="0.2106228529" flag="0"/>
      <psa10 value="0.0169929167" flag="0"/>
      <psa30 value="0.0024920638" flag="0"/>
    </comp>
  </station>
  <station code="CMBO" name="CMBO" netid="HT" insttype="120P," lat="36.4709" lon="25.4056">
    <comp name="--.HHE">
      <acc value="0.6327747347" flag="0"/>
      <vel value="0.1887293652" flag="0"/>
      <psa03 value="1.3803619134" flag="0"/>
      <psa10 value="0.0736661602" flag="0"/>
      <psa30 value="0.0105775564" flag="0"/>
    </comp>
    <comp name="--.HHN">
      <acc value="0.8982534515" flag="0"/>
      <vel value="0.2985642407" flag="0"/>
      <psa03 value="1.1705821739" flag="0"/>
      <psa10 value="0.1498281180" flag="0"/>
      <psa30 value="0.0104222491" flag="0"/>
    </comp>
    <comp name="--.HHZ">
      <acc value="0.5469507591" flag="0"/>
      <vel value="0.1682105865" flag="0"/>
      <psa03 value="0.8499816216" flag="0"/>
      <psa10 value="0.0407617970" flag="0"/>
      <psa30 value="0.0066867156" flag="0"/>
    </comp>
  </station>
</stationlist>
