<?xml version="1.0" encoding="UTF-8" standalone="yes"?>
<!DOCTYPE earthquake SYSTEM "stationlist.dtd">
<stationlist created="" xmlns="ch.ethz.sed.shakemap.usgs.xml">
  <station code="THERA" name="THERA" netid="GE" insttype="STS-2/N" lat="36.367" lon="25.4753">
    <comp name="--.HHN">
      <acc value="0.1710113362" flag="0"/>
      <vel value="0.0518478858" flag="0"/>
      <psa03 value="0.3195203645" flag="0"/>
      <psa10 value="0.0126101263" flag="0"/>
      <psa30 value="0.0013009753" flag="0"/>
    </comp>
    <comp name="--.HHZ">
      <acc value="0.2114890524" flag="0"/>
      <vel value="0.0535691730" flag="0"/>
      <psa03 value="0.2480326696" flag="0"/>
      <psa10 value="0.0133725488" flag="0"/>
      <psa30 value="0.0033264146" flag="0"/>
    </comp>
    <comp name="--.HHE">
      <acc value="0.2384753232" flag="0"/>
      <vel value="0.0618692235" flag="0"/>
      <psa03 value="0.4489181077" flag="0"/>
      <psa10 value="0.0206858088" flag="0"/>
      <psa30 value="0.0035158412" flag="0"/>
    </comp>
  </station>
  <station code="SNT1" name="SNT1" netid="HA" insttype="30" lat="36.4159" lon="25.4282">
    <comp name="--.HHN">
      <acc value="0.3355641868" flag="0"/>
      <vel value="0.1318076060" flag="0"/>
      <psa03 value="0.6200075992" flag="0"/>
      <psa10 value="0.0708715441" flag="0"/>
      <psa30 value="0.0139327725" flag="0"/>
    </comp>
    <comp name="--.HHE">
      <acc value="0.2788350115" flag="0"/>
      <vel value="0.0802592653" flag="0"/>
      <psa03 value="0.5906424727" flag="0"/>
      <psa10 value="0.0610457876" flag="0"/>
      <psa30 value="0.0104625804" flag="0"/>
    </comp>
    <comp name="--.HHZ">
      <acc value="0.1957329515" flag="0"/>
      <vel value="0.0658226178" flag="0"/>
      <psa03 value="0.3766326857" flag="0"/>
      <psa10 value="0.0276203557" flag="0"/>
      <psa30 value="0.0050388361" flag="0"/>
    </comp>
  </station>
  <station code="SFR2" name="SFR2" netid="HI" insttype="unknown" lat="36.3998" lon="25.4382">
    <comp name="--.HNN">
      <acc value="0.8314890674" flag="0"/>
      <vel value="0.2540062514" flag="0"/>
      <psa03 value="1.5660443183" flag="0"/>
      <psa10 value="0.1555957651" flag="0"/>
      <psa30 value="0.0099312126" flag="0"/>
    </comp>
    <comp name="--.HNE">
      <acc value="0.6994119133" flag="0"/>
      <vel value="0.2024856746" flag="0"/>
      <psa03 value="1.5319134146" flag="0"/>
      <psa10 value="0.0959497184" flag="0"/>
      <psa30 value="0.0121594155" flag="0"/>
    </comp>
    <comp name="--.HNZ">
      <acc value="0.6301379721" flag="0"/>
      <vel value="0.2082649501" flag="0"/>
      <psa03 value="1.2855874639" flag="0"/>
      <psa10 value="0.0612998792" flag="0"/>
      <psa30 value="0.0069615936" flag="0"/>
    </comp>
  </station>
  <station code="AMGA" name="AMGA" netid="HL" insttype="SMART24" lat="36.8316" lon="25.8938">
    <comp name="--.HHN">
      <acc value="0.4704835367" flag="0"/>
      <vel value="0.0857086376" flag="0"/>
      <psa03 value="0.2778222966" flag="0"/>
      <psa10 value="0.0448181002" flag="0"/>
      <psa30 value="0.0082908414" flag="0"/>
    </comp>
    <comp name="--.HHE">
      <acc value="0.4099084446" flag="0"/>
      <vel value="0.0777059900" flag="0"/>
      <psa03 value="0.3346362264" flag="0"/>
      <psa10 value="0.0513078527" flag="0"/>
      <psa30 value="0.0076121605" flag="0"/>
    </comp>
    <comp name="--.HHZ">
      <acc value="0.3433295496" flag="0"/>
      <vel value="0.0751527834" flag="0"/>
      <psa03 value="0.2398544403" flag="0"/>
      <psa10 value="0.0401278908" flag="0"/>
      <psa30 value="0.0093279252" flag="0"/>
    </comp>
  </station>
  <station code="MHLO" name="MHLO" netid="HL" insttype="20" lat="36.6898" lon="24.4017">
    <comp name="--.HHN">
      <acc value="0.1150414029" flag="0"/>
      <vel value="0.0540367444" flag="0"/>
      <psa03 value="0.3244349240" flag="0"/>
      <psa10 value="0.0556981768" flag="0"/>
      <psa30 value="0.0045117590" flag="0"/>
    </comp>
    <comp name="--.HHE">
      <acc value="0.1257265279" flag="0"/>
      <vel value="0.0640431004" flag="0"/>
      <psa03 value="0.3419891044" flag="0"/>
      <psa10 value="0.0708168207" flag="0"/>
      <psa30 value="0.0046079057" flag="0"/>
    </comp>
    <comp name="--.HHZ">
      <acc value="0.0456955671" flag="0"/>
      <vel value="0.0280646252" flag="0"/>
      <psa03 value="0.1255098970" flag="0"/>
      <psa10 value="0.0339553484" flag="0"/>
      <psa30 value="0.0033987843" flag="0"/>
    </comp>
  </station>
  <station code="MILA" name="MILA" netid="HL" insttype="CMG-5" lat="36.7429" lon="24.4282">
    <comp name="00.HNE">
      <acc value="0.1441999583" flag="0"/>
      <vel value="0.0681363141" flag="0"/>
      <psa03 value="0.3284808240" flag="0"/>
      <psa10 value="0.0516364998" flag="0"/>
      <psa30 value="0.0047991713" flag="0"/>
    </comp>
    <comp name="00.HNZ">
      <acc value="0.1304167197" flag="0"/>
      <vel value="0.0432275163" flag="0"/>
      <psa03 value="0.1730023479" flag="0"/>
      <psa10 value="0.0530458176" flag="0"/>
      <psa30 value="0.0031548186" flag="0"/>
    </comp>
    <comp name="00.HNN">
      <acc value="0.2214858962" flag="0"/>
      <vel value="0.1059178969" flag="0"/>
      <psa03 value="0.3964591867" flag="0"/>
      <psa10 value="0.0667739941" flag="0"/>
      <psa30 value="0.0056275104" flag="0"/>
    </comp>
  </station>
  <station code="SANT" name="SANT" netid="HL" insttype="30" lat="36.3705" lon="25.4593">
    <comp name="--.HHE">
      <acc value="0.8548730365" flag="0"/>
      <vel value="0.1716983882" flag="0"/>
      <psa03 value="0.8102639548" flag="0"/>
      <psa10 value="0.0403732447" flag="0"/>
      <psa30 value="0.0056075893" flag="0"/>
    </comp>
    <comp name="--.HHN">
      <acc value="0.5188955399" flag="0"/>
      <vel value="0.0844485551" flag="0"/>
      <psa03 value="0.2934404254" flag="0"/>
      <psa10 value="0.0224530900" flag="0"/>
      <psa30 value="0.0027386325" flag="0"/>
    </comp>
    <comp name="--.HHZ">
      <acc value="0.4917216776" flag="0"/>
      <vel value="0.1059111369" flag="0"/>
      <psa03 value="0.5335734949" flag="0"/>
      <psa10 value="0.0189295141" flag="0"/>
      <psa30 value="0.0026600320" flag="0"/>
    </comp>
  </station>
  <station code="SAP3" name="SAP3" netid="HL" insttype="65535" lat="36.4356" lon="25.3454">
    <comp name="--.HHE">
      <acc value="0.4492446481" flag="0"/>
      <vel value="0.1388497237" flag="0"/>
      <psa03 value="0.7584280717" flag="0"/>
      <psa10 value="0.0715032612" flag="0"/>
      <psa30 value="0.0141790774" flag="0"/>
    </comp>
    <comp name="--.HHZ">
      <acc value="0.5692093987" flag="0"/>
      <vel value="0.1530969033" flag="0"/>
      <psa03 value="0.8030652813" flag="0"/>
      <psa10 value="0.0378993686" flag="0"/>
      <psa30 value="0.0044942204" flag="0"/>
    </comp>
    <comp name="--.HHN">
      <acc value="0.4968482383" flag="0"/>
      <vel value="0.1367954778" flag="0"/>
      <psa03 value="0.7487712378" flag="0"/>
      <psa10 value="0.0605736917" flag="0"/>
      <psa30 value="0.0106058355" flag="0"/>
    </comp>
  </station>
  <station code="THERA" name="THERA" netid="HL" insttype="120" lat="36.367" lon="25.4753">
    <comp name="--.HHE">
      <acc value="0.2368708394" flag="0"/>
      <vel value="0.0595347209" flag="0"/>
      <psa03 value="0.4353816047" flag="0"/>
      <psa10 value="0.0204336188" flag="0"/>
      <psa30 value="0.0035167040" flag="0"/>
    </comp>
    <comp name="--.HHN">
      <acc value="0.3332740106" flag="0"/>
      <vel value="0.1000465308" flag="0"/>
      <psa03 value="0.6202763306" flag="0"/>
      <psa10 value="0.0250331955" flag="0"/>
      <psa30 value="0.0025921830" flag="0"/>
    </comp>
    <comp name="--.HHZ">
      <acc value="0.2038997981" flag="0"/>
      <vel value="0.0521636948" flag="0"/>
      <psa03 value="0.2421600388" flag="0"/>
      <psa10 value="0.0131966269" flag="0"/>
      <psa30 value="0.0033251535" flag="0"/>
    </comp>
  </station>
  <station code="THRA" name="THRA" netid="HL" insttype="CMG-5" lat="36.415" lon="25.4324">
    <comp name="00.HNZ">
      <acc value="0.7311900222" flag="0"/>
      <vel value="0.2379868815" flag="0"/>
      <psa03 value="1.0918005994" flag="0"/>
      <psa10 value="0.0748697953" flag="0"/>
      <psa30 value="0.0077223688" flag="0"/>
    </comp>
    <comp name="00.HNE">
      <acc value="1.0733190662" flag="0"/>
      <vel value="0.3034282508" flag="0"/>
      <psa03 value="2.5421398658" flag="0"/>
      <psa10 value="0.1742746024" flag="0"/>
      <psa30 value="0.0200010132" flag="0"/>
    </comp>
    <comp name="00.HNN">
      <acc value="0.7812442916" flag="0"/>
      <vel value="0.3500953303" flag="0"/>
      <psa03 value="2.1510555689" flag="0"/>
      <psa10 value="0.2261123797" flag="0"/>
      <psa30 value="0.0225718116" flag="0"/>
    </comp>
  </station>
  <station code="AKRO" name="AKRO" netid="HT" insttype="Compact," lat="36.3584" lon="25.3967">
    <comp name="--.HHE">
      <acc value="1.0467961765" flag="0"/>
      <vel value="0.3401017141" flag="0"/>
      <psa03 value="1.2456514975" flag="0"/>
      <psa10 value="0.1112673862" flag="0"/>
      <psa30 value="0.0093174650" flag="0"/>
    </comp>
    <comp name="--.HHN">
      <acc value="0.6593264326" flag="0"/>
      <vel value="0.1774956143" flag="0"/>
      <psa03 value="1.1364267569" flag="0"/>
      <psa10 value="0.0509321718" flag="0"/>
      <psa30 value="0.0067847543" flag="0"/>
    </comp>
    <comp name="--.HHZ">
      <acc value="0.5040982067" flag="0"/>
      <vel value="0.1220715094" flag="0"/>
      <psa03 value="0.5628928779" flag="0"/>
      <psa10 value="0.0362248102" flag="0"/>
      <psa30 value="0.0052218502" flag="0"/>
    </comp>
  </station>
  <station code="CMBO" name="CMBO" netid="HT" insttype="120P," lat="36.4709" lon="25.4056">
    <comp name="--.HHE">
      <acc value="0.6327747342" flag="0"/>
      <vel value="0.1887293739" flag="0"/>
      <psa03 value="1.3803619134" flag="0"/>
      <psa10 value="0.0736661150" flag="0"/>
      <psa30 value="0.0105790592" flag="0"/>
    </comp>
    <comp name="--.HHN">
      <acc value="0.8982534513" flag="0"/>
      <vel value="0.2985642531" flag="0"/>
      <psa03 value="1.1705821739" flag="0"/>
      <psa10 value="0.1498276814" flag="0"/>
      <psa30 value="0.0104204531" flag="0"/>
    </comp>
    <comp name="--.HHZ">
      <acc value="0.5469507588" flag="0"/>
      <vel value="0.1682105560" flag="0"/>
      <psa03 value="0.8499816216" flag="0"/>
      <psa10 value="0.0407617814" flag="0"/>
      <psa30 value="0.0066942622" flag="0"/>
    </comp>
  </station>
</stationlist>
