<?xml version="1.0" encoding="UTF-8" standalone="yes"?>
<!DOCTYPE earthquake SYSTEM "stationlist.dtd">
<stationlist created="" xmlns="ch.ethz.sed.shakemap.usgs.xml">
  <station code="THERA" name="THERA" netid="GE" insttype="STS-2/N" lat="36.367" lon="25.4753">
    <comp name="--.HHN">
      <acc value="0.1710113362" flag="0"/>
      <vel value="0.0518478858" flag="0"/>
      <psa03 value="0.3195203645" flag="0"/>
      <psa10 value="0.0126101263" flag="0"/>
      <psa30 value="0.0013009753" flag="0"/>
    </comp>
    <comp name="--.HHZ">
      <acc value="0.2114890524" flag="0"/>
      <vel value="0.0535691730" flag="0"/>
      <psa03 value="0.2480326696" flag="0"/>
      <psa10 value="0.0133725488" flag="0"/>
      <psa30 value="0.0033264146" flag="0"/>
    </comp>
    <comp name="--.HHE">
      <acc value="0.2384753232" flag="0"/>
      <vel value="0.0618692235" flag="0"/>
      <psa03 value="0.4489181077" flag="0"/>
      <psa10 value="0.0206858088" flag="0"/>
      <psa30 value="0.0035158412" flag="0"/>
    </comp>
  </station>
</stationlist>
