<?xml version="1.0" encoding="UTF-8" standalone="yes"?>
<!DOCTYPE earthquake SYSTEM "stationlist.dtd">
<stationlist created="" xmlns="ch.ethz.sed.shakemap.usgs.xml">
  <station code="APE" name="APE" netid="GE" insttype="STS-2/N" lat="37.0727" lon="25.523">
    <comp name="--.HHZ">
      <acc value="0.0478492132" flag="0"/>
      <vel value="0.0103356809" flag="0"/>
      <psa03 value="0.0486351253" flag="0"/>
      <psa10 value="0.0113495830" flag="0"/>
      <psa30 value="0.0012192278" flag="0"/>
    </comp>
    <comp name="--.HHN">
      <acc value="0.0983607728" flag="0"/>
      <vel value="0.0226711004" flag="0"/>
      <psa03 value="0.0834214816" flag="0"/>
      <psa10 value="0.0075449671" flag="0"/>
      <psa30 value="0.0011552967" flag="0"/>
    </comp>
    <comp name="--.HHE">
      <acc value="0.1227654969" flag="0"/>
      <vel value="0.0261612758" flag="0"/>
      <psa03 value="0.1391970885" flag="0"/>
      <psa10 value="0.0113410732" flag="0"/>
      <psa30 value="0.0012020713" flag="0"/>
    </comp>
  </station>
  <station code="THERA" name="THERA" netid="GE" insttype="STS-2/N" lat="36.367" lon="25.4753">
    <comp name="--.HHE">
      <acc value="0.0715489022" flag="0"/>
      <vel value="0.0221517341" flag="0"/>
      <psa03 value="0.0926075659" flag="0"/>
      <psa10 value="0.0132436761" flag="0"/>
      <psa30 value="0.0012567203" flag="0"/>
    </comp>
    <comp name="--.HHN">
      <acc value="0.0717489552" flag="0"/>
      <vel value="0.0165767577" flag="0"/>
      <psa03 value="0.0699308429" flag="0"/>
      <psa10 value="0.0094764238" flag="0"/>
      <psa30 value="0.0006080442" flag="0"/>
    </comp>
    <comp name="--.HHZ">
      <acc value="0.0720015745" flag="0"/>
      <vel value="0.0158882160" flag="0"/>
      <psa03 value="0.0761043593" flag="0"/>
      <psa10 value="0.0060534420" flag="0"/>
      <psa30 value="0.0007677803" flag="0"/>
    </comp>
  </station>
</stationlist>
