<?xml version="1.0" encoding="UTF-8" standalone="yes"?>
<!DOCTYPE earthquake SYSTEM "stationlist.dtd">
<stationlist created="" xmlns="ch.ethz.sed.shakemap.usgs.xml">
  <station code="APE" name="APE" netid="GE" insttype="STS-2/N" lat="37.0727" lon="25.523">
    <comp name="--.HHZ">
      <acc value="0.0478492132" flag="0"/>
      <vel value="0.0103356809" flag="0"/>
      <psa03 value="0.0486351253" flag="0"/>
      <psa10 value="0.0113495830" flag="0"/>
      <psa30 value="0.0012192278" flag="0"/>
    </comp>
    <comp name="--.HHN">
      <acc value="0.0983607728" flag="0"/>
      <vel value="0.0226711004" flag="0"/>
      <psa03 value="0.0834214816" flag="0"/>
      <psa10 value="0.0075449671" flag="0"/>
      <psa30 value="0.0011552967" flag="0"/>
    </comp>
    <comp name="--.HHE">
      <acc value="0.1227654969" flag="0"/>
      <vel value="0.0261612758" flag="0"/>
      <psa03 value="0.1391970885" flag="0"/>
      <psa10 value="0.0113410732" flag="0"/>
      <psa30 value="0.0012020713" flag="0"/>
    </comp>
  </station>
  <station code="THERA" name="THERA" netid="GE" insttype="STS-2/N" lat="36.367" lon="25.4753">
    <comp name="--.HHE">
      <acc value="0.0715489022" flag="0"/>
      <vel value="0.0221517341" flag="0"/>
      <psa03 value="0.0926075659" flag="0"/>
      <psa10 value="0.0132436761" flag="0"/>
      <psa30 value="0.0012567203" flag="0"/>
    </comp>
    <comp name="--.HHN">
      <acc value="0.0717489552" flag="0"/>
      <vel value="0.0165767577" flag="0"/>
      <psa03 value="0.0699308429" flag="0"/>
      <psa10 value="0.0094764238" flag="0"/>
      <psa30 value="0.0006080442" flag="0"/>
    </comp>
    <comp name="--.HHZ">
      <acc value="0.0720015745" flag="0"/>
      <vel value="0.0158882160" flag="0"/>
      <psa03 value="0.0761043593" flag="0"/>
      <psa10 value="0.0060534420" flag="0"/>
      <psa30 value="0.0007677803" flag="0"/>
    </comp>
  </station>
  <station code="SNT1" name="SNT1" netid="HA" insttype="30" lat="36.4159" lon="25.4282">
    <comp name="--.HHE">
      <acc value="0.0383779254" flag="0"/>
      <vel value="0.0135166712" flag="0"/>
      <psa03 value="0.0550617179" flag="0"/>
      <psa10 value="0.0146286864" flag="0"/>
      <psa30 value="0.0027363400" flag="0"/>
    </comp>
    <comp name="--.HHN">
      <acc value="0.0421457917" flag="0"/>
      <vel value="0.0255498922" flag="0"/>
      <psa03 value="0.0667988898" flag="0"/>
      <psa10 value="0.0171900877" flag="0"/>
      <psa30 value="0.0020359688" flag="0"/>
    </comp>
    <comp name="--.HHZ">
      <acc value="0.0392973408" flag="0"/>
      <vel value="0.0125114113" flag="0"/>
      <psa03 value="0.0660652707" flag="0"/>
      <psa10 value="0.0098226853" flag="0"/>
      <psa30 value="0.0008958482" flag="0"/>
    </comp>
  </station>
  <station code="NAX1" name="NAX1" netid="HI" insttype="CMG-5TD,ACCELEROMETER,GURALP" lat="37.1014" lon="25.3741">
    <comp name="--.HNE">
      <acc value="0.0652790078" flag="0"/>
      <vel value="0.0229264105" flag="0"/>
      <psa03 value="0.1253152015" flag="0"/>
      <psa10 value="0.0111528178" flag="0"/>
      <psa30 value="0.0007000269" flag="0"/>
    </comp>
    <comp name="--.HNN">
      <acc value="0.0498044859" flag="0"/>
      <vel value="0.0186538045" flag="0"/>
      <psa03 value="0.1243302098" flag="0"/>
      <psa10 value="0.0064096795" flag="0"/>
      <psa30 value="0.0012791890" flag="0"/>
    </comp>
    <comp name="--.HNZ">
      <acc value="0.0518261298" flag="0"/>
      <vel value="0.0214414112" flag="0"/>
      <psa03 value="0.1086871936" flag="0"/>
      <psa10 value="0.0090423549" flag="0"/>
      <psa30 value="0.0017689833" flag="0"/>
    </comp>
  </station>
  <station code="APE" name="APE" netid="HL" insttype="120" lat="37.0727" lon="25.523">
    <comp name="--.HHN">
      <acc value="0.0921288675" flag="0"/>
      <vel value="0.0221537392" flag="0"/>
      <psa03 value="0.0813042380" flag="0"/>
      <psa10 value="0.0074449414" flag="0"/>
      <psa30 value="0.0011514276" flag="0"/>
    </comp>
    <comp name="--.HHE">
      <acc value="0.1058340463" flag="0"/>
      <vel value="0.0253046507" flag="0"/>
      <psa03 value="0.1353495449" flag="0"/>
      <psa10 value="0.0112049222" flag="0"/>
      <psa30 value="0.0011980297" flag="0"/>
    </comp>
    <comp name="--.HHZ">
      <acc value="0.0417957177" flag="0"/>
      <vel value="0.0100044669" flag="0"/>
      <psa03 value="0.0474326566" flag="0"/>
      <psa10 value="0.0112154421" flag="0"/>
      <psa30 value="0.0012174397" flag="0"/>
    </comp>
  </station>
  <station code="NISR" name="NISR" netid="HL" insttype="65535" lat="36.6106" lon="27.131">
    <comp name="--.HHN">
      <acc value="0.0262940044" flag="0"/>
      <vel value="0.0100318238" flag="0"/>
      <psa03 value="0.0494471823" flag="0"/>
      <psa10 value="0.0105382288" flag="0"/>
      <psa30 value="0.0011535407" flag="0"/>
    </comp>
    <comp name="--.HHE">
      <acc value="0.0000000000" flag="0"/>
      <vel value="-100.0000000000" flag="0"/>
      <psa03 value="0.0000000000" flag="0"/>
      <psa10 value="0.0000000000" flag="0"/>
      <psa30 value="0.0000000000" flag="0"/>
    </comp>
    <comp name="--.HHZ">
      <acc value="0.0150856562" flag="0"/>
      <vel value="0.0067948559" flag="0"/>
      <psa03 value="0.0442500868" flag="0"/>
      <psa10 value="0.0065100866" flag="0"/>
      <psa30 value="0.0003751589" flag="0"/>
    </comp>
  </station>
  <station code="SAP3" name="SAP3" netid="HL" insttype="LE3D20_SMART24" lat="36.4356" lon="25.3454">
    <comp name="--.HHN">
      <acc value="0.1222268105" flag="0"/>
      <vel value="0.0429279952" flag="0"/>
      <psa03 value="0.2085274491" flag="0"/>
      <psa10 value="0.0402249724" flag="0"/>
      <psa30 value="0.0059627939" flag="0"/>
    </comp>
    <comp name="--.HHE">
      <acc value="0.1328189683" flag="0"/>
      <vel value="0.0580960212" flag="0"/>
      <psa03 value="0.2071294694" flag="0"/>
      <psa10 value="0.0528586923" flag="0"/>
      <psa30 value="0.0070223891" flag="0"/>
    </comp>
    <comp name="--.HHZ">
      <acc value="0.1355837794" flag="0"/>
      <vel value="0.0364838264" flag="0"/>
      <psa03 value="0.2263487175" flag="0"/>
      <psa10 value="0.0202754681" flag="0"/>
      <psa30 value="0.0020138567" flag="0"/>
    </comp>
  </station>
  <station code="THERA" name="THERA" netid="HL" insttype="120" lat="36.367" lon="25.4753">
    <comp name="--.HHN">
      <acc value="0.0702367944" flag="0"/>
      <vel value="0.0160194324" flag="0"/>
      <psa03 value="0.0679234198" flag="0"/>
      <psa10 value="0.0093401631" flag="0"/>
      <psa30 value="0.0006036013" flag="0"/>
    </comp>
    <comp name="--.HHZ">
      <acc value="0.0701883360" flag="0"/>
      <vel value="0.0153043834" flag="0"/>
      <psa03 value="0.0740501358" flag="0"/>
      <psa10 value="0.0060158971" flag="0"/>
      <psa30 value="0.0007679753" flag="0"/>
    </comp>
    <comp name="--.HHE">
      <acc value="0.0712438417" flag="0"/>
      <vel value="0.0215121236" flag="0"/>
      <psa03 value="0.0895324107" flag="0"/>
      <psa10 value="0.0131547715" flag="0"/>
      <psa30 value="0.0012544992" flag="0"/>
    </comp>
  </station>
  <station code="THRA" name="THRA" netid="HL" insttype="CMG-5" lat="36.415" lon="25.4324">
    <comp name="00.HNE">
      <acc value="0.1753220337" flag="0"/>
      <vel value="0.0563339197" flag="0"/>
      <psa03 value="0.3113952119" flag="0"/>
      <psa10 value="0.0563588201" flag="0"/>
      <psa30 value="0.0048407969" flag="0"/>
    </comp>
    <comp name="00.HNN">
      <acc value="0.1548588068" flag="0"/>
      <vel value="0.0637306908" flag="0"/>
      <psa03 value="0.3506329524" flag="0"/>
      <psa10 value="0.0564400119" flag="0"/>
      <psa30 value="0.0041649911" flag="0"/>
    </comp>
    <comp name="00.HNZ">
      <acc value="0.1431987591" flag="0"/>
      <vel value="0.0544333763" flag="0"/>
      <psa03 value="0.2257308578" flag="0"/>
      <psa10 value="0.0275525405" flag="0"/>
      <psa30 value="0.0015904783" flag="0"/>
    </comp>
  </station>
  <station code="CMBO" name="CMBO" netid="HT" insttype="120P," lat="36.4709" lon="25.4056">
    <comp name="--.HHE">
      <acc value="0.1545954547" flag="0"/>
      <vel value="0.0629394787" flag="0"/>
      <psa03 value="0.4095079597" flag="0"/>
      <psa10 value="0.0436966859" flag="0"/>
      <psa30 value="0.0050510881" flag="0"/>
    </comp>
    <comp name="--.HHZ">
      <acc value="0.1929710412" flag="0"/>
      <vel value="0.0563136123" flag="0"/>
      <psa03 value="0.4231900813" flag="0"/>
      <psa10 value="0.0189717099" flag="0"/>
      <psa30 value="0.0029772889" flag="0"/>
    </comp>
    <comp name="--.HHN">
      <acc value="0.2026908141" flag="0"/>
      <vel value="0.0837088254" flag="0"/>
      <psa03 value="0.3943058734" flag="0"/>
      <psa10 value="0.0603183447" flag="0"/>
      <psa30 value="0.0043112246" flag="0"/>
    </comp>
  </station>
</stationlist>
