<?xml version="1.0" encoding="UTF-8" standalone="yes"?>
<!DOCTYPE earthquake SYSTEM "stationlist.dtd">
<stationlist created="" xmlns="ch.ethz.sed.shakemap.usgs.xml">
  <station code="PSAM" name="PSAM" netid="CL" insttype="CMG40-T" lat="38.3218" lon="22.1842">
    <comp name="00.HHZ">
      <acc value="0.0067497794" flag="0"/>
      <vel value="0.0072610744" flag="0"/>
      <psa03 value="0.0185757054" flag="0"/>
      <psa10 value="0.0091599465" flag="0"/>
      <psa30 value="0.0008581398" flag="0"/>
    </comp>
    <comp name="00.HHN">
      <acc value="0.0108138123" flag="0"/>
      <vel value="0.0080730446" flag="0"/>
      <psa03 value="0.0308783576" flag="0"/>
      <psa10 value="0.0152724459" flag="0"/>
      <psa30 value="0.0015694301" flag="0"/>
    </comp>
    <comp name="00.HHE">
      <acc value="0.0135839539" flag="0"/>
      <vel value="0.0105815976" flag="0"/>
      <psa03 value="0.0394236165" flag="0"/>
      <psa10 value="0.0142163061" flag="0"/>
      <psa30 value="0.0018003262" flag="0"/>
    </comp>
  </station>
  <station code="ROD3" name="ROD3" netid="CL" insttype="CMG40-T" lat="38.3081" lon="21.892">
    <comp name="00.HHE">
      <acc value="0.1030132610" flag="0"/>
      <vel value="0.0588137206" flag="0"/>
      <psa03 value="0.4461458213" flag="0"/>
      <psa10 value="0.0468625962" flag="0"/>
      <psa30 value="0.0026269824" flag="0"/>
    </comp>
    <comp name="00.HHN">
      <acc value="0.0775457407" flag="0"/>
      <vel value="0.0396359871" flag="0"/>
      <psa03 value="0.2832676941" flag="0"/>
      <psa10 value="0.0306578172" flag="0"/>
      <psa30 value="0.0026250801" flag="0"/>
    </comp>
    <comp name="00.HHZ">
      <acc value="0.0400468849" flag="0"/>
      <vel value="0.0188795921" flag="0"/>
      <psa03 value="0.0747231299" flag="0"/>
      <psa10 value="0.0160963721" flag="0"/>
      <psa30 value="0.0012910961" flag="0"/>
    </comp>
  </station>
  <station code="TRIZ" name="TRIZ" netid="CL" insttype="STS-2" lat="38.3654" lon="22.0727">
    <comp name="00.HHZ">
      <acc value="0.0145319091" flag="0"/>
      <vel value="0.0086948749" flag="0"/>
      <psa03 value="0.0520041056" flag="0"/>
      <psa10 value="0.0068398520" flag="0"/>
      <psa30 value="0.0008253437" flag="0"/>
    </comp>
    <comp name="00.HH3">
      <acc value="0.0365081687" flag="0"/>
      <vel value="0.0229578325" flag="0"/>
      <psa03 value="0.1856174907" flag="0"/>
      <psa10 value="0.0163074429" flag="0"/>
      <psa30 value="0.0012621734" flag="0"/>
    </comp>
    <comp name="00.HH2">
      <acc value="0.0423658540" flag="0"/>
      <vel value="0.0195218135" flag="0"/>
      <psa03 value="0.1722846119" flag="0"/>
      <psa10 value="0.0163733146" flag="0"/>
      <psa30 value="0.0013273405" flag="0"/>
    </comp>
  </station>
  <station code="ZIRI" name="ZIRI" netid="CL" insttype="TRILLIUM-40" lat="38.3051" lon="21.9476">
    <comp name="01.HHN">
      <acc value="0.0788972725" flag="0"/>
      <vel value="0.0352522003" flag="0"/>
      <psa03 value="0.1713119832" flag="0"/>
      <psa10 value="0.0305848968" flag="0"/>
      <psa30 value="0.0021323759" flag="0"/>
    </comp>
    <comp name="01.HHZ">
      <acc value="0.0473824076" flag="0"/>
      <vel value="0.0229821028" flag="0"/>
      <psa03 value="0.1659063784" flag="0"/>
      <psa10 value="0.0120387025" flag="0"/>
      <psa30 value="0.0019033125" flag="0"/>
    </comp>
    <comp name="01.HHE">
      <acc value="0.0672052343" flag="0"/>
      <vel value="0.0414705035" flag="0"/>
      <psa03 value="0.1397827051" flag="0"/>
      <psa10 value="0.0252711699" flag="0"/>
      <psa30 value="0.0018004413" flag="0"/>
    </comp>
  </station>
  <station code="ATHR" name="ATHR" netid="HA" insttype="GEOtiny," lat="38.3172" lon="20.4165">
    <comp name="--.HHZ">
      <acc value="0.0182977589" flag="0"/>
      <vel value="0.0083115214" flag="0"/>
      <psa03 value="0.0452714479" flag="0"/>
      <psa10 value="0.0064474505" flag="0"/>
      <psa30 value="0.0006171206" flag="0"/>
    </comp>
    <comp name="--.HHN">
      <acc value="0.0260423450" flag="0"/>
      <vel value="0.0152149419" flag="0"/>
      <psa03 value="0.0671979584" flag="0"/>
      <psa10 value="0.0117420510" flag="0"/>
      <psa30 value="0.0012609511" flag="0"/>
    </comp>
    <comp name="--.HHE">
      <acc value="0.0345753792" flag="0"/>
      <vel value="0.0143359137" flag="0"/>
      <psa03 value="0.0953187973" flag="0"/>
      <psa10 value="0.0086210774" flag="0"/>
      <psa30 value="0.0013944791" flag="0"/>
    </comp>
  </station>
  <station code="HAVD" name="HAVD" netid="HA" insttype="GEOtiny," lat="38.2036" lon="20.3848">
    <comp name="--.HHZ">
      <acc value="0.0296720208" flag="0"/>
      <vel value="0.0106775543" flag="0"/>
      <psa03 value="0.0620684752" flag="0"/>
      <psa10 value="0.0049409922" flag="0"/>
      <psa30 value="0.0006886011" flag="0"/>
    </comp>
    <comp name="--.HHE">
      <acc value="0.0386025049" flag="0"/>
      <vel value="0.0152860839" flag="0"/>
      <psa03 value="0.0671234732" flag="0"/>
      <psa10 value="0.0158929920" flag="0"/>
      <psa30 value="0.0008000677" flag="0"/>
    </comp>
    <comp name="--.HHN">
      <acc value="0.0420432256" flag="0"/>
      <vel value="0.0242735432" flag="0"/>
      <psa03 value="0.1163515538" flag="0"/>
      <psa10 value="0.0143815779" flag="0"/>
      <psa30 value="0.0012295564" flag="0"/>
    </comp>
  </station>
  <station code="KALE" name="KALE" netid="HA" insttype="40," lat="38.3911" lon="22.1398">
    <comp name="--.HHE">
      <acc value="0.0249912679" flag="0"/>
      <vel value="0.0116126150" flag="0"/>
      <psa03 value="0.0856618960" flag="0"/>
      <psa10 value="0.0120732884" flag="0"/>
      <psa30 value="0.0011368758" flag="0"/>
    </comp>
    <comp name="--.HHN">
      <acc value="0.0265299722" flag="0"/>
      <vel value="0.0119121436" flag="0"/>
      <psa03 value="0.0866989673" flag="0"/>
      <psa10 value="0.0120342999" flag="0"/>
      <psa30 value="0.0009852272" flag="0"/>
    </comp>
    <comp name="--.HHZ">
      <acc value="0.0130730764" flag="0"/>
      <vel value="0.0050166271" flag="0"/>
      <psa03 value="0.0219141562" flag="0"/>
      <psa10 value="0.0064741074" flag="0"/>
      <psa30 value="0.0009308987" flag="0"/>
    </comp>
  </station>
  <station code="LAKA" name="LAKA" netid="HA" insttype="120s," lat="38.2401" lon="21.9785">
    <comp name="--.HHE">
      <acc value="0.0088037469" flag="0"/>
      <vel value="0.0049146910" flag="0"/>
      <psa03 value="0.0222424050" flag="0"/>
      <psa10 value="0.0071404257" flag="0"/>
      <psa30 value="0.0004251843" flag="0"/>
    </comp>
    <comp name="--.HHN">
      <acc value="0.0120478511" flag="0"/>
      <vel value="0.0089830352" flag="0"/>
      <psa03 value="0.0281421450" flag="0"/>
      <psa10 value="0.0050595498" flag="0"/>
      <psa30 value="0.0005984544" flag="0"/>
    </comp>
    <comp name="--.HHZ">
      <acc value="0.0099084449" flag="0"/>
      <vel value="0.0058219819" flag="0"/>
      <psa03 value="0.0227740291" flag="0"/>
      <psa10 value="0.0079276894" flag="0"/>
      <psa30 value="0.0007702398" flag="0"/>
    </comp>
  </station>
  <station code="ARG2" name="ARG2" netid="HI" insttype="CMG-5TD,ACCELEROMETER,GURALP" lat="38.1783" lon="20.4878">
    <comp name="--.HNZ">
      <acc value="0.0847708076" flag="0"/>
      <vel value="0.0275394560" flag="0"/>
      <psa03 value="0.2247936565" flag="0"/>
      <psa10 value="0.0109011363" flag="0"/>
      <psa30 value="0.0007325807" flag="0"/>
    </comp>
    <comp name="--.HNN">
      <acc value="0.1567887540" flag="0"/>
      <vel value="0.0455887843" flag="0"/>
      <psa03 value="0.2397634796" flag="0"/>
      <psa10 value="0.0217210767" flag="0"/>
      <psa30 value="0.0013571273" flag="0"/>
    </comp>
    <comp name="--.HNE">
      <acc value="0.1327690943" flag="0"/>
      <vel value="0.0486586293" flag="0"/>
      <psa03 value="0.3253918317" flag="0"/>
      <psa10 value="0.0167979531" flag="0"/>
      <psa30 value="0.0011343591" flag="0"/>
    </comp>
  </station>
  <station code="ART2" name="ART2" netid="HI" insttype="CMG-5TD,ACCELEROMETER,GURALP" lat="39.1474" lon="20.9937">
    <comp name="--.HNZ">
      <acc value="0.1225384648" flag="0"/>
      <vel value="0.0307564289" flag="0"/>
      <psa03 value="0.1536846047" flag="0"/>
      <psa10 value="0.0232857459" flag="0"/>
      <psa30 value="0.0019589714" flag="0"/>
    </comp>
    <comp name="--.HNN">
      <acc value="0.1518103434" flag="0"/>
      <vel value="0.0422707874" flag="0"/>
      <psa03 value="0.1225878332" flag="0"/>
      <psa10 value="0.0120504704" flag="0"/>
      <psa30 value="0.0017280920" flag="0"/>
    </comp>
    <comp name="--.HNE">
      <acc value="0.1080059402" flag="0"/>
      <vel value="0.0294126982" flag="0"/>
      <psa03 value="0.1305876462" flag="0"/>
      <psa10 value="0.0143874365" flag="0"/>
      <psa30 value="0.0016383841" flag="0"/>
    </comp>
  </station>
  <station code="MSL1" name="MSL1" netid="HI" insttype="CMG-5TD,ACCELEROMETER,GURALP" lat="38.3727" lon="21.4243">
    <comp name="--.HNE">
      <acc value="0.4111965114" flag="0"/>
      <vel value="0.3733992419" flag="0"/>
      <psa03 value="1.1030369909" flag="0"/>
      <psa10 value="0.3080517148" flag="0"/>
      <psa30 value="0.0141737118" flag="0"/>
    </comp>
    <comp name="--.HNZ">
      <acc value="0.1890112024" flag="0"/>
      <vel value="0.1533769306" flag="0"/>
      <psa03 value="0.4106056178" flag="0"/>
      <psa10 value="0.1967874538" flag="0"/>
      <psa30 value="0.0091551714" flag="0"/>
    </comp>
    <comp name="--.HNN">
      <acc value="0.6718300232" flag="0"/>
      <vel value="0.5516883467" flag="0"/>
      <psa03 value="2.1910010322" flag="0"/>
      <psa10 value="0.4373326299" flag="0"/>
      <psa30 value="0.0240636839" flag="0"/>
    </comp>
  </station>
  <station code="VAS2" name="VAS2" netid="HI" insttype="CMG-5TD,ACCELEROMETER,GURALP" lat="38.6306" lon="20.6081">
    <comp name="--.HNN">
      <acc value="0.8119282906" flag="0"/>
      <vel value="0.2675094777" flag="0"/>
      <psa03 value="2.1760746388" flag="0"/>
      <psa10 value="0.3114939400" flag="0"/>
      <psa30 value="0.0156245643" flag="0"/>
    </comp>
    <comp name="--.HNE">
      <acc value="0.5278455209" flag="0"/>
      <vel value="0.2215714683" flag="0"/>
      <psa03 value="1.2185488408" flag="0"/>
      <psa10 value="0.2479950201" flag="0"/>
      <psa30 value="0.0145720748" flag="0"/>
    </comp>
    <comp name="--.HNZ">
      <acc value="0.3640344185" flag="0"/>
      <vel value="0.1091934854" flag="0"/>
      <psa03 value="0.7321241714" flag="0"/>
      <psa10 value="0.2061074418" flag="0"/>
      <psa30 value="0.0082013941" flag="0"/>
    </comp>
  </station>
  <station code="EVR" name="EVR" netid="HL" insttype="DR24" lat="38.9166" lon="21.8105">
    <comp name="--.HHE">
      <acc value="0.0588158963" flag="0"/>
      <vel value="0.0207730709" flag="0"/>
      <psa03 value="0.0964176026" flag="0"/>
      <psa10 value="0.0122926826" flag="0"/>
      <psa30 value="0.0012705814" flag="0"/>
    </comp>
    <comp name="--.HHN">
      <acc value="0.0368738190" flag="0"/>
      <vel value="0.0179017213" flag="0"/>
      <psa03 value="0.0792528600" flag="0"/>
      <psa10 value="0.0102442033" flag="0"/>
      <psa30 value="0.0015453742" flag="0"/>
    </comp>
    <comp name="--.HHZ">
      <acc value="0.0217094177" flag="0"/>
      <vel value="0.0104726608" flag="0"/>
      <psa03 value="0.0384842040" flag="0"/>
      <psa10 value="0.0179004898" flag="0"/>
      <psa30 value="0.0011769798" flag="0"/>
    </comp>
  </station>
  <station code="LXRA" name="LXRA" netid="HL" insttype="CMG-5" lat="38.2001" lon="20.4372">
    <comp name="00.HNE">
      <acc value="0.1322176596" flag="0"/>
      <vel value="0.0447756770" flag="0"/>
      <psa03 value="0.2515717181" flag="0"/>
      <psa10 value="0.0299757019" flag="0"/>
      <psa30 value="0.0018771369" flag="0"/>
    </comp>
    <comp name="00.HNN">
      <acc value="0.1144826442" flag="0"/>
      <vel value="0.0336147318" flag="0"/>
      <psa03 value="0.2676826298" flag="0"/>
      <psa10 value="0.0311234203" flag="0"/>
      <psa30 value="0.0027766348" flag="0"/>
    </comp>
    <comp name="00.HNZ">
      <acc value="0.0823123344" flag="0"/>
      <vel value="0.0187089469" flag="0"/>
      <psa03 value="0.1007889716" flag="0"/>
      <psa10 value="0.0120599136" flag="0"/>
      <psa30 value="0.0013143395" flag="0"/>
    </comp>
  </station>
  <station code="ORTH" name="ORTH" netid="HL" insttype="30" lat="37.8511" lon="20.6963">
    <comp name="--.HHE">
      <acc value="0.0354032457" flag="0"/>
      <vel value="0.0273232283" flag="0"/>
      <psa03 value="0.0865343369" flag="0"/>
      <psa10 value="0.0273738885" flag="0"/>
      <psa30 value="0.0014990449" flag="0"/>
    </comp>
    <comp name="--.HHN">
      <acc value="0.0310792558" flag="0"/>
      <vel value="0.0184031105" flag="0"/>
      <psa03 value="0.0960770965" flag="0"/>
      <psa10 value="0.0207786367" flag="0"/>
      <psa30 value="0.0008142155" flag="0"/>
    </comp>
    <comp name="--.HHZ">
      <acc value="0.0122260131" flag="0"/>
      <vel value="0.0054697169" flag="0"/>
      <psa03 value="0.0396009298" flag="0"/>
      <psa10 value="0.0061312952" flag="0"/>
      <psa30 value="0.0003682577" flag="0"/>
    </comp>
  </station>
  <station code="PATC" name="PATC" netid="HL" insttype="CMG-5" lat="38.2693" lon="21.76">
    <comp name="00.HNZ">
      <acc value="0.0420671888" flag="0"/>
      <vel value="0.0285557597" flag="0"/>
      <psa03 value="0.1785373597" flag="0"/>
      <psa10 value="0.0320752592" flag="0"/>
      <psa30 value="0.0029941640" flag="0"/>
    </comp>
    <comp name="00.HNE">
      <acc value="0.0652273983" flag="0"/>
      <vel value="0.0381282811" flag="0"/>
      <psa03 value="0.2760400979" flag="0"/>
      <psa10 value="0.0397170287" flag="0"/>
      <psa30 value="0.0069260376" flag="0"/>
    </comp>
    <comp name="00.HNN">
      <acc value="0.0533716728" flag="0"/>
      <vel value="0.0409680251" flag="0"/>
      <psa03 value="0.1864812591" flag="0"/>
      <psa10 value="0.0534836609" flag="0"/>
      <psa30 value="0.0072764903" flag="0"/>
    </comp>
  </station>
  <station code="PATG" name="PATG" netid="HL" insttype="CMG-5" lat="38.2386" lon="21.7266">
    <comp name="00.HNN">
      <acc value="0.1128014117" flag="0"/>
      <vel value="0.0543904927" flag="0"/>
      <psa03 value="0.2456742680" flag="0"/>
      <psa10 value="0.0384488870" flag="0"/>
      <psa30 value="0.0061717647" flag="0"/>
    </comp>
    <comp name="00.HNZ">
      <acc value="0.0432384622" flag="0"/>
      <vel value="0.0241071811" flag="0"/>
      <psa03 value="0.0932369460" flag="0"/>
      <psa10 value="0.0439354598" flag="0"/>
      <psa30 value="0.0029375958" flag="0"/>
    </comp>
    <comp name="00.HNE">
      <acc value="0.0923865200" flag="0"/>
      <vel value="0.0495508410" flag="0"/>
      <psa03 value="0.1922410683" flag="0"/>
      <psa10 value="0.0623099795" flag="0"/>
      <psa30 value="0.0066429351" flag="0"/>
    </comp>
  </station>
  <station code="RIOA" name="RIOA" netid="HL" insttype="CMG-5" lat="38.2959" lon="21.7912">
    <comp name="00.HNZ">
      <acc value="0.0397744800" flag="0"/>
      <vel value="0.0174829828" flag="0"/>
      <psa03 value="0.0661259068" flag="0"/>
      <psa10 value="0.0149235858" flag="0"/>
      <psa30 value="0.0024710424" flag="0"/>
    </comp>
    <comp name="00.HNE">
      <acc value="0.0689623868" flag="0"/>
      <vel value="0.0347327006" flag="0"/>
      <psa03 value="0.1780403756" flag="0"/>
      <psa10 value="0.0254841101" flag="0"/>
      <psa30 value="0.0029678580" flag="0"/>
    </comp>
    <comp name="00.HNN">
      <acc value="0.0678611462" flag="0"/>
      <vel value="0.0297055801" flag="0"/>
      <psa03 value="0.1235364450" flag="0"/>
      <psa10 value="0.0342050013" flag="0"/>
      <psa30 value="0.0033015627" flag="0"/>
    </comp>
  </station>
  <station code="RLS" name="RLS" netid="HL" insttype="CMG3ESPC-120s" lat="38.0559" lon="21.4647">
    <comp name="--.HHZ">
      <acc value="0.0123189089" flag="0"/>
      <vel value="0.0063908948" flag="0"/>
      <psa03 value="0.0236945674" flag="0"/>
      <psa10 value="0.0075577341" flag="0"/>
      <psa30 value="0.0010408205" flag="0"/>
    </comp>
    <comp name="--.HHN">
      <acc value="0.0240835766" flag="0"/>
      <vel value="0.0119357203" flag="0"/>
      <psa03 value="0.0578727541" flag="0"/>
      <psa10 value="0.0218243820" flag="0"/>
      <psa30 value="0.0012502883" flag="0"/>
    </comp>
    <comp name="--.HHE">
      <acc value="0.0216049222" flag="0"/>
      <vel value="0.0153166837" flag="0"/>
      <psa03 value="0.0477496223" flag="0"/>
      <psa10 value="0.0150597807" flag="0"/>
      <psa30 value="0.0010943466" flag="0"/>
    </comp>
  </station>
  <station code="TETR" name="TETR" netid="HL" insttype="60" lat="39.3445" lon="21.2747">
    <comp name="--.HHE">
      <acc value="0.0744132356" flag="0"/>
      <vel value="0.0281218450" flag="0"/>
      <psa03 value="0.1177104935" flag="0"/>
      <psa10 value="0.0167835029" flag="0"/>
      <psa30 value="0.0014778025" flag="0"/>
    </comp>
    <comp name="--.HHN">
      <acc value="0.0627110832" flag="0"/>
      <vel value="0.0197958226" flag="0"/>
      <psa03 value="0.0855446564" flag="0"/>
      <psa10 value="0.0119454690" flag="0"/>
      <psa30 value="0.0023322302" flag="0"/>
    </comp>
    <comp name="--.HHZ">
      <acc value="0.0233352823" flag="0"/>
      <vel value="0.0088002903" flag="0"/>
      <psa03 value="0.0339963248" flag="0"/>
      <psa10 value="0.0117838587" flag="0"/>
      <psa30 value="0.0011438636" flag="0"/>
    </comp>
  </station>
  <station code="THL" name="THL" netid="HL" insttype="120" lat="39.5647" lon="22.0144">
    <comp name="--.HHN">
      <acc value="0.0023411876" flag="0"/>
      <vel value="0.0011836826" flag="0"/>
      <psa03 value="0.0056287579" flag="0"/>
      <psa10 value="0.0016342596" flag="0"/>
      <psa30 value="0.0002015342" flag="0"/>
    </comp>
    <comp name="--.HHE">
      <acc value="0.0041150795" flag="0"/>
      <vel value="0.0020847796" flag="0"/>
      <psa03 value="0.0101964081" flag="0"/>
      <psa10 value="0.0023377394" flag="0"/>
      <psa30 value="0.0004451636" flag="0"/>
    </comp>
    <comp name="--.HHZ">
      <acc value="0.0027608299" flag="0"/>
      <vel value="0.0023294461" flag="0"/>
      <psa03 value="0.0055699797" flag="0"/>
      <psa10 value="0.0017843760" flag="0"/>
      <psa30 value="0.0004370773" flag="0"/>
    </comp>
  </station>
  <station code="VLS" name="VLS" netid="HL" insttype="120P," lat="38.1768" lon="20.5886">
    <comp name="--.HHE">
      <acc value="0.2556320954" flag="0"/>
      <vel value="0.0353699956" flag="0"/>
      <psa03 value="0.1375349413" flag="0"/>
      <psa10 value="0.0071642950" flag="0"/>
      <psa30 value="0.0006055041" flag="0"/>
    </comp>
    <comp name="--.HHZ">
      <acc value="0.0617890547" flag="0"/>
      <vel value="0.0151520646" flag="0"/>
      <psa03 value="0.0678587111" flag="0"/>
      <psa10 value="0.0090706344" flag="0"/>
      <psa30 value="0.0009175968" flag="0"/>
    </comp>
    <comp name="--.HHN">
      <acc value="0.1093378848" flag="0"/>
      <vel value="0.0192876347" flag="0"/>
      <psa03 value="0.0952747838" flag="0"/>
      <psa10 value="0.0092283052" flag="0"/>
      <psa30 value="0.0005843339" flag="0"/>
    </comp>
  </station>
  <station code="AMPL" name="AMPL" netid="HP" insttype="Compact," lat="38.9224" lon="21.2135">
    <comp name="--.HHE">
      <acc value="0.9965130525" flag="0"/>
      <vel value="0.1821208059" flag="0"/>
      <psa03 value="0.7626000624" flag="0"/>
      <psa10 value="0.1083914143" flag="0"/>
      <psa30 value="0.0144278984" flag="0"/>
    </comp>
    <comp name="--.HHN">
