<?xml version="1.0" encoding="UTF-8" standalone="yes"?>
<!DOCTYPE earthquake SYSTEM "stationlist.dtd">
<stationlist created="" xmlns="ch.ethz.sed.shakemap.usgs.xml">
  <station code="PSAM" name="PSAM" netid="CL" insttype="CMG40-T" lat="38.3218" lon="22.1842">
    <comp name="00.HHE">
      <acc value="0.0135839538" flag="0"/>
      <vel value="0.0105815963" flag="0"/>
      <psa03 value="0.0394236165" flag="0"/>
      <psa10 value="0.0142163062" flag="0"/>
      <psa30 value="0.0018003073" flag="0"/>
    </comp>
    <comp name="00.HHZ">
      <acc value="0.0067497791" flag="0"/>
      <vel value="0.0072610737" flag="0"/>
      <psa03 value="0.0185757054" flag="0"/>
      <psa10 value="0.0091599465" flag="0"/>
      <psa30 value="0.0008581460" flag="0"/>
    </comp>
    <comp name="00.HHN">
      <acc value="0.0108138123" flag="0"/>
      <vel value="0.0080730453" flag="0"/>
      <psa03 value="0.0308783576" flag="0"/>
      <psa10 value="0.0152724459" flag="0"/>
      <psa30 value="0.0015694389" flag="0"/>
    </comp>
  </station>
  <station code="ROD3" name="ROD3" netid="CL" insttype="CMG40-T" lat="38.3081" lon="21.892">
    <comp name="00.HHZ">
      <acc value="0.0400468847" flag="0"/>
      <vel value="0.0188795909" flag="0"/>
      <psa03 value="0.0747231299" flag="0"/>
      <psa10 value="0.0160963720" flag="0"/>
      <psa30 value="0.0012911140" flag="0"/>
    </comp>
    <comp name="00.HHN">
      <acc value="0.0775457405" flag="0"/>
      <vel value="0.0396359865" flag="0"/>
      <psa03 value="0.2832676941" flag="0"/>
      <psa10 value="0.0306578172" flag="0"/>
      <psa30 value="0.0026249707" flag="0"/>
    </comp>
    <comp name="00.HHE">
      <acc value="0.1030132611" flag="0"/>
      <vel value="0.0588137176" flag="0"/>
      <psa03 value="0.4461458213" flag="0"/>
      <psa10 value="0.0468625962" flag="0"/>
      <psa30 value="0.0026270449" flag="0"/>
    </comp>
  </station>
  <station code="TRIZ" name="TRIZ" netid="CL" insttype="STS-2" lat="38.3654" lon="22.0727">
    <comp name="00.HH2">
      <acc value="0.0423658541" flag="0"/>
      <vel value="0.0195218113" flag="0"/>
      <psa03 value="0.1722846119" flag="0"/>
      <psa10 value="0.0163733146" flag="0"/>
      <psa30 value="0.0013273276" flag="0"/>
    </comp>
    <comp name="00.HH3">
      <acc value="0.0365081688" flag="0"/>
      <vel value="0.0229578329" flag="0"/>
      <psa03 value="0.1856174907" flag="0"/>
      <psa10 value="0.0163074429" flag="0"/>
      <psa30 value="0.0012622488" flag="0"/>
    </comp>
    <comp name="00.HHZ">
      <acc value="0.0145319091" flag="0"/>
      <vel value="0.0086948744" flag="0"/>
      <psa03 value="0.0520041056" flag="0"/>
      <psa10 value="0.0068398520" flag="0"/>
      <psa30 value="0.0008253465" flag="0"/>
    </comp>
  </station>
  <station code="ZIRI" name="ZIRI" netid="CL" insttype="TRILLIUM-40" lat="38.3051" lon="21.9476">
    <comp name="01.HHZ">
      <acc value="0.0473824077" flag="0"/>
      <vel value="0.0229821052" flag="0"/>
      <psa03 value="0.1659063784" flag="0"/>
      <psa10 value="0.0120387025" flag="0"/>
      <psa30 value="0.0019033104" flag="0"/>
    </comp>
    <comp name="01.HHN">
      <acc value="0.0788972723" flag="0"/>
      <vel value="0.0352521981" flag="0"/>
      <psa03 value="0.1713119832" flag="0"/>
      <psa10 value="0.0305848968" flag="0"/>
      <psa30 value="0.0021324453" flag="0"/>
    </comp>
    <comp name="01.HHE">
      <acc value="0.0672052346" flag="0"/>
      <vel value="0.0414705085" flag="0"/>
      <psa03 value="0.1397827051" flag="0"/>
      <psa10 value="0.0252711700" flag="0"/>
      <psa30 value="0.0018005283" flag="0"/>
    </comp>
  </station>
  <station code="ATHR" name="ATHR" netid="HA" insttype="GEOtiny," lat="38.3172" lon="20.4165">
    <comp name="--.HHZ">
      <acc value="0.0182977593" flag="0"/>
      <vel value="0.0083113361" flag="0"/>
      <psa03 value="0.0452714479" flag="0"/>
      <psa10 value="0.0064474505" flag="0"/>
      <psa30 value="0.0006171221" flag="0"/>
    </comp>
    <comp name="--.HHE">
      <acc value="0.0345753787" flag="0"/>
      <vel value="0.0143360260" flag="0"/>
      <psa03 value="0.0953187978" flag="0"/>
      <psa10 value="0.0086210769" flag="0"/>
      <psa30 value="0.0013944644" flag="0"/>
    </comp>
    <comp name="--.HHN">
      <acc value="0.0260423447" flag="0"/>
      <vel value="0.0152149277" flag="0"/>
      <psa03 value="0.0671979585" flag="0"/>
      <psa10 value="0.0117420510" flag="0"/>
      <psa30 value="0.0012610279" flag="0"/>
    </comp>
  </station>
  <station code="HAVD" name="HAVD" netid="HA" insttype="GEOtiny," lat="38.2036" lon="20.3848">
    <comp name="--.HHN">
      <acc value="0.0420432253" flag="0"/>
      <vel value="0.0242733337" flag="0"/>
      <psa03 value="0.1163515538" flag="0"/>
      <psa10 value="0.0143815779" flag="0"/>
      <psa30 value="0.0012295071" flag="0"/>
    </comp>
    <comp name="--.HHZ">
      <acc value="0.0296720214" flag="0"/>
      <vel value="0.0106769806" flag="0"/>
      <psa03 value="0.0620684750" flag="0"/>
      <psa10 value="0.0049409919" flag="0"/>
      <psa30 value="0.0006886023" flag="0"/>
    </comp>
    <comp name="--.HHE">
      <acc value="0.0386025040" flag="0"/>
      <vel value="0.0152860313" flag="0"/>
      <psa03 value="0.0671234729" flag="0"/>
      <psa10 value="0.0158929917" flag="0"/>
      <psa30 value="0.0008001014" flag="0"/>
    </comp>
  </station>
  <station code="KALE" name="KALE" netid="HA" insttype="40," lat="38.3911" lon="22.1398">
    <comp name="--.HHE">
      <acc value="0.0249912680" flag="0"/>
      <vel value="0.0116126142" flag="0"/>
      <psa03 value="0.0856618960" flag="0"/>
      <psa10 value="0.0120732884" flag="0"/>
      <psa30 value="0.0011368533" flag="0"/>
    </comp>
    <comp name="--.HHN">
      <acc value="0.0265299723" flag="0"/>
      <vel value="0.0119121425" flag="0"/>
      <psa03 value="0.0866989673" flag="0"/>
      <psa10 value="0.0120342999" flag="0"/>
      <psa30 value="0.0009852563" flag="0"/>
    </comp>
    <comp name="--.HHZ">
      <acc value="0.0130730765" flag="0"/>
      <vel value="0.0050166242" flag="0"/>
      <psa03 value="0.0219141562" flag="0"/>
      <psa10 value="0.0064741074" flag="0"/>
      <psa30 value="0.0009309213" flag="0"/>
    </comp>
  </station>
  <station code="LAKA" name="LAKA" netid="HA" insttype="120s," lat="38.2401" lon="21.9785">
    <comp name="--.HHZ">
      <acc value="0.0099084451" flag="0"/>
      <vel value="0.0058219813" flag="0"/>
      <psa03 value="0.0227740291" flag="0"/>
      <psa10 value="0.0079276894" flag="0"/>
      <psa30 value="0.0007702628" flag="0"/>
    </comp>
    <comp name="--.HHE">
      <acc value="0.0088037471" flag="0"/>
      <vel value="0.0049146930" flag="0"/>
      <psa03 value="0.0222424050" flag="0"/>
      <psa10 value="0.0071404257" flag="0"/>
      <psa30 value="0.0004251893" flag="0"/>
    </comp>
    <comp name="--.HHN">
      <acc value="0.0120478510" flag="0"/>
      <vel value="0.0089830362" flag="0"/>
      <psa03 value="0.0281421450" flag="0"/>
      <psa10 value="0.0050595498" flag="0"/>
      <psa30 value="0.0005984676" flag="0"/>
    </comp>
  </station>
  <station code="ARG2" name="ARG2" netid="HI" insttype="CMG-5TD,ACCELEROMETER,GURALP" lat="38.1783" lon="20.4878">
    <comp name="--.HNE">
      <acc value="0.1327690941" flag="0"/>
      <vel value="0.0486586296" flag="0"/>
      <psa03 value="0.3253918317" flag="0"/>
      <psa10 value="0.0167979531" flag="0"/>
      <psa30 value="0.0011342939" flag="0"/>
    </comp>
    <comp name="--.HNZ">
      <acc value="0.0847708063" flag="0"/>
      <vel value="0.0275394548" flag="0"/>
      <psa03 value="0.2247936565" flag="0"/>
      <psa10 value="0.0109011363" flag="0"/>
      <psa30 value="0.0007326817" flag="0"/>
    </comp>
    <comp name="--.HNN">
      <acc value="0.1567887546" flag="0"/>
      <vel value="0.0455887838" flag="0"/>
      <psa03 value="0.2397634796" flag="0"/>
      <psa10 value="0.0217210765" flag="0"/>
      <psa30 value="0.0013572579" flag="0"/>
    </comp>
  </station>
  <station code="ART2" name="ART2" netid="HI" insttype="CMG-5TD,ACCELEROMETER,GURALP" lat="39.1474" lon="20.9937">
    <comp name="--.HNN">
      <acc value="0.1518103436" flag="0"/>
      <vel value="0.0422707887" flag="0"/>
      <psa03 value="0.1225878332" flag="0"/>
      <psa10 value="0.0120504723" flag="0"/>
      <psa30 value="0.0017277948" flag="0"/>
    </comp>
    <comp name="--.HNE">
      <acc value="0.1080059420" flag="0"/>
      <vel value="0.0294127000" flag="0"/>
      <psa03 value="0.1305876462" flag="0"/>
      <psa10 value="0.0143874384" flag="0"/>
      <psa30 value="0.0016382706" flag="0"/>
    </comp>
    <comp name="--.HNZ">
      <acc value="0.1225384650" flag="0"/>
      <vel value="0.0307564288" flag="0"/>
      <psa03 value="0.1536846047" flag="0"/>
      <psa10 value="0.0232857544" flag="0"/>
      <psa30 value="0.0019589273" flag="0"/>
    </comp>
  </station>
  <station code="MSL1" name="MSL1" netid="HI" insttype="CMG-5TD,ACCELEROMETER,GURALP" lat="38.3727" lon="21.4243">
    <comp name="--.HNE">
      <acc value="0.4111965103" flag="0"/>
      <vel value="0.3733992434" flag="0"/>
      <psa03 value="1.1030369909" flag="0"/>
      <psa10 value="0.3080517193" flag="0"/>
      <psa30 value="0.0141734234" flag="0"/>
    </comp>
    <comp name="--.HNN">
      <acc value="0.6718300218" flag="0"/>
      <vel value="0.5516883488" flag="0"/>
      <psa03 value="2.1910010322" flag="0"/>
      <psa10 value="0.4373326246" flag="0"/>
      <psa30 value="0.0240645864" flag="0"/>
    </comp>
    <comp name="--.HNZ">
      <acc value="0.1890112026" flag="0"/>
      <vel value="0.1533769305" flag="0"/>
      <psa03 value="0.4106056178" flag="0"/>
      <psa10 value="0.1967874541" flag="0"/>
      <psa30 value="0.0091549781" flag="0"/>
    </comp>
  </station>
  <station code="VAS2" name="VAS2" netid="HI" insttype="CMG-5TD,ACCELEROMETER,GURALP" lat="38.6306" lon="20.6081">
    <comp name="--.HNE">
      <acc value="0.5278455228" flag="0"/>
      <vel value="0.2215714699" flag="0"/>
      <psa03 value="1.2185488408" flag="0"/>
      <psa10 value="0.2479950201" flag="0"/>
      <psa30 value="0.0145717834" flag="0"/>
    </comp>
    <comp name="--.HNN">
      <acc value="0.8119282893" flag="0"/>
      <vel value="0.2675094765" flag="0"/>
      <psa03 value="2.1760746388" flag="0"/>
      <psa10 value="0.3114939398" flag="0"/>
      <psa30 value="0.0156246465" flag="0"/>
    </comp>
    <comp name="--.HNZ">
      <acc value="0.3640344181" flag="0"/>
      <vel value="0.1091934883" flag="0"/>
      <psa03 value="0.7321241714" flag="0"/>
      <psa10 value="0.2061074421" flag="0"/>
      <psa30 value="0.0082015468" flag="0"/>
    </comp>
  </station>
  <station code="EVR" name="EVR" netid="HL" insttype="DR24" lat="38.9166" lon="21.8105">
    <comp name="--.HHE">
      <acc value="0.0588158965" flag="0"/>
      <vel value="0.0207730711" flag="0"/>
      <psa03 value="0.0964176026" flag="0"/>
      <psa10 value="0.0122926827" flag="0"/>
      <psa30 value="0.0012706251" flag="0"/>
    </comp>
    <comp name="--.HHN">
      <acc value="0.0368738190" flag="0"/>
      <vel value="0.0179017204" flag="0"/>
      <psa03 value="0.0792528600" flag="0"/>
      <psa10 value="0.0102442032" flag="0"/>
      <psa30 value="0.0015454380" flag="0"/>
    </comp>
    <comp name="--.HHZ">
      <acc value="0.0217094174" flag="0"/>
      <vel value="0.0104726617" flag="0"/>
      <psa03 value="0.0384842040" flag="0"/>
      <psa10 value="0.0179004899" flag="0"/>
      <psa30 value="0.0011769819" flag="0"/>
    </comp>
  </station>
  <station code="LXRA" name="LXRA" netid="HL" insttype="CMG-5" lat="38.2001" lon="20.4372">
    <comp name="00.HNZ">
      <acc value="0.0823123363" flag="0"/>
      <vel value="0.0187089455" flag="0"/>
      <psa03 value="0.1007889716" flag="0"/>
      <psa10 value="0.0120599136" flag="0"/>
      <psa30 value="0.0013143108" flag="0"/>
    </comp>
    <comp name="00.HNN">
      <acc value="0.1144826429" flag="0"/>
      <vel value="0.0336147321" flag="0"/>
      <psa03 value="0.2676826298" flag="0"/>
      <psa10 value="0.0311234202" flag="0"/>
      <psa30 value="0.0027766348" flag="0"/>
    </comp>
    <comp name="00.HNE">
      <acc value="0.1322176605" flag="0"/>
      <vel value="0.0447756805" flag="0"/>
      <psa03 value="0.2515717181" flag="0"/>
      <psa10 value="0.0299757019" flag="0"/>
      <psa30 value="0.0018769967" flag="0"/>
    </comp>
  </station>
  <station code="ORTH" name="ORTH" netid="HL" insttype="30" lat="37.8511" lon="20.6963">
    <comp name="--.HHZ">
      <acc value="0.0122260135" flag="0"/>
      <vel value="0.0054697170" flag="0"/>
      <psa03 value="0.0396009298" flag="0"/>
      <psa10 value="0.0061312952" flag="0"/>
      <psa30 value="0.0003682282" flag="0"/>
    </comp>
    <comp name="--.HHE">
      <acc value="0.0354032452" flag="0"/>
      <vel value="0.0273232287" flag="0"/>
      <psa03 value="0.0865343369" flag="0"/>
      <psa10 value="0.0273738884" flag="0"/>
      <psa30 value="0.0014989905" flag="0"/>
    </comp>
    <comp name="--.HHN">
      <acc value="0.0310792555" flag="0"/>
      <vel value="0.0184031108" flag="0"/>
      <psa03 value="0.0960770965" flag="0"/>
      <psa10 value="0.0207786367" flag="0"/>
      <psa30 value="0.0008142299" flag="0"/>
    </comp>
  </station>
  <station code="PATC" name="PATC" netid="HL" insttype="CMG-5" lat="38.2693" lon="21.76">
    <comp name="00.HNE">
      <acc value="0.0652273978" flag="0"/>
      <vel value="0.0381282851" flag="0"/>
      <psa03 value="0.2760400979" flag="0"/>
      <psa10 value="0.0397170287" flag="0"/>
      <psa30 value="0.0069260202" flag="0"/>
    </comp>
    <comp name="00.HNN">
      <acc value="0.0533716741" flag="0"/>
      <vel value="0.0409680286" flag="0"/>
      <psa03 value="0.1864812591" flag="0"/>
      <psa10 value="0.0534836609" flag="0"/>
      <psa30 value="0.0072764456" flag="0"/>
    </comp>
    <comp name="00.HNZ">
      <acc value="0.0420671898" flag="0"/>
      <vel value="0.0285557605" flag="0"/>
      <psa03 value="0.1785373597" flag="0"/>
      <psa10 value="0.0320752592" flag="0"/>
      <psa30 value="0.0029941560" flag="0"/>
    </comp>
  </station>
  <station code="PATG" name="PATG" netid="HL" insttype="CMG-5" lat="38.2386" lon="21.7266">
    <comp name="00.HNE">
      <acc value="0.0923865193" flag="0"/>
      <vel value="0.0495508412" flag="0"/>
      <psa03 value="0.1922410683" flag="0"/>
      <psa10 value="0.0623099796" flag="0"/>
      <psa30 value="0.0066428910" flag="0"/>
    </comp>
    <comp name="00.HNN">
      <acc value="0.1128014122" flag="0"/>
      <vel value="0.0543904889" flag="0"/>
      <psa03 value="0.2456742680" flag="0"/>
      <psa10 value="0.0384488870" flag="0"/>
      <psa30 value="0.0061720378" flag="0"/>
    </comp>
    <comp name="00.HNZ">
      <acc value="0.0432384625" flag="0"/>
      <vel value="0.0241071821" flag="0"/>
      <psa03 value="0.0932369460" flag="0"/>
      <psa10 value="0.0439354599" flag="0"/>
      <psa30 value="0.0029376195" flag="0"/>
    </comp>
  </station>
  <station code="RIOA" name="RIOA" netid="HL" insttype="CMG-5" lat="38.2959" lon="21.7912">
    <comp name="00.HNE">
      <acc value="0.0689623849" flag="0"/>
      <vel value="0.0347327001" flag="0"/>
      <psa03 value="0.1780403756" flag="0"/>
      <psa10 value="0.0254841101" flag="0"/>
      <psa30 value="0.0029678863" flag="0"/>
    </comp>
    <comp name="00.HNN">
      <acc value="0.0678611460" flag="0"/>
      <vel value="0.0297055785" flag="0"/>
      <psa03 value="0.1235364450" flag="0"/>
      <psa10 value="0.0342050017" flag="0"/>
      <psa30 value="0.0033015483" flag="0"/>
    </comp>
    <comp name="00.HNZ">
      <acc value="0.0397744810" flag="0"/>
      <vel value="0.0174829819" flag="0"/>
      <psa03 value="0.0661259068" flag="0"/>
      <psa10 value="0.0149235858" flag="0"/>
      <psa30 value="0.0024711060" flag="0"/>
    </comp>
  </station>
  <station code="RLS" name="RLS" netid="HL" insttype="CMG3ESPC-120s" lat="38.0559" lon="21.4647">
    <comp name="--.HHE">
      <acc value="0.0216049225" flag="0"/>
      <vel value="0.0153166840" flag="0"/>
      <psa03 value="0.0477496223" flag="0"/>
      <psa10 value="0.0150597807" flag="0"/>
      <psa30 value="0.0010943877" flag="0"/>
    </comp>
    <comp name="--.HHN">
      <acc value="0.0240835762" flag="0"/>
      <vel value="0.0119357208" flag="0"/>
      <psa03 value="0.0578727541" flag="0"/>
      <psa10 value="0.0218243820" flag="0"/>
      <psa30 value="0.0012502951" flag="0"/>
    </comp>
    <comp name="--.HHZ">
      <acc value="0.0123189091" flag="0"/>
      <vel value="0.0063908944" flag="0"/>
      <psa03 value="0.0236945674" flag="0"/>
      <psa10 value="0.0075577342" flag="0"/>
      <psa30 value="0.0010408048" flag="0"/>
    </comp>
  </station>
  <station code="TETR" name="TETR" netid="HL" insttype="60" lat="39.3445" lon="21.2747">
    <comp name="--.HHE">
      <acc value="0.0744132354" flag="0"/>
      <vel value="0.0281218450" flag="0"/>
      <psa03 value="0.1177104935" flag="0"/>
      <psa10 value="0.0167835029" flag="0"/>
      <psa30 value="0.0014777966" flag="0"/>
    </comp>
    <comp name="--.HHZ">
      <acc value="0.0233352822" flag="0"/>
      <vel value="0.0088002915" flag="0"/>
      <psa03 value="0.0339963248" flag="0"/>
      <psa10 value="0.0117838587" flag="0"/>
      <psa30 value="0.0011438675" flag="0"/>
    </comp>
    <comp name="--.HHN">
      <acc value="0.0627110833" flag="0"/>
      <vel value="0.0197958233" flag="0"/>
      <psa03 value="0.0855446564" flag="0"/>
      <psa10 value="0.0119454690" flag="0"/>
      <psa30 value="0.0023322375" flag="0"/>
    </comp>
  </station>
  <station code="THL" name="THL" netid="HL" insttype="120" lat="39.5647" lon="22.0144">
    <comp name="--.HHE">
      <acc value="0.0041150795" flag="0"/>
      <vel value="0.0020847794" flag="0"/>
      <psa03 value="0.0101964081" flag="0"/>
      <psa10 value="0.0023377394" flag="0"/>
      <psa30 value="0.0004451749" flag="0"/>
    </comp>
    <comp name="--.HHN">
      <acc value="0.0023411877" flag="0"/>
      <vel value="0.0011836828" flag="0"/>
      <psa03 value="0.0056287579" flag="0"/>
      <psa10 value="0.0016342596" flag="0"/>
      <psa30 value="0.0002015348" flag="0"/>
    </comp>
    <comp name="--.HHZ">
      <acc value="0.0027608301" flag="0"/>
      <vel value="0.0023294460" flag="0"/>
      <psa03 value="0.0055699797" flag="0"/>
      <psa10 value="0.0017843760" flag="0"/>
      <psa30 value="0.0004370763" flag="0"/>
    </comp>
  </station>
  <station code="VLS" name="VLS" netid="HL" insttype="120P," lat="38.1768" lon="20.5886">
    <comp name="--.HHE">
      <acc value="0.2556320955" flag="0"/>
      <vel value="0.0353699954" flag="0"/>
      <psa03 value="0.1375349413" flag="0"/>
      <psa10 value="0.0071642950" flag="0"/>
      <psa30 value="0.0006055044" flag="0"/>
    </comp>
    <comp name="--.HHN">
      <acc value="0.1093378848" flag="0"/>
      <vel value="0.0192876341" flag="0"/>
      <psa03 value="0.0952747838" flag="0"/>
      <psa10 value="0.0092283052" flag="0"/>
      <psa30 value="0.0005843435" flag="0"/>
    </comp>
    <comp name="--.HHZ">
      <acc value="0.0617890548" flag="0"/>
      <vel value="0.0151520648" flag="0"/>
      <psa03 value="0.0678587111" flag="0"/>
      <psa10 value="0.0090706344" flag="0"/>
      <psa30 value="0.0009175635" flag="0"/>
    </comp>
  </station>
  <station code="AMPL" name="AMPL" netid="HP" insttype="Compact," lat="38.9224" lon="21.2135">
    <comp name="--.HHE">
      <acc value="0.9965130527" flag="0"/>
      <vel value="0.1821208063" flag="0"/>
      <psa03 value="0.7626000624" flag="0"/>
      <psa10 value="0.1083914140" flag="0"/>
      <psa30 value="0.0144278780" flag="0"/>
    </comp>
    <comp name="--.HHN">
