<?xml version="1.0" encoding="UTF-8" standalone="yes"?>
<!DOCTYPE earthquake SYSTEM "stationlist.dtd">
<stationlist created="" xmlns="ch.ethz.sed.shakemap.usgs.xml">
  <station code="PSAM" name="PSAM" netid="CL" insttype="CMG40-T" lat="38.3218" lon="22.1842">
    <comp name="00.HHZ">
      <acc value="0.0067497794" flag="0"/>
      <vel value="0.0072610744" flag="0"/>
      <psa03 value="0.0185757054" flag="0"/>
      <psa10 value="0.0091599465" flag="0"/>
      <psa30 value="0.0008581398" flag="0"/>
    </comp>
    <comp name="00.HHN">
      <acc value="0.0108138123" flag="0"/>
      <vel value="0.0080730446" flag="0"/>
      <psa03 value="0.0308783576" flag="0"/>
      <psa10 value="0.0152724459" flag="0"/>
      <psa30 value="0.0015694301" flag="0"/>
    </comp>
    <comp name="00.HHE">
      <acc value="0.0135839539" flag="0"/>
      <vel value="0.0105815976" flag="0"/>
      <psa03 value="0.0394236165" flag="0"/>
      <psa10 value="0.0142163061" flag="0"/>
      <psa30 value="0.0018003262" flag="0"/>
    </comp>
  </station>
  <station code="ROD3" name="ROD3" netid="CL" insttype="CMG40-T" lat="38.3081" lon="21.892">
    <comp name="00.HHE">
      <acc value="0.1030132610" flag="0"/>
      <vel value="0.0588137206" flag="0"/>
      <psa03 value="0.4461458213" flag="0"/>
      <psa10 value="0.0468625962" flag="0"/>
      <psa30 value="0.0026269824" flag="0"/>
    </comp>
    <comp name="00.HHN">
      <acc value="0.0775457407" flag="0"/>
      <vel value="0.0396359871" flag="0"/>
      <psa03 value="0.2832676941" flag="0"/>
      <psa10 value="0.0306578172" flag="0"/>
      <psa30 value="0.0026250801" flag="0"/>
    </comp>
    <comp name="00.HHZ">
      <acc value="0.0400468849" flag="0"/>
      <vel value="0.0188795921" flag="0"/>
      <psa03 value="0.0747231299" flag="0"/>
      <psa10 value="0.0160963721" flag="0"/>
      <psa30 value="0.0012910961" flag="0"/>
    </comp>
  </station>
  <station code="TRIZ" name="TRIZ" netid="CL" insttype="STS-2" lat="38.3654" lon="22.0727">
    <comp name="00.HHZ">
      <acc value="0.0145319091" flag="0"/>
      <vel value="0.0086948749" flag="0"/>
      <psa03 value="0.0520041056" flag="0"/>
      <psa10 value="0.0068398520" flag="0"/>
      <psa30 value="0.0008253437" flag="0"/>
    </comp>
    <comp name="00.HH3">
      <acc value="0.0365081687" flag="0"/>
      <vel value="0.0229578325" flag="0"/>
      <psa03 value="0.1856174907" flag="0"/>
      <psa10 value="0.0163074429" flag="0"/>
      <psa30 value="0.0012621734" flag="0"/>
    </comp>
    <comp name="00.HH2">
      <acc value="0.0423658540" flag="0"/>
      <vel value="0.0195218135" flag="0"/>
      <psa03 value="0.1722846119" flag="0"/>
      <psa10 value="0.0163733146" flag="0"/>
      <psa30 value="0.0013273405" flag="0"/>
    </comp>
  </station>
  <station code="ZIRI" name="ZIRI" netid="CL" insttype="TRILLIUM-40" lat="38.3051" lon="21.9476">
    <comp name="01.HHN">
      <acc value="0.0788972725" flag="0"/>
      <vel value="0.0352522003" flag="0"/>
      <psa03 value="0.1713119832" flag="0"/>
      <psa10 value="0.0305848968" flag="0"/>
      <psa30 value="0.0021323759" flag="0"/>
    </comp>
    <comp name="01.HHZ">
      <acc value="0.0473824076" flag="0"/>
      <vel value="0.0229821028" flag="0"/>
      <psa03 value="0.1659063784" flag="0"/>
      <psa10 value="0.0120387025" flag="0"/>
      <psa30 value="0.0019033125" flag="0"/>
    </comp>
    <comp name="01.HHE">
      <acc value="0.0672052343" flag="0"/>
      <vel value="0.0414705035" flag="0"/>
      <psa03 value="0.1397827051" flag="0"/>
      <psa10 value="0.0252711699" flag="0"/>
      <psa30 value="0.0018004413" flag="0"/>
    </comp>
  </station>
  <station code="THL" name="THL" netid="MN" insttype="" lat="39.5647" lon="22.0144">
    <comp name="--.HHZ">
      <acc value="0.0027608299" flag="0"/>
      <vel value="0.0023294461" flag="0"/>
      <psa03 value="0.0055699797" flag="0"/>
      <psa10 value="0.0017843760" flag="0"/>
      <psa30 value="0.0004370773" flag="0"/>
    </comp>
  </station>
</stationlist>
