<?xml version="1.0" encoding="UTF-8" standalone="yes"?>
<!DOCTYPE earthquake SYSTEM "stationlist.dtd">
<stationlist created="" xmlns="ch.ethz.sed.shakemap.usgs.xml">
  <station code="GVD" name="GVD" netid="GE" insttype="STS-2/N" lat="34.8391" lon="24.0874">
    <comp name="--.HHZ">
      <acc value="0.0171544064" flag="0"/>
      <vel value="0.0062814754" flag="0"/>
      <psa03 value="0.0320664124" flag="0"/>
      <psa10 value="0.0100969215" flag="0"/>
      <psa30 value="0.0009527259" flag="0"/>
    </comp>
    <comp name="--.HHE">
      <acc value="0.1461780872" flag="0"/>
      <vel value="0.0150687284" flag="0"/>
      <psa03 value="0.0760892024" flag="0"/>
      <psa10 value="0.0243895746" flag="0"/>
      <psa30 value="0.0028926977" flag="0"/>
    </comp>
  </station>
  <station code="IMMV" name="IMMV" netid="GE" insttype="STS-2/N" lat="35.4606" lon="23.9811">
    <comp name="--.HHN">
      <acc value="0.0115049943" flag="0"/>
      <vel value="0.0129525123" flag="0"/>
      <psa03 value="0.0368032487" flag="0"/>
      <psa10 value="0.0175118537" flag="0"/>
      <psa30 value="0.0027816555" flag="0"/>
    </comp>
    <comp name="--.HHZ">
      <acc value="0.0093613639" flag="0"/>
      <vel value="0.0092112503" flag="0"/>
      <psa03 value="0.0243881372" flag="0"/>
      <psa10 value="0.0098358368" flag="0"/>
      <psa30 value="0.0011312339" flag="0"/>
    </comp>
  </station>
  <station code="CHAN" name="CHAN" netid="HC" insttype="120" lat="35.5193" lon="24.0428">
    <comp name="--.HHN">
      <acc value="0.0240642599" flag="0"/>
      <vel value="0.0329571026" flag="0"/>
      <psa03 value="0.0515112539" flag="0"/>
      <psa10 value="0.0572725748" flag="0"/>
      <psa30 value="0.0053394585" flag="0"/>
    </comp>
    <comp name="--.HHE">
      <acc value="0.0224199121" flag="0"/>
      <vel value="0.0314951360" flag="0"/>
      <psa03 value="0.0676081192" flag="0"/>
      <psa10 value="0.0662097639" flag="0"/>
      <psa30 value="0.0060866498" flag="0"/>
    </comp>
    <comp name="--.HHZ">
      <acc value="0.0135069572" flag="0"/>
      <vel value="0.0161056985" flag="0"/>
      <psa03 value="0.0395722110" flag="0"/>
      <psa10 value="0.0243355021" flag="0"/>
      <psa30 value="0.0023034748" flag="0"/>
    </comp>
  </station>
  <station code="GVDS" name="GVDS" netid="HC" insttype="60" lat="34.8389" lon="24.0585">
    <comp name="--.HHN">
      <acc value="0.0210885999" flag="0"/>
      <vel value="0.0084363388" flag="0"/>
      <psa03 value="0.0597184581" flag="0"/>
      <psa10 value="0.0124711389" flag="0"/>
      <psa30 value="0.0013039264" flag="0"/>
    </comp>
    <comp name="--.HHZ">
      <acc value="0.0128559998" flag="0"/>
      <vel value="0.0050096155" flag="0"/>
      <psa03 value="0.0200231721" flag="0"/>
      <psa10 value="0.0070805207" flag="0"/>
      <psa30 value="0.0007800516" flag="0"/>
    </comp>
    <comp name="--.HHE">
      <acc value="0.0219591925" flag="0"/>
      <vel value="0.0081829719" flag="0"/>
      <psa03 value="0.0403144921" flag="0"/>
      <psa10 value="0.0153643523" flag="0"/>
      <psa30 value="0.0007874864" flag="0"/>
    </comp>
  </station>
  <station code="IPPL" name="IPPL" netid="HC" insttype="60" lat="35.3486" lon="24.4632">
    <comp name="--.HHE">
      <acc value="0.0000000000" flag="0"/>
      <vel value="-100.0000000000" flag="0"/>
      <psa03 value="0.0000000000" flag="0"/>
      <psa10 value="0.0000000000" flag="0"/>
      <psa30 value="0.0000000000" flag="0"/>
    </comp>
    <comp name="--.HHN">
      <acc value="0.0000000000" flag="0"/>
      <vel value="-100.0000000000" flag="0"/>
      <psa03 value="0.0000000000" flag="0"/>
      <psa10 value="0.0000000000" flag="0"/>
      <psa30 value="0.0000000000" flag="0"/>
    </comp>
    <comp name="--.HHZ">
      <acc value="0.0046523871" flag="0"/>
      <vel value="0.0034765022" flag="0"/>
      <psa03 value="0.0107252446" flag="0"/>
      <psa10 value="0.0053885740" flag="0"/>
      <psa30 value="0.0007230016" flag="0"/>
    </comp>
  </station>
  <station code="KNDR" name="KNDR" netid="HC" insttype="120" lat="35.2348" lon="23.6248">
    <comp name="--.HHZ">
      <acc value="0.0368099913" flag="0"/>
      <vel value="0.0183154115" flag="0"/>
      <psa03 value="0.1165793374" flag="0"/>
      <psa10 value="0.0235048473" flag="0"/>
      <psa30 value="0.0015876805" flag="0"/>
    </comp>
    <comp name="--.HHN">
      <acc value="0.0537800583" flag="0"/>
      <vel value="0.0293923286" flag="0"/>
      <psa03 value="0.1163769233" flag="0"/>
      <psa10 value="0.0518038574" flag="0"/>
      <psa30 value="0.0021619237" flag="0"/>
    </comp>
    <comp name="--.HHE">
      <acc value="0.0665546674" flag="0"/>
      <vel value="0.0351606277" flag="0"/>
      <psa03 value="0.1973915827" flag="0"/>
      <psa10 value="0.0495165658" flag="0"/>
      <psa30 value="0.0031908663" flag="0"/>
    </comp>
  </station>
  <station code="PASK" name="PASK" netid="HC" insttype="DC" lat="35.4996" lon="24.0121">
    <comp name="--.HNE">
      <acc value="0.0254861855" flag="0"/>
      <vel value="0.0276497432" flag="0"/>
      <psa03 value="0.0555503819" flag="0"/>
      <psa10 value="0.0659411070" flag="0"/>
      <psa30 value="0.0057306127" flag="0"/>
    </comp>
    <comp name="--.HNZ">
      <acc value="0.0136649614" flag="0"/>
      <vel value="0.0127156484" flag="0"/>
      <psa03 value="0.0386605476" flag="0"/>
      <psa10 value="0.0196786842" flag="0"/>
      <psa30 value="0.0025564116" flag="0"/>
    </comp>
    <comp name="--.HNN">
      <acc value="0.0290905956" flag="0"/>
      <vel value="0.0250453687" flag="0"/>
      <psa03 value="0.0598413574" flag="0"/>
      <psa10 value="0.0423156289" flag="0"/>
      <psa30 value="0.0043033801" flag="0"/>
    </comp>
  </station>
  <station code="RODP" name="RODP" netid="HC" insttype="120" lat="35.5604" lon="23.7577">
    <comp name="--.HHN">
      <acc value="0.0135826945" flag="0"/>
      <vel value="0.0112877102" flag="0"/>
      <psa03 value="0.0332403467" flag="0"/>
      <psa10 value="0.0210800631" flag="0"/>
      <psa30 value="0.0016650006" flag="0"/>
    </comp>
    <comp name="--.HHZ">
      <acc value="0.0087145576" flag="0"/>
      <vel value="0.0081933550" flag="0"/>
      <psa03 value="0.0236466756" flag="0"/>
      <psa10 value="0.0126585105" flag="0"/>
      <psa30 value="0.0015131185" flag="0"/>
    </comp>
    <comp name="--.HHE">
      <acc value="0.0221847307" flag="0"/>
      <vel value="0.0146487153" flag="0"/>
      <psa03 value="0.0618559788" flag="0"/>
      <psa10 value="0.0251873113" flag="0"/>
      <psa30 value="0.0047485081" flag="0"/>
    </comp>
  </station>
  <station code="CH01" name="CH01" netid="HI" insttype="CMG-5TD,ACCELEROMETER,GURALP" lat="35.517" lon="24.0208">
    <comp name="--.HNZ">
      <acc value="0.0113804741" flag="0"/>
      <vel value="0.0113943933" flag="0"/>
      <psa03 value="0.0197966004" flag="0"/>
      <psa10 value="0.0224219601" flag="0"/>
      <psa30 value="0.0022456294" flag="0"/>
    </comp>
    <comp name="--.HNN">
      <acc value="0.0140443062" flag="0"/>
      <vel value="0.0167972148" flag="0"/>
      <psa03 value="0.0335872466" flag="0"/>
      <psa10 value="0.0283270135" flag="0"/>
      <psa30 value="0.0036732213" flag="0"/>
    </comp>
    <comp name="--.HNE">
      <acc value="0.0144167646" flag="0"/>
      <vel value="0.0189303390" flag="0"/>
      <psa03 value="0.0391770768" flag="0"/>
      <psa10 value="0.0354833984" flag="0"/>
      <psa30 value="0.0049923300" flag="0"/>
    </comp>
  </station>
  <station code="ANKY" name="ANKY" netid="HL" insttype="60" lat="35.867" lon="23.3012">
    <comp name="--.HHN">
      <acc value="0.0217722597" flag="0"/>
      <vel value="0.0161441760" flag="0"/>
      <psa03 value="0.0569732821" flag="0"/>
      <psa10 value="0.0229540680" flag="0"/>
      <psa30 value="0.0017894160" flag="0"/>
    </comp>
    <comp name="--.HHZ">
      <acc value="0.0140329184" flag="0"/>
      <vel value="0.0100178015" flag="0"/>
      <psa03 value="0.0435093180" flag="0"/>
      <psa10 value="0.0117279050" flag="0"/>
      <psa30 value="0.0009911872" flag="0"/>
    </comp>
    <comp name="--.HHE">
      <acc value="0.0176191380" flag="0"/>
      <vel value="0.0141755311" flag="0"/>
      <psa03 value="0.0494734663" flag="0"/>
      <psa10 value="0.0281092423" flag="0"/>
      <psa30 value="0.0021662597" flag="0"/>
    </comp>
  </station>
  <station code="GVD" name="GVD" netid="HL" insttype="120" lat="34.8391" lon="24.0874">
    <comp name="--.HHE">
      <acc value="0.1604141767" flag="0"/>
      <vel value="0.0148179631" flag="0"/>
      <psa03 value="0.0737435776" flag="0"/>
      <psa10 value="0.0242336137" flag="0"/>
      <psa30 value="0.0028923725" flag="0"/>
    </comp>
    <comp name="--.HHZ">
      <acc value="0.0166638731" flag="0"/>
      <vel value="0.0061371738" flag="0"/>
      <psa03 value="0.0311707920" flag="0"/>
      <psa10 value="0.0100397710" flag="0"/>
      <psa30 value="0.0009502689" flag="0"/>
    </comp>
    <comp name="--.HHN">
      <acc value="0.0212574183" flag="0"/>
      <vel value="0.0118667373" flag="0"/>
      <psa03 value="0.0664594598" flag="0"/>
      <psa10 value="0.0140077109" flag="0"/>
      <psa30 value="0.0018729796" flag="0"/>
    </comp>
  </station>
  <station code="IMMV" name="IMMV" netid="HL" insttype="120" lat="35.4606" lon="23.9811">
    <comp name="--.HHZ">
      <acc value="0.0091751574" flag="0"/>
      <vel value="0.0091069790" flag="0"/>
      <psa03 value="0.0237727628" flag="0"/>
      <psa10 value="0.0097446996" flag="0"/>
      <psa30 value="0.0011289454" flag="0"/>
    </comp>
    <comp name="--.HHE">
      <acc value="0.0142370732" flag="0"/>
      <vel value="0.0148152257" flag="0"/>
      <psa03 value="0.0419033795" flag="0"/>
      <psa10 value="0.0226673582" flag="0"/>
      <psa30 value="0.0026816520" flag="0"/>
    </comp>
    <comp name="--.HHN">
      <acc value="0.0112463762" flag="0"/>
      <vel value="0.0129193201" flag="0"/>
      <psa03 value="0.0358321695" flag="0"/>
      <psa10 value="0.0173815956" flag="0"/>
      <psa30 value="0.0027783486" flag="0"/>
    </comp>
  </station>
  <station code="VAM" name="VAM" netid="HL" insttype="CMG3ESPC-120s" lat="35.407" lon="24.1997">
    <comp name="--.HHN">
      <acc value="0.0099028364" flag="0"/>
      <vel value="0.0106023140" flag="0"/>
      <psa03 value="0.0234966545" flag="0"/>
      <psa10 value="0.0199411524" flag="0"/>
      <psa30 value="0.0022190504" flag="0"/>
    </comp>
    <comp name="--.HHE">
      <acc value="0.0081915914" flag="0"/>
      <vel value="0.0104171763" flag="0"/>
      <psa03 value="0.0203477530" flag="0"/>
      <psa10 value="0.0165584263" flag="0"/>
      <psa30 value="0.0011967153" flag="0"/>
    </comp>
    <comp name="--.HHZ">
      <acc value="0.0057105788" flag="0"/>
      <vel value="0.0055757588" flag="0"/>
      <psa03 value="0.0134195907" flag="0"/>
      <psa10 value="0.0083018973" flag="0"/>
      <psa30 value="0.0015536962" flag="0"/>
    </comp>
  </station>
</stationlist>
