<?xml version="1.0" encoding="UTF-8" standalone="yes"?>
<!DOCTYPE earthquake SYSTEM "stationlist.dtd">
<stationlist created="" xmlns="ch.ethz.sed.shakemap.usgs.xml">
  <station code="LMN1" name="LMN1" netid="HI" insttype="CMG-5TD,ACCELEROMETER,GURALP" lat="39.875" lon="25.0588">
    <comp name="--.HNE">
      <acc value="0.0539310911" flag="0"/>
      <vel value="0.0188092788" flag="0"/>
      <psa03 value="0.1854034269" flag="0"/>
      <psa10 value="0.0063397919" flag="0"/>
      <psa30 value="0.0006144874" flag="0"/>
    </comp>
    <comp name="--.HNZ">
      <acc value="0.0698664905" flag="0"/>
      <vel value="0.0161121566" flag="0"/>
      <psa03 value="0.0331791203" flag="0"/>
      <psa10 value="0.0039844349" flag="0"/>
      <psa30 value="0.0003049774" flag="0"/>
    </comp>
    <comp name="--.HNN">
      <acc value="0.0625321078" flag="0"/>
      <vel value="0.0159374976" flag="0"/>
      <psa03 value="0.1100268717" flag="0"/>
      <psa10 value="0.0073963864" flag="0"/>
      <psa30 value="0.0005887282" flag="0"/>
    </comp>
  </station>
  <station code="SKO1" name="SKO1" netid="HI" insttype="CMG-5TD,ACCELEROMETER,GURALP" lat="39.1234" lon="23.7287">
    <comp name="--.HNN">
      <acc value="0.0114967066" flag="0"/>
      <vel value="0.0042150929" flag="0"/>
      <psa03 value="0.0323794297" flag="0"/>
      <psa10 value="0.0032967148" flag="0"/>
      <psa30 value="0.0002586595" flag="0"/>
    </comp>
    <comp name="--.HNE">
      <acc value="0.0118173741" flag="0"/>
      <vel value="0.0044277448" flag="0"/>
      <psa03 value="0.0214586092" flag="0"/>
      <psa10 value="0.0026984244" flag="0"/>
      <psa30 value="0.0002798895" flag="0"/>
    </comp>
    <comp name="--.HNZ">
      <acc value="0.0086115698" flag="0"/>
      <vel value="0.0032060340" flag="0"/>
      <psa03 value="0.0158262020" flag="0"/>
      <psa10 value="0.0032391946" flag="0"/>
      <psa30 value="0.0004490971" flag="0"/>
    </comp>
  </station>
  <station code="THS1" name="THS1" netid="HI" insttype="CMG-5TD,ACCELEROMETER,GURALP" lat="40.7385" lon="24.5751">
    <comp name="--.HNE">
      <acc value="0.1410512192" flag="0"/>
      <vel value="0.0470209236" flag="0"/>
      <psa03 value="0.1803389083" flag="0"/>
      <psa10 value="0.0178326001" flag="0"/>
      <psa30 value="0.0014037974" flag="0"/>
    </comp>
    <comp name="--.HNN">
      <acc value="0.2188901913" flag="0"/>
      <vel value="0.0760358880" flag="0"/>
      <psa03 value="0.3274753926" flag="0"/>
      <psa10 value="0.0230680384" flag="0"/>
      <psa30 value="0.0013327841" flag="0"/>
    </comp>
    <comp name="--.HNZ">
      <acc value="0.0638423752" flag="0"/>
      <vel value="0.0213360594" flag="0"/>
      <psa03 value="0.1033584089" flag="0"/>
      <psa10 value="0.0099313343" flag="0"/>
      <psa30 value="0.0007736770" flag="0"/>
    </comp>
  </station>
  <station code="KYMI" name="KYMI" netid="HL" insttype="60" lat="38.6331" lon="24.1001">
    <comp name="--.HHE">
      <acc value="0.0049458110" flag="0"/>
      <vel value="0.0025202721" flag="0"/>
      <psa03 value="0.0111623152" flag="0"/>
      <psa10 value="0.0028917727" flag="0"/>
      <psa30 value="0.0002501616" flag="0"/>
    </comp>
    <comp name="--.HHN">
      <acc value="0.0041062176" flag="0"/>
      <vel value="0.0021364446" flag="0"/>
      <psa03 value="0.0089418352" flag="0"/>
      <psa10 value="0.0022983940" flag="0"/>
      <psa30 value="0.0002075847" flag="0"/>
    </comp>
    <comp name="--.HHZ">
      <acc value="0.0038652800" flag="0"/>
      <vel value="0.0013887046" flag="0"/>
      <psa03 value="0.0101753116" flag="0"/>
      <psa10 value="0.0013340063" flag="0"/>
      <psa30 value="0.0001870561" flag="0"/>
    </comp>
  </station>
  <station code="LIA" name="LIA" netid="HL" insttype="P6C" lat="39.8972" lon="25.1806">
    <comp name="--.HHE">
      <acc value="0.0264127194" flag="0"/>
      <vel value="0.0082729392" flag="0"/>
      <psa03 value="0.0390174604" flag="0"/>
      <psa10 value="0.0076473680" flag="0"/>
      <psa30 value="0.0003697633" flag="0"/>
    </comp>
    <comp name="--.HHN">
      <acc value="0.0370914665" flag="0"/>
      <vel value="0.0149477656" flag="0"/>
      <psa03 value="0.0744497948" flag="0"/>
      <psa10 value="0.0135119890" flag="0"/>
      <psa30 value="0.0007575699" flag="0"/>
    </comp>
    <comp name="--.HHZ">
      <acc value="0.0191149218" flag="0"/>
      <vel value="0.0040479379" flag="0"/>
      <psa03 value="0.0231657470" flag="0"/>
      <psa10 value="0.0042230418" flag="0"/>
      <psa30 value="0.0002076215" flag="0"/>
    </comp>
  </station>
  <station code="NEO" name="NEO" netid="HL" insttype="120" lat="39.3057" lon="23.2219">
    <comp name="--.HHN">
      <acc value="0.0138374732" flag="0"/>
      <vel value="0.0065692568" flag="0"/>
      <psa03 value="0.0313470789" flag="0"/>
      <psa10 value="0.0065839695" flag="0"/>
      <psa30 value="0.0005230701" flag="0"/>
    </comp>
    <comp name="--.HHZ">
      <acc value="0.0168134379" flag="0"/>
      <vel value="0.0071249590" flag="0"/>
      <psa03 value="0.0373776449" flag="0"/>
      <psa10 value="0.0051605353" flag="0"/>
      <psa30 value="0.0003683938" flag="0"/>
    </comp>
    <comp name="--.HHE">
      <acc value="0.0173632804" flag="0"/>
      <vel value="0.0077930896" flag="0"/>
      <psa03 value="0.0408620156" flag="0"/>
      <psa10 value="0.0054333151" flag="0"/>
      <psa30 value="0.0002712146" flag="0"/>
    </comp>
  </station>
  <station code="PLG" name="PLG" netid="HL" insttype="CMG3ESPC-120s" lat="40.3733" lon="23.4444">
    <comp name="--.HHZ">
      <acc value="0.0359366297" flag="0"/>
      <vel value="0.0130418483" flag="0"/>
      <psa03 value="0.0750063454" flag="0"/>
      <psa10 value="0.0106143410" flag="0"/>
      <psa30 value="0.0006538613" flag="0"/>
    </comp>
  </station>
  <station code="SMTH" name="SMTH" netid="HL" insttype="CMG3ESPC60_P6C" lat="40.4709" lon="25.5304">
    <comp name="--.HHE">
      <acc value="0.0091215964" flag="0"/>
      <vel value="0.0039241110" flag="0"/>
      <psa03 value="0.0246214438" flag="0"/>
      <psa10 value="0.0023976377" flag="0"/>
      <psa30 value="0.0002082045" flag="0"/>
    </comp>
    <comp name="--.HHN">
      <acc value="0.0085025107" flag="0"/>
      <vel value="0.0044976278" flag="0"/>
      <psa03 value="0.0359524399" flag="0"/>
      <psa10 value="0.0041975933" flag="0"/>
      <psa30 value="0.0002251820" flag="0"/>
    </comp>
    <comp name="--.HHZ">
      <acc value="0.0061792208" flag="0"/>
      <vel value="0.0027085472" flag="0"/>
      <psa03 value="0.0217917915" flag="0"/>
      <psa10 value="0.0033899734" flag="0"/>
      <psa30 value="0.0003184275" flag="0"/>
    </comp>
  </station>
  <station code="AOS2" name="AOS2" netid="HT" insttype="100" lat="39.1478" lon="23.8436">
    <comp name="--.HHE">
      <acc value="0.0187993893" flag="0"/>
      <vel value="0.0116847300" flag="0"/>
      <psa03 value="0.0483279684" flag="0"/>
      <psa10 value="0.0071064147" flag="0"/>
      <psa30 value="0.0006825990" flag="0"/>
    </comp>
    <comp name="--.HHN">
      <acc value="0.0183346311" flag="0"/>
      <vel value="0.0085672314" flag="0"/>
      <psa03 value="0.0505687477" flag="0"/>
      <psa10 value="0.0083588733" flag="0"/>
      <psa30 value="0.0004484876" flag="0"/>
    </comp>
    <comp name="--.HHZ">
      <acc value="0.0136353105" flag="0"/>
      <vel value="0.0055193645" flag="0"/>
      <psa03 value="0.0309167682" flag="0"/>
      <psa10 value="0.0042497382" flag="0"/>
      <psa30 value="0.0006386210" flag="0"/>
    </comp>
  </station>
  <station code="KAVA" name="KAVA" netid="HT" insttype="Compact," lat="40.9967" lon="24.5137">
    <comp name="--.HHN">
      <acc value="0.0503700389" flag="0"/>
      <vel value="0.0165868079" flag="0"/>
      <psa03 value="0.0753404261" flag="0"/>
      <psa10 value="0.0047439605" flag="0"/>
      <psa30 value="0.0005066428" flag="0"/>
    </comp>
    <comp name="--.HHE">
      <acc value="0.0642567561" flag="0"/>
      <vel value="0.0160790870" flag="0"/>
      <psa03 value="0.0925880025" flag="0"/>
      <psa10 value="0.0075922452" flag="0"/>
      <psa30 value="0.0006054899" flag="0"/>
    </comp>
    <comp name="--.HHZ">
      <acc value="0.0470430543" flag="0"/>
      <vel value="0.0128218047" flag="0"/>
      <psa03 value="0.0620148443" flag="0"/>
      <psa10 value="0.0038621474" flag="0"/>
      <psa30 value="0.0006505831" flag="0"/>
    </comp>
  </station>
  <station code="OUR" name="OUR" netid="HT" insttype="100" lat="40.3325" lon="23.9791">
    <comp name="--.HHE">
      <acc value="0.1853740885" flag="0"/>
      <vel value="0.0600082914" flag="0"/>
      <psa03 value="0.2804040400" flag="0"/>
      <psa10 value="0.0131006632" flag="0"/>
      <psa30 value="0.0015276371" flag="0"/>
    </comp>
    <comp name="--.HHN">
      <acc value="0.1754619570" flag="0"/>
      <vel value="0.0626546060" flag="0"/>
      <psa03 value="0.3075950774" flag="0"/>
      <psa10 value="0.0170643527" flag="0"/>
      <psa30 value="0.0018558218" flag="0"/>
    </comp>
    <comp name="--.HHZ">
      <acc value="0.1312859215" flag="0"/>
      <vel value="0.0348523291" flag="0"/>
      <psa03 value="0.0897723125" flag="0"/>
      <psa10 value="0.0062064479" flag="0"/>
      <psa30 value="0.0005793239" flag="0"/>
    </comp>
  </station>
  <station code="PAIG" name="PAIG" netid="HT" insttype="100" lat="39.9363" lon="23.6768">
    <comp name="--.HHE">
      <acc value="0.0325141542" flag="0"/>
      <vel value="0.0094940111" flag="0"/>
      <psa03 value="0.0646430537" flag="0"/>
      <psa10 value="0.0040170639" flag="0"/>
      <psa30 value="0.0002963870" flag="0"/>
    </comp>
    <comp name="--.HHN">
      <acc value="0.0240660748" flag="0"/>
      <vel value="0.0073951889" flag="0"/>
      <psa03 value="0.0383737478" flag="0"/>
      <psa10 value="0.0049783988" flag="0"/>
      <psa30 value="0.0003571742" flag="0"/>
    </comp>
    <comp name="--.HHZ">
      <acc value="0.0201381779" flag="0"/>
      <vel value="0.0085117640" flag="0"/>
      <psa03 value="0.0278948123" flag="0"/>
      <psa10 value="0.0036472519" flag="0"/>
      <psa30 value="0.0002614433" flag="0"/>
    </comp>
  </station>
  <station code="SOH" name="SOH" netid="HT" insttype="120P," lat="40.8217" lon="23.3539">
    <comp name="--.HHN">
      <acc value="0.0126962937" flag="0"/>
      <vel value="0.0064500940" flag="0"/>
      <psa03 value="0.0335907015" flag="0"/>
      <psa10 value="0.0031602518" flag="0"/>
      <psa30 value="0.0005859070" flag="0"/>
    </comp>
    <comp name="--.HHZ">
      <acc value="0.0164249944" flag="0"/>
      <vel value="0.0055870978" flag="0"/>
      <psa03 value="0.0292070391" flag="0"/>
      <psa10 value="0.0037835220" flag="0"/>
      <psa30 value="0.0003214718" flag="0"/>
    </comp>
    <comp name="--.HHE">
      <acc value="0.0201002888" flag="0"/>
      <vel value="0.0103352303" flag="0"/>
      <psa03 value="0.0421789760" flag="0"/>
      <psa10 value="0.0100232994" flag="0"/>
      <psa30 value="0.0005327231" flag="0"/>
    </comp>
  </station>
  <station code="SRS" name="SRS" netid="HT" insttype="100" lat="41.1087" lon="23.595">
    <comp name="--.HHN">
      <acc value="0.0167811673" flag="0"/>
      <vel value="0.0042969101" flag="0"/>
      <psa03 value="0.0219217054" flag="0"/>
      <psa10 value="0.0019478781" flag="0"/>
      <psa30 value="0.0003464530" flag="0"/>
    </comp>
    <comp name="--.HHZ">
      <acc value="0.0097438021" flag="0"/>
      <vel value="0.0035846222" flag="0"/>
      <psa03 value="0.0151732039" flag="0"/>
      <psa10 value="0.0016044508" flag="0"/>
      <psa30 value="0.0003925763" flag="0"/>
    </comp>
    <comp name="--.HHE">
      <acc value="0.0223845877" flag="0"/>
      <vel value="0.0061244670" flag="0"/>
      <psa03 value="0.0266771081" flag="0"/>
      <psa10 value="0.0026706882" flag="0"/>
      <psa30 value="0.0004825136" flag="0"/>
    </comp>
  </station>
  <station code="THAS" name="THAS" netid="HT" insttype="100" lat="40.6064" lon="24.7194">
    <comp name="--.HHZ">
      <acc value="0.0819088858" flag="0"/>
      <vel value="0.0302394656" flag="0"/>
      <psa03 value="0.1591354420" flag="0"/>
      <psa10 value="0.0168648395" flag="0"/>
      <psa30 value="0.0010429661" flag="0"/>
    </comp>
    <comp name="--.HHE">
      <acc value="0.0649783735" flag="0"/>
      <vel value="0.0254967120" flag="0"/>
      <psa03 value="0.1384211025" flag="0"/>
      <psa10 value="0.0132252341" flag="0"/>
      <psa30 value="0.0006267307" flag="0"/>
    </comp>
    <comp name="--.HHN">
      <acc value="0.0484021286" flag="0"/>
      <vel value="0.0166644855" flag="0"/>
      <psa03 value="0.0736298432" flag="0"/>
      <psa10 value="0.0122071774" flag="0"/>
      <psa30 value="0.0007557766" flag="0"/>
    </comp>
  </station>
  <station code="XOR" name="XOR" netid="HT" insttype="Compact," lat="39.366" lon="23.1918">
    <comp name="--.HHZ">
      <acc value="0.0079194894" flag="0"/>
      <vel value="0.0034823504" flag="0"/>
      <psa03 value="0.0213434414" flag="0"/>
      <psa10 value="0.0029451168" flag="0"/>
      <psa30 value="0.0003182937" flag="0"/>
    </comp>
    <comp name="--.HHN">
      <acc value="0.0096028140" flag="0"/>
      <vel value="0.0054482777" flag="0"/>
      <psa03 value="0.0231605686" flag="0"/>
      <psa10 value="0.0056699791" flag="0"/>
      <psa30 value="0.0003340478" flag="0"/>
    </comp>
    <comp name="--.HHE">
      <acc value="0.0086836037" flag="0"/>
      <vel value="0.0047933473" flag="0"/>
      <psa03 value="0.0298668165" flag="0"/>
      <psa10 value="0.0030612436" flag="0"/>
      <psa30 value="0.0002581994" flag="0"/>
    </comp>
  </station>
</stationlist>
