<stationlist created="1778069882">
	<station code="STC" name="STC" netid="EG" source="EUROSEISTEST Strong Motion Network" insttype="" lat="40.64865" lon="23.304856">
		<comp name="--.EN1" depth="0.0">
			<acc value="0.0329803971817617" flag="0"/>
			<vel value="0.0154160960765014" flag="0"/>
			<psa03 value="0.0997757450700209" flag="0"/>
			<psa10 value="0.0206003884246286" flag="0"/>
			<psa30 value="0.00106696901479544" flag="0"/>
		</comp>
		<comp name="--.EN2" depth="0.0">
			<acc value="0.0499964552140462" flag="0"/>
			<vel value="0.0178319180861363" flag="0"/>
			<psa03 value="0.0977367141611182" flag="0"/>
			<psa10 value="0.0132397983216676" flag="0"/>
			<psa30 value="0.00102879565266445" flag="0"/>
		</comp>
		<comp name="--.EN3" depth="0.0">
			<acc value="0.0262075200484886" flag="0"/>
			<vel value="0.0123271491127793" flag="0"/>
			<psa03 value="0.0536090982145183" flag="0"/>
			<psa10 value="0.0106725620048433" flag="0"/>
			<psa30 value="0.000892686011067012" flag="0"/>
		</comp>
	</station>
	<station code="LMN1" name="LMN1" netid="HI" source="ITSAK Strong Motion Network" insttype="" lat="39.875" lon="25.0588">
		<comp name="--.HNE" depth="0.0">
			<acc value="0.054404770284977" flag="0"/>
			<vel value="0.019026029151025" flag="0"/>
			<psa03 value="0.185009024366554" flag="0"/>
			<psa10 value="0.00637442217690518" flag="0"/>
			<psa30 value="0.000625048626457256" flag="0"/>
		</comp>
		<comp name="--.HNN" depth="0.0">
			<acc value="0.0625295857665146" flag="0"/>
			<vel value="0.0162538535039293" flag="0"/>
			<psa03 value="0.110155312694185" flag="0"/>
			<psa10 value="0.00740528261739016" flag="0"/>
			<psa30 value="0.000589702283228822" flag="0"/>
		</comp>
		<comp name="--.HNZ" depth="0.0">
			<acc value="0.071031672047814" flag="0"/>
			<vel value="0.0163328717463848" flag="0"/>
			<psa03 value="0.0341383036497414" flag="0"/>
			<psa10 value="0.00399055740828366" flag="0"/>
			<psa30 value="0.000313195446327902" flag="0"/>
		</comp>
	</station>
	<station code="SFL1" name="SFL1" netid="HI" source="ITSAK Strong Motion Network" insttype="" lat="41.189954" lon="26.304374">
		<comp name="--.HNE" depth="0.0">
			<acc value="0.0156544085184539" flag="0"/>
			<vel value="0.0108442251817593" flag="0"/>
			<psa03 value="0.0544065232478185" flag="0"/>
			<psa10 value="0.0103528991894019" flag="0"/>
			<psa30 value="0.000541828122147271" flag="0"/>
		</comp>
		<comp name="--.HNN" depth="0.0">
			<acc value="0.0156638271248762" flag="0"/>
			<vel value="0.0102536964824714" flag="0"/>
			<psa03 value="0.0499770447926096" flag="0"/>
			<psa10 value="0.00955156626886865" flag="0"/>
			<psa30 value="0.000495743649330451" flag="0"/>
		</comp>
		<comp name="--.HNZ" depth="0.0">
			<acc value="0.00765385491521202" flag="0"/>
			<vel value="0.0052284674736561" flag="0"/>
			<psa03 value="0.0272480038305275" flag="0"/>
			<psa10 value="0.00289526819026837" flag="0"/>
			<psa30 value="0.000187917267796741" flag="0"/>
		</comp>
	</station>
	<station code="SKO1" name="SKO1" netid="HI" source="ITSAK Strong Motion Network" insttype="" lat="39.123383" lon="23.728705">
		<comp name="--.HNE" depth="0.0">
			<acc value="0.0117554765904769" flag="0"/>
			<vel value="0.00450539207331484" flag="0"/>
			<psa03 value="0.0216104857966253" flag="0"/>
			<psa10 value="0.00270600865627308" flag="0"/>
			<psa30 value="0.000310958335996989" flag="0"/>
		</comp>
		<comp name="--.HNN" depth="0.0">
			<acc value="0.0115046169139456" flag="0"/>
			<vel value="0.00423931698667694" flag="0"/>
			<psa03 value="0.0323038731783922" flag="0"/>
			<psa10 value="0.00331002844561974" flag="0"/>
			<psa30 value="0.000283665589959843" flag="0"/>
		</comp>
		<comp name="--.HNZ" depth="0.0">
			<acc value="0.00682717206825699" flag="0"/>
			<vel value="0.00330413893251251" flag="0"/>
			<psa03 value="0.0158387411428682" flag="0"/>
			<psa10 value="0.00325365326528072" flag="0"/>
			<psa30 value="0.000480083877014056" flag="0"/>
		</comp>
	</station>
	<station code="SKY1" name="SKY1" netid="HI" source="ITSAK Strong Motion Network" insttype="" lat="38.904483" lon="24.564572">
		<comp name="--.HNE" depth="0.0">
			<acc value="0.0144443540666012" flag="0"/>
			<vel value="0.00617716043997237" flag="0"/>
			<psa03 value="0.0314985134592633" flag="0"/>
			<psa10 value="0.00898781446547843" flag="0"/>
			<psa30 value="0.000433999404197236" flag="0"/>
		</comp>
		<comp name="--.HNN" depth="0.0">
			<acc value="0.0157801043047998" flag="0"/>
			<vel value="0.0112024248619061" flag="0"/>
			<psa03 value="0.0513193109911577" flag="0"/>
			<psa10 value="0.00854889341855318" flag="0"/>
			<psa30 value="0.000641155820839834" flag="0"/>
		</comp>
		<comp name="--.HNZ" depth="0.0">
			<acc value="0.00966367386673148" flag="0"/>
			<vel value="0.00485483798892867" flag="0"/>
			<psa03 value="0.0326170686247201" flag="0"/>
			<psa10 value="0.00333418923719361" flag="0"/>
			<psa30 value="0.000363306717740367" flag="0"/>
		</comp>
	</station>
	<station code="THS1" name="THS1" netid="HI" source="ITSAK Strong Motion Network" insttype="" lat="40.738476" lon="24.575145">
		<comp name="--.HNE" depth="0.0">
			<acc value="0.140025366288862" flag="0"/>
			<vel value="0.0473159136861052" flag="0"/>
			<psa03 value="0.185322219812882" flag="0"/>
			<psa10 value="0.0179152269520222" flag="0"/>
			<psa30 value="0.00146396500054985" flag="0"/>
		</comp>
		<comp name="--.HNN" depth="0.0">
			<acc value="0.219786428428787" flag="0"/>
			<vel value="0.0774166980962341" flag="0"/>
			<psa03 value="0.328497280991351" flag="0"/>
			<psa10 value="0.0231138239389992" flag="0"/>
			<psa30 value="0.00134002908821724" flag="0"/>
		</comp>
		<comp name="--.HNZ" depth="0.0">
			<acc value="0.0642619560289223" flag="0"/>
			<vel value="0.0215029679445297" flag="0"/>
			<psa03 value="0.104025630387482" flag="0"/>
			<psa10 value="0.00992605853826359" flag="0"/>
			<psa30 value="0.000863077165666462" flag="0"/>
		</comp>
	</station>
	<station code="EFSA" name="EFSA" netid="HL" source="National Observatory of Athens Seismic Network" insttype="" lat="39.54015" lon="24.98864">
		<comp name="00.HNE" depth="0.0">
			<acc value="0.0129390386026945" flag="0"/>
			<vel value="0.00665054882619362" flag="0"/>
			<psa03 value="0.0372255159064021" flag="0"/>
			<psa10 value="0.00794487362920651" flag="0"/>
			<psa30 value="0.000693056780517029" flag="0"/>
		</comp>
		<comp name="00.HNN" depth="0.0">
			<acc value="0.0122789824955507" flag="0"/>
			<vel value="0.00490771904734381" flag="0"/>
			<psa03 value="0.0323038731783922" flag="0"/>
			<psa10 value="0.00382948546445788" flag="0"/>
			<psa30 value="0.000357937652946174" flag="0"/>
		</comp>
		<comp name="00.HNZ" depth="0.0">
			<acc value="0.00992965220021987" flag="0"/>
			<vel value="0.00342190466644761" flag="0"/>
			<psa03 value="0.026174190871689" flag="0"/>
			<psa10 value="0.00397445021390108" flag="0"/>
			<psa30 value="0.000193286332590934" flag="0"/>
		</comp>
	</station>
	<station code="KYMI" name="KYMI" netid="HL" source="National Observatory of Athens Seismic Network" insttype="" lat="38.633147" lon="24.100138">
		<comp name="--.HNE" depth="1.0">
			<acc value="0.004882137720124" flag="0"/>
			<vel value="0.00264190252769281" flag="0"/>
			<psa03 value="0.0109618406214766" flag="0"/>
			<psa10 value="0.00289526819026837" flag="0"/>
			<psa30 value="0.000256372843922697" flag="0"/>
		</comp>
		<comp name="--.HNN" depth="1.0">
			<acc value="0.00412840805821459" flag="0"/>
			<vel value="0.0022055999390985" flag="0"/>
			<psa03 value="0.00917215235674571" flag="0"/>
			<psa10 value="0.00234359678266507" flag="0"/>
			<psa30 value="0.000214762591767704" flag="0"/>
		</comp>
		<comp name="--.HNZ" depth="1.0">
			<acc value="0.00380773981409414" flag="0"/>
			<vel value="0.00144355604814839" flag="0"/>
			<psa03 value="0.00988802766263806" flag="0"/>
			<psa10 value="0.00128454875201058" flag="0"/>
			<psa30 value="0.000200445085649857" flag="0"/>
		</comp>
	</station>
	<station code="SMTH" name="SMTH" netid="HL" source="National Observatory of Athens Seismic Network" insttype="" lat="40.47094" lon="25.53045">
		<comp name="00.HNE" depth="0.0">
			<acc value="0.00888402006432008" flag="0"/>
			<vel value="0.00380686322614542" flag="0"/>
			<psa03 value="0.023713369507684" flag="0"/>
			<psa10 value="0.00224292681777396" flag="0"/>
			<psa30 value="0.000215210013833887" flag="0"/>
		</comp>
		<comp name="00.HNN" depth="0.0">
			<acc value="0.00855485559133499" flag="0"/>
			<vel value="0.00445664604292534" flag="0"/>
			<psa03 value="0.0352568588151981" flag="0"/>
			<psa10 value="0.00407512017879219" flag="0"/>
			<psa30 value="0.000258162532187428" flag="0"/>
		</comp>
		<comp name="00.HNZ" depth="0.0">
			<acc value="0.0061512047317487" flag="0"/>
			<vel value="0.00272612935662972" flag="0"/>
			<psa03 value="0.0215210013833887" flag="0"/>
			<psa10 value="0.0034147252091065" flag="0"/>
			<psa30 value="0.000328407796578115" flag="0"/>
		</comp>
	</station>
</stationlist>
