<?xml version="1.0" encoding="UTF-8" standalone="yes"?>
<!DOCTYPE earthquake SYSTEM "stationlist.dtd">
<stationlist created="" xmlns="ch.ethz.sed.shakemap.usgs.xml">
  <station code="LMN1" name="LMN1" netid="HI" insttype="CMG-5TD,ACCELEROMETER,GURALP" lat="39.875" lon="25.0588">
    <comp name="--.HNE">
      <acc value="0.2270021623" flag="0"/>
      <vel value="0.1114786855" flag="0"/>
      <psa03 value="1.2733517985" flag="0"/>
      <psa10 value="0.0280242699" flag="0"/>
      <psa30 value="0.0029127856" flag="0"/>
    </comp>
    <comp name="--.HNZ">
      <acc value="0.1952820632" flag="0"/>
      <vel value="0.0441443804" flag="0"/>
      <psa03 value="0.1808312497" flag="0"/>
      <psa10 value="0.0135081111" flag="0"/>
      <psa30 value="0.0009072193" flag="0"/>
    </comp>
    <comp name="--.HNN">
      <acc value="0.2202839581" flag="0"/>
      <vel value="0.0973949108" flag="0"/>
      <psa03 value="0.7747765223" flag="0"/>
      <psa10 value="0.0408169098" flag="0"/>
      <psa30 value="0.0027862157" flag="0"/>
    </comp>
  </station>
  <station code="SKO1" name="SKO1" netid="HI" insttype="CMG-5TD,ACCELEROMETER,GURALP" lat="39.1234" lon="23.7287">
    <comp name="--.HNN">
      <acc value="0.0121397023" flag="0"/>
      <vel value="0.0068006704" flag="0"/>
      <psa03 value="0.0532364454" flag="0"/>
      <psa10 value="0.0048479539" flag="0"/>
      <psa30 value="0.0006211582" flag="0"/>
    </comp>
    <comp name="--.HNE">
      <acc value="0.0216816343" flag="0"/>
      <vel value="0.0073626229" flag="0"/>
      <psa03 value="0.0442868524" flag="0"/>
      <psa10 value="0.0039734796" flag="0"/>
      <psa30 value="0.0006532192" flag="0"/>
    </comp>
    <comp name="--.HNZ">
      <acc value="0.0098424317" flag="0"/>
      <vel value="0.0045565498" flag="0"/>
      <psa03 value="0.0232409589" flag="0"/>
      <psa10 value="0.0038943116" flag="0"/>
      <psa30 value="0.0005731737" flag="0"/>
    </comp>
  </station>
  <station code="THS1" name="THS1" netid="HI" insttype="CMG-5TD,ACCELEROMETER,GURALP" lat="40.7385" lon="24.5751">
    <comp name="--.HNE">
      <acc value="0.1274664646" flag="0"/>
      <vel value="0.0446336220" flag="0"/>
      <psa03 value="0.2180838853" flag="0"/>
      <psa10 value="0.0343374544" flag="0"/>
      <psa30 value="0.0024692980" flag="0"/>
    </comp>
    <comp name="--.HNZ">
      <acc value="0.0849051043" flag="0"/>
      <vel value="0.0267031888" flag="0"/>
      <psa03 value="0.1125071167" flag="0"/>
      <psa10 value="0.0128393900" flag="0"/>
      <psa30 value="0.0012766263" flag="0"/>
    </comp>
    <comp name="--.HNN">
      <acc value="0.1456341881" flag="0"/>
      <vel value="0.0458815918" flag="0"/>
      <psa03 value="0.3129109458" flag="0"/>
      <psa10 value="0.0220555993" flag="0"/>
      <psa30 value="0.0016911526" flag="0"/>
    </comp>
  </station>
  <station code="EFSA" name="EFSA" netid="HL" insttype="CMG-5" lat="39.5401" lon="24.9886">
    <comp name="00.HNN">
      <acc value="0.0323272323" flag="0"/>
      <vel value="0.0303327803" flag="0"/>
      <psa03 value="0.1055986331" flag="0"/>
      <psa10 value="0.0319811329" flag="0"/>
      <psa30 value="0.0020019634" flag="0"/>
    </comp>
    <comp name="00.HNE">
      <acc value="0.0277445696" flag="0"/>
      <vel value="0.0146729575" flag="0"/>
      <psa03 value="0.0620577951" flag="0"/>
      <psa10 value="0.0117535812" flag="0"/>
      <psa30 value="0.0015718056" flag="0"/>
    </comp>
    <comp name="00.HNZ">
      <acc value="0.0254007969" flag="0"/>
      <vel value="0.0108711410" flag="0"/>
      <psa03 value="0.0547980504" flag="0"/>
      <psa10 value="0.0125138019" flag="0"/>
      <psa30 value="0.0007732256" flag="0"/>
    </comp>
  </station>
  <station code="LIA" name="LIA" netid="HL" insttype="P6C" lat="39.8972" lon="25.1806">
    <comp name="--.HHE">
      <acc value="0.0663558895" flag="0"/>
      <vel value="0.0383255504" flag="0"/>
      <psa03 value="0.1692815686" flag="0"/>
      <psa10 value="0.0262670930" flag="0"/>
      <psa30 value="0.0022009514" flag="0"/>
    </comp>
    <comp name="--.HHN">
      <acc value="0.1177604462" flag="0"/>
      <vel value="0.0554563164" flag="0"/>
      <psa03 value="0.4011780450" flag="0"/>
      <psa10 value="0.0401099474" flag="0"/>
      <psa30 value="0.0019699127" flag="0"/>
    </comp>
    <comp name="--.HHZ">
      <acc value="0.0451706861" flag="0"/>
      <vel value="0.0221806281" flag="0"/>
      <psa03 value="0.0911360209" flag="0"/>
      <psa10 value="0.0246412221" flag="0"/>
      <psa30 value="0.0010743030" flag="0"/>
    </comp>
  </station>
  <station code="NEO" name="NEO" netid="HL" insttype="120" lat="39.3057" lon="23.2219">
    <comp name="--.HHE">
      <acc value="0.0158462889" flag="0"/>
      <vel value="0.0099316998" flag="0"/>
      <psa03 value="0.0567633109" flag="0"/>
      <psa10 value="0.0064340777" flag="0"/>
      <psa30 value="0.0007075658" flag="0"/>
    </comp>
    <comp name="--.HHN">
      <acc value="0.0152903379" flag="0"/>
      <vel value="0.0124222682" flag="0"/>
      <psa03 value="0.0459228980" flag="0"/>
      <psa10 value="0.0083278891" flag="0"/>
      <psa30 value="0.0009437581" flag="0"/>
    </comp>
    <comp name="--.HHZ">
      <acc value="0.0121368418" flag="0"/>
      <vel value="0.0077011829" flag="0"/>
      <psa03 value="0.0320541104" flag="0"/>
      <psa10 value="0.0056443667" flag="0"/>
      <psa30 value="0.0005303752" flag="0"/>
    </comp>
  </station>
  <station code="PLG" name="PLG" netid="HL" insttype="CMG3ESPC-120s" lat="40.3733" lon="23.4444">
    <comp name="--.HHZ">
      <acc value="0.0455124775" flag="0"/>
      <vel value="0.0195154417" flag="0"/>
      <psa03 value="0.1081685607" flag="0"/>
      <psa10 value="0.0133165414" flag="0"/>
      <psa30 value="0.0011675727" flag="0"/>
    </comp>
  </station>
  <station code="SMTH" name="SMTH" netid="HL" insttype="CMG3ESPC60_P6C" lat="40.4709" lon="25.5304">
    <comp name="--.HHZ">
      <acc value="0.0201195022" flag="0"/>
      <vel value="0.0078768174" flag="0"/>
      <psa03 value="0.0451772161" flag="0"/>
      <psa10 value="0.0069586824" flag="0"/>
      <psa30 value="0.0004200655" flag="0"/>
    </comp>
    <comp name="--.HHN">
      <acc value="0.0417108515" flag="0"/>
      <vel value="0.0143981136" flag="0"/>
      <psa03 value="0.0882836215" flag="0"/>
      <psa10 value="0.0060760870" flag="0"/>
      <psa30 value="0.0006732385" flag="0"/>
    </comp>
    <comp name="--.HHE">
      <acc value="0.0340431246" flag="0"/>
      <vel value="0.0139572018" flag="0"/>
      <psa03 value="0.0738494992" flag="0"/>
      <psa10 value="0.0086674575" flag="0"/>
      <psa30 value="0.0006209351" flag="0"/>
    </comp>
  </station>
  <station code="AOS2" name="AOS2" netid="HT" insttype="100" lat="39.1478" lon="23.8436">
    <comp name="--.HHE">
      <acc value="0.0317598907" flag="0"/>
      <vel value="0.0172539927" flag="0"/>
      <psa03 value="0.0549184701" flag="0"/>
      <psa10 value="0.0112666555" flag="0"/>
      <psa30 value="0.0010915670" flag="0"/>
    </comp>
    <comp name="--.HHN">
      <acc value="0.0247875714" flag="0"/>
      <vel value="0.0100251674" flag="0"/>
      <psa03 value="0.0724756818" flag="0"/>
      <psa10 value="0.0092206927" flag="0"/>
      <psa30 value="0.0006234389" flag="0"/>
    </comp>
    <comp name="--.HHZ">
      <acc value="0.0147050951" flag="0"/>
      <vel value="0.0082743575" flag="0"/>
      <psa03 value="0.0429891372" flag="0"/>
      <psa10 value="0.0062135017" flag="0"/>
      <psa30 value="0.0007496985" flag="0"/>
    </comp>
  </station>
  <station code="KAVA" name="KAVA" netid="HT" insttype="Compact," lat="40.9967" lon="24.5137">
    <comp name="--.HHE">
      <acc value="0.0909472232" flag="0"/>
      <vel value="0.0239514973" flag="0"/>
      <psa03 value="0.1119200743" flag="0"/>
      <psa10 value="0.0168448172" flag="0"/>
      <psa30 value="0.0023765627" flag="0"/>
    </comp>
    <comp name="--.HHN">
      <acc value="0.0711239322" flag="0"/>
      <vel value="0.0187011647" flag="0"/>
      <psa03 value="0.1075756711" flag="0"/>
      <psa10 value="0.0077563848" flag="0"/>
      <psa30 value="0.0009436766" flag="0"/>
    </comp>
    <comp name="--.HHZ">
      <acc value="0.0394403751" flag="0"/>
      <vel value="0.0154311881" flag="0"/>
      <psa03 value="0.0755523356" flag="0"/>
      <psa10 value="0.0127730092" flag="0"/>
      <psa30 value="0.0012922361" flag="0"/>
    </comp>
  </station>
  <station code="OUR" name="OUR" netid="HT" insttype="100" lat="40.3325" lon="23.9791">
    <comp name="--.HHN">
      <acc value="0.2080257667" flag="0"/>
      <vel value="0.0701910404" flag="0"/>
      <psa03 value="0.5722004775" flag="0"/>
      <psa10 value="0.0243682175" flag="0"/>
      <psa30 value="0.0027230141" flag="0"/>
    </comp>
    <comp name="--.HHE">
      <acc value="0.2970201275" flag="0"/>
      <vel value="0.1136822018" flag="0"/>
      <psa03 value="0.5003194901" flag="0"/>
      <psa10 value="0.0273669381" flag="0"/>
      <psa30 value="0.0037472492" flag="0"/>
    </comp>
    <comp name="--.HHZ">
      <acc value="0.1468826723" flag="0"/>
      <vel value="0.0421637159" flag="0"/>
      <psa03 value="0.2420719577" flag="0"/>
      <psa10 value="0.0114628859" flag="0"/>
      <psa30 value="0.0012796546" flag="0"/>
    </comp>
  </station>
  <station code="PAIG" name="PAIG" netid="HT" insttype="100" lat="39.9363" lon="23.6768">
    <comp name="--.HHN">
      <acc value="0.0395346682" flag="0"/>
      <vel value="0.0191112085" flag="0"/>
      <psa03 value="0.1289188646" flag="0"/>
      <psa10 value="0.0106396571" flag="0"/>
      <psa30 value="0.0009644394" flag="0"/>
    </comp>
    <comp name="--.HHE">
      <acc value="0.0606175603" flag="0"/>
      <vel value="0.0267218358" flag="0"/>
      <psa03 value="0.1247375063" flag="0"/>
      <psa10 value="0.0079082476" flag="0"/>
      <psa30 value="0.0007082895" flag="0"/>
    </comp>
    <comp name="--.HHZ">
      <acc value="0.0353333632" flag="0"/>
      <vel value="0.0205172084" flag="0"/>
      <psa03 value="0.0813792789" flag="0"/>
      <psa10 value="0.0089886410" flag="0"/>
      <psa30 value="0.0006837730" flag="0"/>
    </comp>
  </station>
  <station code="THAS" name="THAS" netid="HT" insttype="100" lat="40.6064" lon="24.7194">
    <comp name="--.HHN">
      <acc value="0.0733082485" flag="0"/>
      <vel value="0.0282657171" flag="0"/>
      <psa03 value="0.1837678683" flag="0"/>
      <psa10 value="0.0151210872" flag="0"/>
      <psa30 value="0.0013923832" flag="0"/>
    </comp>
    <comp name="--.HHZ">
      <acc value="0.1046772843" flag="0"/>
      <vel value="0.0347369383" flag="0"/>
      <psa03 value="0.1614985633" flag="0"/>
      <psa10 value="0.0151800327" flag="0"/>
      <psa30 value="0.0015224516" flag="0"/>
    </comp>
    <comp name="--.HHE">
      <acc value="0.1242779818" flag="0"/>
      <vel value="0.0420407412" flag="0"/>
      <psa03 value="0.2313668560" flag="0"/>
      <psa10 value="0.0159302713" flag="0"/>
      <psa30 value="0.0012616600" flag="0"/>
    </comp>
  </station>
  <station code="XOR" name="XOR" netid="HT" insttype="Compact," lat="39.366" lon="23.1918">
    <comp name="--.HHE">
      <acc value="0.0103269273" flag="0"/>
      <vel value="0.0070673316" flag="0"/>
      <psa03 value="0.0275309118" flag="0"/>
      <psa10 value="0.0042723092" flag="0"/>
      <psa30 value="0.0006603245" flag="0"/>
    </comp>
    <comp name="--.HHN">
      <acc value="0.0130118422" flag="0"/>
      <vel value="0.0066308447" flag="0"/>
      <psa03 value="0.0280644109" flag="0"/>
      <psa10 value="0.0053093303" flag="0"/>
      <psa30 value="0.0007785158" flag="0"/>
    </comp>
    <comp name="--.HHZ">
      <acc value="0.0094664821" flag="0"/>
      <vel value="0.0051739677" flag="0"/>
      <psa03 value="0.0279495905" flag="0"/>
      <psa10 value="0.0046462272" flag="0"/>
      <psa30 value="0.0006970344" flag="0"/>
    </comp>
  </station>
</stationlist>
