<stationlist created="1778069879">
	<station code="MMAA" name="MMAA" netid="EG" source="EUROSEISTEST Strong Motion Network" insttype="" lat="40.630855" lon="22.943725">
		<comp name="--.EN1" depth="0.0">
			<acc value="0.0510257404326627" flag="0"/>
			<vel value="0.023262130586967" flag="0"/>
			<psa03 value="0.17749921678546" flag="0"/>
			<psa10 value="0.0246451382444689" flag="0"/>
			<psa30 value="0.00175061596971438" flag="0"/>
		</comp>
		<comp name="--.EN2" depth="0.0">
			<acc value="0.0729944787395145" flag="0"/>
			<vel value="0.0406801837120366" flag="0"/>
			<psa03 value="0.242190398091923" flag="0"/>
			<psa10 value="0.0307239646868564" flag="0"/>
			<psa30 value="0.00163350810772685" flag="0"/>
		</comp>
		<comp name="--.EN3" depth="0.0">
			<acc value="0.0591814401165074" flag="0"/>
			<vel value="0.0202636024222834" flag="0"/>
			<psa03 value="0.107801901763531" flag="0"/>
			<psa10 value="0.00941979339006682" flag="0"/>
			<psa30 value="0.000743217151154564" flag="0"/>
		</comp>
	</station>
	<station code="STC" name="STC" netid="EG" source="EUROSEISTEST Strong Motion Network" insttype="" lat="40.64865" lon="23.304856">
		<comp name="--.EN1" depth="0.0">
			<acc value="0.0848785637850182" flag="0"/>
			<vel value="0.0406097680729275" flag="0"/>
			<psa03 value="0.26388673120065" flag="0"/>
			<psa10 value="0.0287395488540806" flag="0"/>
			<psa30 value="0.00363176975358954" flag="0"/>
		</comp>
		<comp name="--.EN2" depth="0.0">
			<acc value="0.0654220763601828" flag="0"/>
			<vel value="0.0326943407462252" flag="0"/>
			<psa03 value="0.219406263754662" flag="0"/>
			<psa10 value="0.0352751630564423" flag="0"/>
			<psa30 value="0.00306418152865481" flag="0"/>
		</comp>
		<comp name="--.EN3" depth="0.0">
			<acc value="0.0329924432655893" flag="0"/>
			<vel value="0.0215548834387516" flag="0"/>
			<psa03 value="0.0829000958910978" flag="0"/>
			<psa10 value="0.0280178454197413" flag="0"/>
			<psa30 value="0.00265307366977628" flag="0"/>
		</comp>
	</station>
	<station code="LMN1" name="LMN1" netid="HI" source="ITSAK Strong Motion Network" insttype="" lat="39.875" lon="25.0588">
		<comp name="--.HNE" depth="0.0">
			<acc value="0.226123208292696" flag="0"/>
			<vel value="0.112424074262683" flag="0"/>
			<psa03 value="1.26517537654487" flag="0"/>
			<psa10 value="0.0280869202046201" flag="0"/>
			<psa30 value="0.00298833198003437" flag="0"/>
		</comp>
		<comp name="--.HNN" depth="0.0">
			<acc value="0.220442462549409" flag="0"/>
			<vel value="0.0991568153350535" flag="0"/>
			<psa03 value="0.776903675719671" flag="0"/>
			<psa10 value="0.0408840861415782" flag="0"/>
			<psa30 value="0.00280309924463472" flag="0"/>
		</comp>
		<comp name="--.HNZ" depth="0.0">
			<acc value="0.194023044413835" flag="0"/>
			<vel value="0.0446321455555045" flag="0"/>
			<psa03 value="0.182637687415785" flag="0"/>
			<psa10 value="0.0135783648645131" flag="0"/>
			<psa30 value="0.000985670811800527" flag="0"/>
		</comp>
	</station>
	<station code="MYT1" name="MYT1" netid="HI" source="ITSAK Strong Motion Network" insttype="" lat="39.085" lon="26.5694">
		<comp name="--.HNE" depth="0.0">
			<acc value="0.0051724804379523" flag="0"/>
			<vel value="0.0040453494884713" flag="0"/>
			<psa03 value="0.0100222542824929" flag="0"/>
			<psa10 value="0.005923420734193" flag="0"/>
			<psa30 value="0.000662632080016604" flag="0"/>
		</comp>
		<comp name="--.HNN" depth="0.0">
			<acc value="0.00460782646323219" flag="0"/>
			<vel value="0.00557616414535593" flag="0"/>
			<psa03 value="0.0109170984148583" flag="0"/>
			<psa10 value="0.0095193518801035" flag="0"/>
			<psa30 value="0.000914530703277474" flag="0"/>
		</comp>
		<comp name="--.HNZ" depth="0.0">
			<acc value="0.004250476343188" flag="0"/>
			<vel value="0.00428504517384716" flag="0"/>
			<psa03 value="0.0076061751251062" flag="0"/>
			<psa10 value="0.00741736301317709" flag="0"/>
			<psa30 value="0.000734667032672022" flag="0"/>
		</comp>
	</station>
	<station code="SFL1" name="SFL1" netid="HI" source="ITSAK Strong Motion Network" insttype="" lat="41.189954" lon="26.304374">
		<comp name="--.HNE" depth="0.0">
			<acc value="0.0500284497053279" flag="0"/>
			<vel value="0.0330726597449797" flag="0"/>
			<psa03 value="0.200624054476331" flag="0"/>
			<psa10 value="0.0245111230516878" flag="0"/>
			<psa30 value="0.00121475090968608" flag="0"/>
		</comp>
		<comp name="--.HNN" depth="0.0">
			<acc value="0.0489614105315522" flag="0"/>
			<vel value="0.0289329589104635" flag="0"/>
			<psa03 value="0.147291344187351" flag="0"/>
			<psa10 value="0.0227916800513476" flag="0"/>
			<psa30 value="0.00101430582403622" flag="0"/>
		</comp>
		<comp name="--.HNZ" depth="0.0">
			<acc value="0.0244561011184167" flag="0"/>
			<vel value="0.012366743614479" flag="0"/>
			<psa03 value="0.0897528664762531" flag="0"/>
			<psa10 value="0.0090844576317739" flag="0"/>
			<psa30 value="0.000547197186941463" flag="0"/>
		</comp>
	</station>
	<station code="SKO1" name="SKO1" netid="HI" source="ITSAK Strong Motion Network" insttype="" lat="39.123383" lon="23.728705">
		<comp name="--.HNE" depth="0.0">
			<acc value="0.0216672543569737" flag="0"/>
			<vel value="0.0075035671372326" flag="0"/>
			<psa03 value="0.0451896286844545" flag="0"/>
			<psa10 value="0.00403887899143139" flag="0"/>
			<psa30 value="0.00070468975423778" flag="0"/>
		</comp>
		<comp name="--.HNN" depth="0.0">
			<acc value="0.0120972826603896" flag="0"/>
			<vel value="0.00696824163738142" flag="0"/>
			<psa03 value="0.0541828122147271" flag="0"/>
			<psa10 value="0.00482410471758206" flag="0"/>
			<psa30 value="0.000694399046715578" flag="0"/>
		</comp>
		<comp name="--.HNZ" depth="0.0">
			<acc value="0.00989941082482777" flag="0"/>
			<vel value="0.00468297684435964" flag="0"/>
			<psa03 value="0.0230869786150282" flag="0"/>
			<psa10 value="0.00390599463777512" flag="0"/>
			<psa30 value="0.000642945509104565" flag="0"/>
		</comp>
	</station>
	<station code="SKY1" name="SKY1" netid="HI" source="ITSAK Strong Motion Network" insttype="" lat="38.904483" lon="24.564572">
		<comp name="--.HNE" depth="0.0">
			<acc value="0.0258478666454511" flag="0"/>
			<vel value="0.0119145038371016" flag="0"/>
			<psa03 value="0.0913188437078927" flag="0"/>
			<psa10 value="0.00985760296213763" flag="0"/>
			<psa30 value="0.00158297927015445" flag="0"/>
		</comp>
		<comp name="--.HNN" depth="0.0">
			<acc value="0.0290174666132156" flag="0"/>
			<vel value="0.0148647906282516" flag="0"/>
			<psa03 value="0.0642498087038382" flag="0"/>
			<psa10 value="0.00920123479104759" flag="0"/>
			<psa30 value="0.000837574107894047" flag="0"/>
		</comp>
		<comp name="--.HNZ" depth="0.0">
			<acc value="0.0138838127400011" flag="0"/>
			<vel value="0.00730197409807646" flag="0"/>
			<psa03 value="0.0419234476013206" flag="0"/>
			<psa10 value="0.00470732755830837" flag="0"/>
			<psa30 value="0.000519904440904318" flag="0"/>
		</comp>
	</station>
	<station code="THS1" name="THS1" netid="HI" source="ITSAK Strong Motion Network" insttype="" lat="40.738476" lon="24.575145">
		<comp name="--.HNE" depth="0.0">
			<acc value="0.128438648559977" flag="0"/>
			<vel value="0.0451256896732168" flag="0"/>
			<psa03 value="0.220623820834698" flag="0"/>
			<psa10 value="0.0344452351871427" flag="0"/>
			<psa30 value="0.00261562939890417" flag="0"/>
		</comp>
		<comp name="--.HNN" depth="0.0">
			<acc value="0.1448863784927" flag="0"/>
			<vel value="0.0462600609216754" flag="0"/>
			<psa03 value="0.313195446327902" flag="0"/>
			<psa10 value="0.0221272582830663" flag="0"/>
			<psa30 value="0.00175478934356862" flag="0"/>
		</comp>
		<comp name="--.HNZ" depth="0.0">
			<acc value="0.0863562379326775" flag="0"/>
			<vel value="0.0270135047427597" flag="0"/>
			<psa03 value="0.112705618471427" flag="0"/>
			<psa10 value="0.0129058894990405" flag="0"/>
			<psa30 value="0.00134584557507761" flag="0"/>
		</comp>
	</station>
	<station code="EFSA" name="EFSA" netid="HL" source="National Observatory of Athens Seismic Network" insttype="" lat="39.54015" lon="24.98864">
		<comp name="00.HNE" depth="0.0">
			<acc value="0.0276045340408153" flag="0"/>
			<vel value="0.0150795062805529" flag="0"/>
			<psa03 value="0.0621469249927795" flag="0"/>
			<psa10 value="0.0117340911077079" flag="0"/>
			<psa30 value="0.00173912957125222" flag="0"/>
		</comp>
		<comp name="00.HNN" depth="0.0">
			<acc value="0.0323534503434054" flag="0"/>
			<vel value="0.0305366000701629" flag="0"/>
			<psa03 value="0.105994287478686" flag="0"/>
			<psa10 value="0.0320130488353734" flag="0"/>
			<psa30 value="0.00213823005428721" flag="0"/>
		</comp>
		<comp name="00.HNZ" depth="0.0">
			<acc value="0.0250825575317222" flag="0"/>
			<vel value="0.010874083740193" flag="0"/>
			<psa03 value="0.0548092031073829" flag="0"/>
			<psa10 value="0.0125515312226238" flag="0"/>
			<psa30 value="0.000836679263761682" flag="0"/>
		</comp>
	</station>
	<station code="KYMI" name="KYMI" netid="HL" source="National Observatory of Athens Seismic Network" insttype="" lat="38.633147" lon="24.100138">
		<comp name="--.HNE" depth="1.0">
			<acc value="0.00830718644721625" flag="0"/>
			<vel value="0.00452624497107653" flag="0"/>
			<psa03 value="0.0345409835093058" flag="0"/>
			<psa10 value="0.00416773654649201" flag="0"/>
			<psa30 value="0.000572252822647696" flag="0"/>
		</comp>
		<comp name="--.HNN" depth="1.0">
			<acc value="0.0103144647303495" flag="0"/>
			<vel value="0.00647189551170376" flag="0"/>
			<psa03 value="0.0335119127570855" flag="0"/>
			<psa10 value="0.00410733456755735" flag="0"/>
			<psa30 value="0.00057627962124334" flag="0"/>
		</comp>
		<comp name="--.HNZ" depth="1.0">
			<acc value="0.00604522822233803" flag="0"/>
			<vel value="0.00375392054944062" flag="0"/>
			<psa03 value="0.0184785313333462" flag="0"/>
			<psa10 value="0.00260533869138196" flag="0"/>
			<psa30 value="0.000609388854140861" flag="0"/>
		</comp>
	</station>
	<station code="LIA" name="LIA" netid="HL" source="National Observatory of Athens Seismic Network" insttype="" lat="39.89725" lon="25.18055">
		<comp name="00.HNE" depth="0.0">
			<acc value="0.061878967755505" flag="0"/>
			<vel value="0.0384208923003802" flag="0"/>
			<psa03 value="0.144741038410109" flag="0"/>
			<psa10 value="0.0263231824197278" flag="0"/>
			<psa30 value="0.00208453940634528" flag="0"/>
		</comp>
		<comp name="00.HNN" depth="0.0">
			<acc value="0.129169289779279" flag="0"/>
			<vel value="0.0550695369092896" flag="0"/>
			<psa03 value="0.416907881269056" flag="0"/>
			<psa10 value="0.0394867870288896" flag="0"/>
			<psa30 value="0.00213196614536065" flag="0"/>
		</comp>
		<comp name="00.HNZ" depth="0.0">
			<acc value="0.0467742984546728" flag="0"/>
			<vel value="0.0225181522144898" flag="0"/>
			<psa03 value="0.0945402825844082" flag="0"/>
			<psa10 value="0.0243218635176925" flag="0"/>
			<psa30 value="0.00106039029685304" flag="0"/>
		</comp>
	</station>
	<station code="PRK" name="PRK" netid="HL" source="National Observatory of Athens Seismic Network" insttype="" lat="39.24565" lon="26.26499">
		<comp name="--.HNE" depth="0.0">
			<acc value="0.0131571076040384" flag="0"/>
			<vel value="0.0106205973312333" flag="0"/>
			<psa03 value="0.0378519067990579" flag="0"/>
			<psa10 value="0.0175528150784142" flag="0"/>
			<psa30 value="0.00133734455582014" flag="0"/>
		</comp>
		<comp name="--.HNN" depth="0.0">
			<acc value="0.0165915325636662" flag="0"/>
			<vel value="0.0156182223378981" flag="0"/>
			<psa03 value="0.039015204171133" flag="0"/>
			<psa10 value="0.0220507491097491" flag="0"/>
			<psa30 value="0.0015404741738671" flag="0"/>
		</comp>
		<comp name="--.HNZ" depth="0.0">
			<acc value="0.0145128067298809" flag="0"/>
			<vel value="0.00637467803970612" flag="0"/>
			<psa03 value="0.0272480038305275" flag="0"/>
			<psa10 value="0.00824285672528421" flag="0"/>
			<psa30 value="0.000939138916917524" flag="0"/>
		</comp>
	</station>
	<station code="SMTH" name="SMTH" netid="HL" source="National Observatory of Athens Seismic Network" insttype="" lat="40.47094" lon="25.53045">
		<comp name="00.HNE" depth="0.0">
			<acc value="0.0331217121688904" flag="0"/>
			<vel value="0.0137499781818049" flag="0"/>
			<psa03 value="0.0727508279613099" flag="0"/>
			<psa10 value="0.00834352669017532" flag="0"/>
			<psa30 value="0.000632654801582362" flag="0"/>
		</comp>
		<comp name="00.HNN" depth="0.0">
			<acc value="0.0418632336023983" flag="0"/>
			<vel value="0.0141354018389496" flag="0"/>
			<psa03 value="0.0872025606990117" flag="0"/>
			<psa10 value="0.00587509915104526" flag="0"/>
			<psa30 value="0.000743168051929494" flag="0"/>
		</comp>
		<comp name="00.HNZ" depth="0.0">
			<acc value="0.0200754969689454" flag="0"/>
			<vel value="0.00778402541712188" flag="0"/>
			<psa03 value="0.04478694882489" flag="0"/>
			<psa10 value="0.00688582559855202" flag="0"/>
			<psa30 value="0.000479636454947873" flag="0"/>
		</comp>
	</station>
</stationlist>
