<?xml version="1.0" encoding="UTF-8" standalone="yes"?>
<!DOCTYPE earthquake SYSTEM "stationlist.dtd">
<stationlist created="" xmlns="ch.ethz.sed.shakemap.usgs.xml">
  <station code="KRL1" name="KRL1" netid="HI" insttype="CMG-5TD,ACCELEROMETER,GURALP" lat="37.7951" lon="26.7065">
    <comp name="--.HNN">
      <acc value="1.4062400025" flag="0"/>
      <vel value="0.8104586563" flag="0"/>
      <psa03 value="3.4001619385" flag="0"/>
      <psa10 value="0.5162516418" flag="0"/>
      <psa30 value="0.0454247115" flag="0"/>
    </comp>
    <comp name="--.HNZ">
      <acc value="0.5149822668" flag="0"/>
      <vel value="0.2401511093" flag="0"/>
      <psa03 value="0.8911570508" flag="0"/>
      <psa10 value="0.2710474768" flag="0"/>
      <psa30 value="0.0089945288" flag="0"/>
    </comp>
    <comp name="--.HNE">
      <acc value="1.3248996608" flag="0"/>
      <vel value="0.4704969972" flag="0"/>
      <psa03 value="2.9328040631" flag="0"/>
      <psa10 value="0.3155532033" flag="0"/>
      <psa30 value="0.0234737768" flag="0"/>
    </comp>
  </station>
  <station code="MYT1" name="MYT1" netid="HI" insttype="CMG-5TD,ACCELEROMETER,GURALP" lat="39.085" lon="26.5694">
    <comp name="--.HNE">
      <acc value="0.0678276891" flag="0"/>
      <vel value="0.0563250699" flag="0"/>
      <psa03 value="0.1401836620" flag="0"/>
      <psa10 value="0.1270082804" flag="0"/>
      <psa30 value="0.0122861847" flag="0"/>
    </comp>
    <comp name="--.HNN">
      <acc value="0.0598717066" flag="0"/>
      <vel value="0.0752978870" flag="0"/>
      <psa03 value="0.1022155863" flag="0"/>
      <psa10 value="0.1553651646" flag="0"/>
      <psa30 value="0.0126918350" flag="0"/>
    </comp>
    <comp name="--.HNZ">
      <acc value="0.0693138847" flag="0"/>
      <vel value="0.0527911694" flag="0"/>
      <psa03 value="0.0733402422" flag="0"/>
      <psa10 value="0.1369532372" flag="0"/>
      <psa30 value="0.0105853371" flag="0"/>
    </comp>
  </station>
  <station code="KLNA" name="KLNA" netid="HL" insttype="CMG-5" lat="36.9571" lon="26.9727">
    <comp name="00.HNE">
      <acc value="0.1518170598" flag="0"/>
      <vel value="0.0553686689" flag="0"/>
      <psa03 value="0.4561458368" flag="0"/>
      <psa10 value="0.0419495866" flag="0"/>
      <psa30 value="0.0032909793" flag="0"/>
    </comp>
    <comp name="00.HNZ">
      <acc value="0.1494538411" flag="0"/>
      <vel value="0.0445248470" flag="0"/>
      <psa03 value="0.2041126196" flag="0"/>
      <psa10 value="0.0476475325" flag="0"/>
      <psa30 value="0.0033409713" flag="0"/>
    </comp>
    <comp name="00.HNN">
      <acc value="0.1368841101" flag="0"/>
      <vel value="0.0561464588" flag="0"/>
      <psa03 value="0.3629644820" flag="0"/>
      <psa10 value="0.0478182301" flag="0"/>
      <psa30 value="0.0037452001" flag="0"/>
    </comp>
  </station>
  <station code="SMG" name="SMG" netid="HL" insttype="120" lat="37.7043" lon="26.8377">
    <comp name="--.HHZ">
      <acc value="0.4257787813" flag="0"/>
      <vel value="0.1298150516" flag="0"/>
      <psa03 value="0.8458874796" flag="0"/>
      <psa10 value="0.1051395588" flag="0"/>
      <psa30 value="0.0180668733" flag="0"/>
    </comp>
    <comp name="--.HHN">
      <acc value="0.8805962749" flag="0"/>
      <vel value="0.2398147821" flag="0"/>
      <psa03 value="1.7156480181" flag="0"/>
      <psa10 value="0.2256578856" flag="0"/>
      <psa30 value="0.0163462963" flag="0"/>
    </comp>
    <comp name="--.HHE">
      <acc value="0.5250935379" flag="0"/>
      <vel value="0.1901098696" flag="0"/>
      <psa03 value="1.0819701829" flag="0"/>
      <psa10 value="0.1528439580" flag="0"/>
      <psa30 value="0.0166049580" flag="0"/>
    </comp>
  </station>
  <station code="CHOS" name="CHOS" netid="HT" insttype="100" lat="38.3869" lon="26.0506">
    <comp name="--.HHN">
      <acc value="0.2068134386" flag="0"/>
      <vel value="0.1091525712" flag="0"/>
      <psa03 value="0.3800795552" flag="0"/>
      <psa10 value="0.0979224027" flag="0"/>
      <psa30 value="0.0078641778" flag="0"/>
    </comp>
    <comp name="--.HHZ">
      <acc value="0.0858178919" flag="0"/>
      <vel value="0.0714459596" flag="0"/>
      <psa03 value="0.1932178847" flag="0"/>
      <psa10 value="0.0595937309" flag="0"/>
      <psa30 value="0.0074413864" flag="0"/>
    </comp>
    <comp name="--.HHE">
      <acc value="0.3085066372" flag="0"/>
      <vel value="0.1610608314" flag="0"/>
      <psa03 value="0.7309405467" flag="0"/>
      <psa10 value="0.0940332859" flag="0"/>
      <psa30 value="0.0077379837" flag="0"/>
    </comp>
  </station>
  <station code="AKS" name="AKS" netid="KO" insttype="CMG-5T" lat="38.8785" lon="27.8129">
    <comp name="--.HNE">
      <acc value="0.0514844930" flag="0"/>
      <vel value="0.0412243984" flag="0"/>
      <psa03 value="0.1192690829" flag="0"/>
      <psa10 value="0.0316126839" flag="0"/>
      <psa30 value="0.0073864290" flag="0"/>
    </comp>
    <comp name="--.HNZ">
      <acc value="0.0404702891" flag="0"/>
      <vel value="0.0159773141" flag="0"/>
      <psa03 value="0.0573207648" flag="0"/>
      <psa10 value="0.0267584420" flag="0"/>
      <psa30 value="0.0038291210" flag="0"/>
    </comp>
    <comp name="--.HNN">
      <acc value="0.0823537316" flag="0"/>
      <vel value="0.0414799302" flag="0"/>
      <psa03 value="0.1208113534" flag="0"/>
      <psa10 value="0.0526320467" flag="0"/>
      <psa30 value="0.0033776982" flag="0"/>
    </comp>
  </station>
  <station code="AYDB" name="AYDB" netid="KO" insttype="30s," lat="37.9467" lon="27.8908">
    <comp name="--.HHZ">
      <acc value="0.1126884042" flag="0"/>
      <vel value="0.0254124851" flag="0"/>
      <psa03 value="0.1099800317" flag="0"/>
      <psa10 value="0.0132752089" flag="0"/>
      <psa30 value="0.0021764358" flag="0"/>
    </comp>
    <comp name="--.HHN">
      <acc value="0.1900828967" flag="0"/>
      <vel value="0.0456192389" flag="0"/>
      <psa03 value="0.2136537624" flag="0"/>
      <psa10 value="0.0212065301" flag="0"/>
      <psa30 value="0.0036469583" flag="0"/>
    </comp>
    <comp name="--.HHE">
      <acc value="0.2097565768" flag="0"/>
      <vel value="0.0533746458" flag="0"/>
      <psa03 value="0.3236249681" flag="0"/>
      <psa10 value="0.0265703482" flag="0"/>
      <psa30 value="0.0036420867" flag="0"/>
    </comp>
  </station>
  <station code="BABD" name="BABD" netid="KO" insttype="30s," lat="37.802" lon="28.8534">
    <comp name="--.HHN">
      <acc value="0.0206479024" flag="0"/>
      <vel value="0.0100075094" flag="0"/>
      <psa03 value="0.0500514675" flag="0"/>
      <psa10 value="0.0191711317" flag="0"/>
      <psa30 value="0.0019074584" flag="0"/>
    </comp>
    <comp name="--.HHZ">
      <acc value="0.0104078246" flag="0"/>
      <vel value="0.0056471622" flag="0"/>
      <psa03 value="0.0165988595" flag="0"/>
      <psa10 value="0.0093674335" flag="0"/>
      <psa30 value="0.0015568156" flag="0"/>
    </comp>
    <comp name="--.HHE">
      <acc value="0.0190681287" flag="0"/>
      <vel value="0.0076692720" flag="0"/>
      <psa03 value="0.0384622532" flag="0"/>
      <psa10 value="0.0153081804" flag="0"/>
      <psa30 value="0.0014070109" flag="0"/>
    </comp>
  </station>
  <station code="CESE" name="CESE" netid="KO" insttype="CMG-5T" lat="38.3306" lon="26.2997">
    <comp name="--.HNZ">
      <acc value="0.0548750628" flag="0"/>
      <vel value="0.0410978823" flag="0"/>
      <psa03 value="0.1495236185" flag="0"/>
      <psa10 value="0.0625634426" flag="0"/>
      <psa30 value="0.0032115772" flag="0"/>
    </comp>
    <comp name="--.HNN">
      <acc value="0.1034754752" flag="0"/>
      <vel value="0.0739694019" flag="0"/>
      <psa03 value="0.2360175861" flag="0"/>
      <psa10 value="0.1188558379" flag="0"/>
      <psa30 value="0.0098963033" flag="0"/>
    </comp>
    <comp name="--.HNE">
      <acc value="0.0695557502" flag="0"/>
      <vel value="0.0506099882" flag="0"/>
      <psa03 value="0.1154125745" flag="0"/>
      <psa10 value="0.0737527889" flag="0"/>
      <psa30 value="0.0070792197" flag="0"/>
    </comp>
  </station>
  <station code="DIDI" name="DIDI" netid="KO" insttype="CMG-5T" lat="37.3767" lon="27.2398">
    <comp name="--.HNN">
      <acc value="0.1900189497" flag="0"/>
      <vel value="0.1553706699" flag="0"/>
      <psa03 value="0.7459819316" flag="0"/>
      <psa10 value="0.1747415427" flag="0"/>
      <psa30 value="0.0246551886" flag="0"/>
    </comp>
    <comp name="--.HNE">
      <acc value="0.2306964676" flag="0"/>
      <vel value="0.1367442225" flag="0"/>
      <psa03 value="0.6497344177" flag="0"/>
      <psa10 value="0.1976720003" flag="0"/>
      <psa30 value="0.0166393425" flag="0"/>
    </comp>
    <comp name="--.HNZ">
      <acc value="0.3681046111" flag="0"/>
      <vel value="0.1339362205" flag="0"/>
      <psa03 value="0.6586279510" flag="0"/>
      <psa10 value="0.1237372327" flag="0"/>
      <psa30 value="0.0101519587" flag="0"/>
    </comp>
  </station>
  <station code="FOCM" name="FOCM" netid="KO" insttype="CMG-5T" lat="38.7131" lon="26.7309">
    <comp name="--.HNZ">
      <acc value="0.1329234192" flag="0"/>
      <vel value="0.0906364601" flag="0"/>
      <psa03 value="0.2077441529" flag="0"/>
      <psa10 value="0.0659556237" flag="0"/>
      <psa30 value="0.0048922149" flag="0"/>
    </comp>
    <comp name="--.HNN">
      <acc value="0.1844460959" flag="0"/>
      <vel value="0.1664447322" flag="0"/>
      <psa03 value="0.2405234478" flag="0"/>
      <psa10 value="0.2343681666" flag="0"/>
      <psa30 value="0.0132484137" flag="0"/>
    </comp>
    <comp name="--.HNE">
      <acc value="0.1711984284" flag="0"/>
      <vel value="0.0976994178" flag="0"/>
      <psa03 value="0.3736350071" flag="0"/>
      <psa10 value="0.1128545211" flag="0"/>
      <psa30 value="0.0119558286" flag="0"/>
    </comp>
  </station>
  <station code="GMLD" name="GMLD" netid="KO" insttype="CMG-5T" lat="38.0766" lon="26.9157">
    <comp name="--.HNN">
      <acc value="9.5811144930" flag="0"/>
      <vel value="5.8577883253" flag="0"/>
      <psa03 value="23.5891044726" flag="0"/>
      <psa10 value="2.6426343661" flag="0"/>
      <psa30 value="0.1930201562" flag="0"/>
    </comp>
    <comp name="--.HNZ">
      <acc value="2.1633561086" flag="0"/>
      <vel value="1.0113422000" flag="0"/>
      <psa03 value="6.1855690800" flag="0"/>
      <psa10 value="0.5296370000" flag="0"/>
      <psa30 value="0.0297317647" flag="0"/>
    </comp>
    <comp name="--.HNE">
      <acc value="6.7190363681" flag="0"/>
      <vel value="2.8546093848" flag="0"/>
      <psa03 value="14.7488685319" flag="0"/>
      <psa10 value="0.9660715665" flag="0"/>
      <psa30 value="0.0816680483" flag="0"/>
    </comp>
  </station>
  <station code="GOMA" name="GOMA" netid="KO" insttype="CMG-5T" lat="38.7077" lon="27.9175">
    <comp name="--.HNE">
      <acc value="0.1485401297" flag="0"/>
      <vel value="0.1031610455" flag="0"/>
      <psa03 value="0.5610660139" flag="0"/>
      <psa10 value="0.1007675418" flag="0"/>
      <psa30 value="0.0109188434" flag="0"/>
    </comp>
    <comp name="--.HNZ">
      <acc value="0.0748806660" flag="0"/>
      <vel value="0.0364145235" flag="0"/>
      <psa03 value="0.1553188296" flag="0"/>
      <psa10 value="0.0364376999" flag="0"/>
      <psa30 value="0.0052540751" flag="0"/>
    </comp>
    <comp name="--.HNN">
      <acc value="0.1027970323" flag="0"/>
      <vel value="0.0580822296" flag="0"/>
      <psa03 value="0.2306407406" flag="0"/>
      <psa10 value="0.0712113199" flag="0"/>
      <psa30 value="0.0092370783" flag="0"/>
    </comp>
  </station>
  <station code="KRBN" name="KRBN" netid="KO" insttype="CMG-5T" lat="38.5936" lon="26.5537">
    <comp name="--.HNN">
      <acc value="0.4992970791" flag="0"/>
      <vel value="0.2807410993" flag="0"/>
      <psa03 value="0.9747713815" flag="0"/>
      <psa10 value="0.4463518532" flag="0"/>
      <psa30 value="0.0340793715" flag="0"/>
    </comp>
    <comp name="--.HNE">
      <acc value="0.3192175020" flag="0"/>
      <vel value="0.2172741841" flag="0"/>
      <psa03 value="0.5594819780" flag="0"/>
      <psa10 value="0.1698054095" flag="0"/>
      <psa30 value="0.0137637356" flag="0"/>
    </comp>
    <comp name="--.HNZ">
      <acc value="0.1532783749" flag="0"/>
      <vel value="0.0985855849" flag="0"/>
      <psa03 value="0.3914924517" flag="0"/>
      <psa10 value="0.1185942265" flag="0"/>
      <psa30 value="0.0077018635" flag="0"/>
    </comp>
  </station>
  <station code="KUSD" name="KUSD" netid="KO" insttype="CMG-5T" lat="37.8606" lon="27.2868">
    <comp name="--.HNN">
      <acc value="1.0036671264" flag="0"/>
      <vel value="0.5289524787" flag="0"/>
      <psa03 value="1.6055726204" flag="0"/>
      <psa10 value="0.7413572450" flag="0"/>
      <psa30 value="0.0635844754" flag="0"/>
    </comp>
    <comp name="--.HNE">
      <acc value="1.0542588359" flag="0"/>
      <vel value="0.3147482549" flag="0"/>
      <psa03 value="1.7840769312" flag="0"/>
      <psa10 value="0.3920162357" flag="0"/>
      <psa30 value="0.0413010052" flag="0"/>
    </comp>
    <comp name="--.HNZ">
      <acc value="0.6165937369" flag="0"/>
      <vel value="0.1675732608" flag="0"/>
      <psa03 value="0.5603305865" flag="0"/>
      <psa10 value="0.1482067552" flag="0"/>
      <psa30 value="0.0290493263" flag="0"/>
    </comp>
  </station>
  <station code="YKAV" name="YKAV" netid="KO" insttype="CMG-5T" lat="37.1246" lon="27.2801">
    <comp name="--.HNN">
      <acc value="0.0449983361" flag="0"/>
      <vel value="0.0312140029" flag="0"/>
      <psa03 value="0.1574515028" flag="0"/>
      <psa10 value="0.0651126847" flag="0"/>
      <psa30 value="0.0071671219" flag="0"/>
    </comp>
    <comp name="--.HNE">
      <acc value="0.0680752379" flag="0"/>
      <vel value="0.0533945816" flag="0"/>
      <psa03 value="0.1537947460" flag="0"/>
      <psa10 value="0.0617740717" flag="0"/>
      <psa30 value="0.0088606330" flag="0"/>
    </comp>
    <comp name="--.HNZ">
      <acc value="0.0427093559" flag="0"/>
      <vel value="0.0360116691" flag="0"/>
      <psa03 value="0.0987178473" flag="0"/>
      <psa10 value="0.0376606143" flag="0"/>
      <psa30 value="0.0030263934" flag="0"/>
    </comp>
  </station>
</stationlist>
