<?xml version="1.0" encoding="UTF-8" standalone="yes"?>
<!DOCTYPE earthquake SYSTEM "stationlist.dtd">
<stationlist created="" xmlns="ch.ethz.sed.shakemap.usgs.xml">
  <station code="ACOR" name="ACOR" netid="HA" insttype="Horizon,120s,1200" lat="37.8905" lon="22.8694">
    <comp name="--.HHE">
      <acc value="0.1343508898" flag="0"/>
      <vel value="0.0772702680" flag="0"/>
      <psa03 value="0.4122742533" flag="0"/>
      <psa10 value="0.1468859372" flag="0"/>
      <psa30 value="0.0100860411" flag="0"/>
    </comp>
    <comp name="--.HHZ">
      <acc value="0.0912780879" flag="0"/>
      <vel value="0.0629555097" flag="0"/>
      <psa03 value="0.3369177158" flag="0"/>
      <psa10 value="0.0543459790" flag="0"/>
      <psa30 value="0.0098265692" flag="0"/>
    </comp>
    <comp name="--.HHN">
      <acc value="0.1047008467" flag="0"/>
      <vel value="0.0871549822" flag="0"/>
      <psa03 value="0.4672002086" flag="0"/>
      <psa10 value="0.1092850891" flag="0"/>
      <psa30 value="0.0097477407" flag="0"/>
    </comp>
  </station>
  <station code="AMPE" name="AMPE" netid="HA" insttype="1s-100Hz," lat="38.3015" lon="23.2688">
    <comp name="--.HHZ">
      <acc value="0.2273940703" flag="0"/>
      <vel value="0.1072305320" flag="0"/>
      <psa03 value="0.4932264357" flag="0"/>
      <psa10 value="0.1317686149" flag="0"/>
      <psa30 value="0.0113612806" flag="0"/>
    </comp>
    <comp name="--.HHN">
      <acc value="0.4285641952" flag="0"/>
      <vel value="0.2394800636" flag="0"/>
      <psa03 value="0.9924850540" flag="0"/>
      <psa10 value="0.2845020407" flag="0"/>
      <psa30 value="0.0302531449" flag="0"/>
    </comp>
    <comp name="--.HHE">
      <acc value="0.3844724950" flag="0"/>
      <vel value="0.2341742780" flag="0"/>
      <psa03 value="0.9167357698" flag="0"/>
      <psa10 value="0.2558220147" flag="0"/>
      <psa30 value="0.0413266409" flag="0"/>
    </comp>
  </station>
  <station code="ATAL" name="ATAL" netid="HA" insttype="120" lat="38.6926" lon="23.0213">
    <comp name="--.HHN">
      <acc value="0.2203823768" flag="0"/>
      <vel value="0.0453023685" flag="0"/>
      <psa03 value="0.1468643541" flag="0"/>
      <psa10 value="0.0424680720" flag="0"/>
      <psa30 value="0.0055718413" flag="0"/>
    </comp>
    <comp name="--.HHE">
      <acc value="0.2493593208" flag="0"/>
      <vel value="0.0532264652" flag="0"/>
      <psa03 value="0.1888267524" flag="0"/>
      <psa10 value="0.0285529687" flag="0"/>
      <psa30 value="0.0056198192" flag="0"/>
    </comp>
    <comp name="--.HHZ">
      <acc value="0.1741754756" flag="0"/>
      <vel value="0.0410565487" flag="0"/>
      <psa03 value="0.1552512208" flag="0"/>
      <psa10 value="0.0335979716" flag="0"/>
      <psa30 value="0.0072798492" flag="0"/>
    </comp>
  </station>
  <station code="ATHU" name="ATHU" netid="HA" insttype="60" lat="37.9665" lon="23.7845">
    <comp name="--.HHN">
      <acc value="0.1813508553" flag="0"/>
      <vel value="0.0836623942" flag="0"/>
      <psa03 value="0.4008404100" flag="0"/>
      <psa10 value="0.0648213576" flag="0"/>
      <psa30 value="0.0080264877" flag="0"/>
    </comp>
    <comp name="--.HHE">
      <acc value="0.1976285153" flag="0"/>
      <vel value="0.1428431714" flag="0"/>
      <psa03 value="0.5298199370" flag="0"/>
      <psa10 value="0.0660901435" flag="0"/>
      <psa30 value="0.0050419770" flag="0"/>
    </comp>
    <comp name="--.HHZ">
      <acc value="0.2039266582" flag="0"/>
      <vel value="0.0807183580" flag="0"/>
      <psa03 value="0.5212066711" flag="0"/>
      <psa10 value="0.0858907995" flag="0"/>
      <psa30 value="0.0094472251" flag="0"/>
    </comp>
  </station>
  <station code="AXAR" name="AXAR" netid="HA" insttype="Horizon,120s,1200" lat="38.7664" lon="22.659">
    <comp name="--.HHN">
      <acc value="0.2016468470" flag="0"/>
      <vel value="0.1400894151" flag="0"/>
      <psa03 value="0.6553605343" flag="0"/>
      <psa10 value="0.1340728358" flag="0"/>
      <psa30 value="0.0100620647" flag="0"/>
    </comp>
    <comp name="--.HHZ">
      <acc value="0.1138361284" flag="0"/>
      <vel value="0.0528773413" flag="0"/>
      <psa03 value="0.2122736108" flag="0"/>
      <psa10 value="0.0451608743" flag="0"/>
      <psa30 value="0.0053376951" flag="0"/>
    </comp>
    <comp name="--.HHE">
      <acc value="0.1638992837" flag="0"/>
      <vel value="0.0788255462" flag="0"/>
      <psa03 value="0.4068832728" flag="0"/>
      <psa10 value="0.0868721189" flag="0"/>
      <psa30 value="0.0113868338" flag="0"/>
    </comp>
  </station>
  <station code="DOMV" name="DOMV" netid="HA" insttype="60" lat="38.2569" lon="22.9795">
    <comp name="--.HHE">
      <acc value="0.6754823906" flag="0"/>
      <vel value="0.1881639182" flag="0"/>
      <psa03 value="0.9380179688" flag="0"/>
      <psa10 value="0.0769221872" flag="0"/>
      <psa30 value="0.0048900303" flag="0"/>
    </comp>
    <comp name="--.HHN">
      <acc value="0.5361040746" flag="0"/>
      <vel value="0.1735904911" flag="0"/>
      <psa03 value="0.6795067689" flag="0"/>
      <psa10 value="0.0876226616" flag="0"/>
      <psa30 value="0.0064538245" flag="0"/>
    </comp>
    <comp name="--.HHZ">
      <acc value="0.3259050134" flag="0"/>
      <vel value="0.1054939965" flag="0"/>
      <psa03 value="0.4535976150" flag="0"/>
      <psa10 value="0.0264513603" flag="0"/>
      <psa30 value="0.0030712931" flag="0"/>
    </comp>
  </station>
  <station code="EPID" name="EPID" netid="HA" insttype="30" lat="37.6144" lon="23.1189">
    <comp name="--.HHN">
      <acc value="0.3115828186" flag="0"/>
      <vel value="0.1543609383" flag="0"/>
      <psa03 value="1.1334339101" flag="0"/>
      <psa10 value="0.0783957230" flag="0"/>
      <psa30 value="0.0091588463" flag="0"/>
    </comp>
    <comp name="--.HHZ">
      <acc value="0.1922478562" flag="0"/>
      <vel value="0.1035535429" flag="0"/>
      <psa03 value="0.6140999642" flag="0"/>
      <psa10 value="0.0740742946" flag="0"/>
      <psa30 value="0.0119347528" flag="0"/>
    </comp>
    <comp name="--.HHE">
      <acc value="0.3411723252" flag="0"/>
      <vel value="0.1737364082" flag="0"/>
      <psa03 value="1.3934523388" flag="0"/>
      <psa10 value="0.1250648977" flag="0"/>
      <psa30 value="0.0109677037" flag="0"/>
    </comp>
  </station>
  <station code="ERTR" name="ERTR" netid="HA" insttype="Horizon,120s,1200" lat="38.4066" lon="23.7865">
    <comp name="--.HHN">
      <acc value="1.2992465582" flag="0"/>
      <vel value="0.5811825447" flag="0"/>
      <psa03 value="2.9454481890" flag="0"/>
      <psa10 value="0.4891715517" flag="0"/>
      <psa30 value="0.0731911013" flag="0"/>
    </comp>
    <comp name="--.HHZ">
      <acc value="0.8271383510" flag="0"/>
      <vel value="0.3940169569" flag="0"/>
      <psa03 value="1.1152130286" flag="0"/>
      <psa10 value="0.2104739326" flag="0"/>
      <psa30 value="0.0319676465" flag="0"/>
    </comp>
    <comp name="--.HHE">
      <acc value="1.4136404167" flag="0"/>
      <vel value="0.3830578502" flag="0"/>
      <psa03 value="3.0751269628" flag="0"/>
      <psa10 value="0.2945477701" flag="0"/>
      <psa30 value="0.0288438568" flag="0"/>
    </comp>
  </station>
  <station code="KALE" name="KALE" netid="HA" insttype="40," lat="38.3911" lon="22.1398">
    <comp name="--.HHN">
      <acc value="0.0608116745" flag="0"/>
      <vel value="0.0366147096" flag="0"/>
      <psa03 value="0.1683326301" flag="0"/>
      <psa10 value="0.0442577484" flag="0"/>
      <psa30 value="0.0049129562" flag="0"/>
    </comp>
    <comp name="--.HHE">
      <acc value="0.0468078083" flag="0"/>
      <vel value="0.0380345511" flag="0"/>
      <psa03 value="0.1728534285" flag="0"/>
      <psa10 value="0.0453999329" flag="0"/>
      <psa30 value="0.0057224569" flag="0"/>
    </comp>
    <comp name="--.HHZ">
      <acc value="0.0316640341" flag="0"/>
      <vel value="0.0258598162" flag="0"/>
      <psa03 value="0.0854316181" flag="0"/>
      <psa10 value="0.0351138269" flag="0"/>
      <psa30 value="0.0040390895" flag="0"/>
    </comp>
  </station>
  <station code="KARY" name="KARY" netid="HA" insttype="60" lat="38.0321" lon="24.437">
    <comp name="--.HHN">
      <acc value="0.3418406555" flag="0"/>
      <vel value="0.0881782354" flag="0"/>
      <psa03 value="0.2785679783" flag="0"/>
      <psa10 value="0.0380857078" flag="0"/>
      <psa30 value="0.0039899050" flag="0"/>
    </comp>
    <comp name="--.HHE">
      <acc value="0.2093518164" flag="0"/>
      <vel value="0.0710765211" flag="0"/>
      <psa03 value="0.3720683280" flag="0"/>
      <psa10 value="0.0426442704" flag="0"/>
      <psa30 value="0.0039895502" flag="0"/>
    </comp>
    <comp name="--.HHZ">
      <acc value="0.2977959736" flag="0"/>
      <vel value="0.0944318787" flag="0"/>
      <psa03 value="0.3193843383" flag="0"/>
      <psa10 value="0.0951244214" flag="0"/>
      <psa30 value="0.0084506602" flag="0"/>
    </comp>
  </station>
  <station code="KIAS" name="KIAS" netid="HA" insttype="DC" lat="37.9875" lon="22.7543">
    <comp name="--.HNE">
      <acc value="0.3663528971" flag="0"/>
      <vel value="0.2393274320" flag="0"/>
      <psa03 value="0.9957031603" flag="0"/>
      <psa10 value="0.3649456307" flag="0"/>
      <psa30 value="0.0218138791" flag="0"/>
    </comp>
    <comp name="--.HNN">
      <acc value="0.4443587761" flag="0"/>
      <vel value="0.2700586129" flag="0"/>
      <psa03 value="1.4009038569" flag="0"/>
      <psa10 value="0.2914025483" flag="0"/>
      <psa30 value="0.0286270525" flag="0"/>
    </comp>
    <comp name="--.HNZ">
      <acc value="0.1273544274" flag="0"/>
      <vel value="0.0845357333" flag="0"/>
      <psa03 value="0.3690865501" flag="0"/>
      <psa10 value="0.0899702889" flag="0"/>
      <psa30 value="0.0156889108" flag="0"/>
    </comp>
  </station>
  <station code="LOUT" name="LOUT" netid="HA" insttype="30" lat="37.9879" lon="22.9743">
    <comp name="--.HHN">
      <acc value="0.7396348929" flag="0"/>
      <vel value="0.2356290888" flag="0"/>
      <psa03 value="1.0670560136" flag="0"/>
      <psa10 value="0.1822060058" flag="0"/>
      <psa30 value="0.0176541417" flag="0"/>
    </comp>
    <comp name="--.HHZ">
      <acc value="0.3300185983" flag="0"/>
      <vel value="0.1297502838" flag="0"/>
      <psa03 value="0.7731699009" flag="0"/>
      <psa10 value="0.2169900901" flag="0"/>
      <psa30 value="0.0107480010" flag="0"/>
    </comp>
    <comp name="--.HHE">
      <acc value="0.9533624065" flag="0"/>
      <vel value="0.4212847150" flag="0"/>
      <psa03 value="1.8035162022" flag="0"/>
      <psa10 value="0.3063023186" flag="0"/>
      <psa30 value="0.0179437839" flag="0"/>
    </comp>
  </station>
  <station code="LTRS" name="LTRS" netid="HA" insttype="DC" lat="37.9753" lon="22.9765">
    <comp name="--.HNE">
      <acc value="0.4540774132" flag="0"/>
      <vel value="0.3851899443" flag="0"/>
      <psa03 value="1.4794075423" flag="0"/>
      <psa10 value="0.5228320786" flag="0"/>
      <psa30 value="0.0207231707" flag="0"/>
    </comp>
    <comp name="--.HNZ">
      <acc value="0.4046605967" flag="0"/>
      <vel value="0.2377607693" flag="0"/>
      <psa03 value="0.9793240332" flag="0"/>
      <psa10 value="0.3518611346" flag="0"/>
      <psa30 value="0.0195243697" flag="0"/>
    </comp>
    <comp name="--.HNN">
      <acc value="0.6879399432" flag="0"/>
      <vel value="0.3461957355" flag="0"/>
      <psa03 value="2.3320937388" flag="0"/>
      <psa10 value="0.3490105027" flag="0"/>
      <psa30 value="0.0248440450" flag="0"/>
    </comp>
  </station>
  <station code="MDRA" name="MDRA" netid="HA" insttype="60" lat="38.0606" lon="23.4662">
    <comp name="--.HHE">
      <acc value="0.2520809321" flag="0"/>
      <vel value="0.1250169776" flag="0"/>
      <psa03 value="0.7999477072" flag="0"/>
      <psa10 value="0.0386125309" flag="0"/>
      <psa30 value="0.0037178216" flag="0"/>
    </comp>
    <comp name="--.HHN">
      <acc value="0.3139641257" flag="0"/>
      <vel value="0.1648737129" flag="0"/>
      <psa03 value="0.7813636793" flag="0"/>
      <psa10 value="0.0691146540" flag="0"/>
      <psa30 value="0.0049079224" flag="0"/>
    </comp>
    <comp name="--.HHZ">
      <acc value="0.1959078712" flag="0"/>
      <vel value="0.0688827798" flag="0"/>
      <psa03 value="0.5251290326" flag="0"/>
      <psa10 value="0.0447506942" flag="0"/>
      <psa30 value="0.0053229847" flag="0"/>
    </comp>
  </station>
  <station code="MRKA" name="MRKA" netid="HA" insttype="Horizon,120s,1200" lat="38.7047" lon="23.5863">
    <comp name="--.HHE">
      <acc value="2.7807570978" flag="0"/>
      <vel value="0.8337853853" flag="0"/>
      <psa03 value="2.2190542763" flag="0"/>
      <psa10 value="0.5135078249" flag="0"/>
      <psa30 value="0.0389827252" flag="0"/>
    </comp>
    <comp name="--.HHZ">
      <acc value="1.0478604864" flag="0"/>
      <vel value="0.3581410843" flag="0"/>
      <psa03 value="1.7489467823" flag="0"/>
      <psa10 value="0.2192977505" flag="0"/>
      <psa30 value="0.0461173377" flag="0"/>
    </comp>
    <comp name="--.HHN">
      <acc value="1.4863100594" flag="0"/>
      <vel value="0.5847479721" flag="0"/>
      <psa03 value="2.0628994115" flag="0"/>
      <psa10 value="0.4334287309" flag="0"/>
      <psa30 value="0.0798626817" flag="0"/>
    </comp>
  </station>
  <station code="MRTH" name="MRTH" netid="HA" insttype="S100," lat="38.1225" lon="23.9409">
    <comp name="--.HHE">
      <acc value="0.6573618201" flag="0"/>
      <vel value="0.3157757964" flag="0"/>
      <psa03 value="1.3578289031" flag="0"/>
      <psa10 value="0.2531442942" flag="0"/>
      <psa30 value="0.0121040118" flag="0"/>
    </comp>
    <comp name="--.HHZ">
      <acc value="0.4515750171" flag="0"/>
      <vel value="0.1953984497" flag="0"/>
      <psa03 value="0.8938547578" flag="0"/>
      <psa10 value="0.1356785700" flag="0"/>
      <psa30 value="0.0092612107" flag="0"/>
    </comp>
    <comp name="--.HHN">
      <acc value="0.7557296601" flag="0"/>
      <vel value="0.2907504586" flag="0"/>
      <psa03 value="0.9591325775" flag="0"/>
      <psa10 value="0.2854707497" flag="0"/>
      <psa30 value="0.0172201157" flag="0"/>
    </comp>
  </station>
  <station code="STFN" name="STFN" netid="HA" insttype="1s-100Hz," lat="38.1766" lon="23.544">
    <comp name="--.HHE">
      <acc value="0.8671749423" flag="0"/>
      <vel value="0.6112997417" flag="0"/>
      <psa03 value="2.9453756587" flag="0"/>
      <psa10 value="0.2597864511" flag="0"/>
      <psa30 value="0.0244425534" flag="0"/>
    </comp>
    <comp name="--.HHN">
      <acc value="0.5235068807" flag="0"/>
      <vel value="0.4374674332" flag="0"/>
      <psa03 value="1.3585097758" flag="0"/>
      <psa10 value="0.4439813101" flag="0"/>
      <psa30 value="0.0199261188" flag="0"/>
    </comp>
    <comp name="--.HHZ">
      <acc value="0.6352311660" flag="0"/>
      <vel value="0.3454839543" flag="0"/>
      <psa03 value="1.8144631126" flag="0"/>
      <psa10 value="0.1369782350" flag="0"/>
      <psa30 value="0.0204487337" flag="0"/>
    </comp>
  </station>
  <station code="THAL" name="THAL" netid="HA" insttype="30" lat="38.0357" lon="22.6634">
    <comp name="--.HHE">
      <acc value="0.3457897133" flag="0"/>
      <vel value="0.1496560345" flag="0"/>
      <psa03 value="0.8606263483" flag="0"/>
      <psa10 value="0.2613651984" flag="0"/>
      <psa30 value="0.0118183430" flag="0"/>
    </comp>
    <comp name="--.HHN">
      <acc value="0.2536392536" flag="0"/>
      <vel value="0.1529235681" flag="0"/>
      <psa03 value="0.9151459920" flag="0"/>
      <psa10 value="0.2232146491" flag="0"/>
      <psa30 value="0.0151975801" flag="0"/>
    </comp>
    <comp name="--.HHZ">
      <acc value="0.1740029814" flag="0"/>
      <vel value="0.0755448929" flag="0"/>
      <psa03 value="0.5346444713" flag="0"/>
      <psa10 value="0.0850331393" flag="0"/>
      <psa30 value="0.0070463234" flag="0"/>
    </comp>
  </station>
  <station code="THIV" name="THIV" netid="HA" insttype="25" lat="38.299" lon="23.332">
    <comp name="--.HHE">
      <acc value="0.1485512099" flag="0"/>
      <vel value="0.0745493903" flag="0"/>
      <psa03 value="0.3188507215" flag="0"/>
      <psa10 value="0.0890179984" flag="0"/>
      <psa30 value="0.0075645811" flag="0"/>
    </comp>
    <comp name="--.HHN">
      <acc value="0.2170845285" flag="0"/>
      <vel value="0.0831663000" flag="0"/>
      <psa03 value="0.4834259602" flag="0"/>
      <psa10 value="0.1189277844" flag="0"/>
      <psa30 value="0.0059373146" flag="0"/>
    </comp>
    <comp name="--.HHZ">
      <acc value="0.1470377473" flag="0"/>
      <vel value="0.0420828883" flag="0"/>
      <psa03 value="0.3499991959" flag="0"/>
      <psa10 value="0.0290792672" flag="0"/>
      <psa30 value="0.0067302734" flag="0"/>
    </comp>
  </station>
  <station code="VILL" name="VILL" netid="HA" insttype="Horizon,120s,1200" lat="38.1642" lon="23.3122">
    <comp name="--.HHN">
      <acc value="0.4291966455" flag="0"/>
      <vel value="0.2119587865" flag="0"/>
      <psa03 value="1.4182603401" flag="0"/>
      <psa10 value="0.1783773506" flag="0"/>
      <psa30 value="0.0108554736" flag="0"/>
    </comp>
    <comp name="--.HHE">
      <acc value="0.4905118437" flag="0"/>
      <vel value="0.2474225436" flag="0"/>
      <psa03 value="1.4134534230" flag="0"/>
      <psa10 value="0.1916978571" flag="0"/>
      <psa30 value="0.0180364083" flag="0"/>
    </comp>
    <comp name="--.HHZ">
      <acc value="0.2187096586" flag="0"/>
      <vel value="0.1166462824" flag="0"/>
      <psa03 value="0.9153266293" flag="0"/>
      <psa10 value="0.0862369738" flag="0"/>
      <psa30 value="0.0056681976" flag="0"/>
    </comp>
  </station>
  <station code="ATH5" name="ATH5" netid="HI" insttype="CMG-5TD,ACCELEROMETER,GURALP" lat="37.9754" lon="23.7371">
    <comp name="--.HNN">
      <acc value="0.5109072105" flag="0"/>
      <vel value="0.2718395984" flag="0"/>
      <psa03 value="2.1072812865" flag="0"/>
      <psa10 value="0.1488030535" flag="0"/>
      <psa30 value="0.0263489195" flag="0"/>
    </comp>
    <comp name="--.HNZ">
      <acc value="0.1781959785" flag="0"/>
      <vel value="0.0969088862" flag="0"/>
      <psa03 value="0.6303995130" flag="0"/>
      <psa10 value="0.0663248724" flag="0"/>
      <psa30 value="0.0167772995" flag="0"/>
    </comp>
    <comp name="--.HNE">
      <acc value="0.4766034298" flag="0"/>
      <vel value="0.1799322246" flag="0"/>
      <psa03 value="1.0516182204" flag="0"/>
      <psa10 value="0.0816659666" flag="0"/>
      <psa30 value="0.0103014982" flag="0"/>
    </comp>
  </station>
  <station code="KLV1" name="KLV1" netid="HI" insttype="CMG-5TD,ACCELEROMETER,GURALP" lat="38.0326" lon="22.108">
    <comp name="--.HNE">
      <acc value="0.0829757167" flag="0"/>
      <vel value="0.0467931588" flag="0"/>
      <psa03 value="0.2239440349" flag="0"/>
      <psa10 value="0.0598775810" flag="0"/>
      <psa30 value="0.0029339383" flag="0"/>
    </comp>
    <comp name="--.HNZ">
      <acc value="0.0296097630" flag="0"/>
      <vel value="0.0241094826" flag="0"/>
      <psa03 value="0.0654456327" flag="0"/>
      <psa10 value="0.0321392944" flag="0"/>
      <psa30 value="0.0041039079" flag="0"/>
    </comp>
    <comp name="--.HNN">
      <acc value="0.0593158254" flag="0"/>
      <vel value="0.0378847356" flag="0"/>
      <psa03 value="0.1853448909" flag="0"/>
      <psa10 value="0.0453233276" flag="0"/>
      <psa30 value="0.0056425468" flag="0"/>
    </comp>
  </station>
  <station code="VOL2" name="VOL2" netid="HI" insttype="CMG-5TD,ACCELEROMETER,GURALP" lat="39.366" lon="22.9506">
    <comp name="--.HNN">
      <acc value="0.0760602683" flag="0"/>
      <vel value="0.0510356048" flag="0"/>
      <psa03 value="0.2141111792" flag="0"/>
      <psa10 value="0.0427097221" flag="0"/>
      <psa30 value="0.0116574516" flag="0"/>
    </comp>
    <comp name="--.HNZ">
