<?xml version="1.0" encoding="UTF-8" standalone="yes"?>
<!DOCTYPE earthquake SYSTEM "stationlist.dtd">
<stationlist created="" xmlns="ch.ethz.sed.shakemap.usgs.xml">
  <station code="ACOR" name="ACOR" netid="HA" insttype="Horizon,120s,1200" lat="37.8905" lon="22.8694">
    <comp name="--.HHE">
      <acc value="0.1343551335" flag="0"/>
      <vel value="0.0777485412" flag="0"/>
      <psa03 value="0.4123853340" flag="0"/>
      <psa10 value="0.1469564972" flag="0"/>
      <psa30 value="0.0105378559" flag="0"/>
    </comp>
    <comp name="--.HHN">
      <acc value="0.1043512573" flag="0"/>
      <vel value="0.0887866152" flag="0"/>
      <psa03 value="0.4670665073" flag="0"/>
      <psa10 value="0.1087947315" flag="0"/>
      <psa30 value="0.0108154752" flag="0"/>
    </comp>
  </station>
  <station code="AMPE" name="AMPE" netid="HA" insttype="1s-100Hz," lat="38.3015" lon="23.2688">
    <comp name="--.HHZ">
      <acc value="0.2272812052" flag="0"/>
      <vel value="0.1099990146" flag="0"/>
      <psa03 value="0.4933292466" flag="0"/>
      <psa10 value="0.1318439473" flag="0"/>
      <psa30 value="0.0125503266" flag="0"/>
    </comp>
    <comp name="--.HHN">
      <acc value="0.4283737057" flag="0"/>
      <vel value="0.2355030005" flag="0"/>
      <psa03 value="0.9925507469" flag="0"/>
      <psa10 value="0.2840175030" flag="0"/>
      <psa30 value="0.0336453558" flag="0"/>
    </comp>
  </station>
  <station code="ATAL" name="ATAL" netid="HA" insttype="120" lat="38.6926" lon="23.0213">
    <comp name="--.HHN">
      <acc value="0.2205333442" flag="0"/>
      <vel value="0.0454029138" flag="0"/>
      <psa03 value="0.1468975664" flag="0"/>
      <psa10 value="0.0424382311" flag="0"/>
      <psa30 value="0.0060385590" flag="0"/>
    </comp>
    <comp name="--.HHE">
      <acc value="0.2497518557" flag="0"/>
      <vel value="0.0514398214" flag="0"/>
      <psa03 value="0.1885325455" flag="0"/>
      <psa10 value="0.0284795488" flag="0"/>
      <psa30 value="0.0071569081" flag="0"/>
    </comp>
    <comp name="--.HHZ">
      <acc value="0.1740608786" flag="0"/>
      <vel value="0.0418842299" flag="0"/>
      <psa03 value="0.1547475506" flag="0"/>
      <psa10 value="0.0334605105" flag="0"/>
      <psa30 value="0.0083211935" flag="0"/>
    </comp>
  </station>
  <station code="ATHU" name="ATHU" netid="HA" insttype="60" lat="37.9665" lon="23.7845">
    <comp name="--.HHE">
      <acc value="0.1974500363" flag="0"/>
      <vel value="0.1431518141" flag="0"/>
      <psa03 value="0.5296430155" flag="0"/>
      <psa10 value="0.0659000673" flag="0"/>
      <psa30 value="0.0053826424" flag="0"/>
    </comp>
    <comp name="--.HHZ">
      <acc value="0.2039653318" flag="0"/>
      <vel value="0.0799787069" flag="0"/>
      <psa03 value="0.5212451529" flag="0"/>
      <psa10 value="0.0862483666" flag="0"/>
      <psa30 value="0.0100791056" flag="0"/>
    </comp>
    <comp name="--.HHN">
      <acc value="0.1811687263" flag="0"/>
      <vel value="0.0817601532" flag="0"/>
      <psa03 value="0.4008663415" flag="0"/>
      <psa10 value="0.0644621437" flag="0"/>
      <psa30 value="0.0087222684" flag="0"/>
    </comp>
  </station>
  <station code="AXAR" name="AXAR" netid="HA" insttype="Horizon,120s,1200" lat="38.7664" lon="22.659">
    <comp name="--.HHE">
      <acc value="0.1646406745" flag="0"/>
      <vel value="0.0823762833" flag="0"/>
      <psa03 value="0.4079966402" flag="0"/>
      <psa10 value="0.0870522406" flag="0"/>
      <psa30 value="0.0128270527" flag="0"/>
    </comp>
    <comp name="--.HHN">
      <acc value="0.2015900361" flag="0"/>
      <vel value="0.1412081069" flag="0"/>
      <psa03 value="0.6555310718" flag="0"/>
      <psa10 value="0.1342637304" flag="0"/>
      <psa30 value="0.0102936168" flag="0"/>
    </comp>
    <comp name="--.HHZ">
      <acc value="0.1136428614" flag="0"/>
      <vel value="0.0555647383" flag="0"/>
      <psa03 value="0.2125895966" flag="0"/>
      <psa10 value="0.0452279142" flag="0"/>
      <psa30 value="0.0061247410" flag="0"/>
    </comp>
  </station>
  <station code="DOMV" name="DOMV" netid="HA" insttype="60" lat="38.2569" lon="22.9795">
    <comp name="--.HHZ">
      <acc value="0.3258592161" flag="0"/>
      <vel value="0.1075344787" flag="0"/>
      <psa03 value="0.4535567716" flag="0"/>
      <psa10 value="0.0263356468" flag="0"/>
      <psa30 value="0.0037788163" flag="0"/>
    </comp>
    <comp name="--.HHN">
      <acc value="0.5360957727" flag="0"/>
      <vel value="0.1744940676" flag="0"/>
      <psa03 value="0.6794792055" flag="0"/>
      <psa10 value="0.0877524736" flag="0"/>
      <psa30 value="0.0064454907" flag="0"/>
    </comp>
    <comp name="--.HHE">
      <acc value="0.6752514965" flag="0"/>
      <vel value="0.1882385407" flag="0"/>
      <psa03 value="0.9378195526" flag="0"/>
      <psa10 value="0.0771674840" flag="0"/>
      <psa30 value="0.0053736778" flag="0"/>
    </comp>
  </station>
  <station code="EPID" name="EPID" netid="HA" insttype="30" lat="37.6144" lon="23.1189">
    <comp name="--.HHE">
      <acc value="0.3410485734" flag="0"/>
      <vel value="0.1736187193" flag="0"/>
      <psa03 value="1.3934232793" flag="0"/>
      <psa10 value="0.1252904904" flag="0"/>
      <psa30 value="0.0111217362" flag="0"/>
    </comp>
    <comp name="--.HHN">
      <acc value="0.3117103171" flag="0"/>
      <vel value="0.1548140748" flag="0"/>
      <psa03 value="1.1333530180" flag="0"/>
      <psa10 value="0.0782604153" flag="0"/>
      <psa30 value="0.0094688310" flag="0"/>
    </comp>
  </station>
  <station code="ERTR" name="ERTR" netid="HA" insttype="Horizon,120s,1200" lat="38.4066" lon="23.7865">
    <comp name="--.HHZ">
      <acc value="0.8269797211" flag="0"/>
      <vel value="0.3957111722" flag="0"/>
      <psa03 value="1.1159425722" flag="0"/>
      <psa10 value="0.2098577924" flag="0"/>
      <psa30 value="0.0337763637" flag="0"/>
    </comp>
    <comp name="--.HHE">
      <acc value="1.4158448243" flag="0"/>
      <vel value="0.4011704743" flag="0"/>
      <psa03 value="3.0725713711" flag="0"/>
      <psa10 value="0.2958958428" flag="0"/>
      <psa30 value="0.0296717012" flag="0"/>
    </comp>
    <comp name="--.HHN">
      <acc value="1.3005156688" flag="0"/>
      <vel value="0.5951095293" flag="0"/>
      <psa03 value="2.9477103726" flag="0"/>
      <psa10 value="0.4869209636" flag="0"/>
      <psa30 value="0.0756862116" flag="0"/>
    </comp>
  </station>
  <station code="KALE" name="KALE" netid="HA" insttype="40," lat="38.3911" lon="22.1398">
    <comp name="--.HHE">
      <acc value="0.0468501189" flag="0"/>
      <vel value="0.0384478303" flag="0"/>
      <psa03 value="0.1728288613" flag="0"/>
      <psa10 value="0.0453774013" flag="0"/>
      <psa30 value="0.0059997310" flag="0"/>
    </comp>
    <comp name="--.HHN">
      <acc value="0.0608495081" flag="0"/>
      <vel value="0.0388013098" flag="0"/>
      <psa03 value="0.1686319013" flag="0"/>
      <psa10 value="0.0442529589" flag="0"/>
      <psa30 value="0.0054578385" flag="0"/>
    </comp>
    <comp name="--.HHZ">
      <acc value="0.0314361232" flag="0"/>
      <vel value="0.0243025428" flag="0"/>
      <psa03 value="0.0852935186" flag="0"/>
      <psa10 value="0.0353635081" flag="0"/>
      <psa30 value="0.0043127348" flag="0"/>
    </comp>
  </station>
  <station code="KARY" name="KARY" netid="HA" insttype="60" lat="38.0321" lon="24.437">
    <comp name="--.HHE">
      <acc value="0.2095321914" flag="0"/>
      <vel value="0.0718851272" flag="0"/>
      <psa03 value="0.3723003370" flag="0"/>
      <psa10 value="0.0426082568" flag="0"/>
      <psa30 value="0.0045819816" flag="0"/>
    </comp>
    <comp name="--.HHN">
      <acc value="0.3418485205" flag="0"/>
      <vel value="0.0881843532" flag="0"/>
      <psa03 value="0.2785400697" flag="0"/>
      <psa10 value="0.0381055137" flag="0"/>
      <psa30 value="0.0040051563" flag="0"/>
    </comp>
    <comp name="--.HHZ">
      <acc value="0.2978620158" flag="0"/>
      <vel value="0.0948353608" flag="0"/>
      <psa03 value="0.3192987738" flag="0"/>
      <psa10 value="0.0951009855" flag="0"/>
      <psa30 value="0.0087213826" flag="0"/>
    </comp>
  </station>
  <station code="KIAS" name="KIAS" netid="HA" insttype="DC" lat="37.9875" lon="22.7543">
    <comp name="--.HNE">
      <acc value="0.3657837543" flag="0"/>
      <vel value="0.2428860325" flag="0"/>
      <psa03 value="0.9964523529" flag="0"/>
      <psa10 value="0.3651569645" flag="0"/>
      <psa30 value="0.0235224336" flag="0"/>
    </comp>
    <comp name="--.HNN">
      <acc value="0.4444634774" flag="0"/>
      <vel value="0.2719009434" flag="0"/>
      <psa03 value="1.4009104205" flag="0"/>
      <psa10 value="0.2915906375" flag="0"/>
      <psa30 value="0.0325528695" flag="0"/>
    </comp>
  </station>
  <station code="LAKA" name="LAKA" netid="HA" insttype="120s," lat="38.2401" lon="21.9785">
    <comp name="--.HHZ">
      <acc value="0.0041295848" flag="0"/>
      <vel value="0.0049713380" flag="0"/>
      <psa03 value="0.0097893827" flag="0"/>
      <psa10 value="0.0091807652" flag="0"/>
      <psa30 value="0.0013364720" flag="0"/>
    </comp>
    <comp name="--.HHN">
      <acc value="0.0053403107" flag="0"/>
      <vel value="0.0061603706" flag="0"/>
      <psa03 value="0.0181452005" flag="0"/>
      <psa10 value="0.0085354177" flag="0"/>
      <psa30 value="0.0022076075" flag="0"/>
    </comp>
    <comp name="--.HHE">
      <acc value="0.0050699790" flag="0"/>
      <vel value="0.0050509519" flag="0"/>
      <psa03 value="0.0155813395" flag="0"/>
      <psa10 value="0.0088206849" flag="0"/>
      <psa30 value="0.0017603610" flag="0"/>
    </comp>
  </station>
  <station code="LOUT" name="LOUT" netid="HA" insttype="30" lat="37.9879" lon="22.9743">
    <comp name="--.HHE">
      <acc value="0.9534175454" flag="0"/>
      <vel value="0.4202416126" flag="0"/>
      <psa03 value="1.8034625662" flag="0"/>
      <psa10 value="0.3063740979" flag="0"/>
      <psa30 value="0.0179778046" flag="0"/>
    </comp>
    <comp name="--.HHZ">
      <acc value="0.3299387873" flag="0"/>
      <vel value="0.1291454740" flag="0"/>
      <psa03 value="0.7733335109" flag="0"/>
      <psa10 value="0.2165866629" flag="0"/>
      <psa30 value="0.0114380848" flag="0"/>
    </comp>
    <comp name="--.HHN">
      <acc value="0.7397891689" flag="0"/>
      <vel value="0.2354161390" flag="0"/>
      <psa03 value="1.0669936487" flag="0"/>
      <psa10 value="0.1820398677" flag="0"/>
      <psa30 value="0.0179142627" flag="0"/>
    </comp>
  </station>
  <station code="LTRS" name="LTRS" netid="HA" insttype="DC" lat="37.9753" lon="22.9765">
    <comp name="--.HNN">
      <acc value="0.6883040481" flag="0"/>
      <vel value="0.3468076949" flag="0"/>
      <psa03 value="2.3329113654" flag="0"/>
      <psa10 value="0.3491286947" flag="0"/>
      <psa30 value="0.0250880035" flag="0"/>
    </comp>
    <comp name="--.HNE">
      <acc value="0.4540833400" flag="0"/>
      <vel value="0.3876459209" flag="0"/>
      <psa03 value="1.4785064723" flag="0"/>
      <psa10 value="0.5223316630" flag="0"/>
      <psa30 value="0.0217993016" flag="0"/>
    </comp>
    <comp name="--.HNZ">
      <acc value="0.4043750067" flag="0"/>
      <vel value="0.2414914434" flag="0"/>
      <psa03 value="0.9794841168" flag="0"/>
      <psa10 value="0.3513389370" flag="0"/>
      <psa30 value="0.0207467798" flag="0"/>
    </comp>
  </station>
  <station code="MDRA" name="MDRA" netid="HA" insttype="60" lat="38.0606" lon="23.4662">
    <comp name="--.HHN">
      <acc value="0.3138036835" flag="0"/>
      <vel value="0.1655555779" flag="0"/>
      <psa03 value="0.7812002974" flag="0"/>
      <psa10 value="0.0689405435" flag="0"/>
      <psa30 value="0.0052218730" flag="0"/>
    </comp>
  </station>
  <station code="MRKA" name="MRKA" netid="HA" insttype="Horizon,120s,1200" lat="38.7047" lon="23.5863">
    <comp name="--.HHZ">
      <acc value="1.0482129123" flag="0"/>
      <vel value="0.3674090372" flag="0"/>
      <psa03 value="1.7481127939" flag="0"/>
      <psa10 value="0.2183207365" flag="0"/>
      <psa30 value="0.0493374373" flag="0"/>
    </comp>
    <comp name="--.HHE">
      <acc value="2.7817725395" flag="0"/>
      <vel value="0.8187892755" flag="0"/>
      <psa03 value="2.2164155326" flag="0"/>
      <psa10 value="0.5107249562" flag="0"/>
      <psa30 value="0.0434208109" flag="0"/>
    </comp>
  </station>
  <station code="MRTH" name="MRTH" netid="HA" insttype="S100," lat="38.1225" lon="23.9409">
    <comp name="--.HHE">
      <acc value="0.6576594691" flag="0"/>
      <vel value="0.3153621273" flag="0"/>
      <psa03 value="1.3580982699" flag="0"/>
      <psa10 value="0.2532414093" flag="0"/>
      <psa30 value="0.0116687867" flag="0"/>
    </comp>
    <comp name="--.HHZ">
      <acc value="0.4515142225" flag="0"/>
      <vel value="0.1934720076" flag="0"/>
      <psa03 value="0.8940120173" flag="0"/>
      <psa10 value="0.1359187765" flag="0"/>
      <psa30 value="0.0093844176" flag="0"/>
    </comp>
    <comp name="--.HHN">
      <acc value="0.7555878833" flag="0"/>
      <vel value="0.2920558683" flag="0"/>
      <psa03 value="0.9597492056" flag="0"/>
      <psa10 value="0.2853213045" flag="0"/>
      <psa30 value="0.0179514437" flag="0"/>
    </comp>
  </station>
  <station code="SERI" name="SERI" netid="HA" insttype="30" lat="37.1609" lon="24.4853">
    <comp name="--.HHE">
      <acc value="0.0597787612" flag="0"/>
      <vel value="0.0304750135" flag="0"/>
      <psa03 value="0.0959636666" flag="0"/>
      <psa10 value="0.0214507912" flag="0"/>
      <psa30 value="0.0054770360" flag="0"/>
    </comp>
    <comp name="--.HHN">
      <acc value="0.0581733222" flag="0"/>
      <vel value="0.0349060183" flag="0"/>
      <psa03 value="0.0922089615" flag="0"/>
      <psa10 value="0.0211153329" flag="0"/>
      <psa30 value="0.0022463662" flag="0"/>
    </comp>
    <comp name="--.HHZ">
      <acc value="0.0388053162" flag="0"/>
      <vel value="0.0240683325" flag="0"/>
      <psa03 value="0.0685726491" flag="0"/>
      <psa10 value="0.0186861258" flag="0"/>
      <psa30 value="0.0026702829" flag="0"/>
    </comp>
  </station>
  <station code="STFN" name="STFN" netid="HA" insttype="1s-100Hz," lat="38.1766" lon="23.544">
    <comp name="--.HHN">
      <acc value="0.5226586453" flag="0"/>
      <vel value="0.4276399862" flag="0"/>
      <psa03 value="1.3589202384" flag="0"/>
      <psa10 value="0.4421737852" flag="0"/>
      <psa30 value="0.0229466155" flag="0"/>
    </comp>
    <comp name="--.HHE">
      <acc value="0.8668536642" flag="0"/>
      <vel value="0.6088943847" flag="0"/>
      <psa03 value="2.9456936039" flag="0"/>
      <psa10 value="0.2594446042" flag="0"/>
      <psa30 value="0.0242555325" flag="0"/>
    </comp>
    <comp name="--.HHZ">
      <acc value="0.6340295031" flag="0"/>
      <vel value="0.3428180923" flag="0"/>
      <psa03 value="1.8145276358" flag="0"/>
      <psa10 value="0.1360034775" flag="0"/>
      <psa30 value="0.0222783114" flag="0"/>
    </comp>
  </station>
  <station code="THAL" name="THAL" netid="HA" insttype="30" lat="38.0357" lon="22.6634">
    <comp name="--.HHN">
      <acc value="0.2542466330" flag="0"/>
      <vel value="0.1531344685" flag="0"/>
      <psa03 value="0.9145584599" flag="0"/>
      <psa10 value="0.2227808939" flag="0"/>
      <psa30 value="0.0170624475" flag="0"/>
    </comp>
    <comp name="--.HHZ">
      <acc value="0.1738212510" flag="0"/>
      <vel value="0.0738563688" flag="0"/>
      <psa03 value="0.5343360761" flag="0"/>
      <psa10 value="0.0852464012" flag="0"/>
      <psa30 value="0.0078140088" flag="0"/>
    </comp>
    <comp name="--.HHE">
      <acc value="0.3457906242" flag="0"/>
      <vel value="0.1497701424" flag="0"/>
      <psa03 value="0.8606443687" flag="0"/>
      <psa10 value="0.2613442274" flag="0"/>
      <psa30 value="0.0127306393" flag="0"/>
    </comp>
  </station>
  <station code="THIV" name="THIV" netid="HA" insttype="25" lat="38.299" lon="23.332">
    <comp name="--.HHZ">
      <acc value="0.1468700963" flag="0"/>
      <vel value="0.0435039989" flag="0"/>
      <psa03 value="0.3497659290" flag="0"/>
      <psa10 value="0.0289834187" flag="0"/>
      <psa30 value="0.0074178277" flag="0"/>
    </comp>
    <comp name="--.HHN">
      <acc value="0.2170246897" flag="0"/>
      <vel value="0.0850532047" flag="0"/>
      <psa03 value="0.4833747496" flag="0"/>
      <psa10 value="0.1189044495" flag="0"/>
      <psa30 value="0.0067171445" flag="0"/>
    </comp>
    <comp name="--.HHE">
      <acc value="0.1487304740" flag="0"/>
      <vel value="0.0730132595" flag="0"/>
      <psa03 value="0.3188885766" flag="0"/>
      <psa10 value="0.0895912280" flag="0"/>
      <psa30 value="0.0084239498" flag="0"/>
    </comp>
  </station>
  <station code="VILL" name="VILL" netid="HA" insttype="Horizon,120s,1200" lat="38.1642" lon="23.3122">
    <comp name="--.HHN">
      <acc value="0.4297112786" flag="0"/>
      <vel value="0.2120709333" flag="0"/>
      <psa03 value="1.4187495365" flag="0"/>
      <psa10 value="0.1786813545" flag="0"/>
      <psa30 value="0.0105858294" flag="0"/>
    </comp>
    <comp name="--.HHE">
      <acc value="0.4911116335" flag="0"/>
      <vel value="0.2476277160" flag="0"/>
      <psa03 value="1.4128587490" flag="0"/>
      <psa10 value="0.1922228484" flag="0"/>
      <psa30 value="0.0196696096" flag="0"/>
    </comp>
    <comp name="--.HHZ">
      <acc value="0.2185607272" flag="0"/>
      <vel value="0.1210503361" flag="0"/>
      <psa03 value="0.9148377363" flag="0"/>
      <psa10 value="0.0863214401" flag="0"/>
      <psa30 value="0.0070145926" flag="0"/>
    </comp>
  </station>
  <station code="ATH5" name="ATH5" netid="HI" insttype="CMG-5TD,ACCELEROMETER,GURALP" lat="37.9754" lon="23.7371">
    <comp name="--.HNN">
      <acc value="0.5107193896" flag="0"/>
      <vel value="0.2692324197" flag="0"/>
      <psa03 value="2.1074452964" flag="0"/>
      <psa10 value="0.1486146535" flag="0"/>
      <psa30 value="0.0290294206" flag="0"/>
    </comp>
    <comp name="--.HNE">
      <acc value="0.4763528353" flag="0"/>
      <vel value="0.1805577288" flag="0"/>
      <psa03 value="1.0517798320" flag="0"/>
      <psa10 value="0.0812937485" flag="0"/>
      <psa30 value="0.0116530027" flag="0"/>
    </comp>
    <comp name="--.HNZ">
      <acc value="0.1782733441" flag="0"/>
      <vel value="0.0951593231" flag="0"/>
      <psa03 value="0.6302355225" flag="0"/>
      <psa10 value="0.0659559850" flag="0"/>
      <psa30 value="0.0193772846" flag="0"/>
    </comp>
  </station>
  <station code="KLV1" name="KLV1" netid="HI" insttype="CMG-5TD,ACCELEROMETER,GURALP" lat="38.0326" lon="22.108">
    <comp name="--.HNE">
      <acc value="0.0830327810" flag="0"/>
      <vel value="0.0461441990" flag="0"/>
      <psa03 value="0.2239832453" flag="0"/>
      <psa10 value="0.0597878495" flag="0"/>
      <psa30 value="0.0033051150" flag="0"/>
    </comp>
    <comp name="--.HNN">
      <acc value="0.0593646211" flag="0"/>
      <vel value="0.0380532933" flag="0"/>
      <psa03 value="0.1852469808" flag="0"/>
      <psa10 value="0.0453359078" flag="0"/>
      <psa30 value="0.0063007262" flag="0"/>
    </comp>
    <comp name="--.HNZ">
      <acc value="0.0296872206" flag="0"/>
      <vel value="0.0236003473" flag="0"/>
      <psa03 value="0.0653738171" flag="0"/>
      <psa10 value="0.0321450703" flag="0"/>
      <psa30 value="0.0047005642" flag="0"/>
    </comp>
  </station>
  <station code="PLN1" name="PLN1" netid="HI" insttype="CMG-5TD,ACCELEROMETER,GURALP" lat="39.998" lon="23.575">
    <comp name="--.HNN">
      <acc value="0.0156097013" flag="0"/>
      <vel value="0.0230544962" flag="0"/>
      <psa03 value="0.0411069493" flag="0"/>
      <psa10 value="0.0340412842" flag="0"/>
      <psa30 value="0.0094428160" flag="0"/>
    </comp>
    <comp name="--.HNE">
      <acc value="0.0165413513" flag="0"/>
