<?xml version="1.0" encoding="UTF-8" standalone="yes"?>
<!DOCTYPE earthquake SYSTEM "stationlist.dtd">
<stationlist created="" xmlns="ch.ethz.sed.shakemap.usgs.xml">
  <station code="AKS" name="AKS" netid="KO" insttype="CMG-5T" commtype="DIG" lat="38.8785" lon="27.8129">
    <comp name="--.HNE">
      <acc value="0.1112956114" flag="0"/>
      <vel value="0.0371905525" flag="0"/>
      <psa03 value="0.2620783640" flag="0"/>
      <psa10 value="0.0179852415" flag="0"/>
      <psa30 value="0.0020019190" flag="0"/>
    </comp>
    <comp name="--.HNZ">
      <acc value="0.1135376266" flag="0"/>
      <vel value="0.0306205080" flag="0"/>
      <psa03 value="0.2369352639" flag="0"/>
      <psa10 value="0.0116798418" flag="0"/>
      <psa30 value="0.0010695880" flag="0"/>
    </comp>
    <comp name="--.HNN">
      <acc value="0.1411938387" flag="0"/>
      <vel value="0.0517736320" flag="0"/>
      <psa03 value="0.2520720303" flag="0"/>
      <psa10 value="0.0221224022" flag="0"/>
      <psa30 value="0.0019846877" flag="0"/>
    </comp>
  </station>
  <station code="BALB" name="BALB" netid="KO" insttype="CMG-5T" commtype="DIG" lat="39.6507" lon="27.8642">
    <comp name="--.HNE">
      <acc value="0.1742602662" flag="0"/>
      <vel value="0.0491683699" flag="0"/>
      <psa03 value="0.1736026892" flag="0"/>
      <psa10 value="0.0213030044" flag="0"/>
      <psa30 value="0.0020417957" flag="0"/>
    </comp>
    <comp name="--.HNN">
      <acc value="0.1293175445" flag="0"/>
      <vel value="0.0652079854" flag="0"/>
      <psa03 value="0.2060287714" flag="0"/>
      <psa10 value="0.0346226958" flag="0"/>
      <psa30 value="0.0026943604" flag="0"/>
    </comp>
    <comp name="--.HNZ">
      <acc value="0.0918673720" flag="0"/>
      <vel value="0.0271714851" flag="0"/>
      <psa03 value="0.0807816713" flag="0"/>
      <psa10 value="0.0096998607" flag="0"/>
      <psa30 value="0.0013711475" flag="0"/>
    </comp>
  </station>
  <station code="GOMA" name="GOMA" netid="KO" insttype="CMG-5T" commtype="DIG" lat="38.7077" lon="27.9175">
    <comp name="--.HNE">
      <acc value="0.1293280692" flag="0"/>
      <vel value="0.0696567255" flag="0"/>
      <psa03 value="0.4565462232" flag="0"/>
      <psa10 value="0.0198439372" flag="0"/>
      <psa30 value="0.0017510898" flag="0"/>
    </comp>
  </station>
  <station code="GONE" name="GONE" netid="KO" insttype="CMG-5T" commtype="DIG" lat="40.0466" lon="27.686">
    <comp name="--.HNZ">
      <acc value="0.0705060614" flag="0"/>
      <vel value="0.0286886989" flag="0"/>
      <psa03 value="0.0662953390" flag="0"/>
      <psa10 value="0.0103194956" flag="0"/>
      <psa30 value="0.0008271468" flag="0"/>
    </comp>
    <comp name="--.HNN">
      <acc value="0.0845304062" flag="0"/>
      <vel value="0.0432632043" flag="0"/>
      <psa03 value="0.2421876941" flag="0"/>
      <psa10 value="0.0428608902" flag="0"/>
      <psa30 value="0.0015718832" flag="0"/>
    </comp>
    <comp name="--.HNE">
      <acc value="0.0758401761" flag="0"/>
      <vel value="0.0280046680" flag="0"/>
      <psa03 value="0.2175386779" flag="0"/>
      <psa10 value="0.0152122171" flag="0"/>
      <psa30 value="0.0011754668" flag="0"/>
    </comp>
  </station>
  <station code="GORD" name="GORD" netid="KO" insttype="CMG-5T" commtype="DIG" lat="38.9088" lon="28.1769">
    <comp name="--.HNE">
      <acc value="0.1084288708" flag="0"/>
      <vel value="0.0713246454" flag="0"/>
      <psa03 value="0.2675469266" flag="0"/>
      <psa10 value="0.0413951163" flag="0"/>
      <psa30 value="0.0033520084" flag="0"/>
    </comp>
    <comp name="--.HNZ">
      <acc value="0.1352582795" flag="0"/>
      <vel value="0.0548380833" flag="0"/>
      <psa03 value="0.2780376445" flag="0"/>
      <psa10 value="0.0479934705" flag="0"/>
      <psa30 value="0.0069235407" flag="0"/>
    </comp>
    <comp name="--.HNN">
      <acc value="0.1634346354" flag="0"/>
      <vel value="0.0778707868" flag="0"/>
      <psa03 value="0.3771611650" flag="0"/>
      <psa10 value="0.0819887683" flag="0"/>
      <psa30 value="0.0079926904" flag="0"/>
    </comp>
  </station>
  <station code="KCTX" name="KCTX" netid="KO" insttype="CMG-3ESP" commtype="DIG" lat="40.2626" lon="28.3353">
    <comp name="--.HHE">
      <acc value="0.0673247388" flag="0"/>
      <vel value="0.0142077395" flag="0"/>
      <psa03 value="0.0899497755" flag="0"/>
      <psa10 value="0.0105442305" flag="0"/>
      <psa30 value="0.0010643417" flag="0"/>
    </comp>
    <comp name="--.HHN">
      <acc value="0.0805438167" flag="0"/>
      <vel value="0.0259942261" flag="0"/>
      <psa03 value="0.1470840166" flag="0"/>
      <psa10 value="0.0123877573" flag="0"/>
      <psa30 value="0.0010729764" flag="0"/>
    </comp>
    <comp name="--.HHZ">
      <acc value="0.0580934789" flag="0"/>
      <vel value="0.0208743400" flag="0"/>
      <psa03 value="0.0746351484" flag="0"/>
      <psa10 value="0.0079386539" flag="0"/>
      <psa30 value="0.0008609741" flag="0"/>
    </comp>
  </station>
  <station code="ORLT" name="ORLT" netid="KO" insttype="CMG-5T" commtype="DIG" lat="40.0452" lon="28.8914">
    <comp name="--.HNE">
      <acc value="0.1180347068" flag="0"/>
      <vel value="0.0537798267" flag="0"/>
      <psa03 value="0.3744297651" flag="0"/>
      <psa10 value="0.0510975544" flag="0"/>
      <psa30 value="0.0020969503" flag="0"/>
    </comp>
    <comp name="--.HNN">
      <acc value="0.1837925672" flag="0"/>
      <vel value="0.0801561985" flag="0"/>
      <psa03 value="0.7580484715" flag="0"/>
      <psa10 value="0.0772097203" flag="0"/>
      <psa30 value="0.0030478322" flag="0"/>
    </comp>
    <comp name="--.HNZ">
      <acc value="0.0434985985" flag="0"/>
      <vel value="0.0323258302" flag="0"/>
      <psa03 value="0.1381959265" flag="0"/>
      <psa10 value="0.0437621843" flag="0"/>
      <psa30 value="0.0015985404" flag="0"/>
    </comp>
  </station>
  <station code="SIMA" name="SIMA" netid="KO" insttype="CMG-6T" commtype="DIG" lat="39.0833" lon="28.9825">
    <comp name="--.HHE">
      <acc value="0.2779368223" flag="0"/>
      <vel value="0.0449132104" flag="0"/>
      <psa03 value="0.2349047488" flag="0"/>
      <psa10 value="0.0151831350" flag="0"/>
      <psa30 value="0.0012254892" flag="0"/>
    </comp>
    <comp name="--.HHN">
      <acc value="0.1512665052" flag="0"/>
      <vel value="0.0367352074" flag="0"/>
      <psa03 value="0.2432877250" flag="0"/>
      <psa10 value="0.0166733596" flag="0"/>
      <psa30 value="0.0018546374" flag="0"/>
    </comp>
    <comp name="--.HHZ">
      <acc value="0.1072987325" flag="0"/>
      <vel value="0.0299112452" flag="0"/>
      <psa03 value="0.1514356664" flag="0"/>
      <psa10 value="0.0101921240" flag="0"/>
      <psa30 value="0.0012416128" flag="0"/>
    </comp>
  </station>
  <station code="SOMA" name="SOMA" netid="KO" insttype="CMG-5T" commtype="DIG" lat="39.1564" lon="27.5341">
    <comp name="--.HNZ">
      <acc value="0.0871747554" flag="0"/>
      <vel value="0.0294267862" flag="0"/>
      <psa03 value="0.1472371928" flag="0"/>
      <psa10 value="0.0214027616" flag="0"/>
      <psa30 value="0.0009141720" flag="0"/>
    </comp>
    <comp name="--.HNE">
      <acc value="0.1349210433" flag="0"/>
      <vel value="0.0484443940" flag="0"/>
      <psa03 value="0.4514567177" flag="0"/>
      <psa10 value="0.0190063946" flag="0"/>
      <psa30 value="0.0013202716" flag="0"/>
    </comp>
    <comp name="--.HNN">
      <acc value="0.1406586535" flag="0"/>
      <vel value="0.0673694672" flag="0"/>
      <psa03 value="0.3162427048" flag="0"/>
      <psa10 value="0.0369690141" flag="0"/>
      <psa30 value="0.0020526717" flag="0"/>
    </comp>
  </station>
  <station code="SUSR" name="SUSR" netid="KO" insttype="CMG-5T" commtype="DIG" lat="39.9627" lon="28.0835">
    <comp name="--.HNE">
      <acc value="0.1382148758" flag="0"/>
      <vel value="0.0454824995" flag="0"/>
      <psa03 value="0.2328860003" flag="0"/>
      <psa10 value="0.0180969109" flag="0"/>
      <psa30 value="0.0015586890" flag="0"/>
    </comp>
    <comp name="--.HNN">
      <acc value="0.1670269639" flag="0"/>
      <vel value="0.0495678023" flag="0"/>
      <psa03 value="0.3856757793" flag="0"/>
      <psa10 value="0.0126259800" flag="0"/>
      <psa30 value="0.0009822856" flag="0"/>
    </comp>
    <comp name="--.HNZ">
      <acc value="0.0880780446" flag="0"/>
      <vel value="0.0211847647" flag="0"/>
      <psa03 value="0.1654501737" flag="0"/>
      <psa10 value="0.0094427305" flag="0"/>
      <psa30 value="0.0008608345" flag="0"/>
    </comp>
  </station>
  <station code="YAYO" name="YAYO" netid="KO" insttype="CMG-6T" commtype="DIG" lat="39.6113" lon="27.0726">
    <comp name="--.HHE">
      <acc value="0.0343385923" flag="0"/>
      <vel value="0.0227600352" flag="0"/>
      <psa03 value="0.1143263357" flag="0"/>
      <psa10 value="0.0155865216" flag="0"/>
      <psa30 value="0.0009976051" flag="0"/>
    </comp>
    <comp name="--.HHZ">
      <acc value="0.0426954086" flag="0"/>
      <vel value="0.0184416668" flag="0"/>
      <psa03 value="0.1012935042" flag="0"/>
      <psa10 value="0.0075978554" flag="0"/>
      <psa30 value="0.0005770511" flag="0"/>
    </comp>
    <comp name="--.HHN">
      <acc value="0.0396381452" flag="0"/>
      <vel value="0.0201624716" flag="0"/>
      <psa03 value="0.0942307908" flag="0"/>
      <psa10 value="0.0235856705" flag="0"/>
      <psa30 value="0.0016581438" flag="0"/>
    </comp>
  </station>
  <station code="YENI" name="YENI" netid="KO" insttype="CMG-5T" commtype="DIG" lat="39.9364" lon="27.2422">
    <comp name="--.HNE">
      <acc value="0.0561989893" flag="0"/>
      <vel value="0.0211299695" flag="0"/>
      <psa03 value="0.1041849570" flag="0"/>
      <psa10 value="0.0172532202" flag="0"/>
      <psa30 value="0.0014190772" flag="0"/>
    </comp>
    <comp name="--.HNN">
      <acc value="0.0657543152" flag="0"/>
      <vel value="0.0261628676" flag="0"/>
      <psa03 value="0.1122707653" flag="0"/>
      <psa10 value="0.0122296721" flag="0"/>
      <psa30 value="0.0008816276" flag="0"/>
    </comp>
    <comp name="--.HNZ">
      <acc value="0.0383882255" flag="0"/>
      <vel value="0.0115681927" flag="0"/>
      <psa03 value="0.0738799544" flag="0"/>
      <psa10 value="0.0046812596" flag="0"/>
      <psa30 value="0.0007270175" flag="0"/>
    </comp>
  </station>
</stationlist>
