<stationlist created="1778136394">
	<station code="S2114" name="S2114" netid="S2" source="IceSMN Icelandic Strong Motion Network (IceSMN)" insttype="" lat="63.7515" lon="-20.2168">
		<comp name="00.HN1" depth="0.0">
			<acc value="0.266907541208233" flag="0"/>
			<vel value="0.340016222463591" flag="0"/>
			<psa03 value="0.575341905244923" flag="0"/>
			<psa10 value="0.364975917863539" flag="0"/>
			<psa30 value="0.0475156376779531" flag="0"/>
		</comp>
		<comp name="00.HN2" depth="0.0">
			<acc value="0.220377078876755" flag="0"/>
			<vel value="0.116071724742763" flag="0"/>
			<psa03 value="0.365012555290253" flag="0"/>
			<psa10 value="0.18491838993579" flag="0"/>
			<psa30 value="0.0180493573479899" flag="0"/>
		</comp>
		<comp name="00.HNZ" depth="0.0">
			<acc value="0.115395660830924" flag="0"/>
			<vel value="0.0732256927910933" flag="0"/>
			<psa03 value="0.155116744473121" flag="0"/>
			<psa10 value="0.110435470808073" flag="0"/>
			<psa30 value="0.0246263363739286" flag="0"/>
		</comp>
	</station>
	<station code="S2119" name="S2119" netid="S2" source="IceSMN Icelandic Strong Motion Network (IceSMN)" insttype="" lat="64.1301" lon="-20.32">
		<comp name="00.HN1" depth="0.0">
			<acc value="0.144361384525" flag="0"/>
			<vel value="0.0899433141143368" flag="0"/>
			<psa03 value="0.566948849245217" flag="0"/>
			<psa10 value="0.100935896507796" flag="0"/>
			<psa30 value="0.0192132194481433" flag="0"/>
		</comp>
		<comp name="00.HN2" depth="0.0">
			<acc value="0.0978487876886669" flag="0"/>
			<vel value="0.148803910760495" flag="0"/>
			<psa03 value="0.230989760271313" flag="0"/>
			<psa10 value="0.159612028513579" flag="0"/>
			<psa30 value="0.0339251107054085" flag="0"/>
		</comp>
		<comp name="00.HNZ" depth="0.0">
			<acc value="0.0556431302575346" flag="0"/>
			<vel value="0.0492598539537589" flag="0"/>
			<psa03 value="0.149955600489326" flag="0"/>
			<psa10 value="0.0521316522160649" flag="0"/>
			<psa30 value="0.0105314268220134" flag="0"/>
		</comp>
	</station>
	<station code="S2405" name="S2405" netid="S2" source="IceSMN Icelandic Strong Motion Network (IceSMN)" insttype="" lat="64.0447" lon="-21.9848">
		<comp name="00.HN1" depth="0.0">
			<acc value="0.875706411172381" flag="0"/>
			<vel value="0.592106018847205" flag="0"/>
			<psa03 value="2.16995608227428" flag="0"/>
			<psa10 value="0.852029982806625" flag="0"/>
			<psa30 value="0.058411549478573" flag="0"/>
		</comp>
		<comp name="00.HN2" depth="0.0">
			<acc value="1.43093470835193" flag="0"/>
			<vel value="0.897949486976627" flag="0"/>
			<psa03 value="2.9203387914463" flag="0"/>
			<psa10 value="0.468078047871902" flag="0"/>
			<psa30 value="0.0789081739457348" flag="0"/>
		</comp>
		<comp name="00.HNZ" depth="0.0">
			<acc value="0.536022166372663" flag="0"/>
			<vel value="0.236298538011648" flag="0"/>
			<psa03 value="0.790324855140817" flag="0"/>
			<psa10 value="0.25307267482257" flag="0"/>
			<psa30 value="0.0766536512616366" flag="0"/>
		</comp>
	</station>
	<station code="S2602" name="S2602" netid="S2" source="IceSMN Icelandic Strong Motion Network (IceSMN)" insttype="" lat="63.8464" lon="-22.4268">
		<comp name="00.HN1" depth="0.0">
			<acc value="1.97155936568047" flag="0"/>
			<vel value="2.4257248948879" flag="0"/>
			<psa03 value="5.00096928966659" flag="0"/>
			<psa10 value="3.03617233151492" flag="0"/>
			<psa30 value="0.66364268306958" flag="0"/>
		</comp>
		<comp name="00.HN2" depth="0.0">
			<acc value="3.7927763172943" flag="0"/>
			<vel value="3.67818289198424" flag="0"/>
			<psa03 value="7.50985815790828" flag="0"/>
			<psa10 value="2.82043187976945" flag="0"/>
			<psa30 value="0.383986290540532" flag="0"/>
		</comp>
		<comp name="00.HNZ" depth="0.0">
			<acc value="5.26005323220585" flag="0"/>
			<vel value="1.41635665532799" flag="0"/>
			<psa03 value="2.74616608669331" flag="0"/>
			<psa10 value="1.46000651826529" flag="0"/>
			<psa30 value="0.255256829512346" flag="0"/>
		</comp>
	</station>
	<station code="S2604" name="S2604" netid="S2" source="IceSMN Icelandic Strong Motion Network (IceSMN)" insttype="" lat="63.9843" lon="-21.6486">
		<comp name="00.HN1" depth="0.0">
			<acc value="0.332720129262805" flag="0"/>
			<vel value="0.358782209214706" flag="0"/>
			<psa03 value="0.833409042591517" flag="0"/>
			<psa10 value="0.515318757337913" flag="0"/>
			<psa30 value="0.135770634138109" flag="0"/>
		</comp>
		<comp name="00.HN2" depth="0.0">
			<acc value="0.349658305776374" flag="0"/>
			<vel value="0.297490005592793" flag="0"/>
			<psa03 value="1.04375856054906" flag="0"/>
			<psa10 value="0.484796775405719" flag="0"/>
			<psa30 value="0.0735053493687502" flag="0"/>
		</comp>
		<comp name="00.HNZ" depth="0.0">
			<acc value="0.261433443171799" flag="0"/>
			<vel value="0.187541696855245" flag="0"/>
			<psa03 value="0.66245400932729" flag="0"/>
			<psa10 value="0.246922312391237" flag="0"/>
			<psa30 value="0.0630196347416654" flag="0"/>
		</comp>
	</station>
</stationlist>
