<?xml version="1.0" encoding="UTF-8" standalone="yes"?>
<!DOCTYPE earthquake SYSTEM "stationlist.dtd">
<stationlist created="" xmlns="ch.ethz.sed.shakemap.usgs.xml">
  <station code="ASB" name="ASB" netid="VI" source="ODC" insttype="STS-2.5" lat="64.7482" lon="-21.3254">
    <comp name="--.HHZ">
      <acc value="0.0847757656" flag="0"/>
      <vel value="0.0461836763" flag="0"/>
      <psa03 value="0.1832588673" flag="0"/>
      <psa10 value="0.0918155872" flag="0"/>
      <psa30 value="0.0141510249" flag="0"/>
    </comp>
    <comp name="--.HHN">
      <acc value="0.1543380721" flag="0"/>
      <vel value="0.0754216555" flag="0"/>
      <psa03 value="0.5217812623" flag="0"/>
      <psa10 value="0.1285247106" flag="0"/>
      <psa30 value="0.0140737998" flag="0"/>
    </comp>
    <comp name="--.HHE">
      <acc value="0.1849015362" flag="0"/>
      <vel value="0.1393256128" flag="0"/>
      <psa03 value="0.3444305597" flag="0"/>
      <psa10 value="0.1042783264" flag="0"/>
      <psa30 value="0.0282331338" flag="0"/>
    </comp>
  </station>
</stationlist>
