<?xml version="1.0" encoding="UTF-8" standalone="yes"?>
<!DOCTYPE earthquake SYSTEM "stationlist.dtd">
<stationlist created="" xmlns="ch.ethz.sed.shakemap.usgs.xml">
  <station code="TAHT" name="TAHT" netid="KO" insttype="CMG-3ESPC" lat="36.3755" lon="36.1855">
    <comp name="--.HHE">
      <acc value="0.3400449228" flag="0"/>
      <vel value="0.0752240574" flag="0"/>
      <psa03 value="0.5633925506" flag="0"/>
      <psa10 value="0.0424973831" flag="0"/>
      <psa30 value="0.0025907142" flag="0"/>
    </comp>
    <comp name="--.HHZ">
      <acc value="0.3129147499" flag="0"/>
      <vel value="0.0431626537" flag="0"/>
      <psa03 value="0.2014341525" flag="0"/>
      <psa10 value="0.0374567163" flag="0"/>
      <psa30 value="0.0034007801" flag="0"/>
    </comp>
    <comp name="--.HHN">
      <acc value="0.2964379478" flag="0"/>
      <vel value="0.1090610799" flag="0"/>
      <psa03 value="0.4628635982" flag="0"/>
      <psa10 value="0.0792864741" flag="0"/>
      <psa30 value="0.0040134698" flag="0"/>
    </comp>
  </station>
</stationlist>
