<?xml version="1.0" encoding="UTF-8" standalone="yes"?>
<!DOCTYPE earthquake SYSTEM "stationlist.dtd">
<stationlist created="" xmlns="ch.ethz.sed.shakemap.usgs.xml">
  <station code="CEYT" name="CEYT" netid="KO" insttype="CMG-3ESP" lat="37.0105" lon="35.7478">
    <comp name="--.HHE">
      <acc value="0.0207686644" flag="0"/>
      <vel value="0.0078565958" flag="0"/>
      <psa03 value="0.0472418766" flag="0"/>
      <psa10 value="0.0036837021" flag="0"/>
      <psa30 value="0.0004596716" flag="0"/>
    </comp>
    <comp name="--.HHZ">
      <acc value="0.0117378599" flag="0"/>
      <vel value="0.0035206779" flag="0"/>
      <psa03 value="0.0191068611" flag="0"/>
      <psa10 value="0.0036288395" flag="0"/>
      <psa30 value="0.0004187566" flag="0"/>
    </comp>
    <comp name="--.HHN">
      <acc value="0.0162310939" flag="0"/>
      <vel value="0.0063779010" flag="0"/>
      <psa03 value="0.0345980697" flag="0"/>
      <psa10 value="0.0051816678" flag="0"/>
      <psa30 value="0.0005352400" flag="0"/>
    </comp>
  </station>
  <station code="TAHT" name="TAHT" netid="KO" insttype="CMG-3ESPC" lat="36.3755" lon="36.1855">
    <comp name="--.HHE">
      <acc value="0.3400449228" flag="0"/>
      <vel value="0.0752240460" flag="0"/>
      <psa03 value="0.5633925506" flag="0"/>
      <psa10 value="0.0424973803" flag="0"/>
      <psa30 value="0.0025908646" flag="0"/>
    </comp>
    <comp name="--.HHN">
      <acc value="0.2964379477" flag="0"/>
      <vel value="0.1090610889" flag="0"/>
      <psa03 value="0.4628635982" flag="0"/>
      <psa10 value="0.0792864746" flag="0"/>
      <psa30 value="0.0040134641" flag="0"/>
    </comp>
    <comp name="--.HHZ">
      <acc value="0.3129147499" flag="0"/>
      <vel value="0.0431626441" flag="0"/>
      <psa03 value="0.2014341525" flag="0"/>
      <psa10 value="0.0374567118" flag="0"/>
      <psa30 value="0.0034016439" flag="0"/>
    </comp>
  </station>
</stationlist>
