<?xml version="1.0" encoding="UTF-8" standalone="yes"?>
<!DOCTYPE earthquake SYSTEM "stationlist.dtd">
<stationlist created="" xmlns="ch.ethz.sed.shakemap.usgs.xml">
  <station code="DARE" name="DARE" netid="KO" insttype="CMG-3ESP" lat="38.5712" lon="37.4832">
    <comp name="--.HHE">
      <acc value="0.0020896972" flag="0"/>
      <vel value="0.0013877379" flag="0"/>
      <psa03 value="0.0051195056" flag="0"/>
      <psa10 value="0.0022925530" flag="0"/>
      <psa30 value="0.0005429758" flag="0"/>
    </comp>
    <comp name="--.HHN">
      <acc value="0.0022349554" flag="0"/>
      <vel value="0.0017119273" flag="0"/>
      <psa03 value="0.0066525475" flag="0"/>
      <psa10 value="0.0024586463" flag="0"/>
      <psa30 value="0.0007001634" flag="0"/>
    </comp>
    <comp name="--.HHZ">
      <acc value="0.0015777386" flag="0"/>
      <vel value="0.0017311262" flag="0"/>
      <psa03 value="0.0045254533" flag="0"/>
      <psa10 value="0.0022469543" flag="0"/>
      <psa30 value="0.0008888547" flag="0"/>
    </comp>
  </station>
  <station code="GAZ" name="GAZ" netid="KO" insttype="CMG-3T" lat="37.1721" lon="37.2096">
    <comp name="--.HHE">
      <acc value="0.0103620987" flag="0"/>
      <vel value="0.0045855938" flag="0"/>
      <psa03 value="0.0153805313" flag="0"/>
      <psa10 value="0.0044576398" flag="0"/>
      <psa30 value="0.0005711984" flag="0"/>
    </comp>
    <comp name="--.HHZ">
      <acc value="0.0047300007" flag="0"/>
      <vel value="0.0022499548" flag="0"/>
      <psa03 value="0.0131096144" flag="0"/>
      <psa10 value="0.0024420838" flag="0"/>
      <psa30 value="0.0010927244" flag="0"/>
    </comp>
    <comp name="--.HHN">
      <acc value="0.0068926198" flag="0"/>
      <vel value="0.0036051064" flag="0"/>
      <psa03 value="0.0176104874" flag="0"/>
      <psa10 value="0.0061979829" flag="0"/>
      <psa30 value="0.0007452114" flag="0"/>
    </comp>
  </station>
  <station code="KMRS" name="KMRS" netid="KO" insttype="CMG-3T" lat="37.5053" lon="36.9">
    <comp name="--.HHN">
      <acc value="0.0145617292" flag="0"/>
      <vel value="0.0063683217" flag="0"/>
      <psa03 value="0.0248434356" flag="0"/>
      <psa10 value="0.0065708410" flag="0"/>
      <psa30 value="0.0036502729" flag="0"/>
    </comp>
    <comp name="--.HHZ">
      <acc value="0.0060540013" flag="0"/>
      <vel value="0.0037428875" flag="0"/>
      <psa03 value="0.0144457901" flag="0"/>
      <psa10 value="0.0059702547" flag="0"/>
      <psa30 value="0.0018267162" flag="0"/>
    </comp>
  </station>
  <station code="SARI" name="SARI" netid="KO" insttype="CMG-3T" lat="38.4072" lon="36.4181">
    <comp name="--.HHE">
      <acc value="0.0366385810" flag="0"/>
      <vel value="0.0154479134" flag="0"/>
      <psa03 value="0.0508200742" flag="0"/>
      <psa10 value="0.0262927812" flag="0"/>
      <psa30 value="0.0028478446" flag="0"/>
    </comp>
    <comp name="--.HHN">
      <acc value="0.0275590266" flag="0"/>
      <vel value="0.0115661080" flag="0"/>
      <psa03 value="0.0380903096" flag="0"/>
      <psa10 value="0.0184124254" flag="0"/>
      <psa30 value="0.0017618799" flag="0"/>
    </comp>
    <comp name="--.HHZ">
      <acc value="0.0231848137" flag="0"/>
      <vel value="0.0127173338" flag="0"/>
      <psa03 value="0.0417130898" flag="0"/>
      <psa10 value="0.0162797639" flag="0"/>
      <psa30 value="0.0032044546" flag="0"/>
    </comp>
  </station>
  <station code="ANDN" name="ANDN" netid="TU" insttype="T" lat="37.58" lon="36.3452">
    <comp name="--.HHZ">
      <acc value="0.0295523759" flag="0"/>
      <vel value="0.0172073325" flag="0"/>
      <psa03 value="0.0876751514" flag="0"/>
      <psa10 value="0.0462243652" flag="0"/>
      <psa30 value="0.0030071934" flag="0"/>
    </comp>
    <comp name="--.HHE">
      <acc value="0.0433049387" flag="0"/>
      <vel value="0.0206256959" flag="0"/>
      <psa03 value="0.0706841348" flag="0"/>
      <psa10 value="0.0254387121" flag="0"/>
      <psa30 value="0.0058017247" flag="0"/>
    </comp>
    <comp name="--.HHN">
      <acc value="0.0716570027" flag="0"/>
      <vel value="0.0272641396" flag="0"/>
      <psa03 value="0.1326708135" flag="0"/>
      <psa10 value="0.0500670814" flag="0"/>
      <psa30 value="0.0049157003" flag="0"/>
    </comp>
  </station>
</stationlist>
