<?xml version="1.0" encoding="UTF-8" standalone="yes"?>
<!DOCTYPE earthquake SYSTEM "stationlist.dtd">
<stationlist created="" xmlns="ch.ethz.sed.shakemap.usgs.xml">
  <station code="GAZ" name="GAZ" netid="KO" insttype="CMG-3T" lat="37.1721" lon="37.2096">
    <comp name="--.HHN">
      <acc value="0.1531170954" flag="0"/>
      <vel value="0.0414293353" flag="0"/>
      <psa03 value="0.0819238611" flag="0"/>
      <psa10 value="0.0661026852" flag="0"/>
      <psa30 value="0.0020591295" flag="0"/>
    </comp>
    <comp name="--.HHZ">
      <acc value="0.0608102069" flag="0"/>
      <vel value="0.0249853683" flag="0"/>
      <psa03 value="0.0756175806" flag="0"/>
      <psa10 value="0.0367317021" flag="0"/>
      <psa30 value="0.0024283931" flag="0"/>
    </comp>
    <comp name="--.HHE">
      <acc value="0.1341169303" flag="0"/>
      <vel value="0.0288118821" flag="0"/>
      <psa03 value="0.1225543205" flag="0"/>
      <psa10 value="0.0339494762" flag="0"/>
      <psa30 value="0.0022264192" flag="0"/>
    </comp>
  </station>
  <station code="SARI" name="SARI" netid="KO" insttype="CMG-3T" lat="38.4072" lon="36.4181">
    <comp name="--.HHE">
      <acc value="0.0652438639" flag="0"/>
      <vel value="0.0208127825" flag="0"/>
      <psa03 value="0.1493728367" flag="0"/>
      <psa10 value="0.0194470940" flag="0"/>
      <psa30 value="0.0009871851" flag="0"/>
    </comp>
    <comp name="--.HHN">
      <acc value="0.0518936296" flag="0"/>
      <vel value="0.0243457204" flag="0"/>
      <psa03 value="0.1653940143" flag="0"/>
      <psa10 value="0.0218106484" flag="0"/>
      <psa30 value="0.0009909565" flag="0"/>
    </comp>
    <comp name="--.HHZ">
      <acc value="0.0354568745" flag="0"/>
      <vel value="0.0177862785" flag="0"/>
      <psa03 value="0.0938757522" flag="0"/>
      <psa10 value="0.0135890303" flag="0"/>
      <psa30 value="0.0009495795" flag="0"/>
    </comp>
  </station>
</stationlist>
