<?xml version="1.0" encoding="UTF-8" standalone="yes"?>
<!DOCTYPE earthquake SYSTEM "stationlist.dtd">
<stationlist created="" xmlns="ch.ethz.sed.shakemap.usgs.xml">
  <station code="GAZ" name="GAZ" netid="KO" insttype="CMG-3T" lat="37.1721" lon="37.2096">
    <comp name="--.HHN">
      <acc value="0.1531170938" flag="0"/>
      <vel value="0.0414293304" flag="0"/>
      <psa03 value="0.0819238611" flag="0"/>
      <psa10 value="0.0661025994" flag="0"/>
      <psa30 value="0.0020585690" flag="0"/>
    </comp>
    <comp name="--.HHE">
      <acc value="0.1341169296" flag="0"/>
      <vel value="0.0288118929" flag="0"/>
      <psa03 value="0.1225543205" flag="0"/>
      <psa10 value="0.0339494915" flag="0"/>
      <psa30 value="0.0022265328" flag="0"/>
    </comp>
    <comp name="--.HHZ">
      <acc value="0.0608102062" flag="0"/>
      <vel value="0.0249853701" flag="0"/>
      <psa03 value="0.0756175806" flag="0"/>
      <psa10 value="0.0367316518" flag="0"/>
      <psa30 value="0.0024280419" flag="0"/>
    </comp>
  </station>
</stationlist>
