<?xml version="1.0" encoding="UTF-8" standalone="yes"?>
<!DOCTYPE earthquake SYSTEM "stationlist.dtd">
<stationlist created="" xmlns="ch.ethz.sed.shakemap.usgs.xml">
  <station code="URFA" name="URFA" netid="KO" insttype="CMG-3ESP" lat="37.4409" lon="38.8213">
    <comp name="--.HHE">
      <acc value="0.0374620663" flag="0"/>
      <vel value="0.0094479875" flag="0"/>
      <psa03 value="0.0477894004" flag="0"/>
      <psa10 value="0.0032343723" flag="0"/>
      <psa30 value="0.0006566782" flag="0"/>
    </comp>
    <comp name="--.HHN">
      <acc value="0.0443010550" flag="0"/>
      <vel value="0.0117094701" flag="0"/>
      <psa03 value="0.0459840759" flag="0"/>
      <psa10 value="0.0039250327" flag="0"/>
      <psa30 value="0.0005434847" flag="0"/>
    </comp>
    <comp name="--.HHZ">
      <acc value="0.0503205595" flag="0"/>
      <vel value="0.0086043016" flag="0"/>
      <psa03 value="0.0220405229" flag="0"/>
      <psa10 value="0.0038979364" flag="0"/>
      <psa30 value="0.0003971579" flag="0"/>
    </comp>
  </station>
</stationlist>
