<stationlist created="1675762328">
	<station code="ARPRA" name="ARPRA" netid="KO" source="Bogazici University Kandilli Observatory And Earthquake Research Institute (KOERI)" insttype="" lat="39.0929" lon="38.3356">
		<comp name=".HNE" depth="0.0">
			<acc value="0.031600514732" flag="0"/>
			<vel value="0.0150574097143" flag="0"/>
			<psa03 value="0.0697904357739" flag="0"/>
			<psa10 value="0.0161176789671" flag="0"/>
			<psa30 value="0.00127228449094" flag="0"/>
		</comp>
		<comp name=".HNN" depth="0.0">
			<acc value="0.0337798577599" flag="0"/>
			<vel value="0.0159300179472" flag="0"/>
			<psa03 value="0.114543223343" flag="0"/>
			<psa10 value="0.016682865783" flag="0"/>
			<psa30 value="0.000867383553654" flag="0"/>
		</comp>
		<comp name=".HNZ" depth="0.0">
			<acc value="0.0123064944449" flag="0"/>
			<vel value="0.00547113294696" flag="0"/>
			<psa03 value="0.0342957745309" flag="0"/>
			<psa10 value="0.0085869860332" flag="0"/>
			<psa30 value="0.000422113145216" flag="0"/>
		</comp>
	</station>
	<station code="RFHY" name="RFHY" netid="KO" source="Bogazici University Kandilli Observatory And Earthquake Research Institute (KOERI)" insttype="" lat="39.927" lon="38.833">
		<comp name=".HNE" depth="0.0">
			<acc value="0.00105342761692" flag="0"/>
			<vel value="0.00197629890909" flag="0"/>
			<psa03 value="0.00133376755478" flag="0"/>
			<psa10 value="0.000644350224104" flag="0"/>
			<psa30 value="0.000808996560804" flag="0"/>
		</comp>
		<comp name=".HNN" depth="0.0">
			<acc value="0.00269731878163" flag="0"/>
			<vel value="0.00206279575305" flag="0"/>
			<psa03 value="0.00653389572916" flag="0"/>
			<psa10 value="0.00289312399902" flag="0"/>
			<psa30 value="0.000407851940064" flag="0"/>
		</comp>
		<comp name=".HNZ" depth="0.0">
			<acc value="0.00171777721859" flag="0"/>
			<vel value="0.00170989440682" flag="0"/>
			<psa03 value="0.00496868494525" flag="0"/>
			<psa10 value="0.00243740763817" flag="0"/>
			<psa30 value="0.000315120979385" flag="0"/>
		</comp>
	</station>
	<station code="TUNC" name="TUNC" netid="KO" source="Bogazici University Kandilli Observatory And Earthquake Research Institute (KOERI)" insttype="" lat="39.6942" lon="37.5388">
		<comp name=".HNE" depth="0.0">
			<acc value="0.0104670257151" flag="0"/>
			<vel value="0.00749045423298" flag="0"/>
			<psa03 value="0.0474484661445" flag="0"/>
			<psa10 value="0.00955904386474" flag="0"/>
			<psa30 value="0.00087585312514" flag="0"/>
		</comp>
		<comp name=".HNN" depth="0.0">
			<acc value="0.0149843184792" flag="0"/>
			<vel value="0.00978696816213" flag="0"/>
			<psa03 value="0.0543876081202" flag="0"/>
			<psa10 value="0.0077896752465" flag="0"/>
			<psa30 value="0.00089651241038" flag="0"/>
		</comp>
		<comp name=".HNZ" depth="0.0">
			<acc value="0.00707265503647" flag="0"/>
			<vel value="0.00515374978015" flag="0"/>
			<psa03 value="0.0158534772984" flag="0"/>
			<psa10 value="0.00485283882051" flag="0"/>
			<psa30 value="0.000376543511868" flag="0"/>
		</comp>
	</station>
</stationlist>
