<stationlist created="1675764115">
	<station code="ARPRA" name="ARPRA" netid="KO" source="Bogazici University Kandilli Observatory And Earthquake Research Institute (KOERI)" insttype="" lat="39.0929" lon="38.3356">
		<comp name=".HNE" depth="0.0">
			<acc value="0.031600514732" flag="0"/>
			<vel value="0.0150574097143" flag="0"/>
			<psa03 value="0.0697904357739" flag="0"/>
			<psa10 value="0.0161176789671" flag="0"/>
			<psa30 value="0.00127228449094" flag="0"/>
		</comp>
		<comp name=".HNN" depth="0.0">
			<acc value="0.0337798577599" flag="0"/>
			<vel value="0.0159300179472" flag="0"/>
			<psa03 value="0.114543223343" flag="0"/>
			<psa10 value="0.016682865783" flag="0"/>
			<psa30 value="0.000867383553654" flag="0"/>
		</comp>
		<comp name=".HNZ" depth="0.0">
			<acc value="0.0123064944449" flag="0"/>
			<vel value="0.00547113294696" flag="0"/>
			<psa03 value="0.0342957745309" flag="0"/>
			<psa10 value="0.0085869860332" flag="0"/>
			<psa30 value="0.000422113145216" flag="0"/>
		</comp>
	</station>
</stationlist>
