<?xml version="1.0" encoding="UTF-8" standalone="yes"?>
<!DOCTYPE earthquake SYSTEM "stationlist.dtd">
<stationlist created="" xmlns="ch.ethz.sed.shakemap.usgs.xml">
  <station code="GAZ" name="GAZ" netid="KO" insttype="CMG-3T" lat="37.1721" lon="37.2096">
    <comp name="--.HHE">
      <acc value="0.0885419879" flag="0"/>
      <vel value="0.0290667506" flag="0"/>
      <psa03 value="0.1987990589" flag="0"/>
      <psa10 value="0.0255687886" flag="0"/>
      <psa30 value="0.0020162792" flag="0"/>
    </comp>
    <comp name="--.HHZ">
      <acc value="0.0439595250" flag="0"/>
      <vel value="0.0204002397" flag="0"/>
      <psa03 value="0.1102153675" flag="0"/>
      <psa10 value="0.0133243614" flag="0"/>
      <psa30 value="0.0009047249" flag="0"/>
    </comp>
    <comp name="--.HHN">
      <acc value="0.0633125775" flag="0"/>
      <vel value="0.0259842550" flag="0"/>
      <psa03 value="0.1690903257" flag="0"/>
      <psa10 value="0.0171440896" flag="0"/>
      <psa30 value="0.0013010665" flag="0"/>
    </comp>
  </station>
</stationlist>
