<?xml version="1.0" encoding="UTF-8" standalone="yes"?>
<!DOCTYPE earthquake SYSTEM "stationlist.dtd">
<stationlist created="" xmlns="ch.ethz.sed.shakemap.usgs.xml">
  <station code="GAZ" name="GAZ" netid="KO" insttype="CMG-3T" lat="37.1721" lon="37.2096">
    <comp name="--.HHN">
      <acc value="0.0633125804" flag="0"/>
      <vel value="0.0259842524" flag="0"/>
      <psa03 value="0.1690903257" flag="0"/>
      <psa10 value="0.0171441781" flag="0"/>
      <psa30 value="0.0012998771" flag="0"/>
    </comp>
    <comp name="--.HHE">
      <acc value="0.0885419888" flag="0"/>
      <vel value="0.0290667647" flag="0"/>
      <psa03 value="0.1987990589" flag="0"/>
      <psa10 value="0.0255687660" flag="0"/>
      <psa30 value="0.0020225263" flag="0"/>
    </comp>
    <comp name="--.HHZ">
      <acc value="0.0439595246" flag="0"/>
      <vel value="0.0204002392" flag="0"/>
      <psa03 value="0.1102153675" flag="0"/>
      <psa10 value="0.0133243307" flag="0"/>
      <psa30 value="0.0009037309" flag="0"/>
    </comp>
  </station>
  <station code="ANDN" name="ANDN" netid="TU" insttype="T" lat="37.58" lon="36.3452">
    <comp name="--.HHZ">
      <acc value="0.1323170886" flag="0"/>
      <vel value="0.0926273981" flag="0"/>
      <psa03 value="0.4014107878" flag="0"/>
      <psa10 value="0.1492063114" flag="0"/>
      <psa30 value="0.0047705923" flag="0"/>
    </comp>
    <comp name="--.HHN">
      <acc value="0.4896426051" flag="0"/>
      <vel value="0.1954638922" flag="0"/>
      <psa03 value="1.2215480269" flag="0"/>
      <psa10 value="0.1926697748" flag="0"/>
      <psa30 value="0.0078656622" flag="0"/>
    </comp>
    <comp name="--.HHE">
      <acc value="0.2995428992" flag="0"/>
      <vel value="0.1534053378" flag="0"/>
      <psa03 value="0.9282436403" flag="0"/>
      <psa10 value="0.2319842154" flag="0"/>
      <psa30 value="0.0102651710" flag="0"/>
    </comp>
  </station>
</stationlist>
