<?xml version="1.0" encoding="UTF-8" standalone="yes"?>
<!DOCTYPE earthquake SYSTEM "stationlist.dtd">
<stationlist created="" xmlns="ch.ethz.sed.shakemap.usgs.xml">
  <station code="CHBY" name="CHBY" netid="KO" insttype="CMG-6T" lat="38.5823" lon="32.8902">
    <comp name="--.HHN">
      <acc value="0.0116620600" flag="0"/>
      <vel value="0.0146297491" flag="0"/>
      <psa03 value="0.0259731941" flag="0"/>
      <psa10 value="0.0245949024" flag="0"/>
      <psa30 value="0.0019591413" flag="0"/>
    </comp>
    <comp name="--.HHE">
      <acc value="0.0151773329" flag="0"/>
      <vel value="0.0155370850" flag="0"/>
      <psa03 value="0.0390584782" flag="0"/>
      <psa10 value="0.0266902969" flag="0"/>
      <psa30 value="0.0010611780" flag="0"/>
    </comp>
    <comp name="--.HHZ">
      <acc value="0.0114515439" flag="0"/>
      <vel value="0.0120737560" flag="0"/>
      <psa03 value="0.0175535236" flag="0"/>
      <psa10 value="0.0218323451" flag="0"/>
      <psa30 value="0.0013464333" flag="0"/>
    </comp>
  </station>
  <station code="CMRD" name="CMRD" netid="KO" insttype="CMG-5T" lat="37.6623" lon="34.9902">
    <comp name="--.HNZ">
      <acc value="0.0118040437" flag="0"/>
      <vel value="0.0072518507" flag="0"/>
      <psa03 value="0.0297138143" flag="0"/>
      <psa10 value="0.0103139828" flag="0"/>
      <psa30 value="0.0015495081" flag="0"/>
    </comp>
    <comp name="--.HNE">
      <acc value="0.0132126630" flag="0"/>
      <vel value="0.0059177813" flag="0"/>
      <psa03 value="0.0457913375" flag="0"/>
      <psa10 value="0.0115739121" flag="0"/>
      <psa30 value="0.0019736671" flag="0"/>
    </comp>
    <comp name="--.HNN">
      <acc value="0.0134274913" flag="0"/>
      <vel value="0.0079705273" flag="0"/>
      <psa03 value="0.0375220138" flag="0"/>
      <psa10 value="0.0106922670" flag="0"/>
      <psa30 value="0.0013071749" flag="0"/>
    </comp>
  </station>
  <station code="GULA" name="GULA" netid="KO" insttype="CMG-6T" lat="38.3444" lon="34.236">
    <comp name="--.HHE">
      <acc value="0.0566560381" flag="0"/>
      <vel value="0.0175446406" flag="0"/>
      <psa03 value="0.1077236938" flag="0"/>
      <psa10 value="0.0147189543" flag="0"/>
      <psa30 value="0.0026660586" flag="0"/>
    </comp>
    <comp name="--.HHN">
      <acc value="0.0850385369" flag="0"/>
      <vel value="0.0247063152" flag="0"/>
      <psa03 value="0.1229848076" flag="0"/>
      <psa10 value="0.0143395132" flag="0"/>
      <psa30 value="0.0016430077" flag="0"/>
    </comp>
    <comp name="--.HHZ">
      <acc value="0.0437455579" flag="0"/>
      <vel value="0.0137210927" flag="0"/>
      <psa03 value="0.1044473520" flag="0"/>
      <psa10 value="0.0090546223" flag="0"/>
      <psa30 value="0.0016377587" flag="0"/>
    </comp>
  </station>
  <station code="KONT" name="KONT" netid="KO" insttype="CMG-3T" lat="37.957" lon="32.3563">
    <comp name="--.HHE">
      <acc value="0.0056401241" flag="0"/>
      <vel value="0.0056394087" flag="0"/>
      <psa03 value="0.0125946859" flag="0"/>
      <psa10 value="0.0095064178" flag="0"/>
      <psa30 value="0.0007259343" flag="0"/>
    </comp>
    <comp name="--.HHZ">
      <acc value="0.0030171811" flag="0"/>
      <vel value="0.0039075009" flag="0"/>
      <psa03 value="0.0100238703" flag="0"/>
      <psa10 value="0.0092238060" flag="0"/>
      <psa30 value="0.0005369736" flag="0"/>
    </comp>
    <comp name="--.HHN">
      <acc value="0.0030796301" flag="0"/>
      <vel value="0.0033618355" flag="0"/>
      <psa03 value="0.0073901339" flag="0"/>
      <psa10 value="0.0048921804" flag="0"/>
      <psa30 value="0.0009260728" flag="0"/>
    </comp>
  </station>
  <station code="KRMN" name="KRMN" netid="KO" insttype="CMG-5T" lat="37.174" lon="33.2636">
    <comp name="--.HNN">
      <acc value="0.0242270187" flag="0"/>
      <vel value="0.0124865956" flag="0"/>
      <psa03 value="0.0452402769" flag="0"/>
      <psa10 value="0.0118364024" flag="0"/>
      <psa30 value="0.0011903540" flag="0"/>
    </comp>
    <comp name="--.HNE">
      <acc value="0.0260394779" flag="0"/>
      <vel value="0.0187062841" flag="0"/>
      <psa03 value="0.0701744463" flag="0"/>
      <psa10 value="0.0202865401" flag="0"/>
      <psa30 value="0.0016168870" flag="0"/>
    </comp>
    <comp name="--.HNZ">
      <acc value="0.0205764709" flag="0"/>
      <vel value="0.0115462983" flag="0"/>
      <psa03 value="0.0333562430" flag="0"/>
      <psa10 value="0.0081669843" flag="0"/>
      <psa30 value="0.0007345580" flag="0"/>
    </comp>
  </station>
  <station code="KULU" name="KULU" netid="KO" insttype="CMG-6T" lat="39.0343" lon="33.0023">
    <comp name="--.HHE">
      <acc value="0.0019907405" flag="0"/>
      <vel value="0.0023076727" flag="0"/>
      <psa03 value="0.0045333057" flag="0"/>
      <psa10 value="0.0036715934" flag="0"/>
      <psa30 value="0.0004242431" flag="0"/>
    </comp>
    <comp name="--.HHN">
      <acc value="0.0031388712" flag="0"/>
      <vel value="0.0027910112" flag="0"/>
      <psa03 value="0.0088031340" flag="0"/>
      <psa10 value="0.0049936332" flag="0"/>
      <psa30 value="0.0007143482" flag="0"/>
    </comp>
    <comp name="--.HHZ">
      <acc value="0.0013900682" flag="0"/>
      <vel value="0.0011521373" flag="0"/>
      <psa03 value="0.0025100835" flag="0"/>
      <psa10 value="0.0019106428" flag="0"/>
      <psa30 value="0.0001771699" flag="0"/>
    </comp>
  </station>
  <station code="MERS" name="MERS" netid="KO" insttype="CMG-3T" lat="36.8678" lon="34.522">
    <comp name="--.HHZ">
      <acc value="0.0084532387" flag="0"/>
      <vel value="0.0072052167" flag="0"/>
      <psa03 value="0.0217984965" flag="0"/>
      <psa10 value="0.0072894120" flag="0"/>
      <psa30 value="0.0011845116" flag="0"/>
    </comp>
    <comp name="--.HHE">
      <acc value="0.0160861266" flag="0"/>
      <vel value="0.0140692977" flag="0"/>
      <psa03 value="0.0296822336" flag="0"/>
      <psa10 value="0.0161452076" flag="0"/>
      <psa30 value="0.0026875139" flag="0"/>
    </comp>
    <comp name="--.HHN">
      <acc value="0.0123654213" flag="0"/>
      <vel value="0.0104351555" flag="0"/>
      <psa03 value="0.0338646871" flag="0"/>
      <psa10 value="0.0154190681" flag="0"/>
      <psa30 value="0.0029530499" flag="0"/>
    </comp>
  </station>
  <station code="SULT" name="SULT" netid="KO" insttype="CMG-3T" lat="38.1988" lon="33.5157">
    <comp name="--.HHE">
      <acc value="0.0990491898" flag="0"/>
      <vel value="0.0580342372" flag="0"/>
      <psa03 value="0.2344900516" flag="0"/>
      <psa10 value="0.0963075177" flag="0"/>
      <psa30 value="0.0109844632" flag="0"/>
    </comp>
    <comp name="--.HHZ">
      <acc value="0.0600225698" flag="0"/>
      <vel value="0.0447552576" flag="0"/>
      <psa03 value="0.1434044658" flag="0"/>
      <psa10 value="0.0796901652" flag="0"/>
      <psa30 value="0.0069923953" flag="0"/>
    </comp>
    <comp name="--.HHN">
      <acc value="0.0915922732" flag="0"/>
      <vel value="0.0645387932" flag="0"/>
      <psa03 value="0.2031199883" flag="0"/>
      <psa10 value="0.1397124924" flag="0"/>
      <psa30 value="0.0162369400" flag="0"/>
    </comp>
  </station>
  <station code="YESY" name="YESY" netid="KO" insttype="CMG-6T" lat="37.7825" lon="33.7431">
    <comp name="--.HHE">
      <acc value="0.1305640967" flag="0"/>
      <vel value="0.1278339445" flag="0"/>
      <psa03 value="0.4890879329" flag="0"/>
      <psa10 value="0.1566906758" flag="0"/>
      <psa30 value="0.0107751996" flag="0"/>
    </comp>
    <comp name="--.HHZ">
      <acc value="0.0982276027" flag="0"/>
      <vel value="0.0548287836" flag="0"/>
      <psa03 value="0.2437821904" flag="0"/>
      <psa10 value="0.0839863318" flag="0"/>
      <psa30 value="0.0079482439" flag="0"/>
    </comp>
    <comp name="--.HHN">
      <acc value="0.1392962929" flag="0"/>
      <vel value="0.1293149334" flag="0"/>
      <psa03 value="0.3490194405" flag="0"/>
      <psa10 value="0.2381664558" flag="0"/>
      <psa30 value="0.0109305222" flag="0"/>
    </comp>
  </station>
</stationlist>
