<?xml version="1.0" encoding="UTF-8" standalone="yes"?>
<!DOCTYPE earthquake SYSTEM "stationlist.dtd">
<stationlist created="" xmlns="ch.ethz.sed.shakemap.usgs.xml">
  <station code="CHBY" name="CHBY" netid="KO" insttype="CMG-6T" lat="38.5823" lon="32.8902">
    <comp name="--.HHZ">
      <acc value="0.0114515406" flag="0"/>
      <vel value="0.0120737554" flag="0"/>
      <psa03 value="0.0175535236" flag="0"/>
      <psa10 value="0.0218323451" flag="0"/>
      <psa30 value="0.0013464688" flag="0"/>
    </comp>
    <comp name="--.HHN">
      <acc value="0.0116620257" flag="0"/>
      <vel value="0.0146297465" flag="0"/>
      <psa03 value="0.0259731941" flag="0"/>
      <psa10 value="0.0245949024" flag="0"/>
      <psa30 value="0.0019591266" flag="0"/>
    </comp>
    <comp name="--.HHE">
      <acc value="0.0151773636" flag="0"/>
      <vel value="0.0155370842" flag="0"/>
      <psa03 value="0.0390584782" flag="0"/>
      <psa10 value="0.0266902969" flag="0"/>
      <psa30 value="0.0010611673" flag="0"/>
    </comp>
  </station>
  <station code="CMRD" name="CMRD" netid="KO" insttype="CMG-5T" lat="37.6623" lon="34.9902">
    <comp name="--.HNE">
      <acc value="0.0132126656" flag="0"/>
      <vel value="0.0059177824" flag="0"/>
      <psa03 value="0.0457913375" flag="0"/>
      <psa10 value="0.0115739121" flag="0"/>
      <psa30 value="0.0019736612" flag="0"/>
    </comp>
    <comp name="--.HNN">
      <acc value="0.0134274714" flag="0"/>
      <vel value="0.0079705276" flag="0"/>
      <psa03 value="0.0375220138" flag="0"/>
      <psa10 value="0.0106922670" flag="0"/>
      <psa30 value="0.0013071751" flag="0"/>
    </comp>
    <comp name="--.HNZ">
      <acc value="0.0118040474" flag="0"/>
      <vel value="0.0072518500" flag="0"/>
      <psa03 value="0.0297138143" flag="0"/>
      <psa10 value="0.0103139827" flag="0"/>
      <psa30 value="0.0015494991" flag="0"/>
    </comp>
  </station>
  <station code="GULA" name="GULA" netid="KO" insttype="CMG-6T" lat="38.3444" lon="34.236">
    <comp name="--.HHN">
      <acc value="0.0850385429" flag="0"/>
      <vel value="0.0247063149" flag="0"/>
      <psa03 value="0.1229848076" flag="0"/>
      <psa10 value="0.0143395131" flag="0"/>
      <psa30 value="0.0016429774" flag="0"/>
    </comp>
    <comp name="--.HHZ">
      <acc value="0.0437455472" flag="0"/>
      <vel value="0.0137210913" flag="0"/>
      <psa03 value="0.1044473520" flag="0"/>
      <psa10 value="0.0090546213" flag="0"/>
      <psa30 value="0.0016378022" flag="0"/>
    </comp>
    <comp name="--.HHE">
      <acc value="0.0566560352" flag="0"/>
      <vel value="0.0175446401" flag="0"/>
      <psa03 value="0.1077236938" flag="0"/>
      <psa10 value="0.0147189539" flag="0"/>
      <psa30 value="0.0026660535" flag="0"/>
    </comp>
  </station>
  <station code="KRMN" name="KRMN" netid="KO" insttype="CMG-5T" lat="37.174" lon="33.2636">
    <comp name="--.HNE">
      <acc value="0.0260394919" flag="0"/>
      <vel value="0.0187062763" flag="0"/>
      <psa03 value="0.0701744463" flag="0"/>
      <psa10 value="0.0202865402" flag="0"/>
      <psa30 value="0.0016171296" flag="0"/>
    </comp>
    <comp name="--.HNN">
      <acc value="0.0242270127" flag="0"/>
      <vel value="0.0124865961" flag="0"/>
      <psa03 value="0.0452402769" flag="0"/>
      <psa10 value="0.0118364025" flag="0"/>
      <psa30 value="0.0011902864" flag="0"/>
    </comp>
    <comp name="--.HNZ">
      <acc value="0.0205764740" flag="0"/>
      <vel value="0.0115463023" flag="0"/>
      <psa03 value="0.0333562430" flag="0"/>
      <psa10 value="0.0081669838" flag="0"/>
      <psa30 value="0.0007345133" flag="0"/>
    </comp>
  </station>
  <station code="SULT" name="SULT" netid="KO" insttype="CMG-3T" lat="38.1988" lon="33.5157">
    <comp name="--.HHZ">
      <acc value="0.0600225702" flag="0"/>
      <vel value="0.0447552584" flag="0"/>
      <psa03 value="0.1434044658" flag="0"/>
      <psa10 value="0.0796901652" flag="0"/>
      <psa30 value="0.0069923788" flag="0"/>
    </comp>
    <comp name="--.HHE">
      <acc value="0.0990491900" flag="0"/>
      <vel value="0.0580342368" flag="0"/>
      <psa03 value="0.2344900516" flag="0"/>
      <psa10 value="0.0963075177" flag="0"/>
      <psa30 value="0.0101178786" flag="0"/>
    </comp>
    <comp name="--.HHN">
      <acc value="0.0915922727" flag="0"/>
      <vel value="0.0645387942" flag="0"/>
      <psa03 value="0.2031199883" flag="0"/>
      <psa10 value="0.1397124924" flag="0"/>
      <psa30 value="0.0162371422" flag="0"/>
    </comp>
  </station>
  <station code="YESY" name="YESY" netid="KO" insttype="CMG-6T" lat="37.7825" lon="33.7431">
    <comp name="--.HHN">
      <acc value="0.1392962960" flag="0"/>
      <vel value="0.1293149340" flag="0"/>
      <psa03 value="0.3490194405" flag="0"/>
      <psa10 value="0.2381664554" flag="0"/>
      <psa30 value="0.0109304268" flag="0"/>
    </comp>
    <comp name="--.HHE">
      <acc value="0.1305640948" flag="0"/>
      <vel value="0.1278339462" flag="0"/>
      <psa03 value="0.4890879330" flag="0"/>
      <psa10 value="0.1566906761" flag="0"/>
      <psa30 value="0.0107751962" flag="0"/>
    </comp>
    <comp name="--.HHZ">
      <acc value="0.0982276029" flag="0"/>
      <vel value="0.0548287837" flag="0"/>
      <psa03 value="0.2437821904" flag="0"/>
      <psa10 value="0.0839863314" flag="0"/>
      <psa30 value="0.0079481783" flag="0"/>
    </comp>
  </station>
</stationlist>
