<stationlist created="1775820655">
	<station code="ABEA" name="ABEA" netid="HC" source="Seismological Network of Crete (HC)" insttype="" lat="35.5163" lon="24.0113">
		<comp name="--.HNE" depth="0.0">
			<acc value="0.00750996129714257" flag="0"/>
			<vel value="0.0095258368934622" flag="0"/>
			<psa03 value="0.00996305779014659" flag="0"/>
			<psa10 value="0.0165361616895432" flag="0"/>
			<psa30 value="0.00268559040718383" flag="0"/>
		</comp>
		<comp name="--.HNN" depth="0.0">
			<acc value="0.00584019194131813" flag="0"/>
			<vel value="0.00916175193382309" flag="0"/>
			<psa03 value="0.0124220807144007" flag="0"/>
			<psa10 value="0.0142278115851993" flag="0"/>
			<psa30 value="0.00212977692060008" flag="0"/>
		</comp>
		<comp name="--.HNZ" depth="0.0">
			<acc value="0.00325856795957696" flag="0"/>
			<vel value="0.00411725097127935" flag="0"/>
			<psa03 value="0.00775122897565615" flag="0"/>
			<psa10 value="0.00845597016651899" flag="0"/>
			<psa30 value="0.00142967908422187" flag="0"/>
		</comp>
	</station>
	<station code="ATEI" name="ATEI" netid="HC" source="Seismological Network of Crete (HC)" insttype="" lat="35.5193" lon="24.0432">
		<comp name="--.HNE" depth="0.0">
			<acc value="0.00563387618068981" flag="0"/>
			<vel value="0.00750013508742054" flag="0"/>
			<psa03 value="0.00839217247669447" flag="0"/>
			<psa10 value="0.0153152851874848" flag="0"/>
			<psa30 value="0.00196536915439288" flag="0"/>
		</comp>
		<comp name="--.HNN" depth="0.0">
			<acc value="0.00650167344225031" flag="0"/>
			<vel value="0.0100322823078902" flag="0"/>
			<psa03 value="0.00929698762461212" flag="0"/>
			<psa10 value="0.020196492293501" flag="0"/>
			<psa30 value="0.00150399817416665" flag="0"/>
		</comp>
		<comp name="--.HNZ" depth="0.0">
			<acc value="0.00302566384199584" flag="0"/>
			<vel value="0.00284362012293463" flag="0"/>
			<psa03 value="0.00919063682939667" flag="0"/>
			<psa10 value="0.00740129154922274" flag="0"/>
			<psa30 value="0.00113148433028572" flag="0"/>
		</comp>
	</station>
	<station code="DEYA" name="DEYA" netid="HC" source="Seismological Network of Crete (HC)" insttype="" lat="35.4825" lon="24.014">
		<comp name="--.HNE" depth="0.0">
			<acc value="0.0144085018538499" flag="0"/>
			<vel value="0.0172652546547121" flag="0"/>
			<psa03 value="0.025797724597659" flag="0"/>
			<psa10 value="0.0372597082727939" flag="0"/>
			<psa30 value="0.00258616486239495" flag="0"/>
		</comp>
		<comp name="--.HNN" depth="0.0">
			<acc value="0.00952858537906151" flag="0"/>
			<vel value="0.0121897751920165" flag="0"/>
			<psa03 value="0.0233828927518755" flag="0"/>
			<psa10 value="0.033495801432447" flag="0"/>
			<psa30 value="0.0020791679430064" flag="0"/>
		</comp>
		<comp name="--.HNZ" depth="0.0">
			<acc value="0.00936727865644818" flag="0"/>
			<vel value="0.0088281271796179" flag="0"/>
			<psa03 value="0.0119737163770334" flag="0"/>
			<psa10 value="0.0200854718139296" flag="0"/>
			<psa30 value="0.00184180242704043" flag="0"/>
		</comp>
	</station>
	<station code="G0LD" name="G0LD" netid="HC" source="Seismological Network of Crete (HC)" insttype="" lat="35.4955" lon="24.0306">
		<comp name="--.HNE" depth="0.0">
			<acc value="0.0163789453014304" flag="0"/>
			<vel value="0.0220359286040612" flag="0"/>
			<psa03 value="0.0314630426054984" flag="0"/>
			<psa10 value="0.0457189449056097" flag="0"/>
			<psa30 value="0.00409632636151779" flag="0"/>
		</comp>
		<comp name="--.HNN" depth="0.0">
			<acc value="0.0187433754025396" flag="0"/>
			<vel value="0.0285024596025131" flag="0"/>
			<psa03 value="0.0351999880764425" flag="0"/>
			<psa10 value="0.0589061159911405" flag="0"/>
			<psa30 value="0.00358064970047195" flag="0"/>
		</comp>
		<comp name="--.HNZ" depth="0.0">
			<acc value="0.0141392591128934" flag="0"/>
			<vel value="0.0162266590898275" flag="0"/>
			<psa03 value="0.0243036099948715" flag="0"/>
			<psa10 value="0.0315098086201743" flag="0"/>
			<psa30 value="0.00204185130429427" flag="0"/>
		</comp>
	</station>
	<station code="LENT" name="LENT" netid="HC" source="Seismological Network of Crete (HC)" insttype="" lat="35.5074" lon="24.0402">
		<comp name="--.HNE" depth="0.0">
			<acc value="0.0265771050749539" flag="0"/>
			<vel value="0.0113605382544662" flag="0"/>
			<psa03 value="0.0132867056998823" flag="0"/>
			<psa10 value="0.0249049367048158" flag="0"/>
			<psa30 value="0.00285599398725267" flag="0"/>
		</comp>
		<comp name="--.HNN" depth="0.0">
			<acc value="0.00965167396939965" flag="0"/>
			<vel value="0.00824984757548746" flag="0"/>
			<psa03 value="0.0139218519418445" flag="0"/>
			<psa10 value="0.0214412935054752" flag="0"/>
			<psa30 value="0.00168454190513174" flag="0"/>
		</comp>
		<comp name="--.HNZ" depth="0.0">
			<acc value="0.0431615281507732" flag="0"/>
			<vel value="0.00605547696077139" flag="0"/>
			<psa03 value="0.0161291192562453" flag="0"/>
			<psa10 value="0.00785249565805055" flag="0"/>
			<psa30 value="0.00160885522459522" flag="0"/>
		</comp>
	</station>
	<station code="MULT" name="MULT" netid="HC" source="Seismological Network of Crete (HC)" insttype="" lat="35.5091" lon="24.0118">
		<comp name="--.HNE" depth="0.0">
			<acc value="0.009020583738284" flag="0"/>
			<vel value="0.00935250602301487" flag="0"/>
			<psa03 value="0.0146037096115813" flag="0"/>
			<psa10 value="0.0140124901337187" flag="0"/>
			<psa30 value="0.00276337764353914" flag="0"/>
		</comp>
		<comp name="--.HNN" depth="0.0">
			<acc value="0.0133970694070932" flag="0"/>
			<vel value="0.00845781662704741" flag="0"/>
			<psa03 value="0.0156682488821128" flag="0"/>
			<psa10 value="0.0197445911072596" flag="0"/>
			<psa30 value="0.00291927276249496" flag="0"/>
		</comp>
		<comp name="--.HNZ" depth="0.0">
			<acc value="0.0160793457938243" flag="0"/>
			<vel value="0.00763151343380101" flag="0"/>
			<psa03 value="0.0135821588659626" flag="0"/>
			<psa10 value="0.0118708666991542" flag="0"/>
			<psa30 value="0.00348248653097599" flag="0"/>
		</comp>
	</station>
	<station code="NERO" name="NERO" netid="HC" source="Seismological Network of Crete (HC)" insttype="" lat="35.474" lon="24.0423">
		<comp name="--.HNE" depth="0.0">
			<acc value="0.00559727726849901" flag="0"/>
			<vel value="0.00791767844226932" flag="0"/>
			<psa03 value="0.00936325568638259" flag="0"/>
			<psa10 value="0.0210703508073383" flag="0"/>
			<psa30 value="0.00192871214271309" flag="0"/>
		</comp>
		<comp name="--.HNN" depth="0.0">
			<acc value="0.00562854153362559" flag="0"/>
			<vel value="0.00738176194523807" flag="0"/>
			<psa03 value="0.0102060569605495" flag="0"/>
			<psa10 value="0.0160107931364763" flag="0"/>
			<psa30 value="0.00164268996598363" flag="0"/>
		</comp>
		<comp name="--.HNZ" depth="0.0">
			<acc value="0.00533814215160345" flag="0"/>
			<vel value="0.00670882455845654" flag="0"/>
			<psa03 value="0.00812099175189042" flag="0"/>
			<psa10 value="0.0102563856852159" flag="0"/>
			<psa30 value="0.00182026412523275" flag="0"/>
		</comp>
	</station>
	<station code="PASK" name="PASK" netid="HC" source="Seismological Network of Crete (HC)" insttype="" lat="35.4996" lon="24.0121">
		<comp name="--.HNE" depth="0.0">
			<acc value="0.0134612679957779" flag="0"/>
			<vel value="0.0153663285875896" flag="0"/>
			<psa03 value="0.0210241219115778" flag="0"/>
			<psa10 value="0.0298667572761081" flag="0"/>
			<psa30 value="0.00321208924348051" flag="0"/>
		</comp>
		<comp name="--.HNN" depth="0.0">
			<acc value="0.0100694156941561" flag="0"/>
			<vel value="0.0104178281974663" flag="0"/>
			<psa03 value="0.0212124586066894" flag="0"/>
			<psa10 value="0.016188215514823" flag="0"/>
			<psa30 value="0.00312948585474424" flag="0"/>
		</comp>
		<comp name="--.HNZ" depth="0.0">
			<acc value="0.00651850059729851" flag="0"/>
			<vel value="0.00559269197000923" flag="0"/>
			<psa03 value="0.0162310452791698" flag="0"/>
			<psa10 value="0.0121839608776272" flag="0"/>
			<psa30 value="0.00139495782577607" flag="0"/>
		</comp>
	</station>
	<station code="POLY" name="POLY" netid="HC" source="Seismological Network of Crete (HC)" insttype="" lat="35.5226" lon="24.0602">
		<comp name="--.HNE" depth="0.0">
			<acc value="0.00595936904897013" flag="0"/>
			<vel value="0.00777695725572352" flag="0"/>
			<psa03 value="0.00944833358800971" flag="0"/>
			<psa10 value="0.0159464294976884" flag="0"/>
			<psa30 value="0.00141613652042905" flag="0"/>
		</comp>
		<comp name="--.HNN" depth="0.0">
			<acc value="0.00587725930033727" flag="0"/>
			<vel value="0.00810858170536976" flag="0"/>
			<psa03 value="0.0130588846182506" flag="0"/>
			<psa10 value="0.0123192735914114" flag="0"/>
			<psa30 value="0.00199880532770814" flag="0"/>
		</comp>
		<comp name="--.HNZ" depth="0.0">
			<acc value="0.00419305714710737" flag="0"/>
			<vel value="0.00357596921160267" flag="0"/>
			<psa03 value="0.00690284009177605" flag="0"/>
			<psa10 value="0.00619858125058032" flag="0"/>
			<psa30 value="0.00129745907529675" flag="0"/>
		</comp>
	</station>
	<station code="SOUD" name="SOUD" netid="HC" source="Seismological Network of Crete (HC)" insttype="" lat="35.4878" lon="24.0678">
		<comp name="--.HNE" depth="0.0">
			<acc value="0.0134305000047593" flag="0"/>
			<vel value="0.0126392562390255" flag="0"/>
			<psa03 value="0.0217834065854307" flag="0"/>
			<psa10 value="0.02079952286631" flag="0"/>
			<psa30 value="0.00266988103318291" flag="0"/>
		</comp>
		<comp name="--.HNN" depth="0.0">
			<acc value="0.0136664920467266" flag="0"/>
			<vel value="0.0132069917538013" flag="0"/>
			<psa03 value="0.020883074807464" flag="0"/>
			<psa10 value="0.0285854830229717" flag="0"/>
			<psa30 value="0.00182721729417881" flag="0"/>
		</comp>
		<comp name="--.HNZ" depth="0.0">
			<acc value="0.00663558871528461" flag="0"/>
			<vel value="0.00460376997960981" flag="0"/>
			<psa03 value="0.00716248359395553" flag="0"/>
			<psa10 value="0.0053558816758651" flag="0"/>
			<psa30 value="0.002129397312122" flag="0"/>
		</comp>
	</station>
	<station code="ANKY" name="ANKY" netid="HL" source="National Observatory of Athens Seismic Network" insttype="" lat="35.86704" lon="23.30117">
		<comp name="00.HNE" depth="0.0">
			<acc value="0.00142738246230767" flag="0"/>
			<vel value="0.00223978826984046" flag="0"/>
			<psa03 value="0.00263820536711757" flag="0"/>
			<psa10 value="0.00363288183246868" flag="0"/>
			<psa30 value="0.000739301787615052" flag="0"/>
		</comp>
		<comp name="00.HNN" depth="0.0">
			<acc value="0.00122377073089318" flag="0"/>
			<vel value="0.00217818030319833" flag="0"/>
			<psa03 value="0.00206046331849777" flag="0"/>
			<psa10 value="0.00430137650760299" flag="0"/>
			<psa30 value="0.000746379756494672" flag="0"/>
		</comp>
		<comp name="00.HNZ" depth="0.0">
			<acc value="0.00118029001008478" flag="0"/>
			<vel value="0.00141833260265592" flag="0"/>
			<psa03 value="0.00235142969645681" flag="0"/>
			<psa10 value="0.00191559607852573" flag="0"/>
			<psa30 value="0.000486261118662252" flag="0"/>
		</comp>
	</station>
	<station code="IACM" name="IACM" netid="HL" source="National Observatory of Athens Seismic Network" insttype="" lat="35.3058" lon="25.0709">
		<comp name="--.HNE" depth="0.0">
			<acc value="0.0122753095331885" flag="0"/>
			<vel value="0.0170708868813343" flag="0"/>
			<psa03 value="0.0202260065403468" flag="0"/>
			<psa10 value="0.0386126103959499" flag="0"/>
			<psa30 value="0.0020252989577832" flag="0"/>
		</comp>
		<comp name="--.HNN" depth="0.0">
			<acc value="0.0110736389013963" flag="0"/>
			<vel value="0.0115347778898877" flag="0"/>
			<psa03 value="0.0207394168533138" flag="0"/>
			<psa10 value="0.0286496966517939" flag="0"/>
			<psa30 value="0.00208528084795653" flag="0"/>
		</comp>
		<comp name="--.HNZ" depth="0.0">
			<acc value="0.00829609979265629" flag="0"/>
			<vel value="0.00638910671157105" flag="0"/>
			<psa03 value="0.0158647866413283" flag="0"/>
			<psa10 value="0.0134754601830842" flag="0"/>
			<psa30 value="0.000750915369459435" flag="0"/>
		</comp>
	</station>
	<station code="IMMV" name="IMMV" netid="HL" source="National Observatory of Athens Seismic Network" insttype="" lat="35.4606" lon="23.9811">
		<comp name="--.HNE" depth="0.0">
			<acc value="0.00884631410496108" flag="0"/>
			<vel value="0.00761297510611126" flag="0"/>
			<psa03 value="0.0252925947811118" flag="0"/>
			<psa10 value="0.0148156058361768" flag="0"/>
			<psa30 value="0.00155517260588388" flag="0"/>
		</comp>
		<comp name="--.HNN" depth="0.0">
			<acc value="0.00829104442790937" flag="0"/>
			<vel value="0.00704959609934013" flag="0"/>
			<psa03 value="0.0322387346162679" flag="0"/>
			<psa10 value="0.0102818508096462" flag="0"/>
			<psa30 value="0.00095170179557358" flag="0"/>
		</comp>
		<comp name="--.HNZ" depth="0.0">
			<acc value="0.00566372310293791" flag="0"/>
			<vel value="0.00521523955610317" flag="0"/>
			<psa03 value="0.0225401858850173" flag="0"/>
			<psa10 value="0.0078158561996109" flag="0"/>
			<psa30 value="0.00105262921068753" flag="0"/>
		</comp>
	</station>
	<station code="KSTE" name="KSTE" netid="HL" source="National Observatory of Athens Seismic Network" insttype="" lat="35.1801" lon="25.3372">
		<comp name="--.HNE" depth="0.0">
			<acc value="0.00123790910042107" flag="0"/>
			<vel value="0.0020284598882941" flag="0"/>
			<psa03 value="0.00280930882427651" flag="0"/>
			<psa10 value="0.0032045420508073" flag="0"/>
			<psa30 value="0.000588623941365396" flag="0"/>
		</comp>
		<comp name="--.HNN" depth="0.0">
			<acc value="0.00112557792920668" flag="0"/>
			<vel value="0.00150852066503785" flag="0"/>
			<psa03 value="0.0023708336511447" flag="0"/>
			<psa10 value="0.00252999752179434" flag="0"/>
			<psa30 value="0.000683432305287819" flag="0"/>
		</comp>
		<comp name="--.HNZ" depth="0.0">
			<acc value="0.000876389566939685" flag="0"/>
			<vel value="0.00116705086563909" flag="0"/>
			<psa03 value="0.00282798812158214" flag="0"/>
			<psa10 value="0.00212663369154637" flag="0"/>
			<psa30 value="0.000491792214239181" flag="0"/>
		</comp>
	</station>
	<station code="SIVA" name="SIVA" netid="HL" source="National Observatory of Athens Seismic Network" insttype="" lat="35.01777" lon="24.81204">
		<comp name="00.HNE" depth="0.0">
			<acc value="0.0163066806370138" flag="0"/>
			<vel value="0.0180512777782704" flag="0"/>
			<psa03 value="0.0531979355605394" flag="0"/>
			<psa10 value="0.0247733986160765" flag="0"/>
			<psa30 value="0.00220284176079012" flag="0"/>
		</comp>
		<comp name="00.HNN" depth="0.0">
			<acc value="0.0108124688505093" flag="0"/>
			<vel value="0.0115802186050579" flag="0"/>
			<psa03 value="0.026947477846483" flag="0"/>
			<psa10 value="0.0158185010230761" flag="0"/>
			<psa30 value="0.00271173068051439" flag="0"/>
		</comp>
		<comp name="00.HNZ" depth="0.0">
			<acc value="0.00728627746871938" flag="0"/>
			<vel value="0.00574282199259175" flag="0"/>
			<psa03 value="0.0161266933142949" flag="0"/>
			<psa10 value="0.00779477089656488" flag="0"/>
			<psa30 value="0.00142939989906279" flag="0"/>
		</comp>
	</station>
</stationlist>
