<?xml version="1.0" encoding="UTF-8" standalone="yes"?>
<!DOCTYPE earthquake SYSTEM "stationlist.dtd">
<stationlist created="" xmlns="ch.ethz.sed.shakemap.usgs.xml">
  <station code="GVD" name="GVD" netid="GE" insttype="STS-2/N" lat="34.8391" lon="24.0874">
    <comp name="--.HHZ">
      <acc value="0.0211906002" flag="0"/>
      <vel value="0.0118097047" flag="0"/>
      <psa03 value="0.0566080130" flag="0"/>
      <psa10 value="0.0172140256" flag="0"/>
      <psa30 value="0.0024321883" flag="0"/>
    </comp>
    <comp name="--.HHN">
      <acc value="0.0355124402" flag="0"/>
      <vel value="0.0217827059" flag="0"/>
      <psa03 value="0.1115486726" flag="0"/>
      <psa10 value="0.0352084107" flag="0"/>
      <psa30 value="0.0033430874" flag="0"/>
    </comp>
    <comp name="--.HHE">
      <acc value="0.0403431646" flag="0"/>
      <vel value="0.0263317173" flag="0"/>
      <psa03 value="0.1333407250" flag="0"/>
      <psa10 value="0.0337149072" flag="0"/>
      <psa30 value="0.0022420363" flag="0"/>
    </comp>
  </station>
  <station code="IMMV" name="IMMV" netid="GE" insttype="STS-2/N" lat="35.4606" lon="23.9811">
    <comp name="--.HHE">
      <acc value="0.0092010902" flag="0"/>
      <vel value="0.0075414356" flag="0"/>
      <psa03 value="0.0271799041" flag="0"/>
      <psa10 value="0.0153726346" flag="0"/>
      <psa30 value="0.0014183648" flag="0"/>
    </comp>
    <comp name="--.HHN">
      <acc value="0.0086239841" flag="0"/>
      <vel value="0.0069379921" flag="0"/>
      <psa03 value="0.0342840373" flag="0"/>
      <psa10 value="0.0105876976" flag="0"/>
      <psa30 value="0.0009299455" flag="0"/>
    </comp>
    <comp name="--.HHZ">
      <acc value="0.0058659156" flag="0"/>
      <vel value="0.0058060245" flag="0"/>
      <psa03 value="0.0235365568" flag="0"/>
      <psa10 value="0.0080188274" flag="0"/>
      <psa30 value="0.0009364591" flag="0"/>
    </comp>
  </station>
  <station code="GVDS" name="GVDS" netid="HC" insttype="60" lat="34.8389" lon="24.0585">
    <comp name="--.HHN">
      <acc value="0.0272499681" flag="0"/>
      <vel value="0.0167760061" flag="0"/>
      <psa03 value="0.0726843080" flag="0"/>
      <psa10 value="0.0130064867" flag="0"/>
      <psa30 value="0.0030836127" flag="0"/>
    </comp>
    <comp name="--.HHZ">
      <acc value="0.0130084393" flag="0"/>
      <vel value="0.0106612925" flag="0"/>
      <psa03 value="0.0405006887" flag="0"/>
      <psa10 value="0.0131895088" flag="0"/>
      <psa30 value="0.0021299470" flag="0"/>
    </comp>
    <comp name="--.HHE">
      <acc value="0.0234535327" flag="0"/>
      <vel value="0.0167220755" flag="0"/>
      <psa03 value="0.0633822607" flag="0"/>
      <psa10 value="0.0176931531" flag="0"/>
      <psa30 value="0.0016089831" flag="0"/>
    </comp>
  </station>
  <station code="IMOD" name="IMOD" netid="HC" insttype="120" lat="34.9731" lon="24.7995">
    <comp name="--.HHE">
      <acc value="0.0084669554" flag="0"/>
      <vel value="0.0094031986" flag="0"/>
      <psa03 value="0.0218892382" flag="0"/>
      <psa10 value="0.0123194473" flag="0"/>
      <psa30 value="0.0013928535" flag="0"/>
    </comp>
    <comp name="--.HHZ">
      <acc value="0.0057750210" flag="0"/>
      <vel value="0.0040916480" flag="0"/>
      <psa03 value="0.0200722919" flag="0"/>
      <psa10 value="0.0066901914" flag="0"/>
      <psa30 value="0.0009201471" flag="0"/>
    </comp>
    <comp name="--.HHN">
      <acc value="0.0113701771" flag="0"/>
      <vel value="0.0126815209" flag="0"/>
      <psa03 value="0.0306456238" flag="0"/>
      <psa10 value="0.0226728689" flag="0"/>
      <psa30 value="0.0018767025" flag="0"/>
    </comp>
  </station>
  <station code="KNDR" name="KNDR" netid="HC" insttype="120" lat="35.2348" lon="23.6248">
    <comp name="--.HHE">
      <acc value="0.0068632585" flag="0"/>
      <vel value="0.0106801218" flag="0"/>
      <psa03 value="0.0183197890" flag="0"/>
      <psa10 value="0.0183734475" flag="0"/>
      <psa30 value="0.0017537935" flag="0"/>
    </comp>
    <comp name="--.HHN">
      <acc value="0.0083292113" flag="0"/>
      <vel value="0.0094743452" flag="0"/>
      <psa03 value="0.0241604575" flag="0"/>
      <psa10 value="0.0294407173" flag="0"/>
      <psa30 value="0.0018550758" flag="0"/>
    </comp>
    <comp name="--.HHZ">
      <acc value="0.0041110824" flag="0"/>
      <vel value="0.0045020853" flag="0"/>
      <psa03 value="0.0111188801" flag="0"/>
      <psa10 value="0.0085337981" flag="0"/>
      <psa30 value="0.0007222408" flag="0"/>
    </comp>
  </station>
  <station code="GVD" name="GVD" netid="HL" insttype="120" lat="34.8391" lon="24.0874">
    <comp name="--.HHE">
      <acc value="0.0395930258" flag="0"/>
      <vel value="0.0257280358" flag="0"/>
      <psa03 value="0.1296333527" flag="0"/>
      <psa10 value="0.0334658835" flag="0"/>
      <psa30 value="0.0022424770" flag="0"/>
    </comp>
    <comp name="--.HHN">
      <acc value="0.0343586438" flag="0"/>
      <vel value="0.0213274960" flag="0"/>
      <psa03 value="0.1086617262" flag="0"/>
      <psa10 value="0.0349262593" flag="0"/>
      <psa30 value="0.0033338571" flag="0"/>
    </comp>
    <comp name="--.HHZ">
      <acc value="0.0205661985" flag="0"/>
      <vel value="0.0116217149" flag="0"/>
      <psa03 value="0.0550348583" flag="0"/>
      <psa10 value="0.0171164893" flag="0"/>
      <psa30 value="0.0024284869" flag="0"/>
    </comp>
  </station>
  <station code="IDI" name="IDI" netid="HL" insttype="120" lat="35.288" lon="24.89">
    <comp name="--.HHE">
      <acc value="0.0020769238" flag="0"/>
      <vel value="0.0029045436" flag="0"/>
      <psa03 value="0.0062517516" flag="0"/>
      <psa10 value="0.0054126986" flag="0"/>
      <psa30 value="0.0006362054" flag="0"/>
    </comp>
    <comp name="--.HHZ">
      <acc value="0.0015484648" flag="0"/>
      <vel value="0.0022650389" flag="0"/>
      <psa03 value="0.0045272083" flag="0"/>
      <psa10 value="0.0021040725" flag="0"/>
      <psa30 value="0.0007553709" flag="0"/>
    </comp>
    <comp name="--.HHN">
      <acc value="0.0014344641" flag="0"/>
      <vel value="0.0017725669" flag="0"/>
      <psa03 value="0.0041831942" flag="0"/>
      <psa10 value="0.0035569935" flag="0"/>
      <psa30 value="0.0004344492" flag="0"/>
    </comp>
  </station>
  <station code="IMMV" name="IMMV" netid="HL" insttype="120" lat="35.4606" lon="23.9811">
    <comp name="--.HHN">
      <acc value="0.0084787102" flag="0"/>
      <vel value="0.0068252400" flag="0"/>
      <psa03 value="0.0333127020" flag="0"/>
      <psa10 value="0.0105165496" flag="0"/>
      <psa30 value="0.0009266373" flag="0"/>
    </comp>
    <comp name="--.HHE">
      <acc value="0.0090721075" flag="0"/>
      <vel value="0.0073993002" flag="0"/>
      <psa03 value="0.0264694522" flag="0"/>
      <psa10 value="0.0152769942" flag="0"/>
      <psa30 value="0.0014164888" flag="0"/>
    </comp>
    <comp name="--.HHZ">
      <acc value="0.0057416189" flag="0"/>
      <vel value="0.0057491488" flag="0"/>
      <psa03 value="0.0228833636" flag="0"/>
      <psa10 value="0.0079784034" flag="0"/>
      <psa30 value="0.0009362493" flag="0"/>
    </comp>
  </station>
  <station code="SIVA" name="SIVA" netid="HL" insttype="60" lat="35.0178" lon="24.812">
    <comp name="--.HHE">
      <acc value="0.0173993306" flag="0"/>
      <vel value="0.0189113911" flag="0"/>
      <psa03 value="0.0569713034" flag="0"/>
      <psa10 value="0.0265714970" flag="0"/>
      <psa30 value="0.0021435450" flag="0"/>
    </comp>
    <comp name="--.HHN">
      <acc value="0.0097815566" flag="0"/>
      <vel value="0.0100194537" flag="0"/>
      <psa03 value="0.0237123405" flag="0"/>
      <psa10 value="0.0127751205" flag="0"/>
      <psa30 value="0.0020598956" flag="0"/>
    </comp>
    <comp name="--.HHZ">
      <acc value="0.0076693084" flag="0"/>
      <vel value="0.0052946942" flag="0"/>
      <psa03 value="0.0165613440" flag="0"/>
      <psa10 value="0.0079213120" flag="0"/>
      <psa30 value="0.0012654455" flag="0"/>
    </comp>
  </station>
  <station code="VAM" name="VAM" netid="HL" insttype="CMG3ESPC-120s" lat="35.407" lon="24.1997">
    <comp name="--.HHE">
      <acc value="0.0043158143" flag="0"/>
      <vel value="0.0074658660" flag="0"/>
      <psa03 value="0.0162687674" flag="0"/>
      <psa10 value="0.0115806004" flag="0"/>
      <psa30 value="0.0010155237" flag="0"/>
    </comp>
    <comp name="--.HHN">
      <acc value="0.0059283061" flag="0"/>
      <vel value="0.0065918499" flag="0"/>
      <psa03 value="0.0141635577" flag="0"/>
      <psa10 value="0.0143969311" flag="0"/>
      <psa30 value="0.0015104890" flag="0"/>
    </comp>
    <comp name="--.HHZ">
      <acc value="0.0034207767" flag="0"/>
      <vel value="0.0041149269" flag="0"/>
      <psa03 value="0.0084771458" flag="0"/>
      <psa10 value="0.0071010033" flag="0"/>
      <psa30 value="0.0010081646" flag="0"/>
    </comp>
  </station>
  <station code="IDI" name="IDI" netid="MN" insttype="" lat="35.288" lon="24.89">
    <comp name="--.HHZ">
      <acc value="0.0015379801" flag="0"/>
      <vel value="0.0022444391" flag="0"/>
      <psa03 value="0.0045619237" flag="0"/>
      <psa10 value="0.0020881818" flag="0"/>
      <psa30 value="0.0007463729" flag="0"/>
    </comp>
    <comp name="--.HHN">
      <acc value="0.0014439045" flag="0"/>
      <vel value="0.0017610248" flag="0"/>
      <psa03 value="0.0042169861" flag="0"/>
      <psa10 value="0.0035279441" flag="0"/>
      <psa30 value="0.0004296504" flag="0"/>
    </comp>
    <comp name="--.HHE">
      <acc value="0.0020869567" flag="0"/>
      <vel value="0.0028817927" flag="0"/>
      <psa03 value="0.0062968885" flag="0"/>
      <psa10 value="0.0053669540" flag="0"/>
      <psa30 value="0.0006292455" flag="0"/>
    </comp>
  </station>
</stationlist>
