<?xml version="1.0" encoding="UTF-8" standalone="yes"?>
<!DOCTYPE earthquake SYSTEM "stationlist.dtd">
<stationlist created="" xmlns="ch.ethz.sed.shakemap.usgs.xml">
  <station code="AKDM" name="AKDM" netid="KO" insttype="30s," lat="38.3285" lon="42.98">
    <comp name="--.HHN">
      <acc value="0.0146625955" flag="0"/>
      <vel value="0.0144944051" flag="0"/>
      <psa03 value="0.0361603417" flag="0"/>
      <psa10 value="0.0192299144" flag="0"/>
      <psa30 value="0.0020943918" flag="0"/>
    </comp>
    <comp name="--.HHE">
      <acc value="0.0152243140" flag="0"/>
      <vel value="0.0126634425" flag="0"/>
      <psa03 value="0.0412173198" flag="0"/>
      <psa10 value="0.0157516527" flag="0"/>
      <psa30 value="0.0018352501" flag="0"/>
    </comp>
    <comp name="--.HHZ">
      <acc value="0.0093689088" flag="0"/>
      <vel value="0.0060959760" flag="0"/>
      <psa03 value="0.0239543938" flag="0"/>
      <psa10 value="0.0094421181" flag="0"/>
      <psa30 value="0.0010937572" flag="0"/>
    </comp>
  </station>
  <station code="VANB" name="VANB" netid="KO" insttype="360s," lat="38.509" lon="43.4058">
    <comp name="--.HHZ">
      <acc value="0.0234941591" flag="0"/>
      <vel value="0.0190864730" flag="0"/>
      <psa03 value="0.0451715546" flag="0"/>
      <psa10 value="0.0196560637" flag="0"/>
      <psa30 value="0.0022429381" flag="0"/>
    </comp>
    <comp name="--.HHE">
      <acc value="0.0541663773" flag="0"/>
      <vel value="0.0341464453" flag="0"/>
      <psa03 value="0.1360978732" flag="0"/>
      <psa10 value="0.0531653743" flag="0"/>
      <psa30 value="0.0034065005" flag="0"/>
    </comp>
    <comp name="--.HHN">
      <acc value="0.0411827820" flag="0"/>
      <vel value="0.0274228232" flag="0"/>
      <psa03 value="0.0708971248" flag="0"/>
      <psa10 value="0.0294780966" flag="0"/>
      <psa30 value="0.0032633455" flag="0"/>
    </comp>
  </station>
</stationlist>
