<?xml version="1.0" encoding="UTF-8" standalone="yes"?>
<!DOCTYPE earthquake SYSTEM "stationlist.dtd">
<stationlist created="" xmlns="ch.ethz.sed.shakemap.usgs.xml">
  <station code="APE" name="APE" netid="GE" insttype="STS-2/N" lat="37.0727" lon="25.523">
    <comp name="--.HHN">
      <acc value="0.2293539715" flag="0"/>
      <vel value="0.0437314263" flag="0"/>
      <psa03 value="0.0820527011" flag="0"/>
      <psa10 value="0.0086131571" flag="0"/>
      <psa30 value="0.0013991606" flag="0"/>
    </comp>
    <comp name="--.HHE">
      <acc value="0.2121216655" flag="0"/>
      <vel value="0.0350512106" flag="0"/>
      <psa03 value="0.0881013958" flag="0"/>
      <psa10 value="0.0147800556" flag="0"/>
      <psa30 value="0.0012453572" flag="0"/>
    </comp>
    <comp name="--.HHZ">
      <acc value="0.0671049686" flag="0"/>
      <vel value="0.0165999040" flag="0"/>
      <psa03 value="0.0720610012" flag="0"/>
      <psa10 value="0.0061708944" flag="0"/>
      <psa30 value="0.0011585048" flag="0"/>
    </comp>
  </station>
  <station code="THERA" name="THERA" netid="GE" insttype="STS-2/N" lat="36.367" lon="25.4753">
    <comp name="--.HHZ">
      <acc value="0.1621529035" flag="0"/>
      <vel value="0.0450581765" flag="0"/>
      <psa03 value="0.1912724591" flag="0"/>
      <psa10 value="0.0086597072" flag="0"/>
      <psa30 value="0.0010134599" flag="0"/>
    </comp>
    <comp name="--.HHN">
      <acc value="0.1151671801" flag="0"/>
      <vel value="0.0265969552" flag="0"/>
      <psa03 value="0.2174172268" flag="0"/>
      <psa10 value="0.0095939032" flag="0"/>
      <psa30 value="0.0005674265" flag="0"/>
    </comp>
    <comp name="--.HHE">
      <acc value="0.1407556960" flag="0"/>
      <vel value="0.0267079195" flag="0"/>
      <psa03 value="0.1252490534" flag="0"/>
      <psa10 value="0.0107099469" flag="0"/>
      <psa30 value="0.0010488943" flag="0"/>
    </comp>
  </station>
  <station code="SNT1" name="SNT1" netid="HA" insttype="30" lat="36.4159" lon="25.4282">
    <comp name="--.HHE">
      <acc value="0.0892504395" flag="0"/>
      <vel value="0.0271505160" flag="0"/>
      <psa03 value="0.1212711770" flag="0"/>
      <psa10 value="0.0240976085" flag="0"/>
      <psa30 value="0.0025090981" flag="0"/>
    </comp>
    <comp name="--.HHN">
      <acc value="0.0868685110" flag="0"/>
      <vel value="0.0250493794" flag="0"/>
      <psa03 value="0.1123160897" flag="0"/>
      <psa10 value="0.0175725156" flag="0"/>
      <psa30 value="0.0022389081" flag="0"/>
    </comp>
    <comp name="--.HHZ">
      <acc value="0.0895502000" flag="0"/>
      <vel value="0.0250758588" flag="0"/>
      <psa03 value="0.0939723355" flag="0"/>
      <psa10 value="0.0145069878" flag="0"/>
      <psa30 value="0.0009261982" flag="0"/>
    </comp>
  </station>
  <station code="NAX1" name="NAX1" netid="HI" insttype="CMG-5TD,ACCELEROMETER,GURALP" lat="37.1014" lon="25.3741">
    <comp name="--.HNE">
      <acc value="0.1447593310" flag="0"/>
      <vel value="0.0241677334" flag="0"/>
      <psa03 value="0.0690861964" flag="0"/>
      <psa10 value="0.0080615903" flag="0"/>
      <psa30 value="0.0008220485" flag="0"/>
    </comp>
    <comp name="--.HNZ">
      <acc value="0.0677520811" flag="0"/>
      <vel value="0.0204468604" flag="0"/>
      <psa03 value="0.0776101002" flag="0"/>
      <psa10 value="0.0071332707" flag="0"/>
      <psa30 value="0.0013356399" flag="0"/>
    </comp>
    <comp name="--.HNN">
      <acc value="0.1008222095" flag="0"/>
      <vel value="0.0185498289" flag="0"/>
      <psa03 value="0.0992994636" flag="0"/>
      <psa10 value="0.0095274027" flag="0"/>
      <psa30 value="0.0010818482" flag="0"/>
    </comp>
  </station>
  <station code="SFR2" name="SFR2" netid="HI" insttype="unknown" lat="36.3998" lon="25.4382">
    <comp name="--.HNE">
      <acc value="0.4000500790" flag="0"/>
      <vel value="0.1010439310" flag="0"/>
      <psa03 value="0.5806113555" flag="0"/>
      <psa10 value="0.0464038215" flag="0"/>
      <psa30 value="0.0033294035" flag="0"/>
    </comp>
    <comp name="--.HNN">
      <acc value="0.3460064071" flag="0"/>
      <vel value="0.0892208038" flag="0"/>
      <psa03 value="0.4739736426" flag="0"/>
      <psa10 value="0.0464009533" flag="0"/>
      <psa30 value="0.0022536553" flag="0"/>
    </comp>
    <comp name="--.HNZ">
      <acc value="0.3650418255" flag="0"/>
      <vel value="0.0856652649" flag="0"/>
      <psa03 value="0.4532337741" flag="0"/>
      <psa10 value="0.0205674246" flag="0"/>
      <psa30 value="0.0019973807" flag="0"/>
    </comp>
  </station>
  <station code="AMGA" name="AMGA" netid="HL" insttype="SMART24" lat="36.8316" lon="25.8938">
    <comp name="--.HHE">
      <acc value="0.6848012500" flag="0"/>
      <vel value="0.1500306062" flag="0"/>
      <psa03 value="0.2479274270" flag="0"/>
      <psa10 value="0.0434603110" flag="0"/>
      <psa30 value="0.0026780824" flag="0"/>
    </comp>
    <comp name="--.HHZ">
      <acc value="0.4251389731" flag="0"/>
      <vel value="0.1073804326" flag="0"/>
      <psa03 value="0.3486595803" flag="0"/>
      <psa10 value="0.0397472303" flag="0"/>
      <psa30 value="0.0038867955" flag="0"/>
    </comp>
    <comp name="--.HHN">
      <acc value="0.7614783440" flag="0"/>
      <vel value="0.1551958674" flag="0"/>
      <psa03 value="0.3453324025" flag="0"/>
      <psa10 value="0.0446791152" flag="0"/>
      <psa30 value="0.0038570144" flag="0"/>
    </comp>
  </station>
  <station code="APE" name="APE" netid="HL" insttype="120" lat="37.0727" lon="25.523">
    <comp name="--.HHE">
      <acc value="0.1726768933" flag="0"/>
      <vel value="0.0338456573" flag="0"/>
      <psa03 value="0.0854902308" flag="0"/>
      <psa10 value="0.0145144036" flag="0"/>
      <psa30 value="0.0012412598" flag="0"/>
    </comp>
    <comp name="--.HHZ">
      <acc value="0.0598646194" flag="0"/>
      <vel value="0.0161936753" flag="0"/>
      <psa03 value="0.0705171672" flag="0"/>
      <psa10 value="0.0060772195" flag="0"/>
      <psa30 value="0.0011554185" flag="0"/>
    </comp>
    <comp name="--.HHN">
      <acc value="0.2219907879" flag="0"/>
      <vel value="0.0420813201" flag="0"/>
      <psa03 value="0.0783946094" flag="0"/>
      <psa10 value="0.0085403414" flag="0"/>
      <psa30 value="0.0013821873" flag="0"/>
    </comp>
  </station>
  <station code="MHLO" name="MHLO" netid="HL" insttype="20" lat="36.6898" lon="24.4017">
    <comp name="--.HHE">
      <acc value="0.1001286388" flag="0"/>
      <vel value="0.0497997914" flag="0"/>
      <psa03 value="0.2187142595" flag="0"/>
      <psa10 value="0.0334491085" flag="0"/>
      <psa30 value="0.0019344216" flag="0"/>
    </comp>
    <comp name="--.HHN">
      <acc value="0.1102048170" flag="0"/>
      <vel value="0.0451768658" flag="0"/>
      <psa03 value="0.3076296927" flag="0"/>
      <psa10 value="0.0328558646" flag="0"/>
      <psa30 value="0.0015336040" flag="0"/>
    </comp>
    <comp name="--.HHZ">
      <acc value="0.0471826466" flag="0"/>
      <vel value="0.0218100286" flag="0"/>
      <psa03 value="0.2116434587" flag="0"/>
      <psa10 value="0.0205194123" flag="0"/>
      <psa30 value="0.0012428001" flag="0"/>
    </comp>
  </station>
  <station code="MILA" name="MILA" netid="HL" insttype="CMG-5" lat="36.7429" lon="24.4282">
    <comp name="00.HNE">
      <acc value="0.1007469271" flag="0"/>
      <vel value="0.0382305382" flag="0"/>
      <psa03 value="0.2437010972" flag="0"/>
      <psa10 value="0.0266986370" flag="0"/>
      <psa30 value="0.0018077751" flag="0"/>
    </comp>
    <comp name="00.HNN">
      <acc value="0.1209838320" flag="0"/>
      <vel value="0.0483438691" flag="0"/>
      <psa03 value="0.3138476820" flag="0"/>
      <psa10 value="0.0231415976" flag="0"/>
      <psa30 value="0.0025386031" flag="0"/>
    </comp>
    <comp name="00.HNZ">
      <acc value="0.0867543142" flag="0"/>
      <vel value="0.0329253568" flag="0"/>
      <psa03 value="0.1429326017" flag="0"/>
      <psa10 value="0.0224038541" flag="0"/>
      <psa30 value="0.0014071636" flag="0"/>
    </comp>
  </station>
  <station code="SANT" name="SANT" netid="HL" insttype="30" lat="36.3705" lon="25.4593">
    <comp name="--.HHE">
      <acc value="0.6877580697" flag="0"/>
      <vel value="0.1035432930" flag="0"/>
      <psa03 value="0.4052599866" flag="0"/>
      <psa10 value="0.0258331676" flag="0"/>
      <psa30 value="0.0019535534" flag="0"/>
    </comp>
    <comp name="--.HHZ">
      <acc value="0.3991724337" flag="0"/>
      <vel value="0.0598043211" flag="0"/>
      <psa03 value="0.2730650638" flag="0"/>
      <psa10 value="0.0113038446" flag="0"/>
      <psa30 value="0.0010437869" flag="0"/>
    </comp>
    <comp name="--.HHN">
      <acc value="0.3746617907" flag="0"/>
      <vel value="0.0483801364" flag="0"/>
      <psa03 value="0.2022688964" flag="0"/>
      <psa10 value="0.0138809380" flag="0"/>
      <psa30 value="0.0009327415" flag="0"/>
    </comp>
  </station>
  <station code="SAP3" name="SAP3" netid="HL" insttype="65535" lat="36.4356" lon="25.3454">
    <comp name="--.HHE">
      <acc value="0.1684659759" flag="0"/>
      <vel value="0.0396845964" flag="0"/>
      <psa03 value="0.2552144361" flag="0"/>
      <psa10 value="0.0197808117" flag="0"/>
      <psa30 value="0.0024691872" flag="0"/>
    </comp>
    <comp name="--.HHN">
      <acc value="0.1386385270" flag="0"/>
      <vel value="0.0428542815" flag="0"/>
      <psa03 value="0.4093413508" flag="0"/>
      <psa10 value="0.0221117757" flag="0"/>
      <psa30 value="0.0019055939" flag="0"/>
    </comp>
    <comp name="--.HHZ">
      <acc value="0.1622437480" flag="0"/>
      <vel value="0.0417698664" flag="0"/>
      <psa03 value="0.2095812272" flag="0"/>
      <psa10 value="0.0108315611" flag="0"/>
      <psa30 value="0.0015411871" flag="0"/>
    </comp>
  </station>
  <station code="THERA" name="THERA" netid="HL" insttype="120" lat="36.367" lon="25.4753">
    <comp name="--.HHE">
      <acc value="0.1474318182" flag="0"/>
      <vel value="0.0258247956" flag="0"/>
      <psa03 value="0.1210279315" flag="0"/>
      <psa10 value="0.0105679157" flag="0"/>
      <psa30 value="0.0010397460" flag="0"/>
    </comp>
    <comp name="--.HHZ">
      <acc value="0.1577873639" flag="0"/>
      <vel value="0.0438693587" flag="0"/>
      <psa03 value="0.1860141021" flag="0"/>
      <psa10 value="0.0085730238" flag="0"/>
      <psa30 value="0.0009946794" flag="0"/>
    </comp>
    <comp name="--.HHN">
      <acc value="0.2282382650" flag="0"/>
      <vel value="0.0517924019" flag="0"/>
      <psa03 value="0.4217844931" flag="0"/>
      <psa10 value="0.0189654232" flag="0"/>
      <psa30 value="0.0011314469" flag="0"/>
    </comp>
  </station>
  <station code="THRA" name="THRA" netid="HL" insttype="CMG-5" lat="36.415" lon="25.4324">
    <comp name="00.HNN">
      <acc value="0.3702446315" flag="0"/>
      <vel value="0.0939446063" flag="0"/>
      <psa03 value="0.6321436090" flag="0"/>
      <psa10 value="0.0581668961" flag="0"/>
      <psa30 value="0.0049533633" flag="0"/>
    </comp>
    <comp name="00.HNE">
      <acc value="0.3618478628" flag="0"/>
      <vel value="0.1171652352" flag="0"/>
      <psa03 value="0.7829556906" flag="0"/>
      <psa10 value="0.0806688480" flag="0"/>
      <psa30 value="0.0060649688" flag="0"/>
    </comp>
    <comp name="00.HNZ">
      <acc value="0.3189053401" flag="0"/>
      <vel value="0.0875053928" flag="0"/>
      <psa03 value="0.6249250957" flag="0"/>
      <psa10 value="0.0363659490" flag="0"/>
      <psa30 value="0.0024216656" flag="0"/>
    </comp>
  </station>
  <station code="TNSA" name="TNSA" netid="HL" insttype="CMG-5" lat="37.5394" lon="25.1631">
    <comp name="00.HNN">
      <acc value="0.0559100292" flag="0"/>
      <vel value="0.0160804739" flag="0"/>
      <psa03 value="0.0715343252" flag="0"/>
      <psa10 value="0.0075115134" flag="0"/>
      <psa30 value="0.0004948314" flag="0"/>
    </comp>
    <comp name="00.HNE">
      <acc value="0.0531351745" flag="0"/>
      <vel value="0.0136708704" flag="0"/>
      <psa03 value="0.0899283889" flag="0"/>
      <psa10 value="0.0051588763" flag="0"/>
      <psa30 value="0.0004054580" flag="0"/>
    </comp>
    <comp name="00.HNZ">
      <acc value="0.0438999383" flag="0"/>
      <vel value="0.0143834500" flag="0"/>
      <psa03 value="0.0603641086" flag="0"/>
      <psa10 value="0.0061085938" flag="0"/>
      <psa30 value="0.0006286635" flag="0"/>
    </comp>
  </station>
  <station code="AKRO" name="AKRO" netid="HT" insttype="Compact," lat="36.3584" lon="25.3967">
    <comp name="--.HHZ">
      <acc value="0.3989859076" flag="0"/>
      <vel value="0.0706274497" flag="0"/>
      <psa03 value="0.2548493568" flag="0"/>
      <psa10 value="0.0161610984" flag="0"/>
      <psa30 value="0.0016644316" flag="0"/>
    </comp>
    <comp name="--.HHE">
      <acc value="0.7951502938" flag="0"/>
      <vel value="0.1774542966" flag="0"/>
      <psa03 value="0.5667283565" flag="0"/>
      <psa10 value="0.0343801560" flag="0"/>
      <psa30 value="0.0029197254" flag="0"/>
    </comp>
    <comp name="--.HHN">
      <acc value="0.5069210711" flag="0"/>
      <vel value="0.1076688940" flag="0"/>
      <psa03 value="0.6175022316" flag="0"/>
      <psa10 value="0.0248897275" flag="0"/>
      <psa30 value="0.0029039187" flag="0"/>
    </comp>
  </station>
  <station code="CMBO" name="CMBO" netid="HT" insttype="120P," lat="36.4709" lon="25.4056">
    <comp name="--.HHN">
      <acc value="0.1996753830" flag="0"/>
      <vel value="0.0535886787" flag="0"/>
      <psa03 value="0.3386518403" flag="0"/>
      <psa10 value="0.0232882531" flag="0"/>
      <psa30 value="0.0016910295" flag="0"/>
    </comp>
    <comp name="--.HHE">
      <acc value="0.1745778714" flag="0"/>
      <vel value="0.0390475900" flag="0"/>
      <psa03 value="0.2075405197" flag="0"/>
      <psa10 value="0.0237699215" flag="0"/>
      <psa30 value="0.0015363326" flag="0"/>
    </comp>
    <comp name="--.HHZ">
      <acc value="0.1911193613" flag="0"/>
      <vel value="0.0407132524" flag="0"/>
      <psa03 value="0.3229713161" flag="0"/>
      <psa10 value="0.0133629922" flag="0"/>
      <psa30 value="0.0011682670" flag="0"/>
    </comp>
  </station>
</stationlist>
