<?xml version="1.0" encoding="UTF-8" standalone="yes"?>
<!DOCTYPE earthquake SYSTEM "stationlist.dtd">
<stationlist created="" xmlns="ch.ethz.sed.shakemap.usgs.xml">
  <station code="GGNV" name="GGNV" netid="LX" insttype="Q330" lat="38.7185" lon="-9.1505">
    <comp name="--.HHE">
      <acc value="0.0308478988" flag="0"/>
      <vel value="0.0090510420" flag="0"/>
      <psa03 value="0.0597938907" flag="0"/>
      <psa10 value="0.0035735424" flag="0"/>
      <psa30 value="0.0002034876" flag="0"/>
    </comp>
    <comp name="--.HHN">
      <acc value="0.0536420179" flag="0"/>
      <vel value="0.0160562467" flag="0"/>
      <psa03 value="0.0424926022" flag="0"/>
      <psa10 value="0.0053578797" flag="0"/>
      <psa30 value="0.0002861748" flag="0"/>
    </comp>
    <comp name="--.HHZ">
      <acc value="0.0288621687" flag="0"/>
      <vel value="0.0062390222" flag="0"/>
      <psa03 value="0.0213776929" flag="0"/>
      <psa10 value="0.0016955101" flag="0"/>
      <psa30 value="0.0001102981" flag="0"/>
    </comp>
  </station>
</stationlist>
