<?xml version="1.0" encoding="UTF-8" standalone="yes"?>
<!DOCTYPE earthquake SYSTEM "stationlist.dtd">
<stationlist created="" xmlns="ch.ethz.sed.shakemap.usgs.xml">
  <station code="BNN" name="BNN" netid="KO" insttype="CMG-3T" lat="38.8521" lon="35.8472">
    <comp name="--.HHE">
      <acc value="0.0119356268" flag="0"/>
      <vel value="0.0067314493" flag="0"/>
      <psa03 value="0.0165647061" flag="0"/>
      <psa10 value="0.0047052219" flag="0"/>
      <psa30 value="0.0002112753" flag="0"/>
    </comp>
    <comp name="--.HHN">
      <acc value="0.0098962820" flag="0"/>
      <vel value="0.0032501042" flag="0"/>
      <psa03 value="0.0197957377" flag="0"/>
      <psa10 value="0.0050155976" flag="0"/>
      <psa30 value="0.0004744758" flag="0"/>
    </comp>
    <comp name="--.HHZ">
      <acc value="0.0074003571" flag="0"/>
      <vel value="0.0026949604" flag="0"/>
      <psa03 value="0.0156548610" flag="0"/>
      <psa10 value="0.0029357547" flag="0"/>
      <psa30 value="0.0002700621" flag="0"/>
    </comp>
  </station>
  <station code="GAZ" name="GAZ" netid="KO" insttype="CMG-3T" lat="37.1721" lon="37.2096">
    <comp name="--.HHE">
      <acc value="0.0158846625" flag="0"/>
      <vel value="0.0078066324" flag="0"/>
      <psa03 value="0.0385923534" flag="0"/>
      <psa10 value="0.0065043847" flag="0"/>
      <psa30 value="0.0003070647" flag="0"/>
    </comp>
    <comp name="--.HHZ">
      <acc value="0.0112174693" flag="0"/>
      <vel value="0.0038950476" flag="0"/>
      <psa03 value="0.0245326794" flag="0"/>
      <psa10 value="0.0030787544" flag="0"/>
      <psa30 value="0.0002869758" flag="0"/>
    </comp>
    <comp name="--.HHN">
      <acc value="0.0138077863" flag="0"/>
      <vel value="0.0048960601" flag="0"/>
      <psa03 value="0.0324706470" flag="0"/>
      <psa10 value="0.0051362196" flag="0"/>
      <psa30 value="0.0004669648" flag="0"/>
    </comp>
  </station>
  <station code="KMRS" name="KMRS" netid="KO" insttype="CMG-3T" lat="37.5053" lon="36.9">
    <comp name="--.HHN">
      <acc value="0.0341677851" flag="0"/>
      <vel value="0.0100513266" flag="0"/>
      <psa03 value="0.0540445641" flag="0"/>
      <psa10 value="0.0044349019" flag="0"/>
      <psa30 value="0.0005326712" flag="0"/>
    </comp>
    <comp name="--.HHZ">
      <acc value="0.0182862831" flag="0"/>
      <vel value="0.0054947958" flag="0"/>
      <psa03 value="0.0242939404" flag="0"/>
      <psa10 value="0.0022946803" flag="0"/>
      <psa30 value="0.0005388676" flag="0"/>
    </comp>
  </station>
  <station code="SARI" name="SARI" netid="KO" insttype="CMG-3T" lat="38.4072" lon="36.4181">
    <comp name="--.HHN">
      <acc value="0.1664719698" flag="0"/>
      <vel value="0.0412571490" flag="0"/>
      <psa03 value="0.2252333271" flag="0"/>
      <psa10 value="0.0252218707" flag="0"/>
      <psa30 value="0.0014878373" flag="0"/>
    </comp>
    <comp name="--.HHZ">
      <acc value="0.1211254948" flag="0"/>
      <vel value="0.0344847511" flag="0"/>
      <psa03 value="0.1317787247" flag="0"/>
      <psa10 value="0.0222150633" flag="0"/>
      <psa30 value="0.0014021466" flag="0"/>
    </comp>
  </station>
  <station code="ANDN" name="ANDN" netid="TU" insttype="T" lat="37.58" lon="36.3452">
    <comp name="--.HHN">
      <acc value="0.1078395576" flag="0"/>
      <vel value="0.0370688502" flag="0"/>
      <psa03 value="0.2117872935" flag="0"/>
      <psa10 value="0.0484915027" flag="0"/>
      <psa30 value="0.0021838828" flag="0"/>
    </comp>
    <comp name="--.HHZ">
      <acc value="0.0514342950" flag="0"/>
      <vel value="0.0260333940" flag="0"/>
      <psa03 value="0.1029325581" flag="0"/>
      <psa10 value="0.0441850983" flag="0"/>
      <psa30 value="0.0019069769" flag="0"/>
    </comp>
    <comp name="--.HHE">
      <acc value="0.0899084111" flag="0"/>
      <vel value="0.0436549890" flag="0"/>
      <psa03 value="0.2706493507" flag="0"/>
      <psa10 value="0.0420812071" flag="0"/>
      <psa30 value="0.0033094696" flag="0"/>
    </comp>
  </station>
</stationlist>
