<?xml version="1.0" encoding="UTF-8" standalone="yes"?>
<!DOCTYPE earthquake SYSTEM "stationlist.dtd">
<stationlist created="" xmlns="ch.ethz.sed.shakemap.usgs.xml">
  <station code="BNN" name="BNN" netid="KO" insttype="CMG-3T" lat="38.8521" lon="35.8472">
    <comp name="--.HHZ">
      <acc value="0.0074003571" flag="0"/>
      <vel value="0.0026949604" flag="0"/>
      <psa03 value="0.0156548610" flag="0"/>
      <psa10 value="0.0029357548" flag="0"/>
      <psa30 value="0.0002700522" flag="0"/>
    </comp>
    <comp name="--.HHN">
      <acc value="0.0098962820" flag="0"/>
      <vel value="0.0032501044" flag="0"/>
      <psa03 value="0.0197957377" flag="0"/>
      <psa10 value="0.0050155976" flag="0"/>
      <psa30 value="0.0004744602" flag="0"/>
    </comp>
    <comp name="--.HHE">
      <acc value="0.0119356268" flag="0"/>
      <vel value="0.0067314493" flag="0"/>
      <psa03 value="0.0165647061" flag="0"/>
      <psa10 value="0.0047052219" flag="0"/>
      <psa30 value="0.0002112635" flag="0"/>
    </comp>
  </station>
  <station code="DARE" name="DARE" netid="KO" insttype="CMG-3ESP" lat="38.5712" lon="37.4832">
    <comp name="--.HHE">
      <acc value="0.0226662765" flag="0"/>
      <vel value="0.0076377966" flag="0"/>
      <psa03 value="0.0526402225" flag="0"/>
      <psa10 value="0.0033102786" flag="0"/>
      <psa30 value="0.0004069494" flag="0"/>
    </comp>
    <comp name="--.HHZ">
      <acc value="0.0170408148" flag="0"/>
      <vel value="0.0052218986" flag="0"/>
      <psa03 value="0.0316970076" flag="0"/>
      <psa10 value="0.0031207322" flag="0"/>
      <psa30 value="0.0004123038" flag="0"/>
    </comp>
    <comp name="--.HHN">
      <acc value="0.0244755054" flag="0"/>
      <vel value="0.0072177138" flag="0"/>
      <psa03 value="0.0566585859" flag="0"/>
      <psa10 value="0.0040678628" flag="0"/>
      <psa30 value="0.0003124638" flag="0"/>
    </comp>
  </station>
  <station code="GAZ" name="GAZ" netid="KO" insttype="CMG-3T" lat="37.1721" lon="37.2096">
    <comp name="--.HHN">
      <acc value="0.0138077863" flag="0"/>
      <vel value="0.0048960598" flag="0"/>
      <psa03 value="0.0324706470" flag="0"/>
      <psa10 value="0.0051362196" flag="0"/>
      <psa30 value="0.0004669918" flag="0"/>
    </comp>
    <comp name="--.HHE">
      <acc value="0.0158846624" flag="0"/>
      <vel value="0.0078066316" flag="0"/>
      <psa03 value="0.0385923534" flag="0"/>
      <psa10 value="0.0065043847" flag="0"/>
      <psa30 value="0.0003070650" flag="0"/>
    </comp>
    <comp name="--.HHZ">
      <acc value="0.0112174694" flag="0"/>
      <vel value="0.0038950476" flag="0"/>
      <psa03 value="0.0245326794" flag="0"/>
      <psa10 value="0.0030787544" flag="0"/>
      <psa30 value="0.0002869751" flag="0"/>
    </comp>
  </station>
  <station code="KMRS" name="KMRS" netid="KO" insttype="CMG-3T" lat="37.5053" lon="36.9">
    <comp name="--.HHN">
      <acc value="0.0341677849" flag="0"/>
      <vel value="0.0100513265" flag="0"/>
      <psa03 value="0.0540445641" flag="0"/>
      <psa10 value="0.0044349019" flag="0"/>
      <psa30 value="0.0005326646" flag="0"/>
    </comp>
    <comp name="--.HHZ">
      <acc value="0.0182862831" flag="0"/>
      <vel value="0.0054947955" flag="0"/>
      <psa03 value="0.0242939404" flag="0"/>
      <psa10 value="0.0022946803" flag="0"/>
      <psa30 value="0.0005388712" flag="0"/>
    </comp>
  </station>
  <station code="SARI" name="SARI" netid="KO" insttype="CMG-3T" lat="38.4072" lon="36.4181">
    <comp name="--.HHZ">
      <acc value="0.1211254943" flag="0"/>
      <vel value="0.0344847510" flag="0"/>
      <psa03 value="0.1317787247" flag="0"/>
      <psa10 value="0.0222150633" flag="0"/>
      <psa30 value="0.0014021360" flag="0"/>
    </comp>
    <comp name="--.HHN">
      <acc value="0.1664719696" flag="0"/>
      <vel value="0.0412571492" flag="0"/>
      <psa03 value="0.2252333271" flag="0"/>
      <psa10 value="0.0252218705" flag="0"/>
      <psa30 value="0.0014877766" flag="0"/>
    </comp>
  </station>
  <station code="ANDN" name="ANDN" netid="TU" insttype="T" lat="37.58" lon="36.3452">
    <comp name="--.HHN">
      <acc value="0.1078395578" flag="0"/>
      <vel value="0.0370688511" flag="0"/>
      <psa03 value="0.2117872935" flag="0"/>
      <psa10 value="0.0484915028" flag="0"/>
      <psa30 value="0.0021838361" flag="0"/>
    </comp>
    <comp name="--.HHZ">
      <acc value="0.0514342951" flag="0"/>
      <vel value="0.0260333936" flag="0"/>
      <psa03 value="0.1029325581" flag="0"/>
      <psa10 value="0.0441850984" flag="0"/>
      <psa30 value="0.0019069710" flag="0"/>
    </comp>
    <comp name="--.HHE">
      <acc value="0.0899084111" flag="0"/>
      <vel value="0.0436549888" flag="0"/>
      <psa03 value="0.2706493507" flag="0"/>
      <psa10 value="0.0420812072" flag="0"/>
      <psa30 value="0.0033092754" flag="0"/>
    </comp>
  </station>
</stationlist>
