<?xml version="1.0" encoding="UTF-8" standalone="yes"?>
<!DOCTYPE earthquake SYSTEM "stationlist.dtd">
<stationlist created="" xmlns="ch.ethz.sed.shakemap.usgs.xml">
  <station code="ANDN" name="ANDN" netid="TU" insttype="T" lat="37.58" lon="36.3452">
    <comp name="--.HHE">
      <acc value="0.2419704736" flag="0"/>
      <vel value="0.1164214090" flag="0"/>
      <psa03 value="0.6487427902" flag="0"/>
      <psa10 value="0.1589940806" flag="0"/>
      <psa30 value="0.0329827467" flag="0"/>
    </comp>
    <comp name="--.HHZ">
      <acc value="0.1269834368" flag="0"/>
      <vel value="0.0842380979" flag="0"/>
      <psa03 value="0.2891904902" flag="0"/>
      <psa10 value="0.1846325863" flag="0"/>
      <psa30 value="0.0182770490" flag="0"/>
    </comp>
    <comp name="--.HHN">
      <acc value="0.3730404338" flag="0"/>
      <vel value="0.1466893034" flag="0"/>
      <psa03 value="0.9610521915" flag="0"/>
      <psa10 value="0.2204499704" flag="0"/>
      <psa30 value="0.0343932577" flag="0"/>
    </comp>
  </station>
</stationlist>
