<?xml version="1.0" encoding="UTF-8" standalone="yes"?>
<!DOCTYPE earthquake SYSTEM "stationlist.dtd">
<stationlist created="" xmlns="ch.ethz.sed.shakemap.usgs.xml">
  <station code="GAZ" name="GAZ" netid="KO" insttype="CMG-3T" lat="37.1721" lon="37.2096">
    <comp name="--.HHZ">
      <acc value="0.0267724733" flag="0"/>
      <vel value="0.0311329150" flag="0"/>
      <psa03 value="0.0645752673" flag="0"/>
      <psa10 value="0.0381398366" flag="0"/>
      <psa30 value="0.0174984102" flag="0"/>
    </comp>
    <comp name="--.HHE">
      <acc value="0.0502316080" flag="0"/>
      <vel value="0.0528723245" flag="0"/>
      <psa03 value="0.0912909066" flag="0"/>
      <psa10 value="0.0500733077" flag="0"/>
      <psa30 value="0.0218137878" flag="0"/>
    </comp>
    <comp name="--.HHN">
      <acc value="0.0484396887" flag="0"/>
      <vel value="0.0383748562" flag="0"/>
      <psa03 value="0.1222730774" flag="0"/>
      <psa10 value="0.0712580700" flag="0"/>
      <psa30 value="0.0136960884" flag="0"/>
    </comp>
  </station>
  <station code="URFA" name="URFA" netid="KO" insttype="CMG-3ESP" lat="37.4409" lon="38.8213">
    <comp name="--.HHZ">
      <acc value="0.0712524665" flag="0"/>
      <vel value="0.0453433333" flag="0"/>
      <psa03 value="0.1619521007" flag="0"/>
      <psa10 value="0.1095767312" flag="0"/>
      <psa30 value="0.0081504602" flag="0"/>
    </comp>
    <comp name="--.HHE">
      <acc value="0.1643518442" flag="0"/>
      <vel value="0.0866774096" flag="0"/>
      <psa03 value="0.1752409044" flag="0"/>
      <psa10 value="0.1176631712" flag="0"/>
      <psa30 value="0.0069136066" flag="0"/>
    </comp>
    <comp name="--.HHN">
      <acc value="0.1207837102" flag="0"/>
      <vel value="0.0671331516" flag="0"/>
      <psa03 value="0.2830314072" flag="0"/>
      <psa10 value="0.0646044115" flag="0"/>
      <psa30 value="0.0107658957" flag="0"/>
    </comp>
  </station>
  <station code="ANDN" name="ANDN" netid="TU" insttype="T" lat="37.58" lon="36.3452">
    <comp name="--.HHE">
      <acc value="0.2419704729" flag="0"/>
      <vel value="0.1164214079" flag="0"/>
      <psa03 value="0.6487427902" flag="0"/>
      <psa10 value="0.1589940808" flag="0"/>
      <psa30 value="0.0329827861" flag="0"/>
    </comp>
    <comp name="--.HHN">
      <acc value="0.3730404340" flag="0"/>
      <vel value="0.1466893050" flag="0"/>
      <psa03 value="0.9610521915" flag="0"/>
      <psa10 value="0.2204499748" flag="0"/>
      <psa30 value="0.0343932822" flag="0"/>
    </comp>
    <comp name="--.HHZ">
      <acc value="0.1269834368" flag="0"/>
      <vel value="0.0842380947" flag="0"/>
      <psa03 value="0.2891904902" flag="0"/>
      <psa10 value="0.1846325871" flag="0"/>
      <psa30 value="0.0182769741" flag="0"/>
    </comp>
  </station>
</stationlist>
