<?xml version="1.0" encoding="UTF-8" standalone="yes"?>
<!DOCTYPE earthquake SYSTEM "stationlist.dtd">
<stationlist created="" xmlns="ch.ethz.sed.shakemap.usgs.xml">
  <station code="GAZ" name="GAZ" netid="KO" insttype="CMG-3T" lat="37.1721" lon="37.2096">
    <comp name="--.HHE">
      <acc value="0.0502316077" flag="0"/>
      <vel value="0.0528723233" flag="0"/>
      <psa03 value="0.0912909066" flag="0"/>
      <psa10 value="0.0500733077" flag="0"/>
      <psa30 value="0.0218138618" flag="0"/>
    </comp>
    <comp name="--.HHN">
      <acc value="0.0484396888" flag="0"/>
      <vel value="0.0383748557" flag="0"/>
      <psa03 value="0.1222730774" flag="0"/>
      <psa10 value="0.0712580698" flag="0"/>
      <psa30 value="0.0136961173" flag="0"/>
    </comp>
    <comp name="--.HHZ">
      <acc value="0.0267724735" flag="0"/>
      <vel value="0.0311329156" flag="0"/>
      <psa03 value="0.0645752673" flag="0"/>
      <psa10 value="0.0381398366" flag="0"/>
      <psa30 value="0.0174983708" flag="0"/>
    </comp>
  </station>
  <station code="ANDN" name="ANDN" netid="TU" insttype="T" lat="37.58" lon="36.3452">
    <comp name="--.HHN">
      <acc value="0.3730404343" flag="0"/>
      <vel value="0.1466893044" flag="0"/>
      <psa03 value="0.9610521915" flag="0"/>
      <psa10 value="0.2204499741" flag="0"/>
      <psa30 value="0.0343932810" flag="0"/>
    </comp>
    <comp name="--.HHZ">
      <acc value="0.1269834373" flag="0"/>
      <vel value="0.0842380944" flag="0"/>
      <psa03 value="0.2891904902" flag="0"/>
      <psa10 value="0.1846325870" flag="0"/>
      <psa30 value="0.0182769804" flag="0"/>
    </comp>
    <comp name="--.HHE">
      <acc value="0.2419704730" flag="0"/>
      <vel value="0.1164214073" flag="0"/>
      <psa03 value="0.6487427902" flag="0"/>
      <psa10 value="0.1589940808" flag="0"/>
      <psa30 value="0.0329827841" flag="0"/>
    </comp>
  </station>
</stationlist>
