<?xml version="1.0" encoding="UTF-8" standalone="yes"?>
<!DOCTYPE earthquake SYSTEM "stationlist.dtd">
<stationlist created="" xmlns="ch.ethz.sed.shakemap.usgs.xml">
  <station code="IMMV" name="IMMV" netid="GE" insttype="STS-2/N" commtype="DIG" lat="35.4606" lon="23.9811">
    <comp name="--.HHN">
      <acc value="0.0024033875" flag="0"/>
      <vel value="0.0026326033" flag="0"/>
      <psa03 value="0.0076102096" flag="0"/>
      <psa10 value="0.0042584466" flag="0"/>
      <psa30 value="0.0007050043" flag="0"/>
    </comp>
    <comp name="--.HHZ">
      <acc value="0.0014044636" flag="0"/>
      <vel value="0.0015874155" flag="0"/>
      <psa03 value="0.0043714655" flag="0"/>
      <psa10 value="0.0024212353" flag="0"/>
      <psa30 value="0.0004099778" flag="0"/>
    </comp>
    <comp name="--.HHE">
      <acc value="0.0023715880" flag="0"/>
      <vel value="0.0029728796" flag="0"/>
      <psa03 value="0.0080270381" flag="0"/>
      <psa10 value="0.0053524492" flag="0"/>
      <psa30 value="0.0004384946" flag="0"/>
    </comp>
  </station>
</stationlist>
