<?xml version="1.0" encoding="UTF-8" standalone="yes"?>
<!DOCTYPE earthquake SYSTEM "stationlist.dtd">
<stationlist created="" xmlns="ch.ethz.sed.shakemap.usgs.xml">
  <station code="AKS" name="AKS" netid="KO" insttype="CMG-5T" commtype="DIG" lat="38.8785" lon="27.8129">
    <comp name="--.HNZ">
      <acc value="0.2350460038" flag="0"/>
      <vel value="0.0305787734" flag="0"/>
      <psa03 value="0.0687360998" flag="0"/>
      <psa10 value="0.0043402298" flag="0"/>
      <psa30 value="0.0005760466" flag="0"/>
    </comp>
    <comp name="--.HNN">
      <acc value="0.1288966251" flag="0"/>
      <vel value="0.0305108955" flag="0"/>
      <psa03 value="0.1833121203" flag="0"/>
      <psa10 value="0.0076857163" flag="0"/>
      <psa30 value="0.0006552804" flag="0"/>
    </comp>
  </station>
  <station code="BALB" name="BALB" netid="KO" insttype="CMG-5T" commtype="DIG" lat="39.6507" lon="27.8642">
    <comp name="--.HNE">
      <acc value="0.0283827398" flag="0"/>
      <vel value="0.0090695301" flag="0"/>
      <psa03 value="0.0460811259" flag="0"/>
      <psa10 value="0.0055395444" flag="0"/>
      <psa30 value="0.0005363066" flag="0"/>
    </comp>
    <comp name="--.HNN">
      <acc value="0.0324851482" flag="0"/>
      <vel value="0.0103043571" flag="0"/>
      <psa03 value="0.0385221707" flag="0"/>
      <psa10 value="0.0105515015" flag="0"/>
      <psa30 value="0.0006201127" flag="0"/>
    </comp>
    <comp name="--.HNZ">
      <acc value="0.0234623769" flag="0"/>
      <vel value="0.0047936732" flag="0"/>
      <psa03 value="0.0183115206" flag="0"/>
      <psa10 value="0.0036331987" flag="0"/>
      <psa30 value="0.0004678619" flag="0"/>
    </comp>
  </station>
  <station code="DST" name="DST" netid="KO" insttype="CMG-5T" commtype="DIG" lat="39.6041" lon="28.6267">
    <comp name="--.HNE">
      <acc value="0.0352597291" flag="0"/>
      <vel value="0.0085323083" flag="0"/>
      <psa03 value="0.0512875842" flag="0"/>
      <psa10 value="0.0049494303" flag="0"/>
      <psa30 value="0.0003396041" flag="0"/>
    </comp>
    <comp name="--.HNZ">
      <acc value="0.0333308524" flag="0"/>
      <vel value="0.0066694721" flag="0"/>
      <psa03 value="0.0483167017" flag="0"/>
      <psa10 value="0.0030877652" flag="0"/>
      <psa30 value="0.0003752981" flag="0"/>
    </comp>
    <comp name="--.HNN">
      <acc value="0.0317627873" flag="0"/>
      <vel value="0.0087465145" flag="0"/>
      <psa03 value="0.0433915782" flag="0"/>
      <psa10 value="0.0044762303" flag="0"/>
      <psa30 value="0.0005737321" flag="0"/>
    </comp>
  </station>
  <station code="GEDZ" name="GEDZ" netid="KO" insttype="CMG-6T" commtype="DIG" lat="39.0445" lon="29.4105">
    <comp name="--.HHN">
      <acc value="0.0526901893" flag="0"/>
      <vel value="0.0305180139" flag="0"/>
      <psa03 value="0.1058919565" flag="0"/>
      <psa10 value="0.0222418716" flag="0"/>
      <psa30 value="0.0010931398" flag="0"/>
    </comp>
    <comp name="--.HHZ">
      <acc value="0.0294710625" flag="0"/>
      <vel value="0.0113333511" flag="0"/>
      <psa03 value="0.0383766854" flag="0"/>
      <psa10 value="0.0073831358" flag="0"/>
      <psa30 value="0.0003701936" flag="0"/>
    </comp>
    <comp name="--.HHE">
      <acc value="0.0703600810" flag="0"/>
      <vel value="0.0268921802" flag="0"/>
      <psa03 value="0.1411864388" flag="0"/>
      <psa10 value="0.0168048967" flag="0"/>
      <psa30 value="0.0009285224" flag="0"/>
    </comp>
  </station>
  <station code="GOMA" name="GOMA" netid="KO" insttype="CMG-5T" commtype="DIG" lat="38.7077" lon="27.9175">
    <comp name="--.HNE">
      <acc value="0.0826185475" flag="0"/>
      <vel value="0.0244127737" flag="0"/>
      <psa03 value="0.1998377282" flag="0"/>
      <psa10 value="0.0059323053" flag="0"/>
      <psa30 value="0.0005865925" flag="0"/>
    </comp>
    <comp name="--.HNZ">
      <acc value="0.1597152055" flag="0"/>
      <vel value="0.0338311543" flag="0"/>
      <psa03 value="0.0881782484" flag="0"/>
      <psa10 value="0.0056157986" flag="0"/>
      <psa30 value="0.0004057131" flag="0"/>
    </comp>
    <comp name="--.HNN">
      <acc value="0.0973855613" flag="0"/>
      <vel value="0.0428708748" flag="0"/>
      <psa03 value="0.3396658303" flag="0"/>
      <psa10 value="0.0101900467" flag="0"/>
      <psa30 value="0.0009946198" flag="0"/>
    </comp>
  </station>
  <station code="GONE" name="GONE" netid="KO" insttype="CMG-5T" commtype="DIG" lat="40.0466" lon="27.686">
    <comp name="--.HNE">
      <acc value="0.0256005569" flag="0"/>
      <vel value="0.0088039987" flag="0"/>
      <psa03 value="0.0494457661" flag="0"/>
      <psa10 value="0.0054295475" flag="0"/>
      <psa30 value="0.0003230691" flag="0"/>
    </comp>
    <comp name="--.HNN">
      <acc value="0.0306012763" flag="0"/>
      <vel value="0.0113391631" flag="0"/>
      <psa03 value="0.0833173514" flag="0"/>
      <psa10 value="0.0076035255" flag="0"/>
      <psa30 value="0.0005075734" flag="0"/>
    </comp>
    <comp name="--.HNZ">
      <acc value="0.0140657253" flag="0"/>
      <vel value="0.0040811987" flag="0"/>
      <psa03 value="0.0275858534" flag="0"/>
      <psa10 value="0.0029781231" flag="0"/>
      <psa30 value="0.0002036523" flag="0"/>
    </comp>
  </station>
  <station code="GORD" name="GORD" netid="KO" insttype="CMG-5T" commtype="DIG" lat="38.9088" lon="28.1769">
    <comp name="--.HNE">
      <acc value="0.1004444983" flag="0"/>
      <vel value="0.0216976084" flag="0"/>
      <psa03 value="0.0679316008" flag="0"/>
      <psa10 value="0.0193350375" flag="0"/>
      <psa30 value="0.0011239324" flag="0"/>
    </comp>
    <comp name="--.HNN">
      <acc value="0.0878620039" flag="0"/>
      <vel value="0.0293578313" flag="0"/>
      <psa03 value="0.1067342937" flag="0"/>
      <psa10 value="0.0220592998" flag="0"/>
      <psa30 value="0.0012906180" flag="0"/>
    </comp>
    <comp name="--.HNZ">
      <acc value="0.1465417340" flag="0"/>
      <vel value="0.0309573481" flag="0"/>
      <psa03 value="0.0879603966" flag="0"/>
      <psa10 value="0.0139975072" flag="0"/>
      <psa30 value="0.0016566447" flag="0"/>
    </comp>
  </station>
  <station code="KULA" name="KULA" netid="KO" insttype="CMG-3T" commtype="DIG" lat="38.5145" lon="28.6607">
    <comp name="--.HHN">
      <acc value="0.0609180267" flag="0"/>
      <vel value="0.0157706441" flag="0"/>
      <psa03 value="0.0638230978" flag="0"/>
      <psa10 value="0.0025191331" flag="0"/>
      <psa30 value="0.0002089259" flag="0"/>
    </comp>
    <comp name="--.HHE">
      <acc value="0.0604701117" flag="0"/>
      <vel value="0.0131704600" flag="0"/>
      <psa03 value="0.0381853186" flag="0"/>
      <psa10 value="0.0050941692" flag="0"/>
      <psa30 value="0.0005223411" flag="0"/>
    </comp>
    <comp name="--.HHZ">
      <acc value="0.0333773190" flag="0"/>
      <vel value="0.0070352864" flag="0"/>
      <psa03 value="0.0258032932" flag="0"/>
      <psa10 value="0.0036338308" flag="0"/>
      <psa30 value="0.0002658021" flag="0"/>
    </comp>
  </station>
  <station code="ODEM" name="ODEM" netid="KO" insttype="CMG-5T" commtype="DIG" lat="38.2762" lon="28.0747">
    <comp name="--.HNE">
      <acc value="0.0190495736" flag="0"/>
      <vel value="0.0048914283" flag="0"/>
      <psa03 value="0.0164314016" flag="0"/>
      <psa10 value="0.0073445367" flag="0"/>
      <psa30 value="0.0004319470" flag="0"/>
    </comp>
    <comp name="--.HNN">
      <acc value="0.0318576922" flag="0"/>
      <vel value="0.0068118425" flag="0"/>
      <psa03 value="0.0257236362" flag="0"/>
      <psa10 value="0.0028202880" flag="0"/>
      <psa30 value="0.0002746659" flag="0"/>
    </comp>
    <comp name="--.HNZ">
      <acc value="0.0390904758" flag="0"/>
      <vel value="0.0076416660" flag="0"/>
      <psa03 value="0.0254997924" flag="0"/>
      <psa10 value="0.0060790598" flag="0"/>
      <psa30 value="0.0002721095" flag="0"/>
    </comp>
  </station>
  <station code="ORLT" name="ORLT" netid="KO" insttype="CMG-5T" commtype="DIG" lat="40.0452" lon="28.8914">
    <comp name="--.HNZ">
      <acc value="0.0155552950" flag="0"/>
      <vel value="0.0090105277" flag="0"/>
      <psa03 value="0.0439128996" flag="0"/>
      <psa10 value="0.0091242326" flag="0"/>
      <psa30 value="0.0004061761" flag="0"/>
    </comp>
    <comp name="--.HNN">
      <acc value="0.0457152164" flag="0"/>
      <vel value="0.0209236089" flag="0"/>
      <psa03 value="0.2085379211" flag="0"/>
      <psa10 value="0.0168002489" flag="0"/>
      <psa30 value="0.0009813503" flag="0"/>
    </comp>
    <comp name="--.HNE">
      <acc value="0.0392826810" flag="0"/>
      <vel value="0.0144122225" flag="0"/>
      <psa03 value="0.1036658980" flag="0"/>
      <psa10 value="0.0100239700" flag="0"/>
      <psa30 value="0.0004905713" flag="0"/>
    </comp>
  </station>
  <station code="SHAP" name="SHAP" netid="KO" insttype="CMG-5T" commtype="DIG" lat="39.0231" lon="29.222">
    <comp name="--.HNZ">
      <acc value="0.0589688307" flag="0"/>
      <vel value="0.0145010686" flag="0"/>
      <psa03 value="0.0506028520" flag="0"/>
      <psa10 value="0.0046763640" flag="0"/>
      <psa30 value="0.0002374123" flag="0"/>
    </comp>
    <comp name="--.HNE">
      <acc value="0.0692865966" flag="0"/>
      <vel value="0.0187852639" flag="0"/>
      <psa03 value="0.1362260450" flag="0"/>
      <psa10 value="0.0059441100" flag="0"/>
      <psa30 value="0.0004972730" flag="0"/>
    </comp>
    <comp name="--.HNN">
      <acc value="0.0959646983" flag="0"/>
      <vel value="0.0210578983" flag="0"/>
      <psa03 value="0.0882403598" flag="0"/>
      <psa10 value="0.0067815291" flag="0"/>
      <psa30 value="0.0004779354" flag="0"/>
    </comp>
  </station>
  <station code="SIMA" name="SIMA" netid="KO" insttype="CMG-6T" commtype="DIG" lat="39.0833" lon="28.9825">
    <comp name="--.HHZ">
      <acc value="0.0613178849" flag="0"/>
      <vel value="0.0094938633" flag="0"/>
      <psa03 value="0.0387800322" flag="0"/>
      <psa10 value="0.0027123801" flag="0"/>
      <psa30 value="0.0002491779" flag="0"/>
    </comp>
    <comp name="--.HHN">
      <acc value="0.0869003683" flag="0"/>
      <vel value="0.0241731374" flag="0"/>
      <psa03 value="0.1285566997" flag="0"/>
      <psa10 value="0.0063169936" flag="0"/>
      <psa30 value="0.0006014832" flag="0"/>
    </comp>
    <comp name="--.HHE">
      <acc value="0.1039850960" flag="0"/>
      <vel value="0.0179142742" flag="0"/>
      <psa03 value="0.1052473280" flag="0"/>
      <psa10 value="0.0040956612" flag="0"/>
      <psa30 value="0.0003920224" flag="0"/>
    </comp>
  </station>
  <station code="SOMA" name="SOMA" netid="KO" insttype="CMG-5T" commtype="DIG" lat="39.1564" lon="27.5341">
    <comp name="--.HNN">
      <acc value="0.0666622423" flag="0"/>
      <vel value="0.0193435196" flag="0"/>
      <psa03 value="0.0947929334" flag="0"/>
      <psa10 value="0.0091435758" flag="0"/>
      <psa30 value="0.0004889489" flag="0"/>
    </comp>
    <comp name="--.HNE">
      <acc value="0.0560120132" flag="0"/>
      <vel value="0.0135909331" flag="0"/>
      <psa03 value="0.0527452059" flag="0"/>
      <psa10 value="0.0068411632" flag="0"/>
      <psa30 value="0.0003646220" flag="0"/>
    </comp>
    <comp name="--.HNZ">
      <acc value="0.0416754002" flag="0"/>
      <vel value="0.0098585883" flag="0"/>
      <psa03 value="0.0327808211" flag="0"/>
      <psa10 value="0.0051394814" flag="0"/>
      <psa30 value="0.0002772300" flag="0"/>
    </comp>
  </station>
  <station code="SUSR" name="SUSR" netid="KO" insttype="CMG-5T" commtype="DIG" lat="39.9627" lon="28.0835">
    <comp name="--.HNE">
      <acc value="0.0340252575" flag="0"/>
      <vel value="0.0090753193" flag="0"/>
      <psa03 value="0.0429119932" flag="0"/>
      <psa10 value="0.0026237114" flag="0"/>
      <psa30 value="0.0002076720" flag="0"/>
    </comp>
    <comp name="--.HNZ">
      <acc value="0.0393240016" flag="0"/>
      <vel value="0.0078524700" flag="0"/>
      <psa03 value="0.0352598835" flag="0"/>
      <psa10 value="0.0017210590" flag="0"/>
      <psa30 value="0.0002481240" flag="0"/>
    </comp>
    <comp name="--.HNN">
      <acc value="0.0319307238" flag="0"/>
      <vel value="0.0089811335" flag="0"/>
      <psa03 value="0.0634160355" flag="0"/>
      <psa10 value="0.0021357630" flag="0"/>
      <psa30 value="0.0002136734" flag="0"/>
    </comp>
  </station>
</stationlist>
