<?xml version="1.0" encoding="UTF-8" standalone="yes"?>
<!DOCTYPE earthquake SYSTEM "stationlist.dtd">
<stationlist created="" xmlns="ch.ethz.sed.shakemap.usgs.xml">
  <station code="FRE8" name="FRE8" netid="IV" insttype="" lat="46.015" lon="12.3552">
    <comp name="--.HNE">
      <acc value="0.0458509640" flag="0"/>
      <vel value="0.0285573568" flag="0"/>
      <psa03 value="0.1397868476" flag="0"/>
      <psa10 value="0.0119188722" flag="0"/>
      <psa30 value="0.0008936033" flag="0"/>
    </comp>
    <comp name="--.HNN">
      <acc value="0.0423453539" flag="0"/>
      <vel value="0.0211719764" flag="0"/>
      <psa03 value="0.1058544542" flag="0"/>
      <psa10 value="0.0154439986" flag="0"/>
      <psa30 value="0.0013710472" flag="0"/>
    </comp>
    <comp name="--.HNZ">
      <acc value="0.0275414839" flag="0"/>
      <vel value="0.0128769385" flag="0"/>
      <psa03 value="0.0986863100" flag="0"/>
      <psa10 value="0.0075271963" flag="0"/>
      <psa30 value="0.0004909139" flag="0"/>
    </comp>
  </station>
  <station code="FREG" name="FREG" netid="IV" insttype="" lat="46.0111" lon="12.313">
    <comp name="--.HNE">
      <acc value="0.0553316738" flag="0"/>
      <vel value="0.0226796157" flag="0"/>
      <psa03 value="0.1888507764" flag="0"/>
      <psa10 value="0.0180805367" flag="0"/>
      <psa30 value="0.0019347852" flag="0"/>
    </comp>
    <comp name="--.HNN">
      <acc value="0.0601386650" flag="0"/>
      <vel value="0.0278387097" flag="0"/>
      <psa03 value="0.2882206067" flag="0"/>
      <psa10 value="0.0126107193" flag="0"/>
      <psa30 value="0.0015145814" flag="0"/>
    </comp>
    <comp name="--.HNZ">
      <acc value="0.0380322024" flag="0"/>
      <vel value="0.0153785711" flag="0"/>
      <psa03 value="0.1083450264" flag="0"/>
      <psa10 value="0.0106870509" flag="0"/>
      <psa30 value="0.0007931970" flag="0"/>
    </comp>
  </station>
  <station code="FVI" name="FVI" netid="IV" insttype="" lat="46.5966" lon="12.7804">
    <comp name="--.HHE">
      <acc value="0.0659330965" flag="0"/>
      <vel value="0.0150109655" flag="0"/>
      <psa03 value="0.0416060130" flag="0"/>
      <psa10 value="0.0043167627" flag="0"/>
      <psa30 value="0.0005283213" flag="0"/>
    </comp>
    <comp name="--.HHZ">
      <acc value="0.0229940375" flag="0"/>
      <vel value="0.0075631384" flag="0"/>
      <psa03 value="0.0251758135" flag="0"/>
      <psa10 value="0.0048515249" flag="0"/>
      <psa30 value="0.0004662942" flag="0"/>
    </comp>
    <comp name="--.HHN">
      <acc value="0.0575299541" flag="0"/>
      <vel value="0.0096412375" flag="0"/>
      <psa03 value="0.0344413426" flag="0"/>
      <psa10 value="0.0049839399" flag="0"/>
      <psa30 value="0.0004020285" flag="0"/>
    </comp>
  </station>
  <station code="PTCC" name="PTCC" netid="IV" insttype="" lat="46.4075" lon="13.354">
    <comp name="--.HHN">
      <acc value="0.9886189718" flag="0"/>
      <vel value="0.1905419958" flag="0"/>
      <psa03 value="0.3990160972" flag="0"/>
      <psa10 value="0.0578405039" flag="0"/>
      <psa30 value="0.0045868455" flag="0"/>
    </comp>
    <comp name="--.HHE">
      <acc value="1.0818867727" flag="0"/>
      <vel value="0.1879111418" flag="0"/>
      <psa03 value="0.6451650670" flag="0"/>
      <psa10 value="0.0796767784" flag="0"/>
      <psa30 value="0.0063137201" flag="0"/>
    </comp>
    <comp name="--.HHZ">
      <acc value="0.4139827408" flag="0"/>
      <vel value="0.1193343819" flag="0"/>
      <psa03 value="0.5055108142" flag="0"/>
      <psa10 value="0.0497314732" flag="0"/>
      <psa30 value="0.0041968002" flag="0"/>
    </comp>
  </station>
  <station code="STAL" name="STAL" netid="IV" insttype="" lat="46.2601" lon="12.7104">
    <comp name="--.HHE">
      <acc value="0.0967323532" flag="0"/>
      <vel value="0.0241125555" flag="0"/>
      <psa03 value="0.1706515905" flag="0"/>
      <psa10 value="0.0061750809" flag="0"/>
      <psa30 value="0.0006883426" flag="0"/>
    </comp>
    <comp name="--.HHN">
      <acc value="0.0865211603" flag="0"/>
      <vel value="0.0270930120" flag="0"/>
      <psa03 value="0.2308620012" flag="0"/>
      <psa10 value="0.0077266724" flag="0"/>
      <psa30 value="0.0005929269" flag="0"/>
    </comp>
    <comp name="--.HHZ">
      <acc value="0.0488533323" flag="0"/>
      <vel value="0.0110424914" flag="0"/>
      <psa03 value="0.0356703995" flag="0"/>
      <psa10 value="0.0055093308" flag="0"/>
      <psa30 value="0.0004871628" flag="0"/>
    </comp>
  </station>
  <station code="ABTA" name="ABTA" netid="OE" source="ODC" insttype="STS-2" lat="46.7474" lon="12.5123">
    <comp name="--.HHE">
      <acc value="0.0075045052" flag="0"/>
      <vel value="0.0033968964" flag="0"/>
      <psa03 value="0.0143554672" flag="0"/>
      <psa10 value="0.0043684517" flag="0"/>
      <psa30 value="0.0002274150" flag="0"/>
    </comp>
    <comp name="--.HHN">
      <acc value="0.0101487684" flag="0"/>
      <vel value="0.0035245370" flag="0"/>
      <psa03 value="0.0152189426" flag="0"/>
      <psa10 value="0.0023762774" flag="0"/>
      <psa30 value="0.0002826176" flag="0"/>
    </comp>
    <comp name="--.HHZ">
      <acc value="0.0077515155" flag="0"/>
      <vel value="0.0029919314" flag="0"/>
      <psa03 value="0.0111380832" flag="0"/>
      <psa10 value="0.0031101446" flag="0"/>
      <psa30 value="0.0002628168" flag="0"/>
    </comp>
  </station>
  <station code="KBA" name="KBA" netid="OE" source="ODC" insttype="STS-2" lat="47.0784" lon="13.3447">
    <comp name="--.HHN">
      <acc value="0.0065133804" flag="0"/>
      <vel value="0.0026798141" flag="0"/>
      <psa03 value="0.0148439864" flag="0"/>
      <psa10 value="0.0027776038" flag="0"/>
      <psa30 value="0.0002245546" flag="0"/>
    </comp>
    <comp name="--.HHZ">
      <acc value="0.0074949105" flag="0"/>
      <vel value="0.0051973983" flag="0"/>
      <psa03 value="0.0195223668" flag="0"/>
      <psa10 value="0.0055897073" flag="0"/>
      <psa30 value="0.0002741683" flag="0"/>
    </comp>
    <comp name="--.HHE">
      <acc value="0.0069780960" flag="0"/>
      <vel value="0.0043597359" flag="0"/>
      <psa03 value="0.0151677638" flag="0"/>
      <psa10 value="0.0030196152" flag="0"/>
      <psa30 value="0.0003314711" flag="0"/>
    </comp>
  </station>
  <station code="MYKA" name="MYKA" netid="OE" source="ODC" insttype="STS-2" lat="46.6299" lon="13.6416">
    <comp name="--.HHN">
      <acc value="0.0517575884" flag="0"/>
      <vel value="0.0118320080" flag="0"/>
      <psa03 value="0.0641606433" flag="0"/>
      <psa10 value="0.0040584495" flag="0"/>
      <psa30 value="0.0006645546" flag="0"/>
    </comp>
    <comp name="--.HHZ">
      <acc value="0.0421362046" flag="0"/>
      <vel value="0.0109807202" flag="0"/>
      <psa03 value="0.0598866273" flag="0"/>
      <psa10 value="0.0048834439" flag="0"/>
      <psa30 value="0.0009650971" flag="0"/>
    </comp>
    <comp name="--.HHE">
      <acc value="0.0433606903" flag="0"/>
      <vel value="0.0164955913" flag="0"/>
      <psa03 value="0.0914802523" flag="0"/>
      <psa10 value="0.0058837765" flag="0"/>
      <psa30 value="0.0007518261" flag="0"/>
    </comp>
  </station>
  <station code="SOKA" name="SOKA" netid="OE" source="ODC" insttype="STS-2" lat="46.678" lon="15.0327">
    <comp name="--.HHE">
      <acc value="0.0068030490" flag="0"/>
      <vel value="0.0029936747" flag="0"/>
      <psa03 value="0.0287192613" flag="0"/>
      <psa10 value="0.0014785278" flag="0"/>
      <psa30 value="0.0001677583" flag="0"/>
    </comp>
    <comp name="--.HHN">
      <acc value="0.0064891242" flag="0"/>
      <vel value="0.0033732461" flag="0"/>
      <psa03 value="0.0134186760" flag="0"/>
      <psa10 value="0.0022212705" flag="0"/>
      <psa30 value="0.0001805976" flag="0"/>
    </comp>
    <comp name="--.HHZ">
      <acc value="0.0046476472" flag="0"/>
      <vel value="0.0020786369" flag="0"/>
      <psa03 value="0.0126180342" flag="0"/>
      <psa10 value="0.0021995735" flag="0"/>
      <psa30 value="0.0002731481" flag="0"/>
    </comp>
  </station>
  <station code="ACOM" name="ACOM" netid="OX" insttype="" lat="46.548" lon="13.5137">
    <comp name="--.HHE">
      <acc value="0.5535720099" flag="0"/>
      <vel value="0.1163771897" flag="0"/>
      <psa03 value="0.5228090963" flag="0"/>
      <psa10 value="0.0472999173" flag="0"/>
      <psa30 value="0.0036092206" flag="0"/>
    </comp>
    <comp name="--.HHN">
      <acc value="0.2238755631" flag="0"/>
      <vel value="0.0732159970" flag="0"/>
      <psa03 value="0.2854566502" flag="0"/>
      <psa10 value="0.0514653420" flag="0"/>
      <psa30 value="0.0026774968" flag="0"/>
    </comp>
    <comp name="--.HHZ">
      <acc value="0.2162291111" flag="0"/>
      <vel value="0.0383635604" flag="0"/>
      <psa03 value="0.1798499073" flag="0"/>
      <psa10 value="0.0209977108" flag="0"/>
      <psa30 value="0.0025465737" flag="0"/>
    </comp>
  </station>
  <station code="AGOR" name="AGOR" netid="OX" insttype="" lat="46.2329" lon="12.0472">
    <comp name="--.HHE">
      <acc value="0.0171908620" flag="0"/>
      <vel value="0.0079867479" flag="0"/>
      <psa03 value="0.0516921107" flag="0"/>
      <psa10 value="0.0049406387" flag="0"/>
      <psa30 value="0.0002644157" flag="0"/>
    </comp>
    <comp name="--.HHN">
      <acc value="0.0216044475" flag="0"/>
      <vel value="0.0149829917" flag="0"/>
      <psa03 value="0.0786292387" flag="0"/>
      <psa10 value="0.0050296828" flag="0"/>
      <psa30 value="0.0003786473" flag="0"/>
    </comp>
    <comp name="--.HHZ">
      <acc value="0.0156990393" flag="0"/>
      <vel value="0.0072024914" flag="0"/>
      <psa03 value="0.0592548584" flag="0"/>
      <psa10 value="0.0026943712" flag="0"/>
      <psa30 value="0.0001686621" flag="0"/>
    </comp>
  </station>
  <station code="BAD" name="BAD" netid="OX" insttype="" lat="46.234" lon="13.2438">
    <comp name="--.HHE">
      <acc value="1.1912007051" flag="0"/>
      <vel value="0.4661161824" flag="0"/>
      <psa03 value="2.8915465712" flag="0"/>
      <psa10 value="0.1576816598" flag="0"/>
      <psa30 value="0.0145321666" flag="0"/>
    </comp>
    <comp name="--.HHN">
      <acc value="1.1672809562" flag="0"/>
      <vel value="0.4817762003" flag="0"/>
      <psa03 value="2.4046885240" flag="0"/>
      <psa10 value="0.1850991171" flag="0"/>
      <psa30 value="0.0139138272" flag="0"/>
    </comp>
    <comp name="--.HHZ">
      <acc value="0.8446332595" flag="0"/>
      <vel value="0.2939552243" flag="0"/>
      <psa03 value="0.9976026139" flag="0"/>
      <psa10 value="0.0785616315" flag="0"/>
      <psa30 value="0.0069367560" flag="0"/>
    </comp>
  </station>
  <station code="BOO" name="BOO" netid="OX" insttype="" lat="46.3195" lon="13.0984">
    <comp name="--.HHE">
      <acc value="0.1857440941" flag="0"/>
      <vel value="0.0425388997" flag="0"/>
      <psa03 value="0.1940774195" flag="0"/>
      <psa10 value="0.0215863521" flag="0"/>
      <psa30 value="0.0018228368" flag="0"/>
    </comp>
    <comp name="--.HHN">
      <acc value="0.2727197065" flag="0"/>
      <vel value="0.0729471093" flag="0"/>
      <psa03 value="0.4372205842" flag="0"/>
      <psa10 value="0.0340249560" flag="0"/>
      <psa30 value="0.0025318317" flag="0"/>
    </comp>
    <comp name="--.HHZ">
      <acc value="0.2062575267" flag="0"/>
      <vel value="0.0481093980" flag="0"/>
      <psa03 value="0.1960004669" flag="0"/>
      <psa10 value="0.0173408620" flag="0"/>
      <psa30 value="0.0010812475" flag="0"/>
    </comp>
  </station>
  <station code="CAE" name="CAE" netid="OX" insttype="" lat="46.009" lon="12.4379">
    <comp name="--.HHE">
      <acc value="0.0366188986" flag="0"/>
      <vel value="0.0174160882" flag="0"/>
      <psa03 value="0.1148580181" flag="0"/>
      <psa10 value="0.0047907585" flag="0"/>
      <psa30 value="0.0007198904" flag="0"/>
    </comp>
    <comp name="--.HHN">
      <acc value="0.0333000328" flag="0"/>
      <vel value="0.0143363448" flag="0"/>
      <psa03 value="0.0941592496" flag="0"/>
      <psa10 value="0.0047526862" flag="0"/>
      <psa30 value="0.0008286219" flag="0"/>
    </comp>
    <comp name="--.HHZ">
      <acc value="0.0159373822" flag="0"/>
      <vel value="0.0063934654" flag="0"/>
      <psa03 value="0.0572983278" flag="0"/>
      <psa10 value="0.0032380952" flag="0"/>
      <psa30 value="0.0002336355" flag="0"/>
    </comp>
  </station>
  <station code="CIMO" name="CIMO" netid="OX" insttype="" lat="46.3116" lon="12.4448">
    <comp name="--.HHE">
      <acc value="0.0094299993" flag="0"/>
      <vel value="0.0021125048" flag="0"/>
      <psa03 value="0.0106065654" flag="0"/>
      <psa10 value="0.0012321623" flag="0"/>
      <psa30 value="0.0001541278" flag="0"/>
    </comp>
    <comp name="--.HHN">
      <acc value="0.0083721292" flag="0"/>
      <vel value="0.0030546206" flag="0"/>
      <psa03 value="0.0125357778" flag="0"/>
      <psa10 value="0.0029727100" flag="0"/>
      <psa30 value="0.0001971074" flag="0"/>
    </comp>
    <comp name="--.HHZ">
      <acc value="0.0083891767" flag="0"/>
      <vel value="0.0022297872" flag="0"/>
      <psa03 value="0.0133677420" flag="0"/>
      <psa10 value="0.0018278478" flag="0"/>
      <psa30 value="0.0001903811" flag="0"/>
    </comp>
  </station>
  <station code="CLUD" name="CLUD" netid="OX" insttype="" lat="46.4569" lon="12.8814">
    <comp name="--.HHE">
      <acc value="0.0232262127" flag="0"/>
      <vel value="0.0054901715" flag="0"/>
      <psa03 value="0.0417173070" flag="0"/>
      <psa10 value="0.0060852140" flag="0"/>
      <psa30 value="0.0006810061" flag="0"/>
    </comp>
    <comp name="--.HHN">
      <acc value="0.0231277275" flag="0"/>
      <vel value="0.0074842341" flag="0"/>
      <psa03 value="0.0262092021" flag="0"/>
      <psa10 value="0.0123111883" flag="0"/>
      <psa30 value="0.0007149463" flag="0"/>
    </comp>
    <comp name="--.HHZ">
      <acc value="0.0211418662" flag="0"/>
      <vel value="0.0092772723" flag="0"/>
      <psa03 value="0.0431940065" flag="0"/>
      <psa10 value="0.0111710950" flag="0"/>
      <psa30 value="0.0006367463" flag="0"/>
    </comp>
  </station>
  <station code="DRE" name="DRE" netid="OX" insttype="" lat="46.1733" lon="13.645">
    <comp name="--.HHN">
      <acc value="2.7082203649" flag="0"/>
      <vel value="0.4335679052" flag="0"/>
      <psa03 value="1.0556072203" flag="0"/>
      <psa10 value="0.0955259065" flag="0"/>
      <psa30 value="0.0061805349" flag="0"/>
    </comp>
    <comp name="--.HHE">
      <acc value="2.9579982421" flag="0"/>
      <vel value="0.4978280240" flag="0"/>
      <psa03 value="1.4537512899" flag="0"/>
      <psa10 value="0.0957172950" flag="0"/>
      <psa30 value="0.0106613744" flag="0"/>
    </comp>
    <comp name="--.HHZ">
      <acc value="1.1172642486" flag="0"/>
      <vel value="0.2033483720" flag="0"/>
      <psa03 value="0.6589170861" flag="0"/>
      <psa10 value="0.0292595741" flag="0"/>
      <psa30 value="0.0034073387" flag="0"/>
    </comp>
  </station>
  <station code="FUSE" name="FUSE" netid="OX" insttype="" lat="46.4142" lon="13.0011">
    <comp name="--.HHE">
      <acc value="0.0920261009" flag="0"/>
      <vel value="0.0252702669" flag="0"/>
      <psa03 value="0.1089322771" flag="0"/>
      <psa10 value="0.0113414119" flag="0"/>
      <psa30 value="0.0007371233" flag="0"/>
    </comp>
    <comp name="--.HHN">
      <acc value="0.1506548814" flag="0"/>
      <vel value="0.0272987538" flag="0"/>
      <psa03 value="0.0929241053" flag="0"/>
      <psa10 value="0.0195194426" flag="0"/>
      <psa30 value="0.0012173039" flag="0"/>
    </comp>
    <comp name="--.HHZ">
      <acc value="0.0845897460" flag="0"/>
      <vel value="0.0192508476" flag="0"/>
      <psa03 value="0.0558430129" flag="0"/>
      <psa10 value="0.0150911297" flag="0"/>
      <psa30 value="0.0006992395" flag="0"/>
    </comp>
  </station>
  <station code="MLN" name="MLN" netid="OX" insttype="" lat="46.1495" lon="12.6154">
    <comp name="--.HHE">
      <acc value="0.0275339773" flag="0"/>
      <vel value="0.0099307565" flag="0"/>
      <psa03 value="0.0728561714" flag="0"/>
      <psa10 value="0.0067864819" flag="0"/>
      <psa30 value="0.0003594959" flag="0"/>
    </comp>
    <comp name="--.HHN">
      <acc value="0.0233126593" flag="0"/>
      <vel value="0.0078398582" flag="0"/>
      <psa03 value="0.0638016570" flag="0"/>
      <psa10 value="0.0070738988" flag="0"/>
      <psa30 value="0.0008345966" flag="0"/>
    </comp>
    <comp name="--.HHZ">
      <acc value="0.0194791962" flag="0"/>
      <vel value="0.0060769817" flag="0"/>
      <psa03 value="0.0308936896" flag="0"/>
      <psa10 value="0.0047559295" flag="0"/>
      <psa30 value="0.0006460112" flag="0"/>
    </comp>
  </station>
  <station code="MPRI" name="MPRI" netid="OX" insttype="" lat="46.2408" lon="12.9877">
    <comp name="--.HHE">
      <acc value="0.1554933138" flag="0"/>
      <vel value="0.0453479542" flag="0"/>
      <psa03 value="0.2277455561" flag="0"/>
      <psa10 value="0.0256931624" flag="0"/>
      <psa30 value="0.0020904752" flag="0"/>
    </comp>
    <comp name="--.HHN">
      <acc value="0.2279886548" flag="0"/>
      <vel value="0.0602791074" flag="0"/>
      <psa03 value="0.4358635705" flag="0"/>
      <psa10 value="0.0301941773" flag="0"/>
      <psa30 value="0.0026160821" flag="0"/>
    </comp>
    <comp name="--.HHZ">
      <acc value="0.1796160868" flag="0"/>
      <vel value="0.0339012556" flag="0"/>
      <psa03 value="0.2073728391" flag="0"/>
      <psa10 value="0.0204572666" flag="0"/>
      <psa30 value="0.0014503412" flag="0"/>
    </comp>
  </station>
  <station code="PLRO" name="PLRO" netid="OX" insttype="" lat="46.5491" lon="13.1481">
    <comp name="--.HHE">
      <acc value="0.6852519047" flag="0"/>
      <vel value="0.1273994476" flag="0"/>
      <psa03 value="0.2197672264" flag="0"/>
      <psa10 value="0.0144265547" flag="0"/>
      <psa30 value="0.0024511616" flag="0"/>
    </comp>
    <comp name="--.HHN">
      <acc value="0.5790454604" flag="0"/>
      <vel value="0.1285264711" flag="0"/>
      <psa03 value="0.6827159937" flag="0"/>
      <psa10 value="0.0274323591" flag="0"/>
      <psa30 value="0.0039678997" flag="0"/>
    </comp>
    <comp name="--.HHZ">
      <acc value="0.2778715596" flag="0"/>
      <vel value="0.0566372582" flag="0"/>
      <psa03 value="0.1667090445" flag="0"/>
      <psa10 value="0.0129446422" flag="0"/>
      <psa30 value="0.0014571840" flag="0"/>
    </comp>
  </station>
  <station code="PRED" name="PRED" netid="OX" insttype="" lat="46.4428" lon="13.565">
    <comp name="--.HNE">
      <acc value="0.6826266463" flag="0"/>
      <vel value="0.0909002746" flag="0"/>
      <psa03 value="0.4111166990" flag="0"/>
      <psa10 value="0.0332298900" flag="0"/>
      <psa30 value="0.0017490265" flag="0"/>
    </comp>
    <comp name="--.HNN">
      <acc value="0.7827284116" flag="0"/>
      <vel value="0.1006272497" flag="0"/>
      <psa03 value="0.3296706351" flag="0"/>
      <psa10 value="0.0384746136" flag="0"/>
      <psa30 value="0.0035100152" flag="0"/>
    </comp>
    <comp name="--.HNZ">
      <acc value="0.5884982457" flag="0"/>
      <vel value="0.0871722337" flag="0"/>
      <psa03 value="0.3719499115" flag="0"/>
      <psa10 value="0.0580735428" flag="0"/>
      <psa30 value="0.0033558119" flag="0"/>
    </comp>
  </station>
  <station code="SABO" name="SABO" netid="OX" insttype="" lat="45.9875" lon="13.6336">
    <comp name="--.HHN">
      <acc value="0.8064667995" flag="0"/>
      <vel value="0.2372741759" flag="0"/>
      <psa03 value="0.5850205688" flag="0"/>
      <psa10 value="0.0649374251" flag="0"/>
      <psa30 value="0.0050004691" flag="0"/>
    </comp>
    <comp name="--.HHE">
      <acc value="0.6547343933" flag="0"/>
      <vel value="0.1858282580" flag="0"/>
      <psa03 value="0.8467572199" flag="0"/>
      <psa10 value="0.1219234397" flag="0"/>
