<stationlist created="1778069728">
	<station code="AVS" name="AVS" netid="IT" source="Italian Strong Motion Network (RAN)" insttype="" lat="46.2946" lon="13.0497">
		<comp name="--.HNE" depth="0.0">
			<acc value="0.312955788" flag="0"/>
			<vel value="0.05013" flag="0"/>
			<psa03 value="0.128231164167967" flag="0"/>
			<psa10 value="0.0138280263774431" flag="0"/>
			<psa30 value="0.00107291811470616" flag="0"/>
		</comp>
		<comp name="--.HNN" depth="0.0">
			<acc value="0.342484584" flag="0"/>
			<vel value="0.062064" flag="0"/>
			<psa03 value="0.148812579212372" flag="0"/>
			<psa10 value="0.0189098462051464" flag="0"/>
			<psa30 value="0.0014290660793876" flag="0"/>
		</comp>
		<comp name="--.HNZ" depth="0.0">
			<acc value="0.193130778" flag="0"/>
			<vel value="0.028571" flag="0"/>
			<psa03 value="0.181071710184146" flag="0"/>
			<psa10 value="0.0124750220493065" flag="0"/>
			<psa30 value="0.00131497345251101" flag="0"/>
		</comp>
	</station>
	<station code="BLL" name="BLL" netid="IT" source="Italian Strong Motion Network (RAN)" insttype="" lat="46.1594" lon="12.2364">
		<comp name="--.HGE" depth="0.0">
			<acc value="0.03735648" flag="0"/>
			<vel value="0.013727" flag="0"/>
			<psa03 value="0.112437165231717" flag="0"/>
			<psa10 value="0.00800930240673683" flag="0"/>
			<psa30 value="0.000541380700081088" flag="0"/>
		</comp>
		<comp name="--.HGN" depth="0.0">
			<acc value="0.059369916" flag="0"/>
			<vel value="0.031025" flag="0"/>
			<psa03 value="0.0855918412607539" flag="0"/>
			<psa10 value="0.0143313762018986" flag="0"/>
			<psa30 value="0.00111497578892733" flag="0"/>
		</comp>
		<comp name="--.HGZ" depth="0.0">
			<acc value="0.0089352" flag="0"/>
			<vel value="0.002682" flag="0"/>
			<psa03 value="0.0122593646134065" flag="0"/>
			<psa10 value="0.00165098742421423" flag="0"/>
			<psa30 value="0.000137805996384277" flag="0"/>
		</comp>
	</station>
	<station code="BRC" name="BRC" netid="IT" source="Italian Strong Motion Network (RAN)" insttype="" lat="46.1857" lon="12.5518">
		<comp name="--.HGE" depth="0.0">
			<acc value="0.068246466" flag="0"/>
			<vel value="0.008777" flag="0"/>
			<psa03 value="0.0321249043519191" flag="0"/>
			<psa10 value="0.00548449968726775" flag="0"/>
			<psa30 value="0.000325723264181018" flag="0"/>
		</comp>
		<comp name="--.HGN" depth="0.0">
			<acc value="0.039728592" flag="0"/>
			<vel value="0.006611" flag="0"/>
			<psa03 value="0.0286797544423122" flag="0"/>
			<psa10 value="0.00424021892121361" flag="0"/>
			<psa30 value="0.000310958335996989" flag="0"/>
		</comp>
		<comp name="--.HGZ" depth="0.0">
			<acc value="0.017100096" flag="0"/>
			<vel value="0.003102" flag="0"/>
			<psa03 value="0.0113197782744228" flag="0"/>
			<psa10 value="0.00329392125123717" flag="0"/>
			<psa30 value="0.000189706956061472" flag="0"/>
		</comp>
	</station>
	<station code="CHF" name="CHF" netid="IT" source="Italian Strong Motion Network (RAN)" insttype="" lat="46.3887" lon="13.4737">
		<comp name="--.HGE" depth="0.0">
			<acc value="3.319023798" flag="0"/>
			<vel value="0.706808" flag="0"/>
			<psa03 value="2.21536561849711" flag="0"/>
			<psa10 value="0.188623299817178" flag="0"/>
			<psa30 value="0.0129564481925191" flag="0"/>
		</comp>
		<comp name="--.HGN" depth="0.0">
			<acc value="3.773032224" flag="0"/>
			<vel value="0.563943" flag="0"/>
			<psa03 value="1.8495085949795" flag="0"/>
			<psa10 value="0.132614558150359" flag="0"/>
			<psa30 value="0.0102799693926141" flag="0"/>
		</comp>
		<comp name="--.HGZ" depth="0.0">
			<acc value="6.640247736" flag="0"/>
			<vel value="1.042797" flag="0"/>
			<psa03 value="1.72230650156375" flag="0"/>
			<psa10 value="0.0807856334258191" flag="0"/>
			<psa30 value="0.00911890913086996" flag="0"/>
		</comp>
	</station>
	<station code="CLA" name="CLA" netid="IT" source="Italian Strong Motion Network (RAN)" insttype="" lat="46.2713" lon="12.5141">
		<comp name="--.HNE" depth="0.0">
			<acc value="0.014806218" flag="0"/>
			<vel value="0.004211" flag="0"/>
			<psa03 value="0.0333776861372307" flag="0"/>
			<psa10 value="0.00300399175235077" flag="0"/>
			<psa30 value="0.000327512952445749" flag="0"/>
		</comp>
		<comp name="--.HNN" depth="0.0">
			<acc value="0.01472217" flag="0"/>
			<vel value="0.004628" flag="0"/>
			<psa03 value="0.026174190871689" flag="0"/>
			<psa10 value="0.0026174190871689" flag="0"/>
			<psa30 value="0.000412970567086648" flag="0"/>
		</comp>
		<comp name="--.HNZ" depth="0.0">
			<acc value="0.012349956" flag="0"/>
			<vel value="0.003546" flag="0"/>
			<psa03 value="0.0257715110121245" flag="0"/>
			<psa10 value="0.00193286332590934" flag="0"/>
			<psa30 value="0.000292166609217315" flag="0"/>
		</comp>
	</station>
	<station code="CVD" name="CVD" netid="IT" source="Italian Strong Motion Network (RAN)" insttype="" lat="46.0888" lon="13.3998">
		<comp name="--.HGE" depth="0.0">
			<acc value="1.16412702" flag="0"/>
			<vel value="0.324412" flag="0"/>
			<psa03 value="1.09833168806534" flag="0"/>
			<psa10 value="0.0788084753153577" flag="0"/>
			<psa30 value="0.0100781820407657" flag="0"/>
		</comp>
		<comp name="--.HGN" depth="0.0">
			<acc value="0.966740598" flag="0"/>
			<vel value="0.294022" flag="0"/>
			<psa03 value="1.05752679562947" flag="0"/>
			<psa10 value="0.0689347651588375" flag="0"/>
			<psa30 value="0.00668761762323308" flag="0"/>
		</comp>
		<comp name="--.HGZ" depth="0.0">
			<acc value="0.501638958" flag="0"/>
			<vel value="0.125944" flag="0"/>
			<psa03 value="0.551805634223146" flag="0"/>
			<psa10 value="0.0556986781749541" flag="0"/>
			<psa30 value="0.00500620549851843" flag="0"/>
		</comp>
	</station>
	<station code="CVF" name="CVF" netid="IT" source="Italian Strong Motion Network (RAN)" insttype="" lat="46.0918" lon="13.429">
		<comp name="--.HNE" depth="0.0">
			<acc value="6.468600504" flag="0"/>
			<vel value="1.316977" flag="0"/>
			<psa03 value="3.6363333584868" flag="0"/>
			<psa10 value="0.226821511295461" flag="0"/>
			<psa30 value="0.0192279632942023" flag="0"/>
		</comp>
		<comp name="--.HNN" depth="0.0">
			<acc value="4.502559888" flag="0"/>
			<vel value="0.773321" flag="0"/>
			<psa03 value="2.49576502737382" flag="0"/>
			<psa10 value="0.0974646332089785" flag="0"/>
			<psa30 value="0.0091748368891428" flag="0"/>
		</comp>
		<comp name="--.HNZ" depth="0.0">
			<acc value="4.009866126" flag="0"/>
			<vel value="0.725718" flag="0"/>
			<psa03 value="0.876052405585761" flag="0"/>
			<psa10 value="0.0895439203713458" flag="0"/>
			<psa30 value="0.00809833939790719" flag="0"/>
		</comp>
	</station>
	<station code="DANT" name="DANT" netid="IT" source="Italian Strong Motion Network (RAN)" insttype="" lat="46.5675" lon="12.5199">
		<comp name="--.HNE" depth="0.0">
			<acc value="0.021391542" flag="0"/>
			<vel value="0.006947" flag="0"/>
			<psa03 value="0.0395968528571705" flag="0"/>
			<psa10 value="0.00859318820310527" flag="0"/>
			<psa30 value="0.000412970567086648" flag="0"/>
		</comp>
		<comp name="--.HNN" depth="0.0">
			<acc value="0.021096354" flag="0"/>
			<vel value="0.010103" flag="0"/>
			<psa03 value="0.0383888132784772" flag="0"/>
			<psa10 value="0.00944284270678625" flag="0"/>
			<psa30 value="0.000378071645924396" flag="0"/>
		</comp>
		<comp name="--.HNZ" depth="0.0">
			<acc value="0.007622154" flag="0"/>
			<vel value="0.003828" flag="0"/>
			<psa03 value="0.0139148262582825" flag="0"/>
			<psa10 value="0.00309258132145494" flag="0"/>
			<psa30 value="0.000229974942017917" flag="0"/>
		</comp>
	</station>
	<station code="DRN" name="DRN" netid="IT" source="Italian Strong Motion Network (RAN)" insttype="" lat="46.1666" lon="13.6417">
		<comp name="--.HNE" depth="0.0">
			<acc value="1.055708568" flag="0"/>
			<vel value="0.288644" flag="0"/>
			<psa03 value="1.51237606811082" flag="0"/>
			<psa10 value="0.0976579195415694" flag="0"/>
			<psa30 value="0.00697307290145765" flag="0"/>
		</comp>
		<comp name="--.HNN" depth="0.0">
			<acc value="1.339144332" flag="0"/>
			<vel value="0.241353" flag="0"/>
			<psa03 value="0.588360017030274" flag="0"/>
			<psa10 value="0.101390761839732" flag="0"/>
			<psa30 value="0.00678694532192564" flag="0"/>
		</comp>
		<comp name="--.HNZ" depth="0.0">
			<acc value="1.003951116" flag="0"/>
			<vel value="0.136699" flag="0"/>
			<psa03 value="0.511358679440228" flag="0"/>
			<psa10 value="0.0396317517783328" flag="0"/>
			<psa30 value="0.00319056675394896" flag="0"/>
		</comp>
	</station>
	<station code="FAG" name="FAG" netid="IT" source="Italian Strong Motion Network (RAN)" insttype="" lat="46.098" lon="13.0914">
		<comp name="--.HGE" depth="0.0">
			<acc value="0.297649668" flag="0"/>
			<vel value="0.072504" flag="0"/>
			<psa03 value="0.390465237157658" flag="0"/>
			<psa10 value="0.0924955637419532" flag="0"/>
			<psa30 value="0.00415162935210944" flag="0"/>
		</comp>
		<comp name="--.HGN" depth="0.0">
			<acc value="0.38436048" flag="0"/>
			<vel value="0.089171" flag="0"/>
			<psa03 value="0.461829056713801" flag="0"/>
			<psa10 value="0.0843694841759427" flag="0"/>
			<psa30 value="0.00523125879780833" flag="0"/>
		</comp>
		<comp name="--.HGZ" depth="0.0">
			<acc value="0.177795384" flag="0"/>
			<vel value="0.036375" flag="0"/>
			<psa03 value="0.18899108075558" flag="0"/>
			<psa10 value="0.029005030284427" flag="0"/>
			<psa30 value="0.0015767153612279" flag="0"/>
		</comp>
	</station>
	<station code="FDS" name="FDS" netid="IT" source="Italian Strong Motion Network (RAN)" insttype="" lat="46.4513" lon="12.5627">
		<comp name="--.HGE" depth="0.0">
			<acc value="0.015954636" flag="0"/>
			<vel value="0.00619" flag="0"/>
			<psa03 value="0.0228632675819369" flag="0"/>
			<psa10 value="0.00454222881588695" flag="0"/>
			<psa30 value="0.00074585258432659" flag="0"/>
		</comp>
		<comp name="--.HGN" depth="0.0">
			<acc value="0.014753382" flag="0"/>
			<vel value="0.005324" flag="0"/>
			<psa03 value="0.0263531596981621" flag="0"/>
			<psa10 value="0.0029073485860553" flag="0"/>
			<psa30 value="0.000446527222050352" flag="0"/>
		</comp>
		<comp name="--.HGZ" depth="0.0">
			<acc value="0.012114438" flag="0"/>
			<vel value="0.003299" flag="0"/>
			<psa03 value="0.0188812111929107" flag="0"/>
			<psa10 value="0.00326573366106765" flag="0"/>
			<psa30 value="0.000453238553043093" flag="0"/>
		</comp>
	</station>
	<station code="FLP" name="FLP" netid="IT" source="Italian Strong Motion Network (RAN)" insttype="" lat="46.0266" lon="11.9225">
		<comp name="--.HGE" depth="0.0">
			<acc value="0.0696456" flag="0"/>
			<vel value="0.019811" flag="0"/>
			<psa03 value="0.0656368171090047" flag="0"/>
			<psa10 value="0.00514624860523362" flag="0"/>
			<psa30 value="0.000475609656352229" flag="0"/>
		</comp>
		<comp name="--.HGN" depth="0.0">
			<acc value="0.086775276" flag="0"/>
			<vel value="0.017412" flag="0"/>
			<psa03 value="0.0600440412817207" flag="0"/>
			<psa10 value="0.0102482024259151" flag="0"/>
			<psa30 value="0.000742273207797128" flag="0"/>
		</comp>
		<comp name="--.HGZ" depth="0.0">
			<acc value="0.024434406" flag="0"/>
			<vel value="0.006673" flag="0"/>
			<psa03 value="0.0251003779128505" flag="0"/>
			<psa10 value="0.00492074788387753" flag="0"/>
			<psa30 value="0.00026174190871689" flag="0"/>
		</comp>
	</station>
	<station code="LTSN" name="LTSN" netid="IT" source="Italian Strong Motion Network (RAN)" insttype="" lat="45.7929" lon="13.0191">
		<comp name="--.HNE" depth="0.0">
			<acc value="0.107640804" flag="0"/>
			<vel value="0.043411" flag="0"/>
			<psa03 value="0.2397287430607" flag="0"/>
			<psa10 value="0.0902969317087313" flag="0"/>
			<psa30 value="0.00697038836906056" flag="0"/>
		</comp>
		<comp name="--.HNN" depth="0.0">
			<acc value="0.156623346" flag="0"/>
			<vel value="0.053479" flag="0"/>
			<psa03 value="0.264247472287513" flag="0"/>
			<psa10 value="0.032447943083703" flag="0"/>
			<psa30 value="0.00599008662205422" flag="0"/>
		</comp>
		<comp name="--.HNZ" depth="0.0">
			<acc value="0.05682165" flag="0"/>
			<vel value="0.016707" flag="0"/>
			<psa03 value="0.105009958933084" flag="0"/>
			<psa10 value="0.0263835843986625" flag="0"/>
			<psa30 value="0.0018250346079593" flag="0"/>
		</comp>
	</station>
	<station code="MAI" name="MAI" netid="IT" source="Italian Strong Motion Network (RAN)" insttype="" lat="46.1853" lon="13.0692">
		<comp name="--.HGE" depth="0.0">
			<acc value="0.422891184" flag="0"/>
			<vel value="0.094213" flag="0"/>
			<psa03 value="0.425274673906673" flag="0"/>
			<psa10 value="0.0466383813347541" flag="0"/>
			<psa30 value="0.00351852712846089" flag="0"/>
		</comp>
		<comp name="--.HGN" depth="0.0">
			<acc value="0.479950596" flag="0"/>
			<vel value="0.11191" flag="0"/>
			<psa03 value="0.483484284717045" flag="0"/>
			<psa10 value="0.0478907156979995" flag="0"/>
			<psa30 value="0.00539188331956793" flag="0"/>
		</comp>
		<comp name="--.HGZ" depth="0.0">
			<acc value="0.24955932" flag="0"/>
			<vel value="0.07192" flag="0"/>
			<psa03 value="0.544512654544367" flag="0"/>
			<psa10 value="0.0305553477437501" flag="0"/>
			<psa30 value="0.00181787585490038" flag="0"/>
		</comp>
	</station>
	<station code="PAS" name="PAS" netid="IT" source="Italian Strong Motion Network (RAN)" insttype="" lat="45.8515" lon="12.629">
		<comp name="--.HNE" depth="0.0">
			<acc value="0.089402592" flag="0"/>
			<vel value="0.040642" flag="0"/>
			<psa03 value="0.16438286711553" flag="0"/>
			<psa10 value="0.0478021261288954" flag="0"/>
			<psa30 value="0.00423350759022087" flag="0"/>
		</comp>
		<comp name="--.HNN" depth="0.0">
			<acc value="0.119233512" flag="0"/>
			<vel value="0.034305" flag="0"/>
			<psa03 value="0.302323090119662" flag="0"/>
			<psa10 value="0.0424867519826447" flag="0"/>
			<psa30 value="0.00427109104378022" flag="0"/>
		</comp>
		<comp name="--.HNZ" depth="0.0">
			<acc value="0.039274794" flag="0"/>
			<vel value="0.012429" flag="0"/>
			<psa03 value="0.0596861036287745" flag="0"/>
			<psa10 value="0.0124830756464978" flag="0"/>
			<psa30 value="0.00109663148421384" flag="0"/>
		</comp>
	</station>
	<station code="PNAL" name="PNAL" netid="IT" source="Italian Strong Motion Network (RAN)" insttype="" lat="46.1729" lon="12.2987">
		<comp name="--.HNE" depth="0.0">
			<acc value="0.018365712" flag="0"/>
			<vel value="0.004575" flag="0"/>
			<psa03 value="0.0137805996384277" flag="0"/>
			<psa10 value="0.00226708760934783" flag="0"/>
			<psa30 value="0.00025682026598888" flag="0"/>
		</comp>
		<comp name="--.HNN" depth="0.0">
			<acc value="0.014253072" flag="0"/>
			<vel value="0.004144" flag="0"/>
			<psa03 value="0.0161071943825778" flag="0"/>
			<psa10 value="0.00355163636135841" flag="0"/>
			<psa30 value="0.000291719187151132" flag="0"/>
		</comp>
		<comp name="--.HNZ" depth="0.0">
			<acc value="0.009417456" flag="0"/>
			<vel value="0.002781" flag="0"/>
			<psa03 value="0.0145859593575566" flag="0"/>
			<psa10 value="0.00306036693268979" flag="0"/>
			<psa30 value="0.000155255456965403" flag="0"/>
		</comp>
	</station>
	<station code="PON" name="PON" netid="IT" source="Italian Strong Motion Network (RAN)" insttype="" lat="46.5072" lon="13.3048">
		<comp name="--.HGE" depth="0.0">
			<acc value="0.696284232" flag="0"/>
			<vel value="0.22007" flag="0"/>
			<psa03 value="0.868804168113601" flag="0"/>
			<psa10 value="0.0976015443612304" flag="0"/>
			<psa30 value="0.00707866450907677" flag="0"/>
		</comp>
		<comp name="--.HGN" depth="0.0">
			<acc value="0.842844564" flag="0"/>
			<vel value="0.22285" flag="0"/>
			<psa03 value="0.90119752570523" flag="0"/>
			<psa10 value="0.0581751593112755" flag="0"/>
			<psa30 value="0.0038625946973554" flag="0"/>
		</comp>
		<comp name="--.HGZ" depth="0.0">
			<acc value="0.439633872" flag="0"/>
			<vel value="0.096106" flag="0"/>
			<psa03 value="0.31945935525446" flag="0"/>
			<psa10 value="0.0347834862691768" flag="0"/>
			<psa30 value="0.00254941093310912" flag="0"/>
		</comp>
	</station>
	<station code="RST" name="RST" netid="IT" source="Italian Strong Motion Network (RAN)" insttype="" lat="46.3629" lon="13.3537">
		<comp name="--.HNE" depth="0.0">
			<acc value="0.88098624" flag="0"/>
			<vel value="0.259443" flag="0"/>
			<psa03 value="0.857797585285506" flag="0"/>
			<psa10 value="0.0657254066781088" flag="0"/>
			<psa30 value="0.00576682301102904" flag="0"/>
		</comp>
		<comp name="--.HNN" depth="0.0">
			<acc value="1.20638256" flag="0"/>
			<vel value="0.223798" flag="0"/>
			<psa03 value="0.832697207372656" flag="0"/>
			<psa10 value="0.0675978680250835" flag="0"/>
			<psa30 value="0.00429077761469226" flag="0"/>
		</comp>
		<comp name="--.HNZ" depth="0.0">
			<acc value="1.303693518" flag="0"/>
			<vel value="0.238612" flag="0"/>
			<psa03 value="0.612878746257087" flag="0"/>
			<psa10 value="0.0719387569111882" flag="0"/>
			<psa30 value="0.00507824045117384" flag="0"/>
		</comp>
	</station>
	<station code="SAC" name="SAC" netid="IT" source="Italian Strong Motion Network (RAN)" insttype="" lat="45.968" lon="12.532">
		<comp name="--.HNE" depth="0.0">
			<acc value="0.073686738" flag="0"/>
			<vel value="0.059951" flag="0"/>
			<psa03 value="0.170781002661943" flag="0"/>
			<psa10 value="0.0630073176260488" flag="0"/>
			<psa30 value="0.00398653060968801" flag="0"/>
		</comp>
		<comp name="--.HNN" depth="0.0">
			<acc value="0.066595392" flag="0"/>
			<vel value="0.032332" flag="0"/>
			<psa03 value="0.135345175020272" flag="0"/>
			<psa10 value="0.0355606583981362" flag="0"/>
			<psa30 value="0.00294806399407793" flag="0"/>
		</comp>
		<comp name="--.HNZ" depth="0.0">
			<acc value="0.038008566" flag="0"/>
			<vel value="0.018354" flag="0"/>
			<psa03 value="0.0688582559855202" flag="0"/>
			<psa10 value="0.0325687470415724" flag="0"/>
			<psa30 value="0.00172660175339911" flag="0"/>
		</comp>
	</station>
	<station code="SDF" name="SDF" netid="IT" source="Italian Strong Motion Network (RAN)" insttype="" lat="46.1669" lon="13.0075">
		<comp name="--.HGE" depth="0.0">
			<acc value="0.289871148" flag="0"/>
			<vel value="0.063496" flag="0"/>
			<psa03 value="0.281741675075257" flag="0"/>
			<psa10 value="0.0451806802431308" flag="0"/>
			<psa30 value="0.00342591076076107" flag="0"/>
		</comp>
		<comp name="--.HGN" depth="0.0">
			<acc value="0.403894704" flag="0"/>
			<vel value="0.089833" flag="0"/>
			<psa03 value="0.3660807345507" flag="0"/>
			<psa10 value="0.0396317517783328" flag="0"/>
			<psa30 value="0.00311271531443317" flag="0"/>
		</comp>
		<comp name="--.HGZ" depth="0.0">
			<acc value="0.237325644" flag="0"/>
			<vel value="0.052426" flag="0"/>
			<psa03 value="0.220981758487644" flag="0"/>
			<psa10 value="0.0215272652923153" flag="0"/>
			<psa30 value="0.00118253652092092" flag="0"/>
		</comp>
	</station>
	<station code="SDV" name="SDV" netid="IT" source="Italian Strong Motion Network (RAN)" insttype="" lat="45.6281" lon="13.8967">
		<comp name="--.HGE" depth="0.0">
			<acc value="0.082782792" flag="0"/>
			<vel value="0.021296" flag="0"/>
			<psa03 value="0.0770013375900457" flag="0"/>
			<psa10 value="0.00847238424523594" flag="0"/>
			<psa30 value="0.000784778304084486" flag="0"/>
		</comp>
		<comp name="--.HGN" depth="0.0">
			<acc value="0.043612854" flag="0"/>
			<vel value="0.009554" flag="0"/>
			<psa03 value="0.0392836574108426" flag="0"/>
			<psa10 value="0.00644690455162678" flag="0"/>
			<psa30 value="0.000452343708910727" flag="0"/>
		</comp>
		<comp name="--.HGZ" depth="0.0">
			<acc value="0.038389332" flag="0"/>
			<vel value="0.01043" flag="0"/>
			<psa03 value="0.0363754139806549" flag="0"/>
			<psa10 value="0.00537980292378099" flag="0"/>
			<psa30 value="0.000387020087248051" flag="0"/>
		</comp>
	</station>
	<station code="SPI" name="SPI" netid="IT" source="Italian Strong Motion Network (RAN)" insttype="" lat="46.1082" lon="12.9058">
		<comp name="--.HNE" depth="0.0">
			<acc value="0.141728898" flag="0"/>
			<vel value="0.052778" flag="0"/>
			<psa03 value="0.387064829454669" flag="0"/>
			<psa10 value="0.0496101586983397" flag="0"/>
