<?xml version="1.0" encoding="UTF-8" standalone="yes"?>
<!DOCTYPE earthquake SYSTEM "stationlist.dtd">
<stationlist created="" xmlns="ch.ethz.sed.shakemap.usgs.xml">
  <station code="APE" name="APE" netid="GE" insttype="STS-2/N" lat="37.0727" lon="25.523">
    <comp name="--.HHZ">
      <acc value="0.1375841194" flag="0"/>
      <vel value="0.0274932764" flag="0"/>
      <psa03 value="0.1823983927" flag="0"/>
      <psa10 value="0.0156438348" flag="0"/>
      <psa30 value="0.0020595767" flag="0"/>
    </comp>
    <comp name="--.HHN">
      <acc value="0.2780453795" flag="0"/>
      <vel value="0.0681558555" flag="0"/>
      <psa03 value="0.2564871351" flag="0"/>
      <psa10 value="0.0145915146" flag="0"/>
      <psa30 value="0.0023798756" flag="0"/>
    </comp>
    <comp name="--.HHE">
      <acc value="0.3029297761" flag="0"/>
      <vel value="0.0971129389" flag="0"/>
      <psa03 value="0.3981750982" flag="0"/>
      <psa10 value="0.0186675711" flag="0"/>
      <psa30 value="0.0026817193" flag="0"/>
    </comp>
  </station>
  <station code="THERA" name="THERA" netid="GE" insttype="STS-2/N" lat="36.367" lon="25.4753">
    <comp name="--.HHZ">
      <acc value="0.1377237623" flag="0"/>
      <vel value="0.0248255028" flag="0"/>
      <psa03 value="0.1415496332" flag="0"/>
      <psa10 value="0.0122711926" flag="0"/>
      <psa30 value="0.0019579065" flag="0"/>
    </comp>
    <comp name="--.HHE">
      <acc value="0.1629074154" flag="0"/>
      <vel value="0.0289052483" flag="0"/>
      <psa03 value="0.1546923594" flag="0"/>
      <psa10 value="0.0147744188" flag="0"/>
      <psa30 value="0.0023550937" flag="0"/>
    </comp>
    <comp name="--.HHN">
      <acc value="0.0906155696" flag="0"/>
      <vel value="0.0185268182" flag="0"/>
      <psa03 value="0.1234370968" flag="0"/>
      <psa10 value="0.0073302044" flag="0"/>
      <psa30 value="0.0011813438" flag="0"/>
    </comp>
  </station>
</stationlist>
