<?xml version="1.0" encoding="UTF-8" standalone="yes"?>
<!DOCTYPE earthquake SYSTEM "stationlist.dtd">
<stationlist created="" xmlns="ch.ethz.sed.shakemap.usgs.xml">
  <station code="ATHR" name="ATHR" netid="HA" insttype="GEOtiny," lat="38.3172" lon="20.4165">
    <comp name="--.HHN">
      <acc value="0.2625010035" flag="0"/>
      <vel value="0.0748170943" flag="0"/>
      <psa03 value="0.1854372071" flag="0"/>
      <psa10 value="0.0688609413" flag="0"/>
      <psa30 value="0.0031938921" flag="0"/>
    </comp>
    <comp name="--.HHZ">
      <acc value="0.4470195357" flag="0"/>
      <vel value="0.0831586385" flag="0"/>
      <psa03 value="0.2062808130" flag="0"/>
      <psa10 value="0.0784368172" flag="0"/>
      <psa30 value="0.0035876735" flag="0"/>
    </comp>
    <comp name="--.HHE">
      <acc value="0.4476835355" flag="0"/>
      <vel value="0.1567719887" flag="0"/>
      <psa03 value="0.2819597462" flag="0"/>
      <psa10 value="0.1463914006" flag="0"/>
      <psa30 value="0.0108801503" flag="0"/>
    </comp>
  </station>
  <station code="HAVD" name="HAVD" netid="HA" insttype="GEOtiny," lat="38.2036" lon="20.3848">
    <comp name="--.HHE">
      <acc value="3.5546502609" flag="0"/>
      <vel value="0.5856378918" flag="0"/>
      <psa03 value="1.7002684542" flag="0"/>
      <psa10 value="0.1791981982" flag="0"/>
      <psa30 value="0.0190940372" flag="0"/>
    </comp>
    <comp name="--.HHZ">
      <acc value="1.3504180506" flag="0"/>
      <vel value="0.2119707707" flag="0"/>
      <psa03 value="0.6749033578" flag="0"/>
      <psa10 value="0.0636796309" flag="0"/>
      <psa30 value="0.0031473745" flag="0"/>
    </comp>
    <comp name="--.HHN">
      <acc value="1.6281125457" flag="0"/>
      <vel value="0.3950759031" flag="0"/>
      <psa03 value="1.2547482426" flag="0"/>
      <psa10 value="0.1221672260" flag="0"/>
      <psa30 value="0.0124387990" flag="0"/>
    </comp>
  </station>
  <station code="ARG2" name="ARG2" netid="HI" insttype="CMG-5TD,ACCELEROMETER,GURALP" lat="38.1783" lon="20.4878">
    <comp name="--.HNE">
      <acc value="6.2604027967" flag="0"/>
      <vel value="1.2005887234" flag="0"/>
      <psa03 value="2.2858861786" flag="0"/>
      <psa10 value="0.1528301089" flag="0"/>
      <psa30 value="0.0134889848" flag="0"/>
    </comp>
    <comp name="--.HNZ">
      <acc value="5.0213501071" flag="0"/>
      <vel value="0.7143916023" flag="0"/>
      <psa03 value="1.8196732169" flag="0"/>
      <psa10 value="0.0670727093" flag="0"/>
      <psa30 value="0.0102508551" flag="0"/>
    </comp>
    <comp name="--.HNN">
      <acc value="9.8981884164" flag="0"/>
      <vel value="1.9437174988" flag="0"/>
      <psa03 value="3.3191548108" flag="0"/>
      <psa10 value="0.3905878236" flag="0"/>
      <psa30 value="0.0338555855" flag="0"/>
    </comp>
  </station>
  <station code="KRI1" name="KRI1" netid="HI" insttype="CMG-5TD,ACCELEROMETER,GURALP" lat="37.6621" lon="20.8172">
    <comp name="--.HNZ">
      <acc value="0.0339671548" flag="0"/>
      <vel value="0.0101397871" flag="0"/>
      <psa03 value="0.0562551354" flag="0"/>
      <psa10 value="0.0115476446" flag="0"/>
      <psa30 value="0.0006647319" flag="0"/>
    </comp>
    <comp name="--.HNN">
      <acc value="0.0490401288" flag="0"/>
      <vel value="0.0260899382" flag="0"/>
      <psa03 value="0.1682079875" flag="0"/>
      <psa10 value="0.0270423741" flag="0"/>
      <psa30 value="0.0014717740" flag="0"/>
    </comp>
    <comp name="--.HNE">
      <acc value="0.0406597461" flag="0"/>
      <vel value="0.0205093445" flag="0"/>
      <psa03 value="0.2001032215" flag="0"/>
      <psa10 value="0.0172599759" flag="0"/>
      <psa30 value="0.0009084134" flag="0"/>
    </comp>
  </station>
  <station code="MSL1" name="MSL1" netid="HI" insttype="CMG-5TD,ACCELEROMETER,GURALP" lat="38.3727" lon="21.4243">
    <comp name="--.HNN">
      <acc value="0.0450455614" flag="0"/>
      <vel value="0.0305694195" flag="0"/>
      <psa03 value="0.1401552219" flag="0"/>
      <psa10 value="0.0418748137" flag="0"/>
      <psa30 value="0.0044187488" flag="0"/>
    </comp>
    <comp name="--.HNZ">
      <acc value="0.0181088656" flag="0"/>
      <vel value="0.0097130375" flag="0"/>
      <psa03 value="0.0628419444" flag="0"/>
      <psa10 value="0.0168549537" flag="0"/>
      <psa30 value="0.0008518937" flag="0"/>
    </comp>
    <comp name="--.HNE">
      <acc value="0.0327562169" flag="0"/>
      <vel value="0.0276032392" flag="0"/>
      <psa03 value="0.0996802973" flag="0"/>
      <psa10 value="0.0539783215" flag="0"/>
      <psa30 value="0.0028994564" flag="0"/>
    </comp>
  </station>
  <station code="VAS2" name="VAS2" netid="HI" insttype="CMG-5TD,ACCELEROMETER,GURALP" lat="38.6306" lon="20.6081">
    <comp name="--.HNE">
      <acc value="0.1160214133" flag="0"/>
      <vel value="0.0466564764" flag="0"/>
      <psa03 value="0.1937200613" flag="0"/>
      <psa10 value="0.0801966984" flag="0"/>
      <psa30 value="0.0042776191" flag="0"/>
    </comp>
    <comp name="--.HNN">
      <acc value="0.1489269866" flag="0"/>
      <vel value="0.0563071412" flag="0"/>
      <psa03 value="0.3045623147" flag="0"/>
      <psa10 value="0.1076450946" flag="0"/>
      <psa30 value="0.0041646061" flag="0"/>
    </comp>
    <comp name="--.HNZ">
      <acc value="0.0827479762" flag="0"/>
      <vel value="0.0252710913" flag="0"/>
      <psa03 value="0.1639218669" flag="0"/>
      <psa10 value="0.0459973522" flag="0"/>
      <psa30 value="0.0015634891" flag="0"/>
    </comp>
  </station>
  <station code="LXRA" name="LXRA" netid="HL" insttype="CMG-5" lat="38.2001" lon="20.4372">
    <comp name="00.HNE">
      <acc value="9.7786972543" flag="0"/>
      <vel value="1.4878098192" flag="0"/>
      <psa03 value="2.3342966870" flag="0"/>
      <psa10 value="0.3951897389" flag="0"/>
      <psa30 value="0.0292840108" flag="0"/>
    </comp>
    <comp name="00.HNN">
      <acc value="7.9170458083" flag="0"/>
      <vel value="1.3687624728" flag="0"/>
      <psa03 value="3.0069899349" flag="0"/>
      <psa10 value="0.3026923940" flag="0"/>
      <psa30 value="0.0354200353" flag="0"/>
    </comp>
    <comp name="00.HNZ">
      <acc value="5.6825993707" flag="0"/>
      <vel value="0.5763741275" flag="0"/>
      <psa03 value="0.7360640443" flag="0"/>
      <psa10 value="0.1062604498" flag="0"/>
      <psa30 value="0.0087663652" flag="0"/>
    </comp>
  </station>
  <station code="ORTH" name="ORTH" netid="HL" insttype="30" lat="37.8511" lon="20.6963">
    <comp name="--.HHN">
      <acc value="0.1739820829" flag="0"/>
      <vel value="0.0503810675" flag="0"/>
      <psa03 value="0.2893684023" flag="0"/>
      <psa10 value="0.0609483967" flag="0"/>
      <psa30 value="0.0035182018" flag="0"/>
    </comp>
    <comp name="--.HHE">
      <acc value="0.1303346862" flag="0"/>
      <vel value="0.0424344865" flag="0"/>
      <psa03 value="0.3457550381" flag="0"/>
      <psa10 value="0.0220465993" flag="0"/>
      <psa30 value="0.0022787082" flag="0"/>
    </comp>
    <comp name="--.HHZ">
      <acc value="0.0644298089" flag="0"/>
      <vel value="0.0153315546" flag="0"/>
      <psa03 value="0.0783201248" flag="0"/>
      <psa10 value="0.0154508839" flag="0"/>
      <psa30 value="0.0011126685" flag="0"/>
    </comp>
  </station>
  <station code="AMPL" name="AMPL" netid="HP" insttype="Compact," lat="38.9224" lon="21.2135">
    <comp name="--.HHE">
      <acc value="0.0133485991" flag="0"/>
      <vel value="0.0063769888" flag="0"/>
      <psa03 value="0.0269699522" flag="0"/>
      <psa10 value="0.0067480090" flag="0"/>
      <psa30 value="0.0006730855" flag="0"/>
    </comp>
    <comp name="--.HHZ">
      <acc value="0.0083679315" flag="0"/>
      <vel value="0.0034852863" flag="0"/>
      <psa03 value="0.0186805734" flag="0"/>
      <psa10 value="0.0037413094" flag="0"/>
      <psa30 value="0.0003376347" flag="0"/>
    </comp>
    <comp name="--.HHN">
      <acc value="0.0124978318" flag="0"/>
      <vel value="0.0043089368" flag="0"/>
      <psa03 value="0.0187025059" flag="0"/>
      <psa10 value="0.0043043611" flag="0"/>
      <psa30 value="0.0004625019" flag="0"/>
    </comp>
  </station>
  <station code="AXS" name="AXS" netid="HP" insttype="Compact," lat="38.1962" lon="21.3763">
    <comp name="--.HHN">
      <acc value="0.0126096540" flag="0"/>
      <vel value="0.0134234507" flag="0"/>
      <psa03 value="0.0322545548" flag="0"/>
      <psa10 value="0.0092544026" flag="0"/>
      <psa30 value="0.0016439897" flag="0"/>
    </comp>
    <comp name="--.HHE">
      <acc value="0.0065811794" flag="0"/>
      <vel value="0.0032010661" flag="0"/>
      <psa03 value="0.0152201587" flag="0"/>
      <psa10 value="0.0031495402" flag="0"/>
      <psa30 value="0.0007859039" flag="0"/>
    </comp>
    <comp name="--.HHZ">
      <acc value="0.0047679968" flag="0"/>
      <vel value="0.0029108146" flag="0"/>
      <psa03 value="0.0138241261" flag="0"/>
      <psa10 value="0.0035774958" flag="0"/>
      <psa30 value="0.0003713024" flag="0"/>
    </comp>
  </station>
  <station code="FSK" name="FSK" netid="HP" insttype="40," lat="38.4593" lon="20.5623">
    <comp name="--.HHZ">
      <acc value="0.1553176233" flag="0"/>
      <vel value="0.0341869972" flag="0"/>
      <psa03 value="0.0973942043" flag="0"/>
      <psa10 value="0.0128197259" flag="0"/>
      <psa30 value="0.0019584379" flag="0"/>
    </comp>
    <comp name="--.HHN">
      <acc value="0.1712610633" flag="0"/>
      <vel value="0.0393510226" flag="0"/>
      <psa03 value="0.0720714640" flag="0"/>
      <psa10 value="0.0208653991" flag="0"/>
      <psa30 value="0.0014784705" flag="0"/>
    </comp>
    <comp name="--.HHE">
      <acc value="0.4227624440" flag="0"/>
      <vel value="0.0741892462" flag="0"/>
      <psa03 value="0.1617073908" flag="0"/>
      <psa10 value="0.0387702640" flag="0"/>
      <psa30 value="0.0026728538" flag="0"/>
    </comp>
  </station>
  <station code="KSTR" name="KSTR" netid="HP" insttype="Compact," lat="39.2492" lon="20.576">
    <comp name="--.HHN">
      <acc value="0.0124164220" flag="0"/>
      <vel value="0.0077951048" flag="0"/>
      <psa03 value="0.0432013216" flag="0"/>
      <psa10 value="0.0148438981" flag="0"/>
      <psa30 value="0.0009163924" flag="0"/>
    </comp>
    <comp name="--.HHE">
      <acc value="0.0204912236" flag="0"/>
      <vel value="0.0135478633" flag="0"/>
      <psa03 value="0.0628097695" flag="0"/>
      <psa10 value="0.0180274077" flag="0"/>
      <psa30 value="0.0020056291" flag="0"/>
    </comp>
    <comp name="--.HHZ">
      <acc value="0.0080997400" flag="0"/>
      <vel value="0.0062208256" flag="0"/>
      <psa03 value="0.0248958985" flag="0"/>
      <psa10 value="0.0052365277" flag="0"/>
      <psa30 value="0.0004636248" flag="0"/>
    </comp>
  </station>
  <station code="LTHK" name="LTHK" netid="HP" insttype="40," lat="37.7095" lon="20.8367">
    <comp name="--.HHZ">
      <acc value="0.0410109909" flag="0"/>
      <vel value="0.0093859432" flag="0"/>
      <psa03 value="0.0624322332" flag="0"/>
      <psa10 value="0.0137457966" flag="0"/>
      <psa30 value="0.0007324204" flag="0"/>
    </comp>
    <comp name="--.HHE">
      <acc value="0.0715261539" flag="0"/>
      <vel value="0.0262124893" flag="0"/>
      <psa03 value="0.1311661621" flag="0"/>
      <psa10 value="0.0205160962" flag="0"/>
      <psa30 value="0.0014320636" flag="0"/>
    </comp>
    <comp name="--.HHN">
      <acc value="0.0750371745" flag="0"/>
      <vel value="0.0194306810" flag="0"/>
      <psa03 value="0.1124687347" flag="0"/>
      <psa10 value="0.0225241961" flag="0"/>
      <psa30 value="0.0014305016" flag="0"/>
    </comp>
  </station>
  <station code="PDO" name="PDO" netid="HP" insttype="120s" lat="38.5986" lon="21.1833">
    <comp name="--.HHE">
      <acc value="0.0282587231" flag="0"/>
      <vel value="0.0110236814" flag="0"/>
      <psa03 value="0.0700235031" flag="0"/>
      <psa10 value="0.0130447526" flag="0"/>
      <psa30 value="0.0008758873" flag="0"/>
    </comp>
    <comp name="--.HHN">
      <acc value="0.0406136540" flag="0"/>
      <vel value="0.0247808926" flag="0"/>
      <psa03 value="0.1329466429" flag="0"/>
      <psa10 value="0.0119627935" flag="0"/>
      <psa30 value="0.0011307552" flag="0"/>
    </comp>
    <comp name="--.HHZ">
      <acc value="0.0227639672" flag="0"/>
      <vel value="0.0109144094" flag="0"/>
      <psa03 value="0.0509932199" flag="0"/>
      <psa10 value="0.0066406345" flag="0"/>
      <psa30 value="0.0006544677" flag="0"/>
    </comp>
  </station>
  <station code="PLEV" name="PLEV" netid="HP" insttype="Compact," lat="38.4124" lon="21.4073">
    <comp name="--.HHZ">
      <acc value="0.0076345200" flag="0"/>
      <vel value="0.0048197573" flag="0"/>
      <psa03 value="0.0217625151" flag="0"/>
      <psa10 value="0.0047051369" flag="0"/>
      <psa30 value="0.0005404195" flag="0"/>
    </comp>
    <comp name="--.HHN">
      <acc value="0.0140569292" flag="0"/>
      <vel value="0.0092749263" flag="0"/>
      <psa03 value="0.0414728994" flag="0"/>
      <psa10 value="0.0124405431" flag="0"/>
      <psa30 value="0.0008813508" flag="0"/>
    </comp>
    <comp name="--.HHE">
      <acc value="0.0109787455" flag="0"/>
      <vel value="0.0077604721" flag="0"/>
      <psa03 value="0.0351270342" flag="0"/>
      <psa10 value="0.0060897115" flag="0"/>
      <psa30 value="0.0007111290" flag="0"/>
    </comp>
  </station>
  <station code="PVO" name="PVO" netid="HP" insttype="120P," lat="38.616" lon="21.525">
    <comp name="--.HHN">
      <acc value="0.0181669357" flag="0"/>
      <vel value="0.0127384629" flag="0"/>
      <psa03 value="0.0614642469" flag="0"/>
      <psa10 value="0.0145640314" flag="0"/>
      <psa30 value="0.0017461669" flag="0"/>
    </comp>
    <comp name="--.HHZ">
      <acc value="0.0148634479" flag="0"/>
      <vel value="0.0054424772" flag="0"/>
      <psa03 value="0.0242977935" flag="0"/>
      <psa10 value="0.0071640259" flag="0"/>
      <psa30 value="0.0006660665" flag="0"/>
    </comp>
    <comp name="--.HHE">
      <acc value="0.0279521634" flag="0"/>
      <vel value="0.0148957118" flag="0"/>
      <psa03 value="0.0648717653" flag="0"/>
      <psa10 value="0.0073237581" flag="0"/>
      <psa30 value="0.0010191499" flag="0"/>
    </comp>
  </station>
  <station code="DRAG" name="DRAG" netid="HT" insttype="30s-100Hz," lat="38.6839" lon="20.5746">
    <comp name="--.HHN">
      <acc value="0.0000214107" flag="0"/>
      <vel value="0.0000045695" flag="0"/>
      <psa03 value="0.0000258153" flag="0"/>
      <psa10 value="0.0000021513" flag="0"/>
      <psa30 value="0.0000001788" flag="0"/>
    </comp>
    <comp name="--.HHE">
      <acc value="0.0004722084" flag="0"/>
      <vel value="0.0001367491" flag="0"/>
      <psa03 value="0.0008223032" flag="0"/>
      <psa10 value="0.0000330492" flag="0"/>
      <psa30 value="0.0000023273" flag="0"/>
    </comp>
    <comp name="--.HHZ">
      <acc value="0.0000323252" flag="0"/>
      <vel value="0.0000073335" flag="0"/>
      <psa03 value="0.0000542638" flag="0"/>
      <psa10 value="0.0000025482" flag="0"/>
      <psa30 value="0.0000002858" flag="0"/>
    </comp>
  </station>
  <station code="EVGI" name="EVGI" netid="HT" insttype="30" lat="38.621" lon="20.656">
    <comp name="--.HHE">
      <acc value="0.4530209940" flag="0"/>
      <vel value="0.0601049525" flag="0"/>
      <psa03 value="0.1304924738" flag="0"/>
      <psa10 value="0.0096668086" flag="0"/>
      <psa30 value="0.0014928828" flag="0"/>
    </comp>
    <comp name="--.HHZ">
      <acc value="0.2443281486" flag="0"/>
      <vel value="0.0353756105" flag="0"/>
      <psa03 value="0.1218447455" flag="0"/>
      <psa10 value="0.0093965866" flag="0"/>
      <psa30 value="0.0010100455" flag="0"/>
    </comp>
    <comp name="--.HHN">
      <acc value="0.4431531684" flag="0"/>
      <vel value="0.0658717334" flag="0"/>
      <psa03 value="0.1729715717" flag="0"/>
      <psa10 value="0.0083902634" flag="0"/>
      <psa30 value="0.0011392631" flag="0"/>
    </comp>
  </station>
  <station code="LKD2" name="LKD2" netid="HT" insttype="100" lat="38.7889" lon="20.6578">
    <comp name="--.HHE">
      <acc value="0.0473182633" flag="0"/>
      <vel value="0.0145143549" flag="0"/>
      <psa03 value="0.0665616456" flag="0"/>
      <psa10 value="0.0088975169" flag="0"/>
      <psa30 value="0.0006572614" flag="0"/>
    </comp>
    <comp name="--.HHN">
      <acc value="0.0398275377" flag="0"/>
      <vel value="0.0125465502" flag="0"/>
      <psa03 value="0.0512099545" flag="0"/>
      <psa10 value="0.0082803081" flag="0"/>
      <psa30 value="0.0009447582" flag="0"/>
    </comp>
    <comp name="--.HHZ">
      <acc value="0.0239946599" flag="0"/>
      <vel value="0.0097302474" flag="0"/>
      <psa03 value="0.0498339821" flag="0"/>
      <psa10 value="0.0053430745" flag="0"/>
      <psa30 value="0.0007008524" flag="0"/>
    </comp>
  </station>
  <station code="NYDR" name="NYDR" netid="HT" insttype="1s-100Hz," lat="38.7135" lon="20.6983">
    <comp name="--.HHE">
      <acc value="0.0358763038" flag="0"/>
      <vel value="0.0134579505" flag="0"/>
      <psa03 value="0.0454268242" flag="0"/>
      <psa10 value="0.0098816725" flag="0"/>
      <psa30 value="0.0013596949" flag="0"/>
    </comp>
    <comp name="--.HHN">
      <acc value="0.0473356588" flag="0"/>
      <vel value="0.0149588041" flag="0"/>
      <psa03 value="0.0944574925" flag="0"/>
      <psa10 value="0.0159533533" flag="0"/>
      <psa30 value="0.0009550663" flag="0"/>
    </comp>
    <comp name="--.HHZ">
      <acc value="0.0271044140" flag="0"/>
      <vel value="0.0089730856" flag="0"/>
      <psa03 value="0.0335866751" flag="0"/>
      <psa10 value="0.0111703598" flag="0"/>
      <psa30 value="0.0007365006" flag="0"/>
    </comp>
  </station>
  <station code="RTZL" name="RTZL" netid="HT" insttype="Compact," lat="38.076" lon="20.7715">
    <comp name="--.HHE">
      <acc value="0.3789007076" flag="0"/>
      <vel value="0.1096600637" flag="0"/>
      <psa03 value="0.6143952893" flag="0"/>
      <psa10 value="0.0362145754" flag="0"/>
      <psa30 value="0.0030220925" flag="0"/>
    </comp>
    <comp name="--.HHN">
      <acc value="0.3500923057" flag="0"/>
      <vel value="0.0814789943" flag="0"/>
      <psa03 value="0.4148199026" flag="0"/>
      <psa10 value="0.0310196560" flag="0"/>
      <psa30 value="0.0032188425" flag="0"/>
    </comp>
    <comp name="--.HHZ">
      <acc value="0.2621510732" flag="0"/>
      <vel value="0.0483525099" flag="0"/>
      <psa03 value="0.1588557157" flag="0"/>
      <psa10 value="0.0159159842" flag="0"/>
      <psa30 value="0.0012435206" flag="0"/>
    </comp>
  </station>
  <station code="TSLK" name="TSLK" netid="HT" insttype="1s-100Hz," lat="38.8249" lon="20.6554">
    <comp name="--.HHE">
      <acc value="0.0500389142" flag="0"/>
      <vel value="0.0168776701" flag="0"/>
      <psa03 value="0.0649647134" flag="0"/>
      <psa10 value="0.0189129247" flag="0"/>
      <psa30 value="0.0017021278" flag="0"/>
    </comp>
    <comp name="--.HHN">
      <acc value="0.0302231426" flag="0"/>
      <vel value="0.0130332239" flag="0"/>
      <psa03 value="0.0712361200" flag="0"/>
      <psa10 value="0.0140578567" flag="0"/>
      <psa30 value="0.0014631513" flag="0"/>
    </comp>
    <comp name="--.HHZ">
      <acc value="0.0250371924" flag="0"/>
      <vel value="0.0085910550" flag="0"/>
      <psa03 value="0.0315848018" flag="0"/>
      <psa10 value="0.0051759266" flag="0"/>
      <psa30 value="0.0014638603" flag="0"/>
    </comp>
  </station>
</stationlist>
