<?xml version="1.0" encoding="UTF-8" standalone="yes"?>
<!DOCTYPE earthquake SYSTEM "stationlist.dtd">
<stationlist created="" xmlns="ch.ethz.sed.shakemap.usgs.xml">
  <station code="CAR1" name="CAR1" netid="IV" insttype="" lat="39.2534" lon="16.2114">
    <comp name="--.HHE">
      <acc value="0.0186919250" flag="0"/>
      <vel value="0.0144798229" flag="0"/>
      <psa03 value="0.0505554110" flag="0"/>
      <psa10 value="0.0218531061" flag="0"/>
      <psa30 value="0.0011943052" flag="0"/>
    </comp>
    <comp name="--.HHN">
      <acc value="0.0169441590" flag="0"/>
      <vel value="0.0138016748" flag="0"/>
      <psa03 value="0.0453030772" flag="0"/>
      <psa10 value="0.0148749051" flag="0"/>
      <psa30 value="0.0009551440" flag="0"/>
    </comp>
    <comp name="--.HHZ">
      <acc value="0.0107691319" flag="0"/>
      <vel value="0.0092841234" flag="0"/>
      <psa03 value="0.0343317350" flag="0"/>
      <psa10 value="0.0111663518" flag="0"/>
      <psa30 value="0.0012083548" flag="0"/>
    </comp>
  </station>
  <station code="CELI" name="CELI" netid="IV" insttype="" lat="39.4027" lon="16.5088">
    <comp name="--.HHE">
      <acc value="0.0161276360" flag="0"/>
      <vel value="0.0107413882" flag="0"/>
      <psa03 value="0.0408303314" flag="0"/>
      <psa10 value="0.0140688867" flag="0"/>
      <psa30 value="0.0019886806" flag="0"/>
    </comp>
    <comp name="--.HHZ">
      <acc value="0.0170955559" flag="0"/>
      <vel value="0.0067857803" flag="0"/>
      <psa03 value="0.0234376216" flag="0"/>
      <psa10 value="0.0069632099" flag="0"/>
      <psa30 value="0.0008567046" flag="0"/>
    </comp>
    <comp name="--.HHN">
      <acc value="0.0150191658" flag="0"/>
      <vel value="0.0125133211" flag="0"/>
      <psa03 value="0.0311825290" flag="0"/>
      <psa10 value="0.0133647598" flag="0"/>
      <psa30 value="0.0015460467" flag="0"/>
    </comp>
  </station>
  <station code="CET2" name="CET2" netid="IV" insttype="" lat="39.5288" lon="15.9546">
    <comp name="--.HHN">
      <acc value="0.0202958235" flag="0"/>
      <vel value="0.0183544210" flag="0"/>
      <psa03 value="0.0391850264" flag="0"/>
      <psa10 value="0.0332263548" flag="0"/>
      <psa30 value="0.0011021587" flag="0"/>
    </comp>
    <comp name="--.HHE">
      <acc value="0.0116559811" flag="0"/>
      <vel value="0.0099946011" flag="0"/>
      <psa03 value="0.0247596161" flag="0"/>
      <psa10 value="0.0175720568" flag="0"/>
      <psa30 value="0.0010170749" flag="0"/>
    </comp>
    <comp name="--.HHZ">
      <acc value="0.0118183338" flag="0"/>
      <vel value="0.0083198796" flag="0"/>
      <psa03 value="0.0185894426" flag="0"/>
      <psa10 value="0.0101245003" flag="0"/>
      <psa30 value="0.0008319249" flag="0"/>
    </comp>
  </station>
  <station code="GIZZ" name="GIZZ" netid="IV" insttype="" lat="38.9798" lon="16.2078">
    <comp name="--.HHE">
      <acc value="0.0174630987" flag="0"/>
      <vel value="0.0071608769" flag="0"/>
      <psa03 value="0.0356169102" flag="0"/>
      <psa10 value="0.0075014608" flag="0"/>
      <psa30 value="0.0006204245" flag="0"/>
    </comp>
    <comp name="--.HHN">
      <acc value="0.0155671406" flag="0"/>
      <vel value="0.0081133483" flag="0"/>
      <psa03 value="0.0374274763" flag="0"/>
      <psa10 value="0.0076323716" flag="0"/>
      <psa30 value="0.0008688691" flag="0"/>
    </comp>
    <comp name="--.HHZ">
      <acc value="0.0093976821" flag="0"/>
      <vel value="0.0032066993" flag="0"/>
      <psa03 value="0.0210532860" flag="0"/>
      <psa10 value="0.0048862941" flag="0"/>
      <psa30 value="0.0004449090" flag="0"/>
    </comp>
  </station>
  <station code="MMN" name="MMN" netid="IV" insttype="" lat="39.891" lon="15.9904">
    <comp name="--.HHN">
      <acc value="0.0114484786" flag="0"/>
      <vel value="0.0066193838" flag="0"/>
      <psa03 value="0.0282329599" flag="0"/>
      <psa10 value="0.0104818089" flag="0"/>
      <psa30 value="0.0010964774" flag="0"/>
    </comp>
    <comp name="--.HHZ">
      <acc value="0.0074526567" flag="0"/>
      <vel value="0.0041308774" flag="0"/>
      <psa03 value="0.0165903059" flag="0"/>
      <psa10 value="0.0071050444" flag="0"/>
      <psa30 value="0.0005624950" flag="0"/>
    </comp>
    <comp name="--.HHE">
      <acc value="0.0086718373" flag="0"/>
      <vel value="0.0066707246" flag="0"/>
      <psa03 value="0.0265744230" flag="0"/>
      <psa10 value="0.0063812546" flag="0"/>
      <psa30 value="0.0010965046" flag="0"/>
    </comp>
  </station>
  <station code="ORI" name="ORI" netid="IV" insttype="" lat="40.051" lon="16.4504">
    <comp name="--.HHE">
      <acc value="0.0356371678" flag="0"/>
      <vel value="0.0153245925" flag="0"/>
      <psa03 value="0.1555376314" flag="0"/>
      <psa10 value="0.0111324443" flag="0"/>
      <psa30 value="0.0007601272" flag="0"/>
    </comp>
    <comp name="--.HHN">
      <acc value="0.0394895796" flag="0"/>
      <vel value="0.0204782202" flag="0"/>
      <psa03 value="0.1119193780" flag="0"/>
      <psa10 value="0.0113755574" flag="0"/>
      <psa30 value="0.0010049279" flag="0"/>
    </comp>
    <comp name="--.HHZ">
      <acc value="0.0230488086" flag="0"/>
      <vel value="0.0077012777" flag="0"/>
      <psa03 value="0.0420775388" flag="0"/>
      <psa10 value="0.0061654543" flag="0"/>
      <psa30 value="0.0005102760" flag="0"/>
    </comp>
  </station>
  <station code="PIPA" name="PIPA" netid="IV" insttype="" lat="39.4851" lon="16.8158">
    <comp name="--.HHE">
      <acc value="0.5246294678" flag="0"/>
      <vel value="0.2482961516" flag="0"/>
      <psa03 value="1.1414208127" flag="0"/>
      <psa10 value="0.0882335743" flag="0"/>
      <psa30 value="0.0078616776" flag="0"/>
    </comp>
    <comp name="--.HHZ">
      <acc value="0.3126642229" flag="0"/>
      <vel value="0.0855264606" flag="0"/>
      <psa03 value="0.5202473597" flag="0"/>
      <psa10 value="0.0348379589" flag="0"/>
      <psa30 value="0.0025618909" flag="0"/>
    </comp>
    <comp name="--.HHN">
      <acc value="0.3039950466" flag="0"/>
      <vel value="0.1222820728" flag="0"/>
      <psa03 value="0.4811251848" flag="0"/>
      <psa10 value="0.0711288812" flag="0"/>
      <psa30 value="0.0049841790" flag="0"/>
    </comp>
  </station>
  <station code="PLAC" name="PLAC" netid="IV" insttype="" lat="38.4494" lon="16.4383">
    <comp name="--.HHE">
      <acc value="0.0026797494" flag="0"/>
      <vel value="0.0027569523" flag="0"/>
      <psa03 value="0.0083794196" flag="0"/>
      <psa10 value="0.0065259387" flag="0"/>
      <psa30 value="0.0004010247" flag="0"/>
    </comp>
    <comp name="--.HHN">
      <acc value="0.0020036807" flag="0"/>
      <vel value="0.0020011088" flag="0"/>
      <psa03 value="0.0047675380" flag="0"/>
      <psa10 value="0.0045848007" flag="0"/>
      <psa30 value="0.0004174702" flag="0"/>
    </comp>
    <comp name="--.HHZ">
      <acc value="0.0016749549" flag="0"/>
      <vel value="0.0013581995" flag="0"/>
      <psa03 value="0.0041034768" flag="0"/>
      <psa10 value="0.0019112846" flag="0"/>
      <psa30 value="0.0001995413" flag="0"/>
    </comp>
  </station>
  <station code="SALB" name="SALB" netid="IV" insttype="" lat="39.8772" lon="16.3459">
    <comp name="--.HHE">
      <acc value="0.0137714895" flag="0"/>
      <vel value="0.0047570897" flag="0"/>
      <psa03 value="0.0429174938" flag="0"/>
      <psa10 value="0.0065769801" flag="0"/>
      <psa30 value="0.0005476746" flag="0"/>
    </comp>
    <comp name="--.HHN">
      <acc value="0.0099411023" flag="0"/>
      <vel value="0.0041732414" flag="0"/>
      <psa03 value="0.0304444862" flag="0"/>
      <psa10 value="0.0038911011" flag="0"/>
      <psa30 value="0.0003225067" flag="0"/>
    </comp>
    <comp name="--.HHZ">
      <acc value="0.0061034669" flag="0"/>
      <vel value="0.0023535744" flag="0"/>
      <psa03 value="0.0110250926" flag="0"/>
      <psa10 value="0.0021682561" flag="0"/>
      <psa30 value="0.0004604747" flag="0"/>
    </comp>
  </station>
  <station code="SELL" name="SELL" netid="IV" insttype="" lat="38.983" lon="16.6279">
    <comp name="--.HHE">
      <acc value="0.0081084646" flag="0"/>
      <vel value="0.0078938472" flag="0"/>
      <psa03 value="0.0193618937" flag="0"/>
      <psa10 value="0.0128864301" flag="0"/>
      <psa30 value="0.0004085009" flag="0"/>
    </comp>
    <comp name="--.HHZ">
      <acc value="0.0044364512" flag="0"/>
      <vel value="0.0032058415" flag="0"/>
      <psa03 value="0.0127877068" flag="0"/>
      <psa10 value="0.0045780349" flag="0"/>
      <psa30 value="0.0002541176" flag="0"/>
    </comp>
    <comp name="--.HHN">
      <acc value="0.0094994783" flag="0"/>
      <vel value="0.0064385189" flag="0"/>
      <psa03 value="0.0265011479" flag="0"/>
      <psa10 value="0.0059505808" flag="0"/>
      <psa30 value="0.0003006249" flag="0"/>
    </comp>
  </station>
  <station code="SERS" name="SERS" netid="IV" insttype="" lat="39.0359" lon="16.6886">
    <comp name="--.HHE">
      <acc value="0.0162126655" flag="0"/>
      <vel value="0.0098741407" flag="0"/>
      <psa03 value="0.0430438707" flag="0"/>
      <psa10 value="0.0129822140" flag="0"/>
      <psa30 value="0.0011714237" flag="0"/>
    </comp>
    <comp name="--.HHZ">
      <acc value="0.0102277532" flag="0"/>
      <vel value="0.0051081092" flag="0"/>
      <psa03 value="0.0279599876" flag="0"/>
      <psa10 value="0.0085760115" flag="0"/>
      <psa30 value="0.0005322467" flag="0"/>
    </comp>
    <comp name="--.HHN">
      <acc value="0.0141133101" flag="0"/>
      <vel value="0.0077264822" flag="0"/>
      <psa03 value="0.0509266797" flag="0"/>
      <psa10 value="0.0079182981" flag="0"/>
      <psa30 value="0.0008122928" flag="0"/>
    </comp>
  </station>
  <station code="SPS2" name="SPS2" netid="IV" insttype="" lat="39.291" lon="16.3388">
    <comp name="--.HHE">
      <acc value="0.0076384521" flag="0"/>
      <vel value="0.0043650985" flag="0"/>
      <psa03 value="0.0253106123" flag="0"/>
      <psa10 value="0.0079096624" flag="0"/>
      <psa30 value="0.0004389303" flag="0"/>
    </comp>
    <comp name="--.HHN">
      <acc value="0.0088222242" flag="0"/>
      <vel value="0.0059757391" flag="0"/>
      <psa03 value="0.0317765224" flag="0"/>
      <psa10 value="0.0054969128" flag="0"/>
      <psa30 value="0.0003342997" flag="0"/>
    </comp>
    <comp name="--.HHZ">
      <acc value="0.0088787003" flag="0"/>
      <vel value="0.0030861336" flag="0"/>
      <psa03 value="0.0148029429" flag="0"/>
      <psa10 value="0.0038556338" flag="0"/>
      <psa30 value="0.0002877623" flag="0"/>
    </comp>
  </station>
  <station code="TDS" name="TDS" netid="IV" insttype="" lat="39.6601" lon="16.3376">
    <comp name="--.HHN">
      <acc value="0.0049440806" flag="0"/>
      <vel value="0.0049840929" flag="0"/>
      <psa03 value="0.0108575826" flag="0"/>
      <psa10 value="0.0059364775" flag="0"/>
      <psa30 value="0.0006075157" flag="0"/>
    </comp>
    <comp name="--.HHE">
      <acc value="0.0053394342" flag="0"/>
      <vel value="0.0040568516" flag="0"/>
      <psa03 value="0.0204718235" flag="0"/>
      <psa10 value="0.0042447030" flag="0"/>
      <psa30 value="0.0006650506" flag="0"/>
    </comp>
    <comp name="--.HHZ">
      <acc value="0.0042996444" flag="0"/>
      <vel value="0.0030931150" flag="0"/>
      <psa03 value="0.0189821620" flag="0"/>
      <psa10 value="0.0039235363" flag="0"/>
      <psa30 value="0.0008516624" flag="0"/>
    </comp>
  </station>
  <station code="CHCE" name="CHCE" netid="IY" insttype="" lat="38.684" lon="16.4142">
    <comp name="00.HHE">
      <acc value="0.0088002827" flag="0"/>
      <vel value="0.0048365251" flag="0"/>
      <psa03 value="0.0331874423" flag="0"/>
      <psa10 value="0.0036171000" flag="0"/>
      <psa30 value="0.0003478317" flag="0"/>
    </comp>
    <comp name="00.HHN">
      <acc value="0.0089058138" flag="0"/>
      <vel value="0.0056290525" flag="0"/>
      <psa03 value="0.0315951425" flag="0"/>
      <psa10 value="0.0039630686" flag="0"/>
      <psa30 value="0.0003595493" flag="0"/>
    </comp>
    <comp name="00.HHZ">
      <acc value="0.0039802921" flag="0"/>
      <vel value="0.0017010001" flag="0"/>
      <psa03 value="0.0142887558" flag="0"/>
      <psa10 value="0.0025706202" flag="0"/>
      <psa30 value="0.0001355496" flag="0"/>
    </comp>
  </station>
  <station code="SPDC" name="SPDC" netid="IY" insttype="" lat="38.5264" lon="16.1322">
    <comp name="--.HHE">
      <acc value="0.0115963450" flag="0"/>
      <vel value="0.0106390931" flag="0"/>
      <psa03 value="0.0283036933" flag="0"/>
      <psa10 value="0.0140221246" flag="0"/>
      <psa30 value="0.0011404714" flag="0"/>
    </comp>
    <comp name="--.HHN">
      <acc value="0.0107146046" flag="0"/>
      <vel value="0.0070779729" flag="0"/>
      <psa03 value="0.0340108410" flag="0"/>
      <psa10 value="0.0084964121" flag="0"/>
      <psa30 value="0.0006263295" flag="0"/>
    </comp>
    <comp name="--.HHZ">
      <acc value="0.0059681701" flag="0"/>
      <vel value="0.0042674854" flag="0"/>
      <psa03 value="0.0200364832" flag="0"/>
      <psa10 value="0.0049055338" flag="0"/>
      <psa30 value="0.0004216631" flag="0"/>
    </comp>
  </station>
  <station code="CUC" name="CUC" netid="MN" insttype="" lat="39.9938" lon="15.8155">
    <comp name="--.HHE">
      <acc value="0.0051713458" flag="0"/>
      <vel value="0.0060264209" flag="0"/>
      <psa03 value="0.0101103046" flag="0"/>
      <psa10 value="0.0109786281" flag="0"/>
      <psa30 value="0.0005554201" flag="0"/>
    </comp>
    <comp name="--.HHN">
      <acc value="0.0041863288" flag="0"/>
      <vel value="0.0042364786" flag="0"/>
      <psa03 value="0.0093503108" flag="0"/>
      <psa10 value="0.0093871921" flag="0"/>
      <psa30 value="0.0007650297" flag="0"/>
    </comp>
    <comp name="--.HHZ">
      <acc value="0.0039839913" flag="0"/>
      <vel value="0.0025486646" flag="0"/>
      <psa03 value="0.0099224932" flag="0"/>
      <psa10 value="0.0045104010" flag="0"/>
      <psa30 value="0.0004011627" flag="0"/>
    </comp>
  </station>
  <station code="BIDON" name="BIDON" netid="XE" insttype="" lat="39.9457" lon="16.4559">
    <comp name="--.HHE">
      <acc value="0.0230516790" flag="0"/>
      <vel value="0.0102970658" flag="0"/>
      <psa03 value="0.0535950214" flag="0"/>
      <psa10 value="0.0137794101" flag="0"/>
      <psa30 value="0.0008864878" flag="0"/>
    </comp>
    <comp name="--.HHZ">
      <acc value="0.0082166787" flag="0"/>
      <vel value="0.0044804365" flag="0"/>
      <psa03 value="0.0199095699" flag="0"/>
      <psa10 value="0.0060804767" flag="0"/>
      <psa30 value="0.0004247813" flag="0"/>
    </comp>
    <comp name="--.HHN">
      <acc value="0.0133414437" flag="0"/>
      <vel value="0.0069079990" flag="0"/>
      <psa03 value="0.0406014012" flag="0"/>
      <psa10 value="0.0068976491" flag="0"/>
      <psa30 value="0.0005692040" flag="0"/>
    </comp>
  </station>
  <station code="CNESE" name="CNESE" netid="XE" insttype="" lat="39.8941" lon="16.0843">
    <comp name="--.HHE">
      <acc value="0.0066811311" flag="0"/>
      <vel value="0.0044408368" flag="0"/>
      <psa03 value="0.0100683605" flag="0"/>
      <psa10 value="0.0050812325" flag="0"/>
      <psa30 value="0.0015011157" flag="0"/>
    </comp>
    <comp name="--.HHZ">
      <acc value="0.0039394272" flag="0"/>
      <vel value="0.0024295582" flag="0"/>
      <psa03 value="0.0088755138" flag="0"/>
      <psa10 value="0.0054091324" flag="0"/>
      <psa30 value="0.0006540696" flag="0"/>
    </comp>
    <comp name="--.HHN">
      <acc value="0.0048046448" flag="0"/>
      <vel value="0.0024868432" flag="0"/>
      <psa03 value="0.0068719494" flag="0"/>
      <psa10 value="0.0032882532" flag="0"/>
      <psa30 value="0.0010153513" flag="0"/>
    </comp>
  </station>
  <station code="FRASC" name="FRASC" netid="XE" insttype="" lat="39.8381" lon="16.2663">
    <comp name="--.HHE">
      <acc value="0.0062601247" flag="0"/>
      <vel value="0.0031843157" flag="0"/>
      <psa03 value="0.0141297207" flag="0"/>
      <psa10 value="0.0059375846" flag="0"/>
      <psa30 value="0.0004564293" flag="0"/>
    </comp>
    <comp name="--.HHZ">
      <acc value="0.0045382345" flag="0"/>
      <vel value="0.0027207971" flag="0"/>
      <psa03 value="0.0146896524" flag="0"/>
      <psa10 value="0.0030785586" flag="0"/>
      <psa30 value="0.0005674561" flag="0"/>
    </comp>
    <comp name="--.HHN">
      <acc value="0.0069499637" flag="0"/>
      <vel value="0.0047984413" flag="0"/>
      <psa03 value="0.0172259804" flag="0"/>
      <psa10 value="0.0070879461" flag="0"/>
      <psa30 value="0.0006048823" flag="0"/>
    </comp>
  </station>
  <station code="LAICA" name="LAICA" netid="XE" insttype="" lat="39.9485" lon="15.9751">
    <comp name="--.HHN">
      <acc value="0.0055605077" flag="0"/>
      <vel value="0.0060421329" flag="0"/>
      <psa03 value="0.0132301423" flag="0"/>
      <psa10 value="0.0143396700" flag="0"/>
      <psa30 value="0.0013964459" flag="0"/>
    </comp>
    <comp name="--.HHE">
      <acc value="0.0044261948" flag="0"/>
      <vel value="0.0055614898" flag="0"/>
      <psa03 value="0.0121368068" flag="0"/>
      <psa10 value="0.0100303006" flag="0"/>
      <psa30 value="0.0016110139" flag="0"/>
    </comp>
    <comp name="--.HHZ">
      <acc value="0.0038125213" flag="0"/>
      <vel value="0.0034559544" flag="0"/>
      <psa03 value="0.0106121162" flag="0"/>
      <psa10 value="0.0082997199" flag="0"/>
      <psa30 value="0.0004375169" flag="0"/>
    </comp>
  </station>
  <station code="MORMA" name="MORMA" netid="XE" insttype="" lat="39.8699" lon="15.9721">
    <comp name="--.HHE">
      <acc value="0.0069327640" flag="0"/>
      <vel value="0.0075697644" flag="0"/>
      <psa03 value="0.0206023363" flag="0"/>
      <psa10 value="0.0124317508" flag="0"/>
      <psa30 value="0.0021023786" flag="0"/>
    </comp>
    <comp name="--.HHN">
      <acc value="0.0061886187" flag="0"/>
      <vel value="0.0050636098" flag="0"/>
      <psa03 value="0.0175065583" flag="0"/>
      <psa10 value="0.0085826678" flag="0"/>
      <psa30 value="0.0009714280" flag="0"/>
    </comp>
    <comp name="--.HHZ">
      <acc value="0.0084376270" flag="0"/>
      <vel value="0.0040403042" flag="0"/>
      <psa03 value="0.0174096573" flag="0"/>
      <psa10 value="0.0076895349" flag="0"/>
      <psa30 value="0.0006824749" flag="0"/>
    </comp>
  </station>
  <station code="SHEVA" name="SHEVA" netid="XE" insttype="" lat="39.8153" lon="16.1677">
    <comp name="--.HHZ">
      <acc value="0.0054658272" flag="0"/>
      <vel value="0.0029016861" flag="0"/>
      <psa03 value="0.0117894554" flag="0"/>
      <psa10 value="0.0047158843" flag="0"/>
      <psa30 value="0.0005101558" flag="0"/>
    </comp>
    <comp name="--.HHN">
      <acc value="0.0052532794" flag="0"/>
      <vel value="0.0046859335" flag="0"/>
      <psa03 value="0.0149780202" flag="0"/>
      <psa10 value="0.0089553443" flag="0"/>
      <psa30 value="0.0006268713" flag="0"/>
    </comp>
    <comp name="--.HHE">
      <acc value="0.0051702694" flag="0"/>
      <vel value="0.0055831577" flag="0"/>
      <psa03 value="0.0186272930" flag="0"/>
      <psa10 value="0.0089580427" flag="0"/>
      <psa30 value="0.0006771408" flag="0"/>
    </comp>
  </station>
  <station code="TNOVA" name="TNOVA" netid="XE" insttype="" lat="39.9747" lon="16.2611">
    <comp name="--.HHE">
      <acc value="0.0090380200" flag="0"/>
      <vel value="0.0038634015" flag="0"/>
      <psa03 value="0.0237031264" flag="0"/>
      <psa10 value="0.0048964531" flag="0"/>
      <psa30 value="0.0003588872" flag="0"/>
    </comp>
    <comp name="--.HHN">
      <acc value="0.0072175386" flag="0"/>
      <vel value="0.0030788064" flag="0"/>
      <psa03 value="0.0173547331" flag="0"/>
      <psa10 value="0.0027830939" flag="0"/>
      <psa30 value="0.0002530425" flag="0"/>
    </comp>
