<stationlist xmlns:esm="https://esm-db.eu/esmws/shakemap/1/" created="1784080713">
	<station code="MARCO" name="MARCO" netid="GE" source="GEOFON" insttype="" lat="40.29724" lon="15.80632" esm:processing="automatic (Paolucci et al 2011)" esm:quality="good">
		<comp name="--.HLE" depth="1.0">
			<acc value="0.00416210575842706" flag="0"/>
			<vel value="0.00279945633063621" flag="0"/>
			<psa03 value="0.0116968425667461" flag="0"/>
			<psa10 value="0.00478428381032221" flag="0"/>
			<psa30 value="0.000639854991418957" flag="0"/>
		</comp>
		<comp name="--.HLN" depth="1.0">
			<acc value="0.00470678548264222" flag="0"/>
			<vel value="0.00388857427644776" flag="0"/>
			<psa03 value="0.0140463888376709" flag="0"/>
			<psa10 value="0.00624235461911632" flag="0"/>
			<psa30 value="0.00143536821109806" flag="0"/>
		</comp>
		<comp name="--.HLZ" depth="1.0">
			<acc value="0.00130951844563484" flag="0"/>
			<vel value="0.000873509400092695" flag="0"/>
			<psa03 value="0.00387507766842147" flag="0"/>
			<psa10 value="0.00149115010950216" flag="0"/>
			<psa30 value="0.000227875538344503" flag="0"/>
		</comp>
	</station>
	<station code="ACR" name="ACR" netid="IT" source="Italian Strong Motion Network (RAN)" insttype="" lat="39.4889" lon="16.3798" esm:processing="manual (Paolucci et al 2011)" esm:quality="best">
		<comp name="--.HNE" depth="0.0">
			<acc value="0.0228664982852833" flag="0"/>
			<vel value="0.0111426664139059" flag="0"/>
			<psa03 value="0.102564117286253" flag="0"/>
			<psa10 value="0.0141737320651828" flag="0"/>
			<psa30 value="0.00113977071254727" flag="0"/>
		</comp>
		<comp name="--.HNN" depth="0.0">
			<acc value="0.0225582735189711" flag="0"/>
			<vel value="0.0147792436516433" flag="0"/>
			<psa03 value="0.0650532000804136" flag="0"/>
			<psa10 value="0.0136335359673614" flag="0"/>
			<psa30 value="0.00133667698578886" flag="0"/>
		</comp>
		<comp name="--.HNZ" depth="0.0">
			<acc value="0.0297578702344929" flag="0"/>
			<vel value="0.00945920284259764" flag="0"/>
			<psa03 value="0.0514991355235179" flag="0"/>
			<psa10 value="0.00987492166510536" flag="0"/>
			<psa30 value="0.000736610723929603" flag="0"/>
		</comp>
	</station>
	<station code="ALD" name="ALD" netid="IT" source="Italian Strong Motion Network (RAN)" insttype="" lat="39.9298" lon="16.4653" esm:processing="manual (Paolucci et al 2011)" esm:quality="bad">
		<comp name="--.HNE" depth="0.0">
			<acc value="0.0127545296600554" flag="0"/>
			<vel value="0.0073122274088366" flag="0"/>
			<psa03 value="0.0376619610659201" flag="0"/>
			<psa10 value="0.00809884900899631" flag="0"/>
			<psa30 value="0.000668885508300499" flag="0"/>
		</comp>
		<comp name="--.HNN" depth="0.0">
			<acc value="0.0147394608960684" flag="0"/>
			<vel value="0.0076827793417824" flag="0"/>
			<psa03 value="0.0328256953745663" flag="0"/>
			<psa10 value="0.00761852703379285" flag="0"/>
			<psa30 value="0.000542621727274413" flag="0"/>
		</comp>
		<comp name="--.HNZ" depth="0.0">
			<acc value="0.00680376881731423" flag="0"/>
			<vel value="0.00304565784349439" flag="0"/>
			<psa03 value="0.0160632724462875" flag="0"/>
			<psa10 value="0.00448450723283394" flag="0"/>
			<psa30 value="0.000468285969564616" flag="0"/>
		</comp>
	</station>
	<station code="ARE" name="ARE" netid="IT" source="Italian Strong Motion Network (RAN)" insttype="" lat="38.5614" lon="16.2088" esm:processing="manual (Paolucci et al 2011)" esm:quality="good">
		<comp name="--.HGE" depth="0.0">
			<acc value="0.00669393447228212" flag="0"/>
			<vel value="0.00432448190263452" flag="0"/>
			<psa03 value="0.0216767641042379" flag="0"/>
			<psa10 value="0.00495037293791196" flag="0"/>
			<psa30 value="0.000385594736467223" flag="0"/>
		</comp>
		<comp name="--.HGN" depth="0.0">
			<acc value="0.00721469733353725" flag="0"/>
			<vel value="0.00533940337781062" flag="0"/>
			<psa03 value="0.0171939658387699" flag="0"/>
			<psa10 value="0.00616724558100247" flag="0"/>
			<psa30 value="0.000425261687124696" flag="0"/>
		</comp>
		<comp name="--.HGZ" depth="0.0">
			<acc value="0.00392251976388964" flag="0"/>
			<vel value="0.00217331422797579" flag="0"/>
			<psa03 value="0.0130777374296725" flag="0"/>
			<psa10 value="0.00304884650236782" flag="0"/>
			<psa30 value="0.000391343737101967" flag="0"/>
		</comp>
	</station>
	<station code="AVT" name="AVT" netid="IT" source="Italian Strong Motion Network (RAN)" insttype="" lat="40.3217" lon="17.6994" esm:processing="automatic (Paolucci et al 2011)" esm:quality="best">
		<comp name="--.HGE" depth="0.0">
			<acc value="0.0243179770810501" flag="0"/>
			<vel value="0.016447994466599" flag="0"/>
			<psa03 value="0.0650488820856673" flag="0"/>
			<psa10 value="0.0215273673324387" flag="0"/>
			<psa30 value="0.00165103010180962" flag="0"/>
		</comp>
		<comp name="--.HGN" depth="0.0">
			<acc value="0.0225504002982201" flag="0"/>
			<vel value="0.0153655929197523" flag="0"/>
			<psa03 value="0.0595618571388621" flag="0"/>
			<psa10 value="0.0122872380317249" flag="0"/>
			<psa30 value="0.00112691798611844" flag="0"/>
		</comp>
		<comp name="--.HGZ" depth="0.0">
			<acc value="0.0112884592871665" flag="0"/>
			<vel value="0.00585905554772241" flag="0"/>
			<psa03 value="0.0188941474778936" flag="0"/>
			<psa10 value="0.00698343746222894" flag="0"/>
			<psa30 value="0.000464536814951425" flag="0"/>
		</comp>
	</station>
	<station code="COR" name="COR" netid="IT" source="Italian Strong Motion Network (RAN)" insttype="" lat="39.1179" lon="16.38" esm:processing="manual (Paolucci et al 2011)" esm:quality="best">
		<comp name="--.HGE" depth="0.0">
			<acc value="0.0179659983818512" flag="0"/>
			<vel value="0.0102714542767559" flag="0"/>
			<psa03 value="0.0571036890892744" flag="0"/>
			<psa10 value="0.0109390959114045" flag="0"/>
			<psa30 value="0.000750963028866873" flag="0"/>
		</comp>
		<comp name="--.HGN" depth="0.0">
			<acc value="0.0191713890950843" flag="0"/>
			<vel value="0.0121060700861713" flag="0"/>
			<psa03 value="0.0341635730648741" flag="0"/>
			<psa10 value="0.0148667414111757" flag="0"/>
			<psa30 value="0.00192600175483281" flag="0"/>
		</comp>
		<comp name="--.HGZ" depth="0.0">
			<acc value="0.0195966211565399" flag="0"/>
			<vel value="0.00591409169761218" flag="0"/>
			<psa03 value="0.0344273223078142" flag="0"/>
			<psa10 value="0.00839742222552236" flag="0"/>
			<psa30 value="0.00102173956023172" flag="0"/>
		</comp>
	</station>
	<station code="COS" name="COS" netid="IT" source="Italian Strong Motion Network (RAN)" insttype="" lat="39.289" lon="16.2576" esm:processing="manual (Paolucci et al 2011)" esm:quality="good">
		<comp name="--.HNE" depth="0.0">
			<acc value="0.0350930113514049" flag="0"/>
			<vel value="0.02066990079287" flag="0"/>
			<psa03 value="0.126317982529805" flag="0"/>
			<psa10 value="0.0176842196177741" flag="0"/>
			<psa30 value="0.00108306331012961" flag="0"/>
		</comp>
		<comp name="--.HNN" depth="0.0">
			<acc value="0.0244689734341069" flag="0"/>
			<vel value="0.0164156635446747" flag="0"/>
			<psa03 value="0.115817464005417" flag="0"/>
			<psa10 value="0.0260876825559356" flag="0"/>
			<psa30 value="0.00123065767086206" flag="0"/>
		</comp>
		<comp name="--.HNZ" depth="0.0">
			<acc value="0.0203478568720564" flag="0"/>
			<vel value="0.0113918660026198" flag="0"/>
			<psa03 value="0.0503279589804018" flag="0"/>
			<psa10 value="0.00942596817411957" flag="0"/>
			<psa30 value="0.00112855632381571" flag="0"/>
		</comp>
	</station>
	<station code="CSL" name="CSL" netid="IT" source="Italian Strong Motion Network (RAN)" insttype="" lat="40.6323" lon="16.9283" esm:processing="manual (Paolucci et al 2011)" esm:quality="good">
		<comp name="--.HGE" depth="0.0">
			<acc value="0.02096991037605" flag="0"/>
			<vel value="0.00663770355047804" flag="0"/>
			<psa03 value="0.0314284153116051" flag="0"/>
			<psa10 value="0.00885041660916476" flag="0"/>
			<psa30 value="0.000498477344594346" flag="0"/>
		</comp>
		<comp name="--.HGN" depth="0.0">
			<acc value="0.0142988821907246" flag="0"/>
			<vel value="0.00637579985678193" flag="0"/>
			<psa03 value="0.0203071134757723" flag="0"/>
			<psa10 value="0.0044628354846984" flag="0"/>
			<psa30 value="0.000347196437560036" flag="0"/>
		</comp>
		<comp name="--.HGZ" depth="0.0">
			<acc value="0.00652316220134143" flag="0"/>
			<vel value="0.00312520933771767" flag="0"/>
			<psa03 value="0.0148166690316069" flag="0"/>
			<psa10 value="0.00338316708696579" flag="0"/>
			<psa30 value="0.000191839375083767" flag="0"/>
		</comp>
	</station>
	<station code="CSPC" name="CSPC" netid="IT" source="Italian Strong Motion Network (RAN)" insttype="" lat="39.3102" lon="16.2337" esm:processing="manual (Paolucci et al 2011)" esm:quality="good">
		<comp name="--.HNE" depth="0.0">
			<acc value="0.0233324582766448" flag="0"/>
			<vel value="0.0170532903486803" flag="0"/>
			<psa03 value="0.0767894723425066" flag="0"/>
			<psa10 value="0.0246598204670957" flag="0"/>
			<psa30 value="0.00180933340112472" flag="0"/>
		</comp>
		<comp name="--.HNN" depth="0.0">
			<acc value="0.0249075376561532" flag="0"/>
			<vel value="0.0219966307082417" flag="0"/>
			<psa03 value="0.070977905062691" flag="0"/>
			<psa10 value="0.0383923545550804" flag="0"/>
			<psa30 value="0.00158501833301824" flag="0"/>
		</comp>
		<comp name="--.HNZ" depth="0.0">
			<acc value="0.0198210020590421" flag="0"/>
			<vel value="0.0100952962523538" flag="0"/>
			<psa03 value="0.0567464883431558" flag="0"/>
			<psa10 value="0.0142419518969353" flag="0"/>
			<psa30 value="0.00175750705121574" flag="0"/>
		</comp>
	</station>
	<station code="CSSE" name="CSSE" netid="IT" source="Italian Strong Motion Network (RAN)" insttype="" lat="39.3023" lon="16.2494" esm:processing="manual (Paolucci et al 2011)" esm:quality="good">
		<comp name="--.HNE" depth="0.0">
			<acc value="0.0277789837410051" flag="0"/>
			<vel value="0.0167060189676461" flag="0"/>
			<psa03 value="0.0703091055500257" flag="0"/>
			<psa10 value="0.02577974778178" flag="0"/>
			<psa30 value="0.00140904386307226" flag="0"/>
		</comp>
		<comp name="--.HNN" depth="0.0">
			<acc value="0.0278725840503058" flag="0"/>
			<vel value="0.0152772147890613" flag="0"/>
			<psa03 value="0.0603799790440234" flag="0"/>
			<psa10 value="0.0263382122772867" flag="0"/>
			<psa30 value="0.0010786491635445" flag="0"/>
		</comp>
		<comp name="--.HNZ" depth="0.0">
			<acc value="0.0196879798690493" flag="0"/>
			<vel value="0.00928320629866393" flag="0"/>
			<psa03 value="0.040268847301013" flag="0"/>
			<psa10 value="0.0136639654831657" flag="0"/>
			<psa30 value="0.000995424066957069" flag="0"/>
		</comp>
	</station>
	<station code="DNMI" name="DNMI" netid="IT" source="Italian Strong Motion Network (RAN)" insttype="" lat="38.5315" lon="16.1448" esm:processing="manual (Paolucci et al 2011)" esm:quality="good">
		<comp name="--.HGE" depth="0.0">
			<acc value="0.0171356875833088" flag="0"/>
			<vel value="0.0196864929085122" flag="0"/>
			<psa03 value="0.0287678510414259" flag="0"/>
			<psa10 value="0.0390909695848884" flag="0"/>
			<psa30 value="0.00195376338556684" flag="0"/>
		</comp>
		<comp name="--.HGN" depth="0.0">
			<acc value="0.0100215741446233" flag="0"/>
			<vel value="0.0115474660004252" flag="0"/>
			<psa03 value="0.0222197349692212" flag="0"/>
			<psa10 value="0.0295849148554313" flag="0"/>
			<psa30 value="0.00164284716389665" flag="0"/>
		</comp>
		<comp name="--.HGZ" depth="0.0">
			<acc value="0.00644112039829774" flag="0"/>
			<vel value="0.00608116985261105" flag="0"/>
			<psa03 value="0.0196859668590963" flag="0"/>
			<psa10 value="0.00917021060644532" flag="0"/>
			<psa30 value="0.000521167441451683" flag="0"/>
		</comp>
	</station>
	<station code="FDF" name="FDF" netid="IT" source="Italian Strong Motion Network (RAN)" insttype="" lat="38.7891" lon="16.3" esm:processing="manual (Paolucci et al 2011)" esm:quality="good">
		<comp name="--.HGE" depth="0.0">
			<acc value="0.0141878548730765" flag="0"/>
			<vel value="0.00777858710530252" flag="0"/>
			<psa03 value="0.0480490007186781" flag="0"/>
			<psa10 value="0.00585087977957856" flag="0"/>
			<psa30 value="0.000632453563611121" flag="0"/>
		</comp>
		<comp name="--.HGN" depth="0.0">
			<acc value="0.0111421116452031" flag="0"/>
			<vel value="0.00921590643718892" flag="0"/>
			<psa03 value="0.0352794464651945" flag="0"/>
			<psa10 value="0.00835713236901604" flag="0"/>
			<psa30 value="0.000825686208077573" flag="0"/>
		</comp>
		<comp name="--.HGZ" depth="0.0">
			<acc value="0.0107400689824455" flag="0"/>
			<vel value="0.00277821019824844" flag="0"/>
			<psa03 value="0.0125962810564013" flag="0"/>
			<psa10 value="0.00269155377097847" flag="0"/>
			<psa30 value="0.000383083867009463" flag="0"/>
		</comp>
	</station>
	<station code="GSS" name="GSS" netid="IT" source="Italian Strong Motion Network (RAN)" insttype="" lat="40.6316" lon="16.2791" esm:processing="manual (Paolucci et al 2011)" esm:quality="good">
		<comp name="--.HGE" depth="0.0">
			<acc value="0.0106491701960911" flag="0"/>
			<vel value="0.00792937490466504" flag="0"/>
			<psa03 value="0.0434782474080106" flag="0"/>
			<psa10 value="0.0146090037122987" flag="0"/>
			<psa30 value="0.00186367408426164" flag="0"/>
		</comp>
		<comp name="--.HGN" depth="0.0">
			<acc value="0.0132847206364767" flag="0"/>
			<vel value="0.00724419144636276" flag="0"/>
			<psa03 value="0.0234255726625555" flag="0"/>
			<psa10 value="0.00712639411988591" flag="0"/>
			<psa30 value="0.00206514784757635" flag="0"/>
		</comp>
		<comp name="--.HGZ" depth="0.0">
			<acc value="0.00812632796035124" flag="0"/>
			<vel value="0.00530292990587606" flag="0"/>
			<psa03 value="0.01634349413461" flag="0"/>
			<psa10 value="0.00612331188936101" flag="0"/>
			<psa30 value="0.00119243274281705" flag="0"/>
		</comp>
	</station>
	<station code="LCCE" name="LCCE" netid="IT" source="Italian Strong Motion Network (RAN)" insttype="" lat="40.3559" lon="18.1996" esm:processing="automatic (Paolucci et al 2011)" esm:quality="best">
		<comp name="--.HNE" depth="0.0">
			<acc value="0.0344206072470896" flag="0"/>
			<vel value="0.0220411493109659" flag="0"/>
			<psa03 value="0.101261906021116" flag="0"/>
			<psa10 value="0.0276440431571849" flag="0"/>
			<psa30 value="0.00117466854519427" flag="0"/>
		</comp>
		<comp name="--.HNN" depth="0.0">
			<acc value="0.0247838441507934" flag="0"/>
			<vel value="0.0182571385079139" flag="0"/>
			<psa03 value="0.0915856921028158" flag="0"/>
			<psa10 value="0.0222445704686132" flag="0"/>
			<psa30 value="0.000951010395605923" flag="0"/>
		</comp>
		<comp name="--.HNZ" depth="0.0">
			<acc value="0.0119121210226824" flag="0"/>
			<vel value="0.00602088963872784" flag="0"/>
			<psa03 value="0.0478756194416951" flag="0"/>
			<psa10 value="0.00664650717347642" flag="0"/>
			<psa30 value="0.000633826414973619" flag="0"/>
		</comp>
	</station>
	<station code="LMZ" name="LMZ" netid="IT" source="Italian Strong Motion Network (RAN)" insttype="" lat="38.9187" lon="16.2527" esm:processing="manual (Paolucci et al 2011)" esm:quality="good">
		<comp name="--.HNE" depth="0.0">
			<acc value="0.0175300807700025" flag="0"/>
			<vel value="0.0144084822803756" flag="0"/>
			<psa03 value="0.0403064617719282" flag="0"/>
			<psa10 value="0.0224782296973846" flag="0"/>
			<psa30 value="0.00418967796227052" flag="0"/>
		</comp>
		<comp name="--.HNN" depth="0.0">
			<acc value="0.0152675776669692" flag="0"/>
			<vel value="0.0201046654194393" flag="0"/>
			<psa03 value="0.0325061351427722" flag="0"/>
			<psa10 value="0.0337361998576709" flag="0"/>
			<psa30 value="0.00304986578864161" flag="0"/>
		</comp>
		<comp name="--.HNZ" depth="0.0">
			<acc value="0.0111633067844477" flag="0"/>
			<vel value="0.00795407925304979" flag="0"/>
			<psa03 value="0.0292278216164057" flag="0"/>
			<psa10 value="0.0119419714095136" flag="0"/>
			<psa30 value="0.00185674716705227" flag="0"/>
		</comp>
	</station>
	<station code="MMR7" name="MMR7" netid="IT" source="Italian Strong Motion Network (RAN)" insttype="" lat="40.297" lon="15.9887" esm:processing="manual (Paolucci et al 2011)" esm:quality="good">
		<comp name="--.HNE" depth="0.0">
			<acc value="0.0205835577693212" flag="0"/>
			<vel value="0.0122307693012639" flag="0"/>
			<psa03 value="0.0542948936452385" flag="0"/>
			<psa10 value="0.0103868615160994" flag="0"/>
			<psa30 value="0.000788961223142345" flag="0"/>
		</comp>
		<comp name="--.HNN" depth="0.0">
			<acc value="0.0152011034178764" flag="0"/>
			<vel value="0.0117823063663956" flag="0"/>
			<psa03 value="0.0373659544777682" flag="0"/>
			<psa10 value="0.0120374199199931" flag="0"/>
			<psa30 value="0.000697579075773562" flag="0"/>
		</comp>
		<comp name="--.HNZ" depth="0.0">
			<acc value="0.01080621979114" flag="0"/>
			<vel value="0.00473330748926579" flag="0"/>
			<psa03 value="0.0471069383118076" flag="0"/>
			<psa10 value="0.00338606766974016" flag="0"/>
			<psa30 value="0.00035309091658201" flag="0"/>
		</comp>
	</station>
	<station code="MSR" name="MSR" netid="IT" source="Italian Strong Motion Network (RAN)" insttype="" lat="39.0768" lon="16.7897" esm:processing="manual (Paolucci et al 2011)" esm:quality="good">
		<comp name="--.HGE" depth="0.0">
			<acc value="0.0571693300262982" flag="0"/>
			<vel value="0.0258471689809224" flag="0"/>
			<psa03 value="0.147015780740771" flag="0"/>
			<psa10 value="0.0240516464285215" flag="0"/>
			<psa30 value="0.00169651915690215" flag="0"/>
		</comp>
		<comp name="--.HGN" depth="0.0">
			<acc value="0.121939261093294" flag="0"/>
			<vel value="0.038325847945525" flag="0"/>
			<psa03 value="0.15967898419886" flag="0"/>
			<psa10 value="0.0180407557365474" flag="0"/>
			<psa30 value="0.00153952500680782" flag="0"/>
		</comp>
		<comp name="--.HGZ" depth="0.0">
			<acc value="0.0540897036323611" flag="0"/>
			<vel value="0.0148904463405946" flag="0"/>
			<psa03 value="0.0827909844964097" flag="0"/>
			<psa10 value="0.00753235382523874" flag="0"/>
			<psa30 value="0.000720539242606327" flag="0"/>
		</comp>
	</station>
	<station code="NCH" name="NCH" netid="IT" source="Italian Strong Motion Network (RAN)" insttype="" lat="38.9621" lon="16.3151" esm:processing="manual (Paolucci et al 2011)" esm:quality="good">
		<comp name="--.HGE" depth="0.0">
			<acc value="0.0191838977800587" flag="0"/>
			<vel value="0.0176105111768577" flag="0"/>
			<psa03 value="0.0398481371393756" flag="0"/>
			<psa10 value="0.0227226821411547" flag="0"/>
			<psa30 value="0.00202274795545928" flag="0"/>
		</comp>
		<comp name="--.HGN" depth="0.0">
			<acc value="0.0225116469315079" flag="0"/>
			<vel value="0.0136593194621883" flag="0"/>
			<psa03 value="0.0649609283426923" flag="0"/>
			<psa10 value="0.0220801989548236" flag="0"/>
			<psa30 value="0.00140013796060289" flag="0"/>
		</comp>
		<comp name="--.HGZ" depth="0.0">
			<acc value="0.0169847619685623" flag="0"/>
			<vel value="0.0116414338203313" flag="0"/>
			<psa03 value="0.0400762590221465" flag="0"/>
			<psa10 value="0.0213271059411171" flag="0"/>
			<psa30 value="0.00107368966833699" flag="0"/>
		</comp>
	</station>
	<station code="PNI" name="PNI" netid="IT" source="Italian Strong Motion Network (RAN)" insttype="" lat="39.158" lon="16.4126" esm:processing="manual (Paolucci et al 2011)" esm:quality="best">
		<comp name="--.HGE" depth="0.0">
			<acc value="0.0325348383387992" flag="0"/>
			<vel value="0.0144760857795209" flag="0"/>
			<psa03 value="0.0611966216841392" flag="0"/>
			<psa10 value="0.0205653367276403" flag="0"/>
			<psa30 value="0.000977988224418197" flag="0"/>
		</comp>
		<comp name="--.HGN" depth="0.0">
			<acc value="0.0254011688755713" flag="0"/>
			<vel value="0.0133776547714548" flag="0"/>
			<psa03 value="0.0602920669703603" flag="0"/>
			<psa10 value="0.0115122145027121" flag="0"/>
			<psa30 value="0.00134966117926352" flag="0"/>
		</comp>
		<comp name="--.HGZ" depth="0.0">
			<acc value="0.0364589421282338" flag="0"/>
			<vel value="0.00975020019774611" flag="0"/>
