<?xml version="1.0" encoding="UTF-8" standalone="yes"?>
<!DOCTYPE earthquake SYSTEM "stationlist.dtd">
<stationlist created="" xmlns="ch.ethz.sed.shakemap.usgs.xml">
  <station code="DARE" name="DARE" netid="KO" insttype="CMG-3ESP" lat="38.5712" lon="37.4832">
    <comp name="--.HHN">
      <acc value="0.0392741303" flag="0"/>
      <vel value="0.0121633120" flag="0"/>
      <psa03 value="0.0618373430" flag="0"/>
      <psa10 value="0.0086740794" flag="0"/>
      <psa30 value="0.0006427594" flag="0"/>
    </comp>
  </station>
  <station code="KMRS" name="KMRS" netid="KO" insttype="CMG-3T" lat="37.5053" lon="36.9">
    <comp name="--.HHE">
      <acc value="0.0359392398" flag="0"/>
      <vel value="0.0276547008" flag="0"/>
      <psa03 value="0.0556039266" flag="0"/>
      <psa10 value="0.0259292416" flag="0"/>
      <psa30 value="0.0031695353" flag="0"/>
    </comp>
    <comp name="--.HHN">
      <acc value="0.0455606368" flag="0"/>
      <vel value="0.0348534320" flag="0"/>
      <psa03 value="0.1469076939" flag="0"/>
      <psa10 value="0.0201437817" flag="0"/>
      <psa30 value="0.0037608179" flag="0"/>
    </comp>
    <comp name="--.HHZ">
      <acc value="0.0252047679" flag="0"/>
      <vel value="0.0141788694" flag="0"/>
      <psa03 value="0.0709642635" flag="0"/>
      <psa10 value="0.0113967544" flag="0"/>
      <psa30 value="0.0037824275" flag="0"/>
    </comp>
  </station>
  <station code="SARI" name="SARI" netid="KO" insttype="CMG-3T" lat="38.4072" lon="36.4181">
    <comp name="--.HHZ">
      <acc value="0.0415841718" flag="0"/>
      <vel value="0.0212501071" flag="0"/>
      <psa03 value="0.1090976349" flag="0"/>
      <psa10 value="0.0104170427" flag="0"/>
      <psa30 value="0.0016564799" flag="0"/>
    </comp>
  </station>
  <station code="ANDN" name="ANDN" netid="TU" insttype="T" lat="37.58" lon="36.3452">
    <comp name="--.HHN">
      <acc value="0.1639792735" flag="0"/>
      <vel value="0.0658875679" flag="0"/>
      <psa03 value="0.2247994773" flag="0"/>
      <psa10 value="0.0864806349" flag="0"/>
      <psa30 value="0.0095834439" flag="0"/>
    </comp>
    <comp name="--.HHZ">
      <acc value="0.0712256348" flag="0"/>
      <vel value="0.0484200868" flag="0"/>
      <psa03 value="0.1002373324" flag="0"/>
      <psa10 value="0.0676547381" flag="0"/>
      <psa30 value="0.0063166002" flag="0"/>
    </comp>
    <comp name="--.HHE">
      <acc value="0.1242763721" flag="0"/>
      <vel value="0.0560952504" flag="0"/>
      <psa03 value="0.1438432430" flag="0"/>
      <psa10 value="0.1192257337" flag="0"/>
      <psa30 value="0.0078211790" flag="0"/>
    </comp>
  </station>
</stationlist>
