<?xml version="1.0" encoding="UTF-8" standalone="yes"?>
<!DOCTYPE earthquake SYSTEM "stationlist.dtd">
<stationlist created="" xmlns="ch.ethz.sed.shakemap.usgs.xml">
  <station code="KLV" name="KLV" netid="MN" insttype="" lat="38.0437" lon="22.1504">
    <comp name="--.HHE">
      <acc value="0.0613928573" flag="0"/>
      <vel value="0.0217389506" flag="0"/>
      <psa03 value="0.1063758461" flag="0"/>
      <psa10 value="0.0155641323" flag="0"/>
      <psa30 value="0.0009745642" flag="0"/>
    </comp>
    <comp name="--.HHZ">
      <acc value="0.0616149457" flag="0"/>
      <vel value="0.0188443637" flag="0"/>
      <psa03 value="0.0774665877" flag="0"/>
      <psa10 value="0.0192605362" flag="0"/>
      <psa30 value="0.0009714903" flag="0"/>
    </comp>
    <comp name="--.HHN">
      <acc value="0.0567732260" flag="0"/>
      <vel value="0.0302198865" flag="0"/>
      <psa03 value="0.0954577736" flag="0"/>
      <psa10 value="0.0231088469" flag="0"/>
      <psa30 value="0.0018133713" flag="0"/>
    </comp>
  </station>
</stationlist>
