<?xml version="1.0" encoding="UTF-8" standalone="yes"?>
<!DOCTYPE earthquake SYSTEM "stationlist.dtd">
<stationlist created="" xmlns="ch.ethz.sed.shakemap.usgs.xml">
  <station code="ACOR" name="ACOR" netid="HA" insttype="30" lat="37.8902" lon="22.8692">
    <comp name="--.HHZ">
      <acc value="0.0040320711" flag="0"/>
      <vel value="0.0024105831" flag="0"/>
      <psa03 value="0.0100377675" flag="0"/>
      <psa10 value="0.0050766337" flag="0"/>
      <psa30 value="0.0002971090" flag="0"/>
    </comp>
    <comp name="--.HHE">
      <acc value="0.0067113698" flag="0"/>
      <vel value="0.0039335825" flag="0"/>
      <psa03 value="0.0115911881" flag="0"/>
      <psa10 value="0.0035978950" flag="0"/>
      <psa30 value="0.0004020694" flag="0"/>
    </comp>
    <comp name="--.HHN">
      <acc value="0.0205957574" flag="0"/>
      <vel value="0.0176226018" flag="0"/>
      <psa03 value="0.0370794233" flag="0"/>
      <psa10 value="0.0224777238" flag="0"/>
      <psa30 value="0.0032407797" flag="0"/>
    </comp>
  </station>
  <station code="AIGS" name="AIGS" netid="HA" insttype="DC" lat="38.25" lon="22.0878">
    <comp name="--.HNN">
      <acc value="0.1382550689" flag="0"/>
      <vel value="0.0460410365" flag="0"/>
      <psa03 value="0.1941578320" flag="0"/>
      <psa10 value="0.0233012472" flag="0"/>
      <psa30 value="0.0021823854" flag="0"/>
    </comp>
    <comp name="--.HNE">
      <acc value="0.1754568351" flag="0"/>
      <vel value="0.0512363990" flag="0"/>
      <psa03 value="0.2496524679" flag="0"/>
      <psa10 value="0.0258087057" flag="0"/>
      <psa30 value="0.0017641883" flag="0"/>
    </comp>
    <comp name="--.HNZ">
      <acc value="0.1907111627" flag="0"/>
      <vel value="0.0488690006" flag="0"/>
      <psa03 value="0.1859988875" flag="0"/>
      <psa10 value="0.0227750188" flag="0"/>
      <psa30 value="0.0014105212" flag="0"/>
    </comp>
  </station>
  <station code="CORS" name="CORS" netid="HA" insttype="DC" lat="38.2562" lon="22.0748">
    <comp name="00.HNZ">
      <acc value="0.0670601345" flag="0"/>
      <vel value="0.0232887969" flag="0"/>
      <psa03 value="0.1342925994" flag="0"/>
      <psa10 value="0.0155079396" flag="0"/>
      <psa30 value="0.0009498586" flag="0"/>
    </comp>
    <comp name="00.HNN">
      <acc value="0.0692540935" flag="0"/>
      <vel value="0.0302193512" flag="0"/>
      <psa03 value="0.1821289852" flag="0"/>
      <psa10 value="0.0346669358" flag="0"/>
      <psa30 value="0.0014665353" flag="0"/>
    </comp>
    <comp name="00.HNE">
      <acc value="0.0931224796" flag="0"/>
      <vel value="0.0339273199" flag="0"/>
      <psa03 value="0.1444272839" flag="0"/>
      <psa10 value="0.0400841516" flag="0"/>
      <psa30 value="0.0022301691" flag="0"/>
    </comp>
  </station>
  <station code="DOMV" name="DOMV" netid="HA" insttype="60" lat="38.2569" lon="22.9795">
    <comp name="--.HHN">
      <acc value="0.0145719043" flag="0"/>
      <vel value="0.0066273748" flag="0"/>
      <psa03 value="0.0466642063" flag="0"/>
      <psa10 value="0.0035502533" flag="0"/>
      <psa30 value="0.0003914176" flag="0"/>
    </comp>
    <comp name="--.HHZ">
      <acc value="0.0119071185" flag="0"/>
      <vel value="0.0051643581" flag="0"/>
      <psa03 value="0.0372609458" flag="0"/>
      <psa10 value="0.0034288817" flag="0"/>
      <psa30 value="0.0001805355" flag="0"/>
    </comp>
    <comp name="--.HHE">
      <acc value="0.0194743352" flag="0"/>
      <vel value="0.0093893351" flag="0"/>
      <psa03 value="0.0627823039" flag="0"/>
      <psa10 value="0.0028652755" flag="0"/>
      <psa30 value="0.0002488762" flag="0"/>
    </comp>
  </station>
  <station code="DRES" name="DRES" netid="HA" insttype="DC" lat="38.3197" lon="21.8532">
    <comp name="--.HNE">
      <acc value="0.6317789569" flag="0"/>
      <vel value="0.2431733534" flag="0"/>
      <psa03 value="0.8395488413" flag="0"/>
      <psa10 value="0.0876834163" flag="0"/>
      <psa30 value="0.0063971720" flag="0"/>
    </comp>
    <comp name="--.HNN">
      <acc value="0.5185078042" flag="0"/>
      <vel value="0.2260973096" flag="0"/>
      <psa03 value="0.7377975779" flag="0"/>
      <psa10 value="0.0862527444" flag="0"/>
      <psa30 value="0.0081486873" flag="0"/>
    </comp>
    <comp name="--.HNZ">
      <acc value="0.3266034111" flag="0"/>
      <vel value="0.0811667306" flag="0"/>
      <psa03 value="0.2140916948" flag="0"/>
      <psa10 value="0.0200936398" flag="0"/>
      <psa30 value="0.0017568618" flag="0"/>
    </comp>
  </station>
  <station code="KALE" name="KALE" netid="HA" insttype="40," lat="38.3911" lon="22.1398">
    <comp name="--.HHE">
      <acc value="0.0815303422" flag="0"/>
      <vel value="0.0310646017" flag="0"/>
      <psa03 value="0.1250543864" flag="0"/>
      <psa10 value="0.0203201670" flag="0"/>
      <psa30 value="0.0013288172" flag="0"/>
    </comp>
    <comp name="--.HHN">
      <acc value="0.0684869514" flag="0"/>
      <vel value="0.0283765821" flag="0"/>
      <psa03 value="0.0986615177" flag="0"/>
      <psa10 value="0.0257115028" flag="0"/>
      <psa30 value="0.0012779113" flag="0"/>
    </comp>
    <comp name="--.HHZ">
      <acc value="0.0544840970" flag="0"/>
      <vel value="0.0220325150" flag="0"/>
      <psa03 value="0.1171589263" flag="0"/>
      <psa10 value="0.0099860469" flag="0"/>
      <psa30 value="0.0009146454" flag="0"/>
    </comp>
  </station>
  <station code="LOUT" name="LOUT" netid="HA" insttype="30" lat="37.9879" lon="22.9743">
    <comp name="--.HHE">
      <acc value="0.0101677196" flag="0"/>
      <vel value="0.0075863153" flag="0"/>
      <psa03 value="0.0278234409" flag="0"/>
      <psa10 value="0.0054775570" flag="0"/>
      <psa30 value="0.0005005426" flag="0"/>
    </comp>
    <comp name="--.HHZ">
      <acc value="0.0137255888" flag="0"/>
      <vel value="0.0026450674" flag="0"/>
      <psa03 value="0.0114754634" flag="0"/>
      <psa10 value="0.0030823464" flag="0"/>
      <psa30 value="0.0002694312" flag="0"/>
    </comp>
    <comp name="--.HHN">
      <acc value="0.0210963021" flag="0"/>
      <vel value="0.0066651554" flag="0"/>
      <psa03 value="0.0231783032" flag="0"/>
      <psa10 value="0.0074269442" flag="0"/>
      <psa30 value="0.0004705745" flag="0"/>
    </comp>
  </station>
  <station code="THAL" name="THAL" netid="HA" insttype="30" lat="38.0357" lon="22.6634">
    <comp name="--.HHN">
      <acc value="0.0452674785" flag="0"/>
      <vel value="0.0187812255" flag="0"/>
      <psa03 value="0.1319180309" flag="0"/>
      <psa10 value="0.0222264680" flag="0"/>
      <psa30 value="0.0013251928" flag="0"/>
    </comp>
    <comp name="--.HHZ">
      <acc value="0.0300129361" flag="0"/>
      <vel value="0.0116177360" flag="0"/>
      <psa03 value="0.0469879777" flag="0"/>
      <psa10 value="0.0118326209" flag="0"/>
      <psa30 value="0.0008105880" flag="0"/>
    </comp>
    <comp name="--.HHE">
      <acc value="0.0494636510" flag="0"/>
      <vel value="0.0232122604" flag="0"/>
      <psa03 value="0.0810219757" flag="0"/>
      <psa10 value="0.0219774358" flag="0"/>
      <psa30 value="0.0013214136" flag="0"/>
    </comp>
  </station>
  <station code="ARG2" name="ARG2" netid="HI" insttype="CMG-5TD,ACCELEROMETER,GURALP" lat="38.1783" lon="20.4878">
    <comp name="--.HNE">
      <acc value="0.0523346644" flag="0"/>
      <vel value="0.0136154016" flag="0"/>
      <psa03 value="0.0786685531" flag="0"/>
      <psa10 value="0.0050763672" flag="0"/>
      <psa30 value="0.0004598147" flag="0"/>
    </comp>
    <comp name="--.HNN">
      <acc value="0.0825716441" flag="0"/>
      <vel value="0.0202766383" flag="0"/>
      <psa03 value="0.0770511288" flag="0"/>
      <psa10 value="0.0103379445" flag="0"/>
      <psa30 value="0.0009429402" flag="0"/>
    </comp>
    <comp name="--.HNZ">
      <acc value="0.0571127723" flag="0"/>
      <vel value="0.0094661806" flag="0"/>
      <psa03 value="0.0519011911" flag="0"/>
      <psa10 value="0.0041204069" flag="0"/>
      <psa30 value="0.0003651641" flag="0"/>
    </comp>
  </station>
  <station code="KLV1" name="KLV1" netid="HI" insttype="CMG-5TD,ACCELEROMETER,GURALP" lat="38.0326" lon="22.108">
    <comp name="--.HNE">
      <acc value="0.2135364315" flag="0"/>
      <vel value="0.1123327587" flag="0"/>
      <psa03 value="0.7483095922" flag="0"/>
      <psa10 value="0.0533342710" flag="0"/>
      <psa30 value="0.0031446091" flag="0"/>
    </comp>
    <comp name="--.HNZ">
      <acc value="0.1128657721" flag="0"/>
      <vel value="0.0367653246" flag="0"/>
      <psa03 value="0.3088407542" flag="0"/>
      <psa10 value="0.0362940745" flag="0"/>
      <psa30 value="0.0015027735" flag="0"/>
    </comp>
    <comp name="--.HNN">
      <acc value="0.1794018839" flag="0"/>
      <vel value="0.0636748266" flag="0"/>
      <psa03 value="0.3938578059" flag="0"/>
      <psa10 value="0.0459798449" flag="0"/>
      <psa30 value="0.0038830419" flag="0"/>
    </comp>
  </station>
  <station code="KRI1" name="KRI1" netid="HI" insttype="CMG-5TD,ACCELEROMETER,GURALP" lat="37.6621" lon="20.8172">
    <comp name="--.HNE">
      <acc value="0.0283742113" flag="0"/>
      <vel value="0.0087783891" flag="0"/>
      <psa03 value="0.0449036919" flag="0"/>
      <psa10 value="0.0102031761" flag="0"/>
      <psa30 value="0.0006589625" flag="0"/>
    </comp>
    <comp name="--.HNN">
      <acc value="0.0163931614" flag="0"/>
      <vel value="0.0097501173" flag="0"/>
      <psa03 value="0.0516004900" flag="0"/>
      <psa10 value="0.0159071597" flag="0"/>
      <psa30 value="0.0010235988" flag="0"/>
    </comp>
    <comp name="--.HNZ">
      <acc value="0.0094292265" flag="0"/>
      <vel value="0.0036620042" flag="0"/>
      <psa03 value="0.0208580911" flag="0"/>
      <psa10 value="0.0040674491" flag="0"/>
      <psa30 value="0.0003878163" flag="0"/>
    </comp>
  </station>
  <station code="MSL1" name="MSL1" netid="HI" insttype="CMG-5TD,ACCELEROMETER,GURALP" lat="38.3727" lon="21.4243">
    <comp name="--.HNE">
      <acc value="0.1022465464" flag="0"/>
      <vel value="0.0553479074" flag="0"/>
      <psa03 value="0.2859435950" flag="0"/>
      <psa10 value="0.1010202785" flag="0"/>
      <psa30 value="0.0047085520" flag="0"/>
    </comp>
    <comp name="--.HNZ">
      <acc value="0.0709422055" flag="0"/>
      <vel value="0.0260497171" flag="0"/>
      <psa03 value="0.1006507221" flag="0"/>
      <psa10 value="0.0401420394" flag="0"/>
      <psa30 value="0.0018067455" flag="0"/>
    </comp>
    <comp name="--.HNN">
      <acc value="0.0885924685" flag="0"/>
      <vel value="0.0720971739" flag="0"/>
      <psa03 value="0.2800346797" flag="0"/>
      <psa10 value="0.0804995326" flag="0"/>
      <psa30 value="0.0058634833" flag="0"/>
    </comp>
  </station>
  <station code="EVR" name="EVR" netid="HL" insttype="DR24" lat="38.9166" lon="21.8105">
    <comp name="--.HHZ">
      <acc value="0.0079557193" flag="0"/>
      <vel value="0.0070313416" flag="0"/>
      <psa03 value="0.0134246310" flag="0"/>
      <psa10 value="0.0089976620" flag="0"/>
      <psa30 value="0.0008359201" flag="0"/>
    </comp>
    <comp name="--.HHN">
      <acc value="0.0089799131" flag="0"/>
      <vel value="0.0051354114" flag="0"/>
      <psa03 value="0.0198161385" flag="0"/>
      <psa10 value="0.0054385141" flag="0"/>
      <psa30 value="0.0005731316" flag="0"/>
    </comp>
    <comp name="--.HHE">
      <acc value="0.0105817925" flag="0"/>
      <vel value="0.0055898629" flag="0"/>
      <psa03 value="0.0228033316" flag="0"/>
      <psa10 value="0.0097788753" flag="0"/>
      <psa30 value="0.0011129051" flag="0"/>
    </comp>
  </station>
  <station code="ITM" name="ITM" netid="HL" insttype="DR24" lat="37.1787" lon="21.9252">
    <comp name="--.HHZ">
      <acc value="0.0068254397" flag="0"/>
      <vel value="0.0035140434" flag="0"/>
      <psa03 value="0.0163770118" flag="0"/>
      <psa10 value="0.0059077575" flag="0"/>
      <psa30 value="0.0003860918" flag="0"/>
    </comp>
    <comp name="--.HHE">
      <acc value="0.0099344949" flag="0"/>
      <vel value="0.0051816548" flag="0"/>
      <psa03 value="0.0201923636" flag="0"/>
      <psa10 value="0.0097372038" flag="0"/>
      <psa30 value="0.0004594280" flag="0"/>
    </comp>
    <comp name="--.HHN">
      <acc value="0.0101823804" flag="0"/>
      <vel value="0.0055583133" flag="0"/>
      <psa03 value="0.0257879207" flag="0"/>
      <psa10 value="0.0045735592" flag="0"/>
      <psa30 value="0.0003344546" flag="0"/>
    </comp>
  </station>
  <station code="KLV" name="KLV" netid="HL" insttype="120" lat="38.0435" lon="22.1504">
    <comp name="--.HHE">
      <acc value="0.0589707008" flag="0"/>
      <vel value="0.0210954812" flag="0"/>
      <psa03 value="0.1042473838" flag="0"/>
      <psa10 value="0.0154493137" flag="0"/>
      <psa30 value="0.0009631696" flag="0"/>
    </comp>
    <comp name="--.HHN">
      <acc value="0.0533698921" flag="0"/>
      <vel value="0.0296808337" flag="0"/>
      <psa03 value="0.0934106347" flag="0"/>
      <psa10 value="0.0228851795" flag="0"/>
      <psa30 value="0.0018021459" flag="0"/>
    </comp>
    <comp name="--.HHZ">
      <acc value="0.0567635362" flag="0"/>
      <vel value="0.0182613359" flag="0"/>
      <psa03 value="0.0754719416" flag="0"/>
      <psa10 value="0.0191301495" flag="0"/>
      <psa30 value="0.0009637650" flag="0"/>
    </comp>
  </station>
  <station code="ORTH" name="ORTH" netid="HL" insttype="30" lat="37.8511" lon="20.6963">
    <comp name="--.HHZ">
      <acc value="0.0326891513" flag="0"/>
      <vel value="0.0045999633" flag="0"/>
      <psa03 value="0.0322785639" flag="0"/>
      <psa10 value="0.0021792422" flag="0"/>
      <psa30 value="0.0002798908" flag="0"/>
    </comp>
    <comp name="--.HHN">
      <acc value="0.0429059106" flag="0"/>
      <vel value="0.0107634830" flag="0"/>
      <psa03 value="0.0553859018" flag="0"/>
      <psa10 value="0.0069725235" flag="0"/>
      <psa30 value="0.0005447375" flag="0"/>
    </comp>
    <comp name="--.HHE">
      <acc value="0.0395394420" flag="0"/>
      <vel value="0.0107852623" flag="0"/>
      <psa03 value="0.0639246855" flag="0"/>
      <psa10 value="0.0068343090" flag="0"/>
      <psa30 value="0.0003251988" flag="0"/>
    </comp>
  </station>
  <station code="PATC" name="PATC" netid="HL" insttype="CMG-5" lat="38.2693" lon="21.76">
    <comp name="00.HNN">
      <acc value="0.6895500430" flag="0"/>
      <vel value="0.3553563242" flag="0"/>
      <psa03 value="2.2513073212" flag="0"/>
      <psa10 value="0.1559840935" flag="0"/>
      <psa30 value="0.0138881340" flag="0"/>
    </comp>
    <comp name="00.HNZ">
      <acc value="0.3967464007" flag="0"/>
      <vel value="0.1156545563" flag="0"/>
      <psa03 value="1.1503227007" flag="0"/>
      <psa10 value="0.0853472850" flag="0"/>
      <psa30 value="0.0059657684" flag="0"/>
    </comp>
    <comp name="00.HNE">
      <acc value="1.0259715468" flag="0"/>
      <vel value="0.5879080221" flag="0"/>
      <psa03 value="2.4825231817" flag="0"/>
      <psa10 value="0.3554941492" flag="0"/>
      <psa30 value="0.0323365845" flag="0"/>
    </comp>
  </station>
  <station code="PATG" name="PATG" netid="HL" insttype="CMG-5" lat="38.2386" lon="21.7266">
    <comp name="00.HNN">
      <acc value="4.1714543587" flag="0"/>
      <vel value="1.4730101571" flag="0"/>
      <psa03 value="6.4975519826" flag="0"/>
      <psa10 value="0.3854301893" flag="0"/>
      <psa30 value="0.0440027044" flag="0"/>
    </comp>
    <comp name="00.HNE">
      <acc value="5.4275935522" flag="0"/>
      <vel value="1.9817061763" flag="0"/>
      <psa03 value="8.0528603552" flag="0"/>
      <psa10 value="0.4516032262" flag="0"/>
      <psa30 value="0.0555162246" flag="0"/>
    </comp>
    <comp name="00.HNZ">
      <acc value="0.9163792746" flag="0"/>
      <vel value="0.2933789536" flag="0"/>
      <psa03 value="1.5724025493" flag="0"/>
      <psa10 value="0.0693590448" flag="0"/>
      <psa30 value="0.0061039942" flag="0"/>
    </comp>
  </station>
  <station code="RIOA" name="RIOA" netid="HL" insttype="CMG-5" lat="38.2959" lon="21.7912">
    <comp name="00.HNN">
      <acc value="0.6825330919" flag="0"/>
      <vel value="0.2011212605" flag="0"/>
      <psa03 value="0.7859071797" flag="0"/>
      <psa10 value="0.1281292336" flag="0"/>
      <psa30 value="0.0125457553" flag="0"/>
    </comp>
    <comp name="00.HNZ">
      <acc value="0.4403760976" flag="0"/>
      <vel value="0.0972273522" flag="0"/>
      <psa03 value="0.2953384098" flag="0"/>
      <psa10 value="0.0442830700" flag="0"/>
      <psa30 value="0.0034633311" flag="0"/>
    </comp>
    <comp name="00.HNE">
      <acc value="0.4967680136" flag="0"/>
      <vel value="0.1525972939" flag="0"/>
      <psa03 value="0.8397485185" flag="0"/>
      <psa10 value="0.0987628890" flag="0"/>
      <psa30 value="0.0091025918" flag="0"/>
    </comp>
  </station>
  <station code="RLS" name="RLS" netid="HL" insttype="CMG3ESPC-120s" lat="38.0559" lon="21.4647">
    <comp name="--.HHE">
      <acc value="0.8604376401" flag="0"/>
      <vel value="0.1893970451" flag="0"/>
      <psa03 value="0.5914188383" flag="0"/>
      <psa10 value="0.0613882874" flag="0"/>
      <psa30 value="0.0059885194" flag="0"/>
    </comp>
    <comp name="--.HHN">
      <acc value="0.8940256004" flag="0"/>
      <vel value="0.1806666365" flag="0"/>
      <psa03 value="0.4049318685" flag="0"/>
      <psa10 value="0.0252922425" flag="0"/>
      <psa30 value="0.0024569789" flag="0"/>
    </comp>
    <comp name="--.HHZ">
      <acc value="0.2444364919" flag="0"/>
      <vel value="0.0383736876" flag="0"/>
      <psa03 value="0.1535070204" flag="0"/>
      <psa10 value="0.0155489051" flag="0"/>
      <psa30 value="0.0013868191" flag="0"/>
    </comp>
  </station>
  <station code="VLS" name="VLS" netid="HL" insttype="120P," lat="38.1768" lon="20.5886">
    <comp name="--.HHN">
      <acc value="0.1337995469" flag="0"/>
      <vel value="0.0250836083" flag="0"/>
      <psa03 value="0.0789609602" flag="0"/>
      <psa10 value="0.0105634039" flag="0"/>
      <psa30 value="0.0006605786" flag="0"/>
    </comp>
    <comp name="--.HHZ">
      <acc value="0.0584464164" flag="0"/>
      <vel value="0.0110333722" flag="0"/>
      <psa03 value="0.0397751013" flag="0"/>
      <psa10 value="0.0058888801" flag="0"/>
      <psa30 value="0.0002923709" flag="0"/>
    </comp>
    <comp name="--.HHE">
      <acc value="0.1209596435" flag="0"/>
      <vel value="0.0125857701" flag="0"/>
      <psa03 value="0.0446008153" flag="0"/>
      <psa10 value="0.0034549357" flag="0"/>
      <psa30 value="0.0003743750" flag="0"/>
    </comp>
  </station>
  <station code="AMPL" name="AMPL" netid="HP" insttype="Compact," lat="38.9224" lon="21.2135">
    <comp name="--.HHZ">
      <acc value="0.0150955411" flag="0"/>
      <vel value="0.0027876927" flag="0"/>
      <psa03 value="0.0156424706" flag="0"/>
      <psa10 value="0.0033896901" flag="0"/>
      <psa30 value="0.0002573797" flag="0"/>
    </comp>
    <comp name="--.HHE">
      <acc value="0.0099870971" flag="0"/>
      <vel value="0.0040200928" flag="0"/>
      <psa03 value="0.0194066408" flag="0"/>
      <psa10 value="0.0043435472" flag="0"/>
      <psa30 value="0.0003849488" flag="0"/>
    </comp>
    <comp name="--.HHN">
      <acc value="0.0115633641" flag="0"/>
      <vel value="0.0032557819" flag="0"/>
      <psa03 value="0.0160483060" flag="0"/>
      <psa10 value="0.0046128151" flag="0"/>
      <psa30 value="0.0003581270" flag="0"/>
    </comp>
  </station>
  <station code="AMT" name="AMT" netid="HP" insttype="CMG-3T," lat="37.5324" lon="21.7089">
    <comp name="00.HHN">
      <acc value="0.0794216966" flag="0"/>
      <vel value="0.0478885034" flag="0"/>
      <psa03 value="0.2416638330" flag="0"/>
      <psa10 value="0.0236330283" flag="0"/>
      <psa30 value="0.0014010898" flag="0"/>
    </comp>
    <comp name="00.HHE">
      <acc value="0.0850449824" flag="0"/>
