<?xml version="1.0" encoding="UTF-8" standalone="yes"?>
<!DOCTYPE earthquake SYSTEM "stationlist.dtd">
<stationlist created="" xmlns="ch.ethz.sed.shakemap.usgs.xml">
  <station code="WALT" name="WALT" netid="FR" insttype="TRILLIUM-Compact" lat="47.9657" lon="7.27652">
    <comp name="00.HH1">
      <acc value="0.1662431533" flag="0"/>
      <vel value="0.0688295485" flag="0"/>
      <psa03 value="0.2710416967" flag="0"/>
      <psa10 value="0.0395786119" flag="0"/>
      <psa30 value="0.0032257979" flag="0"/>
    </comp>
    <comp name="00.HH2">
      <acc value="0.2006069292" flag="0"/>
      <vel value="0.0696419897" flag="0"/>
      <psa03 value="0.2677367238" flag="0"/>
      <psa10 value="0.0309253209" flag="0"/>
      <psa30 value="0.0021598095" flag="0"/>
    </comp>
    <comp name="00.HHZ">
      <acc value="0.2141763948" flag="0"/>
      <vel value="0.0568933319" flag="0"/>
      <psa03 value="0.2256333244" flag="0"/>
      <psa10 value="0.0431459047" flag="0"/>
      <psa30 value="0.0015423614" flag="0"/>
    </comp>
  </station>
  <station code="BFO" name="BFO" netid="GR" insttype="" lat="48.3301" lon="8.3296">
    <comp name="--.HHE">
      <acc value="0.0662875807" flag="0"/>
      <vel value="0.0188610952" flag="0"/>
      <psa03 value="0.0587291560" flag="0"/>
      <psa10 value="0.0054986206" flag="0"/>
      <psa30 value="0.0008108568" flag="0"/>
    </comp>
    <comp name="--.HHN">
      <acc value="0.0502029524" flag="0"/>
      <vel value="0.0148607648" flag="0"/>
      <psa03 value="0.0614554933" flag="0"/>
      <psa10 value="0.0046680972" flag="0"/>
      <psa30 value="0.0006542013" flag="0"/>
    </comp>
    <comp name="--.HHZ">
      <acc value="0.0883455809" flag="0"/>
      <vel value="0.0306009157" flag="0"/>
      <psa03 value="0.1083585770" flag="0"/>
      <psa10 value="0.0073153399" flag="0"/>
      <psa30 value="0.0008406924" flag="0"/>
    </comp>
  </station>
</stationlist>
