<?xml version="1.0" encoding="UTF-8" standalone="yes"?>
<!DOCTYPE earthquake SYSTEM "stationlist.dtd">
<stationlist created="" xmlns="ch.ethz.sed.shakemap.usgs.xml">
  <station code="ACB" name="ACB" netid="CH" insttype="Trillium 240s_g2" lat="47.5877" lon="8.25474">
    <comp name="--.HHE">
      <acc value="0.1149903823" flag="0"/>
      <vel value="0.0419779712" flag="0"/>
      <psa03 value="0.2464833690" flag="0"/>
      <psa10 value="0.0211621205" flag="0"/>
      <psa30 value="0.0016113399" flag="0"/>
    </comp>
    <comp name="--.HHZ">
      <acc value="0.1142866622" flag="0"/>
      <vel value="0.0321491712" flag="0"/>
      <psa03 value="0.2803778929" flag="0"/>
      <psa10 value="0.0163948153" flag="0"/>
      <psa30 value="0.0010473111" flag="0"/>
    </comp>
    <comp name="--.HHN">
      <acc value="0.2061201702" flag="0"/>
      <vel value="0.1199415406" flag="0"/>
      <psa03 value="0.4861175081" flag="0"/>
      <psa10 value="0.0564449949" flag="0"/>
      <psa30 value="0.0036982278" flag="0"/>
    </comp>
  </station>
  <station code="BALST" name="BALST" netid="CH" insttype="STS2_gen3" lat="47.336" lon="7.69485">
    <comp name="--.HHN">
      <acc value="0.1285408959" flag="0"/>
      <vel value="0.0354560611" flag="0"/>
      <psa03 value="0.1394500509" flag="0"/>
      <psa10 value="0.0089015801" flag="0"/>
      <psa30 value="0.0006031559" flag="0"/>
    </comp>
    <comp name="--.HHE">
      <acc value="0.2969343518" flag="0"/>
      <vel value="0.0614293355" flag="0"/>
      <psa03 value="0.2294079447" flag="0"/>
      <psa10 value="0.0197651663" flag="0"/>
      <psa30 value="0.0013440276" flag="0"/>
    </comp>
    <comp name="--.HHZ">
      <acc value="0.1856190132" flag="0"/>
      <vel value="0.0323069952" flag="0"/>
      <psa03 value="0.1127875608" flag="0"/>
      <psa10 value="0.0165237038" flag="0"/>
      <psa30 value="0.0008797735" flag="0"/>
    </comp>
  </station>
  <station code="BAULM" name="BAULM" netid="CH" insttype="Trillium Compact 120s" lat="46.7872" lon="6.46757">
    <comp name="--.HHE">
      <acc value="0.0518299661" flag="0"/>
      <vel value="0.0193061274" flag="0"/>
      <psa03 value="0.1438518402" flag="0"/>
      <psa10 value="0.0097642996" flag="0"/>
      <psa30 value="0.0008029973" flag="0"/>
    </comp>
    <comp name="--.HHZ">
      <acc value="0.0975125562" flag="0"/>
      <vel value="0.0252889330" flag="0"/>
      <psa03 value="0.0935330847" flag="0"/>
      <psa10 value="0.0051894961" flag="0"/>
      <psa30 value="0.0005218522" flag="0"/>
    </comp>
  </station>
  <station code="BERGE" name="BERGE" netid="CH" insttype="Trillium Compact 120s" lat="47.8716" lon="8.17798">
    <comp name="--.HHN">
      <acc value="0.1863628038" flag="0"/>
      <vel value="0.0382068714" flag="0"/>
      <psa03 value="0.1632090773" flag="0"/>
      <psa10 value="0.0165870474" flag="0"/>
      <psa30 value="0.0011108701" flag="0"/>
    </comp>
  </station>
  <station code="CHAMB" name="CHAMB" netid="CH" insttype="Trillium Compact 120s" lat="46.7823" lon="6.61184">
    <comp name="--.HHZ">
      <acc value="0.1417160793" flag="0"/>
      <vel value="0.0367272491" flag="0"/>
      <psa03 value="0.1613222336" flag="0"/>
      <psa10 value="0.0061941927" flag="0"/>
      <psa30 value="0.0006880776" flag="0"/>
    </comp>
  </station>
  <station code="SBAW" name="SBAW" netid="CH" insttype="EpiSensor ES-T" lat="47.5476" lon="7.60385">
    <comp name="--.HGZ">
      <acc value="0.5674251206" flag="0"/>
      <vel value="0.1216945437" flag="0"/>
      <psa03 value="0.4558660940" flag="0"/>
      <psa10 value="0.0462866946" flag="0"/>
      <psa30 value="0.0033524174" flag="0"/>
    </comp>
  </station>
  <station code="SFRS" name="SFRS" netid="CH" insttype="EpiSensor ES-T" lat="46.5823" lon="7.65632">
    <comp name="--.HGN">
      <acc value="0.2743561669" flag="0"/>
      <vel value="0.0999898218" flag="0"/>
      <psa03 value="0.4640656398" flag="0"/>
      <psa10 value="0.0403911578" flag="0"/>
      <psa30 value="0.0029996695" flag="0"/>
    </comp>
  </station>
  <station code="SKEK" name="SKEK" netid="CH" insttype="EpiSensor ES-T" lat="46.9022" lon="8.27752">
    <comp name="--.HGZ">
      <acc value="0.1597426195" flag="0"/>
      <vel value="0.0458489991" flag="0"/>
      <psa03 value="0.2408039735" flag="0"/>
      <psa10 value="0.0090792466" flag="0"/>
      <psa30 value="0.0006857347" flag="0"/>
    </comp>
  </station>
  <station code="SKLW" name="SKLW" netid="CH" insttype="EpiSensor ES-T" lat="47.463" lon="8.56745">
    <comp name="--.HGZ">
      <acc value="0.3017070896" flag="0"/>
      <vel value="0.0692300000" flag="0"/>
      <psa03 value="0.1525009600" flag="0"/>
      <psa10 value="0.0190923519" flag="0"/>
      <psa30 value="0.0009944136" flag="0"/>
    </comp>
    <comp name="--.HGE">
      <acc value="0.5330650884" flag="0"/>
      <vel value="0.1871457191" flag="0"/>
      <psa03 value="0.8258902187" flag="0"/>
      <psa10 value="0.0307531106" flag="0"/>
      <psa30 value="0.0029549413" flag="0"/>
    </comp>
    <comp name="--.HGN">
      <acc value="0.3828085536" flag="0"/>
      <vel value="0.1628350347" flag="0"/>
      <psa03 value="0.4338528711" flag="0"/>
      <psa10 value="0.0620067927" flag="0"/>
      <psa30 value="0.0050845502" flag="0"/>
    </comp>
  </station>
  <station code="SLTM2" name="SLTM2" netid="CH" insttype="EpiSensor ES-T" lat="46.9236" lon="9.0009">
    <comp name="--.HGZ">
      <acc value="0.0896018225" flag="0"/>
      <vel value="0.0281654033" flag="0"/>
      <psa03 value="0.2126019286" flag="0"/>
      <psa10 value="0.0095388756" flag="0"/>
      <psa30 value="0.0006410589" flag="0"/>
    </comp>
  </station>
  <station code="SLUB" name="SLUB" netid="CH" insttype="EpiSensor ES-T" lat="47.0579" lon="8.30548">
    <comp name="--.HGE">
      <acc value="0.1264557652" flag="0"/>
      <vel value="0.0253894710" flag="0"/>
      <psa03 value="0.1945507381" flag="0"/>
      <psa10 value="0.0073740809" flag="0"/>
      <psa30 value="0.0007270313" flag="0"/>
    </comp>
    <comp name="--.HGN">
      <acc value="0.1127783032" flag="0"/>
      <vel value="0.0296303116" flag="0"/>
      <psa03 value="0.1441187477" flag="0"/>
      <psa10 value="0.0129706597" flag="0"/>
      <psa30 value="0.0008241379" flag="0"/>
    </comp>
    <comp name="--.HGZ">
      <acc value="0.0845717352" flag="0"/>
      <vel value="0.0262569753" flag="0"/>
      <psa03 value="0.1024865006" flag="0"/>
      <psa10 value="0.0054844687" flag="0"/>
      <psa30 value="0.0006603569" flag="0"/>
    </comp>
  </station>
  <station code="SLUK" name="SLUK" netid="CH" insttype="EpiSensor ES-T" lat="47.0479" lon="8.30833">
    <comp name="--.HGE">
      <acc value="0.8219657084" flag="0"/>
      <vel value="0.2741948564" flag="0"/>
      <psa03 value="1.3126274135" flag="0"/>
      <psa10 value="0.0843618778" flag="0"/>
      <psa30 value="0.0047727275" flag="0"/>
    </comp>
    <comp name="--.HGN">
      <acc value="0.4680837071" flag="0"/>
      <vel value="0.1441018916" flag="0"/>
      <psa03 value="0.8974371536" flag="0"/>
      <psa10 value="0.0920640138" flag="0"/>
      <psa30 value="0.0047234718" flag="0"/>
    </comp>
  </station>
  <station code="SRFW" name="SRFW" netid="CH" insttype="EpiSensor ES-T" lat="47.5532" lon="7.80678">
    <comp name="--.HGN">
      <acc value="0.9346146226" flag="0"/>
      <vel value="0.2528862140" flag="0"/>
      <psa03 value="1.0207418880" flag="0"/>
      <psa10 value="0.0707530602" flag="0"/>
      <psa30 value="0.0083344867" flag="0"/>
    </comp>
  </station>
  <station code="SRHB" name="SRHB" netid="CH" insttype="EpiSensor ES-T" lat="47.5713" lon="7.6244">
    <comp name="--.HGZ">
      <acc value="0.6027011794" flag="0"/>
      <vel value="0.1210197120" flag="0"/>
      <psa03 value="0.4355477773" flag="0"/>
      <psa10 value="0.0375553828" flag="0"/>
      <psa30 value="0.0023234420" flag="0"/>
    </comp>
  </station>
  <station code="SRHE" name="SRHE" netid="CH" insttype="EpiSensor ES-T" lat="47.5856" lon="7.64945">
    <comp name="--.HGE">
      <acc value="0.7646314637" flag="0"/>
      <vel value="0.3397498892" flag="0"/>
      <psa03 value="0.8955325812" flag="0"/>
      <psa10 value="0.1007878290" flag="0"/>
      <psa30 value="0.0070450949" flag="0"/>
    </comp>
    <comp name="--.HGZ">
      <acc value="1.0499390711" flag="0"/>
      <vel value="0.2155306326" flag="0"/>
      <psa03 value="0.4539167818" flag="0"/>
      <psa10 value="0.0326436766" flag="0"/>
      <psa30 value="0.0027310443" flag="0"/>
    </comp>
  </station>
  <station code="SULZ" name="SULZ" netid="CH" insttype="EpiSensor ES-T" lat="47.5275" lon="8.11187">
    <comp name="--.HGE">
      <acc value="0.0957493710" flag="0"/>
      <vel value="0.0322931498" flag="0"/>
      <psa03 value="0.1871938408" flag="0"/>
      <psa10 value="0.0171492473" flag="0"/>
      <psa30 value="0.0016345760" flag="0"/>
    </comp>
  </station>
  <station code="WALT" name="WALT" netid="FR" insttype="TRILLIUM-Compact" lat="47.9657" lon="7.27652">
    <comp name="00.HH1">
      <acc value="0.1662431533" flag="0"/>
      <vel value="0.0688295485" flag="0"/>
      <psa03 value="0.2710416967" flag="0"/>
      <psa10 value="0.0395786119" flag="0"/>
      <psa30 value="0.0032257979" flag="0"/>
    </comp>
    <comp name="00.HH2">
      <acc value="0.2006069292" flag="0"/>
      <vel value="0.0696419897" flag="0"/>
      <psa03 value="0.2677367238" flag="0"/>
      <psa10 value="0.0309253209" flag="0"/>
      <psa30 value="0.0021598095" flag="0"/>
    </comp>
    <comp name="00.HHZ">
      <acc value="0.2141763948" flag="0"/>
      <vel value="0.0568933319" flag="0"/>
      <psa03 value="0.2256333244" flag="0"/>
      <psa10 value="0.0431459047" flag="0"/>
      <psa30 value="0.0015423614" flag="0"/>
    </comp>
  </station>
  <station code="BFO" name="BFO" netid="GR" insttype="" lat="48.3301" lon="8.3296">
    <comp name="--.HHE">
      <acc value="0.0662875807" flag="0"/>
      <vel value="0.0188610952" flag="0"/>
      <psa03 value="0.0587291560" flag="0"/>
      <psa10 value="0.0054986206" flag="0"/>
      <psa30 value="0.0008108568" flag="0"/>
    </comp>
    <comp name="--.HHN">
      <acc value="0.0502029524" flag="0"/>
      <vel value="0.0148607648" flag="0"/>
      <psa03 value="0.0614554933" flag="0"/>
      <psa10 value="0.0046680972" flag="0"/>
      <psa30 value="0.0006542013" flag="0"/>
    </comp>
    <comp name="--.HHZ">
      <acc value="0.0883455809" flag="0"/>
      <vel value="0.0306009157" flag="0"/>
      <psa03 value="0.1083585770" flag="0"/>
      <psa10 value="0.0073153399" flag="0"/>
      <psa30 value="0.0008406924" flag="0"/>
    </comp>
  </station>
</stationlist>
