<stationlist created="1777686896">
	<station code="ACB" name="ACB" netid="CH" source="Switzerland Seismological Network" insttype="" lat="47.58772" lon="8.25474">
		<comp name="--.HGE" depth="0.0">
			<acc value="0.116525035582858" flag="0"/>
			<vel value="0.0500348353685415" flag="0"/>
			<psa03 value="0.285349778022151" flag="0"/>
			<psa10 value="0.0234267425317381" flag="0"/>
			<psa30 value="0.00180557544384479" flag="0"/>
		</comp>
		<comp name="--.HGN" depth="0.0">
			<acc value="0.211229822574313" flag="0"/>
			<vel value="0.122884281912375" flag="0"/>
			<psa03 value="0.468766595153423" flag="0"/>
			<psa10 value="0.0569226583468891" flag="0"/>
			<psa30 value="0.00371539154312214" flag="0"/>
		</comp>
		<comp name="--.HGZ" depth="0.0">
			<acc value="0.110355117930472" flag="0"/>
			<vel value="0.0325874200237227" flag="0"/>
			<psa03 value="0.285529414922251" flag="0"/>
			<psa10 value="0.0164898142442459" flag="0"/>
			<psa30 value="0.00103185700129484" flag="0"/>
		</comp>
	</station>
	<station code="AIGLE" name="AIGLE" netid="CH" source="Switzerland Seismological Network" insttype="" lat="46.34176" lon="6.95295">
		<comp name="--.HGE" depth="0.0">
			<acc value="0.0730879512911911" flag="0"/>
			<vel value="0.0196572291462218" flag="0"/>
			<psa03 value="0.0972434731527975" flag="0"/>
			<psa10 value="0.0123909295882568" flag="0"/>
			<psa30 value="0.000744478380536938" flag="0"/>
		</comp>
		<comp name="--.HGN" depth="0.0">
			<acc value="0.0373787859402687" flag="0"/>
			<vel value="0.0102989625604473" flag="0"/>
			<psa03 value="0.0471956941914416" flag="0"/>
			<psa10 value="0.0112409102801204" flag="0"/>
			<psa30 value="0.000671994255902895" flag="0"/>
		</comp>
		<comp name="--.HGZ" depth="0.0">
			<acc value="0.0506007947805706" flag="0"/>
			<vel value="0.0123150238103767" flag="0"/>
			<psa03 value="0.0383958898934352" flag="0"/>
			<psa10 value="0.00413624744358948" flag="0"/>
			<psa30 value="0.000422673078142035" flag="0"/>
		</comp>
	</station>
	<station code="BALST" name="BALST" netid="CH" source="Switzerland Seismological Network" insttype="" lat="47.33599" lon="7.69485">
		<comp name="--.HGE" depth="0.0">
			<acc value="0.294850107680751" flag="0"/>
			<vel value="0.0623168775127704" flag="0"/>
			<psa03 value="0.220553610594059" flag="0"/>
			<psa10 value="0.0198492024122548" flag="0"/>
			<psa30 value="0.00138208947331055" flag="0"/>
		</comp>
		<comp name="--.HGN" depth="0.0">
			<acc value="0.135797844937097" flag="0"/>
			<vel value="0.0346981719165238" flag="0"/>
			<psa03 value="0.141508259644592" flag="0"/>
			<psa10 value="0.00905902699107495" flag="0"/>
			<psa30 value="0.000634288008050987" flag="0"/>
		</comp>
		<comp name="--.HGZ" depth="0.0">
			<acc value="0.191732691412356" flag="0"/>
			<vel value="0.0330108773233431" flag="0"/>
			<psa03 value="0.111280121761974" flag="0"/>
			<psa10 value="0.0165636435100919" flag="0"/>
			<psa30 value="0.000886384760308232" flag="0"/>
		</comp>
	</station>
	<station code="BIBA" name="BIBA" netid="CH" source="Switzerland Seismological Network" insttype="" lat="46.30255" lon="7.93038">
		<comp name="--.HGE" depth="0.0">
			<acc value="0.0581511885606155" flag="0"/>
			<vel value="0.0142269317841342" flag="0"/>
			<psa03 value="0.0914166913236522" flag="0"/>
			<psa10 value="0.00620372424754568" flag="0"/>
			<psa30 value="0.000456606862548353" flag="0"/>
		</comp>
		<comp name="--.HGN" depth="0.0">
			<acc value="0.0576513346295674" flag="0"/>
			<vel value="0.0298920368303359" flag="0"/>
			<psa03 value="0.0749025192158348" flag="0"/>
			<psa10 value="0.00881037333151197" flag="0"/>
			<psa30 value="0.000737165916956021" flag="0"/>
		</comp>
		<comp name="--.HGZ" depth="0.0">
			<acc value="0.0695224134584143" flag="0"/>
			<vel value="0.0180125411550361" flag="0"/>
			<psa03 value="0.0445971991372472" flag="0"/>
			<psa10 value="0.00457415739046085" flag="0"/>
			<psa30 value="0.000473935406309393" flag="0"/>
		</comp>
	</station>
	<station code="BLOTZ" name="BLOTZ" netid="CH" source="Switzerland Seismological Network" insttype="" lat="47.620722" lon="7.44">
		<comp name="SF.HGE" depth="1.0">
			<acc value="2.62009301115098" flag="0"/>
			<vel value="0.546655668492323" flag="0"/>
			<psa03 value="1.30060090842762" flag="0"/>
			<psa10 value="0.0810664502545174" flag="0"/>
			<psa30 value="0.0100291843842632" flag="0"/>
		</comp>
		<comp name="SF.HGN" depth="1.0">
			<acc value="2.63074967809314" flag="0"/>
			<vel value="0.42947067883496" flag="0"/>
			<psa03 value="0.67827626580815" flag="0"/>
			<psa10 value="0.0539959869692514" flag="0"/>
			<psa30 value="0.00627373102053903" flag="0"/>
		</comp>
		<comp name="SF.HGZ" depth="1.0">
			<acc value="0.617459861628575" flag="0"/>
			<vel value="0.0860837364344212" flag="0"/>
			<psa03 value="0.185374842673745" flag="0"/>
			<psa10 value="0.00729590159893462" flag="0"/>
			<psa30 value="0.000637808553768841" flag="0"/>
		</comp>
	</station>
	<station code="BOBI" name="BOBI" netid="CH" source="Switzerland Seismological Network" insttype="" lat="47.54631" lon="8.33985">
		<comp name="SF.HGE" depth="1.0">
			<acc value="0.69085577692965" flag="0"/>
			<vel value="0.140380772251293" flag="0"/>
			<psa03 value="0.513399343520208" flag="0"/>
			<psa10 value="0.0568970141479467" flag="0"/>
			<psa30 value="0.00378749423623899" flag="0"/>
		</comp>
		<comp name="SF.HGN" depth="1.0">
			<acc value="0.478965727913776" flag="0"/>
			<vel value="0.135990566165739" flag="0"/>
			<psa03 value="0.591384676330891" flag="0"/>
			<psa10 value="0.0609975545386335" flag="0"/>
			<psa30 value="0.00365536048302657" flag="0"/>
		</comp>
		<comp name="SF.HGZ" depth="1.0">
			<acc value="0.235906908742952" flag="0"/>
			<vel value="0.0591505039070673" flag="0"/>
			<psa03 value="0.302970445305216" flag="0"/>
			<psa10 value="0.0124036551187755" flag="0"/>
			<psa30 value="0.00100123476439067" flag="0"/>
		</comp>
	</station>
	<station code="BOURR" name="BOURR" netid="CH" source="Switzerland Seismological Network" insttype="" lat="47.39364" lon="7.2301">
		<comp name="--.HGE" depth="0.0">
			<acc value="0.242952259255026" flag="0"/>
			<vel value="0.138964593423521" flag="0"/>
			<psa03 value="0.65265481851051" flag="0"/>
			<psa10 value="0.0840186383225199" flag="0"/>
			<psa30 value="0.00507452949600254" flag="0"/>
		</comp>
		<comp name="--.HGN" depth="0.0">
			<acc value="0.236298575138057" flag="0"/>
			<vel value="0.0791504831038808" flag="0"/>
			<psa03 value="0.579681359378214" flag="0"/>
			<psa10 value="0.0291814087501098" flag="0"/>
			<psa30 value="0.00243803838307792" flag="0"/>
		</comp>
		<comp name="--.HGZ" depth="0.0">
			<acc value="0.304444620305475" flag="0"/>
			<vel value="0.0948059685471159" flag="0"/>
			<psa03 value="0.814296109787955" flag="0"/>
			<psa10 value="0.0388883661634102" flag="0"/>
			<psa30 value="0.00290654504434625" flag="0"/>
		</comp>
	</station>
	<station code="BULAC" name="BULAC" netid="CH" source="Switzerland Seismological Network" insttype="" lat="47.54236" lon="8.52044">
		<comp name="SF.HGE" depth="0.5">
			<acc value="0.307104520064882" flag="0"/>
			<vel value="0.0986997972992879" flag="0"/>
			<psa03 value="0.438574845097615" flag="0"/>
			<psa10 value="0.0335095423427414" flag="0"/>
			<psa30 value="0.00222869451507238" flag="0"/>
		</comp>
		<comp name="SF.HGN" depth="0.5">
			<acc value="0.456714579953612" flag="0"/>
			<vel value="0.189891282645709" flag="0"/>
			<psa03 value="0.906982249791251" flag="0"/>
			<psa10 value="0.0630260826685765" flag="0"/>
			<psa30 value="0.00476816003386936" flag="0"/>
		</comp>
		<comp name="SF.HGZ" depth="0.5">
			<acc value="0.168970299284636" flag="0"/>
			<vel value="0.0578549585953785" flag="0"/>
			<psa03 value="0.297764767121321" flag="0"/>
			<psa10 value="0.0165478062109591" flag="0"/>
			<psa30 value="0.00118306983090544" flag="0"/>
		</comp>
	</station>
	<station code="CHAMB" name="CHAMB" netid="CH" source="Switzerland Seismological Network" insttype="" lat="46.78233" lon="6.61184">
		<comp name="--.HGE" depth="0.0">
			<acc value="0.229069437947928" flag="0"/>
			<vel value="0.0551828339914474" flag="0"/>
			<psa03 value="0.192942510661228" flag="0"/>
			<psa10 value="0.012458183731049" flag="0"/>
			<psa30 value="0.00142517399411753" flag="0"/>
		</comp>
		<comp name="--.HGN" depth="0.0">
			<acc value="0.200839117232793" flag="0"/>
			<vel value="0.0356734051346803" flag="0"/>
			<psa03 value="0.136410682371441" flag="0"/>
			<psa10 value="0.00885990286258846" flag="0"/>
			<psa30 value="0.000783129482652866" flag="0"/>
		</comp>
		<comp name="--.HGZ" depth="0.0">
			<acc value="0.143915343429688" flag="0"/>
			<vel value="0.0375060881099737" flag="0"/>
			<psa03 value="0.164023844941473" flag="0"/>
			<psa10 value="0.00631856341758019" flag="0"/>
			<psa30 value="0.000688065476795208" flag="0"/>
		</comp>
	</station>
	<station code="CHASS" name="CHASS" netid="CH" source="Switzerland Seismological Network" insttype="" lat="47.1609" lon="7.12129">
		<comp name="--.HGE" depth="0.0">
			<acc value="0.174597123366677" flag="0"/>
			<vel value="0.0474591829418956" flag="0"/>
			<psa03 value="0.138453307268783" flag="0"/>
			<psa10 value="0.0288384166535686" flag="0"/>
			<psa30 value="0.00220464083830087" flag="0"/>
		</comp>
		<comp name="--.HGN" depth="0.0">
			<acc value="0.362616567408682" flag="0"/>
			<vel value="0.091158474686117" flag="0"/>
			<psa03 value="0.364601944755998" flag="0"/>
			<psa10 value="0.0201891980602843" flag="0"/>
			<psa30 value="0.00186425433103427" flag="0"/>
		</comp>
		<comp name="--.HGZ" depth="0.0">
			<acc value="0.132941907461344" flag="0"/>
			<vel value="0.0476308181348387" flag="0"/>
			<psa03 value="0.158065158540962" flag="0"/>
			<psa10 value="0.0142476503994245" flag="0"/>
			<psa30 value="0.000952962920782675" flag="0"/>
		</comp>
	</station>
	<station code="DAVOX" name="DAVOX" netid="CH" source="Switzerland Seismological Network" insttype="" lat="46.7805" lon="9.87952">
		<comp name="--.HGE" depth="0.0">
			<acc value="0.0134057323862881" flag="0"/>
			<vel value="0.00479066380317262" flag="0"/>
			<psa03 value="0.0430971075760512" flag="0"/>
			<psa10 value="0.00271056940566857" flag="0"/>
			<psa30 value="0.000146774215258989" flag="0"/>
		</comp>
		<comp name="--.HGN" depth="0.0">
			<acc value="0.0100802968446831" flag="0"/>
			<vel value="0.00425828451889569" flag="0"/>
			<psa03 value="0.0306758836892247" flag="0"/>
			<psa10 value="0.00279663291945718" flag="0"/>
			<psa30 value="0.000138515321793532" flag="0"/>
		</comp>
		<comp name="--.HGZ" depth="0.0">
			<acc value="0.0071924611742731" flag="0"/>
			<vel value="0.00399185800272812" flag="0"/>
			<psa03 value="0.0244893592790466" flag="0"/>
			<psa10 value="0.0022134453798953" flag="0"/>
			<psa30 value="0.000115044418003199" flag="0"/>
		</comp>
	</station>
	<station code="DIX" name="DIX" netid="CH" source="Switzerland Seismological Network" insttype="" lat="46.081053" lon="7.408391">
		<comp name="--.HGE" depth="0.0">
			<acc value="0.0216833991769299" flag="0"/>
			<vel value="0.0116612237474529" flag="0"/>
			<psa03 value="0.0613630806281201" flag="0"/>
			<psa10 value="0.00438458045695201" flag="0"/>
			<psa30 value="0.00029502608048841" flag="0"/>
		</comp>
		<comp name="--.HGN" depth="0.0">
			<acc value="0.0162408980765828" flag="0"/>
			<vel value="0.00616652923145737" flag="0"/>
			<psa03 value="0.0393008691146934" flag="0"/>
			<psa10 value="0.00251296412779156" flag="0"/>
			<psa30 value="0.000212673958397553" flag="0"/>
		</comp>
		<comp name="--.HGZ" depth="0.0">
			<acc value="0.0133004710819034" flag="0"/>
			<vel value="0.00475984749151806" flag="0"/>
			<psa03 value="0.0293962155841795" flag="0"/>
			<psa10 value="0.00382745573765952" flag="0"/>
			<psa30 value="0.000235493855520605" flag="0"/>
		</comp>
	</station>
	<station code="FUSIO" name="FUSIO" netid="CH" source="Switzerland Seismological Network" insttype="" lat="46.45481" lon="8.6629">
		<comp name="--.HGE" depth="0.0">
			<acc value="0.0190774931354204" flag="0"/>
			<vel value="0.00574272198029886" flag="0"/>
			<psa03 value="0.024294526059784" flag="0"/>
			<psa10 value="0.00171466632260412" flag="0"/>
			<psa30 value="0.000126367355591944" flag="0"/>
		</comp>
		<comp name="--.HGN" depth="0.0">
			<acc value="0.016940894631059" flag="0"/>
			<vel value="0.00402252307223659" flag="0"/>
			<psa03 value="0.0164424785564085" flag="0"/>
			<psa10 value="0.00219709570305687" flag="0"/>
			<psa30 value="0.000140302927192663" flag="0"/>
		</comp>
		<comp name="--.HGZ" depth="0.0">
			<acc value="0.0196895076676233" flag="0"/>
			<vel value="0.00618960039399994" flag="0"/>
			<psa03 value="0.0198550796245131" flag="0"/>
			<psa10 value="0.00230159731327445" flag="0"/>
			<psa30 value="0.000136854873255236" flag="0"/>
		</comp>
	</station>
	<station code="GIMEL" name="GIMEL" netid="CH" source="Switzerland Seismological Network" insttype="" lat="46.53364" lon="6.26545">
		<comp name="--.HGE" depth="0.0">
			<acc value="0.0914941323611033" flag="0"/>
			<vel value="0.0221379957347675" flag="0"/>
			<psa03 value="0.0620788572112284" flag="0"/>
			<psa10 value="0.005294389321051" flag="0"/>
			<psa30 value="0.000434999389491476" flag="0"/>
		</comp>
		<comp name="--.HGN" depth="0.0">
			<acc value="0.0903791320384333" flag="0"/>
			<vel value="0.0209347623182228" flag="0"/>
			<psa03 value="0.0735020618590572" flag="0"/>
			<psa10 value="0.00509485829060662" flag="0"/>
			<psa30 value="0.000408092841439773" flag="0"/>
		</comp>
		<comp name="--.HGZ" depth="0.0">
			<acc value="0.0799678996800457" flag="0"/>
			<vel value="0.0192147498794283" flag="0"/>
			<psa03 value="0.0589636039662649" flag="0"/>
			<psa10 value="0.00532315419532219" flag="0"/>
			<psa30 value="0.000306812955060922" flag="0"/>
		</comp>
	</station>
	<station code="GRIMS" name="GRIMS" netid="CH" source="Switzerland Seismological Network" insttype="" lat="46.578146" lon="8.318864">
		<comp name="--.HGE" depth="0.0">
			<acc value="0.0145526347380997" flag="0"/>
			<vel value="0.00448056624875327" flag="0"/>
			<psa03 value="0.0257427235582692" flag="0"/>
			<psa10 value="0.00429095269206084" flag="0"/>
			<psa30 value="0.000302371176439787" flag="0"/>
		</comp>
		<comp name="--.HGN" depth="0.0">
			<acc value="0.0222615939392929" flag="0"/>
			<vel value="0.00454512672080405" flag="0"/>
			<psa03 value="0.0232996190062636" flag="0"/>
			<psa10 value="0.0056307406651709" flag="0"/>
			<psa30 value="0.000313467380258941" flag="0"/>
		</comp>
		<comp name="--.HGZ" depth="0.0">
			<acc value="0.0212924861819654" flag="0"/>
			<vel value="0.003976716772767" flag="0"/>
			<psa03 value="0.0173530935677118" flag="0"/>
			<psa10 value="0.0035405333710861" flag="0"/>
			<psa30 value="0.000251509161247787" flag="0"/>
		</comp>
	</station>
	<station code="GRYON" name="GRYON" netid="CH" source="Switzerland Seismological Network" insttype="" lat="46.25053" lon="7.11106">
		<comp name="--.HGE" depth="0.0">
			<acc value="0.0375499724780678" flag="0"/>
			<vel value="0.00939821797104564" flag="0"/>
			<psa03 value="0.0444905306126339" flag="0"/>
			<psa10 value="0.00575777751826646" flag="0"/>
			<psa30 value="0.000489673323869478" flag="0"/>
		</comp>
		<comp name="--.HGN" depth="0.0">
			<acc value="0.0400573899068388" flag="0"/>
			<vel value="0.0102893117701292" flag="0"/>
			<psa03 value="0.0608126795833048" flag="0"/>
			<psa10 value="0.00452776072318824" flag="0"/>
			<psa30 value="0.000381490714595961" flag="0"/>
		</comp>
		<comp name="--.HGZ" depth="0.0">
			<acc value="0.0371905476196912" flag="0"/>
			<vel value="0.0101432835186245" flag="0"/>
			<psa03 value="0.0376604010667394" flag="0"/>
			<psa10 value="0.00403068591942652" flag="0"/>
			<psa30 value="0.000363797980038917" flag="0"/>
		</comp>
	</station>
	<station code="HAUIG" name="HAUIG" netid="CH" source="Switzerland Seismological Network" insttype="" lat="47.66038" lon="7.70018">
		<comp name="--.HGE" depth="0.0">
			<acc value="3.55894776822284" flag="0"/>
			<vel value="1.11696138620616" flag="0"/>
			<psa03 value="5.9245471388417" flag="0"/>
			<psa10 value="0.180730937537475" flag="0"/>
			<psa30 value="0.0183960803166912" flag="0"/>
		</comp>
		<comp name="--.HGN" depth="0.0">
			<acc value="3.85149729923381" flag="0"/>
			<vel value="1.26029864197131" flag="0"/>
			<psa03 value="8.78839552139801" flag="0"/>
			<psa10 value="0.311737121054399" flag="0"/>
			<psa30 value="0.0297252191499051" flag="0"/>
		</comp>
		<comp name="--.HGZ" depth="0.0">
			<acc value="2.11216726918466" flag="0"/>
			<vel value="0.607623954407775" flag="0"/>
			<psa03 value="2.31498285625464" flag="0"/>
			<psa10 value="0.0918782664842269" flag="0"/>
			<psa30 value="0.00879362920146507" flag="0"/>
		</comp>
	</station>
	<station code="JAUN" name="JAUN" netid="CH" source="Switzerland Seismological Network" insttype="" lat="46.63395" lon="7.29096">
		<comp name="--.HGE" depth="0.0">
			<acc value="0.194893397482998" flag="0"/>
			<vel value="0.0583173713807042" flag="0"/>
			<psa03 value="0.388387270417258" flag="0"/>
			<psa10 value="0.0283620075938214" flag="0"/>
			<psa30 value="0.00205374938415289" flag="0"/>
		</comp>
		<comp name="--.HGN" depth="0.0">
			<acc value="0.192911798054878" flag="0"/>
			<vel value="0.0757409400937831" flag="0"/>
			<psa03 value="0.57604286834471" flag="0"/>
			<psa10 value="0.0199874871979227" flag="0"/>
			<psa30 value="0.00184811513689129" flag="0"/>
		</comp>
		<comp name="--.HGZ" depth="0.0">
			<acc value="0.155802845736177" flag="0"/>
			<vel value="0.0547790787927522" flag="0"/>
			<psa03 value="0.339425797793175" flag="0"/>
			<psa10 value="0.0137068467613448" flag="0"/>
			<psa30 value="0.00142174595452706" flag="0"/>
		</comp>
	</station>
	<station code="LADOL" name="LADOL" netid="CH" source="Switzerland Seismological Network" insttype="" lat="46.43213" lon="6.13151">
		<comp name="--.HGE" depth="0.0">
			<acc value="0.035592006469446" flag="0"/>
			<vel value="0.0132699393189401" flag="0"/>
			<psa03 value="0.0671495160341939" flag="0"/>
			<psa10 value="0.00983728885959906" flag="0"/>
			<psa30 value="0.000745402452171262" flag="0"/>
		</comp>
		<comp name="--.HGN" depth="0.0">
			<acc value="0.0363315567933116" flag="0"/>
			<vel value="0.011267907241689" flag="0"/>
			<psa03 value="0.0609225358189559" flag="0"/>
			<psa10 value="0.00609537019460968" flag="0"/>
			<psa30 value="0.000738234581500731" flag="0"/>
		</comp>
		<comp name="--.HGZ" depth="0.0">
			<acc value="0.023229912164724" flag="0"/>
			<vel value="0.00649902251049495" flag="0"/>
			<psa03 value="0.038059745229657" flag="0"/>
			<psa10 value="0.00355029972118273" flag="0"/>
			<psa30 value="0.000501797095762658" flag="0"/>
		</comp>
	</station>
	<station code="LIENZ" name="LIENZ" netid="CH" source="Switzerland Seismological Network" insttype="" lat="47.294601" lon="9.4927">
		<comp name="--.HGE" depth="0.0">
			<acc value="0.0193953534306218" flag="0"/>
			<vel value="0.00723287038020447" flag="0"/>
			<psa03 value="0.023034450398473" flag="0"/>
			<psa10 value="0.00667171540591453" flag="0"/>
			<psa30 value="0.000641814548312221" flag="0"/>
		</comp>
		<comp name="--.HGN" depth="0.0">
			<acc value="0.0224979191772161" flag="0"/>
			<vel value="0.010306001185835" flag="0"/>
			<psa03 value="0.0903894878601324" flag="0"/>
			<psa10 value="0.00915770634061684" flag="0"/>
			<psa30 value="0.00178640500722978" flag="0"/>
		</comp>
		<comp name="--.HGZ" depth="0.0">
			<acc value="0.0112508775070549" flag="0"/>
			<vel value="0.0069071692191939" flag="0"/>
			<psa03 value="0.023659364191785" flag="0"/>
			<psa10 value="0.00658654023222465" flag="0"/>
			<psa30 value="0.000505372384688865" flag="0"/>
		</comp>
	</station>
	<station code="LKBD2" name="LKBD2" netid="CH" source="Switzerland Seismological Network" insttype="" lat="46.37455" lon="7.64433">
		<comp name="--.HGE" depth="0.0">
