<?xml version="1.0" encoding="UTF-8" standalone="yes"?>
<!DOCTYPE earthquake SYSTEM "stationlist.dtd">
<stationlist created="" xmlns="ch.ethz.sed.shakemap.usgs.xml">
  <station code="ACB" name="ACB" netid="CH" insttype="Trillium 240s_g2" lat="47.5877" lon="8.25474">
    <comp name="--.HHE">
      <acc value="0.1149903823" flag="0"/>
      <vel value="0.0419779712" flag="0"/>
      <psa03 value="0.2464833690" flag="0"/>
      <psa10 value="0.0211621205" flag="0"/>
      <psa30 value="0.0016113399" flag="0"/>
    </comp>
    <comp name="--.HHZ">
      <acc value="0.1142866622" flag="0"/>
      <vel value="0.0321491712" flag="0"/>
      <psa03 value="0.2803778929" flag="0"/>
      <psa10 value="0.0163948153" flag="0"/>
      <psa30 value="0.0010473111" flag="0"/>
    </comp>
    <comp name="--.HHN">
      <acc value="0.2061201702" flag="0"/>
      <vel value="0.1199415406" flag="0"/>
      <psa03 value="0.4861175081" flag="0"/>
      <psa10 value="0.0564449949" flag="0"/>
      <psa30 value="0.0036982278" flag="0"/>
    </comp>
  </station>
  <station code="BALST" name="BALST" netid="CH" insttype="STS2_gen3" lat="47.336" lon="7.69485">
    <comp name="--.HHN">
      <acc value="0.1285408959" flag="0"/>
      <vel value="0.0354560611" flag="0"/>
      <psa03 value="0.1394500509" flag="0"/>
      <psa10 value="0.0089015801" flag="0"/>
      <psa30 value="0.0006031559" flag="0"/>
    </comp>
    <comp name="--.HHE">
      <acc value="0.2969343518" flag="0"/>
      <vel value="0.0614293355" flag="0"/>
      <psa03 value="0.2294079447" flag="0"/>
      <psa10 value="0.0197651663" flag="0"/>
      <psa30 value="0.0013440276" flag="0"/>
    </comp>
    <comp name="--.HHZ">
      <acc value="0.1856190132" flag="0"/>
      <vel value="0.0323069952" flag="0"/>
      <psa03 value="0.1127875608" flag="0"/>
      <psa10 value="0.0165237038" flag="0"/>
      <psa30 value="0.0008797735" flag="0"/>
    </comp>
  </station>
  <station code="BAULM" name="BAULM" netid="CH" insttype="Trillium Compact 120s" lat="46.7872" lon="6.46757">
    <comp name="--.HHE">
      <acc value="0.0518299661" flag="0"/>
      <vel value="0.0193061274" flag="0"/>
      <psa03 value="0.1438518402" flag="0"/>
      <psa10 value="0.0097642996" flag="0"/>
      <psa30 value="0.0008029973" flag="0"/>
    </comp>
    <comp name="--.HHZ">
      <acc value="0.0975125562" flag="0"/>
      <vel value="0.0252889330" flag="0"/>
      <psa03 value="0.0935330847" flag="0"/>
      <psa10 value="0.0051894961" flag="0"/>
      <psa30 value="0.0005218522" flag="0"/>
    </comp>
    <comp name="--.HHN">
      <acc value="0.0564407221" flag="0"/>
      <vel value="0.0205781919" flag="0"/>
      <psa03 value="0.1311204193" flag="0"/>
      <psa10 value="0.0103704810" flag="0"/>
      <psa30 value="0.0005296039" flag="0"/>
    </comp>
  </station>
  <station code="BERGE" name="BERGE" netid="CH" insttype="Trillium Compact 120s" lat="47.8716" lon="8.17798">
    <comp name="--.HHN">
      <acc value="0.1863628038" flag="0"/>
      <vel value="0.0382068714" flag="0"/>
      <psa03 value="0.1632090773" flag="0"/>
      <psa10 value="0.0165870474" flag="0"/>
      <psa30 value="0.0011108701" flag="0"/>
    </comp>
    <comp name="--.HHZ">
      <acc value="0.1122994735" flag="0"/>
      <vel value="0.0321586865" flag="0"/>
      <psa03 value="0.2076397634" flag="0"/>
      <psa10 value="0.0076158240" flag="0"/>
      <psa30 value="0.0008385279" flag="0"/>
    </comp>
    <comp name="--.HHE">
      <acc value="0.1682558477" flag="0"/>
      <vel value="0.0341144414" flag="0"/>
      <psa03 value="0.1634569539" flag="0"/>
      <psa10 value="0.0096746160" flag="0"/>
      <psa30 value="0.0010523609" flag="0"/>
    </comp>
  </station>
  <station code="BLOTZ" name="BLOTZ" netid="CH" insttype="EpiSensor ES-T" lat="47.6207" lon="7.44006">
    <comp name="SF.HGN">
      <acc value="2.6213883147" flag="0"/>
      <vel value="0.4234425446" flag="0"/>
      <psa03 value="0.6759577621" flag="0"/>
      <psa10 value="0.0540152644" flag="0"/>
      <psa30 value="0.0063209354" flag="0"/>
    </comp>
    <comp name="SF.HGE">
      <acc value="2.6215420733" flag="0"/>
      <vel value="0.5455692493" flag="0"/>
      <psa03 value="1.2959102817" flag="0"/>
      <psa10 value="0.0807413147" flag="0"/>
      <psa30 value="0.0100091627" flag="0"/>
    </comp>
    <comp name="SF.HGZ">
      <acc value="0.6398702103" flag="0"/>
      <vel value="0.0870292295" flag="0"/>
      <psa03 value="0.1838717179" flag="0"/>
      <psa10 value="0.0072869167" flag="0"/>
      <psa30 value="0.0006131430" flag="0"/>
    </comp>
  </station>
  <station code="BNALP" name="BNALP" netid="CH" insttype="STS2_gen3" lat="46.8703" lon="8.4249">
    <comp name="--.HHE">
      <acc value="0.0295800611" flag="0"/>
      <vel value="0.0089213372" flag="0"/>
      <psa03 value="0.0625282289" flag="0"/>
      <psa10 value="0.0052149974" flag="0"/>
      <psa30 value="0.0003368996" flag="0"/>
    </comp>
    <comp name="--.HHZ">
      <acc value="0.0454386469" flag="0"/>
      <vel value="0.0137554240" flag="0"/>
      <psa03 value="0.0718052083" flag="0"/>
      <psa10 value="0.0042435964" flag="0"/>
      <psa30 value="0.0004851164" flag="0"/>
    </comp>
    <comp name="--.HHN">
      <acc value="0.0216356307" flag="0"/>
      <vel value="0.0081950497" flag="0"/>
      <psa03 value="0.0668899884" flag="0"/>
      <psa10 value="0.0025242221" flag="0"/>
      <psa30 value="0.0002692046" flag="0"/>
    </comp>
  </station>
  <station code="BOBI" name="BOBI" netid="CH" insttype="EpiSensor ES-T" lat="47.5463" lon="8.33992">
    <comp name="SF.HGE">
      <acc value="0.6878401736" flag="0"/>
      <vel value="0.1390887929" flag="0"/>
      <psa03 value="0.5131018286" flag="0"/>
      <psa10 value="0.0568400664" flag="0"/>
      <psa30 value="0.0036197581" flag="0"/>
    </comp>
    <comp name="SF.HGZ">
      <acc value="0.2360904726" flag="0"/>
      <vel value="0.0584576371" flag="0"/>
      <psa03 value="0.3034890642" flag="0"/>
      <psa10 value="0.0123849028" flag="0"/>
      <psa30 value="0.0009385437" flag="0"/>
    </comp>
    <comp name="SF.HGN">
      <acc value="0.4786435578" flag="0"/>
      <vel value="0.1351090098" flag="0"/>
      <psa03 value="0.5869513921" flag="0"/>
      <psa10 value="0.0610021299" flag="0"/>
      <psa30 value="0.0035381014" flag="0"/>
    </comp>
  </station>
  <station code="CHAMB" name="CHAMB" netid="CH" insttype="Trillium Compact 120s" lat="46.7823" lon="6.61184">
    <comp name="--.HHZ">
      <acc value="0.1417160793" flag="0"/>
      <vel value="0.0367272491" flag="0"/>
      <psa03 value="0.1613222336" flag="0"/>
      <psa10 value="0.0061941927" flag="0"/>
      <psa30 value="0.0006880776" flag="0"/>
    </comp>
  </station>
  <station code="MTI01" name="MTI01" netid="CH" insttype="EpiSensor ES-T" lat="47.3791" lon="7.16541">
    <comp name="--.HGN">
      <acc value="0.2849378248" flag="0"/>
      <vel value="0.0833814153" flag="0"/>
      <psa03 value="0.5403477838" flag="0"/>
      <psa10 value="0.0184968829" flag="0"/>
      <psa30 value="0.0019532900" flag="0"/>
    </comp>
  </station>
  <station code="SBAW" name="SBAW" netid="CH" insttype="EpiSensor ES-T" lat="47.5476" lon="7.60385">
    <comp name="--.HGZ">
      <acc value="0.5674251206" flag="0"/>
      <vel value="0.1216945437" flag="0"/>
      <psa03 value="0.4558660940" flag="0"/>
      <psa10 value="0.0462866946" flag="0"/>
      <psa30 value="0.0033524174" flag="0"/>
    </comp>
  </station>
  <station code="SBUS" name="SBUS" netid="CH" insttype="HypoSensor ES-DH" lat="46.979" lon="8.4204">
    <comp name="BT.HGZ">
      <acc value="0.0612048615" flag="0"/>
      <vel value="0.0243130839" flag="0"/>
      <psa03 value="0.1199702827" flag="0"/>
      <psa10 value="0.0236184293" flag="0"/>
      <psa30 value="0.0010598188" flag="0"/>
    </comp>
  </station>
  <station code="SCHS" name="SCHS" netid="CH" insttype="EpiSensor ES-T" lat="47.7114" lon="8.63651">
    <comp name="--.HGN">
      <acc value="0.2461816138" flag="0"/>
      <vel value="0.0793908875" flag="0"/>
      <psa03 value="0.4193216002" flag="0"/>
      <psa10 value="0.0239274606" flag="0"/>
      <psa30 value="0.0024146594" flag="0"/>
    </comp>
    <comp name="--.HGE">
      <acc value="0.3988536763" flag="0"/>
      <vel value="0.0868376416" flag="0"/>
      <psa03 value="0.3546405458" flag="0"/>
      <psa10 value="0.0191677638" flag="0"/>
      <psa30 value="0.0014671729" flag="0"/>
    </comp>
  </station>
  <station code="SENGL" name="SENGL" netid="CH" insttype="EpiSensor ES-T" lat="46.8216" lon="8.41049">
    <comp name="--.HGZ">
      <acc value="0.2485895503" flag="0"/>
      <vel value="0.0612519663" flag="0"/>
      <psa03 value="0.2616183901" flag="0"/>
      <psa10 value="0.0124118533" flag="0"/>
      <psa30 value="0.0011380213" flag="0"/>
    </comp>
    <comp name="--.HGN">
      <acc value="0.2032191405" flag="0"/>
      <vel value="0.0573335381" flag="0"/>
      <psa03 value="0.2424138769" flag="0"/>
      <psa10 value="0.0114477955" flag="0"/>
      <psa30 value="0.0009590070" flag="0"/>
    </comp>
    <comp name="--.HGE">
      <acc value="0.2769762023" flag="0"/>
      <vel value="0.0727581181" flag="0"/>
      <psa03 value="0.1736185379" flag="0"/>
      <psa10 value="0.0118801947" flag="0"/>
      <psa30 value="0.0012501717" flag="0"/>
    </comp>
  </station>
  <station code="SENIN" name="SENIN" netid="CH" insttype="STS2.5" lat="46.3633" lon="7.29938">
    <comp name="--.HHE">
      <acc value="0.0459787828" flag="0"/>
      <vel value="0.0120281353" flag="0"/>
      <psa03 value="0.0577500930" flag="0"/>
      <psa10 value="0.0076831003" flag="0"/>
      <psa30 value="0.0006530007" flag="0"/>
    </comp>
  </station>
  <station code="SFRS" name="SFRS" netid="CH" insttype="EpiSensor ES-T" lat="46.5823" lon="7.65632">
    <comp name="--.HGN">
      <acc value="0.2743561669" flag="0"/>
      <vel value="0.0999898218" flag="0"/>
      <psa03 value="0.4640656398" flag="0"/>
      <psa10 value="0.0403911578" flag="0"/>
      <psa30 value="0.0029996695" flag="0"/>
    </comp>
  </station>
  <station code="SFRU" name="SFRU" netid="CH" insttype="EpiSensor ES-T" lat="46.7913" lon="7.15786">
    <comp name="--.HGZ">
      <acc value="0.2230549990" flag="0"/>
      <vel value="0.0549266111" flag="0"/>
      <psa03 value="0.2027484028" flag="0"/>
      <psa10 value="0.0124645601" flag="0"/>
      <psa30 value="0.0010630509" flag="0"/>
    </comp>
  </station>
  <station code="SKEK" name="SKEK" netid="CH" insttype="EpiSensor ES-T" lat="46.9022" lon="8.27752">
    <comp name="--.HGZ">
      <acc value="0.1597426195" flag="0"/>
      <vel value="0.0458489991" flag="0"/>
      <psa03 value="0.2408039735" flag="0"/>
      <psa10 value="0.0090792466" flag="0"/>
      <psa30 value="0.0006857347" flag="0"/>
    </comp>
  </station>
  <station code="SKLW" name="SKLW" netid="CH" insttype="EpiSensor ES-T" lat="47.463" lon="8.56745">
    <comp name="--.HGZ">
      <acc value="0.3017070896" flag="0"/>
      <vel value="0.0692300000" flag="0"/>
      <psa03 value="0.1525009600" flag="0"/>
      <psa10 value="0.0190923519" flag="0"/>
      <psa30 value="0.0009944136" flag="0"/>
    </comp>
    <comp name="--.HGE">
      <acc value="0.5330650884" flag="0"/>
      <vel value="0.1871457191" flag="0"/>
      <psa03 value="0.8258902187" flag="0"/>
      <psa10 value="0.0307531106" flag="0"/>
      <psa30 value="0.0029549413" flag="0"/>
    </comp>
    <comp name="--.HGN">
      <acc value="0.3828085536" flag="0"/>
      <vel value="0.1628350347" flag="0"/>
      <psa03 value="0.4338528711" flag="0"/>
      <psa10 value="0.0620067927" flag="0"/>
      <psa30 value="0.0050845502" flag="0"/>
    </comp>
  </station>
  <station code="SLTM2" name="SLTM2" netid="CH" insttype="EpiSensor ES-T" lat="46.9236" lon="9.0009">
    <comp name="--.HGZ">
      <acc value="0.0896018225" flag="0"/>
      <vel value="0.0281654033" flag="0"/>
      <psa03 value="0.2126019286" flag="0"/>
      <psa10 value="0.0095388756" flag="0"/>
      <psa30 value="0.0006410589" flag="0"/>
    </comp>
  </station>
  <station code="SLUB" name="SLUB" netid="CH" insttype="EpiSensor ES-T" lat="47.0579" lon="8.30548">
    <comp name="--.HGE">
      <acc value="0.1264557652" flag="0"/>
      <vel value="0.0253894710" flag="0"/>
      <psa03 value="0.1945507381" flag="0"/>
      <psa10 value="0.0073740809" flag="0"/>
      <psa30 value="0.0007270313" flag="0"/>
    </comp>
    <comp name="--.HGN">
      <acc value="0.1127783032" flag="0"/>
      <vel value="0.0296303116" flag="0"/>
      <psa03 value="0.1441187477" flag="0"/>
      <psa10 value="0.0129706597" flag="0"/>
      <psa30 value="0.0008241379" flag="0"/>
    </comp>
    <comp name="--.HGZ">
      <acc value="0.0845717352" flag="0"/>
      <vel value="0.0262569753" flag="0"/>
      <psa03 value="0.1024865006" flag="0"/>
      <psa10 value="0.0054844687" flag="0"/>
      <psa30 value="0.0006603569" flag="0"/>
    </comp>
  </station>
  <station code="SLUK" name="SLUK" netid="CH" insttype="EpiSensor ES-T" lat="47.0479" lon="8.30833">
    <comp name="--.HGE">
      <acc value="0.8219657084" flag="0"/>
      <vel value="0.2741948564" flag="0"/>
      <psa03 value="1.3126274135" flag="0"/>
      <psa10 value="0.0843618778" flag="0"/>
      <psa30 value="0.0047727275" flag="0"/>
    </comp>
    <comp name="--.HGN">
      <acc value="0.4680837071" flag="0"/>
      <vel value="0.1441018916" flag="0"/>
      <psa03 value="0.8974371536" flag="0"/>
      <psa10 value="0.0920640138" flag="0"/>
      <psa30 value="0.0047234718" flag="0"/>
    </comp>
  </station>
  <station code="SMZW" name="SMZW" netid="CH" insttype="EpiSensor ES-T" lat="47.5474" lon="7.64708">
    <comp name="--.HGZ">
      <acc value="0.7292886088" flag="0"/>
      <vel value="0.0892151193" flag="0"/>
      <psa03 value="0.3678252374" flag="0"/>
      <psa10 value="0.0316843547" flag="0"/>
      <psa30 value="0.0019506225" flag="0"/>
    </comp>
  </station>
  <station code="SRFW" name="SRFW" netid="CH" insttype="EpiSensor ES-T" lat="47.5532" lon="7.80678">
    <comp name="--.HGN">
      <acc value="0.9346146226" flag="0"/>
      <vel value="0.2528862140" flag="0"/>
      <psa03 value="1.0207418880" flag="0"/>
      <psa10 value="0.0707530602" flag="0"/>
      <psa30 value="0.0083344867" flag="0"/>
    </comp>
  </station>
  <station code="SRHB" name="SRHB" netid="CH" insttype="EpiSensor ES-T" lat="47.5713" lon="7.6244">
    <comp name="--.HGZ">
      <acc value="0.6027011794" flag="0"/>
      <vel value="0.1210197120" flag="0"/>
      <psa03 value="0.4355477773" flag="0"/>
      <psa10 value="0.0375553828" flag="0"/>
      <psa30 value="0.0023234420" flag="0"/>
    </comp>
  </station>
  <station code="SRHE" name="SRHE" netid="CH" insttype="EpiSensor ES-T" lat="47.5856" lon="7.64945">
    <comp name="--.HGE">
      <acc value="0.7646314637" flag="0"/>
      <vel value="0.3397498892" flag="0"/>
      <psa03 value="0.8955325812" flag="0"/>
      <psa10 value="0.1007878290" flag="0"/>
      <psa30 value="0.0070450949" flag="0"/>
    </comp>
    <comp name="--.HGZ">
      <acc value="1.0499390711" flag="0"/>
      <vel value="0.2155306326" flag="0"/>
      <psa03 value="0.4539167818" flag="0"/>
      <psa10 value="0.0326436766" flag="0"/>
      <psa30 value="0.0027310443" flag="0"/>
    </comp>
  </station>
  <station code="STSW2" name="STSW2" netid="CH" insttype="EpiSensor ES-T" lat="46.3452" lon="7.43375">
    <comp name="--.HGN">
      <acc value="0.0672673305" flag="0"/>
      <vel value="0.0258503462" flag="0"/>
      <psa03 value="0.1469474238" flag="0"/>
      <psa10 value="0.0125127458" flag="0"/>
      <psa30 value="0.0007055600" flag="0"/>
    </comp>
  </station>
  <station code="SULZ" name="SULZ" netid="CH" insttype="STS2_gen3" lat="47.5275" lon="8.11187">
    <comp name="--.HHZ">
      <acc value="0.0756437415" flag="0"/>
      <vel value="0.0258272814" flag="0"/>
      <psa03 value="0.1495255392" flag="0"/>
      <psa10 value="0.0147074045" flag="0"/>
      <psa30 value="0.0008467308" flag="0"/>
    </comp>
  </station>
  <station code="SWYZ" name="SWYZ" netid="CH" insttype="EpiSensor ES-T" lat="47.0237" lon="8.65261">
    <comp name="--.HGZ">
      <acc value="0.0596454907" flag="0"/>
      <vel value="0.0197181993" flag="0"/>
      <psa03 value="0.1075442909" flag="0"/>
      <psa10 value="0.0046073569" flag="0"/>
      <psa30 value="0.0005501649" flag="0"/>
    </comp>
  </station>
  <station code="SYVP" name="SYVP" netid="CH" insttype="EpiSensor ES-T" lat="46.7747" lon="6.64175">
    <comp name="--.HGE">
      <acc value="0.4181995770" flag="0"/>
      <vel value="0.1408530774" flag="0"/>
      <psa03 value="0.6797272437" flag="0"/>
      <psa10 value="0.0703799226" flag="0"/>
      <psa30 value="0.0045953362" flag="0"/>
    </comp>
    <comp name="--.HGZ">
      <acc value="0.2457549895" flag="0"/>
      <vel value="0.0784894443" flag="0"/>
      <psa03 value="0.2805372848" flag="0"/>
      <psa10 value="0.0272548835" flag="0"/>
      <psa30 value="0.0014125070" flag="0"/>
    </comp>
  </station>
  <station code="ZUR" name="ZUR" netid="CH" insttype="EpiSensor ES-T" lat="47.3692" lon="8.58088">
    <comp name="--.HGE">
      <acc value="0.1507431390" flag="0"/>
      <vel value="0.0540488016" flag="0"/>
      <psa03 value="0.3090298260" flag="0"/>
      <psa10 value="0.0192749276" flag="0"/>
      <psa30 value="0.0015454956" flag="0"/>
    </comp>
  </station>
  <station code="WALT" name="WALT" netid="FR" insttype="TRILLIUM-Compact" lat="47.9657" lon="7.27652">
    <comp name="00.HH1">
      <acc value="0.1662431533" flag="0"/>
      <vel value="0.0688295485" flag="0"/>
      <psa03 value="0.2710416967" flag="0"/>
      <psa10 value="0.0395786119" flag="0"/>
      <psa30 value="0.0032257979" flag="0"/>
    </comp>
    <comp name="00.HH2">
      <acc value="0.2006069292" flag="0"/>
      <vel value="0.0696419897" flag="0"/>
      <psa03 value="0.2677367238" flag="0"/>
      <psa10 value="0.0309253209" flag="0"/>
      <psa30 value="0.0021598095" flag="0"/>
    </comp>
    <comp name="00.HHZ">
      <acc value="0.2141763948" flag="0"/>
      <vel value="0.0568933319" flag="0"/>
      <psa03 value="0.2256333244" flag="0"/>
      <psa10 value="0.0431459047" flag="0"/>
      <psa30 value="0.0015423614" flag="0"/>
    </comp>
  </station>
  <station code="BFO" name="BFO" netid="GR" insttype="" lat="48.3301" lon="8.3296">
    <comp name="--.HHE">
      <acc value="0.0662875807" flag="0"/>
      <vel value="0.0188610952" flag="0"/>
      <psa03 value="0.0587291560" flag="0"/>
      <psa10 value="0.0054986206" flag="0"/>
      <psa30 value="0.0008108568" flag="0"/>
    </comp>
    <comp name="--.HHN">
      <acc value="0.0502029524" flag="0"/>
      <vel value="0.0148607648" flag="0"/>
      <psa03 value="0.0614554933" flag="0"/>
      <psa10 value="0.0046680972" flag="0"/>
      <psa30 value="0.0006542013" flag="0"/>
    </comp>
    <comp name="--.HHZ">
      <acc value="0.0883455809" flag="0"/>
      <vel value="0.0306009157" flag="0"/>
      <psa03 value="0.1083585770" flag="0"/>
      <psa10 value="0.0073153399" flag="0"/>
      <psa30 value="0.0008406924" flag="0"/>
    </comp>
  </station>
  <station code="A060B" name="A060B" netid="Z3" insttype="STS2.5" lat="46.993" lon="7.97764">
    <comp name="--.HHE">
      <acc value="0.1442791070" flag="0"/>
      <vel value="0.0619146896" flag="0"/>
      <psa03 value="0.2442025904" flag="0"/>
      <psa10 value="0.0239069016" flag="0"/>
      <psa30 value="0.0015750046" flag="0"/>
    </comp>
  </station>
</stationlist>
