<?xml version="1.0" encoding="UTF-8" standalone="yes"?>
<!DOCTYPE earthquake SYSTEM "stationlist.dtd">
<stationlist created="" xmlns="ch.ethz.sed.shakemap.usgs.xml">
  <station code="MYT1" name="MYT1" netid="HI" insttype="CMG-5TD,ACCELEROMETER,GURALP" commtype="DIG" lat="39.085" lon="26.5694">
    <comp name="--.HNE">
      <acc value="0.0985691996" flag="0"/>
      <vel value="0.0809990473" flag="0"/>
      <psa03 value="0.2330135925" flag="0"/>
      <psa10 value="0.1555064613" flag="0"/>
      <psa30 value="0.0103243622" flag="0"/>
    </comp>
    <comp name="--.HNN">
      <acc value="0.1078492398" flag="0"/>
      <vel value="0.0976527971" flag="0"/>
      <psa03 value="0.2062747248" flag="0"/>
      <psa10 value="0.1618152117" flag="0"/>
      <psa30 value="0.0127567612" flag="0"/>
    </comp>
    <comp name="--.HNZ">
      <acc value="0.0398646550" flag="0"/>
      <vel value="0.0308041989" flag="0"/>
      <psa03 value="0.0962341519" flag="0"/>
      <psa10 value="0.0635369103" flag="0"/>
      <psa30 value="0.0047551467" flag="0"/>
    </comp>
  </station>
  <station code="AKS" name="AKS" netid="KO" insttype="CMG-5T" commtype="DIG" lat="38.8785" lon="27.8129">
    <comp name="--.HNZ">
      <acc value="0.1308883874" flag="0"/>
      <vel value="0.0500537544" flag="0"/>
      <psa03 value="0.1270654850" flag="0"/>
      <psa10 value="0.0262989081" flag="0"/>
      <psa30 value="0.0052837066" flag="0"/>
    </comp>
    <comp name="--.HNN">
      <acc value="0.3053500811" flag="0"/>
      <vel value="0.0833018499" flag="0"/>
      <psa03 value="0.4735274777" flag="0"/>
      <psa10 value="0.0806234601" flag="0"/>
      <psa30 value="0.0138594378" flag="0"/>
    </comp>
  </station>
  <station code="AYVL" name="AYVL" netid="KO" insttype="CMG-6T" commtype="DIG" lat="39.2907" lon="26.69">
    <comp name="--.HHN">
      <acc value="0.1888587835" flag="0"/>
      <vel value="0.1000376407" flag="0"/>
      <psa03 value="0.5798797258" flag="0"/>
      <psa10 value="0.0696655023" flag="0"/>
      <psa30 value="0.0040416344" flag="0"/>
    </comp>
    <comp name="--.HHE">
      <acc value="0.2001008164" flag="0"/>
      <vel value="0.0947367509" flag="0"/>
      <psa03 value="0.7983170443" flag="0"/>
      <psa10 value="0.0537979751" flag="0"/>
      <psa30 value="0.0032611617" flag="0"/>
    </comp>
    <comp name="--.HHZ">
      <acc value="0.0725477398" flag="0"/>
      <vel value="0.0450110197" flag="0"/>
      <psa03 value="0.1914519859" flag="0"/>
      <psa10 value="0.0316373470" flag="0"/>
      <psa30 value="0.0013527428" flag="0"/>
    </comp>
  </station>
  <station code="BALB" name="BALB" netid="KO" insttype="CMG-5T" commtype="DIG" lat="39.6507" lon="27.8642">
    <comp name="--.HNE">
      <acc value="0.2793511557" flag="0"/>
      <vel value="0.1925940542" flag="0"/>
      <psa03 value="0.6448121058" flag="0"/>
      <psa10 value="0.1716611034" flag="0"/>
      <psa30 value="0.0144818263" flag="0"/>
    </comp>
    <comp name="--.HNN">
      <acc value="0.2209980507" flag="0"/>
      <vel value="0.1635627316" flag="0"/>
      <psa03 value="0.6283442989" flag="0"/>
      <psa10 value="0.2609416685" flag="0"/>
      <psa30 value="0.0138831615" flag="0"/>
    </comp>
    <comp name="--.HNZ">
      <acc value="0.1763593686" flag="0"/>
      <vel value="0.0812349126" flag="0"/>
      <psa03 value="0.3165470418" flag="0"/>
      <psa10 value="0.0900349622" flag="0"/>
      <psa30 value="0.0066193997" flag="0"/>
    </comp>
  </station>
  <station code="BLCB" name="BLCB" netid="KO" insttype="CMG-3T" commtype="DIG" lat="38.3853" lon="27.042">
    <comp name="--.HHN">
      <acc value="0.0000585820" flag="0"/>
      <vel value="0.0000210001" flag="0"/>
      <psa03 value="0.0000735081" flag="0"/>
      <psa10 value="0.0000210217" flag="0"/>
      <psa30 value="0.0000037501" flag="0"/>
    </comp>
    <comp name="--.HHE">
      <acc value="0.0554076551" flag="0"/>
      <vel value="0.0338624567" flag="0"/>
      <psa03 value="0.1905053817" flag="0"/>
      <psa10 value="0.0376098289" flag="0"/>
      <psa30 value="0.0056784031" flag="0"/>
    </comp>
    <comp name="--.HHZ">
      <acc value="0.0475070452" flag="0"/>
      <vel value="0.0206876505" flag="0"/>
      <psa03 value="0.1142498434" flag="0"/>
      <psa10 value="0.0219605459" flag="0"/>
      <psa30 value="0.0035484329" flag="0"/>
    </comp>
  </station>
  <station code="BMYO" name="BMYO" netid="KO" insttype="CMG-5T" commtype="DIG" lat="39.8098" lon="26.6009">
    <comp name="--.HNZ">
      <acc value="0.0385848199" flag="0"/>
      <vel value="0.0344692406" flag="0"/>
      <psa03 value="0.1289037293" flag="0"/>
      <psa10 value="0.0641109204" flag="0"/>
      <psa30 value="0.0062866881" flag="0"/>
    </comp>
    <comp name="--.HNE">
      <acc value="0.1646993867" flag="0"/>
      <vel value="0.1320108838" flag="0"/>
      <psa03 value="0.4865639985" flag="0"/>
      <psa10 value="0.1346732893" flag="0"/>
      <psa30 value="0.0086589754" flag="0"/>
    </comp>
    <comp name="--.HNN">
      <acc value="0.1051382040" flag="0"/>
      <vel value="0.0651526394" flag="0"/>
      <psa03 value="0.5971689716" flag="0"/>
      <psa10 value="0.0945719842" flag="0"/>
      <psa30 value="0.0068637430" flag="0"/>
    </comp>
  </station>
  <station code="CANM" name="CANM" netid="KO" insttype="CMG-5T" commtype="DIG" lat="40.0113" lon="27.0529">
    <comp name="--.HNZ">
      <acc value="0.0976641198" flag="0"/>
      <vel value="0.0514491039" flag="0"/>
      <psa03 value="0.2117216189" flag="0"/>
      <psa10 value="0.0602344919" flag="0"/>
      <psa30 value="0.0039018427" flag="0"/>
    </comp>
    <comp name="--.HNN">
      <acc value="0.0966109197" flag="0"/>
      <vel value="0.0939963895" flag="0"/>
      <psa03 value="0.1779853208" flag="0"/>
      <psa10 value="0.1840985281" flag="0"/>
      <psa30 value="0.0107650574" flag="0"/>
    </comp>
    <comp name="--.HNE">
      <acc value="0.1054375268" flag="0"/>
      <vel value="0.0681207704" flag="0"/>
      <psa03 value="0.1926919086" flag="0"/>
      <psa10 value="0.0979750312" flag="0"/>
      <psa30 value="0.0071876474" flag="0"/>
    </comp>
  </station>
  <station code="DST" name="DST" netid="KO" insttype="CMG-5T" commtype="DIG" lat="39.6041" lon="28.6267">
    <comp name="--.HNN">
      <acc value="0.1271537436" flag="0"/>
      <vel value="0.0332311557" flag="0"/>
      <psa03 value="0.1765525665" flag="0"/>
      <psa10 value="0.0363521949" flag="0"/>
      <psa30 value="0.0068006573" flag="0"/>
    </comp>
    <comp name="--.HNE">
      <acc value="0.1145347891" flag="0"/>
      <vel value="0.0458046228" flag="0"/>
      <psa03 value="0.2179017991" flag="0"/>
      <psa10 value="0.0368129122" flag="0"/>
      <psa30 value="0.0094184078" flag="0"/>
    </comp>
    <comp name="--.HNZ">
      <acc value="0.1077382480" flag="0"/>
      <vel value="0.0263208222" flag="0"/>
      <psa03 value="0.1620191031" flag="0"/>
      <psa10 value="0.0314591813" flag="0"/>
      <psa30 value="0.0060469500" flag="0"/>
    </comp>
  </station>
  <station code="EDC" name="EDC" netid="KO" insttype="CMG-3T" commtype="DIG" lat="40.3465" lon="27.8618">
    <comp name="--.HHZ">
      <acc value="0.0390608844" flag="0"/>
      <vel value="0.0205163841" flag="0"/>
      <psa03 value="0.0488943735" flag="0"/>
      <psa10 value="0.0363419860" flag="0"/>
      <psa30 value="0.0022896858" flag="0"/>
    </comp>
    <comp name="--.HHE">
      <acc value="0.0691674942" flag="0"/>
      <vel value="0.0502548022" flag="0"/>
      <psa03 value="0.1033596459" flag="0"/>
      <psa10 value="0.0911657004" flag="0"/>
      <psa30 value="0.0063878375" flag="0"/>
    </comp>
    <comp name="--.HHN">
      <acc value="0.0727290278" flag="0"/>
      <vel value="0.0484832903" flag="0"/>
      <psa03 value="0.1764390217" flag="0"/>
      <psa10 value="0.0697461843" flag="0"/>
      <psa30 value="0.0044328894" flag="0"/>
    </comp>
  </station>
  <station code="GOMA" name="GOMA" netid="KO" insttype="CMG-5T" commtype="DIG" lat="38.7077" lon="27.9175">
    <comp name="--.HNE">
      <acc value="0.1782213852" flag="0"/>
      <vel value="0.1100200487" flag="0"/>
      <psa03 value="0.6218496804" flag="0"/>
      <psa10 value="0.0661290978" flag="0"/>
      <psa30 value="0.0034439091" flag="0"/>
    </comp>
    <comp name="--.HNZ">
      <acc value="0.1502776595" flag="0"/>
      <vel value="0.0488969374" flag="0"/>
      <psa03 value="0.1676964681" flag="0"/>
      <psa10 value="0.0216154604" flag="0"/>
      <psa30 value="0.0064628991" flag="0"/>
    </comp>
  </station>
  <station code="GONE" name="GONE" netid="KO" insttype="CMG-5T" commtype="DIG" lat="40.0466" lon="27.686">
    <comp name="--.HNE">
      <acc value="0.0937903093" flag="0"/>
      <vel value="0.0558204348" flag="0"/>
      <psa03 value="0.1411688860" flag="0"/>
      <psa10 value="0.0973594050" flag="0"/>
      <psa30 value="0.0069448072" flag="0"/>
    </comp>
    <comp name="--.HNN">
      <acc value="0.1218039566" flag="0"/>
      <vel value="0.0546059809" flag="0"/>
      <psa03 value="0.1989468165" flag="0"/>
      <psa10 value="0.0538332784" flag="0"/>
      <psa30 value="0.0063569559" flag="0"/>
    </comp>
    <comp name="--.HNZ">
      <acc value="0.0553235829" flag="0"/>
      <vel value="0.0185171766" flag="0"/>
      <psa03 value="0.0720081315" flag="0"/>
      <psa10 value="0.0285799954" flag="0"/>
      <psa30 value="0.0030459222" flag="0"/>
    </comp>
  </station>
  <station code="GORD" name="GORD" netid="KO" insttype="CMG-5T" commtype="DIG" lat="38.9088" lon="28.1769">
    <comp name="--.HNE">
      <acc value="0.1618981686" flag="0"/>
      <vel value="0.0791363865" flag="0"/>
      <psa03 value="0.4014455317" flag="0"/>
      <psa10 value="0.1144432688" flag="0"/>
      <psa30 value="0.0192480894" flag="0"/>
    </comp>
    <comp name="--.HNZ">
      <acc value="0.1453271080" flag="0"/>
      <vel value="0.0721723483" flag="0"/>
      <psa03 value="0.4021275575" flag="0"/>
      <psa10 value="0.0723865146" flag="0"/>
      <psa30 value="0.0116591063" flag="0"/>
    </comp>
    <comp name="--.HNN">
      <acc value="0.2016553420" flag="0"/>
      <vel value="0.1431889133" flag="0"/>
      <psa03 value="0.4458642132" flag="0"/>
      <psa10 value="0.1341182147" flag="0"/>
      <psa30 value="0.0136218466" flag="0"/>
    </comp>
  </station>
  <station code="KCTX" name="KCTX" netid="KO" insttype="CMG-3ESP" commtype="DIG" lat="40.2626" lon="28.3353">
    <comp name="--.HHE">
      <acc value="0.0580750366" flag="0"/>
      <vel value="0.0382250667" flag="0"/>
      <psa03 value="0.0940407462" flag="0"/>
      <psa10 value="0.0925954853" flag="0"/>
      <psa30 value="0.0058425797" flag="0"/>
    </comp>
    <comp name="--.HHN">
      <acc value="0.0777927638" flag="0"/>
      <vel value="0.0392693536" flag="0"/>
      <psa03 value="0.1562328795" flag="0"/>
      <psa10 value="0.0358648441" flag="0"/>
      <psa30 value="0.0034465092" flag="0"/>
    </comp>
    <comp name="--.HHZ">
      <acc value="0.0668678107" flag="0"/>
      <vel value="0.0176781541" flag="0"/>
      <psa03 value="0.0626935918" flag="0"/>
      <psa10 value="0.0235877175" flag="0"/>
      <psa30 value="0.0015685194" flag="0"/>
    </comp>
  </station>
  <station code="KRBG" name="KRBG" netid="KO" insttype="CMG-3ESP" commtype="DIG" lat="40.3932" lon="27.2977">
    <comp name="--.HHZ">
      <acc value="0.0333445785" flag="0"/>
      <vel value="0.0214137457" flag="0"/>
      <psa03 value="0.0472893036" flag="0"/>
      <psa10 value="0.0275613366" flag="0"/>
      <psa30 value="0.0031065090" flag="0"/>
    </comp>
    <comp name="--.HHN">
      <acc value="0.0417101282" flag="0"/>
      <vel value="0.0371906043" flag="0"/>
      <psa03 value="0.0830961684" flag="0"/>
      <psa10 value="0.0554109056" flag="0"/>
      <psa30 value="0.0047112749" flag="0"/>
    </comp>
    <comp name="--.HHE">
      <acc value="0.0703011617" flag="0"/>
      <vel value="0.0454417835" flag="0"/>
      <psa03 value="0.0976493763" flag="0"/>
      <psa10 value="0.0497888047" flag="0"/>
      <psa30 value="0.0029976172" flag="0"/>
    </comp>
  </station>
  <station code="KULA" name="KULA" netid="KO" insttype="CMG-3T" commtype="DIG" lat="38.5145" lon="28.6607">
    <comp name="--.HHE">
      <acc value="0.0797781682" flag="0"/>
      <vel value="0.0234050933" flag="0"/>
      <psa03 value="0.1137575615" flag="0"/>
      <psa10 value="0.0193033635" flag="0"/>
      <psa30 value="0.0033814180" flag="0"/>
    </comp>
    <comp name="--.HHN">
      <acc value="0.0589114528" flag="0"/>
      <vel value="0.0199709648" flag="0"/>
      <psa03 value="0.0965114143" flag="0"/>
      <psa10 value="0.0104735874" flag="0"/>
      <psa30 value="0.0019868142" flag="0"/>
    </comp>
  </station>
  <station code="MDNY" name="MDNY" netid="KO" insttype="CMG-3ESP" commtype="DIG" lat="40.3709" lon="28.8846">
    <comp name="--.HHN">
      <acc value="0.1686865190" flag="0"/>
      <vel value="0.0457709480" flag="0"/>
      <psa03 value="0.3107463267" flag="0"/>
      <psa10 value="0.0524489956" flag="0"/>
      <psa30 value="0.0039050755" flag="0"/>
    </comp>
    <comp name="--.HHZ">
      <acc value="0.1179313870" flag="0"/>
      <vel value="0.0302246756" flag="0"/>
      <psa03 value="0.0751404842" flag="0"/>
      <psa10 value="0.0335222968" flag="0"/>
      <psa30 value="0.0041236669" flag="0"/>
    </comp>
    <comp name="--.HHE">
      <acc value="0.1548452541" flag="0"/>
      <vel value="0.0587194688" flag="0"/>
      <psa03 value="0.4594284866" flag="0"/>
      <psa10 value="0.0349712569" flag="0"/>
      <psa30 value="0.0039091312" flag="0"/>
    </comp>
  </station>
  <station code="NAZL" name="NAZL" netid="KO" insttype="CMG-5T" commtype="DIG" lat="37.9641" lon="28.2922">
    <comp name="--.HNN">
      <acc value="0.0539886081" flag="0"/>
      <vel value="0.0219307966" flag="0"/>
      <psa03 value="0.1398766723" flag="0"/>
      <psa10 value="0.0229495394" flag="0"/>
      <psa30 value="0.0023983859" flag="0"/>
    </comp>
    <comp name="--.HNZ">
      <acc value="0.0272070189" flag="0"/>
      <vel value="0.0096350134" flag="0"/>
      <psa03 value="0.0769479689" flag="0"/>
      <psa10 value="0.0125085990" flag="0"/>
      <psa30 value="0.0018095835" flag="0"/>
    </comp>
    <comp name="--.HNE">
      <acc value="0.0504680821" flag="0"/>
      <vel value="0.0342507584" flag="0"/>
      <psa03 value="0.1371803129" flag="0"/>
      <psa10 value="0.0320989484" flag="0"/>
      <psa30 value="0.0066694983" flag="0"/>
    </comp>
  </station>
  <station code="ORLT" name="ORLT" netid="KO" insttype="CMG-5T" commtype="DIG" lat="40.0452" lon="28.8914">
    <comp name="--.HNN">
      <acc value="0.1068192664" flag="0"/>
      <vel value="0.0656771108" flag="0"/>
      <psa03 value="0.2166661752" flag="0"/>
      <psa10 value="0.0657944080" flag="0"/>
      <psa30 value="0.0066160395" flag="0"/>
    </comp>
    <comp name="--.HNE">
      <acc value="0.1372611752" flag="0"/>
      <vel value="0.0577499373" flag="0"/>
      <psa03 value="0.3110787024" flag="0"/>
      <psa10 value="0.0839077646" flag="0"/>
      <psa30 value="0.0056992214" flag="0"/>
    </comp>
    <comp name="--.HNZ">
      <acc value="0.0524209047" flag="0"/>
      <vel value="0.0308124724" flag="0"/>
      <psa03 value="0.1315065322" flag="0"/>
      <psa10 value="0.0478773053" flag="0"/>
      <psa30 value="0.0063939989" flag="0"/>
    </comp>
  </station>
  <station code="SHAP" name="SHAP" netid="KO" insttype="CMG-5T" commtype="DIG" lat="39.0231" lon="29.222">
    <comp name="--.HNE">
      <acc value="0.1158344076" flag="0"/>
      <vel value="0.0410618429" flag="0"/>
      <psa03 value="0.3652562477" flag="0"/>
      <psa10 value="0.0153550585" flag="0"/>
      <psa30 value="0.0019654670" flag="0"/>
    </comp>
    <comp name="--.HNN">
      <acc value="0.1466587884" flag="0"/>
      <vel value="0.0448778601" flag="0"/>
      <psa03 value="0.2403887567" flag="0"/>
      <psa10 value="0.0185543586" flag="0"/>
      <psa30 value="0.0027684293" flag="0"/>
    </comp>
    <comp name="--.HNZ">
      <acc value="0.0743548286" flag="0"/>
      <vel value="0.0201654019" flag="0"/>
      <psa03 value="0.0951545540" flag="0"/>
      <psa10 value="0.0100591967" flag="0"/>
      <psa30 value="0.0025308817" flag="0"/>
    </comp>
  </station>
  <station code="SIMA" name="SIMA" netid="KO" insttype="CMG-6T" commtype="DIG" lat="39.0833" lon="28.9825">
    <comp name="--.HHN">
      <acc value="0.1400709512" flag="0"/>
      <vel value="0.0535296487" flag="0"/>
      <psa03 value="0.2949405929" flag="0"/>
      <psa10 value="0.0208420675" flag="0"/>
      <psa30 value="0.0053988887" flag="0"/>
    </comp>
    <comp name="--.HHE">
      <acc value="0.1303140780" flag="0"/>
      <vel value="0.0384152132" flag="0"/>
      <psa03 value="0.2805704155" flag="0"/>
      <psa10 value="0.0188447613" flag="0"/>
      <psa30 value="0.0029381611" flag="0"/>
    </comp>
    <comp name="--.HHZ">
      <acc value="0.0662435966" flag="0"/>
      <vel value="0.0201457225" flag="0"/>
      <psa03 value="0.1405157794" flag="0"/>
      <psa10 value="0.0099588028" flag="0"/>
      <psa30 value="0.0014830394" flag="0"/>
    </comp>
  </station>
  <station code="SMAA" name="SMAA" netid="KO" insttype="CMG-5T" commtype="DIG" lat="39.1005" lon="28.9805">
    <comp name="--.HNN">
      <acc value="0.1671380057" flag="0"/>
      <vel value="0.1069784173" flag="0"/>
      <psa03 value="0.5074817467" flag="0"/>
      <psa10 value="0.1044719638" flag="0"/>
      <psa30 value="0.0144142947" flag="0"/>
    </comp>
    <comp name="--.HNE">
      <acc value="0.1722433833" flag="0"/>
      <vel value="0.1001173246" flag="0"/>
      <psa03 value="0.4882977381" flag="0"/>
      <psa10 value="0.1290902907" flag="0"/>
      <psa30 value="0.0104282111" flag="0"/>
    </comp>
    <comp name="--.HNZ">
      <acc value="0.0629739419" flag="0"/>
      <vel value="0.0372794738" flag="0"/>
      <psa03 value="0.0991668616" flag="0"/>
      <psa10 value="0.0543904648" flag="0"/>
      <psa30 value="0.0030058234" flag="0"/>
    </comp>
  </station>
  <station code="SOMA" name="SOMA" netid="KO" insttype="CMG-5T" commtype="DIG" lat="39.1564" lon="27.5341">
    <comp name="--.HNN">
      <acc value="0.2841944346" flag="0"/>
      <vel value="0.1744008193" flag="0"/>
      <psa03 value="0.7569286601" flag="0"/>
      <psa10 value="0.1758107392" flag="0"/>
      <psa30 value="0.0134451170" flag="0"/>
    </comp>
    <comp name="--.HNE">
      <acc value="0.2901263814" flag="0"/>
      <vel value="0.1343518387" flag="0"/>
      <psa03 value="0.9051444010" flag="0"/>
      <psa10 value="0.0893470790" flag="0"/>
      <psa30 value="0.0070186512" flag="0"/>
    </comp>
    <comp name="--.HNZ">
      <acc value="0.2845986907" flag="0"/>
      <vel value="0.1202966161" flag="0"/>
      <psa03 value="0.6216198826" flag="0"/>
      <psa10 value="0.0801554499" flag="0"/>
      <psa30 value="0.0064358980" flag="0"/>
    </comp>
  </station>
  <station code="SUSR" name="SUSR" netid="KO" insttype="CMG-5T" commtype="DIG" lat="39.9627" lon="28.0835">
    <comp name="--.HNE">
      <acc value="0.0907896897" flag="0"/>
      <vel value="0.0356238652" flag="0"/>
      <psa03 value="0.0978911627" flag="0"/>
      <psa10 value="0.0305852063" flag="0"/>
      <psa30 value="0.0021997242" flag="0"/>
    </comp>
    <comp name="--.HNN">
      <acc value="0.0910443481" flag="0"/>
      <vel value="0.0265729564" flag="0"/>
      <psa03 value="0.1179687172" flag="0"/>
      <psa10 value="0.0207954348" flag="0"/>
      <psa30 value="0.0028551786" flag="0"/>
    </comp>
    <comp name="--.HNZ">
      <acc value="0.0799557990" flag="0"/>
      <vel value="0.0289663480" flag="0"/>
      <psa03 value="0.0744562338" flag="0"/>
      <psa10 value="0.0244219762" flag="0"/>
      <psa30 value="0.0021640277" flag="0"/>
    </comp>
  </station>
