<?xml version="1.0" encoding="UTF-8" standalone="yes"?>
<!DOCTYPE earthquake SYSTEM "stationlist.dtd">
<stationlist created="" xmlns="ch.ethz.sed.shakemap.usgs.xml">
  <station code="MYT1" name="MYT1" netid="HI" insttype="CMG-5TD,ACCELEROMETER,GURALP" commtype="DIG" lat="39.085" lon="26.5694">
    <comp name="--.HNE">
      <acc value="0.0985691996" flag="0"/>
      <vel value="0.0809990455" flag="0"/>
      <psa03 value="0.2330135925" flag="0"/>
      <psa10 value="0.1555064613" flag="0"/>
      <psa30 value="0.0103242669" flag="0"/>
    </comp>
    <comp name="--.HNN">
      <acc value="0.1078492405" flag="0"/>
      <vel value="0.0976527991" flag="0"/>
      <psa03 value="0.2062747248" flag="0"/>
      <psa10 value="0.1618152116" flag="0"/>
      <psa30 value="0.0127566675" flag="0"/>
    </comp>
    <comp name="--.HNZ">
      <acc value="0.0398646549" flag="0"/>
      <vel value="0.0308041970" flag="0"/>
      <psa03 value="0.0962341519" flag="0"/>
      <psa10 value="0.0635369101" flag="0"/>
      <psa30 value="0.0047551756" flag="0"/>
    </comp>
  </station>
  <station code="AKS" name="AKS" netid="KO" insttype="CMG-5T" commtype="DIG" lat="38.8785" lon="27.8129">
    <comp name="--.HNZ">
      <acc value="0.1308883845" flag="0"/>
      <vel value="0.0500537540" flag="0"/>
      <psa03 value="0.1270654850" flag="0"/>
      <psa10 value="0.0262989083" flag="0"/>
      <psa30 value="0.0052834932" flag="0"/>
    </comp>
    <comp name="--.HNN">
      <acc value="0.3053500747" flag="0"/>
      <vel value="0.0833018589" flag="0"/>
      <psa03 value="0.4735274777" flag="0"/>
      <psa10 value="0.0806234577" flag="0"/>
      <psa30 value="0.0138596370" flag="0"/>
    </comp>
  </station>
  <station code="AYVL" name="AYVL" netid="KO" insttype="CMG-6T" commtype="DIG" lat="39.2907" lon="26.69">
    <comp name="--.HHN">
      <acc value="0.1888587821" flag="0"/>
      <vel value="0.1000376405" flag="0"/>
      <psa03 value="0.5798797258" flag="0"/>
      <psa10 value="0.0696655023" flag="0"/>
      <psa30 value="0.0040416316" flag="0"/>
    </comp>
    <comp name="--.HHE">
      <acc value="0.2001008171" flag="0"/>
      <vel value="0.0947367512" flag="0"/>
      <psa03 value="0.7983170443" flag="0"/>
      <psa10 value="0.0537979751" flag="0"/>
      <psa30 value="0.0032611673" flag="0"/>
    </comp>
    <comp name="--.HHZ">
      <acc value="0.0725477401" flag="0"/>
      <vel value="0.0450110200" flag="0"/>
      <psa03 value="0.1914519859" flag="0"/>
      <psa10 value="0.0316373470" flag="0"/>
      <psa30 value="0.0013527441" flag="0"/>
    </comp>
  </station>
  <station code="BALB" name="BALB" netid="KO" insttype="CMG-5T" commtype="DIG" lat="39.6507" lon="27.8642">
    <comp name="--.HNE">
      <acc value="0.2793511561" flag="0"/>
      <vel value="0.1925940551" flag="0"/>
      <psa03 value="0.6448121058" flag="0"/>
      <psa10 value="0.1716611019" flag="0"/>
      <psa30 value="0.0144818006" flag="0"/>
    </comp>
    <comp name="--.HNZ">
      <acc value="0.1763593690" flag="0"/>
      <vel value="0.0812349132" flag="0"/>
      <psa03 value="0.3165470418" flag="0"/>
      <psa10 value="0.0900349606" flag="0"/>
      <psa30 value="0.0066194400" flag="0"/>
    </comp>
    <comp name="--.HNN">
      <acc value="0.2209980513" flag="0"/>
      <vel value="0.1635627332" flag="0"/>
      <psa03 value="0.6283442989" flag="0"/>
      <psa10 value="0.2609416691" flag="0"/>
      <psa30 value="0.0138827209" flag="0"/>
    </comp>
  </station>
  <station code="BLCB" name="BLCB" netid="KO" insttype="CMG-3T" commtype="DIG" lat="38.3853" lon="27.042">
    <comp name="--.HHN">
      <acc value="0.0000585820" flag="0"/>
      <vel value="0.0000210001" flag="0"/>
      <psa03 value="0.0000735081" flag="0"/>
      <psa10 value="0.0000210217" flag="0"/>
      <psa30 value="0.0000037502" flag="0"/>
    </comp>
    <comp name="--.HHE">
      <acc value="0.0554076551" flag="0"/>
      <vel value="0.0338624567" flag="0"/>
      <psa03 value="0.1905053817" flag="0"/>
      <psa10 value="0.0376098289" flag="0"/>
      <psa30 value="0.0056783902" flag="0"/>
    </comp>
    <comp name="--.HHZ">
      <acc value="0.0475070452" flag="0"/>
      <vel value="0.0206876507" flag="0"/>
      <psa03 value="0.1142498434" flag="0"/>
      <psa10 value="0.0219605459" flag="0"/>
      <psa30 value="0.0035484357" flag="0"/>
    </comp>
  </station>
  <station code="BMYO" name="BMYO" netid="KO" insttype="CMG-5T" commtype="DIG" lat="39.8098" lon="26.6009">
    <comp name="--.HNZ">
      <acc value="0.0385848197" flag="0"/>
      <vel value="0.0344692385" flag="0"/>
      <psa03 value="0.1289037293" flag="0"/>
      <psa10 value="0.0641109204" flag="0"/>
      <psa30 value="0.0062868770" flag="0"/>
    </comp>
    <comp name="--.HNE">
      <acc value="0.1646993858" flag="0"/>
      <vel value="0.1320108819" flag="0"/>
      <psa03 value="0.4865639985" flag="0"/>
      <psa10 value="0.1346732894" flag="0"/>
      <psa30 value="0.0086592525" flag="0"/>
    </comp>
    <comp name="--.HNN">
      <acc value="0.1051382034" flag="0"/>
      <vel value="0.0651526364" flag="0"/>
      <psa03 value="0.5971689716" flag="0"/>
      <psa10 value="0.0945719843" flag="0"/>
      <psa30 value="0.0068638643" flag="0"/>
    </comp>
  </station>
  <station code="CANM" name="CANM" netid="KO" insttype="CMG-5T" commtype="DIG" lat="40.0113" lon="27.0529">
    <comp name="--.HNE">
      <acc value="0.1054375272" flag="0"/>
      <vel value="0.0681207707" flag="0"/>
      <psa03 value="0.1926919086" flag="0"/>
      <psa10 value="0.0979750312" flag="0"/>
      <psa30 value="0.0071876931" flag="0"/>
    </comp>
    <comp name="--.HNN">
      <acc value="0.0966109198" flag="0"/>
      <vel value="0.0939963903" flag="0"/>
      <psa03 value="0.1779853208" flag="0"/>
      <psa10 value="0.1840985282" flag="0"/>
      <psa30 value="0.0107650569" flag="0"/>
    </comp>
    <comp name="--.HNZ">
      <acc value="0.0976641207" flag="0"/>
      <vel value="0.0514491033" flag="0"/>
      <psa03 value="0.2117216189" flag="0"/>
      <psa10 value="0.0602344920" flag="0"/>
      <psa30 value="0.0039019839" flag="0"/>
    </comp>
  </station>
  <station code="DST" name="DST" netid="KO" insttype="CMG-5T" commtype="DIG" lat="39.6041" lon="28.6267">
    <comp name="--.HNZ">
      <acc value="0.1077382484" flag="0"/>
      <vel value="0.0263208339" flag="0"/>
      <psa03 value="0.1620191031" flag="0"/>
      <psa10 value="0.0314591792" flag="0"/>
      <psa30 value="0.0060484023" flag="0"/>
    </comp>
    <comp name="--.HNE">
      <acc value="0.1145347884" flag="0"/>
      <vel value="0.0458046204" flag="0"/>
      <psa03 value="0.2179017991" flag="0"/>
      <psa10 value="0.0368129113" flag="0"/>
      <psa30 value="0.0094183035" flag="0"/>
    </comp>
    <comp name="--.HNN">
      <acc value="0.1271537426" flag="0"/>
      <vel value="0.0332311711" flag="0"/>
      <psa03 value="0.1765525665" flag="0"/>
      <psa10 value="0.0363521952" flag="0"/>
      <psa30 value="0.0067972762" flag="0"/>
    </comp>
  </station>
  <station code="EDC" name="EDC" netid="KO" insttype="CMG-3T" commtype="DIG" lat="40.3465" lon="27.8618">
    <comp name="--.HHE">
      <acc value="0.0691674936" flag="0"/>
      <vel value="0.0502548008" flag="0"/>
      <psa03 value="0.1033596459" flag="0"/>
      <psa10 value="0.0911657004" flag="0"/>
      <psa30 value="0.0063878368" flag="0"/>
    </comp>
    <comp name="--.HHN">
      <acc value="0.0727290276" flag="0"/>
      <vel value="0.0484832904" flag="0"/>
      <psa03 value="0.1764390217" flag="0"/>
      <psa10 value="0.0697461843" flag="0"/>
      <psa30 value="0.0044329016" flag="0"/>
    </comp>
    <comp name="--.HHZ">
      <acc value="0.0390608845" flag="0"/>
      <vel value="0.0205163842" flag="0"/>
      <psa03 value="0.0488943735" flag="0"/>
      <psa10 value="0.0363419860" flag="0"/>
      <psa30 value="0.0022896661" flag="0"/>
    </comp>
  </station>
  <station code="GOMA" name="GOMA" netid="KO" insttype="CMG-5T" commtype="DIG" lat="38.7077" lon="27.9175">
    <comp name="--.HNE">
      <acc value="0.1782213888" flag="0"/>
      <vel value="0.1100200485" flag="0"/>
      <psa03 value="0.6218496804" flag="0"/>
      <psa10 value="0.0661290954" flag="0"/>
      <psa30 value="0.0034440736" flag="0"/>
    </comp>
    <comp name="--.HNZ">
      <acc value="0.1502776575" flag="0"/>
      <vel value="0.0488969377" flag="0"/>
      <psa03 value="0.1676964681" flag="0"/>
      <psa10 value="0.0216154533" flag="0"/>
      <psa30 value="0.0064631077" flag="0"/>
    </comp>
  </station>
  <station code="GONE" name="GONE" netid="KO" insttype="CMG-5T" commtype="DIG" lat="40.0466" lon="27.686">
    <comp name="--.HNE">
      <acc value="0.0937903089" flag="0"/>
      <vel value="0.0558204345" flag="0"/>
      <psa03 value="0.1411688860" flag="0"/>
      <psa10 value="0.0973594049" flag="0"/>
      <psa30 value="0.0069448193" flag="0"/>
    </comp>
    <comp name="--.HNN">
      <acc value="0.1218039564" flag="0"/>
      <vel value="0.0546059806" flag="0"/>
      <psa03 value="0.1989468165" flag="0"/>
      <psa10 value="0.0538332782" flag="0"/>
      <psa30 value="0.0063569427" flag="0"/>
    </comp>
    <comp name="--.HNZ">
      <acc value="0.0553235819" flag="0"/>
      <vel value="0.0185171767" flag="0"/>
      <psa03 value="0.0720081315" flag="0"/>
      <psa10 value="0.0285799953" flag="0"/>
      <psa30 value="0.0030459227" flag="0"/>
    </comp>
  </station>
  <station code="GORD" name="GORD" netid="KO" insttype="CMG-5T" commtype="DIG" lat="38.9088" lon="28.1769">
    <comp name="--.HNE">
      <acc value="0.1618981686" flag="0"/>
      <vel value="0.0791363864" flag="0"/>
      <psa03 value="0.4014455317" flag="0"/>
      <psa10 value="0.1144432567" flag="0"/>
      <psa30 value="0.0192481151" flag="0"/>
    </comp>
    <comp name="--.HNN">
      <acc value="0.2016553423" flag="0"/>
      <vel value="0.1431889135" flag="0"/>
      <psa03 value="0.4458642132" flag="0"/>
      <psa10 value="0.1341182162" flag="0"/>
      <psa30 value="0.0136220069" flag="0"/>
    </comp>
    <comp name="--.HNZ">
      <acc value="0.1453271085" flag="0"/>
      <vel value="0.0721723497" flag="0"/>
      <psa03 value="0.4021275575" flag="0"/>
      <psa10 value="0.0723865154" flag="0"/>
      <psa30 value="0.0116588264" flag="0"/>
    </comp>
  </station>
  <station code="KCTX" name="KCTX" netid="KO" insttype="CMG-3ESP" commtype="DIG" lat="40.2626" lon="28.3353">
    <comp name="--.HHE">
      <acc value="0.0580750365" flag="0"/>
      <vel value="0.0382250671" flag="0"/>
      <psa03 value="0.0940407462" flag="0"/>
      <psa10 value="0.0925954853" flag="0"/>
      <psa30 value="0.0058425871" flag="0"/>
    </comp>
    <comp name="--.HHN">
      <acc value="0.0777927639" flag="0"/>
      <vel value="0.0392693543" flag="0"/>
      <psa03 value="0.1562328795" flag="0"/>
      <psa10 value="0.0358648441" flag="0"/>
      <psa30 value="0.0034465097" flag="0"/>
    </comp>
    <comp name="--.HHZ">
      <acc value="0.0668678107" flag="0"/>
      <vel value="0.0176781542" flag="0"/>
      <psa03 value="0.0626935918" flag="0"/>
      <psa10 value="0.0235877175" flag="0"/>
      <psa30 value="0.0015685147" flag="0"/>
    </comp>
  </station>
  <station code="KRBG" name="KRBG" netid="KO" insttype="CMG-3ESP" commtype="DIG" lat="40.3932" lon="27.2977">
    <comp name="--.HHZ">
      <acc value="0.0333445785" flag="0"/>
      <vel value="0.0214137448" flag="0"/>
      <psa03 value="0.0472893036" flag="0"/>
      <psa10 value="0.0275613366" flag="0"/>
      <psa30 value="0.0031065073" flag="0"/>
    </comp>
    <comp name="--.HHE">
      <acc value="0.0703011617" flag="0"/>
      <vel value="0.0454417844" flag="0"/>
      <psa03 value="0.0976493763" flag="0"/>
      <psa10 value="0.0497888047" flag="0"/>
      <psa30 value="0.0029976145" flag="0"/>
    </comp>
    <comp name="--.HHN">
      <acc value="0.0417101282" flag="0"/>
      <vel value="0.0371906045" flag="0"/>
      <psa03 value="0.0830961684" flag="0"/>
      <psa10 value="0.0554109056" flag="0"/>
      <psa30 value="0.0047112785" flag="0"/>
    </comp>
  </station>
  <station code="KULA" name="KULA" netid="KO" insttype="CMG-3T" commtype="DIG" lat="38.5145" lon="28.6607">
    <comp name="--.HHE">
      <acc value="0.0797781683" flag="0"/>
      <vel value="0.0234050933" flag="0"/>
      <psa03 value="0.1137575615" flag="0"/>
      <psa10 value="0.0193033636" flag="0"/>
      <psa30 value="0.0033814121" flag="0"/>
    </comp>
    <comp name="--.HHN">
      <acc value="0.0589114529" flag="0"/>
      <vel value="0.0199709649" flag="0"/>
      <psa03 value="0.0965114143" flag="0"/>
      <psa10 value="0.0104735874" flag="0"/>
      <psa30 value="0.0019868163" flag="0"/>
    </comp>
  </station>
  <station code="MDNY" name="MDNY" netid="KO" insttype="CMG-3ESP" commtype="DIG" lat="40.3709" lon="28.8846">
    <comp name="--.HHE">
      <acc value="0.1548452541" flag="0"/>
      <vel value="0.0587194672" flag="0"/>
      <psa03 value="0.4594284866" flag="0"/>
      <psa10 value="0.0349712569" flag="0"/>
      <psa30 value="0.0039091358" flag="0"/>
    </comp>
    <comp name="--.HHN">
      <acc value="0.1686865191" flag="0"/>
      <vel value="0.0457709473" flag="0"/>
      <psa03 value="0.3107463267" flag="0"/>
      <psa10 value="0.0524489956" flag="0"/>
      <psa30 value="0.0039050751" flag="0"/>
    </comp>
    <comp name="--.HHZ">
      <acc value="0.1179313869" flag="0"/>
      <vel value="0.0302246765" flag="0"/>
      <psa03 value="0.0751404842" flag="0"/>
      <psa10 value="0.0335222968" flag="0"/>
      <psa30 value="0.0041236617" flag="0"/>
    </comp>
  </station>
  <station code="NAZL" name="NAZL" netid="KO" insttype="CMG-5T" commtype="DIG" lat="37.9641" lon="28.2922">
    <comp name="--.HNN">
      <acc value="0.0539886077" flag="0"/>
      <vel value="0.0219307961" flag="0"/>
      <psa03 value="0.1398766723" flag="0"/>
      <psa10 value="0.0229495394" flag="0"/>
      <psa30 value="0.0023983903" flag="0"/>
    </comp>
    <comp name="--.HNE">
      <acc value="0.0504680827" flag="0"/>
      <vel value="0.0342507577" flag="0"/>
      <psa03 value="0.1371803129" flag="0"/>
      <psa10 value="0.0320989484" flag="0"/>
      <psa30 value="0.0066694390" flag="0"/>
    </comp>
    <comp name="--.HNZ">
      <acc value="0.0272070196" flag="0"/>
      <vel value="0.0096350128" flag="0"/>
      <psa03 value="0.0769479689" flag="0"/>
      <psa10 value="0.0125085990" flag="0"/>
      <psa30 value="0.0018095957" flag="0"/>
    </comp>
  </station>
  <station code="ORLT" name="ORLT" netid="KO" insttype="CMG-5T" commtype="DIG" lat="40.0452" lon="28.8914">
    <comp name="--.HNN">
      <acc value="0.1068192655" flag="0"/>
      <vel value="0.0656771195" flag="0"/>
      <psa03 value="0.2166661752" flag="0"/>
      <psa10 value="0.0657944078" flag="0"/>
      <psa30 value="0.0066157016" flag="0"/>
    </comp>
    <comp name="--.HNE">
      <acc value="0.1372611754" flag="0"/>
      <vel value="0.0577499450" flag="0"/>
      <psa03 value="0.3110787024" flag="0"/>
      <psa10 value="0.0839077647" flag="0"/>
      <psa30 value="0.0056998364" flag="0"/>
    </comp>
    <comp name="--.HNZ">
      <acc value="0.0524209027" flag="0"/>
      <vel value="0.0308124716" flag="0"/>
      <psa03 value="0.1315065322" flag="0"/>
      <psa10 value="0.0478773048" flag="0"/>
      <psa30 value="0.0063940206" flag="0"/>
    </comp>
  </station>
  <station code="SHAP" name="SHAP" netid="KO" insttype="CMG-5T" commtype="DIG" lat="39.0231" lon="29.222">
    <comp name="--.HNN">
      <acc value="0.1466587885" flag="0"/>
      <vel value="0.0448778597" flag="0"/>
      <psa03 value="0.2403887567" flag="0"/>
      <psa10 value="0.0185543583" flag="0"/>
      <psa30 value="0.0027684380" flag="0"/>
    </comp>
    <comp name="--.HNE">
      <acc value="0.1158344068" flag="0"/>
      <vel value="0.0410618436" flag="0"/>
      <psa03 value="0.3652562477" flag="0"/>
      <psa10 value="0.0153550585" flag="0"/>
      <psa30 value="0.0019654632" flag="0"/>
    </comp>
    <comp name="--.HNZ">
      <acc value="0.0743548294" flag="0"/>
      <vel value="0.0201654015" flag="0"/>
      <psa03 value="0.0951545540" flag="0"/>
      <psa10 value="0.0100591965" flag="0"/>
      <psa30 value="0.0025308857" flag="0"/>
    </comp>
  </station>
  <station code="SIMA" name="SIMA" netid="KO" insttype="CMG-6T" commtype="DIG" lat="39.0833" lon="28.9825">
    <comp name="--.HHN">
      <acc value="0.1400709564" flag="0"/>
      <vel value="0.0535296462" flag="0"/>
      <psa03 value="0.2949405929" flag="0"/>
      <psa10 value="0.0208420676" flag="0"/>
      <psa30 value="0.0053988893" flag="0"/>
    </comp>
    <comp name="--.HHE">
      <acc value="0.1303140779" flag="0"/>
      <vel value="0.0384152147" flag="0"/>
      <psa03 value="0.2805704155" flag="0"/>
      <psa10 value="0.0188447613" flag="0"/>
      <psa30 value="0.0029381642" flag="0"/>
    </comp>
    <comp name="--.HHZ">
      <acc value="0.0662435943" flag="0"/>
      <vel value="0.0201457276" flag="0"/>
      <psa03 value="0.1405157794" flag="0"/>
      <psa10 value="0.0099588028" flag="0"/>
      <psa30 value="0.0014830369" flag="0"/>
    </comp>
  </station>
  <station code="SMAA" name="SMAA" netid="KO" insttype="CMG-5T" commtype="DIG" lat="39.1005" lon="28.9805">
    <comp name="--.HNE">
      <acc value="0.1722433818" flag="0"/>
      <vel value="0.1001173274" flag="0"/>
      <psa03 value="0.4882977381" flag="0"/>
      <psa10 value="0.1290902911" flag="0"/>
      <psa30 value="0.0104279685" flag="0"/>
    </comp>
    <comp name="--.HNN">
      <acc value="0.1671380039" flag="0"/>
      <vel value="0.1069784132" flag="0"/>
      <psa03 value="0.5074817467" flag="0"/>
      <psa10 value="0.1044719631" flag="0"/>
      <psa30 value="0.0144142489" flag="0"/>
    </comp>
    <comp name="--.HNZ">
      <acc value="0.0629739431" flag="0"/>
      <vel value="0.0372794762" flag="0"/>
      <psa03 value="0.0991668616" flag="0"/>
      <psa10 value="0.0543904648" flag="0"/>
      <psa30 value="0.0030057773" flag="0"/>
    </comp>
  </station>
  <station code="SOMA" name="SOMA" netid="KO" insttype="CMG-5T" commtype="DIG" lat="39.1564" lon="27.5341">
    <comp name="--.HNN">
      <acc value="0.2841944352" flag="0"/>
      <vel value="0.1744008195" flag="0"/>
      <psa03 value="0.7569286601" flag="0"/>
      <psa10 value="0.1758107441" flag="0"/>
      <psa30 value="0.0134451434" flag="0"/>
    </comp>
    <comp name="--.HNE">
      <acc value="0.2901263810" flag="0"/>
      <vel value="0.1343518381" flag="0"/>
      <psa03 value="0.9051444010" flag="0"/>
      <psa10 value="0.0893470787" flag="0"/>
      <psa30 value="0.0070187658" flag="0"/>
    </comp>
    <comp name="--.HNZ">
      <acc value="0.2845986900" flag="0"/>
      <vel value="0.1202966153" flag="0"/>
      <psa03 value="0.6216198826" flag="0"/>
      <psa10 value="0.0801554501" flag="0"/>
      <psa30 value="0.0064359432" flag="0"/>
    </comp>
  </station>
  <station code="SUSR" name="SUSR" netid="KO" insttype="CMG-5T" commtype="DIG" lat="39.9627" lon="28.0835">
    <comp name="--.HNE">
      <acc value="0.0907896888" flag="0"/>
      <vel value="0.0356238675" flag="0"/>
      <psa03 value="0.0978911627" flag="0"/>
      <psa10 value="0.0305852063" flag="0"/>
      <psa30 value="0.0021998830" flag="0"/>
    </comp>
    <comp name="--.HNN">
      <acc value="0.0910443487" flag="0"/>
      <vel value="0.0265729570" flag="0"/>
      <psa03 value="0.1179687172" flag="0"/>
      <psa10 value="0.0207954349" flag="0"/>
      <psa30 value="0.0028551352" flag="0"/>
    </comp>
    <comp name="--.HNZ">
      <acc value="0.0799557986" flag="0"/>
      <vel value="0.0289663462" flag="0"/>
      <psa03 value="0.0744562338" flag="0"/>
      <psa10 value="0.0244219756" flag="0"/>
      <psa30 value="0.0021638749" flag="0"/>
    </comp>
  </station>
