<stationlist xmlns:esm="https://esm-db.eu/esmws/shakemap/1/" created="1783994292">
	<station code="KARP" name="KARP" netid="GE" source="GEOFON" insttype="" lat="35.5471" lon="27.16106" esm:processing="automatic (Paolucci et al 2011)" esm:quality="best">
		<comp name="--.HNE" depth="0.0">
			<acc value="0.0375067119146743" flag="0"/>
			<vel value="0.0392128296747072" flag="0"/>
			<psa03 value="0.0691267092252299" flag="0"/>
			<psa10 value="0.0576355682994591" flag="0"/>
			<psa30 value="0.00769297500594564" flag="0"/>
		</comp>
		<comp name="--.HNN" depth="0.0">
			<acc value="0.0498116584604477" flag="0"/>
			<vel value="0.0462966954271286" flag="0"/>
			<psa03 value="0.0846969971283884" flag="0"/>
			<psa10 value="0.0784984118234931" flag="0"/>
			<psa30 value="0.00732743117787436" flag="0"/>
		</comp>
		<comp name="--.HNZ" depth="0.0">
			<acc value="0.0428722663385551" flag="0"/>
			<vel value="0.0336132894468242" flag="0"/>
			<psa03 value="0.0662632080016605" flag="0"/>
			<psa10 value="0.0508181982770331" flag="0"/>
			<psa30 value="0.00685808543044869" flag="0"/>
		</comp>
	</station>
	<station code="AGN1" name="AGN1" netid="HI" source="ITSAK Strong Motion Network" insttype="" lat="35.1879" lon="25.7155" esm:processing="manual (Paolucci et al 2011)" esm:quality="good">
		<comp name="--.HNE" depth="0.0">
			<acc value="0.00804925064186973" flag="0"/>
			<vel value="0.0132238930438119" flag="0"/>
			<psa03 value="0.0259618292187717" flag="0"/>
			<psa10 value="0.0219982597767483" flag="0"/>
			<psa30 value="0.00393271052277139" flag="0"/>
		</comp>
		<comp name="--.HNN" depth="0.0">
			<acc value="0.00728992194923527" flag="0"/>
			<vel value="0.0126864105350273" flag="0"/>
			<psa03 value="0.0188981776927747" flag="0"/>
			<psa10 value="0.012784629731476" flag="0"/>
			<psa30 value="0.005293866942704" flag="0"/>
		</comp>
		<comp name="--.HNZ" depth="0.0">
			<acc value="0.0046480807508628" flag="0"/>
			<vel value="0.0108424595557178" flag="0"/>
			<psa03 value="0.0116188712556982" flag="0"/>
			<psa10 value="0.00956165403765383" flag="0"/>
			<psa30 value="0.00584385671016022" flag="0"/>
		</comp>
	</station>
	<station code="ARK1" name="ARK1" netid="HI" source="ITSAK Strong Motion Network" insttype="" lat="35.148777" lon="25.264194" esm:processing="automatic (Paolucci et al 2011)" esm:quality="best">
		<comp name="--.HNE" depth="0.0">
			<acc value="0.00793231630678654" flag="0"/>
			<vel value="0.0176537952603866" flag="0"/>
			<psa03 value="0.013310248926168" flag="0"/>
			<psa10 value="0.0213464497225312" flag="0"/>
			<psa30 value="0.0119819029089302" flag="0"/>
		</comp>
		<comp name="--.HNN" depth="0.0">
			<acc value="0.00837883479807138" flag="0"/>
			<vel value="0.0157090817859052" flag="0"/>
			<psa03 value="0.0134701970219444" flag="0"/>
			<psa10 value="0.0318860297929853" flag="0"/>
			<psa30 value="0.00761492528476133" flag="0"/>
		</comp>
		<comp name="--.HNZ" depth="0.0">
			<acc value="0.00568884375843254" flag="0"/>
			<vel value="0.0150952060146275" flag="0"/>
			<psa03 value="0.0127997945381533" flag="0"/>
			<psa10 value="0.0155082982861507" flag="0"/>
			<psa30 value="0.00551112716846103" flag="0"/>
		</comp>
	</station>
	<station code="GOR1" name="GOR1" netid="HI" source="ITSAK Strong Motion Network" insttype="" lat="35.0582" lon="24.9628" esm:processing="automatic (Paolucci et al 2011)" esm:quality="good">
		<comp name="--.HNE" depth="0.0">
			<acc value="0.00703222277662743" flag="0"/>
			<vel value="0.0191894669302137" flag="0"/>
			<psa03 value="0.00831597797606154" flag="0"/>
			<psa10 value="0.0167642893018914" flag="0"/>
			<psa30 value="0.0116031286503279" flag="0"/>
		</comp>
		<comp name="--.HNN" depth="0.0">
			<acc value="0.006544908460288" flag="0"/>
			<vel value="0.017705985050259" flag="0"/>
			<psa03 value="0.00956330865247227" flag="0"/>
			<psa10 value="0.0208044675688734" flag="0"/>
			<psa30 value="0.00849850465089129" flag="0"/>
		</comp>
		<comp name="--.HNZ" depth="0.0">
			<acc value="0.00529324388141228" flag="0"/>
			<vel value="0.0132366329900274" flag="0"/>
			<psa03 value="0.00724671768969023" flag="0"/>
			<psa10 value="0.0118031475255967" flag="0"/>
			<psa30 value="0.00638703644315174" flag="0"/>
		</comp>
	</station>
	<station code="HER1" name="HER1" netid="HI" source="ITSAK Strong Motion Network" insttype="" lat="35.317672" lon="25.10217" esm:processing="automatic (Paolucci et al 2011)" esm:quality="good">
		<comp name="--.HNE" depth="0.0">
			<acc value="0.0294505439320912" flag="0"/>
			<vel value="0.0527157663228041" flag="0"/>
			<psa03 value="0.033449465862952" flag="0"/>
			<psa10 value="0.0875125422764365" flag="0"/>
			<psa30 value="0.0114664729308905" flag="0"/>
		</comp>
		<comp name="--.HNN" depth="0.0">
			<acc value="0.029307735117188" flag="0"/>
			<vel value="0.054677962152394" flag="0"/>
			<psa03 value="0.0364411145658296" flag="0"/>
			<psa10 value="0.0928406252357837" flag="0"/>
			<psa30 value="0.00848383951273119" flag="0"/>
		</comp>
		<comp name="--.HNZ" depth="0.0">
			<acc value="0.0188277494917966" flag="0"/>
			<vel value="0.0224667061154633" flag="0"/>
			<psa03 value="0.0245645751992169" flag="0"/>
			<psa10 value="0.0346336005560639" flag="0"/>
			<psa30 value="0.00313282753444904" flag="0"/>
		</comp>
	</station>
	<station code="KOS2" name="KOS2" netid="HI" source="ITSAK Strong Motion Network" insttype="" lat="36.8941" lon="27.2888" esm:processing="manual (Paolucci et al 2011)" esm:quality="good">
		<comp name="--.HNE" depth="0.0">
			<acc value="0.0232690246947224" flag="0"/>
			<vel value="0.0386797640133788" flag="0"/>
			<psa03 value="0.0552662288247604" flag="0"/>
			<psa10 value="0.0395359740642492" flag="0"/>
			<psa30 value="0.0143625997850811" flag="0"/>
		</comp>
		<comp name="--.HNN" depth="0.0">
			<acc value="0.0185477535302268" flag="0"/>
			<vel value="0.0327841338859262" flag="0"/>
			<psa03 value="0.0521054152697082" flag="0"/>
			<psa10 value="0.0487205574978261" flag="0"/>
			<psa30 value="0.0121015291669161" flag="0"/>
		</comp>
		<comp name="--.HNZ" depth="0.0">
			<acc value="0.00992702667714451" flag="0"/>
			<vel value="0.0221483201516263" flag="0"/>
			<psa03 value="0.0217992618024425" flag="0"/>
			<psa10 value="0.0218968005555729" flag="0"/>
			<psa30 value="0.0112576432636166" flag="0"/>
		</comp>
	</station>
	<station code="KSS1" name="KSS1" netid="HI" source="ITSAK Strong Motion Network" insttype="" lat="35.4189" lon="26.9207" esm:processing="manual (Paolucci et al 2011)" esm:quality="best">
		<comp name="--.HNE" depth="0.0">
			<acc value="0.0284770251158063" flag="0"/>
			<vel value="0.0337050205001181" flag="0"/>
			<psa03 value="0.100759449304348" flag="0"/>
			<psa10 value="0.0274144448391475" flag="0"/>
			<psa30 value="0.0103860084222994" flag="0"/>
		</comp>
		<comp name="--.HNN" depth="0.0">
			<acc value="0.0383974253782622" flag="0"/>
			<vel value="0.0394639383453613" flag="0"/>
			<psa03 value="0.144338358550545" flag="0"/>
			<psa10 value="0.0489376833328671" flag="0"/>
			<psa30 value="0.0142199681074191" flag="0"/>
		</comp>
		<comp name="--.HNZ" depth="0.0">
			<acc value="0.0175037449469548" flag="0"/>
			<vel value="0.0267415318078137" flag="0"/>
			<psa03 value="0.0309616069798441" flag="0"/>
			<psa10 value="0.0245755518292181" flag="0"/>
			<psa30 value="0.00749968867335471" flag="0"/>
		</comp>
	</station>
	<station code="RKL1" name="RKL1" netid="HI" source="ITSAK Strong Motion Network" insttype="" lat="36.336699" lon="28.171224" esm:processing="automatic (Paolucci et al 2011)" esm:quality="best">
		<comp name="--.HNE" depth="0.0">
			<acc value="0.0340385506030184" flag="0"/>
			<vel value="0.0381935595056556" flag="0"/>
			<psa03 value="0.091589890297399" flag="0"/>
			<psa10 value="0.0630345882321126" flag="0"/>
			<psa30 value="0.007814736021242" flag="0"/>
		</comp>
		<comp name="--.HNN" depth="0.0">
			<acc value="0.0281629412581044" flag="0"/>
			<vel value="0.0337026726419771" flag="0"/>
			<psa03 value="0.0876413162237452" flag="0"/>
			<psa10 value="0.0460976187410062" flag="0"/>
			<psa30 value="0.00821985285824424" flag="0"/>
		</comp>
		<comp name="--.HNZ" depth="0.0">
			<acc value="0.0209597929851673" flag="0"/>
			<vel value="0.020216890902622" flag="0"/>
			<psa03 value="0.0529416425406609" flag="0"/>
			<psa10 value="0.0229573258101662" flag="0"/>
			<psa30 value="0.00532151919119642" flag="0"/>
		</comp>
	</station>
	<station code="RKT1" name="RKT1" netid="HI" source="ITSAK Strong Motion Network" insttype="" lat="35.954336" lon="27.767327" esm:processing="automatic (Paolucci et al 2011)" esm:quality="best">
		<comp name="--.HNE" depth="0.0">
			<acc value="0.0773947431356087" flag="0"/>
			<vel value="0.052691134617518" flag="0"/>
			<psa03 value="0.259215900947939" flag="0"/>
			<psa10 value="0.0476305552905293" flag="0"/>
			<psa30 value="0.00981305006640694" flag="0"/>
		</comp>
		<comp name="--.HNN" depth="0.0">
			<acc value="0.0804300447895811" flag="0"/>
			<vel value="0.0651280013926064" flag="0"/>
			<psa03 value="0.295197763736425" flag="0"/>
			<psa10 value="0.0931706545986093" flag="0"/>
			<psa30 value="0.00851875432566619" flag="0"/>
		</comp>
		<comp name="--.HNZ" depth="0.0">
			<acc value="0.0543344159203768" flag="0"/>
			<vel value="0.042313125880615" flag="0"/>
			<psa03 value="0.084352733787965" flag="0"/>
			<psa10 value="0.0603412610624058" flag="0"/>
			<psa30 value="0.00815046492830109" flag="0"/>
		</comp>
	</station>
	<station code="RLN1" name="RLN1" netid="HI" source="ITSAK Strong Motion Network" insttype="" lat="36.089085" lon="28.086909" esm:processing="automatic (Paolucci et al 2011)" esm:quality="best">
		<comp name="--.HNE" depth="0.0">
			<acc value="0.0234489125579242" flag="0"/>
			<vel value="0.027207848196662" flag="0"/>
			<psa03 value="0.0586720690282922" flag="0"/>
			<psa10 value="0.0323593111455521" flag="0"/>
			<psa30 value="0.0104759964833535" flag="0"/>
		</comp>
		<comp name="--.HNN" depth="0.0">
			<acc value="0.0181425496594845" flag="0"/>
			<vel value="0.0230212755602399" flag="0"/>
			<psa03 value="0.0476422758586261" flag="0"/>
			<psa10 value="0.0376816899770288" flag="0"/>
			<psa30 value="0.00815873297601867" flag="0"/>
		</comp>
		<comp name="--.HNZ" depth="0.0">
			<acc value="0.0136966152115934" flag="0"/>
			<vel value="0.0157870680817684" flag="0"/>
			<psa03 value="0.0340608501141581" flag="0"/>
			<psa10 value="0.0172505352633" flag="0"/>
			<psa30 value="0.00842121869774286" flag="0"/>
		</comp>
	</station>
	<station code="RPN1" name="RPN1" netid="HI" source="ITSAK Strong Motion Network" insttype="" lat="36.448678" lon="28.218047" esm:processing="manual (Paolucci et al 2011)" esm:quality="good">
		<comp name="--.HNE" depth="0.0">
			<acc value="0.0243727126035813" flag="0"/>
			<vel value="0.0370581258917934" flag="0"/>
			<psa03 value="0.0663165962740382" flag="0"/>
			<psa10 value="0.0686904879077084" flag="0"/>
			<psa30 value="0.014935281055738" flag="0"/>
		</comp>
		<comp name="--.HNN" depth="0.0">
			<acc value="0.0267313982475651" flag="0"/>
			<vel value="0.0326610496645237" flag="0"/>
			<psa03 value="0.075871729254704" flag="0"/>
			<psa10 value="0.0732079846696982" flag="0"/>
			<psa30 value="0.0114086649347278" flag="0"/>
		</comp>
		<comp name="--.HNZ" depth="0.0">
			<acc value="0.0194509328256925" flag="0"/>
			<vel value="0.0227005748573659" flag="0"/>
			<psa03 value="0.0458563815102236" flag="0"/>
			<psa10 value="0.0246512905270151" flag="0"/>
			<psa30 value="0.00848398035539466" flag="0"/>
		</comp>
	</station>
	<station code="RSO1" name="RSO1" netid="HI" source="ITSAK Strong Motion Network" insttype="" lat="36.3632" lon="28.0016" esm:processing="manual (Paolucci et al 2011)" esm:quality="good">
		<comp name="--.HNE" depth="0.0">
			<acc value="0.0509378458267664" flag="0"/>
			<vel value="0.0433476017133937" flag="0"/>
			<psa03 value="0.165908157267851" flag="0"/>
			<psa10 value="0.0651124583808123" flag="0"/>
			<psa30 value="0.013185247624612" flag="0"/>
		</comp>
		<comp name="--.HNN" depth="0.0">
			<acc value="0.0374751706502224" flag="0"/>
			<vel value="0.0525839690647122" flag="0"/>
			<psa03 value="0.0751363003278135" flag="0"/>
			<psa10 value="0.0470004197971454" flag="0"/>
			<psa30 value="0.0127198917970722" flag="0"/>
		</comp>
		<comp name="--.HNZ" depth="0.0">
			<acc value="0.021690520214651" flag="0"/>
			<vel value="0.0302381631505457" flag="0"/>
			<psa03 value="0.0653347968596454" flag="0"/>
			<psa10 value="0.0338312911570038" flag="0"/>
			<psa30 value="0.00914152724798255" flag="0"/>
		</comp>
	</station>
	<station code="SIT2" name="SIT2" netid="HI" source="ITSAK Strong Motion Network" insttype="" lat="35.2059" lon="26.107" esm:processing="manual (Paolucci et al 2011)" esm:quality="good">
		<comp name="--.HNE" depth="0.0">
			<acc value="0.0463368622705277" flag="0"/>
			<vel value="0.0473670808723422" flag="0"/>
			<psa03 value="0.0821019491445287" flag="0"/>
			<psa10 value="0.0623952442395109" flag="0"/>
			<psa30 value="0.00679544634118311" flag="0"/>
		</comp>
		<comp name="--.HNN" depth="0.0">
			<acc value="0.0527434663541854" flag="0"/>
			<vel value="0.0391629820081217" flag="0"/>
			<psa03 value="0.114495306736157" flag="0"/>
			<psa10 value="0.041882732193298" flag="0"/>
			<psa30 value="0.00886880019587383" flag="0"/>
		</comp>
		<comp name="--.HNZ" depth="0.0">
			<acc value="0.0129198651617733" flag="0"/>
			<vel value="0.0147910758071028" flag="0"/>
			<psa03 value="0.0362859295674184" flag="0"/>
			<psa10 value="0.0123743520844154" flag="0"/>
			<psa30 value="0.005022312692901" flag="0"/>
		</comp>
	</station>
	<station code="KARP" name="KARP" netid="HL" source="National Observatory of Athens Seismic Network" insttype="" lat="35.5471" lon="27.16106" esm:processing="manual (Paolucci et al 2011)" esm:quality="best">
		<comp name="--.HNE" depth="0.0">
			<acc value="0.0369569974714527" flag="0"/>
			<vel value="0.0339667430551232" flag="0"/>
			<psa03 value="0.0676949586134452" flag="0"/>
			<psa10 value="0.0564677967067222" flag="0"/>
			<psa30 value="0.00753682470484788" flag="0"/>
		</comp>
		<comp name="--.HNN" depth="0.0">
			<acc value="0.0490726456995821" flag="0"/>
			<vel value="0.0425960506762439" flag="0"/>
			<psa03 value="0.0829967932768941" flag="0"/>
			<psa10 value="0.0769037995796178" flag="0"/>
			<psa30 value="0.00717843962983552" flag="0"/>
		</comp>
		<comp name="--.HNZ" depth="0.0">
			<acc value="0.0423709962318515" flag="0"/>
			<vel value="0.0334183388523973" flag="0"/>
			<psa03 value="0.0649209418031123" flag="0"/>
			<psa10 value="0.0497873378365481" flag="0"/>
			<psa30 value="0.00671893716786587" flag="0"/>
		</comp>
	</station>
	<station code="HER2" name="HER2" netid="HI" source="ITSAK Strong Motion Network" insttype="" lat="35.337866" lon="25.135624" esm:processing="automatic (Paolucci et al 2011)" esm:quality="bad">
		<comp name="--.HNE" depth="0.0">
			<acc value="0" flag="1"/>
			<vel value="0" flag="1"/>
			<psa03 value="0" flag="1"/>
			<psa10 value="0" flag="1"/>
			<psa30 value="0" flag="1"/>
		</comp>
		<comp name="--.HNN" depth="0.0">
			<acc value="0" flag="1"/>
			<vel value="0" flag="1"/>
			<psa03 value="0" flag="1"/>
			<psa10 value="0" flag="1"/>
			<psa30 value="0" flag="1"/>
		</comp>
		<comp name="--.HNZ" depth="0.0">
			<acc value="0" flag="1"/>
			<vel value="0" flag="1"/>
			<psa03 value="0" flag="1"/>
			<psa10 value="0" flag="1"/>
			<psa30 value="0" flag="1"/>
		</comp>
	</station>
	<station code="RDI1" name="RDI1" netid="HI" source="ITSAK Strong Motion Network" insttype="" lat="36.4514" lon="28.224" esm:processing="discarded" esm:quality="good">
		<comp name="--.HNE" depth="0.0">
			<acc value="0" flag="1"/>
			<vel value="0" flag="1"/>
			<psa03 value="0" flag="1"/>
			<psa10 value="0" flag="1"/>
			<psa30 value="0" flag="1"/>
		</comp>
		<comp name="--.HNN" depth="0.0">
			<acc value="0" flag="1"/>
			<vel value="0" flag="1"/>
			<psa03 value="0" flag="1"/>
			<psa10 value="0" flag="1"/>
			<psa30 value="0" flag="1"/>
		</comp>
		<comp name="--.HNZ" depth="0.0">
			<acc value="0" flag="1"/>
			<vel value="0" flag="1"/>
			<psa03 value="0" flag="1"/>
			<psa10 value="0" flag="1"/>
			<psa30 value="0" flag="1"/>
		</comp>
	</station>
	<station code="KLNA" name="KLNA" netid="HL" source="National Observatory of Athens Seismic Network" insttype="" lat="36.95708" lon="26.97274" esm:processing="discarded" esm:quality="bad">
		<comp name="00.HNE" depth="0.0">
			<acc value="0" flag="1"/>
			<vel value="0" flag="1"/>
			<psa03 value="0" flag="1"/>
			<psa10 value="0" flag="1"/>
			<psa30 value="0" flag="1"/>
		</comp>
		<comp name="00.HNN" depth="0.0">
			<acc value="0" flag="1"/>
			<vel value="0" flag="1"/>
			<psa03 value="0" flag="1"/>
			<psa10 value="0" flag="1"/>
			<psa30 value="0" flag="1"/>
		</comp>
		<comp name="00.HNZ" depth="0.0">
			<acc value="0" flag="1"/>
			<vel value="0" flag="1"/>
			<psa03 value="0" flag="1"/>
			<psa10 value="0" flag="1"/>
			<psa30 value="0" flag="1"/>
		</comp>
	</station>
	<station code="KSL" name="KSL" netid="HL" source="National Observatory of Athens Seismic Network" insttype="" lat="36.15031" lon="29.58561" esm:processing="discarded" esm:quality="bad">
		<comp name="00.HNE" depth="0.0">
			<acc value="0" flag="1"/>
			<vel value="0" flag="1"/>
			<psa03 value="0" flag="1"/>
			<psa10 value="0" flag="1"/>
			<psa30 value="0" flag="1"/>
		</comp>
		<comp name="00.HNN" depth="0.0">
			<acc value="0" flag="1"/>
			<vel value="0" flag="1"/>
			<psa03 value="0" flag="1"/>
			<psa10 value="0" flag="1"/>
			<psa30 value="0" flag="1"/>
		</comp>
		<comp name="00.HNZ" depth="0.0">
			<acc value="0" flag="1"/>
			<vel value="0" flag="1"/>
			<psa03 value="0" flag="1"/>
			<psa10 value="0" flag="1"/>
			<psa30 value="0" flag="1"/>
		</comp>
	</station>
	<station code="RODB" name="RODB" netid="HL" source="National Observatory of Athens Seismic Network" insttype="" lat="36.4471" lon="28.22116" esm:processing="discarded" esm:quality="good">
		<comp name="00.HNE" depth="0.0">
			<acc value="0" flag="1"/>
			<vel value="0" flag="1"/>
			<psa03 value="0" flag="1"/>
			<psa10 value="0" flag="1"/>
			<psa30 value="0" flag="1"/>
		</comp>
		<comp name="00.HNN" depth="0.0">
			<acc value="0" flag="1"/>
			<vel value="0" flag="1"/>
			<psa03 value="0" flag="1"/>
			<psa10 value="0" flag="1"/>
			<psa30 value="0" flag="1"/>
		</comp>
		<comp name="00.HNZ" depth="0.0">
			<acc value="0" flag="1"/>
			<vel value="0" flag="1"/>
			<psa03 value="0" flag="1"/>
			<psa10 value="0" flag="1"/>
			<psa30 value="0" flag="1"/>
		</comp>
	</station>
	<station code="DATC" name="DATC" netid="KO" source="Bogazici University Kandilli Observatory And Earthquake Research Institute (KOERI)" insttype="" lat="36.7584" lon="27.6602" esm:processing="discarded" esm:quality="bad">
		<comp name="--.HNE" depth="0.0">
			<acc value="0" flag="1"/>
			<vel value="0" flag="1"/>
			<psa03 value="0" flag="1"/>
			<psa10 value="0" flag="1"/>
			<psa30 value="0" flag="1"/>
		</comp>
		<comp name="--.HNN" depth="0.0">
			<acc value="0" flag="1"/>
			<vel value="0" flag="1"/>
			<psa03 value="0" flag="1"/>
			<psa10 value="0" flag="1"/>
			<psa30 value="0" flag="1"/>
		</comp>
		<comp name="--.HNZ" depth="0.0">
			<acc value="0" flag="1"/>
			<vel value="0" flag="1"/>
			<psa03 value="0" flag="1"/>
			<psa10 value="0" flag="1"/>
			<psa30 value="0" flag="1"/>
		</comp>
	</station>
	<station code="DEMR" name="DEMR" netid="KO" source="Bogazici University Kandilli Observatory And Earthquake Research Institute (KOERI)" insttype="" lat="36.2365" lon="29.9056" esm:processing="discarded" esm:quality="bad">
		<comp name="--.HNE" depth="0.0">
			<acc value="0" flag="1"/>
			<vel value="0" flag="1"/>
			<psa03 value="0" flag="1"/>
			<psa10 value="0" flag="1"/>
			<psa30 value="0" flag="1"/>
		</comp>
		<comp name="--.HNN" depth="0.0">
			<acc value="0" flag="1"/>
			<vel value="0" flag="1"/>
