<?xml version="1.0" encoding="UTF-8" standalone="yes"?>
<!DOCTYPE earthquake SYSTEM "stationlist.dtd">
<stationlist created="" xmlns="ch.ethz.sed.shakemap.usgs.xml">
  <station code="KARP" name="KARP" netid="GE" insttype="STS-2/N" lat="35.5471" lon="27.1611">
    <comp name="--.HHE">
      <acc value="0.0392301097" flag="0"/>
      <vel value="0.0349376445" flag="0"/>
      <psa03 value="0.0813070002" flag="0"/>
      <psa10 value="0.0704458781" flag="0"/>
      <psa30 value="0.0072140131" flag="0"/>
    </comp>
    <comp name="--.HHN">
      <acc value="0.0597101946" flag="0"/>
      <vel value="0.0419371201" flag="0"/>
      <psa03 value="0.1021643095" flag="0"/>
      <psa10 value="0.0851267845" flag="0"/>
      <psa30 value="0.0078676931" flag="0"/>
    </comp>
    <comp name="--.HHZ">
      <acc value="0.0530147506" flag="0"/>
      <vel value="0.0392988226" flag="0"/>
      <psa03 value="0.0800913517" flag="0"/>
      <psa10 value="0.0611311644" flag="0"/>
      <psa30 value="0.0084201450" flag="0"/>
    </comp>
  </station>
  <station code="ZKR" name="ZKR" netid="GE" insttype="STS-2/N" lat="35.1147" lon="26.2169">
    <comp name="--.HHE">
      <acc value="0.0127223744" flag="0"/>
      <vel value="0.0220245622" flag="0"/>
      <psa03 value="0.0231611703" flag="0"/>
      <psa10 value="0.0325658984" flag="0"/>
      <psa30 value="0.0060139593" flag="0"/>
    </comp>
    <comp name="--.HHN">
      <acc value="0.0061639234" flag="0"/>
      <vel value="0.0105412235" flag="0"/>
      <psa03 value="0.0135166134" flag="0"/>
      <psa10 value="0.0160290731" flag="0"/>
      <psa30 value="0.0055179952" flag="0"/>
    </comp>
    <comp name="--.HHZ">
      <acc value="0.0083929258" flag="0"/>
      <vel value="0.0122664541" flag="0"/>
      <psa03 value="0.0148456913" flag="0"/>
      <psa10 value="0.0195708261" flag="0"/>
      <psa30 value="0.0065600200" flag="0"/>
    </comp>
  </station>
  <station code="RDI1" name="RDI1" netid="HI" insttype="CMG-5TD,ACCELEROMETER,GURALP" lat="36.4514" lon="28.224">
    <comp name="--.HNE">
      <acc value="0.0193624701" flag="0"/>
      <vel value="0.0476544857" flag="0"/>
      <psa03 value="0.0604615484" flag="0"/>
      <psa10 value="0.0483687126" flag="0"/>
      <psa30 value="0.0217679184" flag="0"/>
    </comp>
    <comp name="--.HNN">
      <acc value="0.0239855731" flag="0"/>
      <vel value="0.0268367547" flag="0"/>
      <psa03 value="0.0543373961" flag="0"/>
      <psa10 value="0.0550054189" flag="0"/>
      <psa30 value="0.0156719091" flag="0"/>
    </comp>
    <comp name="--.HNZ">
      <acc value="0.0135190839" flag="0"/>
      <vel value="0.0174655729" flag="0"/>
      <psa03 value="0.0395607577" flag="0"/>
      <psa10 value="0.0306335286" flag="0"/>
      <psa30 value="0.0065783228" flag="0"/>
    </comp>
  </station>
  <station code="SIT2" name="SIT2" netid="HI" insttype="CMG-5TD,ACCELEROMETER,GURALP" lat="35.2059" lon="26.107">
    <comp name="--.HNE">
      <acc value="0.0462593990" flag="0"/>
      <vel value="0.0462205658" flag="0"/>
      <psa03 value="0.0835203749" flag="0"/>
      <psa10 value="0.0624735742" flag="0"/>
      <psa30 value="0.0066648269" flag="0"/>
    </comp>
    <comp name="--.HNN">
      <acc value="0.0526209605" flag="0"/>
      <vel value="0.0388239812" flag="0"/>
      <psa03 value="0.1158590561" flag="0"/>
      <psa10 value="0.0419387684" flag="0"/>
      <psa30 value="0.0086665950" flag="0"/>
    </comp>
    <comp name="--.HNZ">
      <acc value="0.0129290741" flag="0"/>
      <vel value="0.0154428680" flag="0"/>
      <psa03 value="0.0363782912" flag="0"/>
      <psa10 value="0.0125172624" flag="0"/>
      <psa30 value="0.0051427709" flag="0"/>
    </comp>
  </station>
  <station code="ARG" name="ARG" netid="HL" insttype="LE3D20_DR24" lat="36.2136" lon="28.1212">
    <comp name="--.HHE">
      <acc value="0.0214766952" flag="0"/>
      <vel value="0.0236548904" flag="0"/>
      <psa03 value="0.0651805753" flag="0"/>
      <psa10 value="0.0250217860" flag="0"/>
      <psa30 value="0.0142528217" flag="0"/>
    </comp>
    <comp name="--.HHN">
      <acc value="0.0181642714" flag="0"/>
      <vel value="0.0317204738" flag="0"/>
      <psa03 value="0.0425389639" flag="0"/>
      <psa10 value="0.0351912319" flag="0"/>
      <psa30 value="0.0123728776" flag="0"/>
    </comp>
    <comp name="--.HHZ">
      <acc value="0.0123926000" flag="0"/>
      <vel value="0.0205724979" flag="0"/>
      <psa03 value="0.0342704370" flag="0"/>
      <psa10 value="0.0203198444" flag="0"/>
      <psa30 value="0.0089174518" flag="0"/>
    </comp>
  </station>
  <station code="KARP" name="KARP" netid="HL" insttype="120" lat="35.5471" lon="27.1611">
    <comp name="--.HHE">
      <acc value="0.0378687977" flag="0"/>
      <vel value="0.0345090394" flag="0"/>
      <psa03 value="0.0794735990" flag="0"/>
      <psa10 value="0.0700207004" flag="0"/>
      <psa30 value="0.0072056885" flag="0"/>
    </comp>
    <comp name="--.HHN">
      <acc value="0.0572365769" flag="0"/>
      <vel value="0.0416823558" flag="0"/>
      <psa03 value="0.0991545484" flag="0"/>
      <psa10 value="0.0846182694" flag="0"/>
      <psa30 value="0.0078436331" flag="0"/>
    </comp>
    <comp name="--.HHZ">
      <acc value="0.0519442388" flag="0"/>
      <vel value="0.0386369671" flag="0"/>
      <psa03 value="0.0784828796" flag="0"/>
      <psa10 value="0.0606930843" flag="0"/>
      <psa30 value="0.0084015275" flag="0"/>
    </comp>
  </station>
  <station code="RODB" name="RODB" netid="HL" insttype="CMG-5" lat="36.4471" lon="28.2212">
    <comp name="00.HNE">
      <acc value="0.0184412021" flag="0"/>
      <vel value="0.0260665476" flag="0"/>
      <psa03 value="0.0594299097" flag="0"/>
      <psa10 value="0.0426288726" flag="0"/>
      <psa30 value="0.0111389661" flag="0"/>
    </comp>
    <comp name="00.HNN">
      <acc value="0.0241630540" flag="0"/>
      <vel value="0.0345727863" flag="0"/>
      <psa03 value="0.0652917739" flag="0"/>
      <psa10 value="0.0446695559" flag="0"/>
      <psa30 value="0.0158898641" flag="0"/>
    </comp>
    <comp name="00.HNZ">
      <acc value="0.0162905020" flag="0"/>
      <vel value="0.0172825349" flag="0"/>
      <psa03 value="0.0527444696" flag="0"/>
      <psa10 value="0.0175915901" flag="0"/>
      <psa30 value="0.0041426315" flag="0"/>
    </comp>
  </station>
  <station code="ZKR" name="ZKR" netid="HL" insttype="120" lat="35.1147" lon="26.2169">
    <comp name="--.HHE">
      <acc value="0.0126180105" flag="0"/>
      <vel value="0.0218559717" flag="0"/>
      <psa03 value="0.0227383425" flag="0"/>
      <psa10 value="0.0323524233" flag="0"/>
      <psa30 value="0.0060112169" flag="0"/>
    </comp>
    <comp name="--.HHN">
      <acc value="0.0060928026" flag="0"/>
      <vel value="0.0104663277" flag="0"/>
      <psa03 value="0.0131973422" flag="0"/>
      <psa10 value="0.0159326262" flag="0"/>
      <psa30 value="0.0055209933" flag="0"/>
    </comp>
    <comp name="--.HHZ">
      <acc value="0.0083149784" flag="0"/>
      <vel value="0.0121935648" flag="0"/>
      <psa03 value="0.0144469951" flag="0"/>
      <psa10 value="0.0194590451" flag="0"/>
      <psa30 value="0.0065619023" flag="0"/>
    </comp>
  </station>
</stationlist>
