<stationlist created="1631873498">
	<station code="KRL1" name="KRL1" netid="HI" source="ITSAK Strong Motion Network" insttype="" lat="37.7951" lon="26.7065">
		<comp name="--.HNE" depth="0.0">
			<acc value="0.485462574" flag="0"/>
			<vel value="0.161686" flag="0"/>
			<psa03 value="0.530955765939" flag="0"/>
			<psa10 value="0.0901640473551" flag="0"/>
			<psa30 value="0.0099188997852" flag="0"/>
		</comp>
		<comp name="--.HNN" depth="0.0">
			<acc value="0.168827952" flag="0"/>
			<vel value="0.066634" flag="0"/>
			<psa03 value="0.174405121398" flag="0"/>
			<psa10 value="0.0790420296339" flag="0"/>
			<psa30 value="0.00536011635287" flag="0"/>
		</comp>
		<comp name="--.HNZ" depth="0.0">
			<acc value="0.168326112" flag="0"/>
			<vel value="-0.051181" flag="0"/>
			<psa03 value="0.147425570807" flag="0"/>
			<psa10 value="0.0403002003452" flag="0"/>
			<psa30 value="0.00337937886588" flag="0"/>
		</comp>
	</station>
	<station code="KLNA" name="KLNA" netid="HL" source="National Observatory of Athens Seismic Network" insttype="" lat="36.95708" lon="26.97274">
		<comp name="--.HNE" depth="0.0">
			<acc value="0.058939578" flag="0"/>
			<vel value="-0.027129" flag="0"/>
			<psa03 value="0.211183215238" flag="0"/>
			<psa10 value="0.0164092042773" flag="0"/>
			<psa30 value="0.00148991548039" flag="0"/>
		</comp>
		<comp name="--.HNN" depth="0.0">
			<acc value="-0.060438978" flag="0"/>
			<vel value="0.021276" flag="0"/>
			<psa03 value="0.204695595279" flag="0"/>
			<psa10 value="0.0113475184425" flag="0"/>
			<psa30 value="0.000975380104278" flag="0"/>
		</comp>
		<comp name="--.HNZ" depth="0.0">
			<acc value="-0.049315164" flag="0"/>
			<vel value="0.014935" flag="0"/>
			<psa03 value="0.114897986596" flag="0"/>
			<psa10 value="0.0130709882415" flag="0"/>
			<psa30 value="0.00074540516226" flag="0"/>
		</comp>
	</station>
	<station code="GMLD" name="GMLD" netid="KO" source="Bogazici University Kandilli Observatory And Earthquake Research Institute (KOERI)" insttype="" lat="38.0766" lon="26.9157">
		<comp name="--.HNE" depth="0.0">
			<acc value="-0.855463392" flag="0"/>
			<vel value="0.386101" flag="0"/>
			<psa03 value="1.50812555848" flag="0"/>
			<psa10 value="0.138155433018" flag="0"/>
			<psa30 value="0.0136271338697" flag="0"/>
		</comp>
		<comp name="--.HNN" depth="0.0">
			<acc value="0.633346866" flag="0"/>
			<vel value="0.26379" flag="0"/>
			<psa03 value="1.44960275223" flag="0"/>
			<psa10 value="0.186287756632" flag="0"/>
			<psa30 value="0.0127886649177" flag="0"/>
		</comp>
		<comp name="--.HNZ" depth="0.0">
			<acc value="-0.404084628" flag="0"/>
			<vel value="-0.146425" flag="0"/>
			<psa03 value="1.01716932526" flag="0"/>
			<psa10 value="0.0718662745365" flag="0"/>
			<psa30 value="0.00681065869143" flag="0"/>
		</comp>
	</station>
	<station code="KUSD" name="KUSD" netid="KO" source="Bogazici University Kandilli Observatory And Earthquake Research Institute (KOERI)" insttype="" lat="37.8606" lon="27.2868">
		<comp name="--.HNE" depth="0.0">
			<acc value="0.104626806" flag="0"/>
			<vel value="0.084589" flag="0"/>
			<psa03 value="0.365722796898" flag="0"/>
			<psa10 value="0.112089965708" flag="0"/>
			<psa30 value="0.00659186930107" flag="0"/>
		</comp>
		<comp name="--.HNN" depth="0.0">
			<acc value="0.106165374" flag="0"/>
			<vel value="-0.05241" flag="0"/>
			<psa03 value="0.35404508097" flag="0"/>
			<psa10 value="0.07529710694" flag="0"/>
			<psa30 value="0.00548852648586" flag="0"/>
		</comp>
		<comp name="--.HNZ" depth="0.0">
			<acc value="0.0641172" flag="0"/>
			<vel value="0.021517" flag="0"/>
			<psa03 value="0.120714473456" flag="0"/>
			<psa10 value="0.0277929639071" flag="0"/>
			<psa30 value="0.00336013971703" flag="0"/>
		</comp>
	</station>
</stationlist>
