<?xml version="1.0" encoding="UTF-8" standalone="yes"?>
<!DOCTYPE earthquake SYSTEM "stationlist.dtd">
<stationlist created="" xmlns="ch.ethz.sed.shakemap.usgs.xml">
  <station code="KRL1" name="KRL1" netid="HI" insttype="CMG-5TD,ACCELEROMETER,GURALP" lat="37.7951" lon="26.7065">
    <comp name="--.HNZ">
      <acc value="0.1762768164" flag="0"/>
      <vel value="0.0512836662" flag="0"/>
      <psa03 value="0.1434897000" flag="0"/>
      <psa10 value="0.0401684494" flag="0"/>
      <psa30 value="0.0029551310" flag="0"/>
    </comp>
    <comp name="--.HNN">
      <acc value="0.1711080194" flag="0"/>
      <vel value="0.0661975662" flag="0"/>
      <psa03 value="0.1710237613" flag="0"/>
      <psa10 value="0.0791167844" flag="0"/>
      <psa30 value="0.0051248241" flag="0"/>
    </comp>
    <comp name="--.HNE">
      <acc value="0.4875183140" flag="0"/>
      <vel value="0.1605820837" flag="0"/>
      <psa03 value="0.5242716136" flag="0"/>
      <psa10 value="0.0900233182" flag="0"/>
      <psa30 value="0.0088906240" flag="0"/>
    </comp>
  </station>
  <station code="CHOS" name="CHOS" netid="HT" insttype="100" lat="38.3869" lon="26.0506">
    <comp name="--.HHN">
      <acc value="0.0363402877" flag="0"/>
      <vel value="0.0147600597" flag="0"/>
      <psa03 value="0.1140012834" flag="0"/>
      <psa10 value="0.0095829818" flag="0"/>
      <psa30 value="0.0014905319" flag="0"/>
    </comp>
    <comp name="--.HHE">
      <acc value="0.0593204976" flag="0"/>
      <vel value="0.0168072190" flag="0"/>
      <psa03 value="0.1029973541" flag="0"/>
      <psa10 value="0.0150648430" flag="0"/>
      <psa30 value="0.0016443064" flag="0"/>
    </comp>
    <comp name="--.HHZ">
      <acc value="0.0267240503" flag="0"/>
      <vel value="0.0074379569" flag="0"/>
      <psa03 value="0.0363427680" flag="0"/>
      <psa10 value="0.0084625086" flag="0"/>
      <psa30 value="0.0008696492" flag="0"/>
    </comp>
  </station>
  <station code="GMLD" name="GMLD" netid="KO" insttype="100" lat="38.0764" lon="26.8747">
    <comp name="--.HNE">
      <acc value="0.1357083400" flag="0"/>
      <vel value="0.0614450787" flag="0"/>
      <psa03 value="0.2380606773" flag="0"/>
      <psa10 value="0.0219435333" flag="0"/>
      <psa30 value="0.0019793897" flag="0"/>
    </comp>
    <comp name="--.HNN">
      <acc value="0.1012559481" flag="0"/>
      <vel value="0.0416344253" flag="0"/>
      <psa03 value="0.2280342605" flag="0"/>
      <psa10 value="0.0295492431" flag="0"/>
      <psa30 value="0.0018954630" flag="0"/>
    </comp>
    <comp name="--.HNZ">
      <acc value="0.0636637418" flag="0"/>
      <vel value="0.0234999749" flag="0"/>
      <psa03 value="0.1589844127" flag="0"/>
      <psa10 value="0.0113952765" flag="0"/>
      <psa30 value="0.0009309378" flag="0"/>
    </comp>
  </station>
</stationlist>
