<?xml version="1.0" encoding="UTF-8" standalone="yes"?>
<!DOCTYPE earthquake SYSTEM "stationlist.dtd">
<stationlist created="" xmlns="ch.ethz.sed.shakemap.usgs.xml">
  <station code="PE06" name="PE06" netid="Z3" source="GFZ" insttype="CMG-3ESP/60" lat="37.1787" lon="21.9252">
    <comp name="--.HHE">
      <acc value="0.0507423222" flag="0"/>
      <vel value="0.0159465823" flag="0"/>
      <psa03 value="0.1130971759" flag="0"/>
      <psa10 value="0.0090308786" flag="0"/>
      <psa30 value="0.0031239847" flag="0"/>
    </comp>
    <comp name="--.HHN">
      <acc value="0.0330114246" flag="0"/>
      <vel value="0.0130205152" flag="0"/>
      <psa03 value="0.0603427759" flag="0"/>
      <psa10 value="0.0066071606" flag="0"/>
      <psa30 value="0.0025341147" flag="0"/>
    </comp>
    <comp name="--.HHZ">
      <acc value="0.0235149573" flag="0"/>
      <vel value="0.0138680594" flag="0"/>
      <psa03 value="0.0685929366" flag="0"/>
      <psa10 value="0.0081833191" flag="0"/>
      <psa30 value="0.0017273568" flag="0"/>
    </comp>
  </station>
  <station code="PE07" name="PE07" netid="Z3" source="GFZ" insttype="CMG-3ESP/60" lat="37.1478" lon="22.8195">
    <comp name="--.HHE">
      <acc value="0.0627025205" flag="0"/>
      <vel value="0.0254710064" flag="0"/>
      <psa03 value="0.0949673241" flag="0"/>
      <psa10 value="0.0231676554" flag="0"/>
      <psa30 value="0.0074174982" flag="0"/>
    </comp>
    <comp name="--.HHN">
      <acc value="0.0730134763" flag="0"/>
      <vel value="0.0274669736" flag="0"/>
      <psa03 value="0.1207775864" flag="0"/>
      <psa10 value="0.0167998937" flag="0"/>
      <psa30 value="0.0047227737" flag="0"/>
    </comp>
    <comp name="--.HHZ">
      <acc value="0.0754420884" flag="0"/>
      <vel value="0.0303871444" flag="0"/>
      <psa03 value="0.0979210441" flag="0"/>
      <psa10 value="0.0158150408" flag="0"/>
      <psa30 value="0.0023061325" flag="0"/>
    </comp>
  </station>
  <station code="PE08" name="PE08" netid="Z3" source="GFZ" insttype="CMG-3ESP/60" lat="36.8311" lon="22.442">
    <comp name="--.HHE">
      <acc value="0.0000000000" flag="0"/>
      <vel value="-100.0000000000" flag="0"/>
      <psa03 value="0.0000000000" flag="0"/>
      <psa10 value="0.0000000000" flag="0"/>
      <psa30 value="0.0000000000" flag="0"/>
    </comp>
    <comp name="--.HHN">
      <acc value="0.0000149189" flag="0"/>
      <vel value="0.0000015533" flag="0"/>
      <psa03 value="0.0000057607" flag="0"/>
      <psa10 value="0.0000012478" flag="0"/>
      <psa30 value="0.0000003009" flag="0"/>
    </comp>
    <comp name="--.HHZ">
      <acc value="0.0642746603" flag="0"/>
      <vel value="0.0343471021" flag="0"/>
      <psa03 value="0.1589153860" flag="0"/>
      <psa10 value="0.0249217373" flag="0"/>
      <psa30 value="0.0026679985" flag="0"/>
    </comp>
  </station>
  <station code="PE09" name="PE09" netid="Z3" source="GFZ" insttype="CMG-3ESP/60" lat="36.7921" lon="21.8879">
    <comp name="--.HHE">
      <acc value="0.2626454557" flag="0"/>
      <vel value="0.1111677458" flag="0"/>
      <psa03 value="0.7650380443" flag="0"/>
      <psa10 value="0.0553338878" flag="0"/>
      <psa30 value="0.0080000530" flag="0"/>
    </comp>
    <comp name="--.HHN">
      <acc value="0.2215507700" flag="0"/>
      <vel value="0.0829791207" flag="0"/>
      <psa03 value="0.5575606051" flag="0"/>
      <psa10 value="0.0573295329" flag="0"/>
      <psa30 value="0.0050839369" flag="0"/>
    </comp>
    <comp name="--.HHZ">
      <acc value="0.1756953525" flag="0"/>
      <vel value="0.0566562467" flag="0"/>
      <psa03 value="0.3144873006" flag="0"/>
      <psa10 value="0.0224296668" flag="0"/>
      <psa30 value="0.0022239961" flag="0"/>
    </comp>
  </station>
  <station code="PE11" name="PE11" netid="Z3" source="GFZ" insttype="CMG-3ESP/60" lat="36.4834" lon="22.4785">
    <comp name="--.HHE">
      <acc value="0.1371980010" flag="0"/>
      <vel value="0.0709263842" flag="0"/>
      <psa03 value="0.3670377894" flag="0"/>
      <psa10 value="0.0674331503" flag="0"/>
      <psa30 value="0.0149213711" flag="0"/>
    </comp>
    <comp name="--.HHN">
      <acc value="0.1092893342" flag="0"/>
      <vel value="0.0610624823" flag="0"/>
      <psa03 value="0.2755165796" flag="0"/>
      <psa10 value="0.0289319284" flag="0"/>
      <psa30 value="0.0068875810" flag="0"/>
    </comp>
    <comp name="--.HHZ">
      <acc value="0.1377515371" flag="0"/>
      <vel value="0.0663324760" flag="0"/>
      <psa03 value="0.3135538563" flag="0"/>
      <psa10 value="0.0299667636" flag="0"/>
      <psa30 value="0.0028543235" flag="0"/>
    </comp>
  </station>
</stationlist>
