<?xml version="1.0" encoding="UTF-8" standalone="yes"?>
<!DOCTYPE earthquake SYSTEM "stationlist.dtd">
<stationlist created="" xmlns="ch.ethz.sed.shakemap.usgs.xml">
  <station code="APE" name="APE" netid="GE" insttype="STS-2/N" lat="37.0727" lon="25.523">
    <comp name="--.HHN">
      <acc value="0.1223298076" flag="0"/>
      <vel value="0.0246538532" flag="0"/>
      <psa03 value="0.1005954280" flag="0"/>
      <psa10 value="0.0044820184" flag="0"/>
      <psa30 value="0.0008070421" flag="0"/>
    </comp>
    <comp name="--.HHZ">
      <acc value="0.0681390327" flag="0"/>
      <vel value="0.0115778749" flag="0"/>
      <psa03 value="0.0395552179" flag="0"/>
      <psa10 value="0.0044383476" flag="0"/>
      <psa30 value="0.0004853358" flag="0"/>
    </comp>
    <comp name="--.HHE">
      <acc value="0.1078038737" flag="0"/>
      <vel value="0.0192210921" flag="0"/>
      <psa03 value="0.0759770020" flag="0"/>
      <psa10 value="0.0043759030" flag="0"/>
      <psa30 value="0.0006138246" flag="0"/>
    </comp>
  </station>
  <station code="THERA" name="THERA" netid="GE" insttype="STS-2/N" lat="36.367" lon="25.4753">
    <comp name="--.HHE">
      <acc value="0.1682114934" flag="0"/>
      <vel value="0.0441013931" flag="0"/>
      <psa03 value="0.2846189979" flag="0"/>
      <psa10 value="0.0149995021" flag="0"/>
      <psa30 value="0.0013259685" flag="0"/>
    </comp>
    <comp name="--.HHN">
      <acc value="0.1139057819" flag="0"/>
      <vel value="0.0303137744" flag="0"/>
      <psa03 value="0.2002054435" flag="0"/>
      <psa10 value="0.0050967666" flag="0"/>
      <psa30 value="0.0006399734" flag="0"/>
    </comp>
    <comp name="--.HHZ">
      <acc value="0.1173466109" flag="0"/>
      <vel value="0.0292511540" flag="0"/>
      <psa03 value="0.1648221121" flag="0"/>
      <psa10 value="0.0078897271" flag="0"/>
      <psa30 value="0.0006658323" flag="0"/>
    </comp>
  </station>
</stationlist>
