<?xml version="1.0" encoding="UTF-8" standalone="yes"?>
<!DOCTYPE earthquake SYSTEM "stationlist.dtd">
<stationlist created="" xmlns="ch.ethz.sed.shakemap.usgs.xml">
  <station code="APE" name="APE" netid="GE" insttype="STS-2/N" lat="37.0727" lon="25.523">
    <comp name="--.HHN">
      <acc value="0.1223298076" flag="0"/>
      <vel value="0.0246538532" flag="0"/>
      <psa03 value="0.1005954280" flag="0"/>
      <psa10 value="0.0044820184" flag="0"/>
      <psa30 value="0.0008070421" flag="0"/>
    </comp>
    <comp name="--.HHZ">
      <acc value="0.0681390327" flag="0"/>
      <vel value="0.0115778749" flag="0"/>
      <psa03 value="0.0395552179" flag="0"/>
      <psa10 value="0.0044383476" flag="0"/>
      <psa30 value="0.0004853358" flag="0"/>
    </comp>
    <comp name="--.HHE">
      <acc value="0.1078038737" flag="0"/>
      <vel value="0.0192210921" flag="0"/>
      <psa03 value="0.0759770020" flag="0"/>
      <psa10 value="0.0043759030" flag="0"/>
      <psa30 value="0.0006138246" flag="0"/>
    </comp>
  </station>
  <station code="THERA" name="THERA" netid="GE" insttype="STS-2/N" lat="36.367" lon="25.4753">
    <comp name="--.HHE">
      <acc value="0.1682114934" flag="0"/>
      <vel value="0.0441013931" flag="0"/>
      <psa03 value="0.2846189979" flag="0"/>
      <psa10 value="0.0149995021" flag="0"/>
      <psa30 value="0.0013259685" flag="0"/>
    </comp>
    <comp name="--.HHN">
      <acc value="0.1139057819" flag="0"/>
      <vel value="0.0303137744" flag="0"/>
      <psa03 value="0.2002054435" flag="0"/>
      <psa10 value="0.0050967666" flag="0"/>
      <psa30 value="0.0006399734" flag="0"/>
    </comp>
    <comp name="--.HHZ">
      <acc value="0.1173466109" flag="0"/>
      <vel value="0.0292511540" flag="0"/>
      <psa03 value="0.1648221121" flag="0"/>
      <psa10 value="0.0078897271" flag="0"/>
      <psa30 value="0.0006658323" flag="0"/>
    </comp>
  </station>
  <station code="SNT1" name="SNT1" netid="HA" insttype="30" lat="36.4159" lon="25.4282">
    <comp name="--.HHN">
      <acc value="0.0727402700" flag="0"/>
      <vel value="0.0220576863" flag="0"/>
      <psa03 value="0.0897501590" flag="0"/>
      <psa10 value="0.0165651155" flag="0"/>
      <psa30 value="0.0013145510" flag="0"/>
    </comp>
    <comp name="--.HHZ">
      <acc value="0.0573636477" flag="0"/>
      <vel value="0.0196882822" flag="0"/>
      <psa03 value="0.0919975409" flag="0"/>
      <psa10 value="0.0111292566" flag="0"/>
      <psa30 value="0.0005519536" flag="0"/>
    </comp>
    <comp name="--.HHE">
      <acc value="0.0619906360" flag="0"/>
      <vel value="0.0279710422" flag="0"/>
      <psa03 value="0.1133972344" flag="0"/>
      <psa10 value="0.0216247179" flag="0"/>
      <psa30 value="0.0015716503" flag="0"/>
    </comp>
  </station>
  <station code="NAX1" name="NAX1" netid="HI" insttype="CMG-5TD,ACCELEROMETER,GURALP" lat="37.1014" lon="25.3741">
    <comp name="--.HNE">
      <acc value="0.0635267260" flag="0"/>
      <vel value="0.0175642281" flag="0"/>
      <psa03 value="0.0865169307" flag="0"/>
      <psa10 value="0.0060911667" flag="0"/>
      <psa30 value="0.0005933382" flag="0"/>
    </comp>
    <comp name="--.HNN">
      <acc value="0.0657880042" flag="0"/>
      <vel value="0.0145398357" flag="0"/>
      <psa03 value="0.0485007656" flag="0"/>
      <psa10 value="0.0061094048" flag="0"/>
      <psa30 value="0.0004703380" flag="0"/>
    </comp>
    <comp name="--.HNZ">
      <acc value="0.0826055776" flag="0"/>
      <vel value="0.0166310950" flag="0"/>
      <psa03 value="0.0595807867" flag="0"/>
      <psa10 value="0.0049447342" flag="0"/>
      <psa30 value="0.0004692255" flag="0"/>
    </comp>
  </station>
  <station code="APE" name="APE" netid="HL" insttype="120" lat="37.0727" lon="25.523">
    <comp name="--.HHN">
      <acc value="0.1134929353" flag="0"/>
      <vel value="0.0227807226" flag="0"/>
      <psa03 value="0.0965017093" flag="0"/>
      <psa10 value="0.0044401160" flag="0"/>
      <psa30 value="0.0007979291" flag="0"/>
    </comp>
    <comp name="--.HHE">
      <acc value="0.1014315605" flag="0"/>
      <vel value="0.0180670373" flag="0"/>
      <psa03 value="0.0741940398" flag="0"/>
      <psa10 value="0.0043281174" flag="0"/>
      <psa30 value="0.0006120771" flag="0"/>
    </comp>
  </station>
  <station code="MHLO" name="MHLO" netid="HL" insttype="20" lat="36.6898" lon="24.4017">
    <comp name="--.HHN">
      <acc value="0.0491947675" flag="0"/>
      <vel value="0.0226212392" flag="0"/>
      <psa03 value="0.1568844946" flag="0"/>
      <psa10 value="0.0181841046" flag="0"/>
      <psa30 value="0.0010615483" flag="0"/>
    </comp>
    <comp name="--.HHE">
      <acc value="0.0671464250" flag="0"/>
      <vel value="0.0266338240" flag="0"/>
      <psa03 value="0.2056139472" flag="0"/>
      <psa10 value="0.0151115630" flag="0"/>
      <psa30 value="0.0009101821" flag="0"/>
    </comp>
    <comp name="--.HHZ">
      <acc value="0.0204825765" flag="0"/>
      <vel value="0.0105805145" flag="0"/>
      <psa03 value="0.0546595091" flag="0"/>
      <psa10 value="0.0068916608" flag="0"/>
      <psa30 value="0.0004312619" flag="0"/>
    </comp>
  </station>
  <station code="NISR" name="NISR" netid="HL" insttype="65535" lat="36.6106" lon="27.131">
    <comp name="--.HHE">
      <acc value="0.0000000000" flag="0"/>
      <vel value="-100.0000000000" flag="0"/>
      <psa03 value="0.0000000000" flag="0"/>
      <psa10 value="0.0000000000" flag="0"/>
      <psa30 value="0.0000000000" flag="0"/>
    </comp>
    <comp name="--.HHZ">
      <acc value="0.0071229209" flag="0"/>
      <vel value="0.0029769812" flag="0"/>
      <psa03 value="0.0216107518" flag="0"/>
      <psa10 value="0.0030220422" flag="0"/>
      <psa30 value="0.0002692161" flag="0"/>
    </comp>
    <comp name="--.HHN">
      <acc value="0.0133603035" flag="0"/>
      <vel value="0.0066932187" flag="0"/>
      <psa03 value="0.0418811799" flag="0"/>
      <psa10 value="0.0040775020" flag="0"/>
      <psa30 value="0.0005839014" flag="0"/>
    </comp>
  </station>
  <station code="SAP3" name="SAP3" netid="HL" insttype="LE3D20_SMART24" lat="36.4356" lon="25.3454">
    <comp name="--.HHE">
      <acc value="0.1912848549" flag="0"/>
      <vel value="0.0772693481" flag="0"/>
      <psa03 value="0.3558636058" flag="0"/>
      <psa10 value="0.0325830136" flag="0"/>
      <psa30 value="0.0039596333" flag="0"/>
    </comp>
    <comp name="--.HHN">
      <acc value="0.1410859154" flag="0"/>
      <vel value="0.0574325759" flag="0"/>
      <psa03 value="0.3890839077" flag="0"/>
      <psa10 value="0.0446012327" flag="0"/>
      <psa30 value="0.0045953551" flag="0"/>
    </comp>
    <comp name="--.HHZ">
      <acc value="0.2226204330" flag="0"/>
      <vel value="0.0690010773" flag="0"/>
      <psa03 value="0.2481628759" flag="0"/>
      <psa10 value="0.0194062300" flag="0"/>
      <psa30 value="0.0013881390" flag="0"/>
    </comp>
  </station>
  <station code="THERA" name="THERA" netid="HL" insttype="120" lat="36.367" lon="25.4753">
    <comp name="--.HHZ">
      <acc value="0.1164496559" flag="0"/>
      <vel value="0.0286667083" flag="0"/>
      <psa03 value="0.1597603577" flag="0"/>
      <psa10 value="0.0077857385" flag="0"/>
      <psa30 value="0.0006568824" flag="0"/>
    </comp>
    <comp name="--.HHE">
      <acc value="0.1653257315" flag="0"/>
      <vel value="0.0427798024" flag="0"/>
      <psa03 value="0.2754663122" flag="0"/>
      <psa10 value="0.0146913041" flag="0"/>
      <psa30 value="0.0013071155" flag="0"/>
    </comp>
    <comp name="--.HHN">
      <acc value="0.1119759455" flag="0"/>
      <vel value="0.0294965466" flag="0"/>
      <psa03 value="0.1936112177" flag="0"/>
      <psa10 value="0.0049488889" flag="0"/>
      <psa30 value="0.0006263911" flag="0"/>
    </comp>
  </station>
  <station code="THRA" name="THRA" netid="HL" insttype="CMG-5" lat="36.415" lon="25.4324">
    <comp name="00.HNE">
      <acc value="0.3391543814" flag="0"/>
      <vel value="0.1316926811" flag="0"/>
      <psa03 value="0.6286967538" flag="0"/>
      <psa10 value="0.0408091161" flag="0"/>
      <psa30 value="0.0037614764" flag="0"/>
    </comp>
    <comp name="00.HNN">
      <acc value="0.3324738685" flag="0"/>
      <vel value="0.1267202596" flag="0"/>
      <psa03 value="0.5527481054" flag="0"/>
      <psa10 value="0.0749098295" flag="0"/>
      <psa30 value="0.0045662109" flag="0"/>
    </comp>
    <comp name="00.HNZ">
      <acc value="0.1851636490" flag="0"/>
      <vel value="0.0689554875" flag="0"/>
      <psa03 value="0.3546148780" flag="0"/>
      <psa10 value="0.0273064290" flag="0"/>
      <psa30 value="0.0019169799" flag="0"/>
    </comp>
  </station>
  <station code="TNSA" name="TNSA" netid="HL" insttype="CMG-5" lat="37.5394" lon="25.1631">
    <comp name="00.HNE">
      <acc value="0.0327478348" flag="0"/>
      <vel value="0.0068809803" flag="0"/>
      <psa03 value="0.0387496669" flag="0"/>
      <psa10 value="0.0031104183" flag="0"/>
      <psa30 value="0.0002047945" flag="0"/>
    </comp>
    <comp name="00.HNN">
      <acc value="0.0253287055" flag="0"/>
      <vel value="0.0074438500" flag="0"/>
      <psa03 value="0.0416246485" flag="0"/>
      <psa10 value="0.0028494412" flag="0"/>
      <psa30 value="0.0002745287" flag="0"/>
    </comp>
    <comp name="00.HNZ">
      <acc value="0.0413280649" flag="0"/>
      <vel value="0.0096472737" flag="0"/>
      <psa03 value="0.0478141869" flag="0"/>
      <psa10 value="0.0031937624" flag="0"/>
      <psa30 value="0.0002804857" flag="0"/>
    </comp>
  </station>
  <station code="CMBO" name="CMBO" netid="HT" insttype="120P," lat="36.4709" lon="25.4056">
    <comp name="--.HHE">
      <acc value="0.2419781107" flag="0"/>
      <vel value="0.0777976419" flag="0"/>
      <psa03 value="0.3674253255" flag="0"/>
      <psa10 value="0.0456155810" flag="0"/>
      <psa30 value="0.0046600887" flag="0"/>
    </comp>
    <comp name="--.HHZ">
      <acc value="0.2582899007" flag="0"/>
      <vel value="0.0733698289" flag="0"/>
      <psa03 value="0.4091518363" flag="0"/>
      <psa10 value="0.0221277523" flag="0"/>
      <psa30 value="0.0025337848" flag="0"/>
    </comp>
    <comp name="--.HHN">
      <acc value="0.2564920085" flag="0"/>
      <vel value="0.1779455387" flag="0"/>
      <psa03 value="0.3895278054" flag="0"/>
      <psa10 value="0.1059182622" flag="0"/>
      <psa30 value="0.0064196163" flag="0"/>
    </comp>
  </station>
</stationlist>
