<?xml version="1.0" encoding="UTF-8" standalone="yes"?>
<!DOCTYPE earthquake SYSTEM "stationlist.dtd">
<stationlist created="" xmlns="ch.ethz.sed.shakemap.usgs.xml">
  <station code="BNN" name="BNN" netid="KO" insttype="CMG-3T" lat="38.8521" lon="35.8472">
    <comp name="--.HHZ">
      <acc value="0.0014725725" flag="0"/>
      <vel value="0.0010372194" flag="0"/>
      <psa03 value="0.0042390227" flag="0"/>
      <psa10 value="0.0017295788" flag="0"/>
      <psa30 value="0.0003679128" flag="0"/>
    </comp>
    <comp name="--.HHE">
      <acc value="0.0029946221" flag="0"/>
      <vel value="0.0016105986" flag="0"/>
      <psa03 value="0.0078793250" flag="0"/>
      <psa10 value="0.0027789952" flag="0"/>
      <psa30 value="0.0002106790" flag="0"/>
    </comp>
    <comp name="--.HHN">
      <acc value="0.0025081835" flag="0"/>
      <vel value="0.0017423226" flag="0"/>
      <psa03 value="0.0068788151" flag="0"/>
      <psa10 value="0.0027461862" flag="0"/>
      <psa30 value="0.0002807506" flag="0"/>
    </comp>
  </station>
  <station code="CEYT" name="CEYT" netid="KO" insttype="CMG-3ESP" lat="37.0105" lon="35.7478">
    <comp name="--.HHN">
      <acc value="0.0028082348" flag="0"/>
      <vel value="0.0022213716" flag="0"/>
      <psa03 value="0.0079736505" flag="0"/>
      <psa10 value="0.0023845428" flag="0"/>
      <psa30 value="0.0003852339" flag="0"/>
    </comp>
    <comp name="--.HHE">
      <acc value="0.0033654584" flag="0"/>
      <vel value="0.0028911107" flag="0"/>
      <psa03 value="0.0117595733" flag="0"/>
      <psa10 value="0.0036946631" flag="0"/>
      <psa30 value="0.0004696486" flag="0"/>
    </comp>
    <comp name="--.HHZ">
      <acc value="0.0020246150" flag="0"/>
      <vel value="0.0019527475" flag="0"/>
      <psa03 value="0.0051095973" flag="0"/>
      <psa10 value="0.0035743274" flag="0"/>
      <psa30 value="0.0004119522" flag="0"/>
    </comp>
  </station>
  <station code="CMRD" name="CMRD" netid="KO" insttype="CMG-5T" lat="37.6623" lon="34.9902">
    <comp name="--.HNZ">
      <acc value="0.0047824376" flag="0"/>
      <vel value="0.0016085024" flag="0"/>
      <psa03 value="0.0090676073" flag="0"/>
      <psa10 value="0.0024830769" flag="0"/>
      <psa30 value="0.0002357334" flag="0"/>
    </comp>
    <comp name="--.HNE">
      <acc value="0.0069569684" flag="0"/>
      <vel value="0.0021521523" flag="0"/>
      <psa03 value="0.0107921989" flag="0"/>
      <psa10 value="0.0017496504" flag="0"/>
      <psa30 value="0.0001886915" flag="0"/>
    </comp>
    <comp name="--.HNN">
      <acc value="0.0084700850" flag="0"/>
      <vel value="0.0029156840" flag="0"/>
      <psa03 value="0.0122113058" flag="0"/>
      <psa10 value="0.0023920317" flag="0"/>
      <psa30 value="0.0003386191" flag="0"/>
    </comp>
  </station>
  <station code="GAZ" name="GAZ" netid="KO" insttype="CMG-3T" lat="37.1721" lon="37.2096">
    <comp name="--.HHE">
      <acc value="0.0066141281" flag="0"/>
      <vel value="0.0034814803" flag="0"/>
      <psa03 value="0.0105709311" flag="0"/>
      <psa10 value="0.0032738973" flag="0"/>
      <psa30 value="0.0006024172" flag="0"/>
    </comp>
    <comp name="--.HHN">
      <acc value="0.0059766533" flag="0"/>
      <vel value="0.0053560258" flag="0"/>
      <psa03 value="0.0126508663" flag="0"/>
      <psa10 value="0.0060037720" flag="0"/>
      <psa30 value="0.0003749474" flag="0"/>
    </comp>
  </station>
  <station code="KMRS" name="KMRS" netid="KO" insttype="CMG-3T" lat="37.5053" lon="36.9">
    <comp name="--.HHE">
      <acc value="0.0066532621" flag="0"/>
      <vel value="0.0026311086" flag="0"/>
      <psa03 value="0.0141035059" flag="0"/>
      <psa10 value="0.0034630039" flag="0"/>
      <psa30 value="0.0004888418" flag="0"/>
    </comp>
    <comp name="--.HHN">
      <acc value="0.0070280039" flag="0"/>
      <vel value="0.0036459641" flag="0"/>
      <psa03 value="0.0179081770" flag="0"/>
      <psa10 value="0.0056375265" flag="0"/>
      <psa30 value="0.0011483054" flag="0"/>
    </comp>
    <comp name="--.HHZ">
      <acc value="0.0044359811" flag="0"/>
      <vel value="0.0019381188" flag="0"/>
      <psa03 value="0.0099220807" flag="0"/>
      <psa10 value="0.0024062299" flag="0"/>
      <psa30 value="0.0009812006" flag="0"/>
    </comp>
  </station>
  <station code="SARI" name="SARI" netid="KO" insttype="CMG-3T" lat="38.4072" lon="36.4181">
    <comp name="--.HHZ">
      <acc value="0.0137515211" flag="0"/>
      <vel value="0.0073549926" flag="0"/>
      <psa03 value="0.0338987914" flag="0"/>
      <psa10 value="0.0059429036" flag="0"/>
      <psa30 value="0.0005577574" flag="0"/>
    </comp>
  </station>
  <station code="ANDN" name="ANDN" netid="TU" insttype="T" lat="37.58" lon="36.3452">
    <comp name="--.HHN">
      <acc value="0.2428891186" flag="0"/>
      <vel value="0.0686430667" flag="0"/>
      <psa03 value="0.4113814578" flag="0"/>
      <psa10 value="0.0429574729" flag="0"/>
      <psa30 value="0.0075583504" flag="0"/>
    </comp>
    <comp name="--.HHZ">
      <acc value="0.0792262424" flag="0"/>
      <vel value="0.0446127751" flag="0"/>
      <psa03 value="0.1955351495" flag="0"/>
      <psa10 value="0.0660371473" flag="0"/>
      <psa30 value="0.0041453807" flag="0"/>
    </comp>
    <comp name="--.HHE">
      <acc value="0.1154588280" flag="0"/>
      <vel value="0.0631304550" flag="0"/>
      <psa03 value="0.2457061602" flag="0"/>
      <psa10 value="0.0670521491" flag="0"/>
      <psa30 value="0.0036315199" flag="0"/>
    </comp>
  </station>
</stationlist>
