<?xml version="1.0" encoding="UTF-8" standalone="yes"?>
<!DOCTYPE earthquake SYSTEM "stationlist.dtd">
<stationlist created="" xmlns="ch.ethz.sed.shakemap.usgs.xml">
  <station code="BNN" name="BNN" netid="KO" insttype="CMG-3T" lat="38.8521" lon="35.8472">
    <comp name="--.HHE">
      <acc value="0.0029946221" flag="0"/>
      <vel value="0.0016105984" flag="0"/>
      <psa03 value="0.0078793250" flag="0"/>
      <psa10 value="0.0027789952" flag="0"/>
      <psa30 value="0.0002106811" flag="0"/>
    </comp>
    <comp name="--.HHZ">
      <acc value="0.0014725726" flag="0"/>
      <vel value="0.0010372194" flag="0"/>
      <psa03 value="0.0042390227" flag="0"/>
      <psa10 value="0.0017295788" flag="0"/>
      <psa30 value="0.0003679147" flag="0"/>
    </comp>
    <comp name="--.HHN">
      <acc value="0.0025081835" flag="0"/>
      <vel value="0.0017423222" flag="0"/>
      <psa03 value="0.0068788151" flag="0"/>
      <psa10 value="0.0027461862" flag="0"/>
      <psa30 value="0.0002807471" flag="0"/>
    </comp>
  </station>
  <station code="CEYT" name="CEYT" netid="KO" insttype="CMG-3ESP" lat="37.0105" lon="35.7478">
    <comp name="--.HHE">
      <acc value="0.0033654584" flag="0"/>
      <vel value="0.0028911157" flag="0"/>
      <psa03 value="0.0117595733" flag="0"/>
      <psa10 value="0.0036946631" flag="0"/>
      <psa30 value="0.0004696506" flag="0"/>
    </comp>
    <comp name="--.HHN">
      <acc value="0.0028082347" flag="0"/>
      <vel value="0.0022213740" flag="0"/>
      <psa03 value="0.0079736505" flag="0"/>
      <psa10 value="0.0023845428" flag="0"/>
      <psa30 value="0.0003852280" flag="0"/>
    </comp>
    <comp name="--.HHZ">
      <acc value="0.0020246149" flag="0"/>
      <vel value="0.0019527504" flag="0"/>
      <psa03 value="0.0051095973" flag="0"/>
      <psa10 value="0.0035743274" flag="0"/>
      <psa30 value="0.0004119647" flag="0"/>
    </comp>
  </station>
  <station code="CMRD" name="CMRD" netid="KO" insttype="CMG-5T" lat="37.6623" lon="34.9902">
    <comp name="--.HNZ">
      <acc value="0.0047824378" flag="0"/>
      <vel value="0.0016085006" flag="0"/>
      <psa03 value="0.0090676073" flag="0"/>
      <psa10 value="0.0024830770" flag="0"/>
      <psa30 value="0.0002357641" flag="0"/>
    </comp>
    <comp name="--.HNE">
      <acc value="0.0069569688" flag="0"/>
      <vel value="0.0021521471" flag="0"/>
      <psa03 value="0.0107921989" flag="0"/>
      <psa10 value="0.0017496500" flag="0"/>
      <psa30 value="0.0001885096" flag="0"/>
    </comp>
    <comp name="--.HNN">
      <acc value="0.0084700820" flag="0"/>
      <vel value="0.0029156833" flag="0"/>
      <psa03 value="0.0122113058" flag="0"/>
      <psa10 value="0.0023920317" flag="0"/>
      <psa30 value="0.0003386591" flag="0"/>
    </comp>
  </station>
  <station code="GAZ" name="GAZ" netid="KO" insttype="CMG-3T" lat="37.1721" lon="37.2096">
    <comp name="--.HHE">
      <acc value="0.0066141277" flag="0"/>
      <vel value="0.0034814818" flag="0"/>
      <psa03 value="0.0105709311" flag="0"/>
      <psa10 value="0.0032738973" flag="0"/>
      <psa30 value="0.0006024081" flag="0"/>
    </comp>
    <comp name="--.HHN">
      <acc value="0.0059766525" flag="0"/>
      <vel value="0.0053560263" flag="0"/>
      <psa03 value="0.0126508663" flag="0"/>
      <psa10 value="0.0060037721" flag="0"/>
      <psa30 value="0.0003749149" flag="0"/>
    </comp>
  </station>
  <station code="KMRS" name="KMRS" netid="KO" insttype="CMG-3T" lat="37.5053" lon="36.9">
    <comp name="--.HHE">
      <acc value="0.0066532620" flag="0"/>
      <vel value="0.0026311083" flag="0"/>
      <psa03 value="0.0141035059" flag="0"/>
      <psa10 value="0.0034630040" flag="0"/>
      <psa30 value="0.0004888362" flag="0"/>
    </comp>
    <comp name="--.HHN">
      <acc value="0.0070280040" flag="0"/>
      <vel value="0.0036459637" flag="0"/>
      <psa03 value="0.0179081770" flag="0"/>
      <psa10 value="0.0056375267" flag="0"/>
      <psa30 value="0.0011483025" flag="0"/>
    </comp>
    <comp name="--.HHZ">
      <acc value="0.0044359810" flag="0"/>
      <vel value="0.0019381191" flag="0"/>
      <psa03 value="0.0099220807" flag="0"/>
      <psa10 value="0.0024062299" flag="0"/>
      <psa30 value="0.0009811757" flag="0"/>
    </comp>
  </station>
  <station code="SARI" name="SARI" netid="KO" insttype="CMG-3T" lat="38.4072" lon="36.4181">
    <comp name="--.HHZ">
      <acc value="0.0137515211" flag="0"/>
      <vel value="0.0073549925" flag="0"/>
      <psa03 value="0.0338987914" flag="0"/>
      <psa10 value="0.0059429036" flag="0"/>
      <psa30 value="0.0005577702" flag="0"/>
    </comp>
  </station>
  <station code="ANDN" name="ANDN" netid="TU" insttype="T" lat="37.58" lon="36.3452">
    <comp name="--.HHZ">
      <acc value="0.0792262417" flag="0"/>
      <vel value="0.0446127748" flag="0"/>
      <psa03 value="0.1955351495" flag="0"/>
      <psa10 value="0.0660371536" flag="0"/>
      <psa30 value="0.0041455322" flag="0"/>
    </comp>
    <comp name="--.HHE">
      <acc value="0.1154588281" flag="0"/>
      <vel value="0.0631304541" flag="0"/>
      <psa03 value="0.2457061602" flag="0"/>
      <psa10 value="0.0670521510" flag="0"/>
      <psa30 value="0.0036311081" flag="0"/>
    </comp>
    <comp name="--.HHN">
      <acc value="0.2428891189" flag="0"/>
      <vel value="0.0686430666" flag="0"/>
      <psa03 value="0.4113814578" flag="0"/>
      <psa10 value="0.0429574705" flag="0"/>
      <psa30 value="0.0075583799" flag="0"/>
    </comp>
  </station>
</stationlist>
