<?xml version="1.0" encoding="UTF-8" standalone="yes"?>
<!DOCTYPE earthquake SYSTEM "stationlist.dtd">
<stationlist created="" xmlns="ch.ethz.sed.shakemap.usgs.xml">
  <station code="CEYT" name="CEYT" netid="KO" insttype="CMG-3ESP" lat="37.0105" lon="35.7478">
    <comp name="--.HHE">
      <acc value="0.0202531699" flag="0"/>
      <vel value="0.0072937710" flag="0"/>
      <psa03 value="0.0425031801" flag="0"/>
      <psa10 value="0.0041214962" flag="0"/>
      <psa30 value="0.0003946583" flag="0"/>
    </comp>
    <comp name="--.HHN">
      <acc value="0.0126385748" flag="0"/>
      <vel value="0.0046723478" flag="0"/>
      <psa03 value="0.0274703013" flag="0"/>
      <psa10 value="0.0034002167" flag="0"/>
      <psa30 value="0.0002965736" flag="0"/>
    </comp>
    <comp name="--.HHZ">
      <acc value="0.0081789357" flag="0"/>
      <vel value="0.0040863213" flag="0"/>
      <psa03 value="0.0193981673" flag="0"/>
      <psa10 value="0.0027985436" flag="0"/>
      <psa30 value="0.0002712427" flag="0"/>
    </comp>
  </station>
</stationlist>
