<?xml version="1.0" encoding="UTF-8" standalone="yes"?>
<!DOCTYPE earthquake SYSTEM "stationlist.dtd">
<stationlist created="" xmlns="ch.ethz.sed.shakemap.usgs.xml">
  <station code="AFSR" name="AFSR" netid="KO" insttype="CMG-3ESP" lat="39.4468" lon="33.0707">
    <comp name="--.HHN">
      <acc value="0.0193838565" flag="0"/>
      <vel value="0.0123333257" flag="0"/>
      <psa03 value="0.0599704379" flag="0"/>
      <psa10 value="0.0168037388" flag="0"/>
      <psa30 value="0.0009283759" flag="0"/>
    </comp>
    <comp name="--.HHE">
      <acc value="0.0200955888" flag="0"/>
      <vel value="0.0110308960" flag="0"/>
      <psa03 value="0.0386026877" flag="0"/>
      <psa10 value="0.0106847902" flag="0"/>
      <psa30 value="0.0009273100" flag="0"/>
    </comp>
    <comp name="--.HHZ">
      <acc value="0.0131807839" flag="0"/>
      <vel value="0.0076128086" flag="0"/>
      <psa03 value="0.0278995041" flag="0"/>
      <psa10 value="0.0092883134" flag="0"/>
      <psa30 value="0.0008308916" flag="0"/>
    </comp>
  </station>
  <station code="KAMT" name="KAMT" netid="KO" insttype="CMG-3T" lat="39.3692" lon="33.7124">
    <comp name="--.HHE">
      <acc value="0.0032920675" flag="0"/>
      <vel value="0.0011682685" flag="0"/>
      <psa03 value="0.0093451499" flag="0"/>
      <psa10 value="0.0008048227" flag="0"/>
      <psa30 value="0.0001127173" flag="0"/>
    </comp>
  </station>
  <station code="KIZT" name="KIZT" netid="KO" insttype="CMG-3T" lat="38.8808" lon="31.883">
    <comp name="--.HHN">
      <acc value="0.0032941247" flag="0"/>
      <vel value="0.0025821216" flag="0"/>
      <psa03 value="0.0063717391" flag="0"/>
      <psa10 value="0.0035613591" flag="0"/>
      <psa30 value="0.0001966302" flag="0"/>
    </comp>
    <comp name="--.HHZ">
      <acc value="0.0020993525" flag="0"/>
      <vel value="0.0018932556" flag="0"/>
      <psa03 value="0.0026775089" flag="0"/>
      <psa10 value="0.0028192327" flag="0"/>
      <psa30 value="0.0002104632" flag="0"/>
    </comp>
    <comp name="--.HHE">
      <acc value="0.0018908065" flag="0"/>
      <vel value="0.0019339808" flag="0"/>
      <psa03 value="0.0035445925" flag="0"/>
      <psa10 value="0.0028123749" flag="0"/>
      <psa30 value="0.0002162459" flag="0"/>
    </comp>
  </station>
  <station code="KULU" name="KULU" netid="KO" insttype="CMG-6T" lat="39.0343" lon="33.0023">
    <comp name="--.HHZ">
      <acc value="0.0022772515" flag="0"/>
      <vel value="0.0009314774" flag="0"/>
      <psa03 value="0.0022884217" flag="0"/>
      <psa10 value="0.0010897659" flag="0"/>
      <psa30 value="0.0001382509" flag="0"/>
    </comp>
    <comp name="--.HHE">
      <acc value="0.0023594847" flag="0"/>
      <vel value="0.0015779984" flag="0"/>
      <psa03 value="0.0025656677" flag="0"/>
      <psa10 value="0.0024900880" flag="0"/>
      <psa30 value="0.0001633079" flag="0"/>
    </comp>
    <comp name="--.HHN">
      <acc value="0.0028386540" flag="0"/>
      <vel value="0.0016087021" flag="0"/>
      <psa03 value="0.0037502879" flag="0"/>
      <psa10 value="0.0025993406" flag="0"/>
      <psa30 value="0.0002777599" flag="0"/>
    </comp>
  </station>
  <station code="LOD" name="LOD" netid="KO" insttype="CMG-3T" lat="39.8884" lon="32.7634">
    <comp name="--.HHE">
      <acc value="0.0541075681" flag="0"/>
      <vel value="0.0156233132" flag="0"/>
      <psa03 value="0.0756640815" flag="0"/>
      <psa10 value="0.0078601858" flag="0"/>
      <psa30 value="0.0009090904" flag="0"/>
    </comp>
    <comp name="--.HHN">
      <acc value="0.0223744912" flag="0"/>
      <vel value="0.0059641922" flag="0"/>
      <psa03 value="0.0315173830" flag="0"/>
      <psa10 value="0.0045323065" flag="0"/>
      <psa30 value="0.0001926166" flag="0"/>
    </comp>
    <comp name="--.HHZ">
      <acc value="0.0082537310" flag="0"/>
      <vel value="0.0021175739" flag="0"/>
      <psa03 value="0.0140548691" flag="0"/>
      <psa10 value="0.0018535772" flag="0"/>
      <psa30 value="0.0001718005" flag="0"/>
    </comp>
  </station>
  <station code="POLA" name="POLA" netid="KO" insttype="CMG-6T" lat="39.7005" lon="32.1677">
    <comp name="--.HHZ">
      <acc value="0.0107131803" flag="0"/>
      <vel value="0.0051424424" flag="0"/>
      <psa03 value="0.0284446040" flag="0"/>
      <psa10 value="0.0046019773" flag="0"/>
      <psa30 value="0.0001532365" flag="0"/>
    </comp>
    <comp name="--.HHN">
      <acc value="0.0155826984" flag="0"/>
      <vel value="0.0083206644" flag="0"/>
      <psa03 value="0.0524331090" flag="0"/>
      <psa10 value="0.0084832170" flag="0"/>
      <psa30 value="0.0004032069" flag="0"/>
    </comp>
    <comp name="--.HHE">
      <acc value="0.0181607163" flag="0"/>
      <vel value="0.0087785888" flag="0"/>
      <psa03 value="0.0626758103" flag="0"/>
      <psa10 value="0.0056512237" flag="0"/>
      <psa30 value="0.0002818811" flag="0"/>
    </comp>
  </station>
  <station code="SVRH" name="SVRH" netid="KO" insttype="CMG-3T" lat="39.447" lon="31.523">
    <comp name="--.HHE">
      <acc value="0.0051763580" flag="0"/>
      <vel value="0.0037689756" flag="0"/>
      <psa03 value="0.0116118026" flag="0"/>
      <psa10 value="0.0050733206" flag="0"/>
      <psa30 value="0.0002158556" flag="0"/>
    </comp>
    <comp name="--.HHZ">
      <acc value="0.0035075996" flag="0"/>
      <vel value="0.0019194881" flag="0"/>
      <psa03 value="0.0088782389" flag="0"/>
      <psa10 value="0.0015168542" flag="0"/>
      <psa30 value="0.0001676430" flag="0"/>
    </comp>
    <comp name="--.HHN">
      <acc value="0.0043959610" flag="0"/>
      <vel value="0.0020588251" flag="0"/>
      <psa03 value="0.0089934573" flag="0"/>
      <psa10 value="0.0013077932" flag="0"/>
      <psa30 value="0.0002140721" flag="0"/>
    </comp>
  </station>
</stationlist>
