<?xml version="1.0" encoding="UTF-8" standalone="yes"?>
<!DOCTYPE earthquake SYSTEM "stationlist.dtd">
<stationlist created="" xmlns="ch.ethz.sed.shakemap.usgs.xml">
  <station code="GAZ" name="GAZ" netid="KO" insttype="CMG-3T" lat="37.1721" lon="37.2096">
    <comp name="--.HHE">
      <acc value="0.0013389055" flag="0"/>
      <vel value="0.0000485141" flag="0"/>
      <psa03 value="0.0001276107" flag="0"/>
      <psa10 value="0.0000072962" flag="0"/>
      <psa30 value="0.0000052223" flag="0"/>
    </comp>
    <comp name="--.HHZ">
      <acc value="0.0092202707" flag="0"/>
      <vel value="0.0024050102" flag="0"/>
      <psa03 value="0.0117568640" flag="0"/>
      <psa10 value="0.0010865271" flag="0"/>
      <psa30 value="0.0000841220" flag="0"/>
    </comp>
    <comp name="--.HHN">
      <acc value="0.0093162716" flag="0"/>
      <vel value="0.0027641505" flag="0"/>
      <psa03 value="0.0186701948" flag="0"/>
      <psa10 value="0.0010611337" flag="0"/>
      <psa30 value="0.0001145536" flag="0"/>
    </comp>
  </station>
  <station code="ANDN" name="ANDN" netid="TU" insttype="T" lat="37.58" lon="36.3452">
    <comp name="--.HHE">
      <acc value="0.0377090140" flag="0"/>
      <vel value="0.0081719446" flag="0"/>
      <psa03 value="0.0404197471" flag="0"/>
      <psa10 value="0.0029901735" flag="0"/>
      <psa30 value="0.0001960302" flag="0"/>
    </comp>
    <comp name="--.HHZ">
      <acc value="0.0169556196" flag="0"/>
      <vel value="0.0044623671" flag="0"/>
      <psa03 value="0.0151162774" flag="0"/>
      <psa10 value="0.0025655416" flag="0"/>
      <psa30 value="0.0001874135" flag="0"/>
    </comp>
    <comp name="--.HHN">
      <acc value="0.0629223639" flag="0"/>
      <vel value="0.0114438691" flag="0"/>
      <psa03 value="0.0501699117" flag="0"/>
      <psa10 value="0.0029517916" flag="0"/>
      <psa30 value="0.0002171723" flag="0"/>
    </comp>
  </station>
</stationlist>
