<?xml version="1.0" encoding="UTF-8" standalone="yes"?>
<!DOCTYPE earthquake SYSTEM "stationlist.dtd">
<stationlist created="" xmlns="ch.ethz.sed.shakemap.usgs.xml">
  <station code="ACOR" name="ACOR" netid="HA" insttype="Horizon,120s,1200" lat="37.8905" lon="22.8694">
    <comp name="--.HHE">
      <acc value="0.0056924237" flag="0"/>
      <vel value="0.0056001054" flag="0"/>
      <psa03 value="0.0137882362" flag="0"/>
      <psa10 value="0.0162206515" flag="0"/>
      <psa30 value="0.0011724057" flag="0"/>
    </comp>
    <comp name="--.HHZ">
      <acc value="0.0044633063" flag="0"/>
      <vel value="0.0054352576" flag="0"/>
      <psa03 value="0.0080272964" flag="0"/>
      <psa10 value="0.0074369371" flag="0"/>
      <psa30 value="0.0011067772" flag="0"/>
    </comp>
    <comp name="--.HHN">
      <acc value="0.0050796511" flag="0"/>
      <vel value="0.0056791648" flag="0"/>
      <psa03 value="0.0095955889" flag="0"/>
      <psa10 value="0.0129165113" flag="0"/>
      <psa30 value="0.0014744461" flag="0"/>
    </comp>
  </station>
  <station code="AIGS" name="AIGS" netid="HA" insttype="DC" lat="38.25" lon="22.0878">
    <comp name="--.HNZ">
      <acc value="0.0138261845" flag="0"/>
      <vel value="0.0051598740" flag="0"/>
      <psa03 value="0.0187496155" flag="0"/>
      <psa10 value="0.0098891934" flag="0"/>
      <psa30 value="0.0011947367" flag="0"/>
    </comp>
    <comp name="--.HNE">
      <acc value="0.0277111770" flag="0"/>
      <vel value="0.0167107000" flag="0"/>
      <psa03 value="0.0687470699" flag="0"/>
      <psa10 value="0.0130804622" flag="0"/>
      <psa30 value="0.0013828300" flag="0"/>
    </comp>
    <comp name="--.HNN">
      <acc value="0.0156544762" flag="0"/>
      <vel value="0.0079705701" flag="0"/>
      <psa03 value="0.0469261427" flag="0"/>
      <psa10 value="0.0147277585" flag="0"/>
      <psa30 value="0.0015787267" flag="0"/>
    </comp>
  </station>
  <station code="AMPE" name="AMPE" netid="HA" insttype="1s-100Hz," lat="38.3015" lon="23.2688">
    <comp name="--.HHZ">
      <acc value="0.0365069747" flag="0"/>
      <vel value="0.0129071654" flag="0"/>
      <psa03 value="0.0462941957" flag="0"/>
      <psa10 value="0.0165283731" flag="0"/>
      <psa30 value="0.0012888473" flag="0"/>
    </comp>
    <comp name="--.HHN">
      <acc value="0.0452784609" flag="0"/>
      <vel value="0.0332037514" flag="0"/>
      <psa03 value="0.1180547099" flag="0"/>
      <psa10 value="0.0488174224" flag="0"/>
      <psa30 value="0.0027623778" flag="0"/>
    </comp>
    <comp name="--.HHE">
      <acc value="0.0523311176" flag="0"/>
      <vel value="0.0382524863" flag="0"/>
      <psa03 value="0.1513700737" flag="0"/>
      <psa10 value="0.0390148947" flag="0"/>
      <psa30 value="0.0037338700" flag="0"/>
    </comp>
  </station>
  <station code="ATAL" name="ATAL" netid="HA" insttype="120" lat="38.6926" lon="23.0213">
    <comp name="--.HHN">
      <acc value="1.1881994791" flag="0"/>
      <vel value="0.3296871972" flag="0"/>
      <psa03 value="0.6360678062" flag="0"/>
      <psa10 value="0.1720541913" flag="0"/>
      <psa30 value="0.0135177739" flag="0"/>
    </comp>
    <comp name="--.HHZ">
      <acc value="0.4998630647" flag="0"/>
      <vel value="0.2040146809" flag="0"/>
      <psa03 value="0.8436605014" flag="0"/>
      <psa10 value="0.1174118028" flag="0"/>
      <psa30 value="0.0085574331" flag="0"/>
    </comp>
    <comp name="--.HHE">
      <acc value="0.8635528722" flag="0"/>
      <vel value="0.3604923280" flag="0"/>
      <psa03 value="0.7837302722" flag="0"/>
      <psa10 value="0.1540813428" flag="0"/>
      <psa30 value="0.0126185198" flag="0"/>
    </comp>
  </station>
  <station code="ATHU" name="ATHU" netid="HA" insttype="60" lat="37.9665" lon="23.7845">
    <comp name="--.HHN">
      <acc value="0.0082869658" flag="0"/>
      <vel value="0.0049627836" flag="0"/>
      <psa03 value="0.0179545984" flag="0"/>
      <psa10 value="0.0066890831" flag="0"/>
      <psa30 value="0.0006428072" flag="0"/>
    </comp>
    <comp name="--.HHZ">
      <acc value="0.0066249511" flag="0"/>
      <vel value="0.0049495114" flag="0"/>
      <psa03 value="0.0101594305" flag="0"/>
      <psa10 value="0.0071222677" flag="0"/>
      <psa30 value="0.0008106066" flag="0"/>
    </comp>
    <comp name="--.HHE">
      <acc value="0.0077405765" flag="0"/>
      <vel value="0.0061416627" flag="0"/>
      <psa03 value="0.0163810946" flag="0"/>
      <psa10 value="0.0107020902" flag="0"/>
      <psa30 value="0.0004178026" flag="0"/>
    </comp>
  </station>
  <station code="AXAR" name="AXAR" netid="HA" insttype="Horizon,120s,1200" lat="38.7664" lon="22.659">
    <comp name="--.HHZ">
      <acc value="0.3184414296" flag="0"/>
      <vel value="0.0744641794" flag="0"/>
      <psa03 value="0.3555489130" flag="0"/>
      <psa10 value="0.0477127933" flag="0"/>
      <psa30 value="0.0058875021" flag="0"/>
    </comp>
    <comp name="--.HHN">
      <acc value="0.4605911442" flag="0"/>
      <vel value="0.1257265925" flag="0"/>
      <psa03 value="0.8463157709" flag="0"/>
      <psa10 value="0.0629581558" flag="0"/>
      <psa30 value="0.0075753268" flag="0"/>
    </comp>
    <comp name="--.HHE">
      <acc value="0.3910285245" flag="0"/>
      <vel value="0.1225637567" flag="0"/>
      <psa03 value="0.3191750089" flag="0"/>
      <psa10 value="0.1159850265" flag="0"/>
      <psa30 value="0.0096160932" flag="0"/>
    </comp>
  </station>
  <station code="DOMV" name="DOMV" netid="HA" insttype="60" lat="38.2569" lon="22.9795">
    <comp name="--.HHE">
      <acc value="0.0736016342" flag="0"/>
      <vel value="0.0166926078" flag="0"/>
      <psa03 value="0.0882628776" flag="0"/>
      <psa10 value="0.0073536444" flag="0"/>
      <psa30 value="0.0007809988" flag="0"/>
    </comp>
    <comp name="--.HHZ">
      <acc value="0.0499408102" flag="0"/>
      <vel value="0.0163329666" flag="0"/>
      <psa03 value="0.0664127744" flag="0"/>
      <psa10 value="0.0066263550" flag="0"/>
      <psa30 value="0.0004137574" flag="0"/>
    </comp>
    <comp name="--.HHN">
      <acc value="0.0641629100" flag="0"/>
      <vel value="0.0163026534" flag="0"/>
      <psa03 value="0.0771966583" flag="0"/>
      <psa10 value="0.0064190825" flag="0"/>
      <psa30 value="0.0005859549" flag="0"/>
    </comp>
  </station>
  <station code="EPID" name="EPID" netid="HA" insttype="30" lat="37.6144" lon="23.1189">
    <comp name="--.HHZ">
      <acc value="0.0068382024" flag="0"/>
      <vel value="0.0063140451" flag="0"/>
      <psa03 value="0.0085026934" flag="0"/>
      <psa10 value="0.0138672327" flag="0"/>
      <psa30 value="0.0012840779" flag="0"/>
    </comp>
    <comp name="--.HHE">
      <acc value="0.0096324170" flag="0"/>
      <vel value="0.0057138759" flag="0"/>
      <psa03 value="0.0236271182" flag="0"/>
      <psa10 value="0.0131545852" flag="0"/>
      <psa30 value="0.0005792576" flag="0"/>
    </comp>
    <comp name="--.HHN">
      <acc value="0.0104981901" flag="0"/>
      <vel value="0.0056151697" flag="0"/>
      <psa03 value="0.0246883735" flag="0"/>
      <psa10 value="0.0088829101" flag="0"/>
      <psa30 value="0.0008534078" flag="0"/>
    </comp>
  </station>
  <station code="ERTR" name="ERTR" netid="HA" insttype="Horizon,120s,1200" lat="38.4066" lon="23.7865">
    <comp name="--.HHN">
      <acc value="0.0203143529" flag="0"/>
      <vel value="0.0154771286" flag="0"/>
      <psa03 value="0.0428987943" flag="0"/>
      <psa10 value="0.0140782494" flag="0"/>
      <psa30 value="0.0010938783" flag="0"/>
    </comp>
    <comp name="--.HHE">
      <acc value="0.0250668429" flag="0"/>
      <vel value="0.0118325783" flag="0"/>
      <psa03 value="0.0425266041" flag="0"/>
      <psa10 value="0.0134034914" flag="0"/>
      <psa30 value="0.0005721989" flag="0"/>
    </comp>
    <comp name="--.HHZ">
      <acc value="0.0257150879" flag="0"/>
      <vel value="0.0074339807" flag="0"/>
      <psa03 value="0.0296679820" flag="0"/>
      <psa10 value="0.0070473865" flag="0"/>
      <psa30 value="0.0005668711" flag="0"/>
    </comp>
  </station>
  <station code="KALE" name="KALE" netid="HA" insttype="40," lat="38.3911" lon="22.1398">
    <comp name="--.HHN">
      <acc value="0.0538493323" flag="0"/>
      <vel value="0.0307638005" flag="0"/>
      <psa03 value="0.1074528027" flag="0"/>
      <psa10 value="0.0290236444" flag="0"/>
      <psa30 value="0.0016233916" flag="0"/>
    </comp>
    <comp name="--.HHE">
      <acc value="0.0292220001" flag="0"/>
      <vel value="0.0205776781" flag="0"/>
      <psa03 value="0.0851211802" flag="0"/>
      <psa10 value="0.0147766148" flag="0"/>
      <psa30 value="0.0017652096" flag="0"/>
    </comp>
    <comp name="--.HHZ">
      <acc value="0.0236312883" flag="0"/>
      <vel value="0.0134219882" flag="0"/>
      <psa03 value="0.0346646496" flag="0"/>
      <psa10 value="0.0191089269" flag="0"/>
      <psa30 value="0.0013914037" flag="0"/>
    </comp>
  </station>
  <station code="KIAS" name="KIAS" netid="HA" insttype="DC" lat="37.9875" lon="22.7543">
    <comp name="--.HNE">
      <acc value="0.0405078692" flag="0"/>
      <vel value="0.0254913569" flag="0"/>
      <psa03 value="0.0928688312" flag="0"/>
      <psa10 value="0.0465026083" flag="0"/>
      <psa30 value="0.0048431560" flag="0"/>
    </comp>
    <comp name="--.HNN">
      <acc value="0.0416632808" flag="0"/>
      <vel value="0.0235529685" flag="0"/>
      <psa03 value="0.0978749546" flag="0"/>
      <psa10 value="0.0361840796" flag="0"/>
      <psa30 value="0.0039770015" flag="0"/>
    </comp>
    <comp name="--.HNZ">
      <acc value="0.0316119587" flag="0"/>
      <vel value="0.0146282129" flag="0"/>
      <psa03 value="0.0324867620" flag="0"/>
      <psa10 value="0.0177859675" flag="0"/>
      <psa30 value="0.0023524427" flag="0"/>
    </comp>
  </station>
  <station code="LOUT" name="LOUT" netid="HA" insttype="30" lat="37.9879" lon="22.9743">
    <comp name="--.HHN">
      <acc value="0.0485739462" flag="0"/>
      <vel value="0.0259569315" flag="0"/>
      <psa03 value="0.1167612607" flag="0"/>
      <psa10 value="0.0209024954" flag="0"/>
      <psa30 value="0.0012925800" flag="0"/>
    </comp>
    <comp name="--.HHE">
      <acc value="0.0467699460" flag="0"/>
      <vel value="0.0185172657" flag="0"/>
      <psa03 value="0.0782951729" flag="0"/>
      <psa10 value="0.0156851356" flag="0"/>
      <psa30 value="0.0010413463" flag="0"/>
    </comp>
    <comp name="--.HHZ">
      <acc value="0.0277112981" flag="0"/>
      <vel value="0.0123909334" flag="0"/>
      <psa03 value="0.0659542896" flag="0"/>
      <psa10 value="0.0217045482" flag="0"/>
      <psa30 value="0.0010210067" flag="0"/>
    </comp>
  </station>
  <station code="MDRA" name="MDRA" netid="HA" insttype="60" lat="38.0606" lon="23.4662">
    <comp name="--.HHE">
      <acc value="0.0095670969" flag="0"/>
      <vel value="0.0060980887" flag="0"/>
      <psa03 value="0.0198053565" flag="0"/>
      <psa10 value="0.0124573304" flag="0"/>
      <psa30 value="0.0005076443" flag="0"/>
    </comp>
    <comp name="--.HHN">
      <acc value="0.0121117015" flag="0"/>
      <vel value="0.0068916272" flag="0"/>
      <psa03 value="0.0278300972" flag="0"/>
      <psa10 value="0.0119149640" flag="0"/>
      <psa30 value="0.0006185181" flag="0"/>
    </comp>
    <comp name="--.HHZ">
      <acc value="0.0122447014" flag="0"/>
      <vel value="0.0071243469" flag="0"/>
      <psa03 value="0.0294512515" flag="0"/>
      <psa10 value="0.0104223533" flag="0"/>
      <psa30 value="0.0007952618" flag="0"/>
    </comp>
  </station>
  <station code="MRKA" name="MRKA" netid="HA" insttype="Horizon,120s,1200" lat="38.7047" lon="23.5863">
    <comp name="--.HHE">
      <acc value="0.0737531304" flag="0"/>
      <vel value="0.0163449320" flag="0"/>
      <psa03 value="0.1312337255" flag="0"/>
      <psa10 value="0.0089509947" flag="0"/>
      <psa30 value="0.0008058753" flag="0"/>
    </comp>
    <comp name="--.HHN">
      <acc value="0.0770648117" flag="0"/>
      <vel value="0.0196693975" flag="0"/>
      <psa03 value="0.0892844204" flag="0"/>
      <psa10 value="0.0145961473" flag="0"/>
      <psa30 value="0.0010818074" flag="0"/>
    </comp>
    <comp name="--.HHZ">
      <acc value="0.0380751694" flag="0"/>
      <vel value="0.0143760036" flag="0"/>
      <psa03 value="0.0795295217" flag="0"/>
      <psa10 value="0.0109213582" flag="0"/>
      <psa30 value="0.0007555217" flag="0"/>
    </comp>
  </station>
  <station code="MRTH" name="MRTH" netid="HA" insttype="S100," lat="38.1225" lon="23.9409">
    <comp name="--.HHN">
      <acc value="0.0221622133" flag="0"/>
      <vel value="0.0191939335" flag="0"/>
      <psa03 value="0.0547096855" flag="0"/>
      <psa10 value="0.0266852784" flag="0"/>
      <psa30 value="0.0015795054" flag="0"/>
    </comp>
    <comp name="--.HHZ">
      <acc value="0.0188855831" flag="0"/>
      <vel value="0.0115031431" flag="0"/>
      <psa03 value="0.0443362046" flag="0"/>
      <psa10 value="0.0142403646" flag="0"/>
      <psa30 value="0.0007725266" flag="0"/>
    </comp>
    <comp name="--.HHE">
      <acc value="0.0270977427" flag="0"/>
      <vel value="0.0166444593" flag="0"/>
      <psa03 value="0.0626350401" flag="0"/>
      <psa10 value="0.0174200237" flag="0"/>
      <psa30 value="0.0007679521" flag="0"/>
    </comp>
  </station>
  <station code="STFN" name="STFN" netid="HA" insttype="1s-100Hz," lat="38.1766" lon="23.544">
    <comp name="--.HHE">
      <acc value="0.0280758807" flag="0"/>
      <vel value="0.0136659351" flag="0"/>
      <psa03 value="0.0370318131" flag="0"/>
      <psa10 value="0.0247124182" flag="0"/>
      <psa30 value="0.0013779819" flag="0"/>
    </comp>
    <comp name="--.HHN">
      <acc value="0.0295457384" flag="0"/>
      <vel value="0.0143991840" flag="0"/>
      <psa03 value="0.0776932778" flag="0"/>
      <psa10 value="0.0238218358" flag="0"/>
      <psa30 value="0.0016220982" flag="0"/>
    </comp>
    <comp name="--.HHZ">
      <acc value="0.0191748280" flag="0"/>
      <vel value="0.0093899068" flag="0"/>
      <psa03 value="0.0453585852" flag="0"/>
      <psa10 value="0.0106638809" flag="0"/>
      <psa30 value="0.0020339920" flag="0"/>
    </comp>
  </station>
  <station code="THAL" name="THAL" netid="HA" insttype="30" lat="38.0357" lon="22.6634">
    <comp name="--.HHE">
      <acc value="0.0517390434" flag="0"/>
      <vel value="0.0178741272" flag="0"/>
      <psa03 value="0.0861869586" flag="0"/>
      <psa10 value="0.0218548374" flag="0"/>
      <psa30 value="0.0016787338" flag="0"/>
    </comp>
    <comp name="--.HHZ">
      <acc value="0.0210490809" flag="0"/>
      <vel value="0.0101055419" flag="0"/>
      <psa03 value="0.0428248948" flag="0"/>
      <psa10 value="0.0147339620" flag="0"/>
      <psa30 value="0.0013006768" flag="0"/>
    </comp>
    <comp name="--.HHN">
      <acc value="0.0291743107" flag="0"/>
      <vel value="0.0257708501" flag="0"/>
      <psa03 value="0.0783061974" flag="0"/>
      <psa10 value="0.0300833577" flag="0"/>
      <psa30 value="0.0020922038" flag="0"/>
    </comp>
  </station>
  <station code="THIV" name="THIV" netid="HA" insttype="25" lat="38.299" lon="23.332">
    <comp name="--.HHE">
      <acc value="0.0174098055" flag="0"/>
      <vel value="0.0105241057" flag="0"/>
      <psa03 value="0.0156858051" flag="0"/>
      <psa10 value="0.0104011681" flag="0"/>
      <psa30 value="0.0011154220" flag="0"/>
    </comp>
    <comp name="--.HHZ">
      <acc value="0.0142522861" flag="0"/>
      <vel value="0.0049460254" flag="0"/>
      <psa03 value="0.0232573606" flag="0"/>
      <psa10 value="0.0052072707" flag="0"/>
      <psa30 value="0.0009556996" flag="0"/>
    </comp>
    <comp name="--.HHN">
      <acc value="0.0269680337" flag="0"/>
      <vel value="0.0084792858" flag="0"/>
      <psa03 value="0.0322261110" flag="0"/>
      <psa10 value="0.0107553734" flag="0"/>
      <psa30 value="0.0009367393" flag="0"/>
    </comp>
  </station>
  <station code="VILL" name="VILL" netid="HA" insttype="Horizon,120s,1200" lat="38.1642" lon="23.3122">
    <comp name="--.HHE">
      <acc value="0.0331221675" flag="0"/>
      <vel value="0.0191752154" flag="0"/>
      <psa03 value="0.0882171159" flag="0"/>
      <psa10 value="0.0239276967" flag="0"/>
      <psa30 value="0.0018259892" flag="0"/>
    </comp>
    <comp name="--.HHZ">
      <acc value="0.0176672385" flag="0"/>
      <vel value="0.0104122922" flag="0"/>
      <psa03 value="0.0421433495" flag="0"/>
      <psa10 value="0.0176167049" flag="0"/>
      <psa30 value="0.0018033543" flag="0"/>
    </comp>
    <comp name="--.HHN">
      <acc value="0.0645818713" flag="0"/>
      <vel value="0.0208992756" flag="0"/>
      <psa03 value="0.1342622090" flag="0"/>
      <psa10 value="0.0255535844" flag="0"/>
      <psa30 value="0.0019484089" flag="0"/>
    </comp>
  </station>
  <station code="KLV1" name="KLV1" netid="HI" insttype="CMG-5TD,ACCELEROMETER,GURALP" lat="38.0326" lon="22.108">
    <comp name="--.HNE">
      <acc value="0.0118427474" flag="0"/>
      <vel value="0.0104419080" flag="0"/>
      <psa03 value="0.0296745866" flag="0"/>
      <psa10 value="0.0139947164" flag="0"/>
      <psa30 value="0.0013155381" flag="0"/>
    </comp>
    <comp name="--.HNN">
      <acc value="0.0168059461" flag="0"/>
      <vel value="0.0085426711" flag="0"/>
      <psa03 value="0.0314249158" flag="0"/>
      <psa10 value="0.0079935618" flag="0"/>
      <psa30 value="0.0010480888" flag="0"/>
    </comp>
    <comp name="--.HNZ">
      <acc value="0.0079795106" flag="0"/>
      <vel value="0.0069509315" flag="0"/>
      <psa03 value="0.0131896427" flag="0"/>
      <psa10 value="0.0090298269" flag="0"/>
      <psa30 value="0.0007707703" flag="0"/>
    </comp>
  </station>
  <station code="LAM2" name="LAM2" netid="HI" insttype="CMG-5TD,ACCELEROMETER,GURALP" lat="38.902" lon="22.4313">
    <comp name="--.HNE">
      <acc value="0.1355907236" flag="0"/>
      <vel value="0.0624035367" flag="0"/>
      <psa03 value="0.2185133706" flag="0"/>
      <psa10 value="0.0503070832" flag="0"/>
      <psa30 value="0.0032873425" flag="0"/>
    </comp>
    <comp name="--.HNZ">
      <acc value="0.0889362720" flag="0"/>
      <vel value="0.0256666967" flag="0"/>
      <psa03 value="0.1473885499" flag="0"/>
      <psa10 value="0.0220363391" flag="0"/>
      <psa30 value="0.0017400813" flag="0"/>
    </comp>
    <comp name="--.HNN">
      <acc value="0.1236325514" flag="0"/>
      <vel value="0.0462262204" flag="0"/>
      <psa03 value="0.1104423061" flag="0"/>
      <psa10 value="0.0356578968" flag="0"/>
      <psa30 value="0.0015920476" flag="0"/>
    </comp>
  </station>
  <station code="PLN1" name="PLN1" netid="HI" insttype="CMG-5TD,ACCELEROMETER,GURALP" lat="39.998" lon="23.575">
    <comp name="--.HNE">
      <acc value="0.0046503219" flag="0"/>
      <vel value="0.0045138509" flag="0"/>
      <psa03 value="0.0160268755" flag="0"/>
      <psa10 value="0.0078831364" flag="0"/>
      <psa30 value="0.0013426405" flag="0"/>
    </comp>
    <comp name="--.HNN">
      <acc value="0.0043850317" flag="0"/>
      <vel value="0.0042619401" flag="0"/>
      <psa03 value="0.0110313684" flag="0"/>
      <psa10 value="0.0079055047" flag="0"/>
      <psa30 value="0.0014972929" flag="0"/>
    </comp>
    <comp name="--.HNZ">
      <acc value="0.0034364565" flag="0"/>
      <vel value="0.0029524393" flag="0"/>
      <psa03 value="0.0087476331" flag="0"/>
      <psa10 value="0.0034637163" flag="0"/>
      <psa30 value="0.0006251179" flag="0"/>
    </comp>
  </station>
  <station code="SKY1" name="SKY1" netid="HI" insttype="CMG-5TD,ACCELEROMETER,GURALP" lat="38.9045" lon="24.5646">
    <comp name="--.HNZ">
      <acc value="0.0089558646" flag="0"/>
      <vel value="0.0049251238" flag="0"/>
      <psa03 value="0.0327795217" flag="0"/>
      <psa10 value="0.0027143345" flag="0"/>
      <psa30 value="0.0005012256" flag="0"/>
    </comp>
    <comp name="--.HNN">
