<?xml version="1.0" encoding="UTF-8" standalone="yes"?>
<!DOCTYPE earthquake SYSTEM "stationlist.dtd">
<stationlist created="" xmlns="ch.ethz.sed.shakemap.usgs.xml">
  <station code="ACOR" name="ACOR" netid="HA" insttype="Horizon,120s,1200" lat="37.8905" lon="22.8694">
    <comp name="--.HHE">
      <acc value="0.0056924230" flag="0"/>
      <vel value="0.0056001066" flag="0"/>
      <psa03 value="0.0137882362" flag="0"/>
      <psa10 value="0.0162206515" flag="0"/>
      <psa30 value="0.0011724026" flag="0"/>
    </comp>
    <comp name="--.HHZ">
      <acc value="0.0044633084" flag="0"/>
      <vel value="0.0054352572" flag="0"/>
      <psa03 value="0.0080272964" flag="0"/>
      <psa10 value="0.0074369387" flag="0"/>
      <psa30 value="0.0011067661" flag="0"/>
    </comp>
    <comp name="--.HHN">
      <acc value="0.0050796511" flag="0"/>
      <vel value="0.0056791641" flag="0"/>
      <psa03 value="0.0095955889" flag="0"/>
      <psa10 value="0.0129165113" flag="0"/>
      <psa30 value="0.0014744316" flag="0"/>
    </comp>
  </station>
  <station code="AMPE" name="AMPE" netid="HA" insttype="1s-100Hz," lat="38.3015" lon="23.2688">
    <comp name="--.HHE">
      <acc value="0.0523311172" flag="0"/>
      <vel value="0.0382529840" flag="0"/>
      <psa03 value="0.1513700725" flag="0"/>
      <psa10 value="0.0390148935" flag="0"/>
      <psa30 value="0.0037338525" flag="0"/>
    </comp>
    <comp name="--.HHN">
      <acc value="0.0452784593" flag="0"/>
      <vel value="0.0332036323" flag="0"/>
      <psa03 value="0.1180547103" flag="0"/>
      <psa10 value="0.0488174221" flag="0"/>
      <psa30 value="0.0027622520" flag="0"/>
    </comp>
    <comp name="--.HHZ">
      <acc value="0.0365069737" flag="0"/>
      <vel value="0.0129075321" flag="0"/>
      <psa03 value="0.0462941945" flag="0"/>
      <psa10 value="0.0165283742" flag="0"/>
      <psa30 value="0.0012888306" flag="0"/>
    </comp>
  </station>
  <station code="ATAL" name="ATAL" netid="HA" insttype="120" lat="38.6926" lon="23.0213">
    <comp name="--.HHE">
      <acc value="0.8635528721" flag="0"/>
      <vel value="0.3604923257" flag="0"/>
      <psa03 value="0.7837302722" flag="0"/>
      <psa10 value="0.1540813430" flag="0"/>
      <psa30 value="0.0126185996" flag="0"/>
    </comp>
    <comp name="--.HHZ">
      <acc value="0.4998630651" flag="0"/>
      <vel value="0.2040146805" flag="0"/>
      <psa03 value="0.8436605014" flag="0"/>
      <psa10 value="0.1174118033" flag="0"/>
      <psa30 value="0.0085570484" flag="0"/>
    </comp>
    <comp name="--.HHN">
      <acc value="1.1881994785" flag="0"/>
      <vel value="0.3296871972" flag="0"/>
      <psa03 value="0.6360678062" flag="0"/>
      <psa10 value="0.1720541909" flag="0"/>
      <psa30 value="0.0135177649" flag="0"/>
    </comp>
  </station>
  <station code="ATHU" name="ATHU" netid="HA" insttype="60" lat="37.9665" lon="23.7845">
    <comp name="--.HHN">
      <acc value="0.0082869670" flag="0"/>
      <vel value="0.0049627847" flag="0"/>
      <psa03 value="0.0179545984" flag="0"/>
      <psa10 value="0.0066890831" flag="0"/>
      <psa30 value="0.0006428186" flag="0"/>
    </comp>
    <comp name="--.HHZ">
      <acc value="0.0066249501" flag="0"/>
      <vel value="0.0049495096" flag="0"/>
      <psa03 value="0.0101594305" flag="0"/>
      <psa10 value="0.0071222677" flag="0"/>
      <psa30 value="0.0008106081" flag="0"/>
    </comp>
    <comp name="--.HHE">
      <acc value="0.0077405754" flag="0"/>
      <vel value="0.0061416627" flag="0"/>
      <psa03 value="0.0163810946" flag="0"/>
      <psa10 value="0.0107020902" flag="0"/>
      <psa30 value="0.0004178362" flag="0"/>
    </comp>
  </station>
  <station code="AXAR" name="AXAR" netid="HA" insttype="Horizon,120s,1200" lat="38.7664" lon="22.659">
    <comp name="--.HHE">
      <acc value="0.3910285234" flag="0"/>
      <vel value="0.1225637582" flag="0"/>
      <psa03 value="0.3191750089" flag="0"/>
      <psa10 value="0.1159850267" flag="0"/>
      <psa30 value="0.0096160645" flag="0"/>
    </comp>
    <comp name="--.HHZ">
      <acc value="0.3184414283" flag="0"/>
      <vel value="0.0744641798" flag="0"/>
      <psa03 value="0.3555489130" flag="0"/>
      <psa10 value="0.0477127933" flag="0"/>
      <psa30 value="0.0058875552" flag="0"/>
    </comp>
    <comp name="--.HHN">
      <acc value="0.4605911443" flag="0"/>
      <vel value="0.1257265907" flag="0"/>
      <psa03 value="0.8463157709" flag="0"/>
      <psa10 value="0.0629581558" flag="0"/>
      <psa30 value="0.0075749966" flag="0"/>
    </comp>
  </station>
  <station code="DOMV" name="DOMV" netid="HA" insttype="60" lat="38.2569" lon="22.9795">
    <comp name="--.HHN">
      <acc value="0.0641629102" flag="0"/>
      <vel value="0.0163026533" flag="0"/>
      <psa03 value="0.0771966583" flag="0"/>
      <psa10 value="0.0064190825" flag="0"/>
      <psa30 value="0.0005859658" flag="0"/>
    </comp>
    <comp name="--.HHE">
      <acc value="0.0736016346" flag="0"/>
      <vel value="0.0166926077" flag="0"/>
      <psa03 value="0.0882628776" flag="0"/>
      <psa10 value="0.0073536444" flag="0"/>
      <psa30 value="0.0007810056" flag="0"/>
    </comp>
    <comp name="--.HHZ">
      <acc value="0.0499408096" flag="0"/>
      <vel value="0.0163329653" flag="0"/>
      <psa03 value="0.0664127744" flag="0"/>
      <psa10 value="0.0066263550" flag="0"/>
      <psa30 value="0.0004138389" flag="0"/>
    </comp>
  </station>
  <station code="ERTR" name="ERTR" netid="HA" insttype="Horizon,120s,1200" lat="38.4066" lon="23.7865">
    <comp name="--.HHN">
      <acc value="0.0203143547" flag="0"/>
      <vel value="0.0154771290" flag="0"/>
      <psa03 value="0.0428987943" flag="0"/>
      <psa10 value="0.0140782493" flag="0"/>
      <psa30 value="0.0010938348" flag="0"/>
    </comp>
    <comp name="--.HHE">
      <acc value="0.0250668429" flag="0"/>
      <vel value="0.0118325779" flag="0"/>
      <psa03 value="0.0425266041" flag="0"/>
      <psa10 value="0.0134034914" flag="0"/>
      <psa30 value="0.0005722002" flag="0"/>
    </comp>
    <comp name="--.HHZ">
      <acc value="0.0257150875" flag="0"/>
      <vel value="0.0074339798" flag="0"/>
      <psa03 value="0.0296679820" flag="0"/>
      <psa10 value="0.0070473865" flag="0"/>
      <psa30 value="0.0005668329" flag="0"/>
    </comp>
  </station>
  <station code="KALE" name="KALE" netid="HA" insttype="40," lat="38.3911" lon="22.1398">
    <comp name="--.HHZ">
      <acc value="0.0236312883" flag="0"/>
      <vel value="0.0134219937" flag="0"/>
      <psa03 value="0.0346646496" flag="0"/>
      <psa10 value="0.0191089269" flag="0"/>
      <psa30 value="0.0013913396" flag="0"/>
    </comp>
    <comp name="--.HHN">
      <acc value="0.0538493326" flag="0"/>
      <vel value="0.0307638041" flag="0"/>
      <psa03 value="0.1074528027" flag="0"/>
      <psa10 value="0.0290236445" flag="0"/>
      <psa30 value="0.0016234017" flag="0"/>
    </comp>
    <comp name="--.HHE">
      <acc value="0.0292219993" flag="0"/>
      <vel value="0.0205776747" flag="0"/>
      <psa03 value="0.0851211802" flag="0"/>
      <psa10 value="0.0147766147" flag="0"/>
      <psa30 value="0.0017651556" flag="0"/>
    </comp>
  </station>
  <station code="KIAS" name="KIAS" netid="HA" insttype="DC" lat="37.9875" lon="22.7543">
    <comp name="--.HNN">
      <acc value="0.0416632785" flag="0"/>
      <vel value="0.0235529679" flag="0"/>
      <psa03 value="0.0978749546" flag="0"/>
      <psa10 value="0.0361840796" flag="0"/>
      <psa30 value="0.0039770152" flag="0"/>
    </comp>
    <comp name="--.HNE">
      <acc value="0.0405078658" flag="0"/>
      <vel value="0.0254913372" flag="0"/>
      <psa03 value="0.0928688312" flag="0"/>
      <psa10 value="0.0465026084" flag="0"/>
      <psa30 value="0.0048432030" flag="0"/>
    </comp>
    <comp name="--.HNZ">
      <acc value="0.0316119705" flag="0"/>
      <vel value="0.0146282171" flag="0"/>
      <psa03 value="0.0324867620" flag="0"/>
      <psa10 value="0.0177859675" flag="0"/>
      <psa30 value="0.0023522673" flag="0"/>
    </comp>
  </station>
  <station code="LOUT" name="LOUT" netid="HA" insttype="30" lat="37.9879" lon="22.9743">
    <comp name="--.HHE">
      <acc value="0.0467699457" flag="0"/>
      <vel value="0.0185172607" flag="0"/>
      <psa03 value="0.0782951729" flag="0"/>
      <psa10 value="0.0156851357" flag="0"/>
      <psa30 value="0.0010413270" flag="0"/>
    </comp>
    <comp name="--.HHN">
      <acc value="0.0485739471" flag="0"/>
      <vel value="0.0259569273" flag="0"/>
      <psa03 value="0.1167612607" flag="0"/>
      <psa10 value="0.0209024954" flag="0"/>
      <psa30 value="0.0012924938" flag="0"/>
    </comp>
    <comp name="--.HHZ">
      <acc value="0.0277112968" flag="0"/>
      <vel value="0.0123909345" flag="0"/>
      <psa03 value="0.0659542896" flag="0"/>
      <psa10 value="0.0217045481" flag="0"/>
      <psa30 value="0.0010210095" flag="0"/>
    </comp>
  </station>
  <station code="MDRA" name="MDRA" netid="HA" insttype="60" lat="38.0606" lon="23.4662">
    <comp name="--.HHZ">
      <acc value="0.0122447013" flag="0"/>
      <vel value="0.0071243475" flag="0"/>
      <psa03 value="0.0294512515" flag="0"/>
      <psa10 value="0.0104223533" flag="0"/>
      <psa30 value="0.0007952652" flag="0"/>
    </comp>
    <comp name="--.HHN">
      <acc value="0.0121117016" flag="0"/>
      <vel value="0.0068916273" flag="0"/>
      <psa03 value="0.0278300972" flag="0"/>
      <psa10 value="0.0119149640" flag="0"/>
      <psa30 value="0.0006185209" flag="0"/>
    </comp>
    <comp name="--.HHE">
      <acc value="0.0095670974" flag="0"/>
      <vel value="0.0060980894" flag="0"/>
      <psa03 value="0.0198053565" flag="0"/>
      <psa10 value="0.0124573304" flag="0"/>
      <psa30 value="0.0005076587" flag="0"/>
    </comp>
  </station>
  <station code="MRKA" name="MRKA" netid="HA" insttype="Horizon,120s,1200" lat="38.7047" lon="23.5863">
    <comp name="--.HHZ">
      <acc value="0.0380751700" flag="0"/>
      <vel value="0.0143760042" flag="0"/>
      <psa03 value="0.0795295217" flag="0"/>
      <psa10 value="0.0109213585" flag="0"/>
      <psa30 value="0.0007555306" flag="0"/>
    </comp>
    <comp name="--.HHN">
      <acc value="0.0770648138" flag="0"/>
      <vel value="0.0196693960" flag="0"/>
      <psa03 value="0.0892844204" flag="0"/>
      <psa10 value="0.0145961473" flag="0"/>
      <psa30 value="0.0010817197" flag="0"/>
    </comp>
    <comp name="--.HHE">
      <acc value="0.0737531296" flag="0"/>
      <vel value="0.0163449314" flag="0"/>
      <psa03 value="0.1312337255" flag="0"/>
      <psa10 value="0.0089509948" flag="0"/>
      <psa30 value="0.0008058756" flag="0"/>
    </comp>
  </station>
  <station code="MRTH" name="MRTH" netid="HA" insttype="S100," lat="38.1225" lon="23.9409">
    <comp name="--.HHZ">
      <acc value="0.0188855892" flag="0"/>
      <vel value="0.0115031762" flag="0"/>
      <psa03 value="0.0443362046" flag="0"/>
      <psa10 value="0.0142403646" flag="0"/>
      <psa30 value="0.0007725201" flag="0"/>
    </comp>
    <comp name="--.HHE">
      <acc value="0.0270977302" flag="0"/>
      <vel value="0.0166442997" flag="0"/>
      <psa03 value="0.0626350400" flag="0"/>
      <psa10 value="0.0174200236" flag="0"/>
      <psa30 value="0.0007679733" flag="0"/>
    </comp>
    <comp name="--.HHN">
      <acc value="0.0221622097" flag="0"/>
      <vel value="0.0191943492" flag="0"/>
      <psa03 value="0.0547096852" flag="0"/>
      <psa10 value="0.0266852787" flag="0"/>
      <psa30 value="0.0015795131" flag="0"/>
    </comp>
  </station>
  <station code="STFN" name="STFN" netid="HA" insttype="1s-100Hz," lat="38.1766" lon="23.544">
    <comp name="--.HHE">
      <acc value="0.0280758818" flag="0"/>
      <vel value="0.0136657890" flag="0"/>
      <psa03 value="0.0370318128" flag="0"/>
      <psa10 value="0.0247124186" flag="0"/>
      <psa30 value="0.0013779659" flag="0"/>
    </comp>
    <comp name="--.HHN">
      <acc value="0.0295457388" flag="0"/>
      <vel value="0.0143992593" flag="0"/>
      <psa03 value="0.0776932777" flag="0"/>
      <psa10 value="0.0238218356" flag="0"/>
      <psa30 value="0.0016221413" flag="0"/>
    </comp>
    <comp name="--.HHZ">
      <acc value="0.0191748291" flag="0"/>
      <vel value="0.0093899028" flag="0"/>
      <psa03 value="0.0453585853" flag="0"/>
      <psa10 value="0.0106638808" flag="0"/>
      <psa30 value="0.0020339918" flag="0"/>
    </comp>
  </station>
  <station code="THAL" name="THAL" netid="HA" insttype="30" lat="38.0357" lon="22.6634">
    <comp name="--.HHN">
      <acc value="0.0291743100" flag="0"/>
      <vel value="0.0257708663" flag="0"/>
      <psa03 value="0.0783061974" flag="0"/>
      <psa10 value="0.0300833577" flag="0"/>
      <psa30 value="0.0020922810" flag="0"/>
    </comp>
    <comp name="--.HHE">
      <acc value="0.0517390396" flag="0"/>
      <vel value="0.0178741175" flag="0"/>
      <psa03 value="0.0861869586" flag="0"/>
      <psa10 value="0.0218548373" flag="0"/>
      <psa30 value="0.0016787342" flag="0"/>
    </comp>
    <comp name="--.HHZ">
      <acc value="0.0210490796" flag="0"/>
      <vel value="0.0101055404" flag="0"/>
      <psa03 value="0.0428248948" flag="0"/>
      <psa10 value="0.0147339620" flag="0"/>
      <psa30 value="0.0013006646" flag="0"/>
    </comp>
  </station>
  <station code="THIV" name="THIV" netid="HA" insttype="25" lat="38.299" lon="23.332">
    <comp name="--.HHN">
      <acc value="0.0269680337" flag="0"/>
      <vel value="0.0084792790" flag="0"/>
      <psa03 value="0.0322261110" flag="0"/>
      <psa10 value="0.0107553735" flag="0"/>
      <psa30 value="0.0009367665" flag="0"/>
    </comp>
    <comp name="--.HHE">
      <acc value="0.0174098054" flag="0"/>
      <vel value="0.0105241062" flag="0"/>
      <psa03 value="0.0156858051" flag="0"/>
      <psa10 value="0.0104011681" flag="0"/>
      <psa30 value="0.0011154185" flag="0"/>
    </comp>
    <comp name="--.HHZ">
      <acc value="0.0142522866" flag="0"/>
      <vel value="0.0049460245" flag="0"/>
      <psa03 value="0.0232573606" flag="0"/>
      <psa10 value="0.0052072707" flag="0"/>
      <psa30 value="0.0009556970" flag="0"/>
    </comp>
  </station>
  <station code="VILL" name="VILL" netid="HA" insttype="Horizon,120s,1200" lat="38.1642" lon="23.3122">
    <comp name="--.HHE">
      <acc value="0.0331221686" flag="0"/>
      <vel value="0.0191752154" flag="0"/>
      <psa03 value="0.0882171159" flag="0"/>
      <psa10 value="0.0239276967" flag="0"/>
      <psa30 value="0.0018260608" flag="0"/>
    </comp>
    <comp name="--.HHN">
      <acc value="0.0645818715" flag="0"/>
      <vel value="0.0208992742" flag="0"/>
      <psa03 value="0.1342622090" flag="0"/>
      <psa10 value="0.0255535844" flag="0"/>
      <psa30 value="0.0019484048" flag="0"/>
    </comp>
    <comp name="--.HHZ">
      <acc value="0.0176672374" flag="0"/>
      <vel value="0.0104122931" flag="0"/>
      <psa03 value="0.0421433495" flag="0"/>
      <psa10 value="0.0176167049" flag="0"/>
      <psa30 value="0.0018033656" flag="0"/>
    </comp>
  </station>
  <station code="KLV1" name="KLV1" netid="HI" insttype="CMG-5TD,ACCELEROMETER,GURALP" lat="38.0326" lon="22.108">
    <comp name="--.HNE">
      <acc value="0.0118427497" flag="0"/>
      <vel value="0.0104419066" flag="0"/>
      <psa03 value="0.0296745866" flag="0"/>
      <psa10 value="0.0139947164" flag="0"/>
      <psa30 value="0.0013155300" flag="0"/>
    </comp>
    <comp name="--.HNZ">
      <acc value="0.0079795111" flag="0"/>
      <vel value="0.0069509316" flag="0"/>
      <psa03 value="0.0131896427" flag="0"/>
      <psa10 value="0.0090298267" flag="0"/>
      <psa30 value="0.0007709386" flag="0"/>
    </comp>
    <comp name="--.HNN">
      <acc value="0.0168059495" flag="0"/>
      <vel value="0.0085426724" flag="0"/>
      <psa03 value="0.0314249158" flag="0"/>
      <psa10 value="0.0079935618" flag="0"/>
      <psa30 value="0.0010481751" flag="0"/>
    </comp>
  </station>
  <station code="LAM2" name="LAM2" netid="HI" insttype="CMG-5TD,ACCELEROMETER,GURALP" lat="38.902" lon="22.4313">
    <comp name="--.HNN">
      <acc value="0.1236325553" flag="0"/>
      <vel value="0.0462262214" flag="0"/>
      <psa03 value="0.1104423061" flag="0"/>
      <psa10 value="0.0356578968" flag="0"/>
      <psa30 value="0.0015919742" flag="0"/>
    </comp>
    <comp name="--.HNE">
      <acc value="0.1355907257" flag="0"/>
      <vel value="0.0624035376" flag="0"/>
      <psa03 value="0.2185133706" flag="0"/>
      <psa10 value="0.0503070828" flag="0"/>
      <psa30 value="0.0032874717" flag="0"/>
    </comp>
    <comp name="--.HNZ">
      <acc value="0.0889362819" flag="0"/>
      <vel value="0.0256666964" flag="0"/>
      <psa03 value="0.1473885499" flag="0"/>
      <psa10 value="0.0220363403" flag="0"/>
      <psa30 value="0.0017397775" flag="0"/>
    </comp>
  </station>
  <station code="VOL2" name="VOL2" netid="HI" insttype="CMG-5TD,ACCELEROMETER,GURALP" lat="39.366" lon="22.9506">
    <comp name="--.HNE">
      <acc value="0.1665104978" flag="0"/>
      <vel value="0.0684005166" flag="0"/>
      <psa03 value="0.4102043512" flag="0"/>
      <psa10 value="0.0446315902" flag="0"/>
      <psa30 value="0.0027197716" flag="0"/>
    </comp>
    <comp name="--.HNZ">
      <acc value="0.0685484024" flag="0"/>
      <vel value="0.0210897928" flag="0"/>
      <psa03 value="0.0922235607" flag="0"/>
      <psa10 value="0.0177106221" flag="0"/>
      <psa30 value="0.0014705145" flag="0"/>
    </comp>
    <comp name="--.HNN">
      <acc value="0.1233815401" flag="0"/>
      <vel value="0.0469740376" flag="0"/>
      <psa03 value="0.2709282435" flag="0"/>
      <psa10 value="0.0322712391" flag="0"/>
      <psa30 value="0.0019578411" flag="0"/>
    </comp>
  </station>
  <station code="ATH" name="ATH" netid="HL" insttype="DR24" lat="37.9738" lon="23.7177">
    <comp name="--.HHE">
      <acc value="0.0287448428" flag="0"/>
      <vel value="0.0131225834" flag="0"/>
      <psa03 value="0.0581018790" flag="0"/>
      <psa10 value="0.0202298807" flag="0"/>
      <psa30 value="0.0013156164" flag="0"/>
    </comp>
    <comp name="--.HHN">
      <acc value="0.0196585476" flag="0"/>
      <vel value="0.0119685472" flag="0"/>
      <psa03 value="0.0339027946" flag="0"/>
      <psa10 value="0.0193842744" flag="0"/>
      <psa30 value="0.0018867635" flag="0"/>
    </comp>
    <comp name="--.HHZ">
      <acc value="0.0143406309" flag="0"/>
      <vel value="0.0079930170" flag="0"/>
      <psa03 value="0.0254836237" flag="0"/>
      <psa10 value="0.0120513649" flag="0"/>
      <psa30 value="0.0012767250" flag="0"/>
    </comp>
  </station>
  <station code="DLFA" name="DLFA" netid="HL" insttype="CMG-5" lat="38.4784" lon="22.4958">
    <comp name="00.HNZ">
      <acc value="0.0641239592" flag="0"/>
      <vel value="0.0216614251" flag="0"/>
      <psa03 value="0.0918939905" flag="0"/>
      <psa10 value="0.0165742687" flag="0"/>
      <psa30 value="0.0023410957" flag="0"/>
    </comp>
    <comp name="00.HNE">
      <acc value="0.0800684556" flag="0"/>
      <vel value="0.0514575872" flag="0"/>
      <psa03 value="0.0902786764" flag="0"/>
      <psa10 value="0.0507254558" flag="0"/>
      <psa30 value="0.0026415378" flag="0"/>
    </comp>
    <comp name="00.HNN">
      <acc value="0.0932856883" flag="0"/>
      <vel value="0.0333238990" flag="0"/>
      <psa03 value="0.0920867004" flag="0"/>
      <psa10 value="0.0327850636" flag="0"/>
      <psa30 value="0.0025302935" flag="0"/>
    </comp>
  </station>
  <station code="EVR" name="EVR" netid="HL" insttype="DR24" lat="38.9166" lon="21.8105">
    <comp name="--.HHE">
      <acc value="0.0065688441" flag="0"/>
      <vel value="0.0052808012" flag="0"/>
      <psa03 value="0.0084133555" flag="0"/>
      <psa10 value="0.0096101117" flag="0"/>
      <psa30 value="0.0008764778" flag="0"/>
    </comp>
    <comp name="--.HHN">
