<?xml version="1.0" encoding="UTF-8" standalone="yes"?>
<!DOCTYPE earthquake SYSTEM "stationlist.dtd">
<stationlist created="" xmlns="ch.ethz.sed.shakemap.usgs.xml">
  <station code="ACOR" name="ACOR" netid="HA" insttype="Horizon,120s,1200" lat="37.8905" lon="22.8694">
    <comp name="--.HHE">
      <acc value="0.0056924230" flag="0"/>
      <vel value="0.0056001062" flag="0"/>
      <psa03 value="0.0137882362" flag="0"/>
      <psa10 value="0.0162206515" flag="0"/>
      <psa30 value="0.0011724045" flag="0"/>
    </comp>
    <comp name="--.HHN">
      <acc value="0.0050796511" flag="0"/>
      <vel value="0.0056791639" flag="0"/>
      <psa03 value="0.0095955889" flag="0"/>
      <psa10 value="0.0129165113" flag="0"/>
      <psa30 value="0.0014744378" flag="0"/>
    </comp>
    <comp name="--.HHZ">
      <acc value="0.0044633084" flag="0"/>
      <vel value="0.0054352578" flag="0"/>
      <psa03 value="0.0080272964" flag="0"/>
      <psa10 value="0.0074369379" flag="0"/>
      <psa30 value="0.0011067763" flag="0"/>
    </comp>
  </station>
  <station code="AIGS" name="AIGS" netid="HA" insttype="DC" lat="38.25" lon="22.0878">
    <comp name="--.HNE">
      <acc value="0.0277111738" flag="0"/>
      <vel value="0.0167106996" flag="0"/>
      <psa03 value="0.0687470699" flag="0"/>
      <psa10 value="0.0130804624" flag="0"/>
      <psa30 value="0.0013826358" flag="0"/>
    </comp>
    <comp name="--.HNZ">
      <acc value="0.0138261844" flag="0"/>
      <vel value="0.0051598792" flag="0"/>
      <psa03 value="0.0187496155" flag="0"/>
      <psa10 value="0.0098891934" flag="0"/>
      <psa30 value="0.0011948254" flag="0"/>
    </comp>
    <comp name="--.HNN">
      <acc value="0.0156544831" flag="0"/>
      <vel value="0.0079705677" flag="0"/>
      <psa03 value="0.0469261427" flag="0"/>
      <psa10 value="0.0147277576" flag="0"/>
      <psa30 value="0.0015788265" flag="0"/>
    </comp>
  </station>
  <station code="AMPE" name="AMPE" netid="HA" insttype="1s-100Hz," lat="38.3015" lon="23.2688">
    <comp name="--.HHE">
      <acc value="0.0523311159" flag="0"/>
      <vel value="0.0382534127" flag="0"/>
      <psa03 value="0.1513700713" flag="0"/>
      <psa10 value="0.0390148922" flag="0"/>
      <psa30 value="0.0037338524" flag="0"/>
    </comp>
    <comp name="--.HHZ">
      <acc value="0.0365069737" flag="0"/>
      <vel value="0.0129075443" flag="0"/>
      <psa03 value="0.0462941945" flag="0"/>
      <psa10 value="0.0165283742" flag="0"/>
      <psa30 value="0.0012888381" flag="0"/>
    </comp>
    <comp name="--.HHN">
      <acc value="0.0452784593" flag="0"/>
      <vel value="0.0332035892" flag="0"/>
      <psa03 value="0.1180547104" flag="0"/>
      <psa10 value="0.0488174220" flag="0"/>
      <psa30 value="0.0027622982" flag="0"/>
    </comp>
  </station>
  <station code="ATAL" name="ATAL" netid="HA" insttype="120" lat="38.6926" lon="23.0213">
    <comp name="--.HHE">
      <acc value="0.8635528722" flag="0"/>
      <vel value="0.3604923270" flag="0"/>
      <psa03 value="0.7837302722" flag="0"/>
      <psa10 value="0.1540813426" flag="0"/>
      <psa30 value="0.0126185885" flag="0"/>
    </comp>
    <comp name="--.HHN">
      <acc value="1.1881994785" flag="0"/>
      <vel value="0.3296871972" flag="0"/>
      <psa03 value="0.6360678062" flag="0"/>
      <psa10 value="0.1720541908" flag="0"/>
      <psa30 value="0.0135177632" flag="0"/>
    </comp>
    <comp name="--.HHZ">
      <acc value="0.4998630652" flag="0"/>
      <vel value="0.2040146808" flag="0"/>
      <psa03 value="0.8436605014" flag="0"/>
      <psa10 value="0.1174118028" flag="0"/>
      <psa30 value="0.0085571432" flag="0"/>
    </comp>
  </station>
  <station code="ATHU" name="ATHU" netid="HA" insttype="60" lat="37.9665" lon="23.7845">
    <comp name="--.HHE">
      <acc value="0.0077405754" flag="0"/>
      <vel value="0.0061416627" flag="0"/>
      <psa03 value="0.0163810946" flag="0"/>
      <psa10 value="0.0107020902" flag="0"/>
      <psa30 value="0.0004178203" flag="0"/>
    </comp>
    <comp name="--.HHZ">
      <acc value="0.0066249503" flag="0"/>
      <vel value="0.0049495121" flag="0"/>
      <psa03 value="0.0101594305" flag="0"/>
      <psa10 value="0.0071222677" flag="0"/>
      <psa30 value="0.0008106070" flag="0"/>
    </comp>
    <comp name="--.HHN">
      <acc value="0.0082869672" flag="0"/>
      <vel value="0.0049627839" flag="0"/>
      <psa03 value="0.0179545984" flag="0"/>
      <psa10 value="0.0066890831" flag="0"/>
      <psa30 value="0.0006428139" flag="0"/>
    </comp>
  </station>
  <station code="AXAR" name="AXAR" netid="HA" insttype="Horizon,120s,1200" lat="38.7664" lon="22.659">
    <comp name="--.HHN">
      <acc value="0.4605911443" flag="0"/>
      <vel value="0.1257265910" flag="0"/>
      <psa03 value="0.8463157709" flag="0"/>
      <psa10 value="0.0629581557" flag="0"/>
      <psa30 value="0.0075750926" flag="0"/>
    </comp>
    <comp name="--.HHE">
      <acc value="0.3910285234" flag="0"/>
      <vel value="0.1225637581" flag="0"/>
      <psa03 value="0.3191750089" flag="0"/>
      <psa10 value="0.1159850265" flag="0"/>
      <psa30 value="0.0096160825" flag="0"/>
    </comp>
    <comp name="--.HHZ">
      <acc value="0.3184414283" flag="0"/>
      <vel value="0.0744641794" flag="0"/>
      <psa03 value="0.3555489130" flag="0"/>
      <psa10 value="0.0477127933" flag="0"/>
      <psa30 value="0.0058875325" flag="0"/>
    </comp>
  </station>
  <station code="DOMV" name="DOMV" netid="HA" insttype="60" lat="38.2569" lon="22.9795">
    <comp name="--.HHE">
      <acc value="0.0736016345" flag="0"/>
      <vel value="0.0166926082" flag="0"/>
      <psa03 value="0.0882628776" flag="0"/>
      <psa10 value="0.0073536444" flag="0"/>
      <psa30 value="0.0007810025" flag="0"/>
    </comp>
    <comp name="--.HHN">
      <acc value="0.0641629102" flag="0"/>
      <vel value="0.0163026539" flag="0"/>
      <psa03 value="0.0771966583" flag="0"/>
      <psa10 value="0.0064190825" flag="0"/>
      <psa30 value="0.0005859647" flag="0"/>
    </comp>
    <comp name="--.HHZ">
      <acc value="0.0499408096" flag="0"/>
      <vel value="0.0163329666" flag="0"/>
      <psa03 value="0.0664127744" flag="0"/>
      <psa10 value="0.0066263550" flag="0"/>
      <psa30 value="0.0004137898" flag="0"/>
    </comp>
  </station>
  <station code="ERTR" name="ERTR" netid="HA" insttype="Horizon,120s,1200" lat="38.4066" lon="23.7865">
    <comp name="--.HHZ">
      <acc value="0.0257150875" flag="0"/>
      <vel value="0.0074339805" flag="0"/>
      <psa03 value="0.0296679820" flag="0"/>
      <psa10 value="0.0070473865" flag="0"/>
      <psa30 value="0.0005668533" flag="0"/>
    </comp>
    <comp name="--.HHN">
      <acc value="0.0203143547" flag="0"/>
      <vel value="0.0154771287" flag="0"/>
      <psa03 value="0.0428987943" flag="0"/>
      <psa10 value="0.0140782493" flag="0"/>
      <psa30 value="0.0010938561" flag="0"/>
    </comp>
    <comp name="--.HHE">
      <acc value="0.0250668429" flag="0"/>
      <vel value="0.0118325781" flag="0"/>
      <psa03 value="0.0425266041" flag="0"/>
      <psa10 value="0.0134034914" flag="0"/>
      <psa30 value="0.0005721997" flag="0"/>
    </comp>
  </station>
  <station code="KALE" name="KALE" netid="HA" insttype="40," lat="38.3911" lon="22.1398">
    <comp name="--.HHE">
      <acc value="0.0292219993" flag="0"/>
      <vel value="0.0205776734" flag="0"/>
      <psa03 value="0.0851211802" flag="0"/>
      <psa10 value="0.0147766147" flag="0"/>
      <psa30 value="0.0017652026" flag="0"/>
    </comp>
    <comp name="--.HHZ">
      <acc value="0.0236312884" flag="0"/>
      <vel value="0.0134219928" flag="0"/>
      <psa03 value="0.0346646496" flag="0"/>
      <psa10 value="0.0191089269" flag="0"/>
      <psa30 value="0.0013913673" flag="0"/>
    </comp>
    <comp name="--.HHN">
      <acc value="0.0538493326" flag="0"/>
      <vel value="0.0307638003" flag="0"/>
      <psa03 value="0.1074528027" flag="0"/>
      <psa10 value="0.0290236445" flag="0"/>
      <psa30 value="0.0016234109" flag="0"/>
    </comp>
  </station>
  <station code="KIAS" name="KIAS" netid="HA" insttype="DC" lat="37.9875" lon="22.7543">
    <comp name="--.HNN">
      <acc value="0.0416632788" flag="0"/>
      <vel value="0.0235529678" flag="0"/>
      <psa03 value="0.0978749546" flag="0"/>
      <psa10 value="0.0361840796" flag="0"/>
      <psa30 value="0.0039770063" flag="0"/>
    </comp>
    <comp name="--.HNE">
      <acc value="0.0405078644" flag="0"/>
      <vel value="0.0254913440" flag="0"/>
      <psa03 value="0.0928688312" flag="0"/>
      <psa10 value="0.0465026084" flag="0"/>
      <psa30 value="0.0048431858" flag="0"/>
    </comp>
    <comp name="--.HNZ">
      <acc value="0.0316119666" flag="0"/>
      <vel value="0.0146282162" flag="0"/>
      <psa03 value="0.0324867620" flag="0"/>
      <psa10 value="0.0177859675" flag="0"/>
      <psa30 value="0.0023522153" flag="0"/>
    </comp>
  </station>
  <station code="LOUT" name="LOUT" netid="HA" insttype="30" lat="37.9879" lon="22.9743">
    <comp name="--.HHE">
      <acc value="0.0467699457" flag="0"/>
      <vel value="0.0185172588" flag="0"/>
      <psa03 value="0.0782951729" flag="0"/>
      <psa10 value="0.0156851356" flag="0"/>
      <psa30 value="0.0010413342" flag="0"/>
    </comp>
    <comp name="--.HHZ">
      <acc value="0.0277112968" flag="0"/>
      <vel value="0.0123909343" flag="0"/>
      <psa03 value="0.0659542896" flag="0"/>
      <psa10 value="0.0217045482" flag="0"/>
      <psa30 value="0.0010210088" flag="0"/>
    </comp>
    <comp name="--.HHN">
      <acc value="0.0485739472" flag="0"/>
      <vel value="0.0259569324" flag="0"/>
      <psa03 value="0.1167612607" flag="0"/>
      <psa10 value="0.0209024954" flag="0"/>
      <psa30 value="0.0012925217" flag="0"/>
    </comp>
  </station>
  <station code="MDRA" name="MDRA" netid="HA" insttype="60" lat="38.0606" lon="23.4662">
    <comp name="--.HHN">
      <acc value="0.0121117015" flag="0"/>
      <vel value="0.0068916272" flag="0"/>
      <psa03 value="0.0278300972" flag="0"/>
      <psa10 value="0.0119149640" flag="0"/>
      <psa30 value="0.0006185207" flag="0"/>
    </comp>
    <comp name="--.HHZ">
      <acc value="0.0122447013" flag="0"/>
      <vel value="0.0071243471" flag="0"/>
      <psa03 value="0.0294512515" flag="0"/>
      <psa10 value="0.0104223533" flag="0"/>
      <psa30 value="0.0007952642" flag="0"/>
    </comp>
    <comp name="--.HHE">
      <acc value="0.0095670973" flag="0"/>
      <vel value="0.0060980892" flag="0"/>
      <psa03 value="0.0198053565" flag="0"/>
      <psa10 value="0.0124573304" flag="0"/>
      <psa30 value="0.0005076533" flag="0"/>
    </comp>
  </station>
  <station code="MRKA" name="MRKA" netid="HA" insttype="Horizon,120s,1200" lat="38.7047" lon="23.5863">
    <comp name="--.HHZ">
      <acc value="0.0380751700" flag="0"/>
      <vel value="0.0143760039" flag="0"/>
      <psa03 value="0.0795295217" flag="0"/>
      <psa10 value="0.0109213583" flag="0"/>
      <psa30 value="0.0007555265" flag="0"/>
    </comp>
    <comp name="--.HHN">
      <acc value="0.0770648139" flag="0"/>
      <vel value="0.0196693969" flag="0"/>
      <psa03 value="0.0892844204" flag="0"/>
      <psa10 value="0.0145961473" flag="0"/>
      <psa30 value="0.0010817679" flag="0"/>
    </comp>
    <comp name="--.HHE">
      <acc value="0.0737531295" flag="0"/>
      <vel value="0.0163449313" flag="0"/>
      <psa03 value="0.1312337255" flag="0"/>
      <psa10 value="0.0089509948" flag="0"/>
      <psa30 value="0.0008058707" flag="0"/>
    </comp>
  </station>
  <station code="MRTH" name="MRTH" netid="HA" insttype="S100," lat="38.1225" lon="23.9409">
    <comp name="--.HHN">
      <acc value="0.0221622099" flag="0"/>
      <vel value="0.0191943028" flag="0"/>
      <psa03 value="0.0547096853" flag="0"/>
      <psa10 value="0.0266852786" flag="0"/>
      <psa30 value="0.0015795122" flag="0"/>
    </comp>
    <comp name="--.HHE">
      <acc value="0.0270977285" flag="0"/>
      <vel value="0.0166433551" flag="0"/>
      <psa03 value="0.0626350403" flag="0"/>
      <psa10 value="0.0174200239" flag="0"/>
      <psa30 value="0.0007679652" flag="0"/>
    </comp>
    <comp name="--.HHZ">
      <acc value="0.0188855895" flag="0"/>
      <vel value="0.0115031739" flag="0"/>
      <psa03 value="0.0443362047" flag="0"/>
      <psa10 value="0.0142403646" flag="0"/>
      <psa30 value="0.0007725242" flag="0"/>
    </comp>
  </station>
  <station code="STFN" name="STFN" netid="HA" insttype="1s-100Hz," lat="38.1766" lon="23.544">
    <comp name="--.HHE">
      <acc value="0.0280758823" flag="0"/>
      <vel value="0.0136656092" flag="0"/>
      <psa03 value="0.0370318123" flag="0"/>
      <psa10 value="0.0247124191" flag="0"/>
      <psa30 value="0.0013779759" flag="0"/>
    </comp>
    <comp name="--.HHZ">
      <acc value="0.0191748291" flag="0"/>
      <vel value="0.0093898975" flag="0"/>
      <psa03 value="0.0453585853" flag="0"/>
      <psa10 value="0.0106638808" flag="0"/>
      <psa30 value="0.0020339854" flag="0"/>
    </comp>
    <comp name="--.HHN">
      <acc value="0.0295457387" flag="0"/>
      <vel value="0.0143992320" flag="0"/>
      <psa03 value="0.0776932778" flag="0"/>
      <psa10 value="0.0238218357" flag="0"/>
      <psa30 value="0.0016221287" flag="0"/>
    </comp>
  </station>
  <station code="THAL" name="THAL" netid="HA" insttype="30" lat="38.0357" lon="22.6634">
    <comp name="--.HHE">
      <acc value="0.0517390398" flag="0"/>
      <vel value="0.0178741178" flag="0"/>
      <psa03 value="0.0861869586" flag="0"/>
      <psa10 value="0.0218548373" flag="0"/>
      <psa30 value="0.0016787341" flag="0"/>
    </comp>
    <comp name="--.HHZ">
      <acc value="0.0210490798" flag="0"/>
      <vel value="0.0101055419" flag="0"/>
      <psa03 value="0.0428248948" flag="0"/>
      <psa10 value="0.0147339620" flag="0"/>
      <psa30 value="0.0013006694" flag="0"/>
    </comp>
    <comp name="--.HHN">
      <acc value="0.0291743098" flag="0"/>
      <vel value="0.0257708653" flag="0"/>
      <psa03 value="0.0783061974" flag="0"/>
      <psa10 value="0.0300833577" flag="0"/>
      <psa30 value="0.0020922268" flag="0"/>
    </comp>
  </station>
  <station code="THIV" name="THIV" netid="HA" insttype="25" lat="38.299" lon="23.332">
    <comp name="--.HHN">
      <acc value="0.0269680336" flag="0"/>
      <vel value="0.0084792871" flag="0"/>
      <psa03 value="0.0322261110" flag="0"/>
      <psa10 value="0.0107553735" flag="0"/>
      <psa30 value="0.0009367526" flag="0"/>
    </comp>
    <comp name="--.HHE">
      <acc value="0.0174098054" flag="0"/>
      <vel value="0.0105241057" flag="0"/>
      <psa03 value="0.0156858051" flag="0"/>
      <psa10 value="0.0104011681" flag="0"/>
      <psa30 value="0.0011154196" flag="0"/>
    </comp>
    <comp name="--.HHZ">
      <acc value="0.0142522866" flag="0"/>
      <vel value="0.0049460248" flag="0"/>
      <psa03 value="0.0232573606" flag="0"/>
      <psa10 value="0.0052072707" flag="0"/>
      <psa30 value="0.0009556983" flag="0"/>
    </comp>
  </station>
  <station code="VILL" name="VILL" netid="HA" insttype="Horizon,120s,1200" lat="38.1642" lon="23.3122">
    <comp name="--.HHZ">
      <acc value="0.0176672373" flag="0"/>
      <vel value="0.0104122928" flag="0"/>
      <psa03 value="0.0421433495" flag="0"/>
      <psa10 value="0.0176167049" flag="0"/>
      <psa30 value="0.0018033613" flag="0"/>
    </comp>
    <comp name="--.HHN">
      <acc value="0.0645818714" flag="0"/>
      <vel value="0.0208992744" flag="0"/>
      <psa03 value="0.1342622090" flag="0"/>
      <psa10 value="0.0255535844" flag="0"/>
      <psa30 value="0.0019484057" flag="0"/>
    </comp>
    <comp name="--.HHE">
      <acc value="0.0331221685" flag="0"/>
      <vel value="0.0191752151" flag="0"/>
      <psa03 value="0.0882171159" flag="0"/>
      <psa10 value="0.0239276967" flag="0"/>
      <psa30 value="0.0018260269" flag="0"/>
    </comp>
  </station>
  <station code="KLV1" name="KLV1" netid="HI" insttype="CMG-5TD,ACCELEROMETER,GURALP" lat="38.0326" lon="22.108">
    <comp name="--.HNN">
      <acc value="0.0168059491" flag="0"/>
      <vel value="0.0085426719" flag="0"/>
      <psa03 value="0.0314249158" flag="0"/>
      <psa10 value="0.0079935618" flag="0"/>
      <psa30 value="0.0010481332" flag="0"/>
    </comp>
    <comp name="--.HNZ">
      <acc value="0.0079795114" flag="0"/>
      <vel value="0.0069509316" flag="0"/>
      <psa03 value="0.0131896427" flag="0"/>
      <psa10 value="0.0090298268" flag="0"/>
      <psa30 value="0.0007708670" flag="0"/>
    </comp>
    <comp name="--.HNE">
      <acc value="0.0118427506" flag="0"/>
      <vel value="0.0104419072" flag="0"/>
      <psa03 value="0.0296745866" flag="0"/>
      <psa10 value="0.0139947164" flag="0"/>
      <psa30 value="0.0013155594" flag="0"/>
    </comp>
  </station>
  <station code="LAM2" name="LAM2" netid="HI" insttype="CMG-5TD,ACCELEROMETER,GURALP" lat="38.902" lon="22.4313">
    <comp name="--.HNZ">
      <acc value="0.0889362815" flag="0"/>
      <vel value="0.0256666966" flag="0"/>
      <psa03 value="0.1473885499" flag="0"/>
      <psa10 value="0.0220363396" flag="0"/>
      <psa30 value="0.0017399886" flag="0"/>
    </comp>
    <comp name="--.HNN">
      <acc value="0.1236325557" flag="0"/>
      <vel value="0.0462262209" flag="0"/>
      <psa03 value="0.1104423061" flag="0"/>
      <psa10 value="0.0356578968" flag="0"/>
      <psa30 value="0.0015919607" flag="0"/>
    </comp>
    <comp name="--.HNE">
      <acc value="0.1355907254" flag="0"/>
      <vel value="0.0624035371" flag="0"/>
      <psa03 value="0.2185133706" flag="0"/>
      <psa10 value="0.0503070831" flag="0"/>
      <psa30 value="0.0032873099" flag="0"/>
    </comp>
  </station>
  <station code="VOL2" name="VOL2" netid="HI" insttype="CMG-5TD,ACCELEROMETER,GURALP" lat="39.366" lon="22.9506">
    <comp name="--.HNE">
      <acc value="0.1665104977" flag="0"/>
      <vel value="0.0684005171" flag="0"/>
      <psa03 value="0.4102043512" flag="0"/>
      <psa10 value="0.0446315900" flag="0"/>
      <psa30 value="0.0027197856" flag="0"/>
    </comp>
    <comp name="--.HNZ">
      <acc value="0.0685484022" flag="0"/>
      <vel value="0.0210897912" flag="0"/>
      <psa03 value="0.0922235607" flag="0"/>
      <psa10 value="0.0177106218" flag="0"/>
      <psa30 value="0.0014705771" flag="0"/>
    </comp>
    <comp name="--.HNN">
      <acc value="0.1233815398" flag="0"/>
      <vel value="0.0469740377" flag="0"/>
      <psa03 value="0.2709282435" flag="0"/>
      <psa10 value="0.0322712392" flag="0"/>
      <psa30 value="0.0019579295" flag="0"/>
    </comp>
  </station>
  <station code="ATH" name="ATH" netid="HL" insttype="DR24" lat="37.9738" lon="23.7177">
    <comp name="--.HHE">
      <acc value="0.0287448429" flag="0"/>
      <vel value="0.0131225839" flag="0"/>
      <psa03 value="0.0581018790" flag="0"/>
      <psa10 value="0.0202298807" flag="0"/>
      <psa30 value="0.0013156240" flag="0"/>
    </comp>
    <comp name="--.HHZ">
      <acc value="0.0143406309" flag="0"/>
      <vel value="0.0079930172" flag="0"/>
      <psa03 value="0.0254836237" flag="0"/>
      <psa10 value="0.0120513649" flag="0"/>
      <psa30 value="0.0012767284" flag="0"/>
    </comp>
    <comp name="--.HHN">
      <acc value="0.0196585477" flag="0"/>
      <vel value="0.0119685464" flag="0"/>
      <psa03 value="0.0339027946" flag="0"/>
      <psa10 value="0.0193842744" flag="0"/>
      <psa30 value="0.0018867554" flag="0"/>
    </comp>
  </station>
  <station code="DLFA" name="DLFA" netid="HL" insttype="CMG-5" lat="38.4784" lon="22.4958">
    <comp name="00.HNE">
      <acc value="0.0800684562" flag="0"/>
      <vel value="0.0514575872" flag="0"/>
      <psa03 value="0.0902786764" flag="0"/>
      <psa10 value="0.0507254552" flag="0"/>
      <psa30 value="0.0026413637" flag="0"/>
    </comp>
    <comp name="00.HNN">
