<?xml version="1.0" encoding="UTF-8" standalone="yes"?>
<!DOCTYPE earthquake SYSTEM "stationlist.dtd">
<stationlist created="" xmlns="ch.ethz.sed.shakemap.usgs.xml">
  <station code="KLV" name="KLV" netid="MN" insttype="" lat="38.0437" lon="22.1504">
    <comp name="--.HHN">
      <acc value="0.0050410417" flag="0"/>
      <vel value="0.0051828853" flag="0"/>
      <psa03 value="0.0081279567" flag="0"/>
      <psa10 value="0.0070047572" flag="0"/>
      <psa30 value="0.0005419590" flag="0"/>
    </comp>
    <comp name="--.HHZ">
      <acc value="0.0043053684" flag="0"/>
      <vel value="0.0044597985" flag="0"/>
      <psa03 value="0.0070603665" flag="0"/>
      <psa10 value="0.0093763800" flag="0"/>
      <psa30 value="0.0006234103" flag="0"/>
    </comp>
    <comp name="--.HHE">
      <acc value="0.0054063097" flag="0"/>
      <vel value="0.0048886107" flag="0"/>
      <psa03 value="0.0079439861" flag="0"/>
      <psa10 value="0.0088281622" flag="0"/>
      <psa30 value="0.0010016551" flag="0"/>
    </comp>
  </station>
  <station code="THL" name="THL" netid="MN" insttype="" lat="39.5647" lon="22.0144">
    <comp name="--.HHZ">
      <acc value="0.0027355797" flag="0"/>
      <vel value="0.0038337986" flag="0"/>
      <psa03 value="0.0051939495" flag="0"/>
      <psa10 value="0.0055730039" flag="0"/>
      <psa30 value="0.0006633411" flag="0"/>
    </comp>
    <comp name="--.HHE">
      <acc value="0.0027167663" flag="0"/>
      <vel value="0.0026685452" flag="0"/>
      <psa03 value="0.0068087655" flag="0"/>
      <psa10 value="0.0036635573" flag="0"/>
      <psa30 value="0.0005962525" flag="0"/>
    </comp>
    <comp name="--.HHN">
      <acc value="0.0024529664" flag="0"/>
      <vel value="0.0019959521" flag="0"/>
      <psa03 value="0.0047753730" flag="0"/>
      <psa10 value="0.0043131421" flag="0"/>
      <psa30 value="0.0003459743" flag="0"/>
    </comp>
  </station>
</stationlist>
