<stationlist xmlns:esm="https://esm-db.eu/esmws/shakemap/1/" created="1780710897">
	<station code="EMCN" name="EMCN" netid="IV" source="Italian National Seismic Network (INSN)" insttype="" lat="37.7912" lon="15.0336" esm:processing="manual (Paolucci et al 2011)" esm:quality="good">
		<comp name="--.HNE" depth="0.0">
			<acc value="8.74963146739672" flag="0"/>
			<vel value="1.48830068725905" flag="0"/>
			<psa03 value="2.39330537421797" flag="0"/>
			<psa10 value="0.39189609292531" flag="0"/>
			<psa30 value="0.0363749665585887" flag="0"/>
		</comp>
		<comp name="--.HNN" depth="0.0">
			<acc value="10.8211247794036" flag="0"/>
			<vel value="2.3447651922296" flag="0"/>
			<psa03 value="6.0767075340672" flag="0"/>
			<psa10 value="0.472202537318247" flag="0"/>
			<psa30 value="0.0310367738869627" flag="0"/>
		</comp>
		<comp name="--.HNZ" depth="0.0">
			<acc value="6.82175254087039" flag="0"/>
			<vel value="1.24194463476557" flag="0"/>
			<psa03 value="2.41795833006464" flag="0"/>
			<psa10 value="0.239316667337746" flag="0"/>
			<psa30 value="0.0266055057434891" flag="0"/>
		</comp>
	</station>
	<station code="EVRN" name="EVRN" netid="IV" source="Italian National Seismic Network (INSN)" insttype="" lat="37.6892" lon="15.1356" esm:processing="manual (Paolucci et al 2011)" esm:quality="best">
		<comp name="--.HNE" depth="0.0">
			<acc value="1.033717066837" flag="0"/>
			<vel value="0.518530699484162" flag="0"/>
			<psa03 value="2.17800587597085" flag="0"/>
			<psa10 value="0.515079888764669" flag="0"/>
			<psa30 value="0.024041329882196" flag="0"/>
		</comp>
		<comp name="--.HNN" depth="0.0">
			<acc value="1.15056928136903" flag="0"/>
			<vel value="0.76346093806869" flag="0"/>
			<psa03 value="3.13101487694004" flag="0"/>
			<psa10 value="0.475903165227645" flag="0"/>
			<psa30 value="0.0491103882504136" flag="0"/>
		</comp>
		<comp name="--.HNZ" depth="0.0">
			<acc value="0.475372845144917" flag="0"/>
			<vel value="0.187744077100154" flag="0"/>
			<psa03 value="0.890548880530081" flag="0"/>
			<psa10 value="0.149635835814148" flag="0"/>
			<psa30 value="0.0115394625089185" flag="0"/>
		</comp>
	</station>
	<station code="GALF" name="GALF" netid="IV" source="Italian National Seismic Network (INSN)" insttype="" lat="37.7107" lon="14.5665" esm:processing="manual (Paolucci et al 2011)" esm:quality="good">
		<comp name="--.HNE" depth="0.0">
			<acc value="0.00795752830624894" flag="0"/>
			<vel value="0.00500125372083235" flag="0"/>
			<psa03 value="0.0203129618046954" flag="0"/>
			<psa10 value="0.00577040238755851" flag="0"/>
			<psa30 value="0.000452343708910727" flag="0"/>
		</comp>
		<comp name="--.HNN" depth="0.0">
			<acc value="0.00669149213293417" flag="0"/>
			<vel value="0.00508883339581727" flag="0"/>
			<psa03 value="0.0234449162679744" flag="0"/>
			<psa10 value="0.00883479611884394" flag="0"/>
			<psa30 value="0.000428630339403043" flag="0"/>
		</comp>
		<comp name="--.HNZ" depth="0.0">
			<acc value="0.00362079587143669" flag="0"/>
			<vel value="0.00224878750668958" flag="0"/>
			<psa03 value="0.0138700840516642" flag="0"/>
			<psa10 value="0.00304828653690285" flag="0"/>
			<psa30 value="0.00026845323970963" flag="0"/>
		</comp>
	</station>
	<station code="SSY" name="SSY" netid="IV" source="Italian National Seismic Network (INSN)" insttype="" lat="37.1577" lon="15.0737" esm:processing="manual (Paolucci et al 2011)" esm:quality="best">
		<comp name="--.HNE" depth="0.0">
			<acc value="0.0265892818099294" flag="0"/>
			<vel value="0.0127828691805019" flag="0"/>
			<psa03 value="0.0597308458353928" flag="0"/>
			<psa10 value="0.0104253815641235" flag="0"/>
			<psa30 value="0.00158745349081628" flag="0"/>
		</comp>
		<comp name="--.HNN" depth="0.0">
			<acc value="0.0309088048414733" flag="0"/>
			<vel value="0.0116687544454115" flag="0"/>
			<psa03 value="0.0709163974899607" flag="0"/>
			<psa10 value="0.00891533209075683" flag="0"/>
			<psa30 value="0.000842048328555874" flag="0"/>
		</comp>
		<comp name="--.HNZ" depth="0.0">
			<acc value="0.0210252831962718" flag="0"/>
			<vel value="0.00765423714728038" flag="0"/>
			<psa03 value="0.0491716850734807" flag="0"/>
			<psa10 value="0.00460263079482161" flag="0"/>
			<psa30 value="0.000967326507087035" flag="0"/>
		</comp>
	</station>
	<station code="CEL" name="CEL" netid="MN" source="Mediterranean Very Broadband Seismographic Network (MedNet)" insttype="" lat="38.2603" lon="15.8939" esm:processing="manual (Paolucci et al 2011)" esm:quality="best">
		<comp name="--.HNE" depth="0.0">
			<acc value="0.00318099622171351" flag="0"/>
			<vel value="0.00174818517791714" flag="0"/>
			<psa03 value="0.00577174465375706" flag="0"/>
			<psa10 value="0.00167917501438374" flag="0"/>
			<psa30 value="0.000451448864778362" flag="0"/>
		</comp>
		<comp name="--.HNN" depth="0.0">
			<acc value="0.00270098278359705" flag="0"/>
			<vel value="0.00174444626653352" flag="0"/>
			<psa03 value="0.00568226024052051" flag="0"/>
			<psa10 value="0.00322546567511121" flag="0"/>
			<psa30 value="0.000281428479628929" flag="0"/>
		</comp>
		<comp name="--.HNZ" depth="0.0">
			<acc value="0.00185325956811805" flag="0"/>
			<vel value="0.00139544899756873" flag="0"/>
			<psa03 value="0.00527958038095607" flag="0"/>
			<psa10 value="0.00198521170765272" flag="0"/>
			<psa30 value="0.000306036693268979" flag="0"/>
		</comp>
	</station>
</stationlist>
