<?xml version="1.0" encoding="UTF-8" standalone="yes"?>
<!DOCTYPE earthquake SYSTEM "stationlist.dtd">
<stationlist created="" xmlns="ch.ethz.sed.shakemap.usgs.xml">
  <station code="AIO" name="AIO" netid="IV" source="INGV" insttype="" lat="37.9712" lon="15.233">
    <comp name="--.HHE">
      <acc value="0.0484391509" flag="0"/>
      <vel value="0.0204473808" flag="0"/>
      <psa03 value="0.0854742751" flag="0"/>
      <psa10 value="0.0228437371" flag="0"/>
      <psa30 value="0.0034982007" flag="0"/>
    </comp>
    <comp name="--.HHN">
      <acc value="0.0565528206" flag="0"/>
      <vel value="0.0302991906" flag="0"/>
      <psa03 value="0.0975922424" flag="0"/>
      <psa10 value="0.0323194247" flag="0"/>
      <psa30 value="0.0030722123" flag="0"/>
    </comp>
    <comp name="--.HHZ">
      <acc value="0.0259035266" flag="0"/>
      <vel value="0.0158720680" flag="0"/>
      <psa03 value="0.0562785534" flag="0"/>
      <psa10 value="0.0171011160" flag="0"/>
      <psa30 value="0.0021213310" flag="0"/>
    </comp>
  </station>
  <station code="EMCN" name="EMCN" netid="IV" source="INGV" insttype="" lat="37.7912" lon="15.0336">
    <comp name="--.HNE">
      <acc value="8.9087184151" flag="0"/>
      <vel value="1.4831005090" flag="0"/>
      <psa03 value="2.3869684410" flag="0"/>
      <psa10 value="0.3912881925" flag="0"/>
      <psa30 value="0.0352690226" flag="0"/>
    </comp>
    <comp name="--.HNN">
      <acc value="11.0724579064" flag="0"/>
      <vel value="2.3322697048" flag="0"/>
      <psa03 value="6.0505856442" flag="0"/>
      <psa10 value="0.4719207894" flag="0"/>
      <psa30 value="0.0297692938" flag="0"/>
    </comp>
    <comp name="--.HNZ">
      <acc value="6.9054308388" flag="0"/>
      <vel value="1.2345290390" flag="0"/>
      <psa03 value="2.4086634282" flag="0"/>
      <psa10 value="0.2394156154" flag="0"/>
      <psa30 value="0.0243241678" flag="0"/>
    </comp>
  </station>
  <station code="EMSG" name="EMSG" netid="IV" source="INGV" insttype="" lat="37.8208" lon="14.9498">
    <comp name="--.HHE">
      <acc value="0.3378915261" flag="0"/>
      <vel value="0.1401015856" flag="0"/>
      <psa03 value="0.8614109848" flag="0"/>
      <psa10 value="0.2180743490" flag="0"/>
      <psa30 value="0.0198950152" flag="0"/>
    </comp>
    <comp name="--.HHN">
      <acc value="0.3522645554" flag="0"/>
      <vel value="0.1209624738" flag="0"/>
      <psa03 value="0.7965532776" flag="0"/>
      <psa10 value="0.1357199512" flag="0"/>
      <psa30 value="0.0160992353" flag="0"/>
    </comp>
    <comp name="--.HHZ">
      <acc value="0.3431633226" flag="0"/>
      <vel value="0.1191769460" flag="0"/>
      <psa03 value="0.6891137102" flag="0"/>
      <psa10 value="0.0787387633" flag="0"/>
      <psa30 value="0.0093753233" flag="0"/>
    </comp>
  </station>
  <station code="EPOZ" name="EPOZ" netid="IV" source="INGV" insttype="" lat="37.6719" lon="15.1885">
    <comp name="--.HHE">
      <acc value="1.1169276803" flag="0"/>
      <vel value="0.6672657512" flag="0"/>
      <psa03 value="1.8952862168" flag="0"/>
      <psa10 value="0.7520774073" flag="0"/>
      <psa30 value="0.0450913073" flag="0"/>
    </comp>
    <comp name="--.HHN">
      <acc value="1.1489914623" flag="0"/>
      <vel value="0.6261927596" flag="0"/>
      <psa03 value="2.3609319117" flag="0"/>
      <psa10 value="1.1157199598" flag="0"/>
      <psa30 value="0.0893373506" flag="0"/>
    </comp>
    <comp name="--.HHZ">
      <acc value="0.5786752054" flag="0"/>
      <vel value="0.3424659396" flag="0"/>
      <psa03 value="1.7626058150" flag="0"/>
      <psa10 value="0.1877657228" flag="0"/>
      <psa30 value="0.0319728556" flag="0"/>
    </comp>
  </station>
  <station code="EPZF" name="EPZF" netid="IV" source="INGV" insttype="" lat="37.824" lon="14.857">
    <comp name="--.HHE">
      <acc value="0.0718173971" flag="0"/>
      <vel value="0.0504539096" flag="0"/>
      <psa03 value="0.2333695081" flag="0"/>
      <psa10 value="0.0619431586" flag="0"/>
      <psa30 value="0.0068106934" flag="0"/>
    </comp>
    <comp name="--.HHN">
      <acc value="0.1191713981" flag="0"/>
      <vel value="0.0681129081" flag="0"/>
      <psa03 value="0.2608538709" flag="0"/>
      <psa10 value="0.0952017741" flag="0"/>
      <psa30 value="0.0072418861" flag="0"/>
    </comp>
    <comp name="--.HHZ">
      <acc value="0.0493657471" flag="0"/>
      <vel value="0.0410756424" flag="0"/>
      <psa03 value="0.0935648392" flag="0"/>
      <psa10 value="0.0379067403" flag="0"/>
      <psa30 value="0.0096128195" flag="0"/>
    </comp>
  </station>
  <station code="ESLN" name="ESLN" netid="IV" source="INGV" insttype="" lat="37.6934" lon="14.9744">
    <comp name="--.HHE">
      <acc value="1.0617704193" flag="0"/>
      <vel value="0.4676445087" flag="0"/>
      <psa03 value="1.8362049279" flag="0"/>
      <psa10 value="0.3948747544" flag="0"/>
      <psa30 value="0.0383798382" flag="0"/>
    </comp>
    <comp name="--.HHN">
      <acc value="1.0061015088" flag="0"/>
      <vel value="0.4583247569" flag="0"/>
      <psa03 value="2.3740174243" flag="0"/>
      <psa10 value="0.4857136701" flag="0"/>
      <psa30 value="0.0395374659" flag="0"/>
    </comp>
    <comp name="--.HHZ">
      <acc value="1.1425384573" flag="0"/>
      <vel value="0.4042461296" flag="0"/>
      <psa03 value="1.3962108450" flag="0"/>
      <psa10 value="0.3111405453" flag="0"/>
      <psa30 value="0.0284762156" flag="0"/>
    </comp>
  </station>
  <station code="ESML" name="ESML" netid="IV" source="INGV" insttype="" lat="37.6181" lon="14.8794">
    <comp name="--.HHE">
      <acc value="0.3318395140" flag="0"/>
      <vel value="0.1709902401" flag="0"/>
      <psa03 value="0.7522514045" flag="0"/>
      <psa10 value="0.1499554696" flag="0"/>
      <psa30 value="0.0139429617" flag="0"/>
    </comp>
    <comp name="--.HHN">
      <acc value="0.3046157201" flag="0"/>
      <vel value="0.1998054762" flag="0"/>
      <psa03 value="0.5122173995" flag="0"/>
      <psa10 value="0.1192723334" flag="0"/>
      <psa30 value="0.0108959509" flag="0"/>
    </comp>
    <comp name="--.HHZ">
      <acc value="0.2544116831" flag="0"/>
      <vel value="0.1302415191" flag="0"/>
      <psa03 value="0.6520387110" flag="0"/>
      <psa10 value="0.0789775460" flag="0"/>
      <psa30 value="0.0128215236" flag="0"/>
    </comp>
  </station>
  <station code="EVRN" name="EVRN" netid="IV" source="INGV" insttype="" lat="37.6892" lon="15.1356">
    <comp name="--.HNE">
      <acc value="1.0297281646" flag="0"/>
      <vel value="0.5204463721" flag="0"/>
      <psa03 value="2.1830998244" flag="0"/>
      <psa10 value="0.5147563911" flag="0"/>
      <psa30 value="0.0223776021" flag="0"/>
    </comp>
    <comp name="--.HNN">
      <acc value="1.1528967305" flag="0"/>
      <vel value="0.7488970828" flag="0"/>
      <psa03 value="3.1320087385" flag="0"/>
      <psa10 value="0.4778787802" flag="0"/>
      <psa30 value="0.0479558024" flag="0"/>
    </comp>
    <comp name="--.HNZ">
      <acc value="0.4735751919" flag="0"/>
      <vel value="0.1892502270" flag="0"/>
      <psa03 value="0.8921641985" flag="0"/>
      <psa10 value="0.1498315459" flag="0"/>
      <psa30 value="0.0107090893" flag="0"/>
    </comp>
  </station>
  <station code="GALF" name="GALF" netid="IV" source="INGV" insttype="" lat="37.7107" lon="14.5665">
    <comp name="--.HHE">
      <acc value="0.0593385584" flag="0"/>
      <vel value="0.0366044705" flag="0"/>
      <psa03 value="0.1456749270" flag="0"/>
      <psa10 value="0.0546759813" flag="0"/>
      <psa30 value="0.0031369494" flag="0"/>
    </comp>
    <comp name="--.HHN">
      <acc value="0.0526955945" flag="0"/>
      <vel value="0.0426531448" flag="0"/>
      <psa03 value="0.2075782983" flag="0"/>
      <psa10 value="0.0741651076" flag="0"/>
      <psa30 value="0.0027529354" flag="0"/>
    </comp>
    <comp name="--.HHZ">
      <acc value="0.0283455747" flag="0"/>
      <vel value="0.0188800146" flag="0"/>
      <psa03 value="0.1141466722" flag="0"/>
      <psa10 value="0.0253008068" flag="0"/>
      <psa30 value="0.0018889168" flag="0"/>
    </comp>
  </station>
  <station code="HAGA" name="HAGA" netid="IV" source="INGV" insttype="" lat="37.285" lon="15.155">
    <comp name="--.HHE">
      <acc value="0.0153240262" flag="0"/>
      <vel value="0.0063041445" flag="0"/>
      <psa03 value="0.0197478954" flag="0"/>
      <psa10 value="0.0071199342" flag="0"/>
      <psa30 value="0.0007007744" flag="0"/>
    </comp>
    <comp name="--.HHN">
      <acc value="0.0187417880" flag="0"/>
      <vel value="0.0074963525" flag="0"/>
      <psa03 value="0.0264624216" flag="0"/>
      <psa10 value="0.0088682973" flag="0"/>
      <psa30 value="0.0008224620" flag="0"/>
    </comp>
    <comp name="--.HHZ">
      <acc value="0.0138007199" flag="0"/>
      <vel value="0.0037886817" flag="0"/>
      <psa03 value="0.0175886500" flag="0"/>
      <psa10 value="0.0044774511" flag="0"/>
      <psa30 value="0.0006576359" flag="0"/>
    </comp>
  </station>
  <station code="HLNI" name="HLNI" netid="IV" source="INGV" insttype="" lat="37.3485" lon="14.872">
    <comp name="--.HHE">
      <acc value="0.0236099160" flag="0"/>
      <vel value="0.0062859529" flag="0"/>
      <psa03 value="0.0349202996" flag="0"/>
      <psa10 value="0.0050719127" flag="0"/>
      <psa30 value="0.0016223255" flag="0"/>
    </comp>
    <comp name="--.HHN">
      <acc value="0.0244261922" flag="0"/>
      <vel value="0.0077082663" flag="0"/>
      <psa03 value="0.0345046694" flag="0"/>
      <psa10 value="0.0042041087" flag="0"/>
      <psa30 value="0.0009332262" flag="0"/>
    </comp>
    <comp name="--.HHZ">
      <acc value="0.0158881755" flag="0"/>
      <vel value="0.0039588562" flag="0"/>
      <psa03 value="0.0239506644" flag="0"/>
      <psa10 value="0.0062811154" flag="0"/>
      <psa30 value="0.0013719971" flag="0"/>
    </comp>
  </station>
  <station code="HPAC" name="HPAC" netid="IV" source="INGV" insttype="" lat="36.7085" lon="15.0372">
    <comp name="--.HHE">
      <acc value="0.0109671715" flag="0"/>
      <vel value="0.0047061400" flag="0"/>
      <psa03 value="0.0212574033" flag="0"/>
      <psa10 value="0.0083868560" flag="0"/>
      <psa30 value="0.0004702305" flag="0"/>
    </comp>
    <comp name="--.HHN">
      <acc value="0.0131006517" flag="0"/>
      <vel value="0.0057622940" flag="0"/>
      <psa03 value="0.0339946786" flag="0"/>
      <psa10 value="0.0054069443" flag="0"/>
      <psa30 value="0.0004565769" flag="0"/>
    </comp>
    <comp name="--.HHZ">
      <acc value="0.0075448240" flag="0"/>
      <vel value="0.0031440194" flag="0"/>
      <psa03 value="0.0164883540" flag="0"/>
      <psa10 value="0.0039339776" flag="0"/>
      <psa30 value="0.0004712862" flag="0"/>
    </comp>
  </station>
  <station code="IVPL" name="IVPL" netid="IV" source="INGV" insttype="" lat="38.3763" lon="14.9801">
    <comp name="--.HHE">
      <acc value="0.0131663980" flag="0"/>
      <vel value="0.0101100485" flag="0"/>
      <psa03 value="0.0457870585" flag="0"/>
      <psa10 value="0.0150818621" flag="0"/>
      <psa30 value="0.0008010280" flag="0"/>
    </comp>
    <comp name="--.HHN">
      <acc value="0.0156312343" flag="0"/>
      <vel value="0.0117373943" flag="0"/>
      <psa03 value="0.0366069689" flag="0"/>
      <psa10 value="0.0226923876" flag="0"/>
      <psa30 value="0.0008468504" flag="0"/>
    </comp>
    <comp name="--.HHZ">
      <acc value="0.0108116118" flag="0"/>
      <vel value="0.0075888335" flag="0"/>
      <psa03 value="0.0379017124" flag="0"/>
      <psa10 value="0.0063092250" flag="0"/>
      <psa30 value="0.0003811226" flag="0"/>
    </comp>
  </station>
  <station code="MPNC" name="MPNC" netid="IV" source="INGV" insttype="" lat="38.1465" lon="15.3528">
    <comp name="--.HHE">
      <acc value="0.0261845832" flag="0"/>
      <vel value="0.0197556706" flag="0"/>
      <psa03 value="0.0547983445" flag="0"/>
      <psa10 value="0.0399359425" flag="0"/>
      <psa30 value="0.0025668397" flag="0"/>
    </comp>
    <comp name="--.HHN">
      <acc value="0.0293166912" flag="0"/>
      <vel value="0.0159243992" flag="0"/>
      <psa03 value="0.0770701919" flag="0"/>
      <psa10 value="0.0274721831" flag="0"/>
      <psa30 value="0.0017522422" flag="0"/>
    </comp>
    <comp name="--.HHZ">
      <acc value="0.0132686919" flag="0"/>
      <vel value="0.0094813202" flag="0"/>
      <psa03 value="0.0388815025" flag="0"/>
      <psa10 value="0.0159720687" flag="0"/>
      <psa30 value="0.0010718055" flag="0"/>
    </comp>
  </station>
  <station code="MSRU" name="MSRU" netid="IV" source="INGV" insttype="" lat="38.2639" lon="15.5083">
    <comp name="--.HHE">
      <acc value="0.0149827767" flag="0"/>
      <vel value="0.0093536110" flag="0"/>
      <psa03 value="0.0409702929" flag="0"/>
      <psa10 value="0.0091968396" flag="0"/>
      <psa30 value="0.0015722506" flag="0"/>
    </comp>
    <comp name="--.HHN">
      <acc value="0.0087961265" flag="0"/>
      <vel value="0.0046431179" flag="0"/>
      <psa03 value="0.0289562782" flag="0"/>
      <psa10 value="0.0071005932" flag="0"/>
      <psa30 value="0.0012624688" flag="0"/>
    </comp>
    <comp name="--.HHZ">
      <acc value="0.0057722568" flag="0"/>
      <vel value="0.0032103974" flag="0"/>
      <psa03 value="0.0197185159" flag="0"/>
      <psa10 value="0.0035911979" flag="0"/>
      <psa30 value="0.0005718264" flag="0"/>
    </comp>
  </station>
  <station code="MTTG" name="MTTG" netid="IV" source="INGV" insttype="" lat="38.0031" lon="15.6999">
    <comp name="--.HHE">
      <acc value="0.0063932353" flag="0"/>
      <vel value="0.0075504516" flag="0"/>
      <psa03 value="0.0115040624" flag="0"/>
      <psa10 value="0.0125937164" flag="0"/>
      <psa30 value="0.0005333987" flag="0"/>
    </comp>
    <comp name="--.HHN">
      <acc value="0.0062378894" flag="0"/>
      <vel value="0.0065150356" flag="0"/>
      <psa03 value="0.0115166066" flag="0"/>
      <psa10 value="0.0147246666" flag="0"/>
      <psa30 value="0.0006713266" flag="0"/>
    </comp>
    <comp name="--.HHZ">
      <acc value="0.0031657382" flag="0"/>
      <vel value="0.0027836073" flag="0"/>
      <psa03 value="0.0072645163" flag="0"/>
      <psa10 value="0.0054816086" flag="0"/>
      <psa30 value="0.0003788599" flag="0"/>
    </comp>
  </station>
  <station code="MUCR" name="MUCR" netid="IV" source="INGV" insttype="" lat="38.043" lon="14.8739">
    <comp name="--.HHE">
      <acc value="0.0196190978" flag="0"/>
      <vel value="0.0145215391" flag="0"/>
      <psa03 value="0.0437098721" flag="0"/>
      <psa10 value="0.0093222963" flag="0"/>
      <psa30 value="0.0035859454" flag="0"/>
    </comp>
    <comp name="--.HHN">
      <acc value="0.0159285064" flag="0"/>
      <vel value="0.0146905168" flag="0"/>
      <psa03 value="0.0334296858" flag="0"/>
      <psa10 value="0.0208393928" flag="0"/>
      <psa30 value="0.0023277626" flag="0"/>
    </comp>
    <comp name="--.HHZ">
      <acc value="0.0094669275" flag="0"/>
      <vel value="0.0069004802" flag="0"/>
      <psa03 value="0.0241243034" flag="0"/>
      <psa10 value="0.0094623129" flag="0"/>
      <psa30 value="0.0011717233" flag="0"/>
    </comp>
  </station>
  <station code="NOV" name="NOV" netid="IV" source="INGV" insttype="" lat="38.0286" lon="15.1356">
    <comp name="--.HHE">
      <acc value="0.1368708547" flag="0"/>
      <vel value="0.0877608473" flag="0"/>
      <psa03 value="0.4076497442" flag="0"/>
      <psa10 value="0.0569660013" flag="0"/>
      <psa30 value="0.0094577041" flag="0"/>
    </comp>
    <comp name="--.HHN">
      <acc value="0.1028350052" flag="0"/>
      <vel value="0.0558705604" flag="0"/>
      <psa03 value="0.3326317184" flag="0"/>
      <psa10 value="0.0799398621" flag="0"/>
      <psa30 value="0.0055718534" flag="0"/>
    </comp>
    <comp name="--.HHZ">
      <acc value="0.0660934831" flag="0"/>
      <vel value="0.0396092270" flag="0"/>
      <psa03 value="0.2052640038" flag="0"/>
      <psa10 value="0.0581872964" flag="0"/>
      <psa30 value="0.0052394367" flag="0"/>
    </comp>
  </station>
  <station code="RAFF" name="RAFF" netid="IV" source="INGV" insttype="" lat="37.2225" lon="14.3624">
    <comp name="--.HHE">
      <acc value="0.0268432172" flag="0"/>
      <vel value="0.0135898350" flag="0"/>
      <psa03 value="0.0679279221" flag="0"/>
      <psa10 value="0.0068092602" flag="0"/>
      <psa30 value="0.0005380191" flag="0"/>
    </comp>
    <comp name="--.HHN">
      <acc value="0.0167010330" flag="0"/>
      <vel value="0.0099106266" flag="0"/>
      <psa03 value="0.0416553310" flag="0"/>
      <psa10 value="0.0049861901" flag="0"/>
      <psa30 value="0.0007203368" flag="0"/>
    </comp>
    <comp name="--.HHZ">
      <acc value="0.0107644328" flag="0"/>
      <vel value="0.0061215308" flag="0"/>
      <psa03 value="0.0339209166" flag="0"/>
      <psa10 value="0.0044297474" flag="0"/>
      <psa30 value="0.0003732370" flag="0"/>
    </comp>
  </station>
  <station code="SSY" name="SSY" netid="IV" source="INGV" insttype="" lat="37.1577" lon="15.0737">
    <comp name="--.HHE">
      <acc value="0.0768987861" flag="0"/>
      <vel value="0.0313957907" flag="0"/>
      <psa03 value="0.1247223557" flag="0"/>
      <psa10 value="0.0291042770" flag="0"/>
      <psa30 value="0.0019906723" flag="0"/>
    </comp>
    <comp name="--.HHN">
      <acc value="0.0900290299" flag="0"/>
      <vel value="0.0393429747" flag="0"/>
      <psa03 value="0.2226007411" flag="0"/>
      <psa10 value="0.0158109205" flag="0"/>
      <psa30 value="0.0032900936" flag="0"/>
    </comp>
    <comp name="--.HHZ">
      <acc value="0.0597559228" flag="0"/>
      <vel value="0.0203900164" flag="0"/>
      <psa03 value="0.1278994270" flag="0"/>
      <psa10 value="0.0118653166" flag="0"/>
      <psa30 value="0.0022243056" flag="0"/>
    </comp>
  </station>
  <station code="CEL" name="CEL" netid="MN" source="INGV" insttype="" lat="38.2603" lon="15.8939">
    <comp name="--.HHE">
      <acc value="0.0039253479" flag="0"/>
      <vel value="0.0020636891" flag="0"/>
      <psa03 value="0.0071003196" flag="0"/>
      <psa10 value="0.0020644185" flag="0"/>
      <psa30 value="0.0004484752" flag="0"/>
    </comp>
    <comp name="--.HHN">
      <acc value="0.0033757356" flag="0"/>
      <vel value="0.0021042892" flag="0"/>
      <psa03 value="0.0072805104" flag="0"/>
      <psa10 value="0.0039304071" flag="0"/>
      <psa30 value="0.0003005297" flag="0"/>
    </comp>
    <comp name="--.HHZ">
      <acc value="0.0023212351" flag="0"/>
      <vel value="0.0016882434" flag="0"/>
      <psa03 value="0.0065572431" flag="0"/>
      <psa10 value="0.0024535294" flag="0"/>
      <psa30 value="0.0003029264" flag="0"/>
    </comp>
  </station>
</stationlist>
