<stationlist created="1775161531">
	<station code="CAME" name="CAME" netid="KO" source="Bogazici University Kandilli Observatory And Earthquake Research Institute (KOERI)" insttype="" lat="36.9435" lon="29.3023">
		<comp name="--.HNE" depth="0.0">
			<acc value="0.0036100308940309" flag="0"/>
			<vel value="0.00313235331000717" flag="0"/>
			<psa03 value="0.0114142066560063" flag="0"/>
			<psa10 value="0.00773069274545411" flag="0"/>
			<psa30 value="0.000286467570820657" flag="0"/>
		</comp>
		<comp name="--.HNN" depth="0.0">
			<acc value="0.00563789429079893" flag="0"/>
			<vel value="0.00297066792835157" flag="0"/>
			<psa03 value="0.0173009651144468" flag="0"/>
			<psa10 value="0.00490850469559639" flag="0"/>
			<psa30 value="0.000348053603718088" flag="0"/>
		</comp>
		<comp name="--.HNZ" depth="0.0">
			<acc value="0.00352156487827929" flag="0"/>
			<vel value="0.00251761264859469" flag="0"/>
			<psa03 value="0.0151173582216234" flag="0"/>
			<psa10 value="0.00351752137790319" flag="0"/>
			<psa30 value="0.000547951872038981" flag="0"/>
		</comp>
	</station>
	<station code="DEMR" name="DEMR" netid="KO" source="Bogazici University Kandilli Observatory And Earthquake Research Institute (KOERI)" insttype="" lat="36.2365" lon="29.9056">
		<comp name="--.HNE" depth="0.0">
			<acc value="0.0324892619143369" flag="0"/>
			<vel value="0.00930437039645363" flag="0"/>
			<psa03 value="0.0494223573219536" flag="0"/>
			<psa10 value="0.00518626309572723" flag="0"/>
			<psa30 value="0.000611134390904105" flag="0"/>
		</comp>
		<comp name="--.HNN" depth="0.0">
			<acc value="0.0282528662938639" flag="0"/>
			<vel value="0.00768774230005113" flag="0"/>
			<psa03 value="0.0481579766879418" flag="0"/>
			<psa10 value="0.00627306634110848" flag="0"/>
			<psa30 value="0.000757167971162101" flag="0"/>
		</comp>
		<comp name="--.HNZ" depth="0.0">
			<acc value="0.0300224569849948" flag="0"/>
			<vel value="0.00725151680264051" flag="0"/>
			<psa03 value="0.0486555200644153" flag="0"/>
			<psa10 value="0.00444277165556819" flag="0"/>
			<psa30 value="0.000751315500131285" flag="0"/>
		</comp>
	</station>
	<station code="FETI" name="FETI" netid="KO" source="Bogazici University Kandilli Observatory And Earthquake Research Institute (KOERI)" insttype="" lat="36.6903" lon="29.096">
		<comp name="--.HNE" depth="0.0">
			<acc value="0.00633631440240986" flag="0"/>
			<vel value="0.00265583657161578" flag="0"/>
			<psa03 value="0.00971658898883396" flag="0"/>
			<psa10 value="0.0035878479116909" flag="0"/>
			<psa30 value="0.000440216558019831" flag="0"/>
		</comp>
		<comp name="--.HNN" depth="0.0">
			<acc value="0.00285451766793846" flag="0"/>
			<vel value="0.00225833303756816" flag="0"/>
			<psa03 value="0.00656637574537536" flag="0"/>
			<psa10 value="0.00204959866647775" flag="0"/>
			<psa30 value="0.000426162944745257" flag="0"/>
		</comp>
		<comp name="--.HNZ" depth="0.0">
			<acc value="0.022509025044577" flag="0"/>
			<vel value="0.00283465063468284" flag="0"/>
			<psa03 value="0.00888731400135258" flag="0"/>
			<psa10 value="0.00311163878704851" flag="0"/>
			<psa30 value="0.000725740420491108" flag="0"/>
		</comp>
	</station>
	<station code="KEMT" name="KEMT" netid="KO" source="Bogazici University Kandilli Observatory And Earthquake Research Institute (KOERI)" insttype="" lat="36.6037" lon="30.5558">
		<comp name="--.HNE" depth="0.0">
			<acc value="0.0794616937002589" flag="0"/>
			<vel value="0.0367873837743557" flag="0"/>
			<psa03 value="0.24876100002873" flag="0"/>
			<psa10 value="0.021813402530863" flag="0"/>
			<psa30 value="0.00118404593723235" flag="0"/>
		</comp>
		<comp name="--.HNN" depth="0.0">
			<acc value="0.0297149791827139" flag="0"/>
			<vel value="0.0442220100282484" flag="0"/>
			<psa03 value="0.0574661558091264" flag="0"/>
			<psa10 value="0.0435218056060274" flag="0"/>
			<psa30 value="0.0227844276898476" flag="0"/>
		</comp>
		<comp name="--.HNZ" depth="0.0">
			<acc value="0.0351523125766195" flag="0"/>
			<vel value="0.0119944443671245" flag="0"/>
			<psa03 value="0.0484761956850553" flag="0"/>
			<psa10 value="0.00922685717150454" flag="0"/>
			<psa30 value="0.00077127880176871" flag="0"/>
		</comp>
	</station>
	<station code="MNVG" name="MNVG" netid="KO" source="Bogazici University Kandilli Observatory And Earthquake Research Institute (KOERI)" insttype="" lat="36.7935" lon="31.4161">
		<comp name="--.HNE" depth="0.0">
			<acc value="0.00723300008963826" flag="0"/>
			<vel value="0.00344214547988435" flag="0"/>
			<psa03 value="0.0154649567691545" flag="0"/>
			<psa10 value="0.00380271417677646" flag="0"/>
			<psa30 value="0.00062272203352856" flag="0"/>
		</comp>
		<comp name="--.HNN" depth="0.0">
			<acc value="0.00695464191245101" flag="0"/>
			<vel value="0.00307543257897822" flag="0"/>
			<psa03 value="0.0155632210911836" flag="0"/>
			<psa10 value="0.00430490830404775" flag="0"/>
			<psa30 value="0.000564488957123041" flag="0"/>
		</comp>
		<comp name="--.HNZ" depth="0.0">
			<acc value="0.0118274305375973" flag="0"/>
			<vel value="0.00193512852433922" flag="0"/>
			<psa03 value="0.0124102505036062" flag="0"/>
			<psa10 value="0.0018997626468268" flag="0"/>
			<psa30 value="0.00062084659679008" flag="0"/>
		</comp>
	</station>
</stationlist>
