<?xml version="1.0" encoding="UTF-8" standalone="yes"?>
<!DOCTYPE earthquake SYSTEM "stationlist.dtd">
<stationlist created="" xmlns="ch.ethz.sed.shakemap.usgs.xml">
  <station code="DARE" name="DARE" netid="KO" insttype="CMG-3ESP" lat="38.5712" lon="37.4832">
    <comp name="--.HHE">
      <acc value="0.0065944401" flag="0"/>
      <vel value="0.0056113880" flag="0"/>
      <psa03 value="0.0177486142" flag="0"/>
      <psa10 value="0.0082465529" flag="0"/>
      <psa30 value="0.0004824236" flag="0"/>
    </comp>
    <comp name="--.HHN">
      <acc value="0.0054286563" flag="0"/>
      <vel value="0.0042117058" flag="0"/>
      <psa03 value="0.0227264570" flag="0"/>
      <psa10 value="0.0072886100" flag="0"/>
      <psa30 value="0.0004069123" flag="0"/>
    </comp>
    <comp name="--.HHZ">
      <acc value="0.0051050888" flag="0"/>
      <vel value="0.0026386517" flag="0"/>
      <psa03 value="0.0167808705" flag="0"/>
      <psa10 value="0.0056480455" flag="0"/>
      <psa30 value="0.0002742630" flag="0"/>
    </comp>
  </station>
  <station code="GAZ" name="GAZ" netid="KO" insttype="CMG-3T" lat="37.1721" lon="37.2096">
    <comp name="--.HHE">
      <acc value="0.0353169905" flag="0"/>
      <vel value="0.0071109611" flag="0"/>
      <psa03 value="0.0395839851" flag="0"/>
      <psa10 value="0.0085977048" flag="0"/>
      <psa30 value="0.0009561775" flag="0"/>
    </comp>
    <comp name="--.HHN">
      <acc value="0.0233153840" flag="0"/>
      <vel value="0.0055392654" flag="0"/>
      <psa03 value="0.0194923923" flag="0"/>
      <psa10 value="0.0068338381" flag="0"/>
      <psa30 value="0.0006088049" flag="0"/>
    </comp>
    <comp name="--.HHZ">
      <acc value="0.0198912133" flag="0"/>
      <vel value="0.0043683856" flag="0"/>
      <psa03 value="0.0253172342" flag="0"/>
      <psa10 value="0.0054029707" flag="0"/>
      <psa30 value="0.0008474018" flag="0"/>
    </comp>
  </station>
  <station code="KMRS" name="KMRS" netid="KO" insttype="CMG-3T" lat="37.5087" lon="36.9">
    <comp name="--.HHN">
      <acc value="0.0117128572" flag="0"/>
      <vel value="0.0060690032" flag="0"/>
      <psa03 value="0.0212084831" flag="0"/>
      <psa10 value="0.0064323149" flag="0"/>
      <psa30 value="0.0009005262" flag="0"/>
    </comp>
    <comp name="--.HHZ">
      <acc value="0.0072608457" flag="0"/>
      <vel value="0.0043650415" flag="0"/>
      <psa03 value="0.0180094402" flag="0"/>
      <psa10 value="0.0042591371" flag="0"/>
      <psa30 value="0.0005058540" flag="0"/>
    </comp>
    <comp name="--.HHE">
      <acc value="0.0098380691" flag="0"/>
      <vel value="0.0033037622" flag="0"/>
      <psa03 value="0.0161524561" flag="0"/>
      <psa10 value="0.0049002413" flag="0"/>
      <psa30 value="0.0004688078" flag="0"/>
    </comp>
  </station>
  <station code="URFA" name="URFA" netid="KO" insttype="CMG-3ESP" lat="37.4409" lon="38.8213">
    <comp name="--.HHE">
      <acc value="0.0736146919" flag="0"/>
      <vel value="0.0177720715" flag="0"/>
      <psa03 value="0.0594724642" flag="0"/>
      <psa10 value="0.0102692638" flag="0"/>
      <psa30 value="0.0004196473" flag="0"/>
    </comp>
    <comp name="--.HHN">
      <acc value="0.0504159113" flag="0"/>
      <vel value="0.0145892327" flag="0"/>
      <psa03 value="0.0522689844" flag="0"/>
      <psa10 value="0.0099483067" flag="0"/>
      <psa30 value="0.0008366886" flag="0"/>
    </comp>
    <comp name="--.HHZ">
      <acc value="0.0371334874" flag="0"/>
      <vel value="0.0080137928" flag="0"/>
      <psa03 value="0.0334783946" flag="0"/>
      <psa10 value="0.0045997513" flag="0"/>
      <psa30 value="0.0004718265" flag="0"/>
    </comp>
  </station>
  <station code="ANDN" name="ANDN" netid="TU" insttype="T" lat="37.58" lon="36.3452">
    <comp name="--.HHZ">
      <acc value="0.0128728984" flag="0"/>
      <vel value="0.0070633626" flag="0"/>
      <psa03 value="0.0254584978" flag="0"/>
      <psa10 value="0.0103872147" flag="0"/>
      <psa30 value="0.0006938876" flag="0"/>
    </comp>
    <comp name="--.HHE">
      <acc value="0.0284298177" flag="0"/>
      <vel value="0.0096080733" flag="0"/>
      <psa03 value="0.0532461263" flag="0"/>
      <psa10 value="0.0159536154" flag="0"/>
      <psa30 value="0.0010111995" flag="0"/>
    </comp>
    <comp name="--.HHN">
      <acc value="0.0379366121" flag="0"/>
      <vel value="0.0133777009" flag="0"/>
      <psa03 value="0.0820134302" flag="0"/>
      <psa10 value="0.0167999437" flag="0"/>
      <psa30 value="0.0010304464" flag="0"/>
    </comp>
  </station>
</stationlist>
