<?xml version="1.0" encoding="UTF-8" standalone="yes"?>
<!DOCTYPE earthquake SYSTEM "stationlist.dtd">
<stationlist created="" xmlns="ch.ethz.sed.shakemap.usgs.xml">
  <station code="KARO" name="KARO" netid="KO" insttype="120s," lat="39.3089" lon="41.0493">
    <comp name="--.HHE">
      <acc value="0.0359288086" flag="0"/>
      <vel value="0.0256142921" flag="0"/>
      <psa03 value="0.1398134287" flag="0"/>
      <psa10 value="0.0412671296" flag="0"/>
      <psa30 value="0.0090818214" flag="0"/>
    </comp>
    <comp name="--.HHZ">
      <acc value="0.0156786354" flag="0"/>
      <vel value="0.0102681778" flag="0"/>
      <psa03 value="0.0372596351" flag="0"/>
      <psa10 value="0.0138097571" flag="0"/>
      <psa30 value="0.0043543809" flag="0"/>
    </comp>
    <comp name="--.HHN">
      <acc value="0.0331594869" flag="0"/>
      <vel value="0.0236870861" flag="0"/>
      <psa03 value="0.0764779631" flag="0"/>
      <psa10 value="0.0405612167" flag="0"/>
      <psa30 value="0.0057073848" flag="0"/>
    </comp>
  </station>
</stationlist>
