<?xml version="1.0" encoding="UTF-8" standalone="yes"?>
<!DOCTYPE earthquake SYSTEM "stationlist.dtd">
<stationlist created="" xmlns="ch.ethz.sed.shakemap.usgs.xml">
  <station code="ARR" name="ARR" netid="RO" insttype="w/attenuator" lat="45.3657" lon="24.6332">
    <comp name="--.HHE">
      <acc value="0.0077350885" flag="0"/>
      <vel value="0.0024045950" flag="0"/>
      <psa03 value="0.0143088696" flag="0"/>
      <psa10 value="0.0013382566" flag="0"/>
      <psa30 value="0.0000921887" flag="0"/>
    </comp>
  </station>
  <station code="CRAR" name="CRAR" netid="RO" insttype="MBB2/Quanterra" lat="44.325" lon="23.7999">
    <comp name="--.HHE">
      <acc value="0.0667669151" flag="0"/>
      <vel value="0.0244166923" flag="0"/>
      <psa03 value="0.1123000977" flag="0"/>
      <psa10 value="0.0080151920" flag="0"/>
      <psa30 value="0.0007730619" flag="0"/>
    </comp>
    <comp name="--.HHN">
      <acc value="0.0438805131" flag="0"/>
      <vel value="0.0156939770" flag="0"/>
      <psa03 value="0.0974503676" flag="0"/>
      <psa10 value="0.0137795478" flag="0"/>
      <psa30 value="0.0008487351" flag="0"/>
    </comp>
    <comp name="--.HHZ">
      <acc value="0.0347665120" flag="0"/>
      <vel value="0.0079327666" flag="0"/>
      <psa03 value="0.0305602032" flag="0"/>
      <psa10 value="0.0026762690" flag="0"/>
      <psa30 value="0.0002840068" flag="0"/>
    </comp>
  </station>
  <station code="DEV" name="DEV" netid="RO" insttype="CMG40T.1to100/Quanterra" lat="45.887" lon="22.898">
    <comp name="--.HHE">
      <acc value="0.1025113457" flag="0"/>
      <vel value="0.0255710759" flag="0"/>
      <psa03 value="0.0591041012" flag="0"/>
      <psa10 value="0.0066319315" flag="0"/>
      <psa30 value="0.0003347979" flag="0"/>
    </comp>
    <comp name="--.HHN">
      <acc value="0.0747503524" flag="0"/>
      <vel value="0.0192217974" flag="0"/>
      <psa03 value="0.1010487060" flag="0"/>
      <psa10 value="0.0045196570" flag="0"/>
      <psa30 value="0.0004316566" flag="0"/>
    </comp>
    <comp name="--.HHZ">
      <acc value="0.0630000542" flag="0"/>
      <vel value="0.0147254401" flag="0"/>
      <psa03 value="0.0525200010" flag="0"/>
      <psa10 value="0.0028097233" flag="0"/>
      <psa30 value="0.0003001482" flag="0"/>
    </comp>
  </station>
  <station code="GZR" name="GZR" netid="RO" insttype="330" lat="45.3933" lon="22.7767">
    <comp name="--.HHN">
      <acc value="0.3150678326" flag="0"/>
      <vel value="0.0623767861" flag="0"/>
      <psa03 value="0.2219420283" flag="0"/>
      <psa10 value="0.0103972706" flag="0"/>
      <psa30 value="0.0009784054" flag="0"/>
    </comp>
    <comp name="--.HHZ">
      <acc value="0.2134106099" flag="0"/>
      <vel value="0.0403884567" flag="0"/>
      <psa03 value="0.0797743569" flag="0"/>
      <psa10 value="0.0048271429" flag="0"/>
      <psa30 value="0.0005354152" flag="0"/>
    </comp>
    <comp name="--.HHE">
      <acc value="0.2242873087" flag="0"/>
      <vel value="0.0561110474" flag="0"/>
      <psa03 value="0.1628924551" flag="0"/>
      <psa10 value="0.0062648845" flag="0"/>
      <psa30 value="0.0006615299" flag="0"/>
    </comp>
  </station>
  <station code="HERR" name="HERR" netid="RO" insttype="CMG40T.1to100/Quanterra" lat="44.881" lon="22.416">
    <comp name="--.HHZ">
      <acc value="0.1184406152" flag="0"/>
      <vel value="0.0146629224" flag="0"/>
      <psa03 value="0.0265134045" flag="0"/>
      <psa10 value="0.0030744068" flag="0"/>
      <psa30 value="0.0001587225" flag="0"/>
    </comp>
  </station>
  <station code="LOT" name="LOT" netid="RO" insttype="330" lat="45.446" lon="23.7698">
    <comp name="--.HHZ">
      <acc value="0.1168811004" flag="0"/>
      <vel value="0.0191573160" flag="0"/>
      <psa03 value="0.0504970081" flag="0"/>
      <psa10 value="0.0045018561" flag="0"/>
      <psa30 value="0.0003643753" flag="0"/>
    </comp>
    <comp name="--.HHE">
      <acc value="0.1888069104" flag="0"/>
      <vel value="0.0351460149" flag="0"/>
      <psa03 value="0.1973562395" flag="0"/>
      <psa10 value="0.0067431801" flag="0"/>
      <psa30 value="0.0005782906" flag="0"/>
    </comp>
    <comp name="--.HHN">
      <acc value="0.1991803044" flag="0"/>
      <vel value="0.0387704966" flag="0"/>
      <psa03 value="0.1239842056" flag="0"/>
      <psa10 value="0.0067755060" flag="0"/>
      <psa30 value="0.0006980776" flag="0"/>
    </comp>
  </station>
  <station code="MHISU" name="MHISU" netid="RO" insttype="200" lat="44.6227" lon="22.6535">
    <comp name="--.HNE">
      <acc value="0.0732404756" flag="0"/>
      <vel value="0.0282249410" flag="0"/>
      <psa03 value="0.1336543807" flag="0"/>
      <psa10 value="0.0149661034" flag="0"/>
      <psa30 value="0.0009977160" flag="0"/>
    </comp>
    <comp name="--.HNN">
      <acc value="0.0584607503" flag="0"/>
      <vel value="0.0222891579" flag="0"/>
      <psa03 value="0.1440044580" flag="0"/>
      <psa10 value="0.0110818518" flag="0"/>
      <psa30 value="0.0006185133" flag="0"/>
    </comp>
    <comp name="--.HNZ">
      <acc value="0.0458421383" flag="0"/>
      <vel value="0.0150740940" flag="0"/>
      <psa03 value="0.0944966504" flag="0"/>
      <psa10 value="0.0050247946" flag="0"/>
      <psa30 value="0.0003220240" flag="0"/>
    </comp>
  </station>
  <station code="PUNG" name="PUNG" netid="RO" insttype="200" lat="44.2782" lon="22.9325">
    <comp name="--.HNZ">
      <acc value="0.1038567800" flag="0"/>
      <vel value="0.0236345580" flag="0"/>
      <psa03 value="0.0541653677" flag="0"/>
      <psa10 value="0.0034022470" flag="0"/>
      <psa30 value="0.0003738914" flag="0"/>
    </comp>
    <comp name="--.HNN">
      <acc value="0.0863234017" flag="0"/>
      <vel value="0.0227146174" flag="0"/>
      <psa03 value="0.1334190086" flag="0"/>
      <psa10 value="0.0080020011" flag="0"/>
      <psa30 value="0.0005226510" flag="0"/>
    </comp>
    <comp name="--.HNE">
      <acc value="0.0802629785" flag="0"/>
      <vel value="0.0246491210" flag="0"/>
      <psa03 value="0.2259968423" flag="0"/>
      <psa10 value="0.0087012315" flag="0"/>
      <psa30 value="0.0005249733" flag="0"/>
    </comp>
  </station>
  <station code="RMGR" name="RMGR" netid="RO" insttype="MBB2/Quanterra" lat="44.6627" lon="22.6922">
    <comp name="--.HHN">
      <acc value="0.1023343093" flag="0"/>
      <vel value="0.0300567293" flag="0"/>
      <psa03 value="0.1928067476" flag="0"/>
      <psa10 value="0.0136420367" flag="0"/>
      <psa30 value="0.0009947843" flag="0"/>
    </comp>
    <comp name="--.HHZ">
      <acc value="0.1210391130" flag="0"/>
      <vel value="0.0215202687" flag="0"/>
      <psa03 value="0.0869469042" flag="0"/>
      <psa10 value="0.0056604884" flag="0"/>
      <psa30 value="0.0003720452" flag="0"/>
    </comp>
    <comp name="--.HHE">
      <acc value="0.1018622121" flag="0"/>
      <vel value="0.0255955244" flag="0"/>
      <psa03 value="0.1557240506" flag="0"/>
      <psa10 value="0.0081859821" flag="0"/>
      <psa30 value="0.0007153838" flag="0"/>
    </comp>
  </station>
  <station code="SRE" name="SRE" netid="RO" insttype="Seismometer/Quanterra" lat="44.6609" lon="23.2038">
    <comp name="--.HHZ">
      <acc value="0.1272747348" flag="0"/>
      <vel value="0.0374803017" flag="0"/>
      <psa03 value="0.1718547996" flag="0"/>
      <psa10 value="0.0141224880" flag="0"/>
      <psa30 value="0.0010365388" flag="0"/>
    </comp>
    <comp name="--.HHN">
      <acc value="0.1029235331" flag="0"/>
      <vel value="0.0365677927" flag="0"/>
      <psa03 value="0.2514906808" flag="0"/>
      <psa10 value="0.0503469831" flag="0"/>
      <psa30 value="0.0020203003" flag="0"/>
    </comp>
    <comp name="--.HHE">
      <acc value="0.1538635493" flag="0"/>
      <vel value="0.0622062276" flag="0"/>
      <psa03 value="0.5082260650" flag="0"/>
      <psa10 value="0.0294341052" flag="0"/>
      <psa30 value="0.0017638884" flag="0"/>
    </comp>
  </station>
  <station code="SURR" name="SURR" netid="RO" insttype="Linear" lat="45.754" lon="22.1246">
    <comp name="--.HHE">
      <acc value="0.0706294884" flag="0"/>
      <vel value="0.0082888130" flag="0"/>
      <psa03 value="0.0307899832" flag="0"/>
      <psa10 value="0.0018262867" flag="0"/>
      <psa30 value="0.0001020487" flag="0"/>
    </comp>
    <comp name="--.HHZ">
      <acc value="0.0232929922" flag="0"/>
      <vel value="0.0053911620" flag="0"/>
      <psa03 value="0.0160436335" flag="0"/>
      <psa10 value="0.0008589793" flag="0"/>
      <psa30 value="0.0000751111" flag="0"/>
    </comp>
    <comp name="--.HHN">
      <acc value="0.0516255280" flag="0"/>
      <vel value="0.0099497644" flag="0"/>
      <psa03 value="0.0437917383" flag="0"/>
      <psa10 value="0.0018180019" flag="0"/>
      <psa30 value="0.0001595304" flag="0"/>
    </comp>
  </station>
  <station code="TNR" name="TNR" netid="RO" insttype="CMG40T.1to100/Quanterra" lat="45.652" lon="24.273">
    <comp name="--.HHE">
      <acc value="0.0131147261" flag="0"/>
      <vel value="0.0043555198" flag="0"/>
      <psa03 value="0.0277284545" flag="0"/>
      <psa10 value="0.0023705293" flag="0"/>
      <psa30 value="0.0001688813" flag="0"/>
    </comp>
    <comp name="--.HHZ">
      <acc value="0.0280993477" flag="0"/>
      <vel value="0.0054081280" flag="0"/>
      <psa03 value="0.0291846289" flag="0"/>
      <psa10 value="0.0063331823" flag="0"/>
      <psa30 value="0.0002995402" flag="0"/>
    </comp>
    <comp name="--.HHN">
      <acc value="0.0165588839" flag="0"/>
      <vel value="0.0052678899" flag="0"/>
      <psa03 value="0.0259301098" flag="0"/>
      <psa10 value="0.0036743968" flag="0"/>
      <psa30 value="0.0002082344" flag="0"/>
    </comp>
  </station>
</stationlist>
