<?xml version="1.0" encoding="UTF-8" standalone="yes"?>
<!DOCTYPE earthquake SYSTEM "stationlist.dtd">
<stationlist created="" xmlns="ch.ethz.sed.shakemap.usgs.xml">
  <station code="ARR" name="ARR" netid="RO" insttype="w/attenuator" lat="45.3657" lon="24.6332">
    <comp name="--.HHE">
      <acc value="0.0077350885" flag="0"/>
      <vel value="0.0024045954" flag="0"/>
      <psa03 value="0.0143088696" flag="0"/>
      <psa10 value="0.0013382566" flag="0"/>
      <psa30 value="0.0000921817" flag="0"/>
    </comp>
    <comp name="--.HHN">
      <acc value="0.0058909075" flag="0"/>
      <vel value="0.0025193483" flag="0"/>
      <psa03 value="0.0239631646" flag="0"/>
      <psa10 value="0.0017560070" flag="0"/>
      <psa30 value="0.0001138364" flag="0"/>
    </comp>
    <comp name="--.HHZ">
      <acc value="0.0062596163" flag="0"/>
      <vel value="0.0020246924" flag="0"/>
      <psa03 value="0.0076380649" flag="0"/>
      <psa10 value="0.0010191642" flag="0"/>
      <psa30 value="0.0000793807" flag="0"/>
    </comp>
  </station>
  <station code="CRAR" name="CRAR" netid="RO" insttype="MBB2/Quanterra" lat="44.325" lon="23.7999">
    <comp name="--.HHN">
      <acc value="0.0438805130" flag="0"/>
      <vel value="0.0156939751" flag="0"/>
      <psa03 value="0.0974503676" flag="0"/>
      <psa10 value="0.0137795469" flag="0"/>
      <psa30 value="0.0008489230" flag="0"/>
    </comp>
    <comp name="--.HHZ">
      <acc value="0.0347665117" flag="0"/>
      <vel value="0.0079327658" flag="0"/>
      <psa03 value="0.0305602032" flag="0"/>
      <psa10 value="0.0026762684" flag="0"/>
      <psa30 value="0.0002839834" flag="0"/>
    </comp>
    <comp name="--.HHE">
      <acc value="0.0667669139" flag="0"/>
      <vel value="0.0244166941" flag="0"/>
      <psa03 value="0.1123000977" flag="0"/>
      <psa10 value="0.0080151924" flag="0"/>
      <psa30 value="0.0007732670" flag="0"/>
    </comp>
  </station>
  <station code="DEV" name="DEV" netid="RO" insttype="CMG40T.1to100/Quanterra" lat="45.887" lon="22.898">
    <comp name="--.HHE">
      <acc value="0.1025113460" flag="0"/>
      <vel value="0.0255710759" flag="0"/>
      <psa03 value="0.0591041012" flag="0"/>
      <psa10 value="0.0066319315" flag="0"/>
      <psa30 value="0.0003347987" flag="0"/>
    </comp>
    <comp name="--.HHN">
      <acc value="0.0747503525" flag="0"/>
      <vel value="0.0192217959" flag="0"/>
      <psa03 value="0.1010487060" flag="0"/>
      <psa10 value="0.0045196569" flag="0"/>
      <psa30 value="0.0004316608" flag="0"/>
    </comp>
    <comp name="--.HHZ">
      <acc value="0.0630000546" flag="0"/>
      <vel value="0.0147254402" flag="0"/>
      <psa03 value="0.0525200010" flag="0"/>
      <psa10 value="0.0028097232" flag="0"/>
      <psa30 value="0.0003001499" flag="0"/>
    </comp>
  </station>
  <station code="GZR" name="GZR" netid="RO" insttype="330" lat="45.3933" lon="22.7767">
    <comp name="--.HHE">
      <acc value="0.2242873087" flag="0"/>
      <vel value="0.0561110475" flag="0"/>
      <psa03 value="0.1628924551" flag="0"/>
      <psa10 value="0.0062648845" flag="0"/>
      <psa30 value="0.0006615299" flag="0"/>
    </comp>
    <comp name="--.HHZ">
      <acc value="0.2134106099" flag="0"/>
      <vel value="0.0403884567" flag="0"/>
      <psa03 value="0.0797743569" flag="0"/>
      <psa10 value="0.0048271429" flag="0"/>
      <psa30 value="0.0005354145" flag="0"/>
    </comp>
    <comp name="--.HHN">
      <acc value="0.3150678325" flag="0"/>
      <vel value="0.0623767862" flag="0"/>
      <psa03 value="0.2219420283" flag="0"/>
      <psa10 value="0.0103972706" flag="0"/>
      <psa30 value="0.0009784062" flag="0"/>
    </comp>
  </station>
  <station code="HERR" name="HERR" netid="RO" insttype="CMG40T.1to100/Quanterra" lat="44.881" lon="22.416">
    <comp name="--.HHN">
      <acc value="0.2499301278" flag="0"/>
      <vel value="0.0430924518" flag="0"/>
      <psa03 value="0.1254575789" flag="0"/>
      <psa10 value="0.0093092355" flag="0"/>
      <psa30 value="0.0009048615" flag="0"/>
    </comp>
    <comp name="--.HHZ">
      <acc value="0.1184406147" flag="0"/>
      <vel value="0.0146629168" flag="0"/>
      <psa03 value="0.0265134045" flag="0"/>
      <psa10 value="0.0030744065" flag="0"/>
      <psa30 value="0.0001587235" flag="0"/>
    </comp>
    <comp name="--.HHE">
      <acc value="0.2839866813" flag="0"/>
      <vel value="0.0463387888" flag="0"/>
      <psa03 value="0.0818308590" flag="0"/>
      <psa10 value="0.0066675088" flag="0"/>
      <psa30 value="0.0006559150" flag="0"/>
    </comp>
  </station>
  <station code="LOT" name="LOT" netid="RO" insttype="330" lat="45.446" lon="23.7698">
    <comp name="--.HHE">
      <acc value="0.1888069104" flag="0"/>
      <vel value="0.0351460149" flag="0"/>
      <psa03 value="0.1973562395" flag="0"/>
      <psa10 value="0.0067431801" flag="0"/>
      <psa30 value="0.0005782905" flag="0"/>
    </comp>
    <comp name="--.HHZ">
      <acc value="0.1168811005" flag="0"/>
      <vel value="0.0191573165" flag="0"/>
      <psa03 value="0.0504970081" flag="0"/>
      <psa10 value="0.0045018561" flag="0"/>
      <psa30 value="0.0003643375" flag="0"/>
    </comp>
    <comp name="--.HHN">
      <acc value="0.1991803044" flag="0"/>
      <vel value="0.0387704966" flag="0"/>
      <psa03 value="0.1239842056" flag="0"/>
      <psa10 value="0.0067755061" flag="0"/>
      <psa30 value="0.0006980808" flag="0"/>
    </comp>
  </station>
  <station code="MHISU" name="MHISU" netid="RO" insttype="200" lat="44.6227" lon="22.6535">
    <comp name="--.HNE">
      <acc value="0.0732404740" flag="0"/>
      <vel value="0.0282249404" flag="0"/>
      <psa03 value="0.1336543807" flag="0"/>
      <psa10 value="0.0149661032" flag="0"/>
      <psa30 value="0.0009979041" flag="0"/>
    </comp>
    <comp name="--.HNZ">
      <acc value="0.0458421399" flag="0"/>
      <vel value="0.0150740919" flag="0"/>
      <psa03 value="0.0944966504" flag="0"/>
      <psa10 value="0.0050247945" flag="0"/>
      <psa30 value="0.0003214309" flag="0"/>
    </comp>
    <comp name="--.HNN">
      <acc value="0.0584607506" flag="0"/>
      <vel value="0.0222891586" flag="0"/>
      <psa03 value="0.1440044580" flag="0"/>
      <psa10 value="0.0110818515" flag="0"/>
      <psa30 value="0.0006181343" flag="0"/>
    </comp>
  </station>
  <station code="PUNG" name="PUNG" netid="RO" insttype="200" lat="44.2782" lon="22.9325">
    <comp name="--.HNE">
      <acc value="0.0802629829" flag="0"/>
      <vel value="0.0246491181" flag="0"/>
      <psa03 value="0.2259968423" flag="0"/>
      <psa10 value="0.0087012324" flag="0"/>
      <psa30 value="0.0005247246" flag="0"/>
    </comp>
    <comp name="--.HNN">
      <acc value="0.0863234055" flag="0"/>
      <vel value="0.0227146167" flag="0"/>
      <psa03 value="0.1334190086" flag="0"/>
      <psa10 value="0.0080020017" flag="0"/>
      <psa30 value="0.0005237306" flag="0"/>
    </comp>
    <comp name="--.HNZ">
      <acc value="0.1038567811" flag="0"/>
      <vel value="0.0236345545" flag="0"/>
      <psa03 value="0.0541653676" flag="0"/>
      <psa10 value="0.0034022896" flag="0"/>
      <psa30 value="0.0003728536" flag="0"/>
    </comp>
  </station>
  <station code="RMGR" name="RMGR" netid="RO" insttype="MBB2/Quanterra" lat="44.6627" lon="22.6922">
    <comp name="--.HHE">
      <acc value="0.1018622131" flag="0"/>
      <vel value="0.0255955261" flag="0"/>
      <psa03 value="0.1557240506" flag="0"/>
      <psa10 value="0.0081859821" flag="0"/>
      <psa30 value="0.0007150482" flag="0"/>
    </comp>
    <comp name="--.HHN">
      <acc value="0.1023343078" flag="0"/>
      <vel value="0.0300567286" flag="0"/>
      <psa03 value="0.1928067476" flag="0"/>
      <psa10 value="0.0136420367" flag="0"/>
      <psa30 value="0.0009947845" flag="0"/>
    </comp>
    <comp name="--.HHZ">
      <acc value="0.1210391130" flag="0"/>
      <vel value="0.0215202682" flag="0"/>
      <psa03 value="0.0869469042" flag="0"/>
      <psa10 value="0.0056604884" flag="0"/>
      <psa30 value="0.0003722440" flag="0"/>
    </comp>
  </station>
  <station code="SRE" name="SRE" netid="RO" insttype="Seismometer/Quanterra" lat="44.6609" lon="23.2038">
    <comp name="--.HHE">
      <acc value="0.1538635493" flag="0"/>
      <vel value="0.0622062294" flag="0"/>
      <psa03 value="0.5082260650" flag="0"/>
      <psa10 value="0.0294341051" flag="0"/>
      <psa30 value="0.0017640172" flag="0"/>
    </comp>
    <comp name="--.HHN">
      <acc value="0.1029235335" flag="0"/>
      <vel value="0.0365677933" flag="0"/>
      <psa03 value="0.2514906808" flag="0"/>
      <psa10 value="0.0503469831" flag="0"/>
      <psa30 value="0.0020202664" flag="0"/>
    </comp>
    <comp name="--.HHZ">
      <acc value="0.1272747341" flag="0"/>
      <vel value="0.0374803014" flag="0"/>
      <psa03 value="0.1718547996" flag="0"/>
      <psa10 value="0.0141224880" flag="0"/>
      <psa30 value="0.0010364671" flag="0"/>
    </comp>
  </station>
  <station code="SURR" name="SURR" netid="RO" insttype="Linear" lat="45.754" lon="22.1246">
    <comp name="--.HHZ">
      <acc value="0.0232929922" flag="0"/>
      <vel value="0.0053911604" flag="0"/>
      <psa03 value="0.0160436335" flag="0"/>
      <psa10 value="0.0008589793" flag="0"/>
      <psa30 value="0.0000751111" flag="0"/>
    </comp>
    <comp name="--.HHN">
      <acc value="0.0516255280" flag="0"/>
      <vel value="0.0099497691" flag="0"/>
      <psa03 value="0.0437917383" flag="0"/>
      <psa10 value="0.0018180019" flag="0"/>
      <psa30 value="0.0001595279" flag="0"/>
    </comp>
    <comp name="--.HHE">
      <acc value="0.0706294883" flag="0"/>
      <vel value="0.0082888143" flag="0"/>
      <psa03 value="0.0307899832" flag="0"/>
      <psa10 value="0.0018262867" flag="0"/>
      <psa30 value="0.0001020555" flag="0"/>
    </comp>
  </station>
  <station code="TNR" name="TNR" netid="RO" insttype="CMG40T.1to100/Quanterra" lat="45.652" lon="24.273">
    <comp name="--.HHE">
      <acc value="0.0131147261" flag="0"/>
      <vel value="0.0043555198" flag="0"/>
      <psa03 value="0.0277284545" flag="0"/>
      <psa10 value="0.0023705293" flag="0"/>
      <psa30 value="0.0001688813" flag="0"/>
    </comp>
    <comp name="--.HHN">
      <acc value="0.0165588838" flag="0"/>
      <vel value="0.0052678899" flag="0"/>
      <psa03 value="0.0259301098" flag="0"/>
      <psa10 value="0.0036743968" flag="0"/>
      <psa30 value="0.0002082344" flag="0"/>
    </comp>
    <comp name="--.HHZ">
      <acc value="0.0280993476" flag="0"/>
      <vel value="0.0054080946" flag="0"/>
      <psa03 value="0.0291846289" flag="0"/>
      <psa10 value="0.0063331823" flag="0"/>
      <psa30 value="0.0002995638" flag="0"/>
    </comp>
  </station>
</stationlist>
