<?xml version="1.0" encoding="UTF-8" standalone="yes"?>
<!DOCTYPE earthquake SYSTEM "stationlist.dtd">
<stationlist created="" xmlns="ch.ethz.sed.shakemap.usgs.xml">
  <station code="KMRS" name="KMRS" netid="KO" insttype="CMG-3T" lat="37.5053" lon="36.9">
    <comp name="--.HHE">
      <acc value="0.7663163305" flag="0"/>
      <vel value="0.2233263855" flag="0"/>
      <psa03 value="1.1154682524" flag="0"/>
      <psa10 value="0.0860135486" flag="0"/>
      <psa30 value="0.0075933749" flag="0"/>
    </comp>
  </station>
</stationlist>
