<stationlist created="1778136093">
	<station code="KLV1" name="KLV1" netid="HI" source="ITSAK Strong Motion Network" insttype="" lat="38.03256" lon="22.10797">
		<comp name="--.HNE" depth="0.0">
			<acc value="0.00851494669941274" flag="0"/>
			<vel value="0.00621876135468295" flag="0"/>
			<psa03 value="0.0389257197578964" flag="0"/>
			<psa10 value="0.00943478910959496" flag="0"/>
			<psa30 value="0.000933322430057149" flag="0"/>
		</comp>
		<comp name="--.HNN" depth="0.0">
			<acc value="0.00934927124473878" flag="0"/>
			<vel value="0.00696013712298106" flag="0"/>
			<psa03 value="0.0308721225666075" flag="0"/>
			<psa10 value="0.00804151679550198" flag="0"/>
			<psa30 value="0.000682766072994827" flag="0"/>
		</comp>
		<comp name="--.HNZ" depth="0.0">
			<acc value="0.00647920838316117" flag="0"/>
			<vel value="0.00346761975186567" flag="0"/>
			<psa03 value="0.0121698802001699" flag="0"/>
			<psa10 value="0.00767105132470269" flag="0"/>
			<psa30 value="0.000554355940000387" flag="0"/>
		</comp>
	</station>
	<station code="MSL1" name="MSL1" netid="HI" source="ITSAK Strong Motion Network" insttype="" lat="38.3727" lon="21.4243">
		<comp name="--.HNE" depth="0.0">
			<acc value="0.0183851594605768" flag="0"/>
			<vel value="0.0135014119864195" flag="0"/>
			<psa03 value="0.0570015712316782" flag="0"/>
			<psa10 value="0.023874888873576" flag="0"/>
			<psa30 value="0.00155165972552166" flag="0"/>
		</comp>
		<comp name="--.HNN" depth="0.0">
			<acc value="0.0175021714472889" flag="0"/>
			<vel value="0.0163839680252973" flag="0"/>
			<psa03 value="0.0598203302486293" flag="0"/>
			<psa10 value="0.0270761937571133" flag="0"/>
			<psa30 value="0.00203084875840335" flag="0"/>
		</comp>
		<comp name="--.HNZ" depth="0.0">
			<acc value="0.0148273988868127" flag="0"/>
			<vel value="0.00578633206962121" flag="0"/>
			<psa03 value="0.0253688311525601" flag="0"/>
			<psa10 value="0.0110132941590876" flag="0"/>
			<psa30 value="0.000613415652736506" flag="0"/>
		</comp>
	</station>
	<station code="VAS2" name="VAS2" netid="HI" source="ITSAK Strong Motion Network" insttype="" lat="38.630558" lon="20.608081">
		<comp name="--.HNE" depth="0.0">
			<acc value="0.0219786547243918" flag="0"/>
			<vel value="0.016588755603336" flag="0"/>
			<psa03 value="0.0570463134382965" flag="0"/>
			<psa10 value="0.0225420185384177" flag="0"/>
			<psa30 value="0.00240444618366592" flag="0"/>
		</comp>
		<comp name="--.HNN" depth="0.0">
			<acc value="0.0261432038192397" flag="0"/>
			<vel value="0.0201763936557203" flag="0"/>
			<psa03 value="0.0704242332171598" flag="0"/>
			<psa10 value="0.0392612863075335" flag="0"/>
			<psa30 value="0.00253151405046182" flag="0"/>
		</comp>
		<comp name="--.HNZ" depth="0.0">
			<acc value="0.0183354430483856" flag="0"/>
			<vel value="0.0139292541329173" flag="0"/>
			<psa03 value="0.0400442749233532" flag="0"/>
			<psa10 value="0.0103810867795714" flag="0"/>
			<psa30 value="0.000661289813818056" flag="0"/>
		</comp>
	</station>
	<station code="PATC" name="PATC" netid="HL" source="National Observatory of Athens Seismic Network" insttype="" lat="38.26933" lon="21.76001">
		<comp name="00.HNE" depth="0.0">
			<acc value="0.0177525355957287" flag="0"/>
			<vel value="0.0153856838372597" flag="0"/>
			<psa03 value="0.0539143589750175" flag="0"/>
			<psa10 value="0.0282640993428284" flag="0"/>
			<psa30 value="0.0035391085435053" flag="0"/>
		</comp>
		<comp name="00.HNN" depth="0.0">
			<acc value="0.0156540620079325" flag="0"/>
			<vel value="0.0121034276877162" flag="0"/>
			<psa03 value="0.0536906479419261" flag="0"/>
			<psa10 value="0.0145890913120199" flag="0"/>
			<psa30 value="0.0029176392935775" flag="0"/>
		</comp>
		<comp name="00.HNZ" depth="0.0">
			<acc value="0.0146654357079789" flag="0"/>
			<vel value="0.0095478819535057" flag="0"/>
			<psa03 value="0.025682026598888" flag="0"/>
			<psa10 value="0.0186400506992382" flag="0"/>
			<psa30 value="0.000924821410799677" flag="0"/>
		</comp>
	</station>
	<station code="ANX" name="ANX" netid="HP" source="University of Patras, Seismological Laboratory (PSLNET)" insttype="" lat="38.5933" lon="21.9209">
		<comp name="--.HNE" depth="0.0">
			<acc value="0.00708226703015488" flag="0"/>
			<vel value="0.00569328790473167" flag="0"/>
			<psa03 value="0.0185232735399645" flag="0"/>
			<psa10 value="0.00592744753278864" flag="0"/>
			<psa30 value="0.00056643633578732" flag="0"/>
		</comp>
		<comp name="--.HNN" depth="0.0">
			<acc value="0.0100813412041324" flag="0"/>
			<vel value="0.0091728373390951" flag="0"/>
			<psa03 value="0.0211183215238243" flag="0"/>
			<psa10 value="0.0161273283755561" flag="0"/>
			<psa30 value="0.00085457614640899" flag="0"/>
		</comp>
		<comp name="--.HNZ" depth="0.0">
			<acc value="0.00557612862759874" flag="0"/>
			<vel value="0.00339223113617282" flag="0"/>
			<psa03 value="0.0168678118950885" flag="0"/>
			<psa10 value="0.00520262378557264" flag="0"/>
			<psa30 value="0.000574937355044792" flag="0"/>
		</comp>
	</station>
	<station code="PDO" name="PDO" netid="HP" source="University of Patras, Seismological Laboratory (PSLNET)" insttype="" lat="38.5986" lon="21.1833">
		<comp name="--.HNE" depth="0.0">
			<acc value="0.0201097508275366" flag="0"/>
			<vel value="0.0104682879244927" flag="0"/>
			<psa03 value="0.0535564213220713" flag="0"/>
			<psa10 value="0.00744957740194225" flag="0"/>
			<psa30 value="0.000692609358450847" flag="0"/>
		</comp>
		<comp name="--.HNN" depth="0.0">
			<acc value="0.0290993292630573" flag="0"/>
			<vel value="0.0102632297656555" flag="0"/>
			<psa03 value="0.0825493712107114" flag="0"/>
			<psa10 value="0.00905627004160439" flag="0"/>
			<psa30 value="0.000570463134382965" flag="0"/>
		</comp>
		<comp name="--.HNZ" depth="0.0">
			<acc value="0.016180312159853" flag="0"/>
			<vel value="0.00548969565763959" flag="0"/>
			<psa03 value="0.0266216129378717" flag="0"/>
			<psa10 value="0.00320130488353734" flag="0"/>
			<psa30 value="0.000403127281630628" flag="0"/>
		</comp>
	</station>
</stationlist>
