<?xml version="1.0" encoding="UTF-8" standalone="yes"?>
<!DOCTYPE earthquake SYSTEM "stationlist.dtd">
<stationlist created="" xmlns="ch.ethz.sed.shakemap.usgs.xml">
  <station code="MSL1" name="MSL1" netid="HI" insttype="CMG-5TD,ACCELEROMETER,GURALP" lat="38.3727" lon="21.4243">
    <comp name="--.HNZ">
      <acc value="0.0146080191" flag="0"/>
      <vel value="0.0058109939" flag="0"/>
      <psa03 value="0.0252280817" flag="0"/>
      <psa10 value="0.0110277832" flag="0"/>
      <psa30 value="0.0005696746" flag="0"/>
    </comp>
    <comp name="--.HNE">
      <acc value="0.0183699261" flag="0"/>
      <vel value="0.0133393845" flag="0"/>
      <psa03 value="0.0555919082" flag="0"/>
      <psa10 value="0.0238704070" flag="0"/>
      <psa30 value="0.0014931209" flag="0"/>
    </comp>
    <comp name="--.HNN">
      <acc value="0.0174310311" flag="0"/>
      <vel value="0.0162782082" flag="0"/>
      <psa03 value="0.0598823935" flag="0"/>
      <psa10 value="0.0269556363" flag="0"/>
      <psa30 value="0.0019656433" flag="0"/>
    </comp>
  </station>
  <station code="RLS" name="RLS" netid="HL" insttype="CMG3ESPC-120s" lat="38.0559" lon="21.4647">
    <comp name="--.HHE">
      <acc value="0.0155708914" flag="0"/>
      <vel value="0.0067869217" flag="0"/>
      <psa03 value="0.0441035404" flag="0"/>
      <psa10 value="0.0066508304" flag="0"/>
      <psa30 value="0.0007114125" flag="0"/>
    </comp>
    <comp name="--.HHN">
      <acc value="0.0226640529" flag="0"/>
      <vel value="0.0099041114" flag="0"/>
      <psa03 value="0.0433861718" flag="0"/>
      <psa10 value="0.0063822610" flag="0"/>
      <psa30 value="0.0006257864" flag="0"/>
    </comp>
    <comp name="--.HHZ">
      <acc value="0.0105476981" flag="0"/>
      <vel value="0.0052286882" flag="0"/>
      <psa03 value="0.0238392018" flag="0"/>
      <psa10 value="0.0044088225" flag="0"/>
      <psa30 value="0.0007484843" flag="0"/>
    </comp>
  </station>
  <station code="VLS" name="VLS" netid="HL" insttype="120P," lat="38.1768" lon="20.5886">
    <comp name="--.HHE">
      <acc value="0.0963477048" flag="0"/>
      <vel value="0.0118300849" flag="0"/>
      <psa03 value="0.0547954032" flag="0"/>
      <psa10 value="0.0045209277" flag="0"/>
      <psa30 value="0.0004765842" flag="0"/>
    </comp>
    <comp name="--.HHN">
      <acc value="0.0486189071" flag="0"/>
      <vel value="0.0106649454" flag="0"/>
      <psa03 value="0.0666535984" flag="0"/>
      <psa10 value="0.0054121006" flag="0"/>
      <psa30 value="0.0005503443" flag="0"/>
    </comp>
    <comp name="--.HHZ">
      <acc value="0.0237532749" flag="0"/>
      <vel value="0.0068397441" flag="0"/>
      <psa03 value="0.0312516305" flag="0"/>
      <psa10 value="0.0026783327" flag="0"/>
      <psa30 value="0.0003406372" flag="0"/>
    </comp>
  </station>
  <station code="AMPL" name="AMPL" netid="HP" insttype="Compact," lat="38.9224" lon="21.2135">
    <comp name="--.HHE">
      <acc value="0.0039968791" flag="0"/>
      <vel value="0.0028992154" flag="0"/>
      <psa03 value="0.0096647365" flag="0"/>
      <psa10 value="0.0061965556" flag="0"/>
      <psa30 value="0.0004117150" flag="0"/>
    </comp>
    <comp name="--.HHN">
      <acc value="0.0046013611" flag="0"/>
      <vel value="0.0022493820" flag="0"/>
      <psa03 value="0.0107207133" flag="0"/>
      <psa10 value="0.0031158044" flag="0"/>
      <psa30 value="0.0002789091" flag="0"/>
    </comp>
    <comp name="--.HHZ">
      <acc value="0.0025736182" flag="0"/>
      <vel value="0.0023371094" flag="0"/>
      <psa03 value="0.0073004157" flag="0"/>
      <psa10 value="0.0031594784" flag="0"/>
      <psa30 value="0.0004321482" flag="0"/>
    </comp>
  </station>
  <station code="AMT" name="AMT" netid="HP" insttype="CMG-3T," lat="37.5324" lon="21.7089">
    <comp name="00.HHE">
      <acc value="0.0358623652" flag="0"/>
      <vel value="0.0188982344" flag="0"/>
      <psa03 value="0.1361861869" flag="0"/>
      <psa10 value="0.0269881064" flag="0"/>
      <psa30 value="0.0013098901" flag="0"/>
    </comp>
    <comp name="00.HHZ">
      <acc value="0.0179097706" flag="0"/>
      <vel value="0.0114328332" flag="0"/>
      <psa03 value="0.0407085659" flag="0"/>
      <psa10 value="0.0081632238" flag="0"/>
      <psa30 value="0.0005101340" flag="0"/>
    </comp>
    <comp name="00.HHN">
      <acc value="0.0362590152" flag="0"/>
      <vel value="0.0163460803" flag="0"/>
      <psa03 value="0.0861072305" flag="0"/>
      <psa10 value="0.0206527443" flag="0"/>
      <psa30 value="0.0008675230" flag="0"/>
    </comp>
  </station>
  <station code="ANX" name="ANX" netid="HP" insttype="120" lat="38.5933" lon="21.9209">
    <comp name="--.HHE">
      <acc value="0.0059303142" flag="0"/>
      <vel value="0.0046734523" flag="0"/>
      <psa03 value="0.0158601443" flag="0"/>
      <psa10 value="0.0045395374" flag="0"/>
      <psa30 value="0.0004294224" flag="0"/>
    </comp>
    <comp name="--.HHN">
      <acc value="0.0081117192" flag="0"/>
      <vel value="0.0073428275" flag="0"/>
      <psa03 value="0.0166119646" flag="0"/>
      <psa10 value="0.0128346361" flag="0"/>
      <psa30 value="0.0006318847" flag="0"/>
    </comp>
    <comp name="--.HHZ">
      <acc value="0.0046183635" flag="0"/>
      <vel value="0.0028152209" flag="0"/>
      <psa03 value="0.0137791536" flag="0"/>
      <psa10 value="0.0042274078" flag="0"/>
      <psa30 value="0.0003960625" flag="0"/>
    </comp>
  </station>
  <station code="AXS" name="AXS" netid="HP" insttype="40," lat="38.1962" lon="21.3763">
    <comp name="--.HHN">
      <acc value="0.0073781779" flag="0"/>
      <vel value="0.0057597055" flag="0"/>
      <psa03 value="0.0243214117" flag="0"/>
      <psa10 value="0.0056610145" flag="0"/>
      <psa30 value="0.0004700468" flag="0"/>
    </comp>
    <comp name="--.HHZ">
      <acc value="0.0061354603" flag="0"/>
      <vel value="0.0042651305" flag="0"/>
      <psa03 value="0.0109395326" flag="0"/>
      <psa10 value="0.0038176875" flag="0"/>
      <psa30 value="0.0004362123" flag="0"/>
    </comp>
    <comp name="--.HHE">
      <acc value="0.0078435330" flag="0"/>
      <vel value="0.0037389247" flag="0"/>
      <psa03 value="0.0217494301" flag="0"/>
      <psa10 value="0.0034134174" flag="0"/>
      <psa30 value="0.0004236652" flag="0"/>
    </comp>
  </station>
  <station code="FSK" name="FSK" netid="HP" insttype="DC_100" lat="38.4593" lon="20.5623">
    <comp name="--.HNN">
      <acc value="0.0082390841" flag="0"/>
      <vel value="0.0055395651" flag="0"/>
      <psa03 value="0.0143314421" flag="0"/>
      <psa10 value="0.0051421279" flag="0"/>
      <psa30 value="0.0006077061" flag="0"/>
    </comp>
    <comp name="--.HNE">
      <acc value="0.0159642920" flag="0"/>
      <vel value="0.0049463464" flag="0"/>
      <psa03 value="0.0270000940" flag="0"/>
      <psa10 value="0.0048164031" flag="0"/>
      <psa30 value="0.0006432759" flag="0"/>
    </comp>
    <comp name="--.HNZ">
      <acc value="0.0100636794" flag="0"/>
      <vel value="0.0058704122" flag="0"/>
      <psa03 value="0.0145941050" flag="0"/>
      <psa10 value="0.0035609973" flag="0"/>
      <psa30 value="0.0003679920" flag="0"/>
    </comp>
  </station>
  <station code="LTHK" name="LTHK" netid="HP" insttype="DC_100" lat="37.7095" lon="20.8367">
    <comp name="--.HNZ">
      <acc value="2.6970273504" flag="0"/>
      <vel value="0.7029507740" flag="0"/>
      <psa03 value="3.6551378023" flag="0"/>
      <psa10 value="0.1530802804" flag="0"/>
      <psa30 value="0.0143060327" flag="0"/>
    </comp>
  </station>
  <station code="DMLN" name="DMLN" netid="HT" insttype="1s-100Hz," lat="38.2385" lon="20.3734">
    <comp name="--.HHZ">
      <acc value="0.0636290878" flag="0"/>
      <vel value="0.0119425471" flag="0"/>
      <psa03 value="0.0634849793" flag="0"/>
      <psa10 value="0.0081452787" flag="0"/>
      <psa30 value="0.0008249168" flag="0"/>
    </comp>
    <comp name="--.HHN">
      <acc value="0.0920966444" flag="0"/>
      <vel value="0.0245282688" flag="0"/>
      <psa03 value="0.0885231189" flag="0"/>
      <psa10 value="0.0150509637" flag="0"/>
      <psa30 value="0.0013590461" flag="0"/>
    </comp>
    <comp name="--.HHE">
      <acc value="0.0953663748" flag="0"/>
      <vel value="0.0245993259" flag="0"/>
      <psa03 value="0.1418403310" flag="0"/>
      <psa10 value="0.0190699616" flag="0"/>
      <psa30 value="0.0012502269" flag="0"/>
    </comp>
  </station>
  <station code="DRAG" name="DRAG" netid="HT" insttype="1s-100Hz," lat="38.6839" lon="20.5746">
    <comp name="--.HHN">
      <acc value="0.0283429606" flag="0"/>
      <vel value="0.0125216836" flag="0"/>
      <psa03 value="0.0635168537" flag="0"/>
      <psa10 value="0.0057027442" flag="0"/>
      <psa30 value="0.0006141271" flag="0"/>
    </comp>
    <comp name="--.HHZ">
      <acc value="0.0003339079" flag="0"/>
      <vel value="0.0001227222" flag="0"/>
      <psa03 value="0.0001786207" flag="0"/>
      <psa10 value="0.0001236159" flag="0"/>
      <psa30 value="0.0001250987" flag="0"/>
    </comp>
    <comp name="--.HHE">
      <acc value="0.0345234283" flag="0"/>
      <vel value="0.0145885611" flag="0"/>
      <psa03 value="0.0796796143" flag="0"/>
      <psa10 value="0.0100987807" flag="0"/>
      <psa30 value="0.0009347351" flag="0"/>
    </comp>
  </station>
  <station code="EVGI" name="EVGI" netid="HT" insttype="30" lat="38.621" lon="20.656">
    <comp name="--.HHE">
      <acc value="0.0215343212" flag="0"/>
      <vel value="0.0051088662" flag="0"/>
      <psa03 value="0.0211990165" flag="0"/>
      <psa10 value="0.0052939903" flag="0"/>
      <psa30 value="0.0006864967" flag="0"/>
    </comp>
    <comp name="--.HHN">
      <acc value="0.0211803105" flag="0"/>
      <vel value="0.0056530674" flag="0"/>
      <psa03 value="0.0263743870" flag="0"/>
      <psa10 value="0.0029464922" flag="0"/>
      <psa30 value="0.0003221464" flag="0"/>
    </comp>
    <comp name="--.HHZ">
      <acc value="0.0157378407" flag="0"/>
      <vel value="0.0041355533" flag="0"/>
      <psa03 value="0.0172662369" flag="0"/>
      <psa10 value="0.0023841226" flag="0"/>
      <psa30 value="0.0004278267" flag="0"/>
    </comp>
  </station>
  <station code="NYDR" name="NYDR" netid="HT" insttype="1s-100Hz," lat="38.7135" lon="20.6983">
    <comp name="--.HHZ">
      <acc value="0.0045857813" flag="0"/>
      <vel value="0.0028252252" flag="0"/>
      <psa03 value="0.0125244362" flag="0"/>
      <psa10 value="0.0021464909" flag="0"/>
      <psa30 value="0.0003098903" flag="0"/>
    </comp>
    <comp name="--.HHN">
      <acc value="0.0085083904" flag="0"/>
      <vel value="0.0048495602" flag="0"/>
      <psa03 value="0.0144903310" flag="0"/>
      <psa10 value="0.0036386062" flag="0"/>
      <psa30 value="0.0002592488" flag="0"/>
    </comp>
    <comp name="--.HHE">
      <acc value="0.0061290657" flag="0"/>
      <vel value="0.0036566582" flag="0"/>
      <psa03 value="0.0097833323" flag="0"/>
      <psa10 value="0.0043289693" flag="0"/>
      <psa30 value="0.0005870500" flag="0"/>
    </comp>
  </station>
  <station code="PSDA" name="PSDA" netid="HT" insttype="30" lat="38.114" lon="20.5841">
    <comp name="--.HHE">
      <acc value="0.0937261270" flag="0"/>
      <vel value="0.0274263427" flag="0"/>
      <psa03 value="0.1479899485" flag="0"/>
      <psa10 value="0.0072886364" flag="0"/>
      <psa30 value="0.0008251699" flag="0"/>
    </comp>
    <comp name="--.HHN">
      <acc value="0.0882477546" flag="0"/>
      <vel value="0.0257409380" flag="0"/>
      <psa03 value="0.1052356165" flag="0"/>
      <psa10 value="0.0077907604" flag="0"/>
      <psa30 value="0.0005852118" flag="0"/>
    </comp>
    <comp name="--.HHZ">
      <acc value="0.0764527454" flag="0"/>
      <vel value="0.0155730566" flag="0"/>
      <psa03 value="0.0782950544" flag="0"/>
      <psa10 value="0.0030258366" flag="0"/>
      <psa30 value="0.0004435837" flag="0"/>
    </comp>
  </station>
  <station code="RTZL" name="RTZL" netid="HT" insttype="Compact," lat="38.076" lon="20.7715">
    <comp name="--.HHE">
      <acc value="0.0743141280" flag="0"/>
      <vel value="0.0158891956" flag="0"/>
      <psa03 value="0.0879117630" flag="0"/>
      <psa10 value="0.0070150315" flag="0"/>
      <psa30 value="0.0005737265" flag="0"/>
    </comp>
    <comp name="--.HHN">
      <acc value="0.0861110420" flag="0"/>
      <vel value="0.0188135338" flag="0"/>
      <psa03 value="0.0718402823" flag="0"/>
      <psa10 value="0.0103381186" flag="0"/>
      <psa30 value="0.0006483075" flag="0"/>
    </comp>
    <comp name="--.HHZ">
      <acc value="0.0385392717" flag="0"/>
      <vel value="0.0093533994" flag="0"/>
      <psa03 value="0.0452899261" flag="0"/>
      <psa10 value="0.0034529565" flag="0"/>
      <psa30 value="0.0004639015" flag="0"/>
    </comp>
  </station>
  <station code="TSLK" name="TSLK" netid="HT" insttype="1s-100Hz," lat="38.8249" lon="20.6554">
    <comp name="--.HHE">
      <acc value="0.0091840412" flag="0"/>
      <vel value="0.0068338637" flag="0"/>
      <psa03 value="0.0162969656" flag="0"/>
      <psa10 value="0.0104101117" flag="0"/>
      <psa30 value="0.0015805360" flag="0"/>
    </comp>
    <comp name="--.HHN">
      <acc value="0.0077858546" flag="0"/>
      <vel value="0.0058114510" flag="0"/>
      <psa03 value="0.0175603386" flag="0"/>
      <psa10 value="0.0096554629" flag="0"/>
      <psa30 value="0.0006525407" flag="0"/>
    </comp>
    <comp name="--.HHZ">
      <acc value="0.0042757667" flag="0"/>
      <vel value="0.0030296947" flag="0"/>
      <psa03 value="0.0112396029" flag="0"/>
      <psa10 value="0.0020961830" flag="0"/>
      <psa30 value="0.0005196158" flag="0"/>
    </comp>
  </station>
</stationlist>
