<?xml version="1.0" encoding="UTF-8" standalone="yes"?>
<!DOCTYPE earthquake SYSTEM "stationlist.dtd">
<stationlist created="" xmlns="ch.ethz.sed.shakemap.usgs.xml">
  <station code="APE" name="APE" netid="GE" insttype="STS-2/N" lat="37.0727" lon="25.523">
    <comp name="--.HHE">
      <acc value="0.4412566278" flag="0"/>
      <vel value="0.0932440873" flag="0"/>
      <psa03 value="0.5036917093" flag="0"/>
      <psa10 value="0.0378544153" flag="0"/>
      <psa30 value="0.0096204848" flag="0"/>
    </comp>
    <comp name="--.HHN">
      <acc value="0.2571840518" flag="0"/>
      <vel value="0.0700517512" flag="0"/>
      <psa03 value="0.2550747007" flag="0"/>
      <psa10 value="0.0376245748" flag="0"/>
      <psa30 value="0.0094393870" flag="0"/>
    </comp>
    <comp name="--.HHZ">
      <acc value="0.1322900500" flag="0"/>
      <vel value="0.0559741466" flag="0"/>
      <psa03 value="0.2000420724" flag="0"/>
      <psa10 value="0.0333790183" flag="0"/>
      <psa30 value="0.0106247925" flag="0"/>
    </comp>
  </station>
  <station code="THERA" name="THERA" netid="GE" insttype="STS-2/N" lat="36.367" lon="25.4753">
    <comp name="--.HHE">
      <acc value="0.5576861018" flag="0"/>
      <vel value="0.1637478308" flag="0"/>
      <psa03 value="0.9719997172" flag="0"/>
      <psa10 value="0.0966752662" flag="0"/>
      <psa30 value="0.0159576585" flag="0"/>
    </comp>
    <comp name="--.HHN">
      <acc value="0.3546254551" flag="0"/>
      <vel value="0.1378923038" flag="0"/>
      <psa03 value="0.9614790838" flag="0"/>
      <psa10 value="0.0416942896" flag="0"/>
      <psa30 value="0.0053704444" flag="0"/>
    </comp>
    <comp name="--.HHZ">
      <acc value="0.3849578756" flag="0"/>
      <vel value="0.1160465057" flag="0"/>
      <psa03 value="0.6754410387" flag="0"/>
      <psa10 value="0.0668581584" flag="0"/>
      <psa30 value="0.0105175427" flag="0"/>
    </comp>
  </station>
  <station code="ZKR" name="ZKR" netid="GE" insttype="STS-2/N" lat="35.1147" lon="26.2169">
    <comp name="--.HHE">
      <acc value="0.0192322300" flag="0"/>
      <vel value="0.0124411432" flag="0"/>
      <psa03 value="0.0726040556" flag="0"/>
      <psa10 value="0.0214853425" flag="0"/>
      <psa30 value="0.0025771264" flag="0"/>
    </comp>
    <comp name="--.HHN">
      <acc value="0.0077122156" flag="0"/>
      <vel value="0.0059901121" flag="0"/>
      <psa03 value="0.0189413280" flag="0"/>
      <psa10 value="0.0152079439" flag="0"/>
      <psa30 value="0.0011500048" flag="0"/>
    </comp>
    <comp name="--.HHZ">
      <acc value="0.0120275131" flag="0"/>
      <vel value="0.0061414807" flag="0"/>
      <psa03 value="0.0322644550" flag="0"/>
      <psa10 value="0.0133152289" flag="0"/>
      <psa30 value="0.0022865011" flag="0"/>
    </comp>
  </station>
  <station code="IDI" name="IDI" netid="MN" insttype="" lat="35.288" lon="24.89">
    <comp name="--.HHN">
      <acc value="0.0269655250" flag="0"/>
      <vel value="0.0124781772" flag="0"/>
      <psa03 value="0.0843931076" flag="0"/>
      <psa10 value="0.0149833911" flag="0"/>
      <psa30 value="0.0017503836" flag="0"/>
    </comp>
    <comp name="--.HHZ">
      <acc value="0.0245478022" flag="0"/>
      <vel value="0.0167743441" flag="0"/>
      <psa03 value="0.0850767511" flag="0"/>
      <psa10 value="0.0201774505" flag="0"/>
      <psa30 value="0.0014773743" flag="0"/>
    </comp>
    <comp name="--.HHE">
      <acc value="0.0309388535" flag="0"/>
      <vel value="0.0214694865" flag="0"/>
      <psa03 value="0.1104036665" flag="0"/>
      <psa10 value="0.0172210111" flag="0"/>
      <psa30 value="0.0022072551" flag="0"/>
    </comp>
  </station>
</stationlist>
