<?xml version="1.0" encoding="UTF-8" standalone="yes"?>
<!DOCTYPE earthquake SYSTEM "stationlist.dtd">
<stationlist created="" xmlns="ch.ethz.sed.shakemap.usgs.xml">
  <station code="THERA" name="THERA" netid="GE" insttype="STS-2/N" lat="36.367" lon="25.4753">
    <comp name="--.HHE">
      <acc value="0.5571001524" flag="0"/>
      <vel value="0.1646658904" flag="0"/>
      <psa03 value="0.9709081254" flag="0"/>
      <psa10 value="0.0966383999" flag="0"/>
      <psa30 value="0.0131130757" flag="0"/>
    </comp>
    <comp name="--.HHZ">
      <acc value="0.3841919781" flag="0"/>
      <vel value="0.1140002860" flag="0"/>
      <psa03 value="0.6751326675" flag="0"/>
      <psa10 value="0.0676578029" flag="0"/>
      <psa30 value="0.0086828656" flag="0"/>
    </comp>
    <comp name="--.HHN">
      <acc value="0.3544322204" flag="0"/>
      <vel value="0.1396179884" flag="0"/>
      <psa03 value="0.9616977225" flag="0"/>
      <psa10 value="0.0414831159" flag="0"/>
      <psa30 value="0.0046192131" flag="0"/>
    </comp>
  </station>
</stationlist>
