<stationlist created="1739408568">
	<station code="ABEA" name="ABEA" netid="HC" source="Seismological Network of Crete (HC)" insttype="" lat="35.5163" lon="24.0113">
		<comp name=".HNE" depth="0.0">
			<acc value="0.0022358985344136" flag="0"/>
			<vel value="0.002563333873" flag="0"/>
			<psa03 value="0.00154095641022456" flag="0"/>
			<psa10 value="0.00142576007460817" flag="0"/>
			<psa30 value="0.00102108076659009" flag="0"/>
		</comp>
		<comp name=".HNN" depth="0.0">
			<acc value="0.002660563398066" flag="0"/>
			<vel value="0.00283206499503" flag="0"/>
			<psa03 value="0.00164012932109228" flag="0"/>
			<psa10 value="0.00120375040661783" flag="0"/>
			<psa30 value="0.00119925340298636" flag="0"/>
		</comp>
		<comp name=".HNZ" depth="0.0">
			<acc value="0.0032391997269054" flag="0"/>
			<vel value="0.00155885247871" flag="0"/>
			<psa03 value="0.00142513672602047" flag="0"/>
			<psa10 value="0.00124226229377934" flag="0"/>
			<psa30 value="0.000674936638321288" flag="0"/>
		</comp>
	</station>
	<station code="ATEI" name="ATEI" netid="HC" source="Seismological Network of Crete (HC)" insttype="" lat="35.5193" lon="24.0432">
		<comp name=".HNE" depth="0.0">
			<acc value="0.030390819817596" flag="0"/>
			<vel value="0.018910287763" flag="0"/>
			<psa03 value="0.0872693072051705" flag="0"/>
			<psa10 value="0.0418754127906169" flag="0"/>
			<psa30 value="0.00216629642317486" flag="0"/>
		</comp>
		<comp name=".HNN" depth="0.0">
			<acc value="0.034340453569758" flag="0"/>
			<vel value="0.0219574835232" flag="0"/>
			<psa03 value="0.116854897313635" flag="0"/>
			<psa10 value="0.0245940598607617" flag="0"/>
			<psa30 value="0.00165349338999044" flag="0"/>
		</comp>
		<comp name=".HNZ" depth="0.0">
			<acc value="0.019266084257286" flag="0"/>
			<vel value="0.0135145486796" flag="0"/>
			<psa03 value="0.0450134975483208" flag="0"/>
			<psa10 value="0.0274222403388438" flag="0"/>
			<psa30 value="0.00148884196180648" flag="0"/>
		</comp>
	</station>
	<station code="G0LD" name="G0LD" netid="HC" source="Seismological Network of Crete (HC)" insttype="" lat="35.4955" lon="24.0306">
		<comp name=".HNE" depth="0.0">
			<acc value="0.0063515723736474" flag="0"/>
			<vel value="0.00331158416978" flag="0"/>
			<psa03 value="0.00209469914765249" flag="0"/>
			<psa10 value="0.0016359565772186" flag="0"/>
			<psa30 value="0.00111837877460468" flag="0"/>
		</comp>
		<comp name=".HNN" depth="0.0">
			<acc value="0.0051607106751858" flag="0"/>
			<vel value="0.00333757289878" flag="0"/>
			<psa03 value="0.00170134724366717" flag="0"/>
			<psa10 value="0.00189598802177791" flag="0"/>
			<psa30 value="0.00130070126924176" flag="0"/>
		</comp>
		<comp name=".HNZ" depth="0.0">
			<acc value="0.0094920294634638" flag="0"/>
			<vel value="0.00638701849664" flag="0"/>
			<psa03 value="0.00275133655941824" flag="0"/>
			<psa10 value="0.00252002818949852" flag="0"/>
			<psa30 value="0.00203347741623171" flag="0"/>
		</comp>
	</station>
	<station code="PASK" name="PASK" netid="HC" source="Seismological Network of Crete (HC)" insttype="" lat="35.4996" lon="24.0121">
		<comp name=".HNE" depth="0.0">
			<acc value="0.057627038060148" flag="0"/>
			<vel value="0.0326727755525" flag="0"/>
			<psa03 value="0.142576726258282" flag="0"/>
			<psa10 value="0.0720984886712072" flag="0"/>
			<psa30 value="0.00435916043965021" flag="0"/>
		</comp>
		<comp name=".HNN" depth="0.0">
			<acc value="0.068118119795556" flag="0"/>
			<vel value="0.0334984483968" flag="0"/>
			<psa03 value="0.120336940481732" flag="0"/>
			<psa10 value="0.0686579207504439" flag="0"/>
			<psa30 value="0.00374934337559904" flag="0"/>
		</comp>
		<comp name=".HNZ" depth="0.0">
			<acc value="0.034349789941572" flag="0"/>
			<vel value="0.0270335989621" flag="0"/>
			<psa03 value="0.0861369144810091" flag="0"/>
			<psa10 value="0.0542553766525616" flag="0"/>
			<psa30 value="0.00270104518098678" flag="0"/>
		</comp>
	</station>
	<station code="POLY" name="POLY" netid="HC" source="Seismological Network of Crete (HC)" insttype="" lat="35.5226" lon="24.0602">
		<comp name=".HNE" depth="0.0">
			<acc value="0.0049828167602568" flag="0"/>
			<vel value="0.0032348694737" flag="0"/>
			<psa03 value="0.00142448157194258" flag="0"/>
			<psa10 value="0.00107537541803117" flag="0"/>
			<psa30 value="0.00128407933478748" flag="0"/>
		</comp>
		<comp name=".HNN" depth="0.0">
			<acc value="0.002816416087707" flag="0"/>
			<vel value="0.00453854193471" flag="0"/>
			<psa03 value="0.00181146619215082" flag="0"/>
			<psa10 value="0.00152428449199088" flag="0"/>
			<psa30 value="0.00142502221322848" flag="0"/>
		</comp>
		<comp name=".HNZ" depth="0.0">
			<acc value="0.0046224987439842" flag="0"/>
			<vel value="0.00236292213043" flag="0"/>
			<psa03 value="0.00155429534725077" flag="0"/>
			<psa10 value="0.00100628002048579" flag="0"/>
			<psa30 value="0.000983101583989303" flag="0"/>
		</comp>
	</station>
	<station code="ARK1" name="ARK1" netid="HI" source="ITSAK Strong Motion Network" insttype="" lat="35.148777" lon="25.264194">
		<comp name=".HNE" depth="0.0">
			<acc value="0.092746937451102" flag="0"/>
			<vel value="0.0613396111088" flag="0"/>
			<psa03 value="0.316160777433014" flag="0"/>
			<psa10 value="0.058333494307746" flag="0"/>
			<psa30 value="0.00905134877408452" flag="0"/>
		</comp>
		<comp name=".HNN" depth="0.0">
			<acc value="0.066573839940294" flag="0"/>
			<vel value="0.0405385945482" flag="0"/>
			<psa03 value="0.210447399440915" flag="0"/>
			<psa10 value="0.0534218351845372" flag="0"/>
			<psa30 value="0.00357353922943511" flag="0"/>
		</comp>
		<comp name=".HNZ" depth="0.0">
			<acc value="0.031529725230582" flag="0"/>
			<vel value="0.0218267711549" flag="0"/>
			<psa03 value="0.122391993285343" flag="0"/>
			<psa10 value="0.0338168151980257" flag="0"/>
			<psa30 value="0.00382717853179276" flag="0"/>
		</comp>
	</station>
	<station code="CH01" name="CH01" netid="HI" source="ITSAK Strong Motion Network" insttype="" lat="35.517" lon="24.0208">
		<comp name=".HNE" depth="0.0">
			<acc value="0.025900976541732" flag="0"/>
			<vel value="0.0175460826147" flag="0"/>
			<psa03 value="0.058475243489743" flag="0"/>
			<psa10 value="0.0382244784341116" flag="0"/>
			<psa30 value="0.00238685332565038" flag="0"/>
		</comp>
		<comp name=".HNN" depth="0.0">
			<acc value="0.036540972797292" flag="0"/>
			<vel value="0.0209830045376" flag="0"/>
			<psa03 value="0.0782030711945321" flag="0"/>
			<psa10 value="0.0286104334258178" flag="0"/>
			<psa30 value="0.00280034946774256" flag="0"/>
		</comp>
		<comp name=".HNZ" depth="0.0">
			<acc value="0.0186354546822" flag="0"/>
			<vel value="0.0134478544247" flag="0"/>
			<psa03 value="0.0524055289008283" flag="0"/>
			<psa10 value="0.0257141296848952" flag="0"/>
			<psa30 value="0.00169651832351144" flag="0"/>
		</comp>
	</station>
	<station code="CH02" name="CH02" netid="HI" source="ITSAK Strong Motion Network" insttype="" lat="35.5145" lon="24.0315">
		<comp name=".HNE" depth="0.0">
			<acc value="0.024314307165084" flag="0"/>
			<vel value="0.0203226625499" flag="0"/>
			<psa03 value="0.073208808057619" flag="0"/>
			<psa10 value="0.0462314801085314" flag="0"/>
			<psa30 value="0.00271001244169237" flag="0"/>
		</comp>
		<comp name=".HNN" depth="0.0">
			<acc value="0.037512622724244" flag="0"/>
			<vel value="0.0234985889172" flag="0"/>
			<psa03 value="0.135085875859752" flag="0"/>
			<psa10 value="0.0324564125780357" flag="0"/>
			<psa30 value="0.00301124677198531" flag="0"/>
		</comp>
		<comp name=".HNZ" depth="0.0">
			<acc value="0.018555804846822" flag="0"/>
			<vel value="0.0133926378729" flag="0"/>
			<psa03 value="0.0348269477393475" flag="0"/>
			<psa10 value="0.0302267192468197" flag="0"/>
			<psa30 value="0.00174098001888321" flag="0"/>
		</comp>
	</station>
	<station code="CH03" name="CH03" netid="HI" source="ITSAK Strong Motion Network" insttype="" lat="35.53303" lon="24.0705">
		<comp name=".HNE" depth="0.0">
			<acc value="0.022905785531232" flag="0"/>
			<vel value="0.0142212773562" flag="0"/>
			<psa03 value="0.0983341287368007" flag="0"/>
			<psa10 value="0.0173369203608924" flag="0"/>
			<psa30 value="0.00197402576951944" flag="0"/>
		</comp>
		<comp name=".HNN" depth="0.0">
			<acc value="0.029356318709952" flag="0"/>
			<vel value="0.0155680675849" flag="0"/>
			<psa03 value="0.0750905733401983" flag="0"/>
			<psa10 value="0.0403790561644015" flag="0"/>
			<psa30 value="0.00236556274859078" flag="0"/>
		</comp>
		<comp name=".HNZ" depth="0.0">
			<acc value="0.016559887929594" flag="0"/>
			<vel value="0.00913102628357" flag="0"/>
			<psa03 value="0.0733702093747781" flag="0"/>
			<psa10 value="0.0168582142739661" flag="0"/>
			<psa30 value="0.00138756087743268" flag="0"/>
		</comp>
	</station>
	<station code="GOR1" name="GOR1" netid="HI" source="ITSAK Strong Motion Network" insttype="" lat="35.0582" lon="24.9628">
		<comp name=".HNE" depth="0.0">
			<acc value="0.027986688362748" flag="0"/>
			<vel value="0.0190248619243" flag="0"/>
			<psa03 value="0.0782361463025486" flag="0"/>
			<psa10 value="0.0340476204877751" flag="0"/>
			<psa30 value="0.00439260015487041" flag="0"/>
		</comp>
		<comp name=".HNN" depth="0.0">
			<acc value="0.03217632832707" flag="0"/>
			<vel value="0.0209810040345" flag="0"/>
			<psa03 value="0.0903266295291327" flag="0"/>
			<psa10 value="0.0321687347708177" flag="0"/>
			<psa30 value="0.00565290822744398" flag="0"/>
		</comp>
		<comp name=".HNZ" depth="0.0">
			<acc value="0.022098669340674" flag="0"/>
			<vel value="0.0163662475933" flag="0"/>
			<psa03 value="0.0568544486197479" flag="0"/>
			<psa10 value="0.042093313475255" flag="0"/>
			<psa30 value="0.00194123838918412" flag="0"/>
		</comp>
	</station>
	<station code="HER3" name="HER3" netid="HI" source="ITSAK Strong Motion Network" insttype="" lat="35.3296" lon="25.1065">
		<comp name=".HNE" depth="0.0">
			<acc value="0.16682966860566" flag="0"/>
			<vel value="0.0841298182704" flag="0"/>
			<psa03 value="0.635464346393757" flag="0"/>
			<psa10 value="0.185980190274828" flag="0"/>
			<psa30 value="0.00912116839928654" flag="0"/>
		</comp>
		<comp name=".HNN" depth="0.0">
			<acc value="0.18126740469312" flag="0"/>
			<vel value="0.0862843653271" flag="0"/>
			<psa03 value="0.568524703636637" flag="0"/>
			<psa10 value="0.102663215934243" flag="0"/>
			<psa30 value="0.00540592436596242" flag="0"/>
		</comp>
		<comp name=".HNZ" depth="0.0">
			<acc value="0.079669606774134" flag="0"/>
			<vel value="0.0501884246771" flag="0"/>
			<psa03 value="0.263594649351964" flag="0"/>
			<psa10 value="0.085976680533076" flag="0"/>
			<psa30 value="0.00272934788923428" flag="0"/>
		</comp>
	</station>
	<station code="KIS1" name="KIS1" netid="HI" source="ITSAK Strong Motion Network" insttype="" lat="35.493933" lon="23.658993">
		<comp name=".HNE" depth="0.0">
			<acc value="0.018686811687402" flag="0"/>
			<vel value="0.0169012791537" flag="0"/>
			<psa03 value="0.0522022237662636" flag="0"/>
			<psa10 value="0.0371736138194808" flag="0"/>
			<psa30 value="0.00180453183304319" flag="0"/>
		</comp>
		<comp name=".HNN" depth="0.0">
			<acc value="0.016378412503302" flag="0"/>
			<vel value="0.017950688668" flag="0"/>
			<psa03 value="0.0385804672249478" flag="0"/>
			<psa10 value="0.0382220295218881" flag="0"/>
			<psa30 value="0.00181922384798505" flag="0"/>
		</comp>
		<comp name=".HNZ" depth="0.0">
			<acc value="0.0099970437059016" flag="0"/>
			<vel value="0.00891633489168" flag="0"/>
			<psa03 value="0.0289989679143094" flag="0"/>
			<psa10 value="0.0168428082533788" flag="0"/>
			<psa30 value="0.00164293821159364" flag="0"/>
		</comp>
	</station>
	<station code="KRL1" name="KRL1" netid="HI" source="ITSAK Strong Motion Network" insttype="" lat="37.7951" lon="26.7065">
		<comp name=".HNE" depth="0.0">
			<acc value="0.041855800938282" flag="0"/>
			<vel value="0.0197829659418" flag="0"/>
			<psa03 value="0.0870405264241462" flag="0"/>
			<psa10 value="0.029028743636785" flag="0"/>
			<psa30 value="0.00359128457164246" flag="0"/>
		</comp>
		<comp name=".HNN" depth="0.0">
			<acc value="0.028091262782364" flag="0"/>
			<vel value="0.019438717213" flag="0"/>
			<psa03 value="0.0532205516421947" flag="0"/>
			<psa10 value="0.0345771968195918" flag="0"/>
			<psa30 value="0.00209529421962691" flag="0"/>
		</comp>
		<comp name=".HNZ" depth="0.0">
			<acc value="0.015055465037718" flag="0"/>
			<vel value="0.0102117757388" flag="0"/>
			<psa03 value="0.0281615791080537" flag="0"/>
			<psa10 value="0.0165676487754223" flag="0"/>
			<psa30 value="0.00173852079346924" flag="0"/>
		</comp>
	</station>
	<station code="KTL1" name="KTL1" netid="HI" source="ITSAK Strong Motion Network" insttype="" lat="35.20778" lon="25.34272">
		<comp name=".HNE" depth="0.0">
			<acc value="0.056663623761096" flag="0"/>
			<vel value="0.0366398430729" flag="0"/>
			<psa03 value="0.18370444035106" flag="0"/>
			<psa10 value="0.0308014935727846" flag="0"/>
			<psa30 value="0.00464077742873689" flag="0"/>
		</comp>
		<comp name=".HNN" depth="0.0">
			<acc value="0.063979692901176" flag="0"/>
			<vel value="0.0358579636578" flag="0"/>
			<psa03 value="0.226494879174336" flag="0"/>
			<psa10 value="0.0589287224887915" flag="0"/>
			<psa30 value="0.00330751327319046" flag="0"/>
		</comp>
		<comp name=".HNZ" depth="0.0">
			<acc value="0.03067184841801" flag="0"/>
			<vel value="0.0126215534003" flag="0"/>
			<psa03 value="0.0656341343976154" flag="0"/>
			<psa10 value="0.0130851933923465" flag="0"/>
			<psa30 value="0.00170512587288905" flag="0"/>
		</comp>
	</station>
	<station code="NAX1" name="NAX1" netid="HI" source="ITSAK Strong Motion Network" insttype="" lat="37.101394" lon="25.374103">
		<comp name=".HNE" depth="0.0">
			<acc value="0.4833911168124" flag="0"/>
			<vel value="0.12705825523" flag="0"/>
			<psa03 value="0.543164315302672" flag="0"/>
			<psa10 value="0.0460815039236732" flag="0"/>
			<psa30 value="0.00472709856375975" flag="0"/>
		</comp>
		<comp name=".HNN" depth="0.0">
			<acc value="0.33963168589038" flag="0"/>
			<vel value="0.11845000557" flag="0"/>
			<psa03 value="0.309341929884672" flag="0"/>
			<psa10 value="0.0354266018384961" flag="0"/>
			<psa30 value="0.00687431038931682" flag="0"/>
		</comp>
		<comp name=".HNZ" depth="0.0">
			<acc value="0.16227514294596" flag="0"/>
			<vel value="0.0431997472689" flag="0"/>
			<psa03 value="0.272806842947875" flag="0"/>
			<psa10 value="0.0551213165167317" flag="0"/>
			<psa30 value="0.00832152376010425" flag="0"/>
		</comp>
	</station>
	<station code="RTH1" name="RTH1" netid="HI" source="ITSAK Strong Motion Network" insttype="" lat="35.365393" lon="24.471773">
		<comp name=".HNE" depth="0.0">
			<acc value="0.029995117696884" flag="0"/>
			<vel value="0.0155585415086" flag="0"/>
			<psa03 value="0.118858811312871" flag="0"/>
			<psa10 value="0.012965393581176" flag="0"/>
			<psa30 value="0.00490927354861673" flag="0"/>
		</comp>
		<comp name=".HNN" depth="0.0">
			<acc value="0.034048527205092" flag="0"/>
			<vel value="0.0183218733225" flag="0"/>
			<psa03 value="0.0957991795586835" flag="0"/>
			<psa10 value="0.017861568866277" flag="0"/>
			<psa30 value="0.003040214107596" flag="0"/>
		</comp>
		<comp name=".HNZ" depth="0.0">
			<acc value="0.017828629197456" flag="0"/>
			<vel value="0.0083614865459" flag="0"/>
			<psa03 value="0.0581275017033688" flag="0"/>
			<psa10 value="0.00834750173104003" flag="0"/>
			<psa30 value="0.00248970222221873" flag="0"/>
		</comp>
	</station>
	<station code="SFR2" name="SFR2" netid="HI" source="ITSAK Strong Motion Network" insttype="" lat="36.399841" lon="25.438209">
		<comp name=".HNE" depth="0.0">
			<acc value="1.3687895301144" flag="0"/>
			<vel value="0.582986881908" flag="0"/>
			<psa03 value="4.96162701678838" flag="0"/>
			<psa10 value="0.369220959076605" flag="0"/>
			<psa30 value="0.0454063112784008" flag="0"/>
		</comp>
		<comp name=".HNN" depth="0.0">
			<acc value="1.6203260187162" flag="0"/>
			<vel value="0.586191023278" flag="0"/>
			<psa03 value="6.64818440958281" flag="0"/>
			<psa10 value="0.440651040967427" flag="0"/>
			<psa30 value="0.0254690838684553" flag="0"/>
		</comp>
		<comp name=".HNZ" depth="0.0">
			<acc value="1.0754492015358" flag="0"/>
			<vel value="0.431121536661" flag="0"/>
			<psa03 value="3.61265365390575" flag="0"/>
			<psa10 value="0.22527932864983" flag="0"/>
			<psa30 value="0.0209238194336687" flag="0"/>
		</comp>
	</station>
	<station code="AMGA" name="AMGA" netid="HL" source="National Observatory of Athens Seismic Network" insttype="" lat="36.831561" lon="25.893836">
		<comp name="00.HNE" depth="0.0">
			<acc value="0.45852096583728" flag="0"/>
			<vel value="0.0830582171676" flag="0"/>
			<psa03 value="0.284269164770495" flag="0"/>
			<psa10 value="0.0787414762363106" flag="0"/>
			<psa30 value="0.0125907807441023" flag="0"/>
		</comp>
		<comp name="00.HNN" depth="0.0">
			<acc value="0.4806931036638" flag="0"/>
			<vel value="0.0946399547538" flag="0"/>
			<psa03 value="0.287028847585865" flag="0"/>
			<psa10 value="0.0786561130815952" flag="0"/>
			<psa30 value="0.00703040989682452" flag="0"/>
		</comp>
		<comp name="00.HNZ" depth="0.0">
			<acc value="0.32683809610776" flag="0"/>
			<vel value="0.0933179421044" flag="0"/>
			<psa03 value="0.220459333515559" flag="0"/>
			<psa10 value="0.0875043967368346" flag="0"/>
			<psa30 value="0.0092362460226204" flag="0"/>
		</comp>
	</station>
	<station code="ANAF" name="ANAF" netid="HL" source="National Observatory of Athens Seismic Network" insttype="" lat="36.35675" lon="25.77262">
		<comp name=".HNE" depth="0.0">
			<acc value="2.790630893616" flag="0"/>
			<vel value="0.92796630324" flag="0"/>
			<psa03 value="6.82587351395891" flag="0"/>
			<psa10 value="0.384843353983656" flag="0"/>
			<psa30 value="0.0309028338277424" flag="0"/>
		</comp>
		<comp name=".HNN" depth="0.0">
			<acc value="3.1144174693734" flag="0"/>
			<vel value="0.989008896117" flag="0"/>
			<psa03 value="5.64386587840306" flag="0"/>
			<psa10 value="0.336096064714752" flag="0"/>
			<psa30 value="0.0479478129741534" flag="0"/>
		</comp>
		<comp name=".HNZ" depth="0.0">
			<acc value="1.5169523697018" flag="0"/>
			<vel value="0.419651412085" flag="0"/>
			<psa03 value="2.20230955886872" flag="0"/>
			<psa10 value="0.184975513720135" flag="0"/>
			<psa30 value="0.0329163838822374" flag="0"/>
		</comp>
	</station>
	<station code="ASTA" name="ASTA" netid="HL" source="National Observatory of Athens Seismic Network" insttype="" lat="36.54552" lon="26.35295">
		<comp name="00.HNE" depth="0.0">
			<acc value="0.090441188498424" flag="0"/>
			<vel value="0.0492258367929" flag="0"/>
			<psa03 value="0.123556320416305" flag="0"/>
			<psa10 value="0.0540324843870417" flag="0"/>
			<psa30 value="0.00326220506340807" flag="0"/>
		</comp>
		<comp name="00.HNN" depth="0.0">
			<acc value="0.092645104342584" flag="0"/>
			<vel value="0.0362004573056" flag="0"/>
			<psa03 value="0.203183939105428" flag="0"/>
			<psa10 value="0.0339133465927544" flag="0"/>
			<psa30 value="0.00683697791622591" flag="0"/>
		</comp>
		<comp name="00.HNZ" depth="0.0">
			<acc value="0.075126871463652" flag="0"/>
			<vel value="0.0385128116834" flag="0"/>
			<psa03 value="0.185593669669933" flag="0"/>
			<psa10 value="0.0442844936305649" flag="0"/>
			<psa30 value="0.00587824398813209" flag="0"/>
		</comp>
	</station>
	<station code="CHNB" name="CHNB" netid="HL" source="National Observatory of Athens Seismic Network" insttype="" lat="35.48765" lon="24.06605">
		<comp name="00.HNE" depth="0.0">
			<acc value="0.065168757494604" flag="0"/>
			<vel value="0.0511914799395" flag="0"/>
			<psa03 value="0.203263715223578" flag="0"/>
			<psa10 value="0.0600208285853349" flag="0"/>
			<psa30 value="0.00346296544613071" flag="0"/>
		</comp>
		<comp name="00.HNN" depth="0.0">
			<acc value="0.079927340837418" flag="0"/>
			<vel value="0.0627670900878" flag="0"/>
			<psa03 value="0.216760671830619" flag="0"/>
