<?xml version="1.0" encoding="UTF-8" standalone="yes"?>
<!DOCTYPE earthquake SYSTEM "stationlist.dtd">
<stationlist created="" xmlns="ch.ethz.sed.shakemap.usgs.xml">
  <station code="ASB" name="ASB" netid="VI" source="ODC" insttype="STS-2.5" lat="64.7482" lon="-21.3254">
    <comp name="--.HHE">
      <acc value="0.1099864102" flag="0"/>
      <vel value="0.0906998650" flag="0"/>
      <psa03 value="0.3499309703" flag="0"/>
      <psa10 value="0.1253482386" flag="0"/>
      <psa30 value="0.0079059722" flag="0"/>
    </comp>
    <comp name="--.HHN">
      <acc value="0.1284296570" flag="0"/>
      <vel value="0.0813641048" flag="0"/>
      <psa03 value="0.5244688548" flag="0"/>
      <psa10 value="0.0718682065" flag="0"/>
      <psa30 value="0.0122050758" flag="0"/>
    </comp>
    <comp name="--.HHZ">
      <acc value="0.0853188136" flag="0"/>
      <vel value="0.0498710345" flag="0"/>
      <psa03 value="0.2803830302" flag="0"/>
      <psa10 value="0.0507870463" flag="0"/>
      <psa30 value="0.0066635261" flag="0"/>
    </comp>
  </station>
</stationlist>
