<stationlist created="1778136229">
	<station code="S2114" name="S2114" netid="S2" source="IceSMN Icelandic Strong Motion Network (IceSMN)" insttype="" lat="63.7515" lon="-20.2168">
		<comp name="00.HN1" depth="0.0">
			<acc value="0.313588367345738" flag="0"/>
			<vel value="0.128156191072437" flag="0"/>
			<psa03 value="1.02793276216774" flag="0"/>
			<psa10 value="0.128108936588429" flag="0"/>
			<psa30 value="0.0271690381487713" flag="0"/>
		</comp>
		<comp name="00.HN2" depth="0.0">
			<acc value="0.210559638408101" flag="0"/>
			<vel value="0.0824876186251699" flag="0"/>
			<psa03 value="0.392063513950222" flag="0"/>
			<psa10 value="0.133651068727254" flag="0"/>
			<psa30 value="0.0106681242108566" flag="0"/>
		</comp>
		<comp name="00.HNZ" depth="0.0">
			<acc value="0.122558025616512" flag="0"/>
			<vel value="0.050215125682975" flag="0"/>
			<psa03 value="0.300377148512084" flag="0"/>
			<psa10 value="0.0711215039505961" flag="0"/>
			<psa30 value="0.0135176979811563" flag="0"/>
		</comp>
	</station>
	<station code="S2119" name="S2119" netid="S2" source="IceSMN Icelandic Strong Motion Network (IceSMN)" insttype="" lat="64.1301" lon="-20.32">
		<comp name="00.HN1" depth="0.0">
			<acc value="0.120469109106535" flag="0"/>
			<vel value="0.0800761150566476" flag="0"/>
			<psa03 value="0.39158519059716" flag="0"/>
			<psa10 value="0.0573756246035606" flag="0"/>
			<psa30 value="0.0224186201235643" flag="0"/>
		</comp>
		<comp name="00.HN2" depth="0.0">
			<acc value="0.150483649643432" flag="0"/>
			<vel value="0.137899355380989" flag="0"/>
			<psa03 value="0.472628475984397" flag="0"/>
			<psa10 value="0.166922597803069" flag="0"/>
			<psa30 value="0.023016993096149" flag="0"/>
		</comp>
		<comp name="00.HNZ" depth="0.0">
			<acc value="0.0621405949174452" flag="0"/>
			<vel value="0.046642657626116" flag="0"/>
			<psa03 value="0.143643067731697" flag="0"/>
			<psa10 value="0.0476747444680024" flag="0"/>
			<psa30 value="0.00908135992885679" flag="0"/>
		</comp>
	</station>
	<station code="S2405" name="S2405" netid="S2" source="IceSMN Icelandic Strong Motion Network (IceSMN)" insttype="" lat="64.0447" lon="-21.9848">
		<comp name="00.HN1" depth="0.0">
			<acc value="1.15285749348489" flag="0"/>
			<vel value="0.623201737009844" flag="0"/>
			<psa03 value="2.62759023162254" flag="0"/>
			<psa10 value="0.782561880882371" flag="0"/>
			<psa30 value="0.0915848470464686" flag="0"/>
		</comp>
		<comp name="00.HN2" depth="0.0">
			<acc value="1.64362179679329" flag="0"/>
			<vel value="0.634912236580927" flag="0"/>
			<psa03 value="4.14965256078216" flag="0"/>
			<psa10 value="0.57013880889798" flag="0"/>
			<psa30 value="0.0665602759580934" flag="0"/>
		</comp>
		<comp name="00.HNZ" depth="0.0">
			<acc value="1.02720449076358" flag="0"/>
			<vel value="0.219823132433725" flag="0"/>
			<psa03 value="0.833097855309649" flag="0"/>
			<psa10 value="0.191251614480686" flag="0"/>
			<psa30 value="0.0613495307720948" flag="0"/>
		</comp>
	</station>
	<station code="S2602" name="S2602" netid="S2" source="IceSMN Icelandic Strong Motion Network (IceSMN)" insttype="" lat="63.8464" lon="-22.4268">
		<comp name="00.HN1" depth="0.0">
			<acc value="6.38258327472204" flag="0"/>
			<vel value="4.77164956899222" flag="0"/>
			<psa03 value="11.0537995933216" flag="0"/>
			<psa10 value="5.43836234481801" flag="0"/>
			<psa30 value="0.399617726046577" flag="0"/>
		</comp>
		<comp name="00.HN2" depth="0.0">
			<acc value="7.82910009587676" flag="0"/>
			<vel value="5.47527978997484" flag="0"/>
			<psa03 value="15.2254112754383" flag="0"/>
			<psa10 value="5.17451958653632" flag="0"/>
			<psa30 value="0.383359662362953" flag="0"/>
		</comp>
		<comp name="00.HNZ" depth="0.0">
			<acc value="9.74546069016306" flag="0"/>
			<vel value="2.97082921190647" flag="0"/>
			<psa03 value="4.56808127964464" flag="0"/>
			<psa10 value="1.87328305581019" flag="0"/>
			<psa30 value="0.381778277603925" flag="0"/>
		</comp>
	</station>
	<station code="S2604" name="S2604" netid="S2" source="IceSMN Icelandic Strong Motion Network (IceSMN)" insttype="" lat="63.9843" lon="-21.6486">
		<comp name="00.HN1" depth="0.0">
			<acc value="0.332435280908952" flag="0"/>
			<vel value="0.415365052648564" flag="0"/>
			<psa03 value="0.888753958921566" flag="0"/>
			<psa10 value="0.534089680819676" flag="0"/>
			<psa30 value="0.10941296807201" flag="0"/>
		</comp>
		<comp name="00.HN2" depth="0.0">
			<acc value="0.31271677860312" flag="0"/>
			<vel value="0.28897789802666" flag="0"/>
			<psa03 value="0.770895068016445" flag="0"/>
			<psa10 value="0.7530105232514" flag="0"/>
			<psa30 value="0.0517975713351122" flag="0"/>
		</comp>
		<comp name="00.HNZ" depth="0.0">
			<acc value="0.339755338363762" flag="0"/>
			<vel value="0.166817522130516" flag="0"/>
			<psa03 value="0.826029970433031" flag="0"/>
			<psa10 value="0.24416896999598" flag="0"/>
			<psa30 value="0.0437424577231492" flag="0"/>
		</comp>
	</station>
</stationlist>
