<?xml version="1.0" encoding="UTF-8" standalone="yes"?>
<!DOCTYPE earthquake SYSTEM "stationlist.dtd">
<stationlist created="" xmlns="ch.ethz.sed.shakemap.usgs.xml">
  <station code="MG05" name="MG05" netid="CL" insttype="CMG40-T" lat="38.4155" lon="21.9458">
    <comp name="05.HHZ">
      <acc value="1.6506833815" flag="0"/>
      <vel value="0.2514308834" flag="0"/>
      <psa03 value="1.6917214535" flag="0"/>
      <psa10 value="0.1068341037" flag="0"/>
      <psa30 value="0.0113506580" flag="0"/>
    </comp>
    <comp name="05.HHE">
      <acc value="1.5211092451" flag="0"/>
      <vel value="0.4876746718" flag="0"/>
      <psa03 value="3.7587173548" flag="0"/>
      <psa10 value="0.1974598345" flag="0"/>
      <psa30 value="0.0219686315" flag="0"/>
    </comp>
    <comp name="05.HHN">
      <acc value="2.0725353269" flag="0"/>
      <vel value="0.5026678341" flag="0"/>
      <psa03 value="2.8906211621" flag="0"/>
      <psa10 value="0.2642244010" flag="0"/>
      <psa30 value="0.0206771350" flag="0"/>
    </comp>
  </station>
  <station code="ACOR" name="ACOR" netid="HA" insttype="30" lat="37.8902" lon="22.8692">
    <comp name="--.HHE">
      <acc value="0.0043312318" flag="0"/>
      <vel value="0.0020018512" flag="0"/>
      <psa03 value="0.0059027490" flag="0"/>
      <psa10 value="0.0019718719" flag="0"/>
      <psa30 value="0.0007848767" flag="0"/>
    </comp>
    <comp name="--.HHN">
      <acc value="0.0157700150" flag="0"/>
      <vel value="0.0066640603" flag="0"/>
      <psa03 value="0.0271156007" flag="0"/>
      <psa10 value="0.0082700579" flag="0"/>
      <psa30 value="0.0027702431" flag="0"/>
    </comp>
    <comp name="--.HHZ">
      <acc value="0.0030080105" flag="0"/>
      <vel value="0.0012040413" flag="0"/>
      <psa03 value="0.0058607559" flag="0"/>
      <psa10 value="0.0012296826" flag="0"/>
      <psa30 value="0.0004727208" flag="0"/>
    </comp>
  </station>
  <station code="KALE" name="KALE" netid="HA" insttype="40," lat="38.3911" lon="22.1398">
    <comp name="--.HHE">
      <acc value="1.0748696318" flag="0"/>
      <vel value="0.3135875906" flag="0"/>
      <psa03 value="1.3752647744" flag="0"/>
      <psa10 value="0.0980985942" flag="0"/>
      <psa30 value="0.0076794926" flag="0"/>
    </comp>
    <comp name="--.HHN">
      <acc value="0.7323600904" flag="0"/>
      <vel value="0.2293187946" flag="0"/>
      <psa03 value="1.5909766926" flag="0"/>
      <psa10 value="0.1303907915" flag="0"/>
      <psa30 value="0.0131022248" flag="0"/>
    </comp>
    <comp name="--.HHZ">
      <acc value="0.6032000351" flag="0"/>
      <vel value="0.1425447525" flag="0"/>
      <psa03 value="1.1375570552" flag="0"/>
      <psa10 value="0.0734908180" flag="0"/>
      <psa30 value="0.0106684037" flag="0"/>
    </comp>
  </station>
  <station code="LAKA" name="LAKA" netid="HA" insttype="120s" lat="38.2401" lon="21.9785">
    <comp name="--.HHE">
      <acc value="0.1086110949" flag="0"/>
      <vel value="0.0253072164" flag="0"/>
      <psa03 value="0.1183353415" flag="0"/>
      <psa10 value="0.0285210153" flag="0"/>
      <psa30 value="0.0034732174" flag="0"/>
    </comp>
    <comp name="--.HHN">
      <acc value="0.1377591174" flag="0"/>
      <vel value="0.0275317738" flag="0"/>
      <psa03 value="0.1020301217" flag="0"/>
      <psa10 value="0.0259826282" flag="0"/>
      <psa30 value="0.0083886342" flag="0"/>
    </comp>
    <comp name="--.HHZ">
      <acc value="0.0975687281" flag="0"/>
      <vel value="0.0282504942" flag="0"/>
      <psa03 value="0.0755130900" flag="0"/>
      <psa10 value="0.0327527971" flag="0"/>
      <psa30 value="0.0093983451" flag="0"/>
    </comp>
  </station>
  <station code="LOUT" name="LOUT" netid="HA" insttype="30" lat="37.9879" lon="22.9743">
    <comp name="--.HHN">
      <acc value="0.0106460378" flag="0"/>
      <vel value="0.0043555433" flag="0"/>
      <psa03 value="0.0183461584" flag="0"/>
      <psa10 value="0.0052376473" flag="0"/>
      <psa30 value="0.0006196282" flag="0"/>
    </comp>
    <comp name="--.HHZ">
      <acc value="0.0058474640" flag="0"/>
      <vel value="0.0021675624" flag="0"/>
      <psa03 value="0.0073317117" flag="0"/>
      <psa10 value="0.0014884785" flag="0"/>
      <psa30 value="0.0006099494" flag="0"/>
    </comp>
    <comp name="--.HHE">
      <acc value="0.0113590949" flag="0"/>
      <vel value="0.0037367619" flag="0"/>
      <psa03 value="0.0147677926" flag="0"/>
      <psa10 value="0.0064345710" flag="0"/>
      <psa30 value="0.0011068323" flag="0"/>
    </comp>
  </station>
  <station code="THAL" name="THAL" netid="HA" insttype="30" lat="38.0357" lon="22.6634">
    <comp name="--.HHN">
      <acc value="0.0665692035" flag="0"/>
      <vel value="0.0129255505" flag="0"/>
      <psa03 value="0.0820063742" flag="0"/>
      <psa10 value="0.0082815788" flag="0"/>
      <psa30 value="0.0013230096" flag="0"/>
    </comp>
    <comp name="--.HHE">
      <acc value="0.0644724789" flag="0"/>
      <vel value="0.0140056272" flag="0"/>
      <psa03 value="0.0832296486" flag="0"/>
      <psa10 value="0.0075746124" flag="0"/>
      <psa30 value="0.0014610510" flag="0"/>
    </comp>
    <comp name="--.HHZ">
      <acc value="0.0311543773" flag="0"/>
      <vel value="0.0067385737" flag="0"/>
      <psa03 value="0.0388058865" flag="0"/>
      <psa10 value="0.0047745288" flag="0"/>
      <psa30 value="0.0006808395" flag="0"/>
    </comp>
  </station>
  <station code="VILL" name="VILL" netid="HA" insttype="30" lat="38.1642" lon="23.3122">
    <comp name="--.HHN">
      <acc value="0.0071822782" flag="0"/>
      <vel value="0.0039634573" flag="0"/>
      <psa03 value="0.0149507676" flag="0"/>
      <psa10 value="0.0043546900" flag="0"/>
      <psa30 value="0.0007221889" flag="0"/>
    </comp>
    <comp name="--.HHZ">
      <acc value="0.0025795212" flag="0"/>
      <vel value="0.0020297054" flag="0"/>
      <psa03 value="0.0070717296" flag="0"/>
      <psa10 value="0.0043313649" flag="0"/>
      <psa30 value="0.0005840816" flag="0"/>
    </comp>
    <comp name="--.HHE">
      <acc value="0.0058504628" flag="0"/>
      <vel value="0.0060434835" flag="0"/>
      <psa03 value="0.0283395649" flag="0"/>
      <psa10 value="0.0115574790" flag="0"/>
      <psa30 value="0.0007206505" flag="0"/>
    </comp>
  </station>
  <station code="KLV1" name="KLV1" netid="HI" insttype="CMG-5TD,ACCELEROMETER,GURALP" lat="38.0326" lon="22.108">
    <comp name="--.HNN">
      <acc value="0.0627074490" flag="0"/>
      <vel value="0.0250303307" flag="0"/>
      <psa03 value="0.1565467337" flag="0"/>
      <psa10 value="0.0234102143" flag="0"/>
      <psa30 value="0.0020033564" flag="0"/>
    </comp>
    <comp name="--.HNZ">
      <acc value="0.0485543870" flag="0"/>
      <vel value="0.0139727110" flag="0"/>
      <psa03 value="0.0419677278" flag="0"/>
      <psa10 value="0.0197498500" flag="0"/>
      <psa30 value="0.0020853032" flag="0"/>
    </comp>
    <comp name="--.HNE">
      <acc value="0.0601627074" flag="0"/>
      <vel value="0.0207504381" flag="0"/>
      <psa03 value="0.1385113015" flag="0"/>
      <psa10 value="0.0378949505" flag="0"/>
      <psa30 value="0.0024693640" flag="0"/>
    </comp>
  </station>
  <station code="LAM2" name="LAM2" netid="HI" insttype="CMG-5TD,ACCELEROMETER,GURALP" lat="38.902" lon="22.4313">
    <comp name="--.HNE">
      <acc value="0.0287587373" flag="0"/>
      <vel value="0.0125499520" flag="0"/>
      <psa03 value="0.0455655231" flag="0"/>
      <psa10 value="0.0111173366" flag="0"/>
      <psa30 value="0.0020291871" flag="0"/>
    </comp>
    <comp name="--.HNZ">
      <acc value="0.0187987666" flag="0"/>
      <vel value="0.0064398466" flag="0"/>
      <psa03 value="0.0228257836" flag="0"/>
      <psa10 value="0.0075174424" flag="0"/>
      <psa30 value="0.0018134610" flag="0"/>
    </comp>
    <comp name="--.HNN">
      <acc value="0.0371874705" flag="0"/>
      <vel value="0.0121661405" flag="0"/>
      <psa03 value="0.0484192750" flag="0"/>
      <psa10 value="0.0097237942" flag="0"/>
      <psa30 value="0.0025007293" flag="0"/>
    </comp>
  </station>
  <station code="MSL1" name="MSL1" netid="HI" insttype="CMG-5TD,ACCELEROMETER,GURALP" lat="38.3727" lon="21.4243">
    <comp name="--.HNZ">
      <acc value="0.0151641280" flag="0"/>
      <vel value="0.0094850800" flag="0"/>
      <psa03 value="0.0374380271" flag="0"/>
      <psa10 value="0.0133440414" flag="0"/>
      <psa30 value="0.0006853229" flag="0"/>
    </comp>
    <comp name="--.HNE">
      <acc value="0.0232993143" flag="0"/>
      <vel value="0.0144072935" flag="0"/>
      <psa03 value="0.0710986648" flag="0"/>
      <psa10 value="0.0252868805" flag="0"/>
      <psa30 value="0.0019722167" flag="0"/>
    </comp>
    <comp name="--.HNN">
      <acc value="0.0277685064" flag="0"/>
      <vel value="0.0137603970" flag="0"/>
      <psa03 value="0.0953732990" flag="0"/>
      <psa10 value="0.0230564312" flag="0"/>
      <psa30 value="0.0016703112" flag="0"/>
    </comp>
  </station>
  <station code="DLFA" name="DLFA" netid="HL" insttype="CMG-5" lat="38.4784" lon="22.4958">
    <comp name="00.HNN">
      <acc value="0.1188641858" flag="0"/>
      <vel value="0.0259435302" flag="0"/>
      <psa03 value="0.1014269126" flag="0"/>
      <psa10 value="0.0175985216" flag="0"/>
      <psa30 value="0.0019603111" flag="0"/>
    </comp>
    <comp name="00.HNE">
      <acc value="0.0634160557" flag="0"/>
      <vel value="0.0231638262" flag="0"/>
      <psa03 value="0.0587751030" flag="0"/>
      <psa10 value="0.0181344479" flag="0"/>
      <psa30 value="0.0018676066" flag="0"/>
    </comp>
    <comp name="00.HNZ">
      <acc value="0.0776597330" flag="0"/>
      <vel value="0.0174656620" flag="0"/>
      <psa03 value="0.0538215996" flag="0"/>
      <psa10 value="0.0140228205" flag="0"/>
      <psa30 value="0.0019689204" flag="0"/>
    </comp>
  </station>
  <station code="EVR" name="EVR" netid="HL" insttype="DR24" lat="38.9166" lon="21.8105">
    <comp name="--.HHE">
      <acc value="0.0426335157" flag="0"/>
      <vel value="0.0163893242" flag="0"/>
      <psa03 value="0.1282226494" flag="0"/>
      <psa10 value="0.0123177082" flag="0"/>
      <psa30 value="0.0029914548" flag="0"/>
    </comp>
    <comp name="--.HHN">
      <acc value="0.0496791926" flag="0"/>
      <vel value="0.0160742275" flag="0"/>
      <psa03 value="0.0989021086" flag="0"/>
      <psa10 value="0.0091495766" flag="0"/>
      <psa30 value="0.0024992862" flag="0"/>
    </comp>
    <comp name="--.HHZ">
      <acc value="0.0366756247" flag="0"/>
      <vel value="0.0136881351" flag="0"/>
      <psa03 value="0.1353413394" flag="0"/>
      <psa10 value="0.0067996912" flag="0"/>
      <psa30 value="0.0024384304" flag="0"/>
    </comp>
  </station>
  <station code="KLV" name="KLV" netid="HL" insttype="120" lat="38.0435" lon="22.1504">
    <comp name="--.HHN">
      <acc value="0.0263577339" flag="0"/>
      <vel value="0.0074456050" flag="0"/>
      <psa03 value="0.0210344620" flag="0"/>
      <psa10 value="0.0075409834" flag="0"/>
      <psa30 value="0.0018268068" flag="0"/>
    </comp>
    <comp name="--.HHZ">
      <acc value="0.0229108986" flag="0"/>
      <vel value="0.0073606429" flag="0"/>
      <psa03 value="0.0185462189" flag="0"/>
      <psa10 value="0.0072993601" flag="0"/>
      <psa30 value="0.0014948563" flag="0"/>
    </comp>
    <comp name="--.HHE">
      <acc value="0.0266679070" flag="0"/>
      <vel value="0.0056536762" flag="0"/>
      <psa03 value="0.0184235506" flag="0"/>
      <psa10 value="0.0066881614" flag="0"/>
      <psa30 value="0.0008024069" flag="0"/>
    </comp>
  </station>
  <station code="LKR" name="LKR" netid="HL" insttype="30" lat="38.6496" lon="22.9989">
    <comp name="--.HHN">
      <acc value="0.0395098368" flag="0"/>
      <vel value="0.0097879905" flag="0"/>
      <psa03 value="0.0432061929" flag="0"/>
      <psa10 value="0.0060085380" flag="0"/>
      <psa30 value="0.0008376290" flag="0"/>
    </comp>
    <comp name="--.HHE">
      <acc value="0.0644612322" flag="0"/>
      <vel value="0.0144492562" flag="0"/>
      <psa03 value="0.0469778874" flag="0"/>
      <psa10 value="0.0042759280" flag="0"/>
      <psa30 value="0.0014336035" flag="0"/>
    </comp>
    <comp name="--.HHZ">
      <acc value="0.0196890786" flag="0"/>
      <vel value="0.0063021528" flag="0"/>
      <psa03 value="0.0234340512" flag="0"/>
      <psa10 value="0.0027397300" flag="0"/>
      <psa30 value="0.0013089546" flag="0"/>
    </comp>
  </station>
  <station code="PATC" name="PATC" netid="HL" insttype="CMG-5" lat="38.2693" lon="21.76">
    <comp name="00.HNN">
      <acc value="0.1262701024" flag="0"/>
      <vel value="0.0450001099" flag="0"/>
      <psa03 value="0.2638625354" flag="0"/>
      <psa10 value="0.0480612863" flag="0"/>
      <psa30 value="0.0070548918" flag="0"/>
    </comp>
    <comp name="00.HNE">
      <acc value="0.1279761587" flag="0"/>
      <vel value="0.0490521837" flag="0"/>
      <psa03 value="0.2925375040" flag="0"/>
      <psa10 value="0.0402087150" flag="0"/>
      <psa30 value="0.0087830513" flag="0"/>
    </comp>
    <comp name="00.HNZ">
      <acc value="0.1377471972" flag="0"/>
      <vel value="0.0333270837" flag="0"/>
      <psa03 value="0.1823301271" flag="0"/>
      <psa10 value="0.0366398811" flag="0"/>
      <psa30 value="0.0043143259" flag="0"/>
    </comp>
  </station>
  <station code="PATG" name="PATG" netid="HL" insttype="CMG-5" lat="38.2386" lon="21.7266">
    <comp name="00.HNE">
      <acc value="0.1108108932" flag="0"/>
      <vel value="0.0539883569" flag="0"/>
      <psa03 value="0.2668056790" flag="0"/>
      <psa10 value="0.0606893021" flag="0"/>
      <psa30 value="0.0115298889" flag="0"/>
    </comp>
    <comp name="00.HNN">
      <acc value="0.0878636285" flag="0"/>
      <vel value="0.0380732720" flag="0"/>
      <psa03 value="0.1898149749" flag="0"/>
      <psa10 value="0.0597822548" flag="0"/>
      <psa30 value="0.0188240473" flag="0"/>
    </comp>
    <comp name="00.HNZ">
      <acc value="0.0698765416" flag="0"/>
      <vel value="0.0219404170" flag="0"/>
      <psa03 value="0.1125295813" flag="0"/>
      <psa10 value="0.0375935979" flag="0"/>
      <psa30 value="0.0050388594" flag="0"/>
    </comp>
  </station>
  <station code="RIOA" name="RIOA" netid="HL" insttype="CMG-5" lat="38.2959" lon="21.7912">
    <comp name="00.HNE">
      <acc value="0.1417790942" flag="0"/>
      <vel value="0.0428990588" flag="0"/>
      <psa03 value="0.4298044329" flag="0"/>
      <psa10 value="0.0225585763" flag="0"/>
      <psa30 value="0.0025666515" flag="0"/>
    </comp>
    <comp name="00.HNN">
      <acc value="0.1757783345" flag="0"/>
      <vel value="0.0452917170" flag="0"/>
      <psa03 value="0.3102225034" flag="0"/>
      <psa10 value="0.0269398720" flag="0"/>
      <psa30 value="0.0053056371" flag="0"/>
    </comp>
    <comp name="00.HNZ">
      <acc value="0.1348667254" flag="0"/>
      <vel value="0.0330722447" flag="0"/>
      <psa03 value="0.1620172789" flag="0"/>
      <psa10 value="0.0134069713" flag="0"/>
      <psa30 value="0.0045538230" flag="0"/>
    </comp>
  </station>
  <station code="RLS" name="RLS" netid="HL" insttype="CMG3ESPC-120s" lat="38.0559" lon="21.4647">
    <comp name="--.HHE">
      <acc value="0.0201785928" flag="0"/>
      <vel value="0.0052005166" flag="0"/>
      <psa03 value="0.0450122882" flag="0"/>
      <psa10 value="0.0028866092" flag="0"/>
      <psa30 value="0.0007809529" flag="0"/>
    </comp>
    <comp name="--.HHN">
      <acc value="0.0269651801" flag="0"/>
      <vel value="0.0068966336" flag="0"/>
      <psa03 value="0.0362037975" flag="0"/>
      <psa10 value="0.0054829412" flag="0"/>
      <psa30 value="0.0003954817" flag="0"/>
    </comp>
    <comp name="--.HHZ">
      <acc value="0.0095172395" flag="0"/>
      <vel value="0.0038604519" flag="0"/>
      <psa03 value="0.0329944216" flag="0"/>
      <psa10 value="0.0038042311" flag="0"/>
      <psa30 value="0.0016456226" flag="0"/>
    </comp>
  </station>
  <station code="AMPL" name="AMPL" netid="HP" insttype="Compact," lat="38.9224" lon="21.2135">
    <comp name="--.HHZ">
      <acc value="0.0030521351" flag="0"/>
      <vel value="0.0020530946" flag="0"/>
      <psa03 value="0.0074195967" flag="0"/>
      <psa10 value="0.0042568769" flag="0"/>
      <psa30 value="0.0005042895" flag="0"/>
    </comp>
    <comp name="--.HHE">
      <acc value="0.0059348973" flag="0"/>
      <vel value="0.0031419483" flag="0"/>
      <psa03 value="0.0255437229" flag="0"/>
      <psa10 value="0.0026274682" flag="0"/>
      <psa30 value="0.0004161068" flag="0"/>
    </comp>
    <comp name="--.HHN">
      <acc value="0.0047977694" flag="0"/>
      <vel value="0.0030018578" flag="0"/>
      <psa03 value="0.0174232810" flag="0"/>
      <psa10 value="0.0087498608" flag="0"/>
      <psa30 value="0.0003990267" flag="0"/>
    </comp>
  </station>
  <station code="AMT" name="AMT" netid="HP" insttype="CMG-3T," lat="37.5324" lon="21.7089">
    <comp name="00.HHE">
      <acc value="0.0160104986" flag="0"/>
      <vel value="0.0093975462" flag="0"/>
      <psa03 value="0.0431646236" flag="0"/>
      <psa10 value="0.0077316144" flag="0"/>
      <psa30 value="0.0012904600" flag="0"/>
    </comp>
    <comp name="00.HHZ">
      <acc value="0.0117876056" flag="0"/>
      <vel value="0.0060199634" flag="0"/>
      <psa03 value="0.0326977239" flag="0"/>
      <psa10 value="0.0033169548" flag="0"/>
      <psa30 value="0.0005553125" flag="0"/>
    </comp>
    <comp name="00.HHN">
      <acc value="0.0189084928" flag="0"/>
      <vel value="0.0093659478" flag="0"/>
      <psa03 value="0.0425185551" flag="0"/>
      <psa10 value="0.0072299998" flag="0"/>
      <psa30 value="0.0008097739" flag="0"/>
    </comp>
  </station>
  <station code="ANX" name="ANX" netid="HP" insttype="120" lat="38.5933" lon="21.9209">
    <comp name="--.HHE">
      <acc value="0.5273798322" flag="0"/>
      <vel value="0.1723709217" flag="0"/>
      <psa03 value="0.8018802558" flag="0"/>
      <psa10 value="0.0322440420" flag="0"/>
      <psa30 value="0.0046015457" flag="0"/>
    </comp>
    <comp name="--.HHZ">
      <acc value="0.2039944638" flag="0"/>
      <vel value="0.0413586506" flag="0"/>
      <psa03 value="0.2573249845" flag="0"/>
      <psa10 value="0.0278380569" flag="0"/>
      <psa30 value="0.0047555040" flag="0"/>
    </comp>
    <comp name="--.HHN">
      <acc value="0.2773997202" flag="0"/>
      <vel value="0.0982767448" flag="0"/>
      <psa03 value="0.7275084863" flag="0"/>
      <psa10 value="0.0534512784" flag="0"/>
      <psa30 value="0.0039308216" flag="0"/>
    </comp>
  </station>
  <station code="AXS" name="AXS" netid="HP" insttype="40," lat="38.1962" lon="21.3763">
    <comp name="--.HHZ">
      <acc value="0.0104014677" flag="0"/>
      <vel value="0.0031845565" flag="0"/>
      <psa03 value="0.0158713355" flag="0"/>
      <psa10 value="0.0012724601" flag="0"/>
      <psa30 value="0.0003018514" flag="0"/>
    </comp>
    <comp name="--.HHN">
      <acc value="0.0121670065" flag="0"/>
      <vel value="0.0042921067" flag="0"/>
      <psa03 value="0.0250232893" flag="0"/>
      <psa10 value="0.0024242025" flag="0"/>
      <psa30 value="0.0003644280" flag="0"/>
    </comp>
    <comp name="--.HHE">
      <acc value="0.0128519218" flag="0"/>
      <vel value="0.0032600693" flag="0"/>
      <psa03 value="0.0240167091" flag="0"/>
      <psa10 value="0.0020308317" flag="0"/>
      <psa30 value="0.0003512875" flag="0"/>
    </comp>
  </station>
  <station code="DRO" name="DRO" netid="HP" insttype="120P," lat="37.952" lon="21.71">
    <comp name="--.HHN">
      <acc value="0.0691476811" flag="0"/>
      <vel value="0.0180086667" flag="0"/>
      <psa03 value="0.1290551291" flag="0"/>
      <psa10 value="0.0118496670" flag="0"/>
      <psa30 value="0.0026316637" flag="0"/>
    </comp>
    <comp name="--.HHZ">
      <acc value="0.0582074195" flag="0"/>
