<stationlist created="1778136374">
	<station code="AGRP" name="AGRP" netid="CL" source="Corinth Riff Laboratory (CRLNET)" insttype="" lat="38.3959" lon="21.72277">
		<comp name="00.HNE" depth="0.0">
			<acc value="0.0753015373232365" flag="0"/>
			<vel value="0.0210193095606277" flag="0"/>
			<psa03 value="0.115390150868523" flag="0"/>
			<psa10 value="0.0113314112481435" flag="0"/>
			<psa30 value="0.00196597255880686" flag="0"/>
		</comp>
		<comp name="00.HNN" depth="0.0">
			<acc value="0.0700720405498367" flag="0"/>
			<vel value="0.0160760255851174" flag="0"/>
			<psa03 value="0.0949877046505909" flag="0"/>
			<psa10 value="0.0139125891479516" flag="0"/>
			<psa30 value="0.00253375116079273" flag="0"/>
		</comp>
		<comp name="00.HNZ" depth="0.0">
			<acc value="0.0605716084025447" flag="0"/>
			<vel value="0.0109874926059583" flag="0"/>
			<psa03 value="0.0590597127361187" flag="0"/>
			<psa10 value="0.0115891263582647" flag="0"/>
			<psa30 value="0.00144338358550545" flag="0"/>
		</comp>
	</station>
	<station code="MALA" name="MALA" netid="CL" source="Corinth Riff Laboratory (CRLNET)" insttype="" lat="38.39341" lon="21.87263">
		<comp name="01.HNE" depth="0.0">
			<acc value="0.843263881976153" flag="0"/>
			<vel value="0.178174618349988" flag="0"/>
			<psa03 value="0.534803595708202" flag="0"/>
			<psa10 value="0.110362469110828" flag="0"/>
			<psa30 value="0.012664729005368" flag="0"/>
		</comp>
		<comp name="01.HNN" depth="0.0">
			<acc value="1.03572137889933" flag="0"/>
			<vel value="0.231208294217924" flag="0"/>
			<psa03 value="0.463618744978532" flag="0"/>
			<psa10 value="0.0970096049676706" flag="0"/>
			<psa30 value="0.00965626303235541" flag="0"/>
		</comp>
		<comp name="01.HNZ" depth="0.0">
			<acc value="0.235238775581442" flag="0"/>
			<vel value="0.0677614966058665" flag="0"/>
			<psa03 value="0.209885691246313" flag="0"/>
			<psa10 value="0.0274748468180821" flag="0"/>
			<psa30 value="0.0069046173253317" flag="0"/>
		</comp>
	</station>
	<station code="ROD3" name="ROD3" netid="CL" source="Corinth Riff Laboratory (CRLNET)" insttype="" lat="38.30811" lon="21.89204">
		<comp name="00.HNE" depth="0.0">
			<acc value="0.826022372965955" flag="0"/>
			<vel value="0.325055238972573" flag="0"/>
			<psa03 value="3.89006641221902" flag="0"/>
			<psa10 value="0.0750514722256214" flag="0"/>
			<psa30 value="0.0104343300054472" flag="0"/>
		</comp>
		<comp name="00.HNN" depth="0.0">
			<acc value="1.89334800084545" flag="0"/>
			<vel value="0.592978284966101" flag="0"/>
			<psa03 value="5.90368942107434" flag="0"/>
			<psa10 value="0.156867966091925" flag="0"/>
			<psa30 value="0.0153134676371697" flag="0"/>
		</comp>
		<comp name="00.HNZ" depth="0.0">
			<acc value="0.494902271223109" flag="0"/>
			<vel value="0.146018911296953" flag="0"/>
			<psa03 value="0.977169792543055" flag="0"/>
			<psa10 value="0.043094798570587" flag="0"/>
			<psa30 value="0.00502097042670246" flag="0"/>
		</comp>
	</station>
	<station code="AIGS" name="AIGS" netid="HA" source="Hellenic Seismological Network, University of Athens, Seismological Laboratory (HA)" insttype="" lat="38.25001" lon="22.0878">
		<comp name="--.HNE" depth="0.0">
			<acc value="0.726439987891539" flag="0"/>
			<vel value="0.194838066344141" flag="0"/>
			<psa03 value="1.00836729938452" flag="0"/>
			<psa10 value="0.0457567061570919" flag="0"/>
			<psa30 value="0.0126775773272622" flag="0"/>
		</comp>
		<comp name="--.HNN" depth="0.0">
			<acc value="0.666306494323472" flag="0"/>
			<vel value="0.203027906948127" flag="0"/>
			<psa03 value="0.937309175465222" flag="0"/>
			<psa10 value="0.0963634361048126" flag="0"/>
			<psa30 value="0.0128430582896032" flag="0"/>
		</comp>
		<comp name="--.HNZ" depth="0.0">
			<acc value="0.412118586194586" flag="0"/>
			<vel value="0.0885142444871127" flag="0"/>
			<psa03 value="0.298239861093765" flag="0"/>
			<psa10 value="0.0419802022324841" flag="0"/>
			<psa30 value="0.0123561852033116" flag="0"/>
		</comp>
	</station>
	<station code="KIAS" name="KIAS" netid="HA" source="Hellenic Seismological Network, University of Athens, Seismological Laboratory (HA)" insttype="" lat="37.9875" lon="22.7543">
		<comp name="--.HNE" depth="0.0">
			<acc value="0.0346493134239644" flag="0"/>
			<vel value="0.0106275126871142" flag="0"/>
			<psa03 value="0.0421919008410303" flag="0"/>
			<psa10 value="0.00806567758707585" flag="0"/>
			<psa30 value="0.00239505032027609" flag="0"/>
		</comp>
		<comp name="--.HNN" depth="0.0">
			<acc value="0.0337066913859882" flag="0"/>
			<vel value="0.0104403360840371" flag="0"/>
			<psa03 value="0.0652341372494402" flag="0"/>
			<psa10 value="0.00710327272271682" flag="0"/>
			<psa30 value="0.00274314468776624" flag="0"/>
		</comp>
		<comp name="--.HNZ" depth="0.0">
			<acc value="0.0168033240253263" flag="0"/>
			<vel value="0.00485812414761332" flag="0"/>
			<psa03 value="0.0181653358870183" flag="0"/>
			<psa10 value="0.00631804699656615" flag="0"/>
			<psa30 value="0.00210914761998533" flag="0"/>
		</comp>
	</station>
	<station code="LTRS" name="LTRS" netid="HA" source="Hellenic Seismological Network, University of Athens, Seismological Laboratory (HA)" insttype="" lat="37.97528" lon="22.9765">
		<comp name="--.HNE" depth="0.0">
			<acc value="0.00757763610263619" flag="0"/>
			<vel value="0.0052881573113139" flag="0"/>
			<psa03 value="0.0314090290460268" flag="0"/>
			<psa10 value="0.00979317418460732" flag="0"/>
			<psa30 value="0.00168499150124411" flag="0"/>
		</comp>
		<comp name="--.HNN" depth="0.0">
			<acc value="0.00796791589323658" flag="0"/>
			<vel value="0.00553302489215366" flag="0"/>
			<psa03 value="0.0314985134592633" flag="0"/>
			<psa10 value="0.00927774396436483" flag="0"/>
			<psa30 value="0.0012089344228257" flag="0"/>
		</comp>
		<comp name="--.HNZ" depth="0.0">
			<acc value="0.00752869738439934" flag="0"/>
			<vel value="0.00473603130018685" flag="0"/>
			<psa03 value="0.0140490528781373" flag="0"/>
			<psa10 value="0.00863748298765736" flag="0"/>
			<psa30 value="0.000872473029056299" flag="0"/>
		</comp>
	</station>
	<station code="XLKS" name="XLKS" netid="HA" source="Hellenic Seismological Network, University of Athens, Seismological Laboratory (HA)" insttype="" lat="38.0772" lon="22.6361">
		<comp name="--.HNE" depth="0.0">
			<acc value="0.0520110484217751" flag="0"/>
			<vel value="0.0149370756957293" flag="0"/>
			<psa03 value="0.0612968230670323" flag="0"/>
			<psa10 value="0.0207057983788038" flag="0"/>
			<psa30 value="0.00471717084376439" flag="0"/>
		</comp>
		<comp name="--.HNN" depth="0.0">
			<acc value="0.0555342783369718" flag="0"/>
			<vel value="0.0123606446555329" flag="0"/>
			<psa03 value="0.0598650724552476" flag="0"/>
			<psa10 value="0.0172145639963801" flag="0"/>
			<psa30 value="0.00303620614111592" flag="0"/>
		</comp>
		<comp name="--.HNZ" depth="0.0">
			<acc value="0.0281704878177636" flag="0"/>
			<vel value="0.0100575685783666" flag="0"/>
			<psa03 value="0.0604467211412851" flag="0"/>
			<psa10 value="0.00738514862441193" flag="0"/>
			<psa30 value="0.00164517093735385" flag="0"/>
		</comp>
	</station>
	<station code="KLV1" name="KLV1" netid="HI" source="ITSAK Strong Motion Network" insttype="" lat="38.03256" lon="22.10797">
		<comp name="--.HNE" depth="0.0">
			<acc value="0.0598850982247036" flag="0"/>
			<vel value="0.0211264209026058" flag="0"/>
			<psa03 value="0.139461458029153" flag="0"/>
			<psa10 value="0.0379203623751839" flag="0"/>
			<psa30 value="0.00267066231304464" flag="0"/>
		</comp>
		<comp name="--.HNN" depth="0.0">
			<acc value="0.0634180550168391" flag="0"/>
			<vel value="0.0256444931784353" flag="0"/>
			<psa03 value="0.156642465370569" flag="0"/>
			<psa10 value="0.0235527449859244" flag="0"/>
			<psa30 value="0.00222547735719284" flag="0"/>
		</comp>
		<comp name="--.HNZ" depth="0.0">
			<acc value="0.0501399534249874" flag="0"/>
			<vel value="0.0146809420433357" flag="0"/>
			<psa03 value="0.0424603540807399" flag="0"/>
			<psa10 value="0.0198803046666967" flag="0"/>
			<psa30 value="0.0022858793361275" flag="0"/>
		</comp>
	</station>
	<station code="LAM2" name="LAM2" netid="HI" source="ITSAK Strong Motion Network" insttype="" lat="38.90203" lon="22.431301">
		<comp name="--.HNE" depth="0.0">
			<acc value="0.0284558051175091" flag="0"/>
			<vel value="0.0123334933257755" flag="0"/>
			<psa03 value="0.0459949884035834" flag="0"/>
			<psa10 value="0.0110253745548745" flag="0"/>
			<psa30 value="0.00226350823281837" flag="0"/>
		</comp>
		<comp name="--.HNN" depth="0.0">
			<acc value="0.0376010272419311" flag="0"/>
			<vel value="0.0122046387077602" flag="0"/>
			<psa03 value="0.0491269428668624" flag="0"/>
			<psa10 value="0.00960794144920768" flag="0"/>
			<psa30 value="0.0027753590765314" flag="0"/>
		</comp>
		<comp name="--.HNZ" depth="0.0">
			<acc value="0.0169561265509695" flag="0"/>
			<vel value="0.00703578892263302" flag="0"/>
			<psa03 value="0.0231764630282648" flag="0"/>
			<psa10 value="0.00752205977666385" flag="0"/>
			<psa30 value="0.00204337657625647" flag="0"/>
		</comp>
	</station>
	<station code="MSL1" name="MSL1" netid="HI" source="ITSAK Strong Motion Network" insttype="" lat="38.3727" lon="21.4243">
		<comp name="--.HNE" depth="0.0">
			<acc value="0.0232646555074812" flag="0"/>
			<vel value="0.0144190386491474" flag="0"/>
			<psa03 value="0.0709163974899607" flag="0"/>
			<psa10 value="0.025256080791882" flag="0"/>
			<psa30 value="0.00207961776361727" flag="0"/>
		</comp>
		<comp name="--.HNN" depth="0.0">
			<acc value="0.0276811117866859" flag="0"/>
			<vel value="0.0137681480356596" flag="0"/>
			<psa03 value="0.0963299708491391" flag="0"/>
			<psa10 value="0.0230695291544471" flag="0"/>
			<psa30 value="0.00181340163423855" flag="0"/>
		</comp>
		<comp name="--.HNZ" depth="0.0">
			<acc value="0.0155356179665753" flag="0"/>
			<vel value="0.00958660541659303" flag="0"/>
			<psa03 value="0.0377624223858214" flag="0"/>
			<psa10 value="0.0133246765529875" flag="0"/>
			<psa30 value="0.000750326804988417" flag="0"/>
		</comp>
	</station>
	<station code="VAS2" name="VAS2" netid="HI" source="ITSAK Strong Motion Network" insttype="" lat="38.630558" lon="20.608081">
		<comp name="--.HNE" depth="0.0">
			<acc value="0.00841520360386202" flag="0"/>
			<vel value="0.00886646058348928" flag="0"/>
			<psa03 value="0.0362411873608001" flag="0"/>
			<psa10 value="0.0194977588001105" flag="0"/>
			<psa30 value="0.00108455108842691" flag="0"/>
		</comp>
		<comp name="--.HNN" depth="0.0">
			<acc value="0.0136501285284599" flag="0"/>
			<vel value="0.0119982764139941" flag="0"/>
			<psa03 value="0.0516772486441039" flag="0"/>
			<psa10 value="0.0257634574149332" flag="0"/>
			<psa30 value="0.00179774186192216" flag="0"/>
		</comp>
		<comp name="--.HNZ" depth="0.0">
			<acc value="0.00534777900720567" flag="0"/>
			<vel value="0.00462295408920047" flag="0"/>
			<psa03 value="0.0195076020855665" flag="0"/>
			<psa10 value="0.00642274376005291" flag="0"/>
			<psa30 value="0.000732877344407291" flag="0"/>
		</comp>
	</station>
	<station code="ATHP" name="ATHP" netid="HL" source="National Observatory of Athens Seismic Network" insttype="" lat="38.000799" lon="23.773487">
		<comp name="00.HNE" depth="0.0">
			<acc value="0.00194879551622261" flag="0"/>
			<vel value="0.00165781925600301" flag="0"/>
			<psa03 value="0.00322143887651557" flag="0"/>
			<psa10 value="0.00273419624644259" flag="0"/>
			<psa30 value="0.00069484646878176" flag="0"/>
		</comp>
		<comp name="00.HNN" depth="0.0">
			<acc value="0.00217348670941835" flag="0"/>
			<vel value="0.00166090295666149" flag="0"/>
			<psa03 value="0.00545854920742915" flag="0"/>
			<psa10 value="0.00263755308014712" flag="0"/>
			<psa30 value="0.000590597127361187" flag="0"/>
		</comp>
		<comp name="00.HNZ" depth="0.0">
			<acc value="0.00152868678945042" flag="0"/>
			<vel value="0.00149183357219971" flag="0"/>
			<psa03 value="0.00281875901695112" flag="0"/>
			<psa10 value="0.00175165738910534" flag="0"/>
			<psa30 value="0.000435341670395784" flag="0"/>
		</comp>
	</station>
	<station code="DION" name="DION" netid="HL" source="National Observatory of Athens Seismic Network" insttype="" lat="38.07794" lon="23.93306">
		<comp name="--.HNE" depth="0.0">
			<acc value="0.501550536150146" flag="0"/>
			<vel value="0.663487635496679" flag="0"/>
			<psa03 value="0.652967763387058" flag="0"/>
			<psa10 value="0.968018221601354" flag="0"/>
			<psa30 value="0.36444093267814" flag="0"/>
		</comp>
		<comp name="--.HNN" depth="0.0">
			<acc value="1.23173112431386" flag="0"/>
			<vel value="1.55633131549639" flag="0"/>
			<psa03 value="1.00831036834937" flag="0"/>
			<psa10 value="2.19544683553272" flag="0"/>
			<psa30 value="0.799538758047854" flag="0"/>
		</comp>
		<comp name="--.HNZ" depth="0.0">
			<acc value="11.6024639626738" flag="0"/>
			<vel value="5.25901223547303" flag="0"/>
			<psa03 value="8.36482398052562" flag="0"/>
			<psa10 value="7.28939135380751" flag="0"/>
			<psa30 value="3.17409714769277" flag="0"/>
		</comp>
	</station>
	<station code="DLFA" name="DLFA" netid="HL" source="National Observatory of Athens Seismic Network" insttype="" lat="38.47836" lon="22.49583">
		<comp name="00.HNE" depth="0.0">
			<acc value="0.0639708323822165" flag="0"/>
			<vel value="0.0235880925279944" flag="0"/>
			<psa03 value="0.0589702283228822" flag="0"/>
			<psa10 value="0.0182091832495042" flag="0"/>
			<psa30 value="0.00211809606130898" flag="0"/>
		</comp>
		<comp name="00.HNN" depth="0.0">
			<acc value="0.119530839139777" flag="0"/>
			<vel value="0.0264597496387786" flag="0"/>
			<psa03 value="0.101520066816859" flag="0"/>
			<psa10 value="0.0175810026685837" flag="0"/>
			<psa30 value="0.00215344240453742" flag="0"/>
		</comp>
		<comp name="00.HNZ" depth="0.0">
			<acc value="0.0762837978631758" flag="0"/>
			<vel value="0.0173399122805485" flag="0"/>
			<psa03 value="0.054003843388254" flag="0"/>
			<psa10 value="0.0141018486819469" flag="0"/>
			<psa30 value="0.00222189798066337" flag="0"/>
		</comp>
	</station>
	<station code="ITM" name="ITM" netid="HL" source="National Observatory of Athens Seismic Network" insttype="" lat="37.17872" lon="21.92522">
		<comp name="--.HNE" depth="0.0">
			<acc value="0.00408371765021067" flag="0"/>
			<vel value="0.00239753194966298" flag="0"/>
			<psa03 value="0.00988802766263806" flag="0"/>
			<psa10 value="0.00408720057457912" flag="0"/>
			<psa30 value="0.000696188734980308" flag="0"/>
		</comp>
		<comp name="--.HNN" depth="0.0">
			<acc value="0.00238079021369243" flag="0"/>
			<vel value="0.00268503384106347" flag="0"/>
			<psa03 value="0.00671133099274076" flag="0"/>
			<psa10 value="0.00415565615070508" flag="0"/>
			<psa30 value="0.00059104454942737" flag="0"/>
		</comp>
		<comp name="--.HNZ" depth="0.0">
			<acc value="0.00200136582933087" flag="0"/>
			<vel value="0.00186808337841559" flag="0"/>
			<psa03 value="0.0055480336206657" flag="0"/>
			<psa10 value="0.00256104390682987" flag="0"/>
			<psa30 value="0.000483215831477335" flag="0"/>
		</comp>
	</station>
	<station code="JAN" name="JAN" netid="HL" source="National Observatory of Athens Seismic Network" insttype="" lat="39.65616" lon="20.84874">
		<comp name="00.HNE" depth="0.0">
			<acc value="0.00178452053655116" flag="0"/>
			<vel value="0.0016533739364343" flag="0"/>
			<psa03 value="0.00425050962873582" flag="0"/>
			<psa10 value="0.00204964048518303" flag="0"/>
			<psa30 value="0.000407154080226273" flag="0"/>
		</comp>
		<comp name="00.HNN" depth="0.0">
			<acc value="0.0020350410935693" flag="0"/>
			<vel value="0.00175990049149304" flag="0"/>
			<psa03 value="0.00483215831477335" flag="0"/>
			<psa10 value="0.00256104390682987" flag="0"/>
			<psa30 value="0.000475162234286046" flag="0"/>
		</comp>
		<comp name="00.HNZ" depth="0.0">
			<acc value="0.00104291726746292" flag="0"/>
			<vel value="0.00170992245972044" flag="0"/>
			<psa03 value="0.00326618108313384" flag="0"/>
			<psa10 value="0.00204964048518303" flag="0"/>
			<psa30 value="0.000762854622841533" flag="0"/>
		</comp>
	</station>
	<station code="KYMI" name="KYMI" netid="HL" source="National Observatory of Athens Seismic Network" insttype="" lat="38.633147" lon="24.100138">
		<comp name="--.HNE" depth="1.0">
			<acc value="0.00105173027123438" flag="0"/>
			<vel value="0.000861587226917647" flag="0"/>
			<psa03 value="0.00232659474415013" flag="0"/>
			<psa10 value="0.00169125541017067" flag="0"/>
			<psa30 value="0.000439815891057611" flag="0"/>
		</comp>
		<comp name="--.HNN" depth="1.0">
			<acc value="0.00112844394079601" flag="0"/>
			<vel value="0.00137449850739343" flag="0"/>
			<psa03 value="0.00201339929782223" flag="0"/>
			<psa10 value="0.00290332178745965" flag="0"/>
			<psa30 value="0.000295745985746776" flag="0"/>
		</comp>
		<comp name="--.HNZ" depth="1.0">
			<acc value="0.000530497060839264" flag="0"/>
			<vel value="0.000749392509824724" flag="0"/>
			<psa03 value="0.00134226619854815" flag="0"/>
			<psa10 value="0.00066844856687698" flag="0"/>
			<psa30 value="0.000563751803390224" flag="0"/>
		</comp>
	</station>
	<station code="NOAC" name="NOAC" netid="HL" source="National Observatory of Athens Seismic Network" insttype="" lat="37.97384" lon="23.71767">
		<comp name="00.HNE" depth="0.0">
			<acc value="0.0032123998601318" flag="0"/>
			<vel value="0.00204423013513075" flag="0"/>
			<psa03 value="0.0123041068200247" flag="0"/>
			<psa10 value="0.0033060016470241" flag="0"/>
			<psa30 value="0.000471135435690401" flag="0"/>
		</comp>
		<comp name="00.HNN" depth="0.0">
			<acc value="0.00230170576187242" flag="0"/>
			<vel value="0.00180900481968781" flag="0"/>
			<psa03 value="0.00496638493462817" flag="0"/>
			<psa10 value="0.00322546567511121" flag="0"/>
			<psa30 value="0.000539143589750175" flag="0"/>
		</comp>
		<comp name="00.HNZ" depth="0.0">
			<acc value="0.00183873211495048" flag="0"/>
			<vel value="0.00147225838997199" flag="0"/>
			<psa03 value="0.00451896286844545" flag="0"/>
			<psa10 value="0.00193286332590934" flag="0"/>
			<psa30 value="0.00028813981062167" flag="0"/>
		</comp>
	</station>
	<station code="PATC" name="PATC" netid="HL" source="National Observatory of Athens Seismic Network" insttype="" lat="38.26933" lon="21.76001">
		<comp name="00.HNE" depth="0.0">
			<acc value="0.128373686846046" flag="0"/>
			<vel value="0.0517507976102902" flag="0"/>
			<psa03 value="0.293508875415863" flag="0"/>
			<psa10 value="0.0403686559213357" flag="0"/>
			<psa30 value="0.00979406902873968" flag="0"/>
		</comp>
		<comp name="00.HNN" depth="0.0">
			<acc value="0.126155693102218" flag="0"/>
			<vel value="0.0449623077256735" flag="0"/>
			<psa03 value="0.26509757421326" flag="0"/>
			<psa10 value="0.0481403772109295" flag="0"/>
			<psa30 value="0.0104549114204916" flag="0"/>
		</comp>
		<comp name="00.HNZ" depth="0.0">
			<acc value="0.137547419745027" flag="0"/>
			<vel value="0.0346564006492928" flag="0"/>
			<psa03 value="0.182324491969457" flag="0"/>
			<psa10 value="0.0366116528315994" flag="0"/>
			<psa30 value="0.00485900363874431" flag="0"/>
		</comp>
	</station>
	<station code="PATG" name="PATG" netid="HL" source="National Observatory of Athens Seismic Network" insttype="" lat="38.23865" lon="21.72657">
		<comp name="00.HNE" depth="0.0">
			<acc value="0.110487550295402" flag="0"/>
			<vel value="0.0567135037424989" flag="0"/>
			<psa03 value="0.266037160552244" flag="0"/>
			<psa10 value="0.0607482836138923" flag="0"/>
			<psa30 value="0.013095596455102" flag="0"/>
		</comp>
		<comp name="00.HNN" depth="0.0">
			<acc value="0.087379343570135" flag="0"/>
			<vel value="0.0401726498158574" flag="0"/>
			<psa03 value="0.190780769020311" flag="0"/>
			<psa10 value="0.0598744683186374" flag="0"/>
			<psa30 value="0.0215639539017423" flag="0"/>
		</comp>
		<comp name="00.HNZ" depth="0.0">
			<acc value="0.0670248724098213" flag="0"/>
			<vel value="0.0217036868199153" flag="0"/>
			<psa03 value="0.112974071711136" flag="0"/>
