<?xml version="1.0" encoding="UTF-8" standalone="yes"?>
<!DOCTYPE earthquake SYSTEM "stationlist.dtd">
<stationlist created="" xmlns="ch.ethz.sed.shakemap.usgs.xml">
  <station code="APE" name="APE" netid="GE" insttype="STS-2/N" lat="37.0727" lon="25.523">
    <comp name="--.HHN">
      <acc value="0.2469473954" flag="0"/>
      <vel value="0.0563056806" flag="0"/>
      <psa03 value="0.1357117372" flag="0"/>
      <psa10 value="0.0292580909" flag="0"/>
      <psa30 value="0.0040892915" flag="0"/>
    </comp>
    <comp name="--.HHE">
      <acc value="0.2116044988" flag="0"/>
      <vel value="0.0499253628" flag="0"/>
      <psa03 value="0.1420302538" flag="0"/>
      <psa10 value="0.0274967790" flag="0"/>
      <psa30 value="0.0040095606" flag="0"/>
    </comp>
    <comp name="--.HHZ">
      <acc value="0.1365651273" flag="0"/>
      <vel value="0.0214101673" flag="0"/>
      <psa03 value="0.0959595532" flag="0"/>
      <psa10 value="0.0221496384" flag="0"/>
      <psa30 value="0.0036054320" flag="0"/>
    </comp>
  </station>
  <station code="THERA" name="THERA" netid="GE" insttype="STS-2/N" lat="36.367" lon="25.4753">
    <comp name="--.HHZ">
      <acc value="0.0872778280" flag="0"/>
      <vel value="0.0212644554" flag="0"/>
      <psa03 value="0.0759387513" flag="0"/>
      <psa10 value="0.0076778898" flag="0"/>
      <psa30 value="0.0028652881" flag="0"/>
    </comp>
    <comp name="--.HHN">
      <acc value="0.0740723768" flag="0"/>
      <vel value="0.0179338218" flag="0"/>
      <psa03 value="0.1038059792" flag="0"/>
      <psa10 value="0.0064938478" flag="0"/>
      <psa30 value="0.0014446042" flag="0"/>
    </comp>
    <comp name="--.HHE">
      <acc value="0.1169982007" flag="0"/>
      <vel value="0.0282670446" flag="0"/>
      <psa03 value="0.0731304316" flag="0"/>
      <psa10 value="0.0103611392" flag="0"/>
      <psa30 value="0.0032852442" flag="0"/>
    </comp>
  </station>
  <station code="SNT1" name="SNT1" netid="HA" insttype="30" lat="36.4159" lon="25.4282">
    <comp name="--.HHE">
      <acc value="0.1278306865" flag="0"/>
      <vel value="0.0380260583" flag="0"/>
      <psa03 value="0.1079398362" flag="0"/>
      <psa10 value="0.0232439470" flag="0"/>
      <psa30 value="0.0040390046" flag="0"/>
    </comp>
    <comp name="--.HHN">
      <acc value="0.0881768989" flag="0"/>
      <vel value="0.0462411419" flag="0"/>
      <psa03 value="0.1525004918" flag="0"/>
      <psa10 value="0.0218487830" flag="0"/>
      <psa30 value="0.0067937486" flag="0"/>
    </comp>
    <comp name="--.HHZ">
      <acc value="0.0928313827" flag="0"/>
      <vel value="0.0303519871" flag="0"/>
      <psa03 value="0.1172191129" flag="0"/>
      <psa10 value="0.0135697401" flag="0"/>
      <psa30 value="0.0028506310" flag="0"/>
    </comp>
  </station>
  <station code="AMGA" name="AMGA" netid="HL" insttype="SMART24" lat="36.8316" lon="25.8938">
    <comp name="--.HHE">
      <acc value="1.6522099864" flag="0"/>
      <vel value="0.2905706964" flag="0"/>
      <psa03 value="1.0772301390" flag="0"/>
      <psa10 value="0.0706843821" flag="0"/>
      <psa30 value="0.0061646311" flag="0"/>
    </comp>
    <comp name="--.HHN">
      <acc value="1.4720860469" flag="0"/>
      <vel value="0.4436944420" flag="0"/>
      <psa03 value="1.8288726078" flag="0"/>
      <psa10 value="0.1165609060" flag="0"/>
      <psa30 value="0.0105491710" flag="0"/>
    </comp>
    <comp name="--.HHZ">
      <acc value="2.3019639200" flag="0"/>
      <vel value="0.5854848737" flag="0"/>
      <psa03 value="2.2812229340" flag="0"/>
      <psa10 value="0.1048699691" flag="0"/>
      <psa30 value="0.0124692522" flag="0"/>
    </comp>
  </station>
  <station code="APE" name="APE" netid="HL" insttype="120" lat="37.0727" lon="25.523">
    <comp name="--.HHE">
      <acc value="0.1718793023" flag="0"/>
      <vel value="0.0462907890" flag="0"/>
      <psa03 value="0.1383308385" flag="0"/>
      <psa10 value="0.0272375919" flag="0"/>
      <psa30 value="0.0039941407" flag="0"/>
    </comp>
    <comp name="--.HHN">
      <acc value="0.2106309651" flag="0"/>
      <vel value="0.0534723721" flag="0"/>
      <psa03 value="0.1323191625" flag="0"/>
      <psa10 value="0.0290333430" flag="0"/>
      <psa30 value="0.0040772774" flag="0"/>
    </comp>
    <comp name="--.HHZ">
      <acc value="0.1088293520" flag="0"/>
      <vel value="0.0205189066" flag="0"/>
      <psa03 value="0.0933441490" flag="0"/>
      <psa10 value="0.0219473609" flag="0"/>
      <psa30 value="0.0035974411" flag="0"/>
    </comp>
  </station>
  <station code="MHLO" name="MHLO" netid="HL" insttype="20" lat="36.6898" lon="24.4017">
    <comp name="--.HHE">
      <acc value="0.1364270004" flag="0"/>
      <vel value="0.0539944767" flag="0"/>
      <psa03 value="0.3618971954" flag="0"/>
      <psa10 value="0.0492631551" flag="0"/>
      <psa30 value="0.0041658459" flag="0"/>
    </comp>
    <comp name="--.HHN">
      <acc value="0.1006349604" flag="0"/>
      <vel value="0.0424917825" flag="0"/>
      <psa03 value="0.3110600152" flag="0"/>
      <psa10 value="0.0343885652" flag="0"/>
      <psa30 value="0.0023446779" flag="0"/>
    </comp>
    <comp name="--.HHZ">
      <acc value="0.0380823980" flag="0"/>
      <vel value="0.0193375876" flag="0"/>
      <psa03 value="0.1094613649" flag="0"/>
      <psa10 value="0.0280018532" flag="0"/>
      <psa30 value="0.0023549039" flag="0"/>
    </comp>
  </station>
  <station code="NISR" name="NISR" netid="HL" insttype="65535" lat="36.6106" lon="27.131">
    <comp name="--.HHE">
      <acc value="0.0000000000" flag="0"/>
      <vel value="-100.0000000000" flag="0"/>
      <psa03 value="0.0000000000" flag="0"/>
      <psa10 value="0.0000000000" flag="0"/>
      <psa30 value="0.0000000000" flag="0"/>
    </comp>
    <comp name="--.HHZ">
      <acc value="0.0143395092" flag="0"/>
      <vel value="0.0087456341" flag="0"/>
      <psa03 value="0.0394709299" flag="0"/>
      <psa10 value="0.0102413089" flag="0"/>
      <psa30 value="0.0008505030" flag="0"/>
    </comp>
    <comp name="--.HHN">
      <acc value="0.0318105362" flag="0"/>
      <vel value="0.0223724165" flag="0"/>
      <psa03 value="0.0793223168" flag="0"/>
      <psa10 value="0.0173380638" flag="0"/>
      <psa30 value="0.0040091438" flag="0"/>
    </comp>
  </station>
  <station code="NISR2" name="NISR2" netid="HL" insttype="120" lat="36.5744" lon="27.1767">
    <comp name="--.HHE">
      <acc value="0.0364918367" flag="0"/>
      <vel value="0.0348467114" flag="0"/>
      <psa03 value="0.1343662759" flag="0"/>
      <psa10 value="0.0553236372" flag="0"/>
      <psa30 value="0.0033738937" flag="0"/>
    </comp>
    <comp name="--.HHN">
      <acc value="0.0443962926" flag="0"/>
      <vel value="0.0363563222" flag="0"/>
      <psa03 value="0.1320317439" flag="0"/>
      <psa10 value="0.0528067496" flag="0"/>
      <psa30 value="0.0041652853" flag="0"/>
    </comp>
    <comp name="--.HHZ">
      <acc value="0.0150636537" flag="0"/>
      <vel value="0.0121803610" flag="0"/>
      <psa03 value="0.0349442523" flag="0"/>
      <psa10 value="0.0124756150" flag="0"/>
      <psa30 value="0.0012752153" flag="0"/>
    </comp>
  </station>
  <station code="SAP3" name="SAP3" netid="HL" insttype="LE3D20_SMART24" lat="36.4356" lon="25.3454">
    <comp name="--.HHN">
      <acc value="0.4663601458" flag="0"/>
      <vel value="0.1606708910" flag="0"/>
      <psa03 value="0.5457342563" flag="0"/>
      <psa10 value="0.0769467480" flag="0"/>
      <psa30 value="0.0177494582" flag="0"/>
    </comp>
    <comp name="--.HHE">
      <acc value="0.4643685630" flag="0"/>
      <vel value="0.1281235927" flag="0"/>
      <psa03 value="0.5170555889" flag="0"/>
      <psa10 value="0.0735925970" flag="0"/>
      <psa30 value="0.0180930343" flag="0"/>
    </comp>
    <comp name="--.HHZ">
      <acc value="0.4618358885" flag="0"/>
      <vel value="0.1225824126" flag="0"/>
      <psa03 value="0.5341259742" flag="0"/>
      <psa10 value="0.0285170272" flag="0"/>
      <psa30 value="0.0088061490" flag="0"/>
    </comp>
  </station>
  <station code="THERA" name="THERA" netid="HL" insttype="120" lat="36.367" lon="25.4753">
    <comp name="--.HHN">
      <acc value="0.0746189325" flag="0"/>
      <vel value="0.0174252813" flag="0"/>
      <psa03 value="0.1006948908" flag="0"/>
      <psa10 value="0.0064304486" flag="0"/>
      <psa30 value="0.0014441174" flag="0"/>
    </comp>
    <comp name="--.HHZ">
      <acc value="0.0864623739" flag="0"/>
      <vel value="0.0206665872" flag="0"/>
      <psa03 value="0.0735219174" flag="0"/>
      <psa10 value="0.0076146425" flag="0"/>
      <psa30 value="0.0028604096" flag="0"/>
    </comp>
    <comp name="--.HHE">
      <acc value="0.1167197808" flag="0"/>
      <vel value="0.0278995770" flag="0"/>
      <psa03 value="0.0712556338" flag="0"/>
      <psa10 value="0.0102486120" flag="0"/>
      <psa30 value="0.0032818347" flag="0"/>
    </comp>
  </station>
  <station code="THRA" name="THRA" netid="HL" insttype="CMG-5" lat="36.415" lon="25.4324">
    <comp name="00.HNE">
      <acc value="0.3927286009" flag="0"/>
      <vel value="0.1276599839" flag="0"/>
      <psa03 value="0.6487301831" flag="0"/>
      <psa10 value="0.0521668531" flag="0"/>
      <psa30 value="0.0071812617" flag="0"/>
    </comp>
    <comp name="00.HNZ">
      <acc value="0.3593074665" flag="0"/>
      <vel value="0.0968469252" flag="0"/>
      <psa03 value="0.3163478674" flag="0"/>
      <psa10 value="0.0354907314" flag="0"/>
      <psa30 value="0.0037159136" flag="0"/>
    </comp>
    <comp name="00.HNN">
      <acc value="0.4038035470" flag="0"/>
      <vel value="0.1108057783" flag="0"/>
      <psa03 value="0.4688816107" flag="0"/>
      <psa10 value="0.0849412291" flag="0"/>
      <psa30 value="0.0109726225" flag="0"/>
    </comp>
  </station>
  <station code="CMBO" name="CMBO" netid="HT" insttype="120P," lat="36.4709" lon="25.4056">
    <comp name="--.HHE">
      <acc value="0.5823033700" flag="0"/>
      <vel value="0.1448324254" flag="0"/>
      <psa03 value="0.7830825507" flag="0"/>
      <psa10 value="0.1055775664" flag="0"/>
      <psa30 value="0.0113025280" flag="0"/>
    </comp>
    <comp name="--.HHZ">
      <acc value="0.4194476766" flag="0"/>
      <vel value="0.1039695965" flag="0"/>
      <psa03 value="0.5799762327" flag="0"/>
      <psa10 value="0.0425498574" flag="0"/>
      <psa30 value="0.0066801685" flag="0"/>
    </comp>
    <comp name="--.HHN">
      <acc value="0.4718075758" flag="0"/>
      <vel value="0.1700902279" flag="0"/>
      <psa03 value="0.7570797472" flag="0"/>
      <psa10 value="0.1267701670" flag="0"/>
      <psa30 value="0.0094623672" flag="0"/>
    </comp>
  </station>
</stationlist>
