<?xml version="1.0" encoding="UTF-8" standalone="yes"?>
<!DOCTYPE earthquake SYSTEM "stationlist.dtd">
<stationlist created="" xmlns="ch.ethz.sed.shakemap.usgs.xml">
  <station code="APE" name="APE" netid="GE" insttype="STS-2/N" lat="37.0727" lon="25.523">
    <comp name="--.HHZ">
      <acc value="0.1365651289" flag="0"/>
      <vel value="0.0214101785" flag="0"/>
      <psa03 value="0.0959595532" flag="0"/>
      <psa10 value="0.0221496478" flag="0"/>
      <psa30 value="0.0036027184" flag="0"/>
    </comp>
    <comp name="--.HHE">
      <acc value="0.2116044982" flag="0"/>
      <vel value="0.0499253742" flag="0"/>
      <psa03 value="0.1420302538" flag="0"/>
      <psa10 value="0.0274967754" flag="0"/>
      <psa30 value="0.0040092892" flag="0"/>
    </comp>
    <comp name="--.HHN">
      <acc value="0.2469473963" flag="0"/>
      <vel value="0.0563056597" flag="0"/>
      <psa03 value="0.1357117373" flag="0"/>
      <psa10 value="0.0292580862" flag="0"/>
      <psa30 value="0.0040906989" flag="0"/>
    </comp>
  </station>
  <station code="THERA" name="THERA" netid="GE" insttype="STS-2/N" lat="36.367" lon="25.4753">
    <comp name="--.HHN">
      <acc value="0.0740723763" flag="0"/>
      <vel value="0.0179338153" flag="0"/>
      <psa03 value="0.1038059792" flag="0"/>
      <psa10 value="0.0064938496" flag="0"/>
      <psa30 value="0.0014443421" flag="0"/>
    </comp>
    <comp name="--.HHE">
      <acc value="0.1169982003" flag="0"/>
      <vel value="0.0282670553" flag="0"/>
      <psa03 value="0.0731304316" flag="0"/>
      <psa10 value="0.0103611501" flag="0"/>
      <psa30 value="0.0032850588" flag="0"/>
    </comp>
    <comp name="--.HHZ">
      <acc value="0.0872778284" flag="0"/>
      <vel value="0.0212644495" flag="0"/>
      <psa03 value="0.0759387513" flag="0"/>
      <psa10 value="0.0076778911" flag="0"/>
      <psa30 value="0.0028654166" flag="0"/>
    </comp>
  </station>
</stationlist>
