<?xml version="1.0" encoding="UTF-8" standalone="yes"?>
<!DOCTYPE earthquake SYSTEM "stationlist.dtd">
<stationlist created="" xmlns="ch.ethz.sed.shakemap.usgs.xml">
  <station code="APE" name="APE" netid="GE" insttype="STS-2/N" lat="37.0727" lon="25.523">
    <comp name="--.HHN">
      <acc value="0.2469473954" flag="0"/>
      <vel value="0.0563056806" flag="0"/>
      <psa03 value="0.1357117372" flag="0"/>
      <psa10 value="0.0292580909" flag="0"/>
      <psa30 value="0.0040892915" flag="0"/>
    </comp>
    <comp name="--.HHE">
      <acc value="0.2116044988" flag="0"/>
      <vel value="0.0499253628" flag="0"/>
      <psa03 value="0.1420302538" flag="0"/>
      <psa10 value="0.0274967790" flag="0"/>
      <psa30 value="0.0040095606" flag="0"/>
    </comp>
    <comp name="--.HHZ">
      <acc value="0.1365651273" flag="0"/>
      <vel value="0.0214101673" flag="0"/>
      <psa03 value="0.0959595532" flag="0"/>
      <psa10 value="0.0221496384" flag="0"/>
      <psa30 value="0.0036054320" flag="0"/>
    </comp>
  </station>
  <station code="THERA" name="THERA" netid="GE" insttype="STS-2/N" lat="36.367" lon="25.4753">
    <comp name="--.HHZ">
      <acc value="0.0872778280" flag="0"/>
      <vel value="0.0212644554" flag="0"/>
      <psa03 value="0.0759387513" flag="0"/>
      <psa10 value="0.0076778898" flag="0"/>
      <psa30 value="0.0028652881" flag="0"/>
    </comp>
    <comp name="--.HHN">
      <acc value="0.0740723768" flag="0"/>
      <vel value="0.0179338218" flag="0"/>
      <psa03 value="0.1038059792" flag="0"/>
      <psa10 value="0.0064938478" flag="0"/>
      <psa30 value="0.0014446042" flag="0"/>
    </comp>
    <comp name="--.HHE">
      <acc value="0.1169982007" flag="0"/>
      <vel value="0.0282670446" flag="0"/>
      <psa03 value="0.0731304316" flag="0"/>
      <psa10 value="0.0103611392" flag="0"/>
      <psa30 value="0.0032852442" flag="0"/>
    </comp>
  </station>
</stationlist>
