<?xml version="1.0" encoding="UTF-8" standalone="yes"?>
<!DOCTYPE earthquake SYSTEM "stationlist.dtd">
<stationlist created="" xmlns="ch.ethz.sed.shakemap.usgs.xml">
  <station code="GAZ" name="GAZ" netid="KO" insttype="CMG-3T" lat="37.1721" lon="37.2096">
    <comp name="--.HHZ">
      <acc value="0.0328602813" flag="0"/>
      <vel value="0.0145341558" flag="0"/>
      <psa03 value="0.0365370785" flag="0"/>
      <psa10 value="0.0113751153" flag="0"/>
      <psa30 value="0.0033903329" flag="0"/>
    </comp>
    <comp name="--.HHN">
      <acc value="0.0261993369" flag="0"/>
      <vel value="0.0152618406" flag="0"/>
      <psa03 value="0.0385522283" flag="0"/>
      <psa10 value="0.0151294716" flag="0"/>
      <psa30 value="0.0033038210" flag="0"/>
    </comp>
    <comp name="--.HHE">
      <acc value="0.0371694291" flag="0"/>
      <vel value="0.0203711317" flag="0"/>
      <psa03 value="0.0546977004" flag="0"/>
      <psa10 value="0.0190341295" flag="0"/>
      <psa30 value="0.0069560550" flag="0"/>
    </comp>
  </station>
  <station code="SARI" name="SARI" netid="KO" insttype="CMG-3T" lat="38.4072" lon="36.4181">
    <comp name="--.HHN">
      <acc value="0.0200326946" flag="0"/>
      <vel value="0.0124149496" flag="0"/>
      <psa03 value="0.0528020925" flag="0"/>
      <psa10 value="0.0158202298" flag="0"/>
      <psa30 value="0.0049630884" flag="0"/>
    </comp>
    <comp name="--.HHE">
      <acc value="0.0185762606" flag="0"/>
      <vel value="0.0094612716" flag="0"/>
      <psa03 value="0.0479372041" flag="0"/>
      <psa10 value="0.0121552999" flag="0"/>
      <psa30 value="0.0022654503" flag="0"/>
    </comp>
    <comp name="--.HHZ">
      <acc value="0.0146915593" flag="0"/>
      <vel value="0.0092335824" flag="0"/>
      <psa03 value="0.0458277602" flag="0"/>
      <psa10 value="0.0160483431" flag="0"/>
      <psa30 value="0.0025273470" flag="0"/>
    </comp>
  </station>
  <station code="URFA" name="URFA" netid="KO" insttype="CMG-3ESP" lat="37.4409" lon="38.8213">
    <comp name="--.HHE">
      <acc value="0.0717369151" flag="0"/>
      <vel value="0.0361956563" flag="0"/>
      <psa03 value="0.1034457864" flag="0"/>
      <psa10 value="0.0559135671" flag="0"/>
      <psa30 value="0.0031942286" flag="0"/>
    </comp>
    <comp name="--.HHN">
      <acc value="0.0645348608" flag="0"/>
      <vel value="0.0318314591" flag="0"/>
      <psa03 value="0.1129803543" flag="0"/>
      <psa10 value="0.0238475906" flag="0"/>
      <psa30 value="0.0048367745" flag="0"/>
    </comp>
    <comp name="--.HHZ">
      <acc value="0.0340356827" flag="0"/>
      <vel value="0.0154849737" flag="0"/>
      <psa03 value="0.0600399256" flag="0"/>
      <psa10 value="0.0181694571" flag="0"/>
      <psa30 value="0.0023375453" flag="0"/>
    </comp>
  </station>
  <station code="ANDN" name="ANDN" netid="TU" insttype="T" lat="37.58" lon="36.3452">
    <comp name="--.HHE">
      <acc value="0.0675282824" flag="0"/>
      <vel value="0.0498794433" flag="0"/>
      <psa03 value="0.1040156841" flag="0"/>
      <psa10 value="0.0523402762" flag="0"/>
      <psa30 value="0.0096370472" flag="0"/>
    </comp>
    <comp name="--.HHZ">
      <acc value="0.0532842755" flag="0"/>
      <vel value="0.0441588650" flag="0"/>
      <psa03 value="0.0803491132" flag="0"/>
      <psa10 value="0.0944631957" flag="0"/>
      <psa30 value="0.0053039731" flag="0"/>
    </comp>
    <comp name="--.HHN">
      <acc value="0.0794060375" flag="0"/>
      <vel value="0.0650997749" flag="0"/>
      <psa03 value="0.1254929028" flag="0"/>
      <psa10 value="0.1190494801" flag="0"/>
      <psa30 value="0.0104253672" flag="0"/>
    </comp>
  </station>
</stationlist>
