<?xml version="1.0" encoding="UTF-8" standalone="yes"?>
<!DOCTYPE earthquake SYSTEM "stationlist.dtd">
<stationlist created="" xmlns="ch.ethz.sed.shakemap.usgs.xml">
  <station code="GAZ" name="GAZ" netid="KO" insttype="CMG-3T" lat="37.1721" lon="37.2096">
    <comp name="--.HHE">
      <acc value="0.0371694293" flag="0"/>
      <vel value="0.0203711339" flag="0"/>
      <psa03 value="0.0546977004" flag="0"/>
      <psa10 value="0.0190341296" flag="0"/>
      <psa30 value="0.0069560644" flag="0"/>
    </comp>
    <comp name="--.HHN">
      <acc value="0.0261993352" flag="0"/>
      <vel value="0.0152618407" flag="0"/>
      <psa03 value="0.0385522283" flag="0"/>
      <psa10 value="0.0151294715" flag="0"/>
      <psa30 value="0.0033038221" flag="0"/>
    </comp>
    <comp name="--.HHZ">
      <acc value="0.0328602819" flag="0"/>
      <vel value="0.0145341545" flag="0"/>
      <psa03 value="0.0365370785" flag="0"/>
      <psa10 value="0.0113751152" flag="0"/>
      <psa30 value="0.0033903322" flag="0"/>
    </comp>
  </station>
  <station code="URFA" name="URFA" netid="KO" insttype="CMG-3ESP" lat="37.4409" lon="38.8213">
    <comp name="--.HHE">
      <acc value="0.0717369150" flag="0"/>
      <vel value="0.0361956533" flag="0"/>
      <psa03 value="0.1034457864" flag="0"/>
      <psa10 value="0.0559135671" flag="0"/>
      <psa30 value="0.0031943499" flag="0"/>
    </comp>
    <comp name="--.HHZ">
      <acc value="0.0340356827" flag="0"/>
      <vel value="0.0154849761" flag="0"/>
      <psa03 value="0.0600399256" flag="0"/>
      <psa10 value="0.0181694571" flag="0"/>
      <psa30 value="0.0023380893" flag="0"/>
    </comp>
    <comp name="--.HHN">
      <acc value="0.0645348603" flag="0"/>
      <vel value="0.0318314552" flag="0"/>
      <psa03 value="0.1129803543" flag="0"/>
      <psa10 value="0.0238475905" flag="0"/>
      <psa30 value="0.0048367644" flag="0"/>
    </comp>
  </station>
</stationlist>
