<?xml version="1.0" encoding="UTF-8" standalone="yes"?>
<!DOCTYPE earthquake SYSTEM "stationlist.dtd">
<stationlist created="" xmlns="ch.ethz.sed.shakemap.usgs.xml">
  <station code="APE" name="APE" netid="GE" insttype="STS-2/N" lat="37.0727" lon="25.523">
    <comp name="--.HHE">
      <acc value="0.2650498299" flag="0"/>
      <vel value="0.0862488482" flag="0"/>
      <psa03 value="0.4157016177" flag="0"/>
      <psa10 value="0.0432512015" flag="0"/>
      <psa30 value="0.0190250421" flag="0"/>
    </comp>
    <comp name="--.HHZ">
      <acc value="0.1115955436" flag="0"/>
      <vel value="0.0487768496" flag="0"/>
      <psa03 value="0.2839306130" flag="0"/>
      <psa10 value="0.0315199349" flag="0"/>
      <psa30 value="0.0280423542" flag="0"/>
    </comp>
    <comp name="--.HHN">
      <acc value="0.3133456741" flag="0"/>
      <vel value="0.1024179137" flag="0"/>
      <psa03 value="0.4988541823" flag="0"/>
      <psa10 value="0.0719820621" flag="0"/>
      <psa30 value="0.0204063745" flag="0"/>
    </comp>
  </station>
  <station code="THERA" name="THERA" netid="GE" insttype="STS-2/N" lat="36.367" lon="25.4753">
    <comp name="--.HHE">
      <acc value="0.1274221802" flag="0"/>
      <vel value="0.0395476258" flag="0"/>
      <psa03 value="0.1042710005" flag="0"/>
      <psa10 value="0.0332089839" flag="0"/>
      <psa30 value="0.0111278904" flag="0"/>
    </comp>
    <comp name="--.HHN">
      <acc value="0.0600148301" flag="0"/>
      <vel value="0.0186063732" flag="0"/>
      <psa03 value="0.0483610967" flag="0"/>
      <psa10 value="0.0322680542" flag="0"/>
      <psa30 value="0.0047287620" flag="0"/>
    </comp>
    <comp name="--.HHZ">
      <acc value="0.0826143015" flag="0"/>
      <vel value="0.0439493173" flag="0"/>
      <psa03 value="0.1207146718" flag="0"/>
      <psa10 value="0.0399862627" flag="0"/>
      <psa30 value="0.0099057277" flag="0"/>
    </comp>
  </station>
</stationlist>
