<?xml version="1.0" encoding="UTF-8" standalone="yes"?>
<!DOCTYPE earthquake SYSTEM "stationlist.dtd">
<stationlist created="" xmlns="ch.ethz.sed.shakemap.usgs.xml">
  <station code="DARE" name="DARE" netid="KO" insttype="CMG-3ESP" lat="38.5712" lon="37.4832">
    <comp name="--.HHE">
      <acc value="0.0168904700" flag="0"/>
      <vel value="0.0062864132" flag="0"/>
      <psa03 value="0.0322777415" flag="0"/>
      <psa10 value="0.0038743820" flag="0"/>
      <psa30 value="0.0003441482" flag="0"/>
    </comp>
    <comp name="--.HHN">
      <acc value="0.0154565938" flag="0"/>
      <vel value="0.0059549057" flag="0"/>
      <psa03 value="0.0254308515" flag="0"/>
      <psa10 value="0.0032597109" flag="0"/>
      <psa30 value="0.0006488069" flag="0"/>
    </comp>
  </station>
  <station code="KHMN" name="KHMN" netid="KO" insttype="CMG-5T" lat="37.3916" lon="37.1574">
    <comp name="--.HNN">
      <acc value="0.0297023784" flag="0"/>
      <vel value="0.0068061100" flag="0"/>
      <psa03 value="0.0226734356" flag="0"/>
      <psa10 value="0.0032345106" flag="0"/>
      <psa30 value="0.0004001509" flag="0"/>
    </comp>
    <comp name="--.HNE">
      <acc value="0.0217856141" flag="0"/>
      <vel value="0.0062054244" flag="0"/>
      <psa03 value="0.0318894784" flag="0"/>
      <psa10 value="0.0029132344" flag="0"/>
      <psa30 value="0.0004606277" flag="0"/>
    </comp>
    <comp name="--.HNZ">
      <acc value="0.0115561923" flag="0"/>
      <vel value="0.0027779175" flag="0"/>
      <psa03 value="0.0202665065" flag="0"/>
      <psa10 value="0.0018393130" flag="0"/>
      <psa30 value="0.0006633093" flag="0"/>
    </comp>
  </station>
  <station code="KMRS" name="KMRS" netid="KO" insttype="CMG-3T" lat="37.5053" lon="36.9">
    <comp name="--.HHN">
      <acc value="0.0148892318" flag="0"/>
      <vel value="0.0079650784" flag="0"/>
      <psa03 value="0.0364630558" flag="0"/>
      <psa10 value="0.0119001262" flag="0"/>
      <psa30 value="0.0005175598" flag="0"/>
    </comp>
    <comp name="--.HHZ">
      <acc value="0.0085534360" flag="0"/>
      <vel value="0.0048188059" flag="0"/>
      <psa03 value="0.0227258308" flag="0"/>
      <psa10 value="0.0035603065" flag="0"/>
      <psa30 value="0.0002997883" flag="0"/>
    </comp>
  </station>
  <station code="URFA" name="URFA" netid="KO" insttype="CMG-3ESP" lat="37.4409" lon="38.8213">
    <comp name="--.HHE">
      <acc value="0.0559507878" flag="0"/>
      <vel value="0.0142222473" flag="0"/>
      <psa03 value="0.1016912789" flag="0"/>
      <psa10 value="0.0073193831" flag="0"/>
      <psa30 value="0.0004647567" flag="0"/>
    </comp>
    <comp name="--.HHZ">
      <acc value="0.0467354752" flag="0"/>
      <vel value="0.0099275333" flag="0"/>
      <psa03 value="0.0451474968" flag="0"/>
      <psa10 value="0.0054781764" flag="0"/>
      <psa30 value="0.0004657149" flag="0"/>
    </comp>
    <comp name="--.HHN">
      <acc value="0.0521826285" flag="0"/>
      <vel value="0.0184302498" flag="0"/>
      <psa03 value="0.0747910273" flag="0"/>
      <psa10 value="0.0167247688" flag="0"/>
      <psa30 value="0.0007479484" flag="0"/>
    </comp>
  </station>
</stationlist>
