<?xml version="1.0" encoding="UTF-8" standalone="yes"?>
<!DOCTYPE earthquake SYSTEM "stationlist.dtd">
<stationlist created="" xmlns="ch.ethz.sed.shakemap.usgs.xml">
  <station code="APE" name="APE" netid="GE" insttype="STS-2/N" lat="37.0727" lon="25.523">
    <comp name="--.HHZ">
      <acc value="0.1788203977" flag="0"/>
      <vel value="0.0289359523" flag="0"/>
      <psa03 value="0.1411984688" flag="0"/>
      <psa10 value="0.0125960323" flag="0"/>
      <psa30 value="0.0090068538" flag="0"/>
    </comp>
    <comp name="--.HHE">
      <acc value="0.3380893057" flag="0"/>
      <vel value="0.0785862060" flag="0"/>
      <psa03 value="0.5537681622" flag="0"/>
      <psa10 value="0.0221338920" flag="0"/>
      <psa30 value="0.0101606409" flag="0"/>
    </comp>
    <comp name="--.HHN">
      <acc value="0.3921379490" flag="0"/>
      <vel value="0.0664987019" flag="0"/>
      <psa03 value="0.2760303662" flag="0"/>
      <psa10 value="0.0194166209" flag="0"/>
      <psa30 value="0.0093214019" flag="0"/>
    </comp>
  </station>
  <station code="THERA" name="THERA" netid="GE" insttype="STS-2/N" lat="36.367" lon="25.4753">
    <comp name="--.HHZ">
      <acc value="0.7091627884" flag="0"/>
      <vel value="0.2572996012" flag="0"/>
      <psa03 value="0.8256538827" flag="0"/>
      <psa10 value="0.1749847724" flag="0"/>
      <psa30 value="0.0136741466" flag="0"/>
    </comp>
    <comp name="--.HHN">
      <acc value="1.0338911856" flag="0"/>
      <vel value="0.3058071616" flag="0"/>
      <psa03 value="1.4648057966" flag="0"/>
      <psa10 value="0.0701054550" flag="0"/>
      <psa30 value="0.0072528070" flag="0"/>
    </comp>
    <comp name="--.HHE">
      <acc value="0.7607272719" flag="0"/>
      <vel value="0.2396118203" flag="0"/>
      <psa03 value="1.3222451035" flag="0"/>
      <psa10 value="0.1781254127" flag="0"/>
      <psa30 value="0.0169380458" flag="0"/>
    </comp>
  </station>
  <station code="SNT1" name="SNT1" netid="HA" insttype="30" lat="36.4159" lon="25.4282">
    <comp name="--.HHE">
      <acc value="1.1229854604" flag="0"/>
      <vel value="0.4863704532" flag="0"/>
      <psa03 value="1.4415303269" flag="0"/>
      <psa10 value="0.3814041353" flag="0"/>
      <psa30 value="0.0390389777" flag="0"/>
    </comp>
    <comp name="--.HHZ">
      <acc value="0.8437594244" flag="0"/>
      <vel value="0.3418057051" flag="0"/>
      <psa03 value="1.0705711690" flag="0"/>
      <psa10 value="0.1656037088" flag="0"/>
      <psa30 value="0.0159367271" flag="0"/>
    </comp>
    <comp name="--.HHN">
      <acc value="0.9508898873" flag="0"/>
      <vel value="0.5919745287" flag="0"/>
      <psa03 value="2.0256366352" flag="0"/>
      <psa10 value="0.4752549050" flag="0"/>
      <psa30 value="0.0240726705" flag="0"/>
    </comp>
  </station>
  <station code="KNSS" name="KNSS" netid="HC" insttype="60" lat="35.3042" lon="25.1802">
    <comp name="--.HHE">
      <acc value="0.0616267859" flag="0"/>
      <vel value="0.0463051933" flag="0"/>
      <psa03 value="0.2651447906" flag="0"/>
      <psa10 value="0.0589637420" flag="0"/>
      <psa30 value="0.0060616667" flag="0"/>
    </comp>
    <comp name="--.HHN">
      <acc value="0.0788679570" flag="0"/>
      <vel value="0.0438534103" flag="0"/>
      <psa03 value="0.2100280199" flag="0"/>
      <psa10 value="0.0320789504" flag="0"/>
      <psa30 value="0.0044761246" flag="0"/>
    </comp>
    <comp name="--.HHZ">
      <acc value="0.0705317643" flag="0"/>
      <vel value="0.0314296912" flag="0"/>
      <psa03 value="0.1586368433" flag="0"/>
      <psa10 value="0.0252186153" flag="0"/>
      <psa30 value="0.0035228323" flag="0"/>
    </comp>
  </station>
  <station code="APE" name="APE" netid="HL" insttype="120" lat="37.0727" lon="25.523">
    <comp name="--.HHN">
      <acc value="0.3608044965" flag="0"/>
      <vel value="0.0627723680" flag="0"/>
      <psa03 value="0.2677645883" flag="0"/>
      <psa10 value="0.0193263316" flag="0"/>
      <psa30 value="0.0093070181" flag="0"/>
    </comp>
    <comp name="--.HHE">
      <acc value="0.3022714790" flag="0"/>
      <vel value="0.0762976502" flag="0"/>
      <psa03 value="0.5364906123" flag="0"/>
      <psa10 value="0.0218740097" flag="0"/>
      <psa30 value="0.0101254390" flag="0"/>
    </comp>
    <comp name="--.HHZ">
      <acc value="0.1631338281" flag="0"/>
      <vel value="0.0284572974" flag="0"/>
      <psa03 value="0.1368424860" flag="0"/>
      <psa10 value="0.0124961543" flag="0"/>
      <psa30 value="0.0089918191" flag="0"/>
    </comp>
  </station>
  <station code="IACM" name="IACM" netid="HL" insttype="120" lat="35.3058" lon="25.0709">
    <comp name="--.HHZ">
      <acc value="0.1558514775" flag="0"/>
      <vel value="0.0871139771" flag="0"/>
      <psa03 value="0.4845088924" flag="0"/>
      <psa10 value="0.1103960765" flag="0"/>
      <psa30 value="0.0048128391" flag="0"/>
    </comp>
    <comp name="--.HHN">
      <acc value="0.2550050663" flag="0"/>
      <vel value="0.1958655158" flag="0"/>
      <psa03 value="0.7217138929" flag="0"/>
      <psa10 value="0.2032424426" flag="0"/>
      <psa30 value="0.0107054429" flag="0"/>
    </comp>
    <comp name="--.HHE">
      <acc value="0.2026822011" flag="0"/>
      <vel value="0.1431826282" flag="0"/>
      <psa03 value="0.7243206449" flag="0"/>
      <psa10 value="0.2601037505" flag="0"/>
      <psa30 value="0.0188401104" flag="0"/>
    </comp>
  </station>
  <station code="MHLO" name="MHLO" netid="HL" insttype="20" lat="36.6898" lon="24.4017">
    <comp name="--.HHN">
      <acc value="0.3132487192" flag="0"/>
      <vel value="0.2248250250" flag="0"/>
      <psa03 value="0.6758007856" flag="0"/>
      <psa10 value="0.4431923093" flag="0"/>
      <psa30 value="0.0181948136" flag="0"/>
    </comp>
    <comp name="--.HHE">
      <acc value="0.3326614265" flag="0"/>
      <vel value="0.1980278520" flag="0"/>
      <psa03 value="0.6799544339" flag="0"/>
      <psa10 value="0.4186105570" flag="0"/>
      <psa30 value="0.0196377812" flag="0"/>
    </comp>
    <comp name="--.HHZ">
      <acc value="0.1073141860" flag="0"/>
      <vel value="0.1483725046" flag="0"/>
      <psa03 value="0.2536803752" flag="0"/>
      <psa10 value="0.1913884399" flag="0"/>
      <psa30 value="0.0169586920" flag="0"/>
    </comp>
  </station>
  <station code="NISR" name="NISR" netid="HL" insttype="65535" lat="36.6106" lon="27.131">
    <comp name="--.HHE">
      <acc value="0.0000000000" flag="0"/>
      <vel value="-100.0000000000" flag="0"/>
      <psa03 value="0.0000000000" flag="0"/>
      <psa10 value="0.0000000000" flag="0"/>
      <psa30 value="0.0000000000" flag="0"/>
    </comp>
    <comp name="--.HHN">
      <acc value="0.0647482357" flag="0"/>
      <vel value="0.0341070249" flag="0"/>
      <psa03 value="0.1414349393" flag="0"/>
      <psa10 value="0.0152259050" flag="0"/>
      <psa30 value="0.0091642547" flag="0"/>
    </comp>
    <comp name="--.HHZ">
      <acc value="0.0257133879" flag="0"/>
      <vel value="0.0118385371" flag="0"/>
      <psa03 value="0.0464994502" flag="0"/>
      <psa10 value="0.0118787370" flag="0"/>
      <psa30 value="0.0022332430" flag="0"/>
    </comp>
  </station>
  <station code="NISR2" name="NISR2" netid="HL" insttype="120" lat="36.5744" lon="27.1767">
    <comp name="--.HHE">
      <acc value="0.0831384403" flag="0"/>
      <vel value="0.0421630169" flag="0"/>
      <psa03 value="0.1988364061" flag="0"/>
      <psa10 value="0.0665833038" flag="0"/>
      <psa30 value="0.0073424899" flag="0"/>
    </comp>
    <comp name="--.HHN">
      <acc value="0.0681909522" flag="0"/>
      <vel value="0.0504632100" flag="0"/>
      <psa03 value="0.2836163274" flag="0"/>
      <psa10 value="0.0783925076" flag="0"/>
      <psa30 value="0.0063850030" flag="0"/>
    </comp>
    <comp name="--.HHZ">
      <acc value="0.0297408903" flag="0"/>
      <vel value="0.0157832152" flag="0"/>
      <psa03 value="0.0896333943" flag="0"/>
      <psa10 value="0.0136464271" flag="0"/>
      <psa30 value="0.0025670106" flag="0"/>
    </comp>
  </station>
  <station code="NPS" name="NPS" netid="HL" insttype="CMG3ESPC-120s" lat="35.2613" lon="25.6104">
    <comp name="--.HHZ">
      <acc value="0.0760930415" flag="0"/>
      <vel value="0.0295582149" flag="0"/>
      <psa03 value="0.1399868731" flag="0"/>
      <psa10 value="0.0268597521" flag="0"/>
      <psa30 value="0.0031629547" flag="0"/>
    </comp>
    <comp name="--.HHN">
      <acc value="0.1019751080" flag="0"/>
      <vel value="0.0495065026" flag="0"/>
      <psa03 value="0.2329374686" flag="0"/>
      <psa10 value="0.0769462043" flag="0"/>
      <psa30 value="0.0028072530" flag="0"/>
    </comp>
    <comp name="--.HHE">
      <acc value="0.0339338947" flag="0"/>
      <vel value="0.0222195096" flag="0"/>
      <psa03 value="0.0874137314" flag="0"/>
      <psa10 value="0.0318217127" flag="0"/>
      <psa30 value="0.0015739743" flag="0"/>
    </comp>
  </station>
  <station code="SAP3" name="SAP3" netid="HL" insttype="LE3D20_SMART24" lat="36.4356" lon="25.3454">
    <comp name="--.HHE">
      <acc value="5.4911150952" flag="0"/>
      <vel value="1.4782685081" flag="0"/>
      <psa03 value="5.3508571564" flag="0"/>
      <psa10 value="0.8499758497" flag="0"/>
      <psa30 value="0.1047666549" flag="0"/>
    </comp>
    <comp name="--.HHZ">
      <acc value="3.4802208143" flag="0"/>
      <vel value="0.8442402746" flag="0"/>
      <psa03 value="4.1443113485" flag="0"/>
      <psa10 value="0.3485177524" flag="0"/>
      <psa30 value="0.0528551742" flag="0"/>
    </comp>
    <comp name="--.HHN">
      <acc value="4.2792231420" flag="0"/>
      <vel value="1.4662423251" flag="0"/>
      <psa03 value="4.7259666137" flag="0"/>
      <psa10 value="1.1154160236" flag="0"/>
      <psa30 value="0.1249718755" flag="0"/>
    </comp>
  </station>
  <station code="THERA" name="THERA" netid="HL" insttype="120" lat="36.367" lon="25.4753">
    <comp name="--.HHE">
      <acc value="0.7488825918" flag="0"/>
      <vel value="0.2333247346" flag="0"/>
      <psa03 value="1.2840901645" flag="0"/>
      <psa10 value="0.1759128734" flag="0"/>
      <psa30 value="0.0169486501" flag="0"/>
    </comp>
    <comp name="--.HHZ">
      <acc value="0.6865419491" flag="0"/>
      <vel value="0.2522038490" flag="0"/>
      <psa03 value="0.8014336518" flag="0"/>
      <psa10 value="0.1740144303" flag="0"/>
      <psa30 value="0.0136552027" flag="0"/>
    </comp>
    <comp name="--.HHN">
      <acc value="1.0428890299" flag="0"/>
      <vel value="0.2947319468" flag="0"/>
      <psa03 value="1.4209255659" flag="0"/>
      <psa10 value="0.0683661917" flag="0"/>
      <psa30 value="0.0070864965" flag="0"/>
    </comp>
  </station>
  <station code="THRA" name="THRA" netid="HL" insttype="CMG-5" lat="36.415" lon="25.4324">
    <comp name="00.HNE">
      <acc value="3.0291629659" flag="0"/>
      <vel value="1.5525785434" flag="0"/>
      <psa03 value="8.1113684037" flag="0"/>
      <psa10 value="0.6582070033" flag="0"/>
      <psa30 value="0.0728319915" flag="0"/>
    </comp>
    <comp name="00.HNZ">
      <acc value="1.8305119509" flag="0"/>
      <vel value="0.7982057172" flag="0"/>
      <psa03 value="4.0696429638" flag="0"/>
      <psa10 value="0.3539292373" flag="0"/>
      <psa30 value="0.0366919869" flag="0"/>
    </comp>
    <comp name="00.HNN">
      <acc value="2.5910224043" flag="0"/>
      <vel value="1.3700264646" flag="0"/>
      <psa03 value="5.4957271699" flag="0"/>
      <psa10 value="1.8035517439" flag="0"/>
      <psa30 value="0.0757394108" flag="0"/>
    </comp>
  </station>
</stationlist>
