<?xml version="1.0" encoding="UTF-8" standalone="yes"?>
<!DOCTYPE earthquake SYSTEM "stationlist.dtd">
<stationlist created="" xmlns="ch.ethz.sed.shakemap.usgs.xml">
  <station code="APE" name="APE" netid="GE" insttype="STS-2/N" lat="37.0727" lon="25.523">
    <comp name="--.HHZ">
      <acc value="0.1788203977" flag="0"/>
      <vel value="0.0289359523" flag="0"/>
      <psa03 value="0.1411984688" flag="0"/>
      <psa10 value="0.0125960323" flag="0"/>
      <psa30 value="0.0090068538" flag="0"/>
    </comp>
    <comp name="--.HHE">
      <acc value="0.3380893057" flag="0"/>
      <vel value="0.0785862060" flag="0"/>
      <psa03 value="0.5537681622" flag="0"/>
      <psa10 value="0.0221338920" flag="0"/>
      <psa30 value="0.0101606409" flag="0"/>
    </comp>
    <comp name="--.HHN">
      <acc value="0.3921379490" flag="0"/>
      <vel value="0.0664987019" flag="0"/>
      <psa03 value="0.2760303662" flag="0"/>
      <psa10 value="0.0194166209" flag="0"/>
      <psa30 value="0.0093214019" flag="0"/>
    </comp>
  </station>
  <station code="THERA" name="THERA" netid="GE" insttype="STS-2/N" lat="36.367" lon="25.4753">
    <comp name="--.HHZ">
      <acc value="0.7091627884" flag="0"/>
      <vel value="0.2572996012" flag="0"/>
      <psa03 value="0.8256538827" flag="0"/>
      <psa10 value="0.1749847724" flag="0"/>
      <psa30 value="0.0136741466" flag="0"/>
    </comp>
    <comp name="--.HHN">
      <acc value="1.0338911856" flag="0"/>
      <vel value="0.3058071616" flag="0"/>
      <psa03 value="1.4648057966" flag="0"/>
      <psa10 value="0.0701054550" flag="0"/>
      <psa30 value="0.0072528070" flag="0"/>
    </comp>
    <comp name="--.HHE">
      <acc value="0.7607272719" flag="0"/>
      <vel value="0.2396118203" flag="0"/>
      <psa03 value="1.3222451035" flag="0"/>
      <psa10 value="0.1781254127" flag="0"/>
      <psa30 value="0.0169380458" flag="0"/>
    </comp>
  </station>
</stationlist>
