<stationlist xmlns:esm="https://esm-db.eu/esmws/shakemap/1/" created="1781488446">
	<station code="ATEI" name="ATEI" netid="HC" source="Seismological Network of Crete (HC)" insttype="" lat="35.5193" lon="24.0432" esm:processing="automatic (Paolucci et al 2011)" esm:quality="best">
		<comp name="--.HNE" depth="0.0">
			<acc value="0.0496586690752028" flag="0"/>
			<vel value="0.033245830588339" flag="0"/>
			<psa03 value="0.121937723609223" flag="0"/>
			<psa10 value="0.038550982563403" flag="0"/>
			<psa30 value="0.00363126347004991" flag="0"/>
		</comp>
		<comp name="--.HNN" depth="0.0">
			<acc value="0.0544857832942225" flag="0"/>
			<vel value="0.038428428610457" flag="0"/>
			<psa03 value="0.11508435294025" flag="0"/>
			<psa10 value="0.0393178071117686" flag="0"/>
			<psa30 value="0.00319624444384019" flag="0"/>
		</comp>
		<comp name="--.HNZ" depth="0.0">
			<acc value="0.0316119950029518" flag="0"/>
			<vel value="0.0192292529832648" flag="0"/>
			<psa03 value="0.0845471372911643" flag="0"/>
			<psa10 value="0.0322059109835507" flag="0"/>
			<psa30 value="0.00260611722580821" flag="0"/>
		</comp>
	</station>
	<station code="PASK" name="PASK" netid="HC" source="Seismological Network of Crete (HC)" insttype="" lat="35.4996" lon="24.0121" esm:processing="automatic (Paolucci et al 2011)" esm:quality="best">
		<comp name="--.HNE" depth="0.0">
			<acc value="0.0651539917536708" flag="0"/>
			<vel value="0.0565239301001029" flag="0"/>
			<psa03 value="0.130527667650674" flag="0"/>
			<psa10 value="0.102718284582328" flag="0"/>
			<psa30 value="0.00845920954778097" flag="0"/>
		</comp>
		<comp name="--.HNN" depth="0.0">
			<acc value="0.0581096524181927" flag="0"/>
			<vel value="0.0416898934131002" flag="0"/>
			<psa03 value="0.156866766653589" flag="0"/>
			<psa10 value="0.0667023462031406" flag="0"/>
			<psa30 value="0.00602128596397491" flag="0"/>
		</comp>
		<comp name="--.HNZ" depth="0.0">
			<acc value="0.0347416965391941" flag="0"/>
			<vel value="0.036881321504239" flag="0"/>
			<psa03 value="0.12802666863836" flag="0"/>
			<psa10 value="0.037455846266004" flag="0"/>
			<psa30 value="0.00314000550995425" flag="0"/>
		</comp>
	</station>
	<station code="ARK1" name="ARK1" netid="HI" source="ITSAK Strong Motion Network" insttype="" lat="35.148777" lon="25.264194" esm:processing="automatic (Paolucci et al 2011)" esm:quality="best">
		<comp name="--.HNE" depth="0.0">
			<acc value="0.0990324044268226" flag="0"/>
			<vel value="0.0868800384259844" flag="0"/>
			<psa03 value="0.245364212508244" flag="0"/>
			<psa10 value="0.106586740848299" flag="0"/>
			<psa30 value="0.0118854440189886" flag="0"/>
		</comp>
		<comp name="--.HNN" depth="0.0">
			<acc value="0.142351115915352" flag="0"/>
			<vel value="0.0821225624895522" flag="0"/>
			<psa03 value="0.341684343244149" flag="0"/>
			<psa10 value="0.089635130387287" flag="0"/>
			<psa30 value="0.00661969352219585" flag="0"/>
		</comp>
		<comp name="--.HNZ" depth="0.0">
			<acc value="0.0578553398490254" flag="0"/>
			<vel value="0.0448602328570323" flag="0"/>
			<psa03 value="0.132996487447862" flag="0"/>
			<psa10 value="0.0801587176216668" flag="0"/>
			<psa30 value="0.0053585512277079" flag="0"/>
		</comp>
	</station>
	<station code="CH01" name="CH01" netid="HI" source="ITSAK Strong Motion Network" insttype="" lat="35.517" lon="24.0208" esm:processing="automatic (Paolucci et al 2011)" esm:quality="best">
		<comp name="--.HNE" depth="0.0">
			<acc value="0.051399330925073" flag="0"/>
			<vel value="0.0308519582872228" flag="0"/>
			<psa03 value="0.140793576883605" flag="0"/>
			<psa10 value="0.0615800431256869" flag="0"/>
			<psa30 value="0.0036371296919937" flag="0"/>
		</comp>
		<comp name="--.HNN" depth="0.0">
			<acc value="0.0445909774909146" flag="0"/>
			<vel value="0.02944247985728" flag="0"/>
			<psa03 value="0.150663303621336" flag="0"/>
			<psa10 value="0.0425670448579344" flag="0"/>
			<psa30 value="0.00442643406286812" flag="0"/>
		</comp>
		<comp name="--.HNZ" depth="0.0">
			<acc value="0.0246129522020279" flag="0"/>
			<vel value="0.0215452113279011" flag="0"/>
			<psa03 value="0.0654194066313916" flag="0"/>
			<psa10 value="0.0479507177497942" flag="0"/>
			<psa30 value="0.00246343381540071" flag="0"/>
		</comp>
	</station>
	<station code="CH02" name="CH02" netid="HI" source="ITSAK Strong Motion Network" insttype="" lat="35.5145" lon="24.0315" esm:processing="automatic (Paolucci et al 2011)" esm:quality="best">
		<comp name="--.HNE" depth="0.0">
			<acc value="0.0431074947218115" flag="0"/>
			<vel value="0.0367215944374907" flag="0"/>
			<psa03 value="0.165819974343038" flag="0"/>
			<psa10 value="0.065516232628974" flag="0"/>
			<psa30 value="0.00351206765724623" flag="0"/>
		</comp>
		<comp name="--.HNN" depth="0.0">
			<acc value="0.0686719374134717" flag="0"/>
			<vel value="0.0359192072302899" flag="0"/>
			<psa03 value="0.20311187183145" flag="0"/>
			<psa10 value="0.0658920375239742" flag="0"/>
			<psa30 value="0.00395211972520025" flag="0"/>
		</comp>
		<comp name="--.HNZ" depth="0.0">
			<acc value="0.0279895487041426" flag="0"/>
			<vel value="0.0163855685383569" flag="0"/>
			<psa03 value="0.0411459835319686" flag="0"/>
			<psa10 value="0.0394698534340806" flag="0"/>
			<psa30 value="0.00233008227317987" flag="0"/>
		</comp>
	</station>
	<station code="CH03" name="CH03" netid="HI" source="ITSAK Strong Motion Network" insttype="" lat="35.53303" lon="24.0705" esm:processing="automatic (Paolucci et al 2011)" esm:quality="best">
		<comp name="--.HNE" depth="0.0">
			<acc value="0.0340239140673889" flag="0"/>
			<vel value="0.0305042692029724" flag="0"/>
			<psa03 value="0.104027703825004" flag="0"/>
			<psa10 value="0.057874546404846" flag="0"/>
			<psa30 value="0.00233364105059874" flag="0"/>
		</comp>
		<comp name="--.HNN" depth="0.0">
			<acc value="0.0414695723537928" flag="0"/>
			<vel value="0.0490929813824013" flag="0"/>
			<psa03 value="0.139140009009447" flag="0"/>
			<psa10 value="0.057344628800157" flag="0"/>
			<psa30 value="0.00360846570981009" flag="0"/>
		</comp>
		<comp name="--.HNZ" depth="0.0">
			<acc value="0.0253806951183376" flag="0"/>
			<vel value="0.0148879500114258" flag="0"/>
			<psa03 value="0.0588718374705159" flag="0"/>
			<psa10 value="0.0207672519785405" flag="0"/>
			<psa30 value="0.00198903863904858" flag="0"/>
		</comp>
	</station>
	<station code="KIS1" name="KIS1" netid="HI" source="ITSAK Strong Motion Network" insttype="" lat="35.493933" lon="23.658993" esm:processing="automatic (Paolucci et al 2011)" esm:quality="best">
		<comp name="--.HNE" depth="0.0">
			<acc value="0.027706269857969" flag="0"/>
			<vel value="0.0229252857197145" flag="0"/>
			<psa03 value="0.0683805350831385" flag="0"/>
			<psa10 value="0.0330964824795257" flag="0"/>
			<psa30 value="0.00478393732901865" flag="0"/>
		</comp>
		<comp name="--.HNN" depth="0.0">
			<acc value="0.0276711435607246" flag="0"/>
			<vel value="0.0337441195283332" flag="0"/>
			<psa03 value="0.0680737595524158" flag="0"/>
			<psa10 value="0.0466604785277508" flag="0"/>
			<psa30 value="0.00411678563351035" flag="0"/>
		</comp>
		<comp name="--.HNZ" depth="0.0">
			<acc value="0.0155342192355327" flag="0"/>
			<vel value="0.0147906383309447" flag="0"/>
			<psa03 value="0.0365587265237216" flag="0"/>
			<psa10 value="0.0240775831467177" flag="0"/>
			<psa30 value="0.00310196132304798" flag="0"/>
		</comp>
	</station>
	<station code="KTL1" name="KTL1" netid="HI" source="ITSAK Strong Motion Network" insttype="" lat="35.20778" lon="25.34272" esm:processing="automatic (Paolucci et al 2011)" esm:quality="best">
		<comp name="--.HNE" depth="0.0">
			<acc value="0.0797522573016478" flag="0"/>
			<vel value="0.0678936132046519" flag="0"/>
			<psa03 value="0.23879606906781" flag="0"/>
			<psa10 value="0.0679305900682192" flag="0"/>
			<psa30 value="0.00738039224812014" flag="0"/>
		</comp>
		<comp name="--.HNN" depth="0.0">
			<acc value="0.122054427418242" flag="0"/>
			<vel value="0.0741831110086126" flag="0"/>
			<psa03 value="0.361361521760767" flag="0"/>
			<psa10 value="0.124394645534755" flag="0"/>
			<psa30 value="0.00454739040896617" flag="0"/>
		</comp>
		<comp name="--.HNZ" depth="0.0">
			<acc value="0.0531408872976582" flag="0"/>
			<vel value="0.0287909827867882" flag="0"/>
			<psa03 value="0.131916155464509" flag="0"/>
			<psa10 value="0.0399607797055366" flag="0"/>
			<psa30 value="0.00302962069750265" flag="0"/>
		</comp>
	</station>
	<station code="MILA" name="MILA" netid="HL" source="National Observatory of Athens Seismic Network" insttype="" lat="36.74288" lon="24.4282" esm:processing="automatic (Paolucci et al 2011)" esm:quality="best">
		<comp name="00.HNE" depth="0.0">
			<acc value="0.388149444360567" flag="0"/>
			<vel value="0.176757072411438" flag="0"/>
			<psa03 value="0.721927240803063" flag="0"/>
			<psa10 value="0.158402663398962" flag="0"/>
			<psa30 value="0.0194963448704985" flag="0"/>
		</comp>
		<comp name="00.HNN" depth="0.0">
			<acc value="0.496217085439071" flag="0"/>
			<vel value="0.215058831791054" flag="0"/>
			<psa03 value="0.851306478207757" flag="0"/>
			<psa10 value="0.241101161768611" flag="0"/>
			<psa30 value="0.0179348330946568" flag="0"/>
		</comp>
		<comp name="00.HNZ" depth="0.0">
			<acc value="0.32808391354127" flag="0"/>
			<vel value="0.171942981663906" flag="0"/>
			<psa03 value="0.618422425785441" flag="0"/>
			<psa10 value="0.202204335044723" flag="0"/>
			<psa30 value="0.0133441106485045" flag="0"/>
		</comp>
	</station>
	<station code="THRA" name="THRA" netid="HL" source="National Observatory of Athens Seismic Network" insttype="" lat="36.41502" lon="25.43244" esm:processing="automatic (Paolucci et al 2011)" esm:quality="best">
		<comp name="00.HNE" depth="0.0">
			<acc value="3.01876094253189" flag="0"/>
			<vel value="1.54919059401466" flag="0"/>
			<psa03 value="8.13354414073166" flag="0"/>
			<psa10 value="0.658879347521721" flag="0"/>
			<psa30 value="0.0776685051571225" flag="0"/>
		</comp>
		<comp name="00.HNN" depth="0.0">
			<acc value="2.58657700772972" flag="0"/>
			<vel value="1.38455738302987" flag="0"/>
			<psa03 value="5.51242417102547" flag="0"/>
			<psa10 value="1.80322337469756" flag="0"/>
			<psa30 value="0.0782776788455443" flag="0"/>
		</comp>
		<comp name="00.HNZ" depth="0.0">
			<acc value="1.82776118760139" flag="0"/>
			<vel value="0.809290661371056" flag="0"/>
			<psa03 value="4.06179340721222" flag="0"/>
			<psa10 value="0.354078565967438" flag="0"/>
			<psa30 value="0.0390388861346093" flag="0"/>
		</comp>
	</station>
	<station code="YDRA" name="YDRA" netid="HL" source="National Observatory of Athens Seismic Network" insttype="" lat="37.34923" lon="23.46525" esm:processing="manual (Paolucci et al 2011)" esm:quality="good">
		<comp name="00.HNE" depth="0.0">
			<acc value="0.0143721830456843" flag="0"/>
			<vel value="0.0133747180196949" flag="0"/>
			<psa03 value="0.0358379183570411" flag="0"/>
			<psa10 value="0.0201217854695347" flag="0"/>
			<psa30 value="0.00532806337471646" flag="0"/>
		</comp>
		<comp name="00.HNN" depth="0.0">
			<acc value="0.0129699304028784" flag="0"/>
			<vel value="0.0112585397698293" flag="0"/>
			<psa03 value="0.0308435432333669" flag="0"/>
			<psa10 value="0.0144972247449907" flag="0"/>
			<psa30 value="0.00429260853091481" flag="0"/>
		</comp>
		<comp name="00.HNZ" depth="0.0">
			<acc value="0.00816331785750139" flag="0"/>
			<vel value="0.00675278858973696" flag="0"/>
			<psa03 value="0.0191427850426445" flag="0"/>
			<psa10 value="0.00662509137978965" flag="0"/>
			<psa30 value="0.0031159428742565" flag="0"/>
		</comp>
	</station>
</stationlist>
