<?xml version="1.0" encoding="UTF-8" standalone="yes"?>
<!DOCTYPE earthquake SYSTEM "stationlist.dtd">
<stationlist created="" xmlns="ch.ethz.sed.shakemap.usgs.xml">
  <station code="GURO" name="GURO" netid="KO" insttype="CMG-3T" lat="38.5509" lon="42.0322">
    <comp name="--.HHN">
      <acc value="0.0085536624" flag="0"/>
      <vel value="0.0051173685" flag="0"/>
      <psa03 value="0.0246028367" flag="0"/>
      <psa10 value="0.0046108996" flag="0"/>
      <psa30 value="0.0002244355" flag="0"/>
    </comp>
    <comp name="--.HHZ">
      <acc value="0.0079056737" flag="0"/>
      <vel value="0.0031186400" flag="0"/>
      <psa03 value="0.0094836402" flag="0"/>
      <psa10 value="0.0025646172" flag="0"/>
      <psa30 value="0.0001987218" flag="0"/>
    </comp>
    <comp name="--.HHE">
      <acc value="0.0067275311" flag="0"/>
      <vel value="0.0025541842" flag="0"/>
      <psa03 value="0.0159000394" flag="0"/>
      <psa10 value="0.0025357930" flag="0"/>
      <psa30 value="0.0002191411" flag="0"/>
    </comp>
  </station>
</stationlist>
