<?xml version="1.0" encoding="UTF-8" standalone="yes"?>
<!DOCTYPE earthquake SYSTEM "stationlist.dtd">
<stationlist created="" xmlns="ch.ethz.sed.shakemap.usgs.xml">
  <station code="AKS" name="AKS" netid="KO" insttype="CMG-5T" commtype="DIG" lat="38.8785" lon="27.8129">
    <comp name="--.HNZ">
      <acc value="0.0528745806" flag="0"/>
      <vel value="0.0146828737" flag="0"/>
      <psa03 value="0.0555697265" flag="0"/>
      <psa10 value="0.0139376107" flag="0"/>
      <psa30 value="0.0014972133" flag="0"/>
    </comp>
    <comp name="--.HNN">
      <acc value="0.0711893620" flag="0"/>
      <vel value="0.0238864196" flag="0"/>
      <psa03 value="0.0827763326" flag="0"/>
      <psa10 value="0.0168665906" flag="0"/>
      <psa30 value="0.0013216376" flag="0"/>
    </comp>
    <comp name="--.HNE">
      <acc value="0.0604779187" flag="0"/>
      <vel value="0.0244170799" flag="0"/>
      <psa03 value="0.1278715158" flag="0"/>
      <psa10 value="0.0234878957" flag="0"/>
      <psa30 value="0.0026481551" flag="0"/>
    </comp>
  </station>
  <station code="BALB" name="BALB" netid="KO" insttype="CMG-5T" commtype="DIG" lat="39.6507" lon="27.8642">
    <comp name="--.HNZ">
      <acc value="0.0247491211" flag="0"/>
      <vel value="0.0129062239" flag="0"/>
      <psa03 value="0.0312541823" flag="0"/>
      <psa10 value="0.0216444527" flag="0"/>
      <psa30 value="0.0018654820" flag="0"/>
    </comp>
    <comp name="--.HNN">
      <acc value="0.0363223469" flag="0"/>
      <vel value="0.0272782958" flag="0"/>
      <psa03 value="0.0584491351" flag="0"/>
      <psa10 value="0.0332610176" flag="0"/>
      <psa30 value="0.0031775954" flag="0"/>
    </comp>
    <comp name="--.HNE">
      <acc value="0.0347222220" flag="0"/>
      <vel value="0.0191908642" flag="0"/>
      <psa03 value="0.0535839440" flag="0"/>
      <psa10 value="0.0423754433" flag="0"/>
      <psa30 value="0.0030397248" flag="0"/>
    </comp>
  </station>
  <station code="DST" name="DST" netid="KO" insttype="CMG-5T" commtype="DIG" lat="39.6041" lon="28.6267">
    <comp name="--.HNE">
      <acc value="0.0654509636" flag="0"/>
      <vel value="0.0257381591" flag="0"/>
      <psa03 value="0.1560384694" flag="0"/>
      <psa10 value="0.0170045669" flag="0"/>
      <psa30 value="0.0014194657" flag="0"/>
    </comp>
    <comp name="--.HNN">
      <acc value="0.0701029583" flag="0"/>
      <vel value="0.0238643529" flag="0"/>
      <psa03 value="0.1421866749" flag="0"/>
      <psa10 value="0.0193648336" flag="0"/>
      <psa30 value="0.0012255512" flag="0"/>
    </comp>
    <comp name="--.HNZ">
      <acc value="0.0559909828" flag="0"/>
      <vel value="0.0169787233" flag="0"/>
      <psa03 value="0.0834368993" flag="0"/>
      <psa10 value="0.0160104640" flag="0"/>
      <psa30 value="0.0012565417" flag="0"/>
    </comp>
  </station>
  <station code="GOMA" name="GOMA" netid="KO" insttype="CMG-5T" commtype="DIG" lat="38.7077" lon="27.9175">
    <comp name="--.HNE">
      <acc value="0.0850762965" flag="0"/>
      <vel value="0.0620168129" flag="0"/>
      <psa03 value="0.2340307446" flag="0"/>
      <psa10 value="0.0535995441" flag="0"/>
      <psa30 value="0.0021281559" flag="0"/>
    </comp>
    <comp name="--.HNZ">
      <acc value="0.0659262088" flag="0"/>
      <vel value="0.0265259555" flag="0"/>
      <psa03 value="0.1231864536" flag="0"/>
      <psa10 value="0.0161229452" flag="0"/>
      <psa30 value="0.0013679234" flag="0"/>
    </comp>
  </station>
  <station code="GONE" name="GONE" netid="KO" insttype="CMG-5T" commtype="DIG" lat="40.0466" lon="27.686">
    <comp name="--.HNZ">
      <acc value="0.0204977146" flag="0"/>
      <vel value="0.0088262570" flag="0"/>
      <psa03 value="0.0241249125" flag="0"/>
      <psa10 value="0.0086371350" flag="0"/>
      <psa30 value="0.0005931747" flag="0"/>
    </comp>
    <comp name="--.HNN">
      <acc value="0.0393299990" flag="0"/>
      <vel value="0.0137012508" flag="0"/>
      <psa03 value="0.0670439235" flag="0"/>
      <psa10 value="0.0193785351" flag="0"/>
      <psa30 value="0.0013486256" flag="0"/>
    </comp>
    <comp name="--.HNE">
      <acc value="0.0187250093" flag="0"/>
      <vel value="0.0138851567" flag="0"/>
      <psa03 value="0.0229168113" flag="0"/>
      <psa10 value="0.0170792792" flag="0"/>
      <psa30 value="0.0021457088" flag="0"/>
    </comp>
  </station>
  <station code="GORD" name="GORD" netid="KO" insttype="CMG-5T" commtype="DIG" lat="38.9088" lon="28.1769">
    <comp name="--.HNN">
      <acc value="0.1409420825" flag="0"/>
      <vel value="0.0698844753" flag="0"/>
      <psa03 value="0.3538761060" flag="0"/>
      <psa10 value="0.1103698699" flag="0"/>
      <psa30 value="0.0061341066" flag="0"/>
    </comp>
    <comp name="--.HNZ">
      <acc value="0.1242109425" flag="0"/>
      <vel value="0.0526839202" flag="0"/>
      <psa03 value="0.1869868021" flag="0"/>
      <psa10 value="0.0724812162" flag="0"/>
      <psa30 value="0.0037282071" flag="0"/>
    </comp>
    <comp name="--.HNE">
      <acc value="0.1707254713" flag="0"/>
      <vel value="0.1189391016" flag="0"/>
      <psa03 value="0.2256806238" flag="0"/>
      <psa10 value="0.1423674283" flag="0"/>
      <psa30 value="0.0104520339" flag="0"/>
    </comp>
  </station>
  <station code="KCTX" name="KCTX" netid="KO" insttype="CMG-3ESP" commtype="DIG" lat="40.2626" lon="28.3353">
    <comp name="--.HHE">
      <acc value="0.0278637426" flag="0"/>
      <vel value="0.0231794086" flag="0"/>
      <psa03 value="0.0367969576" flag="0"/>
      <psa10 value="0.0353285596" flag="0"/>
      <psa30 value="0.0022491483" flag="0"/>
    </comp>
    <comp name="--.HHN">
      <acc value="0.0413961559" flag="0"/>
      <vel value="0.0110030011" flag="0"/>
      <psa03 value="0.0670901666" flag="0"/>
      <psa10 value="0.0142395709" flag="0"/>
      <psa30 value="0.0009054507" flag="0"/>
    </comp>
    <comp name="--.HHZ">
      <acc value="0.0267465758" flag="0"/>
      <vel value="0.0085534305" flag="0"/>
      <psa03 value="0.0291068710" flag="0"/>
      <psa10 value="0.0087818087" flag="0"/>
      <psa30 value="0.0005297332" flag="0"/>
    </comp>
  </station>
  <station code="ORLT" name="ORLT" netid="KO" insttype="CMG-5T" commtype="DIG" lat="40.0452" lon="28.8914">
    <comp name="--.HNE">
      <acc value="0.0674663554" flag="0"/>
      <vel value="0.0286326889" flag="0"/>
      <psa03 value="0.1364591677" flag="0"/>
      <psa10 value="0.0367384031" flag="0"/>
      <psa30 value="0.0016898171" flag="0"/>
    </comp>
    <comp name="--.HNN">
      <acc value="0.0836596444" flag="0"/>
      <vel value="0.0296259001" flag="0"/>
      <psa03 value="0.1638225018" flag="0"/>
      <psa10 value="0.0333454369" flag="0"/>
      <psa30 value="0.0016918143" flag="0"/>
    </comp>
    <comp name="--.HNZ">
      <acc value="0.0311904699" flag="0"/>
      <vel value="0.0151573817" flag="0"/>
      <psa03 value="0.0648061603" flag="0"/>
      <psa10 value="0.0262111246" flag="0"/>
      <psa30 value="0.0014730629" flag="0"/>
    </comp>
  </station>
  <station code="SHAP" name="SHAP" netid="KO" insttype="CMG-5T" commtype="DIG" lat="39.0231" lon="29.222">
    <comp name="--.HNN">
      <acc value="0.2575027698" flag="0"/>
      <vel value="0.0765328114" flag="0"/>
      <psa03 value="0.4406668485" flag="0"/>
      <psa10 value="0.0457826874" flag="0"/>
      <psa30 value="0.0033099631" flag="0"/>
    </comp>
    <comp name="--.HNE">
      <acc value="0.3365286645" flag="0"/>
      <vel value="0.0880563599" flag="0"/>
      <psa03 value="0.5896474237" flag="0"/>
      <psa10 value="0.0219880597" flag="0"/>
      <psa30 value="0.0021331861" flag="0"/>
    </comp>
    <comp name="--.HNZ">
      <acc value="0.2265116991" flag="0"/>
      <vel value="0.0490211067" flag="0"/>
      <psa03 value="0.1599705399" flag="0"/>
      <psa10 value="0.0151233527" flag="0"/>
      <psa30 value="0.0011624166" flag="0"/>
    </comp>
  </station>
  <station code="SIMA" name="SIMA" netid="KO" insttype="CMG-6T" commtype="DIG" lat="39.0833" lon="28.9825">
    <comp name="--.HHE">
      <acc value="0.6156644723" flag="0"/>
      <vel value="0.1958892584" flag="0"/>
      <psa03 value="1.1104751954" flag="0"/>
      <psa10 value="0.0406255323" flag="0"/>
      <psa30 value="0.0043341198" flag="0"/>
    </comp>
    <comp name="--.HHN">
      <acc value="0.5514190728" flag="0"/>
      <vel value="0.2278691231" flag="0"/>
      <psa03 value="1.2898642589" flag="0"/>
      <psa10 value="0.0637908914" flag="0"/>
      <psa30 value="0.0048898274" flag="0"/>
    </comp>
    <comp name="--.HHZ">
      <acc value="0.1874335643" flag="0"/>
      <vel value="0.0607693884" flag="0"/>
      <psa03 value="0.3417093179" flag="0"/>
      <psa10 value="0.0187868098" flag="0"/>
      <psa30 value="0.0018180382" flag="0"/>
    </comp>
  </station>
  <station code="SMAA" name="SMAA" netid="KO" insttype="CMG-5T" commtype="DIG" lat="39.1005" lon="28.9805">
    <comp name="--.HNN">
      <acc value="0.3739394865" flag="0"/>
      <vel value="0.1564676352" flag="0"/>
      <psa03 value="0.8323866290" flag="0"/>
      <psa10 value="0.1151121677" flag="0"/>
      <psa30 value="0.0118454883" flag="0"/>
    </comp>
    <comp name="--.HNE">
      <acc value="0.3781760794" flag="0"/>
      <vel value="0.1701878725" flag="0"/>
      <psa03 value="0.9240318040" flag="0"/>
      <psa10 value="0.1316799907" flag="0"/>
      <psa30 value="0.0130075788" flag="0"/>
    </comp>
    <comp name="--.HNZ">
      <acc value="0.1589610581" flag="0"/>
      <vel value="0.0347838717" flag="0"/>
      <psa03 value="0.1829402729" flag="0"/>
      <psa10 value="0.0529676096" flag="0"/>
      <psa30 value="0.0032001925" flag="0"/>
    </comp>
  </station>
  <station code="SOMA" name="SOMA" netid="KO" insttype="CMG-5T" commtype="DIG" lat="39.1564" lon="27.5341">
    <comp name="--.HNN">
      <acc value="0.0578916873" flag="0"/>
      <vel value="0.0246052723" flag="0"/>
      <psa03 value="0.1174703364" flag="0"/>
      <psa10 value="0.0378298903" flag="0"/>
      <psa30 value="0.0027116485" flag="0"/>
    </comp>
    <comp name="--.HNE">
      <acc value="0.0369410595" flag="0"/>
      <vel value="0.0247072287" flag="0"/>
      <psa03 value="0.1315958118" flag="0"/>
      <psa10 value="0.0494962025" flag="0"/>
      <psa30 value="0.0020994282" flag="0"/>
    </comp>
    <comp name="--.HNZ">
      <acc value="0.0438698528" flag="0"/>
      <vel value="0.0154350950" flag="0"/>
      <psa03 value="0.0647558520" flag="0"/>
      <psa10 value="0.0310052568" flag="0"/>
      <psa30 value="0.0018182339" flag="0"/>
    </comp>
  </station>
  <station code="SUSR" name="SUSR" netid="KO" insttype="CMG-5T" commtype="DIG" lat="39.9627" lon="28.0835">
    <comp name="--.HNE">
      <acc value="0.0395116290" flag="0"/>
      <vel value="0.0127146451" flag="0"/>
      <psa03 value="0.0347946304" flag="0"/>
      <psa10 value="0.0149403825" flag="0"/>
      <psa30 value="0.0013157845" flag="0"/>
    </comp>
    <comp name="--.HNZ">
      <acc value="0.0392207185" flag="0"/>
      <vel value="0.0117787494" flag="0"/>
      <psa03 value="0.0309184463" flag="0"/>
      <psa10 value="0.0112126219" flag="0"/>
      <psa30 value="0.0006883998" flag="0"/>
    </comp>
    <comp name="--.HNN">
      <acc value="0.0452063221" flag="0"/>
      <vel value="0.0174528551" flag="0"/>
      <psa03 value="0.0803782218" flag="0"/>
      <psa10 value="0.0134495831" flag="0"/>
      <psa30 value="0.0009015487" flag="0"/>
    </comp>
  </station>
  <station code="TVSB" name="TVSB" netid="KO" insttype="CMG-3T" commtype="DIG" lat="39.4497" lon="29.4615">
    <comp name="--.HHN">
      <acc value="0.1059627176" flag="0"/>
      <vel value="0.0346848579" flag="0"/>
      <psa03 value="0.1715426481" flag="0"/>
      <psa10 value="0.0317111304" flag="0"/>
      <psa30 value="0.0019553240" flag="0"/>
    </comp>
    <comp name="--.HHE">
      <acc value="0.0831263153" flag="0"/>
      <vel value="0.0447682344" flag="0"/>
      <psa03 value="0.2903259073" flag="0"/>
      <psa10 value="0.0166503234" flag="0"/>
      <psa30 value="0.0014570335" flag="0"/>
    </comp>
    <comp name="--.HHZ">
      <acc value="0.0505094374" flag="0"/>
      <vel value="0.0169148764" flag="0"/>
      <psa03 value="0.0748150201" flag="0"/>
      <psa10 value="0.0087991539" flag="0"/>
      <psa30 value="0.0008888599" flag="0"/>
    </comp>
  </station>
  <station code="YAYO" name="YAYO" netid="KO" insttype="CMG-6T" commtype="DIG" lat="39.6113" lon="27.0726">
    <comp name="--.HHZ">
      <acc value="0.0106234802" flag="0"/>
      <vel value="0.0046316787" flag="0"/>
      <psa03 value="0.0231698772" flag="0"/>
      <psa10 value="0.0076330789" flag="0"/>
      <psa30 value="0.0005890835" flag="0"/>
    </comp>
    <comp name="--.HHE">
      <acc value="0.0129417569" flag="0"/>
      <vel value="0.0098454560" flag="0"/>
      <psa03 value="0.0343343571" flag="0"/>
      <psa10 value="0.0094704551" flag="0"/>
      <psa30 value="0.0012204437" flag="0"/>
    </comp>
    <comp name="--.HHN">
      <acc value="0.0140376266" flag="0"/>
      <vel value="0.0095084360" flag="0"/>
      <psa03 value="0.0393921644" flag="0"/>
      <psa10 value="0.0102792226" flag="0"/>
      <psa30 value="0.0018332916" flag="0"/>
    </comp>
  </station>
  <station code="YENI" name="YENI" netid="KO" insttype="CMG-5T" commtype="DIG" lat="39.9364" lon="27.2422">
    <comp name="--.HNN">
      <acc value="0.0215257184" flag="0"/>
      <vel value="0.0133740095" flag="0"/>
      <psa03 value="0.0337637606" flag="0"/>
      <psa10 value="0.0194513793" flag="0"/>
      <psa30 value="0.0009491100" flag="0"/>
    </comp>
    <comp name="--.HNE">
      <acc value="0.0218410561" flag="0"/>
      <vel value="0.0149482390" flag="0"/>
      <psa03 value="0.0401361926" flag="0"/>
      <psa10 value="0.0268217051" flag="0"/>
      <psa30 value="0.0015240918" flag="0"/>
    </comp>
    <comp name="--.HNZ">
      <acc value="0.0134142039" flag="0"/>
      <vel value="0.0064555423" flag="0"/>
      <psa03 value="0.0190621534" flag="0"/>
      <psa10 value="0.0111459327" flag="0"/>
      <psa30 value="0.0010973710" flag="0"/>
    </comp>
  </station>
</stationlist>
