<?xml version="1.0" encoding="UTF-8" standalone="yes"?>
<!DOCTYPE earthquake SYSTEM "stationlist.dtd">
<stationlist created="" xmlns="ch.ethz.sed.shakemap.usgs.xml">
  <station code="AKS" name="AKS" netid="KO" insttype="CMG-5T" commtype="DIG" lat="38.8785" lon="27.8129">
    <comp name="--.HNE">
      <acc value="0.0604778608" flag="0"/>
      <vel value="0.0244170766" flag="0"/>
      <psa03 value="0.1278715158" flag="0"/>
      <psa10 value="0.0234879080" flag="0"/>
      <psa30 value="0.0026472455" flag="0"/>
    </comp>
    <comp name="--.HNN">
      <acc value="0.0711893931" flag="0"/>
      <vel value="0.0238864054" flag="0"/>
      <psa03 value="0.0827763326" flag="0"/>
      <psa10 value="0.0168665488" flag="0"/>
      <psa30 value="0.0013213043" flag="0"/>
    </comp>
    <comp name="--.HNZ">
      <acc value="0.0528745546" flag="0"/>
      <vel value="0.0146828952" flag="0"/>
      <psa03 value="0.0555697265" flag="0"/>
      <psa10 value="0.0139375912" flag="0"/>
      <psa30 value="0.0014964942" flag="0"/>
    </comp>
  </station>
  <station code="BALB" name="BALB" netid="KO" insttype="CMG-5T" commtype="DIG" lat="39.6507" lon="27.8642">
    <comp name="--.HNE">
      <acc value="0.0347222214" flag="0"/>
      <vel value="0.0191908613" flag="0"/>
      <psa03 value="0.0535839440" flag="0"/>
      <psa10 value="0.0423754417" flag="0"/>
      <psa30 value="0.0030409108" flag="0"/>
    </comp>
    <comp name="--.HNN">
      <acc value="0.0363223470" flag="0"/>
      <vel value="0.0272782936" flag="0"/>
      <psa03 value="0.0584491351" flag="0"/>
      <psa10 value="0.0332610160" flag="0"/>
      <psa30 value="0.0031764726" flag="0"/>
    </comp>
    <comp name="--.HNZ">
      <acc value="0.0247491191" flag="0"/>
      <vel value="0.0129062261" flag="0"/>
      <psa03 value="0.0312541823" flag="0"/>
      <psa10 value="0.0216444510" flag="0"/>
      <psa30 value="0.0018651647" flag="0"/>
    </comp>
  </station>
  <station code="DST" name="DST" netid="KO" insttype="CMG-5T" commtype="DIG" lat="39.6041" lon="28.6267">
    <comp name="--.HNE">
      <acc value="0.0654509681" flag="0"/>
      <vel value="0.0257381683" flag="0"/>
      <psa03 value="0.1560384694" flag="0"/>
      <psa10 value="0.0170045562" flag="0"/>
      <psa30 value="0.0014164595" flag="0"/>
    </comp>
    <comp name="--.HNN">
      <acc value="0.0701029568" flag="0"/>
      <vel value="0.0238643738" flag="0"/>
      <psa03 value="0.1421866749" flag="0"/>
      <psa10 value="0.0193648313" flag="0"/>
      <psa30 value="0.0012217641" flag="0"/>
    </comp>
    <comp name="--.HNZ">
      <acc value="0.0559909817" flag="0"/>
      <vel value="0.0169787065" flag="0"/>
      <psa03 value="0.0834368993" flag="0"/>
      <psa10 value="0.0160104780" flag="0"/>
      <psa30 value="0.0012598383" flag="0"/>
    </comp>
  </station>
  <station code="GOMA" name="GOMA" netid="KO" insttype="CMG-5T" commtype="DIG" lat="38.7077" lon="27.9175">
    <comp name="--.HNE">
      <acc value="0.0850763026" flag="0"/>
      <vel value="0.0620168277" flag="0"/>
      <psa03 value="0.2340307446" flag="0"/>
      <psa10 value="0.0535995346" flag="0"/>
      <psa30 value="0.0021224405" flag="0"/>
    </comp>
    <comp name="--.HNZ">
      <acc value="0.0659262011" flag="0"/>
      <vel value="0.0265259639" flag="0"/>
      <psa03 value="0.1231864536" flag="0"/>
      <psa10 value="0.0161229407" flag="0"/>
      <psa30 value="0.0013702553" flag="0"/>
    </comp>
    <comp name="--.HNN">
      <acc value="0.1109144342" flag="0"/>
      <vel value="0.0574160297" flag="0"/>
      <psa03 value="0.3584927150" flag="0"/>
      <psa10 value="0.0222164169" flag="0"/>
      <psa30 value="0.0041190079" flag="0"/>
    </comp>
  </station>
  <station code="GONE" name="GONE" netid="KO" insttype="CMG-5T" commtype="DIG" lat="40.0466" lon="27.686">
    <comp name="--.HNZ">
      <acc value="0.0204977092" flag="0"/>
      <vel value="0.0088262569" flag="0"/>
      <psa03 value="0.0241249125" flag="0"/>
      <psa10 value="0.0086371350" flag="0"/>
      <psa30 value="0.0005932069" flag="0"/>
    </comp>
    <comp name="--.HNN">
      <acc value="0.0393299971" flag="0"/>
      <vel value="0.0137012490" flag="0"/>
      <psa03 value="0.0670439235" flag="0"/>
      <psa10 value="0.0193785348" flag="0"/>
      <psa30 value="0.0013486850" flag="0"/>
    </comp>
    <comp name="--.HNE">
      <acc value="0.0187250108" flag="0"/>
      <vel value="0.0138851533" flag="0"/>
      <psa03 value="0.0229168113" flag="0"/>
      <psa10 value="0.0170792791" flag="0"/>
      <psa30 value="0.0021456326" flag="0"/>
    </comp>
  </station>
  <station code="GORD" name="GORD" netid="KO" insttype="CMG-5T" commtype="DIG" lat="38.9088" lon="28.1769">
    <comp name="--.HNN">
      <acc value="0.1409420839" flag="0"/>
      <vel value="0.0698844735" flag="0"/>
      <psa03 value="0.3538761060" flag="0"/>
      <psa10 value="0.1103698749" flag="0"/>
      <psa30 value="0.0061337027" flag="0"/>
    </comp>
    <comp name="--.HNE">
      <acc value="0.1707254747" flag="0"/>
      <vel value="0.1189391041" flag="0"/>
      <psa03 value="0.2256806238" flag="0"/>
      <psa10 value="0.1423674280" flag="0"/>
      <psa30 value="0.0104545516" flag="0"/>
    </comp>
    <comp name="--.HNZ">
      <acc value="0.1242109402" flag="0"/>
      <vel value="0.0526839239" flag="0"/>
      <psa03 value="0.1869868021" flag="0"/>
      <psa10 value="0.0724812152" flag="0"/>
      <psa30 value="0.0037303416" flag="0"/>
    </comp>
  </station>
  <station code="KCTX" name="KCTX" netid="KO" insttype="CMG-3ESP" commtype="DIG" lat="40.2626" lon="28.3353">
    <comp name="--.HHN">
      <acc value="0.0413961561" flag="0"/>
      <vel value="0.0110030009" flag="0"/>
      <psa03 value="0.0670901666" flag="0"/>
      <psa10 value="0.0142395710" flag="0"/>
      <psa30 value="0.0009054630" flag="0"/>
    </comp>
    <comp name="--.HHE">
      <acc value="0.0278637426" flag="0"/>
      <vel value="0.0231794084" flag="0"/>
      <psa03 value="0.0367969576" flag="0"/>
      <psa10 value="0.0353285597" flag="0"/>
      <psa30 value="0.0022490875" flag="0"/>
    </comp>
    <comp name="--.HHZ">
      <acc value="0.0267465758" flag="0"/>
      <vel value="0.0085534315" flag="0"/>
      <psa03 value="0.0291068710" flag="0"/>
      <psa10 value="0.0087818087" flag="0"/>
      <psa30 value="0.0005297394" flag="0"/>
    </comp>
  </station>
  <station code="ORLT" name="ORLT" netid="KO" insttype="CMG-5T" commtype="DIG" lat="40.0452" lon="28.8914">
    <comp name="--.HNN">
      <acc value="0.0836596472" flag="0"/>
      <vel value="0.0296259059" flag="0"/>
      <psa03 value="0.1638225018" flag="0"/>
      <psa10 value="0.0333454403" flag="0"/>
      <psa30 value="0.0016953288" flag="0"/>
    </comp>
    <comp name="--.HNE">
      <acc value="0.0674663402" flag="0"/>
      <vel value="0.0286326829" flag="0"/>
      <psa03 value="0.1364591677" flag="0"/>
      <psa10 value="0.0367384033" flag="0"/>
      <psa30 value="0.0016916892" flag="0"/>
    </comp>
    <comp name="--.HNZ">
      <acc value="0.0311904602" flag="0"/>
      <vel value="0.0151573644" flag="0"/>
      <psa03 value="0.0648061603" flag="0"/>
      <psa10 value="0.0262111226" flag="0"/>
      <psa30 value="0.0014756594" flag="0"/>
    </comp>
  </station>
  <station code="SHAP" name="SHAP" netid="KO" insttype="CMG-5T" commtype="DIG" lat="39.0231" lon="29.222">
    <comp name="--.HNE">
      <acc value="0.3365286693" flag="0"/>
      <vel value="0.0880563614" flag="0"/>
      <psa03 value="0.5896474237" flag="0"/>
      <psa10 value="0.0219880614" flag="0"/>
      <psa30 value="0.0021331568" flag="0"/>
    </comp>
    <comp name="--.HNZ">
      <acc value="0.2265116940" flag="0"/>
      <vel value="0.0490211066" flag="0"/>
      <psa03 value="0.1599705399" flag="0"/>
      <psa10 value="0.0151233527" flag="0"/>
      <psa30 value="0.0011625847" flag="0"/>
    </comp>
    <comp name="--.HNN">
      <acc value="0.2575027725" flag="0"/>
      <vel value="0.0765328133" flag="0"/>
      <psa03 value="0.4406668485" flag="0"/>
      <psa10 value="0.0457826867" flag="0"/>
      <psa30 value="0.0033095775" flag="0"/>
    </comp>
  </station>
  <station code="SIMA" name="SIMA" netid="KO" insttype="CMG-6T" commtype="DIG" lat="39.0833" lon="28.9825">
    <comp name="--.HHN">
      <acc value="0.5514190698" flag="0"/>
      <vel value="0.2278691214" flag="0"/>
      <psa03 value="1.2898642589" flag="0"/>
      <psa10 value="0.0637908944" flag="0"/>
      <psa30 value="0.0048900780" flag="0"/>
    </comp>
    <comp name="--.HHZ">
      <acc value="0.1874335638" flag="0"/>
      <vel value="0.0607693876" flag="0"/>
      <psa03 value="0.3417093179" flag="0"/>
      <psa10 value="0.0187868098" flag="0"/>
      <psa30 value="0.0018179859" flag="0"/>
    </comp>
    <comp name="--.HHE">
      <acc value="0.6156644699" flag="0"/>
      <vel value="0.1958892565" flag="0"/>
      <psa03 value="1.1104751954" flag="0"/>
      <psa10 value="0.0406255318" flag="0"/>
      <psa30 value="0.0043339775" flag="0"/>
    </comp>
  </station>
  <station code="SMAA" name="SMAA" netid="KO" insttype="CMG-5T" commtype="DIG" lat="39.1005" lon="28.9805">
    <comp name="--.HNE">
      <acc value="0.3781760775" flag="0"/>
      <vel value="0.1701878644" flag="0"/>
      <psa03 value="0.9240318040" flag="0"/>
      <psa10 value="0.1316799888" flag="0"/>
      <psa30 value="0.0130063962" flag="0"/>
    </comp>
    <comp name="--.HNN">
      <acc value="0.3739394730" flag="0"/>
      <vel value="0.1564676194" flag="0"/>
      <psa03 value="0.8323866290" flag="0"/>
      <psa10 value="0.1151121673" flag="0"/>
      <psa30 value="0.0118442779" flag="0"/>
    </comp>
    <comp name="--.HNZ">
      <acc value="0.1589610435" flag="0"/>
      <vel value="0.0347838796" flag="0"/>
      <psa03 value="0.1829402729" flag="0"/>
      <psa10 value="0.0529676080" flag="0"/>
      <psa30 value="0.0032000816" flag="0"/>
    </comp>
  </station>
  <station code="SOMA" name="SOMA" netid="KO" insttype="CMG-5T" commtype="DIG" lat="39.1564" lon="27.5341">
    <comp name="--.HNE">
      <acc value="0.0369410635" flag="0"/>
      <vel value="0.0247072145" flag="0"/>
      <psa03 value="0.1315958118" flag="0"/>
      <psa10 value="0.0494962024" flag="0"/>
      <psa30 value="0.0021006895" flag="0"/>
    </comp>
    <comp name="--.HNN">
      <acc value="0.0578916813" flag="0"/>
      <vel value="0.0246052709" flag="0"/>
      <psa03 value="0.1174703364" flag="0"/>
      <psa10 value="0.0378298874" flag="0"/>
      <psa30 value="0.0027104500" flag="0"/>
    </comp>
    <comp name="--.HNZ">
      <acc value="0.0438698489" flag="0"/>
      <vel value="0.0154351048" flag="0"/>
      <psa03 value="0.0647558520" flag="0"/>
      <psa10 value="0.0310052566" flag="0"/>
      <psa30 value="0.0018196991" flag="0"/>
    </comp>
  </station>
  <station code="SUSR" name="SUSR" netid="KO" insttype="CMG-5T" commtype="DIG" lat="39.9627" lon="28.0835">
    <comp name="--.HNE">
      <acc value="0.0395116310" flag="0"/>
      <vel value="0.0127146463" flag="0"/>
      <psa03 value="0.0347946304" flag="0"/>
      <psa10 value="0.0149403830" flag="0"/>
      <psa30 value="0.0013162689" flag="0"/>
    </comp>
    <comp name="--.HNN">
      <acc value="0.0452063213" flag="0"/>
      <vel value="0.0174528542" flag="0"/>
      <psa03 value="0.0803782218" flag="0"/>
      <psa10 value="0.0134495836" flag="0"/>
      <psa30 value="0.0009016659" flag="0"/>
    </comp>
    <comp name="--.HNZ">
      <acc value="0.0392207168" flag="0"/>
      <vel value="0.0117787485" flag="0"/>
      <psa03 value="0.0309184463" flag="0"/>
      <psa10 value="0.0112126228" flag="0"/>
      <psa30 value="0.0006884798" flag="0"/>
    </comp>
  </station>
  <station code="TVSB" name="TVSB" netid="KO" insttype="CMG-3T" commtype="DIG" lat="39.4497" lon="29.4615">
    <comp name="--.HHE">
      <acc value="0.0831263152" flag="0"/>
      <vel value="0.0447682346" flag="0"/>
      <psa03 value="0.2903259073" flag="0"/>
      <psa10 value="0.0166503234" flag="0"/>
      <psa30 value="0.0014570599" flag="0"/>
    </comp>
    <comp name="--.HHN">
      <acc value="0.1059627176" flag="0"/>
      <vel value="0.0346848585" flag="0"/>
      <psa03 value="0.1715426481" flag="0"/>
      <psa10 value="0.0317111303" flag="0"/>
      <psa30 value="0.0019552967" flag="0"/>
    </comp>
    <comp name="--.HHZ">
      <acc value="0.0505094370" flag="0"/>
      <vel value="0.0169148769" flag="0"/>
      <psa03 value="0.0748150201" flag="0"/>
      <psa10 value="0.0087991539" flag="0"/>
      <psa30 value="0.0008888491" flag="0"/>
    </comp>
  </station>
  <station code="YAYO" name="YAYO" netid="KO" insttype="CMG-6T" commtype="DIG" lat="39.6113" lon="27.0726">
    <comp name="--.HHE">
      <acc value="0.0129417569" flag="0"/>
      <vel value="0.0098454539" flag="0"/>
      <psa03 value="0.0343343571" flag="0"/>
      <psa10 value="0.0094704552" flag="0"/>
      <psa30 value="0.0012204658" flag="0"/>
    </comp>
    <comp name="--.HHN">
      <acc value="0.0140376245" flag="0"/>
      <vel value="0.0095084342" flag="0"/>
      <psa03 value="0.0393921644" flag="0"/>
      <psa10 value="0.0102792226" flag="0"/>
      <psa30 value="0.0018333081" flag="0"/>
    </comp>
    <comp name="--.HHZ">
      <acc value="0.0106234803" flag="0"/>
      <vel value="0.0046316799" flag="0"/>
      <psa03 value="0.0231698772" flag="0"/>
      <psa10 value="0.0076330789" flag="0"/>
      <psa30 value="0.0005890883" flag="0"/>
    </comp>
  </station>
  <station code="YENI" name="YENI" netid="KO" insttype="CMG-5T" commtype="DIG" lat="39.9364" lon="27.2422">
    <comp name="--.HNN">
      <acc value="0.0215257167" flag="0"/>
      <vel value="0.0133739967" flag="0"/>
      <psa03 value="0.0337637606" flag="0"/>
      <psa10 value="0.0194513791" flag="0"/>
      <psa30 value="0.0009489902" flag="0"/>
    </comp>
    <comp name="--.HNZ">
      <acc value="0.0134141935" flag="0"/>
      <vel value="0.0064555463" flag="0"/>
      <psa03 value="0.0190621533" flag="0"/>
      <psa10 value="0.0111459318" flag="0"/>
      <psa30 value="0.0010988072" flag="0"/>
    </comp>
    <comp name="--.HNE">
      <acc value="0.0218410765" flag="0"/>
      <vel value="0.0149482397" flag="0"/>
      <psa03 value="0.0401361926" flag="0"/>
      <psa10 value="0.0268217067" flag="0"/>
      <psa30 value="0.0015255074" flag="0"/>
    </comp>
  </station>
</stationlist>
