<?xml version="1.0" encoding="UTF-8" standalone="yes"?>
<!DOCTYPE earthquake SYSTEM "stationlist.dtd">
<stationlist created="" xmlns="ch.ethz.sed.shakemap.usgs.xml">
  <station code="ARPRA" name="ARPRA" netid="KO" insttype="CMG-5T" lat="39.0929" lon="38.3356">
    <comp name="--.HNE">
      <acc value="0.0354986473" flag="0"/>
      <vel value="0.0195524533" flag="0"/>
      <psa03 value="0.1013164130" flag="0"/>
      <psa10 value="0.0105664607" flag="0"/>
      <psa30 value="0.0007032983" flag="0"/>
    </comp>
    <comp name="--.HNN">
      <acc value="0.0352346669" flag="0"/>
      <vel value="0.0169317359" flag="0"/>
      <psa03 value="0.1336272696" flag="0"/>
      <psa10 value="0.0169843452" flag="0"/>
      <psa30 value="0.0011681974" flag="0"/>
    </comp>
    <comp name="--.HNZ">
      <acc value="0.0208168093" flag="0"/>
      <vel value="0.0062617626" flag="0"/>
      <psa03 value="0.0530776035" flag="0"/>
      <psa10 value="0.0079664404" flag="0"/>
      <psa30 value="0.0004466273" flag="0"/>
    </comp>
  </station>
  <station code="DARE" name="DARE" netid="KO" insttype="CMG-3ESP" lat="38.5712" lon="37.4832">
    <comp name="--.HHN">
      <acc value="0.0208546632" flag="0"/>
      <vel value="0.0096893965" flag="0"/>
      <psa03 value="0.0369097506" flag="0"/>
      <psa10 value="0.0115326706" flag="0"/>
      <psa30 value="0.0005323407" flag="0"/>
    </comp>
    <comp name="--.HHE">
      <acc value="0.0137724057" flag="0"/>
      <vel value="0.0091272569" flag="0"/>
      <psa03 value="0.0300384254" flag="0"/>
      <psa10 value="0.0079727172" flag="0"/>
      <psa30 value="0.0005974510" flag="0"/>
    </comp>
  </station>
  <station code="URFA" name="URFA" netid="KO" insttype="CMG-3ESP" lat="37.4409" lon="38.8213">
    <comp name="--.HHZ">
      <acc value="0.0545414573" flag="0"/>
      <vel value="0.0137773928" flag="0"/>
      <psa03 value="0.0656898644" flag="0"/>
      <psa10 value="0.0058581447" flag="0"/>
      <psa30 value="0.0007490870" flag="0"/>
    </comp>
    <comp name="--.HHE">
      <acc value="0.0921908942" flag="0"/>
      <vel value="0.0227703243" flag="0"/>
      <psa03 value="0.1600435246" flag="0"/>
      <psa10 value="0.0107872053" flag="0"/>
      <psa30 value="0.0014844265" flag="0"/>
    </comp>
  </station>
</stationlist>
