<stationlist xmlns:esm="https://esm-db.eu/esmws/shakemap/1/" created="1781920470">
	<station code="ATH5" name="ATH5" netid="HI" source="ITSAK Strong Motion Network" insttype="" lat="37.975421" lon="23.737098" esm:processing="manual (Paolucci et al 2011)" esm:quality="good">
		<comp name="--.HNE" depth="0.0">
			<acc value="0.119529176069687" flag="0"/>
			<vel value="0.0373622616019779" flag="0"/>
			<psa03 value="0.154092159593328" flag="0"/>
			<psa10 value="0.0178870393618527" flag="0"/>
			<psa30 value="0.00160356068519886" flag="0"/>
		</comp>
		<comp name="--.HNN" depth="0.0">
			<acc value="0.103387446638829" flag="0"/>
			<vel value="0.0237978989487672" flag="0"/>
			<psa03 value="0.117493034579582" flag="0"/>
			<psa10 value="0.0287875831602622" flag="0"/>
			<psa30 value="0.0014755979742706" flag="0"/>
		</comp>
		<comp name="--.HNZ" depth="0.0">
			<acc value="0.0549183775321684" flag="0"/>
			<vel value="0.0125624941252395" flag="0"/>
			<psa03 value="0.0534669369088348" flag="0"/>
			<psa10 value="0.0120119402108074" flag="0"/>
			<psa30 value="0.000740036097466215" flag="0"/>
		</comp>
	</station>
	<station code="KLV1" name="KLV1" netid="HI" source="ITSAK Strong Motion Network" insttype="" lat="38.03256" lon="22.10797" esm:processing="manual (Paolucci et al 2011)" esm:quality="best">
		<comp name="--.HNE" depth="0.0">
			<acc value="0.0197189664098233" flag="0"/>
			<vel value="0.00965753243472668" flag="0"/>
			<psa03 value="0.0765091733172447" flag="0"/>
			<psa10 value="0.0104575959528887" flag="0"/>
			<psa30 value="0.000470688013624219" flag="0"/>
		</comp>
		<comp name="--.HNN" depth="0.0">
			<acc value="0.0236731539573322" flag="0"/>
			<vel value="0.0108975464099402" flag="0"/>
			<psa03 value="0.0593281659758284" flag="0"/>
			<psa10 value="0.0134293733164743" flag="0"/>
			<psa30 value="0.000787462836481583" flag="0"/>
		</comp>
		<comp name="--.HNZ" depth="0.0">
			<acc value="0.00931474263747124" flag="0"/>
			<vel value="0.00479438471560076" flag="0"/>
			<psa03 value="0.0206261572510233" flag="0"/>
			<psa10 value="0.00757038135981158" flag="0"/>
			<psa30 value="0.00046263441643293" flag="0"/>
		</comp>
	</station>
	<station code="SKY1" name="SKY1" netid="HI" source="ITSAK Strong Motion Network" insttype="" lat="38.904483" lon="24.564572" esm:processing="manual (Paolucci et al 2011)" esm:quality="good">
		<comp name="--.HNE" depth="0.0">
			<acc value="0.0296244548365925" flag="0"/>
			<vel value="0.0137298473456099" flag="0"/>
			<psa03 value="0.0368228360468377" flag="0"/>
			<psa10 value="0.00923344917981274" flag="0"/>
			<psa30 value="0.00154763292692602" flag="0"/>
		</comp>
		<comp name="--.HNN" depth="0.0">
			<acc value="0.024351770591155" flag="0"/>
			<vel value="0.0164965092059558" flag="0"/>
			<psa03 value="0.0563751803390224" flag="0"/>
			<psa10 value="0.00862540259187043" flag="0"/>
			<psa30 value="0.00109170984148583" flag="0"/>
		</comp>
		<comp name="--.HNZ" depth="0.0">
			<acc value="0.0178636564424809" flag="0"/>
			<vel value="0.0106190311769444" flag="0"/>
			<psa03 value="0.0334671705504673" flag="0"/>
			<psa10 value="0.00736904143002936" flag="0"/>
			<psa30 value="0.000643392931170748" flag="0"/>
		</comp>
	</station>
	<station code="VOL2" name="VOL2" netid="HI" source="ITSAK Strong Motion Network" insttype="" lat="39.366" lon="22.9506" esm:processing="manual (Paolucci et al 2011)" esm:quality="good">
		<comp name="--.HNE" depth="0.0">
			<acc value="0.0351540443147311" flag="0"/>
			<vel value="0.0236881400622253" flag="0"/>
			<psa03 value="0.105591607619121" flag="0"/>
			<psa10 value="0.0131313902203966" flag="0"/>
			<psa30 value="0.00117090354720017" flag="0"/>
		</comp>
		<comp name="--.HNN" depth="0.0">
			<acc value="0.0326104131920048" flag="0"/>
			<vel value="0.0141881727902254" flag="0"/>
			<psa03 value="0.0900660619225811" flag="0"/>
			<psa10 value="0.00878244773710056" flag="0"/>
			<psa30 value="0.000561962115125493" flag="0"/>
		</comp>
		<comp name="--.HNZ" depth="0.0">
			<acc value="0.0106086216749679" flag="0"/>
			<vel value="0.00522801150998241" flag="0"/>
			<psa03 value="0.0448316910315083" flag="0"/>
			<psa10 value="0.00305634013409414" flag="0"/>
			<psa30 value="0.000314090290460268" flag="0"/>
		</comp>
	</station>
	<station code="DLFA" name="DLFA" netid="HL" source="National Observatory of Athens Seismic Network" insttype="" lat="38.47836" lon="22.49583" esm:processing="manual (Paolucci et al 2011)" esm:quality="good">
		<comp name="00.HNE" depth="0.0">
			<acc value="0.0256060786449629" flag="0"/>
			<vel value="0.00957582152831216" flag="0"/>
			<psa03 value="0.0691714514318481" flag="0"/>
			<psa10 value="0.00822272273230598" flag="0"/>
			<psa30 value="0.000547197186941463" flag="0"/>
		</comp>
		<comp name="00.HNN" depth="0.0">
			<acc value="0.026526701660336" flag="0"/>
			<vel value="0.00999584492706307" flag="0"/>
			<psa03 value="0.0582990952236081" flag="0"/>
			<psa10 value="0.0100227017045591" flag="0"/>
			<psa30 value="0.000915872969476023" flag="0"/>
		</comp>
		<comp name="00.HNZ" depth="0.0">
			<acc value="0.0254651968355809" flag="0"/>
			<vel value="0.00865141086263616" flag="0"/>
			<psa03 value="0.0432657137998688" flag="0"/>
			<psa10 value="0.00705897793816473" flag="0"/>
			<psa30 value="0.000701110377708318" flag="0"/>
		</comp>
	</station>
	<station code="NOAC" name="NOAC" netid="HL" source="National Observatory of Athens Seismic Network" insttype="" lat="37.97384" lon="23.71767" esm:processing="manual (Paolucci et al 2011)" esm:quality="good">
		<comp name="00.HNE" depth="0.0">
			<acc value="0.114963866375992" flag="0"/>
			<vel value="0.0318386534479518" flag="0"/>
			<psa03 value="0.229482777745116" flag="0"/>
			<psa10 value="0.0193648744464542" flag="0"/>
			<psa30 value="0.00148365157146189" flag="0"/>
		</comp>
		<comp name="00.HNN" depth="0.0">
			<acc value="0.0643553765813154" flag="0"/>
			<vel value="0.0173697873673063" flag="0"/>
			<psa03 value="0.10693387381767" flag="0"/>
			<psa10 value="0.0241527379766755" flag="0"/>
			<psa30 value="0.00200579312269712" flag="0"/>
		</comp>
		<comp name="00.HNZ" depth="0.0">
			<acc value="0.0592337797322463" flag="0"/>
			<vel value="0.0226415146404746" flag="0"/>
			<psa03 value="0.0655920749023864" flag="0"/>
			<psa10 value="0.020782307552121" flag="0"/>
			<psa30 value="0.00106978616024288" flag="0"/>
		</comp>
	</station>
	<station code="ANX" name="ANX" netid="HP" source="University of Patras, Seismological Laboratory (PSLNET)" insttype="" lat="38.5933" lon="21.9209" esm:processing="automatic (Paolucci et al 2011)" esm:quality="best">
		<comp name="--.HNE" depth="0.0">
			<acc value="0.0147479097090844" flag="0"/>
			<vel value="0.00926722746713723" flag="0"/>
			<psa03 value="0.0260847064584524" flag="0"/>
			<psa10 value="0.0173555019472276" flag="0"/>
			<psa30 value="0.00103309755081589" flag="0"/>
		</comp>
		<comp name="--.HNN" depth="0.0">
			<acc value="0.0142945688165164" flag="0"/>
			<vel value="0.00983015629969102" flag="0"/>
			<psa03 value="0.0886343113107964" flag="0"/>
			<psa10 value="0.0120320742037856" flag="0"/>
			<psa30 value="0.000527063193963241" flag="0"/>
		</comp>
		<comp name="--.HNZ" depth="0.0">
			<acc value="0.00677423692456996" flag="0"/>
			<vel value="0.00736280202527063" flag="0"/>
			<psa03 value="0.0255477999790332" flag="0"/>
			<psa10 value="0.011540804775117" flag="0"/>
			<psa30 value="0.000556593050331301" flag="0"/>
		</comp>
	</station>
	<station code="SERG" name="SERG" netid="HP" source="University of Patras, Seismological Laboratory (PSLNET)" insttype="" lat="38.4133" lon="22.0566" esm:processing="manual (Paolucci et al 2011)" esm:quality="good">
		<comp name="--.HNE" depth="0.0">
			<acc value="0.0149732029747476" flag="0"/>
			<vel value="0.00806951688945592" flag="0"/>
			<psa03 value="0.0374044847328752" flag="0"/>
			<psa10 value="0.00580261677632366" flag="0"/>
			<psa30 value="0.000419681898079389" flag="0"/>
		</comp>
		<comp name="--.HNN" depth="0.0">
			<acc value="0.0128373854650829" flag="0"/>
			<vel value="0.00755174597353946" flag="0"/>
			<psa03 value="0.0340935614431231" flag="0"/>
			<psa10 value="0.00453417521869566" flag="0"/>
			<psa30 value="0.000344514990960692" flag="0"/>
		</comp>
		<comp name="--.HNZ" depth="0.0">
			<acc value="0.00951357229742093" flag="0"/>
			<vel value="0.00496036887464731" flag="0"/>
			<psa03 value="0.0310510913930806" flag="0"/>
			<psa10 value="0.00419189733806588" flag="0"/>
			<psa30 value="0.000383888132784772" flag="0"/>
		</comp>
	</station>
</stationlist>
