<?xml version="1.0" encoding="UTF-8" standalone="yes"?>
<!DOCTYPE earthquake SYSTEM "stationlist.dtd">
<stationlist created="" xmlns="ch.ethz.sed.shakemap.usgs.xml">
  <station code="AXAR" name="AXAR" netid="HA" source="NOA" insttype="30" lat="38.7664" lon="22.659">
    <comp name="--.HHE">
      <acc value="0.1073244406" flag="0"/>
      <vel value="0.0509464438" flag="0"/>
      <psa03 value="0.2889756962" flag="0"/>
      <psa10 value="0.0532237795" flag="0"/>
      <psa30 value="0.0026196381" flag="0"/>
    </comp>
    <comp name="--.HHN">
      <acc value="0.0860488619" flag="0"/>
      <vel value="0.0412406795" flag="0"/>
      <psa03 value="0.2436181444" flag="0"/>
      <psa10 value="0.0464112752" flag="0"/>
      <psa30 value="0.0027406694" flag="0"/>
    </comp>
    <comp name="--.HHZ">
      <acc value="0.0566439634" flag="0"/>
      <vel value="0.0269431488" flag="0"/>
      <psa03 value="0.1756324541" flag="0"/>
      <psa10 value="0.0221098049" flag="0"/>
      <psa30 value="0.0011792538" flag="0"/>
    </comp>
  </station>
  <station code="MAGU" name="MAGU" netid="HA" source="NOA" insttype="30" lat="38.0788" lon="23.5134">
    <comp name="--.HHE">
      <acc value="1.1809658877" flag="0"/>
      <vel value="0.2404886372" flag="0"/>
      <psa03 value="0.5498074211" flag="0"/>
      <psa10 value="0.0719529503" flag="0"/>
      <psa30 value="0.0073803233" flag="0"/>
    </comp>
    <comp name="--.HHN">
      <acc value="0.4514783570" flag="0"/>
      <vel value="0.1185344871" flag="0"/>
      <psa03 value="0.3634276559" flag="0"/>
      <psa10 value="0.0408034777" flag="0"/>
      <psa30 value="0.0042996469" flag="0"/>
    </comp>
    <comp name="--.HHZ">
      <acc value="0.5759437336" flag="0"/>
      <vel value="0.1136231454" flag="0"/>
      <psa03 value="0.2640585312" flag="0"/>
      <psa10 value="0.0463121375" flag="0"/>
      <psa30 value="0.0038003212" flag="0"/>
    </comp>
  </station>
  <station code="STFN" name="STFN" netid="HA" source="NOA" insttype="1s-100Hz," lat="38.1766" lon="23.544">
    <comp name="--.HHE">
      <acc value="0.8095879681" flag="0"/>
      <vel value="0.1700843682" flag="0"/>
      <psa03 value="0.4139656482" flag="0"/>
      <psa10 value="0.0631779911" flag="0"/>
      <psa30 value="0.0043517462" flag="0"/>
    </comp>
    <comp name="--.HHN">
      <acc value="0.6043573335" flag="0"/>
      <vel value="0.1641085142" flag="0"/>
      <psa03 value="0.5074800494" flag="0"/>
      <psa10 value="0.1039531444" flag="0"/>
      <psa30 value="0.0050431264" flag="0"/>
    </comp>
    <comp name="--.HHZ">
      <acc value="0.6129686628" flag="0"/>
      <vel value="0.1015966822" flag="0"/>
      <psa03 value="0.2377617497" flag="0"/>
      <psa10 value="0.0658106407" flag="0"/>
      <psa30 value="0.0038700911" flag="0"/>
    </comp>
  </station>
  <station code="VILL" name="VILL" netid="HA" source="NOA" insttype="30" lat="38.1642" lon="23.3122">
    <comp name="--.HHE">
      <acc value="1.8029969143" flag="0"/>
      <vel value="0.5760909468" flag="0"/>
      <psa03 value="2.9868774451" flag="0"/>
      <psa10 value="0.2348479176" flag="0"/>
      <psa30 value="0.0170916792" flag="0"/>
    </comp>
    <comp name="--.HHN">
      <acc value="3.4913615954" flag="0"/>
      <vel value="1.1027012096" flag="0"/>
      <psa03 value="3.9430427512" flag="0"/>
      <psa10 value="0.5350813036" flag="0"/>
      <psa30 value="0.0525714073" flag="0"/>
    </comp>
    <comp name="--.HHZ">
      <acc value="1.0736770153" flag="0"/>
      <vel value="0.2841904392" flag="0"/>
      <psa03 value="2.1265593972" flag="0"/>
      <psa10 value="0.2194068230" flag="0"/>
      <psa30 value="0.0178168813" flag="0"/>
    </comp>
  </station>
  <station code="NEO" name="NEO" netid="HL" source="NOA" insttype="120" lat="39.3057" lon="23.2219">
    <comp name="--.HHE">
      <acc value="0.0442927827" flag="0"/>
      <vel value="0.0160303667" flag="0"/>
      <psa03 value="0.0941900165" flag="0"/>
      <psa10 value="0.0107421755" flag="0"/>
      <psa30 value="0.0007888099" flag="0"/>
    </comp>
    <comp name="--.HHN">
      <acc value="0.0319061196" flag="0"/>
      <vel value="0.0179566658" flag="0"/>
      <psa03 value="0.1327281458" flag="0"/>
      <psa10 value="0.0135302891" flag="0"/>
      <psa30 value="0.0007240269" flag="0"/>
    </comp>
    <comp name="--.HHZ">
      <acc value="0.0234108324" flag="0"/>
      <vel value="0.0103911985" flag="0"/>
      <psa03 value="0.0627872331" flag="0"/>
      <psa10 value="0.0108373304" flag="0"/>
      <psa30 value="0.0006591705" flag="0"/>
    </comp>
  </station>
</stationlist>
