<stationlist created="1778069546">
	<station code="IMMV" name="IMMV" netid="GE" source="GEOFON" insttype="" lat="35.4606" lon="23.9811">
		<comp name="--.HNE" depth="0.0">
			<acc value="0.000758088286979134" flag="0"/>
			<vel value="0.000774953123909673" flag="0"/>
			<psa03 value="0.00147649281840297" flag="0"/>
			<psa10 value="0.00213017645709592" flag="0"/>
			<psa30 value="0.000156597723163951" flag="0"/>
		</comp>
		<comp name="--.HNN" depth="0.0">
			<acc value="0.000539964451734734" flag="0"/>
			<vel value="0.000649054874635537" flag="0"/>
			<psa03 value="0.00152123502502124" flag="0"/>
			<psa10 value="0.000958378065763381" flag="0"/>
			<psa30 value="0.000241160493672485" flag="0"/>
		</comp>
		<comp name="--.HNZ" depth="0.0">
			<acc value="0.000396612682813059" flag="0"/>
			<vel value="0.000410465951356024" flag="0"/>
			<psa03 value="0.00120803957869334" flag="0"/>
			<psa10 value="0.000732877344407291" flag="0"/>
			<psa30 value="0.000114987471008958" flag="0"/>
		</comp>
	</station>
	<station code="KARP" name="KARP" netid="GE" source="GEOFON" insttype="" lat="35.5471" lon="27.16106">
		<comp name="--.HNE" depth="0.0">
			<acc value="0.0104183968876038" flag="0"/>
			<vel value="0.000793067484351958" flag="0"/>
			<psa03 value="0.00076061751251062" flag="0"/>
			<psa10 value="0.000700662955642136" flag="0"/>
			<psa30 value="0.000291271765084949" flag="0"/>
		</comp>
		<comp name="--.HNN" depth="0.0">
			<acc value="0.014754275578547" flag="0"/>
			<vel value="0.000998983192780239" flag="0"/>
			<psa03 value="0.000626390892655805" flag="0"/>
			<psa10 value="0.000990592454528537" flag="0"/>
			<psa30 value="0.000207156416642598" flag="0"/>
		</comp>
		<comp name="--.HNZ" depth="0.0">
			<acc value="0.00262940962315511" flag="0"/>
			<vel value="0.000336620735724933" flag="0"/>
			<psa03 value="0.000492164272800989" flag="0"/>
			<psa10 value="0.000503349824455557" flag="0"/>
			<psa30 value="0.000208946104907329" flag="0"/>
		</comp>
	</station>
</stationlist>
