<?xml version="1.0" encoding="UTF-8" standalone="yes"?>
<!DOCTYPE earthquake SYSTEM "stationlist.dtd">
<stationlist created="" xmlns="ch.ethz.sed.shakemap.usgs.xml">
  <station code="MHPPL" name="MHPPL" netid="K3" insttype="Trillium Compact 120 (Vault, Posthole, OBS)" commtype="DIG" lat="36.2874" lon="15.9715">
    <comp name="--.HH1">
      <acc value="0.1338746623" flag="0"/>
      <vel value="0.0668474746" flag="0"/>
      <psa03 value="0.6594162436" flag="0"/>
      <psa10 value="0.0560307848" flag="0"/>
      <psa30 value="0.0100859127" flag="0"/>
    </comp>
    <comp name="--.HHZ">
      <acc value="0.0153471426" flag="0"/>
      <vel value="0.0156673793" flag="0"/>
      <psa03 value="0.0328547778" flag="0"/>
      <psa10 value="0.0297091979" flag="0"/>
      <psa30 value="0.0035860154" flag="0"/>
    </comp>
  </station>
  <station code="WDD" name="WDD" netid="MN" insttype="" commtype="DIG" lat="35.8373" lon="14.5242">
    <comp name="--.HHE">
      <acc value="0.0201035584" flag="0"/>
      <vel value="0.0128394958" flag="0"/>
      <psa03 value="0.0454340523" flag="0"/>
      <psa10 value="0.0104084892" flag="0"/>
      <psa30 value="0.0049389131" flag="0"/>
    </comp>
    <comp name="--.HHN">
      <acc value="0.0173648276" flag="0"/>
      <vel value="0.0175125720" flag="0"/>
      <psa03 value="0.0631232564" flag="0"/>
      <psa10 value="0.0134727941" flag="0"/>
      <psa30 value="0.0054208674" flag="0"/>
    </comp>
    <comp name="--.HHZ">
      <acc value="0.0105019693" flag="0"/>
      <vel value="0.0045369173" flag="0"/>
      <psa03 value="0.0260131570" flag="0"/>
      <psa10 value="0.0032575792" flag="0"/>
      <psa30 value="0.0010142684" flag="0"/>
    </comp>
  </station>
</stationlist>
