<?xml version="1.0" encoding="UTF-8" standalone="yes"?>
<!DOCTYPE earthquake SYSTEM "stationlist.dtd">
<stationlist created="" xmlns="ch.ethz.sed.shakemap.usgs.xml">
  <station code="CANO" name="CANO" netid="GU" insttype="" lat="44.2075" lon="8.2372">
    <comp name="--.HHE">
      <acc value="0.0236495139" flag="0"/>
      <vel value="0.0206551683" flag="0"/>
      <psa03 value="0.1118999774" flag="0"/>
      <psa10 value="0.0305296829" flag="0"/>
      <psa30 value="0.0014618261" flag="0"/>
    </comp>
    <comp name="--.HHN">
      <acc value="0.0434780064" flag="0"/>
      <vel value="0.0237309959" flag="0"/>
      <psa03 value="0.1809534361" flag="0"/>
      <psa10 value="0.0070286965" flag="0"/>
      <psa30 value="0.0010564766" flag="0"/>
    </comp>
    <comp name="--.HHZ">
      <acc value="0.0186416729" flag="0"/>
      <vel value="0.0113014599" flag="0"/>
      <psa03 value="0.0801123452" flag="0"/>
      <psa10 value="0.0210911353" flag="0"/>
      <psa30 value="0.0011221793" flag="0"/>
    </comp>
  </station>
  <station code="CARD" name="CARD" netid="GU" insttype="" lat="44.026" lon="10.4821">
    <comp name="--.HHE">
      <acc value="0.0294423651" flag="0"/>
      <vel value="0.0104572561" flag="0"/>
      <psa03 value="0.0341322212" flag="0"/>
      <psa10 value="0.0121907388" flag="0"/>
      <psa30 value="0.0008975551" flag="0"/>
    </comp>
    <comp name="--.HHN">
      <acc value="0.0303303960" flag="0"/>
      <vel value="0.0091701073" flag="0"/>
      <psa03 value="0.0411108868" flag="0"/>
      <psa10 value="0.0145787316" flag="0"/>
      <psa30 value="0.0008574460" flag="0"/>
    </comp>
    <comp name="--.HHZ">
      <acc value="0.0119600564" flag="0"/>
      <vel value="0.0047147702" flag="0"/>
      <psa03 value="0.0254507087" flag="0"/>
      <psa10 value="0.0049899484" flag="0"/>
      <psa30 value="0.0005984826" flag="0"/>
    </comp>
  </station>
  <station code="EQUI" name="EQUI" netid="GU" insttype="" lat="44.166" lon="10.153">
    <comp name="--.HHE">
      <acc value="0.0108377460" flag="0"/>
      <vel value="0.0042111885" flag="0"/>
      <psa03 value="0.0115848429" flag="0"/>
      <psa10 value="0.0050813148" flag="0"/>
      <psa30 value="0.0011435920" flag="0"/>
    </comp>
    <comp name="--.HHN">
      <acc value="0.0065334943" flag="0"/>
      <vel value="0.0020353220" flag="0"/>
      <psa03 value="0.0100516321" flag="0"/>
      <psa10 value="0.0031208548" flag="0"/>
      <psa30 value="0.0003506961" flag="0"/>
    </comp>
    <comp name="--.HHZ">
      <acc value="0.0098813482" flag="0"/>
      <vel value="0.0036042294" flag="0"/>
      <psa03 value="0.0110740301" flag="0"/>
      <psa10 value="0.0056701590" flag="0"/>
      <psa30 value="0.0008895079" flag="0"/>
    </comp>
  </station>
  <station code="GORR" name="GORR" netid="GU" insttype="" lat="44.6071" lon="9.2926">
    <comp name="--.HHE">
      <acc value="0.7843112384" flag="0"/>
      <vel value="0.3441392377" flag="0"/>
      <psa03 value="1.3746481653" flag="0"/>
      <psa10 value="0.2474241783" flag="0"/>
      <psa30 value="0.0158378262" flag="0"/>
    </comp>
    <comp name="--.HHN">
      <acc value="1.0508909084" flag="0"/>
      <vel value="0.3594943932" flag="0"/>
      <psa03 value="1.3335349767" flag="0"/>
      <psa10 value="0.2078170172" flag="0"/>
      <psa30 value="0.0134823738" flag="0"/>
    </comp>
    <comp name="--.HHZ">
      <acc value="0.7878167706" flag="0"/>
      <vel value="0.2604915551" flag="0"/>
      <psa03 value="0.8243746030" flag="0"/>
      <psa10 value="0.2020942584" flag="0"/>
      <psa30 value="0.0128622454" flag="0"/>
    </comp>
  </station>
  <station code="GRAM" name="GRAM" netid="GU" insttype="" lat="44.4913" lon="10.0658">
    <comp name="--.HHE">
      <acc value="0.0795527899" flag="0"/>
      <vel value="0.0211244005" flag="0"/>
      <psa03 value="0.1359109887" flag="0"/>
      <psa10 value="0.0182619189" flag="0"/>
      <psa30 value="0.0019275774" flag="0"/>
    </comp>
    <comp name="--.HHN">
      <acc value="0.0556209749" flag="0"/>
      <vel value="0.0209505092" flag="0"/>
      <psa03 value="0.1687212893" flag="0"/>
      <psa10 value="0.0153686144" flag="0"/>
      <psa30 value="0.0021821423" flag="0"/>
    </comp>
    <comp name="--.HHZ">
      <acc value="0.0491998346" flag="0"/>
      <vel value="0.0119550131" flag="0"/>
      <psa03 value="0.0654088196" flag="0"/>
      <psa10 value="0.0115405450" flag="0"/>
      <psa30 value="0.0022185487" flag="0"/>
    </comp>
  </station>
  <station code="GSCL" name="GSCL" netid="GU" insttype="" lat="44.3505" lon="10.5881">
    <comp name="--.HHE">
      <acc value="0.0055699949" flag="0"/>
      <vel value="0.0043979554" flag="0"/>
      <psa03 value="0.0231621875" flag="0"/>
      <psa10 value="0.0076479185" flag="0"/>
      <psa30 value="0.0005977123" flag="0"/>
    </comp>
    <comp name="--.HHN">
      <acc value="0.0051398211" flag="0"/>
      <vel value="0.0051028197" flag="0"/>
      <psa03 value="0.0127176803" flag="0"/>
      <psa10 value="0.0087043215" flag="0"/>
      <psa30 value="0.0005040895" flag="0"/>
    </comp>
    <comp name="--.HHZ">
      <acc value="0.0030417077" flag="0"/>
      <vel value="0.0027344313" flag="0"/>
      <psa03 value="0.0078975313" flag="0"/>
      <psa10 value="0.0042297285" flag="0"/>
      <psa30 value="0.0003343752" flag="0"/>
    </comp>
  </station>
  <station code="MAIM" name="MAIM" netid="GU" insttype="" lat="43.9142" lon="10.4915">
    <comp name="--.HHE">
      <acc value="0.0040947230" flag="0"/>
      <vel value="0.0029211378" flag="0"/>
      <psa03 value="0.0103635100" flag="0"/>
      <psa10 value="0.0045860519" flag="0"/>
      <psa30 value="0.0004077060" flag="0"/>
    </comp>
    <comp name="--.HHN">
      <acc value="0.0066865041" flag="0"/>
      <vel value="0.0047444026" flag="0"/>
      <psa03 value="0.0186102222" flag="0"/>
      <psa10 value="0.0062271689" flag="0"/>
      <psa30 value="0.0005562983" flag="0"/>
    </comp>
    <comp name="--.HHZ">
      <acc value="0.0076873400" flag="0"/>
      <vel value="0.0050444060" flag="0"/>
      <psa03 value="0.0195300535" flag="0"/>
      <psa10 value="0.0067796265" flag="0"/>
      <psa30 value="0.0006585983" flag="0"/>
    </comp>
  </station>
  <station code="PCP" name="PCP" netid="GU" insttype="" lat="44.5413" lon="8.54517">
    <comp name="--.HHE">
      <acc value="0.0189331991" flag="0"/>
      <vel value="0.0114545413" flag="0"/>
      <psa03 value="0.0436073240" flag="0"/>
      <psa10 value="0.0118272054" flag="0"/>
      <psa30 value="0.0010414301" flag="0"/>
    </comp>
    <comp name="--.HHN">
      <acc value="0.0148665789" flag="0"/>
      <vel value="0.0075356026" flag="0"/>
      <psa03 value="0.0382148701" flag="0"/>
      <psa10 value="0.0065341958" flag="0"/>
      <psa30 value="0.0017186471" flag="0"/>
    </comp>
    <comp name="--.HHZ">
      <acc value="0.0180383653" flag="0"/>
      <vel value="0.0094466087" flag="0"/>
      <psa03 value="0.0487433368" flag="0"/>
      <psa10 value="0.0083151887" flag="0"/>
      <psa30 value="0.0009548537" flag="0"/>
    </comp>
  </station>
  <station code="RNCA" name="RNCA" netid="GU" insttype="" lat="44.4712" lon="8.9512">
    <comp name="--.HHE">
      <acc value="0.0666427194" flag="0"/>
      <vel value="0.0173859565" flag="0"/>
      <psa03 value="0.1079708367" flag="0"/>
      <psa10 value="0.0166323755" flag="0"/>
      <psa30 value="0.0021775306" flag="0"/>
    </comp>
    <comp name="--.HHN">
      <acc value="0.0408977080" flag="0"/>
      <vel value="0.0146582472" flag="0"/>
      <psa03 value="0.0643971727" flag="0"/>
      <psa10 value="0.0136124295" flag="0"/>
      <psa30 value="0.0018209124" flag="0"/>
    </comp>
    <comp name="--.HHZ">
      <acc value="0.0371334653" flag="0"/>
      <vel value="0.0132731328" flag="0"/>
      <psa03 value="0.0706138828" flag="0"/>
      <psa10 value="0.0191586945" flag="0"/>
      <psa30 value="0.0017424573" flag="0"/>
    </comp>
  </station>
  <station code="RORO" name="RORO" netid="GU" insttype="" lat="44.1122" lon="8.06617">
    <comp name="--.HHE">
      <acc value="0.0133224020" flag="0"/>
      <vel value="0.0047500184" flag="0"/>
      <psa03 value="0.0291967380" flag="0"/>
      <psa10 value="0.0048261332" flag="0"/>
      <psa30 value="0.0003880536" flag="0"/>
    </comp>
    <comp name="--.HHN">
      <acc value="0.0125136079" flag="0"/>
      <vel value="0.0043744999" flag="0"/>
      <psa03 value="0.0200195579" flag="0"/>
      <psa10 value="0.0049386173" flag="0"/>
      <psa30 value="0.0003989670" flag="0"/>
    </comp>
    <comp name="--.HHZ">
      <acc value="0.0087853251" flag="0"/>
      <vel value="0.0038902190" flag="0"/>
      <psa03 value="0.0202271035" flag="0"/>
      <psa10 value="0.0039947021" flag="0"/>
      <psa30 value="0.0006057170" flag="0"/>
    </comp>
  </station>
  <station code="BDI" name="BDI" netid="IV" insttype="" lat="44.0624" lon="10.597">
    <comp name="--.HHE">
      <acc value="0.0218319000" flag="0"/>
      <vel value="0.0086135914" flag="0"/>
      <psa03 value="0.0709374772" flag="0"/>
      <psa10 value="0.0088628257" flag="0"/>
      <psa30 value="0.0005168420" flag="0"/>
    </comp>
    <comp name="--.HHN">
      <acc value="0.0151136831" flag="0"/>
      <vel value="0.0094662738" flag="0"/>
      <psa03 value="0.0511642270" flag="0"/>
      <psa10 value="0.0118798754" flag="0"/>
      <psa30 value="0.0007028193" flag="0"/>
    </comp>
    <comp name="--.HHZ">
      <acc value="0.0097032119" flag="0"/>
      <vel value="0.0043052344" flag="0"/>
      <psa03 value="0.0336369258" flag="0"/>
      <psa10 value="0.0044288952" flag="0"/>
      <psa30 value="0.0005797474" flag="0"/>
    </comp>
  </station>
  <station code="BOB" name="BOB" netid="IV" insttype="" lat="44.7679" lon="9.44782">
    <comp name="--.HNE">
      <acc value="1.5622754356" flag="0"/>
      <vel value="0.4101870939" flag="0"/>
      <psa03 value="1.3534132438" flag="0"/>
      <psa10 value="0.3969985473" flag="0"/>
      <psa30 value="0.0241177592" flag="0"/>
    </comp>
    <comp name="--.HNN">
      <acc value="1.6655621104" flag="0"/>
      <vel value="0.8160855870" flag="0"/>
      <psa03 value="1.8773865357" flag="0"/>
      <psa10 value="1.0750735126" flag="0"/>
      <psa30 value="0.0459758199" flag="0"/>
    </comp>
    <comp name="--.HNZ">
      <acc value="0.9967331976" flag="0"/>
      <vel value="0.5053056911" flag="0"/>
      <psa03 value="1.1632121154" flag="0"/>
      <psa10 value="0.6319784041" flag="0"/>
      <psa30 value="0.0481054770" flag="0"/>
    </comp>
  </station>
  <station code="CTL8" name="CTL8" netid="IV" insttype="" lat="45.2763" lon="9.7622">
    <comp name="--.HNE">
      <acc value="0.0688478394" flag="0"/>
      <vel value="0.1159439531" flag="0"/>
      <psa03 value="0.1150687107" flag="0"/>
      <psa10 value="0.1266188691" flag="0"/>
      <psa30 value="0.0576890661" flag="0"/>
    </comp>
    <comp name="--.HNN">
      <acc value="0.0560647093" flag="0"/>
      <vel value="0.0405373135" flag="0"/>
      <psa03 value="0.1479239408" flag="0"/>
      <psa10 value="0.0509188800" flag="0"/>
      <psa30 value="0.0068759266" flag="0"/>
    </comp>
    <comp name="--.HNZ">
      <acc value="0.0196102761" flag="0"/>
      <vel value="0.0123770628" flag="0"/>
      <psa03 value="0.0515037818" flag="0"/>
      <psa10 value="0.0176423881" flag="0"/>
      <psa30 value="0.0033693312" flag="0"/>
    </comp>
  </station>
  <station code="EUCT" name="EUCT" netid="IV" insttype="" lat="45.2026" lon="9.1349">
    <comp name="--.HNE">
      <acc value="0.1262816018" flag="0"/>
      <vel value="0.0593078610" flag="0"/>
      <psa03 value="0.3404275954" flag="0"/>
      <psa10 value="0.0512222491" flag="0"/>
      <psa30 value="0.0053071864" flag="0"/>
    </comp>
    <comp name="--.HNN">
      <acc value="0.0821429764" flag="0"/>
      <vel value="0.0592638918" flag="0"/>
      <psa03 value="0.2212674654" flag="0"/>
      <psa10 value="0.0586614487" flag="0"/>
      <psa30 value="0.0049789606" flag="0"/>
    </comp>
    <comp name="--.HNZ">
      <acc value="0.0683633960" flag="0"/>
      <vel value="0.0165874357" flag="0"/>
      <psa03 value="0.1036956180" flag="0"/>
      <psa10 value="0.0169891599" flag="0"/>
      <psa30 value="0.0080738181" flag="0"/>
    </comp>
  </station>
  <station code="MERA" name="MERA" netid="IV" insttype="" lat="45.7054" lon="9.4291">
    <comp name="--.HNE">
      <acc value="0.0439360507" flag="0"/>
      <vel value="0.0299389065" flag="0"/>
      <psa03 value="0.1049172662" flag="0"/>
      <psa10 value="0.0184641307" flag="0"/>
      <psa30 value="0.0011759104" flag="0"/>
    </comp>
    <comp name="--.HNN">
      <acc value="0.0381239386" flag="0"/>
      <vel value="0.0263304490" flag="0"/>
      <psa03 value="0.1331218948" flag="0"/>
      <psa10 value="0.0149653001" flag="0"/>
      <psa30 value="0.0013307777" flag="0"/>
    </comp>
    <comp name="--.HNZ">
      <acc value="0.0166516997" flag="0"/>
      <vel value="0.0083929982" flag="0"/>
      <psa03 value="0.0521440689" flag="0"/>
      <psa10 value="0.0046393419" flag="0"/>
      <psa30 value="0.0004004923" flag="0"/>
    </comp>
  </station>
  <station code="MILN" name="MILN" netid="IV" insttype="" lat="45.4803" lon="9.2321">
    <comp name="--.HHE">
      <acc value="0.0543891374" flag="0"/>
      <vel value="0.0314656237" flag="0"/>
      <psa03 value="0.1097879791" flag="0"/>
      <psa10 value="0.0326882002" flag="0"/>
      <psa30 value="0.0036267203" flag="0"/>
    </comp>
    <comp name="--.HHN">
      <acc value="0.0708636313" flag="0"/>
      <vel value="0.0438069960" flag="0"/>
      <psa03 value="0.2037976608" flag="0"/>
      <psa10 value="0.0452201243" flag="0"/>
      <psa30 value="0.0028513318" flag="0"/>
    </comp>
    <comp name="--.HHZ">
      <acc value="0.0076828481" flag="0"/>
      <vel value="0.0025238523" flag="0"/>
      <psa03 value="0.0169808119" flag="0"/>
      <psa10 value="0.0026659312" flag="0"/>
      <psa30 value="0.0002605791" flag="0"/>
    </comp>
  </station>
  <station code="ORZI" name="ORZI" netid="IV" insttype="" lat="45.4056" lon="9.9307">
    <comp name="--.HHE">
      <acc value="0.0199241709" flag="0"/>
      <vel value="0.0123189003" flag="0"/>
      <psa03 value="0.0675580617" flag="0"/>
      <psa10 value="0.0221184397" flag="0"/>
      <psa30 value="0.0034702204" flag="0"/>
    </comp>
    <comp name="--.HHN">
      <acc value="0.0181244444" flag="0"/>
      <vel value="0.0142938806" flag="0"/>
      <psa03 value="0.0680311249" flag="0"/>
      <psa10 value="0.0238958419" flag="0"/>
      <psa30 value="0.0040477045" flag="0"/>
    </comp>
    <comp name="--.HHZ">
      <acc value="0.0108193460" flag="0"/>
      <vel value="0.0078484393" flag="0"/>
      <psa03 value="0.0282909783" flag="0"/>
      <psa10 value="0.0090487832" flag="0"/>
      <psa30 value="0.0010661775" flag="0"/>
    </comp>
  </station>
  <station code="PCN" name="PCN" netid="IV" insttype="" lat="45.0353" lon="9.7247">
    <comp name="--.HNE">
      <acc value="0.0520423534" flag="0"/>
      <vel value="0.0273115032" flag="0"/>
      <psa03 value="0.1388010237" flag="0"/>
      <psa10 value="0.0286467763" flag="0"/>
      <psa30 value="0.0039029463" flag="0"/>
    </comp>
    <comp name="--.HNN">
      <acc value="0.0592344400" flag="0"/>
      <vel value="0.0468658182" flag="0"/>
      <psa03 value="0.1408499608" flag="0"/>
      <psa10 value="0.0643486677" flag="0"/>
      <psa30 value="0.0054524247" flag="0"/>
    </comp>
    <comp name="--.HNZ">
      <acc value="0.1218490072" flag="0"/>
      <vel value="0.0562256371" flag="0"/>
      <psa03 value="0.1512551433" flag="0"/>
      <psa10 value="0.0276298548" flag="0"/>
      <psa30 value="0.0138148820" flag="0"/>
    </comp>
  </station>
  <station code="PRMA" name="PRMA" netid="IV" insttype="" lat="44.7637" lon="10.3131">
    <comp name="--.HHN">
      <acc value="0.0217532500" flag="0"/>
      <vel value="0.0224439931" flag="0"/>
      <psa03 value="0.0457995190" flag="0"/>
      <psa10 value="0.0375771516" flag="0"/>
      <psa30 value="0.0031823190" flag="0"/>
    </comp>
    <comp name="--.HHE">
      <acc value="0.0199627161" flag="0"/>
      <vel value="0.0157066659" flag="0"/>
      <psa03 value="0.0358795136" flag="0"/>
      <psa10 value="0.0260357230" flag="0"/>
      <psa30 value="0.0037335227" flag="0"/>
    </comp>
    <comp name="--.HHZ">
      <acc value="0.0114743843" flag="0"/>
      <vel value="0.0073715950" flag="0"/>
      <psa03 value="0.0206725895" flag="0"/>
      <psa10 value="0.0100011184" flag="0"/>
      <psa30 value="0.0022927503" flag="0"/>
    </comp>
  </station>
  <station code="QLNO" name="QLNO" netid="IV" insttype="" lat="44.3242" lon="8.34592">
    <comp name="--.HHN">
      <acc value="0.0139598253" flag="0"/>
      <vel value="0.0074591673" flag="0"/>
      <psa03 value="0.0527457991" flag="0"/>
      <psa10 value="0.0047208623" flag="0"/>
      <psa30 value="0.0011506082" flag="0"/>
    </comp>
    <comp name="--.HHE">
      <acc value="0.0123318740" flag="0"/>
      <vel value="0.0069254218" flag="0"/>
      <psa03 value="0.0309616423" flag="0"/>
      <psa10 value="0.0061988012" flag="0"/>
      <psa30 value="0.0006849087" flag="0"/>
    </comp>
    <comp name="--.HHZ">
      <acc value="0.0130099406" flag="0"/>
      <vel value="0.0080893063" flag="0"/>
      <psa03 value="0.0315369524" flag="0"/>
      <psa10 value="0.0069805098" flag="0"/>
      <psa30 value="0.0006985646" flag="0"/>
    </comp>
  </station>
  <station code="SARZ" name="SARZ" netid="IV" insttype="" lat="44.8673" lon="8.9136">
    <comp name="--.HHE">
      <acc value="0.1093415028" flag="0"/>
      <vel value="0.0779996122" flag="0"/>
      <psa03 value="0.4017948089" flag="0"/>
      <psa10 value="0.1002899607" flag="0"/>
      <psa30 value="0.0121443641" flag="0"/>
    </comp>
    <comp name="--.HHN">
      <acc value="0.0996311116" flag="0"/>
      <vel value="0.0901557864" flag="0"/>
      <psa03 value="0.2957486846" flag="0"/>
      <psa10 value="0.0788484195" flag="0"/>
      <psa30 value="0.0071847432" flag="0"/>
    </comp>
    <comp name="--.HHZ">
      <acc value="0.0682266970" flag="0"/>
      <vel value="0.0442250823" flag="0"/>
      <psa03 value="0.2354917481" flag="0"/>
      <psa10 value="0.0747979440" flag="0"/>
      <psa30 value="0.0039534219" flag="0"/>
    </comp>
  </station>
  <station code="VLC" name="VLC" netid="MN" insttype="" lat="44.1594" lon="10.3864">
    <comp name="--.HHE">
      <acc value="0.0064374806" flag="0"/>
      <vel value="0.0040465981" flag="0"/>
      <psa03 value="0.0106673357" flag="0"/>
      <psa10 value="0.0055797932" flag="0"/>
      <psa30 value="0.0019752092" flag="0"/>
    </comp>
    <comp name="--.HHN">
      <acc value="0.0105780781" flag="0"/>
      <vel value="0.0064847576" flag="0"/>
      <psa03 value="0.0159190917" flag="0"/>
      <psa10 value="0.0084770756" flag="0"/>
      <psa30 value="0.0012750795" flag="0"/>
    </comp>
    <comp name="--.HHZ">
      <acc value="0.0060102417" flag="0"/>
      <vel value="0.0050006446" flag="0"/>
      <psa03 value="0.0090629176" flag="0"/>
      <psa10 value="0.0082708909" flag="0"/>
      <psa30 value="0.0017291519" flag="0"/>
    </comp>
  </station>
</stationlist>
