<stationlist created="1778069328">
	<station code="DIX" name="DIX" netid="CH" source="Switzerland Seismological Network" insttype="" lat="46.081053" lon="7.408391">
		<comp name="--.HGE" depth="0.0">
			<acc value="0.00215474623536504" flag="0"/>
			<vel value="0.00181177863274483" flag="0"/>
			<psa03 value="0.00939586338983707" flag="0"/>
			<psa10 value="0.00207782807535254" flag="0"/>
			<psa30 value="0.000166441008619971" flag="0"/>
		</comp>
		<comp name="--.HGN" depth="0.0">
			<acc value="0.00289031137509581" flag="0"/>
			<vel value="0.00245927120887788" flag="0"/>
			<psa03 value="0.0125278178531161" flag="0"/>
			<psa10 value="0.00455028241307824" flag="0"/>
			<psa30 value="0.000220131656561897" flag="0"/>
		</comp>
		<comp name="--.HGZ" depth="0.0">
			<acc value="0.0022534471818722" flag="0"/>
			<vel value="0.0016040886805673" flag="0"/>
			<psa03 value="0.0101117386957294" flag="0"/>
			<psa10 value="0.00196105091607885" flag="0"/>
			<psa30 value="0.000140043106715191" flag="0"/>
		</comp>
	</station>
	<station code="FIESA" name="FIESA" netid="CH" source="Switzerland Seismological Network" insttype="" lat="46.43521" lon="8.11051">
		<comp name="--.HGE" depth="0.0">
			<acc value="0.002420485041779" flag="0"/>
			<vel value="0.00216835654165722" flag="0"/>
			<psa03 value="0.00604019789346669" flag="0"/>
			<psa10 value="0.00375700308973628" flag="0"/>
			<psa30 value="0.000417892209814658" flag="0"/>
		</comp>
		<comp name="--.HGN" depth="0.0">
			<acc value="0.00331219333960909" flag="0"/>
			<vel value="0.00315752837567869" flag="0"/>
			<psa03 value="0.00541380700081088" flag="0"/>
			<psa10 value="0.00446974644116535" flag="0"/>
			<psa30 value="0.00048903231833771" flag="0"/>
		</comp>
		<comp name="--.HGZ" depth="0.0">
			<acc value="0.00246329647022958" flag="0"/>
			<vel value="0.00231829419872495" flag="0"/>
			<psa03 value="0.00626390892655805" flag="0"/>
			<psa10 value="0.00426035291419184" flag="0"/>
			<psa30 value="0.00028813981062167" flag="0"/>
		</comp>
	</station>
	<station code="FUSIO" name="FUSIO" netid="CH" source="Switzerland Seismological Network" insttype="" lat="46.45481" lon="8.6629">
		<comp name="--.HGE" depth="0.0">
			<acc value="0.00698573854080136" flag="0"/>
			<vel value="0.00353091627854761" flag="0"/>
			<psa03 value="0.020089250771604" flag="0"/>
			<psa10 value="0.0035596899585497" flag="0"/>
			<psa30 value="0.000469345747425671" flag="0"/>
		</comp>
		<comp name="--.HGN" depth="0.0">
			<acc value="0.0032032365835862" flag="0"/>
			<vel value="0.00204110919422752" flag="0"/>
			<psa03 value="0.00988802766263806" flag="0"/>
			<psa10 value="0.00328184085545023" flag="0"/>
			<psa30 value="0.000251451201194687" flag="0"/>
		</comp>
		<comp name="--.HGZ" depth="0.0">
			<acc value="0.00515752064926329" flag="0"/>
			<vel value="0.00275910717580585" flag="0"/>
			<psa03 value="0.0115882315141324" flag="0"/>
			<psa10 value="0.00277043743380339" flag="0"/>
			<psa30 value="0.000248319246731408" flag="0"/>
		</comp>
	</station>
	<station code="MUGIO" name="MUGIO" netid="CH" source="Switzerland Seismological Network" insttype="" lat="45.92184" lon="9.04171">
		<comp name="--.HGE" depth="0.0">
			<acc value="0.0133091780718111" flag="0"/>
			<vel value="0.0076888115634887" flag="0"/>
			<psa03 value="0.0565094069588772" flag="0"/>
			<psa10 value="0.00589925994261913" flag="0"/>
			<psa30 value="0.000774040174496101" flag="0"/>
		</comp>
		<comp name="--.HGN" depth="0.0">
			<acc value="0.0136254749081327" flag="0"/>
			<vel value="0.00857229135105971" flag="0"/>
			<psa03 value="0.0526168349830876" flag="0"/>
			<psa10 value="0.0055247676732242" flag="0"/>
			<psa30 value="0.000829967932768941" flag="0"/>
		</comp>
		<comp name="--.HGZ" depth="0.0">
			<acc value="0.011729652512793" flag="0"/>
			<vel value="0.00590972564644346" flag="0"/>
			<psa03 value="0.0456817929572555" flag="0"/>
			<psa10 value="0.00442545165661326" flag="0"/>
			<psa30 value="0.000697083579112674" flag="0"/>
		</comp>
	</station>
	<station code="SCAS2" name="SCAS2" netid="CH" source="Switzerland Seismological Network" insttype="" lat="46.155187" lon="8.614781">
		<comp name="--.HGE" depth="1.0">
			<acc value="0.0161458087741152" flag="0"/>
			<vel value="0.00637493920589856" flag="0"/>
			<psa03 value="0.0301115050540969" flag="0"/>
			<psa10 value="0.00556503565918064" flag="0"/>
			<psa30 value="0.000456817929572554" flag="0"/>
		</comp>
		<comp name="--.HGN" depth="1.0">
			<acc value="0.0153196275780328" flag="0"/>
			<vel value="0.00688841887782193" flag="0"/>
			<psa03 value="0.0332434595173759" flag="0"/>
			<psa10 value="0.00377311028411886" flag="0"/>
			<psa30 value="0.000319011933188278" flag="0"/>
		</comp>
		<comp name="--.HGZ" depth="1.0">
			<acc value="0.007459618322578" flag="0"/>
			<vel value="0.00394025574560066" flag="0"/>
			<psa03 value="0.0268900661775813" flag="0"/>
			<psa10 value="0.00583080436649317" flag="0"/>
			<psa30 value="0.000287692388555487" flag="0"/>
		</comp>
	</station>
	<station code="SIMPL" name="SIMPL" netid="CH" source="Switzerland Seismological Network" insttype="" lat="46.23962" lon="8.01958">
		<comp name="--.HGE" depth="0.0">
			<acc value="0.00395800337221556" flag="0"/>
			<vel value="0.00260559527577477" flag="0"/>
			<psa03 value="0.0165993586553788" flag="0"/>
			<psa10 value="0.00382143186726659" flag="0"/>
			<psa30 value="0.000206261572510233" flag="0"/>
		</comp>
		<comp name="--.HGN" depth="0.0">
			<acc value="0.00446460069623139" flag="0"/>
			<vel value="0.00316245886863169" flag="0"/>
			<psa03 value="0.0120803957869334" flag="0"/>
			<psa10 value="0.00293956297482045" flag="0"/>
			<psa30 value="0.000209840949039694" flag="0"/>
		</comp>
		<comp name="--.HGZ" depth="0.0">
			<acc value="0.00329534856554711" flag="0"/>
			<vel value="0.00243159777771532" flag="0"/>
			<psa03 value="0.0184785313333462" flag="0"/>
			<psa10 value="0.00301204534954205" flag="0"/>
			<psa30 value="0.000213867747635339" flag="0"/>
		</comp>
	</station>
	<station code="VDL" name="VDL" netid="CH" source="Switzerland Seismological Network" insttype="" lat="46.48318" lon="9.44956">
		<comp name="--.HGE" depth="0.0">
			<acc value="0.00350895588265742" flag="0"/>
			<vel value="0.00238006064365774" flag="0"/>
			<psa03 value="0.0108276140016218" flag="0"/>
			<psa10 value="0.00283083941273805" flag="0"/>
			<psa30 value="0.000265768707312534" flag="0"/>
		</comp>
		<comp name="--.HGN" depth="0.0">
			<acc value="0.00364616223204834" flag="0"/>
			<vel value="0.00238449180892761" flag="0"/>
			<psa03 value="0.010201223108966" flag="0"/>
			<psa10 value="0.00350331477821068" flag="0"/>
			<psa30 value="0.000273822304503823" flag="0"/>
		</comp>
		<comp name="--.HGZ" depth="0.0">
			<acc value="0.00351399773411311" flag="0"/>
			<vel value="0.00227165894546793" flag="0"/>
			<psa03 value="0.0104249341420573" flag="0"/>
			<psa10 value="0.00320130488353734" flag="0"/>
			<psa30 value="0.000251451201194687" flag="0"/>
		</comp>
	</station>
	<station code="VDR" name="VDR" netid="CH" source="Switzerland Seismological Network" insttype="" lat="46.2061" lon="9.16648">
		<comp name="--.HGE" depth="0.0">
			<acc value="0.00646026307623571" flag="0"/>
			<vel value="0.00436638582411798" flag="0"/>
			<psa03 value="0.0177626560274539" flag="0"/>
			<psa10 value="0.00487242630072979" flag="0"/>
			<psa30 value="0.000405811814027725" flag="0"/>
		</comp>
		<comp name="--.HGN" depth="0.0">
			<acc value="0.00461994944125331" flag="0"/>
			<vel value="0.003403247404571" flag="0"/>
			<psa03 value="0.0144069905310835" flag="0"/>
			<psa10 value="0.00343083240348908" flag="0"/>
			<psa30 value="0.000241160493672485" flag="0"/>
		</comp>
		<comp name="--.HGZ" depth="0.0">
			<acc value="0.00525270482598563" flag="0"/>
			<vel value="0.00353416587700034" flag="0"/>
			<psa03 value="0.0202234773914588" flag="0"/>
			<psa10 value="0.00580664357491931" flag="0"/>
			<psa30 value="0.000386572665181868" flag="0"/>
		</comp>
	</station>
	<station code="ESCA" name="ESCA" netid="FR" source="RESIF and other broad-band and accelerometric permanent networks in metropolitan France (RESIF)" insttype="" lat="43.831" lon="7.3744">
		<comp name="01.HNE" depth="0.0">
			<acc value="0.00657217072699801" flag="0"/>
			<vel value="0.00452709829455527" flag="0"/>
			<psa03 value="0.0194181176723299" flag="0"/>
			<psa10 value="0.00391807503356206" flag="0"/>
			<psa30 value="0.000526615771897058" flag="0"/>
		</comp>
		<comp name="01.HNN" depth="0.0">
			<acc value="0.00635195137486023" flag="0"/>
			<vel value="0.00384814832082793" flag="0"/>
			<psa03 value="0.014809670390648" flag="0"/>
			<psa10 value="0.0035234487711889" flag="0"/>
			<psa30 value="0.000659947547619508" flag="0"/>
		</comp>
		<comp name="01.HNZ" depth="0.0">
			<acc value="0.00465620806462131" flag="0"/>
			<vel value="0.00323652125995127" flag="0"/>
			<psa03 value="0.0158834833494865" flag="0"/>
			<psa10 value="0.0036684135206321" flag="0"/>
			<psa30 value="0.000527510616029424" flag="0"/>
		</comp>
	</station>
	<station code="MON" name="MON" netid="FR" source="RESIF and other broad-band and accelerometric permanent networks in metropolitan France (RESIF)" insttype="" lat="43.730343" lon="7.424688">
		<comp name="00.HNE" depth="0.0">
			<acc value="0.00598914843955033" flag="0"/>
			<vel value="0.00445071479573222" flag="0"/>
			<psa03 value="0.0187022423664376" flag="0"/>
			<psa10 value="0.00724823747216002" flag="0"/>
			<psa30 value="0.000550329141404742" flag="0"/>
		</comp>
		<comp name="00.HNN" depth="0.0">
			<acc value="0.00465092154177476" flag="0"/>
			<vel value="0.0043686843786314" flag="0"/>
			<psa03 value="0.0161071943825778" flag="0"/>
			<psa10 value="0.0101998808427674" flag="0"/>
			<psa30 value="0.000827283400371845" flag="0"/>
		</comp>
		<comp name="00.HNZ" depth="0.0">
			<acc value="0.00324137774089203" flag="0"/>
			<vel value="0.00333305822519618" flag="0"/>
			<psa03 value="0.011856684753842" flag="0"/>
			<psa10 value="0.00491269428668624" flag="0"/>
			<psa30 value="0.000542722966279636" flag="0"/>
		</comp>
	</station>
	<station code="FIVI" name="FIVI" netid="GU" source="Regional Seismic Network of North Western Italy (RSNI)" insttype="" lat="44.2394" lon="10.1271">
		<comp name="--.HNE" depth="0.0">
			<acc value="0.0100150414019864" flag="0"/>
			<vel value="0.0031300078248899" flag="0"/>
			<psa03 value="0.0133779197788633" flag="0"/>
			<psa10 value="0.00315701009898525" flag="0"/>
			<psa30 value="0.000782541193753573" flag="0"/>
		</comp>
		<comp name="--.HNN" depth="0.0">
			<acc value="0.0114639509596456" flag="0"/>
			<vel value="0.0042959947792852" flag="0"/>
			<psa03 value="0.0139148262582825" flag="0"/>
			<psa10 value="0.00289124139167272" flag="0"/>
			<psa30 value="0.000303799582938065" flag="0"/>
		</comp>
		<comp name="--.HNZ" depth="0.0">
			<acc value="0.0109097498037776" flag="0"/>
			<vel value="0.00375227893749445" flag="0"/>
			<psa03 value="0.00680081540597731" flag="0"/>
			<psa10 value="0.00338653761893699" flag="0"/>
			<psa30 value="0.00116642932653834" flag="0"/>
		</comp>
	</station>
	<station code="ACQ" name="ACQ" netid="IT" source="Italian Strong Motion Network (RAN)" insttype="" lat="44.6826" lon="8.4624">
		<comp name="--.HGE" depth="0.0">
			<acc value="0.060087996" flag="0"/>
			<vel value="0.022322" flag="0"/>
			<psa03 value="0.0961957442292843" flag="0"/>
			<psa10 value="0.0108562490138575" flag="0"/>
			<psa30 value="0.00152705151188161" flag="0"/>
		</comp>
		<comp name="--.HGN" depth="0.0">
			<acc value="0.061792926" flag="0"/>
			<vel value="0.020733" flag="0"/>
			<psa03 value="0.138432387276933" flag="0"/>
			<psa10 value="0.0159340420429651" flag="0"/>
			<psa30 value="0.00148633610385899" flag="0"/>
		</comp>
		<comp name="--.HGZ" depth="0.0">
			<acc value="0.02431629" flag="0"/>
			<vel value="0.008242" flag="0"/>
			<psa03 value="0.0485900363874431" flag="0"/>
			<psa10 value="0.00727239826373389" flag="0"/>
			<psa30 value="0.000672027943406442" flag="0"/>
		</comp>
	</station>
	<station code="ALSD" name="ALSD" netid="IT" source="Italian Strong Motion Network (RAN)" insttype="" lat="44.9387" lon="8.5684">
		<comp name="--.HNE" depth="0.0">
			<acc value="0.031399884" flag="0"/>
			<vel value="0.032733" flag="0"/>
			<psa03 value="0.125322920737779" flag="0"/>
			<psa10 value="0.0551308995729683" flag="0"/>
			<psa30 value="0.0075439834579068" flag="0"/>
		</comp>
		<comp name="--.HNN" depth="0.0">
			<acc value="0.029742078" flag="0"/>
			<vel value="0.028217" flag="0"/>
			<psa03 value="0.129126008300332" flag="0"/>
			<psa10 value="0.058146971721106" flag="0"/>
			<psa30 value="0.00852607489317786" flag="0"/>
		</comp>
		<comp name="--.HNZ" depth="0.0">
			<acc value="0.013010712" flag="0"/>
			<vel value="0.016873" flag="0"/>
			<psa03 value="0.0461739572300565" flag="0"/>
			<psa10 value="0.0268184786469921" flag="0"/>
			<psa30 value="0.00372881549956677" flag="0"/>
		</comp>
	</station>
	<station code="AUL" name="AUL" netid="IT" source="Italian Strong Motion Network (RAN)" insttype="" lat="44.2087" lon="9.9731">
		<comp name="--.HNE" depth="0.0">
			<acc value="0.0254847" flag="0"/>
			<vel value="0.018229" flag="0"/>
			<psa03 value="0.0885000846909415" flag="0"/>
			<psa10 value="0.0235527449859244" flag="0"/>
			<psa30 value="0.00211048988618388" flag="0"/>
		</comp>
		<comp name="--.HNN" depth="0.0">
			<acc value="0.031964454" flag="0"/>
			<vel value="0.016081" flag="0"/>
			<psa03 value="0.0850996769879529" flag="0"/>
			<psa10 value="0.0255580906865554" flag="0"/>
			<psa30 value="0.00184516860093753" flag="0"/>
		</comp>
		<comp name="--.HNZ" depth="0.0">
			<acc value="0.013124748" flag="0"/>
			<vel value="0.006184" flag="0"/>
			<psa03 value="0.0342277880629779" flag="0"/>
			<psa10 value="0.00808178478145843" flag="0"/>
			<psa30 value="0.00151810307055796" flag="0"/>
		</comp>
	</station>
	<station code="BDG" name="BDG" netid="IT" source="Italian Strong Motion Network (RAN)" insttype="" lat="44.5067" lon="9.6229">
		<comp name="--.HGE" depth="0.0">
			<acc value="0.455228856" flag="0"/>
			<vel value="0.171646" flag="0"/>
			<psa03 value="0.44657196425697" flag="0"/>
			<psa10 value="0.0894029824204983" flag="0"/>
			<psa30 value="0.0091748368891428" flag="0"/>
		</comp>
		<comp name="--.HGN" depth="0.0">
			<acc value="0.378822186" flag="0"/>
			<vel value="0.125651" flag="0"/>
			<psa03 value="0.746210521979536" flag="0"/>
			<psa10 value="0.0761628686380193" flag="0"/>
			<psa30 value="0.00534758853501584" flag="0"/>
		</comp>
		<comp name="--.HGZ" depth="0.0">
			<acc value="0.190694916" flag="0"/>
			<vel value="0.071913" flag="0"/>
			<psa03 value="0.293150937762917" flag="0"/>
			<psa10 value="0.0691683194773849" flag="0"/>
			<psa30 value="0.00769073789561473" flag="0"/>
		</comp>
	</station>
	<station code="BGMO" name="BGMO" netid="IT" source="Italian Strong Motion Network (RAN)" insttype="" lat="45.6925" lon="9.6903">
		<comp name="--.HNE" depth="0.0">
			<acc value="0.0243321" flag="0"/>
			<vel value="0.017215" flag="0"/>
			<psa03 value="0.0589254861162639" flag="0"/>
			<psa10 value="0.01771388702224" flag="0"/>
			<psa30 value="0.00112795102884663" flag="0"/>
		</comp>
		<comp name="--.HNN" depth="0.0">
			<acc value="0.024778248" flag="0"/>
			<vel value="0.01832" flag="0"/>
			<psa03 value="0.0532879680823617" flag="0"/>
			<psa10 value="0.0171380548230628" flag="0"/>
			<psa30 value="0.00118253652092092" flag="0"/>
		</comp>
		<comp name="--.HNZ" depth="0.0">
			<acc value="0.019057884" flag="0"/>
			<vel value="0.014173" flag="0"/>
			<psa03 value="0.0304247005004248" flag="0"/>
			<psa10 value="0.0146132521035937" flag="0"/>
			<psa30 value="0.000921689456336398" flag="0"/>
		</comp>
	</station>
	<station code="BGN" name="BGN" netid="IT" source="Italian Strong Motion Network (RAN)" insttype="" lat="44.3224" lon="9.9917">
		<comp name="--.HGE" depth="0.0">
			<acc value="0.026244396" flag="0"/>
			<vel value="0.007152" flag="0"/>
			<psa03 value="0.0221921344826628" flag="0"/>
			<psa10 value="0.00475967594005175" flag="0"/>
			<psa30 value="0.00262010361956599" flag="0"/>
		</comp>
		<comp name="--.HGN" depth="0.0">
			<acc value="0.032040852" flag="0"/>
			<vel value="0.0078" flag="0"/>
			<psa03 value="0.0239818227473937" flag="0"/>
			<psa10 value="0.00624153782324891" flag="0"/>
			<psa30 value="0.00156195043304387" flag="0"/>
		</comp>
		<comp name="--.HGZ" depth="0.0">
			<acc value="0.015387924" flag="0"/>
			<vel value="0.005614" flag="0"/>
			<psa03 value="0.0187469845730559" flag="0"/>
			<psa10 value="0.00567778601985869" flag="0"/>
			<psa30 value="0.00237536374936405" flag="0"/>
		</comp>
	</station>
	<station code="BNO" name="BNO" netid="IT" source="Italian Strong Motion Network (RAN)" insttype="" lat="45.9484" lon="10.2904">
		<comp name="--.HNE" depth="0.0">
			<acc value="0.007170294" flag="0"/>
			<vel value="0.004154" flag="0"/>
			<psa03 value="0.0133779197788633" flag="0"/>
			<psa10 value="0.0070468975423778" flag="0"/>
			<psa30 value="0.000369570626666925" flag="0"/>
		</comp>
		<comp name="--.HNN" depth="0.0">
			<acc value="0.007418154" flag="0"/>
			<vel value="0.006864" flag="0"/>
			<psa03 value="0.019104922226002" flag="0"/>
			<psa10 value="0.0093381459432995" flag="0"/>
			<psa30 value="0.000650551684229671" flag="0"/>
		</comp>
		<comp name="--.HNZ" depth="0.0">
			<acc value="0.00730167" flag="0"/>
			<vel value="0.008584" flag="0"/>
			<psa03 value="0.0193286332590934" flag="0"/>
			<psa10 value="0.0104455155571017" flag="0"/>
			<psa30 value="0.00137179605491621" flag="0"/>
		</comp>
	</station>
	<station code="BRB" name="BRB" netid="IT" source="Italian Strong Motion Network (RAN)" insttype="" lat="43.9542" lon="11.2128">
		<comp name="--.HNE" depth="0.0">
			<acc value="0.009289854" flag="0"/>
			<vel value="0.007692" flag="0"/>
			<psa03 value="0.0165098742421423" flag="0"/>
			<psa10 value="0.0169689292820457" flag="0"/>
			<psa30 value="0.00074585258432659" flag="0"/>
		</comp>
		<comp name="--.HNN" depth="0.0">
			<acc value="0.006907644" flag="0"/>
			<vel value="0.006095" flag="0"/>
			<psa03 value="0.0158387411428682" flag="0"/>
			<psa10 value="0.0146535200895502" flag="0"/>
			<psa30 value="0.000756590713914975" flag="0"/>
		</comp>
		<comp name="--.HNZ" depth="0.0">
			<acc value="0.005736684" flag="0"/>
			<vel value="0.005341" flag="0"/>
			<psa03 value="0.0146754437707931" flag="0"/>
			<psa10 value="0.0120683153911464" flag="0"/>
			<psa30 value="0.00106889131611051" flag="0"/>
		</comp>
	</station>
	<station code="BRR" name="BRR" netid="IT" source="Italian Strong Motion Network (RAN)" insttype="" lat="44.5063" lon="9.9872">
		<comp name="--.HGE" depth="0.0">
			<acc value="0.034107984" flag="0"/>
			<vel value="0.016231" flag="0"/>
			<psa03 value="0.0933322430057149" flag="0"/>
			<psa10 value="0.0118548950655773" flag="0"/>
			<psa30 value="0.00203890235559464" flag="0"/>
		</comp>
		<comp name="--.HGN" depth="0.0">
			<acc value="0.024139014" flag="0"/>
			<vel value="0.012079" flag="0"/>
			<psa03 value="0.0578516731574254" flag="0"/>
			<psa10 value="0.0152414326845143" flag="0"/>
			<psa30 value="0.00232659474415013" flag="0"/>
		</comp>
		<comp name="--.HGZ" depth="0.0">
			<acc value="0.01785204" flag="0"/>
			<vel value="0.006318" flag="0"/>
			<psa03 value="0.0254583155657966" flag="0"/>
			<psa10 value="0.0092294223812171" flag="0"/>
			<psa30 value="0.00185009024366554" flag="0"/>
		</comp>
	</station>
	<station code="BVT" name="BVT" netid="IT" source="Italian Strong Motion Network (RAN)" insttype="" lat="44.5304" lon="9.7428">
		<comp name="--.HNE" depth="0.0">
			<acc value="0.12825837" flag="0"/>
			<vel value="0.046435" flag="0"/>
			<psa03 value="0.307781639327091" flag="0"/>
			<psa10 value="0.0739441026118192" flag="0"/>
			<psa30 value="0.00606883290570238" flag="0"/>
		</comp>
		<comp name="--.HNN" depth="0.0">
