<stationlist xmlns:esm="https://esm-db.eu/esmws/shakemap/1/" created="1780710940">
	<station code="KRL1" name="KRL1" netid="HI" source="ITSAK Strong Motion Network" insttype="" lat="37.7951" lon="26.7065" esm:processing="manual (Paolucci et al 2011)" esm:quality="good">
		<comp name="--.HNE" depth="0.0">
			<acc value="0.00572371884954076" flag="0"/>
			<vel value="0.00360662271392211" flag="0"/>
			<psa03 value="0.014988639217121" flag="0"/>
			<psa10 value="0.0036684135206321" flag="0"/>
			<psa30 value="0.000526615771897058" flag="0"/>
		</comp>
		<comp name="--.HNN" depth="0.0">
			<acc value="0.00509174444879329" flag="0"/>
			<vel value="0.00379037013134613" flag="0"/>
			<psa03 value="0.0187469845730559" flag="0"/>
			<psa10 value="0.00550866047884162" flag="0"/>
			<psa30 value="0.000353463432284347" flag="0"/>
		</comp>
		<comp name="--.HNZ" depth="0.0">
			<acc value="0.00457589560663042" flag="0"/>
			<vel value="0.00208676910661667" flag="0"/>
			<psa03 value="0.00702452643906867" flag="0"/>
			<psa10 value="0.00219460523462623" flag="0"/>
			<psa30 value="0.000185680157465828" flag="0"/>
		</comp>
	</station>
	<station code="PLM1" name="PLM1" netid="HI" source="ITSAK Strong Motion Network" insttype="" lat="38.9751" lon="26.3688" esm:processing="manual (Paolucci et al 2011)" esm:quality="good">
		<comp name="--.HNE" depth="0.0">
			<acc value="0.0208651318726983" flag="0"/>
			<vel value="0.0094874637558695" flag="0"/>
			<psa03 value="0.0685953045189427" flag="0"/>
			<psa10 value="0.00809711076884988" flag="0"/>
			<psa30 value="0.000902908875781773" flag="0"/>
		</comp>
		<comp name="--.HNN" depth="0.0">
			<acc value="0.017475531413526" flag="0"/>
			<vel value="0.00680506980055042" flag="0"/>
			<psa03 value="0.045292760839787" flag="0"/>
			<psa10 value="0.00792448683336134" flag="0"/>
			<psa30 value="0.000559986992223294" flag="0"/>
		</comp>
		<comp name="--.HNZ" depth="0.0">
			<acc value="0.00813564482990836" flag="0"/>
			<vel value="0.00352053992158659" flag="0"/>
			<psa03 value="0.0134076368880592" flag="0"/>
			<psa10 value="0.00259606892995076" flag="0"/>
			<psa30 value="0.000517462716865417" flag="0"/>
		</comp>
	</station>
	<station code="PRK" name="PRK" netid="HL" source="National Observatory of Athens Seismic Network" insttype="" lat="39.24565" lon="26.26499" esm:processing="manual (Paolucci et al 2011)" esm:quality="best">
		<comp name="--.HNE" depth="0.0">
			<acc value="0.0360384785256918" flag="0"/>
			<vel value="0.03202255402382" flag="0"/>
			<psa03 value="0.077538244069465" flag="0"/>
			<psa10 value="0.0437994883248248" flag="0"/>
			<psa30 value="0.00163130085330219" flag="0"/>
		</comp>
		<comp name="--.HNN" depth="0.0">
			<acc value="0.0313139627287161" flag="0"/>
			<vel value="0.0134536532786813" flag="0"/>
			<psa03 value="0.0649656840097306" flag="0"/>
			<psa10 value="0.017407850328971" flag="0"/>
			<psa30 value="0.00173107597406093" flag="0"/>
		</comp>
		<comp name="--.HNZ" depth="0.0">
			<acc value="0.0224387534697159" flag="0"/>
			<vel value="0.0132194209463704" flag="0"/>
			<psa03 value="0.0433104560064871" flag="0"/>
			<psa10 value="0.0126522011875149" flag="0"/>
			<psa30 value="0.000737798987135301" flag="0"/>
		</comp>
	</station>
	<station code="AKS" name="AKS" netid="KO" source="Bogazici University Kandilli Observatory And Earthquake Research Institute (KOERI)" insttype="" lat="38.8785" lon="27.8129" esm:processing="manual (Paolucci et al 2011)" esm:quality="best">
		<comp name="--.HNE" depth="0.0">
			<acc value="0.256775215848335" flag="0"/>
			<vel value="0.0878397336404125" flag="0"/>
			<psa03 value="0.422455914889722" flag="0"/>
			<psa10 value="0.0435458000132992" flag="0"/>
			<psa30 value="0.00422455914889722" flag="0"/>
		</comp>
		<comp name="--.HNN" depth="0.0">
			<acc value="0.315649979954541" flag="0"/>
			<vel value="0.095655026807292" flag="0"/>
			<psa03 value="0.487287372279598" flag="0"/>
			<psa10 value="0.0482692347659901" flag="0"/>
			<psa30 value="0.00292703515696734" flag="0"/>
		</comp>
		<comp name="--.HNZ" depth="0.0">
			<acc value="0.161948715855728" flag="0"/>
			<vel value="0.0339499290863347" flag="0"/>
			<psa03 value="0.154718550485984" flag="0"/>
			<psa10 value="0.028767449167284" flag="0"/>
			<psa30 value="0.0028116002638922" flag="0"/>
		</comp>
	</station>
	<station code="BUYA" name="BUYA" netid="KO" source="Bogazici University Kandilli Observatory And Earthquake Research Institute (KOERI)" insttype="" lat="40.8694" lon="29.1278" esm:processing="automatic (Paolucci et al 2011)" esm:quality="best">
		<comp name="--.HNE" depth="0.0">
			<acc value="0.0072414573798441" flag="0"/>
			<vel value="0.0030495663013914" flag="0"/>
			<psa03 value="0.0170915229281798" flag="0"/>
			<psa10 value="0.00376505668692757" flag="0"/>
			<psa30 value="0.000252793467393235" flag="0"/>
		</comp>
		<comp name="--.HNN" depth="0.0">
			<acc value="0.00618349907745436" flag="0"/>
			<vel value="0.00451123759950098" flag="0"/>
			<psa03 value="0.0242502759871033" flag="0"/>
			<psa10 value="0.00431672809453086" flag="0"/>
			<psa30 value="0.000301115050540969" flag="0"/>
		</comp>
		<comp name="--.HNZ" depth="0.0">
			<acc value="0.00459776101184607" flag="0"/>
			<vel value="0.0020453416304518" flag="0"/>
			<psa03 value="0.0140043106715191" flag="0"/>
			<psa10 value="0.00118387878711947" flag="0"/>
			<psa30 value="0.000223711033091359" flag="0"/>
		</comp>
	</station>
	<station code="DST" name="DST" netid="KO" source="Bogazici University Kandilli Observatory And Earthquake Research Institute (KOERI)" insttype="" lat="39.6041" lon="28.6267" esm:processing="manual (Paolucci et al 2011)" esm:quality="good">
		<comp name="--.HNE" depth="0.0">
			<acc value="0.447007802860589" flag="0"/>
			<vel value="0.101475510212244" flag="0"/>
			<psa03 value="0.598874435585567" flag="0"/>
			<psa10 value="0.0516356383919489" flag="0"/>
			<psa30 value="0.00362546100227856" flag="0"/>
		</comp>
		<comp name="--.HNN" depth="0.0">
			<acc value="0.455940613593731" flag="0"/>
			<vel value="0.128032569388338" flag="0"/>
			<psa03 value="0.601961647842228" flag="0"/>
			<psa10 value="0.0529161603453638" flag="0"/>
			<psa30 value="0.0040930170614395" flag="0"/>
		</comp>
		<comp name="--.HNZ" depth="0.0">
			<acc value="0.376379671673835" flag="0"/>
			<vel value="0.137981045562374" flag="0"/>
			<psa03 value="0.343083240348908" flag="0"/>
			<psa10 value="0.0770407107318698" flag="0"/>
			<psa30 value="0.00477667797856669" flag="0"/>
		</comp>
	</station>
	<station code="ENZZ" name="ENZZ" netid="KO" source="Bogazici University Kandilli Observatory And Earthquake Research Institute (KOERI)" insttype="" lat="40.607" lon="26.1406" esm:processing="manual (Paolucci et al 2011)" esm:quality="good">
		<comp name="--.HNE" depth="0.0">
			<acc value="0.146331360971591" flag="0"/>
			<vel value="0.0882808377004027" flag="0"/>
			<psa03 value="0.235254522398873" flag="0"/>
			<psa10 value="0.101463244214453" flag="0"/>
			<psa30 value="0.00777574808818945" flag="0"/>
		</comp>
		<comp name="--.HNN" depth="0.0">
			<acc value="0.202344791664236" flag="0"/>
			<vel value="0.175306522356071" flag="0"/>
			<psa03 value="0.270869318867017" flag="0"/>
			<psa10 value="0.178326775808115" flag="0"/>
			<psa30 value="0.010206144751694" flag="0"/>
		</comp>
		<comp name="--.HNZ" depth="0.0">
			<acc value="0.0520657823797641" flag="0"/>
			<vel value="0.0282985268257761" flag="0"/>
			<psa03 value="0.104696763486756" flag="0"/>
			<psa10 value="0.0274506860265083" flag="0"/>
			<psa30 value="0.00468182450053595" flag="0"/>
		</comp>
	</station>
	<station code="GMLD" name="GMLD" netid="KO" source="Bogazici University Kandilli Observatory And Earthquake Research Institute (KOERI)" insttype="" lat="38.0766" lon="26.9157" esm:processing="manual (Paolucci et al 2011)" esm:quality="best">
		<comp name="--.HNE" depth="0.0">
			<acc value="0.126770624902733" flag="0"/>
			<vel value="0.0644640409629939" flag="0"/>
			<psa03 value="0.276283125867828" flag="0"/>
			<psa10 value="0.0343123508334864" flag="0"/>
			<psa30 value="0.00268050559850066" flag="0"/>
		</comp>
		<comp name="--.HNN" depth="0.0">
			<acc value="0.0980599856589112" flag="0"/>
			<vel value="0.0468238597935689" flag="0"/>
			<psa03 value="0.285410536017956" flag="0"/>
			<psa10 value="0.0584610620115662" flag="0"/>
			<psa30 value="0.00295611759126921" flag="0"/>
		</comp>
		<comp name="--.HNZ" depth="0.0">
			<acc value="0.0757560168402346" flag="0"/>
			<vel value="0.0325671622137446" flag="0"/>
			<psa03 value="0.240444618366592" flag="0"/>
			<psa10 value="0.0203836544911522" flag="0"/>
			<psa30 value="0.00168051728058229" flag="0"/>
		</comp>
	</station>
	<station code="GOMA" name="GOMA" netid="KO" source="Bogazici University Kandilli Observatory And Earthquake Research Institute (KOERI)" insttype="" lat="38.7077" lon="27.9175" esm:processing="manual (Paolucci et al 2011)" esm:quality="best">
		<comp name="--.HNE" depth="0.0">
			<acc value="0.252558874900216" flag="0"/>
			<vel value="0.143199775727843" flag="0"/>
			<psa03 value="0.732340437927872" flag="0"/>
			<psa10 value="0.0501859908975169" flag="0"/>
			<psa30 value="0.0051726465071384" flag="0"/>
		</comp>
		<comp name="--.HNN" depth="0.0">
			<acc value="0.169930263299345" flag="0"/>
			<vel value="0.134203573384945" flag="0"/>
			<psa03 value="0.49189581956128" flag="0"/>
			<psa10 value="0.075917233923685" flag="0"/>
			<psa30 value="0.00548718421966485" flag="0"/>
		</comp>
		<comp name="--.HNZ" depth="0.0">
			<acc value="0.134405989123554" flag="0"/>
			<vel value="0.0666621321565676" flag="0"/>
			<psa03 value="0.355611058202024" flag="0"/>
			<psa10 value="0.0316868781491262" flag="0"/>
			<psa30 value="0.00300801855094641" flag="0"/>
		</comp>
	</station>
	<station code="GONE" name="GONE" netid="KO" source="Bogazici University Kandilli Observatory And Earthquake Research Institute (KOERI)" insttype="" lat="40.0466" lon="27.686" esm:processing="manual (Paolucci et al 2011)" esm:quality="best">
		<comp name="--.HNE" depth="0.0">
			<acc value="0.161416328776414" flag="0"/>
			<vel value="0.0846116972469183" flag="0"/>
			<psa03 value="0.525362990111747" flag="0"/>
			<psa10 value="0.0628502724808187" flag="0"/>
			<psa30 value="0.005110454839939" flag="0"/>
		</comp>
		<comp name="--.HNN" depth="0.0">
			<acc value="0.217301099951912" flag="0"/>
			<vel value="0.143632307094957" flag="0"/>
			<psa03 value="0.626480377069041" flag="0"/>
			<psa10 value="0.0894150628162852" flag="0"/>
			<psa30 value="0.00876678796478417" flag="0"/>
		</comp>
		<comp name="--.HNZ" depth="0.0">
			<acc value="0.13237300580884" flag="0"/>
			<vel value="0.0404308557930734" flag="0"/>
			<psa03 value="0.238162765829061" flag="0"/>
			<psa10 value="0.0483376903421161" flag="0"/>
			<psa30 value="0.00286260637943703" flag="0"/>
		</comp>
	</station>
	<station code="GORD" name="GORD" netid="KO" source="Bogazici University Kandilli Observatory And Earthquake Research Institute (KOERI)" insttype="" lat="38.9088" lon="28.1769" esm:processing="automatic (Paolucci et al 2011)" esm:quality="best">
		<comp name="--.HNE" depth="0.0">
			<acc value="0.0680129011036212" flag="0"/>
			<vel value="0.049904451661508" flag="0"/>
			<psa03 value="0.141698568360067" flag="0"/>
			<psa10 value="0.0790782708212659" flag="0"/>
			<psa30 value="0.00892696506447758" flag="0"/>
		</comp>
		<comp name="--.HNN" depth="0.0">
			<acc value="0.0745122368211762" flag="0"/>
			<vel value="0.0468123547848778" flag="0"/>
			<psa03 value="0.227335151827439" flag="0"/>
			<psa10 value="0.0762434046099322" flag="0"/>
			<psa30 value="0.00492566952660554" flag="0"/>
		</comp>
		<comp name="--.HNZ" depth="0.0">
			<acc value="0.0532022535928079" flag="0"/>
			<vel value="0.0304992818878848" flag="0"/>
			<psa03 value="0.168633376744266" flag="0"/>
			<psa10 value="0.0729736441502689" flag="0"/>
			<psa30 value="0.00380979889354584" flag="0"/>
		</comp>
	</station>
	<station code="IZI" name="IZI" netid="KO" source="Bogazici University Kandilli Observatory And Earthquake Research Institute (KOERI)" insttype="" lat="40.3483" lon="29.4612" esm:processing="manual (Paolucci et al 2011)" esm:quality="best">
		<comp name="--.HNE" depth="0.0">
			<acc value="0.0582419361423536" flag="0"/>
			<vel value="0.0272110677656809" flag="0"/>
			<psa03 value="0.237983797002587" flag="0"/>
			<psa10 value="0.029198316617018" flag="0"/>
			<psa30 value="0.00203308586873427" flag="0"/>
		</comp>
		<comp name="--.HNN" depth="0.0">
			<acc value="0.0388036023506424" flag="0"/>
			<vel value="0.0237436666535909" flag="0"/>
			<psa03 value="0.086262974360028" flag="0"/>
			<psa10 value="0.0300681051136772" flag="0"/>
			<psa30 value="0.00254896351104294" flag="0"/>
		</comp>
		<comp name="--.HNZ" depth="0.0">
			<acc value="0.0424288227832317" flag="0"/>
			<vel value="0.0315012490178824" flag="0"/>
			<psa03 value="0.125904569423817" flag="0"/>
			<psa10 value="0.0301808554743552" flag="0"/>
			<psa30 value="0.00189438502821763" flag="0"/>
		</comp>
	</station>
	<station code="ODEM" name="ODEM" netid="KO" source="Bogazici University Kandilli Observatory And Earthquake Research Institute (KOERI)" insttype="" lat="38.2762" lon="28.0747" esm:processing="automatic (Paolucci et al 2011)" esm:quality="best">
		<comp name="--.HNE" depth="0.0">
			<acc value="0.0896364292570453" flag="0"/>
			<vel value="0.0547376038787942" flag="0"/>
			<psa03 value="0.17476305905097" flag="0"/>
			<psa10 value="0.066901231868037" flag="0"/>
			<psa30 value="0.00534758853501584" flag="0"/>
		</comp>
		<comp name="--.HNN" depth="0.0">
			<acc value="0.0524412618026637" flag="0"/>
			<vel value="0.0393606377196136" flag="0"/>
			<psa03 value="0.161608850305198" flag="0"/>
			<psa10 value="0.0299553547529991" flag="0"/>
			<psa30 value="0.00324783677842035" flag="0"/>
		</comp>
		<comp name="--.HNZ" depth="0.0">
			<acc value="0.0706963619590813" flag="0"/>
			<vel value="0.0349424897378427" flag="0"/>
			<psa03 value="0.155792363444822" flag="0"/>
			<psa10 value="0.0331083380533887" flag="0"/>
			<psa30 value="0.00177671302481157" flag="0"/>
		</comp>
	</station>
	<station code="ORLT" name="ORLT" netid="KO" source="Bogazici University Kandilli Observatory And Earthquake Research Institute (KOERI)" insttype="" lat="40.0452" lon="28.8914" esm:processing="manual (Paolucci et al 2011)" esm:quality="good">
		<comp name="--.HNE" depth="0.0">
			<acc value="0.380843062407047" flag="0"/>
			<vel value="0.18630971526111" flag="0"/>
			<psa03 value="1.12522175424292" flag="0"/>
			<psa10 value="0.168102734173774" flag="0"/>
			<psa30 value="0.00898781446547843" flag="0"/>
		</comp>
		<comp name="--.HNN" depth="0.0">
			<acc value="0.470261641990449" flag="0"/>
			<vel value="0.2318901688666" flag="0"/>
			<psa03 value="2.05178811110071" flag="0"/>
			<psa10 value="0.103033695666755" flag="0"/>
			<psa30 value="0.00795024269400071" flag="0"/>
		</comp>
		<comp name="--.HNZ" depth="0.0">
			<acc value="0.174399379307486" flag="0"/>
			<vel value="0.0811195949321476" flag="0"/>
			<psa03 value="0.370241759766199" flag="0"/>
			<psa10 value="0.0422934656500537" flag="0"/>
			<psa30 value="0.00277670134272994" flag="0"/>
		</comp>
	</station>
	<station code="SHAP" name="SHAP" netid="KO" source="Bogazici University Kandilli Observatory And Earthquake Research Institute (KOERI)" insttype="" lat="39.0231" lon="29.222" esm:processing="manual (Paolucci et al 2011)" esm:quality="best">
		<comp name="--.HNE" depth="0.0">
			<acc value="0.0902817365359477" flag="0"/>
			<vel value="0.0325647692250993" flag="0"/>
			<psa03 value="0.191944066392386" flag="0"/>
			<psa10 value="0.0200896981936702" flag="0"/>
			<psa30 value="0.00179774186192216" flag="0"/>
		</comp>
		<comp name="--.HNN" depth="0.0">
			<acc value="0.0909524026906336" flag="0"/>
			<vel value="0.0323065515722024" flag="0"/>
			<psa03 value="0.176686973935555" flag="0"/>
			<psa10 value="0.0124267004661588" flag="0"/>
			<psa30 value="0.00186261806151865" flag="0"/>
		</comp>
		<comp name="--.HNZ" depth="0.0">
			<acc value="0.118211861631906" flag="0"/>
			<vel value="0.0285743403141481" flag="0"/>
			<psa03 value="0.126665186936327" flag="0"/>
			<psa10 value="0.0251352768340127" flag="0"/>
			<psa30 value="0.00161922045751525" flag="0"/>
		</comp>
	</station>
	<station code="SMAA" name="SMAA" netid="KO" source="Bogazici University Kandilli Observatory And Earthquake Research Institute (KOERI)" insttype="" lat="39.1005" lon="28.9805" esm:processing="manual (Paolucci et al 2011)" esm:quality="good">
		<comp name="--.HNE" depth="0.0">
			<acc value="0.12501530605804" flag="0"/>
			<vel value="0.0903206921972626" flag="0"/>
			<psa03 value="0.308765967872693" flag="0"/>
			<psa10 value="0.104426967980848" flag="0"/>
			<psa30 value="0.00941644480488147" flag="0"/>
		</comp>
		<comp name="--.HNN" depth="0.0">
			<acc value="0.129944957880932" flag="0"/>
			<vel value="0.0917325965507468" flag="0"/>
			<psa03 value="0.414536544318288" flag="0"/>
			<psa10 value="0.0833829185200098" flag="0"/>
			<psa30 value="0.00627777901060971" flag="0"/>
		</comp>
		<comp name="--.HNZ" depth="0.0">
			<acc value="0.132384430019192" flag="0"/>
			<vel value="0.060213101611604" flag="0"/>
			<psa03 value="0.170109869562669" flag="0"/>
			<psa10 value="0.0503148484525775" flag="0"/>
			<psa30 value="0.00281741675075257" flag="0"/>
		</comp>
	</station>
	<station code="SOMA" name="SOMA" netid="KO" source="Bogazici University Kandilli Observatory And Earthquake Research Institute (KOERI)" insttype="" lat="39.1564" lon="27.5341" esm:processing="automatic (Paolucci et al 2011)" esm:quality="best">
		<comp name="--.HNE" depth="0.0">
			<acc value="0.834789493229577" flag="0"/>
			<vel value="0.280448517306124" flag="0"/>
			<psa03 value="1.19358784595564" flag="0"/>
			<psa10 value="0.140519163793609" flag="0"/>
			<psa30 value="0.00832428754132946" flag="0"/>
		</comp>
		<comp name="--.HNN" depth="0.0">
			<acc value="0.86004318199414" flag="0"/>
			<vel value="0.25101577856147" flag="0"/>
			<psa03 value="1.2819089618201" flag="0"/>
			<psa10 value="0.15926793805493" flag="0"/>
			<psa30 value="0.0091153297543405" flag="0"/>
		</comp>
		<comp name="--.HNZ" depth="0.0">
			<acc value="0.564381520216202" flag="0"/>
			<vel value="0.153908788946119" flag="0"/>
			<psa03 value="0.390823174810604" flag="0"/>
			<psa10 value="0.0952579475785653" flag="0"/>
			<psa30 value="0.00519009596771952" flag="0"/>
		</comp>
	</station>
	<station code="SUSR" name="SUSR" netid="KO" source="Bogazici University Kandilli Observatory And Earthquake Research Institute (KOERI)" insttype="" lat="39.9627" lon="28.0835" esm:processing="automatic (Paolucci et al 2011)" esm:quality="best">
		<comp name="--.HNE" depth="0.0">
			<acc value="0.219943990095004" flag="0"/>
			<vel value="0.0616596094182651" flag="0"/>
			<psa03 value="0.405990782854198" flag="0"/>
			<psa10 value="0.0161192747783648" flag="0"/>
			<psa30 value="0.00184695828920226" flag="0"/>
		</comp>
		<comp name="--.HNN" depth="0.0">
			<acc value="0.219371012608582" flag="0"/>
			<vel value="0.0616368451509894" flag="0"/>
			<psa03 value="0.355521573788787" flag="0"/>
			<psa10 value="0.0282399385512546" flag="0"/>
			<psa30 value="0.00217536608578037" flag="0"/>
		</comp>
		<comp name="--.HNZ" depth="0.0">
			<acc value="0.243949289063347" flag="0"/>
			<vel value="0.0627812385905875" flag="0"/>
			<psa03 value="0.320130488353734" flag="0"/>
			<psa10 value="0.0171340280244672" flag="0"/>
			<psa30 value="0.00195791896161557" flag="0"/>
		</comp>
	</station>
	<station code="UKOP" name="UKOP" netid="KO" source="Bogazici University Kandilli Observatory And Earthquake Research Institute (KOERI)" insttype="" lat="41.1288" lon="26.6323" esm:processing="manual (Paolucci et al 2011)" esm:quality="good">
		<comp name="--.HNE" depth="0.0">
			<acc value="0.0615930365917501" flag="0"/>
