<?xml version="1.0" encoding="UTF-8" standalone="yes"?>
<!DOCTYPE earthquake SYSTEM "stationlist.dtd">
<stationlist created="" xmlns="ch.ethz.sed.shakemap.usgs.xml">
  <station code="AKS" name="AKS" netid="KO" source="KOERI" insttype="100" lat="38.8785" lon="27.8129">
    <comp name="--.HNE">
      <acc value="0.2589458723" flag="0"/>
      <vel value="0.0873625447" flag="0"/>
      <psa03 value="0.4235488312" flag="0"/>
      <psa10 value="0.0434688547" flag="0"/>
      <psa30 value="0.0041570873" flag="0"/>
    </comp>
    <comp name="--.HNN">
      <acc value="0.3120792835" flag="0"/>
      <vel value="0.0937004116" flag="0"/>
      <psa03 value="0.4835169910" flag="0"/>
      <psa10 value="0.0479248737" flag="0"/>
      <psa30 value="0.0028366602" flag="0"/>
    </comp>
    <comp name="--.HNZ">
      <acc value="0.1635965571" flag="0"/>
      <vel value="0.0331580362" flag="0"/>
      <psa03 value="0.1549058327" flag="0"/>
      <psa10 value="0.0286656625" flag="0"/>
      <psa30 value="0.0026344562" flag="0"/>
    </comp>
  </station>
  <station code="BALB" name="BALB" netid="KO" source="KOERI" insttype="120s," lat="39.64" lon="27.88">
    <comp name="--.HHE">
      <acc value="0.3781856975" flag="0"/>
      <vel value="0.1749859462" flag="0"/>
      <psa03 value="0.8252482266" flag="0"/>
      <psa10 value="0.1681479395" flag="0"/>
      <psa30 value="0.0118742412" flag="0"/>
    </comp>
    <comp name="--.HHN">
      <acc value="0.4324633801" flag="0"/>
      <vel value="0.1859588523" flag="0"/>
      <psa03 value="1.2497822991" flag="0"/>
      <psa10 value="0.0825732333" flag="0"/>
      <psa30 value="0.0055105983" flag="0"/>
    </comp>
    <comp name="--.HHZ">
      <acc value="0.2051134390" flag="0"/>
      <vel value="0.0913118703" flag="0"/>
      <psa03 value="0.5254682448" flag="0"/>
      <psa10 value="0.0485533169" flag="0"/>
      <psa30 value="0.0038442402" flag="0"/>
    </comp>
  </station>
  <station code="DST" name="DST" netid="KO" source="KOERI" insttype="100" lat="39.6041" lon="28.6267">
    <comp name="--.HNN">
      <acc value="0.4473036368" flag="0"/>
      <vel value="0.1263579119" flag="0"/>
      <psa03 value="0.6067863113" flag="0"/>
      <psa10 value="0.0528233345" flag="0"/>
      <psa30 value="0.0041335714" flag="0"/>
    </comp>
    <comp name="--.HNE">
      <acc value="0.4519496721" flag="0"/>
      <vel value="0.0990435802" flag="0"/>
      <psa03 value="0.5877026995" flag="0"/>
      <psa10 value="0.0518062729" flag="0"/>
      <psa30 value="0.0033226073" flag="0"/>
    </comp>
    <comp name="--.HNZ">
      <acc value="0.3816421596" flag="0"/>
      <vel value="0.1356937527" flag="0"/>
      <psa03 value="0.3386263528" flag="0"/>
      <psa10 value="0.0767802379" flag="0"/>
      <psa30 value="0.0047003853" flag="0"/>
    </comp>
  </station>
  <station code="GOMA" name="GOMA" netid="KO" source="KOERI" insttype="100" lat="38.7077" lon="27.9175">
    <comp name="--.HNE">
      <acc value="0.2530633688" flag="0"/>
      <vel value="0.1430945466" flag="0"/>
      <psa03 value="0.7340008121" flag="0"/>
      <psa10 value="0.0500980313" flag="0"/>
      <psa30 value="0.0051583672" flag="0"/>
    </comp>
    <comp name="--.HNN">
      <acc value="0.1699740931" flag="0"/>
      <vel value="0.1344484547" flag="0"/>
      <psa03 value="0.4922551577" flag="0"/>
      <psa10 value="0.0759248353" flag="0"/>
      <psa30 value="0.0051271718" flag="0"/>
    </comp>
    <comp name="--.HNZ">
      <acc value="0.1339551600" flag="0"/>
      <vel value="0.0668611901" flag="0"/>
      <psa03 value="0.3539938942" flag="0"/>
      <psa10 value="0.0314584242" flag="0"/>
      <psa30 value="0.0031950936" flag="0"/>
    </comp>
  </station>
  <station code="GONE" name="GONE" netid="KO" source="KOERI" insttype="100" lat="40.0466" lon="27.686">
    <comp name="--.HNE">
      <acc value="0.1636453987" flag="0"/>
      <vel value="0.0841366104" flag="0"/>
      <psa03 value="0.5299664227" flag="0"/>
      <psa10 value="0.0627577917" flag="0"/>
      <psa30 value="0.0049803247" flag="0"/>
    </comp>
    <comp name="--.HNN">
      <acc value="0.2166745010" flag="0"/>
      <vel value="0.1424186600" flag="0"/>
      <psa03 value="0.6215121112" flag="0"/>
      <psa10 value="0.0891750752" flag="0"/>
      <psa30 value="0.0089233678" flag="0"/>
    </comp>
    <comp name="--.HNZ">
      <acc value="0.1396298746" flag="0"/>
      <vel value="0.0392368409" flag="0"/>
      <psa03 value="0.2381700102" flag="0"/>
      <psa10 value="0.0481755430" flag="0"/>
      <psa30 value="0.0028374645" flag="0"/>
    </comp>
  </station>
  <station code="ORLT" name="ORLT" netid="KO" source="KOERI" insttype="100" lat="40.0452" lon="28.8914">
    <comp name="--.HNE">
      <acc value="0.3817686615" flag="0"/>
      <vel value="0.1864598388" flag="0"/>
      <psa03 value="1.1197795175" flag="0"/>
      <psa10 value="0.1677405129" flag="0"/>
      <psa30 value="0.0089188028" flag="0"/>
    </comp>
    <comp name="--.HNN">
      <acc value="0.4730243333" flag="0"/>
      <vel value="0.2315410824" flag="0"/>
      <psa03 value="2.0399298061" flag="0"/>
      <psa10 value="0.1025797879" flag="0"/>
      <psa30 value="0.0082862674" flag="0"/>
    </comp>
    <comp name="--.HNZ">
      <acc value="0.1749799541" flag="0"/>
      <vel value="0.0806216371" flag="0"/>
      <psa03 value="0.3701583707" flag="0"/>
      <psa10 value="0.0421600351" flag="0"/>
      <psa30 value="0.0027532606" flag="0"/>
    </comp>
  </station>
  <station code="SHAP" name="SHAP" netid="KO" source="KOERI" insttype="100" lat="39.0231" lon="29.222">
    <comp name="--.HNE">
      <acc value="0.0904910481" flag="0"/>
      <vel value="0.0321279331" flag="0"/>
      <psa03 value="0.1898263347" flag="0"/>
      <psa10 value="0.0200270338" flag="0"/>
      <psa30 value="0.0016504015" flag="0"/>
    </comp>
    <comp name="--.HNN">
      <acc value="0.0916301414" flag="0"/>
      <vel value="0.0318497455" flag="0"/>
      <psa03 value="0.1748281904" flag="0"/>
      <psa10 value="0.0123736445" flag="0"/>
      <psa30 value="0.0016720490" flag="0"/>
    </comp>
    <comp name="--.HNZ">
      <acc value="0.1190279060" flag="0"/>
      <vel value="0.0283424565" flag="0"/>
      <psa03 value="0.1263158286" flag="0"/>
      <psa10 value="0.0251347320" flag="0"/>
      <psa30 value="0.0016077047" flag="0"/>
    </comp>
  </station>
  <station code="SMAA" name="SMAA" netid="KO" source="KOERI" insttype="100" lat="39.1005" lon="28.9805">
    <comp name="--.HNN">
      <acc value="0.1290651838" flag="0"/>
      <vel value="0.0920900304" flag="0"/>
      <psa03 value="0.4187103223" flag="0"/>
      <psa10 value="0.0831697233" flag="0"/>
      <psa30 value="0.0058201762" flag="0"/>
    </comp>
    <comp name="--.HNZ">
      <acc value="0.1346958243" flag="0"/>
      <vel value="0.0599767088" flag="0"/>
      <psa03 value="0.1675128877" flag="0"/>
      <psa10 value="0.0503801041" flag="0"/>
      <psa30 value="0.0027446724" flag="0"/>
    </comp>
    <comp name="--.HNE">
      <acc value="0.1256065099" flag="0"/>
      <vel value="0.0902360119" flag="0"/>
      <psa03 value="0.3169268482" flag="0"/>
      <psa10 value="0.1043983578" flag="0"/>
      <psa30 value="0.0081540126" flag="0"/>
    </comp>
  </station>
</stationlist>
