<?xml version="1.0" encoding="UTF-8" standalone="yes"?>
<!DOCTYPE earthquake SYSTEM "stationlist.dtd">
<stationlist created="" xmlns="ch.ethz.sed.shakemap.usgs.xml">
  <station code="ZKR" name="ZKR" netid="GE" insttype="STS-2/N" lat="35.1147" lon="26.2169">
    <comp name="--.HHE">
      <acc value="0.0925929958" flag="0"/>
      <vel value="0.0299547648" flag="0"/>
      <psa03 value="0.2196985871" flag="0"/>
      <psa10 value="0.0141870271" flag="0"/>
      <psa30 value="0.0015559312" flag="0"/>
    </comp>
    <comp name="--.HHN">
      <acc value="0.0367654972" flag="0"/>
      <vel value="0.0121288665" flag="0"/>
      <psa03 value="0.0857644917" flag="0"/>
      <psa10 value="0.0068747360" flag="0"/>
      <psa30 value="0.0005037480" flag="0"/>
    </comp>
    <comp name="--.HHZ">
      <acc value="0.0696819972" flag="0"/>
      <vel value="0.0167597166" flag="0"/>
      <psa03 value="0.0839562727" flag="0"/>
      <psa10 value="0.0121738740" flag="0"/>
      <psa30 value="0.0009741521" flag="0"/>
    </comp>
  </station>
  <station code="PFKS" name="PFKS" netid="HC" insttype="120" lat="35.0429" lon="25.4733">
    <comp name="--.HHE">
      <acc value="0.0194581525" flag="0"/>
      <vel value="0.0084249645" flag="0"/>
      <psa03 value="0.0746996533" flag="0"/>
      <psa10 value="0.0082509644" flag="0"/>
      <psa30 value="0.0004977443" flag="0"/>
    </comp>
    <comp name="--.HHN">
      <acc value="0.0210825052" flag="0"/>
      <vel value="0.0133282235" flag="0"/>
      <psa03 value="0.0618578072" flag="0"/>
      <psa10 value="0.0095890571" flag="0"/>
      <psa30 value="0.0005989413" flag="0"/>
    </comp>
    <comp name="--.HHZ">
      <acc value="0.0111668339" flag="0"/>
      <vel value="0.0046471403" flag="0"/>
      <psa03 value="0.0301975241" flag="0"/>
      <psa10 value="0.0048870544" flag="0"/>
      <psa30 value="0.0002763217" flag="0"/>
    </comp>
  </station>
  <station code="STIA" name="STIA" netid="HC" insttype="120" lat="35.2021" lon="26.0909">
    <comp name="--.HHE">
      <acc value="0.0621595275" flag="0"/>
      <vel value="0.0292803865" flag="0"/>
      <psa03 value="0.0976968810" flag="0"/>
      <psa10 value="0.0285679638" flag="0"/>
      <psa30 value="0.0014164862" flag="0"/>
    </comp>
    <comp name="--.HHN">
      <acc value="0.0580862556" flag="0"/>
      <vel value="0.0243762472" flag="0"/>
      <psa03 value="0.1109125617" flag="0"/>
      <psa10 value="0.0232917470" flag="0"/>
      <psa30 value="0.0013669799" flag="0"/>
    </comp>
    <comp name="--.HHZ">
      <acc value="0.0589041554" flag="0"/>
      <vel value="0.0216935734" flag="0"/>
      <psa03 value="0.1178785121" flag="0"/>
      <psa10 value="0.0125573607" flag="0"/>
      <psa30 value="0.0009829148" flag="0"/>
    </comp>
  </station>
  <station code="KSS1" name="KSS1" netid="HI" insttype="CMG-5TD,ACCELEROMETER,GURALP" lat="35.4189" lon="26.9207">
    <comp name="--.HNZ">
      <acc value="0.1054918696" flag="0"/>
      <vel value="0.0365867793" flag="0"/>
      <psa03 value="0.1113072638" flag="0"/>
      <psa10 value="0.0228735519" flag="0"/>
      <psa30 value="0.0026071455" flag="0"/>
    </comp>
    <comp name="--.HNE">
      <acc value="0.1463619643" flag="0"/>
      <vel value="0.0509130265" flag="0"/>
      <psa03 value="0.3025355002" flag="0"/>
      <psa10 value="0.0188598166" flag="0"/>
      <psa30 value="0.0018765596" flag="0"/>
    </comp>
    <comp name="--.HNN">
      <acc value="0.2982148355" flag="0"/>
      <vel value="0.1151298084" flag="0"/>
      <psa03 value="0.8495164158" flag="0"/>
      <psa10 value="0.0552288098" flag="0"/>
      <psa30 value="0.0045750891" flag="0"/>
    </comp>
  </station>
  <station code="KSTE" name="KSTE" netid="HL" insttype="60" lat="35.1801" lon="25.3372">
    <comp name="--.HHE">
      <acc value="0.0061646120" flag="0"/>
      <vel value="0.0042945155" flag="0"/>
      <psa03 value="0.0163519648" flag="0"/>
      <psa10 value="0.0080349529" flag="0"/>
      <psa30 value="0.0004366176" flag="0"/>
    </comp>
    <comp name="--.HHN">
      <acc value="0.1841212765" flag="0"/>
      <vel value="0.0225220206" flag="0"/>
      <psa03 value="0.0520040161" flag="0"/>
      <psa10 value="0.0138282417" flag="0"/>
      <psa30 value="0.0042352231" flag="0"/>
    </comp>
    <comp name="--.HHZ">
      <acc value="0.0092439054" flag="0"/>
      <vel value="0.0034438585" flag="0"/>
      <psa03 value="0.0158330603" flag="0"/>
      <psa10 value="0.0048508675" flag="0"/>
      <psa30 value="0.0005779544" flag="0"/>
    </comp>
  </station>
  <station code="ZKR" name="ZKR" netid="HL" insttype="120" lat="35.1147" lon="26.2169">
    <comp name="--.HHZ">
      <acc value="0.0735582096" flag="0"/>
      <vel value="0.0165707939" flag="0"/>
      <psa03 value="0.0815778521" flag="0"/>
      <psa10 value="0.0120711237" flag="0"/>
      <psa30 value="0.0009732031" flag="0"/>
    </comp>
    <comp name="--.HHN">
      <acc value="0.0359422134" flag="0"/>
      <vel value="0.0118434758" flag="0"/>
      <psa03 value="0.0833690693" flag="0"/>
      <psa10 value="0.0068247172" flag="0"/>
      <psa30 value="0.0005013006" flag="0"/>
    </comp>
    <comp name="--.HHE">
      <acc value="0.0904119126" flag="0"/>
      <vel value="0.0293672894" flag="0"/>
      <psa03 value="0.2132799013" flag="0"/>
      <psa10 value="0.0140998902" flag="0"/>
      <psa30 value="0.0015408024" flag="0"/>
    </comp>
  </station>
</stationlist>
