<?xml version="1.0" encoding="UTF-8" standalone="yes"?>
<!DOCTYPE earthquake SYSTEM "stationlist.dtd">
<stationlist created="" xmlns="ch.ethz.sed.shakemap.usgs.xml">
  <station code="IMMV" name="IMMV" netid="GE" insttype="STS-2/N" commtype="DIG" lat="35.4606" lon="23.9811">
    <comp name="--.HHE">
      <acc value="0.0687381962" flag="0"/>
      <vel value="0.0386135167" flag="0"/>
      <psa03 value="0.2635757310" flag="0"/>
      <psa10 value="0.0314897968" flag="0"/>
      <psa30 value="0.0017272430" flag="0"/>
    </comp>
    <comp name="--.HHN">
      <acc value="0.0739223047" flag="0"/>
      <vel value="0.0399762293" flag="0"/>
      <psa03 value="0.3829353592" flag="0"/>
      <psa10 value="0.0196689376" flag="0"/>
      <psa30 value="0.0011269150" flag="0"/>
    </comp>
    <comp name="--.HHZ">
      <acc value="0.0458828629" flag="0"/>
      <vel value="0.0266062117" flag="0"/>
      <psa03 value="0.1487313559" flag="0"/>
      <psa10 value="0.0184606561" flag="0"/>
      <psa30 value="0.0009703356" flag="0"/>
    </comp>
  </station>
</stationlist>
