<?xml version="1.0" encoding="UTF-8" standalone="yes"?>
<!DOCTYPE earthquake SYSTEM "stationlist.dtd">
<stationlist created="" xmlns="ch.ethz.sed.shakemap.usgs.xml">
  <station code="IMMV" name="IMMV" netid="GE" insttype="STS-2/N" commtype="DIG" lat="35.4606" lon="23.9811">
    <comp name="--.HHE">
      <acc value="0.0687381954" flag="0"/>
      <vel value="0.0386135169" flag="0"/>
      <psa03 value="0.2635757310" flag="0"/>
      <psa10 value="0.0314897969" flag="0"/>
      <psa30 value="0.0017272118" flag="0"/>
    </comp>
    <comp name="--.HHZ">
      <acc value="0.0458828646" flag="0"/>
      <vel value="0.0266062116" flag="0"/>
      <psa03 value="0.1487313559" flag="0"/>
      <psa10 value="0.0184606560" flag="0"/>
      <psa30 value="0.0009703534" flag="0"/>
    </comp>
    <comp name="--.HHN">
      <acc value="0.0739223049" flag="0"/>
      <vel value="0.0399762302" flag="0"/>
      <psa03 value="0.3829353592" flag="0"/>
      <psa10 value="0.0196689376" flag="0"/>
      <psa30 value="0.0011268858" flag="0"/>
    </comp>
  </station>
</stationlist>
