<?xml version="1.0" encoding="UTF-8" standalone="yes"?>
<!DOCTYPE earthquake SYSTEM "stationlist.dtd">
<stationlist created="" xmlns="ch.ethz.sed.shakemap.usgs.xml">
  <station code="BLY" name="BLY" netid="MN" insttype="" lat="44.7488" lon="17.1839">
    <comp name="--.HHE">
      <acc value="0.2663155429" flag="0"/>
      <vel value="0.1687661002" flag="0"/>
      <psa03 value="0.8595087168" flag="0"/>
      <psa10 value="0.1286139131" flag="0"/>
      <psa30 value="0.0080890791" flag="0"/>
    </comp>
    <comp name="--.HHN">
      <acc value="0.2120128702" flag="0"/>
      <vel value="0.1015013683" flag="0"/>
      <psa03 value="0.5817615109" flag="0"/>
      <psa10 value="0.1551107992" flag="0"/>
      <psa30 value="0.0067874252" flag="0"/>
    </comp>
    <comp name="--.HHZ">
      <acc value="0.1527396356" flag="0"/>
      <vel value="0.0770138620" flag="0"/>
      <psa03 value="0.5399457060" flag="0"/>
      <psa10 value="0.0722015093" flag="0"/>
      <psa30 value="0.0056922369" flag="0"/>
    </comp>
  </station>
  <station code="BH02A" name="BH02A" netid="Y5" insttype="STS2_gen3" lat="43.8746" lon="18.4241">
    <comp name="--.HH1">
      <acc value="0.0976360793" flag="0"/>
      <vel value="0.0401975292" flag="0"/>
      <psa03 value="0.1639773261" flag="0"/>
      <psa10 value="0.0580177347" flag="0"/>
      <psa30 value="0.0158834950" flag="0"/>
    </comp>
    <comp name="--.HH2">
      <acc value="0.0827080062" flag="0"/>
      <vel value="0.0376363151" flag="0"/>
      <psa03 value="0.0896474661" flag="0"/>
      <psa10 value="0.0672115302" flag="0"/>
      <psa30 value="0.0176843887" flag="0"/>
    </comp>
    <comp name="--.HHZ">
      <acc value="0.1000709076" flag="0"/>
      <vel value="0.0358345004" flag="0"/>
      <psa03 value="0.1411905335" flag="0"/>
      <psa10 value="0.0374835420" flag="0"/>
      <psa30 value="0.0082180849" flag="0"/>
    </comp>
  </station>
  <station code="BH03A" name="BH03A" netid="Y5" insttype="STS2_gen3" lat="43.8212" lon="17.6885">
    <comp name="--.HH1">
      <acc value="0.6214909018" flag="0"/>
      <vel value="0.2151662261" flag="0"/>
      <psa03 value="1.3983819756" flag="0"/>
      <psa10 value="0.1876405594" flag="0"/>
      <psa30 value="0.0127720888" flag="0"/>
    </comp>
    <comp name="--.HHZ">
      <acc value="2.5532102647" flag="0"/>
      <vel value="0.2730601826" flag="0"/>
      <psa03 value="0.6768837444" flag="0"/>
      <psa10 value="0.1536751339" flag="0"/>
      <psa30 value="0.0197491826" flag="0"/>
    </comp>
    <comp name="--.HH2">
      <acc value="3.5635239477" flag="0"/>
      <vel value="0.4095589890" flag="0"/>
      <psa03 value="1.5770318810" flag="0"/>
      <psa10 value="0.3841041611" flag="0"/>
      <psa30 value="0.0319871070" flag="0"/>
    </comp>
  </station>
  <station code="BH06A" name="BH06A" netid="Y5" insttype="STS2_gen3" lat="43.5022" lon="18.4463">
    <comp name="--.HHZ">
      <acc value="0.0996742946" flag="0"/>
      <vel value="0.0531485686" flag="0"/>
      <psa03 value="0.3730247649" flag="0"/>
      <psa10 value="0.0526386365" flag="0"/>
      <psa30 value="0.0056206644" flag="0"/>
    </comp>
    <comp name="--.HH2">
      <acc value="0.1506420379" flag="0"/>
      <vel value="0.0550443686" flag="0"/>
      <psa03 value="0.3572879845" flag="0"/>
      <psa10 value="0.0760822642" flag="0"/>
      <psa30 value="0.0080698734" flag="0"/>
    </comp>
    <comp name="--.HH1">
      <acc value="0.1943413978" flag="0"/>
      <vel value="0.0861492382" flag="0"/>
      <psa03 value="0.5117249813" flag="0"/>
      <psa10 value="0.0519832229" flag="0"/>
      <psa30 value="0.0040158041" flag="0"/>
    </comp>
  </station>
  <station code="BH07A" name="BH07A" netid="Y5" insttype="STS2_gen3" lat="43.7511" lon="18.0361">
    <comp name="--.HH2">
      <acc value="0.4523314961" flag="0"/>
      <vel value="0.1060367422" flag="0"/>
      <psa03 value="0.5416160312" flag="0"/>
      <psa10 value="0.1196925168" flag="0"/>
      <psa30 value="0.0096392351" flag="0"/>
    </comp>
    <comp name="--.HHZ">
      <acc value="0.3130747171" flag="0"/>
      <vel value="0.0845517270" flag="0"/>
      <psa03 value="0.4794365836" flag="0"/>
      <psa10 value="0.0718875431" flag="0"/>
      <psa30 value="0.0107637450" flag="0"/>
    </comp>
    <comp name="--.HH1">
      <acc value="0.6251690990" flag="0"/>
      <vel value="0.1525432887" flag="0"/>
      <psa03 value="0.4925235001" flag="0"/>
      <psa10 value="0.0616879881" flag="0"/>
      <psa30 value="0.0071632030" flag="0"/>
    </comp>
  </station>
  <station code="BH09A" name="BH09A" netid="Y5" insttype="STS2_gen3" lat="44.7856" lon="16.6156">
    <comp name="--.HH1">
      <acc value="0.1895352472" flag="0"/>
      <vel value="0.1151057956" flag="0"/>
      <psa03 value="0.5768872253" flag="0"/>
      <psa10 value="0.1118883325" flag="0"/>
      <psa30 value="0.0125381871" flag="0"/>
    </comp>
    <comp name="--.HHZ">
      <acc value="0.1273779691" flag="0"/>
      <vel value="0.1450128367" flag="0"/>
      <psa03 value="0.4619322730" flag="0"/>
      <psa10 value="0.1436270948" flag="0"/>
      <psa30 value="0.0089760249" flag="0"/>
    </comp>
    <comp name="--.HH2">
      <acc value="0.2562925503" flag="0"/>
      <vel value="0.2119949925" flag="0"/>
      <psa03 value="0.7392334190" flag="0"/>
      <psa10 value="0.2013757400" flag="0"/>
      <psa30 value="0.0108800437" flag="0"/>
    </comp>
  </station>
  <station code="BH10A" name="BH10A" netid="Y5" insttype="STS2_gen3" lat="44.0685" lon="17.1657">
    <comp name="--.HH2">
      <acc value="0.4095925978" flag="0"/>
      <vel value="0.1166932554" flag="0"/>
      <psa03 value="0.5246299593" flag="0"/>
      <psa10 value="0.0694557203" flag="0"/>
      <psa30 value="0.0054593497" flag="0"/>
    </comp>
    <comp name="--.HH1">
      <acc value="0.6789192970" flag="0"/>
      <vel value="0.2181498280" flag="0"/>
      <psa03 value="0.6143837335" flag="0"/>
      <psa10 value="0.1068584139" flag="0"/>
      <psa30 value="0.0085234540" flag="0"/>
    </comp>
    <comp name="--.HHZ">
      <acc value="0.1741703940" flag="0"/>
      <vel value="0.0379645616" flag="0"/>
      <psa03 value="0.1719786517" flag="0"/>
      <psa10 value="0.0382054948" flag="0"/>
      <psa30 value="0.0055596200" flag="0"/>
    </comp>
  </station>
  <station code="BH12A" name="BH12A" netid="Y5" insttype="STS2_gen3" lat="44.3931" lon="17.1573">
    <comp name="--.HH1">
      <acc value="1.2302963315" flag="0"/>
      <vel value="0.2362524915" flag="0"/>
      <psa03 value="0.7227620536" flag="0"/>
      <psa10 value="0.0828297916" flag="0"/>
      <psa30 value="0.0070607304" flag="0"/>
    </comp>
    <comp name="--.HH2">
      <acc value="1.1043752832" flag="0"/>
      <vel value="0.2534219115" flag="0"/>
      <psa03 value="0.7753019346" flag="0"/>
      <psa10 value="0.1115125875" flag="0"/>
      <psa30 value="0.0082097543" flag="0"/>
    </comp>
    <comp name="--.HHZ">
      <acc value="0.5792345886" flag="0"/>
      <vel value="0.1402276282" flag="0"/>
      <psa03 value="0.7643401250" flag="0"/>
      <psa10 value="0.1174639964" flag="0"/>
      <psa30 value="0.0074032965" flag="0"/>
    </comp>
  </station>
  <station code="BH13A" name="BH13A" netid="Y5" insttype="STS2_gen2" lat="44.8908" lon="16.3202">
    <comp name="--.HHZ">
      <acc value="0.0342603888" flag="0"/>
      <vel value="0.0332550791" flag="0"/>
      <psa03 value="0.0825384105" flag="0"/>
      <psa10 value="0.0253122147" flag="0"/>
      <psa30 value="0.0058025041" flag="0"/>
    </comp>
    <comp name="--.HH1">
      <acc value="0.0655577751" flag="0"/>
      <vel value="0.0551945208" flag="0"/>
      <psa03 value="0.1275608100" flag="0"/>
      <psa10 value="0.0476647894" flag="0"/>
      <psa30 value="0.0054287757" flag="0"/>
    </comp>
    <comp name="--.HH2">
      <acc value="0.0440092437" flag="0"/>
      <vel value="0.0377149312" flag="0"/>
      <psa03 value="0.1184292356" flag="0"/>
      <psa10 value="0.0359480086" flag="0"/>
      <psa30 value="0.0055838893" flag="0"/>
    </comp>
  </station>
  <station code="BH14A" name="BH14A" netid="Y5" insttype="STS2_gen3" lat="44.5136" lon="17.6572">
    <comp name="--.HH2">
      <acc value="2.7551806969" flag="0"/>
      <vel value="0.2486150657" flag="0"/>
      <psa03 value="0.8661097380" flag="0"/>
      <psa10 value="0.1716806212" flag="0"/>
      <psa30 value="0.0115480763" flag="0"/>
    </comp>
    <comp name="--.HH1">
      <acc value="0.9840327362" flag="0"/>
      <vel value="0.3638324916" flag="0"/>
      <psa03 value="1.2878531531" flag="0"/>
      <psa10 value="0.4171881437" flag="0"/>
      <psa30 value="0.0265222421" flag="0"/>
    </comp>
    <comp name="--.HHZ">
      <acc value="2.1528100018" flag="0"/>
      <vel value="0.1962279548" flag="0"/>
      <psa03 value="1.0921407059" flag="0"/>
      <psa10 value="0.2365733873" flag="0"/>
      <psa30 value="0.0120335973" flag="0"/>
    </comp>
  </station>
  <station code="BH15A" name="BH15A" netid="Y5" insttype="STS2_gen3" lat="45.0581" lon="18.4648">
    <comp name="--.HHZ">
      <acc value="0.2258294741" flag="0"/>
      <vel value="0.0905207375" flag="0"/>
      <psa03 value="0.7355718565" flag="0"/>
      <psa10 value="0.0698773333" flag="0"/>
      <psa30 value="0.0143388669" flag="0"/>
    </comp>
    <comp name="--.HH2">
      <acc value="0.6952610984" flag="0"/>
      <vel value="0.4517651061" flag="0"/>
      <psa03 value="2.2622832608" flag="0"/>
      <psa10 value="0.3224808882" flag="0"/>
      <psa30 value="0.0186498785" flag="0"/>
    </comp>
    <comp name="--.HH1">
      <acc value="0.5139658496" flag="0"/>
      <vel value="0.3714165714" flag="0"/>
      <psa03 value="2.0220882529" flag="0"/>
      <psa10 value="0.2007641405" flag="0"/>
      <psa30 value="0.0276772540" flag="0"/>
    </comp>
  </station>
  <station code="BH16A" name="BH16A" netid="Y5" insttype="STS2_gen2" lat="44.7263" lon="18.0892">
    <comp name="--.HHZ">
      <acc value="0.5866612723" flag="0"/>
      <vel value="0.2005070271" flag="0"/>
      <psa03 value="0.5806973874" flag="0"/>
      <psa10 value="0.2510938965" flag="0"/>
      <psa30 value="0.0159611909" flag="0"/>
    </comp>
    <comp name="--.HH2">
      <acc value="0.5994069349" flag="0"/>
      <vel value="0.2279056222" flag="0"/>
      <psa03 value="0.8273597591" flag="0"/>
      <psa10 value="0.2158132228" flag="0"/>
      <psa30 value="0.0100394739" flag="0"/>
    </comp>
    <comp name="--.HH1">
      <acc value="0.7067539511" flag="0"/>
      <vel value="0.4191875262" flag="0"/>
      <psa03 value="0.8969123440" flag="0"/>
      <psa10 value="0.5580686043" flag="0"/>
      <psa30 value="0.0257988164" flag="0"/>
    </comp>
  </station>
  <station code="BH17A" name="BH17A" netid="Y5" insttype="STS2_gen3" lat="44.3837" lon="18.5514">
    <comp name="--.HHZ">
      <acc value="0.2082832295" flag="0"/>
      <vel value="0.0807574420" flag="0"/>
      <psa03 value="0.4371239065" flag="0"/>
      <psa10 value="0.0892750381" flag="0"/>
      <psa30 value="0.0048911596" flag="0"/>
    </comp>
    <comp name="--.HH1">
      <acc value="0.3047234117" flag="0"/>
      <vel value="0.0961144239" flag="0"/>
      <psa03 value="0.4854237102" flag="0"/>
      <psa10 value="0.1226181327" flag="0"/>
      <psa30 value="0.0070834950" flag="0"/>
    </comp>
    <comp name="--.HH2">
      <acc value="0.3122658774" flag="0"/>
      <vel value="0.0954208942" flag="0"/>
      <psa03 value="0.4871727074" flag="0"/>
      <psa10 value="0.0727199567" flag="0"/>
      <psa30 value="0.0073770614" flag="0"/>
    </comp>
  </station>
  <station code="BH18A" name="BH18A" netid="Y5" insttype="STS2_gen3" lat="44.7704" lon="18.9972">
    <comp name="--.HHZ">
      <acc value="0.1990547713" flag="0"/>
      <vel value="0.1137980920" flag="0"/>
      <psa03 value="0.4806909984" flag="0"/>
      <psa10 value="0.1425081505" flag="0"/>
      <psa30 value="0.0128048123" flag="0"/>
    </comp>
    <comp name="--.HH2">
      <acc value="0.2337980542" flag="0"/>
      <vel value="0.1352922552" flag="0"/>
      <psa03 value="0.6001012519" flag="0"/>
      <psa10 value="0.1590276239" flag="0"/>
      <psa30 value="0.0124061608" flag="0"/>
    </comp>
    <comp name="--.HH1">
      <acc value="0.1305721241" flag="0"/>
      <vel value="0.0810983522" flag="0"/>
      <psa03 value="0.4107379103" flag="0"/>
      <psa10 value="0.1280413839" flag="0"/>
      <psa30 value="0.0101033390" flag="0"/>
    </comp>
  </station>
  <station code="BH20A" name="BH20A" netid="Y5" insttype="STS2_gen3" lat="45.0928" lon="17.6625">
    <comp name="--.HH1">
      <acc value="0.6459641779" flag="0"/>
      <vel value="0.4024687420" flag="0"/>
      <psa03 value="2.8049568034" flag="0"/>
      <psa10 value="0.2213847734" flag="0"/>
      <psa30 value="0.0148809427" flag="0"/>
    </comp>
    <comp name="--.HH2">
      <acc value="0.6028414433" flag="0"/>
      <vel value="0.1411428798" flag="0"/>
      <psa03 value="0.6883131727" flag="0"/>
      <psa10 value="0.0830422332" flag="0"/>
      <psa30 value="0.0062820888" flag="0"/>
    </comp>
    <comp name="--.HHZ">
      <acc value="0.2147823073" flag="0"/>
      <vel value="0.1094735728" flag="0"/>
      <psa03 value="0.6632715686" flag="0"/>
      <psa10 value="0.0435571264" flag="0"/>
      <psa30 value="0.0055692506" flag="0"/>
    </comp>
  </station>
</stationlist>
