<?xml version="1.0" encoding="UTF-8" standalone="yes"?>
<!DOCTYPE earthquake SYSTEM "stationlist.dtd">
<stationlist created="" xmlns="ch.ethz.sed.shakemap.usgs.xml">
  <station code="BLY" name="BLY" netid="MN" insttype="" lat="44.7488" lon="17.1839">
    <comp name="--.HHE">
      <acc value="0.2663155428" flag="0"/>
      <vel value="0.1687661003" flag="0"/>
      <psa03 value="0.8595087168" flag="0"/>
      <psa10 value="0.1286139131" flag="0"/>
      <psa30 value="0.0080890849" flag="0"/>
    </comp>
    <comp name="--.HHN">
      <acc value="0.2120128702" flag="0"/>
      <vel value="0.1015013682" flag="0"/>
      <psa03 value="0.5817615109" flag="0"/>
      <psa10 value="0.1551107992" flag="0"/>
      <psa30 value="0.0067874062" flag="0"/>
    </comp>
    <comp name="--.HHZ">
      <acc value="0.1527396357" flag="0"/>
      <vel value="0.0770138622" flag="0"/>
      <psa03 value="0.5399457060" flag="0"/>
      <psa10 value="0.0722015093" flag="0"/>
      <psa30 value="0.0056922285" flag="0"/>
    </comp>
  </station>
  <station code="BH02A" name="BH02A" netid="Y5" insttype="STS2_gen3" lat="43.8746" lon="18.4241">
    <comp name="--.HH2">
      <acc value="0.0827080076" flag="0"/>
      <vel value="0.0376363135" flag="0"/>
      <psa03 value="0.0896474661" flag="0"/>
      <psa10 value="0.0672115302" flag="0"/>
      <psa30 value="0.0176843303" flag="0"/>
    </comp>
    <comp name="--.HH1">
      <acc value="0.0976360801" flag="0"/>
      <vel value="0.0401975290" flag="0"/>
      <psa03 value="0.1639773261" flag="0"/>
      <psa10 value="0.0580177347" flag="0"/>
      <psa30 value="0.0158834750" flag="0"/>
    </comp>
    <comp name="--.HHZ">
      <acc value="0.1000709108" flag="0"/>
      <vel value="0.0358344997" flag="0"/>
      <psa03 value="0.1411905335" flag="0"/>
      <psa10 value="0.0374835421" flag="0"/>
      <psa30 value="0.0082181466" flag="0"/>
    </comp>
  </station>
  <station code="BH03A" name="BH03A" netid="Y5" insttype="STS2_gen3" lat="43.8212" lon="17.6885">
    <comp name="--.HH2">
      <acc value="3.5635239496" flag="0"/>
      <vel value="0.4095590107" flag="0"/>
      <psa03 value="1.5770318810" flag="0"/>
      <psa10 value="0.3841041608" flag="0"/>
      <psa30 value="0.0319865684" flag="0"/>
    </comp>
    <comp name="--.HHZ">
      <acc value="2.5532102663" flag="0"/>
      <vel value="0.2730601826" flag="0"/>
      <psa03 value="0.6768837444" flag="0"/>
      <psa10 value="0.1536751341" flag="0"/>
      <psa30 value="0.0197491495" flag="0"/>
    </comp>
    <comp name="--.HH1">
      <acc value="0.6214909017" flag="0"/>
      <vel value="0.2151660812" flag="0"/>
      <psa03 value="1.3983819757" flag="0"/>
      <psa10 value="0.1876405564" flag="0"/>
      <psa30 value="0.0127721792" flag="0"/>
    </comp>
  </station>
  <station code="BH04A" name="BH04A" netid="Y5" insttype="STS2_gen2" lat="43.3483" lon="17.7935">
    <comp name="--.HH2">
      <acc value="0.0967177362" flag="0"/>
      <vel value="0.0681813339" flag="0"/>
      <psa03 value="0.2345929468" flag="0"/>
      <psa10 value="0.1059380915" flag="0"/>
      <psa30 value="0.0057974838" flag="0"/>
    </comp>
    <comp name="--.HH1">
      <acc value="0.1092811500" flag="0"/>
      <vel value="0.0678522360" flag="0"/>
      <psa03 value="0.2133843898" flag="0"/>
      <psa10 value="0.0899546018" flag="0"/>
      <psa30 value="0.0077064969" flag="0"/>
    </comp>
    <comp name="--.HHZ">
      <acc value="0.0677973160" flag="0"/>
      <vel value="0.0455815189" flag="0"/>
      <psa03 value="0.1918495985" flag="0"/>
      <psa10 value="0.0508117769" flag="0"/>
      <psa30 value="0.0061074537" flag="0"/>
    </comp>
  </station>
  <station code="BH05A" name="BH05A" netid="Y5" insttype="STS2_gen2" lat="43.1695" lon="18.5854">
    <comp name="--.HH1">
      <acc value="0.0290946753" flag="0"/>
      <vel value="0.0188727347" flag="0"/>
      <psa03 value="0.0811033085" flag="0"/>
      <psa10 value="0.0288759378" flag="0"/>
      <psa30 value="0.0026336191" flag="0"/>
    </comp>
    <comp name="--.HH2">
      <acc value="0.0423407639" flag="0"/>
      <vel value="0.0223037596" flag="0"/>
      <psa03 value="0.1169896683" flag="0"/>
      <psa10 value="0.0243745171" flag="0"/>
      <psa30 value="0.0029755293" flag="0"/>
    </comp>
    <comp name="--.HHZ">
      <acc value="0.0292013000" flag="0"/>
      <vel value="0.0226105895" flag="0"/>
      <psa03 value="0.0805865785" flag="0"/>
      <psa10 value="0.0281478970" flag="0"/>
      <psa30 value="0.0039954438" flag="0"/>
    </comp>
  </station>
  <station code="BH06A" name="BH06A" netid="Y5" insttype="STS2_gen3" lat="43.5022" lon="18.4463">
    <comp name="--.HH2">
      <acc value="0.1506420371" flag="0"/>
      <vel value="0.0550443696" flag="0"/>
      <psa03 value="0.3572879845" flag="0"/>
      <psa10 value="0.0760822642" flag="0"/>
      <psa30 value="0.0080698904" flag="0"/>
    </comp>
    <comp name="--.HH1">
      <acc value="0.1943413965" flag="0"/>
      <vel value="0.0861492386" flag="0"/>
      <psa03 value="0.5117249813" flag="0"/>
      <psa10 value="0.0519832230" flag="0"/>
      <psa30 value="0.0040157567" flag="0"/>
    </comp>
    <comp name="--.HHZ">
      <acc value="0.0996742939" flag="0"/>
      <vel value="0.0531485691" flag="0"/>
      <psa03 value="0.3730247649" flag="0"/>
      <psa10 value="0.0526386366" flag="0"/>
      <psa30 value="0.0056206521" flag="0"/>
    </comp>
  </station>
  <station code="BH07A" name="BH07A" netid="Y5" insttype="STS2_gen3" lat="43.7511" lon="18.0361">
    <comp name="--.HH2">
      <acc value="0.4523314948" flag="0"/>
      <vel value="0.1060367419" flag="0"/>
      <psa03 value="0.5416160312" flag="0"/>
      <psa10 value="0.1196925169" flag="0"/>
      <psa30 value="0.0096392853" flag="0"/>
    </comp>
    <comp name="--.HHZ">
      <acc value="0.3130747151" flag="0"/>
      <vel value="0.0845517280" flag="0"/>
      <psa03 value="0.4794365836" flag="0"/>
      <psa10 value="0.0718875430" flag="0"/>
      <psa30 value="0.0107637826" flag="0"/>
    </comp>
    <comp name="--.HH1">
      <acc value="0.6251690996" flag="0"/>
      <vel value="0.1525432901" flag="0"/>
      <psa03 value="0.4925235001" flag="0"/>
      <psa10 value="0.0616879883" flag="0"/>
      <psa30 value="0.0071629556" flag="0"/>
    </comp>
  </station>
  <station code="BH09A" name="BH09A" netid="Y5" insttype="STS2_gen3" lat="44.7856" lon="16.6156">
    <comp name="--.HH1">
      <acc value="0.1895352470" flag="0"/>
      <vel value="0.1151057954" flag="0"/>
      <psa03 value="0.5768872253" flag="0"/>
      <psa10 value="0.1118883325" flag="0"/>
      <psa30 value="0.0125381741" flag="0"/>
    </comp>
    <comp name="--.HH2">
      <acc value="0.2562925503" flag="0"/>
      <vel value="0.2119949925" flag="0"/>
      <psa03 value="0.7392334190" flag="0"/>
      <psa10 value="0.2013757400" flag="0"/>
      <psa30 value="0.0108800468" flag="0"/>
    </comp>
    <comp name="--.HHZ">
      <acc value="0.1273779692" flag="0"/>
      <vel value="0.1450128375" flag="0"/>
      <psa03 value="0.4619322730" flag="0"/>
      <psa10 value="0.1436270948" flag="0"/>
      <psa30 value="0.0089760322" flag="0"/>
    </comp>
  </station>
  <station code="BH10A" name="BH10A" netid="Y5" insttype="STS2_gen3" lat="44.0685" lon="17.1657">
    <comp name="--.HHZ">
      <acc value="0.1741703932" flag="0"/>
      <vel value="0.0379645625" flag="0"/>
      <psa03 value="0.1719786517" flag="0"/>
      <psa10 value="0.0382054948" flag="0"/>
      <psa30 value="0.0055596464" flag="0"/>
    </comp>
    <comp name="--.HH2">
      <acc value="0.4095925982" flag="0"/>
      <vel value="0.1166932559" flag="0"/>
      <psa03 value="0.5246299593" flag="0"/>
      <psa10 value="0.0694557203" flag="0"/>
      <psa30 value="0.0054592960" flag="0"/>
    </comp>
    <comp name="--.HH1">
      <acc value="0.6789192966" flag="0"/>
      <vel value="0.2181498282" flag="0"/>
      <psa03 value="0.6143837335" flag="0"/>
      <psa10 value="0.1068584139" flag="0"/>
      <psa30 value="0.0085234401" flag="0"/>
    </comp>
  </station>
  <station code="BH12A" name="BH12A" netid="Y5" insttype="STS2_gen3" lat="44.3931" lon="17.1573">
    <comp name="--.HH1">
      <acc value="1.2302963312" flag="0"/>
      <vel value="0.2362524924" flag="0"/>
      <psa03 value="0.7227620536" flag="0"/>
      <psa10 value="0.0828297916" flag="0"/>
      <psa30 value="0.0070607310" flag="0"/>
    </comp>
    <comp name="--.HHZ">
      <acc value="0.5792345888" flag="0"/>
      <vel value="0.1402276282" flag="0"/>
      <psa03 value="0.7643401250" flag="0"/>
      <psa10 value="0.1174639964" flag="0"/>
      <psa30 value="0.0074032979" flag="0"/>
    </comp>
    <comp name="--.HH2">
      <acc value="1.1043752832" flag="0"/>
      <vel value="0.2534219114" flag="0"/>
      <psa03 value="0.7753019346" flag="0"/>
      <psa10 value="0.1115125875" flag="0"/>
      <psa30 value="0.0082097538" flag="0"/>
    </comp>
  </station>
  <station code="BH13A" name="BH13A" netid="Y5" insttype="STS2_gen2" lat="44.8908" lon="16.3202">
    <comp name="--.HHZ">
      <acc value="0.0342603888" flag="0"/>
      <vel value="0.0332550792" flag="0"/>
      <psa03 value="0.0825384105" flag="0"/>
      <psa10 value="0.0253122147" flag="0"/>
      <psa30 value="0.0058025035" flag="0"/>
    </comp>
    <comp name="--.HH2">
      <acc value="0.0440092438" flag="0"/>
      <vel value="0.0377149316" flag="0"/>
      <psa03 value="0.1184292356" flag="0"/>
      <psa10 value="0.0359480086" flag="0"/>
      <psa30 value="0.0055838903" flag="0"/>
    </comp>
    <comp name="--.HH1">
      <acc value="0.0655577755" flag="0"/>
      <vel value="0.0551945211" flag="0"/>
      <psa03 value="0.1275608100" flag="0"/>
      <psa10 value="0.0476647894" flag="0"/>
      <psa30 value="0.0054287881" flag="0"/>
    </comp>
  </station>
  <station code="BH14A" name="BH14A" netid="Y5" insttype="STS2_gen3" lat="44.5136" lon="17.6572">
    <comp name="--.HH1">
      <acc value="0.9840327363" flag="0"/>
      <vel value="0.3638324915" flag="0"/>
      <psa03 value="1.2878531531" flag="0"/>
      <psa10 value="0.4171881437" flag="0"/>
      <psa30 value="0.0265222380" flag="0"/>
    </comp>
    <comp name="--.HHZ">
      <acc value="2.1528100019" flag="0"/>
      <vel value="0.1962279544" flag="0"/>
      <psa03 value="1.0921407059" flag="0"/>
      <psa10 value="0.2365733873" flag="0"/>
      <psa30 value="0.0120335948" flag="0"/>
    </comp>
    <comp name="--.HH2">
      <acc value="2.7551806973" flag="0"/>
      <vel value="0.2486150656" flag="0"/>
      <psa03 value="0.8661097380" flag="0"/>
      <psa10 value="0.1716806212" flag="0"/>
      <psa30 value="0.0115480807" flag="0"/>
    </comp>
  </station>
  <station code="BH15A" name="BH15A" netid="Y5" insttype="STS2_gen3" lat="45.0581" lon="18.4648">
    <comp name="--.HHZ">
      <acc value="0.2258294727" flag="0"/>
      <vel value="0.0905207386" flag="0"/>
      <psa03 value="0.7355718565" flag="0"/>
      <psa10 value="0.0698773332" flag="0"/>
      <psa30 value="0.0143388660" flag="0"/>
    </comp>
    <comp name="--.HH2">
      <acc value="0.6952610991" flag="0"/>
      <vel value="0.4517651041" flag="0"/>
      <psa03 value="2.2622832608" flag="0"/>
      <psa10 value="0.3224808883" flag="0"/>
      <psa30 value="0.0186500306" flag="0"/>
    </comp>
    <comp name="--.HH1">
      <acc value="0.5139658522" flag="0"/>
      <vel value="0.3714165730" flag="0"/>
      <psa03 value="2.0220882529" flag="0"/>
      <psa10 value="0.2007641405" flag="0"/>
      <psa30 value="0.0276773480" flag="0"/>
    </comp>
  </station>
  <station code="BH16A" name="BH16A" netid="Y5" insttype="STS2_gen2" lat="44.7263" lon="18.0892">
    <comp name="--.HH1">
      <acc value="0.7067539510" flag="0"/>
      <vel value="0.4191875262" flag="0"/>
      <psa03 value="0.8969123440" flag="0"/>
      <psa10 value="0.5580686043" flag="0"/>
      <psa30 value="0.0257988904" flag="0"/>
    </comp>
    <comp name="--.HHZ">
      <acc value="0.5866612729" flag="0"/>
      <vel value="0.2005070263" flag="0"/>
      <psa03 value="0.5806973874" flag="0"/>
      <psa10 value="0.2510938965" flag="0"/>
      <psa30 value="0.0159611504" flag="0"/>
    </comp>
    <comp name="--.HH2">
      <acc value="0.5994069351" flag="0"/>
      <vel value="0.2279056219" flag="0"/>
      <psa03 value="0.8273597591" flag="0"/>
      <psa10 value="0.2158132227" flag="0"/>
      <psa30 value="0.0100394612" flag="0"/>
    </comp>
  </station>
  <station code="BH17A" name="BH17A" netid="Y5" insttype="STS2_gen3" lat="44.3837" lon="18.5514">
    <comp name="--.HHZ">
      <acc value="0.2082832307" flag="0"/>
      <vel value="0.0807574450" flag="0"/>
      <psa03 value="0.4371239065" flag="0"/>
      <psa10 value="0.0892750381" flag="0"/>
      <psa30 value="0.0048911680" flag="0"/>
    </comp>
    <comp name="--.HH1">
      <acc value="0.3047234133" flag="0"/>
      <vel value="0.0961144238" flag="0"/>
      <psa03 value="0.4854237102" flag="0"/>
      <psa10 value="0.1226181327" flag="0"/>
      <psa30 value="0.0070835360" flag="0"/>
    </comp>
    <comp name="--.HH2">
      <acc value="0.3122658772" flag="0"/>
      <vel value="0.0954208943" flag="0"/>
      <psa03 value="0.4871727074" flag="0"/>
      <psa10 value="0.0727199567" flag="0"/>
      <psa30 value="0.0073769865" flag="0"/>
    </comp>
  </station>
  <station code="BH18A" name="BH18A" netid="Y5" insttype="STS2_gen3" lat="44.7704" lon="18.9972">
    <comp name="--.HH1">
      <acc value="0.1305721210" flag="0"/>
      <vel value="0.0810983500" flag="0"/>
      <psa03 value="0.4107379103" flag="0"/>
      <psa10 value="0.1280413839" flag="0"/>
      <psa30 value="0.0101033753" flag="0"/>
    </comp>
    <comp name="--.HHZ">
      <acc value="0.1990547716" flag="0"/>
      <vel value="0.1137980892" flag="0"/>
      <psa03 value="0.4806909984" flag="0"/>
      <psa10 value="0.1425081505" flag="0"/>
      <psa30 value="0.0128047979" flag="0"/>
    </comp>
    <comp name="--.HH2">
      <acc value="0.2337980566" flag="0"/>
      <vel value="0.1352922555" flag="0"/>
      <psa03 value="0.6001012519" flag="0"/>
      <psa10 value="0.1590276239" flag="0"/>
      <psa30 value="0.0124061698" flag="0"/>
    </comp>
  </station>
  <station code="BH20A" name="BH20A" netid="Y5" insttype="STS2_gen3" lat="45.0928" lon="17.6625">
    <comp name="--.HH2">
      <acc value="0.6028414426" flag="0"/>
      <vel value="0.1411428795" flag="0"/>
      <psa03 value="0.6883131727" flag="0"/>
      <psa10 value="0.0830422332" flag="0"/>
      <psa30 value="0.0062821052" flag="0"/>
    </comp>
    <comp name="--.HH1">
      <acc value="0.6459641785" flag="0"/>
      <vel value="0.4024687420" flag="0"/>
      <psa03 value="2.8049568034" flag="0"/>
      <psa10 value="0.2213847737" flag="0"/>
      <psa30 value="0.0148810220" flag="0"/>
    </comp>
    <comp name="--.HHZ">
      <acc value="0.2147823068" flag="0"/>
      <vel value="0.1094735722" flag="0"/>
      <psa03 value="0.6632715686" flag="0"/>
      <psa10 value="0.0435571264" flag="0"/>
      <psa30 value="0.0055692551" flag="0"/>
    </comp>
  </station>
</stationlist>
