<?xml version="1.0" encoding="UTF-8" standalone="yes"?>
<!DOCTYPE earthquake SYSTEM "stationlist.dtd">
<stationlist created="" xmlns="ch.ethz.sed.shakemap.usgs.xml">
  <station code="SENK" name="SENK" netid="KO" insttype="CMG-3T" lat="40.5614" lon="42.3505">
    <comp name="--.HHE">
      <acc value="0.0118706844" flag="0"/>
      <vel value="0.0056183811" flag="0"/>
      <psa03 value="0.0366839696" flag="0"/>
      <psa10 value="0.0030137855" flag="0"/>
      <psa30 value="0.0003612361" flag="0"/>
    </comp>
    <comp name="--.HHN">
      <acc value="0.0151961446" flag="0"/>
      <vel value="0.0045489409" flag="0"/>
      <psa03 value="0.0410277120" flag="0"/>
      <psa10 value="0.0022271373" flag="0"/>
      <psa30 value="0.0003175124" flag="0"/>
    </comp>
    <comp name="--.HHZ">
      <acc value="0.0119853527" flag="0"/>
      <vel value="0.0049617395" flag="0"/>
      <psa03 value="0.0345509303" flag="0"/>
      <psa10 value="0.0020380498" flag="0"/>
      <psa30 value="0.0001752182" flag="0"/>
    </comp>
  </station>
</stationlist>
