<?xml version="1.0" encoding="UTF-8" standalone="yes"?>
<!DOCTYPE earthquake SYSTEM "stationlist.dtd">
<stationlist created="" xmlns="ch.ethz.sed.shakemap.usgs.xml">
  <station code="AGR3" name="AGR3" netid="HI" insttype="unknown" commtype="DIG" lat="38.5893" lon="21.4162">
    <comp name="--.HNN">
      <acc value="0.0194806690" flag="0"/>
      <vel value="0.0118072724" flag="0"/>
      <psa03 value="0.0562281928" flag="0"/>
      <psa10 value="0.0122341388" flag="0"/>
      <psa30 value="0.0012429861" flag="0"/>
    </comp>
    <comp name="--.HNZ">
      <acc value="0.0109062484" flag="0"/>
      <vel value="0.0057082084" flag="0"/>
      <psa03 value="0.0298786105" flag="0"/>
      <psa10 value="0.0094980064" flag="0"/>
      <psa30 value="0.0005428406" flag="0"/>
    </comp>
    <comp name="--.HNE">
      <acc value="0.0188422611" flag="0"/>
      <vel value="0.0114905010" flag="0"/>
      <psa03 value="0.0674204729" flag="0"/>
      <psa10 value="0.0155561100" flag="0"/>
      <psa30 value="0.0017786939" flag="0"/>
    </comp>
  </station>
  <station code="ARG2" name="ARG2" netid="HI" insttype="CMG-5TD,ACCELEROMETER,GURALP" commtype="DIG" lat="38.1783" lon="20.4878">
    <comp name="--.HNE">
      <acc value="0.0229072270" flag="0"/>
      <vel value="0.0088371442" flag="0"/>
      <psa03 value="0.0432073045" flag="0"/>
      <psa10 value="0.0027738754" flag="0"/>
      <psa30 value="0.0003064443" flag="0"/>
    </comp>
    <comp name="--.HNN">
      <acc value="0.0305531561" flag="0"/>
      <vel value="0.0090235480" flag="0"/>
      <psa03 value="0.0413684765" flag="0"/>
      <psa10 value="0.0033556886" flag="0"/>
      <psa30 value="0.0003924421" flag="0"/>
    </comp>
    <comp name="--.HNZ">
      <acc value="0.0221171007" flag="0"/>
      <vel value="0.0068615892" flag="0"/>
      <psa03 value="0.0501689271" flag="0"/>
      <psa10 value="0.0023343183" flag="0"/>
      <psa30 value="0.0002844878" flag="0"/>
    </comp>
  </station>
  <station code="ART2" name="ART2" netid="HI" insttype="CMG-5TD,ACCELEROMETER,GURALP" commtype="DIG" lat="39.1474" lon="20.9937">
    <comp name="--.HNE">
      <acc value="0.0126844351" flag="0"/>
      <vel value="0.0059233588" flag="0"/>
      <psa03 value="0.0293123546" flag="0"/>
      <psa10 value="0.0047472995" flag="0"/>
      <psa30 value="0.0005784699" flag="0"/>
    </comp>
    <comp name="--.HNN">
      <acc value="0.0216403958" flag="0"/>
      <vel value="0.0101264545" flag="0"/>
      <psa03 value="0.0461641998" flag="0"/>
      <psa10 value="0.0072469243" flag="0"/>
      <psa30 value="0.0005055508" flag="0"/>
    </comp>
    <comp name="--.HNZ">
      <acc value="0.0186219108" flag="0"/>
      <vel value="0.0070355475" flag="0"/>
      <psa03 value="0.0342298374" flag="0"/>
      <psa10 value="0.0046998604" flag="0"/>
      <psa30 value="0.0004588360" flag="0"/>
    </comp>
  </station>
  <station code="LEF2" name="LEF2" netid="HI" insttype="unknown" commtype="DIG" lat="38.8301" lon="20.7083">
    <comp name="--.HNE">
      <acc value="0.1347537027" flag="0"/>
      <vel value="0.0813257944" flag="0"/>
      <psa03 value="0.4023976704" flag="0"/>
      <psa10 value="0.0847836032" flag="0"/>
      <psa30 value="0.0047012097" flag="0"/>
    </comp>
    <comp name="--.HNN">
      <acc value="0.1353353826" flag="0"/>
      <vel value="0.0926005860" flag="0"/>
      <psa03 value="0.4645078300" flag="0"/>
      <psa10 value="0.0709199507" flag="0"/>
      <psa30 value="0.0041984887" flag="0"/>
    </comp>
    <comp name="--.HNZ">
      <acc value="0.1105368719" flag="0"/>
      <vel value="0.0452977452" flag="0"/>
      <psa03 value="0.2311224951" flag="0"/>
      <psa10 value="0.0528513302" flag="0"/>
      <psa30 value="0.0041818717" flag="0"/>
    </comp>
  </station>
  <station code="VAS2" name="VAS2" netid="HI" insttype="CMG-5TD,ACCELEROMETER,GURALP" commtype="DIG" lat="38.6306" lon="20.6081">
    <comp name="--.HNE">
      <acc value="0.2037918680" flag="0"/>
      <vel value="0.0707779838" flag="0"/>
      <psa03 value="0.2515467933" flag="0"/>
      <psa10 value="0.0492501908" flag="0"/>
      <psa30 value="0.0032235293" flag="0"/>
    </comp>
    <comp name="--.HNN">
      <acc value="0.1896581833" flag="0"/>
      <vel value="0.0520430066" flag="0"/>
      <psa03 value="0.2668328448" flag="0"/>
      <psa10 value="0.0590530329" flag="0"/>
      <psa30 value="0.0026263203" flag="0"/>
    </comp>
    <comp name="--.HNZ">
      <acc value="0.0793995887" flag="0"/>
      <vel value="0.0378239759" flag="0"/>
      <psa03 value="0.1492588455" flag="0"/>
      <psa10 value="0.0236124537" flag="0"/>
      <psa30 value="0.0021812308" flag="0"/>
    </comp>
  </station>
  <station code="VSK1" name="VSK1" netid="HI" insttype="unknown" commtype="DIG" lat="38.4091" lon="20.564">
    <comp name="--.HNN">
      <acc value="0.0178818749" flag="0"/>
      <vel value="0.0056596649" flag="0"/>
      <psa03 value="0.0254348053" flag="0"/>
      <psa10 value="0.0043140372" flag="0"/>
      <psa30 value="0.0006296585" flag="0"/>
    </comp>
    <comp name="--.HNE">
      <acc value="0.0171138408" flag="0"/>
      <vel value="0.0056030251" flag="0"/>
      <psa03 value="0.0274860290" flag="0"/>
      <psa10 value="0.0044588182" flag="0"/>
      <psa30 value="0.0002969021" flag="0"/>
    </comp>
    <comp name="--.HNZ">
      <acc value="0.0088804166" flag="0"/>
      <vel value="0.0031164415" flag="0"/>
      <psa03 value="0.0139449934" flag="0"/>
      <psa10 value="0.0023988174" flag="0"/>
      <psa30 value="0.0002759322" flag="0"/>
    </comp>
  </station>
  <station code="ARTB" name="ARTB" netid="HL" insttype="CMG-5" commtype="DIG" lat="39.157" lon="20.9785">
    <comp name="00.HNE">
      <acc value="0.0524488017" flag="0"/>
      <vel value="0.0204255456" flag="0"/>
      <psa03 value="0.1757997712" flag="0"/>
      <psa10 value="0.0051539795" flag="0"/>
      <psa30 value="0.0005822086" flag="0"/>
    </comp>
    <comp name="00.HNN">
      <acc value="0.0793721183" flag="0"/>
      <vel value="0.0406556968" flag="0"/>
      <psa03 value="0.2091238247" flag="0"/>
      <psa10 value="0.0159187902" flag="0"/>
      <psa30 value="0.0010220341" flag="0"/>
    </comp>
    <comp name="00.HNZ">
      <acc value="0.0411083810" flag="0"/>
      <vel value="0.0129885750" flag="0"/>
      <psa03 value="0.0913384074" flag="0"/>
      <psa10 value="0.0064429909" flag="0"/>
      <psa30 value="0.0005110440" flag="0"/>
    </comp>
  </station>
  <station code="PRGA" name="PRGA" netid="HL" insttype="CMG-5" commtype="DIG" lat="39.2856" lon="20.4016">
    <comp name="00.HNE">
      <acc value="0.2235448304" flag="0"/>
      <vel value="0.0569537234" flag="0"/>
      <psa03 value="0.1419194358" flag="0"/>
      <psa10 value="0.0276988932" flag="0"/>
      <psa30 value="0.0014669208" flag="0"/>
    </comp>
    <comp name="00.HNN">
      <acc value="0.1625110427" flag="0"/>
      <vel value="0.0387766843" flag="0"/>
      <psa03 value="0.1123223606" flag="0"/>
      <psa10 value="0.0186165496" flag="0"/>
      <psa30 value="0.0015808902" flag="0"/>
    </comp>
    <comp name="00.HNZ">
      <acc value="0.0828070955" flag="0"/>
      <vel value="0.0165809166" flag="0"/>
      <psa03 value="0.0471943093" flag="0"/>
      <psa10 value="0.0116648616" flag="0"/>
      <psa30 value="0.0009197315" flag="0"/>
    </comp>
  </station>
  <station code="TETR" name="TETR" netid="HL" insttype="60" commtype="DIG" lat="39.3445" lon="21.2747">
    <comp name="--.HHE">
      <acc value="0.0311272136" flag="0"/>
      <vel value="0.0141472913" flag="0"/>
      <psa03 value="0.0575011807" flag="0"/>
      <psa10 value="0.0107732623" flag="0"/>
      <psa30 value="0.0011813457" flag="0"/>
    </comp>
    <comp name="--.HHN">
      <acc value="0.0256307832" flag="0"/>
      <vel value="0.0090727991" flag="0"/>
      <psa03 value="0.0400833409" flag="0"/>
      <psa10 value="0.0075131692" flag="0"/>
      <psa30 value="0.0008273282" flag="0"/>
    </comp>
    <comp name="--.HHZ">
      <acc value="0.0110775197" flag="0"/>
      <vel value="0.0053586058" flag="0"/>
      <psa03 value="0.0247489092" flag="0"/>
      <psa10 value="0.0086097071" flag="0"/>
      <psa30 value="0.0004648241" flag="0"/>
    </comp>
  </station>
  <station code="AMPL" name="AMPL" netid="HP" insttype="Compact," commtype="DIG" lat="38.9224" lon="21.2135">
    <comp name="--.HHN">
      <acc value="0.0212661473" flag="0"/>
      <vel value="0.0065374638" flag="0"/>
      <psa03 value="0.0315126320" flag="0"/>
      <psa10 value="0.0054741527" flag="0"/>
      <psa30 value="0.0006175134" flag="0"/>
    </comp>
    <comp name="--.HHE">
      <acc value="0.0290686332" flag="0"/>
      <vel value="0.0093276864" flag="0"/>
      <psa03 value="0.0329636297" flag="0"/>
      <psa10 value="0.0044329865" flag="0"/>
      <psa30 value="0.0003726169" flag="0"/>
    </comp>
    <comp name="--.HHZ">
      <acc value="0.0157845105" flag="0"/>
      <vel value="0.0038841481" flag="0"/>
      <psa03 value="0.0193830488" flag="0"/>
      <psa10 value="0.0047272840" flag="0"/>
      <psa30 value="0.0003203582" flag="0"/>
    </comp>
  </station>
  <station code="FSK" name="FSK" netid="HP" insttype="40," commtype="DIG" lat="38.4593" lon="20.5623">
    <comp name="--.HHE">
      <acc value="0.0487911723" flag="0"/>
      <vel value="0.0139523216" flag="0"/>
      <psa03 value="0.1064949147" flag="0"/>
      <psa10 value="0.0036320698" flag="0"/>
      <psa30 value="0.0003165212" flag="0"/>
    </comp>
    <comp name="--.HHZ">
      <acc value="0.0148534928" flag="0"/>
      <vel value="0.0031114094" flag="0"/>
      <psa03 value="0.0186205651" flag="0"/>
      <psa10 value="0.0022910250" flag="0"/>
      <psa30 value="0.0002184552" flag="0"/>
    </comp>
    <comp name="--.HHN">
      <acc value="0.0146496028" flag="0"/>
      <vel value="0.0045106288" flag="0"/>
      <psa03 value="0.0194296415" flag="0"/>
      <psa10 value="0.0044201698" flag="0"/>
      <psa30 value="0.0002510332" flag="0"/>
    </comp>
  </station>
  <station code="PDO" name="PDO" netid="HP" insttype="120s" commtype="DIG" lat="38.5986" lon="21.1833">
    <comp name="--.HHE">
      <acc value="0.0297020865" flag="0"/>
      <vel value="0.0138019761" flag="0"/>
      <psa03 value="0.0748124129" flag="0"/>
      <psa10 value="0.0051281116" flag="0"/>
      <psa30 value="0.0003847293" flag="0"/>
    </comp>
    <comp name="--.HHN">
      <acc value="0.0175453168" flag="0"/>
      <vel value="0.0101412278" flag="0"/>
      <psa03 value="0.0517733981" flag="0"/>
      <psa10 value="0.0041912802" flag="0"/>
      <psa30 value="0.0004273484" flag="0"/>
    </comp>
    <comp name="--.HHZ">
      <acc value="0.0113959047" flag="0"/>
      <vel value="0.0042824391" flag="0"/>
      <psa03 value="0.0265263854" flag="0"/>
      <psa10 value="0.0031848562" flag="0"/>
      <psa30 value="0.0003303095" flag="0"/>
    </comp>
  </station>
  <station code="PLEV" name="PLEV" netid="HP" insttype="Compact," commtype="DIG" lat="38.4124" lon="21.4073">
    <comp name="--.HHE">
      <acc value="0.0096262140" flag="0"/>
      <vel value="0.0040849729" flag="0"/>
      <psa03 value="0.0210448356" flag="0"/>
      <psa10 value="0.0024132561" flag="0"/>
      <psa30 value="0.0002133174" flag="0"/>
    </comp>
    <comp name="--.HHN">
      <acc value="0.0068304207" flag="0"/>
      <vel value="0.0040974559" flag="0"/>
      <psa03 value="0.0212598864" flag="0"/>
      <psa10 value="0.0026719558" flag="0"/>
      <psa30 value="0.0001751634" flag="0"/>
    </comp>
    <comp name="--.HHZ">
      <acc value="0.0048623380" flag="0"/>
      <vel value="0.0017855508" flag="0"/>
      <psa03 value="0.0099695902" flag="0"/>
      <psa10 value="0.0013443459" flag="0"/>
      <psa30 value="0.0002703205" flag="0"/>
    </comp>
  </station>
  <station code="PRMD" name="PRMD" netid="HP" insttype="120P," commtype="DIG" lat="39.5299" lon="21.0965">
    <comp name="--.HHE">
      <acc value="0.0237787111" flag="0"/>
      <vel value="0.0150091700" flag="0"/>
      <psa03 value="0.0411820391" flag="0"/>
      <psa10 value="0.0177827893" flag="0"/>
      <psa30 value="0.0008502306" flag="0"/>
    </comp>
    <comp name="--.HHZ">
      <acc value="0.0119113574" flag="0"/>
      <vel value="0.0104589789" flag="0"/>
      <psa03 value="0.0390647821" flag="0"/>
      <psa10 value="0.0116176106" flag="0"/>
      <psa30 value="0.0006863500" flag="0"/>
    </comp>
    <comp name="--.HHN">
      <acc value="0.0128958181" flag="0"/>
      <vel value="0.0093520561" flag="0"/>
      <psa03 value="0.0352956449" flag="0"/>
      <psa10 value="0.0103879359" flag="0"/>
      <psa30 value="0.0006254426" flag="0"/>
    </comp>
  </station>
  <station code="EVGI" name="EVGI" netid="HT" insttype="30" commtype="DIG" lat="38.621" lon="20.656">
    <comp name="--.HHN">
      <acc value="0.1857828820" flag="0"/>
      <vel value="0.0389484806" flag="0"/>
      <psa03 value="0.0989478620" flag="0"/>
      <psa10 value="0.0097209384" flag="0"/>
      <psa30 value="0.0006941840" flag="0"/>
    </comp>
    <comp name="--.HHZ">
      <acc value="0.1404673745" flag="0"/>
      <vel value="0.0351492764" flag="0"/>
      <psa03 value="0.1641812739" flag="0"/>
      <psa10 value="0.0053146360" flag="0"/>
      <psa30 value="0.0005389151" flag="0"/>
    </comp>
    <comp name="--.HHE">
      <acc value="0.2232718364" flag="0"/>
      <vel value="0.0456398758" flag="0"/>
      <psa03 value="0.1533638971" flag="0"/>
      <psa10 value="0.0083267893" flag="0"/>
      <psa30 value="0.0007845905" flag="0"/>
    </comp>
  </station>
  <station code="IGT" name="IGT" netid="HT" insttype="Compact," commtype="DIG" lat="39.5315" lon="20.3299">
    <comp name="--.HHE">
      <acc value="0.1102357319" flag="0"/>
      <vel value="0.0224124399" flag="0"/>
      <psa03 value="0.0735851929" flag="0"/>
      <psa10 value="0.0109321848" flag="0"/>
      <psa30 value="0.0008303482" flag="0"/>
    </comp>
    <comp name="--.HHN">
      <acc value="0.0788849329" flag="0"/>
      <vel value="0.0180152656" flag="0"/>
      <psa03 value="0.0505455142" flag="0"/>
      <psa10 value="0.0079647940" flag="0"/>
      <psa30 value="0.0013223552" flag="0"/>
    </comp>
    <comp name="--.HHZ">
      <acc value="0.0989417969" flag="0"/>
      <vel value="0.0180965850" flag="0"/>
      <psa03 value="0.0686547438" flag="0"/>
      <psa10 value="0.0111590870" flag="0"/>
      <psa30 value="0.0011101665" flag="0"/>
    </comp>
  </station>
  <station code="LKD2" name="LKD2" netid="HT" insttype="100" commtype="DIG" lat="38.7889" lon="20.6578">
    <comp name="--.HHE">
      <acc value="0.2640557633" flag="0"/>
      <vel value="0.1095144375" flag="0"/>
      <psa03 value="0.4095282853" flag="0"/>
      <psa10 value="0.0393541990" flag="0"/>
      <psa30 value="0.0024498198" flag="0"/>
    </comp>
    <comp name="--.HHN">
      <acc value="0.3298078934" flag="0"/>
      <vel value="0.0997313749" flag="0"/>
      <psa03 value="0.5580655166" flag="0"/>
      <psa10 value="0.0311854612" flag="0"/>
      <psa30 value="0.0018134643" flag="0"/>
    </comp>
    <comp name="--.HHZ">
      <acc value="0.1152184779" flag="0"/>
      <vel value="0.0353566141" flag="0"/>
      <psa03 value="0.1315489681" flag="0"/>
      <psa10 value="0.0198179523" flag="0"/>
      <psa30 value="0.0010269086" flag="0"/>
    </comp>
  </station>
  <station code="NYDR" name="NYDR" netid="HT" insttype="1s-100Hz," commtype="DIG" lat="38.7135" lon="20.6983">
    <comp name="--.HHE">
      <acc value="0.1193996278" flag="0"/>
      <vel value="0.0375395086" flag="0"/>
      <psa03 value="0.1305153896" flag="0"/>
      <psa10 value="0.0310148756" flag="0"/>
      <psa30 value="0.0012652962" flag="0"/>
    </comp>
    <comp name="--.HHN">
      <acc value="0.1100700706" flag="0"/>
      <vel value="0.0473239231" flag="0"/>
      <psa03 value="0.1663807144" flag="0"/>
      <psa10 value="0.0131998753" flag="0"/>
      <psa30 value="0.0012408202" flag="0"/>
    </comp>
    <comp name="--.HHZ">
      <acc value="0.0668050810" flag="0"/>
      <vel value="0.0282125983" flag="0"/>
      <psa03 value="0.0753113042" flag="0"/>
      <psa10 value="0.0110888106" flag="0"/>
      <psa30 value="0.0005953417" flag="0"/>
    </comp>
  </station>
  <station code="TSLK" name="TSLK" netid="HT" insttype="1s-100Hz," commtype="DIG" lat="38.8249" lon="20.6554">
    <comp name="--.HHE">
      <acc value="0.4709233613" flag="0"/>
      <vel value="0.1155529530" flag="0"/>
      <psa03 value="0.4011181926" flag="0"/>
      <psa10 value="0.0297577486" flag="0"/>
      <psa30 value="0.0027621325" flag="0"/>
    </comp>
    <comp name="--.HHN">
      <acc value="0.7497225521" flag="0"/>
      <vel value="0.1718884386" flag="0"/>
      <psa03 value="0.6830640317" flag="0"/>
      <psa10 value="0.0544134201" flag="0"/>
      <psa30 value="0.0053218041" flag="0"/>
    </comp>
    <comp name="--.HHZ">
      <acc value="0.1599197346" flag="0"/>
      <vel value="0.0335972090" flag="0"/>
      <psa03 value="0.1856946174" flag="0"/>
      <psa10 value="0.0126255986" flag="0"/>
      <psa30 value="0.0015019549" flag="0"/>
    </comp>
  </station>
</stationlist>
