<?xml version="1.0" encoding="UTF-8" standalone="yes"?>
<!DOCTYPE earthquake SYSTEM "stationlist.dtd">
<stationlist created="" xmlns="ch.ethz.sed.shakemap.usgs.xml">
  <station code="AGR3" name="AGR3" netid="HI" insttype="unknown" commtype="DIG" lat="38.5893" lon="21.4162">
    <comp name="--.HNE">
      <acc value="0.0188422613" flag="0"/>
      <vel value="0.0114905019" flag="0"/>
      <psa03 value="0.0674204729" flag="0"/>
      <psa10 value="0.0155561100" flag="0"/>
      <psa30 value="0.0015461814" flag="0"/>
    </comp>
    <comp name="--.HNN">
      <acc value="0.0194806550" flag="0"/>
      <vel value="0.0118072754" flag="0"/>
      <psa03 value="0.0562281928" flag="0"/>
      <psa10 value="0.0122341388" flag="0"/>
      <psa30 value="0.0012308041" flag="0"/>
    </comp>
    <comp name="--.HNZ">
      <acc value="0.0109062473" flag="0"/>
      <vel value="0.0057082116" flag="0"/>
      <psa03 value="0.0298786105" flag="0"/>
      <psa10 value="0.0094980070" flag="0"/>
      <psa30 value="0.0005428626" flag="0"/>
    </comp>
  </station>
  <station code="ARG2" name="ARG2" netid="HI" insttype="CMG-5TD,ACCELEROMETER,GURALP" commtype="DIG" lat="38.1783" lon="20.4878">
    <comp name="--.HNN">
      <acc value="0.0305531423" flag="0"/>
      <vel value="0.0090235475" flag="0"/>
      <psa03 value="0.0413684765" flag="0"/>
      <psa10 value="0.0033556887" flag="0"/>
      <psa30 value="0.0003923582" flag="0"/>
    </comp>
    <comp name="--.HNE">
      <acc value="0.0229072342" flag="0"/>
      <vel value="0.0088371444" flag="0"/>
      <psa03 value="0.0432073045" flag="0"/>
      <psa10 value="0.0027738753" flag="0"/>
      <psa30 value="0.0003063834" flag="0"/>
    </comp>
    <comp name="--.HNZ">
      <acc value="0.0221170970" flag="0"/>
      <vel value="0.0068615926" flag="0"/>
      <psa03 value="0.0501689271" flag="0"/>
      <psa10 value="0.0023343183" flag="0"/>
      <psa30 value="0.0002785464" flag="0"/>
    </comp>
  </station>
  <station code="ART2" name="ART2" netid="HI" insttype="CMG-5TD,ACCELEROMETER,GURALP" commtype="DIG" lat="39.1474" lon="20.9937">
    <comp name="--.HNE">
      <acc value="0.0126844490" flag="0"/>
      <vel value="0.0059233577" flag="0"/>
      <psa03 value="0.0293123546" flag="0"/>
      <psa10 value="0.0047472991" flag="0"/>
      <psa30 value="0.0005784805" flag="0"/>
    </comp>
    <comp name="--.HNN">
      <acc value="0.0216404167" flag="0"/>
      <vel value="0.0101264564" flag="0"/>
      <psa03 value="0.0461641998" flag="0"/>
      <psa10 value="0.0072469309" flag="0"/>
      <psa30 value="0.0005055632" flag="0"/>
    </comp>
    <comp name="--.HNZ">
      <acc value="0.0186219029" flag="0"/>
      <vel value="0.0070355453" flag="0"/>
      <psa03 value="0.0342298374" flag="0"/>
      <psa10 value="0.0046998567" flag="0"/>
      <psa30 value="0.0004587939" flag="0"/>
    </comp>
  </station>
  <station code="LEF2" name="LEF2" netid="HI" insttype="unknown" commtype="DIG" lat="38.8301" lon="20.7083">
    <comp name="--.HNE">
      <acc value="0.1347537244" flag="0"/>
      <vel value="0.0813257918" flag="0"/>
      <psa03 value="0.4023976704" flag="0"/>
      <psa10 value="0.0847836027" flag="0"/>
      <psa30 value="0.0047007029" flag="0"/>
    </comp>
    <comp name="--.HNN">
      <acc value="0.1353353765" flag="0"/>
      <vel value="0.0926005747" flag="0"/>
      <psa03 value="0.4645078300" flag="0"/>
      <psa10 value="0.0709199526" flag="0"/>
      <psa30 value="0.0041986363" flag="0"/>
    </comp>
    <comp name="--.HNZ">
      <acc value="0.1105368473" flag="0"/>
      <vel value="0.0452977498" flag="0"/>
      <psa03 value="0.2311224951" flag="0"/>
      <psa10 value="0.0528513295" flag="0"/>
      <psa30 value="0.0041821488" flag="0"/>
    </comp>
  </station>
  <station code="PRE2" name="PRE2" netid="HI" insttype="unknown" commtype="DIG" lat="38.9577" lon="20.7548">
    <comp name="--.HNN">
      <acc value="0.1047318287" flag="0"/>
      <vel value="0.0552142796" flag="0"/>
      <psa03 value="0.2993425094" flag="0"/>
      <psa10 value="0.0589449674" flag="0"/>
      <psa30 value="0.0036135378" flag="0"/>
    </comp>
    <comp name="--.HNZ">
      <acc value="0.0940250431" flag="0"/>
      <vel value="0.0284169436" flag="0"/>
      <psa03 value="0.1818958491" flag="0"/>
      <psa10 value="0.0290750214" flag="0"/>
      <psa30 value="0.0016101810" flag="0"/>
    </comp>
  </station>
  <station code="VAS2" name="VAS2" netid="HI" insttype="CMG-5TD,ACCELEROMETER,GURALP" commtype="DIG" lat="38.6306" lon="20.6081">
    <comp name="--.HNE">
      <acc value="0.2037918668" flag="0"/>
      <vel value="0.0707779873" flag="0"/>
      <psa03 value="0.2515467933" flag="0"/>
      <psa10 value="0.0492501907" flag="0"/>
      <psa30 value="0.0032237242" flag="0"/>
    </comp>
    <comp name="--.HNZ">
      <acc value="0.0793995725" flag="0"/>
      <vel value="0.0378239783" flag="0"/>
      <psa03 value="0.1492588455" flag="0"/>
      <psa10 value="0.0236124538" flag="0"/>
      <psa30 value="0.0021813555" flag="0"/>
    </comp>
    <comp name="--.HNN">
      <acc value="0.1896581829" flag="0"/>
      <vel value="0.0520430173" flag="0"/>
      <psa03 value="0.2668328448" flag="0"/>
      <psa10 value="0.0590530332" flag="0"/>
      <psa30 value="0.0026265108" flag="0"/>
    </comp>
  </station>
  <station code="VSK1" name="VSK1" netid="HI" insttype="unknown" commtype="DIG" lat="38.4091" lon="20.564">
    <comp name="--.HNE">
      <acc value="0.0171138455" flag="0"/>
      <vel value="0.0056030257" flag="0"/>
      <psa03 value="0.0274860290" flag="0"/>
      <psa10 value="0.0044588182" flag="0"/>
      <psa30 value="0.0002969131" flag="0"/>
    </comp>
    <comp name="--.HNN">
      <acc value="0.0178818651" flag="0"/>
      <vel value="0.0056596645" flag="0"/>
      <psa03 value="0.0254348053" flag="0"/>
      <psa10 value="0.0043140373" flag="0"/>
      <psa30 value="0.0006296693" flag="0"/>
    </comp>
    <comp name="--.HNZ">
      <acc value="0.0088804138" flag="0"/>
      <vel value="0.0031164410" flag="0"/>
      <psa03 value="0.0139449934" flag="0"/>
      <psa10 value="0.0023988174" flag="0"/>
      <psa30 value="0.0002759191" flag="0"/>
    </comp>
  </station>
  <station code="ARTB" name="ARTB" netid="HL" insttype="CMG-5" commtype="DIG" lat="39.157" lon="20.9785">
    <comp name="00.HNE">
      <acc value="0.0524488003" flag="0"/>
      <vel value="0.0204255454" flag="0"/>
      <psa03 value="0.1757997712" flag="0"/>
      <psa10 value="0.0051539793" flag="0"/>
      <psa30 value="0.0005821152" flag="0"/>
    </comp>
    <comp name="00.HNN">
      <acc value="0.0793721158" flag="0"/>
      <vel value="0.0406556972" flag="0"/>
      <psa03 value="0.2091238247" flag="0"/>
      <psa10 value="0.0159187913" flag="0"/>
      <psa30 value="0.0010222221" flag="0"/>
    </comp>
    <comp name="00.HNZ">
      <acc value="0.0411083917" flag="0"/>
      <vel value="0.0129885732" flag="0"/>
      <psa03 value="0.0913384074" flag="0"/>
      <psa10 value="0.0064429893" flag="0"/>
      <psa30 value="0.0005112062" flag="0"/>
    </comp>
  </station>
  <station code="PRGA" name="PRGA" netid="HL" insttype="CMG-5" commtype="DIG" lat="39.2856" lon="20.4016">
    <comp name="00.HNE">
      <acc value="0.2235448351" flag="0"/>
      <vel value="0.0569537188" flag="0"/>
      <psa03 value="0.1419194358" flag="0"/>
      <psa10 value="0.0276988930" flag="0"/>
      <psa30 value="0.0014667579" flag="0"/>
    </comp>
    <comp name="00.HNN">
      <acc value="0.1625110389" flag="0"/>
      <vel value="0.0387766855" flag="0"/>
      <psa03 value="0.1123223606" flag="0"/>
      <psa10 value="0.0186165472" flag="0"/>
      <psa30 value="0.0015790026" flag="0"/>
    </comp>
    <comp name="00.HNZ">
      <acc value="0.0828070976" flag="0"/>
      <vel value="0.0165809172" flag="0"/>
      <psa03 value="0.0471943093" flag="0"/>
      <psa10 value="0.0116648616" flag="0"/>
      <psa30 value="0.0009203296" flag="0"/>
    </comp>
  </station>
  <station code="TETR" name="TETR" netid="HL" insttype="60" commtype="DIG" lat="39.3445" lon="21.2747">
    <comp name="--.HHE">
      <acc value="0.0311272140" flag="0"/>
      <vel value="0.0141472924" flag="0"/>
      <psa03 value="0.0575011807" flag="0"/>
      <psa10 value="0.0107732624" flag="0"/>
      <psa30 value="0.0011813475" flag="0"/>
    </comp>
    <comp name="--.HHN">
      <acc value="0.0256307851" flag="0"/>
      <vel value="0.0090727982" flag="0"/>
      <psa03 value="0.0400833409" flag="0"/>
      <psa10 value="0.0075131692" flag="0"/>
      <psa30 value="0.0008272919" flag="0"/>
    </comp>
    <comp name="--.HHZ">
      <acc value="0.0110775203" flag="0"/>
      <vel value="0.0053586055" flag="0"/>
      <psa03 value="0.0247489092" flag="0"/>
      <psa10 value="0.0086097071" flag="0"/>
      <psa30 value="0.0004648265" flag="0"/>
    </comp>
  </station>
  <station code="AMPL" name="AMPL" netid="HP" insttype="Compact," commtype="DIG" lat="38.9224" lon="21.2135">
    <comp name="--.HHZ">
      <acc value="0.0157845096" flag="0"/>
      <vel value="0.0038841488" flag="0"/>
      <psa03 value="0.0193830488" flag="0"/>
      <psa10 value="0.0047272840" flag="0"/>
      <psa30 value="0.0003203487" flag="0"/>
    </comp>
    <comp name="--.HHE">
      <acc value="0.0290686283" flag="0"/>
      <vel value="0.0093276862" flag="0"/>
      <psa03 value="0.0329636297" flag="0"/>
      <psa10 value="0.0044329865" flag="0"/>
      <psa30 value="0.0003726148" flag="0"/>
    </comp>
    <comp name="--.HHN">
      <acc value="0.0212661456" flag="0"/>
      <vel value="0.0065374648" flag="0"/>
      <psa03 value="0.0315126320" flag="0"/>
      <psa10 value="0.0054741527" flag="0"/>
      <psa30 value="0.0006175055" flag="0"/>
    </comp>
  </station>
  <station code="FSK" name="FSK" netid="HP" insttype="40," commtype="DIG" lat="38.4593" lon="20.5623">
    <comp name="--.HHE">
      <acc value="0.0487911720" flag="0"/>
      <vel value="0.0139523262" flag="0"/>
      <psa03 value="0.1064949147" flag="0"/>
      <psa10 value="0.0036320698" flag="0"/>
      <psa30 value="0.0003167438" flag="0"/>
    </comp>
    <comp name="--.HHN">
      <acc value="0.0146496014" flag="0"/>
      <vel value="0.0045106317" flag="0"/>
      <psa03 value="0.0194296415" flag="0"/>
      <psa10 value="0.0044201698" flag="0"/>
      <psa30 value="0.0002509524" flag="0"/>
    </comp>
    <comp name="--.HHZ">
      <acc value="0.0148534926" flag="0"/>
      <vel value="0.0031114058" flag="0"/>
      <psa03 value="0.0186205652" flag="0"/>
      <psa10 value="0.0022910252" flag="0"/>
      <psa30 value="0.0002184550" flag="0"/>
    </comp>
  </station>
  <station code="PDO" name="PDO" netid="HP" insttype="120s" commtype="DIG" lat="38.5986" lon="21.1833">
    <comp name="--.HHE">
      <acc value="0.0297020848" flag="0"/>
      <vel value="0.0138019781" flag="0"/>
      <psa03 value="0.0748124129" flag="0"/>
      <psa10 value="0.0051281118" flag="0"/>
      <psa30 value="0.0003845365" flag="0"/>
    </comp>
    <comp name="--.HHN">
      <acc value="0.0175453166" flag="0"/>
      <vel value="0.0101412285" flag="0"/>
      <psa03 value="0.0517733981" flag="0"/>
      <psa10 value="0.0041912807" flag="0"/>
      <psa30 value="0.0004273444" flag="0"/>
    </comp>
    <comp name="--.HHZ">
      <acc value="0.0113959048" flag="0"/>
      <vel value="0.0042824397" flag="0"/>
      <psa03 value="0.0265263854" flag="0"/>
      <psa10 value="0.0031848562" flag="0"/>
      <psa30 value="0.0003301292" flag="0"/>
    </comp>
  </station>
  <station code="PRMD" name="PRMD" netid="HP" insttype="120P," commtype="DIG" lat="39.5299" lon="21.0965">
    <comp name="--.HHE">
      <acc value="0.0237787116" flag="0"/>
      <vel value="0.0150091710" flag="0"/>
      <psa03 value="0.0411820391" flag="0"/>
      <psa10 value="0.0177827893" flag="0"/>
      <psa30 value="0.0008501737" flag="0"/>
    </comp>
    <comp name="--.HHN">
      <acc value="0.0128958161" flag="0"/>
      <vel value="0.0093520562" flag="0"/>
      <psa03 value="0.0352956449" flag="0"/>
      <psa10 value="0.0103879360" flag="0"/>
      <psa30 value="0.0006254702" flag="0"/>
    </comp>
    <comp name="--.HHZ">
      <acc value="0.0119113559" flag="0"/>
      <vel value="0.0104589778" flag="0"/>
      <psa03 value="0.0390647821" flag="0"/>
      <psa10 value="0.0116176106" flag="0"/>
      <psa30 value="0.0006863472" flag="0"/>
    </comp>
  </station>
  <station code="EVGI" name="EVGI" netid="HT" insttype="30" commtype="DIG" lat="38.621" lon="20.656">
    <comp name="--.HHE">
      <acc value="0.2232718380" flag="0"/>
      <vel value="0.0456398747" flag="0"/>
      <psa03 value="0.1533638971" flag="0"/>
      <psa10 value="0.0083267892" flag="0"/>
      <psa30 value="0.0007843819" flag="0"/>
    </comp>
    <comp name="--.HHN">
      <acc value="0.1857828839" flag="0"/>
      <vel value="0.0389484796" flag="0"/>
      <psa03 value="0.0989478620" flag="0"/>
      <psa10 value="0.0097209384" flag="0"/>
      <psa30 value="0.0006941588" flag="0"/>
    </comp>
    <comp name="--.HHZ">
      <acc value="0.1404673753" flag="0"/>
      <vel value="0.0351492761" flag="0"/>
      <psa03 value="0.1641812739" flag="0"/>
      <psa10 value="0.0053146363" flag="0"/>
      <psa30 value="0.0005389020" flag="0"/>
    </comp>
  </station>
  <station code="IGT" name="IGT" netid="HT" insttype="Compact," commtype="DIG" lat="39.5315" lon="20.3299">
    <comp name="--.HHN">
      <acc value="0.0788849315" flag="0"/>
      <vel value="0.0180152615" flag="0"/>
      <psa03 value="0.0505455142" flag="0"/>
      <psa10 value="0.0079647941" flag="0"/>
      <psa30 value="0.0013222395" flag="0"/>
    </comp>
    <comp name="--.HHE">
      <acc value="0.1102357354" flag="0"/>
      <vel value="0.0224124396" flag="0"/>
      <psa03 value="0.0735851929" flag="0"/>
      <psa10 value="0.0109321848" flag="0"/>
      <psa30 value="0.0008304977" flag="0"/>
    </comp>
    <comp name="--.HHZ">
      <acc value="0.0989417969" flag="0"/>
      <vel value="0.0180965843" flag="0"/>
      <psa03 value="0.0686547438" flag="0"/>
      <psa10 value="0.0111590870" flag="0"/>
      <psa30 value="0.0011104594" flag="0"/>
    </comp>
  </station>
  <station code="LKD2" name="LKD2" netid="HT" insttype="100" commtype="DIG" lat="38.7889" lon="20.6578">
    <comp name="--.HHE">
      <acc value="0.2640557631" flag="0"/>
      <vel value="0.1095144390" flag="0"/>
      <psa03 value="0.4095282853" flag="0"/>
      <psa10 value="0.0393542056" flag="0"/>
      <psa30 value="0.0024501594" flag="0"/>
    </comp>
    <comp name="--.HHN">
      <acc value="0.3298078922" flag="0"/>
      <vel value="0.0997313753" flag="0"/>
      <psa03 value="0.5580655166" flag="0"/>
      <psa10 value="0.0311854632" flag="0"/>
      <psa30 value="0.0018128410" flag="0"/>
    </comp>
    <comp name="--.HHZ">
      <acc value="0.1152184782" flag="0"/>
      <vel value="0.0353566168" flag="0"/>
      <psa03 value="0.1315489681" flag="0"/>
      <psa10 value="0.0198179524" flag="0"/>
      <psa30 value="0.0010270200" flag="0"/>
    </comp>
  </station>
  <station code="NYDR" name="NYDR" netid="HT" insttype="1s-100Hz," commtype="DIG" lat="38.7135" lon="20.6983">
    <comp name="--.HHE">
      <acc value="0.1193996244" flag="0"/>
      <vel value="0.0375401006" flag="0"/>
      <psa03 value="0.1305153920" flag="0"/>
      <psa10 value="0.0310148781" flag="0"/>
      <psa30 value="0.0012652737" flag="0"/>
    </comp>
    <comp name="--.HHZ">
      <acc value="0.0668050806" flag="0"/>
      <vel value="0.0282126181" flag="0"/>
      <psa03 value="0.0753113047" flag="0"/>
      <psa10 value="0.0110888104" flag="0"/>
      <psa30 value="0.0005951301" flag="0"/>
    </comp>
    <comp name="--.HHN">
      <acc value="0.1100700705" flag="0"/>
      <vel value="0.0473239492" flag="0"/>
      <psa03 value="0.1663807148" flag="0"/>
      <psa10 value="0.0131998756" flag="0"/>
      <psa30 value="0.0012414076" flag="0"/>
    </comp>
  </station>
  <station code="TSLK" name="TSLK" netid="HT" insttype="1s-100Hz," commtype="DIG" lat="38.8249" lon="20.6554">
    <comp name="--.HHZ">
      <acc value="0.1599197348" flag="0"/>
      <vel value="0.0335973918" flag="0"/>
      <psa03 value="0.1856946172" flag="0"/>
      <psa10 value="0.0126255990" flag="0"/>
      <psa30 value="0.0015012742" flag="0"/>
    </comp>
    <comp name="--.HHN">
      <acc value="0.7497225517" flag="0"/>
      <vel value="0.1718879879" flag="0"/>
      <psa03 value="0.6830640326" flag="0"/>
      <psa10 value="0.0544134157" flag="0"/>
      <psa30 value="0.0053169380" flag="0"/>
    </comp>
    <comp name="--.HHE">
      <acc value="0.4709233638" flag="0"/>
      <vel value="0.1155524199" flag="0"/>
      <psa03 value="0.4011181905" flag="0"/>
      <psa10 value="0.0297577604" flag="0"/>
      <psa30 value="0.0027627572" flag="0"/>
    </comp>
  </station>
</stationlist>
