<stationlist created="1778069356">
	<station code="IMMV" name="IMMV" netid="GE" source="GEOFON" insttype="" lat="35.4606" lon="23.9811">
		<comp name="--.HNE" depth="0.0">
			<acc value="0.00631326411841952" flag="0"/>
			<vel value="0.00276988203695185" flag="0"/>
			<psa03 value="0.0136016308119546" flag="0"/>
			<psa10 value="0.00436504967767859" flag="0"/>
			<psa30 value="0.00033422428343849" flag="0"/>
		</comp>
		<comp name="--.HNN" depth="0.0">
			<acc value="0.0076911390476507" flag="0"/>
			<vel value="0.0025858277023772" flag="0"/>
			<psa03 value="0.0167335852752336" flag="0"/>
			<psa10 value="0.00370062790939726" flag="0"/>
			<psa30 value="0.000362859295674184" flag="0"/>
		</comp>
		<comp name="--.HNZ" depth="0.0">
			<acc value="0.00445889445958863" flag="0"/>
			<vel value="0.00173334818459191" flag="0"/>
			<psa03 value="0.014809670390648" flag="0"/>
			<psa10 value="0.00153421026494054" flag="0"/>
			<psa30 value="0.000290376920952584" flag="0"/>
		</comp>
	</station>
	<station code="KARP" name="KARP" netid="GE" source="GEOFON" insttype="" lat="35.5471" lon="27.16106">
		<comp name="--.HNE" depth="0.0">
			<acc value="0.0239018869571677" flag="0"/>
			<vel value="0.00539505736769982" flag="0"/>
			<psa03 value="0.0197760553252761" flag="0"/>
			<psa10 value="0.00788447165027185" flag="0"/>
			<psa30 value="0.000483663253543518" flag="0"/>
		</comp>
		<comp name="--.HNN" depth="0.0">
			<acc value="0.021323083683776" flag="0"/>
			<vel value="0.00465156998650492" flag="0"/>
			<psa03 value="0.0182100780936366" flag="0"/>
			<psa10 value="0.00709924592412118" flag="0"/>
			<psa30 value="0.000526168349830876" flag="0"/>
		</comp>
		<comp name="--.HNZ" depth="0.0">
			<acc value="0.00961794594150313" flag="0"/>
			<vel value="0.00271300371684936" flag="0"/>
			<psa03 value="0.0161966787958144" flag="0"/>
			<psa10 value="0.00304828653690285" flag="0"/>
			<psa30 value="0.000456370507506372" flag="0"/>
		</comp>
	</station>
	<station code="KRL1" name="KRL1" netid="HI" source="ITSAK Strong Motion Network" insttype="" lat="37.7951" lon="26.7065">
		<comp name="--.HNE" depth="0.0">
			<acc value="0.0115043800832038" flag="0"/>
			<vel value="0.00429314882573448" flag="0"/>
			<psa03 value="0.0174942027877443" flag="0"/>
			<psa10 value="0.00531134734765504" flag="0"/>
			<psa30 value="0.000480083877014056" flag="0"/>
		</comp>
		<comp name="--.HNN" depth="0.0">
			<acc value="0.00847945112311685" flag="0"/>
			<vel value="0.00416404179953373" flag="0"/>
			<psa03 value="0.0184785313333462" flag="0"/>
			<psa10 value="0.00554087486760677" flag="0"/>
			<psa30 value="0.000346304679225423" flag="0"/>
		</comp>
		<comp name="--.HNZ" depth="0.0">
			<acc value="0.00502099711675703" flag="0"/>
			<vel value="0.00236216350021783" flag="0"/>
			<psa03 value="0.00993276986925633" flag="0"/>
			<psa10 value="0.00365230632624952" flag="0"/>
			<psa30 value="0.000249214090863774" flag="0"/>
		</comp>
	</station>
	<station code="NAX1" name="NAX1" netid="HI" source="ITSAK Strong Motion Network" insttype="" lat="37.101394" lon="25.374103">
		<comp name="--.HNE" depth="0.0">
			<acc value="0.063990424052375" flag="0"/>
			<vel value="0.0244859320189079" flag="0"/>
			<psa03 value="0.0857260678806087" flag="0"/>
			<psa10 value="0.0133891053305178" flag="0"/>
			<psa30 value="0.00137895480797514" flag="0"/>
		</comp>
		<comp name="--.HNN" depth="0.0">
			<acc value="0.0793520686257918" flag="0"/>
			<vel value="0.0205166931637561" flag="0"/>
			<psa03 value="0.118298394298711" flag="0"/>
			<psa10 value="0.00775158729661558" flag="0"/>
			<psa30 value="0.000533774524955982" flag="0"/>
		</comp>
		<comp name="--.HNZ" depth="0.0">
			<acc value="0.0356338660347598" flag="0"/>
			<vel value="0.0190600716180364" flag="0"/>
			<psa03 value="0.0718112416223262" flag="0"/>
			<psa10 value="0.0114763759975867" flag="0"/>
			<psa30 value="0.00137940223004132" flag="0"/>
		</comp>
	</station>
	<station code="SIT2" name="SIT2" netid="HI" source="ITSAK Strong Motion Network" insttype="" lat="35.2059" lon="26.107">
		<comp name="--.HNE" depth="0.0">
			<acc value="0.0275463601828643" flag="0"/>
			<vel value="0.0129141169354384" flag="0"/>
			<psa03 value="0.0834442153430768" flag="0"/>
			<psa10 value="0.0114481884074172" flag="0"/>
			<psa30 value="0.000977169792543055" flag="0"/>
		</comp>
		<comp name="--.HNN" depth="0.0">
			<acc value="0.0300762343747188" flag="0"/>
			<vel value="0.0177530902029374" flag="0"/>
			<psa03 value="0.138521871690169" flag="0"/>
			<psa10 value="0.00933009234610821" flag="0"/>
			<psa30 value="0.000792384479209593" flag="0"/>
		</comp>
		<comp name="--.HNZ" depth="0.0">
			<acc value="0.0254542664309566" flag="0"/>
			<vel value="0.00903013487509977" flag="0"/>
			<psa03 value="0.0684108339193375" flag="0"/>
			<psa10 value="0.00277446423239903" flag="0"/>
			<psa30 value="0.000378519067990579" flag="0"/>
		</comp>
	</station>
	<station code="CHNB" name="CHNB" netid="HL" source="National Observatory of Athens Seismic Network" insttype="" lat="35.48765" lon="24.06605">
		<comp name="00.HNE" depth="0.0">
			<acc value="0.0154886191829842" flag="0"/>
			<vel value="0.00711864421909492" flag="0"/>
			<psa03 value="0.032396442980372" flag="0"/>
			<psa10 value="0.00963751031275763" flag="0"/>
			<psa30 value="0.000671472242157773" flag="0"/>
		</comp>
		<comp name="00.HNN" depth="0.0">
			<acc value="0.0146878893724989" flag="0"/>
			<vel value="0.00735090832641985" flag="0"/>
			<psa03 value="0.0411251488184515" flag="0"/>
			<psa10 value="0.0103754420095954" flag="0"/>
			<psa30 value="0.000707381027187004" flag="0"/>
		</comp>
		<comp name="00.HNZ" depth="0.0">
			<acc value="0.00996345712991076" flag="0"/>
			<vel value="0.00460323117399812" flag="0"/>
			<psa03 value="0.0315257394671987" flag="0"/>
			<psa10 value="0.00352681097766658" flag="0"/>
			<psa30 value="0.000484425476227433" flag="0"/>
		</comp>
	</station>
	<station code="HERG" name="HERG" netid="HL" source="National Observatory of Athens Seismic Network" insttype="" lat="35.32622" lon="25.06586">
		<comp name="00.HNE" depth="0.0">
			<acc value="0.0253162906664722" flag="0"/>
			<vel value="0.0176038756838692" flag="0"/>
			<psa03 value="0.102230522270183" flag="0"/>
			<psa10 value="0.0259583364873872" flag="0"/>
			<psa30 value="0.00307836038460269" flag="0"/>
		</comp>
		<comp name="00.HNN" depth="0.0">
			<acc value="0.0311521368861837" flag="0"/>
			<vel value="0.0131785487594665" flag="0"/>
			<psa03 value="0.0854763603060244" flag="0"/>
			<psa10 value="0.026516519714314" flag="0"/>
			<psa30 value="0.00179100218677284" flag="0"/>
		</comp>
		<comp name="00.HNZ" depth="0.0">
			<acc value="0.0195466374372261" flag="0"/>
			<vel value="0.0109371942181932" flag="0"/>
			<psa03 value="0.0613699039967301" flag="0"/>
			<psa10 value="0.0117803872678594" flag="0"/>
			<psa30 value="0.00104387967274046" flag="0"/>
		</comp>
	</station>
	<station code="IACM" name="IACM" netid="HL" source="National Observatory of Athens Seismic Network" insttype="" lat="35.3058" lon="25.0709">
		<comp name="--.HNE" depth="0.0">
			<acc value="0.0570583837133564" flag="0"/>
			<vel value="0.0252378354279658" flag="0"/>
			<psa03 value="0.0996408941388912" flag="0"/>
			<psa10 value="0.0294439513313523" flag="0"/>
			<psa30 value="0.00192033550805622" flag="0"/>
		</comp>
		<comp name="--.HNN" depth="0.0">
			<acc value="0.0665867425616433" flag="0"/>
			<vel value="0.028790719229564" flag="0"/>
			<psa03 value="0.178834599853232" flag="0"/>
			<psa10 value="0.0287634223686884" flag="0"/>
			<psa30 value="0.00178700373233377" flag="0"/>
		</comp>
		<comp name="--.HNZ" depth="0.0">
			<acc value="0.0381479298768648" flag="0"/>
			<vel value="0.0129087827563776" flag="0"/>
			<psa03 value="0.0808939095658353" flag="0"/>
			<psa10 value="0.00976095979584216" flag="0"/>
			<psa30 value="0.000768223687635726" flag="0"/>
		</comp>
	</station>
	<station code="IMMV" name="IMMV" netid="HL" source="National Observatory of Athens Seismic Network" insttype="" lat="35.4606" lon="23.9811">
		<comp name="--.HNE" depth="0.0">
			<acc value="0.00619081707251385" flag="0"/>
			<vel value="0.00270925221275652" flag="0"/>
			<psa03 value="0.013333177572245" flag="0"/>
			<psa10 value="0.00424021892121361" flag="0"/>
			<psa30 value="0.000271137772106727" flag="0"/>
		</comp>
		<comp name="--.HNN" depth="0.0">
			<acc value="0.00754475476256132" flag="0"/>
			<vel value="0.00253094966575774" flag="0"/>
			<psa03 value="0.0163756476222875" flag="0"/>
			<psa10 value="0.00363619913186695" flag="0"/>
			<psa30 value="0.000276954258967102" flag="0"/>
		</comp>
		<comp name="--.HNZ" depth="0.0">
			<acc value="0.00437000877811075" flag="0"/>
			<vel value="0.00169162367102023" flag="0"/>
			<psa03 value="0.01449647494432" flag="0"/>
			<psa10 value="0.00149394227898409" flag="0"/>
			<psa30 value="0.000189706956061472" flag="0"/>
		</comp>
	</station>
	<station code="MILA" name="MILA" netid="HL" source="National Observatory of Athens Seismic Network" insttype="" lat="36.74288" lon="24.4282">
		<comp name="00.HNE" depth="0.0">
			<acc value="0.022490948058078" flag="0"/>
			<vel value="0.0132505395388818" flag="0"/>
			<psa03 value="0.0814915182050225" flag="0"/>
			<psa10 value="0.0178475148102583" flag="0"/>
			<psa30 value="0.00267565412395517" flag="0"/>
		</comp>
		<comp name="00.HNN" depth="0.0">
			<acc value="0.0381752010891694" flag="0"/>
			<vel value="0.0170411649089618" flag="0"/>
			<psa03 value="0.0914211603698778" flag="0"/>
			<psa10 value="0.0190298312579112" flag="0"/>
			<psa30 value="0.00266643976355012" flag="0"/>
		</comp>
		<comp name="00.HNZ" depth="0.0">
			<acc value="0.0291202447034353" flag="0"/>
			<vel value="0.0139097139174788" flag="0"/>
			<psa03 value="0.0623475312595441" flag="0"/>
			<psa10 value="0.0116637470409995" flag="0"/>
			<psa30 value="0.000780797609424519" flag="0"/>
		</comp>
	</station>
	<station code="THRA" name="THRA" netid="HL" source="National Observatory of Athens Seismic Network" insttype="" lat="36.41502" lon="25.43244">
		<comp name="00.HNE" depth="0.0">
			<acc value="1.03688791405067" flag="0"/>
			<vel value="0.280258254081399" flag="0"/>
			<psa03 value="1.48347260263542" flag="0"/>
			<psa10 value="0.371037276199872" flag="0"/>
			<psa30 value="0.0361293318442544" flag="0"/>
		</comp>
		<comp name="00.HNN" depth="0.0">
			<acc value="0.866064582697839" flag="0"/>
			<vel value="0.291694037752665" flag="0"/>
			<psa03 value="1.02687838409595" flag="0"/>
			<psa10 value="0.186569632533399" flag="0"/>
			<psa30 value="0.0150315917354746" flag="0"/>
		</comp>
		<comp name="00.HNZ" depth="0.0">
			<acc value="0.741247350332382" flag="0"/>
			<vel value="0.194129755062119" flag="0"/>
			<psa03 value="1.16745839729056" flag="0"/>
			<psa10 value="0.110712800588649" flag="0"/>
			<psa30 value="0.0115412521971832" flag="0"/>
		</comp>
	</station>
	<station code="TNSA" name="TNSA" netid="HL" source="National Observatory of Athens Seismic Network" insttype="" lat="37.53942" lon="25.1631">
		<comp name="00.HNE" depth="0.0">
			<acc value="0.0218362937119332" flag="0"/>
			<vel value="0.00455876180798919" flag="0"/>
			<psa03 value="0.0256372843922697" flag="0"/>
			<psa10 value="0.00263755308014712" flag="0"/>
			<psa30 value="0.000336013971703221" flag="0"/>
		</comp>
		<comp name="00.HNN" depth="0.0">
			<acc value="0.0228909915035809" flag="0"/>
			<vel value="0.010145180992293" flag="0"/>
			<psa03 value="0.0513193109911577" flag="0"/>
			<psa10 value="0.00464289878077806" flag="0"/>
			<psa30 value="0.000455475663374006" flag="0"/>
		</comp>
		<comp name="00.HNZ" depth="0.0">
			<acc value="0.0126006166616511" flag="0"/>
			<vel value="0.00628247024027846" flag="0"/>
			<psa03 value="0.0336461393769404" flag="0"/>
			<psa10 value="0.00596771551874509" flag="0"/>
			<psa30 value="0.000392389152042243" flag="0"/>
		</comp>
	</station>
</stationlist>
