<?xml version="1.0" encoding="UTF-8" standalone="yes"?>
<!DOCTYPE earthquake SYSTEM "stationlist.dtd">
<stationlist created="" xmlns="ch.ethz.sed.shakemap.usgs.xml">
  <station code="SNT5" name="SNT5" netid="HA" insttype="1s-100Hz," lat="36.4037" lon="25.3953">
    <comp name="--.HHE">
      <acc value="1.0028697963" flag="0"/>
      <vel value="0.2313212122" flag="0"/>
      <psa03 value="1.0911725678" flag="0"/>
      <psa10 value="0.0864841981" flag="0"/>
      <psa30 value="0.0216768623" flag="0"/>
    </comp>
    <comp name="--.HHN">
      <acc value="0.7197898487" flag="0"/>
      <vel value="0.1273239775" flag="0"/>
      <psa03 value="0.6430028263" flag="0"/>
      <psa10 value="0.0392392593" flag="0"/>
      <psa30 value="0.0165758102" flag="0"/>
    </comp>
    <comp name="--.HHZ">
      <acc value="0.4134089443" flag="0"/>
      <vel value="0.1010331035" flag="0"/>
      <psa03 value="0.2847198275" flag="0"/>
      <psa10 value="0.0257712820" flag="0"/>
      <psa30 value="0.0084212887" flag="0"/>
    </comp>
  </station>
  <station code="MHLO" name="MHLO" netid="HL" insttype="20" lat="36.6898" lon="24.4017">
    <comp name="--.HHE">
      <acc value="0.0315713317" flag="0"/>
      <vel value="0.0187290414" flag="0"/>
      <psa03 value="0.0603176250" flag="0"/>
      <psa10 value="0.0232036513" flag="0"/>
      <psa30 value="0.0022087650" flag="0"/>
    </comp>
    <comp name="--.HHN">
      <acc value="0.0230150607" flag="0"/>
      <vel value="0.0144903998" flag="0"/>
      <psa03 value="0.0618708831" flag="0"/>
      <psa10 value="0.0247115819" flag="0"/>
      <psa30 value="0.0012131893" flag="0"/>
    </comp>
    <comp name="--.HHZ">
      <acc value="0.0098921484" flag="0"/>
      <vel value="0.0061506236" flag="0"/>
      <psa03 value="0.0298687168" flag="0"/>
      <psa10 value="0.0080981931" flag="0"/>
      <psa30 value="0.0010850487" flag="0"/>
    </comp>
  </station>
  <station code="NPS" name="NPS" netid="HL" insttype="CMG3ESPC-120s" lat="35.2613" lon="25.6104">
    <comp name="--.HHE">
      <acc value="0.0128651907" flag="0"/>
      <vel value="0.0045325116" flag="0"/>
      <psa03 value="0.0242537681" flag="0"/>
      <psa10 value="0.0037550244" flag="0"/>
      <psa30 value="0.0002695793" flag="0"/>
    </comp>
    <comp name="--.HHN">
      <acc value="0.0290299439" flag="0"/>
      <vel value="0.0090881107" flag="0"/>
      <psa03 value="0.0642645755" flag="0"/>
      <psa10 value="0.0071101628" flag="0"/>
      <psa30 value="0.0008504842" flag="0"/>
    </comp>
    <comp name="--.HHZ">
      <acc value="0.0236907734" flag="0"/>
      <vel value="0.0077932626" flag="0"/>
      <psa03 value="0.0423423447" flag="0"/>
      <psa10 value="0.0041682423" flag="0"/>
      <psa30 value="0.0007249518" flag="0"/>
    </comp>
  </station>
  <station code="SAP3" name="SAP3" netid="HL" insttype="LE3D20_SMART24" lat="36.4356" lon="25.3454">
    <comp name="--.HHN">
      <acc value="0.3384941777" flag="0"/>
      <vel value="0.0932426047" flag="0"/>
      <psa03 value="0.4997091045" flag="0"/>
      <psa10 value="0.0976654587" flag="0"/>
      <psa30 value="0.0196210846" flag="0"/>
    </comp>
    <comp name="--.HHE">
      <acc value="0.2743468073" flag="0"/>
      <vel value="0.0942985873" flag="0"/>
      <psa03 value="0.4463777602" flag="0"/>
      <psa10 value="0.1400061254" flag="0"/>
      <psa30 value="0.0254297635" flag="0"/>
    </comp>
    <comp name="--.HHZ">
      <acc value="0.3275175476" flag="0"/>
      <vel value="0.0746744417" flag="0"/>
      <psa03 value="0.2999590688" flag="0"/>
      <psa10 value="0.0436724659" flag="0"/>
      <psa30 value="0.0079609890" flag="0"/>
    </comp>
  </station>
  <station code="THERA" name="THERA" netid="HL" insttype="120" lat="36.367" lon="25.4753">
    <comp name="--.HHE">
      <acc value="0.5119039553" flag="0"/>
      <vel value="0.1531589472" flag="0"/>
      <psa03 value="0.6717594502" flag="0"/>
      <psa10 value="0.0695194707" flag="0"/>
      <psa30 value="0.0107241092" flag="0"/>
    </comp>
    <comp name="--.HHN">
      <acc value="0.3381650506" flag="0"/>
      <vel value="0.1119102713" flag="0"/>
      <psa03 value="0.6956539893" flag="0"/>
      <psa10 value="0.0340744552" flag="0"/>
      <psa30 value="0.0050945933" flag="0"/>
    </comp>
    <comp name="--.HHZ">
      <acc value="0.4285995863" flag="0"/>
      <vel value="0.1123544982" flag="0"/>
      <psa03 value="0.6588754914" flag="0"/>
      <psa10 value="0.0490119981" flag="0"/>
      <psa30 value="0.0078028046" flag="0"/>
    </comp>
  </station>
</stationlist>
