<stationlist created="1778136491">
	<station code="KTHA" name="KTHA" netid="GE" source="GEOFON" insttype="" lat="36.2566" lon="23.0621">
		<comp name="--.HNE" depth="0.0">
			<acc value="0.0334188206596581" flag="0"/>
			<vel value="0.028626862141981" flag="0"/>
			<psa03 value="0.11234768081848" flag="0"/>
			<psa10 value="0.042369974823371" flag="0"/>
			<psa30 value="0.00432880849031779" flag="0"/>
		</comp>
		<comp name="--.HNN" depth="0.0">
			<acc value="0.0219035916620342" flag="0"/>
			<vel value="0.0111041185339039" flag="0"/>
			<psa03 value="0.0474714812219863" flag="0"/>
			<psa10 value="0.0151045215322624" flag="0"/>
			<psa30 value="0.00256193875096224" flag="0"/>
		</comp>
		<comp name="--.HNZ" depth="0.0">
			<acc value="0.0282855003378014" flag="0"/>
			<vel value="0.0137954350826873" flag="0"/>
			<psa03 value="0.0457265351638737" flag="0"/>
			<psa10 value="0.025018499674739" flag="0"/>
			<psa30 value="0.00247111207152715" flag="0"/>
		</comp>
	</station>
	<station code="DEYA" name="DEYA" netid="HC" source="Seismological Network of Crete (HC)" insttype="" lat="35.4825" lon="24.014">
		<comp name="--.HNE" depth="0.0">
			<acc value="0.02449036045474" flag="0"/>
			<vel value="0.0306142243104772" flag="0"/>
			<psa03 value="0.068813513778902" flag="0"/>
			<psa10 value="0.0937640052995812" flag="0"/>
			<psa30 value="0.00430464769874392" flag="0"/>
		</comp>
		<comp name="--.HNN" depth="0.0">
			<acc value="0.0241070606881209" flag="0"/>
			<vel value="0.0278494442305688" flag="0"/>
			<psa03 value="0.0649209418031123" flag="0"/>
			<psa10 value="0.0613200890144738" flag="0"/>
			<psa30 value="0.00432522911378833" flag="0"/>
		</comp>
		<comp name="--.HNZ" depth="0.0">
			<acc value="0.0161689521201673" flag="0"/>
			<vel value="0.0195685902981734" flag="0"/>
			<psa03 value="0.0400442749233532" flag="0"/>
			<psa10 value="0.0241970327612275" flag="0"/>
			<psa30 value="0.00167156883925863" flag="0"/>
		</comp>
	</station>
	<station code="CH01" name="CH01" netid="HI" source="ITSAK Strong Motion Network" insttype="" lat="35.517" lon="24.0208">
		<comp name="--.HNE" depth="0.0">
			<acc value="0.0272344986649979" flag="0"/>
			<vel value="0.0324722627115258" flag="0"/>
			<psa03 value="0.0611178542405592" flag="0"/>
			<psa10 value="0.0303137398280115" flag="0"/>
			<psa30 value="0.00599948248544406" flag="0"/>
		</comp>
		<comp name="--.HNN" depth="0.0">
			<acc value="0.0258424559500227" flag="0"/>
			<vel value="0.0342219812438169" flag="0"/>
			<psa03 value="0.0546749764875281" flag="0"/>
			<psa10 value="0.0453699397771261" flag="0"/>
			<psa30 value="0.0053305864965009" flag="0"/>
		</comp>
		<comp name="--.HNZ" depth="0.0">
			<acc value="0.0191006488687705" flag="0"/>
			<vel value="0.0187731831841797" flag="0"/>
			<psa03 value="0.0450106598579814" flag="0"/>
			<psa10 value="0.0353995864543104" flag="0"/>
			<psa30 value="0.00301786183640243" flag="0"/>
		</comp>
	</station>
	<station code="NPS1" name="NPS1" netid="HI" source="ITSAK Strong Motion Network" insttype="" lat="36.51263" lon="23.06248">
		<comp name="--.HNE" depth="0.0">
			<acc value="0.0400250873354487" flag="0"/>
			<vel value="0.0387593011865985" flag="0"/>
			<psa03 value="0.0901108041291993" flag="0"/>
			<psa10 value="0.0342841632433169" flag="0"/>
			<psa30 value="0.00300891339507878" flag="0"/>
		</comp>
		<comp name="--.HNN" depth="0.0">
			<acc value="0.0262598342193016" flag="0"/>
			<vel value="0.0223799896525241" flag="0"/>
			<psa03 value="0.104294083627191" flag="0"/>
			<psa10 value="0.0308090360552757" flag="0"/>
			<psa30 value="0.00228051027133331" flag="0"/>
		</comp>
		<comp name="--.HNZ" depth="0.0">
			<acc value="0.0202247972183098" flag="0"/>
			<vel value="0.0115373625135984" flag="0"/>
			<psa03 value="0.0694399046715578" flag="0"/>
			<psa10 value="0.0170051704694065" flag="0"/>
			<psa30 value="0.00199326530484401" flag="0"/>
		</comp>
	</station>
	<station code="ANKY" name="ANKY" netid="HL" source="National Observatory of Athens Seismic Network" insttype="" lat="35.86704" lon="23.30117">
		<comp name="00.HNE" depth="0.0">
			<acc value="0.0737992534600785" flag="0"/>
			<vel value="0.033677098306892" flag="0"/>
			<psa03 value="0.163935445049348" flag="0"/>
			<psa10 value="0.0563268587558747" flag="0"/>
			<psa30 value="0.00310958335996989" flag="0"/>
		</comp>
		<comp name="00.HNN" depth="0.0">
			<acc value="0.0637341353508583" flag="0"/>
			<vel value="0.0350945879842857" flag="0"/>
			<psa03 value="0.131900025110665" flag="0"/>
			<psa10 value="0.0343646992152298" flag="0"/>
			<psa30 value="0.00485050261948684" flag="0"/>
		</comp>
		<comp name="00.HNZ" depth="0.0">
			<acc value="0.0718499630856075" flag="0"/>
			<vel value="0.0351349445981952" flag="0"/>
			<psa03 value="0.224426908397251" flag="0"/>
			<psa10 value="0.0162320251390428" flag="0"/>
			<psa30 value="0.00460755243754962" flag="0"/>
		</comp>
	</station>
	<station code="IMMV" name="IMMV" netid="HL" source="National Observatory of Athens Seismic Network" insttype="" lat="35.4606" lon="23.9811">
		<comp name="--.HNE" depth="0.0">
			<acc value="0.0202887630473882" flag="0"/>
			<vel value="0.0266783029508116" flag="0"/>
			<psa03 value="0.0674265053737355" flag="0"/>
			<psa10 value="0.0299714619473817" flag="0"/>
			<psa30 value="0.00349033953829138" flag="0"/>
		</comp>
		<comp name="--.HNN" depth="0.0">
			<acc value="0.0199364774169708" flag="0"/>
			<vel value="0.022693822133712" flag="0"/>
			<psa03 value="0.0579858997772802" flag="0"/>
			<psa10 value="0.0322747907440903" flag="0"/>
			<psa30 value="0.00339772317059156" flag="0"/>
		</comp>
		<comp name="--.HNZ" depth="0.0">
			<acc value="0.016130598325613" flag="0"/>
			<vel value="0.0153881356152285" flag="0"/>
			<psa03 value="0.0567331179919686" flag="0"/>
			<psa10 value="0.0133568909417527" flag="0"/>
			<psa30 value="0.00186038095118774" flag="0"/>
		</comp>
	</station>
	<station code="KTHA" name="KTHA" netid="HL" source="National Observatory of Athens Seismic Network" insttype="" lat="36.2566" lon="23.0621">
		<comp name="--.HNE" depth="0.0">
			<acc value="0.579778890763289" flag="0"/>
			<vel value="0.304305893903777" flag="0"/>
			<psa03 value="2.11787235027589" flag="0"/>
			<psa10 value="0.321773422180757" flag="0"/>
			<psa30 value="0.020010951910022" flag="0"/>
		</comp>
		<comp name="--.HNN" depth="0.0">
			<acc value="0.396432058283884" flag="0"/>
			<vel value="0.192934836709305" flag="0"/>
			<psa03 value="0.845985642738282" flag="0"/>
			<psa10 value="0.11709124956415" flag="0"/>
			<psa30 value="0.00705137176303963" flag="0"/>
		</comp>
		<comp name="--.HNZ" depth="0.0">
			<acc value="0.488003605605197" flag="0"/>
			<vel value="0.22103934072404" flag="0"/>
			<psa03 value="0.874352201734267" flag="0"/>
			<psa10 value="0.152233120908339" flag="0"/>
			<psa30 value="0.00666658878612249" flag="0"/>
		</comp>
	</station>
</stationlist>
