<?xml version="1.0" encoding="UTF-8" standalone="yes"?>
<!DOCTYPE earthquake SYSTEM "stationlist.dtd">
<stationlist created="" xmlns="ch.ethz.sed.shakemap.usgs.xml">
  <station code="GVD" name="GVD" netid="GE" insttype="STS-2/N" lat="34.8391" lon="24.0874">
    <comp name="--.HHN">
      <acc value="0.0200924386" flag="0"/>
      <vel value="0.0162176367" flag="0"/>
      <psa03 value="0.0682508364" flag="0"/>
      <psa10 value="0.0128410039" flag="0"/>
      <psa30 value="0.0014108460" flag="0"/>
    </comp>
    <comp name="--.HHZ">
      <acc value="0.0118175584" flag="0"/>
      <vel value="0.0073624646" flag="0"/>
      <psa03 value="0.0277754128" flag="0"/>
      <psa10 value="0.0070796532" flag="0"/>
      <psa30 value="0.0008790591" flag="0"/>
    </comp>
    <comp name="--.HHE">
      <acc value="0.0219687110" flag="0"/>
      <vel value="0.0127708672" flag="0"/>
      <psa03 value="0.0781838502" flag="0"/>
      <psa10 value="0.0112475576" flag="0"/>
      <psa30 value="0.0013148984" flag="0"/>
    </comp>
  </station>
  <station code="IMMV" name="IMMV" netid="GE" insttype="STS-2/N" lat="35.4606" lon="23.9811">
    <comp name="--.HHN">
      <acc value="0.0207839508" flag="0"/>
      <vel value="0.0223123140" flag="0"/>
      <psa03 value="0.0601078965" flag="0"/>
      <psa10 value="0.0329115382" flag="0"/>
      <psa30 value="0.0031687304" flag="0"/>
    </comp>
    <comp name="--.HHE">
      <acc value="0.0215802902" flag="0"/>
      <vel value="0.0278781219" flag="0"/>
      <psa03 value="0.0722823959" flag="0"/>
      <psa10 value="0.0313492937" flag="0"/>
      <psa30 value="0.0033286461" flag="0"/>
    </comp>
    <comp name="--.HHZ">
      <acc value="0.0168177433" flag="0"/>
      <vel value="0.0149856616" flag="0"/>
      <psa03 value="0.0582791864" flag="0"/>
      <psa10 value="0.0134013624" flag="0"/>
      <psa30 value="0.0016112009" flag="0"/>
    </comp>
  </station>
  <station code="KTHA" name="KTHA" netid="GE" insttype="STS-2/N" lat="36.2566" lon="23.0621">
    <comp name="--.HHE">
      <acc value="0.0347419036" flag="0"/>
      <vel value="0.0298584568" flag="0"/>
      <psa03 value="0.1181967401" flag="0"/>
      <psa10 value="0.0425438942" flag="0"/>
      <psa30 value="0.0037863971" flag="0"/>
    </comp>
    <comp name="--.HHZ">
      <acc value="0.0297340496" flag="0"/>
      <vel value="0.0139894181" flag="0"/>
      <psa03 value="0.0479312412" flag="0"/>
      <psa10 value="0.0234723973" flag="0"/>
      <psa30 value="0.0014417772" flag="0"/>
    </comp>
    <comp name="--.HHN">
      <acc value="0.0238739429" flag="0"/>
      <vel value="0.0116820207" flag="0"/>
      <psa03 value="0.0502406734" flag="0"/>
      <psa10 value="0.0161101332" flag="0"/>
      <psa30 value="0.0019703124" flag="0"/>
    </comp>
  </station>
  <station code="CHAN" name="CHAN" netid="HC" insttype="120" lat="35.5193" lon="24.0428">
    <comp name="--.HHZ">
      <acc value="0.0257359771" flag="0"/>
      <vel value="0.0242024808" flag="0"/>
      <psa03 value="0.0832618048" flag="0"/>
      <psa10 value="0.0528402344" flag="0"/>
      <psa30 value="0.0030899733" flag="0"/>
    </comp>
    <comp name="--.HHE">
      <acc value="0.0419470629" flag="0"/>
      <vel value="0.0443478187" flag="0"/>
      <psa03 value="0.1102078992" flag="0"/>
      <psa10 value="0.0604337361" flag="0"/>
      <psa30 value="0.0104310909" flag="0"/>
    </comp>
    <comp name="--.HHN">
      <acc value="0.0402368449" flag="0"/>
      <vel value="0.0336261075" flag="0"/>
      <psa03 value="0.0850184807" flag="0"/>
      <psa10 value="0.0598043557" flag="0"/>
      <psa30 value="0.0081836403" flag="0"/>
    </comp>
  </station>
  <station code="GVDS" name="GVDS" netid="HC" insttype="60" lat="34.8389" lon="24.0585">
    <comp name="--.HHZ">
      <acc value="0.0089990678" flag="0"/>
      <vel value="0.0064561684" flag="0"/>
      <psa03 value="0.0238000722" flag="0"/>
      <psa10 value="0.0107684044" flag="0"/>
      <psa30 value="0.0010514948" flag="0"/>
    </comp>
    <comp name="--.HHE">
      <acc value="0.0181036854" flag="0"/>
      <vel value="0.0069650018" flag="0"/>
      <psa03 value="0.0351201078" flag="0"/>
      <psa10 value="0.0107587215" flag="0"/>
      <psa30 value="0.0012131992" flag="0"/>
    </comp>
    <comp name="--.HHN">
      <acc value="0.0202230585" flag="0"/>
      <vel value="0.0093745202" flag="0"/>
      <psa03 value="0.0628077200" flag="0"/>
      <psa10 value="0.0168728696" flag="0"/>
      <psa30 value="0.0013573365" flag="0"/>
    </comp>
  </station>
  <station code="KNDR" name="KNDR" netid="HC" insttype="120" lat="35.2348" lon="23.6248">
    <comp name="--.HHE">
      <acc value="0.0617478539" flag="0"/>
      <vel value="0.0463483490" flag="0"/>
      <psa03 value="0.1734442684" flag="0"/>
      <psa10 value="0.1103245190" flag="0"/>
      <psa30 value="0.0058659451" flag="0"/>
    </comp>
    <comp name="--.HHZ">
      <acc value="0.0395419073" flag="0"/>
      <vel value="0.0296975586" flag="0"/>
      <psa03 value="0.1348944676" flag="0"/>
      <psa10 value="0.0311870187" flag="0"/>
      <psa30 value="0.0020597103" flag="0"/>
    </comp>
    <comp name="--.HHN">
      <acc value="0.0516858841" flag="0"/>
      <vel value="0.0394456697" flag="0"/>
      <psa03 value="0.2222073863" flag="0"/>
      <psa10 value="0.0797925183" flag="0"/>
      <psa30 value="0.0076737557" flag="0"/>
    </comp>
  </station>
  <station code="KTHR" name="KTHR" netid="HC" insttype="60" lat="36.2447" lon="22.9939">
    <comp name="--.HHN">
      <acc value="0.0882149796" flag="0"/>
      <vel value="0.0521950977" flag="0"/>
      <psa03 value="0.3074979997" flag="0"/>
      <psa10 value="0.0431337921" flag="0"/>
      <psa30 value="0.0038265167" flag="0"/>
    </comp>
    <comp name="--.HHE">
      <acc value="0.0800738351" flag="0"/>
      <vel value="0.0629799386" flag="0"/>
      <psa03 value="0.3123027288" flag="0"/>
      <psa10 value="0.0309027559" flag="0"/>
      <psa30 value="0.0037050903" flag="0"/>
    </comp>
    <comp name="--.HHZ">
      <acc value="0.0623467252" flag="0"/>
      <vel value="0.0271154072" flag="0"/>
      <psa03 value="0.2262315666" flag="0"/>
      <psa10 value="0.0194586388" flag="0"/>
      <psa30 value="0.0021693562" flag="0"/>
    </comp>
  </station>
  <station code="RODP" name="RODP" netid="HC" insttype="120" lat="35.5604" lon="23.7577">
    <comp name="--.HHE">
      <acc value="0.0378555635" flag="0"/>
      <vel value="0.0353143342" flag="0"/>
      <psa03 value="0.1244816224" flag="0"/>
      <psa10 value="0.0686217358" flag="0"/>
      <psa30 value="0.0042804906" flag="0"/>
    </comp>
    <comp name="--.HHN">
      <acc value="0.0311391205" flag="0"/>
      <vel value="0.0228658476" flag="0"/>
      <psa03 value="0.0619205375" flag="0"/>
      <psa10 value="0.0293931267" flag="0"/>
      <psa30 value="0.0032000443" flag="0"/>
    </comp>
    <comp name="--.HHZ">
      <acc value="0.0173285368" flag="0"/>
      <vel value="0.0144952289" flag="0"/>
      <psa03 value="0.0559232108" flag="0"/>
      <psa10 value="0.0180555967" flag="0"/>
      <psa30 value="0.0020629967" flag="0"/>
    </comp>
  </station>
  <station code="CH01" name="CH01" netid="HI" insttype="CMG-5TD,ACCELEROMETER,GURALP" lat="35.517" lon="24.0208">
    <comp name="--.HNE">
      <acc value="0.0273954349" flag="0"/>
      <vel value="0.0317304661" flag="0"/>
      <psa03 value="0.0615728962" flag="0"/>
      <psa10 value="0.0302589168" flag="0"/>
      <psa30 value="0.0055489802" flag="0"/>
    </comp>
    <comp name="--.HNN">
      <acc value="0.0257590556" flag="0"/>
      <vel value="0.0332246102" flag="0"/>
      <psa03 value="0.0541625895" flag="0"/>
      <psa10 value="0.0452922103" flag="0"/>
      <psa30 value="0.0049202346" flag="0"/>
    </comp>
    <comp name="--.HNZ">
      <acc value="0.0202384380" flag="0"/>
      <vel value="0.0189532824" flag="0"/>
      <psa03 value="0.0444758932" flag="0"/>
      <psa10 value="0.0300591966" flag="0"/>
      <psa30 value="0.0028301498" flag="0"/>
    </comp>
  </station>
  <station code="ANKY" name="ANKY" netid="HL" insttype="60" lat="35.867" lon="23.3012">
    <comp name="--.HHZ">
      <acc value="0.0746752311" flag="0"/>
      <vel value="0.0352732301" flag="0"/>
      <psa03 value="0.2303807872" flag="0"/>
      <psa10 value="0.0161072387" flag="0"/>
      <psa30 value="0.0039703473" flag="0"/>
    </comp>
    <comp name="--.HHE">
      <acc value="0.0675671023" flag="0"/>
      <vel value="0.0335272497" flag="0"/>
      <psa03 value="0.1719087015" flag="0"/>
      <psa10 value="0.0499723868" flag="0"/>
      <psa30 value="0.0032790215" flag="0"/>
    </comp>
    <comp name="--.HHN">
      <acc value="0.0562752195" flag="0"/>
      <vel value="0.0367836051" flag="0"/>
      <psa03 value="0.1282114983" flag="0"/>
      <psa10 value="0.0346756173" flag="0"/>
      <psa30 value="0.0042310622" flag="0"/>
    </comp>
  </station>
  <station code="GVD" name="GVD" netid="HL" insttype="120" lat="34.8391" lon="24.0874">
    <comp name="--.HHE">
      <acc value="0.0213985761" flag="0"/>
      <vel value="0.0125664385" flag="0"/>
      <psa03 value="0.0759753166" flag="0"/>
      <psa10 value="0.0111700082" flag="0"/>
      <psa30 value="0.0013141705" flag="0"/>
    </comp>
    <comp name="--.HHN">
      <acc value="0.0198461802" flag="0"/>
      <vel value="0.0158794079" flag="0"/>
      <psa03 value="0.0663795460" flag="0"/>
      <psa10 value="0.0127324027" flag="0"/>
      <psa30 value="0.0014080684" flag="0"/>
    </comp>
    <comp name="--.HHZ">
      <acc value="0.0114757189" flag="0"/>
      <vel value="0.0072900804" flag="0"/>
      <psa03 value="0.0270351096" flag="0"/>
      <psa10 value="0.0070560022" flag="0"/>
      <psa30 value="0.0008771473" flag="0"/>
    </comp>
  </station>
  <station code="IMMV" name="IMMV" netid="HL" insttype="120" lat="35.4606" lon="23.9811">
    <comp name="--.HHN">
      <acc value="0.0201768207" flag="0"/>
      <vel value="0.0220145244" flag="0"/>
      <psa03 value="0.0585669660" flag="0"/>
      <psa10 value="0.0326920752" flag="0"/>
      <psa30 value="0.0031667436" flag="0"/>
    </comp>
    <comp name="--.HHE">
      <acc value="0.0210718876" flag="0"/>
      <vel value="0.0276725557" flag="0"/>
      <psa03 value="0.0703453127" flag="0"/>
      <psa10 value="0.0311402170" flag="0"/>
      <psa30 value="0.0033272432" flag="0"/>
    </comp>
    <comp name="--.HHZ">
      <acc value="0.0163415918" flag="0"/>
      <vel value="0.0147834481" flag="0"/>
      <psa03 value="0.0567799725" flag="0"/>
      <psa10 value="0.0133308010" flag="0"/>
      <psa30 value="0.0016067045" flag="0"/>
    </comp>
  </station>
  <station code="KTHA" name="KTHA" netid="HL" insttype="120" lat="36.2566" lon="23.0621">
    <comp name="--.HHZ">
      <acc value="0.0287568508" flag="0"/>
      <vel value="0.0136380574" flag="0"/>
      <psa03 value="0.0464956468" flag="0"/>
      <psa10 value="0.0233352970" flag="0"/>
      <psa30 value="0.0014370729" flag="0"/>
    </comp>
    <comp name="--.HHN">
      <acc value="0.0231470086" flag="0"/>
      <vel value="0.0114729762" flag="0"/>
      <psa03 value="0.0491449059" flag="0"/>
      <psa10 value="0.0159835967" flag="0"/>
      <psa30 value="0.0019634683" flag="0"/>
    </comp>
    <comp name="--.HHE">
      <acc value="0.0338015619" flag="0"/>
      <vel value="0.0296193185" flag="0"/>
      <psa03 value="0.1150480607" flag="0"/>
      <psa10 value="0.0422600488" flag="0"/>
      <psa30 value="0.0037680169" flag="0"/>
    </comp>
  </station>
  <station code="VAM" name="VAM" netid="HL" insttype="CMG3ESPC-120s" lat="35.407" lon="24.1997">
    <comp name="--.HHN">
      <acc value="0.0155501344" flag="0"/>
      <vel value="0.0155034412" flag="0"/>
      <psa03 value="0.0486175256" flag="0"/>
      <psa10 value="0.0268391237" flag="0"/>
      <psa30 value="0.0015883632" flag="0"/>
    </comp>
    <comp name="--.HHE">
      <acc value="0.0143052045" flag="0"/>
      <vel value="0.0126136828" flag="0"/>
      <psa03 value="0.0400073496" flag="0"/>
      <psa10 value="0.0220617149" flag="0"/>
      <psa30 value="0.0014067295" flag="0"/>
    </comp>
    <comp name="--.HHZ">
      <acc value="0.0094045763" flag="0"/>
      <vel value="0.0079885064" flag="0"/>
      <psa03 value="0.0295431945" flag="0"/>
      <psa10 value="0.0156454130" flag="0"/>
      <psa30 value="0.0014631914" flag="0"/>
    </comp>
  </station>
</stationlist>
