<?xml version="1.0" encoding="UTF-8" standalone="yes"?>
<!DOCTYPE earthquake SYSTEM "stationlist.dtd">
<stationlist created="" xmlns="ch.ethz.sed.shakemap.usgs.xml">
  <station code="SABO" name="SABO" netid="OX" insttype="" lat="45.9875" lon="13.6336">
    <comp name="--.HNE">
      <acc value="0.0318091583" flag="0"/>
      <vel value="0.0134093698" flag="0"/>
      <psa03 value="0.0586981428" flag="0"/>
      <psa10 value="0.0172674607" flag="0"/>
      <psa30 value="0.0009243320" flag="0"/>
    </comp>
    <comp name="--.HNN">
      <acc value="0.0299010733" flag="0"/>
      <vel value="0.0134329169" flag="0"/>
      <psa03 value="0.0594856021" flag="0"/>
      <psa10 value="0.0240247342" flag="0"/>
      <psa30 value="0.0011121750" flag="0"/>
    </comp>
    <comp name="--.HNZ">
      <acc value="0.0136551169" flag="0"/>
      <vel value="0.0106867858" flag="0"/>
      <psa03 value="0.0249808731" flag="0"/>
      <psa10 value="0.0087395984" flag="0"/>
      <psa30 value="0.0026047092" flag="0"/>
    </comp>
  </station>
</stationlist>
