<stationlist xmlns:esm="https://esm-db.eu/esmws/shakemap/1/" created="1784339687">
	<station code="DST2" name="DST2" netid="NI" source="North-East Italy Broadband Network (NI)" insttype="" lat="45.6589" lon="13.8013" esm:processing="manual (Paolucci et al 2011)" esm:quality="best">
		<comp name="--.HNE" depth="0.0">
			<acc value="0.017708507187676" flag="0"/>
			<vel value="0.005105687465206" flag="0"/>
			<psa03 value="0.033290575128885" flag="0"/>
			<psa10 value="0.00312114449487842" flag="0"/>
			<psa30 value="0.000300347344453998" flag="0"/>
		</comp>
		<comp name="--.HNN" depth="0.0">
			<acc value="0.0188044475626868" flag="0"/>
			<vel value="0.00413461491913963" flag="0"/>
			<psa03 value="0.0209439173796408" flag="0"/>
			<psa10 value="0.00262636179607809" flag="0"/>
			<psa30 value="0.00029670319679709" flag="0"/>
		</comp>
		<comp name="--.HNZ" depth="0.0">
			<acc value="0.0078990443828119" flag="0"/>
			<vel value="0.00301331544677498" flag="0"/>
			<psa03 value="0.0126540088388807" flag="0"/>
			<psa10 value="0.0014342432537622" flag="0"/>
			<psa30 value="0.000128759271857558" flag="0"/>
		</comp>
	</station>
	<station code="SABO" name="SABO" netid="OX" source="North-East Italy Seismic Network" insttype="" lat="45.9875" lon="13.6337" esm:processing="manual (Paolucci et al 2011)" esm:quality="good">
		<comp name="--.HNE" depth="0.0">
			<acc value="0.0320841328902934" flag="0"/>
			<vel value="0.0134120111087495" flag="0"/>
			<psa03 value="0.0585521444173204" flag="0"/>
			<psa10 value="0.0173166765198283" flag="0"/>
			<psa30 value="0.0010633167936852" flag="0"/>
		</comp>
		<comp name="--.HNN" depth="0.0">
			<acc value="0.0298748395043472" flag="0"/>
			<vel value="0.0134753684262273" flag="0"/>
			<psa03 value="0.0596058913063245" flag="0"/>
			<psa10 value="0.0241794511449554" flag="0"/>
			<psa30 value="0.00116991000079805" flag="0"/>
		</comp>
		<comp name="--.HNZ" depth="0.0">
			<acc value="0.0143145151303136" flag="0"/>
			<vel value="0.00670613401999711" flag="0"/>
			<psa03 value="0.0245500976776305" flag="0"/>
			<psa10 value="0.00463178652063417" flag="0"/>
			<psa30 value="0.000290552476842194" flag="0"/>
		</comp>
	</station>
	<station code="BOJS" name="BOJS" netid="SL" source="Seismic Network of the Republic of Slovenia (SNRS)" insttype="" lat="45.5043" lon="15.2518" esm:processing="manual (Paolucci et al 2011)" esm:quality="good">
		<comp name="--.HNE" depth="0.0">
			<acc value="0.0614147549549877" flag="0"/>
			<vel value="0.0162448389284171" flag="0"/>
			<psa03 value="0.0738749511444939" flag="0"/>
			<psa10 value="0.005623016559768" flag="0"/>
			<psa30 value="0.000445183657899182" flag="0"/>
		</comp>
		<comp name="--.HNN" depth="0.0">
			<acc value="0.0466732452833231" flag="0"/>
			<vel value="0.0127399368277421" flag="0"/>
			<psa03 value="0.0588635712977319" flag="0"/>
			<psa10 value="0.00483535469351309" flag="0"/>
			<psa30 value="0.000408691865496877" flag="0"/>
		</comp>
		<comp name="--.HNZ" depth="0.0">
			<acc value="0.0338239055152534" flag="0"/>
			<vel value="0.0068321689798934" flag="0"/>
			<psa03 value="0.0452681498342674" flag="0"/>
			<psa10 value="0.00237543337642895" flag="0"/>
			<psa30 value="0.000223957231900669" flag="0"/>
		</comp>
	</station>
	<station code="CADS" name="CADS" netid="SL" source="Seismic Network of the Republic of Slovenia (SNRS)" insttype="" lat="46.2281" lon="13.7368" esm:processing="manual (Paolucci et al 2011)" esm:quality="best">
		<comp name="--.HNE" depth="0.0">
			<acc value="0.00743780595893872" flag="0"/>
			<vel value="0.00328954094285961" flag="0"/>
			<psa03 value="0.0178700119256031" flag="0"/>
			<psa10 value="0.00217896700211816" flag="0"/>
			<psa30 value="0.000120297500368878" flag="0"/>
		</comp>
		<comp name="--.HNN" depth="0.0">
			<acc value="0.00655742430057185" flag="0"/>
			<vel value="0.00271103727592742" flag="0"/>
			<psa03 value="0.0195380299756941" flag="0"/>
			<psa10 value="0.00151692978602828" flag="0"/>
			<psa30 value="8.94205135141302e-05" flag="0"/>
		</comp>
		<comp name="--.HNZ" depth="0.0">
			<acc value="0.00445765361603028" flag="0"/>
			<vel value="0.00171282295136185" flag="0"/>
			<psa03 value="0.0105674506928078" flag="0"/>
			<psa10 value="0.00170826371096056" flag="0"/>
			<psa30 value="6.1031002639966e-05" flag="0"/>
		</comp>
	</station>
	<station code="CEY" name="CEY" netid="SL" source="Seismic Network of the Republic of Slovenia (SNRS)" insttype="" lat="45.7381" lon="14.4221" esm:processing="manual (Paolucci et al 2011)" esm:quality="best">
		<comp name="--.HNE" depth="0.0">
			<acc value="0.0257270266009253" flag="0"/>
			<vel value="0.00599338727468056" flag="0"/>
			<psa03 value="0.0400001211658785" flag="0"/>
			<psa10 value="0.00402320979915614" flag="0"/>
			<psa30 value="0.00029220865426439" flag="0"/>
		</comp>
		<comp name="--.HNN" depth="0.0">
			<acc value="0.0233813907228894" flag="0"/>
			<vel value="0.0058475427451118" flag="0"/>
			<psa03 value="0.0333050187940212" flag="0"/>
			<psa10 value="0.00446009592820005" flag="0"/>
			<psa30 value="0.000237258191149072" flag="0"/>
		</comp>
		<comp name="--.HNZ" depth="0.0">
			<acc value="0.0170241590416099" flag="0"/>
			<vel value="0.00450082198610569" flag="0"/>
			<psa03 value="0.0330798007494523" flag="0"/>
			<psa10 value="0.00175292612275083" flag="0"/>
			<psa30 value="0.000228599779030074" flag="0"/>
		</comp>
	</station>
	<station code="CRES" name="CRES" netid="SL" source="Seismic Network of the Republic of Slovenia (SNRS)" insttype="" lat="45.826" lon="15.4569" esm:processing="manual (Paolucci et al 2011)" esm:quality="good">
		<comp name="--.HNE" depth="0.0">
			<acc value="0.0235071792512331" flag="0"/>
			<vel value="0.00901186023316414" flag="0"/>
			<psa03 value="0.0549416812832339" flag="0"/>
			<psa10 value="0.00508994265248855" flag="0"/>
			<psa30 value="0.000468293365885369" flag="0"/>
		</comp>
		<comp name="--.HNN" depth="0.0">
			<acc value="0.0217652682018664" flag="0"/>
			<vel value="0.00774704338289105" flag="0"/>
			<psa03 value="0.062438584166314" flag="0"/>
			<psa10 value="0.00503605861417498" flag="0"/>
			<psa30 value="0.000319862543490189" flag="0"/>
		</comp>
		<comp name="--.HNZ" depth="0.0">
			<acc value="0.0144951718873651" flag="0"/>
			<vel value="0.00675725189834659" flag="0"/>
			<psa03 value="0.0345477599737211" flag="0"/>
			<psa10 value="0.00198564919576336" flag="0"/>
			<psa30 value="0.000150532081386517" flag="0"/>
		</comp>
	</station>
	<station code="CRNS" name="CRNS" netid="SL" source="Seismic Network of the Republic of Slovenia (SNRS)" insttype="" lat="46.0807" lon="14.2613" esm:processing="manual (Paolucci et al 2011)" esm:quality="best">
		<comp name="--.HNE" depth="0.0">
			<acc value="0.0188330622193566" flag="0"/>
			<vel value="0.00596404810806534" flag="0"/>
			<psa03 value="0.0392362450420059" flag="0"/>
			<psa10 value="0.00323580341859598" flag="0"/>
			<psa30 value="0.000207724333634312" flag="0"/>
		</comp>
		<comp name="--.HNN" depth="0.0">
			<acc value="0.0154150861634817" flag="0"/>
			<vel value="0.00437079765106879" flag="0"/>
			<psa03 value="0.0215560933499759" flag="0"/>
			<psa10 value="0.00244065113428455" flag="0"/>
			<psa30 value="0.000130735444435744" flag="0"/>
		</comp>
		<comp name="--.HNZ" depth="0.0">
			<acc value="0.00680669780090732" flag="0"/>
			<vel value="0.00174485397595548" flag="0"/>
			<psa03 value="0.013195932759533" flag="0"/>
			<psa10 value="0.00148405124079886" flag="0"/>
			<psa30 value="0.000116255292488409" flag="0"/>
		</comp>
	</station>
	<station code="DOBS" name="DOBS" netid="SL" source="Seismic Network of the Republic of Slovenia (SNRS)" insttype="" lat="46.1495" lon="15.4695" esm:processing="manual (Paolucci et al 2011)" esm:quality="best">
		<comp name="--.HNE" depth="0.0">
			<acc value="0.021636420568087" flag="0"/>
			<vel value="0.00650597642345696" flag="0"/>
			<psa03 value="0.0316776453635181" flag="0"/>
			<psa10 value="0.00452767681134973" flag="0"/>
			<psa30 value="0.000253395197646465" flag="0"/>
		</comp>
		<comp name="--.HNN" depth="0.0">
			<acc value="0.0208561176140729" flag="0"/>
			<vel value="0.00601203011203696" flag="0"/>
			<psa03 value="0.0319876528791686" flag="0"/>
			<psa10 value="0.00397478424745118" flag="0"/>
			<psa30 value="0.000209724830740733" flag="0"/>
		</comp>
		<comp name="--.HNZ" depth="0.0">
			<acc value="0.0104907033254138" flag="0"/>
			<vel value="0.00279966312737749" flag="0"/>
			<psa03 value="0.0128610030200137" flag="0"/>
			<psa10 value="0.00174814936100367" flag="0"/>
			<psa30 value="0.000126712104992695" flag="0"/>
		</comp>
	</station>
	<station code="GBAS" name="GBAS" netid="SL" source="Seismic Network of the Republic of Slovenia (SNRS)" insttype="" lat="45.9348" lon="14.4434" esm:processing="manual (Paolucci et al 2011)" esm:quality="best">
		<comp name="--.HNE" depth="0.0">
			<acc value="0.00913646600971987" flag="0"/>
			<vel value="0.00198912253272166" flag="0"/>
			<psa03 value="0.0099225713841467" flag="0"/>
			<psa10 value="0.00103990978735646" flag="0"/>
			<psa30 value="0.000221304998911926" flag="0"/>
		</comp>
		<comp name="--.HNN" depth="0.0">
			<acc value="0.0088843978055109" flag="0"/>
			<vel value="0.00191934111389146" flag="0"/>
			<psa03 value="0.00824312419151084" flag="0"/>
			<psa10 value="0.000928967418440279" flag="0"/>
			<psa30 value="0.000200006934373805" flag="0"/>
		</comp>
		<comp name="--.HNZ" depth="0.0">
			<acc value="0.00845404832489112" flag="0"/>
			<vel value="0.00210947532597394" flag="0"/>
			<psa03 value="0.0130689764326153" flag="0"/>
			<psa10 value="0.00121063070615611" flag="0"/>
			<psa30 value="0.000172720504385917" flag="0"/>
		</comp>
	</station>
	<station code="GBRS" name="GBRS" netid="SL" source="Seismic Network of the Republic of Slovenia (SNRS)" insttype="" lat="45.5311" lon="14.8101" esm:processing="manual (Paolucci et al 2011)" esm:quality="good">
		<comp name="--.HNE" depth="0.0">
			<acc value="0.179847446854663" flag="0"/>
			<vel value="0.029393140509131" flag="0"/>
			<psa03 value="0.173831546736679" flag="0"/>
			<psa10 value="0.0094002302191047" flag="0"/>
			<psa30 value="0.000963497785331776" flag="0"/>
		</comp>
		<comp name="--.HNN" depth="0.0">
			<acc value="0.158445660886827" flag="0"/>
			<vel value="0.0260944022975309" flag="0"/>
			<psa03 value="0.0498803564120772" flag="0"/>
			<psa10 value="0.00369518822558644" flag="0"/>
			<psa30 value="0.000289889464171097" flag="0"/>
		</comp>
		<comp name="--.HNZ" depth="0.0">
			<acc value="0.104213321336515" flag="0"/>
			<vel value="0.0118853395908381" flag="0"/>
			<psa03 value="0.0504613271901505" flag="0"/>
			<psa10 value="0.00444764744730377" flag="0"/>
			<psa30 value="0.000286390638641113" flag="0"/>
		</comp>
	</station>
	<station code="GCIS" name="GCIS" netid="SL" source="Seismic Network of the Republic of Slovenia (SNRS)" insttype="" lat="45.8672" lon="15.6275" esm:processing="manual (Paolucci et al 2011)" esm:quality="good">
		<comp name="--.HNE" depth="0.0">
			<acc value="0.0201812577350395" flag="0"/>
			<vel value="0.00778206210459542" flag="0"/>
			<psa03 value="0.045602786585818" flag="0"/>
			<psa10 value="0.00302628289826423" flag="0"/>
			<psa30 value="0.00022325874812986" flag="0"/>
		</comp>
		<comp name="--.HNN" depth="0.0">
			<acc value="0.0203328514545956" flag="0"/>
			<vel value="0.00806053628911536" flag="0"/>
			<psa03 value="0.0682099456576569" flag="0"/>
			<psa10 value="0.00347332821594977" flag="0"/>
			<psa30 value="0.000174135116325883" flag="0"/>
		</comp>
		<comp name="--.HNZ" depth="0.0">
			<acc value="0.0103792262118341" flag="0"/>
			<vel value="0.00355894082133981" flag="0"/>
			<psa03 value="0.0145722491941423" flag="0"/>
			<psa10 value="0.00226386559498542" flag="0"/>
			<psa30 value="0.000129039420624173" flag="0"/>
		</comp>
	</station>
	<station code="GOLS" name="GOLS" netid="SL" source="Seismic Network of the Republic of Slovenia (SNRS)" insttype="" lat="46.0108" lon="15.6245" esm:processing="manual (Paolucci et al 2011)" esm:quality="good">
		<comp name="--.HNE" depth="0.0">
			<acc value="0.0287649122126256" flag="0"/>
			<vel value="0.0111462534296636" flag="0"/>
			<psa03 value="0.0786271357451945" flag="0"/>
			<psa10 value="0.00627386561280631" flag="0"/>
			<psa30 value="0.000412008491457193" flag="0"/>
		</comp>
		<comp name="--.HNN" depth="0.0">
			<acc value="0.0262736205016831" flag="0"/>
			<vel value="0.0100771475507267" flag="0"/>
			<psa03 value="0.0656508177944814" flag="0"/>
			<psa10 value="0.00408536032257146" flag="0"/>
			<psa30 value="0.000370296170929005" flag="0"/>
		</comp>
		<comp name="--.HNZ" depth="0.0">
			<acc value="0.0102785099383152" flag="0"/>
			<vel value="0.00366301874312598" flag="0"/>
			<psa03 value="0.0231359284750496" flag="0"/>
			<psa10 value="0.00274015558435948" flag="0"/>
			<psa30 value="0.000159216237398501" flag="0"/>
		</comp>
	</station>
	<station code="GORS" name="GORS" netid="SL" source="Seismic Network of the Republic of Slovenia (SNRS)" insttype="" lat="46.3174" lon="13.9999" esm:processing="manual (Paolucci et al 2011)" esm:quality="best">
		<comp name="--.HNE" depth="0.0">
			<acc value="0.00719486450107854" flag="0"/>
			<vel value="0.00287170919033124" flag="0"/>
			<psa03 value="0.0114415170589551" flag="0"/>
			<psa10 value="0.00166735928249555" flag="0"/>
			<psa30 value="9.42901980858156e-05" flag="0"/>
		</comp>
		<comp name="--.HNN" depth="0.0">
			<acc value="0.00669484529755928" flag="0"/>
			<vel value="0.00150621996224574" flag="0"/>
			<psa03 value="0.0077259707920253" flag="0"/>
			<psa10 value="0.000880363436945947" flag="0"/>
			<psa30 value="6.53662182120344e-05" flag="0"/>
		</comp>
		<comp name="--.HNZ" depth="0.0">
			<acc value="0.0038512694044151" flag="0"/>
			<vel value="0.00119723990357251" flag="0"/>
			<psa03 value="0.00648039999782008" flag="0"/>
			<psa10 value="0.000890270890140489" flag="0"/>
			<psa30 value="7.43717106150669e-05" flag="0"/>
		</comp>
	</station>
	<station code="GROS" name="GROS" netid="SL" source="Seismic Network of the Republic of Slovenia (SNRS)" insttype="" lat="46.461" lon="15.5018" esm:processing="manual (Paolucci et al 2011)" esm:quality="best">
		<comp name="--.HNE" depth="0.0">
			<acc value="0.00854034222109544" flag="0"/>
			<vel value="0.0040783603823025" flag="0"/>
			<psa03 value="0.0228585611425114" flag="0"/>
			<psa10 value="0.00313885269921" flag="0"/>
			<psa30 value="0.000241924880502483" flag="0"/>
		</comp>
		<comp name="--.HNN" depth="0.0">
			<acc value="0.0105703957791511" flag="0"/>
			<vel value="0.00324440546055896" flag="0"/>
			<psa03 value="0.0142476404508562" flag="0"/>
			<psa10 value="0.00194212392961622" flag="0"/>
			<psa30 value="0.000159687779052269" flag="0"/>
		</comp>
		<comp name="--.HNZ" depth="0.0">
			<acc value="0.00845660145448456" flag="0"/>
			<vel value="0.00420665153401221" flag="0"/>
			<psa03 value="0.0121267343262229" flag="0"/>
			<psa10 value="0.00218531218808224" flag="0"/>
			<psa30 value="0.00021707039547321" flag="0"/>
		</comp>
	</station>
	<station code="JAVS" name="JAVS" netid="SL" source="Seismic Network of the Republic of Slovenia (SNRS)" insttype="" lat="45.8934" lon="14.0643" esm:processing="manual (Paolucci et al 2011)" esm:quality="best">
		<comp name="--.HNE" depth="0.0">
			<acc value="0.0122704562425283" flag="0"/>
			<vel value="0.00349999058572291" flag="0"/>
			<psa03 value="0.0207235017365531" flag="0"/>
			<psa10 value="0.0015446738895626" flag="0"/>
			<psa30 value="0.000152859006367525" flag="0"/>
		</comp>
		<comp name="--.HNN" depth="0.0">
			<acc value="0.0102518967468955" flag="0"/>
			<vel value="0.00338636694115993" flag="0"/>
			<psa03 value="0.0103540862980394" flag="0"/>
			<psa10 value="0.0014079455741734" flag="0"/>
			<psa30 value="0.000123969488411958" flag="0"/>
		</comp>
		<comp name="--.HNZ" depth="0.0">
			<acc value="0.00778048474007604" flag="0"/>
			<vel value="0.00202535817808039" flag="0"/>
			<psa03 value="0.00798688325848561" flag="0"/>
			<psa10 value="0.00178715885925399" flag="0"/>
			<psa30 value="9.47691100194736e-05" flag="0"/>
		</comp>
	</station>
	<station code="KNDS" name="KNDS" netid="SL" source="Seismic Network of the Republic of Slovenia (SNRS)" insttype="" lat="45.5278" lon="14.3807" esm:processing="manual (Paolucci et al 2011)" esm:quality="best">
		<comp name="--.HNE" depth="0.0">
			<acc value="0.0453438526447346" flag="0"/>
			<vel value="0.0154580381697179" flag="0"/>
			<psa03 value="0.0577373873184883" flag="0"/>
			<psa10 value="0.0171752359000879" flag="0"/>
			<psa30 value="0.000778973634428342" flag="0"/>
		</comp>
		<comp name="--.HNN" depth="0.0">
			<acc value="0.0394666627958625" flag="0"/>
			<vel value="0.0170237092586671" flag="0"/>
			<psa03 value="0.0590245507119898" flag="0"/>
			<psa10 value="0.0078469471654867" flag="0"/>
			<psa30 value="0.000706522116124794" flag="0"/>
		</comp>
		<comp name="--.HNZ" depth="0.0">
			<acc value="0.0195661026683722" flag="0"/>
			<vel value="0.00930438199742403" flag="0"/>
			<psa03 value="0.0329224648058744" flag="0"/>
			<psa10 value="0.00343988748503718" flag="0"/>
			<psa30 value="0.000324708437423918" flag="0"/>
		</comp>
	</station>
	<station code="KOGS" name="KOGS" netid="SL" source="Seismic Network of the Republic of Slovenia (SNRS)" insttype="" lat="46.4481" lon="16.2504" esm:processing="manual (Paolucci et al 2011)" esm:quality="best">
		<comp name="--.HNE" depth="0.0">
			<acc value="0.00535063299641706" flag="0"/>
			<vel value="0.0045200638548229" flag="0"/>
			<psa03 value="0.0147057567363125" flag="0"/>
			<psa10 value="0.00574932305194613" flag="0"/>
			<psa30 value="0.000290220605899048" flag="0"/>
		</comp>
		<comp name="--.HNN" depth="0.0">
			<acc value="0.00724902638879852" flag="0"/>
			<vel value="0.00353332921754543" flag="0"/>
			<psa03 value="0.0259230844646319" flag="0"/>
			<psa10 value="0.00347888983437907" flag="0"/>
			<psa30 value="0.000187487967032508" flag="0"/>
		</comp>
		<comp name="--.HNZ" depth="0.0">
			<acc value="0.00402913484735773" flag="0"/>
			<vel value="0.00296693390329507" flag="0"/>
			<psa03 value="0.00941607819605466" flag="0"/>
			<psa10 value="0.00427041305014364" flag="0"/>
			<psa30 value="0.000178188783298921" flag="0"/>
		</comp>
	</station>
	<station code="LJU" name="LJU" netid="SL" source="Seismic Network of the Republic of Slovenia (SNRS)" insttype="" lat="46.0438" lon="14.5278" esm:processing="manual (Paolucci et al 2011)" esm:quality="best">
		<comp name="--.HNE" depth="0.0">
			<acc value="0.0126920520196066" flag="0"/>
			<vel value="0.00390727546047066" flag="0"/>
			<psa03 value="0.016019252603132" flag="0"/>
			<psa10 value="0.00411457897691315" flag="0"/>
			<psa30 value="0.000252573867195789" flag="0"/>
		</comp>
		<comp name="--.HNN" depth="0.0">
			<acc value="0.0185806549574022" flag="0"/>
			<vel value="0.00530846387440526" flag="0"/>
			<psa03 value="0.0209485452904087" flag="0"/>
			<psa10 value="0.00238305317807585" flag="0"/>
			<psa30 value="0.000268526486478554" flag="0"/>
		</comp>
		<comp name="--.HNZ" depth="0.0">
			<acc value="0.00752859815005573" flag="0"/>
			<vel value="0.00274503184654605" flag="0"/>
			<psa03 value="0.00887616873176167" flag="0"/>
			<psa10 value="0.0023475069170612" flag="0"/>
			<psa30 value="0.000238416653308282" flag="0"/>
		</comp>
	</station>
	<station code="MOZS" name="MOZS" netid="SL" source="Seismic Network of the Republic of Slovenia (SNRS)" insttype="" lat="46.2941" lon="14.4433" esm:processing="manual (Paolucci et al 2011)" esm:quality="best">
		<comp name="--.HNE" depth="0.0">
			<acc value="0.00896327714880654" flag="0"/>
			<vel value="0.0037982097008459" flag="0"/>
			<psa03 value="0.018139016725003" flag="0"/>
			<psa10 value="0.0026302039256017" flag="0"/>
			<psa30 value="0.000227645158499526" flag="0"/>
		</comp>
		<comp name="--.HNN" depth="0.0">
			<acc value="0.00695901137719737" flag="0"/>
