<stationlist xmlns:esm="https://esm-db.eu/esmws/shakemap/1/" created="1781574900">
	<station code="SRN" name="SRN" netid="AC" source="Albanian Seismological Network (AC)" insttype="" lat="39.880001" lon="20.0005" esm:processing="manual (Paolucci et al 2011)" esm:quality="best">
		<comp name="01.HNE" depth="0.0">
			<acc value="0.11133813940423" flag="0"/>
			<vel value="0.0746089491148228" flag="0"/>
			<psa03 value="0.266640246941309" flag="0"/>
			<psa10 value="0.0640157432288909" flag="0"/>
			<psa30 value="0.0103305210129763" flag="0"/>
		</comp>
		<comp name="01.HNN" depth="0.0">
			<acc value="0.106968949111436" flag="0"/>
			<vel value="0.0682176430480348" flag="0"/>
			<psa03 value="0.24240051617777" flag="0"/>
			<psa10 value="0.0541045529111617" flag="0"/>
			<psa30 value="0.00930012692109254" flag="0"/>
		</comp>
		<comp name="01.HNZ" depth="0.0">
			<acc value="0.104836121601313" flag="0"/>
			<vel value="0.0659105636152638" flag="0"/>
			<psa03 value="0.280850479966035" flag="0"/>
			<psa10 value="0.085169484560365" flag="0"/>
			<psa30 value="0.00690702422311983" flag="0"/>
		</comp>
	</station>
	<station code="AGRP" name="AGRP" netid="CL" source="Corinth Riff Laboratory (CRLNET)" insttype="" lat="38.3959" lon="21.72277" esm:processing="automatic (Paolucci et al 2011)" esm:quality="best">
		<comp name="00.HNE" depth="0.0">
			<acc value="0.00867219714474378" flag="0"/>
			<vel value="0.00877472497075398" flag="0"/>
			<psa03 value="0.0146022316491156" flag="0"/>
			<psa10 value="0.0130298312873671" flag="0"/>
			<psa30 value="0.00166764911940312" flag="0"/>
		</comp>
		<comp name="00.HNN" depth="0.0">
			<acc value="0.00640236161686793" flag="0"/>
			<vel value="0.00670645308642658" flag="0"/>
			<psa03 value="0.0179155579115563" flag="0"/>
			<psa10 value="0.0107638871171983" flag="0"/>
			<psa30 value="0.00168487161447463" flag="0"/>
		</comp>
		<comp name="00.HNZ" depth="0.0">
			<acc value="0.00497470800352973" flag="0"/>
			<vel value="0.00539677678346207" flag="0"/>
			<psa03 value="0.0131962439780628" flag="0"/>
			<psa10 value="0.00709314488605255" flag="0"/>
			<psa30 value="0.00119356240098667" flag="0"/>
		</comp>
	</station>
	<station code="MALA" name="MALA" netid="CL" source="Corinth Riff Laboratory (CRLNET)" insttype="" lat="38.39341" lon="21.87263" esm:processing="automatic (Paolucci et al 2011)" esm:quality="best">
		<comp name="01.HNE" depth="0.0">
			<acc value="0.0237425469957815" flag="0"/>
			<vel value="0.026213886103842" flag="0"/>
			<psa03 value="0.0380737591788736" flag="0"/>
			<psa10 value="0.0543202259482666" flag="0"/>
			<psa30 value="0.00554470814304933" flag="0"/>
		</comp>
		<comp name="01.HNN" depth="0.0">
			<acc value="0.016999170734785" flag="0"/>
			<vel value="0.0177679445138219" flag="0"/>
			<psa03 value="0.0250791040759174" flag="0"/>
			<psa10 value="0.0345325801139548" flag="0"/>
			<psa30 value="0.00492189355129896" flag="0"/>
		</comp>
		<comp name="01.HNZ" depth="0.0">
			<acc value="0.0292078551881854" flag="0"/>
			<vel value="0.00687260139341839" flag="0"/>
			<psa03 value="0.0131450010001397" flag="0"/>
			<psa10 value="0.0112915592604011" flag="0"/>
			<psa30 value="0.00144097368660248" flag="0"/>
		</comp>
	</station>
	<station code="ART2" name="ART2" netid="HI" source="ITSAK Strong Motion Network" insttype="" lat="39.1474" lon="20.9937" esm:processing="manual (Paolucci et al 2011)" esm:quality="best">
		<comp name="--.HNE" depth="0.0">
			<acc value="0.114208270302634" flag="0"/>
			<vel value="0.0451434522856585" flag="0"/>
			<psa03 value="0.276620158061193" flag="0"/>
			<psa10 value="0.0273723001555311" flag="0"/>
			<psa30 value="0.00567774945634847" flag="0"/>
		</comp>
		<comp name="--.HNN" depth="0.0">
			<acc value="0.0729765394054886" flag="0"/>
			<vel value="0.0347880052427071" flag="0"/>
			<psa03 value="0.182193569430019" flag="0"/>
			<psa10 value="0.0375640596846097" flag="0"/>
			<psa30 value="0.00319591650545199" flag="0"/>
		</comp>
		<comp name="--.HNZ" depth="0.0">
			<acc value="0.0510536247247748" flag="0"/>
			<vel value="0.0251255164290141" flag="0"/>
			<psa03 value="0.0929576475710822" flag="0"/>
			<psa10 value="0.0204430148744027" flag="0"/>
			<psa30 value="0.00357657151364442" flag="0"/>
		</comp>
	</station>
	<station code="JAN2" name="JAN2" netid="HI" source="ITSAK Strong Motion Network" insttype="" lat="39.664" lon="20.85222" esm:processing="manual (Paolucci et al 2011)" esm:quality="best">
		<comp name="--.HNE" depth="0.0">
			<acc value="0.634456395300627" flag="0"/>
			<vel value="0.290166460482981" flag="0"/>
			<psa03 value="3.3004696399142" flag="0"/>
			<psa10 value="0.14809918584442" flag="0"/>
			<psa30 value="0.0089881245857929" flag="0"/>
		</comp>
		<comp name="--.HNN" depth="0.0">
			<acc value="0.490480051213982" flag="0"/>
			<vel value="0.243333481752511" flag="0"/>
			<psa03 value="1.77526943622175" flag="0"/>
			<psa10 value="0.123632377538125" flag="0"/>
			<psa30 value="0.0118604181944777" flag="0"/>
		</comp>
		<comp name="--.HNZ" depth="0.0">
			<acc value="0.267606945715342" flag="0"/>
			<vel value="0.100733942374693" flag="0"/>
			<psa03 value="0.587431039421943" flag="0"/>
			<psa10 value="0.0649339615562923" flag="0"/>
			<psa30 value="0.00972258990721956" flag="0"/>
		</comp>
	</station>
	<station code="KRK1" name="KRK1" netid="HI" source="ITSAK Strong Motion Network" insttype="" lat="39.618861" lon="19.9202" esm:processing="manual (Paolucci et al 2011)" esm:quality="best">
		<comp name="--.HNE" depth="0.0">
			<acc value="0.196538882864631" flag="0"/>
			<vel value="0.0931581551701359" flag="0"/>
			<psa03 value="0.747923629604223" flag="0"/>
			<psa10 value="0.0322059559865283" flag="0"/>
			<psa30 value="0.00438653641984252" flag="0"/>
		</comp>
		<comp name="--.HNN" depth="0.0">
			<acc value="0.176177711086628" flag="0"/>
			<vel value="0.09210789409408" flag="0"/>
			<psa03 value="0.388055831794342" flag="0"/>
			<psa10 value="0.0678596203668329" flag="0"/>
			<psa30 value="0.00379011274303605" flag="0"/>
		</comp>
		<comp name="--.HNZ" depth="0.0">
			<acc value="0.0884216138293122" flag="0"/>
			<vel value="0.0469290305357337" flag="0"/>
			<psa03 value="0.309993223029591" flag="0"/>
			<psa10 value="0.0273395304847294" flag="0"/>
			<psa30 value="0.00417008416427468" flag="0"/>
		</comp>
	</station>
	<station code="LEF2" name="LEF2" netid="HI" source="ITSAK Strong Motion Network" insttype="" lat="38.830093" lon="20.708346" esm:processing="automatic (Paolucci et al 2011)" esm:quality="best">
		<comp name="--.HNE" depth="0.0">
			<acc value="0.146796732712793" flag="0"/>
			<vel value="0.1123201652985" flag="0"/>
			<psa03 value="0.385713676638236" flag="0"/>
			<psa10 value="0.15714140984716" flag="0"/>
			<psa30 value="0.00786239251160561" flag="0"/>
		</comp>
		<comp name="--.HNN" depth="0.0">
			<acc value="0.101673866138211" flag="0"/>
			<vel value="0.0783069938836514" flag="0"/>
			<psa03 value="0.275634738615136" flag="0"/>
			<psa10 value="0.118347234923401" flag="0"/>
			<psa30 value="0.0113159512929111" flag="0"/>
		</comp>
		<comp name="--.HNZ" depth="0.0">
			<acc value="0.0821817389117001" flag="0"/>
			<vel value="0.0579948332247241" flag="0"/>
			<psa03 value="0.209940157504881" flag="0"/>
			<psa10 value="0.123612711235656" flag="0"/>
			<psa30 value="0.00566806798166433" flag="0"/>
		</comp>
	</station>
	<station code="PRE2" name="PRE2" netid="HI" source="ITSAK Strong Motion Network" insttype="" lat="38.9577" lon="20.7548" esm:processing="manual (Paolucci et al 2011)" esm:quality="good">
		<comp name="--.HNE" depth="0.0">
			<acc value="0.246554736542544" flag="0"/>
			<vel value="0.168102361829601" flag="0"/>
			<psa03 value="0.684618977648567" flag="0"/>
			<psa10 value="0.144401755907731" flag="0"/>
			<psa30 value="0.0129308616061028" flag="0"/>
		</comp>
		<comp name="--.HNN" depth="0.0">
			<acc value="0.134350829675429" flag="0"/>
			<vel value="0.0909058189098957" flag="0"/>
			<psa03 value="0.495390942220427" flag="0"/>
			<psa10 value="0.141138139708906" flag="0"/>
			<psa30 value="0.0117800920399347" flag="0"/>
		</comp>
		<comp name="--.HNZ" depth="0.0">
			<acc value="0.0702684342300997" flag="0"/>
			<vel value="0.0434076465304856" flag="0"/>
			<psa03 value="0.190560457028495" flag="0"/>
			<psa10 value="0.0561646206306389" flag="0"/>
			<psa30 value="0.00378791051381442" flag="0"/>
		</comp>
	</station>
	<station code="VSK1" name="VSK1" netid="HI" source="ITSAK Strong Motion Network" insttype="" lat="38.4091" lon="20.564" esm:processing="automatic (Paolucci et al 2011)" esm:quality="best">
		<comp name="--.HNE" depth="0.0">
			<acc value="0.0122952494382418" flag="0"/>
			<vel value="0.0114639999475904" flag="0"/>
			<psa03 value="0.0451262914785122" flag="0"/>
			<psa10 value="0.0282265129929674" flag="0"/>
			<psa30 value="0.00166025633799987" flag="0"/>
		</comp>
		<comp name="--.HNN" depth="0.0">
			<acc value="0.0184033050976374" flag="0"/>
			<vel value="0.0126601489229083" flag="0"/>
			<psa03 value="0.0573535962691331" flag="0"/>
			<psa10 value="0.0175917891196881" flag="0"/>
			<psa30 value="0.00123783564637204" flag="0"/>
		</comp>
		<comp name="--.HNZ" depth="0.0">
			<acc value="0.0113376159303102" flag="0"/>
			<vel value="0.00909285067703919" flag="0"/>
			<psa03 value="0.0328767586530675" flag="0"/>
			<psa10 value="0.0169269563277789" flag="0"/>
			<psa30 value="0.00120758999691189" flag="0"/>
		</comp>
	</station>
	<station code="ARTB" name="ARTB" netid="HL" source="National Observatory of Athens Seismic Network" insttype="" lat="39.15702" lon="20.9785" esm:processing="manual (Paolucci et al 2011)" esm:quality="best">
		<comp name="00.HNE" depth="0.0">
			<acc value="0.314394740516691" flag="0"/>
			<vel value="0.112553543014151" flag="0"/>
			<psa03 value="1.23304768335752" flag="0"/>
			<psa10 value="0.0360057714556378" flag="0"/>
			<psa30 value="0.00616435210808126" flag="0"/>
		</comp>
		<comp name="00.HNN" depth="0.0">
			<acc value="0.202845897419004" flag="0"/>
			<vel value="0.0923435035039363" flag="0"/>
			<psa03 value="0.569199248324691" flag="0"/>
			<psa10 value="0.0669519177360479" flag="0"/>
			<psa30 value="0.00316018726356467" flag="0"/>
		</comp>
		<comp name="00.HNZ" depth="0.0">
			<acc value="0.199897281561221" flag="0"/>
			<vel value="0.0639287877535916" flag="0"/>
			<psa03 value="0.307747511762466" flag="0"/>
			<psa10 value="0.0324700822336056" flag="0"/>
			<psa30 value="0.00396519475802533" flag="0"/>
		</comp>
	</station>
	<station code="JAN" name="JAN" netid="HL" source="National Observatory of Athens Seismic Network" insttype="" lat="39.65616" lon="20.84874" esm:processing="manual (Paolucci et al 2011)" esm:quality="bad">
		<comp name="00.HNE" depth="0.0">
			<acc value="0.547116616379146" flag="0"/>
			<vel value="0.252670674564547" flag="0"/>
			<psa03 value="2.43345937140763" flag="0"/>
			<psa10 value="0.0948717072849368" flag="0"/>
			<psa30 value="0.0101875890444389" flag="0"/>
		</comp>
		<comp name="00.HNN" depth="0.0">
			<acc value="0.360217318102964" flag="0"/>
			<vel value="0.118995529390474" flag="0"/>
			<psa03 value="1.00565445300499" flag="0"/>
			<psa10 value="0.0939314674985533" flag="0"/>
			<psa30 value="0.00905242301191535" flag="0"/>
		</comp>
		<comp name="00.HNZ" depth="0.0">
			<acc value="0.279113840303658" flag="0"/>
			<vel value="0.074717079110154" flag="0"/>
			<psa03 value="0.442396223245152" flag="0"/>
			<psa10 value="0.0775559627018456" flag="0"/>
			<psa30 value="0.0103102830056427" flag="0"/>
		</comp>
	</station>
	<station code="PRGA" name="PRGA" netid="HL" source="National Observatory of Athens Seismic Network" insttype="" lat="39.28557" lon="20.40157" esm:processing="manual (Paolucci et al 2011)" esm:quality="good">
		<comp name="00.HNE" depth="0.0">
			<acc value="0.481676578583451" flag="0"/>
			<vel value="0.236513288375681" flag="0"/>
			<psa03 value="1.67796832383179" flag="0"/>
			<psa10 value="0.136525754161196" flag="0"/>
			<psa30 value="0.0240828270357617" flag="0"/>
		</comp>
		<comp name="00.HNN" depth="0.0">
			<acc value="0.331027262157239" flag="0"/>
			<vel value="0.218185320251001" flag="0"/>
			<psa03 value="1.09038656609004" flag="0"/>
			<psa10 value="0.0916764056119398" flag="0"/>
			<psa30 value="0.0242421342557738" flag="0"/>
		</comp>
		<comp name="00.HNZ" depth="0.0">
			<acc value="0.168265239387628" flag="0"/>
			<vel value="0.115193407966167" flag="0"/>
			<psa03 value="0.301318731720358" flag="0"/>
			<psa10 value="0.0642256446338239" flag="0"/>
			<psa30 value="0.0212264661492247" flag="0"/>
		</comp>
	</station>
	<station code="DSF" name="DSF" netid="HP" source="University of Patras, Seismological Laboratory (PSLNET)" insttype="" lat="38.4112" lon="22.5271" esm:processing="automatic (Paolucci et al 2011)" esm:quality="best">
		<comp name="--.HNE" depth="1.0">
			<acc value="0.00270756010287652" flag="0"/>
			<vel value="0.00270431794204871" flag="0"/>
			<psa03 value="0.00733221228559984" flag="0"/>
			<psa10 value="0.00332957838072844" flag="0"/>
			<psa30 value="0.00136319415908776" flag="0"/>
		</comp>
		<comp name="--.HNN" depth="1.0">
			<acc value="0.00310454767454923" flag="0"/>
			<vel value="0.00363081017277278" flag="0"/>
			<psa03 value="0.00960035667964906" flag="0"/>
			<psa10 value="0.00455838478313599" flag="0"/>
			<psa30 value="0.000513367237228614" flag="0"/>
		</comp>
		<comp name="--.HNZ" depth="1.0">
			<acc value="0.00242217613425125" flag="0"/>
			<vel value="0.00298780826603808" flag="0"/>
			<psa03 value="0.00580123000612601" flag="0"/>
			<psa10 value="0.00411756839370826" flag="0"/>
			<psa30 value="0.00114846514267726" flag="0"/>
		</comp>
	</station>
	<station code="EFP" name="EFP" netid="HP" source="University of Patras, Seismological Laboratory (PSLNET)" insttype="" lat="38.4269" lon="21.9058" esm:processing="manual (Paolucci et al 2011)" esm:quality="good">
		<comp name="--.HNE" depth="0.0">
			<acc value="0.00644576935315043" flag="0"/>
			<vel value="0.00919449837159902" flag="0"/>
			<psa03 value="0.018338542963486" flag="0"/>
			<psa10 value="0.0174375639030183" flag="0"/>
			<psa30 value="0.0016367320712987" flag="0"/>
		</comp>
		<comp name="--.HNN" depth="0.0">
			<acc value="0.00886941166973174" flag="0"/>
			<vel value="0.00693458349797118" flag="0"/>
			<psa03 value="0.0229976432726677" flag="0"/>
			<psa10 value="0.00818310396546321" flag="0"/>
			<psa30 value="0.00129209892854603" flag="0"/>
		</comp>
		<comp name="--.HNZ" depth="0.0">
			<acc value="0.00515632885812935" flag="0"/>
			<vel value="0.00678756786405233" flag="0"/>
			<psa03 value="0.0181510930458448" flag="0"/>
			<psa10 value="0.00963734905207775" flag="0"/>
			<psa30 value="0.00117613926761924" flag="0"/>
		</comp>
	</station>
	<station code="FSK" name="FSK" netid="HP" source="University of Patras, Seismological Laboratory (PSLNET)" insttype="" lat="38.4593" lon="20.5623" esm:processing="manual (Paolucci et al 2011)" esm:quality="good">
		<comp name="--.HNE" depth="0.0">
			<acc value="0.0449300325497905" flag="0"/>
			<vel value="0.0166182873293653" flag="0"/>
			<psa03 value="0.150856076808244" flag="0"/>
			<psa10 value="0.0147355661589359" flag="0"/>
			<psa30 value="0.00172324092708607" flag="0"/>
		</comp>
		<comp name="--.HNN" depth="0.0">
			<acc value="0.0217148167210215" flag="0"/>
			<vel value="0.00983832603642866" flag="0"/>
			<psa03 value="0.0484420788416425" flag="0"/>
			<psa10 value="0.0171925414214915" flag="0"/>
			<psa30 value="0.00163923588299718" flag="0"/>
		</comp>
		<comp name="--.HNZ" depth="0.0">
			<acc value="0.0118629205923524" flag="0"/>
			<vel value="0.00913776701472772" flag="0"/>
			<psa03 value="0.0298839744583334" flag="0"/>
			<psa10 value="0.0154386121073031" flag="0"/>
			<psa30 value="0.00117423445393432" flag="0"/>
		</comp>
	</station>
	<station code="GUR" name="GUR" netid="HP" source="University of Patras, Seismological Laboratory (PSLNET)" insttype="" lat="37.9363" lon="22.3423" esm:processing="manual (Paolucci et al 2011)" esm:quality="good">
		<comp name="--.HNE" depth="0.0">
			<acc value="0.00372297236671729" flag="0"/>
			<vel value="0.00316661558671668" flag="0"/>
			<psa03 value="0.0104464029604262" flag="0"/>
			<psa10 value="0.00572512457388635" flag="0"/>
			<psa30 value="0.000371633238669923" flag="0"/>
		</comp>
		<comp name="--.HNN" depth="0.0">
			<acc value="0.00467026782546049" flag="0"/>
			<vel value="0.00433515319413414" flag="0"/>
			<psa03 value="0.0121693426175463" flag="0"/>
			<psa10 value="0.00765396219367051" flag="0"/>
			<psa30 value="0.000528531731384648" flag="0"/>
		</comp>
		<comp name="--.HNZ" depth="0.0">
			<acc value="0.00225073034648283" flag="0"/>
			<vel value="0.00198585212003858" flag="0"/>
			<psa03 value="0.00514211928600119" flag="0"/>
			<psa10 value="0.00372129276738319" flag="0"/>
			<psa30 value="0.000366320569023174" flag="0"/>
		</comp>
	</station>
	<station code="LTHK" name="LTHK" netid="HP" source="University of Patras, Seismological Laboratory (PSLNET)" insttype="" lat="37.7095" lon="20.8367" esm:processing="manual (Paolucci et al 2011)" esm:quality="good">
		<comp name="--.HNE" depth="0.0">
			<acc value="0.0061600236228944" flag="0"/>
			<vel value="0.00584257354988722" flag="0"/>
			<psa03 value="0.0171325372902491" flag="0"/>
			<psa10 value="0.010748324523769" flag="0"/>
			<psa30 value="0.00105724701659366" flag="0"/>
		</comp>
		<comp name="--.HNN" depth="0.0">
			<acc value="0.00765029232614228" flag="0"/>
			<vel value="0.00504767859910602" flag="0"/>
			<psa03 value="0.0149017566994841" flag="0"/>
			<psa10 value="0.00921655336394503" flag="0"/>
			<psa30 value="0.000816560343117448" flag="0"/>
		</comp>
		<comp name="--.HNZ" depth="0.0">
			<acc value="0.00343170932864772" flag="0"/>
			<vel value="0.00350455228435469" flag="0"/>
			<psa03 value="0.0126967030734507" flag="0"/>
			<psa10 value="0.00461170253389056" flag="0"/>
			<psa30 value="0.000538073353053808" flag="0"/>
		</comp>
	</station>
	<station code="PDO" name="PDO" netid="HP" source="University of Patras, Seismological Laboratory (PSLNET)" insttype="" lat="38.5986" lon="21.1833" esm:processing="automatic (Paolucci et al 2011)" esm:quality="best">
		<comp name="--.HNE" depth="0.0">
			<acc value="0.0235098330943978" flag="0"/>
			<vel value="0.021072808662521" flag="0"/>
			<psa03 value="0.076424151266643" flag="0"/>
			<psa10 value="0.0221254400768305" flag="0"/>
			<psa30 value="0.00218893063091371" flag="0"/>
		</comp>
		<comp name="--.HNN" depth="0.0">
			<acc value="0.0302068151999429" flag="0"/>
			<vel value="0.0195284279565907" flag="0"/>
			<psa03 value="0.162527745832205" flag="0"/>
			<psa10 value="0.0220528746447167" flag="0"/>
			<psa30 value="0.00241358926344508" flag="0"/>
		</comp>
		<comp name="--.HNZ" depth="0.0">
			<acc value="0.0138868673369977" flag="0"/>
			<vel value="0.0103271138310882" flag="0"/>
			<psa03 value="0.0485260791981396" flag="0"/>
			<psa10 value="0.0165008287239348" flag="0"/>
			<psa30 value="0.00192396766174989" flag="0"/>
		</comp>
	</station>
	<station code="PVO" name="PVO" netid="HP" source="University of Patras, Seismological Laboratory (PSLNET)" insttype="" lat="38.616" lon="21.525" esm:processing="automatic (Paolucci et al 2011)" esm:quality="best">
		<comp name="--.HNE" depth="0.0">
			<acc value="0.0101151067509771" flag="0"/>
			<vel value="0.0110121298671972" flag="0"/>
			<psa03 value="0.0378739907368627" flag="0"/>
			<psa10 value="0.0115427649640163" flag="0"/>
			<psa30 value="0.00380713928762712" flag="0"/>
		</comp>
		<comp name="--.HNN" depth="0.0">
			<acc value="0.0128869603208682" flag="0"/>
			<vel value="0.0123837099961492" flag="0"/>
			<psa03 value="0.0417550603386587" flag="0"/>
			<psa10 value="0.0258101191687332" flag="0"/>
			<psa30 value="0.0028226407360962" flag="0"/>
		</comp>
		<comp name="--.HNZ" depth="0.0">
			<acc value="0.00866583616438607" flag="0"/>
