<?xml version="1.0" encoding="UTF-8" standalone="yes"?>
<!DOCTYPE earthquake SYSTEM "stationlist.dtd">
<stationlist created="" xmlns="ch.ethz.sed.shakemap.usgs.xml">
  <station code="KEK" name="KEK" netid="MN" insttype="" commtype="DIG" lat="39.7127" lon="19.7962">
    <comp name="--.HHE">
      <acc value="0.0707433935" flag="0"/>
      <vel value="0.0373120319" flag="0"/>
      <psa03 value="0.2602152815" flag="0"/>
      <psa10 value="0.0263774270" flag="0"/>
      <psa30 value="0.0041165023" flag="0"/>
    </comp>
    <comp name="--.HHZ">
      <acc value="0.0379471000" flag="0"/>
      <vel value="0.0261708713" flag="0"/>
      <psa03 value="0.1360997784" flag="0"/>
      <psa10 value="0.0310826764" flag="0"/>
      <psa30 value="0.0049884755" flag="0"/>
    </comp>
    <comp name="--.HHN">
      <acc value="0.0536827527" flag="0"/>
      <vel value="0.0306451011" flag="0"/>
      <psa03 value="0.1406004115" flag="0"/>
      <psa10 value="0.0436642096" flag="0"/>
      <psa30 value="0.0040559283" flag="0"/>
    </comp>
  </station>
  <station code="THL" name="THL" netid="MN" insttype="" commtype="DIG" lat="39.5647" lon="22.0144">
    <comp name="--.HHE">
      <acc value="0.0066919563" flag="0"/>
      <vel value="0.0056862322" flag="0"/>
      <psa03 value="0.0198249883" flag="0"/>
      <psa10 value="0.0083119895" flag="0"/>
      <psa30 value="0.0008019490" flag="0"/>
    </comp>
    <comp name="--.HHN">
      <acc value="0.0061827466" flag="0"/>
      <vel value="0.0052006951" flag="0"/>
      <psa03 value="0.0093217792" flag="0"/>
      <psa10 value="0.0083220596" flag="0"/>
      <psa30 value="0.0010396306" flag="0"/>
    </comp>
    <comp name="--.HHZ">
      <acc value="0.0067397126" flag="0"/>
      <vel value="0.0036130562" flag="0"/>
      <psa03 value="0.0106820003" flag="0"/>
      <psa10 value="0.0040782925" flag="0"/>
      <psa30 value="0.0013820698" flag="0"/>
    </comp>
  </station>
</stationlist>
