<?xml version="1.0" encoding="UTF-8" standalone="yes"?>
<!DOCTYPE earthquake SYSTEM "stationlist.dtd">
<stationlist created="" xmlns="ch.ethz.sed.shakemap.usgs.xml">
  <station code="MZ04" name="MZ04" netid="3A" insttype="" lat="42.6739" lon="13.2938">
    <comp name="--.HNN">
      <acc value="53.8235727452" flag="0"/>
      <vel value="56.4845111341" flag="0"/>
      <psa03 value="85.5804634708" flag="0"/>
      <psa10 value="99.3688438371" flag="0"/>
      <psa30 value="9.8754828803" flag="0"/>
    </comp>
    <comp name="--.HNE">
      <acc value="43.0111899604" flag="0"/>
      <vel value="33.4588791847" flag="0"/>
      <psa03 value="172.8069212173" flag="0"/>
      <psa10 value="27.4674920550" flag="0"/>
      <psa30 value="4.1547285576" flag="0"/>
    </comp>
    <comp name="--.HNZ">
      <acc value="25.7680959088" flag="0"/>
      <vel value="26.3018877209" flag="0"/>
      <psa03 value="103.2238186457" flag="0"/>
      <psa10 value="21.0058286835" flag="0"/>
      <psa30 value="8.0627818147" flag="0"/>
    </comp>
  </station>
  <station code="MZ10" name="MZ10" netid="3A" insttype="" lat="42.6251" lon="13.2998">
    <comp name="--.HNE">
      <acc value="31.9027161911" flag="0"/>
      <vel value="26.8210486349" flag="0"/>
      <psa03 value="96.3944046437" flag="0"/>
      <psa10 value="24.8240942282" flag="0"/>
      <psa30 value="5.0486317980" flag="0"/>
    </comp>
    <comp name="--.HNN">
      <acc value="39.8263830456" flag="0"/>
      <vel value="43.0824278141" flag="0"/>
      <psa03 value="135.9535890887" flag="0"/>
      <psa10 value="18.2560688648" flag="0"/>
      <psa30 value="5.1896087110" flag="0"/>
    </comp>
    <comp name="--.HNZ">
      <acc value="23.0874921743" flag="0"/>
      <vel value="17.3388151981" flag="0"/>
      <psa03 value="32.0955641126" flag="0"/>
      <psa10 value="20.8108735701" flag="0"/>
      <psa30 value="5.0132316766" flag="0"/>
    </comp>
  </station>
  <station code="MZ102" name="MZ102" netid="3A" insttype="" lat="42.7037" lon="13.232">
    <comp name="--.HNE">
      <acc value="24.8183713587" flag="0"/>
      <vel value="28.8581889828" flag="0"/>
      <psa03 value="85.8995103377" flag="0"/>
      <psa10 value="29.5386119921" flag="0"/>
      <psa30 value="8.0285057758" flag="0"/>
    </comp>
    <comp name="--.HNN">
      <acc value="26.9845783065" flag="0"/>
      <vel value="31.7774013437" flag="0"/>
      <psa03 value="75.8086577693" flag="0"/>
      <psa10 value="23.0929661237" flag="0"/>
      <psa30 value="5.8621516555" flag="0"/>
    </comp>
    <comp name="--.HNZ">
      <acc value="21.2071779927" flag="0"/>
      <vel value="22.5977523989" flag="0"/>
      <psa03 value="34.5913892817" flag="0"/>
      <psa10 value="16.5252220384" flag="0"/>
      <psa30 value="7.2518762210" flag="0"/>
    </comp>
  </station>
  <station code="MZ11" name="MZ11" netid="3A" insttype="" lat="42.6629" lon="13.3076">
    <comp name="--.HNE">
      <acc value="17.0884297507" flag="0"/>
      <vel value="15.5626225143" flag="0"/>
      <psa03 value="38.8858410792" flag="0"/>
      <psa10 value="32.1712077632" flag="0"/>
      <psa30 value="2.8201882317" flag="0"/>
    </comp>
    <comp name="--.HNN">
      <acc value="19.8599791273" flag="0"/>
      <vel value="42.1598873113" flag="0"/>
      <psa03 value="30.0017259403" flag="0"/>
      <psa10 value="60.1795184181" flag="0"/>
      <psa30 value="9.4676319359" flag="0"/>
    </comp>
    <comp name="--.HNZ">
      <acc value="8.9435907332" flag="0"/>
      <vel value="14.5756189791" flag="0"/>
      <psa03 value="13.3685202279" flag="0"/>
      <psa10 value="16.3986888744" flag="0"/>
      <psa30 value="6.7523334355" flag="0"/>
    </comp>
  </station>
  <station code="MZ14" name="MZ14" netid="3A" insttype="" lat="42.6254" lon="13.3573">
    <comp name="--.HNE">
      <acc value="21.9992476948" flag="0"/>
      <vel value="6.8378012145" flag="0"/>
      <psa03 value="17.0804801931" flag="0"/>
      <psa10 value="7.8528819402" flag="0"/>
      <psa30 value="1.2717412877" flag="0"/>
    </comp>
    <comp name="--.HNZ">
      <acc value="10.8927409540" flag="0"/>
      <vel value="7.9293404062" flag="0"/>
      <psa03 value="35.1499442544" flag="0"/>
      <psa10 value="8.1776646782" flag="0"/>
      <psa30 value="3.5820514494" flag="0"/>
    </comp>
    <comp name="--.HNN">
      <acc value="25.5814663582" flag="0"/>
      <vel value="9.2858986787" flag="0"/>
      <psa03 value="53.4739053542" flag="0"/>
      <psa10 value="9.0044801511" flag="0"/>
      <psa30 value="3.5752308301" flag="0"/>
    </comp>
  </station>
  <station code="MZ19" name="MZ19" netid="3A" insttype="" lat="42.6411" lon="13.2069">
    <comp name="--.HNE">
      <acc value="36.5263347003" flag="0"/>
      <vel value="34.3190822158" flag="0"/>
      <psa03 value="106.8782199932" flag="0"/>
      <psa10 value="29.7418210714" flag="0"/>
      <psa30 value="5.0008818730" flag="0"/>
    </comp>
    <comp name="--.HNN">
      <acc value="40.4443163177" flag="0"/>
      <vel value="21.5499926414" flag="0"/>
      <psa03 value="81.4112319294" flag="0"/>
      <psa10 value="22.3601213067" flag="0"/>
      <psa30 value="6.3633598768" flag="0"/>
    </comp>
    <comp name="--.HNZ">
      <acc value="21.0121902325" flag="0"/>
      <vel value="20.8587026631" flag="0"/>
      <psa03 value="39.2799559470" flag="0"/>
      <psa10 value="15.9304456595" flag="0"/>
      <psa30 value="5.7287064239" flag="0"/>
    </comp>
  </station>
  <station code="MZ24" name="MZ24" netid="3A" insttype="" lat="42.6552" lon="13.2885">
    <comp name="--.HNE">
      <acc value="101.9847887378" flag="0"/>
      <vel value="54.8832828282" flag="0"/>
      <psa03 value="201.6738128687" flag="0"/>
      <psa10 value="69.9299812249" flag="0"/>
      <psa30 value="5.8578097635" flag="0"/>
    </comp>
    <comp name="--.HNN">
      <acc value="76.6973063267" flag="0"/>
      <vel value="73.6204926278" flag="0"/>
      <psa03 value="156.4036190822" flag="0"/>
      <psa10 value="95.6389085973" flag="0"/>
      <psa30 value="7.7114270957" flag="0"/>
    </comp>
    <comp name="--.HNZ">
      <acc value="30.0875313809" flag="0"/>
      <vel value="31.1255940585" flag="0"/>
      <psa03 value="43.9971121326" flag="0"/>
      <psa10 value="30.5597726699" flag="0"/>
      <psa30 value="6.1647096313" flag="0"/>
    </comp>
  </station>
  <station code="MZ26" name="MZ26" netid="3A" insttype="" lat="42.6236" lon="13.3164">
    <comp name="--.HNE">
      <acc value="46.3015434295" flag="0"/>
      <vel value="19.2174216888" flag="0"/>
      <psa03 value="145.0619189784" flag="0"/>
      <psa10 value="24.0459508322" flag="0"/>
      <psa30 value="3.2502893565" flag="0"/>
    </comp>
    <comp name="--.HNN">
      <acc value="122.9796381718" flag="0"/>
      <vel value="57.7366835883" flag="0"/>
      <psa03 value="254.1659094468" flag="0"/>
      <psa10 value="29.0337820305" flag="0"/>
      <psa30 value="6.7359104785" flag="0"/>
    </comp>
    <comp name="--.HNZ">
      <acc value="44.8456372845" flag="0"/>
      <vel value="16.2287907437" flag="0"/>
      <psa03 value="57.0523899444" flag="0"/>
      <psa10 value="13.6940553529" flag="0"/>
      <psa30 value="5.4103679303" flag="0"/>
    </comp>
  </station>
  <station code="MZ27" name="MZ27" netid="3A" insttype="" lat="42.6124" lon="13.2966">
    <comp name="--.HNN">
      <acc value="20.6710485962" flag="0"/>
      <vel value="26.3168125797" flag="0"/>
      <psa03 value="42.5287758482" flag="0"/>
      <psa10 value="26.7100118692" flag="0"/>
      <psa30 value="4.4101313544" flag="0"/>
    </comp>
    <comp name="--.HNE">
      <acc value="20.3373587593" flag="0"/>
      <vel value="18.7666297682" flag="0"/>
      <psa03 value="52.7754596669" flag="0"/>
      <psa10 value="30.0119974428" flag="0"/>
      <psa30 value="4.4079129771" flag="0"/>
    </comp>
    <comp name="--.HNZ">
      <acc value="27.1281407165" flag="0"/>
      <vel value="27.0588119580" flag="0"/>
      <psa03 value="34.1392451398" flag="0"/>
      <psa10 value="27.8258366858" flag="0"/>
      <psa30 value="4.1357245151" flag="0"/>
    </comp>
  </station>
  <station code="MZ28" name="MZ28" netid="3A" insttype="" lat="42.6214" lon="13.3079">
    <comp name="--.HNZ">
      <acc value="41.0589484189" flag="0"/>
      <vel value="17.3978467578" flag="0"/>
      <psa03 value="45.3052399685" flag="0"/>
      <psa10 value="15.7954993219" flag="0"/>
      <psa30 value="5.1198399746" flag="0"/>
    </comp>
    <comp name="--.HNE">
      <acc value="75.2664566160" flag="0"/>
      <vel value="50.8680578640" flag="0"/>
      <psa03 value="142.5693714607" flag="0"/>
      <psa10 value="51.6798868204" flag="0"/>
      <psa30 value="4.4912301421" flag="0"/>
    </comp>
    <comp name="--.HNN">
      <acc value="84.9097537279" flag="0"/>
      <vel value="28.8166391687" flag="0"/>
      <psa03 value="138.0250247755" flag="0"/>
      <psa10 value="27.9179948171" flag="0"/>
      <psa30 value="4.7418968744" flag="0"/>
    </comp>
  </station>
  <station code="MZ29" name="MZ29" netid="3A" insttype="" lat="42.6304" lon="13.2925">
    <comp name="--.HNE">
      <acc value="68.7792219843" flag="0"/>
      <vel value="33.5367929377" flag="0"/>
      <psa03 value="133.6427170315" flag="0"/>
      <psa10 value="19.5406900216" flag="0"/>
      <psa30 value="2.6320355790" flag="0"/>
    </comp>
    <comp name="--.HNN">
      <acc value="41.0081767666" flag="0"/>
      <vel value="35.8087643962" flag="0"/>
      <psa03 value="81.7657589562" flag="0"/>
      <psa10 value="22.1833297576" flag="0"/>
      <psa30 value="4.8490709065" flag="0"/>
    </comp>
    <comp name="--.HNZ">
      <acc value="22.4392447365" flag="0"/>
      <vel value="22.1251577356" flag="0"/>
      <psa03 value="31.9789010758" flag="0"/>
      <psa10 value="18.5915406399" flag="0"/>
      <psa30 value="5.1432510345" flag="0"/>
    </comp>
  </station>
  <station code="MZ30" name="MZ30" netid="3A" insttype="" lat="42.6264" lon="13.2906">
    <comp name="--.HNE">
      <acc value="46.2939296360" flag="0"/>
      <vel value="42.6518571403" flag="0"/>
      <psa03 value="146.5314694969" flag="0"/>
      <psa10 value="47.1394942678" flag="0"/>
      <psa30 value="5.3133932685" flag="0"/>
    </comp>
    <comp name="--.HNN">
      <acc value="48.2771423625" flag="0"/>
      <vel value="48.8395381534" flag="0"/>
      <psa03 value="141.2315950481" flag="0"/>
      <psa10 value="41.2274211736" flag="0"/>
      <psa30 value="4.8175973007" flag="0"/>
    </comp>
    <comp name="--.HNZ">
      <acc value="30.2393295848" flag="0"/>
      <vel value="35.8946190827" flag="0"/>
      <psa03 value="74.4602229996" flag="0"/>
      <psa10 value="22.3044091793" flag="0"/>
      <psa30 value="5.4080044378" flag="0"/>
    </comp>
  </station>
  <station code="MZ50" name="MZ50" netid="3A" insttype="" lat="42.598" lon="13.218">
    <comp name="--.HNN">
      <acc value="13.6226461727" flag="0"/>
      <vel value="20.2246365489" flag="0"/>
      <psa03 value="38.1203548713" flag="0"/>
      <psa10 value="28.7083334072" flag="0"/>
      <psa30 value="8.2454111424" flag="0"/>
    </comp>
    <comp name="--.HNE">
      <acc value="18.0742277673" flag="0"/>
      <vel value="29.8477081274" flag="0"/>
      <psa03 value="40.0558072192" flag="0"/>
      <psa10 value="43.1117145054" flag="0"/>
      <psa30 value="6.1792889860" flag="0"/>
    </comp>
    <comp name="--.HNZ">
      <acc value="9.3072064810" flag="0"/>
      <vel value="13.6904940124" flag="0"/>
      <psa03 value="14.4080755686" flag="0"/>
      <psa10 value="18.0090279673" flag="0"/>
      <psa30 value="5.1496006982" flag="0"/>
    </comp>
  </station>
  <station code="MZ51" name="MZ51" netid="3A" insttype="" lat="42.6379" lon="13.2856">
    <comp name="--.HNE">
      <acc value="41.5363030245" flag="0"/>
      <vel value="27.2001841487" flag="0"/>
      <psa03 value="92.1879233889" flag="0"/>
      <psa10 value="19.2909038368" flag="0"/>
      <psa30 value="5.0440604426" flag="0"/>
    </comp>
    <comp name="--.HNN">
      <acc value="64.5768059963" flag="0"/>
      <vel value="49.7522150728" flag="0"/>
      <psa03 value="191.4675712355" flag="0"/>
      <psa10 value="28.7943724082" flag="0"/>
      <psa30 value="3.8909280365" flag="0"/>
    </comp>
    <comp name="--.HNZ">
      <acc value="20.4503664305" flag="0"/>
      <vel value="26.7044224367" flag="0"/>
      <psa03 value="46.5823903960" flag="0"/>
      <psa10 value="22.9759192555" flag="0"/>
      <psa30 value="5.3713848238" flag="0"/>
    </comp>
  </station>
  <station code="MZ61" name="MZ61" netid="3A" insttype="" lat="42.6343" lon="13.3144">
    <comp name="--.HNE">
      <acc value="31.9440771391" flag="0"/>
      <vel value="20.8250222074" flag="0"/>
      <psa03 value="97.6649344887" flag="0"/>
      <psa10 value="24.5037074324" flag="0"/>
      <psa30 value="3.3952165813" flag="0"/>
    </comp>
    <comp name="--.HNN">
      <acc value="54.5511648573" flag="0"/>
      <vel value="37.9703934229" flag="0"/>
      <psa03 value="138.3256917562" flag="0"/>
      <psa10 value="20.9832364499" flag="0"/>
      <psa30 value="5.7013759564" flag="0"/>
    </comp>
    <comp name="--.HNZ">
      <acc value="27.5968038355" flag="0"/>
      <vel value="18.2523524982" flag="0"/>
      <psa03 value="70.2263247106" flag="0"/>
      <psa10 value="12.7863464219" flag="0"/>
      <psa30 value="5.9689950881" flag="0"/>
    </comp>
  </station>
  <station code="MZ63" name="MZ63" netid="3A" insttype="" lat="42.6298" lon="13.3234">
    <comp name="--.HNE">
      <acc value="24.2029063354" flag="0"/>
      <vel value="13.4214257468" flag="0"/>
      <psa03 value="79.6890398599" flag="0"/>
      <psa10 value="18.3963738120" flag="0"/>
      <psa30 value="2.6608360157" flag="0"/>
    </comp>
    <comp name="--.HNN">
      <acc value="38.6637194388" flag="0"/>
      <vel value="31.1916552842" flag="0"/>
      <psa03 value="82.5330643390" flag="0"/>
      <psa10 value="18.8887513962" flag="0"/>
      <psa30 value="5.6442491443" flag="0"/>
    </comp>
    <comp name="--.HNZ">
      <acc value="11.3201249879" flag="0"/>
      <vel value="12.6274039476" flag="0"/>
      <psa03 value="15.1675794939" flag="0"/>
      <psa10 value="9.5787027366" flag="0"/>
      <psa30 value="5.6006501802" flag="0"/>
    </comp>
  </station>
  <station code="T1201" name="T1201" netid="8P" insttype="EPISENSOR-FBA-ES-T-CL-2G-FS-40-VPP" lat="42.6573" lon="13.2508">
    <comp name="--.HNE">
      <acc value="34.9183869117" flag="0"/>
      <vel value="20.0344713639" flag="0"/>
      <psa03 value="60.6153026006" flag="0"/>
      <psa10 value="26.2843275396" flag="0"/>
      <psa30 value="7.5373098469" flag="0"/>
    </comp>
    <comp name="--.HNZ">
      <acc value="24.2918234121" flag="0"/>
      <vel value="16.7133362369" flag="0"/>
      <psa03 value="32.4446436176" flag="0"/>
      <psa10 value="27.2577507550" flag="0"/>
      <psa30 value="4.3593871584" flag="0"/>
    </comp>
    <comp name="--.HNN">
      <acc value="48.2347766753" flag="0"/>
      <vel value="82.8133559921" flag="0"/>
      <psa03 value="80.0619823038" flag="0"/>
      <psa10 value="93.1554338470" flag="0"/>
      <psa30 value="7.7666481396" flag="0"/>
    </comp>
  </station>
  <station code="T1211" name="T1211" netid="8P" insttype="EPISENSOR-FBA-ES-T-CL-4G-FS-40-VPP" lat="42.5329" lon="12.8551">
    <comp name="--.HNE">
      <acc value="6.1040618884" flag="0"/>
      <vel value="3.6052298057" flag="0"/>
      <psa03 value="7.4992825968" flag="0"/>
      <psa10 value="2.0098503643" flag="0"/>
      <psa30 value="0.7558387794" flag="0"/>
    </comp>
    <comp name="--.HNN">
      <acc value="7.9827673449" flag="0"/>
      <vel value="5.6184337682" flag="0"/>
      <psa03 value="20.7748854116" flag="0"/>
      <psa10 value="6.3977286865" flag="0"/>
      <psa30 value="1.1934067996" flag="0"/>
    </comp>
    <comp name="--.HNZ">
      <acc value="2.4394043978" flag="0"/>
      <vel value="2.6873842520" flag="0"/>
      <psa03 value="6.7846397960" flag="0"/>
      <psa10 value="1.8082750279" flag="0"/>
      <psa30 value="1.0398056482" flag="0"/>
    </comp>
  </station>
  <station code="T1212" name="T1212" netid="8P" insttype="EPISENSOR-FBA-ES-T-CL-4G-FS-40-VPP" lat="42.7516" lon="13.0446">
    <comp name="--.HNE">
      <acc value="28.2198829345" flag="0"/>
      <vel value="26.3875645153" flag="0"/>
      <psa03 value="49.2426647831" flag="0"/>
      <psa10 value="38.3725808270" flag="0"/>
      <psa30 value="6.6772173886" flag="0"/>
    </comp>
    <comp name="--.HNN">
      <acc value="27.8923229704" flag="0"/>
      <vel value="24.7361108060" flag="0"/>
      <psa03 value="41.3190105588" flag="0"/>
      <psa10 value="22.6727264274" flag="0"/>
      <psa30 value="4.4929860935" flag="0"/>
    </comp>
    <comp name="--.HNZ">
      <acc value="17.0583999714" flag="0"/>
      <vel value="9.0497772824" flag="0"/>
      <psa03 value="17.1967420341" flag="0"/>
      <psa10 value="16.5239125837" flag="0"/>
      <psa30 value="2.9167264721" flag="0"/>
    </comp>
  </station>
  <station code="T1213" name="T1213" netid="8P" insttype="EPISENSOR-FBA-ES-T-CL-4G-FS-40-VPP" lat="42.7249" lon="13.1258">
    <comp name="--.HNE">
      <acc value="82.5603967710" flag="0"/>
      <vel value="58.7956880223" flag="0"/>
      <psa03 value="133.1726278969" flag="0"/>
      <psa10 value="43.9296190408" flag="0"/>
      <psa30 value="6.8737276010" flag="0"/>
    </comp>
    <comp name="--.HNZ">
      <acc value="90.6216562868" flag="0"/>
      <vel value="31.9923843570" flag="0"/>
      <psa03 value="35.1158444863" flag="0"/>
      <psa10 value="23.3765993652" flag="0"/>
      <psa30 value="7.5459813156" flag="0"/>
    </comp>
    <comp name="--.HNN">
      <acc value="86.6554793922" flag="0"/>
      <vel value="30.8124929786" flag="0"/>
      <psa03 value="142.9508931046" flag="0"/>
      <psa10 value="31.2962197470" flag="0"/>
      <psa30 value="5.0377920933" flag="0"/>
    </comp>
  </station>
  <station code="T1214" name="T1214" netid="8P" insttype="EPISENSOR-FBA-ES-T-CL-4G-FS-40-VPP" lat="42.7595" lon="13.2087">
    <comp name="--.HNE">
      <acc value="63.1305667825" flag="0"/>
      <vel value="54.5896727124" flag="0"/>
      <psa03 value="160.7188080237" flag="0"/>
      <psa10 value="29.5796926857" flag="0"/>
      <psa30 value="12.1423887692" flag="0"/>
    </comp>
    <comp name="--.HNZ">
      <acc value="76.2214574076" flag="0"/>
      <vel value="28.2162982144" flag="0"/>
      <psa03 value="100.5531259900" flag="0"/>
      <psa10 value="37.5054332091" flag="0"/>
      <psa30 value="6.7291749746" flag="0"/>
    </comp>
    <comp name="--.HNN">
      <acc value="44.1735942853" flag="0"/>
      <vel value="33.4574603460" flag="0"/>
      <psa03 value="144.3992549693" flag="0"/>
      <psa10 value="39.4362846688" flag="0"/>
      <psa30 value="9.8116618168" flag="0"/>
    </comp>
  </station>
  <station code="T1215" name="T1215" netid="8P" insttype="EPISENSOR-FBA-ES-T-CL-4G-FS-40-VPP" lat="42.8019" lon="12.8685">
    <comp name="--.HNE">
      <acc value="7.7698186703" flag="0"/>
      <vel value="6.1328075821" flag="0"/>
      <psa03 value="10.3756097918" flag="0"/>
      <psa10 value="6.8831091375" flag="0"/>
      <psa30 value="1.7401533439" flag="0"/>
    </comp>
    <comp name="--.HNN">
      <acc value="10.7674523050" flag="0"/>
      <vel value="5.8618717599" flag="0"/>
      <psa03 value="9.8351530185" flag="0"/>
      <psa10 value="5.4960254674" flag="0"/>
      <psa30 value="1.1145594238" flag="0"/>
    </comp>
    <comp name="--.HNZ">
      <acc value="7.3277565778" flag="0"/>
      <vel value="5.1063473229" flag="0"/>
      <psa03 value="9.5924934648" flag="0"/>
      <psa10 value="3.5023979208" flag="0"/>
      <psa30 value="1.8330579108" flag="0"/>
    </comp>
  </station>
  <station code="T1216" name="T1216" netid="8P" insttype="EPISENSOR-FBA-ES-T-CL-0.5G-FS-40-VPP" lat="42.8907" lon="13.019">
