<stationlist xmlns:esm="https://esm-db.eu/esmws/shakemap/1/" created="1780538067">
	<station code="MZ04" name="MZ04" netid="3A" source="Centro di microzonazione sismica Network, 2016 Central Italy seismic sequence (CentroMZ)" insttype="" lat="42.673895" lon="13.29381" esm:processing="manual (Paolucci et al 2011)" esm:quality="good">
		<comp name="--.HNE" depth="0.0">
			<acc value="64.6445944570707" flag="0"/>
			<vel value="50.0767657829889" flag="0"/>
			<psa03 value="259.249767808252" flag="0"/>
			<psa10 value="41.3278393468182" flag="0"/>
			<psa30 value="6.24636998156368" flag="0"/>
		</comp>
		<comp name="--.HNN" depth="0.0">
			<acc value="80.9151010230076" flag="0"/>
			<vel value="85.392629843512" flag="0"/>
			<psa03 value="128.901402423109" flag="0"/>
			<psa10 value="149.488052305688" flag="0"/>
			<psa30 value="14.8567391920104" flag="0"/>
		</comp>
		<comp name="--.HNZ" depth="0.0">
			<acc value="38.8112871331802" flag="0"/>
			<vel value="39.4338435713319" flag="0"/>
			<psa03 value="155.455454628987" flag="0"/>
			<psa10 value="31.5996576915446" flag="0"/>
			<psa30 value="12.1342654037018" flag="0"/>
		</comp>
	</station>
	<station code="MZ08" name="MZ08" netid="3A" source="Centro di microzonazione sismica Network, 2016 Central Italy seismic sequence (CentroMZ)" insttype="" lat="42.63254" lon="13.286562" esm:processing="manual (Paolucci et al 2011)" esm:quality="good">
		<comp name="--.HNE" depth="0.0">
			<acc value="53.7281215639596" flag="0"/>
			<vel value="36.9499641661555" flag="0"/>
			<psa03 value="110.170972466501" flag="0"/>
			<psa10 value="16.1183486146878" flag="0"/>
			<psa30 value="4.96911420923188" flag="0"/>
		</comp>
		<comp name="--.HNN" depth="0.0">
			<acc value="43.5939384679524" flag="0"/>
			<vel value="39.1008473798197" flag="0"/>
			<psa03 value="122.162778684331" flag="0"/>
			<psa10 value="23.7860174285701" flag="0"/>
			<psa30 value="3.5926604906067" flag="0"/>
		</comp>
		<comp name="--.HNZ" depth="0.0">
			<acc value="32.7814560736618" flag="0"/>
			<vel value="31.9306674203798" flag="0"/>
			<psa03 value="77.9060250078672" flag="0"/>
			<psa10 value="20.5875313040497" flag="0"/>
			<psa30 value="5.47644609007646" flag="0"/>
		</comp>
	</station>
	<station code="MZ10" name="MZ10" netid="3A" source="Centro di microzonazione sismica Network, 2016 Central Italy seismic sequence (CentroMZ)" insttype="" lat="42.625117" lon="13.29985" esm:processing="manual (Paolucci et al 2011)" esm:quality="good">
		<comp name="--.HNE" depth="0.0">
			<acc value="31.9109553233776" flag="0"/>
			<vel value="26.8640404467789" flag="0"/>
			<psa03 value="96.7724712725938" flag="0"/>
			<psa10 value="24.849333865736" flag="0"/>
			<psa30 value="5.04987389217786" flag="0"/>
		</comp>
		<comp name="--.HNN" depth="0.0">
			<acc value="39.7815575130554" flag="0"/>
			<vel value="43.2251706472231" flag="0"/>
			<psa03 value="136.524132164664" flag="0"/>
			<psa10 value="18.2686993327479" flag="0"/>
			<psa30 value="5.1917514293644" flag="0"/>
		</comp>
		<comp name="--.HNZ" depth="0.0">
			<acc value="22.9567638959918" flag="0"/>
			<vel value="17.1600395897076" flag="0"/>
			<psa03 value="32.247632224673" flag="0"/>
			<psa10 value="20.8194749031588" flag="0"/>
			<psa30 value="5.02374444351279" flag="0"/>
		</comp>
	</station>
	<station code="MZ102" name="MZ102" netid="3A" source="Centro di microzonazione sismica Network, 2016 Central Italy seismic sequence (CentroMZ)" insttype="" lat="42.70367" lon="13.232048" esm:processing="manual (Paolucci et al 2011)" esm:quality="good">
		<comp name="--.HNE" depth="0.0">
			<acc value="37.2507588918655" flag="0"/>
			<vel value="43.4554388936245" flag="0"/>
			<psa03 value="129.069633119993" flag="0"/>
			<psa10 value="44.4341117834983" flag="0"/>
			<psa30 value="12.0622304510464" flag="0"/>
		</comp>
		<comp name="--.HNN" depth="0.0">
			<acc value="40.5177376847038" flag="0"/>
			<vel value="48.0761389030358" flag="0"/>
			<psa03 value="114.069808351218" flag="0"/>
			<psa10 value="34.7246547416945" flag="0"/>
			<psa30 value="8.81739140046943" flag="0"/>
		</comp>
		<comp name="--.HNZ" depth="0.0">
			<acc value="31.8627617163489" flag="0"/>
			<vel value="34.189394035058" flag="0"/>
			<psa03 value="52.160017053515" flag="0"/>
			<psa10 value="24.8738973371694" flag="0"/>
			<psa30 value="10.886897425391" flag="0"/>
		</comp>
	</station>
	<station code="MZ11" name="MZ11" netid="3A" source="Centro di microzonazione sismica Network, 2016 Central Italy seismic sequence (CentroMZ)" insttype="" lat="42.66291" lon="13.307648" esm:processing="manual (Paolucci et al 2011)" esm:quality="good">
		<comp name="--.HNE" depth="0.0">
			<acc value="16.9053874998238" flag="0"/>
			<vel value="15.4354490850312" flag="0"/>
			<psa03 value="39.0037054240321" flag="0"/>
			<psa10 value="32.1827783961798" flag="0"/>
			<psa30 value="2.82389989649156" flag="0"/>
		</comp>
		<comp name="--.HNN" depth="0.0">
			<acc value="19.9009994985466" flag="0"/>
			<vel value="41.9785946790238" flag="0"/>
			<psa03 value="30.0630045021227" flag="0"/>
			<psa10 value="60.2006390048846" flag="0"/>
			<psa30 value="9.47174617226166" flag="0"/>
		</comp>
		<comp name="--.HNZ" depth="0.0">
			<acc value="8.77961544245704" flag="0"/>
			<vel value="14.756556943946" flag="0"/>
			<psa03 value="13.4072259241982" flag="0"/>
			<psa10 value="16.4118619643243" flag="0"/>
			<psa30 value="6.7616212329797" flag="0"/>
		</comp>
	</station>
	<station code="MZ12" name="MZ12" netid="3A" source="Centro di microzonazione sismica Network, 2016 Central Italy seismic sequence (CentroMZ)" insttype="" lat="42.628018" lon="13.29179" esm:processing="manual (Paolucci et al 2011)" esm:quality="good">
		<comp name="--.HNE" depth="0.0">
			<acc value="72.1146253962098" flag="0"/>
			<vel value="92.2166047888595" flag="0"/>
			<psa03 value="187.561694375236" flag="0"/>
			<psa10 value="130.813826734144" flag="0"/>
			<psa30 value="20.7087800684006" flag="0"/>
		</comp>
		<comp name="--.HNN" depth="0.0">
			<acc value="68.6390128719662" flag="0"/>
			<vel value="67.7849794327937" flag="0"/>
			<psa03 value="141.857290682572" flag="0"/>
			<psa10 value="96.5807314396097" flag="0"/>
			<psa30 value="5.701690989052" flag="0"/>
		</comp>
		<comp name="--.HNZ" depth="0.0">
			<acc value="53.3262419762646" flag="0"/>
			<vel value="33.729473105604" flag="0"/>
			<psa03 value="119.025644865003" flag="0"/>
			<psa10 value="24.0168761201923" flag="0"/>
			<psa30 value="4.89672033034446" flag="0"/>
		</comp>
	</station>
	<station code="MZ14" name="MZ14" netid="3A" source="Centro di microzonazione sismica Network, 2016 Central Italy seismic sequence (CentroMZ)" insttype="" lat="42.6254" lon="13.357295" esm:processing="manual (Paolucci et al 2011)" esm:quality="best">
		<comp name="--.HNE" depth="0.0">
			<acc value="21.9227848634051" flag="0"/>
			<vel value="6.92021088659236" flag="0"/>
			<psa03 value="17.0572056557036" flag="0"/>
			<psa10 value="7.85958603495077" flag="0"/>
			<psa30 value="1.26962722610339" flag="0"/>
		</comp>
		<comp name="--.HNN" depth="0.0">
			<acc value="25.7663552078451" flag="0"/>
			<vel value="9.40820410288475" flag="0"/>
			<psa03 value="53.4897554342101" flag="0"/>
			<psa10 value="9.0063377390184" flag="0"/>
			<psa30 value="3.57051309833066" flag="0"/>
		</comp>
		<comp name="--.HNZ" depth="0.0">
			<acc value="10.9339793593768" flag="0"/>
			<vel value="8.09620764713423" flag="0"/>
			<psa03 value="35.291220829881" flag="0"/>
			<psa10 value="8.18797146042557" flag="0"/>
			<psa30 value="3.59096923519653" flag="0"/>
		</comp>
	</station>
	<station code="MZ19" name="MZ19" netid="3A" source="Centro di microzonazione sismica Network, 2016 Central Italy seismic sequence (CentroMZ)" insttype="" lat="42.64109" lon="13.206917" esm:processing="manual (Paolucci et al 2011)" esm:quality="best">
		<comp name="--.HNE" depth="0.0">
			<acc value="36.3206021060511" flag="0"/>
			<vel value="34.591520651815" flag="0"/>
			<psa03 value="107.172797201011" flag="0"/>
			<psa10 value="29.772417292799" flag="0"/>
			<psa30 value="4.99130634371454" flag="0"/>
		</comp>
		<comp name="--.HNN" depth="0.0">
			<acc value="40.3473450216045" flag="0"/>
			<vel value="21.575137635647" flag="0"/>
			<psa03 value="81.3064327108558" flag="0"/>
			<psa10 value="22.3621817131362" flag="0"/>
			<psa30 value="6.35531725467917" flag="0"/>
		</comp>
		<comp name="--.HNZ" depth="0.0">
			<acc value="20.852545649161" flag="0"/>
			<vel value="20.6544365245013" flag="0"/>
			<psa03 value="39.4314409193028" flag="0"/>
			<psa10 value="15.9290488127065" flag="0"/>
			<psa30 value="5.72279667971667" flag="0"/>
		</comp>
	</station>
	<station code="MZ24" name="MZ24" netid="3A" source="Centro di microzonazione sismica Network, 2016 Central Italy seismic sequence (CentroMZ)" insttype="" lat="42.655239" lon="13.288519" esm:processing="manual (Paolucci et al 2011)" esm:quality="good">
		<comp name="--.HNE" depth="0.0">
			<acc value="102.540947604826" flag="0"/>
			<vel value="55.0932926509662" flag="0"/>
			<psa03 value="201.651335540286" flag="0"/>
			<psa10 value="70.018779340785" flag="0"/>
			<psa30 value="5.87080389920991" flag="0"/>
		</comp>
		<comp name="--.HNN" depth="0.0">
			<acc value="76.3850726207868" flag="0"/>
			<vel value="73.624793372257" flag="0"/>
			<psa03 value="156.589222144694" flag="0"/>
			<psa10 value="95.7359285718683" flag="0"/>
			<psa30 value="7.71601724235405" flag="0"/>
		</comp>
		<comp name="--.HNZ" depth="0.0">
			<acc value="27.4856023074052" flag="0"/>
			<vel value="31.1075842578262" flag="0"/>
			<psa03 value="44.0418121158693" flag="0"/>
			<psa10 value="30.5828507781584" flag="0"/>
			<psa30 value="6.17080039458542" flag="0"/>
		</comp>
	</station>
	<station code="MZ27" name="MZ27" netid="3A" source="Centro di microzonazione sismica Network, 2016 Central Italy seismic sequence (CentroMZ)" insttype="" lat="42.612412" lon="13.296578" esm:processing="manual (Paolucci et al 2011)" esm:quality="good">
		<comp name="--.HNE" depth="0.0">
			<acc value="20.3829313702006" flag="0"/>
			<vel value="18.8865003431505" flag="0"/>
			<psa03 value="52.7013977535961" flag="0"/>
			<psa10 value="30.0605750003033" flag="0"/>
			<psa30 value="4.41159052100292" flag="0"/>
		</comp>
		<comp name="--.HNN" depth="0.0">
			<acc value="20.6473218093657" flag="0"/>
			<vel value="26.4209921843386" flag="0"/>
			<psa03 value="43.1019573236459" flag="0"/>
			<psa10 value="26.7462378801862" flag="0"/>
			<psa30 value="4.40707155813447" flag="0"/>
		</comp>
		<comp name="--.HNZ" depth="0.0">
			<acc value="27.1211570109468" flag="0"/>
			<vel value="26.8812973270429" flag="0"/>
			<psa03 value="34.4223719195608" flag="0"/>
			<psa10 value="27.8635134185337" flag="0"/>
			<psa30 value="4.13014414449134" flag="0"/>
		</comp>
	</station>
	<station code="MZ28" name="MZ28" netid="3A" source="Centro di microzonazione sismica Network, 2016 Central Italy seismic sequence (CentroMZ)" insttype="" lat="42.621375" lon="13.307882" esm:processing="manual (Paolucci et al 2011)" esm:quality="bad">
		<comp name="--.HNE" depth="0.0">
			<acc value="68.1980772135994" flag="0"/>
			<vel value="50.9069912206937" flag="0"/>
			<psa03 value="142.98312526366" flag="0"/>
			<psa10 value="51.7223933946996" flag="0"/>
			<psa30 value="4.48776950605221" flag="0"/>
		</comp>
		<comp name="--.HNN" depth="0.0">
			<acc value="75.6138443615028" flag="0"/>
			<vel value="28.9291999496838" flag="0"/>
			<psa03 value="138.318666932955" flag="0"/>
			<psa10 value="27.926028522326" flag="0"/>
			<psa30 value="4.72902538138448" flag="0"/>
		</comp>
		<comp name="--.HNZ" depth="0.0">
			<acc value="34.9875116828131" flag="0"/>
			<vel value="17.3542743184083" flag="0"/>
			<psa03 value="45.5941137197985" flag="0"/>
			<psa10 value="15.8007296007931" flag="0"/>
			<psa30 value="5.10771030739273" flag="0"/>
		</comp>
	</station>
	<station code="MZ29" name="MZ29" netid="3A" source="Centro di microzonazione sismica Network, 2016 Central Italy seismic sequence (CentroMZ)" insttype="" lat="42.6304" lon="13.2925" esm:processing="manual (Paolucci et al 2011)" esm:quality="good">
		<comp name="--.HNE" depth="0.0">
			<acc value="68.9158700374385" flag="0"/>
			<vel value="33.5763922293174" flag="0"/>
			<psa03 value="134.146978727035" flag="0"/>
			<psa10 value="19.554576928295" flag="0"/>
			<psa30 value="4.43734860935306" flag="0"/>
		</comp>
		<comp name="--.HNN" depth="0.0">
			<acc value="41.2865147154835" flag="0"/>
			<vel value="35.9155258721371" flag="0"/>
			<psa03 value="82.2017242652874" flag="0"/>
			<psa10 value="22.1937809958663" flag="0"/>
			<psa30 value="4.85224756554495" flag="0"/>
		</comp>
		<comp name="--.HNZ" depth="0.0">
			<acc value="22.283530958163" flag="0"/>
			<vel value="21.9620400811582" flag="0"/>
			<psa03 value="31.9828031036995" flag="0"/>
			<psa10 value="18.6012323607762" flag="0"/>
			<psa30 value="5.14642757406009" flag="0"/>
		</comp>
	</station>
	<station code="MZ30" name="MZ30" netid="3A" source="Centro di microzonazione sismica Network, 2016 Central Italy seismic sequence (CentroMZ)" insttype="" lat="42.626432" lon="13.29058" esm:processing="manual (Paolucci et al 2011)" esm:quality="good">
		<comp name="--.HNE" depth="0.0">
			<acc value="46.252331669766" flag="0"/>
			<vel value="42.6962534737826" flag="0"/>
			<psa03 value="146.378155750272" flag="0"/>
			<psa10 value="47.1767643069918" flag="0"/>
			<psa30 value="5.31595579493672" flag="0"/>
		</comp>
		<comp name="--.HNN" depth="0.0">
			<acc value="48.3713190137314" flag="0"/>
			<vel value="48.9347918611761" flag="0"/>
			<psa03 value="141.585817999389" flag="0"/>
			<psa10 value="41.2509274936414" flag="0"/>
			<psa30 value="4.82240451373057" flag="0"/>
		</comp>
		<comp name="--.HNZ" depth="0.0">
			<acc value="30.3268377678233" flag="0"/>
			<vel value="35.7276057473901" flag="0"/>
			<psa03 value="74.7722808563234" flag="0"/>
			<psa10 value="22.3153903134548" flag="0"/>
			<psa30 value="5.41139092165349" flag="0"/>
		</comp>
	</station>
	<station code="MZ50" name="MZ50" netid="3A" source="Centro di microzonazione sismica Network, 2016 Central Italy seismic sequence (CentroMZ)" insttype="" lat="42.598" lon="13.218" esm:processing="manual (Paolucci et al 2011)" esm:quality="best">
		<comp name="--.HNE" depth="0.0">
			<acc value="27.1613032002676" flag="0"/>
			<vel value="44.9681890195809" flag="0"/>
			<psa03 value="60.4069005773949" flag="0"/>
			<psa10 value="64.8564235411688" flag="0"/>
			<psa30 value="9.33000286169497" flag="0"/>
		</comp>
		<comp name="--.HNN" depth="0.0">
			<acc value="20.412846241149" flag="0"/>
			<vel value="30.568859754847" flag="0"/>
			<psa03 value="57.5058159002661" flag="0"/>
			<psa10 value="43.1926497764611" flag="0"/>
			<psa30 value="12.3920252560296" flag="0"/>
		</comp>
		<comp name="--.HNZ" depth="0.0">
			<acc value="13.9961311071375" flag="0"/>
			<vel value="20.6995271673217" flag="0"/>
			<psa03 value="21.6731696280975" flag="0"/>
			<psa10 value="27.0976565936281" flag="0"/>
			<psa30 value="7.7418334955728" flag="0"/>
		</comp>
	</station>
	<station code="MZ51" name="MZ51" netid="3A" source="Centro di microzonazione sismica Network, 2016 Central Italy seismic sequence (CentroMZ)" insttype="" lat="42.637948" lon="13.285578" esm:processing="manual (Paolucci et al 2011)" esm:quality="good">
		<comp name="--.HNE" depth="0.0">
			<acc value="62.487750188115" flag="0"/>
			<vel value="40.9812706029101" flag="0"/>
			<psa03 value="138.765269294173" flag="0"/>
			<psa10 value="29.0294729519026" flag="0"/>
			<psa30 value="7.58572793668165" flag="0"/>
		</comp>
		<comp name="--.HNN" depth="0.0">
			<acc value="96.6196355987446" flag="0"/>
			<vel value="74.9847723737699" flag="0"/>
			<psa03 value="287.451228061815" flag="0"/>
			<psa10 value="43.3343930870278" flag="0"/>
			<psa30 value="5.85630742426559" flag="0"/>
		</comp>
		<comp name="--.HNZ" depth="0.0">
			<acc value="30.7656454109972" flag="0"/>
			<vel value="39.8787968402969" flag="0"/>
			<psa03 value="69.9879967026316" flag="0"/>
			<psa10 value="34.5683344202115" flag="0"/>
			<psa30 value="8.08151632821872" flag="0"/>
		</comp>
	</station>
	<station code="MZ61" name="MZ61" netid="3A" source="Centro di microzonazione sismica Network, 2016 Central Italy seismic sequence (CentroMZ)" insttype="" lat="42.634324" lon="13.314377" esm:processing="manual (Paolucci et al 2011)" esm:quality="good">
		<comp name="--.HNE" depth="0.0">
			<acc value="31.8878668613005" flag="0"/>
			<vel value="20.8111543082394" flag="0"/>
			<psa03 value="97.8462842314323" flag="0"/>
			<psa10 value="24.514626366466" flag="0"/>
			<psa30 value="3.39646144036492" flag="0"/>
		</comp>
		<comp name="--.HNN" depth="0.0">
			<acc value="54.4917005605737" flag="0"/>
			<vel value="38.0944415699299" flag="0"/>
			<psa03 value="138.467286198095" flag="0"/>
			<psa10 value="21.0035801349517" flag="0"/>
			<psa30 value="5.69541444926628" flag="0"/>
		</comp>
		<comp name="--.HNZ" depth="0.0">
			<acc value="27.6361835460585" flag="0"/>
			<vel value="18.0612104533761" flag="0"/>
			<psa03 value="70.2515282996132" flag="0"/>
			<psa10 value="12.7869378685252" flag="0"/>
			<psa30 value="5.97966168791216" flag="0"/>
		</comp>
	</station>
	<station code="MZ63" name="MZ63" netid="3A" source="Centro di microzonazione sismica Network, 2016 Central Italy seismic sequence (CentroMZ)" insttype="" lat="42.629805" lon="13.323448" esm:processing="manual (Paolucci et al 2011)" esm:quality="good">
		<comp name="--.HNE" depth="0.0">
			<acc value="24.4148804254719" flag="0"/>
			<vel value="13.4361062393645" flag="0"/>
			<psa03 value="79.9158449291599" flag="0"/>
			<psa10 value="18.4061742368032" flag="0"/>
			<psa30 value="2.66185704678216" flag="0"/>
		</comp>
		<comp name="--.HNN" depth="0.0">
			<acc value="38.4549478171163" flag="0"/>
			<vel value="31.3226018318399" flag="0"/>
			<psa03 value="82.8111131194283" flag="0"/>
			<psa10 value="18.8893900682805" flag="0"/>
			<psa30 value="5.63939720658021" flag="0"/>
		</comp>
		<comp name="--.HNZ" depth="0.0">
			<acc value="11.1650237555826" flag="0"/>
			<vel value="12.8015827519416" flag="0"/>
			<psa03 value="15.2340054782156" flag="0"/>
			<psa10 value="9.5927604185021" flag="0"/>
			<psa30 value="5.61103064758422" flag="0"/>
		</comp>
	</station>
	<station code="T1201" name="T1201" netid="8P" source="INGV SISMIKO Emergency Seismic Network for 2016 Central Italy Sequence (ISESNCIS)" insttype="" lat="42.6573" lon="13.2508" esm:processing="manual (Paolucci et al 2011)" esm:quality="good">
		<comp name="--.HNE" depth="0.0">
			<acc value="34.6034388" flag="0"/>
			<vel value="20.416985" flag="0"/>
			<psa03 value="61.0525306188965" flag="0"/>
			<psa10 value="26.2984981443365" flag="0"/>
			<psa30 value="7.53297687507871" flag="0"/>
		</comp>
		<comp name="--.HNN" depth="0.0">
			<acc value="48.3168084" flag="0"/>
			<vel value="83.02464" flag="0"/>
			<psa03 value="79.2487386284815" flag="0"/>
			<psa10 value="93.2521991980748" flag="0"/>
			<psa30 value="7.77977488678509" flag="0"/>
		</comp>
		<comp name="--.HNZ" depth="0.0">
			<acc value="23.37687714" flag="0"/>
			<vel value="16.594835" flag="0"/>
			<psa03 value="32.365080517046" flag="0"/>
			<psa10 value="27.2835336168031" flag="0"/>
			<psa30 value="4.35223103548246" flag="0"/>
		</comp>
	</station>
	<station code="T1211" name="T1211" netid="8P" source="INGV SISMIKO Emergency Seismic Network for 2016 Central Italy Sequence (ISESNCIS)" insttype="" lat="42.532852" lon="12.855145" esm:processing="manual (Paolucci et al 2011)" esm:quality="good">
		<comp name="--.HNE" depth="1.0">
			<acc value="6.045868848" flag="0"/>
			<vel value="3.822994" flag="0"/>
			<psa03 value="7.51534844567111" flag="0"/>
			<psa10 value="2.02663538480611" flag="0"/>
			<psa30 value="0.754268593391487" flag="0"/>
		</comp>
		<comp name="--.HNN" depth="1.0">
			<acc value="7.563912612" flag="0"/>
