<?xml version="1.0" encoding="UTF-8" standalone="yes"?>
<!DOCTYPE earthquake SYSTEM "stationlist.dtd">
<stationlist created="" xmlns="ch.ethz.sed.shakemap.usgs.xml">
  <station code="AKS" name="AKS" netid="KO" insttype="100" lat="38.8785" lon="27.8129">
    <comp name="--.HNE">
      <acc value="1.7410474574" flag="0"/>
      <vel value="0.4063962425" flag="0"/>
      <psa03 value="1.2266173050" flag="0"/>
      <psa10 value="0.3561967162" flag="0"/>
      <psa30 value="0.0261433851" flag="0"/>
    </comp>
    <comp name="--.HNN">
      <acc value="2.8339221105" flag="0"/>
      <vel value="0.7406473306" flag="0"/>
      <psa03 value="6.9618526885" flag="0"/>
      <psa10 value="0.2917861687" flag="0"/>
      <psa30 value="0.0204643030" flag="0"/>
    </comp>
    <comp name="--.HNZ">
      <acc value="1.7572898118" flag="0"/>
      <vel value="0.2961989055" flag="0"/>
      <psa03 value="0.7671253077" flag="0"/>
      <psa10 value="0.1228295670" flag="0"/>
      <psa30 value="0.0067860633" flag="0"/>
    </comp>
  </station>
  <station code="BALB" name="BALB" netid="KO" insttype="120s," lat="39.64" lon="27.88">
    <comp name="--.HHE">
      <acc value="0.0823089516" flag="0"/>
      <vel value="0.0226646053" flag="0"/>
      <psa03 value="0.1128743277" flag="0"/>
      <psa10 value="0.0172889252" flag="0"/>
      <psa30 value="0.0018929116" flag="0"/>
    </comp>
    <comp name="--.HHN">
      <acc value="0.0773954720" flag="0"/>
      <vel value="0.0268417975" flag="0"/>
      <psa03 value="0.1607835413" flag="0"/>
      <psa10 value="0.0327890845" flag="0"/>
      <psa30 value="0.0011525018" flag="0"/>
    </comp>
    <comp name="--.HHZ">
      <acc value="0.0958669280" flag="0"/>
      <vel value="0.0215257767" flag="0"/>
      <psa03 value="0.0893917365" flag="0"/>
      <psa10 value="0.0167838069" flag="0"/>
      <psa30 value="0.0008623286" flag="0"/>
    </comp>
  </station>
  <station code="DST" name="DST" netid="KO" insttype="100" lat="39.6041" lon="28.6267">
    <comp name="--.HNE">
      <acc value="0.3006800440" flag="0"/>
      <vel value="0.1555253424" flag="0"/>
      <psa03 value="0.8574099767" flag="0"/>
      <psa10 value="0.0547812910" flag="0"/>
      <psa30 value="0.0055839263" flag="0"/>
    </comp>
    <comp name="--.HNN">
      <acc value="0.2819105584" flag="0"/>
      <vel value="0.0922555073" flag="0"/>
      <psa03 value="0.5307020028" flag="0"/>
      <psa10 value="0.0585275518" flag="0"/>
      <psa30 value="0.0063528865" flag="0"/>
    </comp>
    <comp name="--.HNZ">
      <acc value="0.2536267166" flag="0"/>
      <vel value="0.0852005093" flag="0"/>
      <psa03 value="0.6099609157" flag="0"/>
      <psa10 value="0.0427438962" flag="0"/>
      <psa30 value="0.0028851353" flag="0"/>
    </comp>
  </station>
  <station code="GOMA" name="GOMA" netid="KO" insttype="100" lat="38.7077" lon="27.9175">
    <comp name="--.HNE">
      <acc value="0.5735479215" flag="0"/>
      <vel value="0.3770876961" flag="0"/>
      <psa03 value="1.4843865310" flag="0"/>
      <psa10 value="0.2489892090" flag="0"/>
      <psa30 value="0.0130672186" flag="0"/>
    </comp>
    <comp name="--.HNN">
      <acc value="0.4537257922" flag="0"/>
      <vel value="0.2260220464" flag="0"/>
      <psa03 value="0.9929792121" flag="0"/>
      <psa10 value="0.1074085184" flag="0"/>
      <psa30 value="0.0127204429" flag="0"/>
    </comp>
    <comp name="--.HNZ">
      <acc value="0.2895231065" flag="0"/>
      <vel value="0.1102976565" flag="0"/>
      <psa03 value="0.3234150216" flag="0"/>
      <psa10 value="0.0776026951" flag="0"/>
      <psa30 value="0.0051996959" flag="0"/>
    </comp>
  </station>
  <station code="GONE" name="GONE" netid="KO" insttype="100" lat="40.0466" lon="27.686">
    <comp name="--.HNE">
      <acc value="0.2338163927" flag="0"/>
      <vel value="0.0986361733" flag="0"/>
      <psa03 value="0.4702208144" flag="0"/>
      <psa10 value="0.0721052478" flag="0"/>
      <psa30 value="0.0060821932" flag="0"/>
    </comp>
    <comp name="--.HNN">
      <acc value="0.1945309827" flag="0"/>
      <vel value="0.0748278629" flag="0"/>
      <psa03 value="0.4979759058" flag="0"/>
      <psa10 value="0.0524838783" flag="0"/>
      <psa30 value="0.0043506362" flag="0"/>
    </comp>
    <comp name="--.HNZ">
      <acc value="0.1615515115" flag="0"/>
      <vel value="0.0597416689" flag="0"/>
      <psa03 value="0.2269504428" flag="0"/>
      <psa10 value="0.0231846236" flag="0"/>
      <psa30 value="0.0020163763" flag="0"/>
    </comp>
  </station>
  <station code="SHAP" name="SHAP" netid="KO" insttype="100" lat="39.0231" lon="29.222">
    <comp name="--.HNE">
      <acc value="0.2506470379" flag="0"/>
      <vel value="0.0996608116" flag="0"/>
      <psa03 value="0.7509418879" flag="0"/>
      <psa10 value="0.0353605133" flag="0"/>
      <psa30 value="0.0036303061" flag="0"/>
    </comp>
    <comp name="--.HNZ">
      <acc value="0.1429985598" flag="0"/>
      <vel value="0.0492125483" flag="0"/>
      <psa03 value="0.1739735917" flag="0"/>
      <psa10 value="0.0267250640" flag="0"/>
      <psa30 value="0.0021846735" flag="0"/>
    </comp>
    <comp name="--.HNN">
      <acc value="0.4121191540" flag="0"/>
      <vel value="0.1366529121" flag="0"/>
      <psa03 value="0.7998698154" flag="0"/>
      <psa10 value="0.0551482005" flag="0"/>
      <psa30 value="0.0043180535" flag="0"/>
    </comp>
  </station>
  <station code="SMAA" name="SMAA" netid="KO" insttype="100" lat="39.1005" lon="28.9805">
    <comp name="--.HNE">
      <acc value="0.4818205373" flag="0"/>
      <vel value="0.4123907822" flag="0"/>
      <psa03 value="1.4451783443" flag="0"/>
      <psa10 value="0.3646627748" flag="0"/>
      <psa30 value="0.0187503470" flag="0"/>
    </comp>
    <comp name="--.HNZ">
      <acc value="0.1285922767" flag="0"/>
      <vel value="0.0906551909" flag="0"/>
      <psa03 value="0.3595844821" flag="0"/>
      <psa10 value="0.1989991708" flag="0"/>
      <psa30 value="0.0078586252" flag="0"/>
    </comp>
    <comp name="--.HNN">
      <acc value="0.4487502324" flag="0"/>
      <vel value="0.2998200011" flag="0"/>
      <psa03 value="1.4881933546" flag="0"/>
      <psa10 value="0.2778410355" flag="0"/>
      <psa30 value="0.0167579845" flag="0"/>
    </comp>
  </station>
</stationlist>
