<stationlist created="1778069325">
	<station code="KRL1" name="KRL1" netid="HI" source="ITSAK Strong Motion Network" insttype="" lat="37.7951" lon="26.7065">
		<comp name="--.HNE" depth="0.0">
			<acc value="0.0218937413935867" flag="0"/>
			<vel value="0.0106598930406098" flag="0"/>
			<psa03 value="0.0655520404175053" flag="0"/>
			<psa10 value="0.0101355301791299" flag="0"/>
			<psa30 value="0.00104760981567419" flag="0"/>
		</comp>
		<comp name="--.HNN" depth="0.0">
			<acc value="0.0182642298754265" flag="0"/>
			<vel value="0.00942463458019982" flag="0"/>
			<psa03 value="0.0545268985977195" flag="0"/>
			<psa10 value="0.0153223131530335" flag="0"/>
			<psa30 value="0.000826540170897814" flag="0"/>
		</comp>
		<comp name="--.HNZ" depth="0.0">
			<acc value="0.00911308228498813" flag="0"/>
			<vel value="0.00576009977728497" flag="0"/>
			<psa03 value="0.0213148924757617" flag="0"/>
			<psa10 value="0.00891064934930056" flag="0"/>
			<psa30 value="0.000404914818411321" flag="0"/>
		</comp>
	</station>
	<station code="PRK" name="PRK" netid="HL" source="National Observatory of Athens Seismic Network" insttype="" lat="39.24565" lon="26.26499">
		<comp name="--.HNE" depth="0.0">
			<acc value="0.034802252828419" flag="0"/>
			<vel value="0.0178778144603471" flag="0"/>
			<psa03 value="0.0813860738386363" flag="0"/>
			<psa10 value="0.0182695852284389" flag="0"/>
			<psa30 value="0.000943165715513168" flag="0"/>
		</comp>
		<comp name="--.HNN" depth="0.0">
			<acc value="0.0298421669937682" flag="0"/>
			<vel value="0.0164401050329456" flag="0"/>
			<psa03 value="0.0919452346005485" flag="0"/>
			<psa10 value="0.0137756779956997" flag="0"/>
			<psa30 value="0.000906029684020003" flag="0"/>
		</comp>
		<comp name="--.HNZ" depth="0.0">
			<acc value="0.0286267117779687" flag="0"/>
			<vel value="0.0121153541147836" flag="0"/>
			<psa03 value="0.0382993288652406" flag="0"/>
			<psa10 value="0.00855292021714883" flag="0"/>
			<psa30 value="0.000613415652736506" flag="0"/>
		</comp>
	</station>
	<station code="AKS" name="AKS" netid="KO" source="Bogazici University Kandilli Observatory And Earthquake Research Institute (KOERI)" insttype="" lat="38.8785" lon="27.8129">
		<comp name="--.HNE" depth="0.0">
			<acc value="1.73573946233328" flag="0"/>
			<vel value="0.421341328040648" flag="0"/>
			<psa03 value="1.23394531632532" flag="0"/>
			<psa10 value="0.357048177878603" flag="0"/>
			<psa30 value="0.0259540592151271" flag="0"/>
		</comp>
		<comp name="--.HNN" depth="0.0">
			<acc value="2.82884976730165" flag="0"/>
			<vel value="0.75836756690632" flag="0"/>
			<psa03 value="7.03450395114454" flag="0"/>
			<psa10 value="0.292381819231148" flag="0"/>
			<psa30 value="0.0216928114568029" flag="0"/>
		</comp>
		<comp name="--.HNZ" depth="0.0">
			<acc value="1.742700461551" flag="0"/>
			<vel value="0.30699392783155" flag="0"/>
			<psa03 value="0.780483052249133" flag="0"/>
			<psa10 value="0.12290594673626" flag="0"/>
			<psa30 value="0.00698515329724458" flag="0"/>
		</comp>
	</station>
	<station code="ALT" name="ALT" netid="KO" source="Bogazici University Kandilli Observatory And Earthquake Research Institute (KOERI)" insttype="" lat="39.0541" lon="30.1104">
		<comp name="--.HNE" depth="0.0">
			<acc value="0.0242139777867029" flag="0"/>
			<vel value="0.00855956079263978" flag="0"/>
			<psa03 value="0.0667106300678432" flag="0"/>
			<psa10 value="0.00786031085869798" flag="0"/>
			<psa30 value="0.00173644503885513" flag="0"/>
		</comp>
		<comp name="--.HNN" depth="0.0">
			<acc value="0.0238025108054048" flag="0"/>
			<vel value="0.0113189882827127" flag="0"/>
			<psa03 value="0.0940928605182255" flag="0"/>
			<psa10 value="0.00686971840416944" flag="0"/>
			<psa30 value="0.00158253184808827" flag="0"/>
		</comp>
		<comp name="--.HNZ" depth="0.0">
			<acc value="0.0159342442610919" flag="0"/>
			<vel value="0.00680667967566894" flag="0"/>
			<psa03 value="0.02304223640841" flag="0"/>
			<psa10 value="0.00942673551240368" flag="0"/>
			<psa30 value="0.00201474156402078" flag="0"/>
		</comp>
	</station>
	<station code="BIGA" name="BIGA" netid="KO" source="Bogazici University Kandilli Observatory And Earthquake Research Institute (KOERI)" insttype="" lat="40.28134" lon="27.15048">
		<comp name="--.HNE" depth="0.0">
			<acc value="0.341177779075204" flag="0"/>
			<vel value="0.148906046786208" flag="0"/>
			<psa03 value="0.712116960536413" flag="0"/>
			<psa10 value="0.114083231013203" flag="0"/>
			<psa30 value="0.00662050431330567" flag="0"/>
		</comp>
		<comp name="--.HNN" depth="0.0">
			<acc value="0.412164367371724" flag="0"/>
			<vel value="0.179692696852646" flag="0"/>
			<psa03 value="1.2260706879605" flag="0"/>
			<psa10 value="0.107555790489663" flag="0"/>
			<psa30 value="0.00800303849781027" flag="0"/>
		</comp>
		<comp name="--.HNZ" depth="0.0">
			<acc value="0.0996166810995873" flag="0"/>
			<vel value="0.0387753352576161" flag="0"/>
			<psa03 value="0.242950181937216" flag="0"/>
			<psa10 value="0.0347150306930509" flag="0"/>
			<psa30 value="0.0022885638685246" flag="0"/>
		</comp>
	</station>
	<station code="BOTS" name="BOTS" netid="KO" source="Bogazici University Kandilli Observatory And Earthquake Research Institute (KOERI)" insttype="" lat="40.9902" lon="27.981">
		<comp name="--.HNE" depth="0.0">
			<acc value="0.0100770396621126" flag="0"/>
			<vel value="0.00521102604131844" flag="0"/>
			<psa03 value="0.0317669666989729" flag="0"/>
			<psa10 value="0.0060683854836362" flag="0"/>
			<psa30 value="0.00081833495904819" flag="0"/>
		</comp>
		<comp name="--.HNN" depth="0.0">
			<acc value="0.00899389611101717" flag="0"/>
			<vel value="0.00590705048750265" flag="0"/>
			<psa03 value="0.0313642868394085" flag="0"/>
			<psa10 value="0.00332613564000232" flag="0"/>
			<psa30 value="0.000349884055754885" flag="0"/>
		</comp>
		<comp name="--.HNZ" depth="0.0">
			<acc value="0.00592056445784656" flag="0"/>
			<vel value="0.00263393986066353" flag="0"/>
			<psa03 value="0.0155702879031586" flag="0"/>
			<psa10 value="0.00163085343123601" flag="0"/>
			<psa30 value="0.000235791428878292" flag="0"/>
		</comp>
	</station>
	<station code="CANM" name="CANM" netid="KO" source="Bogazici University Kandilli Observatory And Earthquake Research Institute (KOERI)" insttype="" lat="40.0113" lon="27.0529">
		<comp name="--.HNE" depth="0.0">
			<acc value="0.291178855232887" flag="0"/>
			<vel value="0.150559441365441" flag="0"/>
			<psa03 value="0.523439075227161" flag="0"/>
			<psa10 value="0.135356807993993" flag="0"/>
			<psa30 value="0.00676188968621941" flag="0"/>
		</comp>
		<comp name="--.HNN" depth="0.0">
			<acc value="0.3890287857705" flag="0"/>
			<vel value="0.176474521286213" flag="0"/>
			<psa03 value="1.07260491925983" flag="0"/>
			<psa10 value="0.223418866482141" flag="0"/>
			<psa30 value="0.0171657949911661" flag="0"/>
		</comp>
		<comp name="--.HNZ" depth="0.0">
			<acc value="0.209132621981131" flag="0"/>
			<vel value="0.0894723165295225" flag="0"/>
			<psa03 value="0.598337529106148" flag="0"/>
			<psa10 value="0.059165751765804" flag="0"/>
			<psa30 value="0.00528181749128698" flag="0"/>
		</comp>
	</station>
	<station code="DST" name="DST" netid="KO" source="Bogazici University Kandilli Observatory And Earthquake Research Institute (KOERI)" insttype="" lat="39.6041" lon="28.6267">
		<comp name="--.HNE" depth="0.0">
			<acc value="0.300446087282027" flag="0"/>
			<vel value="0.15586161379646" flag="0"/>
			<psa03 value="0.871220247270988" flag="0"/>
			<psa10 value="0.0546476837414909" flag="0"/>
			<psa30 value="0.00563707061183606" flag="0"/>
		</comp>
		<comp name="--.HNN" depth="0.0">
			<acc value="0.285401864263824" flag="0"/>
			<vel value="0.0929694873299313" flag="0"/>
			<psa03 value="0.527644842649279" flag="0"/>
			<psa10 value="0.0587751523020265" flag="0"/>
			<psa30 value="0.00700260275782571" flag="0"/>
		</comp>
		<comp name="--.HNZ" depth="0.0">
			<acc value="0.253716631775175" flag="0"/>
			<vel value="0.0851051873648978" flag="0"/>
			<psa03 value="0.62106657006823" flag="0"/>
			<psa10 value="0.0427162795025964" flag="0"/>
			<psa30 value="0.00290018983299637" flag="0"/>
		</comp>
	</station>
	<station code="EZNE" name="EZNE" netid="KO" source="Bogazici University Kandilli Observatory And Earthquake Research Institute (KOERI)" insttype="" lat="39.756" lon="26.3655">
		<comp name="--.HNE" depth="0.0">
			<acc value="0.147546091839277" flag="0"/>
			<vel value="0.0563211172151652" flag="0"/>
			<psa03 value="0.483036862650862" flag="0"/>
			<psa10 value="0.0220708831027273" flag="0"/>
			<psa30 value="0.0027829652516565" flag="0"/>
		</comp>
		<comp name="--.HNN" depth="0.0">
			<acc value="0.206778114004938" flag="0"/>
			<vel value="0.0841114252014553" flag="0"/>
			<psa03 value="0.317311729336783" flag="0"/>
			<psa10 value="0.0516155043989707" flag="0"/>
			<psa30 value="0.00458786586663758" flag="0"/>
		</comp>
		<comp name="--.HNZ" depth="0.0">
			<acc value="0.135044872571958" flag="0"/>
			<vel value="0.0489791067164192" flag="0"/>
			<psa03 value="0.313329672947757" flag="0"/>
			<psa10 value="0.0212937109737679" flag="0"/>
			<psa30 value="0.0019521024747552" flag="0"/>
		</comp>
	</station>
	<station code="GMLD" name="GMLD" netid="KO" source="Bogazici University Kandilli Observatory And Earthquake Research Institute (KOERI)" insttype="" lat="38.0766" lon="26.9157">
		<comp name="--.HNE" depth="0.0">
			<acc value="0.447606881422231" flag="0"/>
			<vel value="0.250379500447824" flag="0"/>
			<psa03 value="1.33537589872894" flag="0"/>
			<psa10 value="0.162924271179775" flag="0"/>
			<psa30 value="0.0119533279201375" flag="0"/>
		</comp>
		<comp name="--.HNN" depth="0.0">
			<acc value="0.35219847676056" flag="0"/>
			<vel value="0.242796515593545" flag="0"/>
			<psa03 value="0.638784483889066" flag="0"/>
			<psa10 value="0.136323239656947" flag="0"/>
			<psa30 value="0.00907550919045024" flag="0"/>
		</comp>
		<comp name="--.HNZ" depth="0.0">
			<acc value="0.214308327962729" flag="0"/>
			<vel value="0.104488048962198" flag="0"/>
			<psa03 value="0.648583027138467" flag="0"/>
			<psa10 value="0.0568946373578605" flag="0"/>
			<psa30 value="0.00474043679120589" flag="0"/>
		</comp>
	</station>
	<station code="GOMA" name="GOMA" netid="KO" source="Bogazici University Kandilli Observatory And Earthquake Research Institute (KOERI)" insttype="" lat="38.7077" lon="27.9175">
		<comp name="--.HNE" depth="0.0">
			<acc value="0.575213481701446" flag="0"/>
			<vel value="0.378816912082138" flag="0"/>
			<psa03 value="1.47304766849336" flag="0"/>
			<psa10 value="0.249460173000174" flag="0"/>
			<psa30 value="0.0131873179786694" flag="0"/>
		</comp>
		<comp name="--.HNN" depth="0.0">
			<acc value="0.457666531144594" flag="0"/>
			<vel value="0.227821916785079" flag="0"/>
			<psa03 value="0.986744624759365" flag="0"/>
			<psa10 value="0.107447066927581" flag="0"/>
			<psa30 value="0.0130696459752634" flag="0"/>
		</comp>
		<comp name="--.HNZ" depth="0.0">
			<acc value="0.288039549420841" flag="0"/>
			<vel value="0.111410454057427" flag="0"/>
			<psa03 value="0.325902233007491" flag="0"/>
			<psa10 value="0.0779145260271246" flag="0"/>
			<psa30 value="0.0054003843388254" flag="0"/>
		</comp>
	</station>
	<station code="GONE" name="GONE" netid="KO" source="Bogazici University Kandilli Observatory And Earthquake Research Institute (KOERI)" insttype="" lat="40.0466" lon="27.686">
		<comp name="--.HNE" depth="0.0">
			<acc value="0.234849557039131" flag="0"/>
			<vel value="0.0984000975265847" flag="0"/>
			<psa03 value="0.477936251096379" flag="0"/>
			<psa10 value="0.0723655975623266" flag="0"/>
			<psa30 value="0.00602811749767975" flag="0"/>
		</comp>
		<comp name="--.HNN" depth="0.0">
			<acc value="0.196666368455528" flag="0"/>
			<vel value="0.0751413810670227" flag="0"/>
			<psa03 value="0.499054572620203" flag="0"/>
			<psa10 value="0.0524973732914168" flag="0"/>
			<psa30 value="0.00503707762108503" flag="0"/>
		</comp>
		<comp name="--.HNZ" depth="0.0">
			<acc value="0.159971683025194" flag="0"/>
			<vel value="0.060615209095491" flag="0"/>
			<psa03 value="0.230825043943664" flag="0"/>
			<psa10 value="0.0232306010982729" flag="0"/>
			<psa30 value="0.0022885638685246" flag="0"/>
		</comp>
	</station>
	<station code="GORD" name="GORD" netid="KO" source="Bogazici University Kandilli Observatory And Earthquake Research Institute (KOERI)" insttype="" lat="38.9088" lon="28.1769">
		<comp name="--.HNE" depth="0.0">
			<acc value="0.279714604336368" flag="0"/>
			<vel value="0.123232802245524" flag="0"/>
			<psa03 value="0.652296630287784" flag="0"/>
			<psa10 value="0.178870393618527" flag="0"/>
			<psa30 value="0.00951756219183877" flag="0"/>
		</comp>
		<comp name="--.HNN" depth="0.0">
			<acc value="0.370247915035135" flag="0"/>
			<vel value="0.244113374296158" flag="0"/>
			<psa03 value="0.448898559001121" flag="0"/>
			<psa10 value="0.286752354794437" flag="0"/>
			<psa30 value="0.0177094128015781" flag="0"/>
		</comp>
		<comp name="--.HNZ" depth="0.0">
			<acc value="0.222697110682788" flag="0"/>
			<vel value="0.103781763498046" flag="0"/>
			<psa03 value="0.329794804983281" flag="0"/>
			<psa10 value="0.141300362721164" flag="0"/>
			<psa30 value="0.00808178478145843" flag="0"/>
		</comp>
	</station>
	<station code="HVHR" name="HVHR" netid="KO" source="Bogazici University Kandilli Observatory And Earthquake Research Institute (KOERI)" insttype="" lat="40.9699" lon="28.8445">
		<comp name="--.HNE" depth="0.0">
			<acc value="0.0221150299903953" flag="0"/>
			<vel value="0.0128194595634826" flag="0"/>
			<psa03 value="0.058120126397135" flag="0"/>
			<psa10 value="0.0112226876860611" flag="0"/>
			<psa30 value="0.000729297967877829" flag="0"/>
		</comp>
		<comp name="--.HNN" depth="0.0">
			<acc value="0.0210961989845977" flag="0"/>
			<vel value="0.0134162354221385" flag="0"/>
			<psa03 value="0.0530642570492703" flag="0"/>
			<psa10 value="0.0109085973956008" flag="0"/>
			<psa30 value="0.000782541193753573" flag="0"/>
		</comp>
		<comp name="--.HNZ" depth="0.0">
			<acc value="0.0209827699939931" flag="0"/>
			<vel value="0.00923995955333238" flag="0"/>
			<psa03 value="0.054496007661055" flag="0"/>
			<psa10 value="0.00498517666140784" flag="0"/>
			<psa30 value="0.000412523145020466" flag="0"/>
		</comp>
	</station>
	<station code="NAZL" name="NAZL" netid="KO" source="Bogazici University Kandilli Observatory And Earthquake Research Institute (KOERI)" insttype="" lat="37.9641" lon="28.2922">
		<comp name="--.HNE" depth="0.0">
			<acc value="0.181718613666028" flag="0"/>
			<vel value="0.102609080855201" flag="0"/>
			<psa03 value="0.31843028450224" flag="0"/>
			<psa10 value="0.137950066289588" flag="0"/>
			<psa30 value="0.00830460097041742" flag="0"/>
		</comp>
		<comp name="--.HNN" depth="0.0">
			<acc value="0.164926630135521" flag="0"/>
			<vel value="0.107698721893342" flag="0"/>
			<psa03 value="0.754890510063481" flag="0"/>
			<psa10 value="0.0758890463335155" flag="0"/>
			<psa30 value="0.00458607617837285" flag="0"/>
		</comp>
		<comp name="--.HNZ" depth="0.0">
			<acc value="0.0856443417016971" flag="0"/>
			<vel value="0.0380978124413345" flag="0"/>
			<psa03 value="0.208230229601437" flag="0"/>
			<psa10 value="0.0409163005303433" flag="0"/>
			<psa30 value="0.00269034888395668" flag="0"/>
		</comp>
	</station>
	<station code="ODEM" name="ODEM" netid="KO" source="Bogazici University Kandilli Observatory And Earthquake Research Institute (KOERI)" insttype="" lat="38.2762" lon="28.0747">
		<comp name="--.HNE" depth="0.0">
			<acc value="0.222383801850064" flag="0"/>
			<vel value="0.109737904349053" flag="0"/>
			<psa03 value="0.306618341955016" flag="0"/>
			<psa10 value="0.0889117129918296" flag="0"/>
			<psa30 value="0.00690998639012589" flag="0"/>
		</comp>
		<comp name="--.HNN" depth="0.0">
			<acc value="0.127122057072895" flag="0"/>
			<vel value="0.0459346923985449" flag="0"/>
			<psa03 value="0.195791896161557" flag="0"/>
			<psa10 value="0.0325365326528072" flag="0"/>
			<psa30 value="0.00241160493672485" flag="0"/>
		</comp>
		<comp name="--.HNZ" depth="0.0">
			<acc value="0.175743272987975" flag="0"/>
			<vel value="0.0542039814886327" flag="0"/>
			<psa03 value="0.192391488458569" flag="0"/>
			<psa10 value="0.0466705957235193" flag="0"/>
			<psa30 value="0.00229527519951734" flag="0"/>
		</comp>
	</station>
	<station code="ORLT" name="ORLT" netid="KO" source="Bogazici University Kandilli Observatory And Earthquake Research Institute (KOERI)" insttype="" lat="40.0452" lon="28.8914">
		<comp name="--.HNE" depth="0.0">
			<acc value="0.392187329258151" flag="0"/>
			<vel value="0.181468792756361" flag="0"/>
			<psa03 value="1.35184103076446" flag="0"/>
			<psa10 value="0.1018820312684" flag="0"/>
			<psa30 value="0.00819140318767319" flag="0"/>
		</comp>
		<comp name="--.HNN" depth="0.0">
			<acc value="0.343222994444626" flag="0"/>
			<vel value="0.135175806448525" flag="0"/>
			<psa03 value="1.02965240090629" flag="0"/>
			<psa10 value="0.12281333036856" flag="0"/>
			<psa30 value="0.00713548711148198" flag="0"/>
		</comp>
		<comp name="--.HNZ" depth="0.0">
			<acc value="0.172347959494711" flag="0"/>
			<vel value="0.0725397315924069" flag="0"/>
			<psa03 value="0.401919242051935" flag="0"/>
			<psa10 value="0.090164047355075" flag="0"/>
			<psa30 value="0.00576771785516141" flag="0"/>
		</comp>
	</station>
	<station code="SHAP" name="SHAP" netid="KO" source="Bogazici University Kandilli Observatory And Earthquake Research Institute (KOERI)" insttype="" lat="39.0231" lon="29.222">
		<comp name="--.HNE" depth="0.0">
			<acc value="0.249928191148566" flag="0"/>
			<vel value="0.100710986851638" flag="0"/>
			<psa03 value="0.756456487295121" flag="0"/>
			<psa10 value="0.0353109968852063" flag="0"/>
			<psa30 value="0.00381919475693568" flag="0"/>
		</comp>
		<comp name="--.HNN" depth="0.0">
			<acc value="0.413261711722651" flag="0"/>
			<vel value="0.137652215082981" flag="0"/>
			<psa03 value="0.805941367814929" flag="0"/>
			<psa10 value="0.0553684806901113" flag="0"/>
			<psa30 value="0.0042223220385663" flag="0"/>
		</comp>
		<comp name="--.HNZ" depth="0.0">
			<acc value="0.143028625961337" flag="0"/>
			<vel value="0.0495457835756411" flag="0"/>
			<psa03 value="0.17785027130763" flag="0"/>
			<psa10 value="0.0267339158764836" flag="0"/>
			<psa30 value="0.00219460523462623" flag="0"/>
		</comp>
	</station>
	<station code="SINB" name="SINB" netid="KO" source="Bogazici University Kandilli Observatory And Earthquake Research Institute (KOERI)" insttype="" lat="40.9998" lon="28.5392">
		<comp name="--.HNE" depth="0.0">
			<acc value="0.0209575559364307" flag="0"/>
			<vel value="0.011217004134792" flag="0"/>
			<psa03 value="0.0685003183325741" flag="0"/>
			<psa10 value="0.00771131931065914" flag="0"/>
			<psa30 value="0.000563751803390224" flag="0"/>
		</comp>
		<comp name="--.HNN" depth="0.0">
			<acc value="0.0107787475145183" flag="0"/>
			<vel value="0.00622701872678641" flag="0"/>
			<psa03 value="0.0368675782534559" flag="0"/>
			<psa10 value="0.00427646010857441" flag="0"/>
			<psa30 value="0.000438921046925246" flag="0"/>
		</comp>
		<comp name="--.HNZ" depth="0.0">
			<acc value="0.00672053279110763" flag="0"/>
			<vel value="0.00295457221483704" flag="0"/>
			<psa03 value="0.0183443047134914" flag="0"/>
			<psa10 value="0.00262547268436019" flag="0"/>
			<psa30 value="0.000475162234286046" flag="0"/>
		</comp>
	</station>
	<station code="SMAA" name="SMAA" netid="KO" source="Bogazici University Kandilli Observatory And Earthquake Research Institute (KOERI)" insttype="" lat="39.1005" lon="28.9805">
		<comp name="--.HNE" depth="0.0">
			<acc value="0.481519323638236" flag="0"/>
			<vel value="0.413381909940857" flag="0"/>
			<psa03 value="1.41935702055143" flag="0"/>
			<psa10 value="0.364787684779431" flag="0"/>
			<psa30 value="0.0191961963275033" flag="0"/>
		</comp>
		<comp name="--.HNN" depth="0.0">
