<?xml version="1.0" encoding="UTF-8" standalone="yes"?>
<!DOCTYPE earthquake SYSTEM "stationlist.dtd">
<stationlist created="" xmlns="ch.ethz.sed.shakemap.usgs.xml">
  <station code="KBS" name="KBS" netid="GE" insttype="" lat="78.9154" lon="11.9385">
    <comp name="10.HH1">
      <acc value="0.1308354511" flag="0"/>
      <vel value="0.0484706868" flag="0"/>
      <psa03 value="0.2610067654" flag="0"/>
      <psa10 value="0.0181707411" flag="0"/>
      <psa30 value="0.0015921938" flag="0"/>
    </comp>
    <comp name="10.HHZ">
      <acc value="0.0510120729" flag="0"/>
      <vel value="0.0182388712" flag="0"/>
      <psa03 value="0.1087368505" flag="0"/>
      <psa10 value="0.0154098918" flag="0"/>
      <psa30 value="0.0007158395" flag="0"/>
    </comp>
    <comp name="10.HH2">
      <acc value="0.1157260864" flag="0"/>
      <vel value="0.0423806107" flag="0"/>
      <psa03 value="0.1855927382" flag="0"/>
      <psa10 value="0.0331709516" flag="0"/>
      <psa30 value="0.0019585784" flag="0"/>
    </comp>
  </station>
</stationlist>
