<?xml version="1.0" encoding="UTF-8" standalone="yes"?>
<!DOCTYPE earthquake SYSTEM "stationlist.dtd">
<stationlist created="" xmlns="ch.ethz.sed.shakemap.usgs.xml">
  <station code="BIR" name="BIR" netid="RO" insttype="200" commtype="DIG" lat="46.2334" lon="27.6436">
    <comp name="--.HNZ">
      <acc value="0.3578139580" flag="0"/>
      <vel value="0.0559811136" flag="0"/>
      <psa03 value="0.2130386180" flag="0"/>
      <psa10 value="0.0078107802" flag="0"/>
      <psa30 value="0.0007891356" flag="0"/>
    </comp>
    <comp name="--.HNE">
      <acc value="0.5531678308" flag="0"/>
      <vel value="0.0935315361" flag="0"/>
      <psa03 value="0.4960877696" flag="0"/>
      <psa10 value="0.0178298110" flag="0"/>
      <psa30 value="0.0017884274" flag="0"/>
    </comp>
    <comp name="--.HNN">
      <acc value="0.7222652693" flag="0"/>
      <vel value="0.1580580914" flag="0"/>
      <psa03 value="0.2787951686" flag="0"/>
      <psa10 value="0.0263537121" flag="0"/>
      <psa30 value="0.0021643643" flag="0"/>
    </comp>
  </station>
  <station code="BISRR" name="BISRR" netid="RO" insttype="CMG40T.1to100/Basalt" commtype="DIG" lat="45.5481" lon="26.7099">
    <comp name="--.HHE">
      <acc value="0.0637478522" flag="0"/>
      <vel value="0.0254706216" flag="0"/>
      <psa03 value="0.2203622319" flag="0"/>
      <psa10 value="0.0213962286" flag="0"/>
      <psa30 value="0.0016223899" flag="0"/>
    </comp>
    <comp name="--.HHZ">
      <acc value="0.0779349624" flag="0"/>
      <vel value="0.0146175940" flag="0"/>
      <psa03 value="0.0756554899" flag="0"/>
      <psa10 value="0.0101711930" flag="0"/>
      <psa30 value="0.0007089382" flag="0"/>
    </comp>
    <comp name="--.HHN">
      <acc value="0.0604021522" flag="0"/>
      <vel value="0.0243110203" flag="0"/>
      <psa03 value="0.1689175537" flag="0"/>
      <psa10 value="0.0211940562" flag="0"/>
      <psa30 value="0.0010587436" flag="0"/>
    </comp>
  </station>
  <station code="BOSR" name="BOSR" netid="RO" insttype="Seismometer/Basalt" commtype="DIG" lat="46.0749" lon="25.6611">
    <comp name="--.HHE">
      <acc value="0.0440498284" flag="0"/>
      <vel value="0.0194636587" flag="0"/>
      <psa03 value="0.0892695327" flag="0"/>
      <psa10 value="0.0074220535" flag="0"/>
      <psa30 value="0.0007203683" flag="0"/>
    </comp>
  </station>
  <station code="DOPR" name="DOPR" netid="RO" insttype="330" commtype="DIG" lat="45.9675" lon="25.3886">
    <comp name="--.HHZ">
      <acc value="0.0046862760" flag="0"/>
      <vel value="0.0017856661" flag="0"/>
      <psa03 value="0.0069229901" flag="0"/>
      <psa10 value="0.0016876834" flag="0"/>
      <psa30 value="0.0000984096" flag="0"/>
    </comp>
  </station>
  <station code="GIRR" name="GIRR" netid="RO" insttype="CMG40T.1to100/Quanterra" commtype="DIG" lat="46.9551" lon="26.5009">
    <comp name="--.HHE">
      <acc value="0.3016790396" flag="0"/>
      <vel value="0.0391863313" flag="0"/>
      <psa03 value="0.1007254883" flag="0"/>
      <psa10 value="0.0037534297" flag="0"/>
      <psa30 value="0.0003479430" flag="0"/>
    </comp>
    <comp name="--.HHN">
      <acc value="0.2858945360" flag="0"/>
      <vel value="0.0503121053" flag="0"/>
      <psa03 value="0.0811576074" flag="0"/>
      <psa10 value="0.0047907254" flag="0"/>
      <psa30 value="0.0004608962" flag="0"/>
    </comp>
    <comp name="--.HHZ">
      <acc value="0.1053144527" flag="0"/>
      <vel value="0.0149886265" flag="0"/>
      <psa03 value="0.0236302401" flag="0"/>
      <psa10 value="0.0011561949" flag="0"/>
      <psa30 value="0.0001384326" flag="0"/>
    </comp>
  </station>
  <station code="GIUM" name="GIUM" netid="RO" insttype="2.5V" commtype="DIG" lat="45.485" lon="28.2081">
    <comp name="--.HNN">
      <acc value="0.0832577672" flag="0"/>
      <vel value="0.0213097132" flag="0"/>
      <psa03 value="0.0845264985" flag="0"/>
      <psa10 value="0.0066979368" flag="0"/>
      <psa30 value="0.0009653727" flag="0"/>
    </comp>
    <comp name="--.HNE">
      <acc value="0.1020470527" flag="0"/>
      <vel value="0.0229524563" flag="0"/>
      <psa03 value="0.0788754027" flag="0"/>
      <psa10 value="0.0084935282" flag="0"/>
      <psa30 value="0.0008428893" flag="0"/>
    </comp>
    <comp name="--.HNZ">
      <acc value="0.1036985221" flag="0"/>
      <vel value="0.0168826237" flag="0"/>
      <psa03 value="0.0747271731" flag="0"/>
      <psa10 value="0.0040690588" flag="0"/>
      <psa30 value="0.0005001729" flag="0"/>
    </comp>
  </station>
  <station code="MLR" name="MLR" netid="RO" insttype="330HR" commtype="DIG" lat="45.4909" lon="25.945">
    <comp name="--.HHN">
      <acc value="0.0088866595" flag="0"/>
      <vel value="0.0060139068" flag="0"/>
      <psa03 value="0.0416781545" flag="0"/>
      <psa10 value="0.0023585498" flag="0"/>
      <psa30 value="0.0002910206" flag="0"/>
    </comp>
    <comp name="--.HHE">
      <acc value="0.0110746991" flag="0"/>
      <vel value="0.0079362639" flag="0"/>
      <psa03 value="0.0321294558" flag="0"/>
      <psa10 value="0.0034404907" flag="0"/>
      <psa30 value="0.0003454740" flag="0"/>
    </comp>
    <comp name="--.HHZ">
      <acc value="0.0099827021" flag="0"/>
      <vel value="0.0056223766" flag="0"/>
      <psa03 value="0.0241944511" flag="0"/>
      <psa10 value="0.0017787273" flag="0"/>
      <psa30 value="0.0002179779" flag="0"/>
    </comp>
  </station>
  <station code="NEGRR" name="NEGRR" netid="RO" insttype="200" commtype="DIG" lat="45.5373" lon="27.8771">
    <comp name="--.HNN">
      <acc value="0.0261688953" flag="0"/>
      <vel value="0.0082747017" flag="0"/>
      <psa03 value="0.0449717783" flag="0"/>
      <psa10 value="0.0017873092" flag="0"/>
      <psa30 value="0.0003416403" flag="0"/>
    </comp>
    <comp name="--.HNE">
      <acc value="0.0426382916" flag="0"/>
      <vel value="0.0124331937" flag="0"/>
      <psa03 value="0.1224314262" flag="0"/>
      <psa10 value="0.0031481606" flag="0"/>
      <psa30 value="0.0003101581" flag="0"/>
    </comp>
    <comp name="--.HNZ">
      <acc value="0.0250909881" flag="0"/>
      <vel value="0.0033636312" flag="0"/>
      <psa03 value="0.0088103070" flag="0"/>
      <psa10 value="0.0013222374" flag="0"/>
      <psa30 value="0.0001304980" flag="0"/>
    </comp>
  </station>
  <station code="NEHR" name="NEHR" netid="RO" insttype="Seismometer/Basalt" commtype="DIG" lat="45.4272" lon="26.2952">
    <comp name="--.HHE">
      <acc value="0.0029918624" flag="0"/>
      <vel value="0.0014029720" flag="0"/>
      <psa03 value="0.0107647670" flag="0"/>
      <psa10 value="0.0008365965" flag="0"/>
      <psa30 value="0.0000440365" flag="0"/>
    </comp>
    <comp name="--.HHN">
      <acc value="0.0029663027" flag="0"/>
      <vel value="0.0016850286" flag="0"/>
      <psa03 value="0.0110901113" flag="0"/>
      <psa10 value="0.0009096063" flag="0"/>
      <psa30 value="0.0000856824" flag="0"/>
    </comp>
    <comp name="--.HHZ">
      <acc value="0.0016764764" flag="0"/>
      <vel value="0.0009565180" flag="0"/>
      <psa03 value="0.0054446482" flag="0"/>
      <psa10 value="0.0003689417" flag="0"/>
      <psa30 value="0.0000293830" flag="0"/>
    </comp>
  </station>
  <station code="NGRR" name="NGRR" netid="RO" insttype="Seismometer/Quanterra" commtype="DIG" lat="46.8375" lon="27.4422">
    <comp name="--.HHE">
      <acc value="0.6172466447" flag="0"/>
      <vel value="0.0977145370" flag="0"/>
      <psa03 value="0.2240751100" flag="0"/>
      <psa10 value="0.0574114151" flag="0"/>
      <psa30 value="0.0212075930" flag="0"/>
    </comp>
    <comp name="--.HHZ">
      <acc value="0.2358045343" flag="0"/>
      <vel value="0.0277898611" flag="0"/>
      <psa03 value="0.0693145883" flag="0"/>
      <psa10 value="0.0023097769" flag="0"/>
      <psa30 value="0.0002754092" flag="0"/>
    </comp>
    <comp name="--.HHN">
      <acc value="0.7921536328" flag="0"/>
      <vel value="0.0849707354" flag="0"/>
      <psa03 value="0.1476790045" flag="0"/>
      <psa10 value="0.0218602274" flag="0"/>
      <psa30 value="0.0052266455" flag="0"/>
    </comp>
  </station>
  <station code="ODBI" name="ODBI" netid="RO" insttype="200" commtype="DIG" lat="45.7633" lon="27.0558">
    <comp name="--.HNN">
      <acc value="0.1426598291" flag="0"/>
      <vel value="0.0438412177" flag="0"/>
      <psa03 value="0.2156685898" flag="0"/>
      <psa10 value="0.0231628740" flag="0"/>
      <psa30 value="0.0014436766" flag="0"/>
    </comp>
    <comp name="--.HNE">
      <acc value="0.1186067735" flag="0"/>
      <vel value="0.0407247324" flag="0"/>
      <psa03 value="0.2109074867" flag="0"/>
      <psa10 value="0.0126811958" flag="0"/>
      <psa30 value="0.0013712219" flag="0"/>
    </comp>
    <comp name="--.HNZ">
      <acc value="0.0815044302" flag="0"/>
      <vel value="0.0163017237" flag="0"/>
      <psa03 value="0.0833112410" flag="0"/>
      <psa10 value="0.0052080996" flag="0"/>
      <psa30 value="0.0003881665" flag="0"/>
    </comp>
  </station>
  <station code="PANC" name="PANC" netid="RO" insttype="Seismometer/Basalt" commtype="DIG" lat="45.8723" lon="27.1477">
    <comp name="--.HHE">
      <acc value="0.1819824517" flag="0"/>
      <vel value="0.0391721360" flag="0"/>
      <psa03 value="0.2288769590" flag="0"/>
      <psa10 value="0.0109658745" flag="0"/>
      <psa30 value="0.0007845204" flag="0"/>
    </comp>
    <comp name="--.HHN">
      <acc value="0.2497436127" flag="0"/>
      <vel value="0.0671236055" flag="0"/>
      <psa03 value="0.3309945734" flag="0"/>
      <psa10 value="0.0230031570" flag="0"/>
      <psa30 value="0.0013321998" flag="0"/>
    </comp>
    <comp name="--.HHZ">
      <acc value="0.1333516945" flag="0"/>
      <vel value="0.0257283849" flag="0"/>
      <psa03 value="0.0923360638" flag="0"/>
      <psa10 value="0.0032284125" flag="0"/>
      <psa30 value="0.0003960534" flag="0"/>
    </comp>
  </station>
  <station code="PLOR" name="PLOR" netid="RO" insttype="MBB2/Quanterra" commtype="DIG" lat="45.8512" lon="26.6498">
    <comp name="--.HHE">
      <acc value="0.0567419465" flag="0"/>
      <vel value="0.0197824264" flag="0"/>
      <psa03 value="0.0850115686" flag="0"/>
      <psa10 value="0.0106421921" flag="0"/>
      <psa30 value="0.0008685476" flag="0"/>
    </comp>
    <comp name="--.HHN">
      <acc value="0.0568135038" flag="0"/>
      <vel value="0.0276787384" flag="0"/>
      <psa03 value="0.1357778006" flag="0"/>
      <psa10 value="0.0083651995" flag="0"/>
      <psa30 value="0.0007098225" flag="0"/>
    </comp>
    <comp name="--.HHZ">
      <acc value="0.0423362233" flag="0"/>
      <vel value="0.0100426990" flag="0"/>
      <psa03 value="0.0596902147" flag="0"/>
      <psa10 value="0.0031537790" flag="0"/>
      <psa30 value="0.0003199613" flag="0"/>
    </comp>
  </station>
  <station code="PLOR4" name="PLOR4" netid="RO" insttype="MBB2/Quanterra" commtype="DIG" lat="45.8512" lon="26.6498">
    <comp name="--.HHZ">
      <acc value="0.0423362233" flag="0"/>
      <vel value="0.0100426990" flag="0"/>
      <psa03 value="0.0596902147" flag="0"/>
      <psa10 value="0.0031537790" flag="0"/>
      <psa30 value="0.0003199613" flag="0"/>
    </comp>
    <comp name="--.HHN">
      <acc value="0.0568135038" flag="0"/>
      <vel value="0.0276787384" flag="0"/>
      <psa03 value="0.1357778006" flag="0"/>
      <psa10 value="0.0083651995" flag="0"/>
      <psa30 value="0.0007098225" flag="0"/>
    </comp>
    <comp name="--.HHE">
      <acc value="0.0567419465" flag="0"/>
      <vel value="0.0197824264" flag="0"/>
      <psa03 value="0.0850115686" flag="0"/>
      <psa10 value="0.0106421921" flag="0"/>
      <psa30 value="0.0008685476" flag="0"/>
    </comp>
  </station>
  <station code="SCHL" name="SCHL" netid="RO" insttype="200" commtype="DIG" lat="45.5007" lon="27.8302">
    <comp name="--.HNN">
      <acc value="0.1102964781" flag="0"/>
      <vel value="0.0394955517" flag="0"/>
      <psa03 value="0.2451154565" flag="0"/>
      <psa10 value="0.0128869943" flag="0"/>
      <psa30 value="0.0011200966" flag="0"/>
    </comp>
    <comp name="--.HNE">
      <acc value="0.0828157517" flag="0"/>
      <vel value="0.0235250350" flag="0"/>
      <psa03 value="0.1779578538" flag="0"/>
      <psa10 value="0.0084145905" flag="0"/>
      <psa30 value="0.0006848270" flag="0"/>
    </comp>
    <comp name="--.HNZ">
      <acc value="0.1036019232" flag="0"/>
      <vel value="0.0154767153" flag="0"/>
      <psa03 value="0.0897600520" flag="0"/>
      <psa10 value="0.0037244179" flag="0"/>
      <psa30 value="0.0002669160" flag="0"/>
    </comp>
  </station>
  <station code="TESR" name="TESR" netid="RO" insttype="330" commtype="DIG" lat="46.5118" lon="26.6489">
    <comp name="--.HHE">
      <acc value="0.1325236332" flag="0"/>
      <vel value="0.0358803699" flag="0"/>
      <psa03 value="0.1828989889" flag="0"/>
      <psa10 value="0.0090371798" flag="0"/>
      <psa30 value="0.0006817064" flag="0"/>
    </comp>
    <comp name="--.HHZ">
      <acc value="0.0904425070" flag="0"/>
      <vel value="0.0179940010" flag="0"/>
      <psa03 value="0.0481118831" flag="0"/>
      <psa10 value="0.0030558386" flag="0"/>
      <psa30 value="0.0002003355" flag="0"/>
    </comp>
    <comp name="--.HHN">
      <acc value="0.1058621253" flag="0"/>
      <vel value="0.0402356937" flag="0"/>
      <psa03 value="0.0958188002" flag="0"/>
      <psa10 value="0.0093593165" flag="0"/>
      <psa30 value="0.0006423743" flag="0"/>
    </comp>
  </station>
  <station code="TUDR" name="TUDR" netid="RO" insttype="200" commtype="DIG" lat="45.5939" lon="27.6687">
    <comp name="--.HNZ">
      <acc value="0.2269431195" flag="0"/>
      <vel value="0.0350280683" flag="0"/>
      <psa03 value="0.0720996245" flag="0"/>
      <psa10 value="0.0032403780" flag="0"/>
      <psa30 value="0.0003187019" flag="0"/>
    </comp>
    <comp name="--.HNN">
      <acc value="0.1333550568" flag="0"/>
      <vel value="0.0341606650" flag="0"/>
      <psa03 value="0.2002935395" flag="0"/>
      <psa10 value="0.0125803601" flag="0"/>
      <psa30 value="0.0011057248" flag="0"/>
    </comp>
    <comp name="--.HNE">
      <acc value="0.3214809359" flag="0"/>
      <vel value="0.1039843599" flag="0"/>
      <psa03 value="0.3835197163" flag="0"/>
      <psa10 value="0.0146142458" flag="0"/>
      <psa30 value="0.0015307714" flag="0"/>
    </comp>
  </station>
  <station code="VARL" name="VARL" netid="RO" insttype="MBB2/Quanterra" commtype="DIG" lat="45.8996" lon="27.8487">
    <comp name="--.HHE">
      <acc value="0.4120724850" flag="0"/>
      <vel value="0.1184481002" flag="0"/>
      <psa03 value="0.3504434528" flag="0"/>
      <psa10 value="0.0250346549" flag="0"/>
      <psa30 value="0.0019334524" flag="0"/>
    </comp>
    <comp name="--.HHN">
      <acc value="0.3630219492" flag="0"/>
      <vel value="0.0936775430" flag="0"/>
      <psa03 value="0.2790354233" flag="0"/>
      <psa10 value="0.0139517478" flag="0"/>
      <psa30 value="0.0015777320" flag="0"/>
    </comp>
  </station>
  <station code="VASR" name="VASR" netid="RO" insttype="CMG40T.1to100/Basalt" commtype="DIG" lat="46.6415" lon="27.7911">
    <comp name="--.HHE">
      <acc value="0.3868091819" flag="0"/>
      <vel value="0.0515435474" flag="0"/>
      <psa03 value="0.1073344138" flag="0"/>
      <psa10 value="0.0063199645" flag="0"/>
      <psa30 value="0.0004625933" flag="0"/>
    </comp>
    <comp name="--.HHZ">
      <acc value="0.4787767830" flag="0"/>
      <vel value="0.0586434798" flag="0"/>
      <psa03 value="0.0723126481" flag="0"/>
      <psa10 value="0.0031059297" flag="0"/>
      <psa30 value="0.0003506328" flag="0"/>
    </comp>
    <comp name="--.HHN">
      <acc value="0.3573932912" flag="0"/>
      <vel value="0.0532298365" flag="0"/>
      <psa03 value="0.1300955321" flag="0"/>
      <psa10 value="0.0065230552" flag="0"/>
      <psa30 value="0.0006866432" flag="0"/>
    </comp>
  </station>
  <station code="VRI" name="VRI" netid="RO" insttype="Linear" commtype="DIG" lat="45.8657" lon="26.7277">
    <comp name="--.HHE">
      <acc value="0.1102970401" flag="0"/>
      <vel value="0.0483914004" flag="0"/>
      <psa03 value="0.3213535949" flag="0"/>
      <psa10 value="0.0126237214" flag="0"/>
      <psa30 value="0.0012833779" flag="0"/>
    </comp>
    <comp name="--.HHN">
      <acc value="0.0582026069" flag="0"/>
      <vel value="0.0221393043" flag="0"/>
      <psa03 value="0.1337556069" flag="0"/>
      <psa10 value="0.0085003580" flag="0"/>
      <psa30 value="0.0006825608" flag="0"/>
    </comp>
    <comp name="--.HHZ">
      <acc value="0.0768366211" flag="0"/>
      <vel value="0.0134032635" flag="0"/>
      <psa03 value="0.0623115404" flag="0"/>
      <psa10 value="0.0043375986" flag="0"/>
      <psa30 value="0.0003188220" flag="0"/>
    </comp>
  </station>
</stationlist>
