<stationlist xmlns:esm="https://esm-db.eu/esmws/shakemap/1/" created="1781834061">
	<station code="KIS" name="KIS" netid="MD" source="Moldova Digital Seismic Network" insttype="" lat="46.9975" lon="28.8175" esm:processing="manual (Paolucci et al 2011)" esm:quality="good">
		<comp name="--.HNE" depth="0.0">
			<acc value="0.249390480377961" flag="0"/>
			<vel value="0.0469813127904538" flag="0"/>
			<psa03 value="0.167416882213339" flag="0"/>
			<psa10 value="0.00518198734372588" flag="0"/>
			<psa30 value="0.000491980976740951" flag="0"/>
		</comp>
		<comp name="--.HNN" depth="0.0">
			<acc value="0.145923691340811" flag="0"/>
			<vel value="0.0277490591973083" flag="0"/>
			<psa03 value="0.0995003309917188" flag="0"/>
			<psa10 value="0.00383869734173534" flag="0"/>
			<psa30 value="0.000374577392038992" flag="0"/>
		</comp>
		<comp name="--.HNZ" depth="0.0">
			<acc value="0.129726597909485" flag="0"/>
			<vel value="0.0198399249370288" flag="0"/>
			<psa03 value="0.0426513072106102" flag="0"/>
			<psa10 value="0.00181112271236611" flag="0"/>
			<psa30 value="0.000199329832227484" flag="0"/>
		</comp>
	</station>
	<station code="AMRR" name="AMRR" netid="RO" source="Romanian Seismic Network (NIEP)" insttype="" lat="44.6102" lon="27.3351" esm:processing="manual (Paolucci et al 2011)" esm:quality="good">
		<comp name="--.HNE" depth="0.0">
			<acc value="0.0245217600160498" flag="0"/>
			<vel value="0.00753726921548633" flag="0"/>
			<psa03 value="0.0396170384968701" flag="0"/>
			<psa10 value="0.00332334687417027" flag="0"/>
			<psa30 value="0.000204383174798936" flag="0"/>
		</comp>
		<comp name="--.HNN" depth="0.0">
			<acc value="0.0265692240977403" flag="0"/>
			<vel value="0.011679848470335" flag="0"/>
			<psa03 value="0.0429837875691396" flag="0"/>
			<psa10 value="0.00407353813315943" flag="0"/>
			<psa30 value="0.000424223206872142" flag="0"/>
		</comp>
		<comp name="--.HNZ" depth="0.0">
			<acc value="0.0338725549812041" flag="0"/>
			<vel value="0.00471173478645998" flag="0"/>
			<psa03 value="0.0151864721750836" flag="0"/>
			<psa10 value="0.00118277667346235" flag="0"/>
			<psa30 value="0.000106013897900447" flag="0"/>
		</comp>
	</station>
	<station code="BAC" name="BAC" netid="RO" source="Romanian Seismic Network (NIEP)" insttype="" lat="46.5669" lon="26.9124" esm:processing="manual (Paolucci et al 2011)" esm:quality="good">
		<comp name="--.HNE" depth="0.0">
			<acc value="0.207041582969289" flag="0"/>
			<vel value="0.0483980783186207" flag="0"/>
			<psa03 value="0.141208021005045" flag="0"/>
			<psa10 value="0.00579795861755351" flag="0"/>
			<psa30 value="0.000591913586370136" flag="0"/>
		</comp>
		<comp name="--.HNN" depth="0.0">
			<acc value="0.147194019049887" flag="0"/>
			<vel value="0.0328999838828157" flag="0"/>
			<psa03 value="0.0992328757743437" flag="0"/>
			<psa10 value="0.00922249375744978" flag="0"/>
			<psa30 value="0.00101930471143464" flag="0"/>
		</comp>
		<comp name="--.HNZ" depth="0.0">
			<acc value="0.0648881239438637" flag="0"/>
			<vel value="0.0144702062120093" flag="0"/>
			<psa03 value="0.0525950206203264" flag="0"/>
			<psa10 value="0.00222648522809434" flag="0"/>
			<psa30 value="0.000191249453191837" flag="0"/>
		</comp>
	</station>
	<station code="BIR" name="BIR" netid="RO" source="Romanian Seismic Network (NIEP)" insttype="" lat="46.2334" lon="27.6436" esm:processing="manual (Paolucci et al 2011)" esm:quality="good">
		<comp name="--.HNE" depth="0.0">
			<acc value="0.536035946791586" flag="0"/>
			<vel value="0.0984379994423913" flag="0"/>
			<psa03 value="0.504199317396962" flag="0"/>
			<psa10 value="0.0179447081238451" flag="0"/>
			<psa30 value="0.00185055863209397" flag="0"/>
		</comp>
		<comp name="--.HNN" depth="0.0">
			<acc value="0.704615175360141" flag="0"/>
			<vel value="0.160605099721697" flag="0"/>
			<psa03 value="0.280978280098753" flag="0"/>
			<psa10 value="0.0264809842352436" flag="0"/>
			<psa30 value="0.0021443239259363" flag="0"/>
		</comp>
		<comp name="--.HNZ" depth="0.0">
			<acc value="0.330339280412582" flag="0"/>
			<vel value="0.0575503956107071" flag="0"/>
			<psa03 value="0.218466597339895" flag="0"/>
			<psa10 value="0.00802762335314961" flag="0"/>
			<psa30 value="0.000816692903980101" flag="0"/>
		</comp>
	</station>
	<station code="CFR" name="CFR" netid="RO" source="Romanian Seismic Network (NIEP)" insttype="" lat="45.178" lon="28.1362" esm:processing="automatic (Paolucci et al 2011)" esm:quality="best">
		<comp name="--.HNE" depth="0.0">
			<acc value="0.0547543969665877" flag="0"/>
			<vel value="0.00892037257034079" flag="0"/>
			<psa03 value="0.0229094577433177" flag="0"/>
			<psa10 value="0.00178074054344623" flag="0"/>
			<psa30 value="0.000156925213233443" flag="0"/>
		</comp>
		<comp name="--.HNN" depth="0.0">
			<acc value="0.0704659027309919" flag="0"/>
			<vel value="0.0175911676826352" flag="0"/>
			<psa03 value="0.0650753265458648" flag="0"/>
			<psa10 value="0.00227279376455842" flag="0"/>
			<psa30 value="0.000196878432854976" flag="0"/>
		</comp>
		<comp name="--.HNZ" depth="0.0">
			<acc value="0.0457334483669402" flag="0"/>
			<vel value="0.00851355326273925" flag="0"/>
			<psa03 value="0.0182117324795446" flag="0"/>
			<psa10 value="0.00124404717764471" flag="0"/>
			<psa30 value="0.000119642248628594" flag="0"/>
		</comp>
	</station>
	<station code="DOPR" name="DOPR" netid="RO" source="Romanian Seismic Network (NIEP)" insttype="" lat="45.9675" lon="25.3886" esm:processing="automatic (Paolucci et al 2011)" esm:quality="best">
		<comp name="--.HNE" depth="0.0">
			<acc value="0.00841372917417174" flag="0"/>
			<vel value="0.00442725359089158" flag="0"/>
			<psa03 value="0.0125601041806829" flag="0"/>
			<psa10 value="0.00443864685105472" flag="0"/>
			<psa30 value="0.000270928781035454" flag="0"/>
		</comp>
		<comp name="--.HNN" depth="0.0">
			<acc value="0.00866877385680806" flag="0"/>
			<vel value="0.00331995000696104" flag="0"/>
			<psa03 value="0.0132730628690147" flag="0"/>
			<psa10 value="0.00266073610445891" flag="0"/>
			<psa30 value="0.00016090391430283" flag="0"/>
		</comp>
		<comp name="--.HNZ" depth="0.0">
			<acc value="0.00361468498832951" flag="0"/>
			<vel value="0.00178186101463884" flag="0"/>
			<psa03 value="0.00677071480267505" flag="0"/>
			<psa10 value="0.00168392166873229" flag="0"/>
			<psa30 value="9.2651079085368e-05" flag="0"/>
		</comp>
	</station>
	<station code="ISR" name="ISR" netid="RO" source="Romanian Seismic Network (NIEP)" insttype="" lat="45.1187" lon="26.5432" esm:processing="automatic (Paolucci et al 2011)" esm:quality="best">
		<comp name="--.HNE" depth="0.0">
			<acc value="0.0183292624218739" flag="0"/>
			<vel value="0.00639259141494118" flag="0"/>
			<psa03 value="0.0441930786162579" flag="0"/>
			<psa10 value="0.00506321135040703" flag="0"/>
			<psa30 value="0.000327118414781446" flag="0"/>
		</comp>
		<comp name="--.HNN" depth="0.0">
			<acc value="0.0232718346397252" flag="0"/>
			<vel value="0.0083659157655301" flag="0"/>
			<psa03 value="0.055908891189446" flag="0"/>
			<psa10 value="0.0053795091785683" flag="0"/>
			<psa30 value="0.000376756781204396" flag="0"/>
		</comp>
		<comp name="--.HNZ" depth="0.0">
			<acc value="0.0114124506236967" flag="0"/>
			<vel value="0.00536235867437795" flag="0"/>
			<psa03 value="0.0342734084659588" flag="0"/>
			<psa10 value="0.00312362739373306" flag="0"/>
			<psa30 value="0.000182170648640514" flag="0"/>
		</comp>
	</station>
	<station code="LEHL" name="LEHL" netid="RO" source="Romanian Seismic Network (NIEP)" insttype="" lat="44.4739" lon="26.8194" esm:processing="automatic (Paolucci et al 2011)" esm:quality="best">
		<comp name="--.HNE" depth="0.0">
			<acc value="0.0377243603959696" flag="0"/>
			<vel value="0.014811398088958" flag="0"/>
			<psa03 value="0.0836089449323164" flag="0"/>
			<psa10 value="0.00563587428650083" flag="0"/>
			<psa30 value="0.000465335096999322" flag="0"/>
		</comp>
		<comp name="--.HNN" depth="0.0">
			<acc value="0.0312564531030829" flag="0"/>
			<vel value="0.0118031746066753" flag="0"/>
			<psa03 value="0.0674780742580975" flag="0"/>
			<psa10 value="0.00390800076086936" flag="0"/>
			<psa30 value="0.000392094750394707" flag="0"/>
		</comp>
		<comp name="--.HNZ" depth="0.0">
			<acc value="0.0418333975221677" flag="0"/>
			<vel value="0.00629039353516087" flag="0"/>
			<psa03 value="0.0169049401818399" flag="0"/>
			<psa10 value="0.00104215255311839" flag="0"/>
			<psa30 value="0.000121221051133225" flag="0"/>
		</comp>
	</station>
	<station code="MLR" name="MLR" netid="RO" source="Romanian Seismic Network (NIEP)" insttype="" lat="45.4909" lon="25.945" esm:processing="automatic (Paolucci et al 2011)" esm:quality="best">
		<comp name="--.HNE" depth="0.0">
			<acc value="0.0107184183399375" flag="0"/>
			<vel value="0.00776226873873902" flag="0"/>
			<psa03 value="0.0309275852590829" flag="0"/>
			<psa10 value="0.00340599414602146" flag="0"/>
			<psa30 value="0.000353648896253734" flag="0"/>
		</comp>
		<comp name="--.HNN" depth="0.0">
			<acc value="0.00904987168070755" flag="0"/>
			<vel value="0.00610974091023546" flag="0"/>
			<psa03 value="0.040670472865064" flag="0"/>
			<psa10 value="0.00238637425745814" flag="0"/>
			<psa30 value="0.000296591887340385" flag="0"/>
		</comp>
		<comp name="--.HNZ" depth="0.0">
			<acc value="0.00991952826278161" flag="0"/>
			<vel value="0.00559814381354948" flag="0"/>
			<psa03 value="0.0236403759547283" flag="0"/>
			<psa10 value="0.0017879753586564" flag="0"/>
			<psa30 value="0.000222081586815049" flag="0"/>
		</comp>
	</station>
	<station code="MTUR" name="MTUR" netid="RO" source="Romanian Seismic Network (NIEP)" insttype="" lat="45.2349" lon="25.0739" esm:processing="automatic (Paolucci et al 2011)" esm:quality="best">
		<comp name="--.HNE" depth="0.0">
			<acc value="0.00428138750016283" flag="0"/>
			<vel value="0.00187212901045761" flag="0"/>
			<psa03 value="0.00986748375051124" flag="0"/>
			<psa10 value="0.00292220131586999" flag="0"/>
			<psa30 value="0.000128003831187926" flag="0"/>
		</comp>
		<comp name="--.HNN" depth="0.0">
			<acc value="0.00456451624866274" flag="0"/>
			<vel value="0.00218660833683728" flag="0"/>
			<psa03 value="0.0138974076142094" flag="0"/>
			<psa10 value="0.00146099025999583" flag="0"/>
			<psa30 value="0.000156127660399398" flag="0"/>
		</comp>
		<comp name="--.HNZ" depth="0.0">
			<acc value="0.00227719192185358" flag="0"/>
			<vel value="0.0010107476440246" flag="0"/>
			<psa03 value="0.00539137017263198" flag="0"/>
			<psa10 value="0.000894509901420777" flag="0"/>
			<psa30 value="9.68084443342278e-05" flag="0"/>
		</comp>
	</station>
	<station code="ODBI" name="ODBI" netid="RO" source="Romanian Seismic Network (NIEP)" insttype="" lat="45.7633" lon="27.0558" esm:processing="manual (Paolucci et al 2011)" esm:quality="best">
		<comp name="--.HNE" depth="0.0">
			<acc value="0.118284494548897" flag="0"/>
			<vel value="0.0409938619139739" flag="0"/>
			<psa03 value="0.214675658709002" flag="0"/>
			<psa10 value="0.0127333741485501" flag="0"/>
			<psa30 value="0.00133125871019149" flag="0"/>
		</comp>
		<comp name="--.HNN" depth="0.0">
			<acc value="0.142948902973069" flag="0"/>
			<vel value="0.044650539290251" flag="0"/>
			<psa03 value="0.217683107937741" flag="0"/>
			<psa10 value="0.0232877189470768" flag="0"/>
			<psa30 value="0.00146378071828657" flag="0"/>
		</comp>
		<comp name="--.HNZ" depth="0.0">
			<acc value="0.0811895104622265" flag="0"/>
			<vel value="0.0164867042440285" flag="0"/>
			<psa03 value="0.0835015159407928" flag="0"/>
			<psa10 value="0.00521559050727378" flag="0"/>
			<psa30 value="0.000404708815181207" flag="0"/>
		</comp>
	</station>
	<station code="PLOR" name="PLOR" netid="RO" source="Romanian Seismic Network (NIEP)" insttype="" lat="45.8512" lon="26.6498" esm:processing="manual (Paolucci et al 2011)" esm:quality="best">
		<comp name="--.HNE" depth="0.0">
			<acc value="0.0574974683324696" flag="0"/>
			<vel value="0.022041114325707" flag="0"/>
			<psa03 value="0.102817311142257" flag="0"/>
			<psa10 value="0.0115655214715524" flag="0"/>
			<psa30 value="0.000894712395304863" flag="0"/>
		</comp>
		<comp name="--.HNN" depth="0.0">
			<acc value="0.0531743155803797" flag="0"/>
			<vel value="0.0256760670282247" flag="0"/>
			<psa03 value="0.131755957352085" flag="0"/>
			<psa10 value="0.00825387865394645" flag="0"/>
			<psa30 value="0.000741752835401959" flag="0"/>
		</comp>
		<comp name="--.HNZ" depth="0.0">
			<acc value="0.0424553058877557" flag="0"/>
			<vel value="0.0103603270890523" flag="0"/>
			<psa03 value="0.061116704931838" flag="0"/>
			<psa10 value="0.00322892382223184" flag="0"/>
			<psa30 value="0.000329904276414032" flag="0"/>
		</comp>
	</station>
	<station code="PLOR4" name="PLOR4" netid="RO" source="Romanian Seismic Network (NIEP)" insttype="" lat="45.8512" lon="26.6498" esm:processing="manual (Paolucci et al 2011)" esm:quality="best">
		<comp name="--.HNE" depth="0.0">
			<acc value="0.0574974683324696" flag="0"/>
			<vel value="0.022041114325707" flag="0"/>
			<psa03 value="0.102817311142257" flag="0"/>
			<psa10 value="0.0115655214715524" flag="0"/>
			<psa30 value="0.000894712395304863" flag="0"/>
		</comp>
		<comp name="--.HNN" depth="0.0">
			<acc value="0.0531743155803797" flag="0"/>
			<vel value="0.0256760670282247" flag="0"/>
			<psa03 value="0.131755957352085" flag="0"/>
			<psa10 value="0.00825387865394645" flag="0"/>
			<psa30 value="0.000741752835401959" flag="0"/>
		</comp>
		<comp name="--.HNZ" depth="0.0">
			<acc value="0.0424553058877557" flag="0"/>
			<vel value="0.0103603270890523" flag="0"/>
			<psa03 value="0.061116704931838" flag="0"/>
			<psa10 value="0.00322892382223184" flag="0"/>
			<psa30 value="0.000329904276414032" flag="0"/>
		</comp>
	</station>
	<station code="SULR" name="SULR" netid="RO" source="Romanian Seismic Network (NIEP)" insttype="" lat="44.6777" lon="26.2526" esm:processing="automatic (Paolucci et al 2011)" esm:quality="best">
		<comp name="--.HNE" depth="0.0">
			<acc value="0.0388611884061812" flag="0"/>
			<vel value="0.0062751640322608" flag="0"/>
			<psa03 value="0.0239856852880872" flag="0"/>
			<psa10 value="0.00304594240373451" flag="0"/>
			<psa30 value="0.000284920853774772" flag="0"/>
		</comp>
		<comp name="--.HNN" depth="0.0">
			<acc value="0.0259784065328601" flag="0"/>
			<vel value="0.0073543013588921" flag="0"/>
			<psa03 value="0.0400819781509943" flag="0"/>
			<psa10 value="0.00504147537924414" flag="0"/>
			<psa30 value="0.000371844945402535" flag="0"/>
		</comp>
		<comp name="--.HNZ" depth="0.0">
			<acc value="0.0173370736568124" flag="0"/>
			<vel value="0.00304691238625088" flag="0"/>
			<psa03 value="0.0137174022001591" flag="0"/>
			<psa10 value="0.00134829517731228" flag="0"/>
			<psa30 value="0.000127938618534542" flag="0"/>
		</comp>
	</station>
</stationlist>
