<stationlist created="1775699727">
	<station code="KIS" name="KIS" netid="MD" source="Moldova Digital Seismic Network" insttype="" lat="46.9975" lon="28.8175">
		<comp name="--.HNE" depth="0.0">
			<acc value="0.249390480377961" flag="0"/>
			<vel value="0.0469813127904538" flag="0"/>
			<psa03 value="0.167416882213339" flag="0"/>
			<psa10 value="0.00518198734372588" flag="0"/>
			<psa30 value="0.000491980976740951" flag="0"/>
		</comp>
		<comp name="--.HNN" depth="0.0">
			<acc value="0.145923691340811" flag="0"/>
			<vel value="0.0277490591973083" flag="0"/>
			<psa03 value="0.0995003309917188" flag="0"/>
			<psa10 value="0.00383869734173534" flag="0"/>
			<psa30 value="0.000374577392038992" flag="0"/>
		</comp>
		<comp name="--.HNZ" depth="0.0">
			<acc value="0.129726597909485" flag="0"/>
			<vel value="0.0198399249370288" flag="0"/>
			<psa03 value="0.0426513072106102" flag="0"/>
			<psa10 value="0.00181112271236611" flag="0"/>
			<psa30 value="0.000199329832227484" flag="0"/>
		</comp>
	</station>
	<station code="AMRR" name="AMRR" netid="RO" source="Romanian Seismic Network (NIEP)" insttype="" lat="44.6102" lon="27.3351">
		<comp name="--.HNE" depth="0.0">
			<acc value="0.0245217600160498" flag="0"/>
			<vel value="0.00753726921548633" flag="0"/>
			<psa03 value="0.0395127685686785" flag="0"/>
			<psa10 value="0.0033433727320362" flag="0"/>
			<psa30 value="0.000200363494452241" flag="0"/>
		</comp>
		<comp name="--.HNN" depth="0.0">
			<acc value="0.0265692240977403" flag="0"/>
			<vel value="0.011679848470335" flag="0"/>
			<psa03 value="0.0428376476797357" flag="0"/>
			<psa10 value="0.00410260677758037" flag="0"/>
			<psa30 value="0.000444352300742373" flag="0"/>
		</comp>
		<comp name="--.HNZ" depth="0.0">
			<acc value="0.0317729225442518" flag="0"/>
			<vel value="0.004538817864685" flag="0"/>
			<psa03 value="0.0151533970673727" flag="0"/>
			<psa10 value="0.00119167027043055" flag="0"/>
			<psa30 value="0.000148094576163998" flag="0"/>
		</comp>
	</station>
	<station code="BAC" name="BAC" netid="RO" source="Romanian Seismic Network (NIEP)" insttype="" lat="46.5669" lon="26.9124">
		<comp name="--.HNE" depth="0.0">
			<acc value="0.206877603696937" flag="0"/>
			<vel value="0.0484014537946353" flag="0"/>
			<psa03 value="0.14050557863822" flag="0"/>
			<psa10 value="0.00577125731749049" flag="0"/>
			<psa30 value="0.000626440977806717" flag="0"/>
		</comp>
		<comp name="--.HNN" depth="0.0">
			<acc value="0.147160694381764" flag="0"/>
			<vel value="0.0328525970870208" flag="0"/>
			<psa03 value="0.0989207196787483" flag="0"/>
			<psa10 value="0.00923298132718434" flag="0"/>
			<psa30 value="0.00106606426736043" flag="0"/>
		</comp>
		<comp name="--.HNZ" depth="0.0">
			<acc value="0.0647884277900942" flag="0"/>
			<vel value="0.0144752784922827" flag="0"/>
			<psa03 value="0.0524885552342523" flag="0"/>
			<psa10 value="0.00225101794701538" flag="0"/>
			<psa30 value="0.000207228154931605" flag="0"/>
		</comp>
	</station>
	<station code="BIR" name="BIR" netid="RO" source="Romanian Seismic Network (NIEP)" insttype="" lat="46.2334" lon="27.6436">
		<comp name="--.HNE" depth="0.0">
			<acc value="0.536035768045263" flag="0"/>
			<vel value="0.0984376621820062" flag="0"/>
			<psa03 value="0.502764972379649" flag="0"/>
			<psa10 value="0.0179839751000725" flag="0"/>
			<psa30 value="0.00180251836632781" flag="0"/>
		</comp>
		<comp name="--.HNN" depth="0.0">
			<acc value="0.704901091347916" flag="0"/>
			<vel value="0.160623764827654" flag="0"/>
			<psa03 value="0.280240543727237" flag="0"/>
			<psa10 value="0.0264684415293564" flag="0"/>
			<psa30 value="0.00220820065745702" flag="0"/>
		</comp>
		<comp name="--.HNZ" depth="0.0">
			<acc value="0.330339351878052" flag="0"/>
			<vel value="0.057550310995034" flag="0"/>
			<psa03 value="0.217801928308939" flag="0"/>
			<psa10 value="0.0079847880155354" flag="0"/>
			<psa30 value="0.000801420642269089" flag="0"/>
		</comp>
	</station>
	<station code="BSTR" name="BSTR" netid="RO" source="Romanian Seismic Network (NIEP)" insttype="" lat="44.4458" lon="26.0984">
		<comp name="--.HNE" depth="0.0">
			<acc value="0.0106916496580949" flag="0"/>
			<vel value="0.00437171540244913" flag="0"/>
			<psa03 value="0.0158024387610992" flag="0"/>
			<psa10 value="0.00190842607229939" flag="0"/>
			<psa30 value="0.000663403790996834" flag="0"/>
		</comp>
		<comp name="--.HNN" depth="0.0">
			<acc value="0.0101959432027868" flag="0"/>
			<vel value="0.00270584372554417" flag="0"/>
			<psa03 value="0.0197704659463219" flag="0"/>
			<psa10 value="0.00203623418739564" flag="0"/>
			<psa30 value="0.000705125096494299" flag="0"/>
		</comp>
		<comp name="--.HNZ" depth="0.0">
			<acc value="0.02033905611713" flag="0"/>
			<vel value="0.00408716936000575" flag="0"/>
			<psa03 value="0.0145830949647103" flag="0"/>
			<psa10 value="0.00105349799219863" flag="0"/>
			<psa30 value="0.000553883723329006" flag="0"/>
		</comp>
	</station>
	<station code="BTMR" name="BTMR" netid="RO" source="Romanian Seismic Network (NIEP)" insttype="" lat="44.437" lon="26.1067">
		<comp name="--.HNE" depth="0.0">
			<acc value="0.010321236260849" flag="0"/>
			<vel value="0.00524720513943017" flag="0"/>
			<psa03 value="0.0209313410257104" flag="0"/>
			<psa10 value="0.00207667358505968" flag="0"/>
			<psa30 value="0.000930669464785685" flag="0"/>
		</comp>
		<comp name="--.HNN" depth="0.0">
			<acc value="0.00884339382033051" flag="0"/>
			<vel value="0.00284928548075149" flag="0"/>
			<psa03 value="0.014885161850172" flag="0"/>
			<psa10 value="0.00178010007133239" flag="0"/>
			<psa30 value="0.0005237213085475" flag="0"/>
		</comp>
		<comp name="--.HNZ" depth="0.0">
			<acc value="0.0121854921206093" flag="0"/>
			<vel value="0.00268492907623865" flag="0"/>
			<psa03 value="0.0112110408535313" flag="0"/>
			<psa10 value="0.00104719312140653" flag="0"/>
			<psa30 value="0.000654911613846358" flag="0"/>
		</comp>
	</station>
	<station code="BUC" name="BUC" netid="RO" source="Romanian Seismic Network (NIEP)" insttype="" lat="44.4107" lon="26.0938">
		<comp name="--.HNE" depth="0.0">
			<acc value="0.0036011815044497" flag="0"/>
			<vel value="0.000314867386449236" flag="0"/>
			<psa03 value="0.0263022423944656" flag="0"/>
			<psa10 value="0.00393071320295913" flag="0"/>
			<psa30 value="0.000310687352345676" flag="0"/>
		</comp>
		<comp name="--.HNN" depth="0.0">
			<acc value="0.00305081070932967" flag="0"/>
			<vel value="0.0002751873421149" flag="0"/>
			<psa03 value="0.0665520493718716" flag="0"/>
			<psa10 value="0.00233360826196926" flag="0"/>
			<psa30 value="0.000248064037191569" flag="0"/>
		</comp>
		<comp name="--.HNZ" depth="0.0">
			<acc value="0.00466538865920673" flag="0"/>
			<vel value="0.000443337090157741" flag="0"/>
			<psa03 value="0.0127328421862098" flag="0"/>
			<psa10 value="0.000740610721981066" flag="0"/>
			<psa30 value="0.000645411036565717" flag="0"/>
		</comp>
	</station>
	<station code="BUC1" name="BUC1" netid="RO" source="Romanian Seismic Network (NIEP)" insttype="" lat="44.3479" lon="26.0281">
		<comp name="--.HNE" depth="0.0">
			<acc value="0.00816420649203396" flag="0"/>
			<vel value="0.00215078311578467" flag="0"/>
			<psa03 value="0.0157716984434358" flag="0"/>
			<psa10 value="0.00244359976711578" flag="0"/>
			<psa30 value="0.000570244338388652" flag="0"/>
		</comp>
		<comp name="--.HNN" depth="0.0">
			<acc value="0.012459634555513" flag="0"/>
			<vel value="0.00474449570144774" flag="0"/>
			<psa03 value="0.0258671588848123" flag="0"/>
			<psa10 value="0.00165043640362587" flag="0"/>
			<psa30 value="0.000388259756761934" flag="0"/>
		</comp>
		<comp name="--.HNZ" depth="0.0">
			<acc value="0.024698513474962" flag="0"/>
			<vel value="0.00302534847052675" flag="0"/>
			<psa03 value="0.0106710708383573" flag="0"/>
			<psa10 value="0.00134659877587095" flag="0"/>
			<psa30 value="0.000503053637334024" flag="0"/>
		</comp>
	</station>
	<station code="CFR" name="CFR" netid="RO" source="Romanian Seismic Network (NIEP)" insttype="" lat="45.178" lon="28.1362">
		<comp name="--.HNE" depth="0.0">
			<acc value="0.0547543969665877" flag="0"/>
			<vel value="0.00892037257034079" flag="0"/>
			<psa03 value="0.0229094577433177" flag="0"/>
			<psa10 value="0.00178074054344623" flag="0"/>
			<psa30 value="0.000156925213233443" flag="0"/>
		</comp>
		<comp name="--.HNN" depth="0.0">
			<acc value="0.0704659027309919" flag="0"/>
			<vel value="0.0175911676826352" flag="0"/>
			<psa03 value="0.0650753265458648" flag="0"/>
			<psa10 value="0.00227279376455842" flag="0"/>
			<psa30 value="0.000196878432854976" flag="0"/>
		</comp>
		<comp name="--.HNZ" depth="0.0">
			<acc value="0.0457334483669402" flag="0"/>
			<vel value="0.00851355326273925" flag="0"/>
			<psa03 value="0.0182117324795446" flag="0"/>
			<psa10 value="0.00124404717764471" flag="0"/>
			<psa30 value="0.000119642248628594" flag="0"/>
		</comp>
	</station>
	<station code="CHLR" name="CHLR" netid="RO" source="Romanian Seismic Network (NIEP)" insttype="" lat="45.4245" lon="29.289">
		<comp name="--.HNE" depth="0.0">
			<acc value="0.0490202051595774" flag="0"/>
			<vel value="0.0109527881863187" flag="0"/>
			<psa03 value="0.0555064426542485" flag="0"/>
			<psa10 value="0.00292102819128072" flag="0"/>
			<psa30 value="0.000285018881102078" flag="0"/>
		</comp>
		<comp name="--.HNN" depth="0.0">
			<acc value="0.0506713264410865" flag="0"/>
			<vel value="0.0132400941626234" flag="0"/>
			<psa03 value="0.0466680290277769" flag="0"/>
			<psa10 value="0.0036578514553332" flag="0"/>
			<psa30 value="0.000405302917037647" flag="0"/>
		</comp>
		<comp name="--.HNZ" depth="0.0">
			<acc value="0.0595665642698497" flag="0"/>
			<vel value="0.00813991441608466" flag="0"/>
			<psa03 value="0.0242871557798897" flag="0"/>
			<psa10 value="0.00189794037767207" flag="0"/>
			<psa30 value="0.000108521075707398" flag="0"/>
		</comp>
	</station>
	<station code="CIOR" name="CIOR" netid="RO" source="Romanian Seismic Network (NIEP)" insttype="" lat="44.4489" lon="25.8799">
		<comp name="--.HNE" depth="0.0">
			<acc value="0.0166882376894619" flag="0"/>
			<vel value="0.00620216744219358" flag="0"/>
			<psa03 value="0.0231776890539868" flag="0"/>
			<psa10 value="0.00278206648575295" flag="0"/>
			<psa30 value="0.000220610291432572" flag="0"/>
		</comp>
		<comp name="--.HNN" depth="0.0">
			<acc value="0.0247211541803986" flag="0"/>
			<vel value="0.0056198671647802" flag="0"/>
			<psa03 value="0.0230542720240489" flag="0"/>
			<psa10 value="0.00133258726174309" flag="0"/>
			<psa30 value="0.000162053886316481" flag="0"/>
		</comp>
		<comp name="--.HNZ" depth="0.0">
			<acc value="0.0179663277685425" flag="0"/>
			<vel value="0.00200606044761376" flag="0"/>
			<psa03 value="0.00744455761852629" flag="0"/>
			<psa10 value="0.000528412055485189" flag="0"/>
			<psa30 value="8.5459964688613e-05" flag="0"/>
		</comp>
	</station>
	<station code="CLISU" name="CLISU" netid="RO" source="Romanian Seismic Network (NIEP)" insttype="" lat="44.1901" lon="27.3557">
		<comp name="--.HNE" depth="0.0">
			<acc value="0.0186929617146526" flag="0"/>
			<vel value="0.00732618178367328" flag="0"/>
			<psa03 value="0.0554270780221193" flag="0"/>
			<psa10 value="0.0027328789304425" flag="0"/>
			<psa30 value="0.000184047947481759" flag="0"/>
		</comp>
		<comp name="--.HNN" depth="0.0">
			<acc value="0.0187814193719131" flag="0"/>
			<vel value="0.00669742589694861" flag="0"/>
			<psa03 value="0.0539956238202947" flag="0"/>
			<psa10 value="0.00313376197135079" flag="0"/>
			<psa30 value="0.000197080685836731" flag="0"/>
		</comp>
		<comp name="--.HNZ" depth="0.0">
			<acc value="0.0145139112237634" flag="0"/>
			<vel value="0.00408064386685931" flag="0"/>
			<psa03 value="0.0202034178043675" flag="0"/>
			<psa10 value="0.000933700114769338" flag="0"/>
			<psa30 value="0.000147407681702096" flag="0"/>
		</comp>
	</station>
	<station code="CVD1" name="CVD1" netid="RO" source="Romanian Seismic Network (NIEP)" insttype="" lat="44.3207" lon="28.0624">
		<comp name="--.HNE" depth="0.0">
			<acc value="0.0435314982835742" flag="0"/>
			<vel value="0.00459300640680337" flag="0"/>
			<psa03 value="0.0147308300118574" flag="0"/>
			<psa10 value="0.0012491105990095" flag="0"/>
			<psa30 value="9.2598380282215e-05" flag="0"/>
		</comp>
		<comp name="--.HNN" depth="0.0">
			<acc value="0.0265653549298233" flag="0"/>
			<vel value="0.00406214892861226" flag="0"/>
			<psa03 value="0.0193547613245979" flag="0"/>
			<psa10 value="0.000831387653478309" flag="0"/>
			<psa30 value="0.000107936961491774" flag="0"/>
		</comp>
		<comp name="--.HNZ" depth="0.0">
			<acc value="0.0136138161564223" flag="0"/>
			<vel value="0.00182499027167144" flag="0"/>
			<psa03 value="0.0142033471520586" flag="0"/>
			<psa10 value="0.000711044290693974" flag="0"/>
			<psa30 value="8.57893029119056e-05" flag="0"/>
		</comp>
	</station>
	<station code="CVDA" name="CVDA" netid="RO" source="Romanian Seismic Network (NIEP)" insttype="" lat="44.3336" lon="28.0374">
		<comp name="--.HNE" depth="0.0">
			<acc value="0.0110860398747615" flag="0"/>
			<vel value="0.00342751958218072" flag="0"/>
			<psa03 value="0.032763449063531" flag="0"/>
			<psa10 value="0.00242297269755014" flag="0"/>
			<psa30 value="0.000168344003526577" flag="0"/>
		</comp>
		<comp name="--.HNN" depth="0.0">
			<acc value="0.00926853334955618" flag="0"/>
			<vel value="0.00395936231826237" flag="0"/>
			<psa03 value="0.053039044826579" flag="0"/>
			<psa10 value="0.00363178629114489" flag="0"/>
			<psa30 value="0.00034761849676929" flag="0"/>
		</comp>
		<comp name="--.HNZ" depth="0.0">
			<acc value="0.0139910808937189" flag="0"/>
			<vel value="0.00486783347305115" flag="0"/>
			<psa03 value="0.056091793931036" flag="0"/>
			<psa10 value="0.00198408065435452" flag="0"/>
			<psa30 value="0.000175708983607631" flag="0"/>
		</comp>
	</station>
	<station code="DOPR" name="DOPR" netid="RO" source="Romanian Seismic Network (NIEP)" insttype="" lat="45.9675" lon="25.3886">
		<comp name="--.HNE" depth="0.0">
			<acc value="0.00841372917417174" flag="0"/>
			<vel value="0.00442725359089158" flag="0"/>
			<psa03 value="0.0125601041806829" flag="0"/>
			<psa10 value="0.00443864685105472" flag="0"/>
			<psa30 value="0.000270928781035454" flag="0"/>
		</comp>
		<comp name="--.HNN" depth="0.0">
			<acc value="0.00866877385680806" flag="0"/>
			<vel value="0.00331995000696104" flag="0"/>
			<psa03 value="0.0132730628690147" flag="0"/>
			<psa10 value="0.00266073610445891" flag="0"/>
			<psa30 value="0.00016090391430283" flag="0"/>
		</comp>
		<comp name="--.HNZ" depth="0.0">
			<acc value="0.00361468498832951" flag="0"/>
			<vel value="0.00178186101463884" flag="0"/>
			<psa03 value="0.00677071480267505" flag="0"/>
			<psa10 value="0.00168392166873229" flag="0"/>
			<psa30 value="9.2651079085368e-05" flag="0"/>
		</comp>
	</station>
	<station code="GIRR" name="GIRR" netid="RO" source="Romanian Seismic Network (NIEP)" insttype="" lat="46.9551" lon="26.5009">
		<comp name="--.HNE" depth="0.0">
			<acc value="0.262634015656626" flag="0"/>
			<vel value="0.0399506972701592" flag="0"/>
			<psa03 value="0.095144073661438" flag="0"/>
			<psa10 value="0.00311313349544184" flag="0"/>
			<psa30 value="0.00032379962721936" flag="0"/>
		</comp>
		<comp name="--.HNN" depth="0.0">
			<acc value="0.260299952793562" flag="0"/>
			<vel value="0.0443767178704216" flag="0"/>
			<psa03 value="0.0812907496967528" flag="0"/>
			<psa10 value="0.00598967506783301" flag="0"/>
			<psa30 value="0.000700598182022996" flag="0"/>
		</comp>
		<comp name="--.HNZ" depth="0.0">
			<acc value="0.0942170483418853" flag="0"/>
			<vel value="0.0144438754265407" flag="0"/>
			<psa03 value="0.0215599673045114" flag="0"/>
			<psa10 value="0.00180873462448039" flag="0"/>
			<psa30 value="0.000784460247889574" flag="0"/>
		</comp>
	</station>
	<station code="GIUM" name="GIUM" netid="RO" source="Romanian Seismic Network (NIEP)" insttype="" lat="45.485" lon="28.2081">
		<comp name="--.HNE" depth="0.0">
			<acc value="0.100780939052415" flag="0"/>
			<vel value="0.0230520657800279" flag="0"/>
			<psa03 value="0.0788797983161513" flag="0"/>
			<psa10 value="0.0084942433269472" flag="0"/>
			<psa30 value="0.00093654099958016" flag="0"/>
		</comp>
		<comp name="--.HNN" depth="0.0">
			<acc value="0.0826811097772535" flag="0"/>
			<vel value="0.0216423393277275" flag="0"/>
			<psa03 value="0.0853097034323647" flag="0"/>
			<psa10 value="0.00674020338041368" flag="0"/>
			<psa30 value="0.00106219276089246" flag="0"/>
		</comp>
		<comp name="--.HNZ" depth="0.0">
			<acc value="0.100090082878538" flag="0"/>
			<vel value="0.0171037103879356" flag="0"/>
			<psa03 value="0.0747388625411306" flag="0"/>
			<psa10 value="0.00406942692330204" flag="0"/>
			<psa30 value="0.00084067553437839" flag="0"/>
		</comp>
	</station>
	<station code="HARR" name="HARR" netid="RO" source="Romanian Seismic Network (NIEP)" insttype="" lat="44.6893" lon="27.9303">
		<comp name="--.HNE" depth="0.0">
			<acc value="0.0340962138682139" flag="0"/>
			<vel value="0.00692005706066391" flag="0"/>
			<psa03 value="0.0676180574894495" flag="0"/>
			<psa10 value="0.00306485209390926" flag="0"/>
			<psa30 value="0.000178937517794994" flag="0"/>
		</comp>
		<comp name="--.HNN" depth="0.0">
			<acc value="0.0421130147226636" flag="0"/>
			<vel value="0.014086089746961" flag="0"/>
			<psa03 value="0.0510777534421685" flag="0"/>
			<psa10 value="0.00508163022681759" flag="0"/>
			<psa30 value="0.000355280905407934" flag="0"/>
		</comp>
		<comp name="--.HNZ" depth="0.0">
			<acc value="0.0279626587315096" flag="0"/>
			<vel value="0.00734622935797926" flag="0"/>
			<psa03 value="0.0368990928213138" flag="0"/>
			<psa10 value="0.00169627779976648" flag="0"/>
			<psa30 value="0.000244729597551484" flag="0"/>
		</comp>
	</station>
	<station code="HUMR" name="HUMR" netid="RO" source="Romanian Seismic Network (NIEP)" insttype="" lat="44.5281" lon="24.9804">
		<comp name="--.HNE" depth="0.0">
			<acc value="0.0185673674696396" flag="0"/>
			<vel value="0.00358659282104315" flag="0"/>
			<psa03 value="0.0128713331314156" flag="0"/>
			<psa10 value="0.00149602297136558" flag="0"/>
			<psa30 value="0.000102684530210659" flag="0"/>
		</comp>
		<comp name="--.HNN" depth="0.0">
			<acc value="0.0160681102635056" flag="0"/>
			<vel value="0.00301021489625277" flag="0"/>
			<psa03 value="0.0134358314641608" flag="0"/>
			<psa10 value="0.00119644832132909" flag="0"/>
			<psa30 value="0.000137340699709907" flag="0"/>
		</comp>
		<comp name="--.HNZ" depth="0.0">
			<acc value="0.0190661281835677" flag="0"/>
			<vel value="0.00229003059813594" flag="0"/>
			<psa03 value="0.00528598786605769" flag="0"/>
			<psa10 value="0.000376611960412779" flag="0"/>
			<psa30 value="8.13601944009208e-05" flag="0"/>
		</comp>
	</station>
	<station code="IASR" name="IASR" netid="RO" source="Romanian Seismic Network (NIEP)" insttype="" lat="47.1777" lon="27.5748">
		<comp name="--.HNE" depth="0.0">
			<acc value="0.177007122600684" flag="0"/>
			<vel value="0.0236210691660894" flag="0"/>
			<psa03 value="0.116563940539054" flag="0"/>
			<psa10 value="0.00584350725992071" flag="0"/>
			<psa30 value="0.000571174972957492" flag="0"/>
		</comp>
		<comp name="--.HNN" depth="0.0">
			<acc value="0.12200688127911" flag="0"/>
			<vel value="0.0180651895598475" flag="0"/>
			<psa03 value="0.129876155741421" flag="0"/>
			<psa10 value="0.00464744896445404" flag="0"/>
			<psa30 value="0.00034822543801802" flag="0"/>
		</comp>
		<comp name="--.HNZ" depth="0.0">
			<acc value="0.147662897211985" flag="0"/>
			<vel value="0.0286059546638529" flag="0"/>
			<psa03 value="0.0713411322498169" flag="0"/>
			<psa10 value="0.00287769500817016" flag="0"/>
			<psa30 value="0.000298339451024293" flag="0"/>
		</comp>
	</station>
	<station code="ICOR" name="ICOR" netid="RO" source="Romanian Seismic Network (NIEP)" insttype="" lat="44.1168" lon="27.8009">
		<comp name="--.HNE" depth="0.0">
