<stationlist created="1769738409">
	<station code="KIS" name="KIS" netid="MD" source="Moldova Digital Seismic Network" insttype="" lat="46.9975" lon="28.8175">
		<comp name="--.HNE" depth="0.0">
			<acc value="0.2420508479223" flag="0"/>
			<vel value="0.0460568043883" flag="0"/>
			<psa03 value="0.167416882213339" flag="0"/>
			<psa10 value="0.00518198734372588" flag="0"/>
			<psa30 value="0.000491980976740951" flag="0"/>
		</comp>
		<comp name="--.HNN" depth="0.0">
			<acc value="0.14473092931104" flag="0"/>
			<vel value="0.0273290167412" flag="0"/>
			<psa03 value="0.0995003309917188" flag="0"/>
			<psa10 value="0.00383869734173534" flag="0"/>
			<psa30 value="0.000374577392038992" flag="0"/>
		</comp>
		<comp name="--.HNZ" depth="0.0">
			<acc value="0.12591159317004" flag="0"/>
			<vel value="0.0194648942182" flag="0"/>
			<psa03 value="0.0426513072106102" flag="0"/>
			<psa10 value="0.00181112271236611" flag="0"/>
			<psa30 value="0.000199329832227484" flag="0"/>
		</comp>
	</station>
	<station code="AMRR" name="AMRR" netid="RO" source="Romanian Seismic Network (NIEP)" insttype="" lat="44.6102" lon="27.3351">
		<comp name="--.HNE" depth="0.0">
			<acc value="0.024410416505556" flag="0"/>
			<vel value="0.00757820636236" flag="0"/>
			<psa03 value="0.0395127685686785" flag="0"/>
			<psa10 value="0.0033433727320362" flag="0"/>
			<psa30 value="0.000200363494452241" flag="0"/>
		</comp>
		<comp name="--.HNN" depth="0.0">
			<acc value="0.026588417713188" flag="0"/>
			<vel value="0.011743105379" flag="0"/>
			<psa03 value="0.0428376476797357" flag="0"/>
			<psa10 value="0.00410260677758037" flag="0"/>
			<psa30 value="0.000444352300742373" flag="0"/>
		</comp>
		<comp name="--.HNZ" depth="0.0">
			<acc value="0.033377192174316" flag="0"/>
			<vel value="0.00461568641918" flag="0"/>
			<psa03 value="0.0151533970673727" flag="0"/>
			<psa10 value="0.00119167027043055" flag="0"/>
			<psa30 value="0.000148094576163998" flag="0"/>
		</comp>
	</station>
	<station code="BAC" name="BAC" netid="RO" source="Romanian Seismic Network (NIEP)" insttype="" lat="46.5669" lon="26.9124">
		<comp name="--.HNE" depth="0.0">
			<acc value="0.2069686603464" flag="0"/>
			<vel value="0.0479885326293" flag="0"/>
			<psa03 value="0.14050557863822" flag="0"/>
			<psa10 value="0.00577125731749049" flag="0"/>
			<psa30 value="0.000626440977806717" flag="0"/>
		</comp>
		<comp name="--.HNN" depth="0.0">
			<acc value="0.14645012498718" flag="0"/>
			<vel value="0.0325889387031" flag="0"/>
			<psa03 value="0.0989207196787483" flag="0"/>
			<psa10 value="0.00923298132718434" flag="0"/>
			<psa30 value="0.00106606426736043" flag="0"/>
		</comp>
		<comp name="--.HNZ" depth="0.0">
			<acc value="0.066407073891162" flag="0"/>
			<vel value="0.0143827302618" flag="0"/>
			<psa03 value="0.0524885552342523" flag="0"/>
			<psa10 value="0.00225101794701538" flag="0"/>
			<psa30 value="0.000207228154931605" flag="0"/>
		</comp>
	</station>
	<station code="BIR" name="BIR" netid="RO" source="Romanian Seismic Network (NIEP)" insttype="" lat="46.2334" lon="27.6436">
		<comp name="--.HNE" depth="0.0">
			<acc value="0.5362643300895" flag="0"/>
			<vel value="0.0974791214381" flag="0"/>
			<psa03 value="0.502764972379649" flag="0"/>
			<psa10 value="0.0179839751000725" flag="0"/>
			<psa30 value="0.00180251836632781" flag="0"/>
		</comp>
		<comp name="--.HNN" depth="0.0">
			<acc value="0.70590819984282" flag="0"/>
			<vel value="0.159524864892" flag="0"/>
			<psa03 value="0.280240543727237" flag="0"/>
			<psa10 value="0.0264684415293564" flag="0"/>
			<psa30 value="0.00220820065745702" flag="0"/>
		</comp>
		<comp name="--.HNZ" depth="0.0">
			<acc value="0.3368087539752" flag="0"/>
			<vel value="0.0565500102132" flag="0"/>
			<psa03 value="0.217801928308939" flag="0"/>
			<psa10 value="0.0079847880155354" flag="0"/>
			<psa30 value="0.000801420642269089" flag="0"/>
		</comp>
	</station>
	<station code="BSTR" name="BSTR" netid="RO" source="Romanian Seismic Network (NIEP)" insttype="" lat="44.4458" lon="26.0984">
		<comp name="--.HNE" depth="0.0">
			<acc value="0.010656497031894" flag="0"/>
			<vel value="0.0044761600979" flag="0"/>
			<psa03 value="0.0158024387610992" flag="0"/>
			<psa10 value="0.00190842607229939" flag="0"/>
			<psa30 value="0.000663403790996834" flag="0"/>
		</comp>
		<comp name="--.HNN" depth="0.0">
			<acc value="0.0090214790822712" flag="0"/>
			<vel value="0.00271851035345" flag="0"/>
			<psa03 value="0.0197704659463219" flag="0"/>
			<psa10 value="0.00203623418739564" flag="0"/>
			<psa30 value="0.000705125096494299" flag="0"/>
		</comp>
		<comp name="--.HNZ" depth="0.0">
			<acc value="0.019705448091732" flag="0"/>
			<vel value="0.00398608191603" flag="0"/>
			<psa03 value="0.0145830949647103" flag="0"/>
			<psa10 value="0.00105349799219863" flag="0"/>
			<psa30 value="0.000553883723329006" flag="0"/>
		</comp>
	</station>
	<station code="BTMR" name="BTMR" netid="RO" source="Romanian Seismic Network (NIEP)" insttype="" lat="44.437" lon="26.1067">
		<comp name="--.HNE" depth="0.0">
			<acc value="0.010243011400596" flag="0"/>
			<vel value="0.00523790647527" flag="0"/>
			<psa03 value="0.0209313410257104" flag="0"/>
			<psa10 value="0.00207667358505968" flag="0"/>
			<psa30 value="0.000930669464785685" flag="0"/>
		</comp>
		<comp name="--.HNN" depth="0.0">
			<acc value="0.0084597622621752" flag="0"/>
			<vel value="0.00284557675701" flag="0"/>
			<psa03 value="0.014885161850172" flag="0"/>
			<psa10 value="0.00178010007133239" flag="0"/>
			<psa30 value="0.0005237213085475" flag="0"/>
		</comp>
		<comp name="--.HNZ" depth="0.0">
			<acc value="0.01156206201585" flag="0"/>
			<vel value="0.00268772017225" flag="0"/>
			<psa03 value="0.0112110408535313" flag="0"/>
			<psa10 value="0.00104719312140653" flag="0"/>
			<psa30 value="0.000654911613846358" flag="0"/>
		</comp>
	</station>
	<station code="BUC" name="BUC" netid="RO" source="Romanian Seismic Network (NIEP)" insttype="" lat="44.4107" lon="26.0938">
		<comp name="--.HNE" depth="0.0">
			<acc value="0.019871447560782" flag="0"/>
			<vel value="0.00789421261422" flag="0"/>
			<psa03 value="0.0263022423944656" flag="0"/>
			<psa10 value="0.00393071320295913" flag="0"/>
			<psa30 value="0.000310687352345676" flag="0"/>
		</comp>
		<comp name="--.HNN" depth="0.0">
			<acc value="0.018896296487196" flag="0"/>
			<vel value="0.00968034332994" flag="0"/>
			<psa03 value="0.0665520493718716" flag="0"/>
			<psa10 value="0.00233360826196926" flag="0"/>
			<psa30 value="0.000248064037191569" flag="0"/>
		</comp>
		<comp name="--.HNZ" depth="0.0">
			<acc value="0.01328356323114" flag="0"/>
			<vel value="0.00320327451538" flag="0"/>
			<psa03 value="0.0127328421862098" flag="0"/>
			<psa10 value="0.000740610721981066" flag="0"/>
			<psa30 value="0.000645411036565717" flag="0"/>
		</comp>
	</station>
	<station code="BUC1" name="BUC1" netid="RO" source="Romanian Seismic Network (NIEP)" insttype="" lat="44.3479" lon="26.0281">
		<comp name="--.HNE" depth="0.0">
			<acc value="0.0089540519183784" flag="0"/>
			<vel value="0.00260934628232" flag="0"/>
			<psa03 value="0.0157716984434358" flag="0"/>
			<psa10 value="0.00244359976711578" flag="0"/>
			<psa30 value="0.000570244338388652" flag="0"/>
		</comp>
		<comp name="--.HNN" depth="0.0">
			<acc value="0.01377297992694" flag="0"/>
			<vel value="0.00603856461003" flag="0"/>
			<psa03 value="0.0258671588848123" flag="0"/>
			<psa10 value="0.00165043640362587" flag="0"/>
			<psa30 value="0.000388259756761934" flag="0"/>
		</comp>
		<comp name="--.HNZ" depth="0.0">
			<acc value="0.025279670060712" flag="0"/>
			<vel value="0.0030223239051" flag="0"/>
			<psa03 value="0.0106710708383573" flag="0"/>
			<psa10 value="0.00134659877587095" flag="0"/>
			<psa30 value="0.000503053637334024" flag="0"/>
		</comp>
	</station>
	<station code="CFR" name="CFR" netid="RO" source="Romanian Seismic Network (NIEP)" insttype="" lat="45.178" lon="28.1362">
		<comp name="--.HNE" depth="0.0">
			<acc value="0.057380381451456" flag="0"/>
			<vel value="0.00909150403472" flag="0"/>
			<psa03 value="0.0229094577433177" flag="0"/>
			<psa10 value="0.00178074054344623" flag="0"/>
			<psa30 value="0.000156925213233443" flag="0"/>
		</comp>
		<comp name="--.HNN" depth="0.0">
			<acc value="0.074225105364942" flag="0"/>
			<vel value="0.0175543920322" flag="0"/>
			<psa03 value="0.0650753265458648" flag="0"/>
			<psa10 value="0.00227279376455842" flag="0"/>
			<psa30 value="0.000196878432854976" flag="0"/>
		</comp>
		<comp name="--.HNZ" depth="0.0">
			<acc value="0.047714554801002" flag="0"/>
			<vel value="0.00838321165575" flag="0"/>
			<psa03 value="0.0182117324795446" flag="0"/>
			<psa10 value="0.00124404717764471" flag="0"/>
			<psa30 value="0.000119642248628594" flag="0"/>
		</comp>
	</station>
	<station code="CHLR" name="CHLR" netid="RO" source="Romanian Seismic Network (NIEP)" insttype="" lat="45.4245" lon="29.289">
		<comp name="--.HNE" depth="0.0">
			<acc value="0.04887736733721" flag="0"/>
			<vel value="0.0108642717612" flag="0"/>
			<psa03 value="0.0555064426542485" flag="0"/>
			<psa10 value="0.00292102819128072" flag="0"/>
			<psa30 value="0.000285018881102078" flag="0"/>
		</comp>
		<comp name="--.HNN" depth="0.0">
			<acc value="0.050448795492888" flag="0"/>
			<vel value="0.0131214563518" flag="0"/>
			<psa03 value="0.0466680290277769" flag="0"/>
			<psa10 value="0.0036578514553332" flag="0"/>
			<psa30 value="0.000405302917037647" flag="0"/>
		</comp>
		<comp name="--.HNZ" depth="0.0">
			<acc value="0.059444444543694" flag="0"/>
			<vel value="0.0083740999906" flag="0"/>
			<psa03 value="0.0242871557798897" flag="0"/>
			<psa10 value="0.00189794037767207" flag="0"/>
			<psa30 value="0.000108521075707398" flag="0"/>
		</comp>
	</station>
	<station code="CIOR" name="CIOR" netid="RO" source="Romanian Seismic Network (NIEP)" insttype="" lat="44.4489" lon="25.8799">
		<comp name="--.HNE" depth="0.0">
			<acc value="0.016807531879008" flag="0"/>
			<vel value="0.00618226609131" flag="0"/>
			<psa03 value="0.0231776890539868" flag="0"/>
			<psa10 value="0.00278206648575295" flag="0"/>
			<psa30 value="0.000220610291432572" flag="0"/>
		</comp>
		<comp name="--.HNN" depth="0.0">
			<acc value="0.024295471707996" flag="0"/>
			<vel value="0.0055614859424" flag="0"/>
			<psa03 value="0.0230542720240489" flag="0"/>
			<psa10 value="0.00133258726174309" flag="0"/>
			<psa30 value="0.000162053886316481" flag="0"/>
		</comp>
		<comp name="--.HNZ" depth="0.0">
			<acc value="0.016932879691146" flag="0"/>
			<vel value="0.00196464369381" flag="0"/>
			<psa03 value="0.00744455761852629" flag="0"/>
			<psa10 value="0.000528412055485189" flag="0"/>
			<psa30 value="8.5459964688613e-05" flag="0"/>
		</comp>
	</station>
	<station code="CLISU" name="CLISU" netid="RO" source="Romanian Seismic Network (NIEP)" insttype="" lat="44.1901" lon="27.3557">
		<comp name="--.HNE" depth="0.0">
			<acc value="0.0254271254625" flag="0"/>
			<vel value="0.0077206889484" flag="0"/>
			<psa03 value="0.0554270780221193" flag="0"/>
			<psa10 value="0.0027328789304425" flag="0"/>
			<psa30 value="0.000184047947481759" flag="0"/>
		</comp>
		<comp name="--.HNN" depth="0.0">
			<acc value="0.022409665250592" flag="0"/>
			<vel value="0.00693314100129" flag="0"/>
			<psa03 value="0.0539956238202947" flag="0"/>
			<psa10 value="0.00313376197135079" flag="0"/>
			<psa30 value="0.000197080685836731" flag="0"/>
		</comp>
		<comp name="--.HNZ" depth="0.0">
			<acc value="0.0312112047519" flag="0"/>
			<vel value="0.00565043988073" flag="0"/>
			<psa03 value="0.0202034178043675" flag="0"/>
			<psa10 value="0.000933700114769338" flag="0"/>
			<psa30 value="0.000147407681702096" flag="0"/>
		</comp>
	</station>
	<station code="CVD1" name="CVD1" netid="RO" source="Romanian Seismic Network (NIEP)" insttype="" lat="44.3207" lon="28.0624">
		<comp name="--.HNE" depth="0.0">
			<acc value="0.050606795575422" flag="0"/>
			<vel value="0.00505808068398" flag="0"/>
			<psa03 value="0.0147308300118574" flag="0"/>
			<psa10 value="0.0012491105990095" flag="0"/>
			<psa30 value="9.2598380282215e-05" flag="0"/>
		</comp>
		<comp name="--.HNN" depth="0.0">
			<acc value="0.0249008210124" flag="0"/>
			<vel value="0.00396005794008" flag="0"/>
			<psa03 value="0.0193547613245979" flag="0"/>
			<psa10 value="0.000831387653478309" flag="0"/>
			<psa30 value="0.000107936961491774" flag="0"/>
		</comp>
		<comp name="--.HNZ" depth="0.0">
			<acc value="0.017216470083576" flag="0"/>
			<vel value="0.00353307607436" flag="0"/>
			<psa03 value="0.0142033471520586" flag="0"/>
			<psa10 value="0.000711044290693974" flag="0"/>
			<psa30 value="8.57893029119056e-05" flag="0"/>
		</comp>
	</station>
	<station code="CVDA" name="CVDA" netid="RO" source="Romanian Seismic Network (NIEP)" insttype="" lat="44.3336" lon="28.0374">
		<comp name="--.HNE" depth="0.0">
			<acc value="0.023594921261022" flag="0"/>
			<vel value="0.00573781172666" flag="0"/>
			<psa03 value="0.032763449063531" flag="0"/>
			<psa10 value="0.00242297269755014" flag="0"/>
			<psa30 value="0.000168344003526577" flag="0"/>
		</comp>
		<comp name="--.HNN" depth="0.0">
			<acc value="0.021753973879236" flag="0"/>
			<vel value="0.0109114724348" flag="0"/>
			<psa03 value="0.053039044826579" flag="0"/>
			<psa10 value="0.00363178629114489" flag="0"/>
			<psa30 value="0.00034761849676929" flag="0"/>
		</comp>
		<comp name="--.HNZ" depth="0.0">
			<acc value="0.036567669975372" flag="0"/>
			<vel value="0.00970683991132" flag="0"/>
			<psa03 value="0.056091793931036" flag="0"/>
			<psa10 value="0.00198408065435452" flag="0"/>
			<psa30 value="0.000175708983607631" flag="0"/>
		</comp>
	</station>
	<station code="DOPR" name="DOPR" netid="RO" source="Romanian Seismic Network (NIEP)" insttype="" lat="45.9675" lon="25.3886">
		<comp name="--.HNE" depth="0.0">
			<acc value="0.0084255583061712" flag="0"/>
			<vel value="0.00445186173799" flag="0"/>
			<psa03 value="0.0125601041806829" flag="0"/>
			<psa10 value="0.00443864685105472" flag="0"/>
			<psa30 value="0.000270928781035454" flag="0"/>
		</comp>
		<comp name="--.HNN" depth="0.0">
			<acc value="0.0086429671124514" flag="0"/>
			<vel value="0.00329775958118" flag="0"/>
			<psa03 value="0.0132730628690147" flag="0"/>
			<psa10 value="0.00266073610445891" flag="0"/>
			<psa30 value="0.00016090391430283" flag="0"/>
		</comp>
		<comp name="--.HNZ" depth="0.0">
			<acc value="0.0040713497510454" flag="0"/>
			<vel value="0.00176804693147" flag="0"/>
			<psa03 value="0.00677071480267505" flag="0"/>
			<psa10 value="0.00168392166873229" flag="0"/>
			<psa30 value="9.2651079085368e-05" flag="0"/>
		</comp>
	</station>
	<station code="GIRR" name="GIRR" netid="RO" source="Romanian Seismic Network (NIEP)" insttype="" lat="46.9551" lon="26.5009">
		<comp name="--.HNE" depth="0.0">
			<acc value="0.26606674923504" flag="0"/>
			<vel value="0.0397180175089" flag="0"/>
			<psa03 value="0.095144073661438" flag="0"/>
			<psa10 value="0.00311313349544184" flag="0"/>
			<psa30 value="0.00032379962721936" flag="0"/>
		</comp>
		<comp name="--.HNN" depth="0.0">
			<acc value="0.26580130547238" flag="0"/>
			<vel value="0.043946990187" flag="0"/>
			<psa03 value="0.0812907496967528" flag="0"/>
			<psa10 value="0.00598967506783301" flag="0"/>
			<psa30 value="0.000700598182022996" flag="0"/>
		</comp>
		<comp name="--.HNZ" depth="0.0">
			<acc value="0.09587985814554" flag="0"/>
			<vel value="0.0144951483866" flag="0"/>
			<psa03 value="0.0215599673045114" flag="0"/>
			<psa10 value="0.00180873462448039" flag="0"/>
			<psa30 value="0.000784460247889574" flag="0"/>
		</comp>
	</station>
	<station code="GIUM" name="GIUM" netid="RO" source="Romanian Seismic Network (NIEP)" insttype="" lat="45.485" lon="28.2081">
		<comp name="--.HNE" depth="0.0">
			<acc value="0.100809479011098" flag="0"/>
			<vel value="0.0233078156364" flag="0"/>
			<psa03 value="0.0788797983161513" flag="0"/>
			<psa10 value="0.0084942433269472" flag="0"/>
			<psa30 value="0.00093654099958016" flag="0"/>
		</comp>
		<comp name="--.HNN" depth="0.0">
			<acc value="0.081117999288252" flag="0"/>
			<vel value="0.0215749950647" flag="0"/>
			<psa03 value="0.0853097034323647" flag="0"/>
			<psa10 value="0.00674020338041368" flag="0"/>
			<psa30 value="0.00106219276089246" flag="0"/>
		</comp>
		<comp name="--.HNZ" depth="0.0">
			<acc value="0.10400637098964" flag="0"/>
			<vel value="0.0166082103643" flag="0"/>
			<psa03 value="0.0747388625411306" flag="0"/>
			<psa10 value="0.00406942692330204" flag="0"/>
			<psa30 value="0.00084067553437839" flag="0"/>
		</comp>
	</station>
	<station code="HARR" name="HARR" netid="RO" source="Romanian Seismic Network (NIEP)" insttype="" lat="44.6893" lon="27.9303">
		<comp name="--.HNE" depth="0.0">
			<acc value="0.057463758784116" flag="0"/>
			<vel value="0.00726963716889" flag="0"/>
			<psa03 value="0.0676180574894495" flag="0"/>
			<psa10 value="0.00306485209390926" flag="0"/>
			<psa30 value="0.000178937517794994" flag="0"/>
		</comp>
		<comp name="--.HNN" depth="0.0">
			<acc value="0.043425356303172" flag="0"/>
			<vel value="0.0142945534563" flag="0"/>
			<psa03 value="0.0510777534421685" flag="0"/>
			<psa10 value="0.00508163022681759" flag="0"/>
			<psa30 value="0.000355280905407934" flag="0"/>
		</comp>
		<comp name="--.HNZ" depth="0.0">
			<acc value="0.040905371902944" flag="0"/>
			<vel value="0.00757030321587" flag="0"/>
			<psa03 value="0.0368990928213138" flag="0"/>
			<psa10 value="0.00169627779976648" flag="0"/>
			<psa30 value="0.000244729597551484" flag="0"/>
		</comp>
	</station>
	<station code="HUMR" name="HUMR" netid="RO" source="Romanian Seismic Network (NIEP)" insttype="" lat="44.5281" lon="24.9804">
		<comp name="--.HNE" depth="0.0">
			<acc value="0.018438844350252" flag="0"/>
			<vel value="0.0036245474056" flag="0"/>
			<psa03 value="0.0128713331314156" flag="0"/>
			<psa10 value="0.00149602297136558" flag="0"/>
			<psa30 value="0.000102684530210659" flag="0"/>
		</comp>
		<comp name="--.HNN" depth="0.0">
			<acc value="0.016275099084594" flag="0"/>
			<vel value="0.00300935205949" flag="0"/>
			<psa03 value="0.0134358314641608" flag="0"/>
			<psa10 value="0.00119644832132909" flag="0"/>
			<psa30 value="0.000137340699709907" flag="0"/>
		</comp>
		<comp name="--.HNZ" depth="0.0">
			<acc value="0.023621769010788" flag="0"/>
			<vel value="0.00244805017462" flag="0"/>
			<psa03 value="0.00528598786605769" flag="0"/>
			<psa10 value="0.000376611960412779" flag="0"/>
			<psa30 value="8.13601944009208e-05" flag="0"/>
		</comp>
	</station>
	<station code="IASR" name="IASR" netid="RO" source="Romanian Seismic Network (NIEP)" insttype="" lat="47.1777" lon="27.5748">
		<comp name="--.HNE" depth="0.0">
			<acc value="0.19286470913952" flag="0"/>
			<vel value="0.0243275256724" flag="0"/>
			<psa03 value="0.116563940539054" flag="0"/>
			<psa10 value="0.00584350725992071" flag="0"/>
			<psa30 value="0.000571174972957492" flag="0"/>
		</comp>
		<comp name="--.HNN" depth="0.0">
			<acc value="0.12699090780816" flag="0"/>
			<vel value="0.0186538920602" flag="0"/>
			<psa03 value="0.129876155741421" flag="0"/>
			<psa10 value="0.00464744896445404" flag="0"/>
			<psa30 value="0.00034822543801802" flag="0"/>
		</comp>
		<comp name="--.HNZ" depth="0.0">
			<acc value="0.15793343844006" flag="0"/>
			<vel value="0.0289297326917" flag="0"/>
			<psa03 value="0.0713411322498169" flag="0"/>
			<psa10 value="0.00287769500817016" flag="0"/>
			<psa30 value="0.000298339451024293" flag="0"/>
		</comp>
	</station>
	<station code="ICOR" name="ICOR" netid="RO" source="Romanian Seismic Network (NIEP)" insttype="" lat="44.1168" lon="27.8009">
		<comp name="--.HNE" depth="0.0">
			<acc value="0.029422624105548" flag="0"/>
			<vel value="0.0131779103961" flag="0"/>
			<psa03 value="0.126002763731276" flag="0"/>
			<psa10 value="0.00756593354971818" flag="0"/>
			<psa30 value="0.000466238333919547" flag="0"/>
		</comp>
