<?xml version="1.0" encoding="UTF-8" standalone="yes"?>
<!DOCTYPE earthquake SYSTEM "stationlist.dtd">
<stationlist created="" xmlns="ch.ethz.sed.shakemap.usgs.xml">
  <station code="APE" name="APE" netid="GE" source="GFZ" insttype="STS-2/N" lat="37.0689" lon="25.5306">
    <comp name="--.HHE">
      <acc value="0.2296660894" flag="0"/>
      <vel value="0.1019593794" flag="0"/>
      <psa03 value="0.3852372131" flag="0"/>
      <psa10 value="0.1058578382" flag="0"/>
      <psa30 value="0.0177534707" flag="0"/>
    </comp>
    <comp name="--.HHN">
      <acc value="0.2022588062" flag="0"/>
      <vel value="0.0790596470" flag="0"/>
      <psa03 value="0.3934048151" flag="0"/>
      <psa10 value="0.0966262287" flag="0"/>
      <psa30 value="0.0081274337" flag="0"/>
    </comp>
    <comp name="--.HHZ">
      <acc value="0.1170359415" flag="0"/>
      <vel value="0.0739763977" flag="0"/>
      <psa03 value="0.3076357202" flag="0"/>
      <psa10 value="0.1002268772" flag="0"/>
      <psa30 value="0.0125578133" flag="0"/>
    </comp>
  </station>
  <station code="ANDR" name="ANDR" netid="Z3" source="GFZ" insttype="CMG-3ESP/60" lat="37.8361" lon="24.9482">
    <comp name="--.HHE">
      <acc value="0.0444608336" flag="0"/>
      <vel value="0.0214006321" flag="0"/>
      <psa03 value="0.1307002355" flag="0"/>
      <psa10 value="0.0214711983" flag="0"/>
      <psa30 value="0.0045291148" flag="0"/>
    </comp>
    <comp name="--.HHN">
      <acc value="0.0499626636" flag="0"/>
      <vel value="0.0304844276" flag="0"/>
      <psa03 value="0.1287533253" flag="0"/>
      <psa10 value="0.0475169813" flag="0"/>
      <psa30 value="0.0071075843" flag="0"/>
    </comp>
    <comp name="--.HHZ">
      <acc value="0.0317407440" flag="0"/>
      <vel value="0.0286642352" flag="0"/>
      <psa03 value="0.1119583128" flag="0"/>
      <psa10 value="0.0204127205" flag="0"/>
      <psa30 value="0.0032314636" flag="0"/>
    </comp>
  </station>
  <station code="KOSI" name="KOSI" netid="Z3" source="GFZ" insttype="CMG-3ESP/60" lat="36.7449" lon="26.9517">
    <comp name="--.HHE">
      <acc value="0.0979124142" flag="0"/>
      <vel value="0.1154945867" flag="0"/>
      <psa03 value="0.2018547089" flag="0"/>
      <psa10 value="0.2010400025" flag="0"/>
      <psa30 value="0.0198090634" flag="0"/>
    </comp>
    <comp name="--.HHN">
      <acc value="0.1247215420" flag="0"/>
      <vel value="0.1377834245" flag="0"/>
      <psa03 value="0.2007445882" flag="0"/>
      <psa10 value="0.2111698100" flag="0"/>
      <psa30 value="0.0106759789" flag="0"/>
    </comp>
    <comp name="--.HHZ">
      <acc value="0.0995289759" flag="0"/>
      <vel value="0.0845473259" flag="0"/>
      <psa03 value="0.1746894654" flag="0"/>
      <psa10 value="0.1072267776" flag="0"/>
      <psa30 value="0.0067644385" flag="0"/>
    </comp>
  </station>
  <station code="LERO" name="LERO" netid="Z3" source="GFZ" insttype="CMG-3ESP/60" lat="37.1634" lon="26.8353">
    <comp name="--.HHE">
      <acc value="0.0805815794" flag="0"/>
      <vel value="0.0899166182" flag="0"/>
      <psa03 value="0.1413187597" flag="0"/>
      <psa10 value="0.1126477195" flag="0"/>
      <psa30 value="0.0228232368" flag="0"/>
    </comp>
    <comp name="--.HHN">
      <acc value="0.0743327484" flag="0"/>
      <vel value="0.0816897980" flag="0"/>
      <psa03 value="0.1416297321" flag="0"/>
      <psa10 value="0.1868030362" flag="0"/>
      <psa30 value="0.0136050021" flag="0"/>
    </comp>
    <comp name="--.HHZ">
      <acc value="0.0444956471" flag="0"/>
      <vel value="0.0389274983" flag="0"/>
      <psa03 value="0.1052273016" flag="0"/>
      <psa10 value="0.0584003828" flag="0"/>
      <psa30 value="0.0169696349" flag="0"/>
    </comp>
  </station>
  <station code="PARO" name="PARO" netid="Z3" source="GFZ" insttype="L4-3D" lat="37.115" lon="25.1825">
    <comp name="--.HHE">
      <acc value="0.2058293001" flag="0"/>
      <vel value="0.1723320670" flag="0"/>
      <psa03 value="0.5985185700" flag="0"/>
      <psa10 value="0.1894279855" flag="0"/>
      <psa30 value="0.0524692508" flag="0"/>
    </comp>
    <comp name="--.HHN">
      <acc value="0.2436646248" flag="0"/>
      <vel value="0.2138827569" flag="0"/>
      <psa03 value="0.5142770617" flag="0"/>
      <psa10 value="0.3579042027" flag="0"/>
      <psa30 value="0.0313475785" flag="0"/>
    </comp>
    <comp name="--.HHZ">
      <acc value="0.0985774952" flag="0"/>
      <vel value="0.0819878060" flag="0"/>
      <psa03 value="0.3332418920" flag="0"/>
      <psa10 value="0.1258545037" flag="0"/>
      <psa30 value="0.0165925017" flag="0"/>
    </comp>
  </station>
  <station code="SAMO" name="SAMO" netid="Z3" source="GFZ" insttype="CMG-3ESP/60" lat="37.7043" lon="26.8377">
    <comp name="--.HHE">
      <acc value="0.7889628458" flag="0"/>
      <vel value="0.3203031085" flag="0"/>
      <psa03 value="1.4347703902" flag="0"/>
      <psa10 value="0.2763597486" flag="0"/>
      <psa30 value="0.0376665924" flag="0"/>
    </comp>
    <comp name="--.HHN">
      <acc value="0.8928075728" flag="0"/>
      <vel value="0.3509069871" flag="0"/>
      <psa03 value="1.0553236723" flag="0"/>
      <psa10 value="0.2190335311" flag="0"/>
      <psa30 value="0.0182792190" flag="0"/>
    </comp>
    <comp name="--.HHZ">
      <acc value="0.3802579190" flag="0"/>
      <vel value="0.1387041142" flag="0"/>
      <psa03 value="0.4438933483" flag="0"/>
      <psa10 value="0.1239853356" flag="0"/>
      <psa30 value="0.0124709470" flag="0"/>
    </comp>
  </station>
  <station code="SYRO" name="SYRO" netid="Z3" source="GFZ" insttype="CMG-3ESP/60" lat="37.4569" lon="24.9266">
    <comp name="--.HHE">
      <acc value="0.0597252499" flag="0"/>
      <vel value="0.0361553139" flag="0"/>
      <psa03 value="0.1743026026" flag="0"/>
      <psa10 value="0.0388522654" flag="0"/>
      <psa30 value="0.0046807945" flag="0"/>
    </comp>
    <comp name="--.HHN">
      <acc value="0.0585848101" flag="0"/>
      <vel value="0.0375664474" flag="0"/>
      <psa03 value="0.1579015099" flag="0"/>
      <psa10 value="0.0409075277" flag="0"/>
      <psa30 value="0.0095118916" flag="0"/>
    </comp>
    <comp name="--.HHZ">
      <acc value="0.0682481159" flag="0"/>
      <vel value="0.0292792880" flag="0"/>
      <psa03 value="0.1170148959" flag="0"/>
      <psa10 value="0.0258095250" flag="0"/>
      <psa30 value="0.0030127152" flag="0"/>
    </comp>
  </station>
  <station code="TUR1" name="TUR1" netid="Z3" source="GFZ" insttype="CMG-3ESP/60" lat="38.0865" lon="26.8676">
    <comp name="--.HHE">
      <acc value="1.9622311478" flag="0"/>
      <vel value="0.3570077126" flag="0"/>
      <psa03 value="2.9134685071" flag="0"/>
      <psa10 value="0.4334684187" flag="0"/>
      <psa30 value="0.0555202101" flag="0"/>
    </comp>
    <comp name="--.HHN">
      <acc value="1.7972505798" flag="0"/>
      <vel value="0.3554462608" flag="0"/>
      <psa03 value="1.4697954864" flag="0"/>
      <psa10 value="0.4377718241" flag="0"/>
      <psa30 value="0.0334298049" flag="0"/>
    </comp>
    <comp name="--.HHZ">
      <acc value="1.0697563242" flag="0"/>
      <vel value="0.2768539418" flag="0"/>
      <psa03 value="0.8354424255" flag="0"/>
      <psa10 value="0.1344750195" flag="0"/>
      <psa30 value="0.0512936818" flag="0"/>
    </comp>
  </station>
  <station code="TUR2" name="TUR2" netid="Z3" source="GFZ" insttype="CMG-3ESP/60" lat="37.642" lon="27.2418">
    <comp name="--.HHE">
      <acc value="0.3139722689" flag="0"/>
      <vel value="0.1482704704" flag="0"/>
      <psa03 value="0.6465374739" flag="0"/>
      <psa10 value="0.0908035086" flag="0"/>
      <psa30 value="0.0328869774" flag="0"/>
    </comp>
    <comp name="--.HHN">
      <acc value="0.3613613583" flag="0"/>
      <vel value="0.2470397888" flag="0"/>
      <psa03 value="0.6737518083" flag="0"/>
      <psa10 value="0.3129474729" flag="0"/>
      <psa30 value="0.0236302234" flag="0"/>
    </comp>
    <comp name="--.HHZ">
      <acc value="0.2293822240" flag="0"/>
      <vel value="0.1763019035" flag="0"/>
      <psa03 value="0.3465404422" flag="0"/>
      <psa10 value="0.2526920794" flag="0"/>
      <psa30 value="0.0182656968" flag="0"/>
    </comp>
  </station>
  <station code="TUR3" name="TUR3" netid="Z3" source="GFZ" insttype="CMG-3ESP/60" lat="37.4663" lon="27.538">
    <comp name="--.HHE">
      <acc value="0.2418111825" flag="0"/>
      <vel value="0.1724769446" flag="0"/>
      <psa03 value="0.5386290743" flag="0"/>
      <psa10 value="0.2653684520" flag="0"/>
      <psa30 value="0.0165552033" flag="0"/>
    </comp>
    <comp name="--.HHN">
      <acc value="0.2744466739" flag="0"/>
      <vel value="0.1782228642" flag="0"/>
      <psa03 value="0.5798170701" flag="0"/>
      <psa10 value="0.2988817348" flag="0"/>
      <psa30 value="0.0277923431" flag="0"/>
    </comp>
    <comp name="--.HHZ">
      <acc value="0.1200180808" flag="0"/>
      <vel value="0.0607187962" flag="0"/>
      <psa03 value="0.2774234782" flag="0"/>
      <psa10 value="0.0374415856" flag="0"/>
      <psa30 value="0.0069846903" flag="0"/>
    </comp>
  </station>
  <station code="TUR4" name="TUR4" netid="Z3" source="GFZ" insttype="CMG-3ESP/60" lat="37.08" lon="27.8077">
    <comp name="--.HHE">
      <acc value="0.0533054839" flag="0"/>
      <vel value="0.0782535927" flag="0"/>
      <psa03 value="0.1619156735" flag="0"/>
      <psa10 value="0.1036896123" flag="0"/>
      <psa30 value="0.0081498920" flag="0"/>
    </comp>
    <comp name="--.HHN">
      <acc value="0.0566530217" flag="0"/>
      <vel value="0.0607917935" flag="0"/>
      <psa03 value="0.1310697768" flag="0"/>
      <psa10 value="0.0933559985" flag="0"/>
      <psa30 value="0.0165831101" flag="0"/>
    </comp>
    <comp name="--.HHZ">
      <acc value="0.0357407247" flag="0"/>
      <vel value="0.0494281553" flag="0"/>
      <psa03 value="0.0823147390" flag="0"/>
      <psa10 value="0.0600280985" flag="0"/>
      <psa30 value="0.0085535921" flag="0"/>
    </comp>
  </station>
  <station code="TUR5" name="TUR5" netid="Z3" source="GFZ" insttype="CMG-3ESP/60" lat="37.0302" lon="27.3167">
    <comp name="--.HHE">
      <acc value="0.0524497138" flag="0"/>
      <vel value="0.0827463288" flag="0"/>
      <psa03 value="0.1144509661" flag="0"/>
      <psa10 value="0.1333478541" flag="0"/>
      <psa30 value="0.0290551965" flag="0"/>
    </comp>
    <comp name="--.HHN">
      <acc value="0.0411098240" flag="0"/>
      <vel value="0.0453955572" flag="0"/>
      <psa03 value="0.1144147459" flag="0"/>
      <psa10 value="0.0804549297" flag="0"/>
      <psa30 value="0.0114399327" flag="0"/>
    </comp>
    <comp name="--.HHZ">
      <acc value="0.0322701664" flag="0"/>
      <vel value="0.0245994671" flag="0"/>
      <psa03 value="0.0891416615" flag="0"/>
      <psa10 value="0.0616301074" flag="0"/>
      <psa30 value="0.0058587766" flag="0"/>
    </comp>
  </station>
  <station code="AMOE" name="AMOE" netid="ZZ" source="GFZ" insttype="L4-3D" lat="36.915" lon="25.979">
    <comp name="--.HHE">
      <acc value="0.2026158504" flag="0"/>
      <vel value="0.1075948365" flag="0"/>
      <psa03 value="0.8397357331" flag="0"/>
      <psa10 value="0.1482100494" flag="0"/>
      <psa30 value="0.0156713422" flag="0"/>
    </comp>
    <comp name="--.HHN">
      <acc value="0.2427207777" flag="0"/>
      <vel value="0.1410959218" flag="0"/>
      <psa03 value="0.5590423768" flag="0"/>
      <psa10 value="0.2274077630" flag="0"/>
      <psa30 value="0.0185307810" flag="0"/>
    </comp>
    <comp name="--.HHZ">
      <acc value="0.1582989656" flag="0"/>
      <vel value="0.0957090313" flag="0"/>
      <psa03 value="0.4003701532" flag="0"/>
      <psa10 value="0.1055879099" flag="0"/>
      <psa30 value="0.0119699776" flag="0"/>
    </comp>
  </station>
  <station code="SCHI" name="SCHI" netid="ZZ" source="GFZ" insttype="L4-3D" lat="36.874" lon="25.518">
    <comp name="--.HHE">
      <acc value="0.1990216811" flag="0"/>
      <vel value="0.1178553401" flag="0"/>
      <psa03 value="0.3805964166" flag="0"/>
      <psa10 value="0.1490844823" flag="0"/>
      <psa30 value="0.0226455002" flag="0"/>
    </comp>
    <comp name="--.HHN">
      <acc value="0.3073229864" flag="0"/>
      <vel value="0.1894426633" flag="0"/>
      <psa03 value="0.7971584502" flag="0"/>
      <psa10 value="0.1376675504" flag="0"/>
      <psa30 value="0.0213450817" flag="0"/>
    </comp>
    <comp name="--.HHZ">
      <acc value="0.0812470371" flag="0"/>
      <vel value="0.0660944486" flag="0"/>
      <psa03 value="0.2283798943" flag="0"/>
      <psa10 value="0.0724360456" flag="0"/>
      <psa30 value="0.0035951057" flag="0"/>
    </comp>
  </station>
</stationlist>
