<stationlist created="1778118975">
	<station code="0904" name="0904" netid="TK" source="Turkish National Strong Motion Network (TNSMN)" insttype="" lat="37.85716" lon="28.05025">
		<comp name="00.HNE" depth="None">
			<acc value="0.144732316279668" flag="0"/>
			<vel value="0.128490623071985" flag="0"/>
			<psa03 value="0.254404186831493" flag="0"/>
			<psa10 value="0.267661302652487" flag="0"/>
			<psa30 value="0.0392836574108426" flag="0"/>
		</comp>
		<comp name="00.HNN" depth="None">
			<acc value="0.13185349021932" flag="0"/>
			<vel value="0.132576088459396" flag="0"/>
			<psa03 value="0.326394397280293" flag="0"/>
			<psa10 value="0.252693692272477" flag="0"/>
			<psa30 value="0.0439229768150912" flag="0"/>
		</comp>
		<comp name="00.HNZ" depth="None">
			<acc value="0.105357803342598" flag="0"/>
			<vel value="0.0991830293906048" flag="0"/>
			<psa03 value="0.223845259711214" flag="0"/>
			<psa10 value="0.149901604521461" flag="0"/>
			<psa30 value="0.0179939732356703" flag="0"/>
		</comp>
	</station>
	<station code="1001" name="1001" netid="TK" source="Turkish National Strong Motion Network (TNSMN)" insttype="" lat="39.65003" lon="27.85686">
		<comp name="00.HNE" depth="None">
			<acc value="0.17640751485803" flag="0"/>
			<vel value="0.0940890206037022" flag="0"/>
			<psa03 value="0.462723900846167" flag="0"/>
			<psa10 value="0.0643683755513767" flag="0"/>
			<psa30 value="0.024971967779856" flag="0"/>
		</comp>
		<comp name="00.HNN" depth="None">
			<acc value="0.128593269916541" flag="0"/>
			<vel value="0.120940113693463" flag="0"/>
			<psa03 value="0.384604008090664" flag="0"/>
			<psa10 value="0.122696553209287" flag="0"/>
			<psa30 value="0.0231012961211461" flag="0"/>
		</comp>
		<comp name="00.HNZ" depth="None">
			<acc value="0.0697662784382309" flag="0"/>
			<vel value="0.0501195697703247" flag="0"/>
			<psa03 value="0.193286332590934" flag="0"/>
			<psa10 value="0.0565362522828482" flag="0"/>
			<psa30 value="0.0230655023558515" flag="0"/>
		</comp>
	</station>
	<station code="3502" name="3502" netid="TK" source="Turkish National Strong Motion Network (TNSMN)" insttype="" lat="38.45514" lon="27.22673">
		<comp name="00.HNE" depth="None">
			<acc value="1.6797621342996" flag="0"/>
			<vel value="1.27058535329534" flag="0"/>
			<psa03 value="5.28606800091572" flag="0"/>
			<psa10 value="1.42269613143136" flag="0"/>
			<psa30 value="0.0837372767964265" flag="0"/>
		</comp>
		<comp name="00.HNN" depth="None">
			<acc value="1.53729679091982" flag="0"/>
			<vel value="1.1728004782495" flag="0"/>
			<psa03 value="5.02625000708341" flag="0"/>
			<psa10 value="1.17864797574373" flag="0"/>
			<psa30 value="0.119336860914321" flag="0"/>
		</comp>
		<comp name="00.HNZ" depth="None">
			<acc value="0.695748028360587" flag="0"/>
			<vel value="0.474353060120096" flag="0"/>
			<psa03 value="2.05823098885374" flag="0"/>
			<psa10 value="0.546500998206483" flag="0"/>
			<psa30 value="0.0360264247690324" flag="0"/>
		</comp>
	</station>
	<station code="4501" name="4501" netid="TK" source="Turkish National Strong Motion Network (TNSMN)" insttype="" lat="38.61259" lon="27.38138">
		<comp name="00.HNE" depth="0.0">
			<acc value="0.933985632655959" flag="0"/>
			<vel value="1.14701879157632" flag="0"/>
			<psa03 value="2.69786557466855" flag="0"/>
			<psa10 value="1.08738058557345" flag="0"/>
			<psa30 value="0.0782205627203936" flag="0"/>
		</comp>
		<comp name="00.HNN" depth="0.0">
			<acc value="0.68253531862766" flag="0"/>
			<vel value="0.546152342927077" flag="0"/>
			<psa03 value="2.12409151699583" flag="0"/>
			<psa10 value="0.669080774256496" flag="0"/>
			<psa30 value="0.0505367697974041" flag="0"/>
		</comp>
		<comp name="00.HNZ" depth="0.0">
			<acc value="0.605011520032092" flag="0"/>
			<vel value="0.369276890640118" flag="0"/>
			<psa03 value="1.59174874265164" flag="0"/>
			<psa10 value="0.529375023779207" flag="0"/>
			<psa30 value="0.0301965152466716" flag="0"/>
		</comp>
	</station>
</stationlist>
