<?xml version="1.0" encoding="UTF-8" standalone="yes"?>
<!DOCTYPE earthquake SYSTEM "stationlist.dtd">
<stationlist created="" xmlns="ch.ethz.sed.shakemap.usgs.xml">
  <station code="AGRP" name="AGRP" netid="CL" insttype="CMG40-T" lat="38.3959" lon="21.7228">
    <comp name="00.HHE">
      <acc value="0.1543831675" flag="0"/>
      <vel value="0.0810122733" flag="0"/>
      <psa03 value="0.3147976263" flag="0"/>
      <psa10 value="0.0493218430" flag="0"/>
      <psa30 value="0.0043953016" flag="0"/>
    </comp>
    <comp name="00.HHZ">
      <acc value="0.2765581177" flag="0"/>
      <vel value="0.0546136526" flag="0"/>
      <psa03 value="0.1187840950" flag="0"/>
      <psa10 value="0.0342268255" flag="0"/>
      <psa30 value="0.0016698171" flag="0"/>
    </comp>
    <comp name="00.HHN">
      <acc value="0.1361242095" flag="0"/>
      <vel value="0.0632720214" flag="0"/>
      <psa03 value="0.2275527008" flag="0"/>
      <psa10 value="0.0556115383" flag="0"/>
      <psa30 value="0.0035030446" flag="0"/>
    </comp>
  </station>
  <station code="PSAM" name="PSAM" netid="CL" insttype="CMG40-T" lat="38.3218" lon="22.1842">
    <comp name="00.HHE">
      <acc value="0.1472059859" flag="0"/>
      <vel value="0.0719230020" flag="0"/>
      <psa03 value="0.2406771286" flag="0"/>
      <psa10 value="0.0331343209" flag="0"/>
      <psa30 value="0.0030053306" flag="0"/>
    </comp>
    <comp name="00.HHN">
      <acc value="0.1313448472" flag="0"/>
      <vel value="0.0468329839" flag="0"/>
      <psa03 value="0.1064164193" flag="0"/>
      <psa10 value="0.0361847116" flag="0"/>
      <psa30 value="0.0017955475" flag="0"/>
    </comp>
    <comp name="00.HHZ">
      <acc value="0.2024200455" flag="0"/>
      <vel value="0.0294504587" flag="0"/>
      <psa03 value="0.0427986651" flag="0"/>
      <psa10 value="0.0117397541" flag="0"/>
      <psa30 value="0.0008393779" flag="0"/>
    </comp>
  </station>
  <station code="ROD3" name="ROD3" netid="CL" insttype="CMG40-T" lat="38.3081" lon="21.892">
    <comp name="00.HHE">
      <acc value="0.2614238849" flag="0"/>
      <vel value="0.0915912306" flag="0"/>
      <psa03 value="0.5302699608" flag="0"/>
      <psa10 value="0.0524901743" flag="0"/>
      <psa30 value="0.0052681328" flag="0"/>
    </comp>
    <comp name="00.HHN">
      <acc value="0.2734922580" flag="0"/>
      <vel value="0.1245054128" flag="0"/>
      <psa03 value="0.6767168755" flag="0"/>
      <psa10 value="0.0536698569" flag="0"/>
      <psa30 value="0.0067817519" flag="0"/>
    </comp>
    <comp name="00.HHZ">
      <acc value="0.1450183816" flag="0"/>
      <vel value="0.0352542508" flag="0"/>
      <psa03 value="0.1195104144" flag="0"/>
      <psa10 value="0.0285545380" flag="0"/>
      <psa30 value="0.0020193888" flag="0"/>
    </comp>
  </station>
  <station code="TRIZ" name="TRIZ" netid="CL" insttype="STS-2" lat="38.3654" lon="22.0727">
    <comp name="00.HH3">
      <acc value="0.1005166364" flag="0"/>
      <vel value="0.0600557065" flag="0"/>
      <psa03 value="0.2110896044" flag="0"/>
      <psa10 value="0.0332058266" flag="0"/>
      <psa30 value="0.0031869585" flag="0"/>
    </comp>
    <comp name="00.HH2">
      <acc value="0.0781976929" flag="0"/>
      <vel value="0.0451510657" flag="0"/>
      <psa03 value="0.2773894351" flag="0"/>
      <psa10 value="0.0217002973" flag="0"/>
      <psa30 value="0.0015030675" flag="0"/>
    </comp>
    <comp name="00.HHZ">
      <acc value="0.1302013251" flag="0"/>
      <vel value="0.0300597127" flag="0"/>
      <psa03 value="0.1012082059" flag="0"/>
      <psa10 value="0.0138377094" flag="0"/>
      <psa30 value="0.0010500521" flag="0"/>
    </comp>
  </station>
  <station code="ZIRI" name="ZIRI" netid="CL" insttype="TRILLIUM-40" lat="38.3051" lon="21.9476">
    <comp name="01.HHN">
      <acc value="0.1531177714" flag="0"/>
      <vel value="0.0644505147" flag="0"/>
      <psa03 value="0.2973680903" flag="0"/>
      <psa10 value="0.0322413330" flag="0"/>
      <psa30 value="0.0034394455" flag="0"/>
    </comp>
    <comp name="01.HHZ">
      <acc value="0.1772060335" flag="0"/>
      <vel value="0.0424834395" flag="0"/>
      <psa03 value="0.2606425676" flag="0"/>
      <psa10 value="0.0117799055" flag="0"/>
      <psa30 value="0.0010814459" flag="0"/>
    </comp>
    <comp name="01.HHE">
      <acc value="0.1486265233" flag="0"/>
      <vel value="0.0623157561" flag="0"/>
      <psa03 value="0.2458336880" flag="0"/>
      <psa10 value="0.0397155397" flag="0"/>
      <psa30 value="0.0034042913" flag="0"/>
    </comp>
  </station>
  <station code="ACOR" name="ACOR" netid="HA" insttype="Horizon,120s,1200" lat="37.8905" lon="22.8694">
    <comp name="--.HHZ">
      <acc value="0.0158609527" flag="0"/>
      <vel value="0.0082315979" flag="0"/>
      <psa03 value="0.0320541757" flag="0"/>
      <psa10 value="0.0096178860" flag="0"/>
      <psa30 value="0.0007184619" flag="0"/>
    </comp>
    <comp name="--.HHN">
      <acc value="0.0203245474" flag="0"/>
      <vel value="0.0097417704" flag="0"/>
      <psa03 value="0.0574190601" flag="0"/>
      <psa10 value="0.0086756437" flag="0"/>
      <psa30 value="0.0007779402" flag="0"/>
    </comp>
    <comp name="--.HHE">
      <acc value="0.0305843436" flag="0"/>
      <vel value="0.0106839135" flag="0"/>
      <psa03 value="0.0328139983" flag="0"/>
      <psa10 value="0.0070845037" flag="0"/>
      <psa30 value="0.0008292540" flag="0"/>
    </comp>
  </station>
  <station code="AMPE" name="AMPE" netid="HA" insttype="1s-100Hz," lat="38.3015" lon="23.2688">
    <comp name="--.HHE">
      <acc value="0.0230285539" flag="0"/>
      <vel value="0.0162747992" flag="0"/>
      <psa03 value="0.0404095142" flag="0"/>
      <psa10 value="0.0289386805" flag="0"/>
      <psa30 value="0.0025763158" flag="0"/>
    </comp>
    <comp name="--.HHN">
      <acc value="0.0207161370" flag="0"/>
      <vel value="0.0119424320" flag="0"/>
      <psa03 value="0.0339801417" flag="0"/>
      <psa10 value="0.0137624859" flag="0"/>
      <psa30 value="0.0021353857" flag="0"/>
    </comp>
    <comp name="--.HHZ">
      <acc value="0.0379403799" flag="0"/>
      <vel value="0.0102688944" flag="0"/>
      <psa03 value="0.0251187851" flag="0"/>
      <psa10 value="0.0138424689" flag="0"/>
      <psa30 value="0.0015766708" flag="0"/>
    </comp>
  </station>
  <station code="ANTK" name="ANTK" netid="HA" insttype="25" lat="38.3605" lon="22.6385">
    <comp name="--.HHE">
      <acc value="0.0845789353" flag="0"/>
      <vel value="0.0283635684" flag="0"/>
      <psa03 value="0.0770065445" flag="0"/>
      <psa10 value="0.0204842153" flag="0"/>
      <psa30 value="0.0018302243" flag="0"/>
    </comp>
    <comp name="--.HHZ">
      <acc value="0.0364869426" flag="0"/>
      <vel value="0.0110553838" flag="0"/>
      <psa03 value="0.0446533877" flag="0"/>
      <psa10 value="0.0111321401" flag="0"/>
      <psa30 value="0.0007832919" flag="0"/>
    </comp>
    <comp name="--.HHN">
      <acc value="0.0046927261" flag="0"/>
      <vel value="0.0009464868" flag="0"/>
      <psa03 value="0.0026044842" flag="0"/>
      <psa10 value="0.0002613497" flag="0"/>
      <psa30 value="0.0000212637" flag="0"/>
    </comp>
  </station>
  <station code="ATAL" name="ATAL" netid="HA" insttype="120s," lat="38.6926" lon="23.0213">
    <comp name="--.HHE">
      <acc value="0.0214668155" flag="0"/>
      <vel value="0.0087624273" flag="0"/>
      <psa03 value="0.0260432932" flag="0"/>
      <psa10 value="0.0068402644" flag="0"/>
      <psa30 value="0.0007752899" flag="0"/>
    </comp>
    <comp name="--.HHN">
      <acc value="0.0237963813" flag="0"/>
      <vel value="0.0108227113" flag="0"/>
      <psa03 value="0.0273298149" flag="0"/>
      <psa10 value="0.0123615308" flag="0"/>
      <psa30 value="0.0007276733" flag="0"/>
    </comp>
    <comp name="--.HHZ">
      <acc value="0.0001090001" flag="0"/>
      <vel value="0.0000563208" flag="0"/>
      <psa03 value="0.0000674586" flag="0"/>
      <psa10 value="0.0000346928" flag="0"/>
      <psa30 value="0.0000248181" flag="0"/>
    </comp>
  </station>
  <station code="AXAR" name="AXAR" netid="HA" insttype="Horizon,120s,1200" lat="38.7664" lon="22.659">
    <comp name="--.HHE">
      <acc value="0.0604039684" flag="0"/>
      <vel value="0.0298801210" flag="0"/>
      <psa03 value="0.1152615634" flag="0"/>
      <psa10 value="0.0349583513" flag="0"/>
      <psa30 value="0.0023034295" flag="0"/>
    </comp>
    <comp name="--.HHZ">
      <acc value="0.0347287716" flag="0"/>
      <vel value="0.0210195365" flag="0"/>
      <psa03 value="0.0742094969" flag="0"/>
      <psa10 value="0.0303129374" flag="0"/>
      <psa30 value="0.0016206634" flag="0"/>
    </comp>
    <comp name="--.HHN">
      <acc value="0.0678523784" flag="0"/>
      <vel value="0.0353026928" flag="0"/>
      <psa03 value="0.1099203736" flag="0"/>
      <psa10 value="0.0556606782" flag="0"/>
      <psa30 value="0.0024056911" flag="0"/>
    </comp>
  </station>
  <station code="DOMV" name="DOMV" netid="HA" insttype="60" lat="38.2569" lon="22.9795">
    <comp name="--.HHE">
      <acc value="0.1564311468" flag="0"/>
      <vel value="0.0497717636" flag="0"/>
      <psa03 value="0.1736292046" flag="0"/>
      <psa10 value="0.0474324195" flag="0"/>
      <psa30 value="0.0032039239" flag="0"/>
    </comp>
    <comp name="--.HHZ">
      <acc value="0.1322121006" flag="0"/>
      <vel value="0.0353603717" flag="0"/>
      <psa03 value="0.1163304158" flag="0"/>
      <psa10 value="0.0243844565" flag="0"/>
      <psa30 value="0.0015426591" flag="0"/>
    </comp>
    <comp name="--.HHN">
      <acc value="0.1182703396" flag="0"/>
      <vel value="0.0396563616" flag="0"/>
      <psa03 value="0.2616642187" flag="0"/>
      <psa10 value="0.0138598653" flag="0"/>
      <psa30 value="0.0008922902" flag="0"/>
    </comp>
  </station>
  <station code="EPID" name="EPID" netid="HA" insttype="30" lat="37.6144" lon="23.1189">
    <comp name="--.HHE">
      <acc value="0.0564485755" flag="0"/>
      <vel value="0.0183757430" flag="0"/>
      <psa03 value="0.0914249389" flag="0"/>
      <psa10 value="0.0123872772" flag="0"/>
      <psa30 value="0.0008508557" flag="0"/>
    </comp>
    <comp name="--.HHN">
      <acc value="0.0724621544" flag="0"/>
      <vel value="0.0157224857" flag="0"/>
      <psa03 value="0.0708126343" flag="0"/>
      <psa10 value="0.0074284311" flag="0"/>
      <psa30 value="0.0004817141" flag="0"/>
    </comp>
    <comp name="--.HHZ">
      <acc value="0.0457272487" flag="0"/>
      <vel value="0.0148792075" flag="0"/>
      <psa03 value="0.0744433935" flag="0"/>
      <psa10 value="0.0149884479" flag="0"/>
      <psa30 value="0.0011651456" flag="0"/>
    </comp>
  </station>
  <station code="KALE" name="KALE" netid="HA" insttype="40," lat="38.3911" lon="22.1398">
    <comp name="--.HHN">
      <acc value="0.4456557847" flag="0"/>
      <vel value="0.0717217323" flag="0"/>
      <psa03 value="0.2323555244" flag="0"/>
      <psa10 value="0.0339739653" flag="0"/>
      <psa30 value="0.0023877687" flag="0"/>
    </comp>
    <comp name="--.HHZ">
      <acc value="0.5643296416" flag="0"/>
      <vel value="0.1111694987" flag="0"/>
      <psa03 value="0.2339661811" flag="0"/>
      <psa10 value="0.0140263288" flag="0"/>
      <psa30 value="0.0014500286" flag="0"/>
    </comp>
    <comp name="--.HHE">
      <acc value="0.2198308209" flag="0"/>
      <vel value="0.0558153915" flag="0"/>
      <psa03 value="0.2541917790" flag="0"/>
      <psa10 value="0.0287546222" flag="0"/>
      <psa30 value="0.0019747263" flag="0"/>
    </comp>
  </station>
  <station code="KIAS" name="KIAS" netid="HA" insttype="DC" lat="37.9875" lon="22.7543">
    <comp name="--.HNE">
      <acc value="0.0985026534" flag="0"/>
      <vel value="0.0441069057" flag="0"/>
      <psa03 value="0.1118289284" flag="0"/>
      <psa10 value="0.0406791463" flag="0"/>
      <psa30 value="0.0023403036" flag="0"/>
    </comp>
    <comp name="--.HNN">
      <acc value="0.1244128818" flag="0"/>
      <vel value="0.0353549622" flag="0"/>
      <psa03 value="0.1066061627" flag="0"/>
      <psa10 value="0.0310541402" flag="0"/>
      <psa30 value="0.0029807411" flag="0"/>
    </comp>
    <comp name="--.HNZ">
      <acc value="0.0916053680" flag="0"/>
      <vel value="0.0179029495" flag="0"/>
      <psa03 value="0.0625662606" flag="0"/>
      <psa10 value="0.0262959745" flag="0"/>
      <psa30 value="0.0014590151" flag="0"/>
    </comp>
  </station>
  <station code="LAKA" name="LAKA" netid="HA" insttype="120s," lat="38.2401" lon="21.9785">
    <comp name="--.HHN">
      <acc value="0.0480620028" flag="0"/>
      <vel value="0.0191049664" flag="0"/>
      <psa03 value="0.0768951803" flag="0"/>
      <psa10 value="0.0345687028" flag="0"/>
      <psa30 value="0.0030284715" flag="0"/>
    </comp>
    <comp name="--.HHZ">
      <acc value="0.0359974444" flag="0"/>
      <vel value="0.0101620892" flag="0"/>
      <psa03 value="0.0334306035" flag="0"/>
      <psa10 value="0.0143182348" flag="0"/>
      <psa30 value="0.0006294940" flag="0"/>
    </comp>
    <comp name="--.HHE">
      <acc value="0.0435417205" flag="0"/>
      <vel value="0.0198229812" flag="0"/>
      <psa03 value="0.0793335173" flag="0"/>
      <psa10 value="0.0135317521" flag="0"/>
      <psa30 value="0.0007491160" flag="0"/>
    </comp>
  </station>
  <station code="LOUT" name="LOUT" netid="HA" insttype="30" lat="37.9879" lon="22.9743">
    <comp name="--.HHZ">
      <acc value="0.0333025594" flag="0"/>
      <vel value="0.0142040889" flag="0"/>
      <psa03 value="0.0567421973" flag="0"/>
      <psa10 value="0.0076499539" flag="0"/>
      <psa30 value="0.0005185888" flag="0"/>
    </comp>
    <comp name="--.HHN">
      <acc value="0.0502026275" flag="0"/>
      <vel value="0.0229697770" flag="0"/>
      <psa03 value="0.0849280055" flag="0"/>
      <psa10 value="0.0233767381" flag="0"/>
      <psa30 value="0.0009553732" flag="0"/>
    </comp>
    <comp name="--.HHE">
      <acc value="0.0600957673" flag="0"/>
      <vel value="0.0269895304" flag="0"/>
      <psa03 value="0.0901663363" flag="0"/>
      <psa10 value="0.0409573802" flag="0"/>
      <psa30 value="0.0017964870" flag="0"/>
    </comp>
  </station>
  <station code="PRDM" name="PRDM" netid="HA" insttype="25" lat="38.2804" lon="22.847">
    <comp name="--.HHE">
      <acc value="0.0477875129" flag="0"/>
      <vel value="0.0083104059" flag="0"/>
      <psa03 value="0.0252850560" flag="0"/>
      <psa10 value="0.0037406131" flag="0"/>
      <psa30 value="0.0004087092" flag="0"/>
    </comp>
    <comp name="--.HHN">
      <acc value="0.0478872313" flag="0"/>
      <vel value="0.0080438091" flag="0"/>
      <psa03 value="0.0277542201" flag="0"/>
      <psa10 value="0.0075280086" flag="0"/>
      <psa30 value="0.0005701605" flag="0"/>
    </comp>
    <comp name="--.HHZ">
      <acc value="0.0185319424" flag="0"/>
      <vel value="0.0045809070" flag="0"/>
      <psa03 value="0.0190933264" flag="0"/>
      <psa10 value="0.0033853204" flag="0"/>
      <psa30 value="0.0002885765" flag="0"/>
    </comp>
  </station>
  <station code="THAL" name="THAL" netid="HA" insttype="30" lat="38.0357" lon="22.6634">
    <comp name="--.HHE">
      <acc value="0.1877467456" flag="0"/>
      <vel value="0.0743302615" flag="0"/>
      <psa03 value="0.2444592320" flag="0"/>
      <psa10 value="0.0670592705" flag="0"/>
      <psa30 value="0.0048896745" flag="0"/>
    </comp>
    <comp name="--.HHZ">
      <acc value="0.1186625668" flag="0"/>
      <vel value="0.0328674093" flag="0"/>
      <psa03 value="0.2170220955" flag="0"/>
      <psa10 value="0.0283622437" flag="0"/>
      <psa30 value="0.0014759755" flag="0"/>
    </comp>
    <comp name="--.HHN">
      <acc value="0.1782325036" flag="0"/>
      <vel value="0.0551313118" flag="0"/>
      <psa03 value="0.3162854383" flag="0"/>
      <psa10 value="0.0437979965" flag="0"/>
      <psa30 value="0.0027900742" flag="0"/>
    </comp>
  </station>
  <station code="VILL" name="VILL" netid="HA" insttype="Horizon,120s,1200" lat="38.1642" lon="23.3122">
    <comp name="--.HHE">
      <acc value="0.0232701243" flag="0"/>
      <vel value="0.0135149440" flag="0"/>
      <psa03 value="0.0378597516" flag="0"/>
      <psa10 value="0.0358391893" flag="0"/>
      <psa30 value="0.0013989565" flag="0"/>
    </comp>
    <comp name="--.HHZ">
      <acc value="0.0151228178" flag="0"/>
      <vel value="0.0072125955" flag="0"/>
      <psa03 value="0.0250788226" flag="0"/>
      <psa10 value="0.0065656100" flag="0"/>
      <psa30 value="0.0005048124" flag="0"/>
    </comp>
    <comp name="--.HHN">
      <acc value="0.0255832684" flag="0"/>
      <vel value="0.0150639737" flag="0"/>
      <psa03 value="0.0577456627" flag="0"/>
      <psa10 value="0.0186046583" flag="0"/>
      <psa30 value="0.0006618526" flag="0"/>
    </comp>
  </station>
  <station code="ARS1" name="ARS1" netid="HI" insttype="CMG-5TD,ACCELEROMETER,GURALP" lat="37.6349" lon="22.7293">
    <comp name="--.HNZ">
      <acc value="0.0711323848" flag="0"/>
      <vel value="0.0193320871" flag="0"/>
      <psa03 value="0.0972757615" flag="0"/>
      <psa10 value="0.0089038416" flag="0"/>
      <psa30 value="0.0007993674" flag="0"/>
    </comp>
    <comp name="--.HNE">
      <acc value="0.0658874590" flag="0"/>
      <vel value="0.0397684200" flag="0"/>
      <psa03 value="0.1378475767" flag="0"/>
      <psa10 value="0.0412403916" flag="0"/>
      <psa30 value="0.0021596083" flag="0"/>
    </comp>
    <comp name="--.HNN">
      <acc value="0.0685220775" flag="0"/>
      <vel value="0.0334585960" flag="0"/>
      <psa03 value="0.1530978387" flag="0"/>
      <psa10 value="0.0373479478" flag="0"/>
      <psa30 value="0.0015330259" flag="0"/>
    </comp>
  </station>
  <station code="LAM2" name="LAM2" netid="HI" insttype="CMG-5TD,ACCELEROMETER,GURALP" lat="38.902" lon="22.4313">
    <comp name="--.HNE">
      <acc value="0.0397103170" flag="0"/>
      <vel value="0.0123428141" flag="0"/>
      <psa03 value="0.0389301171" flag="0"/>
      <psa10 value="0.0105569255" flag="0"/>
      <psa30 value="0.0008591776" flag="0"/>
    </comp>
    <comp name="--.HNZ">
      <acc value="0.0297098360" flag="0"/>
      <vel value="0.0058442333" flag="0"/>
      <psa03 value="0.0168225653" flag="0"/>
      <psa10 value="0.0050215294" flag="0"/>
      <psa30 value="0.0005789542" flag="0"/>
    </comp>
    <comp name="--.HNN">
      <acc value="0.0370479213" flag="0"/>
      <vel value="0.0123817548" flag="0"/>
      <psa03 value="0.0495742859" flag="0"/>
      <psa10 value="0.0087308054" flag="0"/>
      <psa30 value="0.0006884874" flag="0"/>
    </comp>
  </station>
  <station code="MSL1" name="MSL1" netid="HI" insttype="CMG-5TD,ACCELEROMETER,GURALP" lat="38.3727" lon="21.4243">
    <comp name="--.HNZ">
      <acc value="0.0760618062" flag="0"/>
      <vel value="0.0381330117" flag="0"/>
      <psa03 value="0.1111440054" flag="0"/>
      <psa10 value="0.0611421925" flag="0"/>
      <psa30 value="0.0026518715" flag="0"/>
    </comp>
    <comp name="--.HNN">
      <acc value="0.2300149448" flag="0"/>
      <vel value="0.1332913628" flag="0"/>
      <psa03 value="0.2646360552" flag="0"/>
      <psa10 value="0.1480692755" flag="0"/>
      <psa30 value="0.0124034291" flag="0"/>
    </comp>
    <comp name="--.HNE">
      <acc value="0.2070533226" flag="0"/>
      <vel value="0.1160222311" flag="0"/>
      <psa03 value="0.3527349825" flag="0"/>
      <psa10 value="0.1143648811" flag="0"/>
      <psa30 value="0.0075853113" flag="0"/>
    </comp>
  </station>
  <station code="PYL1" name="PYL1" netid="HI" insttype="CMG-5TD,ACCELEROMETER,GURALP" lat="36.9142" lon="21.6952">
    <comp name="--.HNE">
      <acc value="0.0176682879" flag="0"/>
      <vel value="0.0118022775" flag="0"/>
      <psa03 value="0.0619146442" flag="0"/>
      <psa10 value="0.0073720266" flag="0"/>
      <psa30 value="0.0007023216" flag="0"/>
    </comp>
    <comp name="--.HNN">
