<?xml version="1.0" encoding="UTF-8" standalone="yes"?>
<!DOCTYPE earthquake SYSTEM "stationlist.dtd">
<stationlist created="" xmlns="ch.ethz.sed.shakemap.usgs.xml">
  <station code="AGRP" name="AGRP" netid="CL" insttype="CMG40-T" lat="38.3959" lon="21.7228">
    <comp name="00.HHZ">
      <acc value="0.2765581158" flag="0"/>
      <vel value="0.0546136525" flag="0"/>
      <psa03 value="0.1187840950" flag="0"/>
      <psa10 value="0.0342268254" flag="0"/>
      <psa30 value="0.0016698478" flag="0"/>
    </comp>
    <comp name="00.HHE">
      <acc value="0.1543831679" flag="0"/>
      <vel value="0.0810122741" flag="0"/>
      <psa03 value="0.3147976263" flag="0"/>
      <psa10 value="0.0493218428" flag="0"/>
      <psa30 value="0.0043952996" flag="0"/>
    </comp>
    <comp name="00.HHN">
      <acc value="0.1361242094" flag="0"/>
      <vel value="0.0632720202" flag="0"/>
      <psa03 value="0.2275527008" flag="0"/>
      <psa10 value="0.0556115375" flag="0"/>
      <psa30 value="0.0035030456" flag="0"/>
    </comp>
  </station>
  <station code="PSAM" name="PSAM" netid="CL" insttype="CMG40-T" lat="38.3218" lon="22.1842">
    <comp name="00.HHZ">
      <acc value="0.2024200446" flag="0"/>
      <vel value="0.0294504588" flag="0"/>
      <psa03 value="0.0427986651" flag="0"/>
      <psa10 value="0.0117397543" flag="0"/>
      <psa30 value="0.0008393766" flag="0"/>
    </comp>
    <comp name="00.HHE">
      <acc value="0.1472059847" flag="0"/>
      <vel value="0.0719230012" flag="0"/>
      <psa03 value="0.2406771286" flag="0"/>
      <psa10 value="0.0331343219" flag="0"/>
      <psa30 value="0.0030052139" flag="0"/>
    </comp>
    <comp name="00.HHN">
      <acc value="0.1313448468" flag="0"/>
      <vel value="0.0468329832" flag="0"/>
      <psa03 value="0.1064164193" flag="0"/>
      <psa10 value="0.0361847115" flag="0"/>
      <psa30 value="0.0017955873" flag="0"/>
    </comp>
  </station>
  <station code="ROD3" name="ROD3" netid="CL" insttype="CMG40-T" lat="38.3081" lon="21.892">
    <comp name="00.HHZ">
      <acc value="0.1450183820" flag="0"/>
      <vel value="0.0352542509" flag="0"/>
      <psa03 value="0.1195104144" flag="0"/>
      <psa10 value="0.0285545381" flag="0"/>
      <psa30 value="0.0020193808" flag="0"/>
    </comp>
    <comp name="00.HHN">
      <acc value="0.2734922566" flag="0"/>
      <vel value="0.1245054126" flag="0"/>
      <psa03 value="0.6767168755" flag="0"/>
      <psa10 value="0.0536698577" flag="0"/>
      <psa30 value="0.0067816937" flag="0"/>
    </comp>
    <comp name="00.HHE">
      <acc value="0.2614238863" flag="0"/>
      <vel value="0.0915912304" flag="0"/>
      <psa03 value="0.5302699608" flag="0"/>
      <psa10 value="0.0524901744" flag="0"/>
      <psa30 value="0.0052678340" flag="0"/>
    </comp>
  </station>
  <station code="TRIZ" name="TRIZ" netid="CL" insttype="STS-2" lat="38.3654" lon="22.0727">
    <comp name="00.HH3">
      <acc value="0.1005166364" flag="0"/>
      <vel value="0.0600557059" flag="0"/>
      <psa03 value="0.2110896044" flag="0"/>
      <psa10 value="0.0332058266" flag="0"/>
      <psa30 value="0.0031869979" flag="0"/>
    </comp>
    <comp name="00.HHZ">
      <acc value="0.1302013251" flag="0"/>
      <vel value="0.0300597121" flag="0"/>
      <psa03 value="0.1012082059" flag="0"/>
      <psa10 value="0.0138377094" flag="0"/>
      <psa30 value="0.0010498258" flag="0"/>
    </comp>
    <comp name="00.HH2">
      <acc value="0.0781976932" flag="0"/>
      <vel value="0.0451510656" flag="0"/>
      <psa03 value="0.2773894351" flag="0"/>
      <psa10 value="0.0217002963" flag="0"/>
      <psa30 value="0.0015031072" flag="0"/>
    </comp>
  </station>
  <station code="ZIRI" name="ZIRI" netid="CL" insttype="TRILLIUM-40" lat="38.3051" lon="21.9476">
    <comp name="01.HHN">
      <acc value="0.1531177714" flag="0"/>
      <vel value="0.0644505156" flag="0"/>
      <psa03 value="0.2973680903" flag="0"/>
      <psa10 value="0.0322413327" flag="0"/>
      <psa30 value="0.0034393442" flag="0"/>
    </comp>
    <comp name="01.HHE">
      <acc value="0.1486265233" flag="0"/>
      <vel value="0.0623157567" flag="0"/>
      <psa03 value="0.2458336880" flag="0"/>
      <psa10 value="0.0397155398" flag="0"/>
      <psa30 value="0.0034044108" flag="0"/>
    </comp>
    <comp name="01.HHZ">
      <acc value="0.1772060344" flag="0"/>
      <vel value="0.0424834393" flag="0"/>
      <psa03 value="0.2606425676" flag="0"/>
      <psa10 value="0.0117799055" flag="0"/>
      <psa30 value="0.0010815269" flag="0"/>
    </comp>
  </station>
  <station code="KLV" name="KLV" netid="MN" insttype="" lat="38.0437" lon="22.1504">
    <comp name="--.HHE">
      <acc value="0.0302587402" flag="0"/>
      <vel value="0.0137496150" flag="0"/>
      <psa03 value="0.0380533807" flag="0"/>
      <psa10 value="0.0183088379" flag="0"/>
      <psa30 value="0.0012471034" flag="0"/>
    </comp>
    <comp name="--.HHN">
      <acc value="0.0318359816" flag="0"/>
      <vel value="0.0204042872" flag="0"/>
      <psa03 value="0.0550636337" flag="0"/>
      <psa10 value="0.0238206651" flag="0"/>
      <psa30 value="0.0017040449" flag="0"/>
    </comp>
    <comp name="--.HHZ">
      <acc value="0.0317206031" flag="0"/>
      <vel value="0.0127371309" flag="0"/>
      <psa03 value="0.0308868244" flag="0"/>
      <psa10 value="0.0144356562" flag="0"/>
      <psa30 value="0.0007196738" flag="0"/>
    </comp>
  </station>
</stationlist>
