<?xml version="1.0" encoding="UTF-8" standalone="yes"?>
<!DOCTYPE earthquake SYSTEM "stationlist.dtd">
<stationlist created="" xmlns="ch.ethz.sed.shakemap.usgs.xml">
  <station code="AGRP" name="AGRP" netid="CL" insttype="CMG40-T" lat="38.3959" lon="21.7228">
    <comp name="00.HHZ">
      <acc value="0.2765581158" flag="0"/>
      <vel value="0.0546136525" flag="0"/>
      <psa03 value="0.1187840950" flag="0"/>
      <psa10 value="0.0342268254" flag="0"/>
      <psa30 value="0.0016698478" flag="0"/>
    </comp>
    <comp name="00.HHE">
      <acc value="0.1543831679" flag="0"/>
      <vel value="0.0810122741" flag="0"/>
      <psa03 value="0.3147976263" flag="0"/>
      <psa10 value="0.0493218428" flag="0"/>
      <psa30 value="0.0043952996" flag="0"/>
    </comp>
    <comp name="00.HHN">
      <acc value="0.1361242094" flag="0"/>
      <vel value="0.0632720202" flag="0"/>
      <psa03 value="0.2275527008" flag="0"/>
      <psa10 value="0.0556115375" flag="0"/>
      <psa30 value="0.0035030456" flag="0"/>
    </comp>
  </station>
  <station code="PSAM" name="PSAM" netid="CL" insttype="CMG40-T" lat="38.3218" lon="22.1842">
    <comp name="00.HHZ">
      <acc value="0.2024200446" flag="0"/>
      <vel value="0.0294504588" flag="0"/>
      <psa03 value="0.0427986651" flag="0"/>
      <psa10 value="0.0117397543" flag="0"/>
      <psa30 value="0.0008393766" flag="0"/>
    </comp>
    <comp name="00.HHE">
      <acc value="0.1472059847" flag="0"/>
      <vel value="0.0719230012" flag="0"/>
      <psa03 value="0.2406771286" flag="0"/>
      <psa10 value="0.0331343219" flag="0"/>
      <psa30 value="0.0030052139" flag="0"/>
    </comp>
    <comp name="00.HHN">
      <acc value="0.1313448468" flag="0"/>
      <vel value="0.0468329832" flag="0"/>
      <psa03 value="0.1064164193" flag="0"/>
      <psa10 value="0.0361847115" flag="0"/>
      <psa30 value="0.0017955873" flag="0"/>
    </comp>
  </station>
  <station code="ROD3" name="ROD3" netid="CL" insttype="CMG40-T" lat="38.3081" lon="21.892">
    <comp name="00.HHZ">
      <acc value="0.1450183820" flag="0"/>
      <vel value="0.0352542509" flag="0"/>
      <psa03 value="0.1195104144" flag="0"/>
      <psa10 value="0.0285545381" flag="0"/>
      <psa30 value="0.0020193808" flag="0"/>
    </comp>
    <comp name="00.HHN">
      <acc value="0.2734922566" flag="0"/>
      <vel value="0.1245054126" flag="0"/>
      <psa03 value="0.6767168755" flag="0"/>
      <psa10 value="0.0536698577" flag="0"/>
      <psa30 value="0.0067816937" flag="0"/>
    </comp>
    <comp name="00.HHE">
      <acc value="0.2614238863" flag="0"/>
      <vel value="0.0915912304" flag="0"/>
      <psa03 value="0.5302699608" flag="0"/>
      <psa10 value="0.0524901744" flag="0"/>
      <psa30 value="0.0052678340" flag="0"/>
    </comp>
  </station>
  <station code="TRIZ" name="TRIZ" netid="CL" insttype="STS-2" lat="38.3654" lon="22.0727">
    <comp name="00.HH3">
      <acc value="0.1005166364" flag="0"/>
      <vel value="0.0600557059" flag="0"/>
      <psa03 value="0.2110896044" flag="0"/>
      <psa10 value="0.0332058266" flag="0"/>
      <psa30 value="0.0031869979" flag="0"/>
    </comp>
    <comp name="00.HHZ">
      <acc value="0.1302013251" flag="0"/>
      <vel value="0.0300597121" flag="0"/>
      <psa03 value="0.1012082059" flag="0"/>
      <psa10 value="0.0138377094" flag="0"/>
      <psa30 value="0.0010498258" flag="0"/>
    </comp>
    <comp name="00.HH2">
      <acc value="0.0781976932" flag="0"/>
      <vel value="0.0451510656" flag="0"/>
      <psa03 value="0.2773894351" flag="0"/>
      <psa10 value="0.0217002963" flag="0"/>
      <psa30 value="0.0015031072" flag="0"/>
    </comp>
  </station>
  <station code="ZIRI" name="ZIRI" netid="CL" insttype="TRILLIUM-40" lat="38.3051" lon="21.9476">
    <comp name="01.HHN">
      <acc value="0.1531177714" flag="0"/>
      <vel value="0.0644505156" flag="0"/>
      <psa03 value="0.2973680903" flag="0"/>
      <psa10 value="0.0322413327" flag="0"/>
      <psa30 value="0.0034393442" flag="0"/>
    </comp>
    <comp name="01.HHE">
      <acc value="0.1486265233" flag="0"/>
      <vel value="0.0623157567" flag="0"/>
      <psa03 value="0.2458336880" flag="0"/>
      <psa10 value="0.0397155398" flag="0"/>
      <psa30 value="0.0034044108" flag="0"/>
    </comp>
    <comp name="01.HHZ">
      <acc value="0.1772060344" flag="0"/>
      <vel value="0.0424834393" flag="0"/>
      <psa03 value="0.2606425676" flag="0"/>
      <psa10 value="0.0117799055" flag="0"/>
      <psa30 value="0.0010815269" flag="0"/>
    </comp>
  </station>
  <station code="ACOR" name="ACOR" netid="HA" insttype="Horizon,120s,1200" lat="37.8905" lon="22.8694">
    <comp name="--.HHZ">
      <acc value="0.0158609527" flag="0"/>
      <vel value="0.0082315984" flag="0"/>
      <psa03 value="0.0320541757" flag="0"/>
      <psa10 value="0.0096178859" flag="0"/>
      <psa30 value="0.0007185103" flag="0"/>
    </comp>
    <comp name="--.HHE">
      <acc value="0.0305843437" flag="0"/>
      <vel value="0.0106839131" flag="0"/>
      <psa03 value="0.0328139983" flag="0"/>
      <psa10 value="0.0070845038" flag="0"/>
      <psa30 value="0.0008291890" flag="0"/>
    </comp>
    <comp name="--.HHN">
      <acc value="0.0203245474" flag="0"/>
      <vel value="0.0097417689" flag="0"/>
      <psa03 value="0.0574190601" flag="0"/>
      <psa10 value="0.0086756436" flag="0"/>
      <psa30 value="0.0007779176" flag="0"/>
    </comp>
  </station>
  <station code="AMPE" name="AMPE" netid="HA" insttype="1s-100Hz," lat="38.3015" lon="23.2688">
    <comp name="--.HHE">
      <acc value="0.0230285533" flag="0"/>
      <vel value="0.0162745201" flag="0"/>
      <psa03 value="0.0404095148" flag="0"/>
      <psa10 value="0.0289386799" flag="0"/>
      <psa30 value="0.0025761386" flag="0"/>
    </comp>
    <comp name="--.HHZ">
      <acc value="0.0379403804" flag="0"/>
      <vel value="0.0102687008" flag="0"/>
      <psa03 value="0.0251187846" flag="0"/>
      <psa10 value="0.0138424694" flag="0"/>
      <psa30 value="0.0015766445" flag="0"/>
    </comp>
    <comp name="--.HHN">
      <acc value="0.0207161374" flag="0"/>
      <vel value="0.0119423855" flag="0"/>
      <psa03 value="0.0339801413" flag="0"/>
      <psa10 value="0.0137624863" flag="0"/>
      <psa30 value="0.0021354221" flag="0"/>
    </comp>
  </station>
  <station code="ANTK" name="ANTK" netid="HA" insttype="25" lat="38.3605" lon="22.6385">
    <comp name="--.HHE">
      <acc value="0.0845789338" flag="0"/>
      <vel value="0.0283636139" flag="0"/>
      <psa03 value="0.0770065446" flag="0"/>
      <psa10 value="0.0204842168" flag="0"/>
      <psa30 value="0.0018341492" flag="0"/>
    </comp>
    <comp name="--.HHN">
      <acc value="0.0046927261" flag="0"/>
      <vel value="0.0009464863" flag="0"/>
      <psa03 value="0.0026044842" flag="0"/>
      <psa10 value="0.0002613497" flag="0"/>
      <psa30 value="0.0000212562" flag="0"/>
    </comp>
    <comp name="--.HHZ">
      <acc value="0.0364869427" flag="0"/>
      <vel value="0.0110553858" flag="0"/>
      <psa03 value="0.0446533877" flag="0"/>
      <psa10 value="0.0111321401" flag="0"/>
      <psa30 value="0.0007833266" flag="0"/>
    </comp>
  </station>
  <station code="ATAL" name="ATAL" netid="HA" insttype="120s," lat="38.6926" lon="23.0213">
    <comp name="--.HHE">
      <acc value="0.0214668154" flag="0"/>
      <vel value="0.0087624280" flag="0"/>
      <psa03 value="0.0260432932" flag="0"/>
      <psa10 value="0.0068402644" flag="0"/>
      <psa30 value="0.0007753152" flag="0"/>
    </comp>
    <comp name="--.HHN">
      <acc value="0.0237963811" flag="0"/>
      <vel value="0.0108227110" flag="0"/>
      <psa03 value="0.0273298149" flag="0"/>
      <psa10 value="0.0123615308" flag="0"/>
      <psa30 value="0.0007277493" flag="0"/>
    </comp>
    <comp name="--.HHZ">
      <acc value="0.0001089999" flag="0"/>
      <vel value="0.0000563209" flag="0"/>
      <psa03 value="0.0000674586" flag="0"/>
      <psa10 value="0.0000346928" flag="0"/>
      <psa30 value="0.0000248148" flag="0"/>
    </comp>
  </station>
  <station code="AXAR" name="AXAR" netid="HA" insttype="Horizon,120s,1200" lat="38.7664" lon="22.659">
    <comp name="--.HHE">
      <acc value="0.0604039684" flag="0"/>
      <vel value="0.0298801193" flag="0"/>
      <psa03 value="0.1152615634" flag="0"/>
      <psa10 value="0.0349583513" flag="0"/>
      <psa30 value="0.0023034225" flag="0"/>
    </comp>
    <comp name="--.HHZ">
      <acc value="0.0347287716" flag="0"/>
      <vel value="0.0210195359" flag="0"/>
      <psa03 value="0.0742094969" flag="0"/>
      <psa10 value="0.0303129374" flag="0"/>
      <psa30 value="0.0016206787" flag="0"/>
    </comp>
    <comp name="--.HHN">
      <acc value="0.0678523782" flag="0"/>
      <vel value="0.0353026927" flag="0"/>
      <psa03 value="0.1099203736" flag="0"/>
      <psa10 value="0.0556606782" flag="0"/>
      <psa30 value="0.0024055995" flag="0"/>
    </comp>
  </station>
  <station code="DOMV" name="DOMV" netid="HA" insttype="60" lat="38.2569" lon="22.9795">
    <comp name="--.HHN">
      <acc value="0.1182703395" flag="0"/>
      <vel value="0.0396563601" flag="0"/>
      <psa03 value="0.2616642187" flag="0"/>
      <psa10 value="0.0138598654" flag="0"/>
      <psa30 value="0.0008922525" flag="0"/>
    </comp>
    <comp name="--.HHZ">
      <acc value="0.1322121014" flag="0"/>
      <vel value="0.0353603722" flag="0"/>
      <psa03 value="0.1163304158" flag="0"/>
      <psa10 value="0.0243844566" flag="0"/>
      <psa30 value="0.0015427074" flag="0"/>
    </comp>
    <comp name="--.HHE">
      <acc value="0.1564311467" flag="0"/>
      <vel value="0.0497717638" flag="0"/>
      <psa03 value="0.1736292046" flag="0"/>
      <psa10 value="0.0474324195" flag="0"/>
      <psa30 value="0.0032039546" flag="0"/>
    </comp>
  </station>
  <station code="EPID" name="EPID" netid="HA" insttype="30" lat="37.6144" lon="23.1189">
    <comp name="--.HHE">
      <acc value="0.0564485749" flag="0"/>
      <vel value="0.0183757402" flag="0"/>
      <psa03 value="0.0914249389" flag="0"/>
      <psa10 value="0.0123872773" flag="0"/>
      <psa30 value="0.0008508589" flag="0"/>
    </comp>
    <comp name="--.HHZ">
      <acc value="0.0457272482" flag="0"/>
      <vel value="0.0148792066" flag="0"/>
      <psa03 value="0.0744433935" flag="0"/>
      <psa10 value="0.0149884479" flag="0"/>
      <psa30 value="0.0011651446" flag="0"/>
    </comp>
    <comp name="--.HHN">
      <acc value="0.0724621544" flag="0"/>
      <vel value="0.0157224874" flag="0"/>
      <psa03 value="0.0708126343" flag="0"/>
      <psa10 value="0.0074284310" flag="0"/>
      <psa30 value="0.0004817245" flag="0"/>
    </comp>
  </station>
  <station code="KALE" name="KALE" netid="HA" insttype="40," lat="38.3911" lon="22.1398">
    <comp name="--.HHE">
      <acc value="0.2198308209" flag="0"/>
      <vel value="0.0558153923" flag="0"/>
      <psa03 value="0.2541917790" flag="0"/>
      <psa10 value="0.0287546223" flag="0"/>
      <psa30 value="0.0019747342" flag="0"/>
    </comp>
    <comp name="--.HHN">
      <acc value="0.4456557849" flag="0"/>
      <vel value="0.0717217322" flag="0"/>
      <psa03 value="0.2323555244" flag="0"/>
      <psa10 value="0.0339739655" flag="0"/>
      <psa30 value="0.0023878279" flag="0"/>
    </comp>
    <comp name="--.HHZ">
      <acc value="0.5643296416" flag="0"/>
      <vel value="0.1111694988" flag="0"/>
      <psa03 value="0.2339661811" flag="0"/>
      <psa10 value="0.0140263289" flag="0"/>
      <psa30 value="0.0014500180" flag="0"/>
    </comp>
  </station>
  <station code="KIAS" name="KIAS" netid="HA" insttype="DC" lat="37.9875" lon="22.7543">
    <comp name="--.HNN">
      <acc value="0.1244128797" flag="0"/>
      <vel value="0.0353549632" flag="0"/>
      <psa03 value="0.1066061627" flag="0"/>
      <psa10 value="0.0310541404" flag="0"/>
      <psa30 value="0.0029829918" flag="0"/>
    </comp>
    <comp name="--.HNZ">
      <acc value="0.0916053600" flag="0"/>
      <vel value="0.0179029453" flag="0"/>
      <psa03 value="0.0625662606" flag="0"/>
      <psa10 value="0.0262959745" flag="0"/>
      <psa30 value="0.0014590898" flag="0"/>
    </comp>
    <comp name="--.HNE">
      <acc value="0.0985026540" flag="0"/>
      <vel value="0.0441069073" flag="0"/>
      <psa03 value="0.1118289284" flag="0"/>
      <psa10 value="0.0406791464" flag="0"/>
      <psa30 value="0.0023410239" flag="0"/>
    </comp>
  </station>
  <station code="LAKA" name="LAKA" netid="HA" insttype="120s," lat="38.2401" lon="21.9785">
    <comp name="--.HHE">
      <acc value="0.0435417204" flag="0"/>
      <vel value="0.0198229790" flag="0"/>
      <psa03 value="0.0793335173" flag="0"/>
      <psa10 value="0.0135317520" flag="0"/>
      <psa30 value="0.0007492445" flag="0"/>
    </comp>
    <comp name="--.HHN">
      <acc value="0.0480620024" flag="0"/>
      <vel value="0.0191049660" flag="0"/>
      <psa03 value="0.0768951803" flag="0"/>
      <psa10 value="0.0345687027" flag="0"/>
      <psa30 value="0.0030285466" flag="0"/>
    </comp>
    <comp name="--.HHZ">
      <acc value="0.0359974444" flag="0"/>
      <vel value="0.0101620890" flag="0"/>
      <psa03 value="0.0334306035" flag="0"/>
      <psa10 value="0.0143182348" flag="0"/>
      <psa30 value="0.0006295052" flag="0"/>
    </comp>
  </station>
  <station code="LOUT" name="LOUT" netid="HA" insttype="30" lat="37.9879" lon="22.9743">
    <comp name="--.HHZ">
      <acc value="0.0333025594" flag="0"/>
      <vel value="0.0142040877" flag="0"/>
      <psa03 value="0.0567421973" flag="0"/>
      <psa10 value="0.0076499537" flag="0"/>
      <psa30 value="0.0005186085" flag="0"/>
    </comp>
    <comp name="--.HHE">
      <acc value="0.0600957676" flag="0"/>
      <vel value="0.0269895191" flag="0"/>
      <psa03 value="0.0901663363" flag="0"/>
      <psa10 value="0.0409573801" flag="0"/>
      <psa30 value="0.0017963966" flag="0"/>
    </comp>
    <comp name="--.HHN">
      <acc value="0.0502026275" flag="0"/>
      <vel value="0.0229697728" flag="0"/>
      <psa03 value="0.0849280055" flag="0"/>
      <psa10 value="0.0233767374" flag="0"/>
      <psa30 value="0.0009553672" flag="0"/>
    </comp>
  </station>
  <station code="PRDM" name="PRDM" netid="HA" insttype="25" lat="38.2804" lon="22.847">
    <comp name="--.HHE">
      <acc value="0.0477875129" flag="0"/>
      <vel value="0.0083104058" flag="0"/>
      <psa03 value="0.0252850560" flag="0"/>
      <psa10 value="0.0037406131" flag="0"/>
      <psa30 value="0.0004086887" flag="0"/>
    </comp>
    <comp name="--.HHN">
      <acc value="0.0478872313" flag="0"/>
      <vel value="0.0080438073" flag="0"/>
      <psa03 value="0.0277542201" flag="0"/>
      <psa10 value="0.0075280086" flag="0"/>
      <psa30 value="0.0005701645" flag="0"/>
    </comp>
    <comp name="--.HHZ">
      <acc value="0.0185319424" flag="0"/>
      <vel value="0.0045809079" flag="0"/>
      <psa03 value="0.0190933264" flag="0"/>
      <psa10 value="0.0033853205" flag="0"/>
      <psa30 value="0.0002885611" flag="0"/>
    </comp>
  </station>
  <station code="THAL" name="THAL" netid="HA" insttype="30" lat="38.0357" lon="22.6634">
    <comp name="--.HHE">
      <acc value="0.1877467457" flag="0"/>
      <vel value="0.0743302592" flag="0"/>
      <psa03 value="0.2444592320" flag="0"/>
      <psa10 value="0.0670592703" flag="0"/>
      <psa30 value="0.0048899097" flag="0"/>
    </comp>
    <comp name="--.HHZ">
      <acc value="0.1186625672" flag="0"/>
      <vel value="0.0328674087" flag="0"/>
      <psa03 value="0.2170220955" flag="0"/>
      <psa10 value="0.0283622438" flag="0"/>
      <psa30 value="0.0014758986" flag="0"/>
    </comp>
    <comp name="--.HHN">
      <acc value="0.1782325039" flag="0"/>
      <vel value="0.0551313082" flag="0"/>
      <psa03 value="0.3162854383" flag="0"/>
      <psa10 value="0.0437979963" flag="0"/>
      <psa30 value="0.0027899076" flag="0"/>
    </comp>
  </station>
  <station code="VILL" name="VILL" netid="HA" insttype="Horizon,120s,1200" lat="38.1642" lon="23.3122">
    <comp name="--.HHE">
      <acc value="0.0232701241" flag="0"/>
      <vel value="0.0135149444" flag="0"/>
      <psa03 value="0.0378597516" flag="0"/>
      <psa10 value="0.0358391893" flag="0"/>
      <psa30 value="0.0013989201" flag="0"/>
    </comp>
    <comp name="--.HHN">
      <acc value="0.0255832684" flag="0"/>
      <vel value="0.0150639733" flag="0"/>
      <psa03 value="0.0577456627" flag="0"/>
      <psa10 value="0.0186046583" flag="0"/>
      <psa30 value="0.0006618132" flag="0"/>
    </comp>
    <comp name="--.HHZ">
      <acc value="0.0151228177" flag="0"/>
      <vel value="0.0072125953" flag="0"/>
      <psa03 value="0.0250788226" flag="0"/>
      <psa10 value="0.0065656100" flag="0"/>
      <psa30 value="0.0005048063" flag="0"/>
    </comp>
  </station>
  <station code="ARS1" name="ARS1" netid="HI" insttype="CMG-5TD,ACCELEROMETER,GURALP" lat="37.6349" lon="22.7293">
    <comp name="--.HNE">
      <acc value="0.0658874595" flag="0"/>
      <vel value="0.0397684200" flag="0"/>
      <psa03 value="0.1378475767" flag="0"/>
      <psa10 value="0.0412403913" flag="0"/>
      <psa30 value="0.0021593677" flag="0"/>
    </comp>
    <comp name="--.HNN">
      <acc value="0.0685220782" flag="0"/>
      <vel value="0.0334585974" flag="0"/>
      <psa03 value="0.1530978387" flag="0"/>
      <psa10 value="0.0373479477" flag="0"/>
      <psa30 value="0.0015328797" flag="0"/>
    </comp>
    <comp name="--.HNZ">
      <acc value="0.0711323848" flag="0"/>
      <vel value="0.0193320885" flag="0"/>
      <psa03 value="0.0972757615" flag="0"/>
      <psa10 value="0.0089038416" flag="0"/>
      <psa30 value="0.0007993486" flag="0"/>
    </comp>
  </station>
  <station code="LAM2" name="LAM2" netid="HI" insttype="CMG-5TD,ACCELEROMETER,GURALP" lat="38.902" lon="22.4313">
    <comp name="--.HNN">
      <acc value="0.0370479218" flag="0"/>
      <vel value="0.0123817548" flag="0"/>
      <psa03 value="0.0495742859" flag="0"/>
      <psa10 value="0.0087308053" flag="0"/>
      <psa30 value="0.0006883987" flag="0"/>
    </comp>
    <comp name="--.HNE">
      <acc value="0.0397103168" flag="0"/>
      <vel value="0.0123428177" flag="0"/>
      <psa03 value="0.0389301171" flag="0"/>
      <psa10 value="0.0105569255" flag="0"/>
      <psa30 value="0.0008593911" flag="0"/>
    </comp>
    <comp name="--.HNZ">
      <acc value="0.0297098357" flag="0"/>
      <vel value="0.0058442332" flag="0"/>
      <psa03 value="0.0168225653" flag="0"/>
      <psa10 value="0.0050215294" flag="0"/>
      <psa30 value="0.0005788871" flag="0"/>
    </comp>
  </station>
  <station code="MSL1" name="MSL1" netid="HI" insttype="CMG-5TD,ACCELEROMETER,GURALP" lat="38.3727" lon="21.4243">
    <comp name="--.HNE">
      <acc value="0.2070533232" flag="0"/>
      <vel value="0.1160222364" flag="0"/>
      <psa03 value="0.3527349825" flag="0"/>
      <psa10 value="0.1143648811" flag="0"/>
      <psa30 value="0.0075870962" flag="0"/>
    </comp>
    <comp name="--.HNN">
      <acc value="0.2300149438" flag="0"/>
      <vel value="0.1332913602" flag="0"/>
      <psa03 value="0.2646360552" flag="0"/>
      <psa10 value="0.1480692752" flag="0"/>
      <psa30 value="0.0124031082" flag="0"/>
    </comp>
    <comp name="--.HNZ">
      <acc value="0.0760618076" flag="0"/>
      <vel value="0.0381330117" flag="0"/>
      <psa03 value="0.1111440054" flag="0"/>
      <psa10 value="0.0611421927" flag="0"/>
      <psa30 value="0.0026520156" flag="0"/>
    </comp>
  </station>
  <station code="PYL1" name="PYL1" netid="HI" insttype="CMG-5TD,ACCELEROMETER,GURALP" lat="36.9142" lon="21.6952">
    <comp name="--.HNE">
      <acc value="0.0176682883" flag="0"/>
      <vel value="0.0118022791" flag="0"/>
      <psa03 value="0.0619146442" flag="0"/>
      <psa10 value="0.0073720265" flag="0"/>
      <psa30 value="0.0007024304" flag="0"/>
    </comp>
    <comp name="--.HNN">
