<stationlist xmlns:esm="https://esm-db.eu/esmws/shakemap/1/" created="1784080636">
	<station code="AGRP" name="AGRP" netid="CL" source="Corinth Riff Laboratory (CRLNET)" insttype="" lat="38.3959" lon="21.72277" esm:processing="manual (Paolucci et al 2011)" esm:quality="best">
		<comp name="00.HNE" depth="0.0">
			<acc value="0.158967386918126" flag="0"/>
			<vel value="0.0800019859995745" flag="0"/>
			<psa03 value="0.301152762392581" flag="0"/>
			<psa10 value="0.0504534835457638" flag="0"/>
			<psa30 value="0.00421954910775223" flag="0"/>
		</comp>
		<comp name="00.HNN" depth="0.0">
			<acc value="0.139166454893278" flag="0"/>
			<vel value="0.0607043045172924" flag="0"/>
			<psa03 value="0.227596785503416" flag="0"/>
			<psa10 value="0.052262764651495" flag="0"/>
			<psa30 value="0.00335417823951218" flag="0"/>
		</comp>
		<comp name="00.HNZ" depth="0.0">
			<acc value="0.262450692348497" flag="0"/>
			<vel value="0.0530947848904425" flag="0"/>
			<psa03 value="0.1171745122362" flag="0"/>
			<psa10 value="0.0330318506979911" flag="0"/>
			<psa30 value="0.00157432877071931" flag="0"/>
		</comp>
	</station>
	<station code="MALA" name="MALA" netid="CL" source="Corinth Riff Laboratory (CRLNET)" insttype="" lat="38.39341" lon="21.87263" esm:processing="manual (Paolucci et al 2011)" esm:quality="good">
		<comp name="00.HNE" depth="0.0">
			<acc value="0.168309559775263" flag="0"/>
			<vel value="0.108414425683837" flag="0"/>
			<psa03 value="0.28118250196066" flag="0"/>
			<psa10 value="0.132815948404654" flag="0"/>
			<psa30 value="0.00880866269733937" flag="0"/>
		</comp>
		<comp name="00.HNN" depth="0.0">
			<acc value="0.130592957264752" flag="0"/>
			<vel value="0.0922819684343077" flag="0"/>
			<psa03 value="0.203513835959331" flag="0"/>
			<psa10 value="0.156066483638642" flag="0"/>
			<psa30 value="0.00932235922723119" flag="0"/>
		</comp>
		<comp name="00.HNZ" depth="0.0">
			<acc value="0.151976979716373" flag="0"/>
			<vel value="0.0324526748267748" flag="0"/>
			<psa03 value="0.114156614398875" flag="0"/>
			<psa10 value="0.0175921210166833" flag="0"/>
			<psa30 value="0.00182900157904358" flag="0"/>
		</comp>
	</station>
	<station code="ROD3" name="ROD3" netid="CL" source="Corinth Riff Laboratory (CRLNET)" insttype="" lat="38.30811" lon="21.89204" esm:processing="manual (Paolucci et al 2011)" esm:quality="best">
		<comp name="00.HNE" depth="0.0">
			<acc value="0.205855882089481" flag="0"/>
			<vel value="0.0716147498123707" flag="0"/>
			<psa03 value="0.440897998995161" flag="0"/>
			<psa10 value="0.0427486281367731" flag="0"/>
			<psa30 value="0.00455271409496163" flag="0"/>
		</comp>
		<comp name="00.HNN" depth="0.0">
			<acc value="0.22640723435797" flag="0"/>
			<vel value="0.102717769099716" flag="0"/>
			<psa03 value="0.564085659575055" flag="0"/>
			<psa10 value="0.0442526277692718" flag="0"/>
			<psa30 value="0.00609344241064725" flag="0"/>
		</comp>
		<comp name="00.HNZ" depth="0.0">
			<acc value="0.120540414353984" flag="0"/>
			<vel value="0.0285451263666083" flag="0"/>
			<psa03 value="0.0963787908721015" flag="0"/>
			<psa10 value="0.0239416966448983" flag="0"/>
			<psa30 value="0.00185522894147755" flag="0"/>
		</comp>
	</station>
	<station code="TRIZ" name="TRIZ" netid="CL" source="Corinth Riff Laboratory (CRLNET)" insttype="" lat="38.36543" lon="22.07272" esm:processing="manual (Paolucci et al 2011)" esm:quality="best">
		<comp name="00.HNE" depth="0.0">
			<acc value="0.0710940983854063" flag="0"/>
			<vel value="0.0295030507415094" flag="0"/>
			<psa03 value="0.211707712097086" flag="0"/>
			<psa10 value="0.0166519393592717" flag="0"/>
			<psa30 value="0.00154445387499057" flag="0"/>
		</comp>
		<comp name="00.HNN" depth="0.0">
			<acc value="0.119185356785011" flag="0"/>
			<vel value="0.0725878511144678" flag="0"/>
			<psa03 value="0.290413905162584" flag="0"/>
			<psa10 value="0.0326672890475644" flag="0"/>
			<psa30 value="0.00321906991424846" flag="0"/>
		</comp>
		<comp name="00.HNZ" depth="0.0">
			<acc value="0.129442617151984" flag="0"/>
			<vel value="0.0298150622521359" flag="0"/>
			<psa03 value="0.102759046865866" flag="0"/>
			<psa10 value="0.0142134265697448" flag="0"/>
			<psa30 value="0.00104218633139493" flag="0"/>
		</comp>
	</station>
	<station code="ATHU" name="ATHU" netid="HA" source="Hellenic Seismological Network, University of Athens, Seismological Laboratory (HA)" insttype="" lat="37.9665" lon="23.7845" esm:processing="manual (Paolucci et al 2011)" esm:quality="good">
		<comp name="--.HNE" depth="0.0">
			<acc value="0.000781751021745106" flag="0"/>
			<vel value="0.000308187749045961" flag="0"/>
			<psa03 value="0.00082786896986045" flag="0"/>
			<psa10 value="0.000242060605639652" flag="0"/>
			<psa30 value="2.94404398679884e-05" flag="0"/>
		</comp>
		<comp name="--.HNN" depth="0.0">
			<acc value="0.000650815867256117" flag="0"/>
			<vel value="0.000180355933639477" flag="0"/>
			<psa03 value="0.000505810240844505" flag="0"/>
			<psa10 value="0.000117916453964496" flag="0"/>
			<psa30 value="3.66746267796594e-05" flag="0"/>
		</comp>
		<comp name="--.HNZ" depth="0.0">
			<acc value="0.000583050659081609" flag="0"/>
			<vel value="0.000242962732792855" flag="0"/>
			<psa03 value="0.000643775231585024" flag="0"/>
			<psa10 value="0.000187367934667055" flag="0"/>
			<psa30 value="2.78768499597057e-05" flag="0"/>
		</comp>
	</station>
	<station code="KIAS" name="KIAS" netid="HA" source="Hellenic Seismological Network, University of Athens, Seismological Laboratory (HA)" insttype="" lat="37.9875" lon="22.7543" esm:processing="manual (Paolucci et al 2011)" esm:quality="best">
		<comp name="--.HNE" depth="0.0">
			<acc value="0.100748444579435" flag="0"/>
			<vel value="0.0448049080321677" flag="0"/>
			<psa03 value="0.116071241233577" flag="0"/>
			<psa10 value="0.0407211463261505" flag="0"/>
			<psa30 value="0.00240504557246686" flag="0"/>
		</comp>
		<comp name="--.HNN" depth="0.0">
			<acc value="0.125906219729739" flag="0"/>
			<vel value="0.0360322906101793" flag="0"/>
			<psa03 value="0.107704707825146" flag="0"/>
			<psa10 value="0.0310772812173491" flag="0"/>
			<psa30 value="0.00326523068050958" flag="0"/>
		</comp>
		<comp name="--.HNZ" depth="0.0">
			<acc value="0.0928416515541946" flag="0"/>
			<vel value="0.0180103125480072" flag="0"/>
			<psa03 value="0.0634399734204391" flag="0"/>
			<psa10 value="0.0262416246288259" flag="0"/>
			<psa30 value="0.00141525958733577" flag="0"/>
		</comp>
	</station>
	<station code="AGR3" name="AGR3" netid="HI" source="ITSAK Strong Motion Network" insttype="" lat="38.5893" lon="21.4162" esm:processing="manual (Paolucci et al 2011)" esm:quality="best">
		<comp name="--.HNE" depth="0.0">
			<acc value="0.289853394430248" flag="0"/>
			<vel value="0.0959971402627149" flag="0"/>
			<psa03 value="0.313503684747128" flag="0"/>
			<psa10 value="0.068935184117433" flag="0"/>
			<psa30 value="0.00851762008385036" flag="0"/>
		</comp>
		<comp name="--.HNN" depth="0.0">
			<acc value="0.257247211265866" flag="0"/>
			<vel value="0.193421204914476" flag="0"/>
			<psa03 value="0.461992979769733" flag="0"/>
			<psa10 value="0.14999282128833" flag="0"/>
			<psa30 value="0.0105257772810775" flag="0"/>
		</comp>
		<comp name="--.HNZ" depth="0.0">
			<acc value="0.157003317667069" flag="0"/>
			<vel value="0.0531009953510445" flag="0"/>
			<psa03 value="0.138706532377218" flag="0"/>
			<psa10 value="0.0363630501236023" flag="0"/>
			<psa30 value="0.00551573622378749" flag="0"/>
		</comp>
	</station>
	<station code="AIG2" name="AIG2" netid="HI" source="ITSAK Strong Motion Network" insttype="" lat="38.2417" lon="22.0726" esm:processing="manual (Paolucci et al 2011)" esm:quality="best">
		<comp name="--.HNE" depth="0.0">
			<acc value="0.0874620397965898" flag="0"/>
			<vel value="0.0209771708119886" flag="0"/>
			<psa03 value="0.116981561954269" flag="0"/>
			<psa10 value="0.03156735243219" flag="0"/>
			<psa30 value="0.0016749082461172" flag="0"/>
		</comp>
		<comp name="--.HNN" depth="0.0">
			<acc value="0.0563085704599286" flag="0"/>
			<vel value="0.0194317867181694" flag="0"/>
			<psa03 value="0.0868443780140287" flag="0"/>
			<psa10 value="0.0326030997953701" flag="0"/>
			<psa30 value="0.00209635262307449" flag="0"/>
		</comp>
		<comp name="--.HNZ" depth="0.0">
			<acc value="0.10464005919651" flag="0"/>
			<vel value="0.0238302290360398" flag="0"/>
			<psa03 value="0.0578921892402598" flag="0"/>
			<psa10 value="0.015496321867756" flag="0"/>
			<psa30 value="0.000888022577139105" flag="0"/>
		</comp>
	</station>
	<station code="AOL1" name="AOL1" netid="HI" source="ITSAK Strong Motion Network" insttype="" lat="37.642378" lon="21.624555" esm:processing="manual (Paolucci et al 2011)" esm:quality="best">
		<comp name="--.HNE" depth="0.0">
			<acc value="0.160396285360758" flag="0"/>
			<vel value="0.0617438259787222" flag="0"/>
			<psa03 value="0.420665658701872" flag="0"/>
			<psa10 value="0.0610219349038839" flag="0"/>
			<psa30 value="0.00316553032584832" flag="0"/>
		</comp>
		<comp name="--.HNN" depth="0.0">
			<acc value="0.178102651111664" flag="0"/>
			<vel value="0.0708721715359436" flag="0"/>
			<psa03 value="0.377841613485958" flag="0"/>
			<psa10 value="0.0839026731402035" flag="0"/>
			<psa30 value="0.00505240928063496" flag="0"/>
		</comp>
		<comp name="--.HNZ" depth="0.0">
			<acc value="0.117633221598541" flag="0"/>
			<vel value="0.0524591664551992" flag="0"/>
			<psa03 value="0.283261806371338" flag="0"/>
			<psa10 value="0.0383882105305387" flag="0"/>
			<psa30 value="0.00229012191766989" flag="0"/>
		</comp>
	</station>
	<station code="ARG2" name="ARG2" netid="HI" source="ITSAK Strong Motion Network" insttype="" lat="38.1783" lon="20.4878" esm:processing="manual (Paolucci et al 2011)" esm:quality="good">
		<comp name="--.HNE" depth="0.0">
			<acc value="0.0800047597565235" flag="0"/>
			<vel value="0.0255796758769813" flag="0"/>
			<psa03 value="0.151194922171568" flag="0"/>
			<psa10 value="0.00914716720493536" flag="0"/>
			<psa30 value="0.000538565833593331" flag="0"/>
		</comp>
		<comp name="--.HNN" depth="0.0">
			<acc value="0.067917681237849" flag="0"/>
			<vel value="0.0209296498167329" flag="0"/>
			<psa03 value="0.120317835049416" flag="0"/>
			<psa10 value="0.00954771530178098" flag="0"/>
			<psa30 value="0.000569202394365126" flag="0"/>
		</comp>
		<comp name="--.HNZ" depth="0.0">
			<acc value="0.0733792389620007" flag="0"/>
			<vel value="0.0142174610425221" flag="0"/>
			<psa03 value="0.127816613056657" flag="0"/>
			<psa10 value="0.00692097519939057" flag="0"/>
			<psa30 value="0.000326051547231493" flag="0"/>
		</comp>
	</station>
	<station code="ARS1" name="ARS1" netid="HI" source="ITSAK Strong Motion Network" insttype="" lat="37.6349" lon="22.7293" esm:processing="manual (Paolucci et al 2011)" esm:quality="best">
		<comp name="--.HNE" depth="0.0">
			<acc value="0.0662801392707581" flag="0"/>
			<vel value="0.0396752828324559" flag="0"/>
			<psa03 value="0.139394984233455" flag="0"/>
			<psa10 value="0.0413265301798303" flag="0"/>
			<psa30 value="0.00231962887236365" flag="0"/>
		</comp>
		<comp name="--.HNN" depth="0.0">
			<acc value="0.069069011831087" flag="0"/>
			<vel value="0.0333739729229628" flag="0"/>
			<psa03 value="0.154240582264791" flag="0"/>
			<psa10 value="0.0373901944168961" flag="0"/>
			<psa30 value="0.00158640957101605" flag="0"/>
		</comp>
		<comp name="--.HNZ" depth="0.0">
			<acc value="0.0708958490579333" flag="0"/>
			<vel value="0.019402719093278" flag="0"/>
			<psa03 value="0.0987000696452444" flag="0"/>
			<psa10 value="0.00894739053320956" flag="0"/>
			<psa30 value="0.000864372572940391" flag="0"/>
		</comp>
	</station>
	<station code="ART2" name="ART2" netid="HI" source="ITSAK Strong Motion Network" insttype="" lat="39.1474" lon="20.9937" esm:processing="automatic (Paolucci et al 2011)" esm:quality="best">
		<comp name="--.HNE" depth="0.0">
			<acc value="0.0113108014733108" flag="0"/>
			<vel value="0.00286505880499348" flag="0"/>
			<psa03 value="0.0116415303088444" flag="0"/>
			<psa10 value="0.00229505453610055" flag="0"/>
			<psa30 value="0.000311940143670474" flag="0"/>
		</comp>
		<comp name="--.HNN" depth="0.0">
			<acc value="0.011250989410726" flag="0"/>
			<vel value="0.00271463166052759" flag="0"/>
			<psa03 value="0.0104811734929764" flag="0"/>
			<psa10 value="0.0031110228087423" flag="0"/>
			<psa30 value="0.000318363537938811" flag="0"/>
		</comp>
		<comp name="--.HNZ" depth="0.0">
			<acc value="0.00710965303261172" flag="0"/>
			<vel value="0.00247051018324485" flag="0"/>
			<psa03 value="0.00754926116922682" flag="0"/>
			<psa10 value="0.0038639559681203" flag="0"/>
			<psa30 value="0.000268389394063543" flag="0"/>
		</comp>
	</station>
	<station code="ATH5" name="ATH5" netid="HI" source="ITSAK Strong Motion Network" insttype="" lat="37.975421" lon="23.737098" esm:processing="automatic (Paolucci et al 2011)" esm:quality="best">
		<comp name="--.HNE" depth="0.0">
			<acc value="0.00842110132810952" flag="0"/>
			<vel value="0.00666343339570725" flag="0"/>
			<psa03 value="0.0174457598626584" flag="0"/>
			<psa10 value="0.00744304728412112" flag="0"/>
			<psa30 value="0.000666458680865991" flag="0"/>
		</comp>
		<comp name="--.HNN" depth="0.0">
			<acc value="0.0114498785596804" flag="0"/>
			<vel value="0.00590216482286621" flag="0"/>
			<psa03 value="0.0286172941927918" flag="0"/>
			<psa10 value="0.0041319201256992" flag="0"/>
			<psa30 value="0.00063724336008073" flag="0"/>
		</comp>
		<comp name="--.HNZ" depth="0.0">
			<acc value="0.00894968280209153" flag="0"/>
			<vel value="0.00417626253131443" flag="0"/>
			<psa03 value="0.013416490339146" flag="0"/>
			<psa10 value="0.00361444865823321" flag="0"/>
			<psa30 value="0.000711508800634358" flag="0"/>
		</comp>
	</station>
	<station code="GTH2" name="GTH2" netid="HI" source="ITSAK Strong Motion Network" insttype="" lat="36.7603" lon="22.5659" esm:processing="manual (Paolucci et al 2011)" esm:quality="good">
		<comp name="--.HNE" depth="0.0">
			<acc value="0.0240770420515622" flag="0"/>
			<vel value="0.0126222980528267" flag="0"/>
			<psa03 value="0.077341691215803" flag="0"/>
			<psa10 value="0.01165793696861" flag="0"/>
			<psa30 value="0.000685371756681916" flag="0"/>
		</comp>
		<comp name="--.HNN" depth="0.0">
			<acc value="0.0281125249273853" flag="0"/>
			<vel value="0.0145647921227442" flag="0"/>
			<psa03 value="0.0847882261788653" flag="0"/>
			<psa10 value="0.0150897921246714" flag="0"/>
			<psa30 value="0.000642272391143804" flag="0"/>
		</comp>
		<comp name="--.HNZ" depth="0.0">
			<acc value="0.015915256626969" flag="0"/>
			<vel value="0.00719515993671651" flag="0"/>
			<psa03 value="0.0427033002382305" flag="0"/>
			<psa10 value="0.00636395173681991" flag="0"/>
			<psa30 value="0.000374448190771609" flag="0"/>
		</comp>
	</station>
	<station code="ITC1" name="ITC1" netid="HI" source="ITSAK Strong Motion Network" insttype="" lat="38.3647" lon="20.7156" esm:processing="manual (Paolucci et al 2011)" esm:quality="good">
		<comp name="--.HNE" depth="0.0">
			<acc value="0.0540110981077983" flag="0"/>
			<vel value="0.0138300245001657" flag="0"/>
			<psa03 value="0.098166628057332" flag="0"/>
			<psa10 value="0.0064374191036724" flag="0"/>
			<psa30 value="0.000462601582584515" flag="0"/>
		</comp>
		<comp name="--.HNN" depth="0.0">
			<acc value="0.0670859325201388" flag="0"/>
			<vel value="0.0156932860069384" flag="0"/>
			<psa03 value="0.101527194428361" flag="0"/>
			<psa10 value="0.00573760493191803" flag="0"/>
			<psa30 value="0.000474748428920138" flag="0"/>
		</comp>
		<comp name="--.HNZ" depth="0.0">
			<acc value="0.0389809498455797" flag="0"/>
			<vel value="0.00989079785643847" flag="0"/>
			<psa03 value="0.0518070934240166" flag="0"/>
			<psa10 value="0.00437073875874229" flag="0"/>
			<psa30 value="0.000308056527024719" flag="0"/>
		</comp>
	</station>
	<station code="JAN2" name="JAN2" netid="HI" source="ITSAK Strong Motion Network" insttype="" lat="39.664" lon="20.85222" esm:processing="automatic (Paolucci et al 2011)" esm:quality="best">
		<comp name="--.HNE" depth="0.0">
			<acc value="0.00612074072027589" flag="0"/>
			<vel value="0.00376126548950409" flag="0"/>
			<psa03 value="0.0159739514250572" flag="0"/>
			<psa10 value="0.00281687933880792" flag="0"/>
			<psa30 value="0.00051145987129164" flag="0"/>
		</comp>
		<comp name="--.HNN" depth="0.0">
			<acc value="0.00625390634026" flag="0"/>
			<vel value="0.00337396547655374" flag="0"/>
			<psa03 value="0.0163231308064939" flag="0"/>
			<psa10 value="0.00246124562357035" flag="0"/>
			<psa30 value="0.00024363936907927" flag="0"/>
		</comp>
		<comp name="--.HNZ" depth="0.0">
			<acc value="0.00590685199081079" flag="0"/>
			<vel value="0.00176829068777067" flag="0"/>
			<psa03 value="0.00518325645124441" flag="0"/>
			<psa10 value="0.0026686901469998" flag="0"/>
			<psa30 value="0.000212010424858268" flag="0"/>
		</comp>
	</station>
	<station code="JAN3" name="JAN3" netid="HI" source="ITSAK Strong Motion Network" insttype="" lat="39.684" lon="20.8379" esm:processing="manual (Paolucci et al 2011)" esm:quality="good">
		<comp name="--.HNE" depth="0.0">
			<acc value="0.00997926751939302" flag="0"/>
			<vel value="0.00404017511622808" flag="0"/>
			<psa03 value="0.0184736938436363" flag="0"/>
			<psa10 value="0.00227707748583312" flag="0"/>
			<psa30 value="0.000378576875735058" flag="0"/>
		</comp>
		<comp name="--.HNN" depth="0.0">
			<acc value="0.00979464982931592" flag="0"/>
			<vel value="0.00493462622557334" flag="0"/>
			<psa03 value="0.0170591483140205" flag="0"/>
			<psa10 value="0.00364064390916663" flag="0"/>
			<psa30 value="0.000258784434865428" flag="0"/>
		</comp>
		<comp name="--.HNZ" depth="0.0">
			<acc value="0.00914392853769313" flag="0"/>
			<vel value="0.00215082741941358" flag="0"/>
			<psa03 value="0.0072316594004858" flag="0"/>
			<psa10 value="0.00190918772431693" flag="0"/>
			<psa30 value="0.000193867413077164" flag="0"/>
		</comp>
	</station>
	<station code="KAR2" name="KAR2" netid="HI" source="ITSAK Strong Motion Network" insttype="" lat="39.365759" lon="21.91933" esm:processing="automatic (Paolucci et al 2011)" esm:quality="best">
		<comp name="--.HNE" depth="0.0">
			<acc value="0.0191030475729933" flag="0"/>
			<vel value="0.00652929772139628" flag="0"/>
			<psa03 value="0.0317151790999849" flag="0"/>
			<psa10 value="0.0137970786762426" flag="0"/>
			<psa30 value="0.00233995959417116" flag="0"/>
		</comp>
		<comp name="--.HNN" depth="0.0">
			<acc value="0.0235178750545742" flag="0"/>
			<vel value="0.00968246872666036" flag="0"/>
			<psa03 value="0.0235935056622773" flag="0"/>
			<psa10 value="0.0144728546930758" flag="0"/>
			<psa30 value="0.00288266596247468" flag="0"/>
		</comp>
		<comp name="--.HNZ" depth="0.0">
			<acc value="0.01156208050187" flag="0"/>
			<vel value="0.00382650985353167" flag="0"/>
			<psa03 value="0.0118656962003804" flag="0"/>
			<psa10 value="0.00702020396032543" flag="0"/>
			<psa30 value="0.000648803657142675" flag="0"/>
		</comp>
	</station>
	<station code="KIF1" name="KIF1" netid="HI" source="ITSAK Strong Motion Network" insttype="" lat="38.077273" lon="23.814551" esm:processing="automatic (Paolucci et al 2011)" esm:quality="best">
		<comp name="--.HNE" depth="0.0">
			<acc value="0.0183398613016" flag="0"/>
			<vel value="0.00986263988968429" flag="0"/>
			<psa03 value="0.0487392183171505" flag="0"/>
			<psa10 value="0.0104163815966591" flag="0"/>
			<psa30 value="0.00108279120877144" flag="0"/>
		</comp>
		<comp name="--.HNN" depth="0.0">
			<acc value="0.0165803980539106" flag="0"/>
			<vel value="0.00855907356063718" flag="0"/>
			<psa03 value="0.0396497594144513" flag="0"/>
			<psa10 value="0.00983385550718474" flag="0"/>
			<psa30 value="0.000715927426679435" flag="0"/>
		</comp>
		<comp name="--.HNZ" depth="0.0">
			<acc value="0.0125366316074654" flag="0"/>
			<vel value="0.00488901558219276" flag="0"/>
