<?xml version="1.0" encoding="UTF-8" standalone="yes"?>
<!DOCTYPE earthquake SYSTEM "stationlist.dtd">
<stationlist created="" xmlns="ch.ethz.sed.shakemap.usgs.xml">
  <station code="BHB" name="BHB" netid="GU" insttype="" lat="44.8355" lon="7.263">
    <comp name="--.HHZ">
      <acc value="0.3888837412" flag="0"/>
      <vel value="0.0458194485" flag="0"/>
      <psa03 value="0.0593828863" flag="0"/>
      <psa10 value="0.0100364742" flag="0"/>
      <psa30 value="0.0007059498" flag="0"/>
    </comp>
    <comp name="--.HHE">
      <acc value="0.2263746910" flag="0"/>
      <vel value="0.0345938722" flag="0"/>
      <psa03 value="0.0691793090" flag="0"/>
      <psa10 value="0.0107061306" flag="0"/>
      <psa30 value="0.0006904006" flag="0"/>
    </comp>
    <comp name="--.HHN">
      <acc value="0.2066571963" flag="0"/>
      <vel value="0.0376283740" flag="0"/>
      <psa03 value="0.1149106068" flag="0"/>
      <psa10 value="0.0107029665" flag="0"/>
      <psa30 value="0.0008057175" flag="0"/>
    </comp>
  </station>
  <station code="BURY" name="BURY" netid="GU" insttype="" lat="43.7825" lon="7.557">
    <comp name="--.HHN">
      <acc value="0.0115420955" flag="0"/>
      <vel value="0.0027787324" flag="0"/>
      <psa03 value="0.0234897885" flag="0"/>
      <psa10 value="0.0014495864" flag="0"/>
      <psa30 value="0.0001572708" flag="0"/>
    </comp>
    <comp name="--.HHE">
      <acc value="0.0112226387" flag="0"/>
      <vel value="0.0032710168" flag="0"/>
      <psa03 value="0.0240442979" flag="0"/>
      <psa10 value="0.0018415016" flag="0"/>
      <psa30 value="0.0002315808" flag="0"/>
    </comp>
    <comp name="--.HHZ">
      <acc value="0.0081512752" flag="0"/>
      <vel value="0.0019926470" flag="0"/>
      <psa03 value="0.0136473252" flag="0"/>
      <psa10 value="0.0017975258" flag="0"/>
      <psa30 value="0.0001405591" flag="0"/>
    </comp>
  </station>
  <station code="CANO" name="CANO" netid="GU" insttype="" lat="44.2075" lon="8.2372">
    <comp name="--.HHE">
      <acc value="0.0153801501" flag="0"/>
      <vel value="0.0053200248" flag="0"/>
      <psa03 value="0.0292144956" flag="0"/>
      <psa10 value="0.0040032038" flag="0"/>
      <psa30 value="0.0001719562" flag="0"/>
    </comp>
    <comp name="--.HHN">
      <acc value="0.0128768811" flag="0"/>
      <vel value="0.0045705885" flag="0"/>
      <psa03 value="0.0306911467" flag="0"/>
      <psa10 value="0.0024658817" flag="0"/>
      <psa30 value="0.0001046852" flag="0"/>
    </comp>
    <comp name="--.HHZ">
      <acc value="0.0208432621" flag="0"/>
      <vel value="0.0031474052" flag="0"/>
      <psa03 value="0.0153898888" flag="0"/>
      <psa10 value="0.0021599965" flag="0"/>
      <psa30 value="0.0001150622" flag="0"/>
    </comp>
  </station>
  <station code="CIRO" name="CIRO" netid="GU" insttype="" lat="45.6019" lon="7.5682">
    <comp name="--.HHE">
      <acc value="0.0078940648" flag="0"/>
      <vel value="0.0013191183" flag="0"/>
      <psa03 value="0.0043196763" flag="0"/>
      <psa10 value="0.0005661624" flag="0"/>
      <psa30 value="0.0000981110" flag="0"/>
    </comp>
    <comp name="--.HHN">
      <acc value="0.0070925223" flag="0"/>
      <vel value="0.0012926412" flag="0"/>
      <psa03 value="0.0029408283" flag="0"/>
      <psa10 value="0.0007007645" flag="0"/>
      <psa30 value="0.0000493753" flag="0"/>
    </comp>
    <comp name="--.HHZ">
      <acc value="0.0062487393" flag="0"/>
      <vel value="0.0010612996" flag="0"/>
      <psa03 value="0.0046378557" flag="0"/>
      <psa10 value="0.0004803514" flag="0"/>
      <psa30 value="0.0000610428" flag="0"/>
    </comp>
  </station>
  <station code="ENR" name="ENR" netid="GU" insttype="" lat="44.2294" lon="7.4182">
    <comp name="--.HHE">
      <acc value="0.1671013378" flag="0"/>
      <vel value="0.0221351190" flag="0"/>
      <psa03 value="0.1337335497" flag="0"/>
      <psa10 value="0.0052656102" flag="0"/>
      <psa30 value="0.0004527918" flag="0"/>
    </comp>
    <comp name="--.HHN">
      <acc value="0.1684033762" flag="0"/>
      <vel value="0.0279959868" flag="0"/>
      <psa03 value="0.1748796833" flag="0"/>
      <psa10 value="0.0071875292" flag="0"/>
      <psa30 value="0.0006412034" flag="0"/>
    </comp>
    <comp name="--.HHZ">
      <acc value="0.0897395539" flag="0"/>
      <vel value="0.0110333351" flag="0"/>
      <psa03 value="0.0620571877" flag="0"/>
      <psa10 value="0.0039491170" flag="0"/>
      <psa30 value="0.0003558133" flag="0"/>
    </comp>
  </station>
  <station code="GBOS" name="GBOS" netid="GU" insttype="" lat="44.2416" lon="7.8399">
    <comp name="--.HHE">
      <acc value="0.0233839052" flag="0"/>
      <vel value="0.0049203616" flag="0"/>
      <psa03 value="0.0237489313" flag="0"/>
      <psa10 value="0.0011965800" flag="0"/>
      <psa30 value="0.0001296152" flag="0"/>
    </comp>
    <comp name="--.HHZ">
      <acc value="0.0207228538" flag="0"/>
      <vel value="0.0062694356" flag="0"/>
      <psa03 value="0.0413376375" flag="0"/>
      <psa10 value="0.0021864503" flag="0"/>
      <psa30 value="0.0001658162" flag="0"/>
    </comp>
    <comp name="--.HHN">
      <acc value="0.0201104309" flag="0"/>
      <vel value="0.0053028413" flag="0"/>
      <psa03 value="0.0295294563" flag="0"/>
      <psa10 value="0.0013177299" flag="0"/>
      <psa30 value="0.0001632114" flag="0"/>
    </comp>
  </station>
  <station code="IMI" name="IMI" netid="GU" insttype="" lat="43.9105" lon="7.89317">
    <comp name="--.HHE">
      <acc value="0.0229936267" flag="0"/>
      <vel value="0.0043056278" flag="0"/>
      <psa03 value="0.0279871927" flag="0"/>
      <psa10 value="0.0016683698" flag="0"/>
      <psa30 value="0.0001470842" flag="0"/>
    </comp>
    <comp name="--.HHN">
      <acc value="0.0264505842" flag="0"/>
      <vel value="0.0060290508" flag="0"/>
      <psa03 value="0.0279844300" flag="0"/>
      <psa10 value="0.0028434099" flag="0"/>
      <psa30 value="0.0001960740" flag="0"/>
    </comp>
    <comp name="--.HHZ">
      <acc value="0.0132597550" flag="0"/>
      <vel value="0.0029624080" flag="0"/>
      <psa03 value="0.0166843483" flag="0"/>
      <psa10 value="0.0018715162" flag="0"/>
      <psa30 value="0.0001394736" flag="0"/>
    </comp>
  </station>
  <station code="PCP" name="PCP" netid="GU" insttype="" lat="44.5413" lon="8.54517">
    <comp name="--.HHN">
      <acc value="0.0052713359" flag="0"/>
      <vel value="0.0014359359" flag="0"/>
      <psa03 value="0.0088553099" flag="0"/>
      <psa10 value="0.0011684671" flag="0"/>
      <psa30 value="0.0001289285" flag="0"/>
    </comp>
    <comp name="--.HHE">
      <acc value="0.0057264367" flag="0"/>
      <vel value="0.0013546295" flag="0"/>
      <psa03 value="0.0084298895" flag="0"/>
      <psa10 value="0.0011493727" flag="0"/>
      <psa30 value="0.0000843849" flag="0"/>
    </comp>
    <comp name="--.HHZ">
      <acc value="0.0070571577" flag="0"/>
      <vel value="0.0019152871" flag="0"/>
      <psa03 value="0.0086042249" flag="0"/>
      <psa10 value="0.0013339278" flag="0"/>
      <psa30 value="0.0000780505" flag="0"/>
    </comp>
  </station>
  <station code="PZZ" name="PZZ" netid="GU" insttype="" lat="44.5068" lon="7.116">
    <comp name="--.HHE">
      <acc value="0.9724951421" flag="0"/>
      <vel value="0.2756549223" flag="0"/>
      <psa03 value="1.3375517482" flag="0"/>
      <psa10 value="0.0597020418" flag="0"/>
      <psa30 value="0.0042156596" flag="0"/>
    </comp>
    <comp name="--.HHN">
      <acc value="1.2332058244" flag="0"/>
      <vel value="0.2715508472" flag="0"/>
      <psa03 value="1.6427494586" flag="0"/>
      <psa10 value="0.0709281605" flag="0"/>
      <psa30 value="0.0053640136" flag="0"/>
    </comp>
    <comp name="--.HHZ">
      <acc value="1.3157330414" flag="0"/>
      <vel value="0.2508992732" flag="0"/>
      <psa03 value="0.7998510125" flag="0"/>
      <psa10 value="0.0483229372" flag="0"/>
      <psa30 value="0.0038260969" flag="0"/>
    </comp>
  </station>
  <station code="ROTM" name="ROTM" netid="GU" insttype="" lat="44.8493" lon="8.3527">
    <comp name="--.HHE">
      <acc value="0.0178150368" flag="0"/>
      <vel value="0.0093093250" flag="0"/>
      <psa03 value="0.0524276807" flag="0"/>
      <psa10 value="0.0086988242" flag="0"/>
      <psa30 value="0.0010063240" flag="0"/>
    </comp>
    <comp name="--.HHN">
      <acc value="0.0210183824" flag="0"/>
      <vel value="0.0115278613" flag="0"/>
      <psa03 value="0.0550073875" flag="0"/>
      <psa10 value="0.0099409954" flag="0"/>
      <psa30 value="0.0011373034" flag="0"/>
    </comp>
    <comp name="--.HHZ">
      <acc value="0.0157711286" flag="0"/>
      <vel value="0.0044997146" flag="0"/>
      <psa03 value="0.0208617198" flag="0"/>
      <psa10 value="0.0048228422" flag="0"/>
      <psa30 value="0.0005496595" flag="0"/>
    </comp>
  </station>
  <station code="RRL" name="RRL" netid="GU" insttype="" lat="44.921" lon="6.79">
    <comp name="--.HHE">
      <acc value="0.1108648764" flag="0"/>
      <vel value="0.0202124539" flag="0"/>
      <psa03 value="0.0625537307" flag="0"/>
      <psa10 value="0.0106824792" flag="0"/>
      <psa30 value="0.0008853098" flag="0"/>
    </comp>
    <comp name="--.HHN">
      <acc value="0.0960252304" flag="0"/>
      <vel value="0.0245808406" flag="0"/>
      <psa03 value="0.0671778434" flag="0"/>
      <psa10 value="0.0171439521" flag="0"/>
      <psa30 value="0.0013772040" flag="0"/>
    </comp>
    <comp name="--.HHZ">
      <acc value="0.0992105065" flag="0"/>
      <vel value="0.0146729025" flag="0"/>
      <psa03 value="0.0328108905" flag="0"/>
      <psa10 value="0.0082920414" flag="0"/>
      <psa30 value="0.0007123565" flag="0"/>
    </comp>
  </station>
  <station code="RSP" name="RSP" netid="GU" insttype="" lat="45.1482" lon="7.2649">
    <comp name="--.HHN">
      <acc value="0.0636965465" flag="0"/>
      <vel value="0.0106235295" flag="0"/>
      <psa03 value="0.0207589614" flag="0"/>
      <psa10 value="0.0026021306" flag="0"/>
      <psa30 value="0.0002861309" flag="0"/>
    </comp>
    <comp name="--.HHE">
      <acc value="0.0577862952" flag="0"/>
      <vel value="0.0083822347" flag="0"/>
      <psa03 value="0.0209592570" flag="0"/>
      <psa10 value="0.0033870197" flag="0"/>
      <psa30 value="0.0002781182" flag="0"/>
    </comp>
    <comp name="--.HHZ">
      <acc value="0.0532667634" flag="0"/>
      <vel value="0.0074942424" flag="0"/>
      <psa03 value="0.0239423789" flag="0"/>
      <psa10 value="0.0025933100" flag="0"/>
      <psa30 value="0.0001472205" flag="0"/>
    </comp>
  </station>
  <station code="STV" name="STV" netid="GU" insttype="" lat="44.2455" lon="7.326">
    <comp name="--.HHE">
      <acc value="0.0691473594" flag="0"/>
      <vel value="0.0111707673" flag="0"/>
      <psa03 value="0.0788222574" flag="0"/>
      <psa10 value="0.0038320979" flag="0"/>
      <psa30 value="0.0004522809" flag="0"/>
    </comp>
    <comp name="--.HHN">
      <acc value="0.0710723551" flag="0"/>
      <vel value="0.0110601912" flag="0"/>
      <psa03 value="0.0469772502" flag="0"/>
      <psa10 value="0.0054527330" flag="0"/>
      <psa30 value="0.0003205641" flag="0"/>
    </comp>
    <comp name="--.HHZ">
      <acc value="0.0734050166" flag="0"/>
      <vel value="0.0128151017" flag="0"/>
      <psa03 value="0.0559625148" flag="0"/>
      <psa10 value="0.0048865879" flag="0"/>
      <psa30 value="0.0003158780" flag="0"/>
    </comp>
  </station>
  <station code="MONC" name="MONC" netid="IV" insttype="" lat="45.0739" lon="7.9271">
    <comp name="--.HHZ">
      <acc value="0.0117696966" flag="0"/>
      <vel value="0.0043551838" flag="0"/>
      <psa03 value="0.0269380676" flag="0"/>
      <psa10 value="0.0056056622" flag="0"/>
      <psa30 value="0.0004011676" flag="0"/>
    </comp>
    <comp name="--.HHN">
      <acc value="0.0167816988" flag="0"/>
      <vel value="0.0061227265" flag="0"/>
      <psa03 value="0.0343044095" flag="0"/>
      <psa10 value="0.0051753554" flag="0"/>
      <psa30 value="0.0003713567" flag="0"/>
    </comp>
    <comp name="--.HHE">
      <acc value="0.0160210718" flag="0"/>
      <vel value="0.0064859566" flag="0"/>
      <psa03 value="0.0444177218" flag="0"/>
      <psa10 value="0.0044162782" flag="0"/>
      <psa30 value="0.0004654818" flag="0"/>
    </comp>
  </station>
  <station code="BNI" name="BNI" netid="MN" insttype="" lat="45.052" lon="6.678">
    <comp name="--.HHE">
      <acc value="0.0250231798" flag="0"/>
      <vel value="0.0065302861" flag="0"/>
      <psa03 value="0.0180937257" flag="0"/>
      <psa10 value="0.0040088764" flag="0"/>
      <psa30 value="0.0003686782" flag="0"/>
    </comp>
    <comp name="--.HHN">
      <acc value="0.0177292413" flag="0"/>
      <vel value="0.0048578712" flag="0"/>
      <psa03 value="0.0131776844" flag="0"/>
      <psa10 value="0.0028887269" flag="0"/>
      <psa30 value="0.0003333045" flag="0"/>
    </comp>
    <comp name="--.HHZ">
      <acc value="0.0206282016" flag="0"/>
      <vel value="0.0063003223" flag="0"/>
      <psa03 value="0.0205332760" flag="0"/>
      <psa10 value="0.0046685687" flag="0"/>
      <psa30 value="0.0003913228" flag="0"/>
    </comp>
  </station>
</stationlist>
