<?xml version="1.0" encoding="UTF-8" standalone="yes"?>
<!DOCTYPE earthquake SYSTEM "stationlist.dtd">
<stationlist created="" xmlns="ch.ethz.sed.shakemap.usgs.xml">
  <station code="OGAG" name="OGAG" netid="FR" insttype="TRILLIUM-240" lat="44.7878" lon="6.53974">
    <comp name="00.HHE">
      <acc value="0.0627021393" flag="0"/>
      <vel value="0.0157082112" flag="0"/>
      <psa03 value="0.0764773805" flag="0"/>
      <psa10 value="0.0087884012" flag="0"/>
      <psa30 value="0.0008376346" flag="0"/>
    </comp>
    <comp name="00.HHZ">
      <acc value="0.0435556534" flag="0"/>
      <vel value="0.0120709514" flag="0"/>
      <psa03 value="0.0427641325" flag="0"/>
      <psa10 value="0.0096925494" flag="0"/>
      <psa30 value="0.0008905670" flag="0"/>
    </comp>
    <comp name="00.HHN">
      <acc value="0.0475596466" flag="0"/>
      <vel value="0.0119110680" flag="0"/>
      <psa03 value="0.0498640131" flag="0"/>
      <psa10 value="0.0078431699" flag="0"/>
      <psa30 value="0.0004678553" flag="0"/>
    </comp>
  </station>
  <station code="BHB" name="BHB" netid="GU" insttype="" lat="44.8355" lon="7.263">
    <comp name="--.HHE">
      <acc value="0.2263746916" flag="0"/>
      <vel value="0.0345938706" flag="0"/>
      <psa03 value="0.0691793090" flag="0"/>
      <psa10 value="0.0107061366" flag="0"/>
      <psa30 value="0.0006904695" flag="0"/>
    </comp>
    <comp name="--.HHN">
      <acc value="0.2066571959" flag="0"/>
      <vel value="0.0376283731" flag="0"/>
      <psa03 value="0.1149106068" flag="0"/>
      <psa10 value="0.0107029571" flag="0"/>
      <psa30 value="0.0008055877" flag="0"/>
    </comp>
    <comp name="--.HHZ">
      <acc value="0.3888837415" flag="0"/>
      <vel value="0.0458194330" flag="0"/>
      <psa03 value="0.0593828863" flag="0"/>
      <psa10 value="0.0100364693" flag="0"/>
      <psa30 value="0.0007058681" flag="0"/>
    </comp>
  </station>
  <station code="BURY" name="BURY" netid="GU" insttype="" lat="43.7825" lon="7.557">
    <comp name="--.HHE">
      <acc value="0.0112226383" flag="0"/>
      <vel value="0.0032710181" flag="0"/>
      <psa03 value="0.0240442979" flag="0"/>
      <psa10 value="0.0018415016" flag="0"/>
      <psa30 value="0.0002315699" flag="0"/>
    </comp>
    <comp name="--.HHN">
      <acc value="0.0115420948" flag="0"/>
      <vel value="0.0027787317" flag="0"/>
      <psa03 value="0.0234897885" flag="0"/>
      <psa10 value="0.0014495864" flag="0"/>
      <psa30 value="0.0001572294" flag="0"/>
    </comp>
    <comp name="--.HHZ">
      <acc value="0.0081512751" flag="0"/>
      <vel value="0.0019926467" flag="0"/>
      <psa03 value="0.0136473252" flag="0"/>
      <psa10 value="0.0017975257" flag="0"/>
      <psa30 value="0.0001406626" flag="0"/>
    </comp>
  </station>
  <station code="CANO" name="CANO" netid="GU" insttype="" lat="44.2075" lon="8.2372">
    <comp name="--.HHN">
      <acc value="0.0128768811" flag="0"/>
      <vel value="0.0045705888" flag="0"/>
      <psa03 value="0.0306911467" flag="0"/>
      <psa10 value="0.0024658816" flag="0"/>
      <psa30 value="0.0001046671" flag="0"/>
    </comp>
    <comp name="--.HHE">
      <acc value="0.0153801496" flag="0"/>
      <vel value="0.0053200253" flag="0"/>
      <psa03 value="0.0292144956" flag="0"/>
      <psa10 value="0.0040032039" flag="0"/>
      <psa30 value="0.0001719386" flag="0"/>
    </comp>
    <comp name="--.HHZ">
      <acc value="0.0208432613" flag="0"/>
      <vel value="0.0031474057" flag="0"/>
      <psa03 value="0.0153898888" flag="0"/>
      <psa10 value="0.0021600179" flag="0"/>
      <psa30 value="0.0001150603" flag="0"/>
    </comp>
  </station>
  <station code="ENR" name="ENR" netid="GU" insttype="" lat="44.2294" lon="7.4182">
    <comp name="--.HHE">
      <acc value="0.1671013380" flag="0"/>
      <vel value="0.0221351232" flag="0"/>
      <psa03 value="0.1337335497" flag="0"/>
      <psa10 value="0.0052656098" flag="0"/>
      <psa30 value="0.0004527301" flag="0"/>
    </comp>
    <comp name="--.HHN">
      <acc value="0.1684033764" flag="0"/>
      <vel value="0.0279959910" flag="0"/>
      <psa03 value="0.1748796833" flag="0"/>
      <psa10 value="0.0071875293" flag="0"/>
      <psa30 value="0.0006412988" flag="0"/>
    </comp>
    <comp name="--.HHZ">
      <acc value="0.0897395539" flag="0"/>
      <vel value="0.0110333282" flag="0"/>
      <psa03 value="0.0620571878" flag="0"/>
      <psa10 value="0.0039491172" flag="0"/>
      <psa30 value="0.0003557453" flag="0"/>
    </comp>
  </station>
  <station code="GBOS" name="GBOS" netid="GU" insttype="" lat="44.2416" lon="7.8399">
    <comp name="--.HHN">
      <acc value="0.0201104309" flag="0"/>
      <vel value="0.0053028414" flag="0"/>
      <psa03 value="0.0295294563" flag="0"/>
      <psa10 value="0.0013177301" flag="0"/>
      <psa30 value="0.0001630794" flag="0"/>
    </comp>
    <comp name="--.HHE">
      <acc value="0.0233839048" flag="0"/>
      <vel value="0.0049203615" flag="0"/>
      <psa03 value="0.0237489313" flag="0"/>
      <psa10 value="0.0011965800" flag="0"/>
      <psa30 value="0.0001296241" flag="0"/>
    </comp>
    <comp name="--.HHZ">
      <acc value="0.0207228531" flag="0"/>
      <vel value="0.0062694354" flag="0"/>
      <psa03 value="0.0413376375" flag="0"/>
      <psa10 value="0.0021864505" flag="0"/>
      <psa30 value="0.0001659763" flag="0"/>
    </comp>
  </station>
  <station code="IMI" name="IMI" netid="GU" insttype="" lat="43.9105" lon="7.89317">
    <comp name="--.HHE">
      <acc value="0.0229936271" flag="0"/>
      <vel value="0.0043056272" flag="0"/>
      <psa03 value="0.0279871927" flag="0"/>
      <psa10 value="0.0016683698" flag="0"/>
      <psa30 value="0.0001470784" flag="0"/>
    </comp>
    <comp name="--.HHN">
      <acc value="0.0264505833" flag="0"/>
      <vel value="0.0060290503" flag="0"/>
      <psa03 value="0.0279844300" flag="0"/>
      <psa10 value="0.0028434099" flag="0"/>
      <psa30 value="0.0001960990" flag="0"/>
    </comp>
    <comp name="--.HHZ">
      <acc value="0.0132597557" flag="0"/>
      <vel value="0.0029624081" flag="0"/>
      <psa03 value="0.0166843483" flag="0"/>
      <psa10 value="0.0018715162" flag="0"/>
      <psa30 value="0.0001394749" flag="0"/>
    </comp>
  </station>
  <station code="PCP" name="PCP" netid="GU" insttype="" lat="44.5413" lon="8.54517">
    <comp name="--.HHE">
      <acc value="0.0057264364" flag="0"/>
      <vel value="0.0013546301" flag="0"/>
      <psa03 value="0.0084298895" flag="0"/>
      <psa10 value="0.0011493727" flag="0"/>
      <psa30 value="0.0000844123" flag="0"/>
    </comp>
    <comp name="--.HHZ">
      <acc value="0.0070571577" flag="0"/>
      <vel value="0.0019152870" flag="0"/>
      <psa03 value="0.0086042249" flag="0"/>
      <psa10 value="0.0013339278" flag="0"/>
      <psa30 value="0.0000780756" flag="0"/>
    </comp>
    <comp name="--.HHN">
      <acc value="0.0052713361" flag="0"/>
      <vel value="0.0014359399" flag="0"/>
      <psa03 value="0.0088553098" flag="0"/>
      <psa10 value="0.0011684671" flag="0"/>
      <psa30 value="0.0001289117" flag="0"/>
    </comp>
  </station>
  <station code="PZZ" name="PZZ" netid="GU" insttype="" lat="44.5068" lon="7.116">
    <comp name="--.HHE">
      <acc value="0.9724951425" flag="0"/>
      <vel value="0.2756549214" flag="0"/>
      <psa03 value="1.3375517482" flag="0"/>
      <psa10 value="0.0597020397" flag="0"/>
      <psa30 value="0.0042158526" flag="0"/>
    </comp>
    <comp name="--.HHN">
      <acc value="1.2332058246" flag="0"/>
      <vel value="0.2715508466" flag="0"/>
      <psa03 value="1.6427494586" flag="0"/>
      <psa10 value="0.0709281603" flag="0"/>
      <psa30 value="0.0053638229" flag="0"/>
    </comp>
    <comp name="--.HHZ">
      <acc value="1.3157330415" flag="0"/>
      <vel value="0.2508992749" flag="0"/>
      <psa03 value="0.7998510125" flag="0"/>
      <psa10 value="0.0483229405" flag="0"/>
      <psa30 value="0.0038261782" flag="0"/>
    </comp>
  </station>
  <station code="RRL" name="RRL" netid="GU" insttype="" lat="44.921" lon="6.79">
    <comp name="--.HHE">
      <acc value="0.1108648764" flag="0"/>
      <vel value="0.0202124494" flag="0"/>
      <psa03 value="0.0625537307" flag="0"/>
      <psa10 value="0.0106824780" flag="0"/>
      <psa30 value="0.0008853159" flag="0"/>
    </comp>
    <comp name="--.HHZ">
      <acc value="0.0992105063" flag="0"/>
      <vel value="0.0146728917" flag="0"/>
      <psa03 value="0.0328108905" flag="0"/>
      <psa10 value="0.0082920420" flag="0"/>
      <psa30 value="0.0007122385" flag="0"/>
    </comp>
    <comp name="--.HHN">
      <acc value="0.0960252307" flag="0"/>
      <vel value="0.0245808495" flag="0"/>
      <psa03 value="0.0671778434" flag="0"/>
      <psa10 value="0.0171439527" flag="0"/>
      <psa30 value="0.0013773862" flag="0"/>
    </comp>
  </station>
  <station code="RSP" name="RSP" netid="GU" insttype="" lat="45.1482" lon="7.2649">
    <comp name="--.HHE">
      <acc value="0.0577862952" flag="0"/>
      <vel value="0.0083822354" flag="0"/>
      <psa03 value="0.0209592570" flag="0"/>
      <psa10 value="0.0033870198" flag="0"/>
      <psa30 value="0.0002781849" flag="0"/>
    </comp>
    <comp name="--.HHN">
      <acc value="0.0636965466" flag="0"/>
      <vel value="0.0106235299" flag="0"/>
      <psa03 value="0.0207589614" flag="0"/>
      <psa10 value="0.0026021306" flag="0"/>
      <psa30 value="0.0002861967" flag="0"/>
    </comp>
    <comp name="--.HHZ">
      <acc value="0.0532667634" flag="0"/>
      <vel value="0.0074942443" flag="0"/>
      <psa03 value="0.0239423789" flag="0"/>
      <psa10 value="0.0025933102" flag="0"/>
      <psa30 value="0.0001471835" flag="0"/>
    </comp>
  </station>
  <station code="STV" name="STV" netid="GU" insttype="" lat="44.2455" lon="7.326">
    <comp name="--.HHE">
      <acc value="0.0691473593" flag="0"/>
      <vel value="0.0111707671" flag="0"/>
      <psa03 value="0.0788222574" flag="0"/>
      <psa10 value="0.0038320980" flag="0"/>
      <psa30 value="0.0004523935" flag="0"/>
    </comp>
    <comp name="--.HHN">
      <acc value="0.0710723550" flag="0"/>
      <vel value="0.0110601913" flag="0"/>
      <psa03 value="0.0469772502" flag="0"/>
      <psa10 value="0.0054527329" flag="0"/>
      <psa30 value="0.0003205322" flag="0"/>
    </comp>
    <comp name="--.HHZ">
      <acc value="0.0734050166" flag="0"/>
      <vel value="0.0128151025" flag="0"/>
      <psa03 value="0.0559625148" flag="0"/>
      <psa10 value="0.0048865876" flag="0"/>
      <psa30 value="0.0003160423" flag="0"/>
    </comp>
  </station>
  <station code="MONC" name="MONC" netid="IV" insttype="" lat="45.0739" lon="7.9271">
    <comp name="--.HHE">
      <acc value="0.0160210724" flag="0"/>
      <vel value="0.0064859558" flag="0"/>
      <psa03 value="0.0444177218" flag="0"/>
      <psa10 value="0.0044162782" flag="0"/>
      <psa30 value="0.0004655049" flag="0"/>
    </comp>
    <comp name="--.HHN">
      <acc value="0.0167816983" flag="0"/>
      <vel value="0.0061227249" flag="0"/>
      <psa03 value="0.0343044095" flag="0"/>
      <psa10 value="0.0051753554" flag="0"/>
      <psa30 value="0.0003712584" flag="0"/>
    </comp>
    <comp name="--.HHZ">
      <acc value="0.0117696965" flag="0"/>
      <vel value="0.0043551857" flag="0"/>
      <psa03 value="0.0269380676" flag="0"/>
      <psa10 value="0.0056056622" flag="0"/>
      <psa30 value="0.0004012442" flag="0"/>
    </comp>
  </station>
  <station code="BNI" name="BNI" netid="MN" insttype="" lat="45.052" lon="6.678">
    <comp name="--.HHE">
      <acc value="0.0250231796" flag="0"/>
      <vel value="0.0065302857" flag="0"/>
      <psa03 value="0.0180937257" flag="0"/>
      <psa10 value="0.0040088765" flag="0"/>
      <psa30 value="0.0003686003" flag="0"/>
    </comp>
    <comp name="--.HHN">
      <acc value="0.0177292414" flag="0"/>
      <vel value="0.0048578713" flag="0"/>
      <psa03 value="0.0131776844" flag="0"/>
      <psa10 value="0.0028887270" flag="0"/>
      <psa30 value="0.0003333258" flag="0"/>
    </comp>
    <comp name="--.HHZ">
      <acc value="0.0206282016" flag="0"/>
      <vel value="0.0063003220" flag="0"/>
      <psa03 value="0.0205332760" flag="0"/>
      <psa10 value="0.0046685686" flag="0"/>
      <psa30 value="0.0003913264" flag="0"/>
    </comp>
  </station>
</stationlist>
