<stationlist created="1777600508">
	<station code="BIBA" name="BIBA" netid="CH" source="Switzerland Seismological Network" insttype="" lat="46.30255" lon="7.93038">
		<comp name="--.HGE" depth="0.0">
			<acc value="0.00520086961185752" flag="0"/>
			<vel value="0.00061965040668244" flag="0"/>
			<psa03 value="0.00293025596403468" flag="0"/>
			<psa10 value="0.000771061625924817" flag="0"/>
			<psa30 value="6.39423738890948e-05" flag="0"/>
		</comp>
		<comp name="--.HGN" depth="0.0">
			<acc value="0.00342191335762748" flag="0"/>
			<vel value="0.000647556747614486" flag="0"/>
			<psa03 value="0.00245381082766642" flag="0"/>
			<psa10 value="0.000769463023928894" flag="0"/>
			<psa30 value="4.75465416520491e-05" flag="0"/>
		</comp>
		<comp name="--.HGZ" depth="0.0">
			<acc value="0.00473775730484428" flag="0"/>
			<vel value="0.000437101665918703" flag="0"/>
			<psa03 value="0.00206015063502309" flag="0"/>
			<psa10 value="0.000456363307999874" flag="0"/>
			<psa30 value="5.64988729812663e-05" flag="0"/>
		</comp>
	</station>
	<station code="DIX" name="DIX" netid="CH" source="Switzerland Seismological Network" insttype="" lat="46.081053" lon="7.408391">
		<comp name="--.HGE" depth="0.0">
			<acc value="0.00212523156454408" flag="0"/>
			<vel value="0.000762941806089739" flag="0"/>
			<psa03 value="0.00392271689199257" flag="0"/>
			<psa10 value="0.000660780765670013" flag="0"/>
			<psa30 value="9.22930475552187e-05" flag="0"/>
		</comp>
		<comp name="--.HGN" depth="0.0">
			<acc value="0.00164058407905472" flag="0"/>
			<vel value="0.000590827514560936" flag="0"/>
			<psa03 value="0.00199551695883052" flag="0"/>
			<psa10 value="0.000801225753055" flag="0"/>
			<psa30 value="0.000100793298155003" flag="0"/>
		</comp>
		<comp name="--.HGZ" depth="0.0">
			<acc value="0.00206492464279694" flag="0"/>
			<vel value="0.000623119393678017" flag="0"/>
			<psa03 value="0.00215047676842648" flag="0"/>
			<psa10 value="0.000749655852427974" flag="0"/>
			<psa30 value="9.32156151811619e-05" flag="0"/>
		</comp>
	</station>
	<station code="GRYON" name="GRYON" netid="CH" source="Switzerland Seismological Network" insttype="" lat="46.25053" lon="7.11106">
		<comp name="--.HGE" depth="0.0">
			<acc value="0.000841912553347381" flag="0"/>
			<vel value="0.000539883429028635" flag="0"/>
			<psa03 value="0.00250096287703619" flag="0"/>
			<psa10 value="0.00111221410841181" flag="0"/>
			<psa30 value="0.000101306619920683" flag="0"/>
		</comp>
		<comp name="--.HGN" depth="0.0">
			<acc value="0.00080741969983984" flag="0"/>
			<vel value="0.000695668081063815" flag="0"/>
			<psa03 value="0.00305218754400605" flag="0"/>
			<psa10 value="0.00137519535775783" flag="0"/>
			<psa30 value="6.69207092100734e-05" flag="0"/>
		</comp>
		<comp name="--.HGZ" depth="0.0">
			<acc value="0.00101925392080767" flag="0"/>
			<vel value="0.000601918724035015" flag="0"/>
			<psa03 value="0.00219836893844306" flag="0"/>
			<psa10 value="0.000642569617866278" flag="0"/>
			<psa30 value="0.000106652149817108" flag="0"/>
		</comp>
	</station>
	<station code="LADOL" name="LADOL" netid="CH" source="Switzerland Seismological Network" insttype="" lat="46.43213" lon="6.13151">
		<comp name="--.HGE" depth="0.0">
			<acc value="0.00135323238292117" flag="0"/>
			<vel value="0.00118249954302569" flag="0"/>
			<psa03 value="0.00278670348563665" flag="0"/>
			<psa10 value="0.00249535178918435" flag="0"/>
			<psa30 value="0.000223665702171707" flag="0"/>
		</comp>
		<comp name="--.HGN" depth="0.0">
			<acc value="0.00115610990936891" flag="0"/>
			<vel value="0.000970752938504507" flag="0"/>
			<psa03 value="0.00248787835139583" flag="0"/>
			<psa10 value="0.002996694610062" flag="0"/>
			<psa30 value="0.000151702471419359" flag="0"/>
		</comp>
		<comp name="--.HGZ" depth="0.0">
			<acc value="0.000938562066259754" flag="0"/>
			<vel value="0.000510153709323684" flag="0"/>
			<psa03 value="0.00160223325597687" flag="0"/>
			<psa10 value="0.00105952874326689" flag="0"/>
			<psa30 value="0.000178071666165542" flag="0"/>
		</comp>
	</station>
	<station code="LAVEY" name="LAVEY" netid="CH" source="Switzerland Seismological Network" insttype="" lat="46.2" lon="7.022778">
		<comp name="SF.HGE" depth="0.0">
			<acc value="0.00673114166241548" flag="0"/>
			<vel value="0.000830234036527488" flag="0"/>
			<psa03 value="0.00226145677656021" flag="0"/>
			<psa10 value="0.000904768061443117" flag="0"/>
			<psa30 value="8.71305896820746e-05" flag="0"/>
		</comp>
		<comp name="SF.HGN" depth="0.0">
			<acc value="0.00697314765842038" flag="0"/>
			<vel value="0.000736325403175609" flag="0"/>
			<psa03 value="0.00233866875996238" flag="0"/>
			<psa10 value="0.000808615207414346" flag="0"/>
			<psa30 value="9.38156484202123e-05" flag="0"/>
		</comp>
		<comp name="SF.HGZ" depth="0.0">
			<acc value="0.00960827458041206" flag="0"/>
			<vel value="0.000655856303158554" flag="0"/>
			<psa03 value="0.00186892279784745" flag="0"/>
			<psa10 value="0.000523818352739088" flag="0"/>
			<psa30 value="7.68680413490311e-05" flag="0"/>
		</comp>
	</station>
	<station code="LKBD2" name="LKBD2" netid="CH" source="Switzerland Seismological Network" insttype="" lat="46.37455" lon="7.64433">
		<comp name="--.HGE" depth="0.0">
			<acc value="0.000985511798597189" flag="0"/>
			<vel value="0.000992173971921312" flag="0"/>
			<psa03 value="0.00263239199372865" flag="0"/>
			<psa10 value="0.00145017665302341" flag="0"/>
			<psa30 value="0.000123202614693787" flag="0"/>
		</comp>
		<comp name="--.HGN" depth="0.0">
			<acc value="0.00119112691319794" flag="0"/>
			<vel value="0.000592603685127878" flag="0"/>
			<psa03 value="0.00187658476374809" flag="0"/>
			<psa10 value="0.00115000606507095" flag="0"/>
			<psa30 value="0.000127325726370992" flag="0"/>
		</comp>
		<comp name="--.HGZ" depth="0.0">
			<acc value="0.00103230733480051" flag="0"/>
			<vel value="0.000553955580500093" flag="0"/>
			<psa03 value="0.00217031678715664" flag="0"/>
			<psa10 value="0.000884222208193115" flag="0"/>
			<psa30 value="8.76616274649526e-05" flag="0"/>
		</comp>
	</station>
	<station code="MFERR" name="MFERR" netid="CH" source="Switzerland Seismological Network" insttype="" lat="45.95101" lon="7.11229">
		<comp name="--.HGE" depth="0.0">
			<acc value="0.0045556334389511" flag="0"/>
			<vel value="0.00145054513430423" flag="0"/>
			<psa03 value="0.00718625535101378" flag="0"/>
			<psa10 value="0.00117894837298207" flag="0"/>
			<psa30 value="9.97947489330248e-05" flag="0"/>
		</comp>
		<comp name="--.HGN" depth="0.0">
			<acc value="0.00286153715680422" flag="0"/>
			<vel value="0.00116795573900993" flag="0"/>
			<psa03 value="0.00646414306151791" flag="0"/>
			<psa10 value="0.00121401788366556" flag="0"/>
			<psa30 value="8.46612203696065e-05" flag="0"/>
		</comp>
		<comp name="--.HGZ" depth="0.0">
			<acc value="0.00300370514676335" flag="0"/>
			<vel value="0.00131163988036934" flag="0"/>
			<psa03 value="0.00417953273290563" flag="0"/>
			<psa10 value="0.00139544072234908" flag="0"/>
			<psa30 value="8.76571414909605e-05" flag="0"/>
		</comp>
	</station>
	<station code="SAIG" name="SAIG" netid="CH" source="Switzerland Seismological Network" insttype="" lat="46.31724" lon="6.9666">
		<comp name="--.HGE" depth="0.0">
			<acc value="0.00885353278445779" flag="0"/>
			<vel value="0.00151629664559204" flag="0"/>
			<psa03 value="0.00518706204186497" flag="0"/>
			<psa10 value="0.00196504919830427" flag="0"/>
			<psa30 value="0.000103042320839819" flag="0"/>
		</comp>
		<comp name="--.HGN" depth="0.0">
			<acc value="0.0182893093687325" flag="0"/>
			<vel value="0.00221381453522531" flag="0"/>
			<psa03 value="0.0117236815843031" flag="0"/>
			<psa10 value="0.00210810488597841" flag="0"/>
			<psa30 value="0.000155117971116957" flag="0"/>
		</comp>
		<comp name="--.HGZ" depth="0.0">
			<acc value="0.00856764375727003" flag="0"/>
			<vel value="0.00079323562374207" flag="0"/>
			<psa03 value="0.00426316164530804" flag="0"/>
			<psa10 value="0.000671730260552942" flag="0"/>
			<psa30 value="0.000119162607479741" flag="0"/>
		</comp>
	</station>
	<station code="SARC" name="SARC" netid="CH" source="Switzerland Seismological Network" insttype="" lat="46.20979" lon="7.25643">
		<comp name="--.HGE" depth="1.0">
			<acc value="0.0292490191509156" flag="0"/>
			<vel value="0.00244473528881225" flag="0"/>
			<psa03 value="0.00601319782401043" flag="0"/>
			<psa10 value="0.00116968783764218" flag="0"/>
			<psa30 value="0.000126436722166376" flag="0"/>
		</comp>
		<comp name="--.HGN" depth="1.0">
			<acc value="0.0186681233195401" flag="0"/>
			<vel value="0.00170297693056654" flag="0"/>
			<psa03 value="0.0041879886967163" flag="0"/>
			<psa10 value="0.00141113773876372" flag="0"/>
			<psa30 value="0.000220063744809843" flag="0"/>
		</comp>
		<comp name="--.HGZ" depth="1.0">
			<acc value="0.0143849439666508" flag="0"/>
			<vel value="0.0013373611684299" flag="0"/>
			<psa03 value="0.00345432713951062" flag="0"/>
			<psa10 value="0.000951880088632556" flag="0"/>
			<psa30 value="0.000111893141538351" flag="0"/>
		</comp>
	</station>
	<station code="SAYF2" name="SAYF2" netid="CH" source="Switzerland Seismological Network" insttype="" lat="46.288025" lon="7.416981">
		<comp name="--.HGE" depth="0.0">
			<acc value="0.00346654191270578" flag="0"/>
			<vel value="0.000706914333601773" flag="0"/>
			<psa03 value="0.00162369252260047" flag="0"/>
			<psa10 value="0.000792659130870403" flag="0"/>
			<psa30 value="0.000146167781856675" flag="0"/>
		</comp>
		<comp name="--.HGN" depth="0.0">
			<acc value="0.0029052387774205" flag="0"/>
			<vel value="0.000772490154367342" flag="0"/>
			<psa03 value="0.00232275250376533" flag="0"/>
			<psa10 value="0.00115484177603684" flag="0"/>
			<psa30 value="0.000142357399229009" flag="0"/>
		</comp>
		<comp name="--.HGZ" depth="0.0">
			<acc value="0.00164655417675071" flag="0"/>
			<vel value="0.000545852760744514" flag="0"/>
			<psa03 value="0.00209256000854842" flag="0"/>
			<psa10 value="0.000783577669893555" flag="0"/>
			<psa30 value="0.000117378426786464" flag="0"/>
		</comp>
	</station>
	<station code="SBRS" name="SBRS" netid="CH" source="Switzerland Seismological Network" insttype="" lat="46.31693" lon="7.98139">
		<comp name="--.HGE" depth="0.0">
			<acc value="0.066222192458508" flag="0"/>
			<vel value="0.00562314138396615" flag="0"/>
			<psa03 value="0.0124033060331489" flag="0"/>
			<psa10 value="0.00186056012797644" flag="0"/>
			<psa30 value="0.000116331925168971" flag="0"/>
		</comp>
		<comp name="--.HGN" depth="0.0">
			<acc value="0.0422405194558103" flag="0"/>
			<vel value="0.00369529781870793" flag="0"/>
			<psa03 value="0.00675325661490281" flag="0"/>
			<psa10 value="0.00202572974152966" flag="0"/>
			<psa30 value="0.000107678311545147" flag="0"/>
		</comp>
		<comp name="--.HGZ" depth="0.0">
			<acc value="0.0763889499871199" flag="0"/>
			<vel value="0.00652893148530593" flag="0"/>
			<psa03 value="0.00499027328942944" flag="0"/>
			<psa10 value="0.000784377175980396" flag="0"/>
			<psa30 value="6.64619548615118e-05" flag="0"/>
		</comp>
	</station>
	<station code="SCAS2" name="SCAS2" netid="CH" source="Switzerland Seismological Network" insttype="" lat="46.155187" lon="8.614781">
		<comp name="--.HGE" depth="1.0">
			<acc value="0.00408257124482372" flag="0"/>
			<vel value="0.000591694532051031" flag="0"/>
			<psa03 value="0.00128559501136737" flag="0"/>
			<psa10 value="0.000259598437356987" flag="0"/>
			<psa30 value="2.87116318223969e-05" flag="0"/>
		</comp>
		<comp name="--.HGN" depth="1.0">
			<acc value="0.00409564895934759" flag="0"/>
			<vel value="0.000583151767528088" flag="0"/>
			<psa03 value="0.00129212791484275" flag="0"/>
			<psa10 value="0.000302334627794496" flag="0"/>
			<psa30 value="2.80739593714229e-05" flag="0"/>
		</comp>
		<comp name="--.HGZ" depth="1.0">
			<acc value="0.00146266965472306" flag="0"/>
			<vel value="0.00022753865136932" flag="0"/>
			<psa03 value="0.0007484201846311" flag="0"/>
			<psa10 value="0.00026600005283863" flag="0"/>
			<psa30 value="2.83079559923199e-05" flag="0"/>
		</comp>
	</station>
	<station code="SCHIO" name="SCHIO" netid="CH" source="Switzerland Seismological Network" insttype="" lat="46.41375" lon="6.92843">
		<comp name="--.HGE" depth="0.0">
			<acc value="0.00471219189734871" flag="0"/>
			<vel value="0.0016340042487734" flag="0"/>
			<psa03 value="0.0044216985147849" flag="0"/>
			<psa10 value="0.000888164949848583" flag="0"/>
			<psa30 value="0.00060869167700132" flag="0"/>
		</comp>
		<comp name="--.HGN" depth="0.0">
			<acc value="0.00552449595574532" flag="0"/>
			<vel value="0.00178528313849768" flag="0"/>
			<psa03 value="0.00433706758288025" flag="0"/>
			<psa10 value="0.00109012537952025" flag="0"/>
			<psa30 value="0.000810036317180417" flag="0"/>
		</comp>
		<comp name="--.HGZ" depth="0.0">
			<acc value="0.00135904710705292" flag="0"/>
			<vel value="0.000704953009560659" flag="0"/>
			<psa03 value="0.00227433474554426" flag="0"/>
			<psa10 value="0.000872957106466973" flag="0"/>
			<psa30 value="0.000214323963535703" flag="0"/>
		</comp>
	</station>
	<station code="SCME" name="SCME" netid="CH" source="Switzerland Seismological Network" insttype="" lat="46.278053" lon="6.939356">
		<comp name="BT.HG2" depth="0.0">
			<acc value="0.00463869654973428" flag="0"/>
			<vel value="0.00283279112155696" flag="0"/>
			<psa03 value="0.00674213152894008" flag="0"/>
			<psa10 value="0.00647509503702421" flag="0"/>
			<psa30 value="0.000380440775250843" flag="0"/>
		</comp>
		<comp name="BT.HG3" depth="0.0">
			<acc value="0.00645610555431204" flag="0"/>
			<vel value="0.0034224434175088" flag="0"/>
			<psa03 value="0.00943836092218595" flag="0"/>
			<psa10 value="0.00514898375116024" flag="0"/>
			<psa30 value="0.000494131952565803" flag="0"/>
		</comp>
		<comp name="BT.HGZ" depth="0.0">
			<acc value="0.00461250769406433" flag="0"/>
			<vel value="0.0022472248758626" flag="0"/>
			<psa03 value="0.00590240663046734" flag="0"/>
			<psa10 value="0.00307042261917814" flag="0"/>
			<psa30 value="0.000152036126334504" flag="0"/>
		</comp>
		<comp name="SF.HGE" depth="0.0">
			<acc value="0.0831104029222574" flag="0"/>
			<vel value="0.0063764566140388" flag="0"/>
			<psa03 value="0.0410320775487729" flag="0"/>
			<psa10 value="0.0071206660841815" flag="0"/>
			<psa30 value="0.000618678432324918" flag="0"/>
		</comp>
		<comp name="SF.HGN" depth="0.0">
			<acc value="0.0653607735907437" flag="0"/>
			<vel value="0.00387268648745512" flag="0"/>
			<psa03 value="0.0469214937352033" flag="0"/>
			<psa10 value="0.00986850499001266" flag="0"/>
			<psa30 value="0.000417496745652006" flag="0"/>
		</comp>
		<comp name="SF.HGZ" depth="0.0">
			<acc value="0.0840361208632771" flag="0"/>
			<vel value="0.00824328624858871" flag="0"/>
			<psa03 value="0.0249776077689125" flag="0"/>
			<psa10 value="0.00303202241910517" flag="0"/>
			<psa30 value="0.000229482077061579" flag="0"/>
		</comp>
	</station>
	<station code="SCOD" name="SCOD" netid="CH" source="Switzerland Seismological Network" insttype="" lat="46.470464" lon="7.128724">
		<comp name="--.HGE" depth="0.0">
			<acc value="0.0131224063068612" flag="0"/>
			<vel value="0.00129141728687292" flag="0"/>
			<psa03 value="0.00382627528185702" flag="0"/>
			<psa10 value="0.0011556370630978" flag="0"/>
			<psa30 value="8.449973831782e-05" flag="0"/>
		</comp>
		<comp name="--.HGN" depth="0.0">
			<acc value="0.00993989715612996" flag="0"/>
			<vel value="0.00103062243281502" flag="0"/>
			<psa03 value="0.00255787012993795" flag="0"/>
			<psa10 value="0.00125757010472331" flag="0"/>
			<psa30 value="8.50746071291466e-05" flag="0"/>
		</comp>
		<comp name="--.HGZ" depth="0.0">
			<acc value="0.0120175963601016" flag="0"/>
			<vel value="0.000642491517284961" flag="0"/>
			<psa03 value="0.00201019957210593" flag="0"/>
			<psa10 value="0.00118489697017114" flag="0"/>
			<psa30 value="0.000111333846675287" flag="0"/>
		</comp>
	</station>
	<station code="SCRM" name="SCRM" netid="CH" source="Switzerland Seismological Network" insttype="" lat="46.31638" lon="7.49331">
		<comp name="--.HGE" depth="1.0">
			<acc value="0.00982889915524167" flag="0"/>
			<vel value="0.00063090919859929" flag="0"/>
			<psa03 value="0.00217652129973905" flag="0"/>
			<psa10 value="0.000802721809193853" flag="0"/>
			<psa30 value="0.00011457844963511" flag="0"/>
		</comp>
		<comp name="--.HGN" depth="1.0">
			<acc value="0.0185289707921212" flag="0"/>
			<vel value="0.00117564594359499" flag="0"/>
			<psa03 value="0.00236602799425188" flag="0"/>
			<psa10 value="0.000714334371925642" flag="0"/>
			<psa30 value="0.000130789028714623" flag="0"/>
		</comp>
		<comp name="--.HGZ" depth="1.0">
			<acc value="0.00540123945988127" flag="0"/>
			<vel value="0.0006406926218058" flag="0"/>
			<psa03 value="0.00243648676336536" flag="0"/>
			<psa10 value="0.000708019949720287" flag="0"/>
			<psa30 value="0.000102132879083355" flag="0"/>
		</comp>
	</station>
	<station code="SENIN" name="SENIN" netid="CH" source="Switzerland Seismological Network" insttype="" lat="46.36335" lon="7.29938">
		<comp name="--.HGE" depth="0.0">
			<acc value="0.000740461600143284" flag="0"/>
			<vel value="0.000475752923651408" flag="0"/>
			<psa03 value="0.00171543688146269" flag="0"/>
			<psa10 value="0.00070194431286633" flag="0"/>
			<psa30 value="0.000135217603336096" flag="0"/>
		</comp>
		<comp name="--.HGN" depth="0.0">
			<acc value="0.000636082020334877" flag="0"/>
			<vel value="0.000579659771796915" flag="0"/>
			<psa03 value="0.0015547533854077" flag="0"/>
			<psa10 value="0.000526270956618778" flag="0"/>
			<psa30 value="0.000117652611616486" flag="0"/>
		</comp>
		<comp name="--.HGZ" depth="0.0">
			<acc value="0.000728317371571776" flag="0"/>
			<vel value="0.000523343498683469" flag="0"/>
			<psa03 value="0.00183652237674102" flag="0"/>
			<psa10 value="0.000882921750953125" flag="0"/>
			<psa30 value="8.00493263125306e-05" flag="0"/>
		</comp>
	</station>
	<station code="SFUY" name="SFUY" netid="CH" source="Switzerland Seismological Network" insttype="" lat="46.13485" lon="7.10993">
		<comp name="--.HGE" depth="0.0">
			<acc value="0.0180703476317005" flag="0"/>
			<vel value="0.00988663223947145" flag="0"/>
			<psa03 value="0.0394614266258265" flag="0"/>
			<psa10 value="0.0146979661681335" flag="0"/>
			<psa30 value="0.000581090890254048" flag="0"/>
		</comp>
		<comp name="--.HGN" depth="0.0">
			<acc value="0.0141293815170785" flag="0"/>
			<vel value="0.0087056144345273" flag="0"/>
			<psa03 value="0.0398982862948198" flag="0"/>
			<psa10 value="0.0139365532282396" flag="0"/>
			<psa30 value="0.000861334507098405" flag="0"/>
		</comp>
		<comp name="--.HGZ" depth="0.0">
			<acc value="0.0391523646472617" flag="0"/>
			<vel value="0.00462417692370804" flag="0"/>
			<psa03 value="0.015996300561822" flag="0"/>
			<psa10 value="0.00661339013588708" flag="0"/>
			<psa30 value="0.000314964146078989" flag="0"/>
		</comp>
	</station>
	<station code="SGAK" name="SGAK" netid="CH" source="Switzerland Seismological Network" insttype="" lat="46.315337" lon="7.741361">
		<comp name="--.HGE" depth="0.0">
			<acc value="0.00863664875628333" flag="0"/>
			<vel value="0.00139739884736187" flag="0"/>
			<psa03 value="0.00680348324944185" flag="0"/>
			<psa10 value="0.00126422620972094" flag="0"/>
			<psa30 value="0.000104781758985543" flag="0"/>
		</comp>
		<comp name="--.HGN" depth="0.0">
			<acc value="0.0182400024046002" flag="0"/>
			<vel value="0.00173970871531558" flag="0"/>
			<psa03 value="0.00539994170399636" flag="0"/>
			<psa10 value="0.0013743255345099" flag="0"/>
			<psa30 value="8.59211671159582e-05" flag="0"/>
		</comp>
		<comp name="--.HGZ" depth="0.0">
			<acc value="0.0137061704367647" flag="0"/>
			<vel value="0.00080641576352143" flag="0"/>
			<psa03 value="0.00349219748677881" flag="0"/>
			<psa10 value="0.000876771402114251" flag="0"/>
			<psa30 value="6.85504656111721e-05" flag="0"/>
		</comp>
	</station>
