<stationlist created="1778138866">
	<station code="DIX" name="DIX" netid="CH" source="Switzerland Seismological Network" insttype="" lat="46.081053" lon="7.408391">
		<comp name="--.HGE" depth="0.0">
			<acc value="0.00212523156454408" flag="0"/>
			<vel value="0.000762941806089739" flag="0"/>
			<psa03 value="0.00392271689199257" flag="0"/>
			<psa10 value="0.000660780765670013" flag="0"/>
			<psa30 value="9.22930475552187e-05" flag="0"/>
		</comp>
		<comp name="--.HGN" depth="0.0">
			<acc value="0.00164058407905472" flag="0"/>
			<vel value="0.000590827514560936" flag="0"/>
			<psa03 value="0.00199551695883052" flag="0"/>
			<psa10 value="0.000801225753055" flag="0"/>
			<psa30 value="0.000100793298155003" flag="0"/>
		</comp>
		<comp name="--.HGZ" depth="0.0">
			<acc value="0.00206492464279694" flag="0"/>
			<vel value="0.000623119393678017" flag="0"/>
			<psa03 value="0.00215047676842648" flag="0"/>
			<psa10 value="0.000749655852427974" flag="0"/>
			<psa30 value="9.32156151811619e-05" flag="0"/>
		</comp>
	</station>
	<station code="MFERR" name="MFERR" netid="CH" source="Switzerland Seismological Network" insttype="" lat="45.95101" lon="7.11229">
		<comp name="--.HGE" depth="0.0">
			<acc value="0.0045556334389511" flag="0"/>
			<vel value="0.00145054513430423" flag="0"/>
			<psa03 value="0.00718625535101378" flag="0"/>
			<psa10 value="0.00117894837298207" flag="0"/>
			<psa30 value="9.97947489330248e-05" flag="0"/>
		</comp>
		<comp name="--.HGN" depth="0.0">
			<acc value="0.00286153715680422" flag="0"/>
			<vel value="0.00116795573900993" flag="0"/>
			<psa03 value="0.00646414306151791" flag="0"/>
			<psa10 value="0.00121401788366556" flag="0"/>
			<psa30 value="8.46612203696065e-05" flag="0"/>
		</comp>
		<comp name="--.HGZ" depth="0.0">
			<acc value="0.00300370514676335" flag="0"/>
			<vel value="0.00131163988036934" flag="0"/>
			<psa03 value="0.00417953273290563" flag="0"/>
			<psa10 value="0.00139544072234908" flag="0"/>
			<psa30 value="8.76571414909605e-05" flag="0"/>
		</comp>
	</station>
	<station code="SAYF2" name="SAYF2" netid="CH" source="Switzerland Seismological Network" insttype="" lat="46.288025" lon="7.416981">
		<comp name="--.HGE" depth="0.0">
			<acc value="0.00346654191270578" flag="0"/>
			<vel value="0.000706914333601773" flag="0"/>
			<psa03 value="0.00162369252260047" flag="0"/>
			<psa10 value="0.000792659130870403" flag="0"/>
			<psa30 value="0.000146167781856675" flag="0"/>
		</comp>
		<comp name="--.HGN" depth="0.0">
			<acc value="0.0029052387774205" flag="0"/>
			<vel value="0.000772490154367342" flag="0"/>
			<psa03 value="0.00232275250376533" flag="0"/>
			<psa10 value="0.00115484177603684" flag="0"/>
			<psa30 value="0.000142357399229009" flag="0"/>
		</comp>
		<comp name="--.HGZ" depth="0.0">
			<acc value="0.00164655417675071" flag="0"/>
			<vel value="0.000545852760744514" flag="0"/>
			<psa03 value="0.00209256000854842" flag="0"/>
			<psa10 value="0.000783577669893555" flag="0"/>
			<psa30 value="0.000117378426786464" flag="0"/>
		</comp>
	</station>
	<station code="SCHIO" name="SCHIO" netid="CH" source="Switzerland Seismological Network" insttype="" lat="46.41375" lon="6.92843">
		<comp name="--.HGE" depth="0.0">
			<acc value="0.00471219189734871" flag="0"/>
			<vel value="0.0016340042487734" flag="0"/>
			<psa03 value="0.0044216985147849" flag="0"/>
			<psa10 value="0.000888164949848583" flag="0"/>
			<psa30 value="0.00060869167700132" flag="0"/>
		</comp>
		<comp name="--.HGN" depth="0.0">
			<acc value="0.00552449595574532" flag="0"/>
			<vel value="0.00178528313849768" flag="0"/>
			<psa03 value="0.00433706758288025" flag="0"/>
			<psa10 value="0.00109012537952025" flag="0"/>
			<psa30 value="0.000810036317180417" flag="0"/>
		</comp>
		<comp name="--.HGZ" depth="0.0">
			<acc value="0.00135904710705292" flag="0"/>
			<vel value="0.000704953009560659" flag="0"/>
			<psa03 value="0.00227433474554426" flag="0"/>
			<psa10 value="0.000872957106466973" flag="0"/>
			<psa30 value="0.000214323963535703" flag="0"/>
		</comp>
	</station>
	<station code="SZIM" name="SZIM" netid="CH" source="Switzerland Seismological Network" insttype="" lat="46.14791" lon="7.62408">
		<comp name="--.HGE" depth="1.0">
			<acc value="0.00996459732772158" flag="0"/>
			<vel value="0.00197748197585773" flag="0"/>
			<psa03 value="0.0152618274274217" flag="0"/>
			<psa10 value="0.000658825479893296" flag="0"/>
			<psa30 value="7.8452599443247e-05" flag="0"/>
		</comp>
		<comp name="--.HGN" depth="1.0">
			<acc value="0.0148185910465783" flag="0"/>
			<vel value="0.00285059004019143" flag="0"/>
			<psa03 value="0.00772493100958614" flag="0"/>
			<psa10 value="0.00100744787128968" flag="0"/>
			<psa30 value="5.49258651315363e-05" flag="0"/>
		</comp>
		<comp name="--.HGZ" depth="1.0">
			<acc value="0.00648819210255532" flag="0"/>
			<vel value="0.00128680677719934" flag="0"/>
			<psa03 value="0.00520216395376329" flag="0"/>
			<psa10 value="0.000587190929769238" flag="0"/>
			<psa30 value="5.20673326687127e-05" flag="0"/>
		</comp>
	</station>
	<station code="CALF" name="CALF" netid="FR" source="RESIF and other broad-band and accelerometric permanent networks in metropolitan France (RESIF)" insttype="" lat="43.7528" lon="6.9218">
		<comp name="00.HNE" depth="2.0">
			<acc value="0.0069257004275663" flag="0"/>
			<vel value="0.00200979010319823" flag="0"/>
			<psa03 value="0.0117465242433115" flag="0"/>
			<psa10 value="0.00112529696727701" flag="0"/>
			<psa30 value="0.000127343891637081" flag="0"/>
		</comp>
		<comp name="00.HNN" depth="2.0">
			<acc value="0.00607543450481326" flag="0"/>
			<vel value="0.00164039831529404" flag="0"/>
			<psa03 value="0.0092294050225832" flag="0"/>
			<psa10 value="0.00177197234540978" flag="0"/>
			<psa30 value="0.000131536617301041" flag="0"/>
		</comp>
		<comp name="00.HNZ" depth="2.0">
			<acc value="0.00437156042291059" flag="0"/>
			<vel value="0.00160029334375317" flag="0"/>
			<psa03 value="0.00535979028115247" flag="0"/>
			<psa10 value="0.00118425872476418" flag="0"/>
			<psa30 value="9.86659306650924e-05" flag="0"/>
		</comp>
	</station>
	<station code="ESCA" name="ESCA" netid="FR" source="RESIF and other broad-band and accelerometric permanent networks in metropolitan France (RESIF)" insttype="" lat="43.831" lon="7.3744">
		<comp name="01.HNE" depth="0.0">
			<acc value="0.030728839036616" flag="0"/>
			<vel value="0.0113423978702721" flag="0"/>
			<psa03 value="0.0482320024251075" flag="0"/>
			<psa10 value="0.00691139847121354" flag="0"/>
			<psa30 value="0.000304394175036653" flag="0"/>
		</comp>
		<comp name="01.HNN" depth="0.0">
			<acc value="0.0283342871816705" flag="0"/>
			<vel value="0.00707024210990496" flag="0"/>
			<psa03 value="0.0475667916915464" flag="0"/>
			<psa10 value="0.00372684336945797" flag="0"/>
			<psa30 value="0.000283471695275075" flag="0"/>
		</comp>
		<comp name="01.HNZ" depth="0.0">
			<acc value="0.0206219237653462" flag="0"/>
			<vel value="0.0065434041795443" flag="0"/>
			<psa03 value="0.0362232147143847" flag="0"/>
			<psa10 value="0.00409825180158366" flag="0"/>
			<psa30 value="0.000238728496883154" flag="0"/>
		</comp>
	</station>
	<station code="GRN" name="GRN" netid="FR" source="RESIF and other broad-band and accelerometric permanent networks in metropolitan France (RESIF)" insttype="" lat="45.2413" lon="5.7439">
		<comp name="00.HNE" depth="0.0">
			<acc value="0.0100419518362125" flag="0"/>
			<vel value="0.00762651977873815" flag="0"/>
			<psa03 value="0.0188863435755034" flag="0"/>
			<psa10 value="0.00817755453533984" flag="0"/>
			<psa30 value="0.000498774239264246" flag="0"/>
		</comp>
		<comp name="00.HNN" depth="0.0">
			<acc value="0.0106905515554696" flag="0"/>
			<vel value="0.00644236848286872" flag="0"/>
			<psa03 value="0.0251776496665656" flag="0"/>
			<psa10 value="0.0048681810868468" flag="0"/>
			<psa30 value="0.000343487285596996" flag="0"/>
		</comp>
		<comp name="00.HNZ" depth="0.0">
			<acc value="0.00789856217709097" flag="0"/>
			<vel value="0.00223799434605143" flag="0"/>
			<psa03 value="0.0077375021548973" flag="0"/>
			<psa10 value="0.00292671497425185" flag="0"/>
			<psa30 value="0.000157876096537545" flag="0"/>
		</comp>
	</station>
	<station code="ISO" name="ISO" netid="FR" source="RESIF and other broad-band and accelerometric permanent networks in metropolitan France (RESIF)" insttype="" lat="44.184" lon="7.05">
		<comp name="00.HNE" depth="0.0">
			<acc value="0.127937128021484" flag="0"/>
			<vel value="0.0135737978090294" flag="0"/>
			<psa03 value="0.0294548340507057" flag="0"/>
			<psa10 value="0.00627531930286133" flag="0"/>
			<psa30 value="0.000311747526743486" flag="0"/>
		</comp>
		<comp name="00.HNN" depth="0.0">
			<acc value="0.0846030621261955" flag="0"/>
			<vel value="0.0138028161965503" flag="0"/>
			<psa03 value="0.0298102846808937" flag="0"/>
			<psa10 value="0.00163108723121343" flag="0"/>
			<psa30 value="0.00022222956536821" flag="0"/>
		</comp>
		<comp name="00.HNZ" depth="0.0">
			<acc value="0.0968971571375821" flag="0"/>
			<vel value="0.0146031187911704" flag="0"/>
			<psa03 value="0.0339698701288279" flag="0"/>
			<psa10 value="0.00189575351405439" flag="0"/>
			<psa30 value="0.000192003083845213" flag="0"/>
		</comp>
	</station>
	<station code="SSB" name="SSB" netid="G" source="GEOSCOPE" insttype="" lat="45.279" lon="4.542">
		<comp name="00.HNE" depth="0.0">
			<acc value="0.00216978932471835" flag="0"/>
			<vel value="0.000639898428930866" flag="0"/>
			<psa03 value="0.00322641002289345" flag="0"/>
			<psa10 value="0.000499314874032997" flag="0"/>
			<psa30 value="7.1229015447733e-05" flag="0"/>
		</comp>
		<comp name="00.HNN" depth="0.0">
			<acc value="0.00201854200638919" flag="0"/>
			<vel value="0.000852748332241317" flag="0"/>
			<psa03 value="0.00414926835825037" flag="0"/>
			<psa10 value="0.000541208371928715" flag="0"/>
			<psa30 value="8.69462675758578e-05" flag="0"/>
		</comp>
		<comp name="00.HNZ" depth="0.0">
			<acc value="0.00157845000785566" flag="0"/>
			<vel value="0.000595813334396648" flag="0"/>
			<psa03 value="0.00384996988536022" flag="0"/>
			<psa10 value="0.000369506294384867" flag="0"/>
			<psa30 value="9.39038899428232e-05" flag="0"/>
		</comp>
	</station>
	<station code="BHB" name="BHB" netid="GU" source="Regional Seismic Network of North Western Italy (RSNI)" insttype="" lat="44.8355" lon="7.263">
		<comp name="--.HNE" depth="0.0">
			<acc value="0.235499515565377" flag="0"/>
			<vel value="0.0314187406265473" flag="0"/>
			<psa03 value="0.0792217688867246" flag="0"/>
			<psa10 value="0.0105514083540256" flag="0"/>
			<psa30 value="0.000711731784154696" flag="0"/>
		</comp>
		<comp name="--.HNN" depth="0.0">
			<acc value="0.216619960904594" flag="0"/>
			<vel value="0.0357123299198103" flag="0"/>
			<psa03 value="0.119441485328764" flag="0"/>
			<psa10 value="0.011535915135259" flag="0"/>
			<psa30 value="0.000931347218017913" flag="0"/>
		</comp>
		<comp name="--.HNZ" depth="0.0">
			<acc value="0.348353462750831" flag="0"/>
			<vel value="0.0437964066200012" flag="0"/>
			<psa03 value="0.0596664838615563" flag="0"/>
			<psa10 value="0.0100455101532467" flag="0"/>
			<psa30 value="0.00073931673652319" flag="0"/>
		</comp>
	</station>
	<station code="BURY" name="BURY" netid="GU" source="Regional Seismic Network of North Western Italy (RSNI)" insttype="" lat="43.7825" lon="7.557">
		<comp name="--.HNE" depth="0.0">
			<acc value="0.0105748469360762" flag="0"/>
			<vel value="0.00345145123048518" flag="0"/>
			<psa03 value="0.026600316827955" flag="0"/>
			<psa10 value="0.00147793376523528" flag="0"/>
			<psa30 value="0.000218687065069697" flag="0"/>
		</comp>
		<comp name="--.HNN" depth="0.0">
			<acc value="0.0112678630908611" flag="0"/>
			<vel value="0.00304438079639504" flag="0"/>
			<psa03 value="0.018302281446743" flag="0"/>
			<psa10 value="0.00182536357762807" flag="0"/>
			<psa30 value="0.000165325261883003" flag="0"/>
		</comp>
		<comp name="--.HNZ" depth="0.0">
			<acc value="0.0088747120255057" flag="0"/>
			<vel value="0.00202821131196717" flag="0"/>
			<psa03 value="0.0137708054774537" flag="0"/>
			<psa10 value="0.00178658729795391" flag="0"/>
			<psa30 value="0.000130316171869513" flag="0"/>
		</comp>
	</station>
	<station code="RSP" name="RSP" netid="GU" source="Regional Seismic Network of North Western Italy (RSNI)" insttype="" lat="45.1482" lon="7.2649">
		<comp name="--.HNE" depth="0.0">
			<acc value="0.0435879573352589" flag="0"/>
			<vel value="0.00691864858736757" flag="0"/>
			<psa03 value="0.0173743189321015" flag="0"/>
			<psa10 value="0.00273501399375391" flag="0"/>
			<psa30 value="0.00020722055026116" flag="0"/>
		</comp>
		<comp name="--.HNN" depth="0.0">
			<acc value="0.0506203817440413" flag="0"/>
			<vel value="0.00897626315188644" flag="0"/>
			<psa03 value="0.0171725477532632" flag="0"/>
			<psa10 value="0.00210428830502226" flag="0"/>
			<psa30 value="0.000221779822032948" flag="0"/>
		</comp>
		<comp name="--.HNZ" depth="0.0">
			<acc value="0.043622004633277" flag="0"/>
			<vel value="0.00644459074089405" flag="0"/>
			<psa03 value="0.0204043542925094" flag="0"/>
			<psa10 value="0.0021019083036085" flag="0"/>
			<psa30 value="0.000114734762073016" flag="0"/>
		</comp>
	</station>
	<station code="SARZ" name="SARZ" netid="IV" source="Italian National Seismic Network (INSN)" insttype="" lat="44.867306" lon="8.913604">
		<comp name="--.HNE" depth="0.0">
			<acc value="0.00378959691191803" flag="0"/>
			<vel value="0.00252320909135972" flag="0"/>
			<psa03 value="0.00709948137349589" flag="0"/>
			<psa10 value="0.00481299664989927" flag="0"/>
			<psa30 value="0.000403792790957569" flag="0"/>
		</comp>
		<comp name="--.HNN" depth="0.0">
			<acc value="0.00341495919842936" flag="0"/>
			<vel value="0.002586647650878" flag="0"/>
			<psa03 value="0.00893700804854028" flag="0"/>
			<psa10 value="0.00421308440866128" flag="0"/>
			<psa30 value="0.000466781703245166" flag="0"/>
		</comp>
		<comp name="--.HNZ" depth="0.0">
			<acc value="0.00215346558358671" flag="0"/>
			<vel value="0.00142143037385005" flag="0"/>
			<psa03 value="0.00481866003291065" flag="0"/>
			<psa10 value="0.00299312906136116" flag="0"/>
			<psa30 value="0.000204083337227993" flag="0"/>
		</comp>
	</station>
</stationlist>
