<stationlist created="1739289480">
	<station code="KTHA" name="KTHA" netid="GE" source="GEOFON" insttype="" lat="36.2566" lon="23.0621">
		<comp name=".HNE" depth="0.0">
			<acc value="0.012719623420392" flag="0"/>
			<vel value="0.00783409794798" flag="0"/>
			<psa03 value="0.0339164421103458" flag="0"/>
			<psa10 value="0.00811623797343852" flag="0"/>
			<psa30 value="0.00207562666674773" flag="0"/>
		</comp>
		<comp name=".HNN" depth="0.0">
			<acc value="0.0086881409567748" flag="0"/>
			<vel value="0.00771914952337" flag="0"/>
			<psa03 value="0.028073169605526" flag="0"/>
			<psa10 value="0.00754706604985055" flag="0"/>
			<psa30 value="0.00265551341473326" flag="0"/>
		</comp>
		<comp name=".HNZ" depth="0.0">
			<acc value="0.0070614210236784" flag="0"/>
			<vel value="0.0199126217636" flag="0"/>
			<psa03 value="0.0251488066100041" flag="0"/>
			<psa10 value="0.0116066485710027" flag="0"/>
			<psa30 value="0.00844063415059937" flag="0"/>
		</comp>
	</station>
	<station code="ATHU" name="ATHU" netid="HA" source="Hellenic Seismological Network, University of Athens, Seismological Laboratory (HA)" insttype="" lat="37.9665" lon="23.7845">
		<comp name=".HNE" depth="0.0">
			<acc value="0.00058415269468968" flag="0"/>
			<vel value="0.000548536653764" flag="0"/>
			<psa03 value="0.0020829975261252" flag="0"/>
			<psa10 value="0.00034474442942334" flag="0"/>
			<psa30 value="0.000221623978375695" flag="0"/>
		</comp>
		<comp name=".HNN" depth="0.0">
			<acc value="0.00049209805382046" flag="0"/>
			<vel value="0.000463368850006" flag="0"/>
			<psa03 value="0.00136853662237616" flag="0"/>
			<psa10 value="0.000233307686934623" flag="0"/>
			<psa30 value="8.15660023058002e-05" flag="0"/>
		</comp>
		<comp name=".HNZ" depth="0.0">
			<acc value="0.00079792084528734" flag="0"/>
			<vel value="0.000450392341602" flag="0"/>
			<psa03 value="0.00339321339050622" flag="0"/>
			<psa10 value="0.000266719045781077" flag="0"/>
			<psa30 value="0.000165077263683528" flag="0"/>
		</comp>
	</station>
	<station code="KIAS" name="KIAS" netid="HA" source="Hellenic Seismological Network, University of Athens, Seismological Laboratory (HA)" insttype="" lat="37.9875" lon="22.7543">
		<comp name=".HNE" depth="0.0">
			<acc value="0.0060021639847368" flag="0"/>
			<vel value="0.0108929211686" flag="0"/>
			<psa03 value="0.0199045438387419" flag="0"/>
			<psa10 value="0.00906012487628949" flag="0"/>
			<psa30 value="0.00739248221565207" flag="0"/>
		</comp>
		<comp name=".HNN" depth="0.0">
			<acc value="0.0056825440191174" flag="0"/>
			<vel value="0.00760209925234" flag="0"/>
			<psa03 value="0.0141701053666156" flag="0"/>
			<psa10 value="0.00764102852437519" flag="0"/>
			<psa30 value="0.00620451643542764" flag="0"/>
		</comp>
		<comp name=".HNZ" depth="0.0">
			<acc value="0.0043527967970754" flag="0"/>
			<vel value="0.00450142161859" flag="0"/>
			<psa03 value="0.0084907128586786" flag="0"/>
			<psa10 value="0.00523594263676408" flag="0"/>
			<psa30 value="0.00222488592943983" flag="0"/>
		</comp>
	</station>
	<station code="ABEA" name="ABEA" netid="HC" source="Seismological Network of Crete (HC)" insttype="" lat="35.5163" lon="24.0113">
		<comp name=".HNE" depth="0.0">
			<acc value="0.0045728857595172" flag="0"/>
			<vel value="0.00248495564456" flag="0"/>
			<psa03 value="0.00210090007926555" flag="0"/>
			<psa10 value="0.00180098989267952" flag="0"/>
			<psa30 value="0.00113497341558363" flag="0"/>
		</comp>
		<comp name=".HNN" depth="0.0">
			<acc value="0.0037966930526976" flag="0"/>
			<vel value="0.00206288623627" flag="0"/>
			<psa03 value="0.00237807550457959" flag="0"/>
			<psa10 value="0.00174330814186052" flag="0"/>
			<psa30 value="0.000884269828536579" flag="0"/>
		</comp>
		<comp name=".HNZ" depth="0.0">
			<acc value="0.005852122517187" flag="0"/>
			<vel value="0.00226178973572" flag="0"/>
			<psa03 value="0.00159130561150177" flag="0"/>
			<psa10 value="0.00129750310165088" flag="0"/>
			<psa30 value="0.000796660222744883" flag="0"/>
		</comp>
	</station>
	<station code="ATEI" name="ATEI" netid="HC" source="Seismological Network of Crete (HC)" insttype="" lat="35.5193" lon="24.0432">
		<comp name=".HNE" depth="0.0">
			<acc value="0.017520672835008" flag="0"/>
			<vel value="0.01371977987" flag="0"/>
			<psa03 value="0.0575908567783884" flag="0"/>
			<psa10 value="0.0196531713011518" flag="0"/>
			<psa30 value="0.00424822100712747" flag="0"/>
		</comp>
		<comp name=".HNN" depth="0.0">
			<acc value="0.017917255389324" flag="0"/>
			<vel value="0.0105463254673" flag="0"/>
			<psa03 value="0.0544014423702616" flag="0"/>
			<psa10 value="0.0165824078781308" flag="0"/>
			<psa30 value="0.00292731975390212" flag="0"/>
		</comp>
		<comp name=".HNZ" depth="0.0">
			<acc value="0.0127377882489" flag="0"/>
			<vel value="0.0071142094702" flag="0"/>
			<psa03 value="0.04571779420469" flag="0"/>
			<psa10 value="0.0125449279149194" flag="0"/>
			<psa30 value="0.00129596835154393" flag="0"/>
		</comp>
	</station>
	<station code="G0LD" name="G0LD" netid="HC" source="Seismological Network of Crete (HC)" insttype="" lat="35.4955" lon="24.0306">
		<comp name=".HNE" depth="0.0">
			<acc value="0.012211700682114" flag="0"/>
			<vel value="0.00422927094497" flag="0"/>
			<psa03 value="0.00236849235021441" flag="0"/>
			<psa10 value="0.00199594550284476" flag="0"/>
			<psa30 value="0.00168241405584209" flag="0"/>
		</comp>
		<comp name=".HNN" depth="0.0">
			<acc value="0.011688763589226" flag="0"/>
			<vel value="0.00303649089171" flag="0"/>
			<psa03 value="0.00182449928209229" flag="0"/>
			<psa10 value="0.00171862482702175" flag="0"/>
			<psa30 value="0.00104266230042516" flag="0"/>
		</comp>
		<comp name=".HNZ" depth="0.0">
			<acc value="0.01843277787006" flag="0"/>
			<vel value="0.00600712793354" flag="0"/>
			<psa03 value="0.00242779315360162" flag="0"/>
			<psa10 value="0.00206130483257798" flag="0"/>
			<psa30 value="0.00188378312472014" flag="0"/>
		</comp>
	</station>
	<station code="PASK" name="PASK" netid="HC" source="Seismological Network of Crete (HC)" insttype="" lat="35.4996" lon="24.0121">
		<comp name=".HNE" depth="0.0">
			<acc value="0.034255584801972" flag="0"/>
			<vel value="0.0232604182372" flag="0"/>
			<psa03 value="0.0974950627362682" flag="0"/>
			<psa10 value="0.0306819731551556" flag="0"/>
			<psa30 value="0.00620096786703939" flag="0"/>
		</comp>
		<comp name=".HNN" depth="0.0">
			<acc value="0.03581914796715" flag="0"/>
			<vel value="0.0166209875894" flag="0"/>
			<psa03 value="0.115686694925931" flag="0"/>
			<psa10 value="0.0400114605628812" flag="0"/>
			<psa30 value="0.00370709015986357" flag="0"/>
		</comp>
		<comp name=".HNZ" depth="0.0">
			<acc value="0.023490885474948" flag="0"/>
			<vel value="0.0125916028879" flag="0"/>
			<psa03 value="0.0922115877319061" flag="0"/>
			<psa10 value="0.0206381834283743" flag="0"/>
			<psa30 value="0.00225783894575068" flag="0"/>
		</comp>
	</station>
	<station code="POLY" name="POLY" netid="HC" source="Seismological Network of Crete (HC)" insttype="" lat="35.5226" lon="24.0602">
		<comp name=".HNE" depth="0.0">
			<acc value="0.0016682009851176" flag="0"/>
			<vel value="0.00359755325905" flag="0"/>
			<psa03 value="0.00145017191312442" flag="0"/>
			<psa10 value="0.0014109702667309" flag="0"/>
			<psa30 value="0.00112586614560538" flag="0"/>
		</comp>
		<comp name=".HNN" depth="0.0">
			<acc value="0.001893722747529" flag="0"/>
			<vel value="0.00349417867332" flag="0"/>
			<psa03 value="0.00163433303868043" flag="0"/>
			<psa10 value="0.00120351625048215" flag="0"/>
			<psa30 value="0.00131634709736759" flag="0"/>
		</comp>
		<comp name=".HNZ" depth="0.0">
			<acc value="0.0027908725043616" flag="0"/>
			<vel value="0.00210027933467" flag="0"/>
			<psa03 value="0.00158933087130937" flag="0"/>
			<psa10 value="0.00114675542004167" flag="0"/>
			<psa30 value="0.000727946712482282" flag="0"/>
		</comp>
	</station>
	<station code="ARK1" name="ARK1" netid="HI" source="ITSAK Strong Motion Network" insttype="" lat="35.148777" lon="25.264194">
		<comp name=".HNE" depth="0.0">
			<acc value="0.047703293085552" flag="0"/>
			<vel value="0.0638071043087" flag="0"/>
			<psa03 value="0.140031286802267" flag="0"/>
			<psa10 value="0.0926910578276788" flag="0"/>
			<psa30 value="0.0101261408071229" flag="0"/>
		</comp>
		<comp name=".HNN" depth="0.0">
			<acc value="0.05445014121219" flag="0"/>
			<vel value="0.0376897441062" flag="0"/>
			<psa03 value="0.139329156956379" flag="0"/>
			<psa10 value="0.11172616381005" flag="0"/>
			<psa30 value="0.0072380319840897" flag="0"/>
		</comp>
		<comp name=".HNZ" depth="0.0">
			<acc value="0.033521639922708" flag="0"/>
			<vel value="0.0377879741413" flag="0"/>
			<psa03 value="0.0908904585468334" flag="0"/>
			<psa10 value="0.0812396592286363" flag="0"/>
			<psa30 value="0.00590340232143054" flag="0"/>
		</comp>
	</station>
	<station code="ARS1" name="ARS1" netid="HI" source="ITSAK Strong Motion Network" insttype="" lat="37.6349" lon="22.7293">
		<comp name=".HNE" depth="0.0">
			<acc value="0.0095484375348288" flag="0"/>
			<vel value="0.00784662751905" flag="0"/>
			<psa03 value="0.0179812080938783" flag="0"/>
			<psa10 value="0.00673313509964459" flag="0"/>
			<psa30 value="0.00411910662059741" flag="0"/>
		</comp>
		<comp name=".HNN" depth="0.0">
			<acc value="0.0090295621194054" flag="0"/>
			<vel value="0.00778303247661" flag="0"/>
			<psa03 value="0.0359328647509248" flag="0"/>
			<psa10 value="0.00789694782152921" flag="0"/>
			<psa30 value="0.0026610052368719" flag="0"/>
		</comp>
		<comp name=".HNZ" depth="0.0">
			<acc value="0.005966951374815" flag="0"/>
			<vel value="0.00400819891186" flag="0"/>
			<psa03 value="0.0134991950366854" flag="0"/>
			<psa10 value="0.0024401162551022" flag="0"/>
			<psa30 value="0.00259109456396394" flag="0"/>
		</comp>
	</station>
	<station code="ATH5" name="ATH5" netid="HI" source="ITSAK Strong Motion Network" insttype="" lat="37.975421" lon="23.737098">
		<comp name=".HNE" depth="0.0">
			<acc value="0.0305547098121" flag="0"/>
			<vel value="0.0144667579326" flag="0"/>
			<psa03 value="0.125986877262279" flag="0"/>
			<psa10 value="0.00728506619363699" flag="0"/>
			<psa30 value="0.00167903185261994" flag="0"/>
		</comp>
		<comp name=".HNN" depth="0.0">
			<acc value="0.031592213529546" flag="0"/>
			<vel value="0.0217011711788" flag="0"/>
			<psa03 value="0.128582736725249" flag="0"/>
			<psa10 value="0.0120849383803759" flag="0"/>
			<psa30 value="0.00591724115484057" flag="0"/>
		</comp>
		<comp name=".HNZ" depth="0.0">
			<acc value="0.01973924852319" flag="0"/>
			<vel value="0.0134317372335" flag="0"/>
			<psa03 value="0.082050841715626" flag="0"/>
			<psa10 value="0.00892627288425953" flag="0"/>
			<psa30 value="0.00117132644879666" flag="0"/>
		</comp>
	</station>
	<station code="CH01" name="CH01" netid="HI" source="ITSAK Strong Motion Network" insttype="" lat="35.517" lon="24.0208">
		<comp name=".HNE" depth="0.0">
			<acc value="0.029481542636664" flag="0"/>
			<vel value="0.0165895048229" flag="0"/>
			<psa03 value="0.0747951579371668" flag="0"/>
			<psa10 value="0.0238708788285564" flag="0"/>
			<psa30 value="0.00484430132786009" flag="0"/>
		</comp>
		<comp name=".HNN" depth="0.0">
			<acc value="0.02124174352194" flag="0"/>
			<vel value="0.0153924991452" flag="0"/>
			<psa03 value="0.0576301562566435" flag="0"/>
			<psa10 value="0.0226311010743669" flag="0"/>
			<psa30 value="0.0052559781827671" flag="0"/>
		</comp>
		<comp name=".HNZ" depth="0.0">
			<acc value="0.01516324575522" flag="0"/>
			<vel value="0.00950133517884" flag="0"/>
			<psa03 value="0.0372687605391507" flag="0"/>
			<psa10 value="0.022092736035356" flag="0"/>
			<psa30 value="0.00143774503521962" flag="0"/>
		</comp>
	</station>
	<station code="CH02" name="CH02" netid="HI" source="ITSAK Strong Motion Network" insttype="" lat="35.5145" lon="24.0315">
		<comp name=".HNE" depth="0.0">
			<acc value="0.030040578632274" flag="0"/>
			<vel value="0.0172346070027" flag="0"/>
			<psa03 value="0.115991871392113" flag="0"/>
			<psa10 value="0.0224486308616076" flag="0"/>
			<psa30 value="0.00460783524646055" flag="0"/>
		</comp>
		<comp name=".HNN" depth="0.0">
			<acc value="0.033145305828522" flag="0"/>
			<vel value="0.0170212692774" flag="0"/>
			<psa03 value="0.127778766799728" flag="0"/>
			<psa10 value="0.0130354454092985" flag="0"/>
			<psa30 value="0.00410412021115738" flag="0"/>
		</comp>
		<comp name=".HNZ" depth="0.0">
			<acc value="0.013043328415866" flag="0"/>
			<vel value="0.00802464113101" flag="0"/>
			<psa03 value="0.0388295201818103" flag="0"/>
			<psa10 value="0.0130382027794487" flag="0"/>
			<psa30 value="0.00112319617706946" flag="0"/>
		</comp>
	</station>
	<station code="CH03" name="CH03" netid="HI" source="ITSAK Strong Motion Network" insttype="" lat="35.53303" lon="24.0705">
		<comp name=".HNE" depth="0.0">
			<acc value="0.017470773821274" flag="0"/>
			<vel value="0.0119225857114" flag="0"/>
			<psa03 value="0.0701024095655882" flag="0"/>
			<psa10 value="0.0203538883451956" flag="0"/>
			<psa30 value="0.00238635933459355" flag="0"/>
		</comp>
		<comp name=".HNN" depth="0.0">
			<acc value="0.01613989654521" flag="0"/>
			<vel value="0.0157773804727" flag="0"/>
			<psa03 value="0.0770005436163233" flag="0"/>
			<psa10 value="0.0174012727489258" flag="0"/>
			<psa30 value="0.00288747440601056" flag="0"/>
		</comp>
		<comp name=".HNZ" depth="0.0">
			<acc value="0.010362638781006" flag="0"/>
			<vel value="0.00834809537318" flag="0"/>
			<psa03 value="0.0265419796300446" flag="0"/>
			<psa10 value="0.0121485594699324" flag="0"/>
			<psa30 value="0.00107100011516634" flag="0"/>
		</comp>
	</station>
	<station code="GOR1" name="GOR1" netid="HI" source="ITSAK Strong Motion Network" insttype="" lat="35.0582" lon="24.9628">
		<comp name=".HNE" depth="0.0">
			<acc value="0.02623100684607" flag="0"/>
			<vel value="0.0264368448512" flag="0"/>
			<psa03 value="0.0548742236896327" flag="0"/>
			<psa10 value="0.0379157429818734" flag="0"/>
			<psa30 value="0.00479808243276575" flag="0"/>
		</comp>
		<comp name=".HNN" depth="0.0">
			<acc value="0.019937185310568" flag="0"/>
			<vel value="0.023632014463" flag="0"/>
			<psa03 value="0.0456048752656681" flag="0"/>
			<psa10 value="0.0417180861186086" flag="0"/>
			<psa30 value="0.00743818357647917" flag="0"/>
		</comp>
		<comp name=".HNZ" depth="0.0">
			<acc value="0.014757121511556" flag="0"/>
			<vel value="0.0180632681502" flag="0"/>
			<psa03 value="0.0406150968008383" flag="0"/>
			<psa10 value="0.0287180880573809" flag="0"/>
			<psa30 value="0.00229149138338961" flag="0"/>
		</comp>
	</station>
	<station code="GTH2" name="GTH2" netid="HI" source="ITSAK Strong Motion Network" insttype="" lat="36.7603" lon="22.5659">
		<comp name=".HNE" depth="0.0">
			<acc value="0.014329135527312" flag="0"/>
			<vel value="0.00630837963923" flag="0"/>
			<psa03 value="0.0180998005854572" flag="0"/>
			<psa10 value="0.00463893449416355" flag="0"/>
			<psa30 value="0.00139972137050314" flag="0"/>
		</comp>
		<comp name=".HNN" depth="0.0">
			<acc value="0.012692750862186" flag="0"/>
			<vel value="0.00714779078157" flag="0"/>
			<psa03 value="0.0273852386168063" flag="0"/>
			<psa10 value="0.00473478474999042" flag="0"/>
			<psa30 value="0.00172391263825018" flag="0"/>
		</comp>
		<comp name=".HNZ" depth="0.0">
			<acc value="0.039925187460348" flag="0"/>
			<vel value="0.0045418198689" flag="0"/>
			<psa03 value="0.011422270992293" flag="0"/>
			<psa10 value="0.00171069305158181" flag="0"/>
			<psa30 value="0.000544965892981081" flag="0"/>
		</comp>
	</station>
	<station code="HER3" name="HER3" netid="HI" source="ITSAK Strong Motion Network" insttype="" lat="35.3296" lon="25.1065">
		<comp name=".HNE" depth="0.0">
			<acc value="0.1051235722446" flag="0"/>
			<vel value="0.0759962383477" flag="0"/>
			<psa03 value="0.318322712317311" flag="0"/>
			<psa10 value="0.205550396704831" flag="0"/>
			<psa30 value="0.00975138181453513" flag="0"/>
		</comp>
		<comp name=".HNN" depth="0.0">
			<acc value="0.10984208244954" flag="0"/>
			<vel value="0.117074668083" flag="0"/>
			<psa03 value="0.392965032004621" flag="0"/>
			<psa10 value="0.254303806379014" flag="0"/>
			<psa30 value="0.00899610761463632" flag="0"/>
		</comp>
		<comp name=".HNZ" depth="0.0">
			<acc value="0.062149418058666" flag="0"/>
			<vel value="0.0475381093745" flag="0"/>
			<psa03 value="0.157662767301292" flag="0"/>
			<psa10 value="0.0825555088973988" flag="0"/>
			<psa30 value="0.00388768879030364" flag="0"/>
		</comp>
	</station>
	<station code="KIS1" name="KIS1" netid="HI" source="ITSAK Strong Motion Network" insttype="" lat="35.493933" lon="23.658993">
		<comp name=".HNE" depth="0.0">
			<acc value="0.01206633273093" flag="0"/>
			<vel value="0.00988542967816" flag="0"/>
			<psa03 value="0.0478496593883666" flag="0"/>
			<psa10 value="0.0192657050084229" flag="0"/>
			<psa30 value="0.00259488002306576" flag="0"/>
		</comp>
		<comp name=".HNN" depth="0.0">
			<acc value="0.013031760547416" flag="0"/>
			<vel value="0.0117567332039" flag="0"/>
			<psa03 value="0.043634596307013" flag="0"/>
			<psa10 value="0.0169991429848008" flag="0"/>
			<psa30 value="0.00281538921404944" flag="0"/>
		</comp>
		<comp name=".HNZ" depth="0.0">
			<acc value="0.012430817926878" flag="0"/>
			<vel value="0.00831731662675" flag="0"/>
			<psa03 value="0.0261553029729679" flag="0"/>
			<psa10 value="0.0115264326320893" flag="0"/>
			<psa30 value="0.00151577749615536" flag="0"/>
		</comp>
	</station>
	<station code="KOR2" name="KOR2" netid="HI" source="ITSAK Strong Motion Network" insttype="" lat="37.9401" lon="22.9495">
		<comp name=".HNE" depth="0.0">
			<acc value="0.011326725813306" flag="0"/>
			<vel value="0.0126627012665" flag="0"/>
			<psa03 value="0.0323581018987955" flag="0"/>
			<psa10 value="0.015735886800274" flag="0"/>
			<psa30 value="0.00497796018208816" flag="0"/>
		</comp>
		<comp name=".HNN" depth="0.0">
			<acc value="0.011499735295698" flag="0"/>
			<vel value="0.0112870771043" flag="0"/>
			<psa03 value="0.0351080731333897" flag="0"/>
			<psa10 value="0.0159641794235514" flag="0"/>
			<psa30 value="0.00515694828918612" flag="0"/>
		</comp>
		<comp name=".HNZ" depth="0.0">
			<acc value="0.011519715641382" flag="0"/>
			<vel value="0.0063298466612" flag="0"/>
			<psa03 value="0.0245762061780392" flag="0"/>
			<psa10 value="0.00906087961379463" flag="0"/>
			<psa30 value="0.00186918194912871" flag="0"/>
		</comp>
	</station>
	<station code="KRL1" name="KRL1" netid="HI" source="ITSAK Strong Motion Network" insttype="" lat="37.7951" lon="26.7065">
		<comp name=".HNE" depth="0.0">
			<acc value="0.1296154468449" flag="0"/>
			<vel value="0.0894824385132" flag="0"/>
			<psa03 value="0.388077833251858" flag="0"/>
			<psa10 value="0.109093024377402" flag="0"/>
			<psa30 value="0.00622448317478928" flag="0"/>
		</comp>
		<comp name=".HNN" depth="0.0">
			<acc value="0.076677582127398" flag="0"/>
			<vel value="0.0529521761674" flag="0"/>
			<psa03 value="0.212919709052367" flag="0"/>
			<psa10 value="0.092643317164993" flag="0"/>
			<psa30 value="0.00643433832666082" flag="0"/>
		</comp>
		<comp name=".HNZ" depth="0.0">
			<acc value="0.04180074873063" flag="0"/>
			<vel value="0.0347489622821" flag="0"/>
			<psa03 value="0.118119554007201" flag="0"/>
			<psa10 value="0.0533617749555699" flag="0"/>
			<psa30 value="0.00280391053697806" flag="0"/>
		</comp>
	</station>
	<station code="KTL1" name="KTL1" netid="HI" source="ITSAK Strong Motion Network" insttype="" lat="35.20778" lon="25.34272">
		<comp name=".HNE" depth="0.0">
			<acc value="0.056742019453026" flag="0"/>
			<vel value="0.0346882712105" flag="0"/>
			<psa03 value="0.154460638509259" flag="0"/>
			<psa10 value="0.0401623443082109" flag="0"/>
			<psa30 value="0.00675211187762711" flag="0"/>
		</comp>
		<comp name=".HNN" depth="0.0">
			<acc value="0.059223594005382" flag="0"/>
			<vel value="0.0470886295704" flag="0"/>
