<?xml version="1.0" encoding="UTF-8" standalone="yes"?>
<!DOCTYPE earthquake SYSTEM "stationlist.dtd">
<stationlist created="" xmlns="ch.ethz.sed.shakemap.usgs.xml">
  <station code="CEYT" name="CEYT" netid="KO" insttype="CMG-3ESP" lat="37.0105" lon="35.7478">
    <comp name="--.HHZ">
      <acc value="0.0078095550" flag="0"/>
      <vel value="0.0036599604" flag="0"/>
      <psa03 value="0.0130864272" flag="0"/>
      <psa10 value="0.0046437733" flag="0"/>
      <psa30 value="0.0001923314" flag="0"/>
    </comp>
    <comp name="--.HHN">
      <acc value="0.0111454076" flag="0"/>
      <vel value="0.0051783847" flag="0"/>
      <psa03 value="0.0409934986" flag="0"/>
      <psa10 value="0.0059810989" flag="0"/>
      <psa30 value="0.0003057502" flag="0"/>
    </comp>
    <comp name="--.HHE">
      <acc value="0.0135267944" flag="0"/>
      <vel value="0.0078982166" flag="0"/>
      <psa03 value="0.0307833219" flag="0"/>
      <psa10 value="0.0055014962" flag="0"/>
      <psa30 value="0.0005202119" flag="0"/>
    </comp>
  </station>
  <station code="TAHT" name="TAHT" netid="KO" insttype="CMG-3ESPC" lat="36.3755" lon="36.1855">
    <comp name="--.HHN">
      <acc value="0.4547272558" flag="0"/>
      <vel value="0.0982788097" flag="0"/>
      <psa03 value="0.3401584477" flag="0"/>
      <psa10 value="0.0411673981" flag="0"/>
      <psa30 value="0.0025403521" flag="0"/>
    </comp>
    <comp name="--.HHZ">
      <acc value="0.3034568379" flag="0"/>
      <vel value="0.0515358595" flag="0"/>
      <psa03 value="0.2016737180" flag="0"/>
      <psa10 value="0.0241872317" flag="0"/>
      <psa30 value="0.0011932150" flag="0"/>
    </comp>
    <comp name="--.HHE">
      <acc value="0.4304590175" flag="0"/>
      <vel value="0.0814170285" flag="0"/>
      <psa03 value="0.4195962657" flag="0"/>
      <psa10 value="0.0481962939" flag="0"/>
      <psa30 value="0.0022893840" flag="0"/>
    </comp>
  </station>
</stationlist>
