<?xml version="1.0" encoding="UTF-8" standalone="yes"?>
<!DOCTYPE earthquake SYSTEM "stationlist.dtd">
<stationlist created="" xmlns="ch.ethz.sed.shakemap.usgs.xml">
  <station code="CEYT" name="CEYT" netid="KO" insttype="CMG-3ESP" lat="37.0105" lon="35.7478">
    <comp name="--.HHN">
      <acc value="0.0111454073" flag="0"/>
      <vel value="0.0051783848" flag="0"/>
      <psa03 value="0.0409934986" flag="0"/>
      <psa10 value="0.0059810989" flag="0"/>
      <psa30 value="0.0003057416" flag="0"/>
    </comp>
    <comp name="--.HHZ">
      <acc value="0.0078095550" flag="0"/>
      <vel value="0.0036599598" flag="0"/>
      <psa03 value="0.0130864272" flag="0"/>
      <psa10 value="0.0046437734" flag="0"/>
      <psa30 value="0.0001923165" flag="0"/>
    </comp>
    <comp name="--.HHE">
      <acc value="0.0135267944" flag="0"/>
      <vel value="0.0078982185" flag="0"/>
      <psa03 value="0.0307833219" flag="0"/>
      <psa10 value="0.0055014962" flag="0"/>
      <psa30 value="0.0005202454" flag="0"/>
    </comp>
  </station>
  <station code="TAHT" name="TAHT" netid="KO" insttype="CMG-3ESPC" lat="36.3755" lon="36.1855">
    <comp name="--.HHN">
      <acc value="0.4547272561" flag="0"/>
      <vel value="0.0982788120" flag="0"/>
      <psa03 value="0.3401584477" flag="0"/>
      <psa10 value="0.0411673972" flag="0"/>
      <psa30 value="0.0025402581" flag="0"/>
    </comp>
    <comp name="--.HHZ">
      <acc value="0.3034568379" flag="0"/>
      <vel value="0.0515358598" flag="0"/>
      <psa03 value="0.2016737180" flag="0"/>
      <psa10 value="0.0241872308" flag="0"/>
      <psa30 value="0.0011931475" flag="0"/>
    </comp>
    <comp name="--.HHE">
      <acc value="0.4304590177" flag="0"/>
      <vel value="0.0814170281" flag="0"/>
      <psa03 value="0.4195962657" flag="0"/>
      <psa10 value="0.0481962931" flag="0"/>
      <psa30 value="0.0022893629" flag="0"/>
    </comp>
  </station>
</stationlist>
