<?xml version="1.0" encoding="UTF-8" standalone="yes"?>
<!DOCTYPE earthquake SYSTEM "stationlist.dtd">
<stationlist created="" xmlns="ch.ethz.sed.shakemap.usgs.xml">
  <station code="KALE" name="KALE" netid="HA" insttype="40," lat="38.3911" lon="22.1398">
    <comp name="--.HHE">
      <acc value="0.0171334953" flag="0"/>
      <vel value="0.0173685542" flag="0"/>
      <psa03 value="0.0519704328" flag="0"/>
      <psa10 value="0.0244587340" flag="0"/>
      <psa30 value="0.0043797057" flag="0"/>
    </comp>
    <comp name="--.HHN">
      <acc value="0.0244684929" flag="0"/>
      <vel value="0.0248338329" flag="0"/>
      <psa03 value="0.0367785533" flag="0"/>
      <psa10 value="0.0350326238" flag="0"/>
      <psa30 value="0.0036618833" flag="0"/>
    </comp>
    <comp name="--.HHZ">
      <acc value="0.0114689692" flag="0"/>
      <vel value="0.0104804199" flag="0"/>
      <psa03 value="0.0298682497" flag="0"/>
      <psa10 value="0.0199994578" flag="0"/>
      <psa30 value="0.0048611753" flag="0"/>
    </comp>
  </station>
  <station code="MAKR" name="MAKR" netid="HA" insttype="30" lat="39.0132" lon="22.1317">
    <comp name="--.HHE">
      <acc value="0.0471652565" flag="0"/>
      <vel value="0.0565103130" flag="0"/>
      <psa03 value="0.1516525546" flag="0"/>
      <psa10 value="0.0642871808" flag="0"/>
      <psa30 value="0.0093872227" flag="0"/>
    </comp>
    <comp name="--.HHN">
      <acc value="0.0335515707" flag="0"/>
      <vel value="0.0363581080" flag="0"/>
      <psa03 value="0.0675115285" flag="0"/>
      <psa10 value="0.0582764191" flag="0"/>
      <psa30 value="0.0097907980" flag="0"/>
    </comp>
    <comp name="--.HHZ">
      <acc value="0.0181422740" flag="0"/>
      <vel value="0.0350815985" flag="0"/>
      <psa03 value="0.0369388793" flag="0"/>
      <psa10 value="0.0367055912" flag="0"/>
      <psa30 value="0.0128912588" flag="0"/>
    </comp>
  </station>
  <station code="ARG2" name="ARG2" netid="HI" insttype="CMG-5TD,ACCELEROMETER,GURALP" lat="38.1783" lon="20.4878">
    <comp name="--.HNE">
      <acc value="5.1234035033" flag="0"/>
      <vel value="1.7925792893" flag="0"/>
      <psa03 value="11.0313655495" flag="0"/>
      <psa10 value="0.6578014066" flag="0"/>
      <psa30 value="0.0802478731" flag="0"/>
    </comp>
    <comp name="--.HNN">
      <acc value="5.0225587661" flag="0"/>
      <vel value="2.0924192638" flag="0"/>
      <psa03 value="7.8732171742" flag="0"/>
      <psa10 value="0.6996223125" flag="0"/>
      <psa30 value="0.0568633103" flag="0"/>
    </comp>
    <comp name="--.HNZ">
      <acc value="3.3259487559" flag="0"/>
      <vel value="1.2331116994" flag="0"/>
      <psa03 value="6.4347494828" flag="0"/>
      <psa10 value="1.0043100302" flag="0"/>
      <psa30 value="0.1088591862" flag="0"/>
    </comp>
  </station>
  <station code="ART2" name="ART2" netid="HI" insttype="CMG-5TD,ACCELEROMETER,GURALP" lat="39.1474" lon="20.9937">
    <comp name="--.HNE">
      <acc value="0.0993493280" flag="0"/>
      <vel value="0.1032203666" flag="0"/>
      <psa03 value="0.1621480099" flag="0"/>
      <psa10 value="0.2127491876" flag="0"/>
      <psa30 value="0.0138763809" flag="0"/>
    </comp>
    <comp name="--.HNN">
      <acc value="0.0916125831" flag="0"/>
      <vel value="0.0684835319" flag="0"/>
      <psa03 value="0.1484860290" flag="0"/>
      <psa10 value="0.1122594688" flag="0"/>
      <psa30 value="0.0096910131" flag="0"/>
    </comp>
    <comp name="--.HNZ">
      <acc value="0.0608618588" flag="0"/>
      <vel value="0.0716831912" flag="0"/>
      <psa03 value="0.1046912690" flag="0"/>
      <psa10 value="0.0733142489" flag="0"/>
      <psa30 value="0.0169949859" flag="0"/>
    </comp>
  </station>
  <station code="KLV1" name="KLV1" netid="HI" insttype="CMG-5TD,ACCELEROMETER,GURALP" lat="38.0326" lon="22.108">
    <comp name="--.HNE">
      <acc value="0.0331431188" flag="0"/>
      <vel value="0.0214630914" flag="0"/>
      <psa03 value="0.0952758345" flag="0"/>
      <psa10 value="0.0416860824" flag="0"/>
      <psa30 value="0.0031956153" flag="0"/>
    </comp>
    <comp name="--.HNN">
      <acc value="0.0296593958" flag="0"/>
      <vel value="0.0211493149" flag="0"/>
      <psa03 value="0.0878364764" flag="0"/>
      <psa10 value="0.0347340379" flag="0"/>
      <psa30 value="0.0036532013" flag="0"/>
    </comp>
    <comp name="--.HNZ">
      <acc value="0.0181305779" flag="0"/>
      <vel value="0.0120766527" flag="0"/>
      <psa03 value="0.0349945742" flag="0"/>
      <psa10 value="0.0194290906" flag="0"/>
      <psa30 value="0.0024512613" flag="0"/>
    </comp>
  </station>
  <station code="MSL1" name="MSL1" netid="HI" insttype="CMG-5TD,ACCELEROMETER,GURALP" lat="38.3727" lon="21.4243">
    <comp name="--.HNE">
      <acc value="0.1848600939" flag="0"/>
      <vel value="0.1955086284" flag="0"/>
      <psa03 value="0.3632530419" flag="0"/>
      <psa10 value="0.3144419403" flag="0"/>
      <psa30 value="0.0481265229" flag="0"/>
    </comp>
    <comp name="--.HNN">
      <acc value="0.1715450133" flag="0"/>
      <vel value="0.1533778530" flag="0"/>
      <psa03 value="0.5983929699" flag="0"/>
      <psa10 value="0.2758188539" flag="0"/>
      <psa30 value="0.0375465222" flag="0"/>
    </comp>
    <comp name="--.HNZ">
      <acc value="0.0913136935" flag="0"/>
      <vel value="0.0812512473" flag="0"/>
      <psa03 value="0.2020299922" flag="0"/>
      <psa10 value="0.1849920511" flag="0"/>
      <psa30 value="0.0100376776" flag="0"/>
    </comp>
  </station>
  <station code="EVR" name="EVR" netid="HL" insttype="DR24" lat="38.9166" lon="21.8105">
    <comp name="--.HHE">
      <acc value="0.0198505221" flag="0"/>
      <vel value="0.0307613099" flag="0"/>
      <psa03 value="0.0625241886" flag="0"/>
      <psa10 value="0.0363373031" flag="0"/>
      <psa30 value="0.0100086838" flag="0"/>
    </comp>
    <comp name="--.HHN">
      <acc value="0.0223963995" flag="0"/>
      <vel value="0.0306405938" flag="0"/>
      <psa03 value="0.0386550511" flag="0"/>
      <psa10 value="0.0383614790" flag="0"/>
      <psa30 value="0.0085004314" flag="0"/>
    </comp>
    <comp name="--.HHZ">
      <acc value="0.0153715308" flag="0"/>
      <vel value="0.0293443929" flag="0"/>
      <psa03 value="0.0328897139" flag="0"/>
      <psa10 value="0.0394008172" flag="0"/>
      <psa30 value="0.0065598876" flag="0"/>
    </comp>
  </station>
  <station code="ITM" name="ITM" netid="HL" insttype="DR24" lat="37.1787" lon="21.9252">
    <comp name="--.HHE">
      <acc value="0.0059411857" flag="0"/>
      <vel value="0.0091785208" flag="0"/>
      <psa03 value="0.0140949797" flag="0"/>
      <psa10 value="0.0087617950" flag="0"/>
      <psa30 value="0.0049555203" flag="0"/>
    </comp>
    <comp name="--.HHN">
      <acc value="0.0057301169" flag="0"/>
      <vel value="0.0075321936" flag="0"/>
      <psa03 value="0.0140484527" flag="0"/>
      <psa10 value="0.0161609629" flag="0"/>
      <psa30 value="0.0018456700" flag="0"/>
    </comp>
    <comp name="--.HHZ">
      <acc value="0.0043441482" flag="0"/>
      <vel value="0.0080693931" flag="0"/>
      <psa03 value="0.0104006348" flag="0"/>
      <psa10 value="0.0111605687" flag="0"/>
      <psa30 value="0.0027196612" flag="0"/>
    </comp>
  </station>
  <station code="JAN" name="JAN" netid="HL" insttype="CMG3EPSC60_DR24" lat="39.6562" lon="20.8487">
    <comp name="--.HHE">
      <acc value="0.0409949277" flag="0"/>
      <vel value="0.0652350409" flag="0"/>
      <psa03 value="0.1020192196" flag="0"/>
      <psa10 value="0.0872140558" flag="0"/>
      <psa30 value="0.0117286387" flag="0"/>
    </comp>
    <comp name="--.HHN">
      <acc value="0.0453975923" flag="0"/>
      <vel value="0.0388009784" flag="0"/>
      <psa03 value="0.1102740930" flag="0"/>
      <psa10 value="0.0688098173" flag="0"/>
      <psa30 value="0.0080069395" flag="0"/>
    </comp>
    <comp name="--.HHZ">
      <acc value="0.0246942708" flag="0"/>
      <vel value="0.0330796049" flag="0"/>
      <psa03 value="0.0630521489" flag="0"/>
      <psa10 value="0.0486547719" flag="0"/>
      <psa30 value="0.0082138861" flag="0"/>
    </comp>
  </station>
  <station code="KLV" name="KLV" netid="HL" insttype="120" lat="38.0435" lon="22.1504">
    <comp name="--.HHE">
      <acc value="0.0096212983" flag="0"/>
      <vel value="0.0086746988" flag="0"/>
      <psa03 value="0.0215298203" flag="0"/>
      <psa10 value="0.0137454526" flag="0"/>
      <psa30 value="0.0020484624" flag="0"/>
    </comp>
    <comp name="--.HHN">
      <acc value="0.0090254376" flag="0"/>
      <vel value="0.0097976194" flag="0"/>
      <psa03 value="0.0170577983" flag="0"/>
      <psa10 value="0.0223814273" flag="0"/>
      <psa30 value="0.0026828741" flag="0"/>
    </comp>
    <comp name="--.HHZ">
      <acc value="0.0138766717" flag="0"/>
      <vel value="0.0099842913" flag="0"/>
      <psa03 value="0.0224801963" flag="0"/>
      <psa10 value="0.0203526933" flag="0"/>
      <psa30 value="0.0020065742" flag="0"/>
    </comp>
  </station>
  <station code="ORTH" name="ORTH" netid="HL" insttype="30" lat="37.8511" lon="20.6963">
    <comp name="--.HHE">
      <acc value="0.2764987896" flag="0"/>
      <vel value="0.0596589221" flag="0"/>
      <psa03 value="0.2823389757" flag="0"/>
      <psa10 value="0.0432441301" flag="0"/>
      <psa30 value="0.0027663290" flag="0"/>
    </comp>
    <comp name="--.HHN">
      <acc value="0.2625787722" flag="0"/>
      <vel value="0.0538844975" flag="0"/>
      <psa03 value="0.2191176752" flag="0"/>
      <psa10 value="0.0611337230" flag="0"/>
      <psa30 value="0.0024003853" flag="0"/>
    </comp>
    <comp name="--.HHZ">
      <acc value="0.1518619719" flag="0"/>
      <vel value="0.0281330609" flag="0"/>
      <psa03 value="0.1454117929" flag="0"/>
      <psa10 value="0.0278215558" flag="0"/>
      <psa30 value="0.0014107804" flag="0"/>
    </comp>
  </station>
  <station code="PATC" name="PATC" netid="HL" insttype="CMG-5" lat="38.2693" lon="21.76">
    <comp name="00.HNE">
      <acc value="0.0853203685" flag="0"/>
      <vel value="0.0916498075" flag="0"/>
      <psa03 value="0.1951734832" flag="0"/>
      <psa10 value="0.1667749730" flag="0"/>
      <psa30 value="0.0368625003" flag="0"/>
    </comp>
    <comp name="00.HNN">
      <acc value="0.0810352625" flag="0"/>
      <vel value="0.0792210696" flag="0"/>
      <psa03 value="0.1944578352" flag="0"/>
      <psa10 value="0.1576168016" flag="0"/>
      <psa30 value="0.0272412875" flag="0"/>
    </comp>
    <comp name="00.HNZ">
      <acc value="0.0706379734" flag="0"/>
      <vel value="0.0610566435" flag="0"/>
      <psa03 value="0.0927277184" flag="0"/>
      <psa10 value="0.0901656888" flag="0"/>
      <psa30 value="0.0150141983" flag="0"/>
    </comp>
  </station>
  <station code="PATG" name="PATG" netid="HL" insttype="CMG-5" lat="38.2386" lon="21.7266">
    <comp name="00.HNE">
      <acc value="0.0993603660" flag="0"/>
      <vel value="0.1116498467" flag="0"/>
      <psa03 value="0.1942540836" flag="0"/>
      <psa10 value="0.1570233788" flag="0"/>
      <psa30 value="0.0417922748" flag="0"/>
    </comp>
    <comp name="00.HNN">
      <acc value="0.0840871368" flag="0"/>
      <vel value="0.0961795998" flag="0"/>
      <psa03 value="0.2008389490" flag="0"/>
      <psa10 value="0.2227046499" flag="0"/>
      <psa30 value="0.0378345446" flag="0"/>
    </comp>
    <comp name="00.HNZ">
      <acc value="0.0388675572" flag="0"/>
      <vel value="0.0669946776" flag="0"/>
      <psa03 value="0.1470939504" flag="0"/>
      <psa10 value="0.1037717942" flag="0"/>
      <psa30 value="0.0181936583" flag="0"/>
    </comp>
  </station>
  <station code="RLS" name="RLS" netid="HL" insttype="120" lat="38.0559" lon="21.4647">
    <comp name="--.HHE">
      <acc value="0.0311346874" flag="0"/>
      <vel value="0.0216121864" flag="0"/>
      <psa03 value="0.0592314236" flag="0"/>
      <psa10 value="0.0341928461" flag="0"/>
      <psa30 value="0.0046021522" flag="0"/>
    </comp>
    <comp name="--.HHN">
      <acc value="0.0372792888" flag="0"/>
      <vel value="0.0172669026" flag="0"/>
      <psa03 value="0.0750182706" flag="0"/>
      <psa10 value="0.0263134971" flag="0"/>
      <psa30 value="0.0050746246" flag="0"/>
    </comp>
    <comp name="--.HHZ">
      <acc value="0.0239266017" flag="0"/>
      <vel value="0.0189248995" flag="0"/>
      <psa03 value="0.0421248711" flag="0"/>
      <psa10 value="0.0260218820" flag="0"/>
      <psa30 value="0.0061709612" flag="0"/>
    </comp>
  </station>
  <station code="TETR" name="TETR" netid="HL" insttype="60" lat="39.3445" lon="21.2747">
    <comp name="--.HHE">
      <acc value="0.2001779118" flag="0"/>
      <vel value="0.1369367763" flag="0"/>
      <psa03 value="0.6120028648" flag="0"/>
      <psa10 value="0.1949686328" flag="0"/>
      <psa30 value="0.0155103093" flag="0"/>
    </comp>
    <comp name="--.HHN">
      <acc value="0.1173428757" flag="0"/>
      <vel value="0.1178533878" flag="0"/>
      <psa03 value="0.2884602236" flag="0"/>
      <psa10 value="0.1411802128" flag="0"/>
      <psa30 value="0.0141047666" flag="0"/>
    </comp>
    <comp name="--.HHZ">
      <acc value="0.0498492240" flag="0"/>
      <vel value="0.0604352298" flag="0"/>
      <psa03 value="0.1121597858" flag="0"/>
      <psa10 value="0.1140850619" flag="0"/>
      <psa30 value="0.0193632384" flag="0"/>
    </comp>
  </station>
  <station code="VLS" name="VLS" netid="HL" insttype="120P," lat="38.1768" lon="20.5886">
    <comp name="--.HHE">
      <acc value="3.5572463339" flag="0"/>
      <vel value="0.8775688390" flag="0"/>
      <psa03 value="1.7293574550" flag="0"/>
      <psa10 value="0.5620293085" flag="0"/>
      <psa30 value="0.0858256208" flag="0"/>
    </comp>
    <comp name="--.HHN">
      <acc value="3.1396795743" flag="0"/>
      <vel value="0.9435400197" flag="0"/>
      <psa03 value="1.4290841386" flag="0"/>
      <psa10 value="0.2970620179" flag="0"/>
      <psa30 value="0.0859336463" flag="0"/>
    </comp>
    <comp name="--.HHZ">
      <acc value="3.1947131649" flag="0"/>
      <vel value="0.8303523113" flag="0"/>
      <psa03 value="1.7485033361" flag="0"/>
      <psa10 value="0.8207627349" flag="0"/>
      <psa30 value="0.1477892530" flag="0"/>
    </comp>
  </station>
  <station code="AMPL" name="AMPL" netid="HP" insttype="Compact," lat="38.9224" lon="21.2135">
    <comp name="--.HHE">
      <acc value="0.1054527712" flag="0"/>
      <vel value="0.0673331003" flag="0"/>
      <psa03 value="0.2084284464" flag="0"/>
      <psa10 value="0.0867783635" flag="0"/>
      <psa30 value="0.0091361198" flag="0"/>
    </comp>
    <comp name="--.HHN">
      <acc value="0.0874701995" flag="0"/>
      <vel value="0.0452103599" flag="0"/>
      <psa03 value="0.2226511332" flag="0"/>
      <psa10 value="0.0720203510" flag="0"/>
      <psa30 value="0.0087151304" flag="0"/>
    </comp>
    <comp name="--.HHZ">
      <acc value="0.0738386882" flag="0"/>
      <vel value="0.0393819007" flag="0"/>
      <psa03 value="0.1023076771" flag="0"/>
      <psa10 value="0.0486500952" flag="0"/>
      <psa30 value="0.0119516259" flag="0"/>
    </comp>
  </station>
  <station code="AMT" name="AMT" netid="HP" insttype="CMG-3T," lat="37.5324" lon="21.7089">
    <comp name="00.HHE">
      <acc value="0.0155554410" flag="0"/>
      <vel value="0.0183384957" flag="0"/>
      <psa03 value="0.0536984564" flag="0"/>
      <psa10 value="0.0361662236" flag="0"/>
      <psa30 value="0.0045179948" flag="0"/>
    </comp>
    <comp name="00.HHN">
      <acc value="0.0199097430" flag="0"/>
      <vel value="0.0208437217" flag="0"/>
      <psa03 value="0.0589621598" flag="0"/>
      <psa10 value="0.0395296706" flag="0"/>
      <psa30 value="0.0023577214" flag="0"/>
    </comp>
    <comp name="00.HHZ">
      <acc value="0.0110375144" flag="0"/>
      <vel value="0.0103251579" flag="0"/>
      <psa03 value="0.0272148253" flag="0"/>
      <psa10 value="0.0217993935" flag="0"/>
      <psa30 value="0.0022642503" flag="0"/>
    </comp>
  </station>
  <station code="ANX" name="ANX" netid="HP" insttype="120" lat="38.5933" lon="21.9209">
    <comp name="--.HHE">
      <acc value="0.0277360302" flag="0"/>
      <vel value="0.0344928036" flag="0"/>
      <psa03 value="0.0666309174" flag="0"/>
      <psa10 value="0.0458630497" flag="0"/>
      <psa30 value="0.0046908703" flag="0"/>
    </comp>
    <comp name="--.HHN">
      <acc value="0.0354756424" flag="0"/>
      <vel value="0.0314562080" flag="0"/>
      <psa03 value="0.0634079102" flag="0"/>
      <psa10 value="0.0621452184" flag="0"/>
      <psa30 value="0.0062511416" flag="0"/>
    </comp>
    <comp name="--.HHZ">
      <acc value="0.0156613913" flag="0"/>
      <vel value="0.0200748055" flag="0"/>
      <psa03 value="0.0380225163" flag="0"/>
      <psa10 value="0.0320637593" flag="0"/>
      <psa30 value="0.0039334213" flag="0"/>
    </comp>
  </station>
  <station code="AXS" name="AXS" netid="HP" insttype="40," lat="38.1962" lon="21.3763">
    <comp name="--.HHE">
      <acc value="0.0334794714" flag="0"/>
      <vel value="0.0235011559" flag="0"/>
      <psa03 value="0.0563942500" flag="0"/>
      <psa10 value="0.0355299042" flag="0"/>
      <psa30 value="0.0048631791" flag="0"/>
    </comp>
    <comp name="--.HHN">
      <acc value="0.0345597859" flag="0"/>
      <vel value="0.0376501775" flag="0"/>
      <psa03 value="0.0798936289" flag="0"/>
      <psa10 value="0.0498411291" flag="0"/>
      <psa30 value="0.0086305683" flag="0"/>
    </comp>
    <comp name="--.HHZ">
      <acc value="0.0309388085" flag="0"/>
      <vel value="0.0205778733" flag="0"/>
      <psa03 value="0.0575367098" flag="0"/>
      <psa10 value="0.0369156244" flag="0"/>
      <psa30 value="0.0053123906" flag="0"/>
    </comp>
  </station>
  <station code="DRO" name="DRO" netid="HP" insttype="120P," lat="37.952" lon="21.71">
    <comp name="--.HHE">
      <acc value="0.0561208516" flag="0"/>
      <vel value="0.0370960076" flag="0"/>
      <psa03 value="0.1554496397" flag="0"/>
      <psa10 value="0.0587002426" flag="0"/>
      <psa30 value="0.0046748598" flag="0"/>
    </comp>
    <comp name="--.HHN">
      <acc value="0.0539356284" flag="0"/>
      <vel value="0.0277735410" flag="0"/>
      <psa03 value="0.1225579436" flag="0"/>
      <psa10 value="0.0384874451" flag="0"/>
      <psa30 value="0.0033685001" flag="0"/>
    </comp>
    <comp name="--.HHZ">
      <acc value="0.0343663416" flag="0"/>
      <vel value="0.0202039884" flag="0"/>
      <psa03 value="0.0689464307" flag="0"/>
      <psa10 value="0.0210665415" flag="0"/>
      <psa30 value="0.0033857513" flag="0"/>
    </comp>
  </station>
  <station code="EFP" name="EFP" netid="HP" insttype="40," lat="38.4269" lon="21.9058">
    <comp name="--.HHE">
      <acc value="0.0335161719" flag="0"/>
      <vel value="0.0285911726" flag="0"/>
      <psa03 value="0.0614416320" flag="0"/>
      <psa10 value="0.0465933065" flag="0"/>
      <psa30 value="0.0053869242" flag="0"/>
    </comp>
    <comp name="--.HHN">
      <acc value="0.0302213571" flag="0"/>
      <vel value="0.0284826367" flag="0"/>
      <psa03 value="0.0978547434" flag="0"/>
      <psa10 value="0.0476273435" flag="0"/>
      <psa30 value="0.0054248272" flag="0"/>
    </comp>
    <comp name="--.HHZ">
      <acc value="0.0189422348" flag="0"/>
      <vel value="0.0177894596" flag="0"/>
      <psa03 value="0.0425580427" flag="0"/>
      <psa10 value="0.0227060167" flag="0"/>
      <psa30 value="0.0060074341" flag="0"/>
    </comp>
  </station>
  <station code="FSK" name="FSK" netid="HP" insttype="DC_100" lat="38.4593" lon="20.5623">
    <comp name="--.HNE">
      <acc value="3.2605773085" flag="0"/>
      <vel value="0.8744084605" flag="0"/>
      <psa03 value="2.8526691192" flag="0"/>
      <psa10 value="0.3687931438" flag="0"/>
      <psa30 value="0.1095368253" flag="0"/>
    </comp>
    <comp name="--.HNN">
      <acc value="1.1557836337" flag="0"/>
