<?xml version="1.0" encoding="UTF-8" standalone="yes"?>
<!DOCTYPE earthquake SYSTEM "stationlist.dtd">
<stationlist created="" xmlns="ch.ethz.sed.shakemap.usgs.xml">
  <station code="BNN" name="BNN" netid="KO" insttype="CMG-3T" lat="38.8521" lon="35.8472">
    <comp name="--.HHZ">
      <acc value="0.0027302338" flag="0"/>
      <vel value="0.0024187915" flag="0"/>
      <psa03 value="0.0056095464" flag="0"/>
      <psa10 value="0.0045554025" flag="0"/>
      <psa30 value="0.0002398804" flag="0"/>
    </comp>
  </station>
  <station code="CEYT" name="CEYT" netid="KO" insttype="CMG-3ESP" lat="37.0105" lon="35.7478">
    <comp name="--.HHE">
      <acc value="0.0038705403" flag="0"/>
      <vel value="0.0028023023" flag="0"/>
      <psa03 value="0.0081904502" flag="0"/>
      <psa10 value="0.0030413700" flag="0"/>
      <psa30 value="0.0005590375" flag="0"/>
    </comp>
    <comp name="--.HHZ">
      <acc value="0.0026764595" flag="0"/>
      <vel value="0.0012998437" flag="0"/>
      <psa03 value="0.0034858531" flag="0"/>
      <psa10 value="0.0023242835" flag="0"/>
      <psa30 value="0.0003560450" flag="0"/>
    </comp>
    <comp name="--.HHN">
      <acc value="0.0029520311" flag="0"/>
      <vel value="0.0017845983" flag="0"/>
      <psa03 value="0.0061191444" flag="0"/>
      <psa10 value="0.0019851081" flag="0"/>
      <psa30 value="0.0003532261" flag="0"/>
    </comp>
  </station>
  <station code="CMRD" name="CMRD" netid="KO" insttype="CMG-5T" lat="37.6623" lon="34.9902">
    <comp name="--.HNZ">
      <acc value="0.0033783994" flag="0"/>
      <vel value="0.0018348531" flag="0"/>
      <psa03 value="0.0053410768" flag="0"/>
      <psa10 value="0.0034901765" flag="0"/>
      <psa30 value="0.0003869366" flag="0"/>
    </comp>
    <comp name="--.HNE">
      <acc value="0.0037233876" flag="0"/>
      <vel value="0.0021535296" flag="0"/>
      <psa03 value="0.0060157184" flag="0"/>
      <psa10 value="0.0023654220" flag="0"/>
      <psa30 value="0.0002471740" flag="0"/>
    </comp>
    <comp name="--.HNN">
      <acc value="0.0041836841" flag="0"/>
      <vel value="0.0016400582" flag="0"/>
      <psa03 value="0.0059785142" flag="0"/>
      <psa10 value="0.0022176242" flag="0"/>
      <psa30 value="0.0002867045" flag="0"/>
    </comp>
  </station>
  <station code="GAZ" name="GAZ" netid="KO" insttype="CMG-3T" lat="37.1721" lon="37.2096">
    <comp name="--.HHZ">
      <acc value="0.0138296463" flag="0"/>
      <vel value="0.0073861842" flag="0"/>
      <psa03 value="0.0416292678" flag="0"/>
      <psa10 value="0.0053066598" flag="0"/>
      <psa30 value="0.0004333410" flag="0"/>
    </comp>
  </station>
  <station code="KMRS" name="KMRS" netid="KO" insttype="CMG-3T" lat="37.5087" lon="36.9">
    <comp name="--.HHN">
      <acc value="0.0144559692" flag="0"/>
      <vel value="0.0091492878" flag="0"/>
      <psa03 value="0.0287858995" flag="0"/>
      <psa10 value="0.0094519448" flag="0"/>
      <psa30 value="0.0017617336" flag="0"/>
    </comp>
    <comp name="--.HHE">
      <acc value="0.0114590161" flag="0"/>
      <vel value="0.0075661052" flag="0"/>
      <psa03 value="0.0412581642" flag="0"/>
      <psa10 value="0.0072423243" flag="0"/>
      <psa30 value="0.0006306212" flag="0"/>
    </comp>
    <comp name="--.HHZ">
      <acc value="0.0106263372" flag="0"/>
      <vel value="0.0059475669" flag="0"/>
      <psa03 value="0.0220300359" flag="0"/>
      <psa10 value="0.0048324712" flag="0"/>
      <psa30 value="0.0006782007" flag="0"/>
    </comp>
  </station>
  <station code="SARI" name="SARI" netid="KO" insttype="CMG-3T" lat="38.4072" lon="36.4181">
    <comp name="--.HHZ">
      <acc value="0.0298941059" flag="0"/>
      <vel value="0.0120634736" flag="0"/>
      <psa03 value="0.0471980276" flag="0"/>
      <psa10 value="0.0095528217" flag="0"/>
      <psa30 value="0.0005886953" flag="0"/>
    </comp>
  </station>
  <station code="ANDN" name="ANDN" netid="TU" insttype="T" lat="37.58" lon="36.3452">
    <comp name="--.HHZ">
      <acc value="0.0742418386" flag="0"/>
      <vel value="0.0387147501" flag="0"/>
      <psa03 value="0.0830043384" flag="0"/>
      <psa10 value="0.0637476590" flag="0"/>
      <psa30 value="0.0039972963" flag="0"/>
    </comp>
    <comp name="--.HHN">
      <acc value="0.2593680173" flag="0"/>
      <vel value="0.0754661391" flag="0"/>
      <psa03 value="0.2006465592" flag="0"/>
      <psa10 value="0.0947180773" flag="0"/>
      <psa30 value="0.0054355121" flag="0"/>
    </comp>
    <comp name="--.HHE">
      <acc value="0.1841102980" flag="0"/>
      <vel value="0.0573457443" flag="0"/>
      <psa03 value="0.2988778998" flag="0"/>
      <psa10 value="0.0389975470" flag="0"/>
      <psa30 value="0.0040801451" flag="0"/>
    </comp>
  </station>
</stationlist>
