<?xml version="1.0" encoding="UTF-8" standalone="yes"?>
<!DOCTYPE earthquake SYSTEM "stationlist.dtd">
<stationlist created="" xmlns="ch.ethz.sed.shakemap.usgs.xml">
  <station code="BNN" name="BNN" netid="KO" insttype="CMG-3T" lat="38.8521" lon="35.8472">
    <comp name="--.HHZ">
      <acc value="0.0027302341" flag="0"/>
      <vel value="0.0024187917" flag="0"/>
      <psa03 value="0.0056095464" flag="0"/>
      <psa10 value="0.0045554025" flag="0"/>
      <psa30 value="0.0002398785" flag="0"/>
    </comp>
    <comp name="--.HHN">
      <acc value="0.0041228485" flag="0"/>
      <vel value="0.0033880643" flag="0"/>
      <psa03 value="0.0102471796" flag="0"/>
      <psa10 value="0.0051061445" flag="0"/>
      <psa30 value="0.0003658203" flag="0"/>
    </comp>
  </station>
  <station code="CEYT" name="CEYT" netid="KO" insttype="CMG-3ESP" lat="37.0105" lon="35.7478">
    <comp name="--.HHN">
      <acc value="0.0029520311" flag="0"/>
      <vel value="0.0017845979" flag="0"/>
      <psa03 value="0.0061191444" flag="0"/>
      <psa10 value="0.0019851081" flag="0"/>
      <psa30 value="0.0003532357" flag="0"/>
    </comp>
    <comp name="--.HHZ">
      <acc value="0.0026764598" flag="0"/>
      <vel value="0.0012998449" flag="0"/>
      <psa03 value="0.0034858531" flag="0"/>
      <psa10 value="0.0023242835" flag="0"/>
      <psa30 value="0.0003560448" flag="0"/>
    </comp>
    <comp name="--.HHE">
      <acc value="0.0038705397" flag="0"/>
      <vel value="0.0028023022" flag="0"/>
      <psa03 value="0.0081904502" flag="0"/>
      <psa10 value="0.0030413700" flag="0"/>
      <psa30 value="0.0005590307" flag="0"/>
    </comp>
  </station>
  <station code="DARE" name="DARE" netid="KO" insttype="CMG-3ESP" lat="38.5712" lon="37.4832">
    <comp name="--.HHE">
      <acc value="0.0047181614" flag="0"/>
      <vel value="0.0023839494" flag="0"/>
      <psa03 value="0.0099860199" flag="0"/>
      <psa10 value="0.0035442456" flag="0"/>
      <psa30 value="0.0001819893" flag="0"/>
    </comp>
    <comp name="--.HHN">
      <acc value="0.0038493122" flag="0"/>
      <vel value="0.0026123359" flag="0"/>
      <psa03 value="0.0114610958" flag="0"/>
      <psa10 value="0.0025342118" flag="0"/>
      <psa30 value="0.0002270746" flag="0"/>
    </comp>
  </station>
  <station code="GAZ" name="GAZ" netid="KO" insttype="CMG-3T" lat="37.1721" lon="37.2096">
    <comp name="--.HHZ">
      <acc value="0.0138296464" flag="0"/>
      <vel value="0.0073861849" flag="0"/>
      <psa03 value="0.0416292678" flag="0"/>
      <psa10 value="0.0053066598" flag="0"/>
      <psa30 value="0.0004333552" flag="0"/>
    </comp>
  </station>
  <station code="KMRS" name="KMRS" netid="KO" insttype="CMG-3T" lat="37.5087" lon="36.9">
    <comp name="--.HHE">
      <acc value="0.0114590159" flag="0"/>
      <vel value="0.0075661053" flag="0"/>
      <psa03 value="0.0412581642" flag="0"/>
      <psa10 value="0.0072423243" flag="0"/>
      <psa30 value="0.0006306202" flag="0"/>
    </comp>
    <comp name="--.HHN">
      <acc value="0.0144559692" flag="0"/>
      <vel value="0.0091492878" flag="0"/>
      <psa03 value="0.0287858995" flag="0"/>
      <psa10 value="0.0094519448" flag="0"/>
      <psa30 value="0.0017617314" flag="0"/>
    </comp>
    <comp name="--.HHZ">
      <acc value="0.0106263374" flag="0"/>
      <vel value="0.0059475671" flag="0"/>
      <psa03 value="0.0220300359" flag="0"/>
      <psa10 value="0.0048324712" flag="0"/>
      <psa30 value="0.0006782008" flag="0"/>
    </comp>
  </station>
  <station code="SARI" name="SARI" netid="KO" insttype="CMG-3T" lat="38.4072" lon="36.4181">
    <comp name="--.HHZ">
      <acc value="0.0298941060" flag="0"/>
      <vel value="0.0120634742" flag="0"/>
      <psa03 value="0.0471980276" flag="0"/>
      <psa10 value="0.0095528218" flag="0"/>
      <psa30 value="0.0005887109" flag="0"/>
    </comp>
  </station>
  <station code="ANDN" name="ANDN" netid="TU" insttype="T" lat="37.58" lon="36.3452">
    <comp name="--.HHE">
      <acc value="0.1841102972" flag="0"/>
      <vel value="0.0573457442" flag="0"/>
      <psa03 value="0.2988778998" flag="0"/>
      <psa10 value="0.0389975470" flag="0"/>
      <psa30 value="0.0040801363" flag="0"/>
    </comp>
    <comp name="--.HHN">
      <acc value="0.2593680171" flag="0"/>
      <vel value="0.0754661390" flag="0"/>
      <psa03 value="0.2006465592" flag="0"/>
      <psa10 value="0.0947180773" flag="0"/>
      <psa30 value="0.0054355142" flag="0"/>
    </comp>
    <comp name="--.HHZ">
      <acc value="0.0742418387" flag="0"/>
      <vel value="0.0387147498" flag="0"/>
      <psa03 value="0.0830043384" flag="0"/>
      <psa10 value="0.0637476590" flag="0"/>
      <psa30 value="0.0039972971" flag="0"/>
    </comp>
  </station>
</stationlist>
