<?xml version="1.0" encoding="UTF-8" standalone="yes"?>
<!DOCTYPE earthquake SYSTEM "stationlist.dtd">
<stationlist created="" xmlns="ch.ethz.sed.shakemap.usgs.xml">
  <station code="BNN" name="BNN" netid="KO" insttype="CMG-3T" lat="38.8521" lon="35.8472">
    <comp name="--.HHZ">
      <acc value="0.0027302339" flag="0"/>
      <vel value="0.0024187917" flag="0"/>
      <psa03 value="0.0056095464" flag="0"/>
      <psa10 value="0.0045554025" flag="0"/>
      <psa30 value="0.0002398811" flag="0"/>
    </comp>
    <comp name="--.HHN">
      <acc value="0.0041228481" flag="0"/>
      <vel value="0.0033880639" flag="0"/>
      <psa03 value="0.0102471796" flag="0"/>
      <psa10 value="0.0051061445" flag="0"/>
      <psa30 value="0.0003658249" flag="0"/>
    </comp>
  </station>
  <station code="CEYT" name="CEYT" netid="KO" insttype="CMG-3ESP" lat="37.0105" lon="35.7478">
    <comp name="--.HHZ">
      <acc value="0.0026764597" flag="0"/>
      <vel value="0.0012998424" flag="0"/>
      <psa03 value="0.0034858531" flag="0"/>
      <psa10 value="0.0023242835" flag="0"/>
      <psa30 value="0.0003560361" flag="0"/>
    </comp>
    <comp name="--.HHN">
      <acc value="0.0029520311" flag="0"/>
      <vel value="0.0017845976" flag="0"/>
      <psa03 value="0.0061191444" flag="0"/>
      <psa10 value="0.0019851081" flag="0"/>
      <psa30 value="0.0003532070" flag="0"/>
    </comp>
    <comp name="--.HHE">
      <acc value="0.0038705404" flag="0"/>
      <vel value="0.0028023026" flag="0"/>
      <psa03 value="0.0081904502" flag="0"/>
      <psa10 value="0.0030413700" flag="0"/>
      <psa30 value="0.0005590505" flag="0"/>
    </comp>
  </station>
  <station code="CMRD" name="CMRD" netid="KO" insttype="CMG-5T" lat="37.6623" lon="34.9902">
    <comp name="--.HNE">
      <acc value="0.0037233877" flag="0"/>
      <vel value="0.0021535308" flag="0"/>
      <psa03 value="0.0060157184" flag="0"/>
      <psa10 value="0.0023654220" flag="0"/>
      <psa30 value="0.0002477393" flag="0"/>
    </comp>
    <comp name="--.HNN">
      <acc value="0.0041836840" flag="0"/>
      <vel value="0.0016400564" flag="0"/>
      <psa03 value="0.0059785142" flag="0"/>
      <psa10 value="0.0022176243" flag="0"/>
      <psa30 value="0.0002866214" flag="0"/>
    </comp>
    <comp name="--.HNZ">
      <acc value="0.0033783976" flag="0"/>
      <vel value="0.0018348546" flag="0"/>
      <psa03 value="0.0053410768" flag="0"/>
      <psa10 value="0.0034901765" flag="0"/>
      <psa30 value="0.0003869141" flag="0"/>
    </comp>
  </station>
  <station code="GAZ" name="GAZ" netid="KO" insttype="CMG-3T" lat="37.1721" lon="37.2096">
    <comp name="--.HHZ">
      <acc value="0.0138296463" flag="0"/>
      <vel value="0.0073861850" flag="0"/>
      <psa03 value="0.0416292678" flag="0"/>
      <psa10 value="0.0053066598" flag="0"/>
      <psa30 value="0.0004333899" flag="0"/>
    </comp>
  </station>
  <station code="KMRS" name="KMRS" netid="KO" insttype="CMG-3T" lat="37.5087" lon="36.9">
    <comp name="--.HHE">
      <acc value="0.0114590162" flag="0"/>
      <vel value="0.0075661055" flag="0"/>
      <psa03 value="0.0412581642" flag="0"/>
      <psa10 value="0.0072423244" flag="0"/>
      <psa30 value="0.0006306230" flag="0"/>
    </comp>
    <comp name="--.HHN">
      <acc value="0.0144559691" flag="0"/>
      <vel value="0.0091492874" flag="0"/>
      <psa03 value="0.0287858995" flag="0"/>
      <psa10 value="0.0094519449" flag="0"/>
      <psa30 value="0.0017617275" flag="0"/>
    </comp>
    <comp name="--.HHZ">
      <acc value="0.0106263375" flag="0"/>
      <vel value="0.0059475675" flag="0"/>
      <psa03 value="0.0220300359" flag="0"/>
      <psa10 value="0.0048324712" flag="0"/>
      <psa30 value="0.0006781962" flag="0"/>
    </comp>
  </station>
  <station code="SARI" name="SARI" netid="KO" insttype="CMG-3T" lat="38.4072" lon="36.4181">
    <comp name="--.HHZ">
      <acc value="0.0298941059" flag="0"/>
      <vel value="0.0120634736" flag="0"/>
      <psa03 value="0.0471980276" flag="0"/>
      <psa10 value="0.0095528217" flag="0"/>
      <psa30 value="0.0005887010" flag="0"/>
    </comp>
  </station>
  <station code="ANDN" name="ANDN" netid="TU" insttype="T" lat="37.58" lon="36.3452">
    <comp name="--.HHZ">
      <acc value="0.0742418390" flag="0"/>
      <vel value="0.0387147510" flag="0"/>
      <psa03 value="0.0830043384" flag="0"/>
      <psa10 value="0.0637476590" flag="0"/>
      <psa30 value="0.0039973232" flag="0"/>
    </comp>
    <comp name="--.HHE">
      <acc value="0.1841102981" flag="0"/>
      <vel value="0.0573457437" flag="0"/>
      <psa03 value="0.2988778998" flag="0"/>
      <psa10 value="0.0389975471" flag="0"/>
      <psa30 value="0.0040802701" flag="0"/>
    </comp>
    <comp name="--.HHN">
      <acc value="0.2593680175" flag="0"/>
      <vel value="0.0754661395" flag="0"/>
      <psa03 value="0.2006465592" flag="0"/>
      <psa10 value="0.0947180776" flag="0"/>
      <psa30 value="0.0054355583" flag="0"/>
    </comp>
  </station>
</stationlist>
