<stationlist xmlns:esm="https://esm-db.eu/esmws/shakemap/1/" created="1784080691">
	<station code="AGRP" name="AGRP" netid="CL" source="Corinth Riff Laboratory (CRLNET)" insttype="" lat="38.3959" lon="21.72277" esm:processing="automatic (Paolucci et al 2011)" esm:quality="good">
		<comp name="00.HNE" depth="0.0">
			<acc value="0.00822832269657734" flag="0"/>
			<vel value="0.00474127162378769" flag="0"/>
			<psa03 value="0.0165643199611738" flag="0"/>
			<psa10 value="0.00644018819336391" flag="0"/>
			<psa30 value="0.00161121673519993" flag="0"/>
		</comp>
		<comp name="00.HNN" depth="0.0">
			<acc value="0.00928418165840368" flag="0"/>
			<vel value="0.00593864763805056" flag="0"/>
			<psa03 value="0.0152721731648604" flag="0"/>
			<psa10 value="0.00552374935879822" flag="0"/>
			<psa30 value="0.00234250892971813" flag="0"/>
		</comp>
		<comp name="00.HNZ" depth="0.0">
			<acc value="0.00750424336425881" flag="0"/>
			<vel value="0.00458836541860467" flag="0"/>
			<psa03 value="0.0117806215541962" flag="0"/>
			<psa10 value="0.00474293497742198" flag="0"/>
			<psa30 value="0.00124744044930758" flag="0"/>
		</comp>
	</station>
	<station code="MALA" name="MALA" netid="CL" source="Corinth Riff Laboratory (CRLNET)" insttype="" lat="38.39341" lon="21.87263" esm:processing="automatic (Paolucci et al 2011)" esm:quality="good">
		<comp name="01.HNE" depth="0.0">
			<acc value="0.0149031654828825" flag="0"/>
			<vel value="0.0143224782240615" flag="0"/>
			<psa03 value="0.029306365882056" flag="0"/>
			<psa10 value="0.0221666253051319" flag="0"/>
			<psa30 value="0.00593150501643969" flag="0"/>
		</comp>
		<comp name="01.HNN" depth="0.0">
			<acc value="0.0142340101032557" flag="0"/>
			<vel value="0.0139124909033685" flag="0"/>
			<psa03 value="0.024367963216327" flag="0"/>
			<psa10 value="0.018075543041027" flag="0"/>
			<psa30 value="0.00574659985072561" flag="0"/>
		</comp>
		<comp name="01.HNZ" depth="0.0">
			<acc value="0.00675072367280686" flag="0"/>
			<vel value="0.00545015072793835" flag="0"/>
			<psa03 value="0.0132218667692016" flag="0"/>
			<psa10 value="0.00875649163707706" flag="0"/>
			<psa30 value="0.00307041319147038" flag="0"/>
		</comp>
	</station>
	<station code="TRIZ" name="TRIZ" netid="CL" source="Corinth Riff Laboratory (CRLNET)" insttype="" lat="38.36543" lon="22.07272" esm:processing="automatic (Paolucci et al 2011)" esm:quality="good">
		<comp name="00.HNE" depth="0.0">
			<acc value="0.00656483982820302" flag="0"/>
			<vel value="0.00558101216893031" flag="0"/>
			<psa03 value="0.012585595452687" flag="0"/>
			<psa10 value="0.00545746090500648" flag="0"/>
			<psa30 value="0.00204676787999423" flag="0"/>
		</comp>
		<comp name="00.HNN" depth="0.0">
			<acc value="0.0117216389297014" flag="0"/>
			<vel value="0.00758891196641265" flag="0"/>
			<psa03 value="0.0299895413474494" flag="0"/>
			<psa10 value="0.00912917726318834" flag="0"/>
			<psa30 value="0.00224290649821268" flag="0"/>
		</comp>
		<comp name="00.HNZ" depth="0.0">
			<acc value="0.0095333490340694" flag="0"/>
			<vel value="0.00469178249436597" flag="0"/>
			<psa03 value="0.0115350597139994" flag="0"/>
			<psa10 value="0.00532565232956126" flag="0"/>
			<psa30 value="0.00139365909391011" flag="0"/>
		</comp>
	</station>
	<station code="KTHA" name="KTHA" netid="GE" source="GEOFON" insttype="" lat="36.2566" lon="23.0621" esm:processing="automatic (Paolucci et al 2011)" esm:quality="good">
		<comp name="--.HNE" depth="0.0">
			<acc value="0.679711080526812" flag="0"/>
			<vel value="0.483231334519887" flag="0"/>
			<psa03 value="1.7347672531489" flag="0"/>
			<psa10 value="0.317316560664772" flag="0"/>
			<psa30 value="0.0424706868079054" flag="0"/>
		</comp>
		<comp name="--.HNN" depth="0.0">
			<acc value="0.532388109407522" flag="0"/>
			<vel value="0.379804292910453" flag="0"/>
			<psa03 value="1.79472555842549" flag="0"/>
			<psa10 value="0.260946156402035" flag="0"/>
			<psa30 value="0.0338092063606811" flag="0"/>
		</comp>
		<comp name="--.HNZ" depth="0.0">
			<acc value="0.371844640996525" flag="0"/>
			<vel value="0.230578312782771" flag="0"/>
			<psa03 value="1.02109514254295" flag="0"/>
			<psa10 value="0.185064109589166" flag="0"/>
			<psa30 value="0.0180154701031522" flag="0"/>
		</comp>
	</station>
	<station code="KIAS" name="KIAS" netid="HA" source="Hellenic Seismological Network, University of Athens, Seismological Laboratory (HA)" insttype="" lat="37.9875" lon="22.7543" esm:processing="manual (Paolucci et al 2011)" esm:quality="good">
		<comp name="--.HNE" depth="0.0">
			<acc value="0.0483164328487755" flag="0"/>
			<vel value="0.0218814077473281" flag="0"/>
			<psa03 value="0.0664023988330366" flag="0"/>
			<psa10 value="0.0453979161391428" flag="0"/>
			<psa30 value="0.00869280085539461" flag="0"/>
		</comp>
		<comp name="--.HNN" depth="0.0">
			<acc value="0.0649236373835137" flag="0"/>
			<vel value="0.0265053176488477" flag="0"/>
			<psa03 value="0.0480844197318211" flag="0"/>
			<psa10 value="0.0343041412310005" flag="0"/>
			<psa30 value="0.00768507826538534" flag="0"/>
		</comp>
		<comp name="--.HNZ" depth="0.0">
			<acc value="0.0329357926300822" flag="0"/>
			<vel value="0.0186039780058765" flag="0"/>
			<psa03 value="0.034980413634895" flag="0"/>
			<psa10 value="0.02299929109016" flag="0"/>
			<psa30 value="0.00414355782370362" flag="0"/>
		</comp>
	</station>
	<station code="ATEI" name="ATEI" netid="HC" source="Seismological Network of Crete (HC)" insttype="" lat="35.5193" lon="24.0432" esm:processing="automatic (Paolucci et al 2011)" esm:quality="best">
		<comp name="--.HNE" depth="0.0">
			<acc value="0.938620822253334" flag="0"/>
			<vel value="0.716417802569489" flag="0"/>
			<psa03 value="3.52069456207111" flag="0"/>
			<psa10 value="0.741377672633462" flag="0"/>
			<psa30 value="0.0416000257975465" flag="0"/>
		</comp>
		<comp name="--.HNN" depth="0.0">
			<acc value="1.37734651987476" flag="0"/>
			<vel value="0.839665775576354" flag="0"/>
			<psa03 value="3.42833411030779" flag="0"/>
			<psa10 value="0.709335850018794" flag="0"/>
			<psa30 value="0.049114063565867" flag="0"/>
		</comp>
		<comp name="--.HNZ" depth="0.0">
			<acc value="2.15917771512293" flag="0"/>
			<vel value="0.631614720328643" flag="0"/>
			<psa03 value="5.15508516576138" flag="0"/>
			<psa10 value="0.581283107153495" flag="0"/>
			<psa30 value="0.0317732214866638" flag="0"/>
		</comp>
	</station>
	<station code="AGN1" name="AGN1" netid="HI" source="ITSAK Strong Motion Network" insttype="" lat="35.1879" lon="25.7155" esm:processing="automatic (Paolucci et al 2011)" esm:quality="best">
		<comp name="--.HNE" depth="0.0">
			<acc value="0.0283686089345845" flag="0"/>
			<vel value="0.0183474267155149" flag="0"/>
			<psa03 value="0.0973090816655391" flag="0"/>
			<psa10 value="0.0425459534605703" flag="0"/>
			<psa30 value="0.00373723632356423" flag="0"/>
		</comp>
		<comp name="--.HNN" depth="0.0">
			<acc value="0.028123916822088" flag="0"/>
			<vel value="0.0156576799949812" flag="0"/>
			<psa03 value="0.104590928635893" flag="0"/>
			<psa10 value="0.0312728304215315" flag="0"/>
			<psa30 value="0.00322940622398066" flag="0"/>
		</comp>
		<comp name="--.HNZ" depth="0.0">
			<acc value="0.0162773490356012" flag="0"/>
			<vel value="0.0119743689330728" flag="0"/>
			<psa03 value="0.0683995311332583" flag="0"/>
			<psa10 value="0.0191846602646012" flag="0"/>
			<psa30 value="0.00327382583322665" flag="0"/>
		</comp>
	</station>
	<station code="AKR1" name="AKR1" netid="HI" source="ITSAK Strong Motion Network" insttype="" lat="38.153583" lon="22.31326" esm:processing="manual (Paolucci et al 2011)" esm:quality="good">
		<comp name="--.HNE" depth="0.0">
			<acc value="0.0315954386465752" flag="0"/>
			<vel value="0.0143354401794461" flag="0"/>
			<psa03 value="0.0414933581063357" flag="0"/>
			<psa10 value="0.012543411876977" flag="0"/>
			<psa30 value="0.00250197928551525" flag="0"/>
		</comp>
		<comp name="--.HNN" depth="0.0">
			<acc value="0.0283830156685463" flag="0"/>
			<vel value="0.0103249969822079" flag="0"/>
			<psa03 value="0.0452563313431783" flag="0"/>
			<psa10 value="0.0116390385291811" flag="0"/>
			<psa30 value="0.00247528230863822" flag="0"/>
		</comp>
		<comp name="--.HNZ" depth="0.0">
			<acc value="0.0178261048697693" flag="0"/>
			<vel value="0.00860682175999586" flag="0"/>
			<psa03 value="0.0216280447309852" flag="0"/>
			<psa10 value="0.0105917882164875" flag="0"/>
			<psa30 value="0.00180010716493187" flag="0"/>
		</comp>
	</station>
	<station code="AOL1" name="AOL1" netid="HI" source="ITSAK Strong Motion Network" insttype="" lat="37.642378" lon="21.624555" esm:processing="automatic (Paolucci et al 2011)" esm:quality="best">
		<comp name="--.HNE" depth="0.0">
			<acc value="0.0222455278243335" flag="0"/>
			<vel value="0.0195711677737838" flag="0"/>
			<psa03 value="0.0389660370378631" flag="0"/>
			<psa10 value="0.022763010437722" flag="0"/>
			<psa30 value="0.00752169160848165" flag="0"/>
		</comp>
		<comp name="--.HNN" depth="0.0">
			<acc value="0.0161323785326554" flag="0"/>
			<vel value="0.0235665384062363" flag="0"/>
			<psa03 value="0.0413388556838053" flag="0"/>
			<psa10 value="0.0306790404608522" flag="0"/>
			<psa30 value="0.00887813813309473" flag="0"/>
		</comp>
		<comp name="--.HNZ" depth="0.0">
			<acc value="0.0123084599420242" flag="0"/>
			<vel value="0.0120122527281871" flag="0"/>
			<psa03 value="0.0314078853057417" flag="0"/>
			<psa10 value="0.0198406705970528" flag="0"/>
			<psa30 value="0.00582164815560568" flag="0"/>
		</comp>
	</station>
	<station code="ARE2" name="ARE2" netid="HI" source="ITSAK Strong Motion Network" insttype="" lat="36.66629" lon="22.382635" esm:processing="automatic (Paolucci et al 2011)" esm:quality="best">
		<comp name="--.HNE" depth="0.0">
			<acc value="0.0348819296874757" flag="0"/>
			<vel value="0.028363427529676" flag="0"/>
			<psa03 value="0.112587135428726" flag="0"/>
			<psa10 value="0.0425425857373624" flag="0"/>
			<psa30 value="0.00651339064682328" flag="0"/>
		</comp>
		<comp name="--.HNN" depth="0.0">
			<acc value="0.0315126064221552" flag="0"/>
			<vel value="0.0197938524536204" flag="0"/>
			<psa03 value="0.157389592954766" flag="0"/>
			<psa10 value="0.0205312432190959" flag="0"/>
			<psa30 value="0.00383519197931438" flag="0"/>
		</comp>
		<comp name="--.HNZ" depth="0.0">
			<acc value="0.0240928209486133" flag="0"/>
			<vel value="0.0211744013235099" flag="0"/>
			<psa03 value="0.0591645443606698" flag="0"/>
			<psa10 value="0.0206165913729798" flag="0"/>
			<psa30 value="0.00411294829597207" flag="0"/>
		</comp>
	</station>
	<station code="ARK1" name="ARK1" netid="HI" source="ITSAK Strong Motion Network" insttype="" lat="35.148777" lon="25.264194" esm:processing="automatic (Paolucci et al 2011)" esm:quality="best">
		<comp name="--.HNE" depth="0.0">
			<acc value="0.0536261643674979" flag="0"/>
			<vel value="0.0497816738678012" flag="0"/>
			<psa03 value="0.244731962291196" flag="0"/>
			<psa10 value="0.140440503494012" flag="0"/>
			<psa30 value="0.0115972249258927" flag="0"/>
		</comp>
		<comp name="--.HNN" depth="0.0">
			<acc value="0.0665178419908299" flag="0"/>
			<vel value="0.0544539147546242" flag="0"/>
			<psa03 value="0.319139016393597" flag="0"/>
			<psa10 value="0.094565844523193" flag="0"/>
			<psa30 value="0.0112845267111609" flag="0"/>
		</comp>
		<comp name="--.HNZ" depth="0.0">
			<acc value="0.0395337421273937" flag="0"/>
			<vel value="0.0230498865990108" flag="0"/>
			<psa03 value="0.154633597883788" flag="0"/>
			<psa10 value="0.0405771292857701" flag="0"/>
			<psa30 value="0.0050163339741551" flag="0"/>
		</comp>
	</station>
	<station code="ARS1" name="ARS1" netid="HI" source="ITSAK Strong Motion Network" insttype="" lat="37.6349" lon="22.7293" esm:processing="automatic (Paolucci et al 2011)" esm:quality="best">
		<comp name="--.HNE" depth="0.0">
			<acc value="0.037489608229582" flag="0"/>
			<vel value="0.0211184869697939" flag="0"/>
			<psa03 value="0.0895642352745148" flag="0"/>
			<psa10 value="0.0260057077504959" flag="0"/>
			<psa30 value="0.00371220716550394" flag="0"/>
		</comp>
		<comp name="--.HNN" depth="0.0">
			<acc value="0.0547428852246903" flag="0"/>
			<vel value="0.0301347001023659" flag="0"/>
			<psa03 value="0.10104700636831" flag="0"/>
			<psa10 value="0.0307529934848766" flag="0"/>
			<psa30 value="0.00360164859154311" flag="0"/>
		</comp>
		<comp name="--.HNZ" depth="0.0">
			<acc value="0.0287321367157885" flag="0"/>
			<vel value="0.0136497903445742" flag="0"/>
			<psa03 value="0.055461689689814" flag="0"/>
			<psa10 value="0.00832673285519677" flag="0"/>
			<psa30 value="0.00447592775826034" flag="0"/>
		</comp>
	</station>
	<station code="ATH5" name="ATH5" netid="HI" source="ITSAK Strong Motion Network" insttype="" lat="37.975421" lon="23.737098" esm:processing="automatic (Paolucci et al 2011)" esm:quality="best">
		<comp name="--.HNE" depth="0.0">
			<acc value="0.0135124940719321" flag="0"/>
			<vel value="0.00745427036667407" flag="0"/>
			<psa03 value="0.0200617378458572" flag="0"/>
			<psa10 value="0.00775637397795827" flag="0"/>
			<psa30 value="0.0018484874532219" flag="0"/>
		</comp>
		<comp name="--.HNN" depth="0.0">
			<acc value="0.0123572214118581" flag="0"/>
			<vel value="0.0061000417152942" flag="0"/>
			<psa03 value="0.0289492276400841" flag="0"/>
			<psa10 value="0.00838190182235187" flag="0"/>
			<psa30 value="0.0022312117651642" flag="0"/>
		</comp>
		<comp name="--.HNZ" depth="0.0">
			<acc value="0.00898541930768572" flag="0"/>
			<vel value="0.00454809369682635" flag="0"/>
			<psa03 value="0.0136451317876146" flag="0"/>
			<psa10 value="0.00617661417037232" flag="0"/>
			<psa30 value="0.00116204427139862" flag="0"/>
		</comp>
	</station>
	<station code="CH01" name="CH01" netid="HI" source="ITSAK Strong Motion Network" insttype="" lat="35.517" lon="24.0208" esm:processing="manual (Paolucci et al 2011)" esm:quality="good">
		<comp name="--.HNE" depth="0.0">
			<acc value="1.01673833204678" flag="0"/>
			<vel value="0.687860998402104" flag="0"/>
			<psa03 value="2.43892706694855" flag="0"/>
			<psa10 value="0.825948415028951" flag="0"/>
			<psa30 value="0.0448576582663768" flag="0"/>
		</comp>
		<comp name="--.HNN" depth="0.0">
			<acc value="0.85292592281511" flag="0"/>
			<vel value="0.736627519323071" flag="0"/>
			<psa03 value="1.56351757536602" flag="0"/>
			<psa10 value="1.2083647282329" flag="0"/>
			<psa30 value="0.05552891851833" flag="0"/>
		</comp>
		<comp name="--.HNZ" depth="0.0">
			<acc value="1.77508477008446" flag="0"/>
			<vel value="0.7144283908167" flag="0"/>
			<psa03 value="4.20661333415507" flag="0"/>
			<psa10 value="0.707496008138329" flag="0"/>
			<psa30 value="0.0428600659356886" flag="0"/>
		</comp>
	</station>
	<station code="CH02" name="CH02" netid="HI" source="ITSAK Strong Motion Network" insttype="" lat="35.5145" lon="24.0315" esm:processing="manual (Paolucci et al 2011)" esm:quality="good">
		<comp name="--.HNE" depth="0.0">
			<acc value="1.01574287502333" flag="0"/>
			<vel value="0.900366104104654" flag="0"/>
			<psa03 value="4.26754937086844" flag="0"/>
			<psa10 value="0.698270336982892" flag="0"/>
			<psa30 value="0.0501340044650842" flag="0"/>
		</comp>
		<comp name="--.HNN" depth="0.0">
			<acc value="0.905908795931393" flag="0"/>
			<vel value="0.641422186387137" flag="0"/>
			<psa03 value="2.48970009707928" flag="0"/>
			<psa10 value="1.103744677668" flag="0"/>
			<psa30 value="0.0571437254913669" flag="0"/>
		</comp>
		<comp name="--.HNZ" depth="0.0">
			<acc value="1.91325125364653" flag="0"/>
			<vel value="0.637895974343503" flag="0"/>
			<psa03 value="4.78332687192991" flag="0"/>
			<psa10 value="0.55717879036037" flag="0"/>
			<psa30 value="0.033976047413062" flag="0"/>
		</comp>
	</station>
	<station code="CH03" name="CH03" netid="HI" source="ITSAK Strong Motion Network" insttype="" lat="35.53303" lon="24.0705" esm:processing="automatic (Paolucci et al 2011)" esm:quality="best">
		<comp name="--.HNE" depth="0.0">
			<acc value="0.583966827130862" flag="0"/>
			<vel value="0.459335688350336" flag="0"/>
			<psa03 value="1.93393344693368" flag="0"/>
			<psa10 value="0.487066215744628" flag="0"/>
			<psa30 value="0.0284738829216659" flag="0"/>
		</comp>
		<comp name="--.HNN" depth="0.0">
			<acc value="0.774814580548195" flag="0"/>
			<vel value="0.561051968618384" flag="0"/>
			<psa03 value="2.19793026876232" flag="0"/>
			<psa10 value="0.433943436622426" flag="0"/>
			<psa30 value="0.0538921367563225" flag="0"/>
		</comp>
		<comp name="--.HNZ" depth="0.0">
			<acc value="0.626385645845369" flag="0"/>
			<vel value="0.31573132662681" flag="0"/>
			<psa03 value="2.08865853004581" flag="0"/>
			<psa10 value="0.415763462288073" flag="0"/>
			<psa30 value="0.0329056731726867" flag="0"/>
		</comp>
	</station>
	<station code="GOR1" name="GOR1" netid="HI" source="ITSAK Strong Motion Network" insttype="" lat="35.0582" lon="24.9628" esm:processing="automatic (Paolucci et al 2011)" esm:quality="best">
		<comp name="--.HNE" depth="0.0">
			<acc value="0.0415799867071115" flag="0"/>
			<vel value="0.049640147854447" flag="0"/>
			<psa03 value="0.144701960794587" flag="0"/>
			<psa10 value="0.0709849724058558" flag="0"/>
			<psa30 value="0.0102617406232847" flag="0"/>
		</comp>
		<comp name="--.HNN" depth="0.0">
			<acc value="0.0417228418022133" flag="0"/>
			<vel value="0.0446653083863556" flag="0"/>
			<psa03 value="0.176852569781342" flag="0"/>
			<psa10 value="0.0724245052679794" flag="0"/>
			<psa30 value="0.0110187916075274" flag="0"/>
		</comp>
		<comp name="--.HNZ" depth="0.0">
			<acc value="0.0373339750737602" flag="0"/>
			<vel value="0.0282592489611181" flag="0"/>
			<psa03 value="0.154369465802993" flag="0"/>
			<psa10 value="0.0531782340469832" flag="0"/>
			<psa30 value="0.00805114001516197" flag="0"/>
		</comp>
	</station>
	<station code="GTH2" name="GTH2" netid="HI" source="ITSAK Strong Motion Network" insttype="" lat="36.7603" lon="22.5659" esm:processing="manual (Paolucci et al 2011)" esm:quality="good">
		<comp name="--.HNE" depth="0.0">
			<acc value="0.0545802144939744" flag="0"/>
			<vel value="0.0475088832214853" flag="0"/>
			<psa03 value="0.201581457948945" flag="0"/>
			<psa10 value="0.070536180175763" flag="0"/>
			<psa30 value="0.0106909423891315" flag="0"/>
		</comp>
		<comp name="--.HNN" depth="0.0">
			<acc value="0.0643469710549278" flag="0"/>
			<vel value="0.0513290348853766" flag="0"/>
			<psa03 value="0.185769764668532" flag="0"/>
			<psa10 value="0.0497753411220646" flag="0"/>
			<psa30 value="0.00907508951347537" flag="0"/>
		</comp>
		<comp name="--.HNZ" depth="0.0">
			<acc value="0.0325667497354234" flag="0"/>
			<vel value="0.0201933506633773" flag="0"/>
			<psa03 value="0.102642289131246" flag="0"/>
			<psa10 value="0.0148454990664552" flag="0"/>
			<psa30 value="0.00521146606738375" flag="0"/>
		</comp>
	</station>
	<station code="HER1" name="HER1" netid="HI" source="ITSAK Strong Motion Network" insttype="" lat="35.317672" lon="25.10217" esm:processing="manual (Paolucci et al 2011)" esm:quality="good">
		<comp name="--.HNE" depth="0.0">
			<acc value="0.143071374777075" flag="0"/>
			<vel value="0.214368804307009" flag="0"/>
			<psa03 value="0.459444144253055" flag="0"/>
			<psa10 value="0.310996011959503" flag="0"/>
			<psa30 value="0.0207159523301732" flag="0"/>
		</comp>
		<comp name="--.HNN" depth="0.0">
			<acc value="0.131544751126788" flag="0"/>
			<vel value="0.16315996267494" flag="0"/>
			<psa03 value="0.356538160570006" flag="0"/>
			<psa10 value="0.357735358211807" flag="0"/>
			<psa30 value="0.0179012975397737" flag="0"/>
		</comp>
		<comp name="--.HNZ" depth="0.0">
			<acc value="0.122345899312966" flag="0"/>
			<vel value="0.107437171433261" flag="0"/>
			<psa03 value="0.326200067486897" flag="0"/>
			<psa10 value="0.203773889020077" flag="0"/>
			<psa30 value="0.00680994904236922" flag="0"/>
		</comp>
	</station>
