<?xml version="1.0" encoding="UTF-8" standalone="yes"?>
<!DOCTYPE earthquake SYSTEM "stationlist.dtd">
<stationlist created="" xmlns="ch.ethz.sed.shakemap.usgs.xml">
  <station code="IMMV" name="IMMV" netid="GE" insttype="STS-2/N" commtype="DIG" lat="35.4606" lon="23.9811">
    <comp name="--.HHE">
      <acc value="0.4775192779" flag="0"/>
      <vel value="0.2663577847" flag="0"/>
      <psa03 value="1.4189348875" flag="0"/>
      <psa10 value="0.4283330468" flag="0"/>
      <psa30 value="0.0229539508" flag="0"/>
    </comp>
    <comp name="--.HHZ">
      <acc value="0.6490851241" flag="0"/>
      <vel value="0.2751350005" flag="0"/>
      <psa03 value="1.5888542947" flag="0"/>
      <psa10 value="0.2239158053" flag="0"/>
      <psa30 value="0.0204850432" flag="0"/>
    </comp>
    <comp name="--.HHN">
      <acc value="0.5244386403" flag="0"/>
      <vel value="0.3238265943" flag="0"/>
      <psa03 value="2.4444973129" flag="0"/>
      <psa10 value="0.4648162499" flag="0"/>
      <psa30 value="0.0255115826" flag="0"/>
    </comp>
  </station>
  <station code="KTHA" name="KTHA" netid="GE" insttype="STS-2/N" commtype="DIG" lat="36.2566" lon="23.0621">
    <comp name="--.HHE">
      <acc value="0.7107627033" flag="0"/>
      <vel value="0.3721826338" flag="0"/>
      <psa03 value="1.3422999139" flag="0"/>
      <psa10 value="0.3144299926" flag="0"/>
      <psa30 value="0.0310798140" flag="0"/>
    </comp>
    <comp name="--.HHN">
      <acc value="0.5154170047" flag="0"/>
      <vel value="0.3564867581" flag="0"/>
      <psa03 value="1.7169275859" flag="0"/>
      <psa10 value="0.2579679077" flag="0"/>
      <psa30 value="0.0328134780" flag="0"/>
    </comp>
    <comp name="--.HHZ">
      <acc value="0.4093845045" flag="0"/>
      <vel value="0.2346820444" flag="0"/>
      <psa03 value="1.0586810535" flag="0"/>
      <psa10 value="0.1867973263" flag="0"/>
      <psa30 value="0.0169824007" flag="0"/>
    </comp>
  </station>
  <station code="IOSI" name="IOSI" netid="HA" insttype="60s," commtype="DIG" lat="36.7225" lon="25.2887">
    <comp name="--.HHN">
      <acc value="0.0455151711" flag="0"/>
      <vel value="0.0202049800" flag="0"/>
      <psa03 value="0.1123961201" flag="0"/>
      <psa10 value="0.0217248443" flag="0"/>
      <psa30 value="0.0016218223" flag="0"/>
    </comp>
    <comp name="--.HHZ">
      <acc value="0.0295604493" flag="0"/>
      <vel value="0.0129379218" flag="0"/>
      <psa03 value="0.0586576438" flag="0"/>
      <psa10 value="0.0083967862" flag="0"/>
      <psa30 value="0.0016444424" flag="0"/>
    </comp>
    <comp name="--.HHE">
      <acc value="0.0506369482" flag="0"/>
      <vel value="0.0264378379" flag="0"/>
      <psa03 value="0.0756661654" flag="0"/>
      <psa10 value="0.0143445509" flag="0"/>
      <psa30 value="0.0019375352" flag="0"/>
    </comp>
  </station>
  <station code="SERI" name="SERI" netid="HA" insttype="30" commtype="DIG" lat="37.1609" lon="24.4853">
    <comp name="--.HHE">
      <acc value="0.0478193900" flag="0"/>
      <vel value="0.0171392753" flag="0"/>
      <psa03 value="0.0514940393" flag="0"/>
      <psa10 value="0.0110127891" flag="0"/>
      <psa30 value="0.0015174163" flag="0"/>
    </comp>
    <comp name="--.HHN">
      <acc value="0.0554294157" flag="0"/>
      <vel value="0.0183064789" flag="0"/>
      <psa03 value="0.0643463786" flag="0"/>
      <psa10 value="0.0067082569" flag="0"/>
      <psa30 value="0.0013083269" flag="0"/>
    </comp>
    <comp name="--.HHZ">
      <acc value="0.0510072214" flag="0"/>
      <vel value="0.0336375325" flag="0"/>
      <psa03 value="0.0697245176" flag="0"/>
      <psa10 value="0.0237450362" flag="0"/>
      <psa30 value="0.0022205899" flag="0"/>
    </comp>
  </station>
  <station code="SNT1" name="SNT1" netid="HA" insttype="30" commtype="DIG" lat="36.4159" lon="25.4282">
    <comp name="--.HHN">
      <acc value="0.0095777779" flag="0"/>
      <vel value="0.0077091666" flag="0"/>
      <psa03 value="0.0154015917" flag="0"/>
      <psa10 value="0.0103644482" flag="0"/>
      <psa30 value="0.0034254515" flag="0"/>
    </comp>
    <comp name="--.HHZ">
      <acc value="0.0073620178" flag="0"/>
      <vel value="0.0048260482" flag="0"/>
      <psa03 value="0.0165797376" flag="0"/>
      <psa10 value="0.0071072758" flag="0"/>
      <psa30 value="0.0008724437" flag="0"/>
    </comp>
    <comp name="--.HHE">
      <acc value="0.0101046212" flag="0"/>
      <vel value="0.0102372318" flag="0"/>
      <psa03 value="0.0130768718" flag="0"/>
      <psa10 value="0.0161758103" flag="0"/>
      <psa30 value="0.0049769954" flag="0"/>
    </comp>
  </station>
  <station code="SNT5" name="SNT5" netid="HA" insttype="1s-100Hz," commtype="DIG" lat="36.4037" lon="25.3953">
    <comp name="--.HHE">
      <acc value="0.0675746809" flag="0"/>
      <vel value="0.0269925069" flag="0"/>
      <psa03 value="0.1162399572" flag="0"/>
      <psa10 value="0.0222727643" flag="0"/>
      <psa30 value="0.0092643889" flag="0"/>
    </comp>
    <comp name="--.HHN">
      <acc value="0.0554818955" flag="0"/>
      <vel value="0.0165213335" flag="0"/>
      <psa03 value="0.0609285992" flag="0"/>
      <psa10 value="0.0107383642" flag="0"/>
      <psa30 value="0.0050346746" flag="0"/>
    </comp>
    <comp name="--.HHZ">
      <acc value="0.0158699109" flag="0"/>
      <vel value="0.0082545371" flag="0"/>
      <psa03 value="0.0287603718" flag="0"/>
      <psa10 value="0.0064071676" flag="0"/>
      <psa30 value="0.0020629040" flag="0"/>
    </comp>
  </station>
  <station code="ATEI" name="ATEI" netid="HC" insttype="DC" commtype="DIG" lat="35.5193" lon="24.0432">
    <comp name="--.HNZ">
      <acc value="2.1586567167" flag="0"/>
      <vel value="0.6313210042" flag="0"/>
      <psa03 value="5.1358309913" flag="0"/>
      <psa10 value="0.5809441111" flag="0"/>
      <psa30 value="0.0316668125" flag="0"/>
    </comp>
    <comp name="--.HNE">
      <acc value="0.9383639719" flag="0"/>
      <vel value="0.7142050527" flag="0"/>
      <psa03 value="3.5045488378" flag="0"/>
      <psa10 value="0.7408880286" flag="0"/>
      <psa30 value="0.0417048536" flag="0"/>
    </comp>
    <comp name="--.HNN">
      <acc value="1.3772381359" flag="0"/>
      <vel value="0.8414069521" flag="0"/>
      <psa03 value="3.4233775150" flag="0"/>
      <psa10 value="0.7088487741" flag="0"/>
      <psa30 value="0.0487937204" flag="0"/>
    </comp>
  </station>
  <station code="IMOD" name="IMOD" netid="HC" insttype="120" commtype="DIG" lat="34.9731" lon="24.7995">
    <comp name="--.HHE">
      <acc value="0.0464889199" flag="0"/>
      <vel value="0.0397752269" flag="0"/>
      <psa03 value="0.1906542584" flag="0"/>
      <psa10 value="0.0988521889" flag="0"/>
      <psa30 value="0.0078266662" flag="0"/>
    </comp>
    <comp name="--.HHN">
      <acc value="0.0508540127" flag="0"/>
      <vel value="0.0361969299" flag="0"/>
      <psa03 value="0.1790706404" flag="0"/>
      <psa10 value="0.0617945600" flag="0"/>
      <psa30 value="0.0071124838" flag="0"/>
    </comp>
    <comp name="--.HHZ">
      <acc value="0.0315307628" flag="0"/>
      <vel value="0.0209254934" flag="0"/>
      <psa03 value="0.1019604961" flag="0"/>
      <psa10 value="0.0329906790" flag="0"/>
      <psa30 value="0.0059314327" flag="0"/>
    </comp>
  </station>
  <station code="IPPL" name="IPPL" netid="HC" insttype="60" commtype="DIG" lat="35.3486" lon="24.4632">
    <comp name="--.HHE">
      <acc value="0.0000000000" flag="0"/>
      <vel value="-100.0000000000" flag="0"/>
      <psa03 value="0.0000000000" flag="0"/>
      <psa10 value="0.0000000000" flag="0"/>
      <psa30 value="0.0000000000" flag="0"/>
    </comp>
    <comp name="--.HHZ">
      <acc value="0.1539248372" flag="0"/>
      <vel value="0.0989928804" flag="0"/>
      <psa03 value="0.5657965147" flag="0"/>
      <psa10 value="0.0702554523" flag="0"/>
      <psa30 value="0.0092204785" flag="0"/>
    </comp>
    <comp name="--.HHN">
      <acc value="0.0000000000" flag="0"/>
      <vel value="-100.0000000000" flag="0"/>
      <psa03 value="0.0000000000" flag="0"/>
      <psa10 value="0.0000000000" flag="0"/>
      <psa30 value="0.0000000000" flag="0"/>
    </comp>
  </station>
  <station code="KNDR" name="KNDR" netid="HC" insttype="120" commtype="DIG" lat="35.2348" lon="23.6248">
    <comp name="--.HHE">
      <acc value="0.0052860856" flag="0"/>
      <vel value="-100.0000000000" flag="0"/>
      <psa03 value="0.0000004973" flag="0"/>
      <psa10 value="0.0000004888" flag="0"/>
      <psa30 value="0.0000004220" flag="0"/>
    </comp>
    <comp name="--.HHZ">
      <acc value="0.3242935103" flag="0"/>
      <vel value="0.2042689976" flag="0"/>
      <psa03 value="0.9889989712" flag="0"/>
      <psa10 value="0.2525614702" flag="0"/>
      <psa30 value="0.0182616307" flag="0"/>
    </comp>
    <comp name="--.HHN">
      <acc value="0.3591398849" flag="0"/>
      <vel value="0.3420882738" flag="0"/>
      <psa03 value="0.8428603174" flag="0"/>
      <psa10 value="0.8125882631" flag="0"/>
      <psa30 value="0.0230187710" flag="0"/>
    </comp>
  </station>
  <station code="KTHR" name="KTHR" netid="HC" insttype="120s" commtype="DIG" lat="36.2447" lon="22.9939">
    <comp name="--.HHE">
      <acc value="1.5756737165" flag="0"/>
      <vel value="0.9531913089" flag="0"/>
      <psa03 value="6.3045467549" flag="0"/>
      <psa10 value="0.4058657551" flag="0"/>
      <psa30 value="0.0430278467" flag="0"/>
    </comp>
    <comp name="--.HHN">
      <acc value="1.1080082818" flag="0"/>
      <vel value="0.6252039965" flag="0"/>
      <psa03 value="4.1783967387" flag="0"/>
      <psa10 value="0.4693852373" flag="0"/>
      <psa30 value="0.0311344987" flag="0"/>
    </comp>
    <comp name="--.HHZ">
      <acc value="0.5152892341" flag="0"/>
      <vel value="0.2459456884" flag="0"/>
      <psa03 value="1.2959743999" flag="0"/>
      <psa10 value="0.1782056023" flag="0"/>
      <psa30 value="0.0193321253" flag="0"/>
    </comp>
  </station>
  <station code="ARE2" name="ARE2" netid="HI" insttype="unknown" commtype="DIG" lat="36.6663" lon="22.3826">
    <comp name="--.HNN">
      <acc value="0.0315281540" flag="0"/>
      <vel value="0.0189029474" flag="0"/>
      <psa03 value="0.1581314024" flag="0"/>
      <psa10 value="0.0205033744" flag="0"/>
      <psa30 value="0.0038007670" flag="0"/>
    </comp>
    <comp name="--.HNZ">
      <acc value="0.0241809497" flag="0"/>
      <vel value="0.0214711991" flag="0"/>
      <psa03 value="0.0601937273" flag="0"/>
      <psa10 value="0.0205213094" flag="0"/>
      <psa30 value="0.0040865590" flag="0"/>
    </comp>
    <comp name="--.HNE">
      <acc value="0.0348896109" flag="0"/>
      <vel value="0.0275410270" flag="0"/>
      <psa03 value="0.1131624428" flag="0"/>
      <psa10 value="0.0425767690" flag="0"/>
      <psa30 value="0.0064801399" flag="0"/>
    </comp>
  </station>
  <station code="ARK1" name="ARK1" netid="HI" insttype="unknown" commtype="DIG" lat="35.1488" lon="25.2642">
    <comp name="--.HNE">
      <acc value="0.0534341287" flag="0"/>
      <vel value="0.0502146088" flag="0"/>
      <psa03 value="0.2457334215" flag="0"/>
      <psa10 value="0.1403782921" flag="0"/>
      <psa30 value="0.0115448168" flag="0"/>
    </comp>
    <comp name="--.HNN">
      <acc value="0.0666528794" flag="0"/>
      <vel value="0.0537494088" flag="0"/>
      <psa03 value="0.3200964892" flag="0"/>
      <psa10 value="0.0944966021" flag="0"/>
      <psa30 value="0.0112193359" flag="0"/>
    </comp>
    <comp name="--.HNZ">
      <acc value="0.0408544935" flag="0"/>
      <vel value="0.0232076256" flag="0"/>
      <psa03 value="0.1557163311" flag="0"/>
      <psa10 value="0.0405795415" flag="0"/>
      <psa30 value="0.0050025338" flag="0"/>
    </comp>
  </station>
  <station code="CH01" name="CH01" netid="HI" insttype="CMG-5TD,ACCELEROMETER,GURALP" commtype="DIG" lat="35.517" lon="24.0208">
    <comp name="--.HNN">
      <acc value="0.8539142748" flag="0"/>
      <vel value="0.7391760033" flag="0"/>
      <psa03 value="1.5609791850" flag="0"/>
      <psa10 value="1.2082958917" flag="0"/>
      <psa30 value="0.0561471299" flag="0"/>
    </comp>
    <comp name="--.HNE">
      <acc value="1.0200745057" flag="0"/>
      <vel value="0.6879288607" flag="0"/>
      <psa03 value="2.4123003749" flag="0"/>
      <psa10 value="0.8263291224" flag="0"/>
      <psa30 value="0.0474268944" flag="0"/>
    </comp>
    <comp name="--.HNZ">
      <acc value="1.7642042683" flag="0"/>
      <vel value="0.7087150608" flag="0"/>
      <psa03 value="4.1447734484" flag="0"/>
      <psa10 value="0.7069468704" flag="0"/>
      <psa30 value="0.0445806132" flag="0"/>
    </comp>
  </station>
  <station code="CH02" name="CH02" netid="HI" insttype="unknown" commtype="DIG" lat="35.5145" lon="24.0315">
    <comp name="--.HNE">
      <acc value="1.0181495945" flag="0"/>
      <vel value="0.8985422696" flag="0"/>
      <psa03 value="4.2550381859" flag="0"/>
      <psa10 value="0.6969208022" flag="0"/>
      <psa30 value="0.0520690376" flag="0"/>
    </comp>
    <comp name="--.HNN">
      <acc value="0.9079458760" flag="0"/>
      <vel value="0.6457989059" flag="0"/>
      <psa03 value="2.4901014050" flag="0"/>
      <psa10 value="1.1035258090" flag="0"/>
      <psa30 value="0.0576772329" flag="0"/>
    </comp>
    <comp name="--.HNZ">
      <acc value="1.9021221061" flag="0"/>
      <vel value="0.6373701451" flag="0"/>
      <psa03 value="4.6902326912" flag="0"/>
      <psa10 value="0.5563315505" flag="0"/>
      <psa30 value="0.0360325714" flag="0"/>
    </comp>
  </station>
  <station code="CH03" name="CH03" netid="HI" insttype="unknown" commtype="DIG" lat="35.533" lon="24.0705">
    <comp name="--.HNE">
      <acc value="0.5809581240" flag="0"/>
      <vel value="0.4552281378" flag="0"/>
      <psa03 value="1.9046304345" flag="0"/>
      <psa10 value="0.4870275756" flag="0"/>
      <psa30 value="0.0283839908" flag="0"/>
    </comp>
    <comp name="--.HNN">
      <acc value="0.7753552706" flag="0"/>
      <vel value="0.5610085995" flag="0"/>
      <psa03 value="2.2026642599" flag="0"/>
      <psa10 value="0.4333126319" flag="0"/>
      <psa30 value="0.0535160728" flag="0"/>
    </comp>
    <comp name="--.HNZ">
      <acc value="0.6257413670" flag="0"/>
      <vel value="0.3150608095" flag="0"/>
      <psa03 value="2.0770578993" flag="0"/>
      <psa10 value="0.4156849777" flag="0"/>
      <psa30 value="0.0327195941" flag="0"/>
    </comp>
  </station>
  <station code="GOR1" name="GOR1" netid="HI" insttype="unknown" commtype="DIG" lat="35.0582" lon="24.9628">
    <comp name="--.HNE">
      <acc value="0.0417310795" flag="0"/>
      <vel value="0.0493965655" flag="0"/>
      <psa03 value="0.1442465832" flag="0"/>
      <psa10 value="0.0707467223" flag="0"/>
      <psa30 value="0.0102789048" flag="0"/>
    </comp>
    <comp name="--.HNZ">
      <acc value="0.0372339191" flag="0"/>
      <vel value="0.0285304267" flag="0"/>
      <psa03 value="0.1548299489" flag="0"/>
      <psa10 value="0.0532729516" flag="0"/>
      <psa30 value="0.0080869890" flag="0"/>
    </comp>
    <comp name="--.HNN">
      <acc value="0.0417944642" flag="0"/>
      <vel value="0.0447079695" flag="0"/>
      <psa03 value="0.1736706341" flag="0"/>
      <psa10 value="0.0724425739" flag="0"/>
      <psa30 value="0.0110306503" flag="0"/>
    </comp>
  </station>
  <station code="GTH2" name="GTH2" netid="HI" insttype="unknown" commtype="DIG" lat="36.7603" lon="22.5659">
    <comp name="--.HNE">
      <acc value="0.0554700396" flag="0"/>
      <vel value="0.0468197935" flag="0"/>
      <psa03 value="0.2063459933" flag="0"/>
      <psa10 value="0.0704303586" flag="0"/>
      <psa30 value="0.0105794225" flag="0"/>
    </comp>
    <comp name="--.HNN">
      <acc value="0.0645508683" flag="0"/>
      <vel value="0.0511261137" flag="0"/>
      <psa03 value="0.1875959950" flag="0"/>
      <psa10 value="0.0496490562" flag="0"/>
      <psa30 value="0.0090679829" flag="0"/>
    </comp>
    <comp name="--.HNZ">
      <acc value="0.0342936132" flag="0"/>
      <vel value="0.0199166496" flag="0"/>
      <psa03 value="0.1021977969" flag="0"/>
      <psa10 value="0.0148000275" flag="0"/>
      <psa30 value="0.0052309663" flag="0"/>
    </comp>
  </station>
  <station code="HER1" name="HER1" netid="HI" insttype="unknown" commtype="DIG" lat="35.3177" lon="25.1022">
    <comp name="--.HNE">
      <acc value="0.1440673623" flag="0"/>
      <vel value="0.2172383661" flag="0"/>
      <psa03 value="0.4625617657" flag="0"/>
      <psa10 value="0.3144015934" flag="0"/>
      <psa30 value="0.0223079292" flag="0"/>
    </comp>
    <comp name="--.HNN">
      <acc value="0.1319070495" flag="0"/>
      <vel value="0.1681834994" flag="0"/>
      <psa03 value="0.3579260887" flag="0"/>
      <psa10 value="0.3579267675" flag="0"/>
      <psa30 value="0.0183754363" flag="0"/>
    </comp>
    <comp name="--.HNZ">
      <acc value="0.1224679907" flag="0"/>
      <vel value="0.1076799964" flag="0"/>
      <psa03 value="0.3306428284" flag="0"/>
      <psa10 value="0.2038550339" flag="0"/>
      <psa30 value="0.0072856207" flag="0"/>
    </comp>
  </station>
  <station code="HER3" name="HER3" netid="HI" insttype="unknown" commtype="DIG" lat="35.3296" lon="25.1065">
    <comp name="--.HNN">
      <acc value="0.2349532739" flag="0"/>
      <vel value="0.1453286911" flag="0"/>
      <psa03 value="0.5855070447" flag="0"/>
      <psa10 value="0.3324236152" flag="0"/>
      <psa30 value="0.0113918593" flag="0"/>
    </comp>
    <comp name="--.HNE">
      <acc value="0.1909865785" flag="0"/>
      <vel value="0.1623653212" flag="0"/>
      <psa03 value="0.6831482512" flag="0"/>
      <psa10 value="0.3571174665" flag="0"/>
      <psa30 value="0.0175322257" flag="0"/>
    </comp>
    <comp name="--.HNZ">
      <acc value="0.1093813789" flag="0"/>
      <vel value="0.0697096008" flag="0"/>
      <psa03 value="0.3889109540" flag="0"/>
      <psa10 value="0.1580702542" flag="0"/>
      <psa30 value="0.0051462465" flag="0"/>
    </comp>
  </station>
  <station code="KTL1" name="KTL1" netid="HI" insttype="unknown" commtype="DIG" lat="35.2078" lon="25.3427">
    <comp name="--.HNN">
      <acc value="0.0688991517" flag="0"/>
      <vel value="0.0445466720" flag="0"/>
      <psa03 value="0.2083717463" flag="0"/>
      <psa10 value="0.0565484526" flag="0"/>
      <psa30 value="0.0065985707" flag="0"/>
    </comp>
    <comp name="--.HNE">
      <acc value="0.0463794397" flag="0"/>
      <vel value="0.0381884966" flag="0"/>
      <psa03 value="0.1553463035" flag="0"/>
      <psa10 value="0.0519260825" flag="0"/>
      <psa30 value="0.0040500679" flag="0"/>
    </comp>
    <comp name="--.HNZ">
      <acc value="0.0329975185" flag="0"/>
      <vel value="0.0188005739" flag="0"/>
      <psa03 value="0.1158232443" flag="0"/>
      <psa10 value="0.0302486212" flag="0"/>
      <psa30 value="0.0048632231" flag="0"/>
    </comp>
  </station>
  <station code="LEO1" name="LEO1" netid="HI" insttype="unknown" commtype="DIG" lat="37.1689" lon="22.8637">
    <comp name="--.HNE">
      <acc value="0.0486965094" flag="0"/>
      <vel value="0.0211999010" flag="0"/>
      <psa03 value="0.0741312150" flag="0"/>
      <psa10 value="0.0163389033" flag="0"/>
      <psa30 value="0.0029775160" flag="0"/>
    </comp>
    <comp name="--.HNN">
      <acc value="0.0476954426" flag="0"/>
      <vel value="0.0153981154" flag="0"/>
      <psa03 value="0.0792801018" flag="0"/>
      <psa10 value="0.0192301881" flag="0"/>
      <psa30 value="0.0038019312" flag="0"/>
    </comp>
    <comp name="--.HNZ">
      <acc value="0.0426106079" flag="0"/>
      <vel value="0.0132756037" flag="0"/>
      <psa03 value="0.0361595316" flag="0"/>
      <psa10 value="0.0164520216" flag="0"/>
      <psa30 value="0.0026367486" flag="0"/>
    </comp>
  </station>
  <station code="PET1" name="PET1" netid="HI" insttype="unknown" commtype="DIG" lat="36.9639" lon="21.9254">
