<?xml version="1.0" encoding="UTF-8" standalone="yes"?>
<!DOCTYPE earthquake SYSTEM "stationlist.dtd">
<stationlist created="" xmlns="ch.ethz.sed.shakemap.usgs.xml">
  <station code="IMMV" name="IMMV" netid="GE" insttype="STS-2/N" commtype="DIG" lat="35.4606" lon="23.9811">
    <comp name="--.HHE">
      <acc value="0.4775192779" flag="0"/>
      <vel value="0.2663577847" flag="0"/>
      <psa03 value="1.4189348875" flag="0"/>
      <psa10 value="0.4283330468" flag="0"/>
      <psa30 value="0.0229539508" flag="0"/>
    </comp>
    <comp name="--.HHZ">
      <acc value="0.6490851241" flag="0"/>
      <vel value="0.2751350005" flag="0"/>
      <psa03 value="1.5888542947" flag="0"/>
      <psa10 value="0.2239158053" flag="0"/>
      <psa30 value="0.0204850432" flag="0"/>
    </comp>
    <comp name="--.HHN">
      <acc value="0.5244386403" flag="0"/>
      <vel value="0.3238265943" flag="0"/>
      <psa03 value="2.4444973129" flag="0"/>
      <psa10 value="0.4648162499" flag="0"/>
      <psa30 value="0.0255115826" flag="0"/>
    </comp>
  </station>
  <station code="KTHA" name="KTHA" netid="GE" insttype="STS-2/N" commtype="DIG" lat="36.2566" lon="23.0621">
    <comp name="--.HHE">
      <acc value="0.7107627033" flag="0"/>
      <vel value="0.3721826338" flag="0"/>
      <psa03 value="1.3422999139" flag="0"/>
      <psa10 value="0.3144299926" flag="0"/>
      <psa30 value="0.0310798140" flag="0"/>
    </comp>
    <comp name="--.HHN">
      <acc value="0.5154170047" flag="0"/>
      <vel value="0.3564867581" flag="0"/>
      <psa03 value="1.7169275859" flag="0"/>
      <psa10 value="0.2579679077" flag="0"/>
      <psa30 value="0.0328134780" flag="0"/>
    </comp>
    <comp name="--.HHZ">
      <acc value="0.4093845045" flag="0"/>
      <vel value="0.2346820444" flag="0"/>
      <psa03 value="1.0586810535" flag="0"/>
      <psa10 value="0.1867973263" flag="0"/>
      <psa30 value="0.0169824007" flag="0"/>
    </comp>
  </station>
</stationlist>
