<?xml version="1.0" encoding="UTF-8" standalone="yes"?>
<!DOCTYPE earthquake SYSTEM "stationlist.dtd">
<stationlist created="" xmlns="ch.ethz.sed.shakemap.usgs.xml">
  <station code="IMMV" name="IMMV" netid="GE" insttype="STS-2/N" commtype="DIG" lat="35.4606" lon="23.9811">
    <comp name="--.HHZ">
      <acc value="0.6490851244" flag="0"/>
      <vel value="0.2751349996" flag="0"/>
      <psa03 value="1.5888542947" flag="0"/>
      <psa10 value="0.2239158107" flag="0"/>
      <psa30 value="0.0204850988" flag="0"/>
    </comp>
    <comp name="--.HHN">
      <acc value="0.5244386403" flag="0"/>
      <vel value="0.3238265933" flag="0"/>
      <psa03 value="2.4444973129" flag="0"/>
      <psa10 value="0.4648162499" flag="0"/>
      <psa30 value="0.0255116074" flag="0"/>
    </comp>
    <comp name="--.HHE">
      <acc value="0.4775192777" flag="0"/>
      <vel value="0.2663577849" flag="0"/>
      <psa03 value="1.4189348875" flag="0"/>
      <psa10 value="0.4283330468" flag="0"/>
      <psa30 value="0.0229539677" flag="0"/>
    </comp>
  </station>
  <station code="KTHA" name="KTHA" netid="GE" insttype="STS-2/N" commtype="DIG" lat="36.2566" lon="23.0621">
    <comp name="--.HHZ">
      <acc value="0.4093845056" flag="0"/>
      <vel value="0.2346820457" flag="0"/>
      <psa03 value="1.0586810535" flag="0"/>
      <psa10 value="0.1867973411" flag="0"/>
      <psa30 value="0.0169824563" flag="0"/>
    </comp>
    <comp name="--.HHE">
      <acc value="0.7107627035" flag="0"/>
      <vel value="0.3721826305" flag="0"/>
      <psa03 value="1.3422999139" flag="0"/>
      <psa10 value="0.3144299929" flag="0"/>
      <psa30 value="0.0310795288" flag="0"/>
    </comp>
    <comp name="--.HHN">
      <acc value="0.5154170045" flag="0"/>
      <vel value="0.3564867604" flag="0"/>
      <psa03 value="1.7169275859" flag="0"/>
      <psa10 value="0.2579679076" flag="0"/>
      <psa30 value="0.0328136645" flag="0"/>
    </comp>
  </station>
  <station code="ATEI" name="ATEI" netid="HC" insttype="DC" commtype="DIG" lat="35.5193" lon="24.0432">
    <comp name="--.HNE">
      <acc value="0.9383639711" flag="0"/>
      <vel value="0.7142050898" flag="0"/>
      <psa03 value="3.5045488378" flag="0"/>
      <psa10 value="0.7408880042" flag="0"/>
      <psa30 value="0.0417017687" flag="0"/>
    </comp>
    <comp name="--.HNN">
      <acc value="1.3772381439" flag="0"/>
      <vel value="0.8414070013" flag="0"/>
      <psa03 value="3.4233775149" flag="0"/>
      <psa10 value="0.7088487730" flag="0"/>
      <psa30 value="0.0487940164" flag="0"/>
    </comp>
    <comp name="--.HNZ">
      <acc value="2.1586567177" flag="0"/>
      <vel value="0.6313210066" flag="0"/>
      <psa03 value="5.1358309915" flag="0"/>
      <psa10 value="0.5809441174" flag="0"/>
      <psa30 value="0.0316707156" flag="0"/>
    </comp>
  </station>
  <station code="IMOD" name="IMOD" netid="HC" insttype="120" commtype="DIG" lat="34.9731" lon="24.7995">
    <comp name="--.HHN">
      <acc value="0.0508540130" flag="0"/>
      <vel value="0.0361969333" flag="0"/>
      <psa03 value="0.1790706404" flag="0"/>
      <psa10 value="0.0617945600" flag="0"/>
      <psa30 value="0.0071124831" flag="0"/>
    </comp>
    <comp name="--.HHZ">
      <acc value="0.0315307627" flag="0"/>
      <vel value="0.0209254904" flag="0"/>
      <psa03 value="0.1019604961" flag="0"/>
      <psa10 value="0.0329906790" flag="0"/>
      <psa30 value="0.0059314328" flag="0"/>
    </comp>
    <comp name="--.HHE">
      <acc value="0.0464889199" flag="0"/>
      <vel value="0.0397752285" flag="0"/>
      <psa03 value="0.1906542584" flag="0"/>
      <psa10 value="0.0988521889" flag="0"/>
      <psa30 value="0.0078266710" flag="0"/>
    </comp>
  </station>
  <station code="IPPL" name="IPPL" netid="HC" insttype="60" commtype="DIG" lat="35.3486" lon="24.4632">
    <comp name="--.HHE">
      <acc value="0.0000000000" flag="0"/>
      <vel value="-100.0000000000" flag="0"/>
      <psa03 value="0.0000000000" flag="0"/>
      <psa10 value="0.0000000000" flag="0"/>
      <psa30 value="0.0000000000" flag="0"/>
    </comp>
    <comp name="--.HHN">
      <acc value="0.0000000000" flag="0"/>
      <vel value="-100.0000000000" flag="0"/>
      <psa03 value="0.0000000000" flag="0"/>
      <psa10 value="0.0000000000" flag="0"/>
      <psa30 value="0.0000000000" flag="0"/>
    </comp>
    <comp name="--.HHZ">
      <acc value="0.1539248370" flag="0"/>
      <vel value="0.0989928807" flag="0"/>
      <psa03 value="0.5657965147" flag="0"/>
      <psa10 value="0.0702554540" flag="0"/>
      <psa30 value="0.0092204948" flag="0"/>
    </comp>
  </station>
  <station code="KNDR" name="KNDR" netid="HC" insttype="120" commtype="DIG" lat="35.2348" lon="23.6248">
    <comp name="--.HHN">
      <acc value="0.3591398850" flag="0"/>
      <vel value="0.3420882746" flag="0"/>
      <psa03 value="0.8428603174" flag="0"/>
      <psa10 value="0.8125882631" flag="0"/>
      <psa30 value="0.0230187547" flag="0"/>
    </comp>
    <comp name="--.HHE">
      <acc value="0.0081796951" flag="0"/>
      <vel value="-100.0000000000" flag="0"/>
      <psa03 value="0.0000004719" flag="0"/>
      <psa10 value="0.0000004672" flag="0"/>
      <psa30 value="0.0000004327" flag="0"/>
    </comp>
    <comp name="--.HHZ">
      <acc value="0.3242935102" flag="0"/>
      <vel value="0.2042689996" flag="0"/>
      <psa03 value="0.9889989712" flag="0"/>
      <psa10 value="0.2525614701" flag="0"/>
      <psa30 value="0.0182616221" flag="0"/>
    </comp>
  </station>
  <station code="KTHR" name="KTHR" netid="HC" insttype="120s" commtype="DIG" lat="36.2447" lon="22.9939">
    <comp name="--.HHE">
      <acc value="1.5756737164" flag="0"/>
      <vel value="0.9531913135" flag="0"/>
      <psa03 value="6.3045467549" flag="0"/>
      <psa10 value="0.4058657555" flag="0"/>
      <psa30 value="0.0430286395" flag="0"/>
    </comp>
    <comp name="--.HHN">
      <acc value="1.1080082816" flag="0"/>
      <vel value="0.6252039943" flag="0"/>
      <psa03 value="4.1783967387" flag="0"/>
      <psa10 value="0.4693852373" flag="0"/>
      <psa30 value="0.0311345959" flag="0"/>
    </comp>
    <comp name="--.HHZ">
      <acc value="0.5152892341" flag="0"/>
      <vel value="0.2459456897" flag="0"/>
      <psa03 value="1.2959743999" flag="0"/>
      <psa10 value="0.1782055967" flag="0"/>
      <psa30 value="0.0193316567" flag="0"/>
    </comp>
  </station>
  <station code="CH01" name="CH01" netid="HI" insttype="CMG-5TD,ACCELEROMETER,GURALP" commtype="DIG" lat="35.517" lon="24.0208">
    <comp name="--.HNN">
      <acc value="0.8539142744" flag="0"/>
      <vel value="0.7391759937" flag="0"/>
      <psa03 value="1.5609791850" flag="0"/>
      <psa10 value="1.2082958918" flag="0"/>
      <psa30 value="0.0561466963" flag="0"/>
    </comp>
    <comp name="--.HNE">
      <acc value="1.0200745133" flag="0"/>
      <vel value="0.6879288548" flag="0"/>
      <psa03 value="2.4123003749" flag="0"/>
      <psa10 value="0.8263291221" flag="0"/>
      <psa30 value="0.0474268148" flag="0"/>
    </comp>
    <comp name="--.HNZ">
      <acc value="1.7642042669" flag="0"/>
      <vel value="0.7087150657" flag="0"/>
      <psa03 value="4.1447734484" flag="0"/>
      <psa10 value="0.7069468701" flag="0"/>
      <psa30 value="0.0445808112" flag="0"/>
    </comp>
  </station>
  <station code="CH02" name="CH02" netid="HI" insttype="unknown" commtype="DIG" lat="35.5145" lon="24.0315">
    <comp name="--.HNE">
      <acc value="1.0181495938" flag="0"/>
      <vel value="0.8985422599" flag="0"/>
      <psa03 value="4.2550381859" flag="0"/>
      <psa10 value="0.6969208011" flag="0"/>
      <psa30 value="0.0520692880" flag="0"/>
    </comp>
    <comp name="--.HNZ">
      <acc value="1.9021221051" flag="0"/>
      <vel value="0.6373701510" flag="0"/>
      <psa03 value="4.6902326912" flag="0"/>
      <psa10 value="0.5563315504" flag="0"/>
      <psa30 value="0.0360327047" flag="0"/>
    </comp>
    <comp name="--.HNN">
      <acc value="0.9079458768" flag="0"/>
      <vel value="0.6457989002" flag="0"/>
      <psa03 value="2.4901014050" flag="0"/>
      <psa10 value="1.1035258094" flag="0"/>
      <psa30 value="0.0576773991" flag="0"/>
    </comp>
  </station>
  <station code="CH03" name="CH03" netid="HI" insttype="unknown" commtype="DIG" lat="35.533" lon="24.0705">
    <comp name="--.HNE">
      <acc value="0.5809581292" flag="0"/>
      <vel value="0.4552281404" flag="0"/>
      <psa03 value="1.9046304345" flag="0"/>
      <psa10 value="0.4870275752" flag="0"/>
      <psa30 value="0.0283838334" flag="0"/>
    </comp>
    <comp name="--.HNN">
      <acc value="0.7753552693" flag="0"/>
      <vel value="0.5610085921" flag="0"/>
      <psa03 value="2.2026642599" flag="0"/>
      <psa10 value="0.4333126333" flag="0"/>
      <psa30 value="0.0535162041" flag="0"/>
    </comp>
    <comp name="--.HNZ">
      <acc value="0.6257413687" flag="0"/>
      <vel value="0.3150608218" flag="0"/>
      <psa03 value="2.0770578993" flag="0"/>
      <psa10 value="0.4156849767" flag="0"/>
      <psa30 value="0.0327187858" flag="0"/>
    </comp>
  </station>
  <station code="GOR1" name="GOR1" netid="HI" insttype="unknown" commtype="DIG" lat="35.0582" lon="24.9628">
    <comp name="--.HNE">
      <acc value="0.0417310720" flag="0"/>
      <vel value="0.0493965657" flag="0"/>
      <psa03 value="0.1442465832" flag="0"/>
      <psa10 value="0.0707467223" flag="0"/>
      <psa30 value="0.0102788998" flag="0"/>
    </comp>
    <comp name="--.HNZ">
      <acc value="0.0372339179" flag="0"/>
      <vel value="0.0285304255" flag="0"/>
      <psa03 value="0.1548299489" flag="0"/>
      <psa10 value="0.0532729516" flag="0"/>
      <psa30 value="0.0080869881" flag="0"/>
    </comp>
    <comp name="--.HNN">
      <acc value="0.0417944605" flag="0"/>
      <vel value="0.0447079684" flag="0"/>
      <psa03 value="0.1736706341" flag="0"/>
      <psa10 value="0.0724425739" flag="0"/>
      <psa30 value="0.0110306503" flag="0"/>
    </comp>
  </station>
  <station code="HER1" name="HER1" netid="HI" insttype="unknown" commtype="DIG" lat="35.3177" lon="25.1022">
    <comp name="--.HNE">
      <acc value="0.1440673737" flag="0"/>
      <vel value="0.2172383629" flag="0"/>
      <psa03 value="0.4625617657" flag="0"/>
      <psa10 value="0.3144015934" flag="0"/>
      <psa30 value="0.0223079189" flag="0"/>
    </comp>
    <comp name="--.HNN">
      <acc value="0.1319070478" flag="0"/>
      <vel value="0.1681834957" flag="0"/>
      <psa03 value="0.3579260887" flag="0"/>
      <psa10 value="0.3579267675" flag="0"/>
      <psa30 value="0.0183754693" flag="0"/>
    </comp>
    <comp name="--.HNZ">
      <acc value="0.1224679868" flag="0"/>
      <vel value="0.1076799959" flag="0"/>
      <psa03 value="0.3306428284" flag="0"/>
      <psa10 value="0.2038550339" flag="0"/>
      <psa30 value="0.0072856376" flag="0"/>
    </comp>
  </station>
  <station code="RTH1" name="RTH1" netid="HI" insttype="unknown" commtype="DIG" lat="35.3654" lon="24.4718">
    <comp name="--.HNE">
      <acc value="0.0949463024" flag="0"/>
      <vel value="0.0845709404" flag="0"/>
      <psa03 value="0.3515364008" flag="0"/>
      <psa10 value="0.1220302784" flag="0"/>
      <psa30 value="0.0213255913" flag="0"/>
    </comp>
    <comp name="--.HNN">
      <acc value="0.1192816170" flag="0"/>
      <vel value="0.1038030709" flag="0"/>
      <psa03 value="0.4458077003" flag="0"/>
      <psa10 value="0.0921096178" flag="0"/>
      <psa30 value="0.0184114329" flag="0"/>
    </comp>
    <comp name="--.HNZ">
      <acc value="0.0946585694" flag="0"/>
      <vel value="0.0748749330" flag="0"/>
      <psa03 value="0.3612099363" flag="0"/>
      <psa10 value="0.0680963002" flag="0"/>
      <psa30 value="0.0097281488" flag="0"/>
    </comp>
  </station>
  <station code="ANKY" name="ANKY" netid="HL" insttype="60" commtype="DIG" lat="35.867" lon="23.3012">
    <comp name="--.HHZ">
      <acc value="0.3259533995" flag="0"/>
      <vel value="0.1404188256" flag="0"/>
      <psa03 value="1.2657521570" flag="0"/>
      <psa10 value="0.1509689879" flag="0"/>
      <psa30 value="0.0134328164" flag="0"/>
    </comp>
    <comp name="--.HHN">
      <acc value="0.6238738746" flag="0"/>
      <vel value="0.3609226240" flag="0"/>
      <psa03 value="2.2896228963" flag="0"/>
      <psa10 value="0.5096077324" flag="0"/>
      <psa30 value="0.0426365013" flag="0"/>
    </comp>
    <comp name="--.HHE">
      <acc value="0.7202779947" flag="0"/>
      <vel value="0.4287506144" flag="0"/>
      <psa03 value="2.3963689401" flag="0"/>
      <psa10 value="0.6381062244" flag="0"/>
      <psa30 value="0.0317595293" flag="0"/>
    </comp>
  </station>
  <station code="CHNB" name="CHNB" netid="HL" insttype="CMG-5" commtype="DIG" lat="35.4877" lon="24.0661">
    <comp name="00.HNN">
      <acc value="1.9496161759" flag="0"/>
      <vel value="1.2302811549" flag="0"/>
      <psa03 value="3.4690339170" flag="0"/>
      <psa10 value="1.4840061967" flag="0"/>
      <psa30 value="0.0714794130" flag="0"/>
    </comp>
    <comp name="00.HNZ">
      <acc value="0.9519082773" flag="0"/>
      <vel value="0.6333498199" flag="0"/>
      <psa03 value="3.5694817209" flag="0"/>
      <psa10 value="0.4993343819" flag="0"/>
      <psa30 value="0.0398274511" flag="0"/>
    </comp>
    <comp name="00.HNE">
      <acc value="1.5468755207" flag="0"/>
      <vel value="1.0195334116" flag="0"/>
      <psa03 value="4.9644432592" flag="0"/>
      <psa10 value="1.3862469269" flag="0"/>
      <psa30 value="0.0588238720" flag="0"/>
    </comp>
  </station>
  <station code="HERG" name="HERG" netid="HL" insttype="CMG-5" commtype="DIG" lat="35.3262" lon="25.0659">
    <comp name="00.HNE">
      <acc value="0.1033192496" flag="0"/>
      <vel value="0.1179487050" flag="0"/>
      <psa03 value="0.3931490005" flag="0"/>
      <psa10 value="0.1560763013" flag="0"/>
      <psa30 value="0.0137608401" flag="0"/>
    </comp>
    <comp name="00.HNN">
      <acc value="0.1187998879" flag="0"/>
      <vel value="0.1191997196" flag="0"/>
      <psa03 value="0.4089432967" flag="0"/>
      <psa10 value="0.2705160341" flag="0"/>
      <psa30 value="0.0187609364" flag="0"/>
    </comp>
    <comp name="00.HNZ">
      <acc value="0.0553390349" flag="0"/>
      <vel value="0.0188869755" flag="0"/>
      <psa03 value="0.1712794314" flag="0"/>
      <psa10 value="0.0249530971" flag="0"/>
      <psa30 value="0.0015241619" flag="0"/>
    </comp>
  </station>
  <station code="IACM" name="IACM" netid="HL" insttype="120" commtype="DIG" lat="35.3058" lon="25.0709">
    <comp name="--.HHE">
      <acc value="0.2522051406" flag="0"/>
      <vel value="0.1689330584" flag="0"/>
      <psa03 value="1.0242715069" flag="0"/>
      <psa10 value="0.2122243897" flag="0"/>
      <psa30 value="0.0156240662" flag="0"/>
    </comp>
    <comp name="--.HHN">
      <acc value="7.3247836172" flag="0"/>
      <vel value="0.5534761271" flag="0"/>
      <psa03 value="0.7626608455" flag="0"/>
      <psa10 value="0.2823645248" flag="0"/>
      <psa30 value="0.0204845105" flag="0"/>
    </comp>
    <comp name="--.HHZ">
      <acc value="9.6415315906" flag="0"/>
      <vel value="0.7079455486" flag="0"/>
      <psa03 value="0.7898667928" flag="0"/>
      <psa10 value="0.1989620811" flag="0"/>
      <psa30 value="0.0149149166" flag="0"/>
    </comp>
  </station>
  <station code="IMMV" name="IMMV" netid="HL" insttype="120" commtype="DIG" lat="35.4606" lon="23.9811">
    <comp name="--.HHE">
      <acc value="0.4633841138" flag="0"/>
      <vel value="0.2634704443" flag="0"/>
      <psa03 value="1.3784383495" flag="0"/>
      <psa10 value="0.4251963852" flag="0"/>
      <psa30 value="0.0229147845" flag="0"/>
    </comp>
    <comp name="--.HHN">
      <acc value="0.5125578988" flag="0"/>
      <vel value="0.3179697791" flag="0"/>
      <psa03 value="2.3761832432" flag="0"/>
      <psa10 value="0.4617155424" flag="0"/>
      <psa30 value="0.0254421451" flag="0"/>
    </comp>
    <comp name="--.HHZ">
      <acc value="0.6397787868" flag="0"/>
      <vel value="0.2696417549" flag="0"/>
      <psa03 value="1.5446922149" flag="0"/>
      <psa10 value="0.2217808613" flag="0"/>
      <psa30 value="0.0203376110" flag="0"/>
    </comp>
  </station>
  <station code="MHLO" name="MHLO" netid="HL" insttype="20" commtype="DIG" lat="36.6898" lon="24.4017">
    <comp name="--.HHE">
      <acc value="0.3617956187" flag="0"/>
      <vel value="0.2695523050" flag="0"/>
      <psa03 value="0.6706269816" flag="0"/>
      <psa10 value="0.2302248197" flag="0"/>
      <psa30 value="0.0147601177" flag="0"/>
    </comp>
    <comp name="--.HHN">
      <acc value="0.2774843757" flag="0"/>
      <vel value="0.1955931496" flag="0"/>
      <psa03 value="0.4428074557" flag="0"/>
      <psa10 value="0.1820219541" flag="0"/>
      <psa30 value="0.0125549480" flag="0"/>
    </comp>
    <comp name="--.HHZ">
      <acc value="0.0972667184" flag="0"/>
      <vel value="0.0583101326" flag="0"/>
      <psa03 value="0.2202340578" flag="0"/>
      <psa10 value="0.0828438129" flag="0"/>
      <psa30 value="0.0064043717" flag="0"/>
    </comp>
  </station>
  <station code="MILA" name="MILA" netid="HL" insttype="CMG-5" commtype="DIG" lat="36.7429" lon="24.4282">
    <comp name="00.HNZ">
      <acc value="0.1027087736" flag="0"/>
      <vel value="0.0660329305" flag="0"/>
      <psa03 value="0.3044094350" flag="0"/>
      <psa10 value="0.0715332514" flag="0"/>
      <psa30 value="0.0043334712" flag="0"/>
    </comp>
    <comp name="00.HNE">
      <acc value="0.1108435971" flag="0"/>
      <vel value="0.0655554460" flag="0"/>
      <psa03 value="0.2863411572" flag="0"/>
      <psa10 value="0.0958983234" flag="0"/>
      <psa30 value="0.0100811131" flag="0"/>
    </comp>
    <comp name="00.HNN">
      <acc value="0.1485816013" flag="0"/>
      <vel value="0.0807519599" flag="0"/>
      <psa03 value="0.4132054679" flag="0"/>
      <psa10 value="0.0974217649" flag="0"/>
      <psa30 value="0.0082266934" flag="0"/>
    </comp>
  </station>
  <station code="MNVA" name="MNVA" netid="HL" insttype="CMG-5" commtype="DIG" lat="36.6871" lon="23.0373">
    <comp name="00.HNE">
      <acc value="0.0598705527" flag="0"/>
      <vel value="0.0394816281" flag="0"/>
      <psa03 value="0.1542825011" flag="0"/>
      <psa10 value="0.0341753469" flag="0"/>
      <psa30 value="0.0069891318" flag="0"/>
    </comp>
    <comp name="00.HNZ">
      <acc value="0.0463897101" flag="0"/>
      <vel value="0.0298146765" flag="0"/>
      <psa03 value="0.1257701712" flag="0"/>
      <psa10 value="0.0291246732" flag="0"/>
      <psa30 value="0.0044960453" flag="0"/>
    </comp>
    <comp name="00.HNN">
      <acc value="0.0624666706" flag="0"/>
      <vel value="0.0391758023" flag="0"/>
      <psa03 value="0.1123008887" flag="0"/>
      <psa10 value="0.0258827935" flag="0"/>
      <psa30 value="0.0078064908" flag="0"/>
    </comp>
  </station>
  <station code="SIVA" name="SIVA" netid="HL" insttype="60" commtype="DIG" lat="35.0178" lon="24.812">
    <comp name="--.HHN">
      <acc value="0.0450368398" flag="0"/>
      <vel value="0.0389652913" flag="0"/>
      <psa03 value="0.1464648484" flag="0"/>
      <psa10 value="0.0560650933" flag="0"/>
      <psa30 value="0.0047235135" flag="0"/>
    </comp>
    <comp name="--.HHE">
      <acc value="0.0572319929" flag="0"/>
      <vel value="0.0685638882" flag="0"/>
      <psa03 value="0.2038394192" flag="0"/>
      <psa10 value="0.1090034165" flag="0"/>
      <psa30 value="0.0103516920" flag="0"/>
    </comp>
    <comp name="--.HHZ">
      <acc value="0.0403626607" flag="0"/>
      <vel value="0.0207302147" flag="0"/>
      <psa03 value="0.1030373236" flag="0"/>
      <psa10 value="0.0335258505" flag="0"/>
      <psa30 value="0.0060878423" flag="0"/>
    </comp>
  </station>
  <station code="VAM" name="VAM" netid="HL" insttype="CMG3ESPC-120s" commtype="DIG" lat="35.407" lon="24.1997">
    <comp name="--.HHE">
