<?xml version="1.0" encoding="UTF-8" standalone="yes"?>
<!DOCTYPE earthquake SYSTEM "stationlist.dtd">
<stationlist created="" xmlns="ch.ethz.sed.shakemap.usgs.xml">
  <station code="ACB" name="ACB" netid="CH" insttype="Trillium 240s_g2" lat="47.5877" lon="8.25474">
    <comp name="--.HHE">
      <acc value="0.0281830648" flag="0"/>
      <vel value="0.0086633754" flag="0"/>
      <psa03 value="0.0310214381" flag="0"/>
      <psa10 value="0.0037837608" flag="0"/>
      <psa30 value="0.0002282226" flag="0"/>
    </comp>
    <comp name="--.HHN">
      <acc value="0.0210843380" flag="0"/>
      <vel value="0.0098989560" flag="0"/>
      <psa03 value="0.0533697361" flag="0"/>
      <psa10 value="0.0052507454" flag="0"/>
      <psa30 value="0.0003303424" flag="0"/>
    </comp>
    <comp name="--.HHZ">
      <acc value="0.0172381397" flag="0"/>
      <vel value="0.0083958927" flag="0"/>
      <psa03 value="0.0422703749" flag="0"/>
      <psa10 value="0.0035343626" flag="0"/>
      <psa30 value="0.0002609662" flag="0"/>
    </comp>
  </station>
  <station code="BLOTZ" name="BLOTZ" netid="CH" insttype="EpiSensor ES-T" lat="47.6207" lon="7.44006">
    <comp name="SF.HGE">
      <acc value="0.0479906975" flag="0"/>
      <vel value="0.0144402360" flag="0"/>
      <psa03 value="0.0764845185" flag="0"/>
      <psa10 value="0.0093286421" flag="0"/>
      <psa30 value="0.0007055415" flag="0"/>
    </comp>
    <comp name="SF.HGN">
      <acc value="0.0442942691" flag="0"/>
      <vel value="0.0103655959" flag="0"/>
      <psa03 value="0.0518888621" flag="0"/>
      <psa10 value="0.0042704482" flag="0"/>
      <psa30 value="0.0002905660" flag="0"/>
    </comp>
    <comp name="SF.HGZ">
      <acc value="0.0138531088" flag="0"/>
      <vel value="0.0042131730" flag="0"/>
      <psa03 value="0.0265618084" flag="0"/>
      <psa10 value="0.0017585928" flag="0"/>
      <psa30 value="0.0001853111" flag="0"/>
    </comp>
  </station>
  <station code="EMING" name="EMING" netid="CH" insttype="Trillium Compact 120s" lat="47.8952" lon="8.84676">
    <comp name="--.HHE">
      <acc value="0.0393456494" flag="0"/>
      <vel value="0.0087178556" flag="0"/>
      <psa03 value="0.0369774592" flag="0"/>
      <psa10 value="0.0040073317" flag="0"/>
      <psa30 value="0.0003925938" flag="0"/>
    </comp>
    <comp name="--.HHZ">
      <acc value="0.0299472503" flag="0"/>
      <vel value="0.0051118814" flag="0"/>
      <psa03 value="0.0119678452" flag="0"/>
      <psa10 value="0.0017633986" flag="0"/>
      <psa30 value="0.0001141209" flag="0"/>
    </comp>
    <comp name="--.HHN">
      <acc value="0.0528199215" flag="0"/>
      <vel value="0.0086540721" flag="0"/>
      <psa03 value="0.0238661933" flag="0"/>
      <psa10 value="0.0040607750" flag="0"/>
      <psa30 value="0.0003434676" flag="0"/>
    </comp>
  </station>
  <station code="HAUIG" name="HAUIG" netid="CH" insttype="Trillium Compact 120s" lat="47.6604" lon="7.70018">
    <comp name="--.HHE">
      <acc value="0.0638229145" flag="0"/>
      <vel value="0.0163610022" flag="0"/>
      <psa03 value="0.0907638509" flag="0"/>
      <psa10 value="0.0063275105" flag="0"/>
      <psa30 value="0.0005881609" flag="0"/>
    </comp>
    <comp name="--.HHN">
      <acc value="0.0541375619" flag="0"/>
      <vel value="0.0152103259" flag="0"/>
      <psa03 value="0.0756122688" flag="0"/>
      <psa10 value="0.0073639468" flag="0"/>
      <psa30 value="0.0003483122" flag="0"/>
    </comp>
    <comp name="--.HHZ">
      <acc value="0.0209545832" flag="0"/>
      <vel value="0.0050941113" flag="0"/>
      <psa03 value="0.0221001607" flag="0"/>
      <psa10 value="0.0033848876" flag="0"/>
      <psa30 value="0.0002062282" flag="0"/>
    </comp>
  </station>
  <station code="METMA" name="METMA" netid="CH" insttype="Trillium Compact 120s" lat="47.7122" lon="8.25262">
    <comp name="--.HHZ">
      <acc value="0.0120060843" flag="0"/>
      <vel value="0.0027582138" flag="0"/>
      <psa03 value="0.0136523988" flag="0"/>
      <psa10 value="0.0019787608" flag="0"/>
      <psa30 value="0.0001219558" flag="0"/>
    </comp>
    <comp name="--.HHE">
      <acc value="0.0169214433" flag="0"/>
      <vel value="0.0028813088" flag="0"/>
      <psa03 value="0.0184786837" flag="0"/>
      <psa10 value="0.0025714954" flag="0"/>
      <psa30 value="0.0001782484" flag="0"/>
    </comp>
    <comp name="--.HHN">
      <acc value="0.0134757136" flag="0"/>
      <vel value="0.0023005769" flag="0"/>
      <psa03 value="0.0143338639" flag="0"/>
      <psa10 value="0.0013246582" flag="0"/>
      <psa30 value="0.0001247278" flag="0"/>
    </comp>
  </station>
  <station code="OTTER" name="OTTER" netid="CH" insttype="EpiSensor ES-T" lat="47.5778" lon="7.6038">
    <comp name="--.HGE">
      <acc value="0.0343984390" flag="0"/>
      <vel value="0.0132758926" flag="0"/>
      <psa03 value="0.0638575127" flag="0"/>
      <psa10 value="0.0062526014" flag="0"/>
      <psa30 value="0.0005130847" flag="0"/>
    </comp>
    <comp name="--.HGN">
      <acc value="0.0372072714" flag="0"/>
      <vel value="0.0078092104" flag="0"/>
      <psa03 value="0.0333347629" flag="0"/>
      <psa10 value="0.0065214681" flag="0"/>
      <psa30 value="0.0003703881" flag="0"/>
    </comp>
    <comp name="--.HGZ">
      <acc value="0.0178278811" flag="0"/>
      <vel value="0.0048956231" flag="0"/>
      <psa03 value="0.0224925074" flag="0"/>
      <psa10 value="0.0046769257" flag="0"/>
      <psa30 value="0.0002227998" flag="0"/>
    </comp>
  </station>
  <station code="SAUR" name="SAUR" netid="CH" insttype="EpiSensor ES-T" lat="47.5339" lon="7.7228">
    <comp name="--.HGN">
      <acc value="0.0352915908" flag="0"/>
      <vel value="0.0115557289" flag="0"/>
      <psa03 value="0.1048141294" flag="0"/>
      <psa10 value="0.0029317965" flag="0"/>
      <psa30 value="0.0003205464" flag="0"/>
    </comp>
    <comp name="--.HGZ">
      <acc value="0.0224352789" flag="0"/>
      <vel value="0.0043296142" flag="0"/>
      <psa03 value="0.0283761406" flag="0"/>
      <psa10 value="0.0020181526" flag="0"/>
      <psa30 value="0.0001321108" flag="0"/>
    </comp>
    <comp name="--.HGE">
      <acc value="0.0351859252" flag="0"/>
      <vel value="0.0134898435" flag="0"/>
      <psa03 value="0.1471545111" flag="0"/>
      <psa10 value="0.0050622445" flag="0"/>
      <psa30 value="0.0004245856" flag="0"/>
    </comp>
  </station>
  <station code="SCHS" name="SCHS" netid="CH" insttype="EpiSensor ES-T" lat="47.7114" lon="8.63651">
    <comp name="--.HGE">
      <acc value="0.1044513439" flag="0"/>
      <vel value="0.0176587346" flag="0"/>
      <psa03 value="0.0297577199" flag="0"/>
      <psa10 value="0.0022321798" flag="0"/>
      <psa30 value="0.0002721624" flag="0"/>
    </comp>
    <comp name="--.HGN">
      <acc value="0.0967395097" flag="0"/>
      <vel value="0.0126362919" flag="0"/>
      <psa03 value="0.0274715528" flag="0"/>
      <psa10 value="0.0047626712" flag="0"/>
      <psa30 value="0.0003415929" flag="0"/>
    </comp>
    <comp name="--.HGZ">
      <acc value="0.0250433340" flag="0"/>
      <vel value="0.0038080869" flag="0"/>
      <psa03 value="0.0152373191" flag="0"/>
      <psa10 value="0.0016570174" flag="0"/>
      <psa30 value="0.0001455038" flag="0"/>
    </comp>
  </station>
  <station code="SKAF" name="SKAF" netid="CH" insttype="EpiSensor ES-T" lat="47.5384" lon="7.7199">
    <comp name="--.HGE">
      <acc value="0.0121738967" flag="0"/>
      <vel value="0.0052506101" flag="0"/>
      <psa03 value="0.0303398011" flag="0"/>
      <psa10 value="0.0025190730" flag="0"/>
      <psa30 value="0.0002103618" flag="0"/>
    </comp>
    <comp name="--.HGN">
      <acc value="0.0091100535" flag="0"/>
      <vel value="0.0029184086" flag="0"/>
      <psa03 value="0.0174520746" flag="0"/>
      <psa10 value="0.0012108857" flag="0"/>
      <psa30 value="0.0001049102" flag="0"/>
    </comp>
    <comp name="--.HGZ">
      <acc value="0.0099955179" flag="0"/>
      <vel value="0.0023846916" flag="0"/>
      <psa03 value="0.0125129534" flag="0"/>
      <psa10 value="0.0019414265" flag="0"/>
      <psa30 value="0.0001046759" flag="0"/>
    </comp>
  </station>
  <station code="SLE" name="SLE" netid="CH" insttype="STS2.5" lat="47.7645" lon="8.49236">
    <comp name="--.HHN">
      <acc value="0.0308436841" flag="0"/>
      <vel value="0.0050645639" flag="0"/>
      <psa03 value="0.0315838818" flag="0"/>
      <psa10 value="0.0022182301" flag="0"/>
      <psa30 value="0.0002185995" flag="0"/>
    </comp>
    <comp name="--.HHZ">
      <acc value="0.0303290644" flag="0"/>
      <vel value="0.0040898768" flag="0"/>
      <psa03 value="0.0179602713" flag="0"/>
      <psa10 value="0.0024188608" flag="0"/>
      <psa30 value="0.0001608723" flag="0"/>
    </comp>
    <comp name="--.HHE">
      <acc value="0.0225583571" flag="0"/>
      <vel value="0.0057707669" flag="0"/>
      <psa03 value="0.0231043221" flag="0"/>
      <psa10 value="0.0035301200" flag="0"/>
      <psa30 value="0.0003433681" flag="0"/>
    </comp>
  </station>
  <station code="SRHE" name="SRHE" netid="CH" insttype="EpiSensor ES-T" lat="47.5856" lon="7.64945">
    <comp name="--.HGE">
      <acc value="0.0227867918" flag="0"/>
      <vel value="0.0113011570" flag="0"/>
      <psa03 value="0.0650143149" flag="0"/>
      <psa10 value="0.0123294037" flag="0"/>
      <psa30 value="0.0005247078" flag="0"/>
    </comp>
    <comp name="--.HGZ">
      <acc value="0.0143006111" flag="0"/>
      <vel value="0.0031979766" flag="0"/>
      <psa03 value="0.0173427772" flag="0"/>
      <psa10 value="0.0036928786" flag="0"/>
      <psa30 value="0.0002604980" flag="0"/>
    </comp>
    <comp name="--.HGN">
      <acc value="0.0139745677" flag="0"/>
      <vel value="0.0063361813" flag="0"/>
      <psa03 value="0.0349747874" flag="0"/>
      <psa10 value="0.0066281111" flag="0"/>
      <psa30 value="0.0004925661" flag="0"/>
    </comp>
  </station>
  <station code="STU" name="STU" netid="GE" insttype="STS-2/N" lat="48.7719" lon="9.195">
    <comp name="--.HHE">
      <acc value="0.0095866942" flag="0"/>
      <vel value="0.0043834323" flag="0"/>
      <psa03 value="0.0162949788" flag="0"/>
      <psa10 value="0.0037813403" flag="0"/>
      <psa30 value="0.0002194693" flag="0"/>
    </comp>
    <comp name="--.HHN">
      <acc value="0.0099269959" flag="0"/>
      <vel value="0.0047132479" flag="0"/>
      <psa03 value="0.0180481527" flag="0"/>
      <psa10 value="0.0028940788" flag="0"/>
      <psa30 value="0.0001905146" flag="0"/>
    </comp>
    <comp name="--.HHZ">
      <acc value="0.0104187920" flag="0"/>
      <vel value="0.0051610457" flag="0"/>
      <psa03 value="0.0290214308" flag="0"/>
      <psa10 value="0.0015682305" flag="0"/>
      <psa30 value="0.0001925325" flag="0"/>
    </comp>
  </station>
  <station code="BFO" name="BFO" netid="GR" insttype="" lat="48.3301" lon="8.3296">
    <comp name="--.HHN">
      <acc value="0.0286330177" flag="0"/>
      <vel value="0.0064265289" flag="0"/>
      <psa03 value="0.0207610028" flag="0"/>
      <psa10 value="0.0029608791" flag="0"/>
      <psa30 value="0.0003684757" flag="0"/>
    </comp>
    <comp name="--.HHE">
      <acc value="0.0275973462" flag="0"/>
      <vel value="0.0053001339" flag="0"/>
      <psa03 value="0.0174642209" flag="0"/>
      <psa10 value="0.0028439104" flag="0"/>
      <psa30 value="0.0003824326" flag="0"/>
    </comp>
    <comp name="--.HHZ">
      <acc value="0.0199867544" flag="0"/>
      <vel value="0.0041839581" flag="0"/>
      <psa03 value="0.0193345436" flag="0"/>
      <psa10 value="0.0013983418" flag="0"/>
      <psa30 value="0.0001092532" flag="0"/>
    </comp>
  </station>
</stationlist>
