<stationlist created="1778032496">
	<station code="ACB" name="ACB" netid="CH" source="Switzerland Seismological Network" insttype="" lat="47.58772" lon="8.25474">
		<comp name="--.HGE" depth="0.0">
			<acc value="0.0278434004923813" flag="0"/>
			<vel value="0.0089903146829676" flag="0"/>
			<psa03 value="0.0264437830208677" flag="0"/>
			<psa10 value="0.0035528677037991" flag="0"/>
			<psa30 value="0.00022856071394237" flag="0"/>
		</comp>
		<comp name="--.HGN" depth="0.0">
			<acc value="0.0217892372081323" flag="0"/>
			<vel value="0.00974161726302509" flag="0"/>
			<psa03 value="0.0539504697871676" flag="0"/>
			<psa10 value="0.00532342655714711" flag="0"/>
			<psa30 value="0.000342559047022537" flag="0"/>
		</comp>
		<comp name="--.HGZ" depth="0.0">
			<acc value="0.0177799891809142" flag="0"/>
			<vel value="0.00854293413213104" flag="0"/>
			<psa03 value="0.0427947880696928" flag="0"/>
			<psa10 value="0.00355707571693279" flag="0"/>
			<psa30 value="0.000285074509787335" flag="0"/>
		</comp>
	</station>
	<station code="BALST" name="BALST" netid="CH" source="Switzerland Seismological Network" insttype="" lat="47.33599" lon="7.69485">
		<comp name="--.HGE" depth="0.0">
			<acc value="0.0074134234409944" flag="0"/>
			<vel value="0.00343855794094848" flag="0"/>
			<psa03 value="0.0191874507619304" flag="0"/>
			<psa10 value="0.0020698788380629" flag="0"/>
			<psa30 value="0.000143305613085101" flag="0"/>
		</comp>
		<comp name="--.HGN" depth="0.0">
			<acc value="0.00619659119863725" flag="0"/>
			<vel value="0.00199644724173295" flag="0"/>
			<psa03 value="0.0144427757734352" flag="0"/>
			<psa10 value="0.0014561179841081" flag="0"/>
			<psa30 value="0.000105173308361265" flag="0"/>
		</comp>
		<comp name="--.HGZ" depth="0.0">
			<acc value="0.00528621726849685" flag="0"/>
			<vel value="0.00258089102118938" flag="0"/>
			<psa03 value="0.0121940057096951" flag="0"/>
			<psa10 value="0.00145280323327067" flag="0"/>
			<psa30 value="0.000118391527753434" flag="0"/>
		</comp>
	</station>
	<station code="BLOTZ" name="BLOTZ" netid="CH" source="Switzerland Seismological Network" insttype="" lat="47.620722" lon="7.44">
		<comp name="SF.HGE" depth="1.0">
			<acc value="0.0478505001543067" flag="0"/>
			<vel value="0.0144713491800458" flag="0"/>
			<psa03 value="0.0765122352268887" flag="0"/>
			<psa10 value="0.00933814673138425" flag="0"/>
			<psa30 value="0.000706554357842099" flag="0"/>
		</comp>
		<comp name="SF.HGN" depth="1.0">
			<acc value="0.0445562826364186" flag="0"/>
			<vel value="0.010375194138347" flag="0"/>
			<psa03 value="0.0516580470921343" flag="0"/>
			<psa10 value="0.00427370529950837" flag="0"/>
			<psa30 value="0.000292045726804433" flag="0"/>
		</comp>
		<comp name="SF.HGZ" depth="1.0">
			<acc value="0.0138005838987155" flag="0"/>
			<vel value="0.00422039672435801" flag="0"/>
			<psa03 value="0.0266465594746287" flag="0"/>
			<psa10 value="0.00175849196021407" flag="0"/>
			<psa30 value="0.000204138054394145" flag="0"/>
		</comp>
	</station>
	<station code="BNALP" name="BNALP" netid="CH" source="Switzerland Seismological Network" insttype="" lat="46.87034" lon="8.4249">
		<comp name="--.HGE" depth="0.0">
			<acc value="0.00145760169644915" flag="0"/>
			<vel value="0.000768642264258947" flag="0"/>
			<psa03 value="0.00521590965600179" flag="0"/>
			<psa10 value="0.00126766624229212" flag="0"/>
			<psa30 value="7.05766349911314e-05" flag="0"/>
		</comp>
		<comp name="--.HGN" depth="0.0">
			<acc value="0.00137920901008384" flag="0"/>
			<vel value="0.000821272198181833" flag="0"/>
			<psa03 value="0.00321911982641258" flag="0"/>
			<psa10 value="0.000934042910915055" flag="0"/>
			<psa30 value="7.09591017338097e-05" flag="0"/>
		</comp>
		<comp name="--.HGZ" depth="0.0">
			<acc value="0.00157277888085013" flag="0"/>
			<vel value="0.000709492806259884" flag="0"/>
			<psa03 value="0.00352690518963801" flag="0"/>
			<psa10 value="0.00105192277065709" flag="0"/>
			<psa30 value="5.31808699769055e-05" flag="0"/>
		</comp>
	</station>
	<station code="BOBI" name="BOBI" netid="CH" source="Switzerland Seismological Network" insttype="" lat="47.54631" lon="8.33985">
		<comp name="SF.HGE" depth="1.0">
			<acc value="0.0516025048338527" flag="0"/>
			<vel value="0.0145775187923239" flag="0"/>
			<psa03 value="0.0753435275972121" flag="0"/>
			<psa10 value="0.0050791620945636" flag="0"/>
			<psa30 value="0.00041251576464494" flag="0"/>
		</comp>
		<comp name="SF.HGN" depth="1.0">
			<acc value="0.0312047363409795" flag="0"/>
			<vel value="0.00967009546404842" flag="0"/>
			<psa03 value="0.0397793903977025" flag="0"/>
			<psa10 value="0.00488128726757646" flag="0"/>
			<psa30 value="0.000309153761169253" flag="0"/>
		</comp>
		<comp name="SF.HGZ" depth="1.0">
			<acc value="0.0220307446072807" flag="0"/>
			<vel value="0.00612486067257125" flag="0"/>
			<psa03 value="0.0317880068410969" flag="0"/>
			<psa10 value="0.00302855648637884" flag="0"/>
			<psa30 value="0.000269044385370181" flag="0"/>
		</comp>
	</station>
	<station code="BOURR" name="BOURR" netid="CH" source="Switzerland Seismological Network" insttype="" lat="47.39364" lon="7.2301">
		<comp name="--.HGE" depth="0.0">
			<acc value="0.0111376873857886" flag="0"/>
			<vel value="0.00899208340645153" flag="0"/>
			<psa03 value="0.0288658861816166" flag="0"/>
			<psa10 value="0.00680892152639841" flag="0"/>
			<psa30 value="0.000487170970601396" flag="0"/>
		</comp>
		<comp name="--.HGN" depth="0.0">
			<acc value="0.00485809774918773" flag="0"/>
			<vel value="0.00379360689472704" flag="0"/>
			<psa03 value="0.0144350135404911" flag="0"/>
			<psa10 value="0.00396173338289409" flag="0"/>
			<psa30 value="0.000201216298342396" flag="0"/>
		</comp>
		<comp name="--.HGZ" depth="0.0">
			<acc value="0.00778092769562995" flag="0"/>
			<vel value="0.00437530329308191" flag="0"/>
			<psa03 value="0.0293446574812128" flag="0"/>
			<psa10 value="0.00259426506045392" flag="0"/>
			<psa30 value="0.000174428833699982" flag="0"/>
		</comp>
	</station>
	<station code="CHASS" name="CHASS" netid="CH" source="Switzerland Seismological Network" insttype="" lat="47.1609" lon="7.12129">
		<comp name="--.HGE" depth="0.0">
			<acc value="0.0059613289574367" flag="0"/>
			<vel value="0.00248149330281817" flag="0"/>
			<psa03 value="0.00657176542532381" flag="0"/>
			<psa10 value="0.00229738484672299" flag="0"/>
			<psa30 value="0.0002451175138739" flag="0"/>
		</comp>
		<comp name="--.HGN" depth="0.0">
			<acc value="0.00921983379102245" flag="0"/>
			<vel value="0.00377460719288996" flag="0"/>
			<psa03 value="0.00822075942870929" flag="0"/>
			<psa10 value="0.00193828355802391" flag="0"/>
			<psa30 value="0.00013703513259236" flag="0"/>
		</comp>
		<comp name="--.HGZ" depth="0.0">
			<acc value="0.00365410214552521" flag="0"/>
			<vel value="0.00140276985391964" flag="0"/>
			<psa03 value="0.00475999371164149" flag="0"/>
			<psa10 value="0.00179942557030059" flag="0"/>
			<psa30 value="7.25531721768555e-05" flag="0"/>
		</comp>
	</station>
	<station code="HAMIK" name="HAMIK" netid="CH" source="Switzerland Seismological Network" insttype="" lat="47.24508" lon="8.27061">
		<comp name="SF.HGE" depth="1.0">
			<acc value="0.0120501960365735" flag="0"/>
			<vel value="0.0041270328112038" flag="0"/>
			<psa03 value="0.0252469980105618" flag="0"/>
			<psa10 value="0.00445263574650588" flag="0"/>
			<psa30 value="0.000218162446983188" flag="0"/>
		</comp>
		<comp name="SF.HGN" depth="1.0">
			<acc value="0.0132412537254825" flag="0"/>
			<vel value="0.00347037524188329" flag="0"/>
			<psa03 value="0.0207305842369458" flag="0"/>
			<psa10 value="0.00191951965875673" flag="0"/>
			<psa30 value="0.000143190996117594" flag="0"/>
		</comp>
		<comp name="SF.HGZ" depth="1.0">
			<acc value="0.00659397236049568" flag="0"/>
			<vel value="0.00196233547091937" flag="0"/>
			<psa03 value="0.00864309665129432" flag="0"/>
			<psa10 value="0.0013045117300014" flag="0"/>
			<psa30 value="9.40479945407936e-05" flag="0"/>
		</comp>
	</station>
	<station code="HAUIG" name="HAUIG" netid="CH" source="Switzerland Seismological Network" insttype="" lat="47.66038" lon="7.70018">
		<comp name="--.HGE" depth="0.0">
			<acc value="0.0642215815788742" flag="0"/>
			<vel value="0.0169240602085119" flag="0"/>
			<psa03 value="0.0928856636361753" flag="0"/>
			<psa10 value="0.00662624645630077" flag="0"/>
			<psa30 value="0.000625627173895407" flag="0"/>
		</comp>
		<comp name="--.HGN" depth="0.0">
			<acc value="0.055769602030166" flag="0"/>
			<vel value="0.0152077660970489" flag="0"/>
			<psa03 value="0.0748032782669118" flag="0"/>
			<psa10 value="0.00743148151794634" flag="0"/>
			<psa30 value="0.000361624476680369" flag="0"/>
		</comp>
		<comp name="--.HGZ" depth="0.0">
			<acc value="0.0212568900274947" flag="0"/>
			<vel value="0.00512579992760552" flag="0"/>
			<psa03 value="0.0217712208823729" flag="0"/>
			<psa10 value="0.00339393756608248" flag="0"/>
			<psa30 value="0.000206703224324362" flag="0"/>
		</comp>
	</station>
	<station code="MTI01" name="MTI01" netid="CH" source="Switzerland Seismological Network" insttype="" lat="47.37911" lon="7.16541">
		<comp name="--.HGE" depth="0.0">
			<acc value="0.0094188052670824" flag="0"/>
			<vel value="0.00619582455952584" flag="0"/>
			<psa03 value="0.0315305600990262" flag="0"/>
			<psa10 value="0.00386682045475339" flag="0"/>
			<psa30 value="0.000343777643373205" flag="0"/>
		</comp>
		<comp name="--.HGN" depth="0.0">
			<acc value="0.00679916569855253" flag="0"/>
			<vel value="0.00224987033743552" flag="0"/>
			<psa03 value="0.0163953504343968" flag="0"/>
			<psa10 value="0.00170374501318118" flag="0"/>
			<psa30 value="0.000197687223412325" flag="0"/>
		</comp>
		<comp name="--.HGZ" depth="0.0">
			<acc value="0.00683178593506114" flag="0"/>
			<vel value="0.00306777143188546" flag="0"/>
			<psa03 value="0.023697330248481" flag="0"/>
			<psa10 value="0.00181523333623619" flag="0"/>
			<psa30 value="0.000148277895599602" flag="0"/>
		</comp>
	</station>
	<station code="MUTEZ" name="MUTEZ" netid="CH" source="Switzerland Seismological Network" insttype="" lat="47.50647" lon="7.64884">
		<comp name="--.HGE" depth="0.0">
			<acc value="0.0159051550302947" flag="0"/>
			<vel value="0.00812952564027847" flag="0"/>
			<psa03 value="0.0411459001931212" flag="0"/>
			<psa10 value="0.0026164395762829" flag="0"/>
			<psa30 value="0.000229013947091896" flag="0"/>
		</comp>
		<comp name="--.HGN" depth="0.0">
			<acc value="0.0142341450003326" flag="0"/>
			<vel value="0.00664303372211885" flag="0"/>
			<psa03 value="0.0458669863794678" flag="0"/>
			<psa10 value="0.00249505645711905" flag="0"/>
			<psa30 value="0.000147862425368205" flag="0"/>
		</comp>
		<comp name="--.HGZ" depth="0.0">
			<acc value="0.0162413245394088" flag="0"/>
			<vel value="0.00441564398763054" flag="0"/>
			<psa03 value="0.0187526953990477" flag="0"/>
			<psa10 value="0.00182878603091199" flag="0"/>
			<psa30 value="0.000129815852267375" flag="0"/>
		</comp>
	</station>
	<station code="OTTER" name="OTTER" netid="CH" source="Switzerland Seismological Network" insttype="" lat="47.5778" lon="7.6038">
		<comp name="--.HGE" depth="0.0">
			<acc value="0.0336868035296614" flag="0"/>
			<vel value="0.0132804577405541" flag="0"/>
			<psa03 value="0.0638080238433888" flag="0"/>
			<psa10 value="0.00625278874781315" flag="0"/>
			<psa30 value="0.000514628883304107" flag="0"/>
		</comp>
		<comp name="--.HGN" depth="0.0">
			<acc value="0.0362336247618096" flag="0"/>
			<vel value="0.00770287573758147" flag="0"/>
			<psa03 value="0.0332740141359559" flag="0"/>
			<psa10 value="0.00652585746228837" flag="0"/>
			<psa30 value="0.000374991039232626" flag="0"/>
		</comp>
		<comp name="--.HGZ" depth="0.0">
			<acc value="0.0177499209286615" flag="0"/>
			<vel value="0.00485501457128778" flag="0"/>
			<psa03 value="0.0224823096551892" flag="0"/>
			<psa10 value="0.0046831419539237" flag="0"/>
			<psa30 value="0.000253488667380035" flag="0"/>
		</comp>
	</station>
	<station code="ROMAN" name="ROMAN" netid="CH" source="Switzerland Seismological Network" insttype="" lat="47.5643" lon="9.33601">
		<comp name="SF.HGE" depth="1.0">
			<acc value="0.0166400708767062" flag="0"/>
			<vel value="0.0045596986933558" flag="0"/>
			<psa03 value="0.0206938370109776" flag="0"/>
			<psa10 value="0.0024502299719623" flag="0"/>
			<psa30 value="0.000282657057976185" flag="0"/>
		</comp>
		<comp name="SF.HGN" depth="1.0">
			<acc value="0.0153830065665674" flag="0"/>
			<vel value="0.00603465984804223" flag="0"/>
			<psa03 value="0.0279439787556118" flag="0"/>
			<psa10 value="0.00270052413084651" flag="0"/>
			<psa30 value="0.000249675732500306" flag="0"/>
		</comp>
		<comp name="SF.HGZ" depth="1.0">
			<acc value="0.00539064559064664" flag="0"/>
			<vel value="0.0013039656626659" flag="0"/>
			<psa03 value="0.00453326287150155" flag="0"/>
			<psa10 value="0.00116177282112189" flag="0"/>
			<psa30 value="9.0332969792872e-05" flag="0"/>
		</comp>
	</station>
	<station code="SAARA" name="SAARA" netid="CH" source="Switzerland Seismological Network" insttype="" lat="47.38613" lon="8.04375">
		<comp name="--.HGE" depth="1.0">
			<acc value="0.00640451000576208" flag="0"/>
			<vel value="0.00119861098886346" flag="0"/>
			<psa03 value="0.00298219234727568" flag="0"/>
			<psa10 value="0.000336421338996974" flag="0"/>
			<psa30 value="3.53022539656427e-05" flag="0"/>
		</comp>
		<comp name="--.HGN" depth="1.0">
			<acc value="0.00390967842065788" flag="0"/>
			<vel value="0.000833660381878475" flag="0"/>
			<psa03 value="0.00329278876911584" flag="0"/>
			<psa10 value="0.000497005599962118" flag="0"/>
			<psa30 value="2.97272655093995e-05" flag="0"/>
		</comp>
		<comp name="--.HGZ" depth="1.0">
			<acc value="0.00442787528036953" flag="0"/>
			<vel value="0.000513374802469577" flag="0"/>
			<psa03 value="0.00227705302457621" flag="0"/>
			<psa10 value="0.000367634715323558" flag="0"/>
			<psa30 value="2.70580310685332e-05" flag="0"/>
		</comp>
	</station>
	<station code="SALTS" name="SALTS" netid="CH" source="Switzerland Seismological Network" insttype="" lat="46.88204" lon="8.63821">
		<comp name="--.HGE" depth="1.0">
			<acc value="0.00760605729749828" flag="0"/>
			<vel value="0.00200826853523516" flag="0"/>
			<psa03 value="0.00974991281093572" flag="0"/>
			<psa10 value="0.00178985634263804" flag="0"/>
			<psa30 value="0.000131395605355532" flag="0"/>
		</comp>
		<comp name="--.HGN" depth="1.0">
			<acc value="0.00749181095370702" flag="0"/>
			<vel value="0.00197681985316883" flag="0"/>
			<psa03 value="0.00956791182198793" flag="0"/>
			<psa10 value="0.00259532075538952" flag="0"/>
			<psa30 value="0.000149534463215854" flag="0"/>
		</comp>
		<comp name="--.HGZ" depth="1.0">
			<acc value="0.00602961661425061" flag="0"/>
			<vel value="0.00161786818167642" flag="0"/>
			<psa03 value="0.00704856328690031" flag="0"/>
			<psa10 value="0.000656568357712497" flag="0"/>
			<psa30 value="6.47417692931126e-05" flag="0"/>
		</comp>
	</station>
	<station code="SAPK" name="SAPK" netid="CH" source="Switzerland Seismological Network" insttype="" lat="47.330517" lon="9.404271">
		<comp name="--.HGE" depth="1.0">
			<acc value="0.00833368634281074" flag="0"/>
			<vel value="0.00241949517718804" flag="0"/>
			<psa03 value="0.0113088650422267" flag="0"/>
			<psa10 value="0.00148337549290813" flag="0"/>
			<psa30 value="0.00019961097064294" flag="0"/>
		</comp>
		<comp name="--.HGN" depth="1.0">
			<acc value="0.0064174142338083" flag="0"/>
			<vel value="0.00179684064086555" flag="0"/>
			<psa03 value="0.011033868960518" flag="0"/>
			<psa10 value="0.00168682518139" flag="0"/>
			<psa30 value="0.000242658679113085" flag="0"/>
		</comp>
		<comp name="--.HGZ" depth="1.0">
			<acc value="0.00259546944671612" flag="0"/>
			<vel value="0.000670721039561479" flag="0"/>
			<psa03 value="0.00425199456439519" flag="0"/>
			<psa10 value="0.000643691410929032" flag="0"/>
			<psa30 value="6.66890076631701e-05" flag="0"/>
		</comp>
	</station>
	<station code="SARE" name="SARE" netid="CH" source="Switzerland Seismological Network" insttype="" lat="47.51488" lon="9.43023">
		<comp name="--.HGE" depth="1.0">
			<acc value="0.0153063207434907" flag="0"/>
			<vel value="0.00605071556571684" flag="0"/>
			<psa03 value="0.0230638612009298" flag="0"/>
			<psa10 value="0.00603852299124802" flag="0"/>
			<psa30 value="0.000249508898531623" flag="0"/>
		</comp>
		<comp name="--.HGN" depth="1.0">
			<acc value="0.0225004480109968" flag="0"/>
			<vel value="0.00567684274073262" flag="0"/>
			<psa03 value="0.0154857849718168" flag="0"/>
			<psa10 value="0.0052019208517442" flag="0"/>
			<psa30 value="0.000283090367930719" flag="0"/>
		</comp>
		<comp name="--.HGZ" depth="1.0">
			<acc value="0.00975142406148007" flag="0"/>
			<vel value="0.0030240400857172" flag="0"/>
			<psa03 value="0.00924186938994713" flag="0"/>
			<psa10 value="0.00259768716215001" flag="0"/>
			<psa30 value="0.000143698972476815" flag="0"/>
		</comp>
	</station>
	<station code="SARK" name="SARK" netid="CH" source="Switzerland Seismological Network" insttype="" lat="46.8914" lon="8.24316">
		<comp name="--.HGE" depth="1.0">
			<acc value="0.00715806238721452" flag="0"/>
			<vel value="0.00141588368173477" flag="0"/>
			<psa03 value="0.00279570505850963" flag="0"/>
			<psa10 value="0.000577676959669216" flag="0"/>
			<psa30 value="7.02487486868951e-05" flag="0"/>
		</comp>
		<comp name="--.HGN" depth="1.0">
			<acc value="0.0102391074990256" flag="0"/>
			<vel value="0.00284958790594123" flag="0"/>
			<psa03 value="0.0131476300805671" flag="0"/>
			<psa10 value="0.00162518234785462" flag="0"/>
			<psa30 value="6.60971325167346e-05" flag="0"/>
		</comp>
		<comp name="--.HGZ" depth="1.0">
			<acc value="0.00616061813829339" flag="0"/>
			<vel value="0.00143544726387524" flag="0"/>
			<psa03 value="0.00748721278795979" flag="0"/>
			<psa10 value="0.000440265571685328" flag="0"/>
			<psa30 value="4.78990650049354e-05" flag="0"/>
		</comp>
	</station>
	<station code="SAUR" name="SAUR" netid="CH" source="Switzerland Seismological Network" insttype="" lat="47.5339" lon="7.7228">
		<comp name="--.HGE" depth="0.0">
			<acc value="0.0351711876448043" flag="0"/>
			<vel value="0.0134982133428558" flag="0"/>
			<psa03 value="0.147044720157504" flag="0"/>
			<psa10 value="0.00506595653224326" flag="0"/>
			<psa30 value="0.000431962026822484" flag="0"/>
		</comp>
		<comp name="--.HGN" depth="0.0">
			<acc value="0.0353127163029085" flag="0"/>
			<vel value="0.0115658804937619" flag="0"/>
			<psa03 value="0.104630816694745" flag="0"/>
			<psa10 value="0.00293362105674933" flag="0"/>
			<psa30 value="0.000320902690520172" flag="0"/>
		</comp>
		<comp name="--.HGZ" depth="0.0">
			<acc value="0.0225048677020657" flag="0"/>
			<vel value="0.00436530784415292" flag="0"/>
			<psa03 value="0.0284225521254398" flag="0"/>
			<psa10 value="0.00201773843089529" flag="0"/>
			<psa30 value="0.000146296944058736" flag="0"/>
		</comp>
	</station>
	<station code="SBAF" name="SBAF" netid="CH" source="Switzerland Seismological Network" insttype="" lat="47.58375" lon="7.59202">
		<comp name="--.HGE" depth="0.0">
			<acc value="0.0239647255627103" flag="0"/>
			<vel value="0.00970385512688793" flag="0"/>
			<psa03 value="0.0318816875261618" flag="0"/>
			<psa10 value="0.0101294182117259" flag="0"/>
			<psa30 value="0.000511106722893706" flag="0"/>
		</comp>
		<comp name="--.HGN" depth="0.0">
			<acc value="0.0228640424419984" flag="0"/>
			<vel value="0.00728528349419132" flag="0"/>
			<psa03 value="0.0373161464907231" flag="0"/>
			<psa10 value="0.00848408296635416" flag="0"/>
			<psa30 value="0.000484243901699857" flag="0"/>
		</comp>
		<comp name="--.HGZ" depth="0.0">
			<acc value="0.0179552046209787" flag="0"/>
			<vel value="0.00358179655741116" flag="0"/>
			<psa03 value="0.0225064336491169" flag="0"/>
			<psa10 value="0.00384659419298864" flag="0"/>
			<psa30 value="0.000214708637456176" flag="0"/>
		</comp>
