<?xml version="1.0" encoding="UTF-8" standalone="yes"?>
<!DOCTYPE earthquake SYSTEM "stationlist.dtd">
<stationlist created="" xmlns="ch.ethz.sed.shakemap.usgs.xml">
  <station code="KMON" name="KMON" netid="KO" insttype="CMG-5T" lat="41.3738" lon="33.7839">
    <comp name="--.HNZ">
      <acc value="0.0142121859" flag="0"/>
      <vel value="0.0069842788" flag="0"/>
      <psa03 value="0.0151661374" flag="0"/>
      <psa10 value="0.0057017407" flag="0"/>
      <psa30 value="0.0006052657" flag="0"/>
    </comp>
    <comp name="--.HNE">
      <acc value="0.0128975136" flag="0"/>
      <vel value="0.0112046658" flag="0"/>
      <psa03 value="0.0312039018" flag="0"/>
      <psa10 value="0.0144403439" flag="0"/>
      <psa30 value="0.0007990627" flag="0"/>
    </comp>
    <comp name="--.HNN">
      <acc value="0.0140399449" flag="0"/>
      <vel value="0.0100084218" flag="0"/>
      <psa03 value="0.0396029695" flag="0"/>
      <psa10 value="0.0161398582" flag="0"/>
      <psa30 value="0.0006015959" flag="0"/>
    </comp>
  </station>
  <station code="TOS" name="TOS" netid="KO" insttype="CMG-5T" lat="41.0362" lon="34.0226">
    <comp name="--.HNN">
      <acc value="0.0167863551" flag="0"/>
      <vel value="0.0065627392" flag="0"/>
      <psa03 value="0.0229814086" flag="0"/>
      <psa10 value="0.0070111568" flag="0"/>
      <psa30 value="0.0010653939" flag="0"/>
    </comp>
    <comp name="--.HNZ">
      <acc value="0.0130792166" flag="0"/>
      <vel value="0.0038686876" flag="0"/>
      <psa03 value="0.0151451246" flag="0"/>
      <psa10 value="0.0035204049" flag="0"/>
      <psa30 value="0.0005246850" flag="0"/>
    </comp>
    <comp name="--.HNE">
      <acc value="0.0083875653" flag="0"/>
      <vel value="0.0045036095" flag="0"/>
      <psa03 value="0.0159730994" flag="0"/>
      <psa10 value="0.0052347879" flag="0"/>
      <psa30 value="0.0004850034" flag="0"/>
    </comp>
  </station>
  <station code="YOZ" name="YOZ" netid="KO" insttype="360s," lat="39.6376" lon="35.3152">
    <comp name="--.HHE">
      <acc value="0.0224565702" flag="0"/>
      <vel value="0.0120765776" flag="0"/>
      <psa03 value="0.0624227670" flag="0"/>
      <psa10 value="0.0145126861" flag="0"/>
      <psa30 value="0.0005961262" flag="0"/>
    </comp>
    <comp name="--.HHZ">
      <acc value="0.0126557173" flag="0"/>
      <vel value="0.0064188066" flag="0"/>
      <psa03 value="0.0283216113" flag="0"/>
      <psa10 value="0.0059745153" flag="0"/>
      <psa30 value="0.0004939796" flag="0"/>
    </comp>
    <comp name="--.HHN">
      <acc value="0.0193055830" flag="0"/>
      <vel value="0.0116172160" flag="0"/>
      <psa03 value="0.0476420925" flag="0"/>
      <psa10 value="0.0114870513" flag="0"/>
      <psa30 value="0.0005927448" flag="0"/>
    </comp>
  </station>
</stationlist>
