<?xml version="1.0" encoding="UTF-8" standalone="yes"?>
<!DOCTYPE earthquake SYSTEM "stationlist.dtd">
<stationlist created="" xmlns="ch.ethz.sed.shakemap.usgs.xml">
  <station code="BIR" name="BIR" netid="RO" insttype="MBB2/Quanterra" commtype="DIG" lat="46.2334" lon="27.6436">
    <comp name="--.HHZ">
      <acc value="0.0725888653" flag="0"/>
      <vel value="0.0134878981" flag="0"/>
      <psa03 value="0.0542391246" flag="0"/>
      <psa10 value="0.0022713137" flag="0"/>
      <psa30 value="0.0001851369" flag="0"/>
    </comp>
    <comp name="--.HHN">
      <acc value="0.1128213456" flag="0"/>
      <vel value="0.0202930716" flag="0"/>
      <psa03 value="0.0805273281" flag="0"/>
      <psa10 value="0.0086600172" flag="0"/>
      <psa30 value="0.0009379300" flag="0"/>
    </comp>
    <comp name="--.HHE">
      <acc value="0.2196376056" flag="0"/>
      <vel value="0.0333889645" flag="0"/>
      <psa03 value="0.1442375775" flag="0"/>
      <psa10 value="0.0047761958" flag="0"/>
      <psa30 value="0.0005474301" flag="0"/>
    </comp>
  </station>
  <station code="BISRR" name="BISRR" netid="RO" insttype="CMG40T.1to100/Basalt" commtype="DIG" lat="45.5481" lon="26.7099">
    <comp name="--.HHE">
      <acc value="0.0651340968" flag="0"/>
      <vel value="0.0115840860" flag="0"/>
      <psa03 value="0.0631187709" flag="0"/>
      <psa10 value="0.0103940706" flag="0"/>
      <psa30 value="0.0004889442" flag="0"/>
    </comp>
    <comp name="--.HHZ">
      <acc value="0.0613135827" flag="0"/>
      <vel value="0.0085614816" flag="0"/>
      <psa03 value="0.0293134657" flag="0"/>
      <psa10 value="0.0038953054" flag="0"/>
      <psa30 value="0.0002580630" flag="0"/>
    </comp>
    <comp name="--.HHN">
      <acc value="0.0338554491" flag="0"/>
      <vel value="0.0088069341" flag="0"/>
      <psa03 value="0.0451259018" flag="0"/>
      <psa10 value="0.0093344459" flag="0"/>
      <psa30 value="0.0005808346" flag="0"/>
    </comp>
  </station>
  <station code="DOPR" name="DOPR" netid="RO" insttype="330" commtype="DIG" lat="45.9675" lon="25.3886">
    <comp name="--.HHN">
      <acc value="0.0083801999" flag="0"/>
      <vel value="0.0015233063" flag="0"/>
      <psa03 value="0.0044435410" flag="0"/>
      <psa10 value="0.0010917398" flag="0"/>
      <psa30 value="0.0001561244" flag="0"/>
    </comp>
    <comp name="--.HHE">
      <acc value="0.0152690263" flag="0"/>
      <vel value="0.0026584215" flag="0"/>
      <psa03 value="0.0037842850" flag="0"/>
      <psa10 value="0.0009873452" flag="0"/>
      <psa30 value="0.0001176847" flag="0"/>
    </comp>
    <comp name="--.HHZ">
      <acc value="0.0100877052" flag="0"/>
      <vel value="0.0019239168" flag="0"/>
      <psa03 value="0.0036899966" flag="0"/>
      <psa10 value="0.0005164747" flag="0"/>
      <psa30 value="0.0000650732" flag="0"/>
    </comp>
  </station>
  <station code="ISR" name="ISR" netid="RO" insttype="CMG3ESP/Quanterra" commtype="DIG" lat="45.1187" lon="26.5432">
    <comp name="--.HHN">
      <acc value="0.0200410335" flag="0"/>
      <vel value="0.0025475328" flag="0"/>
      <psa03 value="0.0123607958" flag="0"/>
      <psa10 value="0.0014687288" flag="0"/>
      <psa30 value="0.0001115945" flag="0"/>
    </comp>
    <comp name="--.HHE">
      <acc value="0.0247449610" flag="0"/>
      <vel value="0.0022482440" flag="0"/>
      <psa03 value="0.0076418061" flag="0"/>
      <psa10 value="0.0012554081" flag="0"/>
      <psa30 value="0.0001055332" flag="0"/>
    </comp>
    <comp name="--.HHZ">
      <acc value="0.0134611819" flag="0"/>
      <vel value="0.0027019521" flag="0"/>
      <psa03 value="0.0052873081" flag="0"/>
      <psa10 value="0.0013610399" flag="0"/>
      <psa30 value="0.0000937476" flag="0"/>
    </comp>
  </station>
  <station code="IZVR" name="IZVR" netid="RO" insttype="CMG40T.1to100/Quanterra" commtype="DIG" lat="45.5442" lon="27.7655">
    <comp name="--.HHZ">
      <acc value="0.0244967328" flag="0"/>
      <vel value="0.0023525013" flag="0"/>
      <psa03 value="0.0092405879" flag="0"/>
      <psa10 value="0.0010343640" flag="0"/>
      <psa30 value="0.0000629719" flag="0"/>
    </comp>
    <comp name="--.HHE">
      <acc value="0.0501930266" flag="0"/>
      <vel value="0.0086041696" flag="0"/>
      <psa03 value="0.0335172256" flag="0"/>
      <psa10 value="0.0046773491" flag="0"/>
      <psa30 value="0.0002844106" flag="0"/>
    </comp>
    <comp name="--.HHN">
      <acc value="0.0418359404" flag="0"/>
      <vel value="0.0072650459" flag="0"/>
      <psa03 value="0.0442835178" flag="0"/>
      <psa10 value="0.0023656232" flag="0"/>
      <psa30 value="0.0002684586" flag="0"/>
    </comp>
  </station>
  <station code="MLR" name="MLR" netid="RO" insttype="330HR" commtype="DIG" lat="45.4909" lon="25.945">
    <comp name="--.HHE">
      <acc value="0.0029076204" flag="0"/>
      <vel value="0.0021007427" flag="0"/>
      <psa03 value="0.0085725514" flag="0"/>
      <psa10 value="0.0023840453" flag="0"/>
      <psa30 value="0.0001376204" flag="0"/>
    </comp>
    <comp name="--.HHZ">
      <acc value="0.0046904392" flag="0"/>
      <vel value="0.0025406964" flag="0"/>
      <psa03 value="0.0059428834" flag="0"/>
      <psa10 value="0.0013438192" flag="0"/>
      <psa30 value="0.0001220664" flag="0"/>
    </comp>
    <comp name="--.HHN">
      <acc value="0.0031391329" flag="0"/>
      <vel value="0.0020015372" flag="0"/>
      <psa03 value="0.0058912174" flag="0"/>
      <psa10 value="0.0020492413" flag="0"/>
      <psa30 value="0.0001738327" flag="0"/>
    </comp>
  </station>
  <station code="NARR" name="NARR" netid="RO" insttype="OBS-SIO/Centaur" commtype="DIG" lat="45.8165" lon="26.7368">
    <comp name="--.HHE">
      <acc value="0.0317976743" flag="0"/>
      <vel value="0.0158394738" flag="0"/>
      <psa03 value="0.0855938074" flag="0"/>
      <psa10 value="0.0058081201" flag="0"/>
      <psa30 value="0.0005264625" flag="0"/>
    </comp>
    <comp name="--.HHN">
      <acc value="0.0302872193" flag="0"/>
      <vel value="0.0177938025" flag="0"/>
      <psa03 value="0.1129180720" flag="0"/>
      <psa10 value="0.0067261779" flag="0"/>
      <psa30 value="0.0006689096" flag="0"/>
    </comp>
    <comp name="--.HHZ">
      <acc value="0.0220689504" flag="0"/>
      <vel value="0.0042521750" flag="0"/>
      <psa03 value="0.0294887180" flag="0"/>
      <psa10 value="0.0015091877" flag="0"/>
      <psa30 value="0.0001223438" flag="0"/>
    </comp>
  </station>
  <station code="NEGRR" name="NEGRR" netid="RO" insttype="200" commtype="DIG" lat="45.5373" lon="27.8771">
    <comp name="--.HNN">
      <acc value="0.0229514807" flag="0"/>
      <vel value="0.0036882723" flag="0"/>
      <psa03 value="0.0232192435" flag="0"/>
      <psa10 value="0.0025562563" flag="0"/>
      <psa30 value="0.0001962779" flag="0"/>
    </comp>
    <comp name="--.HNE">
      <acc value="0.0181394255" flag="0"/>
      <vel value="0.0035694053" flag="0"/>
      <psa03 value="0.0287356346" flag="0"/>
      <psa10 value="0.0011451432" flag="0"/>
      <psa30 value="0.0001918393" flag="0"/>
    </comp>
    <comp name="--.HNZ">
      <acc value="0.0140784522" flag="0"/>
      <vel value="0.0014984417" flag="0"/>
      <psa03 value="0.0047960916" flag="0"/>
      <psa10 value="0.0013006717" flag="0"/>
      <psa30 value="0.0000933144" flag="0"/>
    </comp>
  </station>
  <station code="NEHR" name="NEHR" netid="RO" insttype="Seismometer/Basalt" commtype="DIG" lat="45.4272" lon="26.2952">
    <comp name="--.HHE">
      <acc value="0.0010791042" flag="0"/>
      <vel value="0.0002759771" flag="0"/>
      <psa03 value="0.0022099129" flag="0"/>
      <psa10 value="0.0001846999" flag="0"/>
      <psa30 value="0.0000115282" flag="0"/>
    </comp>
    <comp name="--.HHN">
      <acc value="0.0012646100" flag="0"/>
      <vel value="0.0002962404" flag="0"/>
      <psa03 value="0.0017322962" flag="0"/>
      <psa10 value="0.0001986539" flag="0"/>
      <psa30 value="0.0000108827" flag="0"/>
    </comp>
    <comp name="--.HHZ">
      <acc value="0.0018956395" flag="0"/>
      <vel value="0.0003079795" flag="0"/>
      <psa03 value="0.0017006872" flag="0"/>
      <psa10 value="0.0001112871" flag="0"/>
      <psa30 value="0.0000110822" flag="0"/>
    </comp>
  </station>
  <station code="ODBI" name="ODBI" netid="RO" insttype="200" commtype="DIG" lat="45.7633" lon="27.0558">
    <comp name="--.HNE">
      <acc value="0.0419213317" flag="0"/>
      <vel value="0.0078525870" flag="0"/>
      <psa03 value="0.0482939121" flag="0"/>
      <psa10 value="0.0060849529" flag="0"/>
      <psa30 value="0.0005498627" flag="0"/>
    </comp>
    <comp name="--.HNN">
      <acc value="0.0287717212" flag="0"/>
      <vel value="0.0115005604" flag="0"/>
      <psa03 value="0.0377017181" flag="0"/>
      <psa10 value="0.0047052113" flag="0"/>
      <psa30 value="0.0005495880" flag="0"/>
    </comp>
    <comp name="--.HNZ">
      <acc value="0.0508689824" flag="0"/>
      <vel value="0.0104446712" flag="0"/>
      <psa03 value="0.0272881669" flag="0"/>
      <psa10 value="0.0032086889" flag="0"/>
      <psa30 value="0.0001612563" flag="0"/>
    </comp>
  </station>
  <station code="PANC" name="PANC" netid="RO" insttype="Seismometer/Basalt" commtype="DIG" lat="45.8723" lon="27.1477">
    <comp name="--.HHZ">
      <acc value="0.0504202813" flag="0"/>
      <vel value="0.0066317008" flag="0"/>
      <psa03 value="0.0144446947" flag="0"/>
      <psa10 value="0.0021371327" flag="0"/>
      <psa30 value="0.0000879450" flag="0"/>
    </comp>
    <comp name="--.HHN">
      <acc value="0.0629506204" flag="0"/>
      <vel value="0.0105491026" flag="0"/>
      <psa03 value="0.0398750479" flag="0"/>
      <psa10 value="0.0039900072" flag="0"/>
      <psa30 value="0.0003196613" flag="0"/>
    </comp>
    <comp name="--.HHE">
      <acc value="0.0414716479" flag="0"/>
      <vel value="0.0080610118" flag="0"/>
      <psa03 value="0.0301153184" flag="0"/>
      <psa10 value="0.0063751784" flag="0"/>
      <psa30 value="0.0003814739" flag="0"/>
    </comp>
  </station>
  <station code="PGOR" name="PGOR" netid="RO" insttype="CMG40T.1to100/Quanterra" commtype="DIG" lat="44.9199" lon="26.9768">
    <comp name="--.HHZ">
      <acc value="0.0815768022" flag="0"/>
      <vel value="0.0089591982" flag="0"/>
      <psa03 value="0.0105865750" flag="0"/>
      <psa10 value="0.0015201606" flag="0"/>
      <psa30 value="0.0001660536" flag="0"/>
    </comp>
    <comp name="--.HHN">
      <acc value="0.0259777005" flag="0"/>
      <vel value="0.0063447487" flag="0"/>
      <psa03 value="0.0114035433" flag="0"/>
      <psa10 value="0.0015414641" flag="0"/>
      <psa30 value="0.0001039613" flag="0"/>
    </comp>
    <comp name="--.HHE">
      <acc value="0.0168371458" flag="0"/>
      <vel value="0.0035093439" flag="0"/>
      <psa03 value="0.0159914675" flag="0"/>
      <psa10 value="0.0013509307" flag="0"/>
      <psa30 value="0.0001742677" flag="0"/>
    </comp>
  </station>
  <station code="PLAR" name="PLAR" netid="RO" insttype="200" commtype="DIG" lat="44.9142" lon="26.0274">
    <comp name="--.HNE">
      <acc value="0.0232727179" flag="0"/>
      <vel value="0.0082872496" flag="0"/>
      <psa03 value="0.0316109261" flag="0"/>
      <psa10 value="0.0033912255" flag="0"/>
      <psa30 value="0.0003882001" flag="0"/>
    </comp>
    <comp name="--.HNN">
      <acc value="0.0160976491" flag="0"/>
      <vel value="0.0053257444" flag="0"/>
      <psa03 value="0.0206780177" flag="0"/>
      <psa10 value="0.0031589077" flag="0"/>
      <psa30 value="0.0002592948" flag="0"/>
    </comp>
    <comp name="--.HNZ">
      <acc value="0.0153343072" flag="0"/>
      <vel value="0.0034333253" flag="0"/>
      <psa03 value="0.0095294569" flag="0"/>
      <psa10 value="0.0010255601" flag="0"/>
      <psa30 value="0.0001253952" flag="0"/>
    </comp>
  </station>
  <station code="PLOR" name="PLOR" netid="RO" insttype="MBB2/Quanterra" commtype="DIG" lat="45.8512" lon="26.6498">
    <comp name="--.HHE">
      <acc value="0.0255991978" flag="0"/>
      <vel value="0.0150265184" flag="0"/>
      <psa03 value="0.0602705933" flag="0"/>
      <psa10 value="0.0063001855" flag="0"/>
      <psa30 value="0.0004286944" flag="0"/>
    </comp>
    <comp name="--.HHN">
      <acc value="0.0205634068" flag="0"/>
      <vel value="0.0094964729" flag="0"/>
      <psa03 value="0.0619175384" flag="0"/>
      <psa10 value="0.0044932971" flag="0"/>
      <psa30 value="0.0004295681" flag="0"/>
    </comp>
    <comp name="--.HHZ">
      <acc value="0.0104222319" flag="0"/>
      <vel value="0.0032305701" flag="0"/>
      <psa03 value="0.0190818230" flag="0"/>
      <psa10 value="0.0014263193" flag="0"/>
      <psa30 value="0.0001132747" flag="0"/>
    </comp>
  </station>
  <station code="PLOR4" name="PLOR4" netid="RO" insttype="MBB2/Quanterra" commtype="DIG" lat="45.8512" lon="26.6498">
    <comp name="--.HHE">
      <acc value="0.0255991978" flag="0"/>
      <vel value="0.0150265184" flag="0"/>
      <psa03 value="0.0602705933" flag="0"/>
      <psa10 value="0.0063001855" flag="0"/>
      <psa30 value="0.0004286944" flag="0"/>
    </comp>
    <comp name="--.HHN">
      <acc value="0.0205634068" flag="0"/>
      <vel value="0.0094964729" flag="0"/>
      <psa03 value="0.0619175384" flag="0"/>
      <psa10 value="0.0044932971" flag="0"/>
      <psa30 value="0.0004295681" flag="0"/>
    </comp>
    <comp name="--.HHZ">
      <acc value="0.0104222319" flag="0"/>
      <vel value="0.0032305701" flag="0"/>
      <psa03 value="0.0190818230" flag="0"/>
      <psa10 value="0.0014263193" flag="0"/>
      <psa30 value="0.0001132747" flag="0"/>
    </comp>
  </station>
  <station code="SCHL" name="SCHL" netid="RO" insttype="CMG40T.1to100/Quanterra" commtype="DIG" lat="45.5007" lon="27.8302">
    <comp name="--.HHZ">
      <acc value="0.0429149361" flag="0"/>
      <vel value="0.0053551463" flag="0"/>
      <psa03 value="0.0105383228" flag="0"/>
      <psa10 value="0.0015801888" flag="0"/>
      <psa30 value="0.0000980786" flag="0"/>
    </comp>
    <comp name="--.HHN">
      <acc value="0.0271244288" flag="0"/>
      <vel value="0.0085782430" flag="0"/>
      <psa03 value="0.0354820000" flag="0"/>
      <psa10 value="0.0052160975" flag="0"/>
      <psa30 value="0.0004946694" flag="0"/>
    </comp>
    <comp name="--.HHE">
      <acc value="0.0320072125" flag="0"/>
      <vel value="0.0094377154" flag="0"/>
      <psa03 value="0.0261899543" flag="0"/>
      <psa10 value="0.0073059630" flag="0"/>
      <psa30 value="0.0004047501" flag="0"/>
    </comp>
  </station>
  <station code="SCHLR" name="SCHLR" netid="RO" insttype="CMG40T.1to100/Quanterra" commtype="DIG" lat="45.4702" lon="27.8314">
    <comp name="--.HHN">
      <acc value="0.0424698291" flag="0"/>
      <vel value="0.0091575612" flag="0"/>
      <psa03 value="0.0296781169" flag="0"/>
      <psa10 value="0.0025239850" flag="0"/>
      <psa30 value="0.0001881964" flag="0"/>
    </comp>
    <comp name="--.HHE">
      <acc value="0.0386921644" flag="0"/>
      <vel value="0.0069966757" flag="0"/>
      <psa03 value="0.0260848033" flag="0"/>
      <psa10 value="0.0032715663" flag="0"/>
      <psa30 value="0.0002243614" flag="0"/>
    </comp>
    <comp name="--.HHZ">
      <acc value="0.0446928532" flag="0"/>
      <vel value="0.0036100000" flag="0"/>
      <psa03 value="0.0066411798" flag="0"/>
      <psa10 value="0.0005400607" flag="0"/>
      <psa30 value="0.0000578319" flag="0"/>
    </comp>
  </station>
  <station code="SCTR" name="SCTR" netid="RO" insttype="2.5V" commtype="DIG" lat="45.6741" lon="27.9949">
    <comp name="--.HNE">
      <acc value="0.0436915428" flag="0"/>
      <vel value="0.0106689372" flag="0"/>
      <psa03 value="0.0327393432" flag="0"/>
      <psa10 value="0.0069500510" flag="0"/>
      <psa30 value="0.0004753658" flag="0"/>
    </comp>
    <comp name="--.HNN">
      <acc value="0.0472413278" flag="0"/>
      <vel value="0.0102831728" flag="0"/>
      <psa03 value="0.0564724874" flag="0"/>
      <psa10 value="0.0089977329" flag="0"/>
      <psa30 value="0.0005177575" flag="0"/>
    </comp>
    <comp name="--.HNZ">
      <acc value="0.0281125117" flag="0"/>
      <vel value="0.0053404164" flag="0"/>
      <psa03 value="0.0191033563" flag="0"/>
      <psa10 value="0.0040134933" flag="0"/>
      <psa30 value="0.0002247558" flag="0"/>
    </comp>
  </station>
  <station code="SULR" name="SULR" netid="RO" insttype="330" commtype="DIG" lat="44.6777" lon="26.2526">
    <comp name="--.HHE">
      <acc value="0.0158539997" flag="0"/>
      <vel value="0.0103034745" flag="0"/>
      <psa03 value="0.0296402878" flag="0"/>
      <psa10 value="0.0061417622" flag="0"/>
      <psa30 value="0.0004055465" flag="0"/>
    </comp>
    <comp name="--.HHN">
      <acc value="0.0214789602" flag="0"/>
      <vel value="0.0075961651" flag="0"/>
      <psa03 value="0.0469376202" flag="0"/>
      <psa10 value="0.0022619160" flag="0"/>
      <psa30 value="0.0002843206" flag="0"/>
    </comp>
    <comp name="--.HHZ">
      <acc value="0.0409223569" flag="0"/>
      <vel value="0.0086878640" flag="0"/>
      <psa03 value="0.0246150399" flag="0"/>
      <psa10 value="0.0013424914" flag="0"/>
      <psa30 value="0.0001731138" flag="0"/>
    </comp>
  </station>
  <station code="TATR" name="TATR" netid="RO" insttype="MBB2/Basalt" commtype="DIG" lat="45.5977" lon="28.0498">
    <comp name="--.HHE">
      <acc value="0.0949183090" flag="0"/>
      <vel value="0.0229751400" flag="0"/>
      <psa03 value="0.0761547586" flag="0"/>
      <psa10 value="0.0105911145" flag="0"/>
      <psa30 value="0.0008159326" flag="0"/>
    </comp>
    <comp name="--.HHN">
      <acc value="0.0581057503" flag="0"/>
      <vel value="0.0180433579" flag="0"/>
      <psa03 value="0.0525787960" flag="0"/>
      <psa10 value="0.0075624698" flag="0"/>
      <psa30 value="0.0004417347" flag="0"/>
    </comp>
    <comp name="--.HHZ">
      <acc value="0.0745439623" flag="0"/>
      <vel value="0.0094667981" flag="0"/>
      <psa03 value="0.0250898753" flag="0"/>
      <psa10 value="0.0035526011" flag="0"/>
      <psa30 value="0.0002379030" flag="0"/>
    </comp>
  </station>
  <station code="TUDR" name="TUDR" netid="RO" insttype="CMG40T.1to100/Quanterra" commtype="DIG" lat="45.5939" lon="27.6687">
    <comp name="--.HHE">
      <acc value="0.0473643711" flag="0"/>
      <vel value="0.0103168661" flag="0"/>
      <psa03 value="0.0466558408" flag="0"/>
      <psa10 value="0.0051111298" flag="0"/>
      <psa30 value="0.0004697825" flag="0"/>
    </comp>
    <comp name="--.HHZ">
      <acc value="0.0910220867" flag="0"/>
      <vel value="0.0108351342" flag="0"/>
      <psa03 value="0.0151512460" flag="0"/>
      <psa10 value="0.0011175688" flag="0"/>
      <psa30 value="0.0001325693" flag="0"/>
    </comp>
    <comp name="--.HHN">
      <acc value="0.0667699817" flag="0"/>
      <vel value="0.0130765323" flag="0"/>
      <psa03 value="0.0472678224" flag="0"/>
      <psa10 value="0.0044819312" flag="0"/>
      <psa30 value="0.0006175742" flag="0"/>
    </comp>
  </station>
  <station code="VARL" name="VARL" netid="RO" insttype="MBB2/Quanterra" commtype="DIG" lat="45.8996" lon="27.8487">
    <comp name="--.HHE">
      <acc value="0.0636722146" flag="0"/>
      <vel value="0.0158553995" flag="0"/>
      <psa03 value="0.0512158906" flag="0"/>
      <psa10 value="0.0062888245" flag="0"/>
      <psa30 value="0.0004894976" flag="0"/>
    </comp>
    <comp name="--.HHZ">
      <acc value="0.0618187389" flag="0"/>
      <vel value="0.0083461662" flag="0"/>
      <psa03 value="0.0205374451" flag="0"/>
      <psa10 value="0.0022517673" flag="0"/>
      <psa30 value="0.0001458909" flag="0"/>
    </comp>
    <comp name="--.HHN">
      <acc value="0.0752730554" flag="0"/>
      <vel value="0.0123253091" flag="0"/>
      <psa03 value="0.0652538996" flag="0"/>
      <psa10 value="0.0044782833" flag="0"/>
      <psa30 value="0.0002673348" flag="0"/>
