<?xml version="1.0" encoding="UTF-8" standalone="yes"?>
<!DOCTYPE earthquake SYSTEM "stationlist.dtd">
<stationlist created="" xmlns="ch.ethz.sed.shakemap.usgs.xml">
  <station code="CEYT" name="CEYT" netid="KO" insttype="CMG-3ESP" lat="37.0105" lon="35.7478">
    <comp name="--.HHE">
      <acc value="0.0055421315" flag="0"/>
      <vel value="0.0029115418" flag="0"/>
      <psa03 value="0.0099169597" flag="0"/>
      <psa10 value="0.0048608132" flag="0"/>
      <psa30 value="0.0006273649" flag="0"/>
    </comp>
    <comp name="--.HHN">
      <acc value="0.0035288649" flag="0"/>
      <vel value="0.0023216993" flag="0"/>
      <psa03 value="0.0056429242" flag="0"/>
      <psa10 value="0.0033146319" flag="0"/>
      <psa30 value="0.0006207373" flag="0"/>
    </comp>
    <comp name="--.HHZ">
      <acc value="0.0018835717" flag="0"/>
      <vel value="0.0017182772" flag="0"/>
      <psa03 value="0.0037067297" flag="0"/>
      <psa10 value="0.0030669191" flag="0"/>
      <psa30 value="0.0003214504" flag="0"/>
    </comp>
  </station>
  <station code="DARE" name="DARE" netid="KO" insttype="CMG-3ESP" lat="38.5712" lon="37.4832">
    <comp name="--.HHZ">
      <acc value="0.0049386838" flag="0"/>
      <vel value="0.0028979312" flag="0"/>
      <psa03 value="0.0109917857" flag="0"/>
      <psa10 value="0.0034551109" flag="0"/>
      <psa30 value="0.0002796579" flag="0"/>
    </comp>
    <comp name="--.HHE">
      <acc value="0.0054764542" flag="0"/>
      <vel value="0.0032999943" flag="0"/>
      <psa03 value="0.0150015927" flag="0"/>
      <psa10 value="0.0067107896" flag="0"/>
      <psa30 value="0.0003275489" flag="0"/>
    </comp>
    <comp name="--.HHN">
      <acc value="0.0049510429" flag="0"/>
      <vel value="0.0043267255" flag="0"/>
      <psa03 value="0.0158642577" flag="0"/>
      <psa10 value="0.0089543712" flag="0"/>
      <psa30 value="0.0002804839" flag="0"/>
    </comp>
  </station>
  <station code="GAZ" name="GAZ" netid="KO" insttype="CMG-3T" lat="37.1721" lon="37.2096">
    <comp name="--.HHN">
      <acc value="0.0145922104" flag="0"/>
      <vel value="0.0090518541" flag="0"/>
      <psa03 value="0.0338228335" flag="0"/>
      <psa10 value="0.0123106339" flag="0"/>
      <psa30 value="0.0006705285" flag="0"/>
    </comp>
    <comp name="--.HHZ">
      <acc value="0.0096232237" flag="0"/>
      <vel value="0.0045872556" flag="0"/>
      <psa03 value="0.0361256555" flag="0"/>
      <psa10 value="0.0082742345" flag="0"/>
      <psa30 value="0.0008168033" flag="0"/>
    </comp>
    <comp name="--.HHE">
      <acc value="0.0180277836" flag="0"/>
      <vel value="0.0076895880" flag="0"/>
      <psa03 value="0.0412403156" flag="0"/>
      <psa10 value="0.0103428248" flag="0"/>
      <psa30 value="0.0009846349" flag="0"/>
    </comp>
  </station>
  <station code="SARI" name="SARI" netid="KO" insttype="CMG-3T" lat="38.4072" lon="36.4181">
    <comp name="--.HHZ">
      <acc value="0.0311962171" flag="0"/>
      <vel value="0.0143217363" flag="0"/>
      <psa03 value="0.0640411561" flag="0"/>
      <psa10 value="0.0115817434" flag="0"/>
      <psa30 value="0.0015673227" flag="0"/>
    </comp>
    <comp name="--.HHE">
      <acc value="0.0574545612" flag="0"/>
      <vel value="0.0211136783" flag="0"/>
      <psa03 value="0.1086389598" flag="0"/>
      <psa10 value="0.0292418576" flag="0"/>
      <psa30 value="0.0009943750" flag="0"/>
    </comp>
    <comp name="--.HHN">
      <acc value="0.0383065155" flag="0"/>
      <vel value="0.0137958405" flag="0"/>
      <psa03 value="0.1158147815" flag="0"/>
      <psa10 value="0.0165570564" flag="0"/>
      <psa30 value="0.0015354337" flag="0"/>
    </comp>
  </station>
  <station code="ANDN" name="ANDN" netid="TU" insttype="T" lat="37.58" lon="36.3452">
    <comp name="--.HHZ">
      <acc value="0.0992507855" flag="0"/>
      <vel value="0.0579594245" flag="0"/>
      <psa03 value="0.1872031001" flag="0"/>
      <psa10 value="0.0985521320" flag="0"/>
      <psa30 value="0.0050029684" flag="0"/>
    </comp>
    <comp name="--.HHE">
      <acc value="0.1404681905" flag="0"/>
      <vel value="0.0649640009" flag="0"/>
      <psa03 value="0.1729113338" flag="0"/>
      <psa10 value="0.0894242200" flag="0"/>
      <psa30 value="0.0050193240" flag="0"/>
    </comp>
    <comp name="--.HHN">
      <acc value="0.1894088255" flag="0"/>
      <vel value="0.0716463849" flag="0"/>
      <psa03 value="0.2536850069" flag="0"/>
      <psa10 value="0.1248435141" flag="0"/>
      <psa30 value="0.0075672933" flag="0"/>
    </comp>
  </station>
</stationlist>
