<?xml version="1.0" encoding="UTF-8" standalone="yes"?>
<!DOCTYPE earthquake SYSTEM "stationlist.dtd">
<stationlist created="" xmlns="ch.ethz.sed.shakemap.usgs.xml">
  <station code="CEYT" name="CEYT" netid="KO" insttype="CMG-3ESP" lat="37.0105" lon="35.7478">
    <comp name="--.HHE">
      <acc value="0.0055421315" flag="0"/>
      <vel value="0.0029115471" flag="0"/>
      <psa03 value="0.0099169597" flag="0"/>
      <psa10 value="0.0048608132" flag="0"/>
      <psa30 value="0.0006273863" flag="0"/>
    </comp>
    <comp name="--.HHZ">
      <acc value="0.0018835716" flag="0"/>
      <vel value="0.0017182737" flag="0"/>
      <psa03 value="0.0037067297" flag="0"/>
      <psa10 value="0.0030669191" flag="0"/>
      <psa30 value="0.0003214982" flag="0"/>
    </comp>
    <comp name="--.HHN">
      <acc value="0.0035291802" flag="0"/>
      <vel value="0.0023216978" flag="0"/>
      <psa03 value="0.0056429987" flag="0"/>
      <psa10 value="0.0033146319" flag="0"/>
      <psa30 value="0.0006207481" flag="0"/>
    </comp>
  </station>
  <station code="DARE" name="DARE" netid="KO" insttype="CMG-3ESP" lat="38.5712" lon="37.4832">
    <comp name="--.HHE">
      <acc value="0.0054764543" flag="0"/>
      <vel value="0.0032999930" flag="0"/>
      <psa03 value="0.0150015927" flag="0"/>
      <psa10 value="0.0067107897" flag="0"/>
      <psa30 value="0.0003275583" flag="0"/>
    </comp>
    <comp name="--.HHN">
      <acc value="0.0049510429" flag="0"/>
      <vel value="0.0043267266" flag="0"/>
      <psa03 value="0.0158642577" flag="0"/>
      <psa10 value="0.0089543712" flag="0"/>
      <psa30 value="0.0002804924" flag="0"/>
    </comp>
    <comp name="--.HHZ">
      <acc value="0.0049386839" flag="0"/>
      <vel value="0.0028979313" flag="0"/>
      <psa03 value="0.0109917857" flag="0"/>
      <psa10 value="0.0034551109" flag="0"/>
      <psa30 value="0.0002796511" flag="0"/>
    </comp>
  </station>
  <station code="GAZ" name="GAZ" netid="KO" insttype="CMG-3T" lat="37.1721" lon="37.2096">
    <comp name="--.HHE">
      <acc value="0.0180277836" flag="0"/>
      <vel value="0.0076895879" flag="0"/>
      <psa03 value="0.0412403156" flag="0"/>
      <psa10 value="0.0103428248" flag="0"/>
      <psa30 value="0.0009846343" flag="0"/>
    </comp>
    <comp name="--.HHN">
      <acc value="0.0145922105" flag="0"/>
      <vel value="0.0090518541" flag="0"/>
      <psa03 value="0.0338228335" flag="0"/>
      <psa10 value="0.0123106339" flag="0"/>
      <psa30 value="0.0006705236" flag="0"/>
    </comp>
    <comp name="--.HHZ">
      <acc value="0.0096232237" flag="0"/>
      <vel value="0.0045872555" flag="0"/>
      <psa03 value="0.0361256555" flag="0"/>
      <psa10 value="0.0082742345" flag="0"/>
      <psa30 value="0.0008168026" flag="0"/>
    </comp>
  </station>
  <station code="SARI" name="SARI" netid="KO" insttype="CMG-3T" lat="38.4072" lon="36.4181">
    <comp name="--.HHE">
      <acc value="0.0574545611" flag="0"/>
      <vel value="0.0211136788" flag="0"/>
      <psa03 value="0.1086389598" flag="0"/>
      <psa10 value="0.0292418575" flag="0"/>
      <psa30 value="0.0009943885" flag="0"/>
    </comp>
    <comp name="--.HHZ">
      <acc value="0.0311962170" flag="0"/>
      <vel value="0.0143217359" flag="0"/>
      <psa03 value="0.0640411561" flag="0"/>
      <psa10 value="0.0115817435" flag="0"/>
      <psa30 value="0.0015673397" flag="0"/>
    </comp>
    <comp name="--.HHN">
      <acc value="0.0383065157" flag="0"/>
      <vel value="0.0137958406" flag="0"/>
      <psa03 value="0.1158147815" flag="0"/>
      <psa10 value="0.0165570562" flag="0"/>
      <psa30 value="0.0015354504" flag="0"/>
    </comp>
  </station>
  <station code="ANDN" name="ANDN" netid="TU" insttype="T" lat="37.58" lon="36.3452">
    <comp name="--.HHN">
      <acc value="0.1894088256" flag="0"/>
      <vel value="0.0716463848" flag="0"/>
      <psa03 value="0.2536850069" flag="0"/>
      <psa10 value="0.1248435206" flag="0"/>
      <psa30 value="0.0075673847" flag="0"/>
    </comp>
    <comp name="--.HHZ">
      <acc value="0.0992507857" flag="0"/>
      <vel value="0.0579594222" flag="0"/>
      <psa03 value="0.1872031001" flag="0"/>
      <psa10 value="0.0985521318" flag="0"/>
      <psa30 value="0.0050032477" flag="0"/>
    </comp>
    <comp name="--.HHE">
      <acc value="0.1404681906" flag="0"/>
      <vel value="0.0649640000" flag="0"/>
      <psa03 value="0.1729113338" flag="0"/>
      <psa10 value="0.0894242204" flag="0"/>
      <psa30 value="0.0050190624" flag="0"/>
    </comp>
  </station>
</stationlist>
