<?xml version="1.0" encoding="UTF-8" standalone="yes"?>
<!DOCTYPE earthquake SYSTEM "stationlist.dtd">
<stationlist created="" xmlns="ch.ethz.sed.shakemap.usgs.xml">
  <station code="KRL1" name="KRL1" netid="HI" insttype="CMG-5TD,ACCELEROMETER,GURALP" lat="37.7951" lon="26.7065">
    <comp name="--.HNZ">
      <acc value="0.2205813037" flag="0"/>
      <vel value="0.0841220740" flag="0"/>
      <psa03 value="0.4071906285" flag="0"/>
      <psa10 value="0.0451387297" flag="0"/>
      <psa30 value="0.0031320065" flag="0"/>
    </comp>
    <comp name="--.HNE">
      <acc value="1.0145147299" flag="0"/>
      <vel value="0.3550880169" flag="0"/>
      <psa03 value="1.5401208092" flag="0"/>
      <psa10 value="0.0723804288" flag="0"/>
      <psa30 value="0.0068554255" flag="0"/>
    </comp>
    <comp name="--.HNN">
      <acc value="0.5399455964" flag="0"/>
      <vel value="0.2011775373" flag="0"/>
      <psa03 value="0.7470010459" flag="0"/>
      <psa10 value="0.1080956448" flag="0"/>
      <psa30 value="0.0092759600" flag="0"/>
    </comp>
  </station>
  <station code="CHOS" name="CHOS" netid="HT" insttype="100" lat="38.3869" lon="26.0506">
    <comp name="--.HHE">
      <acc value="0.0424403818" flag="0"/>
      <vel value="0.0155453072" flag="0"/>
      <psa03 value="0.1256999062" flag="0"/>
      <psa10 value="0.0104971570" flag="0"/>
      <psa30 value="0.0006056040" flag="0"/>
    </comp>
    <comp name="--.HHN">
      <acc value="0.0377815643" flag="0"/>
      <vel value="0.0107260911" flag="0"/>
      <psa03 value="0.0508894491" flag="0"/>
      <psa10 value="0.0083357072" flag="0"/>
      <psa30 value="0.0004549077" flag="0"/>
    </comp>
    <comp name="--.HHZ">
      <acc value="0.0163290517" flag="0"/>
      <vel value="0.0060464802" flag="0"/>
      <psa03 value="0.0316115671" flag="0"/>
      <psa10 value="0.0053440738" flag="0"/>
      <psa30 value="0.0002655133" flag="0"/>
    </comp>
  </station>
  <station code="GMLD" name="GMLD" netid="KO" insttype="100" lat="38.0764" lon="26.8747">
    <comp name="--.HNE">
      <acc value="0.4590205665" flag="0"/>
      <vel value="0.1874709461" flag="0"/>
      <psa03 value="0.9053856205" flag="0"/>
      <psa10 value="0.0793761985" flag="0"/>
      <psa30 value="0.0064785914" flag="0"/>
    </comp>
    <comp name="--.HNZ">
      <acc value="0.2991972591" flag="0"/>
      <vel value="0.0952552340" flag="0"/>
      <psa03 value="0.4509470465" flag="0"/>
      <psa10 value="0.0194198393" flag="0"/>
      <psa30 value="0.0017745033" flag="0"/>
    </comp>
    <comp name="--.HNN">
      <acc value="0.4056844751" flag="0"/>
      <vel value="0.1359136621" flag="0"/>
      <psa03 value="0.6306130147" flag="0"/>
      <psa10 value="0.0669720830" flag="0"/>
      <psa30 value="0.0058451829" flag="0"/>
    </comp>
  </station>
  <station code="KUSD" name="KUSD" netid="KO" insttype="100" lat="37.86" lon="27.2815">
    <comp name="--.HNZ">
      <acc value="0.0559301074" flag="0"/>
      <vel value="0.0118501509" flag="0"/>
      <psa03 value="0.0621370322" flag="0"/>
      <psa10 value="0.0079895364" flag="0"/>
      <psa30 value="0.0007278705" flag="0"/>
    </comp>
    <comp name="--.HNE">
      <acc value="0.1366817110" flag="0"/>
      <vel value="0.0648491702" flag="0"/>
      <psa03 value="0.2529467064" flag="0"/>
      <psa10 value="0.0223344930" flag="0"/>
      <psa30 value="0.0016753553" flag="0"/>
    </comp>
    <comp name="--.HNN">
      <acc value="0.0864841801" flag="0"/>
      <vel value="0.0292396652" flag="0"/>
      <psa03 value="0.1173200591" flag="0"/>
      <psa10 value="0.0245428856" flag="0"/>
      <psa30 value="0.0012445549" flag="0"/>
    </comp>
  </station>
  <station code="AYDN" name="AYDN" netid="TU" source="ODC" insttype="T" lat="37.6608" lon="27.8792">
    <comp name="--.HHE">
      <acc value="0.0683700487" flag="0"/>
      <vel value="0.0288837742" flag="0"/>
      <psa03 value="0.2337177064" flag="0"/>
      <psa10 value="0.0161950860" flag="0"/>
      <psa30 value="0.0008986783" flag="0"/>
    </comp>
    <comp name="--.HHN">
      <acc value="0.0686992736" flag="0"/>
      <vel value="0.0271824252" flag="0"/>
      <psa03 value="0.2385975470" flag="0"/>
      <psa10 value="0.0181722341" flag="0"/>
      <psa30 value="0.0010850721" flag="0"/>
    </comp>
    <comp name="--.HHZ">
      <acc value="0.0504810905" flag="0"/>
      <vel value="0.0125460824" flag="0"/>
      <psa03 value="0.0449331722" flag="0"/>
      <psa10 value="0.0132270918" flag="0"/>
      <psa30 value="0.0007420062" flag="0"/>
    </comp>
  </station>
</stationlist>
