<?xml version="1.0" encoding="UTF-8" standalone="yes"?>
<!DOCTYPE earthquake SYSTEM "stationlist.dtd">
<stationlist created="" xmlns="ch.ethz.sed.shakemap.usgs.xml">
  <station code="IDI" name="IDI" netid="MN" source="INGV" insttype="" lat="35.288" lon="24.89">
    <comp name="--.HHE">
      <acc value="0.0755283898" flag="0"/>
      <vel value="0.0244264875" flag="0"/>
      <psa03 value="0.1033089107" flag="0"/>
      <psa10 value="0.0310127450" flag="0"/>
      <psa30 value="0.0015532755" flag="0"/>
    </comp>
    <comp name="--.HHN">
      <acc value="0.0749020780" flag="0"/>
      <vel value="0.0267143724" flag="0"/>
      <psa03 value="0.1386731549" flag="0"/>
      <psa10 value="0.0276567893" flag="0"/>
      <psa30 value="0.0013249888" flag="0"/>
    </comp>
    <comp name="--.HHZ">
      <acc value="0.0551487005" flag="0"/>
      <vel value="0.0185370965" flag="0"/>
      <psa03 value="0.0859931951" flag="0"/>
      <psa10 value="0.0190118941" flag="0"/>
      <psa30 value="0.0013985435" flag="0"/>
    </comp>
  </station>
  <station code="AMOS" name="AMOS" netid="Z3" source="GFZ" insttype="CMG-3ESP/60" lat="36.7956" lon="25.769">
    <comp name="--.HHE">
      <acc value="0.0180298398" flag="0"/>
      <vel value="0.0111595513" flag="0"/>
      <psa03 value="0.0352791513" flag="0"/>
      <psa10 value="0.0074032386" flag="0"/>
      <psa30 value="0.0005164380" flag="0"/>
    </comp>
    <comp name="--.HHN">
      <acc value="0.0199858634" flag="0"/>
      <vel value="0.0082522427" flag="0"/>
      <psa03 value="0.0549592932" flag="0"/>
      <psa10 value="0.0055256532" flag="0"/>
      <psa30 value="0.0005053105" flag="0"/>
    </comp>
    <comp name="--.HHZ">
      <acc value="0.0297650121" flag="0"/>
      <vel value="0.0059043204" flag="0"/>
      <psa03 value="0.0201633328" flag="0"/>
      <psa10 value="0.0019587940" flag="0"/>
      <psa30 value="0.0001459913" flag="0"/>
    </comp>
  </station>
  <station code="ANAF" name="ANAF" netid="Z3" source="GFZ" insttype="CMG-3ESP/60" lat="36.3581" lon="25.7783">
    <comp name="--.HHE">
      <acc value="0.4730723904" flag="0"/>
      <vel value="0.0830891563" flag="0"/>
      <psa03 value="0.4880081376" flag="0"/>
      <psa10 value="0.0304262758" flag="0"/>
      <psa30 value="0.0022012653" flag="0"/>
    </comp>
    <comp name="--.HHN">
      <acc value="0.5542619519" flag="0"/>
      <vel value="0.1244704714" flag="0"/>
      <psa03 value="0.8188403698" flag="0"/>
      <psa10 value="0.0384817094" flag="0"/>
      <psa30 value="0.0022028670" flag="0"/>
    </comp>
    <comp name="--.HHZ">
      <acc value="0.2901043381" flag="0"/>
      <vel value="0.0653096987" flag="0"/>
      <psa03 value="0.1871764569" flag="0"/>
      <psa10 value="0.0093420515" flag="0"/>
      <psa30 value="0.0008075813" flag="0"/>
    </comp>
  </station>
  <station code="ANID" name="ANID" netid="Z3" source="GFZ" insttype="L4-3D" lat="36.6251" lon="25.6847">
    <comp name="--.HHE">
      <acc value="0.0174231893" flag="0"/>
      <vel value="0.0077496784" flag="0"/>
      <psa03 value="0.0283352242" flag="0"/>
      <psa10 value="0.0090256947" flag="0"/>
      <psa30 value="0.0006053960" flag="0"/>
    </comp>
    <comp name="--.HHN">
      <acc value="0.0178185152" flag="0"/>
      <vel value="0.0129068378" flag="0"/>
      <psa03 value="0.0197205024" flag="0"/>
      <psa10 value="0.0140718080" flag="0"/>
      <psa30 value="0.0008075750" flag="0"/>
    </comp>
    <comp name="--.HHZ">
      <acc value="0.0196470420" flag="0"/>
      <vel value="0.0051599246" flag="0"/>
      <psa03 value="0.0111632647" flag="0"/>
      <psa10 value="0.0022286220" flag="0"/>
      <psa30 value="0.0001296304" flag="0"/>
    </comp>
  </station>
  <station code="IOSI" name="IOSI" netid="Z3" source="GFZ" insttype="STS-2/N" lat="36.7347" lon="25.3618">
    <comp name="--.HHE">
      <acc value="0.0127789970" flag="0"/>
      <vel value="0.0047525456" flag="0"/>
      <psa03 value="0.0226669437" flag="0"/>
      <psa10 value="0.0027098736" flag="0"/>
      <psa30 value="0.0002275171" flag="0"/>
    </comp>
    <comp name="--.HHN">
      <acc value="0.0107917193" flag="0"/>
      <vel value="0.0051348694" flag="0"/>
      <psa03 value="0.0205325399" flag="0"/>
      <psa10 value="0.0032872415" flag="0"/>
      <psa30 value="0.0002844686" flag="0"/>
    </comp>
    <comp name="--.HHZ">
      <acc value="0.0051283220" flag="0"/>
      <vel value="0.0017034489" flag="0"/>
      <psa03 value="0.0066325808" flag="0"/>
      <psa10 value="0.0008949178" flag="0"/>
      <psa30 value="0.0000752040" flag="0"/>
    </comp>
  </station>
  <station code="KAPA" name="KAPA" netid="Z3" source="GFZ" insttype="CMG-3ESP/60" lat="35.6402" lon="27.1376">
    <comp name="--.HHE">
      <acc value="0.0788003627" flag="0"/>
      <vel value="0.0363527397" flag="0"/>
      <psa03 value="0.1427199075" flag="0"/>
      <psa10 value="0.0141833551" flag="0"/>
      <psa30 value="0.0011076258" flag="0"/>
    </comp>
    <comp name="--.HHN">
      <acc value="0.0687399493" flag="0"/>
      <vel value="0.0203097479" flag="0"/>
      <psa03 value="0.0975495728" flag="0"/>
      <psa10 value="0.0144369347" flag="0"/>
      <psa30 value="0.0007744765" flag="0"/>
    </comp>
    <comp name="--.HHZ">
      <acc value="0.0822132913" flag="0"/>
      <vel value="0.0222752505" flag="0"/>
      <psa03 value="0.0399002616" flag="0"/>
      <psa10 value="0.0049267169" flag="0"/>
      <psa30 value="0.0003281205" flag="0"/>
    </comp>
  </station>
  <station code="KASO" name="KASO" netid="Z3" source="GFZ" insttype="CMG-3ESP/60" lat="35.4115" lon="26.9152">
    <comp name="--.HHE">
      <acc value="0.1207495013" flag="0"/>
      <vel value="0.0238608835" flag="0"/>
      <psa03 value="0.0580092255" flag="0"/>
      <psa10 value="0.0059396739" flag="0"/>
      <psa30 value="0.0004169719" flag="0"/>
    </comp>
    <comp name="--.HHN">
      <acc value="0.1339816127" flag="0"/>
      <vel value="0.0279455325" flag="0"/>
      <psa03 value="0.1182048929" flag="0"/>
      <psa10 value="0.0071779842" flag="0"/>
      <psa30 value="0.0005161479" flag="0"/>
    </comp>
    <comp name="--.HHZ">
      <acc value="0.0844525414" flag="0"/>
      <vel value="0.0124758896" flag="0"/>
      <psa03 value="0.0205743757" flag="0"/>
      <psa10 value="0.0032091117" flag="0"/>
      <psa30 value="0.0002822971" flag="0"/>
    </comp>
  </station>
  <station code="NEAK" name="NEAK" netid="Z3" source="GFZ" insttype="L4-3D" lat="36.4087" lon="25.4014">
    <comp name="--.HHE">
      <acc value="0.1168933394" flag="0"/>
      <vel value="0.0595280581" flag="0"/>
      <psa03 value="0.2668657123" flag="0"/>
      <psa10 value="0.0538731297" flag="0"/>
      <psa30 value="0.0024088402" flag="0"/>
    </comp>
    <comp name="--.HHN">
      <acc value="0.1427699769" flag="0"/>
      <vel value="0.0728352124" flag="0"/>
      <psa03 value="0.2811232121" flag="0"/>
      <psa10 value="0.0516537263" flag="0"/>
      <psa30 value="0.0036450791" flag="0"/>
    </comp>
    <comp name="--.HHZ">
      <acc value="0.0372305703" flag="0"/>
      <vel value="0.0152270230" flag="0"/>
      <psa03 value="0.0763684488" flag="0"/>
      <psa10 value="0.0175679045" flag="0"/>
      <psa30 value="0.0007191502" flag="0"/>
    </comp>
  </station>
  <station code="RETH" name="RETH" netid="Z3" source="GFZ" insttype="CMG-3ESP/60" lat="35.2934" lon="24.4948">
    <comp name="--.HHE">
      <acc value="0.0315356181" flag="0"/>
      <vel value="0.0113338842" flag="0"/>
      <psa03 value="0.0669646011" flag="0"/>
      <psa10 value="0.0087912526" flag="0"/>
      <psa30 value="0.0005403186" flag="0"/>
    </comp>
    <comp name="--.HHN">
      <acc value="0.0240470583" flag="0"/>
      <vel value="0.0069667090" flag="0"/>
      <psa03 value="0.0342103889" flag="0"/>
      <psa10 value="0.0045282966" flag="0"/>
      <psa30 value="0.0003724501" flag="0"/>
    </comp>
    <comp name="--.HHZ">
      <acc value="0.0132293791" flag="0"/>
      <vel value="0.0036895402" flag="0"/>
      <psa03 value="0.0155323914" flag="0"/>
      <psa10 value="0.0032617865" flag="0"/>
      <psa30 value="0.0002709887" flag="0"/>
    </comp>
  </station>
</stationlist>
