<?xml version="1.0" encoding="UTF-8" standalone="yes"?>
<!DOCTYPE earthquake SYSTEM "stationlist.dtd">
<stationlist created="" xmlns="ch.ethz.sed.shakemap.usgs.xml">
  <station code="PSAM" name="PSAM" netid="CL" insttype="CMG40-T" lat="38.3218" lon="22.1842">
    <comp name="00.HHN">
      <acc value="0.0059591389" flag="0"/>
      <vel value="0.0045850569" flag="0"/>
      <psa03 value="0.0183097982" flag="0"/>
      <psa10 value="0.0063686125" flag="0"/>
      <psa30 value="0.0004528629" flag="0"/>
    </comp>
    <comp name="00.HHZ">
      <acc value="0.0036853614" flag="0"/>
      <vel value="0.0021007200" flag="0"/>
      <psa03 value="0.0155560431" flag="0"/>
      <psa10 value="0.0021286417" flag="0"/>
      <psa30 value="0.0002261452" flag="0"/>
    </comp>
    <comp name="00.HHE">
      <acc value="0.0069566881" flag="0"/>
      <vel value="0.0057761238" flag="0"/>
      <psa03 value="0.0241153789" flag="0"/>
      <psa10 value="0.0047045821" flag="0"/>
      <psa30 value="0.0006910985" flag="0"/>
    </comp>
  </station>
  <station code="ACOR" name="ACOR" netid="HA" insttype="Horizon,120s,1200" lat="37.8905" lon="22.8694">
    <comp name="--.HHE">
      <acc value="0.0065089723" flag="0"/>
      <vel value="0.0039232021" flag="0"/>
      <psa03 value="0.0170113443" flag="0"/>
      <psa10 value="0.0063661485" flag="0"/>
      <psa30 value="0.0007290810" flag="0"/>
    </comp>
    <comp name="--.HHN">
      <acc value="0.0052054354" flag="0"/>
      <vel value="0.0043146962" flag="0"/>
      <psa03 value="0.0139417773" flag="0"/>
      <psa10 value="0.0063103206" flag="0"/>
      <psa30 value="0.0005812397" flag="0"/>
    </comp>
    <comp name="--.HHZ">
      <acc value="0.0056374032" flag="0"/>
      <vel value="0.0034113075" flag="0"/>
      <psa03 value="0.0153476161" flag="0"/>
      <psa10 value="0.0029018428" flag="0"/>
      <psa30 value="0.0002455413" flag="0"/>
    </comp>
  </station>
  <station code="AMPE" name="AMPE" netid="HA" insttype="1s-100Hz," lat="38.3015" lon="23.2688">
    <comp name="--.HHZ">
      <acc value="0.0290490774" flag="0"/>
      <vel value="0.0098019346" flag="0"/>
      <psa03 value="0.0543536054" flag="0"/>
      <psa10 value="0.0074092467" flag="0"/>
      <psa30 value="0.0004423117" flag="0"/>
    </comp>
    <comp name="--.HHE">
      <acc value="0.0474053311" flag="0"/>
      <vel value="0.0283239824" flag="0"/>
      <psa03 value="0.1372556287" flag="0"/>
      <psa10 value="0.0141105113" flag="0"/>
      <psa30 value="0.0013464533" flag="0"/>
    </comp>
    <comp name="--.HHN">
      <acc value="0.0390543989" flag="0"/>
      <vel value="0.0221637322" flag="0"/>
      <psa03 value="0.0596625341" flag="0"/>
      <psa10 value="0.0252420028" flag="0"/>
      <psa30 value="0.0012153655" flag="0"/>
    </comp>
  </station>
  <station code="ANTK" name="ANTK" netid="HA" insttype="25" lat="38.3605" lon="22.6385">
    <comp name="--.HHE">
      <acc value="0.0083532643" flag="0"/>
      <vel value="0.0045264821" flag="0"/>
      <psa03 value="0.0139730255" flag="0"/>
      <psa10 value="0.0066983010" flag="0"/>
      <psa30 value="0.0004598721" flag="0"/>
    </comp>
    <comp name="--.HHZ">
      <acc value="0.0083313011" flag="0"/>
      <vel value="0.0036757569" flag="0"/>
      <psa03 value="0.0126311843" flag="0"/>
      <psa10 value="0.0027032168" flag="0"/>
      <psa30 value="0.0001702295" flag="0"/>
    </comp>
    <comp name="--.HHN">
      <acc value="0.0005531283" flag="0"/>
      <vel value="0.0001906276" flag="0"/>
      <psa03 value="0.0008479088" flag="0"/>
      <psa10 value="0.0001369662" flag="0"/>
      <psa30 value="0.0000092446" flag="0"/>
    </comp>
  </station>
  <station code="ATAL" name="ATAL" netid="HA" insttype="120s," lat="38.6926" lon="23.0213">
    <comp name="--.HHE">
      <acc value="0.1476116963" flag="0"/>
      <vel value="0.0294704660" flag="0"/>
      <psa03 value="0.1128556725" flag="0"/>
      <psa10 value="0.0122908233" flag="0"/>
      <psa30 value="0.0009889556" flag="0"/>
    </comp>
    <comp name="--.HHN">
      <acc value="0.1363516640" flag="0"/>
      <vel value="0.0404284691" flag="0"/>
      <psa03 value="0.1818861487" flag="0"/>
      <psa10 value="0.0114110560" flag="0"/>
      <psa30 value="0.0009345696" flag="0"/>
    </comp>
    <comp name="--.HHZ">
      <acc value="0.1090268691" flag="0"/>
      <vel value="0.0284535617" flag="0"/>
      <psa03 value="0.1438249311" flag="0"/>
      <psa10 value="0.0079315950" flag="0"/>
      <psa30 value="0.0007639484" flag="0"/>
    </comp>
  </station>
  <station code="ATHU" name="ATHU" netid="HA" insttype="60s," lat="37.9665" lon="23.7845">
    <comp name="--.HHE">
      <acc value="0.0127475187" flag="0"/>
      <vel value="0.0055277842" flag="0"/>
      <psa03 value="0.0249846470" flag="0"/>
      <psa10 value="0.0038195100" flag="0"/>
      <psa30 value="0.0003631608" flag="0"/>
    </comp>
    <comp name="--.HHN">
      <acc value="0.0151392875" flag="0"/>
      <vel value="0.0054365669" flag="0"/>
      <psa03 value="0.0284724892" flag="0"/>
      <psa10 value="0.0023920592" flag="0"/>
      <psa30 value="0.0002792807" flag="0"/>
    </comp>
    <comp name="--.HHZ">
      <acc value="0.0207692469" flag="0"/>
      <vel value="0.0076227324" flag="0"/>
      <psa03 value="0.0263231380" flag="0"/>
      <psa10 value="0.0028588105" flag="0"/>
      <psa30 value="0.0002512263" flag="0"/>
    </comp>
  </station>
  <station code="AXAR" name="AXAR" netid="HA" insttype="Horizon,120s,1200" lat="38.7664" lon="22.659">
    <comp name="--.HHN">
      <acc value="0.0704768983" flag="0"/>
      <vel value="0.0218278800" flag="0"/>
      <psa03 value="0.1468850975" flag="0"/>
      <psa10 value="0.0143465808" flag="0"/>
      <psa30 value="0.0007992127" flag="0"/>
    </comp>
    <comp name="--.HHZ">
      <acc value="0.0369028322" flag="0"/>
      <vel value="0.0098482224" flag="0"/>
      <psa03 value="0.0734465189" flag="0"/>
      <psa10 value="0.0065430749" flag="0"/>
      <psa30 value="0.0003579562" flag="0"/>
    </comp>
    <comp name="--.HHE">
      <acc value="0.0554911098" flag="0"/>
      <vel value="0.0210819228" flag="0"/>
      <psa03 value="0.1873967044" flag="0"/>
      <psa10 value="0.0145230206" flag="0"/>
      <psa30 value="0.0008151803" flag="0"/>
    </comp>
  </station>
  <station code="DOMV" name="DOMV" netid="HA" insttype="60" lat="38.2569" lon="22.9795">
    <comp name="--.HHE">
      <acc value="0.1386810270" flag="0"/>
      <vel value="0.0383175321" flag="0"/>
      <psa03 value="0.2504282672" flag="0"/>
      <psa10 value="0.0138311897" flag="0"/>
      <psa30 value="0.0011435416" flag="0"/>
    </comp>
    <comp name="--.HHN">
      <acc value="0.1867613033" flag="0"/>
      <vel value="0.0420550619" flag="0"/>
      <psa03 value="0.1955958987" flag="0"/>
      <psa10 value="0.0088515657" flag="0"/>
      <psa30 value="0.0009509874" flag="0"/>
    </comp>
    <comp name="--.HHZ">
      <acc value="0.0932396634" flag="0"/>
      <vel value="0.0294905636" flag="0"/>
      <psa03 value="0.1935892339" flag="0"/>
      <psa10 value="0.0086188296" flag="0"/>
      <psa30 value="0.0006467609" flag="0"/>
    </comp>
  </station>
  <station code="ERTR" name="ERTR" netid="HA" insttype="Horizon,120s,1200" lat="38.4066" lon="23.7865">
    <comp name="--.HHE">
      <acc value="0.0394247337" flag="0"/>
      <vel value="0.0151268950" flag="0"/>
      <psa03 value="0.0931939786" flag="0"/>
      <psa10 value="0.0073474968" flag="0"/>
      <psa30 value="0.0005986886" flag="0"/>
    </comp>
    <comp name="--.HHN">
      <acc value="0.0340621854" flag="0"/>
      <vel value="0.0125873432" flag="0"/>
      <psa03 value="0.0858956927" flag="0"/>
      <psa10 value="0.0042174063" flag="0"/>
      <psa30 value="0.0004544733" flag="0"/>
    </comp>
    <comp name="--.HHZ">
      <acc value="0.0318381262" flag="0"/>
      <vel value="0.0132607453" flag="0"/>
      <psa03 value="0.0668629159" flag="0"/>
      <psa10 value="0.0043022749" flag="0"/>
      <psa30 value="0.0002937422" flag="0"/>
    </comp>
  </station>
  <station code="KALE" name="KALE" netid="HA" insttype="40," lat="38.3911" lon="22.1398">
    <comp name="--.HHZ">
      <acc value="0.0072619511" flag="0"/>
      <vel value="0.0028286888" flag="0"/>
      <psa03 value="0.0195924708" flag="0"/>
      <psa10 value="0.0023704757" flag="0"/>
      <psa30 value="0.0002021480" flag="0"/>
    </comp>
    <comp name="--.HHN">
      <acc value="0.0136155605" flag="0"/>
      <vel value="0.0064278646" flag="0"/>
      <psa03 value="0.0550624612" flag="0"/>
      <psa10 value="0.0027478072" flag="0"/>
      <psa30 value="0.0002377768" flag="0"/>
    </comp>
    <comp name="--.HHE">
      <acc value="0.0101503730" flag="0"/>
      <vel value="0.0050106510" flag="0"/>
      <psa03 value="0.0365186567" flag="0"/>
      <psa10 value="0.0031001711" flag="0"/>
      <psa30 value="0.0004272779" flag="0"/>
    </comp>
  </station>
  <station code="KIAS" name="KIAS" netid="HA" insttype="DC" lat="37.9875" lon="22.7543">
    <comp name="--.HNZ">
      <acc value="0.0147966151" flag="0"/>
      <vel value="0.0098249637" flag="0"/>
      <psa03 value="0.0490803921" flag="0"/>
      <psa10 value="0.0094606392" flag="0"/>
      <psa30 value="0.0010754343" flag="0"/>
    </comp>
    <comp name="--.HNN">
      <acc value="0.0631135894" flag="0"/>
      <vel value="0.0350885743" flag="0"/>
      <psa03 value="0.1403880829" flag="0"/>
      <psa10 value="0.0139852138" flag="0"/>
      <psa30 value="0.0016802334" flag="0"/>
    </comp>
    <comp name="--.HNE">
      <acc value="0.0606049754" flag="0"/>
      <vel value="0.0283730416" flag="0"/>
      <psa03 value="0.1793454383" flag="0"/>
      <psa10 value="0.0137496585" flag="0"/>
      <psa30 value="0.0017778764" flag="0"/>
    </comp>
  </station>
  <station code="LOUT" name="LOUT" netid="HA" insttype="30" lat="37.9879" lon="22.9743">
    <comp name="--.HHE">
      <acc value="0.0587295820" flag="0"/>
      <vel value="0.0239764865" flag="0"/>
      <psa03 value="0.0936814837" flag="0"/>
      <psa10 value="0.0128270525" flag="0"/>
      <psa30 value="0.0011124757" flag="0"/>
    </comp>
    <comp name="--.HHN">
      <acc value="0.0432897621" flag="0"/>
      <vel value="0.0186145427" flag="0"/>
      <psa03 value="0.1076626685" flag="0"/>
      <psa10 value="0.0106479740" flag="0"/>
      <psa30 value="0.0010791473" flag="0"/>
    </comp>
    <comp name="--.HHZ">
      <acc value="0.0283708954" flag="0"/>
      <vel value="0.0112409189" flag="0"/>
      <psa03 value="0.0566834656" flag="0"/>
      <psa10 value="0.0069811239" flag="0"/>
      <psa30 value="0.0003817990" flag="0"/>
    </comp>
  </station>
  <station code="MDRA" name="MDRA" netid="HA" insttype="60" lat="38.0606" lon="23.4662">
    <comp name="--.HHE">
      <acc value="0.0162657773" flag="0"/>
      <vel value="0.0089670014" flag="0"/>
      <psa03 value="0.0278990052" flag="0"/>
      <psa10 value="0.0055588620" flag="0"/>
      <psa30 value="0.0005509388" flag="0"/>
    </comp>
    <comp name="--.HHN">
      <acc value="0.0257221345" flag="0"/>
      <vel value="0.0097237519" flag="0"/>
      <psa03 value="0.0520855222" flag="0"/>
      <psa10 value="0.0068964044" flag="0"/>
      <psa30 value="0.0006451222" flag="0"/>
    </comp>
    <comp name="--.HHZ">
      <acc value="0.0200037405" flag="0"/>
      <vel value="0.0084756453" flag="0"/>
      <psa03 value="0.0532179525" flag="0"/>
      <psa10 value="0.0068362251" flag="0"/>
      <psa30 value="0.0004923509" flag="0"/>
    </comp>
  </station>
  <station code="MRKA" name="MRKA" netid="HA" insttype="Horizon,120s,1200" lat="38.7047" lon="23.5863">
    <comp name="--.HHE">
      <acc value="0.5087288796" flag="0"/>
      <vel value="0.1178769768" flag="0"/>
      <psa03 value="0.4736658289" flag="0"/>
      <psa10 value="0.0402503997" flag="0"/>
      <psa30 value="0.0023465473" flag="0"/>
    </comp>
    <comp name="--.HHZ">
      <acc value="0.2360998782" flag="0"/>
      <vel value="0.0508682824" flag="0"/>
      <psa03 value="0.2310052170" flag="0"/>
      <psa10 value="0.0179875992" flag="0"/>
      <psa30 value="0.0015291176" flag="0"/>
    </comp>
    <comp name="--.HHN">
      <acc value="0.2923106667" flag="0"/>
      <vel value="0.0707997883" flag="0"/>
      <psa03 value="0.3721739429" flag="0"/>
      <psa10 value="0.0237133569" flag="0"/>
      <psa30 value="0.0016865043" flag="0"/>
    </comp>
  </station>
  <station code="MRTH" name="MRTH" netid="HA" insttype="S100," lat="38.1225" lon="23.9409">
    <comp name="--.HHZ">
      <acc value="0.0517497193" flag="0"/>
      <vel value="0.0189103396" flag="0"/>
      <psa03 value="0.1461622428" flag="0"/>
      <psa10 value="0.0099304807" flag="0"/>
      <psa30 value="0.0004903928" flag="0"/>
    </comp>
    <comp name="--.HHE">
      <acc value="0.0375653476" flag="0"/>
      <vel value="0.0185314425" flag="0"/>
      <psa03 value="0.0853919570" flag="0"/>
      <psa10 value="0.0137450534" flag="0"/>
      <psa30 value="0.0005788321" flag="0"/>
    </comp>
    <comp name="--.HHN">
      <acc value="0.0320704919" flag="0"/>
      <vel value="0.0210224520" flag="0"/>
      <psa03 value="0.0687261973" flag="0"/>
      <psa10 value="0.0234632710" flag="0"/>
      <psa30 value="0.0010823065" flag="0"/>
    </comp>
  </station>
  <station code="PRDM" name="PRDM" netid="HA" insttype="25" lat="38.2804" lon="22.847">
    <comp name="--.HHZ">
      <acc value="0.0137070710" flag="0"/>
      <vel value="0.0051773517" flag="0"/>
      <psa03 value="0.0300180464" flag="0"/>
      <psa10 value="0.0017526806" flag="0"/>
      <psa30 value="0.0001461991" flag="0"/>
    </comp>
    <comp name="--.HHN">
      <acc value="0.0280659592" flag="0"/>
      <vel value="0.0081902288" flag="0"/>
      <psa03 value="0.0448079408" flag="0"/>
      <psa10 value="0.0043736405" flag="0"/>
      <psa30 value="0.0002569970" flag="0"/>
    </comp>
    <comp name="--.HHE">
      <acc value="0.0429271752" flag="0"/>
      <vel value="0.0120408780" flag="0"/>
      <psa03 value="0.0615770687" flag="0"/>
      <psa10 value="0.0054690236" flag="0"/>
      <psa30 value="0.0004025016" flag="0"/>
    </comp>
  </station>
  <station code="PSAH" name="PSAH" netid="HA" insttype="25" lat="38.5694" lon="23.6473">
    <comp name="--.HHN">
      <acc value="0.0285133291" flag="0"/>
      <vel value="0.0097654669" flag="0"/>
      <psa03 value="0.0571690447" flag="0"/>
      <psa10 value="0.0071845772" flag="0"/>
      <psa30 value="0.0004804992" flag="0"/>
    </comp>
    <comp name="--.HHE">
      <acc value="0.0357941470" flag="0"/>
      <vel value="0.0139384349" flag="0"/>
      <psa03 value="0.0775970059" flag="0"/>
      <psa10 value="0.0102730509" flag="0"/>
      <psa30 value="0.0006046314" flag="0"/>
    </comp>
    <comp name="--.HHZ">
      <acc value="0.0285009988" flag="0"/>
      <vel value="0.0068914529" flag="0"/>
      <psa03 value="0.0343788191" flag="0"/>
      <psa10 value="0.0069331832" flag="0"/>
      <psa30 value="0.0003228741" flag="0"/>
    </comp>
  </station>
  <station code="STFN" name="STFN" netid="HA" insttype="1s-100Hz," lat="38.1766" lon="23.544">
    <comp name="--.HHE">
      <acc value="0.0247849860" flag="0"/>
      <vel value="0.0103653651" flag="0"/>
      <psa03 value="0.0404689757" flag="0"/>
      <psa10 value="0.0127487933" flag="0"/>
      <psa30 value="0.0005954840" flag="0"/>
    </comp>
    <comp name="--.HHN">
      <acc value="0.0255232849" flag="0"/>
      <vel value="0.0096255791" flag="0"/>
      <psa03 value="0.0422207201" flag="0"/>
      <psa10 value="0.0057680929" flag="0"/>
      <psa30 value="0.0004023848" flag="0"/>
    </comp>
    <comp name="--.HHZ">
      <acc value="0.0300091845" flag="0"/>
      <vel value="0.0151234727" flag="0"/>
      <psa03 value="0.0637506279" flag="0"/>
      <psa10 value="0.0059831294" flag="0"/>
      <psa30 value="0.0004080259" flag="0"/>
    </comp>
  </station>
  <station code="THAL" name="THAL" netid="HA" insttype="30" lat="38.0357" lon="22.6634">
    <comp name="--.HHN">
      <acc value="0.0595293176" flag="0"/>
      <vel value="0.0231895360" flag="0"/>
      <psa03 value="0.1273734925" flag="0"/>
      <psa10 value="0.0119582100" flag="0"/>
      <psa30 value="0.0009512554" flag="0"/>
    </comp>
    <comp name="--.HHE">
      <acc value="0.0586471824" flag="0"/>
      <vel value="0.0250209054" flag="0"/>
      <psa03 value="0.1759879890" flag="0"/>
      <psa10 value="0.0147806858" flag="0"/>
      <psa30 value="0.0009503749" flag="0"/>
    </comp>
    <comp name="--.HHZ">
      <acc value="0.0229857774" flag="0"/>
      <vel value="0.0098953407" flag="0"/>
      <psa03 value="0.0521605772" flag="0"/>
      <psa10 value="0.0052926365" flag="0"/>
      <psa30 value="0.0004170155" flag="0"/>
    </comp>
  </station>
  <station code="THIV" name="THIV" netid="HA" insttype="25" lat="38.299" lon="23.332">
    <comp name="--.HHE">
      <acc value="0.0427410264" flag="0"/>
      <vel value="0.0186143718" flag="0"/>
      <psa03 value="0.0651481734" flag="0"/>
      <psa10 value="0.0104405049" flag="0"/>
      <psa30 value="0.0010120710" flag="0"/>
    </comp>
    <comp name="--.HHN">
      <acc value="0.0416831806" flag="0"/>
      <vel value="0.0246895305" flag="0"/>
      <psa03 value="0.1408794077" flag="0"/>
      <psa10 value="0.0118138701" flag="0"/>
      <psa30 value="0.0011470766" flag="0"/>
    </comp>
    <comp name="--.HHZ">
      <acc value="0.0476398397" flag="0"/>
      <vel value="0.0144831479" flag="0"/>
      <psa03 value="0.0764613756" flag="0"/>
      <psa10 value="0.0081320991" flag="0"/>
      <psa30 value="0.0006280748" flag="0"/>
    </comp>
  </station>
  <station code="VILL" name="VILL" netid="HA" insttype="Horizon,120s,1200" lat="38.1642" lon="23.3122">
    <comp name="--.HHE">
      <acc value="0.0487762458" flag="0"/>
      <vel value="0.0228193520" flag="0"/>
      <psa03 value="0.1423548330" flag="0"/>
      <psa10 value="0.0145467474" flag="0"/>
      <psa30 value="0.0011199026" flag="0"/>
    </comp>
    <comp name="--.HHZ">
      <acc value="0.0208975602" flag="0"/>
      <vel value="0.0106806466" flag="0"/>
      <psa03 value="0.0554673602" flag="0"/>
      <psa10 value="0.0090541361" flag="0"/>
      <psa30 value="0.0004822638" flag="0"/>
    </comp>
    <comp name="--.HHN">
      <acc value="0.0535338111" flag="0"/>
      <vel value="0.0213928931" flag="0"/>
      <psa03 value="0.0736460445" flag="0"/>
      <psa10 value="0.0145940009" flag="0"/>
      <psa30 value="0.0007639480" flag="0"/>
    </comp>
  </station>
  <station code="LAM2" name="LAM2" netid="HI" insttype="CMG-5TD,ACCELEROMETER,GURALP" lat="38.902" lon="22.4313">
    <comp name="--.HNE">
      <acc value="0.0184803995" flag="0"/>
      <vel value="0.0066806582" flag="0"/>
      <psa03 value="0.0493984862" flag="0"/>
      <psa10 value="0.0059906461" flag="0"/>
      <psa30 value="0.0003613352" flag="0"/>
    </comp>
    <comp name="--.HNZ">
      <acc value="0.0231324709" flag="0"/>
      <vel value="0.0042921731" flag="0"/>
      <psa03 value="0.0203149069" flag="0"/>
      <psa10 value="0.0025793368" flag="0"/>
      <psa30 value="0.0001973629" flag="0"/>
    </comp>
    <comp name="--.HNN">
      <acc value="0.0207469636" flag="0"/>
      <vel value="0.0067956042" flag="0"/>
      <psa03 value="0.0272453528" flag="0"/>
      <psa10 value="0.0052533941" flag="0"/>
      <psa30 value="0.0004503357" flag="0"/>
    </comp>
  </station>
  <station code="PLN1" name="PLN1" netid="HI" insttype="CMG-5TD,ACCELEROMETER,GURALP" lat="39.998" lon="23.575">
    <comp name="--.HNN">
      <acc value="0.0104624285" flag="0"/>
      <vel value="0.0051470706" flag="0"/>
      <psa03 value="0.0243807520" flag="0"/>
      <psa10 value="0.0108808058" flag="0"/>
      <psa30 value="0.0004951269" flag="0"/>
    </comp>
    <comp name="--.HNZ">
      <acc value="0.0207542831" flag="0"/>
