<?xml version="1.0" encoding="UTF-8" standalone="yes"?>
<!DOCTYPE earthquake SYSTEM "stationlist.dtd">
<stationlist created="" xmlns="ch.ethz.sed.shakemap.usgs.xml">
  <station code="PSAM" name="PSAM" netid="CL" insttype="CMG40-T" lat="38.3218" lon="22.1842">
    <comp name="00.HHN">
      <acc value="0.0059591389" flag="0"/>
      <vel value="0.0045850569" flag="0"/>
      <psa03 value="0.0183097982" flag="0"/>
      <psa10 value="0.0063686125" flag="0"/>
      <psa30 value="0.0004528629" flag="0"/>
    </comp>
    <comp name="00.HHZ">
      <acc value="0.0036853614" flag="0"/>
      <vel value="0.0021007200" flag="0"/>
      <psa03 value="0.0155560431" flag="0"/>
      <psa10 value="0.0021286417" flag="0"/>
      <psa30 value="0.0002261452" flag="0"/>
    </comp>
    <comp name="00.HHE">
      <acc value="0.0069566881" flag="0"/>
      <vel value="0.0057761238" flag="0"/>
      <psa03 value="0.0241153789" flag="0"/>
      <psa10 value="0.0047045821" flag="0"/>
      <psa30 value="0.0006910985" flag="0"/>
    </comp>
  </station>
</stationlist>
