<?xml version="1.0" encoding="UTF-8" standalone="yes"?>
<!DOCTYPE earthquake SYSTEM "stationlist.dtd">
<stationlist created="" xmlns="ch.ethz.sed.shakemap.usgs.xml">
  <station code="KEMT" name="KEMT" netid="KO" insttype="CMG-5T" commtype="DIG" lat="36.6037" lon="30.5558">
    <comp name="--.HNE">
      <acc value="0.0575431176" flag="0"/>
      <vel value="0.0217956434" flag="0"/>
      <psa03 value="0.1623247214" flag="0"/>
      <psa10 value="0.0110147427" flag="0"/>
      <psa30 value="0.0010035873" flag="0"/>
    </comp>
    <comp name="--.HNN">
      <acc value="0.6287885704" flag="0"/>
      <vel value="1.9822602101" flag="0"/>
      <psa03 value="1.0767997896" flag="0"/>
      <psa10 value="1.0988000622" flag="0"/>
      <psa30 value="0.8942864216" flag="0"/>
    </comp>
    <comp name="--.HNZ">
      <acc value="0.0343183690" flag="0"/>
      <vel value="0.0086341338" flag="0"/>
      <psa03 value="0.0501696746" flag="0"/>
      <psa10 value="0.0057846539" flag="0"/>
      <psa30 value="0.0005580708" flag="0"/>
    </comp>
  </station>
</stationlist>
