<stationlist xmlns:esm="https://esm-db.eu/esmws/shakemap/1/" created="1783994255">
	<station code="ARG2" name="ARG2" netid="HI" source="ITSAK Strong Motion Network" insttype="" lat="38.1783" lon="20.4878" esm:processing="manual (Paolucci et al 2011)" esm:quality="best">
		<comp name="--.HNE" depth="0.0">
			<acc value="0.167410965578677" flag="0"/>
			<vel value="0.05829157455926" flag="0"/>
			<psa03 value="0.276234028315222" flag="0"/>
			<psa10 value="0.0325499212725461" flag="0"/>
			<psa30 value="0.00240236706169517" flag="0"/>
		</comp>
		<comp name="--.HNN" depth="0.0">
			<acc value="0.172774464110252" flag="0"/>
			<vel value="0.0553892751332654" flag="0"/>
			<psa03 value="0.274949880746892" flag="0"/>
			<psa10 value="0.046157588963556" flag="0"/>
			<psa30 value="0.00193117126395378" flag="0"/>
		</comp>
		<comp name="--.HNZ" depth="0.0">
			<acc value="0.152523672169949" flag="0"/>
			<vel value="0.0432383974207739" flag="0"/>
			<psa03 value="0.266371666648945" flag="0"/>
			<psa10 value="0.0284325497669002" flag="0"/>
			<psa30 value="0.00110278597082585" flag="0"/>
		</comp>
	</station>
	<station code="KLV1" name="KLV1" netid="HI" source="ITSAK Strong Motion Network" insttype="" lat="38.03256" lon="22.10797" esm:processing="manual (Paolucci et al 2011)" esm:quality="good">
		<comp name="--.HNE" depth="0.0">
			<acc value="0.0146384217977405" flag="0"/>
			<vel value="0.0115686061755874" flag="0"/>
			<psa03 value="0.0433999404197236" flag="0"/>
			<psa10 value="0.0114924831919693" flag="0"/>
			<psa30 value="0.000891712177902156" flag="0"/>
		</comp>
		<comp name="--.HNN" depth="0.0">
			<acc value="0.0140322393961291" flag="0"/>
			<vel value="0.00922196548733072" flag="0"/>
			<psa03 value="0.0477846766683142" flag="0"/>
			<psa10 value="0.0121126101756985" flag="0"/>
			<psa30 value="0.000972695571881228" flag="0"/>
		</comp>
		<comp name="--.HNZ" depth="0.0">
			<acc value="0.00763158983362791" flag="0"/>
			<vel value="0.0053519499490128" flag="0"/>
			<psa03 value="0.0144069905310835" flag="0"/>
			<psa10 value="0.0139448035367168" flag="0"/>
			<psa30 value="0.000580306419838984" flag="0"/>
		</comp>
	</station>
	<station code="KRI1" name="KRI1" netid="HI" source="ITSAK Strong Motion Network" insttype="" lat="37.6621" lon="20.8172" esm:processing="manual (Paolucci et al 2011)" esm:quality="good">
		<comp name="--.HNE" depth="0.0">
			<acc value="1.55197519196097" flag="0"/>
			<vel value="0.496036758629789" flag="0"/>
			<psa03 value="2.32458134485231" flag="0"/>
			<psa10 value="0.157238431562725" flag="0"/>
			<psa30 value="0.0199169932761237" flag="0"/>
		</comp>
		<comp name="--.HNN" depth="0.0">
			<acc value="1.16482256589011" flag="0"/>
			<vel value="0.470369109927529" flag="0"/>
			<psa03 value="2.04131843475203" flag="0"/>
			<psa10 value="0.27927056300373" flag="0"/>
			<psa30 value="0.0288931747678813" flag="0"/>
		</comp>
		<comp name="--.HNZ" depth="0.0">
			<acc value="0.846778544722973" flag="0"/>
			<vel value="0.215780520606341" flag="0"/>
			<psa03 value="0.793592518788286" flag="0"/>
			<psa10 value="0.0720837216606314" flag="0"/>
			<psa30 value="0.00519143823391807" flag="0"/>
		</comp>
	</station>
	<station code="ARTB" name="ARTB" netid="HL" source="National Observatory of Athens Seismic Network" insttype="" lat="39.15702" lon="20.9785" esm:processing="manual (Paolucci et al 2011)" esm:quality="good">
		<comp name="00.HNE" depth="0.0">
			<acc value="0.0180569036800393" flag="0"/>
			<vel value="0.00798087631631004" flag="0"/>
			<psa03 value="0.0604289822903487" flag="0"/>
			<psa10 value="0.00445728980483414" flag="0"/>
			<psa30 value="0.000513488964039237" flag="0"/>
		</comp>
		<comp name="00.HNN" depth="0.0">
			<acc value="0.0152677305122996" flag="0"/>
			<vel value="0.00658103814114994" flag="0"/>
			<psa03 value="0.0479202265630906" flag="0"/>
			<psa10 value="0.00541430163964538" flag="0"/>
			<psa30 value="0.000637025428975642" flag="0"/>
		</comp>
		<comp name="00.HNZ" depth="0.0">
			<acc value="0.0110829555976826" flag="0"/>
			<vel value="0.00366073077644651" flag="0"/>
			<psa03 value="0.0124872477918071" flag="0"/>
			<psa10 value="0.00285842646610169" flag="0"/>
			<psa30 value="0.000688352162452795" flag="0"/>
		</comp>
	</station>
	<station code="ITM" name="ITM" netid="HL" source="National Observatory of Athens Seismic Network" insttype="" lat="37.17872" lon="21.92522" esm:processing="manual (Paolucci et al 2011)" esm:quality="best">
		<comp name="--.HNE" depth="0.0">
			<acc value="0.00652704723526643" flag="0"/>
			<vel value="0.00478901961022915" flag="0"/>
			<psa03 value="0.0144069905310835" flag="0"/>
			<psa10 value="0.00552879447181984" flag="0"/>
			<psa30 value="0.00108455108842691" flag="0"/>
		</comp>
		<comp name="--.HNN" depth="0.0">
			<acc value="0.00766742800158357" flag="0"/>
			<vel value="0.00493216756201284" flag="0"/>
			<psa03 value="0.0186575001598193" flag="0"/>
			<psa10 value="0.00874620654973976" flag="0"/>
			<psa30 value="0.000974932682212141" flag="0"/>
		</comp>
		<comp name="--.HNZ" depth="0.0">
			<acc value="0.00568149469051757" flag="0"/>
			<vel value="0.0039908377224453" flag="0"/>
			<psa03 value="0.0096643166295467" flag="0"/>
			<psa10 value="0.00467108637094757" flag="0"/>
			<psa30 value="0.00131542087457719" flag="0"/>
		</comp>
	</station>
	<station code="KIAA" name="KIAA" netid="HL" source="National Observatory of Athens Seismic Network" insttype="" lat="38.0139" lon="22.7495" esm:processing="manual (Paolucci et al 2011)" esm:quality="good">
		<comp name="00.HNE" depth="0.0">
			<acc value="0.0150531814518465" flag="0"/>
			<vel value="0.0136269030028067" flag="0"/>
			<psa03 value="0.0311454278150935" flag="0"/>
			<psa10 value="0.026016157817785" flag="0"/>
			<psa30 value="0.00390767928124016" flag="0"/>
		</comp>
		<comp name="00.HNN" depth="0.0">
			<acc value="0.0141025463367946" flag="0"/>
			<vel value="0.0134410084712204" flag="0"/>
			<psa03 value="0.0357480999070166" flag="0"/>
			<psa10 value="0.0284424222958759" flag="0"/>
			<psa30 value="0.00456507449709715" flag="0"/>
		</comp>
		<comp name="00.HNZ" depth="0.0">
			<acc value="0.00838039355060173" flag="0"/>
			<vel value="0.00620537008273754" flag="0"/>
			<psa03 value="0.0235498230810431" flag="0"/>
			<psa10 value="0.0119819837476378" flag="0"/>
			<psa30 value="0.00147533742136366" flag="0"/>
		</comp>
	</station>
	<station code="NPLA" name="NPLA" netid="HL" source="National Observatory of Athens Seismic Network" insttype="" lat="37.56561" lon="22.79975" esm:processing="manual (Paolucci et al 2011)" esm:quality="bad">
		<comp name="00.HNE" depth="0.0">
			<acc value="0.00521087418453835" flag="0"/>
			<vel value="0.00325072127636608" flag="0"/>
			<psa03 value="0.0238986013942345" flag="0"/>
			<psa10 value="0.00289456550075787" flag="0"/>
			<psa30 value="0.000433881216459363" flag="0"/>
		</comp>
		<comp name="00.HNN" depth="0.0">
			<acc value="0.00517757866700124" flag="0"/>
			<vel value="0.00260351547725743" flag="0"/>
			<psa03 value="0.0249625442710621" flag="0"/>
			<psa10 value="0.00335624991321155" flag="0"/>
			<psa30 value="0.00053957933823461" flag="0"/>
		</comp>
		<comp name="00.HNZ" depth="0.0">
			<acc value="0.0034170413026155" flag="0"/>
			<vel value="0.00174406026445139" flag="0"/>
			<psa03 value="0.00453972488813614" flag="0"/>
			<psa10 value="0.00221826585547676" flag="0"/>
			<psa30 value="0.000454813931274527" flag="0"/>
		</comp>
	</station>
	<station code="PATC" name="PATC" netid="HL" source="National Observatory of Athens Seismic Network" insttype="" lat="38.26933" lon="21.76001" esm:processing="manual (Paolucci et al 2011)" esm:quality="best">
		<comp name="00.HNE" depth="0.0">
			<acc value="0.0384252469530813" flag="0"/>
			<vel value="0.0229979484495763" flag="0"/>
			<psa03 value="0.166485750826589" flag="0"/>
			<psa10 value="0.0302130698631204" flag="0"/>
			<psa30 value="0.00439815891057611" flag="0"/>
		</comp>
		<comp name="00.HNN" depth="0.0">
			<acc value="0.0310633156103456" flag="0"/>
			<vel value="0.0211062366062913" flag="0"/>
			<psa03 value="0.121519833175226" flag="0"/>
			<psa10 value="0.0229326180021952" flag="0"/>
			<psa30 value="0.00329213156297243" flag="0"/>
		</comp>
		<comp name="00.HNZ" depth="0.0">
			<acc value="0.0197925203343288" flag="0"/>
			<vel value="0.0172155802466515" flag="0"/>
			<psa03 value="0.0698425845311222" flag="0"/>
			<psa10 value="0.0224936969552699" flag="0"/>
			<psa30 value="0.00131452603044482" flag="0"/>
		</comp>
	</station>
	<station code="PATG" name="PATG" netid="HL" source="National Observatory of Athens Seismic Network" insttype="" lat="38.23865" lon="21.72657" esm:processing="manual (Paolucci et al 2011)" esm:quality="good">
		<comp name="00.HNE" depth="0.0">
			<acc value="0.0433225563445907" flag="0"/>
			<vel value="0.0384080373037111" flag="0"/>
			<psa03 value="0.0960167754028112" flag="0"/>
			<psa10 value="0.0388263920592039" flag="0"/>
			<psa30 value="0.00278878173851688" flag="0"/>
		</comp>
		<comp name="00.HNN" depth="0.0">
			<acc value="0.0836486043590898" flag="0"/>
			<vel value="0.0535190511117355" flag="0"/>
			<psa03 value="0.161608850305198" flag="0"/>
			<psa10 value="0.0334264551424446" flag="0"/>
			<psa30 value="0.00780214599009423" flag="0"/>
		</comp>
		<comp name="00.HNZ" depth="0.0">
			<acc value="0.0288931329282834" flag="0"/>
			<vel value="0.0139625180897001" flag="0"/>
			<psa03 value="0.0784778304084487" flag="0"/>
			<psa10 value="0.0301244802940162" flag="0"/>
			<psa30 value="0.00370554955212527" flag="0"/>
		</comp>
	</station>
	<station code="PRGA" name="PRGA" netid="HL" source="National Observatory of Athens Seismic Network" insttype="" lat="39.28557" lon="20.40157" esm:processing="manual (Paolucci et al 2011)" esm:quality="bad">
		<comp name="00.HNE" depth="0.0">
			<acc value="0.0270340751910294" flag="0"/>
			<vel value="0.0133611072427371" flag="0"/>
			<psa03 value="0.0930575187703606" flag="0"/>
			<psa10 value="0.013253820500542" flag="0"/>
			<psa30 value="0.00104734136038976" flag="0"/>
		</comp>
		<comp name="00.HNN" depth="0.0">
			<acc value="0.026564398810874" flag="0"/>
			<vel value="0.0120403428071615" flag="0"/>
			<psa03 value="0.0569801496550841" flag="0"/>
			<psa10 value="0.0102192760393697" flag="0"/>
			<psa30 value="0.000985961773461852" flag="0"/>
		</comp>
		<comp name="00.HNZ" depth="0.0">
			<acc value="0.0211123255517381" flag="0"/>
			<vel value="0.00271038019459928" flag="0"/>
			<psa03 value="0.0145871551295381" flag="0"/>
			<psa10 value="0.00295220681921298" flag="0"/>
			<psa30 value="0.000852897021076353" flag="0"/>
		</comp>
	</station>
	<station code="SMHA" name="SMHA" netid="HL" source="National Observatory of Athens Seismic Network" insttype="" lat="38.25123" lon="20.6477" esm:processing="manual (Paolucci et al 2011)" esm:quality="best">
		<comp name="00.HNE" depth="0.0">
			<acc value="0.330816179533087" flag="0"/>
			<vel value="0.0921525135735256" flag="0"/>
			<psa03 value="0.597292401024735" flag="0"/>
			<psa10 value="0.0667201223807103" flag="0"/>
			<psa30 value="0.00361577702748493" flag="0"/>
		</comp>
		<comp name="00.HNN" depth="0.0">
			<acc value="0.438281581561502" flag="0"/>
			<vel value="0.135200104219331" flag="0"/>
			<psa03 value="1.00857547984289" flag="0"/>
			<psa10 value="0.0515511925133634" flag="0"/>
			<psa30 value="0.00374608982673075" flag="0"/>
		</comp>
		<comp name="00.HNZ" depth="0.0">
			<acc value="0.172635044161076" flag="0"/>
			<vel value="0.0484485533052884" flag="0"/>
			<psa03 value="0.378049127232655" flag="0"/>
			<psa10 value="0.0342163891678604" flag="0"/>
			<psa30 value="0.00177648893367106" flag="0"/>
		</comp>
	</station>
	<station code="VELA" name="VELA" netid="HL" source="National Observatory of Athens Seismic Network" insttype="" lat="37.974944" lon="22.766063" esm:processing="manual (Paolucci et al 2011)" esm:quality="good">
		<comp name="00.HNE" depth="0.0">
			<acc value="0.0151648256515109" flag="0"/>
			<vel value="0.0188611880197643" flag="0"/>
			<psa03 value="0.0315013915000933" flag="0"/>
			<psa10 value="0.0248967049095049" flag="0"/>
			<psa30 value="0.00324058446448127" flag="0"/>
		</comp>
		<comp name="00.HNN" depth="0.0">
			<acc value="0.0135553101337488" flag="0"/>
			<vel value="0.0121282300670588" flag="0"/>
			<psa03 value="0.0474798432231811" flag="0"/>
			<psa10 value="0.0179387921069571" flag="0"/>
			<psa30 value="0.00367501261821562" flag="0"/>
		</comp>
		<comp name="00.HNZ" depth="0.0">
			<acc value="0.00661399098338677" flag="0"/>
			<vel value="0.00741693104192079" flag="0"/>
			<psa03 value="0.0165694752505683" flag="0"/>
			<psa10 value="0.0151330203008235" flag="0"/>
			<psa30 value="0.00113313704393585" flag="0"/>
		</comp>
	</station>
	<station code="ZARA" name="ZARA" netid="HL" source="National Observatory of Athens Seismic Network" insttype="" lat="37.4865" lon="21.6491" esm:processing="manual (Paolucci et al 2011)" esm:quality="best">
		<comp name="00.HNE" depth="0.0">
			<acc value="0.0348090547956556" flag="0"/>
			<vel value="0.019228423665531" flag="0"/>
			<psa03 value="0.0835088393424876" flag="0"/>
			<psa10 value="0.0258159526801553" flag="0"/>
			<psa30 value="0.00287470397669639" flag="0"/>
		</comp>
		<comp name="00.HNN" depth="0.0">
			<acc value="0.0459075376793512" flag="0"/>
			<vel value="0.0235716419751689" flag="0"/>
			<psa03 value="0.0792596568132371" flag="0"/>
			<psa10 value="0.0272867738648558" flag="0"/>
			<psa30 value="0.0019477296525285" flag="0"/>
		</comp>
		<comp name="00.HNZ" depth="0.0">
			<acc value="0.0217406844898958" flag="0"/>
			<vel value="0.0088360228507157" flag="0"/>
			<psa03 value="0.0467480343280369" flag="0"/>
			<psa10 value="0.0126588857765516" flag="0"/>
			<psa30 value="0.00130590817667304" flag="0"/>
		</comp>
	</station>
	<station code="ANX" name="ANX" netid="HP" source="University of Patras, Seismological Laboratory (PSLNET)" insttype="" lat="38.5933" lon="21.9209" esm:processing="manual (Paolucci et al 2011)" esm:quality="best">
		<comp name="--.HNE" depth="0.0">
			<acc value="0.0231723461227878" flag="0"/>
			<vel value="0.0158682895654629" flag="0"/>
			<psa03 value="0.0808491673592171" flag="0"/>
			<psa10 value="0.0129058894990405" flag="0"/>
			<psa30 value="0.00132615900416557" flag="0"/>
		</comp>
		<comp name="--.HNN" depth="0.0">
			<acc value="0.0234575538866092" flag="0"/>
			<vel value="0.0141421925085279" flag="0"/>
			<psa03 value="0.0652788794560585" flag="0"/>
			<psa10 value="0.0161917571530864" flag="0"/>
			<psa30 value="0.00118790558571511" flag="0"/>
		</comp>
		<comp name="--.HNZ" depth="0.0">
			<acc value="0.0105678800340059" flag="0"/>
			<vel value="0.00668117455449295" flag="0"/>
			<psa03 value="0.0337356237901769" flag="0"/>
			<psa10 value="0.00850862543259674" flag="0"/>
			<psa30 value="0.000692161936384664" flag="0"/>
		</comp>
	</station>
	<station code="LTHK" name="LTHK" netid="HP" source="University of Patras, Seismological Laboratory (PSLNET)" insttype="" lat="37.7095" lon="20.8367" esm:processing="manual (Paolucci et al 2011)" esm:quality="best">
		<comp name="--.HNE" depth="0.0">
			<acc value="3.59567449889721" flag="0"/>
			<vel value="0.599694128260359" flag="0"/>
			<psa03 value="1.34034228366357" flag="0"/>
			<psa10 value="0.165436993503457" flag="0"/>
			<psa30 value="0.0123076861965542" flag="0"/>
		</comp>
		<comp name="--.HNN" depth="0.0">
			<acc value="3.8180659068881" flag="0"/>
			<vel value="0.784585903206991" flag="0"/>
			<psa03 value="2.17541082798699" flag="0"/>
			<psa10 value="0.146680165644945" flag="0"/>
			<psa30 value="0.0125806136569257" flag="0"/>
		</comp>
		<comp name="--.HNZ" depth="0.0">
			<acc value="1.8990192085139" flag="0"/>
			<vel value="0.320679353387301" flag="0"/>
			<psa03 value="1.09931601661094" flag="0"/>
			<psa10 value="0.0623348422605762" flag="0"/>
			<psa30 value="0.00424603540807399" flag="0"/>
		</comp>
	</station>
	<station code="PVO" name="PVO" netid="HP" source="University of Patras, Seismological Laboratory (PSLNET)" insttype="" lat="38.616" lon="21.525" esm:processing="manual (Paolucci et al 2011)" esm:quality="best">
		<comp name="--.HNE" depth="0.0">
			<acc value="0.0120309199138815" flag="0"/>
			<vel value="0.0051037600391548" flag="0"/>
			<psa03 value="0.0272793539983372" flag="0"/>
			<psa10 value="0.00403529356837749" flag="0"/>
			<psa30 value="0.00054769393828372" flag="0"/>
		</comp>
		<comp name="--.HNN" depth="0.0">
			<acc value="0.0127419337693419" flag="0"/>
			<vel value="0.00561321529929142" flag="0"/>
			<psa03 value="0.036451831421621" flag="0"/>
			<psa10 value="0.00366343252817685" flag="0"/>
			<psa30 value="0.000383651821300224" flag="0"/>
		</comp>
		<comp name="--.HNZ" depth="0.0">
			<acc value="0.00628284742838085" flag="0"/>
			<vel value="0.00277617327451512" flag="0"/>
			<psa03 value="0.0202820818696473" flag="0"/>
			<psa10 value="0.00231700286506988" flag="0"/>
			<psa30 value="0.000369421086917236" flag="0"/>
		</comp>
	</station>
	<station code="SERG" name="SERG" netid="HP" source="University of Patras, Seismological Laboratory (PSLNET)" insttype="" lat="38.4133" lon="22.0566" esm:processing="manual (Paolucci et al 2011)" esm:quality="best">
		<comp name="--.HNE" depth="0.0">
			<acc value="0.0185915801036335" flag="0"/>
			<vel value="0.00778712328500756" flag="0"/>
			<psa03 value="0.0491222853601986" flag="0"/>
			<psa10 value="0.00527809214770658" flag="0"/>
			<psa30 value="0.000736806934845478" flag="0"/>
		</comp>
		<comp name="--.HNN" depth="0.0">
			<acc value="0.0242626656940727" flag="0"/>
			<vel value="0.0115818892452837" flag="0"/>
			<psa03 value="0.0692346906250651" flag="0"/>
			<psa10 value="0.00599852424779724" flag="0"/>
			<psa30 value="0.00106913342900917" flag="0"/>
		</comp>
		<comp name="--.HNZ" depth="0.0">
			<acc value="0.0102963755991343" flag="0"/>
			<vel value="0.00423261673565665" flag="0"/>
			<psa03 value="0.0262256435701599" flag="0"/>
			<psa10 value="0.00391782406786571" flag="0"/>
			<psa30 value="0.000465686526531429" flag="0"/>
		</comp>
	</station>
	<station code="AGRP" name="AGRP" netid="CL" source="Corinth Riff Laboratory (CRLNET)" insttype="" lat="38.3959" lon="21.72277" esm:processing="discarded" esm:quality="bad">
		<comp name="00.HNE" depth="0.0">
			<acc value="0" flag="1"/>
			<vel value="0" flag="1"/>
			<psa03 value="0" flag="1"/>
			<psa10 value="0" flag="1"/>
			<psa30 value="0" flag="1"/>
		</comp>
		<comp name="00.HNN" depth="0.0">
			<acc value="0" flag="1"/>
			<vel value="0" flag="1"/>
			<psa03 value="0" flag="1"/>
			<psa10 value="0" flag="1"/>
			<psa30 value="0" flag="1"/>
		</comp>
		<comp name="00.HNZ" depth="0.0">
			<acc value="0" flag="1"/>
			<vel value="0" flag="1"/>
			<psa03 value="0" flag="1"/>
			<psa10 value="0" flag="1"/>
			<psa30 value="0" flag="1"/>
		</comp>
	</station>
	<station code="ARS1" name="ARS1" netid="HI" source="ITSAK Strong Motion Network" insttype="" lat="37.6349" lon="22.7293" esm:processing="discarded" esm:quality="bad">
		<comp name="--.HNE" depth="0.0">
			<acc value="0" flag="1"/>
			<vel value="0" flag="1"/>
			<psa03 value="0" flag="1"/>
			<psa10 value="0" flag="1"/>
			<psa30 value="0" flag="1"/>
		</comp>
		<comp name="--.HNN" depth="0.0">
			<acc value="0" flag="1"/>
			<vel value="0" flag="1"/>
			<psa03 value="0" flag="1"/>
			<psa10 value="0" flag="1"/>
			<psa30 value="0" flag="1"/>
		</comp>
		<comp name="--.HNZ" depth="0.0">
			<acc value="0" flag="1"/>
			<vel value="0" flag="1"/>
			<psa03 value="0" flag="1"/>
			<psa10 value="0" flag="1"/>
			<psa30 value="0" flag="1"/>
		</comp>
	</station>
	<station code="LAM2" name="LAM2" netid="HI" source="ITSAK Strong Motion Network" insttype="" lat="38.90203" lon="22.431301" esm:processing="discarded" esm:quality="bad">
		<comp name="--.HNE" depth="0.0">
			<acc value="0" flag="1"/>
			<vel value="0" flag="1"/>
