<?xml version="1.0" encoding="UTF-8" standalone="yes"?>
<!DOCTYPE earthquake SYSTEM "stationlist.dtd">
<stationlist created="" xmlns="ch.ethz.sed.shakemap.usgs.xml">
  <station code="ARG2" name="ARG2" netid="HI" source="NOA" insttype="CMG-5TD,ACCELEROMETER,GURALP" lat="38.1783" lon="20.4878">
    <comp name="--.HNE">
      <acc value="0.1669650596" flag="0"/>
      <vel value="0.0577954616" flag="0"/>
      <psa03 value="0.2714868150" flag="0"/>
      <psa10 value="0.0324346081" flag="0"/>
      <psa30 value="0.0021882321" flag="0"/>
    </comp>
    <comp name="--.HNN">
      <acc value="0.1710687257" flag="0"/>
      <vel value="0.0557186037" flag="0"/>
      <psa03 value="0.2705482027" flag="0"/>
      <psa10 value="0.0459713094" flag="0"/>
      <psa30 value="0.0019086671" flag="0"/>
    </comp>
    <comp name="--.HNZ">
      <acc value="0.1544168788" flag="0"/>
      <vel value="0.0441077891" flag="0"/>
      <psa03 value="0.2628865568" flag="0"/>
      <psa10 value="0.0284062476" flag="0"/>
      <psa30 value="0.0010888468" flag="0"/>
    </comp>
  </station>
  <station code="KRI1" name="KRI1" netid="HI" source="NOA" insttype="CMG-5TD,ACCELEROMETER,GURALP" lat="37.6621" lon="20.8172">
    <comp name="--.HNE">
      <acc value="1.5603531941" flag="0"/>
      <vel value="0.4920187335" flag="0"/>
      <psa03 value="2.3523738735" flag="0"/>
      <psa10 value="0.1563714636" flag="0"/>
      <psa30 value="0.0203166943" flag="0"/>
    </comp>
    <comp name="--.HNN">
      <acc value="1.1574061770" flag="0"/>
      <vel value="0.4621248061" flag="0"/>
      <psa03 value="2.0187390852" flag="0"/>
      <psa10 value="0.2785971921" flag="0"/>
      <psa30 value="0.0290905176" flag="0"/>
    </comp>
    <comp name="--.HNZ">
      <acc value="0.8818628528" flag="0"/>
      <vel value="0.2097682360" flag="0"/>
      <psa03 value="0.7837336621" flag="0"/>
      <psa10 value="0.0718236799" flag="0"/>
      <psa30 value="0.0050516512" flag="0"/>
    </comp>
  </station>
  <station code="ITM" name="ITM" netid="HL" source="NOA" insttype="DR24" lat="37.1787" lon="21.9252">
    <comp name="--.HHE">
      <acc value="0.0066641821" flag="0"/>
      <vel value="0.0049211584" flag="0"/>
      <psa03 value="0.0144842122" flag="0"/>
      <psa10 value="0.0055566916" flag="0"/>
      <psa30 value="0.0009627929" flag="0"/>
    </comp>
    <comp name="--.HHN">
      <acc value="0.0077509895" flag="0"/>
      <vel value="0.0050565797" flag="0"/>
      <psa03 value="0.0189882445" flag="0"/>
      <psa10 value="0.0089349405" flag="0"/>
      <psa30 value="0.0009112503" flag="0"/>
    </comp>
    <comp name="--.HHZ">
      <acc value="0.0061134258" flag="0"/>
      <vel value="0.0038821503" flag="0"/>
      <psa03 value="0.0101115659" flag="0"/>
      <psa10 value="0.0049619392" flag="0"/>
      <psa30 value="0.0012022689" flag="0"/>
    </comp>
  </station>
  <station code="ORTH" name="ORTH" netid="HL" source="NOA" insttype="30" lat="37.8511" lon="20.6963">
    <comp name="--.HHE">
      <acc value="1.2985558092" flag="0"/>
      <vel value="0.5396957945" flag="0"/>
      <psa03 value="2.9836004833" flag="0"/>
      <psa10 value="0.1267124145" flag="0"/>
      <psa30 value="0.0127186367" flag="0"/>
    </comp>
    <comp name="--.HHN">
      <acc value="1.6287467644" flag="0"/>
      <vel value="0.7845023270" flag="0"/>
      <psa03 value="3.8529860003" flag="0"/>
      <psa10 value="0.1826739428" flag="0"/>
      <psa30 value="0.0164288933" flag="0"/>
    </comp>
    <comp name="--.HHZ">
      <acc value="0.5489293391" flag="0"/>
      <vel value="0.1650193049" flag="0"/>
      <psa03 value="0.9028843846" flag="0"/>
      <psa10 value="0.0358434975" flag="0"/>
      <psa30 value="0.0040544911" flag="0"/>
    </comp>
  </station>
  <station code="RLS" name="RLS" netid="HL" source="NOA" insttype="120" lat="38.0559" lon="21.4647">
    <comp name="--.HHE">
      <acc value="0.0186434474" flag="0"/>
      <vel value="0.0129886612" flag="0"/>
      <psa03 value="0.0677679206" flag="0"/>
      <psa10 value="0.0113617757" flag="0"/>
      <psa30 value="0.0008833606" flag="0"/>
    </comp>
    <comp name="--.HHN">
      <acc value="0.0263116004" flag="0"/>
      <vel value="0.0121677347" flag="0"/>
      <psa03 value="0.0680375676" flag="0"/>
      <psa10 value="0.0148255998" flag="0"/>
      <psa30 value="0.0006944480" flag="0"/>
    </comp>
    <comp name="--.HHZ">
      <acc value="0.0133176141" flag="0"/>
      <vel value="0.0052471323" flag="0"/>
      <psa03 value="0.0317606757" flag="0"/>
      <psa10 value="0.0053857950" flag="0"/>
      <psa30 value="0.0006229921" flag="0"/>
    </comp>
  </station>
  <station code="VLS" name="VLS" netid="HL" source="NOA" insttype="120P," lat="38.1768" lon="20.5886">
    <comp name="--.HHZ">
      <acc value="0.1219390701" flag="0"/>
      <vel value="0.0228093477" flag="0"/>
      <psa03 value="0.1335837928" flag="0"/>
      <psa10 value="0.0132759457" flag="0"/>
      <psa30 value="0.0007604712" flag="0"/>
    </comp>
    <comp name="--.HHE">
      <acc value="0.3369150502" flag="0"/>
      <vel value="0.0413968890" flag="0"/>
      <psa03 value="0.1843037239" flag="0"/>
      <psa10 value="0.0159941431" flag="0"/>
      <psa30 value="0.0009457656" flag="0"/>
    </comp>
    <comp name="--.HHN">
      <acc value="0.2452410956" flag="0"/>
      <vel value="0.0472195980" flag="0"/>
      <psa03 value="0.2633476585" flag="0"/>
      <psa10 value="0.0255372506" flag="0"/>
      <psa30 value="0.0016602309" flag="0"/>
    </comp>
  </station>
  <station code="AMT" name="AMT" netid="HP" source="NOA" insttype="CMG-3T," lat="37.5324" lon="21.7089">
    <comp name="00.HHE">
      <acc value="0.0428201117" flag="0"/>
      <vel value="0.0227672621" flag="0"/>
      <psa03 value="0.0678457649" flag="0"/>
      <psa10 value="0.0247840748" flag="0"/>
      <psa30 value="0.0014361893" flag="0"/>
    </comp>
    <comp name="00.HHN">
      <acc value="0.0354482217" flag="0"/>
      <vel value="0.0168391078" flag="0"/>
      <psa03 value="0.0468141185" flag="0"/>
      <psa10 value="0.0198586816" flag="0"/>
      <psa30 value="0.0020855832" flag="0"/>
    </comp>
    <comp name="00.HHZ">
      <acc value="0.0292370668" flag="0"/>
      <vel value="0.0125330677" flag="0"/>
      <psa03 value="0.0380859723" flag="0"/>
      <psa10 value="0.0131982785" flag="0"/>
      <psa30 value="0.0007805726" flag="0"/>
    </comp>
  </station>
  <station code="AXS" name="AXS" netid="HP" source="NOA" insttype="40," lat="38.1962" lon="21.3763">
    <comp name="--.HHE">
      <acc value="0.0155940531" flag="0"/>
      <vel value="0.0082772827" flag="0"/>
      <psa03 value="0.0382626128" flag="0"/>
      <psa10 value="0.0093336004" flag="0"/>
      <psa30 value="0.0005012725" flag="0"/>
    </comp>
    <comp name="--.HHN">
      <acc value="0.0316279501" flag="0"/>
      <vel value="0.0146179442" flag="0"/>
      <psa03 value="0.1016924473" flag="0"/>
      <psa10 value="0.0113797880" flag="0"/>
      <psa30 value="0.0008454162" flag="0"/>
    </comp>
    <comp name="--.HHZ">
      <acc value="0.0133789356" flag="0"/>
      <vel value="0.0052453757" flag="0"/>
      <psa03 value="0.0248760725" flag="0"/>
      <psa10 value="0.0052844836" flag="0"/>
      <psa30 value="0.0004007274" flag="0"/>
    </comp>
  </station>
  <station code="DRO" name="DRO" netid="HP" source="NOA" insttype="120P," lat="37.952" lon="21.71">
    <comp name="--.HHE">
      <acc value="0.0276190307" flag="0"/>
      <vel value="0.0149607153" flag="0"/>
      <psa03 value="0.1016370371" flag="0"/>
      <psa10 value="0.0203160940" flag="0"/>
      <psa30 value="0.0015060894" flag="0"/>
    </comp>
    <comp name="--.HHN">
      <acc value="0.0320010442" flag="0"/>
      <vel value="0.0136009190" flag="0"/>
      <psa03 value="0.0862141980" flag="0"/>
      <psa10 value="0.0181016279" flag="0"/>
      <psa30 value="0.0012489557" flag="0"/>
    </comp>
    <comp name="--.HHZ">
      <acc value="0.0147616685" flag="0"/>
      <vel value="0.0068991189" flag="0"/>
      <psa03 value="0.0292892713" flag="0"/>
      <psa10 value="0.0120528677" flag="0"/>
      <psa30 value="0.0006650998" flag="0"/>
    </comp>
  </station>
  <station code="FSK" name="FSK" netid="HP" source="NOA" insttype="40," lat="38.4593" lon="20.5623">
    <comp name="--.HHE">
      <acc value="0.0717856075" flag="0"/>
      <vel value="0.0264002371" flag="0"/>
      <psa03 value="0.1122292557" flag="0"/>
      <psa10 value="0.0408877782" flag="0"/>
      <psa30 value="0.0023460010" flag="0"/>
    </comp>
    <comp name="--.HHN">
      <acc value="0.0342271763" flag="0"/>
      <vel value="0.0214428167" flag="0"/>
      <psa03 value="0.0584290446" flag="0"/>
      <psa10 value="0.0302015666" flag="0"/>
      <psa30 value="0.0018353030" flag="0"/>
    </comp>
    <comp name="--.HHZ">
      <acc value="0.0459466161" flag="0"/>
      <vel value="0.0149120590" flag="0"/>
      <psa03 value="0.0859957974" flag="0"/>
      <psa10 value="0.0116325989" flag="0"/>
      <psa30 value="0.0008795097" flag="0"/>
    </comp>
  </station>
  <station code="DMLN" name="DMLN" netid="HT" source="NOA" insttype="1s-100Hz," lat="38.2385" lon="20.3734">
    <comp name="--.HHN">
      <acc value="0.1729499950" flag="0"/>
      <vel value="0.0675783272" flag="0"/>
      <psa03 value="0.3016950964" flag="0"/>
      <psa10 value="0.0547212898" flag="0"/>
      <psa30 value="0.0028114749" flag="0"/>
    </comp>
    <comp name="--.HHZ">
      <acc value="0.1474990679" flag="0"/>
      <vel value="0.0469472110" flag="0"/>
      <psa03 value="0.1903366194" flag="0"/>
      <psa10 value="0.0243990724" flag="0"/>
      <psa30 value="0.0014723969" flag="0"/>
    </comp>
    <comp name="--.HHE">
      <acc value="0.1501930057" flag="0"/>
      <vel value="0.0655405253" flag="0"/>
      <psa03 value="0.2509153420" flag="0"/>
      <psa10 value="0.0570115873" flag="0"/>
      <psa30 value="0.0037654967" flag="0"/>
    </comp>
  </station>
  <station code="EVGI" name="EVGI" netid="HT" source="NOA" insttype="30" lat="38.621" lon="20.656">
    <comp name="--.HHE">
      <acc value="0.1176303267" flag="0"/>
      <vel value="0.0269284610" flag="0"/>
      <psa03 value="0.1269037593" flag="0"/>
      <psa10 value="0.0098236678" flag="0"/>
      <psa30 value="0.0008417516" flag="0"/>
    </comp>
    <comp name="--.HHZ">
      <acc value="0.0921433431" flag="0"/>
      <vel value="0.0216503681" flag="0"/>
      <psa03 value="0.1221716562" flag="0"/>
      <psa10 value="0.0106306437" flag="0"/>
      <psa30 value="0.0007120788" flag="0"/>
    </comp>
  </station>
  <station code="PSDA" name="PSDA" netid="HT" source="NOA" insttype="30" lat="38.114" lon="20.5841">
    <comp name="--.HHN">
      <acc value="0.3567632682" flag="0"/>
      <vel value="0.0628471851" flag="0"/>
      <psa03 value="0.4657926591" flag="0"/>
      <psa10 value="0.0395789468" flag="0"/>
      <psa30 value="0.0015823435" flag="0"/>
    </comp>
    <comp name="--.HHZ">
      <acc value="0.1962399364" flag="0"/>
      <vel value="0.0412184056" flag="0"/>
      <psa03 value="0.1971357478" flag="0"/>
      <psa10 value="0.0233159358" flag="0"/>
      <psa30 value="0.0011546203" flag="0"/>
    </comp>
    <comp name="--.HHE">
      <acc value="0.2851212951" flag="0"/>
      <vel value="0.0636126265" flag="0"/>
      <psa03 value="0.4997903868" flag="0"/>
      <psa10 value="0.0208553174" flag="0"/>
      <psa30 value="0.0016579739" flag="0"/>
    </comp>
  </station>
</stationlist>
