<?xml version="1.0" encoding="UTF-8" standalone="yes"?>
<!DOCTYPE earthquake SYSTEM "stationlist.dtd">
<stationlist created="" xmlns="ch.ethz.sed.shakemap.usgs.xml">
  <station code="KBN" name="KBN" netid="AC" insttype="" lat="40.6236" lon="20.7874">
    <comp name="--.HHZ">
      <acc value="0.0032349085" flag="0"/>
      <vel value="0.0021048261" flag="0"/>
      <psa03 value="0.0102291497" flag="0"/>
      <psa10 value="0.0036819882" flag="0"/>
      <psa30 value="0.0002780501" flag="0"/>
    </comp>
    <comp name="--.HHE">
      <acc value="0.0051593578" flag="0"/>
      <vel value="0.0030938122" flag="0"/>
      <psa03 value="0.0148043203" flag="0"/>
      <psa10 value="0.0058768768" flag="0"/>
      <psa30 value="0.0007439654" flag="0"/>
    </comp>
    <comp name="--.HHN">
      <acc value="0.0064760421" flag="0"/>
      <vel value="0.0034545254" flag="0"/>
      <psa03 value="0.0174530310" flag="0"/>
      <psa10 value="0.0051783584" flag="0"/>
      <psa30 value="0.0003730114" flag="0"/>
    </comp>
  </station>
  <station code="LSK" name="LSK" netid="AC" insttype="" lat="40.1499" lon="20.5987">
    <comp name="--.HHE">
      <acc value="0.0135774656" flag="0"/>
      <vel value="0.0071889042" flag="0"/>
      <psa03 value="0.0270195868" flag="0"/>
      <psa10 value="0.0074453566" flag="0"/>
      <psa30 value="0.0007974025" flag="0"/>
    </comp>
    <comp name="--.HHN">
      <acc value="0.0413853772" flag="0"/>
      <vel value="0.0214259795" flag="0"/>
      <psa03 value="0.0883232003" flag="0"/>
      <psa10 value="0.0280718573" flag="0"/>
      <psa30 value="0.0021583658" flag="0"/>
    </comp>
    <comp name="--.HHZ">
      <acc value="0.0198214149" flag="0"/>
      <vel value="0.0103492870" flag="0"/>
      <psa03 value="0.0389304842" flag="0"/>
      <psa10 value="0.0107289954" flag="0"/>
      <psa30 value="0.0011483562" flag="0"/>
    </comp>
  </station>
  <station code="SRN" name="SRN" netid="AC" insttype="" lat="39.88" lon="20.0005">
    <comp name="--.HHE">
      <acc value="0.0106761420" flag="0"/>
      <vel value="0.0032345162" flag="0"/>
      <psa03 value="0.0102665299" flag="0"/>
      <psa10 value="0.0031166389" flag="0"/>
      <psa30 value="0.0003530775" flag="0"/>
    </comp>
    <comp name="--.HHN">
      <acc value="0.0137221152" flag="0"/>
      <vel value="0.0038457784" flag="0"/>
      <psa03 value="0.0129054601" flag="0"/>
      <psa10 value="0.0031157992" flag="0"/>
      <psa30 value="0.0007117932" flag="0"/>
    </comp>
    <comp name="--.HHZ">
      <acc value="0.0109222986" flag="0"/>
      <vel value="0.0040999786" flag="0"/>
      <psa03 value="0.0139038826" flag="0"/>
      <psa10 value="0.0030742242" flag="0"/>
      <psa30 value="0.0006490643" flag="0"/>
    </comp>
  </station>
  <station code="KRK1" name="KRK1" netid="HI" insttype="CMG-5TD,ACCELEROMETER,GURALP" lat="39.6189" lon="19.9202">
    <comp name="--.HNE">
      <acc value="0.0494156757" flag="0"/>
      <vel value="0.0109755314" flag="0"/>
      <psa03 value="0.0369077837" flag="0"/>
      <psa10 value="0.0046710371" flag="0"/>
      <psa30 value="0.0005124902" flag="0"/>
    </comp>
    <comp name="--.HNZ">
      <acc value="0.0257862483" flag="0"/>
      <vel value="0.0062981638" flag="0"/>
      <psa03 value="0.0226320381" flag="0"/>
      <psa10 value="0.0024533318" flag="0"/>
      <psa30 value="0.0004767008" flag="0"/>
    </comp>
    <comp name="--.HNN">
      <acc value="0.0384184678" flag="0"/>
      <vel value="0.0106832115" flag="0"/>
      <psa03 value="0.0345595202" flag="0"/>
      <psa10 value="0.0052370508" flag="0"/>
      <psa30 value="0.0006864809" flag="0"/>
    </comp>
  </station>
  <station code="LMS2" name="LMS2" netid="HI" insttype="CMG-5TD,ACCELEROMETER,GURALP" lat="40.835" lon="21.1418">
    <comp name="--.HNN">
      <acc value="0.0049799498" flag="0"/>
      <vel value="0.0024763825" flag="0"/>
      <psa03 value="0.0135132507" flag="0"/>
      <psa10 value="0.0028363377" flag="0"/>
      <psa30 value="0.0001208228" flag="0"/>
    </comp>
    <comp name="--.HNE">
      <acc value="0.0062485999" flag="0"/>
      <vel value="0.0037781445" flag="0"/>
      <psa03 value="0.0178183039" flag="0"/>
      <psa10 value="0.0025238335" flag="0"/>
      <psa30 value="0.0002013742" flag="0"/>
    </comp>
    <comp name="--.HNZ">
      <acc value="0.0017336811" flag="0"/>
      <vel value="0.0011493505" flag="0"/>
      <psa03 value="0.0048647792" flag="0"/>
      <psa10 value="0.0019835932" flag="0"/>
      <psa30 value="0.0001502981" flag="0"/>
    </comp>
  </station>
  <station code="JAN" name="JAN" netid="HL" insttype="CMG3EPSC60_DR24" lat="39.6562" lon="20.8487">
    <comp name="--.HHE">
      <acc value="0.0088592129" flag="0"/>
      <vel value="0.0051127820" flag="0"/>
      <psa03 value="0.0252146416" flag="0"/>
      <psa10 value="0.0046275591" flag="0"/>
      <psa30 value="0.0005386779" flag="0"/>
    </comp>
    <comp name="--.HHN">
      <acc value="0.0067731140" flag="0"/>
      <vel value="0.0051107346" flag="0"/>
      <psa03 value="0.0273050180" flag="0"/>
      <psa10 value="0.0043872989" flag="0"/>
      <psa30 value="0.0012090678" flag="0"/>
    </comp>
    <comp name="--.HHZ">
      <acc value="0.0041406331" flag="0"/>
      <vel value="0.0025719767" flag="0"/>
      <psa03 value="0.0110759640" flag="0"/>
      <psa10 value="0.0041701079" flag="0"/>
      <psa30 value="0.0005652261" flag="0"/>
    </comp>
  </station>
  <station code="KEK" name="KEK" netid="HL" insttype="120" lat="39.7127" lon="19.7962">
    <comp name="--.HHN">
      <acc value="0.0100506521" flag="0"/>
      <vel value="0.0035608443" flag="0"/>
      <psa03 value="0.0197474192" flag="0"/>
      <psa10 value="0.0046618829" flag="0"/>
      <psa30 value="0.0003913647" flag="0"/>
    </comp>
    <comp name="--.HHE">
      <acc value="0.0171082185" flag="0"/>
      <vel value="0.0053255616" flag="0"/>
      <psa03 value="0.0186489279" flag="0"/>
      <psa10 value="0.0039336576" flag="0"/>
      <psa30 value="0.0006047737" flag="0"/>
    </comp>
    <comp name="--.HHZ">
      <acc value="0.0061428342" flag="0"/>
      <vel value="0.0034680664" flag="0"/>
      <psa03 value="0.0107046534" flag="0"/>
      <psa10 value="0.0040978169" flag="0"/>
      <psa30 value="0.0005385783" flag="0"/>
    </comp>
  </station>
  <station code="TETR" name="TETR" netid="HL" insttype="60" lat="39.3445" lon="21.2747">
    <comp name="--.HHE">
      <acc value="0.0062253046" flag="0"/>
      <vel value="0.0051257403" flag="0"/>
      <psa03 value="0.0192831087" flag="0"/>
      <psa10 value="0.0076921311" flag="0"/>
      <psa30 value="0.0007487298" flag="0"/>
    </comp>
    <comp name="--.HHZ">
      <acc value="0.0017649169" flag="0"/>
      <vel value="0.0008686933" flag="0"/>
      <psa03 value="0.0041855306" flag="0"/>
      <psa10 value="0.0007861213" flag="0"/>
      <psa30 value="0.0000760636" flag="0"/>
    </comp>
    <comp name="--.HHN">
      <acc value="0.0050732792" flag="0"/>
      <vel value="0.0032295458" flag="0"/>
      <psa03 value="0.0098561270" flag="0"/>
      <psa10 value="0.0053079611" flag="0"/>
      <psa30 value="0.0008298321" flag="0"/>
    </comp>
  </station>
  <station code="KSTR" name="KSTR" netid="HP" insttype="Compact," lat="39.2492" lon="20.576">
    <comp name="--.HHE">
      <acc value="0.0023326065" flag="0"/>
      <vel value="0.0015503510" flag="0"/>
      <psa03 value="0.0060647043" flag="0"/>
      <psa10 value="0.0026802339" flag="0"/>
      <psa30 value="0.0002883110" flag="0"/>
    </comp>
    <comp name="--.HHN">
      <acc value="0.0027383267" flag="0"/>
      <vel value="0.0010655506" flag="0"/>
      <psa03 value="0.0064810772" flag="0"/>
      <psa10 value="0.0012297124" flag="0"/>
      <psa30 value="0.0003710260" flag="0"/>
    </comp>
    <comp name="--.HHZ">
      <acc value="0.0015092448" flag="0"/>
      <vel value="0.0010523331" flag="0"/>
      <psa03 value="0.0036417293" flag="0"/>
      <psa10 value="0.0013189587" flag="0"/>
      <psa30 value="0.0004592417" flag="0"/>
    </comp>
  </station>
  <station code="KEK" name="KEK" netid="MN" insttype="" lat="39.7127" lon="19.7962">
    <comp name="--.HHN">
      <acc value="0.0100506452" flag="0"/>
      <vel value="0.0035608418" flag="0"/>
      <psa03 value="0.0197474056" flag="0"/>
      <psa10 value="0.0046618797" flag="0"/>
      <psa30 value="0.0003913644" flag="0"/>
    </comp>
    <comp name="--.HHE">
      <acc value="0.0171082066" flag="0"/>
      <vel value="0.0053255579" flag="0"/>
      <psa03 value="0.0186489150" flag="0"/>
      <psa10 value="0.0039336549" flag="0"/>
      <psa30 value="0.0006047733" flag="0"/>
    </comp>
    <comp name="--.HHZ">
      <acc value="0.0061428299" flag="0"/>
      <vel value="0.0034680640" flag="0"/>
      <psa03 value="0.0107046460" flag="0"/>
      <psa10 value="0.0040978141" flag="0"/>
      <psa30 value="0.0005385779" flag="0"/>
    </comp>
  </station>
  <station code="TIR" name="TIR" netid="MN" insttype="" lat="41.3472" lon="19.8631">
    <comp name="--.HHE">
      <acc value="0.0075828774" flag="0"/>
      <vel value="0.0048351251" flag="0"/>
      <psa03 value="0.0143520362" flag="0"/>
      <psa10 value="0.0052797584" flag="0"/>
      <psa30 value="0.0004890798" flag="0"/>
    </comp>
    <comp name="--.HHN">
      <acc value="0.0082726868" flag="0"/>
      <vel value="0.0040059555" flag="0"/>
      <psa03 value="0.0119504968" flag="0"/>
      <psa10 value="0.0042556875" flag="0"/>
      <psa30 value="0.0004502412" flag="0"/>
    </comp>
    <comp name="--.HHZ">
      <acc value="0.0045206236" flag="0"/>
      <vel value="0.0027140838" flag="0"/>
      <psa03 value="0.0112991332" flag="0"/>
      <psa10 value="0.0028981633" flag="0"/>
      <psa30 value="0.0004191022" flag="0"/>
    </comp>
  </station>
</stationlist>
