<stationlist created="1778070034">
	<station code="SIT2" name="SIT2" netid="HI" source="ITSAK Strong Motion Network" insttype="" lat="35.2059" lon="26.107">
		<comp name="--.HNE" depth="0.0">
			<acc value="0.026506619548057" flag="0"/>
			<vel value="0.0196645848811107" flag="0"/>
			<psa03 value="0.0727593459911069" flag="0"/>
			<psa10 value="0.0207490670238535" flag="0"/>
			<psa30 value="0.00122858920050289" flag="0"/>
		</comp>
		<comp name="--.HNN" depth="0.0">
			<acc value="0.0336214290557793" flag="0"/>
			<vel value="0.0215160765664872" flag="0"/>
			<psa03 value="0.10876566352479" flag="0"/>
			<psa10 value="0.012926602886485" flag="0"/>
			<psa30 value="0.00139423444452207" flag="0"/>
		</comp>
		<comp name="--.HNZ" depth="0.0">
			<acc value="0.0145697460945533" flag="0"/>
			<vel value="0.0065071416392199" flag="0"/>
			<psa03 value="0.0344513577541858" flag="0"/>
			<psa10 value="0.0035820898739992" flag="0"/>
			<psa30 value="0.000698634874882716" flag="0"/>
		</comp>
	</station>
	<station code="AGNA" name="AGNA" netid="HL" source="National Observatory of Athens Seismic Network" insttype="" lat="35.1895" lon="25.71853">
		<comp name="00.HNE" depth="0.0">
			<acc value="0.00913562216970698" flag="0"/>
			<vel value="0.00591224472975679" flag="0"/>
			<psa03 value="0.0275268912297748" flag="0"/>
			<psa10 value="0.0070446940201601" flag="0"/>
			<psa30 value="0.000595830825034307" flag="0"/>
		</comp>
		<comp name="00.HNN" depth="0.0">
			<acc value="0.0116784461365161" flag="0"/>
			<vel value="0.00826803321468467" flag="0"/>
			<psa03 value="0.0296731818485097" flag="0"/>
			<psa10 value="0.00847923295756336" flag="0"/>
			<psa30 value="0.000743618375653054" flag="0"/>
		</comp>
		<comp name="00.HNZ" depth="0.0">
			<acc value="0.00452786966370144" flag="0"/>
			<vel value="0.00239431430297803" flag="0"/>
			<psa03 value="0.0123174787329386" flag="0"/>
			<psa10 value="0.00414152779340664" flag="0"/>
			<psa30 value="0.000379044328576518" flag="0"/>
		</comp>
	</station>
	<station code="KLNA" name="KLNA" netid="HL" source="National Observatory of Athens Seismic Network" insttype="" lat="36.95708" lon="26.97274">
		<comp name="00.HNE" depth="0.0">
			<acc value="0.0353479364350292" flag="0"/>
			<vel value="0.016304582442886" flag="0"/>
			<psa03 value="0.128571923508842" flag="0"/>
			<psa10 value="0.0122252689265877" flag="0"/>
			<psa30 value="0.000956119275708106" flag="0"/>
		</comp>
		<comp name="00.HNN" depth="0.0">
			<acc value="0.0513920616331408" flag="0"/>
			<vel value="0.0208850700703605" flag="0"/>
			<psa03 value="0.138215572769986" flag="0"/>
			<psa10 value="0.00922893387159511" flag="0"/>
			<psa30 value="0.000770586985105469" flag="0"/>
		</comp>
		<comp name="00.HNZ" depth="0.0">
			<acc value="0.0433501590541824" flag="0"/>
			<vel value="0.0108806422238478" flag="0"/>
			<psa03 value="0.0516672820786563" flag="0"/>
			<psa10 value="0.00588239405472394" flag="0"/>
			<psa30 value="0.000978821508786495" flag="0"/>
		</comp>
	</station>
	<station code="NISR" name="NISR" netid="HL" source="National Observatory of Athens Seismic Network" insttype="" lat="36.6106" lon="27.131">
		<comp name="--.HNE" depth="0.0">
			<acc value="1.4706081070366" flag="0"/>
			<vel value="0.450031067718447" flag="0"/>
			<psa03 value="2.33589240807418" flag="0"/>
			<psa10 value="0.445401765680505" flag="0"/>
			<psa30 value="0.0850049844964083" flag="0"/>
		</comp>
		<comp name="--.HNN" depth="0.0">
			<acc value="1.91453717608591" flag="0"/>
			<vel value="0.467876441961833" flag="0"/>
			<psa03 value="1.1350702761702" flag="0"/>
			<psa10 value="0.357809073094894" flag="0"/>
			<psa30 value="0.0493358282565953" flag="0"/>
		</comp>
		<comp name="--.HNZ" depth="0.0">
			<acc value="0.816367849847504" flag="0"/>
			<vel value="0.241457043078418" flag="0"/>
			<psa03 value="0.559973845520678" flag="0"/>
			<psa10 value="0.360438627289962" flag="0"/>
			<psa30 value="0.0180892699920125" flag="0"/>
		</comp>
	</station>
	<station code="ODEM" name="ODEM" netid="KO" source="Bogazici University Kandilli Observatory And Earthquake Research Institute (KOERI)" insttype="" lat="38.2762" lon="28.0747">
		<comp name="--.HNE" depth="0.0">
			<acc value="0.000935857922955109" flag="0"/>
			<vel value="0.00152007144409863" flag="0"/>
			<psa03 value="0.00257740820809254" flag="0"/>
			<psa10 value="0.00223219474694567" flag="0"/>
			<psa30 value="0.00051504312949835" flag="0"/>
		</comp>
		<comp name="--.HNN" depth="0.0">
			<acc value="0.00112301149507173" flag="0"/>
			<vel value="0.00161392760699699" flag="0"/>
			<psa03 value="0.00229945066716367" flag="0"/>
			<psa10 value="0.00302294189568784" flag="0"/>
			<psa30 value="0.000554036181346616" flag="0"/>
		</comp>
		<comp name="--.HNZ" depth="0.0">
			<acc value="0.00102304774444611" flag="0"/>
			<vel value="0.00131901731597431" flag="0"/>
			<psa03 value="0.00216943684605376" flag="0"/>
			<psa10 value="0.00290655527939805" flag="0"/>
			<psa30 value="0.000524036068982256" flag="0"/>
		</comp>
	</station>
</stationlist>
