<?xml version="1.0" encoding="UTF-8" standalone="yes"?>
<!DOCTYPE earthquake SYSTEM "stationlist.dtd">
<stationlist created="" xmlns="ch.ethz.sed.shakemap.usgs.xml">
  <station code="KARP" name="KARP" netid="GE" insttype="STS-2/N" lat="35.5471" lon="27.1611">
    <comp name="--.HHZ">
      <acc value="0.0283368468" flag="0"/>
      <vel value="0.0118736319" flag="0"/>
      <psa03 value="0.0403906138" flag="0"/>
      <psa10 value="0.0127565037" flag="0"/>
      <psa30 value="0.0016505433" flag="0"/>
    </comp>
    <comp name="--.HHE">
      <acc value="0.0849477264" flag="0"/>
      <vel value="0.0168424447" flag="0"/>
      <psa03 value="0.0600768667" flag="0"/>
      <psa10 value="0.0193298560" flag="0"/>
      <psa30 value="0.0025419882" flag="0"/>
    </comp>
    <comp name="--.HHN">
      <acc value="0.0927598304" flag="0"/>
      <vel value="0.0264059651" flag="0"/>
      <psa03 value="0.0671187977" flag="0"/>
      <psa10 value="0.0210980213" flag="0"/>
      <psa30 value="0.0017626620" flag="0"/>
    </comp>
  </station>
  <station code="ARG" name="ARG" netid="HL" insttype="LE3D20_DR24" lat="36.2136" lon="28.1212">
    <comp name="--.HHZ">
      <acc value="0.0232310737" flag="0"/>
      <vel value="0.0105318373" flag="0"/>
      <psa03 value="0.0330322835" flag="0"/>
      <psa10 value="0.0217139975" flag="0"/>
      <psa30 value="0.0024019614" flag="0"/>
    </comp>
    <comp name="--.HHE">
      <acc value="0.0523330904" flag="0"/>
      <vel value="0.0344356785" flag="0"/>
      <psa03 value="0.2066072634" flag="0"/>
      <psa10 value="0.0238127574" flag="0"/>
      <psa30 value="0.0029321500" flag="0"/>
    </comp>
    <comp name="--.HHN">
      <acc value="0.0443536299" flag="0"/>
      <vel value="0.0210868421" flag="0"/>
      <psa03 value="0.0923743115" flag="0"/>
      <psa10 value="0.0293890721" flag="0"/>
      <psa30 value="0.0026547777" flag="0"/>
    </comp>
  </station>
  <station code="KARP" name="KARP" netid="HL" insttype="120" lat="35.5471" lon="27.1611">
    <comp name="--.HHN">
      <acc value="0.0685154331" flag="0"/>
      <vel value="0.0259344773" flag="0"/>
      <psa03 value="0.0653530135" flag="0"/>
      <psa10 value="0.0209557312" flag="0"/>
      <psa30 value="0.0017558069" flag="0"/>
    </comp>
    <comp name="--.HHZ">
      <acc value="0.0256299889" flag="0"/>
      <vel value="0.0115783341" flag="0"/>
      <psa03 value="0.0394349602" flag="0"/>
      <psa10 value="0.0126840220" flag="0"/>
      <psa30 value="0.0016475094" flag="0"/>
    </comp>
    <comp name="--.HHE">
      <acc value="0.0564166450" flag="0"/>
      <vel value="0.0164123716" flag="0"/>
      <psa03 value="0.0586165793" flag="0"/>
      <psa10 value="0.0192244991" flag="0"/>
      <psa30 value="0.0025367114" flag="0"/>
    </comp>
  </station>
  <station code="KLNA" name="KLNA" netid="HL" insttype="CMG-5" lat="36.9571" lon="26.9727">
    <comp name="00.HNE">
      <acc value="0.0356932434" flag="0"/>
      <vel value="0.0165723092" flag="0"/>
      <psa03 value="0.1278877053" flag="0"/>
      <psa10 value="0.0123182908" flag="0"/>
      <psa30 value="0.0013131318" flag="0"/>
    </comp>
    <comp name="00.HNZ">
      <acc value="0.0431195997" flag="0"/>
      <vel value="0.0111283498" flag="0"/>
      <psa03 value="0.0515745898" flag="0"/>
      <psa10 value="0.0059206655" flag="0"/>
      <psa30 value="0.0012593724" flag="0"/>
    </comp>
    <comp name="00.HNN">
      <acc value="0.0513655237" flag="0"/>
      <vel value="0.0209487237" flag="0"/>
      <psa03 value="0.1375481642" flag="0"/>
      <psa10 value="0.0092437760" flag="0"/>
      <psa30 value="0.0010652932" flag="0"/>
    </comp>
  </station>
  <station code="NISR" name="NISR" netid="HL" insttype="65535" lat="36.6106" lon="27.131">
    <comp name="--.HHE">
      <acc value="1.7995357728" flag="0"/>
      <vel value="0.4796305402" flag="0"/>
      <psa03 value="2.4367817950" flag="0"/>
      <psa10 value="0.4504872773" flag="0"/>
      <psa30 value="0.0729480014" flag="0"/>
    </comp>
    <comp name="--.HHN">
      <acc value="1.9990012346" flag="0"/>
      <vel value="0.8989922100" flag="0"/>
      <psa03 value="1.1042543833" flag="0"/>
      <psa10 value="0.5469987239" flag="0"/>
      <psa30 value="0.3131387021" flag="0"/>
    </comp>
    <comp name="--.HHZ">
      <acc value="1.1486870547" flag="0"/>
      <vel value="0.2518588563" flag="0"/>
      <psa03 value="0.5581923060" flag="0"/>
      <psa10 value="0.3494381491" flag="0"/>
      <psa30 value="0.0161344027" flag="0"/>
    </comp>
  </station>
  <station code="SMG" name="SMG" netid="HL" insttype="120" lat="37.7043" lon="26.8377">
    <comp name="--.HHE">
      <acc value="0.0083196263" flag="0"/>
      <vel value="0.0049325285" flag="0"/>
      <psa03 value="0.0251820760" flag="0"/>
      <psa10 value="0.0080654331" flag="0"/>
      <psa30 value="0.0009216780" flag="0"/>
    </comp>
    <comp name="--.HHZ">
      <acc value="0.0042890763" flag="0"/>
      <vel value="0.0028480402" flag="0"/>
      <psa03 value="0.0103073352" flag="0"/>
      <psa10 value="0.0039055143" flag="0"/>
      <psa30 value="0.0008318667" flag="0"/>
    </comp>
    <comp name="--.HHN">
      <acc value="0.0066918687" flag="0"/>
      <vel value="0.0056661556" flag="0"/>
      <psa03 value="0.0185212529" flag="0"/>
      <psa10 value="0.0061890077" flag="0"/>
      <psa30 value="0.0006449470" flag="0"/>
    </comp>
  </station>
  <station code="YKAV" name="YKAV" netid="KO" insttype="CMG-5T" lat="37.1246" lon="27.2801">
    <comp name="--.HNZ">
      <acc value="0.0184372876" flag="0"/>
      <vel value="0.0200195871" flag="0"/>
      <psa03 value="0.0273692266" flag="0"/>
      <psa10 value="0.0363060707" flag="0"/>
      <psa30 value="0.0015948615" flag="0"/>
    </comp>
    <comp name="--.HNE">
      <acc value="0.0419900099" flag="0"/>
      <vel value="0.0220121383" flag="0"/>
      <psa03 value="0.0717769204" flag="0"/>
      <psa10 value="0.0216117730" flag="0"/>
      <psa30 value="0.0020158242" flag="0"/>
    </comp>
    <comp name="--.HNN">
      <acc value="0.0193015134" flag="0"/>
      <vel value="0.0098563890" flag="0"/>
      <psa03 value="0.0386572972" flag="0"/>
      <psa10 value="0.0153115312" flag="0"/>
      <psa30 value="0.0012711754" flag="0"/>
    </comp>
  </station>
  <station code="AYDN" name="AYDN" netid="TU" source="ODC" insttype="T" lat="37.6608" lon="27.8792">
    <comp name="--.HHN">
      <acc value="0.0113098176" flag="0"/>
      <vel value="0.0067073168" flag="0"/>
      <psa03 value="0.0330030292" flag="0"/>
      <psa10 value="0.0091772042" flag="0"/>
      <psa30 value="0.0009346496" flag="0"/>
    </comp>
    <comp name="--.HHE">
      <acc value="0.0096193341" flag="0"/>
      <vel value="0.0091024305" flag="0"/>
      <psa03 value="0.0323173253" flag="0"/>
      <psa10 value="0.0168911591" flag="0"/>
      <psa30 value="0.0013323230" flag="0"/>
    </comp>
    <comp name="--.HHZ">
      <acc value="0.0096275313" flag="0"/>
      <vel value="0.0062074064" flag="0"/>
      <psa03 value="0.0555249686" flag="0"/>
      <psa10 value="0.0068494462" flag="0"/>
      <psa30 value="0.0010533389" flag="0"/>
    </comp>
  </station>
</stationlist>
