<stationlist created="1642782457">
	<station code="SIT2" name="SIT2" netid="HI" source="ITSAK Strong Motion Network" insttype="" lat="35.2059" lon="26.107">
		<comp name=".HNE" depth="0.0">
			<acc value="0.0264798656157" flag="0"/>
			<vel value="0.0196504560017" flag="0"/>
			<psa03 value="0.0727593459911" flag="0"/>
			<psa10 value="0.0207490670239" flag="0"/>
			<psa30 value="0.0012285892005" flag="0"/>
		</comp>
		<comp name=".HNN" depth="0.0">
			<acc value="0.0335576526543" flag="0"/>
			<vel value="0.0214783950154" flag="0"/>
			<psa03 value="0.108765663525" flag="0"/>
			<psa10 value="0.0129266028865" flag="0"/>
			<psa30 value="0.00139423444452" flag="0"/>
		</comp>
		<comp name=".HNZ" depth="0.0">
			<acc value="0.0145221111124" flag="0"/>
			<vel value="0.00649215684032" flag="0"/>
			<psa03 value="0.0344513577542" flag="0"/>
			<psa10 value="0.003582089874" flag="0"/>
			<psa30 value="0.000698634874883" flag="0"/>
		</comp>
	</station>
	<station code="KLNA" name="KLNA" netid="HL" source="National Observatory of Athens Seismic Network" insttype="" lat="36.95708" lon="26.97274">
		<comp name="00.HNE" depth="0.0">
			<acc value="0.0353479361129" flag="0"/>
			<vel value="0.0163045846068" flag="0"/>
			<psa03 value="0.128571923509" flag="0"/>
			<psa10 value="0.0122252689266" flag="0"/>
			<psa30 value="0.000956119275708" flag="0"/>
		</comp>
		<comp name="00.HNN" depth="0.0">
			<acc value="0.0513920621953" flag="0"/>
			<vel value="0.0208850180582" flag="0"/>
			<psa03 value="0.13821557277" flag="0"/>
			<psa10 value="0.0092289338716" flag="0"/>
			<psa30 value="0.000770586985105" flag="0"/>
		</comp>
		<comp name="00.HNZ" depth="0.0">
			<acc value="0.0433501597873" flag="0"/>
			<vel value="0.0108805622729" flag="0"/>
			<psa03 value="0.0516672820787" flag="0"/>
			<psa10 value="0.00588239405472" flag="0"/>
			<psa30 value="0.000978821508786" flag="0"/>
		</comp>
	</station>
	<station code="NISR" name="NISR" netid="HL" source="National Observatory of Athens Seismic Network" insttype="" lat="36.6106" lon="27.131">
		<comp name=".HNE" depth="0.0">
			<acc value="1.45651936084" flag="0"/>
			<vel value="0.448125205485" flag="0"/>
			<psa03 value="2.33589240807" flag="0"/>
			<psa10 value="0.445401765681" flag="0"/>
			<psa30 value="0.0850049844964" flag="0"/>
		</comp>
		<comp name=".HNN" depth="0.0">
			<acc value="1.89551431625" flag="0"/>
			<vel value="0.46222423794" flag="0"/>
			<psa03 value="1.13507027617" flag="0"/>
			<psa10 value="0.357809073095" flag="0"/>
			<psa30 value="0.0493358282566" flag="0"/>
		</comp>
		<comp name=".HNZ" depth="0.0">
			<acc value="0.791698630954" flag="0"/>
			<vel value="0.239883757641" flag="0"/>
			<psa03 value="0.559973845521" flag="0"/>
			<psa10 value="0.36043862729" flag="0"/>
			<psa30 value="0.018089269992" flag="0"/>
		</comp>
	</station>
	<station code="TNSA" name="TNSA" netid="HL" source="National Observatory of Athens Seismic Network" insttype="" lat="37.53942" lon="25.1631">
		<comp name="00.HNE" depth="0.0">
			<acc value="0.00285289161365" flag="0"/>
			<vel value="0.00203325790721" flag="0"/>
			<psa03 value="0.00720481452319" flag="0"/>
			<psa10 value="0.00232887615162" flag="0"/>
			<psa30 value="0.000839349873641" flag="0"/>
		</comp>
		<comp name="00.HNN" depth="0.0">
			<acc value="0.00260667713487" flag="0"/>
			<vel value="0.00186360406071" flag="0"/>
			<psa03 value="0.00736961840937" flag="0"/>
			<psa10 value="0.00194337088722" flag="0"/>
			<psa30 value="0.000921644179402" flag="0"/>
		</comp>
		<comp name="00.HNZ" depth="0.0">
			<acc value="0.00262576182987" flag="0"/>
			<vel value="0.00237261960396" flag="0"/>
			<psa03 value="0.00538627445749" flag="0"/>
			<psa10 value="0.00247424000001" flag="0"/>
			<psa30 value="0.00107031746578" flag="0"/>
		</comp>
	</station>
	<station code="ODEM" name="ODEM" netid="KO" source="Bogazici University Kandilli Observatory And Earthquake Research Institute (KOERI)" insttype="" lat="38.2762" lon="28.0747">
		<comp name=".HNE" depth="0.0">
			<acc value="0.000960309372183" flag="0"/>
			<vel value="0.00199276983793" flag="0"/>
			<psa03 value="0.00257740820809" flag="0"/>
			<psa10 value="0.00223219474695" flag="0"/>
			<psa30 value="0.000515043129498" flag="0"/>
		</comp>
		<comp name=".HNN" depth="0.0">
			<acc value="0.00114412240337" flag="0"/>
			<vel value="0.00191710492782" flag="0"/>
			<psa03 value="0.00229945066716" flag="0"/>
			<psa10 value="0.00302294189569" flag="0"/>
			<psa30 value="0.000554036181347" flag="0"/>
		</comp>
		<comp name=".HNZ" depth="0.0">
			<acc value="0.00107581213659" flag="0"/>
			<vel value="0.00157188995714" flag="0"/>
			<psa03 value="0.00216943684605" flag="0"/>
			<psa10 value="0.0029065552794" flag="0"/>
			<psa30 value="0.000524036068982" flag="0"/>
		</comp>
	</station>
</stationlist>
