<stationlist created="1778069795">
	<station code="LTRS" name="LTRS" netid="HA" source="Hellenic Seismological Network, University of Athens, Seismological Laboratory (HA)" insttype="" lat="37.97528" lon="22.9765">
		<comp name="--.HNE" depth="0.0">
			<acc value="0.0545657673516982" flag="0"/>
			<vel value="0.0438217255725285" flag="0"/>
			<psa03 value="0.184293149060661" flag="0"/>
			<psa10 value="0.0553765342873026" flag="0"/>
			<psa30 value="0.00577621887441888" flag="0"/>
		</comp>
		<comp name="--.HNN" depth="0.0">
			<acc value="0.0477323078490316" flag="0"/>
			<vel value="0.0369844113223558" flag="0"/>
			<psa03 value="0.203532297906518" flag="0"/>
			<psa10 value="0.0437310327486988" flag="0"/>
			<psa30 value="0.00561693661885783" flag="0"/>
		</comp>
		<comp name="--.HNZ" depth="0.0">
			<acc value="0.0397992908379691" flag="0"/>
			<vel value="0.0334683471496749" flag="0"/>
			<psa03 value="0.112795102884663" flag="0"/>
			<psa10 value="0.0248856153210827" flag="0"/>
			<psa30 value="0.00438786820305391" flag="0"/>
		</comp>
	</station>
	<station code="XLKS" name="XLKS" netid="HA" source="Hellenic Seismological Network, University of Athens, Seismological Laboratory (HA)" insttype="" lat="38.0772" lon="22.6361">
		<comp name="--.HNE" depth="0.0">
			<acc value="0.0557376924831755" flag="0"/>
			<vel value="0.0603652333187046" flag="0"/>
			<psa03 value="0.122817357167156" flag="0"/>
			<psa10 value="0.0620529663588811" flag="0"/>
			<psa30 value="0.00453864943935749" flag="0"/>
		</comp>
		<comp name="--.HNN" depth="0.0">
			<acc value="0.0611581628935275" flag="0"/>
			<vel value="0.0471671269643751" flag="0"/>
			<psa03 value="0.168722861157503" flag="0"/>
			<psa10 value="0.0441055250180937" flag="0"/>
			<psa30 value="0.00504423637414396" flag="0"/>
		</comp>
		<comp name="--.HNZ" depth="0.0">
			<acc value="0.0380153626301127" flag="0"/>
			<vel value="0.0249238710681277" flag="0"/>
			<psa03 value="0.0950771890638275" flag="0"/>
			<psa10 value="0.0191474273222894" flag="0"/>
			<psa30 value="0.00225948143422272" flag="0"/>
		</comp>
	</station>
	<station code="ATH5" name="ATH5" netid="HI" source="ITSAK Strong Motion Network" insttype="" lat="37.975421" lon="23.737098">
		<comp name="--.HNE" depth="0.0">
			<acc value="0.156244298427211" flag="0"/>
			<vel value="0.0598606207616294" flag="0"/>
			<psa03 value="0.244695127995328" flag="0"/>
			<psa10 value="0.0750192578368562" flag="0"/>
			<psa30 value="0.0130289305672407" flag="0"/>
		</comp>
		<comp name="--.HNN" depth="0.0">
			<acc value="0.428103478713963" flag="0"/>
			<vel value="0.122098498326492" flag="0"/>
			<psa03 value="0.625675017349912" flag="0"/>
			<psa10 value="0.0793641735215566" flag="0"/>
			<psa30 value="0.0106370122014279" flag="0"/>
		</comp>
		<comp name="--.HNZ" depth="0.0">
			<acc value="0.166622730690346" flag="0"/>
			<vel value="0.0616786289409436" flag="0"/>
			<psa03 value="0.157358340676462" flag="0"/>
			<psa10 value="0.132014565159608" flag="0"/>
			<psa30 value="0.0104629650176828" flag="0"/>
		</comp>
	</station>
	<station code="NPS1" name="NPS1" netid="HI" source="ITSAK Strong Motion Network" insttype="" lat="36.51263" lon="23.06248">
		<comp name="--.HNE" depth="0.0">
			<acc value="0.00924634692271448" flag="0"/>
			<vel value="0.00679718327688565" flag="0"/>
			<psa03 value="0.0258162532187428" flag="0"/>
			<psa10 value="0.0097730401916291" flag="0"/>
			<psa30 value="0.000592386815625918" flag="0"/>
		</comp>
		<comp name="--.HNN" depth="0.0">
			<acc value="0.0122795014030523" flag="0"/>
			<vel value="0.0111765200945114" flag="0"/>
			<psa03 value="0.03391459261665" flag="0"/>
			<psa10 value="0.0126320671945367" flag="0"/>
			<psa30 value="0.000557040472397483" flag="0"/>
		</comp>
		<comp name="--.HNZ" depth="0.0">
			<acc value="0.00593245135786549" flag="0"/>
			<vel value="0.00310517487861412" flag="0"/>
			<psa03 value="0.0135568886053363" flag="0"/>
			<psa10 value="0.00913680601351727" flag="0"/>
			<psa30 value="0.000348541789556337" flag="0"/>
		</comp>
	</station>
	<station code="SKO1" name="SKO1" netid="HI" source="ITSAK Strong Motion Network" insttype="" lat="39.123383" lon="23.728705">
		<comp name="--.HNE" depth="0.0">
			<acc value="0.0109110255993209" flag="0"/>
			<vel value="0.00816833451964309" flag="0"/>
			<psa03 value="0.020089250771604" flag="0"/>
			<psa10 value="0.0115850995596691" flag="0"/>
			<psa30 value="0.00094182344931462" flag="0"/>
		</comp>
		<comp name="--.HNN" depth="0.0">
			<acc value="0.00769875590264303" flag="0"/>
			<vel value="0.00616181290365003" flag="0"/>
			<psa03 value="0.0141832794979921" flag="0"/>
			<psa10 value="0.0098455225663507" flag="0"/>
			<psa30 value="0.000669343411009345" flag="0"/>
		</comp>
		<comp name="--.HNZ" depth="0.0">
			<acc value="0.00631138133432863" flag="0"/>
			<vel value="0.00375699142055085" flag="0"/>
			<psa03 value="0.0119909113736968" flag="0"/>
			<psa10 value="0.00477980993302997" flag="0"/>
			<psa30 value="0.000614757918935054" flag="0"/>
		</comp>
	</station>
	<station code="SKY1" name="SKY1" netid="HI" source="ITSAK Strong Motion Network" insttype="" lat="38.904483" lon="24.564572">
		<comp name="--.HNE" depth="0.0">
			<acc value="0.0647083870495114" flag="0"/>
			<vel value="0.039592448675777" flag="0"/>
			<psa03 value="0.153868448560237" flag="0"/>
			<psa10 value="0.0277285351296077" flag="0"/>
			<psa30 value="0.0023145143483632" flag="0"/>
		</comp>
		<comp name="--.HNN" depth="0.0">
			<acc value="0.0588876600539676" flag="0"/>
			<vel value="0.0347116944797328" flag="0"/>
			<psa03 value="0.18796201000336" flag="0"/>
			<psa10 value="0.0230413415642776" flag="0"/>
			<psa30 value="0.00174405121398023" flag="0"/>
		</comp>
		<comp name="--.HNZ" depth="0.0">
			<acc value="0.031239016321952" flag="0"/>
			<vel value="0.0150552838518636" flag="0"/>
			<psa03 value="0.0913188437078927" flag="0"/>
			<psa10 value="0.0115327511779257" flag="0"/>
			<psa30 value="0.00148946805832227" flag="0"/>
		</comp>
	</station>
	<station code="ATHP" name="ATHP" netid="HL" source="National Observatory of Athens Seismic Network" insttype="" lat="38.000799" lon="23.773487">
		<comp name="00.HNE" depth="0.0">
			<acc value="0.311174231722454" flag="0"/>
			<vel value="0.103567127428814" flag="0"/>
			<psa03 value="0.494490867545139" flag="0"/>
			<psa10 value="0.123397216164929" flag="0"/>
			<psa30 value="0.00765897092891576" flag="0"/>
		</comp>
		<comp name="00.HNN" depth="0.0">
			<acc value="0.482968479064366" flag="0"/>
			<vel value="0.218055659580235" flag="0"/>
			<psa03 value="0.814039707212836" flag="0"/>
			<psa10 value="0.116012067540517" flag="0"/>
			<psa30 value="0.0114531100501452" flag="0"/>
		</comp>
		<comp name="00.HNZ" depth="0.0">
			<acc value="0.182094313443048" flag="0"/>
			<vel value="0.0594015049229238" flag="0"/>
			<psa03 value="0.168499150124411" flag="0"/>
			<psa10 value="0.0671992149641147" flag="0"/>
			<psa30 value="0.0120486288202344" flag="0"/>
		</comp>
	</station>
	<station code="DLFA" name="DLFA" netid="HL" source="National Observatory of Athens Seismic Network" insttype="" lat="38.47836" lon="22.49583">
		<comp name="00.HNE" depth="0.0">
			<acc value="0.00913467477255844" flag="0"/>
			<vel value="0.00810207410427444" flag="0"/>
			<psa03 value="0.0259057376319793" flag="0"/>
			<psa10 value="0.0106307482925014" flag="0"/>
			<psa30 value="0.000792384479209593" flag="0"/>
		</comp>
		<comp name="00.HNN" depth="0.0">
			<acc value="0.00953117933338501" flag="0"/>
			<vel value="0.00626259526366519" flag="0"/>
			<psa03 value="0.0228632675819369" flag="0"/>
			<psa10 value="0.00832339269719709" flag="0"/>
			<psa30 value="0.000515430220242491" flag="0"/>
		</comp>
		<comp name="00.HNZ" depth="0.0">
			<acc value="0.00879806692262619" flag="0"/>
			<vel value="0.00507495715274091" flag="0"/>
			<psa03 value="0.0252346045327053" flag="0"/>
			<psa10 value="0.00633818098954438" flag="0"/>
			<psa30 value="0.000675607319935903" flag="0"/>
		</comp>
	</station>
	<station code="KYMI" name="KYMI" netid="HL" source="National Observatory of Athens Seismic Network" insttype="" lat="38.633147" lon="24.100138">
		<comp name="--.HNE" depth="1.0">
			<acc value="0.0420242751231495" flag="0"/>
			<vel value="0.0178300669499032" flag="0"/>
			<psa03 value="0.110692219173604" flag="0"/>
			<psa10 value="0.0177863693969616" flag="0"/>
			<psa30 value="0.00471717084376439" flag="0"/>
		</comp>
		<comp name="--.HNN" depth="1.0">
			<acc value="0.0327088389792431" flag="0"/>
			<vel value="0.0170690877711677" flag="0"/>
			<psa03 value="0.0618337295464516" flag="0"/>
			<psa10 value="0.0214064613344459" flag="0"/>
			<psa30 value="0.00376147731039811" flag="0"/>
		</comp>
		<comp name="--.HNZ" depth="1.0">
			<acc value="0.018312637420914" flag="0"/>
			<vel value="0.0104276470027134" flag="0"/>
			<psa03 value="0.0292614031283497" flag="0"/>
			<psa10 value="0.0131273634218009" flag="0"/>
			<psa30 value="0.00276372610281065" flag="0"/>
		</comp>
	</station>
	<station code="NOAC" name="NOAC" netid="HL" source="National Observatory of Athens Seismic Network" insttype="" lat="37.97384" lon="23.71767">
		<comp name="00.HNE" depth="0.0">
			<acc value="0.310710893822804" flag="0"/>
			<vel value="0.0815118211773168" flag="0"/>
			<psa03 value="0.567689117572632" flag="0"/>
			<psa10 value="0.0690153011307504" flag="0"/>
			<psa30 value="0.0131090191170874" flag="0"/>
		</comp>
		<comp name="00.HNN" depth="0.0">
			<acc value="0.436959257585845" flag="0"/>
			<vel value="0.12329139767456" flag="0"/>
			<psa03 value="0.556145628265118" flag="0"/>
			<psa10 value="0.0541523875142267" flag="0"/>
			<psa30 value="0.0112392423025099" flag="0"/>
		</comp>
		<comp name="00.HNZ" depth="0.0">
			<acc value="0.178464491867905" flag="0"/>
			<vel value="0.0689857479493953" flag="0"/>
			<psa03 value="0.242636986490888" flag="0"/>
			<psa10 value="0.0798957109361817" flag="0"/>
			<psa30 value="0.0126235661752792" flag="0"/>
		</comp>
	</station>
	<station code="YDRA" name="YDRA" netid="HL" source="National Observatory of Athens Seismic Network" insttype="" lat="37.34923" lon="23.46525">
		<comp name="00.HNE" depth="0.0">
			<acc value="0.0941384178157991" flag="0"/>
			<vel value="0.0429383942142957" flag="0"/>
			<psa03 value="0.282726003620859" flag="0"/>
			<psa10 value="0.0480397072460384" flag="0"/>
			<psa30 value="0.00172660175339911" flag="0"/>
		</comp>
		<comp name="00.HNN" depth="0.0">
			<acc value="0.0693905269480365" flag="0"/>
			<vel value="0.0257413177124642" flag="0"/>
			<psa03 value="0.177671302481157" flag="0"/>
			<psa10 value="0.0201460733740092" flag="0"/>
			<psa30 value="0.000884553424843232" flag="0"/>
		</comp>
		<comp name="00.HNZ" depth="0.0">
			<acc value="0.0330553527958848" flag="0"/>
			<vel value="0.015144890305122" flag="0"/>
			<psa03 value="0.129528688159897" flag="0"/>
			<psa10 value="0.00659992289826127" flag="0"/>
			<psa30 value="0.000820572069379104" flag="0"/>
		</comp>
	</station>
	<station code="ANX" name="ANX" netid="HP" source="University of Patras, Seismological Laboratory (PSLNET)" insttype="" lat="38.5933" lon="21.9209">
		<comp name="--.HNE" depth="0.0">
			<acc value="0.008063441253819" flag="0"/>
			<vel value="0.00768948631266119" flag="0"/>
			<psa03 value="0.0166888430686154" flag="0"/>
			<psa10 value="0.0164253114716337" flag="0"/>
			<psa30 value="0.000886790535174146" flag="0"/>
		</comp>
		<comp name="--.HNN" depth="0.0">
			<acc value="0.0114224791907427" flag="0"/>
			<vel value="0.0111376172927306" flag="0"/>
			<psa03 value="0.0335566549637038" flag="0"/>
			<psa10 value="0.019332660057689" flag="0"/>
			<psa30 value="0.000865761698063558" flag="0"/>
		</comp>
		<comp name="--.HNZ" depth="0.0">
			<acc value="0.00511821232511819" flag="0"/>
			<vel value="0.0052031713622315" flag="0"/>
			<psa03 value="0.0126173022663526" flag="0"/>
			<psa10 value="0.0135743380659175" flag="0"/>
			<psa30 value="0.000628180580920535" flag="0"/>
		</comp>
	</station>
	<station code="GUR" name="GUR" netid="HP" source="University of Patras, Seismological Laboratory (PSLNET)" insttype="" lat="37.9363" lon="22.3423">
		<comp name="--.HNE" depth="0.0">
			<acc value="0.0314604931388295" flag="0"/>
			<vel value="0.0245506184291542" flag="0"/>
			<psa03 value="0.0768223687635726" flag="0"/>
			<psa10 value="0.0120683153911464" flag="0"/>
			<psa30 value="0.0013046827449888" flag="0"/>
		</comp>
		<comp name="--.HNN" depth="0.0">
			<acc value="0.0251434275740054" flag="0"/>
			<vel value="0.0159871741141096" flag="0"/>
			<psa03 value="0.0768223687635726" flag="0"/>
			<psa10 value="0.0150481463519233" flag="0"/>
			<psa30 value="0.00119998598150205" flag="0"/>
		</comp>
		<comp name="--.HNZ" depth="0.0">
			<acc value="0.00849290995163531" flag="0"/>
			<vel value="0.0064580660004683" flag="0"/>
			<psa03 value="0.0291271765084949" flag="0"/>
			<psa10 value="0.00613281426116651" flag="0"/>
			<psa30 value="0.000968668773285583" flag="0"/>
		</comp>
	</station>
	<station code="SERG" name="SERG" netid="HP" source="University of Patras, Seismological Laboratory (PSLNET)" insttype="" lat="38.4133" lon="22.0566">
		<comp name="--.HNE" depth="0.0">
			<acc value="0.00547096721475351" flag="0"/>
			<vel value="0.00529338235657268" flag="0"/>
			<psa03 value="0.0155702879031586" flag="0"/>
			<psa10 value="0.0057059736100282" flag="0"/>
			<psa30 value="0.000510061155448298" flag="0"/>
		</comp>
		<comp name="--.HNN" depth="0.0">
			<acc value="0.00659923747875221" flag="0"/>
			<vel value="0.00435754987711576" flag="0"/>
			<psa03 value="0.018612757953201" flag="0"/>
			<psa10 value="0.00331002844561974" flag="0"/>
			<psa30 value="0.000650104262163488" flag="0"/>
		</comp>
		<comp name="--.HNZ" depth="0.0">
			<acc value="0.0051700883473637" flag="0"/>
			<vel value="0.00410133709946351" flag="0"/>
			<psa03 value="0.00908266794350917" flag="0"/>
			<psa10 value="0.00517443619540313" flag="0"/>
			<psa30 value="0.000741378363664763" flag="0"/>
		</comp>
	</station>
</stationlist>
