<?xml version="1.0" encoding="UTF-8" standalone="yes"?>
<!DOCTYPE earthquake SYSTEM "stationlist.dtd">
<stationlist created="" xmlns="ch.ethz.sed.shakemap.usgs.xml">
  <station code="ACOR" name="ACOR" netid="HA" insttype="30" lat="37.8902" lon="22.8692">
    <comp name="--.HHE">
      <acc value="0.0097168927" flag="0"/>
      <vel value="0.0099345857" flag="0"/>
      <psa03 value="0.0394611043" flag="0"/>
      <psa10 value="0.0138138647" flag="0"/>
      <psa30 value="0.0025029124" flag="0"/>
    </comp>
    <comp name="--.HHN">
      <acc value="0.0245339976" flag="0"/>
      <vel value="0.0235950935" flag="0"/>
      <psa03 value="0.0576295756" flag="0"/>
      <psa10 value="0.0329969078" flag="0"/>
      <psa30 value="0.0020774199" flag="0"/>
    </comp>
    <comp name="--.HHZ">
      <acc value="0.0130848065" flag="0"/>
      <vel value="0.0099014785" flag="0"/>
      <psa03 value="0.0267419261" flag="0"/>
      <psa10 value="0.0146795329" flag="0"/>
      <psa30 value="0.0015546438" flag="0"/>
    </comp>
  </station>
  <station code="ATAL" name="ATAL" netid="HA" insttype="120" lat="38.6926" lon="23.0213">
    <comp name="--.HHZ">
      <acc value="0.0130190150" flag="0"/>
      <vel value="0.0055695288" flag="0"/>
      <psa03 value="0.0232653277" flag="0"/>
      <psa10 value="0.0055790492" flag="0"/>
      <psa30 value="0.0009588422" flag="0"/>
    </comp>
    <comp name="--.HHN">
      <acc value="0.0125048208" flag="0"/>
      <vel value="0.0046838244" flag="0"/>
      <psa03 value="0.0191677010" flag="0"/>
      <psa10 value="0.0111321862" flag="0"/>
      <psa30 value="0.0015889391" flag="0"/>
    </comp>
    <comp name="--.HHE">
      <acc value="0.0137255881" flag="0"/>
      <vel value="0.0067424375" flag="0"/>
      <psa03 value="0.0196072487" flag="0"/>
      <psa10 value="0.0086839738" flag="0"/>
      <psa30 value="0.0015108664" flag="0"/>
    </comp>
  </station>
  <station code="ATHU" name="ATHU" netid="HA" insttype="60" lat="37.9665" lon="23.7845">
    <comp name="--.HHN">
      <acc value="0.0909284069" flag="0"/>
      <vel value="0.0302314192" flag="0"/>
      <psa03 value="0.1305623629" flag="0"/>
      <psa10 value="0.0262057757" flag="0"/>
      <psa30 value="0.0037852005" flag="0"/>
    </comp>
    <comp name="--.HHZ">
      <acc value="0.1237413318" flag="0"/>
      <vel value="0.0411343837" flag="0"/>
      <psa03 value="0.0773228408" flag="0"/>
      <psa10 value="0.0275389307" flag="0"/>
      <psa30 value="0.0083049737" flag="0"/>
    </comp>
    <comp name="--.HHE">
      <acc value="0.0710435476" flag="0"/>
      <vel value="0.0213423193" flag="0"/>
      <psa03 value="0.1011860054" flag="0"/>
      <psa10 value="0.0195651760" flag="0"/>
      <psa30 value="0.0034574401" flag="0"/>
    </comp>
  </station>
  <station code="KARY" name="KARY" netid="HA" insttype="60" lat="38.0321" lon="24.437">
    <comp name="--.HHE">
      <acc value="0.0881803448" flag="0"/>
      <vel value="0.0211966267" flag="0"/>
      <psa03 value="0.0769127041" flag="0"/>
      <psa10 value="0.0097240495" flag="0"/>
      <psa30 value="0.0027303313" flag="0"/>
    </comp>
    <comp name="--.HHN">
      <acc value="0.1280823809" flag="0"/>
      <vel value="0.0444412489" flag="0"/>
      <psa03 value="0.1223224557" flag="0"/>
      <psa10 value="0.0272567037" flag="0"/>
      <psa30 value="0.0015146798" flag="0"/>
    </comp>
    <comp name="--.HHZ">
      <acc value="0.1232811605" flag="0"/>
      <vel value="0.0300072861" flag="0"/>
      <psa03 value="0.1102840643" flag="0"/>
      <psa10 value="0.0221839206" flag="0"/>
      <psa30 value="0.0033408786" flag="0"/>
    </comp>
  </station>
  <station code="LOUT" name="LOUT" netid="HA" insttype="30" lat="37.9879" lon="22.9743">
    <comp name="--.HHN">
      <acc value="0.0609239043" flag="0"/>
      <vel value="0.0286085808" flag="0"/>
      <psa03 value="0.1539223779" flag="0"/>
      <psa10 value="0.0497285506" flag="0"/>
      <psa30 value="0.0037796665" flag="0"/>
    </comp>
    <comp name="--.HHE">
      <acc value="0.0873685296" flag="0"/>
      <vel value="0.0368524320" flag="0"/>
      <psa03 value="0.2926421227" flag="0"/>
      <psa10 value="0.0325444767" flag="0"/>
      <psa30 value="0.0040421245" flag="0"/>
    </comp>
    <comp name="--.HHZ">
      <acc value="0.0377409860" flag="0"/>
      <vel value="0.0129037715" flag="0"/>
      <psa03 value="0.0945112156" flag="0"/>
      <psa10 value="0.0113934036" flag="0"/>
      <psa30 value="0.0027338124" flag="0"/>
    </comp>
  </station>
  <station code="STFN" name="STFN" netid="HA" insttype="1s-100Hz," lat="38.1766" lon="23.544">
    <comp name="--.HHZ">
      <acc value="0.0438142008" flag="0"/>
      <vel value="0.0329631187" flag="0"/>
      <psa03 value="0.0966753298" flag="0"/>
      <psa10 value="0.0276785039" flag="0"/>
      <psa30 value="0.0071081056" flag="0"/>
    </comp>
    <comp name="--.HHN">
      <acc value="0.0897928852" flag="0"/>
      <vel value="0.0431985874" flag="0"/>
      <psa03 value="0.2569933246" flag="0"/>
      <psa10 value="0.0642878087" flag="0"/>
      <psa30 value="0.0114996365" flag="0"/>
    </comp>
    <comp name="--.HHE">
      <acc value="0.1374359232" flag="0"/>
      <vel value="0.0646115665" flag="0"/>
      <psa03 value="0.2946940151" flag="0"/>
      <psa10 value="0.1068278645" flag="0"/>
      <psa30 value="0.0136163065" flag="0"/>
    </comp>
  </station>
  <station code="THAL" name="THAL" netid="HA" insttype="30" lat="38.0357" lon="22.6634">
    <comp name="--.HHE">
      <acc value="0.0479845496" flag="0"/>
      <vel value="0.0311547750" flag="0"/>
      <psa03 value="0.1343145280" flag="0"/>
      <psa10 value="0.0293131223" flag="0"/>
      <psa30 value="0.0040972000" flag="0"/>
    </comp>
    <comp name="--.HHN">
      <acc value="0.0490688311" flag="0"/>
      <vel value="0.0274429299" flag="0"/>
      <psa03 value="0.1381329051" flag="0"/>
      <psa10 value="0.0290412220" flag="0"/>
      <psa30 value="0.0018995072" flag="0"/>
    </comp>
    <comp name="--.HHZ">
      <acc value="0.0284090018" flag="0"/>
      <vel value="0.0212435077" flag="0"/>
      <psa03 value="0.0598724423" flag="0"/>
      <psa10 value="0.0160019569" flag="0"/>
      <psa30 value="0.0017769164" flag="0"/>
    </comp>
  </station>
  <station code="VILL" name="VILL" netid="HA" insttype="30" lat="38.1642" lon="23.3122">
    <comp name="--.HHE">
      <acc value="0.0326631239" flag="0"/>
      <vel value="0.0316430088" flag="0"/>
      <psa03 value="0.0838026093" flag="0"/>
      <psa10 value="0.0779226937" flag="0"/>
      <psa30 value="0.0058001862" flag="0"/>
    </comp>
    <comp name="--.HHN">
      <acc value="0.0334294230" flag="0"/>
      <vel value="0.0239423133" flag="0"/>
      <psa03 value="0.0662767082" flag="0"/>
      <psa10 value="0.0387056513" flag="0"/>
      <psa30 value="0.0063887544" flag="0"/>
    </comp>
    <comp name="--.HHZ">
      <acc value="0.0183158017" flag="0"/>
      <vel value="0.0143910598" flag="0"/>
      <psa03 value="0.0704472730" flag="0"/>
      <psa10 value="0.0303195980" flag="0"/>
      <psa30 value="0.0041857954" flag="0"/>
    </comp>
  </station>
  <station code="ATH5" name="ATH5" netid="HI" insttype="CMG-5TD,ACCELEROMETER,GURALP" lat="37.9754" lon="23.7371">
    <comp name="--.HNE">
      <acc value="0.1543616379" flag="0"/>
      <vel value="0.0582716243" flag="0"/>
      <psa03 value="0.2431858120" flag="0"/>
      <psa10 value="0.0750753338" flag="0"/>
      <psa30 value="0.0126341631" flag="0"/>
    </comp>
    <comp name="--.HNZ">
      <acc value="0.1671018610" flag="0"/>
      <vel value="0.0622563829" flag="0"/>
      <psa03 value="0.1553069585" flag="0"/>
      <psa10 value="0.1320933185" flag="0"/>
      <psa30 value="0.0096276391" flag="0"/>
    </comp>
    <comp name="--.HNN">
      <acc value="0.4301521682" flag="0"/>
      <vel value="0.1194273899" flag="0"/>
      <psa03 value="0.6205461461" flag="0"/>
      <psa10 value="0.0793782466" flag="0"/>
      <psa30 value="0.0102572571" flag="0"/>
    </comp>
  </station>
  <station code="ATH" name="ATH" netid="HL" insttype="DR24" lat="37.9738" lon="23.7177">
    <comp name="--.HHZ">
      <acc value="0.1739290609" flag="0"/>
      <vel value="0.0653601256" flag="0"/>
      <psa03 value="0.2295593271" flag="0"/>
      <psa10 value="0.0802912062" flag="0"/>
      <psa30 value="0.0114151490" flag="0"/>
    </comp>
    <comp name="--.HHE">
      <acc value="0.2779502797" flag="0"/>
      <vel value="0.0804829803" flag="0"/>
      <psa03 value="0.5423919502" flag="0"/>
      <psa10 value="0.0681117604" flag="0"/>
      <psa30 value="0.0119517325" flag="0"/>
    </comp>
    <comp name="--.HHN">
      <acc value="0.4909865200" flag="0"/>
      <vel value="0.1282620693" flag="0"/>
      <psa03 value="0.5623099730" flag="0"/>
      <psa10 value="0.0509274980" flag="0"/>
      <psa30 value="0.0085789403" flag="0"/>
    </comp>
  </station>
  <station code="ATHP" name="ATHP" netid="HL" insttype="CMG-5" lat="38.0008" lon="23.7735">
    <comp name="00.HNE">
      <acc value="0.3122802930" flag="0"/>
      <vel value="0.1037624401" flag="0"/>
      <psa03 value="0.4951527203" flag="0"/>
      <psa10 value="0.1232422881" flag="0"/>
      <psa30 value="0.0076517282" flag="0"/>
    </comp>
    <comp name="00.HNZ">
      <acc value="0.1813997249" flag="0"/>
      <vel value="0.0598031811" flag="0"/>
      <psa03 value="0.1676285494" flag="0"/>
      <psa10 value="0.0671409381" flag="0"/>
      <psa30 value="0.0112584740" flag="0"/>
    </comp>
    <comp name="00.HNN">
      <acc value="0.4851383988" flag="0"/>
      <vel value="0.2167013264" flag="0"/>
      <psa03 value="0.8113032855" flag="0"/>
      <psa10 value="0.1158328803" flag="0"/>
      <psa30 value="0.0110834315" flag="0"/>
    </comp>
  </station>
  <station code="DION" name="DION" netid="HL" insttype="30" lat="38.0779" lon="23.9331">
    <comp name="--.HHN">
      <acc value="1.0585839102" flag="0"/>
      <vel value="0.5147156532" flag="0"/>
      <psa03 value="1.8279330796" flag="0"/>
      <psa10 value="0.5260287975" flag="0"/>
      <psa30 value="0.0385452952" flag="0"/>
    </comp>
    <comp name="--.HHE">
      <acc value="1.3839576846" flag="0"/>
      <vel value="0.5786405544" flag="0"/>
      <psa03 value="2.1937833024" flag="0"/>
      <psa10 value="0.5192008560" flag="0"/>
      <psa30 value="0.0509276972" flag="0"/>
    </comp>
    <comp name="--.HHZ">
      <acc value="0.9035780042" flag="0"/>
      <vel value="0.3384783164" flag="0"/>
      <psa03 value="1.5651840814" flag="0"/>
      <psa10 value="0.4770251777" flag="0"/>
      <psa30 value="0.0239900632" flag="0"/>
    </comp>
  </station>
  <station code="KYMI" name="KYMI" netid="HL" insttype="60" lat="38.6331" lon="24.1001">
    <comp name="--.HHN">
      <acc value="0.0328628499" flag="0"/>
      <vel value="0.0165841899" flag="0"/>
      <psa03 value="0.0610924806" flag="0"/>
      <psa10 value="0.0214422825" flag="0"/>
      <psa30 value="0.0033493514" flag="0"/>
    </comp>
    <comp name="--.HHE">
      <acc value="0.0426511672" flag="0"/>
      <vel value="0.0168735986" flag="0"/>
      <psa03 value="0.1129781138" flag="0"/>
      <psa10 value="0.0179797431" flag="0"/>
      <psa30 value="0.0042809843" flag="0"/>
    </comp>
    <comp name="--.HHZ">
      <acc value="0.0187647069" flag="0"/>
      <vel value="0.0099777106" flag="0"/>
      <psa03 value="0.0313397068" flag="0"/>
      <psa10 value="0.0129726369" flag="0"/>
      <psa30 value="0.0025465801" flag="0"/>
    </comp>
  </station>
  <station code="LKR" name="LKR" netid="HL" insttype="30" lat="38.6496" lon="22.9989">
    <comp name="--.HHN">
      <acc value="0.0499063096" flag="0"/>
      <vel value="0.0139118287" flag="0"/>
      <psa03 value="0.0759997205" flag="0"/>
      <psa10 value="0.0070777807" flag="0"/>
      <psa30 value="0.0007705496" flag="0"/>
    </comp>
    <comp name="--.HHE">
      <acc value="0.0802190541" flag="0"/>
      <vel value="0.0186394773" flag="0"/>
      <psa03 value="0.0590793495" flag="0"/>
      <psa10 value="0.0071563200" flag="0"/>
      <psa30 value="0.0013073405" flag="0"/>
    </comp>
    <comp name="--.HHZ">
      <acc value="0.0289519445" flag="0"/>
      <vel value="0.0073777609" flag="0"/>
      <psa03 value="0.0220943063" flag="0"/>
      <psa10 value="0.0075410069" flag="0"/>
      <psa30 value="0.0010863985" flag="0"/>
    </comp>
  </station>
  <station code="NOAC" name="NOAC" netid="HL" insttype="CMG-5" lat="37.9738" lon="23.7177">
    <comp name="00.HNZ">
      <acc value="0.1787575421" flag="0"/>
      <vel value="0.0684475929" flag="0"/>
      <psa03 value="0.2427673405" flag="0"/>
      <psa10 value="0.0799266239" flag="0"/>
      <psa30 value="0.0115318407" flag="0"/>
    </comp>
    <comp name="00.HNN">
      <acc value="0.4405792589" flag="0"/>
      <vel value="0.1247231049" flag="0"/>
      <psa03 value="0.5536522613" flag="0"/>
      <psa10 value="0.0536860046" flag="0"/>
      <psa30 value="0.0103480575" flag="0"/>
    </comp>
    <comp name="00.HNE">
      <acc value="0.3108372024" flag="0"/>
      <vel value="0.0816132546" flag="0"/>
      <psa03 value="0.5653123231" flag="0"/>
      <psa10 value="0.0689953289" flag="0"/>
      <psa30 value="0.0125523615" flag="0"/>
    </comp>
  </station>
  <station code="PTL" name="PTL" netid="HL" insttype="120" lat="38.0473" lon="23.8638">
    <comp name="--.HHE">
      <acc value="0.7811448639" flag="0"/>
      <vel value="0.3688786969" flag="0"/>
      <psa03 value="1.1954647778" flag="0"/>
      <psa10 value="0.1650188030" flag="0"/>
      <psa30 value="0.0136588082" flag="0"/>
    </comp>
    <comp name="--.HHN">
      <acc value="0.8755948289" flag="0"/>
      <vel value="0.2941719571" flag="0"/>
      <psa03 value="1.0110591474" flag="0"/>
      <psa10 value="0.1400795372" flag="0"/>
      <psa30 value="0.0197140154" flag="0"/>
    </comp>
    <comp name="--.HHZ">
      <acc value="0.5672657294" flag="0"/>
      <vel value="0.2274645955" flag="0"/>
      <psa03 value="0.5914501023" flag="0"/>
      <psa10 value="0.1624538209" flag="0"/>
      <psa30 value="0.0227411727" flag="0"/>
    </comp>
  </station>
  <station code="VLY" name="VLY" netid="HL" insttype="120P," lat="37.8524" lon="23.7942">
    <comp name="--.HHE">
      <acc value="0.2605236371" flag="0"/>
      <vel value="0.1245096581" flag="0"/>
      <psa03 value="0.4230695030" flag="0"/>
      <psa10 value="0.0504876587" flag="0"/>
      <psa30 value="0.0088664921" flag="0"/>
    </comp>
    <comp name="--.HHN">
      <acc value="0.2895456877" flag="0"/>
      <vel value="0.0894401212" flag="0"/>
      <psa03 value="0.4413484707" flag="0"/>
      <psa10 value="0.0589739588" flag="0"/>
      <psa30 value="0.0042103964" flag="0"/>
    </comp>
    <comp name="--.HHZ">
      <acc value="0.1677079321" flag="0"/>
      <vel value="0.0827508730" flag="0"/>
      <psa03 value="0.3802208119" flag="0"/>
      <psa10 value="0.0262424091" flag="0"/>
      <psa30 value="0.0055601363" flag="0"/>
    </comp>
  </station>
  <station code="LTK" name="LTK" netid="HP" insttype="120s" lat="38.0228" lon="22.9673">
    <comp name="--.HHE">
      <acc value="0.0569774794" flag="0"/>
      <vel value="0.0320558825" flag="0"/>
      <psa03 value="0.1810144489" flag="0"/>
      <psa10 value="0.0137375068" flag="0"/>
      <psa30 value="0.0018513861" flag="0"/>
    </comp>
    <comp name="--.HHN">
      <acc value="0.0472185736" flag="0"/>
      <vel value="0.0203568063" flag="0"/>
      <psa03 value="0.1108582828" flag="0"/>
      <psa10 value="0.0202146263" flag="0"/>
      <psa30 value="0.0032071759" flag="0"/>
    </comp>
    <comp name="--.HHZ">
      <acc value="0.0347473932" flag="0"/>
      <vel value="0.0150714061" flag="0"/>
      <psa03 value="0.0608314399" flag="0"/>
      <psa10 value="0.0126914664" flag="0"/>
      <psa30 value="0.0016460462" flag="0"/>
    </comp>
  </station>
  <station code="AOS2" name="AOS2" netid="HT" insttype="100" lat="39.1478" lon="23.8436">
    <comp name="--.HHE">
      <acc value="0.0095855795" flag="0"/>
      <vel value="0.0088409797" flag="0"/>
      <psa03 value="0.0205143364" flag="0"/>
      <psa10 value="0.0106699535" flag="0"/>
      <psa30 value="0.0007523579" flag="0"/>
    </comp>
    <comp name="--.HHZ">
      <acc value="0.0088862412" flag="0"/>
      <vel value="0.0048588511" flag="0"/>
      <psa03 value="0.0171955391" flag="0"/>
      <psa10 value="0.0067786291" flag="0"/>
      <psa30 value="0.0006472522" flag="0"/>
    </comp>
    <comp name="--.HHN">
      <acc value="0.0104987172" flag="0"/>
      <vel value="0.0076836498" flag="0"/>
      <psa03 value="0.0424866823" flag="0"/>
      <psa10 value="0.0151567668" flag="0"/>
      <psa30 value="0.0006576407" flag="0"/>
    </comp>
  </station>
</stationlist>
