<?xml version="1.0" encoding="UTF-8" standalone="yes"?>
<!DOCTYPE earthquake SYSTEM "stationlist.dtd">
<stationlist created="" xmlns="ch.ethz.sed.shakemap.usgs.xml">
  <station code="BZK" name="BZK" netid="KO" insttype="CMG-3T" lat="41.96" lon="34.0035">
    <comp name="--.HHE">
      <acc value="0.0192686968" flag="0"/>
      <vel value="0.0144459246" flag="0"/>
      <psa03 value="0.0561865003" flag="0"/>
      <psa10 value="0.0182789064" flag="0"/>
      <psa30 value="0.0007852739" flag="0"/>
    </comp>
    <comp name="--.HHN">
      <acc value="0.0178759018" flag="0"/>
      <vel value="0.0141548469" flag="0"/>
      <psa03 value="0.0521585140" flag="0"/>
      <psa10 value="0.0121524602" flag="0"/>
      <psa30 value="0.0007224992" flag="0"/>
    </comp>
    <comp name="--.HHZ">
      <acc value="0.0207492236" flag="0"/>
      <vel value="0.0114795329" flag="0"/>
      <psa03 value="0.0384250771" flag="0"/>
      <psa10 value="0.0085784449" flag="0"/>
      <psa30 value="0.0004632055" flag="0"/>
    </comp>
  </station>
  <station code="CANT" name="CANT" netid="KO" insttype="CMG-3ESP" lat="40.6062" lon="33.6193">
    <comp name="--.HHN">
      <acc value="0.1149856113" flag="0"/>
      <vel value="0.0541624864" flag="0"/>
      <psa03 value="0.2278838494" flag="0"/>
      <psa10 value="0.0494109172" flag="0"/>
      <psa30 value="0.0036806992" flag="0"/>
    </comp>
    <comp name="--.HHZ">
      <acc value="0.0324601799" flag="0"/>
      <vel value="0.0153435537" flag="0"/>
      <psa03 value="0.0713936206" flag="0"/>
      <psa10 value="0.0357361615" flag="0"/>
      <psa30 value="0.0015818664" flag="0"/>
    </comp>
    <comp name="--.HHE">
      <acc value="0.0620195799" flag="0"/>
      <vel value="0.0382392966" flag="0"/>
      <psa03 value="0.1883550149" flag="0"/>
      <psa10 value="0.0492986363" flag="0"/>
      <psa30 value="0.0049034135" flag="0"/>
    </comp>
  </station>
  <station code="KMON" name="KMON" netid="KO" insttype="CMG-5T" lat="41.3738" lon="33.7839">
    <comp name="--.HNE">
      <acc value="0.1636981462" flag="0"/>
      <vel value="0.1210914664" flag="0"/>
      <psa03 value="0.2801520034" flag="0"/>
      <psa10 value="0.0842801700" flag="0"/>
      <psa30 value="0.0052030517" flag="0"/>
    </comp>
    <comp name="--.HNN">
      <acc value="0.2066615401" flag="0"/>
      <vel value="0.0815948294" flag="0"/>
      <psa03 value="0.2460552148" flag="0"/>
      <psa10 value="0.0824209491" flag="0"/>
      <psa30 value="0.0031097924" flag="0"/>
    </comp>
    <comp name="--.HNZ">
      <acc value="0.2984185140" flag="0"/>
      <vel value="0.0837644448" flag="0"/>
      <psa03 value="0.2983360146" flag="0"/>
      <psa10 value="0.0676443043" flag="0"/>
      <psa30 value="0.0033552211" flag="0"/>
    </comp>
  </station>
  <station code="KURC" name="KURC" netid="KO" insttype="CMG-3T" lat="41.8456" lon="32.743">
    <comp name="--.HHE">
      <acc value="0.0000081861" flag="0"/>
      <vel value="0.0000007233" flag="0"/>
      <psa03 value="0.0000021189" flag="0"/>
      <psa10 value="0.0000006336" flag="0"/>
      <psa30 value="0.0000001412" flag="0"/>
    </comp>
    <comp name="--.HHN">
      <acc value="0.0357140157" flag="0"/>
      <vel value="0.0142370315" flag="0"/>
      <psa03 value="0.0861449650" flag="0"/>
      <psa10 value="0.0116168816" flag="0"/>
      <psa30 value="0.0004943631" flag="0"/>
    </comp>
    <comp name="--.HHZ">
      <acc value="0.0121081055" flag="0"/>
      <vel value="0.0053240746" flag="0"/>
      <psa03 value="0.0223342207" flag="0"/>
      <psa10 value="0.0065965413" flag="0"/>
      <psa30 value="0.0003331952" flag="0"/>
    </comp>
  </station>
  <station code="SAFT" name="SAFT" netid="KO" insttype="CMG-5T" lat="41.2398" lon="32.6871">
    <comp name="--.HNE">
      <acc value="0.0279689585" flag="0"/>
      <vel value="0.0062334191" flag="0"/>
      <psa03 value="0.0187695320" flag="0"/>
      <psa10 value="0.0053278809" flag="0"/>
      <psa30 value="0.0005156733" flag="0"/>
    </comp>
    <comp name="--.HNZ">
      <acc value="0.0163807732" flag="0"/>
      <vel value="0.0040718985" flag="0"/>
      <psa03 value="0.0130999008" flag="0"/>
      <psa10 value="0.0043862755" flag="0"/>
      <psa30 value="0.0004159668" flag="0"/>
    </comp>
    <comp name="--.HNN">
      <acc value="0.0348379351" flag="0"/>
      <vel value="0.0098364523" flag="0"/>
      <psa03 value="0.0421035563" flag="0"/>
      <psa10 value="0.0053012483" flag="0"/>
      <psa30 value="0.0004391978" flag="0"/>
    </comp>
  </station>
  <station code="YALI" name="YALI" netid="KO" insttype="CMG-6T" lat="40.7676" lon="32.9822">
    <comp name="--.HHN">
      <acc value="0.0294182907" flag="0"/>
      <vel value="0.0186423167" flag="0"/>
      <psa03 value="0.0564624826" flag="0"/>
      <psa10 value="0.0154826100" flag="0"/>
      <psa30 value="0.0017852050" flag="0"/>
    </comp>
    <comp name="--.HHZ">
      <acc value="0.0176652610" flag="0"/>
      <vel value="0.0109414159" flag="0"/>
      <psa03 value="0.0516404778" flag="0"/>
      <psa10 value="0.0170233343" flag="0"/>
      <psa30 value="0.0014808778" flag="0"/>
    </comp>
    <comp name="--.HHE">
      <acc value="0.0387375647" flag="0"/>
      <vel value="0.0231372848" flag="0"/>
      <psa03 value="0.0937361111" flag="0"/>
      <psa10 value="0.0309477402" flag="0"/>
      <psa30 value="0.0023567613" flag="0"/>
    </comp>
  </station>
</stationlist>
