<?xml version="1.0" encoding="UTF-8" standalone="yes"?>
<!DOCTYPE earthquake SYSTEM "stationlist.dtd">
<stationlist created="" xmlns="ch.ethz.sed.shakemap.usgs.xml">
  <station code="BZK" name="BZK" netid="KO" insttype="CMG-3T" lat="41.96" lon="34.0035">
    <comp name="--.HHE">
      <acc value="0.0192686967" flag="0"/>
      <vel value="0.0144459252" flag="0"/>
      <psa03 value="0.0561865003" flag="0"/>
      <psa10 value="0.0182789064" flag="0"/>
      <psa30 value="0.0007852721" flag="0"/>
    </comp>
    <comp name="--.HHZ">
      <acc value="0.0207492239" flag="0"/>
      <vel value="0.0114795329" flag="0"/>
      <psa03 value="0.0384250771" flag="0"/>
      <psa10 value="0.0085784449" flag="0"/>
      <psa30 value="0.0004632058" flag="0"/>
    </comp>
    <comp name="--.HHN">
      <acc value="0.0178759018" flag="0"/>
      <vel value="0.0141548464" flag="0"/>
      <psa03 value="0.0521585140" flag="0"/>
      <psa10 value="0.0121524602" flag="0"/>
      <psa30 value="0.0007225038" flag="0"/>
    </comp>
  </station>
  <station code="CANT" name="CANT" netid="KO" insttype="CMG-3ESP" lat="40.6062" lon="33.6193">
    <comp name="--.HHE">
      <acc value="0.0620195800" flag="0"/>
      <vel value="0.0382392965" flag="0"/>
      <psa03 value="0.1883550149" flag="0"/>
      <psa10 value="0.0492986364" flag="0"/>
      <psa30 value="0.0049034021" flag="0"/>
    </comp>
    <comp name="--.HHZ">
      <acc value="0.0324601800" flag="0"/>
      <vel value="0.0153435533" flag="0"/>
      <psa03 value="0.0713936206" flag="0"/>
      <psa10 value="0.0357361614" flag="0"/>
      <psa30 value="0.0015818845" flag="0"/>
    </comp>
    <comp name="--.HHN">
      <acc value="0.1149856110" flag="0"/>
      <vel value="0.0541624871" flag="0"/>
      <psa03 value="0.2278838494" flag="0"/>
      <psa10 value="0.0494109173" flag="0"/>
      <psa30 value="0.0036807029" flag="0"/>
    </comp>
  </station>
  <station code="KMON" name="KMON" netid="KO" insttype="CMG-5T" lat="41.3738" lon="33.7839">
    <comp name="--.HNE">
      <acc value="0.1636981651" flag="0"/>
      <vel value="0.1210914643" flag="0"/>
      <psa03 value="0.2801520034" flag="0"/>
      <psa10 value="0.0842801697" flag="0"/>
      <psa30 value="0.0052024810" flag="0"/>
    </comp>
    <comp name="--.HNN">
      <acc value="0.2066616233" flag="0"/>
      <vel value="0.0815948281" flag="0"/>
      <psa03 value="0.2460552148" flag="0"/>
      <psa10 value="0.0824209473" flag="0"/>
      <psa30 value="0.0031097867" flag="0"/>
    </comp>
    <comp name="--.HNZ">
      <acc value="0.2984185508" flag="0"/>
      <vel value="0.0837644450" flag="0"/>
      <psa03 value="0.2983360146" flag="0"/>
      <psa10 value="0.0676443029" flag="0"/>
      <psa30 value="0.0033550231" flag="0"/>
    </comp>
  </station>
  <station code="KURC" name="KURC" netid="KO" insttype="CMG-3T" lat="41.8456" lon="32.743">
    <comp name="--.HHE">
      <acc value="0.0000081861" flag="0"/>
      <vel value="0.0000007233" flag="0"/>
      <psa03 value="0.0000023877" flag="0"/>
      <psa10 value="0.0000007612" flag="0"/>
      <psa30 value="0.0000001415" flag="0"/>
    </comp>
    <comp name="--.HHN">
      <acc value="0.0357140157" flag="0"/>
      <vel value="0.0142370315" flag="0"/>
      <psa03 value="0.0861449650" flag="0"/>
      <psa10 value="0.0116168816" flag="0"/>
      <psa30 value="0.0004943633" flag="0"/>
    </comp>
    <comp name="--.HHZ">
      <acc value="0.0121081055" flag="0"/>
      <vel value="0.0053240746" flag="0"/>
      <psa03 value="0.0223342207" flag="0"/>
      <psa10 value="0.0065965413" flag="0"/>
      <psa30 value="0.0003331903" flag="0"/>
    </comp>
  </station>
  <station code="LOD" name="LOD" netid="KO" insttype="CMG-3T" lat="39.8884" lon="32.7634">
    <comp name="--.HHE">
      <acc value="0.0299440353" flag="0"/>
      <vel value="0.0164357762" flag="0"/>
      <psa03 value="0.0740700142" flag="0"/>
      <psa10 value="0.0123145452" flag="0"/>
      <psa30 value="0.0008576897" flag="0"/>
    </comp>
    <comp name="--.HHN">
      <acc value="0.0197212928" flag="0"/>
      <vel value="0.0074453376" flag="0"/>
      <psa03 value="0.0569321880" flag="0"/>
      <psa10 value="0.0037991296" flag="0"/>
      <psa30 value="0.0002858431" flag="0"/>
    </comp>
    <comp name="--.HHZ">
      <acc value="0.0109704925" flag="0"/>
      <vel value="0.0065303199" flag="0"/>
      <psa03 value="0.0317568287" flag="0"/>
      <psa10 value="0.0035036661" flag="0"/>
      <psa30 value="0.0003732583" flag="0"/>
    </comp>
  </station>
  <station code="SAFT" name="SAFT" netid="KO" insttype="CMG-5T" lat="41.2398" lon="32.6871">
    <comp name="--.HNZ">
      <acc value="0.0163807457" flag="0"/>
      <vel value="0.0040718985" flag="0"/>
      <psa03 value="0.0130999008" flag="0"/>
      <psa10 value="0.0043862748" flag="0"/>
      <psa30 value="0.0004158319" flag="0"/>
    </comp>
    <comp name="--.HNE">
      <acc value="0.0279689514" flag="0"/>
      <vel value="0.0062334232" flag="0"/>
      <psa03 value="0.0187695320" flag="0"/>
      <psa10 value="0.0053278811" flag="0"/>
      <psa30 value="0.0005162665" flag="0"/>
    </comp>
    <comp name="--.HNN">
      <acc value="0.0348379359" flag="0"/>
      <vel value="0.0098364512" flag="0"/>
      <psa03 value="0.0421035563" flag="0"/>
      <psa10 value="0.0053012474" flag="0"/>
      <psa30 value="0.0004392694" flag="0"/>
    </comp>
  </station>
  <station code="YALI" name="YALI" netid="KO" insttype="CMG-6T" lat="40.7676" lon="32.9822">
    <comp name="--.HHE">
      <acc value="0.0387375663" flag="0"/>
      <vel value="0.0231372841" flag="0"/>
      <psa03 value="0.0937361111" flag="0"/>
      <psa10 value="0.0309477402" flag="0"/>
      <psa30 value="0.0023567589" flag="0"/>
    </comp>
    <comp name="--.HHZ">
      <acc value="0.0176652541" flag="0"/>
      <vel value="0.0109414162" flag="0"/>
      <psa03 value="0.0516404778" flag="0"/>
      <psa10 value="0.0170233343" flag="0"/>
      <psa30 value="0.0014808743" flag="0"/>
    </comp>
    <comp name="--.HHN">
      <acc value="0.0294182800" flag="0"/>
      <vel value="0.0186423166" flag="0"/>
      <psa03 value="0.0564624826" flag="0"/>
      <psa10 value="0.0154826100" flag="0"/>
      <psa30 value="0.0017852028" flag="0"/>
    </comp>
  </station>
</stationlist>
