<?xml version="1.0" encoding="UTF-8" standalone="yes"?>
<!DOCTYPE earthquake SYSTEM "stationlist.dtd">
<stationlist created="" xmlns="ch.ethz.sed.shakemap.usgs.xml">
  <station code="BZK" name="BZK" netid="KO" insttype="CMG-3T" lat="41.96" lon="34.0035">
    <comp name="--.HHE">
      <acc value="0.0192686967" flag="0"/>
      <vel value="0.0144459251" flag="0"/>
      <psa03 value="0.0561865003" flag="0"/>
      <psa10 value="0.0182789064" flag="0"/>
      <psa30 value="0.0007853792" flag="0"/>
    </comp>
    <comp name="--.HHZ">
      <acc value="0.0207492234" flag="0"/>
      <vel value="0.0114795325" flag="0"/>
      <psa03 value="0.0384250771" flag="0"/>
      <psa10 value="0.0085784448" flag="0"/>
      <psa30 value="0.0004633404" flag="0"/>
    </comp>
    <comp name="--.HHN">
      <acc value="0.0178759020" flag="0"/>
      <vel value="0.0141548463" flag="0"/>
      <psa03 value="0.0521585140" flag="0"/>
      <psa10 value="0.0121524602" flag="0"/>
      <psa30 value="0.0007223951" flag="0"/>
    </comp>
  </station>
  <station code="CANT" name="CANT" netid="KO" insttype="CMG-3ESP" lat="40.6062" lon="33.6193">
    <comp name="--.HHE">
      <acc value="0.0620195797" flag="0"/>
      <vel value="0.0382392964" flag="0"/>
      <psa03 value="0.1883550149" flag="0"/>
      <psa10 value="0.0492986363" flag="0"/>
      <psa30 value="0.0049035253" flag="0"/>
    </comp>
    <comp name="--.HHN">
      <acc value="0.1149856113" flag="0"/>
      <vel value="0.0541624876" flag="0"/>
      <psa03 value="0.2278838494" flag="0"/>
      <psa10 value="0.0494109172" flag="0"/>
      <psa30 value="0.0036804729" flag="0"/>
    </comp>
    <comp name="--.HHZ">
      <acc value="0.0324601797" flag="0"/>
      <vel value="0.0153435549" flag="0"/>
      <psa03 value="0.0713936206" flag="0"/>
      <psa10 value="0.0357361615" flag="0"/>
      <psa30 value="0.0015818687" flag="0"/>
    </comp>
  </station>
  <station code="KMON" name="KMON" netid="KO" insttype="CMG-5T" lat="41.3738" lon="33.7839">
    <comp name="--.HNE">
      <acc value="0.1636981585" flag="0"/>
      <vel value="0.1210914618" flag="0"/>
      <psa03 value="0.2801520034" flag="0"/>
      <psa10 value="0.0842801783" flag="0"/>
      <psa30 value="0.0052075907" flag="0"/>
    </comp>
    <comp name="--.HNN">
      <acc value="0.2066615698" flag="0"/>
      <vel value="0.0815948166" flag="0"/>
      <psa03 value="0.2460552148" flag="0"/>
      <psa10 value="0.0824209822" flag="0"/>
      <psa30 value="0.0031068669" flag="0"/>
    </comp>
    <comp name="--.HNZ">
      <acc value="0.2984185215" flag="0"/>
      <vel value="0.0837644478" flag="0"/>
      <psa03 value="0.2983360146" flag="0"/>
      <psa10 value="0.0676443318" flag="0"/>
      <psa30 value="0.0033616792" flag="0"/>
    </comp>
  </station>
  <station code="KURC" name="KURC" netid="KO" insttype="CMG-3T" lat="41.8456" lon="32.743">
    <comp name="--.HHE">
      <acc value="0.0000081861" flag="0"/>
      <vel value="0.0000007233" flag="0"/>
      <psa03 value="0.0000021189" flag="0"/>
      <psa10 value="0.0000007634" flag="0"/>
      <psa30 value="0.0000001386" flag="0"/>
    </comp>
    <comp name="--.HHN">
      <acc value="0.0357140161" flag="0"/>
      <vel value="0.0142370319" flag="0"/>
      <psa03 value="0.0861449650" flag="0"/>
      <psa10 value="0.0116168816" flag="0"/>
      <psa30 value="0.0004945629" flag="0"/>
    </comp>
    <comp name="--.HHZ">
      <acc value="0.0121081050" flag="0"/>
      <vel value="0.0053240741" flag="0"/>
      <psa03 value="0.0223342207" flag="0"/>
      <psa10 value="0.0065965415" flag="0"/>
      <psa30 value="0.0003332729" flag="0"/>
    </comp>
  </station>
  <station code="SAFT" name="SAFT" netid="KO" insttype="CMG-5T" lat="41.2398" lon="32.6871">
    <comp name="--.HNE">
      <acc value="0.0279689645" flag="0"/>
      <vel value="0.0062334449" flag="0"/>
      <psa03 value="0.0187695320" flag="0"/>
      <psa10 value="0.0053278809" flag="0"/>
      <psa30 value="0.0005108203" flag="0"/>
    </comp>
    <comp name="--.HNN">
      <acc value="0.0348379318" flag="0"/>
      <vel value="0.0098364541" flag="0"/>
      <psa03 value="0.0421035563" flag="0"/>
      <psa10 value="0.0053012450" flag="0"/>
      <psa30 value="0.0004374463" flag="0"/>
    </comp>
    <comp name="--.HNZ">
      <acc value="0.0163807634" flag="0"/>
      <vel value="0.0040718927" flag="0"/>
      <psa03 value="0.0130999008" flag="0"/>
      <psa10 value="0.0043862883" flag="0"/>
      <psa30 value="0.0004146625" flag="0"/>
    </comp>
  </station>
  <station code="YALI" name="YALI" netid="KO" insttype="CMG-6T" lat="40.7676" lon="32.9822">
    <comp name="--.HHZ">
      <acc value="0.0176652596" flag="0"/>
      <vel value="0.0109414176" flag="0"/>
      <psa03 value="0.0516404778" flag="0"/>
      <psa10 value="0.0170233343" flag="0"/>
      <psa30 value="0.0014809253" flag="0"/>
    </comp>
    <comp name="--.HHE">
      <acc value="0.0387375719" flag="0"/>
      <vel value="0.0231372789" flag="0"/>
      <psa03 value="0.0937361111" flag="0"/>
      <psa10 value="0.0309477402" flag="0"/>
      <psa30 value="0.0023567758" flag="0"/>
    </comp>
    <comp name="--.HHN">
      <acc value="0.0294182789" flag="0"/>
      <vel value="0.0186423158" flag="0"/>
      <psa03 value="0.0564624826" flag="0"/>
      <psa10 value="0.0154826100" flag="0"/>
      <psa30 value="0.0017852192" flag="0"/>
    </comp>
  </station>
</stationlist>
