<?xml version="1.0" encoding="UTF-8" standalone="yes"?>
<!DOCTYPE earthquake SYSTEM "stationlist.dtd">
<stationlist created="" xmlns="ch.ethz.sed.shakemap.usgs.xml">
  <station code="BZK" name="BZK" netid="KO" insttype="CMG-3T" lat="41.96" lon="34.0035">
    <comp name="--.HHE">
      <acc value="0.0192686968" flag="0"/>
      <vel value="0.0144459248" flag="0"/>
      <psa03 value="0.0561865003" flag="0"/>
      <psa10 value="0.0182789064" flag="0"/>
      <psa30 value="0.0007852805" flag="0"/>
    </comp>
    <comp name="--.HHZ">
      <acc value="0.0207492235" flag="0"/>
      <vel value="0.0114795327" flag="0"/>
      <psa03 value="0.0384250771" flag="0"/>
      <psa10 value="0.0085784449" flag="0"/>
      <psa30 value="0.0004632178" flag="0"/>
    </comp>
    <comp name="--.HHN">
      <acc value="0.0178759018" flag="0"/>
      <vel value="0.0141548470" flag="0"/>
      <psa03 value="0.0521585140" flag="0"/>
      <psa10 value="0.0121524602" flag="0"/>
      <psa30 value="0.0007224926" flag="0"/>
    </comp>
  </station>
  <station code="CANT" name="CANT" netid="KO" insttype="CMG-3ESP" lat="40.6062" lon="33.6193">
    <comp name="--.HHN">
      <acc value="0.1149856114" flag="0"/>
      <vel value="0.0541624866" flag="0"/>
      <psa03 value="0.2278838494" flag="0"/>
      <psa10 value="0.0494109174" flag="0"/>
      <psa30 value="0.0036806952" flag="0"/>
    </comp>
    <comp name="--.HHZ">
      <acc value="0.0324601798" flag="0"/>
      <vel value="0.0153435534" flag="0"/>
      <psa03 value="0.0713936206" flag="0"/>
      <psa10 value="0.0357361614" flag="0"/>
      <psa30 value="0.0015819008" flag="0"/>
    </comp>
    <comp name="--.HHE">
      <acc value="0.0620195798" flag="0"/>
      <vel value="0.0382392970" flag="0"/>
      <psa03 value="0.1883550149" flag="0"/>
      <psa10 value="0.0492986364" flag="0"/>
      <psa30 value="0.0049033986" flag="0"/>
    </comp>
  </station>
  <station code="KMON" name="KMON" netid="KO" insttype="CMG-5T" lat="41.3738" lon="33.7839">
    <comp name="--.HNN">
      <acc value="0.2066615428" flag="0"/>
      <vel value="0.0815948309" flag="0"/>
      <psa03 value="0.2460552148" flag="0"/>
      <psa10 value="0.0824209540" flag="0"/>
      <psa30 value="0.0031102043" flag="0"/>
    </comp>
    <comp name="--.HNZ">
      <acc value="0.2984185172" flag="0"/>
      <vel value="0.0837644410" flag="0"/>
      <psa03 value="0.2983360146" flag="0"/>
      <psa10 value="0.0676443099" flag="0"/>
      <psa30 value="0.0033560294" flag="0"/>
    </comp>
    <comp name="--.HNE">
      <acc value="0.1636981477" flag="0"/>
      <vel value="0.1210914638" flag="0"/>
      <psa03 value="0.2801520034" flag="0"/>
      <psa10 value="0.0842801705" flag="0"/>
      <psa30 value="0.0052041554" flag="0"/>
    </comp>
  </station>
  <station code="KURC" name="KURC" netid="KO" insttype="CMG-3T" lat="41.8456" lon="32.743">
    <comp name="--.HHE">
      <acc value="0.0000081861" flag="0"/>
      <vel value="0.0000007233" flag="0"/>
      <psa03 value="0.0000021189" flag="0"/>
      <psa10 value="0.0000006336" flag="0"/>
      <psa30 value="0.0000001415" flag="0"/>
    </comp>
    <comp name="--.HHN">
      <acc value="0.0357140157" flag="0"/>
      <vel value="0.0142370313" flag="0"/>
      <psa03 value="0.0861449650" flag="0"/>
      <psa10 value="0.0116168816" flag="0"/>
      <psa30 value="0.0004943673" flag="0"/>
    </comp>
    <comp name="--.HHZ">
      <acc value="0.0121081055" flag="0"/>
      <vel value="0.0053240746" flag="0"/>
      <psa03 value="0.0223342207" flag="0"/>
      <psa10 value="0.0065965413" flag="0"/>
      <psa30 value="0.0003332003" flag="0"/>
    </comp>
  </station>
  <station code="SAFT" name="SAFT" netid="KO" insttype="CMG-5T" lat="41.2398" lon="32.6871">
    <comp name="--.HNE">
      <acc value="0.0279689564" flag="0"/>
      <vel value="0.0062334299" flag="0"/>
      <psa03 value="0.0187695320" flag="0"/>
      <psa10 value="0.0053278811" flag="0"/>
      <psa30 value="0.0005171478" flag="0"/>
    </comp>
    <comp name="--.HNN">
      <acc value="0.0348379364" flag="0"/>
      <vel value="0.0098364502" flag="0"/>
      <psa03 value="0.0421035563" flag="0"/>
      <psa10 value="0.0053012470" flag="0"/>
      <psa30 value="0.0004390515" flag="0"/>
    </comp>
    <comp name="--.HNZ">
      <acc value="0.0163807710" flag="0"/>
      <vel value="0.0040719032" flag="0"/>
      <psa03 value="0.0130999008" flag="0"/>
      <psa10 value="0.0043862741" flag="0"/>
      <psa30 value="0.0004153948" flag="0"/>
    </comp>
  </station>
  <station code="YALI" name="YALI" netid="KO" insttype="CMG-6T" lat="40.7676" lon="32.9822">
    <comp name="--.HHZ">
      <acc value="0.0176652599" flag="0"/>
      <vel value="0.0109414162" flag="0"/>
      <psa03 value="0.0516404778" flag="0"/>
      <psa10 value="0.0170233343" flag="0"/>
      <psa30 value="0.0014808732" flag="0"/>
    </comp>
    <comp name="--.HHN">
      <acc value="0.0294182878" flag="0"/>
      <vel value="0.0186423173" flag="0"/>
      <psa03 value="0.0564624826" flag="0"/>
      <psa10 value="0.0154826100" flag="0"/>
      <psa30 value="0.0017852016" flag="0"/>
    </comp>
    <comp name="--.HHE">
      <acc value="0.0387375630" flag="0"/>
      <vel value="0.0231372815" flag="0"/>
      <psa03 value="0.0937361111" flag="0"/>
      <psa10 value="0.0309477402" flag="0"/>
      <psa30 value="0.0023567563" flag="0"/>
    </comp>
  </station>
</stationlist>
