<?xml version="1.0" encoding="UTF-8" standalone="yes"?>
<!DOCTYPE earthquake SYSTEM "stationlist.dtd">
<stationlist created="" xmlns="ch.ethz.sed.shakemap.usgs.xml">
  <station code="PE01" name="PE01" netid="Z3" source="GFZ" insttype="CMG-3ESP/60" lat="38.017" lon="22.0283">
    <comp name="--.HHE">
      <acc value="0.0207870613" flag="0"/>
      <vel value="0.0169805216" flag="0"/>
      <psa03 value="0.0552662072" flag="0"/>
      <psa10 value="0.0197515795" flag="0"/>
      <psa30 value="0.0025642663" flag="0"/>
    </comp>
    <comp name="--.HHN">
      <acc value="0.0166944335" flag="0"/>
      <vel value="0.0126262723" flag="0"/>
      <psa03 value="0.0473322891" flag="0"/>
      <psa10 value="0.0167502465" flag="0"/>
      <psa30 value="0.0017553836" flag="0"/>
    </comp>
    <comp name="--.HHZ">
      <acc value="0.0127655925" flag="0"/>
      <vel value="0.0090283315" flag="0"/>
      <psa03 value="0.0380434000" flag="0"/>
      <psa10 value="0.0157110360" flag="0"/>
      <psa30 value="0.0023072584" flag="0"/>
    </comp>
  </station>
  <station code="PE02" name="PE02" netid="Z3" source="GFZ" insttype="CMG-3ESP/60" lat="37.8958" lon="22.4907">
    <comp name="--.HHE">
      <acc value="0.0106800163" flag="0"/>
      <vel value="0.0078403397" flag="0"/>
      <psa03 value="0.0280410542" flag="0"/>
      <psa10 value="0.0092117246" flag="0"/>
      <psa30 value="0.0030455335" flag="0"/>
    </comp>
    <comp name="--.HHN">
      <acc value="0.0082345194" flag="0"/>
      <vel value="0.0059172279" flag="0"/>
      <psa03 value="0.0194714131" flag="0"/>
      <psa10 value="0.0118611656" flag="0"/>
      <psa30 value="0.0016285036" flag="0"/>
    </comp>
    <comp name="--.HHZ">
      <acc value="0.0076274879" flag="0"/>
      <vel value="0.0068856696" flag="0"/>
      <psa03 value="0.0173093657" flag="0"/>
      <psa10 value="0.0156983340" flag="0"/>
      <psa30 value="0.0017034601" flag="0"/>
    </comp>
  </station>
  <station code="PE03" name="PE03" netid="Z3" source="GFZ" insttype="CMG-3ESP/60" lat="37.3784" lon="21.7722">
    <comp name="--.HHE">
      <acc value="0.0719424501" flag="0"/>
      <vel value="0.0451243981" flag="0"/>
      <psa03 value="0.2416078338" flag="0"/>
      <psa10 value="0.0328023690" flag="0"/>
      <psa30 value="0.0040777629" flag="0"/>
    </comp>
    <comp name="--.HHN">
      <acc value="0.0760197647" flag="0"/>
      <vel value="0.0411519309" flag="0"/>
      <psa03 value="0.1899958616" flag="0"/>
      <psa10 value="0.0359262667" flag="0"/>
      <psa30 value="0.0034515349" flag="0"/>
    </comp>
    <comp name="--.HHZ">
      <acc value="0.0492883213" flag="0"/>
      <vel value="0.0194895386" flag="0"/>
      <psa03 value="0.1094806521" flag="0"/>
      <psa10 value="0.0341090284" flag="0"/>
      <psa30 value="0.0037502437" flag="0"/>
    </comp>
  </station>
  <station code="PE05" name="PE05" netid="Z3" source="GFZ" insttype="CMG-3ESP/60" lat="37.5128" lon="22.4553">
    <comp name="--.HHE">
      <acc value="0.0119057102" flag="0"/>
      <vel value="0.0119003617" flag="0"/>
      <psa03 value="0.0433678770" flag="0"/>
      <psa10 value="0.0214829525" flag="0"/>
      <psa30 value="0.0024120485" flag="0"/>
    </comp>
    <comp name="--.HHN">
      <acc value="0.0123845094" flag="0"/>
      <vel value="0.0102446285" flag="0"/>
      <psa03 value="0.0286251182" flag="0"/>
      <psa10 value="0.0245403606" flag="0"/>
      <psa30 value="0.0021444006" flag="0"/>
    </comp>
    <comp name="--.HHZ">
      <acc value="0.0072927107" flag="0"/>
      <vel value="0.0100308881" flag="0"/>
      <psa03 value="0.0208963533" flag="0"/>
      <psa10 value="0.0136981430" flag="0"/>
      <psa30 value="0.0028810429" flag="0"/>
    </comp>
  </station>
  <station code="PE06" name="PE06" netid="Z3" source="GFZ" insttype="CMG-3ESP/60" lat="37.1787" lon="21.9252">
    <comp name="--.HHE">
      <acc value="0.0445419875" flag="0"/>
      <vel value="0.0259812517" flag="0"/>
      <psa03 value="0.0898651468" flag="0"/>
      <psa10 value="0.0349852573" flag="0"/>
      <psa30 value="0.0040283695" flag="0"/>
    </comp>
    <comp name="--.HHN">
      <acc value="0.0436139467" flag="0"/>
      <vel value="0.0268339484" flag="0"/>
      <psa03 value="0.1379823370" flag="0"/>
      <psa10 value="0.0453971427" flag="0"/>
      <psa30 value="0.0044957461" flag="0"/>
    </comp>
    <comp name="--.HHZ">
      <acc value="0.0227004152" flag="0"/>
      <vel value="0.0188884979" flag="0"/>
      <psa03 value="0.0656885876" flag="0"/>
      <psa10 value="0.0258566699" flag="0"/>
      <psa30 value="0.0034969646" flag="0"/>
    </comp>
  </station>
  <station code="PE07" name="PE07" netid="Z3" source="GFZ" insttype="CMG-3ESP/60" lat="37.1478" lon="22.8195">
    <comp name="--.HHE">
      <acc value="0.0052956785" flag="0"/>
      <vel value="0.0072246191" flag="0"/>
      <psa03 value="0.0188212220" flag="0"/>
      <psa10 value="0.0088608177" flag="0"/>
      <psa30 value="0.0021499596" flag="0"/>
    </comp>
    <comp name="--.HHN">
      <acc value="0.0080764376" flag="0"/>
      <vel value="0.0071444104" flag="0"/>
      <psa03 value="0.0206961975" flag="0"/>
      <psa10 value="0.0107745915" flag="0"/>
      <psa30 value="0.0016011333" flag="0"/>
    </comp>
    <comp name="--.HHZ">
      <acc value="0.0057657043" flag="0"/>
      <vel value="0.0045983480" flag="0"/>
      <psa03 value="0.0148689542" flag="0"/>
      <psa10 value="0.0070298269" flag="0"/>
      <psa30 value="0.0015702592" flag="0"/>
    </comp>
  </station>
  <station code="PE08" name="PE08" netid="Z3" source="GFZ" insttype="CMG-3ESP/60" lat="36.8311" lon="22.442">
    <comp name="--.HHE">
      <acc value="0.0353815696" flag="0"/>
      <vel value="0.0206650778" flag="0"/>
      <psa03 value="0.0940976479" flag="0"/>
      <psa10 value="0.0417196105" flag="0"/>
      <psa30 value="0.0022179498" flag="0"/>
    </comp>
    <comp name="--.HHN">
      <acc value="0.0222089359" flag="0"/>
      <vel value="0.0162758814" flag="0"/>
      <psa03 value="0.0656889343" flag="0"/>
      <psa10 value="0.0302777684" flag="0"/>
      <psa30 value="0.0026318421" flag="0"/>
    </comp>
    <comp name="--.HHZ">
      <acc value="0.0125407383" flag="0"/>
      <vel value="0.0092060526" flag="0"/>
      <psa03 value="0.0401947398" flag="0"/>
      <psa10 value="0.0166441180" flag="0"/>
      <psa30 value="0.0021357739" flag="0"/>
    </comp>
  </station>
  <station code="PE09" name="PE09" netid="Z3" source="GFZ" insttype="CMG-3ESP/60" lat="36.7921" lon="21.8879">
    <comp name="--.HHE">
      <acc value="0.0283033865" flag="0"/>
      <vel value="0.0223663019" flag="0"/>
      <psa03 value="0.0942165309" flag="0"/>
      <psa10 value="0.0244974633" flag="0"/>
      <psa30 value="0.0027322865" flag="0"/>
    </comp>
    <comp name="--.HHN">
      <acc value="0.0326684624" flag="0"/>
      <vel value="0.0163474796" flag="0"/>
      <psa03 value="0.0684341851" flag="0"/>
      <psa10 value="0.0199019945" flag="0"/>
      <psa30 value="0.0024106804" flag="0"/>
    </comp>
    <comp name="--.HHZ">
      <acc value="0.0176304166" flag="0"/>
      <vel value="0.0091143930" flag="0"/>
      <psa03 value="0.0485605094" flag="0"/>
      <psa10 value="0.0178557970" flag="0"/>
      <psa30 value="0.0020156993" flag="0"/>
    </comp>
  </station>
</stationlist>
