<?xml version="1.0" encoding="UTF-8" standalone="yes"?>
<!DOCTYPE earthquake SYSTEM "stationlist.dtd">
<stationlist created="" xmlns="ch.ethz.sed.shakemap.usgs.xml">
  <station code="IMMV" name="IMMV" netid="GE" insttype="STS-2/N" lat="35.4606" lon="23.9811">
    <comp name="--.HHE">
      <acc value="0.0186982783" flag="0"/>
      <vel value="0.0150345888" flag="0"/>
      <psa03 value="0.0614355220" flag="0"/>
      <psa10 value="0.0146533594" flag="0"/>
      <psa30 value="0.0007953701" flag="0"/>
    </comp>
    <comp name="--.HHN">
      <acc value="0.0165347428" flag="0"/>
      <vel value="0.0151541545" flag="0"/>
      <psa03 value="0.0655498231" flag="0"/>
      <psa10 value="0.0130499921" flag="0"/>
      <psa30 value="0.0010505525" flag="0"/>
    </comp>
    <comp name="--.HHZ">
      <acc value="0.0140335295" flag="0"/>
      <vel value="0.0113769532" flag="0"/>
      <psa03 value="0.0498729462" flag="0"/>
      <psa10 value="0.0065694175" flag="0"/>
      <psa30 value="0.0005025749" flag="0"/>
    </comp>
  </station>
  <station code="CHAN" name="CHAN" netid="HC" insttype="120" lat="35.5193" lon="24.0428">
    <comp name="--.HHN">
      <acc value="0.0233962148" flag="0"/>
      <vel value="0.0274224378" flag="0"/>
      <psa03 value="0.0500883300" flag="0"/>
      <psa10 value="0.0449048059" flag="0"/>
      <psa30 value="0.0017400542" flag="0"/>
    </comp>
    <comp name="--.HHE">
      <acc value="0.0302136396" flag="0"/>
      <vel value="0.0289561828" flag="0"/>
      <psa03 value="0.0576778689" flag="0"/>
      <psa10 value="0.0347908477" flag="0"/>
      <psa30 value="0.0023137759" flag="0"/>
    </comp>
    <comp name="--.HHZ">
      <acc value="0.0199362520" flag="0"/>
      <vel value="0.0095760331" flag="0"/>
      <psa03 value="0.0391561111" flag="0"/>
      <psa10 value="0.0188898400" flag="0"/>
      <psa30 value="0.0008660687" flag="0"/>
    </comp>
  </station>
  <station code="KNDR" name="KNDR" netid="HC" insttype="60" lat="35.2348" lon="23.6248">
    <comp name="--.HHZ">
      <acc value="0.0266734219" flag="0"/>
      <vel value="0.0183480745" flag="0"/>
      <psa03 value="0.0837794819" flag="0"/>
      <psa10 value="0.0275396687" flag="0"/>
      <psa30 value="0.0012550126" flag="0"/>
    </comp>
    <comp name="--.HHN">
      <acc value="0.0431793463" flag="0"/>
      <vel value="0.0420191496" flag="0"/>
      <psa03 value="0.1145667727" flag="0"/>
      <psa10 value="0.0536236044" flag="0"/>
      <psa30 value="0.0031436176" flag="0"/>
    </comp>
    <comp name="--.HHE">
      <acc value="0.0416413701" flag="0"/>
      <vel value="0.0288186773" flag="0"/>
      <psa03 value="0.1379152555" flag="0"/>
      <psa10 value="0.0431516782" flag="0"/>
      <psa30 value="0.0033225002" flag="0"/>
    </comp>
  </station>
  <station code="ANKY" name="ANKY" netid="HL" insttype="60" lat="35.867" lon="23.3012">
    <comp name="--.HHE">
      <acc value="0.0120543538" flag="0"/>
      <vel value="0.0086433683" flag="0"/>
      <psa03 value="0.0467222637" flag="0"/>
      <psa10 value="0.0071820260" flag="0"/>
      <psa30 value="0.0008791435" flag="0"/>
    </comp>
    <comp name="--.HHN">
      <acc value="0.0179474916" flag="0"/>
      <vel value="0.0096502145" flag="0"/>
      <psa03 value="0.0546208651" flag="0"/>
      <psa10 value="0.0047941006" flag="0"/>
      <psa30 value="0.0006125626" flag="0"/>
    </comp>
    <comp name="--.HHZ">
      <acc value="0.0137454189" flag="0"/>
      <vel value="0.0045007477" flag="0"/>
      <psa03 value="0.0370060428" flag="0"/>
      <psa10 value="0.0038779487" flag="0"/>
      <psa30 value="0.0002727625" flag="0"/>
    </comp>
  </station>
  <station code="IMMV" name="IMMV" netid="HL" insttype="120" lat="35.4606" lon="23.9811">
    <comp name="--.HHZ">
      <acc value="0.0136605811" flag="0"/>
      <vel value="0.0111874709" flag="0"/>
      <psa03 value="0.0485871038" flag="0"/>
      <psa10 value="0.0064900921" flag="0"/>
      <psa30 value="0.0004952419" flag="0"/>
    </comp>
    <comp name="--.HHE">
      <acc value="0.0182947870" flag="0"/>
      <vel value="0.0147765668" flag="0"/>
      <psa03 value="0.0597859835" flag="0"/>
      <psa10 value="0.0145235014" flag="0"/>
      <psa30 value="0.0007899067" flag="0"/>
    </comp>
    <comp name="--.HHN">
      <acc value="0.0160664887" flag="0"/>
      <vel value="0.0149599874" flag="0"/>
      <psa03 value="0.0638603267" flag="0"/>
      <psa10 value="0.0129364058" flag="0"/>
      <psa30 value="0.0010415366" flag="0"/>
    </comp>
  </station>
  <station code="VAM" name="VAM" netid="HL" insttype="CMG3ESPC-120s" lat="35.407" lon="24.1997">
    <comp name="--.HHE">
      <acc value="0.0092171537" flag="0"/>
      <vel value="0.0069575489" flag="0"/>
      <psa03 value="0.0253396173" flag="0"/>
      <psa10 value="0.0136638479" flag="0"/>
      <psa30 value="0.0004962598" flag="0"/>
    </comp>
    <comp name="--.HHN">
      <acc value="0.0159348546" flag="0"/>
      <vel value="0.0106261224" flag="0"/>
      <psa03 value="0.0252385378" flag="0"/>
      <psa10 value="0.0089176541" flag="0"/>
      <psa30 value="0.0007017383" flag="0"/>
    </comp>
    <comp name="--.HHZ">
      <acc value="0.0064193491" flag="0"/>
      <vel value="0.0050306053" flag="0"/>
      <psa03 value="0.0159653153" flag="0"/>
      <psa10 value="0.0061442805" flag="0"/>
      <psa30 value="0.0005845073" flag="0"/>
    </comp>
  </station>
</stationlist>
