<stationlist created="1778069829">
	<station code="CH01" name="CH01" netid="HI" source="ITSAK Strong Motion Network" insttype="" lat="35.517" lon="24.0208">
		<comp name="--.HNE" depth="0.0">
			<acc value="0.0171718762505765" flag="0"/>
			<vel value="0.020426579910555" flag="0"/>
			<psa03 value="0.0331539751041394" flag="0"/>
			<psa10 value="0.0264077451902364" flag="0"/>
			<psa30 value="0.00155792363444822" flag="0"/>
		</comp>
		<comp name="--.HNN" depth="0.0">
			<acc value="0.0172917643845277" flag="0"/>
			<vel value="0.0156763923260706" flag="0"/>
			<psa03 value="0.0338251082034135" flag="0"/>
			<psa10 value="0.0296533448583258" flag="0"/>
			<psa30 value="0.00127604773275311" flag="0"/>
		</comp>
		<comp name="--.HNZ" depth="0.0">
			<acc value="0.00947741127926036" flag="0"/>
			<vel value="0.00899279561006458" flag="0"/>
			<psa03 value="0.0211183215238243" flag="0"/>
			<psa10 value="0.0203192257136219" flag="0"/>
			<psa30 value="0.000804912297062709" flag="0"/>
		</comp>
	</station>
	<station code="NPS1" name="NPS1" netid="HI" source="ITSAK Strong Motion Network" insttype="" lat="36.51263" lon="23.06248">
		<comp name="--.HNE" depth="0.0">
			<acc value="0.00994765590653377" flag="0"/>
			<vel value="0.0049101971252832" flag="0"/>
			<psa03 value="0.0272480038305275" flag="0"/>
			<psa10 value="0.00364425272905823" flag="0"/>
			<psa30 value="0.000222816188958993" flag="0"/>
		</comp>
		<comp name="--.HNN" depth="0.0">
			<acc value="0.0110053817070848" flag="0"/>
			<vel value="0.0053152366644258" flag="0"/>
			<psa03 value="0.0255030577724149" flag="0"/>
			<psa10 value="0.00433686208750908" flag="0"/>
			<psa30 value="0.000259952220452159" flag="0"/>
		</comp>
		<comp name="--.HNZ" depth="0.0">
			<acc value="0.00790388840053739" flag="0"/>
			<vel value="0.00312181592350513" flag="0"/>
			<psa03 value="0.0171810073414164" flag="0"/>
			<psa10 value="0.00141743310566685" flag="0"/>
			<psa30 value="0.000237581117143023" flag="0"/>
		</comp>
	</station>
	<station code="IMMV" name="IMMV" netid="HL" source="National Observatory of Athens Seismic Network" insttype="" lat="35.4606" lon="23.9811">
		<comp name="--.HNE" depth="0.0">
			<acc value="0.0179059871284686" flag="0"/>
			<vel value="0.0146156202227319" flag="0"/>
			<psa03 value="0.0589702283228822" flag="0"/>
			<psa10 value="0.0142468134313901" flag="0"/>
			<psa30 value="0.000842495750622057" flag="0"/>
		</comp>
		<comp name="--.HNN" depth="0.0">
			<acc value="0.0158400920407803" flag="0"/>
			<vel value="0.0147652643528023" flag="0"/>
			<psa03 value="0.0633997067780911" flag="0"/>
			<psa10 value="0.0127327371594278" flag="0"/>
			<psa30 value="0.00103891403767627" flag="0"/>
		</comp>
		<comp name="--.HNZ" depth="0.0">
			<acc value="0.0135957269492193" flag="0"/>
			<vel value="0.0112124124210966" flag="0"/>
			<psa03 value="0.0485452941808249" flag="0"/>
			<psa10 value="0.00649925293337015" flag="0"/>
			<psa30 value="0.000493059116933355" flag="0"/>
		</comp>
	</station>
</stationlist>
