<?xml version="1.0" encoding="UTF-8" standalone="yes"?>
<!DOCTYPE earthquake SYSTEM "stationlist.dtd">
<stationlist created="" xmlns="ch.ethz.sed.shakemap.usgs.xml">
  <station code="DYBB" name="DYBB" netid="KO" insttype="CMG-3T" lat="37.9532" lon="40.1393">
    <comp name="--.HHN">
      <acc value="0.0019570507" flag="0"/>
      <vel value="0.0012597371" flag="0"/>
      <psa03 value="0.0053616719" flag="0"/>
      <psa10 value="0.0013240268" flag="0"/>
      <psa30 value="0.0004094608" flag="0"/>
    </comp>
    <comp name="--.HHE">
      <acc value="0.0015739504" flag="0"/>
      <vel value="0.0009833545" flag="0"/>
      <psa03 value="0.0041664755" flag="0"/>
      <psa10 value="0.0018844203" flag="0"/>
      <psa30 value="0.0001376853" flag="0"/>
    </comp>
    <comp name="--.HHZ">
      <acc value="0.0011910034" flag="0"/>
      <vel value="0.0004881090" flag="0"/>
      <psa03 value="0.0019130385" flag="0"/>
      <psa10 value="0.0006658727" flag="0"/>
      <psa30 value="0.0001021015" flag="0"/>
    </comp>
  </station>
  <station code="SVRC" name="SVRC" netid="KO" insttype="CMG-3T" lat="38.3775" lon="39.306">
    <comp name="--.HHE">
      <acc value="0.0065688428" flag="0"/>
      <vel value="0.0028331089" flag="0"/>
      <psa03 value="0.0185254557" flag="0"/>
      <psa10 value="0.0027557760" flag="0"/>
      <psa30 value="0.0001712081" flag="0"/>
    </comp>
    <comp name="--.HHN">
      <acc value="0.0060251568" flag="0"/>
      <vel value="0.0021852719" flag="0"/>
      <psa03 value="0.0130803151" flag="0"/>
      <psa10 value="0.0019157118" flag="0"/>
      <psa30 value="0.0001994209" flag="0"/>
    </comp>
    <comp name="--.HHZ">
      <acc value="0.0066619910" flag="0"/>
      <vel value="0.0021137137" flag="0"/>
      <psa03 value="0.0130973031" flag="0"/>
      <psa10 value="0.0014948297" flag="0"/>
      <psa30 value="0.0002707001" flag="0"/>
    </comp>
  </station>
  <station code="URFA" name="URFA" netid="KO" insttype="CMG-3ESP" lat="37.4409" lon="38.8213">
    <comp name="--.HHE">
      <acc value="0.0073852101" flag="0"/>
      <vel value="0.0026656149" flag="0"/>
      <psa03 value="0.0093747991" flag="0"/>
      <psa10 value="0.0022414552" flag="0"/>
      <psa30 value="0.0004314108" flag="0"/>
    </comp>
    <comp name="--.HHN">
      <acc value="0.0047521775" flag="0"/>
      <vel value="0.0017280927" flag="0"/>
      <psa03 value="0.0052702578" flag="0"/>
      <psa10 value="0.0014789692" flag="0"/>
      <psa30 value="0.0001805829" flag="0"/>
    </comp>
    <comp name="--.HHZ">
      <acc value="0.0074901766" flag="0"/>
      <vel value="0.0009575869" flag="0"/>
      <psa03 value="0.0052099320" flag="0"/>
      <psa10 value="0.0008634655" flag="0"/>
      <psa30 value="0.0001163386" flag="0"/>
    </comp>
  </station>
</stationlist>
