<?xml version="1.0" encoding="UTF-8" standalone="yes"?>
<!DOCTYPE earthquake SYSTEM "stationlist.dtd">
<stationlist created="" xmlns="ch.ethz.sed.shakemap.usgs.xml">
  <station code="AGRP" name="AGRP" netid="CL" source="RESIF" insttype="30" lat="38.3959" lon="21.7228">
    <comp name="00.HHE">
      <acc value="0.0029513472" flag="0"/>
      <vel value="0.0035280283" flag="0"/>
      <psa03 value="0.0056714427" flag="0"/>
      <psa10 value="0.0055223243" flag="0"/>
      <psa30 value="0.0010713201" flag="0"/>
    </comp>
    <comp name="00.HHN">
      <acc value="0.0023061463" flag="0"/>
      <vel value="0.0028756972" flag="0"/>
      <psa03 value="0.0060634180" flag="0"/>
      <psa10 value="0.0059335973" flag="0"/>
      <psa30 value="0.0007353377" flag="0"/>
    </comp>
    <comp name="00.HHZ">
      <acc value="0.0015247159" flag="0"/>
      <vel value="0.0019474244" flag="0"/>
      <psa03 value="0.0033512473" flag="0"/>
      <psa10 value="0.0031722003" flag="0"/>
      <psa30 value="0.0005854263" flag="0"/>
    </comp>
  </station>
  <station code="KRI1" name="KRI1" netid="HI" source="NOA" insttype="CMG-5TD,ACCELEROMETER,GURALP" lat="37.6621" lon="20.8172">
    <comp name="--.HNE">
      <acc value="0.0761513885" flag="0"/>
      <vel value="0.0590731741" flag="0"/>
      <psa03 value="0.1559553881" flag="0"/>
      <psa10 value="0.0427036027" flag="0"/>
      <psa30 value="0.0039464383" flag="0"/>
    </comp>
    <comp name="--.HNN">
      <acc value="0.0773195594" flag="0"/>
      <vel value="0.0399236089" flag="0"/>
      <psa03 value="0.2130528715" flag="0"/>
      <psa10 value="0.0515930581" flag="0"/>
      <psa30 value="0.0056588806" flag="0"/>
    </comp>
    <comp name="--.HNZ">
      <acc value="0.0424944689" flag="0"/>
      <vel value="0.0198533491" flag="0"/>
      <psa03 value="0.0764753732" flag="0"/>
      <psa10 value="0.0244456641" flag="0"/>
      <psa30 value="0.0076417601" flag="0"/>
    </comp>
  </station>
  <station code="ITM" name="ITM" netid="HL" source="NOA" insttype="DR24" lat="37.1787" lon="21.9252">
    <comp name="--.HHE">
      <acc value="0.0018755082" flag="0"/>
      <vel value="0.0016901455" flag="0"/>
      <psa03 value="0.0047211312" flag="0"/>
      <psa10 value="0.0013406700" flag="0"/>
      <psa30 value="0.0008718565" flag="0"/>
    </comp>
    <comp name="--.HHN">
      <acc value="0.0017619303" flag="0"/>
      <vel value="0.0013529560" flag="0"/>
      <psa03 value="0.0050490657" flag="0"/>
      <psa10 value="0.0031559019" flag="0"/>
      <psa30 value="0.0007648459" flag="0"/>
    </comp>
    <comp name="--.HHZ">
      <acc value="0.0015150300" flag="0"/>
      <vel value="0.0014602122" flag="0"/>
      <psa03 value="0.0031348806" flag="0"/>
      <psa10 value="0.0027898424" flag="0"/>
      <psa30 value="0.0006768876" flag="0"/>
    </comp>
  </station>
  <station code="VLS" name="VLS" netid="HL" source="NOA" insttype="120P," lat="38.1768" lon="20.5886">
    <comp name="--.HHE">
      <acc value="0.0477922658" flag="0"/>
      <vel value="0.0110009401" flag="0"/>
      <psa03 value="0.0793894864" flag="0"/>
      <psa10 value="0.0082063234" flag="0"/>
      <psa30 value="0.0005277060" flag="0"/>
    </comp>
    <comp name="--.HHN">
      <acc value="0.0304876554" flag="0"/>
      <vel value="0.0098648997" flag="0"/>
      <psa03 value="0.0758996941" flag="0"/>
      <psa10 value="0.0090178619" flag="0"/>
      <psa30 value="0.0010429739" flag="0"/>
    </comp>
    <comp name="--.HHZ">
      <acc value="0.0270164918" flag="0"/>
      <vel value="0.0082564450" flag="0"/>
      <psa03 value="0.0492022880" flag="0"/>
      <psa10 value="0.0061234546" flag="0"/>
      <psa30 value="0.0008748747" flag="0"/>
    </comp>
  </station>
  <station code="AMT" name="AMT" netid="HP" source="NOA" insttype="CMG-3T," lat="37.5324" lon="21.7089">
    <comp name="00.HHE">
      <acc value="0.0054768126" flag="0"/>
      <vel value="0.0056503538" flag="0"/>
      <psa03 value="0.0183112862" flag="0"/>
      <psa10 value="0.0121271077" flag="0"/>
      <psa30 value="0.0007545619" flag="0"/>
    </comp>
    <comp name="00.HHN">
      <acc value="0.0075910160" flag="0"/>
      <vel value="0.0070470081" flag="0"/>
      <psa03 value="0.0138149925" flag="0"/>
      <psa10 value="0.0086036217" flag="0"/>
      <psa30 value="0.0008850888" flag="0"/>
    </comp>
    <comp name="00.HHZ">
      <acc value="0.0043110631" flag="0"/>
      <vel value="0.0028055681" flag="0"/>
      <psa03 value="0.0092382862" flag="0"/>
      <psa10 value="0.0043714223" flag="0"/>
      <psa30 value="0.0003833870" flag="0"/>
    </comp>
  </station>
  <station code="AXS" name="AXS" netid="HP" source="NOA" insttype="40," lat="38.1962" lon="21.3763">
    <comp name="--.HHE">
      <acc value="0.0019205012" flag="0"/>
      <vel value="0.0017105220" flag="0"/>
      <psa03 value="0.0050357446" flag="0"/>
      <psa10 value="0.0030311438" flag="0"/>
      <psa30 value="0.0003310805" flag="0"/>
    </comp>
    <comp name="--.HHE">
      <acc value="0.0019205012" flag="0"/>
      <vel value="0.0017105220" flag="0"/>
      <psa03 value="0.0050357446" flag="0"/>
      <psa10 value="0.0030311438" flag="0"/>
      <psa30 value="0.0003310805" flag="0"/>
    </comp>
    <comp name="--.HHN">
      <acc value="0.0022597201" flag="0"/>
      <vel value="0.0024824328" flag="0"/>
      <psa03 value="0.0067476193" flag="0"/>
      <psa10 value="0.0041341363" flag="0"/>
      <psa30 value="0.0003469109" flag="0"/>
    </comp>
    <comp name="--.HHN">
      <acc value="0.0022597201" flag="0"/>
      <vel value="0.0024824328" flag="0"/>
      <psa03 value="0.0067476193" flag="0"/>
      <psa10 value="0.0041341363" flag="0"/>
      <psa30 value="0.0003469109" flag="0"/>
    </comp>
    <comp name="--.HHZ">
      <acc value="0.0018813500" flag="0"/>
      <vel value="0.0015426127" flag="0"/>
      <psa03 value="0.0036138723" flag="0"/>
      <psa10 value="0.0029105840" flag="0"/>
      <psa30 value="0.0003108023" flag="0"/>
    </comp>
    <comp name="--.HHZ">
      <acc value="0.0018813500" flag="0"/>
      <vel value="0.0015426127" flag="0"/>
      <psa03 value="0.0036138723" flag="0"/>
      <psa10 value="0.0029105840" flag="0"/>
      <psa30 value="0.0003108023" flag="0"/>
    </comp>
  </station>
  <station code="DRO" name="DRO" netid="HP" source="NOA" insttype="120P," lat="37.952" lon="21.71">
    <comp name="--.HHE">
      <acc value="0.0074257481" flag="0"/>
      <vel value="0.0070811488" flag="0"/>
      <psa03 value="0.0197679421" flag="0"/>
      <psa10 value="0.0110276671" flag="0"/>
      <psa30 value="0.0008424408" flag="0"/>
    </comp>
    <comp name="--.HHN">
      <acc value="0.0075231839" flag="0"/>
      <vel value="0.0058337121" flag="0"/>
      <psa03 value="0.0151905867" flag="0"/>
      <psa10 value="0.0059164099" flag="0"/>
      <psa30 value="0.0010265230" flag="0"/>
    </comp>
    <comp name="--.HHZ">
      <acc value="0.0039983379" flag="0"/>
      <vel value="0.0028773879" flag="0"/>
      <psa03 value="0.0107481680" flag="0"/>
      <psa10 value="0.0041791640" flag="0"/>
      <psa30 value="0.0007234143" flag="0"/>
    </comp>
  </station>
  <station code="FSK" name="FSK" netid="HP" source="NOA" insttype="40," lat="38.4593" lon="20.5623">
    <comp name="--.HHE">
      <acc value="0.0143276069" flag="0"/>
      <vel value="0.0099920899" flag="0"/>
      <psa03 value="0.0271939322" flag="0"/>
      <psa10 value="0.0146096237" flag="0"/>
      <psa30 value="0.0016080507" flag="0"/>
    </comp>
    <comp name="--.HHN">
      <acc value="0.0091483137" flag="0"/>
      <vel value="0.0063356846" flag="0"/>
      <psa03 value="0.0240722589" flag="0"/>
      <psa10 value="0.0102445155" flag="0"/>
      <psa30 value="0.0005595841" flag="0"/>
    </comp>
    <comp name="--.HHZ">
      <acc value="0.0085444819" flag="0"/>
      <vel value="0.0049966436" flag="0"/>
      <psa03 value="0.0276334283" flag="0"/>
      <psa10 value="0.0071139535" flag="0"/>
      <psa30 value="0.0003912140" flag="0"/>
    </comp>
  </station>
  <station code="LTHK" name="LTHK" netid="HP" source="NOA" insttype="40," lat="37.7095" lon="20.8367">
    <comp name="--.HHE">
      <acc value="0.1833243291" flag="0"/>
      <vel value="0.0493829890" flag="0"/>
      <psa03 value="0.1771747713" flag="0"/>
      <psa10 value="0.0590082522" flag="0"/>
      <psa30 value="0.0077302282" flag="0"/>
    </comp>
    <comp name="--.HHN">
      <acc value="0.1219124235" flag="0"/>
      <vel value="0.0433025215" flag="0"/>
      <psa03 value="0.0958959662" flag="0"/>
      <psa10 value="0.0362671404" flag="0"/>
      <psa30 value="0.0070269821" flag="0"/>
    </comp>
    <comp name="--.HHZ">
      <acc value="0.0635387344" flag="0"/>
      <vel value="0.0347820451" flag="0"/>
      <psa03 value="0.0937484498" flag="0"/>
      <psa10 value="0.0407675305" flag="0"/>
      <psa30 value="0.0074629176" flag="0"/>
    </comp>
  </station>
  <station code="DMLN" name="DMLN" netid="HT" source="NOA" insttype="1s-100Hz," lat="38.2385" lon="20.3734">
    <comp name="--.HHE">
      <acc value="0.0346075380" flag="0"/>
      <vel value="0.0260544387" flag="0"/>
      <psa03 value="0.0896383466" flag="0"/>
      <psa10 value="0.0341430877" flag="0"/>
      <psa30 value="0.0017965493" flag="0"/>
    </comp>
    <comp name="--.HHN">
      <acc value="0.0485502236" flag="0"/>
      <vel value="0.0332302001" flag="0"/>
      <psa03 value="0.1395309180" flag="0"/>
      <psa10 value="0.0549135537" flag="0"/>
      <psa30 value="0.0021994859" flag="0"/>
    </comp>
    <comp name="--.HHZ">
      <acc value="0.0280691576" flag="0"/>
      <vel value="0.0177670012" flag="0"/>
      <psa03 value="0.0600722272" flag="0"/>
      <psa10 value="0.0154514030" flag="0"/>
      <psa30 value="0.0009791590" flag="0"/>
    </comp>
  </station>
  <station code="DRAG" name="DRAG" netid="HT" source="NOA" insttype="1s-100Hz," lat="38.6839" lon="20.5746">
    <comp name="--.HHE">
      <acc value="0.0001687077" flag="0"/>
      <vel value="0.0000875224" flag="0"/>
      <psa03 value="0.0005546446" flag="0"/>
      <psa10 value="0.0000728883" flag="0"/>
      <psa30 value="0.0000077125" flag="0"/>
    </comp>
    <comp name="--.HHN">
      <acc value="0.0000418539" flag="0"/>
      <vel value="0.0000086938" flag="0"/>
      <psa03 value="0.0000389556" flag="0"/>
      <psa10 value="0.0000080537" flag="0"/>
      <psa30 value="0.0000031680" flag="0"/>
    </comp>
    <comp name="--.HHZ">
      <acc value="0.0010680842" flag="0"/>
      <vel value="0.0005386826" flag="0"/>
      <psa03 value="0.0026422005" flag="0"/>
      <psa10 value="0.0004721781" flag="0"/>
      <psa30 value="0.0000926692" flag="0"/>
    </comp>
  </station>
  <station code="LKD2" name="LKD2" netid="HT" source="NOA" insttype="100" lat="38.7889" lon="20.6578">
    <comp name="--.HHE">
      <acc value="0.0087715213" flag="0"/>
      <vel value="0.0066943691" flag="0"/>
      <psa03 value="0.0310761431" flag="0"/>
      <psa10 value="0.0085769031" flag="0"/>
      <psa30 value="0.0010237859" flag="0"/>
    </comp>
    <comp name="--.HHN">
      <acc value="0.0080769166" flag="0"/>
      <vel value="0.0049994790" flag="0"/>
      <psa03 value="0.0142355685" flag="0"/>
      <psa10 value="0.0132594513" flag="0"/>
      <psa30 value="0.0007649636" flag="0"/>
    </comp>
    <comp name="--.HHZ">
      <acc value="0.0048608707" flag="0"/>
      <vel value="0.0030857867" flag="0"/>
      <psa03 value="0.0147413542" flag="0"/>
      <psa10 value="0.0065693715" flag="0"/>
      <psa30 value="0.0005893497" flag="0"/>
    </comp>
  </station>
  <station code="NYDR" name="NYDR" netid="HT" source="NOA" insttype="1s-100Hz," lat="38.7135" lon="20.6983">
    <comp name="--.HHE">
      <acc value="0.0066082104" flag="0"/>
      <vel value="0.0067436334" flag="0"/>
      <psa03 value="0.0220888228" flag="0"/>
      <psa10 value="0.0048730652" flag="0"/>
      <psa30 value="0.0010855397" flag="0"/>
    </comp>
    <comp name="--.HHN">
      <acc value="0.0076720770" flag="0"/>
      <vel value="0.0044632478" flag="0"/>
      <psa03 value="0.0276115255" flag="0"/>
      <psa10 value="0.0065946028" flag="0"/>
      <psa30 value="0.0004278490" flag="0"/>
    </comp>
    <comp name="--.HHZ">
      <acc value="0.0055697909" flag="0"/>
      <vel value="0.0043105868" flag="0"/>
      <psa03 value="0.0139628844" flag="0"/>
      <psa10 value="0.0074811985" flag="0"/>
      <psa30 value="0.0005783439" flag="0"/>
    </comp>
  </station>
  <station code="TSLK" name="TSLK" netid="HT" source="NOA" insttype="1s-100Hz," lat="38.8249" lon="20.6554">
    <comp name="--.HHE">
      <acc value="0.0117304954" flag="0"/>
      <vel value="0.0108673542" flag="0"/>
      <psa03 value="0.0444415372" flag="0"/>
      <psa10 value="0.0269715398" flag="0"/>
      <psa30 value="0.0026637874" flag="0"/>
    </comp>
    <comp name="--.HHN">
      <acc value="0.0091086034" flag="0"/>
      <vel value="0.0077336675" flag="0"/>
      <psa03 value="0.0378320720" flag="0"/>
      <psa10 value="0.0228189539" flag="0"/>
      <psa30 value="0.0013814523" flag="0"/>
    </comp>
    <comp name="--.HHZ">
      <acc value="0.0057373162" flag="0"/>
      <vel value="0.0036701122" flag="0"/>
      <psa03 value="0.0133352694" flag="0"/>
      <psa10 value="0.0057479004" flag="0"/>
      <psa30 value="0.0011818151" flag="0"/>
    </comp>
  </station>
</stationlist>
